[{"name":"Aberfelds Gäßchen","postalCode":"53639","locality":"Königswinter","municipality":{"key":"05382024","name":"Königswinter, Stadt","type":"Stadt"},"district":{"key":"05382","name":"Rhein-Sieg-Kreis","type":"Kreis"},"federalState":{"key":"05","name":"Nordrhein-Westfalen"}},{"name":"Ackerweg","postalCode":"53639","locality":"Königswinter","municipality":{"key":"05382024","name":"Königswinter, Stadt","type":"Stadt"},"district":{"key":"05382","name":"Rhein-Sieg-Kreis","type":"Kreis"},"federalState":{"key":"05","name":"Nordrhein-Westfalen"}},{"name":"Adolf-Kolping-Str.","postalCode":"53639","locality":"Königswinter","municipality":{"key":"05382024","name":"Königswinter, Stadt","type":"Stadt"},"district":{"key":"05382","name":"Rhein-Sieg-Kreis","type":"Kreis"},"federalState":{"key":"05","name":"Nordrhein-Westfalen"}},{"name":"Adriansberg","postalCode":"53639","locality":"Königswinter","municipality":{"key":"05382024","name":"Königswinter, Stadt","type":"Stadt"},"district":{"key":"05382","name":"Rhein-Sieg-Kreis","type":"Kreis"},"federalState":{"key":"05","name":"Nordrhein-Westfalen"}},{"name":"Aegidienberger Str.","postalCode":"53639","locality":"Königswinter","municipality":{"key":"05382024","name":"Königswinter, Stadt","type":"Stadt"},"district":{"key":"05382","name":"Rhein-Sieg-Kreis","type":"Kreis"},"federalState":{"key":"05","name":"Nordrhein-Westfalen"}},{"name":"Ahornweg","postalCode":"53639","locality":"Königswinter","municipality":{"key":"05382024","name":"Königswinter, Stadt","type":"Stadt"},"district":{"key":"05382","name":"Rhein-Sieg-Kreis","type":"Kreis"},"federalState":{"key":"05","name":"Nordrhein-Westfalen"}},{"name":"Alte Dorfstr.","postalCode":"53639","locality":"Königswinter","municipality":{"key":"05382024","name":"Königswinter, Stadt","type":"Stadt"},"district":{"key":"05382","name":"Rhein-Sieg-Kreis","type":"Kreis"},"federalState":{"key":"05","name":"Nordrhein-Westfalen"}},{"name":"Altenberger Gasse","postalCode":"53639","locality":"Königswinter","municipality":{"key":"05382024","name":"Königswinter, Stadt","type":"Stadt"},"district":{"key":"05382","name":"Rhein-Sieg-Kreis","type":"Kreis"},"federalState":{"key":"05","name":"Nordrhein-Westfalen"}},{"name":"Alte Poststr.","postalCode":"53639","locality":"Königswinter","municipality":{"key":"05382024","name":"Königswinter, Stadt","type":"Stadt"},"district":{"key":"05382","name":"Rhein-Sieg-Kreis","type":"Kreis"},"federalState":{"key":"05","name":"Nordrhein-Westfalen"}},{"name":"Alter Heeresweg","postalCode":"53639","locality":"Königswinter","municipality":{"key":"05382024","name":"Königswinter, Stadt","type":"Stadt"},"district":{"key":"05382","name":"Rhein-Sieg-Kreis","type":"Kreis"},"federalState":{"key":"05","name":"Nordrhein-Westfalen"}},{"name":"Alte Winkelgasse","postalCode":"53639","locality":"Königswinter","municipality":{"key":"05382024","name":"Königswinter, Stadt","type":"Stadt"},"district":{"key":"05382","name":"Rhein-Sieg-Kreis","type":"Kreis"},"federalState":{"key":"05","name":"Nordrhein-Westfalen"}},{"name":"Alt Oelinghoven","postalCode":"53639","locality":"Königswinter","municipality":{"key":"05382024","name":"Königswinter, Stadt","type":"Stadt"},"district":{"key":"05382","name":"Rhein-Sieg-Kreis","type":"Kreis"},"federalState":{"key":"05","name":"Nordrhein-Westfalen"}},{"name":"Am Alten Bann","postalCode":"53639","locality":"Königswinter","municipality":{"key":"05382024","name":"Königswinter, Stadt","type":"Stadt"},"district":{"key":"05382","name":"Rhein-Sieg-Kreis","type":"Kreis"},"federalState":{"key":"05","name":"Nordrhein-Westfalen"}},{"name":"Am Alten Kirchweg","postalCode":"53639","locality":"Königswinter","municipality":{"key":"05382024","name":"Königswinter, Stadt","type":"Stadt"},"district":{"key":"05382","name":"Rhein-Sieg-Kreis","type":"Kreis"},"federalState":{"key":"05","name":"Nordrhein-Westfalen"}},{"name":"Am Bachstein","postalCode":"53639","locality":"Königswinter","municipality":{"key":"05382024","name":"Königswinter, Stadt","type":"Stadt"},"district":{"key":"05382","name":"Rhein-Sieg-Kreis","type":"Kreis"},"federalState":{"key":"05","name":"Nordrhein-Westfalen"}},{"name":"Am Basaltbrecher","postalCode":"53639","locality":"Königswinter","municipality":{"key":"05382024","name":"Königswinter, Stadt","type":"Stadt"},"district":{"key":"05382","name":"Rhein-Sieg-Kreis","type":"Kreis"},"federalState":{"key":"05","name":"Nordrhein-Westfalen"}},{"name":"Am Berghang","postalCode":"53639","locality":"Königswinter","municipality":{"key":"05382024","name":"Königswinter, Stadt","type":"Stadt"},"district":{"key":"05382","name":"Rhein-Sieg-Kreis","type":"Kreis"},"federalState":{"key":"05","name":"Nordrhein-Westfalen"}},{"name":"Am Blauen See","postalCode":"53639","locality":"Königswinter","municipality":{"key":"05382024","name":"Königswinter, Stadt","type":"Stadt"},"district":{"key":"05382","name":"Rhein-Sieg-Kreis","type":"Kreis"},"federalState":{"key":"05","name":"Nordrhein-Westfalen"}},{"name":"Am Brünnchen","postalCode":"53639","locality":"Königswinter","municipality":{"key":"05382024","name":"Königswinter, Stadt","type":"Stadt"},"district":{"key":"05382","name":"Rhein-Sieg-Kreis","type":"Kreis"},"federalState":{"key":"05","name":"Nordrhein-Westfalen"}},{"name":"Am Buchenwald","postalCode":"53639","locality":"Königswinter","municipality":{"key":"05382024","name":"Königswinter, Stadt","type":"Stadt"},"district":{"key":"05382","name":"Rhein-Sieg-Kreis","type":"Kreis"},"federalState":{"key":"05","name":"Nordrhein-Westfalen"}},{"name":"Am Domstein","postalCode":"53639","locality":"Königswinter","municipality":{"key":"05382024","name":"Königswinter, Stadt","type":"Stadt"},"district":{"key":"05382","name":"Rhein-Sieg-Kreis","type":"Kreis"},"federalState":{"key":"05","name":"Nordrhein-Westfalen"}},{"name":"Am Dornenkreuz","postalCode":"53639","locality":"Königswinter","municipality":{"key":"05382024","name":"Königswinter, Stadt","type":"Stadt"},"district":{"key":"05382","name":"Rhein-Sieg-Kreis","type":"Kreis"},"federalState":{"key":"05","name":"Nordrhein-Westfalen"}},{"name":"Am Dreieck","postalCode":"53639","locality":"Königswinter","municipality":{"key":"05382024","name":"Königswinter, Stadt","type":"Stadt"},"district":{"key":"05382","name":"Rhein-Sieg-Kreis","type":"Kreis"},"federalState":{"key":"05","name":"Nordrhein-Westfalen"}},{"name":"Am Eichholz","postalCode":"53639","locality":"Königswinter","municipality":{"key":"05382024","name":"Königswinter, Stadt","type":"Stadt"},"district":{"key":"05382","name":"Rhein-Sieg-Kreis","type":"Kreis"},"federalState":{"key":"05","name":"Nordrhein-Westfalen"}},{"name":"Am Forstkreuz","postalCode":"53639","locality":"Königswinter","municipality":{"key":"05382024","name":"Königswinter, Stadt","type":"Stadt"},"district":{"key":"05382","name":"Rhein-Sieg-Kreis","type":"Kreis"},"federalState":{"key":"05","name":"Nordrhein-Westfalen"}},{"name":"Am Frohnacker","postalCode":"53639","locality":"Königswinter","municipality":{"key":"05382024","name":"Königswinter, Stadt","type":"Stadt"},"district":{"key":"05382","name":"Rhein-Sieg-Kreis","type":"Kreis"},"federalState":{"key":"05","name":"Nordrhein-Westfalen"}},{"name":"Am Fronhof","postalCode":"53639","locality":"Königswinter","municipality":{"key":"05382024","name":"Königswinter, Stadt","type":"Stadt"},"district":{"key":"05382","name":"Rhein-Sieg-Kreis","type":"Kreis"},"federalState":{"key":"05","name":"Nordrhein-Westfalen"}},{"name":"Am Grünen Berg","postalCode":"53639","locality":"Königswinter","municipality":{"key":"05382024","name":"Königswinter, Stadt","type":"Stadt"},"district":{"key":"05382","name":"Rhein-Sieg-Kreis","type":"Kreis"},"federalState":{"key":"05","name":"Nordrhein-Westfalen"}},{"name":"Am Hang","postalCode":"53639","locality":"Königswinter","municipality":{"key":"05382024","name":"Königswinter, Stadt","type":"Stadt"},"district":{"key":"05382","name":"Rhein-Sieg-Kreis","type":"Kreis"},"federalState":{"key":"05","name":"Nordrhein-Westfalen"}},{"name":"Am Härenberg","postalCode":"53639","locality":"Königswinter","municipality":{"key":"05382024","name":"Königswinter, Stadt","type":"Stadt"},"district":{"key":"05382","name":"Rhein-Sieg-Kreis","type":"Kreis"},"federalState":{"key":"05","name":"Nordrhein-Westfalen"}},{"name":"Am Heckelchen","postalCode":"53639","locality":"Königswinter","municipality":{"key":"05382024","name":"Königswinter, Stadt","type":"Stadt"},"district":{"key":"05382","name":"Rhein-Sieg-Kreis","type":"Kreis"},"federalState":{"key":"05","name":"Nordrhein-Westfalen"}},{"name":"Am Heidchen","postalCode":"53639","locality":"Königswinter","municipality":{"key":"05382024","name":"Königswinter, Stadt","type":"Stadt"},"district":{"key":"05382","name":"Rhein-Sieg-Kreis","type":"Kreis"},"federalState":{"key":"05","name":"Nordrhein-Westfalen"}},{"name":"Am Herresbacher Bahnhof","postalCode":"53639","locality":"Königswinter","municipality":{"key":"05382024","name":"Königswinter, Stadt","type":"Stadt"},"district":{"key":"05382","name":"Rhein-Sieg-Kreis","type":"Kreis"},"federalState":{"key":"05","name":"Nordrhein-Westfalen"}},{"name":"Am Herzleiterbach","postalCode":"53639","locality":"Königswinter","municipality":{"key":"05382024","name":"Königswinter, Stadt","type":"Stadt"},"district":{"key":"05382","name":"Rhein-Sieg-Kreis","type":"Kreis"},"federalState":{"key":"05","name":"Nordrhein-Westfalen"}},{"name":"Am Hof","postalCode":"53639","locality":"Königswinter","municipality":{"key":"05382024","name":"Königswinter, Stadt","type":"Stadt"},"district":{"key":"05382","name":"Rhein-Sieg-Kreis","type":"Kreis"},"federalState":{"key":"05","name":"Nordrhein-Westfalen"}},{"name":"Am Jufferhof","postalCode":"53639","locality":"Königswinter","municipality":{"key":"05382024","name":"Königswinter, Stadt","type":"Stadt"},"district":{"key":"05382","name":"Rhein-Sieg-Kreis","type":"Kreis"},"federalState":{"key":"05","name":"Nordrhein-Westfalen"}},{"name":"Am Kachelstein","postalCode":"53639","locality":"Königswinter","municipality":{"key":"05382024","name":"Königswinter, Stadt","type":"Stadt"},"district":{"key":"05382","name":"Rhein-Sieg-Kreis","type":"Kreis"},"federalState":{"key":"05","name":"Nordrhein-Westfalen"}},{"name":"Am Krahfeld","postalCode":"53639","locality":"Königswinter","municipality":{"key":"05382024","name":"Königswinter, Stadt","type":"Stadt"},"district":{"key":"05382","name":"Rhein-Sieg-Kreis","type":"Kreis"},"federalState":{"key":"05","name":"Nordrhein-Westfalen"}},{"name":"Am Lessing","postalCode":"53639","locality":"Königswinter","municipality":{"key":"05382024","name":"Königswinter, Stadt","type":"Stadt"},"district":{"key":"05382","name":"Rhein-Sieg-Kreis","type":"Kreis"},"federalState":{"key":"05","name":"Nordrhein-Westfalen"}},{"name":"Am Liesenberg","postalCode":"53639","locality":"Königswinter","municipality":{"key":"05382024","name":"Königswinter, Stadt","type":"Stadt"},"district":{"key":"05382","name":"Rhein-Sieg-Kreis","type":"Kreis"},"federalState":{"key":"05","name":"Nordrhein-Westfalen"}},{"name":"Am Limperichsberg","postalCode":"53639","locality":"Königswinter","municipality":{"key":"05382024","name":"Königswinter, Stadt","type":"Stadt"},"district":{"key":"05382","name":"Rhein-Sieg-Kreis","type":"Kreis"},"federalState":{"key":"05","name":"Nordrhein-Westfalen"}},{"name":"Am Lindenbaum","postalCode":"53639","locality":"Königswinter","municipality":{"key":"05382024","name":"Königswinter, Stadt","type":"Stadt"},"district":{"key":"05382","name":"Rhein-Sieg-Kreis","type":"Kreis"},"federalState":{"key":"05","name":"Nordrhein-Westfalen"}},{"name":"Am Lützbach","postalCode":"53639","locality":"Königswinter","municipality":{"key":"05382024","name":"Königswinter, Stadt","type":"Stadt"},"district":{"key":"05382","name":"Rhein-Sieg-Kreis","type":"Kreis"},"federalState":{"key":"05","name":"Nordrhein-Westfalen"}},{"name":"Am Nikolausbach","postalCode":"53639","locality":"Königswinter","municipality":{"key":"05382024","name":"Königswinter, Stadt","type":"Stadt"},"district":{"key":"05382","name":"Rhein-Sieg-Kreis","type":"Kreis"},"federalState":{"key":"05","name":"Nordrhein-Westfalen"}},{"name":"Am Offermannsberg","postalCode":"53639","locality":"Königswinter","municipality":{"key":"05382024","name":"Königswinter, Stadt","type":"Stadt"},"district":{"key":"05382","name":"Rhein-Sieg-Kreis","type":"Kreis"},"federalState":{"key":"05","name":"Nordrhein-Westfalen"}},{"name":"Am Ordensgut","postalCode":"53639","locality":"Königswinter","municipality":{"key":"05382024","name":"Königswinter, Stadt","type":"Stadt"},"district":{"key":"05382","name":"Rhein-Sieg-Kreis","type":"Kreis"},"federalState":{"key":"05","name":"Nordrhein-Westfalen"}},{"name":"Am Osthang","postalCode":"53639","locality":"Königswinter","municipality":{"key":"05382024","name":"Königswinter, Stadt","type":"Stadt"},"district":{"key":"05382","name":"Rhein-Sieg-Kreis","type":"Kreis"},"federalState":{"key":"05","name":"Nordrhein-Westfalen"}},{"name":"Am Palastweiher","postalCode":"53639","locality":"Königswinter","municipality":{"key":"05382024","name":"Königswinter, Stadt","type":"Stadt"},"district":{"key":"05382","name":"Rhein-Sieg-Kreis","type":"Kreis"},"federalState":{"key":"05","name":"Nordrhein-Westfalen"}},{"name":"Am Pleisbach","postalCode":"53639","locality":"Königswinter","municipality":{"key":"05382024","name":"Königswinter, Stadt","type":"Stadt"},"district":{"key":"05382","name":"Rhein-Sieg-Kreis","type":"Kreis"},"federalState":{"key":"05","name":"Nordrhein-Westfalen"}},{"name":"Am Rankemich","postalCode":"53639","locality":"Königswinter","municipality":{"key":"05382024","name":"Königswinter, Stadt","type":"Stadt"},"district":{"key":"05382","name":"Rhein-Sieg-Kreis","type":"Kreis"},"federalState":{"key":"05","name":"Nordrhein-Westfalen"}},{"name":"Bachstr.","postalCode":"53639","locality":"Königswinter","municipality":{"key":"05382024","name":"Königswinter, Stadt","type":"Stadt"},"district":{"key":"05382","name":"Rhein-Sieg-Kreis","type":"Kreis"},"federalState":{"key":"05","name":"Nordrhein-Westfalen"}},{"name":"Bachweg","postalCode":"53639","locality":"Königswinter","municipality":{"key":"05382024","name":"Königswinter, Stadt","type":"Stadt"},"district":{"key":"05382","name":"Rhein-Sieg-Kreis","type":"Kreis"},"federalState":{"key":"05","name":"Nordrhein-Westfalen"}},{"name":"Bahnhofsallee","postalCode":"53639","locality":"Königswinter","municipality":{"key":"05382024","name":"Königswinter, Stadt","type":"Stadt"},"district":{"key":"05382","name":"Rhein-Sieg-Kreis","type":"Kreis"},"federalState":{"key":"05","name":"Nordrhein-Westfalen"}},{"name":"Bahnhofstr.","postalCode":"53639","locality":"Königswinter","municipality":{"key":"05382024","name":"Königswinter, Stadt","type":"Stadt"},"district":{"key":"05382","name":"Rhein-Sieg-Kreis","type":"Kreis"},"federalState":{"key":"05","name":"Nordrhein-Westfalen"}},{"name":"Bahnweg","postalCode":"53639","locality":"Königswinter","municipality":{"key":"05382024","name":"Königswinter, Stadt","type":"Stadt"},"district":{"key":"05382","name":"Rhein-Sieg-Kreis","type":"Kreis"},"federalState":{"key":"05","name":"Nordrhein-Westfalen"}},{"name":"Basaltweg","postalCode":"53639","locality":"Königswinter","municipality":{"key":"05382024","name":"Königswinter, Stadt","type":"Stadt"},"district":{"key":"05382","name":"Rhein-Sieg-Kreis","type":"Kreis"},"federalState":{"key":"05","name":"Nordrhein-Westfalen"}},{"name":"Baumschulweg","postalCode":"53639","locality":"Königswinter","municipality":{"key":"05382024","name":"Königswinter, Stadt","type":"Stadt"},"district":{"key":"05382","name":"Rhein-Sieg-Kreis","type":"Kreis"},"federalState":{"key":"05","name":"Nordrhein-Westfalen"}},{"name":"Behringstr.","postalCode":"53639","locality":"Königswinter","municipality":{"key":"05382024","name":"Königswinter, Stadt","type":"Stadt"},"district":{"key":"05382","name":"Rhein-Sieg-Kreis","type":"Kreis"},"federalState":{"key":"05","name":"Nordrhein-Westfalen"}},{"name":"Bellinghausener Str.","postalCode":"53639","locality":"Königswinter","municipality":{"key":"05382024","name":"Königswinter, Stadt","type":"Stadt"},"district":{"key":"05382","name":"Rhein-Sieg-Kreis","type":"Kreis"},"federalState":{"key":"05","name":"Nordrhein-Westfalen"}},{"name":"Bennerscheider Heide","postalCode":"53639","locality":"Königswinter","municipality":{"key":"05382024","name":"Königswinter, Stadt","type":"Stadt"},"district":{"key":"05382","name":"Rhein-Sieg-Kreis","type":"Kreis"},"federalState":{"key":"05","name":"Nordrhein-Westfalen"}},{"name":"Bennertstr.","postalCode":"53639","locality":"Königswinter","municipality":{"key":"05382024","name":"Königswinter, Stadt","type":"Stadt"},"district":{"key":"05382","name":"Rhein-Sieg-Kreis","type":"Kreis"},"federalState":{"key":"05","name":"Nordrhein-Westfalen"}},{"name":"Bergblick","postalCode":"53639","locality":"Königswinter","municipality":{"key":"05382024","name":"Königswinter, Stadt","type":"Stadt"},"district":{"key":"05382","name":"Rhein-Sieg-Kreis","type":"Kreis"},"federalState":{"key":"05","name":"Nordrhein-Westfalen"}},{"name":"Berghausener Str.","postalCode":"53639","locality":"Königswinter","municipality":{"key":"05382024","name":"Königswinter, Stadt","type":"Stadt"},"district":{"key":"05382","name":"Rhein-Sieg-Kreis","type":"Kreis"},"federalState":{"key":"05","name":"Nordrhein-Westfalen"}},{"name":"Bergstr.","postalCode":"53639","locality":"Königswinter","municipality":{"key":"05382024","name":"Königswinter, Stadt","type":"Stadt"},"district":{"key":"05382","name":"Rhein-Sieg-Kreis","type":"Kreis"},"federalState":{"key":"05","name":"Nordrhein-Westfalen"}},{"name":"Birkenweg","postalCode":"53639","locality":"Königswinter","municipality":{"key":"05382024","name":"Königswinter, Stadt","type":"Stadt"},"district":{"key":"05382","name":"Rhein-Sieg-Kreis","type":"Kreis"},"federalState":{"key":"05","name":"Nordrhein-Westfalen"}},{"name":"Birlinghovener Str.","postalCode":"53639","locality":"Königswinter","municipality":{"key":"05382024","name":"Königswinter, Stadt","type":"Stadt"},"district":{"key":"05382","name":"Rhein-Sieg-Kreis","type":"Kreis"},"federalState":{"key":"05","name":"Nordrhein-Westfalen"}},{"name":"Bismarckstr.","postalCode":"53639","locality":"Königswinter","municipality":{"key":"05382024","name":"Königswinter, Stadt","type":"Stadt"},"district":{"key":"05382","name":"Rhein-Sieg-Kreis","type":"Kreis"},"federalState":{"key":"05","name":"Nordrhein-Westfalen"}},{"name":"Bittweg","postalCode":"53639","locality":"Königswinter","municipality":{"key":"05382024","name":"Königswinter, Stadt","type":"Stadt"},"district":{"key":"05382","name":"Rhein-Sieg-Kreis","type":"Kreis"},"federalState":{"key":"05","name":"Nordrhein-Westfalen"}},{"name":"Bitzerweg","postalCode":"53639","locality":"Königswinter","municipality":{"key":"05382024","name":"Königswinter, Stadt","type":"Stadt"},"district":{"key":"05382","name":"Rhein-Sieg-Kreis","type":"Kreis"},"federalState":{"key":"05","name":"Nordrhein-Westfalen"}},{"name":"Blankenbacher Str.","postalCode":"53639","locality":"Königswinter","municipality":{"key":"05382024","name":"Königswinter, Stadt","type":"Stadt"},"district":{"key":"05382","name":"Rhein-Sieg-Kreis","type":"Kreis"},"federalState":{"key":"05","name":"Nordrhein-Westfalen"}},{"name":"Blumenstr.","postalCode":"53639","locality":"Königswinter","municipality":{"key":"05382024","name":"Königswinter, Stadt","type":"Stadt"},"district":{"key":"05382","name":"Rhein-Sieg-Kreis","type":"Kreis"},"federalState":{"key":"05","name":"Nordrhein-Westfalen"}},{"name":"Bockerother Str.","postalCode":"53639","locality":"Königswinter","municipality":{"key":"05382024","name":"Königswinter, Stadt","type":"Stadt"},"district":{"key":"05382","name":"Rhein-Sieg-Kreis","type":"Kreis"},"federalState":{"key":"05","name":"Nordrhein-Westfalen"}},{"name":"Bollsgäßchen","postalCode":"53639","locality":"Königswinter","municipality":{"key":"05382024","name":"Königswinter, Stadt","type":"Stadt"},"district":{"key":"05382","name":"Rhein-Sieg-Kreis","type":"Kreis"},"federalState":{"key":"05","name":"Nordrhein-Westfalen"}},{"name":"Bonner Str.","postalCode":"53639","locality":"Königswinter","municipality":{"key":"05382024","name":"Königswinter, Stadt","type":"Stadt"},"district":{"key":"05382","name":"Rhein-Sieg-Kreis","type":"Kreis"},"federalState":{"key":"05","name":"Nordrhein-Westfalen"}},{"name":"Boserother Str.","postalCode":"53639","locality":"Königswinter","municipality":{"key":"05382024","name":"Königswinter, Stadt","type":"Stadt"},"district":{"key":"05382","name":"Rhein-Sieg-Kreis","type":"Kreis"},"federalState":{"key":"05","name":"Nordrhein-Westfalen"}},{"name":"Brandstr.","postalCode":"53639","locality":"Königswinter","municipality":{"key":"05382024","name":"Königswinter, Stadt","type":"Stadt"},"district":{"key":"05382","name":"Rhein-Sieg-Kreis","type":"Kreis"},"federalState":{"key":"05","name":"Nordrhein-Westfalen"}},{"name":"Brückenstr.","postalCode":"53639","locality":"Königswinter","municipality":{"key":"05382024","name":"Königswinter, Stadt","type":"Stadt"},"district":{"key":"05382","name":"Rhein-Sieg-Kreis","type":"Kreis"},"federalState":{"key":"05","name":"Nordrhein-Westfalen"}},{"name":"Brunnenstr.","postalCode":"53639","locality":"Königswinter","municipality":{"key":"05382024","name":"Königswinter, Stadt","type":"Stadt"},"district":{"key":"05382","name":"Rhein-Sieg-Kreis","type":"Kreis"},"federalState":{"key":"05","name":"Nordrhein-Westfalen"}},{"name":"Buchfinkenweg","postalCode":"53639","locality":"Königswinter","municipality":{"key":"05382024","name":"Königswinter, Stadt","type":"Stadt"},"district":{"key":"05382","name":"Rhein-Sieg-Kreis","type":"Kreis"},"federalState":{"key":"05","name":"Nordrhein-Westfalen"}},{"name":"Buchholzer Str.","postalCode":"53639","locality":"Königswinter","municipality":{"key":"05382024","name":"Königswinter, Stadt","type":"Stadt"},"district":{"key":"05382","name":"Rhein-Sieg-Kreis","type":"Kreis"},"federalState":{"key":"05","name":"Nordrhein-Westfalen"}},{"name":"Bungertstr.","postalCode":"53639","locality":"Königswinter","municipality":{"key":"05382024","name":"Königswinter, Stadt","type":"Stadt"},"district":{"key":"05382","name":"Rhein-Sieg-Kreis","type":"Kreis"},"federalState":{"key":"05","name":"Nordrhein-Westfalen"}},{"name":"Bürgersteig","postalCode":"53639","locality":"Königswinter","municipality":{"key":"05382024","name":"Königswinter, Stadt","type":"Stadt"},"district":{"key":"05382","name":"Rhein-Sieg-Kreis","type":"Kreis"},"federalState":{"key":"05","name":"Nordrhein-Westfalen"}},{"name":"Burggrafenstr.","postalCode":"53639","locality":"Königswinter","municipality":{"key":"05382024","name":"Königswinter, Stadt","type":"Stadt"},"district":{"key":"05382","name":"Rhein-Sieg-Kreis","type":"Kreis"},"federalState":{"key":"05","name":"Nordrhein-Westfalen"}},{"name":"Burghof","postalCode":"53639","locality":"Königswinter","municipality":{"key":"05382024","name":"Königswinter, Stadt","type":"Stadt"},"district":{"key":"05382","name":"Rhein-Sieg-Kreis","type":"Kreis"},"federalState":{"key":"05","name":"Nordrhein-Westfalen"}},{"name":"Burgweg","postalCode":"53639","locality":"Königswinter","municipality":{"key":"05382024","name":"Königswinter, Stadt","type":"Stadt"},"district":{"key":"05382","name":"Rhein-Sieg-Kreis","type":"Kreis"},"federalState":{"key":"05","name":"Nordrhein-Westfalen"}},{"name":"Buschweg","postalCode":"53639","locality":"Königswinter","municipality":{"key":"05382024","name":"Königswinter, Stadt","type":"Stadt"},"district":{"key":"05382","name":"Rhein-Sieg-Kreis","type":"Kreis"},"federalState":{"key":"05","name":"Nordrhein-Westfalen"}},{"name":"Bussardstr.","postalCode":"53639","locality":"Königswinter","municipality":{"key":"05382024","name":"Königswinter, Stadt","type":"Stadt"},"district":{"key":"05382","name":"Rhein-Sieg-Kreis","type":"Kreis"},"federalState":{"key":"05","name":"Nordrhein-Westfalen"}},{"name":"Butterweg","postalCode":"53639","locality":"Königswinter","municipality":{"key":"05382024","name":"Königswinter, Stadt","type":"Stadt"},"district":{"key":"05382","name":"Rhein-Sieg-Kreis","type":"Kreis"},"federalState":{"key":"05","name":"Nordrhein-Westfalen"}},{"name":"Cahn's Berg","postalCode":"53639","locality":"Königswinter","municipality":{"key":"05382024","name":"Königswinter, Stadt","type":"Stadt"},"district":{"key":"05382","name":"Rhein-Sieg-Kreis","type":"Kreis"},"federalState":{"key":"05","name":"Nordrhein-Westfalen"}},{"name":"Cäsariusstr.","postalCode":"53639","locality":"Königswinter","municipality":{"key":"05382024","name":"Königswinter, Stadt","type":"Stadt"},"district":{"key":"05382","name":"Rhein-Sieg-Kreis","type":"Kreis"},"federalState":{"key":"05","name":"Nordrhein-Westfalen"}},{"name":"Celsiusstr.","postalCode":"53639","locality":"Königswinter","municipality":{"key":"05382024","name":"Königswinter, Stadt","type":"Stadt"},"district":{"key":"05382","name":"Rhein-Sieg-Kreis","type":"Kreis"},"federalState":{"key":"05","name":"Nordrhein-Westfalen"}},{"name":"Christophorusplatz","postalCode":"53639","locality":"Königswinter","municipality":{"key":"05382024","name":"Königswinter, Stadt","type":"Stadt"},"district":{"key":"05382","name":"Rhein-Sieg-Kreis","type":"Kreis"},"federalState":{"key":"05","name":"Nordrhein-Westfalen"}},{"name":"Clemens-August-Str.","postalCode":"53639","locality":"Königswinter","municipality":{"key":"05382024","name":"Königswinter, Stadt","type":"Stadt"},"district":{"key":"05382","name":"Rhein-Sieg-Kreis","type":"Kreis"},"federalState":{"key":"05","name":"Nordrhein-Westfalen"}},{"name":"Dachsweg","postalCode":"53639","locality":"Königswinter","municipality":{"key":"05382024","name":"Königswinter, Stadt","type":"Stadt"},"district":{"key":"05382","name":"Rhein-Sieg-Kreis","type":"Kreis"},"federalState":{"key":"05","name":"Nordrhein-Westfalen"}},{"name":"Dahlhausener Str.","postalCode":"53639","locality":"Königswinter","municipality":{"key":"05382024","name":"Königswinter, Stadt","type":"Stadt"},"district":{"key":"05382","name":"Rhein-Sieg-Kreis","type":"Kreis"},"federalState":{"key":"05","name":"Nordrhein-Westfalen"}},{"name":"Dahlienweg","postalCode":"53639","locality":"Königswinter","municipality":{"key":"05382024","name":"Königswinter, Stadt","type":"Stadt"},"district":{"key":"05382","name":"Rhein-Sieg-Kreis","type":"Kreis"},"federalState":{"key":"05","name":"Nordrhein-Westfalen"}},{"name":"Dechant-Ibach-Str.","postalCode":"53639","locality":"Königswinter","municipality":{"key":"05382024","name":"Königswinter, Stadt","type":"Stadt"},"district":{"key":"05382","name":"Rhein-Sieg-Kreis","type":"Kreis"},"federalState":{"key":"05","name":"Nordrhein-Westfalen"}},{"name":"Dechenweg","postalCode":"53639","locality":"Königswinter","municipality":{"key":"05382024","name":"Königswinter, Stadt","type":"Stadt"},"district":{"key":"05382","name":"Rhein-Sieg-Kreis","type":"Kreis"},"federalState":{"key":"05","name":"Nordrhein-Westfalen"}},{"name":"Dellenmorgen","postalCode":"53639","locality":"Königswinter","municipality":{"key":"05382024","name":"Königswinter, Stadt","type":"Stadt"},"district":{"key":"05382","name":"Rhein-Sieg-Kreis","type":"Kreis"},"federalState":{"key":"05","name":"Nordrhein-Westfalen"}},{"name":"Dissenbachtalstr.","postalCode":"53639","locality":"Königswinter","municipality":{"key":"05382024","name":"Königswinter, Stadt","type":"Stadt"},"district":{"key":"05382","name":"Rhein-Sieg-Kreis","type":"Kreis"},"federalState":{"key":"05","name":"Nordrhein-Westfalen"}},{"name":"Dollendorfer Str.","postalCode":"53639","locality":"Königswinter","municipality":{"key":"05382024","name":"Königswinter, Stadt","type":"Stadt"},"district":{"key":"05382","name":"Rhein-Sieg-Kreis","type":"Kreis"},"federalState":{"key":"05","name":"Nordrhein-Westfalen"}},{"name":"Domblick","postalCode":"53639","locality":"Königswinter","municipality":{"key":"05382024","name":"Königswinter, Stadt","type":"Stadt"},"district":{"key":"05382","name":"Rhein-Sieg-Kreis","type":"Kreis"},"federalState":{"key":"05","name":"Nordrhein-Westfalen"}},{"name":"Dorfstr.","postalCode":"53639","locality":"Königswinter","municipality":{"key":"05382024","name":"Königswinter, Stadt","type":"Stadt"},"district":{"key":"05382","name":"Rhein-Sieg-Kreis","type":"Kreis"},"federalState":{"key":"05","name":"Nordrhein-Westfalen"}},{"name":"Dornenbergweg","postalCode":"53639","locality":"Königswinter","municipality":{"key":"05382024","name":"Königswinter, Stadt","type":"Stadt"},"district":{"key":"05382","name":"Rhein-Sieg-Kreis","type":"Kreis"},"federalState":{"key":"05","name":"Nordrhein-Westfalen"}},{"name":"Dornhecke","postalCode":"53639","locality":"Königswinter","municipality":{"key":"05382024","name":"Königswinter, Stadt","type":"Stadt"},"district":{"key":"05382","name":"Rhein-Sieg-Kreis","type":"Kreis"},"federalState":{"key":"05","name":"Nordrhein-Westfalen"}},{"name":"Döttscheider Weg","postalCode":"53639","locality":"Königswinter","municipality":{"key":"05382024","name":"Königswinter, Stadt","type":"Stadt"},"district":{"key":"05382","name":"Rhein-Sieg-Kreis","type":"Kreis"},"federalState":{"key":"05","name":"Nordrhein-Westfalen"}},{"name":"Drachenfelsplateau","postalCode":"53639","locality":"Königswinter","municipality":{"key":"05382024","name":"Königswinter, Stadt","type":"Stadt"},"district":{"key":"05382","name":"Rhein-Sieg-Kreis","type":"Kreis"},"federalState":{"key":"05","name":"Nordrhein-Westfalen"}},{"name":"Drachenfelsstr.","postalCode":"53639","locality":"Königswinter","municipality":{"key":"05382024","name":"Königswinter, Stadt","type":"Stadt"},"district":{"key":"05382","name":"Rhein-Sieg-Kreis","type":"Kreis"},"federalState":{"key":"05","name":"Nordrhein-Westfalen"}},{"name":"Drei Birken","postalCode":"53639","locality":"Königswinter","municipality":{"key":"05382024","name":"Königswinter, Stadt","type":"Stadt"},"district":{"key":"05382","name":"Rhein-Sieg-Kreis","type":"Kreis"},"federalState":{"key":"05","name":"Nordrhein-Westfalen"}},{"name":"Dresenbitze","postalCode":"53639","locality":"Königswinter","municipality":{"key":"05382024","name":"Königswinter, Stadt","type":"Stadt"},"district":{"key":"05382","name":"Rhein-Sieg-Kreis","type":"Kreis"},"federalState":{"key":"05","name":"Nordrhein-Westfalen"}},{"name":"Drosselweg","postalCode":"53639","locality":"Königswinter","municipality":{"key":"05382024","name":"Königswinter, Stadt","type":"Stadt"},"district":{"key":"05382","name":"Rhein-Sieg-Kreis","type":"Kreis"},"federalState":{"key":"05","name":"Nordrhein-Westfalen"}},{"name":"Düferother Str.","postalCode":"53639","locality":"Königswinter","municipality":{"key":"05382024","name":"Königswinter, Stadt","type":"Stadt"},"district":{"key":"05382","name":"Rhein-Sieg-Kreis","type":"Kreis"},"federalState":{"key":"05","name":"Nordrhein-Westfalen"}},{"name":"ehem. Mülhensbrücke","postalCode":"53639","locality":"Königswinter","municipality":{"key":"05382024","name":"Königswinter, Stadt","type":"Stadt"},"district":{"key":"05382","name":"Rhein-Sieg-Kreis","type":"Kreis"},"federalState":{"key":"05","name":"Nordrhein-Westfalen"}},{"name":"Eibenweg","postalCode":"53639","locality":"Königswinter","municipality":{"key":"05382024","name":"Königswinter, Stadt","type":"Stadt"},"district":{"key":"05382","name":"Rhein-Sieg-Kreis","type":"Kreis"},"federalState":{"key":"05","name":"Nordrhein-Westfalen"}},{"name":"Eichenbachstr.","postalCode":"53639","locality":"Königswinter","municipality":{"key":"05382024","name":"Königswinter, Stadt","type":"Stadt"},"district":{"key":"05382","name":"Rhein-Sieg-Kreis","type":"Kreis"},"federalState":{"key":"05","name":"Nordrhein-Westfalen"}},{"name":"Eichendorffstr.","postalCode":"53639","locality":"Königswinter","municipality":{"key":"05382024","name":"Königswinter, Stadt","type":"Stadt"},"district":{"key":"05382","name":"Rhein-Sieg-Kreis","type":"Kreis"},"federalState":{"key":"05","name":"Nordrhein-Westfalen"}},{"name":"Eichenweg","postalCode":"53639","locality":"Königswinter","municipality":{"key":"05382024","name":"Königswinter, Stadt","type":"Stadt"},"district":{"key":"05382","name":"Rhein-Sieg-Kreis","type":"Kreis"},"federalState":{"key":"05","name":"Nordrhein-Westfalen"}},{"name":"Eichhornweg","postalCode":"53639","locality":"Königswinter","municipality":{"key":"05382024","name":"Königswinter, Stadt","type":"Stadt"},"district":{"key":"05382","name":"Rhein-Sieg-Kreis","type":"Kreis"},"federalState":{"key":"05","name":"Nordrhein-Westfalen"}},{"name":"Eisbacher Str.","postalCode":"53639","locality":"Königswinter","municipality":{"key":"05382024","name":"Königswinter, Stadt","type":"Stadt"},"district":{"key":"05382","name":"Rhein-Sieg-Kreis","type":"Kreis"},"federalState":{"key":"05","name":"Nordrhein-Westfalen"}},{"name":"Engelbertsweg","postalCode":"53639","locality":"Königswinter","municipality":{"key":"05382024","name":"Königswinter, Stadt","type":"Stadt"},"district":{"key":"05382","name":"Rhein-Sieg-Kreis","type":"Kreis"},"federalState":{"key":"05","name":"Nordrhein-Westfalen"}},{"name":"Erbstr.","postalCode":"53639","locality":"Königswinter","municipality":{"key":"05382024","name":"Königswinter, Stadt","type":"Stadt"},"district":{"key":"05382","name":"Rhein-Sieg-Kreis","type":"Kreis"},"federalState":{"key":"05","name":"Nordrhein-Westfalen"}},{"name":"Eschenweg","postalCode":"53639","locality":"Königswinter","municipality":{"key":"05382024","name":"Königswinter, Stadt","type":"Stadt"},"district":{"key":"05382","name":"Rhein-Sieg-Kreis","type":"Kreis"},"federalState":{"key":"05","name":"Nordrhein-Westfalen"}},{"name":"Eselsweg","postalCode":"53639","locality":"Königswinter","municipality":{"key":"05382024","name":"Königswinter, Stadt","type":"Stadt"},"district":{"key":"05382","name":"Rhein-Sieg-Kreis","type":"Kreis"},"federalState":{"key":"05","name":"Nordrhein-Westfalen"}},{"name":"Eudenbacher Str.","postalCode":"53639","locality":"Königswinter","municipality":{"key":"05382024","name":"Königswinter, Stadt","type":"Stadt"},"district":{"key":"05382","name":"Rhein-Sieg-Kreis","type":"Kreis"},"federalState":{"key":"05","name":"Nordrhein-Westfalen"}},{"name":"Eudenberger Str.","postalCode":"53639","locality":"Königswinter","municipality":{"key":"05382024","name":"Königswinter, Stadt","type":"Stadt"},"district":{"key":"05382","name":"Rhein-Sieg-Kreis","type":"Kreis"},"federalState":{"key":"05","name":"Nordrhein-Westfalen"}},{"name":"Fahrenheitstr.","postalCode":"53639","locality":"Königswinter","municipality":{"key":"05382024","name":"Königswinter, Stadt","type":"Stadt"},"district":{"key":"05382","name":"Rhein-Sieg-Kreis","type":"Kreis"},"federalState":{"key":"05","name":"Nordrhein-Westfalen"}},{"name":"Fährstr.","postalCode":"53639","locality":"Königswinter","municipality":{"key":"05382024","name":"Königswinter, Stadt","type":"Stadt"},"district":{"key":"05382","name":"Rhein-Sieg-Kreis","type":"Kreis"},"federalState":{"key":"05","name":"Nordrhein-Westfalen"}},{"name":"Falkenbergstr.","postalCode":"53639","locality":"Königswinter","municipality":{"key":"05382024","name":"Königswinter, Stadt","type":"Stadt"},"district":{"key":"05382","name":"Rhein-Sieg-Kreis","type":"Kreis"},"federalState":{"key":"05","name":"Nordrhein-Westfalen"}},{"name":"Falltorstr.","postalCode":"53639","locality":"Königswinter","municipality":{"key":"05382024","name":"Königswinter, Stadt","type":"Stadt"},"district":{"key":"05382","name":"Rhein-Sieg-Kreis","type":"Kreis"},"federalState":{"key":"05","name":"Nordrhein-Westfalen"}},{"name":"Fasanenweg","postalCode":"53639","locality":"Königswinter","municipality":{"key":"05382024","name":"Königswinter, Stadt","type":"Stadt"},"district":{"key":"05382","name":"Rhein-Sieg-Kreis","type":"Kreis"},"federalState":{"key":"05","name":"Nordrhein-Westfalen"}},{"name":"Faulenbitze","postalCode":"53639","locality":"Königswinter","municipality":{"key":"05382024","name":"Königswinter, Stadt","type":"Stadt"},"district":{"key":"05382","name":"Rhein-Sieg-Kreis","type":"Kreis"},"federalState":{"key":"05","name":"Nordrhein-Westfalen"}},{"name":"Ferdinand-Mülhens-Str.","postalCode":"53639","locality":"Königswinter","municipality":{"key":"05382024","name":"Königswinter, Stadt","type":"Stadt"},"district":{"key":"05382","name":"Rhein-Sieg-Kreis","type":"Kreis"},"federalState":{"key":"05","name":"Nordrhein-Westfalen"}},{"name":"Ferdinand-Schmitz-Str.","postalCode":"53639","locality":"Königswinter","municipality":{"key":"05382024","name":"Königswinter, Stadt","type":"Stadt"},"district":{"key":"05382","name":"Rhein-Sieg-Kreis","type":"Kreis"},"federalState":{"key":"05","name":"Nordrhein-Westfalen"}},{"name":"Ferdinandstr.","postalCode":"53639","locality":"Königswinter","municipality":{"key":"05382024","name":"Königswinter, Stadt","type":"Stadt"},"district":{"key":"05382","name":"Rhein-Sieg-Kreis","type":"Kreis"},"federalState":{"key":"05","name":"Nordrhein-Westfalen"}},{"name":"Finkenweg","postalCode":"53639","locality":"Königswinter","municipality":{"key":"05382024","name":"Königswinter, Stadt","type":"Stadt"},"district":{"key":"05382","name":"Rhein-Sieg-Kreis","type":"Kreis"},"federalState":{"key":"05","name":"Nordrhein-Westfalen"}},{"name":"Florianstr.","postalCode":"53639","locality":"Königswinter","municipality":{"key":"05382024","name":"Königswinter, Stadt","type":"Stadt"},"district":{"key":"05382","name":"Rhein-Sieg-Kreis","type":"Kreis"},"federalState":{"key":"05","name":"Nordrhein-Westfalen"}},{"name":"Flurgasse","postalCode":"53639","locality":"Königswinter","municipality":{"key":"05382024","name":"Königswinter, Stadt","type":"Stadt"},"district":{"key":"05382","name":"Rhein-Sieg-Kreis","type":"Kreis"},"federalState":{"key":"05","name":"Nordrhein-Westfalen"}},{"name":"Flurweg","postalCode":"53639","locality":"Königswinter","municipality":{"key":"05382024","name":"Königswinter, Stadt","type":"Stadt"},"district":{"key":"05382","name":"Rhein-Sieg-Kreis","type":"Kreis"},"federalState":{"key":"05","name":"Nordrhein-Westfalen"}},{"name":"Forellenweg","postalCode":"53639","locality":"Königswinter","municipality":{"key":"05382024","name":"Königswinter, Stadt","type":"Stadt"},"district":{"key":"05382","name":"Rhein-Sieg-Kreis","type":"Kreis"},"federalState":{"key":"05","name":"Nordrhein-Westfalen"}},{"name":"Forstbachweg","postalCode":"53639","locality":"Königswinter","municipality":{"key":"05382024","name":"Königswinter, Stadt","type":"Stadt"},"district":{"key":"05382","name":"Rhein-Sieg-Kreis","type":"Kreis"},"federalState":{"key":"05","name":"Nordrhein-Westfalen"}},{"name":"Frankenforster Weg","postalCode":"53639","locality":"Königswinter","municipality":{"key":"05382024","name":"Königswinter, Stadt","type":"Stadt"},"district":{"key":"05382","name":"Rhein-Sieg-Kreis","type":"Kreis"},"federalState":{"key":"05","name":"Nordrhein-Westfalen"}},{"name":"Frankenstr.","postalCode":"53639","locality":"Königswinter","municipality":{"key":"05382024","name":"Königswinter, Stadt","type":"Stadt"},"district":{"key":"05382","name":"Rhein-Sieg-Kreis","type":"Kreis"},"federalState":{"key":"05","name":"Nordrhein-Westfalen"}},{"name":"Freie Bitze","postalCode":"53639","locality":"Königswinter","municipality":{"key":"05382024","name":"Königswinter, Stadt","type":"Stadt"},"district":{"key":"05382","name":"Rhein-Sieg-Kreis","type":"Kreis"},"federalState":{"key":"05","name":"Nordrhein-Westfalen"}},{"name":"Freyenberger Weg","postalCode":"53639","locality":"Königswinter","municipality":{"key":"05382024","name":"Königswinter, Stadt","type":"Stadt"},"district":{"key":"05382","name":"Rhein-Sieg-Kreis","type":"Kreis"},"federalState":{"key":"05","name":"Nordrhein-Westfalen"}},{"name":"Friedenstr.","postalCode":"53639","locality":"Königswinter","municipality":{"key":"05382024","name":"Königswinter, Stadt","type":"Stadt"},"district":{"key":"05382","name":"Rhein-Sieg-Kreis","type":"Kreis"},"federalState":{"key":"05","name":"Nordrhein-Westfalen"}},{"name":"Friedrichsallee","postalCode":"53639","locality":"Königswinter","municipality":{"key":"05382024","name":"Königswinter, Stadt","type":"Stadt"},"district":{"key":"05382","name":"Rhein-Sieg-Kreis","type":"Kreis"},"federalState":{"key":"05","name":"Nordrhein-Westfalen"}},{"name":"Friedrichshöher Str.","postalCode":"53639","locality":"Königswinter","municipality":{"key":"05382024","name":"Königswinter, Stadt","type":"Stadt"},"district":{"key":"05382","name":"Rhein-Sieg-Kreis","type":"Kreis"},"federalState":{"key":"05","name":"Nordrhein-Westfalen"}},{"name":"Frohnhardter Str.","postalCode":"53639","locality":"Königswinter","municipality":{"key":"05382024","name":"Königswinter, Stadt","type":"Stadt"},"district":{"key":"05382","name":"Rhein-Sieg-Kreis","type":"Kreis"},"federalState":{"key":"05","name":"Nordrhein-Westfalen"}},{"name":"Fuchspfad","postalCode":"53639","locality":"Königswinter","municipality":{"key":"05382024","name":"Königswinter, Stadt","type":"Stadt"},"district":{"key":"05382","name":"Rhein-Sieg-Kreis","type":"Kreis"},"federalState":{"key":"05","name":"Nordrhein-Westfalen"}},{"name":"Gartenstr.","postalCode":"53639","locality":"Königswinter","municipality":{"key":"05382024","name":"Königswinter, Stadt","type":"Stadt"},"district":{"key":"05382","name":"Rhein-Sieg-Kreis","type":"Kreis"},"federalState":{"key":"05","name":"Nordrhein-Westfalen"}},{"name":"Generalkonsul-von-Weiß-Str.","postalCode":"53639","locality":"Königswinter","municipality":{"key":"05382024","name":"Königswinter, Stadt","type":"Stadt"},"district":{"key":"05382","name":"Rhein-Sieg-Kreis","type":"Kreis"},"federalState":{"key":"05","name":"Nordrhein-Westfalen"}},{"name":"Gengerstr.","postalCode":"53639","locality":"Königswinter","municipality":{"key":"05382024","name":"Königswinter, Stadt","type":"Stadt"},"district":{"key":"05382","name":"Rhein-Sieg-Kreis","type":"Kreis"},"federalState":{"key":"05","name":"Nordrhein-Westfalen"}},{"name":"Gerhart-Hauptmann-Weg","postalCode":"53639","locality":"Königswinter","municipality":{"key":"05382024","name":"Königswinter, Stadt","type":"Stadt"},"district":{"key":"05382","name":"Rhein-Sieg-Kreis","type":"Kreis"},"federalState":{"key":"05","name":"Nordrhein-Westfalen"}},{"name":"Ginsterweg","postalCode":"53639","locality":"Königswinter","municipality":{"key":"05382024","name":"Königswinter, Stadt","type":"Stadt"},"district":{"key":"05382","name":"Rhein-Sieg-Kreis","type":"Kreis"},"federalState":{"key":"05","name":"Nordrhein-Westfalen"}},{"name":"Godesberger Str.","postalCode":"53639","locality":"Königswinter","municipality":{"key":"05382024","name":"Königswinter, Stadt","type":"Stadt"},"district":{"key":"05382","name":"Rhein-Sieg-Kreis","type":"Kreis"},"federalState":{"key":"05","name":"Nordrhein-Westfalen"}},{"name":"Goldbergweg","postalCode":"53639","locality":"Königswinter","municipality":{"key":"05382024","name":"Königswinter, Stadt","type":"Stadt"},"district":{"key":"05382","name":"Rhein-Sieg-Kreis","type":"Kreis"},"federalState":{"key":"05","name":"Nordrhein-Westfalen"}},{"name":"Grabenstr.","postalCode":"53639","locality":"Königswinter","municipality":{"key":"05382024","name":"Königswinter, Stadt","type":"Stadt"},"district":{"key":"05382","name":"Rhein-Sieg-Kreis","type":"Kreis"},"federalState":{"key":"05","name":"Nordrhein-Westfalen"}},{"name":"Grabenweg","postalCode":"53639","locality":"Königswinter","municipality":{"key":"05382024","name":"Königswinter, Stadt","type":"Stadt"},"district":{"key":"05382","name":"Rhein-Sieg-Kreis","type":"Kreis"},"federalState":{"key":"05","name":"Nordrhein-Westfalen"}},{"name":"Gräfenbuschweg","postalCode":"53639","locality":"Königswinter","municipality":{"key":"05382024","name":"Königswinter, Stadt","type":"Stadt"},"district":{"key":"05382","name":"Rhein-Sieg-Kreis","type":"Kreis"},"federalState":{"key":"05","name":"Nordrhein-Westfalen"}},{"name":"Gräfenhohner Str.","postalCode":"53639","locality":"Königswinter","municipality":{"key":"05382024","name":"Königswinter, Stadt","type":"Stadt"},"district":{"key":"05382","name":"Rhein-Sieg-Kreis","type":"Kreis"},"federalState":{"key":"05","name":"Nordrhein-Westfalen"}},{"name":"Gratzfelder Str.","postalCode":"53639","locality":"Königswinter","municipality":{"key":"05382024","name":"Königswinter, Stadt","type":"Stadt"},"district":{"key":"05382","name":"Rhein-Sieg-Kreis","type":"Kreis"},"federalState":{"key":"05","name":"Nordrhein-Westfalen"}},{"name":"Green Corner","postalCode":"53639","locality":"Königswinter","municipality":{"key":"05382024","name":"Königswinter, Stadt","type":"Stadt"},"district":{"key":"05382","name":"Rhein-Sieg-Kreis","type":"Kreis"},"federalState":{"key":"05","name":"Nordrhein-Westfalen"}},{"name":"Grengelsbitze","postalCode":"53639","locality":"Königswinter","municipality":{"key":"05382024","name":"Königswinter, Stadt","type":"Stadt"},"district":{"key":"05382","name":"Rhein-Sieg-Kreis","type":"Kreis"},"federalState":{"key":"05","name":"Nordrhein-Westfalen"}},{"name":"Grenzweg","postalCode":"53639","locality":"Königswinter","municipality":{"key":"05382024","name":"Königswinter, Stadt","type":"Stadt"},"district":{"key":"05382","name":"Rhein-Sieg-Kreis","type":"Kreis"},"federalState":{"key":"05","name":"Nordrhein-Westfalen"}},{"name":"Gronewaldstr.","postalCode":"53639","locality":"Königswinter","municipality":{"key":"05382024","name":"Königswinter, Stadt","type":"Stadt"},"district":{"key":"05382","name":"Rhein-Sieg-Kreis","type":"Kreis"},"federalState":{"key":"05","name":"Nordrhein-Westfalen"}},{"name":"Grüner Weg","postalCode":"53639","locality":"Königswinter","municipality":{"key":"05382024","name":"Königswinter, Stadt","type":"Stadt"},"district":{"key":"05382","name":"Rhein-Sieg-Kreis","type":"Kreis"},"federalState":{"key":"05","name":"Nordrhein-Westfalen"}},{"name":"Gubener Weg","postalCode":"53639","locality":"Königswinter","municipality":{"key":"05382024","name":"Königswinter, Stadt","type":"Stadt"},"district":{"key":"05382","name":"Rhein-Sieg-Kreis","type":"Kreis"},"federalState":{"key":"05","name":"Nordrhein-Westfalen"}},{"name":"Gürtelweg","postalCode":"53639","locality":"Königswinter","municipality":{"key":"05382024","name":"Königswinter, Stadt","type":"Stadt"},"district":{"key":"05382","name":"Rhein-Sieg-Kreis","type":"Kreis"},"federalState":{"key":"05","name":"Nordrhein-Westfalen"}},{"name":"Gustav-Freytag-Str.","postalCode":"53639","locality":"Königswinter","municipality":{"key":"05382024","name":"Königswinter, Stadt","type":"Stadt"},"district":{"key":"05382","name":"Rhein-Sieg-Kreis","type":"Kreis"},"federalState":{"key":"05","name":"Nordrhein-Westfalen"}},{"name":"Gutenbergstr.","postalCode":"53639","locality":"Königswinter","municipality":{"key":"05382024","name":"Königswinter, Stadt","type":"Stadt"},"district":{"key":"05382","name":"Rhein-Sieg-Kreis","type":"Kreis"},"federalState":{"key":"05","name":"Nordrhein-Westfalen"}},{"name":"Hammelsberg","postalCode":"53639","locality":"Königswinter","municipality":{"key":"05382024","name":"Königswinter, Stadt","type":"Stadt"},"district":{"key":"05382","name":"Rhein-Sieg-Kreis","type":"Kreis"},"federalState":{"key":"05","name":"Nordrhein-Westfalen"}},{"name":"Händelstr.","postalCode":"53639","locality":"Königswinter","municipality":{"key":"05382024","name":"Königswinter, Stadt","type":"Stadt"},"district":{"key":"05382","name":"Rhein-Sieg-Kreis","type":"Kreis"},"federalState":{"key":"05","name":"Nordrhein-Westfalen"}},{"name":"Hans-Willy-Gathen-Weg","postalCode":"53639","locality":"Königswinter","municipality":{"key":"05382024","name":"Königswinter, Stadt","type":"Stadt"},"district":{"key":"05382","name":"Rhein-Sieg-Kreis","type":"Kreis"},"federalState":{"key":"05","name":"Nordrhein-Westfalen"}},{"name":"Hardtweg","postalCode":"53639","locality":"Königswinter","municipality":{"key":"05382024","name":"Königswinter, Stadt","type":"Stadt"},"district":{"key":"05382","name":"Rhein-Sieg-Kreis","type":"Kreis"},"federalState":{"key":"05","name":"Nordrhein-Westfalen"}},{"name":"Hartenbergstr.","postalCode":"53639","locality":"Königswinter","municipality":{"key":"05382024","name":"Königswinter, Stadt","type":"Stadt"},"district":{"key":"05382","name":"Rhein-Sieg-Kreis","type":"Kreis"},"federalState":{"key":"05","name":"Nordrhein-Westfalen"}},{"name":"Hasenpohler Weg","postalCode":"53639","locality":"Königswinter","municipality":{"key":"05382024","name":"Königswinter, Stadt","type":"Stadt"},"district":{"key":"05382","name":"Rhein-Sieg-Kreis","type":"Kreis"},"federalState":{"key":"05","name":"Nordrhein-Westfalen"}},{"name":"Hasenweg","postalCode":"53639","locality":"Königswinter","municipality":{"key":"05382024","name":"Königswinter, Stadt","type":"Stadt"},"district":{"key":"05382","name":"Rhein-Sieg-Kreis","type":"Kreis"},"federalState":{"key":"05","name":"Nordrhein-Westfalen"}},{"name":"Hauptmannstr.","postalCode":"53639","locality":"Königswinter","municipality":{"key":"05382024","name":"Königswinter, Stadt","type":"Stadt"},"district":{"key":"05382","name":"Rhein-Sieg-Kreis","type":"Kreis"},"federalState":{"key":"05","name":"Nordrhein-Westfalen"}},{"name":"Hauptstr.","postalCode":"53639","locality":"Königswinter","municipality":{"key":"05382024","name":"Königswinter, Stadt","type":"Stadt"},"district":{"key":"05382","name":"Rhein-Sieg-Kreis","type":"Kreis"},"federalState":{"key":"05","name":"Nordrhein-Westfalen"}},{"name":"Heckenweg","postalCode":"53639","locality":"Königswinter","municipality":{"key":"05382024","name":"Königswinter, Stadt","type":"Stadt"},"district":{"key":"05382","name":"Rhein-Sieg-Kreis","type":"Kreis"},"federalState":{"key":"05","name":"Nordrhein-Westfalen"}},{"name":"Heideweg","postalCode":"53639","locality":"Königswinter","municipality":{"key":"05382024","name":"Königswinter, Stadt","type":"Stadt"},"district":{"key":"05382","name":"Rhein-Sieg-Kreis","type":"Kreis"},"federalState":{"key":"05","name":"Nordrhein-Westfalen"}},{"name":"Heinrich-Horn-Str.","postalCode":"53639","locality":"Königswinter","municipality":{"key":"05382024","name":"Königswinter, Stadt","type":"Stadt"},"district":{"key":"05382","name":"Rhein-Sieg-Kreis","type":"Kreis"},"federalState":{"key":"05","name":"Nordrhein-Westfalen"}},{"name":"Heisterbacher Str.","postalCode":"53639","locality":"Königswinter","municipality":{"key":"05382024","name":"Königswinter, Stadt","type":"Stadt"},"district":{"key":"05382","name":"Rhein-Sieg-Kreis","type":"Kreis"},"federalState":{"key":"05","name":"Nordrhein-Westfalen"}},{"name":"Hennefer Str.","postalCode":"53639","locality":"Königswinter","municipality":{"key":"05382024","name":"Königswinter, Stadt","type":"Stadt"},"district":{"key":"05382","name":"Rhein-Sieg-Kreis","type":"Kreis"},"federalState":{"key":"05","name":"Nordrhein-Westfalen"}},{"name":"Herderstr.","postalCode":"53639","locality":"Königswinter","municipality":{"key":"05382024","name":"Königswinter, Stadt","type":"Stadt"},"district":{"key":"05382","name":"Rhein-Sieg-Kreis","type":"Kreis"},"federalState":{"key":"05","name":"Nordrhein-Westfalen"}},{"name":"Hermann-Löns-Str.","postalCode":"53639","locality":"Königswinter","municipality":{"key":"05382024","name":"Königswinter, Stadt","type":"Stadt"},"district":{"key":"05382","name":"Rhein-Sieg-Kreis","type":"Kreis"},"federalState":{"key":"05","name":"Nordrhein-Westfalen"}},{"name":"Hermannshof","postalCode":"53639","locality":"Königswinter","municipality":{"key":"05382024","name":"Königswinter, Stadt","type":"Stadt"},"district":{"key":"05382","name":"Rhein-Sieg-Kreis","type":"Kreis"},"federalState":{"key":"05","name":"Nordrhein-Westfalen"}},{"name":"Herrengartenstr.","postalCode":"53639","locality":"Königswinter","municipality":{"key":"05382024","name":"Königswinter, Stadt","type":"Stadt"},"district":{"key":"05382","name":"Rhein-Sieg-Kreis","type":"Kreis"},"federalState":{"key":"05","name":"Nordrhein-Westfalen"}},{"name":"Herrenweg","postalCode":"53639","locality":"Königswinter","municipality":{"key":"05382024","name":"Königswinter, Stadt","type":"Stadt"},"district":{"key":"05382","name":"Rhein-Sieg-Kreis","type":"Kreis"},"federalState":{"key":"05","name":"Nordrhein-Westfalen"}},{"name":"Herresbacher Str.","postalCode":"53639","locality":"Königswinter","municipality":{"key":"05382024","name":"Königswinter, Stadt","type":"Stadt"},"district":{"key":"05382","name":"Rhein-Sieg-Kreis","type":"Kreis"},"federalState":{"key":"05","name":"Nordrhein-Westfalen"}},{"name":"Herzeleid","postalCode":"53639","locality":"Königswinter","municipality":{"key":"05382024","name":"Königswinter, Stadt","type":"Stadt"},"district":{"key":"05382","name":"Rhein-Sieg-Kreis","type":"Kreis"},"federalState":{"key":"05","name":"Nordrhein-Westfalen"}},{"name":"Herzogstr.","postalCode":"53639","locality":"Königswinter","municipality":{"key":"05382024","name":"Königswinter, Stadt","type":"Stadt"},"district":{"key":"05382","name":"Rhein-Sieg-Kreis","type":"Kreis"},"federalState":{"key":"05","name":"Nordrhein-Westfalen"}},{"name":"Hinsbergweg","postalCode":"53639","locality":"Königswinter","municipality":{"key":"05382024","name":"Königswinter, Stadt","type":"Stadt"},"district":{"key":"05382","name":"Rhein-Sieg-Kreis","type":"Kreis"},"federalState":{"key":"05","name":"Nordrhein-Westfalen"}},{"name":"Hirschbergstr.","postalCode":"53639","locality":"Königswinter","municipality":{"key":"05382024","name":"Königswinter, Stadt","type":"Stadt"},"district":{"key":"05382","name":"Rhein-Sieg-Kreis","type":"Kreis"},"federalState":{"key":"05","name":"Nordrhein-Westfalen"}},{"name":"Hirschburg","postalCode":"53639","locality":"Königswinter","municipality":{"key":"05382024","name":"Königswinter, Stadt","type":"Stadt"},"district":{"key":"05382","name":"Rhein-Sieg-Kreis","type":"Kreis"},"federalState":{"key":"05","name":"Nordrhein-Westfalen"}},{"name":"Höfgenweg","postalCode":"53639","locality":"Königswinter","municipality":{"key":"05382024","name":"Königswinter, Stadt","type":"Stadt"},"district":{"key":"05382","name":"Rhein-Sieg-Kreis","type":"Kreis"},"federalState":{"key":"05","name":"Nordrhein-Westfalen"}},{"name":"Hofstr.","postalCode":"53639","locality":"Königswinter","municipality":{"key":"05382024","name":"Königswinter, Stadt","type":"Stadt"},"district":{"key":"05382","name":"Rhein-Sieg-Kreis","type":"Kreis"},"federalState":{"key":"05","name":"Nordrhein-Westfalen"}},{"name":"Höhenweg","postalCode":"53639","locality":"Königswinter","municipality":{"key":"05382024","name":"Königswinter, Stadt","type":"Stadt"},"district":{"key":"05382","name":"Rhein-Sieg-Kreis","type":"Kreis"},"federalState":{"key":"05","name":"Nordrhein-Westfalen"}},{"name":"Hohlweg","postalCode":"53639","locality":"Königswinter","municipality":{"key":"05382024","name":"Königswinter, Stadt","type":"Stadt"},"district":{"key":"05382","name":"Rhein-Sieg-Kreis","type":"Kreis"},"federalState":{"key":"05","name":"Nordrhein-Westfalen"}},{"name":"Holtorfer Str.","postalCode":"53639","locality":"Königswinter","municipality":{"key":"05382024","name":"Königswinter, Stadt","type":"Stadt"},"district":{"key":"05382","name":"Rhein-Sieg-Kreis","type":"Kreis"},"federalState":{"key":"05","name":"Nordrhein-Westfalen"}},{"name":"Holunderweg","postalCode":"53639","locality":"Königswinter","municipality":{"key":"05382024","name":"Königswinter, Stadt","type":"Stadt"},"district":{"key":"05382","name":"Rhein-Sieg-Kreis","type":"Kreis"},"federalState":{"key":"05","name":"Nordrhein-Westfalen"}},{"name":"Holzweg","postalCode":"53639","locality":"Königswinter","municipality":{"key":"05382024","name":"Königswinter, Stadt","type":"Stadt"},"district":{"key":"05382","name":"Rhein-Sieg-Kreis","type":"Kreis"},"federalState":{"key":"05","name":"Nordrhein-Westfalen"}},{"name":"Honnefer Grenzweg","postalCode":"53639","locality":"Königswinter","municipality":{"key":"05382024","name":"Königswinter, Stadt","type":"Stadt"},"district":{"key":"05382","name":"Rhein-Sieg-Kreis","type":"Kreis"},"federalState":{"key":"05","name":"Nordrhein-Westfalen"}},{"name":"Hubertusstr.","postalCode":"53639","locality":"Königswinter","municipality":{"key":"05382024","name":"Königswinter, Stadt","type":"Stadt"},"district":{"key":"05382","name":"Rhein-Sieg-Kreis","type":"Kreis"},"federalState":{"key":"05","name":"Nordrhein-Westfalen"}},{"name":"Hubert-Wagner-Str.","postalCode":"53639","locality":"Königswinter","municipality":{"key":"05382024","name":"Königswinter, Stadt","type":"Stadt"},"district":{"key":"05382","name":"Rhein-Sieg-Kreis","type":"Kreis"},"federalState":{"key":"05","name":"Nordrhein-Westfalen"}},{"name":"Hühnerberger Str.","postalCode":"53639","locality":"Königswinter","municipality":{"key":"05382024","name":"Königswinter, Stadt","type":"Stadt"},"district":{"key":"05382","name":"Rhein-Sieg-Kreis","type":"Kreis"},"federalState":{"key":"05","name":"Nordrhein-Westfalen"}},{"name":"Hüllenweg","postalCode":"53639","locality":"Königswinter","municipality":{"key":"05382024","name":"Königswinter, Stadt","type":"Stadt"},"district":{"key":"05382","name":"Rhein-Sieg-Kreis","type":"Kreis"},"federalState":{"key":"05","name":"Nordrhein-Westfalen"}},{"name":"Humboldtstr.","postalCode":"53639","locality":"Königswinter","municipality":{"key":"05382024","name":"Königswinter, Stadt","type":"Stadt"},"district":{"key":"05382","name":"Rhein-Sieg-Kreis","type":"Kreis"},"federalState":{"key":"05","name":"Nordrhein-Westfalen"}},{"name":"Humbroich-Platz","postalCode":"53639","locality":"Königswinter","municipality":{"key":"05382024","name":"Königswinter, Stadt","type":"Stadt"},"district":{"key":"05382","name":"Rhein-Sieg-Kreis","type":"Kreis"},"federalState":{"key":"05","name":"Nordrhein-Westfalen"}},{"name":"Humbroichweg","postalCode":"53639","locality":"Königswinter","municipality":{"key":"05382024","name":"Königswinter, Stadt","type":"Stadt"},"district":{"key":"05382","name":"Rhein-Sieg-Kreis","type":"Kreis"},"federalState":{"key":"05","name":"Nordrhein-Westfalen"}},{"name":"Hüscheider Weg","postalCode":"53639","locality":"Königswinter","municipality":{"key":"05382024","name":"Königswinter, Stadt","type":"Stadt"},"district":{"key":"05382","name":"Rhein-Sieg-Kreis","type":"Kreis"},"federalState":{"key":"05","name":"Nordrhein-Westfalen"}},{"name":"Im Aacherfeld","postalCode":"53639","locality":"Königswinter","municipality":{"key":"05382024","name":"Königswinter, Stadt","type":"Stadt"},"district":{"key":"05382","name":"Rhein-Sieg-Kreis","type":"Kreis"},"federalState":{"key":"05","name":"Nordrhein-Westfalen"}},{"name":"Im Broich","postalCode":"53639","locality":"Königswinter","municipality":{"key":"05382024","name":"Königswinter, Stadt","type":"Stadt"},"district":{"key":"05382","name":"Rhein-Sieg-Kreis","type":"Kreis"},"federalState":{"key":"05","name":"Nordrhein-Westfalen"}},{"name":"Im Burggarten","postalCode":"53639","locality":"Königswinter","municipality":{"key":"05382024","name":"Königswinter, Stadt","type":"Stadt"},"district":{"key":"05382","name":"Rhein-Sieg-Kreis","type":"Kreis"},"federalState":{"key":"05","name":"Nordrhein-Westfalen"}},{"name":"Im Dicht","postalCode":"53639","locality":"Königswinter","municipality":{"key":"05382024","name":"Königswinter, Stadt","type":"Stadt"},"district":{"key":"05382","name":"Rhein-Sieg-Kreis","type":"Kreis"},"federalState":{"key":"05","name":"Nordrhein-Westfalen"}},{"name":"Im Döttscheider Feld","postalCode":"53639","locality":"Königswinter","municipality":{"key":"05382024","name":"Königswinter, Stadt","type":"Stadt"},"district":{"key":"05382","name":"Rhein-Sieg-Kreis","type":"Kreis"},"federalState":{"key":"05","name":"Nordrhein-Westfalen"}},{"name":"Im Eichenfeld","postalCode":"53639","locality":"Königswinter","municipality":{"key":"05382024","name":"Königswinter, Stadt","type":"Stadt"},"district":{"key":"05382","name":"Rhein-Sieg-Kreis","type":"Kreis"},"federalState":{"key":"05","name":"Nordrhein-Westfalen"}},{"name":"Im Elsteroth","postalCode":"53639","locality":"Königswinter","municipality":{"key":"05382024","name":"Königswinter, Stadt","type":"Stadt"},"district":{"key":"05382","name":"Rhein-Sieg-Kreis","type":"Kreis"},"federalState":{"key":"05","name":"Nordrhein-Westfalen"}},{"name":"Im Etzenhohn","postalCode":"53639","locality":"Königswinter","municipality":{"key":"05382024","name":"Königswinter, Stadt","type":"Stadt"},"district":{"key":"05382","name":"Rhein-Sieg-Kreis","type":"Kreis"},"federalState":{"key":"05","name":"Nordrhein-Westfalen"}},{"name":"Im Feldgarten","postalCode":"53639","locality":"Königswinter","municipality":{"key":"05382024","name":"Königswinter, Stadt","type":"Stadt"},"district":{"key":"05382","name":"Rhein-Sieg-Kreis","type":"Kreis"},"federalState":{"key":"05","name":"Nordrhein-Westfalen"}},{"name":"Im Ferdinandsgarten","postalCode":"53639","locality":"Königswinter","municipality":{"key":"05382024","name":"Königswinter, Stadt","type":"Stadt"},"district":{"key":"05382","name":"Rhein-Sieg-Kreis","type":"Kreis"},"federalState":{"key":"05","name":"Nordrhein-Westfalen"}},{"name":"Im Frieden","postalCode":"53639","locality":"Königswinter","municipality":{"key":"05382024","name":"Königswinter, Stadt","type":"Stadt"},"district":{"key":"05382","name":"Rhein-Sieg-Kreis","type":"Kreis"},"federalState":{"key":"05","name":"Nordrhein-Westfalen"}},{"name":"Im Gärtchen","postalCode":"53639","locality":"Königswinter","municipality":{"key":"05382024","name":"Königswinter, Stadt","type":"Stadt"},"district":{"key":"05382","name":"Rhein-Sieg-Kreis","type":"Kreis"},"federalState":{"key":"05","name":"Nordrhein-Westfalen"}},{"name":"Im Grund","postalCode":"53639","locality":"Königswinter","municipality":{"key":"05382024","name":"Königswinter, Stadt","type":"Stadt"},"district":{"key":"05382","name":"Rhein-Sieg-Kreis","type":"Kreis"},"federalState":{"key":"05","name":"Nordrhein-Westfalen"}},{"name":"Im Hagen","postalCode":"53639","locality":"Königswinter","municipality":{"key":"05382024","name":"Königswinter, Stadt","type":"Stadt"},"district":{"key":"05382","name":"Rhein-Sieg-Kreis","type":"Kreis"},"federalState":{"key":"05","name":"Nordrhein-Westfalen"}},{"name":"Im Harperoth","postalCode":"53639","locality":"Königswinter","municipality":{"key":"05382024","name":"Königswinter, Stadt","type":"Stadt"},"district":{"key":"05382","name":"Rhein-Sieg-Kreis","type":"Kreis"},"federalState":{"key":"05","name":"Nordrhein-Westfalen"}},{"name":"Im Heidegarten","postalCode":"53639","locality":"Königswinter","municipality":{"key":"05382024","name":"Königswinter, Stadt","type":"Stadt"},"district":{"key":"05382","name":"Rhein-Sieg-Kreis","type":"Kreis"},"federalState":{"key":"05","name":"Nordrhein-Westfalen"}},{"name":"Im Herrengarten","postalCode":"53639","locality":"Königswinter","municipality":{"key":"05382024","name":"Königswinter, Stadt","type":"Stadt"},"district":{"key":"05382","name":"Rhein-Sieg-Kreis","type":"Kreis"},"federalState":{"key":"05","name":"Nordrhein-Westfalen"}},{"name":"Im Hofgarten","postalCode":"53639","locality":"Königswinter","municipality":{"key":"05382024","name":"Königswinter, Stadt","type":"Stadt"},"district":{"key":"05382","name":"Rhein-Sieg-Kreis","type":"Kreis"},"federalState":{"key":"05","name":"Nordrhein-Westfalen"}},{"name":"Im Kleefeld","postalCode":"53639","locality":"Königswinter","municipality":{"key":"05382024","name":"Königswinter, Stadt","type":"Stadt"},"district":{"key":"05382","name":"Rhein-Sieg-Kreis","type":"Kreis"},"federalState":{"key":"05","name":"Nordrhein-Westfalen"}},{"name":"Im Kleegarten","postalCode":"53639","locality":"Königswinter","municipality":{"key":"05382024","name":"Königswinter, Stadt","type":"Stadt"},"district":{"key":"05382","name":"Rhein-Sieg-Kreis","type":"Kreis"},"federalState":{"key":"05","name":"Nordrhein-Westfalen"}},{"name":"Im Komp","postalCode":"53639","locality":"Königswinter","municipality":{"key":"05382024","name":"Königswinter, Stadt","type":"Stadt"},"district":{"key":"05382","name":"Rhein-Sieg-Kreis","type":"Kreis"},"federalState":{"key":"05","name":"Nordrhein-Westfalen"}},{"name":"Im Kottsiefen","postalCode":"53639","locality":"Königswinter","municipality":{"key":"05382024","name":"Königswinter, Stadt","type":"Stadt"},"district":{"key":"05382","name":"Rhein-Sieg-Kreis","type":"Kreis"},"federalState":{"key":"05","name":"Nordrhein-Westfalen"}},{"name":"Im Krägerfeld","postalCode":"53639","locality":"Königswinter","municipality":{"key":"05382024","name":"Königswinter, Stadt","type":"Stadt"},"district":{"key":"05382","name":"Rhein-Sieg-Kreis","type":"Kreis"},"federalState":{"key":"05","name":"Nordrhein-Westfalen"}},{"name":"Im Kreuzgarten","postalCode":"53639","locality":"Königswinter","municipality":{"key":"05382024","name":"Königswinter, Stadt","type":"Stadt"},"district":{"key":"05382","name":"Rhein-Sieg-Kreis","type":"Kreis"},"federalState":{"key":"05","name":"Nordrhein-Westfalen"}},{"name":"Im Mährbruch","postalCode":"53639","locality":"Königswinter","municipality":{"key":"05382024","name":"Königswinter, Stadt","type":"Stadt"},"district":{"key":"05382","name":"Rhein-Sieg-Kreis","type":"Kreis"},"federalState":{"key":"05","name":"Nordrhein-Westfalen"}},{"name":"Im Mettelsiefen","postalCode":"53639","locality":"Königswinter","municipality":{"key":"05382024","name":"Königswinter, Stadt","type":"Stadt"},"district":{"key":"05382","name":"Rhein-Sieg-Kreis","type":"Kreis"},"federalState":{"key":"05","name":"Nordrhein-Westfalen"}},{"name":"Im Michelsfeld","postalCode":"53639","locality":"Königswinter","municipality":{"key":"05382024","name":"Königswinter, Stadt","type":"Stadt"},"district":{"key":"05382","name":"Rhein-Sieg-Kreis","type":"Kreis"},"federalState":{"key":"05","name":"Nordrhein-Westfalen"}},{"name":"Im Mühlenstück","postalCode":"53639","locality":"Königswinter","municipality":{"key":"05382024","name":"Königswinter, Stadt","type":"Stadt"},"district":{"key":"05382","name":"Rhein-Sieg-Kreis","type":"Kreis"},"federalState":{"key":"05","name":"Nordrhein-Westfalen"}},{"name":"Im Mutschenbroich","postalCode":"53639","locality":"Königswinter","municipality":{"key":"05382024","name":"Königswinter, Stadt","type":"Stadt"},"district":{"key":"05382","name":"Rhein-Sieg-Kreis","type":"Kreis"},"federalState":{"key":"05","name":"Nordrhein-Westfalen"}},{"name":"Im neuen Garten","postalCode":"53639","locality":"Königswinter","municipality":{"key":"05382024","name":"Königswinter, Stadt","type":"Stadt"},"district":{"key":"05382","name":"Rhein-Sieg-Kreis","type":"Kreis"},"federalState":{"key":"05","name":"Nordrhein-Westfalen"}},{"name":"Im Oberdorf","postalCode":"53639","locality":"Königswinter","municipality":{"key":"05382024","name":"Königswinter, Stadt","type":"Stadt"},"district":{"key":"05382","name":"Rhein-Sieg-Kreis","type":"Kreis"},"federalState":{"key":"05","name":"Nordrhein-Westfalen"}},{"name":"Im Obstgarten","postalCode":"53639","locality":"Königswinter","municipality":{"key":"05382024","name":"Königswinter, Stadt","type":"Stadt"},"district":{"key":"05382","name":"Rhein-Sieg-Kreis","type":"Kreis"},"federalState":{"key":"05","name":"Nordrhein-Westfalen"}},{"name":"Im Rheingarten","postalCode":"53639","locality":"Königswinter","municipality":{"key":"05382024","name":"Königswinter, Stadt","type":"Stadt"},"district":{"key":"05382","name":"Rhein-Sieg-Kreis","type":"Kreis"},"federalState":{"key":"05","name":"Nordrhein-Westfalen"}},{"name":"Im Rothsiefen","postalCode":"53639","locality":"Königswinter","municipality":{"key":"05382024","name":"Königswinter, Stadt","type":"Stadt"},"district":{"key":"05382","name":"Rhein-Sieg-Kreis","type":"Kreis"},"federalState":{"key":"05","name":"Nordrhein-Westfalen"}},{"name":"Im Scheffenbungert","postalCode":"53639","locality":"Königswinter","municipality":{"key":"05382024","name":"Königswinter, Stadt","type":"Stadt"},"district":{"key":"05382","name":"Rhein-Sieg-Kreis","type":"Kreis"},"federalState":{"key":"05","name":"Nordrhein-Westfalen"}},{"name":"Im Schiefengarten","postalCode":"53639","locality":"Königswinter","municipality":{"key":"05382024","name":"Königswinter, Stadt","type":"Stadt"},"district":{"key":"05382","name":"Rhein-Sieg-Kreis","type":"Kreis"},"federalState":{"key":"05","name":"Nordrhein-Westfalen"}},{"name":"Im Schloßblick","postalCode":"53639","locality":"Königswinter","municipality":{"key":"05382024","name":"Königswinter, Stadt","type":"Stadt"},"district":{"key":"05382","name":"Rhein-Sieg-Kreis","type":"Kreis"},"federalState":{"key":"05","name":"Nordrhein-Westfalen"}},{"name":"Im Schultheißgarten","postalCode":"53639","locality":"Königswinter","municipality":{"key":"05382024","name":"Königswinter, Stadt","type":"Stadt"},"district":{"key":"05382","name":"Rhein-Sieg-Kreis","type":"Kreis"},"federalState":{"key":"05","name":"Nordrhein-Westfalen"}},{"name":"Im Siefen","postalCode":"53639","locality":"Königswinter","municipality":{"key":"05382024","name":"Königswinter, Stadt","type":"Stadt"},"district":{"key":"05382","name":"Rhein-Sieg-Kreis","type":"Kreis"},"federalState":{"key":"05","name":"Nordrhein-Westfalen"}},{"name":"Im Sönning","postalCode":"53639","locality":"Königswinter","municipality":{"key":"05382024","name":"Königswinter, Stadt","type":"Stadt"},"district":{"key":"05382","name":"Rhein-Sieg-Kreis","type":"Kreis"},"federalState":{"key":"05","name":"Nordrhein-Westfalen"}},{"name":"Im Spicher Garten","postalCode":"53639","locality":"Königswinter","municipality":{"key":"05382024","name":"Königswinter, Stadt","type":"Stadt"},"district":{"key":"05382","name":"Rhein-Sieg-Kreis","type":"Kreis"},"federalState":{"key":"05","name":"Nordrhein-Westfalen"}},{"name":"Im Sportfeld","postalCode":"53639","locality":"Königswinter","municipality":{"key":"05382024","name":"Königswinter, Stadt","type":"Stadt"},"district":{"key":"05382","name":"Rhein-Sieg-Kreis","type":"Kreis"},"federalState":{"key":"05","name":"Nordrhein-Westfalen"}},{"name":"Im Stebich","postalCode":"53639","locality":"Königswinter","municipality":{"key":"05382024","name":"Königswinter, Stadt","type":"Stadt"},"district":{"key":"05382","name":"Rhein-Sieg-Kreis","type":"Kreis"},"federalState":{"key":"05","name":"Nordrhein-Westfalen"}},{"name":"Im Stieldorfer Feld","postalCode":"53639","locality":"Königswinter","municipality":{"key":"05382024","name":"Königswinter, Stadt","type":"Stadt"},"district":{"key":"05382","name":"Rhein-Sieg-Kreis","type":"Kreis"},"federalState":{"key":"05","name":"Nordrhein-Westfalen"}},{"name":"Im Sumpfgarten","postalCode":"53639","locality":"Königswinter","municipality":{"key":"05382024","name":"Königswinter, Stadt","type":"Stadt"},"district":{"key":"05382","name":"Rhein-Sieg-Kreis","type":"Kreis"},"federalState":{"key":"05","name":"Nordrhein-Westfalen"}},{"name":"Im Tälchen","postalCode":"53639","locality":"Königswinter","municipality":{"key":"05382024","name":"Königswinter, Stadt","type":"Stadt"},"district":{"key":"05382","name":"Rhein-Sieg-Kreis","type":"Kreis"},"federalState":{"key":"05","name":"Nordrhein-Westfalen"}},{"name":"Im Tannenwinkel","postalCode":"53639","locality":"Königswinter","municipality":{"key":"05382024","name":"Königswinter, Stadt","type":"Stadt"},"district":{"key":"05382","name":"Rhein-Sieg-Kreis","type":"Kreis"},"federalState":{"key":"05","name":"Nordrhein-Westfalen"}},{"name":"Im Taufenbachsgarten","postalCode":"53639","locality":"Königswinter","municipality":{"key":"05382024","name":"Königswinter, Stadt","type":"Stadt"},"district":{"key":"05382","name":"Rhein-Sieg-Kreis","type":"Kreis"},"federalState":{"key":"05","name":"Nordrhein-Westfalen"}},{"name":"Im Untersten Garten","postalCode":"53639","locality":"Königswinter","municipality":{"key":"05382024","name":"Königswinter, Stadt","type":"Stadt"},"district":{"key":"05382","name":"Rhein-Sieg-Kreis","type":"Kreis"},"federalState":{"key":"05","name":"Nordrhein-Westfalen"}},{"name":"Im Vogelsang","postalCode":"53639","locality":"Königswinter","municipality":{"key":"05382024","name":"Königswinter, Stadt","type":"Stadt"},"district":{"key":"05382","name":"Rhein-Sieg-Kreis","type":"Kreis"},"federalState":{"key":"05","name":"Nordrhein-Westfalen"}},{"name":"Jagdweg","postalCode":"53639","locality":"Königswinter","municipality":{"key":"05382024","name":"Königswinter, Stadt","type":"Stadt"},"district":{"key":"05382","name":"Rhein-Sieg-Kreis","type":"Kreis"},"federalState":{"key":"05","name":"Nordrhein-Westfalen"}},{"name":"Jägerstr.","postalCode":"53639","locality":"Königswinter","municipality":{"key":"05382024","name":"Königswinter, Stadt","type":"Stadt"},"district":{"key":"05382","name":"Rhein-Sieg-Kreis","type":"Kreis"},"federalState":{"key":"05","name":"Nordrhein-Westfalen"}},{"name":"Jakob-Kaiser-Str.","postalCode":"53639","locality":"Königswinter","municipality":{"key":"05382024","name":"Königswinter, Stadt","type":"Stadt"},"district":{"key":"05382","name":"Rhein-Sieg-Kreis","type":"Kreis"},"federalState":{"key":"05","name":"Nordrhein-Westfalen"}},{"name":"Jasminweg","postalCode":"53639","locality":"Königswinter","municipality":{"key":"05382024","name":"Königswinter, Stadt","type":"Stadt"},"district":{"key":"05382","name":"Rhein-Sieg-Kreis","type":"Kreis"},"federalState":{"key":"05","name":"Nordrhein-Westfalen"}},{"name":"Jenaer Str.","postalCode":"53639","locality":"Königswinter","municipality":{"key":"05382024","name":"Königswinter, Stadt","type":"Stadt"},"district":{"key":"05382","name":"Rhein-Sieg-Kreis","type":"Kreis"},"federalState":{"key":"05","name":"Nordrhein-Westfalen"}},{"name":"Johannes-Albers-Allee","postalCode":"53639","locality":"Königswinter","municipality":{"key":"05382024","name":"Königswinter, Stadt","type":"Stadt"},"district":{"key":"05382","name":"Rhein-Sieg-Kreis","type":"Kreis"},"federalState":{"key":"05","name":"Nordrhein-Westfalen"}},{"name":"Johann-Lütz-Str.","postalCode":"53639","locality":"Königswinter","municipality":{"key":"05382024","name":"Königswinter, Stadt","type":"Stadt"},"district":{"key":"05382","name":"Rhein-Sieg-Kreis","type":"Kreis"},"federalState":{"key":"05","name":"Nordrhein-Westfalen"}},{"name":"Josef-Müller-Str.","postalCode":"53639","locality":"Königswinter","municipality":{"key":"05382024","name":"Königswinter, Stadt","type":"Stadt"},"district":{"key":"05382","name":"Rhein-Sieg-Kreis","type":"Kreis"},"federalState":{"key":"05","name":"Nordrhein-Westfalen"}},{"name":"Jüngsfelder Str.","postalCode":"53639","locality":"Königswinter","municipality":{"key":"05382024","name":"Königswinter, Stadt","type":"Stadt"},"district":{"key":"05382","name":"Rhein-Sieg-Kreis","type":"Kreis"},"federalState":{"key":"05","name":"Nordrhein-Westfalen"}},{"name":"Kaiserstr.","postalCode":"53639","locality":"Königswinter","municipality":{"key":"05382024","name":"Königswinter, Stadt","type":"Stadt"},"district":{"key":"05382","name":"Rhein-Sieg-Kreis","type":"Kreis"},"federalState":{"key":"05","name":"Nordrhein-Westfalen"}},{"name":"Kantering","postalCode":"53639","locality":"Königswinter","municipality":{"key":"05382024","name":"Königswinter, Stadt","type":"Stadt"},"district":{"key":"05382","name":"Rhein-Sieg-Kreis","type":"Kreis"},"federalState":{"key":"05","name":"Nordrhein-Westfalen"}},{"name":"Kantstr.","postalCode":"53639","locality":"Königswinter","municipality":{"key":"05382024","name":"Königswinter, Stadt","type":"Stadt"},"district":{"key":"05382","name":"Rhein-Sieg-Kreis","type":"Kreis"},"federalState":{"key":"05","name":"Nordrhein-Westfalen"}},{"name":"Kapellenweg","postalCode":"53639","locality":"Königswinter","municipality":{"key":"05382024","name":"Königswinter, Stadt","type":"Stadt"},"district":{"key":"05382","name":"Rhein-Sieg-Kreis","type":"Kreis"},"federalState":{"key":"05","name":"Nordrhein-Westfalen"}},{"name":"Karolinenstr.","postalCode":"53639","locality":"Königswinter","municipality":{"key":"05382024","name":"Königswinter, Stadt","type":"Stadt"},"district":{"key":"05382","name":"Rhein-Sieg-Kreis","type":"Kreis"},"federalState":{"key":"05","name":"Nordrhein-Westfalen"}},{"name":"Kasseler Weg","postalCode":"53639","locality":"Königswinter","municipality":{"key":"05382024","name":"Königswinter, Stadt","type":"Stadt"},"district":{"key":"05382","name":"Rhein-Sieg-Kreis","type":"Kreis"},"federalState":{"key":"05","name":"Nordrhein-Westfalen"}},{"name":"Kastanienweg","postalCode":"53639","locality":"Königswinter","municipality":{"key":"05382024","name":"Königswinter, Stadt","type":"Stadt"},"district":{"key":"05382","name":"Rhein-Sieg-Kreis","type":"Kreis"},"federalState":{"key":"05","name":"Nordrhein-Westfalen"}},{"name":"Kellerberger Winzerweg","postalCode":"53639","locality":"Königswinter","municipality":{"key":"05382024","name":"Königswinter, Stadt","type":"Stadt"},"district":{"key":"05382","name":"Rhein-Sieg-Kreis","type":"Kreis"},"federalState":{"key":"05","name":"Nordrhein-Westfalen"}},{"name":"Kellersboserother Str.","postalCode":"53639","locality":"Königswinter","municipality":{"key":"05382024","name":"Königswinter, Stadt","type":"Stadt"},"district":{"key":"05382","name":"Rhein-Sieg-Kreis","type":"Kreis"},"federalState":{"key":"05","name":"Nordrhein-Westfalen"}},{"name":"Kellerstr.","postalCode":"53639","locality":"Königswinter","municipality":{"key":"05382024","name":"Königswinter, Stadt","type":"Stadt"},"district":{"key":"05382","name":"Rhein-Sieg-Kreis","type":"Kreis"},"federalState":{"key":"05","name":"Nordrhein-Westfalen"}},{"name":"Kelterstr.","postalCode":"53639","locality":"Königswinter","municipality":{"key":"05382024","name":"Königswinter, Stadt","type":"Stadt"},"district":{"key":"05382","name":"Rhein-Sieg-Kreis","type":"Kreis"},"federalState":{"key":"05","name":"Nordrhein-Westfalen"}},{"name":"Kelvinstr.","postalCode":"53639","locality":"Königswinter","municipality":{"key":"05382024","name":"Königswinter, Stadt","type":"Stadt"},"district":{"key":"05382","name":"Rhein-Sieg-Kreis","type":"Kreis"},"federalState":{"key":"05","name":"Nordrhein-Westfalen"}},{"name":"Kiefernweg","postalCode":"53639","locality":"Königswinter","municipality":{"key":"05382024","name":"Königswinter, Stadt","type":"Stadt"},"district":{"key":"05382","name":"Rhein-Sieg-Kreis","type":"Kreis"},"federalState":{"key":"05","name":"Nordrhein-Westfalen"}},{"name":"Kiesweg","postalCode":"53639","locality":"Königswinter","municipality":{"key":"05382024","name":"Königswinter, Stadt","type":"Stadt"},"district":{"key":"05382","name":"Rhein-Sieg-Kreis","type":"Kreis"},"federalState":{"key":"05","name":"Nordrhein-Westfalen"}},{"name":"Kirchbitzgasse","postalCode":"53639","locality":"Königswinter","municipality":{"key":"05382024","name":"Königswinter, Stadt","type":"Stadt"},"district":{"key":"05382","name":"Rhein-Sieg-Kreis","type":"Kreis"},"federalState":{"key":"05","name":"Nordrhein-Westfalen"}},{"name":"Kirchbüchel","postalCode":"53639","locality":"Königswinter","municipality":{"key":"05382024","name":"Königswinter, Stadt","type":"Stadt"},"district":{"key":"05382","name":"Rhein-Sieg-Kreis","type":"Kreis"},"federalState":{"key":"05","name":"Nordrhein-Westfalen"}},{"name":"Kirchstr.","postalCode":"53639","locality":"Königswinter","municipality":{"key":"05382024","name":"Königswinter, Stadt","type":"Stadt"},"district":{"key":"05382","name":"Rhein-Sieg-Kreis","type":"Kreis"},"federalState":{"key":"05","name":"Nordrhein-Westfalen"}},{"name":"Kirschblütenweg","postalCode":"53639","locality":"Königswinter","municipality":{"key":"05382024","name":"Königswinter, Stadt","type":"Stadt"},"district":{"key":"05382","name":"Rhein-Sieg-Kreis","type":"Kreis"},"federalState":{"key":"05","name":"Nordrhein-Westfalen"}},{"name":"Kitschburger Str.","postalCode":"53639","locality":"Königswinter","municipality":{"key":"05382024","name":"Königswinter, Stadt","type":"Stadt"},"district":{"key":"05382","name":"Rhein-Sieg-Kreis","type":"Kreis"},"federalState":{"key":"05","name":"Nordrhein-Westfalen"}},{"name":"Kleiberweg","postalCode":"53639","locality":"Königswinter","municipality":{"key":"05382024","name":"Königswinter, Stadt","type":"Stadt"},"district":{"key":"05382","name":"Rhein-Sieg-Kreis","type":"Kreis"},"federalState":{"key":"05","name":"Nordrhein-Westfalen"}},{"name":"Kleiner Graben","postalCode":"53639","locality":"Königswinter","municipality":{"key":"05382024","name":"Königswinter, Stadt","type":"Stadt"},"district":{"key":"05382","name":"Rhein-Sieg-Kreis","type":"Kreis"},"federalState":{"key":"05","name":"Nordrhein-Westfalen"}},{"name":"Kleiststr.","postalCode":"53639","locality":"Königswinter","municipality":{"key":"05382024","name":"Königswinter, Stadt","type":"Stadt"},"district":{"key":"05382","name":"Rhein-Sieg-Kreis","type":"Kreis"},"federalState":{"key":"05","name":"Nordrhein-Westfalen"}},{"name":"Klotzstr.","postalCode":"53639","locality":"Königswinter","municipality":{"key":"05382024","name":"Königswinter, Stadt","type":"Stadt"},"district":{"key":"05382","name":"Rhein-Sieg-Kreis","type":"Kreis"},"federalState":{"key":"05","name":"Nordrhein-Westfalen"}},{"name":"Kohlstr.","postalCode":"53639","locality":"Königswinter","municipality":{"key":"05382024","name":"Königswinter, Stadt","type":"Stadt"},"district":{"key":"05382","name":"Rhein-Sieg-Kreis","type":"Kreis"},"federalState":{"key":"05","name":"Nordrhein-Westfalen"}},{"name":"Kollwitzstr.","postalCode":"53639","locality":"Königswinter","municipality":{"key":"05382024","name":"Königswinter, Stadt","type":"Stadt"},"district":{"key":"05382","name":"Rhein-Sieg-Kreis","type":"Kreis"},"federalState":{"key":"05","name":"Nordrhein-Westfalen"}},{"name":"Königstr.","postalCode":"53639","locality":"Königswinter","municipality":{"key":"05382024","name":"Königswinter, Stadt","type":"Stadt"},"district":{"key":"05382","name":"Rhein-Sieg-Kreis","type":"Kreis"},"federalState":{"key":"05","name":"Nordrhein-Westfalen"}},{"name":"Königswinterer Str.","postalCode":"53639","locality":"Königswinter","municipality":{"key":"05382024","name":"Königswinter, Stadt","type":"Stadt"},"district":{"key":"05382","name":"Rhein-Sieg-Kreis","type":"Kreis"},"federalState":{"key":"05","name":"Nordrhein-Westfalen"}},{"name":"Köschbitze","postalCode":"53639","locality":"Königswinter","municipality":{"key":"05382024","name":"Königswinter, Stadt","type":"Stadt"},"district":{"key":"05382","name":"Rhein-Sieg-Kreis","type":"Kreis"},"federalState":{"key":"05","name":"Nordrhein-Westfalen"}},{"name":"Kranzweg","postalCode":"53639","locality":"Königswinter","municipality":{"key":"05382024","name":"Königswinter, Stadt","type":"Stadt"},"district":{"key":"05382","name":"Rhein-Sieg-Kreis","type":"Kreis"},"federalState":{"key":"05","name":"Nordrhein-Westfalen"}},{"name":"Kreuzstr.","postalCode":"53639","locality":"Königswinter","municipality":{"key":"05382024","name":"Königswinter, Stadt","type":"Stadt"},"district":{"key":"05382","name":"Rhein-Sieg-Kreis","type":"Kreis"},"federalState":{"key":"05","name":"Nordrhein-Westfalen"}},{"name":"Kreuzweg","postalCode":"53639","locality":"Königswinter","municipality":{"key":"05382024","name":"Königswinter, Stadt","type":"Stadt"},"district":{"key":"05382","name":"Rhein-Sieg-Kreis","type":"Kreis"},"federalState":{"key":"05","name":"Nordrhein-Westfalen"}},{"name":"Kronprinzenstr.","postalCode":"53639","locality":"Königswinter","municipality":{"key":"05382024","name":"Königswinter, Stadt","type":"Stadt"},"district":{"key":"05382","name":"Rhein-Sieg-Kreis","type":"Kreis"},"federalState":{"key":"05","name":"Nordrhein-Westfalen"}},{"name":"Krummölser Weg","postalCode":"53639","locality":"Königswinter","municipality":{"key":"05382024","name":"Königswinter, Stadt","type":"Stadt"},"district":{"key":"05382","name":"Rhein-Sieg-Kreis","type":"Kreis"},"federalState":{"key":"05","name":"Nordrhein-Westfalen"}},{"name":"Kuckucksweg","postalCode":"53639","locality":"Königswinter","municipality":{"key":"05382024","name":"Königswinter, Stadt","type":"Stadt"},"district":{"key":"05382","name":"Rhein-Sieg-Kreis","type":"Kreis"},"federalState":{"key":"05","name":"Nordrhein-Westfalen"}},{"name":"Kupferweg","postalCode":"53639","locality":"Königswinter","municipality":{"key":"05382024","name":"Königswinter, Stadt","type":"Stadt"},"district":{"key":"05382","name":"Rhein-Sieg-Kreis","type":"Kreis"},"federalState":{"key":"05","name":"Nordrhein-Westfalen"}},{"name":"Kurfürstenstr.","postalCode":"53639","locality":"Königswinter","municipality":{"key":"05382024","name":"Königswinter, Stadt","type":"Stadt"},"district":{"key":"05382","name":"Rhein-Sieg-Kreis","type":"Kreis"},"federalState":{"key":"05","name":"Nordrhein-Westfalen"}},{"name":"Lahrring","postalCode":"53639","locality":"Königswinter","municipality":{"key":"05382024","name":"Königswinter, Stadt","type":"Stadt"},"district":{"key":"05382","name":"Rhein-Sieg-Kreis","type":"Kreis"},"federalState":{"key":"05","name":"Nordrhein-Westfalen"}},{"name":"Lamberth-Klein-Weg","postalCode":"53639","locality":"Königswinter","municipality":{"key":"05382024","name":"Königswinter, Stadt","type":"Stadt"},"district":{"key":"05382","name":"Rhein-Sieg-Kreis","type":"Kreis"},"federalState":{"key":"05","name":"Nordrhein-Westfalen"}},{"name":"Landgrabenstr.","postalCode":"53639","locality":"Königswinter","municipality":{"key":"05382024","name":"Königswinter, Stadt","type":"Stadt"},"district":{"key":"05382","name":"Rhein-Sieg-Kreis","type":"Kreis"},"federalState":{"key":"05","name":"Nordrhein-Westfalen"}},{"name":"Lange Hecke","postalCode":"53639","locality":"Königswinter","municipality":{"key":"05382024","name":"Königswinter, Stadt","type":"Stadt"},"district":{"key":"05382","name":"Rhein-Sieg-Kreis","type":"Kreis"},"federalState":{"key":"05","name":"Nordrhein-Westfalen"}},{"name":"Langemarckstr.","postalCode":"53639","locality":"Königswinter","municipality":{"key":"05382024","name":"Königswinter, Stadt","type":"Stadt"},"district":{"key":"05382","name":"Rhein-Sieg-Kreis","type":"Kreis"},"federalState":{"key":"05","name":"Nordrhein-Westfalen"}},{"name":"Langenberger Weg","postalCode":"53639","locality":"Königswinter","municipality":{"key":"05382024","name":"Königswinter, Stadt","type":"Stadt"},"district":{"key":"05382","name":"Rhein-Sieg-Kreis","type":"Kreis"},"federalState":{"key":"05","name":"Nordrhein-Westfalen"}},{"name":"Langer Weg","postalCode":"53639","locality":"Königswinter","municipality":{"key":"05382024","name":"Königswinter, Stadt","type":"Stadt"},"district":{"key":"05382","name":"Rhein-Sieg-Kreis","type":"Kreis"},"federalState":{"key":"05","name":"Nordrhein-Westfalen"}},{"name":"Laubenweg","postalCode":"53639","locality":"Königswinter","municipality":{"key":"05382024","name":"Königswinter, Stadt","type":"Stadt"},"district":{"key":"05382","name":"Rhein-Sieg-Kreis","type":"Kreis"},"federalState":{"key":"05","name":"Nordrhein-Westfalen"}},{"name":"Laurentiusstr.","postalCode":"53639","locality":"Königswinter","municipality":{"key":"05382024","name":"Königswinter, Stadt","type":"Stadt"},"district":{"key":"05382","name":"Rhein-Sieg-Kreis","type":"Kreis"},"federalState":{"key":"05","name":"Nordrhein-Westfalen"}},{"name":"Lauterbachstr.","postalCode":"53639","locality":"Königswinter","municipality":{"key":"05382024","name":"Königswinter, Stadt","type":"Stadt"},"district":{"key":"05382","name":"Rhein-Sieg-Kreis","type":"Kreis"},"federalState":{"key":"05","name":"Nordrhein-Westfalen"}},{"name":"Lauterbachtal","postalCode":"53639","locality":"Königswinter","municipality":{"key":"05382024","name":"Königswinter, Stadt","type":"Stadt"},"district":{"key":"05382","name":"Rhein-Sieg-Kreis","type":"Kreis"},"federalState":{"key":"05","name":"Nordrhein-Westfalen"}},{"name":"Leithecker Str.","postalCode":"53639","locality":"Königswinter","municipality":{"key":"05382024","name":"Königswinter, Stadt","type":"Stadt"},"district":{"key":"05382","name":"Rhein-Sieg-Kreis","type":"Kreis"},"federalState":{"key":"05","name":"Nordrhein-Westfalen"}},{"name":"Leo Tendler Anlage","postalCode":"53639","locality":"Königswinter","municipality":{"key":"05382024","name":"Königswinter, Stadt","type":"Stadt"},"district":{"key":"05382","name":"Rhein-Sieg-Kreis","type":"Kreis"},"federalState":{"key":"05","name":"Nordrhein-Westfalen"}},{"name":"Libellenweg","postalCode":"53639","locality":"Königswinter","municipality":{"key":"05382024","name":"Königswinter, Stadt","type":"Stadt"},"district":{"key":"05382","name":"Rhein-Sieg-Kreis","type":"Kreis"},"federalState":{"key":"05","name":"Nordrhein-Westfalen"}},{"name":"Lichgasse","postalCode":"53639","locality":"Königswinter","municipality":{"key":"05382024","name":"Königswinter, Stadt","type":"Stadt"},"district":{"key":"05382","name":"Rhein-Sieg-Kreis","type":"Kreis"},"federalState":{"key":"05","name":"Nordrhein-Westfalen"}},{"name":"Lilienweg","postalCode":"53639","locality":"Königswinter","municipality":{"key":"05382024","name":"Königswinter, Stadt","type":"Stadt"},"district":{"key":"05382","name":"Rhein-Sieg-Kreis","type":"Kreis"},"federalState":{"key":"05","name":"Nordrhein-Westfalen"}},{"name":"Lindenstr.","postalCode":"53639","locality":"Königswinter","municipality":{"key":"05382024","name":"Königswinter, Stadt","type":"Stadt"},"district":{"key":"05382","name":"Rhein-Sieg-Kreis","type":"Kreis"},"federalState":{"key":"05","name":"Nordrhein-Westfalen"}},{"name":"Logebachstr.","postalCode":"53639","locality":"Königswinter","municipality":{"key":"05382024","name":"Königswinter, Stadt","type":"Stadt"},"district":{"key":"05382","name":"Rhein-Sieg-Kreis","type":"Kreis"},"federalState":{"key":"05","name":"Nordrhein-Westfalen"}},{"name":"Lohrbergrundweg","postalCode":"53639","locality":"Königswinter","municipality":{"key":"05382024","name":"Königswinter, Stadt","type":"Stadt"},"district":{"key":"05382","name":"Rhein-Sieg-Kreis","type":"Kreis"},"federalState":{"key":"05","name":"Nordrhein-Westfalen"}},{"name":"Lohrbergstr.","postalCode":"53639","locality":"Königswinter","municipality":{"key":"05382024","name":"Königswinter, Stadt","type":"Stadt"},"district":{"key":"05382","name":"Rhein-Sieg-Kreis","type":"Kreis"},"federalState":{"key":"05","name":"Nordrhein-Westfalen"}},{"name":"Lommerwiese","postalCode":"53639","locality":"Königswinter","municipality":{"key":"05382024","name":"Königswinter, Stadt","type":"Stadt"},"district":{"key":"05382","name":"Rhein-Sieg-Kreis","type":"Kreis"},"federalState":{"key":"05","name":"Nordrhein-Westfalen"}},{"name":"Longenburger Str.","postalCode":"53639","locality":"Königswinter","municipality":{"key":"05382024","name":"Königswinter, Stadt","type":"Stadt"},"district":{"key":"05382","name":"Rhein-Sieg-Kreis","type":"Kreis"},"federalState":{"key":"05","name":"Nordrhein-Westfalen"}},{"name":"Löwenburger Str.","postalCode":"53639","locality":"Königswinter","municipality":{"key":"05382024","name":"Königswinter, Stadt","type":"Stadt"},"district":{"key":"05382","name":"Rhein-Sieg-Kreis","type":"Kreis"},"federalState":{"key":"05","name":"Nordrhein-Westfalen"}},{"name":"Lützer Weg","postalCode":"53639","locality":"Königswinter","municipality":{"key":"05382024","name":"Königswinter, Stadt","type":"Stadt"},"district":{"key":"05382","name":"Rhein-Sieg-Kreis","type":"Kreis"},"federalState":{"key":"05","name":"Nordrhein-Westfalen"}},{"name":"Maarweg","postalCode":"53639","locality":"Königswinter","municipality":{"key":"05382024","name":"Königswinter, Stadt","type":"Stadt"},"district":{"key":"05382","name":"Rhein-Sieg-Kreis","type":"Kreis"},"federalState":{"key":"05","name":"Nordrhein-Westfalen"}},{"name":"Malteserstr.","postalCode":"53639","locality":"Königswinter","municipality":{"key":"05382024","name":"Königswinter, Stadt","type":"Stadt"},"district":{"key":"05382","name":"Rhein-Sieg-Kreis","type":"Kreis"},"federalState":{"key":"05","name":"Nordrhein-Westfalen"}},{"name":"Margaretenstr.","postalCode":"53639","locality":"Königswinter","municipality":{"key":"05382024","name":"Königswinter, Stadt","type":"Stadt"},"district":{"key":"05382","name":"Rhein-Sieg-Kreis","type":"Kreis"},"federalState":{"key":"05","name":"Nordrhein-Westfalen"}},{"name":"Margarete-Reißner-Str.","postalCode":"53639","locality":"Königswinter","municipality":{"key":"05382024","name":"Königswinter, Stadt","type":"Stadt"},"district":{"key":"05382","name":"Rhein-Sieg-Kreis","type":"Kreis"},"federalState":{"key":"05","name":"Nordrhein-Westfalen"}},{"name":"Marienstr.","postalCode":"53639","locality":"Königswinter","municipality":{"key":"05382024","name":"Königswinter, Stadt","type":"Stadt"},"district":{"key":"05382","name":"Rhein-Sieg-Kreis","type":"Kreis"},"federalState":{"key":"05","name":"Nordrhein-Westfalen"}},{"name":"Markgrafenstr.","postalCode":"53639","locality":"Königswinter","municipality":{"key":"05382024","name":"Königswinter, Stadt","type":"Stadt"},"district":{"key":"05382","name":"Rhein-Sieg-Kreis","type":"Kreis"},"federalState":{"key":"05","name":"Nordrhein-Westfalen"}},{"name":"Marxstr.","postalCode":"53639","locality":"Königswinter","municipality":{"key":"05382024","name":"Königswinter, Stadt","type":"Stadt"},"district":{"key":"05382","name":"Rhein-Sieg-Kreis","type":"Kreis"},"federalState":{"key":"05","name":"Nordrhein-Westfalen"}},{"name":"Mathildenpark","postalCode":"53639","locality":"Königswinter","municipality":{"key":"05382024","name":"Königswinter, Stadt","type":"Stadt"},"district":{"key":"05382","name":"Rhein-Sieg-Kreis","type":"Kreis"},"federalState":{"key":"05","name":"Nordrhein-Westfalen"}},{"name":"Mäuseweg","postalCode":"53639","locality":"Königswinter","municipality":{"key":"05382024","name":"Königswinter, Stadt","type":"Stadt"},"district":{"key":"05382","name":"Rhein-Sieg-Kreis","type":"Kreis"},"federalState":{"key":"05","name":"Nordrhein-Westfalen"}},{"name":"Meerkatzstr.","postalCode":"53639","locality":"Königswinter","municipality":{"key":"05382024","name":"Königswinter, Stadt","type":"Stadt"},"district":{"key":"05382","name":"Rhein-Sieg-Kreis","type":"Kreis"},"federalState":{"key":"05","name":"Nordrhein-Westfalen"}},{"name":"Meisenweg","postalCode":"53639","locality":"Königswinter","municipality":{"key":"05382024","name":"Königswinter, Stadt","type":"Stadt"},"district":{"key":"05382","name":"Rhein-Sieg-Kreis","type":"Kreis"},"federalState":{"key":"05","name":"Nordrhein-Westfalen"}},{"name":"Mettelsiefen","postalCode":"53639","locality":"Königswinter","municipality":{"key":"05382024","name":"Königswinter, Stadt","type":"Stadt"},"district":{"key":"05382","name":"Rhein-Sieg-Kreis","type":"Kreis"},"federalState":{"key":"05","name":"Nordrhein-Westfalen"}},{"name":"Michaelstr.","postalCode":"53639","locality":"Königswinter","municipality":{"key":"05382024","name":"Königswinter, Stadt","type":"Stadt"},"district":{"key":"05382","name":"Rhein-Sieg-Kreis","type":"Kreis"},"federalState":{"key":"05","name":"Nordrhein-Westfalen"}},{"name":"Mirbachstr.","postalCode":"53639","locality":"Königswinter","municipality":{"key":"05382024","name":"Königswinter, Stadt","type":"Stadt"},"district":{"key":"05382","name":"Rhein-Sieg-Kreis","type":"Kreis"},"federalState":{"key":"05","name":"Nordrhein-Westfalen"}},{"name":"Mittelweg","postalCode":"53639","locality":"Königswinter","municipality":{"key":"05382024","name":"Königswinter, Stadt","type":"Stadt"},"district":{"key":"05382","name":"Rhein-Sieg-Kreis","type":"Kreis"},"federalState":{"key":"05","name":"Nordrhein-Westfalen"}},{"name":"Mönchsweg","postalCode":"53639","locality":"Königswinter","municipality":{"key":"05382024","name":"Königswinter, Stadt","type":"Stadt"},"district":{"key":"05382","name":"Rhein-Sieg-Kreis","type":"Kreis"},"federalState":{"key":"05","name":"Nordrhein-Westfalen"}},{"name":"Möwenweg","postalCode":"53639","locality":"Königswinter","municipality":{"key":"05382024","name":"Königswinter, Stadt","type":"Stadt"},"district":{"key":"05382","name":"Rhein-Sieg-Kreis","type":"Kreis"},"federalState":{"key":"05","name":"Nordrhein-Westfalen"}},{"name":"Mozartstr.","postalCode":"53639","locality":"Königswinter","municipality":{"key":"05382024","name":"Königswinter, Stadt","type":"Stadt"},"district":{"key":"05382","name":"Rhein-Sieg-Kreis","type":"Kreis"},"federalState":{"key":"05","name":"Nordrhein-Westfalen"}},{"name":"Mühlenbitze","postalCode":"53639","locality":"Königswinter","municipality":{"key":"05382024","name":"Königswinter, Stadt","type":"Stadt"},"district":{"key":"05382","name":"Rhein-Sieg-Kreis","type":"Kreis"},"federalState":{"key":"05","name":"Nordrhein-Westfalen"}},{"name":"Mühlenstr.","postalCode":"53639","locality":"Königswinter","municipality":{"key":"05382024","name":"Königswinter, Stadt","type":"Stadt"},"district":{"key":"05382","name":"Rhein-Sieg-Kreis","type":"Kreis"},"federalState":{"key":"05","name":"Nordrhein-Westfalen"}},{"name":"Mühlental","postalCode":"53639","locality":"Königswinter","municipality":{"key":"05382024","name":"Königswinter, Stadt","type":"Stadt"},"district":{"key":"05382","name":"Rhein-Sieg-Kreis","type":"Kreis"},"federalState":{"key":"05","name":"Nordrhein-Westfalen"}},{"name":"Mührener Weg","postalCode":"53639","locality":"Königswinter","municipality":{"key":"05382024","name":"Königswinter, Stadt","type":"Stadt"},"district":{"key":"05382","name":"Rhein-Sieg-Kreis","type":"Kreis"},"federalState":{"key":"05","name":"Nordrhein-Westfalen"}},{"name":"Muhre-Wipp-Platz","postalCode":"53639","locality":"Königswinter","municipality":{"key":"05382024","name":"Königswinter, Stadt","type":"Stadt"},"district":{"key":"05382","name":"Rhein-Sieg-Kreis","type":"Kreis"},"federalState":{"key":"05","name":"Nordrhein-Westfalen"}},{"name":"Nachtigallental","postalCode":"53639","locality":"Königswinter","municipality":{"key":"05382024","name":"Königswinter, Stadt","type":"Stadt"},"district":{"key":"05382","name":"Rhein-Sieg-Kreis","type":"Kreis"},"federalState":{"key":"05","name":"Nordrhein-Westfalen"}},{"name":"Neuenhofer Str.","postalCode":"53639","locality":"Königswinter","municipality":{"key":"05382024","name":"Königswinter, Stadt","type":"Stadt"},"district":{"key":"05382","name":"Rhein-Sieg-Kreis","type":"Kreis"},"federalState":{"key":"05","name":"Nordrhein-Westfalen"}},{"name":"Neuer Weg","postalCode":"53639","locality":"Königswinter","municipality":{"key":"05382024","name":"Königswinter, Stadt","type":"Stadt"},"district":{"key":"05382","name":"Rhein-Sieg-Kreis","type":"Kreis"},"federalState":{"key":"05","name":"Nordrhein-Westfalen"}},{"name":"Neuglückstr.","postalCode":"53639","locality":"Königswinter","municipality":{"key":"05382024","name":"Königswinter, Stadt","type":"Stadt"},"district":{"key":"05382","name":"Rhein-Sieg-Kreis","type":"Kreis"},"federalState":{"key":"05","name":"Nordrhein-Westfalen"}},{"name":"Niederbach","postalCode":"53639","locality":"Königswinter","municipality":{"key":"05382024","name":"Königswinter, Stadt","type":"Stadt"},"district":{"key":"05382","name":"Rhein-Sieg-Kreis","type":"Kreis"},"federalState":{"key":"05","name":"Nordrhein-Westfalen"}},{"name":"Niederdollendorfer Str.","postalCode":"53639","locality":"Königswinter","municipality":{"key":"05382024","name":"Königswinter, Stadt","type":"Stadt"},"district":{"key":"05382","name":"Rhein-Sieg-Kreis","type":"Kreis"},"federalState":{"key":"05","name":"Nordrhein-Westfalen"}},{"name":"Nonnenberger Str.","postalCode":"53639","locality":"Königswinter","municipality":{"key":"05382024","name":"Königswinter, Stadt","type":"Stadt"},"district":{"key":"05382","name":"Rhein-Sieg-Kreis","type":"Kreis"},"federalState":{"key":"05","name":"Nordrhein-Westfalen"}},{"name":"Nonnenstrombergstr.","postalCode":"53639","locality":"Königswinter","municipality":{"key":"05382024","name":"Königswinter, Stadt","type":"Stadt"},"district":{"key":"05382","name":"Rhein-Sieg-Kreis","type":"Kreis"},"federalState":{"key":"05","name":"Nordrhein-Westfalen"}},{"name":"Nonnenstrombergweg","postalCode":"53639","locality":"Königswinter","municipality":{"key":"05382024","name":"Königswinter, Stadt","type":"Stadt"},"district":{"key":"05382","name":"Rhein-Sieg-Kreis","type":"Kreis"},"federalState":{"key":"05","name":"Nordrhein-Westfalen"}},{"name":"Nordmark","postalCode":"53639","locality":"Königswinter","municipality":{"key":"05382024","name":"Königswinter, Stadt","type":"Stadt"},"district":{"key":"05382","name":"Rhein-Sieg-Kreis","type":"Kreis"},"federalState":{"key":"05","name":"Nordrhein-Westfalen"}},{"name":"Ober der Linde","postalCode":"53639","locality":"Königswinter","municipality":{"key":"05382024","name":"Königswinter, Stadt","type":"Stadt"},"district":{"key":"05382","name":"Rhein-Sieg-Kreis","type":"Kreis"},"federalState":{"key":"05","name":"Nordrhein-Westfalen"}},{"name":"Obere Str.","postalCode":"53639","locality":"Königswinter","municipality":{"key":"05382024","name":"Königswinter, Stadt","type":"Stadt"},"district":{"key":"05382","name":"Rhein-Sieg-Kreis","type":"Kreis"},"federalState":{"key":"05","name":"Nordrhein-Westfalen"}},{"name":"Oberförster Ringkloffweg","postalCode":"53639","locality":"Königswinter","municipality":{"key":"05382024","name":"Königswinter, Stadt","type":"Stadt"},"district":{"key":"05382","name":"Rhein-Sieg-Kreis","type":"Kreis"},"federalState":{"key":"05","name":"Nordrhein-Westfalen"}},{"name":"Oberkasseler Str.","postalCode":"53639","locality":"Königswinter","municipality":{"key":"05382024","name":"Königswinter, Stadt","type":"Stadt"},"district":{"key":"05382","name":"Rhein-Sieg-Kreis","type":"Kreis"},"federalState":{"key":"05","name":"Nordrhein-Westfalen"}},{"name":"Oberpleiser Str.","postalCode":"53639","locality":"Königswinter","municipality":{"key":"05382024","name":"Königswinter, Stadt","type":"Stadt"},"district":{"key":"05382","name":"Rhein-Sieg-Kreis","type":"Kreis"},"federalState":{"key":"05","name":"Nordrhein-Westfalen"}},{"name":"Oberweingartenweg","postalCode":"53639","locality":"Königswinter","municipality":{"key":"05382024","name":"Königswinter, Stadt","type":"Stadt"},"district":{"key":"05382","name":"Rhein-Sieg-Kreis","type":"Kreis"},"federalState":{"key":"05","name":"Nordrhein-Westfalen"}},{"name":"Oelbergblick","postalCode":"53639","locality":"Königswinter","municipality":{"key":"05382024","name":"Königswinter, Stadt","type":"Stadt"},"district":{"key":"05382","name":"Rhein-Sieg-Kreis","type":"Kreis"},"federalState":{"key":"05","name":"Nordrhein-Westfalen"}},{"name":"Oelbergringweg","postalCode":"53639","locality":"Königswinter","municipality":{"key":"05382024","name":"Königswinter, Stadt","type":"Stadt"},"district":{"key":"05382","name":"Rhein-Sieg-Kreis","type":"Kreis"},"federalState":{"key":"05","name":"Nordrhein-Westfalen"}},{"name":"Oelberg-Rundweg","postalCode":"53639","locality":"Königswinter","municipality":{"key":"05382024","name":"Königswinter, Stadt","type":"Stadt"},"district":{"key":"05382","name":"Rhein-Sieg-Kreis","type":"Kreis"},"federalState":{"key":"05","name":"Nordrhein-Westfalen"}},{"name":"Oelbergstr.","postalCode":"53639","locality":"Königswinter","municipality":{"key":"05382024","name":"Königswinter, Stadt","type":"Stadt"},"district":{"key":"05382","name":"Rhein-Sieg-Kreis","type":"Kreis"},"federalState":{"key":"05","name":"Nordrhein-Westfalen"}},{"name":"Oelinghovener Str.","postalCode":"53639","locality":"Königswinter","municipality":{"key":"05382024","name":"Königswinter, Stadt","type":"Stadt"},"district":{"key":"05382","name":"Rhein-Sieg-Kreis","type":"Kreis"},"federalState":{"key":"05","name":"Nordrhein-Westfalen"}},{"name":"Otenbergweg","postalCode":"53639","locality":"Königswinter","municipality":{"key":"05382024","name":"Königswinter, Stadt","type":"Stadt"},"district":{"key":"05382","name":"Rhein-Sieg-Kreis","type":"Kreis"},"federalState":{"key":"05","name":"Nordrhein-Westfalen"}},{"name":"Pädche","postalCode":"53639","locality":"Königswinter","municipality":{"key":"05382024","name":"Königswinter, Stadt","type":"Stadt"},"district":{"key":"05382","name":"Rhein-Sieg-Kreis","type":"Kreis"},"federalState":{"key":"05","name":"Nordrhein-Westfalen"}},{"name":"Panoramaweg","postalCode":"53639","locality":"Königswinter","municipality":{"key":"05382024","name":"Königswinter, Stadt","type":"Stadt"},"district":{"key":"05382","name":"Rhein-Sieg-Kreis","type":"Kreis"},"federalState":{"key":"05","name":"Nordrhein-Westfalen"}},{"name":"Pappelallee","postalCode":"53639","locality":"Königswinter","municipality":{"key":"05382024","name":"Königswinter, Stadt","type":"Stadt"},"district":{"key":"05382","name":"Rhein-Sieg-Kreis","type":"Kreis"},"federalState":{"key":"05","name":"Nordrhein-Westfalen"}},{"name":"Park Haus Bachem","postalCode":"53639","locality":"Königswinter","municipality":{"key":"05382024","name":"Königswinter, Stadt","type":"Stadt"},"district":{"key":"05382","name":"Rhein-Sieg-Kreis","type":"Kreis"},"federalState":{"key":"05","name":"Nordrhein-Westfalen"}},{"name":"Parkstr.","postalCode":"53639","locality":"Königswinter","municipality":{"key":"05382024","name":"Königswinter, Stadt","type":"Stadt"},"district":{"key":"05382","name":"Rhein-Sieg-Kreis","type":"Kreis"},"federalState":{"key":"05","name":"Nordrhein-Westfalen"}},{"name":"Pastor-Kreuser-Weg","postalCode":"53639","locality":"Königswinter","municipality":{"key":"05382024","name":"Königswinter, Stadt","type":"Stadt"},"district":{"key":"05382","name":"Rhein-Sieg-Kreis","type":"Kreis"},"federalState":{"key":"05","name":"Nordrhein-Westfalen"}},{"name":"Paul-Lemmerz-Str.","postalCode":"53639","locality":"Königswinter","municipality":{"key":"05382024","name":"Königswinter, Stadt","type":"Stadt"},"district":{"key":"05382","name":"Rhein-Sieg-Kreis","type":"Kreis"},"federalState":{"key":"05","name":"Nordrhein-Westfalen"}},{"name":"Paulstr.","postalCode":"53639","locality":"Königswinter","municipality":{"key":"05382024","name":"Königswinter, Stadt","type":"Stadt"},"district":{"key":"05382","name":"Rhein-Sieg-Kreis","type":"Kreis"},"federalState":{"key":"05","name":"Nordrhein-Westfalen"}},{"name":"Peter-Moll-Weg","postalCode":"53639","locality":"Königswinter","municipality":{"key":"05382024","name":"Königswinter, Stadt","type":"Stadt"},"district":{"key":"05382","name":"Rhein-Sieg-Kreis","type":"Kreis"},"federalState":{"key":"05","name":"Nordrhein-Westfalen"}},{"name":"Petersberger Bittweg","postalCode":"53639","locality":"Königswinter","municipality":{"key":"05382024","name":"Königswinter, Stadt","type":"Stadt"},"district":{"key":"05382","name":"Rhein-Sieg-Kreis","type":"Kreis"},"federalState":{"key":"05","name":"Nordrhein-Westfalen"}},{"name":"Petersbergstr.","postalCode":"53639","locality":"Königswinter","municipality":{"key":"05382024","name":"Königswinter, Stadt","type":"Stadt"},"district":{"key":"05382","name":"Rhein-Sieg-Kreis","type":"Kreis"},"federalState":{"key":"05","name":"Nordrhein-Westfalen"}},{"name":"Peter-Staffel-Platz","postalCode":"53639","locality":"Königswinter","municipality":{"key":"05382024","name":"Königswinter, Stadt","type":"Stadt"},"district":{"key":"05382","name":"Rhein-Sieg-Kreis","type":"Kreis"},"federalState":{"key":"05","name":"Nordrhein-Westfalen"}},{"name":"Peter-Weyler-Str.","postalCode":"53639","locality":"Königswinter","municipality":{"key":"05382024","name":"Königswinter, Stadt","type":"Stadt"},"district":{"key":"05382","name":"Rhein-Sieg-Kreis","type":"Kreis"},"federalState":{"key":"05","name":"Nordrhein-Westfalen"}},{"name":"Petrusstr.","postalCode":"53639","locality":"Königswinter","municipality":{"key":"05382024","name":"Königswinter, Stadt","type":"Stadt"},"district":{"key":"05382","name":"Rhein-Sieg-Kreis","type":"Kreis"},"federalState":{"key":"05","name":"Nordrhein-Westfalen"}},{"name":"Pfarrer-Franßen-Weg","postalCode":"53639","locality":"Königswinter","municipality":{"key":"05382024","name":"Königswinter, Stadt","type":"Stadt"},"district":{"key":"05382","name":"Rhein-Sieg-Kreis","type":"Kreis"},"federalState":{"key":"05","name":"Nordrhein-Westfalen"}},{"name":"Pfarrer-Hambüchen-Weg","postalCode":"53639","locality":"Königswinter","municipality":{"key":"05382024","name":"Königswinter, Stadt","type":"Stadt"},"district":{"key":"05382","name":"Rhein-Sieg-Kreis","type":"Kreis"},"federalState":{"key":"05","name":"Nordrhein-Westfalen"}},{"name":"Pfarrer-Klais-Weg","postalCode":"53639","locality":"Königswinter","municipality":{"key":"05382024","name":"Königswinter, Stadt","type":"Stadt"},"district":{"key":"05382","name":"Rhein-Sieg-Kreis","type":"Kreis"},"federalState":{"key":"05","name":"Nordrhein-Westfalen"}},{"name":"Pfarrer-Palm-Str.","postalCode":"53639","locality":"Königswinter","municipality":{"key":"05382024","name":"Königswinter, Stadt","type":"Stadt"},"district":{"key":"05382","name":"Rhein-Sieg-Kreis","type":"Kreis"},"federalState":{"key":"05","name":"Nordrhein-Westfalen"}},{"name":"Pfarrer-Wichert-Str.","postalCode":"53639","locality":"Königswinter","municipality":{"key":"05382024","name":"Königswinter, Stadt","type":"Stadt"},"district":{"key":"05382","name":"Rhein-Sieg-Kreis","type":"Kreis"},"federalState":{"key":"05","name":"Nordrhein-Westfalen"}},{"name":"Pfefferstr.","postalCode":"53639","locality":"Königswinter","municipality":{"key":"05382024","name":"Königswinter, Stadt","type":"Stadt"},"district":{"key":"05382","name":"Rhein-Sieg-Kreis","type":"Kreis"},"federalState":{"key":"05","name":"Nordrhein-Westfalen"}},{"name":"Plantagenweg","postalCode":"53639","locality":"Königswinter","municipality":{"key":"05382024","name":"Königswinter, Stadt","type":"Stadt"},"district":{"key":"05382","name":"Rhein-Sieg-Kreis","type":"Kreis"},"federalState":{"key":"05","name":"Nordrhein-Westfalen"}},{"name":"Plätzer Weg","postalCode":"53639","locality":"Königswinter","municipality":{"key":"05382024","name":"Königswinter, Stadt","type":"Stadt"},"district":{"key":"05382","name":"Rhein-Sieg-Kreis","type":"Kreis"},"federalState":{"key":"05","name":"Nordrhein-Westfalen"}},{"name":"Pleeser Gässchen","postalCode":"53639","locality":"Königswinter","municipality":{"key":"05382024","name":"Königswinter, Stadt","type":"Stadt"},"district":{"key":"05382","name":"Rhein-Sieg-Kreis","type":"Kreis"},"federalState":{"key":"05","name":"Nordrhein-Westfalen"}},{"name":"Pleiserhohner Str.","postalCode":"53639","locality":"Königswinter","municipality":{"key":"05382024","name":"Königswinter, Stadt","type":"Stadt"},"district":{"key":"05382","name":"Rhein-Sieg-Kreis","type":"Kreis"},"federalState":{"key":"05","name":"Nordrhein-Westfalen"}},{"name":"Pleistalstr.","postalCode":"53639","locality":"Königswinter","municipality":{"key":"05382024","name":"Königswinter, Stadt","type":"Stadt"},"district":{"key":"05382","name":"Rhein-Sieg-Kreis","type":"Kreis"},"federalState":{"key":"05","name":"Nordrhein-Westfalen"}},{"name":"Prälat-Buchholz-Str.","postalCode":"53639","locality":"Königswinter","municipality":{"key":"05382024","name":"Königswinter, Stadt","type":"Stadt"},"district":{"key":"05382","name":"Rhein-Sieg-Kreis","type":"Kreis"},"federalState":{"key":"05","name":"Nordrhein-Westfalen"}},{"name":"Proffenweg","postalCode":"53639","locality":"Königswinter","municipality":{"key":"05382024","name":"Königswinter, Stadt","type":"Stadt"},"district":{"key":"05382","name":"Rhein-Sieg-Kreis","type":"Kreis"},"federalState":{"key":"05","name":"Nordrhein-Westfalen"}},{"name":"Propsteistr.","postalCode":"53639","locality":"Königswinter","municipality":{"key":"05382024","name":"Königswinter, Stadt","type":"Stadt"},"district":{"key":"05382","name":"Rhein-Sieg-Kreis","type":"Kreis"},"federalState":{"key":"05","name":"Nordrhein-Westfalen"}},{"name":"Propsthofstr.","postalCode":"53639","locality":"Königswinter","municipality":{"key":"05382024","name":"Königswinter, Stadt","type":"Stadt"},"district":{"key":"05382","name":"Rhein-Sieg-Kreis","type":"Kreis"},"federalState":{"key":"05","name":"Nordrhein-Westfalen"}},{"name":"Pützbungert","postalCode":"53639","locality":"Königswinter","municipality":{"key":"05382024","name":"Königswinter, Stadt","type":"Stadt"},"district":{"key":"05382","name":"Rhein-Sieg-Kreis","type":"Kreis"},"federalState":{"key":"05","name":"Nordrhein-Westfalen"}},{"name":"Pützstr.","postalCode":"53639","locality":"Königswinter","municipality":{"key":"05382024","name":"Königswinter, Stadt","type":"Stadt"},"district":{"key":"05382","name":"Rhein-Sieg-Kreis","type":"Kreis"},"federalState":{"key":"05","name":"Nordrhein-Westfalen"}},{"name":"Pützstücker Str.","postalCode":"53639","locality":"Königswinter","municipality":{"key":"05382024","name":"Königswinter, Stadt","type":"Stadt"},"district":{"key":"05382","name":"Rhein-Sieg-Kreis","type":"Kreis"},"federalState":{"key":"05","name":"Nordrhein-Westfalen"}},{"name":"Quarzitweg","postalCode":"53639","locality":"Königswinter","municipality":{"key":"05382024","name":"Königswinter, Stadt","type":"Stadt"},"district":{"key":"05382","name":"Rhein-Sieg-Kreis","type":"Kreis"},"federalState":{"key":"05","name":"Nordrhein-Westfalen"}},{"name":"Quellenweg","postalCode":"53639","locality":"Königswinter","municipality":{"key":"05382024","name":"Königswinter, Stadt","type":"Stadt"},"district":{"key":"05382","name":"Rhein-Sieg-Kreis","type":"Kreis"},"federalState":{"key":"05","name":"Nordrhein-Westfalen"}},{"name":"Raiffeisenstr.","postalCode":"53639","locality":"Königswinter","municipality":{"key":"05382024","name":"Königswinter, Stadt","type":"Stadt"},"district":{"key":"05382","name":"Rhein-Sieg-Kreis","type":"Kreis"},"federalState":{"key":"05","name":"Nordrhein-Westfalen"}},{"name":"Rauschendorfer Str.","postalCode":"53639","locality":"Königswinter","municipality":{"key":"05382024","name":"Königswinter, Stadt","type":"Stadt"},"district":{"key":"05382","name":"Rhein-Sieg-Kreis","type":"Kreis"},"federalState":{"key":"05","name":"Nordrhein-Westfalen"}},{"name":"Rehweg","postalCode":"53639","locality":"Königswinter","municipality":{"key":"05382024","name":"Königswinter, Stadt","type":"Stadt"},"district":{"key":"05382","name":"Rhein-Sieg-Kreis","type":"Kreis"},"federalState":{"key":"05","name":"Nordrhein-Westfalen"}},{"name":"Reihbäumer Weg","postalCode":"53639","locality":"Königswinter","municipality":{"key":"05382024","name":"Königswinter, Stadt","type":"Stadt"},"district":{"key":"05382","name":"Rhein-Sieg-Kreis","type":"Kreis"},"federalState":{"key":"05","name":"Nordrhein-Westfalen"}},{"name":"Rektor-Helten-Weg","postalCode":"53639","locality":"Königswinter","municipality":{"key":"05382024","name":"Königswinter, Stadt","type":"Stadt"},"district":{"key":"05382","name":"Rhein-Sieg-Kreis","type":"Kreis"},"federalState":{"key":"05","name":"Nordrhein-Westfalen"}},{"name":"Remigiusstr.","postalCode":"53639","locality":"Königswinter","municipality":{"key":"05382024","name":"Königswinter, Stadt","type":"Stadt"},"district":{"key":"05382","name":"Rhein-Sieg-Kreis","type":"Kreis"},"federalState":{"key":"05","name":"Nordrhein-Westfalen"}},{"name":"Rennenbergstr.","postalCode":"53639","locality":"Königswinter","municipality":{"key":"05382024","name":"Königswinter, Stadt","type":"Stadt"},"district":{"key":"05382","name":"Rhein-Sieg-Kreis","type":"Kreis"},"federalState":{"key":"05","name":"Nordrhein-Westfalen"}},{"name":"Rettungsweg","postalCode":"53639","locality":"Königswinter","municipality":{"key":"05382024","name":"Königswinter, Stadt","type":"Stadt"},"district":{"key":"05382","name":"Rhein-Sieg-Kreis","type":"Kreis"},"federalState":{"key":"05","name":"Nordrhein-Westfalen"}},{"name":"Rheinallee","postalCode":"53639","locality":"Königswinter","municipality":{"key":"05382024","name":"Königswinter, Stadt","type":"Stadt"},"district":{"key":"05382","name":"Rhein-Sieg-Kreis","type":"Kreis"},"federalState":{"key":"05","name":"Nordrhein-Westfalen"}},{"name":"Rheinstr.","postalCode":"53639","locality":"Königswinter","municipality":{"key":"05382024","name":"Königswinter, Stadt","type":"Stadt"},"district":{"key":"05382","name":"Rhein-Sieg-Kreis","type":"Kreis"},"federalState":{"key":"05","name":"Nordrhein-Westfalen"}},{"name":"Rheinufer","postalCode":"53639","locality":"Königswinter","municipality":{"key":"05382024","name":"Königswinter, Stadt","type":"Stadt"},"district":{"key":"05382","name":"Rhein-Sieg-Kreis","type":"Kreis"},"federalState":{"key":"05","name":"Nordrhein-Westfalen"}},{"name":"Ringstr.","postalCode":"53639","locality":"Königswinter","municipality":{"key":"05382024","name":"Königswinter, Stadt","type":"Stadt"},"district":{"key":"05382","name":"Rhein-Sieg-Kreis","type":"Kreis"},"federalState":{"key":"05","name":"Nordrhein-Westfalen"}},{"name":"Römlinghovener Str.","postalCode":"53639","locality":"Königswinter","municipality":{"key":"05382024","name":"Königswinter, Stadt","type":"Stadt"},"district":{"key":"05382","name":"Rhein-Sieg-Kreis","type":"Kreis"},"federalState":{"key":"05","name":"Nordrhein-Westfalen"}},{"name":"Rosenaustr.","postalCode":"53639","locality":"Königswinter","municipality":{"key":"05382024","name":"Königswinter, Stadt","type":"Stadt"},"district":{"key":"05382","name":"Rhein-Sieg-Kreis","type":"Kreis"},"federalState":{"key":"05","name":"Nordrhein-Westfalen"}},{"name":"Rosenweg","postalCode":"53639","locality":"Königswinter","municipality":{"key":"05382024","name":"Königswinter, Stadt","type":"Stadt"},"district":{"key":"05382","name":"Rhein-Sieg-Kreis","type":"Kreis"},"federalState":{"key":"05","name":"Nordrhein-Westfalen"}},{"name":"Rotdornstr.","postalCode":"53639","locality":"Königswinter","municipality":{"key":"05382024","name":"Königswinter, Stadt","type":"Stadt"},"district":{"key":"05382","name":"Rhein-Sieg-Kreis","type":"Kreis"},"federalState":{"key":"05","name":"Nordrhein-Westfalen"}},{"name":"Rübhausener Str.","postalCode":"53639","locality":"Königswinter","municipality":{"key":"05382024","name":"Königswinter, Stadt","type":"Stadt"},"district":{"key":"05382","name":"Rhein-Sieg-Kreis","type":"Kreis"},"federalState":{"key":"05","name":"Nordrhein-Westfalen"}},{"name":"Rundweg","postalCode":"53639","locality":"Königswinter","municipality":{"key":"05382024","name":"Königswinter, Stadt","type":"Stadt"},"district":{"key":"05382","name":"Rhein-Sieg-Kreis","type":"Kreis"},"federalState":{"key":"05","name":"Nordrhein-Westfalen"}},{"name":"Ruttscheider Str.","postalCode":"53639","locality":"Königswinter","municipality":{"key":"05382024","name":"Königswinter, Stadt","type":"Stadt"},"district":{"key":"05382","name":"Rhein-Sieg-Kreis","type":"Kreis"},"federalState":{"key":"05","name":"Nordrhein-Westfalen"}},{"name":"Sander Str.","postalCode":"53639","locality":"Königswinter","municipality":{"key":"05382024","name":"Königswinter, Stadt","type":"Stadt"},"district":{"key":"05382","name":"Rhein-Sieg-Kreis","type":"Kreis"},"federalState":{"key":"05","name":"Nordrhein-Westfalen"}},{"name":"Sandscheider Str.","postalCode":"53639","locality":"Königswinter","municipality":{"key":"05382024","name":"Königswinter, Stadt","type":"Stadt"},"district":{"key":"05382","name":"Rhein-Sieg-Kreis","type":"Kreis"},"federalState":{"key":"05","name":"Nordrhein-Westfalen"}},{"name":"Sassenberger Str.","postalCode":"53639","locality":"Königswinter","municipality":{"key":"05382024","name":"Königswinter, Stadt","type":"Stadt"},"district":{"key":"05382","name":"Rhein-Sieg-Kreis","type":"Kreis"},"federalState":{"key":"05","name":"Nordrhein-Westfalen"}},{"name":"Scheurenstr.","postalCode":"53639","locality":"Königswinter","municipality":{"key":"05382024","name":"Königswinter, Stadt","type":"Stadt"},"district":{"key":"05382","name":"Rhein-Sieg-Kreis","type":"Kreis"},"federalState":{"key":"05","name":"Nordrhein-Westfalen"}},{"name":"Schilfweg","postalCode":"53639","locality":"Königswinter","municipality":{"key":"05382024","name":"Königswinter, Stadt","type":"Stadt"},"district":{"key":"05382","name":"Rhein-Sieg-Kreis","type":"Kreis"},"federalState":{"key":"05","name":"Nordrhein-Westfalen"}},{"name":"Schillingstr.","postalCode":"53639","locality":"Königswinter","municipality":{"key":"05382024","name":"Königswinter, Stadt","type":"Stadt"},"district":{"key":"05382","name":"Rhein-Sieg-Kreis","type":"Kreis"},"federalState":{"key":"05","name":"Nordrhein-Westfalen"}},{"name":"Schlehecke","postalCode":"53639","locality":"Königswinter","municipality":{"key":"05382024","name":"Königswinter, Stadt","type":"Stadt"},"district":{"key":"05382","name":"Rhein-Sieg-Kreis","type":"Kreis"},"federalState":{"key":"05","name":"Nordrhein-Westfalen"}},{"name":"Schleifenweg","postalCode":"53639","locality":"Königswinter","municipality":{"key":"05382024","name":"Königswinter, Stadt","type":"Stadt"},"district":{"key":"05382","name":"Rhein-Sieg-Kreis","type":"Kreis"},"federalState":{"key":"05","name":"Nordrhein-Westfalen"}},{"name":"Schmiedegäßchen","postalCode":"53639","locality":"Königswinter","municipality":{"key":"05382024","name":"Königswinter, Stadt","type":"Stadt"},"district":{"key":"05382","name":"Rhein-Sieg-Kreis","type":"Kreis"},"federalState":{"key":"05","name":"Nordrhein-Westfalen"}},{"name":"Schneppenhohner Weg","postalCode":"53639","locality":"Königswinter","municipality":{"key":"05382024","name":"Königswinter, Stadt","type":"Stadt"},"district":{"key":"05382","name":"Rhein-Sieg-Kreis","type":"Kreis"},"federalState":{"key":"05","name":"Nordrhein-Westfalen"}},{"name":"Schnepperother Str.","postalCode":"53639","locality":"Königswinter","municipality":{"key":"05382024","name":"Königswinter, Stadt","type":"Stadt"},"district":{"key":"05382","name":"Rhein-Sieg-Kreis","type":"Kreis"},"federalState":{"key":"05","name":"Nordrhein-Westfalen"}},{"name":"Schöne Aussicht","postalCode":"53639","locality":"Königswinter","municipality":{"key":"05382024","name":"Königswinter, Stadt","type":"Stadt"},"district":{"key":"05382","name":"Rhein-Sieg-Kreis","type":"Kreis"},"federalState":{"key":"05","name":"Nordrhein-Westfalen"}},{"name":"Schönsitzstr.","postalCode":"53639","locality":"Königswinter","municipality":{"key":"05382024","name":"Königswinter, Stadt","type":"Stadt"},"district":{"key":"05382","name":"Rhein-Sieg-Kreis","type":"Kreis"},"federalState":{"key":"05","name":"Nordrhein-Westfalen"}},{"name":"Schröterweg","postalCode":"53639","locality":"Königswinter","municipality":{"key":"05382024","name":"Königswinter, Stadt","type":"Stadt"},"district":{"key":"05382","name":"Rhein-Sieg-Kreis","type":"Kreis"},"federalState":{"key":"05","name":"Nordrhein-Westfalen"}},{"name":"Schulstr.","postalCode":"53639","locality":"Königswinter","municipality":{"key":"05382024","name":"Königswinter, Stadt","type":"Stadt"},"district":{"key":"05382","name":"Rhein-Sieg-Kreis","type":"Kreis"},"federalState":{"key":"05","name":"Nordrhein-Westfalen"}},{"name":"Schumannstr.","postalCode":"53639","locality":"Königswinter","municipality":{"key":"05382024","name":"Königswinter, Stadt","type":"Stadt"},"district":{"key":"05382","name":"Rhein-Sieg-Kreis","type":"Kreis"},"federalState":{"key":"05","name":"Nordrhein-Westfalen"}},{"name":"Schuttlochweg","postalCode":"53639","locality":"Königswinter","municipality":{"key":"05382024","name":"Königswinter, Stadt","type":"Stadt"},"district":{"key":"05382","name":"Rhein-Sieg-Kreis","type":"Kreis"},"federalState":{"key":"05","name":"Nordrhein-Westfalen"}},{"name":"Schützenstr.","postalCode":"53639","locality":"Königswinter","municipality":{"key":"05382024","name":"Königswinter, Stadt","type":"Stadt"},"district":{"key":"05382","name":"Rhein-Sieg-Kreis","type":"Kreis"},"federalState":{"key":"05","name":"Nordrhein-Westfalen"}},{"name":"Schwalbenweg","postalCode":"53639","locality":"Königswinter","municipality":{"key":"05382024","name":"Königswinter, Stadt","type":"Stadt"},"district":{"key":"05382","name":"Rhein-Sieg-Kreis","type":"Kreis"},"federalState":{"key":"05","name":"Nordrhein-Westfalen"}},{"name":"Schwarzer Weg","postalCode":"53639","locality":"Königswinter","municipality":{"key":"05382024","name":"Königswinter, Stadt","type":"Stadt"},"district":{"key":"05382","name":"Rhein-Sieg-Kreis","type":"Kreis"},"federalState":{"key":"05","name":"Nordrhein-Westfalen"}},{"name":"Schwengert","postalCode":"53639","locality":"Königswinter","municipality":{"key":"05382024","name":"Königswinter, Stadt","type":"Stadt"},"district":{"key":"05382","name":"Rhein-Sieg-Kreis","type":"Kreis"},"federalState":{"key":"05","name":"Nordrhein-Westfalen"}},{"name":"Schwester-Timothea-Str.","postalCode":"53639","locality":"Königswinter","municipality":{"key":"05382024","name":"Königswinter, Stadt","type":"Stadt"},"district":{"key":"05382","name":"Rhein-Sieg-Kreis","type":"Kreis"},"federalState":{"key":"05","name":"Nordrhein-Westfalen"}},{"name":"Schwirzpohler Str.","postalCode":"53639","locality":"Königswinter","municipality":{"key":"05382024","name":"Königswinter, Stadt","type":"Stadt"},"district":{"key":"05382","name":"Rhein-Sieg-Kreis","type":"Kreis"},"federalState":{"key":"05","name":"Nordrhein-Westfalen"}},{"name":"Sebastianusstr.","postalCode":"53639","locality":"Königswinter","municipality":{"key":"05382024","name":"Königswinter, Stadt","type":"Stadt"},"district":{"key":"05382","name":"Rhein-Sieg-Kreis","type":"Kreis"},"federalState":{"key":"05","name":"Nordrhein-Westfalen"}},{"name":"Seufzerbrücke","postalCode":"53639","locality":"Königswinter","municipality":{"key":"05382024","name":"Königswinter, Stadt","type":"Stadt"},"district":{"key":"05382","name":"Rhein-Sieg-Kreis","type":"Kreis"},"federalState":{"key":"05","name":"Nordrhein-Westfalen"}},{"name":"Siebengebirgsstr.","postalCode":"53639","locality":"Königswinter","municipality":{"key":"05382024","name":"Königswinter, Stadt","type":"Stadt"},"district":{"key":"05382","name":"Rhein-Sieg-Kreis","type":"Kreis"},"federalState":{"key":"05","name":"Nordrhein-Westfalen"}},{"name":"Siefen","postalCode":"53639","locality":"Königswinter","municipality":{"key":"05382024","name":"Königswinter, Stadt","type":"Stadt"},"district":{"key":"05382","name":"Rhein-Sieg-Kreis","type":"Kreis"},"federalState":{"key":"05","name":"Nordrhein-Westfalen"}},{"name":"Siefenweg","postalCode":"53639","locality":"Königswinter","municipality":{"key":"05382024","name":"Königswinter, Stadt","type":"Stadt"},"district":{"key":"05382","name":"Rhein-Sieg-Kreis","type":"Kreis"},"federalState":{"key":"05","name":"Nordrhein-Westfalen"}},{"name":"Siegburger Str.","postalCode":"53639","locality":"Königswinter","municipality":{"key":"05382024","name":"Königswinter, Stadt","type":"Stadt"},"district":{"key":"05382","name":"Rhein-Sieg-Kreis","type":"Kreis"},"federalState":{"key":"05","name":"Nordrhein-Westfalen"}},{"name":"Silberweg","postalCode":"53639","locality":"Königswinter","municipality":{"key":"05382024","name":"Königswinter, Stadt","type":"Stadt"},"district":{"key":"05382","name":"Rhein-Sieg-Kreis","type":"Kreis"},"federalState":{"key":"05","name":"Nordrhein-Westfalen"}},{"name":"Sofia'Fia'Hintzen Weg","postalCode":"53639","locality":"Königswinter","municipality":{"key":"05382024","name":"Königswinter, Stadt","type":"Stadt"},"district":{"key":"05382","name":"Rhein-Sieg-Kreis","type":"Kreis"},"federalState":{"key":"05","name":"Nordrhein-Westfalen"}},{"name":"Sommerfelder Str.","postalCode":"53639","locality":"Königswinter","municipality":{"key":"05382024","name":"Königswinter, Stadt","type":"Stadt"},"district":{"key":"05382","name":"Rhein-Sieg-Kreis","type":"Kreis"},"federalState":{"key":"05","name":"Nordrhein-Westfalen"}},{"name":"St.-Antonius-Str.","postalCode":"53639","locality":"Königswinter","municipality":{"key":"05382024","name":"Königswinter, Stadt","type":"Stadt"},"district":{"key":"05382","name":"Rhein-Sieg-Kreis","type":"Kreis"},"federalState":{"key":"05","name":"Nordrhein-Westfalen"}},{"name":"Steilweg","postalCode":"53639","locality":"Königswinter","municipality":{"key":"05382024","name":"Königswinter, Stadt","type":"Stadt"},"district":{"key":"05382","name":"Rhein-Sieg-Kreis","type":"Kreis"},"federalState":{"key":"05","name":"Nordrhein-Westfalen"}},{"name":"Steimelstr.","postalCode":"53639","locality":"Königswinter","municipality":{"key":"05382024","name":"Königswinter, Stadt","type":"Stadt"},"district":{"key":"05382","name":"Rhein-Sieg-Kreis","type":"Kreis"},"federalState":{"key":"05","name":"Nordrhein-Westfalen"}},{"name":"Steinpützweg","postalCode":"53639","locality":"Königswinter","municipality":{"key":"05382024","name":"Königswinter, Stadt","type":"Stadt"},"district":{"key":"05382","name":"Rhein-Sieg-Kreis","type":"Kreis"},"federalState":{"key":"05","name":"Nordrhein-Westfalen"}},{"name":"Steinringer Str.","postalCode":"53639","locality":"Königswinter","municipality":{"key":"05382024","name":"Königswinter, Stadt","type":"Stadt"},"district":{"key":"05382","name":"Rhein-Sieg-Kreis","type":"Kreis"},"federalState":{"key":"05","name":"Nordrhein-Westfalen"}},{"name":"Steinrutsche","postalCode":"53639","locality":"Königswinter","municipality":{"key":"05382024","name":"Königswinter, Stadt","type":"Stadt"},"district":{"key":"05382","name":"Rhein-Sieg-Kreis","type":"Kreis"},"federalState":{"key":"05","name":"Nordrhein-Westfalen"}},{"name":"Steinweg","postalCode":"53639","locality":"Königswinter","municipality":{"key":"05382024","name":"Königswinter, Stadt","type":"Stadt"},"district":{"key":"05382","name":"Rhein-Sieg-Kreis","type":"Kreis"},"federalState":{"key":"05","name":"Nordrhein-Westfalen"}},{"name":"Stenzelbergstr.","postalCode":"53639","locality":"Königswinter","municipality":{"key":"05382024","name":"Königswinter, Stadt","type":"Stadt"},"district":{"key":"05382","name":"Rhein-Sieg-Kreis","type":"Kreis"},"federalState":{"key":"05","name":"Nordrhein-Westfalen"}},{"name":"Stephanstr.","postalCode":"53639","locality":"Königswinter","municipality":{"key":"05382024","name":"Königswinter, Stadt","type":"Stadt"},"district":{"key":"05382","name":"Rhein-Sieg-Kreis","type":"Kreis"},"federalState":{"key":"05","name":"Nordrhein-Westfalen"}},{"name":"Sterngäßchen","postalCode":"53639","locality":"Königswinter","municipality":{"key":"05382024","name":"Königswinter, Stadt","type":"Stadt"},"district":{"key":"05382","name":"Rhein-Sieg-Kreis","type":"Kreis"},"federalState":{"key":"05","name":"Nordrhein-Westfalen"}},{"name":"Stieldorferhohn","postalCode":"53639","locality":"Königswinter","municipality":{"key":"05382024","name":"Königswinter, Stadt","type":"Stadt"},"district":{"key":"05382","name":"Rhein-Sieg-Kreis","type":"Kreis"},"federalState":{"key":"05","name":"Nordrhein-Westfalen"}},{"name":"Stockweg","postalCode":"53639","locality":"Königswinter","municipality":{"key":"05382024","name":"Königswinter, Stadt","type":"Stadt"},"district":{"key":"05382","name":"Rhein-Sieg-Kreis","type":"Kreis"},"federalState":{"key":"05","name":"Nordrhein-Westfalen"}},{"name":"Strombergstr.","postalCode":"53639","locality":"Königswinter","municipality":{"key":"05382024","name":"Königswinter, Stadt","type":"Stadt"},"district":{"key":"05382","name":"Rhein-Sieg-Kreis","type":"Kreis"},"federalState":{"key":"05","name":"Nordrhein-Westfalen"}},{"name":"Strücher Weg","postalCode":"53639","locality":"Königswinter","municipality":{"key":"05382024","name":"Königswinter, Stadt","type":"Stadt"},"district":{"key":"05382","name":"Rhein-Sieg-Kreis","type":"Kreis"},"federalState":{"key":"05","name":"Nordrhein-Westfalen"}},{"name":"Stüsserweg","postalCode":"53639","locality":"Königswinter","municipality":{"key":"05382024","name":"Königswinter, Stadt","type":"Stadt"},"district":{"key":"05382","name":"Rhein-Sieg-Kreis","type":"Kreis"},"federalState":{"key":"05","name":"Nordrhein-Westfalen"}},{"name":"Stuxenberger Str.","postalCode":"53639","locality":"Königswinter","municipality":{"key":"05382024","name":"Königswinter, Stadt","type":"Stadt"},"district":{"key":"05382","name":"Rhein-Sieg-Kreis","type":"Kreis"},"federalState":{"key":"05","name":"Nordrhein-Westfalen"}},{"name":"Südhang","postalCode":"53639","locality":"Königswinter","municipality":{"key":"05382024","name":"Königswinter, Stadt","type":"Stadt"},"district":{"key":"05382","name":"Rhein-Sieg-Kreis","type":"Kreis"},"federalState":{"key":"05","name":"Nordrhein-Westfalen"}},{"name":"Talweg","postalCode":"53639","locality":"Königswinter","municipality":{"key":"05382024","name":"Königswinter, Stadt","type":"Stadt"},"district":{"key":"05382","name":"Rhein-Sieg-Kreis","type":"Kreis"},"federalState":{"key":"05","name":"Nordrhein-Westfalen"}},{"name":"Tannenbergweg","postalCode":"53639","locality":"Königswinter","municipality":{"key":"05382024","name":"Königswinter, Stadt","type":"Stadt"},"district":{"key":"05382","name":"Rhein-Sieg-Kreis","type":"Kreis"},"federalState":{"key":"05","name":"Nordrhein-Westfalen"}},{"name":"Tannenweg","postalCode":"53639","locality":"Königswinter","municipality":{"key":"05382024","name":"Königswinter, Stadt","type":"Stadt"},"district":{"key":"05382","name":"Rhein-Sieg-Kreis","type":"Kreis"},"federalState":{"key":"05","name":"Nordrhein-Westfalen"}},{"name":"Taubenbergweg","postalCode":"53639","locality":"Königswinter","municipality":{"key":"05382024","name":"Königswinter, Stadt","type":"Stadt"},"district":{"key":"05382","name":"Rhein-Sieg-Kreis","type":"Kreis"},"federalState":{"key":"05","name":"Nordrhein-Westfalen"}},{"name":"Terrassenweg","postalCode":"53639","locality":"Königswinter","municipality":{"key":"05382024","name":"Königswinter, Stadt","type":"Stadt"},"district":{"key":"05382","name":"Rhein-Sieg-Kreis","type":"Kreis"},"federalState":{"key":"05","name":"Nordrhein-Westfalen"}},{"name":"Thelenbitze","postalCode":"53639","locality":"Königswinter","municipality":{"key":"05382024","name":"Königswinter, Stadt","type":"Stadt"},"district":{"key":"05382","name":"Rhein-Sieg-Kreis","type":"Kreis"},"federalState":{"key":"05","name":"Nordrhein-Westfalen"}},{"name":"Theodor-Fontane-Str.","postalCode":"53639","locality":"Königswinter","municipality":{"key":"05382024","name":"Königswinter, Stadt","type":"Stadt"},"district":{"key":"05382","name":"Rhein-Sieg-Kreis","type":"Kreis"},"federalState":{"key":"05","name":"Nordrhein-Westfalen"}},{"name":"Theodor-Storm-Str.","postalCode":"53639","locality":"Königswinter","municipality":{"key":"05382024","name":"Königswinter, Stadt","type":"Stadt"},"district":{"key":"05382","name":"Rhein-Sieg-Kreis","type":"Kreis"},"federalState":{"key":"05","name":"Nordrhein-Westfalen"}},{"name":"Thomasberger Str.","postalCode":"53639","locality":"Königswinter","municipality":{"key":"05382024","name":"Königswinter, Stadt","type":"Stadt"},"district":{"key":"05382","name":"Rhein-Sieg-Kreis","type":"Kreis"},"federalState":{"key":"05","name":"Nordrhein-Westfalen"}},{"name":"Tillmannswiese","postalCode":"53639","locality":"Königswinter","municipality":{"key":"05382024","name":"Königswinter, Stadt","type":"Stadt"},"district":{"key":"05382","name":"Rhein-Sieg-Kreis","type":"Kreis"},"federalState":{"key":"05","name":"Nordrhein-Westfalen"}},{"name":"Tomberger Str.","postalCode":"53639","locality":"Königswinter","municipality":{"key":"05382024","name":"Königswinter, Stadt","type":"Stadt"},"district":{"key":"05382","name":"Rhein-Sieg-Kreis","type":"Kreis"},"federalState":{"key":"05","name":"Nordrhein-Westfalen"}},{"name":"Torstr.","postalCode":"53639","locality":"Königswinter","municipality":{"key":"05382024","name":"Königswinter, Stadt","type":"Stadt"},"district":{"key":"05382","name":"Rhein-Sieg-Kreis","type":"Kreis"},"federalState":{"key":"05","name":"Nordrhein-Westfalen"}},{"name":"Tulpenweg","postalCode":"53639","locality":"Königswinter","municipality":{"key":"05382024","name":"Königswinter, Stadt","type":"Stadt"},"district":{"key":"05382","name":"Rhein-Sieg-Kreis","type":"Kreis"},"federalState":{"key":"05","name":"Nordrhein-Westfalen"}},{"name":"Turmstr.","postalCode":"53639","locality":"Königswinter","municipality":{"key":"05382024","name":"Königswinter, Stadt","type":"Stadt"},"district":{"key":"05382","name":"Rhein-Sieg-Kreis","type":"Kreis"},"federalState":{"key":"05","name":"Nordrhein-Westfalen"}},{"name":"Unter den Weiden","postalCode":"53639","locality":"Königswinter","municipality":{"key":"05382024","name":"Königswinter, Stadt","type":"Stadt"},"district":{"key":"05382","name":"Rhein-Sieg-Kreis","type":"Kreis"},"federalState":{"key":"05","name":"Nordrhein-Westfalen"}},{"name":"Unterdorfstr.","postalCode":"53639","locality":"Königswinter","municipality":{"key":"05382024","name":"Königswinter, Stadt","type":"Stadt"},"district":{"key":"05382","name":"Rhein-Sieg-Kreis","type":"Kreis"},"federalState":{"key":"05","name":"Nordrhein-Westfalen"}},{"name":"Unterer Rusterweg","postalCode":"53639","locality":"Königswinter","municipality":{"key":"05382024","name":"Königswinter, Stadt","type":"Stadt"},"district":{"key":"05382","name":"Rhein-Sieg-Kreis","type":"Kreis"},"federalState":{"key":"05","name":"Nordrhein-Westfalen"}},{"name":"Vinxeler Str.","postalCode":"53639","locality":"Königswinter","municipality":{"key":"05382024","name":"Königswinter, Stadt","type":"Stadt"},"district":{"key":"05382","name":"Rhein-Sieg-Kreis","type":"Kreis"},"federalState":{"key":"05","name":"Nordrhein-Westfalen"}},{"name":"Virchowstr.","postalCode":"53639","locality":"Königswinter","municipality":{"key":"05382024","name":"Königswinter, Stadt","type":"Stadt"},"district":{"key":"05382","name":"Rhein-Sieg-Kreis","type":"Kreis"},"federalState":{"key":"05","name":"Nordrhein-Westfalen"}},{"name":"Vogtsgasse","postalCode":"53639","locality":"Königswinter","municipality":{"key":"05382024","name":"Königswinter, Stadt","type":"Stadt"},"district":{"key":"05382","name":"Rhein-Sieg-Kreis","type":"Kreis"},"federalState":{"key":"05","name":"Nordrhein-Westfalen"}},{"name":"Von-Claer-Str.","postalCode":"53639","locality":"Königswinter","municipality":{"key":"05382024","name":"Königswinter, Stadt","type":"Stadt"},"district":{"key":"05382","name":"Rhein-Sieg-Kreis","type":"Kreis"},"federalState":{"key":"05","name":"Nordrhein-Westfalen"}},{"name":"Von-Loe-Str.","postalCode":"53639","locality":"Königswinter","municipality":{"key":"05382024","name":"Königswinter, Stadt","type":"Stadt"},"district":{"key":"05382","name":"Rhein-Sieg-Kreis","type":"Kreis"},"federalState":{"key":"05","name":"Nordrhein-Westfalen"}},{"name":"Vulkanstr.","postalCode":"53639","locality":"Königswinter","municipality":{"key":"05382024","name":"Königswinter, Stadt","type":"Stadt"},"district":{"key":"05382","name":"Rhein-Sieg-Kreis","type":"Kreis"},"federalState":{"key":"05","name":"Nordrhein-Westfalen"}},{"name":"Wahlfelder Hof","postalCode":"53639","locality":"Königswinter","municipality":{"key":"05382024","name":"Königswinter, Stadt","type":"Stadt"},"district":{"key":"05382","name":"Rhein-Sieg-Kreis","type":"Kreis"},"federalState":{"key":"05","name":"Nordrhein-Westfalen"}},{"name":"Wahlfelder Mühle","postalCode":"53639","locality":"Königswinter","municipality":{"key":"05382024","name":"Königswinter, Stadt","type":"Stadt"},"district":{"key":"05382","name":"Rhein-Sieg-Kreis","type":"Kreis"},"federalState":{"key":"05","name":"Nordrhein-Westfalen"}},{"name":"Wahlfelder Str.","postalCode":"53639","locality":"Königswinter","municipality":{"key":"05382024","name":"Königswinter, Stadt","type":"Stadt"},"district":{"key":"05382","name":"Rhein-Sieg-Kreis","type":"Kreis"},"federalState":{"key":"05","name":"Nordrhein-Westfalen"}},{"name":"Waldesruh","postalCode":"53639","locality":"Königswinter","municipality":{"key":"05382024","name":"Königswinter, Stadt","type":"Stadt"},"district":{"key":"05382","name":"Rhein-Sieg-Kreis","type":"Kreis"},"federalState":{"key":"05","name":"Nordrhein-Westfalen"}},{"name":"Waldfriedenstr.","postalCode":"53639","locality":"Königswinter","municipality":{"key":"05382024","name":"Königswinter, Stadt","type":"Stadt"},"district":{"key":"05382","name":"Rhein-Sieg-Kreis","type":"Kreis"},"federalState":{"key":"05","name":"Nordrhein-Westfalen"}},{"name":"Waldstr.","postalCode":"53639","locality":"Königswinter","municipality":{"key":"05382024","name":"Königswinter, Stadt","type":"Stadt"},"district":{"key":"05382","name":"Rhein-Sieg-Kreis","type":"Kreis"},"federalState":{"key":"05","name":"Nordrhein-Westfalen"}},{"name":"Wallgäßchen","postalCode":"53639","locality":"Königswinter","municipality":{"key":"05382024","name":"Königswinter, Stadt","type":"Stadt"},"district":{"key":"05382","name":"Rhein-Sieg-Kreis","type":"Kreis"},"federalState":{"key":"05","name":"Nordrhein-Westfalen"}},{"name":"Waschpohler Weg","postalCode":"53639","locality":"Königswinter","municipality":{"key":"05382024","name":"Königswinter, Stadt","type":"Stadt"},"district":{"key":"05382","name":"Rhein-Sieg-Kreis","type":"Kreis"},"federalState":{"key":"05","name":"Nordrhein-Westfalen"}},{"name":"Weberstr.","postalCode":"53639","locality":"Königswinter","municipality":{"key":"05382024","name":"Königswinter, Stadt","type":"Stadt"},"district":{"key":"05382","name":"Rhein-Sieg-Kreis","type":"Kreis"},"federalState":{"key":"05","name":"Nordrhein-Westfalen"}},{"name":"Wehrstr.","postalCode":"53639","locality":"Königswinter","municipality":{"key":"05382024","name":"Königswinter, Stadt","type":"Stadt"},"district":{"key":"05382","name":"Rhein-Sieg-Kreis","type":"Kreis"},"federalState":{"key":"05","name":"Nordrhein-Westfalen"}},{"name":"Weidenweg","postalCode":"53639","locality":"Königswinter","municipality":{"key":"05382024","name":"Königswinter, Stadt","type":"Stadt"},"district":{"key":"05382","name":"Rhein-Sieg-Kreis","type":"Kreis"},"federalState":{"key":"05","name":"Nordrhein-Westfalen"}},{"name":"Weiherstr.","postalCode":"53639","locality":"Königswinter","municipality":{"key":"05382024","name":"Königswinter, Stadt","type":"Stadt"},"district":{"key":"05382","name":"Rhein-Sieg-Kreis","type":"Kreis"},"federalState":{"key":"05","name":"Nordrhein-Westfalen"}},{"name":"Weilberg-Rundweg","postalCode":"53639","locality":"Königswinter","municipality":{"key":"05382024","name":"Königswinter, Stadt","type":"Stadt"},"district":{"key":"05382","name":"Rhein-Sieg-Kreis","type":"Kreis"},"federalState":{"key":"05","name":"Nordrhein-Westfalen"}},{"name":"Weilbergstr.","postalCode":"53639","locality":"Königswinter","municipality":{"key":"05382024","name":"Königswinter, Stadt","type":"Stadt"},"district":{"key":"05382","name":"Rhein-Sieg-Kreis","type":"Kreis"},"federalState":{"key":"05","name":"Nordrhein-Westfalen"}},{"name":"Weilerweg","postalCode":"53639","locality":"Königswinter","municipality":{"key":"05382024","name":"Königswinter, Stadt","type":"Stadt"},"district":{"key":"05382","name":"Rhein-Sieg-Kreis","type":"Kreis"},"federalState":{"key":"05","name":"Nordrhein-Westfalen"}},{"name":"Wiesenstr.","postalCode":"53639","locality":"Königswinter","municipality":{"key":"05382024","name":"Königswinter, Stadt","type":"Stadt"},"district":{"key":"05382","name":"Rhein-Sieg-Kreis","type":"Kreis"},"federalState":{"key":"05","name":"Nordrhein-Westfalen"}},{"name":"Wiesenweg","postalCode":"53639","locality":"Königswinter","municipality":{"key":"05382024","name":"Königswinter, Stadt","type":"Stadt"},"district":{"key":"05382","name":"Rhein-Sieg-Kreis","type":"Kreis"},"federalState":{"key":"05","name":"Nordrhein-Westfalen"}},{"name":"Wilhelm-Liebertz-Str.","postalCode":"53639","locality":"Königswinter","municipality":{"key":"05382024","name":"Königswinter, Stadt","type":"Stadt"},"district":{"key":"05382","name":"Rhein-Sieg-Kreis","type":"Kreis"},"federalState":{"key":"05","name":"Nordrhein-Westfalen"}},{"name":"Wilhelmstr.","postalCode":"53639","locality":"Königswinter","municipality":{"key":"05382024","name":"Königswinter, Stadt","type":"Stadt"},"district":{"key":"05382","name":"Rhein-Sieg-Kreis","type":"Kreis"},"federalState":{"key":"05","name":"Nordrhein-Westfalen"}},{"name":"Willi-Münz-Str.","postalCode":"53639","locality":"Königswinter","municipality":{"key":"05382024","name":"Königswinter, Stadt","type":"Stadt"},"district":{"key":"05382","name":"Rhein-Sieg-Kreis","type":"Kreis"},"federalState":{"key":"05","name":"Nordrhein-Westfalen"}},{"name":"Willmerother Str.","postalCode":"53639","locality":"Königswinter","municipality":{"key":"05382024","name":"Königswinter, Stadt","type":"Stadt"},"district":{"key":"05382","name":"Rhein-Sieg-Kreis","type":"Kreis"},"federalState":{"key":"05","name":"Nordrhein-Westfalen"}},{"name":"Winkelstr.","postalCode":"53639","locality":"Königswinter","municipality":{"key":"05382024","name":"Königswinter, Stadt","type":"Stadt"},"district":{"key":"05382","name":"Rhein-Sieg-Kreis","type":"Kreis"},"federalState":{"key":"05","name":"Nordrhein-Westfalen"}},{"name":"Winzerstr.","postalCode":"53639","locality":"Königswinter","municipality":{"key":"05382024","name":"Königswinter, Stadt","type":"Stadt"},"district":{"key":"05382","name":"Rhein-Sieg-Kreis","type":"Kreis"},"federalState":{"key":"05","name":"Nordrhein-Westfalen"}},{"name":"Wohnpark Nord","postalCode":"53639","locality":"Königswinter","municipality":{"key":"05382024","name":"Königswinter, Stadt","type":"Stadt"},"district":{"key":"05382","name":"Rhein-Sieg-Kreis","type":"Kreis"},"federalState":{"key":"05","name":"Nordrhein-Westfalen"}},{"name":"Wolfgang-Müller-Str.","postalCode":"53639","locality":"Königswinter","municipality":{"key":"05382024","name":"Königswinter, Stadt","type":"Stadt"},"district":{"key":"05382","name":"Rhein-Sieg-Kreis","type":"Kreis"},"federalState":{"key":"05","name":"Nordrhein-Westfalen"}},{"name":"Wolfsgasse","postalCode":"53639","locality":"Königswinter","municipality":{"key":"05382024","name":"Königswinter, Stadt","type":"Stadt"},"district":{"key":"05382","name":"Rhein-Sieg-Kreis","type":"Kreis"},"federalState":{"key":"05","name":"Nordrhein-Westfalen"}},{"name":"Wolfshohn","postalCode":"53639","locality":"Königswinter","municipality":{"key":"05382024","name":"Königswinter, Stadt","type":"Stadt"},"district":{"key":"05382","name":"Rhein-Sieg-Kreis","type":"Kreis"},"federalState":{"key":"05","name":"Nordrhein-Westfalen"}},{"name":"Wolkenburgstr.","postalCode":"53639","locality":"Königswinter","municipality":{"key":"05382024","name":"Königswinter, Stadt","type":"Stadt"},"district":{"key":"05382","name":"Rhein-Sieg-Kreis","type":"Kreis"},"federalState":{"key":"05","name":"Nordrhein-Westfalen"}},{"name":"Wülscheider Str.","postalCode":"53639","locality":"Königswinter","municipality":{"key":"05382024","name":"Königswinter, Stadt","type":"Stadt"},"district":{"key":"05382","name":"Rhein-Sieg-Kreis","type":"Kreis"},"federalState":{"key":"05","name":"Nordrhein-Westfalen"}},{"name":"Zedernweg","postalCode":"53639","locality":"Königswinter","municipality":{"key":"05382024","name":"Königswinter, Stadt","type":"Stadt"},"district":{"key":"05382","name":"Rhein-Sieg-Kreis","type":"Kreis"},"federalState":{"key":"05","name":"Nordrhein-Westfalen"}},{"name":"Zeisigweg","postalCode":"53639","locality":"Königswinter","municipality":{"key":"05382024","name":"Königswinter, Stadt","type":"Stadt"},"district":{"key":"05382","name":"Rhein-Sieg-Kreis","type":"Kreis"},"federalState":{"key":"05","name":"Nordrhein-Westfalen"}},{"name":"Zensweg","postalCode":"53639","locality":"Königswinter","municipality":{"key":"05382024","name":"Königswinter, Stadt","type":"Stadt"},"district":{"key":"05382","name":"Rhein-Sieg-Kreis","type":"Kreis"},"federalState":{"key":"05","name":"Nordrhein-Westfalen"}},{"name":"Zu den Quellen","postalCode":"53639","locality":"Königswinter","municipality":{"key":"05382024","name":"Königswinter, Stadt","type":"Stadt"},"district":{"key":"05382","name":"Rhein-Sieg-Kreis","type":"Kreis"},"federalState":{"key":"05","name":"Nordrhein-Westfalen"}},{"name":"Zum Bendt","postalCode":"53639","locality":"Königswinter","municipality":{"key":"05382024","name":"Königswinter, Stadt","type":"Stadt"},"district":{"key":"05382","name":"Rhein-Sieg-Kreis","type":"Kreis"},"federalState":{"key":"05","name":"Nordrhein-Westfalen"}},{"name":"Zum Buschhof","postalCode":"53639","locality":"Königswinter","municipality":{"key":"05382024","name":"Königswinter, Stadt","type":"Stadt"},"district":{"key":"05382","name":"Rhein-Sieg-Kreis","type":"Kreis"},"federalState":{"key":"05","name":"Nordrhein-Westfalen"}},{"name":"Zum Eichenbusch","postalCode":"53639","locality":"Königswinter","municipality":{"key":"05382024","name":"Königswinter, Stadt","type":"Stadt"},"district":{"key":"05382","name":"Rhein-Sieg-Kreis","type":"Kreis"},"federalState":{"key":"05","name":"Nordrhein-Westfalen"}},{"name":"Zum Kleinen Oelberg","postalCode":"53639","locality":"Königswinter","municipality":{"key":"05382024","name":"Königswinter, Stadt","type":"Stadt"},"district":{"key":"05382","name":"Rhein-Sieg-Kreis","type":"Kreis"},"federalState":{"key":"05","name":"Nordrhein-Westfalen"}},{"name":"Zum Rauert","postalCode":"53639","locality":"Königswinter","municipality":{"key":"05382024","name":"Königswinter, Stadt","type":"Stadt"},"district":{"key":"05382","name":"Rhein-Sieg-Kreis","type":"Kreis"},"federalState":{"key":"05","name":"Nordrhein-Westfalen"}},{"name":"Zum Rothberg","postalCode":"53639","locality":"Königswinter","municipality":{"key":"05382024","name":"Königswinter, Stadt","type":"Stadt"},"district":{"key":"05382","name":"Rhein-Sieg-Kreis","type":"Kreis"},"federalState":{"key":"05","name":"Nordrhein-Westfalen"}},{"name":"Zum Scharfenberg","postalCode":"53639","locality":"Königswinter","municipality":{"key":"05382024","name":"Königswinter, Stadt","type":"Stadt"},"district":{"key":"05382","name":"Rhein-Sieg-Kreis","type":"Kreis"},"federalState":{"key":"05","name":"Nordrhein-Westfalen"}},{"name":"Zum Scheidsgarten","postalCode":"53639","locality":"Königswinter","municipality":{"key":"05382024","name":"Königswinter, Stadt","type":"Stadt"},"district":{"key":"05382","name":"Rhein-Sieg-Kreis","type":"Kreis"},"federalState":{"key":"05","name":"Nordrhein-Westfalen"}},{"name":"Zum Sonnenberg","postalCode":"53639","locality":"Königswinter","municipality":{"key":"05382024","name":"Königswinter, Stadt","type":"Stadt"},"district":{"key":"05382","name":"Rhein-Sieg-Kreis","type":"Kreis"},"federalState":{"key":"05","name":"Nordrhein-Westfalen"}},{"name":"Zum Stöckerhof","postalCode":"53639","locality":"Königswinter","municipality":{"key":"05382024","name":"Königswinter, Stadt","type":"Stadt"},"district":{"key":"05382","name":"Rhein-Sieg-Kreis","type":"Kreis"},"federalState":{"key":"05","name":"Nordrhein-Westfalen"}},{"name":"Zum Unteren Tunnel","postalCode":"53639","locality":"Königswinter","municipality":{"key":"05382024","name":"Königswinter, Stadt","type":"Stadt"},"district":{"key":"05382","name":"Rhein-Sieg-Kreis","type":"Kreis"},"federalState":{"key":"05","name":"Nordrhein-Westfalen"}},{"name":"Zur Bungertshecke","postalCode":"53639","locality":"Königswinter","municipality":{"key":"05382024","name":"Königswinter, Stadt","type":"Stadt"},"district":{"key":"05382","name":"Rhein-Sieg-Kreis","type":"Kreis"},"federalState":{"key":"05","name":"Nordrhein-Westfalen"}},{"name":"Zur Glockenwiese","postalCode":"53639","locality":"Königswinter","municipality":{"key":"05382024","name":"Königswinter, Stadt","type":"Stadt"},"district":{"key":"05382","name":"Rhein-Sieg-Kreis","type":"Kreis"},"federalState":{"key":"05","name":"Nordrhein-Westfalen"}},{"name":"Zur Grafschaft","postalCode":"53639","locality":"Königswinter","municipality":{"key":"05382024","name":"Königswinter, Stadt","type":"Stadt"},"district":{"key":"05382","name":"Rhein-Sieg-Kreis","type":"Kreis"},"federalState":{"key":"05","name":"Nordrhein-Westfalen"}},{"name":"Zur Heide","postalCode":"53639","locality":"Königswinter","municipality":{"key":"05382024","name":"Königswinter, Stadt","type":"Stadt"},"district":{"key":"05382","name":"Rhein-Sieg-Kreis","type":"Kreis"},"federalState":{"key":"05","name":"Nordrhein-Westfalen"}},{"name":"Zur Heisterbacher Talbahn","postalCode":"53639","locality":"Königswinter","municipality":{"key":"05382024","name":"Königswinter, Stadt","type":"Stadt"},"district":{"key":"05382","name":"Rhein-Sieg-Kreis","type":"Kreis"},"federalState":{"key":"05","name":"Nordrhein-Westfalen"}},{"name":"Zur Laubach","postalCode":"53639","locality":"Königswinter","municipality":{"key":"05382024","name":"Königswinter, Stadt","type":"Stadt"},"district":{"key":"05382","name":"Rhein-Sieg-Kreis","type":"Kreis"},"federalState":{"key":"05","name":"Nordrhein-Westfalen"}},{"name":"Zur Mühle","postalCode":"53639","locality":"Königswinter","municipality":{"key":"05382024","name":"Königswinter, Stadt","type":"Stadt"},"district":{"key":"05382","name":"Rhein-Sieg-Kreis","type":"Kreis"},"federalState":{"key":"05","name":"Nordrhein-Westfalen"}},{"name":"Zur Sandkaule","postalCode":"53639","locality":"Königswinter","municipality":{"key":"05382024","name":"Königswinter, Stadt","type":"Stadt"},"district":{"key":"05382","name":"Rhein-Sieg-Kreis","type":"Kreis"},"federalState":{"key":"05","name":"Nordrhein-Westfalen"}},{"name":"Zur Thomaslinde","postalCode":"53639","locality":"Königswinter","municipality":{"key":"05382024","name":"Königswinter, Stadt","type":"Stadt"},"district":{"key":"05382","name":"Rhein-Sieg-Kreis","type":"Kreis"},"federalState":{"key":"05","name":"Nordrhein-Westfalen"}},{"name":"Zweikreuzenweg","postalCode":"53639","locality":"Königswinter","municipality":{"key":"05382024","name":"Königswinter, Stadt","type":"Stadt"},"district":{"key":"05382","name":"Rhein-Sieg-Kreis","type":"Kreis"},"federalState":{"key":"05","name":"Nordrhein-Westfalen"}},]