[{"name":"Agathazeller Weg","postalCode":"87545","locality":"Burgberg i.Allgäu","municipality":{"key":"09780118","name":"Burgberg i.Allgäu","type":"Kreisangehörige_Gemeinde"},"district":{"key":"09780","name":"Oberallgäu","type":"Landkreis"},"federalState":{"key":"09","name":"Bayern"}},{"name":"Allee","postalCode":"87545","locality":"Burgberg i.Allgäu","municipality":{"key":"09780118","name":"Burgberg i.Allgäu","type":"Kreisangehörige_Gemeinde"},"district":{"key":"09780","name":"Oberallgäu","type":"Landkreis"},"federalState":{"key":"09","name":"Bayern"}},{"name":"Alpenrosenstr.","postalCode":"87545","locality":"Burgberg i.Allgäu","municipality":{"key":"09780118","name":"Burgberg i.Allgäu","type":"Kreisangehörige_Gemeinde"},"district":{"key":"09780","name":"Oberallgäu","type":"Landkreis"},"federalState":{"key":"09","name":"Bayern"}},{"name":"Altbürgermeister Köberle Str.","postalCode":"87545","locality":"Burgberg i.Allgäu","municipality":{"key":"09780118","name":"Burgberg i.Allgäu","type":"Kreisangehörige_Gemeinde"},"district":{"key":"09780","name":"Oberallgäu","type":"Landkreis"},"federalState":{"key":"09","name":"Bayern"}},{"name":"Alter Roßbergweg","postalCode":"87545","locality":"Burgberg i.Allgäu","municipality":{"key":"09780118","name":"Burgberg i.Allgäu","type":"Kreisangehörige_Gemeinde"},"district":{"key":"09780","name":"Oberallgäu","type":"Landkreis"},"federalState":{"key":"09","name":"Bayern"}},{"name":"Am Bichel","postalCode":"87545","locality":"Burgberg i.Allgäu","municipality":{"key":"09780118","name":"Burgberg i.Allgäu","type":"Kreisangehörige_Gemeinde"},"district":{"key":"09780","name":"Oberallgäu","type":"Landkreis"},"federalState":{"key":"09","name":"Bayern"}},{"name":"Am Brunnenbach","postalCode":"87545","locality":"Burgberg i.Allgäu","municipality":{"key":"09780118","name":"Burgberg i.Allgäu","type":"Kreisangehörige_Gemeinde"},"district":{"key":"09780","name":"Oberallgäu","type":"Landkreis"},"federalState":{"key":"09","name":"Bayern"}},{"name":"Am Krebsbach","postalCode":"87545","locality":"Burgberg i.Allgäu","municipality":{"key":"09780118","name":"Burgberg i.Allgäu","type":"Kreisangehörige_Gemeinde"},"district":{"key":"09780","name":"Oberallgäu","type":"Landkreis"},"federalState":{"key":"09","name":"Bayern"}},{"name":"Am Priel","postalCode":"87545","locality":"Burgberg i.Allgäu","municipality":{"key":"09780118","name":"Burgberg i.Allgäu","type":"Kreisangehörige_Gemeinde"},"district":{"key":"09780","name":"Oberallgäu","type":"Landkreis"},"federalState":{"key":"09","name":"Bayern"}},{"name":"Am Sonnenhang","postalCode":"87545","locality":"Burgberg i.Allgäu","municipality":{"key":"09780118","name":"Burgberg i.Allgäu","type":"Kreisangehörige_Gemeinde"},"district":{"key":"09780","name":"Oberallgäu","type":"Landkreis"},"federalState":{"key":"09","name":"Bayern"}},{"name":"Am Speckgraben","postalCode":"87545","locality":"Burgberg i.Allgäu","municipality":{"key":"09780118","name":"Burgberg i.Allgäu","type":"Kreisangehörige_Gemeinde"},"district":{"key":"09780","name":"Oberallgäu","type":"Landkreis"},"federalState":{"key":"09","name":"Bayern"}},{"name":"Am Steinbruch","postalCode":"87545","locality":"Burgberg i.Allgäu","municipality":{"key":"09780118","name":"Burgberg i.Allgäu","type":"Kreisangehörige_Gemeinde"},"district":{"key":"09780","name":"Oberallgäu","type":"Landkreis"},"federalState":{"key":"09","name":"Bayern"}},{"name":"Am Weiher","postalCode":"87545","locality":"Burgberg i.Allgäu","municipality":{"key":"09780118","name":"Burgberg i.Allgäu","type":"Kreisangehörige_Gemeinde"},"district":{"key":"09780","name":"Oberallgäu","type":"Landkreis"},"federalState":{"key":"09","name":"Bayern"}},{"name":"Am Wustbach","postalCode":"87545","locality":"Burgberg i.Allgäu","municipality":{"key":"09780118","name":"Burgberg i.Allgäu","type":"Kreisangehörige_Gemeinde"},"district":{"key":"09780","name":"Oberallgäu","type":"Landkreis"},"federalState":{"key":"09","name":"Bayern"}},{"name":"An der Halde","postalCode":"87545","locality":"Burgberg i.Allgäu","municipality":{"key":"09780118","name":"Burgberg i.Allgäu","type":"Kreisangehörige_Gemeinde"},"district":{"key":"09780","name":"Oberallgäu","type":"Landkreis"},"federalState":{"key":"09","name":"Bayern"}},{"name":"An der Sägemühle","postalCode":"87545","locality":"Burgberg i.Allgäu","municipality":{"key":"09780118","name":"Burgberg i.Allgäu","type":"Kreisangehörige_Gemeinde"},"district":{"key":"09780","name":"Oberallgäu","type":"Landkreis"},"federalState":{"key":"09","name":"Bayern"}},{"name":"An der Schanz","postalCode":"87545","locality":"Burgberg i.Allgäu","municipality":{"key":"09780118","name":"Burgberg i.Allgäu","type":"Kreisangehörige_Gemeinde"},"district":{"key":"09780","name":"Oberallgäu","type":"Landkreis"},"federalState":{"key":"09","name":"Bayern"}},{"name":"Auf dem Grünten","postalCode":"87545","locality":"Burgberg i.Allgäu","municipality":{"key":"09780118","name":"Burgberg i.Allgäu","type":"Kreisangehörige_Gemeinde"},"district":{"key":"09780","name":"Oberallgäu","type":"Landkreis"},"federalState":{"key":"09","name":"Bayern"}},{"name":"Aurikelweg","postalCode":"87545","locality":"Burgberg i.Allgäu","municipality":{"key":"09780118","name":"Burgberg i.Allgäu","type":"Kreisangehörige_Gemeinde"},"district":{"key":"09780","name":"Oberallgäu","type":"Landkreis"},"federalState":{"key":"09","name":"Bayern"}},{"name":"Bachtelweg","postalCode":"87545","locality":"Burgberg i.Allgäu","municipality":{"key":"09780118","name":"Burgberg i.Allgäu","type":"Kreisangehörige_Gemeinde"},"district":{"key":"09780","name":"Oberallgäu","type":"Landkreis"},"federalState":{"key":"09","name":"Bayern"}},{"name":"Bergstr.","postalCode":"87545","locality":"Burgberg i.Allgäu","municipality":{"key":"09780118","name":"Burgberg i.Allgäu","type":"Kreisangehörige_Gemeinde"},"district":{"key":"09780","name":"Oberallgäu","type":"Landkreis"},"federalState":{"key":"09","name":"Bayern"}},{"name":"Birkenallee","postalCode":"87545","locality":"Burgberg i.Allgäu","municipality":{"key":"09780118","name":"Burgberg i.Allgäu","type":"Kreisangehörige_Gemeinde"},"district":{"key":"09780","name":"Oberallgäu","type":"Landkreis"},"federalState":{"key":"09","name":"Bayern"}},{"name":"Birkenweg","postalCode":"87545","locality":"Burgberg i.Allgäu","municipality":{"key":"09780118","name":"Burgberg i.Allgäu","type":"Kreisangehörige_Gemeinde"},"district":{"key":"09780","name":"Oberallgäu","type":"Landkreis"},"federalState":{"key":"09","name":"Bayern"}},{"name":"Blaichacher Str.","postalCode":"87545","locality":"Burgberg i.Allgäu","municipality":{"key":"09780118","name":"Burgberg i.Allgäu","type":"Kreisangehörige_Gemeinde"},"district":{"key":"09780","name":"Oberallgäu","type":"Landkreis"},"federalState":{"key":"09","name":"Bayern"}},{"name":"Blumenstr.","postalCode":"87545","locality":"Burgberg i.Allgäu","municipality":{"key":"09780118","name":"Burgberg i.Allgäu","type":"Kreisangehörige_Gemeinde"},"district":{"key":"09780","name":"Oberallgäu","type":"Landkreis"},"federalState":{"key":"09","name":"Bayern"}},{"name":"Buigenweg","postalCode":"87545","locality":"Burgberg i.Allgäu","municipality":{"key":"09780118","name":"Burgberg i.Allgäu","type":"Kreisangehörige_Gemeinde"},"district":{"key":"09780","name":"Oberallgäu","type":"Landkreis"},"federalState":{"key":"09","name":"Bayern"}},{"name":"Burgweg","postalCode":"87545","locality":"Burgberg i.Allgäu","municipality":{"key":"09780118","name":"Burgberg i.Allgäu","type":"Kreisangehörige_Gemeinde"},"district":{"key":"09780","name":"Oberallgäu","type":"Landkreis"},"federalState":{"key":"09","name":"Bayern"}},{"name":"Dammweg","postalCode":"87545","locality":"Burgberg i.Allgäu","municipality":{"key":"09780118","name":"Burgberg i.Allgäu","type":"Kreisangehörige_Gemeinde"},"district":{"key":"09780","name":"Oberallgäu","type":"Landkreis"},"federalState":{"key":"09","name":"Bayern"}},{"name":"Dorfstr.","postalCode":"87545","locality":"Burgberg i.Allgäu","municipality":{"key":"09780118","name":"Burgberg i.Allgäu","type":"Kreisangehörige_Gemeinde"},"district":{"key":"09780","name":"Oberallgäu","type":"Landkreis"},"federalState":{"key":"09","name":"Bayern"}},{"name":"Edelweißstr.","postalCode":"87545","locality":"Burgberg i.Allgäu","municipality":{"key":"09780118","name":"Burgberg i.Allgäu","type":"Kreisangehörige_Gemeinde"},"district":{"key":"09780","name":"Oberallgäu","type":"Landkreis"},"federalState":{"key":"09","name":"Bayern"}},{"name":"Elsa-Brandström-Str.","postalCode":"87545","locality":"Burgberg i.Allgäu","municipality":{"key":"09780118","name":"Burgberg i.Allgäu","type":"Kreisangehörige_Gemeinde"},"district":{"key":"09780","name":"Oberallgäu","type":"Landkreis"},"federalState":{"key":"09","name":"Bayern"}},{"name":"Enzianstr.","postalCode":"87545","locality":"Burgberg i.Allgäu","municipality":{"key":"09780118","name":"Burgberg i.Allgäu","type":"Kreisangehörige_Gemeinde"},"district":{"key":"09780","name":"Oberallgäu","type":"Landkreis"},"federalState":{"key":"09","name":"Bayern"}},{"name":"Ernst-Kottek-Weg","postalCode":"87545","locality":"Burgberg i.Allgäu","municipality":{"key":"09780118","name":"Burgberg i.Allgäu","type":"Kreisangehörige_Gemeinde"},"district":{"key":"09780","name":"Oberallgäu","type":"Landkreis"},"federalState":{"key":"09","name":"Bayern"}},{"name":"Essweg","postalCode":"87545","locality":"Burgberg i.Allgäu","municipality":{"key":"09780118","name":"Burgberg i.Allgäu","type":"Kreisangehörige_Gemeinde"},"district":{"key":"09780","name":"Oberallgäu","type":"Landkreis"},"federalState":{"key":"09","name":"Bayern"}},{"name":"Flurstr.","postalCode":"87545","locality":"Burgberg i.Allgäu","municipality":{"key":"09780118","name":"Burgberg i.Allgäu","type":"Kreisangehörige_Gemeinde"},"district":{"key":"09780","name":"Oberallgäu","type":"Landkreis"},"federalState":{"key":"09","name":"Bayern"}},{"name":"Gartenstr.","postalCode":"87545","locality":"Burgberg i.Allgäu","municipality":{"key":"09780118","name":"Burgberg i.Allgäu","type":"Kreisangehörige_Gemeinde"},"district":{"key":"09780","name":"Oberallgäu","type":"Landkreis"},"federalState":{"key":"09","name":"Bayern"}},{"name":"Grüntenstr.","postalCode":"87545","locality":"Burgberg i.Allgäu","municipality":{"key":"09780118","name":"Burgberg i.Allgäu","type":"Kreisangehörige_Gemeinde"},"district":{"key":"09780","name":"Oberallgäu","type":"Landkreis"},"federalState":{"key":"09","name":"Bayern"}},{"name":"Häuserer Allee","postalCode":"87545","locality":"Burgberg i.Allgäu","municipality":{"key":"09780118","name":"Burgberg i.Allgäu","type":"Kreisangehörige_Gemeinde"},"district":{"key":"09780","name":"Oberallgäu","type":"Landkreis"},"federalState":{"key":"09","name":"Bayern"}},{"name":"Heimenhofenstr.","postalCode":"87545","locality":"Burgberg i.Allgäu","municipality":{"key":"09780118","name":"Burgberg i.Allgäu","type":"Kreisangehörige_Gemeinde"},"district":{"key":"09780","name":"Oberallgäu","type":"Landkreis"},"federalState":{"key":"09","name":"Bayern"}},{"name":"Hochgratstr.","postalCode":"87545","locality":"Burgberg i.Allgäu","municipality":{"key":"09780118","name":"Burgberg i.Allgäu","type":"Kreisangehörige_Gemeinde"},"district":{"key":"09780","name":"Oberallgäu","type":"Landkreis"},"federalState":{"key":"09","name":"Bayern"}},{"name":"Hörnleweg","postalCode":"87545","locality":"Burgberg i.Allgäu","municipality":{"key":"09780118","name":"Burgberg i.Allgäu","type":"Kreisangehörige_Gemeinde"},"district":{"key":"09780","name":"Oberallgäu","type":"Landkreis"},"federalState":{"key":"09","name":"Bayern"}},{"name":"Immhof","postalCode":"87545","locality":"Burgberg i.Allgäu","municipality":{"key":"09780118","name":"Burgberg i.Allgäu","type":"Kreisangehörige_Gemeinde"},"district":{"key":"09780","name":"Oberallgäu","type":"Landkreis"},"federalState":{"key":"09","name":"Bayern"}},{"name":"Im Sack","postalCode":"87545","locality":"Burgberg i.Allgäu","municipality":{"key":"09780118","name":"Burgberg i.Allgäu","type":"Kreisangehörige_Gemeinde"},"district":{"key":"09780","name":"Oberallgäu","type":"Landkreis"},"federalState":{"key":"09","name":"Bayern"}},{"name":"Im Storchennest","postalCode":"87545","locality":"Burgberg i.Allgäu","municipality":{"key":"09780118","name":"Burgberg i.Allgäu","type":"Kreisangehörige_Gemeinde"},"district":{"key":"09780","name":"Oberallgäu","type":"Landkreis"},"federalState":{"key":"09","name":"Bayern"}},{"name":"Jägerweg","postalCode":"87545","locality":"Burgberg i.Allgäu","municipality":{"key":"09780118","name":"Burgberg i.Allgäu","type":"Kreisangehörige_Gemeinde"},"district":{"key":"09780","name":"Oberallgäu","type":"Landkreis"},"federalState":{"key":"09","name":"Bayern"}},{"name":"Kapellenweg","postalCode":"87545","locality":"Burgberg i.Allgäu","municipality":{"key":"09780118","name":"Burgberg i.Allgäu","type":"Kreisangehörige_Gemeinde"},"district":{"key":"09780","name":"Oberallgäu","type":"Landkreis"},"federalState":{"key":"09","name":"Bayern"}},{"name":"Karl-Kleinhans-Weg","postalCode":"87545","locality":"Burgberg i.Allgäu","municipality":{"key":"09780118","name":"Burgberg i.Allgäu","type":"Kreisangehörige_Gemeinde"},"district":{"key":"09780","name":"Oberallgäu","type":"Landkreis"},"federalState":{"key":"09","name":"Bayern"}},{"name":"Kirchstr.","postalCode":"87545","locality":"Burgberg i.Allgäu","municipality":{"key":"09780118","name":"Burgberg i.Allgäu","type":"Kreisangehörige_Gemeinde"},"district":{"key":"09780","name":"Oberallgäu","type":"Landkreis"},"federalState":{"key":"09","name":"Bayern"}},{"name":"Knappenweg","postalCode":"87545","locality":"Burgberg i.Allgäu","municipality":{"key":"09780118","name":"Burgberg i.Allgäu","type":"Kreisangehörige_Gemeinde"},"district":{"key":"09780","name":"Oberallgäu","type":"Landkreis"},"federalState":{"key":"09","name":"Bayern"}},{"name":"Königssträßle","postalCode":"87545","locality":"Burgberg i.Allgäu","municipality":{"key":"09780118","name":"Burgberg i.Allgäu","type":"Kreisangehörige_Gemeinde"},"district":{"key":"09780","name":"Oberallgäu","type":"Landkreis"},"federalState":{"key":"09","name":"Bayern"}},{"name":"Köpfleweg","postalCode":"87545","locality":"Burgberg i.Allgäu","municipality":{"key":"09780118","name":"Burgberg i.Allgäu","type":"Kreisangehörige_Gemeinde"},"district":{"key":"09780","name":"Oberallgäu","type":"Landkreis"},"federalState":{"key":"09","name":"Bayern"}},{"name":"Lußäckerweg","postalCode":"87545","locality":"Burgberg i.Allgäu","municipality":{"key":"09780118","name":"Burgberg i.Allgäu","type":"Kreisangehörige_Gemeinde"},"district":{"key":"09780","name":"Oberallgäu","type":"Landkreis"},"federalState":{"key":"09","name":"Bayern"}},{"name":"Mangoldsweg","postalCode":"87545","locality":"Burgberg i.Allgäu","municipality":{"key":"09780118","name":"Burgberg i.Allgäu","type":"Kreisangehörige_Gemeinde"},"district":{"key":"09780","name":"Oberallgäu","type":"Landkreis"},"federalState":{"key":"09","name":"Bayern"}},{"name":"Mittagstr.","postalCode":"87545","locality":"Burgberg i.Allgäu","municipality":{"key":"09780118","name":"Burgberg i.Allgäu","type":"Kreisangehörige_Gemeinde"},"district":{"key":"09780","name":"Oberallgäu","type":"Landkreis"},"federalState":{"key":"09","name":"Bayern"}},{"name":"Moosweg","postalCode":"87545","locality":"Burgberg i.Allgäu","municipality":{"key":"09780118","name":"Burgberg i.Allgäu","type":"Kreisangehörige_Gemeinde"},"district":{"key":"09780","name":"Oberallgäu","type":"Landkreis"},"federalState":{"key":"09","name":"Bayern"}},{"name":"Mühlenstr.","postalCode":"87545","locality":"Burgberg i.Allgäu","municipality":{"key":"09780118","name":"Burgberg i.Allgäu","type":"Kreisangehörige_Gemeinde"},"district":{"key":"09780","name":"Oberallgäu","type":"Landkreis"},"federalState":{"key":"09","name":"Bayern"}},{"name":"Oberortwang","postalCode":"87545","locality":"Burgberg i.Allgäu","municipality":{"key":"09780118","name":"Burgberg i.Allgäu","type":"Kreisangehörige_Gemeinde"},"district":{"key":"09780","name":"Oberallgäu","type":"Landkreis"},"federalState":{"key":"09","name":"Bayern"}},{"name":"Ortwanger Au","postalCode":"87545","locality":"Burgberg i.Allgäu","municipality":{"key":"09780118","name":"Burgberg i.Allgäu","type":"Kreisangehörige_Gemeinde"},"district":{"key":"09780","name":"Oberallgäu","type":"Landkreis"},"federalState":{"key":"09","name":"Bayern"}},{"name":"Ortwanger Buind","postalCode":"87545","locality":"Burgberg i.Allgäu","municipality":{"key":"09780118","name":"Burgberg i.Allgäu","type":"Kreisangehörige_Gemeinde"},"district":{"key":"09780","name":"Oberallgäu","type":"Landkreis"},"federalState":{"key":"09","name":"Bayern"}},{"name":"Ortwanger Esch","postalCode":"87545","locality":"Burgberg i.Allgäu","municipality":{"key":"09780118","name":"Burgberg i.Allgäu","type":"Kreisangehörige_Gemeinde"},"district":{"key":"09780","name":"Oberallgäu","type":"Landkreis"},"federalState":{"key":"09","name":"Bayern"}},{"name":"Ortwanger Flur","postalCode":"87545","locality":"Burgberg i.Allgäu","municipality":{"key":"09780118","name":"Burgberg i.Allgäu","type":"Kreisangehörige_Gemeinde"},"district":{"key":"09780","name":"Oberallgäu","type":"Landkreis"},"federalState":{"key":"09","name":"Bayern"}},{"name":"Rauhenzeller Str.","postalCode":"87545","locality":"Burgberg i.Allgäu","municipality":{"key":"09780118","name":"Burgberg i.Allgäu","type":"Kreisangehörige_Gemeinde"},"district":{"key":"09780","name":"Oberallgäu","type":"Landkreis"},"federalState":{"key":"09","name":"Bayern"}},{"name":"Rettenberger Str.","postalCode":"87545","locality":"Burgberg i.Allgäu","municipality":{"key":"09780118","name":"Burgberg i.Allgäu","type":"Kreisangehörige_Gemeinde"},"district":{"key":"09780","name":"Oberallgäu","type":"Landkreis"},"federalState":{"key":"09","name":"Bayern"}},{"name":"Rohrachweg","postalCode":"87545","locality":"Burgberg i.Allgäu","municipality":{"key":"09780118","name":"Burgberg i.Allgäu","type":"Kreisangehörige_Gemeinde"},"district":{"key":"09780","name":"Oberallgäu","type":"Landkreis"},"federalState":{"key":"09","name":"Bayern"}},{"name":"Rosenweg","postalCode":"87545","locality":"Burgberg i.Allgäu","municipality":{"key":"09780118","name":"Burgberg i.Allgäu","type":"Kreisangehörige_Gemeinde"},"district":{"key":"09780","name":"Oberallgäu","type":"Landkreis"},"federalState":{"key":"09","name":"Bayern"}},{"name":"Sonthofener Str.","postalCode":"87545","locality":"Burgberg i.Allgäu","municipality":{"key":"09780118","name":"Burgberg i.Allgäu","type":"Kreisangehörige_Gemeinde"},"district":{"key":"09780","name":"Oberallgäu","type":"Landkreis"},"federalState":{"key":"09","name":"Bayern"}},{"name":"Starzlachweg","postalCode":"87545","locality":"Burgberg i.Allgäu","municipality":{"key":"09780118","name":"Burgberg i.Allgäu","type":"Kreisangehörige_Gemeinde"},"district":{"key":"09780","name":"Oberallgäu","type":"Landkreis"},"federalState":{"key":"09","name":"Bayern"}},{"name":"Stuibenweg","postalCode":"87545","locality":"Burgberg i.Allgäu","municipality":{"key":"09780118","name":"Burgberg i.Allgäu","type":"Kreisangehörige_Gemeinde"},"district":{"key":"09780","name":"Oberallgäu","type":"Landkreis"},"federalState":{"key":"09","name":"Bayern"}},{"name":"Unterortwang","postalCode":"87545","locality":"Burgberg i.Allgäu","municipality":{"key":"09780118","name":"Burgberg i.Allgäu","type":"Kreisangehörige_Gemeinde"},"district":{"key":"09780","name":"Oberallgäu","type":"Landkreis"},"federalState":{"key":"09","name":"Bayern"}},{"name":"Weinbergstr.","postalCode":"87545","locality":"Burgberg i.Allgäu","municipality":{"key":"09780118","name":"Burgberg i.Allgäu","type":"Kreisangehörige_Gemeinde"},"district":{"key":"09780","name":"Oberallgäu","type":"Landkreis"},"federalState":{"key":"09","name":"Bayern"}},]