[{"name":"2-Pfennig-Brücke","postalCode":"34212","locality":"Melsungen","municipality":{"key":"06634014","name":"Melsungen, Stadt","type":"Stadt"},"district":{"key":"06634","name":"Schwalm-Eder-Kreis","type":"Landkreis"},"federalState":{"key":"06","name":"Hessen"}},{"name":"Adelshäuserweg","postalCode":"34212","locality":"Melsungen","municipality":{"key":"06634014","name":"Melsungen, Stadt","type":"Stadt"},"district":{"key":"06634","name":"Schwalm-Eder-Kreis","type":"Landkreis"},"federalState":{"key":"06","name":"Hessen"}},{"name":"Ahornweg","postalCode":"34212","locality":"Melsungen","municipality":{"key":"06634014","name":"Melsungen, Stadt","type":"Stadt"},"district":{"key":"06634","name":"Schwalm-Eder-Kreis","type":"Landkreis"},"federalState":{"key":"06","name":"Hessen"}},{"name":"Akazienweg","postalCode":"34212","locality":"Melsungen","municipality":{"key":"06634014","name":"Melsungen, Stadt","type":"Stadt"},"district":{"key":"06634","name":"Schwalm-Eder-Kreis","type":"Landkreis"},"federalState":{"key":"06","name":"Hessen"}},{"name":"Alheimerstr.","postalCode":"34212","locality":"Melsungen","municipality":{"key":"06634014","name":"Melsungen, Stadt","type":"Stadt"},"district":{"key":"06634","name":"Schwalm-Eder-Kreis","type":"Landkreis"},"federalState":{"key":"06","name":"Hessen"}},{"name":"Alte Empfershäuser Str.","postalCode":"34212","locality":"Melsungen","municipality":{"key":"06634014","name":"Melsungen, Stadt","type":"Stadt"},"district":{"key":"06634","name":"Schwalm-Eder-Kreis","type":"Landkreis"},"federalState":{"key":"06","name":"Hessen"}},{"name":"Alte Landstr.","postalCode":"34212","locality":"Melsungen","municipality":{"key":"06634014","name":"Melsungen, Stadt","type":"Stadt"},"district":{"key":"06634","name":"Schwalm-Eder-Kreis","type":"Landkreis"},"federalState":{"key":"06","name":"Hessen"}},{"name":"Alter Kesselberg","postalCode":"34212","locality":"Melsungen","municipality":{"key":"06634014","name":"Melsungen, Stadt","type":"Stadt"},"district":{"key":"06634","name":"Schwalm-Eder-Kreis","type":"Landkreis"},"federalState":{"key":"06","name":"Hessen"}},{"name":"Alter Weg","postalCode":"34212","locality":"Melsungen","municipality":{"key":"06634014","name":"Melsungen, Stadt","type":"Stadt"},"district":{"key":"06634","name":"Schwalm-Eder-Kreis","type":"Landkreis"},"federalState":{"key":"06","name":"Hessen"}},{"name":"Altstadt","postalCode":"34212","locality":"Melsungen","municipality":{"key":"06634014","name":"Melsungen, Stadt","type":"Stadt"},"district":{"key":"06634","name":"Schwalm-Eder-Kreis","type":"Landkreis"},"federalState":{"key":"06","name":"Hessen"}},{"name":"Am Bitzen","postalCode":"34212","locality":"Melsungen","municipality":{"key":"06634014","name":"Melsungen, Stadt","type":"Stadt"},"district":{"key":"06634","name":"Schwalm-Eder-Kreis","type":"Landkreis"},"federalState":{"key":"06","name":"Hessen"}},{"name":"Am Ehrenmal","postalCode":"34212","locality":"Melsungen","municipality":{"key":"06634014","name":"Melsungen, Stadt","type":"Stadt"},"district":{"key":"06634","name":"Schwalm-Eder-Kreis","type":"Landkreis"},"federalState":{"key":"06","name":"Hessen"}},{"name":"Am Eichelberg","postalCode":"34212","locality":"Melsungen","municipality":{"key":"06634014","name":"Melsungen, Stadt","type":"Stadt"},"district":{"key":"06634","name":"Schwalm-Eder-Kreis","type":"Landkreis"},"federalState":{"key":"06","name":"Hessen"}},{"name":"Am Ernstberg","postalCode":"34212","locality":"Melsungen","municipality":{"key":"06634014","name":"Melsungen, Stadt","type":"Stadt"},"district":{"key":"06634","name":"Schwalm-Eder-Kreis","type":"Landkreis"},"federalState":{"key":"06","name":"Hessen"}},{"name":"Am Faustacker","postalCode":"34212","locality":"Melsungen","municipality":{"key":"06634014","name":"Melsungen, Stadt","type":"Stadt"},"district":{"key":"06634","name":"Schwalm-Eder-Kreis","type":"Landkreis"},"federalState":{"key":"06","name":"Hessen"}},{"name":"Am Friedhof","postalCode":"34212","locality":"Melsungen","municipality":{"key":"06634014","name":"Melsungen, Stadt","type":"Stadt"},"district":{"key":"06634","name":"Schwalm-Eder-Kreis","type":"Landkreis"},"federalState":{"key":"06","name":"Hessen"}},{"name":"Am Hang","postalCode":"34212","locality":"Melsungen","municipality":{"key":"06634014","name":"Melsungen, Stadt","type":"Stadt"},"district":{"key":"06634","name":"Schwalm-Eder-Kreis","type":"Landkreis"},"federalState":{"key":"06","name":"Hessen"}},{"name":"Am Heckchen","postalCode":"34212","locality":"Melsungen","municipality":{"key":"06634014","name":"Melsungen, Stadt","type":"Stadt"},"district":{"key":"06634","name":"Schwalm-Eder-Kreis","type":"Landkreis"},"federalState":{"key":"06","name":"Hessen"}},{"name":"Am Hombach","postalCode":"34212","locality":"Melsungen","municipality":{"key":"06634014","name":"Melsungen, Stadt","type":"Stadt"},"district":{"key":"06634","name":"Schwalm-Eder-Kreis","type":"Landkreis"},"federalState":{"key":"06","name":"Hessen"}},{"name":"Am Hopfenort","postalCode":"34212","locality":"Melsungen","municipality":{"key":"06634014","name":"Melsungen, Stadt","type":"Stadt"},"district":{"key":"06634","name":"Schwalm-Eder-Kreis","type":"Landkreis"},"federalState":{"key":"06","name":"Hessen"}},{"name":"Am Kesselbach","postalCode":"34212","locality":"Melsungen","municipality":{"key":"06634014","name":"Melsungen, Stadt","type":"Stadt"},"district":{"key":"06634","name":"Schwalm-Eder-Kreis","type":"Landkreis"},"federalState":{"key":"06","name":"Hessen"}},{"name":"Am Kutschengraben","postalCode":"34212","locality":"Melsungen","municipality":{"key":"06634014","name":"Melsungen, Stadt","type":"Stadt"},"district":{"key":"06634","name":"Schwalm-Eder-Kreis","type":"Landkreis"},"federalState":{"key":"06","name":"Hessen"}},{"name":"Am Melgershäuser Weg","postalCode":"34212","locality":"Melsungen","municipality":{"key":"06634014","name":"Melsungen, Stadt","type":"Stadt"},"district":{"key":"06634","name":"Schwalm-Eder-Kreis","type":"Landkreis"},"federalState":{"key":"06","name":"Hessen"}},{"name":"Am Mühlenberg","postalCode":"34212","locality":"Melsungen","municipality":{"key":"06634014","name":"Melsungen, Stadt","type":"Stadt"},"district":{"key":"06634","name":"Schwalm-Eder-Kreis","type":"Landkreis"},"federalState":{"key":"06","name":"Hessen"}},{"name":"Am Roth","postalCode":"34212","locality":"Melsungen","municipality":{"key":"06634014","name":"Melsungen, Stadt","type":"Stadt"},"district":{"key":"06634","name":"Schwalm-Eder-Kreis","type":"Landkreis"},"federalState":{"key":"06","name":"Hessen"}},{"name":"Am Sägewerk","postalCode":"34212","locality":"Melsungen","municipality":{"key":"06634014","name":"Melsungen, Stadt","type":"Stadt"},"district":{"key":"06634","name":"Schwalm-Eder-Kreis","type":"Landkreis"},"federalState":{"key":"06","name":"Hessen"}},{"name":"Am Schottengarten","postalCode":"34212","locality":"Melsungen","municipality":{"key":"06634014","name":"Melsungen, Stadt","type":"Stadt"},"district":{"key":"06634","name":"Schwalm-Eder-Kreis","type":"Landkreis"},"federalState":{"key":"06","name":"Hessen"}},{"name":"Amselweg","postalCode":"34212","locality":"Melsungen","municipality":{"key":"06634014","name":"Melsungen, Stadt","type":"Stadt"},"district":{"key":"06634","name":"Schwalm-Eder-Kreis","type":"Landkreis"},"federalState":{"key":"06","name":"Hessen"}},{"name":"Am Sportplatz","postalCode":"34212","locality":"Melsungen","municipality":{"key":"06634014","name":"Melsungen, Stadt","type":"Stadt"},"district":{"key":"06634","name":"Schwalm-Eder-Kreis","type":"Landkreis"},"federalState":{"key":"06","name":"Hessen"}},{"name":"Am Steig","postalCode":"34212","locality":"Melsungen","municipality":{"key":"06634014","name":"Melsungen, Stadt","type":"Stadt"},"district":{"key":"06634","name":"Schwalm-Eder-Kreis","type":"Landkreis"},"federalState":{"key":"06","name":"Hessen"}},{"name":"Amtsgasse","postalCode":"34212","locality":"Melsungen","municipality":{"key":"06634014","name":"Melsungen, Stadt","type":"Stadt"},"district":{"key":"06634","name":"Schwalm-Eder-Kreis","type":"Landkreis"},"federalState":{"key":"06","name":"Hessen"}},{"name":"An der Stöcke","postalCode":"34212","locality":"Melsungen","municipality":{"key":"06634014","name":"Melsungen, Stadt","type":"Stadt"},"district":{"key":"06634","name":"Schwalm-Eder-Kreis","type":"Landkreis"},"federalState":{"key":"06","name":"Hessen"}},{"name":"Ars Natura","postalCode":"34212","locality":"Melsungen","municipality":{"key":"06634014","name":"Melsungen, Stadt","type":"Stadt"},"district":{"key":"06634","name":"Schwalm-Eder-Kreis","type":"Landkreis"},"federalState":{"key":"06","name":"Hessen"}},{"name":"Aueweg","postalCode":"34212","locality":"Melsungen","municipality":{"key":"06634014","name":"Melsungen, Stadt","type":"Stadt"},"district":{"key":"06634","name":"Schwalm-Eder-Kreis","type":"Landkreis"},"federalState":{"key":"06","name":"Hessen"}},{"name":"Auf dem Galgenberg","postalCode":"34212","locality":"Melsungen","municipality":{"key":"06634014","name":"Melsungen, Stadt","type":"Stadt"},"district":{"key":"06634","name":"Schwalm-Eder-Kreis","type":"Landkreis"},"federalState":{"key":"06","name":"Hessen"}},{"name":"Auf der Röte","postalCode":"34212","locality":"Melsungen","municipality":{"key":"06634014","name":"Melsungen, Stadt","type":"Stadt"},"district":{"key":"06634","name":"Schwalm-Eder-Kreis","type":"Landkreis"},"federalState":{"key":"06","name":"Hessen"}},{"name":"Aufwurf","postalCode":"34212","locality":"Melsungen","municipality":{"key":"06634014","name":"Melsungen, Stadt","type":"Stadt"},"district":{"key":"06634","name":"Schwalm-Eder-Kreis","type":"Landkreis"},"federalState":{"key":"06","name":"Hessen"}},{"name":"Bachgässchen","postalCode":"34212","locality":"Melsungen","municipality":{"key":"06634014","name":"Melsungen, Stadt","type":"Stadt"},"district":{"key":"06634","name":"Schwalm-Eder-Kreis","type":"Landkreis"},"federalState":{"key":"06","name":"Hessen"}},{"name":"Bachstr.","postalCode":"34212","locality":"Melsungen","municipality":{"key":"06634014","name":"Melsungen, Stadt","type":"Stadt"},"district":{"key":"06634","name":"Schwalm-Eder-Kreis","type":"Landkreis"},"federalState":{"key":"06","name":"Hessen"}},{"name":"Bahnhofstr.","postalCode":"34212","locality":"Melsungen","municipality":{"key":"06634014","name":"Melsungen, Stadt","type":"Stadt"},"district":{"key":"06634","name":"Schwalm-Eder-Kreis","type":"Landkreis"},"federalState":{"key":"06","name":"Hessen"}},{"name":"Batz Strauch","postalCode":"34212","locality":"Melsungen","municipality":{"key":"06634014","name":"Melsungen, Stadt","type":"Stadt"},"district":{"key":"06634","name":"Schwalm-Eder-Kreis","type":"Landkreis"},"federalState":{"key":"06","name":"Hessen"}},{"name":"Batzweg","postalCode":"34212","locality":"Melsungen","municipality":{"key":"06634014","name":"Melsungen, Stadt","type":"Stadt"},"district":{"key":"06634","name":"Schwalm-Eder-Kreis","type":"Landkreis"},"federalState":{"key":"06","name":"Hessen"}},{"name":"Bergstr.","postalCode":"34212","locality":"Melsungen","municipality":{"key":"06634014","name":"Melsungen, Stadt","type":"Stadt"},"district":{"key":"06634","name":"Schwalm-Eder-Kreis","type":"Landkreis"},"federalState":{"key":"06","name":"Hessen"}},{"name":"Bergweg","postalCode":"34212","locality":"Melsungen","municipality":{"key":"06634014","name":"Melsungen, Stadt","type":"Stadt"},"district":{"key":"06634","name":"Schwalm-Eder-Kreis","type":"Landkreis"},"federalState":{"key":"06","name":"Hessen"}},{"name":"Berliner Platz","postalCode":"34212","locality":"Melsungen","municipality":{"key":"06634014","name":"Melsungen, Stadt","type":"Stadt"},"district":{"key":"06634","name":"Schwalm-Eder-Kreis","type":"Landkreis"},"federalState":{"key":"06","name":"Hessen"}},{"name":"Birkenweg","postalCode":"34212","locality":"Melsungen","municipality":{"key":"06634014","name":"Melsungen, Stadt","type":"Stadt"},"district":{"key":"06634","name":"Schwalm-Eder-Kreis","type":"Landkreis"},"federalState":{"key":"06","name":"Hessen"}},{"name":"Blumenstr.","postalCode":"34212","locality":"Melsungen","municipality":{"key":"06634014","name":"Melsungen, Stadt","type":"Stadt"},"district":{"key":"06634","name":"Schwalm-Eder-Kreis","type":"Landkreis"},"federalState":{"key":"06","name":"Hessen"}},{"name":"Brauereiweg","postalCode":"34212","locality":"Melsungen","municipality":{"key":"06634014","name":"Melsungen, Stadt","type":"Stadt"},"district":{"key":"06634","name":"Schwalm-Eder-Kreis","type":"Landkreis"},"federalState":{"key":"06","name":"Hessen"}},{"name":"Breslauer Str.","postalCode":"34212","locality":"Melsungen","municipality":{"key":"06634014","name":"Melsungen, Stadt","type":"Stadt"},"district":{"key":"06634","name":"Schwalm-Eder-Kreis","type":"Landkreis"},"federalState":{"key":"06","name":"Hessen"}},{"name":"Brückenstr.","postalCode":"34212","locality":"Melsungen","municipality":{"key":"06634014","name":"Melsungen, Stadt","type":"Stadt"},"district":{"key":"06634","name":"Schwalm-Eder-Kreis","type":"Landkreis"},"federalState":{"key":"06","name":"Hessen"}},{"name":"Brüggersberg","postalCode":"34212","locality":"Melsungen","municipality":{"key":"06634014","name":"Melsungen, Stadt","type":"Stadt"},"district":{"key":"06634","name":"Schwalm-Eder-Kreis","type":"Landkreis"},"federalState":{"key":"06","name":"Hessen"}},{"name":"Brunnenstr.","postalCode":"34212","locality":"Melsungen","municipality":{"key":"06634014","name":"Melsungen, Stadt","type":"Stadt"},"district":{"key":"06634","name":"Schwalm-Eder-Kreis","type":"Landkreis"},"federalState":{"key":"06","name":"Hessen"}},{"name":"Burgstr.","postalCode":"34212","locality":"Melsungen","municipality":{"key":"06634014","name":"Melsungen, Stadt","type":"Stadt"},"district":{"key":"06634","name":"Schwalm-Eder-Kreis","type":"Landkreis"},"federalState":{"key":"06","name":"Hessen"}},{"name":"Carl-Braun-Str.","postalCode":"34212","locality":"Melsungen","municipality":{"key":"06634014","name":"Melsungen, Stadt","type":"Stadt"},"district":{"key":"06634","name":"Schwalm-Eder-Kreis","type":"Landkreis"},"federalState":{"key":"06","name":"Hessen"}},{"name":"Cyllsgasse","postalCode":"34212","locality":"Melsungen","municipality":{"key":"06634014","name":"Melsungen, Stadt","type":"Stadt"},"district":{"key":"06634","name":"Schwalm-Eder-Kreis","type":"Landkreis"},"federalState":{"key":"06","name":"Hessen"}},{"name":"Dessauer Str.","postalCode":"34212","locality":"Melsungen","municipality":{"key":"06634014","name":"Melsungen, Stadt","type":"Stadt"},"district":{"key":"06634","name":"Schwalm-Eder-Kreis","type":"Landkreis"},"federalState":{"key":"06","name":"Hessen"}},{"name":"Die Langen Hessen","postalCode":"34212","locality":"Melsungen","municipality":{"key":"06634014","name":"Melsungen, Stadt","type":"Stadt"},"district":{"key":"06634","name":"Schwalm-Eder-Kreis","type":"Landkreis"},"federalState":{"key":"06","name":"Hessen"}},{"name":"Dörnbergstr.","postalCode":"34212","locality":"Melsungen","municipality":{"key":"06634014","name":"Melsungen, Stadt","type":"Stadt"},"district":{"key":"06634","name":"Schwalm-Eder-Kreis","type":"Landkreis"},"federalState":{"key":"06","name":"Hessen"}},{"name":"Dresdener Str.","postalCode":"34212","locality":"Melsungen","municipality":{"key":"06634014","name":"Melsungen, Stadt","type":"Stadt"},"district":{"key":"06634","name":"Schwalm-Eder-Kreis","type":"Landkreis"},"federalState":{"key":"06","name":"Hessen"}},{"name":"Dreuxallee","postalCode":"34212","locality":"Melsungen","municipality":{"key":"06634014","name":"Melsungen, Stadt","type":"Stadt"},"district":{"key":"06634","name":"Schwalm-Eder-Kreis","type":"Landkreis"},"federalState":{"key":"06","name":"Hessen"}},{"name":"Drosselweg","postalCode":"34212","locality":"Melsungen","municipality":{"key":"06634014","name":"Melsungen, Stadt","type":"Stadt"},"district":{"key":"06634","name":"Schwalm-Eder-Kreis","type":"Landkreis"},"federalState":{"key":"06","name":"Hessen"}},{"name":"Eckhardsweg","postalCode":"34212","locality":"Melsungen","municipality":{"key":"06634014","name":"Melsungen, Stadt","type":"Stadt"},"district":{"key":"06634","name":"Schwalm-Eder-Kreis","type":"Landkreis"},"federalState":{"key":"06","name":"Hessen"}},{"name":"Eichendorffstr.","postalCode":"34212","locality":"Melsungen","municipality":{"key":"06634014","name":"Melsungen, Stadt","type":"Stadt"},"district":{"key":"06634","name":"Schwalm-Eder-Kreis","type":"Landkreis"},"federalState":{"key":"06","name":"Hessen"}},{"name":"Eichwiesen","postalCode":"34212","locality":"Melsungen","municipality":{"key":"06634014","name":"Melsungen, Stadt","type":"Stadt"},"district":{"key":"06634","name":"Schwalm-Eder-Kreis","type":"Landkreis"},"federalState":{"key":"06","name":"Hessen"}},{"name":"Eifelweg","postalCode":"34212","locality":"Melsungen","municipality":{"key":"06634014","name":"Melsungen, Stadt","type":"Stadt"},"district":{"key":"06634","name":"Schwalm-Eder-Kreis","type":"Landkreis"},"federalState":{"key":"06","name":"Hessen"}},{"name":"Eisenbergweg","postalCode":"34212","locality":"Melsungen","municipality":{"key":"06634014","name":"Melsungen, Stadt","type":"Stadt"},"district":{"key":"06634","name":"Schwalm-Eder-Kreis","type":"Landkreis"},"federalState":{"key":"06","name":"Hessen"}},{"name":"Eiterhagener Weg","postalCode":"34212","locality":"Melsungen","municipality":{"key":"06634014","name":"Melsungen, Stadt","type":"Stadt"},"district":{"key":"06634","name":"Schwalm-Eder-Kreis","type":"Landkreis"},"federalState":{"key":"06","name":"Hessen"}},{"name":"Elbinger Str.","postalCode":"34212","locality":"Melsungen","municipality":{"key":"06634014","name":"Melsungen, Stadt","type":"Stadt"},"district":{"key":"06634","name":"Schwalm-Eder-Kreis","type":"Landkreis"},"federalState":{"key":"06","name":"Hessen"}},{"name":"Elfershäuser Str.","postalCode":"34212","locality":"Melsungen","municipality":{"key":"06634014","name":"Melsungen, Stadt","type":"Stadt"},"district":{"key":"06634","name":"Schwalm-Eder-Kreis","type":"Landkreis"},"federalState":{"key":"06","name":"Hessen"}},{"name":"Entengasse","postalCode":"34212","locality":"Melsungen","municipality":{"key":"06634014","name":"Melsungen, Stadt","type":"Stadt"},"district":{"key":"06634","name":"Schwalm-Eder-Kreis","type":"Landkreis"},"federalState":{"key":"06","name":"Hessen"}},{"name":"Erfurter Str.","postalCode":"34212","locality":"Melsungen","municipality":{"key":"06634014","name":"Melsungen, Stadt","type":"Stadt"},"district":{"key":"06634","name":"Schwalm-Eder-Kreis","type":"Landkreis"},"federalState":{"key":"06","name":"Hessen"}},{"name":"Erlenweg","postalCode":"34212","locality":"Melsungen","municipality":{"key":"06634014","name":"Melsungen, Stadt","type":"Stadt"},"district":{"key":"06634","name":"Schwalm-Eder-Kreis","type":"Landkreis"},"federalState":{"key":"06","name":"Hessen"}},{"name":"Ernstbergstr.","postalCode":"34212","locality":"Melsungen","municipality":{"key":"06634014","name":"Melsungen, Stadt","type":"Stadt"},"district":{"key":"06634","name":"Schwalm-Eder-Kreis","type":"Landkreis"},"federalState":{"key":"06","name":"Hessen"}},{"name":"Eselskoppe","postalCode":"34212","locality":"Melsungen","municipality":{"key":"06634014","name":"Melsungen, Stadt","type":"Stadt"},"district":{"key":"06634","name":"Schwalm-Eder-Kreis","type":"Landkreis"},"federalState":{"key":"06","name":"Hessen"}},{"name":"Eulenturmstr.","postalCode":"34212","locality":"Melsungen","municipality":{"key":"06634014","name":"Melsungen, Stadt","type":"Stadt"},"district":{"key":"06634","name":"Schwalm-Eder-Kreis","type":"Landkreis"},"federalState":{"key":"06","name":"Hessen"}},{"name":"Evesham-Allee","postalCode":"34212","locality":"Melsungen","municipality":{"key":"06634014","name":"Melsungen, Stadt","type":"Stadt"},"district":{"key":"06634","name":"Schwalm-Eder-Kreis","type":"Landkreis"},"federalState":{"key":"06","name":"Hessen"}},{"name":"Falkenkopfweg","postalCode":"34212","locality":"Melsungen","municipality":{"key":"06634014","name":"Melsungen, Stadt","type":"Stadt"},"district":{"key":"06634","name":"Schwalm-Eder-Kreis","type":"Landkreis"},"federalState":{"key":"06","name":"Hessen"}},{"name":"Finkenweg","postalCode":"34212","locality":"Melsungen","municipality":{"key":"06634014","name":"Melsungen, Stadt","type":"Stadt"},"district":{"key":"06634","name":"Schwalm-Eder-Kreis","type":"Landkreis"},"federalState":{"key":"06","name":"Hessen"}},{"name":"Flämmergasse","postalCode":"34212","locality":"Melsungen","municipality":{"key":"06634014","name":"Melsungen, Stadt","type":"Stadt"},"district":{"key":"06634","name":"Schwalm-Eder-Kreis","type":"Landkreis"},"federalState":{"key":"06","name":"Hessen"}},{"name":"Fliedergraben","postalCode":"34212","locality":"Melsungen","municipality":{"key":"06634014","name":"Melsungen, Stadt","type":"Stadt"},"district":{"key":"06634","name":"Schwalm-Eder-Kreis","type":"Landkreis"},"federalState":{"key":"06","name":"Hessen"}},{"name":"Fliederweg","postalCode":"34212","locality":"Melsungen","municipality":{"key":"06634014","name":"Melsungen, Stadt","type":"Stadt"},"district":{"key":"06634","name":"Schwalm-Eder-Kreis","type":"Landkreis"},"federalState":{"key":"06","name":"Hessen"}},{"name":"Franz-Gleim-Str.","postalCode":"34212","locality":"Melsungen","municipality":{"key":"06634014","name":"Melsungen, Stadt","type":"Stadt"},"district":{"key":"06634","name":"Schwalm-Eder-Kreis","type":"Landkreis"},"federalState":{"key":"06","name":"Hessen"}},{"name":"Freiherr-vom-Stein-Str.","postalCode":"34212","locality":"Melsungen","municipality":{"key":"06634014","name":"Melsungen, Stadt","type":"Stadt"},"district":{"key":"06634","name":"Schwalm-Eder-Kreis","type":"Landkreis"},"federalState":{"key":"06","name":"Hessen"}},{"name":"Friedhofstr.","postalCode":"34212","locality":"Melsungen","municipality":{"key":"06634014","name":"Melsungen, Stadt","type":"Stadt"},"district":{"key":"06634","name":"Schwalm-Eder-Kreis","type":"Landkreis"},"federalState":{"key":"06","name":"Hessen"}},{"name":"Fritzlarer Str.","postalCode":"34212","locality":"Melsungen","municipality":{"key":"06634014","name":"Melsungen, Stadt","type":"Stadt"},"district":{"key":"06634","name":"Schwalm-Eder-Kreis","type":"Landkreis"},"federalState":{"key":"06","name":"Hessen"}},{"name":"Fuldablick","postalCode":"34212","locality":"Melsungen","municipality":{"key":"06634014","name":"Melsungen, Stadt","type":"Stadt"},"district":{"key":"06634","name":"Schwalm-Eder-Kreis","type":"Landkreis"},"federalState":{"key":"06","name":"Hessen"}},{"name":"Fuldastr.","postalCode":"34212","locality":"Melsungen","municipality":{"key":"06634014","name":"Melsungen, Stadt","type":"Stadt"},"district":{"key":"06634","name":"Schwalm-Eder-Kreis","type":"Landkreis"},"federalState":{"key":"06","name":"Hessen"}},{"name":"Gartenstr.","postalCode":"34212","locality":"Melsungen","municipality":{"key":"06634014","name":"Melsungen, Stadt","type":"Stadt"},"district":{"key":"06634","name":"Schwalm-Eder-Kreis","type":"Landkreis"},"federalState":{"key":"06","name":"Hessen"}},{"name":"Gebrüder-Grimm-Str.","postalCode":"34212","locality":"Melsungen","municipality":{"key":"06634014","name":"Melsungen, Stadt","type":"Stadt"},"district":{"key":"06634","name":"Schwalm-Eder-Kreis","type":"Landkreis"},"federalState":{"key":"06","name":"Hessen"}},{"name":"Gerbergasse","postalCode":"34212","locality":"Melsungen","municipality":{"key":"06634014","name":"Melsungen, Stadt","type":"Stadt"},"district":{"key":"06634","name":"Schwalm-Eder-Kreis","type":"Landkreis"},"federalState":{"key":"06","name":"Hessen"}},{"name":"Gexbachstr.","postalCode":"34212","locality":"Melsungen","municipality":{"key":"06634014","name":"Melsungen, Stadt","type":"Stadt"},"district":{"key":"06634","name":"Schwalm-Eder-Kreis","type":"Landkreis"},"federalState":{"key":"06","name":"Hessen"}},{"name":"Gisbertzstr.","postalCode":"34212","locality":"Melsungen","municipality":{"key":"06634014","name":"Melsungen, Stadt","type":"Stadt"},"district":{"key":"06634","name":"Schwalm-Eder-Kreis","type":"Landkreis"},"federalState":{"key":"06","name":"Hessen"}},{"name":"Glogauer Str.","postalCode":"34212","locality":"Melsungen","municipality":{"key":"06634014","name":"Melsungen, Stadt","type":"Stadt"},"district":{"key":"06634","name":"Schwalm-Eder-Kreis","type":"Landkreis"},"federalState":{"key":"06","name":"Hessen"}},{"name":"Grundstr.","postalCode":"34212","locality":"Melsungen","municipality":{"key":"06634014","name":"Melsungen, Stadt","type":"Stadt"},"district":{"key":"06634","name":"Schwalm-Eder-Kreis","type":"Landkreis"},"federalState":{"key":"06","name":"Hessen"}},{"name":"Grüner Weg","postalCode":"34212","locality":"Melsungen","municipality":{"key":"06634014","name":"Melsungen, Stadt","type":"Stadt"},"district":{"key":"06634","name":"Schwalm-Eder-Kreis","type":"Landkreis"},"federalState":{"key":"06","name":"Hessen"}},{"name":"Grüne Str.","postalCode":"34212","locality":"Melsungen","municipality":{"key":"06634014","name":"Melsungen, Stadt","type":"Stadt"},"district":{"key":"06634","name":"Schwalm-Eder-Kreis","type":"Landkreis"},"federalState":{"key":"06","name":"Hessen"}},{"name":"Gumbertsweg","postalCode":"34212","locality":"Melsungen","municipality":{"key":"06634014","name":"Melsungen, Stadt","type":"Stadt"},"district":{"key":"06634","name":"Schwalm-Eder-Kreis","type":"Landkreis"},"federalState":{"key":"06","name":"Hessen"}},{"name":"Habichtswaldweg","postalCode":"34212","locality":"Melsungen","municipality":{"key":"06634014","name":"Melsungen, Stadt","type":"Stadt"},"district":{"key":"06634","name":"Schwalm-Eder-Kreis","type":"Landkreis"},"federalState":{"key":"06","name":"Hessen"}},{"name":"Hahnengasse","postalCode":"34212","locality":"Melsungen","municipality":{"key":"06634014","name":"Melsungen, Stadt","type":"Stadt"},"district":{"key":"06634","name":"Schwalm-Eder-Kreis","type":"Landkreis"},"federalState":{"key":"06","name":"Hessen"}},{"name":"Harzweg","postalCode":"34212","locality":"Melsungen","municipality":{"key":"06634014","name":"Melsungen, Stadt","type":"Stadt"},"district":{"key":"06634","name":"Schwalm-Eder-Kreis","type":"Landkreis"},"federalState":{"key":"06","name":"Hessen"}},{"name":"Hauptstr.","postalCode":"34212","locality":"Melsungen","municipality":{"key":"06634014","name":"Melsungen, Stadt","type":"Stadt"},"district":{"key":"06634","name":"Schwalm-Eder-Kreis","type":"Landkreis"},"federalState":{"key":"06","name":"Hessen"}},{"name":"Heideweg","postalCode":"34212","locality":"Melsungen","municipality":{"key":"06634014","name":"Melsungen, Stadt","type":"Stadt"},"district":{"key":"06634","name":"Schwalm-Eder-Kreis","type":"Landkreis"},"federalState":{"key":"06","name":"Hessen"}},{"name":"Heiligenbergstr.","postalCode":"34212","locality":"Melsungen","municipality":{"key":"06634014","name":"Melsungen, Stadt","type":"Stadt"},"district":{"key":"06634","name":"Schwalm-Eder-Kreis","type":"Landkreis"},"federalState":{"key":"06","name":"Hessen"}},{"name":"Hessenwinkel","postalCode":"34212","locality":"Melsungen","municipality":{"key":"06634014","name":"Melsungen, Stadt","type":"Stadt"},"district":{"key":"06634","name":"Schwalm-Eder-Kreis","type":"Landkreis"},"federalState":{"key":"06","name":"Hessen"}},{"name":"Hilgershäuser Weg","postalCode":"34212","locality":"Melsungen","municipality":{"key":"06634014","name":"Melsungen, Stadt","type":"Stadt"},"district":{"key":"06634","name":"Schwalm-Eder-Kreis","type":"Landkreis"},"federalState":{"key":"06","name":"Hessen"}},{"name":"Himmelsbergstr.","postalCode":"34212","locality":"Melsungen","municipality":{"key":"06634014","name":"Melsungen, Stadt","type":"Stadt"},"district":{"key":"06634","name":"Schwalm-Eder-Kreis","type":"Landkreis"},"federalState":{"key":"06","name":"Hessen"}},{"name":"Himmelsbergweg","postalCode":"34212","locality":"Melsungen","municipality":{"key":"06634014","name":"Melsungen, Stadt","type":"Stadt"},"district":{"key":"06634","name":"Schwalm-Eder-Kreis","type":"Landkreis"},"federalState":{"key":"06","name":"Hessen"}},{"name":"Hinter den Höfen","postalCode":"34212","locality":"Melsungen","municipality":{"key":"06634014","name":"Melsungen, Stadt","type":"Stadt"},"district":{"key":"06634","name":"Schwalm-Eder-Kreis","type":"Landkreis"},"federalState":{"key":"06","name":"Hessen"}},{"name":"Hinter der Mauer","postalCode":"34212","locality":"Melsungen","municipality":{"key":"06634014","name":"Melsungen, Stadt","type":"Stadt"},"district":{"key":"06634","name":"Schwalm-Eder-Kreis","type":"Landkreis"},"federalState":{"key":"06","name":"Hessen"}},{"name":"Hinteres Eisfeld","postalCode":"34212","locality":"Melsungen","municipality":{"key":"06634014","name":"Melsungen, Stadt","type":"Stadt"},"district":{"key":"06634","name":"Schwalm-Eder-Kreis","type":"Landkreis"},"federalState":{"key":"06","name":"Hessen"}},{"name":"Hirtenrain","postalCode":"34212","locality":"Melsungen","municipality":{"key":"06634014","name":"Melsungen, Stadt","type":"Stadt"},"district":{"key":"06634","name":"Schwalm-Eder-Kreis","type":"Landkreis"},"federalState":{"key":"06","name":"Hessen"}},{"name":"Hirtenweg","postalCode":"34212","locality":"Melsungen","municipality":{"key":"06634014","name":"Melsungen, Stadt","type":"Stadt"},"district":{"key":"06634","name":"Schwalm-Eder-Kreis","type":"Landkreis"},"federalState":{"key":"06","name":"Hessen"}},{"name":"Höhenweg","postalCode":"34212","locality":"Melsungen","municipality":{"key":"06634014","name":"Melsungen, Stadt","type":"Stadt"},"district":{"key":"06634","name":"Schwalm-Eder-Kreis","type":"Landkreis"},"federalState":{"key":"06","name":"Hessen"}},{"name":"Holunderweg","postalCode":"34212","locality":"Melsungen","municipality":{"key":"06634014","name":"Melsungen, Stadt","type":"Stadt"},"district":{"key":"06634","name":"Schwalm-Eder-Kreis","type":"Landkreis"},"federalState":{"key":"06","name":"Hessen"}},{"name":"Hospitalstr.","postalCode":"34212","locality":"Melsungen","municipality":{"key":"06634014","name":"Melsungen, Stadt","type":"Stadt"},"district":{"key":"06634","name":"Schwalm-Eder-Kreis","type":"Landkreis"},"federalState":{"key":"06","name":"Hessen"}},{"name":"Huberg","postalCode":"34212","locality":"Melsungen","municipality":{"key":"06634014","name":"Melsungen, Stadt","type":"Stadt"},"district":{"key":"06634","name":"Schwalm-Eder-Kreis","type":"Landkreis"},"federalState":{"key":"06","name":"Hessen"}},{"name":"Hunrain","postalCode":"34212","locality":"Melsungen","municipality":{"key":"06634014","name":"Melsungen, Stadt","type":"Stadt"},"district":{"key":"06634","name":"Schwalm-Eder-Kreis","type":"Landkreis"},"federalState":{"key":"06","name":"Hessen"}},{"name":"Hunsrückweg","postalCode":"34212","locality":"Melsungen","municipality":{"key":"06634014","name":"Melsungen, Stadt","type":"Stadt"},"district":{"key":"06634","name":"Schwalm-Eder-Kreis","type":"Landkreis"},"federalState":{"key":"06","name":"Hessen"}},{"name":"Im Kirchhöfer Grund","postalCode":"34212","locality":"Melsungen","municipality":{"key":"06634014","name":"Melsungen, Stadt","type":"Stadt"},"district":{"key":"06634","name":"Schwalm-Eder-Kreis","type":"Landkreis"},"federalState":{"key":"06","name":"Hessen"}},{"name":"Im Nick","postalCode":"34212","locality":"Melsungen","municipality":{"key":"06634014","name":"Melsungen, Stadt","type":"Stadt"},"district":{"key":"06634","name":"Schwalm-Eder-Kreis","type":"Landkreis"},"federalState":{"key":"06","name":"Hessen"}},{"name":"In den Erlen","postalCode":"34212","locality":"Melsungen","municipality":{"key":"06634014","name":"Melsungen, Stadt","type":"Stadt"},"district":{"key":"06634","name":"Schwalm-Eder-Kreis","type":"Landkreis"},"federalState":{"key":"06","name":"Hessen"}},{"name":"In der Gasse","postalCode":"34212","locality":"Melsungen","municipality":{"key":"06634014","name":"Melsungen, Stadt","type":"Stadt"},"district":{"key":"06634","name":"Schwalm-Eder-Kreis","type":"Landkreis"},"federalState":{"key":"06","name":"Hessen"}},{"name":"Inselweg","postalCode":"34212","locality":"Melsungen","municipality":{"key":"06634014","name":"Melsungen, Stadt","type":"Stadt"},"district":{"key":"06634","name":"Schwalm-Eder-Kreis","type":"Landkreis"},"federalState":{"key":"06","name":"Hessen"}},{"name":"Jahnstr.","postalCode":"34212","locality":"Melsungen","municipality":{"key":"06634014","name":"Melsungen, Stadt","type":"Stadt"},"district":{"key":"06634","name":"Schwalm-Eder-Kreis","type":"Landkreis"},"federalState":{"key":"06","name":"Hessen"}},{"name":"Jenaer Str.","postalCode":"34212","locality":"Melsungen","municipality":{"key":"06634014","name":"Melsungen, Stadt","type":"Stadt"},"district":{"key":"06634","name":"Schwalm-Eder-Kreis","type":"Landkreis"},"federalState":{"key":"06","name":"Hessen"}},{"name":"Kaiserau","postalCode":"34212","locality":"Melsungen","municipality":{"key":"06634014","name":"Melsungen, Stadt","type":"Stadt"},"district":{"key":"06634","name":"Schwalm-Eder-Kreis","type":"Landkreis"},"federalState":{"key":"06","name":"Hessen"}},{"name":"Kapellenweg","postalCode":"34212","locality":"Melsungen","municipality":{"key":"06634014","name":"Melsungen, Stadt","type":"Stadt"},"district":{"key":"06634","name":"Schwalm-Eder-Kreis","type":"Landkreis"},"federalState":{"key":"06","name":"Hessen"}},{"name":"Kasseler Str.","postalCode":"34212","locality":"Melsungen","municipality":{"key":"06634014","name":"Melsungen, Stadt","type":"Stadt"},"district":{"key":"06634","name":"Schwalm-Eder-Kreis","type":"Landkreis"},"federalState":{"key":"06","name":"Hessen"}},{"name":"Kehrenbacher Weg","postalCode":"34212","locality":"Melsungen","municipality":{"key":"06634014","name":"Melsungen, Stadt","type":"Stadt"},"district":{"key":"06634","name":"Schwalm-Eder-Kreis","type":"Landkreis"},"federalState":{"key":"06","name":"Hessen"}},{"name":"Kehrenbachstr.","postalCode":"34212","locality":"Melsungen","municipality":{"key":"06634014","name":"Melsungen, Stadt","type":"Stadt"},"district":{"key":"06634","name":"Schwalm-Eder-Kreis","type":"Landkreis"},"federalState":{"key":"06","name":"Hessen"}},{"name":"Kellerwaldstr.","postalCode":"34212","locality":"Melsungen","municipality":{"key":"06634014","name":"Melsungen, Stadt","type":"Stadt"},"district":{"key":"06634","name":"Schwalm-Eder-Kreis","type":"Landkreis"},"federalState":{"key":"06","name":"Hessen"}},{"name":"Kesselberg","postalCode":"34212","locality":"Melsungen","municipality":{"key":"06634014","name":"Melsungen, Stadt","type":"Stadt"},"district":{"key":"06634","name":"Schwalm-Eder-Kreis","type":"Landkreis"},"federalState":{"key":"06","name":"Hessen"}},{"name":"Kirchstr.","postalCode":"34212","locality":"Melsungen","municipality":{"key":"06634014","name":"Melsungen, Stadt","type":"Stadt"},"district":{"key":"06634","name":"Schwalm-Eder-Kreis","type":"Landkreis"},"federalState":{"key":"06","name":"Hessen"}},{"name":"Kirschrain","postalCode":"34212","locality":"Melsungen","municipality":{"key":"06634014","name":"Melsungen, Stadt","type":"Stadt"},"district":{"key":"06634","name":"Schwalm-Eder-Kreis","type":"Landkreis"},"federalState":{"key":"06","name":"Hessen"}},{"name":"Knüllstr.","postalCode":"34212","locality":"Melsungen","municipality":{"key":"06634014","name":"Melsungen, Stadt","type":"Stadt"},"district":{"key":"06634","name":"Schwalm-Eder-Kreis","type":"Landkreis"},"federalState":{"key":"06","name":"Hessen"}},{"name":"Kolberg","postalCode":"34212","locality":"Melsungen","municipality":{"key":"06634014","name":"Melsungen, Stadt","type":"Stadt"},"district":{"key":"06634","name":"Schwalm-Eder-Kreis","type":"Landkreis"},"federalState":{"key":"06","name":"Hessen"}},{"name":"Königsberger Str.","postalCode":"34212","locality":"Melsungen","municipality":{"key":"06634014","name":"Melsungen, Stadt","type":"Stadt"},"district":{"key":"06634","name":"Schwalm-Eder-Kreis","type":"Landkreis"},"federalState":{"key":"06","name":"Hessen"}},{"name":"Koppenhagen","postalCode":"34212","locality":"Melsungen","municipality":{"key":"06634014","name":"Melsungen, Stadt","type":"Stadt"},"district":{"key":"06634","name":"Schwalm-Eder-Kreis","type":"Landkreis"},"federalState":{"key":"06","name":"Hessen"}},{"name":"Körlegasse","postalCode":"34212","locality":"Melsungen","municipality":{"key":"06634014","name":"Melsungen, Stadt","type":"Stadt"},"district":{"key":"06634","name":"Schwalm-Eder-Kreis","type":"Landkreis"},"federalState":{"key":"06","name":"Hessen"}},{"name":"Korneliusgraben","postalCode":"34212","locality":"Melsungen","municipality":{"key":"06634014","name":"Melsungen, Stadt","type":"Stadt"},"district":{"key":"06634","name":"Schwalm-Eder-Kreis","type":"Landkreis"},"federalState":{"key":"06","name":"Hessen"}},{"name":"Koudougou-Allee","postalCode":"34212","locality":"Melsungen","municipality":{"key":"06634014","name":"Melsungen, Stadt","type":"Stadt"},"district":{"key":"06634","name":"Schwalm-Eder-Kreis","type":"Landkreis"},"federalState":{"key":"06","name":"Hessen"}},{"name":"Krämersberg","postalCode":"34212","locality":"Melsungen","municipality":{"key":"06634014","name":"Melsungen, Stadt","type":"Stadt"},"district":{"key":"06634","name":"Schwalm-Eder-Kreis","type":"Landkreis"},"federalState":{"key":"06","name":"Hessen"}},{"name":"Kuhmannsheide","postalCode":"34212","locality":"Melsungen","municipality":{"key":"06634014","name":"Melsungen, Stadt","type":"Stadt"},"district":{"key":"06634","name":"Schwalm-Eder-Kreis","type":"Landkreis"},"federalState":{"key":"06","name":"Hessen"}},{"name":"Kurzer Weg","postalCode":"34212","locality":"Melsungen","municipality":{"key":"06634014","name":"Melsungen, Stadt","type":"Stadt"},"district":{"key":"06634","name":"Schwalm-Eder-Kreis","type":"Landkreis"},"federalState":{"key":"06","name":"Hessen"}},{"name":"Küstriner Str.","postalCode":"34212","locality":"Melsungen","municipality":{"key":"06634014","name":"Melsungen, Stadt","type":"Stadt"},"district":{"key":"06634","name":"Schwalm-Eder-Kreis","type":"Landkreis"},"federalState":{"key":"06","name":"Hessen"}},{"name":"Lange Gasse","postalCode":"34212","locality":"Melsungen","municipality":{"key":"06634014","name":"Melsungen, Stadt","type":"Stadt"},"district":{"key":"06634","name":"Schwalm-Eder-Kreis","type":"Landkreis"},"federalState":{"key":"06","name":"Hessen"}},{"name":"Lärchenweg","postalCode":"34212","locality":"Melsungen","municipality":{"key":"06634014","name":"Melsungen, Stadt","type":"Stadt"},"district":{"key":"06634","name":"Schwalm-Eder-Kreis","type":"Landkreis"},"federalState":{"key":"06","name":"Hessen"}},{"name":"Laudenbachstr.","postalCode":"34212","locality":"Melsungen","municipality":{"key":"06634014","name":"Melsungen, Stadt","type":"Stadt"},"district":{"key":"06634","name":"Schwalm-Eder-Kreis","type":"Landkreis"},"federalState":{"key":"06","name":"Hessen"}},{"name":"Lehmkaute","postalCode":"34212","locality":"Melsungen","municipality":{"key":"06634014","name":"Melsungen, Stadt","type":"Stadt"},"district":{"key":"06634","name":"Schwalm-Eder-Kreis","type":"Landkreis"},"federalState":{"key":"06","name":"Hessen"}},{"name":"Leimenkaute","postalCode":"34212","locality":"Melsungen","municipality":{"key":"06634014","name":"Melsungen, Stadt","type":"Stadt"},"district":{"key":"06634","name":"Schwalm-Eder-Kreis","type":"Landkreis"},"federalState":{"key":"06","name":"Hessen"}},{"name":"Leipziger Str.","postalCode":"34212","locality":"Melsungen","municipality":{"key":"06634014","name":"Melsungen, Stadt","type":"Stadt"},"district":{"key":"06634","name":"Schwalm-Eder-Kreis","type":"Landkreis"},"federalState":{"key":"06","name":"Hessen"}},{"name":"Leiseküppel","postalCode":"34212","locality":"Melsungen","municipality":{"key":"06634014","name":"Melsungen, Stadt","type":"Stadt"},"district":{"key":"06634","name":"Schwalm-Eder-Kreis","type":"Landkreis"},"federalState":{"key":"06","name":"Hessen"}},{"name":"Lichtenauer Str.","postalCode":"34212","locality":"Melsungen","municipality":{"key":"06634014","name":"Melsungen, Stadt","type":"Stadt"},"district":{"key":"06634","name":"Schwalm-Eder-Kreis","type":"Landkreis"},"federalState":{"key":"06","name":"Hessen"}},{"name":"Liegnitzer Str.","postalCode":"34212","locality":"Melsungen","municipality":{"key":"06634014","name":"Melsungen, Stadt","type":"Stadt"},"district":{"key":"06634","name":"Schwalm-Eder-Kreis","type":"Landkreis"},"federalState":{"key":"06","name":"Hessen"}},{"name":"Ligusterweg","postalCode":"34212","locality":"Melsungen","municipality":{"key":"06634014","name":"Melsungen, Stadt","type":"Stadt"},"district":{"key":"06634","name":"Schwalm-Eder-Kreis","type":"Landkreis"},"federalState":{"key":"06","name":"Hessen"}},{"name":"Lindenbergallee","postalCode":"34212","locality":"Melsungen","municipality":{"key":"06634014","name":"Melsungen, Stadt","type":"Stadt"},"district":{"key":"06634","name":"Schwalm-Eder-Kreis","type":"Landkreis"},"federalState":{"key":"06","name":"Hessen"}},{"name":"Lindenberganlage","postalCode":"34212","locality":"Melsungen","municipality":{"key":"06634014","name":"Melsungen, Stadt","type":"Stadt"},"district":{"key":"06634","name":"Schwalm-Eder-Kreis","type":"Landkreis"},"federalState":{"key":"06","name":"Hessen"}},{"name":"Lindenbergstr.","postalCode":"34212","locality":"Melsungen","municipality":{"key":"06634014","name":"Melsungen, Stadt","type":"Stadt"},"district":{"key":"06634","name":"Schwalm-Eder-Kreis","type":"Landkreis"},"federalState":{"key":"06","name":"Hessen"}},{"name":"Lindenstr.","postalCode":"34212","locality":"Melsungen","municipality":{"key":"06634014","name":"Melsungen, Stadt","type":"Stadt"},"district":{"key":"06634","name":"Schwalm-Eder-Kreis","type":"Landkreis"},"federalState":{"key":"06","name":"Hessen"}},{"name":"Lobenhäuser Weg","postalCode":"34212","locality":"Melsungen","municipality":{"key":"06634014","name":"Melsungen, Stadt","type":"Stadt"},"district":{"key":"06634","name":"Schwalm-Eder-Kreis","type":"Landkreis"},"federalState":{"key":"06","name":"Hessen"}},{"name":"Magdeburger Str.","postalCode":"34212","locality":"Melsungen","municipality":{"key":"06634014","name":"Melsungen, Stadt","type":"Stadt"},"district":{"key":"06634","name":"Schwalm-Eder-Kreis","type":"Landkreis"},"federalState":{"key":"06","name":"Hessen"}},{"name":"Malsfelder Str.","postalCode":"34212","locality":"Melsungen","municipality":{"key":"06634014","name":"Melsungen, Stadt","type":"Stadt"},"district":{"key":"06634","name":"Schwalm-Eder-Kreis","type":"Landkreis"},"federalState":{"key":"06","name":"Hessen"}},{"name":"Meisenweg","postalCode":"34212","locality":"Melsungen","municipality":{"key":"06634014","name":"Melsungen, Stadt","type":"Stadt"},"district":{"key":"06634","name":"Schwalm-Eder-Kreis","type":"Landkreis"},"federalState":{"key":"06","name":"Hessen"}},{"name":"Meißnerstr.","postalCode":"34212","locality":"Melsungen","municipality":{"key":"06634014","name":"Melsungen, Stadt","type":"Stadt"},"district":{"key":"06634","name":"Schwalm-Eder-Kreis","type":"Landkreis"},"federalState":{"key":"06","name":"Hessen"}},{"name":"Mittelstr.","postalCode":"34212","locality":"Melsungen","municipality":{"key":"06634014","name":"Melsungen, Stadt","type":"Stadt"},"district":{"key":"06634","name":"Schwalm-Eder-Kreis","type":"Landkreis"},"federalState":{"key":"06","name":"Hessen"}},{"name":"Mühlenrain","postalCode":"34212","locality":"Melsungen","municipality":{"key":"06634014","name":"Melsungen, Stadt","type":"Stadt"},"district":{"key":"06634","name":"Schwalm-Eder-Kreis","type":"Landkreis"},"federalState":{"key":"06","name":"Hessen"}},{"name":"Mühlenstr.","postalCode":"34212","locality":"Melsungen","municipality":{"key":"06634014","name":"Melsungen, Stadt","type":"Stadt"},"district":{"key":"06634","name":"Schwalm-Eder-Kreis","type":"Landkreis"},"federalState":{"key":"06","name":"Hessen"}},{"name":"Nürnberger Str.","postalCode":"34212","locality":"Melsungen","municipality":{"key":"06634014","name":"Melsungen, Stadt","type":"Stadt"},"district":{"key":"06634","name":"Schwalm-Eder-Kreis","type":"Landkreis"},"federalState":{"key":"06","name":"Hessen"}},{"name":"Obere Mauergasse","postalCode":"34212","locality":"Melsungen","municipality":{"key":"06634014","name":"Melsungen, Stadt","type":"Stadt"},"district":{"key":"06634","name":"Schwalm-Eder-Kreis","type":"Landkreis"},"federalState":{"key":"06","name":"Hessen"}},{"name":"Oberer Fuldablick","postalCode":"34212","locality":"Melsungen","municipality":{"key":"06634014","name":"Melsungen, Stadt","type":"Stadt"},"district":{"key":"06634","name":"Schwalm-Eder-Kreis","type":"Landkreis"},"federalState":{"key":"06","name":"Hessen"}},{"name":"Oberer Hang","postalCode":"34212","locality":"Melsungen","municipality":{"key":"06634014","name":"Melsungen, Stadt","type":"Stadt"},"district":{"key":"06634","name":"Schwalm-Eder-Kreis","type":"Landkreis"},"federalState":{"key":"06","name":"Hessen"}},{"name":"Oberer Kolberg","postalCode":"34212","locality":"Melsungen","municipality":{"key":"06634014","name":"Melsungen, Stadt","type":"Stadt"},"district":{"key":"06634","name":"Schwalm-Eder-Kreis","type":"Landkreis"},"federalState":{"key":"06","name":"Hessen"}},{"name":"Oberer Pfaffenberg","postalCode":"34212","locality":"Melsungen","municipality":{"key":"06634014","name":"Melsungen, Stadt","type":"Stadt"},"district":{"key":"06634","name":"Schwalm-Eder-Kreis","type":"Landkreis"},"federalState":{"key":"06","name":"Hessen"}},{"name":"Oberer Schlagweg","postalCode":"34212","locality":"Melsungen","municipality":{"key":"06634014","name":"Melsungen, Stadt","type":"Stadt"},"district":{"key":"06634","name":"Schwalm-Eder-Kreis","type":"Landkreis"},"federalState":{"key":"06","name":"Hessen"}},{"name":"Oberer Weinberg","postalCode":"34212","locality":"Melsungen","municipality":{"key":"06634014","name":"Melsungen, Stadt","type":"Stadt"},"district":{"key":"06634","name":"Schwalm-Eder-Kreis","type":"Landkreis"},"federalState":{"key":"06","name":"Hessen"}},{"name":"Oberes Bachfeld","postalCode":"34212","locality":"Melsungen","municipality":{"key":"06634014","name":"Melsungen, Stadt","type":"Stadt"},"district":{"key":"06634","name":"Schwalm-Eder-Kreis","type":"Landkreis"},"federalState":{"key":"06","name":"Hessen"}},{"name":"Oberes Georgenfeld","postalCode":"34212","locality":"Melsungen","municipality":{"key":"06634014","name":"Melsungen, Stadt","type":"Stadt"},"district":{"key":"06634","name":"Schwalm-Eder-Kreis","type":"Landkreis"},"federalState":{"key":"06","name":"Hessen"}},{"name":"Obere Steingasse","postalCode":"34212","locality":"Melsungen","municipality":{"key":"06634014","name":"Melsungen, Stadt","type":"Stadt"},"district":{"key":"06634","name":"Schwalm-Eder-Kreis","type":"Landkreis"},"federalState":{"key":"06","name":"Hessen"}},{"name":"Obere Waldstr.","postalCode":"34212","locality":"Melsungen","municipality":{"key":"06634014","name":"Melsungen, Stadt","type":"Stadt"},"district":{"key":"06634","name":"Schwalm-Eder-Kreis","type":"Landkreis"},"federalState":{"key":"06","name":"Hessen"}},{"name":"Obermelsunger Str.","postalCode":"34212","locality":"Melsungen","municipality":{"key":"06634014","name":"Melsungen, Stadt","type":"Stadt"},"district":{"key":"06634","name":"Schwalm-Eder-Kreis","type":"Landkreis"},"federalState":{"key":"06","name":"Hessen"}},{"name":"Obermelsunger Weg","postalCode":"34212","locality":"Melsungen","municipality":{"key":"06634014","name":"Melsungen, Stadt","type":"Stadt"},"district":{"key":"06634","name":"Schwalm-Eder-Kreis","type":"Landkreis"},"federalState":{"key":"06","name":"Hessen"}},{"name":"Odenwaldweg","postalCode":"34212","locality":"Melsungen","municipality":{"key":"06634014","name":"Melsungen, Stadt","type":"Stadt"},"district":{"key":"06634","name":"Schwalm-Eder-Kreis","type":"Landkreis"},"federalState":{"key":"06","name":"Hessen"}},{"name":"Ohestr.","postalCode":"34212","locality":"Melsungen","municipality":{"key":"06634014","name":"Melsungen, Stadt","type":"Stadt"},"district":{"key":"06634","name":"Schwalm-Eder-Kreis","type":"Landkreis"},"federalState":{"key":"06","name":"Hessen"}},{"name":"Ostdeutsche Siedlung","postalCode":"34212","locality":"Melsungen","municipality":{"key":"06634014","name":"Melsungen, Stadt","type":"Stadt"},"district":{"key":"06634","name":"Schwalm-Eder-Kreis","type":"Landkreis"},"federalState":{"key":"06","name":"Hessen"}},{"name":"Ostwaldstr.","postalCode":"34212","locality":"Melsungen","municipality":{"key":"06634014","name":"Melsungen, Stadt","type":"Stadt"},"district":{"key":"06634","name":"Schwalm-Eder-Kreis","type":"Landkreis"},"federalState":{"key":"06","name":"Hessen"}},{"name":"Pfaffenberg","postalCode":"34212","locality":"Melsungen","municipality":{"key":"06634014","name":"Melsungen, Stadt","type":"Stadt"},"district":{"key":"06634","name":"Schwalm-Eder-Kreis","type":"Landkreis"},"federalState":{"key":"06","name":"Hessen"}},{"name":"Pfieffestr.","postalCode":"34212","locality":"Melsungen","municipality":{"key":"06634014","name":"Melsungen, Stadt","type":"Stadt"},"district":{"key":"06634","name":"Schwalm-Eder-Kreis","type":"Landkreis"},"federalState":{"key":"06","name":"Hessen"}},{"name":"Pilzenrain","postalCode":"34212","locality":"Melsungen","municipality":{"key":"06634014","name":"Melsungen, Stadt","type":"Stadt"},"district":{"key":"06634","name":"Schwalm-Eder-Kreis","type":"Landkreis"},"federalState":{"key":"06","name":"Hessen"}},{"name":"Quenteler Weg","postalCode":"34212","locality":"Melsungen","municipality":{"key":"06634014","name":"Melsungen, Stadt","type":"Stadt"},"district":{"key":"06634","name":"Schwalm-Eder-Kreis","type":"Landkreis"},"federalState":{"key":"06","name":"Hessen"}},{"name":"Quergasse","postalCode":"34212","locality":"Melsungen","municipality":{"key":"06634014","name":"Melsungen, Stadt","type":"Stadt"},"district":{"key":"06634","name":"Schwalm-Eder-Kreis","type":"Landkreis"},"federalState":{"key":"06","name":"Hessen"}},{"name":"Quillerstr.","postalCode":"34212","locality":"Melsungen","municipality":{"key":"06634014","name":"Melsungen, Stadt","type":"Stadt"},"district":{"key":"06634","name":"Schwalm-Eder-Kreis","type":"Landkreis"},"federalState":{"key":"06","name":"Hessen"}},{"name":"Rasenweg","postalCode":"34212","locality":"Melsungen","municipality":{"key":"06634014","name":"Melsungen, Stadt","type":"Stadt"},"district":{"key":"06634","name":"Schwalm-Eder-Kreis","type":"Landkreis"},"federalState":{"key":"06","name":"Hessen"}},{"name":"Reinhardswaldweg","postalCode":"34212","locality":"Melsungen","municipality":{"key":"06634014","name":"Melsungen, Stadt","type":"Stadt"},"district":{"key":"06634","name":"Schwalm-Eder-Kreis","type":"Landkreis"},"federalState":{"key":"06","name":"Hessen"}},{"name":"Rhönstr.","postalCode":"34212","locality":"Melsungen","municipality":{"key":"06634014","name":"Melsungen, Stadt","type":"Stadt"},"district":{"key":"06634","name":"Schwalm-Eder-Kreis","type":"Landkreis"},"federalState":{"key":"06","name":"Hessen"}},{"name":"Riedforststr.","postalCode":"34212","locality":"Melsungen","municipality":{"key":"06634014","name":"Melsungen, Stadt","type":"Stadt"},"district":{"key":"06634","name":"Schwalm-Eder-Kreis","type":"Landkreis"},"federalState":{"key":"06","name":"Hessen"}},{"name":"Rosenstr.","postalCode":"34212","locality":"Melsungen","municipality":{"key":"06634014","name":"Melsungen, Stadt","type":"Stadt"},"district":{"key":"06634","name":"Schwalm-Eder-Kreis","type":"Landkreis"},"federalState":{"key":"06","name":"Hessen"}},{"name":"Rotenburger Str.","postalCode":"34212","locality":"Melsungen","municipality":{"key":"06634014","name":"Melsungen, Stadt","type":"Stadt"},"district":{"key":"06634","name":"Schwalm-Eder-Kreis","type":"Landkreis"},"federalState":{"key":"06","name":"Hessen"}},{"name":"Roter Rain","postalCode":"34212","locality":"Melsungen","municipality":{"key":"06634014","name":"Melsungen, Stadt","type":"Stadt"},"district":{"key":"06634","name":"Schwalm-Eder-Kreis","type":"Landkreis"},"federalState":{"key":"06","name":"Hessen"}},{"name":"Rundstr.","postalCode":"34212","locality":"Melsungen","municipality":{"key":"06634014","name":"Melsungen, Stadt","type":"Stadt"},"district":{"key":"06634","name":"Schwalm-Eder-Kreis","type":"Landkreis"},"federalState":{"key":"06","name":"Hessen"}},{"name":"Sälzerweg","postalCode":"34212","locality":"Melsungen","municipality":{"key":"06634014","name":"Melsungen, Stadt","type":"Stadt"},"district":{"key":"06634","name":"Schwalm-Eder-Kreis","type":"Landkreis"},"federalState":{"key":"06","name":"Hessen"}},{"name":"Sandstr.","postalCode":"34212","locality":"Melsungen","municipality":{"key":"06634014","name":"Melsungen, Stadt","type":"Stadt"},"district":{"key":"06634","name":"Schwalm-Eder-Kreis","type":"Landkreis"},"federalState":{"key":"06","name":"Hessen"}},{"name":"Scherengrabenweg","postalCode":"34212","locality":"Melsungen","municipality":{"key":"06634014","name":"Melsungen, Stadt","type":"Stadt"},"district":{"key":"06634","name":"Schwalm-Eder-Kreis","type":"Landkreis"},"federalState":{"key":"06","name":"Hessen"}},{"name":"Schlachthofstr.","postalCode":"34212","locality":"Melsungen","municipality":{"key":"06634014","name":"Melsungen, Stadt","type":"Stadt"},"district":{"key":"06634","name":"Schwalm-Eder-Kreis","type":"Landkreis"},"federalState":{"key":"06","name":"Hessen"}},{"name":"Schlagweg","postalCode":"34212","locality":"Melsungen","municipality":{"key":"06634014","name":"Melsungen, Stadt","type":"Stadt"},"district":{"key":"06634","name":"Schwalm-Eder-Kreis","type":"Landkreis"},"federalState":{"key":"06","name":"Hessen"}},{"name":"Schlehenweg","postalCode":"34212","locality":"Melsungen","municipality":{"key":"06634014","name":"Melsungen, Stadt","type":"Stadt"},"district":{"key":"06634","name":"Schwalm-Eder-Kreis","type":"Landkreis"},"federalState":{"key":"06","name":"Hessen"}},{"name":"Schloßstr.","postalCode":"34212","locality":"Melsungen","municipality":{"key":"06634014","name":"Melsungen, Stadt","type":"Stadt"},"district":{"key":"06634","name":"Schwalm-Eder-Kreis","type":"Landkreis"},"federalState":{"key":"06","name":"Hessen"}},{"name":"Schloth","postalCode":"34212","locality":"Melsungen","municipality":{"key":"06634014","name":"Melsungen, Stadt","type":"Stadt"},"district":{"key":"06634","name":"Schwalm-Eder-Kreis","type":"Landkreis"},"federalState":{"key":"06","name":"Hessen"}},{"name":"Schlothberg","postalCode":"34212","locality":"Melsungen","municipality":{"key":"06634014","name":"Melsungen, Stadt","type":"Stadt"},"district":{"key":"06634","name":"Schwalm-Eder-Kreis","type":"Landkreis"},"federalState":{"key":"06","name":"Hessen"}},{"name":"Schlothweg","postalCode":"34212","locality":"Melsungen","municipality":{"key":"06634014","name":"Melsungen, Stadt","type":"Stadt"},"district":{"key":"06634","name":"Schwalm-Eder-Kreis","type":"Landkreis"},"federalState":{"key":"06","name":"Hessen"}},{"name":"Schneidegasse","postalCode":"34212","locality":"Melsungen","municipality":{"key":"06634014","name":"Melsungen, Stadt","type":"Stadt"},"district":{"key":"06634","name":"Schwalm-Eder-Kreis","type":"Landkreis"},"federalState":{"key":"06","name":"Hessen"}},{"name":"Schöne Aussicht","postalCode":"34212","locality":"Melsungen","municipality":{"key":"06634014","name":"Melsungen, Stadt","type":"Stadt"},"district":{"key":"06634","name":"Schwalm-Eder-Kreis","type":"Landkreis"},"federalState":{"key":"06","name":"Hessen"}},{"name":"Schulstr.","postalCode":"34212","locality":"Melsungen","municipality":{"key":"06634014","name":"Melsungen, Stadt","type":"Stadt"},"district":{"key":"06634","name":"Schwalm-Eder-Kreis","type":"Landkreis"},"federalState":{"key":"06","name":"Hessen"}},{"name":"Schützenstr.","postalCode":"34212","locality":"Melsungen","municipality":{"key":"06634014","name":"Melsungen, Stadt","type":"Stadt"},"district":{"key":"06634","name":"Schwalm-Eder-Kreis","type":"Landkreis"},"federalState":{"key":"06","name":"Hessen"}},{"name":"Schwalbenweg","postalCode":"34212","locality":"Melsungen","municipality":{"key":"06634014","name":"Melsungen, Stadt","type":"Stadt"},"district":{"key":"06634","name":"Schwalm-Eder-Kreis","type":"Landkreis"},"federalState":{"key":"06","name":"Hessen"}},{"name":"Schwarzenberger Weg","postalCode":"34212","locality":"Melsungen","municipality":{"key":"06634014","name":"Melsungen, Stadt","type":"Stadt"},"district":{"key":"06634","name":"Schwalm-Eder-Kreis","type":"Landkreis"},"federalState":{"key":"06","name":"Hessen"}},{"name":"Schweriner Str.","postalCode":"34212","locality":"Melsungen","municipality":{"key":"06634014","name":"Melsungen, Stadt","type":"Stadt"},"district":{"key":"06634","name":"Schwalm-Eder-Kreis","type":"Landkreis"},"federalState":{"key":"06","name":"Hessen"}},{"name":"Seckenbach","postalCode":"34212","locality":"Melsungen","municipality":{"key":"06634014","name":"Melsungen, Stadt","type":"Stadt"},"district":{"key":"06634","name":"Schwalm-Eder-Kreis","type":"Landkreis"},"federalState":{"key":"06","name":"Hessen"}},{"name":"Siedlerstr.","postalCode":"34212","locality":"Melsungen","municipality":{"key":"06634014","name":"Melsungen, Stadt","type":"Stadt"},"district":{"key":"06634","name":"Schwalm-Eder-Kreis","type":"Landkreis"},"federalState":{"key":"06","name":"Hessen"}},{"name":"Sinselbachstr.","postalCode":"34212","locality":"Melsungen","municipality":{"key":"06634014","name":"Melsungen, Stadt","type":"Stadt"},"district":{"key":"06634","name":"Schwalm-Eder-Kreis","type":"Landkreis"},"federalState":{"key":"06","name":"Hessen"}},{"name":"Söhrestr.","postalCode":"34212","locality":"Melsungen","municipality":{"key":"06634014","name":"Melsungen, Stadt","type":"Stadt"},"district":{"key":"06634","name":"Schwalm-Eder-Kreis","type":"Landkreis"},"federalState":{"key":"06","name":"Hessen"}},{"name":"Sollingweg","postalCode":"34212","locality":"Melsungen","municipality":{"key":"06634014","name":"Melsungen, Stadt","type":"Stadt"},"district":{"key":"06634","name":"Schwalm-Eder-Kreis","type":"Landkreis"},"federalState":{"key":"06","name":"Hessen"}},{"name":"Sommerweg","postalCode":"34212","locality":"Melsungen","municipality":{"key":"06634014","name":"Melsungen, Stadt","type":"Stadt"},"district":{"key":"06634","name":"Schwalm-Eder-Kreis","type":"Landkreis"},"federalState":{"key":"06","name":"Hessen"}},{"name":"Sonneneck","postalCode":"34212","locality":"Melsungen","municipality":{"key":"06634014","name":"Melsungen, Stadt","type":"Stadt"},"district":{"key":"06634","name":"Schwalm-Eder-Kreis","type":"Landkreis"},"federalState":{"key":"06","name":"Hessen"}},{"name":"Sonnenhang","postalCode":"34212","locality":"Melsungen","municipality":{"key":"06634014","name":"Melsungen, Stadt","type":"Stadt"},"district":{"key":"06634","name":"Schwalm-Eder-Kreis","type":"Landkreis"},"federalState":{"key":"06","name":"Hessen"}},{"name":"Sonnenhaus","postalCode":"34212","locality":"Melsungen","municipality":{"key":"06634014","name":"Melsungen, Stadt","type":"Stadt"},"district":{"key":"06634","name":"Schwalm-Eder-Kreis","type":"Landkreis"},"federalState":{"key":"06","name":"Hessen"}},{"name":"Sonnenweg","postalCode":"34212","locality":"Melsungen","municipality":{"key":"06634014","name":"Melsungen, Stadt","type":"Stadt"},"district":{"key":"06634","name":"Schwalm-Eder-Kreis","type":"Landkreis"},"federalState":{"key":"06","name":"Hessen"}},{"name":"Spangenberger Str.","postalCode":"34212","locality":"Melsungen","municipality":{"key":"06634014","name":"Melsungen, Stadt","type":"Stadt"},"district":{"key":"06634","name":"Schwalm-Eder-Kreis","type":"Landkreis"},"federalState":{"key":"06","name":"Hessen"}},{"name":"Spangerweg","postalCode":"34212","locality":"Melsungen","municipality":{"key":"06634014","name":"Melsungen, Stadt","type":"Stadt"},"district":{"key":"06634","name":"Schwalm-Eder-Kreis","type":"Landkreis"},"federalState":{"key":"06","name":"Hessen"}},{"name":"Spelzbachstr.","postalCode":"34212","locality":"Melsungen","municipality":{"key":"06634014","name":"Melsungen, Stadt","type":"Stadt"},"district":{"key":"06634","name":"Schwalm-Eder-Kreis","type":"Landkreis"},"federalState":{"key":"06","name":"Hessen"}},{"name":"Spessartweg","postalCode":"34212","locality":"Melsungen","municipality":{"key":"06634014","name":"Melsungen, Stadt","type":"Stadt"},"district":{"key":"06634","name":"Schwalm-Eder-Kreis","type":"Landkreis"},"federalState":{"key":"06","name":"Hessen"}},{"name":"Sportplatz","postalCode":"34212","locality":"Melsungen","municipality":{"key":"06634014","name":"Melsungen, Stadt","type":"Stadt"},"district":{"key":"06634","name":"Schwalm-Eder-Kreis","type":"Landkreis"},"federalState":{"key":"06","name":"Hessen"}},{"name":"Steinbinge","postalCode":"34212","locality":"Melsungen","municipality":{"key":"06634014","name":"Melsungen, Stadt","type":"Stadt"},"district":{"key":"06634","name":"Schwalm-Eder-Kreis","type":"Landkreis"},"federalState":{"key":"06","name":"Hessen"}},{"name":"Steinrutsche","postalCode":"34212","locality":"Melsungen","municipality":{"key":"06634014","name":"Melsungen, Stadt","type":"Stadt"},"district":{"key":"06634","name":"Schwalm-Eder-Kreis","type":"Landkreis"},"federalState":{"key":"06","name":"Hessen"}},{"name":"Steinweg","postalCode":"34212","locality":"Melsungen","municipality":{"key":"06634014","name":"Melsungen, Stadt","type":"Stadt"},"district":{"key":"06634","name":"Schwalm-Eder-Kreis","type":"Landkreis"},"federalState":{"key":"06","name":"Hessen"}},{"name":"St.-Georgs-Str.","postalCode":"34212","locality":"Melsungen","municipality":{"key":"06634014","name":"Melsungen, Stadt","type":"Stadt"},"district":{"key":"06634","name":"Schwalm-Eder-Kreis","type":"Landkreis"},"federalState":{"key":"06","name":"Hessen"}},{"name":"Sudetenstr.","postalCode":"34212","locality":"Melsungen","municipality":{"key":"06634014","name":"Melsungen, Stadt","type":"Stadt"},"district":{"key":"06634","name":"Schwalm-Eder-Kreis","type":"Landkreis"},"federalState":{"key":"06","name":"Hessen"}},{"name":"Talblick","postalCode":"34212","locality":"Melsungen","municipality":{"key":"06634014","name":"Melsungen, Stadt","type":"Stadt"},"district":{"key":"06634","name":"Schwalm-Eder-Kreis","type":"Landkreis"},"federalState":{"key":"06","name":"Hessen"}},{"name":"Tannenwäldchen","postalCode":"34212","locality":"Melsungen","municipality":{"key":"06634014","name":"Melsungen, Stadt","type":"Stadt"},"district":{"key":"06634","name":"Schwalm-Eder-Kreis","type":"Landkreis"},"federalState":{"key":"06","name":"Hessen"}},{"name":"Taunusweg","postalCode":"34212","locality":"Melsungen","municipality":{"key":"06634014","name":"Melsungen, Stadt","type":"Stadt"},"district":{"key":"06634","name":"Schwalm-Eder-Kreis","type":"Landkreis"},"federalState":{"key":"06","name":"Hessen"}},{"name":"Teichwiesenstr.","postalCode":"34212","locality":"Melsungen","municipality":{"key":"06634014","name":"Melsungen, Stadt","type":"Stadt"},"district":{"key":"06634","name":"Schwalm-Eder-Kreis","type":"Landkreis"},"federalState":{"key":"06","name":"Hessen"}},{"name":"Terrassenweg","postalCode":"34212","locality":"Melsungen","municipality":{"key":"06634014","name":"Melsungen, Stadt","type":"Stadt"},"district":{"key":"06634","name":"Schwalm-Eder-Kreis","type":"Landkreis"},"federalState":{"key":"06","name":"Hessen"}},{"name":"Thüringer Str.","postalCode":"34212","locality":"Melsungen","municipality":{"key":"06634014","name":"Melsungen, Stadt","type":"Stadt"},"district":{"key":"06634","name":"Schwalm-Eder-Kreis","type":"Landkreis"},"federalState":{"key":"06","name":"Hessen"}},{"name":"Tilsiter Str.","postalCode":"34212","locality":"Melsungen","municipality":{"key":"06634014","name":"Melsungen, Stadt","type":"Stadt"},"district":{"key":"06634","name":"Schwalm-Eder-Kreis","type":"Landkreis"},"federalState":{"key":"06","name":"Hessen"}},{"name":"Todiallee","postalCode":"34212","locality":"Melsungen","municipality":{"key":"06634014","name":"Melsungen, Stadt","type":"Stadt"},"district":{"key":"06634","name":"Schwalm-Eder-Kreis","type":"Landkreis"},"federalState":{"key":"06","name":"Hessen"}},{"name":"Tongrube","postalCode":"34212","locality":"Melsungen","municipality":{"key":"06634014","name":"Melsungen, Stadt","type":"Stadt"},"district":{"key":"06634","name":"Schwalm-Eder-Kreis","type":"Landkreis"},"federalState":{"key":"06","name":"Hessen"}},{"name":"Toracker","postalCode":"34212","locality":"Melsungen","municipality":{"key":"06634014","name":"Melsungen, Stadt","type":"Stadt"},"district":{"key":"06634","name":"Schwalm-Eder-Kreis","type":"Landkreis"},"federalState":{"key":"06","name":"Hessen"}},{"name":"Tränkelücke","postalCode":"34212","locality":"Melsungen","municipality":{"key":"06634014","name":"Melsungen, Stadt","type":"Stadt"},"district":{"key":"06634","name":"Schwalm-Eder-Kreis","type":"Landkreis"},"federalState":{"key":"06","name":"Hessen"}},{"name":"Ulmenweg","postalCode":"34212","locality":"Melsungen","municipality":{"key":"06634014","name":"Melsungen, Stadt","type":"Stadt"},"district":{"key":"06634","name":"Schwalm-Eder-Kreis","type":"Landkreis"},"federalState":{"key":"06","name":"Hessen"}},{"name":"Unter dem Schöneberg","postalCode":"34212","locality":"Melsungen","municipality":{"key":"06634014","name":"Melsungen, Stadt","type":"Stadt"},"district":{"key":"06634","name":"Schwalm-Eder-Kreis","type":"Landkreis"},"federalState":{"key":"06","name":"Hessen"}},{"name":"Unter dem Sonnenhang","postalCode":"34212","locality":"Melsungen","municipality":{"key":"06634014","name":"Melsungen, Stadt","type":"Stadt"},"district":{"key":"06634","name":"Schwalm-Eder-Kreis","type":"Landkreis"},"federalState":{"key":"06","name":"Hessen"}},{"name":"Unter den Linden","postalCode":"34212","locality":"Melsungen","municipality":{"key":"06634014","name":"Melsungen, Stadt","type":"Stadt"},"district":{"key":"06634","name":"Schwalm-Eder-Kreis","type":"Landkreis"},"federalState":{"key":"06","name":"Hessen"}},{"name":"Unterdorf","postalCode":"34212","locality":"Melsungen","municipality":{"key":"06634014","name":"Melsungen, Stadt","type":"Stadt"},"district":{"key":"06634","name":"Schwalm-Eder-Kreis","type":"Landkreis"},"federalState":{"key":"06","name":"Hessen"}},{"name":"Untere Mauergasse","postalCode":"34212","locality":"Melsungen","municipality":{"key":"06634014","name":"Melsungen, Stadt","type":"Stadt"},"district":{"key":"06634","name":"Schwalm-Eder-Kreis","type":"Landkreis"},"federalState":{"key":"06","name":"Hessen"}},{"name":"Unterer Kolberg","postalCode":"34212","locality":"Melsungen","municipality":{"key":"06634014","name":"Melsungen, Stadt","type":"Stadt"},"district":{"key":"06634","name":"Schwalm-Eder-Kreis","type":"Landkreis"},"federalState":{"key":"06","name":"Hessen"}},{"name":"Unterer Toracker","postalCode":"34212","locality":"Melsungen","municipality":{"key":"06634014","name":"Melsungen, Stadt","type":"Stadt"},"district":{"key":"06634","name":"Schwalm-Eder-Kreis","type":"Landkreis"},"federalState":{"key":"06","name":"Hessen"}},{"name":"Unterer Weinberg","postalCode":"34212","locality":"Melsungen","municipality":{"key":"06634014","name":"Melsungen, Stadt","type":"Stadt"},"district":{"key":"06634","name":"Schwalm-Eder-Kreis","type":"Landkreis"},"federalState":{"key":"06","name":"Hessen"}},{"name":"Unteres Bachfeld","postalCode":"34212","locality":"Melsungen","municipality":{"key":"06634014","name":"Melsungen, Stadt","type":"Stadt"},"district":{"key":"06634","name":"Schwalm-Eder-Kreis","type":"Landkreis"},"federalState":{"key":"06","name":"Hessen"}},{"name":"Untere Steingasse","postalCode":"34212","locality":"Melsungen","municipality":{"key":"06634014","name":"Melsungen, Stadt","type":"Stadt"},"district":{"key":"06634","name":"Schwalm-Eder-Kreis","type":"Landkreis"},"federalState":{"key":"06","name":"Hessen"}},{"name":"Uplandweg","postalCode":"34212","locality":"Melsungen","municipality":{"key":"06634014","name":"Melsungen, Stadt","type":"Stadt"},"district":{"key":"06634","name":"Schwalm-Eder-Kreis","type":"Landkreis"},"federalState":{"key":"06","name":"Hessen"}},{"name":"Viehtrift","postalCode":"34212","locality":"Melsungen","municipality":{"key":"06634014","name":"Melsungen, Stadt","type":"Stadt"},"district":{"key":"06634","name":"Schwalm-Eder-Kreis","type":"Landkreis"},"federalState":{"key":"06","name":"Hessen"}},{"name":"Vierbuchenstr.","postalCode":"34212","locality":"Melsungen","municipality":{"key":"06634014","name":"Melsungen, Stadt","type":"Stadt"},"district":{"key":"06634","name":"Schwalm-Eder-Kreis","type":"Landkreis"},"federalState":{"key":"06","name":"Hessen"}},{"name":"Vorderes Eisfeld","postalCode":"34212","locality":"Melsungen","municipality":{"key":"06634014","name":"Melsungen, Stadt","type":"Stadt"},"district":{"key":"06634","name":"Schwalm-Eder-Kreis","type":"Landkreis"},"federalState":{"key":"06","name":"Hessen"}},{"name":"Vor der Harth","postalCode":"34212","locality":"Melsungen","municipality":{"key":"06634014","name":"Melsungen, Stadt","type":"Stadt"},"district":{"key":"06634","name":"Schwalm-Eder-Kreis","type":"Landkreis"},"federalState":{"key":"06","name":"Hessen"}},{"name":"Vor der Hege","postalCode":"34212","locality":"Melsungen","municipality":{"key":"06634014","name":"Melsungen, Stadt","type":"Stadt"},"district":{"key":"06634","name":"Schwalm-Eder-Kreis","type":"Landkreis"},"federalState":{"key":"06","name":"Hessen"}},{"name":"Vorstadt","postalCode":"34212","locality":"Melsungen","municipality":{"key":"06634014","name":"Melsungen, Stadt","type":"Stadt"},"district":{"key":"06634","name":"Schwalm-Eder-Kreis","type":"Landkreis"},"federalState":{"key":"06","name":"Hessen"}},{"name":"Waldstr.","postalCode":"34212","locality":"Melsungen","municipality":{"key":"06634014","name":"Melsungen, Stadt","type":"Stadt"},"district":{"key":"06634","name":"Schwalm-Eder-Kreis","type":"Landkreis"},"federalState":{"key":"06","name":"Hessen"}},{"name":"Walkemühle","postalCode":"34212","locality":"Melsungen","municipality":{"key":"06634014","name":"Melsungen, Stadt","type":"Stadt"},"district":{"key":"06634","name":"Schwalm-Eder-Kreis","type":"Landkreis"},"federalState":{"key":"06","name":"Hessen"}},{"name":"Weg an der Bahn","postalCode":"34212","locality":"Melsungen","municipality":{"key":"06634014","name":"Melsungen, Stadt","type":"Stadt"},"district":{"key":"06634","name":"Schwalm-Eder-Kreis","type":"Landkreis"},"federalState":{"key":"06","name":"Hessen"}},{"name":"Weidengraben","postalCode":"34212","locality":"Melsungen","municipality":{"key":"06634014","name":"Melsungen, Stadt","type":"Stadt"},"district":{"key":"06634","name":"Schwalm-Eder-Kreis","type":"Landkreis"},"federalState":{"key":"06","name":"Hessen"}},{"name":"Weimarer Str.","postalCode":"34212","locality":"Melsungen","municipality":{"key":"06634014","name":"Melsungen, Stadt","type":"Stadt"},"district":{"key":"06634","name":"Schwalm-Eder-Kreis","type":"Landkreis"},"federalState":{"key":"06","name":"Hessen"}},{"name":"Weserstr.","postalCode":"34212","locality":"Melsungen","municipality":{"key":"06634014","name":"Melsungen, Stadt","type":"Stadt"},"district":{"key":"06634","name":"Schwalm-Eder-Kreis","type":"Landkreis"},"federalState":{"key":"06","name":"Hessen"}},{"name":"Wiesengrund","postalCode":"34212","locality":"Melsungen","municipality":{"key":"06634014","name":"Melsungen, Stadt","type":"Stadt"},"district":{"key":"06634","name":"Schwalm-Eder-Kreis","type":"Landkreis"},"federalState":{"key":"06","name":"Hessen"}},{"name":"Wiesenweg","postalCode":"34212","locality":"Melsungen","municipality":{"key":"06634014","name":"Melsungen, Stadt","type":"Stadt"},"district":{"key":"06634","name":"Schwalm-Eder-Kreis","type":"Landkreis"},"federalState":{"key":"06","name":"Hessen"}},{"name":"Wildsbergstr.","postalCode":"34212","locality":"Melsungen","municipality":{"key":"06634014","name":"Melsungen, Stadt","type":"Stadt"},"district":{"key":"06634","name":"Schwalm-Eder-Kreis","type":"Landkreis"},"federalState":{"key":"06","name":"Hessen"}},{"name":"Zaunweg","postalCode":"34212","locality":"Melsungen","municipality":{"key":"06634014","name":"Melsungen, Stadt","type":"Stadt"},"district":{"key":"06634","name":"Schwalm-Eder-Kreis","type":"Landkreis"},"federalState":{"key":"06","name":"Hessen"}},{"name":"Zetterberg","postalCode":"34212","locality":"Melsungen","municipality":{"key":"06634014","name":"Melsungen, Stadt","type":"Stadt"},"district":{"key":"06634","name":"Schwalm-Eder-Kreis","type":"Landkreis"},"federalState":{"key":"06","name":"Hessen"}},{"name":"Zu den Schmiedewiesen","postalCode":"34212","locality":"Melsungen","municipality":{"key":"06634014","name":"Melsungen, Stadt","type":"Stadt"},"district":{"key":"06634","name":"Schwalm-Eder-Kreis","type":"Landkreis"},"federalState":{"key":"06","name":"Hessen"}},{"name":"Zum Berg","postalCode":"34212","locality":"Melsungen","municipality":{"key":"06634014","name":"Melsungen, Stadt","type":"Stadt"},"district":{"key":"06634","name":"Schwalm-Eder-Kreis","type":"Landkreis"},"federalState":{"key":"06","name":"Hessen"}},{"name":"Zum Breitenbach","postalCode":"34212","locality":"Melsungen","municipality":{"key":"06634014","name":"Melsungen, Stadt","type":"Stadt"},"district":{"key":"06634","name":"Schwalm-Eder-Kreis","type":"Landkreis"},"federalState":{"key":"06","name":"Hessen"}},{"name":"Zum Hebach","postalCode":"34212","locality":"Melsungen","municipality":{"key":"06634014","name":"Melsungen, Stadt","type":"Stadt"},"district":{"key":"06634","name":"Schwalm-Eder-Kreis","type":"Landkreis"},"federalState":{"key":"06","name":"Hessen"}},{"name":"Zum Heckeberg","postalCode":"34212","locality":"Melsungen","municipality":{"key":"06634014","name":"Melsungen, Stadt","type":"Stadt"},"district":{"key":"06634","name":"Schwalm-Eder-Kreis","type":"Landkreis"},"federalState":{"key":"06","name":"Hessen"}},{"name":"Zum Metzewinkel","postalCode":"34212","locality":"Melsungen","municipality":{"key":"06634014","name":"Melsungen, Stadt","type":"Stadt"},"district":{"key":"06634","name":"Schwalm-Eder-Kreis","type":"Landkreis"},"federalState":{"key":"06","name":"Hessen"}},{"name":"Zum Pfieffrain","postalCode":"34212","locality":"Melsungen","municipality":{"key":"06634014","name":"Melsungen, Stadt","type":"Stadt"},"district":{"key":"06634","name":"Schwalm-Eder-Kreis","type":"Landkreis"},"federalState":{"key":"06","name":"Hessen"}},{"name":"Zum Roten Rain","postalCode":"34212","locality":"Melsungen","municipality":{"key":"06634014","name":"Melsungen, Stadt","type":"Stadt"},"district":{"key":"06634","name":"Schwalm-Eder-Kreis","type":"Landkreis"},"federalState":{"key":"06","name":"Hessen"}},{"name":"Zum Sandgraben","postalCode":"34212","locality":"Melsungen","municipality":{"key":"06634014","name":"Melsungen, Stadt","type":"Stadt"},"district":{"key":"06634","name":"Schwalm-Eder-Kreis","type":"Landkreis"},"federalState":{"key":"06","name":"Hessen"}},{"name":"Zum Wengesberge","postalCode":"34212","locality":"Melsungen","municipality":{"key":"06634014","name":"Melsungen, Stadt","type":"Stadt"},"district":{"key":"06634","name":"Schwalm-Eder-Kreis","type":"Landkreis"},"federalState":{"key":"06","name":"Hessen"}},{"name":"Zum Zwickel","postalCode":"34212","locality":"Melsungen","municipality":{"key":"06634014","name":"Melsungen, Stadt","type":"Stadt"},"district":{"key":"06634","name":"Schwalm-Eder-Kreis","type":"Landkreis"},"federalState":{"key":"06","name":"Hessen"}},{"name":"Zur Bleiche","postalCode":"34212","locality":"Melsungen","municipality":{"key":"06634014","name":"Melsungen, Stadt","type":"Stadt"},"district":{"key":"06634","name":"Schwalm-Eder-Kreis","type":"Landkreis"},"federalState":{"key":"06","name":"Hessen"}},{"name":"Zur Hute","postalCode":"34212","locality":"Melsungen","municipality":{"key":"06634014","name":"Melsungen, Stadt","type":"Stadt"},"district":{"key":"06634","name":"Schwalm-Eder-Kreis","type":"Landkreis"},"federalState":{"key":"06","name":"Hessen"}},{"name":"Zur Kroneneiche","postalCode":"34212","locality":"Melsungen","municipality":{"key":"06634014","name":"Melsungen, Stadt","type":"Stadt"},"district":{"key":"06634","name":"Schwalm-Eder-Kreis","type":"Landkreis"},"federalState":{"key":"06","name":"Hessen"}},{"name":"Zur Pforte","postalCode":"34212","locality":"Melsungen","municipality":{"key":"06634014","name":"Melsungen, Stadt","type":"Stadt"},"district":{"key":"06634","name":"Schwalm-Eder-Kreis","type":"Landkreis"},"federalState":{"key":"06","name":"Hessen"}},{"name":"Zur Schanze","postalCode":"34212","locality":"Melsungen","municipality":{"key":"06634014","name":"Melsungen, Stadt","type":"Stadt"},"district":{"key":"06634","name":"Schwalm-Eder-Kreis","type":"Landkreis"},"federalState":{"key":"06","name":"Hessen"}},{"name":"Zur Schlade","postalCode":"34212","locality":"Melsungen","municipality":{"key":"06634014","name":"Melsungen, Stadt","type":"Stadt"},"district":{"key":"06634","name":"Schwalm-Eder-Kreis","type":"Landkreis"},"federalState":{"key":"06","name":"Hessen"}},{"name":"Zur Taubenecke","postalCode":"34212","locality":"Melsungen","municipality":{"key":"06634014","name":"Melsungen, Stadt","type":"Stadt"},"district":{"key":"06634","name":"Schwalm-Eder-Kreis","type":"Landkreis"},"federalState":{"key":"06","name":"Hessen"}},{"name":"Über den Gärten","postalCode":"34212","locality":"Melsungen","municipality":{"key":"06634014","name":"Melsungen, Stadt","type":"Stadt"},"district":{"key":"06634","name":"Schwalm-Eder-Kreis","type":"Landkreis"},"federalState":{"key":"06","name":"Hessen"}},]