[{"name":"Abteiweg","postalCode":"38350","locality":"Helmstedt","municipality":{"key":"03154028","name":"Helmstedt, Stadt","type":"Stadt"},"district":{"key":"03154","name":"Helmstedt","type":"Landkreis"},"federalState":{"key":"03","name":"Niedersachsen"}},{"name":"Albert-Einstein-Weg","postalCode":"38350","locality":"Helmstedt","municipality":{"key":"03154028","name":"Helmstedt, Stadt","type":"Stadt"},"district":{"key":"03154","name":"Helmstedt","type":"Landkreis"},"federalState":{"key":"03","name":"Niedersachsen"}},{"name":"Albert-Schweitzer-Weg","postalCode":"38350","locality":"Helmstedt","municipality":{"key":"03154028","name":"Helmstedt, Stadt","type":"Stadt"},"district":{"key":"03154","name":"Helmstedt","type":"Landkreis"},"federalState":{"key":"03","name":"Niedersachsen"}},{"name":"Albrechtstr.","postalCode":"38350","locality":"Helmstedt","municipality":{"key":"03154028","name":"Helmstedt, Stadt","type":"Stadt"},"district":{"key":"03154","name":"Helmstedt","type":"Landkreis"},"federalState":{"key":"03","name":"Niedersachsen"}},{"name":"Alersstr.","postalCode":"38350","locality":"Helmstedt","municipality":{"key":"03154028","name":"Helmstedt, Stadt","type":"Stadt"},"district":{"key":"03154","name":"Helmstedt","type":"Landkreis"},"federalState":{"key":"03","name":"Niedersachsen"}},{"name":"Allenackerfeld","postalCode":"38372","locality":"Helmstedt","municipality":{"key":"03154028","name":"Helmstedt, Stadt","type":"Stadt"},"district":{"key":"03154","name":"Helmstedt","type":"Landkreis"},"federalState":{"key":"03","name":"Niedersachsen"}},{"name":"Allerweg","postalCode":"38350","locality":"Helmstedt","municipality":{"key":"03154028","name":"Helmstedt, Stadt","type":"Stadt"},"district":{"key":"03154","name":"Helmstedt","type":"Landkreis"},"federalState":{"key":"03","name":"Niedersachsen"}},{"name":"Alte Dorfstr.","postalCode":"38372","locality":"Helmstedt","municipality":{"key":"03154028","name":"Helmstedt, Stadt","type":"Stadt"},"district":{"key":"03154","name":"Helmstedt","type":"Landkreis"},"federalState":{"key":"03","name":"Niedersachsen"}},{"name":"Alter Friedhof","postalCode":"38350","locality":"Helmstedt","municipality":{"key":"03154028","name":"Helmstedt, Stadt","type":"Stadt"},"district":{"key":"03154","name":"Helmstedt","type":"Landkreis"},"federalState":{"key":"03","name":"Niedersachsen"}},{"name":"Alte Rottorfer Str.","postalCode":"38350","locality":"Helmstedt","municipality":{"key":"03154028","name":"Helmstedt, Stadt","type":"Stadt"},"district":{"key":"03154","name":"Helmstedt","type":"Landkreis"},"federalState":{"key":"03","name":"Niedersachsen"}},{"name":"Alter Schwanefelder Weg","postalCode":"38350","locality":"Helmstedt","municipality":{"key":"03154028","name":"Helmstedt, Stadt","type":"Stadt"},"district":{"key":"03154","name":"Helmstedt","type":"Landkreis"},"federalState":{"key":"03","name":"Niedersachsen"}},{"name":"Alte Siedlung","postalCode":"38350","locality":"Helmstedt","municipality":{"key":"03154028","name":"Helmstedt, Stadt","type":"Stadt"},"district":{"key":"03154","name":"Helmstedt","type":"Landkreis"},"federalState":{"key":"03","name":"Niedersachsen"}},{"name":"Alversdorfer Str.","postalCode":"38372","locality":"Helmstedt","municipality":{"key":"03154028","name":"Helmstedt, Stadt","type":"Stadt"},"district":{"key":"03154","name":"Helmstedt","type":"Landkreis"},"federalState":{"key":"03","name":"Niedersachsen"}},{"name":"Am Bötschenberg","postalCode":"38350","locality":"Helmstedt","municipality":{"key":"03154028","name":"Helmstedt, Stadt","type":"Stadt"},"district":{"key":"03154","name":"Helmstedt","type":"Landkreis"},"federalState":{"key":"03","name":"Niedersachsen"}},{"name":"Am Buchenhang","postalCode":"38350","locality":"Helmstedt","municipality":{"key":"03154028","name":"Helmstedt, Stadt","type":"Stadt"},"district":{"key":"03154","name":"Helmstedt","type":"Landkreis"},"federalState":{"key":"03","name":"Niedersachsen"}},{"name":"Am Burgberge","postalCode":"38350","locality":"Helmstedt","municipality":{"key":"03154028","name":"Helmstedt, Stadt","type":"Stadt"},"district":{"key":"03154","name":"Helmstedt","type":"Landkreis"},"federalState":{"key":"03","name":"Niedersachsen"}},{"name":"Am Finkenherd","postalCode":"38350","locality":"Helmstedt","municipality":{"key":"03154028","name":"Helmstedt, Stadt","type":"Stadt"},"district":{"key":"03154","name":"Helmstedt","type":"Landkreis"},"federalState":{"key":"03","name":"Niedersachsen"}},{"name":"Am Friedhof","postalCode":"38350","locality":"Helmstedt","municipality":{"key":"03154028","name":"Helmstedt, Stadt","type":"Stadt"},"district":{"key":"03154","name":"Helmstedt","type":"Landkreis"},"federalState":{"key":"03","name":"Niedersachsen"}},{"name":"Am Heuerskamp","postalCode":"38350","locality":"Helmstedt","municipality":{"key":"03154028","name":"Helmstedt, Stadt","type":"Stadt"},"district":{"key":"03154","name":"Helmstedt","type":"Landkreis"},"federalState":{"key":"03","name":"Niedersachsen"}},{"name":"Am Lehberge","postalCode":"38350","locality":"Helmstedt","municipality":{"key":"03154028","name":"Helmstedt, Stadt","type":"Stadt"},"district":{"key":"03154","name":"Helmstedt","type":"Landkreis"},"federalState":{"key":"03","name":"Niedersachsen"}},{"name":"Am Ludgerihof","postalCode":"38350","locality":"Helmstedt","municipality":{"key":"03154028","name":"Helmstedt, Stadt","type":"Stadt"},"district":{"key":"03154","name":"Helmstedt","type":"Landkreis"},"federalState":{"key":"03","name":"Niedersachsen"}},{"name":"Am Rathaus","postalCode":"38372","locality":"Helmstedt","municipality":{"key":"03154028","name":"Helmstedt, Stadt","type":"Stadt"},"district":{"key":"03154","name":"Helmstedt","type":"Landkreis"},"federalState":{"key":"03","name":"Niedersachsen"}},{"name":"Am Ring","postalCode":"38372","locality":"Helmstedt","municipality":{"key":"03154028","name":"Helmstedt, Stadt","type":"Stadt"},"district":{"key":"03154","name":"Helmstedt","type":"Landkreis"},"federalState":{"key":"03","name":"Niedersachsen"}},{"name":"Am Sandmorgen","postalCode":"38350","locality":"Helmstedt","municipality":{"key":"03154028","name":"Helmstedt, Stadt","type":"Stadt"},"district":{"key":"03154","name":"Helmstedt","type":"Landkreis"},"federalState":{"key":"03","name":"Niedersachsen"}},{"name":"Am Schützenplatz","postalCode":"38350","locality":"Helmstedt","municipality":{"key":"03154028","name":"Helmstedt, Stadt","type":"Stadt"},"district":{"key":"03154","name":"Helmstedt","type":"Landkreis"},"federalState":{"key":"03","name":"Niedersachsen"}},{"name":"Am Schwarzen Berg","postalCode":"38350","locality":"Helmstedt","municipality":{"key":"03154028","name":"Helmstedt, Stadt","type":"Stadt"},"district":{"key":"03154","name":"Helmstedt","type":"Landkreis"},"federalState":{"key":"03","name":"Niedersachsen"}},{"name":"Amselweg","postalCode":"38350","locality":"Helmstedt","municipality":{"key":"03154028","name":"Helmstedt, Stadt","type":"Stadt"},"district":{"key":"03154","name":"Helmstedt","type":"Landkreis"},"federalState":{"key":"03","name":"Niedersachsen"}},{"name":"Amselweg","postalCode":"38372","locality":"Helmstedt","municipality":{"key":"03154028","name":"Helmstedt, Stadt","type":"Stadt"},"district":{"key":"03154","name":"Helmstedt","type":"Landkreis"},"federalState":{"key":"03","name":"Niedersachsen"}},{"name":"Am Sportplatz","postalCode":"38372","locality":"Helmstedt","municipality":{"key":"03154028","name":"Helmstedt, Stadt","type":"Stadt"},"district":{"key":"03154","name":"Helmstedt","type":"Landkreis"},"federalState":{"key":"03","name":"Niedersachsen"}},{"name":"Am Steinmühlenkamp","postalCode":"38350","locality":"Helmstedt","municipality":{"key":"03154028","name":"Helmstedt, Stadt","type":"Stadt"},"district":{"key":"03154","name":"Helmstedt","type":"Landkreis"},"federalState":{"key":"03","name":"Niedersachsen"}},{"name":"Am Tagebau","postalCode":"38372","locality":"Helmstedt","municipality":{"key":"03154028","name":"Helmstedt, Stadt","type":"Stadt"},"district":{"key":"03154","name":"Helmstedt","type":"Landkreis"},"federalState":{"key":"03","name":"Niedersachsen"}},{"name":"Am Thymiansberge","postalCode":"38350","locality":"Helmstedt","municipality":{"key":"03154028","name":"Helmstedt, Stadt","type":"Stadt"},"district":{"key":"03154","name":"Helmstedt","type":"Landkreis"},"federalState":{"key":"03","name":"Niedersachsen"}},{"name":"Amtsgasse","postalCode":"38350","locality":"Helmstedt","municipality":{"key":"03154028","name":"Helmstedt, Stadt","type":"Stadt"},"district":{"key":"03154","name":"Helmstedt","type":"Landkreis"},"federalState":{"key":"03","name":"Niedersachsen"}},{"name":"Am Wallgraben","postalCode":"38350","locality":"Helmstedt","municipality":{"key":"03154028","name":"Helmstedt, Stadt","type":"Stadt"},"district":{"key":"03154","name":"Helmstedt","type":"Landkreis"},"federalState":{"key":"03","name":"Niedersachsen"}},{"name":"Am Warneckenberg","postalCode":"38350","locality":"Helmstedt","municipality":{"key":"03154028","name":"Helmstedt, Stadt","type":"Stadt"},"district":{"key":"03154","name":"Helmstedt","type":"Landkreis"},"federalState":{"key":"03","name":"Niedersachsen"}},{"name":"An den Lübbensteinen","postalCode":"38350","locality":"Helmstedt","municipality":{"key":"03154028","name":"Helmstedt, Stadt","type":"Stadt"},"district":{"key":"03154","name":"Helmstedt","type":"Landkreis"},"federalState":{"key":"03","name":"Niedersachsen"}},{"name":"An der Bleiche","postalCode":"38350","locality":"Helmstedt","municipality":{"key":"03154028","name":"Helmstedt, Stadt","type":"Stadt"},"district":{"key":"03154","name":"Helmstedt","type":"Landkreis"},"federalState":{"key":"03","name":"Niedersachsen"}},{"name":"An der Blume","postalCode":"38350","locality":"Helmstedt","municipality":{"key":"03154028","name":"Helmstedt, Stadt","type":"Stadt"},"district":{"key":"03154","name":"Helmstedt","type":"Landkreis"},"federalState":{"key":"03","name":"Niedersachsen"}},{"name":"An der Gartenfreiheit","postalCode":"38350","locality":"Helmstedt","municipality":{"key":"03154028","name":"Helmstedt, Stadt","type":"Stadt"},"district":{"key":"03154","name":"Helmstedt","type":"Landkreis"},"federalState":{"key":"03","name":"Niedersachsen"}},{"name":"An der Mühle","postalCode":"38372","locality":"Helmstedt","municipality":{"key":"03154028","name":"Helmstedt, Stadt","type":"Stadt"},"district":{"key":"03154","name":"Helmstedt","type":"Landkreis"},"federalState":{"key":"03","name":"Niedersachsen"}},{"name":"Annabergstr.","postalCode":"38350","locality":"Helmstedt","municipality":{"key":"03154028","name":"Helmstedt, Stadt","type":"Stadt"},"district":{"key":"03154","name":"Helmstedt","type":"Landkreis"},"federalState":{"key":"03","name":"Niedersachsen"}},{"name":"Auf dem Plane","postalCode":"38350","locality":"Helmstedt","municipality":{"key":"03154028","name":"Helmstedt, Stadt","type":"Stadt"},"district":{"key":"03154","name":"Helmstedt","type":"Landkreis"},"federalState":{"key":"03","name":"Niedersachsen"}},{"name":"Auf der Höhe","postalCode":"38350","locality":"Helmstedt","municipality":{"key":"03154028","name":"Helmstedt, Stadt","type":"Stadt"},"district":{"key":"03154","name":"Helmstedt","type":"Landkreis"},"federalState":{"key":"03","name":"Niedersachsen"}},{"name":"Bäckerweg","postalCode":"38350","locality":"Helmstedt","municipality":{"key":"03154028","name":"Helmstedt, Stadt","type":"Stadt"},"district":{"key":"03154","name":"Helmstedt","type":"Landkreis"},"federalState":{"key":"03","name":"Niedersachsen"}},{"name":"Badergasse","postalCode":"38350","locality":"Helmstedt","municipality":{"key":"03154028","name":"Helmstedt, Stadt","type":"Stadt"},"district":{"key":"03154","name":"Helmstedt","type":"Landkreis"},"federalState":{"key":"03","name":"Niedersachsen"}},{"name":"Bahnhofstr.","postalCode":"38350","locality":"Helmstedt","municipality":{"key":"03154028","name":"Helmstedt, Stadt","type":"Stadt"},"district":{"key":"03154","name":"Helmstedt","type":"Landkreis"},"federalState":{"key":"03","name":"Niedersachsen"}},{"name":"Bahnhofstr.","postalCode":"38372","locality":"Helmstedt","municipality":{"key":"03154028","name":"Helmstedt, Stadt","type":"Stadt"},"district":{"key":"03154","name":"Helmstedt","type":"Landkreis"},"federalState":{"key":"03","name":"Niedersachsen"}},{"name":"Bardenbike","postalCode":"38350","locality":"Helmstedt","municipality":{"key":"03154028","name":"Helmstedt, Stadt","type":"Stadt"},"district":{"key":"03154","name":"Helmstedt","type":"Landkreis"},"federalState":{"key":"03","name":"Niedersachsen"}},{"name":"Barmker Str.","postalCode":"38350","locality":"Helmstedt","municipality":{"key":"03154028","name":"Helmstedt, Stadt","type":"Stadt"},"district":{"key":"03154","name":"Helmstedt","type":"Landkreis"},"federalState":{"key":"03","name":"Niedersachsen"}},{"name":"Barneberger Str.","postalCode":"38372","locality":"Helmstedt","municipality":{"key":"03154028","name":"Helmstedt, Stadt","type":"Stadt"},"district":{"key":"03154","name":"Helmstedt","type":"Landkreis"},"federalState":{"key":"03","name":"Niedersachsen"}},{"name":"Bauernbreite","postalCode":"38350","locality":"Helmstedt","municipality":{"key":"03154028","name":"Helmstedt, Stadt","type":"Stadt"},"district":{"key":"03154","name":"Helmstedt","type":"Landkreis"},"federalState":{"key":"03","name":"Niedersachsen"}},{"name":"Bauerstr.","postalCode":"38350","locality":"Helmstedt","municipality":{"key":"03154028","name":"Helmstedt, Stadt","type":"Stadt"},"district":{"key":"03154","name":"Helmstedt","type":"Landkreis"},"federalState":{"key":"03","name":"Niedersachsen"}},{"name":"Beek","postalCode":"38350","locality":"Helmstedt","municipality":{"key":"03154028","name":"Helmstedt, Stadt","type":"Stadt"},"district":{"key":"03154","name":"Helmstedt","type":"Landkreis"},"federalState":{"key":"03","name":"Niedersachsen"}},{"name":"Beendorfer Str.","postalCode":"38350","locality":"Helmstedt","municipality":{"key":"03154028","name":"Helmstedt, Stadt","type":"Stadt"},"district":{"key":"03154","name":"Helmstedt","type":"Landkreis"},"federalState":{"key":"03","name":"Niedersachsen"}},{"name":"Beethovenstr.","postalCode":"38350","locality":"Helmstedt","municipality":{"key":"03154028","name":"Helmstedt, Stadt","type":"Stadt"},"district":{"key":"03154","name":"Helmstedt","type":"Landkreis"},"federalState":{"key":"03","name":"Niedersachsen"}},{"name":"Beguinenstr.","postalCode":"38350","locality":"Helmstedt","municipality":{"key":"03154028","name":"Helmstedt, Stadt","type":"Stadt"},"district":{"key":"03154","name":"Helmstedt","type":"Landkreis"},"federalState":{"key":"03","name":"Niedersachsen"}},{"name":"Beireisstr.","postalCode":"38350","locality":"Helmstedt","municipality":{"key":"03154028","name":"Helmstedt, Stadt","type":"Stadt"},"district":{"key":"03154","name":"Helmstedt","type":"Landkreis"},"federalState":{"key":"03","name":"Niedersachsen"}},{"name":"Bekassinenweg","postalCode":"38350","locality":"Helmstedt","municipality":{"key":"03154028","name":"Helmstedt, Stadt","type":"Stadt"},"district":{"key":"03154","name":"Helmstedt","type":"Landkreis"},"federalState":{"key":"03","name":"Niedersachsen"}},{"name":"Bergstr.","postalCode":"38350","locality":"Helmstedt","municipality":{"key":"03154028","name":"Helmstedt, Stadt","type":"Stadt"},"district":{"key":"03154","name":"Helmstedt","type":"Landkreis"},"federalState":{"key":"03","name":"Niedersachsen"}},{"name":"Bergstr.","postalCode":"38372","locality":"Helmstedt","municipality":{"key":"03154028","name":"Helmstedt, Stadt","type":"Stadt"},"district":{"key":"03154","name":"Helmstedt","type":"Landkreis"},"federalState":{"key":"03","name":"Niedersachsen"}},{"name":"Bergweg","postalCode":"38350","locality":"Helmstedt","municipality":{"key":"03154028","name":"Helmstedt, Stadt","type":"Stadt"},"district":{"key":"03154","name":"Helmstedt","type":"Landkreis"},"federalState":{"key":"03","name":"Niedersachsen"}},{"name":"Berliner Platz","postalCode":"38350","locality":"Helmstedt","municipality":{"key":"03154028","name":"Helmstedt, Stadt","type":"Stadt"},"district":{"key":"03154","name":"Helmstedt","type":"Landkreis"},"federalState":{"key":"03","name":"Niedersachsen"}},{"name":"Berliner Platz","postalCode":"38372","locality":"Helmstedt","municipality":{"key":"03154028","name":"Helmstedt, Stadt","type":"Stadt"},"district":{"key":"03154","name":"Helmstedt","type":"Landkreis"},"federalState":{"key":"03","name":"Niedersachsen"}},{"name":"Bindegasse","postalCode":"38350","locality":"Helmstedt","municipality":{"key":"03154028","name":"Helmstedt, Stadt","type":"Stadt"},"district":{"key":"03154","name":"Helmstedt","type":"Landkreis"},"federalState":{"key":"03","name":"Niedersachsen"}},{"name":"Birkenstr.","postalCode":"38372","locality":"Helmstedt","municipality":{"key":"03154028","name":"Helmstedt, Stadt","type":"Stadt"},"district":{"key":"03154","name":"Helmstedt","type":"Landkreis"},"federalState":{"key":"03","name":"Niedersachsen"}},{"name":"Birkenweg","postalCode":"38350","locality":"Helmstedt","municipality":{"key":"03154028","name":"Helmstedt, Stadt","type":"Stadt"},"district":{"key":"03154","name":"Helmstedt","type":"Landkreis"},"federalState":{"key":"03","name":"Niedersachsen"}},{"name":"Bismarckstr.","postalCode":"38350","locality":"Helmstedt","municipality":{"key":"03154028","name":"Helmstedt, Stadt","type":"Stadt"},"district":{"key":"03154","name":"Helmstedt","type":"Landkreis"},"federalState":{"key":"03","name":"Niedersachsen"}},{"name":"Blankenburger Str.","postalCode":"38350","locality":"Helmstedt","municipality":{"key":"03154028","name":"Helmstedt, Stadt","type":"Stadt"},"district":{"key":"03154","name":"Helmstedt","type":"Landkreis"},"federalState":{"key":"03","name":"Niedersachsen"}},{"name":"Bötticherstr.","postalCode":"38350","locality":"Helmstedt","municipality":{"key":"03154028","name":"Helmstedt, Stadt","type":"Stadt"},"district":{"key":"03154","name":"Helmstedt","type":"Landkreis"},"federalState":{"key":"03","name":"Niedersachsen"}},{"name":"Brahmsweg","postalCode":"38350","locality":"Helmstedt","municipality":{"key":"03154028","name":"Helmstedt, Stadt","type":"Stadt"},"district":{"key":"03154","name":"Helmstedt","type":"Landkreis"},"federalState":{"key":"03","name":"Niedersachsen"}},{"name":"Brandenburger Str.","postalCode":"38350","locality":"Helmstedt","municipality":{"key":"03154028","name":"Helmstedt, Stadt","type":"Stadt"},"district":{"key":"03154","name":"Helmstedt","type":"Landkreis"},"federalState":{"key":"03","name":"Niedersachsen"}},{"name":"Braunschweiger Str.","postalCode":"38350","locality":"Helmstedt","municipality":{"key":"03154028","name":"Helmstedt, Stadt","type":"Stadt"},"district":{"key":"03154","name":"Helmstedt","type":"Landkreis"},"federalState":{"key":"03","name":"Niedersachsen"}},{"name":"Braunschweiger Tor","postalCode":"38350","locality":"Helmstedt","municipality":{"key":"03154028","name":"Helmstedt, Stadt","type":"Stadt"},"district":{"key":"03154","name":"Helmstedt","type":"Landkreis"},"federalState":{"key":"03","name":"Niedersachsen"}},{"name":"Breslauer Str.","postalCode":"38350","locality":"Helmstedt","municipality":{"key":"03154028","name":"Helmstedt, Stadt","type":"Stadt"},"district":{"key":"03154","name":"Helmstedt","type":"Landkreis"},"federalState":{"key":"03","name":"Niedersachsen"}},{"name":"Breslauer Str.","postalCode":"38372","locality":"Helmstedt","municipality":{"key":"03154028","name":"Helmstedt, Stadt","type":"Stadt"},"district":{"key":"03154","name":"Helmstedt","type":"Landkreis"},"federalState":{"key":"03","name":"Niedersachsen"}},{"name":"Brockenblick","postalCode":"38350","locality":"Helmstedt","municipality":{"key":"03154028","name":"Helmstedt, Stadt","type":"Stadt"},"district":{"key":"03154","name":"Helmstedt","type":"Landkreis"},"federalState":{"key":"03","name":"Niedersachsen"}},{"name":"Bruchweg","postalCode":"38350","locality":"Helmstedt","municipality":{"key":"03154028","name":"Helmstedt, Stadt","type":"Stadt"},"district":{"key":"03154","name":"Helmstedt","type":"Landkreis"},"federalState":{"key":"03","name":"Niedersachsen"}},{"name":"Brunnenweg","postalCode":"38350","locality":"Helmstedt","municipality":{"key":"03154028","name":"Helmstedt, Stadt","type":"Stadt"},"district":{"key":"03154","name":"Helmstedt","type":"Landkreis"},"federalState":{"key":"03","name":"Niedersachsen"}},{"name":"Brunsolstr.","postalCode":"38350","locality":"Helmstedt","municipality":{"key":"03154028","name":"Helmstedt, Stadt","type":"Stadt"},"district":{"key":"03154","name":"Helmstedt","type":"Landkreis"},"federalState":{"key":"03","name":"Niedersachsen"}},{"name":"Büddenstedter Weg","postalCode":"38350","locality":"Helmstedt","municipality":{"key":"03154028","name":"Helmstedt, Stadt","type":"Stadt"},"district":{"key":"03154","name":"Helmstedt","type":"Landkreis"},"federalState":{"key":"03","name":"Niedersachsen"}},{"name":"Bülowstr.","postalCode":"38350","locality":"Helmstedt","municipality":{"key":"03154028","name":"Helmstedt, Stadt","type":"Stadt"},"district":{"key":"03154","name":"Helmstedt","type":"Landkreis"},"federalState":{"key":"03","name":"Niedersachsen"}},{"name":"Bunzlauer Str.","postalCode":"38350","locality":"Helmstedt","municipality":{"key":"03154028","name":"Helmstedt, Stadt","type":"Stadt"},"district":{"key":"03154","name":"Helmstedt","type":"Landkreis"},"federalState":{"key":"03","name":"Niedersachsen"}},{"name":"Buschmühle","postalCode":"38350","locality":"Helmstedt","municipality":{"key":"03154028","name":"Helmstedt, Stadt","type":"Stadt"},"district":{"key":"03154","name":"Helmstedt","type":"Landkreis"},"federalState":{"key":"03","name":"Niedersachsen"}},{"name":"Bussardweg","postalCode":"38350","locality":"Helmstedt","municipality":{"key":"03154028","name":"Helmstedt, Stadt","type":"Stadt"},"district":{"key":"03154","name":"Helmstedt","type":"Landkreis"},"federalState":{"key":"03","name":"Niedersachsen"}},{"name":"Calvörder Str.","postalCode":"38350","locality":"Helmstedt","municipality":{"key":"03154028","name":"Helmstedt, Stadt","type":"Stadt"},"district":{"key":"03154","name":"Helmstedt","type":"Landkreis"},"federalState":{"key":"03","name":"Niedersachsen"}},{"name":"Carlstr.","postalCode":"38350","locality":"Helmstedt","municipality":{"key":"03154028","name":"Helmstedt, Stadt","type":"Stadt"},"district":{"key":"03154","name":"Helmstedt","type":"Landkreis"},"federalState":{"key":"03","name":"Niedersachsen"}},{"name":"Carl-von-Ossietzky-Weg","postalCode":"38350","locality":"Helmstedt","municipality":{"key":"03154028","name":"Helmstedt, Stadt","type":"Stadt"},"district":{"key":"03154","name":"Helmstedt","type":"Landkreis"},"federalState":{"key":"03","name":"Niedersachsen"}},{"name":"Caseliusweg","postalCode":"38350","locality":"Helmstedt","municipality":{"key":"03154028","name":"Helmstedt, Stadt","type":"Stadt"},"district":{"key":"03154","name":"Helmstedt","type":"Landkreis"},"federalState":{"key":"03","name":"Niedersachsen"}},{"name":"Chardstr.","postalCode":"38350","locality":"Helmstedt","municipality":{"key":"03154028","name":"Helmstedt, Stadt","type":"Stadt"},"district":{"key":"03154","name":"Helmstedt","type":"Landkreis"},"federalState":{"key":"03","name":"Niedersachsen"}},{"name":"Charlotte-von-Veltheim-Weg","postalCode":"38350","locality":"Helmstedt","municipality":{"key":"03154028","name":"Helmstedt, Stadt","type":"Stadt"},"district":{"key":"03154","name":"Helmstedt","type":"Landkreis"},"federalState":{"key":"03","name":"Niedersachsen"}},{"name":"Chemnitzer Str.","postalCode":"38350","locality":"Helmstedt","municipality":{"key":"03154028","name":"Helmstedt, Stadt","type":"Stadt"},"district":{"key":"03154","name":"Helmstedt","type":"Landkreis"},"federalState":{"key":"03","name":"Niedersachsen"}},{"name":"Clarabadteich","postalCode":"38350","locality":"Helmstedt","municipality":{"key":"03154028","name":"Helmstedt, Stadt","type":"Stadt"},"district":{"key":"03154","name":"Helmstedt","type":"Landkreis"},"federalState":{"key":"03","name":"Niedersachsen"}},{"name":"Collegienstr.","postalCode":"38350","locality":"Helmstedt","municipality":{"key":"03154028","name":"Helmstedt, Stadt","type":"Stadt"},"district":{"key":"03154","name":"Helmstedt","type":"Landkreis"},"federalState":{"key":"03","name":"Niedersachsen"}},{"name":"Conringplatz","postalCode":"38350","locality":"Helmstedt","municipality":{"key":"03154028","name":"Helmstedt, Stadt","type":"Stadt"},"district":{"key":"03154","name":"Helmstedt","type":"Landkreis"},"federalState":{"key":"03","name":"Niedersachsen"}},{"name":"Conringstr.","postalCode":"38350","locality":"Helmstedt","municipality":{"key":"03154028","name":"Helmstedt, Stadt","type":"Stadt"},"district":{"key":"03154","name":"Helmstedt","type":"Landkreis"},"federalState":{"key":"03","name":"Niedersachsen"}},{"name":"Cranachweg","postalCode":"38350","locality":"Helmstedt","municipality":{"key":"03154028","name":"Helmstedt, Stadt","type":"Stadt"},"district":{"key":"03154","name":"Helmstedt","type":"Landkreis"},"federalState":{"key":"03","name":"Niedersachsen"}},{"name":"Dammgarten","postalCode":"38350","locality":"Helmstedt","municipality":{"key":"03154028","name":"Helmstedt, Stadt","type":"Stadt"},"district":{"key":"03154","name":"Helmstedt","type":"Landkreis"},"federalState":{"key":"03","name":"Niedersachsen"}},{"name":"Danziger Str.","postalCode":"38350","locality":"Helmstedt","municipality":{"key":"03154028","name":"Helmstedt, Stadt","type":"Stadt"},"district":{"key":"03154","name":"Helmstedt","type":"Landkreis"},"federalState":{"key":"03","name":"Niedersachsen"}},{"name":"Dessauer Str.","postalCode":"38350","locality":"Helmstedt","municipality":{"key":"03154028","name":"Helmstedt, Stadt","type":"Stadt"},"district":{"key":"03154","name":"Helmstedt","type":"Landkreis"},"federalState":{"key":"03","name":"Niedersachsen"}},{"name":"Diamantenweg","postalCode":"38350","locality":"Helmstedt","municipality":{"key":"03154028","name":"Helmstedt, Stadt","type":"Stadt"},"district":{"key":"03154","name":"Helmstedt","type":"Landkreis"},"federalState":{"key":"03","name":"Niedersachsen"}},{"name":"Dieselstr.","postalCode":"38350","locality":"Helmstedt","municipality":{"key":"03154028","name":"Helmstedt, Stadt","type":"Stadt"},"district":{"key":"03154","name":"Helmstedt","type":"Landkreis"},"federalState":{"key":"03","name":"Niedersachsen"}},{"name":"Dietrich-Bonhoeffer-Str.","postalCode":"38350","locality":"Helmstedt","municipality":{"key":"03154028","name":"Helmstedt, Stadt","type":"Stadt"},"district":{"key":"03154","name":"Helmstedt","type":"Landkreis"},"federalState":{"key":"03","name":"Niedersachsen"}},{"name":"Doktor-Heinrich-Jasper-Str.","postalCode":"38372","locality":"Helmstedt","municipality":{"key":"03154028","name":"Helmstedt, Stadt","type":"Stadt"},"district":{"key":"03154","name":"Helmstedt","type":"Landkreis"},"federalState":{"key":"03","name":"Niedersachsen"}},{"name":"Dorfbreite","postalCode":"38350","locality":"Helmstedt","municipality":{"key":"03154028","name":"Helmstedt, Stadt","type":"Stadt"},"district":{"key":"03154","name":"Helmstedt","type":"Landkreis"},"federalState":{"key":"03","name":"Niedersachsen"}},{"name":"Dorfplatz","postalCode":"38350","locality":"Helmstedt","municipality":{"key":"03154028","name":"Helmstedt, Stadt","type":"Stadt"},"district":{"key":"03154","name":"Helmstedt","type":"Landkreis"},"federalState":{"key":"03","name":"Niedersachsen"}},{"name":"Dormblick","postalCode":"38350","locality":"Helmstedt","municipality":{"key":"03154028","name":"Helmstedt, Stadt","type":"Stadt"},"district":{"key":"03154","name":"Helmstedt","type":"Landkreis"},"federalState":{"key":"03","name":"Niedersachsen"}},{"name":"Drei Linden","postalCode":"38350","locality":"Helmstedt","municipality":{"key":"03154028","name":"Helmstedt, Stadt","type":"Stadt"},"district":{"key":"03154","name":"Helmstedt","type":"Landkreis"},"federalState":{"key":"03","name":"Niedersachsen"}},{"name":"Dresdener Str.","postalCode":"38350","locality":"Helmstedt","municipality":{"key":"03154028","name":"Helmstedt, Stadt","type":"Stadt"},"district":{"key":"03154","name":"Helmstedt","type":"Landkreis"},"federalState":{"key":"03","name":"Niedersachsen"}},{"name":"Dr.-Heinrich-Jasper-Str.","postalCode":"38350","locality":"Helmstedt","municipality":{"key":"03154028","name":"Helmstedt, Stadt","type":"Stadt"},"district":{"key":"03154","name":"Helmstedt","type":"Landkreis"},"federalState":{"key":"03","name":"Niedersachsen"}},{"name":"Drosselweg","postalCode":"38350","locality":"Helmstedt","municipality":{"key":"03154028","name":"Helmstedt, Stadt","type":"Stadt"},"district":{"key":"03154","name":"Helmstedt","type":"Landkreis"},"federalState":{"key":"03","name":"Niedersachsen"}},{"name":"Dunkles Tor","postalCode":"38350","locality":"Helmstedt","municipality":{"key":"03154028","name":"Helmstedt, Stadt","type":"Stadt"},"district":{"key":"03154","name":"Helmstedt","type":"Landkreis"},"federalState":{"key":"03","name":"Niedersachsen"}},{"name":"Dürerplatz","postalCode":"38350","locality":"Helmstedt","municipality":{"key":"03154028","name":"Helmstedt, Stadt","type":"Stadt"},"district":{"key":"03154","name":"Helmstedt","type":"Landkreis"},"federalState":{"key":"03","name":"Niedersachsen"}},{"name":"Edelhöfe","postalCode":"38350","locality":"Helmstedt","municipality":{"key":"03154028","name":"Helmstedt, Stadt","type":"Stadt"},"district":{"key":"03154","name":"Helmstedt","type":"Landkreis"},"federalState":{"key":"03","name":"Niedersachsen"}},{"name":"Eisenweg","postalCode":"38350","locality":"Helmstedt","municipality":{"key":"03154028","name":"Helmstedt, Stadt","type":"Stadt"},"district":{"key":"03154","name":"Helmstedt","type":"Landkreis"},"federalState":{"key":"03","name":"Niedersachsen"}},{"name":"Elbestr.","postalCode":"38350","locality":"Helmstedt","municipality":{"key":"03154028","name":"Helmstedt, Stadt","type":"Stadt"},"district":{"key":"03154","name":"Helmstedt","type":"Landkreis"},"federalState":{"key":"03","name":"Niedersachsen"}},{"name":"Elmblick","postalCode":"38350","locality":"Helmstedt","municipality":{"key":"03154028","name":"Helmstedt, Stadt","type":"Stadt"},"district":{"key":"03154","name":"Helmstedt","type":"Landkreis"},"federalState":{"key":"03","name":"Niedersachsen"}},{"name":"Elzweg","postalCode":"38350","locality":"Helmstedt","municipality":{"key":"03154028","name":"Helmstedt, Stadt","type":"Stadt"},"district":{"key":"03154","name":"Helmstedt","type":"Landkreis"},"federalState":{"key":"03","name":"Niedersachsen"}},{"name":"Emil-v.-Behring-Str.","postalCode":"38350","locality":"Helmstedt","municipality":{"key":"03154028","name":"Helmstedt, Stadt","type":"Stadt"},"district":{"key":"03154","name":"Helmstedt","type":"Landkreis"},"federalState":{"key":"03","name":"Niedersachsen"}},{"name":"Emmastr.","postalCode":"38350","locality":"Helmstedt","municipality":{"key":"03154028","name":"Helmstedt, Stadt","type":"Stadt"},"district":{"key":"03154","name":"Helmstedt","type":"Landkreis"},"federalState":{"key":"03","name":"Niedersachsen"}},{"name":"Emmerstedter Landstr.","postalCode":"38350","locality":"Helmstedt","municipality":{"key":"03154028","name":"Helmstedt, Stadt","type":"Stadt"},"district":{"key":"03154","name":"Helmstedt","type":"Landkreis"},"federalState":{"key":"03","name":"Niedersachsen"}},{"name":"Emmerstedter Str.","postalCode":"38350","locality":"Helmstedt","municipality":{"key":"03154028","name":"Helmstedt, Stadt","type":"Stadt"},"district":{"key":"03154","name":"Helmstedt","type":"Landkreis"},"federalState":{"key":"03","name":"Niedersachsen"}},{"name":"Emmi-Lademann-Str.","postalCode":"38350","locality":"Helmstedt","municipality":{"key":"03154028","name":"Helmstedt, Stadt","type":"Stadt"},"district":{"key":"03154","name":"Helmstedt","type":"Landkreis"},"federalState":{"key":"03","name":"Niedersachsen"}},{"name":"Erfurter Str.","postalCode":"38350","locality":"Helmstedt","municipality":{"key":"03154028","name":"Helmstedt, Stadt","type":"Stadt"},"district":{"key":"03154","name":"Helmstedt","type":"Landkreis"},"federalState":{"key":"03","name":"Niedersachsen"}},{"name":"Ernst-Koch-Str.","postalCode":"38350","locality":"Helmstedt","municipality":{"key":"03154028","name":"Helmstedt, Stadt","type":"Stadt"},"district":{"key":"03154","name":"Helmstedt","type":"Landkreis"},"federalState":{"key":"03","name":"Niedersachsen"}},{"name":"Ernst-Reuter-Str.","postalCode":"38350","locality":"Helmstedt","municipality":{"key":"03154028","name":"Helmstedt, Stadt","type":"Stadt"},"district":{"key":"03154","name":"Helmstedt","type":"Landkreis"},"federalState":{"key":"03","name":"Niedersachsen"}},{"name":"Eupener Str.","postalCode":"38350","locality":"Helmstedt","municipality":{"key":"03154028","name":"Helmstedt, Stadt","type":"Stadt"},"district":{"key":"03154","name":"Helmstedt","type":"Landkreis"},"federalState":{"key":"03","name":"Niedersachsen"}},{"name":"Farbenweg","postalCode":"38350","locality":"Helmstedt","municipality":{"key":"03154028","name":"Helmstedt, Stadt","type":"Stadt"},"district":{"key":"03154","name":"Helmstedt","type":"Landkreis"},"federalState":{"key":"03","name":"Niedersachsen"}},{"name":"Fasanenstr.","postalCode":"38350","locality":"Helmstedt","municipality":{"key":"03154028","name":"Helmstedt, Stadt","type":"Stadt"},"district":{"key":"03154","name":"Helmstedt","type":"Landkreis"},"federalState":{"key":"03","name":"Niedersachsen"}},{"name":"Fasanenweg","postalCode":"38372","locality":"Helmstedt","municipality":{"key":"03154028","name":"Helmstedt, Stadt","type":"Stadt"},"district":{"key":"03154","name":"Helmstedt","type":"Landkreis"},"federalState":{"key":"03","name":"Niedersachsen"}},{"name":"Fassweg","postalCode":"38350","locality":"Helmstedt","municipality":{"key":"03154028","name":"Helmstedt, Stadt","type":"Stadt"},"district":{"key":"03154","name":"Helmstedt","type":"Landkreis"},"federalState":{"key":"03","name":"Niedersachsen"}},{"name":"Fechtboden","postalCode":"38350","locality":"Helmstedt","municipality":{"key":"03154028","name":"Helmstedt, Stadt","type":"Stadt"},"district":{"key":"03154","name":"Helmstedt","type":"Landkreis"},"federalState":{"key":"03","name":"Niedersachsen"}},{"name":"Feldstr.","postalCode":"38350","locality":"Helmstedt","municipality":{"key":"03154028","name":"Helmstedt, Stadt","type":"Stadt"},"district":{"key":"03154","name":"Helmstedt","type":"Landkreis"},"federalState":{"key":"03","name":"Niedersachsen"}},{"name":"Feuerbachweg","postalCode":"38350","locality":"Helmstedt","municipality":{"key":"03154028","name":"Helmstedt, Stadt","type":"Stadt"},"district":{"key":"03154","name":"Helmstedt","type":"Landkreis"},"federalState":{"key":"03","name":"Niedersachsen"}},{"name":"Fichtenweg","postalCode":"38350","locality":"Helmstedt","municipality":{"key":"03154028","name":"Helmstedt, Stadt","type":"Stadt"},"district":{"key":"03154","name":"Helmstedt","type":"Landkreis"},"federalState":{"key":"03","name":"Niedersachsen"}},{"name":"Fichtestr.","postalCode":"38350","locality":"Helmstedt","municipality":{"key":"03154028","name":"Helmstedt, Stadt","type":"Stadt"},"district":{"key":"03154","name":"Helmstedt","type":"Landkreis"},"federalState":{"key":"03","name":"Niedersachsen"}},{"name":"Finckenweg","postalCode":"38350","locality":"Helmstedt","municipality":{"key":"03154028","name":"Helmstedt, Stadt","type":"Stadt"},"district":{"key":"03154","name":"Helmstedt","type":"Landkreis"},"federalState":{"key":"03","name":"Niedersachsen"}},{"name":"Finkenstr.","postalCode":"38350","locality":"Helmstedt","municipality":{"key":"03154028","name":"Helmstedt, Stadt","type":"Stadt"},"district":{"key":"03154","name":"Helmstedt","type":"Landkreis"},"federalState":{"key":"03","name":"Niedersachsen"}},{"name":"Finkenweg","postalCode":"38372","locality":"Helmstedt","municipality":{"key":"03154028","name":"Helmstedt, Stadt","type":"Stadt"},"district":{"key":"03154","name":"Helmstedt","type":"Landkreis"},"federalState":{"key":"03","name":"Niedersachsen"}},{"name":"Fiuggiring","postalCode":"38350","locality":"Helmstedt","municipality":{"key":"03154028","name":"Helmstedt, Stadt","type":"Stadt"},"district":{"key":"03154","name":"Helmstedt","type":"Landkreis"},"federalState":{"key":"03","name":"Niedersachsen"}},{"name":"Flachsweg","postalCode":"38350","locality":"Helmstedt","municipality":{"key":"03154028","name":"Helmstedt, Stadt","type":"Stadt"},"district":{"key":"03154","name":"Helmstedt","type":"Landkreis"},"federalState":{"key":"03","name":"Niedersachsen"}},{"name":"Freiherr-von-Stein-Str.","postalCode":"38350","locality":"Helmstedt","municipality":{"key":"03154028","name":"Helmstedt, Stadt","type":"Stadt"},"district":{"key":"03154","name":"Helmstedt","type":"Landkreis"},"federalState":{"key":"03","name":"Niedersachsen"}},{"name":"Friedrich-Ebert-Str.","postalCode":"38350","locality":"Helmstedt","municipality":{"key":"03154028","name":"Helmstedt, Stadt","type":"Stadt"},"district":{"key":"03154","name":"Helmstedt","type":"Landkreis"},"federalState":{"key":"03","name":"Niedersachsen"}},{"name":"Friedrich-Ebert-Str.","postalCode":"38372","locality":"Helmstedt","municipality":{"key":"03154028","name":"Helmstedt, Stadt","type":"Stadt"},"district":{"key":"03154","name":"Helmstedt","type":"Landkreis"},"federalState":{"key":"03","name":"Niedersachsen"}},{"name":"Friedrichstr.","postalCode":"38350","locality":"Helmstedt","municipality":{"key":"03154028","name":"Helmstedt, Stadt","type":"Stadt"},"district":{"key":"03154","name":"Helmstedt","type":"Landkreis"},"federalState":{"key":"03","name":"Niedersachsen"}},{"name":"Galgenbreite","postalCode":"38350","locality":"Helmstedt","municipality":{"key":"03154028","name":"Helmstedt, Stadt","type":"Stadt"},"district":{"key":"03154","name":"Helmstedt","type":"Landkreis"},"federalState":{"key":"03","name":"Niedersachsen"}},{"name":"Gänseweide","postalCode":"38350","locality":"Helmstedt","municipality":{"key":"03154028","name":"Helmstedt, Stadt","type":"Stadt"},"district":{"key":"03154","name":"Helmstedt","type":"Landkreis"},"federalState":{"key":"03","name":"Niedersachsen"}},{"name":"Gartenstr.","postalCode":"38350","locality":"Helmstedt","municipality":{"key":"03154028","name":"Helmstedt, Stadt","type":"Stadt"},"district":{"key":"03154","name":"Helmstedt","type":"Landkreis"},"federalState":{"key":"03","name":"Niedersachsen"}},{"name":"Gartenstr.","postalCode":"38372","locality":"Helmstedt","municipality":{"key":"03154028","name":"Helmstedt, Stadt","type":"Stadt"},"district":{"key":"03154","name":"Helmstedt","type":"Landkreis"},"federalState":{"key":"03","name":"Niedersachsen"}},{"name":"Genthiner Str.","postalCode":"38350","locality":"Helmstedt","municipality":{"key":"03154028","name":"Helmstedt, Stadt","type":"Stadt"},"district":{"key":"03154","name":"Helmstedt","type":"Landkreis"},"federalState":{"key":"03","name":"Niedersachsen"}},{"name":"Georg-Calixt-Platz","postalCode":"38350","locality":"Helmstedt","municipality":{"key":"03154028","name":"Helmstedt, Stadt","type":"Stadt"},"district":{"key":"03154","name":"Helmstedt","type":"Landkreis"},"federalState":{"key":"03","name":"Niedersachsen"}},{"name":"Georgienstr.","postalCode":"38350","locality":"Helmstedt","municipality":{"key":"03154028","name":"Helmstedt, Stadt","type":"Stadt"},"district":{"key":"03154","name":"Helmstedt","type":"Landkreis"},"federalState":{"key":"03","name":"Niedersachsen"}},{"name":"Gerbergasse","postalCode":"38350","locality":"Helmstedt","municipality":{"key":"03154028","name":"Helmstedt, Stadt","type":"Stadt"},"district":{"key":"03154","name":"Helmstedt","type":"Landkreis"},"federalState":{"key":"03","name":"Niedersachsen"}},{"name":"Gerhart-Hauptmann-Str.","postalCode":"38372","locality":"Helmstedt","municipality":{"key":"03154028","name":"Helmstedt, Stadt","type":"Stadt"},"district":{"key":"03154","name":"Helmstedt","type":"Landkreis"},"federalState":{"key":"03","name":"Niedersachsen"}},{"name":"Gerhart-Hauptmann-Weg","postalCode":"38350","locality":"Helmstedt","municipality":{"key":"03154028","name":"Helmstedt, Stadt","type":"Stadt"},"district":{"key":"03154","name":"Helmstedt","type":"Landkreis"},"federalState":{"key":"03","name":"Niedersachsen"}},{"name":"Gleiwitzer Str.","postalCode":"38350","locality":"Helmstedt","municipality":{"key":"03154028","name":"Helmstedt, Stadt","type":"Stadt"},"district":{"key":"03154","name":"Helmstedt","type":"Landkreis"},"federalState":{"key":"03","name":"Niedersachsen"}},{"name":"Glockbergstr.","postalCode":"38350","locality":"Helmstedt","municipality":{"key":"03154028","name":"Helmstedt, Stadt","type":"Stadt"},"district":{"key":"03154","name":"Helmstedt","type":"Landkreis"},"federalState":{"key":"03","name":"Niedersachsen"}},{"name":"Glogauer Str.","postalCode":"38350","locality":"Helmstedt","municipality":{"key":"03154028","name":"Helmstedt, Stadt","type":"Stadt"},"district":{"key":"03154","name":"Helmstedt","type":"Landkreis"},"federalState":{"key":"03","name":"Niedersachsen"}},{"name":"Glück-Auf-Str.","postalCode":"38372","locality":"Helmstedt","municipality":{"key":"03154028","name":"Helmstedt, Stadt","type":"Stadt"},"district":{"key":"03154","name":"Helmstedt","type":"Landkreis"},"federalState":{"key":"03","name":"Niedersachsen"}},{"name":"Glück-Auf-Weg","postalCode":"38350","locality":"Helmstedt","municipality":{"key":"03154028","name":"Helmstedt, Stadt","type":"Stadt"},"district":{"key":"03154","name":"Helmstedt","type":"Landkreis"},"federalState":{"key":"03","name":"Niedersachsen"}},{"name":"Goethestr.","postalCode":"38350","locality":"Helmstedt","municipality":{"key":"03154028","name":"Helmstedt, Stadt","type":"Stadt"},"district":{"key":"03154","name":"Helmstedt","type":"Landkreis"},"federalState":{"key":"03","name":"Niedersachsen"}},{"name":"Görlitzer Platz","postalCode":"38350","locality":"Helmstedt","municipality":{"key":"03154028","name":"Helmstedt, Stadt","type":"Stadt"},"district":{"key":"03154","name":"Helmstedt","type":"Landkreis"},"federalState":{"key":"03","name":"Niedersachsen"}},{"name":"Greifswalder Str.","postalCode":"38350","locality":"Helmstedt","municipality":{"key":"03154028","name":"Helmstedt, Stadt","type":"Stadt"},"district":{"key":"03154","name":"Helmstedt","type":"Landkreis"},"federalState":{"key":"03","name":"Niedersachsen"}},{"name":"Gröpern","postalCode":"38350","locality":"Helmstedt","municipality":{"key":"03154028","name":"Helmstedt, Stadt","type":"Stadt"},"district":{"key":"03154","name":"Helmstedt","type":"Landkreis"},"federalState":{"key":"03","name":"Niedersachsen"}},{"name":"Großer Katthagen","postalCode":"38350","locality":"Helmstedt","municipality":{"key":"03154028","name":"Helmstedt, Stadt","type":"Stadt"},"district":{"key":"03154","name":"Helmstedt","type":"Landkreis"},"federalState":{"key":"03","name":"Niedersachsen"}},{"name":"Großer Kirchhof","postalCode":"38350","locality":"Helmstedt","municipality":{"key":"03154028","name":"Helmstedt, Stadt","type":"Stadt"},"district":{"key":"03154","name":"Helmstedt","type":"Landkreis"},"federalState":{"key":"03","name":"Niedersachsen"}},{"name":"Grubenweg","postalCode":"38350","locality":"Helmstedt","municipality":{"key":"03154028","name":"Helmstedt, Stadt","type":"Stadt"},"district":{"key":"03154","name":"Helmstedt","type":"Landkreis"},"federalState":{"key":"03","name":"Niedersachsen"}},{"name":"Grünberger Str.","postalCode":"38350","locality":"Helmstedt","municipality":{"key":"03154028","name":"Helmstedt, Stadt","type":"Stadt"},"district":{"key":"03154","name":"Helmstedt","type":"Landkreis"},"federalState":{"key":"03","name":"Niedersachsen"}},{"name":"Grünewaldweg","postalCode":"38350","locality":"Helmstedt","municipality":{"key":"03154028","name":"Helmstedt, Stadt","type":"Stadt"},"district":{"key":"03154","name":"Helmstedt","type":"Landkreis"},"federalState":{"key":"03","name":"Niedersachsen"}},{"name":"Gustav-Steinbrecher-Str.","postalCode":"38350","locality":"Helmstedt","municipality":{"key":"03154028","name":"Helmstedt, Stadt","type":"Stadt"},"district":{"key":"03154","name":"Helmstedt","type":"Landkreis"},"federalState":{"key":"03","name":"Niedersachsen"}},{"name":"Gustav-Stresemann-Weg","postalCode":"38350","locality":"Helmstedt","municipality":{"key":"03154028","name":"Helmstedt, Stadt","type":"Stadt"},"district":{"key":"03154","name":"Helmstedt","type":"Landkreis"},"federalState":{"key":"03","name":"Niedersachsen"}},{"name":"Hagenweg","postalCode":"38154","locality":"Brunsleberfeld","municipality":{"key":"03154501","name":"Brunsleberfeld, gemfr. Gebiet","type":"Gemeindefreies_Gebiet_Unbewohnt"},"district":{"key":"03154","name":"Helmstedt","type":"Landkreis"},"federalState":{"key":"03","name":"Niedersachsen"}},{"name":"Im Bohnenkampe","postalCode":"38350","locality":"Helmstedt","municipality":{"key":"03154028","name":"Helmstedt, Stadt","type":"Stadt"},"district":{"key":"03154","name":"Helmstedt","type":"Landkreis"},"federalState":{"key":"03","name":"Niedersachsen"}},{"name":"Im Hagen","postalCode":"38350","locality":"Helmstedt","municipality":{"key":"03154028","name":"Helmstedt, Stadt","type":"Stadt"},"district":{"key":"03154","name":"Helmstedt","type":"Landkreis"},"federalState":{"key":"03","name":"Niedersachsen"}},{"name":"Imkerweg","postalCode":"38350","locality":"Helmstedt","municipality":{"key":"03154028","name":"Helmstedt, Stadt","type":"Stadt"},"district":{"key":"03154","name":"Helmstedt","type":"Landkreis"},"federalState":{"key":"03","name":"Niedersachsen"}},{"name":"Im Kleibergsfeld","postalCode":"38372","locality":"Helmstedt","municipality":{"key":"03154028","name":"Helmstedt, Stadt","type":"Stadt"},"district":{"key":"03154","name":"Helmstedt","type":"Landkreis"},"federalState":{"key":"03","name":"Niedersachsen"}},{"name":"Im Rottlande","postalCode":"38350","locality":"Helmstedt","municipality":{"key":"03154028","name":"Helmstedt, Stadt","type":"Stadt"},"district":{"key":"03154","name":"Helmstedt","type":"Landkreis"},"federalState":{"key":"03","name":"Niedersachsen"}},{"name":"Im Winkel","postalCode":"38350","locality":"Helmstedt","municipality":{"key":"03154028","name":"Helmstedt, Stadt","type":"Stadt"},"district":{"key":"03154","name":"Helmstedt","type":"Landkreis"},"federalState":{"key":"03","name":"Niedersachsen"}},{"name":"In der Gehrenbreite","postalCode":"38350","locality":"Helmstedt","municipality":{"key":"03154028","name":"Helmstedt, Stadt","type":"Stadt"},"district":{"key":"03154","name":"Helmstedt","type":"Landkreis"},"federalState":{"key":"03","name":"Niedersachsen"}},{"name":"In der Kreuzbreite","postalCode":"38350","locality":"Helmstedt","municipality":{"key":"03154028","name":"Helmstedt, Stadt","type":"Stadt"},"district":{"key":"03154","name":"Helmstedt","type":"Landkreis"},"federalState":{"key":"03","name":"Niedersachsen"}},{"name":"In der Meerbreite","postalCode":"38350","locality":"Helmstedt","municipality":{"key":"03154028","name":"Helmstedt, Stadt","type":"Stadt"},"district":{"key":"03154","name":"Helmstedt","type":"Landkreis"},"federalState":{"key":"03","name":"Niedersachsen"}},{"name":"Industriestr.","postalCode":"38350","locality":"Helmstedt","municipality":{"key":"03154028","name":"Helmstedt, Stadt","type":"Stadt"},"district":{"key":"03154","name":"Helmstedt","type":"Landkreis"},"federalState":{"key":"03","name":"Niedersachsen"}},{"name":"Jahnstr.","postalCode":"38350","locality":"Helmstedt","municipality":{"key":"03154028","name":"Helmstedt, Stadt","type":"Stadt"},"district":{"key":"03154","name":"Helmstedt","type":"Landkreis"},"federalState":{"key":"03","name":"Niedersachsen"}},{"name":"Jenaer Str.","postalCode":"38350","locality":"Helmstedt","municipality":{"key":"03154028","name":"Helmstedt, Stadt","type":"Stadt"},"district":{"key":"03154","name":"Helmstedt","type":"Landkreis"},"federalState":{"key":"03","name":"Niedersachsen"}},{"name":"Johannesstr.","postalCode":"38350","locality":"Helmstedt","municipality":{"key":"03154028","name":"Helmstedt, Stadt","type":"Stadt"},"district":{"key":"03154","name":"Helmstedt","type":"Landkreis"},"federalState":{"key":"03","name":"Niedersachsen"}},{"name":"Johann-Sebastian-Bach-Str.","postalCode":"38350","locality":"Helmstedt","municipality":{"key":"03154028","name":"Helmstedt, Stadt","type":"Stadt"},"district":{"key":"03154","name":"Helmstedt","type":"Landkreis"},"federalState":{"key":"03","name":"Niedersachsen"}},{"name":"Joseph-Haydn-Weg","postalCode":"38350","locality":"Helmstedt","municipality":{"key":"03154028","name":"Helmstedt, Stadt","type":"Stadt"},"district":{"key":"03154","name":"Helmstedt","type":"Landkreis"},"federalState":{"key":"03","name":"Niedersachsen"}},{"name":"Juliusplatz","postalCode":"38350","locality":"Helmstedt","municipality":{"key":"03154028","name":"Helmstedt, Stadt","type":"Stadt"},"district":{"key":"03154","name":"Helmstedt","type":"Landkreis"},"federalState":{"key":"03","name":"Niedersachsen"}},{"name":"Juliusstr.","postalCode":"38350","locality":"Helmstedt","municipality":{"key":"03154028","name":"Helmstedt, Stadt","type":"Stadt"},"district":{"key":"03154","name":"Helmstedt","type":"Landkreis"},"federalState":{"key":"03","name":"Niedersachsen"}},{"name":"Junkerweg","postalCode":"38350","locality":"Helmstedt","municipality":{"key":"03154028","name":"Helmstedt, Stadt","type":"Stadt"},"district":{"key":"03154","name":"Helmstedt","type":"Landkreis"},"federalState":{"key":"03","name":"Niedersachsen"}},{"name":"Jürgenbreite","postalCode":"38350","locality":"Helmstedt","municipality":{"key":"03154028","name":"Helmstedt, Stadt","type":"Stadt"},"district":{"key":"03154","name":"Helmstedt","type":"Landkreis"},"federalState":{"key":"03","name":"Niedersachsen"}},{"name":"Kaisergarten","postalCode":"38350","locality":"Helmstedt","municipality":{"key":"03154028","name":"Helmstedt, Stadt","type":"Stadt"},"district":{"key":"03154","name":"Helmstedt","type":"Landkreis"},"federalState":{"key":"03","name":"Niedersachsen"}},{"name":"Kantor-Buchtmann-Str.","postalCode":"38350","locality":"Helmstedt","municipality":{"key":"03154028","name":"Helmstedt, Stadt","type":"Stadt"},"district":{"key":"03154","name":"Helmstedt","type":"Landkreis"},"federalState":{"key":"03","name":"Niedersachsen"}},{"name":"Kantstr.","postalCode":"38350","locality":"Helmstedt","municipality":{"key":"03154028","name":"Helmstedt, Stadt","type":"Stadt"},"district":{"key":"03154","name":"Helmstedt","type":"Landkreis"},"federalState":{"key":"03","name":"Niedersachsen"}},{"name":"Kastanienweg","postalCode":"38350","locality":"Helmstedt","municipality":{"key":"03154028","name":"Helmstedt, Stadt","type":"Stadt"},"district":{"key":"03154","name":"Helmstedt","type":"Landkreis"},"federalState":{"key":"03","name":"Niedersachsen"}},{"name":"Kattreppeln","postalCode":"38372","locality":"Helmstedt","municipality":{"key":"03154028","name":"Helmstedt, Stadt","type":"Stadt"},"district":{"key":"03154","name":"Helmstedt","type":"Landkreis"},"federalState":{"key":"03","name":"Niedersachsen"}},{"name":"Kiefernweg","postalCode":"38350","locality":"Helmstedt","municipality":{"key":"03154028","name":"Helmstedt, Stadt","type":"Stadt"},"district":{"key":"03154","name":"Helmstedt","type":"Landkreis"},"federalState":{"key":"03","name":"Niedersachsen"}},{"name":"Kirchstr.","postalCode":"38350","locality":"Helmstedt","municipality":{"key":"03154028","name":"Helmstedt, Stadt","type":"Stadt"},"district":{"key":"03154","name":"Helmstedt","type":"Landkreis"},"federalState":{"key":"03","name":"Niedersachsen"}},{"name":"Kirchstr.","postalCode":"38372","locality":"Helmstedt","municipality":{"key":"03154028","name":"Helmstedt, Stadt","type":"Stadt"},"district":{"key":"03154","name":"Helmstedt","type":"Landkreis"},"federalState":{"key":"03","name":"Niedersachsen"}},{"name":"Kirschweg","postalCode":"38350","locality":"Helmstedt","municipality":{"key":"03154028","name":"Helmstedt, Stadt","type":"Stadt"},"district":{"key":"03154","name":"Helmstedt","type":"Landkreis"},"federalState":{"key":"03","name":"Niedersachsen"}},{"name":"Kleestr.","postalCode":"38350","locality":"Helmstedt","municipality":{"key":"03154028","name":"Helmstedt, Stadt","type":"Stadt"},"district":{"key":"03154","name":"Helmstedt","type":"Landkreis"},"federalState":{"key":"03","name":"Niedersachsen"}},{"name":"Kleiner Katthagen","postalCode":"38350","locality":"Helmstedt","municipality":{"key":"03154028","name":"Helmstedt, Stadt","type":"Stadt"},"district":{"key":"03154","name":"Helmstedt","type":"Landkreis"},"federalState":{"key":"03","name":"Niedersachsen"}},{"name":"Klopstockweg","postalCode":"38350","locality":"Helmstedt","municipality":{"key":"03154028","name":"Helmstedt, Stadt","type":"Stadt"},"district":{"key":"03154","name":"Helmstedt","type":"Landkreis"},"federalState":{"key":"03","name":"Niedersachsen"}},{"name":"Klostergut","postalCode":"38372","locality":"Helmstedt","municipality":{"key":"03154028","name":"Helmstedt, Stadt","type":"Stadt"},"district":{"key":"03154","name":"Helmstedt","type":"Landkreis"},"federalState":{"key":"03","name":"Niedersachsen"}},{"name":"Klosterstr.","postalCode":"38350","locality":"Helmstedt","municipality":{"key":"03154028","name":"Helmstedt, Stadt","type":"Stadt"},"district":{"key":"03154","name":"Helmstedt","type":"Landkreis"},"federalState":{"key":"03","name":"Niedersachsen"}},{"name":"Knappensteig","postalCode":"38350","locality":"Helmstedt","municipality":{"key":"03154028","name":"Helmstedt, Stadt","type":"Stadt"},"district":{"key":"03154","name":"Helmstedt","type":"Landkreis"},"federalState":{"key":"03","name":"Niedersachsen"}},{"name":"Kohlenweg","postalCode":"38350","locality":"Helmstedt","municipality":{"key":"03154028","name":"Helmstedt, Stadt","type":"Stadt"},"district":{"key":"03154","name":"Helmstedt","type":"Landkreis"},"federalState":{"key":"03","name":"Niedersachsen"}},{"name":"Kolonnenweg","postalCode":"38372","locality":"Helmstedt","municipality":{"key":"03154028","name":"Helmstedt, Stadt","type":"Stadt"},"district":{"key":"03154","name":"Helmstedt","type":"Landkreis"},"federalState":{"key":"03","name":"Niedersachsen"}},{"name":"Königsberger Str.","postalCode":"38350","locality":"Helmstedt","municipality":{"key":"03154028","name":"Helmstedt, Stadt","type":"Stadt"},"district":{"key":"03154","name":"Helmstedt","type":"Landkreis"},"federalState":{"key":"03","name":"Niedersachsen"}},{"name":"Konrad-Adenauer-Platz","postalCode":"38350","locality":"Helmstedt","municipality":{"key":"03154028","name":"Helmstedt, Stadt","type":"Stadt"},"district":{"key":"03154","name":"Helmstedt","type":"Landkreis"},"federalState":{"key":"03","name":"Niedersachsen"}},{"name":"Kornblumenweg","postalCode":"38350","locality":"Helmstedt","municipality":{"key":"03154028","name":"Helmstedt, Stadt","type":"Stadt"},"district":{"key":"03154","name":"Helmstedt","type":"Landkreis"},"federalState":{"key":"03","name":"Niedersachsen"}},{"name":"Kornstr.","postalCode":"38350","locality":"Helmstedt","municipality":{"key":"03154028","name":"Helmstedt, Stadt","type":"Stadt"},"district":{"key":"03154","name":"Helmstedt","type":"Landkreis"},"federalState":{"key":"03","name":"Niedersachsen"}},{"name":"Kreipke","postalCode":"38350","locality":"Helmstedt","municipality":{"key":"03154028","name":"Helmstedt, Stadt","type":"Stadt"},"district":{"key":"03154","name":"Helmstedt","type":"Landkreis"},"federalState":{"key":"03","name":"Niedersachsen"}},{"name":"Kreuzstr.","postalCode":"38350","locality":"Helmstedt","municipality":{"key":"03154028","name":"Helmstedt, Stadt","type":"Stadt"},"district":{"key":"03154","name":"Helmstedt","type":"Landkreis"},"federalState":{"key":"03","name":"Niedersachsen"}},{"name":"Krötenweg","postalCode":"38350","locality":"Helmstedt","municipality":{"key":"03154028","name":"Helmstedt, Stadt","type":"Stadt"},"district":{"key":"03154","name":"Helmstedt","type":"Landkreis"},"federalState":{"key":"03","name":"Niedersachsen"}},{"name":"Kurzer Kamp","postalCode":"38350","locality":"Helmstedt","municipality":{"key":"03154028","name":"Helmstedt, Stadt","type":"Stadt"},"district":{"key":"03154","name":"Helmstedt","type":"Landkreis"},"federalState":{"key":"03","name":"Niedersachsen"}},{"name":"Kybitzstr.","postalCode":"38350","locality":"Helmstedt","municipality":{"key":"03154028","name":"Helmstedt, Stadt","type":"Stadt"},"district":{"key":"03154","name":"Helmstedt","type":"Landkreis"},"federalState":{"key":"03","name":"Niedersachsen"}},{"name":"Landgrabentrift","postalCode":"38350","locality":"Helmstedt","municipality":{"key":"03154028","name":"Helmstedt, Stadt","type":"Stadt"},"district":{"key":"03154","name":"Helmstedt","type":"Landkreis"},"federalState":{"key":"03","name":"Niedersachsen"}},{"name":"Langer Kamp","postalCode":"38350","locality":"Helmstedt","municipality":{"key":"03154028","name":"Helmstedt, Stadt","type":"Stadt"},"district":{"key":"03154","name":"Helmstedt","type":"Landkreis"},"federalState":{"key":"03","name":"Niedersachsen"}},{"name":"Langer Steinweg","postalCode":"38350","locality":"Helmstedt","municipality":{"key":"03154028","name":"Helmstedt, Stadt","type":"Stadt"},"district":{"key":"03154","name":"Helmstedt","type":"Landkreis"},"federalState":{"key":"03","name":"Niedersachsen"}},{"name":"Langer Wall","postalCode":"38350","locality":"Helmstedt","municipality":{"key":"03154028","name":"Helmstedt, Stadt","type":"Stadt"},"district":{"key":"03154","name":"Helmstedt","type":"Landkreis"},"federalState":{"key":"03","name":"Niedersachsen"}},{"name":"Leibnizstr.","postalCode":"38350","locality":"Helmstedt","municipality":{"key":"03154028","name":"Helmstedt, Stadt","type":"Stadt"},"district":{"key":"03154","name":"Helmstedt","type":"Landkreis"},"federalState":{"key":"03","name":"Niedersachsen"}},{"name":"Leinenweg","postalCode":"38350","locality":"Helmstedt","municipality":{"key":"03154028","name":"Helmstedt, Stadt","type":"Stadt"},"district":{"key":"03154","name":"Helmstedt","type":"Landkreis"},"federalState":{"key":"03","name":"Niedersachsen"}},{"name":"Leineweberstr.","postalCode":"38350","locality":"Helmstedt","municipality":{"key":"03154028","name":"Helmstedt, Stadt","type":"Stadt"},"district":{"key":"03154","name":"Helmstedt","type":"Landkreis"},"federalState":{"key":"03","name":"Niedersachsen"}},{"name":"Leipziger Str.","postalCode":"38350","locality":"Helmstedt","municipality":{"key":"03154028","name":"Helmstedt, Stadt","type":"Stadt"},"district":{"key":"03154","name":"Helmstedt","type":"Landkreis"},"federalState":{"key":"03","name":"Niedersachsen"}},{"name":"Lenauweg","postalCode":"38350","locality":"Helmstedt","municipality":{"key":"03154028","name":"Helmstedt, Stadt","type":"Stadt"},"district":{"key":"03154","name":"Helmstedt","type":"Landkreis"},"federalState":{"key":"03","name":"Niedersachsen"}},{"name":"Lessingplatz","postalCode":"38350","locality":"Helmstedt","municipality":{"key":"03154028","name":"Helmstedt, Stadt","type":"Stadt"},"district":{"key":"03154","name":"Helmstedt","type":"Landkreis"},"federalState":{"key":"03","name":"Niedersachsen"}},{"name":"Lessingstr.","postalCode":"38350","locality":"Helmstedt","municipality":{"key":"03154028","name":"Helmstedt, Stadt","type":"Stadt"},"district":{"key":"03154","name":"Helmstedt","type":"Landkreis"},"federalState":{"key":"03","name":"Niedersachsen"}},{"name":"Leuckartstr.","postalCode":"38350","locality":"Helmstedt","municipality":{"key":"03154028","name":"Helmstedt, Stadt","type":"Stadt"},"district":{"key":"03154","name":"Helmstedt","type":"Landkreis"},"federalState":{"key":"03","name":"Niedersachsen"}},{"name":"Liegnitzer Str.","postalCode":"38350","locality":"Helmstedt","municipality":{"key":"03154028","name":"Helmstedt, Stadt","type":"Stadt"},"district":{"key":"03154","name":"Helmstedt","type":"Landkreis"},"federalState":{"key":"03","name":"Niedersachsen"}},{"name":"Lindenhorst","postalCode":"38350","locality":"Helmstedt","municipality":{"key":"03154028","name":"Helmstedt, Stadt","type":"Stadt"},"district":{"key":"03154","name":"Helmstedt","type":"Landkreis"},"federalState":{"key":"03","name":"Niedersachsen"}},{"name":"Lindenplatz","postalCode":"38350","locality":"Helmstedt","municipality":{"key":"03154028","name":"Helmstedt, Stadt","type":"Stadt"},"district":{"key":"03154","name":"Helmstedt","type":"Landkreis"},"federalState":{"key":"03","name":"Niedersachsen"}},{"name":"Lindenstr.","postalCode":"38350","locality":"Helmstedt","municipality":{"key":"03154028","name":"Helmstedt, Stadt","type":"Stadt"},"district":{"key":"03154","name":"Helmstedt","type":"Landkreis"},"federalState":{"key":"03","name":"Niedersachsen"}},{"name":"Lindenstr.","postalCode":"38372","locality":"Helmstedt","municipality":{"key":"03154028","name":"Helmstedt, Stadt","type":"Stadt"},"district":{"key":"03154","name":"Helmstedt","type":"Landkreis"},"federalState":{"key":"03","name":"Niedersachsen"}},{"name":"Loopgraben","postalCode":"38350","locality":"Helmstedt","municipality":{"key":"03154028","name":"Helmstedt, Stadt","type":"Stadt"},"district":{"key":"03154","name":"Helmstedt","type":"Landkreis"},"federalState":{"key":"03","name":"Niedersachsen"}},{"name":"Lortzingstr.","postalCode":"38350","locality":"Helmstedt","municipality":{"key":"03154028","name":"Helmstedt, Stadt","type":"Stadt"},"district":{"key":"03154","name":"Helmstedt","type":"Landkreis"},"federalState":{"key":"03","name":"Niedersachsen"}},{"name":"Lurchengasse","postalCode":"38350","locality":"Helmstedt","municipality":{"key":"03154028","name":"Helmstedt, Stadt","type":"Stadt"},"district":{"key":"03154","name":"Helmstedt","type":"Landkreis"},"federalState":{"key":"03","name":"Niedersachsen"}},{"name":"Lutherweg","postalCode":"38350","locality":"Helmstedt","municipality":{"key":"03154028","name":"Helmstedt, Stadt","type":"Stadt"},"district":{"key":"03154","name":"Helmstedt","type":"Landkreis"},"federalState":{"key":"03","name":"Niedersachsen"}},{"name":"Magdeburger Berg","postalCode":"38350","locality":"Helmstedt","municipality":{"key":"03154028","name":"Helmstedt, Stadt","type":"Stadt"},"district":{"key":"03154","name":"Helmstedt","type":"Landkreis"},"federalState":{"key":"03","name":"Niedersachsen"}},{"name":"Magdeburger Str.","postalCode":"38350","locality":"Helmstedt","municipality":{"key":"03154028","name":"Helmstedt, Stadt","type":"Stadt"},"district":{"key":"03154","name":"Helmstedt","type":"Landkreis"},"federalState":{"key":"03","name":"Niedersachsen"}},{"name":"Magdeburger Tor","postalCode":"38350","locality":"Helmstedt","municipality":{"key":"03154028","name":"Helmstedt, Stadt","type":"Stadt"},"district":{"key":"03154","name":"Helmstedt","type":"Landkreis"},"federalState":{"key":"03","name":"Niedersachsen"}},{"name":"Magdeburger Tor Hof","postalCode":"38350","locality":"Helmstedt","municipality":{"key":"03154028","name":"Helmstedt, Stadt","type":"Stadt"},"district":{"key":"03154","name":"Helmstedt","type":"Landkreis"},"federalState":{"key":"03","name":"Niedersachsen"}},{"name":"Margeritenweg","postalCode":"38350","locality":"Helmstedt","municipality":{"key":"03154028","name":"Helmstedt, Stadt","type":"Stadt"},"district":{"key":"03154","name":"Helmstedt","type":"Landkreis"},"federalState":{"key":"03","name":"Niedersachsen"}},{"name":"Marienstr.","postalCode":"38350","locality":"Helmstedt","municipality":{"key":"03154028","name":"Helmstedt, Stadt","type":"Stadt"},"district":{"key":"03154","name":"Helmstedt","type":"Landkreis"},"federalState":{"key":"03","name":"Niedersachsen"}},{"name":"Marientaler Str.","postalCode":"38350","locality":"Helmstedt","municipality":{"key":"03154028","name":"Helmstedt, Stadt","type":"Stadt"},"district":{"key":"03154","name":"Helmstedt","type":"Landkreis"},"federalState":{"key":"03","name":"Niedersachsen"}},{"name":"Markt","postalCode":"38350","locality":"Helmstedt","municipality":{"key":"03154028","name":"Helmstedt, Stadt","type":"Stadt"},"district":{"key":"03154","name":"Helmstedt","type":"Landkreis"},"federalState":{"key":"03","name":"Niedersachsen"}},{"name":"Martin-Luther-Platz","postalCode":"38372","locality":"Helmstedt","municipality":{"key":"03154028","name":"Helmstedt, Stadt","type":"Stadt"},"district":{"key":"03154","name":"Helmstedt","type":"Landkreis"},"federalState":{"key":"03","name":"Niedersachsen"}},{"name":"Maschweg","postalCode":"38350","locality":"Helmstedt","municipality":{"key":"03154028","name":"Helmstedt, Stadt","type":"Stadt"},"district":{"key":"03154","name":"Helmstedt","type":"Landkreis"},"federalState":{"key":"03","name":"Niedersachsen"}},{"name":"Max-Planck-Weg","postalCode":"38350","locality":"Helmstedt","municipality":{"key":"03154028","name":"Helmstedt, Stadt","type":"Stadt"},"district":{"key":"03154","name":"Helmstedt","type":"Landkreis"},"federalState":{"key":"03","name":"Niedersachsen"}},{"name":"Max-Reger-Weg","postalCode":"38350","locality":"Helmstedt","municipality":{"key":"03154028","name":"Helmstedt, Stadt","type":"Stadt"},"district":{"key":"03154","name":"Helmstedt","type":"Landkreis"},"federalState":{"key":"03","name":"Niedersachsen"}},{"name":"Medicusstr.","postalCode":"38350","locality":"Helmstedt","municipality":{"key":"03154028","name":"Helmstedt, Stadt","type":"Stadt"},"district":{"key":"03154","name":"Helmstedt","type":"Landkreis"},"federalState":{"key":"03","name":"Niedersachsen"}},{"name":"Meibomstr.","postalCode":"38350","locality":"Helmstedt","municipality":{"key":"03154028","name":"Helmstedt, Stadt","type":"Stadt"},"district":{"key":"03154","name":"Helmstedt","type":"Landkreis"},"federalState":{"key":"03","name":"Niedersachsen"}},{"name":"Memelstr.","postalCode":"38350","locality":"Helmstedt","municipality":{"key":"03154028","name":"Helmstedt, Stadt","type":"Stadt"},"district":{"key":"03154","name":"Helmstedt","type":"Landkreis"},"federalState":{"key":"03","name":"Niedersachsen"}},{"name":"Mohnweg","postalCode":"38350","locality":"Helmstedt","municipality":{"key":"03154028","name":"Helmstedt, Stadt","type":"Stadt"},"district":{"key":"03154","name":"Helmstedt","type":"Landkreis"},"federalState":{"key":"03","name":"Niedersachsen"}},{"name":"Mönchsweg","postalCode":"38350","locality":"Helmstedt","municipality":{"key":"03154028","name":"Helmstedt, Stadt","type":"Stadt"},"district":{"key":"03154","name":"Helmstedt","type":"Landkreis"},"federalState":{"key":"03","name":"Niedersachsen"}},{"name":"Mondeviller Str.","postalCode":"38372","locality":"Helmstedt","municipality":{"key":"03154028","name":"Helmstedt, Stadt","type":"Stadt"},"district":{"key":"03154","name":"Helmstedt","type":"Landkreis"},"federalState":{"key":"03","name":"Niedersachsen"}},{"name":"Mörikestr.","postalCode":"38350","locality":"Helmstedt","municipality":{"key":"03154028","name":"Helmstedt, Stadt","type":"Stadt"},"district":{"key":"03154","name":"Helmstedt","type":"Landkreis"},"federalState":{"key":"03","name":"Niedersachsen"}},{"name":"Mosheimstr.","postalCode":"38350","locality":"Helmstedt","municipality":{"key":"03154028","name":"Helmstedt, Stadt","type":"Stadt"},"district":{"key":"03154","name":"Helmstedt","type":"Landkreis"},"federalState":{"key":"03","name":"Niedersachsen"}},{"name":"Mozartstr.","postalCode":"38350","locality":"Helmstedt","municipality":{"key":"03154028","name":"Helmstedt, Stadt","type":"Stadt"},"district":{"key":"03154","name":"Helmstedt","type":"Landkreis"},"federalState":{"key":"03","name":"Niedersachsen"}},{"name":"Mühlgraben","postalCode":"38350","locality":"Helmstedt","municipality":{"key":"03154028","name":"Helmstedt, Stadt","type":"Stadt"},"district":{"key":"03154","name":"Helmstedt","type":"Landkreis"},"federalState":{"key":"03","name":"Niedersachsen"}},{"name":"Naumburger Str.","postalCode":"38350","locality":"Helmstedt","municipality":{"key":"03154028","name":"Helmstedt, Stadt","type":"Stadt"},"district":{"key":"03154","name":"Helmstedt","type":"Landkreis"},"federalState":{"key":"03","name":"Niedersachsen"}},{"name":"Neißestr.","postalCode":"38350","locality":"Helmstedt","municipality":{"key":"03154028","name":"Helmstedt, Stadt","type":"Stadt"},"district":{"key":"03154","name":"Helmstedt","type":"Landkreis"},"federalState":{"key":"03","name":"Niedersachsen"}},{"name":"Neue Siedlung","postalCode":"38350","locality":"Helmstedt","municipality":{"key":"03154028","name":"Helmstedt, Stadt","type":"Stadt"},"district":{"key":"03154","name":"Helmstedt","type":"Landkreis"},"federalState":{"key":"03","name":"Niedersachsen"}},{"name":"Neue Str.","postalCode":"38350","locality":"Helmstedt","municipality":{"key":"03154028","name":"Helmstedt, Stadt","type":"Stadt"},"district":{"key":"03154","name":"Helmstedt","type":"Landkreis"},"federalState":{"key":"03","name":"Niedersachsen"}},{"name":"Nonnenstieg","postalCode":"38350","locality":"Helmstedt","municipality":{"key":"03154028","name":"Helmstedt, Stadt","type":"Stadt"},"district":{"key":"03154","name":"Helmstedt","type":"Landkreis"},"federalState":{"key":"03","name":"Niedersachsen"}},{"name":"Nordertor","postalCode":"38350","locality":"Helmstedt","municipality":{"key":"03154028","name":"Helmstedt, Stadt","type":"Stadt"},"district":{"key":"03154","name":"Helmstedt","type":"Landkreis"},"federalState":{"key":"03","name":"Niedersachsen"}},{"name":"Nordstr.","postalCode":"38350","locality":"Helmstedt","municipality":{"key":"03154028","name":"Helmstedt, Stadt","type":"Stadt"},"district":{"key":"03154","name":"Helmstedt","type":"Landkreis"},"federalState":{"key":"03","name":"Niedersachsen"}},{"name":"Northamweg","postalCode":"38372","locality":"Helmstedt","municipality":{"key":"03154028","name":"Helmstedt, Stadt","type":"Stadt"},"district":{"key":"03154","name":"Helmstedt","type":"Landkreis"},"federalState":{"key":"03","name":"Niedersachsen"}},{"name":"Oderring","postalCode":"38350","locality":"Helmstedt","municipality":{"key":"03154028","name":"Helmstedt, Stadt","type":"Stadt"},"district":{"key":"03154","name":"Helmstedt","type":"Landkreis"},"federalState":{"key":"03","name":"Niedersachsen"}},{"name":"Ofeldblick","postalCode":"38350","locality":"Helmstedt","municipality":{"key":"03154028","name":"Helmstedt, Stadt","type":"Stadt"},"district":{"key":"03154","name":"Helmstedt","type":"Landkreis"},"federalState":{"key":"03","name":"Niedersachsen"}},{"name":"Ostendorf","postalCode":"38350","locality":"Helmstedt","municipality":{"key":"03154028","name":"Helmstedt, Stadt","type":"Stadt"},"district":{"key":"03154","name":"Helmstedt","type":"Landkreis"},"federalState":{"key":"03","name":"Niedersachsen"}},{"name":"Oststr.","postalCode":"38372","locality":"Helmstedt","municipality":{"key":"03154028","name":"Helmstedt, Stadt","type":"Stadt"},"district":{"key":"03154","name":"Helmstedt","type":"Landkreis"},"federalState":{"key":"03","name":"Niedersachsen"}},{"name":"Papenberg","postalCode":"38350","locality":"Helmstedt","municipality":{"key":"03154028","name":"Helmstedt, Stadt","type":"Stadt"},"district":{"key":"03154","name":"Helmstedt","type":"Landkreis"},"federalState":{"key":"03","name":"Niedersachsen"}},{"name":"Parkstr.","postalCode":"38350","locality":"Helmstedt","municipality":{"key":"03154028","name":"Helmstedt, Stadt","type":"Stadt"},"district":{"key":"03154","name":"Helmstedt","type":"Landkreis"},"federalState":{"key":"03","name":"Niedersachsen"}},{"name":"Pastorenweg","postalCode":"38350","locality":"Helmstedt","municipality":{"key":"03154028","name":"Helmstedt, Stadt","type":"Stadt"},"district":{"key":"03154","name":"Helmstedt","type":"Landkreis"},"federalState":{"key":"03","name":"Niedersachsen"}},{"name":"Paulskamp","postalCode":"38350","locality":"Helmstedt","municipality":{"key":"03154028","name":"Helmstedt, Stadt","type":"Stadt"},"district":{"key":"03154","name":"Helmstedt","type":"Landkreis"},"federalState":{"key":"03","name":"Niedersachsen"}},{"name":"Pestalozzistr.","postalCode":"38350","locality":"Helmstedt","municipality":{"key":"03154028","name":"Helmstedt, Stadt","type":"Stadt"},"district":{"key":"03154","name":"Helmstedt","type":"Landkreis"},"federalState":{"key":"03","name":"Niedersachsen"}},{"name":"Pilgergasse","postalCode":"38350","locality":"Helmstedt","municipality":{"key":"03154028","name":"Helmstedt, Stadt","type":"Stadt"},"district":{"key":"03154","name":"Helmstedt","type":"Landkreis"},"federalState":{"key":"03","name":"Niedersachsen"}},{"name":"Porschestr.","postalCode":"38350","locality":"Helmstedt","municipality":{"key":"03154028","name":"Helmstedt, Stadt","type":"Stadt"},"district":{"key":"03154","name":"Helmstedt","type":"Landkreis"},"federalState":{"key":"03","name":"Niedersachsen"}},{"name":"Poststr.","postalCode":"38350","locality":"Helmstedt","municipality":{"key":"03154028","name":"Helmstedt, Stadt","type":"Stadt"},"district":{"key":"03154","name":"Helmstedt","type":"Landkreis"},"federalState":{"key":"03","name":"Niedersachsen"}},{"name":"Poststr.","postalCode":"38372","locality":"Helmstedt","municipality":{"key":"03154028","name":"Helmstedt, Stadt","type":"Stadt"},"district":{"key":"03154","name":"Helmstedt","type":"Landkreis"},"federalState":{"key":"03","name":"Niedersachsen"}},{"name":"Pottkuhlenweg","postalCode":"38350","locality":"Helmstedt","municipality":{"key":"03154028","name":"Helmstedt, Stadt","type":"Stadt"},"district":{"key":"03154","name":"Helmstedt","type":"Landkreis"},"federalState":{"key":"03","name":"Niedersachsen"}},{"name":"Prenzlauer Str.","postalCode":"38350","locality":"Helmstedt","municipality":{"key":"03154028","name":"Helmstedt, Stadt","type":"Stadt"},"district":{"key":"03154","name":"Helmstedt","type":"Landkreis"},"federalState":{"key":"03","name":"Niedersachsen"}},{"name":"Privatstr.","postalCode":"38350","locality":"Helmstedt","municipality":{"key":"03154028","name":"Helmstedt, Stadt","type":"Stadt"},"district":{"key":"03154","name":"Helmstedt","type":"Landkreis"},"federalState":{"key":"03","name":"Niedersachsen"}},{"name":"Querstr.","postalCode":"38350","locality":"Helmstedt","municipality":{"key":"03154028","name":"Helmstedt, Stadt","type":"Stadt"},"district":{"key":"03154","name":"Helmstedt","type":"Landkreis"},"federalState":{"key":"03","name":"Niedersachsen"}},{"name":"Quittenweg","postalCode":"38350","locality":"Helmstedt","municipality":{"key":"03154028","name":"Helmstedt, Stadt","type":"Stadt"},"district":{"key":"03154","name":"Helmstedt","type":"Landkreis"},"federalState":{"key":"03","name":"Niedersachsen"}},{"name":"Raabestr.","postalCode":"38350","locality":"Helmstedt","municipality":{"key":"03154028","name":"Helmstedt, Stadt","type":"Stadt"},"district":{"key":"03154","name":"Helmstedt","type":"Landkreis"},"federalState":{"key":"03","name":"Niedersachsen"}},{"name":"Rathausplatz","postalCode":"38372","locality":"Helmstedt","municipality":{"key":"03154028","name":"Helmstedt, Stadt","type":"Stadt"},"district":{"key":"03154","name":"Helmstedt","type":"Landkreis"},"federalState":{"key":"03","name":"Niedersachsen"}},{"name":"Rebhuhnweg","postalCode":"38350","locality":"Helmstedt","municipality":{"key":"03154028","name":"Helmstedt, Stadt","type":"Stadt"},"district":{"key":"03154","name":"Helmstedt","type":"Landkreis"},"federalState":{"key":"03","name":"Niedersachsen"}},{"name":"Reichenberger Str.","postalCode":"38350","locality":"Helmstedt","municipality":{"key":"03154028","name":"Helmstedt, Stadt","type":"Stadt"},"district":{"key":"03154","name":"Helmstedt","type":"Landkreis"},"federalState":{"key":"03","name":"Niedersachsen"}},{"name":"Rembrandtstr.","postalCode":"38350","locality":"Helmstedt","municipality":{"key":"03154028","name":"Helmstedt, Stadt","type":"Stadt"},"district":{"key":"03154","name":"Helmstedt","type":"Landkreis"},"federalState":{"key":"03","name":"Niedersachsen"}},{"name":"Rennauer Str.","postalCode":"38350","locality":"Helmstedt","municipality":{"key":"03154028","name":"Helmstedt, Stadt","type":"Stadt"},"district":{"key":"03154","name":"Helmstedt","type":"Landkreis"},"federalState":{"key":"03","name":"Niedersachsen"}},{"name":"Richard-Wagner-Platz","postalCode":"38350","locality":"Helmstedt","municipality":{"key":"03154028","name":"Helmstedt, Stadt","type":"Stadt"},"district":{"key":"03154","name":"Helmstedt","type":"Landkreis"},"federalState":{"key":"03","name":"Niedersachsen"}},{"name":"Richard-Wagner-Str.","postalCode":"38350","locality":"Helmstedt","municipality":{"key":"03154028","name":"Helmstedt, Stadt","type":"Stadt"},"district":{"key":"03154","name":"Helmstedt","type":"Landkreis"},"federalState":{"key":"03","name":"Niedersachsen"}},{"name":"Ringstr.","postalCode":"38372","locality":"Helmstedt","municipality":{"key":"03154028","name":"Helmstedt, Stadt","type":"Stadt"},"district":{"key":"03154","name":"Helmstedt","type":"Landkreis"},"federalState":{"key":"03","name":"Niedersachsen"}},{"name":"Ritterstr.","postalCode":"38350","locality":"Helmstedt","municipality":{"key":"03154028","name":"Helmstedt, Stadt","type":"Stadt"},"district":{"key":"03154","name":"Helmstedt","type":"Landkreis"},"federalState":{"key":"03","name":"Niedersachsen"}},{"name":"Rosengarten","postalCode":"38350","locality":"Helmstedt","municipality":{"key":"03154028","name":"Helmstedt, Stadt","type":"Stadt"},"district":{"key":"03154","name":"Helmstedt","type":"Landkreis"},"federalState":{"key":"03","name":"Niedersachsen"}},{"name":"Rosenweg","postalCode":"38350","locality":"Helmstedt","municipality":{"key":"03154028","name":"Helmstedt, Stadt","type":"Stadt"},"district":{"key":"03154","name":"Helmstedt","type":"Landkreis"},"federalState":{"key":"03","name":"Niedersachsen"}},{"name":"Rosenwinkel","postalCode":"38350","locality":"Helmstedt","municipality":{"key":"03154028","name":"Helmstedt, Stadt","type":"Stadt"},"district":{"key":"03154","name":"Helmstedt","type":"Landkreis"},"federalState":{"key":"03","name":"Niedersachsen"}},{"name":"Rosenwinkel","postalCode":"38372","locality":"Helmstedt","municipality":{"key":"03154028","name":"Helmstedt, Stadt","type":"Stadt"},"district":{"key":"03154","name":"Helmstedt","type":"Landkreis"},"federalState":{"key":"03","name":"Niedersachsen"}},{"name":"Rosmarinstr.","postalCode":"38350","locality":"Helmstedt","municipality":{"key":"03154028","name":"Helmstedt, Stadt","type":"Stadt"},"district":{"key":"03154","name":"Helmstedt","type":"Landkreis"},"federalState":{"key":"03","name":"Niedersachsen"}},{"name":"Roßstr.","postalCode":"38350","locality":"Helmstedt","municipality":{"key":"03154028","name":"Helmstedt, Stadt","type":"Stadt"},"district":{"key":"03154","name":"Helmstedt","type":"Landkreis"},"federalState":{"key":"03","name":"Niedersachsen"}},{"name":"Rostocker Str.","postalCode":"38350","locality":"Helmstedt","municipality":{"key":"03154028","name":"Helmstedt, Stadt","type":"Stadt"},"district":{"key":"03154","name":"Helmstedt","type":"Landkreis"},"federalState":{"key":"03","name":"Niedersachsen"}},{"name":"Roter Torweg","postalCode":"38350","locality":"Helmstedt","municipality":{"key":"03154028","name":"Helmstedt, Stadt","type":"Stadt"},"district":{"key":"03154","name":"Helmstedt","type":"Landkreis"},"federalState":{"key":"03","name":"Niedersachsen"}},{"name":"Rottenweg","postalCode":"38350","locality":"Helmstedt","municipality":{"key":"03154028","name":"Helmstedt, Stadt","type":"Stadt"},"district":{"key":"03154","name":"Helmstedt","type":"Landkreis"},"federalState":{"key":"03","name":"Niedersachsen"}},{"name":"Rundweg","postalCode":"38350","locality":"Helmstedt","municipality":{"key":"03154028","name":"Helmstedt, Stadt","type":"Stadt"},"district":{"key":"03154","name":"Helmstedt","type":"Landkreis"},"federalState":{"key":"03","name":"Niedersachsen"}},{"name":"Runstedter Str.","postalCode":"38350","locality":"Helmstedt","municipality":{"key":"03154028","name":"Helmstedt, Stadt","type":"Stadt"},"district":{"key":"03154","name":"Helmstedt","type":"Landkreis"},"federalState":{"key":"03","name":"Niedersachsen"}},{"name":"Schunterquelle","postalCode":"38154","locality":"Brunsleberfeld","municipality":{"key":"03154501","name":"Brunsleberfeld, gemfr. Gebiet","type":"Gemeindefreies_Gebiet_Unbewohnt"},"district":{"key":"03154","name":"Helmstedt","type":"Landkreis"},"federalState":{"key":"03","name":"Niedersachsen"}},{"name":"Tangermühlenweg","postalCode":"38350","locality":"Helmstedt","municipality":{"key":"03154028","name":"Helmstedt, Stadt","type":"Stadt"},"district":{"key":"03154","name":"Helmstedt","type":"Landkreis"},"federalState":{"key":"03","name":"Niedersachsen"}},{"name":"Teichstr.","postalCode":"38350","locality":"Helmstedt","municipality":{"key":"03154028","name":"Helmstedt, Stadt","type":"Stadt"},"district":{"key":"03154","name":"Helmstedt","type":"Landkreis"},"federalState":{"key":"03","name":"Niedersachsen"}},{"name":"Theodor-Storm-Weg","postalCode":"38350","locality":"Helmstedt","municipality":{"key":"03154028","name":"Helmstedt, Stadt","type":"Stadt"},"district":{"key":"03154","name":"Helmstedt","type":"Landkreis"},"federalState":{"key":"03","name":"Niedersachsen"}},{"name":"Thomas-Mann-Str.","postalCode":"38350","locality":"Helmstedt","municipality":{"key":"03154028","name":"Helmstedt, Stadt","type":"Stadt"},"district":{"key":"03154","name":"Helmstedt","type":"Landkreis"},"federalState":{"key":"03","name":"Niedersachsen"}},{"name":"Tilsiter Str.","postalCode":"38350","locality":"Helmstedt","municipality":{"key":"03154028","name":"Helmstedt, Stadt","type":"Stadt"},"district":{"key":"03154","name":"Helmstedt","type":"Landkreis"},"federalState":{"key":"03","name":"Niedersachsen"}},{"name":"Tonwerke","postalCode":"38350","locality":"Helmstedt","municipality":{"key":"03154028","name":"Helmstedt, Stadt","type":"Stadt"},"district":{"key":"03154","name":"Helmstedt","type":"Landkreis"},"federalState":{"key":"03","name":"Niedersachsen"}},{"name":"Triftweg","postalCode":"38350","locality":"Helmstedt","municipality":{"key":"03154028","name":"Helmstedt, Stadt","type":"Stadt"},"district":{"key":"03154","name":"Helmstedt","type":"Landkreis"},"federalState":{"key":"03","name":"Niedersachsen"}},{"name":"Triftweg","postalCode":"38372","locality":"Helmstedt","municipality":{"key":"03154028","name":"Helmstedt, Stadt","type":"Stadt"},"district":{"key":"03154","name":"Helmstedt","type":"Landkreis"},"federalState":{"key":"03","name":"Niedersachsen"}},{"name":"Turmweg","postalCode":"38350","locality":"Helmstedt","municipality":{"key":"03154028","name":"Helmstedt, Stadt","type":"Stadt"},"district":{"key":"03154","name":"Helmstedt","type":"Landkreis"},"federalState":{"key":"03","name":"Niedersachsen"}},{"name":"Twete","postalCode":"38350","locality":"Helmstedt","municipality":{"key":"03154028","name":"Helmstedt, Stadt","type":"Stadt"},"district":{"key":"03154","name":"Helmstedt","type":"Landkreis"},"federalState":{"key":"03","name":"Niedersachsen"}},{"name":"Virchowweg","postalCode":"38350","locality":"Helmstedt","municipality":{"key":"03154028","name":"Helmstedt, Stadt","type":"Stadt"},"district":{"key":"03154","name":"Helmstedt","type":"Landkreis"},"federalState":{"key":"03","name":"Niedersachsen"}},{"name":"Vitréstr.","postalCode":"38350","locality":"Helmstedt","municipality":{"key":"03154028","name":"Helmstedt, Stadt","type":"Stadt"},"district":{"key":"03154","name":"Helmstedt","type":"Landkreis"},"federalState":{"key":"03","name":"Niedersachsen"}},{"name":"Voigtweg","postalCode":"38350","locality":"Helmstedt","municipality":{"key":"03154028","name":"Helmstedt, Stadt","type":"Stadt"},"district":{"key":"03154","name":"Helmstedt","type":"Landkreis"},"federalState":{"key":"03","name":"Niedersachsen"}},{"name":"Von-Guericke-Str.","postalCode":"38350","locality":"Helmstedt","municipality":{"key":"03154028","name":"Helmstedt, Stadt","type":"Stadt"},"district":{"key":"03154","name":"Helmstedt","type":"Landkreis"},"federalState":{"key":"03","name":"Niedersachsen"}},{"name":"Vorsfelder Str.","postalCode":"38350","locality":"Helmstedt","municipality":{"key":"03154028","name":"Helmstedt, Stadt","type":"Stadt"},"district":{"key":"03154","name":"Helmstedt","type":"Landkreis"},"federalState":{"key":"03","name":"Niedersachsen"}},{"name":"Wabenweg","postalCode":"38350","locality":"Helmstedt","municipality":{"key":"03154028","name":"Helmstedt, Stadt","type":"Stadt"},"district":{"key":"03154","name":"Helmstedt","type":"Landkreis"},"federalState":{"key":"03","name":"Niedersachsen"}},{"name":"Wachtkamp","postalCode":"38350","locality":"Helmstedt","municipality":{"key":"03154028","name":"Helmstedt, Stadt","type":"Stadt"},"district":{"key":"03154","name":"Helmstedt","type":"Landkreis"},"federalState":{"key":"03","name":"Niedersachsen"}},{"name":"Walbecker Str.","postalCode":"38350","locality":"Helmstedt","municipality":{"key":"03154028","name":"Helmstedt, Stadt","type":"Stadt"},"district":{"key":"03154","name":"Helmstedt","type":"Landkreis"},"federalState":{"key":"03","name":"Niedersachsen"}},{"name":"Waldenburger Str.","postalCode":"38350","locality":"Helmstedt","municipality":{"key":"03154028","name":"Helmstedt, Stadt","type":"Stadt"},"district":{"key":"03154","name":"Helmstedt","type":"Landkreis"},"federalState":{"key":"03","name":"Niedersachsen"}},{"name":"Wallgarten","postalCode":"38350","locality":"Helmstedt","municipality":{"key":"03154028","name":"Helmstedt, Stadt","type":"Stadt"},"district":{"key":"03154","name":"Helmstedt","type":"Landkreis"},"federalState":{"key":"03","name":"Niedersachsen"}},{"name":"Wallgasse","postalCode":"38350","locality":"Helmstedt","municipality":{"key":"03154028","name":"Helmstedt, Stadt","type":"Stadt"},"district":{"key":"03154","name":"Helmstedt","type":"Landkreis"},"federalState":{"key":"03","name":"Niedersachsen"}},{"name":"Wallhof","postalCode":"38350","locality":"Helmstedt","municipality":{"key":"03154028","name":"Helmstedt, Stadt","type":"Stadt"},"district":{"key":"03154","name":"Helmstedt","type":"Landkreis"},"federalState":{"key":"03","name":"Niedersachsen"}},{"name":"Wallplatz","postalCode":"38350","locality":"Helmstedt","municipality":{"key":"03154028","name":"Helmstedt, Stadt","type":"Stadt"},"district":{"key":"03154","name":"Helmstedt","type":"Landkreis"},"federalState":{"key":"03","name":"Niedersachsen"}},{"name":"Walpurgiskirchhof","postalCode":"38350","locality":"Helmstedt","municipality":{"key":"03154028","name":"Helmstedt, Stadt","type":"Stadt"},"district":{"key":"03154","name":"Helmstedt","type":"Landkreis"},"federalState":{"key":"03","name":"Niedersachsen"}},{"name":"Walpurgisstr.","postalCode":"38350","locality":"Helmstedt","municipality":{"key":"03154028","name":"Helmstedt, Stadt","type":"Stadt"},"district":{"key":"03154","name":"Helmstedt","type":"Landkreis"},"federalState":{"key":"03","name":"Niedersachsen"}},{"name":"Weichselstr.","postalCode":"38350","locality":"Helmstedt","municipality":{"key":"03154028","name":"Helmstedt, Stadt","type":"Stadt"},"district":{"key":"03154","name":"Helmstedt","type":"Landkreis"},"federalState":{"key":"03","name":"Niedersachsen"}},{"name":"Weidenkampstr.","postalCode":"38350","locality":"Helmstedt","municipality":{"key":"03154028","name":"Helmstedt, Stadt","type":"Stadt"},"district":{"key":"03154","name":"Helmstedt","type":"Landkreis"},"federalState":{"key":"03","name":"Niedersachsen"}},{"name":"Weimarer Str.","postalCode":"38350","locality":"Helmstedt","municipality":{"key":"03154028","name":"Helmstedt, Stadt","type":"Stadt"},"district":{"key":"03154","name":"Helmstedt","type":"Landkreis"},"federalState":{"key":"03","name":"Niedersachsen"}},{"name":"Weinbergstr.","postalCode":"38350","locality":"Helmstedt","municipality":{"key":"03154028","name":"Helmstedt, Stadt","type":"Stadt"},"district":{"key":"03154","name":"Helmstedt","type":"Landkreis"},"federalState":{"key":"03","name":"Niedersachsen"}},{"name":"Werner-von-Siemens-Str.","postalCode":"38350","locality":"Helmstedt","municipality":{"key":"03154028","name":"Helmstedt, Stadt","type":"Stadt"},"district":{"key":"03154","name":"Helmstedt","type":"Landkreis"},"federalState":{"key":"03","name":"Niedersachsen"}},{"name":"Westendorf","postalCode":"38372","locality":"Helmstedt","municipality":{"key":"03154028","name":"Helmstedt, Stadt","type":"Stadt"},"district":{"key":"03154","name":"Helmstedt","type":"Landkreis"},"federalState":{"key":"03","name":"Niedersachsen"}},{"name":"Wiesenstr.","postalCode":"38350","locality":"Helmstedt","municipality":{"key":"03154028","name":"Helmstedt, Stadt","type":"Stadt"},"district":{"key":"03154","name":"Helmstedt","type":"Landkreis"},"federalState":{"key":"03","name":"Niedersachsen"}},{"name":"Wiesenweg","postalCode":"38372","locality":"Helmstedt","municipality":{"key":"03154028","name":"Helmstedt, Stadt","type":"Stadt"},"district":{"key":"03154","name":"Helmstedt","type":"Landkreis"},"federalState":{"key":"03","name":"Niedersachsen"}},{"name":"Wilhelm-Busch-Str.","postalCode":"38350","locality":"Helmstedt","municipality":{"key":"03154028","name":"Helmstedt, Stadt","type":"Stadt"},"district":{"key":"03154","name":"Helmstedt","type":"Landkreis"},"federalState":{"key":"03","name":"Niedersachsen"}},{"name":"Wilhelm-Raabe-Str.","postalCode":"38372","locality":"Helmstedt","municipality":{"key":"03154028","name":"Helmstedt, Stadt","type":"Stadt"},"district":{"key":"03154","name":"Helmstedt","type":"Landkreis"},"federalState":{"key":"03","name":"Niedersachsen"}},{"name":"Wilhelmstr.","postalCode":"38350","locality":"Helmstedt","municipality":{"key":"03154028","name":"Helmstedt, Stadt","type":"Stadt"},"district":{"key":"03154","name":"Helmstedt","type":"Landkreis"},"federalState":{"key":"03","name":"Niedersachsen"}},{"name":"Willy-Brandt-Ring","postalCode":"38350","locality":"Helmstedt","municipality":{"key":"03154028","name":"Helmstedt, Stadt","type":"Stadt"},"district":{"key":"03154","name":"Helmstedt","type":"Landkreis"},"federalState":{"key":"03","name":"Niedersachsen"}},{"name":"Winkel","postalCode":"38372","locality":"Helmstedt","municipality":{"key":"03154028","name":"Helmstedt, Stadt","type":"Stadt"},"district":{"key":"03154","name":"Helmstedt","type":"Landkreis"},"federalState":{"key":"03","name":"Niedersachsen"}},{"name":"Wismarer Str.","postalCode":"38350","locality":"Helmstedt","municipality":{"key":"03154028","name":"Helmstedt, Stadt","type":"Stadt"},"district":{"key":"03154","name":"Helmstedt","type":"Landkreis"},"federalState":{"key":"03","name":"Niedersachsen"}},{"name":"Wittenberger Str.","postalCode":"38350","locality":"Helmstedt","municipality":{"key":"03154028","name":"Helmstedt, Stadt","type":"Stadt"},"district":{"key":"03154","name":"Helmstedt","type":"Landkreis"},"federalState":{"key":"03","name":"Niedersachsen"}},{"name":"Wohldamm","postalCode":"38350","locality":"Helmstedt","municipality":{"key":"03154028","name":"Helmstedt, Stadt","type":"Stadt"},"district":{"key":"03154","name":"Helmstedt","type":"Landkreis"},"federalState":{"key":"03","name":"Niedersachsen"}},{"name":"Wulfersdorfer Str.","postalCode":"38372","locality":"Helmstedt","municipality":{"key":"03154028","name":"Helmstedt, Stadt","type":"Stadt"},"district":{"key":"03154","name":"Helmstedt","type":"Landkreis"},"federalState":{"key":"03","name":"Niedersachsen"}},{"name":"Ziegelstr.","postalCode":"38350","locality":"Helmstedt","municipality":{"key":"03154028","name":"Helmstedt, Stadt","type":"Stadt"},"district":{"key":"03154","name":"Helmstedt","type":"Landkreis"},"federalState":{"key":"03","name":"Niedersachsen"}},{"name":"Ziegenmarkt","postalCode":"38350","locality":"Helmstedt","municipality":{"key":"03154028","name":"Helmstedt, Stadt","type":"Stadt"},"district":{"key":"03154","name":"Helmstedt","type":"Landkreis"},"federalState":{"key":"03","name":"Niedersachsen"}},{"name":"Zuckerfabrik","postalCode":"38372","locality":"Helmstedt","municipality":{"key":"03154028","name":"Helmstedt, Stadt","type":"Stadt"},"district":{"key":"03154","name":"Helmstedt","type":"Landkreis"},"federalState":{"key":"03","name":"Niedersachsen"}},{"name":"Zum Stüh","postalCode":"38350","locality":"Helmstedt","municipality":{"key":"03154028","name":"Helmstedt, Stadt","type":"Stadt"},"district":{"key":"03154","name":"Helmstedt","type":"Landkreis"},"federalState":{"key":"03","name":"Niedersachsen"}},{"name":"Zur Neuen Breite","postalCode":"38350","locality":"Helmstedt","municipality":{"key":"03154028","name":"Helmstedt, Stadt","type":"Stadt"},"district":{"key":"03154","name":"Helmstedt","type":"Landkreis"},"federalState":{"key":"03","name":"Niedersachsen"}},{"name":"Zwickauer Str.","postalCode":"38350","locality":"Helmstedt","municipality":{"key":"03154028","name":"Helmstedt, Stadt","type":"Stadt"},"district":{"key":"03154","name":"Helmstedt","type":"Landkreis"},"federalState":{"key":"03","name":"Niedersachsen"}},]