[{"name":"Alte Hauptstr.","postalCode":"04519","locality":"Rackwitz","municipality":{"key":"14730250","name":"Rackwitz","type":"Kreisangehörige_Gemeinde"},"district":{"key":"14730","name":"Nordsachsen","type":"Landkreis"},"federalState":{"key":"14","name":"Sachsen"}},{"name":"Am Anger","postalCode":"04519","locality":"Rackwitz","municipality":{"key":"14730250","name":"Rackwitz","type":"Kreisangehörige_Gemeinde"},"district":{"key":"14730","name":"Nordsachsen","type":"Landkreis"},"federalState":{"key":"14","name":"Sachsen"}},{"name":"Am Bahnhof","postalCode":"04519","locality":"Rackwitz","municipality":{"key":"14730250","name":"Rackwitz","type":"Kreisangehörige_Gemeinde"},"district":{"key":"14730","name":"Nordsachsen","type":"Landkreis"},"federalState":{"key":"14","name":"Sachsen"}},{"name":"Am Dorfanger","postalCode":"04519","locality":"Rackwitz","municipality":{"key":"14730250","name":"Rackwitz","type":"Kreisangehörige_Gemeinde"},"district":{"key":"14730","name":"Nordsachsen","type":"Landkreis"},"federalState":{"key":"14","name":"Sachsen"}},{"name":"Am Dorfteich","postalCode":"04519","locality":"Rackwitz","municipality":{"key":"14730250","name":"Rackwitz","type":"Kreisangehörige_Gemeinde"},"district":{"key":"14730","name":"Nordsachsen","type":"Landkreis"},"federalState":{"key":"14","name":"Sachsen"}},{"name":"Am Kirchweg","postalCode":"04519","locality":"Rackwitz","municipality":{"key":"14730250","name":"Rackwitz","type":"Kreisangehörige_Gemeinde"},"district":{"key":"14730","name":"Nordsachsen","type":"Landkreis"},"federalState":{"key":"14","name":"Sachsen"}},{"name":"Am Teich","postalCode":"04519","locality":"Rackwitz","municipality":{"key":"14730250","name":"Rackwitz","type":"Kreisangehörige_Gemeinde"},"district":{"key":"14730","name":"Nordsachsen","type":"Landkreis"},"federalState":{"key":"14","name":"Sachsen"}},{"name":"Am Untergut","postalCode":"04519","locality":"Rackwitz","municipality":{"key":"14730250","name":"Rackwitz","type":"Kreisangehörige_Gemeinde"},"district":{"key":"14730","name":"Nordsachsen","type":"Landkreis"},"federalState":{"key":"14","name":"Sachsen"}},{"name":"Anna-Barbara-Gross-Str.","postalCode":"04519","locality":"Rackwitz","municipality":{"key":"14730250","name":"Rackwitz","type":"Kreisangehörige_Gemeinde"},"district":{"key":"14730","name":"Nordsachsen","type":"Landkreis"},"federalState":{"key":"14","name":"Sachsen"}},{"name":"Biesener Dorfplatz","postalCode":"04519","locality":"Rackwitz","municipality":{"key":"14730250","name":"Rackwitz","type":"Kreisangehörige_Gemeinde"},"district":{"key":"14730","name":"Nordsachsen","type":"Landkreis"},"federalState":{"key":"14","name":"Sachsen"}},{"name":"Biesener Ring","postalCode":"04519","locality":"Rackwitz","municipality":{"key":"14730250","name":"Rackwitz","type":"Kreisangehörige_Gemeinde"},"district":{"key":"14730","name":"Nordsachsen","type":"Landkreis"},"federalState":{"key":"14","name":"Sachsen"}},{"name":"Biesener Str.","postalCode":"04519","locality":"Rackwitz","municipality":{"key":"14730250","name":"Rackwitz","type":"Kreisangehörige_Gemeinde"},"district":{"key":"14730","name":"Nordsachsen","type":"Landkreis"},"federalState":{"key":"14","name":"Sachsen"}},{"name":"Böttcherstr.","postalCode":"04519","locality":"Rackwitz","municipality":{"key":"14730250","name":"Rackwitz","type":"Kreisangehörige_Gemeinde"},"district":{"key":"14730","name":"Nordsachsen","type":"Landkreis"},"federalState":{"key":"14","name":"Sachsen"}},{"name":"Breitenfelder Weg","postalCode":"04519","locality":"Rackwitz","municipality":{"key":"14730250","name":"Rackwitz","type":"Kreisangehörige_Gemeinde"},"district":{"key":"14730","name":"Nordsachsen","type":"Landkreis"},"federalState":{"key":"14","name":"Sachsen"}},{"name":"Brodenaundorfer Str.","postalCode":"04519","locality":"Rackwitz","municipality":{"key":"14730250","name":"Rackwitz","type":"Kreisangehörige_Gemeinde"},"district":{"key":"14730","name":"Nordsachsen","type":"Landkreis"},"federalState":{"key":"14","name":"Sachsen"}},{"name":"Buchenwalder Str.","postalCode":"04519","locality":"Rackwitz","municipality":{"key":"14730250","name":"Rackwitz","type":"Kreisangehörige_Gemeinde"},"district":{"key":"14730","name":"Nordsachsen","type":"Landkreis"},"federalState":{"key":"14","name":"Sachsen"}},{"name":"Buschenauer Str.","postalCode":"04519","locality":"Rackwitz","municipality":{"key":"14730250","name":"Rackwitz","type":"Kreisangehörige_Gemeinde"},"district":{"key":"14730","name":"Nordsachsen","type":"Landkreis"},"federalState":{"key":"14","name":"Sachsen"}},{"name":"Clara-Fechner-Str.","postalCode":"04519","locality":"Rackwitz","municipality":{"key":"14730250","name":"Rackwitz","type":"Kreisangehörige_Gemeinde"},"district":{"key":"14730","name":"Nordsachsen","type":"Landkreis"},"federalState":{"key":"14","name":"Sachsen"}},{"name":"Delitzscher Str.","postalCode":"04519","locality":"Rackwitz","municipality":{"key":"14730250","name":"Rackwitz","type":"Kreisangehörige_Gemeinde"},"district":{"key":"14730","name":"Nordsachsen","type":"Landkreis"},"federalState":{"key":"14","name":"Sachsen"}},{"name":"Dorfplatz","postalCode":"04519","locality":"Rackwitz","municipality":{"key":"14730250","name":"Rackwitz","type":"Kreisangehörige_Gemeinde"},"district":{"key":"14730","name":"Nordsachsen","type":"Landkreis"},"federalState":{"key":"14","name":"Sachsen"}},{"name":"Eilenburger Chaussee","postalCode":"04519","locality":"Rackwitz","municipality":{"key":"14730250","name":"Rackwitz","type":"Kreisangehörige_Gemeinde"},"district":{"key":"14730","name":"Nordsachsen","type":"Landkreis"},"federalState":{"key":"14","name":"Sachsen"}},{"name":"Eilenburger Str.","postalCode":"04519","locality":"Rackwitz","municipality":{"key":"14730250","name":"Rackwitz","type":"Kreisangehörige_Gemeinde"},"district":{"key":"14730","name":"Nordsachsen","type":"Landkreis"},"federalState":{"key":"14","name":"Sachsen"}},{"name":"Emil-Gumpel-Str.","postalCode":"04519","locality":"Rackwitz","municipality":{"key":"14730250","name":"Rackwitz","type":"Kreisangehörige_Gemeinde"},"district":{"key":"14730","name":"Nordsachsen","type":"Landkreis"},"federalState":{"key":"14","name":"Sachsen"}},{"name":"Erlenweg","postalCode":"04519","locality":"Rackwitz","municipality":{"key":"14730250","name":"Rackwitz","type":"Kreisangehörige_Gemeinde"},"district":{"key":"14730","name":"Nordsachsen","type":"Landkreis"},"federalState":{"key":"14","name":"Sachsen"}},{"name":"F.E.-von-Busse-Str.","postalCode":"04519","locality":"Rackwitz","municipality":{"key":"14730250","name":"Rackwitz","type":"Kreisangehörige_Gemeinde"},"district":{"key":"14730","name":"Nordsachsen","type":"Landkreis"},"federalState":{"key":"14","name":"Sachsen"}},{"name":"Friedenssiedlung","postalCode":"04519","locality":"Rackwitz","municipality":{"key":"14730250","name":"Rackwitz","type":"Kreisangehörige_Gemeinde"},"district":{"key":"14730","name":"Nordsachsen","type":"Landkreis"},"federalState":{"key":"14","name":"Sachsen"}},{"name":"Friedensstr.","postalCode":"04519","locality":"Rackwitz","municipality":{"key":"14730250","name":"Rackwitz","type":"Kreisangehörige_Gemeinde"},"district":{"key":"14730","name":"Nordsachsen","type":"Landkreis"},"federalState":{"key":"14","name":"Sachsen"}},{"name":"Gartenweg","postalCode":"04519","locality":"Rackwitz","municipality":{"key":"14730250","name":"Rackwitz","type":"Kreisangehörige_Gemeinde"},"district":{"key":"14730","name":"Nordsachsen","type":"Landkreis"},"federalState":{"key":"14","name":"Sachsen"}},{"name":"Gertitzer Weg","postalCode":"04519","locality":"Rackwitz","municipality":{"key":"14730250","name":"Rackwitz","type":"Kreisangehörige_Gemeinde"},"district":{"key":"14730","name":"Nordsachsen","type":"Landkreis"},"federalState":{"key":"14","name":"Sachsen"}},{"name":"Grabschützer Weg","postalCode":"04519","locality":"Rackwitz","municipality":{"key":"14730250","name":"Rackwitz","type":"Kreisangehörige_Gemeinde"},"district":{"key":"14730","name":"Nordsachsen","type":"Landkreis"},"federalState":{"key":"14","name":"Sachsen"}},{"name":"Große Gasse","postalCode":"04519","locality":"Rackwitz","municipality":{"key":"14730250","name":"Rackwitz","type":"Kreisangehörige_Gemeinde"},"district":{"key":"14730","name":"Nordsachsen","type":"Landkreis"},"federalState":{"key":"14","name":"Sachsen"}},{"name":"Güntheritzer Str.","postalCode":"04519","locality":"Rackwitz","municipality":{"key":"14730250","name":"Rackwitz","type":"Kreisangehörige_Gemeinde"},"district":{"key":"14730","name":"Nordsachsen","type":"Landkreis"},"federalState":{"key":"14","name":"Sachsen"}},{"name":"Hauptring","postalCode":"04519","locality":"Rackwitz","municipality":{"key":"14730250","name":"Rackwitz","type":"Kreisangehörige_Gemeinde"},"district":{"key":"14730","name":"Nordsachsen","type":"Landkreis"},"federalState":{"key":"14","name":"Sachsen"}},{"name":"Hauptstr.","postalCode":"04519","locality":"Rackwitz","municipality":{"key":"14730250","name":"Rackwitz","type":"Kreisangehörige_Gemeinde"},"district":{"key":"14730","name":"Nordsachsen","type":"Landkreis"},"federalState":{"key":"14","name":"Sachsen"}},{"name":"Hintere Dorfstr.","postalCode":"04519","locality":"Rackwitz","municipality":{"key":"14730250","name":"Rackwitz","type":"Kreisangehörige_Gemeinde"},"district":{"key":"14730","name":"Nordsachsen","type":"Landkreis"},"federalState":{"key":"14","name":"Sachsen"}},{"name":"Im Mühlfelde","postalCode":"04519","locality":"Rackwitz","municipality":{"key":"14730250","name":"Rackwitz","type":"Kreisangehörige_Gemeinde"},"district":{"key":"14730","name":"Nordsachsen","type":"Landkreis"},"federalState":{"key":"14","name":"Sachsen"}},{"name":"Im Ring","postalCode":"04519","locality":"Rackwitz","municipality":{"key":"14730250","name":"Rackwitz","type":"Kreisangehörige_Gemeinde"},"district":{"key":"14730","name":"Nordsachsen","type":"Landkreis"},"federalState":{"key":"14","name":"Sachsen"}},{"name":"Im Rittergut","postalCode":"04519","locality":"Rackwitz","municipality":{"key":"14730250","name":"Rackwitz","type":"Kreisangehörige_Gemeinde"},"district":{"key":"14730","name":"Nordsachsen","type":"Landkreis"},"federalState":{"key":"14","name":"Sachsen"}},{"name":"In der Aue","postalCode":"04519","locality":"Rackwitz","municipality":{"key":"14730250","name":"Rackwitz","type":"Kreisangehörige_Gemeinde"},"district":{"key":"14730","name":"Nordsachsen","type":"Landkreis"},"federalState":{"key":"14","name":"Sachsen"}},{"name":"In der Gerte","postalCode":"04519","locality":"Rackwitz","municipality":{"key":"14730250","name":"Rackwitz","type":"Kreisangehörige_Gemeinde"},"district":{"key":"14730","name":"Nordsachsen","type":"Landkreis"},"federalState":{"key":"14","name":"Sachsen"}},{"name":"Johann-Scheibe-Viertel","postalCode":"04519","locality":"Rackwitz","municipality":{"key":"14730250","name":"Rackwitz","type":"Kreisangehörige_Gemeinde"},"district":{"key":"14730","name":"Nordsachsen","type":"Landkreis"},"federalState":{"key":"14","name":"Sachsen"}},{"name":"Johann-Sebastian-Bach-Str.","postalCode":"04519","locality":"Rackwitz","municipality":{"key":"14730250","name":"Rackwitz","type":"Kreisangehörige_Gemeinde"},"district":{"key":"14730","name":"Nordsachsen","type":"Landkreis"},"federalState":{"key":"14","name":"Sachsen"}},{"name":"Karl-Liebknecht-Str.","postalCode":"04519","locality":"Rackwitz","municipality":{"key":"14730250","name":"Rackwitz","type":"Kreisangehörige_Gemeinde"},"district":{"key":"14730","name":"Nordsachsen","type":"Landkreis"},"federalState":{"key":"14","name":"Sachsen"}},{"name":"Kattersnaundorfer Str.","postalCode":"04519","locality":"Rackwitz","municipality":{"key":"14730250","name":"Rackwitz","type":"Kreisangehörige_Gemeinde"},"district":{"key":"14730","name":"Nordsachsen","type":"Landkreis"},"federalState":{"key":"14","name":"Sachsen"}},{"name":"Kirchweg","postalCode":"04519","locality":"Rackwitz","municipality":{"key":"14730250","name":"Rackwitz","type":"Kreisangehörige_Gemeinde"},"district":{"key":"14730","name":"Nordsachsen","type":"Landkreis"},"federalState":{"key":"14","name":"Sachsen"}},{"name":"Kleine Gasse","postalCode":"04519","locality":"Rackwitz","municipality":{"key":"14730250","name":"Rackwitz","type":"Kreisangehörige_Gemeinde"},"district":{"key":"14730","name":"Nordsachsen","type":"Landkreis"},"federalState":{"key":"14","name":"Sachsen"}},{"name":"Kletzener Str.","postalCode":"04519","locality":"Rackwitz","municipality":{"key":"14730250","name":"Rackwitz","type":"Kreisangehörige_Gemeinde"},"district":{"key":"14730","name":"Nordsachsen","type":"Landkreis"},"federalState":{"key":"14","name":"Sachsen"}},{"name":"Kletzener Weg","postalCode":"04519","locality":"Rackwitz","municipality":{"key":"14730250","name":"Rackwitz","type":"Kreisangehörige_Gemeinde"},"district":{"key":"14730","name":"Nordsachsen","type":"Landkreis"},"federalState":{"key":"14","name":"Sachsen"}},{"name":"Kreumaer Dorfstr.","postalCode":"04519","locality":"Rackwitz","municipality":{"key":"14730250","name":"Rackwitz","type":"Kreisangehörige_Gemeinde"},"district":{"key":"14730","name":"Nordsachsen","type":"Landkreis"},"federalState":{"key":"14","name":"Sachsen"}},{"name":"Kreumaer Mühlenweg","postalCode":"04519","locality":"Rackwitz","municipality":{"key":"14730250","name":"Rackwitz","type":"Kreisangehörige_Gemeinde"},"district":{"key":"14730","name":"Nordsachsen","type":"Landkreis"},"federalState":{"key":"14","name":"Sachsen"}},{"name":"Kreumaer Str.","postalCode":"04519","locality":"Rackwitz","municipality":{"key":"14730250","name":"Rackwitz","type":"Kreisangehörige_Gemeinde"},"district":{"key":"14730","name":"Nordsachsen","type":"Landkreis"},"federalState":{"key":"14","name":"Sachsen"}},{"name":"Kreumaer Winkel","postalCode":"04519","locality":"Rackwitz","municipality":{"key":"14730250","name":"Rackwitz","type":"Kreisangehörige_Gemeinde"},"district":{"key":"14730","name":"Nordsachsen","type":"Landkreis"},"federalState":{"key":"14","name":"Sachsen"}},{"name":"Kurze Str.","postalCode":"04519","locality":"Rackwitz","municipality":{"key":"14730250","name":"Rackwitz","type":"Kreisangehörige_Gemeinde"},"district":{"key":"14730","name":"Nordsachsen","type":"Landkreis"},"federalState":{"key":"14","name":"Sachsen"}},{"name":"Langer Weg","postalCode":"04519","locality":"Rackwitz","municipality":{"key":"14730250","name":"Rackwitz","type":"Kreisangehörige_Gemeinde"},"district":{"key":"14730","name":"Nordsachsen","type":"Landkreis"},"federalState":{"key":"14","name":"Sachsen"}},{"name":"Leipziger Str.","postalCode":"04519","locality":"Rackwitz","municipality":{"key":"14730250","name":"Rackwitz","type":"Kreisangehörige_Gemeinde"},"district":{"key":"14730","name":"Nordsachsen","type":"Landkreis"},"federalState":{"key":"14","name":"Sachsen"}},{"name":"Lindenstr.","postalCode":"04519","locality":"Rackwitz","municipality":{"key":"14730250","name":"Rackwitz","type":"Kreisangehörige_Gemeinde"},"district":{"key":"14730","name":"Nordsachsen","type":"Landkreis"},"federalState":{"key":"14","name":"Sachsen"}},{"name":"Loberstr.","postalCode":"04519","locality":"Rackwitz","municipality":{"key":"14730250","name":"Rackwitz","type":"Kreisangehörige_Gemeinde"},"district":{"key":"14730","name":"Nordsachsen","type":"Landkreis"},"federalState":{"key":"14","name":"Sachsen"}},{"name":"Lössener Weg","postalCode":"04519","locality":"Rackwitz","municipality":{"key":"14730250","name":"Rackwitz","type":"Kreisangehörige_Gemeinde"},"district":{"key":"14730","name":"Nordsachsen","type":"Landkreis"},"federalState":{"key":"14","name":"Sachsen"}},{"name":"Märchenweg","postalCode":"04519","locality":"Rackwitz","municipality":{"key":"14730250","name":"Rackwitz","type":"Kreisangehörige_Gemeinde"},"district":{"key":"14730","name":"Nordsachsen","type":"Landkreis"},"federalState":{"key":"14","name":"Sachsen"}},{"name":"Mittelring","postalCode":"04519","locality":"Rackwitz","municipality":{"key":"14730250","name":"Rackwitz","type":"Kreisangehörige_Gemeinde"},"district":{"key":"14730","name":"Nordsachsen","type":"Landkreis"},"federalState":{"key":"14","name":"Sachsen"}},{"name":"Mittelstr.","postalCode":"04519","locality":"Rackwitz","municipality":{"key":"14730250","name":"Rackwitz","type":"Kreisangehörige_Gemeinde"},"district":{"key":"14730","name":"Nordsachsen","type":"Landkreis"},"federalState":{"key":"14","name":"Sachsen"}},{"name":"Mocherwitzer Str.","postalCode":"04519","locality":"Rackwitz","municipality":{"key":"14730250","name":"Rackwitz","type":"Kreisangehörige_Gemeinde"},"district":{"key":"14730","name":"Nordsachsen","type":"Landkreis"},"federalState":{"key":"14","name":"Sachsen"}},{"name":"Mühlenstr.","postalCode":"04519","locality":"Rackwitz","municipality":{"key":"14730250","name":"Rackwitz","type":"Kreisangehörige_Gemeinde"},"district":{"key":"14730","name":"Nordsachsen","type":"Landkreis"},"federalState":{"key":"14","name":"Sachsen"}},{"name":"Neue Str.","postalCode":"04519","locality":"Rackwitz","municipality":{"key":"14730250","name":"Rackwitz","type":"Kreisangehörige_Gemeinde"},"district":{"key":"14730","name":"Nordsachsen","type":"Landkreis"},"federalState":{"key":"14","name":"Sachsen"}},{"name":"Nordring","postalCode":"04519","locality":"Rackwitz","municipality":{"key":"14730250","name":"Rackwitz","type":"Kreisangehörige_Gemeinde"},"district":{"key":"14730","name":"Nordsachsen","type":"Landkreis"},"federalState":{"key":"14","name":"Sachsen"}},{"name":"Nordstr.","postalCode":"04519","locality":"Rackwitz","municipality":{"key":"14730250","name":"Rackwitz","type":"Kreisangehörige_Gemeinde"},"district":{"key":"14730","name":"Nordsachsen","type":"Landkreis"},"federalState":{"key":"14","name":"Sachsen"}},{"name":"Oststr.","postalCode":"04519","locality":"Rackwitz","municipality":{"key":"14730250","name":"Rackwitz","type":"Kreisangehörige_Gemeinde"},"district":{"key":"14730","name":"Nordsachsen","type":"Landkreis"},"federalState":{"key":"14","name":"Sachsen"}},{"name":"Pfarrgasse","postalCode":"04519","locality":"Rackwitz","municipality":{"key":"14730250","name":"Rackwitz","type":"Kreisangehörige_Gemeinde"},"district":{"key":"14730","name":"Nordsachsen","type":"Landkreis"},"federalState":{"key":"14","name":"Sachsen"}},{"name":"Podelwitzer Str.","postalCode":"04519","locality":"Rackwitz","municipality":{"key":"14730250","name":"Rackwitz","type":"Kreisangehörige_Gemeinde"},"district":{"key":"14730","name":"Nordsachsen","type":"Landkreis"},"federalState":{"key":"14","name":"Sachsen"}},{"name":"Quermorgen","postalCode":"04519","locality":"Rackwitz","municipality":{"key":"14730250","name":"Rackwitz","type":"Kreisangehörige_Gemeinde"},"district":{"key":"14730","name":"Nordsachsen","type":"Landkreis"},"federalState":{"key":"14","name":"Sachsen"}},{"name":"Rathenaustr.","postalCode":"04519","locality":"Rackwitz","municipality":{"key":"14730250","name":"Rackwitz","type":"Kreisangehörige_Gemeinde"},"district":{"key":"14730","name":"Nordsachsen","type":"Landkreis"},"federalState":{"key":"14","name":"Sachsen"}},{"name":"Rudolf-Breitscheid-Str.","postalCode":"04519","locality":"Rackwitz","municipality":{"key":"14730250","name":"Rackwitz","type":"Kreisangehörige_Gemeinde"},"district":{"key":"14730","name":"Nordsachsen","type":"Landkreis"},"federalState":{"key":"14","name":"Sachsen"}},{"name":"Salzstr.","postalCode":"04519","locality":"Rackwitz","municipality":{"key":"14730250","name":"Rackwitz","type":"Kreisangehörige_Gemeinde"},"district":{"key":"14730","name":"Nordsachsen","type":"Landkreis"},"federalState":{"key":"14","name":"Sachsen"}},{"name":"Schladitzer Str.","postalCode":"04519","locality":"Rackwitz","municipality":{"key":"14730250","name":"Rackwitz","type":"Kreisangehörige_Gemeinde"},"district":{"key":"14730","name":"Nordsachsen","type":"Landkreis"},"federalState":{"key":"14","name":"Sachsen"}},{"name":"Schmiedestr.","postalCode":"04519","locality":"Rackwitz","municipality":{"key":"14730250","name":"Rackwitz","type":"Kreisangehörige_Gemeinde"},"district":{"key":"14730","name":"Nordsachsen","type":"Landkreis"},"federalState":{"key":"14","name":"Sachsen"}},{"name":"Schrozberger Str.","postalCode":"04519","locality":"Rackwitz","municipality":{"key":"14730250","name":"Rackwitz","type":"Kreisangehörige_Gemeinde"},"district":{"key":"14730","name":"Nordsachsen","type":"Landkreis"},"federalState":{"key":"14","name":"Sachsen"}},{"name":"Schulgasse","postalCode":"04519","locality":"Rackwitz","municipality":{"key":"14730250","name":"Rackwitz","type":"Kreisangehörige_Gemeinde"},"district":{"key":"14730","name":"Nordsachsen","type":"Landkreis"},"federalState":{"key":"14","name":"Sachsen"}},{"name":"Schulweg","postalCode":"04519","locality":"Rackwitz","municipality":{"key":"14730250","name":"Rackwitz","type":"Kreisangehörige_Gemeinde"},"district":{"key":"14730","name":"Nordsachsen","type":"Landkreis"},"federalState":{"key":"14","name":"Sachsen"}},{"name":"Seehausener Str.","postalCode":"04519","locality":"Rackwitz","municipality":{"key":"14730250","name":"Rackwitz","type":"Kreisangehörige_Gemeinde"},"district":{"key":"14730","name":"Nordsachsen","type":"Landkreis"},"federalState":{"key":"14","name":"Sachsen"}},{"name":"Selbener Str.","postalCode":"04519","locality":"Rackwitz","municipality":{"key":"14730250","name":"Rackwitz","type":"Kreisangehörige_Gemeinde"},"district":{"key":"14730","name":"Nordsachsen","type":"Landkreis"},"federalState":{"key":"14","name":"Sachsen"}},{"name":"Siedlung","postalCode":"04519","locality":"Rackwitz","municipality":{"key":"14730250","name":"Rackwitz","type":"Kreisangehörige_Gemeinde"},"district":{"key":"14730","name":"Nordsachsen","type":"Landkreis"},"federalState":{"key":"14","name":"Sachsen"}},{"name":"Str. der Einheit","postalCode":"04519","locality":"Rackwitz","municipality":{"key":"14730250","name":"Rackwitz","type":"Kreisangehörige_Gemeinde"},"district":{"key":"14730","name":"Nordsachsen","type":"Landkreis"},"federalState":{"key":"14","name":"Sachsen"}},{"name":"Str. der Jugend","postalCode":"04519","locality":"Rackwitz","municipality":{"key":"14730250","name":"Rackwitz","type":"Kreisangehörige_Gemeinde"},"district":{"key":"14730","name":"Nordsachsen","type":"Landkreis"},"federalState":{"key":"14","name":"Sachsen"}},{"name":"Südring","postalCode":"04519","locality":"Rackwitz","municipality":{"key":"14730250","name":"Rackwitz","type":"Kreisangehörige_Gemeinde"},"district":{"key":"14730","name":"Nordsachsen","type":"Landkreis"},"federalState":{"key":"14","name":"Sachsen"}},{"name":"Tannenweg","postalCode":"04519","locality":"Rackwitz","municipality":{"key":"14730250","name":"Rackwitz","type":"Kreisangehörige_Gemeinde"},"district":{"key":"14730","name":"Nordsachsen","type":"Landkreis"},"federalState":{"key":"14","name":"Sachsen"}},{"name":"Volkmann-Str.","postalCode":"04519","locality":"Rackwitz","municipality":{"key":"14730250","name":"Rackwitz","type":"Kreisangehörige_Gemeinde"},"district":{"key":"14730","name":"Nordsachsen","type":"Landkreis"},"federalState":{"key":"14","name":"Sachsen"}},{"name":"Von-Kügelgen-Str.","postalCode":"04519","locality":"Rackwitz","municipality":{"key":"14730250","name":"Rackwitz","type":"Kreisangehörige_Gemeinde"},"district":{"key":"14730","name":"Nordsachsen","type":"Landkreis"},"federalState":{"key":"14","name":"Sachsen"}},{"name":"Von-Sahr-Str.","postalCode":"04519","locality":"Rackwitz","municipality":{"key":"14730250","name":"Rackwitz","type":"Kreisangehörige_Gemeinde"},"district":{"key":"14730","name":"Nordsachsen","type":"Landkreis"},"federalState":{"key":"14","name":"Sachsen"}},{"name":"Walter-Peschke-Str.","postalCode":"04519","locality":"Rackwitz","municipality":{"key":"14730250","name":"Rackwitz","type":"Kreisangehörige_Gemeinde"},"district":{"key":"14730","name":"Nordsachsen","type":"Landkreis"},"federalState":{"key":"14","name":"Sachsen"}},{"name":"Werbeliner Str.","postalCode":"04519","locality":"Rackwitz","municipality":{"key":"14730250","name":"Rackwitz","type":"Kreisangehörige_Gemeinde"},"district":{"key":"14730","name":"Nordsachsen","type":"Landkreis"},"federalState":{"key":"14","name":"Sachsen"}},{"name":"Westring","postalCode":"04519","locality":"Rackwitz","municipality":{"key":"14730250","name":"Rackwitz","type":"Kreisangehörige_Gemeinde"},"district":{"key":"14730","name":"Nordsachsen","type":"Landkreis"},"federalState":{"key":"14","name":"Sachsen"}},{"name":"Wiederitzscher Str.","postalCode":"04519","locality":"Rackwitz","municipality":{"key":"14730250","name":"Rackwitz","type":"Kreisangehörige_Gemeinde"},"district":{"key":"14730","name":"Nordsachsen","type":"Landkreis"},"federalState":{"key":"14","name":"Sachsen"}},{"name":"Wolteritzer Str.","postalCode":"04519","locality":"Rackwitz","municipality":{"key":"14730250","name":"Rackwitz","type":"Kreisangehörige_Gemeinde"},"district":{"key":"14730","name":"Nordsachsen","type":"Landkreis"},"federalState":{"key":"14","name":"Sachsen"}},{"name":"Zeppelinstr.","postalCode":"04519","locality":"Rackwitz","municipality":{"key":"14730250","name":"Rackwitz","type":"Kreisangehörige_Gemeinde"},"district":{"key":"14730","name":"Nordsachsen","type":"Landkreis"},"federalState":{"key":"14","name":"Sachsen"}},{"name":"Zschölkauer Weg","postalCode":"04519","locality":"Rackwitz","municipality":{"key":"14730250","name":"Rackwitz","type":"Kreisangehörige_Gemeinde"},"district":{"key":"14730","name":"Nordsachsen","type":"Landkreis"},"federalState":{"key":"14","name":"Sachsen"}},{"name":"Zum Findling","postalCode":"04519","locality":"Rackwitz","municipality":{"key":"14730250","name":"Rackwitz","type":"Kreisangehörige_Gemeinde"},"district":{"key":"14730","name":"Nordsachsen","type":"Landkreis"},"federalState":{"key":"14","name":"Sachsen"}},{"name":"Zum Wiesenrain","postalCode":"04519","locality":"Rackwitz","municipality":{"key":"14730250","name":"Rackwitz","type":"Kreisangehörige_Gemeinde"},"district":{"key":"14730","name":"Nordsachsen","type":"Landkreis"},"federalState":{"key":"14","name":"Sachsen"}},]