[{"name":"Alte Str.","postalCode":"93186","locality":"Pettendorf","municipality":{"key":"09375181","name":"Pettendorf","type":"Kreisangehörige_Gemeinde"},"district":{"key":"09375","name":"Regensburg","type":"Landkreis"},"federalState":{"key":"09","name":"Bayern"}},{"name":"Am Haselbusch","postalCode":"93186","locality":"Pettendorf","municipality":{"key":"09375181","name":"Pettendorf","type":"Kreisangehörige_Gemeinde"},"district":{"key":"09375","name":"Regensburg","type":"Landkreis"},"federalState":{"key":"09","name":"Bayern"}},{"name":"Am Hirtenacker","postalCode":"93186","locality":"Pettendorf","municipality":{"key":"09375181","name":"Pettendorf","type":"Kreisangehörige_Gemeinde"},"district":{"key":"09375","name":"Regensburg","type":"Landkreis"},"federalState":{"key":"09","name":"Bayern"}},{"name":"Am Hüpberg","postalCode":"93186","locality":"Pettendorf","municipality":{"key":"09375181","name":"Pettendorf","type":"Kreisangehörige_Gemeinde"},"district":{"key":"09375","name":"Regensburg","type":"Landkreis"},"federalState":{"key":"09","name":"Bayern"}},{"name":"Am Kirchfeld","postalCode":"93186","locality":"Pettendorf","municipality":{"key":"09375181","name":"Pettendorf","type":"Kreisangehörige_Gemeinde"},"district":{"key":"09375","name":"Regensburg","type":"Landkreis"},"federalState":{"key":"09","name":"Bayern"}},{"name":"Am Mätzgraben","postalCode":"93186","locality":"Pettendorf","municipality":{"key":"09375181","name":"Pettendorf","type":"Kreisangehörige_Gemeinde"},"district":{"key":"09375","name":"Regensburg","type":"Landkreis"},"federalState":{"key":"09","name":"Bayern"}},{"name":"Am Riedfeld","postalCode":"93186","locality":"Pettendorf","municipality":{"key":"09375181","name":"Pettendorf","type":"Kreisangehörige_Gemeinde"},"district":{"key":"09375","name":"Regensburg","type":"Landkreis"},"federalState":{"key":"09","name":"Bayern"}},{"name":"Am Sand","postalCode":"93186","locality":"Pettendorf","municipality":{"key":"09375181","name":"Pettendorf","type":"Kreisangehörige_Gemeinde"},"district":{"key":"09375","name":"Regensburg","type":"Landkreis"},"federalState":{"key":"09","name":"Bayern"}},{"name":"Amselweg","postalCode":"93186","locality":"Pettendorf","municipality":{"key":"09375181","name":"Pettendorf","type":"Kreisangehörige_Gemeinde"},"district":{"key":"09375","name":"Regensburg","type":"Landkreis"},"federalState":{"key":"09","name":"Bayern"}},{"name":"Am Stadtweg","postalCode":"93186","locality":"Pettendorf","municipality":{"key":"09375181","name":"Pettendorf","type":"Kreisangehörige_Gemeinde"},"district":{"key":"09375","name":"Regensburg","type":"Landkreis"},"federalState":{"key":"09","name":"Bayern"}},{"name":"Am Südhang","postalCode":"93186","locality":"Pettendorf","municipality":{"key":"09375181","name":"Pettendorf","type":"Kreisangehörige_Gemeinde"},"district":{"key":"09375","name":"Regensburg","type":"Landkreis"},"federalState":{"key":"09","name":"Bayern"}},{"name":"Am Vogelherd","postalCode":"93186","locality":"Pettendorf","municipality":{"key":"09375181","name":"Pettendorf","type":"Kreisangehörige_Gemeinde"},"district":{"key":"09375","name":"Regensburg","type":"Landkreis"},"federalState":{"key":"09","name":"Bayern"}},{"name":"Am Weingert","postalCode":"93186","locality":"Pettendorf","municipality":{"key":"09375181","name":"Pettendorf","type":"Kreisangehörige_Gemeinde"},"district":{"key":"09375","name":"Regensburg","type":"Landkreis"},"federalState":{"key":"09","name":"Bayern"}},{"name":"An der Breite","postalCode":"93186","locality":"Pettendorf","municipality":{"key":"09375181","name":"Pettendorf","type":"Kreisangehörige_Gemeinde"},"district":{"key":"09375","name":"Regensburg","type":"Landkreis"},"federalState":{"key":"09","name":"Bayern"}},{"name":"Andreasstr.","postalCode":"93186","locality":"Pettendorf","municipality":{"key":"09375181","name":"Pettendorf","type":"Kreisangehörige_Gemeinde"},"district":{"key":"09375","name":"Regensburg","type":"Landkreis"},"federalState":{"key":"09","name":"Bayern"}},{"name":"Angerweg","postalCode":"93186","locality":"Pettendorf","municipality":{"key":"09375181","name":"Pettendorf","type":"Kreisangehörige_Gemeinde"},"district":{"key":"09375","name":"Regensburg","type":"Landkreis"},"federalState":{"key":"09","name":"Bayern"}},{"name":"Aubergstr.","postalCode":"93186","locality":"Pettendorf","municipality":{"key":"09375181","name":"Pettendorf","type":"Kreisangehörige_Gemeinde"},"district":{"key":"09375","name":"Regensburg","type":"Landkreis"},"federalState":{"key":"09","name":"Bayern"}},{"name":"Auf der Höhe","postalCode":"93186","locality":"Pettendorf","municipality":{"key":"09375181","name":"Pettendorf","type":"Kreisangehörige_Gemeinde"},"district":{"key":"09375","name":"Regensburg","type":"Landkreis"},"federalState":{"key":"09","name":"Bayern"}},{"name":"Auf der Wiese","postalCode":"93186","locality":"Pettendorf","municipality":{"key":"09375181","name":"Pettendorf","type":"Kreisangehörige_Gemeinde"},"district":{"key":"09375","name":"Regensburg","type":"Landkreis"},"federalState":{"key":"09","name":"Bayern"}},{"name":"Auweg","postalCode":"93186","locality":"Pettendorf","municipality":{"key":"09375181","name":"Pettendorf","type":"Kreisangehörige_Gemeinde"},"district":{"key":"09375","name":"Regensburg","type":"Landkreis"},"federalState":{"key":"09","name":"Bayern"}},{"name":"Bergweg","postalCode":"93186","locality":"Pettendorf","municipality":{"key":"09375181","name":"Pettendorf","type":"Kreisangehörige_Gemeinde"},"district":{"key":"09375","name":"Regensburg","type":"Landkreis"},"federalState":{"key":"09","name":"Bayern"}},{"name":"Bettoweg","postalCode":"93186","locality":"Pettendorf","municipality":{"key":"09375181","name":"Pettendorf","type":"Kreisangehörige_Gemeinde"},"district":{"key":"09375","name":"Regensburg","type":"Landkreis"},"federalState":{"key":"09","name":"Bayern"}},{"name":"Bgm.-Eichhammer-Str.","postalCode":"93186","locality":"Pettendorf","municipality":{"key":"09375181","name":"Pettendorf","type":"Kreisangehörige_Gemeinde"},"district":{"key":"09375","name":"Regensburg","type":"Landkreis"},"federalState":{"key":"09","name":"Bayern"}},{"name":"Bgm.-Strobl-Weg","postalCode":"93186","locality":"Pettendorf","municipality":{"key":"09375181","name":"Pettendorf","type":"Kreisangehörige_Gemeinde"},"district":{"key":"09375","name":"Regensburg","type":"Landkreis"},"federalState":{"key":"09","name":"Bayern"}},{"name":"Birkenweg","postalCode":"93186","locality":"Pettendorf","municipality":{"key":"09375181","name":"Pettendorf","type":"Kreisangehörige_Gemeinde"},"district":{"key":"09375","name":"Regensburg","type":"Landkreis"},"federalState":{"key":"09","name":"Bayern"}},{"name":"Blumenstr.","postalCode":"93186","locality":"Pettendorf","municipality":{"key":"09375181","name":"Pettendorf","type":"Kreisangehörige_Gemeinde"},"district":{"key":"09375","name":"Regensburg","type":"Landkreis"},"federalState":{"key":"09","name":"Bayern"}},{"name":"Brunnweg","postalCode":"93186","locality":"Pettendorf","municipality":{"key":"09375181","name":"Pettendorf","type":"Kreisangehörige_Gemeinde"},"district":{"key":"09375","name":"Regensburg","type":"Landkreis"},"federalState":{"key":"09","name":"Bayern"}},{"name":"Camille-Claudel-Str.","postalCode":"93055","locality":"Regensburg","municipality":{"key":"09362000","name":"Regensburg","type":"Kreisfreie_Stadt"},"district":{"key":"09362","name":"Regensburg","type":"Kreisfreie_Stadt"},"federalState":{"key":"09","name":"Bayern"}},{"name":"Carl-Maria-von-Weber-Str.","postalCode":"93053","locality":"Regensburg","municipality":{"key":"09362000","name":"Regensburg","type":"Kreisfreie_Stadt"},"district":{"key":"09362","name":"Regensburg","type":"Kreisfreie_Stadt"},"federalState":{"key":"09","name":"Bayern"}},{"name":"Carl-Orff-Weg","postalCode":"93051","locality":"Regensburg","municipality":{"key":"09362000","name":"Regensburg","type":"Kreisfreie_Stadt"},"district":{"key":"09362","name":"Regensburg","type":"Kreisfreie_Stadt"},"federalState":{"key":"09","name":"Bayern"}},{"name":"Carlstr.","postalCode":"93049","locality":"Regensburg","municipality":{"key":"09362000","name":"Regensburg","type":"Kreisfreie_Stadt"},"district":{"key":"09362","name":"Regensburg","type":"Kreisfreie_Stadt"},"federalState":{"key":"09","name":"Bayern"}},{"name":"Carl-Thiel-Str.","postalCode":"93053","locality":"Regensburg","municipality":{"key":"09362000","name":"Regensburg","type":"Kreisfreie_Stadt"},"district":{"key":"09362","name":"Regensburg","type":"Kreisfreie_Stadt"},"federalState":{"key":"09","name":"Bayern"}},{"name":"Caroline-Herschel-Str.","postalCode":"93055","locality":"Regensburg","municipality":{"key":"09362000","name":"Regensburg","type":"Kreisfreie_Stadt"},"district":{"key":"09362","name":"Regensburg","type":"Kreisfreie_Stadt"},"federalState":{"key":"09","name":"Bayern"}},{"name":"Cecilie-Vogt-Weg","postalCode":"93055","locality":"Regensburg","municipality":{"key":"09362000","name":"Regensburg","type":"Kreisfreie_Stadt"},"district":{"key":"09362","name":"Regensburg","type":"Kreisfreie_Stadt"},"federalState":{"key":"09","name":"Bayern"}},{"name":"Ceresweg","postalCode":"93055","locality":"Regensburg","municipality":{"key":"09362000","name":"Regensburg","type":"Kreisfreie_Stadt"},"district":{"key":"09362","name":"Regensburg","type":"Kreisfreie_Stadt"},"federalState":{"key":"09","name":"Bayern"}},{"name":"Chamer Str.","postalCode":"93057","locality":"Regensburg","municipality":{"key":"09362000","name":"Regensburg","type":"Kreisfreie_Stadt"},"district":{"key":"09362","name":"Regensburg","type":"Kreisfreie_Stadt"},"federalState":{"key":"09","name":"Bayern"}},{"name":"Charles-Lindbergh-Str.","postalCode":"93049","locality":"Regensburg","municipality":{"key":"09362000","name":"Regensburg","type":"Kreisfreie_Stadt"},"district":{"key":"09362","name":"Regensburg","type":"Kreisfreie_Stadt"},"federalState":{"key":"09","name":"Bayern"}},{"name":"Christine-Friedlein-Str.","postalCode":"93055","locality":"Regensburg","municipality":{"key":"09362000","name":"Regensburg","type":"Kreisfreie_Stadt"},"district":{"key":"09362","name":"Regensburg","type":"Kreisfreie_Stadt"},"federalState":{"key":"09","name":"Bayern"}},{"name":"Christliebstr.","postalCode":"93055","locality":"Regensburg","municipality":{"key":"09362000","name":"Regensburg","type":"Kreisfreie_Stadt"},"district":{"key":"09362","name":"Regensburg","type":"Kreisfreie_Stadt"},"federalState":{"key":"09","name":"Bayern"}},{"name":"Clara-Schumann-Str.","postalCode":"93049","locality":"Regensburg","municipality":{"key":"09362000","name":"Regensburg","type":"Kreisfreie_Stadt"},"district":{"key":"09362","name":"Regensburg","type":"Kreisfreie_Stadt"},"federalState":{"key":"09","name":"Bayern"}},{"name":"Clausewitzstr.","postalCode":"93049","locality":"Regensburg","municipality":{"key":"09362000","name":"Regensburg","type":"Kreisfreie_Stadt"},"district":{"key":"09362","name":"Regensburg","type":"Kreisfreie_Stadt"},"federalState":{"key":"09","name":"Bayern"}},{"name":"Clermont-Ferrand-Allee","postalCode":"93049","locality":"Regensburg","municipality":{"key":"09362000","name":"Regensburg","type":"Kreisfreie_Stadt"},"district":{"key":"09362","name":"Regensburg","type":"Kreisfreie_Stadt"},"federalState":{"key":"09","name":"Bayern"}},{"name":"Coburger Str.","postalCode":"93057","locality":"Regensburg","municipality":{"key":"09362000","name":"Regensburg","type":"Kreisfreie_Stadt"},"district":{"key":"09362","name":"Regensburg","type":"Kreisfreie_Stadt"},"federalState":{"key":"09","name":"Bayern"}},{"name":"Colmarer Str.","postalCode":"93057","locality":"Regensburg","municipality":{"key":"09362000","name":"Regensburg","type":"Kreisfreie_Stadt"},"district":{"key":"09362","name":"Regensburg","type":"Kreisfreie_Stadt"},"federalState":{"key":"09","name":"Bayern"}},{"name":"Coulmiersstr.","postalCode":"93055","locality":"Regensburg","municipality":{"key":"09362000","name":"Regensburg","type":"Kreisfreie_Stadt"},"district":{"key":"09362","name":"Regensburg","type":"Kreisfreie_Stadt"},"federalState":{"key":"09","name":"Bayern"}},{"name":"Cranachweg","postalCode":"93051","locality":"Regensburg","municipality":{"key":"09362000","name":"Regensburg","type":"Kreisfreie_Stadt"},"district":{"key":"09362","name":"Regensburg","type":"Kreisfreie_Stadt"},"federalState":{"key":"09","name":"Bayern"}},{"name":"Dominikanerinnenstr.","postalCode":"93186","locality":"Pettendorf","municipality":{"key":"09375181","name":"Pettendorf","type":"Kreisangehörige_Gemeinde"},"district":{"key":"09375","name":"Regensburg","type":"Landkreis"},"federalState":{"key":"09","name":"Bayern"}},{"name":"Dorfstr.","postalCode":"93186","locality":"Pettendorf","municipality":{"key":"09375181","name":"Pettendorf","type":"Kreisangehörige_Gemeinde"},"district":{"key":"09375","name":"Regensburg","type":"Landkreis"},"federalState":{"key":"09","name":"Bayern"}},{"name":"Eibrunn - Ebenwies","postalCode":"93186","locality":"Pettendorf","municipality":{"key":"09375181","name":"Pettendorf","type":"Kreisangehörige_Gemeinde"},"district":{"key":"09375","name":"Regensburg","type":"Landkreis"},"federalState":{"key":"09","name":"Bayern"}},{"name":"Eichenweg","postalCode":"93186","locality":"Pettendorf","municipality":{"key":"09375181","name":"Pettendorf","type":"Kreisangehörige_Gemeinde"},"district":{"key":"09375","name":"Regensburg","type":"Landkreis"},"federalState":{"key":"09","name":"Bayern"}},{"name":"Fasanenweg","postalCode":"93186","locality":"Pettendorf","municipality":{"key":"09375181","name":"Pettendorf","type":"Kreisangehörige_Gemeinde"},"district":{"key":"09375","name":"Regensburg","type":"Landkreis"},"federalState":{"key":"09","name":"Bayern"}},{"name":"Finkenweg","postalCode":"93186","locality":"Pettendorf","municipality":{"key":"09375181","name":"Pettendorf","type":"Kreisangehörige_Gemeinde"},"district":{"key":"09375","name":"Regensburg","type":"Landkreis"},"federalState":{"key":"09","name":"Bayern"}},{"name":"Föhrenstr.","postalCode":"93186","locality":"Pettendorf","municipality":{"key":"09375181","name":"Pettendorf","type":"Kreisangehörige_Gemeinde"},"district":{"key":"09375","name":"Regensburg","type":"Landkreis"},"federalState":{"key":"09","name":"Bayern"}},{"name":"Friedrichstr.","postalCode":"93186","locality":"Pettendorf","municipality":{"key":"09375181","name":"Pettendorf","type":"Kreisangehörige_Gemeinde"},"district":{"key":"09375","name":"Regensburg","type":"Landkreis"},"federalState":{"key":"09","name":"Bayern"}},{"name":"Gartenstr.","postalCode":"93186","locality":"Pettendorf","municipality":{"key":"09375181","name":"Pettendorf","type":"Kreisangehörige_Gemeinde"},"district":{"key":"09375","name":"Regensburg","type":"Landkreis"},"federalState":{"key":"09","name":"Bayern"}},{"name":"Georg-Britting-Weg","postalCode":"93186","locality":"Pettendorf","municipality":{"key":"09375181","name":"Pettendorf","type":"Kreisangehörige_Gemeinde"},"district":{"key":"09375","name":"Regensburg","type":"Landkreis"},"federalState":{"key":"09","name":"Bayern"}},{"name":"Greifenbergstr.","postalCode":"93186","locality":"Pettendorf","municipality":{"key":"09375181","name":"Pettendorf","type":"Kreisangehörige_Gemeinde"},"district":{"key":"09375","name":"Regensburg","type":"Landkreis"},"federalState":{"key":"09","name":"Bayern"}},{"name":"Hauptstr.","postalCode":"93186","locality":"Pettendorf","municipality":{"key":"09375181","name":"Pettendorf","type":"Kreisangehörige_Gemeinde"},"district":{"key":"09375","name":"Regensburg","type":"Landkreis"},"federalState":{"key":"09","name":"Bayern"}},{"name":"Heerbergstr.","postalCode":"93186","locality":"Pettendorf","municipality":{"key":"09375181","name":"Pettendorf","type":"Kreisangehörige_Gemeinde"},"district":{"key":"09375","name":"Regensburg","type":"Landkreis"},"federalState":{"key":"09","name":"Bayern"}},{"name":"Heidegasse","postalCode":"93186","locality":"Pettendorf","municipality":{"key":"09375181","name":"Pettendorf","type":"Kreisangehörige_Gemeinde"},"district":{"key":"09375","name":"Regensburg","type":"Landkreis"},"federalState":{"key":"09","name":"Bayern"}},{"name":"Heilikaweg","postalCode":"93186","locality":"Pettendorf","municipality":{"key":"09375181","name":"Pettendorf","type":"Kreisangehörige_Gemeinde"},"district":{"key":"09375","name":"Regensburg","type":"Landkreis"},"federalState":{"key":"09","name":"Bayern"}},{"name":"Heiner-Prössl-Str.","postalCode":"93186","locality":"Pettendorf","municipality":{"key":"09375181","name":"Pettendorf","type":"Kreisangehörige_Gemeinde"},"district":{"key":"09375","name":"Regensburg","type":"Landkreis"},"federalState":{"key":"09","name":"Bayern"}},{"name":"Herzog-Ludwig-Str.","postalCode":"93186","locality":"Pettendorf","municipality":{"key":"09375181","name":"Pettendorf","type":"Kreisangehörige_Gemeinde"},"district":{"key":"09375","name":"Regensburg","type":"Landkreis"},"federalState":{"key":"09","name":"Bayern"}},{"name":"Hinterbergweg","postalCode":"93186","locality":"Pettendorf","municipality":{"key":"09375181","name":"Pettendorf","type":"Kreisangehörige_Gemeinde"},"district":{"key":"09375","name":"Regensburg","type":"Landkreis"},"federalState":{"key":"09","name":"Bayern"}},{"name":"Hochweg","postalCode":"93186","locality":"Pettendorf","municipality":{"key":"09375181","name":"Pettendorf","type":"Kreisangehörige_Gemeinde"},"district":{"key":"09375","name":"Regensburg","type":"Landkreis"},"federalState":{"key":"09","name":"Bayern"}},{"name":"Hofmarkstr.","postalCode":"93186","locality":"Pettendorf","municipality":{"key":"09375181","name":"Pettendorf","type":"Kreisangehörige_Gemeinde"},"district":{"key":"09375","name":"Regensburg","type":"Landkreis"},"federalState":{"key":"09","name":"Bayern"}},{"name":"Holunderweg","postalCode":"93186","locality":"Pettendorf","municipality":{"key":"09375181","name":"Pettendorf","type":"Kreisangehörige_Gemeinde"},"district":{"key":"09375","name":"Regensburg","type":"Landkreis"},"federalState":{"key":"09","name":"Bayern"}},{"name":"Im Holz","postalCode":"93186","locality":"Pettendorf","municipality":{"key":"09375181","name":"Pettendorf","type":"Kreisangehörige_Gemeinde"},"district":{"key":"09375","name":"Regensburg","type":"Landkreis"},"federalState":{"key":"09","name":"Bayern"}},{"name":"Jägerstr.","postalCode":"93186","locality":"Pettendorf","municipality":{"key":"09375181","name":"Pettendorf","type":"Kreisangehörige_Gemeinde"},"district":{"key":"09375","name":"Regensburg","type":"Landkreis"},"federalState":{"key":"09","name":"Bayern"}},{"name":"Kapellenplatz","postalCode":"93186","locality":"Pettendorf","municipality":{"key":"09375181","name":"Pettendorf","type":"Kreisangehörige_Gemeinde"},"district":{"key":"09375","name":"Regensburg","type":"Landkreis"},"federalState":{"key":"09","name":"Bayern"}},{"name":"Kapellenweg","postalCode":"93186","locality":"Pettendorf","municipality":{"key":"09375181","name":"Pettendorf","type":"Kreisangehörige_Gemeinde"},"district":{"key":"09375","name":"Regensburg","type":"Landkreis"},"federalState":{"key":"09","name":"Bayern"}},{"name":"Kaspar-Brusch-Weg","postalCode":"93186","locality":"Pettendorf","municipality":{"key":"09375181","name":"Pettendorf","type":"Kreisangehörige_Gemeinde"},"district":{"key":"09375","name":"Regensburg","type":"Landkreis"},"federalState":{"key":"09","name":"Bayern"}},{"name":"Kellerweg","postalCode":"93186","locality":"Pettendorf","municipality":{"key":"09375181","name":"Pettendorf","type":"Kreisangehörige_Gemeinde"},"district":{"key":"09375","name":"Regensburg","type":"Landkreis"},"federalState":{"key":"09","name":"Bayern"}},{"name":"Keltenstr.","postalCode":"93186","locality":"Pettendorf","municipality":{"key":"09375181","name":"Pettendorf","type":"Kreisangehörige_Gemeinde"},"district":{"key":"09375","name":"Regensburg","type":"Landkreis"},"federalState":{"key":"09","name":"Bayern"}},{"name":"Kirchgasse","postalCode":"93186","locality":"Pettendorf","municipality":{"key":"09375181","name":"Pettendorf","type":"Kreisangehörige_Gemeinde"},"district":{"key":"09375","name":"Regensburg","type":"Landkreis"},"federalState":{"key":"09","name":"Bayern"}},{"name":"Lärchenweg","postalCode":"93186","locality":"Pettendorf","municipality":{"key":"09375181","name":"Pettendorf","type":"Kreisangehörige_Gemeinde"},"district":{"key":"09375","name":"Regensburg","type":"Landkreis"},"federalState":{"key":"09","name":"Bayern"}},{"name":"Lindenweg","postalCode":"93186","locality":"Pettendorf","municipality":{"key":"09375181","name":"Pettendorf","type":"Kreisangehörige_Gemeinde"},"district":{"key":"09375","name":"Regensburg","type":"Landkreis"},"federalState":{"key":"09","name":"Bayern"}},{"name":"Margarethenstr.","postalCode":"93186","locality":"Pettendorf","municipality":{"key":"09375181","name":"Pettendorf","type":"Kreisangehörige_Gemeinde"},"district":{"key":"09375","name":"Regensburg","type":"Landkreis"},"federalState":{"key":"09","name":"Bayern"}},{"name":"Marienstr.","postalCode":"93186","locality":"Pettendorf","municipality":{"key":"09375181","name":"Pettendorf","type":"Kreisangehörige_Gemeinde"},"district":{"key":"09375","name":"Regensburg","type":"Landkreis"},"federalState":{"key":"09","name":"Bayern"}},{"name":"Martin-Klob-Str.","postalCode":"93186","locality":"Pettendorf","municipality":{"key":"09375181","name":"Pettendorf","type":"Kreisangehörige_Gemeinde"},"district":{"key":"09375","name":"Regensburg","type":"Landkreis"},"federalState":{"key":"09","name":"Bayern"}},{"name":"Mühlweg","postalCode":"93186","locality":"Pettendorf","municipality":{"key":"09375181","name":"Pettendorf","type":"Kreisangehörige_Gemeinde"},"district":{"key":"09375","name":"Regensburg","type":"Landkreis"},"federalState":{"key":"09","name":"Bayern"}},{"name":"Naabstr.","postalCode":"93186","locality":"Pettendorf","municipality":{"key":"09375181","name":"Pettendorf","type":"Kreisangehörige_Gemeinde"},"district":{"key":"09375","name":"Regensburg","type":"Landkreis"},"federalState":{"key":"09","name":"Bayern"}},{"name":"Nürnberger Str.","postalCode":"93186","locality":"Pettendorf","municipality":{"key":"09375181","name":"Pettendorf","type":"Kreisangehörige_Gemeinde"},"district":{"key":"09375","name":"Regensburg","type":"Landkreis"},"federalState":{"key":"09","name":"Bayern"}},{"name":"Obere Bachgasse","postalCode":"93047","locality":"Regensburg","municipality":{"key":"09362000","name":"Regensburg","type":"Kreisfreie_Stadt"},"district":{"key":"09362","name":"Regensburg","type":"Kreisfreie_Stadt"},"federalState":{"key":"09","name":"Bayern"}},{"name":"Obere Regenstr.","postalCode":"93059","locality":"Regensburg","municipality":{"key":"09362000","name":"Regensburg","type":"Kreisfreie_Stadt"},"district":{"key":"09362","name":"Regensburg","type":"Kreisfreie_Stadt"},"federalState":{"key":"09","name":"Bayern"}},{"name":"Oberer Ehweg","postalCode":"93055","locality":"Regensburg","municipality":{"key":"09362000","name":"Regensburg","type":"Kreisfreie_Stadt"},"district":{"key":"09362","name":"Regensburg","type":"Kreisfreie_Stadt"},"federalState":{"key":"09","name":"Bayern"}},{"name":"Oberfeldweg","postalCode":"93049","locality":"Regensburg","municipality":{"key":"09362000","name":"Regensburg","type":"Kreisfreie_Stadt"},"district":{"key":"09362","name":"Regensburg","type":"Kreisfreie_Stadt"},"federalState":{"key":"09","name":"Bayern"}},{"name":"Oberländerstr.","postalCode":"93051","locality":"Regensburg","municipality":{"key":"09362000","name":"Regensburg","type":"Kreisfreie_Stadt"},"district":{"key":"09362","name":"Regensburg","type":"Kreisfreie_Stadt"},"federalState":{"key":"09","name":"Bayern"}},{"name":"Obermaierstr.","postalCode":"93049","locality":"Regensburg","municipality":{"key":"09362000","name":"Regensburg","type":"Kreisfreie_Stadt"},"district":{"key":"09362","name":"Regensburg","type":"Kreisfreie_Stadt"},"federalState":{"key":"09","name":"Bayern"}},{"name":"Obermünsterplatz","postalCode":"93047","locality":"Regensburg","municipality":{"key":"09362000","name":"Regensburg","type":"Kreisfreie_Stadt"},"district":{"key":"09362","name":"Regensburg","type":"Kreisfreie_Stadt"},"federalState":{"key":"09","name":"Bayern"}},{"name":"Obermünsterstr.","postalCode":"93047","locality":"Regensburg","municipality":{"key":"09362000","name":"Regensburg","type":"Kreisfreie_Stadt"},"district":{"key":"09362","name":"Regensburg","type":"Kreisfreie_Stadt"},"federalState":{"key":"09","name":"Bayern"}},{"name":"Oberndorferstr.","postalCode":"93051","locality":"Regensburg","municipality":{"key":"09362000","name":"Regensburg","type":"Kreisfreie_Stadt"},"district":{"key":"09362","name":"Regensburg","type":"Kreisfreie_Stadt"},"federalState":{"key":"09","name":"Bayern"}},{"name":"Obertraublinger Str.","postalCode":"93055","locality":"Regensburg","municipality":{"key":"09362000","name":"Regensburg","type":"Kreisfreie_Stadt"},"district":{"key":"09362","name":"Regensburg","type":"Kreisfreie_Stadt"},"federalState":{"key":"09","name":"Bayern"}},{"name":"Odenwaldstr.","postalCode":"93057","locality":"Regensburg","municipality":{"key":"09362000","name":"Regensburg","type":"Kreisfreie_Stadt"},"district":{"key":"09362","name":"Regensburg","type":"Kreisfreie_Stadt"},"federalState":{"key":"09","name":"Bayern"}},{"name":"Odessa-Ring","postalCode":"93053","locality":"Regensburg","municipality":{"key":"09362000","name":"Regensburg","type":"Kreisfreie_Stadt"},"district":{"key":"09362","name":"Regensburg","type":"Kreisfreie_Stadt"},"federalState":{"key":"09","name":"Bayern"}},{"name":"Odessa-Ring","postalCode":"93055","locality":"Regensburg","municipality":{"key":"09362000","name":"Regensburg","type":"Kreisfreie_Stadt"},"district":{"key":"09362","name":"Regensburg","type":"Kreisfreie_Stadt"},"federalState":{"key":"09","name":"Bayern"}},{"name":"Ohmstr.","postalCode":"93055","locality":"Regensburg","municipality":{"key":"09362000","name":"Regensburg","type":"Kreisfreie_Stadt"},"district":{"key":"09362","name":"Regensburg","type":"Kreisfreie_Stadt"},"federalState":{"key":"09","name":"Bayern"}},{"name":"Orleansstr.","postalCode":"93055","locality":"Regensburg","municipality":{"key":"09362000","name":"Regensburg","type":"Kreisfreie_Stadt"},"district":{"key":"09362","name":"Regensburg","type":"Kreisfreie_Stadt"},"federalState":{"key":"09","name":"Bayern"}},{"name":"Ortenburgerstr.","postalCode":"93059","locality":"Regensburg","municipality":{"key":"09362000","name":"Regensburg","type":"Kreisfreie_Stadt"},"district":{"key":"09362","name":"Regensburg","type":"Kreisfreie_Stadt"},"federalState":{"key":"09","name":"Bayern"}},{"name":"Ortnergasse","postalCode":"93047","locality":"Regensburg","municipality":{"key":"09362000","name":"Regensburg","type":"Kreisfreie_Stadt"},"district":{"key":"09362","name":"Regensburg","type":"Kreisfreie_Stadt"},"federalState":{"key":"09","name":"Bayern"}},{"name":"Ostenallee","postalCode":"93047","locality":"Regensburg","municipality":{"key":"09362000","name":"Regensburg","type":"Kreisfreie_Stadt"},"district":{"key":"09362","name":"Regensburg","type":"Kreisfreie_Stadt"},"federalState":{"key":"09","name":"Bayern"}},{"name":"Ostendorferstr.","postalCode":"93051","locality":"Regensburg","municipality":{"key":"09362000","name":"Regensburg","type":"Kreisfreie_Stadt"},"district":{"key":"09362","name":"Regensburg","type":"Kreisfreie_Stadt"},"federalState":{"key":"09","name":"Bayern"}},{"name":"Ostengasse","postalCode":"93047","locality":"Regensburg","municipality":{"key":"09362000","name":"Regensburg","type":"Kreisfreie_Stadt"},"district":{"key":"09362","name":"Regensburg","type":"Kreisfreie_Stadt"},"federalState":{"key":"09","name":"Bayern"}},{"name":"Osterbergweg","postalCode":"93059","locality":"Regensburg","municipality":{"key":"09362000","name":"Regensburg","type":"Kreisfreie_Stadt"},"district":{"key":"09362","name":"Regensburg","type":"Kreisfreie_Stadt"},"federalState":{"key":"09","name":"Bayern"}},{"name":"Osterhofener Str.","postalCode":"93055","locality":"Regensburg","municipality":{"key":"09362000","name":"Regensburg","type":"Kreisfreie_Stadt"},"district":{"key":"09362","name":"Regensburg","type":"Kreisfreie_Stadt"},"federalState":{"key":"09","name":"Bayern"}},{"name":"Osthafenstr.","postalCode":"93055","locality":"Regensburg","municipality":{"key":"09362000","name":"Regensburg","type":"Kreisfreie_Stadt"},"district":{"key":"09362","name":"Regensburg","type":"Kreisfreie_Stadt"},"federalState":{"key":"09","name":"Bayern"}},{"name":"Ostheim","postalCode":"93055","locality":"Regensburg","municipality":{"key":"09362000","name":"Regensburg","type":"Kreisfreie_Stadt"},"district":{"key":"09362","name":"Regensburg","type":"Kreisfreie_Stadt"},"federalState":{"key":"09","name":"Bayern"}},{"name":"Ostpreußenstr.","postalCode":"93057","locality":"Regensburg","municipality":{"key":"09362000","name":"Regensburg","type":"Kreisfreie_Stadt"},"district":{"key":"09362","name":"Regensburg","type":"Kreisfreie_Stadt"},"federalState":{"key":"09","name":"Bayern"}},{"name":"Otlohstr.","postalCode":"93053","locality":"Regensburg","municipality":{"key":"09362000","name":"Regensburg","type":"Kreisfreie_Stadt"},"district":{"key":"09362","name":"Regensburg","type":"Kreisfreie_Stadt"},"federalState":{"key":"09","name":"Bayern"}},{"name":"Otterbachweg","postalCode":"93059","locality":"Regensburg","municipality":{"key":"09362000","name":"Regensburg","type":"Kreisfreie_Stadt"},"district":{"key":"09362","name":"Regensburg","type":"Kreisfreie_Stadt"},"federalState":{"key":"09","name":"Bayern"}},{"name":"Otto-Baumann-Str.","postalCode":"93055","locality":"Regensburg","municipality":{"key":"09362000","name":"Regensburg","type":"Kreisfreie_Stadt"},"district":{"key":"09362","name":"Regensburg","type":"Kreisfreie_Stadt"},"federalState":{"key":"09","name":"Bayern"}},{"name":"Otto-Hahn-Str.","postalCode":"93053","locality":"Regensburg","municipality":{"key":"09362000","name":"Regensburg","type":"Kreisfreie_Stadt"},"district":{"key":"09362","name":"Regensburg","type":"Kreisfreie_Stadt"},"federalState":{"key":"09","name":"Bayern"}},{"name":"Otto-Prager-Weg","postalCode":"93051","locality":"Regensburg","municipality":{"key":"09362000","name":"Regensburg","type":"Kreisfreie_Stadt"},"district":{"key":"09362","name":"Regensburg","type":"Kreisfreie_Stadt"},"federalState":{"key":"09","name":"Bayern"}},{"name":"Otto-Wels-Str.","postalCode":"93051","locality":"Regensburg","municipality":{"key":"09362000","name":"Regensburg","type":"Kreisfreie_Stadt"},"district":{"key":"09362","name":"Regensburg","type":"Kreisfreie_Stadt"},"federalState":{"key":"09","name":"Bayern"}},{"name":"Ottrichstr.","postalCode":"93053","locality":"Regensburg","municipality":{"key":"09362000","name":"Regensburg","type":"Kreisfreie_Stadt"},"district":{"key":"09362","name":"Regensburg","type":"Kreisfreie_Stadt"},"federalState":{"key":"09","name":"Bayern"}},{"name":"Paradiesweg","postalCode":"93186","locality":"Pettendorf","municipality":{"key":"09375181","name":"Pettendorf","type":"Kreisangehörige_Gemeinde"},"district":{"key":"09375","name":"Regensburg","type":"Landkreis"},"federalState":{"key":"09","name":"Bayern"}},{"name":"Pettendorfer Str.","postalCode":"93186","locality":"Pettendorf","municipality":{"key":"09375181","name":"Pettendorf","type":"Kreisangehörige_Gemeinde"},"district":{"key":"09375","name":"Regensburg","type":"Landkreis"},"federalState":{"key":"09","name":"Bayern"}},{"name":"Pfalzgraf-Otto-Str.","postalCode":"93186","locality":"Pettendorf","municipality":{"key":"09375181","name":"Pettendorf","type":"Kreisangehörige_Gemeinde"},"district":{"key":"09375","name":"Regensburg","type":"Landkreis"},"federalState":{"key":"09","name":"Bayern"}},{"name":"Pfarrer-Groden-Str.","postalCode":"93186","locality":"Pettendorf","municipality":{"key":"09375181","name":"Pettendorf","type":"Kreisangehörige_Gemeinde"},"district":{"key":"09375","name":"Regensburg","type":"Landkreis"},"federalState":{"key":"09","name":"Bayern"}},{"name":"Pfarrer-Kneissl-Str.","postalCode":"93186","locality":"Pettendorf","municipality":{"key":"09375181","name":"Pettendorf","type":"Kreisangehörige_Gemeinde"},"district":{"key":"09375","name":"Regensburg","type":"Landkreis"},"federalState":{"key":"09","name":"Bayern"}},{"name":"Postgasse","postalCode":"93186","locality":"Pettendorf","municipality":{"key":"09375181","name":"Pettendorf","type":"Kreisangehörige_Gemeinde"},"district":{"key":"09375","name":"Regensburg","type":"Landkreis"},"federalState":{"key":"09","name":"Bayern"}},{"name":"Quellenweg","postalCode":"93186","locality":"Pettendorf","municipality":{"key":"09375181","name":"Pettendorf","type":"Kreisangehörige_Gemeinde"},"district":{"key":"09375","name":"Regensburg","type":"Landkreis"},"federalState":{"key":"09","name":"Bayern"}},{"name":"Regensburgerstr.","postalCode":"93186","locality":"Pettendorf","municipality":{"key":"09375181","name":"Pettendorf","type":"Kreisangehörige_Gemeinde"},"district":{"key":"09375","name":"Regensburg","type":"Landkreis"},"federalState":{"key":"09","name":"Bayern"}},{"name":"Regensburger Str.","postalCode":"93186","locality":"Pettendorf","municipality":{"key":"09375181","name":"Pettendorf","type":"Kreisangehörige_Gemeinde"},"district":{"key":"09375","name":"Regensburg","type":"Landkreis"},"federalState":{"key":"09","name":"Bayern"}},{"name":"Rehweg","postalCode":"93186","locality":"Pettendorf","municipality":{"key":"09375181","name":"Pettendorf","type":"Kreisangehörige_Gemeinde"},"district":{"key":"09375","name":"Regensburg","type":"Landkreis"},"federalState":{"key":"09","name":"Bayern"}},{"name":"Roseggerweg","postalCode":"93186","locality":"Pettendorf","municipality":{"key":"09375181","name":"Pettendorf","type":"Kreisangehörige_Gemeinde"},"district":{"key":"09375","name":"Regensburg","type":"Landkreis"},"federalState":{"key":"09","name":"Bayern"}},{"name":"Rosenweg","postalCode":"93186","locality":"Pettendorf","municipality":{"key":"09375181","name":"Pettendorf","type":"Kreisangehörige_Gemeinde"},"district":{"key":"09375","name":"Regensburg","type":"Landkreis"},"federalState":{"key":"09","name":"Bayern"}},{"name":"Rüdigerstr.","postalCode":"93186","locality":"Pettendorf","municipality":{"key":"09375181","name":"Pettendorf","type":"Kreisangehörige_Gemeinde"},"district":{"key":"09375","name":"Regensburg","type":"Landkreis"},"federalState":{"key":"09","name":"Bayern"}},{"name":"Salbeiweg","postalCode":"93186","locality":"Pettendorf","municipality":{"key":"09375181","name":"Pettendorf","type":"Kreisangehörige_Gemeinde"},"district":{"key":"09375","name":"Regensburg","type":"Landkreis"},"federalState":{"key":"09","name":"Bayern"}},{"name":"Schlehenweg","postalCode":"93186","locality":"Pettendorf","municipality":{"key":"09375181","name":"Pettendorf","type":"Kreisangehörige_Gemeinde"},"district":{"key":"09375","name":"Regensburg","type":"Landkreis"},"federalState":{"key":"09","name":"Bayern"}},{"name":"Schloßstr.","postalCode":"93186","locality":"Pettendorf","municipality":{"key":"09375181","name":"Pettendorf","type":"Kreisangehörige_Gemeinde"},"district":{"key":"09375","name":"Regensburg","type":"Landkreis"},"federalState":{"key":"09","name":"Bayern"}},{"name":"Schönleite","postalCode":"93186","locality":"Pettendorf","municipality":{"key":"09375181","name":"Pettendorf","type":"Kreisangehörige_Gemeinde"},"district":{"key":"09375","name":"Regensburg","type":"Landkreis"},"federalState":{"key":"09","name":"Bayern"}},{"name":"Schottenstr.","postalCode":"93186","locality":"Pettendorf","municipality":{"key":"09375181","name":"Pettendorf","type":"Kreisangehörige_Gemeinde"},"district":{"key":"09375","name":"Regensburg","type":"Landkreis"},"federalState":{"key":"09","name":"Bayern"}},{"name":"Schulgasse","postalCode":"93186","locality":"Pettendorf","municipality":{"key":"09375181","name":"Pettendorf","type":"Kreisangehörige_Gemeinde"},"district":{"key":"09375","name":"Regensburg","type":"Landkreis"},"federalState":{"key":"09","name":"Bayern"}},{"name":"Seeweg","postalCode":"93186","locality":"Pettendorf","municipality":{"key":"09375181","name":"Pettendorf","type":"Kreisangehörige_Gemeinde"},"district":{"key":"09375","name":"Regensburg","type":"Landkreis"},"federalState":{"key":"09","name":"Bayern"}},{"name":"Setzstr.","postalCode":"93186","locality":"Pettendorf","municipality":{"key":"09375181","name":"Pettendorf","type":"Kreisangehörige_Gemeinde"},"district":{"key":"09375","name":"Regensburg","type":"Landkreis"},"federalState":{"key":"09","name":"Bayern"}},{"name":"Sigenaweg","postalCode":"93186","locality":"Pettendorf","municipality":{"key":"09375181","name":"Pettendorf","type":"Kreisangehörige_Gemeinde"},"district":{"key":"09375","name":"Regensburg","type":"Landkreis"},"federalState":{"key":"09","name":"Bayern"}},{"name":"Solner Breite","postalCode":"93186","locality":"Pettendorf","municipality":{"key":"09375181","name":"Pettendorf","type":"Kreisangehörige_Gemeinde"},"district":{"key":"09375","name":"Regensburg","type":"Landkreis"},"federalState":{"key":"09","name":"Bayern"}},{"name":"Sophie-Scholl-Weg","postalCode":"93186","locality":"Pettendorf","municipality":{"key":"09375181","name":"Pettendorf","type":"Kreisangehörige_Gemeinde"},"district":{"key":"09375","name":"Regensburg","type":"Landkreis"},"federalState":{"key":"09","name":"Bayern"}},{"name":"Sühnekreuzweg","postalCode":"93186","locality":"Pettendorf","municipality":{"key":"09375181","name":"Pettendorf","type":"Kreisangehörige_Gemeinde"},"district":{"key":"09375","name":"Regensburg","type":"Landkreis"},"federalState":{"key":"09","name":"Bayern"}},{"name":"Talweg","postalCode":"93186","locality":"Pettendorf","municipality":{"key":"09375181","name":"Pettendorf","type":"Kreisangehörige_Gemeinde"},"district":{"key":"09375","name":"Regensburg","type":"Landkreis"},"federalState":{"key":"09","name":"Bayern"}},{"name":"Thon-Dittmer-Str.","postalCode":"93186","locality":"Pettendorf","municipality":{"key":"09375181","name":"Pettendorf","type":"Kreisangehörige_Gemeinde"},"district":{"key":"09375","name":"Regensburg","type":"Landkreis"},"federalState":{"key":"09","name":"Bayern"}},{"name":"Tremmelhauserweg","postalCode":"93186","locality":"Pettendorf","municipality":{"key":"09375181","name":"Pettendorf","type":"Kreisangehörige_Gemeinde"},"district":{"key":"09375","name":"Regensburg","type":"Landkreis"},"federalState":{"key":"09","name":"Bayern"}},{"name":"Urtlberg","postalCode":"93186","locality":"Pettendorf","municipality":{"key":"09375181","name":"Pettendorf","type":"Kreisangehörige_Gemeinde"},"district":{"key":"09375","name":"Regensburg","type":"Landkreis"},"federalState":{"key":"09","name":"Bayern"}},{"name":"Urtlbergstr.","postalCode":"93186","locality":"Pettendorf","municipality":{"key":"09375181","name":"Pettendorf","type":"Kreisangehörige_Gemeinde"},"district":{"key":"09375","name":"Regensburg","type":"Landkreis"},"federalState":{"key":"09","name":"Bayern"}},{"name":"Vestaweg","postalCode":"93055","locality":"Regensburg","municipality":{"key":"09362000","name":"Regensburg","type":"Kreisfreie_Stadt"},"district":{"key":"09362","name":"Regensburg","type":"Kreisfreie_Stadt"},"federalState":{"key":"09","name":"Bayern"}},{"name":"Victoriaweg","postalCode":"93055","locality":"Regensburg","municipality":{"key":"09362000","name":"Regensburg","type":"Kreisfreie_Stadt"},"district":{"key":"09362","name":"Regensburg","type":"Kreisfreie_Stadt"},"federalState":{"key":"09","name":"Bayern"}},{"name":"Vidiner Str.","postalCode":"93055","locality":"Regensburg","municipality":{"key":"09362000","name":"Regensburg","type":"Kreisfreie_Stadt"},"district":{"key":"09362","name":"Regensburg","type":"Kreisfreie_Stadt"},"federalState":{"key":"09","name":"Bayern"}},{"name":"Viktor-von-Scheffel-Str.","postalCode":"93051","locality":"Regensburg","municipality":{"key":"09362000","name":"Regensburg","type":"Kreisfreie_Stadt"},"district":{"key":"09362","name":"Regensburg","type":"Kreisfreie_Stadt"},"federalState":{"key":"09","name":"Bayern"}},{"name":"Villapark","postalCode":"93055","locality":"Regensburg","municipality":{"key":"09362000","name":"Regensburg","type":"Kreisfreie_Stadt"},"district":{"key":"09362","name":"Regensburg","type":"Kreisfreie_Stadt"},"federalState":{"key":"09","name":"Bayern"}},{"name":"Villa Rustica","postalCode":"93055","locality":"Regensburg","municipality":{"key":"09362000","name":"Regensburg","type":"Kreisfreie_Stadt"},"district":{"key":"09362","name":"Regensburg","type":"Kreisfreie_Stadt"},"federalState":{"key":"09","name":"Bayern"}},{"name":"Villastr.","postalCode":"93055","locality":"Regensburg","municipality":{"key":"09362000","name":"Regensburg","type":"Kreisfreie_Stadt"},"district":{"key":"09362","name":"Regensburg","type":"Kreisfreie_Stadt"},"federalState":{"key":"09","name":"Bayern"}},{"name":"Vilsecker Str.","postalCode":"93057","locality":"Regensburg","municipality":{"key":"09362000","name":"Regensburg","type":"Kreisfreie_Stadt"},"district":{"key":"09362","name":"Regensburg","type":"Kreisfreie_Stadt"},"federalState":{"key":"09","name":"Bayern"}},{"name":"Vilshofener Str.","postalCode":"93055","locality":"Regensburg","municipality":{"key":"09362000","name":"Regensburg","type":"Kreisfreie_Stadt"},"district":{"key":"09362","name":"Regensburg","type":"Kreisfreie_Stadt"},"federalState":{"key":"09","name":"Bayern"}},{"name":"Vilsstr.","postalCode":"93059","locality":"Regensburg","municipality":{"key":"09362000","name":"Regensburg","type":"Kreisfreie_Stadt"},"district":{"key":"09362","name":"Regensburg","type":"Kreisfreie_Stadt"},"federalState":{"key":"09","name":"Bayern"}},{"name":"Vintlweg","postalCode":"93053","locality":"Regensburg","municipality":{"key":"09362000","name":"Regensburg","type":"Kreisfreie_Stadt"},"district":{"key":"09362","name":"Regensburg","type":"Kreisfreie_Stadt"},"federalState":{"key":"09","name":"Bayern"}},{"name":"Vitusstr.","postalCode":"93051","locality":"Regensburg","municipality":{"key":"09362000","name":"Regensburg","type":"Kreisfreie_Stadt"},"district":{"key":"09362","name":"Regensburg","type":"Kreisfreie_Stadt"},"federalState":{"key":"09","name":"Bayern"}},{"name":"Vogelbeerweg","postalCode":"93055","locality":"Regensburg","municipality":{"key":"09362000","name":"Regensburg","type":"Kreisfreie_Stadt"},"district":{"key":"09362","name":"Regensburg","type":"Kreisfreie_Stadt"},"federalState":{"key":"09","name":"Bayern"}},{"name":"Vogesenstr.","postalCode":"93057","locality":"Regensburg","municipality":{"key":"09362000","name":"Regensburg","type":"Kreisfreie_Stadt"},"district":{"key":"09362","name":"Regensburg","type":"Kreisfreie_Stadt"},"federalState":{"key":"09","name":"Bayern"}},{"name":"Volcanusweg","postalCode":"93055","locality":"Regensburg","municipality":{"key":"09362000","name":"Regensburg","type":"Kreisfreie_Stadt"},"district":{"key":"09362","name":"Regensburg","type":"Kreisfreie_Stadt"},"federalState":{"key":"09","name":"Bayern"}},{"name":"Von-Brettreich-Str.","postalCode":"93049","locality":"Regensburg","municipality":{"key":"09362000","name":"Regensburg","type":"Kreisfreie_Stadt"},"district":{"key":"09362","name":"Regensburg","type":"Kreisfreie_Stadt"},"federalState":{"key":"09","name":"Bayern"}},{"name":"Von-der-Tann-Str.","postalCode":"93047","locality":"Regensburg","municipality":{"key":"09362000","name":"Regensburg","type":"Kreisfreie_Stadt"},"district":{"key":"09362","name":"Regensburg","type":"Kreisfreie_Stadt"},"federalState":{"key":"09","name":"Bayern"}},{"name":"Von-Donle-Str.","postalCode":"93055","locality":"Regensburg","municipality":{"key":"09362000","name":"Regensburg","type":"Kreisfreie_Stadt"},"district":{"key":"09362","name":"Regensburg","type":"Kreisfreie_Stadt"},"federalState":{"key":"09","name":"Bayern"}},{"name":"Von-Reiner-Str.","postalCode":"93053","locality":"Regensburg","municipality":{"key":"09362000","name":"Regensburg","type":"Kreisfreie_Stadt"},"district":{"key":"09362","name":"Regensburg","type":"Kreisfreie_Stadt"},"federalState":{"key":"09","name":"Bayern"}},{"name":"Von-Richthofen-Str.","postalCode":"93051","locality":"Regensburg","municipality":{"key":"09362000","name":"Regensburg","type":"Kreisfreie_Stadt"},"district":{"key":"09362","name":"Regensburg","type":"Kreisfreie_Stadt"},"federalState":{"key":"09","name":"Bayern"}},{"name":"Von-Schenk-Str.","postalCode":"93051","locality":"Regensburg","municipality":{"key":"09362000","name":"Regensburg","type":"Kreisfreie_Stadt"},"district":{"key":"09362","name":"Regensburg","type":"Kreisfreie_Stadt"},"federalState":{"key":"09","name":"Bayern"}},{"name":"Von-Seeckt-Str.","postalCode":"93053","locality":"Regensburg","municipality":{"key":"09362000","name":"Regensburg","type":"Kreisfreie_Stadt"},"district":{"key":"09362","name":"Regensburg","type":"Kreisfreie_Stadt"},"federalState":{"key":"09","name":"Bayern"}},{"name":"Vor der Grieb","postalCode":"93047","locality":"Regensburg","municipality":{"key":"09362000","name":"Regensburg","type":"Kreisfreie_Stadt"},"district":{"key":"09362","name":"Regensburg","type":"Kreisfreie_Stadt"},"federalState":{"key":"09","name":"Bayern"}},{"name":"Vorlandweg","postalCode":"93055","locality":"Regensburg","municipality":{"key":"09362000","name":"Regensburg","type":"Kreisfreie_Stadt"},"district":{"key":"09362","name":"Regensburg","type":"Kreisfreie_Stadt"},"federalState":{"key":"09","name":"Bayern"}},{"name":"Wallfahrerweg","postalCode":"93186","locality":"Pettendorf","municipality":{"key":"09375181","name":"Pettendorf","type":"Kreisangehörige_Gemeinde"},"district":{"key":"09375","name":"Regensburg","type":"Landkreis"},"federalState":{"key":"09","name":"Bayern"}},{"name":"Weinbergstr.","postalCode":"93186","locality":"Pettendorf","municipality":{"key":"09375181","name":"Pettendorf","type":"Kreisangehörige_Gemeinde"},"district":{"key":"09375","name":"Regensburg","type":"Landkreis"},"federalState":{"key":"09","name":"Bayern"}},{"name":"Weingasse","postalCode":"93186","locality":"Pettendorf","municipality":{"key":"09375181","name":"Pettendorf","type":"Kreisangehörige_Gemeinde"},"district":{"key":"09375","name":"Regensburg","type":"Landkreis"},"federalState":{"key":"09","name":"Bayern"}},{"name":"Wittelsbacherstr.","postalCode":"93186","locality":"Pettendorf","municipality":{"key":"09375181","name":"Pettendorf","type":"Kreisangehörige_Gemeinde"},"district":{"key":"09375","name":"Regensburg","type":"Landkreis"},"federalState":{"key":"09","name":"Bayern"}},{"name":"Xaver-Fuhr-Str.","postalCode":"93055","locality":"Regensburg","municipality":{"key":"09362000","name":"Regensburg","type":"Kreisfreie_Stadt"},"district":{"key":"09362","name":"Regensburg","type":"Kreisfreie_Stadt"},"federalState":{"key":"09","name":"Bayern"}},{"name":"Yorckstr.","postalCode":"93049","locality":"Regensburg","municipality":{"key":"09362000","name":"Regensburg","type":"Kreisfreie_Stadt"},"district":{"key":"09362","name":"Regensburg","type":"Kreisfreie_Stadt"},"federalState":{"key":"09","name":"Bayern"}},{"name":"Zum Aichahof","postalCode":"93186","locality":"Pettendorf","municipality":{"key":"09375181","name":"Pettendorf","type":"Kreisangehörige_Gemeinde"},"district":{"key":"09375","name":"Regensburg","type":"Landkreis"},"federalState":{"key":"09","name":"Bayern"}},{"name":"Zur Tränke","postalCode":"93186","locality":"Pettendorf","municipality":{"key":"09375181","name":"Pettendorf","type":"Kreisangehörige_Gemeinde"},"district":{"key":"09375","name":"Regensburg","type":"Landkreis"},"federalState":{"key":"09","name":"Bayern"}},{"name":"Ägidienplatz","postalCode":"93047","locality":"Regensburg","municipality":{"key":"09362000","name":"Regensburg","type":"Kreisfreie_Stadt"},"district":{"key":"09362","name":"Regensburg","type":"Kreisfreie_Stadt"},"federalState":{"key":"09","name":"Bayern"}},{"name":"Äußere Wiener Str.","postalCode":"93055","locality":"Regensburg","municipality":{"key":"09362000","name":"Regensburg","type":"Kreisfreie_Stadt"},"district":{"key":"09362","name":"Regensburg","type":"Kreisfreie_Stadt"},"federalState":{"key":"09","name":"Bayern"}},{"name":"Ödenthal","postalCode":"93057","locality":"Regensburg","municipality":{"key":"09362000","name":"Regensburg","type":"Kreisfreie_Stadt"},"district":{"key":"09362","name":"Regensburg","type":"Kreisfreie_Stadt"},"federalState":{"key":"09","name":"Bayern"}},{"name":"Ödenthaler Weg","postalCode":"93057","locality":"Regensburg","municipality":{"key":"09362000","name":"Regensburg","type":"Kreisfreie_Stadt"},"district":{"key":"09362","name":"Regensburg","type":"Kreisfreie_Stadt"},"federalState":{"key":"09","name":"Bayern"}},{"name":"Ödenthalweg","postalCode":"93057","locality":"Regensburg","municipality":{"key":"09362000","name":"Regensburg","type":"Kreisfreie_Stadt"},"district":{"key":"09362","name":"Regensburg","type":"Kreisfreie_Stadt"},"federalState":{"key":"09","name":"Bayern"}},]