[{"name":"Ahornweg","postalCode":"94130","locality":"Obernzell","municipality":{"key":"09275137","name":"Obernzell, M","type":"Markt"},"district":{"key":"09275","name":"Passau","type":"Landkreis"},"federalState":{"key":"09","name":"Bayern"}},{"name":"Alte Siedlung","postalCode":"94130","locality":"Obernzell","municipality":{"key":"09275137","name":"Obernzell, M","type":"Markt"},"district":{"key":"09275","name":"Passau","type":"Landkreis"},"federalState":{"key":"09","name":"Bayern"}},{"name":"Am Bahnhof","postalCode":"94130","locality":"Obernzell","municipality":{"key":"09275137","name":"Obernzell, M","type":"Markt"},"district":{"key":"09275","name":"Passau","type":"Landkreis"},"federalState":{"key":"09","name":"Bayern"}},{"name":"Am Fürstberg","postalCode":"94130","locality":"Obernzell","municipality":{"key":"09275137","name":"Obernzell, M","type":"Markt"},"district":{"key":"09275","name":"Passau","type":"Landkreis"},"federalState":{"key":"09","name":"Bayern"}},{"name":"Am Hafen","postalCode":"94130","locality":"Obernzell","municipality":{"key":"09275137","name":"Obernzell, M","type":"Markt"},"district":{"key":"09275","name":"Passau","type":"Landkreis"},"federalState":{"key":"09","name":"Bayern"}},{"name":"Am Hang","postalCode":"94130","locality":"Obernzell","municipality":{"key":"09275137","name":"Obernzell, M","type":"Markt"},"district":{"key":"09275","name":"Passau","type":"Landkreis"},"federalState":{"key":"09","name":"Bayern"}},{"name":"Am Sonnenhang","postalCode":"94130","locality":"Obernzell","municipality":{"key":"09275137","name":"Obernzell, M","type":"Markt"},"district":{"key":"09275","name":"Passau","type":"Landkreis"},"federalState":{"key":"09","name":"Bayern"}},{"name":"Angerstr.","postalCode":"94130","locality":"Obernzell","municipality":{"key":"09275137","name":"Obernzell, M","type":"Markt"},"district":{"key":"09275","name":"Passau","type":"Landkreis"},"federalState":{"key":"09","name":"Bayern"}},{"name":"Aufeld","postalCode":"94130","locality":"Obernzell","municipality":{"key":"09275137","name":"Obernzell, M","type":"Markt"},"district":{"key":"09275","name":"Passau","type":"Landkreis"},"federalState":{"key":"09","name":"Bayern"}},{"name":"Bachstr.","postalCode":"94130","locality":"Obernzell","municipality":{"key":"09275137","name":"Obernzell, M","type":"Markt"},"district":{"key":"09275","name":"Passau","type":"Landkreis"},"federalState":{"key":"09","name":"Bayern"}},{"name":"Bahnhofstr.","postalCode":"94130","locality":"Obernzell","municipality":{"key":"09275137","name":"Obernzell, M","type":"Markt"},"district":{"key":"09275","name":"Passau","type":"Landkreis"},"federalState":{"key":"09","name":"Bayern"}},{"name":"Bergstr.","postalCode":"94130","locality":"Obernzell","municipality":{"key":"09275137","name":"Obernzell, M","type":"Markt"},"district":{"key":"09275","name":"Passau","type":"Landkreis"},"federalState":{"key":"09","name":"Bayern"}},{"name":"Birkenweg","postalCode":"94130","locality":"Obernzell","municipality":{"key":"09275137","name":"Obernzell, M","type":"Markt"},"district":{"key":"09275","name":"Passau","type":"Landkreis"},"federalState":{"key":"09","name":"Bayern"}},{"name":"Carlonegasse","postalCode":"94032","locality":"Passau","municipality":{"key":"09262000","name":"Passau","type":"Kreisfreie_Stadt"},"district":{"key":"09262","name":"Passau","type":"Kreisfreie_Stadt"},"federalState":{"key":"09","name":"Bayern"}},{"name":"Carossastr.","postalCode":"94036","locality":"Passau","municipality":{"key":"09262000","name":"Passau","type":"Kreisfreie_Stadt"},"district":{"key":"09262","name":"Passau","type":"Kreisfreie_Stadt"},"federalState":{"key":"09","name":"Bayern"}},{"name":"Christdobl","postalCode":"94034","locality":"Passau","municipality":{"key":"09262000","name":"Passau","type":"Kreisfreie_Stadt"},"district":{"key":"09262","name":"Passau","type":"Kreisfreie_Stadt"},"federalState":{"key":"09","name":"Bayern"}},{"name":"Doktor-R.-Seiler-Str.","postalCode":"94130","locality":"Obernzell","municipality":{"key":"09275137","name":"Obernzell, M","type":"Markt"},"district":{"key":"09275","name":"Passau","type":"Landkreis"},"federalState":{"key":"09","name":"Bayern"}},{"name":"Donaublick","postalCode":"94130","locality":"Obernzell","municipality":{"key":"09275137","name":"Obernzell, M","type":"Markt"},"district":{"key":"09275","name":"Passau","type":"Landkreis"},"federalState":{"key":"09","name":"Bayern"}},{"name":"Donaugründe","postalCode":"94130","locality":"Obernzell","municipality":{"key":"09275137","name":"Obernzell, M","type":"Markt"},"district":{"key":"09275","name":"Passau","type":"Landkreis"},"federalState":{"key":"09","name":"Bayern"}},{"name":"Dorfstr.","postalCode":"94130","locality":"Obernzell","municipality":{"key":"09275137","name":"Obernzell, M","type":"Markt"},"district":{"key":"09275","name":"Passau","type":"Landkreis"},"federalState":{"key":"09","name":"Bayern"}},{"name":"Dr. Hans-Vogt-Platz","postalCode":"94130","locality":"Obernzell","municipality":{"key":"09275137","name":"Obernzell, M","type":"Markt"},"district":{"key":"09275","name":"Passau","type":"Landkreis"},"federalState":{"key":"09","name":"Bayern"}},{"name":"Dr.-Hans-Vogt-Str.","postalCode":"94130","locality":"Obernzell","municipality":{"key":"09275137","name":"Obernzell, M","type":"Markt"},"district":{"key":"09275","name":"Passau","type":"Landkreis"},"federalState":{"key":"09","name":"Bayern"}},{"name":"Dr.-Türk-Str.","postalCode":"94130","locality":"Obernzell","municipality":{"key":"09275137","name":"Obernzell, M","type":"Markt"},"district":{"key":"09275","name":"Passau","type":"Landkreis"},"federalState":{"key":"09","name":"Bayern"}},{"name":"Ederlsdorf","postalCode":"94130","locality":"Obernzell","municipality":{"key":"09275137","name":"Obernzell, M","type":"Markt"},"district":{"key":"09275","name":"Passau","type":"Landkreis"},"federalState":{"key":"09","name":"Bayern"}},{"name":"Edlhofstr.","postalCode":"94130","locality":"Obernzell","municipality":{"key":"09275137","name":"Obernzell, M","type":"Markt"},"district":{"key":"09275","name":"Passau","type":"Landkreis"},"federalState":{"key":"09","name":"Bayern"}},{"name":"Fabrikstr.","postalCode":"94036","locality":"Passau","municipality":{"key":"09262000","name":"Passau","type":"Kreisfreie_Stadt"},"district":{"key":"09262","name":"Passau","type":"Kreisfreie_Stadt"},"federalState":{"key":"09","name":"Bayern"}},{"name":"Fährweg","postalCode":"94034","locality":"Passau","municipality":{"key":"09262000","name":"Passau","type":"Kreisfreie_Stadt"},"district":{"key":"09262","name":"Passau","type":"Kreisfreie_Stadt"},"federalState":{"key":"09","name":"Bayern"}},{"name":"Falkensteinstr.","postalCode":"94034","locality":"Passau","municipality":{"key":"09262000","name":"Passau","type":"Kreisfreie_Stadt"},"district":{"key":"09262","name":"Passau","type":"Kreisfreie_Stadt"},"federalState":{"key":"09","name":"Bayern"}},{"name":"Fattinger Str.","postalCode":"94034","locality":"Passau","municipality":{"key":"09262000","name":"Passau","type":"Kreisfreie_Stadt"},"district":{"key":"09262","name":"Passau","type":"Kreisfreie_Stadt"},"federalState":{"key":"09","name":"Bayern"}},{"name":"Feldweg","postalCode":"94036","locality":"Passau","municipality":{"key":"09262000","name":"Passau","type":"Kreisfreie_Stadt"},"district":{"key":"09262","name":"Passau","type":"Kreisfreie_Stadt"},"federalState":{"key":"09","name":"Bayern"}},{"name":"Ferdinand-Wagner-Str.","postalCode":"94034","locality":"Passau","municipality":{"key":"09262000","name":"Passau","type":"Kreisfreie_Stadt"},"district":{"key":"09262","name":"Passau","type":"Kreisfreie_Stadt"},"federalState":{"key":"09","name":"Bayern"}},{"name":"FIM-Wiese","postalCode":"94032","locality":"Passau","municipality":{"key":"09262000","name":"Passau","type":"Kreisfreie_Stadt"},"district":{"key":"09262","name":"Passau","type":"Kreisfreie_Stadt"},"federalState":{"key":"09","name":"Bayern"}},{"name":"Finkenstr.","postalCode":"94036","locality":"Passau","municipality":{"key":"09262000","name":"Passau","type":"Kreisfreie_Stadt"},"district":{"key":"09262","name":"Passau","type":"Kreisfreie_Stadt"},"federalState":{"key":"09","name":"Bayern"}},{"name":"Firmiangut","postalCode":"94034","locality":"Passau","municipality":{"key":"09262000","name":"Passau","type":"Kreisfreie_Stadt"},"district":{"key":"09262","name":"Passau","type":"Kreisfreie_Stadt"},"federalState":{"key":"09","name":"Bayern"}},{"name":"Firmianstr.","postalCode":"94032","locality":"Passau","municipality":{"key":"09262000","name":"Passau","type":"Kreisfreie_Stadt"},"district":{"key":"09262","name":"Passau","type":"Kreisfreie_Stadt"},"federalState":{"key":"09","name":"Bayern"}},{"name":"Fischergäßchen","postalCode":"94032","locality":"Passau","municipality":{"key":"09262000","name":"Passau","type":"Kreisfreie_Stadt"},"district":{"key":"09262","name":"Passau","type":"Kreisfreie_Stadt"},"federalState":{"key":"09","name":"Bayern"}},{"name":"Fischerstr.","postalCode":"94036","locality":"Passau","municipality":{"key":"09262000","name":"Passau","type":"Kreisfreie_Stadt"},"district":{"key":"09262","name":"Passau","type":"Kreisfreie_Stadt"},"federalState":{"key":"09","name":"Bayern"}},{"name":"Fliederweg","postalCode":"94036","locality":"Passau","municipality":{"key":"09262000","name":"Passau","type":"Kreisfreie_Stadt"},"district":{"key":"09262","name":"Passau","type":"Kreisfreie_Stadt"},"federalState":{"key":"09","name":"Bayern"}},{"name":"Flieherweg","postalCode":"94036","locality":"Passau","municipality":{"key":"09262000","name":"Passau","type":"Kreisfreie_Stadt"},"district":{"key":"09262","name":"Passau","type":"Kreisfreie_Stadt"},"federalState":{"key":"09","name":"Bayern"}},{"name":"Florianstr.","postalCode":"94034","locality":"Passau","municipality":{"key":"09262000","name":"Passau","type":"Kreisfreie_Stadt"},"district":{"key":"09262","name":"Passau","type":"Kreisfreie_Stadt"},"federalState":{"key":"09","name":"Bayern"}},{"name":"Forchheimerstr.","postalCode":"94034","locality":"Passau","municipality":{"key":"09262000","name":"Passau","type":"Kreisfreie_Stadt"},"district":{"key":"09262","name":"Passau","type":"Kreisfreie_Stadt"},"federalState":{"key":"09","name":"Bayern"}},{"name":"Franz-Josef-Strauß-Brücke","postalCode":"94034","locality":"Passau","municipality":{"key":"09262000","name":"Passau","type":"Kreisfreie_Stadt"},"district":{"key":"09262","name":"Passau","type":"Kreisfreie_Stadt"},"federalState":{"key":"09","name":"Bayern"}},{"name":"Franz-Josef-Strauß-Brücke","postalCode":"94036","locality":"Passau","municipality":{"key":"09262000","name":"Passau","type":"Kreisfreie_Stadt"},"district":{"key":"09262","name":"Passau","type":"Kreisfreie_Stadt"},"federalState":{"key":"09","name":"Bayern"}},{"name":"Franz-Josef-Streibl-Str.","postalCode":"94034","locality":"Passau","municipality":{"key":"09262000","name":"Passau","type":"Kreisfreie_Stadt"},"district":{"key":"09262","name":"Passau","type":"Kreisfreie_Stadt"},"federalState":{"key":"09","name":"Bayern"}},{"name":"Franz-Mader-Str.","postalCode":"94036","locality":"Passau","municipality":{"key":"09262000","name":"Passau","type":"Kreisfreie_Stadt"},"district":{"key":"09262","name":"Passau","type":"Kreisfreie_Stadt"},"federalState":{"key":"09","name":"Bayern"}},{"name":"Franz-Stockbauer-Weg","postalCode":"94032","locality":"Passau","municipality":{"key":"09262000","name":"Passau","type":"Kreisfreie_Stadt"},"district":{"key":"09262","name":"Passau","type":"Kreisfreie_Stadt"},"federalState":{"key":"09","name":"Bayern"}},{"name":"Franz-Str.r-Str.","postalCode":"94036","locality":"Passau","municipality":{"key":"09262000","name":"Passau","type":"Kreisfreie_Stadt"},"district":{"key":"09262","name":"Passau","type":"Kreisfreie_Stadt"},"federalState":{"key":"09","name":"Bayern"}},{"name":"Franz-Wandl-Str.","postalCode":"94034","locality":"Passau","municipality":{"key":"09262000","name":"Passau","type":"Kreisfreie_Stadt"},"district":{"key":"09262","name":"Passau","type":"Kreisfreie_Stadt"},"federalState":{"key":"09","name":"Bayern"}},{"name":"Franz-Wimmer-Str.","postalCode":"94036","locality":"Passau","municipality":{"key":"09262000","name":"Passau","type":"Kreisfreie_Stadt"},"district":{"key":"09262","name":"Passau","type":"Kreisfreie_Stadt"},"federalState":{"key":"09","name":"Bayern"}},{"name":"Franz-Xaver-Kurländer-Str.","postalCode":"94036","locality":"Passau","municipality":{"key":"09262000","name":"Passau","type":"Kreisfreie_Stadt"},"district":{"key":"09262","name":"Passau","type":"Kreisfreie_Stadt"},"federalState":{"key":"09","name":"Bayern"}},{"name":"Frauengasse","postalCode":"94032","locality":"Passau","municipality":{"key":"09262000","name":"Passau","type":"Kreisfreie_Stadt"},"district":{"key":"09262","name":"Passau","type":"Kreisfreie_Stadt"},"federalState":{"key":"09","name":"Bayern"}},{"name":"Fraunhoferstr.","postalCode":"94036","locality":"Passau","municipality":{"key":"09262000","name":"Passau","type":"Kreisfreie_Stadt"},"district":{"key":"09262","name":"Passau","type":"Kreisfreie_Stadt"},"federalState":{"key":"09","name":"Bayern"}},{"name":"Freinberger Str.","postalCode":"94032","locality":"Passau","municipality":{"key":"09262000","name":"Passau","type":"Kreisfreie_Stadt"},"district":{"key":"09262","name":"Passau","type":"Kreisfreie_Stadt"},"federalState":{"key":"09","name":"Bayern"}},{"name":"Freudenhain","postalCode":"94034","locality":"Passau","municipality":{"key":"09262000","name":"Passau","type":"Kreisfreie_Stadt"},"district":{"key":"09262","name":"Passau","type":"Kreisfreie_Stadt"},"federalState":{"key":"09","name":"Bayern"}},{"name":"Freyunger Str.","postalCode":"94034","locality":"Passau","municipality":{"key":"09262000","name":"Passau","type":"Kreisfreie_Stadt"},"district":{"key":"09262","name":"Passau","type":"Kreisfreie_Stadt"},"federalState":{"key":"09","name":"Bayern"}},{"name":"Fritz-Schäffer-Promenade","postalCode":"94032","locality":"Passau","municipality":{"key":"09262000","name":"Passau","type":"Kreisfreie_Stadt"},"district":{"key":"09262","name":"Passau","type":"Kreisfreie_Stadt"},"federalState":{"key":"09","name":"Bayern"}},{"name":"Frühlingstr.","postalCode":"94032","locality":"Passau","municipality":{"key":"09262000","name":"Passau","type":"Kreisfreie_Stadt"},"district":{"key":"09262","name":"Passau","type":"Kreisfreie_Stadt"},"federalState":{"key":"09","name":"Bayern"}},{"name":"Fuchsbauerweg","postalCode":"94036","locality":"Passau","municipality":{"key":"09262000","name":"Passau","type":"Kreisfreie_Stadt"},"district":{"key":"09262","name":"Passau","type":"Kreisfreie_Stadt"},"federalState":{"key":"09","name":"Bayern"}},{"name":"Fuchsengassl","postalCode":"94032","locality":"Passau","municipality":{"key":"09262000","name":"Passau","type":"Kreisfreie_Stadt"},"district":{"key":"09262","name":"Passau","type":"Kreisfreie_Stadt"},"federalState":{"key":"09","name":"Bayern"}},{"name":"Fürstenweg","postalCode":"94034","locality":"Passau","municipality":{"key":"09262000","name":"Passau","type":"Kreisfreie_Stadt"},"district":{"key":"09262","name":"Passau","type":"Kreisfreie_Stadt"},"federalState":{"key":"09","name":"Bayern"}},{"name":"Fürstenzeller Str.","postalCode":"94036","locality":"Passau","municipality":{"key":"09262000","name":"Passau","type":"Kreisfreie_Stadt"},"district":{"key":"09262","name":"Passau","type":"Kreisfreie_Stadt"},"federalState":{"key":"09","name":"Bayern"}},{"name":"Fußgängerunterführung","postalCode":"94034","locality":"Passau","municipality":{"key":"09262000","name":"Passau","type":"Kreisfreie_Stadt"},"district":{"key":"09262","name":"Passau","type":"Kreisfreie_Stadt"},"federalState":{"key":"09","name":"Bayern"}},{"name":"Gartenstr.","postalCode":"94130","locality":"Obernzell","municipality":{"key":"09275137","name":"Obernzell, M","type":"Markt"},"district":{"key":"09275","name":"Passau","type":"Landkreis"},"federalState":{"key":"09","name":"Bayern"}},{"name":"Grub","postalCode":"94130","locality":"Obernzell","municipality":{"key":"09275137","name":"Obernzell, M","type":"Markt"},"district":{"key":"09275","name":"Passau","type":"Landkreis"},"federalState":{"key":"09","name":"Bayern"}},{"name":"Gruber Str.","postalCode":"94130","locality":"Obernzell","municipality":{"key":"09275137","name":"Obernzell, M","type":"Markt"},"district":{"key":"09275","name":"Passau","type":"Landkreis"},"federalState":{"key":"09","name":"Bayern"}},{"name":"Haarer Str.","postalCode":"94130","locality":"Obernzell","municipality":{"key":"09275137","name":"Obernzell, M","type":"Markt"},"district":{"key":"09275","name":"Passau","type":"Landkreis"},"federalState":{"key":"09","name":"Bayern"}},{"name":"Hameter Str.","postalCode":"94130","locality":"Obernzell","municipality":{"key":"09275137","name":"Obernzell, M","type":"Markt"},"district":{"key":"09275","name":"Passau","type":"Landkreis"},"federalState":{"key":"09","name":"Bayern"}},{"name":"Hametstellen","postalCode":"94130","locality":"Obernzell","municipality":{"key":"09275137","name":"Obernzell, M","type":"Markt"},"district":{"key":"09275","name":"Passau","type":"Landkreis"},"federalState":{"key":"09","name":"Bayern"}},{"name":"Hengstenberg","postalCode":"94130","locality":"Obernzell","municipality":{"key":"09275137","name":"Obernzell, M","type":"Markt"},"district":{"key":"09275","name":"Passau","type":"Landkreis"},"federalState":{"key":"09","name":"Bayern"}},{"name":"Hinterweg","postalCode":"94130","locality":"Obernzell","municipality":{"key":"09275137","name":"Obernzell, M","type":"Markt"},"district":{"key":"09275","name":"Passau","type":"Landkreis"},"federalState":{"key":"09","name":"Bayern"}},{"name":"Hochhäuslweg","postalCode":"94130","locality":"Obernzell","municipality":{"key":"09275137","name":"Obernzell, M","type":"Markt"},"district":{"key":"09275","name":"Passau","type":"Landkreis"},"federalState":{"key":"09","name":"Bayern"}},{"name":"Hochreut","postalCode":"94130","locality":"Obernzell","municipality":{"key":"09275137","name":"Obernzell, M","type":"Markt"},"district":{"key":"09275","name":"Passau","type":"Landkreis"},"federalState":{"key":"09","name":"Bayern"}},{"name":"Hochreutweg","postalCode":"94130","locality":"Obernzell","municipality":{"key":"09275137","name":"Obernzell, M","type":"Markt"},"district":{"key":"09275","name":"Passau","type":"Landkreis"},"federalState":{"key":"09","name":"Bayern"}},{"name":"Hochstr.","postalCode":"94130","locality":"Obernzell","municipality":{"key":"09275137","name":"Obernzell, M","type":"Markt"},"district":{"key":"09275","name":"Passau","type":"Landkreis"},"federalState":{"key":"09","name":"Bayern"}},{"name":"Hofackerweg","postalCode":"94130","locality":"Obernzell","municipality":{"key":"09275137","name":"Obernzell, M","type":"Markt"},"district":{"key":"09275","name":"Passau","type":"Landkreis"},"federalState":{"key":"09","name":"Bayern"}},{"name":"Ilzbrücke","postalCode":"94034","locality":"Passau","municipality":{"key":"09262000","name":"Passau","type":"Kreisfreie_Stadt"},"district":{"key":"09262","name":"Passau","type":"Kreisfreie_Stadt"},"federalState":{"key":"09","name":"Bayern"}},{"name":"Ilzleite","postalCode":"94034","locality":"Passau","municipality":{"key":"09262000","name":"Passau","type":"Kreisfreie_Stadt"},"district":{"key":"09262","name":"Passau","type":"Kreisfreie_Stadt"},"federalState":{"key":"09","name":"Bayern"}},{"name":"Ilztalwanderweg","postalCode":"94034","locality":"Passau","municipality":{"key":"09262000","name":"Passau","type":"Kreisfreie_Stadt"},"district":{"key":"09262","name":"Passau","type":"Kreisfreie_Stadt"},"federalState":{"key":"09","name":"Bayern"}},{"name":"Innbrückgasse","postalCode":"94032","locality":"Passau","municipality":{"key":"09262000","name":"Passau","type":"Kreisfreie_Stadt"},"district":{"key":"09262","name":"Passau","type":"Kreisfreie_Stadt"},"federalState":{"key":"09","name":"Bayern"}},{"name":"Innkai","postalCode":"94032","locality":"Passau","municipality":{"key":"09262000","name":"Passau","type":"Kreisfreie_Stadt"},"district":{"key":"09262","name":"Passau","type":"Kreisfreie_Stadt"},"federalState":{"key":"09","name":"Bayern"}},{"name":"Innpromenade","postalCode":"94032","locality":"Passau","municipality":{"key":"09262000","name":"Passau","type":"Kreisfreie_Stadt"},"district":{"key":"09262","name":"Passau","type":"Kreisfreie_Stadt"},"federalState":{"key":"09","name":"Bayern"}},{"name":"Innsteg","postalCode":"94032","locality":"Passau","municipality":{"key":"09262000","name":"Passau","type":"Kreisfreie_Stadt"},"district":{"key":"09262","name":"Passau","type":"Kreisfreie_Stadt"},"federalState":{"key":"09","name":"Bayern"}},{"name":"Innstr.","postalCode":"94032","locality":"Passau","municipality":{"key":"09262000","name":"Passau","type":"Kreisfreie_Stadt"},"district":{"key":"09262","name":"Passau","type":"Kreisfreie_Stadt"},"federalState":{"key":"09","name":"Bayern"}},{"name":"Innstr.","postalCode":"94036","locality":"Passau","municipality":{"key":"09262000","name":"Passau","type":"Kreisfreie_Stadt"},"district":{"key":"09262","name":"Passau","type":"Kreisfreie_Stadt"},"federalState":{"key":"09","name":"Bayern"}},{"name":"Innwiese","postalCode":"94032","locality":"Passau","municipality":{"key":"09262000","name":"Passau","type":"Kreisfreie_Stadt"},"district":{"key":"09262","name":"Passau","type":"Kreisfreie_Stadt"},"federalState":{"key":"09","name":"Bayern"}},{"name":"Jägerzeile","postalCode":"94130","locality":"Obernzell","municipality":{"key":"09275137","name":"Obernzell, M","type":"Markt"},"district":{"key":"09275","name":"Passau","type":"Landkreis"},"federalState":{"key":"09","name":"Bayern"}},{"name":"Jochensteiner Str.","postalCode":"94130","locality":"Obernzell","municipality":{"key":"09275137","name":"Obernzell, M","type":"Markt"},"district":{"key":"09275","name":"Passau","type":"Landkreis"},"federalState":{"key":"09","name":"Bayern"}},{"name":"Kanzelweg","postalCode":"94130","locality":"Obernzell","municipality":{"key":"09275137","name":"Obernzell, M","type":"Markt"},"district":{"key":"09275","name":"Passau","type":"Landkreis"},"federalState":{"key":"09","name":"Bayern"}},{"name":"Kaufmannweg","postalCode":"94130","locality":"Obernzell","municipality":{"key":"09275137","name":"Obernzell, M","type":"Markt"},"district":{"key":"09275","name":"Passau","type":"Landkreis"},"federalState":{"key":"09","name":"Bayern"}},{"name":"Kiefernweg","postalCode":"94130","locality":"Obernzell","municipality":{"key":"09275137","name":"Obernzell, M","type":"Markt"},"district":{"key":"09275","name":"Passau","type":"Landkreis"},"federalState":{"key":"09","name":"Bayern"}},{"name":"Kirchengasse","postalCode":"94130","locality":"Obernzell","municipality":{"key":"09275137","name":"Obernzell, M","type":"Markt"},"district":{"key":"09275","name":"Passau","type":"Landkreis"},"federalState":{"key":"09","name":"Bayern"}},{"name":"Kirchweg","postalCode":"94130","locality":"Obernzell","municipality":{"key":"09275137","name":"Obernzell, M","type":"Markt"},"district":{"key":"09275","name":"Passau","type":"Landkreis"},"federalState":{"key":"09","name":"Bayern"}},{"name":"Kitzingweg","postalCode":"94130","locality":"Obernzell","municipality":{"key":"09275137","name":"Obernzell, M","type":"Markt"},"district":{"key":"09275","name":"Passau","type":"Landkreis"},"federalState":{"key":"09","name":"Bayern"}},{"name":"Klangfeld","postalCode":"94130","locality":"Obernzell","municipality":{"key":"09275137","name":"Obernzell, M","type":"Markt"},"district":{"key":"09275","name":"Passau","type":"Landkreis"},"federalState":{"key":"09","name":"Bayern"}},{"name":"Klangweg","postalCode":"94130","locality":"Obernzell","municipality":{"key":"09275137","name":"Obernzell, M","type":"Markt"},"district":{"key":"09275","name":"Passau","type":"Landkreis"},"federalState":{"key":"09","name":"Bayern"}},{"name":"Klosterweg","postalCode":"94130","locality":"Obernzell","municipality":{"key":"09275137","name":"Obernzell, M","type":"Markt"},"district":{"key":"09275","name":"Passau","type":"Landkreis"},"federalState":{"key":"09","name":"Bayern"}},{"name":"Krankenhausstr.","postalCode":"94130","locality":"Obernzell","municipality":{"key":"09275137","name":"Obernzell, M","type":"Markt"},"district":{"key":"09275","name":"Passau","type":"Landkreis"},"federalState":{"key":"09","name":"Bayern"}},{"name":"Kugelholzstr.","postalCode":"94130","locality":"Obernzell","municipality":{"key":"09275137","name":"Obernzell, M","type":"Markt"},"district":{"key":"09275","name":"Passau","type":"Landkreis"},"federalState":{"key":"09","name":"Bayern"}},{"name":"Lärchenweg","postalCode":"94130","locality":"Obernzell","municipality":{"key":"09275137","name":"Obernzell, M","type":"Markt"},"district":{"key":"09275","name":"Passau","type":"Landkreis"},"federalState":{"key":"09","name":"Bayern"}},{"name":"Ledererplatz","postalCode":"94130","locality":"Obernzell","municipality":{"key":"09275137","name":"Obernzell, M","type":"Markt"},"district":{"key":"09275","name":"Passau","type":"Landkreis"},"federalState":{"key":"09","name":"Bayern"}},{"name":"Leithenweg","postalCode":"94130","locality":"Obernzell","municipality":{"key":"09275137","name":"Obernzell, M","type":"Markt"},"district":{"key":"09275","name":"Passau","type":"Landkreis"},"federalState":{"key":"09","name":"Bayern"}},{"name":"Leopoldsdorf","postalCode":"94130","locality":"Obernzell","municipality":{"key":"09275137","name":"Obernzell, M","type":"Markt"},"district":{"key":"09275","name":"Passau","type":"Landkreis"},"federalState":{"key":"09","name":"Bayern"}},{"name":"Lindenstr.","postalCode":"94130","locality":"Obernzell","municipality":{"key":"09275137","name":"Obernzell, M","type":"Markt"},"district":{"key":"09275","name":"Passau","type":"Landkreis"},"federalState":{"key":"09","name":"Bayern"}},{"name":"Lüfteneckerstr.","postalCode":"94130","locality":"Obernzell","municipality":{"key":"09275137","name":"Obernzell, M","type":"Markt"},"district":{"key":"09275","name":"Passau","type":"Landkreis"},"federalState":{"key":"09","name":"Bayern"}},{"name":"Lukas-Kern-Str.","postalCode":"94130","locality":"Obernzell","municipality":{"key":"09275137","name":"Obernzell, M","type":"Markt"},"district":{"key":"09275","name":"Passau","type":"Landkreis"},"federalState":{"key":"09","name":"Bayern"}},{"name":"Marktplatz","postalCode":"94130","locality":"Obernzell","municipality":{"key":"09275137","name":"Obernzell, M","type":"Markt"},"district":{"key":"09275","name":"Passau","type":"Landkreis"},"federalState":{"key":"09","name":"Bayern"}},{"name":"Matzenberger Str.","postalCode":"94130","locality":"Obernzell","municipality":{"key":"09275137","name":"Obernzell, M","type":"Markt"},"district":{"key":"09275","name":"Passau","type":"Landkreis"},"federalState":{"key":"09","name":"Bayern"}},{"name":"Max-Moser-Str.","postalCode":"94130","locality":"Obernzell","municipality":{"key":"09275137","name":"Obernzell, M","type":"Markt"},"district":{"key":"09275","name":"Passau","type":"Landkreis"},"federalState":{"key":"09","name":"Bayern"}},{"name":"Mitterfeld","postalCode":"94130","locality":"Obernzell","municipality":{"key":"09275137","name":"Obernzell, M","type":"Markt"},"district":{"key":"09275","name":"Passau","type":"Landkreis"},"federalState":{"key":"09","name":"Bayern"}},{"name":"Mitterweg","postalCode":"94130","locality":"Obernzell","municipality":{"key":"09275137","name":"Obernzell, M","type":"Markt"},"district":{"key":"09275","name":"Passau","type":"Landkreis"},"federalState":{"key":"09","name":"Bayern"}},{"name":"Moststeig","postalCode":"94130","locality":"Obernzell","municipality":{"key":"09275137","name":"Obernzell, M","type":"Markt"},"district":{"key":"09275","name":"Passau","type":"Landkreis"},"federalState":{"key":"09","name":"Bayern"}},{"name":"Mostwanderweg","postalCode":"94130","locality":"Obernzell","municipality":{"key":"09275137","name":"Obernzell, M","type":"Markt"},"district":{"key":"09275","name":"Passau","type":"Landkreis"},"federalState":{"key":"09","name":"Bayern"}},{"name":"Niederndorfer Weg","postalCode":"94130","locality":"Obernzell","municipality":{"key":"09275137","name":"Obernzell, M","type":"Markt"},"district":{"key":"09275","name":"Passau","type":"Landkreis"},"federalState":{"key":"09","name":"Bayern"}},{"name":"Nottau","postalCode":"94130","locality":"Obernzell","municipality":{"key":"09275137","name":"Obernzell, M","type":"Markt"},"district":{"key":"09275","name":"Passau","type":"Landkreis"},"federalState":{"key":"09","name":"Bayern"}},{"name":"Oberer Schmidsberg","postalCode":"94130","locality":"Obernzell","municipality":{"key":"09275137","name":"Obernzell, M","type":"Markt"},"district":{"key":"09275","name":"Passau","type":"Landkreis"},"federalState":{"key":"09","name":"Bayern"}},{"name":"Oberes Mitterfeld","postalCode":"94130","locality":"Obernzell","municipality":{"key":"09275137","name":"Obernzell, M","type":"Markt"},"district":{"key":"09275","name":"Passau","type":"Landkreis"},"federalState":{"key":"09","name":"Bayern"}},{"name":"Passauer Str.","postalCode":"94130","locality":"Obernzell","municipality":{"key":"09275137","name":"Obernzell, M","type":"Markt"},"district":{"key":"09275","name":"Passau","type":"Landkreis"},"federalState":{"key":"09","name":"Bayern"}},{"name":"Promenadenweg","postalCode":"94130","locality":"Obernzell","municipality":{"key":"09275137","name":"Obernzell, M","type":"Markt"},"district":{"key":"09275","name":"Passau","type":"Landkreis"},"federalState":{"key":"09","name":"Bayern"}},{"name":"Quellenweg","postalCode":"94130","locality":"Obernzell","municipality":{"key":"09275137","name":"Obernzell, M","type":"Markt"},"district":{"key":"09275","name":"Passau","type":"Landkreis"},"federalState":{"key":"09","name":"Bayern"}},{"name":"Rechenmacherweg","postalCode":"94130","locality":"Obernzell","municipality":{"key":"09275137","name":"Obernzell, M","type":"Markt"},"district":{"key":"09275","name":"Passau","type":"Landkreis"},"federalState":{"key":"09","name":"Bayern"}},{"name":"Ringstr.","postalCode":"94130","locality":"Obernzell","municipality":{"key":"09275137","name":"Obernzell, M","type":"Markt"},"district":{"key":"09275","name":"Passau","type":"Landkreis"},"federalState":{"key":"09","name":"Bayern"}},{"name":"Schlosspark","postalCode":"94130","locality":"Obernzell","municipality":{"key":"09275137","name":"Obernzell, M","type":"Markt"},"district":{"key":"09275","name":"Passau","type":"Landkreis"},"federalState":{"key":"09","name":"Bayern"}},{"name":"Schloßplatz","postalCode":"94130","locality":"Obernzell","municipality":{"key":"09275137","name":"Obernzell, M","type":"Markt"},"district":{"key":"09275","name":"Passau","type":"Landkreis"},"federalState":{"key":"09","name":"Bayern"}},{"name":"Schmidsberg","postalCode":"94130","locality":"Obernzell","municipality":{"key":"09275137","name":"Obernzell, M","type":"Markt"},"district":{"key":"09275","name":"Passau","type":"Landkreis"},"federalState":{"key":"09","name":"Bayern"}},{"name":"Schmiedgasse","postalCode":"94130","locality":"Obernzell","municipality":{"key":"09275137","name":"Obernzell, M","type":"Markt"},"district":{"key":"09275","name":"Passau","type":"Landkreis"},"federalState":{"key":"09","name":"Bayern"}},{"name":"Siedlungsstr.","postalCode":"94130","locality":"Obernzell","municipality":{"key":"09275137","name":"Obernzell, M","type":"Markt"},"district":{"key":"09275","name":"Passau","type":"Landkreis"},"federalState":{"key":"09","name":"Bayern"}},{"name":"Spitalweg","postalCode":"94130","locality":"Obernzell","municipality":{"key":"09275137","name":"Obernzell, M","type":"Markt"},"district":{"key":"09275","name":"Passau","type":"Landkreis"},"federalState":{"key":"09","name":"Bayern"}},{"name":"Tillygasse","postalCode":"94130","locality":"Obernzell","municipality":{"key":"09275137","name":"Obernzell, M","type":"Markt"},"district":{"key":"09275","name":"Passau","type":"Landkreis"},"federalState":{"key":"09","name":"Bayern"}},{"name":"Treidelweg","postalCode":"94130","locality":"Obernzell","municipality":{"key":"09275137","name":"Obernzell, M","type":"Markt"},"district":{"key":"09275","name":"Passau","type":"Landkreis"},"federalState":{"key":"09","name":"Bayern"}},{"name":"Uferstr.","postalCode":"94130","locality":"Obernzell","municipality":{"key":"09275137","name":"Obernzell, M","type":"Markt"},"district":{"key":"09275","name":"Passau","type":"Landkreis"},"federalState":{"key":"09","name":"Bayern"}},{"name":"Unteres Mitterfeld","postalCode":"94130","locality":"Obernzell","municipality":{"key":"09275137","name":"Obernzell, M","type":"Markt"},"district":{"key":"09275","name":"Passau","type":"Landkreis"},"federalState":{"key":"09","name":"Bayern"}},{"name":"Valentinweg","postalCode":"94034","locality":"Passau","municipality":{"key":"09262000","name":"Passau","type":"Kreisfreie_Stadt"},"district":{"key":"09262","name":"Passau","type":"Kreisfreie_Stadt"},"federalState":{"key":"09","name":"Bayern"}},{"name":"Verbindungsweg Bramerhof - Stromlänge","postalCode":"94034","locality":"Passau","municipality":{"key":"09262000","name":"Passau","type":"Kreisfreie_Stadt"},"district":{"key":"09262","name":"Passau","type":"Kreisfreie_Stadt"},"federalState":{"key":"09","name":"Bayern"}},{"name":"Verbindungsweg Ilzleite - Bramerhof","postalCode":"94034","locality":"Passau","municipality":{"key":"09262000","name":"Passau","type":"Kreisfreie_Stadt"},"district":{"key":"09262","name":"Passau","type":"Kreisfreie_Stadt"},"federalState":{"key":"09","name":"Bayern"}},{"name":"Vilshofener Str.","postalCode":"94034","locality":"Passau","municipality":{"key":"09262000","name":"Passau","type":"Kreisfreie_Stadt"},"district":{"key":"09262","name":"Passau","type":"Kreisfreie_Stadt"},"federalState":{"key":"09","name":"Bayern"}},{"name":"Vogelweiderstr.","postalCode":"94036","locality":"Passau","municipality":{"key":"09262000","name":"Passau","type":"Kreisfreie_Stadt"},"district":{"key":"09262","name":"Passau","type":"Kreisfreie_Stadt"},"federalState":{"key":"09","name":"Bayern"}},{"name":"Voggenberger Weg","postalCode":"94034","locality":"Passau","municipality":{"key":"09262000","name":"Passau","type":"Kreisfreie_Stadt"},"district":{"key":"09262","name":"Passau","type":"Kreisfreie_Stadt"},"federalState":{"key":"09","name":"Bayern"}},{"name":"Voglau","postalCode":"94032","locality":"Passau","municipality":{"key":"09262000","name":"Passau","type":"Kreisfreie_Stadt"},"district":{"key":"09262","name":"Passau","type":"Kreisfreie_Stadt"},"federalState":{"key":"09","name":"Bayern"}},{"name":"Von-Kramer-Str.","postalCode":"94034","locality":"Passau","municipality":{"key":"09262000","name":"Passau","type":"Kreisfreie_Stadt"},"district":{"key":"09262","name":"Passau","type":"Kreisfreie_Stadt"},"federalState":{"key":"09","name":"Bayern"}},{"name":"Von-Rudhart-Str.","postalCode":"94032","locality":"Passau","municipality":{"key":"09262000","name":"Passau","type":"Kreisfreie_Stadt"},"district":{"key":"09262","name":"Passau","type":"Kreisfreie_Stadt"},"federalState":{"key":"09","name":"Bayern"}},{"name":"Vornholzstr.","postalCode":"94036","locality":"Passau","municipality":{"key":"09262000","name":"Passau","type":"Kreisfreie_Stadt"},"district":{"key":"09262","name":"Passau","type":"Kreisfreie_Stadt"},"federalState":{"key":"09","name":"Bayern"}},{"name":"Weidwiesweg","postalCode":"94130","locality":"Obernzell","municipality":{"key":"09275137","name":"Obernzell, M","type":"Markt"},"district":{"key":"09275","name":"Passau","type":"Landkreis"},"federalState":{"key":"09","name":"Bayern"}},{"name":"Windschnur","postalCode":"94130","locality":"Obernzell","municipality":{"key":"09275137","name":"Obernzell, M","type":"Markt"},"district":{"key":"09275","name":"Passau","type":"Landkreis"},"federalState":{"key":"09","name":"Bayern"}},{"name":"Zeilbergweg","postalCode":"94036","locality":"Passau","municipality":{"key":"09262000","name":"Passau","type":"Kreisfreie_Stadt"},"district":{"key":"09262","name":"Passau","type":"Kreisfreie_Stadt"},"federalState":{"key":"09","name":"Bayern"}},{"name":"Zengergasse","postalCode":"94032","locality":"Passau","municipality":{"key":"09262000","name":"Passau","type":"Kreisfreie_Stadt"},"district":{"key":"09262","name":"Passau","type":"Kreisfreie_Stadt"},"federalState":{"key":"09","name":"Bayern"}},{"name":"Zieglreuth","postalCode":"94034","locality":"Passau","municipality":{"key":"09262000","name":"Passau","type":"Kreisfreie_Stadt"},"district":{"key":"09262","name":"Passau","type":"Kreisfreie_Stadt"},"federalState":{"key":"09","name":"Bayern"}},{"name":"Zieglstadl","postalCode":"94034","locality":"Passau","municipality":{"key":"09262000","name":"Passau","type":"Kreisfreie_Stadt"},"district":{"key":"09262","name":"Passau","type":"Kreisfreie_Stadt"},"federalState":{"key":"09","name":"Bayern"}},{"name":"Zinngießergasse","postalCode":"94032","locality":"Passau","municipality":{"key":"09262000","name":"Passau","type":"Kreisfreie_Stadt"},"district":{"key":"09262","name":"Passau","type":"Kreisfreie_Stadt"},"federalState":{"key":"09","name":"Bayern"}},{"name":"Zufahrt St.-Severin-Schule","postalCode":"94034","locality":"Passau","municipality":{"key":"09262000","name":"Passau","type":"Kreisfreie_Stadt"},"district":{"key":"09262","name":"Passau","type":"Kreisfreie_Stadt"},"federalState":{"key":"09","name":"Bayern"}},{"name":"Zugang zur Kirche","postalCode":"94034","locality":"Passau","municipality":{"key":"09262000","name":"Passau","type":"Kreisfreie_Stadt"},"district":{"key":"09262","name":"Passau","type":"Kreisfreie_Stadt"},"federalState":{"key":"09","name":"Bayern"}},{"name":"Zwinger","postalCode":"94032","locality":"Passau","municipality":{"key":"09262000","name":"Passau","type":"Kreisfreie_Stadt"},"district":{"key":"09262","name":"Passau","type":"Kreisfreie_Stadt"},"federalState":{"key":"09","name":"Bayern"}},{"name":"Äußere Spitalhofstr.","postalCode":"94036","locality":"Passau","municipality":{"key":"09262000","name":"Passau","type":"Kreisfreie_Stadt"},"district":{"key":"09262","name":"Passau","type":"Kreisfreie_Stadt"},"federalState":{"key":"09","name":"Bayern"}},{"name":"Örtl","postalCode":"94130","locality":"Obernzell","municipality":{"key":"09275137","name":"Obernzell, M","type":"Markt"},"district":{"key":"09275","name":"Passau","type":"Landkreis"},"federalState":{"key":"09","name":"Bayern"}},]