[{"name":"Alte Poststr.","postalCode":"96528","locality":"Frankenblick","municipality":{"key":"16072023","name":"Frankenblick","type":"Kreisangehörige_Gemeinde"},"district":{"key":"16072","name":"Sonneberg","type":"Landkreis"},"federalState":{"key":"16","name":"Thüringen"}},{"name":"Alter Weg","postalCode":"96528","locality":"Frankenblick","municipality":{"key":"16072023","name":"Frankenblick","type":"Kreisangehörige_Gemeinde"},"district":{"key":"16072","name":"Sonneberg","type":"Landkreis"},"federalState":{"key":"16","name":"Thüringen"}},{"name":"Am Adelsberg","postalCode":"96528","locality":"Frankenblick","municipality":{"key":"16072023","name":"Frankenblick","type":"Kreisangehörige_Gemeinde"},"district":{"key":"16072","name":"Sonneberg","type":"Landkreis"},"federalState":{"key":"16","name":"Thüringen"}},{"name":"Am Bahnhof","postalCode":"96528","locality":"Frankenblick","municipality":{"key":"16072023","name":"Frankenblick","type":"Kreisangehörige_Gemeinde"},"district":{"key":"16072","name":"Sonneberg","type":"Landkreis"},"federalState":{"key":"16","name":"Thüringen"}},{"name":"Am Fichtacher Berg","postalCode":"96528","locality":"Frankenblick","municipality":{"key":"16072023","name":"Frankenblick","type":"Kreisangehörige_Gemeinde"},"district":{"key":"16072","name":"Sonneberg","type":"Landkreis"},"federalState":{"key":"16","name":"Thüringen"}},{"name":"Am Gänseteich","postalCode":"96528","locality":"Frankenblick","municipality":{"key":"16072023","name":"Frankenblick","type":"Kreisangehörige_Gemeinde"},"district":{"key":"16072","name":"Sonneberg","type":"Landkreis"},"federalState":{"key":"16","name":"Thüringen"}},{"name":"Am Graben","postalCode":"96528","locality":"Frankenblick","municipality":{"key":"16072023","name":"Frankenblick","type":"Kreisangehörige_Gemeinde"},"district":{"key":"16072","name":"Sonneberg","type":"Landkreis"},"federalState":{"key":"16","name":"Thüringen"}},{"name":"Am Isaak","postalCode":"96528","locality":"Frankenblick","municipality":{"key":"16072023","name":"Frankenblick","type":"Kreisangehörige_Gemeinde"},"district":{"key":"16072","name":"Sonneberg","type":"Landkreis"},"federalState":{"key":"16","name":"Thüringen"}},{"name":"Am Retschenbach","postalCode":"96528","locality":"Frankenblick","municipality":{"key":"16072023","name":"Frankenblick","type":"Kreisangehörige_Gemeinde"},"district":{"key":"16072","name":"Sonneberg","type":"Landkreis"},"federalState":{"key":"16","name":"Thüringen"}},{"name":"Am Rod","postalCode":"96528","locality":"Frankenblick","municipality":{"key":"16072023","name":"Frankenblick","type":"Kreisangehörige_Gemeinde"},"district":{"key":"16072","name":"Sonneberg","type":"Landkreis"},"federalState":{"key":"16","name":"Thüringen"}},{"name":"Am Rothenberg","postalCode":"96528","locality":"Frankenblick","municipality":{"key":"16072023","name":"Frankenblick","type":"Kreisangehörige_Gemeinde"},"district":{"key":"16072","name":"Sonneberg","type":"Landkreis"},"federalState":{"key":"16","name":"Thüringen"}},{"name":"Am Str.nberg","postalCode":"96528","locality":"Frankenblick","municipality":{"key":"16072023","name":"Frankenblick","type":"Kreisangehörige_Gemeinde"},"district":{"key":"16072","name":"Sonneberg","type":"Landkreis"},"federalState":{"key":"16","name":"Thüringen"}},{"name":"An der Feuerwehr","postalCode":"96528","locality":"Frankenblick","municipality":{"key":"16072023","name":"Frankenblick","type":"Kreisangehörige_Gemeinde"},"district":{"key":"16072","name":"Sonneberg","type":"Landkreis"},"federalState":{"key":"16","name":"Thüringen"}},{"name":"An der Maß","postalCode":"96528","locality":"Frankenblick","municipality":{"key":"16072023","name":"Frankenblick","type":"Kreisangehörige_Gemeinde"},"district":{"key":"16072","name":"Sonneberg","type":"Landkreis"},"federalState":{"key":"16","name":"Thüringen"}},{"name":"An der Oberschaar","postalCode":"96528","locality":"Frankenblick","municipality":{"key":"16072023","name":"Frankenblick","type":"Kreisangehörige_Gemeinde"},"district":{"key":"16072","name":"Sonneberg","type":"Landkreis"},"federalState":{"key":"16","name":"Thüringen"}},{"name":"An der Schmiede","postalCode":"96528","locality":"Frankenblick","municipality":{"key":"16072023","name":"Frankenblick","type":"Kreisangehörige_Gemeinde"},"district":{"key":"16072","name":"Sonneberg","type":"Landkreis"},"federalState":{"key":"16","name":"Thüringen"}},{"name":"Augustenthal","postalCode":"96528","locality":"Frankenblick","municipality":{"key":"16072023","name":"Frankenblick","type":"Kreisangehörige_Gemeinde"},"district":{"key":"16072","name":"Sonneberg","type":"Landkreis"},"federalState":{"key":"16","name":"Thüringen"}},{"name":"Aumühlenweg","postalCode":"96528","locality":"Frankenblick","municipality":{"key":"16072023","name":"Frankenblick","type":"Kreisangehörige_Gemeinde"},"district":{"key":"16072","name":"Sonneberg","type":"Landkreis"},"federalState":{"key":"16","name":"Thüringen"}},{"name":"Bahnhofsallee","postalCode":"96528","locality":"Frankenblick","municipality":{"key":"16072023","name":"Frankenblick","type":"Kreisangehörige_Gemeinde"},"district":{"key":"16072","name":"Sonneberg","type":"Landkreis"},"federalState":{"key":"16","name":"Thüringen"}},{"name":"Bahnhofsplatz","postalCode":"96528","locality":"Frankenblick","municipality":{"key":"16072023","name":"Frankenblick","type":"Kreisangehörige_Gemeinde"},"district":{"key":"16072","name":"Sonneberg","type":"Landkreis"},"federalState":{"key":"16","name":"Thüringen"}},{"name":"Bahnhofstr.","postalCode":"96528","locality":"Frankenblick","municipality":{"key":"16072023","name":"Frankenblick","type":"Kreisangehörige_Gemeinde"},"district":{"key":"16072","name":"Sonneberg","type":"Landkreis"},"federalState":{"key":"16","name":"Thüringen"}},{"name":"Baumleite","postalCode":"96528","locality":"Frankenblick","municipality":{"key":"16072023","name":"Frankenblick","type":"Kreisangehörige_Gemeinde"},"district":{"key":"16072","name":"Sonneberg","type":"Landkreis"},"federalState":{"key":"16","name":"Thüringen"}},{"name":"Bergäcker","postalCode":"96528","locality":"Frankenblick","municipality":{"key":"16072023","name":"Frankenblick","type":"Kreisangehörige_Gemeinde"},"district":{"key":"16072","name":"Sonneberg","type":"Landkreis"},"federalState":{"key":"16","name":"Thüringen"}},{"name":"Bergeller","postalCode":"96528","locality":"Frankenblick","municipality":{"key":"16072023","name":"Frankenblick","type":"Kreisangehörige_Gemeinde"},"district":{"key":"16072","name":"Sonneberg","type":"Landkreis"},"federalState":{"key":"16","name":"Thüringen"}},{"name":"Bergweg","postalCode":"96528","locality":"Frankenblick","municipality":{"key":"16072023","name":"Frankenblick","type":"Kreisangehörige_Gemeinde"},"district":{"key":"16072","name":"Sonneberg","type":"Landkreis"},"federalState":{"key":"16","name":"Thüringen"}},{"name":"Braugasse","postalCode":"96528","locality":"Frankenblick","municipality":{"key":"16072023","name":"Frankenblick","type":"Kreisangehörige_Gemeinde"},"district":{"key":"16072","name":"Sonneberg","type":"Landkreis"},"federalState":{"key":"16","name":"Thüringen"}},{"name":"Brunnengäßchen","postalCode":"96528","locality":"Frankenblick","municipality":{"key":"16072023","name":"Frankenblick","type":"Kreisangehörige_Gemeinde"},"district":{"key":"16072","name":"Sonneberg","type":"Landkreis"},"federalState":{"key":"16","name":"Thüringen"}},{"name":"Burgberg","postalCode":"96528","locality":"Frankenblick","municipality":{"key":"16072023","name":"Frankenblick","type":"Kreisangehörige_Gemeinde"},"district":{"key":"16072","name":"Sonneberg","type":"Landkreis"},"federalState":{"key":"16","name":"Thüringen"}},{"name":"Burggartenstr.","postalCode":"96528","locality":"Frankenblick","municipality":{"key":"16072023","name":"Frankenblick","type":"Kreisangehörige_Gemeinde"},"district":{"key":"16072","name":"Sonneberg","type":"Landkreis"},"federalState":{"key":"16","name":"Thüringen"}},{"name":"Charlottenstr.","postalCode":"96515","locality":"Sonneberg","municipality":{"key":"16072018","name":"Sonneberg, Stadt","type":"Stadt"},"district":{"key":"16072","name":"Sonneberg","type":"Landkreis"},"federalState":{"key":"16","name":"Thüringen"}},{"name":"Clara-Zetkin-Str.","postalCode":"96515","locality":"Sonneberg","municipality":{"key":"16072018","name":"Sonneberg, Stadt","type":"Stadt"},"district":{"key":"16072","name":"Sonneberg","type":"Landkreis"},"federalState":{"key":"16","name":"Thüringen"}},{"name":"Coburger Allee","postalCode":"96515","locality":"Sonneberg","municipality":{"key":"16072018","name":"Sonneberg, Stadt","type":"Stadt"},"district":{"key":"16072","name":"Sonneberg","type":"Landkreis"},"federalState":{"key":"16","name":"Thüringen"}},{"name":"Coburger Str.","postalCode":"96515","locality":"Sonneberg","municipality":{"key":"16072018","name":"Sonneberg, Stadt","type":"Stadt"},"district":{"key":"16072","name":"Sonneberg","type":"Landkreis"},"federalState":{"key":"16","name":"Thüringen"}},{"name":"Cuno-Hoffmeister-Str.","postalCode":"96515","locality":"Sonneberg","municipality":{"key":"16072018","name":"Sonneberg, Stadt","type":"Stadt"},"district":{"key":"16072","name":"Sonneberg","type":"Landkreis"},"federalState":{"key":"16","name":"Thüringen"}},{"name":"Denkmalsweg","postalCode":"96528","locality":"Frankenblick","municipality":{"key":"16072023","name":"Frankenblick","type":"Kreisangehörige_Gemeinde"},"district":{"key":"16072","name":"Sonneberg","type":"Landkreis"},"federalState":{"key":"16","name":"Thüringen"}},{"name":"Döhlau","postalCode":"96528","locality":"Frankenblick","municipality":{"key":"16072023","name":"Frankenblick","type":"Kreisangehörige_Gemeinde"},"district":{"key":"16072","name":"Sonneberg","type":"Landkreis"},"federalState":{"key":"16","name":"Thüringen"}},{"name":"Döhlauer Str.","postalCode":"96528","locality":"Frankenblick","municipality":{"key":"16072023","name":"Frankenblick","type":"Kreisangehörige_Gemeinde"},"district":{"key":"16072","name":"Sonneberg","type":"Landkreis"},"federalState":{"key":"16","name":"Thüringen"}},{"name":"Ecke","postalCode":"96528","locality":"Frankenblick","municipality":{"key":"16072023","name":"Frankenblick","type":"Kreisangehörige_Gemeinde"},"district":{"key":"16072","name":"Sonneberg","type":"Landkreis"},"federalState":{"key":"16","name":"Thüringen"}},{"name":"Ecken","postalCode":"96528","locality":"Frankenblick","municipality":{"key":"16072023","name":"Frankenblick","type":"Kreisangehörige_Gemeinde"},"district":{"key":"16072","name":"Sonneberg","type":"Landkreis"},"federalState":{"key":"16","name":"Thüringen"}},{"name":"Effelderstr.","postalCode":"96528","locality":"Frankenblick","municipality":{"key":"16072023","name":"Frankenblick","type":"Kreisangehörige_Gemeinde"},"district":{"key":"16072","name":"Sonneberg","type":"Landkreis"},"federalState":{"key":"16","name":"Thüringen"}},{"name":"Ehnesbach","postalCode":"96528","locality":"Frankenblick","municipality":{"key":"16072023","name":"Frankenblick","type":"Kreisangehörige_Gemeinde"},"district":{"key":"16072","name":"Sonneberg","type":"Landkreis"},"federalState":{"key":"16","name":"Thüringen"}},{"name":"Eisfelder Str.","postalCode":"96528","locality":"Frankenblick","municipality":{"key":"16072023","name":"Frankenblick","type":"Kreisangehörige_Gemeinde"},"district":{"key":"16072","name":"Sonneberg","type":"Landkreis"},"federalState":{"key":"16","name":"Thüringen"}},{"name":"Ernst-Moritz-Arndt-Str.","postalCode":"96528","locality":"Frankenblick","municipality":{"key":"16072023","name":"Frankenblick","type":"Kreisangehörige_Gemeinde"},"district":{"key":"16072","name":"Sonneberg","type":"Landkreis"},"federalState":{"key":"16","name":"Thüringen"}},{"name":"Fabrikweg","postalCode":"96528","locality":"Frankenblick","municipality":{"key":"16072023","name":"Frankenblick","type":"Kreisangehörige_Gemeinde"},"district":{"key":"16072","name":"Sonneberg","type":"Landkreis"},"federalState":{"key":"16","name":"Thüringen"}},{"name":"Fichtacher Str.","postalCode":"96528","locality":"Frankenblick","municipality":{"key":"16072023","name":"Frankenblick","type":"Kreisangehörige_Gemeinde"},"district":{"key":"16072","name":"Sonneberg","type":"Landkreis"},"federalState":{"key":"16","name":"Thüringen"}},{"name":"Fleckrain","postalCode":"96528","locality":"Frankenblick","municipality":{"key":"16072023","name":"Frankenblick","type":"Kreisangehörige_Gemeinde"},"district":{"key":"16072","name":"Sonneberg","type":"Landkreis"},"federalState":{"key":"16","name":"Thüringen"}},{"name":"Flurweg","postalCode":"96528","locality":"Frankenblick","municipality":{"key":"16072023","name":"Frankenblick","type":"Kreisangehörige_Gemeinde"},"district":{"key":"16072","name":"Sonneberg","type":"Landkreis"},"federalState":{"key":"16","name":"Thüringen"}},{"name":"Forschengereuther Platz","postalCode":"96528","locality":"Frankenblick","municipality":{"key":"16072023","name":"Frankenblick","type":"Kreisangehörige_Gemeinde"},"district":{"key":"16072","name":"Sonneberg","type":"Landkreis"},"federalState":{"key":"16","name":"Thüringen"}},{"name":"Forschengereuther Str.","postalCode":"96528","locality":"Frankenblick","municipality":{"key":"16072023","name":"Frankenblick","type":"Kreisangehörige_Gemeinde"},"district":{"key":"16072","name":"Sonneberg","type":"Landkreis"},"federalState":{"key":"16","name":"Thüringen"}},{"name":"Forststr.","postalCode":"96528","locality":"Frankenblick","municipality":{"key":"16072023","name":"Frankenblick","type":"Kreisangehörige_Gemeinde"},"district":{"key":"16072","name":"Sonneberg","type":"Landkreis"},"federalState":{"key":"16","name":"Thüringen"}},{"name":"Freiherr-vom-Stein-Str.","postalCode":"96528","locality":"Frankenblick","municipality":{"key":"16072023","name":"Frankenblick","type":"Kreisangehörige_Gemeinde"},"district":{"key":"16072","name":"Sonneberg","type":"Landkreis"},"federalState":{"key":"16","name":"Thüringen"}},{"name":"Georgiistr.","postalCode":"96528","locality":"Frankenblick","municipality":{"key":"16072023","name":"Frankenblick","type":"Kreisangehörige_Gemeinde"},"district":{"key":"16072","name":"Sonneberg","type":"Landkreis"},"federalState":{"key":"16","name":"Thüringen"}},{"name":"Grenzweg","postalCode":"96528","locality":"Frankenblick","municipality":{"key":"16072023","name":"Frankenblick","type":"Kreisangehörige_Gemeinde"},"district":{"key":"16072","name":"Sonneberg","type":"Landkreis"},"federalState":{"key":"16","name":"Thüringen"}},{"name":"Hallgrund","postalCode":"96528","locality":"Frankenblick","municipality":{"key":"16072023","name":"Frankenblick","type":"Kreisangehörige_Gemeinde"},"district":{"key":"16072","name":"Sonneberg","type":"Landkreis"},"federalState":{"key":"16","name":"Thüringen"}},{"name":"Hammerberg","postalCode":"96528","locality":"Frankenblick","municipality":{"key":"16072023","name":"Frankenblick","type":"Kreisangehörige_Gemeinde"},"district":{"key":"16072","name":"Sonneberg","type":"Landkreis"},"federalState":{"key":"16","name":"Thüringen"}},{"name":"Hämmerer Ortsstr.","postalCode":"96528","locality":"Frankenblick","municipality":{"key":"16072023","name":"Frankenblick","type":"Kreisangehörige_Gemeinde"},"district":{"key":"16072","name":"Sonneberg","type":"Landkreis"},"federalState":{"key":"16","name":"Thüringen"}},{"name":"Harleslinie","postalCode":"96528","locality":"Frankenblick","municipality":{"key":"16072023","name":"Frankenblick","type":"Kreisangehörige_Gemeinde"},"district":{"key":"16072","name":"Sonneberg","type":"Landkreis"},"federalState":{"key":"16","name":"Thüringen"}},{"name":"Harzweg","postalCode":"96528","locality":"Frankenblick","municipality":{"key":"16072023","name":"Frankenblick","type":"Kreisangehörige_Gemeinde"},"district":{"key":"16072","name":"Sonneberg","type":"Landkreis"},"federalState":{"key":"16","name":"Thüringen"}},{"name":"Heidersberg","postalCode":"96528","locality":"Frankenblick","municipality":{"key":"16072023","name":"Frankenblick","type":"Kreisangehörige_Gemeinde"},"district":{"key":"16072","name":"Sonneberg","type":"Landkreis"},"federalState":{"key":"16","name":"Thüringen"}},{"name":"Heimstätten","postalCode":"96528","locality":"Frankenblick","municipality":{"key":"16072023","name":"Frankenblick","type":"Kreisangehörige_Gemeinde"},"district":{"key":"16072","name":"Sonneberg","type":"Landkreis"},"federalState":{"key":"16","name":"Thüringen"}},{"name":"Hennersberg","postalCode":"96528","locality":"Frankenblick","municipality":{"key":"16072023","name":"Frankenblick","type":"Kreisangehörige_Gemeinde"},"district":{"key":"16072","name":"Sonneberg","type":"Landkreis"},"federalState":{"key":"16","name":"Thüringen"}},{"name":"Hofwiesenstr.","postalCode":"96528","locality":"Frankenblick","municipality":{"key":"16072023","name":"Frankenblick","type":"Kreisangehörige_Gemeinde"},"district":{"key":"16072","name":"Sonneberg","type":"Landkreis"},"federalState":{"key":"16","name":"Thüringen"}},{"name":"Hoher Weg","postalCode":"96528","locality":"Frankenblick","municipality":{"key":"16072023","name":"Frankenblick","type":"Kreisangehörige_Gemeinde"},"district":{"key":"16072","name":"Sonneberg","type":"Landkreis"},"federalState":{"key":"16","name":"Thüringen"}},{"name":"Hohetanner Str.","postalCode":"96528","locality":"Frankenblick","municipality":{"key":"16072023","name":"Frankenblick","type":"Kreisangehörige_Gemeinde"},"district":{"key":"16072","name":"Sonneberg","type":"Landkreis"},"federalState":{"key":"16","name":"Thüringen"}},{"name":"Honetanner Str.","postalCode":"96528","locality":"Frankenblick","municipality":{"key":"16072023","name":"Frankenblick","type":"Kreisangehörige_Gemeinde"},"district":{"key":"16072","name":"Sonneberg","type":"Landkreis"},"federalState":{"key":"16","name":"Thüringen"}},{"name":"Industriestr.","postalCode":"96528","locality":"Frankenblick","municipality":{"key":"16072023","name":"Frankenblick","type":"Kreisangehörige_Gemeinde"},"district":{"key":"16072","name":"Sonneberg","type":"Landkreis"},"federalState":{"key":"16","name":"Thüringen"}},{"name":"Jagdshofer Str.","postalCode":"96515","locality":"Sonneberg","municipality":{"key":"16072018","name":"Sonneberg, Stadt","type":"Stadt"},"district":{"key":"16072","name":"Sonneberg","type":"Landkreis"},"federalState":{"key":"16","name":"Thüringen"}},{"name":"Johannesstr.","postalCode":"96515","locality":"Sonneberg","municipality":{"key":"16072018","name":"Sonneberg, Stadt","type":"Stadt"},"district":{"key":"16072","name":"Sonneberg","type":"Landkreis"},"federalState":{"key":"16","name":"Thüringen"}},{"name":"Johann-Martin-Steiner-Str.","postalCode":"96515","locality":"Sonneberg","municipality":{"key":"16072018","name":"Sonneberg, Stadt","type":"Stadt"},"district":{"key":"16072","name":"Sonneberg","type":"Landkreis"},"federalState":{"key":"16","name":"Thüringen"}},{"name":"Johann-Nicol-Dorst-Str.","postalCode":"96515","locality":"Sonneberg","municipality":{"key":"16072018","name":"Sonneberg, Stadt","type":"Stadt"},"district":{"key":"16072","name":"Sonneberg","type":"Landkreis"},"federalState":{"key":"16","name":"Thüringen"}},{"name":"Johann-Sebastian-Bach-Str.","postalCode":"96515","locality":"Sonneberg","municipality":{"key":"16072018","name":"Sonneberg, Stadt","type":"Stadt"},"district":{"key":"16072","name":"Sonneberg","type":"Landkreis"},"federalState":{"key":"16","name":"Thüringen"}},{"name":"Judenbacher Str.","postalCode":"96515","locality":"Sonneberg","municipality":{"key":"16072018","name":"Sonneberg, Stadt","type":"Stadt"},"district":{"key":"16072","name":"Sonneberg","type":"Landkreis"},"federalState":{"key":"16","name":"Thüringen"}},{"name":"Julius-Heß-Str.","postalCode":"96515","locality":"Sonneberg","municipality":{"key":"16072018","name":"Sonneberg, Stadt","type":"Stadt"},"district":{"key":"16072","name":"Sonneberg","type":"Landkreis"},"federalState":{"key":"16","name":"Thüringen"}},{"name":"Juttaplatz","postalCode":"96515","locality":"Sonneberg","municipality":{"key":"16072018","name":"Sonneberg, Stadt","type":"Stadt"},"district":{"key":"16072","name":"Sonneberg","type":"Landkreis"},"federalState":{"key":"16","name":"Thüringen"}},{"name":"Juttastr.","postalCode":"96515","locality":"Sonneberg","municipality":{"key":"16072018","name":"Sonneberg, Stadt","type":"Stadt"},"district":{"key":"16072","name":"Sonneberg","type":"Landkreis"},"federalState":{"key":"16","name":"Thüringen"}},{"name":"Kalter Hof","postalCode":"96528","locality":"Frankenblick","municipality":{"key":"16072023","name":"Frankenblick","type":"Kreisangehörige_Gemeinde"},"district":{"key":"16072","name":"Sonneberg","type":"Landkreis"},"federalState":{"key":"16","name":"Thüringen"}},{"name":"Kirchberg","postalCode":"96528","locality":"Frankenblick","municipality":{"key":"16072023","name":"Frankenblick","type":"Kreisangehörige_Gemeinde"},"district":{"key":"16072","name":"Sonneberg","type":"Landkreis"},"federalState":{"key":"16","name":"Thüringen"}},{"name":"Kirchsteig","postalCode":"96528","locality":"Frankenblick","municipality":{"key":"16072023","name":"Frankenblick","type":"Kreisangehörige_Gemeinde"},"district":{"key":"16072","name":"Sonneberg","type":"Landkreis"},"federalState":{"key":"16","name":"Thüringen"}},{"name":"Kohlgasse","postalCode":"96528","locality":"Frankenblick","municipality":{"key":"16072023","name":"Frankenblick","type":"Kreisangehörige_Gemeinde"},"district":{"key":"16072","name":"Sonneberg","type":"Landkreis"},"federalState":{"key":"16","name":"Thüringen"}},{"name":"Kolonnenweg","postalCode":"96528","locality":"Frankenblick","municipality":{"key":"16072023","name":"Frankenblick","type":"Kreisangehörige_Gemeinde"},"district":{"key":"16072","name":"Sonneberg","type":"Landkreis"},"federalState":{"key":"16","name":"Thüringen"}},{"name":"Lehnersgasse","postalCode":"96528","locality":"Frankenblick","municipality":{"key":"16072023","name":"Frankenblick","type":"Kreisangehörige_Gemeinde"},"district":{"key":"16072","name":"Sonneberg","type":"Landkreis"},"federalState":{"key":"16","name":"Thüringen"}},{"name":"Leichenweg","postalCode":"96528","locality":"Frankenblick","municipality":{"key":"16072023","name":"Frankenblick","type":"Kreisangehörige_Gemeinde"},"district":{"key":"16072","name":"Sonneberg","type":"Landkreis"},"federalState":{"key":"16","name":"Thüringen"}},{"name":"Marktplatz","postalCode":"96528","locality":"Frankenblick","municipality":{"key":"16072023","name":"Frankenblick","type":"Kreisangehörige_Gemeinde"},"district":{"key":"16072","name":"Sonneberg","type":"Landkreis"},"federalState":{"key":"16","name":"Thüringen"}},{"name":"Maßstr.","postalCode":"96528","locality":"Frankenblick","municipality":{"key":"16072023","name":"Frankenblick","type":"Kreisangehörige_Gemeinde"},"district":{"key":"16072","name":"Sonneberg","type":"Landkreis"},"federalState":{"key":"16","name":"Thüringen"}},{"name":"Melchersberger Str.","postalCode":"96528","locality":"Frankenblick","municipality":{"key":"16072023","name":"Frankenblick","type":"Kreisangehörige_Gemeinde"},"district":{"key":"16072","name":"Sonneberg","type":"Landkreis"},"federalState":{"key":"16","name":"Thüringen"}},{"name":"Melmweg","postalCode":"96528","locality":"Frankenblick","municipality":{"key":"16072023","name":"Frankenblick","type":"Kreisangehörige_Gemeinde"},"district":{"key":"16072","name":"Sonneberg","type":"Landkreis"},"federalState":{"key":"16","name":"Thüringen"}},{"name":"Meschenbach","postalCode":"96528","locality":"Frankenblick","municipality":{"key":"16072023","name":"Frankenblick","type":"Kreisangehörige_Gemeinde"},"district":{"key":"16072","name":"Sonneberg","type":"Landkreis"},"federalState":{"key":"16","name":"Thüringen"}},{"name":"Michelsweg","postalCode":"96528","locality":"Frankenblick","municipality":{"key":"16072023","name":"Frankenblick","type":"Kreisangehörige_Gemeinde"},"district":{"key":"16072","name":"Sonneberg","type":"Landkreis"},"federalState":{"key":"16","name":"Thüringen"}},{"name":"Mittelhammer","postalCode":"96528","locality":"Frankenblick","municipality":{"key":"16072023","name":"Frankenblick","type":"Kreisangehörige_Gemeinde"},"district":{"key":"16072","name":"Sonneberg","type":"Landkreis"},"federalState":{"key":"16","name":"Thüringen"}},{"name":"Mühlstr.","postalCode":"96528","locality":"Frankenblick","municipality":{"key":"16072023","name":"Frankenblick","type":"Kreisangehörige_Gemeinde"},"district":{"key":"16072","name":"Sonneberg","type":"Landkreis"},"federalState":{"key":"16","name":"Thüringen"}},{"name":"Mühlweg","postalCode":"96528","locality":"Frankenblick","municipality":{"key":"16072023","name":"Frankenblick","type":"Kreisangehörige_Gemeinde"},"district":{"key":"16072","name":"Sonneberg","type":"Landkreis"},"federalState":{"key":"16","name":"Thüringen"}},{"name":"Neustädter Str.","postalCode":"96528","locality":"Frankenblick","municipality":{"key":"16072023","name":"Frankenblick","type":"Kreisangehörige_Gemeinde"},"district":{"key":"16072","name":"Sonneberg","type":"Landkreis"},"federalState":{"key":"16","name":"Thüringen"}},{"name":"Obere Binge","postalCode":"96528","locality":"Frankenblick","municipality":{"key":"16072023","name":"Frankenblick","type":"Kreisangehörige_Gemeinde"},"district":{"key":"16072","name":"Sonneberg","type":"Landkreis"},"federalState":{"key":"16","name":"Thüringen"}},{"name":"Obere Eller","postalCode":"96528","locality":"Frankenblick","municipality":{"key":"16072023","name":"Frankenblick","type":"Kreisangehörige_Gemeinde"},"district":{"key":"16072","name":"Sonneberg","type":"Landkreis"},"federalState":{"key":"16","name":"Thüringen"}},{"name":"Ortsstr.","postalCode":"96528","locality":"Frankenblick","municipality":{"key":"16072023","name":"Frankenblick","type":"Kreisangehörige_Gemeinde"},"district":{"key":"16072","name":"Sonneberg","type":"Landkreis"},"federalState":{"key":"16","name":"Thüringen"}},{"name":"Pokusweg","postalCode":"96528","locality":"Frankenblick","municipality":{"key":"16072023","name":"Frankenblick","type":"Kreisangehörige_Gemeinde"},"district":{"key":"16072","name":"Sonneberg","type":"Landkreis"},"federalState":{"key":"16","name":"Thüringen"}},{"name":"Poststr.","postalCode":"96528","locality":"Frankenblick","municipality":{"key":"16072023","name":"Frankenblick","type":"Kreisangehörige_Gemeinde"},"district":{"key":"16072","name":"Sonneberg","type":"Landkreis"},"federalState":{"key":"16","name":"Thüringen"}},{"name":"Quieraustr.","postalCode":"96528","locality":"Frankenblick","municipality":{"key":"16072023","name":"Frankenblick","type":"Kreisangehörige_Gemeinde"},"district":{"key":"16072","name":"Sonneberg","type":"Landkreis"},"federalState":{"key":"16","name":"Thüringen"}},{"name":"Rabenäußiger Str.","postalCode":"96528","locality":"Frankenblick","municipality":{"key":"16072023","name":"Frankenblick","type":"Kreisangehörige_Gemeinde"},"district":{"key":"16072","name":"Sonneberg","type":"Landkreis"},"federalState":{"key":"16","name":"Thüringen"}},{"name":"Reitgasse","postalCode":"96528","locality":"Frankenblick","municipality":{"key":"16072023","name":"Frankenblick","type":"Kreisangehörige_Gemeinde"},"district":{"key":"16072","name":"Sonneberg","type":"Landkreis"},"federalState":{"key":"16","name":"Thüringen"}},{"name":"Richard-Böhm-Str.","postalCode":"96528","locality":"Frankenblick","municipality":{"key":"16072023","name":"Frankenblick","type":"Kreisangehörige_Gemeinde"},"district":{"key":"16072","name":"Sonneberg","type":"Landkreis"},"federalState":{"key":"16","name":"Thüringen"}},{"name":"Ringstr.","postalCode":"96528","locality":"Frankenblick","municipality":{"key":"16072023","name":"Frankenblick","type":"Kreisangehörige_Gemeinde"},"district":{"key":"16072","name":"Sonneberg","type":"Landkreis"},"federalState":{"key":"16","name":"Thüringen"}},{"name":"Rosengasse","postalCode":"96528","locality":"Frankenblick","municipality":{"key":"16072023","name":"Frankenblick","type":"Kreisangehörige_Gemeinde"},"district":{"key":"16072","name":"Sonneberg","type":"Landkreis"},"federalState":{"key":"16","name":"Thüringen"}},{"name":"Rother Str.","postalCode":"96528","locality":"Frankenblick","municipality":{"key":"16072023","name":"Frankenblick","type":"Kreisangehörige_Gemeinde"},"district":{"key":"16072","name":"Sonneberg","type":"Landkreis"},"federalState":{"key":"16","name":"Thüringen"}},{"name":"Rückerswind","postalCode":"96528","locality":"Frankenblick","municipality":{"key":"16072023","name":"Frankenblick","type":"Kreisangehörige_Gemeinde"},"district":{"key":"16072","name":"Sonneberg","type":"Landkreis"},"federalState":{"key":"16","name":"Thüringen"}},{"name":"Rückerswinder Weg","postalCode":"96528","locality":"Frankenblick","municipality":{"key":"16072023","name":"Frankenblick","type":"Kreisangehörige_Gemeinde"},"district":{"key":"16072","name":"Sonneberg","type":"Landkreis"},"federalState":{"key":"16","name":"Thüringen"}},{"name":"Sandweg","postalCode":"96528","locality":"Frankenblick","municipality":{"key":"16072023","name":"Frankenblick","type":"Kreisangehörige_Gemeinde"},"district":{"key":"16072","name":"Sonneberg","type":"Landkreis"},"federalState":{"key":"16","name":"Thüringen"}},{"name":"Schaumberger Platz","postalCode":"96528","locality":"Frankenblick","municipality":{"key":"16072023","name":"Frankenblick","type":"Kreisangehörige_Gemeinde"},"district":{"key":"16072","name":"Sonneberg","type":"Landkreis"},"federalState":{"key":"16","name":"Thüringen"}},{"name":"Schichtshöhner Str.","postalCode":"96528","locality":"Frankenblick","municipality":{"key":"16072023","name":"Frankenblick","type":"Kreisangehörige_Gemeinde"},"district":{"key":"16072","name":"Sonneberg","type":"Landkreis"},"federalState":{"key":"16","name":"Thüringen"}},{"name":"Schloßgasse","postalCode":"96528","locality":"Frankenblick","municipality":{"key":"16072023","name":"Frankenblick","type":"Kreisangehörige_Gemeinde"},"district":{"key":"16072","name":"Sonneberg","type":"Landkreis"},"federalState":{"key":"16","name":"Thüringen"}},{"name":"Schloßstr.","postalCode":"96528","locality":"Frankenblick","municipality":{"key":"16072023","name":"Frankenblick","type":"Kreisangehörige_Gemeinde"},"district":{"key":"16072","name":"Sonneberg","type":"Landkreis"},"federalState":{"key":"16","name":"Thüringen"}},{"name":"Schmiedsgasse","postalCode":"96528","locality":"Frankenblick","municipality":{"key":"16072023","name":"Frankenblick","type":"Kreisangehörige_Gemeinde"},"district":{"key":"16072","name":"Sonneberg","type":"Landkreis"},"federalState":{"key":"16","name":"Thüringen"}},{"name":"Schmiedsgrund","postalCode":"96528","locality":"Frankenblick","municipality":{"key":"16072023","name":"Frankenblick","type":"Kreisangehörige_Gemeinde"},"district":{"key":"16072","name":"Sonneberg","type":"Landkreis"},"federalState":{"key":"16","name":"Thüringen"}},{"name":"Schönberg","postalCode":"96528","locality":"Frankenblick","municipality":{"key":"16072023","name":"Frankenblick","type":"Kreisangehörige_Gemeinde"},"district":{"key":"16072","name":"Sonneberg","type":"Landkreis"},"federalState":{"key":"16","name":"Thüringen"}},{"name":"Schulstr.","postalCode":"96528","locality":"Frankenblick","municipality":{"key":"16072023","name":"Frankenblick","type":"Kreisangehörige_Gemeinde"},"district":{"key":"16072","name":"Sonneberg","type":"Landkreis"},"federalState":{"key":"16","name":"Thüringen"}},{"name":"Schwarzwälder Str.","postalCode":"96528","locality":"Frankenblick","municipality":{"key":"16072023","name":"Frankenblick","type":"Kreisangehörige_Gemeinde"},"district":{"key":"16072","name":"Sonneberg","type":"Landkreis"},"federalState":{"key":"16","name":"Thüringen"}},{"name":"Sonneberger Str.","postalCode":"96528","locality":"Frankenblick","municipality":{"key":"16072023","name":"Frankenblick","type":"Kreisangehörige_Gemeinde"},"district":{"key":"16072","name":"Sonneberg","type":"Landkreis"},"federalState":{"key":"16","name":"Thüringen"}},{"name":"Steig zum Alten Kirmesplatz","postalCode":"96528","locality":"Frankenblick","municipality":{"key":"16072023","name":"Frankenblick","type":"Kreisangehörige_Gemeinde"},"district":{"key":"16072","name":"Sonneberg","type":"Landkreis"},"federalState":{"key":"16","name":"Thüringen"}},{"name":"Steinacher Str.","postalCode":"96528","locality":"Frankenblick","municipality":{"key":"16072023","name":"Frankenblick","type":"Kreisangehörige_Gemeinde"},"district":{"key":"16072","name":"Sonneberg","type":"Landkreis"},"federalState":{"key":"16","name":"Thüringen"}},{"name":"Steinheider Str.","postalCode":"96528","locality":"Frankenblick","municipality":{"key":"16072023","name":"Frankenblick","type":"Kreisangehörige_Gemeinde"},"district":{"key":"16072","name":"Sonneberg","type":"Landkreis"},"federalState":{"key":"16","name":"Thüringen"}},{"name":"Str. am Mühlberg","postalCode":"96528","locality":"Frankenblick","municipality":{"key":"16072023","name":"Frankenblick","type":"Kreisangehörige_Gemeinde"},"district":{"key":"16072","name":"Sonneberg","type":"Landkreis"},"federalState":{"key":"16","name":"Thüringen"}},{"name":"Tauplitz","postalCode":"96528","locality":"Frankenblick","municipality":{"key":"16072023","name":"Frankenblick","type":"Kreisangehörige_Gemeinde"},"district":{"key":"16072","name":"Sonneberg","type":"Landkreis"},"federalState":{"key":"16","name":"Thüringen"}},{"name":"Untere Eller","postalCode":"96528","locality":"Frankenblick","municipality":{"key":"16072023","name":"Frankenblick","type":"Kreisangehörige_Gemeinde"},"district":{"key":"16072","name":"Sonneberg","type":"Landkreis"},"federalState":{"key":"16","name":"Thüringen"}},{"name":"Veilchenweg","postalCode":"96515","locality":"Sonneberg","municipality":{"key":"16072018","name":"Sonneberg, Stadt","type":"Stadt"},"district":{"key":"16072","name":"Sonneberg","type":"Landkreis"},"federalState":{"key":"16","name":"Thüringen"}},{"name":"Vorwerker Str.","postalCode":"96515","locality":"Sonneberg","municipality":{"key":"16072018","name":"Sonneberg, Stadt","type":"Stadt"},"district":{"key":"16072","name":"Sonneberg","type":"Landkreis"},"federalState":{"key":"16","name":"Thüringen"}},{"name":"Weingasse","postalCode":"96528","locality":"Frankenblick","municipality":{"key":"16072023","name":"Frankenblick","type":"Kreisangehörige_Gemeinde"},"district":{"key":"16072","name":"Sonneberg","type":"Landkreis"},"federalState":{"key":"16","name":"Thüringen"}},{"name":"Welchendorfer Str.","postalCode":"96528","locality":"Frankenblick","municipality":{"key":"16072023","name":"Frankenblick","type":"Kreisangehörige_Gemeinde"},"district":{"key":"16072","name":"Sonneberg","type":"Landkreis"},"federalState":{"key":"16","name":"Thüringen"}},{"name":"Weststr.","postalCode":"96528","locality":"Frankenblick","municipality":{"key":"16072023","name":"Frankenblick","type":"Kreisangehörige_Gemeinde"},"district":{"key":"16072","name":"Sonneberg","type":"Landkreis"},"federalState":{"key":"16","name":"Thüringen"}},{"name":"Wiesenweg","postalCode":"96528","locality":"Frankenblick","municipality":{"key":"16072023","name":"Frankenblick","type":"Kreisangehörige_Gemeinde"},"district":{"key":"16072","name":"Sonneberg","type":"Landkreis"},"federalState":{"key":"16","name":"Thüringen"}},{"name":"Zum Grabengut","postalCode":"96528","locality":"Frankenblick","municipality":{"key":"16072023","name":"Frankenblick","type":"Kreisangehörige_Gemeinde"},"district":{"key":"16072","name":"Sonneberg","type":"Landkreis"},"federalState":{"key":"16","name":"Thüringen"}},]