[{"name":"Alemannenstr.","postalCode":"86637","locality":"Zusamaltheim","municipality":{"key":"09773188","name":"Zusamaltheim","type":"Kreisangehörige_Gemeinde"},"district":{"key":"09773","name":"Dillingen a.d.Donau","type":"Landkreis"},"federalState":{"key":"09","name":"Bayern"}},{"name":"Alte Weiherstr.","postalCode":"86637","locality":"Zusamaltheim","municipality":{"key":"09773188","name":"Zusamaltheim","type":"Kreisangehörige_Gemeinde"},"district":{"key":"09773","name":"Dillingen a.d.Donau","type":"Landkreis"},"federalState":{"key":"09","name":"Bayern"}},{"name":"Alte Wertinger Str.","postalCode":"86637","locality":"Zusamaltheim","municipality":{"key":"09773188","name":"Zusamaltheim","type":"Kreisangehörige_Gemeinde"},"district":{"key":"09773","name":"Dillingen a.d.Donau","type":"Landkreis"},"federalState":{"key":"09","name":"Bayern"}},{"name":"Am Geiselbach","postalCode":"86637","locality":"Zusamaltheim","municipality":{"key":"09773188","name":"Zusamaltheim","type":"Kreisangehörige_Gemeinde"},"district":{"key":"09773","name":"Dillingen a.d.Donau","type":"Landkreis"},"federalState":{"key":"09","name":"Bayern"}},{"name":"Am Graben","postalCode":"86637","locality":"Zusamaltheim","municipality":{"key":"09773188","name":"Zusamaltheim","type":"Kreisangehörige_Gemeinde"},"district":{"key":"09773","name":"Dillingen a.d.Donau","type":"Landkreis"},"federalState":{"key":"09","name":"Bayern"}},{"name":"Am Hühlenberg","postalCode":"86637","locality":"Zusamaltheim","municipality":{"key":"09773188","name":"Zusamaltheim","type":"Kreisangehörige_Gemeinde"},"district":{"key":"09773","name":"Dillingen a.d.Donau","type":"Landkreis"},"federalState":{"key":"09","name":"Bayern"}},{"name":"Am Moos","postalCode":"86637","locality":"Zusamaltheim","municipality":{"key":"09773188","name":"Zusamaltheim","type":"Kreisangehörige_Gemeinde"},"district":{"key":"09773","name":"Dillingen a.d.Donau","type":"Landkreis"},"federalState":{"key":"09","name":"Bayern"}},{"name":"Am Schäfflerberg","postalCode":"86637","locality":"Zusamaltheim","municipality":{"key":"09773188","name":"Zusamaltheim","type":"Kreisangehörige_Gemeinde"},"district":{"key":"09773","name":"Dillingen a.d.Donau","type":"Landkreis"},"federalState":{"key":"09","name":"Bayern"}},{"name":"Am Schulgarten","postalCode":"86637","locality":"Zusamaltheim","municipality":{"key":"09773188","name":"Zusamaltheim","type":"Kreisangehörige_Gemeinde"},"district":{"key":"09773","name":"Dillingen a.d.Donau","type":"Landkreis"},"federalState":{"key":"09","name":"Bayern"}},{"name":"Am Sonnenberg","postalCode":"86637","locality":"Zusamaltheim","municipality":{"key":"09773188","name":"Zusamaltheim","type":"Kreisangehörige_Gemeinde"},"district":{"key":"09773","name":"Dillingen a.d.Donau","type":"Landkreis"},"federalState":{"key":"09","name":"Bayern"}},{"name":"Am Steinacker","postalCode":"86637","locality":"Zusamaltheim","municipality":{"key":"09773188","name":"Zusamaltheim","type":"Kreisangehörige_Gemeinde"},"district":{"key":"09773","name":"Dillingen a.d.Donau","type":"Landkreis"},"federalState":{"key":"09","name":"Bayern"}},{"name":"Baderstr.","postalCode":"86637","locality":"Zusamaltheim","municipality":{"key":"09773188","name":"Zusamaltheim","type":"Kreisangehörige_Gemeinde"},"district":{"key":"09773","name":"Dillingen a.d.Donau","type":"Landkreis"},"federalState":{"key":"09","name":"Bayern"}},{"name":"Beim Feuerwehrhaus","postalCode":"86637","locality":"Zusamaltheim","municipality":{"key":"09773188","name":"Zusamaltheim","type":"Kreisangehörige_Gemeinde"},"district":{"key":"09773","name":"Dillingen a.d.Donau","type":"Landkreis"},"federalState":{"key":"09","name":"Bayern"}},{"name":"Canisiusstr.","postalCode":"89407","locality":"Dillingen a.d.Donau","municipality":{"key":"09773125","name":"Dillingen a.d.Donau, GKSt","type":"Große_Kreisstadt"},"district":{"key":"09773","name":"Dillingen a.d.Donau","type":"Landkreis"},"federalState":{"key":"09","name":"Bayern"}},{"name":"Carl-Benz-Str.","postalCode":"89407","locality":"Dillingen a.d.Donau","municipality":{"key":"09773125","name":"Dillingen a.d.Donau, GKSt","type":"Große_Kreisstadt"},"district":{"key":"09773","name":"Dillingen a.d.Donau","type":"Landkreis"},"federalState":{"key":"09","name":"Bayern"}},{"name":"Christastr.","postalCode":"89407","locality":"Dillingen a.d.Donau","municipality":{"key":"09773125","name":"Dillingen a.d.Donau, GKSt","type":"Große_Kreisstadt"},"district":{"key":"09773","name":"Dillingen a.d.Donau","type":"Landkreis"},"federalState":{"key":"09","name":"Bayern"}},{"name":"Christgartenstr.","postalCode":"89407","locality":"Dillingen a.d.Donau","municipality":{"key":"09773125","name":"Dillingen a.d.Donau, GKSt","type":"Große_Kreisstadt"},"district":{"key":"09773","name":"Dillingen a.d.Donau","type":"Landkreis"},"federalState":{"key":"09","name":"Bayern"}},{"name":"Christoph-von-Schmid-Str.","postalCode":"89407","locality":"Dillingen a.d.Donau","municipality":{"key":"09773125","name":"Dillingen a.d.Donau, GKSt","type":"Große_Kreisstadt"},"district":{"key":"09773","name":"Dillingen a.d.Donau","type":"Landkreis"},"federalState":{"key":"09","name":"Bayern"}},{"name":"Danziger Str.","postalCode":"89407","locality":"Dillingen a.d.Donau","municipality":{"key":"09773125","name":"Dillingen a.d.Donau, GKSt","type":"Große_Kreisstadt"},"district":{"key":"09773","name":"Dillingen a.d.Donau","type":"Landkreis"},"federalState":{"key":"09","name":"Bayern"}},{"name":"Deisenhofener Str.","postalCode":"89407","locality":"Dillingen a.d.Donau","municipality":{"key":"09773125","name":"Dillingen a.d.Donau, GKSt","type":"Große_Kreisstadt"},"district":{"key":"09773","name":"Dillingen a.d.Donau","type":"Landkreis"},"federalState":{"key":"09","name":"Bayern"}},{"name":"Deisenhofer Str.","postalCode":"89407","locality":"Dillingen a.d.Donau","municipality":{"key":"09773125","name":"Dillingen a.d.Donau, GKSt","type":"Große_Kreisstadt"},"district":{"key":"09773","name":"Dillingen a.d.Donau","type":"Landkreis"},"federalState":{"key":"09","name":"Bayern"}},{"name":"Demleitnerstr.","postalCode":"89407","locality":"Dillingen a.d.Donau","municipality":{"key":"09773125","name":"Dillingen a.d.Donau, GKSt","type":"Große_Kreisstadt"},"district":{"key":"09773","name":"Dillingen a.d.Donau","type":"Landkreis"},"federalState":{"key":"09","name":"Bayern"}},{"name":"Deuringerstr.","postalCode":"89407","locality":"Dillingen a.d.Donau","municipality":{"key":"09773125","name":"Dillingen a.d.Donau, GKSt","type":"Große_Kreisstadt"},"district":{"key":"09773","name":"Dillingen a.d.Donau","type":"Landkreis"},"federalState":{"key":"09","name":"Bayern"}},{"name":"Dietpaldstr.","postalCode":"89407","locality":"Dillingen a.d.Donau","municipality":{"key":"09773125","name":"Dillingen a.d.Donau, GKSt","type":"Große_Kreisstadt"},"district":{"key":"09773","name":"Dillingen a.d.Donau","type":"Landkreis"},"federalState":{"key":"09","name":"Bayern"}},{"name":"Dietrich-Bonhoeffer-Weg","postalCode":"89407","locality":"Dillingen a.d.Donau","municipality":{"key":"09773125","name":"Dillingen a.d.Donau, GKSt","type":"Große_Kreisstadt"},"district":{"key":"09773","name":"Dillingen a.d.Donau","type":"Landkreis"},"federalState":{"key":"09","name":"Bayern"}},{"name":"Dillinger Str.","postalCode":"89407","locality":"Dillingen a.d.Donau","municipality":{"key":"09773125","name":"Dillingen a.d.Donau, GKSt","type":"Große_Kreisstadt"},"district":{"key":"09773","name":"Dillingen a.d.Donau","type":"Landkreis"},"federalState":{"key":"09","name":"Bayern"}},{"name":"Doktor-Barbara-Renz-Weg","postalCode":"89407","locality":"Dillingen a.d.Donau","municipality":{"key":"09773125","name":"Dillingen a.d.Donau, GKSt","type":"Große_Kreisstadt"},"district":{"key":"09773","name":"Dillingen a.d.Donau","type":"Landkreis"},"federalState":{"key":"09","name":"Bayern"}},{"name":"Donauradweg","postalCode":"89407","locality":"Dillingen a.d.Donau","municipality":{"key":"09773125","name":"Dillingen a.d.Donau, GKSt","type":"Große_Kreisstadt"},"district":{"key":"09773","name":"Dillingen a.d.Donau","type":"Landkreis"},"federalState":{"key":"09","name":"Bayern"}},{"name":"Donaustr.","postalCode":"89407","locality":"Dillingen a.d.Donau","municipality":{"key":"09773125","name":"Dillingen a.d.Donau, GKSt","type":"Große_Kreisstadt"},"district":{"key":"09773","name":"Dillingen a.d.Donau","type":"Landkreis"},"federalState":{"key":"09","name":"Bayern"}},{"name":"Donauwörther Str.","postalCode":"89407","locality":"Dillingen a.d.Donau","municipality":{"key":"09773125","name":"Dillingen a.d.Donau, GKSt","type":"Große_Kreisstadt"},"district":{"key":"09773","name":"Dillingen a.d.Donau","type":"Landkreis"},"federalState":{"key":"09","name":"Bayern"}},{"name":"Donnersbergstr.","postalCode":"89407","locality":"Dillingen a.d.Donau","municipality":{"key":"09773125","name":"Dillingen a.d.Donau, GKSt","type":"Große_Kreisstadt"},"district":{"key":"09773","name":"Dillingen a.d.Donau","type":"Landkreis"},"federalState":{"key":"09","name":"Bayern"}},{"name":"Dorfplatz","postalCode":"89407","locality":"Dillingen a.d.Donau","municipality":{"key":"09773125","name":"Dillingen a.d.Donau, GKSt","type":"Große_Kreisstadt"},"district":{"key":"09773","name":"Dillingen a.d.Donau","type":"Landkreis"},"federalState":{"key":"09","name":"Bayern"}},{"name":"Dr.-Franz-Schuster-Str.","postalCode":"89407","locality":"Dillingen a.d.Donau","municipality":{"key":"09773125","name":"Dillingen a.d.Donau, GKSt","type":"Große_Kreisstadt"},"district":{"key":"09773","name":"Dillingen a.d.Donau","type":"Landkreis"},"federalState":{"key":"09","name":"Bayern"}},{"name":"Egaustr.","postalCode":"89407","locality":"Dillingen a.d.Donau","municipality":{"key":"09773125","name":"Dillingen a.d.Donau, GKSt","type":"Große_Kreisstadt"},"district":{"key":"09773","name":"Dillingen a.d.Donau","type":"Landkreis"},"federalState":{"key":"09","name":"Bayern"}},{"name":"Egerländer Str.","postalCode":"89407","locality":"Dillingen a.d.Donau","municipality":{"key":"09773125","name":"Dillingen a.d.Donau, GKSt","type":"Große_Kreisstadt"},"district":{"key":"09773","name":"Dillingen a.d.Donau","type":"Landkreis"},"federalState":{"key":"09","name":"Bayern"}},{"name":"Eibenweg","postalCode":"89407","locality":"Dillingen a.d.Donau","municipality":{"key":"09773125","name":"Dillingen a.d.Donau, GKSt","type":"Große_Kreisstadt"},"district":{"key":"09773","name":"Dillingen a.d.Donau","type":"Landkreis"},"federalState":{"key":"09","name":"Bayern"}},{"name":"Eichendorffstr.","postalCode":"89407","locality":"Dillingen a.d.Donau","municipality":{"key":"09773125","name":"Dillingen a.d.Donau, GKSt","type":"Große_Kreisstadt"},"district":{"key":"09773","name":"Dillingen a.d.Donau","type":"Landkreis"},"federalState":{"key":"09","name":"Bayern"}},{"name":"Eichenweg","postalCode":"89407","locality":"Dillingen a.d.Donau","municipality":{"key":"09773125","name":"Dillingen a.d.Donau, GKSt","type":"Große_Kreisstadt"},"district":{"key":"09773","name":"Dillingen a.d.Donau","type":"Landkreis"},"federalState":{"key":"09","name":"Bayern"}},{"name":"Eichwaldweg","postalCode":"89407","locality":"Dillingen a.d.Donau","municipality":{"key":"09773125","name":"Dillingen a.d.Donau, GKSt","type":"Große_Kreisstadt"},"district":{"key":"09773","name":"Dillingen a.d.Donau","type":"Landkreis"},"federalState":{"key":"09","name":"Bayern"}},{"name":"Einsteinstr.","postalCode":"89407","locality":"Dillingen a.d.Donau","municipality":{"key":"09773125","name":"Dillingen a.d.Donau, GKSt","type":"Große_Kreisstadt"},"district":{"key":"09773","name":"Dillingen a.d.Donau","type":"Landkreis"},"federalState":{"key":"09","name":"Bayern"}},{"name":"Eisengrabenweg","postalCode":"89407","locality":"Dillingen a.d.Donau","municipality":{"key":"09773125","name":"Dillingen a.d.Donau, GKSt","type":"Große_Kreisstadt"},"district":{"key":"09773","name":"Dillingen a.d.Donau","type":"Landkreis"},"federalState":{"key":"09","name":"Bayern"}},{"name":"Ellenhartstr.","postalCode":"89407","locality":"Dillingen a.d.Donau","municipality":{"key":"09773125","name":"Dillingen a.d.Donau, GKSt","type":"Große_Kreisstadt"},"district":{"key":"09773","name":"Dillingen a.d.Donau","type":"Landkreis"},"federalState":{"key":"09","name":"Bayern"}},{"name":"Entengasse","postalCode":"89407","locality":"Dillingen a.d.Donau","municipality":{"key":"09773125","name":"Dillingen a.d.Donau, GKSt","type":"Große_Kreisstadt"},"district":{"key":"09773","name":"Dillingen a.d.Donau","type":"Landkreis"},"federalState":{"key":"09","name":"Bayern"}},{"name":"Erlenweg","postalCode":"89407","locality":"Dillingen a.d.Donau","municipality":{"key":"09773125","name":"Dillingen a.d.Donau, GKSt","type":"Große_Kreisstadt"},"district":{"key":"09773","name":"Dillingen a.d.Donau","type":"Landkreis"},"federalState":{"key":"09","name":"Bayern"}},{"name":"Ernst-Kreuzer-Weg","postalCode":"89407","locality":"Dillingen a.d.Donau","municipality":{"key":"09773125","name":"Dillingen a.d.Donau, GKSt","type":"Große_Kreisstadt"},"district":{"key":"09773","name":"Dillingen a.d.Donau","type":"Landkreis"},"federalState":{"key":"09","name":"Bayern"}},{"name":"Erzbischof-Stimpfle-Str.","postalCode":"89407","locality":"Dillingen a.d.Donau","municipality":{"key":"09773125","name":"Dillingen a.d.Donau, GKSt","type":"Große_Kreisstadt"},"district":{"key":"09773","name":"Dillingen a.d.Donau","type":"Landkreis"},"federalState":{"key":"09","name":"Bayern"}},{"name":"Eschenweg","postalCode":"89407","locality":"Dillingen a.d.Donau","municipality":{"key":"09773125","name":"Dillingen a.d.Donau, GKSt","type":"Große_Kreisstadt"},"district":{"key":"09773","name":"Dillingen a.d.Donau","type":"Landkreis"},"federalState":{"key":"09","name":"Bayern"}},{"name":"Feldstr.","postalCode":"86637","locality":"Zusamaltheim","municipality":{"key":"09773188","name":"Zusamaltheim","type":"Kreisangehörige_Gemeinde"},"district":{"key":"09773","name":"Dillingen a.d.Donau","type":"Landkreis"},"federalState":{"key":"09","name":"Bayern"}},{"name":"Fischschneiderstr.","postalCode":"86637","locality":"Zusamaltheim","municipality":{"key":"09773188","name":"Zusamaltheim","type":"Kreisangehörige_Gemeinde"},"district":{"key":"09773","name":"Dillingen a.d.Donau","type":"Landkreis"},"federalState":{"key":"09","name":"Bayern"}},{"name":"Friedhofstr.","postalCode":"86637","locality":"Zusamaltheim","municipality":{"key":"09773188","name":"Zusamaltheim","type":"Kreisangehörige_Gemeinde"},"district":{"key":"09773","name":"Dillingen a.d.Donau","type":"Landkreis"},"federalState":{"key":"09","name":"Bayern"}},{"name":"Gartenstr.","postalCode":"86637","locality":"Zusamaltheim","municipality":{"key":"09773188","name":"Zusamaltheim","type":"Kreisangehörige_Gemeinde"},"district":{"key":"09773","name":"Dillingen a.d.Donau","type":"Landkreis"},"federalState":{"key":"09","name":"Bayern"}},{"name":"Georg-Rieder-Str.","postalCode":"86637","locality":"Zusamaltheim","municipality":{"key":"09773188","name":"Zusamaltheim","type":"Kreisangehörige_Gemeinde"},"district":{"key":"09773","name":"Dillingen a.d.Donau","type":"Landkreis"},"federalState":{"key":"09","name":"Bayern"}},{"name":"Heckengasse","postalCode":"86637","locality":"Zusamaltheim","municipality":{"key":"09773188","name":"Zusamaltheim","type":"Kreisangehörige_Gemeinde"},"district":{"key":"09773","name":"Dillingen a.d.Donau","type":"Landkreis"},"federalState":{"key":"09","name":"Bayern"}},{"name":"Hofstr.","postalCode":"86637","locality":"Zusamaltheim","municipality":{"key":"09773188","name":"Zusamaltheim","type":"Kreisangehörige_Gemeinde"},"district":{"key":"09773","name":"Dillingen a.d.Donau","type":"Landkreis"},"federalState":{"key":"09","name":"Bayern"}},{"name":"Im Alten Ried","postalCode":"86637","locality":"Zusamaltheim","municipality":{"key":"09773188","name":"Zusamaltheim","type":"Kreisangehörige_Gemeinde"},"district":{"key":"09773","name":"Dillingen a.d.Donau","type":"Landkreis"},"federalState":{"key":"09","name":"Bayern"}},{"name":"Jägerstr.","postalCode":"89407","locality":"Dillingen a.d.Donau","municipality":{"key":"09773125","name":"Dillingen a.d.Donau, GKSt","type":"Große_Kreisstadt"},"district":{"key":"09773","name":"Dillingen a.d.Donau","type":"Landkreis"},"federalState":{"key":"09","name":"Bayern"}},{"name":"Jahnstr.","postalCode":"89407","locality":"Dillingen a.d.Donau","municipality":{"key":"09773125","name":"Dillingen a.d.Donau, GKSt","type":"Große_Kreisstadt"},"district":{"key":"09773","name":"Dillingen a.d.Donau","type":"Landkreis"},"federalState":{"key":"09","name":"Bayern"}},{"name":"Jakobstal","postalCode":"89407","locality":"Dillingen a.d.Donau","municipality":{"key":"09773125","name":"Dillingen a.d.Donau, GKSt","type":"Große_Kreisstadt"},"district":{"key":"09773","name":"Dillingen a.d.Donau","type":"Landkreis"},"federalState":{"key":"09","name":"Bayern"}},{"name":"Johannes-Scheifele-Str.","postalCode":"89407","locality":"Dillingen a.d.Donau","municipality":{"key":"09773125","name":"Dillingen a.d.Donau, GKSt","type":"Große_Kreisstadt"},"district":{"key":"09773","name":"Dillingen a.d.Donau","type":"Landkreis"},"federalState":{"key":"09","name":"Bayern"}},{"name":"Johannes-Scheiffele-Str.","postalCode":"89407","locality":"Dillingen a.d.Donau","municipality":{"key":"09773125","name":"Dillingen a.d.Donau, GKSt","type":"Große_Kreisstadt"},"district":{"key":"09773","name":"Dillingen a.d.Donau","type":"Landkreis"},"federalState":{"key":"09","name":"Bayern"}},{"name":"Johann-Hitzler-Weg","postalCode":"89407","locality":"Dillingen a.d.Donau","municipality":{"key":"09773125","name":"Dillingen a.d.Donau, GKSt","type":"Große_Kreisstadt"},"district":{"key":"09773","name":"Dillingen a.d.Donau","type":"Landkreis"},"federalState":{"key":"09","name":"Bayern"}},{"name":"Johann-Michael-Fischer-Str.","postalCode":"89407","locality":"Dillingen a.d.Donau","municipality":{"key":"09773125","name":"Dillingen a.d.Donau, GKSt","type":"Große_Kreisstadt"},"district":{"key":"09773","name":"Dillingen a.d.Donau","type":"Landkreis"},"federalState":{"key":"09","name":"Bayern"}},{"name":"Johann-Michael-Sailer-Str.","postalCode":"89407","locality":"Dillingen a.d.Donau","municipality":{"key":"09773125","name":"Dillingen a.d.Donau, GKSt","type":"Große_Kreisstadt"},"district":{"key":"09773","name":"Dillingen a.d.Donau","type":"Landkreis"},"federalState":{"key":"09","name":"Bayern"}},{"name":"Josef-Bauer-Weg","postalCode":"89407","locality":"Dillingen a.d.Donau","municipality":{"key":"09773125","name":"Dillingen a.d.Donau, GKSt","type":"Große_Kreisstadt"},"district":{"key":"09773","name":"Dillingen a.d.Donau","type":"Landkreis"},"federalState":{"key":"09","name":"Bayern"}},{"name":"Josef-Feistle-Str.","postalCode":"89407","locality":"Dillingen a.d.Donau","municipality":{"key":"09773125","name":"Dillingen a.d.Donau, GKSt","type":"Große_Kreisstadt"},"district":{"key":"09773","name":"Dillingen a.d.Donau","type":"Landkreis"},"federalState":{"key":"09","name":"Bayern"}},{"name":"Josef-Litzel-Ring","postalCode":"89407","locality":"Dillingen a.d.Donau","municipality":{"key":"09773125","name":"Dillingen a.d.Donau, GKSt","type":"Große_Kreisstadt"},"district":{"key":"09773","name":"Dillingen a.d.Donau","type":"Landkreis"},"federalState":{"key":"09","name":"Bayern"}},{"name":"Josef-Rabini-Weg","postalCode":"89407","locality":"Dillingen a.d.Donau","municipality":{"key":"09773125","name":"Dillingen a.d.Donau, GKSt","type":"Große_Kreisstadt"},"district":{"key":"09773","name":"Dillingen a.d.Donau","type":"Landkreis"},"federalState":{"key":"09","name":"Bayern"}},{"name":"Joseph-Heitzmann-Str.","postalCode":"89407","locality":"Dillingen a.d.Donau","municipality":{"key":"09773125","name":"Dillingen a.d.Donau, GKSt","type":"Große_Kreisstadt"},"district":{"key":"09773","name":"Dillingen a.d.Donau","type":"Landkreis"},"federalState":{"key":"09","name":"Bayern"}},{"name":"Joseph-Keller-Weg","postalCode":"89407","locality":"Dillingen a.d.Donau","municipality":{"key":"09773125","name":"Dillingen a.d.Donau, GKSt","type":"Große_Kreisstadt"},"district":{"key":"09773","name":"Dillingen a.d.Donau","type":"Landkreis"},"federalState":{"key":"09","name":"Bayern"}},{"name":"Juraweg","postalCode":"89407","locality":"Dillingen a.d.Donau","municipality":{"key":"09773125","name":"Dillingen a.d.Donau, GKSt","type":"Große_Kreisstadt"},"district":{"key":"09773","name":"Dillingen a.d.Donau","type":"Landkreis"},"federalState":{"key":"09","name":"Bayern"}},{"name":"Justus-von-Liebig-Str.","postalCode":"89407","locality":"Dillingen a.d.Donau","municipality":{"key":"09773125","name":"Dillingen a.d.Donau, GKSt","type":"Große_Kreisstadt"},"district":{"key":"09773","name":"Dillingen a.d.Donau","type":"Landkreis"},"federalState":{"key":"09","name":"Bayern"}},{"name":"Kapellenstr.","postalCode":"86637","locality":"Zusamaltheim","municipality":{"key":"09773188","name":"Zusamaltheim","type":"Kreisangehörige_Gemeinde"},"district":{"key":"09773","name":"Dillingen a.d.Donau","type":"Landkreis"},"federalState":{"key":"09","name":"Bayern"}},{"name":"Kichenwegele","postalCode":"86637","locality":"Zusamaltheim","municipality":{"key":"09773188","name":"Zusamaltheim","type":"Kreisangehörige_Gemeinde"},"district":{"key":"09773","name":"Dillingen a.d.Donau","type":"Landkreis"},"federalState":{"key":"09","name":"Bayern"}},{"name":"Kirchenweg","postalCode":"86637","locality":"Zusamaltheim","municipality":{"key":"09773188","name":"Zusamaltheim","type":"Kreisangehörige_Gemeinde"},"district":{"key":"09773","name":"Dillingen a.d.Donau","type":"Landkreis"},"federalState":{"key":"09","name":"Bayern"}},{"name":"Kirchplatz","postalCode":"86637","locality":"Zusamaltheim","municipality":{"key":"09773188","name":"Zusamaltheim","type":"Kreisangehörige_Gemeinde"},"district":{"key":"09773","name":"Dillingen a.d.Donau","type":"Landkreis"},"federalState":{"key":"09","name":"Bayern"}},{"name":"Kirchstr.","postalCode":"86637","locality":"Zusamaltheim","municipality":{"key":"09773188","name":"Zusamaltheim","type":"Kreisangehörige_Gemeinde"},"district":{"key":"09773","name":"Dillingen a.d.Donau","type":"Landkreis"},"federalState":{"key":"09","name":"Bayern"}},{"name":"Kohlstattweg","postalCode":"86637","locality":"Zusamaltheim","municipality":{"key":"09773188","name":"Zusamaltheim","type":"Kreisangehörige_Gemeinde"},"district":{"key":"09773","name":"Dillingen a.d.Donau","type":"Landkreis"},"federalState":{"key":"09","name":"Bayern"}},{"name":"Lämmerbauerstr.","postalCode":"86637","locality":"Zusamaltheim","municipality":{"key":"09773188","name":"Zusamaltheim","type":"Kreisangehörige_Gemeinde"},"district":{"key":"09773","name":"Dillingen a.d.Donau","type":"Landkreis"},"federalState":{"key":"09","name":"Bayern"}},{"name":"Lange Gasse","postalCode":"86637","locality":"Zusamaltheim","municipality":{"key":"09773188","name":"Zusamaltheim","type":"Kreisangehörige_Gemeinde"},"district":{"key":"09773","name":"Dillingen a.d.Donau","type":"Landkreis"},"federalState":{"key":"09","name":"Bayern"}},{"name":"Lehbergring","postalCode":"86637","locality":"Zusamaltheim","municipality":{"key":"09773188","name":"Zusamaltheim","type":"Kreisangehörige_Gemeinde"},"district":{"key":"09773","name":"Dillingen a.d.Donau","type":"Landkreis"},"federalState":{"key":"09","name":"Bayern"}},{"name":"Ludwig-von-Wirkau-Str.","postalCode":"86637","locality":"Zusamaltheim","municipality":{"key":"09773188","name":"Zusamaltheim","type":"Kreisangehörige_Gemeinde"},"district":{"key":"09773","name":"Dillingen a.d.Donau","type":"Landkreis"},"federalState":{"key":"09","name":"Bayern"}},{"name":"Maierangerweg","postalCode":"86637","locality":"Zusamaltheim","municipality":{"key":"09773188","name":"Zusamaltheim","type":"Kreisangehörige_Gemeinde"},"district":{"key":"09773","name":"Dillingen a.d.Donau","type":"Landkreis"},"federalState":{"key":"09","name":"Bayern"}},{"name":"Maierstr.","postalCode":"86637","locality":"Zusamaltheim","municipality":{"key":"09773188","name":"Zusamaltheim","type":"Kreisangehörige_Gemeinde"},"district":{"key":"09773","name":"Dillingen a.d.Donau","type":"Landkreis"},"federalState":{"key":"09","name":"Bayern"}},{"name":"Marzelstetten","postalCode":"86637","locality":"Zusamaltheim","municipality":{"key":"09773188","name":"Zusamaltheim","type":"Kreisangehörige_Gemeinde"},"district":{"key":"09773","name":"Dillingen a.d.Donau","type":"Landkreis"},"federalState":{"key":"09","name":"Bayern"}},{"name":"Mühlweg","postalCode":"86637","locality":"Zusamaltheim","municipality":{"key":"09773188","name":"Zusamaltheim","type":"Kreisangehörige_Gemeinde"},"district":{"key":"09773","name":"Dillingen a.d.Donau","type":"Landkreis"},"federalState":{"key":"09","name":"Bayern"}},{"name":"Nachtweide","postalCode":"89407","locality":"Dillingen a.d.Donau","municipality":{"key":"09773125","name":"Dillingen a.d.Donau, GKSt","type":"Große_Kreisstadt"},"district":{"key":"09773","name":"Dillingen a.d.Donau","type":"Landkreis"},"federalState":{"key":"09","name":"Bayern"}},{"name":"Nachtweideweg","postalCode":"89407","locality":"Dillingen a.d.Donau","municipality":{"key":"09773125","name":"Dillingen a.d.Donau, GKSt","type":"Große_Kreisstadt"},"district":{"key":"09773","name":"Dillingen a.d.Donau","type":"Landkreis"},"federalState":{"key":"09","name":"Bayern"}},{"name":"Nelly-Sachs-Weg","postalCode":"89407","locality":"Dillingen a.d.Donau","municipality":{"key":"09773125","name":"Dillingen a.d.Donau, GKSt","type":"Große_Kreisstadt"},"district":{"key":"09773","name":"Dillingen a.d.Donau","type":"Landkreis"},"federalState":{"key":"09","name":"Bayern"}},{"name":"Neresheimer Str.","postalCode":"89407","locality":"Dillingen a.d.Donau","municipality":{"key":"09773125","name":"Dillingen a.d.Donau, GKSt","type":"Große_Kreisstadt"},"district":{"key":"09773","name":"Dillingen a.d.Donau","type":"Landkreis"},"federalState":{"key":"09","name":"Bayern"}},{"name":"Obere Dorfstr.","postalCode":"86637","locality":"Zusamaltheim","municipality":{"key":"09773188","name":"Zusamaltheim","type":"Kreisangehörige_Gemeinde"},"district":{"key":"09773","name":"Dillingen a.d.Donau","type":"Landkreis"},"federalState":{"key":"09","name":"Bayern"}},{"name":"Oberer Dorfstr.","postalCode":"86637","locality":"Zusamaltheim","municipality":{"key":"09773188","name":"Zusamaltheim","type":"Kreisangehörige_Gemeinde"},"district":{"key":"09773","name":"Dillingen a.d.Donau","type":"Landkreis"},"federalState":{"key":"09","name":"Bayern"}},{"name":"Papiermühlenweg","postalCode":"89407","locality":"Dillingen a.d.Donau","municipality":{"key":"09773125","name":"Dillingen a.d.Donau, GKSt","type":"Große_Kreisstadt"},"district":{"key":"09773","name":"Dillingen a.d.Donau","type":"Landkreis"},"federalState":{"key":"09","name":"Bayern"}},{"name":"Pappelweg","postalCode":"89407","locality":"Dillingen a.d.Donau","municipality":{"key":"09773125","name":"Dillingen a.d.Donau, GKSt","type":"Große_Kreisstadt"},"district":{"key":"09773","name":"Dillingen a.d.Donau","type":"Landkreis"},"federalState":{"key":"09","name":"Bayern"}},{"name":"Paradiesweg","postalCode":"89407","locality":"Dillingen a.d.Donau","municipality":{"key":"09773125","name":"Dillingen a.d.Donau, GKSt","type":"Große_Kreisstadt"},"district":{"key":"09773","name":"Dillingen a.d.Donau","type":"Landkreis"},"federalState":{"key":"09","name":"Bayern"}},{"name":"Parkstr.","postalCode":"89407","locality":"Dillingen a.d.Donau","municipality":{"key":"09773125","name":"Dillingen a.d.Donau, GKSt","type":"Große_Kreisstadt"},"district":{"key":"09773","name":"Dillingen a.d.Donau","type":"Landkreis"},"federalState":{"key":"09","name":"Bayern"}},{"name":"Parkweg","postalCode":"89407","locality":"Dillingen a.d.Donau","municipality":{"key":"09773125","name":"Dillingen a.d.Donau, GKSt","type":"Große_Kreisstadt"},"district":{"key":"09773","name":"Dillingen a.d.Donau","type":"Landkreis"},"federalState":{"key":"09","name":"Bayern"}},{"name":"Pater-Alfred-Delp-Weg","postalCode":"89407","locality":"Dillingen a.d.Donau","municipality":{"key":"09773125","name":"Dillingen a.d.Donau, GKSt","type":"Große_Kreisstadt"},"district":{"key":"09773","name":"Dillingen a.d.Donau","type":"Landkreis"},"federalState":{"key":"09","name":"Bayern"}},{"name":"Patriz-Zimmer-Weg","postalCode":"89407","locality":"Dillingen a.d.Donau","municipality":{"key":"09773125","name":"Dillingen a.d.Donau, GKSt","type":"Große_Kreisstadt"},"district":{"key":"09773","name":"Dillingen a.d.Donau","type":"Landkreis"},"federalState":{"key":"09","name":"Bayern"}},{"name":"Paul-Zenetti-Str.","postalCode":"89407","locality":"Dillingen a.d.Donau","municipality":{"key":"09773125","name":"Dillingen a.d.Donau, GKSt","type":"Große_Kreisstadt"},"district":{"key":"09773","name":"Dillingen a.d.Donau","type":"Landkreis"},"federalState":{"key":"09","name":"Bayern"}},{"name":"Peter-Dörfler-Weg","postalCode":"89407","locality":"Dillingen a.d.Donau","municipality":{"key":"09773125","name":"Dillingen a.d.Donau, GKSt","type":"Große_Kreisstadt"},"district":{"key":"09773","name":"Dillingen a.d.Donau","type":"Landkreis"},"federalState":{"key":"09","name":"Bayern"}},{"name":"Peter-Eggenmüller-Weg","postalCode":"89407","locality":"Dillingen a.d.Donau","municipality":{"key":"09773125","name":"Dillingen a.d.Donau, GKSt","type":"Große_Kreisstadt"},"district":{"key":"09773","name":"Dillingen a.d.Donau","type":"Landkreis"},"federalState":{"key":"09","name":"Bayern"}},{"name":"Pfalz-Neuburg-Str.","postalCode":"89407","locality":"Dillingen a.d.Donau","municipality":{"key":"09773125","name":"Dillingen a.d.Donau, GKSt","type":"Große_Kreisstadt"},"district":{"key":"09773","name":"Dillingen a.d.Donau","type":"Landkreis"},"federalState":{"key":"09","name":"Bayern"}},{"name":"Pfarrer-Schaeble-Weg","postalCode":"89407","locality":"Dillingen a.d.Donau","municipality":{"key":"09773125","name":"Dillingen a.d.Donau, GKSt","type":"Große_Kreisstadt"},"district":{"key":"09773","name":"Dillingen a.d.Donau","type":"Landkreis"},"federalState":{"key":"09","name":"Bayern"}},{"name":"Pfauenstr.","postalCode":"89407","locality":"Dillingen a.d.Donau","municipality":{"key":"09773125","name":"Dillingen a.d.Donau, GKSt","type":"Große_Kreisstadt"},"district":{"key":"09773","name":"Dillingen a.d.Donau","type":"Landkreis"},"federalState":{"key":"09","name":"Bayern"}},{"name":"Philipp-Schelein-Weg","postalCode":"89407","locality":"Dillingen a.d.Donau","municipality":{"key":"09773125","name":"Dillingen a.d.Donau, GKSt","type":"Große_Kreisstadt"},"district":{"key":"09773","name":"Dillingen a.d.Donau","type":"Landkreis"},"federalState":{"key":"09","name":"Bayern"}},{"name":"Pointstr.","postalCode":"89407","locality":"Dillingen a.d.Donau","municipality":{"key":"09773125","name":"Dillingen a.d.Donau, GKSt","type":"Große_Kreisstadt"},"district":{"key":"09773","name":"Dillingen a.d.Donau","type":"Landkreis"},"federalState":{"key":"09","name":"Bayern"}},{"name":"Prälat-Hummel-Str.","postalCode":"89407","locality":"Dillingen a.d.Donau","municipality":{"key":"09773125","name":"Dillingen a.d.Donau, GKSt","type":"Große_Kreisstadt"},"district":{"key":"09773","name":"Dillingen a.d.Donau","type":"Landkreis"},"federalState":{"key":"09","name":"Bayern"}},{"name":"Priehlweg","postalCode":"89407","locality":"Dillingen a.d.Donau","municipality":{"key":"09773125","name":"Dillingen a.d.Donau, GKSt","type":"Große_Kreisstadt"},"district":{"key":"09773","name":"Dillingen a.d.Donau","type":"Landkreis"},"federalState":{"key":"09","name":"Bayern"}},{"name":"Professor-Habermann-Weg","postalCode":"89407","locality":"Dillingen a.d.Donau","municipality":{"key":"09773125","name":"Dillingen a.d.Donau, GKSt","type":"Große_Kreisstadt"},"district":{"key":"09773","name":"Dillingen a.d.Donau","type":"Landkreis"},"federalState":{"key":"09","name":"Bayern"}},{"name":"Raunsbergweg","postalCode":"86637","locality":"Zusamaltheim","municipality":{"key":"09773188","name":"Zusamaltheim","type":"Kreisangehörige_Gemeinde"},"district":{"key":"09773","name":"Dillingen a.d.Donau","type":"Landkreis"},"federalState":{"key":"09","name":"Bayern"}},{"name":"Rechbergstr.","postalCode":"86637","locality":"Zusamaltheim","municipality":{"key":"09773188","name":"Zusamaltheim","type":"Kreisangehörige_Gemeinde"},"district":{"key":"09773","name":"Dillingen a.d.Donau","type":"Landkreis"},"federalState":{"key":"09","name":"Bayern"}},{"name":"Riedsender Str.","postalCode":"86637","locality":"Zusamaltheim","municipality":{"key":"09773188","name":"Zusamaltheim","type":"Kreisangehörige_Gemeinde"},"district":{"key":"09773","name":"Dillingen a.d.Donau","type":"Landkreis"},"federalState":{"key":"09","name":"Bayern"}},{"name":"Sattlergasse","postalCode":"86637","locality":"Zusamaltheim","municipality":{"key":"09773188","name":"Zusamaltheim","type":"Kreisangehörige_Gemeinde"},"district":{"key":"09773","name":"Dillingen a.d.Donau","type":"Landkreis"},"federalState":{"key":"09","name":"Bayern"}},{"name":"Saumweg","postalCode":"86637","locality":"Zusamaltheim","municipality":{"key":"09773188","name":"Zusamaltheim","type":"Kreisangehörige_Gemeinde"},"district":{"key":"09773","name":"Dillingen a.d.Donau","type":"Landkreis"},"federalState":{"key":"09","name":"Bayern"}},{"name":"Scherweg","postalCode":"86637","locality":"Zusamaltheim","municipality":{"key":"09773188","name":"Zusamaltheim","type":"Kreisangehörige_Gemeinde"},"district":{"key":"09773","name":"Dillingen a.d.Donau","type":"Landkreis"},"federalState":{"key":"09","name":"Bayern"}},{"name":"Schmiedstr.","postalCode":"86637","locality":"Zusamaltheim","municipality":{"key":"09773188","name":"Zusamaltheim","type":"Kreisangehörige_Gemeinde"},"district":{"key":"09773","name":"Dillingen a.d.Donau","type":"Landkreis"},"federalState":{"key":"09","name":"Bayern"}},{"name":"Tannenweg","postalCode":"89407","locality":"Dillingen a.d.Donau","municipality":{"key":"09773125","name":"Dillingen a.d.Donau, GKSt","type":"Große_Kreisstadt"},"district":{"key":"09773","name":"Dillingen a.d.Donau","type":"Landkreis"},"federalState":{"key":"09","name":"Bayern"}},{"name":"Taubenstr.","postalCode":"89407","locality":"Dillingen a.d.Donau","municipality":{"key":"09773125","name":"Dillingen a.d.Donau, GKSt","type":"Große_Kreisstadt"},"district":{"key":"09773","name":"Dillingen a.d.Donau","type":"Landkreis"},"federalState":{"key":"09","name":"Bayern"}},{"name":"Taxispark","postalCode":"89407","locality":"Dillingen a.d.Donau","municipality":{"key":"09773125","name":"Dillingen a.d.Donau, GKSt","type":"Große_Kreisstadt"},"district":{"key":"09773","name":"Dillingen a.d.Donau","type":"Landkreis"},"federalState":{"key":"09","name":"Bayern"}},{"name":"Thaddäus-Hornung-Weg","postalCode":"89407","locality":"Dillingen a.d.Donau","municipality":{"key":"09773125","name":"Dillingen a.d.Donau, GKSt","type":"Große_Kreisstadt"},"district":{"key":"09773","name":"Dillingen a.d.Donau","type":"Landkreis"},"federalState":{"key":"09","name":"Bayern"}},{"name":"Thomas-Mann-Weg","postalCode":"89407","locality":"Dillingen a.d.Donau","municipality":{"key":"09773125","name":"Dillingen a.d.Donau, GKSt","type":"Große_Kreisstadt"},"district":{"key":"09773","name":"Dillingen a.d.Donau","type":"Landkreis"},"federalState":{"key":"09","name":"Bayern"}},{"name":"Thomas-Scheffler-Str.","postalCode":"89407","locality":"Dillingen a.d.Donau","municipality":{"key":"09773125","name":"Dillingen a.d.Donau, GKSt","type":"Große_Kreisstadt"},"district":{"key":"09773","name":"Dillingen a.d.Donau","type":"Landkreis"},"federalState":{"key":"09","name":"Bayern"}},{"name":"Thomas-Specht-Weg","postalCode":"89407","locality":"Dillingen a.d.Donau","municipality":{"key":"09773125","name":"Dillingen a.d.Donau, GKSt","type":"Große_Kreisstadt"},"district":{"key":"09773","name":"Dillingen a.d.Donau","type":"Landkreis"},"federalState":{"key":"09","name":"Bayern"}},{"name":"Thuner Weg","postalCode":"89407","locality":"Dillingen a.d.Donau","municipality":{"key":"09773125","name":"Dillingen a.d.Donau, GKSt","type":"Große_Kreisstadt"},"district":{"key":"09773","name":"Dillingen a.d.Donau","type":"Landkreis"},"federalState":{"key":"09","name":"Bayern"}},{"name":"Tilsiter Str.","postalCode":"89407","locality":"Dillingen a.d.Donau","municipality":{"key":"09773125","name":"Dillingen a.d.Donau, GKSt","type":"Große_Kreisstadt"},"district":{"key":"09773","name":"Dillingen a.d.Donau","type":"Landkreis"},"federalState":{"key":"09","name":"Bayern"}},{"name":"Toni-Kuster-Weg","postalCode":"89407","locality":"Dillingen a.d.Donau","municipality":{"key":"09773125","name":"Dillingen a.d.Donau, GKSt","type":"Große_Kreisstadt"},"district":{"key":"09773","name":"Dillingen a.d.Donau","type":"Landkreis"},"federalState":{"key":"09","name":"Bayern"}},{"name":"Tulpenstr.","postalCode":"89407","locality":"Dillingen a.d.Donau","municipality":{"key":"09773125","name":"Dillingen a.d.Donau, GKSt","type":"Große_Kreisstadt"},"district":{"key":"09773","name":"Dillingen a.d.Donau","type":"Landkreis"},"federalState":{"key":"09","name":"Bayern"}},{"name":"Untere Dorfstr.","postalCode":"86637","locality":"Zusamaltheim","municipality":{"key":"09773188","name":"Zusamaltheim","type":"Kreisangehörige_Gemeinde"},"district":{"key":"09773","name":"Dillingen a.d.Donau","type":"Landkreis"},"federalState":{"key":"09","name":"Bayern"}},{"name":"Villenbacher Str.","postalCode":"86637","locality":"Zusamaltheim","municipality":{"key":"09773188","name":"Zusamaltheim","type":"Kreisangehörige_Gemeinde"},"district":{"key":"09773","name":"Dillingen a.d.Donau","type":"Landkreis"},"federalState":{"key":"09","name":"Bayern"}},{"name":"Weidweg","postalCode":"86637","locality":"Zusamaltheim","municipality":{"key":"09773188","name":"Zusamaltheim","type":"Kreisangehörige_Gemeinde"},"district":{"key":"09773","name":"Dillingen a.d.Donau","type":"Landkreis"},"federalState":{"key":"09","name":"Bayern"}},{"name":"Wertinger Str.","postalCode":"86637","locality":"Zusamaltheim","municipality":{"key":"09773188","name":"Zusamaltheim","type":"Kreisangehörige_Gemeinde"},"district":{"key":"09773","name":"Dillingen a.d.Donau","type":"Landkreis"},"federalState":{"key":"09","name":"Bayern"}},{"name":"Wiesenstr.","postalCode":"86637","locality":"Zusamaltheim","municipality":{"key":"09773188","name":"Zusamaltheim","type":"Kreisangehörige_Gemeinde"},"district":{"key":"09773","name":"Dillingen a.d.Donau","type":"Landkreis"},"federalState":{"key":"09","name":"Bayern"}},{"name":"Zusambauerweg","postalCode":"86637","locality":"Zusamaltheim","municipality":{"key":"09773188","name":"Zusamaltheim","type":"Kreisangehörige_Gemeinde"},"district":{"key":"09773","name":"Dillingen a.d.Donau","type":"Landkreis"},"federalState":{"key":"09","name":"Bayern"}},{"name":"Ölberggasse","postalCode":"89407","locality":"Dillingen a.d.Donau","municipality":{"key":"09773125","name":"Dillingen a.d.Donau, GKSt","type":"Große_Kreisstadt"},"district":{"key":"09773","name":"Dillingen a.d.Donau","type":"Landkreis"},"federalState":{"key":"09","name":"Bayern"}},{"name":"Überaschungsweg (Sackgasse)","postalCode":"89407","locality":"Dillingen a.d.Donau","municipality":{"key":"09773125","name":"Dillingen a.d.Donau, GKSt","type":"Große_Kreisstadt"},"district":{"key":"09773","name":"Dillingen a.d.Donau","type":"Landkreis"},"federalState":{"key":"09","name":"Bayern"}},]