[{"key":"10097083","name":"Chemin de la Feuillée","postalCode":"1286","locality":"Soral","commune":{"key":"6639","name":"Soral","shortName":"Soral"},"district":{"key":"2500","name":"Canton de Genève"},"canton":{"key":"25","code":"GE","name":"Genève"},"status":"Real"},{"key":"10222298","name":"Chemin de l'Ancien-Château","postalCode":"1286","locality":"Soral","commune":{"key":"6639","name":"Soral","shortName":"Soral"},"district":{"key":"2500","name":"Canton de Genève"},"canton":{"key":"25","code":"GE","name":"Genève"},"status":"Real"},{"key":"10107490","name":"Chemin de la Perrousaz","postalCode":"1286","locality":"Soral","commune":{"key":"6639","name":"Soral","shortName":"Soral"},"district":{"key":"2500","name":"Canton de Genève"},"canton":{"key":"25","code":"GE","name":"Genève"},"status":"Real"},{"key":"10188117","name":"Chemin de Placet","postalCode":"1286","locality":"Soral","commune":{"key":"6639","name":"Soral","shortName":"Soral"},"district":{"key":"2500","name":"Canton de Genève"},"canton":{"key":"25","code":"GE","name":"Genève"},"status":"Real"},{"key":"10222302","name":"Chemin des Champs-Fouchet","postalCode":"1286","locality":"Soral","commune":{"key":"6639","name":"Soral","shortName":"Soral"},"district":{"key":"2500","name":"Canton de Genève"},"canton":{"key":"25","code":"GE","name":"Genève"},"status":"Real"},{"key":"10061242","name":"Chemin des Chavannes","postalCode":"1286","locality":"Soral","commune":{"key":"6639","name":"Soral","shortName":"Soral"},"district":{"key":"2500","name":"Canton de Genève"},"canton":{"key":"25","code":"GE","name":"Genève"},"status":"Real"},{"key":"10222306","name":"Chemin des Ecoliers","postalCode":"1286","locality":"Soral","commune":{"key":"6639","name":"Soral","shortName":"Soral"},"district":{"key":"2500","name":"Canton de Genève"},"canton":{"key":"25","code":"GE","name":"Genève"},"status":"Real"},{"key":"10149628","name":"Chemin des Effeuilles","postalCode":"1286","locality":"Soral","commune":{"key":"6639","name":"Soral","shortName":"Soral"},"district":{"key":"2500","name":"Canton de Genève"},"canton":{"key":"25","code":"GE","name":"Genève"},"status":"Real"},{"key":"10222309","name":"Chemin des Longues-Mailles","postalCode":"1286","locality":"Soral","commune":{"key":"6639","name":"Soral","shortName":"Soral"},"district":{"key":"2500","name":"Canton de Genève"},"canton":{"key":"25","code":"GE","name":"Genève"},"status":"Real"},{"key":"10222395","name":"Chemin des Noyers","postalCode":"1286","locality":"Soral","commune":{"key":"6639","name":"Soral","shortName":"Soral"},"district":{"key":"2500","name":"Canton de Genève"},"canton":{"key":"25","code":"GE","name":"Genève"},"status":"Real"},{"key":"10222403","name":"Chemin des Prés-Berthet","postalCode":"1286","locality":"Soral","commune":{"key":"6639","name":"Soral","shortName":"Soral"},"district":{"key":"2500","name":"Canton de Genève"},"canton":{"key":"25","code":"GE","name":"Genève"},"status":"Real"},{"key":"10047897","name":"Chemin du Bois-de-By","postalCode":"1286","locality":"Soral","commune":{"key":"6639","name":"Soral","shortName":"Soral"},"district":{"key":"2500","name":"Canton de Genève"},"canton":{"key":"25","code":"GE","name":"Genève"},"status":"Real"},{"key":"10222412","name":"Chemin du Champ-Jaquemet","postalCode":"1286","locality":"Soral","commune":{"key":"6639","name":"Soral","shortName":"Soral"},"district":{"key":"2500","name":"Canton de Genève"},"canton":{"key":"25","code":"GE","name":"Genève"},"status":"Real"},{"key":"10113418","name":"Chemin du Loup","postalCode":"1286","locality":"Soral","commune":{"key":"6639","name":"Soral","shortName":"Soral"},"district":{"key":"2500","name":"Canton de Genève"},"canton":{"key":"25","code":"GE","name":"Genève"},"status":"Real"},{"key":"10107491","name":"Chemin du Perron-d'Enfer","postalCode":"1286","locality":"Soral","commune":{"key":"6639","name":"Soral","shortName":"Soral"},"district":{"key":"2500","name":"Canton de Genève"},"canton":{"key":"25","code":"GE","name":"Genève"},"status":"Real"},{"key":"10222423","name":"Chemin du Pré-de-Norcier","postalCode":"1286","locality":"Soral","commune":{"key":"6639","name":"Soral","shortName":"Soral"},"district":{"key":"2500","name":"Canton de Genève"},"canton":{"key":"25","code":"GE","name":"Genève"},"status":"Real"},{"key":"10106543","name":"Chemin du Pré-Moret","postalCode":"1286","locality":"Soral","commune":{"key":"6639","name":"Soral","shortName":"Soral"},"district":{"key":"2500","name":"Canton de Genève"},"canton":{"key":"25","code":"GE","name":"Genève"},"status":"Real"},{"key":"10222432","name":"Passage de Labeaume","postalCode":"1286","locality":"Soral","commune":{"key":"6639","name":"Soral","shortName":"Soral"},"district":{"key":"2500","name":"Canton de Genève"},"canton":{"key":"25","code":"GE","name":"Genève"},"status":"Real"},{"key":"10184278","name":"Route de Rougemont","postalCode":"1286","locality":"Soral","commune":{"key":"6639","name":"Soral","shortName":"Soral"},"district":{"key":"2500","name":"Canton de Genève"},"canton":{"key":"25","code":"GE","name":"Genève"},"status":"Real"},{"key":"10047899","name":"Route des Lolliets","postalCode":"1286","locality":"Soral","commune":{"key":"6639","name":"Soral","shortName":"Soral"},"district":{"key":"2500","name":"Canton de Genève"},"canton":{"key":"25","code":"GE","name":"Genève"},"status":"Real"},{"key":"10192116","name":"Route des Mangons","postalCode":"1286","locality":"Soral","commune":{"key":"6639","name":"Soral","shortName":"Soral"},"district":{"key":"2500","name":"Canton de Genève"},"canton":{"key":"25","code":"GE","name":"Genève"},"status":"Real"},{"key":"10047898","name":"Route de Soral","postalCode":"1286","locality":"Soral","commune":{"key":"6639","name":"Soral","shortName":"Soral"},"district":{"key":"2500","name":"Canton de Genève"},"canton":{"key":"25","code":"GE","name":"Genève"},"status":"Real"},{"key":"10221529","name":"Route de Thérens","postalCode":"1286","locality":"Soral","commune":{"key":"6639","name":"Soral","shortName":"Soral"},"district":{"key":"2500","name":"Canton de Genève"},"canton":{"key":"25","code":"GE","name":"Genève"},"status":"Real"},{"key":"10221533","name":"Route du Coteau","postalCode":"1286","locality":"Soral","commune":{"key":"6639","name":"Soral","shortName":"Soral"},"district":{"key":"2500","name":"Canton de Genève"},"canton":{"key":"25","code":"GE","name":"Genève"},"status":"Real"},{"key":"10047900","name":"Route du Creux-de-Boisset","postalCode":"1286","locality":"Soral","commune":{"key":"6639","name":"Soral","shortName":"Soral"},"district":{"key":"2500","name":"Canton de Genève"},"canton":{"key":"25","code":"GE","name":"Genève"},"status":"Real"},{"key":"10047901","name":"Rue du Faubourg","postalCode":"1286","locality":"Soral","commune":{"key":"6639","name":"Soral","shortName":"Soral"},"district":{"key":"2500","name":"Canton de Genève"},"canton":{"key":"25","code":"GE","name":"Genève"},"status":"Real"},]