[{"name":"Ahornstr.","postalCode":"94166","locality":"Stubenberg","municipality":{"key":"09277147","name":"Stubenberg","type":"Kreisangehörige_Gemeinde"},"district":{"key":"09277","name":"Rottal-Inn","type":"Landkreis"},"federalState":{"key":"09","name":"Bayern"}},{"name":"Am Sandhügel","postalCode":"94166","locality":"Stubenberg","municipality":{"key":"09277147","name":"Stubenberg","type":"Kreisangehörige_Gemeinde"},"district":{"key":"09277","name":"Rottal-Inn","type":"Landkreis"},"federalState":{"key":"09","name":"Bayern"}},{"name":"Am Sportplatz","postalCode":"94166","locality":"Stubenberg","municipality":{"key":"09277147","name":"Stubenberg","type":"Kreisangehörige_Gemeinde"},"district":{"key":"09277","name":"Rottal-Inn","type":"Landkreis"},"federalState":{"key":"09","name":"Bayern"}},{"name":"Am Wasserstall","postalCode":"94166","locality":"Stubenberg","municipality":{"key":"09277147","name":"Stubenberg","type":"Kreisangehörige_Gemeinde"},"district":{"key":"09277","name":"Rottal-Inn","type":"Landkreis"},"federalState":{"key":"09","name":"Bayern"}},{"name":"Am Weingarten","postalCode":"94166","locality":"Stubenberg","municipality":{"key":"09277147","name":"Stubenberg","type":"Kreisangehörige_Gemeinde"},"district":{"key":"09277","name":"Rottal-Inn","type":"Landkreis"},"federalState":{"key":"09","name":"Bayern"}},{"name":"Bahnhofstr.","postalCode":"94166","locality":"Stubenberg","municipality":{"key":"09277147","name":"Stubenberg","type":"Kreisangehörige_Gemeinde"},"district":{"key":"09277","name":"Rottal-Inn","type":"Landkreis"},"federalState":{"key":"09","name":"Bayern"}},{"name":"Bergstr.","postalCode":"94166","locality":"Stubenberg","municipality":{"key":"09277147","name":"Stubenberg","type":"Kreisangehörige_Gemeinde"},"district":{"key":"09277","name":"Rottal-Inn","type":"Landkreis"},"federalState":{"key":"09","name":"Bayern"}},{"name":"Blumenstr.","postalCode":"94166","locality":"Stubenberg","municipality":{"key":"09277147","name":"Stubenberg","type":"Kreisangehörige_Gemeinde"},"district":{"key":"09277","name":"Rottal-Inn","type":"Landkreis"},"federalState":{"key":"09","name":"Bayern"}},{"name":"Buchenstr.","postalCode":"94166","locality":"Stubenberg","municipality":{"key":"09277147","name":"Stubenberg","type":"Kreisangehörige_Gemeinde"},"district":{"key":"09277","name":"Rottal-Inn","type":"Landkreis"},"federalState":{"key":"09","name":"Bayern"}},{"name":"Dahlienweg","postalCode":"94166","locality":"Stubenberg","municipality":{"key":"09277147","name":"Stubenberg","type":"Kreisangehörige_Gemeinde"},"district":{"key":"09277","name":"Rottal-Inn","type":"Landkreis"},"federalState":{"key":"09","name":"Bayern"}},{"name":"Eichenweg","postalCode":"94166","locality":"Stubenberg","municipality":{"key":"09277147","name":"Stubenberg","type":"Kreisangehörige_Gemeinde"},"district":{"key":"09277","name":"Rottal-Inn","type":"Landkreis"},"federalState":{"key":"09","name":"Bayern"}},{"name":"Fliederweg","postalCode":"94166","locality":"Stubenberg","municipality":{"key":"09277147","name":"Stubenberg","type":"Kreisangehörige_Gemeinde"},"district":{"key":"09277","name":"Rottal-Inn","type":"Landkreis"},"federalState":{"key":"09","name":"Bayern"}},{"name":"Gartenstr.","postalCode":"94166","locality":"Stubenberg","municipality":{"key":"09277147","name":"Stubenberg","type":"Kreisangehörige_Gemeinde"},"district":{"key":"09277","name":"Rottal-Inn","type":"Landkreis"},"federalState":{"key":"09","name":"Bayern"}},{"name":"Hartstr.","postalCode":"94166","locality":"Stubenberg","municipality":{"key":"09277147","name":"Stubenberg","type":"Kreisangehörige_Gemeinde"},"district":{"key":"09277","name":"Rottal-Inn","type":"Landkreis"},"federalState":{"key":"09","name":"Bayern"}},{"name":"Hauptstr.","postalCode":"94166","locality":"Stubenberg","municipality":{"key":"09277147","name":"Stubenberg","type":"Kreisangehörige_Gemeinde"},"district":{"key":"09277","name":"Rottal-Inn","type":"Landkreis"},"federalState":{"key":"09","name":"Bayern"}},{"name":"Hofmark","postalCode":"94166","locality":"Stubenberg","municipality":{"key":"09277147","name":"Stubenberg","type":"Kreisangehörige_Gemeinde"},"district":{"key":"09277","name":"Rottal-Inn","type":"Landkreis"},"federalState":{"key":"09","name":"Bayern"}},{"name":"Hohlweg","postalCode":"94166","locality":"Stubenberg","municipality":{"key":"09277147","name":"Stubenberg","type":"Kreisangehörige_Gemeinde"},"district":{"key":"09277","name":"Rottal-Inn","type":"Landkreis"},"federalState":{"key":"09","name":"Bayern"}},{"name":"Innweg","postalCode":"94166","locality":"Stubenberg","municipality":{"key":"09277147","name":"Stubenberg","type":"Kreisangehörige_Gemeinde"},"district":{"key":"09277","name":"Rottal-Inn","type":"Landkreis"},"federalState":{"key":"09","name":"Bayern"}},{"name":"Kirchenweg","postalCode":"94166","locality":"Stubenberg","municipality":{"key":"09277147","name":"Stubenberg","type":"Kreisangehörige_Gemeinde"},"district":{"key":"09277","name":"Rottal-Inn","type":"Landkreis"},"federalState":{"key":"09","name":"Bayern"}},{"name":"Lindenstr.","postalCode":"94166","locality":"Stubenberg","municipality":{"key":"09277147","name":"Stubenberg","type":"Kreisangehörige_Gemeinde"},"district":{"key":"09277","name":"Rottal-Inn","type":"Landkreis"},"federalState":{"key":"09","name":"Bayern"}},{"name":"Mostereiweg","postalCode":"94166","locality":"Stubenberg","municipality":{"key":"09277147","name":"Stubenberg","type":"Kreisangehörige_Gemeinde"},"district":{"key":"09277","name":"Rottal-Inn","type":"Landkreis"},"federalState":{"key":"09","name":"Bayern"}},{"name":"Pfarrkirchner Str.","postalCode":"94166","locality":"Stubenberg","municipality":{"key":"09277147","name":"Stubenberg","type":"Kreisangehörige_Gemeinde"},"district":{"key":"09277","name":"Rottal-Inn","type":"Landkreis"},"federalState":{"key":"09","name":"Bayern"}},{"name":"Poststr.","postalCode":"94166","locality":"Stubenberg","municipality":{"key":"09277147","name":"Stubenberg","type":"Kreisangehörige_Gemeinde"},"district":{"key":"09277","name":"Rottal-Inn","type":"Landkreis"},"federalState":{"key":"09","name":"Bayern"}},{"name":"Rosenweg","postalCode":"94166","locality":"Stubenberg","municipality":{"key":"09277147","name":"Stubenberg","type":"Kreisangehörige_Gemeinde"},"district":{"key":"09277","name":"Rottal-Inn","type":"Landkreis"},"federalState":{"key":"09","name":"Bayern"}},{"name":"Schallergarten","postalCode":"94166","locality":"Stubenberg","municipality":{"key":"09277147","name":"Stubenberg","type":"Kreisangehörige_Gemeinde"},"district":{"key":"09277","name":"Rottal-Inn","type":"Landkreis"},"federalState":{"key":"09","name":"Bayern"}},{"name":"Schloßberg","postalCode":"94166","locality":"Stubenberg","municipality":{"key":"09277147","name":"Stubenberg","type":"Kreisangehörige_Gemeinde"},"district":{"key":"09277","name":"Rottal-Inn","type":"Landkreis"},"federalState":{"key":"09","name":"Bayern"}},{"name":"Schulstr.","postalCode":"94166","locality":"Stubenberg","municipality":{"key":"09277147","name":"Stubenberg","type":"Kreisangehörige_Gemeinde"},"district":{"key":"09277","name":"Rottal-Inn","type":"Landkreis"},"federalState":{"key":"09","name":"Bayern"}},{"name":"Tulpenweg","postalCode":"94166","locality":"Stubenberg","municipality":{"key":"09277147","name":"Stubenberg","type":"Kreisangehörige_Gemeinde"},"district":{"key":"09277","name":"Rottal-Inn","type":"Landkreis"},"federalState":{"key":"09","name":"Bayern"}},{"name":"Ulberinger Str.","postalCode":"94166","locality":"Stubenberg","municipality":{"key":"09277147","name":"Stubenberg","type":"Kreisangehörige_Gemeinde"},"district":{"key":"09277","name":"Rottal-Inn","type":"Landkreis"},"federalState":{"key":"09","name":"Bayern"}},{"name":"Unter der Linde","postalCode":"94166","locality":"Stubenberg","municipality":{"key":"09277147","name":"Stubenberg","type":"Kreisangehörige_Gemeinde"},"district":{"key":"09277","name":"Rottal-Inn","type":"Landkreis"},"federalState":{"key":"09","name":"Bayern"}},{"name":"Weingartenstr.","postalCode":"94166","locality":"Stubenberg","municipality":{"key":"09277147","name":"Stubenberg","type":"Kreisangehörige_Gemeinde"},"district":{"key":"09277","name":"Rottal-Inn","type":"Landkreis"},"federalState":{"key":"09","name":"Bayern"}},{"name":"Wiesenstr.","postalCode":"94166","locality":"Stubenberg","municipality":{"key":"09277147","name":"Stubenberg","type":"Kreisangehörige_Gemeinde"},"district":{"key":"09277","name":"Rottal-Inn","type":"Landkreis"},"federalState":{"key":"09","name":"Bayern"}},{"name":"Wulfingstr.","postalCode":"94166","locality":"Stubenberg","municipality":{"key":"09277147","name":"Stubenberg","type":"Kreisangehörige_Gemeinde"},"district":{"key":"09277","name":"Rottal-Inn","type":"Landkreis"},"federalState":{"key":"09","name":"Bayern"}},{"name":"Ziegelstadel","postalCode":"94166","locality":"Stubenberg","municipality":{"key":"09277147","name":"Stubenberg","type":"Kreisangehörige_Gemeinde"},"district":{"key":"09277","name":"Rottal-Inn","type":"Landkreis"},"federalState":{"key":"09","name":"Bayern"}},]