[{"name":"Alteck","postalCode":"56761","locality":"Gamlen","municipality":{"key":"07135033","name":"Gamlen","type":"Kreisangehörige_Gemeinde"},"district":{"key":"07135","name":"Cochem-Zell","type":"Landkreis"},"federalState":{"key":"07","name":"Rheinland-Pfalz"}},{"name":"Am Wasen","postalCode":"56761","locality":"Gamlen","municipality":{"key":"07135033","name":"Gamlen","type":"Kreisangehörige_Gemeinde"},"district":{"key":"07135","name":"Cochem-Zell","type":"Landkreis"},"federalState":{"key":"07","name":"Rheinland-Pfalz"}},{"name":"Am Ziegelfeld","postalCode":"56761","locality":"Gamlen","municipality":{"key":"07135033","name":"Gamlen","type":"Kreisangehörige_Gemeinde"},"district":{"key":"07135","name":"Cochem-Zell","type":"Landkreis"},"federalState":{"key":"07","name":"Rheinland-Pfalz"}},{"name":"Auf dem Käulchen","postalCode":"56761","locality":"Gamlen","municipality":{"key":"07135033","name":"Gamlen","type":"Kreisangehörige_Gemeinde"},"district":{"key":"07135","name":"Cochem-Zell","type":"Landkreis"},"federalState":{"key":"07","name":"Rheinland-Pfalz"}},{"name":"Auf dem Kern","postalCode":"56761","locality":"Gamlen","municipality":{"key":"07135033","name":"Gamlen","type":"Kreisangehörige_Gemeinde"},"district":{"key":"07135","name":"Cochem-Zell","type":"Landkreis"},"federalState":{"key":"07","name":"Rheinland-Pfalz"}},{"name":"Bachstr.","postalCode":"56761","locality":"Gamlen","municipality":{"key":"07135033","name":"Gamlen","type":"Kreisangehörige_Gemeinde"},"district":{"key":"07135","name":"Cochem-Zell","type":"Landkreis"},"federalState":{"key":"07","name":"Rheinland-Pfalz"}},{"name":"Bergstr.","postalCode":"56761","locality":"Gamlen","municipality":{"key":"07135033","name":"Gamlen","type":"Kreisangehörige_Gemeinde"},"district":{"key":"07135","name":"Cochem-Zell","type":"Landkreis"},"federalState":{"key":"07","name":"Rheinland-Pfalz"}},{"name":"Birkenweg","postalCode":"56761","locality":"Gamlen","municipality":{"key":"07135033","name":"Gamlen","type":"Kreisangehörige_Gemeinde"},"district":{"key":"07135","name":"Cochem-Zell","type":"Landkreis"},"federalState":{"key":"07","name":"Rheinland-Pfalz"}},{"name":"Borngasse","postalCode":"56761","locality":"Gamlen","municipality":{"key":"07135033","name":"Gamlen","type":"Kreisangehörige_Gemeinde"},"district":{"key":"07135","name":"Cochem-Zell","type":"Landkreis"},"federalState":{"key":"07","name":"Rheinland-Pfalz"}},{"name":"Bungert","postalCode":"56761","locality":"Gamlen","municipality":{"key":"07135033","name":"Gamlen","type":"Kreisangehörige_Gemeinde"},"district":{"key":"07135","name":"Cochem-Zell","type":"Landkreis"},"federalState":{"key":"07","name":"Rheinland-Pfalz"}},{"name":"Düngenheimer Str.","postalCode":"56761","locality":"Gamlen","municipality":{"key":"07135033","name":"Gamlen","type":"Kreisangehörige_Gemeinde"},"district":{"key":"07135","name":"Cochem-Zell","type":"Landkreis"},"federalState":{"key":"07","name":"Rheinland-Pfalz"}},{"name":"Eulgemer Str.","postalCode":"56761","locality":"Gamlen","municipality":{"key":"07135033","name":"Gamlen","type":"Kreisangehörige_Gemeinde"},"district":{"key":"07135","name":"Cochem-Zell","type":"Landkreis"},"federalState":{"key":"07","name":"Rheinland-Pfalz"}},{"name":"Hauptstr.","postalCode":"56761","locality":"Gamlen","municipality":{"key":"07135033","name":"Gamlen","type":"Kreisangehörige_Gemeinde"},"district":{"key":"07135","name":"Cochem-Zell","type":"Landkreis"},"federalState":{"key":"07","name":"Rheinland-Pfalz"}},{"name":"In der Seit","postalCode":"56761","locality":"Gamlen","municipality":{"key":"07135033","name":"Gamlen","type":"Kreisangehörige_Gemeinde"},"district":{"key":"07135","name":"Cochem-Zell","type":"Landkreis"},"federalState":{"key":"07","name":"Rheinland-Pfalz"}},{"name":"Neuer Weg","postalCode":"56761","locality":"Gamlen","municipality":{"key":"07135033","name":"Gamlen","type":"Kreisangehörige_Gemeinde"},"district":{"key":"07135","name":"Cochem-Zell","type":"Landkreis"},"federalState":{"key":"07","name":"Rheinland-Pfalz"}},{"name":"Tannenweg","postalCode":"56761","locality":"Gamlen","municipality":{"key":"07135033","name":"Gamlen","type":"Kreisangehörige_Gemeinde"},"district":{"key":"07135","name":"Cochem-Zell","type":"Landkreis"},"federalState":{"key":"07","name":"Rheinland-Pfalz"}},]