[{"key":"10059897","name":"Acherli","postalCode":"3614","locality":"Unterlangenegg","commune":{"key":"945","name":"Unterlangenegg","shortName":"Unterlangenegg"},"district":{"key":"247","name":"Verwaltungskreis Thun"},"canton":{"key":"2","code":"BE","name":"Bern / Berne"},"status":"Real"},{"key":"10186144","name":"Aebnit","postalCode":"3614","locality":"Unterlangenegg","commune":{"key":"945","name":"Unterlangenegg","shortName":"Unterlangenegg"},"district":{"key":"247","name":"Verwaltungskreis Thun"},"canton":{"key":"2","code":"BE","name":"Bern / Berne"},"status":"Real"},{"key":"10015732","name":"Allmend","postalCode":"3614","locality":"Unterlangenegg","commune":{"key":"945","name":"Unterlangenegg","shortName":"Unterlangenegg"},"district":{"key":"247","name":"Verwaltungskreis Thun"},"canton":{"key":"2","code":"BE","name":"Bern / Berne"},"status":"Real"},{"key":"10062033","name":"Bach","postalCode":"3614","locality":"Unterlangenegg","commune":{"key":"945","name":"Unterlangenegg","shortName":"Unterlangenegg"},"district":{"key":"247","name":"Verwaltungskreis Thun"},"canton":{"key":"2","code":"BE","name":"Bern / Berne"},"status":"Real"},{"key":"10015733","name":"Bachgraben","postalCode":"3614","locality":"Unterlangenegg","commune":{"key":"945","name":"Unterlangenegg","shortName":"Unterlangenegg"},"district":{"key":"247","name":"Verwaltungskreis Thun"},"canton":{"key":"2","code":"BE","name":"Bern / Berne"},"status":"Real"},{"key":"10065793","name":"Bärnegg","postalCode":"3614","locality":"Unterlangenegg","commune":{"key":"945","name":"Unterlangenegg","shortName":"Unterlangenegg"},"district":{"key":"247","name":"Verwaltungskreis Thun"},"canton":{"key":"2","code":"BE","name":"Bern / Berne"},"status":"Real"},{"key":"10015734","name":"Bergli","postalCode":"3614","locality":"Unterlangenegg","commune":{"key":"945","name":"Unterlangenegg","shortName":"Unterlangenegg"},"district":{"key":"247","name":"Verwaltungskreis Thun"},"canton":{"key":"2","code":"BE","name":"Bern / Berne"},"status":"Real"},{"key":"10059898","name":"Bruch","postalCode":"3614","locality":"Unterlangenegg","commune":{"key":"945","name":"Unterlangenegg","shortName":"Unterlangenegg"},"district":{"key":"247","name":"Verwaltungskreis Thun"},"canton":{"key":"2","code":"BE","name":"Bern / Berne"},"status":"Real"},{"key":"10015735","name":"Brüchli","postalCode":"3614","locality":"Unterlangenegg","commune":{"key":"945","name":"Unterlangenegg","shortName":"Unterlangenegg"},"district":{"key":"247","name":"Verwaltungskreis Thun"},"canton":{"key":"2","code":"BE","name":"Bern / Berne"},"status":"Real"},{"key":"10015736","name":"Bühl","postalCode":"3614","locality":"Unterlangenegg","commune":{"key":"945","name":"Unterlangenegg","shortName":"Unterlangenegg"},"district":{"key":"247","name":"Verwaltungskreis Thun"},"canton":{"key":"2","code":"BE","name":"Bern / Berne"},"status":"Real"},{"key":"10108385","name":"Dachsegg","postalCode":"3614","locality":"Unterlangenegg","commune":{"key":"945","name":"Unterlangenegg","shortName":"Unterlangenegg"},"district":{"key":"247","name":"Verwaltungskreis Thun"},"canton":{"key":"2","code":"BE","name":"Bern / Berne"},"status":"Real"},{"key":"10189610","name":"Eggen","postalCode":"3614","locality":"Unterlangenegg","commune":{"key":"945","name":"Unterlangenegg","shortName":"Unterlangenegg"},"district":{"key":"247","name":"Verwaltungskreis Thun"},"canton":{"key":"2","code":"BE","name":"Bern / Berne"},"status":"Real"},{"key":"10015737","name":"Flühmatt","postalCode":"3614","locality":"Unterlangenegg","commune":{"key":"945","name":"Unterlangenegg","shortName":"Unterlangenegg"},"district":{"key":"247","name":"Verwaltungskreis Thun"},"canton":{"key":"2","code":"BE","name":"Bern / Berne"},"status":"Real"},{"key":"10059900","name":"Forsthaus","postalCode":"3614","locality":"Unterlangenegg","commune":{"key":"945","name":"Unterlangenegg","shortName":"Unterlangenegg"},"district":{"key":"247","name":"Verwaltungskreis Thun"},"canton":{"key":"2","code":"BE","name":"Bern / Berne"},"status":"Real"},{"key":"10082036","name":"Fuchsegg","postalCode":"3614","locality":"Unterlangenegg","commune":{"key":"945","name":"Unterlangenegg","shortName":"Unterlangenegg"},"district":{"key":"247","name":"Verwaltungskreis Thun"},"canton":{"key":"2","code":"BE","name":"Bern / Berne"},"status":"Real"},{"key":"10172944","name":"Gygerstuhl","postalCode":"3614","locality":"Unterlangenegg","commune":{"key":"945","name":"Unterlangenegg","shortName":"Unterlangenegg"},"district":{"key":"247","name":"Verwaltungskreis Thun"},"canton":{"key":"2","code":"BE","name":"Bern / Berne"},"status":"Real"},{"key":"10082292","name":"Hählimatt","postalCode":"3614","locality":"Unterlangenegg","commune":{"key":"945","name":"Unterlangenegg","shortName":"Unterlangenegg"},"district":{"key":"247","name":"Verwaltungskreis Thun"},"canton":{"key":"2","code":"BE","name":"Bern / Berne"},"status":"Real"},{"key":"10014296","name":"Halten","postalCode":"3614","locality":"Unterlangenegg","commune":{"key":"945","name":"Unterlangenegg","shortName":"Unterlangenegg"},"district":{"key":"247","name":"Verwaltungskreis Thun"},"canton":{"key":"2","code":"BE","name":"Bern / Berne"},"status":"Real"},{"key":"10062034","name":"Hänni","postalCode":"3614","locality":"Unterlangenegg","commune":{"key":"945","name":"Unterlangenegg","shortName":"Unterlangenegg"},"district":{"key":"247","name":"Verwaltungskreis Thun"},"canton":{"key":"2","code":"BE","name":"Bern / Berne"},"status":"Real"},{"key":"10196513","name":"Hänniweg","postalCode":"3614","locality":"Unterlangenegg","commune":{"key":"945","name":"Unterlangenegg","shortName":"Unterlangenegg"},"district":{"key":"247","name":"Verwaltungskreis Thun"},"canton":{"key":"2","code":"BE","name":"Bern / Berne"},"status":"Real"},{"key":"10108703","name":"Hinterzäunen","postalCode":"3614","locality":"Unterlangenegg","commune":{"key":"945","name":"Unterlangenegg","shortName":"Unterlangenegg"},"district":{"key":"247","name":"Verwaltungskreis Thun"},"canton":{"key":"2","code":"BE","name":"Bern / Berne"},"status":"Real"},{"key":"10187190","name":"Hohle","postalCode":"3614","locality":"Unterlangenegg","commune":{"key":"945","name":"Unterlangenegg","shortName":"Unterlangenegg"},"district":{"key":"247","name":"Verwaltungskreis Thun"},"canton":{"key":"2","code":"BE","name":"Bern / Berne"},"status":"Real"},{"key":"10178963","name":"Hubel","postalCode":"3614","locality":"Unterlangenegg","commune":{"key":"945","name":"Unterlangenegg","shortName":"Unterlangenegg"},"district":{"key":"247","name":"Verwaltungskreis Thun"},"canton":{"key":"2","code":"BE","name":"Bern / Berne"},"status":"Real"},{"key":"10062035","name":"Hübeli","postalCode":"3614","locality":"Unterlangenegg","commune":{"key":"945","name":"Unterlangenegg","shortName":"Unterlangenegg"},"district":{"key":"247","name":"Verwaltungskreis Thun"},"canton":{"key":"2","code":"BE","name":"Bern / Berne"},"status":"Real"},{"key":"10014298","name":"Hühnermoos","postalCode":"3614","locality":"Unterlangenegg","commune":{"key":"945","name":"Unterlangenegg","shortName":"Unterlangenegg"},"district":{"key":"247","name":"Verwaltungskreis Thun"},"canton":{"key":"2","code":"BE","name":"Bern / Berne"},"status":"Real"},{"key":"10014299","name":"Jaberg","postalCode":"3614","locality":"Unterlangenegg","commune":{"key":"945","name":"Unterlangenegg","shortName":"Unterlangenegg"},"district":{"key":"247","name":"Verwaltungskreis Thun"},"canton":{"key":"2","code":"BE","name":"Bern / Berne"},"status":"Real"},{"key":"10125026","name":"Kreuzweg","postalCode":"3614","locality":"Unterlangenegg","commune":{"key":"945","name":"Unterlangenegg","shortName":"Unterlangenegg"},"district":{"key":"247","name":"Verwaltungskreis Thun"},"canton":{"key":"2","code":"BE","name":"Bern / Berne"},"status":"Real"},{"key":"10059901","name":"Loch","postalCode":"3614","locality":"Unterlangenegg","commune":{"key":"945","name":"Unterlangenegg","shortName":"Unterlangenegg"},"district":{"key":"247","name":"Verwaltungskreis Thun"},"canton":{"key":"2","code":"BE","name":"Bern / Berne"},"status":"Real"},{"key":"10082293","name":"Lochmatt","postalCode":"3614","locality":"Unterlangenegg","commune":{"key":"945","name":"Unterlangenegg","shortName":"Unterlangenegg"},"district":{"key":"247","name":"Verwaltungskreis Thun"},"canton":{"key":"2","code":"BE","name":"Bern / Berne"},"status":"Real"},{"key":"10129460","name":"Lützimad","postalCode":"3614","locality":"Unterlangenegg","commune":{"key":"945","name":"Unterlangenegg","shortName":"Unterlangenegg"},"district":{"key":"247","name":"Verwaltungskreis Thun"},"canton":{"key":"2","code":"BE","name":"Bern / Berne"},"status":"Real"},{"key":"10014300","name":"Mättli","postalCode":"3614","locality":"Unterlangenegg","commune":{"key":"945","name":"Unterlangenegg","shortName":"Unterlangenegg"},"district":{"key":"247","name":"Verwaltungskreis Thun"},"canton":{"key":"2","code":"BE","name":"Bern / Berne"},"status":"Real"},{"key":"10059902","name":"Möösli","postalCode":"3614","locality":"Unterlangenegg","commune":{"key":"945","name":"Unterlangenegg","shortName":"Unterlangenegg"},"district":{"key":"247","name":"Verwaltungskreis Thun"},"canton":{"key":"2","code":"BE","name":"Bern / Berne"},"status":"Real"},{"key":"10058690","name":"Mühletal","postalCode":"3614","locality":"Unterlangenegg","commune":{"key":"945","name":"Unterlangenegg","shortName":"Unterlangenegg"},"district":{"key":"247","name":"Verwaltungskreis Thun"},"canton":{"key":"2","code":"BE","name":"Bern / Berne"},"status":"Real"},{"key":"10014301","name":"Rain","postalCode":"3614","locality":"Unterlangenegg","commune":{"key":"945","name":"Unterlangenegg","shortName":"Unterlangenegg"},"district":{"key":"247","name":"Verwaltungskreis Thun"},"canton":{"key":"2","code":"BE","name":"Bern / Berne"},"status":"Real"},{"key":"10108386","name":"Ried","postalCode":"3614","locality":"Unterlangenegg","commune":{"key":"945","name":"Unterlangenegg","shortName":"Unterlangenegg"},"district":{"key":"247","name":"Verwaltungskreis Thun"},"canton":{"key":"2","code":"BE","name":"Bern / Berne"},"status":"Real"},{"key":"10065801","name":"Rothachen","postalCode":"3614","locality":"Unterlangenegg","commune":{"key":"945","name":"Unterlangenegg","shortName":"Unterlangenegg"},"district":{"key":"247","name":"Verwaltungskreis Thun"},"canton":{"key":"2","code":"BE","name":"Bern / Berne"},"status":"Real"},{"key":"10178964","name":"Rötzihubel","postalCode":"3614","locality":"Unterlangenegg","commune":{"key":"945","name":"Unterlangenegg","shortName":"Unterlangenegg"},"district":{"key":"247","name":"Verwaltungskreis Thun"},"canton":{"key":"2","code":"BE","name":"Bern / Berne"},"status":"Real"},{"key":"10188941","name":"Russachen","postalCode":"3614","locality":"Unterlangenegg","commune":{"key":"945","name":"Unterlangenegg","shortName":"Unterlangenegg"},"district":{"key":"247","name":"Verwaltungskreis Thun"},"canton":{"key":"2","code":"BE","name":"Bern / Berne"},"status":"Real"},{"key":"10059903","name":"Schafacker","postalCode":"3614","locality":"Unterlangenegg","commune":{"key":"945","name":"Unterlangenegg","shortName":"Unterlangenegg"},"district":{"key":"247","name":"Verwaltungskreis Thun"},"canton":{"key":"2","code":"BE","name":"Bern / Berne"},"status":"Real"},{"key":"10062037","name":"Schilt","postalCode":"3614","locality":"Unterlangenegg","commune":{"key":"945","name":"Unterlangenegg","shortName":"Unterlangenegg"},"district":{"key":"247","name":"Verwaltungskreis Thun"},"canton":{"key":"2","code":"BE","name":"Bern / Berne"},"status":"Real"},{"key":"10082294","name":"Schlucht","postalCode":"3614","locality":"Unterlangenegg","commune":{"key":"945","name":"Unterlangenegg","shortName":"Unterlangenegg"},"district":{"key":"247","name":"Verwaltungskreis Thun"},"canton":{"key":"2","code":"BE","name":"Bern / Berne"},"status":"Real"},{"key":"10014302","name":"Schnutz","postalCode":"3614","locality":"Unterlangenegg","commune":{"key":"945","name":"Unterlangenegg","shortName":"Unterlangenegg"},"district":{"key":"247","name":"Verwaltungskreis Thun"},"canton":{"key":"2","code":"BE","name":"Bern / Berne"},"status":"Real"},{"key":"10014303","name":"Stotzreuti","postalCode":"3614","locality":"Unterlangenegg","commune":{"key":"945","name":"Unterlangenegg","shortName":"Unterlangenegg"},"district":{"key":"247","name":"Verwaltungskreis Thun"},"canton":{"key":"2","code":"BE","name":"Bern / Berne"},"status":"Real"},{"key":"10108387","name":"Tanzboden","postalCode":"3614","locality":"Unterlangenegg","commune":{"key":"945","name":"Unterlangenegg","shortName":"Unterlangenegg"},"district":{"key":"247","name":"Verwaltungskreis Thun"},"canton":{"key":"2","code":"BE","name":"Bern / Berne"},"status":"Real"},{"key":"10014304","name":"Trübenbach","postalCode":"3614","locality":"Unterlangenegg","commune":{"key":"945","name":"Unterlangenegg","shortName":"Unterlangenegg"},"district":{"key":"247","name":"Verwaltungskreis Thun"},"canton":{"key":"2","code":"BE","name":"Bern / Berne"},"status":"Real"},{"key":"10014305","name":"Weggut","postalCode":"3614","locality":"Unterlangenegg","commune":{"key":"945","name":"Unterlangenegg","shortName":"Unterlangenegg"},"district":{"key":"247","name":"Verwaltungskreis Thun"},"canton":{"key":"2","code":"BE","name":"Bern / Berne"},"status":"Real"},{"key":"10059904","name":"Weid","postalCode":"3614","locality":"Unterlangenegg","commune":{"key":"945","name":"Unterlangenegg","shortName":"Unterlangenegg"},"district":{"key":"247","name":"Verwaltungskreis Thun"},"canton":{"key":"2","code":"BE","name":"Bern / Berne"},"status":"Real"},{"key":"10062039","name":"Winkel","postalCode":"3614","locality":"Unterlangenegg","commune":{"key":"945","name":"Unterlangenegg","shortName":"Unterlangenegg"},"district":{"key":"247","name":"Verwaltungskreis Thun"},"canton":{"key":"2","code":"BE","name":"Bern / Berne"},"status":"Real"},{"key":"10108704","name":"Zihl","postalCode":"3614","locality":"Unterlangenegg","commune":{"key":"945","name":"Unterlangenegg","shortName":"Unterlangenegg"},"district":{"key":"247","name":"Verwaltungskreis Thun"},"canton":{"key":"2","code":"BE","name":"Bern / Berne"},"status":"Real"},{"key":"10014306","name":"Zulghalten","postalCode":"3614","locality":"Unterlangenegg","commune":{"key":"945","name":"Unterlangenegg","shortName":"Unterlangenegg"},"district":{"key":"247","name":"Verwaltungskreis Thun"},"canton":{"key":"2","code":"BE","name":"Bern / Berne"},"status":"Real"},{"key":"10178965","name":"Zulgport","postalCode":"3614","locality":"Unterlangenegg","commune":{"key":"945","name":"Unterlangenegg","shortName":"Unterlangenegg"},"district":{"key":"247","name":"Verwaltungskreis Thun"},"canton":{"key":"2","code":"BE","name":"Bern / Berne"},"status":"Real"},]