[{"name":"Adalbert-Stifter-Str.","postalCode":"71711","locality":"Steinheim an der Murr","municipality":{"key":"08118070","name":"Steinheim an der Murr, Stadt","type":"Stadt"},"district":{"key":"08118","name":"Ludwigsburg","type":"Landkreis"},"federalState":{"key":"08","name":"Baden-Württemberg"}},{"name":"Adlerstr.","postalCode":"89555","locality":"Steinheim am Albuch","municipality":{"key":"08135032","name":"Steinheim am Albuch","type":"Kreisangehörige_Gemeinde"},"district":{"key":"08135","name":"Heidenheim","type":"Landkreis"},"federalState":{"key":"08","name":"Baden-Württemberg"}},{"name":"Adolf-Wilhelm-Nefflen-Weg","postalCode":"71711","locality":"Steinheim an der Murr","municipality":{"key":"08118070","name":"Steinheim an der Murr, Stadt","type":"Stadt"},"district":{"key":"08118","name":"Ludwigsburg","type":"Landkreis"},"federalState":{"key":"08","name":"Baden-Württemberg"}},{"name":"Agnes-Miegel-Weg","postalCode":"32839","locality":"Steinheim","municipality":{"key":"05762032","name":"Steinheim, Stadt","type":"Stadt"},"district":{"key":"05762","name":"Höxter","type":"Kreis"},"federalState":{"key":"05","name":"Nordrhein-Westfalen"}},{"name":"Ahornweg","postalCode":"32839","locality":"Steinheim","municipality":{"key":"05762032","name":"Steinheim, Stadt","type":"Stadt"},"district":{"key":"05762","name":"Höxter","type":"Kreis"},"federalState":{"key":"05","name":"Nordrhein-Westfalen"}},{"name":"Albertstr.","postalCode":"71711","locality":"Steinheim an der Murr","municipality":{"key":"08118070","name":"Steinheim an der Murr, Stadt","type":"Stadt"},"district":{"key":"08118","name":"Ludwigsburg","type":"Landkreis"},"federalState":{"key":"08","name":"Baden-Württemberg"}},{"name":"Albuchstr.","postalCode":"89555","locality":"Steinheim am Albuch","municipality":{"key":"08135032","name":"Steinheim am Albuch","type":"Kreisangehörige_Gemeinde"},"district":{"key":"08135","name":"Heidenheim","type":"Landkreis"},"federalState":{"key":"08","name":"Baden-Württemberg"}},{"name":"Alemannenweg","postalCode":"89555","locality":"Steinheim am Albuch","municipality":{"key":"08135032","name":"Steinheim am Albuch","type":"Kreisangehörige_Gemeinde"},"district":{"key":"08135","name":"Heidenheim","type":"Landkreis"},"federalState":{"key":"08","name":"Baden-Württemberg"}},{"name":"Alfred-Ulrich-Str.","postalCode":"71711","locality":"Steinheim an der Murr","municipality":{"key":"08118070","name":"Steinheim an der Murr, Stadt","type":"Stadt"},"district":{"key":"08118","name":"Ludwigsburg","type":"Landkreis"},"federalState":{"key":"08","name":"Baden-Württemberg"}},{"name":"Alte Friedhofstr.","postalCode":"32839","locality":"Steinheim","municipality":{"key":"05762032","name":"Steinheim, Stadt","type":"Stadt"},"district":{"key":"05762","name":"Höxter","type":"Kreis"},"federalState":{"key":"05","name":"Nordrhein-Westfalen"}},{"name":"Alte Gärtnerei","postalCode":"32839","locality":"Steinheim","municipality":{"key":"05762032","name":"Steinheim, Stadt","type":"Stadt"},"district":{"key":"05762","name":"Höxter","type":"Kreis"},"federalState":{"key":"05","name":"Nordrhein-Westfalen"}},{"name":"Alte Gerstetter Str.","postalCode":"89555","locality":"Steinheim am Albuch","municipality":{"key":"08135032","name":"Steinheim am Albuch","type":"Kreisangehörige_Gemeinde"},"district":{"key":"08135","name":"Heidenheim","type":"Landkreis"},"federalState":{"key":"08","name":"Baden-Württemberg"}},{"name":"Alte Kleinbottwarer Str.","postalCode":"71711","locality":"Steinheim an der Murr","municipality":{"key":"08118070","name":"Steinheim an der Murr, Stadt","type":"Stadt"},"district":{"key":"08118","name":"Ludwigsburg","type":"Landkreis"},"federalState":{"key":"08","name":"Baden-Württemberg"}},{"name":"Altenbekener Weg","postalCode":"32839","locality":"Steinheim","municipality":{"key":"05762032","name":"Steinheim, Stadt","type":"Stadt"},"district":{"key":"05762","name":"Höxter","type":"Kreis"},"federalState":{"key":"05","name":"Nordrhein-Westfalen"}},{"name":"Alte Nieheimer Str.","postalCode":"32839","locality":"Steinheim","municipality":{"key":"05762032","name":"Steinheim, Stadt","type":"Stadt"},"district":{"key":"05762","name":"Höxter","type":"Kreis"},"federalState":{"key":"05","name":"Nordrhein-Westfalen"}},{"name":"Am Anger","postalCode":"32839","locality":"Steinheim","municipality":{"key":"05762032","name":"Steinheim, Stadt","type":"Stadt"},"district":{"key":"05762","name":"Höxter","type":"Kreis"},"federalState":{"key":"05","name":"Nordrhein-Westfalen"}},{"name":"Am Bahndamm","postalCode":"32839","locality":"Steinheim","municipality":{"key":"05762032","name":"Steinheim, Stadt","type":"Stadt"},"district":{"key":"05762","name":"Höxter","type":"Kreis"},"federalState":{"key":"05","name":"Nordrhein-Westfalen"}},{"name":"Am Blumengraben","postalCode":"32839","locality":"Steinheim","municipality":{"key":"05762032","name":"Steinheim, Stadt","type":"Stadt"},"district":{"key":"05762","name":"Höxter","type":"Kreis"},"federalState":{"key":"05","name":"Nordrhein-Westfalen"}},{"name":"Am Bogen","postalCode":"32839","locality":"Steinheim","municipality":{"key":"05762032","name":"Steinheim, Stadt","type":"Stadt"},"district":{"key":"05762","name":"Höxter","type":"Kreis"},"federalState":{"key":"05","name":"Nordrhein-Westfalen"}},{"name":"Am Brook","postalCode":"32839","locality":"Steinheim","municipality":{"key":"05762032","name":"Steinheim, Stadt","type":"Stadt"},"district":{"key":"05762","name":"Höxter","type":"Kreis"},"federalState":{"key":"05","name":"Nordrhein-Westfalen"}},{"name":"Am Flemming","postalCode":"32839","locality":"Steinheim","municipality":{"key":"05762032","name":"Steinheim, Stadt","type":"Stadt"},"district":{"key":"05762","name":"Höxter","type":"Kreis"},"federalState":{"key":"05","name":"Nordrhein-Westfalen"}},{"name":"Am Friedhof","postalCode":"32839","locality":"Steinheim","municipality":{"key":"05762032","name":"Steinheim, Stadt","type":"Stadt"},"district":{"key":"05762","name":"Höxter","type":"Kreis"},"federalState":{"key":"05","name":"Nordrhein-Westfalen"}},{"name":"Am Güterbahnhof","postalCode":"32839","locality":"Steinheim","municipality":{"key":"05762032","name":"Steinheim, Stadt","type":"Stadt"},"district":{"key":"05762","name":"Höxter","type":"Kreis"},"federalState":{"key":"05","name":"Nordrhein-Westfalen"}},{"name":"Am Hanekenberg","postalCode":"32839","locality":"Steinheim","municipality":{"key":"05762032","name":"Steinheim, Stadt","type":"Stadt"},"district":{"key":"05762","name":"Höxter","type":"Kreis"},"federalState":{"key":"05","name":"Nordrhein-Westfalen"}},{"name":"Am Heidhof","postalCode":"32839","locality":"Steinheim","municipality":{"key":"05762032","name":"Steinheim, Stadt","type":"Stadt"},"district":{"key":"05762","name":"Höxter","type":"Kreis"},"federalState":{"key":"05","name":"Nordrhein-Westfalen"}},{"name":"Am Hohen Stein","postalCode":"32839","locality":"Steinheim","municipality":{"key":"05762032","name":"Steinheim, Stadt","type":"Stadt"},"district":{"key":"05762","name":"Höxter","type":"Kreis"},"federalState":{"key":"05","name":"Nordrhein-Westfalen"}},{"name":"Am Keilberg","postalCode":"32839","locality":"Steinheim","municipality":{"key":"05762032","name":"Steinheim, Stadt","type":"Stadt"},"district":{"key":"05762","name":"Höxter","type":"Kreis"},"federalState":{"key":"05","name":"Nordrhein-Westfalen"}},{"name":"Am Kösterberg","postalCode":"32839","locality":"Steinheim","municipality":{"key":"05762032","name":"Steinheim, Stadt","type":"Stadt"},"district":{"key":"05762","name":"Höxter","type":"Kreis"},"federalState":{"key":"05","name":"Nordrhein-Westfalen"}},{"name":"Am Kuhkamp","postalCode":"32839","locality":"Steinheim","municipality":{"key":"05762032","name":"Steinheim, Stadt","type":"Stadt"},"district":{"key":"05762","name":"Höxter","type":"Kreis"},"federalState":{"key":"05","name":"Nordrhein-Westfalen"}},{"name":"Am Melkeweg","postalCode":"32839","locality":"Steinheim","municipality":{"key":"05762032","name":"Steinheim, Stadt","type":"Stadt"},"district":{"key":"05762","name":"Höxter","type":"Kreis"},"federalState":{"key":"05","name":"Nordrhein-Westfalen"}},{"name":"Ammonitenweg","postalCode":"89555","locality":"Steinheim am Albuch","municipality":{"key":"08135032","name":"Steinheim am Albuch","type":"Kreisangehörige_Gemeinde"},"district":{"key":"08135","name":"Heidenheim","type":"Landkreis"},"federalState":{"key":"08","name":"Baden-Württemberg"}},{"name":"Am Mühlenbach","postalCode":"32839","locality":"Steinheim","municipality":{"key":"05762032","name":"Steinheim, Stadt","type":"Stadt"},"district":{"key":"05762","name":"Höxter","type":"Kreis"},"federalState":{"key":"05","name":"Nordrhein-Westfalen"}},{"name":"Am Mühlenkamp","postalCode":"32839","locality":"Steinheim","municipality":{"key":"05762032","name":"Steinheim, Stadt","type":"Stadt"},"district":{"key":"05762","name":"Höxter","type":"Kreis"},"federalState":{"key":"05","name":"Nordrhein-Westfalen"}},{"name":"Am Oppersiek","postalCode":"32839","locality":"Steinheim","municipality":{"key":"05762032","name":"Steinheim, Stadt","type":"Stadt"},"district":{"key":"05762","name":"Höxter","type":"Kreis"},"federalState":{"key":"05","name":"Nordrhein-Westfalen"}},{"name":"Am Piepenbrink","postalCode":"32839","locality":"Steinheim","municipality":{"key":"05762032","name":"Steinheim, Stadt","type":"Stadt"},"district":{"key":"05762","name":"Höxter","type":"Kreis"},"federalState":{"key":"05","name":"Nordrhein-Westfalen"}},{"name":"Am Schleifrain","postalCode":"71711","locality":"Steinheim an der Murr","municipality":{"key":"08118070","name":"Steinheim an der Murr, Stadt","type":"Stadt"},"district":{"key":"08118","name":"Ludwigsburg","type":"Landkreis"},"federalState":{"key":"08","name":"Baden-Württemberg"}},{"name":"Am Schorrberg","postalCode":"32839","locality":"Steinheim","municipality":{"key":"05762032","name":"Steinheim, Stadt","type":"Stadt"},"district":{"key":"05762","name":"Höxter","type":"Kreis"},"federalState":{"key":"05","name":"Nordrhein-Westfalen"}},{"name":"Am Schwandberg","postalCode":"32839","locality":"Steinheim","municipality":{"key":"05762032","name":"Steinheim, Stadt","type":"Stadt"},"district":{"key":"05762","name":"Höxter","type":"Kreis"},"federalState":{"key":"05","name":"Nordrhein-Westfalen"}},{"name":"Am Schwibbogen","postalCode":"32839","locality":"Steinheim","municipality":{"key":"05762032","name":"Steinheim, Stadt","type":"Stadt"},"district":{"key":"05762","name":"Höxter","type":"Kreis"},"federalState":{"key":"05","name":"Nordrhein-Westfalen"}},{"name":"Amselweg","postalCode":"32839","locality":"Steinheim","municipality":{"key":"05762032","name":"Steinheim, Stadt","type":"Stadt"},"district":{"key":"05762","name":"Höxter","type":"Kreis"},"federalState":{"key":"05","name":"Nordrhein-Westfalen"}},{"name":"Amselweg","postalCode":"71711","locality":"Steinheim an der Murr","municipality":{"key":"08118070","name":"Steinheim an der Murr, Stadt","type":"Stadt"},"district":{"key":"08118","name":"Ludwigsburg","type":"Landkreis"},"federalState":{"key":"08","name":"Baden-Württemberg"}},{"name":"Am Siek","postalCode":"32839","locality":"Steinheim","municipality":{"key":"05762032","name":"Steinheim, Stadt","type":"Stadt"},"district":{"key":"05762","name":"Höxter","type":"Kreis"},"federalState":{"key":"05","name":"Nordrhein-Westfalen"}},{"name":"Am Silberberg","postalCode":"32839","locality":"Steinheim","municipality":{"key":"05762032","name":"Steinheim, Stadt","type":"Stadt"},"district":{"key":"05762","name":"Höxter","type":"Kreis"},"federalState":{"key":"05","name":"Nordrhein-Westfalen"}},{"name":"Am Sportplatz","postalCode":"32839","locality":"Steinheim","municipality":{"key":"05762032","name":"Steinheim, Stadt","type":"Stadt"},"district":{"key":"05762","name":"Höxter","type":"Kreis"},"federalState":{"key":"05","name":"Nordrhein-Westfalen"}},{"name":"Am Stellweg","postalCode":"32839","locality":"Steinheim","municipality":{"key":"05762032","name":"Steinheim, Stadt","type":"Stadt"},"district":{"key":"05762","name":"Höxter","type":"Kreis"},"federalState":{"key":"05","name":"Nordrhein-Westfalen"}},{"name":"Am Treppchen","postalCode":"32839","locality":"Steinheim","municipality":{"key":"05762032","name":"Steinheim, Stadt","type":"Stadt"},"district":{"key":"05762","name":"Höxter","type":"Kreis"},"federalState":{"key":"05","name":"Nordrhein-Westfalen"}},{"name":"Amtsstr.","postalCode":"71711","locality":"Steinheim an der Murr","municipality":{"key":"08118070","name":"Steinheim an der Murr, Stadt","type":"Stadt"},"district":{"key":"08118","name":"Ludwigsburg","type":"Landkreis"},"federalState":{"key":"08","name":"Baden-Württemberg"}},{"name":"Am Vosskamp","postalCode":"32839","locality":"Steinheim","municipality":{"key":"05762032","name":"Steinheim, Stadt","type":"Stadt"},"district":{"key":"05762","name":"Höxter","type":"Kreis"},"federalState":{"key":"05","name":"Nordrhein-Westfalen"}},{"name":"Am Wellenholz","postalCode":"32839","locality":"Steinheim","municipality":{"key":"05762032","name":"Steinheim, Stadt","type":"Stadt"},"district":{"key":"05762","name":"Höxter","type":"Kreis"},"federalState":{"key":"05","name":"Nordrhein-Westfalen"}},{"name":"Am Ziegenberg","postalCode":"32839","locality":"Steinheim","municipality":{"key":"05762032","name":"Steinheim, Stadt","type":"Stadt"},"district":{"key":"05762","name":"Höxter","type":"Kreis"},"federalState":{"key":"05","name":"Nordrhein-Westfalen"}},{"name":"Bachstr.","postalCode":"32839","locality":"Steinheim","municipality":{"key":"05762032","name":"Steinheim, Stadt","type":"Stadt"},"district":{"key":"05762","name":"Höxter","type":"Kreis"},"federalState":{"key":"05","name":"Nordrhein-Westfalen"}},{"name":"Bachstr.","postalCode":"89555","locality":"Steinheim am Albuch","municipality":{"key":"08135032","name":"Steinheim am Albuch","type":"Kreisangehörige_Gemeinde"},"district":{"key":"08135","name":"Heidenheim","type":"Landkreis"},"federalState":{"key":"08","name":"Baden-Württemberg"}},{"name":"Backhausstr.","postalCode":"71711","locality":"Steinheim an der Murr","municipality":{"key":"08118070","name":"Steinheim an der Murr, Stadt","type":"Stadt"},"district":{"key":"08118","name":"Ludwigsburg","type":"Landkreis"},"federalState":{"key":"08","name":"Baden-Württemberg"}},{"name":"Badgässle","postalCode":"71711","locality":"Steinheim an der Murr","municipality":{"key":"08118070","name":"Steinheim an der Murr, Stadt","type":"Stadt"},"district":{"key":"08118","name":"Ludwigsburg","type":"Landkreis"},"federalState":{"key":"08","name":"Baden-Württemberg"}},{"name":"Badtorstr.","postalCode":"71711","locality":"Steinheim an der Murr","municipality":{"key":"08118070","name":"Steinheim an der Murr, Stadt","type":"Stadt"},"district":{"key":"08118","name":"Ludwigsburg","type":"Landkreis"},"federalState":{"key":"08","name":"Baden-Württemberg"}},{"name":"Bahnhofsallee","postalCode":"32839","locality":"Steinheim","municipality":{"key":"05762032","name":"Steinheim, Stadt","type":"Stadt"},"district":{"key":"05762","name":"Höxter","type":"Kreis"},"federalState":{"key":"05","name":"Nordrhein-Westfalen"}},{"name":"Bahnhofstr.","postalCode":"32839","locality":"Steinheim","municipality":{"key":"05762032","name":"Steinheim, Stadt","type":"Stadt"},"district":{"key":"05762","name":"Höxter","type":"Kreis"},"federalState":{"key":"05","name":"Nordrhein-Westfalen"}},{"name":"Bahnhofstr.","postalCode":"71711","locality":"Steinheim an der Murr","municipality":{"key":"08118070","name":"Steinheim an der Murr, Stadt","type":"Stadt"},"district":{"key":"08118","name":"Ludwigsburg","type":"Landkreis"},"federalState":{"key":"08","name":"Baden-Württemberg"}},{"name":"Bahnweg","postalCode":"71711","locality":"Steinheim an der Murr","municipality":{"key":"08118070","name":"Steinheim an der Murr, Stadt","type":"Stadt"},"district":{"key":"08118","name":"Ludwigsburg","type":"Landkreis"},"federalState":{"key":"08","name":"Baden-Württemberg"}},{"name":"Banwangweg","postalCode":"73566","locality":"Steinheim am Albuch","municipality":{"key":"08135032","name":"Steinheim am Albuch","type":"Kreisangehörige_Gemeinde"},"district":{"key":"08135","name":"Heidenheim","type":"Landkreis"},"federalState":{"key":"08","name":"Baden-Württemberg"}},{"name":"Barbenweg","postalCode":"71711","locality":"Steinheim an der Murr","municipality":{"key":"08118070","name":"Steinheim an der Murr, Stadt","type":"Stadt"},"district":{"key":"08118","name":"Ludwigsburg","type":"Landkreis"},"federalState":{"key":"08","name":"Baden-Württemberg"}},{"name":"Bärenschwangweg","postalCode":"89555","locality":"Steinheim am Albuch","municipality":{"key":"08135032","name":"Steinheim am Albuch","type":"Kreisangehörige_Gemeinde"},"district":{"key":"08135","name":"Heidenheim","type":"Landkreis"},"federalState":{"key":"08","name":"Baden-Württemberg"}},{"name":"Bärlauchweg","postalCode":"32839","locality":"Steinheim","municipality":{"key":"05762032","name":"Steinheim, Stadt","type":"Stadt"},"district":{"key":"05762","name":"Höxter","type":"Kreis"},"federalState":{"key":"05","name":"Nordrhein-Westfalen"}},{"name":"Bartholomäer Str.","postalCode":"89555","locality":"Steinheim am Albuch","municipality":{"key":"08135032","name":"Steinheim am Albuch","type":"Kreisangehörige_Gemeinde"},"district":{"key":"08135","name":"Heidenheim","type":"Landkreis"},"federalState":{"key":"08","name":"Baden-Württemberg"}},{"name":"Bartholomäerweg","postalCode":"73566","locality":"Steinheim am Albuch","municipality":{"key":"08135032","name":"Steinheim am Albuch","type":"Kreisangehörige_Gemeinde"},"district":{"key":"08135","name":"Heidenheim","type":"Landkreis"},"federalState":{"key":"08","name":"Baden-Württemberg"}},{"name":"Beethovenstr.","postalCode":"32839","locality":"Steinheim","municipality":{"key":"05762032","name":"Steinheim, Stadt","type":"Stadt"},"district":{"key":"05762","name":"Höxter","type":"Kreis"},"federalState":{"key":"05","name":"Nordrhein-Westfalen"}},{"name":"Beethovenstr.","postalCode":"71711","locality":"Steinheim an der Murr","municipality":{"key":"08118070","name":"Steinheim an der Murr, Stadt","type":"Stadt"},"district":{"key":"08118","name":"Ludwigsburg","type":"Landkreis"},"federalState":{"key":"08","name":"Baden-Württemberg"}},{"name":"Beethovenstr.","postalCode":"89555","locality":"Steinheim am Albuch","municipality":{"key":"08135032","name":"Steinheim am Albuch","type":"Kreisangehörige_Gemeinde"},"district":{"key":"08135","name":"Heidenheim","type":"Landkreis"},"federalState":{"key":"08","name":"Baden-Württemberg"}},{"name":"Beim Staumberge","postalCode":"32839","locality":"Steinheim","municipality":{"key":"05762032","name":"Steinheim, Stadt","type":"Stadt"},"district":{"key":"05762","name":"Höxter","type":"Kreis"},"federalState":{"key":"05","name":"Nordrhein-Westfalen"}},{"name":"Beinegärten","postalCode":"32839","locality":"Steinheim","municipality":{"key":"05762032","name":"Steinheim, Stadt","type":"Stadt"},"district":{"key":"05762","name":"Höxter","type":"Kreis"},"federalState":{"key":"05","name":"Nordrhein-Westfalen"}},{"name":"Belemnitenweg","postalCode":"89555","locality":"Steinheim am Albuch","municipality":{"key":"08135032","name":"Steinheim am Albuch","type":"Kreisangehörige_Gemeinde"},"district":{"key":"08135","name":"Heidenheim","type":"Landkreis"},"federalState":{"key":"08","name":"Baden-Württemberg"}},{"name":"Bellenberger Str.","postalCode":"32839","locality":"Steinheim","municipality":{"key":"05762032","name":"Steinheim, Stadt","type":"Stadt"},"district":{"key":"05762","name":"Höxter","type":"Kreis"},"federalState":{"key":"05","name":"Nordrhein-Westfalen"}},{"name":"Beller Str.","postalCode":"32839","locality":"Steinheim","municipality":{"key":"05762032","name":"Steinheim, Stadt","type":"Stadt"},"district":{"key":"05762","name":"Höxter","type":"Kreis"},"federalState":{"key":"05","name":"Nordrhein-Westfalen"}},{"name":"Benzstr.","postalCode":"71711","locality":"Steinheim an der Murr","municipality":{"key":"08118070","name":"Steinheim an der Murr, Stadt","type":"Stadt"},"district":{"key":"08118","name":"Ludwigsburg","type":"Landkreis"},"federalState":{"key":"08","name":"Baden-Württemberg"}},{"name":"Bergesgrund","postalCode":"32839","locality":"Steinheim","municipality":{"key":"05762032","name":"Steinheim, Stadt","type":"Stadt"},"district":{"key":"05762","name":"Höxter","type":"Kreis"},"federalState":{"key":"05","name":"Nordrhein-Westfalen"}},{"name":"Bergheimer Str.","postalCode":"32839","locality":"Steinheim","municipality":{"key":"05762032","name":"Steinheim, Stadt","type":"Stadt"},"district":{"key":"05762","name":"Höxter","type":"Kreis"},"federalState":{"key":"05","name":"Nordrhein-Westfalen"}},{"name":"Berghöve","postalCode":"32839","locality":"Steinheim","municipality":{"key":"05762032","name":"Steinheim, Stadt","type":"Stadt"},"district":{"key":"05762","name":"Höxter","type":"Kreis"},"federalState":{"key":"05","name":"Nordrhein-Westfalen"}},{"name":"Bergkampsweg","postalCode":"32839","locality":"Steinheim","municipality":{"key":"05762032","name":"Steinheim, Stadt","type":"Stadt"},"district":{"key":"05762","name":"Höxter","type":"Kreis"},"federalState":{"key":"05","name":"Nordrhein-Westfalen"}},{"name":"Bergstr.","postalCode":"32839","locality":"Steinheim","municipality":{"key":"05762032","name":"Steinheim, Stadt","type":"Stadt"},"district":{"key":"05762","name":"Höxter","type":"Kreis"},"federalState":{"key":"05","name":"Nordrhein-Westfalen"}},{"name":"Bergstr.","postalCode":"71711","locality":"Steinheim an der Murr","municipality":{"key":"08118070","name":"Steinheim an der Murr, Stadt","type":"Stadt"},"district":{"key":"08118","name":"Ludwigsburg","type":"Landkreis"},"federalState":{"key":"08","name":"Baden-Württemberg"}},{"name":"Bergstr.","postalCode":"89555","locality":"Steinheim am Albuch","municipality":{"key":"08135032","name":"Steinheim am Albuch","type":"Kreisangehörige_Gemeinde"},"district":{"key":"08135","name":"Heidenheim","type":"Landkreis"},"federalState":{"key":"08","name":"Baden-Württemberg"}},{"name":"Berliner Str.","postalCode":"89555","locality":"Steinheim am Albuch","municipality":{"key":"08135032","name":"Steinheim am Albuch","type":"Kreisangehörige_Gemeinde"},"district":{"key":"08135","name":"Heidenheim","type":"Landkreis"},"federalState":{"key":"08","name":"Baden-Württemberg"}},{"name":"Bienenweg","postalCode":"89555","locality":"Steinheim am Albuch","municipality":{"key":"08135032","name":"Steinheim am Albuch","type":"Kreisangehörige_Gemeinde"},"district":{"key":"08135","name":"Heidenheim","type":"Landkreis"},"federalState":{"key":"08","name":"Baden-Württemberg"}},{"name":"Biesterfeldweg","postalCode":"32839","locality":"Steinheim","municipality":{"key":"05762032","name":"Steinheim, Stadt","type":"Stadt"},"district":{"key":"05762","name":"Höxter","type":"Kreis"},"federalState":{"key":"05","name":"Nordrhein-Westfalen"}},{"name":"Billerbecker Str.","postalCode":"32839","locality":"Steinheim","municipality":{"key":"05762032","name":"Steinheim, Stadt","type":"Stadt"},"district":{"key":"05762","name":"Höxter","type":"Kreis"},"federalState":{"key":"05","name":"Nordrhein-Westfalen"}},{"name":"Binsenweg","postalCode":"71711","locality":"Steinheim an der Murr","municipality":{"key":"08118070","name":"Steinheim an der Murr, Stadt","type":"Stadt"},"district":{"key":"08118","name":"Ludwigsburg","type":"Landkreis"},"federalState":{"key":"08","name":"Baden-Württemberg"}},{"name":"Binsenwiesenstr.","postalCode":"71711","locality":"Steinheim an der Murr","municipality":{"key":"08118070","name":"Steinheim an der Murr, Stadt","type":"Stadt"},"district":{"key":"08118","name":"Ludwigsburg","type":"Landkreis"},"federalState":{"key":"08","name":"Baden-Württemberg"}},{"name":"Birkelweg","postalCode":"89555","locality":"Steinheim am Albuch","municipality":{"key":"08135032","name":"Steinheim am Albuch","type":"Kreisangehörige_Gemeinde"},"district":{"key":"08135","name":"Heidenheim","type":"Landkreis"},"federalState":{"key":"08","name":"Baden-Württemberg"}},{"name":"Birkenhoferstr.","postalCode":"71711","locality":"Steinheim an der Murr","municipality":{"key":"08118070","name":"Steinheim an der Murr, Stadt","type":"Stadt"},"district":{"key":"08118","name":"Ludwigsburg","type":"Landkreis"},"federalState":{"key":"08","name":"Baden-Württemberg"}},{"name":"Birkenweg","postalCode":"32839","locality":"Steinheim","municipality":{"key":"05762032","name":"Steinheim, Stadt","type":"Stadt"},"district":{"key":"05762","name":"Höxter","type":"Kreis"},"federalState":{"key":"05","name":"Nordrhein-Westfalen"}},{"name":"Birkenweg","postalCode":"89555","locality":"Steinheim am Albuch","municipality":{"key":"08135032","name":"Steinheim am Albuch","type":"Kreisangehörige_Gemeinde"},"district":{"key":"08135","name":"Heidenheim","type":"Landkreis"},"federalState":{"key":"08","name":"Baden-Württemberg"}},{"name":"Bisamstr.","postalCode":"71711","locality":"Steinheim an der Murr","municipality":{"key":"08118070","name":"Steinheim an der Murr, Stadt","type":"Stadt"},"district":{"key":"08118","name":"Ludwigsburg","type":"Landkreis"},"federalState":{"key":"08","name":"Baden-Württemberg"}},{"name":"Bischofstr.","postalCode":"32839","locality":"Steinheim","municipality":{"key":"05762032","name":"Steinheim, Stadt","type":"Stadt"},"district":{"key":"05762","name":"Höxter","type":"Kreis"},"federalState":{"key":"05","name":"Nordrhein-Westfalen"}},{"name":"Blankensteinstr.","postalCode":"71711","locality":"Steinheim an der Murr","municipality":{"key":"08118070","name":"Steinheim an der Murr, Stadt","type":"Stadt"},"district":{"key":"08118","name":"Ludwigsburg","type":"Landkreis"},"federalState":{"key":"08","name":"Baden-Württemberg"}},{"name":"Blaue Pfütze","postalCode":"71711","locality":"Steinheim an der Murr","municipality":{"key":"08118070","name":"Steinheim an der Murr, Stadt","type":"Stadt"},"district":{"key":"08118","name":"Ludwigsburg","type":"Landkreis"},"federalState":{"key":"08","name":"Baden-Württemberg"}},{"name":"Blumenstr.","postalCode":"32839","locality":"Steinheim","municipality":{"key":"05762032","name":"Steinheim, Stadt","type":"Stadt"},"district":{"key":"05762","name":"Höxter","type":"Kreis"},"federalState":{"key":"05","name":"Nordrhein-Westfalen"}},{"name":"Blumenstr.","postalCode":"71711","locality":"Steinheim an der Murr","municipality":{"key":"08118070","name":"Steinheim an der Murr, Stadt","type":"Stadt"},"district":{"key":"08118","name":"Ludwigsburg","type":"Landkreis"},"federalState":{"key":"08","name":"Baden-Württemberg"}},{"name":"Blumenstr.","postalCode":"89555","locality":"Steinheim am Albuch","municipality":{"key":"08135032","name":"Steinheim am Albuch","type":"Kreisangehörige_Gemeinde"},"district":{"key":"08135","name":"Heidenheim","type":"Landkreis"},"federalState":{"key":"08","name":"Baden-Württemberg"}},{"name":"Blümlesbronnensträßchen","postalCode":"89555","locality":"Steinheim am Albuch","municipality":{"key":"08135032","name":"Steinheim am Albuch","type":"Kreisangehörige_Gemeinde"},"district":{"key":"08135","name":"Heidenheim","type":"Landkreis"},"federalState":{"key":"08","name":"Baden-Württemberg"}},{"name":"Böhmenkircher Str.","postalCode":"89555","locality":"Steinheim am Albuch","municipality":{"key":"08135032","name":"Steinheim am Albuch","type":"Kreisangehörige_Gemeinde"},"district":{"key":"08135","name":"Heidenheim","type":"Landkreis"},"federalState":{"key":"08","name":"Baden-Württemberg"}},{"name":"Cheruskerstr.","postalCode":"32839","locality":"Steinheim","municipality":{"key":"05762032","name":"Steinheim, Stadt","type":"Stadt"},"district":{"key":"05762","name":"Höxter","type":"Kreis"},"federalState":{"key":"05","name":"Nordrhein-Westfalen"}},{"name":"Christian-Storz-Weg","postalCode":"71711","locality":"Steinheim an der Murr","municipality":{"key":"08118070","name":"Steinheim an der Murr, Stadt","type":"Stadt"},"district":{"key":"08118","name":"Ludwigsburg","type":"Landkreis"},"federalState":{"key":"08","name":"Baden-Württemberg"}},{"name":"Christofstr.","postalCode":"89555","locality":"Steinheim am Albuch","municipality":{"key":"08135032","name":"Steinheim am Albuch","type":"Kreisangehörige_Gemeinde"},"district":{"key":"08135","name":"Heidenheim","type":"Landkreis"},"federalState":{"key":"08","name":"Baden-Württemberg"}},{"name":"Christoph-Rohrer-Weg","postalCode":"71711","locality":"Steinheim an der Murr","municipality":{"key":"08118070","name":"Steinheim an der Murr, Stadt","type":"Stadt"},"district":{"key":"08118","name":"Ludwigsburg","type":"Landkreis"},"federalState":{"key":"08","name":"Baden-Württemberg"}},{"name":"Colombeller Weg","postalCode":"89555","locality":"Steinheim am Albuch","municipality":{"key":"08135032","name":"Steinheim am Albuch","type":"Kreisangehörige_Gemeinde"},"district":{"key":"08135","name":"Heidenheim","type":"Landkreis"},"federalState":{"key":"08","name":"Baden-Württemberg"}},{"name":"Dachsweg","postalCode":"89555","locality":"Steinheim am Albuch","municipality":{"key":"08135032","name":"Steinheim am Albuch","type":"Kreisangehörige_Gemeinde"},"district":{"key":"08135","name":"Heidenheim","type":"Landkreis"},"federalState":{"key":"08","name":"Baden-Württemberg"}},{"name":"Dahlienweg","postalCode":"89555","locality":"Steinheim am Albuch","municipality":{"key":"08135032","name":"Steinheim am Albuch","type":"Kreisangehörige_Gemeinde"},"district":{"key":"08135","name":"Heidenheim","type":"Landkreis"},"federalState":{"key":"08","name":"Baden-Württemberg"}},{"name":"Daimlerstr.","postalCode":"89555","locality":"Steinheim am Albuch","municipality":{"key":"08135032","name":"Steinheim am Albuch","type":"Kreisangehörige_Gemeinde"},"district":{"key":"08135","name":"Heidenheim","type":"Landkreis"},"federalState":{"key":"08","name":"Baden-Württemberg"}},{"name":"Danziger Str.","postalCode":"71711","locality":"Steinheim an der Murr","municipality":{"key":"08118070","name":"Steinheim an der Murr, Stadt","type":"Stadt"},"district":{"key":"08118","name":"Ludwigsburg","type":"Landkreis"},"federalState":{"key":"08","name":"Baden-Württemberg"}},{"name":"Depot-Ringstr.","postalCode":"89555","locality":"Steinheim am Albuch","municipality":{"key":"08135032","name":"Steinheim am Albuch","type":"Kreisangehörige_Gemeinde"},"district":{"key":"08135","name":"Heidenheim","type":"Landkreis"},"federalState":{"key":"08","name":"Baden-Württemberg"}},{"name":"Detmolder Str.","postalCode":"32839","locality":"Steinheim","municipality":{"key":"05762032","name":"Steinheim, Stadt","type":"Stadt"},"district":{"key":"05762","name":"Höxter","type":"Kreis"},"federalState":{"key":"05","name":"Nordrhein-Westfalen"}},{"name":"Dickhölzlesweg","postalCode":"89555","locality":"Steinheim am Albuch","municipality":{"key":"08135032","name":"Steinheim am Albuch","type":"Kreisangehörige_Gemeinde"},"district":{"key":"08135","name":"Heidenheim","type":"Landkreis"},"federalState":{"key":"08","name":"Baden-Württemberg"}},{"name":"Dietweg","postalCode":"89555","locality":"Steinheim am Albuch","municipality":{"key":"08135032","name":"Steinheim am Albuch","type":"Kreisangehörige_Gemeinde"},"district":{"key":"08135","name":"Heidenheim","type":"Landkreis"},"federalState":{"key":"08","name":"Baden-Württemberg"}},{"name":"Dionysiusstr.","postalCode":"32839","locality":"Steinheim","municipality":{"key":"05762032","name":"Steinheim, Stadt","type":"Stadt"},"district":{"key":"05762","name":"Höxter","type":"Kreis"},"federalState":{"key":"05","name":"Nordrhein-Westfalen"}},{"name":"Distelweg","postalCode":"89555","locality":"Steinheim am Albuch","municipality":{"key":"08135032","name":"Steinheim am Albuch","type":"Kreisangehörige_Gemeinde"},"district":{"key":"08135","name":"Heidenheim","type":"Landkreis"},"federalState":{"key":"08","name":"Baden-Württemberg"}},{"name":"Donauschwabenstr.","postalCode":"89555","locality":"Steinheim am Albuch","municipality":{"key":"08135032","name":"Steinheim am Albuch","type":"Kreisangehörige_Gemeinde"},"district":{"key":"08135","name":"Heidenheim","type":"Landkreis"},"federalState":{"key":"08","name":"Baden-Württemberg"}},{"name":"Dornhauweg","postalCode":"71711","locality":"Steinheim an der Murr","municipality":{"key":"08118070","name":"Steinheim an der Murr, Stadt","type":"Stadt"},"district":{"key":"08118","name":"Ludwigsburg","type":"Landkreis"},"federalState":{"key":"08","name":"Baden-Württemberg"}},{"name":"Dreizehnlindenweg","postalCode":"32839","locality":"Steinheim","municipality":{"key":"05762032","name":"Steinheim, Stadt","type":"Stadt"},"district":{"key":"05762","name":"Höxter","type":"Kreis"},"federalState":{"key":"05","name":"Nordrhein-Westfalen"}},{"name":"Driburger Str.","postalCode":"32839","locality":"Steinheim","municipality":{"key":"05762032","name":"Steinheim, Stadt","type":"Stadt"},"district":{"key":"05762","name":"Höxter","type":"Kreis"},"federalState":{"key":"05","name":"Nordrhein-Westfalen"}},{"name":"Echternberg","postalCode":"32839","locality":"Steinheim","municipality":{"key":"05762032","name":"Steinheim, Stadt","type":"Stadt"},"district":{"key":"05762","name":"Höxter","type":"Kreis"},"federalState":{"key":"05","name":"Nordrhein-Westfalen"}},{"name":"Eggering","postalCode":"32839","locality":"Steinheim","municipality":{"key":"05762032","name":"Steinheim, Stadt","type":"Stadt"},"district":{"key":"05762","name":"Höxter","type":"Kreis"},"federalState":{"key":"05","name":"Nordrhein-Westfalen"}},{"name":"Eggestr.","postalCode":"32839","locality":"Steinheim","municipality":{"key":"05762032","name":"Steinheim, Stadt","type":"Stadt"},"district":{"key":"05762","name":"Höxter","type":"Kreis"},"federalState":{"key":"05","name":"Nordrhein-Westfalen"}},{"name":"Eichburrensträßle","postalCode":"89555","locality":"Steinheim am Albuch","municipality":{"key":"08135032","name":"Steinheim am Albuch","type":"Kreisangehörige_Gemeinde"},"district":{"key":"08135","name":"Heidenheim","type":"Landkreis"},"federalState":{"key":"08","name":"Baden-Württemberg"}},{"name":"Eichendorffstr.","postalCode":"32839","locality":"Steinheim","municipality":{"key":"05762032","name":"Steinheim, Stadt","type":"Stadt"},"district":{"key":"05762","name":"Höxter","type":"Kreis"},"federalState":{"key":"05","name":"Nordrhein-Westfalen"}},{"name":"Eichenstr.","postalCode":"32839","locality":"Steinheim","municipality":{"key":"05762032","name":"Steinheim, Stadt","type":"Stadt"},"district":{"key":"05762","name":"Höxter","type":"Kreis"},"federalState":{"key":"05","name":"Nordrhein-Westfalen"}},{"name":"Eichenweg","postalCode":"89555","locality":"Steinheim am Albuch","municipality":{"key":"08135032","name":"Steinheim am Albuch","type":"Kreisangehörige_Gemeinde"},"district":{"key":"08135","name":"Heidenheim","type":"Landkreis"},"federalState":{"key":"08","name":"Baden-Württemberg"}},{"name":"Eichholzer Weg","postalCode":"32839","locality":"Steinheim","municipality":{"key":"05762032","name":"Steinheim, Stadt","type":"Stadt"},"district":{"key":"05762","name":"Höxter","type":"Kreis"},"federalState":{"key":"05","name":"Nordrhein-Westfalen"}},{"name":"Emmerstr.","postalCode":"32839","locality":"Steinheim","municipality":{"key":"05762032","name":"Steinheim, Stadt","type":"Stadt"},"district":{"key":"05762","name":"Höxter","type":"Kreis"},"federalState":{"key":"05","name":"Nordrhein-Westfalen"}},{"name":"Emmerweg","postalCode":"32839","locality":"Steinheim","municipality":{"key":"05762032","name":"Steinheim, Stadt","type":"Stadt"},"district":{"key":"05762","name":"Höxter","type":"Kreis"},"federalState":{"key":"05","name":"Nordrhein-Westfalen"}},{"name":"Endwiesenstr.","postalCode":"71711","locality":"Steinheim an der Murr","municipality":{"key":"08118070","name":"Steinheim an der Murr, Stadt","type":"Stadt"},"district":{"key":"08118","name":"Ludwigsburg","type":"Landkreis"},"federalState":{"key":"08","name":"Baden-Württemberg"}},{"name":"Enggaßsträßle","postalCode":"89555","locality":"Steinheim am Albuch","municipality":{"key":"08135032","name":"Steinheim am Albuch","type":"Kreisangehörige_Gemeinde"},"district":{"key":"08135","name":"Heidenheim","type":"Landkreis"},"federalState":{"key":"08","name":"Baden-Württemberg"}},{"name":"Entruper Weg","postalCode":"32839","locality":"Steinheim","municipality":{"key":"05762032","name":"Steinheim, Stadt","type":"Stadt"},"district":{"key":"05762","name":"Höxter","type":"Kreis"},"federalState":{"key":"05","name":"Nordrhein-Westfalen"}},{"name":"Erdbeerbühlweg","postalCode":"71711","locality":"Steinheim an der Murr","municipality":{"key":"08118070","name":"Steinheim an der Murr, Stadt","type":"Stadt"},"district":{"key":"08118","name":"Ludwigsburg","type":"Landkreis"},"federalState":{"key":"08","name":"Baden-Württemberg"}},{"name":"Erfurter Str.","postalCode":"89555","locality":"Steinheim am Albuch","municipality":{"key":"08135032","name":"Steinheim am Albuch","type":"Kreisangehörige_Gemeinde"},"district":{"key":"08135","name":"Heidenheim","type":"Landkreis"},"federalState":{"key":"08","name":"Baden-Württemberg"}},{"name":"Erlenstr.","postalCode":"89555","locality":"Steinheim am Albuch","municipality":{"key":"08135032","name":"Steinheim am Albuch","type":"Kreisangehörige_Gemeinde"},"district":{"key":"08135","name":"Heidenheim","type":"Landkreis"},"federalState":{"key":"08","name":"Baden-Württemberg"}},{"name":"Erlenweg","postalCode":"32839","locality":"Steinheim","municipality":{"key":"05762032","name":"Steinheim, Stadt","type":"Stadt"},"district":{"key":"05762","name":"Höxter","type":"Kreis"},"federalState":{"key":"05","name":"Nordrhein-Westfalen"}},{"name":"Erzgebirgsweg","postalCode":"89555","locality":"Steinheim am Albuch","municipality":{"key":"08135032","name":"Steinheim am Albuch","type":"Kreisangehörige_Gemeinde"},"district":{"key":"08135","name":"Heidenheim","type":"Landkreis"},"federalState":{"key":"08","name":"Baden-Württemberg"}},{"name":"Erzgrubensträßle","postalCode":"89555","locality":"Steinheim am Albuch","municipality":{"key":"08135032","name":"Steinheim am Albuch","type":"Kreisangehörige_Gemeinde"},"district":{"key":"08135","name":"Heidenheim","type":"Landkreis"},"federalState":{"key":"08","name":"Baden-Württemberg"}},{"name":"Eschenweg","postalCode":"89555","locality":"Steinheim am Albuch","municipality":{"key":"08135032","name":"Steinheim am Albuch","type":"Kreisangehörige_Gemeinde"},"district":{"key":"08135","name":"Heidenheim","type":"Landkreis"},"federalState":{"key":"08","name":"Baden-Württemberg"}},{"name":"Eversener Str.","postalCode":"32839","locality":"Steinheim","municipality":{"key":"05762032","name":"Steinheim, Stadt","type":"Stadt"},"district":{"key":"05762","name":"Höxter","type":"Kreis"},"federalState":{"key":"05","name":"Nordrhein-Westfalen"}},{"name":"Falkenstr.","postalCode":"89555","locality":"Steinheim am Albuch","municipality":{"key":"08135032","name":"Steinheim am Albuch","type":"Kreisangehörige_Gemeinde"},"district":{"key":"08135","name":"Heidenheim","type":"Landkreis"},"federalState":{"key":"08","name":"Baden-Württemberg"}},{"name":"Fasanenweg","postalCode":"89555","locality":"Steinheim am Albuch","municipality":{"key":"08135032","name":"Steinheim am Albuch","type":"Kreisangehörige_Gemeinde"},"district":{"key":"08135","name":"Heidenheim","type":"Landkreis"},"federalState":{"key":"08","name":"Baden-Württemberg"}},{"name":"Feldrain","postalCode":"89555","locality":"Steinheim am Albuch","municipality":{"key":"08135032","name":"Steinheim am Albuch","type":"Kreisangehörige_Gemeinde"},"district":{"key":"08135","name":"Heidenheim","type":"Landkreis"},"federalState":{"key":"08","name":"Baden-Württemberg"}},{"name":"Feldstr.","postalCode":"32839","locality":"Steinheim","municipality":{"key":"05762032","name":"Steinheim, Stadt","type":"Stadt"},"district":{"key":"05762","name":"Höxter","type":"Kreis"},"federalState":{"key":"05","name":"Nordrhein-Westfalen"}},{"name":"Felgenhofstich","postalCode":"89555","locality":"Steinheim am Albuch","municipality":{"key":"08135032","name":"Steinheim am Albuch","type":"Kreisangehörige_Gemeinde"},"district":{"key":"08135","name":"Heidenheim","type":"Landkreis"},"federalState":{"key":"08","name":"Baden-Württemberg"}},{"name":"Felgenhofstr.","postalCode":"89555","locality":"Steinheim am Albuch","municipality":{"key":"08135032","name":"Steinheim am Albuch","type":"Kreisangehörige_Gemeinde"},"district":{"key":"08135","name":"Heidenheim","type":"Landkreis"},"federalState":{"key":"08","name":"Baden-Württemberg"}},{"name":"Felsenweg","postalCode":"89555","locality":"Steinheim am Albuch","municipality":{"key":"08135032","name":"Steinheim am Albuch","type":"Kreisangehörige_Gemeinde"},"district":{"key":"08135","name":"Heidenheim","type":"Landkreis"},"federalState":{"key":"08","name":"Baden-Württemberg"}},{"name":"Fichtenstr.","postalCode":"71711","locality":"Steinheim an der Murr","municipality":{"key":"08118070","name":"Steinheim an der Murr, Stadt","type":"Stadt"},"district":{"key":"08118","name":"Ludwigsburg","type":"Landkreis"},"federalState":{"key":"08","name":"Baden-Württemberg"}},{"name":"Fichtenweg","postalCode":"89555","locality":"Steinheim am Albuch","municipality":{"key":"08135032","name":"Steinheim am Albuch","type":"Kreisangehörige_Gemeinde"},"district":{"key":"08135","name":"Heidenheim","type":"Landkreis"},"federalState":{"key":"08","name":"Baden-Württemberg"}},{"name":"Finkenbuschsträßle","postalCode":"89555","locality":"Steinheim am Albuch","municipality":{"key":"08135032","name":"Steinheim am Albuch","type":"Kreisangehörige_Gemeinde"},"district":{"key":"08135","name":"Heidenheim","type":"Landkreis"},"federalState":{"key":"08","name":"Baden-Württemberg"}},{"name":"Finkenstr.","postalCode":"32839","locality":"Steinheim","municipality":{"key":"05762032","name":"Steinheim, Stadt","type":"Stadt"},"district":{"key":"05762","name":"Höxter","type":"Kreis"},"federalState":{"key":"05","name":"Nordrhein-Westfalen"}},{"name":"Finkenweg","postalCode":"71711","locality":"Steinheim an der Murr","municipality":{"key":"08118070","name":"Steinheim an der Murr, Stadt","type":"Stadt"},"district":{"key":"08118","name":"Ludwigsburg","type":"Landkreis"},"federalState":{"key":"08","name":"Baden-Württemberg"}},{"name":"Fliederstr.","postalCode":"32839","locality":"Steinheim","municipality":{"key":"05762032","name":"Steinheim, Stadt","type":"Stadt"},"district":{"key":"05762","name":"Höxter","type":"Kreis"},"federalState":{"key":"05","name":"Nordrhein-Westfalen"}},{"name":"Fliederweg","postalCode":"89555","locality":"Steinheim am Albuch","municipality":{"key":"08135032","name":"Steinheim am Albuch","type":"Kreisangehörige_Gemeinde"},"district":{"key":"08135","name":"Heidenheim","type":"Landkreis"},"federalState":{"key":"08","name":"Baden-Württemberg"}},{"name":"Flurstr.","postalCode":"32839","locality":"Steinheim","municipality":{"key":"05762032","name":"Steinheim, Stadt","type":"Stadt"},"district":{"key":"05762","name":"Höxter","type":"Kreis"},"federalState":{"key":"05","name":"Nordrhein-Westfalen"}},{"name":"Forchenweg","postalCode":"89555","locality":"Steinheim am Albuch","municipality":{"key":"08135032","name":"Steinheim am Albuch","type":"Kreisangehörige_Gemeinde"},"district":{"key":"08135","name":"Heidenheim","type":"Landkreis"},"federalState":{"key":"08","name":"Baden-Württemberg"}},{"name":"Forellenweg","postalCode":"71711","locality":"Steinheim an der Murr","municipality":{"key":"08118070","name":"Steinheim an der Murr, Stadt","type":"Stadt"},"district":{"key":"08118","name":"Ludwigsburg","type":"Landkreis"},"federalState":{"key":"08","name":"Baden-Württemberg"}},{"name":"Forsthofstr.","postalCode":"71711","locality":"Steinheim an der Murr","municipality":{"key":"08118070","name":"Steinheim an der Murr, Stadt","type":"Stadt"},"district":{"key":"08118","name":"Ludwigsburg","type":"Landkreis"},"federalState":{"key":"08","name":"Baden-Württemberg"}},{"name":"Forststr.","postalCode":"89555","locality":"Steinheim am Albuch","municipality":{"key":"08135032","name":"Steinheim am Albuch","type":"Kreisangehörige_Gemeinde"},"district":{"key":"08135","name":"Heidenheim","type":"Landkreis"},"federalState":{"key":"08","name":"Baden-Württemberg"}},{"name":"Frankenbergstr.","postalCode":"32839","locality":"Steinheim","municipality":{"key":"05762032","name":"Steinheim, Stadt","type":"Stadt"},"district":{"key":"05762","name":"Höxter","type":"Kreis"},"federalState":{"key":"05","name":"Nordrhein-Westfalen"}},{"name":"Frankenstr.","postalCode":"32839","locality":"Steinheim","municipality":{"key":"05762032","name":"Steinheim, Stadt","type":"Stadt"},"district":{"key":"05762","name":"Höxter","type":"Kreis"},"federalState":{"key":"05","name":"Nordrhein-Westfalen"}},{"name":"Frank-Sinatra-Str.","postalCode":"71711","locality":"Steinheim an der Murr","municipality":{"key":"08118070","name":"Steinheim an der Murr, Stadt","type":"Stadt"},"district":{"key":"08118","name":"Ludwigsburg","type":"Landkreis"},"federalState":{"key":"08","name":"Baden-Württemberg"}},{"name":"Franzstr.","postalCode":"32839","locality":"Steinheim","municipality":{"key":"05762032","name":"Steinheim, Stadt","type":"Stadt"},"district":{"key":"05762","name":"Höxter","type":"Kreis"},"federalState":{"key":"05","name":"Nordrhein-Westfalen"}},{"name":"Freiligrathstr.","postalCode":"32839","locality":"Steinheim","municipality":{"key":"05762032","name":"Steinheim, Stadt","type":"Stadt"},"district":{"key":"05762","name":"Höxter","type":"Kreis"},"federalState":{"key":"05","name":"Nordrhein-Westfalen"}},{"name":"Friedens-Allee","postalCode":"89555","locality":"Steinheim am Albuch","municipality":{"key":"08135032","name":"Steinheim am Albuch","type":"Kreisangehörige_Gemeinde"},"district":{"key":"08135","name":"Heidenheim","type":"Landkreis"},"federalState":{"key":"08","name":"Baden-Württemberg"}},{"name":"Friedenstr.","postalCode":"32839","locality":"Steinheim","municipality":{"key":"05762032","name":"Steinheim, Stadt","type":"Stadt"},"district":{"key":"05762","name":"Höxter","type":"Kreis"},"federalState":{"key":"05","name":"Nordrhein-Westfalen"}},{"name":"Friedenstr.","postalCode":"71711","locality":"Steinheim an der Murr","municipality":{"key":"08118070","name":"Steinheim an der Murr, Stadt","type":"Stadt"},"district":{"key":"08118","name":"Ludwigsburg","type":"Landkreis"},"federalState":{"key":"08","name":"Baden-Württemberg"}},{"name":"Friedenstr.","postalCode":"89555","locality":"Steinheim am Albuch","municipality":{"key":"08135032","name":"Steinheim am Albuch","type":"Kreisangehörige_Gemeinde"},"district":{"key":"08135","name":"Heidenheim","type":"Landkreis"},"federalState":{"key":"08","name":"Baden-Württemberg"}},{"name":"Friedhofstr.","postalCode":"71711","locality":"Steinheim an der Murr","municipality":{"key":"08118070","name":"Steinheim an der Murr, Stadt","type":"Stadt"},"district":{"key":"08118","name":"Ludwigsburg","type":"Landkreis"},"federalState":{"key":"08","name":"Baden-Württemberg"}},{"name":"Friedhofstr.","postalCode":"89555","locality":"Steinheim am Albuch","municipality":{"key":"08135032","name":"Steinheim am Albuch","type":"Kreisangehörige_Gemeinde"},"district":{"key":"08135","name":"Heidenheim","type":"Landkreis"},"federalState":{"key":"08","name":"Baden-Württemberg"}},{"name":"Friedhofsweg","postalCode":"32839","locality":"Steinheim","municipality":{"key":"05762032","name":"Steinheim, Stadt","type":"Stadt"},"district":{"key":"05762","name":"Höxter","type":"Kreis"},"federalState":{"key":"05","name":"Nordrhein-Westfalen"}},{"name":"Friedhofweg","postalCode":"71711","locality":"Steinheim an der Murr","municipality":{"key":"08118070","name":"Steinheim an der Murr, Stadt","type":"Stadt"},"district":{"key":"08118","name":"Ludwigsburg","type":"Landkreis"},"federalState":{"key":"08","name":"Baden-Württemberg"}},{"name":"Friedrich-Ottomeyer-Str.","postalCode":"32839","locality":"Steinheim","municipality":{"key":"05762032","name":"Steinheim, Stadt","type":"Stadt"},"district":{"key":"05762","name":"Höxter","type":"Kreis"},"federalState":{"key":"05","name":"Nordrhein-Westfalen"}},{"name":"Friedrichstr.","postalCode":"71711","locality":"Steinheim an der Murr","municipality":{"key":"08118070","name":"Steinheim an der Murr, Stadt","type":"Stadt"},"district":{"key":"08118","name":"Ludwigsburg","type":"Landkreis"},"federalState":{"key":"08","name":"Baden-Württemberg"}},{"name":"Friedrich-Wilhelm-Weber-Str.","postalCode":"32839","locality":"Steinheim","municipality":{"key":"05762032","name":"Steinheim, Stadt","type":"Stadt"},"district":{"key":"05762","name":"Höxter","type":"Kreis"},"federalState":{"key":"05","name":"Nordrhein-Westfalen"}},{"name":"Fritz-Berckhemer-Weg","postalCode":"71711","locality":"Steinheim an der Murr","municipality":{"key":"08118070","name":"Steinheim an der Murr, Stadt","type":"Stadt"},"district":{"key":"08118","name":"Ludwigsburg","type":"Landkreis"},"federalState":{"key":"08","name":"Baden-Württemberg"}},{"name":"Fuchsweg","postalCode":"89555","locality":"Steinheim am Albuch","municipality":{"key":"08135032","name":"Steinheim am Albuch","type":"Kreisangehörige_Gemeinde"},"district":{"key":"08135","name":"Heidenheim","type":"Landkreis"},"federalState":{"key":"08","name":"Baden-Württemberg"}},{"name":"Gaisbergsträßle","postalCode":"89555","locality":"Steinheim am Albuch","municipality":{"key":"08135032","name":"Steinheim am Albuch","type":"Kreisangehörige_Gemeinde"},"district":{"key":"08135","name":"Heidenheim","type":"Landkreis"},"federalState":{"key":"08","name":"Baden-Württemberg"}},{"name":"Gaisbrunnensträßle","postalCode":"89555","locality":"Steinheim am Albuch","municipality":{"key":"08135032","name":"Steinheim am Albuch","type":"Kreisangehörige_Gemeinde"},"district":{"key":"08135","name":"Heidenheim","type":"Landkreis"},"federalState":{"key":"08","name":"Baden-Württemberg"}},{"name":"Galgenbergweg","postalCode":"89555","locality":"Steinheim am Albuch","municipality":{"key":"08135032","name":"Steinheim am Albuch","type":"Kreisangehörige_Gemeinde"},"district":{"key":"08135","name":"Heidenheim","type":"Landkreis"},"federalState":{"key":"08","name":"Baden-Württemberg"}},{"name":"Galgenbusch","postalCode":"32839","locality":"Steinheim","municipality":{"key":"05762032","name":"Steinheim, Stadt","type":"Stadt"},"district":{"key":"05762","name":"Höxter","type":"Kreis"},"federalState":{"key":"05","name":"Nordrhein-Westfalen"}},{"name":"Galgenkämpen","postalCode":"32839","locality":"Steinheim","municipality":{"key":"05762032","name":"Steinheim, Stadt","type":"Stadt"},"district":{"key":"05762","name":"Höxter","type":"Kreis"},"federalState":{"key":"05","name":"Nordrhein-Westfalen"}},{"name":"Gänsteichweg","postalCode":"73566","locality":"Steinheim am Albuch","municipality":{"key":"08135032","name":"Steinheim am Albuch","type":"Kreisangehörige_Gemeinde"},"district":{"key":"08135","name":"Heidenheim","type":"Landkreis"},"federalState":{"key":"08","name":"Baden-Württemberg"}},{"name":"Gartenstr.","postalCode":"32839","locality":"Steinheim","municipality":{"key":"05762032","name":"Steinheim, Stadt","type":"Stadt"},"district":{"key":"05762","name":"Höxter","type":"Kreis"},"federalState":{"key":"05","name":"Nordrhein-Westfalen"}},{"name":"Gartenstr.","postalCode":"71711","locality":"Steinheim an der Murr","municipality":{"key":"08118070","name":"Steinheim an der Murr, Stadt","type":"Stadt"},"district":{"key":"08118","name":"Ludwigsburg","type":"Landkreis"},"federalState":{"key":"08","name":"Baden-Württemberg"}},{"name":"Gartenstr.","postalCode":"89555","locality":"Steinheim am Albuch","municipality":{"key":"08135032","name":"Steinheim am Albuch","type":"Kreisangehörige_Gemeinde"},"district":{"key":"08135","name":"Heidenheim","type":"Landkreis"},"federalState":{"key":"08","name":"Baden-Württemberg"}},{"name":"Gärtringer Str.","postalCode":"71711","locality":"Steinheim an der Murr","municipality":{"key":"08118070","name":"Steinheim an der Murr, Stadt","type":"Stadt"},"district":{"key":"08118","name":"Ludwigsburg","type":"Landkreis"},"federalState":{"key":"08","name":"Baden-Württemberg"}},{"name":"Gemeintalsträßle","postalCode":"73566","locality":"Steinheim am Albuch","municipality":{"key":"08135032","name":"Steinheim am Albuch","type":"Kreisangehörige_Gemeinde"},"district":{"key":"08135","name":"Heidenheim","type":"Landkreis"},"federalState":{"key":"08","name":"Baden-Württemberg"}},{"name":"George-Harrison-Str.","postalCode":"71711","locality":"Steinheim an der Murr","municipality":{"key":"08118070","name":"Steinheim an der Murr, Stadt","type":"Stadt"},"district":{"key":"08118","name":"Ludwigsburg","type":"Landkreis"},"federalState":{"key":"08","name":"Baden-Württemberg"}},{"name":"Georgstr.","postalCode":"32839","locality":"Steinheim","municipality":{"key":"05762032","name":"Steinheim, Stadt","type":"Stadt"},"district":{"key":"05762","name":"Höxter","type":"Kreis"},"federalState":{"key":"05","name":"Nordrhein-Westfalen"}},{"name":"Germanenstr.","postalCode":"32839","locality":"Steinheim","municipality":{"key":"05762032","name":"Steinheim, Stadt","type":"Stadt"},"district":{"key":"05762","name":"Höxter","type":"Kreis"},"federalState":{"key":"05","name":"Nordrhein-Westfalen"}},{"name":"Gerstetter Str.","postalCode":"89555","locality":"Steinheim am Albuch","municipality":{"key":"08135032","name":"Steinheim am Albuch","type":"Kreisangehörige_Gemeinde"},"district":{"key":"08135","name":"Heidenheim","type":"Landkreis"},"federalState":{"key":"08","name":"Baden-Württemberg"}},{"name":"Gertrud-von-Le Fort-Weg","postalCode":"32839","locality":"Steinheim","municipality":{"key":"05762032","name":"Steinheim, Stadt","type":"Stadt"},"district":{"key":"05762","name":"Höxter","type":"Kreis"},"federalState":{"key":"05","name":"Nordrhein-Westfalen"}},{"name":"Gertrud-Weiler-Str.","postalCode":"71711","locality":"Steinheim an der Murr","municipality":{"key":"08118070","name":"Steinheim an der Murr, Stadt","type":"Stadt"},"district":{"key":"08118","name":"Ludwigsburg","type":"Landkreis"},"federalState":{"key":"08","name":"Baden-Württemberg"}},{"name":"Glaserteichsträßle","postalCode":"89555","locality":"Steinheim am Albuch","municipality":{"key":"08135032","name":"Steinheim am Albuch","type":"Kreisangehörige_Gemeinde"},"district":{"key":"08135","name":"Heidenheim","type":"Landkreis"},"federalState":{"key":"08","name":"Baden-Württemberg"}},{"name":"Gnannenweiler","postalCode":"89555","locality":"Steinheim am Albuch","municipality":{"key":"08135032","name":"Steinheim am Albuch","type":"Kreisangehörige_Gemeinde"},"district":{"key":"08135","name":"Heidenheim","type":"Landkreis"},"federalState":{"key":"08","name":"Baden-Württemberg"}},{"name":"Goethestr.","postalCode":"32839","locality":"Steinheim","municipality":{"key":"05762032","name":"Steinheim, Stadt","type":"Stadt"},"district":{"key":"05762","name":"Höxter","type":"Kreis"},"federalState":{"key":"05","name":"Nordrhein-Westfalen"}},{"name":"Goethestr.","postalCode":"71711","locality":"Steinheim an der Murr","municipality":{"key":"08118070","name":"Steinheim an der Murr, Stadt","type":"Stadt"},"district":{"key":"08118","name":"Ludwigsburg","type":"Landkreis"},"federalState":{"key":"08","name":"Baden-Württemberg"}},{"name":"Goethestr.","postalCode":"89555","locality":"Steinheim am Albuch","municipality":{"key":"08135032","name":"Steinheim am Albuch","type":"Kreisangehörige_Gemeinde"},"district":{"key":"08135","name":"Heidenheim","type":"Landkreis"},"federalState":{"key":"08","name":"Baden-Württemberg"}},{"name":"Gorbi Weg","postalCode":"89555","locality":"Steinheim am Albuch","municipality":{"key":"08135032","name":"Steinheim am Albuch","type":"Kreisangehörige_Gemeinde"},"district":{"key":"08135","name":"Heidenheim","type":"Landkreis"},"federalState":{"key":"08","name":"Baden-Württemberg"}},{"name":"Götzenbergstr.","postalCode":"71711","locality":"Steinheim an der Murr","municipality":{"key":"08118070","name":"Steinheim an der Murr, Stadt","type":"Stadt"},"district":{"key":"08118","name":"Ludwigsburg","type":"Landkreis"},"federalState":{"key":"08","name":"Baden-Württemberg"}},{"name":"Götzenbrunnenstr.","postalCode":"89555","locality":"Steinheim am Albuch","municipality":{"key":"08135032","name":"Steinheim am Albuch","type":"Kreisangehörige_Gemeinde"},"district":{"key":"08135","name":"Heidenheim","type":"Landkreis"},"federalState":{"key":"08","name":"Baden-Württemberg"}},{"name":"Grabhügelweg","postalCode":"89555","locality":"Steinheim am Albuch","municipality":{"key":"08135032","name":"Steinheim am Albuch","type":"Kreisangehörige_Gemeinde"},"district":{"key":"08135","name":"Heidenheim","type":"Landkreis"},"federalState":{"key":"08","name":"Baden-Württemberg"}},{"name":"Grafenäckerstr.","postalCode":"71711","locality":"Steinheim an der Murr","municipality":{"key":"08118070","name":"Steinheim an der Murr, Stadt","type":"Stadt"},"district":{"key":"08118","name":"Ludwigsburg","type":"Landkreis"},"federalState":{"key":"08","name":"Baden-Württemberg"}},{"name":"Grandweg","postalCode":"32839","locality":"Steinheim","municipality":{"key":"05762032","name":"Steinheim, Stadt","type":"Stadt"},"district":{"key":"05762","name":"Höxter","type":"Kreis"},"federalState":{"key":"05","name":"Nordrhein-Westfalen"}},{"name":"Grasweg","postalCode":"32839","locality":"Steinheim","municipality":{"key":"05762032","name":"Steinheim, Stadt","type":"Stadt"},"district":{"key":"05762","name":"Höxter","type":"Kreis"},"federalState":{"key":"05","name":"Nordrhein-Westfalen"}},{"name":"Grebbergstr.","postalCode":"32839","locality":"Steinheim","municipality":{"key":"05762032","name":"Steinheim, Stadt","type":"Stadt"},"district":{"key":"05762","name":"Höxter","type":"Kreis"},"federalState":{"key":"05","name":"Nordrhein-Westfalen"}},{"name":"Grevenhagener Str.","postalCode":"32839","locality":"Steinheim","municipality":{"key":"05762032","name":"Steinheim, Stadt","type":"Stadt"},"district":{"key":"05762","name":"Höxter","type":"Kreis"},"federalState":{"key":"05","name":"Nordrhein-Westfalen"}},{"name":"Griesbergebeneweg","postalCode":"71711","locality":"Steinheim an der Murr","municipality":{"key":"08118070","name":"Steinheim an der Murr, Stadt","type":"Stadt"},"district":{"key":"08118","name":"Ludwigsburg","type":"Landkreis"},"federalState":{"key":"08","name":"Baden-Württemberg"}},{"name":"Griesbergsträßchen","postalCode":"71711","locality":"Steinheim an der Murr","municipality":{"key":"08118070","name":"Steinheim an der Murr, Stadt","type":"Stadt"},"district":{"key":"08118","name":"Ludwigsburg","type":"Landkreis"},"federalState":{"key":"08","name":"Baden-Württemberg"}},{"name":"Großbottwarer Str.","postalCode":"71711","locality":"Steinheim an der Murr","municipality":{"key":"08118070","name":"Steinheim an der Murr, Stadt","type":"Stadt"},"district":{"key":"08118","name":"Ludwigsburg","type":"Landkreis"},"federalState":{"key":"08","name":"Baden-Württemberg"}},{"name":"Grotweg","postalCode":"89555","locality":"Steinheim am Albuch","municipality":{"key":"08135032","name":"Steinheim am Albuch","type":"Kreisangehörige_Gemeinde"},"district":{"key":"08135","name":"Heidenheim","type":"Landkreis"},"federalState":{"key":"08","name":"Baden-Württemberg"}},{"name":"Gschweinweg","postalCode":"89555","locality":"Steinheim am Albuch","municipality":{"key":"08135032","name":"Steinheim am Albuch","type":"Kreisangehörige_Gemeinde"},"district":{"key":"08135","name":"Heidenheim","type":"Landkreis"},"federalState":{"key":"08","name":"Baden-Württemberg"}},{"name":"Gurstr.","postalCode":"89555","locality":"Steinheim am Albuch","municipality":{"key":"08135032","name":"Steinheim am Albuch","type":"Kreisangehörige_Gemeinde"},"district":{"key":"08135","name":"Heidenheim","type":"Landkreis"},"federalState":{"key":"08","name":"Baden-Württemberg"}},{"name":"Hagedorn","postalCode":"32839","locality":"Steinheim","municipality":{"key":"05762032","name":"Steinheim, Stadt","type":"Stadt"},"district":{"key":"05762","name":"Höxter","type":"Kreis"},"federalState":{"key":"05","name":"Nordrhein-Westfalen"}},{"name":"Hagedorner Str.","postalCode":"32839","locality":"Steinheim","municipality":{"key":"05762032","name":"Steinheim, Stadt","type":"Stadt"},"district":{"key":"05762","name":"Höxter","type":"Kreis"},"federalState":{"key":"05","name":"Nordrhein-Westfalen"}},{"name":"Haldensträßle","postalCode":"89555","locality":"Steinheim am Albuch","municipality":{"key":"08135032","name":"Steinheim am Albuch","type":"Kreisangehörige_Gemeinde"},"district":{"key":"08135","name":"Heidenheim","type":"Landkreis"},"federalState":{"key":"08","name":"Baden-Württemberg"}},{"name":"Haldeweg","postalCode":"89555","locality":"Steinheim am Albuch","municipality":{"key":"08135032","name":"Steinheim am Albuch","type":"Kreisangehörige_Gemeinde"},"district":{"key":"08135","name":"Heidenheim","type":"Landkreis"},"federalState":{"key":"08","name":"Baden-Württemberg"}},{"name":"Händelstr.","postalCode":"71711","locality":"Steinheim an der Murr","municipality":{"key":"08118070","name":"Steinheim an der Murr, Stadt","type":"Stadt"},"district":{"key":"08118","name":"Ludwigsburg","type":"Landkreis"},"federalState":{"key":"08","name":"Baden-Württemberg"}},{"name":"Hangstr.","postalCode":"89555","locality":"Steinheim am Albuch","municipality":{"key":"08135032","name":"Steinheim am Albuch","type":"Kreisangehörige_Gemeinde"},"district":{"key":"08135","name":"Heidenheim","type":"Landkreis"},"federalState":{"key":"08","name":"Baden-Württemberg"}},{"name":"Hardtstr.","postalCode":"71711","locality":"Steinheim an der Murr","municipality":{"key":"08118070","name":"Steinheim an der Murr, Stadt","type":"Stadt"},"district":{"key":"08118","name":"Ludwigsburg","type":"Landkreis"},"federalState":{"key":"08","name":"Baden-Württemberg"}},{"name":"Hardweg","postalCode":"73566","locality":"Steinheim am Albuch","municipality":{"key":"08135032","name":"Steinheim am Albuch","type":"Kreisangehörige_Gemeinde"},"district":{"key":"08135","name":"Heidenheim","type":"Landkreis"},"federalState":{"key":"08","name":"Baden-Württemberg"}},{"name":"Haselweg","postalCode":"89555","locality":"Steinheim am Albuch","municipality":{"key":"08135032","name":"Steinheim am Albuch","type":"Kreisangehörige_Gemeinde"},"district":{"key":"08135","name":"Heidenheim","type":"Landkreis"},"federalState":{"key":"08","name":"Baden-Württemberg"}},{"name":"Hasenburrenstr.","postalCode":"89555","locality":"Steinheim am Albuch","municipality":{"key":"08135032","name":"Steinheim am Albuch","type":"Kreisangehörige_Gemeinde"},"district":{"key":"08135","name":"Heidenheim","type":"Landkreis"},"federalState":{"key":"08","name":"Baden-Württemberg"}},{"name":"Häslachstr.","postalCode":"71711","locality":"Steinheim an der Murr","municipality":{"key":"08118070","name":"Steinheim an der Murr, Stadt","type":"Stadt"},"district":{"key":"08118","name":"Ludwigsburg","type":"Landkreis"},"federalState":{"key":"08","name":"Baden-Württemberg"}},{"name":"Hauffstr.","postalCode":"71711","locality":"Steinheim an der Murr","municipality":{"key":"08118070","name":"Steinheim an der Murr, Stadt","type":"Stadt"},"district":{"key":"08118","name":"Ludwigsburg","type":"Landkreis"},"federalState":{"key":"08","name":"Baden-Württemberg"}},{"name":"Hauffstr.","postalCode":"89555","locality":"Steinheim am Albuch","municipality":{"key":"08135032","name":"Steinheim am Albuch","type":"Kreisangehörige_Gemeinde"},"district":{"key":"08135","name":"Heidenheim","type":"Landkreis"},"federalState":{"key":"08","name":"Baden-Württemberg"}},{"name":"Hauptstr.","postalCode":"32839","locality":"Steinheim","municipality":{"key":"05762032","name":"Steinheim, Stadt","type":"Stadt"},"district":{"key":"05762","name":"Höxter","type":"Kreis"},"federalState":{"key":"05","name":"Nordrhein-Westfalen"}},{"name":"Hauptstr.","postalCode":"71711","locality":"Steinheim an der Murr","municipality":{"key":"08118070","name":"Steinheim an der Murr, Stadt","type":"Stadt"},"district":{"key":"08118","name":"Ludwigsburg","type":"Landkreis"},"federalState":{"key":"08","name":"Baden-Württemberg"}},{"name":"Hauptstr.","postalCode":"89555","locality":"Steinheim am Albuch","municipality":{"key":"08135032","name":"Steinheim am Albuch","type":"Kreisangehörige_Gemeinde"},"district":{"key":"08135","name":"Heidenheim","type":"Landkreis"},"federalState":{"key":"08","name":"Baden-Württemberg"}},{"name":"Haydnstr.","postalCode":"71711","locality":"Steinheim an der Murr","municipality":{"key":"08118070","name":"Steinheim an der Murr, Stadt","type":"Stadt"},"district":{"key":"08118","name":"Ludwigsburg","type":"Landkreis"},"federalState":{"key":"08","name":"Baden-Württemberg"}},{"name":"Haydnstr.","postalCode":"89555","locality":"Steinheim am Albuch","municipality":{"key":"08135032","name":"Steinheim am Albuch","type":"Kreisangehörige_Gemeinde"},"district":{"key":"08135","name":"Heidenheim","type":"Landkreis"},"federalState":{"key":"08","name":"Baden-Württemberg"}},{"name":"Heckenstr.","postalCode":"89555","locality":"Steinheim am Albuch","municipality":{"key":"08135032","name":"Steinheim am Albuch","type":"Kreisangehörige_Gemeinde"},"district":{"key":"08135","name":"Heidenheim","type":"Landkreis"},"federalState":{"key":"08","name":"Baden-Württemberg"}},{"name":"Heckenweg","postalCode":"32839","locality":"Steinheim","municipality":{"key":"05762032","name":"Steinheim, Stadt","type":"Stadt"},"district":{"key":"05762","name":"Höxter","type":"Kreis"},"federalState":{"key":"05","name":"Nordrhein-Westfalen"}},{"name":"Hegelstr.","postalCode":"71711","locality":"Steinheim an der Murr","municipality":{"key":"08118070","name":"Steinheim an der Murr, Stadt","type":"Stadt"},"district":{"key":"08118","name":"Ludwigsburg","type":"Landkreis"},"federalState":{"key":"08","name":"Baden-Württemberg"}},{"name":"Hegelstr.","postalCode":"89555","locality":"Steinheim am Albuch","municipality":{"key":"08135032","name":"Steinheim am Albuch","type":"Kreisangehörige_Gemeinde"},"district":{"key":"08135","name":"Heidenheim","type":"Landkreis"},"federalState":{"key":"08","name":"Baden-Württemberg"}},{"name":"Hegge","postalCode":"32839","locality":"Steinheim","municipality":{"key":"05762032","name":"Steinheim, Stadt","type":"Stadt"},"district":{"key":"05762","name":"Höxter","type":"Kreis"},"federalState":{"key":"05","name":"Nordrhein-Westfalen"}},{"name":"Heidenheimer Str.","postalCode":"89555","locality":"Steinheim am Albuch","municipality":{"key":"08135032","name":"Steinheim am Albuch","type":"Kreisangehörige_Gemeinde"},"district":{"key":"08135","name":"Heidenheim","type":"Landkreis"},"federalState":{"key":"08","name":"Baden-Württemberg"}},{"name":"Heiderfeldstr.","postalCode":"89555","locality":"Steinheim am Albuch","municipality":{"key":"08135032","name":"Steinheim am Albuch","type":"Kreisangehörige_Gemeinde"},"district":{"key":"08135","name":"Heidenheim","type":"Landkreis"},"federalState":{"key":"08","name":"Baden-Württemberg"}},{"name":"Heidestr.","postalCode":"89555","locality":"Steinheim am Albuch","municipality":{"key":"08135032","name":"Steinheim am Albuch","type":"Kreisangehörige_Gemeinde"},"district":{"key":"08135","name":"Heidenheim","type":"Landkreis"},"federalState":{"key":"08","name":"Baden-Württemberg"}},{"name":"Heideweg","postalCode":"32839","locality":"Steinheim","municipality":{"key":"05762032","name":"Steinheim, Stadt","type":"Stadt"},"district":{"key":"05762","name":"Höxter","type":"Kreis"},"federalState":{"key":"05","name":"Nordrhein-Westfalen"}},{"name":"Heinrich-Böll-Str.","postalCode":"71711","locality":"Steinheim an der Murr","municipality":{"key":"08118070","name":"Steinheim an der Murr, Stadt","type":"Stadt"},"district":{"key":"08118","name":"Ludwigsburg","type":"Landkreis"},"federalState":{"key":"08","name":"Baden-Württemberg"}},{"name":"Heinrich-Meißner-Str.","postalCode":"71711","locality":"Steinheim an der Murr","municipality":{"key":"08118070","name":"Steinheim an der Murr, Stadt","type":"Stadt"},"district":{"key":"08118","name":"Ludwigsburg","type":"Landkreis"},"federalState":{"key":"08","name":"Baden-Württemberg"}},{"name":"Heinrich-Spier-Str.","postalCode":"32839","locality":"Steinheim","municipality":{"key":"05762032","name":"Steinheim, Stadt","type":"Stadt"},"district":{"key":"05762","name":"Höxter","type":"Kreis"},"federalState":{"key":"05","name":"Nordrhein-Westfalen"}},{"name":"Hellensteinstr.","postalCode":"89555","locality":"Steinheim am Albuch","municipality":{"key":"08135032","name":"Steinheim am Albuch","type":"Kreisangehörige_Gemeinde"},"district":{"key":"08135","name":"Heidenheim","type":"Landkreis"},"federalState":{"key":"08","name":"Baden-Württemberg"}},{"name":"Hellweg","postalCode":"32839","locality":"Steinheim","municipality":{"key":"05762032","name":"Steinheim, Stadt","type":"Stadt"},"district":{"key":"05762","name":"Höxter","type":"Kreis"},"federalState":{"key":"05","name":"Nordrhein-Westfalen"}},{"name":"Helmut Weg","postalCode":"89555","locality":"Steinheim am Albuch","municipality":{"key":"08135032","name":"Steinheim am Albuch","type":"Kreisangehörige_Gemeinde"},"district":{"key":"08135","name":"Heidenheim","type":"Landkreis"},"federalState":{"key":"08","name":"Baden-Württemberg"}},{"name":"Hennentalsträßle","postalCode":"89555","locality":"Steinheim am Albuch","municipality":{"key":"08135032","name":"Steinheim am Albuch","type":"Kreisangehörige_Gemeinde"},"district":{"key":"08135","name":"Heidenheim","type":"Landkreis"},"federalState":{"key":"08","name":"Baden-Württemberg"}},{"name":"Hermann-Hesse-Str.","postalCode":"71711","locality":"Steinheim an der Murr","municipality":{"key":"08118070","name":"Steinheim an der Murr, Stadt","type":"Stadt"},"district":{"key":"08118","name":"Ludwigsburg","type":"Landkreis"},"federalState":{"key":"08","name":"Baden-Württemberg"}},{"name":"Hermann-Spaich-Str.","postalCode":"71711","locality":"Steinheim an der Murr","municipality":{"key":"08118070","name":"Steinheim an der Murr, Stadt","type":"Stadt"},"district":{"key":"08118","name":"Ludwigsburg","type":"Landkreis"},"federalState":{"key":"08","name":"Baden-Württemberg"}},{"name":"Hermann-Tuleke-Str.","postalCode":"32839","locality":"Steinheim","municipality":{"key":"05762032","name":"Steinheim, Stadt","type":"Stadt"},"district":{"key":"05762","name":"Höxter","type":"Kreis"},"federalState":{"key":"05","name":"Nordrhein-Westfalen"}},{"name":"Hermann-Weißbrod-Str.","postalCode":"89555","locality":"Steinheim am Albuch","municipality":{"key":"08135032","name":"Steinheim am Albuch","type":"Kreisangehörige_Gemeinde"},"district":{"key":"08135","name":"Heidenheim","type":"Landkreis"},"federalState":{"key":"08","name":"Baden-Württemberg"}},{"name":"Herzogshaldesträßle","postalCode":"89555","locality":"Steinheim am Albuch","municipality":{"key":"08135032","name":"Steinheim am Albuch","type":"Kreisangehörige_Gemeinde"},"district":{"key":"08135","name":"Heidenheim","type":"Landkreis"},"federalState":{"key":"08","name":"Baden-Württemberg"}},{"name":"Heubachstr.","postalCode":"32839","locality":"Steinheim","municipality":{"key":"05762032","name":"Steinheim, Stadt","type":"Stadt"},"district":{"key":"05762","name":"Höxter","type":"Kreis"},"federalState":{"key":"05","name":"Nordrhein-Westfalen"}},{"name":"Hinter den Gärten","postalCode":"71711","locality":"Steinheim an der Murr","municipality":{"key":"08118070","name":"Steinheim an der Murr, Stadt","type":"Stadt"},"district":{"key":"08118","name":"Ludwigsburg","type":"Landkreis"},"federalState":{"key":"08","name":"Baden-Württemberg"}},{"name":"Hinter der Kirche","postalCode":"32839","locality":"Steinheim","municipality":{"key":"05762032","name":"Steinheim, Stadt","type":"Stadt"},"district":{"key":"05762","name":"Höxter","type":"Kreis"},"federalState":{"key":"05","name":"Nordrhein-Westfalen"}},{"name":"Hinter der Mauer","postalCode":"32839","locality":"Steinheim","municipality":{"key":"05762032","name":"Steinheim, Stadt","type":"Stadt"},"district":{"key":"05762","name":"Höxter","type":"Kreis"},"federalState":{"key":"05","name":"Nordrhein-Westfalen"}},{"name":"Hintere Gasse","postalCode":"89555","locality":"Steinheim am Albuch","municipality":{"key":"08135032","name":"Steinheim am Albuch","type":"Kreisangehörige_Gemeinde"},"district":{"key":"08135","name":"Heidenheim","type":"Landkreis"},"federalState":{"key":"08","name":"Baden-Württemberg"}},{"name":"Hintere Str.","postalCode":"32839","locality":"Steinheim","municipality":{"key":"05762032","name":"Steinheim, Stadt","type":"Stadt"},"district":{"key":"05762","name":"Höxter","type":"Kreis"},"federalState":{"key":"05","name":"Nordrhein-Westfalen"}},{"name":"Hirschhaldeweg","postalCode":"89555","locality":"Steinheim am Albuch","municipality":{"key":"08135032","name":"Steinheim am Albuch","type":"Kreisangehörige_Gemeinde"},"district":{"key":"08135","name":"Heidenheim","type":"Landkreis"},"federalState":{"key":"08","name":"Baden-Württemberg"}},{"name":"Hirschstr.","postalCode":"89555","locality":"Steinheim am Albuch","municipality":{"key":"08135032","name":"Steinheim am Albuch","type":"Kreisangehörige_Gemeinde"},"district":{"key":"08135","name":"Heidenheim","type":"Landkreis"},"federalState":{"key":"08","name":"Baden-Württemberg"}},{"name":"Hirschteichweg","postalCode":"89555","locality":"Steinheim am Albuch","municipality":{"key":"08135032","name":"Steinheim am Albuch","type":"Kreisangehörige_Gemeinde"},"district":{"key":"08135","name":"Heidenheim","type":"Landkreis"},"federalState":{"key":"08","name":"Baden-Württemberg"}},{"name":"Hirschweg","postalCode":"71711","locality":"Steinheim an der Murr","municipality":{"key":"08118070","name":"Steinheim an der Murr, Stadt","type":"Stadt"},"district":{"key":"08118","name":"Ludwigsburg","type":"Landkreis"},"federalState":{"key":"08","name":"Baden-Württemberg"}},{"name":"Hirschwegle","postalCode":"71711","locality":"Steinheim an der Murr","municipality":{"key":"08118070","name":"Steinheim an der Murr, Stadt","type":"Stadt"},"district":{"key":"08118","name":"Ludwigsburg","type":"Landkreis"},"federalState":{"key":"08","name":"Baden-Württemberg"}},{"name":"Igelweg","postalCode":"89555","locality":"Steinheim am Albuch","municipality":{"key":"08135032","name":"Steinheim am Albuch","type":"Kreisangehörige_Gemeinde"},"district":{"key":"08135","name":"Heidenheim","type":"Landkreis"},"federalState":{"key":"08","name":"Baden-Württemberg"}},{"name":"Iltisweg","postalCode":"89555","locality":"Steinheim am Albuch","municipality":{"key":"08135032","name":"Steinheim am Albuch","type":"Kreisangehörige_Gemeinde"},"district":{"key":"08135","name":"Heidenheim","type":"Landkreis"},"federalState":{"key":"08","name":"Baden-Württemberg"}},{"name":"Im Altenhagen","postalCode":"32839","locality":"Steinheim","municipality":{"key":"05762032","name":"Steinheim, Stadt","type":"Stadt"},"district":{"key":"05762","name":"Höxter","type":"Kreis"},"federalState":{"key":"05","name":"Nordrhein-Westfalen"}},{"name":"Im Bruch","postalCode":"32839","locality":"Steinheim","municipality":{"key":"05762032","name":"Steinheim, Stadt","type":"Stadt"},"district":{"key":"05762","name":"Höxter","type":"Kreis"},"federalState":{"key":"05","name":"Nordrhein-Westfalen"}},{"name":"Im Bruhrain","postalCode":"71711","locality":"Steinheim an der Murr","municipality":{"key":"08118070","name":"Steinheim an der Murr, Stadt","type":"Stadt"},"district":{"key":"08118","name":"Ludwigsburg","type":"Landkreis"},"federalState":{"key":"08","name":"Baden-Württemberg"}},{"name":"Im Fettpott","postalCode":"32839","locality":"Steinheim","municipality":{"key":"05762032","name":"Steinheim, Stadt","type":"Stadt"},"district":{"key":"05762","name":"Höxter","type":"Kreis"},"federalState":{"key":"05","name":"Nordrhein-Westfalen"}},{"name":"Im Görn","postalCode":"32839","locality":"Steinheim","municipality":{"key":"05762032","name":"Steinheim, Stadt","type":"Stadt"},"district":{"key":"05762","name":"Höxter","type":"Kreis"},"federalState":{"key":"05","name":"Nordrhein-Westfalen"}},{"name":"Im Haidfeld","postalCode":"32839","locality":"Steinheim","municipality":{"key":"05762032","name":"Steinheim, Stadt","type":"Stadt"},"district":{"key":"05762","name":"Höxter","type":"Kreis"},"federalState":{"key":"05","name":"Nordrhein-Westfalen"}},{"name":"Im Hirschtal","postalCode":"89555","locality":"Steinheim am Albuch","municipality":{"key":"08135032","name":"Steinheim am Albuch","type":"Kreisangehörige_Gemeinde"},"district":{"key":"08135","name":"Heidenheim","type":"Landkreis"},"federalState":{"key":"08","name":"Baden-Württemberg"}},{"name":"Im Käppele","postalCode":"71711","locality":"Steinheim an der Murr","municipality":{"key":"08118070","name":"Steinheim an der Murr, Stadt","type":"Stadt"},"district":{"key":"08118","name":"Ludwigsburg","type":"Landkreis"},"federalState":{"key":"08","name":"Baden-Württemberg"}},{"name":"Im Knick","postalCode":"32839","locality":"Steinheim","municipality":{"key":"05762032","name":"Steinheim, Stadt","type":"Stadt"},"district":{"key":"05762","name":"Höxter","type":"Kreis"},"federalState":{"key":"05","name":"Nordrhein-Westfalen"}},{"name":"Im Leinenfelde","postalCode":"32839","locality":"Steinheim","municipality":{"key":"05762032","name":"Steinheim, Stadt","type":"Stadt"},"district":{"key":"05762","name":"Höxter","type":"Kreis"},"federalState":{"key":"05","name":"Nordrhein-Westfalen"}},{"name":"Im Lütken Felde","postalCode":"32839","locality":"Steinheim","municipality":{"key":"05762032","name":"Steinheim, Stadt","type":"Stadt"},"district":{"key":"05762","name":"Höxter","type":"Kreis"},"federalState":{"key":"05","name":"Nordrhein-Westfalen"}},{"name":"Immansweiler","postalCode":"73566","locality":"Steinheim am Albuch","municipality":{"key":"08135032","name":"Steinheim am Albuch","type":"Kreisangehörige_Gemeinde"},"district":{"key":"08135","name":"Heidenheim","type":"Landkreis"},"federalState":{"key":"08","name":"Baden-Württemberg"}},{"name":"Immanuel-Kant-Weg","postalCode":"89555","locality":"Steinheim am Albuch","municipality":{"key":"08135032","name":"Steinheim am Albuch","type":"Kreisangehörige_Gemeinde"},"district":{"key":"08135","name":"Heidenheim","type":"Landkreis"},"federalState":{"key":"08","name":"Baden-Württemberg"}},{"name":"Im mittleren Hollental","postalCode":"32839","locality":"Steinheim","municipality":{"key":"05762032","name":"Steinheim, Stadt","type":"Stadt"},"district":{"key":"05762","name":"Höxter","type":"Kreis"},"federalState":{"key":"05","name":"Nordrhein-Westfalen"}},{"name":"Im Olgagarten","postalCode":"89555","locality":"Steinheim am Albuch","municipality":{"key":"08135032","name":"Steinheim am Albuch","type":"Kreisangehörige_Gemeinde"},"district":{"key":"08135","name":"Heidenheim","type":"Landkreis"},"federalState":{"key":"08","name":"Baden-Württemberg"}},{"name":"Im Ort","postalCode":"32839","locality":"Steinheim","municipality":{"key":"05762032","name":"Steinheim, Stadt","type":"Stadt"},"district":{"key":"05762","name":"Höxter","type":"Kreis"},"federalState":{"key":"05","name":"Nordrhein-Westfalen"}},{"name":"Im Pfannenstiel","postalCode":"89555","locality":"Steinheim am Albuch","municipality":{"key":"08135032","name":"Steinheim am Albuch","type":"Kreisangehörige_Gemeinde"},"district":{"key":"08135","name":"Heidenheim","type":"Landkreis"},"federalState":{"key":"08","name":"Baden-Württemberg"}},{"name":"Im Renneborn","postalCode":"32839","locality":"Steinheim","municipality":{"key":"05762032","name":"Steinheim, Stadt","type":"Stadt"},"district":{"key":"05762","name":"Höxter","type":"Kreis"},"federalState":{"key":"05","name":"Nordrhein-Westfalen"}},{"name":"Im Schildern","postalCode":"32839","locality":"Steinheim","municipality":{"key":"05762032","name":"Steinheim, Stadt","type":"Stadt"},"district":{"key":"05762","name":"Höxter","type":"Kreis"},"federalState":{"key":"05","name":"Nordrhein-Westfalen"}},{"name":"Im Südfelde","postalCode":"32839","locality":"Steinheim","municipality":{"key":"05762032","name":"Steinheim, Stadt","type":"Stadt"},"district":{"key":"05762","name":"Höxter","type":"Kreis"},"federalState":{"key":"05","name":"Nordrhein-Westfalen"}},{"name":"Im Teichwasser","postalCode":"32839","locality":"Steinheim","municipality":{"key":"05762032","name":"Steinheim, Stadt","type":"Stadt"},"district":{"key":"05762","name":"Höxter","type":"Kreis"},"federalState":{"key":"05","name":"Nordrhein-Westfalen"}},{"name":"Im Vogelherd","postalCode":"71711","locality":"Steinheim an der Murr","municipality":{"key":"08118070","name":"Steinheim an der Murr, Stadt","type":"Stadt"},"district":{"key":"08118","name":"Ludwigsburg","type":"Landkreis"},"federalState":{"key":"08","name":"Baden-Württemberg"}},{"name":"Im Wiesental","postalCode":"71711","locality":"Steinheim an der Murr","municipality":{"key":"08118070","name":"Steinheim an der Murr, Stadt","type":"Stadt"},"district":{"key":"08118","name":"Ludwigsburg","type":"Landkreis"},"federalState":{"key":"08","name":"Baden-Württemberg"}},{"name":"Ina-Seidel-Weg","postalCode":"32839","locality":"Steinheim","municipality":{"key":"05762032","name":"Steinheim, Stadt","type":"Stadt"},"district":{"key":"05762","name":"Höxter","type":"Kreis"},"federalState":{"key":"05","name":"Nordrhein-Westfalen"}},{"name":"In den Gärten","postalCode":"89555","locality":"Steinheim am Albuch","municipality":{"key":"08135032","name":"Steinheim am Albuch","type":"Kreisangehörige_Gemeinde"},"district":{"key":"08135","name":"Heidenheim","type":"Landkreis"},"federalState":{"key":"08","name":"Baden-Württemberg"}},{"name":"In der Au","postalCode":"71711","locality":"Steinheim an der Murr","municipality":{"key":"08118070","name":"Steinheim an der Murr, Stadt","type":"Stadt"},"district":{"key":"08118","name":"Ludwigsburg","type":"Landkreis"},"federalState":{"key":"08","name":"Baden-Württemberg"}},{"name":"In der Breite","postalCode":"89555","locality":"Steinheim am Albuch","municipality":{"key":"08135032","name":"Steinheim am Albuch","type":"Kreisangehörige_Gemeinde"},"district":{"key":"08135","name":"Heidenheim","type":"Landkreis"},"federalState":{"key":"08","name":"Baden-Württemberg"}},{"name":"In der Gartenstadt","postalCode":"71711","locality":"Steinheim an der Murr","municipality":{"key":"08118070","name":"Steinheim an der Murr, Stadt","type":"Stadt"},"district":{"key":"08118","name":"Ludwigsburg","type":"Landkreis"},"federalState":{"key":"08","name":"Baden-Württemberg"}},{"name":"Industriestr.","postalCode":"32839","locality":"Steinheim","municipality":{"key":"05762032","name":"Steinheim, Stadt","type":"Stadt"},"district":{"key":"05762","name":"Höxter","type":"Kreis"},"federalState":{"key":"05","name":"Nordrhein-Westfalen"}},{"name":"Industriestr.","postalCode":"71711","locality":"Steinheim an der Murr","municipality":{"key":"08118070","name":"Steinheim an der Murr, Stadt","type":"Stadt"},"district":{"key":"08118","name":"Ludwigsburg","type":"Landkreis"},"federalState":{"key":"08","name":"Baden-Württemberg"}},{"name":"Irmannsweiler","postalCode":"73566","locality":"Steinheim am Albuch","municipality":{"key":"08135032","name":"Steinheim am Albuch","type":"Kreisangehörige_Gemeinde"},"district":{"key":"08135","name":"Heidenheim","type":"Landkreis"},"federalState":{"key":"08","name":"Baden-Württemberg"}},{"name":"Jägerstr.","postalCode":"89555","locality":"Steinheim am Albuch","municipality":{"key":"08135032","name":"Steinheim am Albuch","type":"Kreisangehörige_Gemeinde"},"district":{"key":"08135","name":"Heidenheim","type":"Landkreis"},"federalState":{"key":"08","name":"Baden-Württemberg"}},{"name":"Jägerwies-Str.","postalCode":"89555","locality":"Steinheim am Albuch","municipality":{"key":"08135032","name":"Steinheim am Albuch","type":"Kreisangehörige_Gemeinde"},"district":{"key":"08135","name":"Heidenheim","type":"Landkreis"},"federalState":{"key":"08","name":"Baden-Württemberg"}},{"name":"Jahnstr.","postalCode":"32839","locality":"Steinheim","municipality":{"key":"05762032","name":"Steinheim, Stadt","type":"Stadt"},"district":{"key":"05762","name":"Höxter","type":"Kreis"},"federalState":{"key":"05","name":"Nordrhein-Westfalen"}},{"name":"Jahnstr.","postalCode":"89555","locality":"Steinheim am Albuch","municipality":{"key":"08135032","name":"Steinheim am Albuch","type":"Kreisangehörige_Gemeinde"},"district":{"key":"08135","name":"Heidenheim","type":"Landkreis"},"federalState":{"key":"08","name":"Baden-Württemberg"}},{"name":"Janis-Joplin-Str.","postalCode":"71711","locality":"Steinheim an der Murr","municipality":{"key":"08118070","name":"Steinheim an der Murr, Stadt","type":"Stadt"},"district":{"key":"08118","name":"Ludwigsburg","type":"Landkreis"},"federalState":{"key":"08","name":"Baden-Württemberg"}},{"name":"Jenaer Weg","postalCode":"89555","locality":"Steinheim am Albuch","municipality":{"key":"08135032","name":"Steinheim am Albuch","type":"Kreisangehörige_Gemeinde"},"district":{"key":"08135","name":"Heidenheim","type":"Landkreis"},"federalState":{"key":"08","name":"Baden-Württemberg"}},{"name":"Johann-Sebastian-Bach-Str.","postalCode":"71711","locality":"Steinheim an der Murr","municipality":{"key":"08118070","name":"Steinheim an der Murr, Stadt","type":"Stadt"},"district":{"key":"08118","name":"Ludwigsburg","type":"Landkreis"},"federalState":{"key":"08","name":"Baden-Württemberg"}},{"name":"John-Lennon-Str.","postalCode":"71711","locality":"Steinheim an der Murr","municipality":{"key":"08118070","name":"Steinheim an der Murr, Stadt","type":"Stadt"},"district":{"key":"08118","name":"Ludwigsburg","type":"Landkreis"},"federalState":{"key":"08","name":"Baden-Württemberg"}},{"name":"Josef-Menze-Str.","postalCode":"32839","locality":"Steinheim","municipality":{"key":"05762032","name":"Steinheim, Stadt","type":"Stadt"},"district":{"key":"05762","name":"Höxter","type":"Kreis"},"federalState":{"key":"05","name":"Nordrhein-Westfalen"}},{"name":"Josefstr.","postalCode":"32839","locality":"Steinheim","municipality":{"key":"05762032","name":"Steinheim, Stadt","type":"Stadt"},"district":{"key":"05762","name":"Höxter","type":"Kreis"},"federalState":{"key":"05","name":"Nordrhein-Westfalen"}},{"name":"Judenmahdsträßchen","postalCode":"89555","locality":"Steinheim am Albuch","municipality":{"key":"08135032","name":"Steinheim am Albuch","type":"Kreisangehörige_Gemeinde"},"district":{"key":"08135","name":"Heidenheim","type":"Landkreis"},"federalState":{"key":"08","name":"Baden-Württemberg"}},{"name":"Jüttenplatz","postalCode":"32839","locality":"Steinheim","municipality":{"key":"05762032","name":"Steinheim, Stadt","type":"Stadt"},"district":{"key":"05762","name":"Höxter","type":"Kreis"},"federalState":{"key":"05","name":"Nordrhein-Westfalen"}},{"name":"Kaisersbergweg","postalCode":"71711","locality":"Steinheim an der Murr","municipality":{"key":"08118070","name":"Steinheim an der Murr, Stadt","type":"Stadt"},"district":{"key":"08118","name":"Ludwigsburg","type":"Landkreis"},"federalState":{"key":"08","name":"Baden-Württemberg"}},{"name":"Kälblingstr.","postalCode":"71711","locality":"Steinheim an der Murr","municipality":{"key":"08118070","name":"Steinheim an der Murr, Stadt","type":"Stadt"},"district":{"key":"08118","name":"Ludwigsburg","type":"Landkreis"},"federalState":{"key":"08","name":"Baden-Württemberg"}},{"name":"Kamlahweg","postalCode":"32839","locality":"Steinheim","municipality":{"key":"05762032","name":"Steinheim, Stadt","type":"Stadt"},"district":{"key":"05762","name":"Höxter","type":"Kreis"},"federalState":{"key":"05","name":"Nordrhein-Westfalen"}},{"name":"Kantstr.","postalCode":"32839","locality":"Steinheim","municipality":{"key":"05762032","name":"Steinheim, Stadt","type":"Stadt"},"district":{"key":"05762","name":"Höxter","type":"Kreis"},"federalState":{"key":"05","name":"Nordrhein-Westfalen"}},{"name":"Kantstr.","postalCode":"71711","locality":"Steinheim an der Murr","municipality":{"key":"08118070","name":"Steinheim an der Murr, Stadt","type":"Stadt"},"district":{"key":"08118","name":"Ludwigsburg","type":"Landkreis"},"federalState":{"key":"08","name":"Baden-Württemberg"}},{"name":"Kapellenweg","postalCode":"32839","locality":"Steinheim","municipality":{"key":"05762032","name":"Steinheim, Stadt","type":"Stadt"},"district":{"key":"05762","name":"Höxter","type":"Kreis"},"federalState":{"key":"05","name":"Nordrhein-Westfalen"}},{"name":"Karl-Dietrich-Adam-Weg","postalCode":"71711","locality":"Steinheim an der Murr","municipality":{"key":"08118070","name":"Steinheim an der Murr, Stadt","type":"Stadt"},"district":{"key":"08118","name":"Ludwigsburg","type":"Landkreis"},"federalState":{"key":"08","name":"Baden-Württemberg"}},{"name":"Karl-Sigrist-Str.","postalCode":"71711","locality":"Steinheim an der Murr","municipality":{"key":"08118070","name":"Steinheim an der Murr, Stadt","type":"Stadt"},"district":{"key":"08118","name":"Ludwigsburg","type":"Landkreis"},"federalState":{"key":"08","name":"Baden-Württemberg"}},{"name":"Karlstr.","postalCode":"71711","locality":"Steinheim an der Murr","municipality":{"key":"08118070","name":"Steinheim an der Murr, Stadt","type":"Stadt"},"district":{"key":"08118","name":"Ludwigsburg","type":"Landkreis"},"federalState":{"key":"08","name":"Baden-Württemberg"}},{"name":"Karlstr.","postalCode":"89555","locality":"Steinheim am Albuch","municipality":{"key":"08135032","name":"Steinheim am Albuch","type":"Kreisangehörige_Gemeinde"},"district":{"key":"08135","name":"Heidenheim","type":"Landkreis"},"federalState":{"key":"08","name":"Baden-Württemberg"}},{"name":"Kastanienweg","postalCode":"32839","locality":"Steinheim","municipality":{"key":"05762032","name":"Steinheim, Stadt","type":"Stadt"},"district":{"key":"05762","name":"Höxter","type":"Kreis"},"federalState":{"key":"05","name":"Nordrhein-Westfalen"}},{"name":"Kastanienweg","postalCode":"89555","locality":"Steinheim am Albuch","municipality":{"key":"08135032","name":"Steinheim am Albuch","type":"Kreisangehörige_Gemeinde"},"district":{"key":"08135","name":"Heidenheim","type":"Landkreis"},"federalState":{"key":"08","name":"Baden-Württemberg"}},{"name":"Kellerwaldsträßle","postalCode":"89555","locality":"Steinheim am Albuch","municipality":{"key":"08135032","name":"Steinheim am Albuch","type":"Kreisangehörige_Gemeinde"},"district":{"key":"08135","name":"Heidenheim","type":"Landkreis"},"federalState":{"key":"08","name":"Baden-Württemberg"}},{"name":"Keltergasse","postalCode":"71711","locality":"Steinheim an der Murr","municipality":{"key":"08118070","name":"Steinheim an der Murr, Stadt","type":"Stadt"},"district":{"key":"08118","name":"Ludwigsburg","type":"Landkreis"},"federalState":{"key":"08","name":"Baden-Württemberg"}},{"name":"Kelterstr.","postalCode":"71711","locality":"Steinheim an der Murr","municipality":{"key":"08118070","name":"Steinheim an der Murr, Stadt","type":"Stadt"},"district":{"key":"08118","name":"Ludwigsburg","type":"Landkreis"},"federalState":{"key":"08","name":"Baden-Württemberg"}},{"name":"Kempener Weg","postalCode":"32839","locality":"Steinheim","municipality":{"key":"05762032","name":"Steinheim, Stadt","type":"Stadt"},"district":{"key":"05762","name":"Höxter","type":"Kreis"},"federalState":{"key":"05","name":"Nordrhein-Westfalen"}},{"name":"Keplerstr.","postalCode":"89555","locality":"Steinheim am Albuch","municipality":{"key":"08135032","name":"Steinheim am Albuch","type":"Kreisangehörige_Gemeinde"},"district":{"key":"08135","name":"Heidenheim","type":"Landkreis"},"federalState":{"key":"08","name":"Baden-Württemberg"}},{"name":"Kerbenhausträßle","postalCode":"89555","locality":"Steinheim am Albuch","municipality":{"key":"08135032","name":"Steinheim am Albuch","type":"Kreisangehörige_Gemeinde"},"district":{"key":"08135","name":"Heidenheim","type":"Landkreis"},"federalState":{"key":"08","name":"Baden-Württemberg"}},{"name":"Kerbenweg","postalCode":"89555","locality":"Steinheim am Albuch","municipality":{"key":"08135032","name":"Steinheim am Albuch","type":"Kreisangehörige_Gemeinde"},"district":{"key":"08135","name":"Heidenheim","type":"Landkreis"},"federalState":{"key":"08","name":"Baden-Württemberg"}},{"name":"Kesselecke","postalCode":"32839","locality":"Steinheim","municipality":{"key":"05762032","name":"Steinheim, Stadt","type":"Stadt"},"district":{"key":"05762","name":"Höxter","type":"Kreis"},"federalState":{"key":"05","name":"Nordrhein-Westfalen"}},{"name":"Kettelerstr.","postalCode":"32839","locality":"Steinheim","municipality":{"key":"05762032","name":"Steinheim, Stadt","type":"Stadt"},"district":{"key":"05762","name":"Höxter","type":"Kreis"},"federalState":{"key":"05","name":"Nordrhein-Westfalen"}},{"name":"Kiefernweg","postalCode":"89555","locality":"Steinheim am Albuch","municipality":{"key":"08135032","name":"Steinheim am Albuch","type":"Kreisangehörige_Gemeinde"},"district":{"key":"08135","name":"Heidenheim","type":"Landkreis"},"federalState":{"key":"08","name":"Baden-Württemberg"}},{"name":"Kiesweg","postalCode":"71711","locality":"Steinheim an der Murr","municipality":{"key":"08118070","name":"Steinheim an der Murr, Stadt","type":"Stadt"},"district":{"key":"08118","name":"Ludwigsburg","type":"Landkreis"},"federalState":{"key":"08","name":"Baden-Württemberg"}},{"name":"Kilianstr.","postalCode":"32839","locality":"Steinheim","municipality":{"key":"05762032","name":"Steinheim, Stadt","type":"Stadt"},"district":{"key":"05762","name":"Höxter","type":"Kreis"},"federalState":{"key":"05","name":"Nordrhein-Westfalen"}},{"name":"Kirchberg","postalCode":"89555","locality":"Steinheim am Albuch","municipality":{"key":"08135032","name":"Steinheim am Albuch","type":"Kreisangehörige_Gemeinde"},"district":{"key":"08135","name":"Heidenheim","type":"Landkreis"},"federalState":{"key":"08","name":"Baden-Württemberg"}},{"name":"Kirch-Park","postalCode":"32839","locality":"Steinheim","municipality":{"key":"05762032","name":"Steinheim, Stadt","type":"Stadt"},"district":{"key":"05762","name":"Höxter","type":"Kreis"},"federalState":{"key":"05","name":"Nordrhein-Westfalen"}},{"name":"Kirchplatz","postalCode":"32839","locality":"Steinheim","municipality":{"key":"05762032","name":"Steinheim, Stadt","type":"Stadt"},"district":{"key":"05762","name":"Höxter","type":"Kreis"},"federalState":{"key":"05","name":"Nordrhein-Westfalen"}},{"name":"Kirchplatz","postalCode":"71711","locality":"Steinheim an der Murr","municipality":{"key":"08118070","name":"Steinheim an der Murr, Stadt","type":"Stadt"},"district":{"key":"08118","name":"Ludwigsburg","type":"Landkreis"},"federalState":{"key":"08","name":"Baden-Württemberg"}},{"name":"Kirchstr.","postalCode":"71711","locality":"Steinheim an der Murr","municipality":{"key":"08118070","name":"Steinheim an der Murr, Stadt","type":"Stadt"},"district":{"key":"08118","name":"Ludwigsburg","type":"Landkreis"},"federalState":{"key":"08","name":"Baden-Württemberg"}},{"name":"Kirchstr.","postalCode":"89555","locality":"Steinheim am Albuch","municipality":{"key":"08135032","name":"Steinheim am Albuch","type":"Kreisangehörige_Gemeinde"},"district":{"key":"08135","name":"Heidenheim","type":"Landkreis"},"federalState":{"key":"08","name":"Baden-Württemberg"}},{"name":"Kirchweg","postalCode":"32839","locality":"Steinheim","municipality":{"key":"05762032","name":"Steinheim, Stadt","type":"Stadt"},"district":{"key":"05762","name":"Höxter","type":"Kreis"},"federalState":{"key":"05","name":"Nordrhein-Westfalen"}},{"name":"Kleinbottwarer Str.","postalCode":"71711","locality":"Steinheim an der Murr","municipality":{"key":"08118070","name":"Steinheim an der Murr, Stadt","type":"Stadt"},"district":{"key":"08118","name":"Ludwigsburg","type":"Landkreis"},"federalState":{"key":"08","name":"Baden-Württemberg"}},{"name":"Kleines Feldle","postalCode":"89555","locality":"Steinheim am Albuch","municipality":{"key":"08135032","name":"Steinheim am Albuch","type":"Kreisangehörige_Gemeinde"},"district":{"key":"08135","name":"Heidenheim","type":"Landkreis"},"federalState":{"key":"08","name":"Baden-Württemberg"}},{"name":"Kleinfelderstr.","postalCode":"71711","locality":"Steinheim an der Murr","municipality":{"key":"08118070","name":"Steinheim an der Murr, Stadt","type":"Stadt"},"district":{"key":"08118","name":"Ludwigsburg","type":"Landkreis"},"federalState":{"key":"08","name":"Baden-Württemberg"}},{"name":"Klosterhof","postalCode":"71711","locality":"Steinheim an der Murr","municipality":{"key":"08118070","name":"Steinheim an der Murr, Stadt","type":"Stadt"},"district":{"key":"08118","name":"Ludwigsburg","type":"Landkreis"},"federalState":{"key":"08","name":"Baden-Württemberg"}},{"name":"Klosterhof","postalCode":"89555","locality":"Steinheim am Albuch","municipality":{"key":"08135032","name":"Steinheim am Albuch","type":"Kreisangehörige_Gemeinde"},"district":{"key":"08135","name":"Heidenheim","type":"Landkreis"},"federalState":{"key":"08","name":"Baden-Württemberg"}},{"name":"Klösterlesträßle","postalCode":"89555","locality":"Steinheim am Albuch","municipality":{"key":"08135032","name":"Steinheim am Albuch","type":"Kreisangehörige_Gemeinde"},"district":{"key":"08135","name":"Heidenheim","type":"Landkreis"},"federalState":{"key":"08","name":"Baden-Württemberg"}},{"name":"Klosterstr.","postalCode":"89555","locality":"Steinheim am Albuch","municipality":{"key":"08135032","name":"Steinheim am Albuch","type":"Kreisangehörige_Gemeinde"},"district":{"key":"08135","name":"Heidenheim","type":"Landkreis"},"federalState":{"key":"08","name":"Baden-Württemberg"}},{"name":"Kohlmahdstr.","postalCode":"89555","locality":"Steinheim am Albuch","municipality":{"key":"08135032","name":"Steinheim am Albuch","type":"Kreisangehörige_Gemeinde"},"district":{"key":"08135","name":"Heidenheim","type":"Landkreis"},"federalState":{"key":"08","name":"Baden-Württemberg"}},{"name":"Kohlsteige","postalCode":"89555","locality":"Steinheim am Albuch","municipality":{"key":"08135032","name":"Steinheim am Albuch","type":"Kreisangehörige_Gemeinde"},"district":{"key":"08135","name":"Heidenheim","type":"Landkreis"},"federalState":{"key":"08","name":"Baden-Württemberg"}},{"name":"Kohlsträßchen","postalCode":"89555","locality":"Steinheim am Albuch","municipality":{"key":"08135032","name":"Steinheim am Albuch","type":"Kreisangehörige_Gemeinde"},"district":{"key":"08135","name":"Heidenheim","type":"Landkreis"},"federalState":{"key":"08","name":"Baden-Württemberg"}},{"name":"Kolbengasse","postalCode":"89555","locality":"Steinheim am Albuch","municipality":{"key":"08135032","name":"Steinheim am Albuch","type":"Kreisangehörige_Gemeinde"},"district":{"key":"08135","name":"Heidenheim","type":"Landkreis"},"federalState":{"key":"08","name":"Baden-Württemberg"}},{"name":"Kolpingstr.","postalCode":"32839","locality":"Steinheim","municipality":{"key":"05762032","name":"Steinheim, Stadt","type":"Stadt"},"district":{"key":"05762","name":"Höxter","type":"Kreis"},"federalState":{"key":"05","name":"Nordrhein-Westfalen"}},{"name":"Königsberger Str.","postalCode":"32839","locality":"Steinheim","municipality":{"key":"05762032","name":"Steinheim, Stadt","type":"Stadt"},"district":{"key":"05762","name":"Höxter","type":"Kreis"},"federalState":{"key":"05","name":"Nordrhein-Westfalen"}},{"name":"Königsbronner Str.","postalCode":"89555","locality":"Steinheim am Albuch","municipality":{"key":"08135032","name":"Steinheim am Albuch","type":"Kreisangehörige_Gemeinde"},"district":{"key":"08135","name":"Heidenheim","type":"Landkreis"},"federalState":{"key":"08","name":"Baden-Württemberg"}},{"name":"Königsbronnerweg","postalCode":"73566","locality":"Steinheim am Albuch","municipality":{"key":"08135032","name":"Steinheim am Albuch","type":"Kreisangehörige_Gemeinde"},"district":{"key":"08135","name":"Heidenheim","type":"Landkreis"},"federalState":{"key":"08","name":"Baden-Württemberg"}},{"name":"Königsweg","postalCode":"71711","locality":"Steinheim an der Murr","municipality":{"key":"08118070","name":"Steinheim an der Murr, Stadt","type":"Stadt"},"district":{"key":"08118","name":"Ludwigsburg","type":"Landkreis"},"federalState":{"key":"08","name":"Baden-Württemberg"}},{"name":"Koobenweg","postalCode":"32839","locality":"Steinheim","municipality":{"key":"05762032","name":"Steinheim, Stadt","type":"Stadt"},"district":{"key":"05762","name":"Höxter","type":"Kreis"},"federalState":{"key":"05","name":"Nordrhein-Westfalen"}},{"name":"Korallenweg","postalCode":"89555","locality":"Steinheim am Albuch","municipality":{"key":"08135032","name":"Steinheim am Albuch","type":"Kreisangehörige_Gemeinde"},"district":{"key":"08135","name":"Heidenheim","type":"Landkreis"},"federalState":{"key":"08","name":"Baden-Württemberg"}},{"name":"Kösliner Str.","postalCode":"32839","locality":"Steinheim","municipality":{"key":"05762032","name":"Steinheim, Stadt","type":"Stadt"},"district":{"key":"05762","name":"Höxter","type":"Kreis"},"federalState":{"key":"05","name":"Nordrhein-Westfalen"}},{"name":"Laakeweg","postalCode":"32839","locality":"Steinheim","municipality":{"key":"05762032","name":"Steinheim, Stadt","type":"Stadt"},"district":{"key":"05762","name":"Höxter","type":"Kreis"},"federalState":{"key":"05","name":"Nordrhein-Westfalen"}},{"name":"Laborantenhaussträßle","postalCode":"89555","locality":"Steinheim am Albuch","municipality":{"key":"08135032","name":"Steinheim am Albuch","type":"Kreisangehörige_Gemeinde"},"district":{"key":"08135","name":"Heidenheim","type":"Landkreis"},"federalState":{"key":"08","name":"Baden-Württemberg"}},{"name":"Lakemeierstr.","postalCode":"32839","locality":"Steinheim","municipality":{"key":"05762032","name":"Steinheim, Stadt","type":"Stadt"},"district":{"key":"05762","name":"Höxter","type":"Kreis"},"federalState":{"key":"05","name":"Nordrhein-Westfalen"}},{"name":"Lammgasse","postalCode":"71711","locality":"Steinheim an der Murr","municipality":{"key":"08118070","name":"Steinheim an der Murr, Stadt","type":"Stadt"},"district":{"key":"08118","name":"Ludwigsburg","type":"Landkreis"},"federalState":{"key":"08","name":"Baden-Württemberg"}},{"name":"Lange Richtstatt","postalCode":"71711","locality":"Steinheim an der Murr","municipality":{"key":"08118070","name":"Steinheim an der Murr, Stadt","type":"Stadt"},"district":{"key":"08118","name":"Ludwigsburg","type":"Landkreis"},"federalState":{"key":"08","name":"Baden-Württemberg"}},{"name":"Lange Str.","postalCode":"32839","locality":"Steinheim","municipality":{"key":"05762032","name":"Steinheim, Stadt","type":"Stadt"},"district":{"key":"05762","name":"Höxter","type":"Kreis"},"federalState":{"key":"05","name":"Nordrhein-Westfalen"}},{"name":"Lärchenbuckelweg","postalCode":"89555","locality":"Steinheim am Albuch","municipality":{"key":"08135032","name":"Steinheim am Albuch","type":"Kreisangehörige_Gemeinde"},"district":{"key":"08135","name":"Heidenheim","type":"Landkreis"},"federalState":{"key":"08","name":"Baden-Württemberg"}},{"name":"Lärchenstr.","postalCode":"89555","locality":"Steinheim am Albuch","municipality":{"key":"08135032","name":"Steinheim am Albuch","type":"Kreisangehörige_Gemeinde"},"district":{"key":"08135","name":"Heidenheim","type":"Landkreis"},"federalState":{"key":"08","name":"Baden-Württemberg"}},{"name":"Lausitzer Weg","postalCode":"89555","locality":"Steinheim am Albuch","municipality":{"key":"08135032","name":"Steinheim am Albuch","type":"Kreisangehörige_Gemeinde"},"district":{"key":"08135","name":"Heidenheim","type":"Landkreis"},"federalState":{"key":"08","name":"Baden-Württemberg"}},{"name":"Lavendelweg","postalCode":"71711","locality":"Steinheim an der Murr","municipality":{"key":"08118070","name":"Steinheim an der Murr, Stadt","type":"Stadt"},"district":{"key":"08118","name":"Ludwigsburg","type":"Landkreis"},"federalState":{"key":"08","name":"Baden-Württemberg"}},{"name":"Lechfeldsträßchen","postalCode":"89555","locality":"Steinheim am Albuch","municipality":{"key":"08135032","name":"Steinheim am Albuch","type":"Kreisangehörige_Gemeinde"},"district":{"key":"08135","name":"Heidenheim","type":"Landkreis"},"federalState":{"key":"08","name":"Baden-Württemberg"}},{"name":"Lehenstr.","postalCode":"71711","locality":"Steinheim an der Murr","municipality":{"key":"08118070","name":"Steinheim an der Murr, Stadt","type":"Stadt"},"district":{"key":"08118","name":"Ludwigsburg","type":"Landkreis"},"federalState":{"key":"08","name":"Baden-Württemberg"}},{"name":"Lehrgasse","postalCode":"71711","locality":"Steinheim an der Murr","municipality":{"key":"08118070","name":"Steinheim an der Murr, Stadt","type":"Stadt"},"district":{"key":"08118","name":"Ludwigsburg","type":"Landkreis"},"federalState":{"key":"08","name":"Baden-Württemberg"}},{"name":"Leimgrubenweg","postalCode":"89555","locality":"Steinheim am Albuch","municipality":{"key":"08135032","name":"Steinheim am Albuch","type":"Kreisangehörige_Gemeinde"},"district":{"key":"08135","name":"Heidenheim","type":"Landkreis"},"federalState":{"key":"08","name":"Baden-Württemberg"}},{"name":"Leopoldstaler Str.","postalCode":"32839","locality":"Steinheim","municipality":{"key":"05762032","name":"Steinheim, Stadt","type":"Stadt"},"district":{"key":"05762","name":"Höxter","type":"Kreis"},"federalState":{"key":"05","name":"Nordrhein-Westfalen"}},{"name":"Lerchenhofstr.","postalCode":"71711","locality":"Steinheim an der Murr","municipality":{"key":"08118070","name":"Steinheim an der Murr, Stadt","type":"Stadt"},"district":{"key":"08118","name":"Ludwigsburg","type":"Landkreis"},"federalState":{"key":"08","name":"Baden-Württemberg"}},{"name":"Lessingstr.","postalCode":"71711","locality":"Steinheim an der Murr","municipality":{"key":"08118070","name":"Steinheim an der Murr, Stadt","type":"Stadt"},"district":{"key":"08118","name":"Ludwigsburg","type":"Landkreis"},"federalState":{"key":"08","name":"Baden-Württemberg"}},{"name":"Libellenweg","postalCode":"71711","locality":"Steinheim an der Murr","municipality":{"key":"08118070","name":"Steinheim an der Murr, Stadt","type":"Stadt"},"district":{"key":"08118","name":"Ludwigsburg","type":"Landkreis"},"federalState":{"key":"08","name":"Baden-Württemberg"}},{"name":"Liboriusstr.","postalCode":"32839","locality":"Steinheim","municipality":{"key":"05762032","name":"Steinheim, Stadt","type":"Stadt"},"district":{"key":"05762","name":"Höxter","type":"Kreis"},"federalState":{"key":"05","name":"Nordrhein-Westfalen"}},{"name":"Ligusterweg","postalCode":"89555","locality":"Steinheim am Albuch","municipality":{"key":"08135032","name":"Steinheim am Albuch","type":"Kreisangehörige_Gemeinde"},"district":{"key":"08135","name":"Heidenheim","type":"Landkreis"},"federalState":{"key":"08","name":"Baden-Württemberg"}},{"name":"Lilienstr.","postalCode":"32839","locality":"Steinheim","municipality":{"key":"05762032","name":"Steinheim, Stadt","type":"Stadt"},"district":{"key":"05762","name":"Höxter","type":"Kreis"},"federalState":{"key":"05","name":"Nordrhein-Westfalen"}},{"name":"Lilienweg","postalCode":"89555","locality":"Steinheim am Albuch","municipality":{"key":"08135032","name":"Steinheim am Albuch","type":"Kreisangehörige_Gemeinde"},"district":{"key":"08135","name":"Heidenheim","type":"Landkreis"},"federalState":{"key":"08","name":"Baden-Württemberg"}},{"name":"Lindenhügel","postalCode":"32839","locality":"Steinheim","municipality":{"key":"05762032","name":"Steinheim, Stadt","type":"Stadt"},"district":{"key":"05762","name":"Höxter","type":"Kreis"},"federalState":{"key":"05","name":"Nordrhein-Westfalen"}},{"name":"Lindenkamp","postalCode":"32839","locality":"Steinheim","municipality":{"key":"05762032","name":"Steinheim, Stadt","type":"Stadt"},"district":{"key":"05762","name":"Höxter","type":"Kreis"},"federalState":{"key":"05","name":"Nordrhein-Westfalen"}},{"name":"Lindenstr.","postalCode":"32839","locality":"Steinheim","municipality":{"key":"05762032","name":"Steinheim, Stadt","type":"Stadt"},"district":{"key":"05762","name":"Höxter","type":"Kreis"},"federalState":{"key":"05","name":"Nordrhein-Westfalen"}},{"name":"Lindenstr.","postalCode":"71711","locality":"Steinheim an der Murr","municipality":{"key":"08118070","name":"Steinheim an der Murr, Stadt","type":"Stadt"},"district":{"key":"08118","name":"Ludwigsburg","type":"Landkreis"},"federalState":{"key":"08","name":"Baden-Württemberg"}},{"name":"Lindenstr.","postalCode":"89555","locality":"Steinheim am Albuch","municipality":{"key":"08135032","name":"Steinheim am Albuch","type":"Kreisangehörige_Gemeinde"},"district":{"key":"08135","name":"Heidenheim","type":"Landkreis"},"federalState":{"key":"08","name":"Baden-Württemberg"}},{"name":"Linsenbergstr.","postalCode":"71711","locality":"Steinheim an der Murr","municipality":{"key":"08118070","name":"Steinheim an der Murr, Stadt","type":"Stadt"},"district":{"key":"08118","name":"Ludwigsburg","type":"Landkreis"},"federalState":{"key":"08","name":"Baden-Württemberg"}},{"name":"Lipper Tor","postalCode":"32839","locality":"Steinheim","municipality":{"key":"05762032","name":"Steinheim, Stadt","type":"Stadt"},"district":{"key":"05762","name":"Höxter","type":"Kreis"},"federalState":{"key":"05","name":"Nordrhein-Westfalen"}},{"name":"Lohers Kamp","postalCode":"32839","locality":"Steinheim","municipality":{"key":"05762032","name":"Steinheim, Stadt","type":"Stadt"},"district":{"key":"05762","name":"Höxter","type":"Kreis"},"federalState":{"key":"05","name":"Nordrhein-Westfalen"}},{"name":"Lönsstr.","postalCode":"71711","locality":"Steinheim an der Murr","municipality":{"key":"08118070","name":"Steinheim an der Murr, Stadt","type":"Stadt"},"district":{"key":"08118","name":"Ludwigsburg","type":"Landkreis"},"federalState":{"key":"08","name":"Baden-Württemberg"}},{"name":"Loosbuchweg","postalCode":"73566","locality":"Steinheim am Albuch","municipality":{"key":"08135032","name":"Steinheim am Albuch","type":"Kreisangehörige_Gemeinde"},"district":{"key":"08135","name":"Heidenheim","type":"Landkreis"},"federalState":{"key":"08","name":"Baden-Württemberg"}},{"name":"Lortzingstr.","postalCode":"71711","locality":"Steinheim an der Murr","municipality":{"key":"08118070","name":"Steinheim an der Murr, Stadt","type":"Stadt"},"district":{"key":"08118","name":"Ludwigsburg","type":"Landkreis"},"federalState":{"key":"08","name":"Baden-Württemberg"}},{"name":"Lother Höhe","postalCode":"32839","locality":"Steinheim","municipality":{"key":"05762032","name":"Steinheim, Stadt","type":"Stadt"},"district":{"key":"05762","name":"Höxter","type":"Kreis"},"federalState":{"key":"05","name":"Nordrhein-Westfalen"}},{"name":"Lother Str.","postalCode":"32839","locality":"Steinheim","municipality":{"key":"05762032","name":"Steinheim, Stadt","type":"Stadt"},"district":{"key":"05762","name":"Höxter","type":"Kreis"},"federalState":{"key":"05","name":"Nordrhein-Westfalen"}},{"name":"Lotstr.","postalCode":"71711","locality":"Steinheim an der Murr","municipality":{"key":"08118070","name":"Steinheim an der Murr, Stadt","type":"Stadt"},"district":{"key":"08118","name":"Ludwigsburg","type":"Landkreis"},"federalState":{"key":"08","name":"Baden-Württemberg"}},{"name":"Louis-Armstrong-Str.","postalCode":"71711","locality":"Steinheim an der Murr","municipality":{"key":"08118070","name":"Steinheim an der Murr, Stadt","type":"Stadt"},"district":{"key":"08118","name":"Ludwigsburg","type":"Landkreis"},"federalState":{"key":"08","name":"Baden-Württemberg"}},{"name":"Ludwig-Erhard-Str.","postalCode":"32839","locality":"Steinheim","municipality":{"key":"05762032","name":"Steinheim, Stadt","type":"Stadt"},"district":{"key":"05762","name":"Höxter","type":"Kreis"},"federalState":{"key":"05","name":"Nordrhein-Westfalen"}},{"name":"Ludwigsburger Str.","postalCode":"71711","locality":"Steinheim an der Murr","municipality":{"key":"08118070","name":"Steinheim an der Murr, Stadt","type":"Stadt"},"district":{"key":"08118","name":"Ludwigsburg","type":"Landkreis"},"federalState":{"key":"08","name":"Baden-Württemberg"}},{"name":"Lugenbeutelweg","postalCode":"89555","locality":"Steinheim am Albuch","municipality":{"key":"08135032","name":"Steinheim am Albuch","type":"Kreisangehörige_Gemeinde"},"district":{"key":"08135","name":"Heidenheim","type":"Landkreis"},"federalState":{"key":"08","name":"Baden-Württemberg"}},{"name":"Luigentalsträßle","postalCode":"89555","locality":"Steinheim am Albuch","municipality":{"key":"08135032","name":"Steinheim am Albuch","type":"Kreisangehörige_Gemeinde"},"district":{"key":"08135","name":"Heidenheim","type":"Landkreis"},"federalState":{"key":"08","name":"Baden-Württemberg"}},{"name":"Lukasstr.","postalCode":"32839","locality":"Steinheim","municipality":{"key":"05762032","name":"Steinheim, Stadt","type":"Stadt"},"district":{"key":"05762","name":"Höxter","type":"Kreis"},"federalState":{"key":"05","name":"Nordrhein-Westfalen"}},{"name":"Lurchenweg","postalCode":"71711","locality":"Steinheim an der Murr","municipality":{"key":"08118070","name":"Steinheim an der Murr, Stadt","type":"Stadt"},"district":{"key":"08118","name":"Ludwigsburg","type":"Landkreis"},"federalState":{"key":"08","name":"Baden-Württemberg"}},{"name":"Lutherstr.","postalCode":"71711","locality":"Steinheim an der Murr","municipality":{"key":"08118070","name":"Steinheim an der Murr, Stadt","type":"Stadt"},"district":{"key":"08118","name":"Ludwigsburg","type":"Landkreis"},"federalState":{"key":"08","name":"Baden-Württemberg"}},{"name":"Mähderweg","postalCode":"89555","locality":"Steinheim am Albuch","municipality":{"key":"08135032","name":"Steinheim am Albuch","type":"Kreisangehörige_Gemeinde"},"district":{"key":"08135","name":"Heidenheim","type":"Landkreis"},"federalState":{"key":"08","name":"Baden-Württemberg"}},{"name":"Manöversträßchen","postalCode":"89555","locality":"Steinheim am Albuch","municipality":{"key":"08135032","name":"Steinheim am Albuch","type":"Kreisangehörige_Gemeinde"},"district":{"key":"08135","name":"Heidenheim","type":"Landkreis"},"federalState":{"key":"08","name":"Baden-Württemberg"}},{"name":"Marbacher Str.","postalCode":"71711","locality":"Steinheim an der Murr","municipality":{"key":"08118070","name":"Steinheim an der Murr, Stadt","type":"Stadt"},"district":{"key":"08118","name":"Ludwigsburg","type":"Landkreis"},"federalState":{"key":"08","name":"Baden-Württemberg"}},{"name":"Marbacher Weg","postalCode":"71711","locality":"Steinheim an der Murr","municipality":{"key":"08118070","name":"Steinheim an der Murr, Stadt","type":"Stadt"},"district":{"key":"08118","name":"Ludwigsburg","type":"Landkreis"},"federalState":{"key":"08","name":"Baden-Württemberg"}},{"name":"Marderweg","postalCode":"89555","locality":"Steinheim am Albuch","municipality":{"key":"08135032","name":"Steinheim am Albuch","type":"Kreisangehörige_Gemeinde"},"district":{"key":"08135","name":"Heidenheim","type":"Landkreis"},"federalState":{"key":"08","name":"Baden-Württemberg"}},{"name":"Marienstr.","postalCode":"32839","locality":"Steinheim","municipality":{"key":"05762032","name":"Steinheim, Stadt","type":"Stadt"},"district":{"key":"05762","name":"Höxter","type":"Kreis"},"federalState":{"key":"05","name":"Nordrhein-Westfalen"}},{"name":"Marienstr.","postalCode":"89555","locality":"Steinheim am Albuch","municipality":{"key":"08135032","name":"Steinheim am Albuch","type":"Kreisangehörige_Gemeinde"},"district":{"key":"08135","name":"Heidenheim","type":"Landkreis"},"federalState":{"key":"08","name":"Baden-Württemberg"}},{"name":"Marktstr.","postalCode":"32839","locality":"Steinheim","municipality":{"key":"05762032","name":"Steinheim, Stadt","type":"Stadt"},"district":{"key":"05762","name":"Höxter","type":"Kreis"},"federalState":{"key":"05","name":"Nordrhein-Westfalen"}},{"name":"Marktstr.","postalCode":"71711","locality":"Steinheim an der Murr","municipality":{"key":"08118070","name":"Steinheim an der Murr, Stadt","type":"Stadt"},"district":{"key":"08118","name":"Ludwigsburg","type":"Landkreis"},"federalState":{"key":"08","name":"Baden-Württemberg"}},{"name":"Markusweg","postalCode":"32839","locality":"Steinheim","municipality":{"key":"05762032","name":"Steinheim, Stadt","type":"Stadt"},"district":{"key":"05762","name":"Höxter","type":"Kreis"},"federalState":{"key":"05","name":"Nordrhein-Westfalen"}},{"name":"Martin-Luther-Weg","postalCode":"89555","locality":"Steinheim am Albuch","municipality":{"key":"08135032","name":"Steinheim am Albuch","type":"Kreisangehörige_Gemeinde"},"district":{"key":"08135","name":"Heidenheim","type":"Landkreis"},"federalState":{"key":"08","name":"Baden-Württemberg"}},{"name":"Mauertal-Loipe","postalCode":"89555","locality":"Steinheim am Albuch","municipality":{"key":"08135032","name":"Steinheim am Albuch","type":"Kreisangehörige_Gemeinde"},"district":{"key":"08135","name":"Heidenheim","type":"Landkreis"},"federalState":{"key":"08","name":"Baden-Württemberg"}},{"name":"Mauertalstr.","postalCode":"89555","locality":"Steinheim am Albuch","municipality":{"key":"08135032","name":"Steinheim am Albuch","type":"Kreisangehörige_Gemeinde"},"district":{"key":"08135","name":"Heidenheim","type":"Landkreis"},"federalState":{"key":"08","name":"Baden-Württemberg"}},{"name":"Max-Eyth-Str.","postalCode":"89555","locality":"Steinheim am Albuch","municipality":{"key":"08135032","name":"Steinheim am Albuch","type":"Kreisangehörige_Gemeinde"},"district":{"key":"08135","name":"Heidenheim","type":"Landkreis"},"federalState":{"key":"08","name":"Baden-Württemberg"}},{"name":"Meisenstr.","postalCode":"71711","locality":"Steinheim an der Murr","municipality":{"key":"08118070","name":"Steinheim an der Murr, Stadt","type":"Stadt"},"district":{"key":"08118","name":"Ludwigsburg","type":"Landkreis"},"federalState":{"key":"08","name":"Baden-Württemberg"}},{"name":"Mergelkuhle","postalCode":"32839","locality":"Steinheim","municipality":{"key":"05762032","name":"Steinheim, Stadt","type":"Stadt"},"district":{"key":"05762","name":"Höxter","type":"Kreis"},"federalState":{"key":"05","name":"Nordrhein-Westfalen"}},{"name":"Mittelgasse","postalCode":"89555","locality":"Steinheim am Albuch","municipality":{"key":"08135032","name":"Steinheim am Albuch","type":"Kreisangehörige_Gemeinde"},"district":{"key":"08135","name":"Heidenheim","type":"Landkreis"},"federalState":{"key":"08","name":"Baden-Württemberg"}},{"name":"Mittelrain","postalCode":"89555","locality":"Steinheim am Albuch","municipality":{"key":"08135032","name":"Steinheim am Albuch","type":"Kreisangehörige_Gemeinde"},"district":{"key":"08135","name":"Heidenheim","type":"Landkreis"},"federalState":{"key":"08","name":"Baden-Württemberg"}},{"name":"Mittelschloss","postalCode":"71711","locality":"Steinheim an der Murr","municipality":{"key":"08118070","name":"Steinheim an der Murr, Stadt","type":"Stadt"},"district":{"key":"08118","name":"Ludwigsburg","type":"Landkreis"},"federalState":{"key":"08","name":"Baden-Württemberg"}},{"name":"Mittlere Str.","postalCode":"32839","locality":"Steinheim","municipality":{"key":"05762032","name":"Steinheim, Stadt","type":"Stadt"},"district":{"key":"05762","name":"Höxter","type":"Kreis"},"federalState":{"key":"05","name":"Nordrhein-Westfalen"}},{"name":"Mooshauweg","postalCode":"73566","locality":"Steinheim am Albuch","municipality":{"key":"08135032","name":"Steinheim am Albuch","type":"Kreisangehörige_Gemeinde"},"district":{"key":"08135","name":"Heidenheim","type":"Landkreis"},"federalState":{"key":"08","name":"Baden-Württemberg"}},{"name":"Mörikestr.","postalCode":"71711","locality":"Steinheim an der Murr","municipality":{"key":"08118070","name":"Steinheim an der Murr, Stadt","type":"Stadt"},"district":{"key":"08118","name":"Ludwigsburg","type":"Landkreis"},"federalState":{"key":"08","name":"Baden-Württemberg"}},{"name":"Mörikestr.","postalCode":"89555","locality":"Steinheim am Albuch","municipality":{"key":"08135032","name":"Steinheim am Albuch","type":"Kreisangehörige_Gemeinde"},"district":{"key":"08135","name":"Heidenheim","type":"Landkreis"},"federalState":{"key":"08","name":"Baden-Württemberg"}},{"name":"Mörthstr.","postalCode":"32839","locality":"Steinheim","municipality":{"key":"05762032","name":"Steinheim, Stadt","type":"Stadt"},"district":{"key":"05762","name":"Höxter","type":"Kreis"},"federalState":{"key":"05","name":"Nordrhein-Westfalen"}},{"name":"Mozartstr.","postalCode":"32839","locality":"Steinheim","municipality":{"key":"05762032","name":"Steinheim, Stadt","type":"Stadt"},"district":{"key":"05762","name":"Höxter","type":"Kreis"},"federalState":{"key":"05","name":"Nordrhein-Westfalen"}},{"name":"Mozartstr.","postalCode":"71711","locality":"Steinheim an der Murr","municipality":{"key":"08118070","name":"Steinheim an der Murr, Stadt","type":"Stadt"},"district":{"key":"08118","name":"Ludwigsburg","type":"Landkreis"},"federalState":{"key":"08","name":"Baden-Württemberg"}},{"name":"Mozartstr.","postalCode":"89555","locality":"Steinheim am Albuch","municipality":{"key":"08135032","name":"Steinheim am Albuch","type":"Kreisangehörige_Gemeinde"},"district":{"key":"08135","name":"Heidenheim","type":"Landkreis"},"federalState":{"key":"08","name":"Baden-Württemberg"}},{"name":"Mühlbachstr.","postalCode":"71711","locality":"Steinheim an der Murr","municipality":{"key":"08118070","name":"Steinheim an der Murr, Stadt","type":"Stadt"},"district":{"key":"08118","name":"Ludwigsburg","type":"Landkreis"},"federalState":{"key":"08","name":"Baden-Württemberg"}},{"name":"Mühlhaldesträßle","postalCode":"89555","locality":"Steinheim am Albuch","municipality":{"key":"08135032","name":"Steinheim am Albuch","type":"Kreisangehörige_Gemeinde"},"district":{"key":"08135","name":"Heidenheim","type":"Landkreis"},"federalState":{"key":"08","name":"Baden-Württemberg"}},{"name":"Mühlweg","postalCode":"71711","locality":"Steinheim an der Murr","municipality":{"key":"08118070","name":"Steinheim an der Murr, Stadt","type":"Stadt"},"district":{"key":"08118","name":"Ludwigsburg","type":"Landkreis"},"federalState":{"key":"08","name":"Baden-Württemberg"}},{"name":"Mühlweg","postalCode":"89555","locality":"Steinheim am Albuch","municipality":{"key":"08135032","name":"Steinheim am Albuch","type":"Kreisangehörige_Gemeinde"},"district":{"key":"08135","name":"Heidenheim","type":"Landkreis"},"federalState":{"key":"08","name":"Baden-Württemberg"}},{"name":"Müllerweg","postalCode":"89555","locality":"Steinheim am Albuch","municipality":{"key":"08135032","name":"Steinheim am Albuch","type":"Kreisangehörige_Gemeinde"},"district":{"key":"08135","name":"Heidenheim","type":"Landkreis"},"federalState":{"key":"08","name":"Baden-Württemberg"}},{"name":"Mundelsheimer Str.","postalCode":"71711","locality":"Steinheim an der Murr","municipality":{"key":"08118070","name":"Steinheim an der Murr, Stadt","type":"Stadt"},"district":{"key":"08118","name":"Ludwigsburg","type":"Landkreis"},"federalState":{"key":"08","name":"Baden-Württemberg"}},{"name":"Murrer Str.","postalCode":"71711","locality":"Steinheim an der Murr","municipality":{"key":"08118070","name":"Steinheim an der Murr, Stadt","type":"Stadt"},"district":{"key":"08118","name":"Ludwigsburg","type":"Landkreis"},"federalState":{"key":"08","name":"Baden-Württemberg"}},{"name":"Narzissenweg","postalCode":"89555","locality":"Steinheim am Albuch","municipality":{"key":"08135032","name":"Steinheim am Albuch","type":"Kreisangehörige_Gemeinde"},"district":{"key":"08135","name":"Heidenheim","type":"Landkreis"},"federalState":{"key":"08","name":"Baden-Württemberg"}},{"name":"Nelkenstr.","postalCode":"71711","locality":"Steinheim an der Murr","municipality":{"key":"08118070","name":"Steinheim an der Murr, Stadt","type":"Stadt"},"district":{"key":"08118","name":"Ludwigsburg","type":"Landkreis"},"federalState":{"key":"08","name":"Baden-Württemberg"}},{"name":"Nelkenweg","postalCode":"89555","locality":"Steinheim am Albuch","municipality":{"key":"08135032","name":"Steinheim am Albuch","type":"Kreisangehörige_Gemeinde"},"district":{"key":"08135","name":"Heidenheim","type":"Landkreis"},"federalState":{"key":"08","name":"Baden-Württemberg"}},{"name":"Nelly-Sachs-Weg","postalCode":"32839","locality":"Steinheim","municipality":{"key":"05762032","name":"Steinheim, Stadt","type":"Stadt"},"district":{"key":"05762","name":"Höxter","type":"Kreis"},"federalState":{"key":"05","name":"Nordrhein-Westfalen"}},{"name":"Neudorfer Str.","postalCode":"89555","locality":"Steinheim am Albuch","municipality":{"key":"08135032","name":"Steinheim am Albuch","type":"Kreisangehörige_Gemeinde"},"district":{"key":"08135","name":"Heidenheim","type":"Landkreis"},"federalState":{"key":"08","name":"Baden-Württemberg"}},{"name":"Neue Str.","postalCode":"32839","locality":"Steinheim","municipality":{"key":"05762032","name":"Steinheim, Stadt","type":"Stadt"},"district":{"key":"05762","name":"Höxter","type":"Kreis"},"federalState":{"key":"05","name":"Nordrhein-Westfalen"}},{"name":"Nibelungenweg","postalCode":"89555","locality":"Steinheim am Albuch","municipality":{"key":"08135032","name":"Steinheim am Albuch","type":"Kreisangehörige_Gemeinde"},"district":{"key":"08135","name":"Heidenheim","type":"Landkreis"},"federalState":{"key":"08","name":"Baden-Württemberg"}},{"name":"Nieheimer Str.","postalCode":"32839","locality":"Steinheim","municipality":{"key":"05762032","name":"Steinheim, Stadt","type":"Stadt"},"district":{"key":"05762","name":"Höxter","type":"Kreis"},"federalState":{"key":"05","name":"Nordrhein-Westfalen"}},{"name":"Nördlicher Grenzweg","postalCode":"89555","locality":"Steinheim am Albuch","municipality":{"key":"08135032","name":"Steinheim am Albuch","type":"Kreisangehörige_Gemeinde"},"district":{"key":"08135","name":"Heidenheim","type":"Landkreis"},"federalState":{"key":"08","name":"Baden-Württemberg"}},{"name":"Nordstr.","postalCode":"32839","locality":"Steinheim","municipality":{"key":"05762032","name":"Steinheim, Stadt","type":"Stadt"},"district":{"key":"05762","name":"Höxter","type":"Kreis"},"federalState":{"key":"05","name":"Nordrhein-Westfalen"}},{"name":"Oberer Bülteweg","postalCode":"32839","locality":"Steinheim","municipality":{"key":"05762032","name":"Steinheim, Stadt","type":"Stadt"},"district":{"key":"05762","name":"Höxter","type":"Kreis"},"federalState":{"key":"05","name":"Nordrhein-Westfalen"}},{"name":"Oberer Wiesenweg","postalCode":"32839","locality":"Steinheim","municipality":{"key":"05762032","name":"Steinheim, Stadt","type":"Stadt"},"district":{"key":"05762","name":"Höxter","type":"Kreis"},"federalState":{"key":"05","name":"Nordrhein-Westfalen"}},{"name":"Obere Seewiesen","postalCode":"71711","locality":"Steinheim an der Murr","municipality":{"key":"08118070","name":"Steinheim an der Murr, Stadt","type":"Stadt"},"district":{"key":"08118","name":"Ludwigsburg","type":"Landkreis"},"federalState":{"key":"08","name":"Baden-Württemberg"}},{"name":"Obere Str.","postalCode":"32839","locality":"Steinheim","municipality":{"key":"05762032","name":"Steinheim, Stadt","type":"Stadt"},"district":{"key":"05762","name":"Höxter","type":"Kreis"},"federalState":{"key":"05","name":"Nordrhein-Westfalen"}},{"name":"Obere Ziegelhütte","postalCode":"89555","locality":"Steinheim am Albuch","municipality":{"key":"08135032","name":"Steinheim am Albuch","type":"Kreisangehörige_Gemeinde"},"district":{"key":"08135","name":"Heidenheim","type":"Landkreis"},"federalState":{"key":"08","name":"Baden-Württemberg"}},{"name":"Ochsenmahdsträßle","postalCode":"89555","locality":"Steinheim am Albuch","municipality":{"key":"08135032","name":"Steinheim am Albuch","type":"Kreisangehörige_Gemeinde"},"district":{"key":"08135","name":"Heidenheim","type":"Landkreis"},"federalState":{"key":"08","name":"Baden-Württemberg"}},{"name":"Olgastr.","postalCode":"89555","locality":"Steinheim am Albuch","municipality":{"key":"08135032","name":"Steinheim am Albuch","type":"Kreisangehörige_Gemeinde"},"district":{"key":"08135","name":"Heidenheim","type":"Landkreis"},"federalState":{"key":"08","name":"Baden-Württemberg"}},{"name":"Ortheimer Weg","postalCode":"89555","locality":"Steinheim am Albuch","municipality":{"key":"08135032","name":"Steinheim am Albuch","type":"Kreisangehörige_Gemeinde"},"district":{"key":"08135","name":"Heidenheim","type":"Landkreis"},"federalState":{"key":"08","name":"Baden-Württemberg"}},{"name":"Ostalbstr.","postalCode":"89555","locality":"Steinheim am Albuch","municipality":{"key":"08135032","name":"Steinheim am Albuch","type":"Kreisangehörige_Gemeinde"},"district":{"key":"08135","name":"Heidenheim","type":"Landkreis"},"federalState":{"key":"08","name":"Baden-Württemberg"}},{"name":"Osterhome","postalCode":"32839","locality":"Steinheim","municipality":{"key":"05762032","name":"Steinheim, Stadt","type":"Stadt"},"district":{"key":"05762","name":"Höxter","type":"Kreis"},"federalState":{"key":"05","name":"Nordrhein-Westfalen"}},{"name":"Ostheimer Str.","postalCode":"89555","locality":"Steinheim am Albuch","municipality":{"key":"08135032","name":"Steinheim am Albuch","type":"Kreisangehörige_Gemeinde"},"district":{"key":"08135","name":"Heidenheim","type":"Landkreis"},"federalState":{"key":"08","name":"Baden-Württemberg"}},{"name":"Ostpreußenstr.","postalCode":"32839","locality":"Steinheim","municipality":{"key":"05762032","name":"Steinheim, Stadt","type":"Stadt"},"district":{"key":"05762","name":"Höxter","type":"Kreis"},"federalState":{"key":"05","name":"Nordrhein-Westfalen"}},{"name":"Oststr.","postalCode":"32839","locality":"Steinheim","municipality":{"key":"05762032","name":"Steinheim, Stadt","type":"Stadt"},"district":{"key":"05762","name":"Höxter","type":"Kreis"},"federalState":{"key":"05","name":"Nordrhein-Westfalen"}},{"name":"Ostwestfalenstr.","postalCode":"32839","locality":"Steinheim","municipality":{"key":"05762032","name":"Steinheim, Stadt","type":"Stadt"},"district":{"key":"05762","name":"Höxter","type":"Kreis"},"federalState":{"key":"05","name":"Nordrhein-Westfalen"}},{"name":"Ottenhausener Str.","postalCode":"32839","locality":"Steinheim","municipality":{"key":"05762032","name":"Steinheim, Stadt","type":"Stadt"},"district":{"key":"05762","name":"Höxter","type":"Kreis"},"federalState":{"key":"05","name":"Nordrhein-Westfalen"}},{"name":"Otternweg","postalCode":"71711","locality":"Steinheim an der Murr","municipality":{"key":"08118070","name":"Steinheim an der Murr, Stadt","type":"Stadt"},"district":{"key":"08118","name":"Ludwigsburg","type":"Landkreis"},"federalState":{"key":"08","name":"Baden-Württemberg"}},{"name":"Panoramastr.","postalCode":"71711","locality":"Steinheim an der Murr","municipality":{"key":"08118070","name":"Steinheim an der Murr, Stadt","type":"Stadt"},"district":{"key":"08118","name":"Ludwigsburg","type":"Landkreis"},"federalState":{"key":"08","name":"Baden-Württemberg"}},{"name":"Panoramaweg","postalCode":"89555","locality":"Steinheim am Albuch","municipality":{"key":"08135032","name":"Steinheim am Albuch","type":"Kreisangehörige_Gemeinde"},"district":{"key":"08135","name":"Heidenheim","type":"Landkreis"},"federalState":{"key":"08","name":"Baden-Württemberg"}},{"name":"Papiermühlenweg","postalCode":"32839","locality":"Steinheim","municipality":{"key":"05762032","name":"Steinheim, Stadt","type":"Stadt"},"district":{"key":"05762","name":"Höxter","type":"Kreis"},"federalState":{"key":"05","name":"Nordrhein-Westfalen"}},{"name":"Park","postalCode":"32839","locality":"Steinheim","municipality":{"key":"05762032","name":"Steinheim, Stadt","type":"Stadt"},"district":{"key":"05762","name":"Höxter","type":"Kreis"},"federalState":{"key":"05","name":"Nordrhein-Westfalen"}},{"name":"Pater-Schöneberger-Str.","postalCode":"32839","locality":"Steinheim","municipality":{"key":"05762032","name":"Steinheim, Stadt","type":"Stadt"},"district":{"key":"05762","name":"Höxter","type":"Kreis"},"federalState":{"key":"05","name":"Nordrhein-Westfalen"}},{"name":"Paul-Aldinger-Str.","postalCode":"71711","locality":"Steinheim an der Murr","municipality":{"key":"08118070","name":"Steinheim an der Murr, Stadt","type":"Stadt"},"district":{"key":"08118","name":"Ludwigsburg","type":"Landkreis"},"federalState":{"key":"08","name":"Baden-Württemberg"}},{"name":"Paul-Gerhardt-Weg","postalCode":"89555","locality":"Steinheim am Albuch","municipality":{"key":"08135032","name":"Steinheim am Albuch","type":"Kreisangehörige_Gemeinde"},"district":{"key":"08135","name":"Heidenheim","type":"Landkreis"},"federalState":{"key":"08","name":"Baden-Württemberg"}},{"name":"Paul-Lincke-Weg","postalCode":"71711","locality":"Steinheim an der Murr","municipality":{"key":"08118070","name":"Steinheim an der Murr, Stadt","type":"Stadt"},"district":{"key":"08118","name":"Ludwigsburg","type":"Landkreis"},"federalState":{"key":"08","name":"Baden-Württemberg"}},{"name":"Peter-Hille-Str.","postalCode":"32839","locality":"Steinheim","municipality":{"key":"05762032","name":"Steinheim, Stadt","type":"Stadt"},"district":{"key":"05762","name":"Höxter","type":"Kreis"},"federalState":{"key":"05","name":"Nordrhein-Westfalen"}},{"name":"Petersilienstr.","postalCode":"32839","locality":"Steinheim","municipality":{"key":"05762032","name":"Steinheim, Stadt","type":"Stadt"},"district":{"key":"05762","name":"Höxter","type":"Kreis"},"federalState":{"key":"05","name":"Nordrhein-Westfalen"}},{"name":"Pfarrer-Kieser-Weg","postalCode":"71711","locality":"Steinheim an der Murr","municipality":{"key":"08118070","name":"Steinheim an der Murr, Stadt","type":"Stadt"},"district":{"key":"08118","name":"Ludwigsburg","type":"Landkreis"},"federalState":{"key":"08","name":"Baden-Württemberg"}},{"name":"Pfarrgartenweg","postalCode":"71711","locality":"Steinheim an der Murr","municipality":{"key":"08118070","name":"Steinheim an der Murr, Stadt","type":"Stadt"},"district":{"key":"08118","name":"Ludwigsburg","type":"Landkreis"},"federalState":{"key":"08","name":"Baden-Württemberg"}},{"name":"Pfarrstr.","postalCode":"71711","locality":"Steinheim an der Murr","municipality":{"key":"08118070","name":"Steinheim an der Murr, Stadt","type":"Stadt"},"district":{"key":"08118","name":"Ludwigsburg","type":"Landkreis"},"federalState":{"key":"08","name":"Baden-Württemberg"}},{"name":"Pfarrstr.","postalCode":"89555","locality":"Steinheim am Albuch","municipality":{"key":"08135032","name":"Steinheim am Albuch","type":"Kreisangehörige_Gemeinde"},"district":{"key":"08135","name":"Heidenheim","type":"Landkreis"},"federalState":{"key":"08","name":"Baden-Württemberg"}},{"name":"Philipp-Friedrich-Hiller-Weg","postalCode":"89555","locality":"Steinheim am Albuch","municipality":{"key":"08135032","name":"Steinheim am Albuch","type":"Kreisangehörige_Gemeinde"},"district":{"key":"08135","name":"Heidenheim","type":"Landkreis"},"federalState":{"key":"08","name":"Baden-Württemberg"}},{"name":"Pleistern","postalCode":"32839","locality":"Steinheim","municipality":{"key":"05762032","name":"Steinheim, Stadt","type":"Stadt"},"district":{"key":"05762","name":"Höxter","type":"Kreis"},"federalState":{"key":"05","name":"Nordrhein-Westfalen"}},{"name":"Pohlhof","postalCode":"32839","locality":"Steinheim","municipality":{"key":"05762032","name":"Steinheim, Stadt","type":"Stadt"},"district":{"key":"05762","name":"Höxter","type":"Kreis"},"federalState":{"key":"05","name":"Nordrhein-Westfalen"}},{"name":"Pommernweg","postalCode":"89555","locality":"Steinheim am Albuch","municipality":{"key":"08135032","name":"Steinheim am Albuch","type":"Kreisangehörige_Gemeinde"},"district":{"key":"08135","name":"Heidenheim","type":"Landkreis"},"federalState":{"key":"08","name":"Baden-Württemberg"}},{"name":"Pommersche Str.","postalCode":"32839","locality":"Steinheim","municipality":{"key":"05762032","name":"Steinheim, Stadt","type":"Stadt"},"district":{"key":"05762","name":"Höxter","type":"Kreis"},"federalState":{"key":"05","name":"Nordrhein-Westfalen"}},{"name":"Prozessionsweg","postalCode":"32839","locality":"Steinheim","municipality":{"key":"05762032","name":"Steinheim, Stadt","type":"Stadt"},"district":{"key":"05762","name":"Höxter","type":"Kreis"},"federalState":{"key":"05","name":"Nordrhein-Westfalen"}},{"name":"Pyrmonter Str.","postalCode":"32839","locality":"Steinheim","municipality":{"key":"05762032","name":"Steinheim, Stadt","type":"Stadt"},"district":{"key":"05762","name":"Höxter","type":"Kreis"},"federalState":{"key":"05","name":"Nordrhein-Westfalen"}},{"name":"Quellenweg","postalCode":"32839","locality":"Steinheim","municipality":{"key":"05762032","name":"Steinheim, Stadt","type":"Stadt"},"district":{"key":"05762","name":"Höxter","type":"Kreis"},"federalState":{"key":"05","name":"Nordrhein-Westfalen"}},{"name":"Querplanie","postalCode":"89555","locality":"Steinheim am Albuch","municipality":{"key":"08135032","name":"Steinheim am Albuch","type":"Kreisangehörige_Gemeinde"},"district":{"key":"08135","name":"Heidenheim","type":"Landkreis"},"federalState":{"key":"08","name":"Baden-Württemberg"}},{"name":"Querstr.","postalCode":"32839","locality":"Steinheim","municipality":{"key":"05762032","name":"Steinheim, Stadt","type":"Stadt"},"district":{"key":"05762","name":"Höxter","type":"Kreis"},"federalState":{"key":"05","name":"Nordrhein-Westfalen"}},{"name":"Raiffeisenstr.","postalCode":"32839","locality":"Steinheim","municipality":{"key":"05762032","name":"Steinheim, Stadt","type":"Stadt"},"district":{"key":"05762","name":"Höxter","type":"Kreis"},"federalState":{"key":"05","name":"Nordrhein-Westfalen"}},{"name":"Rathausgasse","postalCode":"89555","locality":"Steinheim am Albuch","municipality":{"key":"08135032","name":"Steinheim am Albuch","type":"Kreisangehörige_Gemeinde"},"district":{"key":"08135","name":"Heidenheim","type":"Landkreis"},"federalState":{"key":"08","name":"Baden-Württemberg"}},{"name":"Rauhe Steige","postalCode":"89555","locality":"Steinheim am Albuch","municipality":{"key":"08135032","name":"Steinheim am Albuch","type":"Kreisangehörige_Gemeinde"},"district":{"key":"08135","name":"Heidenheim","type":"Landkreis"},"federalState":{"key":"08","name":"Baden-Württemberg"}},{"name":"Rebhuhnweg","postalCode":"32839","locality":"Steinheim","municipality":{"key":"05762032","name":"Steinheim, Stadt","type":"Stadt"},"district":{"key":"05762","name":"Höxter","type":"Kreis"},"federalState":{"key":"05","name":"Nordrhein-Westfalen"}},{"name":"Rechbergweg","postalCode":"89555","locality":"Steinheim am Albuch","municipality":{"key":"08135032","name":"Steinheim am Albuch","type":"Kreisangehörige_Gemeinde"},"district":{"key":"08135","name":"Heidenheim","type":"Landkreis"},"federalState":{"key":"08","name":"Baden-Württemberg"}},{"name":"Rehbergsträßle","postalCode":"89555","locality":"Steinheim am Albuch","municipality":{"key":"08135032","name":"Steinheim am Albuch","type":"Kreisangehörige_Gemeinde"},"district":{"key":"08135","name":"Heidenheim","type":"Landkreis"},"federalState":{"key":"08","name":"Baden-Württemberg"}},{"name":"Rehbergweg","postalCode":"89555","locality":"Steinheim am Albuch","municipality":{"key":"08135032","name":"Steinheim am Albuch","type":"Kreisangehörige_Gemeinde"},"district":{"key":"08135","name":"Heidenheim","type":"Landkreis"},"federalState":{"key":"08","name":"Baden-Württemberg"}},{"name":"Rehwinkelweg","postalCode":"89555","locality":"Steinheim am Albuch","municipality":{"key":"08135032","name":"Steinheim am Albuch","type":"Kreisangehörige_Gemeinde"},"district":{"key":"08135","name":"Heidenheim","type":"Landkreis"},"federalState":{"key":"08","name":"Baden-Württemberg"}},{"name":"Reiner-Reineccius-Str.","postalCode":"32839","locality":"Steinheim","municipality":{"key":"05762032","name":"Steinheim, Stadt","type":"Stadt"},"district":{"key":"05762","name":"Höxter","type":"Kreis"},"federalState":{"key":"05","name":"Nordrhein-Westfalen"}},{"name":"Reißhaldesträßle","postalCode":"89555","locality":"Steinheim am Albuch","municipality":{"key":"08135032","name":"Steinheim am Albuch","type":"Kreisangehörige_Gemeinde"},"district":{"key":"08135","name":"Heidenheim","type":"Landkreis"},"federalState":{"key":"08","name":"Baden-Württemberg"}},{"name":"Rektor-Rose-Weg","postalCode":"32839","locality":"Steinheim","municipality":{"key":"05762032","name":"Steinheim, Stadt","type":"Stadt"},"district":{"key":"05762","name":"Höxter","type":"Kreis"},"federalState":{"key":"05","name":"Nordrhein-Westfalen"}},{"name":"Rhönweg","postalCode":"89555","locality":"Steinheim am Albuch","municipality":{"key":"08135032","name":"Steinheim am Albuch","type":"Kreisangehörige_Gemeinde"},"district":{"key":"08135","name":"Heidenheim","type":"Landkreis"},"federalState":{"key":"08","name":"Baden-Württemberg"}},{"name":"Richard-Wagner-Str.","postalCode":"71711","locality":"Steinheim an der Murr","municipality":{"key":"08118070","name":"Steinheim an der Murr, Stadt","type":"Stadt"},"district":{"key":"08118","name":"Ludwigsburg","type":"Landkreis"},"federalState":{"key":"08","name":"Baden-Württemberg"}},{"name":"Riedstr.","postalCode":"71711","locality":"Steinheim an der Murr","municipality":{"key":"08118070","name":"Steinheim an der Murr, Stadt","type":"Stadt"},"district":{"key":"08118","name":"Ludwigsburg","type":"Landkreis"},"federalState":{"key":"08","name":"Baden-Württemberg"}},{"name":"Riedstr.","postalCode":"89555","locality":"Steinheim am Albuch","municipality":{"key":"08135032","name":"Steinheim am Albuch","type":"Kreisangehörige_Gemeinde"},"district":{"key":"08135","name":"Heidenheim","type":"Landkreis"},"federalState":{"key":"08","name":"Baden-Württemberg"}},{"name":"Rielingshäuser Str.","postalCode":"71711","locality":"Steinheim an der Murr","municipality":{"key":"08118070","name":"Steinheim an der Murr, Stadt","type":"Stadt"},"district":{"key":"08118","name":"Ludwigsburg","type":"Landkreis"},"federalState":{"key":"08","name":"Baden-Württemberg"}},{"name":"Riesengebirgsweg","postalCode":"89555","locality":"Steinheim am Albuch","municipality":{"key":"08135032","name":"Steinheim am Albuch","type":"Kreisangehörige_Gemeinde"},"district":{"key":"08135","name":"Heidenheim","type":"Landkreis"},"federalState":{"key":"08","name":"Baden-Württemberg"}},{"name":"Ringstr.","postalCode":"32839","locality":"Steinheim","municipality":{"key":"05762032","name":"Steinheim, Stadt","type":"Stadt"},"district":{"key":"05762","name":"Höxter","type":"Kreis"},"federalState":{"key":"05","name":"Nordrhein-Westfalen"}},{"name":"Ringstr.","postalCode":"89555","locality":"Steinheim am Albuch","municipality":{"key":"08135032","name":"Steinheim am Albuch","type":"Kreisangehörige_Gemeinde"},"district":{"key":"08135","name":"Heidenheim","type":"Landkreis"},"federalState":{"key":"08","name":"Baden-Württemberg"}},{"name":"Ringweg","postalCode":"89555","locality":"Steinheim am Albuch","municipality":{"key":"08135032","name":"Steinheim am Albuch","type":"Kreisangehörige_Gemeinde"},"district":{"key":"08135","name":"Heidenheim","type":"Landkreis"},"federalState":{"key":"08","name":"Baden-Württemberg"}},{"name":"Robert-Bosch-Str.","postalCode":"89555","locality":"Steinheim am Albuch","municipality":{"key":"08135032","name":"Steinheim am Albuch","type":"Kreisangehörige_Gemeinde"},"district":{"key":"08135","name":"Heidenheim","type":"Landkreis"},"federalState":{"key":"08","name":"Baden-Württemberg"}},{"name":"Rochusstr.","postalCode":"32839","locality":"Steinheim","municipality":{"key":"05762032","name":"Steinheim, Stadt","type":"Stadt"},"district":{"key":"05762","name":"Höxter","type":"Kreis"},"federalState":{"key":"05","name":"Nordrhein-Westfalen"}},{"name":"Rolfzener Str.","postalCode":"32839","locality":"Steinheim","municipality":{"key":"05762032","name":"Steinheim, Stadt","type":"Stadt"},"district":{"key":"05762","name":"Höxter","type":"Kreis"},"federalState":{"key":"05","name":"Nordrhein-Westfalen"}},{"name":"Römerweg","postalCode":"32839","locality":"Steinheim","municipality":{"key":"05762032","name":"Steinheim, Stadt","type":"Stadt"},"district":{"key":"05762","name":"Höxter","type":"Kreis"},"federalState":{"key":"05","name":"Nordrhein-Westfalen"}},{"name":"Rosenberger Str.","postalCode":"71711","locality":"Steinheim an der Murr","municipality":{"key":"08118070","name":"Steinheim an der Murr, Stadt","type":"Stadt"},"district":{"key":"08118","name":"Ludwigsburg","type":"Landkreis"},"federalState":{"key":"08","name":"Baden-Württemberg"}},{"name":"Rosengartenweg","postalCode":"71711","locality":"Steinheim an der Murr","municipality":{"key":"08118070","name":"Steinheim an der Murr, Stadt","type":"Stadt"},"district":{"key":"08118","name":"Ludwigsburg","type":"Landkreis"},"federalState":{"key":"08","name":"Baden-Württemberg"}},{"name":"Rosensteinweg","postalCode":"89555","locality":"Steinheim am Albuch","municipality":{"key":"08135032","name":"Steinheim am Albuch","type":"Kreisangehörige_Gemeinde"},"district":{"key":"08135","name":"Heidenheim","type":"Landkreis"},"federalState":{"key":"08","name":"Baden-Württemberg"}},{"name":"Rosenstr.","postalCode":"32839","locality":"Steinheim","municipality":{"key":"05762032","name":"Steinheim, Stadt","type":"Stadt"},"district":{"key":"05762","name":"Höxter","type":"Kreis"},"federalState":{"key":"05","name":"Nordrhein-Westfalen"}},{"name":"Rosenstr.","postalCode":"89555","locality":"Steinheim am Albuch","municipality":{"key":"08135032","name":"Steinheim am Albuch","type":"Kreisangehörige_Gemeinde"},"district":{"key":"08135","name":"Heidenheim","type":"Landkreis"},"federalState":{"key":"08","name":"Baden-Württemberg"}},{"name":"Rosentalstr.","postalCode":"32839","locality":"Steinheim","municipality":{"key":"05762032","name":"Steinheim, Stadt","type":"Stadt"},"district":{"key":"05762","name":"Höxter","type":"Kreis"},"federalState":{"key":"05","name":"Nordrhein-Westfalen"}},{"name":"Rosenweg","postalCode":"71711","locality":"Steinheim an der Murr","municipality":{"key":"08118070","name":"Steinheim an der Murr, Stadt","type":"Stadt"},"district":{"key":"08118","name":"Ludwigsburg","type":"Landkreis"},"federalState":{"key":"08","name":"Baden-Württemberg"}},{"name":"Rosmarinweg","postalCode":"71711","locality":"Steinheim an der Murr","municipality":{"key":"08118070","name":"Steinheim an der Murr, Stadt","type":"Stadt"},"district":{"key":"08118","name":"Ludwigsburg","type":"Landkreis"},"federalState":{"key":"08","name":"Baden-Württemberg"}},{"name":"Rotdornweg","postalCode":"32839","locality":"Steinheim","municipality":{"key":"05762032","name":"Steinheim, Stadt","type":"Stadt"},"district":{"key":"05762","name":"Höxter","type":"Kreis"},"federalState":{"key":"05","name":"Nordrhein-Westfalen"}},{"name":"Sachsenhardtstr.","postalCode":"89555","locality":"Steinheim am Albuch","municipality":{"key":"08135032","name":"Steinheim am Albuch","type":"Kreisangehörige_Gemeinde"},"district":{"key":"08135","name":"Heidenheim","type":"Landkreis"},"federalState":{"key":"08","name":"Baden-Württemberg"}},{"name":"Sachsenstr.","postalCode":"32839","locality":"Steinheim","municipality":{"key":"05762032","name":"Steinheim, Stadt","type":"Stadt"},"district":{"key":"05762","name":"Höxter","type":"Kreis"},"federalState":{"key":"05","name":"Nordrhein-Westfalen"}},{"name":"Sachsenteichstr.","postalCode":"89555","locality":"Steinheim am Albuch","municipality":{"key":"08135032","name":"Steinheim am Albuch","type":"Kreisangehörige_Gemeinde"},"district":{"key":"08135","name":"Heidenheim","type":"Landkreis"},"federalState":{"key":"08","name":"Baden-Württemberg"}},{"name":"Sachsenweg","postalCode":"89555","locality":"Steinheim am Albuch","municipality":{"key":"08135032","name":"Steinheim am Albuch","type":"Kreisangehörige_Gemeinde"},"district":{"key":"08135","name":"Heidenheim","type":"Landkreis"},"federalState":{"key":"08","name":"Baden-Württemberg"}},{"name":"Sackweg","postalCode":"89555","locality":"Steinheim am Albuch","municipality":{"key":"08135032","name":"Steinheim am Albuch","type":"Kreisangehörige_Gemeinde"},"district":{"key":"08135","name":"Heidenheim","type":"Landkreis"},"federalState":{"key":"08","name":"Baden-Württemberg"}},{"name":"Salbeiweg","postalCode":"71711","locality":"Steinheim an der Murr","municipality":{"key":"08118070","name":"Steinheim an der Murr, Stadt","type":"Stadt"},"district":{"key":"08118","name":"Ludwigsburg","type":"Landkreis"},"federalState":{"key":"08","name":"Baden-Württemberg"}},{"name":"Sandebecker Str.","postalCode":"32839","locality":"Steinheim","municipality":{"key":"05762032","name":"Steinheim, Stadt","type":"Stadt"},"district":{"key":"05762","name":"Höxter","type":"Kreis"},"federalState":{"key":"05","name":"Nordrhein-Westfalen"}},{"name":"Sandgrube","postalCode":"89555","locality":"Steinheim am Albuch","municipality":{"key":"08135032","name":"Steinheim am Albuch","type":"Kreisangehörige_Gemeinde"},"district":{"key":"08135","name":"Heidenheim","type":"Landkreis"},"federalState":{"key":"08","name":"Baden-Württemberg"}},{"name":"Sandweg","postalCode":"71711","locality":"Steinheim an der Murr","municipality":{"key":"08118070","name":"Steinheim an der Murr, Stadt","type":"Stadt"},"district":{"key":"08118","name":"Ludwigsburg","type":"Landkreis"},"federalState":{"key":"08","name":"Baden-Württemberg"}},{"name":"Saugatter Weg","postalCode":"89555","locality":"Steinheim am Albuch","municipality":{"key":"08135032","name":"Steinheim am Albuch","type":"Kreisangehörige_Gemeinde"},"district":{"key":"08135","name":"Heidenheim","type":"Landkreis"},"federalState":{"key":"08","name":"Baden-Württemberg"}},{"name":"Säuhausstr.","postalCode":"71711","locality":"Steinheim an der Murr","municipality":{"key":"08118070","name":"Steinheim an der Murr, Stadt","type":"Stadt"},"district":{"key":"08118","name":"Ludwigsburg","type":"Landkreis"},"federalState":{"key":"08","name":"Baden-Württemberg"}},{"name":"Schafäckerstr.","postalCode":"71711","locality":"Steinheim an der Murr","municipality":{"key":"08118070","name":"Steinheim an der Murr, Stadt","type":"Stadt"},"district":{"key":"08118","name":"Ludwigsburg","type":"Landkreis"},"federalState":{"key":"08","name":"Baden-Württemberg"}},{"name":"Schafgasse","postalCode":"71711","locality":"Steinheim an der Murr","municipality":{"key":"08118070","name":"Steinheim an der Murr, Stadt","type":"Stadt"},"district":{"key":"08118","name":"Ludwigsburg","type":"Landkreis"},"federalState":{"key":"08","name":"Baden-Württemberg"}},{"name":"Schiederstr.","postalCode":"32839","locality":"Steinheim","municipality":{"key":"05762032","name":"Steinheim, Stadt","type":"Stadt"},"district":{"key":"05762","name":"Höxter","type":"Kreis"},"federalState":{"key":"05","name":"Nordrhein-Westfalen"}},{"name":"Schießstr.","postalCode":"89555","locality":"Steinheim am Albuch","municipality":{"key":"08135032","name":"Steinheim am Albuch","type":"Kreisangehörige_Gemeinde"},"district":{"key":"08135","name":"Heidenheim","type":"Landkreis"},"federalState":{"key":"08","name":"Baden-Württemberg"}},{"name":"Schillerstr.","postalCode":"32839","locality":"Steinheim","municipality":{"key":"05762032","name":"Steinheim, Stadt","type":"Stadt"},"district":{"key":"05762","name":"Höxter","type":"Kreis"},"federalState":{"key":"05","name":"Nordrhein-Westfalen"}},{"name":"Schillerstr.","postalCode":"71711","locality":"Steinheim an der Murr","municipality":{"key":"08118070","name":"Steinheim an der Murr, Stadt","type":"Stadt"},"district":{"key":"08118","name":"Ludwigsburg","type":"Landkreis"},"federalState":{"key":"08","name":"Baden-Württemberg"}},{"name":"Schillerstr.","postalCode":"89555","locality":"Steinheim am Albuch","municipality":{"key":"08135032","name":"Steinheim am Albuch","type":"Kreisangehörige_Gemeinde"},"district":{"key":"08135","name":"Heidenheim","type":"Landkreis"},"federalState":{"key":"08","name":"Baden-Württemberg"}},{"name":"Schlehenweg","postalCode":"89555","locality":"Steinheim am Albuch","municipality":{"key":"08135032","name":"Steinheim am Albuch","type":"Kreisangehörige_Gemeinde"},"district":{"key":"08135","name":"Heidenheim","type":"Landkreis"},"federalState":{"key":"08","name":"Baden-Württemberg"}},{"name":"Schleimteichsträßle","postalCode":"89555","locality":"Steinheim am Albuch","municipality":{"key":"08135032","name":"Steinheim am Albuch","type":"Kreisangehörige_Gemeinde"},"district":{"key":"08135","name":"Heidenheim","type":"Landkreis"},"federalState":{"key":"08","name":"Baden-Württemberg"}},{"name":"Schlesienstr.","postalCode":"89555","locality":"Steinheim am Albuch","municipality":{"key":"08135032","name":"Steinheim am Albuch","type":"Kreisangehörige_Gemeinde"},"district":{"key":"08135","name":"Heidenheim","type":"Landkreis"},"federalState":{"key":"08","name":"Baden-Württemberg"}},{"name":"Schlesische Str.","postalCode":"32839","locality":"Steinheim","municipality":{"key":"05762032","name":"Steinheim, Stadt","type":"Stadt"},"district":{"key":"05762","name":"Höxter","type":"Kreis"},"federalState":{"key":"05","name":"Nordrhein-Westfalen"}},{"name":"Schlossgartenstr.","postalCode":"71711","locality":"Steinheim an der Murr","municipality":{"key":"08118070","name":"Steinheim an der Murr, Stadt","type":"Stadt"},"district":{"key":"08118","name":"Ludwigsburg","type":"Landkreis"},"federalState":{"key":"08","name":"Baden-Württemberg"}},{"name":"Schlosshof","postalCode":"71711","locality":"Steinheim an der Murr","municipality":{"key":"08118070","name":"Steinheim an der Murr, Stadt","type":"Stadt"},"district":{"key":"08118","name":"Ludwigsburg","type":"Landkreis"},"federalState":{"key":"08","name":"Baden-Württemberg"}},{"name":"Schlosspark","postalCode":"71711","locality":"Steinheim an der Murr","municipality":{"key":"08118070","name":"Steinheim an der Murr, Stadt","type":"Stadt"},"district":{"key":"08118","name":"Ludwigsburg","type":"Landkreis"},"federalState":{"key":"08","name":"Baden-Württemberg"}},{"name":"Schlossstr.","postalCode":"71711","locality":"Steinheim an der Murr","municipality":{"key":"08118070","name":"Steinheim an der Murr, Stadt","type":"Stadt"},"district":{"key":"08118","name":"Ludwigsburg","type":"Landkreis"},"federalState":{"key":"08","name":"Baden-Württemberg"}},{"name":"Schmale Gasse","postalCode":"89555","locality":"Steinheim am Albuch","municipality":{"key":"08135032","name":"Steinheim am Albuch","type":"Kreisangehörige_Gemeinde"},"district":{"key":"08135","name":"Heidenheim","type":"Landkreis"},"federalState":{"key":"08","name":"Baden-Württemberg"}},{"name":"Schmiedeweg","postalCode":"32839","locality":"Steinheim","municipality":{"key":"05762032","name":"Steinheim, Stadt","type":"Stadt"},"district":{"key":"05762","name":"Höxter","type":"Kreis"},"federalState":{"key":"05","name":"Nordrhein-Westfalen"}},{"name":"Schnaitheimer Weg","postalCode":"89555","locality":"Steinheim am Albuch","municipality":{"key":"08135032","name":"Steinheim am Albuch","type":"Kreisangehörige_Gemeinde"},"district":{"key":"08135","name":"Heidenheim","type":"Landkreis"},"federalState":{"key":"08","name":"Baden-Württemberg"}},{"name":"Schneckenweg","postalCode":"89555","locality":"Steinheim am Albuch","municipality":{"key":"08135032","name":"Steinheim am Albuch","type":"Kreisangehörige_Gemeinde"},"district":{"key":"08135","name":"Heidenheim","type":"Landkreis"},"federalState":{"key":"08","name":"Baden-Württemberg"}},{"name":"Schnepfenteichweg","postalCode":"73566","locality":"Steinheim am Albuch","municipality":{"key":"08135032","name":"Steinheim am Albuch","type":"Kreisangehörige_Gemeinde"},"district":{"key":"08135","name":"Heidenheim","type":"Landkreis"},"federalState":{"key":"08","name":"Baden-Württemberg"}},{"name":"Schorlemerstr.","postalCode":"32839","locality":"Steinheim","municipality":{"key":"05762032","name":"Steinheim, Stadt","type":"Stadt"},"district":{"key":"05762","name":"Höxter","type":"Kreis"},"federalState":{"key":"05","name":"Nordrhein-Westfalen"}},{"name":"Schragenwaldstr.","postalCode":"89555","locality":"Steinheim am Albuch","municipality":{"key":"08135032","name":"Steinheim am Albuch","type":"Kreisangehörige_Gemeinde"},"district":{"key":"08135","name":"Heidenheim","type":"Landkreis"},"federalState":{"key":"08","name":"Baden-Württemberg"}},{"name":"Schraistr.","postalCode":"71711","locality":"Steinheim an der Murr","municipality":{"key":"08118070","name":"Steinheim an der Murr, Stadt","type":"Stadt"},"district":{"key":"08118","name":"Ludwigsburg","type":"Landkreis"},"federalState":{"key":"08","name":"Baden-Württemberg"}},{"name":"Schrotweg","postalCode":"32839","locality":"Steinheim","municipality":{"key":"05762032","name":"Steinheim, Stadt","type":"Stadt"},"district":{"key":"05762","name":"Höxter","type":"Kreis"},"federalState":{"key":"05","name":"Nordrhein-Westfalen"}},{"name":"Schubartstr.","postalCode":"71711","locality":"Steinheim an der Murr","municipality":{"key":"08118070","name":"Steinheim an der Murr, Stadt","type":"Stadt"},"district":{"key":"08118","name":"Ludwigsburg","type":"Landkreis"},"federalState":{"key":"08","name":"Baden-Württemberg"}},{"name":"Schubartstr.","postalCode":"89555","locality":"Steinheim am Albuch","municipality":{"key":"08135032","name":"Steinheim am Albuch","type":"Kreisangehörige_Gemeinde"},"district":{"key":"08135","name":"Heidenheim","type":"Landkreis"},"federalState":{"key":"08","name":"Baden-Württemberg"}},{"name":"Schulstr.","postalCode":"32839","locality":"Steinheim","municipality":{"key":"05762032","name":"Steinheim, Stadt","type":"Stadt"},"district":{"key":"05762","name":"Höxter","type":"Kreis"},"federalState":{"key":"05","name":"Nordrhein-Westfalen"}},{"name":"Schulstr.","postalCode":"71711","locality":"Steinheim an der Murr","municipality":{"key":"08118070","name":"Steinheim an der Murr, Stadt","type":"Stadt"},"district":{"key":"08118","name":"Ludwigsburg","type":"Landkreis"},"federalState":{"key":"08","name":"Baden-Württemberg"}},{"name":"Schulstr.","postalCode":"89555","locality":"Steinheim am Albuch","municipality":{"key":"08135032","name":"Steinheim am Albuch","type":"Kreisangehörige_Gemeinde"},"district":{"key":"08135","name":"Heidenheim","type":"Landkreis"},"federalState":{"key":"08","name":"Baden-Württemberg"}},{"name":"Schulweg","postalCode":"32839","locality":"Steinheim","municipality":{"key":"05762032","name":"Steinheim, Stadt","type":"Stadt"},"district":{"key":"05762","name":"Höxter","type":"Kreis"},"federalState":{"key":"05","name":"Nordrhein-Westfalen"}},{"name":"Schulweg","postalCode":"73566","locality":"Steinheim am Albuch","municipality":{"key":"08135032","name":"Steinheim am Albuch","type":"Kreisangehörige_Gemeinde"},"district":{"key":"08135","name":"Heidenheim","type":"Landkreis"},"federalState":{"key":"08","name":"Baden-Württemberg"}},{"name":"Schulze-Delitzsch-Str.","postalCode":"32839","locality":"Steinheim","municipality":{"key":"05762032","name":"Steinheim, Stadt","type":"Stadt"},"district":{"key":"05762","name":"Höxter","type":"Kreis"},"federalState":{"key":"05","name":"Nordrhein-Westfalen"}},{"name":"Schumannstr.","postalCode":"89555","locality":"Steinheim am Albuch","municipality":{"key":"08135032","name":"Steinheim am Albuch","type":"Kreisangehörige_Gemeinde"},"district":{"key":"08135","name":"Heidenheim","type":"Landkreis"},"federalState":{"key":"08","name":"Baden-Württemberg"}},{"name":"Schützenplatzallee","postalCode":"32839","locality":"Steinheim","municipality":{"key":"05762032","name":"Steinheim, Stadt","type":"Stadt"},"district":{"key":"05762","name":"Höxter","type":"Kreis"},"federalState":{"key":"05","name":"Nordrhein-Westfalen"}},{"name":"Schwabstr.","postalCode":"89555","locality":"Steinheim am Albuch","municipality":{"key":"08135032","name":"Steinheim am Albuch","type":"Kreisangehörige_Gemeinde"},"district":{"key":"08135","name":"Heidenheim","type":"Landkreis"},"federalState":{"key":"08","name":"Baden-Württemberg"}},{"name":"Schwalbenstr.","postalCode":"71711","locality":"Steinheim an der Murr","municipality":{"key":"08118070","name":"Steinheim an der Murr, Stadt","type":"Stadt"},"district":{"key":"08118","name":"Ludwigsburg","type":"Landkreis"},"federalState":{"key":"08","name":"Baden-Württemberg"}},{"name":"Schwalbenstr.","postalCode":"89555","locality":"Steinheim am Albuch","municipality":{"key":"08135032","name":"Steinheim am Albuch","type":"Kreisangehörige_Gemeinde"},"district":{"key":"08135","name":"Heidenheim","type":"Landkreis"},"federalState":{"key":"08","name":"Baden-Württemberg"}},{"name":"Sebastianusstr.","postalCode":"32839","locality":"Steinheim","municipality":{"key":"05762032","name":"Steinheim, Stadt","type":"Stadt"},"district":{"key":"05762","name":"Höxter","type":"Kreis"},"federalState":{"key":"05","name":"Nordrhein-Westfalen"}},{"name":"Sedanstr.","postalCode":"32839","locality":"Steinheim","municipality":{"key":"05762032","name":"Steinheim, Stadt","type":"Stadt"},"district":{"key":"05762","name":"Höxter","type":"Kreis"},"federalState":{"key":"05","name":"Nordrhein-Westfalen"}},{"name":"Talstr.","postalCode":"71711","locality":"Steinheim an der Murr","municipality":{"key":"08118070","name":"Steinheim an der Murr, Stadt","type":"Stadt"},"district":{"key":"08118","name":"Ludwigsburg","type":"Landkreis"},"federalState":{"key":"08","name":"Baden-Württemberg"}},{"name":"Talstr.","postalCode":"89555","locality":"Steinheim am Albuch","municipality":{"key":"08135032","name":"Steinheim am Albuch","type":"Kreisangehörige_Gemeinde"},"district":{"key":"08135","name":"Heidenheim","type":"Landkreis"},"federalState":{"key":"08","name":"Baden-Württemberg"}},{"name":"Tannäckerweg","postalCode":"89555","locality":"Steinheim am Albuch","municipality":{"key":"08135032","name":"Steinheim am Albuch","type":"Kreisangehörige_Gemeinde"},"district":{"key":"08135","name":"Heidenheim","type":"Landkreis"},"federalState":{"key":"08","name":"Baden-Württemberg"}},{"name":"Tannenweg","postalCode":"89555","locality":"Steinheim am Albuch","municipality":{"key":"08135032","name":"Steinheim am Albuch","type":"Kreisangehörige_Gemeinde"},"district":{"key":"08135","name":"Heidenheim","type":"Landkreis"},"federalState":{"key":"08","name":"Baden-Württemberg"}},{"name":"Taternweg","postalCode":"32839","locality":"Steinheim","municipality":{"key":"05762032","name":"Steinheim, Stadt","type":"Stadt"},"district":{"key":"05762","name":"Höxter","type":"Kreis"},"federalState":{"key":"05","name":"Nordrhein-Westfalen"}},{"name":"Teichstr.","postalCode":"71711","locality":"Steinheim an der Murr","municipality":{"key":"08118070","name":"Steinheim an der Murr, Stadt","type":"Stadt"},"district":{"key":"08118","name":"Ludwigsburg","type":"Landkreis"},"federalState":{"key":"08","name":"Baden-Württemberg"}},{"name":"Teichweg","postalCode":"32839","locality":"Steinheim","municipality":{"key":"05762032","name":"Steinheim, Stadt","type":"Stadt"},"district":{"key":"05762","name":"Höxter","type":"Kreis"},"federalState":{"key":"05","name":"Nordrhein-Westfalen"}},{"name":"Teutoburger-Wald-Str.","postalCode":"32839","locality":"Steinheim","municipality":{"key":"05762032","name":"Steinheim, Stadt","type":"Stadt"},"district":{"key":"05762","name":"Höxter","type":"Kreis"},"federalState":{"key":"05","name":"Nordrhein-Westfalen"}},{"name":"Teutonenstr.","postalCode":"32839","locality":"Steinheim","municipality":{"key":"05762032","name":"Steinheim, Stadt","type":"Stadt"},"district":{"key":"05762","name":"Höxter","type":"Kreis"},"federalState":{"key":"05","name":"Nordrhein-Westfalen"}},{"name":"Theodor-Heuss-Str.","postalCode":"71711","locality":"Steinheim an der Murr","municipality":{"key":"08118070","name":"Steinheim an der Murr, Stadt","type":"Stadt"},"district":{"key":"08118","name":"Ludwigsburg","type":"Landkreis"},"federalState":{"key":"08","name":"Baden-Württemberg"}},{"name":"Theodor-Storm-Weg","postalCode":"89555","locality":"Steinheim am Albuch","municipality":{"key":"08135032","name":"Steinheim am Albuch","type":"Kreisangehörige_Gemeinde"},"district":{"key":"08135","name":"Heidenheim","type":"Landkreis"},"federalState":{"key":"08","name":"Baden-Württemberg"}},{"name":"Thienhausener Weg","postalCode":"32839","locality":"Steinheim","municipality":{"key":"05762032","name":"Steinheim, Stadt","type":"Stadt"},"district":{"key":"05762","name":"Höxter","type":"Kreis"},"federalState":{"key":"05","name":"Nordrhein-Westfalen"}},{"name":"Thüringer Weg","postalCode":"89555","locality":"Steinheim am Albuch","municipality":{"key":"08135032","name":"Steinheim am Albuch","type":"Kreisangehörige_Gemeinde"},"district":{"key":"08135","name":"Heidenheim","type":"Landkreis"},"federalState":{"key":"08","name":"Baden-Württemberg"}},{"name":"Thymianweg","postalCode":"71711","locality":"Steinheim an der Murr","municipality":{"key":"08118070","name":"Steinheim an der Murr, Stadt","type":"Stadt"},"district":{"key":"08118","name":"Ludwigsburg","type":"Landkreis"},"federalState":{"key":"08","name":"Baden-Württemberg"}},{"name":"Tinnengasse","postalCode":"32839","locality":"Steinheim","municipality":{"key":"05762032","name":"Steinheim, Stadt","type":"Stadt"},"district":{"key":"05762","name":"Höxter","type":"Kreis"},"federalState":{"key":"05","name":"Nordrhein-Westfalen"}},{"name":"Tulpenstr.","postalCode":"32839","locality":"Steinheim","municipality":{"key":"05762032","name":"Steinheim, Stadt","type":"Stadt"},"district":{"key":"05762","name":"Höxter","type":"Kreis"},"federalState":{"key":"05","name":"Nordrhein-Westfalen"}},{"name":"Tulpenweg","postalCode":"89555","locality":"Steinheim am Albuch","municipality":{"key":"08135032","name":"Steinheim am Albuch","type":"Kreisangehörige_Gemeinde"},"district":{"key":"08135","name":"Heidenheim","type":"Landkreis"},"federalState":{"key":"08","name":"Baden-Württemberg"}},{"name":"Türlesäckerweg","postalCode":"71711","locality":"Steinheim an der Murr","municipality":{"key":"08118070","name":"Steinheim an der Murr, Stadt","type":"Stadt"},"district":{"key":"08118","name":"Ludwigsburg","type":"Landkreis"},"federalState":{"key":"08","name":"Baden-Württemberg"}},{"name":"Turnstr.","postalCode":"89555","locality":"Steinheim am Albuch","municipality":{"key":"08135032","name":"Steinheim am Albuch","type":"Kreisangehörige_Gemeinde"},"district":{"key":"08135","name":"Heidenheim","type":"Landkreis"},"federalState":{"key":"08","name":"Baden-Württemberg"}},{"name":"Twiete","postalCode":"32839","locality":"Steinheim","municipality":{"key":"05762032","name":"Steinheim, Stadt","type":"Stadt"},"district":{"key":"05762","name":"Höxter","type":"Kreis"},"federalState":{"key":"05","name":"Nordrhein-Westfalen"}},{"name":"Ugentalweg","postalCode":"89555","locality":"Steinheim am Albuch","municipality":{"key":"08135032","name":"Steinheim am Albuch","type":"Kreisangehörige_Gemeinde"},"district":{"key":"08135","name":"Heidenheim","type":"Landkreis"},"federalState":{"key":"08","name":"Baden-Württemberg"}},{"name":"Uhlandstr.","postalCode":"71711","locality":"Steinheim an der Murr","municipality":{"key":"08118070","name":"Steinheim an der Murr, Stadt","type":"Stadt"},"district":{"key":"08118","name":"Ludwigsburg","type":"Landkreis"},"federalState":{"key":"08","name":"Baden-Württemberg"}},{"name":"Uhlandstr.","postalCode":"89555","locality":"Steinheim am Albuch","municipality":{"key":"08135032","name":"Steinheim am Albuch","type":"Kreisangehörige_Gemeinde"},"district":{"key":"08135","name":"Heidenheim","type":"Landkreis"},"federalState":{"key":"08","name":"Baden-Württemberg"}},{"name":"Ulmenweg","postalCode":"32839","locality":"Steinheim","municipality":{"key":"05762032","name":"Steinheim, Stadt","type":"Stadt"},"district":{"key":"05762","name":"Höxter","type":"Kreis"},"federalState":{"key":"05","name":"Nordrhein-Westfalen"}},{"name":"Ulmenweg","postalCode":"89555","locality":"Steinheim am Albuch","municipality":{"key":"08135032","name":"Steinheim am Albuch","type":"Kreisangehörige_Gemeinde"},"district":{"key":"08135","name":"Heidenheim","type":"Landkreis"},"federalState":{"key":"08","name":"Baden-Württemberg"}},{"name":"Unterer Hofstattweg","postalCode":"71711","locality":"Steinheim an der Murr","municipality":{"key":"08118070","name":"Steinheim an der Murr, Stadt","type":"Stadt"},"district":{"key":"08118","name":"Ludwigsburg","type":"Landkreis"},"federalState":{"key":"08","name":"Baden-Württemberg"}},{"name":"Unterer Wiesenweg","postalCode":"32839","locality":"Steinheim","municipality":{"key":"05762032","name":"Steinheim, Stadt","type":"Stadt"},"district":{"key":"05762","name":"Höxter","type":"Kreis"},"federalState":{"key":"05","name":"Nordrhein-Westfalen"}},{"name":"Untere Ziegelhütte","postalCode":"89555","locality":"Steinheim am Albuch","municipality":{"key":"08135032","name":"Steinheim am Albuch","type":"Kreisangehörige_Gemeinde"},"district":{"key":"08135","name":"Heidenheim","type":"Landkreis"},"federalState":{"key":"08","name":"Baden-Württemberg"}},{"name":"Unterm Gerskamp","postalCode":"32839","locality":"Steinheim","municipality":{"key":"05762032","name":"Steinheim, Stadt","type":"Stadt"},"district":{"key":"05762","name":"Höxter","type":"Kreis"},"federalState":{"key":"05","name":"Nordrhein-Westfalen"}},{"name":"Unterm Lippen Berg","postalCode":"32839","locality":"Steinheim","municipality":{"key":"05762032","name":"Steinheim, Stadt","type":"Stadt"},"district":{"key":"05762","name":"Höxter","type":"Kreis"},"federalState":{"key":"05","name":"Nordrhein-Westfalen"}},{"name":"Velmerstr.","postalCode":"32839","locality":"Steinheim","municipality":{"key":"05762032","name":"Steinheim, Stadt","type":"Stadt"},"district":{"key":"05762","name":"Höxter","type":"Kreis"},"federalState":{"key":"05","name":"Nordrhein-Westfalen"}},{"name":"Viehwaidstr.","postalCode":"89555","locality":"Steinheim am Albuch","municipality":{"key":"08135032","name":"Steinheim am Albuch","type":"Kreisangehörige_Gemeinde"},"district":{"key":"08135","name":"Heidenheim","type":"Landkreis"},"federalState":{"key":"08","name":"Baden-Württemberg"}},{"name":"Vinsebecker Str.","postalCode":"32839","locality":"Steinheim","municipality":{"key":"05762032","name":"Steinheim, Stadt","type":"Stadt"},"district":{"key":"05762","name":"Höxter","type":"Kreis"},"federalState":{"key":"05","name":"Nordrhein-Westfalen"}},{"name":"Vinzenzstr.","postalCode":"32839","locality":"Steinheim","municipality":{"key":"05762032","name":"Steinheim, Stadt","type":"Stadt"},"district":{"key":"05762","name":"Höxter","type":"Kreis"},"federalState":{"key":"05","name":"Nordrhein-Westfalen"}},{"name":"Vogelsangstr.","postalCode":"71711","locality":"Steinheim an der Murr","municipality":{"key":"08118070","name":"Steinheim an der Murr, Stadt","type":"Stadt"},"district":{"key":"08118","name":"Ludwigsburg","type":"Landkreis"},"federalState":{"key":"08","name":"Baden-Württemberg"}},{"name":"Vogtlandweg","postalCode":"89555","locality":"Steinheim am Albuch","municipality":{"key":"08135032","name":"Steinheim am Albuch","type":"Kreisangehörige_Gemeinde"},"district":{"key":"08135","name":"Heidenheim","type":"Landkreis"},"federalState":{"key":"08","name":"Baden-Württemberg"}},{"name":"Von-Bodelschwingh-Str.","postalCode":"32839","locality":"Steinheim","municipality":{"key":"05762032","name":"Steinheim, Stadt","type":"Stadt"},"district":{"key":"05762","name":"Höxter","type":"Kreis"},"federalState":{"key":"05","name":"Nordrhein-Westfalen"}},{"name":"Von-Plieningen-Str.","postalCode":"71711","locality":"Steinheim an der Murr","municipality":{"key":"08118070","name":"Steinheim an der Murr, Stadt","type":"Stadt"},"district":{"key":"08118","name":"Ludwigsburg","type":"Landkreis"},"federalState":{"key":"08","name":"Baden-Württemberg"}},{"name":"Von-Vincke-Str.","postalCode":"32839","locality":"Steinheim","municipality":{"key":"05762032","name":"Steinheim, Stadt","type":"Stadt"},"district":{"key":"05762","name":"Höxter","type":"Kreis"},"federalState":{"key":"05","name":"Nordrhein-Westfalen"}},{"name":"Von-Weber-Str.","postalCode":"71711","locality":"Steinheim an der Murr","municipality":{"key":"08118070","name":"Steinheim an der Murr, Stadt","type":"Stadt"},"district":{"key":"08118","name":"Ludwigsburg","type":"Landkreis"},"federalState":{"key":"08","name":"Baden-Württemberg"}},{"name":"Von-Zeller-Weg","postalCode":"71711","locality":"Steinheim an der Murr","municipality":{"key":"08118070","name":"Steinheim an der Murr, Stadt","type":"Stadt"},"district":{"key":"08118","name":"Ludwigsburg","type":"Landkreis"},"federalState":{"key":"08","name":"Baden-Württemberg"}},{"name":"Wacholderbergstr.","postalCode":"71711","locality":"Steinheim an der Murr","municipality":{"key":"08118070","name":"Steinheim an der Murr, Stadt","type":"Stadt"},"district":{"key":"08118","name":"Ludwigsburg","type":"Landkreis"},"federalState":{"key":"08","name":"Baden-Württemberg"}},{"name":"Wacholdersträßle","postalCode":"89555","locality":"Steinheim am Albuch","municipality":{"key":"08135032","name":"Steinheim am Albuch","type":"Kreisangehörige_Gemeinde"},"district":{"key":"08135","name":"Heidenheim","type":"Landkreis"},"federalState":{"key":"08","name":"Baden-Württemberg"}},{"name":"Wacholderweg","postalCode":"89555","locality":"Steinheim am Albuch","municipality":{"key":"08135032","name":"Steinheim am Albuch","type":"Kreisangehörige_Gemeinde"},"district":{"key":"08135","name":"Heidenheim","type":"Landkreis"},"federalState":{"key":"08","name":"Baden-Württemberg"}},{"name":"Wachtelweg","postalCode":"89555","locality":"Steinheim am Albuch","municipality":{"key":"08135032","name":"Steinheim am Albuch","type":"Kreisangehörige_Gemeinde"},"district":{"key":"08135","name":"Heidenheim","type":"Landkreis"},"federalState":{"key":"08","name":"Baden-Württemberg"}},{"name":"Wagnerstr.","postalCode":"89555","locality":"Steinheim am Albuch","municipality":{"key":"08135032","name":"Steinheim am Albuch","type":"Kreisangehörige_Gemeinde"},"district":{"key":"08135","name":"Heidenheim","type":"Landkreis"},"federalState":{"key":"08","name":"Baden-Württemberg"}},{"name":"Wahlwiesenstr.","postalCode":"71711","locality":"Steinheim an der Murr","municipality":{"key":"08118070","name":"Steinheim an der Murr, Stadt","type":"Stadt"},"district":{"key":"08118","name":"Ludwigsburg","type":"Landkreis"},"federalState":{"key":"08","name":"Baden-Württemberg"}},{"name":"Waldstr.","postalCode":"32839","locality":"Steinheim","municipality":{"key":"05762032","name":"Steinheim, Stadt","type":"Stadt"},"district":{"key":"05762","name":"Höxter","type":"Kreis"},"federalState":{"key":"05","name":"Nordrhein-Westfalen"}},{"name":"Waldstr.","postalCode":"71711","locality":"Steinheim an der Murr","municipality":{"key":"08118070","name":"Steinheim an der Murr, Stadt","type":"Stadt"},"district":{"key":"08118","name":"Ludwigsburg","type":"Landkreis"},"federalState":{"key":"08","name":"Baden-Württemberg"}},{"name":"Wallstr.","postalCode":"32839","locality":"Steinheim","municipality":{"key":"05762032","name":"Steinheim, Stadt","type":"Stadt"},"district":{"key":"05762","name":"Höxter","type":"Kreis"},"federalState":{"key":"05","name":"Nordrhein-Westfalen"}},{"name":"Wandelstr.","postalCode":"32839","locality":"Steinheim","municipality":{"key":"05762032","name":"Steinheim, Stadt","type":"Stadt"},"district":{"key":"05762","name":"Höxter","type":"Kreis"},"federalState":{"key":"05","name":"Nordrhein-Westfalen"}},{"name":"Wasserleitungsplanie","postalCode":"73566","locality":"Steinheim am Albuch","municipality":{"key":"08135032","name":"Steinheim am Albuch","type":"Kreisangehörige_Gemeinde"},"district":{"key":"08135","name":"Heidenheim","type":"Landkreis"},"federalState":{"key":"08","name":"Baden-Württemberg"}},{"name":"Wasserweg","postalCode":"89555","locality":"Steinheim am Albuch","municipality":{"key":"08135032","name":"Steinheim am Albuch","type":"Kreisangehörige_Gemeinde"},"district":{"key":"08135","name":"Heidenheim","type":"Landkreis"},"federalState":{"key":"08","name":"Baden-Württemberg"}},{"name":"Weberstr.","postalCode":"89555","locality":"Steinheim am Albuch","municipality":{"key":"08135032","name":"Steinheim am Albuch","type":"Kreisangehörige_Gemeinde"},"district":{"key":"08135","name":"Heidenheim","type":"Landkreis"},"federalState":{"key":"08","name":"Baden-Württemberg"}},{"name":"Weberteichsträßle","postalCode":"89555","locality":"Steinheim am Albuch","municipality":{"key":"08135032","name":"Steinheim am Albuch","type":"Kreisangehörige_Gemeinde"},"district":{"key":"08135","name":"Heidenheim","type":"Landkreis"},"federalState":{"key":"08","name":"Baden-Württemberg"}},{"name":"Wedelstr.","postalCode":"89555","locality":"Steinheim am Albuch","municipality":{"key":"08135032","name":"Steinheim am Albuch","type":"Kreisangehörige_Gemeinde"},"district":{"key":"08135","name":"Heidenheim","type":"Landkreis"},"federalState":{"key":"08","name":"Baden-Württemberg"}},{"name":"Wehrbachstr.","postalCode":"71711","locality":"Steinheim an der Murr","municipality":{"key":"08118070","name":"Steinheim an der Murr, Stadt","type":"Stadt"},"district":{"key":"08118","name":"Ludwigsburg","type":"Landkreis"},"federalState":{"key":"08","name":"Baden-Württemberg"}},{"name":"Weimarer Weg","postalCode":"89555","locality":"Steinheim am Albuch","municipality":{"key":"08135032","name":"Steinheim am Albuch","type":"Kreisangehörige_Gemeinde"},"district":{"key":"08135","name":"Heidenheim","type":"Landkreis"},"federalState":{"key":"08","name":"Baden-Württemberg"}},{"name":"Weinbergstr.","postalCode":"71711","locality":"Steinheim an der Murr","municipality":{"key":"08118070","name":"Steinheim an der Murr, Stadt","type":"Stadt"},"district":{"key":"08118","name":"Ludwigsburg","type":"Landkreis"},"federalState":{"key":"08","name":"Baden-Württemberg"}},{"name":"Weindorfer Str.","postalCode":"89555","locality":"Steinheim am Albuch","municipality":{"key":"08135032","name":"Steinheim am Albuch","type":"Kreisangehörige_Gemeinde"},"district":{"key":"08135","name":"Heidenheim","type":"Landkreis"},"federalState":{"key":"08","name":"Baden-Württemberg"}},{"name":"Weißdornweg","postalCode":"32839","locality":"Steinheim","municipality":{"key":"05762032","name":"Steinheim, Stadt","type":"Stadt"},"district":{"key":"05762","name":"Höxter","type":"Kreis"},"federalState":{"key":"05","name":"Nordrhein-Westfalen"}},{"name":"Weißdornweg","postalCode":"89555","locality":"Steinheim am Albuch","municipality":{"key":"08135032","name":"Steinheim am Albuch","type":"Kreisangehörige_Gemeinde"},"district":{"key":"08135","name":"Heidenheim","type":"Landkreis"},"federalState":{"key":"08","name":"Baden-Württemberg"}},{"name":"Wellenholzhausen","postalCode":"32839","locality":"Steinheim","municipality":{"key":"05762032","name":"Steinheim, Stadt","type":"Stadt"},"district":{"key":"05762","name":"Höxter","type":"Kreis"},"federalState":{"key":"05","name":"Nordrhein-Westfalen"}},{"name":"Wentallehrpfad","postalCode":"89555","locality":"Steinheim am Albuch","municipality":{"key":"08135032","name":"Steinheim am Albuch","type":"Kreisangehörige_Gemeinde"},"district":{"key":"08135","name":"Heidenheim","type":"Landkreis"},"federalState":{"key":"08","name":"Baden-Württemberg"}},{"name":"Wentalweg","postalCode":"73566","locality":"Steinheim am Albuch","municipality":{"key":"08135032","name":"Steinheim am Albuch","type":"Kreisangehörige_Gemeinde"},"district":{"key":"08135","name":"Heidenheim","type":"Landkreis"},"federalState":{"key":"08","name":"Baden-Württemberg"}},{"name":"Westheimer Str.","postalCode":"89555","locality":"Steinheim am Albuch","municipality":{"key":"08135032","name":"Steinheim am Albuch","type":"Kreisangehörige_Gemeinde"},"district":{"key":"08135","name":"Heidenheim","type":"Landkreis"},"federalState":{"key":"08","name":"Baden-Württemberg"}},{"name":"Wetigaustr.","postalCode":"32839","locality":"Steinheim","municipality":{"key":"05762032","name":"Steinheim, Stadt","type":"Stadt"},"district":{"key":"05762","name":"Höxter","type":"Kreis"},"federalState":{"key":"05","name":"Nordrhein-Westfalen"}},{"name":"Wette","postalCode":"71711","locality":"Steinheim an der Murr","municipality":{"key":"08118070","name":"Steinheim an der Murr, Stadt","type":"Stadt"},"district":{"key":"08118","name":"Ludwigsburg","type":"Landkreis"},"federalState":{"key":"08","name":"Baden-Württemberg"}},{"name":"Widukindweg","postalCode":"32839","locality":"Steinheim","municipality":{"key":"05762032","name":"Steinheim, Stadt","type":"Stadt"},"district":{"key":"05762","name":"Höxter","type":"Kreis"},"federalState":{"key":"05","name":"Nordrhein-Westfalen"}},{"name":"Wiechersweg","postalCode":"32839","locality":"Steinheim","municipality":{"key":"05762032","name":"Steinheim, Stadt","type":"Stadt"},"district":{"key":"05762","name":"Höxter","type":"Kreis"},"federalState":{"key":"05","name":"Nordrhein-Westfalen"}},{"name":"Wielandstr.","postalCode":"89555","locality":"Steinheim am Albuch","municipality":{"key":"08135032","name":"Steinheim am Albuch","type":"Kreisangehörige_Gemeinde"},"district":{"key":"08135","name":"Heidenheim","type":"Landkreis"},"federalState":{"key":"08","name":"Baden-Württemberg"}},{"name":"Wiesenweg","postalCode":"89555","locality":"Steinheim am Albuch","municipality":{"key":"08135032","name":"Steinheim am Albuch","type":"Kreisangehörige_Gemeinde"},"district":{"key":"08135","name":"Heidenheim","type":"Landkreis"},"federalState":{"key":"08","name":"Baden-Württemberg"}},{"name":"Wilhelmstr.","postalCode":"89555","locality":"Steinheim am Albuch","municipality":{"key":"08135032","name":"Steinheim am Albuch","type":"Kreisangehörige_Gemeinde"},"district":{"key":"08135","name":"Heidenheim","type":"Landkreis"},"federalState":{"key":"08","name":"Baden-Württemberg"}},{"name":"Winkelstr.","postalCode":"32839","locality":"Steinheim","municipality":{"key":"05762032","name":"Steinheim, Stadt","type":"Stadt"},"district":{"key":"05762","name":"Höxter","type":"Kreis"},"federalState":{"key":"05","name":"Nordrhein-Westfalen"}},{"name":"Wintruper Str.","postalCode":"32839","locality":"Steinheim","municipality":{"key":"05762032","name":"Steinheim, Stadt","type":"Stadt"},"district":{"key":"05762","name":"Höxter","type":"Kreis"},"federalState":{"key":"05","name":"Nordrhein-Westfalen"}},{"name":"Wöbbeler Str.","postalCode":"32839","locality":"Steinheim","municipality":{"key":"05762032","name":"Steinheim, Stadt","type":"Stadt"},"district":{"key":"05762","name":"Höxter","type":"Kreis"},"federalState":{"key":"05","name":"Nordrhein-Westfalen"}},{"name":"Wolfsgasse","postalCode":"71711","locality":"Steinheim an der Murr","municipality":{"key":"08118070","name":"Steinheim an der Murr, Stadt","type":"Stadt"},"district":{"key":"08118","name":"Ludwigsburg","type":"Landkreis"},"federalState":{"key":"08","name":"Baden-Württemberg"}},{"name":"Wunnensteinstr.","postalCode":"71711","locality":"Steinheim an der Murr","municipality":{"key":"08118070","name":"Steinheim an der Murr, Stadt","type":"Stadt"},"district":{"key":"08118","name":"Ludwigsburg","type":"Landkreis"},"federalState":{"key":"08","name":"Baden-Württemberg"}},{"name":"Zangerbergweg","postalCode":"89555","locality":"Steinheim am Albuch","municipality":{"key":"08135032","name":"Steinheim am Albuch","type":"Kreisangehörige_Gemeinde"},"district":{"key":"08135","name":"Heidenheim","type":"Landkreis"},"federalState":{"key":"08","name":"Baden-Württemberg"}},{"name":"Zangersträßle","postalCode":"89555","locality":"Steinheim am Albuch","municipality":{"key":"08135032","name":"Steinheim am Albuch","type":"Kreisangehörige_Gemeinde"},"district":{"key":"08135","name":"Heidenheim","type":"Landkreis"},"federalState":{"key":"08","name":"Baden-Württemberg"}},{"name":"Zanger Weg","postalCode":"89555","locality":"Steinheim am Albuch","municipality":{"key":"08135032","name":"Steinheim am Albuch","type":"Kreisangehörige_Gemeinde"},"district":{"key":"08135","name":"Heidenheim","type":"Landkreis"},"federalState":{"key":"08","name":"Baden-Württemberg"}},{"name":"Zehnbuchensträßle","postalCode":"89555","locality":"Steinheim am Albuch","municipality":{"key":"08135032","name":"Steinheim am Albuch","type":"Kreisangehörige_Gemeinde"},"district":{"key":"08135","name":"Heidenheim","type":"Landkreis"},"federalState":{"key":"08","name":"Baden-Württemberg"}},{"name":"Zeisigweg","postalCode":"71711","locality":"Steinheim an der Murr","municipality":{"key":"08118070","name":"Steinheim an der Murr, Stadt","type":"Stadt"},"district":{"key":"08118","name":"Ludwigsburg","type":"Landkreis"},"federalState":{"key":"08","name":"Baden-Württemberg"}},{"name":"Zeppelinstr.","postalCode":"89555","locality":"Steinheim am Albuch","municipality":{"key":"08135032","name":"Steinheim am Albuch","type":"Kreisangehörige_Gemeinde"},"district":{"key":"08135","name":"Heidenheim","type":"Landkreis"},"federalState":{"key":"08","name":"Baden-Württemberg"}},{"name":"Ziegeläckerstr.","postalCode":"71711","locality":"Steinheim an der Murr","municipality":{"key":"08118070","name":"Steinheim an der Murr, Stadt","type":"Stadt"},"district":{"key":"08118","name":"Ludwigsburg","type":"Landkreis"},"federalState":{"key":"08","name":"Baden-Württemberg"}},{"name":"Ziegelstr.","postalCode":"71711","locality":"Steinheim an der Murr","municipality":{"key":"08118070","name":"Steinheim an der Murr, Stadt","type":"Stadt"},"district":{"key":"08118","name":"Ludwigsburg","type":"Landkreis"},"federalState":{"key":"08","name":"Baden-Württemberg"}},{"name":"Ziegelweinbergweg","postalCode":"71711","locality":"Steinheim an der Murr","municipality":{"key":"08118070","name":"Steinheim an der Murr, Stadt","type":"Stadt"},"district":{"key":"08118","name":"Ludwigsburg","type":"Landkreis"},"federalState":{"key":"08","name":"Baden-Württemberg"}},{"name":"Zum Immenschauer","postalCode":"32839","locality":"Steinheim","municipality":{"key":"05762032","name":"Steinheim, Stadt","type":"Stadt"},"district":{"key":"05762","name":"Höxter","type":"Kreis"},"federalState":{"key":"05","name":"Nordrhein-Westfalen"}},{"name":"Zur Wallbrede","postalCode":"32839","locality":"Steinheim","municipality":{"key":"05762032","name":"Steinheim, Stadt","type":"Stadt"},"district":{"key":"05762","name":"Höxter","type":"Kreis"},"federalState":{"key":"05","name":"Nordrhein-Westfalen"}},{"name":"Äbtissin-Theodora-Weg","postalCode":"37671","locality":"Höxter","municipality":{"key":"05762020","name":"Höxter, Stadt","type":"Stadt"},"district":{"key":"05762","name":"Höxter","type":"Kreis"},"federalState":{"key":"05","name":"Nordrhein-Westfalen"}},{"name":"Öschentalsträßle","postalCode":"89555","locality":"Steinheim am Albuch","municipality":{"key":"08135032","name":"Steinheim am Albuch","type":"Kreisangehörige_Gemeinde"},"district":{"key":"08135","name":"Heidenheim","type":"Landkreis"},"federalState":{"key":"08","name":"Baden-Württemberg"}},{"name":"Öschentalweg","postalCode":"89555","locality":"Steinheim am Albuch","municipality":{"key":"08135032","name":"Steinheim am Albuch","type":"Kreisangehörige_Gemeinde"},"district":{"key":"08135","name":"Heidenheim","type":"Landkreis"},"federalState":{"key":"08","name":"Baden-Württemberg"}},]