[{"name":"Auf dem Kertel","postalCode":"54413","locality":"Bescheid","municipality":{"key":"07235005","name":"Bescheid","type":"Kreisangehörige_Gemeinde"},"district":{"key":"07235","name":"Trier-Saarburg","type":"Landkreis"},"federalState":{"key":"07","name":"Rheinland-Pfalz"}},{"name":"Auf der Acht","postalCode":"54413","locality":"Bescheid","municipality":{"key":"07235005","name":"Bescheid","type":"Kreisangehörige_Gemeinde"},"district":{"key":"07235","name":"Trier-Saarburg","type":"Landkreis"},"federalState":{"key":"07","name":"Rheinland-Pfalz"}},{"name":"Dhrontalstr.","postalCode":"54413","locality":"Bescheid","municipality":{"key":"07235005","name":"Bescheid","type":"Kreisangehörige_Gemeinde"},"district":{"key":"07235","name":"Trier-Saarburg","type":"Landkreis"},"federalState":{"key":"07","name":"Rheinland-Pfalz"}},{"name":"Gartenstr.","postalCode":"54413","locality":"Bescheid","municipality":{"key":"07235005","name":"Bescheid","type":"Kreisangehörige_Gemeinde"},"district":{"key":"07235","name":"Trier-Saarburg","type":"Landkreis"},"federalState":{"key":"07","name":"Rheinland-Pfalz"}},{"name":"Hermeskeiler Str.","postalCode":"54413","locality":"Bescheid","municipality":{"key":"07235005","name":"Bescheid","type":"Kreisangehörige_Gemeinde"},"district":{"key":"07235","name":"Trier-Saarburg","type":"Landkreis"},"federalState":{"key":"07","name":"Rheinland-Pfalz"}},{"name":"Im Bungert","postalCode":"54413","locality":"Bescheid","municipality":{"key":"07235005","name":"Bescheid","type":"Kreisangehörige_Gemeinde"},"district":{"key":"07235","name":"Trier-Saarburg","type":"Landkreis"},"federalState":{"key":"07","name":"Rheinland-Pfalz"}},{"name":"Im Hofecken","postalCode":"54413","locality":"Bescheid","municipality":{"key":"07235005","name":"Bescheid","type":"Kreisangehörige_Gemeinde"},"district":{"key":"07235","name":"Trier-Saarburg","type":"Landkreis"},"federalState":{"key":"07","name":"Rheinland-Pfalz"}},{"name":"Im Königsgäßchen","postalCode":"54413","locality":"Bescheid","municipality":{"key":"07235005","name":"Bescheid","type":"Kreisangehörige_Gemeinde"},"district":{"key":"07235","name":"Trier-Saarburg","type":"Landkreis"},"federalState":{"key":"07","name":"Rheinland-Pfalz"}},{"name":"Im Wasengarten","postalCode":"54413","locality":"Bescheid","municipality":{"key":"07235005","name":"Bescheid","type":"Kreisangehörige_Gemeinde"},"district":{"key":"07235","name":"Trier-Saarburg","type":"Landkreis"},"federalState":{"key":"07","name":"Rheinland-Pfalz"}},{"name":"Kirchstr.","postalCode":"54413","locality":"Bescheid","municipality":{"key":"07235005","name":"Bescheid","type":"Kreisangehörige_Gemeinde"},"district":{"key":"07235","name":"Trier-Saarburg","type":"Landkreis"},"federalState":{"key":"07","name":"Rheinland-Pfalz"}},{"name":"Mühlenblick","postalCode":"54413","locality":"Bescheid","municipality":{"key":"07235005","name":"Bescheid","type":"Kreisangehörige_Gemeinde"},"district":{"key":"07235","name":"Trier-Saarburg","type":"Landkreis"},"federalState":{"key":"07","name":"Rheinland-Pfalz"}},{"name":"Schulstr.","postalCode":"54413","locality":"Bescheid","municipality":{"key":"07235005","name":"Bescheid","type":"Kreisangehörige_Gemeinde"},"district":{"key":"07235","name":"Trier-Saarburg","type":"Landkreis"},"federalState":{"key":"07","name":"Rheinland-Pfalz"}},{"name":"Trierer Str.","postalCode":"54413","locality":"Bescheid","municipality":{"key":"07235005","name":"Bescheid","type":"Kreisangehörige_Gemeinde"},"district":{"key":"07235","name":"Trier-Saarburg","type":"Landkreis"},"federalState":{"key":"07","name":"Rheinland-Pfalz"}},{"name":"Waldstr.","postalCode":"54413","locality":"Bescheid","municipality":{"key":"07235005","name":"Bescheid","type":"Kreisangehörige_Gemeinde"},"district":{"key":"07235","name":"Trier-Saarburg","type":"Landkreis"},"federalState":{"key":"07","name":"Rheinland-Pfalz"}},{"name":"Zum Heidengraben","postalCode":"54413","locality":"Bescheid","municipality":{"key":"07235005","name":"Bescheid","type":"Kreisangehörige_Gemeinde"},"district":{"key":"07235","name":"Trier-Saarburg","type":"Landkreis"},"federalState":{"key":"07","name":"Rheinland-Pfalz"}},]