[{"key":"10147621","name":"Ackermätteli","postalCode":"4436","locality":"Liedertswil","commune":{"key":"2890","name":"Liedertswil","shortName":"Liedertswil"},"district":{"key":"1305","name":"Bezirk Waldenburg"},"canton":{"key":"13","code":"BL","name":"Basel-Landschaft"},"status":"Real"},{"key":"10072541","name":"Baumgarten","postalCode":"4436","locality":"Liedertswil","commune":{"key":"2890","name":"Liedertswil","shortName":"Liedertswil"},"district":{"key":"1305","name":"Bezirk Waldenburg"},"canton":{"key":"13","code":"BL","name":"Basel-Landschaft"},"status":"Real"},{"key":"10120389","name":"Endermattweg","postalCode":"4436","locality":"Liedertswil","commune":{"key":"2890","name":"Liedertswil","shortName":"Liedertswil"},"district":{"key":"1305","name":"Bezirk Waldenburg"},"canton":{"key":"13","code":"BL","name":"Basel-Landschaft"},"status":"Real"},{"key":"10086980","name":"Hauptstrasse","postalCode":"4436","locality":"Liedertswil","commune":{"key":"2890","name":"Liedertswil","shortName":"Liedertswil"},"district":{"key":"1305","name":"Bezirk Waldenburg"},"canton":{"key":"13","code":"BL","name":"Basel-Landschaft"},"status":"Real"},{"key":"10156726","name":"Heimsten","postalCode":"4436","locality":"Liedertswil","commune":{"key":"2890","name":"Liedertswil","shortName":"Liedertswil"},"district":{"key":"1305","name":"Bezirk Waldenburg"},"canton":{"key":"13","code":"BL","name":"Basel-Landschaft"},"status":"Real"},{"key":"10163108","name":"Heimstenstich","postalCode":"4436","locality":"Liedertswil","commune":{"key":"2890","name":"Liedertswil","shortName":"Liedertswil"},"district":{"key":"1305","name":"Bezirk Waldenburg"},"canton":{"key":"13","code":"BL","name":"Basel-Landschaft"},"status":"Real"},{"key":"10186328","name":"Hinterhofstrasse","postalCode":"4436","locality":"Liedertswil","commune":{"key":"2890","name":"Liedertswil","shortName":"Liedertswil"},"district":{"key":"1305","name":"Bezirk Waldenburg"},"canton":{"key":"13","code":"BL","name":"Basel-Landschaft"},"status":"Real"},{"key":"10160043","name":"Langacher","postalCode":"4436","locality":"Liedertswil","commune":{"key":"2890","name":"Liedertswil","shortName":"Liedertswil"},"district":{"key":"1305","name":"Bezirk Waldenburg"},"canton":{"key":"13","code":"BL","name":"Basel-Landschaft"},"status":"Real"},{"key":"10027787","name":"Lettenweg","postalCode":"4436","locality":"Liedertswil","commune":{"key":"2890","name":"Liedertswil","shortName":"Liedertswil"},"district":{"key":"1305","name":"Bezirk Waldenburg"},"canton":{"key":"13","code":"BL","name":"Basel-Landschaft"},"status":"Real"},{"key":"10086979","name":"Mittelhof","postalCode":"4436","locality":"Liedertswil","commune":{"key":"2890","name":"Liedertswil","shortName":"Liedertswil"},"district":{"key":"1305","name":"Bezirk Waldenburg"},"canton":{"key":"13","code":"BL","name":"Basel-Landschaft"},"status":"Real"},{"key":"10027788","name":"Niederhof","postalCode":"4436","locality":"Liedertswil","commune":{"key":"2890","name":"Liedertswil","shortName":"Liedertswil"},"district":{"key":"1305","name":"Bezirk Waldenburg"},"canton":{"key":"13","code":"BL","name":"Basel-Landschaft"},"status":"Real"},{"key":"10114700","name":"Oberacker","postalCode":"4436","locality":"Liedertswil","commune":{"key":"2890","name":"Liedertswil","shortName":"Liedertswil"},"district":{"key":"1305","name":"Bezirk Waldenburg"},"canton":{"key":"13","code":"BL","name":"Basel-Landschaft"},"status":"Real"},{"key":"10161733","name":"Oberer Bodenacker","postalCode":"4436","locality":"Liedertswil","commune":{"key":"2890","name":"Liedertswil","shortName":"Liedertswil"},"district":{"key":"1305","name":"Bezirk Waldenburg"},"canton":{"key":"13","code":"BL","name":"Basel-Landschaft"},"status":"Real"},{"key":"10134160","name":"Oerlenberg","postalCode":"4436","locality":"Liedertswil","commune":{"key":"2890","name":"Liedertswil","shortName":"Liedertswil"},"district":{"key":"1305","name":"Bezirk Waldenburg"},"canton":{"key":"13","code":"BL","name":"Basel-Landschaft"},"status":"Real"},{"key":"10110806","name":"Reigoldswilerstrasse","postalCode":"4436","locality":"Liedertswil","commune":{"key":"2890","name":"Liedertswil","shortName":"Liedertswil"},"district":{"key":"1305","name":"Bezirk Waldenburg"},"canton":{"key":"13","code":"BL","name":"Basel-Landschaft"},"status":"Real"},{"key":"10086981","name":"Röthenweg","postalCode":"4436","locality":"Liedertswil","commune":{"key":"2890","name":"Liedertswil","shortName":"Liedertswil"},"district":{"key":"1305","name":"Bezirk Waldenburg"},"canton":{"key":"13","code":"BL","name":"Basel-Landschaft"},"status":"Real"},{"key":"10163109","name":"Schwitzermatt","postalCode":"4436","locality":"Liedertswil","commune":{"key":"2890","name":"Liedertswil","shortName":"Liedertswil"},"district":{"key":"1305","name":"Bezirk Waldenburg"},"canton":{"key":"13","code":"BL","name":"Basel-Landschaft"},"status":"Real"},{"key":"10151096","name":"Sonnenhof","postalCode":"4436","locality":"Liedertswil","commune":{"key":"2890","name":"Liedertswil","shortName":"Liedertswil"},"district":{"key":"1305","name":"Bezirk Waldenburg"},"canton":{"key":"13","code":"BL","name":"Basel-Landschaft"},"status":"Real"},{"key":"10161734","name":"Studenfluh","postalCode":"4436","locality":"Liedertswil","commune":{"key":"2890","name":"Liedertswil","shortName":"Liedertswil"},"district":{"key":"1305","name":"Bezirk Waldenburg"},"canton":{"key":"13","code":"BL","name":"Basel-Landschaft"},"status":"Real"},{"key":"10243687","name":"Tittertenstrasse","postalCode":"4436","locality":"Liedertswil","commune":{"key":"2890","name":"Liedertswil","shortName":"Liedertswil"},"district":{"key":"1305","name":"Bezirk Waldenburg"},"canton":{"key":"13","code":"BL","name":"Basel-Landschaft"},"status":"Real"},{"key":"10159099","name":"Unterer Bodenacker","postalCode":"4436","locality":"Liedertswil","commune":{"key":"2890","name":"Liedertswil","shortName":"Liedertswil"},"district":{"key":"1305","name":"Bezirk Waldenburg"},"canton":{"key":"13","code":"BL","name":"Basel-Landschaft"},"status":"Real"},{"key":"10159100","name":"Weidli","postalCode":"4436","locality":"Liedertswil","commune":{"key":"2890","name":"Liedertswil","shortName":"Liedertswil"},"district":{"key":"1305","name":"Bezirk Waldenburg"},"canton":{"key":"13","code":"BL","name":"Basel-Landschaft"},"status":"Real"},{"key":"10160443","name":"Weidloch","postalCode":"4436","locality":"Liedertswil","commune":{"key":"2890","name":"Liedertswil","shortName":"Liedertswil"},"district":{"key":"1305","name":"Bezirk Waldenburg"},"canton":{"key":"13","code":"BL","name":"Basel-Landschaft"},"status":"Real"},]