[{"name":"10th Avenue","postalCode":"67661","locality":"Kaiserslautern","municipality":{"key":"07312000","name":"Kaiserslautern, Stadt","type":"Kreisfreie_Stadt"},"district":{"key":"07312","name":"Kaiserslautern, kreisfreie Stadt","type":"Kreisfreie_Stadt"},"federalState":{"key":"07","name":"Rheinland-Pfalz"}},{"name":"5th Avenue","postalCode":"67661","locality":"Kaiserslautern","municipality":{"key":"07312000","name":"Kaiserslautern, Stadt","type":"Kreisfreie_Stadt"},"district":{"key":"07312","name":"Kaiserslautern, kreisfreie Stadt","type":"Kreisfreie_Stadt"},"federalState":{"key":"07","name":"Rheinland-Pfalz"}},{"name":"6th Avenue","postalCode":"67661","locality":"Kaiserslautern","municipality":{"key":"07312000","name":"Kaiserslautern, Stadt","type":"Kreisfreie_Stadt"},"district":{"key":"07312","name":"Kaiserslautern, kreisfreie Stadt","type":"Kreisfreie_Stadt"},"federalState":{"key":"07","name":"Rheinland-Pfalz"}},{"name":"Ahornweg","postalCode":"66851","locality":"Queidersbach","municipality":{"key":"07335037","name":"Queidersbach","type":"Kreisangehörige_Gemeinde"},"district":{"key":"07335","name":"Kaiserslautern","type":"Landkreis"},"federalState":{"key":"07","name":"Rheinland-Pfalz"}},{"name":"Am Hasenhübel","postalCode":"66851","locality":"Queidersbach","municipality":{"key":"07335037","name":"Queidersbach","type":"Kreisangehörige_Gemeinde"},"district":{"key":"07335","name":"Kaiserslautern","type":"Landkreis"},"federalState":{"key":"07","name":"Rheinland-Pfalz"}},{"name":"An der Ritsch","postalCode":"66851","locality":"Queidersbach","municipality":{"key":"07335037","name":"Queidersbach","type":"Kreisangehörige_Gemeinde"},"district":{"key":"07335","name":"Kaiserslautern","type":"Landkreis"},"federalState":{"key":"07","name":"Rheinland-Pfalz"}},{"name":"Antoniusstr.","postalCode":"66851","locality":"Queidersbach","municipality":{"key":"07335037","name":"Queidersbach","type":"Kreisangehörige_Gemeinde"},"district":{"key":"07335","name":"Kaiserslautern","type":"Landkreis"},"federalState":{"key":"07","name":"Rheinland-Pfalz"}},{"name":"Auf der Heide","postalCode":"66851","locality":"Queidersbach","municipality":{"key":"07335037","name":"Queidersbach","type":"Kreisangehörige_Gemeinde"},"district":{"key":"07335","name":"Kaiserslautern","type":"Landkreis"},"federalState":{"key":"07","name":"Rheinland-Pfalz"}},{"name":"Bachstr.","postalCode":"66851","locality":"Queidersbach","municipality":{"key":"07335037","name":"Queidersbach","type":"Kreisangehörige_Gemeinde"},"district":{"key":"07335","name":"Kaiserslautern","type":"Landkreis"},"federalState":{"key":"07","name":"Rheinland-Pfalz"}},{"name":"Barbarossastr.","postalCode":"66851","locality":"Queidersbach","municipality":{"key":"07335037","name":"Queidersbach","type":"Kreisangehörige_Gemeinde"},"district":{"key":"07335","name":"Kaiserslautern","type":"Landkreis"},"federalState":{"key":"07","name":"Rheinland-Pfalz"}},{"name":"Birkenweg","postalCode":"66851","locality":"Queidersbach","municipality":{"key":"07335037","name":"Queidersbach","type":"Kreisangehörige_Gemeinde"},"district":{"key":"07335","name":"Kaiserslautern","type":"Landkreis"},"federalState":{"key":"07","name":"Rheinland-Pfalz"}},{"name":"Blumenstr.","postalCode":"66851","locality":"Queidersbach","municipality":{"key":"07335037","name":"Queidersbach","type":"Kreisangehörige_Gemeinde"},"district":{"key":"07335","name":"Kaiserslautern","type":"Landkreis"},"federalState":{"key":"07","name":"Rheinland-Pfalz"}},{"name":"Bruchstr.","postalCode":"66851","locality":"Queidersbach","municipality":{"key":"07335037","name":"Queidersbach","type":"Kreisangehörige_Gemeinde"},"district":{"key":"07335","name":"Kaiserslautern","type":"Landkreis"},"federalState":{"key":"07","name":"Rheinland-Pfalz"}},{"name":"Brunnenstr.","postalCode":"66851","locality":"Queidersbach","municipality":{"key":"07335037","name":"Queidersbach","type":"Kreisangehörige_Gemeinde"},"district":{"key":"07335","name":"Kaiserslautern","type":"Landkreis"},"federalState":{"key":"07","name":"Rheinland-Pfalz"}},{"name":"Buchenweg","postalCode":"66851","locality":"Queidersbach","municipality":{"key":"07335037","name":"Queidersbach","type":"Kreisangehörige_Gemeinde"},"district":{"key":"07335","name":"Kaiserslautern","type":"Landkreis"},"federalState":{"key":"07","name":"Rheinland-Pfalz"}},{"name":"California Avenue","postalCode":"67661","locality":"Kaiserslautern","municipality":{"key":"07312000","name":"Kaiserslautern, Stadt","type":"Kreisfreie_Stadt"},"district":{"key":"07312","name":"Kaiserslautern, kreisfreie Stadt","type":"Kreisfreie_Stadt"},"federalState":{"key":"07","name":"Rheinland-Pfalz"}},{"name":"Carl-Billand-Str.","postalCode":"67661","locality":"Kaiserslautern","municipality":{"key":"07312000","name":"Kaiserslautern, Stadt","type":"Kreisfreie_Stadt"},"district":{"key":"07312","name":"Kaiserslautern, kreisfreie Stadt","type":"Kreisfreie_Stadt"},"federalState":{"key":"07","name":"Rheinland-Pfalz"}},{"name":"Carl-Diem-Str.","postalCode":"67659","locality":"Kaiserslautern","municipality":{"key":"07312000","name":"Kaiserslautern, Stadt","type":"Kreisfreie_Stadt"},"district":{"key":"07312","name":"Kaiserslautern, kreisfreie Stadt","type":"Kreisfreie_Stadt"},"federalState":{"key":"07","name":"Rheinland-Pfalz"}},{"name":"Carl-Euler-Str.","postalCode":"67663","locality":"Kaiserslautern","municipality":{"key":"07312000","name":"Kaiserslautern, Stadt","type":"Kreisfreie_Stadt"},"district":{"key":"07312","name":"Kaiserslautern, kreisfreie Stadt","type":"Kreisfreie_Stadt"},"federalState":{"key":"07","name":"Rheinland-Pfalz"}},{"name":"Carl-F.-Benz-Str.","postalCode":"67657","locality":"Kaiserslautern","municipality":{"key":"07312000","name":"Kaiserslautern, Stadt","type":"Kreisfreie_Stadt"},"district":{"key":"07312","name":"Kaiserslautern, kreisfreie Stadt","type":"Kreisfreie_Stadt"},"federalState":{"key":"07","name":"Rheinland-Pfalz"}},{"name":"Carl-Jacob-Str.","postalCode":"67659","locality":"Kaiserslautern","municipality":{"key":"07312000","name":"Kaiserslautern, Stadt","type":"Kreisfreie_Stadt"},"district":{"key":"07312","name":"Kaiserslautern, kreisfreie Stadt","type":"Kreisfreie_Stadt"},"federalState":{"key":"07","name":"Rheinland-Pfalz"}},{"name":"Carlo-Schmid-Str.","postalCode":"67663","locality":"Kaiserslautern","municipality":{"key":"07312000","name":"Kaiserslautern, Stadt","type":"Kreisfreie_Stadt"},"district":{"key":"07312","name":"Kaiserslautern, kreisfreie Stadt","type":"Kreisfreie_Stadt"},"federalState":{"key":"07","name":"Rheinland-Pfalz"}},{"name":"Carl-Reichert-Str.","postalCode":"67655","locality":"Kaiserslautern","municipality":{"key":"07312000","name":"Kaiserslautern, Stadt","type":"Kreisfreie_Stadt"},"district":{"key":"07312","name":"Kaiserslautern, kreisfreie Stadt","type":"Kreisfreie_Stadt"},"federalState":{"key":"07","name":"Rheinland-Pfalz"}},{"name":"Carl-Schurz-Str.","postalCode":"67659","locality":"Kaiserslautern","municipality":{"key":"07312000","name":"Kaiserslautern, Stadt","type":"Kreisfreie_Stadt"},"district":{"key":"07312","name":"Kaiserslautern, kreisfreie Stadt","type":"Kreisfreie_Stadt"},"federalState":{"key":"07","name":"Rheinland-Pfalz"}},{"name":"Carl-Sonnenschein-Str.","postalCode":"67663","locality":"Kaiserslautern","municipality":{"key":"07312000","name":"Kaiserslautern, Stadt","type":"Kreisfreie_Stadt"},"district":{"key":"07312","name":"Kaiserslautern, kreisfreie Stadt","type":"Kreisfreie_Stadt"},"federalState":{"key":"07","name":"Rheinland-Pfalz"}},{"name":"Carmerstr.","postalCode":"67661","locality":"Kaiserslautern","municipality":{"key":"07312000","name":"Kaiserslautern, Stadt","type":"Kreisfreie_Stadt"},"district":{"key":"07312","name":"Kaiserslautern, kreisfreie Stadt","type":"Kreisfreie_Stadt"},"federalState":{"key":"07","name":"Rheinland-Pfalz"}},{"name":"Carola-Dauber-Str.","postalCode":"67663","locality":"Kaiserslautern","municipality":{"key":"07312000","name":"Kaiserslautern, Stadt","type":"Kreisfreie_Stadt"},"district":{"key":"07312","name":"Kaiserslautern, kreisfreie Stadt","type":"Kreisfreie_Stadt"},"federalState":{"key":"07","name":"Rheinland-Pfalz"}},{"name":"Carolina Avenue","postalCode":"67661","locality":"Kaiserslautern","municipality":{"key":"07312000","name":"Kaiserslautern, Stadt","type":"Kreisfreie_Stadt"},"district":{"key":"07312","name":"Kaiserslautern, kreisfreie Stadt","type":"Kreisfreie_Stadt"},"federalState":{"key":"07","name":"Rheinland-Pfalz"}},{"name":"Casimirring","postalCode":"67663","locality":"Kaiserslautern","municipality":{"key":"07312000","name":"Kaiserslautern, Stadt","type":"Kreisfreie_Stadt"},"district":{"key":"07312","name":"Kaiserslautern, kreisfreie Stadt","type":"Kreisfreie_Stadt"},"federalState":{"key":"07","name":"Rheinland-Pfalz"}},{"name":"Clara-Immerwahr-Str.","postalCode":"67661","locality":"Kaiserslautern","municipality":{"key":"07312000","name":"Kaiserslautern, Stadt","type":"Kreisfreie_Stadt"},"district":{"key":"07312","name":"Kaiserslautern, kreisfreie Stadt","type":"Kreisfreie_Stadt"},"federalState":{"key":"07","name":"Rheinland-Pfalz"}},{"name":"Colorado Avenue","postalCode":"67661","locality":"Kaiserslautern","municipality":{"key":"07312000","name":"Kaiserslautern, Stadt","type":"Kreisfreie_Stadt"},"district":{"key":"07312","name":"Kaiserslautern, kreisfreie Stadt","type":"Kreisfreie_Stadt"},"federalState":{"key":"07","name":"Rheinland-Pfalz"}},{"name":"Columbia-Str.","postalCode":"67663","locality":"Kaiserslautern","municipality":{"key":"07312000","name":"Kaiserslautern, Stadt","type":"Kreisfreie_Stadt"},"district":{"key":"07312","name":"Kaiserslautern, kreisfreie Stadt","type":"Kreisfreie_Stadt"},"federalState":{"key":"07","name":"Rheinland-Pfalz"}},{"name":"Connecticut Avenue","postalCode":"67661","locality":"Kaiserslautern","municipality":{"key":"07312000","name":"Kaiserslautern, Stadt","type":"Kreisfreie_Stadt"},"district":{"key":"07312","name":"Kaiserslautern, kreisfreie Stadt","type":"Kreisfreie_Stadt"},"federalState":{"key":"07","name":"Rheinland-Pfalz"}},{"name":"Conradstr.","postalCode":"67655","locality":"Kaiserslautern","municipality":{"key":"07312000","name":"Kaiserslautern, Stadt","type":"Kreisfreie_Stadt"},"district":{"key":"07312","name":"Kaiserslautern, kreisfreie Stadt","type":"Kreisfreie_Stadt"},"federalState":{"key":"07","name":"Rheinland-Pfalz"}},{"name":"Cusanusstr.","postalCode":"67663","locality":"Kaiserslautern","municipality":{"key":"07312000","name":"Kaiserslautern, Stadt","type":"Kreisfreie_Stadt"},"district":{"key":"07312","name":"Kaiserslautern, kreisfreie Stadt","type":"Kreisfreie_Stadt"},"federalState":{"key":"07","name":"Rheinland-Pfalz"}},{"name":"Dellfeldstr.","postalCode":"66851","locality":"Queidersbach","municipality":{"key":"07335037","name":"Queidersbach","type":"Kreisangehörige_Gemeinde"},"district":{"key":"07335","name":"Kaiserslautern","type":"Landkreis"},"federalState":{"key":"07","name":"Rheinland-Pfalz"}},{"name":"Diedenstr.","postalCode":"66851","locality":"Queidersbach","municipality":{"key":"07335037","name":"Queidersbach","type":"Kreisangehörige_Gemeinde"},"district":{"key":"07335","name":"Kaiserslautern","type":"Landkreis"},"federalState":{"key":"07","name":"Rheinland-Pfalz"}},{"name":"Eckstr.","postalCode":"66851","locality":"Queidersbach","municipality":{"key":"07335037","name":"Queidersbach","type":"Kreisangehörige_Gemeinde"},"district":{"key":"07335","name":"Kaiserslautern","type":"Landkreis"},"federalState":{"key":"07","name":"Rheinland-Pfalz"}},{"name":"Einfahrt","postalCode":"66851","locality":"Queidersbach","municipality":{"key":"07335037","name":"Queidersbach","type":"Kreisangehörige_Gemeinde"},"district":{"key":"07335","name":"Kaiserslautern","type":"Landkreis"},"federalState":{"key":"07","name":"Rheinland-Pfalz"}},{"name":"Fichtenstr.","postalCode":"66851","locality":"Queidersbach","municipality":{"key":"07335037","name":"Queidersbach","type":"Kreisangehörige_Gemeinde"},"district":{"key":"07335","name":"Kaiserslautern","type":"Landkreis"},"federalState":{"key":"07","name":"Rheinland-Pfalz"}},{"name":"Fliederweg","postalCode":"66851","locality":"Queidersbach","municipality":{"key":"07335037","name":"Queidersbach","type":"Kreisangehörige_Gemeinde"},"district":{"key":"07335","name":"Kaiserslautern","type":"Landkreis"},"federalState":{"key":"07","name":"Rheinland-Pfalz"}},{"name":"Flurstr.","postalCode":"66851","locality":"Queidersbach","municipality":{"key":"07335037","name":"Queidersbach","type":"Kreisangehörige_Gemeinde"},"district":{"key":"07335","name":"Kaiserslautern","type":"Landkreis"},"federalState":{"key":"07","name":"Rheinland-Pfalz"}},{"name":"Forsthaus Stempelberg","postalCode":"66851","locality":"Queidersbach","municipality":{"key":"07335037","name":"Queidersbach","type":"Kreisangehörige_Gemeinde"},"district":{"key":"07335","name":"Kaiserslautern","type":"Landkreis"},"federalState":{"key":"07","name":"Rheinland-Pfalz"}},{"name":"Gartenstr.","postalCode":"66851","locality":"Queidersbach","municipality":{"key":"07335037","name":"Queidersbach","type":"Kreisangehörige_Gemeinde"},"district":{"key":"07335","name":"Kaiserslautern","type":"Landkreis"},"federalState":{"key":"07","name":"Rheinland-Pfalz"}},{"name":"Hauptstr.","postalCode":"66851","locality":"Queidersbach","municipality":{"key":"07335037","name":"Queidersbach","type":"Kreisangehörige_Gemeinde"},"district":{"key":"07335","name":"Kaiserslautern","type":"Landkreis"},"federalState":{"key":"07","name":"Rheinland-Pfalz"}},{"name":"Heißenbergstr.","postalCode":"66851","locality":"Queidersbach","municipality":{"key":"07335037","name":"Queidersbach","type":"Kreisangehörige_Gemeinde"},"district":{"key":"07335","name":"Kaiserslautern","type":"Landkreis"},"federalState":{"key":"07","name":"Rheinland-Pfalz"}},{"name":"Hessenlandstr.","postalCode":"66851","locality":"Queidersbach","municipality":{"key":"07335037","name":"Queidersbach","type":"Kreisangehörige_Gemeinde"},"district":{"key":"07335","name":"Kaiserslautern","type":"Landkreis"},"federalState":{"key":"07","name":"Rheinland-Pfalz"}},{"name":"Hohläcker","postalCode":"66851","locality":"Queidersbach","municipality":{"key":"07335037","name":"Queidersbach","type":"Kreisangehörige_Gemeinde"},"district":{"key":"07335","name":"Kaiserslautern","type":"Landkreis"},"federalState":{"key":"07","name":"Rheinland-Pfalz"}},{"name":"Hübelstr.","postalCode":"66851","locality":"Queidersbach","municipality":{"key":"07335037","name":"Queidersbach","type":"Kreisangehörige_Gemeinde"},"district":{"key":"07335","name":"Kaiserslautern","type":"Landkreis"},"federalState":{"key":"07","name":"Rheinland-Pfalz"}},{"name":"Im Gewerbegebiet","postalCode":"66851","locality":"Queidersbach","municipality":{"key":"07335037","name":"Queidersbach","type":"Kreisangehörige_Gemeinde"},"district":{"key":"07335","name":"Kaiserslautern","type":"Landkreis"},"federalState":{"key":"07","name":"Rheinland-Pfalz"}},{"name":"Jahnstr.","postalCode":"66851","locality":"Queidersbach","municipality":{"key":"07335037","name":"Queidersbach","type":"Kreisangehörige_Gemeinde"},"district":{"key":"07335","name":"Kaiserslautern","type":"Landkreis"},"federalState":{"key":"07","name":"Rheinland-Pfalz"}},{"name":"Jakobsstr.","postalCode":"66851","locality":"Queidersbach","municipality":{"key":"07335037","name":"Queidersbach","type":"Kreisangehörige_Gemeinde"},"district":{"key":"07335","name":"Kaiserslautern","type":"Landkreis"},"federalState":{"key":"07","name":"Rheinland-Pfalz"}},{"name":"Julius-Konrad-Str.","postalCode":"66851","locality":"Queidersbach","municipality":{"key":"07335037","name":"Queidersbach","type":"Kreisangehörige_Gemeinde"},"district":{"key":"07335","name":"Kaiserslautern","type":"Landkreis"},"federalState":{"key":"07","name":"Rheinland-Pfalz"}},{"name":"Kiefernstr.","postalCode":"66851","locality":"Queidersbach","municipality":{"key":"07335037","name":"Queidersbach","type":"Kreisangehörige_Gemeinde"},"district":{"key":"07335","name":"Kaiserslautern","type":"Landkreis"},"federalState":{"key":"07","name":"Rheinland-Pfalz"}},{"name":"Kirchstr.","postalCode":"66851","locality":"Queidersbach","municipality":{"key":"07335037","name":"Queidersbach","type":"Kreisangehörige_Gemeinde"},"district":{"key":"07335","name":"Kaiserslautern","type":"Landkreis"},"federalState":{"key":"07","name":"Rheinland-Pfalz"}},{"name":"Klosterstr.","postalCode":"66851","locality":"Queidersbach","municipality":{"key":"07335037","name":"Queidersbach","type":"Kreisangehörige_Gemeinde"},"district":{"key":"07335","name":"Kaiserslautern","type":"Landkreis"},"federalState":{"key":"07","name":"Rheinland-Pfalz"}},{"name":"Kreuzstr.","postalCode":"66851","locality":"Queidersbach","municipality":{"key":"07335037","name":"Queidersbach","type":"Kreisangehörige_Gemeinde"},"district":{"key":"07335","name":"Kaiserslautern","type":"Landkreis"},"federalState":{"key":"07","name":"Rheinland-Pfalz"}},{"name":"Langentalstr.","postalCode":"66851","locality":"Queidersbach","municipality":{"key":"07335037","name":"Queidersbach","type":"Kreisangehörige_Gemeinde"},"district":{"key":"07335","name":"Kaiserslautern","type":"Landkreis"},"federalState":{"key":"07","name":"Rheinland-Pfalz"}},{"name":"Lärchenstr.","postalCode":"66851","locality":"Queidersbach","municipality":{"key":"07335037","name":"Queidersbach","type":"Kreisangehörige_Gemeinde"},"district":{"key":"07335","name":"Kaiserslautern","type":"Landkreis"},"federalState":{"key":"07","name":"Rheinland-Pfalz"}},{"name":"Lindenstr.","postalCode":"66851","locality":"Queidersbach","municipality":{"key":"07335037","name":"Queidersbach","type":"Kreisangehörige_Gemeinde"},"district":{"key":"07335","name":"Kaiserslautern","type":"Landkreis"},"federalState":{"key":"07","name":"Rheinland-Pfalz"}},{"name":"Marktstr.","postalCode":"66851","locality":"Queidersbach","municipality":{"key":"07335037","name":"Queidersbach","type":"Kreisangehörige_Gemeinde"},"district":{"key":"07335","name":"Kaiserslautern","type":"Landkreis"},"federalState":{"key":"07","name":"Rheinland-Pfalz"}},{"name":"Mittelfeldstr.","postalCode":"66851","locality":"Queidersbach","municipality":{"key":"07335037","name":"Queidersbach","type":"Kreisangehörige_Gemeinde"},"district":{"key":"07335","name":"Kaiserslautern","type":"Landkreis"},"federalState":{"key":"07","name":"Rheinland-Pfalz"}},{"name":"Nadelstr.","postalCode":"67655","locality":"Kaiserslautern","municipality":{"key":"07312000","name":"Kaiserslautern, Stadt","type":"Kreisfreie_Stadt"},"district":{"key":"07312","name":"Kaiserslautern, kreisfreie Stadt","type":"Kreisfreie_Stadt"},"federalState":{"key":"07","name":"Rheinland-Pfalz"}},{"name":"Naumburger Str.","postalCode":"67663","locality":"Kaiserslautern","municipality":{"key":"07312000","name":"Kaiserslautern, Stadt","type":"Kreisfreie_Stadt"},"district":{"key":"07312","name":"Kaiserslautern, kreisfreie Stadt","type":"Kreisfreie_Stadt"},"federalState":{"key":"07","name":"Rheinland-Pfalz"}},{"name":"Nelkenstr.","postalCode":"67659","locality":"Kaiserslautern","municipality":{"key":"07312000","name":"Kaiserslautern, Stadt","type":"Kreisfreie_Stadt"},"district":{"key":"07312","name":"Kaiserslautern, kreisfreie Stadt","type":"Kreisfreie_Stadt"},"federalState":{"key":"07","name":"Rheinland-Pfalz"}},{"name":"Neue Str.","postalCode":"67659","locality":"Kaiserslautern","municipality":{"key":"07312000","name":"Kaiserslautern, Stadt","type":"Kreisfreie_Stadt"},"district":{"key":"07312","name":"Kaiserslautern, kreisfreie Stadt","type":"Kreisfreie_Stadt"},"federalState":{"key":"07","name":"Rheinland-Pfalz"}},{"name":"Newhamstr.","postalCode":"67663","locality":"Kaiserslautern","municipality":{"key":"07312000","name":"Kaiserslautern, Stadt","type":"Kreisfreie_Stadt"},"district":{"key":"07312","name":"Kaiserslautern, kreisfreie Stadt","type":"Kreisfreie_Stadt"},"federalState":{"key":"07","name":"Rheinland-Pfalz"}},{"name":"Nordbahnstr.","postalCode":"67657","locality":"Kaiserslautern","municipality":{"key":"07312000","name":"Kaiserslautern, Stadt","type":"Kreisfreie_Stadt"},"district":{"key":"07312","name":"Kaiserslautern, kreisfreie Stadt","type":"Kreisfreie_Stadt"},"federalState":{"key":"07","name":"Rheinland-Pfalz"}},{"name":"Oberer Rossrück","postalCode":"67661","locality":"Kaiserslautern","municipality":{"key":"07312000","name":"Kaiserslautern, Stadt","type":"Kreisfreie_Stadt"},"district":{"key":"07312","name":"Kaiserslautern, kreisfreie Stadt","type":"Kreisfreie_Stadt"},"federalState":{"key":"07","name":"Rheinland-Pfalz"}},{"name":"Obere Str.","postalCode":"67659","locality":"Kaiserslautern","municipality":{"key":"07312000","name":"Kaiserslautern, Stadt","type":"Kreisfreie_Stadt"},"district":{"key":"07312","name":"Kaiserslautern, kreisfreie Stadt","type":"Kreisfreie_Stadt"},"federalState":{"key":"07","name":"Rheinland-Pfalz"}},{"name":"Obermaierstr.","postalCode":"67657","locality":"Kaiserslautern","municipality":{"key":"07312000","name":"Kaiserslautern, Stadt","type":"Kreisfreie_Stadt"},"district":{"key":"07312","name":"Kaiserslautern, kreisfreie Stadt","type":"Kreisfreie_Stadt"},"federalState":{"key":"07","name":"Rheinland-Pfalz"}},{"name":"Obstwiese","postalCode":"67659","locality":"Kaiserslautern","municipality":{"key":"07312000","name":"Kaiserslautern, Stadt","type":"Kreisfreie_Stadt"},"district":{"key":"07312","name":"Kaiserslautern, kreisfreie Stadt","type":"Kreisfreie_Stadt"},"federalState":{"key":"07","name":"Rheinland-Pfalz"}},{"name":"Ochsenberg","postalCode":"67659","locality":"Kaiserslautern","municipality":{"key":"07312000","name":"Kaiserslautern, Stadt","type":"Kreisfreie_Stadt"},"district":{"key":"07312","name":"Kaiserslautern, kreisfreie Stadt","type":"Kreisfreie_Stadt"},"federalState":{"key":"07","name":"Rheinland-Pfalz"}},{"name":"Ohlkasterhohl","postalCode":"67657","locality":"Kaiserslautern","municipality":{"key":"07312000","name":"Kaiserslautern, Stadt","type":"Kreisfreie_Stadt"},"district":{"key":"07312","name":"Kaiserslautern, kreisfreie Stadt","type":"Kreisfreie_Stadt"},"federalState":{"key":"07","name":"Rheinland-Pfalz"}},{"name":"Opelkreisel","postalCode":"67663","locality":"Kaiserslautern","municipality":{"key":"07312000","name":"Kaiserslautern, Stadt","type":"Kreisfreie_Stadt"},"district":{"key":"07312","name":"Kaiserslautern, kreisfreie Stadt","type":"Kreisfreie_Stadt"},"federalState":{"key":"07","name":"Rheinland-Pfalz"}},{"name":"Opelstr.","postalCode":"67659","locality":"Kaiserslautern","municipality":{"key":"07312000","name":"Kaiserslautern, Stadt","type":"Kreisfreie_Stadt"},"district":{"key":"07312","name":"Kaiserslautern, kreisfreie Stadt","type":"Kreisfreie_Stadt"},"federalState":{"key":"07","name":"Rheinland-Pfalz"}},{"name":"Opelstr.","postalCode":"67661","locality":"Kaiserslautern","municipality":{"key":"07312000","name":"Kaiserslautern, Stadt","type":"Kreisfreie_Stadt"},"district":{"key":"07312","name":"Kaiserslautern, kreisfreie Stadt","type":"Kreisfreie_Stadt"},"federalState":{"key":"07","name":"Rheinland-Pfalz"}},{"name":"Orchesterstr.","postalCode":"67655","locality":"Kaiserslautern","municipality":{"key":"07312000","name":"Kaiserslautern, Stadt","type":"Kreisfreie_Stadt"},"district":{"key":"07312","name":"Kaiserslautern, kreisfreie Stadt","type":"Kreisfreie_Stadt"},"federalState":{"key":"07","name":"Rheinland-Pfalz"}},{"name":"Orffstr.","postalCode":"67655","locality":"Kaiserslautern","municipality":{"key":"07312000","name":"Kaiserslautern, Stadt","type":"Kreisfreie_Stadt"},"district":{"key":"07312","name":"Kaiserslautern, kreisfreie Stadt","type":"Kreisfreie_Stadt"},"federalState":{"key":"07","name":"Rheinland-Pfalz"}},{"name":"Orthstr.","postalCode":"67655","locality":"Kaiserslautern","municipality":{"key":"07312000","name":"Kaiserslautern, Stadt","type":"Kreisfreie_Stadt"},"district":{"key":"07312","name":"Kaiserslautern, kreisfreie Stadt","type":"Kreisfreie_Stadt"},"federalState":{"key":"07","name":"Rheinland-Pfalz"}},{"name":"Oskar-Schlemmer-Ring","postalCode":"67657","locality":"Kaiserslautern","municipality":{"key":"07312000","name":"Kaiserslautern, Stadt","type":"Kreisfreie_Stadt"},"district":{"key":"07312","name":"Kaiserslautern, kreisfreie Stadt","type":"Kreisfreie_Stadt"},"federalState":{"key":"07","name":"Rheinland-Pfalz"}},{"name":"Osterberg","postalCode":"67659","locality":"Kaiserslautern","municipality":{"key":"07312000","name":"Kaiserslautern, Stadt","type":"Kreisfreie_Stadt"},"district":{"key":"07312","name":"Kaiserslautern, kreisfreie Stadt","type":"Kreisfreie_Stadt"},"federalState":{"key":"07","name":"Rheinland-Pfalz"}},{"name":"Osterstr.","postalCode":"67655","locality":"Kaiserslautern","municipality":{"key":"07312000","name":"Kaiserslautern, Stadt","type":"Kreisfreie_Stadt"},"district":{"key":"07312","name":"Kaiserslautern, kreisfreie Stadt","type":"Kreisfreie_Stadt"},"federalState":{"key":"07","name":"Rheinland-Pfalz"}},{"name":"Otterbacher Str.","postalCode":"67659","locality":"Kaiserslautern","municipality":{"key":"07312000","name":"Kaiserslautern, Stadt","type":"Kreisfreie_Stadt"},"district":{"key":"07312","name":"Kaiserslautern, kreisfreie Stadt","type":"Kreisfreie_Stadt"},"federalState":{"key":"07","name":"Rheinland-Pfalz"}},{"name":"Otterberger Hohl","postalCode":"67657","locality":"Kaiserslautern","municipality":{"key":"07312000","name":"Kaiserslautern, Stadt","type":"Kreisfreie_Stadt"},"district":{"key":"07312","name":"Kaiserslautern, kreisfreie Stadt","type":"Kreisfreie_Stadt"},"federalState":{"key":"07","name":"Rheinland-Pfalz"}},{"name":"Otterberger Str.","postalCode":"67659","locality":"Kaiserslautern","municipality":{"key":"07312000","name":"Kaiserslautern, Stadt","type":"Kreisfreie_Stadt"},"district":{"key":"07312","name":"Kaiserslautern, kreisfreie Stadt","type":"Kreisfreie_Stadt"},"federalState":{"key":"07","name":"Rheinland-Pfalz"}},{"name":"Ottostr.","postalCode":"67657","locality":"Kaiserslautern","municipality":{"key":"07312000","name":"Kaiserslautern, Stadt","type":"Kreisfreie_Stadt"},"district":{"key":"07312","name":"Kaiserslautern, kreisfreie Stadt","type":"Kreisfreie_Stadt"},"federalState":{"key":"07","name":"Rheinland-Pfalz"}},{"name":"Panoramaweg","postalCode":"66851","locality":"Queidersbach","municipality":{"key":"07335037","name":"Queidersbach","type":"Kreisangehörige_Gemeinde"},"district":{"key":"07335","name":"Kaiserslautern","type":"Landkreis"},"federalState":{"key":"07","name":"Rheinland-Pfalz"}},{"name":"Petersbergstr.","postalCode":"66851","locality":"Queidersbach","municipality":{"key":"07335037","name":"Queidersbach","type":"Kreisangehörige_Gemeinde"},"district":{"key":"07335","name":"Kaiserslautern","type":"Landkreis"},"federalState":{"key":"07","name":"Rheinland-Pfalz"}},{"name":"Pfarrer-Bresky-Weg","postalCode":"66851","locality":"Queidersbach","municipality":{"key":"07335037","name":"Queidersbach","type":"Kreisangehörige_Gemeinde"},"district":{"key":"07335","name":"Kaiserslautern","type":"Landkreis"},"federalState":{"key":"07","name":"Rheinland-Pfalz"}},{"name":"Pirminiusstr.","postalCode":"66851","locality":"Queidersbach","municipality":{"key":"07335037","name":"Queidersbach","type":"Kreisangehörige_Gemeinde"},"district":{"key":"07335","name":"Kaiserslautern","type":"Landkreis"},"federalState":{"key":"07","name":"Rheinland-Pfalz"}},{"name":"Quellenstr.","postalCode":"67655","locality":"Kaiserslautern","municipality":{"key":"07312000","name":"Kaiserslautern, Stadt","type":"Kreisfreie_Stadt"},"district":{"key":"07312","name":"Kaiserslautern, kreisfreie Stadt","type":"Kreisfreie_Stadt"},"federalState":{"key":"07","name":"Rheinland-Pfalz"}},{"name":"Römerweg","postalCode":"66851","locality":"Queidersbach","municipality":{"key":"07335037","name":"Queidersbach","type":"Kreisangehörige_Gemeinde"},"district":{"key":"07335","name":"Kaiserslautern","type":"Landkreis"},"federalState":{"key":"07","name":"Rheinland-Pfalz"}},{"name":"Rosenstr.","postalCode":"66851","locality":"Queidersbach","municipality":{"key":"07335037","name":"Queidersbach","type":"Kreisangehörige_Gemeinde"},"district":{"key":"07335","name":"Kaiserslautern","type":"Landkreis"},"federalState":{"key":"07","name":"Rheinland-Pfalz"}},{"name":"Schulstr.","postalCode":"66851","locality":"Queidersbach","municipality":{"key":"07335037","name":"Queidersbach","type":"Kreisangehörige_Gemeinde"},"district":{"key":"07335","name":"Kaiserslautern","type":"Landkreis"},"federalState":{"key":"07","name":"Rheinland-Pfalz"}},{"name":"Schützenstr.","postalCode":"66851","locality":"Queidersbach","municipality":{"key":"07335037","name":"Queidersbach","type":"Kreisangehörige_Gemeinde"},"district":{"key":"07335","name":"Kaiserslautern","type":"Landkreis"},"federalState":{"key":"07","name":"Rheinland-Pfalz"}},{"name":"Seitenfeldstr.","postalCode":"66851","locality":"Queidersbach","municipality":{"key":"07335037","name":"Queidersbach","type":"Kreisangehörige_Gemeinde"},"district":{"key":"07335","name":"Kaiserslautern","type":"Landkreis"},"federalState":{"key":"07","name":"Rheinland-Pfalz"}},{"name":"Sickingenstr.","postalCode":"66851","locality":"Queidersbach","municipality":{"key":"07335037","name":"Queidersbach","type":"Kreisangehörige_Gemeinde"},"district":{"key":"07335","name":"Kaiserslautern","type":"Landkreis"},"federalState":{"key":"07","name":"Rheinland-Pfalz"}},{"name":"Steigstr.","postalCode":"66851","locality":"Queidersbach","municipality":{"key":"07335037","name":"Queidersbach","type":"Kreisangehörige_Gemeinde"},"district":{"key":"07335","name":"Kaiserslautern","type":"Landkreis"},"federalState":{"key":"07","name":"Rheinland-Pfalz"}},{"name":"Steinbachstr.","postalCode":"66851","locality":"Queidersbach","municipality":{"key":"07335037","name":"Queidersbach","type":"Kreisangehörige_Gemeinde"},"district":{"key":"07335","name":"Kaiserslautern","type":"Landkreis"},"federalState":{"key":"07","name":"Rheinland-Pfalz"}},{"name":"Talmorgen","postalCode":"67661","locality":"Kaiserslautern","municipality":{"key":"07312000","name":"Kaiserslautern, Stadt","type":"Kreisfreie_Stadt"},"district":{"key":"07312","name":"Kaiserslautern, kreisfreie Stadt","type":"Kreisfreie_Stadt"},"federalState":{"key":"07","name":"Rheinland-Pfalz"}},{"name":"Talstr.","postalCode":"67659","locality":"Kaiserslautern","municipality":{"key":"07312000","name":"Kaiserslautern, Stadt","type":"Kreisfreie_Stadt"},"district":{"key":"07312","name":"Kaiserslautern, kreisfreie Stadt","type":"Kreisfreie_Stadt"},"federalState":{"key":"07","name":"Rheinland-Pfalz"}},{"name":"Tannenstr.","postalCode":"67655","locality":"Kaiserslautern","municipality":{"key":"07312000","name":"Kaiserslautern, Stadt","type":"Kreisfreie_Stadt"},"district":{"key":"07312","name":"Kaiserslautern, kreisfreie Stadt","type":"Kreisfreie_Stadt"},"federalState":{"key":"07","name":"Rheinland-Pfalz"}},{"name":"Temporäre Fußgängerunterführung","postalCode":"67663","locality":"Kaiserslautern","municipality":{"key":"07312000","name":"Kaiserslautern, Stadt","type":"Kreisfreie_Stadt"},"district":{"key":"07312","name":"Kaiserslautern, kreisfreie Stadt","type":"Kreisfreie_Stadt"},"federalState":{"key":"07","name":"Rheinland-Pfalz"}},{"name":"Theodor-Heuss-Str.","postalCode":"67663","locality":"Kaiserslautern","municipality":{"key":"07312000","name":"Kaiserslautern, Stadt","type":"Kreisfreie_Stadt"},"district":{"key":"07312","name":"Kaiserslautern, kreisfreie Stadt","type":"Kreisfreie_Stadt"},"federalState":{"key":"07","name":"Rheinland-Pfalz"}},{"name":"Theodor-Kiefer-Str.","postalCode":"67663","locality":"Kaiserslautern","municipality":{"key":"07312000","name":"Kaiserslautern, Stadt","type":"Kreisfreie_Stadt"},"district":{"key":"07312","name":"Kaiserslautern, kreisfreie Stadt","type":"Kreisfreie_Stadt"},"federalState":{"key":"07","name":"Rheinland-Pfalz"}},{"name":"Theodor-Pixis-Str.","postalCode":"67659","locality":"Kaiserslautern","municipality":{"key":"07312000","name":"Kaiserslautern, Stadt","type":"Kreisfreie_Stadt"},"district":{"key":"07312","name":"Kaiserslautern, kreisfreie Stadt","type":"Kreisfreie_Stadt"},"federalState":{"key":"07","name":"Rheinland-Pfalz"}},{"name":"Theodor-Storm-Str.","postalCode":"67663","locality":"Kaiserslautern","municipality":{"key":"07312000","name":"Kaiserslautern, Stadt","type":"Kreisfreie_Stadt"},"district":{"key":"07312","name":"Kaiserslautern, kreisfreie Stadt","type":"Kreisfreie_Stadt"},"federalState":{"key":"07","name":"Rheinland-Pfalz"}},{"name":"Theodor-Zink-Str.","postalCode":"67657","locality":"Kaiserslautern","municipality":{"key":"07312000","name":"Kaiserslautern, Stadt","type":"Kreisfreie_Stadt"},"district":{"key":"07312","name":"Kaiserslautern, kreisfreie Stadt","type":"Kreisfreie_Stadt"},"federalState":{"key":"07","name":"Rheinland-Pfalz"}},{"name":"Theo-Vondano-Str.","postalCode":"67657","locality":"Kaiserslautern","municipality":{"key":"07312000","name":"Kaiserslautern, Stadt","type":"Kreisfreie_Stadt"},"district":{"key":"07312","name":"Kaiserslautern, kreisfreie Stadt","type":"Kreisfreie_Stadt"},"federalState":{"key":"07","name":"Rheinland-Pfalz"}},{"name":"Theresienstr.","postalCode":"67659","locality":"Kaiserslautern","municipality":{"key":"07312000","name":"Kaiserslautern, Stadt","type":"Kreisfreie_Stadt"},"district":{"key":"07312","name":"Kaiserslautern, kreisfreie Stadt","type":"Kreisfreie_Stadt"},"federalState":{"key":"07","name":"Rheinland-Pfalz"}},{"name":"Third Avenue","postalCode":"67661","locality":"Kaiserslautern","municipality":{"key":"07312000","name":"Kaiserslautern, Stadt","type":"Kreisfreie_Stadt"},"district":{"key":"07312","name":"Kaiserslautern, kreisfreie Stadt","type":"Kreisfreie_Stadt"},"federalState":{"key":"07","name":"Rheinland-Pfalz"}},{"name":"Thomas-Dehler-Str.","postalCode":"67663","locality":"Kaiserslautern","municipality":{"key":"07312000","name":"Kaiserslautern, Stadt","type":"Kreisfreie_Stadt"},"district":{"key":"07312","name":"Kaiserslautern, kreisfreie Stadt","type":"Kreisfreie_Stadt"},"federalState":{"key":"07","name":"Rheinland-Pfalz"}},{"name":"Tilsiter Str.","postalCode":"67659","locality":"Kaiserslautern","municipality":{"key":"07312000","name":"Kaiserslautern, Stadt","type":"Kreisfreie_Stadt"},"district":{"key":"07312","name":"Kaiserslautern, kreisfreie Stadt","type":"Kreisfreie_Stadt"},"federalState":{"key":"07","name":"Rheinland-Pfalz"}},{"name":"Tirolfstr.","postalCode":"67657","locality":"Kaiserslautern","municipality":{"key":"07312000","name":"Kaiserslautern, Stadt","type":"Kreisfreie_Stadt"},"district":{"key":"07312","name":"Kaiserslautern, kreisfreie Stadt","type":"Kreisfreie_Stadt"},"federalState":{"key":"07","name":"Rheinland-Pfalz"}},{"name":"Tränkwald","postalCode":"67661","locality":"Kaiserslautern","municipality":{"key":"07312000","name":"Kaiserslautern, Stadt","type":"Kreisfreie_Stadt"},"district":{"key":"07312","name":"Kaiserslautern, kreisfreie Stadt","type":"Kreisfreie_Stadt"},"federalState":{"key":"07","name":"Rheinland-Pfalz"}},{"name":"Triftstr.","postalCode":"67663","locality":"Kaiserslautern","municipality":{"key":"07312000","name":"Kaiserslautern, Stadt","type":"Kreisfreie_Stadt"},"district":{"key":"07312","name":"Kaiserslautern, kreisfreie Stadt","type":"Kreisfreie_Stadt"},"federalState":{"key":"07","name":"Rheinland-Pfalz"}},{"name":"Trippstadter Str.","postalCode":"67663","locality":"Kaiserslautern","municipality":{"key":"07312000","name":"Kaiserslautern, Stadt","type":"Kreisfreie_Stadt"},"district":{"key":"07312","name":"Kaiserslautern, kreisfreie Stadt","type":"Kreisfreie_Stadt"},"federalState":{"key":"07","name":"Rheinland-Pfalz"}},{"name":"Tulpenstr.","postalCode":"67655","locality":"Kaiserslautern","municipality":{"key":"07312000","name":"Kaiserslautern, Stadt","type":"Kreisfreie_Stadt"},"district":{"key":"07312","name":"Kaiserslautern, kreisfreie Stadt","type":"Kreisfreie_Stadt"},"federalState":{"key":"07","name":"Rheinland-Pfalz"}},{"name":"Turmstr.","postalCode":"67659","locality":"Kaiserslautern","municipality":{"key":"07312000","name":"Kaiserslautern, Stadt","type":"Kreisfreie_Stadt"},"district":{"key":"07312","name":"Kaiserslautern, kreisfreie Stadt","type":"Kreisfreie_Stadt"},"federalState":{"key":"07","name":"Rheinland-Pfalz"}},{"name":"Turnerstr.","postalCode":"67659","locality":"Kaiserslautern","municipality":{"key":"07312000","name":"Kaiserslautern, Stadt","type":"Kreisfreie_Stadt"},"district":{"key":"07312","name":"Kaiserslautern, kreisfreie Stadt","type":"Kreisfreie_Stadt"},"federalState":{"key":"07","name":"Rheinland-Pfalz"}},{"name":"Uhlandstr.","postalCode":"67661","locality":"Kaiserslautern","municipality":{"key":"07312000","name":"Kaiserslautern, Stadt","type":"Kreisfreie_Stadt"},"district":{"key":"07312","name":"Kaiserslautern, kreisfreie Stadt","type":"Kreisfreie_Stadt"},"federalState":{"key":"07","name":"Rheinland-Pfalz"}},{"name":"Ulker-Gass","postalCode":"67657","locality":"Kaiserslautern","municipality":{"key":"07312000","name":"Kaiserslautern, Stadt","type":"Kreisfreie_Stadt"},"district":{"key":"07312","name":"Kaiserslautern, kreisfreie Stadt","type":"Kreisfreie_Stadt"},"federalState":{"key":"07","name":"Rheinland-Pfalz"}},{"name":"Ulmenstr.","postalCode":"67661","locality":"Kaiserslautern","municipality":{"key":"07312000","name":"Kaiserslautern, Stadt","type":"Kreisfreie_Stadt"},"district":{"key":"07312","name":"Kaiserslautern, kreisfreie Stadt","type":"Kreisfreie_Stadt"},"federalState":{"key":"07","name":"Rheinland-Pfalz"}},{"name":"Unter den 30 Morgen","postalCode":"67657","locality":"Kaiserslautern","municipality":{"key":"07312000","name":"Kaiserslautern, Stadt","type":"Kreisfreie_Stadt"},"district":{"key":"07312","name":"Kaiserslautern, kreisfreie Stadt","type":"Kreisfreie_Stadt"},"federalState":{"key":"07","name":"Rheinland-Pfalz"}},{"name":"Unterer Rossrück","postalCode":"67661","locality":"Kaiserslautern","municipality":{"key":"07312000","name":"Kaiserslautern, Stadt","type":"Kreisfreie_Stadt"},"district":{"key":"07312","name":"Kaiserslautern, kreisfreie Stadt","type":"Kreisfreie_Stadt"},"federalState":{"key":"07","name":"Rheinland-Pfalz"}},{"name":"Veilchenweg","postalCode":"67657","locality":"Kaiserslautern","municipality":{"key":"07312000","name":"Kaiserslautern, Stadt","type":"Kreisfreie_Stadt"},"district":{"key":"07312","name":"Kaiserslautern, kreisfreie Stadt","type":"Kreisfreie_Stadt"},"federalState":{"key":"07","name":"Rheinland-Pfalz"}},{"name":"Velmannstr.","postalCode":"67657","locality":"Kaiserslautern","municipality":{"key":"07312000","name":"Kaiserslautern, Stadt","type":"Kreisfreie_Stadt"},"district":{"key":"07312","name":"Kaiserslautern, kreisfreie Stadt","type":"Kreisfreie_Stadt"},"federalState":{"key":"07","name":"Rheinland-Pfalz"}},{"name":"Villenstr.","postalCode":"67657","locality":"Kaiserslautern","municipality":{"key":"07312000","name":"Kaiserslautern, Stadt","type":"Kreisfreie_Stadt"},"district":{"key":"07312","name":"Kaiserslautern, kreisfreie Stadt","type":"Kreisfreie_Stadt"},"federalState":{"key":"07","name":"Rheinland-Pfalz"}},{"name":"Vogelhammerstr.","postalCode":"67659","locality":"Kaiserslautern","municipality":{"key":"07312000","name":"Kaiserslautern, Stadt","type":"Kreisfreie_Stadt"},"district":{"key":"07312","name":"Kaiserslautern, kreisfreie Stadt","type":"Kreisfreie_Stadt"},"federalState":{"key":"07","name":"Rheinland-Pfalz"}},{"name":"Vogelweher Str.","postalCode":"67661","locality":"Kaiserslautern","municipality":{"key":"07312000","name":"Kaiserslautern, Stadt","type":"Kreisfreie_Stadt"},"district":{"key":"07312","name":"Kaiserslautern, kreisfreie Stadt","type":"Kreisfreie_Stadt"},"federalState":{"key":"07","name":"Rheinland-Pfalz"}},{"name":"Vogelwoogstr.","postalCode":"67659","locality":"Kaiserslautern","municipality":{"key":"07312000","name":"Kaiserslautern, Stadt","type":"Kreisfreie_Stadt"},"district":{"key":"07312","name":"Kaiserslautern, kreisfreie Stadt","type":"Kreisfreie_Stadt"},"federalState":{"key":"07","name":"Rheinland-Pfalz"}},{"name":"Volkspark","postalCode":"67657","locality":"Kaiserslautern","municipality":{"key":"07312000","name":"Kaiserslautern, Stadt","type":"Kreisfreie_Stadt"},"district":{"key":"07312","name":"Kaiserslautern, kreisfreie Stadt","type":"Kreisfreie_Stadt"},"federalState":{"key":"07","name":"Rheinland-Pfalz"}},{"name":"Voltairestr.","postalCode":"67663","locality":"Kaiserslautern","municipality":{"key":"07312000","name":"Kaiserslautern, Stadt","type":"Kreisfreie_Stadt"},"district":{"key":"07312","name":"Kaiserslautern, kreisfreie Stadt","type":"Kreisfreie_Stadt"},"federalState":{"key":"07","name":"Rheinland-Pfalz"}},{"name":"Von-Braun-Str.","postalCode":"67657","locality":"Kaiserslautern","municipality":{"key":"07312000","name":"Kaiserslautern, Stadt","type":"Kreisfreie_Stadt"},"district":{"key":"07312","name":"Kaiserslautern, kreisfreie Stadt","type":"Kreisfreie_Stadt"},"federalState":{"key":"07","name":"Rheinland-Pfalz"}},{"name":"Von-der-Goltz-Str.","postalCode":"67655","locality":"Kaiserslautern","municipality":{"key":"07312000","name":"Kaiserslautern, Stadt","type":"Kreisfreie_Stadt"},"district":{"key":"07312","name":"Kaiserslautern, kreisfreie Stadt","type":"Kreisfreie_Stadt"},"federalState":{"key":"07","name":"Rheinland-Pfalz"}},{"name":"Von-Miller-Str.","postalCode":"67661","locality":"Kaiserslautern","municipality":{"key":"07312000","name":"Kaiserslautern, Stadt","type":"Kreisfreie_Stadt"},"district":{"key":"07312","name":"Kaiserslautern, kreisfreie Stadt","type":"Kreisfreie_Stadt"},"federalState":{"key":"07","name":"Rheinland-Pfalz"}},{"name":"Waldstr.","postalCode":"66851","locality":"Queidersbach","municipality":{"key":"07335037","name":"Queidersbach","type":"Kreisangehörige_Gemeinde"},"district":{"key":"07335","name":"Kaiserslautern","type":"Landkreis"},"federalState":{"key":"07","name":"Rheinland-Pfalz"}},{"name":"Weselbergstr.","postalCode":"66851","locality":"Queidersbach","municipality":{"key":"07335037","name":"Queidersbach","type":"Kreisangehörige_Gemeinde"},"district":{"key":"07335","name":"Kaiserslautern","type":"Landkreis"},"federalState":{"key":"07","name":"Rheinland-Pfalz"}},{"name":"Zum Dieselsberg","postalCode":"66851","locality":"Queidersbach","municipality":{"key":"07335037","name":"Queidersbach","type":"Kreisangehörige_Gemeinde"},"district":{"key":"07335","name":"Kaiserslautern","type":"Landkreis"},"federalState":{"key":"07","name":"Rheinland-Pfalz"}},{"name":"Zum Rosental","postalCode":"66851","locality":"Queidersbach","municipality":{"key":"07335037","name":"Queidersbach","type":"Kreisangehörige_Gemeinde"},"district":{"key":"07335","name":"Kaiserslautern","type":"Landkreis"},"federalState":{"key":"07","name":"Rheinland-Pfalz"}},{"name":"Zum Sachsenweg","postalCode":"66851","locality":"Queidersbach","municipality":{"key":"07335037","name":"Queidersbach","type":"Kreisangehörige_Gemeinde"},"district":{"key":"07335","name":"Kaiserslautern","type":"Landkreis"},"federalState":{"key":"07","name":"Rheinland-Pfalz"}},{"name":"Zum Wäldchen","postalCode":"66851","locality":"Queidersbach","municipality":{"key":"07335037","name":"Queidersbach","type":"Kreisangehörige_Gemeinde"},"district":{"key":"07335","name":"Kaiserslautern","type":"Landkreis"},"federalState":{"key":"07","name":"Rheinland-Pfalz"}},{"name":"Zum Wasserstein","postalCode":"66851","locality":"Queidersbach","municipality":{"key":"07335037","name":"Queidersbach","type":"Kreisangehörige_Gemeinde"},"district":{"key":"07335","name":"Kaiserslautern","type":"Landkreis"},"federalState":{"key":"07","name":"Rheinland-Pfalz"}},{"name":"Zum Winterberg","postalCode":"66851","locality":"Queidersbach","municipality":{"key":"07335037","name":"Queidersbach","type":"Kreisangehörige_Gemeinde"},"district":{"key":"07335","name":"Kaiserslautern","type":"Landkreis"},"federalState":{"key":"07","name":"Rheinland-Pfalz"}},{"name":"Zum Woogacker","postalCode":"66851","locality":"Queidersbach","municipality":{"key":"07335037","name":"Queidersbach","type":"Kreisangehörige_Gemeinde"},"district":{"key":"07335","name":"Kaiserslautern","type":"Landkreis"},"federalState":{"key":"07","name":"Rheinland-Pfalz"}},{"name":"Ätzweide","postalCode":"67659","locality":"Kaiserslautern","municipality":{"key":"07312000","name":"Kaiserslautern, Stadt","type":"Kreisfreie_Stadt"},"district":{"key":"07312","name":"Kaiserslautern, kreisfreie Stadt","type":"Kreisfreie_Stadt"},"federalState":{"key":"07","name":"Rheinland-Pfalz"}},]