[{"name":"Adolph-Kolping-Str.","postalCode":"84069","locality":"Schierling","municipality":{"key":"09375196","name":"Schierling, M","type":"Markt"},"district":{"key":"09375","name":"Regensburg","type":"Landkreis"},"federalState":{"key":"09","name":"Bayern"}},{"name":"Allersdorfer Str.","postalCode":"84069","locality":"Schierling","municipality":{"key":"09375196","name":"Schierling, M","type":"Markt"},"district":{"key":"09375","name":"Regensburg","type":"Landkreis"},"federalState":{"key":"09","name":"Bayern"}},{"name":"Alte Grabenstr.","postalCode":"84069","locality":"Schierling","municipality":{"key":"09375196","name":"Schierling, M","type":"Markt"},"district":{"key":"09375","name":"Regensburg","type":"Landkreis"},"federalState":{"key":"09","name":"Bayern"}},{"name":"Alte Siedlung","postalCode":"84069","locality":"Schierling","municipality":{"key":"09375196","name":"Schierling, M","type":"Markt"},"district":{"key":"09375","name":"Regensburg","type":"Landkreis"},"federalState":{"key":"09","name":"Bayern"}},{"name":"Am Anger","postalCode":"84069","locality":"Schierling","municipality":{"key":"09375196","name":"Schierling, M","type":"Markt"},"district":{"key":"09375","name":"Regensburg","type":"Landkreis"},"federalState":{"key":"09","name":"Bayern"}},{"name":"Am Bahndamm","postalCode":"84069","locality":"Schierling","municipality":{"key":"09375196","name":"Schierling, M","type":"Markt"},"district":{"key":"09375","name":"Regensburg","type":"Landkreis"},"federalState":{"key":"09","name":"Bayern"}},{"name":"Am Gedenkstein","postalCode":"84069","locality":"Schierling","municipality":{"key":"09375196","name":"Schierling, M","type":"Markt"},"district":{"key":"09375","name":"Regensburg","type":"Landkreis"},"federalState":{"key":"09","name":"Bayern"}},{"name":"Am Gewerbering","postalCode":"84069","locality":"Schierling","municipality":{"key":"09375196","name":"Schierling, M","type":"Markt"},"district":{"key":"09375","name":"Regensburg","type":"Landkreis"},"federalState":{"key":"09","name":"Bayern"}},{"name":"Am Kellerberg","postalCode":"84069","locality":"Schierling","municipality":{"key":"09375196","name":"Schierling, M","type":"Markt"},"district":{"key":"09375","name":"Regensburg","type":"Landkreis"},"federalState":{"key":"09","name":"Bayern"}},{"name":"Am Löwendenkmal","postalCode":"84069","locality":"Schierling","municipality":{"key":"09375196","name":"Schierling, M","type":"Markt"},"district":{"key":"09375","name":"Regensburg","type":"Landkreis"},"federalState":{"key":"09","name":"Bayern"}},{"name":"Am Schererbach","postalCode":"84069","locality":"Schierling","municipality":{"key":"09375196","name":"Schierling, M","type":"Markt"},"district":{"key":"09375","name":"Regensburg","type":"Landkreis"},"federalState":{"key":"09","name":"Bayern"}},{"name":"Am Steinbruch","postalCode":"84069","locality":"Schierling","municipality":{"key":"09375196","name":"Schierling, M","type":"Markt"},"district":{"key":"09375","name":"Regensburg","type":"Landkreis"},"federalState":{"key":"09","name":"Bayern"}},{"name":"Antoniusweg","postalCode":"84069","locality":"Schierling","municipality":{"key":"09375196","name":"Schierling, M","type":"Markt"},"district":{"key":"09375","name":"Regensburg","type":"Landkreis"},"federalState":{"key":"09","name":"Bayern"}},{"name":"Arberstr.","postalCode":"84069","locality":"Schierling","municipality":{"key":"09375196","name":"Schierling, M","type":"Markt"},"district":{"key":"09375","name":"Regensburg","type":"Landkreis"},"federalState":{"key":"09","name":"Bayern"}},{"name":"Asamstr.","postalCode":"84069","locality":"Schierling","municipality":{"key":"09375196","name":"Schierling, M","type":"Markt"},"district":{"key":"09375","name":"Regensburg","type":"Landkreis"},"federalState":{"key":"09","name":"Bayern"}},{"name":"Aufleg","postalCode":"84069","locality":"Schierling","municipality":{"key":"09375196","name":"Schierling, M","type":"Markt"},"district":{"key":"09375","name":"Regensburg","type":"Landkreis"},"federalState":{"key":"09","name":"Bayern"}},{"name":"Auweg","postalCode":"84069","locality":"Schierling","municipality":{"key":"09375196","name":"Schierling, M","type":"Markt"},"district":{"key":"09375","name":"Regensburg","type":"Landkreis"},"federalState":{"key":"09","name":"Bayern"}},{"name":"Bachsiedlung","postalCode":"84069","locality":"Schierling","municipality":{"key":"09375196","name":"Schierling, M","type":"Markt"},"district":{"key":"09375","name":"Regensburg","type":"Landkreis"},"federalState":{"key":"09","name":"Bayern"}},{"name":"Bachstr.","postalCode":"84069","locality":"Schierling","municipality":{"key":"09375196","name":"Schierling, M","type":"Markt"},"district":{"key":"09375","name":"Regensburg","type":"Landkreis"},"federalState":{"key":"09","name":"Bayern"}},{"name":"Bahnhofstr.","postalCode":"84069","locality":"Schierling","municipality":{"key":"09375196","name":"Schierling, M","type":"Markt"},"district":{"key":"09375","name":"Regensburg","type":"Landkreis"},"federalState":{"key":"09","name":"Bayern"}},{"name":"Bahnweg","postalCode":"84069","locality":"Schierling","municipality":{"key":"09375196","name":"Schierling, M","type":"Markt"},"district":{"key":"09375","name":"Regensburg","type":"Landkreis"},"federalState":{"key":"09","name":"Bayern"}},{"name":"Bayerwaldstr.","postalCode":"84069","locality":"Schierling","municipality":{"key":"09375196","name":"Schierling, M","type":"Markt"},"district":{"key":"09375","name":"Regensburg","type":"Landkreis"},"federalState":{"key":"09","name":"Bayern"}},{"name":"Beim Fürstenkeller","postalCode":"84069","locality":"Schierling","municipality":{"key":"09375196","name":"Schierling, M","type":"Markt"},"district":{"key":"09375","name":"Regensburg","type":"Landkreis"},"federalState":{"key":"09","name":"Bayern"}},{"name":"Bergstr.","postalCode":"84069","locality":"Schierling","municipality":{"key":"09375196","name":"Schierling, M","type":"Markt"},"district":{"key":"09375","name":"Regensburg","type":"Landkreis"},"federalState":{"key":"09","name":"Bayern"}},{"name":"Bernhard-Sarnes-Str.","postalCode":"84069","locality":"Schierling","municipality":{"key":"09375196","name":"Schierling, M","type":"Markt"},"district":{"key":"09375","name":"Regensburg","type":"Landkreis"},"federalState":{"key":"09","name":"Bayern"}},{"name":"Birkenstr.","postalCode":"84069","locality":"Schierling","municipality":{"key":"09375196","name":"Schierling, M","type":"Markt"},"district":{"key":"09375","name":"Regensburg","type":"Landkreis"},"federalState":{"key":"09","name":"Bayern"}},{"name":"Blumenstr.","postalCode":"84069","locality":"Schierling","municipality":{"key":"09375196","name":"Schierling, M","type":"Markt"},"district":{"key":"09375","name":"Regensburg","type":"Landkreis"},"federalState":{"key":"09","name":"Bayern"}},{"name":"Brunnenstr.","postalCode":"84069","locality":"Schierling","municipality":{"key":"09375196","name":"Schierling, M","type":"Markt"},"district":{"key":"09375","name":"Regensburg","type":"Landkreis"},"federalState":{"key":"09","name":"Bayern"}},{"name":"Buchhausen","postalCode":"84069","locality":"Schierling","municipality":{"key":"09375196","name":"Schierling, M","type":"Markt"},"district":{"key":"09375","name":"Regensburg","type":"Landkreis"},"federalState":{"key":"09","name":"Bayern"}},{"name":"Buchhausener Str.","postalCode":"84069","locality":"Schierling","municipality":{"key":"09375196","name":"Schierling, M","type":"Markt"},"district":{"key":"09375","name":"Regensburg","type":"Landkreis"},"federalState":{"key":"09","name":"Bayern"}},{"name":"Bürgermeister-Kattenbeck-Str.","postalCode":"84069","locality":"Schierling","municipality":{"key":"09375196","name":"Schierling, M","type":"Markt"},"district":{"key":"09375","name":"Regensburg","type":"Landkreis"},"federalState":{"key":"09","name":"Bayern"}},{"name":"Bürgermeister-Wallner-Str.","postalCode":"84069","locality":"Schierling","municipality":{"key":"09375196","name":"Schierling, M","type":"Markt"},"district":{"key":"09375","name":"Regensburg","type":"Landkreis"},"federalState":{"key":"09","name":"Bayern"}},{"name":"Carl-Perzel-Str.","postalCode":"84069","locality":"Schierling","municipality":{"key":"09375196","name":"Schierling, M","type":"Markt"},"district":{"key":"09375","name":"Regensburg","type":"Landkreis"},"federalState":{"key":"09","name":"Bayern"}},{"name":"Deggenbachstr.","postalCode":"84069","locality":"Schierling","municipality":{"key":"09375196","name":"Schierling, M","type":"Markt"},"district":{"key":"09375","name":"Regensburg","type":"Landkreis"},"federalState":{"key":"09","name":"Bayern"}},{"name":"Dorfmühlstr.","postalCode":"84069","locality":"Schierling","municipality":{"key":"09375196","name":"Schierling, M","type":"Markt"},"district":{"key":"09375","name":"Regensburg","type":"Landkreis"},"federalState":{"key":"09","name":"Bayern"}},{"name":"Dorfstr.","postalCode":"84069","locality":"Schierling","municipality":{"key":"09375196","name":"Schierling, M","type":"Markt"},"district":{"key":"09375","name":"Regensburg","type":"Landkreis"},"federalState":{"key":"09","name":"Bayern"}},{"name":"Dürerstr.","postalCode":"84069","locality":"Schierling","municipality":{"key":"09375196","name":"Schierling, M","type":"Markt"},"district":{"key":"09375","name":"Regensburg","type":"Landkreis"},"federalState":{"key":"09","name":"Bayern"}},{"name":"Eggmühler Str.","postalCode":"84069","locality":"Schierling","municipality":{"key":"09375196","name":"Schierling, M","type":"Markt"},"district":{"key":"09375","name":"Regensburg","type":"Landkreis"},"federalState":{"key":"09","name":"Bayern"}},{"name":"Eichenweg","postalCode":"84069","locality":"Schierling","municipality":{"key":"09375196","name":"Schierling, M","type":"Markt"},"district":{"key":"09375","name":"Regensburg","type":"Landkreis"},"federalState":{"key":"09","name":"Bayern"}},{"name":"Fichtenstr.","postalCode":"84069","locality":"Schierling","municipality":{"key":"09375196","name":"Schierling, M","type":"Markt"},"district":{"key":"09375","name":"Regensburg","type":"Landkreis"},"federalState":{"key":"09","name":"Bayern"}},{"name":"Flurweg","postalCode":"84069","locality":"Schierling","municipality":{"key":"09375196","name":"Schierling, M","type":"Markt"},"district":{"key":"09375","name":"Regensburg","type":"Landkreis"},"federalState":{"key":"09","name":"Bayern"}},{"name":"Fraunhoferstr.","postalCode":"84069","locality":"Schierling","municipality":{"key":"09375196","name":"Schierling, M","type":"Markt"},"district":{"key":"09375","name":"Regensburg","type":"Landkreis"},"federalState":{"key":"09","name":"Bayern"}},{"name":"Fruehaufstr.","postalCode":"84069","locality":"Schierling","municipality":{"key":"09375196","name":"Schierling, M","type":"Markt"},"district":{"key":"09375","name":"Regensburg","type":"Landkreis"},"federalState":{"key":"09","name":"Bayern"}},{"name":"Frühlingstr.","postalCode":"84069","locality":"Schierling","municipality":{"key":"09375196","name":"Schierling, M","type":"Markt"},"district":{"key":"09375","name":"Regensburg","type":"Landkreis"},"federalState":{"key":"09","name":"Bayern"}},{"name":"Ganghoferstr.","postalCode":"84069","locality":"Schierling","municipality":{"key":"09375196","name":"Schierling, M","type":"Markt"},"district":{"key":"09375","name":"Regensburg","type":"Landkreis"},"federalState":{"key":"09","name":"Bayern"}},{"name":"Gartenstr.","postalCode":"84069","locality":"Schierling","municipality":{"key":"09375196","name":"Schierling, M","type":"Markt"},"district":{"key":"09375","name":"Regensburg","type":"Landkreis"},"federalState":{"key":"09","name":"Bayern"}},{"name":"Gassl","postalCode":"84069","locality":"Schierling","municipality":{"key":"09375196","name":"Schierling, M","type":"Markt"},"district":{"key":"09375","name":"Regensburg","type":"Landkreis"},"federalState":{"key":"09","name":"Bayern"}},{"name":"Georg-Rötzer-Str.","postalCode":"84069","locality":"Schierling","municipality":{"key":"09375196","name":"Schierling, M","type":"Markt"},"district":{"key":"09375","name":"Regensburg","type":"Landkreis"},"federalState":{"key":"09","name":"Bayern"}},{"name":"Goethestr.","postalCode":"84069","locality":"Schierling","municipality":{"key":"09375196","name":"Schierling, M","type":"Markt"},"district":{"key":"09375","name":"Regensburg","type":"Landkreis"},"federalState":{"key":"09","name":"Bayern"}},{"name":"Grabenstr.","postalCode":"84069","locality":"Schierling","municipality":{"key":"09375196","name":"Schierling, M","type":"Markt"},"district":{"key":"09375","name":"Regensburg","type":"Landkreis"},"federalState":{"key":"09","name":"Bayern"}},{"name":"Haag","postalCode":"84069","locality":"Schierling","municipality":{"key":"09375196","name":"Schierling, M","type":"Markt"},"district":{"key":"09375","name":"Regensburg","type":"Landkreis"},"federalState":{"key":"09","name":"Bayern"}},{"name":"Hans-Sachs-Str.","postalCode":"84069","locality":"Schierling","municipality":{"key":"09375196","name":"Schierling, M","type":"Markt"},"district":{"key":"09375","name":"Regensburg","type":"Landkreis"},"federalState":{"key":"09","name":"Bayern"}},{"name":"Hauptstr.","postalCode":"84069","locality":"Schierling","municipality":{"key":"09375196","name":"Schierling, M","type":"Markt"},"district":{"key":"09375","name":"Regensburg","type":"Landkreis"},"federalState":{"key":"09","name":"Bayern"}},{"name":"Heinrich-Heine-Str.","postalCode":"84069","locality":"Schierling","municipality":{"key":"09375196","name":"Schierling, M","type":"Markt"},"district":{"key":"09375","name":"Regensburg","type":"Landkreis"},"federalState":{"key":"09","name":"Bayern"}},{"name":"Herbststr.","postalCode":"84069","locality":"Schierling","municipality":{"key":"09375196","name":"Schierling, M","type":"Markt"},"district":{"key":"09375","name":"Regensburg","type":"Landkreis"},"federalState":{"key":"09","name":"Bayern"}},{"name":"Heubrücke","postalCode":"84069","locality":"Schierling","municipality":{"key":"09375196","name":"Schierling, M","type":"Markt"},"district":{"key":"09375","name":"Regensburg","type":"Landkreis"},"federalState":{"key":"09","name":"Bayern"}},{"name":"Hochweg","postalCode":"84069","locality":"Schierling","municipality":{"key":"09375196","name":"Schierling, M","type":"Markt"},"district":{"key":"09375","name":"Regensburg","type":"Landkreis"},"federalState":{"key":"09","name":"Bayern"}},{"name":"Hofmark","postalCode":"84069","locality":"Schierling","municipality":{"key":"09375196","name":"Schierling, M","type":"Markt"},"district":{"key":"09375","name":"Regensburg","type":"Landkreis"},"federalState":{"key":"09","name":"Bayern"}},{"name":"Hohlweg","postalCode":"84069","locality":"Schierling","municipality":{"key":"09375196","name":"Schierling, M","type":"Markt"},"district":{"key":"09375","name":"Regensburg","type":"Landkreis"},"federalState":{"key":"09","name":"Bayern"}},{"name":"Holzhaussiedlung","postalCode":"84069","locality":"Schierling","municipality":{"key":"09375196","name":"Schierling, M","type":"Markt"},"district":{"key":"09375","name":"Regensburg","type":"Landkreis"},"federalState":{"key":"09","name":"Bayern"}},{"name":"Hundsmarkt","postalCode":"84069","locality":"Schierling","municipality":{"key":"09375196","name":"Schierling, M","type":"Markt"},"district":{"key":"09375","name":"Regensburg","type":"Landkreis"},"federalState":{"key":"09","name":"Bayern"}},{"name":"In der Heck","postalCode":"84069","locality":"Schierling","municipality":{"key":"09375196","name":"Schierling, M","type":"Markt"},"district":{"key":"09375","name":"Regensburg","type":"Landkreis"},"federalState":{"key":"09","name":"Bayern"}},{"name":"Jahnstr.","postalCode":"84069","locality":"Schierling","municipality":{"key":"09375196","name":"Schierling, M","type":"Markt"},"district":{"key":"09375","name":"Regensburg","type":"Landkreis"},"federalState":{"key":"09","name":"Bayern"}},{"name":"Jakob-Brand-Str.","postalCode":"84069","locality":"Schierling","municipality":{"key":"09375196","name":"Schierling, M","type":"Markt"},"district":{"key":"09375","name":"Regensburg","type":"Landkreis"},"federalState":{"key":"09","name":"Bayern"}},{"name":"Joseph-Mundigl-Str.","postalCode":"84069","locality":"Schierling","municipality":{"key":"09375196","name":"Schierling, M","type":"Markt"},"district":{"key":"09375","name":"Regensburg","type":"Landkreis"},"federalState":{"key":"09","name":"Bayern"}},{"name":"Kaiser-Otto-Ring","postalCode":"84069","locality":"Schierling","municipality":{"key":"09375196","name":"Schierling, M","type":"Markt"},"district":{"key":"09375","name":"Regensburg","type":"Landkreis"},"federalState":{"key":"09","name":"Bayern"}},{"name":"Kellerstr.","postalCode":"84069","locality":"Schierling","municipality":{"key":"09375196","name":"Schierling, M","type":"Markt"},"district":{"key":"09375","name":"Regensburg","type":"Landkreis"},"federalState":{"key":"09","name":"Bayern"}},{"name":"Keplerstr.","postalCode":"84069","locality":"Schierling","municipality":{"key":"09375196","name":"Schierling, M","type":"Markt"},"district":{"key":"09375","name":"Regensburg","type":"Landkreis"},"federalState":{"key":"09","name":"Bayern"}},{"name":"Kirchplatz","postalCode":"84069","locality":"Schierling","municipality":{"key":"09375196","name":"Schierling, M","type":"Markt"},"district":{"key":"09375","name":"Regensburg","type":"Landkreis"},"federalState":{"key":"09","name":"Bayern"}},{"name":"Kleiststr.","postalCode":"84069","locality":"Schierling","municipality":{"key":"09375196","name":"Schierling, M","type":"Markt"},"district":{"key":"09375","name":"Regensburg","type":"Landkreis"},"federalState":{"key":"09","name":"Bayern"}},{"name":"Klenzestr.","postalCode":"84069","locality":"Schierling","municipality":{"key":"09375196","name":"Schierling, M","type":"Markt"},"district":{"key":"09375","name":"Regensburg","type":"Landkreis"},"federalState":{"key":"09","name":"Bayern"}},{"name":"Kreppenweg","postalCode":"84069","locality":"Schierling","municipality":{"key":"09375196","name":"Schierling, M","type":"Markt"},"district":{"key":"09375","name":"Regensburg","type":"Landkreis"},"federalState":{"key":"09","name":"Bayern"}},{"name":"Kreuzstr.","postalCode":"84069","locality":"Schierling","municipality":{"key":"09375196","name":"Schierling, M","type":"Markt"},"district":{"key":"09375","name":"Regensburg","type":"Landkreis"},"federalState":{"key":"09","name":"Bayern"}},{"name":"Laberstr.","postalCode":"84069","locality":"Schierling","municipality":{"key":"09375196","name":"Schierling, M","type":"Markt"},"district":{"key":"09375","name":"Regensburg","type":"Landkreis"},"federalState":{"key":"09","name":"Bayern"}},{"name":"Laichlinger Str.","postalCode":"84069","locality":"Schierling","municipality":{"key":"09375196","name":"Schierling, M","type":"Markt"},"district":{"key":"09375","name":"Regensburg","type":"Landkreis"},"federalState":{"key":"09","name":"Bayern"}},{"name":"Leierndorfer Str.","postalCode":"84069","locality":"Schierling","municipality":{"key":"09375196","name":"Schierling, M","type":"Markt"},"district":{"key":"09375","name":"Regensburg","type":"Landkreis"},"federalState":{"key":"09","name":"Bayern"}},{"name":"Lessingstr.","postalCode":"84069","locality":"Schierling","municipality":{"key":"09375196","name":"Schierling, M","type":"Markt"},"district":{"key":"09375","name":"Regensburg","type":"Landkreis"},"federalState":{"key":"09","name":"Bayern"}},{"name":"Lindach","postalCode":"84069","locality":"Schierling","municipality":{"key":"09375196","name":"Schierling, M","type":"Markt"},"district":{"key":"09375","name":"Regensburg","type":"Landkreis"},"federalState":{"key":"09","name":"Bayern"}},{"name":"Lindacher Str.","postalCode":"84069","locality":"Schierling","municipality":{"key":"09375196","name":"Schierling, M","type":"Markt"},"district":{"key":"09375","name":"Regensburg","type":"Landkreis"},"federalState":{"key":"09","name":"Bayern"}},{"name":"Loiblstr.","postalCode":"84069","locality":"Schierling","municipality":{"key":"09375196","name":"Schierling, M","type":"Markt"},"district":{"key":"09375","name":"Regensburg","type":"Landkreis"},"federalState":{"key":"09","name":"Bayern"}},{"name":"Ludwig-Erhard-Str.","postalCode":"84069","locality":"Schierling","municipality":{"key":"09375196","name":"Schierling, M","type":"Markt"},"district":{"key":"09375","name":"Regensburg","type":"Landkreis"},"federalState":{"key":"09","name":"Bayern"}},{"name":"Ludwig-Häring-Str.","postalCode":"84069","locality":"Schierling","municipality":{"key":"09375196","name":"Schierling, M","type":"Markt"},"district":{"key":"09375","name":"Regensburg","type":"Landkreis"},"federalState":{"key":"09","name":"Bayern"}},{"name":"Ludwig-Thoma-Str.","postalCode":"84069","locality":"Schierling","municipality":{"key":"09375196","name":"Schierling, M","type":"Markt"},"district":{"key":"09375","name":"Regensburg","type":"Landkreis"},"federalState":{"key":"09","name":"Bayern"}},{"name":"Lusenstr.","postalCode":"84069","locality":"Schierling","municipality":{"key":"09375196","name":"Schierling, M","type":"Markt"},"district":{"key":"09375","name":"Regensburg","type":"Landkreis"},"federalState":{"key":"09","name":"Bayern"}},{"name":"Mainberg","postalCode":"84069","locality":"Schierling","municipality":{"key":"09375196","name":"Schierling, M","type":"Markt"},"district":{"key":"09375","name":"Regensburg","type":"Landkreis"},"federalState":{"key":"09","name":"Bayern"}},{"name":"Mannsdorf","postalCode":"84069","locality":"Schierling","municipality":{"key":"09375196","name":"Schierling, M","type":"Markt"},"district":{"key":"09375","name":"Regensburg","type":"Landkreis"},"federalState":{"key":"09","name":"Bayern"}},{"name":"Mannsdorfer Str.","postalCode":"84069","locality":"Schierling","municipality":{"key":"09375196","name":"Schierling, M","type":"Markt"},"district":{"key":"09375","name":"Regensburg","type":"Landkreis"},"federalState":{"key":"09","name":"Bayern"}},{"name":"Markstein","postalCode":"84069","locality":"Schierling","municipality":{"key":"09375196","name":"Schierling, M","type":"Markt"},"district":{"key":"09375","name":"Regensburg","type":"Landkreis"},"federalState":{"key":"09","name":"Bayern"}},{"name":"Mittermühlstr.","postalCode":"84069","locality":"Schierling","municipality":{"key":"09375196","name":"Schierling, M","type":"Markt"},"district":{"key":"09375","name":"Regensburg","type":"Landkreis"},"federalState":{"key":"09","name":"Bayern"}},{"name":"Mohnblumenstr.","postalCode":"84069","locality":"Schierling","municipality":{"key":"09375196","name":"Schierling, M","type":"Markt"},"district":{"key":"09375","name":"Regensburg","type":"Landkreis"},"federalState":{"key":"09","name":"Bayern"}},{"name":"Mozartstr.","postalCode":"84069","locality":"Schierling","municipality":{"key":"09375196","name":"Schierling, M","type":"Markt"},"district":{"key":"09375","name":"Regensburg","type":"Landkreis"},"federalState":{"key":"09","name":"Bayern"}},{"name":"Mühlweg","postalCode":"84069","locality":"Schierling","municipality":{"key":"09375196","name":"Schierling, M","type":"Markt"},"district":{"key":"09375","name":"Regensburg","type":"Landkreis"},"federalState":{"key":"09","name":"Bayern"}},{"name":"Niederfeldstr.","postalCode":"84069","locality":"Schierling","municipality":{"key":"09375196","name":"Schierling, M","type":"Markt"},"district":{"key":"09375","name":"Regensburg","type":"Landkreis"},"federalState":{"key":"09","name":"Bayern"}},{"name":"Nikolaigasse","postalCode":"84069","locality":"Schierling","municipality":{"key":"09375196","name":"Schierling, M","type":"Markt"},"district":{"key":"09375","name":"Regensburg","type":"Landkreis"},"federalState":{"key":"09","name":"Bayern"}},{"name":"Oberdeggenbach","postalCode":"84069","locality":"Schierling","municipality":{"key":"09375196","name":"Schierling, M","type":"Markt"},"district":{"key":"09375","name":"Regensburg","type":"Landkreis"},"federalState":{"key":"09","name":"Bayern"}},{"name":"Obere Au","postalCode":"84069","locality":"Schierling","municipality":{"key":"09375196","name":"Schierling, M","type":"Markt"},"district":{"key":"09375","name":"Regensburg","type":"Landkreis"},"federalState":{"key":"09","name":"Bayern"}},{"name":"Oberlaichling","postalCode":"84069","locality":"Schierling","municipality":{"key":"09375196","name":"Schierling, M","type":"Markt"},"district":{"key":"09375","name":"Regensburg","type":"Landkreis"},"federalState":{"key":"09","name":"Bayern"}},{"name":"Obermühlstr.","postalCode":"84069","locality":"Schierling","municipality":{"key":"09375196","name":"Schierling, M","type":"Markt"},"district":{"key":"09375","name":"Regensburg","type":"Landkreis"},"federalState":{"key":"09","name":"Bayern"}},{"name":"Osserstr.","postalCode":"84069","locality":"Schierling","municipality":{"key":"09375196","name":"Schierling, M","type":"Markt"},"district":{"key":"09375","name":"Regensburg","type":"Landkreis"},"federalState":{"key":"09","name":"Bayern"}},{"name":"Pfarrer-Laubmeier-Str.","postalCode":"84069","locality":"Schierling","municipality":{"key":"09375196","name":"Schierling, M","type":"Markt"},"district":{"key":"09375","name":"Regensburg","type":"Landkreis"},"federalState":{"key":"09","name":"Bayern"}},{"name":"Pfarrer-Manz-Str.","postalCode":"84069","locality":"Schierling","municipality":{"key":"09375196","name":"Schierling, M","type":"Markt"},"district":{"key":"09375","name":"Regensburg","type":"Landkreis"},"federalState":{"key":"09","name":"Bayern"}},{"name":"Pfarrer-Schnirle-Str.","postalCode":"84069","locality":"Schierling","municipality":{"key":"09375196","name":"Schierling, M","type":"Markt"},"district":{"key":"09375","name":"Regensburg","type":"Landkreis"},"federalState":{"key":"09","name":"Bayern"}},{"name":"Piendlpark","postalCode":"84069","locality":"Schierling","municipality":{"key":"09375196","name":"Schierling, M","type":"Markt"},"district":{"key":"09375","name":"Regensburg","type":"Landkreis"},"federalState":{"key":"09","name":"Bayern"}},{"name":"Pirscherberg","postalCode":"84069","locality":"Schierling","municipality":{"key":"09375196","name":"Schierling, M","type":"Markt"},"district":{"key":"09375","name":"Regensburg","type":"Landkreis"},"federalState":{"key":"09","name":"Bayern"}},{"name":"Placidus-Heinrich-Ring","postalCode":"84069","locality":"Schierling","municipality":{"key":"09375196","name":"Schierling, M","type":"Markt"},"district":{"key":"09375","name":"Regensburg","type":"Landkreis"},"federalState":{"key":"09","name":"Bayern"}},{"name":"Prangstr.","postalCode":"84069","locality":"Schierling","municipality":{"key":"09375196","name":"Schierling, M","type":"Markt"},"district":{"key":"09375","name":"Regensburg","type":"Landkreis"},"federalState":{"key":"09","name":"Bayern"}},{"name":"Quartiersplatz","postalCode":"93053","locality":"Regensburg","municipality":{"key":"09362000","name":"Regensburg","type":"Kreisfreie_Stadt"},"district":{"key":"09362","name":"Regensburg","type":"Kreisfreie_Stadt"},"federalState":{"key":"09","name":"Bayern"}},{"name":"Rachelstr.","postalCode":"84069","locality":"Schierling","municipality":{"key":"09375196","name":"Schierling, M","type":"Markt"},"district":{"key":"09375","name":"Regensburg","type":"Landkreis"},"federalState":{"key":"09","name":"Bayern"}},{"name":"Rathausplatz","postalCode":"84069","locality":"Schierling","municipality":{"key":"09375196","name":"Schierling, M","type":"Markt"},"district":{"key":"09375","name":"Regensburg","type":"Landkreis"},"federalState":{"key":"09","name":"Bayern"}},{"name":"Regensburger Str.","postalCode":"84069","locality":"Schierling","municipality":{"key":"09375196","name":"Schierling, M","type":"Markt"},"district":{"key":"09375","name":"Regensburg","type":"Landkreis"},"federalState":{"key":"09","name":"Bayern"}},{"name":"Rosenweg","postalCode":"84069","locality":"Schierling","municipality":{"key":"09375196","name":"Schierling, M","type":"Markt"},"district":{"key":"09375","name":"Regensburg","type":"Landkreis"},"federalState":{"key":"09","name":"Bayern"}},{"name":"Rudolf-Hell-Str.","postalCode":"84069","locality":"Schierling","municipality":{"key":"09375196","name":"Schierling, M","type":"Markt"},"district":{"key":"09375","name":"Regensburg","type":"Landkreis"},"federalState":{"key":"09","name":"Bayern"}},{"name":"Schäfflerstr.","postalCode":"84069","locality":"Schierling","municipality":{"key":"09375196","name":"Schierling, M","type":"Markt"},"district":{"key":"09375","name":"Regensburg","type":"Landkreis"},"federalState":{"key":"09","name":"Bayern"}},{"name":"Schillerstr.","postalCode":"84069","locality":"Schierling","municipality":{"key":"09375196","name":"Schierling, M","type":"Markt"},"district":{"key":"09375","name":"Regensburg","type":"Landkreis"},"federalState":{"key":"09","name":"Bayern"}},{"name":"Schlossstr.","postalCode":"84069","locality":"Schierling","municipality":{"key":"09375196","name":"Schierling, M","type":"Markt"},"district":{"key":"09375","name":"Regensburg","type":"Landkreis"},"federalState":{"key":"09","name":"Bayern"}},{"name":"Schnitzlmühl","postalCode":"84069","locality":"Schierling","municipality":{"key":"09375196","name":"Schierling, M","type":"Markt"},"district":{"key":"09375","name":"Regensburg","type":"Landkreis"},"federalState":{"key":"09","name":"Bayern"}},{"name":"Schulstr.","postalCode":"84069","locality":"Schierling","municipality":{"key":"09375196","name":"Schierling, M","type":"Markt"},"district":{"key":"09375","name":"Regensburg","type":"Landkreis"},"federalState":{"key":"09","name":"Bayern"}},{"name":"Sebastian-Hausler-Str.","postalCode":"84069","locality":"Schierling","municipality":{"key":"09375196","name":"Schierling, M","type":"Markt"},"district":{"key":"09375","name":"Regensburg","type":"Landkreis"},"federalState":{"key":"09","name":"Bayern"}},{"name":"Seefeldstr.","postalCode":"84069","locality":"Schierling","municipality":{"key":"09375196","name":"Schierling, M","type":"Markt"},"district":{"key":"09375","name":"Regensburg","type":"Landkreis"},"federalState":{"key":"09","name":"Bayern"}},{"name":"Seethaler Weg","postalCode":"84069","locality":"Schierling","municipality":{"key":"09375196","name":"Schierling, M","type":"Markt"},"district":{"key":"09375","name":"Regensburg","type":"Landkreis"},"federalState":{"key":"09","name":"Bayern"}},{"name":"Sonnau","postalCode":"84069","locality":"Schierling","municipality":{"key":"09375196","name":"Schierling, M","type":"Markt"},"district":{"key":"09375","name":"Regensburg","type":"Landkreis"},"federalState":{"key":"09","name":"Bayern"}},{"name":"Spannaglstr.","postalCode":"84069","locality":"Schierling","municipality":{"key":"09375196","name":"Schierling, M","type":"Markt"},"district":{"key":"09375","name":"Regensburg","type":"Landkreis"},"federalState":{"key":"09","name":"Bayern"}},{"name":"Spitzwegstr.","postalCode":"84069","locality":"Schierling","municipality":{"key":"09375196","name":"Schierling, M","type":"Markt"},"district":{"key":"09375","name":"Regensburg","type":"Landkreis"},"federalState":{"key":"09","name":"Bayern"}},{"name":"Sternstr.","postalCode":"84069","locality":"Schierling","municipality":{"key":"09375196","name":"Schierling, M","type":"Markt"},"district":{"key":"09375","name":"Regensburg","type":"Landkreis"},"federalState":{"key":"09","name":"Bayern"}},{"name":"Stifterstr.","postalCode":"84069","locality":"Schierling","municipality":{"key":"09375196","name":"Schierling, M","type":"Markt"},"district":{"key":"09375","name":"Regensburg","type":"Landkreis"},"federalState":{"key":"09","name":"Bayern"}},{"name":"Storchenweg","postalCode":"84069","locality":"Schierling","municipality":{"key":"09375196","name":"Schierling, M","type":"Markt"},"district":{"key":"09375","name":"Regensburg","type":"Landkreis"},"federalState":{"key":"09","name":"Bayern"}},{"name":"St.-Valentin-Str.","postalCode":"84069","locality":"Schierling","municipality":{"key":"09375196","name":"Schierling, M","type":"Markt"},"district":{"key":"09375","name":"Regensburg","type":"Landkreis"},"federalState":{"key":"09","name":"Bayern"}},{"name":"Tannenstr.","postalCode":"84069","locality":"Schierling","municipality":{"key":"09375196","name":"Schierling, M","type":"Markt"},"district":{"key":"09375","name":"Regensburg","type":"Landkreis"},"federalState":{"key":"09","name":"Bayern"}},{"name":"Theresia-Gerhardinger-Str.","postalCode":"84069","locality":"Schierling","municipality":{"key":"09375196","name":"Schierling, M","type":"Markt"},"district":{"key":"09375","name":"Regensburg","type":"Landkreis"},"federalState":{"key":"09","name":"Bayern"}},{"name":"Uhlandstr.","postalCode":"84069","locality":"Schierling","municipality":{"key":"09375196","name":"Schierling, M","type":"Markt"},"district":{"key":"09375","name":"Regensburg","type":"Landkreis"},"federalState":{"key":"09","name":"Bayern"}},{"name":"Untere Austr.","postalCode":"84069","locality":"Schierling","municipality":{"key":"09375196","name":"Schierling, M","type":"Markt"},"district":{"key":"09375","name":"Regensburg","type":"Landkreis"},"federalState":{"key":"09","name":"Bayern"}},{"name":"Unterlaichling","postalCode":"84069","locality":"Schierling","municipality":{"key":"09375196","name":"Schierling, M","type":"Markt"},"district":{"key":"09375","name":"Regensburg","type":"Landkreis"},"federalState":{"key":"09","name":"Bayern"}},{"name":"Untersandstr.","postalCode":"84069","locality":"Schierling","municipality":{"key":"09375196","name":"Schierling, M","type":"Markt"},"district":{"key":"09375","name":"Regensburg","type":"Landkreis"},"federalState":{"key":"09","name":"Bayern"}},{"name":"Von-Miller-Str.","postalCode":"84069","locality":"Schierling","municipality":{"key":"09375196","name":"Schierling, M","type":"Markt"},"district":{"key":"09375","name":"Regensburg","type":"Landkreis"},"federalState":{"key":"09","name":"Bayern"}},{"name":"Waldstr.","postalCode":"84069","locality":"Schierling","municipality":{"key":"09375196","name":"Schierling, M","type":"Markt"},"district":{"key":"09375","name":"Regensburg","type":"Landkreis"},"federalState":{"key":"09","name":"Bayern"}},{"name":"Weinbergstr.","postalCode":"84069","locality":"Schierling","municipality":{"key":"09375196","name":"Schierling, M","type":"Markt"},"district":{"key":"09375","name":"Regensburg","type":"Landkreis"},"federalState":{"key":"09","name":"Bayern"}},{"name":"Wilhelm-Busch-Str.","postalCode":"84069","locality":"Schierling","municipality":{"key":"09375196","name":"Schierling, M","type":"Markt"},"district":{"key":"09375","name":"Regensburg","type":"Landkreis"},"federalState":{"key":"09","name":"Bayern"}},{"name":"Wugg-Retzer-Str.","postalCode":"84069","locality":"Schierling","municipality":{"key":"09375196","name":"Schierling, M","type":"Markt"},"district":{"key":"09375","name":"Regensburg","type":"Landkreis"},"federalState":{"key":"09","name":"Bayern"}},{"name":"Xaver-Fuhr-Str.","postalCode":"93055","locality":"Regensburg","municipality":{"key":"09362000","name":"Regensburg","type":"Kreisfreie_Stadt"},"district":{"key":"09362","name":"Regensburg","type":"Kreisfreie_Stadt"},"federalState":{"key":"09","name":"Bayern"}},{"name":"Yorckstr.","postalCode":"93049","locality":"Regensburg","municipality":{"key":"09362000","name":"Regensburg","type":"Kreisfreie_Stadt"},"district":{"key":"09362","name":"Regensburg","type":"Kreisfreie_Stadt"},"federalState":{"key":"09","name":"Bayern"}},{"name":"Zaitzkofener Str.","postalCode":"84069","locality":"Schierling","municipality":{"key":"09375196","name":"Schierling, M","type":"Markt"},"district":{"key":"09375","name":"Regensburg","type":"Landkreis"},"federalState":{"key":"09","name":"Bayern"}},{"name":"Ziegeleistr.","postalCode":"84069","locality":"Schierling","municipality":{"key":"09375196","name":"Schierling, M","type":"Markt"},"district":{"key":"09375","name":"Regensburg","type":"Landkreis"},"federalState":{"key":"09","name":"Bayern"}},{"name":"Zum Guten Hof","postalCode":"84069","locality":"Schierling","municipality":{"key":"09375196","name":"Schierling, M","type":"Markt"},"district":{"key":"09375","name":"Regensburg","type":"Landkreis"},"federalState":{"key":"09","name":"Bayern"}},{"name":"Zum Roidhof","postalCode":"84069","locality":"Schierling","municipality":{"key":"09375196","name":"Schierling, M","type":"Markt"},"district":{"key":"09375","name":"Regensburg","type":"Landkreis"},"federalState":{"key":"09","name":"Bayern"}},{"name":"Zur Haid","postalCode":"84069","locality":"Schierling","municipality":{"key":"09375196","name":"Schierling, M","type":"Markt"},"district":{"key":"09375","name":"Regensburg","type":"Landkreis"},"federalState":{"key":"09","name":"Bayern"}},{"name":"Zur Römerstr.","postalCode":"84069","locality":"Schierling","municipality":{"key":"09375196","name":"Schierling, M","type":"Markt"},"district":{"key":"09375","name":"Regensburg","type":"Landkreis"},"federalState":{"key":"09","name":"Bayern"}},{"name":"Ägidienplatz","postalCode":"93047","locality":"Regensburg","municipality":{"key":"09362000","name":"Regensburg","type":"Kreisfreie_Stadt"},"district":{"key":"09362","name":"Regensburg","type":"Kreisfreie_Stadt"},"federalState":{"key":"09","name":"Bayern"}},{"name":"Äußere Wiener Str.","postalCode":"93055","locality":"Regensburg","municipality":{"key":"09362000","name":"Regensburg","type":"Kreisfreie_Stadt"},"district":{"key":"09362","name":"Regensburg","type":"Kreisfreie_Stadt"},"federalState":{"key":"09","name":"Bayern"}},{"name":"Ödenthal","postalCode":"93057","locality":"Regensburg","municipality":{"key":"09362000","name":"Regensburg","type":"Kreisfreie_Stadt"},"district":{"key":"09362","name":"Regensburg","type":"Kreisfreie_Stadt"},"federalState":{"key":"09","name":"Bayern"}},{"name":"Ödenthaler Weg","postalCode":"93057","locality":"Regensburg","municipality":{"key":"09362000","name":"Regensburg","type":"Kreisfreie_Stadt"},"district":{"key":"09362","name":"Regensburg","type":"Kreisfreie_Stadt"},"federalState":{"key":"09","name":"Bayern"}},{"name":"Ödenthalweg","postalCode":"93057","locality":"Regensburg","municipality":{"key":"09362000","name":"Regensburg","type":"Kreisfreie_Stadt"},"district":{"key":"09362","name":"Regensburg","type":"Kreisfreie_Stadt"},"federalState":{"key":"09","name":"Bayern"}},]