[{"name":"Alte Bergstr.","postalCode":"06458","locality":"Selke-Aue","municipality":{"key":"15085287","name":"Selke-Aue","type":"Kreisangehörige_Gemeinde"},"district":{"key":"15085","name":"Harz","type":"Landkreis"},"federalState":{"key":"15","name":"Sachsen-Anhalt"}},{"name":"Alte Landstr.","postalCode":"24884","locality":"Selk","municipality":{"key":"01059078","name":"Selk","type":"Kreisangehörige_Gemeinde"},"district":{"key":"01059","name":"Schleswig-Flensburg","type":"Kreis"},"federalState":{"key":"01","name":"Schleswig-Holstein"}},{"name":"Altmühl","postalCode":"24884","locality":"Selk","municipality":{"key":"01059078","name":"Selk","type":"Kreisangehörige_Gemeinde"},"district":{"key":"01059","name":"Schleswig-Flensburg","type":"Kreis"},"federalState":{"key":"01","name":"Schleswig-Holstein"}},{"name":"Am Backhus","postalCode":"24884","locality":"Selk","municipality":{"key":"01059078","name":"Selk","type":"Kreisangehörige_Gemeinde"},"district":{"key":"01059","name":"Schleswig-Flensburg","type":"Kreis"},"federalState":{"key":"01","name":"Schleswig-Holstein"}},{"name":"Am Junkernhof","postalCode":"06458","locality":"Selke-Aue","municipality":{"key":"15085287","name":"Selke-Aue","type":"Kreisangehörige_Gemeinde"},"district":{"key":"15085","name":"Harz","type":"Landkreis"},"federalState":{"key":"15","name":"Sachsen-Anhalt"}},{"name":"Am Kahlenberg","postalCode":"06458","locality":"Selke-Aue","municipality":{"key":"15085287","name":"Selke-Aue","type":"Kreisangehörige_Gemeinde"},"district":{"key":"15085","name":"Harz","type":"Landkreis"},"federalState":{"key":"15","name":"Sachsen-Anhalt"}},{"name":"Am Kograben","postalCode":"24884","locality":"Selk","municipality":{"key":"01059078","name":"Selk","type":"Kreisangehörige_Gemeinde"},"district":{"key":"01059","name":"Schleswig-Flensburg","type":"Kreis"},"federalState":{"key":"01","name":"Schleswig-Holstein"}},{"name":"Am Königshügel","postalCode":"24884","locality":"Selk","municipality":{"key":"01059078","name":"Selk","type":"Kreisangehörige_Gemeinde"},"district":{"key":"01059","name":"Schleswig-Flensburg","type":"Kreis"},"federalState":{"key":"01","name":"Schleswig-Holstein"}},{"name":"Am Mühlenberg","postalCode":"06458","locality":"Selke-Aue","municipality":{"key":"15085287","name":"Selke-Aue","type":"Kreisangehörige_Gemeinde"},"district":{"key":"15085","name":"Harz","type":"Landkreis"},"federalState":{"key":"15","name":"Sachsen-Anhalt"}},{"name":"Am Rathaus","postalCode":"06458","locality":"Selke-Aue","municipality":{"key":"15085287","name":"Selke-Aue","type":"Kreisangehörige_Gemeinde"},"district":{"key":"15085","name":"Harz","type":"Landkreis"},"federalState":{"key":"15","name":"Sachsen-Anhalt"}},{"name":"Am Teich","postalCode":"06458","locality":"Selke-Aue","municipality":{"key":"15085287","name":"Selke-Aue","type":"Kreisangehörige_Gemeinde"},"district":{"key":"15085","name":"Harz","type":"Landkreis"},"federalState":{"key":"15","name":"Sachsen-Anhalt"}},{"name":"An der Bleiche","postalCode":"06458","locality":"Selke-Aue","municipality":{"key":"15085287","name":"Selke-Aue","type":"Kreisangehörige_Gemeinde"},"district":{"key":"15085","name":"Harz","type":"Landkreis"},"federalState":{"key":"15","name":"Sachsen-Anhalt"}},{"name":"Anger","postalCode":"06458","locality":"Selke-Aue","municipality":{"key":"15085287","name":"Selke-Aue","type":"Kreisangehörige_Gemeinde"},"district":{"key":"15085","name":"Harz","type":"Landkreis"},"federalState":{"key":"15","name":"Sachsen-Anhalt"}},{"name":"Bahnhofstr.","postalCode":"06458","locality":"Selke-Aue","municipality":{"key":"15085287","name":"Selke-Aue","type":"Kreisangehörige_Gemeinde"},"district":{"key":"15085","name":"Harz","type":"Landkreis"},"federalState":{"key":"15","name":"Sachsen-Anhalt"}},{"name":"Bergweg","postalCode":"56254","locality":"Moselkern","municipality":{"key":"07135065","name":"Moselkern","type":"Kreisangehörige_Gemeinde"},"district":{"key":"07135","name":"Cochem-Zell","type":"Landkreis"},"federalState":{"key":"07","name":"Rheinland-Pfalz"}},{"name":"Binngasse","postalCode":"56254","locality":"Moselkern","municipality":{"key":"07135065","name":"Moselkern","type":"Kreisangehörige_Gemeinde"},"district":{"key":"07135","name":"Cochem-Zell","type":"Landkreis"},"federalState":{"key":"07","name":"Rheinland-Pfalz"}},{"name":"Brekendorfer Landstr.","postalCode":"24884","locality":"Selk","municipality":{"key":"01059078","name":"Selk","type":"Kreisangehörige_Gemeinde"},"district":{"key":"01059","name":"Schleswig-Flensburg","type":"Kreis"},"federalState":{"key":"01","name":"Schleswig-Holstein"}},{"name":"Buchenweg","postalCode":"24884","locality":"Selk","municipality":{"key":"01059078","name":"Selk","type":"Kreisangehörige_Gemeinde"},"district":{"key":"01059","name":"Schleswig-Flensburg","type":"Kreis"},"federalState":{"key":"01","name":"Schleswig-Holstein"}},{"name":"Cochstedter Weg","postalCode":"06458","locality":"Selke-Aue","municipality":{"key":"15085287","name":"Selke-Aue","type":"Kreisangehörige_Gemeinde"},"district":{"key":"15085","name":"Harz","type":"Landkreis"},"federalState":{"key":"15","name":"Sachsen-Anhalt"}},{"name":"Dorfstr.","postalCode":"06458","locality":"Selke-Aue","municipality":{"key":"15085287","name":"Selke-Aue","type":"Kreisangehörige_Gemeinde"},"district":{"key":"15085","name":"Harz","type":"Landkreis"},"federalState":{"key":"15","name":"Sachsen-Anhalt"}},{"name":"Eichenweg","postalCode":"24884","locality":"Selk","municipality":{"key":"01059078","name":"Selk","type":"Kreisangehörige_Gemeinde"},"district":{"key":"01059","name":"Schleswig-Flensburg","type":"Kreis"},"federalState":{"key":"01","name":"Schleswig-Holstein"}},{"name":"Elztal","postalCode":"56254","locality":"Moselkern","municipality":{"key":"07135065","name":"Moselkern","type":"Kreisangehörige_Gemeinde"},"district":{"key":"07135","name":"Cochem-Zell","type":"Landkreis"},"federalState":{"key":"07","name":"Rheinland-Pfalz"}},{"name":"Ernst-Thälmann-Str.","postalCode":"06458","locality":"Selke-Aue","municipality":{"key":"15085287","name":"Selke-Aue","type":"Kreisangehörige_Gemeinde"},"district":{"key":"15085","name":"Harz","type":"Landkreis"},"federalState":{"key":"15","name":"Sachsen-Anhalt"}},{"name":"Fährstr.","postalCode":"56254","locality":"Moselkern","municipality":{"key":"07135065","name":"Moselkern","type":"Kreisangehörige_Gemeinde"},"district":{"key":"07135","name":"Cochem-Zell","type":"Landkreis"},"federalState":{"key":"07","name":"Rheinland-Pfalz"}},{"name":"Faules Faß","postalCode":"06458","locality":"Selke-Aue","municipality":{"key":"15085287","name":"Selke-Aue","type":"Kreisangehörige_Gemeinde"},"district":{"key":"15085","name":"Harz","type":"Landkreis"},"federalState":{"key":"15","name":"Sachsen-Anhalt"}},{"name":"Feldstr.","postalCode":"06458","locality":"Selke-Aue","municipality":{"key":"15085287","name":"Selke-Aue","type":"Kreisangehörige_Gemeinde"},"district":{"key":"15085","name":"Harz","type":"Landkreis"},"federalState":{"key":"15","name":"Sachsen-Anhalt"}},{"name":"Fliederweg","postalCode":"24884","locality":"Selk","municipality":{"key":"01059078","name":"Selk","type":"Kreisangehörige_Gemeinde"},"district":{"key":"01059","name":"Schleswig-Flensburg","type":"Kreis"},"federalState":{"key":"01","name":"Schleswig-Holstein"}},{"name":"Friedensstr.","postalCode":"06458","locality":"Selke-Aue","municipality":{"key":"15085287","name":"Selke-Aue","type":"Kreisangehörige_Gemeinde"},"district":{"key":"15085","name":"Harz","type":"Landkreis"},"federalState":{"key":"15","name":"Sachsen-Anhalt"}},{"name":"Friedhof Hausneindorf","postalCode":"06458","locality":"Selke-Aue","municipality":{"key":"15085287","name":"Selke-Aue","type":"Kreisangehörige_Gemeinde"},"district":{"key":"15085","name":"Harz","type":"Landkreis"},"federalState":{"key":"15","name":"Sachsen-Anhalt"}},{"name":"Friedhofsweg","postalCode":"06458","locality":"Selke-Aue","municipality":{"key":"15085287","name":"Selke-Aue","type":"Kreisangehörige_Gemeinde"},"district":{"key":"15085","name":"Harz","type":"Landkreis"},"federalState":{"key":"15","name":"Sachsen-Anhalt"}},{"name":"Gartenstr.","postalCode":"06458","locality":"Selke-Aue","municipality":{"key":"15085287","name":"Selke-Aue","type":"Kreisangehörige_Gemeinde"},"district":{"key":"15085","name":"Harz","type":"Landkreis"},"federalState":{"key":"15","name":"Sachsen-Anhalt"}},{"name":"Gartenstr.","postalCode":"56254","locality":"Moselkern","municipality":{"key":"07135065","name":"Moselkern","type":"Kreisangehörige_Gemeinde"},"district":{"key":"07135","name":"Cochem-Zell","type":"Landkreis"},"federalState":{"key":"07","name":"Rheinland-Pfalz"}},{"name":"Goetheplatz","postalCode":"06458","locality":"Selke-Aue","municipality":{"key":"15085287","name":"Selke-Aue","type":"Kreisangehörige_Gemeinde"},"district":{"key":"15085","name":"Harz","type":"Landkreis"},"federalState":{"key":"15","name":"Sachsen-Anhalt"}},{"name":"Goethestr.","postalCode":"06458","locality":"Selke-Aue","municipality":{"key":"15085287","name":"Selke-Aue","type":"Kreisangehörige_Gemeinde"},"district":{"key":"15085","name":"Harz","type":"Landkreis"},"federalState":{"key":"15","name":"Sachsen-Anhalt"}},{"name":"Grossgasse","postalCode":"56254","locality":"Moselkern","municipality":{"key":"07135065","name":"Moselkern","type":"Kreisangehörige_Gemeinde"},"district":{"key":"07135","name":"Cochem-Zell","type":"Landkreis"},"federalState":{"key":"07","name":"Rheinland-Pfalz"}},{"name":"Hakelstr.","postalCode":"06458","locality":"Selke-Aue","municipality":{"key":"15085287","name":"Selke-Aue","type":"Kreisangehörige_Gemeinde"},"district":{"key":"15085","name":"Harz","type":"Landkreis"},"federalState":{"key":"15","name":"Sachsen-Anhalt"}},{"name":"Hauptstr.","postalCode":"06458","locality":"Selke-Aue","municipality":{"key":"15085287","name":"Selke-Aue","type":"Kreisangehörige_Gemeinde"},"district":{"key":"15085","name":"Harz","type":"Landkreis"},"federalState":{"key":"15","name":"Sachsen-Anhalt"}},{"name":"Hausneindorfer Weg","postalCode":"06458","locality":"Selke-Aue","municipality":{"key":"15085287","name":"Selke-Aue","type":"Kreisangehörige_Gemeinde"},"district":{"key":"15085","name":"Harz","type":"Landkreis"},"federalState":{"key":"15","name":"Sachsen-Anhalt"}},{"name":"Heteborner Hakelstr.","postalCode":"06458","locality":"Selke-Aue","municipality":{"key":"15085287","name":"Selke-Aue","type":"Kreisangehörige_Gemeinde"},"district":{"key":"15085","name":"Harz","type":"Landkreis"},"federalState":{"key":"15","name":"Sachsen-Anhalt"}},{"name":"Hinter dem Park","postalCode":"06458","locality":"Selke-Aue","municipality":{"key":"15085287","name":"Selke-Aue","type":"Kreisangehörige_Gemeinde"},"district":{"key":"15085","name":"Harz","type":"Landkreis"},"federalState":{"key":"15","name":"Sachsen-Anhalt"}},{"name":"Hinterm Kulk","postalCode":"06458","locality":"Selke-Aue","municipality":{"key":"15085287","name":"Selke-Aue","type":"Kreisangehörige_Gemeinde"},"district":{"key":"15085","name":"Harz","type":"Landkreis"},"federalState":{"key":"15","name":"Sachsen-Anhalt"}},{"name":"Husbarg","postalCode":"24884","locality":"Selk","municipality":{"key":"01059078","name":"Selk","type":"Kreisangehörige_Gemeinde"},"district":{"key":"01059","name":"Schleswig-Flensburg","type":"Kreis"},"federalState":{"key":"01","name":"Schleswig-Holstein"}},{"name":"Im Mühlweg","postalCode":"56254","locality":"Moselkern","municipality":{"key":"07135065","name":"Moselkern","type":"Kreisangehörige_Gemeinde"},"district":{"key":"07135","name":"Cochem-Zell","type":"Landkreis"},"federalState":{"key":"07","name":"Rheinland-Pfalz"}},{"name":"Im Winkel","postalCode":"06458","locality":"Selke-Aue","municipality":{"key":"15085287","name":"Selke-Aue","type":"Kreisangehörige_Gemeinde"},"district":{"key":"15085","name":"Harz","type":"Landkreis"},"federalState":{"key":"15","name":"Sachsen-Anhalt"}},{"name":"Jageler Weg","postalCode":"24884","locality":"Selk","municipality":{"key":"01059078","name":"Selk","type":"Kreisangehörige_Gemeinde"},"district":{"key":"01059","name":"Schleswig-Flensburg","type":"Kreis"},"federalState":{"key":"01","name":"Schleswig-Holstein"}},{"name":"Kalkweg (Zur Domburg)","postalCode":"06458","locality":"Selke-Aue","municipality":{"key":"15085287","name":"Selke-Aue","type":"Kreisangehörige_Gemeinde"},"district":{"key":"15085","name":"Harz","type":"Landkreis"},"federalState":{"key":"15","name":"Sachsen-Anhalt"}},{"name":"Kirchstr.","postalCode":"06458","locality":"Selke-Aue","municipality":{"key":"15085287","name":"Selke-Aue","type":"Kreisangehörige_Gemeinde"},"district":{"key":"15085","name":"Harz","type":"Landkreis"},"federalState":{"key":"15","name":"Sachsen-Anhalt"}},{"name":"Kirchstr.","postalCode":"56254","locality":"Moselkern","municipality":{"key":"07135065","name":"Moselkern","type":"Kreisangehörige_Gemeinde"},"district":{"key":"07135","name":"Cochem-Zell","type":"Landkreis"},"federalState":{"key":"07","name":"Rheinland-Pfalz"}},{"name":"Kloster","postalCode":"24884","locality":"Selk","municipality":{"key":"01059078","name":"Selk","type":"Kreisangehörige_Gemeinde"},"district":{"key":"01059","name":"Schleswig-Flensburg","type":"Kreis"},"federalState":{"key":"01","name":"Schleswig-Holstein"}},{"name":"Kreisstr.","postalCode":"24884","locality":"Selk","municipality":{"key":"01059078","name":"Selk","type":"Kreisangehörige_Gemeinde"},"district":{"key":"01059","name":"Schleswig-Flensburg","type":"Kreis"},"federalState":{"key":"01","name":"Schleswig-Holstein"}},{"name":"Kringel","postalCode":"56254","locality":"Moselkern","municipality":{"key":"07135065","name":"Moselkern","type":"Kreisangehörige_Gemeinde"},"district":{"key":"07135","name":"Cochem-Zell","type":"Landkreis"},"federalState":{"key":"07","name":"Rheinland-Pfalz"}},{"name":"Kurze Str.","postalCode":"06458","locality":"Selke-Aue","municipality":{"key":"15085287","name":"Selke-Aue","type":"Kreisangehörige_Gemeinde"},"district":{"key":"15085","name":"Harz","type":"Landkreis"},"federalState":{"key":"15","name":"Sachsen-Anhalt"}},{"name":"Lindenstr.","postalCode":"06458","locality":"Selke-Aue","municipality":{"key":"15085287","name":"Selke-Aue","type":"Kreisangehörige_Gemeinde"},"district":{"key":"15085","name":"Harz","type":"Landkreis"},"federalState":{"key":"15","name":"Sachsen-Anhalt"}},{"name":"Lindgrund","postalCode":"06458","locality":"Selke-Aue","municipality":{"key":"15085287","name":"Selke-Aue","type":"Kreisangehörige_Gemeinde"},"district":{"key":"15085","name":"Harz","type":"Landkreis"},"federalState":{"key":"15","name":"Sachsen-Anhalt"}},{"name":"Magdeburger Str.","postalCode":"06458","locality":"Selke-Aue","municipality":{"key":"15085287","name":"Selke-Aue","type":"Kreisangehörige_Gemeinde"},"district":{"key":"15085","name":"Harz","type":"Landkreis"},"federalState":{"key":"15","name":"Sachsen-Anhalt"}},{"name":"Matzenberg","postalCode":"24884","locality":"Selk","municipality":{"key":"01059078","name":"Selk","type":"Kreisangehörige_Gemeinde"},"district":{"key":"01059","name":"Schleswig-Flensburg","type":"Kreis"},"federalState":{"key":"01","name":"Schleswig-Holstein"}},{"name":"Moselstr.","postalCode":"56254","locality":"Moselkern","municipality":{"key":"07135065","name":"Moselkern","type":"Kreisangehörige_Gemeinde"},"district":{"key":"07135","name":"Cochem-Zell","type":"Landkreis"},"federalState":{"key":"07","name":"Rheinland-Pfalz"}},{"name":"Mühlenweg","postalCode":"24884","locality":"Selk","municipality":{"key":"01059078","name":"Selk","type":"Kreisangehörige_Gemeinde"},"district":{"key":"01059","name":"Schleswig-Flensburg","type":"Kreis"},"federalState":{"key":"01","name":"Schleswig-Holstein"}},{"name":"Nachtigallenweg","postalCode":"06458","locality":"Selke-Aue","municipality":{"key":"15085287","name":"Selke-Aue","type":"Kreisangehörige_Gemeinde"},"district":{"key":"15085","name":"Harz","type":"Landkreis"},"federalState":{"key":"15","name":"Sachsen-Anhalt"}},{"name":"Neue Str.","postalCode":"06458","locality":"Selke-Aue","municipality":{"key":"15085287","name":"Selke-Aue","type":"Kreisangehörige_Gemeinde"},"district":{"key":"15085","name":"Harz","type":"Landkreis"},"federalState":{"key":"15","name":"Sachsen-Anhalt"}},{"name":"Oberstr.","postalCode":"56254","locality":"Moselkern","municipality":{"key":"07135065","name":"Moselkern","type":"Kreisangehörige_Gemeinde"},"district":{"key":"07135","name":"Cochem-Zell","type":"Landkreis"},"federalState":{"key":"07","name":"Rheinland-Pfalz"}},{"name":"Osterberg","postalCode":"06458","locality":"Selke-Aue","municipality":{"key":"15085287","name":"Selke-Aue","type":"Kreisangehörige_Gemeinde"},"district":{"key":"15085","name":"Harz","type":"Landkreis"},"federalState":{"key":"15","name":"Sachsen-Anhalt"}},{"name":"Parkstr.","postalCode":"06458","locality":"Selke-Aue","municipality":{"key":"15085287","name":"Selke-Aue","type":"Kreisangehörige_Gemeinde"},"district":{"key":"15085","name":"Harz","type":"Landkreis"},"federalState":{"key":"15","name":"Sachsen-Anhalt"}},{"name":"Plettenberg","postalCode":"24884","locality":"Selk","municipality":{"key":"01059078","name":"Selk","type":"Kreisangehörige_Gemeinde"},"district":{"key":"01059","name":"Schleswig-Flensburg","type":"Kreis"},"federalState":{"key":"01","name":"Schleswig-Holstein"}},{"name":"Poststr.","postalCode":"06458","locality":"Selke-Aue","municipality":{"key":"15085287","name":"Selke-Aue","type":"Kreisangehörige_Gemeinde"},"district":{"key":"15085","name":"Harz","type":"Landkreis"},"federalState":{"key":"15","name":"Sachsen-Anhalt"}},{"name":"Quedlinburger Str.","postalCode":"06458","locality":"Selke-Aue","municipality":{"key":"15085287","name":"Selke-Aue","type":"Kreisangehörige_Gemeinde"},"district":{"key":"15085","name":"Harz","type":"Landkreis"},"federalState":{"key":"15","name":"Sachsen-Anhalt"}},{"name":"Quellenberg","postalCode":"24884","locality":"Selk","municipality":{"key":"01059078","name":"Selk","type":"Kreisangehörige_Gemeinde"},"district":{"key":"01059","name":"Schleswig-Flensburg","type":"Kreis"},"federalState":{"key":"01","name":"Schleswig-Holstein"}},{"name":"Querstr.","postalCode":"06458","locality":"Selke-Aue","municipality":{"key":"15085287","name":"Selke-Aue","type":"Kreisangehörige_Gemeinde"},"district":{"key":"15085","name":"Harz","type":"Landkreis"},"federalState":{"key":"15","name":"Sachsen-Anhalt"}},{"name":"Ringstr.","postalCode":"06458","locality":"Selke-Aue","municipality":{"key":"15085287","name":"Selke-Aue","type":"Kreisangehörige_Gemeinde"},"district":{"key":"15085","name":"Harz","type":"Landkreis"},"federalState":{"key":"15","name":"Sachsen-Anhalt"}},{"name":"Rosenstr.","postalCode":"56254","locality":"Moselkern","municipality":{"key":"07135065","name":"Moselkern","type":"Kreisangehörige_Gemeinde"},"district":{"key":"07135","name":"Cochem-Zell","type":"Landkreis"},"federalState":{"key":"07","name":"Rheinland-Pfalz"}},{"name":"Schäferberg","postalCode":"06458","locality":"Selke-Aue","municipality":{"key":"15085287","name":"Selke-Aue","type":"Kreisangehörige_Gemeinde"},"district":{"key":"15085","name":"Harz","type":"Landkreis"},"federalState":{"key":"15","name":"Sachsen-Anhalt"}},{"name":"Schlossgarten","postalCode":"06458","locality":"Selke-Aue","municipality":{"key":"15085287","name":"Selke-Aue","type":"Kreisangehörige_Gemeinde"},"district":{"key":"15085","name":"Harz","type":"Landkreis"},"federalState":{"key":"15","name":"Sachsen-Anhalt"}},{"name":"Schmiedestr.","postalCode":"06458","locality":"Selke-Aue","municipality":{"key":"15085287","name":"Selke-Aue","type":"Kreisangehörige_Gemeinde"},"district":{"key":"15085","name":"Harz","type":"Landkreis"},"federalState":{"key":"15","name":"Sachsen-Anhalt"}},{"name":"Schulstr.","postalCode":"06458","locality":"Selke-Aue","municipality":{"key":"15085287","name":"Selke-Aue","type":"Kreisangehörige_Gemeinde"},"district":{"key":"15085","name":"Harz","type":"Landkreis"},"federalState":{"key":"15","name":"Sachsen-Anhalt"}},{"name":"Seilerstr.","postalCode":"56254","locality":"Moselkern","municipality":{"key":"07135065","name":"Moselkern","type":"Kreisangehörige_Gemeinde"},"district":{"key":"07135","name":"Cochem-Zell","type":"Landkreis"},"federalState":{"key":"07","name":"Rheinland-Pfalz"}},{"name":"Selkeweg","postalCode":"06458","locality":"Selke-Aue","municipality":{"key":"15085287","name":"Selke-Aue","type":"Kreisangehörige_Gemeinde"},"district":{"key":"15085","name":"Harz","type":"Landkreis"},"federalState":{"key":"15","name":"Sachsen-Anhalt"}},{"name":"Siedlung","postalCode":"06458","locality":"Selke-Aue","municipality":{"key":"15085287","name":"Selke-Aue","type":"Kreisangehörige_Gemeinde"},"district":{"key":"15085","name":"Harz","type":"Landkreis"},"federalState":{"key":"15","name":"Sachsen-Anhalt"}},{"name":"Steinweg","postalCode":"06458","locality":"Selke-Aue","municipality":{"key":"15085287","name":"Selke-Aue","type":"Kreisangehörige_Gemeinde"},"district":{"key":"15085","name":"Harz","type":"Landkreis"},"federalState":{"key":"15","name":"Sachsen-Anhalt"}},{"name":"Storchenwinkel","postalCode":"06458","locality":"Selke-Aue","municipality":{"key":"15085287","name":"Selke-Aue","type":"Kreisangehörige_Gemeinde"},"district":{"key":"15085","name":"Harz","type":"Landkreis"},"federalState":{"key":"15","name":"Sachsen-Anhalt"}},{"name":"Sünnwisch","postalCode":"24884","locality":"Selk","municipality":{"key":"01059078","name":"Selk","type":"Kreisangehörige_Gemeinde"},"district":{"key":"01059","name":"Schleswig-Flensburg","type":"Kreis"},"federalState":{"key":"01","name":"Schleswig-Holstein"}},{"name":"Wallstr.","postalCode":"06458","locality":"Selke-Aue","municipality":{"key":"15085287","name":"Selke-Aue","type":"Kreisangehörige_Gemeinde"},"district":{"key":"15085","name":"Harz","type":"Landkreis"},"federalState":{"key":"15","name":"Sachsen-Anhalt"}},{"name":"Wedelspang","postalCode":"24884","locality":"Selk","municipality":{"key":"01059078","name":"Selk","type":"Kreisangehörige_Gemeinde"},"district":{"key":"01059","name":"Schleswig-Flensburg","type":"Kreis"},"federalState":{"key":"01","name":"Schleswig-Holstein"}},{"name":"Weinbergstr.","postalCode":"56254","locality":"Moselkern","municipality":{"key":"07135065","name":"Moselkern","type":"Kreisangehörige_Gemeinde"},"district":{"key":"07135","name":"Cochem-Zell","type":"Landkreis"},"federalState":{"key":"07","name":"Rheinland-Pfalz"}},{"name":"Winkel","postalCode":"06458","locality":"Selke-Aue","municipality":{"key":"15085287","name":"Selke-Aue","type":"Kreisangehörige_Gemeinde"},"district":{"key":"15085","name":"Harz","type":"Landkreis"},"federalState":{"key":"15","name":"Sachsen-Anhalt"}},{"name":"Zehnthofstr.","postalCode":"56254","locality":"Moselkern","municipality":{"key":"07135065","name":"Moselkern","type":"Kreisangehörige_Gemeinde"},"district":{"key":"07135","name":"Cochem-Zell","type":"Landkreis"},"federalState":{"key":"07","name":"Rheinland-Pfalz"}},{"name":"Zur Domburg","postalCode":"06458","locality":"Selke-Aue","municipality":{"key":"15085287","name":"Selke-Aue","type":"Kreisangehörige_Gemeinde"},"district":{"key":"15085","name":"Harz","type":"Landkreis"},"federalState":{"key":"15","name":"Sachsen-Anhalt"}},]