[{"name":"Achalmstr.","postalCode":"72636","locality":"Frickenhausen","municipality":{"key":"08116020","name":"Frickenhausen","type":"Kreisangehörige_Gemeinde"},"district":{"key":"08116","name":"Esslingen","type":"Landkreis"},"federalState":{"key":"08","name":"Baden-Württemberg"}},{"name":"Ailestr.","postalCode":"72636","locality":"Frickenhausen","municipality":{"key":"08116020","name":"Frickenhausen","type":"Kreisangehörige_Gemeinde"},"district":{"key":"08116","name":"Esslingen","type":"Landkreis"},"federalState":{"key":"08","name":"Baden-Württemberg"}},{"name":"Albert-Schweitzer-Str.","postalCode":"72636","locality":"Frickenhausen","municipality":{"key":"08116020","name":"Frickenhausen","type":"Kreisangehörige_Gemeinde"},"district":{"key":"08116","name":"Esslingen","type":"Landkreis"},"federalState":{"key":"08","name":"Baden-Württemberg"}},{"name":"Albstr.","postalCode":"72636","locality":"Frickenhausen","municipality":{"key":"08116020","name":"Frickenhausen","type":"Kreisangehörige_Gemeinde"},"district":{"key":"08116","name":"Esslingen","type":"Landkreis"},"federalState":{"key":"08","name":"Baden-Württemberg"}},{"name":"Aloys-Senefelder-Str.","postalCode":"72636","locality":"Frickenhausen","municipality":{"key":"08116020","name":"Frickenhausen","type":"Kreisangehörige_Gemeinde"},"district":{"key":"08116","name":"Esslingen","type":"Landkreis"},"federalState":{"key":"08","name":"Baden-Württemberg"}},{"name":"Alter Friedhof","postalCode":"72636","locality":"Frickenhausen","municipality":{"key":"08116020","name":"Frickenhausen","type":"Kreisangehörige_Gemeinde"},"district":{"key":"08116","name":"Esslingen","type":"Landkreis"},"federalState":{"key":"08","name":"Baden-Württemberg"}},{"name":"Am Alten Friedhof","postalCode":"72636","locality":"Frickenhausen","municipality":{"key":"08116020","name":"Frickenhausen","type":"Kreisangehörige_Gemeinde"},"district":{"key":"08116","name":"Esslingen","type":"Landkreis"},"federalState":{"key":"08","name":"Baden-Württemberg"}},{"name":"Am Berg","postalCode":"97252","locality":"Frickenhausen a.Main","municipality":{"key":"09679131","name":"Frickenhausen a.Main, M","type":"Markt"},"district":{"key":"09679","name":"Würzburg","type":"Landkreis"},"federalState":{"key":"09","name":"Bayern"}},{"name":"Am Biergarten","postalCode":"97252","locality":"Frickenhausen a.Main","municipality":{"key":"09679131","name":"Frickenhausen a.Main, M","type":"Markt"},"district":{"key":"09679","name":"Würzburg","type":"Landkreis"},"federalState":{"key":"09","name":"Bayern"}},{"name":"Am Bürgerholz","postalCode":"97199","locality":"Frickenhausen a.Main","municipality":{"key":"09679131","name":"Frickenhausen a.Main, M","type":"Markt"},"district":{"key":"09679","name":"Würzburg","type":"Landkreis"},"federalState":{"key":"09","name":"Bayern"}},{"name":"Am Leinritt","postalCode":"97252","locality":"Frickenhausen a.Main","municipality":{"key":"09679131","name":"Frickenhausen a.Main, M","type":"Markt"},"district":{"key":"09679","name":"Würzburg","type":"Landkreis"},"federalState":{"key":"09","name":"Bayern"}},{"name":"Am Lengertbach","postalCode":"72636","locality":"Frickenhausen","municipality":{"key":"08116020","name":"Frickenhausen","type":"Kreisangehörige_Gemeinde"},"district":{"key":"08116","name":"Esslingen","type":"Landkreis"},"federalState":{"key":"08","name":"Baden-Württemberg"}},{"name":"Am Lindach","postalCode":"97252","locality":"Frickenhausen a.Main","municipality":{"key":"09679131","name":"Frickenhausen a.Main, M","type":"Markt"},"district":{"key":"09679","name":"Würzburg","type":"Landkreis"},"federalState":{"key":"09","name":"Bayern"}},{"name":"Am Mee","postalCode":"97252","locality":"Frickenhausen a.Main","municipality":{"key":"09679131","name":"Frickenhausen a.Main, M","type":"Markt"},"district":{"key":"09679","name":"Würzburg","type":"Landkreis"},"federalState":{"key":"09","name":"Bayern"}},{"name":"Ammerstr.","postalCode":"72636","locality":"Frickenhausen","municipality":{"key":"08116020","name":"Frickenhausen","type":"Kreisangehörige_Gemeinde"},"district":{"key":"08116","name":"Esslingen","type":"Landkreis"},"federalState":{"key":"08","name":"Baden-Württemberg"}},{"name":"Am Rain","postalCode":"72636","locality":"Frickenhausen","municipality":{"key":"08116020","name":"Frickenhausen","type":"Kreisangehörige_Gemeinde"},"district":{"key":"08116","name":"Esslingen","type":"Landkreis"},"federalState":{"key":"08","name":"Baden-Württemberg"}},{"name":"Amselweg","postalCode":"72636","locality":"Frickenhausen","municipality":{"key":"08116020","name":"Frickenhausen","type":"Kreisangehörige_Gemeinde"},"district":{"key":"08116","name":"Esslingen","type":"Landkreis"},"federalState":{"key":"08","name":"Baden-Württemberg"}},{"name":"Auf dem Heimenwasen","postalCode":"72636","locality":"Frickenhausen","municipality":{"key":"08116020","name":"Frickenhausen","type":"Kreisangehörige_Gemeinde"},"district":{"key":"08116","name":"Esslingen","type":"Landkreis"},"federalState":{"key":"08","name":"Baden-Württemberg"}},{"name":"Autmutstr.","postalCode":"72636","locality":"Frickenhausen","municipality":{"key":"08116020","name":"Frickenhausen","type":"Kreisangehörige_Gemeinde"},"district":{"key":"08116","name":"Esslingen","type":"Landkreis"},"federalState":{"key":"08","name":"Baden-Württemberg"}},{"name":"Bachstr.","postalCode":"72636","locality":"Frickenhausen","municipality":{"key":"08116020","name":"Frickenhausen","type":"Kreisangehörige_Gemeinde"},"district":{"key":"08116","name":"Esslingen","type":"Landkreis"},"federalState":{"key":"08","name":"Baden-Württemberg"}},{"name":"Bahnhofsplatz","postalCode":"72636","locality":"Frickenhausen","municipality":{"key":"08116020","name":"Frickenhausen","type":"Kreisangehörige_Gemeinde"},"district":{"key":"08116","name":"Esslingen","type":"Landkreis"},"federalState":{"key":"08","name":"Baden-Württemberg"}},{"name":"Bahnhofstr.","postalCode":"72636","locality":"Frickenhausen","municipality":{"key":"08116020","name":"Frickenhausen","type":"Kreisangehörige_Gemeinde"},"district":{"key":"08116","name":"Esslingen","type":"Landkreis"},"federalState":{"key":"08","name":"Baden-Württemberg"}},{"name":"Beethovenstr.","postalCode":"72636","locality":"Frickenhausen","municipality":{"key":"08116020","name":"Frickenhausen","type":"Kreisangehörige_Gemeinde"},"district":{"key":"08116","name":"Esslingen","type":"Landkreis"},"federalState":{"key":"08","name":"Baden-Württemberg"}},{"name":"Benzstr.","postalCode":"72636","locality":"Frickenhausen","municipality":{"key":"08116020","name":"Frickenhausen","type":"Kreisangehörige_Gemeinde"},"district":{"key":"08116","name":"Esslingen","type":"Landkreis"},"federalState":{"key":"08","name":"Baden-Württemberg"}},{"name":"Bergstr.","postalCode":"72636","locality":"Frickenhausen","municipality":{"key":"08116020","name":"Frickenhausen","type":"Kreisangehörige_Gemeinde"},"district":{"key":"08116","name":"Esslingen","type":"Landkreis"},"federalState":{"key":"08","name":"Baden-Württemberg"}},{"name":"Bestlenstr.","postalCode":"97252","locality":"Frickenhausen a.Main","municipality":{"key":"09679131","name":"Frickenhausen a.Main, M","type":"Markt"},"district":{"key":"09679","name":"Würzburg","type":"Landkreis"},"federalState":{"key":"09","name":"Bayern"}},{"name":"Bettackerstr.","postalCode":"72636","locality":"Frickenhausen","municipality":{"key":"08116020","name":"Frickenhausen","type":"Kreisangehörige_Gemeinde"},"district":{"key":"08116","name":"Esslingen","type":"Landkreis"},"federalState":{"key":"08","name":"Baden-Württemberg"}},{"name":"Bettlinger Weg","postalCode":"72636","locality":"Frickenhausen","municipality":{"key":"08116020","name":"Frickenhausen","type":"Kreisangehörige_Gemeinde"},"district":{"key":"08116","name":"Esslingen","type":"Landkreis"},"federalState":{"key":"08","name":"Baden-Württemberg"}},{"name":"Beurener Str.","postalCode":"72636","locality":"Frickenhausen","municipality":{"key":"08116020","name":"Frickenhausen","type":"Kreisangehörige_Gemeinde"},"district":{"key":"08116","name":"Esslingen","type":"Landkreis"},"federalState":{"key":"08","name":"Baden-Württemberg"}},{"name":"Beurener Wasen","postalCode":"72636","locality":"Frickenhausen","municipality":{"key":"08116020","name":"Frickenhausen","type":"Kreisangehörige_Gemeinde"},"district":{"key":"08116","name":"Esslingen","type":"Landkreis"},"federalState":{"key":"08","name":"Baden-Württemberg"}},{"name":"Bismarckstr.","postalCode":"72636","locality":"Frickenhausen","municipality":{"key":"08116020","name":"Frickenhausen","type":"Kreisangehörige_Gemeinde"},"district":{"key":"08116","name":"Esslingen","type":"Landkreis"},"federalState":{"key":"08","name":"Baden-Württemberg"}},{"name":"Blumenstr.","postalCode":"72636","locality":"Frickenhausen","municipality":{"key":"08116020","name":"Frickenhausen","type":"Kreisangehörige_Gemeinde"},"district":{"key":"08116","name":"Esslingen","type":"Landkreis"},"federalState":{"key":"08","name":"Baden-Württemberg"}},{"name":"Bodelschwinghstr.","postalCode":"72636","locality":"Frickenhausen","municipality":{"key":"08116020","name":"Frickenhausen","type":"Kreisangehörige_Gemeinde"},"district":{"key":"08116","name":"Esslingen","type":"Landkreis"},"federalState":{"key":"08","name":"Baden-Württemberg"}},{"name":"Bolbergstr.","postalCode":"72636","locality":"Frickenhausen","municipality":{"key":"08116020","name":"Frickenhausen","type":"Kreisangehörige_Gemeinde"},"district":{"key":"08116","name":"Esslingen","type":"Landkreis"},"federalState":{"key":"08","name":"Baden-Württemberg"}},{"name":"Brahmsweg","postalCode":"72636","locality":"Frickenhausen","municipality":{"key":"08116020","name":"Frickenhausen","type":"Kreisangehörige_Gemeinde"},"district":{"key":"08116","name":"Esslingen","type":"Landkreis"},"federalState":{"key":"08","name":"Baden-Württemberg"}},{"name":"Brückenstr.","postalCode":"72636","locality":"Frickenhausen","municipality":{"key":"08116020","name":"Frickenhausen","type":"Kreisangehörige_Gemeinde"},"district":{"key":"08116","name":"Esslingen","type":"Landkreis"},"federalState":{"key":"08","name":"Baden-Württemberg"}},{"name":"Brucknerhof","postalCode":"72636","locality":"Frickenhausen","municipality":{"key":"08116020","name":"Frickenhausen","type":"Kreisangehörige_Gemeinde"},"district":{"key":"08116","name":"Esslingen","type":"Landkreis"},"federalState":{"key":"08","name":"Baden-Württemberg"}},{"name":"Brühlstr.","postalCode":"72636","locality":"Frickenhausen","municipality":{"key":"08116020","name":"Frickenhausen","type":"Kreisangehörige_Gemeinde"},"district":{"key":"08116","name":"Esslingen","type":"Landkreis"},"federalState":{"key":"08","name":"Baden-Württemberg"}},{"name":"Brunnenweg","postalCode":"72636","locality":"Frickenhausen","municipality":{"key":"08116020","name":"Frickenhausen","type":"Kreisangehörige_Gemeinde"},"district":{"key":"08116","name":"Esslingen","type":"Landkreis"},"federalState":{"key":"08","name":"Baden-Württemberg"}},{"name":"Burgstr.","postalCode":"72636","locality":"Frickenhausen","municipality":{"key":"08116020","name":"Frickenhausen","type":"Kreisangehörige_Gemeinde"},"district":{"key":"08116","name":"Esslingen","type":"Landkreis"},"federalState":{"key":"08","name":"Baden-Württemberg"}},{"name":"Burrenweg","postalCode":"72636","locality":"Frickenhausen","municipality":{"key":"08116020","name":"Frickenhausen","type":"Kreisangehörige_Gemeinde"},"district":{"key":"08116","name":"Esslingen","type":"Landkreis"},"federalState":{"key":"08","name":"Baden-Württemberg"}},{"name":"Büttnergasse","postalCode":"97252","locality":"Frickenhausen a.Main","municipality":{"key":"09679131","name":"Frickenhausen a.Main, M","type":"Markt"},"district":{"key":"09679","name":"Würzburg","type":"Landkreis"},"federalState":{"key":"09","name":"Bayern"}},{"name":"Carl-Orff-Str.","postalCode":"72636","locality":"Frickenhausen","municipality":{"key":"08116020","name":"Frickenhausen","type":"Kreisangehörige_Gemeinde"},"district":{"key":"08116","name":"Esslingen","type":"Landkreis"},"federalState":{"key":"08","name":"Baden-Württemberg"}},{"name":"Carl-Zeiss-Str.","postalCode":"72636","locality":"Frickenhausen","municipality":{"key":"08116020","name":"Frickenhausen","type":"Kreisangehörige_Gemeinde"},"district":{"key":"08116","name":"Esslingen","type":"Landkreis"},"federalState":{"key":"08","name":"Baden-Württemberg"}},{"name":"Daimlerstr.","postalCode":"72636","locality":"Frickenhausen","municipality":{"key":"08116020","name":"Frickenhausen","type":"Kreisangehörige_Gemeinde"},"district":{"key":"08116","name":"Esslingen","type":"Landkreis"},"federalState":{"key":"08","name":"Baden-Württemberg"}},{"name":"Dieselstr.","postalCode":"72636","locality":"Frickenhausen","municipality":{"key":"08116020","name":"Frickenhausen","type":"Kreisangehörige_Gemeinde"},"district":{"key":"08116","name":"Esslingen","type":"Landkreis"},"federalState":{"key":"08","name":"Baden-Württemberg"}},{"name":"Donauschwabenstr.","postalCode":"72636","locality":"Frickenhausen","municipality":{"key":"08116020","name":"Frickenhausen","type":"Kreisangehörige_Gemeinde"},"district":{"key":"08116","name":"Esslingen","type":"Landkreis"},"federalState":{"key":"08","name":"Baden-Württemberg"}},{"name":"Dr.-Adenauer-Str.","postalCode":"72636","locality":"Frickenhausen","municipality":{"key":"08116020","name":"Frickenhausen","type":"Kreisangehörige_Gemeinde"},"district":{"key":"08116","name":"Esslingen","type":"Landkreis"},"federalState":{"key":"08","name":"Baden-Württemberg"}},{"name":"Dr-Gminder-Str.","postalCode":"72636","locality":"Frickenhausen","municipality":{"key":"08116020","name":"Frickenhausen","type":"Kreisangehörige_Gemeinde"},"district":{"key":"08116","name":"Esslingen","type":"Landkreis"},"federalState":{"key":"08","name":"Baden-Württemberg"}},{"name":"Dürerstr.","postalCode":"72636","locality":"Frickenhausen","municipality":{"key":"08116020","name":"Frickenhausen","type":"Kreisangehörige_Gemeinde"},"district":{"key":"08116","name":"Esslingen","type":"Landkreis"},"federalState":{"key":"08","name":"Baden-Württemberg"}},{"name":"Echazstr.","postalCode":"72636","locality":"Frickenhausen","municipality":{"key":"08116020","name":"Frickenhausen","type":"Kreisangehörige_Gemeinde"},"district":{"key":"08116","name":"Esslingen","type":"Landkreis"},"federalState":{"key":"08","name":"Baden-Württemberg"}},{"name":"Egertstr.","postalCode":"72636","locality":"Frickenhausen","municipality":{"key":"08116020","name":"Frickenhausen","type":"Kreisangehörige_Gemeinde"},"district":{"key":"08116","name":"Esslingen","type":"Landkreis"},"federalState":{"key":"08","name":"Baden-Württemberg"}},{"name":"Eichbühlweg","postalCode":"72636","locality":"Frickenhausen","municipality":{"key":"08116020","name":"Frickenhausen","type":"Kreisangehörige_Gemeinde"},"district":{"key":"08116","name":"Esslingen","type":"Landkreis"},"federalState":{"key":"08","name":"Baden-Württemberg"}},{"name":"Eichendorffstr.","postalCode":"72636","locality":"Frickenhausen","municipality":{"key":"08116020","name":"Frickenhausen","type":"Kreisangehörige_Gemeinde"},"district":{"key":"08116","name":"Esslingen","type":"Landkreis"},"federalState":{"key":"08","name":"Baden-Württemberg"}},{"name":"Eisenbahnstr.","postalCode":"72636","locality":"Frickenhausen","municipality":{"key":"08116020","name":"Frickenhausen","type":"Kreisangehörige_Gemeinde"},"district":{"key":"08116","name":"Esslingen","type":"Landkreis"},"federalState":{"key":"08","name":"Baden-Württemberg"}},{"name":"Ermsstr.","postalCode":"72636","locality":"Frickenhausen","municipality":{"key":"08116020","name":"Frickenhausen","type":"Kreisangehörige_Gemeinde"},"district":{"key":"08116","name":"Esslingen","type":"Landkreis"},"federalState":{"key":"08","name":"Baden-Württemberg"}},{"name":"Ernst-Moritz-Arndt-Str.","postalCode":"72636","locality":"Frickenhausen","municipality":{"key":"08116020","name":"Frickenhausen","type":"Kreisangehörige_Gemeinde"},"district":{"key":"08116","name":"Esslingen","type":"Landkreis"},"federalState":{"key":"08","name":"Baden-Württemberg"}},{"name":"Fährergasse","postalCode":"97252","locality":"Frickenhausen a.Main","municipality":{"key":"09679131","name":"Frickenhausen a.Main, M","type":"Markt"},"district":{"key":"09679","name":"Würzburg","type":"Landkreis"},"federalState":{"key":"09","name":"Bayern"}},{"name":"Farrenbergstr.","postalCode":"72636","locality":"Frickenhausen","municipality":{"key":"08116020","name":"Frickenhausen","type":"Kreisangehörige_Gemeinde"},"district":{"key":"08116","name":"Esslingen","type":"Landkreis"},"federalState":{"key":"08","name":"Baden-Württemberg"}},{"name":"Farrenstr.","postalCode":"72636","locality":"Frickenhausen","municipality":{"key":"08116020","name":"Frickenhausen","type":"Kreisangehörige_Gemeinde"},"district":{"key":"08116","name":"Esslingen","type":"Landkreis"},"federalState":{"key":"08","name":"Baden-Württemberg"}},{"name":"Feuchtstr.","postalCode":"72636","locality":"Frickenhausen","municipality":{"key":"08116020","name":"Frickenhausen","type":"Kreisangehörige_Gemeinde"},"district":{"key":"08116","name":"Esslingen","type":"Landkreis"},"federalState":{"key":"08","name":"Baden-Württemberg"}},{"name":"Fichtestr.","postalCode":"72636","locality":"Frickenhausen","municipality":{"key":"08116020","name":"Frickenhausen","type":"Kreisangehörige_Gemeinde"},"district":{"key":"08116","name":"Esslingen","type":"Landkreis"},"federalState":{"key":"08","name":"Baden-Württemberg"}},{"name":"Finkenweg","postalCode":"72636","locality":"Frickenhausen","municipality":{"key":"08116020","name":"Frickenhausen","type":"Kreisangehörige_Gemeinde"},"district":{"key":"08116","name":"Esslingen","type":"Landkreis"},"federalState":{"key":"08","name":"Baden-Württemberg"}},{"name":"Fischergasse","postalCode":"97252","locality":"Frickenhausen a.Main","municipality":{"key":"09679131","name":"Frickenhausen a.Main, M","type":"Markt"},"district":{"key":"09679","name":"Würzburg","type":"Landkreis"},"federalState":{"key":"09","name":"Bayern"}},{"name":"Fliederweg","postalCode":"72636","locality":"Frickenhausen","municipality":{"key":"08116020","name":"Frickenhausen","type":"Kreisangehörige_Gemeinde"},"district":{"key":"08116","name":"Esslingen","type":"Landkreis"},"federalState":{"key":"08","name":"Baden-Württemberg"}},{"name":"Florianweg","postalCode":"72636","locality":"Frickenhausen","municipality":{"key":"08116020","name":"Frickenhausen","type":"Kreisangehörige_Gemeinde"},"district":{"key":"08116","name":"Esslingen","type":"Landkreis"},"federalState":{"key":"08","name":"Baden-Württemberg"}},{"name":"Frickenhäuser Str.","postalCode":"72636","locality":"Frickenhausen","municipality":{"key":"08116020","name":"Frickenhausen","type":"Kreisangehörige_Gemeinde"},"district":{"key":"08116","name":"Esslingen","type":"Landkreis"},"federalState":{"key":"08","name":"Baden-Württemberg"}},{"name":"Frickenhäuser Str.","postalCode":"97252","locality":"Frickenhausen a.Main","municipality":{"key":"09679131","name":"Frickenhausen a.Main, M","type":"Markt"},"district":{"key":"09679","name":"Würzburg","type":"Landkreis"},"federalState":{"key":"09","name":"Bayern"}},{"name":"Frickenhäuserweg","postalCode":"72636","locality":"Frickenhausen","municipality":{"key":"08116020","name":"Frickenhausen","type":"Kreisangehörige_Gemeinde"},"district":{"key":"08116","name":"Esslingen","type":"Landkreis"},"federalState":{"key":"08","name":"Baden-Württemberg"}},{"name":"Friedhofstr.","postalCode":"72636","locality":"Frickenhausen","municipality":{"key":"08116020","name":"Frickenhausen","type":"Kreisangehörige_Gemeinde"},"district":{"key":"08116","name":"Esslingen","type":"Landkreis"},"federalState":{"key":"08","name":"Baden-Württemberg"}},{"name":"Fröbelstr.","postalCode":"72636","locality":"Frickenhausen","municipality":{"key":"08116020","name":"Frickenhausen","type":"Kreisangehörige_Gemeinde"},"district":{"key":"08116","name":"Esslingen","type":"Landkreis"},"federalState":{"key":"08","name":"Baden-Württemberg"}},{"name":"Gaiernweg","postalCode":"72636","locality":"Frickenhausen","municipality":{"key":"08116020","name":"Frickenhausen","type":"Kreisangehörige_Gemeinde"},"district":{"key":"08116","name":"Esslingen","type":"Landkreis"},"federalState":{"key":"08","name":"Baden-Württemberg"}},{"name":"Gartenstr.","postalCode":"72636","locality":"Frickenhausen","municipality":{"key":"08116020","name":"Frickenhausen","type":"Kreisangehörige_Gemeinde"},"district":{"key":"08116","name":"Esslingen","type":"Landkreis"},"federalState":{"key":"08","name":"Baden-Württemberg"}},{"name":"Geheusteige","postalCode":"97252","locality":"Frickenhausen a.Main","municipality":{"key":"09679131","name":"Frickenhausen a.Main, M","type":"Markt"},"district":{"key":"09679","name":"Würzburg","type":"Landkreis"},"federalState":{"key":"09","name":"Bayern"}},{"name":"Goethestr.","postalCode":"72636","locality":"Frickenhausen","municipality":{"key":"08116020","name":"Frickenhausen","type":"Kreisangehörige_Gemeinde"},"district":{"key":"08116","name":"Esslingen","type":"Landkreis"},"federalState":{"key":"08","name":"Baden-Württemberg"}},{"name":"Grafenberger Str.","postalCode":"72636","locality":"Frickenhausen","municipality":{"key":"08116020","name":"Frickenhausen","type":"Kreisangehörige_Gemeinde"},"district":{"key":"08116","name":"Esslingen","type":"Landkreis"},"federalState":{"key":"08","name":"Baden-Württemberg"}},{"name":"Grünewaldstr.","postalCode":"72636","locality":"Frickenhausen","municipality":{"key":"08116020","name":"Frickenhausen","type":"Kreisangehörige_Gemeinde"},"district":{"key":"08116","name":"Esslingen","type":"Landkreis"},"federalState":{"key":"08","name":"Baden-Württemberg"}},{"name":"Gustav-Werner-Str.","postalCode":"72636","locality":"Frickenhausen","municipality":{"key":"08116020","name":"Frickenhausen","type":"Kreisangehörige_Gemeinde"},"district":{"key":"08116","name":"Esslingen","type":"Landkreis"},"federalState":{"key":"08","name":"Baden-Württemberg"}},{"name":"Gutenbergstr.","postalCode":"72636","locality":"Frickenhausen","municipality":{"key":"08116020","name":"Frickenhausen","type":"Kreisangehörige_Gemeinde"},"district":{"key":"08116","name":"Esslingen","type":"Landkreis"},"federalState":{"key":"08","name":"Baden-Württemberg"}},{"name":"Hahnsteig","postalCode":"97252","locality":"Frickenhausen a.Main","municipality":{"key":"09679131","name":"Frickenhausen a.Main, M","type":"Markt"},"district":{"key":"09679","name":"Würzburg","type":"Landkreis"},"federalState":{"key":"09","name":"Bayern"}},{"name":"Haldenstr.","postalCode":"72636","locality":"Frickenhausen","municipality":{"key":"08116020","name":"Frickenhausen","type":"Kreisangehörige_Gemeinde"},"district":{"key":"08116","name":"Esslingen","type":"Landkreis"},"federalState":{"key":"08","name":"Baden-Württemberg"}},{"name":"Händelstr.","postalCode":"72636","locality":"Frickenhausen","municipality":{"key":"08116020","name":"Frickenhausen","type":"Kreisangehörige_Gemeinde"},"district":{"key":"08116","name":"Esslingen","type":"Landkreis"},"federalState":{"key":"08","name":"Baden-Württemberg"}},{"name":"Hardtweg","postalCode":"72636","locality":"Frickenhausen","municipality":{"key":"08116020","name":"Frickenhausen","type":"Kreisangehörige_Gemeinde"},"district":{"key":"08116","name":"Esslingen","type":"Landkreis"},"federalState":{"key":"08","name":"Baden-Württemberg"}},{"name":"Hartliebstr.","postalCode":"72636","locality":"Frickenhausen","municipality":{"key":"08116020","name":"Frickenhausen","type":"Kreisangehörige_Gemeinde"},"district":{"key":"08116","name":"Esslingen","type":"Landkreis"},"federalState":{"key":"08","name":"Baden-Württemberg"}},{"name":"Hauffstr.","postalCode":"72636","locality":"Frickenhausen","municipality":{"key":"08116020","name":"Frickenhausen","type":"Kreisangehörige_Gemeinde"},"district":{"key":"08116","name":"Esslingen","type":"Landkreis"},"federalState":{"key":"08","name":"Baden-Württemberg"}},{"name":"Hauptstr.","postalCode":"72636","locality":"Frickenhausen","municipality":{"key":"08116020","name":"Frickenhausen","type":"Kreisangehörige_Gemeinde"},"district":{"key":"08116","name":"Esslingen","type":"Landkreis"},"federalState":{"key":"08","name":"Baden-Württemberg"}},{"name":"Hauptstr.","postalCode":"97252","locality":"Frickenhausen a.Main","municipality":{"key":"09679131","name":"Frickenhausen a.Main, M","type":"Markt"},"district":{"key":"09679","name":"Würzburg","type":"Landkreis"},"federalState":{"key":"09","name":"Bayern"}},{"name":"Haydnhof","postalCode":"72636","locality":"Frickenhausen","municipality":{"key":"08116020","name":"Frickenhausen","type":"Kreisangehörige_Gemeinde"},"district":{"key":"08116","name":"Esslingen","type":"Landkreis"},"federalState":{"key":"08","name":"Baden-Württemberg"}},{"name":"Hegelstr.","postalCode":"72636","locality":"Frickenhausen","municipality":{"key":"08116020","name":"Frickenhausen","type":"Kreisangehörige_Gemeinde"},"district":{"key":"08116","name":"Esslingen","type":"Landkreis"},"federalState":{"key":"08","name":"Baden-Württemberg"}},{"name":"Herrschaftsweg","postalCode":"72636","locality":"Frickenhausen","municipality":{"key":"08116020","name":"Frickenhausen","type":"Kreisangehörige_Gemeinde"},"district":{"key":"08116","name":"Esslingen","type":"Landkreis"},"federalState":{"key":"08","name":"Baden-Württemberg"}},{"name":"Hinter den Höfen","postalCode":"72636","locality":"Frickenhausen","municipality":{"key":"08116020","name":"Frickenhausen","type":"Kreisangehörige_Gemeinde"},"district":{"key":"08116","name":"Esslingen","type":"Landkreis"},"federalState":{"key":"08","name":"Baden-Württemberg"}},{"name":"Hintere Weinberghalde","postalCode":"72636","locality":"Frickenhausen","municipality":{"key":"08116020","name":"Frickenhausen","type":"Kreisangehörige_Gemeinde"},"district":{"key":"08116","name":"Esslingen","type":"Landkreis"},"federalState":{"key":"08","name":"Baden-Württemberg"}},{"name":"Hirschplanweg","postalCode":"72636","locality":"Frickenhausen","municipality":{"key":"08116020","name":"Frickenhausen","type":"Kreisangehörige_Gemeinde"},"district":{"key":"08116","name":"Esslingen","type":"Landkreis"},"federalState":{"key":"08","name":"Baden-Württemberg"}},{"name":"Hohenstaufenstr.","postalCode":"72636","locality":"Frickenhausen","municipality":{"key":"08116020","name":"Frickenhausen","type":"Kreisangehörige_Gemeinde"},"district":{"key":"08116","name":"Esslingen","type":"Landkreis"},"federalState":{"key":"08","name":"Baden-Württemberg"}},{"name":"Hohenzollernstr.","postalCode":"72636","locality":"Frickenhausen","municipality":{"key":"08116020","name":"Frickenhausen","type":"Kreisangehörige_Gemeinde"},"district":{"key":"08116","name":"Esslingen","type":"Landkreis"},"federalState":{"key":"08","name":"Baden-Württemberg"}},{"name":"Hölderlinstr.","postalCode":"72636","locality":"Frickenhausen","municipality":{"key":"08116020","name":"Frickenhausen","type":"Kreisangehörige_Gemeinde"},"district":{"key":"08116","name":"Esslingen","type":"Landkreis"},"federalState":{"key":"08","name":"Baden-Württemberg"}},{"name":"Hölzlachstr.","postalCode":"72636","locality":"Frickenhausen","municipality":{"key":"08116020","name":"Frickenhausen","type":"Kreisangehörige_Gemeinde"},"district":{"key":"08116","name":"Esslingen","type":"Landkreis"},"federalState":{"key":"08","name":"Baden-Württemberg"}},{"name":"Hornbergstr.","postalCode":"72636","locality":"Frickenhausen","municipality":{"key":"08116020","name":"Frickenhausen","type":"Kreisangehörige_Gemeinde"},"district":{"key":"08116","name":"Esslingen","type":"Landkreis"},"federalState":{"key":"08","name":"Baden-Württemberg"}},{"name":"Hörnlestr.","postalCode":"72636","locality":"Frickenhausen","municipality":{"key":"08116020","name":"Frickenhausen","type":"Kreisangehörige_Gemeinde"},"district":{"key":"08116","name":"Esslingen","type":"Landkreis"},"federalState":{"key":"08","name":"Baden-Württemberg"}},{"name":"Humboldtstr.","postalCode":"72636","locality":"Frickenhausen","municipality":{"key":"08116020","name":"Frickenhausen","type":"Kreisangehörige_Gemeinde"},"district":{"key":"08116","name":"Esslingen","type":"Landkreis"},"federalState":{"key":"08","name":"Baden-Württemberg"}},{"name":"Im Dorf","postalCode":"72636","locality":"Frickenhausen","municipality":{"key":"08116020","name":"Frickenhausen","type":"Kreisangehörige_Gemeinde"},"district":{"key":"08116","name":"Esslingen","type":"Landkreis"},"federalState":{"key":"08","name":"Baden-Württemberg"}},{"name":"Im Gässle","postalCode":"72636","locality":"Frickenhausen","municipality":{"key":"08116020","name":"Frickenhausen","type":"Kreisangehörige_Gemeinde"},"district":{"key":"08116","name":"Esslingen","type":"Landkreis"},"federalState":{"key":"08","name":"Baden-Württemberg"}},{"name":"Im Geiselrain","postalCode":"72636","locality":"Frickenhausen","municipality":{"key":"08116020","name":"Frickenhausen","type":"Kreisangehörige_Gemeinde"},"district":{"key":"08116","name":"Esslingen","type":"Landkreis"},"federalState":{"key":"08","name":"Baden-Württemberg"}},{"name":"Im Käppele","postalCode":"72636","locality":"Frickenhausen","municipality":{"key":"08116020","name":"Frickenhausen","type":"Kreisangehörige_Gemeinde"},"district":{"key":"08116","name":"Esslingen","type":"Landkreis"},"federalState":{"key":"08","name":"Baden-Württemberg"}},{"name":"Im Öschle","postalCode":"72636","locality":"Frickenhausen","municipality":{"key":"08116020","name":"Frickenhausen","type":"Kreisangehörige_Gemeinde"},"district":{"key":"08116","name":"Esslingen","type":"Landkreis"},"federalState":{"key":"08","name":"Baden-Württemberg"}},{"name":"Im Sand","postalCode":"72636","locality":"Frickenhausen","municipality":{"key":"08116020","name":"Frickenhausen","type":"Kreisangehörige_Gemeinde"},"district":{"key":"08116","name":"Esslingen","type":"Landkreis"},"federalState":{"key":"08","name":"Baden-Württemberg"}},{"name":"Im Schlat","postalCode":"72636","locality":"Frickenhausen","municipality":{"key":"08116020","name":"Frickenhausen","type":"Kreisangehörige_Gemeinde"},"district":{"key":"08116","name":"Esslingen","type":"Landkreis"},"federalState":{"key":"08","name":"Baden-Württemberg"}},{"name":"Im Winkel","postalCode":"72636","locality":"Frickenhausen","municipality":{"key":"08116020","name":"Frickenhausen","type":"Kreisangehörige_Gemeinde"},"district":{"key":"08116","name":"Esslingen","type":"Landkreis"},"federalState":{"key":"08","name":"Baden-Württemberg"}},{"name":"In den Gernäckern","postalCode":"72636","locality":"Frickenhausen","municipality":{"key":"08116020","name":"Frickenhausen","type":"Kreisangehörige_Gemeinde"},"district":{"key":"08116","name":"Esslingen","type":"Landkreis"},"federalState":{"key":"08","name":"Baden-Württemberg"}},{"name":"In den Hartwiesen","postalCode":"72636","locality":"Frickenhausen","municipality":{"key":"08116020","name":"Frickenhausen","type":"Kreisangehörige_Gemeinde"},"district":{"key":"08116","name":"Esslingen","type":"Landkreis"},"federalState":{"key":"08","name":"Baden-Württemberg"}},{"name":"In der Bitze","postalCode":"72636","locality":"Frickenhausen","municipality":{"key":"08116020","name":"Frickenhausen","type":"Kreisangehörige_Gemeinde"},"district":{"key":"08116","name":"Esslingen","type":"Landkreis"},"federalState":{"key":"08","name":"Baden-Württemberg"}},{"name":"In der Schweiz","postalCode":"72636","locality":"Frickenhausen","municipality":{"key":"08116020","name":"Frickenhausen","type":"Kreisangehörige_Gemeinde"},"district":{"key":"08116","name":"Esslingen","type":"Landkreis"},"federalState":{"key":"08","name":"Baden-Württemberg"}},{"name":"Jahnstr.","postalCode":"72636","locality":"Frickenhausen","municipality":{"key":"08116020","name":"Frickenhausen","type":"Kreisangehörige_Gemeinde"},"district":{"key":"08116","name":"Esslingen","type":"Landkreis"},"federalState":{"key":"08","name":"Baden-Württemberg"}},{"name":"Johann-Strauß-Str.","postalCode":"72636","locality":"Frickenhausen","municipality":{"key":"08116020","name":"Frickenhausen","type":"Kreisangehörige_Gemeinde"},"district":{"key":"08116","name":"Esslingen","type":"Landkreis"},"federalState":{"key":"08","name":"Baden-Württemberg"}},{"name":"Jusistr.","postalCode":"72636","locality":"Frickenhausen","municipality":{"key":"08116020","name":"Frickenhausen","type":"Kreisangehörige_Gemeinde"},"district":{"key":"08116","name":"Esslingen","type":"Landkreis"},"federalState":{"key":"08","name":"Baden-Württemberg"}},{"name":"Kaibachstr.","postalCode":"72636","locality":"Frickenhausen","municipality":{"key":"08116020","name":"Frickenhausen","type":"Kreisangehörige_Gemeinde"},"district":{"key":"08116","name":"Esslingen","type":"Landkreis"},"federalState":{"key":"08","name":"Baden-Württemberg"}},{"name":"Kantstr.","postalCode":"72636","locality":"Frickenhausen","municipality":{"key":"08116020","name":"Frickenhausen","type":"Kreisangehörige_Gemeinde"},"district":{"key":"08116","name":"Esslingen","type":"Landkreis"},"federalState":{"key":"08","name":"Baden-Württemberg"}},{"name":"Kapellensteige","postalCode":"97252","locality":"Frickenhausen a.Main","municipality":{"key":"09679131","name":"Frickenhausen a.Main, M","type":"Markt"},"district":{"key":"09679","name":"Würzburg","type":"Landkreis"},"federalState":{"key":"09","name":"Bayern"}},{"name":"Kelterstr.","postalCode":"72636","locality":"Frickenhausen","municipality":{"key":"08116020","name":"Frickenhausen","type":"Kreisangehörige_Gemeinde"},"district":{"key":"08116","name":"Esslingen","type":"Landkreis"},"federalState":{"key":"08","name":"Baden-Württemberg"}},{"name":"Keplerstr.","postalCode":"72636","locality":"Frickenhausen","municipality":{"key":"08116020","name":"Frickenhausen","type":"Kreisangehörige_Gemeinde"},"district":{"key":"08116","name":"Esslingen","type":"Landkreis"},"federalState":{"key":"08","name":"Baden-Württemberg"}},{"name":"Kettelerstr.","postalCode":"72636","locality":"Frickenhausen","municipality":{"key":"08116020","name":"Frickenhausen","type":"Kreisangehörige_Gemeinde"},"district":{"key":"08116","name":"Esslingen","type":"Landkreis"},"federalState":{"key":"08","name":"Baden-Württemberg"}},{"name":"Kirchertstr.","postalCode":"72636","locality":"Frickenhausen","municipality":{"key":"08116020","name":"Frickenhausen","type":"Kreisangehörige_Gemeinde"},"district":{"key":"08116","name":"Esslingen","type":"Landkreis"},"federalState":{"key":"08","name":"Baden-Württemberg"}},{"name":"Kirchstr.","postalCode":"72636","locality":"Frickenhausen","municipality":{"key":"08116020","name":"Frickenhausen","type":"Kreisangehörige_Gemeinde"},"district":{"key":"08116","name":"Esslingen","type":"Landkreis"},"federalState":{"key":"08","name":"Baden-Württemberg"}},{"name":"Kohlberger Str.","postalCode":"72636","locality":"Frickenhausen","municipality":{"key":"08116020","name":"Frickenhausen","type":"Kreisangehörige_Gemeinde"},"district":{"key":"08116","name":"Esslingen","type":"Landkreis"},"federalState":{"key":"08","name":"Baden-Württemberg"}},{"name":"Kollwitzstr.","postalCode":"72636","locality":"Frickenhausen","municipality":{"key":"08116020","name":"Frickenhausen","type":"Kreisangehörige_Gemeinde"},"district":{"key":"08116","name":"Esslingen","type":"Landkreis"},"federalState":{"key":"08","name":"Baden-Württemberg"}},{"name":"Kolpingstr.","postalCode":"72636","locality":"Frickenhausen","municipality":{"key":"08116020","name":"Frickenhausen","type":"Kreisangehörige_Gemeinde"},"district":{"key":"08116","name":"Esslingen","type":"Landkreis"},"federalState":{"key":"08","name":"Baden-Württemberg"}},{"name":"Körnerstr.","postalCode":"72636","locality":"Frickenhausen","municipality":{"key":"08116020","name":"Frickenhausen","type":"Kreisangehörige_Gemeinde"},"district":{"key":"08116","name":"Esslingen","type":"Landkreis"},"federalState":{"key":"08","name":"Baden-Württemberg"}},{"name":"Krautgartenstr.","postalCode":"72636","locality":"Frickenhausen","municipality":{"key":"08116020","name":"Frickenhausen","type":"Kreisangehörige_Gemeinde"},"district":{"key":"08116","name":"Esslingen","type":"Landkreis"},"federalState":{"key":"08","name":"Baden-Württemberg"}},{"name":"Kreuzgässle","postalCode":"72636","locality":"Frickenhausen","municipality":{"key":"08116020","name":"Frickenhausen","type":"Kreisangehörige_Gemeinde"},"district":{"key":"08116","name":"Esslingen","type":"Landkreis"},"federalState":{"key":"08","name":"Baden-Württemberg"}},{"name":"Krummachweg","postalCode":"72636","locality":"Frickenhausen","municipality":{"key":"08116020","name":"Frickenhausen","type":"Kreisangehörige_Gemeinde"},"district":{"key":"08116","name":"Esslingen","type":"Landkreis"},"federalState":{"key":"08","name":"Baden-Württemberg"}},{"name":"Kruppstr.","postalCode":"72636","locality":"Frickenhausen","municipality":{"key":"08116020","name":"Frickenhausen","type":"Kreisangehörige_Gemeinde"},"district":{"key":"08116","name":"Esslingen","type":"Landkreis"},"federalState":{"key":"08","name":"Baden-Württemberg"}},{"name":"Kurze Str.","postalCode":"72636","locality":"Frickenhausen","municipality":{"key":"08116020","name":"Frickenhausen","type":"Kreisangehörige_Gemeinde"},"district":{"key":"08116","name":"Esslingen","type":"Landkreis"},"federalState":{"key":"08","name":"Baden-Württemberg"}},{"name":"Kürzeweg","postalCode":"72636","locality":"Frickenhausen","municipality":{"key":"08116020","name":"Frickenhausen","type":"Kreisangehörige_Gemeinde"},"district":{"key":"08116","name":"Esslingen","type":"Landkreis"},"federalState":{"key":"08","name":"Baden-Württemberg"}},{"name":"Lauterstr.","postalCode":"72636","locality":"Frickenhausen","municipality":{"key":"08116020","name":"Frickenhausen","type":"Kreisangehörige_Gemeinde"},"district":{"key":"08116","name":"Esslingen","type":"Landkreis"},"federalState":{"key":"08","name":"Baden-Württemberg"}},{"name":"Leibnizstr.","postalCode":"72636","locality":"Frickenhausen","municipality":{"key":"08116020","name":"Frickenhausen","type":"Kreisangehörige_Gemeinde"},"district":{"key":"08116","name":"Esslingen","type":"Landkreis"},"federalState":{"key":"08","name":"Baden-Württemberg"}},{"name":"Lembergstr.","postalCode":"72636","locality":"Frickenhausen","municipality":{"key":"08116020","name":"Frickenhausen","type":"Kreisangehörige_Gemeinde"},"district":{"key":"08116","name":"Esslingen","type":"Landkreis"},"federalState":{"key":"08","name":"Baden-Württemberg"}},{"name":"Lengertstr.","postalCode":"72636","locality":"Frickenhausen","municipality":{"key":"08116020","name":"Frickenhausen","type":"Kreisangehörige_Gemeinde"},"district":{"key":"08116","name":"Esslingen","type":"Landkreis"},"federalState":{"key":"08","name":"Baden-Württemberg"}},{"name":"Lerchenstr.","postalCode":"72636","locality":"Frickenhausen","municipality":{"key":"08116020","name":"Frickenhausen","type":"Kreisangehörige_Gemeinde"},"district":{"key":"08116","name":"Esslingen","type":"Landkreis"},"federalState":{"key":"08","name":"Baden-Württemberg"}},{"name":"Lessingstr.","postalCode":"72636","locality":"Frickenhausen","municipality":{"key":"08116020","name":"Frickenhausen","type":"Kreisangehörige_Gemeinde"},"district":{"key":"08116","name":"Esslingen","type":"Landkreis"},"federalState":{"key":"08","name":"Baden-Württemberg"}},{"name":"Lichtensteinstr.","postalCode":"72636","locality":"Frickenhausen","municipality":{"key":"08116020","name":"Frickenhausen","type":"Kreisangehörige_Gemeinde"},"district":{"key":"08116","name":"Esslingen","type":"Landkreis"},"federalState":{"key":"08","name":"Baden-Württemberg"}},{"name":"Liebigstr.","postalCode":"72636","locality":"Frickenhausen","municipality":{"key":"08116020","name":"Frickenhausen","type":"Kreisangehörige_Gemeinde"},"district":{"key":"08116","name":"Esslingen","type":"Landkreis"},"federalState":{"key":"08","name":"Baden-Württemberg"}},{"name":"Lilienthalstr.","postalCode":"72636","locality":"Frickenhausen","municipality":{"key":"08116020","name":"Frickenhausen","type":"Kreisangehörige_Gemeinde"},"district":{"key":"08116","name":"Esslingen","type":"Landkreis"},"federalState":{"key":"08","name":"Baden-Württemberg"}},{"name":"Lindenstr.","postalCode":"72636","locality":"Frickenhausen","municipality":{"key":"08116020","name":"Frickenhausen","type":"Kreisangehörige_Gemeinde"},"district":{"key":"08116","name":"Esslingen","type":"Landkreis"},"federalState":{"key":"08","name":"Baden-Württemberg"}},{"name":"Liststr.","postalCode":"72636","locality":"Frickenhausen","municipality":{"key":"08116020","name":"Frickenhausen","type":"Kreisangehörige_Gemeinde"},"district":{"key":"08116","name":"Esslingen","type":"Landkreis"},"federalState":{"key":"08","name":"Baden-Württemberg"}},{"name":"Maingasse","postalCode":"97252","locality":"Frickenhausen a.Main","municipality":{"key":"09679131","name":"Frickenhausen a.Main, M","type":"Markt"},"district":{"key":"09679","name":"Würzburg","type":"Landkreis"},"federalState":{"key":"09","name":"Bayern"}},{"name":"Marktbreiter Str.","postalCode":"97252","locality":"Frickenhausen a.Main","municipality":{"key":"09679131","name":"Frickenhausen a.Main, M","type":"Markt"},"district":{"key":"09679","name":"Würzburg","type":"Landkreis"},"federalState":{"key":"09","name":"Bayern"}},{"name":"Martin-Luther-Str.","postalCode":"72636","locality":"Frickenhausen","municipality":{"key":"08116020","name":"Frickenhausen","type":"Kreisangehörige_Gemeinde"},"district":{"key":"08116","name":"Esslingen","type":"Landkreis"},"federalState":{"key":"08","name":"Baden-Württemberg"}},{"name":"Max-Eyth-Str.","postalCode":"72636","locality":"Frickenhausen","municipality":{"key":"08116020","name":"Frickenhausen","type":"Kreisangehörige_Gemeinde"},"district":{"key":"08116","name":"Esslingen","type":"Landkreis"},"federalState":{"key":"08","name":"Baden-Württemberg"}},{"name":"Max-Planck-Str.","postalCode":"72636","locality":"Frickenhausen","municipality":{"key":"08116020","name":"Frickenhausen","type":"Kreisangehörige_Gemeinde"},"district":{"key":"08116","name":"Esslingen","type":"Landkreis"},"federalState":{"key":"08","name":"Baden-Württemberg"}},{"name":"Max-Reger-Str.","postalCode":"72636","locality":"Frickenhausen","municipality":{"key":"08116020","name":"Frickenhausen","type":"Kreisangehörige_Gemeinde"},"district":{"key":"08116","name":"Esslingen","type":"Landkreis"},"federalState":{"key":"08","name":"Baden-Württemberg"}},{"name":"Maybachstr.","postalCode":"72636","locality":"Frickenhausen","municipality":{"key":"08116020","name":"Frickenhausen","type":"Kreisangehörige_Gemeinde"},"district":{"key":"08116","name":"Esslingen","type":"Landkreis"},"federalState":{"key":"08","name":"Baden-Württemberg"}},{"name":"Melchiorstr.","postalCode":"72636","locality":"Frickenhausen","municipality":{"key":"08116020","name":"Frickenhausen","type":"Kreisangehörige_Gemeinde"},"district":{"key":"08116","name":"Esslingen","type":"Landkreis"},"federalState":{"key":"08","name":"Baden-Württemberg"}},{"name":"Menzelweg","postalCode":"72636","locality":"Frickenhausen","municipality":{"key":"08116020","name":"Frickenhausen","type":"Kreisangehörige_Gemeinde"},"district":{"key":"08116","name":"Esslingen","type":"Landkreis"},"federalState":{"key":"08","name":"Baden-Württemberg"}},{"name":"Mittlere Str.","postalCode":"72636","locality":"Frickenhausen","municipality":{"key":"08116020","name":"Frickenhausen","type":"Kreisangehörige_Gemeinde"},"district":{"key":"08116","name":"Esslingen","type":"Landkreis"},"federalState":{"key":"08","name":"Baden-Württemberg"}},{"name":"Moltkestr.","postalCode":"72636","locality":"Frickenhausen","municipality":{"key":"08116020","name":"Frickenhausen","type":"Kreisangehörige_Gemeinde"},"district":{"key":"08116","name":"Esslingen","type":"Landkreis"},"federalState":{"key":"08","name":"Baden-Württemberg"}},{"name":"Mönchshofweg","postalCode":"97252","locality":"Frickenhausen a.Main","municipality":{"key":"09679131","name":"Frickenhausen a.Main, M","type":"Markt"},"district":{"key":"09679","name":"Würzburg","type":"Landkreis"},"federalState":{"key":"09","name":"Bayern"}},{"name":"Mörikestr.","postalCode":"72636","locality":"Frickenhausen","municipality":{"key":"08116020","name":"Frickenhausen","type":"Kreisangehörige_Gemeinde"},"district":{"key":"08116","name":"Esslingen","type":"Landkreis"},"federalState":{"key":"08","name":"Baden-Württemberg"}},{"name":"Mozartstr.","postalCode":"72636","locality":"Frickenhausen","municipality":{"key":"08116020","name":"Frickenhausen","type":"Kreisangehörige_Gemeinde"},"district":{"key":"08116","name":"Esslingen","type":"Landkreis"},"federalState":{"key":"08","name":"Baden-Württemberg"}},{"name":"Mühlgasse","postalCode":"97252","locality":"Frickenhausen a.Main","municipality":{"key":"09679131","name":"Frickenhausen a.Main, M","type":"Markt"},"district":{"key":"09679","name":"Würzburg","type":"Landkreis"},"federalState":{"key":"09","name":"Bayern"}},{"name":"Mühlhaldenweg","postalCode":"72636","locality":"Frickenhausen","municipality":{"key":"08116020","name":"Frickenhausen","type":"Kreisangehörige_Gemeinde"},"district":{"key":"08116","name":"Esslingen","type":"Landkreis"},"federalState":{"key":"08","name":"Baden-Württemberg"}},{"name":"Mühlstr.","postalCode":"72636","locality":"Frickenhausen","municipality":{"key":"08116020","name":"Frickenhausen","type":"Kreisangehörige_Gemeinde"},"district":{"key":"08116","name":"Esslingen","type":"Landkreis"},"federalState":{"key":"08","name":"Baden-Württemberg"}},{"name":"Mühltobelstr.","postalCode":"72636","locality":"Frickenhausen","municipality":{"key":"08116020","name":"Frickenhausen","type":"Kreisangehörige_Gemeinde"},"district":{"key":"08116","name":"Esslingen","type":"Landkreis"},"federalState":{"key":"08","name":"Baden-Württemberg"}},{"name":"Nelkenweg","postalCode":"72636","locality":"Frickenhausen","municipality":{"key":"08116020","name":"Frickenhausen","type":"Kreisangehörige_Gemeinde"},"district":{"key":"08116","name":"Esslingen","type":"Landkreis"},"federalState":{"key":"08","name":"Baden-Württemberg"}},{"name":"Neuffener Str.","postalCode":"72636","locality":"Frickenhausen","municipality":{"key":"08116020","name":"Frickenhausen","type":"Kreisangehörige_Gemeinde"},"district":{"key":"08116","name":"Esslingen","type":"Landkreis"},"federalState":{"key":"08","name":"Baden-Württemberg"}},{"name":"Nürtinger Str.","postalCode":"72636","locality":"Frickenhausen","municipality":{"key":"08116020","name":"Frickenhausen","type":"Kreisangehörige_Gemeinde"},"district":{"key":"08116","name":"Esslingen","type":"Landkreis"},"federalState":{"key":"08","name":"Baden-Württemberg"}},{"name":"Obere Str.","postalCode":"72636","locality":"Frickenhausen","municipality":{"key":"08116020","name":"Frickenhausen","type":"Kreisangehörige_Gemeinde"},"district":{"key":"08116","name":"Esslingen","type":"Landkreis"},"federalState":{"key":"08","name":"Baden-Württemberg"}},{"name":"Ochsenfurter Str.","postalCode":"97252","locality":"Frickenhausen a.Main","municipality":{"key":"09679131","name":"Frickenhausen a.Main, M","type":"Markt"},"district":{"key":"09679","name":"Würzburg","type":"Landkreis"},"federalState":{"key":"09","name":"Bayern"}},{"name":"Patrizierplatz","postalCode":"97252","locality":"Frickenhausen a.Main","municipality":{"key":"09679131","name":"Frickenhausen a.Main, M","type":"Markt"},"district":{"key":"09679","name":"Würzburg","type":"Landkreis"},"federalState":{"key":"09","name":"Bayern"}},{"name":"Paul-Gerhardt-Str.","postalCode":"72636","locality":"Frickenhausen","municipality":{"key":"08116020","name":"Frickenhausen","type":"Kreisangehörige_Gemeinde"},"district":{"key":"08116","name":"Esslingen","type":"Landkreis"},"federalState":{"key":"08","name":"Baden-Württemberg"}},{"name":"Pfarrgasse","postalCode":"72636","locality":"Frickenhausen","municipality":{"key":"08116020","name":"Frickenhausen","type":"Kreisangehörige_Gemeinde"},"district":{"key":"08116","name":"Esslingen","type":"Landkreis"},"federalState":{"key":"08","name":"Baden-Württemberg"}},{"name":"Quittenweg","postalCode":"73733","locality":"Esslingen am Neckar","municipality":{"key":"08116019","name":"Esslingen am Neckar, Stadt","type":"Große_Kreisstadt"},"district":{"key":"08116","name":"Esslingen","type":"Landkreis"},"federalState":{"key":"08","name":"Baden-Württemberg"}},{"name":"Raiffeisenstr.","postalCode":"72636","locality":"Frickenhausen","municipality":{"key":"08116020","name":"Frickenhausen","type":"Kreisangehörige_Gemeinde"},"district":{"key":"08116","name":"Esslingen","type":"Landkreis"},"federalState":{"key":"08","name":"Baden-Württemberg"}},{"name":"Rathausstr.","postalCode":"72636","locality":"Frickenhausen","municipality":{"key":"08116020","name":"Frickenhausen","type":"Kreisangehörige_Gemeinde"},"district":{"key":"08116","name":"Esslingen","type":"Landkreis"},"federalState":{"key":"08","name":"Baden-Württemberg"}},{"name":"Rechbergstr.","postalCode":"72636","locality":"Frickenhausen","municipality":{"key":"08116020","name":"Frickenhausen","type":"Kreisangehörige_Gemeinde"},"district":{"key":"08116","name":"Esslingen","type":"Landkreis"},"federalState":{"key":"08","name":"Baden-Württemberg"}},{"name":"Reußensteinstr.","postalCode":"72636","locality":"Frickenhausen","municipality":{"key":"08116020","name":"Frickenhausen","type":"Kreisangehörige_Gemeinde"},"district":{"key":"08116","name":"Esslingen","type":"Landkreis"},"federalState":{"key":"08","name":"Baden-Württemberg"}},{"name":"Richard-Wagner-Str.","postalCode":"72636","locality":"Frickenhausen","municipality":{"key":"08116020","name":"Frickenhausen","type":"Kreisangehörige_Gemeinde"},"district":{"key":"08116","name":"Esslingen","type":"Landkreis"},"federalState":{"key":"08","name":"Baden-Württemberg"}},{"name":"Richterstr.","postalCode":"72636","locality":"Frickenhausen","municipality":{"key":"08116020","name":"Frickenhausen","type":"Kreisangehörige_Gemeinde"},"district":{"key":"08116","name":"Esslingen","type":"Landkreis"},"federalState":{"key":"08","name":"Baden-Württemberg"}},{"name":"Robert-Bosch-Str.","postalCode":"72636","locality":"Frickenhausen","municipality":{"key":"08116020","name":"Frickenhausen","type":"Kreisangehörige_Gemeinde"},"district":{"key":"08116","name":"Esslingen","type":"Landkreis"},"federalState":{"key":"08","name":"Baden-Württemberg"}},{"name":"Robert-Koch-Str.","postalCode":"72636","locality":"Frickenhausen","municipality":{"key":"08116020","name":"Frickenhausen","type":"Kreisangehörige_Gemeinde"},"district":{"key":"08116","name":"Esslingen","type":"Landkreis"},"federalState":{"key":"08","name":"Baden-Württemberg"}},{"name":"Römersteinstr.","postalCode":"72636","locality":"Frickenhausen","municipality":{"key":"08116020","name":"Frickenhausen","type":"Kreisangehörige_Gemeinde"},"district":{"key":"08116","name":"Esslingen","type":"Landkreis"},"federalState":{"key":"08","name":"Baden-Württemberg"}},{"name":"Röntgenstr.","postalCode":"72636","locality":"Frickenhausen","municipality":{"key":"08116020","name":"Frickenhausen","type":"Kreisangehörige_Gemeinde"},"district":{"key":"08116","name":"Esslingen","type":"Landkreis"},"federalState":{"key":"08","name":"Baden-Württemberg"}},{"name":"Rosenstr.","postalCode":"72636","locality":"Frickenhausen","municipality":{"key":"08116020","name":"Frickenhausen","type":"Kreisangehörige_Gemeinde"},"district":{"key":"08116","name":"Esslingen","type":"Landkreis"},"federalState":{"key":"08","name":"Baden-Württemberg"}},{"name":"Roßbergstr.","postalCode":"72636","locality":"Frickenhausen","municipality":{"key":"08116020","name":"Frickenhausen","type":"Kreisangehörige_Gemeinde"},"district":{"key":"08116","name":"Esslingen","type":"Landkreis"},"federalState":{"key":"08","name":"Baden-Württemberg"}},{"name":"Sandsteige","postalCode":"97252","locality":"Frickenhausen a.Main","municipality":{"key":"09679131","name":"Frickenhausen a.Main, M","type":"Markt"},"district":{"key":"09679","name":"Würzburg","type":"Landkreis"},"federalState":{"key":"09","name":"Bayern"}},{"name":"Schellingstr.","postalCode":"72636","locality":"Frickenhausen","municipality":{"key":"08116020","name":"Frickenhausen","type":"Kreisangehörige_Gemeinde"},"district":{"key":"08116","name":"Esslingen","type":"Landkreis"},"federalState":{"key":"08","name":"Baden-Württemberg"}},{"name":"Schillerstr.","postalCode":"72636","locality":"Frickenhausen","municipality":{"key":"08116020","name":"Frickenhausen","type":"Kreisangehörige_Gemeinde"},"district":{"key":"08116","name":"Esslingen","type":"Landkreis"},"federalState":{"key":"08","name":"Baden-Württemberg"}},{"name":"Schlitzgernweg","postalCode":"72636","locality":"Frickenhausen","municipality":{"key":"08116020","name":"Frickenhausen","type":"Kreisangehörige_Gemeinde"},"district":{"key":"08116","name":"Esslingen","type":"Landkreis"},"federalState":{"key":"08","name":"Baden-Württemberg"}},{"name":"Schönnagelweg","postalCode":"72636","locality":"Frickenhausen","municipality":{"key":"08116020","name":"Frickenhausen","type":"Kreisangehörige_Gemeinde"},"district":{"key":"08116","name":"Esslingen","type":"Landkreis"},"federalState":{"key":"08","name":"Baden-Württemberg"}},{"name":"Schubertstr.","postalCode":"72636","locality":"Frickenhausen","municipality":{"key":"08116020","name":"Frickenhausen","type":"Kreisangehörige_Gemeinde"},"district":{"key":"08116","name":"Esslingen","type":"Landkreis"},"federalState":{"key":"08","name":"Baden-Württemberg"}},{"name":"Schulstr.","postalCode":"72636","locality":"Frickenhausen","municipality":{"key":"08116020","name":"Frickenhausen","type":"Kreisangehörige_Gemeinde"},"district":{"key":"08116","name":"Esslingen","type":"Landkreis"},"federalState":{"key":"08","name":"Baden-Württemberg"}},{"name":"Schumannhof","postalCode":"72636","locality":"Frickenhausen","municipality":{"key":"08116020","name":"Frickenhausen","type":"Kreisangehörige_Gemeinde"},"district":{"key":"08116","name":"Esslingen","type":"Landkreis"},"federalState":{"key":"08","name":"Baden-Württemberg"}},{"name":"Seeweide","postalCode":"72636","locality":"Frickenhausen","municipality":{"key":"08116020","name":"Frickenhausen","type":"Kreisangehörige_Gemeinde"},"district":{"key":"08116","name":"Esslingen","type":"Landkreis"},"federalState":{"key":"08","name":"Baden-Württemberg"}},{"name":"Segnitzer Str.","postalCode":"97252","locality":"Frickenhausen a.Main","municipality":{"key":"09679131","name":"Frickenhausen a.Main, M","type":"Markt"},"district":{"key":"09679","name":"Würzburg","type":"Landkreis"},"federalState":{"key":"09","name":"Bayern"}},{"name":"Siehdichfür","postalCode":"72636","locality":"Frickenhausen","municipality":{"key":"08116020","name":"Frickenhausen","type":"Kreisangehörige_Gemeinde"},"district":{"key":"08116","name":"Esslingen","type":"Landkreis"},"federalState":{"key":"08","name":"Baden-Württemberg"}},{"name":"Siemensstr.","postalCode":"72636","locality":"Frickenhausen","municipality":{"key":"08116020","name":"Frickenhausen","type":"Kreisangehörige_Gemeinde"},"district":{"key":"08116","name":"Esslingen","type":"Landkreis"},"federalState":{"key":"08","name":"Baden-Württemberg"}},{"name":"Silcherstr.","postalCode":"72636","locality":"Frickenhausen","municipality":{"key":"08116020","name":"Frickenhausen","type":"Kreisangehörige_Gemeinde"},"district":{"key":"08116","name":"Esslingen","type":"Landkreis"},"federalState":{"key":"08","name":"Baden-Württemberg"}},{"name":"Spitalgasse","postalCode":"97252","locality":"Frickenhausen a.Main","municipality":{"key":"09679131","name":"Frickenhausen a.Main, M","type":"Markt"},"district":{"key":"09679","name":"Würzburg","type":"Landkreis"},"federalState":{"key":"09","name":"Bayern"}},{"name":"Starenweg","postalCode":"72636","locality":"Frickenhausen","municipality":{"key":"08116020","name":"Frickenhausen","type":"Kreisangehörige_Gemeinde"},"district":{"key":"08116","name":"Esslingen","type":"Landkreis"},"federalState":{"key":"08","name":"Baden-Württemberg"}},{"name":"Steinachstr.","postalCode":"72636","locality":"Frickenhausen","municipality":{"key":"08116020","name":"Frickenhausen","type":"Kreisangehörige_Gemeinde"},"district":{"key":"08116","name":"Esslingen","type":"Landkreis"},"federalState":{"key":"08","name":"Baden-Württemberg"}},{"name":"Steinbachweg","postalCode":"97252","locality":"Frickenhausen a.Main","municipality":{"key":"09679131","name":"Frickenhausen a.Main, M","type":"Markt"},"district":{"key":"09679","name":"Würzburg","type":"Landkreis"},"federalState":{"key":"09","name":"Bayern"}},{"name":"Steinbeissstr.","postalCode":"72636","locality":"Frickenhausen","municipality":{"key":"08116020","name":"Frickenhausen","type":"Kreisangehörige_Gemeinde"},"district":{"key":"08116","name":"Esslingen","type":"Landkreis"},"federalState":{"key":"08","name":"Baden-Württemberg"}},{"name":"Steinhauergasse","postalCode":"97252","locality":"Frickenhausen a.Main","municipality":{"key":"09679131","name":"Frickenhausen a.Main, M","type":"Markt"},"district":{"key":"09679","name":"Würzburg","type":"Landkreis"},"federalState":{"key":"09","name":"Bayern"}},{"name":"Sternbergstr.","postalCode":"72636","locality":"Frickenhausen","municipality":{"key":"08116020","name":"Frickenhausen","type":"Kreisangehörige_Gemeinde"},"district":{"key":"08116","name":"Esslingen","type":"Landkreis"},"federalState":{"key":"08","name":"Baden-Württemberg"}},{"name":"Sudetenstr.","postalCode":"72636","locality":"Frickenhausen","municipality":{"key":"08116020","name":"Frickenhausen","type":"Kreisangehörige_Gemeinde"},"district":{"key":"08116","name":"Esslingen","type":"Landkreis"},"federalState":{"key":"08","name":"Baden-Württemberg"}},{"name":"Sulzburgstr.","postalCode":"72636","locality":"Frickenhausen","municipality":{"key":"08116020","name":"Frickenhausen","type":"Kreisangehörige_Gemeinde"},"district":{"key":"08116","name":"Esslingen","type":"Landkreis"},"federalState":{"key":"08","name":"Baden-Württemberg"}},{"name":"Sulzweg","postalCode":"72636","locality":"Frickenhausen","municipality":{"key":"08116020","name":"Frickenhausen","type":"Kreisangehörige_Gemeinde"},"district":{"key":"08116","name":"Esslingen","type":"Landkreis"},"federalState":{"key":"08","name":"Baden-Württemberg"}},{"name":"Talstr.","postalCode":"72636","locality":"Frickenhausen","municipality":{"key":"08116020","name":"Frickenhausen","type":"Kreisangehörige_Gemeinde"},"district":{"key":"08116","name":"Esslingen","type":"Landkreis"},"federalState":{"key":"08","name":"Baden-Württemberg"}},{"name":"Teckstr.","postalCode":"72636","locality":"Frickenhausen","municipality":{"key":"08116020","name":"Frickenhausen","type":"Kreisangehörige_Gemeinde"},"district":{"key":"08116","name":"Esslingen","type":"Landkreis"},"federalState":{"key":"08","name":"Baden-Württemberg"}},{"name":"Theodor-Heuss-Str.","postalCode":"72636","locality":"Frickenhausen","municipality":{"key":"08116020","name":"Frickenhausen","type":"Kreisangehörige_Gemeinde"},"district":{"key":"08116","name":"Esslingen","type":"Landkreis"},"federalState":{"key":"08","name":"Baden-Württemberg"}},{"name":"Tischardter Str.","postalCode":"72636","locality":"Frickenhausen","municipality":{"key":"08116020","name":"Frickenhausen","type":"Kreisangehörige_Gemeinde"},"district":{"key":"08116","name":"Esslingen","type":"Landkreis"},"federalState":{"key":"08","name":"Baden-Württemberg"}},{"name":"Tischardterweg","postalCode":"72636","locality":"Frickenhausen","municipality":{"key":"08116020","name":"Frickenhausen","type":"Kreisangehörige_Gemeinde"},"district":{"key":"08116","name":"Esslingen","type":"Landkreis"},"federalState":{"key":"08","name":"Baden-Württemberg"}},{"name":"Traubenweg","postalCode":"72636","locality":"Frickenhausen","municipality":{"key":"08116020","name":"Frickenhausen","type":"Kreisangehörige_Gemeinde"},"district":{"key":"08116","name":"Esslingen","type":"Landkreis"},"federalState":{"key":"08","name":"Baden-Württemberg"}},{"name":"Tulpenweg","postalCode":"72636","locality":"Frickenhausen","municipality":{"key":"08116020","name":"Frickenhausen","type":"Kreisangehörige_Gemeinde"},"district":{"key":"08116","name":"Esslingen","type":"Landkreis"},"federalState":{"key":"08","name":"Baden-Württemberg"}},{"name":"Uhlandstr.","postalCode":"72636","locality":"Frickenhausen","municipality":{"key":"08116020","name":"Frickenhausen","type":"Kreisangehörige_Gemeinde"},"district":{"key":"08116","name":"Esslingen","type":"Landkreis"},"federalState":{"key":"08","name":"Baden-Württemberg"}},{"name":"Untere Str.","postalCode":"72636","locality":"Frickenhausen","municipality":{"key":"08116020","name":"Frickenhausen","type":"Kreisangehörige_Gemeinde"},"district":{"key":"08116","name":"Esslingen","type":"Landkreis"},"federalState":{"key":"08","name":"Baden-Württemberg"}},{"name":"Uppentalstr.","postalCode":"97252","locality":"Frickenhausen a.Main","municipality":{"key":"09679131","name":"Frickenhausen a.Main, M","type":"Markt"},"district":{"key":"09679","name":"Würzburg","type":"Landkreis"},"federalState":{"key":"09","name":"Bayern"}},{"name":"Urbanstr.","postalCode":"72636","locality":"Frickenhausen","municipality":{"key":"08116020","name":"Frickenhausen","type":"Kreisangehörige_Gemeinde"},"district":{"key":"08116","name":"Esslingen","type":"Landkreis"},"federalState":{"key":"08","name":"Baden-Württemberg"}},{"name":"Valentin-Zang-Str.","postalCode":"97252","locality":"Frickenhausen a.Main","municipality":{"key":"09679131","name":"Frickenhausen a.Main, M","type":"Markt"},"district":{"key":"09679","name":"Würzburg","type":"Landkreis"},"federalState":{"key":"09","name":"Bayern"}},{"name":"Wasenstr.","postalCode":"72636","locality":"Frickenhausen","municipality":{"key":"08116020","name":"Frickenhausen","type":"Kreisangehörige_Gemeinde"},"district":{"key":"08116","name":"Esslingen","type":"Landkreis"},"federalState":{"key":"08","name":"Baden-Württemberg"}},{"name":"Weberhof","postalCode":"72636","locality":"Frickenhausen","municipality":{"key":"08116020","name":"Frickenhausen","type":"Kreisangehörige_Gemeinde"},"district":{"key":"08116","name":"Esslingen","type":"Landkreis"},"federalState":{"key":"08","name":"Baden-Württemberg"}},{"name":"Weinberghalde","postalCode":"72636","locality":"Frickenhausen","municipality":{"key":"08116020","name":"Frickenhausen","type":"Kreisangehörige_Gemeinde"},"district":{"key":"08116","name":"Esslingen","type":"Landkreis"},"federalState":{"key":"08","name":"Baden-Württemberg"}},{"name":"Weinbergstr.","postalCode":"72636","locality":"Frickenhausen","municipality":{"key":"08116020","name":"Frickenhausen","type":"Kreisangehörige_Gemeinde"},"district":{"key":"08116","name":"Esslingen","type":"Landkreis"},"federalState":{"key":"08","name":"Baden-Württemberg"}},{"name":"Weingartenstr.","postalCode":"97252","locality":"Frickenhausen a.Main","municipality":{"key":"09679131","name":"Frickenhausen a.Main, M","type":"Markt"},"district":{"key":"09679","name":"Würzburg","type":"Landkreis"},"federalState":{"key":"09","name":"Bayern"}},{"name":"Wichernstr.","postalCode":"72636","locality":"Frickenhausen","municipality":{"key":"08116020","name":"Frickenhausen","type":"Kreisangehörige_Gemeinde"},"district":{"key":"08116","name":"Esslingen","type":"Landkreis"},"federalState":{"key":"08","name":"Baden-Württemberg"}},{"name":"Wielandstr.","postalCode":"72636","locality":"Frickenhausen","municipality":{"key":"08116020","name":"Frickenhausen","type":"Kreisangehörige_Gemeinde"},"district":{"key":"08116","name":"Esslingen","type":"Landkreis"},"federalState":{"key":"08","name":"Baden-Württemberg"}},{"name":"Wilhelm-Leuschner-Str.","postalCode":"72636","locality":"Frickenhausen","municipality":{"key":"08116020","name":"Frickenhausen","type":"Kreisangehörige_Gemeinde"},"district":{"key":"08116","name":"Esslingen","type":"Landkreis"},"federalState":{"key":"08","name":"Baden-Württemberg"}},{"name":"Winzergasse","postalCode":"97252","locality":"Frickenhausen a.Main","municipality":{"key":"09679131","name":"Frickenhausen a.Main, M","type":"Markt"},"district":{"key":"09679","name":"Würzburg","type":"Landkreis"},"federalState":{"key":"09","name":"Bayern"}},{"name":"Zeppelinstr.","postalCode":"72636","locality":"Frickenhausen","municipality":{"key":"08116020","name":"Frickenhausen","type":"Kreisangehörige_Gemeinde"},"district":{"key":"08116","name":"Esslingen","type":"Landkreis"},"federalState":{"key":"08","name":"Baden-Württemberg"}},{"name":"Ziegeleistr.","postalCode":"72636","locality":"Frickenhausen","municipality":{"key":"08116020","name":"Frickenhausen","type":"Kreisangehörige_Gemeinde"},"district":{"key":"08116","name":"Esslingen","type":"Landkreis"},"federalState":{"key":"08","name":"Baden-Württemberg"}},]