[{"name":"1. Siedlungsweg","postalCode":"17335","locality":"Strasburg (Uckermark)","municipality":{"key":"13075130","name":"Strasburg (Uckermark), Stadt","type":"Stadt"},"district":{"key":"13075","name":"Vorpommern-Greifswald","type":"Landkreis"},"federalState":{"key":"13","name":"Mecklenburg-Vorpommern"}},{"name":"2. Siedlungsweg","postalCode":"17335","locality":"Strasburg (Uckermark)","municipality":{"key":"13075130","name":"Strasburg (Uckermark), Stadt","type":"Stadt"},"district":{"key":"13075","name":"Vorpommern-Greifswald","type":"Landkreis"},"federalState":{"key":"13","name":"Mecklenburg-Vorpommern"}},{"name":"3. Siedlungsweg","postalCode":"17335","locality":"Strasburg (Uckermark)","municipality":{"key":"13075130","name":"Strasburg (Uckermark), Stadt","type":"Stadt"},"district":{"key":"13075","name":"Vorpommern-Greifswald","type":"Landkreis"},"federalState":{"key":"13","name":"Mecklenburg-Vorpommern"}},{"name":"Amalienhof","postalCode":"17337","locality":"Uckerland","municipality":{"key":"12073579","name":"Uckerland","type":"Kreisangehörige_Gemeinde"},"district":{"key":"12073","name":"Uckermark","type":"Landkreis"},"federalState":{"key":"12","name":"Brandenburg"}},{"name":"Am Nechliner Bahnhof","postalCode":"17337","locality":"Uckerland","municipality":{"key":"12073579","name":"Uckerland","type":"Kreisangehörige_Gemeinde"},"district":{"key":"12073","name":"Uckermark","type":"Landkreis"},"federalState":{"key":"12","name":"Brandenburg"}},{"name":"Am Storchennest","postalCode":"17337","locality":"Uckerland","municipality":{"key":"12073579","name":"Uckerland","type":"Kreisangehörige_Gemeinde"},"district":{"key":"12073","name":"Uckermark","type":"Landkreis"},"federalState":{"key":"12","name":"Brandenburg"}},{"name":"Am Walde","postalCode":"17337","locality":"Uckerland","municipality":{"key":"12073579","name":"Uckerland","type":"Kreisangehörige_Gemeinde"},"district":{"key":"12073","name":"Uckermark","type":"Landkreis"},"federalState":{"key":"12","name":"Brandenburg"}},{"name":"Bandelow","postalCode":"17337","locality":"Uckerland","municipality":{"key":"12073579","name":"Uckerland","type":"Kreisangehörige_Gemeinde"},"district":{"key":"12073","name":"Uckermark","type":"Landkreis"},"federalState":{"key":"12","name":"Brandenburg"}},{"name":"Bandelow-Siedlung","postalCode":"17337","locality":"Uckerland","municipality":{"key":"12073579","name":"Uckerland","type":"Kreisangehörige_Gemeinde"},"district":{"key":"12073","name":"Uckermark","type":"Landkreis"},"federalState":{"key":"12","name":"Brandenburg"}},{"name":"Carolinenthal","postalCode":"17337","locality":"Uckerland","municipality":{"key":"12073579","name":"Uckerland","type":"Kreisangehörige_Gemeinde"},"district":{"key":"12073","name":"Uckermark","type":"Landkreis"},"federalState":{"key":"12","name":"Brandenburg"}},{"name":"Dolgen","postalCode":"17337","locality":"Uckerland","municipality":{"key":"12073579","name":"Uckerland","type":"Kreisangehörige_Gemeinde"},"district":{"key":"12073","name":"Uckermark","type":"Landkreis"},"federalState":{"key":"12","name":"Brandenburg"}},{"name":"Dorfpark","postalCode":"17337","locality":"Uckerland","municipality":{"key":"12073579","name":"Uckerland","type":"Kreisangehörige_Gemeinde"},"district":{"key":"12073","name":"Uckermark","type":"Landkreis"},"federalState":{"key":"12","name":"Brandenburg"}},{"name":"Dorfstr.","postalCode":"17337","locality":"Uckerland","municipality":{"key":"12073579","name":"Uckerland","type":"Kreisangehörige_Gemeinde"},"district":{"key":"12073","name":"Uckermark","type":"Landkreis"},"federalState":{"key":"12","name":"Brandenburg"}},{"name":"Ernst-Korff-Str.","postalCode":"17291","locality":"Nordwestuckermark","municipality":{"key":"12073429","name":"Nordwestuckermark","type":"Kreisangehörige_Gemeinde"},"district":{"key":"12073","name":"Uckermark","type":"Landkreis"},"federalState":{"key":"12","name":"Brandenburg"}},{"name":"Ernst-Thälmann-Str.","postalCode":"17291","locality":"Nordwestuckermark","municipality":{"key":"12073429","name":"Nordwestuckermark","type":"Kreisangehörige_Gemeinde"},"district":{"key":"12073","name":"Uckermark","type":"Landkreis"},"federalState":{"key":"12","name":"Brandenburg"}},{"name":"Ernst-Thälmann-Str.","postalCode":"17335","locality":"Strasburg (Uckermark)","municipality":{"key":"13075130","name":"Strasburg (Uckermark), Stadt","type":"Stadt"},"district":{"key":"13075","name":"Vorpommern-Greifswald","type":"Landkreis"},"federalState":{"key":"13","name":"Mecklenburg-Vorpommern"}},{"name":"Fahrenholz","postalCode":"17337","locality":"Uckerland","municipality":{"key":"12073579","name":"Uckerland","type":"Kreisangehörige_Gemeinde"},"district":{"key":"12073","name":"Uckermark","type":"Landkreis"},"federalState":{"key":"12","name":"Brandenburg"}},{"name":"Fliesenbrücke","postalCode":"17337","locality":"Uckerland","municipality":{"key":"12073579","name":"Uckerland","type":"Kreisangehörige_Gemeinde"},"district":{"key":"12073","name":"Uckermark","type":"Landkreis"},"federalState":{"key":"12","name":"Brandenburg"}},{"name":"Gneisenau","postalCode":"17337","locality":"Uckerland","municipality":{"key":"12073579","name":"Uckerland","type":"Kreisangehörige_Gemeinde"},"district":{"key":"12073","name":"Uckermark","type":"Landkreis"},"federalState":{"key":"12","name":"Brandenburg"}},{"name":"Güterberg","postalCode":"17337","locality":"Uckerland","municipality":{"key":"12073579","name":"Uckerland","type":"Kreisangehörige_Gemeinde"},"district":{"key":"12073","name":"Uckermark","type":"Landkreis"},"federalState":{"key":"12","name":"Brandenburg"}},{"name":"Güterberger Weg","postalCode":"17337","locality":"Uckerland","municipality":{"key":"12073579","name":"Uckerland","type":"Kreisangehörige_Gemeinde"},"district":{"key":"12073","name":"Uckermark","type":"Landkreis"},"federalState":{"key":"12","name":"Brandenburg"}},{"name":"Hansfelde","postalCode":"17337","locality":"Uckerland","municipality":{"key":"12073579","name":"Uckerland","type":"Kreisangehörige_Gemeinde"},"district":{"key":"12073","name":"Uckermark","type":"Landkreis"},"federalState":{"key":"12","name":"Brandenburg"}},{"name":"Hauptstr.","postalCode":"17337","locality":"Uckerland","municipality":{"key":"12073579","name":"Uckerland","type":"Kreisangehörige_Gemeinde"},"district":{"key":"12073","name":"Uckermark","type":"Landkreis"},"federalState":{"key":"12","name":"Brandenburg"}},{"name":"Hetzdorf","postalCode":"17337","locality":"Uckerland","municipality":{"key":"12073579","name":"Uckerland","type":"Kreisangehörige_Gemeinde"},"district":{"key":"12073","name":"Uckermark","type":"Landkreis"},"federalState":{"key":"12","name":"Brandenburg"}},{"name":"Inselweg","postalCode":"17291","locality":"Nordwestuckermark","municipality":{"key":"12073429","name":"Nordwestuckermark","type":"Kreisangehörige_Gemeinde"},"district":{"key":"12073","name":"Uckermark","type":"Landkreis"},"federalState":{"key":"12","name":"Brandenburg"}},{"name":"Jagow","postalCode":"17337","locality":"Uckerland","municipality":{"key":"12073579","name":"Uckerland","type":"Kreisangehörige_Gemeinde"},"district":{"key":"12073","name":"Uckermark","type":"Landkreis"},"federalState":{"key":"12","name":"Brandenburg"}},{"name":"Jagower Weg","postalCode":"17337","locality":"Uckerland","municipality":{"key":"12073579","name":"Uckerland","type":"Kreisangehörige_Gemeinde"},"district":{"key":"12073","name":"Uckermark","type":"Landkreis"},"federalState":{"key":"12","name":"Brandenburg"}},{"name":"Jahnkeshof","postalCode":"17337","locality":"Uckerland","municipality":{"key":"12073579","name":"Uckerland","type":"Kreisangehörige_Gemeinde"},"district":{"key":"12073","name":"Uckermark","type":"Landkreis"},"federalState":{"key":"12","name":"Brandenburg"}},{"name":"Karlstein","postalCode":"17337","locality":"Uckerland","municipality":{"key":"12073579","name":"Uckerland","type":"Kreisangehörige_Gemeinde"},"district":{"key":"12073","name":"Uckermark","type":"Landkreis"},"federalState":{"key":"12","name":"Brandenburg"}},{"name":"Kirchstr.","postalCode":"17337","locality":"Uckerland","municipality":{"key":"12073579","name":"Uckerland","type":"Kreisangehörige_Gemeinde"},"district":{"key":"12073","name":"Uckermark","type":"Landkreis"},"federalState":{"key":"12","name":"Brandenburg"}},{"name":"Kleisthöhe","postalCode":"17337","locality":"Uckerland","municipality":{"key":"12073579","name":"Uckerland","type":"Kreisangehörige_Gemeinde"},"district":{"key":"12073","name":"Uckermark","type":"Landkreis"},"federalState":{"key":"12","name":"Brandenburg"}},{"name":"Kutzerow","postalCode":"17337","locality":"Uckerland","municipality":{"key":"12073579","name":"Uckerland","type":"Kreisangehörige_Gemeinde"},"district":{"key":"12073","name":"Uckermark","type":"Landkreis"},"federalState":{"key":"12","name":"Brandenburg"}},{"name":"Lauenhof","postalCode":"17337","locality":"Uckerland","municipality":{"key":"12073579","name":"Uckerland","type":"Kreisangehörige_Gemeinde"},"district":{"key":"12073","name":"Uckermark","type":"Landkreis"},"federalState":{"key":"12","name":"Brandenburg"}},{"name":"Lemmersdorf","postalCode":"17337","locality":"Uckerland","municipality":{"key":"12073579","name":"Uckerland","type":"Kreisangehörige_Gemeinde"},"district":{"key":"12073","name":"Uckermark","type":"Landkreis"},"federalState":{"key":"12","name":"Brandenburg"}},{"name":"Lindenweg","postalCode":"17337","locality":"Uckerland","municipality":{"key":"12073579","name":"Uckerland","type":"Kreisangehörige_Gemeinde"},"district":{"key":"12073","name":"Uckermark","type":"Landkreis"},"federalState":{"key":"12","name":"Brandenburg"}},{"name":"Lindhorst","postalCode":"17337","locality":"Uckerland","municipality":{"key":"12073579","name":"Uckerland","type":"Kreisangehörige_Gemeinde"},"district":{"key":"12073","name":"Uckermark","type":"Landkreis"},"federalState":{"key":"12","name":"Brandenburg"}},{"name":"Milow","postalCode":"17337","locality":"Uckerland","municipality":{"key":"12073579","name":"Uckerland","type":"Kreisangehörige_Gemeinde"},"district":{"key":"12073","name":"Uckermark","type":"Landkreis"},"federalState":{"key":"12","name":"Brandenburg"}},{"name":"Milower Weg","postalCode":"17337","locality":"Uckerland","municipality":{"key":"12073579","name":"Uckerland","type":"Kreisangehörige_Gemeinde"},"district":{"key":"12073","name":"Uckermark","type":"Landkreis"},"federalState":{"key":"12","name":"Brandenburg"}},{"name":"Nechlin","postalCode":"17337","locality":"Uckerland","municipality":{"key":"12073579","name":"Uckerland","type":"Kreisangehörige_Gemeinde"},"district":{"key":"12073","name":"Uckermark","type":"Landkreis"},"federalState":{"key":"12","name":"Brandenburg"}},{"name":"Neumannshof","postalCode":"17337","locality":"Uckerland","municipality":{"key":"12073579","name":"Uckerland","type":"Kreisangehörige_Gemeinde"},"district":{"key":"12073","name":"Uckermark","type":"Landkreis"},"federalState":{"key":"12","name":"Brandenburg"}},{"name":"Ottenhagen","postalCode":"17337","locality":"Uckerland","municipality":{"key":"12073579","name":"Uckerland","type":"Kreisangehörige_Gemeinde"},"district":{"key":"12073","name":"Uckermark","type":"Landkreis"},"federalState":{"key":"12","name":"Brandenburg"}},{"name":"Pappelweg","postalCode":"17337","locality":"Uckerland","municipality":{"key":"12073579","name":"Uckerland","type":"Kreisangehörige_Gemeinde"},"district":{"key":"12073","name":"Uckermark","type":"Landkreis"},"federalState":{"key":"12","name":"Brandenburg"}},{"name":"Prenzlauer Str.","postalCode":"17337","locality":"Uckerland","municipality":{"key":"12073579","name":"Uckerland","type":"Kreisangehörige_Gemeinde"},"district":{"key":"12073","name":"Uckermark","type":"Landkreis"},"federalState":{"key":"12","name":"Brandenburg"}},{"name":"Quillowstr.","postalCode":"17291","locality":"Nordwestuckermark","municipality":{"key":"12073429","name":"Nordwestuckermark","type":"Kreisangehörige_Gemeinde"},"district":{"key":"12073","name":"Uckermark","type":"Landkreis"},"federalState":{"key":"12","name":"Brandenburg"}},{"name":"Rittgartener Str.","postalCode":"17291","locality":"Nordwestuckermark","municipality":{"key":"12073429","name":"Nordwestuckermark","type":"Kreisangehörige_Gemeinde"},"district":{"key":"12073","name":"Uckermark","type":"Landkreis"},"federalState":{"key":"12","name":"Brandenburg"}},{"name":"Rosenstr.","postalCode":"17335","locality":"Strasburg (Uckermark)","municipality":{"key":"13075130","name":"Strasburg (Uckermark), Stadt","type":"Stadt"},"district":{"key":"13075","name":"Vorpommern-Greifswald","type":"Landkreis"},"federalState":{"key":"13","name":"Mecklenburg-Vorpommern"}},{"name":"Rosenthal","postalCode":"17335","locality":"Strasburg (Uckermark)","municipality":{"key":"13075130","name":"Strasburg (Uckermark), Stadt","type":"Stadt"},"district":{"key":"13075","name":"Vorpommern-Greifswald","type":"Landkreis"},"federalState":{"key":"13","name":"Mecklenburg-Vorpommern"}},{"name":"Roßstr.","postalCode":"17335","locality":"Strasburg (Uckermark)","municipality":{"key":"13075130","name":"Strasburg (Uckermark), Stadt","type":"Stadt"},"district":{"key":"13075","name":"Vorpommern-Greifswald","type":"Landkreis"},"federalState":{"key":"13","name":"Mecklenburg-Vorpommern"}},{"name":"Rothemühler Str.","postalCode":"17335","locality":"Strasburg (Uckermark)","municipality":{"key":"13075130","name":"Strasburg (Uckermark), Stadt","type":"Stadt"},"district":{"key":"13075","name":"Vorpommern-Greifswald","type":"Landkreis"},"federalState":{"key":"13","name":"Mecklenburg-Vorpommern"}},{"name":"Schlepkow","postalCode":"17337","locality":"Uckerland","municipality":{"key":"12073579","name":"Uckerland","type":"Kreisangehörige_Gemeinde"},"district":{"key":"12073","name":"Uckermark","type":"Landkreis"},"federalState":{"key":"12","name":"Brandenburg"}},{"name":"Schwarzer Weg","postalCode":"17337","locality":"Uckerland","municipality":{"key":"12073579","name":"Uckerland","type":"Kreisangehörige_Gemeinde"},"district":{"key":"12073","name":"Uckermark","type":"Landkreis"},"federalState":{"key":"12","name":"Brandenburg"}},{"name":"Seeweg","postalCode":"17337","locality":"Uckerland","municipality":{"key":"12073579","name":"Uckerland","type":"Kreisangehörige_Gemeinde"},"district":{"key":"12073","name":"Uckermark","type":"Landkreis"},"federalState":{"key":"12","name":"Brandenburg"}},{"name":"Siedlungsweg","postalCode":"17337","locality":"Uckerland","municipality":{"key":"12073579","name":"Uckerland","type":"Kreisangehörige_Gemeinde"},"district":{"key":"12073","name":"Uckermark","type":"Landkreis"},"federalState":{"key":"12","name":"Brandenburg"}},{"name":"Strasburger Weg","postalCode":"17337","locality":"Uckerland","municipality":{"key":"12073579","name":"Uckerland","type":"Kreisangehörige_Gemeinde"},"district":{"key":"12073","name":"Uckermark","type":"Landkreis"},"federalState":{"key":"12","name":"Brandenburg"}},{"name":"Taschenberg","postalCode":"17337","locality":"Uckerland","municipality":{"key":"12073579","name":"Uckerland","type":"Kreisangehörige_Gemeinde"},"district":{"key":"12073","name":"Uckermark","type":"Landkreis"},"federalState":{"key":"12","name":"Brandenburg"}},{"name":"Trebenow","postalCode":"17337","locality":"Uckerland","municipality":{"key":"12073579","name":"Uckerland","type":"Kreisangehörige_Gemeinde"},"district":{"key":"12073","name":"Uckermark","type":"Landkreis"},"federalState":{"key":"12","name":"Brandenburg"}},{"name":"Uhlenhof","postalCode":"17337","locality":"Uckerland","municipality":{"key":"12073579","name":"Uckerland","type":"Kreisangehörige_Gemeinde"},"district":{"key":"12073","name":"Uckermark","type":"Landkreis"},"federalState":{"key":"12","name":"Brandenburg"}},{"name":"Werbelow","postalCode":"17337","locality":"Uckerland","municipality":{"key":"12073579","name":"Uckerland","type":"Kreisangehörige_Gemeinde"},"district":{"key":"12073","name":"Uckermark","type":"Landkreis"},"federalState":{"key":"12","name":"Brandenburg"}},{"name":"Wilsickow","postalCode":"17337","locality":"Uckerland","municipality":{"key":"12073579","name":"Uckerland","type":"Kreisangehörige_Gemeinde"},"district":{"key":"12073","name":"Uckermark","type":"Landkreis"},"federalState":{"key":"12","name":"Brandenburg"}},{"name":"Wismar","postalCode":"17337","locality":"Uckerland","municipality":{"key":"12073579","name":"Uckerland","type":"Kreisangehörige_Gemeinde"},"district":{"key":"12073","name":"Uckermark","type":"Landkreis"},"federalState":{"key":"12","name":"Brandenburg"}},{"name":"Ziegeleiweg","postalCode":"17291","locality":"Nordwestuckermark","municipality":{"key":"12073429","name":"Nordwestuckermark","type":"Kreisangehörige_Gemeinde"},"district":{"key":"12073","name":"Uckermark","type":"Landkreis"},"federalState":{"key":"12","name":"Brandenburg"}},{"name":"Zimmermannsmühle","postalCode":"17335","locality":"Strasburg (Uckermark)","municipality":{"key":"13075130","name":"Strasburg (Uckermark), Stadt","type":"Stadt"},"district":{"key":"13075","name":"Vorpommern-Greifswald","type":"Landkreis"},"federalState":{"key":"13","name":"Mecklenburg-Vorpommern"}},{"name":"Zimmerstr.","postalCode":"17335","locality":"Strasburg (Uckermark)","municipality":{"key":"13075130","name":"Strasburg (Uckermark), Stadt","type":"Stadt"},"district":{"key":"13075","name":"Vorpommern-Greifswald","type":"Landkreis"},"federalState":{"key":"13","name":"Mecklenburg-Vorpommern"}},{"name":"Zum Königsweg","postalCode":"17291","locality":"Nordwestuckermark","municipality":{"key":"12073429","name":"Nordwestuckermark","type":"Kreisangehörige_Gemeinde"},"district":{"key":"12073","name":"Uckermark","type":"Landkreis"},"federalState":{"key":"12","name":"Brandenburg"}},{"name":"Zum Pappelberg","postalCode":"17291","locality":"Nordwestuckermark","municipality":{"key":"12073429","name":"Nordwestuckermark","type":"Kreisangehörige_Gemeinde"},"district":{"key":"12073","name":"Uckermark","type":"Landkreis"},"federalState":{"key":"12","name":"Brandenburg"}},{"name":"Zum Quillow","postalCode":"17291","locality":"Nordwestuckermark","municipality":{"key":"12073429","name":"Nordwestuckermark","type":"Kreisangehörige_Gemeinde"},"district":{"key":"12073","name":"Uckermark","type":"Landkreis"},"federalState":{"key":"12","name":"Brandenburg"}},{"name":"Zum Röthberg","postalCode":"17291","locality":"Nordwestuckermark","municipality":{"key":"12073429","name":"Nordwestuckermark","type":"Kreisangehörige_Gemeinde"},"district":{"key":"12073","name":"Uckermark","type":"Landkreis"},"federalState":{"key":"12","name":"Brandenburg"}},{"name":"Zum Steinsee","postalCode":"17291","locality":"Nordwestuckermark","municipality":{"key":"12073429","name":"Nordwestuckermark","type":"Kreisangehörige_Gemeinde"},"district":{"key":"12073","name":"Uckermark","type":"Landkreis"},"federalState":{"key":"12","name":"Brandenburg"}},{"name":"Zum Vogelberg","postalCode":"17291","locality":"Nordwestuckermark","municipality":{"key":"12073429","name":"Nordwestuckermark","type":"Kreisangehörige_Gemeinde"},"district":{"key":"12073","name":"Uckermark","type":"Landkreis"},"federalState":{"key":"12","name":"Brandenburg"}},{"name":"Zur Lindenallee","postalCode":"17291","locality":"Nordwestuckermark","municipality":{"key":"12073429","name":"Nordwestuckermark","type":"Kreisangehörige_Gemeinde"},"district":{"key":"12073","name":"Uckermark","type":"Landkreis"},"federalState":{"key":"12","name":"Brandenburg"}},]