[{"name":"Ahornstr.","postalCode":"94491","locality":"Hengersberg","municipality":{"key":"09271125","name":"Hengersberg, M","type":"Markt"},"district":{"key":"09271","name":"Deggendorf","type":"Landkreis"},"federalState":{"key":"09","name":"Bayern"}},{"name":"Alte Bahnhofstr.","postalCode":"94491","locality":"Hengersberg","municipality":{"key":"09271125","name":"Hengersberg, M","type":"Markt"},"district":{"key":"09271","name":"Deggendorf","type":"Landkreis"},"federalState":{"key":"09","name":"Bayern"}},{"name":"Am Altbach","postalCode":"94491","locality":"Hengersberg","municipality":{"key":"09271125","name":"Hengersberg, M","type":"Markt"},"district":{"key":"09271","name":"Deggendorf","type":"Landkreis"},"federalState":{"key":"09","name":"Bayern"}},{"name":"Am Brunnhaus","postalCode":"94491","locality":"Hengersberg","municipality":{"key":"09271125","name":"Hengersberg, M","type":"Markt"},"district":{"key":"09271","name":"Deggendorf","type":"Landkreis"},"federalState":{"key":"09","name":"Bayern"}},{"name":"Am Galgenhügel","postalCode":"94491","locality":"Hengersberg","municipality":{"key":"09271125","name":"Hengersberg, M","type":"Markt"},"district":{"key":"09271","name":"Deggendorf","type":"Landkreis"},"federalState":{"key":"09","name":"Bayern"}},{"name":"Am Gesundbrunnen","postalCode":"94491","locality":"Hengersberg","municipality":{"key":"09271125","name":"Hengersberg, M","type":"Markt"},"district":{"key":"09271","name":"Deggendorf","type":"Landkreis"},"federalState":{"key":"09","name":"Bayern"}},{"name":"Am Hopfengarten","postalCode":"94491","locality":"Hengersberg","municipality":{"key":"09271125","name":"Hengersberg, M","type":"Markt"},"district":{"key":"09271","name":"Deggendorf","type":"Landkreis"},"federalState":{"key":"09","name":"Bayern"}},{"name":"Am Lindachholz","postalCode":"94491","locality":"Hengersberg","municipality":{"key":"09271125","name":"Hengersberg, M","type":"Markt"},"district":{"key":"09271","name":"Deggendorf","type":"Landkreis"},"federalState":{"key":"09","name":"Bayern"}},{"name":"Am Mühlfeld","postalCode":"94491","locality":"Hengersberg","municipality":{"key":"09271125","name":"Hengersberg, M","type":"Markt"},"district":{"key":"09271","name":"Deggendorf","type":"Landkreis"},"federalState":{"key":"09","name":"Bayern"}},{"name":"Am Ohebad","postalCode":"94491","locality":"Hengersberg","municipality":{"key":"09271125","name":"Hengersberg, M","type":"Markt"},"district":{"key":"09271","name":"Deggendorf","type":"Landkreis"},"federalState":{"key":"09","name":"Bayern"}},{"name":"Am Pfarrhof","postalCode":"94491","locality":"Hengersberg","municipality":{"key":"09271125","name":"Hengersberg, M","type":"Markt"},"district":{"key":"09271","name":"Deggendorf","type":"Landkreis"},"federalState":{"key":"09","name":"Bayern"}},{"name":"Am Steig","postalCode":"94491","locality":"Hengersberg","municipality":{"key":"09271125","name":"Hengersberg, M","type":"Markt"},"district":{"key":"09271","name":"Deggendorf","type":"Landkreis"},"federalState":{"key":"09","name":"Bayern"}},{"name":"Am Wald","postalCode":"94491","locality":"Hengersberg","municipality":{"key":"09271125","name":"Hengersberg, M","type":"Markt"},"district":{"key":"09271","name":"Deggendorf","type":"Landkreis"},"federalState":{"key":"09","name":"Bayern"}},{"name":"Anton-Weber-Str.","postalCode":"94491","locality":"Hengersberg","municipality":{"key":"09271125","name":"Hengersberg, M","type":"Markt"},"district":{"key":"09271","name":"Deggendorf","type":"Landkreis"},"federalState":{"key":"09","name":"Bayern"}},{"name":"Arberweg","postalCode":"94491","locality":"Hengersberg","municipality":{"key":"09271125","name":"Hengersberg, M","type":"Markt"},"district":{"key":"09271","name":"Deggendorf","type":"Landkreis"},"federalState":{"key":"09","name":"Bayern"}},{"name":"Bahnhofstr.","postalCode":"94491","locality":"Hengersberg","municipality":{"key":"09271125","name":"Hengersberg, M","type":"Markt"},"district":{"key":"09271","name":"Deggendorf","type":"Landkreis"},"federalState":{"key":"09","name":"Bayern"}},{"name":"Bayerwaldstr.","postalCode":"94491","locality":"Hengersberg","municipality":{"key":"09271125","name":"Hengersberg, M","type":"Markt"},"district":{"key":"09271","name":"Deggendorf","type":"Landkreis"},"federalState":{"key":"09","name":"Bayern"}},{"name":"Beerenstr.","postalCode":"94491","locality":"Hengersberg","municipality":{"key":"09271125","name":"Hengersberg, M","type":"Markt"},"district":{"key":"09271","name":"Deggendorf","type":"Landkreis"},"federalState":{"key":"09","name":"Bayern"}},{"name":"Beim Klosterholz","postalCode":"94491","locality":"Hengersberg","municipality":{"key":"09271125","name":"Hengersberg, M","type":"Markt"},"district":{"key":"09271","name":"Deggendorf","type":"Landkreis"},"federalState":{"key":"09","name":"Bayern"}},{"name":"Bergmüller Str.","postalCode":"94491","locality":"Hengersberg","municipality":{"key":"09271125","name":"Hengersberg, M","type":"Markt"},"district":{"key":"09271","name":"Deggendorf","type":"Landkreis"},"federalState":{"key":"09","name":"Bayern"}},{"name":"Bernhard-Hilz-Str.","postalCode":"94491","locality":"Hengersberg","municipality":{"key":"09271125","name":"Hengersberg, M","type":"Markt"},"district":{"key":"09271","name":"Deggendorf","type":"Landkreis"},"federalState":{"key":"09","name":"Bayern"}},{"name":"Blumenstr.","postalCode":"94491","locality":"Hengersberg","municipality":{"key":"09271125","name":"Hengersberg, M","type":"Markt"},"district":{"key":"09271","name":"Deggendorf","type":"Landkreis"},"federalState":{"key":"09","name":"Bayern"}},{"name":"Böhmerwaldstr.","postalCode":"94491","locality":"Hengersberg","municipality":{"key":"09271125","name":"Hengersberg, M","type":"Markt"},"district":{"key":"09271","name":"Deggendorf","type":"Landkreis"},"federalState":{"key":"09","name":"Bayern"}},{"name":"Bräuweg","postalCode":"94491","locality":"Hengersberg","municipality":{"key":"09271125","name":"Hengersberg, M","type":"Markt"},"district":{"key":"09271","name":"Deggendorf","type":"Landkreis"},"federalState":{"key":"09","name":"Bayern"}},{"name":"Buch","postalCode":"94491","locality":"Hengersberg","municipality":{"key":"09271125","name":"Hengersberg, M","type":"Markt"},"district":{"key":"09271","name":"Deggendorf","type":"Landkreis"},"federalState":{"key":"09","name":"Bayern"}},{"name":"Buchenstr.","postalCode":"94491","locality":"Hengersberg","municipality":{"key":"09271125","name":"Hengersberg, M","type":"Markt"},"district":{"key":"09271","name":"Deggendorf","type":"Landkreis"},"federalState":{"key":"09","name":"Bayern"}},{"name":"Christian-Winck-Weg","postalCode":"94469","locality":"Deggendorf","municipality":{"key":"09271119","name":"Deggendorf, GKSt","type":"Große_Kreisstadt"},"district":{"key":"09271","name":"Deggendorf","type":"Landkreis"},"federalState":{"key":"09","name":"Bayern"}},{"name":"Cölestin-Maier-Weg","postalCode":"94469","locality":"Deggendorf","municipality":{"key":"09271119","name":"Deggendorf, GKSt","type":"Große_Kreisstadt"},"district":{"key":"09271","name":"Deggendorf","type":"Landkreis"},"federalState":{"key":"09","name":"Bayern"}},{"name":"Crusila Passage","postalCode":"94469","locality":"Deggendorf","municipality":{"key":"09271119","name":"Deggendorf, GKSt","type":"Große_Kreisstadt"},"district":{"key":"09271","name":"Deggendorf","type":"Landkreis"},"federalState":{"key":"09","name":"Bayern"}},{"name":"Deggendorfer Str.","postalCode":"94491","locality":"Hengersberg","municipality":{"key":"09271125","name":"Hengersberg, M","type":"Markt"},"district":{"key":"09271","name":"Deggendorf","type":"Landkreis"},"federalState":{"key":"09","name":"Bayern"}},{"name":"Donaustr.","postalCode":"94491","locality":"Hengersberg","municipality":{"key":"09271125","name":"Hengersberg, M","type":"Markt"},"district":{"key":"09271","name":"Deggendorf","type":"Landkreis"},"federalState":{"key":"09","name":"Bayern"}},{"name":"Dorfstr.","postalCode":"94491","locality":"Hengersberg","municipality":{"key":"09271125","name":"Hengersberg, M","type":"Markt"},"district":{"key":"09271","name":"Deggendorf","type":"Landkreis"},"federalState":{"key":"09","name":"Bayern"}},{"name":"Edermaning","postalCode":"94491","locality":"Hengersberg","municipality":{"key":"09271125","name":"Hengersberg, M","type":"Markt"},"district":{"key":"09271","name":"Deggendorf","type":"Landkreis"},"federalState":{"key":"09","name":"Bayern"}},{"name":"Eichenweg","postalCode":"94491","locality":"Hengersberg","municipality":{"key":"09271125","name":"Hengersberg, M","type":"Markt"},"district":{"key":"09271","name":"Deggendorf","type":"Landkreis"},"federalState":{"key":"09","name":"Bayern"}},{"name":"Erkerdinger Str.","postalCode":"94491","locality":"Hengersberg","municipality":{"key":"09271125","name":"Hengersberg, M","type":"Markt"},"district":{"key":"09271","name":"Deggendorf","type":"Landkreis"},"federalState":{"key":"09","name":"Bayern"}},{"name":"Erlachstr.","postalCode":"94491","locality":"Hengersberg","municipality":{"key":"09271125","name":"Hengersberg, M","type":"Markt"},"district":{"key":"09271","name":"Deggendorf","type":"Landkreis"},"federalState":{"key":"09","name":"Bayern"}},{"name":"Erlenstr.","postalCode":"94491","locality":"Hengersberg","municipality":{"key":"09271125","name":"Hengersberg, M","type":"Markt"},"district":{"key":"09271","name":"Deggendorf","type":"Landkreis"},"federalState":{"key":"09","name":"Bayern"}},{"name":"Farnstr.","postalCode":"94491","locality":"Hengersberg","municipality":{"key":"09271125","name":"Hengersberg, M","type":"Markt"},"district":{"key":"09271","name":"Deggendorf","type":"Landkreis"},"federalState":{"key":"09","name":"Bayern"}},{"name":"Fischerstr.","postalCode":"94491","locality":"Hengersberg","municipality":{"key":"09271125","name":"Hengersberg, M","type":"Markt"},"district":{"key":"09271","name":"Deggendorf","type":"Landkreis"},"federalState":{"key":"09","name":"Bayern"}},{"name":"Franz-Hartl-Str.","postalCode":"94491","locality":"Hengersberg","municipality":{"key":"09271125","name":"Hengersberg, M","type":"Markt"},"district":{"key":"09271","name":"Deggendorf","type":"Landkreis"},"federalState":{"key":"09","name":"Bayern"}},{"name":"Franz-Wandinger-Str.","postalCode":"94491","locality":"Hengersberg","municipality":{"key":"09271125","name":"Hengersberg, M","type":"Markt"},"district":{"key":"09271","name":"Deggendorf","type":"Landkreis"},"federalState":{"key":"09","name":"Bayern"}},{"name":"Franz-Würzinger-Str.","postalCode":"94491","locality":"Hengersberg","municipality":{"key":"09271125","name":"Hengersberg, M","type":"Markt"},"district":{"key":"09271","name":"Deggendorf","type":"Landkreis"},"federalState":{"key":"09","name":"Bayern"}},{"name":"Franz-Xaver-Loibl-Str.","postalCode":"94491","locality":"Hengersberg","municipality":{"key":"09271125","name":"Hengersberg, M","type":"Markt"},"district":{"key":"09271","name":"Deggendorf","type":"Landkreis"},"federalState":{"key":"09","name":"Bayern"}},{"name":"Franz-Xaver-Würf-Str.","postalCode":"94491","locality":"Hengersberg","municipality":{"key":"09271125","name":"Hengersberg, M","type":"Markt"},"district":{"key":"09271","name":"Deggendorf","type":"Landkreis"},"federalState":{"key":"09","name":"Bayern"}},{"name":"Frauenberg","postalCode":"94491","locality":"Hengersberg","municipality":{"key":"09271125","name":"Hengersberg, M","type":"Markt"},"district":{"key":"09271","name":"Deggendorf","type":"Landkreis"},"federalState":{"key":"09","name":"Bayern"}},{"name":"Frauenbergstr.","postalCode":"94491","locality":"Hengersberg","municipality":{"key":"09271125","name":"Hengersberg, M","type":"Markt"},"district":{"key":"09271","name":"Deggendorf","type":"Landkreis"},"federalState":{"key":"09","name":"Bayern"}},{"name":"Friedensstr.","postalCode":"94491","locality":"Hengersberg","municipality":{"key":"09271125","name":"Hengersberg, M","type":"Markt"},"district":{"key":"09271","name":"Deggendorf","type":"Landkreis"},"federalState":{"key":"09","name":"Bayern"}},{"name":"Fritz-Eberle-Str.","postalCode":"94491","locality":"Hengersberg","municipality":{"key":"09271125","name":"Hengersberg, M","type":"Markt"},"district":{"key":"09271","name":"Deggendorf","type":"Landkreis"},"federalState":{"key":"09","name":"Bayern"}},{"name":"Frühlingstr.","postalCode":"94491","locality":"Hengersberg","municipality":{"key":"09271125","name":"Hengersberg, M","type":"Markt"},"district":{"key":"09271","name":"Deggendorf","type":"Landkreis"},"federalState":{"key":"09","name":"Bayern"}},{"name":"Furth","postalCode":"94491","locality":"Hengersberg","municipality":{"key":"09271125","name":"Hengersberg, M","type":"Markt"},"district":{"key":"09271","name":"Deggendorf","type":"Landkreis"},"federalState":{"key":"09","name":"Bayern"}},{"name":"Gartenstr.","postalCode":"94491","locality":"Hengersberg","municipality":{"key":"09271125","name":"Hengersberg, M","type":"Markt"},"district":{"key":"09271","name":"Deggendorf","type":"Landkreis"},"federalState":{"key":"09","name":"Bayern"}},{"name":"Godlbrunnweg","postalCode":"94491","locality":"Hengersberg","municipality":{"key":"09271125","name":"Hengersberg, M","type":"Markt"},"district":{"key":"09271","name":"Deggendorf","type":"Landkreis"},"federalState":{"key":"09","name":"Bayern"}},{"name":"Gunskirchner Str.","postalCode":"94491","locality":"Hengersberg","municipality":{"key":"09271125","name":"Hengersberg, M","type":"Markt"},"district":{"key":"09271","name":"Deggendorf","type":"Landkreis"},"federalState":{"key":"09","name":"Bayern"}},{"name":"Hauptstr.","postalCode":"94491","locality":"Hengersberg","municipality":{"key":"09271125","name":"Hengersberg, M","type":"Markt"},"district":{"key":"09271","name":"Deggendorf","type":"Landkreis"},"federalState":{"key":"09","name":"Bayern"}},{"name":"Helingerweg","postalCode":"94491","locality":"Hengersberg","municipality":{"key":"09271125","name":"Hengersberg, M","type":"Markt"},"district":{"key":"09271","name":"Deggendorf","type":"Landkreis"},"federalState":{"key":"09","name":"Bayern"}},{"name":"Hengersberger Str.","postalCode":"94491","locality":"Hengersberg","municipality":{"key":"09271125","name":"Hengersberg, M","type":"Markt"},"district":{"key":"09271","name":"Deggendorf","type":"Landkreis"},"federalState":{"key":"09","name":"Bayern"}},{"name":"Hinterdammweg","postalCode":"94491","locality":"Hengersberg","municipality":{"key":"09271125","name":"Hengersberg, M","type":"Markt"},"district":{"key":"09271","name":"Deggendorf","type":"Landkreis"},"federalState":{"key":"09","name":"Bayern"}},{"name":"Holzerreuth","postalCode":"94491","locality":"Hengersberg","municipality":{"key":"09271125","name":"Hengersberg, M","type":"Markt"},"district":{"key":"09271","name":"Deggendorf","type":"Landkreis"},"federalState":{"key":"09","name":"Bayern"}},{"name":"Iggensbacher Str.","postalCode":"94491","locality":"Hengersberg","municipality":{"key":"09271125","name":"Hengersberg, M","type":"Markt"},"district":{"key":"09271","name":"Deggendorf","type":"Landkreis"},"federalState":{"key":"09","name":"Bayern"}},{"name":"Im Oberfeld","postalCode":"94491","locality":"Hengersberg","municipality":{"key":"09271125","name":"Hengersberg, M","type":"Markt"},"district":{"key":"09271","name":"Deggendorf","type":"Landkreis"},"federalState":{"key":"09","name":"Bayern"}},{"name":"Im Schwarzmühlfeld","postalCode":"94491","locality":"Hengersberg","municipality":{"key":"09271125","name":"Hengersberg, M","type":"Markt"},"district":{"key":"09271","name":"Deggendorf","type":"Landkreis"},"federalState":{"key":"09","name":"Bayern"}},{"name":"Industriestr.","postalCode":"94491","locality":"Hengersberg","municipality":{"key":"09271125","name":"Hengersberg, M","type":"Markt"},"district":{"key":"09271","name":"Deggendorf","type":"Landkreis"},"federalState":{"key":"09","name":"Bayern"}},{"name":"Jägerweg","postalCode":"94491","locality":"Hengersberg","municipality":{"key":"09271125","name":"Hengersberg, M","type":"Markt"},"district":{"key":"09271","name":"Deggendorf","type":"Landkreis"},"federalState":{"key":"09","name":"Bayern"}},{"name":"Jahnstr.","postalCode":"94491","locality":"Hengersberg","municipality":{"key":"09271125","name":"Hengersberg, M","type":"Markt"},"district":{"key":"09271","name":"Deggendorf","type":"Landkreis"},"federalState":{"key":"09","name":"Bayern"}},{"name":"Jako- Leitl-Weg","postalCode":"94491","locality":"Hengersberg","municipality":{"key":"09271125","name":"Hengersberg, M","type":"Markt"},"district":{"key":"09271","name":"Deggendorf","type":"Landkreis"},"federalState":{"key":"09","name":"Bayern"}},{"name":"Johann-Wallner-Str.","postalCode":"94491","locality":"Hengersberg","municipality":{"key":"09271125","name":"Hengersberg, M","type":"Markt"},"district":{"key":"09271","name":"Deggendorf","type":"Landkreis"},"federalState":{"key":"09","name":"Bayern"}},{"name":"Kadinger Weg","postalCode":"94491","locality":"Hengersberg","municipality":{"key":"09271125","name":"Hengersberg, M","type":"Markt"},"district":{"key":"09271","name":"Deggendorf","type":"Landkreis"},"federalState":{"key":"09","name":"Bayern"}},{"name":"Kaiser-Heinrich-Str.","postalCode":"94491","locality":"Hengersberg","municipality":{"key":"09271125","name":"Hengersberg, M","type":"Markt"},"district":{"key":"09271","name":"Deggendorf","type":"Landkreis"},"federalState":{"key":"09","name":"Bayern"}},{"name":"Kapellenweg","postalCode":"94491","locality":"Hengersberg","municipality":{"key":"09271125","name":"Hengersberg, M","type":"Markt"},"district":{"key":"09271","name":"Deggendorf","type":"Landkreis"},"federalState":{"key":"09","name":"Bayern"}},{"name":"Karl-Bauer-Str.","postalCode":"94491","locality":"Hengersberg","municipality":{"key":"09271125","name":"Hengersberg, M","type":"Markt"},"district":{"key":"09271","name":"Deggendorf","type":"Landkreis"},"federalState":{"key":"09","name":"Bayern"}},{"name":"Keltereistr.","postalCode":"94491","locality":"Hengersberg","municipality":{"key":"09271125","name":"Hengersberg, M","type":"Markt"},"district":{"key":"09271","name":"Deggendorf","type":"Landkreis"},"federalState":{"key":"09","name":"Bayern"}},{"name":"Killersberg","postalCode":"94491","locality":"Hengersberg","municipality":{"key":"09271125","name":"Hengersberg, M","type":"Markt"},"district":{"key":"09271","name":"Deggendorf","type":"Landkreis"},"federalState":{"key":"09","name":"Bayern"}},{"name":"Kindergartenweg","postalCode":"94491","locality":"Hengersberg","municipality":{"key":"09271125","name":"Hengersberg, M","type":"Markt"},"district":{"key":"09271","name":"Deggendorf","type":"Landkreis"},"federalState":{"key":"09","name":"Bayern"}},{"name":"Kirchsteig","postalCode":"94491","locality":"Hengersberg","municipality":{"key":"09271125","name":"Hengersberg, M","type":"Markt"},"district":{"key":"09271","name":"Deggendorf","type":"Landkreis"},"federalState":{"key":"09","name":"Bayern"}},{"name":"Kirchweg","postalCode":"94491","locality":"Hengersberg","municipality":{"key":"09271125","name":"Hengersberg, M","type":"Markt"},"district":{"key":"09271","name":"Deggendorf","type":"Landkreis"},"federalState":{"key":"09","name":"Bayern"}},{"name":"Kleines Feld","postalCode":"94491","locality":"Hengersberg","municipality":{"key":"09271125","name":"Hengersberg, M","type":"Markt"},"district":{"key":"09271","name":"Deggendorf","type":"Landkreis"},"federalState":{"key":"09","name":"Bayern"}},{"name":"Klinkerstr.","postalCode":"94491","locality":"Hengersberg","municipality":{"key":"09271125","name":"Hengersberg, M","type":"Markt"},"district":{"key":"09271","name":"Deggendorf","type":"Landkreis"},"federalState":{"key":"09","name":"Bayern"}},{"name":"Klostergarten","postalCode":"94491","locality":"Hengersberg","municipality":{"key":"09271125","name":"Hengersberg, M","type":"Markt"},"district":{"key":"09271","name":"Deggendorf","type":"Landkreis"},"federalState":{"key":"09","name":"Bayern"}},{"name":"Klosterholz","postalCode":"94491","locality":"Hengersberg","municipality":{"key":"09271125","name":"Hengersberg, M","type":"Markt"},"district":{"key":"09271","name":"Deggendorf","type":"Landkreis"},"federalState":{"key":"09","name":"Bayern"}},{"name":"Leebstr.","postalCode":"94491","locality":"Hengersberg","municipality":{"key":"09271125","name":"Hengersberg, M","type":"Markt"},"district":{"key":"09271","name":"Deggendorf","type":"Landkreis"},"federalState":{"key":"09","name":"Bayern"}},{"name":"Lindachweg","postalCode":"94491","locality":"Hengersberg","municipality":{"key":"09271125","name":"Hengersberg, M","type":"Markt"},"district":{"key":"09271","name":"Deggendorf","type":"Landkreis"},"federalState":{"key":"09","name":"Bayern"}},{"name":"Lindenweg","postalCode":"94491","locality":"Hengersberg","municipality":{"key":"09271125","name":"Hengersberg, M","type":"Markt"},"district":{"key":"09271","name":"Deggendorf","type":"Landkreis"},"federalState":{"key":"09","name":"Bayern"}},{"name":"Lusenstr.","postalCode":"94491","locality":"Hengersberg","municipality":{"key":"09271125","name":"Hengersberg, M","type":"Markt"},"district":{"key":"09271","name":"Deggendorf","type":"Landkreis"},"federalState":{"key":"09","name":"Bayern"}},{"name":"Manghöhe","postalCode":"94491","locality":"Hengersberg","municipality":{"key":"09271125","name":"Hengersberg, M","type":"Markt"},"district":{"key":"09271","name":"Deggendorf","type":"Landkreis"},"federalState":{"key":"09","name":"Bayern"}},{"name":"Mangstr.","postalCode":"94491","locality":"Hengersberg","municipality":{"key":"09271125","name":"Hengersberg, M","type":"Markt"},"district":{"key":"09271","name":"Deggendorf","type":"Landkreis"},"federalState":{"key":"09","name":"Bayern"}},{"name":"Milchstr.","postalCode":"94491","locality":"Hengersberg","municipality":{"key":"09271125","name":"Hengersberg, M","type":"Markt"},"district":{"key":"09271","name":"Deggendorf","type":"Landkreis"},"federalState":{"key":"09","name":"Bayern"}},{"name":"Mimminger Str.","postalCode":"94491","locality":"Hengersberg","municipality":{"key":"09271125","name":"Hengersberg, M","type":"Markt"},"district":{"key":"09271","name":"Deggendorf","type":"Landkreis"},"federalState":{"key":"09","name":"Bayern"}},{"name":"Mühlviertelstr.","postalCode":"94491","locality":"Hengersberg","municipality":{"key":"09271125","name":"Hengersberg, M","type":"Markt"},"district":{"key":"09271","name":"Deggendorf","type":"Landkreis"},"federalState":{"key":"09","name":"Bayern"}},{"name":"Mühlweg","postalCode":"94491","locality":"Hengersberg","municipality":{"key":"09271125","name":"Hengersberg, M","type":"Markt"},"district":{"key":"09271","name":"Deggendorf","type":"Landkreis"},"federalState":{"key":"09","name":"Bayern"}},{"name":"Niederalteicher Str.","postalCode":"94491","locality":"Hengersberg","municipality":{"key":"09271125","name":"Hengersberg, M","type":"Markt"},"district":{"key":"09271","name":"Deggendorf","type":"Landkreis"},"federalState":{"key":"09","name":"Bayern"}},{"name":"Niederalteicher Weg","postalCode":"94491","locality":"Hengersberg","municipality":{"key":"09271125","name":"Hengersberg, M","type":"Markt"},"district":{"key":"09271","name":"Deggendorf","type":"Landkreis"},"federalState":{"key":"09","name":"Bayern"}},{"name":"Nördlicher Frauenberg","postalCode":"94491","locality":"Hengersberg","municipality":{"key":"09271125","name":"Hengersberg, M","type":"Markt"},"district":{"key":"09271","name":"Deggendorf","type":"Landkreis"},"federalState":{"key":"09","name":"Bayern"}},{"name":"Oheweg","postalCode":"94491","locality":"Hengersberg","municipality":{"key":"09271125","name":"Hengersberg, M","type":"Markt"},"district":{"key":"09271","name":"Deggendorf","type":"Landkreis"},"federalState":{"key":"09","name":"Bayern"}},{"name":"Passauer Str.","postalCode":"94491","locality":"Hengersberg","municipality":{"key":"09271125","name":"Hengersberg, M","type":"Markt"},"district":{"key":"09271","name":"Deggendorf","type":"Landkreis"},"federalState":{"key":"09","name":"Bayern"}},{"name":"Paulus-Gmainer-Str.","postalCode":"94491","locality":"Hengersberg","municipality":{"key":"09271125","name":"Hengersberg, M","type":"Markt"},"district":{"key":"09271","name":"Deggendorf","type":"Landkreis"},"federalState":{"key":"09","name":"Bayern"}},{"name":"Pfaffinger Weg","postalCode":"94491","locality":"Hengersberg","municipality":{"key":"09271125","name":"Hengersberg, M","type":"Markt"},"district":{"key":"09271","name":"Deggendorf","type":"Landkreis"},"federalState":{"key":"09","name":"Bayern"}},{"name":"Pfarrer-Hausner-Str.","postalCode":"94491","locality":"Hengersberg","municipality":{"key":"09271125","name":"Hengersberg, M","type":"Markt"},"district":{"key":"09271","name":"Deggendorf","type":"Landkreis"},"federalState":{"key":"09","name":"Bayern"}},{"name":"Pfarrplatz","postalCode":"94491","locality":"Hengersberg","municipality":{"key":"09271125","name":"Hengersberg, M","type":"Markt"},"district":{"key":"09271","name":"Deggendorf","type":"Landkreis"},"federalState":{"key":"09","name":"Bayern"}},{"name":"Ponauer Str.","postalCode":"94491","locality":"Hengersberg","municipality":{"key":"09271125","name":"Hengersberg, M","type":"Markt"},"district":{"key":"09271","name":"Deggendorf","type":"Landkreis"},"federalState":{"key":"09","name":"Bayern"}},{"name":"Quellenweg","postalCode":"94469","locality":"Deggendorf","municipality":{"key":"09271119","name":"Deggendorf, GKSt","type":"Große_Kreisstadt"},"district":{"key":"09271","name":"Deggendorf","type":"Landkreis"},"federalState":{"key":"09","name":"Bayern"}},{"name":"Rachelstr.","postalCode":"94491","locality":"Hengersberg","municipality":{"key":"09271125","name":"Hengersberg, M","type":"Markt"},"district":{"key":"09271","name":"Deggendorf","type":"Landkreis"},"federalState":{"key":"09","name":"Bayern"}},{"name":"Ringofenstr.","postalCode":"94491","locality":"Hengersberg","municipality":{"key":"09271125","name":"Hengersberg, M","type":"Markt"},"district":{"key":"09271","name":"Deggendorf","type":"Landkreis"},"federalState":{"key":"09","name":"Bayern"}},{"name":"Ringstr.","postalCode":"94491","locality":"Hengersberg","municipality":{"key":"09271125","name":"Hengersberg, M","type":"Markt"},"district":{"key":"09271","name":"Deggendorf","type":"Landkreis"},"federalState":{"key":"09","name":"Bayern"}},{"name":"Sankt-Gotthard-Str.","postalCode":"94491","locality":"Hengersberg","municipality":{"key":"09271125","name":"Hengersberg, M","type":"Markt"},"district":{"key":"09271","name":"Deggendorf","type":"Landkreis"},"federalState":{"key":"09","name":"Bayern"}},{"name":"Sankt-Gunther-Str.","postalCode":"94491","locality":"Hengersberg","municipality":{"key":"09271125","name":"Hengersberg, M","type":"Markt"},"district":{"key":"09271","name":"Deggendorf","type":"Landkreis"},"federalState":{"key":"09","name":"Bayern"}},{"name":"Schlehenstr.","postalCode":"94491","locality":"Hengersberg","municipality":{"key":"09271125","name":"Hengersberg, M","type":"Markt"},"district":{"key":"09271","name":"Deggendorf","type":"Landkreis"},"federalState":{"key":"09","name":"Bayern"}},{"name":"Schlesierstr.","postalCode":"94491","locality":"Hengersberg","municipality":{"key":"09271125","name":"Hengersberg, M","type":"Markt"},"district":{"key":"09271","name":"Deggendorf","type":"Landkreis"},"federalState":{"key":"09","name":"Bayern"}},{"name":"Schlott","postalCode":"94491","locality":"Hengersberg","municipality":{"key":"09271125","name":"Hengersberg, M","type":"Markt"},"district":{"key":"09271","name":"Deggendorf","type":"Landkreis"},"federalState":{"key":"09","name":"Bayern"}},{"name":"Schmidhubergasse","postalCode":"94491","locality":"Hengersberg","municipality":{"key":"09271125","name":"Hengersberg, M","type":"Markt"},"district":{"key":"09271","name":"Deggendorf","type":"Landkreis"},"federalState":{"key":"09","name":"Bayern"}},{"name":"Schreiberin","postalCode":"94491","locality":"Hengersberg","municipality":{"key":"09271125","name":"Hengersberg, M","type":"Markt"},"district":{"key":"09271","name":"Deggendorf","type":"Landkreis"},"federalState":{"key":"09","name":"Bayern"}},{"name":"Schulstr.","postalCode":"94491","locality":"Hengersberg","municipality":{"key":"09271125","name":"Hengersberg, M","type":"Markt"},"district":{"key":"09271","name":"Deggendorf","type":"Landkreis"},"federalState":{"key":"09","name":"Bayern"}},{"name":"Schwanenkirchener Str.","postalCode":"94491","locality":"Hengersberg","municipality":{"key":"09271125","name":"Hengersberg, M","type":"Markt"},"district":{"key":"09271","name":"Deggendorf","type":"Landkreis"},"federalState":{"key":"09","name":"Bayern"}},{"name":"Sebastianiweg","postalCode":"94491","locality":"Hengersberg","municipality":{"key":"09271125","name":"Hengersberg, M","type":"Markt"},"district":{"key":"09271","name":"Deggendorf","type":"Landkreis"},"federalState":{"key":"09","name":"Bayern"}},{"name":"Seckerstr.","postalCode":"94491","locality":"Hengersberg","municipality":{"key":"09271125","name":"Hengersberg, M","type":"Markt"},"district":{"key":"09271","name":"Deggendorf","type":"Landkreis"},"federalState":{"key":"09","name":"Bayern"}},{"name":"Simon-Breu-Str.","postalCode":"94491","locality":"Hengersberg","municipality":{"key":"09271125","name":"Hengersberg, M","type":"Markt"},"district":{"key":"09271","name":"Deggendorf","type":"Landkreis"},"federalState":{"key":"09","name":"Bayern"}},{"name":"Sonnenstr.","postalCode":"94491","locality":"Hengersberg","municipality":{"key":"09271125","name":"Hengersberg, M","type":"Markt"},"district":{"key":"09271","name":"Deggendorf","type":"Landkreis"},"federalState":{"key":"09","name":"Bayern"}},{"name":"Sportplatzweg","postalCode":"94491","locality":"Hengersberg","municipality":{"key":"09271125","name":"Hengersberg, M","type":"Markt"},"district":{"key":"09271","name":"Deggendorf","type":"Landkreis"},"federalState":{"key":"09","name":"Bayern"}},{"name":"St.-Godehard-Weg","postalCode":"94491","locality":"Hengersberg","municipality":{"key":"09271125","name":"Hengersberg, M","type":"Markt"},"district":{"key":"09271","name":"Deggendorf","type":"Landkreis"},"federalState":{"key":"09","name":"Bayern"}},{"name":"St.-Gunther-Str.","postalCode":"94491","locality":"Hengersberg","municipality":{"key":"09271125","name":"Hengersberg, M","type":"Markt"},"district":{"key":"09271","name":"Deggendorf","type":"Landkreis"},"federalState":{"key":"09","name":"Bayern"}},{"name":"Streiblstr.","postalCode":"94491","locality":"Hengersberg","municipality":{"key":"09271125","name":"Hengersberg, M","type":"Markt"},"district":{"key":"09271","name":"Deggendorf","type":"Landkreis"},"federalState":{"key":"09","name":"Bayern"}},{"name":"Sudetenstr.","postalCode":"94491","locality":"Hengersberg","municipality":{"key":"09271125","name":"Hengersberg, M","type":"Markt"},"district":{"key":"09271","name":"Deggendorf","type":"Landkreis"},"federalState":{"key":"09","name":"Bayern"}},{"name":"Südlicher Frauenberg","postalCode":"94491","locality":"Hengersberg","municipality":{"key":"09271125","name":"Hengersberg, M","type":"Markt"},"district":{"key":"09271","name":"Deggendorf","type":"Landkreis"},"federalState":{"key":"09","name":"Bayern"}},{"name":"Tannschachenstr.","postalCode":"94491","locality":"Hengersberg","municipality":{"key":"09271125","name":"Hengersberg, M","type":"Markt"},"district":{"key":"09271","name":"Deggendorf","type":"Landkreis"},"federalState":{"key":"09","name":"Bayern"}},{"name":"Tonstr.","postalCode":"94491","locality":"Hengersberg","municipality":{"key":"09271125","name":"Hengersberg, M","type":"Markt"},"district":{"key":"09271","name":"Deggendorf","type":"Landkreis"},"federalState":{"key":"09","name":"Bayern"}},{"name":"Unterfrohnstetten","postalCode":"94491","locality":"Hengersberg","municipality":{"key":"09271125","name":"Hengersberg, M","type":"Markt"},"district":{"key":"09271","name":"Deggendorf","type":"Landkreis"},"federalState":{"key":"09","name":"Bayern"}},{"name":"Unverdorbenweg","postalCode":"94491","locality":"Hengersberg","municipality":{"key":"09271125","name":"Hengersberg, M","type":"Markt"},"district":{"key":"09271","name":"Deggendorf","type":"Landkreis"},"federalState":{"key":"09","name":"Bayern"}},{"name":"VdK-Str.","postalCode":"94491","locality":"Hengersberg","municipality":{"key":"09271125","name":"Hengersberg, M","type":"Markt"},"district":{"key":"09271","name":"Deggendorf","type":"Landkreis"},"federalState":{"key":"09","name":"Bayern"}},{"name":"Vogelbühl","postalCode":"94491","locality":"Hengersberg","municipality":{"key":"09271125","name":"Hengersberg, M","type":"Markt"},"district":{"key":"09271","name":"Deggendorf","type":"Landkreis"},"federalState":{"key":"09","name":"Bayern"}},{"name":"Weingartlstr.","postalCode":"94491","locality":"Hengersberg","municipality":{"key":"09271125","name":"Hengersberg, M","type":"Markt"},"district":{"key":"09271","name":"Deggendorf","type":"Landkreis"},"federalState":{"key":"09","name":"Bayern"}},{"name":"Wiesenweg","postalCode":"94491","locality":"Hengersberg","municipality":{"key":"09271125","name":"Hengersberg, M","type":"Markt"},"district":{"key":"09271","name":"Deggendorf","type":"Landkreis"},"federalState":{"key":"09","name":"Bayern"}},{"name":"Willi-Weiß-Allee","postalCode":"94491","locality":"Hengersberg","municipality":{"key":"09271125","name":"Hengersberg, M","type":"Markt"},"district":{"key":"09271","name":"Deggendorf","type":"Landkreis"},"federalState":{"key":"09","name":"Bayern"}},{"name":"Winzerer Str.","postalCode":"94491","locality":"Hengersberg","municipality":{"key":"09271125","name":"Hengersberg, M","type":"Markt"},"district":{"key":"09271","name":"Deggendorf","type":"Landkreis"},"federalState":{"key":"09","name":"Bayern"}},{"name":"Xaver-Friedl-Str.","postalCode":"94469","locality":"Deggendorf","municipality":{"key":"09271119","name":"Deggendorf, GKSt","type":"Große_Kreisstadt"},"district":{"key":"09271","name":"Deggendorf","type":"Landkreis"},"federalState":{"key":"09","name":"Bayern"}},{"name":"Ziegelfeld","postalCode":"94491","locality":"Hengersberg","municipality":{"key":"09271125","name":"Hengersberg, M","type":"Markt"},"district":{"key":"09271","name":"Deggendorf","type":"Landkreis"},"federalState":{"key":"09","name":"Bayern"}},{"name":"Ziegelstr.","postalCode":"94491","locality":"Hengersberg","municipality":{"key":"09271125","name":"Hengersberg, M","type":"Markt"},"district":{"key":"09271","name":"Deggendorf","type":"Landkreis"},"federalState":{"key":"09","name":"Bayern"}},{"name":"Zilling","postalCode":"94491","locality":"Hengersberg","municipality":{"key":"09271125","name":"Hengersberg, M","type":"Markt"},"district":{"key":"09271","name":"Deggendorf","type":"Landkreis"},"federalState":{"key":"09","name":"Bayern"}},{"name":"Zollinger Weg","postalCode":"94491","locality":"Hengersberg","municipality":{"key":"09271125","name":"Hengersberg, M","type":"Markt"},"district":{"key":"09271","name":"Deggendorf","type":"Landkreis"},"federalState":{"key":"09","name":"Bayern"}},{"name":"Zum Sägewerk","postalCode":"94491","locality":"Hengersberg","municipality":{"key":"09271125","name":"Hengersberg, M","type":"Markt"},"district":{"key":"09271","name":"Deggendorf","type":"Landkreis"},"federalState":{"key":"09","name":"Bayern"}},{"name":"Zur Eiche","postalCode":"94491","locality":"Hengersberg","municipality":{"key":"09271125","name":"Hengersberg, M","type":"Markt"},"district":{"key":"09271","name":"Deggendorf","type":"Landkreis"},"federalState":{"key":"09","name":"Bayern"}},{"name":"Ölschlagweg","postalCode":"94469","locality":"Deggendorf","municipality":{"key":"09271119","name":"Deggendorf, GKSt","type":"Große_Kreisstadt"},"district":{"key":"09271","name":"Deggendorf","type":"Landkreis"},"federalState":{"key":"09","name":"Bayern"}},{"name":"Östlicher Stadtgraben","postalCode":"94469","locality":"Deggendorf","municipality":{"key":"09271119","name":"Deggendorf, GKSt","type":"Große_Kreisstadt"},"district":{"key":"09271","name":"Deggendorf","type":"Landkreis"},"federalState":{"key":"09","name":"Bayern"}},{"name":"Östliche Zwingergasse","postalCode":"94469","locality":"Deggendorf","municipality":{"key":"09271119","name":"Deggendorf, GKSt","type":"Große_Kreisstadt"},"district":{"key":"09271","name":"Deggendorf","type":"Landkreis"},"federalState":{"key":"09","name":"Bayern"}},]