[{"name":"Alter Weg","postalCode":"17322","locality":"Blankensee","municipality":{"key":"13075012","name":"Blankensee","type":"Kreisangehörige_Gemeinde"},"district":{"key":"13075","name":"Vorpommern-Greifswald","type":"Landkreis"},"federalState":{"key":"13","name":"Mecklenburg-Vorpommern"}},{"name":"Am Grünen Hang","postalCode":"17237","locality":"Blankensee","municipality":{"key":"13071011","name":"Blankensee","type":"Kreisangehörige_Gemeinde"},"district":{"key":"13071","name":"Mecklenburgische Seenplatte","type":"Landkreis"},"federalState":{"key":"13","name":"Mecklenburg-Vorpommern"}},{"name":"Am Kloster","postalCode":"17237","locality":"Blankensee","municipality":{"key":"13071011","name":"Blankensee","type":"Kreisangehörige_Gemeinde"},"district":{"key":"13071","name":"Mecklenburgische Seenplatte","type":"Landkreis"},"federalState":{"key":"13","name":"Mecklenburg-Vorpommern"}},{"name":"Am Ring","postalCode":"17237","locality":"Blankensee","municipality":{"key":"13071011","name":"Blankensee","type":"Kreisangehörige_Gemeinde"},"district":{"key":"13071","name":"Mecklenburgische Seenplatte","type":"Landkreis"},"federalState":{"key":"13","name":"Mecklenburg-Vorpommern"}},{"name":"Am Speicher","postalCode":"17237","locality":"Blankensee","municipality":{"key":"13071011","name":"Blankensee","type":"Kreisangehörige_Gemeinde"},"district":{"key":"13071","name":"Mecklenburgische Seenplatte","type":"Landkreis"},"federalState":{"key":"13","name":"Mecklenburg-Vorpommern"}},{"name":"Am Wanzkaer See","postalCode":"17237","locality":"Blankensee","municipality":{"key":"13071011","name":"Blankensee","type":"Kreisangehörige_Gemeinde"},"district":{"key":"13071","name":"Mecklenburgische Seenplatte","type":"Landkreis"},"federalState":{"key":"13","name":"Mecklenburg-Vorpommern"}},{"name":"An der Landstr.","postalCode":"17237","locality":"Blankensee","municipality":{"key":"13071011","name":"Blankensee","type":"Kreisangehörige_Gemeinde"},"district":{"key":"13071","name":"Mecklenburgische Seenplatte","type":"Landkreis"},"federalState":{"key":"13","name":"Mecklenburg-Vorpommern"}},{"name":"Ballwitzer Weg","postalCode":"17237","locality":"Blankensee","municipality":{"key":"13071011","name":"Blankensee","type":"Kreisangehörige_Gemeinde"},"district":{"key":"13071","name":"Mecklenburgische Seenplatte","type":"Landkreis"},"federalState":{"key":"13","name":"Mecklenburg-Vorpommern"}},{"name":"Baßberg","postalCode":"17322","locality":"Blankensee","municipality":{"key":"13075012","name":"Blankensee","type":"Kreisangehörige_Gemeinde"},"district":{"key":"13075","name":"Vorpommern-Greifswald","type":"Landkreis"},"federalState":{"key":"13","name":"Mecklenburg-Vorpommern"}},{"name":"Boocker Weg","postalCode":"17322","locality":"Blankensee","municipality":{"key":"13075012","name":"Blankensee","type":"Kreisangehörige_Gemeinde"},"district":{"key":"13075","name":"Vorpommern-Greifswald","type":"Landkreis"},"federalState":{"key":"13","name":"Mecklenburg-Vorpommern"}},{"name":"Brennereiweg","postalCode":"17322","locality":"Blankensee","municipality":{"key":"13075012","name":"Blankensee","type":"Kreisangehörige_Gemeinde"},"district":{"key":"13075","name":"Vorpommern-Greifswald","type":"Landkreis"},"federalState":{"key":"13","name":"Mecklenburg-Vorpommern"}},{"name":"Büdnerfeld (Zum Semmelberg)","postalCode":"17322","locality":"Blankensee","municipality":{"key":"13075012","name":"Blankensee","type":"Kreisangehörige_Gemeinde"},"district":{"key":"13075","name":"Vorpommern-Greifswald","type":"Landkreis"},"federalState":{"key":"13","name":"Mecklenburg-Vorpommern"}},{"name":"Dorfplatz","postalCode":"17237","locality":"Blankensee","municipality":{"key":"13071011","name":"Blankensee","type":"Kreisangehörige_Gemeinde"},"district":{"key":"13071","name":"Mecklenburgische Seenplatte","type":"Landkreis"},"federalState":{"key":"13","name":"Mecklenburg-Vorpommern"}},{"name":"Dorfstr.","postalCode":"17237","locality":"Blankensee","municipality":{"key":"13071011","name":"Blankensee","type":"Kreisangehörige_Gemeinde"},"district":{"key":"13071","name":"Mecklenburgische Seenplatte","type":"Landkreis"},"federalState":{"key":"13","name":"Mecklenburg-Vorpommern"}},{"name":"Dorfstr.","postalCode":"17322","locality":"Blankensee","municipality":{"key":"13075012","name":"Blankensee","type":"Kreisangehörige_Gemeinde"},"district":{"key":"13075","name":"Vorpommern-Greifswald","type":"Landkreis"},"federalState":{"key":"13","name":"Mecklenburg-Vorpommern"}},{"name":"Eisenbahnradweg","postalCode":"17237","locality":"Blankensee","municipality":{"key":"13071011","name":"Blankensee","type":"Kreisangehörige_Gemeinde"},"district":{"key":"13071","name":"Mecklenburgische Seenplatte","type":"Landkreis"},"federalState":{"key":"13","name":"Mecklenburg-Vorpommern"}},{"name":"Fischerweg","postalCode":"17237","locality":"Blankensee","municipality":{"key":"13071011","name":"Blankensee","type":"Kreisangehörige_Gemeinde"},"district":{"key":"13071","name":"Mecklenburgische Seenplatte","type":"Landkreis"},"federalState":{"key":"13","name":"Mecklenburg-Vorpommern"}},{"name":"Föhrtweg","postalCode":"17322","locality":"Blankensee","municipality":{"key":"13075012","name":"Blankensee","type":"Kreisangehörige_Gemeinde"},"district":{"key":"13075","name":"Vorpommern-Greifswald","type":"Landkreis"},"federalState":{"key":"13","name":"Mecklenburg-Vorpommern"}},{"name":"Friedrichsfelde","postalCode":"17237","locality":"Blankensee","municipality":{"key":"13071011","name":"Blankensee","type":"Kreisangehörige_Gemeinde"},"district":{"key":"13071","name":"Mecklenburgische Seenplatte","type":"Landkreis"},"federalState":{"key":"13","name":"Mecklenburg-Vorpommern"}},{"name":"Fuchsweg","postalCode":"17237","locality":"Blankensee","municipality":{"key":"13071011","name":"Blankensee","type":"Kreisangehörige_Gemeinde"},"district":{"key":"13071","name":"Mecklenburgische Seenplatte","type":"Landkreis"},"federalState":{"key":"13","name":"Mecklenburg-Vorpommern"}},{"name":"Gemeindeplatz der Kunstgemeinde Pampsee","postalCode":"17322","locality":"Blankensee","municipality":{"key":"13075012","name":"Blankensee","type":"Kreisangehörige_Gemeinde"},"district":{"key":"13075","name":"Vorpommern-Greifswald","type":"Landkreis"},"federalState":{"key":"13","name":"Mecklenburg-Vorpommern"}},{"name":"Groß Schönfeld","postalCode":"17237","locality":"Blankensee","municipality":{"key":"13071011","name":"Blankensee","type":"Kreisangehörige_Gemeinde"},"district":{"key":"13071","name":"Mecklenburgische Seenplatte","type":"Landkreis"},"federalState":{"key":"13","name":"Mecklenburg-Vorpommern"}},{"name":"Hasenhof","postalCode":"17237","locality":"Blankensee","municipality":{"key":"13071011","name":"Blankensee","type":"Kreisangehörige_Gemeinde"},"district":{"key":"13071","name":"Mecklenburgische Seenplatte","type":"Landkreis"},"federalState":{"key":"13","name":"Mecklenburg-Vorpommern"}},{"name":"Hauptstr.","postalCode":"17237","locality":"Blankensee","municipality":{"key":"13071011","name":"Blankensee","type":"Kreisangehörige_Gemeinde"},"district":{"key":"13071","name":"Mecklenburgische Seenplatte","type":"Landkreis"},"federalState":{"key":"13","name":"Mecklenburg-Vorpommern"}},{"name":"Hoffelde","postalCode":"17237","locality":"Blankensee","municipality":{"key":"13071011","name":"Blankensee","type":"Kreisangehörige_Gemeinde"},"district":{"key":"13071","name":"Mecklenburgische Seenplatte","type":"Landkreis"},"federalState":{"key":"13","name":"Mecklenburg-Vorpommern"}},{"name":"Inselweg","postalCode":"17237","locality":"Blankensee","municipality":{"key":"13071011","name":"Blankensee","type":"Kreisangehörige_Gemeinde"},"district":{"key":"13071","name":"Mecklenburgische Seenplatte","type":"Landkreis"},"federalState":{"key":"13","name":"Mecklenburg-Vorpommern"}},{"name":"Kirchstr.","postalCode":"17237","locality":"Blankensee","municipality":{"key":"13071011","name":"Blankensee","type":"Kreisangehörige_Gemeinde"},"district":{"key":"13071","name":"Mecklenburgische Seenplatte","type":"Landkreis"},"federalState":{"key":"13","name":"Mecklenburg-Vorpommern"}},{"name":"Koppelweg","postalCode":"17237","locality":"Blankensee","municipality":{"key":"13071011","name":"Blankensee","type":"Kreisangehörige_Gemeinde"},"district":{"key":"13071","name":"Mecklenburgische Seenplatte","type":"Landkreis"},"federalState":{"key":"13","name":"Mecklenburg-Vorpommern"}},{"name":"Lindenstr.","postalCode":"17237","locality":"Blankensee","municipality":{"key":"13071011","name":"Blankensee","type":"Kreisangehörige_Gemeinde"},"district":{"key":"13071","name":"Mecklenburgische Seenplatte","type":"Landkreis"},"federalState":{"key":"13","name":"Mecklenburg-Vorpommern"}},{"name":"Lindenstr.","postalCode":"17322","locality":"Blankensee","municipality":{"key":"13075012","name":"Blankensee","type":"Kreisangehörige_Gemeinde"},"district":{"key":"13075","name":"Vorpommern-Greifswald","type":"Landkreis"},"federalState":{"key":"13","name":"Mecklenburg-Vorpommern"}},{"name":"Mittelweg","postalCode":"17322","locality":"Blankensee","municipality":{"key":"13075012","name":"Blankensee","type":"Kreisangehörige_Gemeinde"},"district":{"key":"13075","name":"Vorpommern-Greifswald","type":"Landkreis"},"federalState":{"key":"13","name":"Mecklenburg-Vorpommern"}},{"name":"Mühlenweg","postalCode":"17322","locality":"Blankensee","municipality":{"key":"13075012","name":"Blankensee","type":"Kreisangehörige_Gemeinde"},"district":{"key":"13075","name":"Vorpommern-Greifswald","type":"Landkreis"},"federalState":{"key":"13","name":"Mecklenburg-Vorpommern"}},{"name":"Müllershöhe","postalCode":"17322","locality":"Blankensee","municipality":{"key":"13075012","name":"Blankensee","type":"Kreisangehörige_Gemeinde"},"district":{"key":"13075","name":"Vorpommern-Greifswald","type":"Landkreis"},"federalState":{"key":"13","name":"Mecklenburg-Vorpommern"}},{"name":"Neuhof","postalCode":"17237","locality":"Blankensee","municipality":{"key":"13071011","name":"Blankensee","type":"Kreisangehörige_Gemeinde"},"district":{"key":"13071","name":"Mecklenburgische Seenplatte","type":"Landkreis"},"federalState":{"key":"13","name":"Mecklenburg-Vorpommern"}},{"name":"Ollendorfer Weg","postalCode":"17237","locality":"Blankensee","municipality":{"key":"13071011","name":"Blankensee","type":"Kreisangehörige_Gemeinde"},"district":{"key":"13071","name":"Mecklenburgische Seenplatte","type":"Landkreis"},"federalState":{"key":"13","name":"Mecklenburg-Vorpommern"}},{"name":"Pampow","postalCode":"17322","locality":"Blankensee","municipality":{"key":"13075012","name":"Blankensee","type":"Kreisangehörige_Gemeinde"},"district":{"key":"13075","name":"Vorpommern-Greifswald","type":"Landkreis"},"federalState":{"key":"13","name":"Mecklenburg-Vorpommern"}},{"name":"Pappelsiedlung","postalCode":"17237","locality":"Blankensee","municipality":{"key":"13071011","name":"Blankensee","type":"Kreisangehörige_Gemeinde"},"district":{"key":"13071","name":"Mecklenburgische Seenplatte","type":"Landkreis"},"federalState":{"key":"13","name":"Mecklenburg-Vorpommern"}},{"name":"Plöwener Weg","postalCode":"17322","locality":"Blankensee","municipality":{"key":"13075012","name":"Blankensee","type":"Kreisangehörige_Gemeinde"},"district":{"key":"13075","name":"Vorpommern-Greifswald","type":"Landkreis"},"federalState":{"key":"13","name":"Mecklenburg-Vorpommern"}},{"name":"Rollenhagen","postalCode":"17237","locality":"Blankensee","municipality":{"key":"13071011","name":"Blankensee","type":"Kreisangehörige_Gemeinde"},"district":{"key":"13071","name":"Mecklenburgische Seenplatte","type":"Landkreis"},"federalState":{"key":"13","name":"Mecklenburg-Vorpommern"}},{"name":"Schulstr.","postalCode":"17237","locality":"Blankensee","municipality":{"key":"13071011","name":"Blankensee","type":"Kreisangehörige_Gemeinde"},"district":{"key":"13071","name":"Mecklenburgische Seenplatte","type":"Landkreis"},"federalState":{"key":"13","name":"Mecklenburg-Vorpommern"}},{"name":"Siedlung","postalCode":"17322","locality":"Blankensee","municipality":{"key":"13075012","name":"Blankensee","type":"Kreisangehörige_Gemeinde"},"district":{"key":"13075","name":"Vorpommern-Greifswald","type":"Landkreis"},"federalState":{"key":"13","name":"Mecklenburg-Vorpommern"}},{"name":"Siedlungsring","postalCode":"17237","locality":"Blankensee","municipality":{"key":"13071011","name":"Blankensee","type":"Kreisangehörige_Gemeinde"},"district":{"key":"13071","name":"Mecklenburgische Seenplatte","type":"Landkreis"},"federalState":{"key":"13","name":"Mecklenburg-Vorpommern"}},{"name":"Stützpunktweg","postalCode":"17322","locality":"Blankensee","municipality":{"key":"13075012","name":"Blankensee","type":"Kreisangehörige_Gemeinde"},"district":{"key":"13075","name":"Vorpommern-Greifswald","type":"Landkreis"},"federalState":{"key":"13","name":"Mecklenburg-Vorpommern"}},{"name":"Tannenhof","postalCode":"17237","locality":"Blankensee","municipality":{"key":"13071011","name":"Blankensee","type":"Kreisangehörige_Gemeinde"},"district":{"key":"13071","name":"Mecklenburgische Seenplatte","type":"Landkreis"},"federalState":{"key":"13","name":"Mecklenburg-Vorpommern"}},{"name":"Tiedtshof","postalCode":"17237","locality":"Blankensee","municipality":{"key":"13071011","name":"Blankensee","type":"Kreisangehörige_Gemeinde"},"district":{"key":"13071","name":"Mecklenburgische Seenplatte","type":"Landkreis"},"federalState":{"key":"13","name":"Mecklenburg-Vorpommern"}},{"name":"Trockenwerk","postalCode":"17237","locality":"Blankensee","municipality":{"key":"13071011","name":"Blankensee","type":"Kreisangehörige_Gemeinde"},"district":{"key":"13071","name":"Mecklenburgische Seenplatte","type":"Landkreis"},"federalState":{"key":"13","name":"Mecklenburg-Vorpommern"}},{"name":"Uferweg","postalCode":"17237","locality":"Blankensee","municipality":{"key":"13071011","name":"Blankensee","type":"Kreisangehörige_Gemeinde"},"district":{"key":"13071","name":"Mecklenburgische Seenplatte","type":"Landkreis"},"federalState":{"key":"13","name":"Mecklenburg-Vorpommern"}},{"name":"Warbender Str.","postalCode":"17237","locality":"Blankensee","municipality":{"key":"13071011","name":"Blankensee","type":"Kreisangehörige_Gemeinde"},"district":{"key":"13071","name":"Mecklenburgische Seenplatte","type":"Landkreis"},"federalState":{"key":"13","name":"Mecklenburg-Vorpommern"}},{"name":"Wasserwerkweg","postalCode":"17322","locality":"Blankensee","municipality":{"key":"13075012","name":"Blankensee","type":"Kreisangehörige_Gemeinde"},"district":{"key":"13075","name":"Vorpommern-Greifswald","type":"Landkreis"},"federalState":{"key":"13","name":"Mecklenburg-Vorpommern"}},{"name":"Watzkendorfer Str.","postalCode":"17237","locality":"Blankensee","municipality":{"key":"13071011","name":"Blankensee","type":"Kreisangehörige_Gemeinde"},"district":{"key":"13071","name":"Mecklenburgische Seenplatte","type":"Landkreis"},"federalState":{"key":"13","name":"Mecklenburg-Vorpommern"}},{"name":"Zum Achterfeld","postalCode":"17322","locality":"Blankensee","municipality":{"key":"13075012","name":"Blankensee","type":"Kreisangehörige_Gemeinde"},"district":{"key":"13075","name":"Vorpommern-Greifswald","type":"Landkreis"},"federalState":{"key":"13","name":"Mecklenburg-Vorpommern"}},{"name":"Zum Mühlenbach","postalCode":"17237","locality":"Blankensee","municipality":{"key":"13071011","name":"Blankensee","type":"Kreisangehörige_Gemeinde"},"district":{"key":"13071","name":"Mecklenburgische Seenplatte","type":"Landkreis"},"federalState":{"key":"13","name":"Mecklenburg-Vorpommern"}},]