[{"name":"Ahornbogen","postalCode":"25899","locality":"Niebüll","municipality":{"key":"01054088","name":"Niebüll, Stadt","type":"Stadt"},"district":{"key":"01054","name":"Nordfriesland","type":"Kreis"},"federalState":{"key":"01","name":"Schleswig-Holstein"}},{"name":"Albrecht-Johannsen-Str.","postalCode":"25899","locality":"Niebüll","municipality":{"key":"01054088","name":"Niebüll, Stadt","type":"Stadt"},"district":{"key":"01054","name":"Nordfriesland","type":"Kreis"},"federalState":{"key":"01","name":"Schleswig-Holstein"}},{"name":"Alex-Eckener-Weg","postalCode":"25899","locality":"Niebüll","municipality":{"key":"01054088","name":"Niebüll, Stadt","type":"Stadt"},"district":{"key":"01054","name":"Nordfriesland","type":"Kreis"},"federalState":{"key":"01","name":"Schleswig-Holstein"}},{"name":"Alte Schulstr.","postalCode":"25899","locality":"Niebüll","municipality":{"key":"01054088","name":"Niebüll, Stadt","type":"Stadt"},"district":{"key":"01054","name":"Nordfriesland","type":"Kreis"},"federalState":{"key":"01","name":"Schleswig-Holstein"}},{"name":"Alwin-Lensch-Str.","postalCode":"25899","locality":"Niebüll","municipality":{"key":"01054088","name":"Niebüll, Stadt","type":"Stadt"},"district":{"key":"01054","name":"Nordfriesland","type":"Kreis"},"federalState":{"key":"01","name":"Schleswig-Holstein"}},{"name":"Amrumer Weg","postalCode":"25899","locality":"Niebüll","municipality":{"key":"01054088","name":"Niebüll, Stadt","type":"Stadt"},"district":{"key":"01054","name":"Nordfriesland","type":"Kreis"},"federalState":{"key":"01","name":"Schleswig-Holstein"}},{"name":"Am Wang","postalCode":"25899","locality":"Niebüll","municipality":{"key":"01054088","name":"Niebüll, Stadt","type":"Stadt"},"district":{"key":"01054","name":"Nordfriesland","type":"Kreis"},"federalState":{"key":"01","name":"Schleswig-Holstein"}},{"name":"Andreas-Christiansen-Str.","postalCode":"25899","locality":"Niebüll","municipality":{"key":"01054088","name":"Niebüll, Stadt","type":"Stadt"},"district":{"key":"01054","name":"Nordfriesland","type":"Kreis"},"federalState":{"key":"01","name":"Schleswig-Holstein"}},{"name":"Aventofter Str.","postalCode":"25899","locality":"Niebüll","municipality":{"key":"01054088","name":"Niebüll, Stadt","type":"Stadt"},"district":{"key":"01054","name":"Nordfriesland","type":"Kreis"},"federalState":{"key":"01","name":"Schleswig-Holstein"}},{"name":"Bachstelzenring","postalCode":"25899","locality":"Niebüll","municipality":{"key":"01054088","name":"Niebüll, Stadt","type":"Stadt"},"district":{"key":"01054","name":"Nordfriesland","type":"Kreis"},"federalState":{"key":"01","name":"Schleswig-Holstein"}},{"name":"Bäderstr.","postalCode":"25899","locality":"Niebüll","municipality":{"key":"01054088","name":"Niebüll, Stadt","type":"Stadt"},"district":{"key":"01054","name":"Nordfriesland","type":"Kreis"},"federalState":{"key":"01","name":"Schleswig-Holstein"}},{"name":"Bahnhofstr.","postalCode":"25899","locality":"Niebüll","municipality":{"key":"01054088","name":"Niebüll, Stadt","type":"Stadt"},"district":{"key":"01054","name":"Nordfriesland","type":"Kreis"},"federalState":{"key":"01","name":"Schleswig-Holstein"}},{"name":"Baiersweg","postalCode":"25899","locality":"Niebüll","municipality":{"key":"01054088","name":"Niebüll, Stadt","type":"Stadt"},"district":{"key":"01054","name":"Nordfriesland","type":"Kreis"},"federalState":{"key":"01","name":"Schleswig-Holstein"}},{"name":"Berliner Ring","postalCode":"25899","locality":"Niebüll","municipality":{"key":"01054088","name":"Niebüll, Stadt","type":"Stadt"},"district":{"key":"01054","name":"Nordfriesland","type":"Kreis"},"federalState":{"key":"01","name":"Schleswig-Holstein"}},{"name":"Bilkstr.","postalCode":"25899","locality":"Niebüll","municipality":{"key":"01054088","name":"Niebüll, Stadt","type":"Stadt"},"district":{"key":"01054","name":"Nordfriesland","type":"Kreis"},"federalState":{"key":"01","name":"Schleswig-Holstein"}},{"name":"Birkenweg","postalCode":"25899","locality":"Niebüll","municipality":{"key":"01054088","name":"Niebüll, Stadt","type":"Stadt"},"district":{"key":"01054","name":"Nordfriesland","type":"Kreis"},"federalState":{"key":"01","name":"Schleswig-Holstein"}},{"name":"Blinge","postalCode":"25899","locality":"Niebüll","municipality":{"key":"01054088","name":"Niebüll, Stadt","type":"Stadt"},"district":{"key":"01054","name":"Nordfriesland","type":"Kreis"},"federalState":{"key":"01","name":"Schleswig-Holstein"}},{"name":"Böhmestr.","postalCode":"25899","locality":"Niebüll","municipality":{"key":"01054088","name":"Niebüll, Stadt","type":"Stadt"},"district":{"key":"01054","name":"Nordfriesland","type":"Kreis"},"federalState":{"key":"01","name":"Schleswig-Holstein"}},{"name":"Bosbüller Weg","postalCode":"25899","locality":"Niebüll","municipality":{"key":"01054088","name":"Niebüll, Stadt","type":"Stadt"},"district":{"key":"01054","name":"Nordfriesland","type":"Kreis"},"federalState":{"key":"01","name":"Schleswig-Holstein"}},{"name":"Brandkuhle","postalCode":"25899","locality":"Niebüll","municipality":{"key":"01054088","name":"Niebüll, Stadt","type":"Stadt"},"district":{"key":"01054","name":"Nordfriesland","type":"Kreis"},"federalState":{"key":"01","name":"Schleswig-Holstein"}},{"name":"Breslauer Str.","postalCode":"25899","locality":"Niebüll","municipality":{"key":"01054088","name":"Niebüll, Stadt","type":"Stadt"},"district":{"key":"01054","name":"Nordfriesland","type":"Kreis"},"federalState":{"key":"01","name":"Schleswig-Holstein"}},{"name":"Buchenweg","postalCode":"25899","locality":"Niebüll","municipality":{"key":"01054088","name":"Niebüll, Stadt","type":"Stadt"},"district":{"key":"01054","name":"Nordfriesland","type":"Kreis"},"federalState":{"key":"01","name":"Schleswig-Holstein"}},{"name":"Busch-Johannsen-Str.","postalCode":"25899","locality":"Niebüll","municipality":{"key":"01054088","name":"Niebüll, Stadt","type":"Stadt"},"district":{"key":"01054","name":"Nordfriesland","type":"Kreis"},"federalState":{"key":"01","name":"Schleswig-Holstein"}},{"name":"Bussardweg","postalCode":"25899","locality":"Niebüll","municipality":{"key":"01054088","name":"Niebüll, Stadt","type":"Stadt"},"district":{"key":"01054","name":"Nordfriesland","type":"Kreis"},"federalState":{"key":"01","name":"Schleswig-Holstein"}},{"name":"Butterfennenweg","postalCode":"25899","locality":"Niebüll","municipality":{"key":"01054088","name":"Niebüll, Stadt","type":"Stadt"},"district":{"key":"01054","name":"Nordfriesland","type":"Kreis"},"federalState":{"key":"01","name":"Schleswig-Holstein"}},{"name":"Camminer Str.","postalCode":"25899","locality":"Niebüll","municipality":{"key":"01054088","name":"Niebüll, Stadt","type":"Stadt"},"district":{"key":"01054","name":"Nordfriesland","type":"Kreis"},"federalState":{"key":"01","name":"Schleswig-Holstein"}},{"name":"Carl-Ludwig-Jessen-Str.","postalCode":"25899","locality":"Niebüll","municipality":{"key":"01054088","name":"Niebüll, Stadt","type":"Stadt"},"district":{"key":"01054","name":"Nordfriesland","type":"Kreis"},"federalState":{"key":"01","name":"Schleswig-Holstein"}},{"name":"Claudiusstr.","postalCode":"25899","locality":"Niebüll","municipality":{"key":"01054088","name":"Niebüll, Stadt","type":"Stadt"},"district":{"key":"01054","name":"Nordfriesland","type":"Kreis"},"federalState":{"key":"01","name":"Schleswig-Holstein"}},{"name":"Deezbüll Burg","postalCode":"25899","locality":"Niebüll","municipality":{"key":"01054088","name":"Niebüll, Stadt","type":"Stadt"},"district":{"key":"01054","name":"Nordfriesland","type":"Kreis"},"federalState":{"key":"01","name":"Schleswig-Holstein"}},{"name":"Deezbüll Deich","postalCode":"25899","locality":"Niebüll","municipality":{"key":"01054088","name":"Niebüll, Stadt","type":"Stadt"},"district":{"key":"01054","name":"Nordfriesland","type":"Kreis"},"federalState":{"key":"01","name":"Schleswig-Holstein"}},{"name":"Deezbüller Str.","postalCode":"25899","locality":"Niebüll","municipality":{"key":"01054088","name":"Niebüll, Stadt","type":"Stadt"},"district":{"key":"01054","name":"Nordfriesland","type":"Kreis"},"federalState":{"key":"01","name":"Schleswig-Holstein"}},{"name":"Deichstr.","postalCode":"25899","locality":"Niebüll","municipality":{"key":"01054088","name":"Niebüll, Stadt","type":"Stadt"},"district":{"key":"01054","name":"Nordfriesland","type":"Kreis"},"federalState":{"key":"01","name":"Schleswig-Holstein"}},{"name":"Dohlenweg","postalCode":"25899","locality":"Niebüll","municipality":{"key":"01054088","name":"Niebüll, Stadt","type":"Stadt"},"district":{"key":"01054","name":"Nordfriesland","type":"Kreis"},"federalState":{"key":"01","name":"Schleswig-Holstein"}},{"name":"Drosselweg","postalCode":"25899","locality":"Niebüll","municipality":{"key":"01054088","name":"Niebüll, Stadt","type":"Stadt"},"district":{"key":"01054","name":"Nordfriesland","type":"Kreis"},"federalState":{"key":"01","name":"Schleswig-Holstein"}},{"name":"Eichenweg","postalCode":"25899","locality":"Niebüll","municipality":{"key":"01054088","name":"Niebüll, Stadt","type":"Stadt"},"district":{"key":"01054","name":"Nordfriesland","type":"Kreis"},"federalState":{"key":"01","name":"Schleswig-Holstein"}},{"name":"Elsterweg","postalCode":"25899","locality":"Niebüll","municipality":{"key":"01054088","name":"Niebüll, Stadt","type":"Stadt"},"district":{"key":"01054","name":"Nordfriesland","type":"Kreis"},"federalState":{"key":"01","name":"Schleswig-Holstein"}},{"name":"Emil-Nolde-Str.","postalCode":"25899","locality":"Niebüll","municipality":{"key":"01054088","name":"Niebüll, Stadt","type":"Stadt"},"district":{"key":"01054","name":"Nordfriesland","type":"Kreis"},"federalState":{"key":"01","name":"Schleswig-Holstein"}},{"name":"Erlenweg","postalCode":"25899","locality":"Niebüll","municipality":{"key":"01054088","name":"Niebüll, Stadt","type":"Stadt"},"district":{"key":"01054","name":"Nordfriesland","type":"Kreis"},"federalState":{"key":"01","name":"Schleswig-Holstein"}},{"name":"Eschenweg","postalCode":"25899","locality":"Niebüll","municipality":{"key":"01054088","name":"Niebüll, Stadt","type":"Stadt"},"district":{"key":"01054","name":"Nordfriesland","type":"Kreis"},"federalState":{"key":"01","name":"Schleswig-Holstein"}},{"name":"Falkenweg","postalCode":"25899","locality":"Niebüll","municipality":{"key":"01054088","name":"Niebüll, Stadt","type":"Stadt"},"district":{"key":"01054","name":"Nordfriesland","type":"Kreis"},"federalState":{"key":"01","name":"Schleswig-Holstein"}},{"name":"Fasanenweg","postalCode":"25899","locality":"Niebüll","municipality":{"key":"01054088","name":"Niebüll, Stadt","type":"Stadt"},"district":{"key":"01054","name":"Nordfriesland","type":"Kreis"},"federalState":{"key":"01","name":"Schleswig-Holstein"}},{"name":"Fliederbogen","postalCode":"25899","locality":"Niebüll","municipality":{"key":"01054088","name":"Niebüll, Stadt","type":"Stadt"},"district":{"key":"01054","name":"Nordfriesland","type":"Kreis"},"federalState":{"key":"01","name":"Schleswig-Holstein"}},{"name":"Friedrich-Paulsen-Str.","postalCode":"25899","locality":"Niebüll","municipality":{"key":"01054088","name":"Niebüll, Stadt","type":"Stadt"},"district":{"key":"01054","name":"Nordfriesland","type":"Kreis"},"federalState":{"key":"01","name":"Schleswig-Holstein"}},{"name":"Friesenweg","postalCode":"25899","locality":"Niebüll","municipality":{"key":"01054088","name":"Niebüll, Stadt","type":"Stadt"},"district":{"key":"01054","name":"Nordfriesland","type":"Kreis"},"federalState":{"key":"01","name":"Schleswig-Holstein"}},{"name":"Friesische Str.","postalCode":"25899","locality":"Niebüll","municipality":{"key":"01054088","name":"Niebüll, Stadt","type":"Stadt"},"district":{"key":"01054","name":"Nordfriesland","type":"Kreis"},"federalState":{"key":"01","name":"Schleswig-Holstein"}},{"name":"Gartenstr.","postalCode":"25899","locality":"Niebüll","municipality":{"key":"01054088","name":"Niebüll, Stadt","type":"Stadt"},"district":{"key":"01054","name":"Nordfriesland","type":"Kreis"},"federalState":{"key":"01","name":"Schleswig-Holstein"}},{"name":"Gather Landstr.","postalCode":"25899","locality":"Niebüll","municipality":{"key":"01054088","name":"Niebüll, Stadt","type":"Stadt"},"district":{"key":"01054","name":"Nordfriesland","type":"Kreis"},"federalState":{"key":"01","name":"Schleswig-Holstein"}},{"name":"Gerberstr.","postalCode":"25899","locality":"Niebüll","municipality":{"key":"01054088","name":"Niebüll, Stadt","type":"Stadt"},"district":{"key":"01054","name":"Nordfriesland","type":"Kreis"},"federalState":{"key":"01","name":"Schleswig-Holstein"}},{"name":"Gersteweg","postalCode":"25899","locality":"Niebüll","municipality":{"key":"01054088","name":"Niebüll, Stadt","type":"Stadt"},"district":{"key":"01054","name":"Nordfriesland","type":"Kreis"},"federalState":{"key":"01","name":"Schleswig-Holstein"}},{"name":"Gotteskoogdeich","postalCode":"25899","locality":"Niebüll","municipality":{"key":"01054088","name":"Niebüll, Stadt","type":"Stadt"},"district":{"key":"01054","name":"Nordfriesland","type":"Kreis"},"federalState":{"key":"01","name":"Schleswig-Holstein"}},{"name":"Gotteskoogstr.","postalCode":"25899","locality":"Niebüll","municipality":{"key":"01054088","name":"Niebüll, Stadt","type":"Stadt"},"district":{"key":"01054","name":"Nordfriesland","type":"Kreis"},"federalState":{"key":"01","name":"Schleswig-Holstein"}},{"name":"Graureiherweg","postalCode":"25899","locality":"Niebüll","municipality":{"key":"01054088","name":"Niebüll, Stadt","type":"Stadt"},"district":{"key":"01054","name":"Nordfriesland","type":"Kreis"},"federalState":{"key":"01","name":"Schleswig-Holstein"}},{"name":"Gröder Weg","postalCode":"25899","locality":"Niebüll","municipality":{"key":"01054088","name":"Niebüll, Stadt","type":"Stadt"},"district":{"key":"01054","name":"Nordfriesland","type":"Kreis"},"federalState":{"key":"01","name":"Schleswig-Holstein"}},{"name":"Grüner Weg","postalCode":"25899","locality":"Niebüll","municipality":{"key":"01054088","name":"Niebüll, Stadt","type":"Stadt"},"district":{"key":"01054","name":"Nordfriesland","type":"Kreis"},"federalState":{"key":"01","name":"Schleswig-Holstein"}},{"name":"Habelweg","postalCode":"25899","locality":"Niebüll","municipality":{"key":"01054088","name":"Niebüll, Stadt","type":"Stadt"},"district":{"key":"01054","name":"Nordfriesland","type":"Kreis"},"federalState":{"key":"01","name":"Schleswig-Holstein"}},{"name":"Habichtweg","postalCode":"25899","locality":"Niebüll","municipality":{"key":"01054088","name":"Niebüll, Stadt","type":"Stadt"},"district":{"key":"01054","name":"Nordfriesland","type":"Kreis"},"federalState":{"key":"01","name":"Schleswig-Holstein"}},{"name":"Haferweg","postalCode":"25899","locality":"Niebüll","municipality":{"key":"01054088","name":"Niebüll, Stadt","type":"Stadt"},"district":{"key":"01054","name":"Nordfriesland","type":"Kreis"},"federalState":{"key":"01","name":"Schleswig-Holstein"}},{"name":"Hans-Momsen-Str.","postalCode":"25899","locality":"Niebüll","municipality":{"key":"01054088","name":"Niebüll, Stadt","type":"Stadt"},"district":{"key":"01054","name":"Nordfriesland","type":"Kreis"},"federalState":{"key":"01","name":"Schleswig-Holstein"}},{"name":"Hans-Peter-Feddersen-Str.","postalCode":"25899","locality":"Niebüll","municipality":{"key":"01054088","name":"Niebüll, Stadt","type":"Stadt"},"district":{"key":"01054","name":"Nordfriesland","type":"Kreis"},"federalState":{"key":"01","name":"Schleswig-Holstein"}},{"name":"Hans-Plutta-Weg","postalCode":"25899","locality":"Niebüll","municipality":{"key":"01054088","name":"Niebüll, Stadt","type":"Stadt"},"district":{"key":"01054","name":"Nordfriesland","type":"Kreis"},"federalState":{"key":"01","name":"Schleswig-Holstein"}},{"name":"Hauptstr.","postalCode":"25899","locality":"Niebüll","municipality":{"key":"01054088","name":"Niebüll, Stadt","type":"Stadt"},"district":{"key":"01054","name":"Nordfriesland","type":"Kreis"},"federalState":{"key":"01","name":"Schleswig-Holstein"}},{"name":"Hebbelstr.","postalCode":"25899","locality":"Niebüll","municipality":{"key":"01054088","name":"Niebüll, Stadt","type":"Stadt"},"district":{"key":"01054","name":"Nordfriesland","type":"Kreis"},"federalState":{"key":"01","name":"Schleswig-Holstein"}},{"name":"Heidenschaftsweg","postalCode":"25899","locality":"Niebüll","municipality":{"key":"01054088","name":"Niebüll, Stadt","type":"Stadt"},"district":{"key":"01054","name":"Nordfriesland","type":"Kreis"},"federalState":{"key":"01","name":"Schleswig-Holstein"}},{"name":"Heisterweg","postalCode":"25899","locality":"Niebüll","municipality":{"key":"01054088","name":"Niebüll, Stadt","type":"Stadt"},"district":{"key":"01054","name":"Nordfriesland","type":"Kreis"},"federalState":{"key":"01","name":"Schleswig-Holstein"}},{"name":"Holunderring","postalCode":"25899","locality":"Niebüll","municipality":{"key":"01054088","name":"Niebüll, Stadt","type":"Stadt"},"district":{"key":"01054","name":"Nordfriesland","type":"Kreis"},"federalState":{"key":"01","name":"Schleswig-Holstein"}},{"name":"Hooger Str.","postalCode":"25899","locality":"Niebüll","municipality":{"key":"01054088","name":"Niebüll, Stadt","type":"Stadt"},"district":{"key":"01054","name":"Nordfriesland","type":"Kreis"},"federalState":{"key":"01","name":"Schleswig-Holstein"}},{"name":"Hungerfennenweg","postalCode":"25899","locality":"Niebüll","municipality":{"key":"01054088","name":"Niebüll, Stadt","type":"Stadt"},"district":{"key":"01054","name":"Nordfriesland","type":"Kreis"},"federalState":{"key":"01","name":"Schleswig-Holstein"}},{"name":"Im Kornkoog","postalCode":"25899","locality":"Niebüll","municipality":{"key":"01054088","name":"Niebüll, Stadt","type":"Stadt"},"district":{"key":"01054","name":"Nordfriesland","type":"Kreis"},"federalState":{"key":"01","name":"Schleswig-Holstein"}},{"name":"Ingwer-Dethlefsen-Str.","postalCode":"25899","locality":"Niebüll","municipality":{"key":"01054088","name":"Niebüll, Stadt","type":"Stadt"},"district":{"key":"01054","name":"Nordfriesland","type":"Kreis"},"federalState":{"key":"01","name":"Schleswig-Holstein"}},{"name":"Jahnstr.","postalCode":"25899","locality":"Niebüll","municipality":{"key":"01054088","name":"Niebüll, Stadt","type":"Stadt"},"district":{"key":"01054","name":"Nordfriesland","type":"Kreis"},"federalState":{"key":"01","name":"Schleswig-Holstein"}},{"name":"Kantstr.","postalCode":"25899","locality":"Niebüll","municipality":{"key":"01054088","name":"Niebüll, Stadt","type":"Stadt"},"district":{"key":"01054","name":"Nordfriesland","type":"Kreis"},"federalState":{"key":"01","name":"Schleswig-Holstein"}},{"name":"Karl-Friedrich-Str.","postalCode":"25899","locality":"Niebüll","municipality":{"key":"01054088","name":"Niebüll, Stadt","type":"Stadt"},"district":{"key":"01054","name":"Nordfriesland","type":"Kreis"},"federalState":{"key":"01","name":"Schleswig-Holstein"}},{"name":"Kastanienweg","postalCode":"25899","locality":"Niebüll","municipality":{"key":"01054088","name":"Niebüll, Stadt","type":"Stadt"},"district":{"key":"01054","name":"Nordfriesland","type":"Kreis"},"federalState":{"key":"01","name":"Schleswig-Holstein"}},{"name":"Katharine-Ingwersen-Weg","postalCode":"25899","locality":"Niebüll","municipality":{"key":"01054088","name":"Niebüll, Stadt","type":"Stadt"},"district":{"key":"01054","name":"Nordfriesland","type":"Kreis"},"federalState":{"key":"01","name":"Schleswig-Holstein"}},{"name":"Kiebitzreihe","postalCode":"25899","locality":"Niebüll","municipality":{"key":"01054088","name":"Niebüll, Stadt","type":"Stadt"},"district":{"key":"01054","name":"Nordfriesland","type":"Kreis"},"federalState":{"key":"01","name":"Schleswig-Holstein"}},{"name":"Kieler Str.","postalCode":"25899","locality":"Niebüll","municipality":{"key":"01054088","name":"Niebüll, Stadt","type":"Stadt"},"district":{"key":"01054","name":"Nordfriesland","type":"Kreis"},"federalState":{"key":"01","name":"Schleswig-Holstein"}},{"name":"Kirchensteig","postalCode":"25899","locality":"Niebüll","municipality":{"key":"01054088","name":"Niebüll, Stadt","type":"Stadt"},"district":{"key":"01054","name":"Nordfriesland","type":"Kreis"},"federalState":{"key":"01","name":"Schleswig-Holstein"}},{"name":"Kirchenstr.","postalCode":"25899","locality":"Niebüll","municipality":{"key":"01054088","name":"Niebüll, Stadt","type":"Stadt"},"district":{"key":"01054","name":"Nordfriesland","type":"Kreis"},"federalState":{"key":"01","name":"Schleswig-Holstein"}},{"name":"Klanxbüller Str.","postalCode":"25899","locality":"Niebüll","municipality":{"key":"01054088","name":"Niebüll, Stadt","type":"Stadt"},"district":{"key":"01054","name":"Nordfriesland","type":"Kreis"},"federalState":{"key":"01","name":"Schleswig-Holstein"}},{"name":"Klaus-Groth-Str.","postalCode":"25899","locality":"Niebüll","municipality":{"key":"01054088","name":"Niebüll, Stadt","type":"Stadt"},"district":{"key":"01054","name":"Nordfriesland","type":"Kreis"},"federalState":{"key":"01","name":"Schleswig-Holstein"}},{"name":"Kleiner Weg","postalCode":"25899","locality":"Niebüll","municipality":{"key":"01054088","name":"Niebüll, Stadt","type":"Stadt"},"district":{"key":"01054","name":"Nordfriesland","type":"Kreis"},"federalState":{"key":"01","name":"Schleswig-Holstein"}},{"name":"Kleinkoogsweg","postalCode":"25899","locality":"Niebüll","municipality":{"key":"01054088","name":"Niebüll, Stadt","type":"Stadt"},"district":{"key":"01054","name":"Nordfriesland","type":"Kreis"},"federalState":{"key":"01","name":"Schleswig-Holstein"}},{"name":"Königsberger Str.","postalCode":"25899","locality":"Niebüll","municipality":{"key":"01054088","name":"Niebüll, Stadt","type":"Stadt"},"district":{"key":"01054","name":"Nordfriesland","type":"Kreis"},"federalState":{"key":"01","name":"Schleswig-Holstein"}},{"name":"Koogsreihe","postalCode":"25899","locality":"Niebüll","municipality":{"key":"01054088","name":"Niebüll, Stadt","type":"Stadt"},"district":{"key":"01054","name":"Nordfriesland","type":"Kreis"},"federalState":{"key":"01","name":"Schleswig-Holstein"}},{"name":"Kornblumenweg","postalCode":"25899","locality":"Niebüll","municipality":{"key":"01054088","name":"Niebüll, Stadt","type":"Stadt"},"district":{"key":"01054","name":"Nordfriesland","type":"Kreis"},"federalState":{"key":"01","name":"Schleswig-Holstein"}},{"name":"Kornkoogsweg","postalCode":"25899","locality":"Niebüll","municipality":{"key":"01054088","name":"Niebüll, Stadt","type":"Stadt"},"district":{"key":"01054","name":"Nordfriesland","type":"Kreis"},"federalState":{"key":"01","name":"Schleswig-Holstein"}},{"name":"Küsterweg","postalCode":"25899","locality":"Niebüll","municipality":{"key":"01054088","name":"Niebüll, Stadt","type":"Stadt"},"district":{"key":"01054","name":"Nordfriesland","type":"Kreis"},"federalState":{"key":"01","name":"Schleswig-Holstein"}},{"name":"Lagedeich","postalCode":"25899","locality":"Niebüll","municipality":{"key":"01054088","name":"Niebüll, Stadt","type":"Stadt"},"district":{"key":"01054","name":"Nordfriesland","type":"Kreis"},"federalState":{"key":"01","name":"Schleswig-Holstein"}},{"name":"Legerader Weg","postalCode":"25899","locality":"Niebüll","municipality":{"key":"01054088","name":"Niebüll, Stadt","type":"Stadt"},"district":{"key":"01054","name":"Nordfriesland","type":"Kreis"},"federalState":{"key":"01","name":"Schleswig-Holstein"}},{"name":"Lerchenweg","postalCode":"25899","locality":"Niebüll","municipality":{"key":"01054088","name":"Niebüll, Stadt","type":"Stadt"},"district":{"key":"01054","name":"Nordfriesland","type":"Kreis"},"federalState":{"key":"01","name":"Schleswig-Holstein"}},{"name":"Lister Rund","postalCode":"25899","locality":"Niebüll","municipality":{"key":"01054088","name":"Niebüll, Stadt","type":"Stadt"},"district":{"key":"01054","name":"Nordfriesland","type":"Kreis"},"federalState":{"key":"01","name":"Schleswig-Holstein"}},{"name":"Lorenz-Jannsen-Str.","postalCode":"25899","locality":"Niebüll","municipality":{"key":"01054088","name":"Niebüll, Stadt","type":"Stadt"},"district":{"key":"01054","name":"Nordfriesland","type":"Kreis"},"federalState":{"key":"01","name":"Schleswig-Holstein"}},{"name":"Lornsenstr.","postalCode":"25899","locality":"Niebüll","municipality":{"key":"01054088","name":"Niebüll, Stadt","type":"Stadt"},"district":{"key":"01054","name":"Nordfriesland","type":"Kreis"},"federalState":{"key":"01","name":"Schleswig-Holstein"}},{"name":"Lushamm","postalCode":"25899","locality":"Niebüll","municipality":{"key":"01054088","name":"Niebüll, Stadt","type":"Stadt"},"district":{"key":"01054","name":"Nordfriesland","type":"Kreis"},"federalState":{"key":"01","name":"Schleswig-Holstein"}},{"name":"Maisweg","postalCode":"25899","locality":"Niebüll","municipality":{"key":"01054088","name":"Niebüll, Stadt","type":"Stadt"},"district":{"key":"01054","name":"Nordfriesland","type":"Kreis"},"federalState":{"key":"01","name":"Schleswig-Holstein"}},{"name":"Malmesbury Park","postalCode":"25899","locality":"Niebüll","municipality":{"key":"01054088","name":"Niebüll, Stadt","type":"Stadt"},"district":{"key":"01054","name":"Nordfriesland","type":"Kreis"},"federalState":{"key":"01","name":"Schleswig-Holstein"}},{"name":"Marktstr.","postalCode":"25899","locality":"Niebüll","municipality":{"key":"01054088","name":"Niebüll, Stadt","type":"Stadt"},"district":{"key":"01054","name":"Nordfriesland","type":"Kreis"},"federalState":{"key":"01","name":"Schleswig-Holstein"}},{"name":"Marschenpark","postalCode":"25899","locality":"Niebüll","municipality":{"key":"01054088","name":"Niebüll, Stadt","type":"Stadt"},"district":{"key":"01054","name":"Nordfriesland","type":"Kreis"},"federalState":{"key":"01","name":"Schleswig-Holstein"}},{"name":"Meisenweg","postalCode":"25899","locality":"Niebüll","municipality":{"key":"01054088","name":"Niebüll, Stadt","type":"Stadt"},"district":{"key":"01054","name":"Nordfriesland","type":"Kreis"},"federalState":{"key":"01","name":"Schleswig-Holstein"}},{"name":"Mittelfangweg","postalCode":"25899","locality":"Niebüll","municipality":{"key":"01054088","name":"Niebüll, Stadt","type":"Stadt"},"district":{"key":"01054","name":"Nordfriesland","type":"Kreis"},"federalState":{"key":"01","name":"Schleswig-Holstein"}},{"name":"Mohnweg","postalCode":"25899","locality":"Niebüll","municipality":{"key":"01054088","name":"Niebüll, Stadt","type":"Stadt"},"district":{"key":"01054","name":"Nordfriesland","type":"Kreis"},"federalState":{"key":"01","name":"Schleswig-Holstein"}},{"name":"Momme-Nissen-Weg","postalCode":"25899","locality":"Niebüll","municipality":{"key":"01054088","name":"Niebüll, Stadt","type":"Stadt"},"district":{"key":"01054","name":"Nordfriesland","type":"Kreis"},"federalState":{"key":"01","name":"Schleswig-Holstein"}},{"name":"Möwenweg","postalCode":"25899","locality":"Niebüll","municipality":{"key":"01054088","name":"Niebüll, Stadt","type":"Stadt"},"district":{"key":"01054","name":"Nordfriesland","type":"Kreis"},"federalState":{"key":"01","name":"Schleswig-Holstein"}},{"name":"Mühlenstr.","postalCode":"25899","locality":"Niebüll","municipality":{"key":"01054088","name":"Niebüll, Stadt","type":"Stadt"},"district":{"key":"01054","name":"Nordfriesland","type":"Kreis"},"federalState":{"key":"01","name":"Schleswig-Holstein"}},{"name":"Museumsweg","postalCode":"25899","locality":"Niebüll","municipality":{"key":"01054088","name":"Niebüll, Stadt","type":"Stadt"},"district":{"key":"01054","name":"Nordfriesland","type":"Kreis"},"federalState":{"key":"01","name":"Schleswig-Holstein"}},{"name":"Nelle-Jannsen-Weg","postalCode":"25899","locality":"Niebüll","municipality":{"key":"01054088","name":"Niebüll, Stadt","type":"Stadt"},"district":{"key":"01054","name":"Nordfriesland","type":"Kreis"},"federalState":{"key":"01","name":"Schleswig-Holstein"}},{"name":"Norderfangweg","postalCode":"25899","locality":"Niebüll","municipality":{"key":"01054088","name":"Niebüll, Stadt","type":"Stadt"},"district":{"key":"01054","name":"Nordfriesland","type":"Kreis"},"federalState":{"key":"01","name":"Schleswig-Holstein"}},{"name":"Norder Gath","postalCode":"25899","locality":"Niebüll","municipality":{"key":"01054088","name":"Niebüll, Stadt","type":"Stadt"},"district":{"key":"01054","name":"Nordfriesland","type":"Kreis"},"federalState":{"key":"01","name":"Schleswig-Holstein"}},{"name":"Olandweg","postalCode":"25899","locality":"Niebüll","municipality":{"key":"01054088","name":"Niebüll, Stadt","type":"Stadt"},"district":{"key":"01054","name":"Nordfriesland","type":"Kreis"},"federalState":{"key":"01","name":"Schleswig-Holstein"}},{"name":"Ostermooringer Str.","postalCode":"25899","locality":"Niebüll","municipality":{"key":"01054088","name":"Niebüll, Stadt","type":"Stadt"},"district":{"key":"01054","name":"Nordfriesland","type":"Kreis"},"federalState":{"key":"01","name":"Schleswig-Holstein"}},{"name":"Osterweg","postalCode":"25899","locality":"Niebüll","municipality":{"key":"01054088","name":"Niebüll, Stadt","type":"Stadt"},"district":{"key":"01054","name":"Nordfriesland","type":"Kreis"},"federalState":{"key":"01","name":"Schleswig-Holstein"}},{"name":"Ostring","postalCode":"25899","locality":"Niebüll","municipality":{"key":"01054088","name":"Niebüll, Stadt","type":"Stadt"},"district":{"key":"01054","name":"Nordfriesland","type":"Kreis"},"federalState":{"key":"01","name":"Schleswig-Holstein"}},{"name":"Peersweg","postalCode":"25899","locality":"Niebüll","municipality":{"key":"01054088","name":"Niebüll, Stadt","type":"Stadt"},"district":{"key":"01054","name":"Nordfriesland","type":"Kreis"},"federalState":{"key":"01","name":"Schleswig-Holstein"}},{"name":"Peter-Schmidts-Weg","postalCode":"25899","locality":"Niebüll","municipality":{"key":"01054088","name":"Niebüll, Stadt","type":"Stadt"},"district":{"key":"01054","name":"Nordfriesland","type":"Kreis"},"federalState":{"key":"01","name":"Schleswig-Holstein"}},{"name":"Petrejusstr.","postalCode":"25899","locality":"Niebüll","municipality":{"key":"01054088","name":"Niebüll, Stadt","type":"Stadt"},"district":{"key":"01054","name":"Nordfriesland","type":"Kreis"},"federalState":{"key":"01","name":"Schleswig-Holstein"}},{"name":"Rapsweg","postalCode":"25899","locality":"Niebüll","municipality":{"key":"01054088","name":"Niebüll, Stadt","type":"Stadt"},"district":{"key":"01054","name":"Nordfriesland","type":"Kreis"},"federalState":{"key":"01","name":"Schleswig-Holstein"}},{"name":"Rathausplatz","postalCode":"25899","locality":"Niebüll","municipality":{"key":"01054088","name":"Niebüll, Stadt","type":"Stadt"},"district":{"key":"01054","name":"Nordfriesland","type":"Kreis"},"federalState":{"key":"01","name":"Schleswig-Holstein"}},{"name":"Rathausstr.","postalCode":"25899","locality":"Niebüll","municipality":{"key":"01054088","name":"Niebüll, Stadt","type":"Stadt"},"district":{"key":"01054","name":"Nordfriesland","type":"Kreis"},"federalState":{"key":"01","name":"Schleswig-Holstein"}},{"name":"Rebhuhnweg","postalCode":"25899","locality":"Niebüll","municipality":{"key":"01054088","name":"Niebüll, Stadt","type":"Stadt"},"district":{"key":"01054","name":"Nordfriesland","type":"Kreis"},"federalState":{"key":"01","name":"Schleswig-Holstein"}},{"name":"Richard-Haizmann-Weg","postalCode":"25899","locality":"Niebüll","municipality":{"key":"01054088","name":"Niebüll, Stadt","type":"Stadt"},"district":{"key":"01054","name":"Nordfriesland","type":"Kreis"},"federalState":{"key":"01","name":"Schleswig-Holstein"}},{"name":"Risumer Weg","postalCode":"25899","locality":"Niebüll","municipality":{"key":"01054088","name":"Niebüll, Stadt","type":"Stadt"},"district":{"key":"01054","name":"Nordfriesland","type":"Kreis"},"federalState":{"key":"01","name":"Schleswig-Holstein"}},{"name":"Robert-Bosch-Str.","postalCode":"25899","locality":"Niebüll","municipality":{"key":"01054088","name":"Niebüll, Stadt","type":"Stadt"},"district":{"key":"01054","name":"Nordfriesland","type":"Kreis"},"federalState":{"key":"01","name":"Schleswig-Holstein"}},{"name":"Roggenweg","postalCode":"25899","locality":"Niebüll","municipality":{"key":"01054088","name":"Niebüll, Stadt","type":"Stadt"},"district":{"key":"01054","name":"Nordfriesland","type":"Kreis"},"federalState":{"key":"01","name":"Schleswig-Holstein"}},{"name":"Rotdornring","postalCode":"25899","locality":"Niebüll","municipality":{"key":"01054088","name":"Niebüll, Stadt","type":"Stadt"},"district":{"key":"01054","name":"Nordfriesland","type":"Kreis"},"federalState":{"key":"01","name":"Schleswig-Holstein"}},{"name":"Rudolf-Diesel-Str.","postalCode":"25899","locality":"Niebüll","municipality":{"key":"01054088","name":"Niebüll, Stadt","type":"Stadt"},"district":{"key":"01054","name":"Nordfriesland","type":"Kreis"},"federalState":{"key":"01","name":"Schleswig-Holstein"}},{"name":"Schäferweg","postalCode":"25899","locality":"Niebüll","municipality":{"key":"01054088","name":"Niebüll, Stadt","type":"Stadt"},"district":{"key":"01054","name":"Nordfriesland","type":"Kreis"},"federalState":{"key":"01","name":"Schleswig-Holstein"}},{"name":"Schmiedestr.","postalCode":"25899","locality":"Niebüll","municipality":{"key":"01054088","name":"Niebüll, Stadt","type":"Stadt"},"district":{"key":"01054","name":"Nordfriesland","type":"Kreis"},"federalState":{"key":"01","name":"Schleswig-Holstein"}},{"name":"Schreberweg","postalCode":"25899","locality":"Niebüll","municipality":{"key":"01054088","name":"Niebüll, Stadt","type":"Stadt"},"district":{"key":"01054","name":"Nordfriesland","type":"Kreis"},"federalState":{"key":"01","name":"Schleswig-Holstein"}},{"name":"Schützenring","postalCode":"25899","locality":"Niebüll","municipality":{"key":"01054088","name":"Niebüll, Stadt","type":"Stadt"},"district":{"key":"01054","name":"Nordfriesland","type":"Kreis"},"federalState":{"key":"01","name":"Schleswig-Holstein"}},{"name":"Schwalbenweg","postalCode":"25899","locality":"Niebüll","municipality":{"key":"01054088","name":"Niebüll, Stadt","type":"Stadt"},"district":{"key":"01054","name":"Nordfriesland","type":"Kreis"},"federalState":{"key":"01","name":"Schleswig-Holstein"}},{"name":"Sperberweg","postalCode":"25899","locality":"Niebüll","municipality":{"key":"01054088","name":"Niebüll, Stadt","type":"Stadt"},"district":{"key":"01054","name":"Nordfriesland","type":"Kreis"},"federalState":{"key":"01","name":"Schleswig-Holstein"}},{"name":"Stadtpark","postalCode":"25899","locality":"Niebüll","municipality":{"key":"01054088","name":"Niebüll, Stadt","type":"Stadt"},"district":{"key":"01054","name":"Nordfriesland","type":"Kreis"},"federalState":{"key":"01","name":"Schleswig-Holstein"}},{"name":"Stellmacherweg","postalCode":"25899","locality":"Niebüll","municipality":{"key":"01054088","name":"Niebüll, Stadt","type":"Stadt"},"district":{"key":"01054","name":"Nordfriesland","type":"Kreis"},"federalState":{"key":"01","name":"Schleswig-Holstein"}},{"name":"Stettiner Str.","postalCode":"25899","locality":"Niebüll","municipality":{"key":"01054088","name":"Niebüll, Stadt","type":"Stadt"},"district":{"key":"01054","name":"Nordfriesland","type":"Kreis"},"federalState":{"key":"01","name":"Schleswig-Holstein"}},{"name":"Storchenweg","postalCode":"25899","locality":"Niebüll","municipality":{"key":"01054088","name":"Niebüll, Stadt","type":"Stadt"},"district":{"key":"01054","name":"Nordfriesland","type":"Kreis"},"federalState":{"key":"01","name":"Schleswig-Holstein"}},{"name":"Strandläuferweg","postalCode":"25899","locality":"Niebüll","municipality":{"key":"01054088","name":"Niebüll, Stadt","type":"Stadt"},"district":{"key":"01054","name":"Nordfriesland","type":"Kreis"},"federalState":{"key":"01","name":"Schleswig-Holstein"}},{"name":"Süderfangweg","postalCode":"25899","locality":"Niebüll","municipality":{"key":"01054088","name":"Niebüll, Stadt","type":"Stadt"},"district":{"key":"01054","name":"Nordfriesland","type":"Kreis"},"federalState":{"key":"01","name":"Schleswig-Holstein"}},{"name":"Süder Gath","postalCode":"25899","locality":"Niebüll","municipality":{"key":"01054088","name":"Niebüll, Stadt","type":"Stadt"},"district":{"key":"01054","name":"Nordfriesland","type":"Kreis"},"federalState":{"key":"01","name":"Schleswig-Holstein"}},{"name":"Sylter Bogen","postalCode":"25899","locality":"Niebüll","municipality":{"key":"01054088","name":"Niebüll, Stadt","type":"Stadt"},"district":{"key":"01054","name":"Nordfriesland","type":"Kreis"},"federalState":{"key":"01","name":"Schleswig-Holstein"}},{"name":"Tannenweg","postalCode":"25899","locality":"Niebüll","municipality":{"key":"01054088","name":"Niebüll, Stadt","type":"Stadt"},"district":{"key":"01054","name":"Nordfriesland","type":"Kreis"},"federalState":{"key":"01","name":"Schleswig-Holstein"}},{"name":"Tegelring","postalCode":"25899","locality":"Niebüll","municipality":{"key":"01054088","name":"Niebüll, Stadt","type":"Stadt"},"district":{"key":"01054","name":"Nordfriesland","type":"Kreis"},"federalState":{"key":"01","name":"Schleswig-Holstein"}},{"name":"Tegelwanger Weg","postalCode":"25899","locality":"Niebüll","municipality":{"key":"01054088","name":"Niebüll, Stadt","type":"Stadt"},"district":{"key":"01054","name":"Nordfriesland","type":"Kreis"},"federalState":{"key":"01","name":"Schleswig-Holstein"}},{"name":"Theodor-Storm-Str.","postalCode":"25899","locality":"Niebüll","municipality":{"key":"01054088","name":"Niebüll, Stadt","type":"Stadt"},"district":{"key":"01054","name":"Nordfriesland","type":"Kreis"},"federalState":{"key":"01","name":"Schleswig-Holstein"}},{"name":"Thomas-Steenholdt-Weg","postalCode":"25899","locality":"Niebüll","municipality":{"key":"01054088","name":"Niebüll, Stadt","type":"Stadt"},"district":{"key":"01054","name":"Nordfriesland","type":"Kreis"},"federalState":{"key":"01","name":"Schleswig-Holstein"}},{"name":"Tondernstr.","postalCode":"25899","locality":"Niebüll","municipality":{"key":"01054088","name":"Niebüll, Stadt","type":"Stadt"},"district":{"key":"01054","name":"Nordfriesland","type":"Kreis"},"federalState":{"key":"01","name":"Schleswig-Holstein"}},{"name":"Uhlebüller Dorfstr.","postalCode":"25899","locality":"Niebüll","municipality":{"key":"01054088","name":"Niebüll, Stadt","type":"Stadt"},"district":{"key":"01054","name":"Nordfriesland","type":"Kreis"},"federalState":{"key":"01","name":"Schleswig-Holstein"}},{"name":"Uhlebüller Str.","postalCode":"25899","locality":"Niebüll","municipality":{"key":"01054088","name":"Niebüll, Stadt","type":"Stadt"},"district":{"key":"01054","name":"Nordfriesland","type":"Kreis"},"federalState":{"key":"01","name":"Schleswig-Holstein"}},{"name":"Ulmenweg","postalCode":"25899","locality":"Niebüll","municipality":{"key":"01054088","name":"Niebüll, Stadt","type":"Stadt"},"district":{"key":"01054","name":"Nordfriesland","type":"Kreis"},"federalState":{"key":"01","name":"Schleswig-Holstein"}},{"name":"Weberstr.","postalCode":"25899","locality":"Niebüll","municipality":{"key":"01054088","name":"Niebüll, Stadt","type":"Stadt"},"district":{"key":"01054","name":"Nordfriesland","type":"Kreis"},"federalState":{"key":"01","name":"Schleswig-Holstein"}},{"name":"Wehlenpark","postalCode":"25899","locality":"Niebüll","municipality":{"key":"01054088","name":"Niebüll, Stadt","type":"Stadt"},"district":{"key":"01054","name":"Nordfriesland","type":"Kreis"},"federalState":{"key":"01","name":"Schleswig-Holstein"}},{"name":"Wehlenstr.","postalCode":"25899","locality":"Niebüll","municipality":{"key":"01054088","name":"Niebüll, Stadt","type":"Stadt"},"district":{"key":"01054","name":"Nordfriesland","type":"Kreis"},"federalState":{"key":"01","name":"Schleswig-Holstein"}},{"name":"Weidenweg","postalCode":"25899","locality":"Niebüll","municipality":{"key":"01054088","name":"Niebüll, Stadt","type":"Stadt"},"district":{"key":"01054","name":"Nordfriesland","type":"Kreis"},"federalState":{"key":"01","name":"Schleswig-Holstein"}},{"name":"Weizenweg","postalCode":"25899","locality":"Niebüll","municipality":{"key":"01054088","name":"Niebüll, Stadt","type":"Stadt"},"district":{"key":"01054","name":"Nordfriesland","type":"Kreis"},"federalState":{"key":"01","name":"Schleswig-Holstein"}},{"name":"Westerlandstr.","postalCode":"25899","locality":"Niebüll","municipality":{"key":"01054088","name":"Niebüll, Stadt","type":"Stadt"},"district":{"key":"01054","name":"Nordfriesland","type":"Kreis"},"federalState":{"key":"01","name":"Schleswig-Holstein"}},{"name":"Westermooringer Str.","postalCode":"25899","locality":"Niebüll","municipality":{"key":"01054088","name":"Niebüll, Stadt","type":"Stadt"},"district":{"key":"01054","name":"Nordfriesland","type":"Kreis"},"federalState":{"key":"01","name":"Schleswig-Holstein"}},{"name":"Westersteig","postalCode":"25899","locality":"Niebüll","municipality":{"key":"01054088","name":"Niebüll, Stadt","type":"Stadt"},"district":{"key":"01054","name":"Nordfriesland","type":"Kreis"},"federalState":{"key":"01","name":"Schleswig-Holstein"}},{"name":"Wiedingharder Weg","postalCode":"25899","locality":"Niebüll","municipality":{"key":"01054088","name":"Niebüll, Stadt","type":"Stadt"},"district":{"key":"01054","name":"Nordfriesland","type":"Kreis"},"federalState":{"key":"01","name":"Schleswig-Holstein"}},{"name":"Zum Ackerkoog","postalCode":"25899","locality":"Niebüll","municipality":{"key":"01054088","name":"Niebüll, Stadt","type":"Stadt"},"district":{"key":"01054","name":"Nordfriesland","type":"Kreis"},"federalState":{"key":"01","name":"Schleswig-Holstein"}},{"name":"Zum Stellwerk","postalCode":"25899","locality":"Niebüll","municipality":{"key":"01054088","name":"Niebüll, Stadt","type":"Stadt"},"district":{"key":"01054","name":"Nordfriesland","type":"Kreis"},"federalState":{"key":"01","name":"Schleswig-Holstein"}},]