[{"name":"Ahornstr.","postalCode":"72364","locality":"Obernheim","municipality":{"key":"08417047","name":"Obernheim","type":"Kreisangehörige_Gemeinde"},"district":{"key":"08417","name":"Zollernalbkreis","type":"Landkreis"},"federalState":{"key":"08","name":"Baden-Württemberg"}},{"name":"Albstr.","postalCode":"72364","locality":"Obernheim","municipality":{"key":"08417047","name":"Obernheim","type":"Kreisangehörige_Gemeinde"},"district":{"key":"08417","name":"Zollernalbkreis","type":"Landkreis"},"federalState":{"key":"08","name":"Baden-Württemberg"}},{"name":"Alfons-Legner-Str.","postalCode":"66919","locality":"Obernheim-Kirchenarnbach","municipality":{"key":"07340219","name":"Obernheim-Kirchenarnbach","type":"Kreisangehörige_Gemeinde"},"district":{"key":"07340","name":"Südwestpfalz","type":"Landkreis"},"federalState":{"key":"07","name":"Rheinland-Pfalz"}},{"name":"Alter Weg","postalCode":"55566","locality":"Bad Sobernheim","municipality":{"key":"07133501","name":"Bad Sobernheim, Stadt","type":"Stadt"},"district":{"key":"07133","name":"Bad Kreuznach","type":"Landkreis"},"federalState":{"key":"07","name":"Rheinland-Pfalz"}},{"name":"Am Bergwasen","postalCode":"72364","locality":"Obernheim","municipality":{"key":"08417047","name":"Obernheim","type":"Kreisangehörige_Gemeinde"},"district":{"key":"08417","name":"Zollernalbkreis","type":"Landkreis"},"federalState":{"key":"08","name":"Baden-Württemberg"}},{"name":"Am Brennhütter Pfad","postalCode":"55566","locality":"Bad Sobernheim","municipality":{"key":"07133501","name":"Bad Sobernheim, Stadt","type":"Stadt"},"district":{"key":"07133","name":"Bad Kreuznach","type":"Landkreis"},"federalState":{"key":"07","name":"Rheinland-Pfalz"}},{"name":"Am Bühl","postalCode":"72364","locality":"Obernheim","municipality":{"key":"08417047","name":"Obernheim","type":"Kreisangehörige_Gemeinde"},"district":{"key":"08417","name":"Zollernalbkreis","type":"Landkreis"},"federalState":{"key":"08","name":"Baden-Württemberg"}},{"name":"Am Domberg","postalCode":"55566","locality":"Bad Sobernheim","municipality":{"key":"07133501","name":"Bad Sobernheim, Stadt","type":"Stadt"},"district":{"key":"07133","name":"Bad Kreuznach","type":"Landkreis"},"federalState":{"key":"07","name":"Rheinland-Pfalz"}},{"name":"Am Gefach","postalCode":"55566","locality":"Bad Sobernheim","municipality":{"key":"07133501","name":"Bad Sobernheim, Stadt","type":"Stadt"},"district":{"key":"07133","name":"Bad Kreuznach","type":"Landkreis"},"federalState":{"key":"07","name":"Rheinland-Pfalz"}},{"name":"Am Johannisberg","postalCode":"55566","locality":"Bad Sobernheim","municipality":{"key":"07133501","name":"Bad Sobernheim, Stadt","type":"Stadt"},"district":{"key":"07133","name":"Bad Kreuznach","type":"Landkreis"},"federalState":{"key":"07","name":"Rheinland-Pfalz"}},{"name":"Am Königstälchen","postalCode":"66919","locality":"Obernheim-Kirchenarnbach","municipality":{"key":"07340219","name":"Obernheim-Kirchenarnbach","type":"Kreisangehörige_Gemeinde"},"district":{"key":"07340","name":"Südwestpfalz","type":"Landkreis"},"federalState":{"key":"07","name":"Rheinland-Pfalz"}},{"name":"Am Mühlenteich","postalCode":"55566","locality":"Bad Sobernheim","municipality":{"key":"07133501","name":"Bad Sobernheim, Stadt","type":"Stadt"},"district":{"key":"07133","name":"Bad Kreuznach","type":"Landkreis"},"federalState":{"key":"07","name":"Rheinland-Pfalz"}},{"name":"Am Nußbaum","postalCode":"55566","locality":"Bad Sobernheim","municipality":{"key":"07133501","name":"Bad Sobernheim, Stadt","type":"Stadt"},"district":{"key":"07133","name":"Bad Kreuznach","type":"Landkreis"},"federalState":{"key":"07","name":"Rheinland-Pfalz"}},{"name":"Am Pfarrbrunnen","postalCode":"66919","locality":"Obernheim-Kirchenarnbach","municipality":{"key":"07340219","name":"Obernheim-Kirchenarnbach","type":"Kreisangehörige_Gemeinde"},"district":{"key":"07340","name":"Südwestpfalz","type":"Landkreis"},"federalState":{"key":"07","name":"Rheinland-Pfalz"}},{"name":"Am Rössler Pfad","postalCode":"55566","locality":"Bad Sobernheim","municipality":{"key":"07133501","name":"Bad Sobernheim, Stadt","type":"Stadt"},"district":{"key":"07133","name":"Bad Kreuznach","type":"Landkreis"},"federalState":{"key":"07","name":"Rheinland-Pfalz"}},{"name":"Am Scheibenbühl","postalCode":"72364","locality":"Obernheim","municipality":{"key":"08417047","name":"Obernheim","type":"Kreisangehörige_Gemeinde"},"district":{"key":"08417","name":"Zollernalbkreis","type":"Landkreis"},"federalState":{"key":"08","name":"Baden-Württemberg"}},{"name":"Am Staufenbergle","postalCode":"72364","locality":"Obernheim","municipality":{"key":"08417047","name":"Obernheim","type":"Kreisangehörige_Gemeinde"},"district":{"key":"08417","name":"Zollernalbkreis","type":"Landkreis"},"federalState":{"key":"08","name":"Baden-Württemberg"}},{"name":"Am Steigle","postalCode":"72364","locality":"Obernheim","municipality":{"key":"08417047","name":"Obernheim","type":"Kreisangehörige_Gemeinde"},"district":{"key":"08417","name":"Zollernalbkreis","type":"Landkreis"},"federalState":{"key":"08","name":"Baden-Württemberg"}},{"name":"Anspacherweg","postalCode":"55566","locality":"Bad Sobernheim","municipality":{"key":"07133501","name":"Bad Sobernheim, Stadt","type":"Stadt"},"district":{"key":"07133","name":"Bad Kreuznach","type":"Landkreis"},"federalState":{"key":"07","name":"Rheinland-Pfalz"}},{"name":"Aspenstr.","postalCode":"72364","locality":"Obernheim","municipality":{"key":"08417047","name":"Obernheim","type":"Kreisangehörige_Gemeinde"},"district":{"key":"08417","name":"Zollernalbkreis","type":"Landkreis"},"federalState":{"key":"08","name":"Baden-Württemberg"}},{"name":"Auf dem Kolben","postalCode":"55566","locality":"Bad Sobernheim","municipality":{"key":"07133501","name":"Bad Sobernheim, Stadt","type":"Stadt"},"district":{"key":"07133","name":"Bad Kreuznach","type":"Landkreis"},"federalState":{"key":"07","name":"Rheinland-Pfalz"}},{"name":"Auf dem Sessel","postalCode":"66919","locality":"Obernheim-Kirchenarnbach","municipality":{"key":"07340219","name":"Obernheim-Kirchenarnbach","type":"Kreisangehörige_Gemeinde"},"district":{"key":"07340","name":"Südwestpfalz","type":"Landkreis"},"federalState":{"key":"07","name":"Rheinland-Pfalz"}},{"name":"Auf der Linde","postalCode":"66919","locality":"Obernheim-Kirchenarnbach","municipality":{"key":"07340219","name":"Obernheim-Kirchenarnbach","type":"Kreisangehörige_Gemeinde"},"district":{"key":"07340","name":"Südwestpfalz","type":"Landkreis"},"federalState":{"key":"07","name":"Rheinland-Pfalz"}},{"name":"Auf Löhborn","postalCode":"55566","locality":"Bad Sobernheim","municipality":{"key":"07133501","name":"Bad Sobernheim, Stadt","type":"Stadt"},"district":{"key":"07133","name":"Bad Kreuznach","type":"Landkreis"},"federalState":{"key":"07","name":"Rheinland-Pfalz"}},{"name":"Auf Mohren","postalCode":"55566","locality":"Bad Sobernheim","municipality":{"key":"07133501","name":"Bad Sobernheim, Stadt","type":"Stadt"},"district":{"key":"07133","name":"Bad Kreuznach","type":"Landkreis"},"federalState":{"key":"07","name":"Rheinland-Pfalz"}},{"name":"Bahnhofstr.","postalCode":"55566","locality":"Bad Sobernheim","municipality":{"key":"07133501","name":"Bad Sobernheim, Stadt","type":"Stadt"},"district":{"key":"07133","name":"Bad Kreuznach","type":"Landkreis"},"federalState":{"key":"07","name":"Rheinland-Pfalz"}},{"name":"Bahnstr.","postalCode":"55566","locality":"Bad Sobernheim","municipality":{"key":"07133501","name":"Bad Sobernheim, Stadt","type":"Stadt"},"district":{"key":"07133","name":"Bad Kreuznach","type":"Landkreis"},"federalState":{"key":"07","name":"Rheinland-Pfalz"}},{"name":"Barfußpfad","postalCode":"55566","locality":"Bad Sobernheim","municipality":{"key":"07133501","name":"Bad Sobernheim, Stadt","type":"Stadt"},"district":{"key":"07133","name":"Bad Kreuznach","type":"Landkreis"},"federalState":{"key":"07","name":"Rheinland-Pfalz"}},{"name":"Bergstr.","postalCode":"66919","locality":"Obernheim-Kirchenarnbach","municipality":{"key":"07340219","name":"Obernheim-Kirchenarnbach","type":"Kreisangehörige_Gemeinde"},"district":{"key":"07340","name":"Südwestpfalz","type":"Landkreis"},"federalState":{"key":"07","name":"Rheinland-Pfalz"}},{"name":"Bergstr.","postalCode":"72364","locality":"Obernheim","municipality":{"key":"08417047","name":"Obernheim","type":"Kreisangehörige_Gemeinde"},"district":{"key":"08417","name":"Zollernalbkreis","type":"Landkreis"},"federalState":{"key":"08","name":"Baden-Württemberg"}},{"name":"Berliner Str.","postalCode":"55566","locality":"Bad Sobernheim","municipality":{"key":"07133501","name":"Bad Sobernheim, Stadt","type":"Stadt"},"district":{"key":"07133","name":"Bad Kreuznach","type":"Landkreis"},"federalState":{"key":"07","name":"Rheinland-Pfalz"}},{"name":"Beutenloch","postalCode":"72364","locality":"Obernheim","municipality":{"key":"08417047","name":"Obernheim","type":"Kreisangehörige_Gemeinde"},"district":{"key":"08417","name":"Zollernalbkreis","type":"Landkreis"},"federalState":{"key":"08","name":"Baden-Württemberg"}},{"name":"Bildeichstr.","postalCode":"66919","locality":"Obernheim-Kirchenarnbach","municipality":{"key":"07340219","name":"Obernheim-Kirchenarnbach","type":"Kreisangehörige_Gemeinde"},"district":{"key":"07340","name":"Südwestpfalz","type":"Landkreis"},"federalState":{"key":"07","name":"Rheinland-Pfalz"}},{"name":"Bockenauer Str.","postalCode":"55566","locality":"Bad Sobernheim","municipality":{"key":"07133501","name":"Bad Sobernheim, Stadt","type":"Stadt"},"district":{"key":"07133","name":"Bad Kreuznach","type":"Landkreis"},"federalState":{"key":"07","name":"Rheinland-Pfalz"}},{"name":"Botzbachweg","postalCode":"55566","locality":"Bad Sobernheim","municipality":{"key":"07133501","name":"Bad Sobernheim, Stadt","type":"Stadt"},"district":{"key":"07133","name":"Bad Kreuznach","type":"Landkreis"},"federalState":{"key":"07","name":"Rheinland-Pfalz"}},{"name":"Breitlerstr.","postalCode":"55566","locality":"Bad Sobernheim","municipality":{"key":"07133501","name":"Bad Sobernheim, Stadt","type":"Stadt"},"district":{"key":"07133","name":"Bad Kreuznach","type":"Landkreis"},"federalState":{"key":"07","name":"Rheinland-Pfalz"}},{"name":"Breslauer Str.","postalCode":"55566","locality":"Bad Sobernheim","municipality":{"key":"07133501","name":"Bad Sobernheim, Stadt","type":"Stadt"},"district":{"key":"07133","name":"Bad Kreuznach","type":"Landkreis"},"federalState":{"key":"07","name":"Rheinland-Pfalz"}},{"name":"Brunnenstr.","postalCode":"72364","locality":"Obernheim","municipality":{"key":"08417047","name":"Obernheim","type":"Kreisangehörige_Gemeinde"},"district":{"key":"08417","name":"Zollernalbkreis","type":"Landkreis"},"federalState":{"key":"08","name":"Baden-Württemberg"}},{"name":"Buchenstr.","postalCode":"72364","locality":"Obernheim","municipality":{"key":"08417047","name":"Obernheim","type":"Kreisangehörige_Gemeinde"},"district":{"key":"08417","name":"Zollernalbkreis","type":"Landkreis"},"federalState":{"key":"08","name":"Baden-Württemberg"}},{"name":"Bühl","postalCode":"72364","locality":"Obernheim","municipality":{"key":"08417047","name":"Obernheim","type":"Kreisangehörige_Gemeinde"},"district":{"key":"08417","name":"Zollernalbkreis","type":"Landkreis"},"federalState":{"key":"08","name":"Baden-Württemberg"}},{"name":"Bühlstr.","postalCode":"72364","locality":"Obernheim","municipality":{"key":"08417047","name":"Obernheim","type":"Kreisangehörige_Gemeinde"},"district":{"key":"08417","name":"Zollernalbkreis","type":"Landkreis"},"federalState":{"key":"08","name":"Baden-Württemberg"}},{"name":"Dammstr.","postalCode":"55566","locality":"Bad Sobernheim","municipality":{"key":"07133501","name":"Bad Sobernheim, Stadt","type":"Stadt"},"district":{"key":"07133","name":"Bad Kreuznach","type":"Landkreis"},"federalState":{"key":"07","name":"Rheinland-Pfalz"}},{"name":"Dornbachstr.","postalCode":"55566","locality":"Bad Sobernheim","municipality":{"key":"07133501","name":"Bad Sobernheim, Stadt","type":"Stadt"},"district":{"key":"07133","name":"Bad Kreuznach","type":"Landkreis"},"federalState":{"key":"07","name":"Rheinland-Pfalz"}},{"name":"Dr.Herrmann Str.","postalCode":"55566","locality":"Bad Sobernheim","municipality":{"key":"07133501","name":"Bad Sobernheim, Stadt","type":"Stadt"},"district":{"key":"07133","name":"Bad Kreuznach","type":"Landkreis"},"federalState":{"key":"07","name":"Rheinland-Pfalz"}},{"name":"Eckweilerstr.","postalCode":"55566","locality":"Bad Sobernheim","municipality":{"key":"07133501","name":"Bad Sobernheim, Stadt","type":"Stadt"},"district":{"key":"07133","name":"Bad Kreuznach","type":"Landkreis"},"federalState":{"key":"07","name":"Rheinland-Pfalz"}},{"name":"Eibenstr.","postalCode":"72364","locality":"Obernheim","municipality":{"key":"08417047","name":"Obernheim","type":"Kreisangehörige_Gemeinde"},"district":{"key":"08417","name":"Zollernalbkreis","type":"Landkreis"},"federalState":{"key":"08","name":"Baden-Württemberg"}},{"name":"Eichenstr.","postalCode":"72364","locality":"Obernheim","municipality":{"key":"08417047","name":"Obernheim","type":"Kreisangehörige_Gemeinde"},"district":{"key":"08417","name":"Zollernalbkreis","type":"Landkreis"},"federalState":{"key":"08","name":"Baden-Württemberg"}},{"name":"Einsamer Baum mit Park-Bank","postalCode":"55566","locality":"Bad Sobernheim","municipality":{"key":"07133501","name":"Bad Sobernheim, Stadt","type":"Stadt"},"district":{"key":"07133","name":"Bad Kreuznach","type":"Landkreis"},"federalState":{"key":"07","name":"Rheinland-Pfalz"}},{"name":"Engelgässle","postalCode":"72364","locality":"Obernheim","municipality":{"key":"08417047","name":"Obernheim","type":"Kreisangehörige_Gemeinde"},"district":{"key":"08417","name":"Zollernalbkreis","type":"Landkreis"},"federalState":{"key":"08","name":"Baden-Württemberg"}},{"name":"Entenpfuhl","postalCode":"55566","locality":"Bad Sobernheim","municipality":{"key":"07133501","name":"Bad Sobernheim, Stadt","type":"Stadt"},"district":{"key":"07133","name":"Bad Kreuznach","type":"Landkreis"},"federalState":{"key":"07","name":"Rheinland-Pfalz"}},{"name":"Enzianweg","postalCode":"72364","locality":"Obernheim","municipality":{"key":"08417047","name":"Obernheim","type":"Kreisangehörige_Gemeinde"},"district":{"key":"08417","name":"Zollernalbkreis","type":"Landkreis"},"federalState":{"key":"08","name":"Baden-Württemberg"}},{"name":"Eschenstr.","postalCode":"72364","locality":"Obernheim","municipality":{"key":"08417047","name":"Obernheim","type":"Kreisangehörige_Gemeinde"},"district":{"key":"08417","name":"Zollernalbkreis","type":"Landkreis"},"federalState":{"key":"08","name":"Baden-Württemberg"}},{"name":"Eselsrückerweg","postalCode":"55566","locality":"Bad Sobernheim","municipality":{"key":"07133501","name":"Bad Sobernheim, Stadt","type":"Stadt"},"district":{"key":"07133","name":"Bad Kreuznach","type":"Landkreis"},"federalState":{"key":"07","name":"Rheinland-Pfalz"}},{"name":"Felkestr.","postalCode":"55566","locality":"Bad Sobernheim","municipality":{"key":"07133501","name":"Bad Sobernheim, Stadt","type":"Stadt"},"district":{"key":"07133","name":"Bad Kreuznach","type":"Landkreis"},"federalState":{"key":"07","name":"Rheinland-Pfalz"}},{"name":"Fichtenstr.","postalCode":"72364","locality":"Obernheim","municipality":{"key":"08417047","name":"Obernheim","type":"Kreisangehörige_Gemeinde"},"district":{"key":"08417","name":"Zollernalbkreis","type":"Landkreis"},"federalState":{"key":"08","name":"Baden-Württemberg"}},{"name":"Flurstr.","postalCode":"55566","locality":"Bad Sobernheim","municipality":{"key":"07133501","name":"Bad Sobernheim, Stadt","type":"Stadt"},"district":{"key":"07133","name":"Bad Kreuznach","type":"Landkreis"},"federalState":{"key":"07","name":"Rheinland-Pfalz"}},{"name":"Forchenstr.","postalCode":"72364","locality":"Obernheim","municipality":{"key":"08417047","name":"Obernheim","type":"Kreisangehörige_Gemeinde"},"district":{"key":"08417","name":"Zollernalbkreis","type":"Landkreis"},"federalState":{"key":"08","name":"Baden-Württemberg"}},{"name":"Friedhofsallee","postalCode":"55566","locality":"Bad Sobernheim","municipality":{"key":"07133501","name":"Bad Sobernheim, Stadt","type":"Stadt"},"district":{"key":"07133","name":"Bad Kreuznach","type":"Landkreis"},"federalState":{"key":"07","name":"Rheinland-Pfalz"}},{"name":"Gartenstr.","postalCode":"55566","locality":"Bad Sobernheim","municipality":{"key":"07133501","name":"Bad Sobernheim, Stadt","type":"Stadt"},"district":{"key":"07133","name":"Bad Kreuznach","type":"Landkreis"},"federalState":{"key":"07","name":"Rheinland-Pfalz"}},{"name":"Gartenstr.","postalCode":"72364","locality":"Obernheim","municipality":{"key":"08417047","name":"Obernheim","type":"Kreisangehörige_Gemeinde"},"district":{"key":"08417","name":"Zollernalbkreis","type":"Landkreis"},"federalState":{"key":"08","name":"Baden-Württemberg"}},{"name":"Gehöft Weinsheim","postalCode":"55566","locality":"Bad Sobernheim","municipality":{"key":"07133501","name":"Bad Sobernheim, Stadt","type":"Stadt"},"district":{"key":"07133","name":"Bad Kreuznach","type":"Landkreis"},"federalState":{"key":"07","name":"Rheinland-Pfalz"}},{"name":"Goethestr.","postalCode":"72364","locality":"Obernheim","municipality":{"key":"08417047","name":"Obernheim","type":"Kreisangehörige_Gemeinde"},"district":{"key":"08417","name":"Zollernalbkreis","type":"Landkreis"},"federalState":{"key":"08","name":"Baden-Württemberg"}},{"name":"Goldbergstr.","postalCode":"66919","locality":"Obernheim-Kirchenarnbach","municipality":{"key":"07340219","name":"Obernheim-Kirchenarnbach","type":"Kreisangehörige_Gemeinde"},"district":{"key":"07340","name":"Südwestpfalz","type":"Landkreis"},"federalState":{"key":"07","name":"Rheinland-Pfalz"}},{"name":"Großstr.","postalCode":"55566","locality":"Bad Sobernheim","municipality":{"key":"07133501","name":"Bad Sobernheim, Stadt","type":"Stadt"},"district":{"key":"07133","name":"Bad Kreuznach","type":"Landkreis"},"federalState":{"key":"07","name":"Rheinland-Pfalz"}},{"name":"Großstr. (Bad Sobernheim)","postalCode":"55566","locality":"Bad Sobernheim","municipality":{"key":"07133501","name":"Bad Sobernheim, Stadt","type":"Stadt"},"district":{"key":"07133","name":"Bad Kreuznach","type":"Landkreis"},"federalState":{"key":"07","name":"Rheinland-Pfalz"}},{"name":"Gymnasialstr.","postalCode":"55566","locality":"Bad Sobernheim","municipality":{"key":"07133501","name":"Bad Sobernheim, Stadt","type":"Stadt"},"district":{"key":"07133","name":"Bad Kreuznach","type":"Landkreis"},"federalState":{"key":"07","name":"Rheinland-Pfalz"}},{"name":"Hafnergasse","postalCode":"72364","locality":"Obernheim","municipality":{"key":"08417047","name":"Obernheim","type":"Kreisangehörige_Gemeinde"},"district":{"key":"08417","name":"Zollernalbkreis","type":"Landkreis"},"federalState":{"key":"08","name":"Baden-Württemberg"}},{"name":"Hängebrücke","postalCode":"55566","locality":"Bad Sobernheim","municipality":{"key":"07133501","name":"Bad Sobernheim, Stadt","type":"Stadt"},"district":{"key":"07133","name":"Bad Kreuznach","type":"Landkreis"},"federalState":{"key":"07","name":"Rheinland-Pfalz"}},{"name":"Hauptstr.","postalCode":"66919","locality":"Obernheim-Kirchenarnbach","municipality":{"key":"07340219","name":"Obernheim-Kirchenarnbach","type":"Kreisangehörige_Gemeinde"},"district":{"key":"07340","name":"Südwestpfalz","type":"Landkreis"},"federalState":{"key":"07","name":"Rheinland-Pfalz"}},{"name":"Hauptstr.","postalCode":"72364","locality":"Obernheim","municipality":{"key":"08417047","name":"Obernheim","type":"Kreisangehörige_Gemeinde"},"district":{"key":"08417","name":"Zollernalbkreis","type":"Landkreis"},"federalState":{"key":"08","name":"Baden-Württemberg"}},{"name":"Haystr.","postalCode":"55566","locality":"Bad Sobernheim","municipality":{"key":"07133501","name":"Bad Sobernheim, Stadt","type":"Stadt"},"district":{"key":"07133","name":"Bad Kreuznach","type":"Landkreis"},"federalState":{"key":"07","name":"Rheinland-Pfalz"}},{"name":"Hermann-Josef-Marx-Str.","postalCode":"55566","locality":"Bad Sobernheim","municipality":{"key":"07133501","name":"Bad Sobernheim, Stadt","type":"Stadt"},"district":{"key":"07133","name":"Bad Kreuznach","type":"Landkreis"},"federalState":{"key":"07","name":"Rheinland-Pfalz"}},{"name":"Herrenstr.","postalCode":"55566","locality":"Bad Sobernheim","municipality":{"key":"07133501","name":"Bad Sobernheim, Stadt","type":"Stadt"},"district":{"key":"07133","name":"Bad Kreuznach","type":"Landkreis"},"federalState":{"key":"07","name":"Rheinland-Pfalz"}},{"name":"Hintergasse","postalCode":"55566","locality":"Bad Sobernheim","municipality":{"key":"07133501","name":"Bad Sobernheim, Stadt","type":"Stadt"},"district":{"key":"07133","name":"Bad Kreuznach","type":"Landkreis"},"federalState":{"key":"07","name":"Rheinland-Pfalz"}},{"name":"Hinter Hofen","postalCode":"72364","locality":"Obernheim","municipality":{"key":"08417047","name":"Obernheim","type":"Kreisangehörige_Gemeinde"},"district":{"key":"08417","name":"Zollernalbkreis","type":"Landkreis"},"federalState":{"key":"08","name":"Baden-Württemberg"}},{"name":"Hölderlinstr.","postalCode":"72364","locality":"Obernheim","municipality":{"key":"08417047","name":"Obernheim","type":"Kreisangehörige_Gemeinde"},"district":{"key":"08417","name":"Zollernalbkreis","type":"Landkreis"},"federalState":{"key":"08","name":"Baden-Württemberg"}},{"name":"Hömigweg","postalCode":"55566","locality":"Bad Sobernheim","municipality":{"key":"07133501","name":"Bad Sobernheim, Stadt","type":"Stadt"},"district":{"key":"07133","name":"Bad Kreuznach","type":"Landkreis"},"federalState":{"key":"07","name":"Rheinland-Pfalz"}},{"name":"Hörnlestr.","postalCode":"72364","locality":"Obernheim","municipality":{"key":"08417047","name":"Obernheim","type":"Kreisangehörige_Gemeinde"},"district":{"key":"08417","name":"Zollernalbkreis","type":"Landkreis"},"federalState":{"key":"08","name":"Baden-Württemberg"}},{"name":"Hüttenbergstr.","postalCode":"55566","locality":"Bad Sobernheim","municipality":{"key":"07133501","name":"Bad Sobernheim, Stadt","type":"Stadt"},"district":{"key":"07133","name":"Bad Kreuznach","type":"Landkreis"},"federalState":{"key":"07","name":"Rheinland-Pfalz"}},{"name":"Igelsbachstr.","postalCode":"55566","locality":"Bad Sobernheim","municipality":{"key":"07133501","name":"Bad Sobernheim, Stadt","type":"Stadt"},"district":{"key":"07133","name":"Bad Kreuznach","type":"Landkreis"},"federalState":{"key":"07","name":"Rheinland-Pfalz"}},{"name":"Im Beilchen","postalCode":"55566","locality":"Bad Sobernheim","municipality":{"key":"07133501","name":"Bad Sobernheim, Stadt","type":"Stadt"},"district":{"key":"07133","name":"Bad Kreuznach","type":"Landkreis"},"federalState":{"key":"07","name":"Rheinland-Pfalz"}},{"name":"Im Brühl","postalCode":"55566","locality":"Bad Sobernheim","municipality":{"key":"07133501","name":"Bad Sobernheim, Stadt","type":"Stadt"},"district":{"key":"07133","name":"Bad Kreuznach","type":"Landkreis"},"federalState":{"key":"07","name":"Rheinland-Pfalz"}},{"name":"Im Eck","postalCode":"66919","locality":"Obernheim-Kirchenarnbach","municipality":{"key":"07340219","name":"Obernheim-Kirchenarnbach","type":"Kreisangehörige_Gemeinde"},"district":{"key":"07340","name":"Südwestpfalz","type":"Landkreis"},"federalState":{"key":"07","name":"Rheinland-Pfalz"}},{"name":"Im Fronwingert","postalCode":"55566","locality":"Bad Sobernheim","municipality":{"key":"07133501","name":"Bad Sobernheim, Stadt","type":"Stadt"},"district":{"key":"07133","name":"Bad Kreuznach","type":"Landkreis"},"federalState":{"key":"07","name":"Rheinland-Pfalz"}},{"name":"Im Wesentlich","postalCode":"55566","locality":"Bad Sobernheim","municipality":{"key":"07133501","name":"Bad Sobernheim, Stadt","type":"Stadt"},"district":{"key":"07133","name":"Bad Kreuznach","type":"Landkreis"},"federalState":{"key":"07","name":"Rheinland-Pfalz"}},{"name":"In der Ziegelei","postalCode":"55566","locality":"Bad Sobernheim","municipality":{"key":"07133501","name":"Bad Sobernheim, Stadt","type":"Stadt"},"district":{"key":"07133","name":"Bad Kreuznach","type":"Landkreis"},"federalState":{"key":"07","name":"Rheinland-Pfalz"}},{"name":"Ippenschieder Trift","postalCode":"55566","locality":"Bad Sobernheim","municipality":{"key":"07133501","name":"Bad Sobernheim, Stadt","type":"Stadt"},"district":{"key":"07133","name":"Bad Kreuznach","type":"Landkreis"},"federalState":{"key":"07","name":"Rheinland-Pfalz"}},{"name":"Johannisplatz","postalCode":"55566","locality":"Bad Sobernheim","municipality":{"key":"07133501","name":"Bad Sobernheim, Stadt","type":"Stadt"},"district":{"key":"07133","name":"Bad Kreuznach","type":"Landkreis"},"federalState":{"key":"07","name":"Rheinland-Pfalz"}},{"name":"Jurastr.","postalCode":"72364","locality":"Obernheim","municipality":{"key":"08417047","name":"Obernheim","type":"Kreisangehörige_Gemeinde"},"district":{"key":"08417","name":"Zollernalbkreis","type":"Landkreis"},"federalState":{"key":"08","name":"Baden-Württemberg"}},{"name":"Kapellenstr.","postalCode":"72364","locality":"Obernheim","municipality":{"key":"08417047","name":"Obernheim","type":"Kreisangehörige_Gemeinde"},"district":{"key":"08417","name":"Zollernalbkreis","type":"Landkreis"},"federalState":{"key":"08","name":"Baden-Württemberg"}},{"name":"Kehrweiden","postalCode":"55566","locality":"Bad Sobernheim","municipality":{"key":"07133501","name":"Bad Sobernheim, Stadt","type":"Stadt"},"district":{"key":"07133","name":"Bad Kreuznach","type":"Landkreis"},"federalState":{"key":"07","name":"Rheinland-Pfalz"}},{"name":"Kesselbrucher Linie","postalCode":"55566","locality":"Bad Sobernheim","municipality":{"key":"07133501","name":"Bad Sobernheim, Stadt","type":"Stadt"},"district":{"key":"07133","name":"Bad Kreuznach","type":"Landkreis"},"federalState":{"key":"07","name":"Rheinland-Pfalz"}},{"name":"Kirchenstr.","postalCode":"66919","locality":"Obernheim-Kirchenarnbach","municipality":{"key":"07340219","name":"Obernheim-Kirchenarnbach","type":"Kreisangehörige_Gemeinde"},"district":{"key":"07340","name":"Südwestpfalz","type":"Landkreis"},"federalState":{"key":"07","name":"Rheinland-Pfalz"}},{"name":"Kirchstr.","postalCode":"55566","locality":"Bad Sobernheim","municipality":{"key":"07133501","name":"Bad Sobernheim, Stadt","type":"Stadt"},"district":{"key":"07133","name":"Bad Kreuznach","type":"Landkreis"},"federalState":{"key":"07","name":"Rheinland-Pfalz"}},{"name":"Kleine Kirchstr.","postalCode":"55566","locality":"Bad Sobernheim","municipality":{"key":"07133501","name":"Bad Sobernheim, Stadt","type":"Stadt"},"district":{"key":"07133","name":"Bad Kreuznach","type":"Landkreis"},"federalState":{"key":"07","name":"Rheinland-Pfalz"}},{"name":"Kolpingstr.","postalCode":"66919","locality":"Obernheim-Kirchenarnbach","municipality":{"key":"07340219","name":"Obernheim-Kirchenarnbach","type":"Kreisangehörige_Gemeinde"},"district":{"key":"07340","name":"Südwestpfalz","type":"Landkreis"},"federalState":{"key":"07","name":"Rheinland-Pfalz"}},{"name":"Königsberger Str.","postalCode":"55566","locality":"Bad Sobernheim","municipality":{"key":"07133501","name":"Bad Sobernheim, Stadt","type":"Stadt"},"district":{"key":"07133","name":"Bad Kreuznach","type":"Landkreis"},"federalState":{"key":"07","name":"Rheinland-Pfalz"}},{"name":"Korczakstr.","postalCode":"55566","locality":"Bad Sobernheim","municipality":{"key":"07133501","name":"Bad Sobernheim, Stadt","type":"Stadt"},"district":{"key":"07133","name":"Bad Kreuznach","type":"Landkreis"},"federalState":{"key":"07","name":"Rheinland-Pfalz"}},{"name":"Kreuznacher Str.","postalCode":"55566","locality":"Bad Sobernheim","municipality":{"key":"07133501","name":"Bad Sobernheim, Stadt","type":"Stadt"},"district":{"key":"07133","name":"Bad Kreuznach","type":"Landkreis"},"federalState":{"key":"07","name":"Rheinland-Pfalz"}},{"name":"Kreuzstr.","postalCode":"55566","locality":"Bad Sobernheim","municipality":{"key":"07133501","name":"Bad Sobernheim, Stadt","type":"Stadt"},"district":{"key":"07133","name":"Bad Kreuznach","type":"Landkreis"},"federalState":{"key":"07","name":"Rheinland-Pfalz"}},{"name":"Kreuzweg","postalCode":"72364","locality":"Obernheim","municipality":{"key":"08417047","name":"Obernheim","type":"Kreisangehörige_Gemeinde"},"district":{"key":"08417","name":"Zollernalbkreis","type":"Landkreis"},"federalState":{"key":"08","name":"Baden-Württemberg"}},{"name":"Kuhweg","postalCode":"55566","locality":"Bad Sobernheim","municipality":{"key":"07133501","name":"Bad Sobernheim, Stadt","type":"Stadt"},"district":{"key":"07133","name":"Bad Kreuznach","type":"Landkreis"},"federalState":{"key":"07","name":"Rheinland-Pfalz"}},{"name":"Landrichtweg","postalCode":"55566","locality":"Bad Sobernheim","municipality":{"key":"07133501","name":"Bad Sobernheim, Stadt","type":"Stadt"},"district":{"key":"07133","name":"Bad Kreuznach","type":"Landkreis"},"federalState":{"key":"07","name":"Rheinland-Pfalz"}},{"name":"Landstuhler Str.","postalCode":"66919","locality":"Obernheim-Kirchenarnbach","municipality":{"key":"07340219","name":"Obernheim-Kirchenarnbach","type":"Kreisangehörige_Gemeinde"},"district":{"key":"07340","name":"Südwestpfalz","type":"Landkreis"},"federalState":{"key":"07","name":"Rheinland-Pfalz"}},{"name":"Leinenborner Weg","postalCode":"55566","locality":"Bad Sobernheim","municipality":{"key":"07133501","name":"Bad Sobernheim, Stadt","type":"Stadt"},"district":{"key":"07133","name":"Bad Kreuznach","type":"Landkreis"},"federalState":{"key":"07","name":"Rheinland-Pfalz"}},{"name":"Leininger Str.","postalCode":"66919","locality":"Obernheim-Kirchenarnbach","municipality":{"key":"07340219","name":"Obernheim-Kirchenarnbach","type":"Kreisangehörige_Gemeinde"},"district":{"key":"07340","name":"Südwestpfalz","type":"Landkreis"},"federalState":{"key":"07","name":"Rheinland-Pfalz"}},{"name":"Lessingstr.","postalCode":"72364","locality":"Obernheim","municipality":{"key":"08417047","name":"Obernheim","type":"Kreisangehörige_Gemeinde"},"district":{"key":"08417","name":"Zollernalbkreis","type":"Landkreis"},"federalState":{"key":"08","name":"Baden-Württemberg"}},{"name":"Louvresstr.","postalCode":"55566","locality":"Bad Sobernheim","municipality":{"key":"07133501","name":"Bad Sobernheim, Stadt","type":"Stadt"},"district":{"key":"07133","name":"Bad Kreuznach","type":"Landkreis"},"federalState":{"key":"07","name":"Rheinland-Pfalz"}},{"name":"Malteserstr.","postalCode":"55566","locality":"Bad Sobernheim","municipality":{"key":"07133501","name":"Bad Sobernheim, Stadt","type":"Stadt"},"district":{"key":"07133","name":"Bad Kreuznach","type":"Landkreis"},"federalState":{"key":"07","name":"Rheinland-Pfalz"}},{"name":"Marktplatz","postalCode":"55566","locality":"Bad Sobernheim","municipality":{"key":"07133501","name":"Bad Sobernheim, Stadt","type":"Stadt"},"district":{"key":"07133","name":"Bad Kreuznach","type":"Landkreis"},"federalState":{"key":"07","name":"Rheinland-Pfalz"}},{"name":"Marum-Park","postalCode":"55566","locality":"Bad Sobernheim","municipality":{"key":"07133501","name":"Bad Sobernheim, Stadt","type":"Stadt"},"district":{"key":"07133","name":"Bad Kreuznach","type":"Landkreis"},"federalState":{"key":"07","name":"Rheinland-Pfalz"}},{"name":"Marumstr.","postalCode":"55566","locality":"Bad Sobernheim","municipality":{"key":"07133501","name":"Bad Sobernheim, Stadt","type":"Stadt"},"district":{"key":"07133","name":"Bad Kreuznach","type":"Landkreis"},"federalState":{"key":"07","name":"Rheinland-Pfalz"}},{"name":"Mauergasse","postalCode":"55566","locality":"Bad Sobernheim","municipality":{"key":"07133501","name":"Bad Sobernheim, Stadt","type":"Stadt"},"district":{"key":"07133","name":"Bad Kreuznach","type":"Landkreis"},"federalState":{"key":"07","name":"Rheinland-Pfalz"}},{"name":"Meddersheimer Str.","postalCode":"55566","locality":"Bad Sobernheim","municipality":{"key":"07133501","name":"Bad Sobernheim, Stadt","type":"Stadt"},"district":{"key":"07133","name":"Bad Kreuznach","type":"Landkreis"},"federalState":{"key":"07","name":"Rheinland-Pfalz"}},{"name":"Mittelgasse","postalCode":"55566","locality":"Bad Sobernheim","municipality":{"key":"07133501","name":"Bad Sobernheim, Stadt","type":"Stadt"},"district":{"key":"07133","name":"Bad Kreuznach","type":"Landkreis"},"federalState":{"key":"07","name":"Rheinland-Pfalz"}},{"name":"Monzinger Str.","postalCode":"55566","locality":"Bad Sobernheim","municipality":{"key":"07133501","name":"Bad Sobernheim, Stadt","type":"Stadt"},"district":{"key":"07133","name":"Bad Kreuznach","type":"Landkreis"},"federalState":{"key":"07","name":"Rheinland-Pfalz"}},{"name":"Mühlenstr.","postalCode":"55566","locality":"Bad Sobernheim","municipality":{"key":"07133501","name":"Bad Sobernheim, Stadt","type":"Stadt"},"district":{"key":"07133","name":"Bad Kreuznach","type":"Landkreis"},"federalState":{"key":"07","name":"Rheinland-Pfalz"}},{"name":"Münchwiesen","postalCode":"55566","locality":"Bad Sobernheim","municipality":{"key":"07133501","name":"Bad Sobernheim, Stadt","type":"Stadt"},"district":{"key":"07133","name":"Bad Kreuznach","type":"Landkreis"},"federalState":{"key":"07","name":"Rheinland-Pfalz"}},{"name":"Nahestr.","postalCode":"55566","locality":"Bad Sobernheim","municipality":{"key":"07133501","name":"Bad Sobernheim, Stadt","type":"Stadt"},"district":{"key":"07133","name":"Bad Kreuznach","type":"Landkreis"},"federalState":{"key":"07","name":"Rheinland-Pfalz"}},{"name":"Napoleons-Platz","postalCode":"55566","locality":"Bad Sobernheim","municipality":{"key":"07133501","name":"Bad Sobernheim, Stadt","type":"Stadt"},"district":{"key":"07133","name":"Bad Kreuznach","type":"Landkreis"},"federalState":{"key":"07","name":"Rheinland-Pfalz"}},{"name":"Neugasse","postalCode":"55566","locality":"Bad Sobernheim","municipality":{"key":"07133501","name":"Bad Sobernheim, Stadt","type":"Stadt"},"district":{"key":"07133","name":"Bad Kreuznach","type":"Landkreis"},"federalState":{"key":"07","name":"Rheinland-Pfalz"}},{"name":"Obere Dorfstr.","postalCode":"72364","locality":"Obernheim","municipality":{"key":"08417047","name":"Obernheim","type":"Kreisangehörige_Gemeinde"},"district":{"key":"08417","name":"Zollernalbkreis","type":"Landkreis"},"federalState":{"key":"08","name":"Baden-Württemberg"}},{"name":"Oberer Scheibenbühl","postalCode":"72364","locality":"Obernheim","municipality":{"key":"08417047","name":"Obernheim","type":"Kreisangehörige_Gemeinde"},"district":{"key":"08417","name":"Zollernalbkreis","type":"Landkreis"},"federalState":{"key":"08","name":"Baden-Württemberg"}},{"name":"Obere Widdum","postalCode":"72364","locality":"Obernheim","municipality":{"key":"08417047","name":"Obernheim","type":"Kreisangehörige_Gemeinde"},"district":{"key":"08417","name":"Zollernalbkreis","type":"Landkreis"},"federalState":{"key":"08","name":"Baden-Württemberg"}},{"name":"Obergasse","postalCode":"55566","locality":"Bad Sobernheim","municipality":{"key":"07133501","name":"Bad Sobernheim, Stadt","type":"Stadt"},"district":{"key":"07133","name":"Bad Kreuznach","type":"Landkreis"},"federalState":{"key":"07","name":"Rheinland-Pfalz"}},{"name":"Oberstreiter Str.","postalCode":"55566","locality":"Bad Sobernheim","municipality":{"key":"07133501","name":"Bad Sobernheim, Stadt","type":"Stadt"},"district":{"key":"07133","name":"Bad Kreuznach","type":"Landkreis"},"federalState":{"key":"07","name":"Rheinland-Pfalz"}},{"name":"Panoramastr.","postalCode":"72364","locality":"Obernheim","municipality":{"key":"08417047","name":"Obernheim","type":"Kreisangehörige_Gemeinde"},"district":{"key":"08417","name":"Zollernalbkreis","type":"Landkreis"},"federalState":{"key":"08","name":"Baden-Württemberg"}},{"name":"Paul-Schneider-Str.","postalCode":"55566","locality":"Bad Sobernheim","municipality":{"key":"07133501","name":"Bad Sobernheim, Stadt","type":"Stadt"},"district":{"key":"07133","name":"Bad Kreuznach","type":"Landkreis"},"federalState":{"key":"07","name":"Rheinland-Pfalz"}},{"name":"Petersborner Weg","postalCode":"55566","locality":"Bad Sobernheim","municipality":{"key":"07133501","name":"Bad Sobernheim, Stadt","type":"Stadt"},"district":{"key":"07133","name":"Bad Kreuznach","type":"Landkreis"},"federalState":{"key":"07","name":"Rheinland-Pfalz"}},{"name":"Pfaffenstr.","postalCode":"55566","locality":"Bad Sobernheim","municipality":{"key":"07133501","name":"Bad Sobernheim, Stadt","type":"Stadt"},"district":{"key":"07133","name":"Bad Kreuznach","type":"Landkreis"},"federalState":{"key":"07","name":"Rheinland-Pfalz"}},{"name":"Pfarrer-Reich-Str.","postalCode":"55566","locality":"Bad Sobernheim","municipality":{"key":"07133501","name":"Bad Sobernheim, Stadt","type":"Stadt"},"district":{"key":"07133","name":"Bad Kreuznach","type":"Landkreis"},"federalState":{"key":"07","name":"Rheinland-Pfalz"}},{"name":"Pfarrgarten","postalCode":"72364","locality":"Obernheim","municipality":{"key":"08417047","name":"Obernheim","type":"Kreisangehörige_Gemeinde"},"district":{"key":"08417","name":"Zollernalbkreis","type":"Landkreis"},"federalState":{"key":"08","name":"Baden-Württemberg"}},{"name":"Pferdsfelder Str.","postalCode":"55566","locality":"Bad Sobernheim","municipality":{"key":"07133501","name":"Bad Sobernheim, Stadt","type":"Stadt"},"district":{"key":"07133","name":"Bad Kreuznach","type":"Landkreis"},"federalState":{"key":"07","name":"Rheinland-Pfalz"}},{"name":"Pirmasenser Str.","postalCode":"66919","locality":"Obernheim-Kirchenarnbach","municipality":{"key":"07340219","name":"Obernheim-Kirchenarnbach","type":"Kreisangehörige_Gemeinde"},"district":{"key":"07340","name":"Südwestpfalz","type":"Landkreis"},"federalState":{"key":"07","name":"Rheinland-Pfalz"}},{"name":"Platterweg","postalCode":"66919","locality":"Obernheim-Kirchenarnbach","municipality":{"key":"07340219","name":"Obernheim-Kirchenarnbach","type":"Kreisangehörige_Gemeinde"},"district":{"key":"07340","name":"Südwestpfalz","type":"Landkreis"},"federalState":{"key":"07","name":"Rheinland-Pfalz"}},{"name":"Poststr.","postalCode":"55566","locality":"Bad Sobernheim","municipality":{"key":"07133501","name":"Bad Sobernheim, Stadt","type":"Stadt"},"district":{"key":"07133","name":"Bad Kreuznach","type":"Landkreis"},"federalState":{"key":"07","name":"Rheinland-Pfalz"}},{"name":"Priorhofstr.","postalCode":"55566","locality":"Bad Sobernheim","municipality":{"key":"07133501","name":"Bad Sobernheim, Stadt","type":"Stadt"},"district":{"key":"07133","name":"Bad Kreuznach","type":"Landkreis"},"federalState":{"key":"07","name":"Rheinland-Pfalz"}},{"name":"Queidersbacher Str.","postalCode":"66919","locality":"Obernheim-Kirchenarnbach","municipality":{"key":"07340219","name":"Obernheim-Kirchenarnbach","type":"Kreisangehörige_Gemeinde"},"district":{"key":"07340","name":"Südwestpfalz","type":"Landkreis"},"federalState":{"key":"07","name":"Rheinland-Pfalz"}},{"name":"Quellenpavillon","postalCode":"55566","locality":"Bad Sobernheim","municipality":{"key":"07133501","name":"Bad Sobernheim, Stadt","type":"Stadt"},"district":{"key":"07133","name":"Bad Kreuznach","type":"Landkreis"},"federalState":{"key":"07","name":"Rheinland-Pfalz"}},{"name":"Raiffeisenstr.","postalCode":"72364","locality":"Obernheim","municipality":{"key":"08417047","name":"Obernheim","type":"Kreisangehörige_Gemeinde"},"district":{"key":"08417","name":"Zollernalbkreis","type":"Landkreis"},"federalState":{"key":"08","name":"Baden-Württemberg"}},{"name":"Rathausgasse","postalCode":"72364","locality":"Obernheim","municipality":{"key":"08417047","name":"Obernheim","type":"Kreisangehörige_Gemeinde"},"district":{"key":"08417","name":"Zollernalbkreis","type":"Landkreis"},"federalState":{"key":"08","name":"Baden-Württemberg"}},{"name":"Rennweg","postalCode":"55566","locality":"Bad Sobernheim","municipality":{"key":"07133501","name":"Bad Sobernheim, Stadt","type":"Stadt"},"district":{"key":"07133","name":"Bad Kreuznach","type":"Landkreis"},"federalState":{"key":"07","name":"Rheinland-Pfalz"}},{"name":"Ringstr.","postalCode":"55566","locality":"Bad Sobernheim","municipality":{"key":"07133501","name":"Bad Sobernheim, Stadt","type":"Stadt"},"district":{"key":"07133","name":"Bad Kreuznach","type":"Landkreis"},"federalState":{"key":"07","name":"Rheinland-Pfalz"}},{"name":"Römerstr.","postalCode":"55566","locality":"Bad Sobernheim","municipality":{"key":"07133501","name":"Bad Sobernheim, Stadt","type":"Stadt"},"district":{"key":"07133","name":"Bad Kreuznach","type":"Landkreis"},"federalState":{"key":"07","name":"Rheinland-Pfalz"}},{"name":"Rosenstr.","postalCode":"66919","locality":"Obernheim-Kirchenarnbach","municipality":{"key":"07340219","name":"Obernheim-Kirchenarnbach","type":"Kreisangehörige_Gemeinde"},"district":{"key":"07340","name":"Südwestpfalz","type":"Landkreis"},"federalState":{"key":"07","name":"Rheinland-Pfalz"}},{"name":"Rübenteich","postalCode":"72364","locality":"Obernheim","municipality":{"key":"08417047","name":"Obernheim","type":"Kreisangehörige_Gemeinde"},"district":{"key":"08417","name":"Zollernalbkreis","type":"Landkreis"},"federalState":{"key":"08","name":"Baden-Württemberg"}},{"name":"Rundwanderweg","postalCode":"72364","locality":"Obernheim","municipality":{"key":"08417047","name":"Obernheim","type":"Kreisangehörige_Gemeinde"},"district":{"key":"08417","name":"Zollernalbkreis","type":"Landkreis"},"federalState":{"key":"08","name":"Baden-Württemberg"}},{"name":"Saarstr.","postalCode":"55566","locality":"Bad Sobernheim","municipality":{"key":"07133501","name":"Bad Sobernheim, Stadt","type":"Stadt"},"district":{"key":"07133","name":"Bad Kreuznach","type":"Landkreis"},"federalState":{"key":"07","name":"Rheinland-Pfalz"}},{"name":"Schillerstr.","postalCode":"72364","locality":"Obernheim","municipality":{"key":"08417047","name":"Obernheim","type":"Kreisangehörige_Gemeinde"},"district":{"key":"08417","name":"Zollernalbkreis","type":"Landkreis"},"federalState":{"key":"08","name":"Baden-Württemberg"}},{"name":"Schlangenbrückerstr.","postalCode":"66919","locality":"Obernheim-Kirchenarnbach","municipality":{"key":"07340219","name":"Obernheim-Kirchenarnbach","type":"Kreisangehörige_Gemeinde"},"district":{"key":"07340","name":"Südwestpfalz","type":"Landkreis"},"federalState":{"key":"07","name":"Rheinland-Pfalz"}},{"name":"Schömbühl","postalCode":"72364","locality":"Obernheim","municipality":{"key":"08417047","name":"Obernheim","type":"Kreisangehörige_Gemeinde"},"district":{"key":"08417","name":"Zollernalbkreis","type":"Landkreis"},"federalState":{"key":"08","name":"Baden-Württemberg"}},{"name":"Schulstr.","postalCode":"55566","locality":"Bad Sobernheim","municipality":{"key":"07133501","name":"Bad Sobernheim, Stadt","type":"Stadt"},"district":{"key":"07133","name":"Bad Kreuznach","type":"Landkreis"},"federalState":{"key":"07","name":"Rheinland-Pfalz"}},{"name":"Schulstr.","postalCode":"66919","locality":"Obernheim-Kirchenarnbach","municipality":{"key":"07340219","name":"Obernheim-Kirchenarnbach","type":"Kreisangehörige_Gemeinde"},"district":{"key":"07340","name":"Südwestpfalz","type":"Landkreis"},"federalState":{"key":"07","name":"Rheinland-Pfalz"}},{"name":"Schulstr.","postalCode":"72364","locality":"Obernheim","municipality":{"key":"08417047","name":"Obernheim","type":"Kreisangehörige_Gemeinde"},"district":{"key":"08417","name":"Zollernalbkreis","type":"Landkreis"},"federalState":{"key":"08","name":"Baden-Württemberg"}},{"name":"Schwarzenborner Weg","postalCode":"55566","locality":"Bad Sobernheim","municipality":{"key":"07133501","name":"Bad Sobernheim, Stadt","type":"Stadt"},"district":{"key":"07133","name":"Bad Kreuznach","type":"Landkreis"},"federalState":{"key":"07","name":"Rheinland-Pfalz"}},{"name":"Sickinger Str.","postalCode":"66919","locality":"Obernheim-Kirchenarnbach","municipality":{"key":"07340219","name":"Obernheim-Kirchenarnbach","type":"Kreisangehörige_Gemeinde"},"district":{"key":"07340","name":"Südwestpfalz","type":"Landkreis"},"federalState":{"key":"07","name":"Rheinland-Pfalz"}},{"name":"Silberdistelweg","postalCode":"72364","locality":"Obernheim","municipality":{"key":"08417047","name":"Obernheim","type":"Kreisangehörige_Gemeinde"},"district":{"key":"08417","name":"Zollernalbkreis","type":"Landkreis"},"federalState":{"key":"08","name":"Baden-Württemberg"}},{"name":"Silcherstr.","postalCode":"72364","locality":"Obernheim","municipality":{"key":"08417047","name":"Obernheim","type":"Kreisangehörige_Gemeinde"},"district":{"key":"08417","name":"Zollernalbkreis","type":"Landkreis"},"federalState":{"key":"08","name":"Baden-Württemberg"}},{"name":"Soonwaldstr.","postalCode":"55566","locality":"Bad Sobernheim","municipality":{"key":"07133501","name":"Bad Sobernheim, Stadt","type":"Stadt"},"district":{"key":"07133","name":"Bad Kreuznach","type":"Landkreis"},"federalState":{"key":"07","name":"Rheinland-Pfalz"}},{"name":"Staudernheimer Str.","postalCode":"55566","locality":"Bad Sobernheim","municipality":{"key":"07133501","name":"Bad Sobernheim, Stadt","type":"Stadt"},"district":{"key":"07133","name":"Bad Kreuznach","type":"Landkreis"},"federalState":{"key":"07","name":"Rheinland-Pfalz"}},{"name":"Steinhardter Str.","postalCode":"55566","locality":"Bad Sobernheim","municipality":{"key":"07133501","name":"Bad Sobernheim, Stadt","type":"Stadt"},"district":{"key":"07133","name":"Bad Kreuznach","type":"Landkreis"},"federalState":{"key":"07","name":"Rheinland-Pfalz"}},{"name":"Stettiner Str.","postalCode":"55566","locality":"Bad Sobernheim","municipality":{"key":"07133501","name":"Bad Sobernheim, Stadt","type":"Stadt"},"district":{"key":"07133","name":"Bad Kreuznach","type":"Landkreis"},"federalState":{"key":"07","name":"Rheinland-Pfalz"}},{"name":"Stühl","postalCode":"72364","locality":"Obernheim","municipality":{"key":"08417047","name":"Obernheim","type":"Kreisangehörige_Gemeinde"},"district":{"key":"08417","name":"Zollernalbkreis","type":"Landkreis"},"federalState":{"key":"08","name":"Baden-Württemberg"}},{"name":"Tanneck","postalCode":"72364","locality":"Obernheim","municipality":{"key":"08417047","name":"Obernheim","type":"Kreisangehörige_Gemeinde"},"district":{"key":"08417","name":"Zollernalbkreis","type":"Landkreis"},"federalState":{"key":"08","name":"Baden-Württemberg"}},{"name":"Uhlandstr.","postalCode":"72364","locality":"Obernheim","municipality":{"key":"08417047","name":"Obernheim","type":"Kreisangehörige_Gemeinde"},"district":{"key":"08417","name":"Zollernalbkreis","type":"Landkreis"},"federalState":{"key":"08","name":"Baden-Württemberg"}},{"name":"Untere Widdum","postalCode":"72364","locality":"Obernheim","municipality":{"key":"08417047","name":"Obernheim","type":"Kreisangehörige_Gemeinde"},"district":{"key":"08417","name":"Zollernalbkreis","type":"Landkreis"},"federalState":{"key":"08","name":"Baden-Württemberg"}},{"name":"Vor der Haardt","postalCode":"55566","locality":"Bad Sobernheim","municipality":{"key":"07133501","name":"Bad Sobernheim, Stadt","type":"Stadt"},"district":{"key":"07133","name":"Bad Kreuznach","type":"Landkreis"},"federalState":{"key":"07","name":"Rheinland-Pfalz"}},{"name":"Wacholderstr.","postalCode":"72364","locality":"Obernheim","municipality":{"key":"08417047","name":"Obernheim","type":"Kreisangehörige_Gemeinde"},"district":{"key":"08417","name":"Zollernalbkreis","type":"Landkreis"},"federalState":{"key":"08","name":"Baden-Württemberg"}},{"name":"Waldstr.","postalCode":"66919","locality":"Obernheim-Kirchenarnbach","municipality":{"key":"07340219","name":"Obernheim-Kirchenarnbach","type":"Kreisangehörige_Gemeinde"},"district":{"key":"07340","name":"Südwestpfalz","type":"Landkreis"},"federalState":{"key":"07","name":"Rheinland-Pfalz"}},{"name":"Westtangente","postalCode":"55566","locality":"Bad Sobernheim","municipality":{"key":"07133501","name":"Bad Sobernheim, Stadt","type":"Stadt"},"district":{"key":"07133","name":"Bad Kreuznach","type":"Landkreis"},"federalState":{"key":"07","name":"Rheinland-Pfalz"}},{"name":"Wildburger Linie","postalCode":"55566","locality":"Bad Sobernheim","municipality":{"key":"07133501","name":"Bad Sobernheim, Stadt","type":"Stadt"},"district":{"key":"07133","name":"Bad Kreuznach","type":"Landkreis"},"federalState":{"key":"07","name":"Rheinland-Pfalz"}},{"name":"Wilhelmstr.","postalCode":"55566","locality":"Bad Sobernheim","municipality":{"key":"07133501","name":"Bad Sobernheim, Stadt","type":"Stadt"},"district":{"key":"07133","name":"Bad Kreuznach","type":"Landkreis"},"federalState":{"key":"07","name":"Rheinland-Pfalz"}},{"name":"Wolfsgrubenstr.","postalCode":"72364","locality":"Obernheim","municipality":{"key":"08417047","name":"Obernheim","type":"Kreisangehörige_Gemeinde"},"district":{"key":"08417","name":"Zollernalbkreis","type":"Landkreis"},"federalState":{"key":"08","name":"Baden-Württemberg"}},{"name":"Ziegelhütte","postalCode":"72364","locality":"Obernheim","municipality":{"key":"08417047","name":"Obernheim","type":"Kreisangehörige_Gemeinde"},"district":{"key":"08417","name":"Zollernalbkreis","type":"Landkreis"},"federalState":{"key":"08","name":"Baden-Württemberg"}},{"name":"Zum Staaren","postalCode":"55566","locality":"Bad Sobernheim","municipality":{"key":"07133501","name":"Bad Sobernheim, Stadt","type":"Stadt"},"district":{"key":"07133","name":"Bad Kreuznach","type":"Landkreis"},"federalState":{"key":"07","name":"Rheinland-Pfalz"}},{"name":"Öschweg","postalCode":"72364","locality":"Obernheim","municipality":{"key":"08417047","name":"Obernheim","type":"Kreisangehörige_Gemeinde"},"district":{"key":"08417","name":"Zollernalbkreis","type":"Landkreis"},"federalState":{"key":"08","name":"Baden-Württemberg"}},]