[{"key":"10121230","name":"Chemin d'Efferjus","postalCode":"1117","locality":"Grancy","commune":{"key":"5485","name":"Grancy","shortName":"Grancy"},"district":{"key":"2227","name":"District de Morges"},"canton":{"key":"22","code":"VD","name":"Vaud"},"status":"Real"},{"key":"10176309","name":"Chemin de la Léchère","postalCode":"1117","locality":"Grancy","commune":{"key":"5485","name":"Grancy","shortName":"Grancy"},"district":{"key":"2227","name":"District de Morges"},"canton":{"key":"22","code":"VD","name":"Vaud"},"status":"Real"},{"key":"10121231","name":"Chemin des Moleires","postalCode":"1117","locality":"Grancy","commune":{"key":"5485","name":"Grancy","shortName":"Grancy"},"district":{"key":"2227","name":"District de Morges"},"canton":{"key":"22","code":"VD","name":"Vaud"},"status":"Real"},{"key":"10079601","name":"Chemin des Pâles","postalCode":"1117","locality":"Grancy","commune":{"key":"5485","name":"Grancy","shortName":"Grancy"},"district":{"key":"2227","name":"District de Morges"},"canton":{"key":"22","code":"VD","name":"Vaud"},"status":"Real"},{"key":"10160121","name":"Chemin des Rossets","postalCode":"1117","locality":"Grancy","commune":{"key":"5485","name":"Grancy","shortName":"Grancy"},"district":{"key":"2227","name":"District de Morges"},"canton":{"key":"22","code":"VD","name":"Vaud"},"status":"Real"},{"key":"10054411","name":"Chemin du Censury","postalCode":"1117","locality":"Grancy","commune":{"key":"5485","name":"Grancy","shortName":"Grancy"},"district":{"key":"2227","name":"District de Morges"},"canton":{"key":"22","code":"VD","name":"Vaud"},"status":"Real"},{"key":"10124046","name":"Impasse Docteur-Tissot","postalCode":"1117","locality":"Grancy","commune":{"key":"5485","name":"Grancy","shortName":"Grancy"},"district":{"key":"2227","name":"District de Morges"},"canton":{"key":"22","code":"VD","name":"Vaud"},"status":"Real"},{"key":"10101882","name":"La Ruelle","postalCode":"1117","locality":"Grancy","commune":{"key":"5485","name":"Grancy","shortName":"Grancy"},"district":{"key":"2227","name":"District de Morges"},"canton":{"key":"22","code":"VD","name":"Vaud"},"status":"Real"},{"key":"10034142","name":"Le Sétif","postalCode":"1117","locality":"Grancy","commune":{"key":"5485","name":"Grancy","shortName":"Grancy"},"district":{"key":"2227","name":"District de Morges"},"canton":{"key":"22","code":"VD","name":"Vaud"},"status":"Real"},{"key":"10121512","name":"Passage Auguste-Pidou","postalCode":"1117","locality":"Grancy","commune":{"key":"5485","name":"Grancy","shortName":"Grancy"},"district":{"key":"2227","name":"District de Morges"},"canton":{"key":"22","code":"VD","name":"Vaud"},"status":"Real"},{"key":"10095978","name":"Place de la Fontaine","postalCode":"1117","locality":"Grancy","commune":{"key":"5485","name":"Grancy","shortName":"Grancy"},"district":{"key":"2227","name":"District de Morges"},"canton":{"key":"22","code":"VD","name":"Vaud"},"status":"Real"},{"key":"10116199","name":"Route de Cottens","postalCode":"1117","locality":"Grancy","commune":{"key":"5485","name":"Grancy","shortName":"Grancy"},"district":{"key":"2227","name":"District de Morges"},"canton":{"key":"22","code":"VD","name":"Vaud"},"status":"Real"},{"key":"10190407","name":"Route de Senarclens","postalCode":"1117","locality":"Grancy","commune":{"key":"5485","name":"Grancy","shortName":"Grancy"},"district":{"key":"2227","name":"District de Morges"},"canton":{"key":"22","code":"VD","name":"Vaud"},"status":"Real"},{"key":"10121847","name":"Route de St-Denis","postalCode":"1117","locality":"Grancy","commune":{"key":"5485","name":"Grancy","shortName":"Grancy"},"district":{"key":"2227","name":"District de Morges"},"canton":{"key":"22","code":"VD","name":"Vaud"},"status":"Real"},{"key":"10095979","name":"Route de Vullierens","postalCode":"1117","locality":"Grancy","commune":{"key":"5485","name":"Grancy","shortName":"Grancy"},"district":{"key":"2227","name":"District de Morges"},"canton":{"key":"22","code":"VD","name":"Vaud"},"status":"Real"},{"key":"10034143","name":"Saint-Denis","postalCode":"1117","locality":"Grancy","commune":{"key":"5485","name":"Grancy","shortName":"Grancy"},"district":{"key":"2227","name":"District de Morges"},"canton":{"key":"22","code":"VD","name":"Vaud"},"status":"Real"},]