[{"name":"Ahornweg","postalCode":"17121","locality":"Loitz","municipality":{"key":"13075082","name":"Loitz, Stadt","type":"Stadt"},"district":{"key":"13075","name":"Vorpommern-Greifswald","type":"Landkreis"},"federalState":{"key":"13","name":"Mecklenburg-Vorpommern"}},{"name":"Am Anger","postalCode":"17121","locality":"Loitz","municipality":{"key":"13075082","name":"Loitz, Stadt","type":"Stadt"},"district":{"key":"13075","name":"Vorpommern-Greifswald","type":"Landkreis"},"federalState":{"key":"13","name":"Mecklenburg-Vorpommern"}},{"name":"Am Feldrain","postalCode":"17121","locality":"Loitz","municipality":{"key":"13075082","name":"Loitz, Stadt","type":"Stadt"},"district":{"key":"13075","name":"Vorpommern-Greifswald","type":"Landkreis"},"federalState":{"key":"13","name":"Mecklenburg-Vorpommern"}},{"name":"Am Gendarmenhut","postalCode":"17121","locality":"Loitz","municipality":{"key":"13075082","name":"Loitz, Stadt","type":"Stadt"},"district":{"key":"13075","name":"Vorpommern-Greifswald","type":"Landkreis"},"federalState":{"key":"13","name":"Mecklenburg-Vorpommern"}},{"name":"Am Kälberteich","postalCode":"17121","locality":"Loitz","municipality":{"key":"13075082","name":"Loitz, Stadt","type":"Stadt"},"district":{"key":"13075","name":"Vorpommern-Greifswald","type":"Landkreis"},"federalState":{"key":"13","name":"Mecklenburg-Vorpommern"}},{"name":"Am kalten Bühl","postalCode":"94359","locality":"Loitzendorf","municipality":{"key":"09278147","name":"Loitzendorf","type":"Kreisangehörige_Gemeinde"},"district":{"key":"09278","name":"Straubing-Bogen","type":"Landkreis"},"federalState":{"key":"09","name":"Bayern"}},{"name":"Am Kiewitt","postalCode":"17121","locality":"Loitz","municipality":{"key":"13075082","name":"Loitz, Stadt","type":"Stadt"},"district":{"key":"13075","name":"Vorpommern-Greifswald","type":"Landkreis"},"federalState":{"key":"13","name":"Mecklenburg-Vorpommern"}},{"name":"Am Kinderberg","postalCode":"17121","locality":"Loitz","municipality":{"key":"13075082","name":"Loitz, Stadt","type":"Stadt"},"district":{"key":"13075","name":"Vorpommern-Greifswald","type":"Landkreis"},"federalState":{"key":"13","name":"Mecklenburg-Vorpommern"}},{"name":"Am Kuckucksgraben","postalCode":"17121","locality":"Loitz","municipality":{"key":"13075082","name":"Loitz, Stadt","type":"Stadt"},"district":{"key":"13075","name":"Vorpommern-Greifswald","type":"Landkreis"},"federalState":{"key":"13","name":"Mecklenburg-Vorpommern"}},{"name":"Au","postalCode":"94359","locality":"Loitzendorf","municipality":{"key":"09278147","name":"Loitzendorf","type":"Kreisangehörige_Gemeinde"},"district":{"key":"09278","name":"Straubing-Bogen","type":"Landkreis"},"federalState":{"key":"09","name":"Bayern"}},{"name":"August-Levin-Str.","postalCode":"17121","locality":"Loitz","municipality":{"key":"13075082","name":"Loitz, Stadt","type":"Stadt"},"district":{"key":"13075","name":"Vorpommern-Greifswald","type":"Landkreis"},"federalState":{"key":"13","name":"Mecklenburg-Vorpommern"}},{"name":"Bachstr.","postalCode":"94359","locality":"Loitzendorf","municipality":{"key":"09278147","name":"Loitzendorf","type":"Kreisangehörige_Gemeinde"},"district":{"key":"09278","name":"Straubing-Bogen","type":"Landkreis"},"federalState":{"key":"09","name":"Bayern"}},{"name":"Baderstr.","postalCode":"94359","locality":"Loitzendorf","municipality":{"key":"09278147","name":"Loitzendorf","type":"Kreisangehörige_Gemeinde"},"district":{"key":"09278","name":"Straubing-Bogen","type":"Landkreis"},"federalState":{"key":"09","name":"Bayern"}},{"name":"Bärenfelsallee","postalCode":"17121","locality":"Loitz","municipality":{"key":"13075082","name":"Loitz, Stadt","type":"Stadt"},"district":{"key":"13075","name":"Vorpommern-Greifswald","type":"Landkreis"},"federalState":{"key":"13","name":"Mecklenburg-Vorpommern"}},{"name":"Bartelsstr.","postalCode":"17121","locality":"Loitz","municipality":{"key":"13075082","name":"Loitz, Stadt","type":"Stadt"},"district":{"key":"13075","name":"Vorpommern-Greifswald","type":"Landkreis"},"federalState":{"key":"13","name":"Mecklenburg-Vorpommern"}},{"name":"Brandmühlendamm","postalCode":"17121","locality":"Loitz","municipality":{"key":"13075082","name":"Loitz, Stadt","type":"Stadt"},"district":{"key":"13075","name":"Vorpommern-Greifswald","type":"Landkreis"},"federalState":{"key":"13","name":"Mecklenburg-Vorpommern"}},{"name":"Breite Str.","postalCode":"17121","locality":"Loitz","municipality":{"key":"13075082","name":"Loitz, Stadt","type":"Stadt"},"district":{"key":"13075","name":"Vorpommern-Greifswald","type":"Landkreis"},"federalState":{"key":"13","name":"Mecklenburg-Vorpommern"}},{"name":"Demminer Str.","postalCode":"17121","locality":"Loitz","municipality":{"key":"13075082","name":"Loitz, Stadt","type":"Stadt"},"district":{"key":"13075","name":"Vorpommern-Greifswald","type":"Landkreis"},"federalState":{"key":"13","name":"Mecklenburg-Vorpommern"}},{"name":"Dorfplatz","postalCode":"94359","locality":"Loitzendorf","municipality":{"key":"09278147","name":"Loitzendorf","type":"Kreisangehörige_Gemeinde"},"district":{"key":"09278","name":"Straubing-Bogen","type":"Landkreis"},"federalState":{"key":"09","name":"Bayern"}},{"name":"Dorfstr.","postalCode":"17121","locality":"Loitz","municipality":{"key":"13075082","name":"Loitz, Stadt","type":"Stadt"},"district":{"key":"13075","name":"Vorpommern-Greifswald","type":"Landkreis"},"federalState":{"key":"13","name":"Mecklenburg-Vorpommern"}},{"name":"Drosedow","postalCode":"17121","locality":"Loitz","municipality":{"key":"13075082","name":"Loitz, Stadt","type":"Stadt"},"district":{"key":"13075","name":"Vorpommern-Greifswald","type":"Landkreis"},"federalState":{"key":"13","name":"Mecklenburg-Vorpommern"}},{"name":"Drosedower Str.","postalCode":"17121","locality":"Loitz","municipality":{"key":"13075082","name":"Loitz, Stadt","type":"Stadt"},"district":{"key":"13075","name":"Vorpommern-Greifswald","type":"Landkreis"},"federalState":{"key":"13","name":"Mecklenburg-Vorpommern"}},{"name":"Düvier","postalCode":"17121","locality":"Loitz","municipality":{"key":"13075082","name":"Loitz, Stadt","type":"Stadt"},"district":{"key":"13075","name":"Vorpommern-Greifswald","type":"Landkreis"},"federalState":{"key":"13","name":"Mecklenburg-Vorpommern"}},{"name":"Feldstr.","postalCode":"17121","locality":"Loitz","municipality":{"key":"13075082","name":"Loitz, Stadt","type":"Stadt"},"district":{"key":"13075","name":"Vorpommern-Greifswald","type":"Landkreis"},"federalState":{"key":"13","name":"Mecklenburg-Vorpommern"}},{"name":"Gartenstr.","postalCode":"17121","locality":"Loitz","municipality":{"key":"13075082","name":"Loitz, Stadt","type":"Stadt"},"district":{"key":"13075","name":"Vorpommern-Greifswald","type":"Landkreis"},"federalState":{"key":"13","name":"Mecklenburg-Vorpommern"}},{"name":"Gittensdorfer Str.","postalCode":"94359","locality":"Loitzendorf","municipality":{"key":"09278147","name":"Loitzendorf","type":"Kreisangehörige_Gemeinde"},"district":{"key":"09278","name":"Straubing-Bogen","type":"Landkreis"},"federalState":{"key":"09","name":"Bayern"}},{"name":"Glashütte","postalCode":"17121","locality":"Loitz","municipality":{"key":"13075082","name":"Loitz, Stadt","type":"Stadt"},"district":{"key":"13075","name":"Vorpommern-Greifswald","type":"Landkreis"},"federalState":{"key":"13","name":"Mecklenburg-Vorpommern"}},{"name":"Goethestr.","postalCode":"17121","locality":"Loitz","municipality":{"key":"13075082","name":"Loitz, Stadt","type":"Stadt"},"district":{"key":"13075","name":"Vorpommern-Greifswald","type":"Landkreis"},"federalState":{"key":"13","name":"Mecklenburg-Vorpommern"}},{"name":"Greifswalder Str.","postalCode":"17121","locality":"Loitz","municipality":{"key":"13075082","name":"Loitz, Stadt","type":"Stadt"},"district":{"key":"13075","name":"Vorpommern-Greifswald","type":"Landkreis"},"federalState":{"key":"13","name":"Mecklenburg-Vorpommern"}},{"name":"Gülzow Parkanlage","postalCode":"17121","locality":"Loitz","municipality":{"key":"13075082","name":"Loitz, Stadt","type":"Stadt"},"district":{"key":"13075","name":"Vorpommern-Greifswald","type":"Landkreis"},"federalState":{"key":"13","name":"Mecklenburg-Vorpommern"}},{"name":"Gülzowshof","postalCode":"17121","locality":"Loitz","municipality":{"key":"13075082","name":"Loitz, Stadt","type":"Stadt"},"district":{"key":"13075","name":"Vorpommern-Greifswald","type":"Landkreis"},"federalState":{"key":"13","name":"Mecklenburg-Vorpommern"}},{"name":"Hauptstr.","postalCode":"17121","locality":"Loitz","municipality":{"key":"13075082","name":"Loitz, Stadt","type":"Stadt"},"district":{"key":"13075","name":"Vorpommern-Greifswald","type":"Landkreis"},"federalState":{"key":"13","name":"Mecklenburg-Vorpommern"}},{"name":"Haussmannstr.","postalCode":"17121","locality":"Loitz","municipality":{"key":"13075082","name":"Loitz, Stadt","type":"Stadt"},"district":{"key":"13075","name":"Vorpommern-Greifswald","type":"Landkreis"},"federalState":{"key":"13","name":"Mecklenburg-Vorpommern"}},{"name":"Heilgeiststr.","postalCode":"17121","locality":"Loitz","municipality":{"key":"13075082","name":"Loitz, Stadt","type":"Stadt"},"district":{"key":"13075","name":"Vorpommern-Greifswald","type":"Landkreis"},"federalState":{"key":"13","name":"Mecklenburg-Vorpommern"}},{"name":"Hiddenhausener Str.","postalCode":"17121","locality":"Loitz","municipality":{"key":"13075082","name":"Loitz, Stadt","type":"Stadt"},"district":{"key":"13075","name":"Vorpommern-Greifswald","type":"Landkreis"},"federalState":{"key":"13","name":"Mecklenburg-Vorpommern"}},{"name":"Kampstr.","postalCode":"17121","locality":"Loitz","municipality":{"key":"13075082","name":"Loitz, Stadt","type":"Stadt"},"district":{"key":"13075","name":"Vorpommern-Greifswald","type":"Landkreis"},"federalState":{"key":"13","name":"Mecklenburg-Vorpommern"}},{"name":"Kirchgasse","postalCode":"94359","locality":"Loitzendorf","municipality":{"key":"09278147","name":"Loitzendorf","type":"Kreisangehörige_Gemeinde"},"district":{"key":"09278","name":"Straubing-Bogen","type":"Landkreis"},"federalState":{"key":"09","name":"Bayern"}},{"name":"Kleinfeld Str.","postalCode":"94359","locality":"Loitzendorf","municipality":{"key":"09278147","name":"Loitzendorf","type":"Kreisangehörige_Gemeinde"},"district":{"key":"09278","name":"Straubing-Bogen","type":"Landkreis"},"federalState":{"key":"09","name":"Bayern"}},{"name":"Kronwaldstr.","postalCode":"17121","locality":"Loitz","municipality":{"key":"13075082","name":"Loitz, Stadt","type":"Stadt"},"district":{"key":"13075","name":"Vorpommern-Greifswald","type":"Landkreis"},"federalState":{"key":"13","name":"Mecklenburg-Vorpommern"}},{"name":"Landorfer Str.","postalCode":"94359","locality":"Loitzendorf","municipality":{"key":"09278147","name":"Loitzendorf","type":"Kreisangehörige_Gemeinde"},"district":{"key":"09278","name":"Straubing-Bogen","type":"Landkreis"},"federalState":{"key":"09","name":"Bayern"}},{"name":"Lange Reihe","postalCode":"17121","locality":"Loitz","municipality":{"key":"13075082","name":"Loitz, Stadt","type":"Stadt"},"district":{"key":"13075","name":"Vorpommern-Greifswald","type":"Landkreis"},"federalState":{"key":"13","name":"Mecklenburg-Vorpommern"}},{"name":"Lange Str.","postalCode":"17121","locality":"Loitz","municipality":{"key":"13075082","name":"Loitz, Stadt","type":"Stadt"},"district":{"key":"13075","name":"Vorpommern-Greifswald","type":"Landkreis"},"federalState":{"key":"13","name":"Mecklenburg-Vorpommern"}},{"name":"Lindenallee","postalCode":"17121","locality":"Loitz","municipality":{"key":"13075082","name":"Loitz, Stadt","type":"Stadt"},"district":{"key":"13075","name":"Vorpommern-Greifswald","type":"Landkreis"},"federalState":{"key":"13","name":"Mecklenburg-Vorpommern"}},{"name":"Loitzer Chaussee","postalCode":"17121","locality":"Loitz","municipality":{"key":"13075082","name":"Loitz, Stadt","type":"Stadt"},"district":{"key":"13075","name":"Vorpommern-Greifswald","type":"Landkreis"},"federalState":{"key":"13","name":"Mecklenburg-Vorpommern"}},{"name":"Loitzer Str.","postalCode":"17121","locality":"Loitz","municipality":{"key":"13075082","name":"Loitz, Stadt","type":"Stadt"},"district":{"key":"13075","name":"Vorpommern-Greifswald","type":"Landkreis"},"federalState":{"key":"13","name":"Mecklenburg-Vorpommern"}},{"name":"Markt","postalCode":"17121","locality":"Loitz","municipality":{"key":"13075082","name":"Loitz, Stadt","type":"Stadt"},"district":{"key":"13075","name":"Vorpommern-Greifswald","type":"Landkreis"},"federalState":{"key":"13","name":"Mecklenburg-Vorpommern"}},{"name":"Marktstr.","postalCode":"17121","locality":"Loitz","municipality":{"key":"13075082","name":"Loitz, Stadt","type":"Stadt"},"district":{"key":"13075","name":"Vorpommern-Greifswald","type":"Landkreis"},"federalState":{"key":"13","name":"Mecklenburg-Vorpommern"}},{"name":"Mühlenstr.","postalCode":"17121","locality":"Loitz","municipality":{"key":"13075082","name":"Loitz, Stadt","type":"Stadt"},"district":{"key":"13075","name":"Vorpommern-Greifswald","type":"Landkreis"},"federalState":{"key":"13","name":"Mecklenburg-Vorpommern"}},{"name":"Mühlenteich","postalCode":"17121","locality":"Loitz","municipality":{"key":"13075082","name":"Loitz, Stadt","type":"Stadt"},"district":{"key":"13075","name":"Vorpommern-Greifswald","type":"Landkreis"},"federalState":{"key":"13","name":"Mecklenburg-Vorpommern"}},{"name":"Mühlentorvorstadt","postalCode":"17121","locality":"Loitz","municipality":{"key":"13075082","name":"Loitz, Stadt","type":"Stadt"},"district":{"key":"13075","name":"Vorpommern-Greifswald","type":"Landkreis"},"federalState":{"key":"13","name":"Mecklenburg-Vorpommern"}},{"name":"Neustadt","postalCode":"17121","locality":"Loitz","municipality":{"key":"13075082","name":"Loitz, Stadt","type":"Stadt"},"district":{"key":"13075","name":"Vorpommern-Greifswald","type":"Landkreis"},"federalState":{"key":"13","name":"Mecklenburg-Vorpommern"}},{"name":"Nielitz","postalCode":"17121","locality":"Loitz","municipality":{"key":"13075082","name":"Loitz, Stadt","type":"Stadt"},"district":{"key":"13075","name":"Vorpommern-Greifswald","type":"Landkreis"},"federalState":{"key":"13","name":"Mecklenburg-Vorpommern"}},{"name":"Palmstr.","postalCode":"17121","locality":"Loitz","municipality":{"key":"13075082","name":"Loitz, Stadt","type":"Stadt"},"district":{"key":"13075","name":"Vorpommern-Greifswald","type":"Landkreis"},"federalState":{"key":"13","name":"Mecklenburg-Vorpommern"}},{"name":"Parkstr.","postalCode":"17121","locality":"Loitz","municipality":{"key":"13075082","name":"Loitz, Stadt","type":"Stadt"},"district":{"key":"13075","name":"Vorpommern-Greifswald","type":"Landkreis"},"federalState":{"key":"13","name":"Mecklenburg-Vorpommern"}},{"name":"Peenebrücke Loitz","postalCode":"17121","locality":"Loitz","municipality":{"key":"13075082","name":"Loitz, Stadt","type":"Stadt"},"district":{"key":"13075","name":"Vorpommern-Greifswald","type":"Landkreis"},"federalState":{"key":"13","name":"Mecklenburg-Vorpommern"}},{"name":"Peenestr.","postalCode":"17121","locality":"Loitz","municipality":{"key":"13075082","name":"Loitz, Stadt","type":"Stadt"},"district":{"key":"13075","name":"Vorpommern-Greifswald","type":"Landkreis"},"federalState":{"key":"13","name":"Mecklenburg-Vorpommern"}},{"name":"Plattenweg","postalCode":"17121","locality":"Loitz","municipality":{"key":"13075082","name":"Loitz, Stadt","type":"Stadt"},"district":{"key":"13075","name":"Vorpommern-Greifswald","type":"Landkreis"},"federalState":{"key":"13","name":"Mecklenburg-Vorpommern"}},{"name":"Preußendamm","postalCode":"17121","locality":"Loitz","municipality":{"key":"13075082","name":"Loitz, Stadt","type":"Stadt"},"district":{"key":"13075","name":"Vorpommern-Greifswald","type":"Landkreis"},"federalState":{"key":"13","name":"Mecklenburg-Vorpommern"}},{"name":"Rißmannsdorf","postalCode":"94359","locality":"Loitzendorf","municipality":{"key":"09278147","name":"Loitzendorf","type":"Kreisangehörige_Gemeinde"},"district":{"key":"09278","name":"Straubing-Bogen","type":"Landkreis"},"federalState":{"key":"09","name":"Bayern"}},{"name":"Rotdornweg","postalCode":"17121","locality":"Loitz","municipality":{"key":"13075082","name":"Loitz, Stadt","type":"Stadt"},"district":{"key":"13075","name":"Vorpommern-Greifswald","type":"Landkreis"},"federalState":{"key":"13","name":"Mecklenburg-Vorpommern"}},{"name":"Sandfeldstr.","postalCode":"17121","locality":"Loitz","municipality":{"key":"13075082","name":"Loitz, Stadt","type":"Stadt"},"district":{"key":"13075","name":"Vorpommern-Greifswald","type":"Landkreis"},"federalState":{"key":"13","name":"Mecklenburg-Vorpommern"}},{"name":"Schlossbergstr.","postalCode":"17121","locality":"Loitz","municipality":{"key":"13075082","name":"Loitz, Stadt","type":"Stadt"},"district":{"key":"13075","name":"Vorpommern-Greifswald","type":"Landkreis"},"federalState":{"key":"13","name":"Mecklenburg-Vorpommern"}},{"name":"Schmiedstr.","postalCode":"94359","locality":"Loitzendorf","municipality":{"key":"09278147","name":"Loitzendorf","type":"Kreisangehörige_Gemeinde"},"district":{"key":"09278","name":"Straubing-Bogen","type":"Landkreis"},"federalState":{"key":"09","name":"Bayern"}},{"name":"Schoppenmühl","postalCode":"17121","locality":"Loitz","municipality":{"key":"13075082","name":"Loitz, Stadt","type":"Stadt"},"district":{"key":"13075","name":"Vorpommern-Greifswald","type":"Landkreis"},"federalState":{"key":"13","name":"Mecklenburg-Vorpommern"}},{"name":"Schwedenstr.","postalCode":"17121","locality":"Loitz","municipality":{"key":"13075082","name":"Loitz, Stadt","type":"Stadt"},"district":{"key":"13075","name":"Vorpommern-Greifswald","type":"Landkreis"},"federalState":{"key":"13","name":"Mecklenburg-Vorpommern"}},{"name":"Schwinge","postalCode":"17121","locality":"Loitz","municipality":{"key":"13075082","name":"Loitz, Stadt","type":"Stadt"},"district":{"key":"13075","name":"Vorpommern-Greifswald","type":"Landkreis"},"federalState":{"key":"13","name":"Mecklenburg-Vorpommern"}},{"name":"Schwinge-Siedlung","postalCode":"17121","locality":"Loitz","municipality":{"key":"13075082","name":"Loitz, Stadt","type":"Stadt"},"district":{"key":"13075","name":"Vorpommern-Greifswald","type":"Landkreis"},"federalState":{"key":"13","name":"Mecklenburg-Vorpommern"}},{"name":"Schwingestr.","postalCode":"17121","locality":"Loitz","municipality":{"key":"13075082","name":"Loitz, Stadt","type":"Stadt"},"district":{"key":"13075","name":"Vorpommern-Greifswald","type":"Landkreis"},"federalState":{"key":"13","name":"Mecklenburg-Vorpommern"}},{"name":"Stadtfeld","postalCode":"17121","locality":"Loitz","municipality":{"key":"13075082","name":"Loitz, Stadt","type":"Stadt"},"district":{"key":"13075","name":"Vorpommern-Greifswald","type":"Landkreis"},"federalState":{"key":"13","name":"Mecklenburg-Vorpommern"}},{"name":"Steintor","postalCode":"17121","locality":"Loitz","municipality":{"key":"13075082","name":"Loitz, Stadt","type":"Stadt"},"district":{"key":"13075","name":"Vorpommern-Greifswald","type":"Landkreis"},"federalState":{"key":"13","name":"Mecklenburg-Vorpommern"}},{"name":"Steintorvorstadt","postalCode":"17121","locality":"Loitz","municipality":{"key":"13075082","name":"Loitz, Stadt","type":"Stadt"},"district":{"key":"13075","name":"Vorpommern-Greifswald","type":"Landkreis"},"federalState":{"key":"13","name":"Mecklenburg-Vorpommern"}},{"name":"Teichstr.","postalCode":"17121","locality":"Loitz","municipality":{"key":"13075082","name":"Loitz, Stadt","type":"Stadt"},"district":{"key":"13075","name":"Vorpommern-Greifswald","type":"Landkreis"},"federalState":{"key":"13","name":"Mecklenburg-Vorpommern"}},{"name":"Voßbäk","postalCode":"17121","locality":"Loitz","municipality":{"key":"13075082","name":"Loitz, Stadt","type":"Stadt"},"district":{"key":"13075","name":"Vorpommern-Greifswald","type":"Landkreis"},"federalState":{"key":"13","name":"Mecklenburg-Vorpommern"}},{"name":"Wagnerweg","postalCode":"94359","locality":"Loitzendorf","municipality":{"key":"09278147","name":"Loitzendorf","type":"Kreisangehörige_Gemeinde"},"district":{"key":"09278","name":"Straubing-Bogen","type":"Landkreis"},"federalState":{"key":"09","name":"Bayern"}},{"name":"Waldweg","postalCode":"17121","locality":"Loitz","municipality":{"key":"13075082","name":"Loitz, Stadt","type":"Stadt"},"district":{"key":"13075","name":"Vorpommern-Greifswald","type":"Landkreis"},"federalState":{"key":"13","name":"Mecklenburg-Vorpommern"}},{"name":"Wiesenweg","postalCode":"17121","locality":"Loitz","municipality":{"key":"13075082","name":"Loitz, Stadt","type":"Stadt"},"district":{"key":"13075","name":"Vorpommern-Greifswald","type":"Landkreis"},"federalState":{"key":"13","name":"Mecklenburg-Vorpommern"}},{"name":"Wilhelm-Dahlhoff-Str.","postalCode":"17121","locality":"Loitz","municipality":{"key":"13075082","name":"Loitz, Stadt","type":"Stadt"},"district":{"key":"13075","name":"Vorpommern-Greifswald","type":"Landkreis"},"federalState":{"key":"13","name":"Mecklenburg-Vorpommern"}},{"name":"Zarnekla","postalCode":"17121","locality":"Loitz","municipality":{"key":"13075082","name":"Loitz, Stadt","type":"Stadt"},"district":{"key":"13075","name":"Vorpommern-Greifswald","type":"Landkreis"},"federalState":{"key":"13","name":"Mecklenburg-Vorpommern"}},{"name":"Zarnekowstr.","postalCode":"17121","locality":"Loitz","municipality":{"key":"13075082","name":"Loitz, Stadt","type":"Stadt"},"district":{"key":"13075","name":"Vorpommern-Greifswald","type":"Landkreis"},"federalState":{"key":"13","name":"Mecklenburg-Vorpommern"}},{"name":"Zum Storchennest","postalCode":"17121","locality":"Loitz","municipality":{"key":"13075082","name":"Loitz, Stadt","type":"Stadt"},"district":{"key":"13075","name":"Vorpommern-Greifswald","type":"Landkreis"},"federalState":{"key":"13","name":"Mecklenburg-Vorpommern"}},{"name":"Zur Peene","postalCode":"17121","locality":"Loitz","municipality":{"key":"13075082","name":"Loitz, Stadt","type":"Stadt"},"district":{"key":"13075","name":"Vorpommern-Greifswald","type":"Landkreis"},"federalState":{"key":"13","name":"Mecklenburg-Vorpommern"}},]