[{"name":"Aachgasse","postalCode":"89143","locality":"Blaubeuren","municipality":{"key":"08425020","name":"Blaubeuren, Stadt","type":"Stadt"},"district":{"key":"08425","name":"Alb-Donau-Kreis","type":"Landkreis"},"federalState":{"key":"08","name":"Baden-Württemberg"}},{"name":"Aachtalstr.","postalCode":"89143","locality":"Blaubeuren","municipality":{"key":"08425020","name":"Blaubeuren, Stadt","type":"Stadt"},"district":{"key":"08425","name":"Alb-Donau-Kreis","type":"Landkreis"},"federalState":{"key":"08","name":"Baden-Württemberg"}},{"name":"Adlergasse","postalCode":"89143","locality":"Blaubeuren","municipality":{"key":"08425020","name":"Blaubeuren, Stadt","type":"Stadt"},"district":{"key":"08425","name":"Alb-Donau-Kreis","type":"Landkreis"},"federalState":{"key":"08","name":"Baden-Württemberg"}},{"name":"Ahornweg","postalCode":"89143","locality":"Blaubeuren","municipality":{"key":"08425020","name":"Blaubeuren, Stadt","type":"Stadt"},"district":{"key":"08425","name":"Alb-Donau-Kreis","type":"Landkreis"},"federalState":{"key":"08","name":"Baden-Württemberg"}},{"name":"Albstr.","postalCode":"89143","locality":"Blaubeuren","municipality":{"key":"08425020","name":"Blaubeuren, Stadt","type":"Stadt"},"district":{"key":"08425","name":"Alb-Donau-Kreis","type":"Landkreis"},"federalState":{"key":"08","name":"Baden-Württemberg"}},{"name":"Allmendinger","postalCode":"89143","locality":"Blaubeuren","municipality":{"key":"08425020","name":"Blaubeuren, Stadt","type":"Stadt"},"district":{"key":"08425","name":"Alb-Donau-Kreis","type":"Landkreis"},"federalState":{"key":"08","name":"Baden-Württemberg"}},{"name":"Alpenblick","postalCode":"89143","locality":"Blaubeuren","municipality":{"key":"08425020","name":"Blaubeuren, Stadt","type":"Stadt"},"district":{"key":"08425","name":"Alb-Donau-Kreis","type":"Landkreis"},"federalState":{"key":"08","name":"Baden-Württemberg"}},{"name":"Alte Gemeinde","postalCode":"89143","locality":"Blaubeuren","municipality":{"key":"08425020","name":"Blaubeuren, Stadt","type":"Stadt"},"district":{"key":"08425","name":"Alb-Donau-Kreis","type":"Landkreis"},"federalState":{"key":"08","name":"Baden-Württemberg"}},{"name":"Alte Poststr.","postalCode":"89143","locality":"Blaubeuren","municipality":{"key":"08425020","name":"Blaubeuren, Stadt","type":"Stadt"},"district":{"key":"08425","name":"Alb-Donau-Kreis","type":"Landkreis"},"federalState":{"key":"08","name":"Baden-Württemberg"}},{"name":"Alte Str.","postalCode":"89143","locality":"Blaubeuren","municipality":{"key":"08425020","name":"Blaubeuren, Stadt","type":"Stadt"},"district":{"key":"08425","name":"Alb-Donau-Kreis","type":"Landkreis"},"federalState":{"key":"08","name":"Baden-Württemberg"}},{"name":"Am Bähnle","postalCode":"89143","locality":"Blaubeuren","municipality":{"key":"08425020","name":"Blaubeuren, Stadt","type":"Stadt"},"district":{"key":"08425","name":"Alb-Donau-Kreis","type":"Landkreis"},"federalState":{"key":"08","name":"Baden-Württemberg"}},{"name":"Am Brunnen","postalCode":"89143","locality":"Blaubeuren","municipality":{"key":"08425020","name":"Blaubeuren, Stadt","type":"Stadt"},"district":{"key":"08425","name":"Alb-Donau-Kreis","type":"Landkreis"},"federalState":{"key":"08","name":"Baden-Württemberg"}},{"name":"Am Fischer","postalCode":"89143","locality":"Blaubeuren","municipality":{"key":"08425020","name":"Blaubeuren, Stadt","type":"Stadt"},"district":{"key":"08425","name":"Alb-Donau-Kreis","type":"Landkreis"},"federalState":{"key":"08","name":"Baden-Württemberg"}},{"name":"Am Forstgrund","postalCode":"89143","locality":"Blaubeuren","municipality":{"key":"08425020","name":"Blaubeuren, Stadt","type":"Stadt"},"district":{"key":"08425","name":"Alb-Donau-Kreis","type":"Landkreis"},"federalState":{"key":"08","name":"Baden-Württemberg"}},{"name":"Am Hölzle","postalCode":"89143","locality":"Blaubeuren","municipality":{"key":"08425020","name":"Blaubeuren, Stadt","type":"Stadt"},"district":{"key":"08425","name":"Alb-Donau-Kreis","type":"Landkreis"},"federalState":{"key":"08","name":"Baden-Württemberg"}},{"name":"Am Jungholz","postalCode":"89143","locality":"Blaubeuren","municipality":{"key":"08425020","name":"Blaubeuren, Stadt","type":"Stadt"},"district":{"key":"08425","name":"Alb-Donau-Kreis","type":"Landkreis"},"federalState":{"key":"08","name":"Baden-Württemberg"}},{"name":"Am Pfarrgarten","postalCode":"89143","locality":"Blaubeuren","municipality":{"key":"08425020","name":"Blaubeuren, Stadt","type":"Stadt"},"district":{"key":"08425","name":"Alb-Donau-Kreis","type":"Landkreis"},"federalState":{"key":"08","name":"Baden-Württemberg"}},{"name":"Am Ruckenschloß","postalCode":"89143","locality":"Blaubeuren","municipality":{"key":"08425020","name":"Blaubeuren, Stadt","type":"Stadt"},"district":{"key":"08425","name":"Alb-Donau-Kreis","type":"Landkreis"},"federalState":{"key":"08","name":"Baden-Württemberg"}},{"name":"Am Schneckenfels","postalCode":"89143","locality":"Blaubeuren","municipality":{"key":"08425020","name":"Blaubeuren, Stadt","type":"Stadt"},"district":{"key":"08425","name":"Alb-Donau-Kreis","type":"Landkreis"},"federalState":{"key":"08","name":"Baden-Württemberg"}},{"name":"Amselweg","postalCode":"89143","locality":"Blaubeuren","municipality":{"key":"08425020","name":"Blaubeuren, Stadt","type":"Stadt"},"district":{"key":"08425","name":"Alb-Donau-Kreis","type":"Landkreis"},"federalState":{"key":"08","name":"Baden-Württemberg"}},{"name":"Am Stundenstein","postalCode":"89143","locality":"Blaubeuren","municipality":{"key":"08425020","name":"Blaubeuren, Stadt","type":"Stadt"},"district":{"key":"08425","name":"Alb-Donau-Kreis","type":"Landkreis"},"federalState":{"key":"08","name":"Baden-Württemberg"}},{"name":"Am Weinberg","postalCode":"89143","locality":"Blaubeuren","municipality":{"key":"08425020","name":"Blaubeuren, Stadt","type":"Stadt"},"district":{"key":"08425","name":"Alb-Donau-Kreis","type":"Landkreis"},"federalState":{"key":"08","name":"Baden-Württemberg"}},{"name":"Am Wettele","postalCode":"89143","locality":"Blaubeuren","municipality":{"key":"08425020","name":"Blaubeuren, Stadt","type":"Stadt"},"district":{"key":"08425","name":"Alb-Donau-Kreis","type":"Landkreis"},"federalState":{"key":"08","name":"Baden-Württemberg"}},{"name":"An der Dorfquelle","postalCode":"89143","locality":"Blaubeuren","municipality":{"key":"08425020","name":"Blaubeuren, Stadt","type":"Stadt"},"district":{"key":"08425","name":"Alb-Donau-Kreis","type":"Landkreis"},"federalState":{"key":"08","name":"Baden-Württemberg"}},{"name":"An der Linde","postalCode":"89143","locality":"Blaubeuren","municipality":{"key":"08425020","name":"Blaubeuren, Stadt","type":"Stadt"},"district":{"key":"08425","name":"Alb-Donau-Kreis","type":"Landkreis"},"federalState":{"key":"08","name":"Baden-Württemberg"}},{"name":"An der Steige","postalCode":"89143","locality":"Blaubeuren","municipality":{"key":"08425020","name":"Blaubeuren, Stadt","type":"Stadt"},"district":{"key":"08425","name":"Alb-Donau-Kreis","type":"Landkreis"},"federalState":{"key":"08","name":"Baden-Württemberg"}},{"name":"Ascher Str.","postalCode":"89143","locality":"Blaubeuren","municipality":{"key":"08425020","name":"Blaubeuren, Stadt","type":"Stadt"},"district":{"key":"08425","name":"Alb-Donau-Kreis","type":"Landkreis"},"federalState":{"key":"08","name":"Baden-Württemberg"}},{"name":"Asperweg","postalCode":"89143","locality":"Blaubeuren","municipality":{"key":"08425020","name":"Blaubeuren, Stadt","type":"Stadt"},"district":{"key":"08425","name":"Alb-Donau-Kreis","type":"Landkreis"},"federalState":{"key":"08","name":"Baden-Württemberg"}},{"name":"Auf dem Barmen","postalCode":"89143","locality":"Blaubeuren","municipality":{"key":"08425020","name":"Blaubeuren, Stadt","type":"Stadt"},"district":{"key":"08425","name":"Alb-Donau-Kreis","type":"Landkreis"},"federalState":{"key":"08","name":"Baden-Württemberg"}},{"name":"Auf dem Graben","postalCode":"89143","locality":"Blaubeuren","municipality":{"key":"08425020","name":"Blaubeuren, Stadt","type":"Stadt"},"district":{"key":"08425","name":"Alb-Donau-Kreis","type":"Landkreis"},"federalState":{"key":"08","name":"Baden-Württemberg"}},{"name":"Auf dem Rucken","postalCode":"89143","locality":"Blaubeuren","municipality":{"key":"08425020","name":"Blaubeuren, Stadt","type":"Stadt"},"district":{"key":"08425","name":"Alb-Donau-Kreis","type":"Landkreis"},"federalState":{"key":"08","name":"Baden-Württemberg"}},{"name":"Auf den Reisenen","postalCode":"89143","locality":"Blaubeuren","municipality":{"key":"08425020","name":"Blaubeuren, Stadt","type":"Stadt"},"district":{"key":"08425","name":"Alb-Donau-Kreis","type":"Landkreis"},"federalState":{"key":"08","name":"Baden-Württemberg"}},{"name":"Auf der Höhe","postalCode":"89143","locality":"Blaubeuren","municipality":{"key":"08425020","name":"Blaubeuren, Stadt","type":"Stadt"},"district":{"key":"08425","name":"Alb-Donau-Kreis","type":"Landkreis"},"federalState":{"key":"08","name":"Baden-Württemberg"}},{"name":"Auf der Lichs","postalCode":"89143","locality":"Blaubeuren","municipality":{"key":"08425020","name":"Blaubeuren, Stadt","type":"Stadt"},"district":{"key":"08425","name":"Alb-Donau-Kreis","type":"Landkreis"},"federalState":{"key":"08","name":"Baden-Württemberg"}},{"name":"Babette-Gundlach-Platz","postalCode":"89143","locality":"Blaubeuren","municipality":{"key":"08425020","name":"Blaubeuren, Stadt","type":"Stadt"},"district":{"key":"08425","name":"Alb-Donau-Kreis","type":"Landkreis"},"federalState":{"key":"08","name":"Baden-Württemberg"}},{"name":"Bachweg","postalCode":"89143","locality":"Blaubeuren","municipality":{"key":"08425020","name":"Blaubeuren, Stadt","type":"Stadt"},"district":{"key":"08425","name":"Alb-Donau-Kreis","type":"Landkreis"},"federalState":{"key":"08","name":"Baden-Württemberg"}},{"name":"Bahnhofstr.","postalCode":"89143","locality":"Blaubeuren","municipality":{"key":"08425020","name":"Blaubeuren, Stadt","type":"Stadt"},"district":{"key":"08425","name":"Alb-Donau-Kreis","type":"Landkreis"},"federalState":{"key":"08","name":"Baden-Württemberg"}},{"name":"Baiergasse","postalCode":"89143","locality":"Blaubeuren","municipality":{"key":"08425020","name":"Blaubeuren, Stadt","type":"Stadt"},"district":{"key":"08425","name":"Alb-Donau-Kreis","type":"Landkreis"},"federalState":{"key":"08","name":"Baden-Württemberg"}},{"name":"Bei der Forche","postalCode":"89143","locality":"Blaubeuren","municipality":{"key":"08425020","name":"Blaubeuren, Stadt","type":"Stadt"},"district":{"key":"08425","name":"Alb-Donau-Kreis","type":"Landkreis"},"federalState":{"key":"08","name":"Baden-Württemberg"}},{"name":"Bei der Hüle","postalCode":"89143","locality":"Blaubeuren","municipality":{"key":"08425020","name":"Blaubeuren, Stadt","type":"Stadt"},"district":{"key":"08425","name":"Alb-Donau-Kreis","type":"Landkreis"},"federalState":{"key":"08","name":"Baden-Württemberg"}},{"name":"Beim Forsthaus","postalCode":"89143","locality":"Blaubeuren","municipality":{"key":"08425020","name":"Blaubeuren, Stadt","type":"Stadt"},"district":{"key":"08425","name":"Alb-Donau-Kreis","type":"Landkreis"},"federalState":{"key":"08","name":"Baden-Württemberg"}},{"name":"Beim Landsitzle","postalCode":"89143","locality":"Blaubeuren","municipality":{"key":"08425020","name":"Blaubeuren, Stadt","type":"Stadt"},"district":{"key":"08425","name":"Alb-Donau-Kreis","type":"Landkreis"},"federalState":{"key":"08","name":"Baden-Württemberg"}},{"name":"Beim Langenlauch","postalCode":"89143","locality":"Blaubeuren","municipality":{"key":"08425020","name":"Blaubeuren, Stadt","type":"Stadt"},"district":{"key":"08425","name":"Alb-Donau-Kreis","type":"Landkreis"},"federalState":{"key":"08","name":"Baden-Württemberg"}},{"name":"Beininger Str.","postalCode":"89143","locality":"Blaubeuren","municipality":{"key":"08425020","name":"Blaubeuren, Stadt","type":"Stadt"},"district":{"key":"08425","name":"Alb-Donau-Kreis","type":"Landkreis"},"federalState":{"key":"08","name":"Baden-Württemberg"}},{"name":"Berghüler Weg","postalCode":"89143","locality":"Blaubeuren","municipality":{"key":"08425020","name":"Blaubeuren, Stadt","type":"Stadt"},"district":{"key":"08425","name":"Alb-Donau-Kreis","type":"Landkreis"},"federalState":{"key":"08","name":"Baden-Württemberg"}},{"name":"Bergstr.","postalCode":"89143","locality":"Blaubeuren","municipality":{"key":"08425020","name":"Blaubeuren, Stadt","type":"Stadt"},"district":{"key":"08425","name":"Alb-Donau-Kreis","type":"Landkreis"},"federalState":{"key":"08","name":"Baden-Württemberg"}},{"name":"Bermaringer Weg","postalCode":"89143","locality":"Blaubeuren","municipality":{"key":"08425020","name":"Blaubeuren, Stadt","type":"Stadt"},"district":{"key":"08425","name":"Alb-Donau-Kreis","type":"Landkreis"},"federalState":{"key":"08","name":"Baden-Württemberg"}},{"name":"Bernhards-Gruber-Weg","postalCode":"89143","locality":"Blaubeuren","municipality":{"key":"08425020","name":"Blaubeuren, Stadt","type":"Stadt"},"district":{"key":"08425","name":"Alb-Donau-Kreis","type":"Landkreis"},"federalState":{"key":"08","name":"Baden-Württemberg"}},{"name":"Beurer Steig","postalCode":"89143","locality":"Blaubeuren","municipality":{"key":"08425020","name":"Blaubeuren, Stadt","type":"Stadt"},"district":{"key":"08425","name":"Alb-Donau-Kreis","type":"Landkreis"},"federalState":{"key":"08","name":"Baden-Württemberg"}},{"name":"Birkenweg","postalCode":"89143","locality":"Blaubeuren","municipality":{"key":"08425020","name":"Blaubeuren, Stadt","type":"Stadt"},"district":{"key":"08425","name":"Alb-Donau-Kreis","type":"Landkreis"},"federalState":{"key":"08","name":"Baden-Württemberg"}},{"name":"Blaubergstr.","postalCode":"89143","locality":"Blaubeuren","municipality":{"key":"08425020","name":"Blaubeuren, Stadt","type":"Stadt"},"district":{"key":"08425","name":"Alb-Donau-Kreis","type":"Landkreis"},"federalState":{"key":"08","name":"Baden-Württemberg"}},{"name":"Blaubeurer Str.","postalCode":"89143","locality":"Blaubeuren","municipality":{"key":"08425020","name":"Blaubeuren, Stadt","type":"Stadt"},"district":{"key":"08425","name":"Alb-Donau-Kreis","type":"Landkreis"},"federalState":{"key":"08","name":"Baden-Württemberg"}},{"name":"Blaugasse","postalCode":"89143","locality":"Blaubeuren","municipality":{"key":"08425020","name":"Blaubeuren, Stadt","type":"Stadt"},"district":{"key":"08425","name":"Alb-Donau-Kreis","type":"Landkreis"},"federalState":{"key":"08","name":"Baden-Württemberg"}},{"name":"Bohlweg","postalCode":"89143","locality":"Blaubeuren","municipality":{"key":"08425020","name":"Blaubeuren, Stadt","type":"Stadt"},"district":{"key":"08425","name":"Alb-Donau-Kreis","type":"Landkreis"},"federalState":{"key":"08","name":"Baden-Württemberg"}},{"name":"Bohnackergässle","postalCode":"89143","locality":"Blaubeuren","municipality":{"key":"08425020","name":"Blaubeuren, Stadt","type":"Stadt"},"district":{"key":"08425","name":"Alb-Donau-Kreis","type":"Landkreis"},"federalState":{"key":"08","name":"Baden-Württemberg"}},{"name":"Boskopweg","postalCode":"89143","locality":"Blaubeuren","municipality":{"key":"08425020","name":"Blaubeuren, Stadt","type":"Stadt"},"district":{"key":"08425","name":"Alb-Donau-Kreis","type":"Landkreis"},"federalState":{"key":"08","name":"Baden-Württemberg"}},{"name":"Brechhausweg","postalCode":"89143","locality":"Blaubeuren","municipality":{"key":"08425020","name":"Blaubeuren, Stadt","type":"Stadt"},"district":{"key":"08425","name":"Alb-Donau-Kreis","type":"Landkreis"},"federalState":{"key":"08","name":"Baden-Württemberg"}},{"name":"Breiteweg","postalCode":"89143","locality":"Blaubeuren","municipality":{"key":"08425020","name":"Blaubeuren, Stadt","type":"Stadt"},"district":{"key":"08425","name":"Alb-Donau-Kreis","type":"Landkreis"},"federalState":{"key":"08","name":"Baden-Württemberg"}},{"name":"Brennerweg","postalCode":"89143","locality":"Blaubeuren","municipality":{"key":"08425020","name":"Blaubeuren, Stadt","type":"Stadt"},"district":{"key":"08425","name":"Alb-Donau-Kreis","type":"Landkreis"},"federalState":{"key":"08","name":"Baden-Württemberg"}},{"name":"Brenntenhauweg","postalCode":"89143","locality":"Blaubeuren","municipality":{"key":"08425020","name":"Blaubeuren, Stadt","type":"Stadt"},"district":{"key":"08425","name":"Alb-Donau-Kreis","type":"Landkreis"},"federalState":{"key":"08","name":"Baden-Württemberg"}},{"name":"Bruckfelsstr.","postalCode":"89143","locality":"Blaubeuren","municipality":{"key":"08425020","name":"Blaubeuren, Stadt","type":"Stadt"},"district":{"key":"08425","name":"Alb-Donau-Kreis","type":"Landkreis"},"federalState":{"key":"08","name":"Baden-Württemberg"}},{"name":"Brühlweg","postalCode":"89143","locality":"Blaubeuren","municipality":{"key":"08425020","name":"Blaubeuren, Stadt","type":"Stadt"},"district":{"key":"08425","name":"Alb-Donau-Kreis","type":"Landkreis"},"federalState":{"key":"08","name":"Baden-Württemberg"}},{"name":"Brunnenweg","postalCode":"89143","locality":"Blaubeuren","municipality":{"key":"08425020","name":"Blaubeuren, Stadt","type":"Stadt"},"district":{"key":"08425","name":"Alb-Donau-Kreis","type":"Landkreis"},"federalState":{"key":"08","name":"Baden-Württemberg"}},{"name":"Buchackerweg","postalCode":"89143","locality":"Blaubeuren","municipality":{"key":"08425020","name":"Blaubeuren, Stadt","type":"Stadt"},"district":{"key":"08425","name":"Alb-Donau-Kreis","type":"Landkreis"},"federalState":{"key":"08","name":"Baden-Württemberg"}},{"name":"Buchenweg","postalCode":"89143","locality":"Blaubeuren","municipality":{"key":"08425020","name":"Blaubeuren, Stadt","type":"Stadt"},"district":{"key":"08425","name":"Alb-Donau-Kreis","type":"Landkreis"},"federalState":{"key":"08","name":"Baden-Württemberg"}},{"name":"Bühlstr.","postalCode":"89143","locality":"Blaubeuren","municipality":{"key":"08425020","name":"Blaubeuren, Stadt","type":"Stadt"},"district":{"key":"08425","name":"Alb-Donau-Kreis","type":"Landkreis"},"federalState":{"key":"08","name":"Baden-Württemberg"}},{"name":"Burgsteig","postalCode":"89143","locality":"Blaubeuren","municipality":{"key":"08425020","name":"Blaubeuren, Stadt","type":"Stadt"},"district":{"key":"08425","name":"Alb-Donau-Kreis","type":"Landkreis"},"federalState":{"key":"08","name":"Baden-Württemberg"}},{"name":"Burkhardsweiler","postalCode":"89143","locality":"Blaubeuren","municipality":{"key":"08425020","name":"Blaubeuren, Stadt","type":"Stadt"},"district":{"key":"08425","name":"Alb-Donau-Kreis","type":"Landkreis"},"federalState":{"key":"08","name":"Baden-Württemberg"}},{"name":"Dodelweg","postalCode":"89143","locality":"Blaubeuren","municipality":{"key":"08425020","name":"Blaubeuren, Stadt","type":"Stadt"},"district":{"key":"08425","name":"Alb-Donau-Kreis","type":"Landkreis"},"federalState":{"key":"08","name":"Baden-Württemberg"}},{"name":"Dolinenweg","postalCode":"89143","locality":"Blaubeuren","municipality":{"key":"08425020","name":"Blaubeuren, Stadt","type":"Stadt"},"district":{"key":"08425","name":"Alb-Donau-Kreis","type":"Landkreis"},"federalState":{"key":"08","name":"Baden-Württemberg"}},{"name":"Dorfstr.","postalCode":"89143","locality":"Blaubeuren","municipality":{"key":"08425020","name":"Blaubeuren, Stadt","type":"Stadt"},"district":{"key":"08425","name":"Alb-Donau-Kreis","type":"Landkreis"},"federalState":{"key":"08","name":"Baden-Württemberg"}},{"name":"Drosselweg","postalCode":"89143","locality":"Blaubeuren","municipality":{"key":"08425020","name":"Blaubeuren, Stadt","type":"Stadt"},"district":{"key":"08425","name":"Alb-Donau-Kreis","type":"Landkreis"},"federalState":{"key":"08","name":"Baden-Württemberg"}},{"name":"Eduard-von-Lang-Str.","postalCode":"89143","locality":"Blaubeuren","municipality":{"key":"08425020","name":"Blaubeuren, Stadt","type":"Stadt"},"district":{"key":"08425","name":"Alb-Donau-Kreis","type":"Landkreis"},"federalState":{"key":"08","name":"Baden-Württemberg"}},{"name":"Ehinger Str.","postalCode":"89143","locality":"Blaubeuren","municipality":{"key":"08425020","name":"Blaubeuren, Stadt","type":"Stadt"},"district":{"key":"08425","name":"Alb-Donau-Kreis","type":"Landkreis"},"federalState":{"key":"08","name":"Baden-Württemberg"}},{"name":"Eichenweg","postalCode":"89143","locality":"Blaubeuren","municipality":{"key":"08425020","name":"Blaubeuren, Stadt","type":"Stadt"},"district":{"key":"08425","name":"Alb-Donau-Kreis","type":"Landkreis"},"federalState":{"key":"08","name":"Baden-Württemberg"}},{"name":"Eisvogelweg","postalCode":"89143","locality":"Blaubeuren","municipality":{"key":"08425020","name":"Blaubeuren, Stadt","type":"Stadt"},"district":{"key":"08425","name":"Alb-Donau-Kreis","type":"Landkreis"},"federalState":{"key":"08","name":"Baden-Württemberg"}},{"name":"Ennabeurer Weg","postalCode":"89143","locality":"Blaubeuren","municipality":{"key":"08425020","name":"Blaubeuren, Stadt","type":"Stadt"},"district":{"key":"08425","name":"Alb-Donau-Kreis","type":"Landkreis"},"federalState":{"key":"08","name":"Baden-Württemberg"}},{"name":"Entenweg","postalCode":"89143","locality":"Blaubeuren","municipality":{"key":"08425020","name":"Blaubeuren, Stadt","type":"Stadt"},"district":{"key":"08425","name":"Alb-Donau-Kreis","type":"Landkreis"},"federalState":{"key":"08","name":"Baden-Württemberg"}},{"name":"Erlenweg","postalCode":"89143","locality":"Blaubeuren","municipality":{"key":"08425020","name":"Blaubeuren, Stadt","type":"Stadt"},"district":{"key":"08425","name":"Alb-Donau-Kreis","type":"Landkreis"},"federalState":{"key":"08","name":"Baden-Württemberg"}},{"name":"Eythstr.","postalCode":"89143","locality":"Blaubeuren","municipality":{"key":"08425020","name":"Blaubeuren, Stadt","type":"Stadt"},"district":{"key":"08425","name":"Alb-Donau-Kreis","type":"Landkreis"},"federalState":{"key":"08","name":"Baden-Württemberg"}},{"name":"Fabristr.","postalCode":"89143","locality":"Blaubeuren","municipality":{"key":"08425020","name":"Blaubeuren, Stadt","type":"Stadt"},"district":{"key":"08425","name":"Alb-Donau-Kreis","type":"Landkreis"},"federalState":{"key":"08","name":"Baden-Württemberg"}},{"name":"Feinerstr.","postalCode":"89143","locality":"Blaubeuren","municipality":{"key":"08425020","name":"Blaubeuren, Stadt","type":"Stadt"},"district":{"key":"08425","name":"Alb-Donau-Kreis","type":"Landkreis"},"federalState":{"key":"08","name":"Baden-Württemberg"}},{"name":"Felsenstr.","postalCode":"89143","locality":"Blaubeuren","municipality":{"key":"08425020","name":"Blaubeuren, Stadt","type":"Stadt"},"district":{"key":"08425","name":"Alb-Donau-Kreis","type":"Landkreis"},"federalState":{"key":"08","name":"Baden-Württemberg"}},{"name":"Fichtenweg","postalCode":"89143","locality":"Blaubeuren","municipality":{"key":"08425020","name":"Blaubeuren, Stadt","type":"Stadt"},"district":{"key":"08425","name":"Alb-Donau-Kreis","type":"Landkreis"},"federalState":{"key":"08","name":"Baden-Württemberg"}},{"name":"Fischerweg","postalCode":"89143","locality":"Blaubeuren","municipality":{"key":"08425020","name":"Blaubeuren, Stadt","type":"Stadt"},"district":{"key":"08425","name":"Alb-Donau-Kreis","type":"Landkreis"},"federalState":{"key":"08","name":"Baden-Württemberg"}},{"name":"Fliederweg","postalCode":"89143","locality":"Blaubeuren","municipality":{"key":"08425020","name":"Blaubeuren, Stadt","type":"Stadt"},"district":{"key":"08425","name":"Alb-Donau-Kreis","type":"Landkreis"},"federalState":{"key":"08","name":"Baden-Württemberg"}},{"name":"Flinsenlauhweg","postalCode":"89143","locality":"Blaubeuren","municipality":{"key":"08425020","name":"Blaubeuren, Stadt","type":"Stadt"},"district":{"key":"08425","name":"Alb-Donau-Kreis","type":"Landkreis"},"federalState":{"key":"08","name":"Baden-Württemberg"}},{"name":"Flinser Weg","postalCode":"89143","locality":"Blaubeuren","municipality":{"key":"08425020","name":"Blaubeuren, Stadt","type":"Stadt"},"district":{"key":"08425","name":"Alb-Donau-Kreis","type":"Landkreis"},"federalState":{"key":"08","name":"Baden-Württemberg"}},{"name":"Flurstr.","postalCode":"89143","locality":"Blaubeuren","municipality":{"key":"08425020","name":"Blaubeuren, Stadt","type":"Stadt"},"district":{"key":"08425","name":"Alb-Donau-Kreis","type":"Landkreis"},"federalState":{"key":"08","name":"Baden-Württemberg"}},{"name":"Forellenweg","postalCode":"89143","locality":"Blaubeuren","municipality":{"key":"08425020","name":"Blaubeuren, Stadt","type":"Stadt"},"district":{"key":"08425","name":"Alb-Donau-Kreis","type":"Landkreis"},"federalState":{"key":"08","name":"Baden-Württemberg"}},{"name":"Forstweg","postalCode":"89143","locality":"Blaubeuren","municipality":{"key":"08425020","name":"Blaubeuren, Stadt","type":"Stadt"},"district":{"key":"08425","name":"Alb-Donau-Kreis","type":"Landkreis"},"federalState":{"key":"08","name":"Baden-Württemberg"}},{"name":"Frauenbergstr.","postalCode":"89143","locality":"Blaubeuren","municipality":{"key":"08425020","name":"Blaubeuren, Stadt","type":"Stadt"},"district":{"key":"08425","name":"Alb-Donau-Kreis","type":"Landkreis"},"federalState":{"key":"08","name":"Baden-Württemberg"}},{"name":"Friedensstr.","postalCode":"89143","locality":"Blaubeuren","municipality":{"key":"08425020","name":"Blaubeuren, Stadt","type":"Stadt"},"district":{"key":"08425","name":"Alb-Donau-Kreis","type":"Landkreis"},"federalState":{"key":"08","name":"Baden-Württemberg"}},{"name":"Friedrich-List-Str.","postalCode":"89143","locality":"Blaubeuren","municipality":{"key":"08425020","name":"Blaubeuren, Stadt","type":"Stadt"},"district":{"key":"08425","name":"Alb-Donau-Kreis","type":"Landkreis"},"federalState":{"key":"08","name":"Baden-Württemberg"}},{"name":"Fuhrwerkstr.","postalCode":"89143","locality":"Blaubeuren","municipality":{"key":"08425020","name":"Blaubeuren, Stadt","type":"Stadt"},"district":{"key":"08425","name":"Alb-Donau-Kreis","type":"Landkreis"},"federalState":{"key":"08","name":"Baden-Württemberg"}},{"name":"Gartenstr.","postalCode":"89143","locality":"Blaubeuren","municipality":{"key":"08425020","name":"Blaubeuren, Stadt","type":"Stadt"},"district":{"key":"08425","name":"Alb-Donau-Kreis","type":"Landkreis"},"federalState":{"key":"08","name":"Baden-Württemberg"}},{"name":"Gässle","postalCode":"89143","locality":"Blaubeuren","municipality":{"key":"08425020","name":"Blaubeuren, Stadt","type":"Stadt"},"district":{"key":"08425","name":"Alb-Donau-Kreis","type":"Landkreis"},"federalState":{"key":"08","name":"Baden-Württemberg"}},{"name":"Gemeines Reis","postalCode":"89143","locality":"Blaubeuren","municipality":{"key":"08425020","name":"Blaubeuren, Stadt","type":"Stadt"},"district":{"key":"08425","name":"Alb-Donau-Kreis","type":"Landkreis"},"federalState":{"key":"08","name":"Baden-Württemberg"}},{"name":"Gerbergasse","postalCode":"89143","locality":"Blaubeuren","municipality":{"key":"08425020","name":"Blaubeuren, Stadt","type":"Stadt"},"district":{"key":"08425","name":"Alb-Donau-Kreis","type":"Landkreis"},"federalState":{"key":"08","name":"Baden-Württemberg"}},{"name":"Gerhauser Str.","postalCode":"89143","locality":"Blaubeuren","municipality":{"key":"08425020","name":"Blaubeuren, Stadt","type":"Stadt"},"district":{"key":"08425","name":"Alb-Donau-Kreis","type":"Landkreis"},"federalState":{"key":"08","name":"Baden-Württemberg"}},{"name":"Gleißenburger Weg","postalCode":"89143","locality":"Blaubeuren","municipality":{"key":"08425020","name":"Blaubeuren, Stadt","type":"Stadt"},"district":{"key":"08425","name":"Alb-Donau-Kreis","type":"Landkreis"},"federalState":{"key":"08","name":"Baden-Württemberg"}},{"name":"Gockelersteig","postalCode":"89143","locality":"Blaubeuren","municipality":{"key":"08425020","name":"Blaubeuren, Stadt","type":"Stadt"},"district":{"key":"08425","name":"Alb-Donau-Kreis","type":"Landkreis"},"federalState":{"key":"08","name":"Baden-Württemberg"}},{"name":"Gotthilf-Dorn-Str.","postalCode":"89143","locality":"Blaubeuren","municipality":{"key":"08425020","name":"Blaubeuren, Stadt","type":"Stadt"},"district":{"key":"08425","name":"Alb-Donau-Kreis","type":"Landkreis"},"federalState":{"key":"08","name":"Baden-Württemberg"}},{"name":"Gottlieb-Haug-Str.","postalCode":"89143","locality":"Blaubeuren","municipality":{"key":"08425020","name":"Blaubeuren, Stadt","type":"Stadt"},"district":{"key":"08425","name":"Alb-Donau-Kreis","type":"Landkreis"},"federalState":{"key":"08","name":"Baden-Württemberg"}},{"name":"Grundstr.","postalCode":"89143","locality":"Blaubeuren","municipality":{"key":"08425020","name":"Blaubeuren, Stadt","type":"Stadt"},"district":{"key":"08425","name":"Alb-Donau-Kreis","type":"Landkreis"},"federalState":{"key":"08","name":"Baden-Württemberg"}},{"name":"Gunderstall","postalCode":"89143","locality":"Blaubeuren","municipality":{"key":"08425020","name":"Blaubeuren, Stadt","type":"Stadt"},"district":{"key":"08425","name":"Alb-Donau-Kreis","type":"Landkreis"},"federalState":{"key":"08","name":"Baden-Württemberg"}},{"name":"Günzelburgstr.","postalCode":"89143","locality":"Blaubeuren","municipality":{"key":"08425020","name":"Blaubeuren, Stadt","type":"Stadt"},"district":{"key":"08425","name":"Alb-Donau-Kreis","type":"Landkreis"},"federalState":{"key":"08","name":"Baden-Württemberg"}},{"name":"Gustav-Sigloch-Str.","postalCode":"89143","locality":"Blaubeuren","municipality":{"key":"08425020","name":"Blaubeuren, Stadt","type":"Stadt"},"district":{"key":"08425","name":"Alb-Donau-Kreis","type":"Landkreis"},"federalState":{"key":"08","name":"Baden-Württemberg"}},{"name":"Hagenbucher Tal","postalCode":"89143","locality":"Blaubeuren","municipality":{"key":"08425020","name":"Blaubeuren, Stadt","type":"Stadt"},"district":{"key":"08425","name":"Alb-Donau-Kreis","type":"Landkreis"},"federalState":{"key":"08","name":"Baden-Württemberg"}},{"name":"Haldengasse","postalCode":"89143","locality":"Blaubeuren","municipality":{"key":"08425020","name":"Blaubeuren, Stadt","type":"Stadt"},"district":{"key":"08425","name":"Alb-Donau-Kreis","type":"Landkreis"},"federalState":{"key":"08","name":"Baden-Württemberg"}},{"name":"Haldenweg","postalCode":"89143","locality":"Blaubeuren","municipality":{"key":"08425020","name":"Blaubeuren, Stadt","type":"Stadt"},"district":{"key":"08425","name":"Alb-Donau-Kreis","type":"Landkreis"},"federalState":{"key":"08","name":"Baden-Württemberg"}},{"name":"Hans-Rueß-Weg","postalCode":"89143","locality":"Blaubeuren","municipality":{"key":"08425020","name":"Blaubeuren, Stadt","type":"Stadt"},"district":{"key":"08425","name":"Alb-Donau-Kreis","type":"Landkreis"},"federalState":{"key":"08","name":"Baden-Württemberg"}},{"name":"Hauptstr.","postalCode":"89143","locality":"Blaubeuren","municipality":{"key":"08425020","name":"Blaubeuren, Stadt","type":"Stadt"},"district":{"key":"08425","name":"Alb-Donau-Kreis","type":"Landkreis"},"federalState":{"key":"08","name":"Baden-Württemberg"}},{"name":"Heiderweg","postalCode":"89143","locality":"Blaubeuren","municipality":{"key":"08425020","name":"Blaubeuren, Stadt","type":"Stadt"},"district":{"key":"08425","name":"Alb-Donau-Kreis","type":"Landkreis"},"federalState":{"key":"08","name":"Baden-Württemberg"}},{"name":"Heimstättenstr.","postalCode":"89143","locality":"Blaubeuren","municipality":{"key":"08425020","name":"Blaubeuren, Stadt","type":"Stadt"},"district":{"key":"08425","name":"Alb-Donau-Kreis","type":"Landkreis"},"federalState":{"key":"08","name":"Baden-Württemberg"}},{"name":"Helfensteinerstr.","postalCode":"89143","locality":"Blaubeuren","municipality":{"key":"08425020","name":"Blaubeuren, Stadt","type":"Stadt"},"district":{"key":"08425","name":"Alb-Donau-Kreis","type":"Landkreis"},"federalState":{"key":"08","name":"Baden-Württemberg"}},{"name":"Hermann-Hesse-Weg","postalCode":"89143","locality":"Blaubeuren","municipality":{"key":"08425020","name":"Blaubeuren, Stadt","type":"Stadt"},"district":{"key":"08425","name":"Alb-Donau-Kreis","type":"Landkreis"},"federalState":{"key":"08","name":"Baden-Württemberg"}},{"name":"Herrlinger Str.","postalCode":"89143","locality":"Blaubeuren","municipality":{"key":"08425020","name":"Blaubeuren, Stadt","type":"Stadt"},"district":{"key":"08425","name":"Alb-Donau-Kreis","type":"Landkreis"},"federalState":{"key":"08","name":"Baden-Württemberg"}},{"name":"Hessenhöfe","postalCode":"89143","locality":"Blaubeuren","municipality":{"key":"08425020","name":"Blaubeuren, Stadt","type":"Stadt"},"district":{"key":"08425","name":"Alb-Donau-Kreis","type":"Landkreis"},"federalState":{"key":"08","name":"Baden-Württemberg"}},{"name":"Hessensteg","postalCode":"89143","locality":"Blaubeuren","municipality":{"key":"08425020","name":"Blaubeuren, Stadt","type":"Stadt"},"district":{"key":"08425","name":"Alb-Donau-Kreis","type":"Landkreis"},"federalState":{"key":"08","name":"Baden-Württemberg"}},{"name":"Himmelreich","postalCode":"89143","locality":"Blaubeuren","municipality":{"key":"08425020","name":"Blaubeuren, Stadt","type":"Stadt"},"district":{"key":"08425","name":"Alb-Donau-Kreis","type":"Landkreis"},"federalState":{"key":"08","name":"Baden-Württemberg"}},{"name":"Hinter dem Dorf","postalCode":"89143","locality":"Blaubeuren","municipality":{"key":"08425020","name":"Blaubeuren, Stadt","type":"Stadt"},"district":{"key":"08425","name":"Alb-Donau-Kreis","type":"Landkreis"},"federalState":{"key":"08","name":"Baden-Württemberg"}},{"name":"Hinter den Gärten","postalCode":"89143","locality":"Blaubeuren","municipality":{"key":"08425020","name":"Blaubeuren, Stadt","type":"Stadt"},"district":{"key":"08425","name":"Alb-Donau-Kreis","type":"Landkreis"},"federalState":{"key":"08","name":"Baden-Württemberg"}},{"name":"Hirschgasse","postalCode":"89143","locality":"Blaubeuren","municipality":{"key":"08425020","name":"Blaubeuren, Stadt","type":"Stadt"},"district":{"key":"08425","name":"Alb-Donau-Kreis","type":"Landkreis"},"federalState":{"key":"08","name":"Baden-Württemberg"}},{"name":"Hochacker","postalCode":"89143","locality":"Blaubeuren","municipality":{"key":"08425020","name":"Blaubeuren, Stadt","type":"Stadt"},"district":{"key":"08425","name":"Alb-Donau-Kreis","type":"Landkreis"},"federalState":{"key":"08","name":"Baden-Württemberg"}},{"name":"Hochstetterweg","postalCode":"89143","locality":"Blaubeuren","municipality":{"key":"08425020","name":"Blaubeuren, Stadt","type":"Stadt"},"district":{"key":"08425","name":"Alb-Donau-Kreis","type":"Landkreis"},"federalState":{"key":"08","name":"Baden-Württemberg"}},{"name":"Höhenblick","postalCode":"89143","locality":"Blaubeuren","municipality":{"key":"08425020","name":"Blaubeuren, Stadt","type":"Stadt"},"district":{"key":"08425","name":"Alb-Donau-Kreis","type":"Landkreis"},"federalState":{"key":"08","name":"Baden-Württemberg"}},{"name":"Holderweg","postalCode":"89143","locality":"Blaubeuren","municipality":{"key":"08425020","name":"Blaubeuren, Stadt","type":"Stadt"},"district":{"key":"08425","name":"Alb-Donau-Kreis","type":"Landkreis"},"federalState":{"key":"08","name":"Baden-Württemberg"}},{"name":"Höllental","postalCode":"89143","locality":"Blaubeuren","municipality":{"key":"08425020","name":"Blaubeuren, Stadt","type":"Stadt"},"district":{"key":"08425","name":"Alb-Donau-Kreis","type":"Landkreis"},"federalState":{"key":"08","name":"Baden-Württemberg"}},{"name":"Holunderweg","postalCode":"89143","locality":"Blaubeuren","municipality":{"key":"08425020","name":"Blaubeuren, Stadt","type":"Stadt"},"district":{"key":"08425","name":"Alb-Donau-Kreis","type":"Landkreis"},"federalState":{"key":"08","name":"Baden-Württemberg"}},{"name":"Höringer Steig","postalCode":"89143","locality":"Blaubeuren","municipality":{"key":"08425020","name":"Blaubeuren, Stadt","type":"Stadt"},"district":{"key":"08425","name":"Alb-Donau-Kreis","type":"Landkreis"},"federalState":{"key":"08","name":"Baden-Württemberg"}},{"name":"Im Eichert","postalCode":"89143","locality":"Blaubeuren","municipality":{"key":"08425020","name":"Blaubeuren, Stadt","type":"Stadt"},"district":{"key":"08425","name":"Alb-Donau-Kreis","type":"Landkreis"},"federalState":{"key":"08","name":"Baden-Württemberg"}},{"name":"Im Flinsenlau","postalCode":"89143","locality":"Blaubeuren","municipality":{"key":"08425020","name":"Blaubeuren, Stadt","type":"Stadt"},"district":{"key":"08425","name":"Alb-Donau-Kreis","type":"Landkreis"},"federalState":{"key":"08","name":"Baden-Württemberg"}},{"name":"Im Geflinse","postalCode":"89143","locality":"Blaubeuren","municipality":{"key":"08425020","name":"Blaubeuren, Stadt","type":"Stadt"},"district":{"key":"08425","name":"Alb-Donau-Kreis","type":"Landkreis"},"federalState":{"key":"08","name":"Baden-Württemberg"}},{"name":"Im Greut","postalCode":"89143","locality":"Blaubeuren","municipality":{"key":"08425020","name":"Blaubeuren, Stadt","type":"Stadt"},"district":{"key":"08425","name":"Alb-Donau-Kreis","type":"Landkreis"},"federalState":{"key":"08","name":"Baden-Württemberg"}},{"name":"Im Höfle","postalCode":"89143","locality":"Blaubeuren","municipality":{"key":"08425020","name":"Blaubeuren, Stadt","type":"Stadt"},"district":{"key":"08425","name":"Alb-Donau-Kreis","type":"Landkreis"},"federalState":{"key":"08","name":"Baden-Württemberg"}},{"name":"Im Hofstetten","postalCode":"89143","locality":"Blaubeuren","municipality":{"key":"08425020","name":"Blaubeuren, Stadt","type":"Stadt"},"district":{"key":"08425","name":"Alb-Donau-Kreis","type":"Landkreis"},"federalState":{"key":"08","name":"Baden-Württemberg"}},{"name":"Im Öschle","postalCode":"89143","locality":"Blaubeuren","municipality":{"key":"08425020","name":"Blaubeuren, Stadt","type":"Stadt"},"district":{"key":"08425","name":"Alb-Donau-Kreis","type":"Landkreis"},"federalState":{"key":"08","name":"Baden-Württemberg"}},{"name":"Im Steinriegel","postalCode":"89143","locality":"Blaubeuren","municipality":{"key":"08425020","name":"Blaubeuren, Stadt","type":"Stadt"},"district":{"key":"08425","name":"Alb-Donau-Kreis","type":"Landkreis"},"federalState":{"key":"08","name":"Baden-Württemberg"}},{"name":"Im Stellwinkel","postalCode":"89143","locality":"Blaubeuren","municipality":{"key":"08425020","name":"Blaubeuren, Stadt","type":"Stadt"},"district":{"key":"08425","name":"Alb-Donau-Kreis","type":"Landkreis"},"federalState":{"key":"08","name":"Baden-Württemberg"}},{"name":"Im Weiher","postalCode":"89143","locality":"Blaubeuren","municipality":{"key":"08425020","name":"Blaubeuren, Stadt","type":"Stadt"},"district":{"key":"08425","name":"Alb-Donau-Kreis","type":"Landkreis"},"federalState":{"key":"08","name":"Baden-Württemberg"}},{"name":"Im Wörth","postalCode":"89143","locality":"Blaubeuren","municipality":{"key":"08425020","name":"Blaubeuren, Stadt","type":"Stadt"},"district":{"key":"08425","name":"Alb-Donau-Kreis","type":"Landkreis"},"federalState":{"key":"08","name":"Baden-Württemberg"}},{"name":"In den Schloßwiesen","postalCode":"89143","locality":"Blaubeuren","municipality":{"key":"08425020","name":"Blaubeuren, Stadt","type":"Stadt"},"district":{"key":"08425","name":"Alb-Donau-Kreis","type":"Landkreis"},"federalState":{"key":"08","name":"Baden-Württemberg"}},{"name":"Jägerstr.","postalCode":"89143","locality":"Blaubeuren","municipality":{"key":"08425020","name":"Blaubeuren, Stadt","type":"Stadt"},"district":{"key":"08425","name":"Alb-Donau-Kreis","type":"Landkreis"},"federalState":{"key":"08","name":"Baden-Württemberg"}},{"name":"Karlstr.","postalCode":"89143","locality":"Blaubeuren","municipality":{"key":"08425020","name":"Blaubeuren, Stadt","type":"Stadt"},"district":{"key":"08425","name":"Alb-Donau-Kreis","type":"Landkreis"},"federalState":{"key":"08","name":"Baden-Württemberg"}},{"name":"Kirchenäcker","postalCode":"89143","locality":"Blaubeuren","municipality":{"key":"08425020","name":"Blaubeuren, Stadt","type":"Stadt"},"district":{"key":"08425","name":"Alb-Donau-Kreis","type":"Landkreis"},"federalState":{"key":"08","name":"Baden-Württemberg"}},{"name":"Kirchgasse","postalCode":"89143","locality":"Blaubeuren","municipality":{"key":"08425020","name":"Blaubeuren, Stadt","type":"Stadt"},"district":{"key":"08425","name":"Alb-Donau-Kreis","type":"Landkreis"},"federalState":{"key":"08","name":"Baden-Württemberg"}},{"name":"Kirchhofweg","postalCode":"89143","locality":"Blaubeuren","municipality":{"key":"08425020","name":"Blaubeuren, Stadt","type":"Stadt"},"district":{"key":"08425","name":"Alb-Donau-Kreis","type":"Landkreis"},"federalState":{"key":"08","name":"Baden-Württemberg"}},{"name":"Kirchplatz","postalCode":"89143","locality":"Blaubeuren","municipality":{"key":"08425020","name":"Blaubeuren, Stadt","type":"Stadt"},"district":{"key":"08425","name":"Alb-Donau-Kreis","type":"Landkreis"},"federalState":{"key":"08","name":"Baden-Württemberg"}},{"name":"Klostergängle","postalCode":"89143","locality":"Blaubeuren","municipality":{"key":"08425020","name":"Blaubeuren, Stadt","type":"Stadt"},"district":{"key":"08425","name":"Alb-Donau-Kreis","type":"Landkreis"},"federalState":{"key":"08","name":"Baden-Württemberg"}},{"name":"Klosterhof","postalCode":"89143","locality":"Blaubeuren","municipality":{"key":"08425020","name":"Blaubeuren, Stadt","type":"Stadt"},"district":{"key":"08425","name":"Alb-Donau-Kreis","type":"Landkreis"},"federalState":{"key":"08","name":"Baden-Württemberg"}},{"name":"Klosterstr.","postalCode":"89143","locality":"Blaubeuren","municipality":{"key":"08425020","name":"Blaubeuren, Stadt","type":"Stadt"},"district":{"key":"08425","name":"Alb-Donau-Kreis","type":"Landkreis"},"federalState":{"key":"08","name":"Baden-Württemberg"}},{"name":"Kolberweg","postalCode":"89143","locality":"Blaubeuren","municipality":{"key":"08425020","name":"Blaubeuren, Stadt","type":"Stadt"},"district":{"key":"08425","name":"Alb-Donau-Kreis","type":"Landkreis"},"federalState":{"key":"08","name":"Baden-Württemberg"}},{"name":"Kreuzländerweg","postalCode":"89143","locality":"Blaubeuren","municipality":{"key":"08425020","name":"Blaubeuren, Stadt","type":"Stadt"},"district":{"key":"08425","name":"Alb-Donau-Kreis","type":"Landkreis"},"federalState":{"key":"08","name":"Baden-Württemberg"}},{"name":"Kronengasse","postalCode":"89143","locality":"Blaubeuren","municipality":{"key":"08425020","name":"Blaubeuren, Stadt","type":"Stadt"},"district":{"key":"08425","name":"Alb-Donau-Kreis","type":"Landkreis"},"federalState":{"key":"08","name":"Baden-Württemberg"}},{"name":"Krumme Egerten","postalCode":"89143","locality":"Blaubeuren","municipality":{"key":"08425020","name":"Blaubeuren, Stadt","type":"Stadt"},"district":{"key":"08425","name":"Alb-Donau-Kreis","type":"Landkreis"},"federalState":{"key":"08","name":"Baden-Württemberg"}},{"name":"Küfergasse","postalCode":"89143","locality":"Blaubeuren","municipality":{"key":"08425020","name":"Blaubeuren, Stadt","type":"Stadt"},"district":{"key":"08425","name":"Alb-Donau-Kreis","type":"Landkreis"},"federalState":{"key":"08","name":"Baden-Württemberg"}},{"name":"Lange Gasse","postalCode":"89143","locality":"Blaubeuren","municipality":{"key":"08425020","name":"Blaubeuren, Stadt","type":"Stadt"},"district":{"key":"08425","name":"Alb-Donau-Kreis","type":"Landkreis"},"federalState":{"key":"08","name":"Baden-Württemberg"}},{"name":"Lauchgasse","postalCode":"89143","locality":"Blaubeuren","municipality":{"key":"08425020","name":"Blaubeuren, Stadt","type":"Stadt"},"district":{"key":"08425","name":"Alb-Donau-Kreis","type":"Landkreis"},"federalState":{"key":"08","name":"Baden-Württemberg"}},{"name":"Lauterner Weg","postalCode":"89143","locality":"Blaubeuren","municipality":{"key":"08425020","name":"Blaubeuren, Stadt","type":"Stadt"},"district":{"key":"08425","name":"Alb-Donau-Kreis","type":"Landkreis"},"federalState":{"key":"08","name":"Baden-Württemberg"}},{"name":"Ledergasse","postalCode":"89143","locality":"Blaubeuren","municipality":{"key":"08425020","name":"Blaubeuren, Stadt","type":"Stadt"},"district":{"key":"08425","name":"Alb-Donau-Kreis","type":"Landkreis"},"federalState":{"key":"08","name":"Baden-Württemberg"}},{"name":"Lerchenweg","postalCode":"89143","locality":"Blaubeuren","municipality":{"key":"08425020","name":"Blaubeuren, Stadt","type":"Stadt"},"district":{"key":"08425","name":"Alb-Donau-Kreis","type":"Landkreis"},"federalState":{"key":"08","name":"Baden-Württemberg"}},{"name":"Lindenstr.","postalCode":"89143","locality":"Blaubeuren","municipality":{"key":"08425020","name":"Blaubeuren, Stadt","type":"Stadt"},"district":{"key":"08425","name":"Alb-Donau-Kreis","type":"Landkreis"},"federalState":{"key":"08","name":"Baden-Württemberg"}},{"name":"Ludwig-Merckle-Str.","postalCode":"89143","locality":"Blaubeuren","municipality":{"key":"08425020","name":"Blaubeuren, Stadt","type":"Stadt"},"district":{"key":"08425","name":"Alb-Donau-Kreis","type":"Landkreis"},"federalState":{"key":"08","name":"Baden-Württemberg"}},{"name":"Mahdäcker","postalCode":"89143","locality":"Blaubeuren","municipality":{"key":"08425020","name":"Blaubeuren, Stadt","type":"Stadt"},"district":{"key":"08425","name":"Alb-Donau-Kreis","type":"Landkreis"},"federalState":{"key":"08","name":"Baden-Württemberg"}},{"name":"Maiersgrund","postalCode":"89143","locality":"Blaubeuren","municipality":{"key":"08425020","name":"Blaubeuren, Stadt","type":"Stadt"},"district":{"key":"08425","name":"Alb-Donau-Kreis","type":"Landkreis"},"federalState":{"key":"08","name":"Baden-Württemberg"}},{"name":"Markbronner Str.","postalCode":"89143","locality":"Blaubeuren","municipality":{"key":"08425020","name":"Blaubeuren, Stadt","type":"Stadt"},"district":{"key":"08425","name":"Alb-Donau-Kreis","type":"Landkreis"},"federalState":{"key":"08","name":"Baden-Württemberg"}},{"name":"Marktstr.","postalCode":"89143","locality":"Blaubeuren","municipality":{"key":"08425020","name":"Blaubeuren, Stadt","type":"Stadt"},"district":{"key":"08425","name":"Alb-Donau-Kreis","type":"Landkreis"},"federalState":{"key":"08","name":"Baden-Württemberg"}},{"name":"Marsweg","postalCode":"89143","locality":"Blaubeuren","municipality":{"key":"08425020","name":"Blaubeuren, Stadt","type":"Stadt"},"district":{"key":"08425","name":"Alb-Donau-Kreis","type":"Landkreis"},"federalState":{"key":"08","name":"Baden-Württemberg"}},{"name":"Matthäus-Hipp-Weg","postalCode":"89143","locality":"Blaubeuren","municipality":{"key":"08425020","name":"Blaubeuren, Stadt","type":"Stadt"},"district":{"key":"08425","name":"Alb-Donau-Kreis","type":"Landkreis"},"federalState":{"key":"08","name":"Baden-Württemberg"}},{"name":"Mauergasse","postalCode":"89143","locality":"Blaubeuren","municipality":{"key":"08425020","name":"Blaubeuren, Stadt","type":"Stadt"},"district":{"key":"08425","name":"Alb-Donau-Kreis","type":"Landkreis"},"federalState":{"key":"08","name":"Baden-Württemberg"}},{"name":"Metzgergasse","postalCode":"89143","locality":"Blaubeuren","municipality":{"key":"08425020","name":"Blaubeuren, Stadt","type":"Stadt"},"district":{"key":"08425","name":"Alb-Donau-Kreis","type":"Landkreis"},"federalState":{"key":"08","name":"Baden-Württemberg"}},{"name":"Mondweg","postalCode":"89143","locality":"Blaubeuren","municipality":{"key":"08425020","name":"Blaubeuren, Stadt","type":"Stadt"},"district":{"key":"08425","name":"Alb-Donau-Kreis","type":"Landkreis"},"federalState":{"key":"08","name":"Baden-Württemberg"}},{"name":"Mörikestr.","postalCode":"89143","locality":"Blaubeuren","municipality":{"key":"08425020","name":"Blaubeuren, Stadt","type":"Stadt"},"district":{"key":"08425","name":"Alb-Donau-Kreis","type":"Landkreis"},"federalState":{"key":"08","name":"Baden-Württemberg"}},{"name":"Mühlweg","postalCode":"89143","locality":"Blaubeuren","municipality":{"key":"08425020","name":"Blaubeuren, Stadt","type":"Stadt"},"district":{"key":"08425","name":"Alb-Donau-Kreis","type":"Landkreis"},"federalState":{"key":"08","name":"Baden-Württemberg"}},{"name":"Mutschlerweg","postalCode":"89143","locality":"Blaubeuren","municipality":{"key":"08425020","name":"Blaubeuren, Stadt","type":"Stadt"},"district":{"key":"08425","name":"Alb-Donau-Kreis","type":"Landkreis"},"federalState":{"key":"08","name":"Baden-Württemberg"}},{"name":"Neue Str.","postalCode":"89143","locality":"Blaubeuren","municipality":{"key":"08425020","name":"Blaubeuren, Stadt","type":"Stadt"},"district":{"key":"08425","name":"Alb-Donau-Kreis","type":"Landkreis"},"federalState":{"key":"08","name":"Baden-Württemberg"}},{"name":"Neulandstr.","postalCode":"89143","locality":"Blaubeuren","municipality":{"key":"08425020","name":"Blaubeuren, Stadt","type":"Stadt"},"district":{"key":"08425","name":"Alb-Donau-Kreis","type":"Landkreis"},"federalState":{"key":"08","name":"Baden-Württemberg"}},{"name":"Oberamteigasse","postalCode":"89143","locality":"Blaubeuren","municipality":{"key":"08425020","name":"Blaubeuren, Stadt","type":"Stadt"},"district":{"key":"08425","name":"Alb-Donau-Kreis","type":"Landkreis"},"federalState":{"key":"08","name":"Baden-Württemberg"}},{"name":"Obere Buchhaldenstr.","postalCode":"89143","locality":"Blaubeuren","municipality":{"key":"08425020","name":"Blaubeuren, Stadt","type":"Stadt"},"district":{"key":"08425","name":"Alb-Donau-Kreis","type":"Landkreis"},"federalState":{"key":"08","name":"Baden-Württemberg"}},{"name":"Oberer Tugendpfad","postalCode":"89143","locality":"Blaubeuren","municipality":{"key":"08425020","name":"Blaubeuren, Stadt","type":"Stadt"},"district":{"key":"08425","name":"Alb-Donau-Kreis","type":"Landkreis"},"federalState":{"key":"08","name":"Baden-Württemberg"}},{"name":"Oberes Himmelreich","postalCode":"89143","locality":"Blaubeuren","municipality":{"key":"08425020","name":"Blaubeuren, Stadt","type":"Stadt"},"district":{"key":"08425","name":"Alb-Donau-Kreis","type":"Landkreis"},"federalState":{"key":"08","name":"Baden-Württemberg"}},{"name":"Oberes Lauch","postalCode":"89143","locality":"Blaubeuren","municipality":{"key":"08425020","name":"Blaubeuren, Stadt","type":"Stadt"},"district":{"key":"08425","name":"Alb-Donau-Kreis","type":"Landkreis"},"federalState":{"key":"08","name":"Baden-Württemberg"}},{"name":"Obere Str.","postalCode":"89143","locality":"Blaubeuren","municipality":{"key":"08425020","name":"Blaubeuren, Stadt","type":"Stadt"},"district":{"key":"08425","name":"Alb-Donau-Kreis","type":"Landkreis"},"federalState":{"key":"08","name":"Baden-Württemberg"}},{"name":"Olgastr.","postalCode":"89143","locality":"Blaubeuren","municipality":{"key":"08425020","name":"Blaubeuren, Stadt","type":"Stadt"},"district":{"key":"08425","name":"Alb-Donau-Kreis","type":"Landkreis"},"federalState":{"key":"08","name":"Baden-Württemberg"}},{"name":"Ortsstr.","postalCode":"89143","locality":"Blaubeuren","municipality":{"key":"08425020","name":"Blaubeuren, Stadt","type":"Stadt"},"district":{"key":"08425","name":"Alb-Donau-Kreis","type":"Landkreis"},"federalState":{"key":"08","name":"Baden-Württemberg"}},{"name":"Pappelauer Str.","postalCode":"89143","locality":"Blaubeuren","municipality":{"key":"08425020","name":"Blaubeuren, Stadt","type":"Stadt"},"district":{"key":"08425","name":"Alb-Donau-Kreis","type":"Landkreis"},"federalState":{"key":"08","name":"Baden-Württemberg"}},{"name":"Pfaffensteig","postalCode":"89143","locality":"Blaubeuren","municipality":{"key":"08425020","name":"Blaubeuren, Stadt","type":"Stadt"},"district":{"key":"08425","name":"Alb-Donau-Kreis","type":"Landkreis"},"federalState":{"key":"08","name":"Baden-Württemberg"}},{"name":"Pfarrstr.","postalCode":"89143","locality":"Blaubeuren","municipality":{"key":"08425020","name":"Blaubeuren, Stadt","type":"Stadt"},"district":{"key":"08425","name":"Alb-Donau-Kreis","type":"Landkreis"},"federalState":{"key":"08","name":"Baden-Württemberg"}},{"name":"Platzgasse","postalCode":"89143","locality":"Blaubeuren","municipality":{"key":"08425020","name":"Blaubeuren, Stadt","type":"Stadt"},"district":{"key":"08425","name":"Alb-Donau-Kreis","type":"Landkreis"},"federalState":{"key":"08","name":"Baden-Württemberg"}},{"name":"Rauher Burren","postalCode":"89143","locality":"Blaubeuren","municipality":{"key":"08425020","name":"Blaubeuren, Stadt","type":"Stadt"},"district":{"key":"08425","name":"Alb-Donau-Kreis","type":"Landkreis"},"federalState":{"key":"08","name":"Baden-Württemberg"}},{"name":"Reichlensbergweg","postalCode":"89143","locality":"Blaubeuren","municipality":{"key":"08425020","name":"Blaubeuren, Stadt","type":"Stadt"},"district":{"key":"08425","name":"Alb-Donau-Kreis","type":"Landkreis"},"federalState":{"key":"08","name":"Baden-Württemberg"}},{"name":"Reiherweg","postalCode":"89143","locality":"Blaubeuren","municipality":{"key":"08425020","name":"Blaubeuren, Stadt","type":"Stadt"},"district":{"key":"08425","name":"Alb-Donau-Kreis","type":"Landkreis"},"federalState":{"key":"08","name":"Baden-Württemberg"}},{"name":"Reservoirstr.","postalCode":"89143","locality":"Blaubeuren","municipality":{"key":"08425020","name":"Blaubeuren, Stadt","type":"Stadt"},"district":{"key":"08425","name":"Alb-Donau-Kreis","type":"Landkreis"},"federalState":{"key":"08","name":"Baden-Württemberg"}},{"name":"Riedental","postalCode":"89143","locality":"Blaubeuren","municipality":{"key":"08425020","name":"Blaubeuren, Stadt","type":"Stadt"},"district":{"key":"08425","name":"Alb-Donau-Kreis","type":"Landkreis"},"federalState":{"key":"08","name":"Baden-Württemberg"}},{"name":"Riedweg","postalCode":"89143","locality":"Blaubeuren","municipality":{"key":"08425020","name":"Blaubeuren, Stadt","type":"Stadt"},"district":{"key":"08425","name":"Alb-Donau-Kreis","type":"Landkreis"},"federalState":{"key":"08","name":"Baden-Württemberg"}},{"name":"Ringinger Str.","postalCode":"89143","locality":"Blaubeuren","municipality":{"key":"08425020","name":"Blaubeuren, Stadt","type":"Stadt"},"district":{"key":"08425","name":"Alb-Donau-Kreis","type":"Landkreis"},"federalState":{"key":"08","name":"Baden-Württemberg"}},{"name":"Ringstr.","postalCode":"89143","locality":"Blaubeuren","municipality":{"key":"08425020","name":"Blaubeuren, Stadt","type":"Stadt"},"district":{"key":"08425","name":"Alb-Donau-Kreis","type":"Landkreis"},"federalState":{"key":"08","name":"Baden-Württemberg"}},{"name":"Rittergasse","postalCode":"89143","locality":"Blaubeuren","municipality":{"key":"08425020","name":"Blaubeuren, Stadt","type":"Stadt"},"district":{"key":"08425","name":"Alb-Donau-Kreis","type":"Landkreis"},"federalState":{"key":"08","name":"Baden-Württemberg"}},{"name":"Römerstr.","postalCode":"89143","locality":"Blaubeuren","municipality":{"key":"08425020","name":"Blaubeuren, Stadt","type":"Stadt"},"district":{"key":"08425","name":"Alb-Donau-Kreis","type":"Landkreis"},"federalState":{"key":"08","name":"Baden-Württemberg"}},{"name":"Rosenweg","postalCode":"89143","locality":"Blaubeuren","municipality":{"key":"08425020","name":"Blaubeuren, Stadt","type":"Stadt"},"district":{"key":"08425","name":"Alb-Donau-Kreis","type":"Landkreis"},"federalState":{"key":"08","name":"Baden-Württemberg"}},{"name":"Röte","postalCode":"89143","locality":"Blaubeuren","municipality":{"key":"08425020","name":"Blaubeuren, Stadt","type":"Stadt"},"district":{"key":"08425","name":"Alb-Donau-Kreis","type":"Landkreis"},"federalState":{"key":"08","name":"Baden-Württemberg"}},{"name":"Salenhauweg","postalCode":"89143","locality":"Blaubeuren","municipality":{"key":"08425020","name":"Blaubeuren, Stadt","type":"Stadt"},"district":{"key":"08425","name":"Alb-Donau-Kreis","type":"Landkreis"},"federalState":{"key":"08","name":"Baden-Württemberg"}},{"name":"Salzwinkel","postalCode":"89143","locality":"Blaubeuren","municipality":{"key":"08425020","name":"Blaubeuren, Stadt","type":"Stadt"},"district":{"key":"08425","name":"Alb-Donau-Kreis","type":"Landkreis"},"federalState":{"key":"08","name":"Baden-Württemberg"}},{"name":"Sauerbergweg","postalCode":"89143","locality":"Blaubeuren","municipality":{"key":"08425020","name":"Blaubeuren, Stadt","type":"Stadt"},"district":{"key":"08425","name":"Alb-Donau-Kreis","type":"Landkreis"},"federalState":{"key":"08","name":"Baden-Württemberg"}},{"name":"Schäferweg","postalCode":"89143","locality":"Blaubeuren","municipality":{"key":"08425020","name":"Blaubeuren, Stadt","type":"Stadt"},"district":{"key":"08425","name":"Alb-Donau-Kreis","type":"Landkreis"},"federalState":{"key":"08","name":"Baden-Württemberg"}},{"name":"Schelklinger Str.","postalCode":"89143","locality":"Blaubeuren","municipality":{"key":"08425020","name":"Blaubeuren, Stadt","type":"Stadt"},"district":{"key":"08425","name":"Alb-Donau-Kreis","type":"Landkreis"},"federalState":{"key":"08","name":"Baden-Württemberg"}},{"name":"Schelmenacker","postalCode":"89143","locality":"Blaubeuren","municipality":{"key":"08425020","name":"Blaubeuren, Stadt","type":"Stadt"},"district":{"key":"08425","name":"Alb-Donau-Kreis","type":"Landkreis"},"federalState":{"key":"08","name":"Baden-Württemberg"}},{"name":"Scherrweg","postalCode":"89143","locality":"Blaubeuren","municipality":{"key":"08425020","name":"Blaubeuren, Stadt","type":"Stadt"},"district":{"key":"08425","name":"Alb-Donau-Kreis","type":"Landkreis"},"federalState":{"key":"08","name":"Baden-Württemberg"}},{"name":"Schillerstr.","postalCode":"89143","locality":"Blaubeuren","municipality":{"key":"08425020","name":"Blaubeuren, Stadt","type":"Stadt"},"district":{"key":"08425","name":"Alb-Donau-Kreis","type":"Landkreis"},"federalState":{"key":"08","name":"Baden-Württemberg"}},{"name":"Schlehenweg","postalCode":"89143","locality":"Blaubeuren","municipality":{"key":"08425020","name":"Blaubeuren, Stadt","type":"Stadt"},"district":{"key":"08425","name":"Alb-Donau-Kreis","type":"Landkreis"},"federalState":{"key":"08","name":"Baden-Württemberg"}},{"name":"Schleichtalstr.","postalCode":"89143","locality":"Blaubeuren","municipality":{"key":"08425020","name":"Blaubeuren, Stadt","type":"Stadt"},"district":{"key":"08425","name":"Alb-Donau-Kreis","type":"Landkreis"},"federalState":{"key":"08","name":"Baden-Württemberg"}},{"name":"Schmähental","postalCode":"89143","locality":"Blaubeuren","municipality":{"key":"08425020","name":"Blaubeuren, Stadt","type":"Stadt"},"district":{"key":"08425","name":"Alb-Donau-Kreis","type":"Landkreis"},"federalState":{"key":"08","name":"Baden-Württemberg"}},{"name":"Schmiedgasse","postalCode":"89143","locality":"Blaubeuren","municipality":{"key":"08425020","name":"Blaubeuren, Stadt","type":"Stadt"},"district":{"key":"08425","name":"Alb-Donau-Kreis","type":"Landkreis"},"federalState":{"key":"08","name":"Baden-Württemberg"}},{"name":"Schönblick","postalCode":"89143","locality":"Blaubeuren","municipality":{"key":"08425020","name":"Blaubeuren, Stadt","type":"Stadt"},"district":{"key":"08425","name":"Alb-Donau-Kreis","type":"Landkreis"},"federalState":{"key":"08","name":"Baden-Württemberg"}},{"name":"Schubartweg","postalCode":"89143","locality":"Blaubeuren","municipality":{"key":"08425020","name":"Blaubeuren, Stadt","type":"Stadt"},"district":{"key":"08425","name":"Alb-Donau-Kreis","type":"Landkreis"},"federalState":{"key":"08","name":"Baden-Württemberg"}},{"name":"Schulstr.","postalCode":"89143","locality":"Blaubeuren","municipality":{"key":"08425020","name":"Blaubeuren, Stadt","type":"Stadt"},"district":{"key":"08425","name":"Alb-Donau-Kreis","type":"Landkreis"},"federalState":{"key":"08","name":"Baden-Württemberg"}},{"name":"Schützenbachweg","postalCode":"89143","locality":"Blaubeuren","municipality":{"key":"08425020","name":"Blaubeuren, Stadt","type":"Stadt"},"district":{"key":"08425","name":"Alb-Donau-Kreis","type":"Landkreis"},"federalState":{"key":"08","name":"Baden-Württemberg"}},{"name":"Schwalbenweg","postalCode":"89143","locality":"Blaubeuren","municipality":{"key":"08425020","name":"Blaubeuren, Stadt","type":"Stadt"},"district":{"key":"08425","name":"Alb-Donau-Kreis","type":"Landkreis"},"federalState":{"key":"08","name":"Baden-Württemberg"}},{"name":"Schwanenweg","postalCode":"89143","locality":"Blaubeuren","municipality":{"key":"08425020","name":"Blaubeuren, Stadt","type":"Stadt"},"district":{"key":"08425","name":"Alb-Donau-Kreis","type":"Landkreis"},"federalState":{"key":"08","name":"Baden-Württemberg"}},{"name":"Schwarzwaldstr.","postalCode":"89143","locality":"Blaubeuren","municipality":{"key":"08425020","name":"Blaubeuren, Stadt","type":"Stadt"},"district":{"key":"08425","name":"Alb-Donau-Kreis","type":"Landkreis"},"federalState":{"key":"08","name":"Baden-Württemberg"}},{"name":"Seißer Bühl","postalCode":"89143","locality":"Blaubeuren","municipality":{"key":"08425020","name":"Blaubeuren, Stadt","type":"Stadt"},"district":{"key":"08425","name":"Alb-Donau-Kreis","type":"Landkreis"},"federalState":{"key":"08","name":"Baden-Württemberg"}},{"name":"Seißer Weg","postalCode":"89143","locality":"Blaubeuren","municipality":{"key":"08425020","name":"Blaubeuren, Stadt","type":"Stadt"},"district":{"key":"08425","name":"Alb-Donau-Kreis","type":"Landkreis"},"federalState":{"key":"08","name":"Baden-Württemberg"}},{"name":"Siedlungsstr.","postalCode":"89143","locality":"Blaubeuren","municipality":{"key":"08425020","name":"Blaubeuren, Stadt","type":"Stadt"},"district":{"key":"08425","name":"Alb-Donau-Kreis","type":"Landkreis"},"federalState":{"key":"08","name":"Baden-Württemberg"}},{"name":"Silbergasse","postalCode":"89143","locality":"Blaubeuren","municipality":{"key":"08425020","name":"Blaubeuren, Stadt","type":"Stadt"},"district":{"key":"08425","name":"Alb-Donau-Kreis","type":"Landkreis"},"federalState":{"key":"08","name":"Baden-Württemberg"}},{"name":"Silcherweg","postalCode":"89143","locality":"Blaubeuren","municipality":{"key":"08425020","name":"Blaubeuren, Stadt","type":"Stadt"},"district":{"key":"08425","name":"Alb-Donau-Kreis","type":"Landkreis"},"federalState":{"key":"08","name":"Baden-Württemberg"}},{"name":"Sirgensteinstr.","postalCode":"89143","locality":"Blaubeuren","municipality":{"key":"08425020","name":"Blaubeuren, Stadt","type":"Stadt"},"district":{"key":"08425","name":"Alb-Donau-Kreis","type":"Landkreis"},"federalState":{"key":"08","name":"Baden-Württemberg"}},{"name":"Sonderbucher Steige","postalCode":"89143","locality":"Blaubeuren","municipality":{"key":"08425020","name":"Blaubeuren, Stadt","type":"Stadt"},"district":{"key":"08425","name":"Alb-Donau-Kreis","type":"Landkreis"},"federalState":{"key":"08","name":"Baden-Württemberg"}},{"name":"Sonderbucher Weg","postalCode":"89143","locality":"Blaubeuren","municipality":{"key":"08425020","name":"Blaubeuren, Stadt","type":"Stadt"},"district":{"key":"08425","name":"Alb-Donau-Kreis","type":"Landkreis"},"federalState":{"key":"08","name":"Baden-Württemberg"}},{"name":"Sonnenweg","postalCode":"89143","locality":"Blaubeuren","municipality":{"key":"08425020","name":"Blaubeuren, Stadt","type":"Stadt"},"district":{"key":"08425","name":"Alb-Donau-Kreis","type":"Landkreis"},"federalState":{"key":"08","name":"Baden-Württemberg"}},{"name":"Sotzenhauser Str.","postalCode":"89143","locality":"Blaubeuren","municipality":{"key":"08425020","name":"Blaubeuren, Stadt","type":"Stadt"},"district":{"key":"08425","name":"Alb-Donau-Kreis","type":"Landkreis"},"federalState":{"key":"08","name":"Baden-Württemberg"}},{"name":"Speßberg","postalCode":"89143","locality":"Blaubeuren","municipality":{"key":"08425020","name":"Blaubeuren, Stadt","type":"Stadt"},"district":{"key":"08425","name":"Alb-Donau-Kreis","type":"Landkreis"},"federalState":{"key":"08","name":"Baden-Württemberg"}},{"name":"Steigziegelhütte","postalCode":"89143","locality":"Blaubeuren","municipality":{"key":"08425020","name":"Blaubeuren, Stadt","type":"Stadt"},"district":{"key":"08425","name":"Alb-Donau-Kreis","type":"Landkreis"},"federalState":{"key":"08","name":"Baden-Württemberg"}},{"name":"Steinenfelder Weg","postalCode":"89143","locality":"Blaubeuren","municipality":{"key":"08425020","name":"Blaubeuren, Stadt","type":"Stadt"},"district":{"key":"08425","name":"Alb-Donau-Kreis","type":"Landkreis"},"federalState":{"key":"08","name":"Baden-Württemberg"}},{"name":"Steingrubenstr.","postalCode":"89143","locality":"Blaubeuren","municipality":{"key":"08425020","name":"Blaubeuren, Stadt","type":"Stadt"},"district":{"key":"08425","name":"Alb-Donau-Kreis","type":"Landkreis"},"federalState":{"key":"08","name":"Baden-Württemberg"}},{"name":"Steinwollweg","postalCode":"89143","locality":"Blaubeuren","municipality":{"key":"08425020","name":"Blaubeuren, Stadt","type":"Stadt"},"district":{"key":"08425","name":"Alb-Donau-Kreis","type":"Landkreis"},"federalState":{"key":"08","name":"Baden-Württemberg"}},{"name":"Stellhaustr.","postalCode":"89143","locality":"Blaubeuren","municipality":{"key":"08425020","name":"Blaubeuren, Stadt","type":"Stadt"},"district":{"key":"08425","name":"Alb-Donau-Kreis","type":"Landkreis"},"federalState":{"key":"08","name":"Baden-Württemberg"}},{"name":"Sternweg","postalCode":"89143","locality":"Blaubeuren","municipality":{"key":"08425020","name":"Blaubeuren, Stadt","type":"Stadt"},"district":{"key":"08425","name":"Alb-Donau-Kreis","type":"Landkreis"},"federalState":{"key":"08","name":"Baden-Württemberg"}},{"name":"Stettiner Str.","postalCode":"89143","locality":"Blaubeuren","municipality":{"key":"08425020","name":"Blaubeuren, Stadt","type":"Stadt"},"district":{"key":"08425","name":"Alb-Donau-Kreis","type":"Landkreis"},"federalState":{"key":"08","name":"Baden-Württemberg"}},{"name":"Stockäcker","postalCode":"89143","locality":"Blaubeuren","municipality":{"key":"08425020","name":"Blaubeuren, Stadt","type":"Stadt"},"district":{"key":"08425","name":"Alb-Donau-Kreis","type":"Landkreis"},"federalState":{"key":"08","name":"Baden-Württemberg"}},{"name":"Street of Waterjetting","postalCode":"89143","locality":"Blaubeuren","municipality":{"key":"08425020","name":"Blaubeuren, Stadt","type":"Stadt"},"district":{"key":"08425","name":"Alb-Donau-Kreis","type":"Landkreis"},"federalState":{"key":"08","name":"Baden-Württemberg"}},{"name":"Sudetenstr.","postalCode":"89143","locality":"Blaubeuren","municipality":{"key":"08425020","name":"Blaubeuren, Stadt","type":"Stadt"},"district":{"key":"08425","name":"Alb-Donau-Kreis","type":"Landkreis"},"federalState":{"key":"08","name":"Baden-Württemberg"}},{"name":"Syrlinweg","postalCode":"89143","locality":"Blaubeuren","municipality":{"key":"08425020","name":"Blaubeuren, Stadt","type":"Stadt"},"district":{"key":"08425","name":"Alb-Donau-Kreis","type":"Landkreis"},"federalState":{"key":"08","name":"Baden-Württemberg"}},{"name":"Talbrunnenweg","postalCode":"89143","locality":"Blaubeuren","municipality":{"key":"08425020","name":"Blaubeuren, Stadt","type":"Stadt"},"district":{"key":"08425","name":"Alb-Donau-Kreis","type":"Landkreis"},"federalState":{"key":"08","name":"Baden-Württemberg"}},{"name":"Talmühleweg","postalCode":"89143","locality":"Blaubeuren","municipality":{"key":"08425020","name":"Blaubeuren, Stadt","type":"Stadt"},"district":{"key":"08425","name":"Alb-Donau-Kreis","type":"Landkreis"},"federalState":{"key":"08","name":"Baden-Württemberg"}},{"name":"Tannenweg","postalCode":"89143","locality":"Blaubeuren","municipality":{"key":"08425020","name":"Blaubeuren, Stadt","type":"Stadt"},"district":{"key":"08425","name":"Alb-Donau-Kreis","type":"Landkreis"},"federalState":{"key":"08","name":"Baden-Württemberg"}},{"name":"Teufelsbackofen","postalCode":"89143","locality":"Blaubeuren","municipality":{"key":"08425020","name":"Blaubeuren, Stadt","type":"Stadt"},"district":{"key":"08425","name":"Alb-Donau-Kreis","type":"Landkreis"},"federalState":{"key":"08","name":"Baden-Württemberg"}},{"name":"Tiefentalweg","postalCode":"89143","locality":"Blaubeuren","municipality":{"key":"08425020","name":"Blaubeuren, Stadt","type":"Stadt"},"district":{"key":"08425","name":"Alb-Donau-Kreis","type":"Landkreis"},"federalState":{"key":"08","name":"Baden-Württemberg"}},{"name":"Turmgasse","postalCode":"89143","locality":"Blaubeuren","municipality":{"key":"08425020","name":"Blaubeuren, Stadt","type":"Stadt"},"district":{"key":"08425","name":"Alb-Donau-Kreis","type":"Landkreis"},"federalState":{"key":"08","name":"Baden-Württemberg"}},{"name":"Turnhallenweg","postalCode":"89143","locality":"Blaubeuren","municipality":{"key":"08425020","name":"Blaubeuren, Stadt","type":"Stadt"},"district":{"key":"08425","name":"Alb-Donau-Kreis","type":"Landkreis"},"federalState":{"key":"08","name":"Baden-Württemberg"}},{"name":"Uhlandstr.","postalCode":"89143","locality":"Blaubeuren","municipality":{"key":"08425020","name":"Blaubeuren, Stadt","type":"Stadt"},"district":{"key":"08425","name":"Alb-Donau-Kreis","type":"Landkreis"},"federalState":{"key":"08","name":"Baden-Württemberg"}},{"name":"Ulmer Str.","postalCode":"89143","locality":"Blaubeuren","municipality":{"key":"08425020","name":"Blaubeuren, Stadt","type":"Stadt"},"district":{"key":"08425","name":"Alb-Donau-Kreis","type":"Landkreis"},"federalState":{"key":"08","name":"Baden-Württemberg"}},{"name":"Ulmer Werth","postalCode":"89143","locality":"Blaubeuren","municipality":{"key":"08425020","name":"Blaubeuren, Stadt","type":"Stadt"},"district":{"key":"08425","name":"Alb-Donau-Kreis","type":"Landkreis"},"federalState":{"key":"08","name":"Baden-Württemberg"}},{"name":"Ulrichstr.","postalCode":"89143","locality":"Blaubeuren","municipality":{"key":"08425020","name":"Blaubeuren, Stadt","type":"Stadt"},"district":{"key":"08425","name":"Alb-Donau-Kreis","type":"Landkreis"},"federalState":{"key":"08","name":"Baden-Württemberg"}},{"name":"Unter dem Kühnenbuch","postalCode":"89143","locality":"Blaubeuren","municipality":{"key":"08425020","name":"Blaubeuren, Stadt","type":"Stadt"},"district":{"key":"08425","name":"Alb-Donau-Kreis","type":"Landkreis"},"federalState":{"key":"08","name":"Baden-Württemberg"}},{"name":"Unter dem Schillerstein","postalCode":"89143","locality":"Blaubeuren","municipality":{"key":"08425020","name":"Blaubeuren, Stadt","type":"Stadt"},"district":{"key":"08425","name":"Alb-Donau-Kreis","type":"Landkreis"},"federalState":{"key":"08","name":"Baden-Württemberg"}},{"name":"Untere Buchhaldenstr.","postalCode":"89143","locality":"Blaubeuren","municipality":{"key":"08425020","name":"Blaubeuren, Stadt","type":"Stadt"},"district":{"key":"08425","name":"Alb-Donau-Kreis","type":"Landkreis"},"federalState":{"key":"08","name":"Baden-Württemberg"}},{"name":"Unterer Tugendpfad","postalCode":"89143","locality":"Blaubeuren","municipality":{"key":"08425020","name":"Blaubeuren, Stadt","type":"Stadt"},"district":{"key":"08425","name":"Alb-Donau-Kreis","type":"Landkreis"},"federalState":{"key":"08","name":"Baden-Württemberg"}},{"name":"Untere Str.","postalCode":"89143","locality":"Blaubeuren","municipality":{"key":"08425020","name":"Blaubeuren, Stadt","type":"Stadt"},"district":{"key":"08425","name":"Alb-Donau-Kreis","type":"Landkreis"},"federalState":{"key":"08","name":"Baden-Württemberg"}},{"name":"Von-Jan-Weg","postalCode":"89143","locality":"Blaubeuren","municipality":{"key":"08425020","name":"Blaubeuren, Stadt","type":"Stadt"},"district":{"key":"08425","name":"Alb-Donau-Kreis","type":"Landkreis"},"federalState":{"key":"08","name":"Baden-Württemberg"}},{"name":"Vorderer Hau","postalCode":"89143","locality":"Blaubeuren","municipality":{"key":"08425020","name":"Blaubeuren, Stadt","type":"Stadt"},"district":{"key":"08425","name":"Alb-Donau-Kreis","type":"Landkreis"},"federalState":{"key":"08","name":"Baden-Württemberg"}},{"name":"Wasserbucher Weg","postalCode":"89143","locality":"Blaubeuren","municipality":{"key":"08425020","name":"Blaubeuren, Stadt","type":"Stadt"},"district":{"key":"08425","name":"Alb-Donau-Kreis","type":"Landkreis"},"federalState":{"key":"08","name":"Baden-Württemberg"}},{"name":"Webergasse","postalCode":"89143","locality":"Blaubeuren","municipality":{"key":"08425020","name":"Blaubeuren, Stadt","type":"Stadt"},"district":{"key":"08425","name":"Alb-Donau-Kreis","type":"Landkreis"},"federalState":{"key":"08","name":"Baden-Württemberg"}},{"name":"Weihergasse","postalCode":"89143","locality":"Blaubeuren","municipality":{"key":"08425020","name":"Blaubeuren, Stadt","type":"Stadt"},"district":{"key":"08425","name":"Alb-Donau-Kreis","type":"Landkreis"},"federalState":{"key":"08","name":"Baden-Württemberg"}},{"name":"Weilerhalde","postalCode":"89143","locality":"Blaubeuren","municipality":{"key":"08425020","name":"Blaubeuren, Stadt","type":"Stadt"},"district":{"key":"08425","name":"Alb-Donau-Kreis","type":"Landkreis"},"federalState":{"key":"08","name":"Baden-Württemberg"}},{"name":"Weilersteig","postalCode":"89143","locality":"Blaubeuren","municipality":{"key":"08425020","name":"Blaubeuren, Stadt","type":"Stadt"},"district":{"key":"08425","name":"Alb-Donau-Kreis","type":"Landkreis"},"federalState":{"key":"08","name":"Baden-Württemberg"}},{"name":"Weilerstr.","postalCode":"89143","locality":"Blaubeuren","municipality":{"key":"08425020","name":"Blaubeuren, Stadt","type":"Stadt"},"district":{"key":"08425","name":"Alb-Donau-Kreis","type":"Landkreis"},"federalState":{"key":"08","name":"Baden-Württemberg"}},{"name":"Weißer Weg","postalCode":"89143","locality":"Blaubeuren","municipality":{"key":"08425020","name":"Blaubeuren, Stadt","type":"Stadt"},"district":{"key":"08425","name":"Alb-Donau-Kreis","type":"Landkreis"},"federalState":{"key":"08","name":"Baden-Württemberg"}},{"name":"Wennender Steigweg","postalCode":"89143","locality":"Blaubeuren","municipality":{"key":"08425020","name":"Blaubeuren, Stadt","type":"Stadt"},"district":{"key":"08425","name":"Alb-Donau-Kreis","type":"Landkreis"},"federalState":{"key":"08","name":"Baden-Württemberg"}},{"name":"Wennender Str.","postalCode":"89143","locality":"Blaubeuren","municipality":{"key":"08425020","name":"Blaubeuren, Stadt","type":"Stadt"},"district":{"key":"08425","name":"Alb-Donau-Kreis","type":"Landkreis"},"federalState":{"key":"08","name":"Baden-Württemberg"}},{"name":"Wiesenweg","postalCode":"89143","locality":"Blaubeuren","municipality":{"key":"08425020","name":"Blaubeuren, Stadt","type":"Stadt"},"district":{"key":"08425","name":"Alb-Donau-Kreis","type":"Landkreis"},"federalState":{"key":"08","name":"Baden-Württemberg"}},{"name":"Wiestalstr.","postalCode":"89143","locality":"Blaubeuren","municipality":{"key":"08425020","name":"Blaubeuren, Stadt","type":"Stadt"},"district":{"key":"08425","name":"Alb-Donau-Kreis","type":"Landkreis"},"federalState":{"key":"08","name":"Baden-Württemberg"}},{"name":"Wippinger Str.","postalCode":"89143","locality":"Blaubeuren","municipality":{"key":"08425020","name":"Blaubeuren, Stadt","type":"Stadt"},"district":{"key":"08425","name":"Alb-Donau-Kreis","type":"Landkreis"},"federalState":{"key":"08","name":"Baden-Württemberg"}},{"name":"Wörthstr.","postalCode":"89143","locality":"Blaubeuren","municipality":{"key":"08425020","name":"Blaubeuren, Stadt","type":"Stadt"},"district":{"key":"08425","name":"Alb-Donau-Kreis","type":"Landkreis"},"federalState":{"key":"08","name":"Baden-Württemberg"}},{"name":"Württemberger Str.","postalCode":"89143","locality":"Blaubeuren","municipality":{"key":"08425020","name":"Blaubeuren, Stadt","type":"Stadt"},"district":{"key":"08425","name":"Alb-Donau-Kreis","type":"Landkreis"},"federalState":{"key":"08","name":"Baden-Württemberg"}},{"name":"Zementdörfle","postalCode":"89143","locality":"Blaubeuren","municipality":{"key":"08425020","name":"Blaubeuren, Stadt","type":"Stadt"},"district":{"key":"08425","name":"Alb-Donau-Kreis","type":"Landkreis"},"federalState":{"key":"08","name":"Baden-Württemberg"}},{"name":"Zeppelinstr.","postalCode":"89143","locality":"Blaubeuren","municipality":{"key":"08425020","name":"Blaubeuren, Stadt","type":"Stadt"},"district":{"key":"08425","name":"Alb-Donau-Kreis","type":"Landkreis"},"federalState":{"key":"08","name":"Baden-Württemberg"}},{"name":"Ziegelgasse","postalCode":"89143","locality":"Blaubeuren","municipality":{"key":"08425020","name":"Blaubeuren, Stadt","type":"Stadt"},"district":{"key":"08425","name":"Alb-Donau-Kreis","type":"Landkreis"},"federalState":{"key":"08","name":"Baden-Württemberg"}},{"name":"Zum Landsitzle","postalCode":"89143","locality":"Blaubeuren","municipality":{"key":"08425020","name":"Blaubeuren, Stadt","type":"Stadt"},"district":{"key":"08425","name":"Alb-Donau-Kreis","type":"Landkreis"},"federalState":{"key":"08","name":"Baden-Württemberg"}},{"name":"Zum Waldeck","postalCode":"89143","locality":"Blaubeuren","municipality":{"key":"08425020","name":"Blaubeuren, Stadt","type":"Stadt"},"district":{"key":"08425","name":"Alb-Donau-Kreis","type":"Landkreis"},"federalState":{"key":"08","name":"Baden-Württemberg"}},{"name":"Äußerer Krautgartenweg","postalCode":"89143","locality":"Blaubeuren","municipality":{"key":"08425020","name":"Blaubeuren, Stadt","type":"Stadt"},"district":{"key":"08425","name":"Alb-Donau-Kreis","type":"Landkreis"},"federalState":{"key":"08","name":"Baden-Württemberg"}},{"name":"Öfele","postalCode":"89143","locality":"Blaubeuren","municipality":{"key":"08425020","name":"Blaubeuren, Stadt","type":"Stadt"},"district":{"key":"08425","name":"Alb-Donau-Kreis","type":"Landkreis"},"federalState":{"key":"08","name":"Baden-Württemberg"}},]