[{"key":"10000222","name":"Asplistrasse","postalCode":"4564","locality":"Zielebach","commune":{"key":"556","name":"Zielebach","shortName":"Zielebach"},"district":{"key":"245","name":"Verwaltungskreis Emmental"},"canton":{"key":"2","code":"BE","name":"Bern / Berne"},"status":"Real"},{"key":"10218725","name":"Bläjeweg","postalCode":"4564","locality":"Zielebach","commune":{"key":"556","name":"Zielebach","shortName":"Zielebach"},"district":{"key":"245","name":"Verwaltungskreis Emmental"},"canton":{"key":"2","code":"BE","name":"Bern / Berne"},"status":"Real"},{"key":"10218729","name":"Chilchacherweg","postalCode":"4564","locality":"Zielebach","commune":{"key":"556","name":"Zielebach","shortName":"Zielebach"},"district":{"key":"245","name":"Verwaltungskreis Emmental"},"canton":{"key":"2","code":"BE","name":"Bern / Berne"},"status":"Real"},{"key":"10000223","name":"Dorfstrasse","postalCode":"4564","locality":"Zielebach","commune":{"key":"556","name":"Zielebach","shortName":"Zielebach"},"district":{"key":"245","name":"Verwaltungskreis Emmental"},"canton":{"key":"2","code":"BE","name":"Bern / Berne"},"status":"Real"},{"key":"10218733","name":"Flurweg","postalCode":"4564","locality":"Zielebach","commune":{"key":"556","name":"Zielebach","shortName":"Zielebach"},"district":{"key":"245","name":"Verwaltungskreis Emmental"},"canton":{"key":"2","code":"BE","name":"Bern / Berne"},"status":"Real"},{"key":"10082968","name":"Fröschacherweg","postalCode":"4564","locality":"Zielebach","commune":{"key":"556","name":"Zielebach","shortName":"Zielebach"},"district":{"key":"245","name":"Verwaltungskreis Emmental"},"canton":{"key":"2","code":"BE","name":"Bern / Berne"},"status":"Real"},{"key":"10218737","name":"Gerlafingenstrasse","postalCode":"4564","locality":"Zielebach","commune":{"key":"556","name":"Zielebach","shortName":"Zielebach"},"district":{"key":"245","name":"Verwaltungskreis Emmental"},"canton":{"key":"2","code":"BE","name":"Bern / Berne"},"status":"Real"},{"key":"10065957","name":"Hofweg","postalCode":"4564","locality":"Zielebach","commune":{"key":"556","name":"Zielebach","shortName":"Zielebach"},"district":{"key":"245","name":"Verwaltungskreis Emmental"},"canton":{"key":"2","code":"BE","name":"Bern / Berne"},"status":"Real"},{"key":"10218741","name":"Kilchweg","postalCode":"4564","locality":"Zielebach","commune":{"key":"556","name":"Zielebach","shortName":"Zielebach"},"district":{"key":"245","name":"Verwaltungskreis Emmental"},"canton":{"key":"2","code":"BE","name":"Bern / Berne"},"status":"Real"},{"key":"10115346","name":"Leimenweg","postalCode":"4564","locality":"Zielebach","commune":{"key":"556","name":"Zielebach","shortName":"Zielebach"},"district":{"key":"245","name":"Verwaltungskreis Emmental"},"canton":{"key":"2","code":"BE","name":"Bern / Berne"},"status":"Real"},{"key":"10218910","name":"Mattenweg","postalCode":"4564","locality":"Zielebach","commune":{"key":"556","name":"Zielebach","shortName":"Zielebach"},"district":{"key":"245","name":"Verwaltungskreis Emmental"},"canton":{"key":"2","code":"BE","name":"Bern / Berne"},"status":"Real"},{"key":"10082969","name":"Oberdorfstrasse","postalCode":"4564","locality":"Zielebach","commune":{"key":"556","name":"Zielebach","shortName":"Zielebach"},"district":{"key":"245","name":"Verwaltungskreis Emmental"},"canton":{"key":"2","code":"BE","name":"Bern / Berne"},"status":"Real"},{"key":"10000224","name":"Ringstrasse","postalCode":"4564","locality":"Zielebach","commune":{"key":"556","name":"Zielebach","shortName":"Zielebach"},"district":{"key":"245","name":"Verwaltungskreis Emmental"},"canton":{"key":"2","code":"BE","name":"Bern / Berne"},"status":"Real"},{"key":"10218915","name":"Rütiweg","postalCode":"4564","locality":"Zielebach","commune":{"key":"556","name":"Zielebach","shortName":"Zielebach"},"district":{"key":"245","name":"Verwaltungskreis Emmental"},"canton":{"key":"2","code":"BE","name":"Bern / Berne"},"status":"Real"},{"key":"10218919","name":"Schache","postalCode":"4564","locality":"Zielebach","commune":{"key":"556","name":"Zielebach","shortName":"Zielebach"},"district":{"key":"245","name":"Verwaltungskreis Emmental"},"canton":{"key":"2","code":"BE","name":"Bern / Berne"},"status":"Real"},{"key":"10000225","name":"Schulhausstrasse","postalCode":"4564","locality":"Zielebach","commune":{"key":"556","name":"Zielebach","shortName":"Zielebach"},"district":{"key":"245","name":"Verwaltungskreis Emmental"},"canton":{"key":"2","code":"BE","name":"Bern / Berne"},"status":"Real"},{"key":"10177381","name":"Stampfiweg","postalCode":"4564","locality":"Zielebach","commune":{"key":"556","name":"Zielebach","shortName":"Zielebach"},"district":{"key":"245","name":"Verwaltungskreis Emmental"},"canton":{"key":"2","code":"BE","name":"Bern / Berne"},"status":"Real"},{"key":"10082970","name":"Utzenstorfstrasse","postalCode":"4564","locality":"Zielebach","commune":{"key":"556","name":"Zielebach","shortName":"Zielebach"},"district":{"key":"245","name":"Verwaltungskreis Emmental"},"canton":{"key":"2","code":"BE","name":"Bern / Berne"},"status":"Real"},{"key":"10000226","name":"Weidstrasse","postalCode":"4564","locality":"Zielebach","commune":{"key":"556","name":"Zielebach","shortName":"Zielebach"},"district":{"key":"245","name":"Verwaltungskreis Emmental"},"canton":{"key":"2","code":"BE","name":"Bern / Berne"},"status":"Real"},{"key":"10000227","name":"Wilerstrasse","postalCode":"4564","locality":"Zielebach","commune":{"key":"556","name":"Zielebach","shortName":"Zielebach"},"district":{"key":"245","name":"Verwaltungskreis Emmental"},"canton":{"key":"2","code":"BE","name":"Bern / Berne"},"status":"Real"},{"key":"10218014","name":"Zollhüsliweg","postalCode":"4564","locality":"Zielebach","commune":{"key":"556","name":"Zielebach","shortName":"Zielebach"},"district":{"key":"245","name":"Verwaltungskreis Emmental"},"canton":{"key":"2","code":"BE","name":"Bern / Berne"},"status":"Real"},]