[{"name":"Bergstr.","postalCode":"15898","locality":"Lawitz","municipality":{"key":"12067292","name":"Lawitz","type":"Kreisangehörige_Gemeinde"},"district":{"key":"12067","name":"Oder-Spree","type":"Landkreis"},"federalState":{"key":"12","name":"Brandenburg"}},{"name":"Chausseestr.","postalCode":"15898","locality":"Lawitz","municipality":{"key":"12067292","name":"Lawitz","type":"Kreisangehörige_Gemeinde"},"district":{"key":"12067","name":"Oder-Spree","type":"Landkreis"},"federalState":{"key":"12","name":"Brandenburg"}},{"name":"Gartenstr.","postalCode":"15898","locality":"Lawitz","municipality":{"key":"12067292","name":"Lawitz","type":"Kreisangehörige_Gemeinde"},"district":{"key":"12067","name":"Oder-Spree","type":"Landkreis"},"federalState":{"key":"12","name":"Brandenburg"}},{"name":"Hauptstr.","postalCode":"15898","locality":"Lawitz","municipality":{"key":"12067292","name":"Lawitz","type":"Kreisangehörige_Gemeinde"},"district":{"key":"12067","name":"Oder-Spree","type":"Landkreis"},"federalState":{"key":"12","name":"Brandenburg"}},{"name":"Kummroer Weg","postalCode":"15898","locality":"Lawitz","municipality":{"key":"12067292","name":"Lawitz","type":"Kreisangehörige_Gemeinde"},"district":{"key":"12067","name":"Oder-Spree","type":"Landkreis"},"federalState":{"key":"12","name":"Brandenburg"}},{"name":"Neuzeller Landweg","postalCode":"15898","locality":"Lawitz","municipality":{"key":"12067292","name":"Lawitz","type":"Kreisangehörige_Gemeinde"},"district":{"key":"12067","name":"Oder-Spree","type":"Landkreis"},"federalState":{"key":"12","name":"Brandenburg"}},{"name":"Neuzeller Str.","postalCode":"15898","locality":"Lawitz","municipality":{"key":"12067292","name":"Lawitz","type":"Kreisangehörige_Gemeinde"},"district":{"key":"12067","name":"Oder-Spree","type":"Landkreis"},"federalState":{"key":"12","name":"Brandenburg"}},{"name":"Sonnental","postalCode":"15898","locality":"Lawitz","municipality":{"key":"12067292","name":"Lawitz","type":"Kreisangehörige_Gemeinde"},"district":{"key":"12067","name":"Oder-Spree","type":"Landkreis"},"federalState":{"key":"12","name":"Brandenburg"}},{"name":"Waldstr.","postalCode":"15898","locality":"Lawitz","municipality":{"key":"12067292","name":"Lawitz","type":"Kreisangehörige_Gemeinde"},"district":{"key":"12067","name":"Oder-Spree","type":"Landkreis"},"federalState":{"key":"12","name":"Brandenburg"}},{"name":"Weg am Bahndamm","postalCode":"15898","locality":"Lawitz","municipality":{"key":"12067292","name":"Lawitz","type":"Kreisangehörige_Gemeinde"},"district":{"key":"12067","name":"Oder-Spree","type":"Landkreis"},"federalState":{"key":"12","name":"Brandenburg"}},]