[{"name":"Achternstr.","postalCode":"26655","locality":"Westerstede","municipality":{"key":"03451007","name":"Westerstede, Stadt","type":"Stadt"},"district":{"key":"03451","name":"Ammerland","type":"Landkreis"},"federalState":{"key":"03","name":"Niedersachsen"}},{"name":"Ahornstr.","postalCode":"26655","locality":"Westerstede","municipality":{"key":"03451007","name":"Westerstede, Stadt","type":"Stadt"},"district":{"key":"03451","name":"Ammerland","type":"Landkreis"},"federalState":{"key":"03","name":"Niedersachsen"}},{"name":"Akazienweg","postalCode":"26655","locality":"Westerstede","municipality":{"key":"03451007","name":"Westerstede, Stadt","type":"Stadt"},"district":{"key":"03451","name":"Ammerland","type":"Landkreis"},"federalState":{"key":"03","name":"Niedersachsen"}},{"name":"Albert-Schweitzer-Str.","postalCode":"26655","locality":"Westerstede","municipality":{"key":"03451007","name":"Westerstede, Stadt","type":"Stadt"},"district":{"key":"03451","name":"Ammerland","type":"Landkreis"},"federalState":{"key":"03","name":"Niedersachsen"}},{"name":"Albertskamp","postalCode":"26655","locality":"Westerstede","municipality":{"key":"03451007","name":"Westerstede, Stadt","type":"Stadt"},"district":{"key":"03451","name":"Ammerland","type":"Landkreis"},"federalState":{"key":"03","name":"Niedersachsen"}},{"name":"Albrecht-Dürer-Str.","postalCode":"26655","locality":"Westerstede","municipality":{"key":"03451007","name":"Westerstede, Stadt","type":"Stadt"},"district":{"key":"03451","name":"Ammerland","type":"Landkreis"},"federalState":{"key":"03","name":"Niedersachsen"}},{"name":"Alexander-Schmorell-Str.","postalCode":"26655","locality":"Westerstede","municipality":{"key":"03451007","name":"Westerstede, Stadt","type":"Stadt"},"district":{"key":"03451","name":"Ammerland","type":"Landkreis"},"federalState":{"key":"03","name":"Niedersachsen"}},{"name":"Alma-Rogge-Str.","postalCode":"26655","locality":"Westerstede","municipality":{"key":"03451007","name":"Westerstede, Stadt","type":"Stadt"},"district":{"key":"03451","name":"Ammerland","type":"Landkreis"},"federalState":{"key":"03","name":"Niedersachsen"}},{"name":"Alpenrosenstr.","postalCode":"26655","locality":"Westerstede","municipality":{"key":"03451007","name":"Westerstede, Stadt","type":"Stadt"},"district":{"key":"03451","name":"Ammerland","type":"Landkreis"},"federalState":{"key":"03","name":"Niedersachsen"}},{"name":"Alpenrosenweg","postalCode":"26655","locality":"Westerstede","municipality":{"key":"03451007","name":"Westerstede, Stadt","type":"Stadt"},"district":{"key":"03451","name":"Ammerland","type":"Landkreis"},"federalState":{"key":"03","name":"Niedersachsen"}},{"name":"Alter Postweg","postalCode":"26655","locality":"Westerstede","municipality":{"key":"03451007","name":"Westerstede, Stadt","type":"Stadt"},"district":{"key":"03451","name":"Ammerland","type":"Landkreis"},"federalState":{"key":"03","name":"Niedersachsen"}},{"name":"Alte Schwak","postalCode":"26655","locality":"Westerstede","municipality":{"key":"03451007","name":"Westerstede, Stadt","type":"Stadt"},"district":{"key":"03451","name":"Ammerland","type":"Landkreis"},"federalState":{"key":"03","name":"Niedersachsen"}},{"name":"Alte Str.","postalCode":"26655","locality":"Westerstede","municipality":{"key":"03451007","name":"Westerstede, Stadt","type":"Stadt"},"district":{"key":"03451","name":"Ammerland","type":"Landkreis"},"federalState":{"key":"03","name":"Niedersachsen"}},{"name":"Alte Weide","postalCode":"26655","locality":"Westerstede","municipality":{"key":"03451007","name":"Westerstede, Stadt","type":"Stadt"},"district":{"key":"03451","name":"Ammerland","type":"Landkreis"},"federalState":{"key":"03","name":"Niedersachsen"}},{"name":"Am Achterkamp","postalCode":"26655","locality":"Westerstede","municipality":{"key":"03451007","name":"Westerstede, Stadt","type":"Stadt"},"district":{"key":"03451","name":"Ammerland","type":"Landkreis"},"federalState":{"key":"03","name":"Niedersachsen"}},{"name":"Am Bahnhof","postalCode":"26655","locality":"Westerstede","municipality":{"key":"03451007","name":"Westerstede, Stadt","type":"Stadt"},"district":{"key":"03451","name":"Ammerland","type":"Landkreis"},"federalState":{"key":"03","name":"Niedersachsen"}},{"name":"Am Börn","postalCode":"26655","locality":"Westerstede","municipality":{"key":"03451007","name":"Westerstede, Stadt","type":"Stadt"},"district":{"key":"03451","name":"Ammerland","type":"Landkreis"},"federalState":{"key":"03","name":"Niedersachsen"}},{"name":"Am Brook","postalCode":"26655","locality":"Westerstede","municipality":{"key":"03451007","name":"Westerstede, Stadt","type":"Stadt"},"district":{"key":"03451","name":"Ammerland","type":"Landkreis"},"federalState":{"key":"03","name":"Niedersachsen"}},{"name":"Am Brookwehr","postalCode":"26655","locality":"Westerstede","municipality":{"key":"03451007","name":"Westerstede, Stadt","type":"Stadt"},"district":{"key":"03451","name":"Ammerland","type":"Landkreis"},"federalState":{"key":"03","name":"Niedersachsen"}},{"name":"Am Brunbarg","postalCode":"26655","locality":"Westerstede","municipality":{"key":"03451007","name":"Westerstede, Stadt","type":"Stadt"},"district":{"key":"03451","name":"Ammerland","type":"Landkreis"},"federalState":{"key":"03","name":"Niedersachsen"}},{"name":"Am Brunneneck","postalCode":"26655","locality":"Westerstede","municipality":{"key":"03451007","name":"Westerstede, Stadt","type":"Stadt"},"district":{"key":"03451","name":"Ammerland","type":"Landkreis"},"federalState":{"key":"03","name":"Niedersachsen"}},{"name":"Am Bült","postalCode":"26655","locality":"Westerstede","municipality":{"key":"03451007","name":"Westerstede, Stadt","type":"Stadt"},"district":{"key":"03451","name":"Ammerland","type":"Landkreis"},"federalState":{"key":"03","name":"Niedersachsen"}},{"name":"Am Damm","postalCode":"26655","locality":"Westerstede","municipality":{"key":"03451007","name":"Westerstede, Stadt","type":"Stadt"},"district":{"key":"03451","name":"Ammerland","type":"Landkreis"},"federalState":{"key":"03","name":"Niedersachsen"}},{"name":"Am Dillfeld","postalCode":"26655","locality":"Westerstede","municipality":{"key":"03451007","name":"Westerstede, Stadt","type":"Stadt"},"district":{"key":"03451","name":"Ammerland","type":"Landkreis"},"federalState":{"key":"03","name":"Niedersachsen"}},{"name":"Am Dorfplatz","postalCode":"26655","locality":"Westerstede","municipality":{"key":"03451007","name":"Westerstede, Stadt","type":"Stadt"},"district":{"key":"03451","name":"Ammerland","type":"Landkreis"},"federalState":{"key":"03","name":"Niedersachsen"}},{"name":"Am Droh","postalCode":"26655","locality":"Westerstede","municipality":{"key":"03451007","name":"Westerstede, Stadt","type":"Stadt"},"district":{"key":"03451","name":"Ammerland","type":"Landkreis"},"federalState":{"key":"03","name":"Niedersachsen"}},{"name":"Am Düwelshop","postalCode":"26655","locality":"Westerstede","municipality":{"key":"03451007","name":"Westerstede, Stadt","type":"Stadt"},"district":{"key":"03451","name":"Ammerland","type":"Landkreis"},"federalState":{"key":"03","name":"Niedersachsen"}},{"name":"Am Esch","postalCode":"26655","locality":"Westerstede","municipality":{"key":"03451007","name":"Westerstede, Stadt","type":"Stadt"},"district":{"key":"03451","name":"Ammerland","type":"Landkreis"},"federalState":{"key":"03","name":"Niedersachsen"}},{"name":"Am Felderfeld","postalCode":"26655","locality":"Westerstede","municipality":{"key":"03451007","name":"Westerstede, Stadt","type":"Stadt"},"district":{"key":"03451","name":"Ammerland","type":"Landkreis"},"federalState":{"key":"03","name":"Niedersachsen"}},{"name":"Am Fischteich","postalCode":"26655","locality":"Westerstede","municipality":{"key":"03451007","name":"Westerstede, Stadt","type":"Stadt"},"district":{"key":"03451","name":"Ammerland","type":"Landkreis"},"federalState":{"key":"03","name":"Niedersachsen"}},{"name":"Am Flach","postalCode":"26655","locality":"Westerstede","municipality":{"key":"03451007","name":"Westerstede, Stadt","type":"Stadt"},"district":{"key":"03451","name":"Ammerland","type":"Landkreis"},"federalState":{"key":"03","name":"Niedersachsen"}},{"name":"Am Flutter","postalCode":"26655","locality":"Westerstede","municipality":{"key":"03451007","name":"Westerstede, Stadt","type":"Stadt"},"district":{"key":"03451","name":"Ammerland","type":"Landkreis"},"federalState":{"key":"03","name":"Niedersachsen"}},{"name":"Am Fuchsbau","postalCode":"26655","locality":"Westerstede","municipality":{"key":"03451007","name":"Westerstede, Stadt","type":"Stadt"},"district":{"key":"03451","name":"Ammerland","type":"Landkreis"},"federalState":{"key":"03","name":"Niedersachsen"}},{"name":"Am Fuchsberg","postalCode":"26655","locality":"Westerstede","municipality":{"key":"03451007","name":"Westerstede, Stadt","type":"Stadt"},"district":{"key":"03451","name":"Ammerland","type":"Landkreis"},"federalState":{"key":"03","name":"Niedersachsen"}},{"name":"Am Grafenfeld","postalCode":"26655","locality":"Westerstede","municipality":{"key":"03451007","name":"Westerstede, Stadt","type":"Stadt"},"district":{"key":"03451","name":"Ammerland","type":"Landkreis"},"federalState":{"key":"03","name":"Niedersachsen"}},{"name":"Am Grashoff","postalCode":"26655","locality":"Westerstede","municipality":{"key":"03451007","name":"Westerstede, Stadt","type":"Stadt"},"district":{"key":"03451","name":"Ammerland","type":"Landkreis"},"federalState":{"key":"03","name":"Niedersachsen"}},{"name":"Am Grauen Stein","postalCode":"26655","locality":"Westerstede","municipality":{"key":"03451007","name":"Westerstede, Stadt","type":"Stadt"},"district":{"key":"03451","name":"Ammerland","type":"Landkreis"},"federalState":{"key":"03","name":"Niedersachsen"}},{"name":"Am Haferkamp","postalCode":"26655","locality":"Westerstede","municipality":{"key":"03451007","name":"Westerstede, Stadt","type":"Stadt"},"district":{"key":"03451","name":"Ammerland","type":"Landkreis"},"federalState":{"key":"03","name":"Niedersachsen"}},{"name":"Am Hamjebusch","postalCode":"26655","locality":"Westerstede","municipality":{"key":"03451007","name":"Westerstede, Stadt","type":"Stadt"},"district":{"key":"03451","name":"Ammerland","type":"Landkreis"},"federalState":{"key":"03","name":"Niedersachsen"}},{"name":"Am Harmsloh","postalCode":"26655","locality":"Westerstede","municipality":{"key":"03451007","name":"Westerstede, Stadt","type":"Stadt"},"district":{"key":"03451","name":"Ammerland","type":"Landkreis"},"federalState":{"key":"03","name":"Niedersachsen"}},{"name":"Am Hohen Feld","postalCode":"26655","locality":"Westerstede","municipality":{"key":"03451007","name":"Westerstede, Stadt","type":"Stadt"},"district":{"key":"03451","name":"Ammerland","type":"Landkreis"},"federalState":{"key":"03","name":"Niedersachsen"}},{"name":"Am Holtkamp","postalCode":"26655","locality":"Westerstede","municipality":{"key":"03451007","name":"Westerstede, Stadt","type":"Stadt"},"district":{"key":"03451","name":"Ammerland","type":"Landkreis"},"federalState":{"key":"03","name":"Niedersachsen"}},{"name":"Am Hoogen Kamp","postalCode":"26655","locality":"Westerstede","municipality":{"key":"03451007","name":"Westerstede, Stadt","type":"Stadt"},"district":{"key":"03451","name":"Ammerland","type":"Landkreis"},"federalState":{"key":"03","name":"Niedersachsen"}},{"name":"Am Horn","postalCode":"26655","locality":"Westerstede","municipality":{"key":"03451007","name":"Westerstede, Stadt","type":"Stadt"},"district":{"key":"03451","name":"Ammerland","type":"Landkreis"},"federalState":{"key":"03","name":"Niedersachsen"}},{"name":"Am Hörntjekamp","postalCode":"26655","locality":"Westerstede","municipality":{"key":"03451007","name":"Westerstede, Stadt","type":"Stadt"},"district":{"key":"03451","name":"Ammerland","type":"Landkreis"},"federalState":{"key":"03","name":"Niedersachsen"}},{"name":"Am Immenhof","postalCode":"26655","locality":"Westerstede","municipality":{"key":"03451007","name":"Westerstede, Stadt","type":"Stadt"},"district":{"key":"03451","name":"Ammerland","type":"Landkreis"},"federalState":{"key":"03","name":"Niedersachsen"}},{"name":"Am Kanal","postalCode":"26655","locality":"Westerstede","municipality":{"key":"03451007","name":"Westerstede, Stadt","type":"Stadt"},"district":{"key":"03451","name":"Ammerland","type":"Landkreis"},"federalState":{"key":"03","name":"Niedersachsen"}},{"name":"Am Kochskamp","postalCode":"26655","locality":"Westerstede","municipality":{"key":"03451007","name":"Westerstede, Stadt","type":"Stadt"},"district":{"key":"03451","name":"Ammerland","type":"Landkreis"},"federalState":{"key":"03","name":"Niedersachsen"}},{"name":"Am Kuhlen","postalCode":"26655","locality":"Westerstede","municipality":{"key":"03451007","name":"Westerstede, Stadt","type":"Stadt"},"district":{"key":"03451","name":"Ammerland","type":"Landkreis"},"federalState":{"key":"03","name":"Niedersachsen"}},{"name":"Am Lerchenfeld","postalCode":"26655","locality":"Westerstede","municipality":{"key":"03451007","name":"Westerstede, Stadt","type":"Stadt"},"district":{"key":"03451","name":"Ammerland","type":"Landkreis"},"federalState":{"key":"03","name":"Niedersachsen"}},{"name":"Bahnhofsgang","postalCode":"26655","locality":"Westerstede","municipality":{"key":"03451007","name":"Westerstede, Stadt","type":"Stadt"},"district":{"key":"03451","name":"Ammerland","type":"Landkreis"},"federalState":{"key":"03","name":"Niedersachsen"}},{"name":"Bahnhofstr.","postalCode":"26655","locality":"Westerstede","municipality":{"key":"03451007","name":"Westerstede, Stadt","type":"Stadt"},"district":{"key":"03451","name":"Ammerland","type":"Landkreis"},"federalState":{"key":"03","name":"Niedersachsen"}},{"name":"Bahnweg","postalCode":"26655","locality":"Westerstede","municipality":{"key":"03451007","name":"Westerstede, Stadt","type":"Stadt"},"district":{"key":"03451","name":"Ammerland","type":"Landkreis"},"federalState":{"key":"03","name":"Niedersachsen"}},{"name":"Bankstr.","postalCode":"26655","locality":"Westerstede","municipality":{"key":"03451007","name":"Westerstede, Stadt","type":"Stadt"},"district":{"key":"03451","name":"Ammerland","type":"Landkreis"},"federalState":{"key":"03","name":"Niedersachsen"}},{"name":"Baumschulenstr.","postalCode":"26655","locality":"Westerstede","municipality":{"key":"03451007","name":"Westerstede, Stadt","type":"Stadt"},"district":{"key":"03451","name":"Ammerland","type":"Landkreis"},"federalState":{"key":"03","name":"Niedersachsen"}},{"name":"Beethovenstr.","postalCode":"26655","locality":"Westerstede","municipality":{"key":"03451007","name":"Westerstede, Stadt","type":"Stadt"},"district":{"key":"03451","name":"Ammerland","type":"Landkreis"},"federalState":{"key":"03","name":"Niedersachsen"}},{"name":"Bentshöhe","postalCode":"26655","locality":"Westerstede","municipality":{"key":"03451007","name":"Westerstede, Stadt","type":"Stadt"},"district":{"key":"03451","name":"Ammerland","type":"Landkreis"},"federalState":{"key":"03","name":"Niedersachsen"}},{"name":"Berdingweg","postalCode":"26655","locality":"Westerstede","municipality":{"key":"03451007","name":"Westerstede, Stadt","type":"Stadt"},"district":{"key":"03451","name":"Ammerland","type":"Landkreis"},"federalState":{"key":"03","name":"Niedersachsen"}},{"name":"Berliner Platz","postalCode":"26655","locality":"Westerstede","municipality":{"key":"03451007","name":"Westerstede, Stadt","type":"Stadt"},"district":{"key":"03451","name":"Ammerland","type":"Landkreis"},"federalState":{"key":"03","name":"Niedersachsen"}},{"name":"Berliner Str.","postalCode":"26655","locality":"Westerstede","municipality":{"key":"03451007","name":"Westerstede, Stadt","type":"Stadt"},"district":{"key":"03451","name":"Ammerland","type":"Landkreis"},"federalState":{"key":"03","name":"Niedersachsen"}},{"name":"Bertha-von-Suttner-Str.","postalCode":"26655","locality":"Westerstede","municipality":{"key":"03451007","name":"Westerstede, Stadt","type":"Stadt"},"district":{"key":"03451","name":"Ammerland","type":"Landkreis"},"federalState":{"key":"03","name":"Niedersachsen"}},{"name":"Bertolt-Brecht-Str.","postalCode":"26655","locality":"Westerstede","municipality":{"key":"03451007","name":"Westerstede, Stadt","type":"Stadt"},"district":{"key":"03451","name":"Ammerland","type":"Landkreis"},"federalState":{"key":"03","name":"Niedersachsen"}},{"name":"Biberweg","postalCode":"26655","locality":"Westerstede","municipality":{"key":"03451007","name":"Westerstede, Stadt","type":"Stadt"},"district":{"key":"03451","name":"Ammerland","type":"Landkreis"},"federalState":{"key":"03","name":"Niedersachsen"}},{"name":"Bienenpark Hollriede","postalCode":"26655","locality":"Westerstede","municipality":{"key":"03451007","name":"Westerstede, Stadt","type":"Stadt"},"district":{"key":"03451","name":"Ammerland","type":"Landkreis"},"federalState":{"key":"03","name":"Niedersachsen"}},{"name":"Birkenstr.","postalCode":"26655","locality":"Westerstede","municipality":{"key":"03451007","name":"Westerstede, Stadt","type":"Stadt"},"district":{"key":"03451","name":"Ammerland","type":"Landkreis"},"federalState":{"key":"03","name":"Niedersachsen"}},{"name":"Birkenweg","postalCode":"26655","locality":"Westerstede","municipality":{"key":"03451007","name":"Westerstede, Stadt","type":"Stadt"},"district":{"key":"03451","name":"Ammerland","type":"Landkreis"},"federalState":{"key":"03","name":"Niedersachsen"}},{"name":"Birkhahnstr.","postalCode":"26655","locality":"Westerstede","municipality":{"key":"03451007","name":"Westerstede, Stadt","type":"Stadt"},"district":{"key":"03451","name":"Ammerland","type":"Landkreis"},"federalState":{"key":"03","name":"Niedersachsen"}},{"name":"Blumenstr.","postalCode":"26655","locality":"Westerstede","municipality":{"key":"03451007","name":"Westerstede, Stadt","type":"Stadt"},"district":{"key":"03451","name":"Ammerland","type":"Landkreis"},"federalState":{"key":"03","name":"Niedersachsen"}},{"name":"Bohmsende","postalCode":"26655","locality":"Westerstede","municipality":{"key":"03451007","name":"Westerstede, Stadt","type":"Stadt"},"district":{"key":"03451","name":"Ammerland","type":"Landkreis"},"federalState":{"key":"03","name":"Niedersachsen"}},{"name":"Börns End","postalCode":"26655","locality":"Westerstede","municipality":{"key":"03451007","name":"Westerstede, Stadt","type":"Stadt"},"district":{"key":"03451","name":"Ammerland","type":"Landkreis"},"federalState":{"key":"03","name":"Niedersachsen"}},{"name":"Börns Kamp","postalCode":"26655","locality":"Westerstede","municipality":{"key":"03451007","name":"Westerstede, Stadt","type":"Stadt"},"district":{"key":"03451","name":"Ammerland","type":"Landkreis"},"federalState":{"key":"03","name":"Niedersachsen"}},{"name":"Börnsweg","postalCode":"26655","locality":"Westerstede","municipality":{"key":"03451007","name":"Westerstede, Stadt","type":"Stadt"},"district":{"key":"03451","name":"Ammerland","type":"Landkreis"},"federalState":{"key":"03","name":"Niedersachsen"}},{"name":"Börns Wiek","postalCode":"26655","locality":"Westerstede","municipality":{"key":"03451007","name":"Westerstede, Stadt","type":"Stadt"},"district":{"key":"03451","name":"Ammerland","type":"Landkreis"},"federalState":{"key":"03","name":"Niedersachsen"}},{"name":"Boßeldamm","postalCode":"26655","locality":"Westerstede","municipality":{"key":"03451007","name":"Westerstede, Stadt","type":"Stadt"},"district":{"key":"03451","name":"Ammerland","type":"Landkreis"},"federalState":{"key":"03","name":"Niedersachsen"}},{"name":"Brakenhoffstr.","postalCode":"26655","locality":"Westerstede","municipality":{"key":"03451007","name":"Westerstede, Stadt","type":"Stadt"},"district":{"key":"03451","name":"Ammerland","type":"Landkreis"},"federalState":{"key":"03","name":"Niedersachsen"}},{"name":"Bredehorner Str.","postalCode":"26655","locality":"Westerstede","municipality":{"key":"03451007","name":"Westerstede, Stadt","type":"Stadt"},"district":{"key":"03451","name":"Ammerland","type":"Landkreis"},"federalState":{"key":"03","name":"Niedersachsen"}},{"name":"Breslauer Str.","postalCode":"26655","locality":"Westerstede","municipality":{"key":"03451007","name":"Westerstede, Stadt","type":"Stadt"},"district":{"key":"03451","name":"Ammerland","type":"Landkreis"},"federalState":{"key":"03","name":"Niedersachsen"}},{"name":"Brinkstr.","postalCode":"26655","locality":"Westerstede","municipality":{"key":"03451007","name":"Westerstede, Stadt","type":"Stadt"},"district":{"key":"03451","name":"Ammerland","type":"Landkreis"},"federalState":{"key":"03","name":"Niedersachsen"}},{"name":"Brökenweg","postalCode":"26655","locality":"Westerstede","municipality":{"key":"03451007","name":"Westerstede, Stadt","type":"Stadt"},"district":{"key":"03451","name":"Ammerland","type":"Landkreis"},"federalState":{"key":"03","name":"Niedersachsen"}},{"name":"Brookstr.","postalCode":"26655","locality":"Westerstede","municipality":{"key":"03451007","name":"Westerstede, Stadt","type":"Stadt"},"district":{"key":"03451","name":"Ammerland","type":"Landkreis"},"federalState":{"key":"03","name":"Niedersachsen"}},{"name":"Brunnenstr.","postalCode":"26655","locality":"Westerstede","municipality":{"key":"03451007","name":"Westerstede, Stadt","type":"Stadt"},"district":{"key":"03451","name":"Ammerland","type":"Landkreis"},"federalState":{"key":"03","name":"Niedersachsen"}},{"name":"Buchenstr.","postalCode":"26655","locality":"Westerstede","municipality":{"key":"03451007","name":"Westerstede, Stadt","type":"Stadt"},"district":{"key":"03451","name":"Ammerland","type":"Landkreis"},"federalState":{"key":"03","name":"Niedersachsen"}},{"name":"Buchweizenweg","postalCode":"26655","locality":"Westerstede","municipality":{"key":"03451007","name":"Westerstede, Stadt","type":"Stadt"},"district":{"key":"03451","name":"Ammerland","type":"Landkreis"},"federalState":{"key":"03","name":"Niedersachsen"}},{"name":"Buernstr.","postalCode":"26655","locality":"Westerstede","municipality":{"key":"03451007","name":"Westerstede, Stadt","type":"Stadt"},"district":{"key":"03451","name":"Ammerland","type":"Landkreis"},"federalState":{"key":"03","name":"Niedersachsen"}},{"name":"Bürgermeister-Niemann-Str.","postalCode":"26655","locality":"Westerstede","municipality":{"key":"03451007","name":"Westerstede, Stadt","type":"Stadt"},"district":{"key":"03451","name":"Ammerland","type":"Landkreis"},"federalState":{"key":"03","name":"Niedersachsen"}},{"name":"Burgforder Kamp","postalCode":"26655","locality":"Westerstede","municipality":{"key":"03451007","name":"Westerstede, Stadt","type":"Stadt"},"district":{"key":"03451","name":"Ammerland","type":"Landkreis"},"federalState":{"key":"03","name":"Niedersachsen"}},{"name":"Burgstr.","postalCode":"26655","locality":"Westerstede","municipality":{"key":"03451007","name":"Westerstede, Stadt","type":"Stadt"},"district":{"key":"03451","name":"Ammerland","type":"Landkreis"},"federalState":{"key":"03","name":"Niedersachsen"}},{"name":"Burnhörn","postalCode":"26655","locality":"Westerstede","municipality":{"key":"03451007","name":"Westerstede, Stadt","type":"Stadt"},"district":{"key":"03451","name":"Ammerland","type":"Landkreis"},"federalState":{"key":"03","name":"Niedersachsen"}},{"name":"Buschweg","postalCode":"26655","locality":"Westerstede","municipality":{"key":"03451007","name":"Westerstede, Stadt","type":"Stadt"},"district":{"key":"03451","name":"Ammerland","type":"Landkreis"},"federalState":{"key":"03","name":"Niedersachsen"}},{"name":"Bussardweg","postalCode":"26655","locality":"Westerstede","municipality":{"key":"03451007","name":"Westerstede, Stadt","type":"Stadt"},"district":{"key":"03451","name":"Ammerland","type":"Landkreis"},"federalState":{"key":"03","name":"Niedersachsen"}},{"name":"Bussweg","postalCode":"26655","locality":"Westerstede","municipality":{"key":"03451007","name":"Westerstede, Stadt","type":"Stadt"},"district":{"key":"03451","name":"Ammerland","type":"Landkreis"},"federalState":{"key":"03","name":"Niedersachsen"}},{"name":"Carl-Baasen-Str.","postalCode":"26655","locality":"Westerstede","municipality":{"key":"03451007","name":"Westerstede, Stadt","type":"Stadt"},"district":{"key":"03451","name":"Ammerland","type":"Landkreis"},"federalState":{"key":"03","name":"Niedersachsen"}},{"name":"Carl-Benz-Str.","postalCode":"26655","locality":"Westerstede","municipality":{"key":"03451007","name":"Westerstede, Stadt","type":"Stadt"},"district":{"key":"03451","name":"Ammerland","type":"Landkreis"},"federalState":{"key":"03","name":"Niedersachsen"}},{"name":"Carstensweg","postalCode":"26655","locality":"Westerstede","municipality":{"key":"03451007","name":"Westerstede, Stadt","type":"Stadt"},"district":{"key":"03451","name":"Ammerland","type":"Landkreis"},"federalState":{"key":"03","name":"Niedersachsen"}},{"name":"Charlottenburger Weg","postalCode":"26655","locality":"Westerstede","municipality":{"key":"03451007","name":"Westerstede, Stadt","type":"Stadt"},"district":{"key":"03451","name":"Ammerland","type":"Landkreis"},"federalState":{"key":"03","name":"Niedersachsen"}},{"name":"Dachsstr.","postalCode":"26655","locality":"Westerstede","municipality":{"key":"03451007","name":"Westerstede, Stadt","type":"Stadt"},"district":{"key":"03451","name":"Ammerland","type":"Landkreis"},"federalState":{"key":"03","name":"Niedersachsen"}},{"name":"Damsweg","postalCode":"26655","locality":"Westerstede","municipality":{"key":"03451007","name":"Westerstede, Stadt","type":"Stadt"},"district":{"key":"03451","name":"Ammerland","type":"Landkreis"},"federalState":{"key":"03","name":"Niedersachsen"}},{"name":"Danziger Str.","postalCode":"26655","locality":"Westerstede","municipality":{"key":"03451007","name":"Westerstede, Stadt","type":"Stadt"},"district":{"key":"03451","name":"Ammerland","type":"Landkreis"},"federalState":{"key":"03","name":"Niedersachsen"}},{"name":"Deborgsweg","postalCode":"26655","locality":"Westerstede","municipality":{"key":"03451007","name":"Westerstede, Stadt","type":"Stadt"},"district":{"key":"03451","name":"Ammerland","type":"Landkreis"},"federalState":{"key":"03","name":"Niedersachsen"}},{"name":"Deepengöhlen","postalCode":"26655","locality":"Westerstede","municipality":{"key":"03451007","name":"Westerstede, Stadt","type":"Stadt"},"district":{"key":"03451","name":"Ammerland","type":"Landkreis"},"federalState":{"key":"03","name":"Niedersachsen"}},{"name":"Der Eilersche Feldweg","postalCode":"26655","locality":"Westerstede","municipality":{"key":"03451007","name":"Westerstede, Stadt","type":"Stadt"},"district":{"key":"03451","name":"Ammerland","type":"Landkreis"},"federalState":{"key":"03","name":"Niedersachsen"}},{"name":"Diedrich-Lanje-Str.","postalCode":"26655","locality":"Westerstede","municipality":{"key":"03451007","name":"Westerstede, Stadt","type":"Stadt"},"district":{"key":"03451","name":"Ammerland","type":"Landkreis"},"federalState":{"key":"03","name":"Niedersachsen"}},{"name":"Dielenweg","postalCode":"26655","locality":"Westerstede","municipality":{"key":"03451007","name":"Westerstede, Stadt","type":"Stadt"},"district":{"key":"03451","name":"Ammerland","type":"Landkreis"},"federalState":{"key":"03","name":"Niedersachsen"}},{"name":"Dörn Pool","postalCode":"26655","locality":"Westerstede","municipality":{"key":"03451007","name":"Westerstede, Stadt","type":"Stadt"},"district":{"key":"03451","name":"Ammerland","type":"Landkreis"},"federalState":{"key":"03","name":"Niedersachsen"}},{"name":"Dörn Wärgen","postalCode":"26655","locality":"Westerstede","municipality":{"key":"03451007","name":"Westerstede, Stadt","type":"Stadt"},"district":{"key":"03451","name":"Ammerland","type":"Landkreis"},"federalState":{"key":"03","name":"Niedersachsen"}},{"name":"Drosselweg","postalCode":"26655","locality":"Westerstede","municipality":{"key":"03451007","name":"Westerstede, Stadt","type":"Stadt"},"district":{"key":"03451","name":"Ammerland","type":"Landkreis"},"federalState":{"key":"03","name":"Niedersachsen"}},{"name":"Dr.-Winters-Str.","postalCode":"26655","locality":"Westerstede","municipality":{"key":"03451007","name":"Westerstede, Stadt","type":"Stadt"},"district":{"key":"03451","name":"Ammerland","type":"Landkreis"},"federalState":{"key":"03","name":"Niedersachsen"}},{"name":"Dünje Moor","postalCode":"26655","locality":"Westerstede","municipality":{"key":"03451007","name":"Westerstede, Stadt","type":"Stadt"},"district":{"key":"03451","name":"Ammerland","type":"Landkreis"},"federalState":{"key":"03","name":"Niedersachsen"}},{"name":"Düsterbäksweg","postalCode":"26655","locality":"Westerstede","municipality":{"key":"03451007","name":"Westerstede, Stadt","type":"Stadt"},"district":{"key":"03451","name":"Ammerland","type":"Landkreis"},"federalState":{"key":"03","name":"Niedersachsen"}},{"name":"Dwaschweg","postalCode":"26655","locality":"Westerstede","municipality":{"key":"03451007","name":"Westerstede, Stadt","type":"Stadt"},"district":{"key":"03451","name":"Ammerland","type":"Landkreis"},"federalState":{"key":"03","name":"Niedersachsen"}},{"name":"Ebereschenweg","postalCode":"26655","locality":"Westerstede","municipality":{"key":"03451007","name":"Westerstede, Stadt","type":"Stadt"},"district":{"key":"03451","name":"Ammerland","type":"Landkreis"},"federalState":{"key":"03","name":"Niedersachsen"}},{"name":"Eberhard-Ries-Str.","postalCode":"26655","locality":"Westerstede","municipality":{"key":"03451007","name":"Westerstede, Stadt","type":"Stadt"},"district":{"key":"03451","name":"Ammerland","type":"Landkreis"},"federalState":{"key":"03","name":"Niedersachsen"}},{"name":"Ebkehofstr.","postalCode":"26655","locality":"Westerstede","municipality":{"key":"03451007","name":"Westerstede, Stadt","type":"Stadt"},"district":{"key":"03451","name":"Ammerland","type":"Landkreis"},"federalState":{"key":"03","name":"Niedersachsen"}},{"name":"Eekenpadd","postalCode":"26655","locality":"Westerstede","municipality":{"key":"03451007","name":"Westerstede, Stadt","type":"Stadt"},"district":{"key":"03451","name":"Ammerland","type":"Landkreis"},"federalState":{"key":"03","name":"Niedersachsen"}},{"name":"Eggeloger Str.","postalCode":"26655","locality":"Westerstede","municipality":{"key":"03451007","name":"Westerstede, Stadt","type":"Stadt"},"district":{"key":"03451","name":"Ammerland","type":"Landkreis"},"federalState":{"key":"03","name":"Niedersachsen"}},{"name":"Eibenstr.","postalCode":"26655","locality":"Westerstede","municipality":{"key":"03451007","name":"Westerstede, Stadt","type":"Stadt"},"district":{"key":"03451","name":"Ammerland","type":"Landkreis"},"federalState":{"key":"03","name":"Niedersachsen"}},{"name":"Eichendorffstr.","postalCode":"26655","locality":"Westerstede","municipality":{"key":"03451007","name":"Westerstede, Stadt","type":"Stadt"},"district":{"key":"03451","name":"Ammerland","type":"Landkreis"},"federalState":{"key":"03","name":"Niedersachsen"}},{"name":"Eichenweg","postalCode":"26655","locality":"Westerstede","municipality":{"key":"03451007","name":"Westerstede, Stadt","type":"Stadt"},"district":{"key":"03451","name":"Ammerland","type":"Landkreis"},"federalState":{"key":"03","name":"Niedersachsen"}},{"name":"Elbinger Str.","postalCode":"26655","locality":"Westerstede","municipality":{"key":"03451007","name":"Westerstede, Stadt","type":"Stadt"},"district":{"key":"03451","name":"Ammerland","type":"Landkreis"},"federalState":{"key":"03","name":"Niedersachsen"}},{"name":"Ellernstr.","postalCode":"26655","locality":"Westerstede","municipality":{"key":"03451007","name":"Westerstede, Stadt","type":"Stadt"},"district":{"key":"03451","name":"Ammerland","type":"Landkreis"},"federalState":{"key":"03","name":"Niedersachsen"}},{"name":"Ellernweg","postalCode":"26655","locality":"Westerstede","municipality":{"key":"03451007","name":"Westerstede, Stadt","type":"Stadt"},"district":{"key":"03451","name":"Ammerland","type":"Landkreis"},"federalState":{"key":"03","name":"Niedersachsen"}},{"name":"Ernst-Barlach-Str.","postalCode":"26655","locality":"Westerstede","municipality":{"key":"03451007","name":"Westerstede, Stadt","type":"Stadt"},"district":{"key":"03451","name":"Ammerland","type":"Landkreis"},"federalState":{"key":"03","name":"Niedersachsen"}},{"name":"Eschmeede","postalCode":"26655","locality":"Westerstede","municipality":{"key":"03451007","name":"Westerstede, Stadt","type":"Stadt"},"district":{"key":"03451","name":"Ammerland","type":"Landkreis"},"federalState":{"key":"03","name":"Niedersachsen"}},{"name":"Falkenhorst","postalCode":"26655","locality":"Westerstede","municipality":{"key":"03451007","name":"Westerstede, Stadt","type":"Stadt"},"district":{"key":"03451","name":"Ammerland","type":"Landkreis"},"federalState":{"key":"03","name":"Niedersachsen"}},{"name":"Fasanenweg","postalCode":"26655","locality":"Westerstede","municipality":{"key":"03451007","name":"Westerstede, Stadt","type":"Stadt"},"district":{"key":"03451","name":"Ammerland","type":"Landkreis"},"federalState":{"key":"03","name":"Niedersachsen"}},{"name":"Fehmsweg","postalCode":"26655","locality":"Westerstede","municipality":{"key":"03451007","name":"Westerstede, Stadt","type":"Stadt"},"district":{"key":"03451","name":"Ammerland","type":"Landkreis"},"federalState":{"key":"03","name":"Niedersachsen"}},{"name":"Felder Str.","postalCode":"26655","locality":"Westerstede","municipality":{"key":"03451007","name":"Westerstede, Stadt","type":"Stadt"},"district":{"key":"03451","name":"Ammerland","type":"Landkreis"},"federalState":{"key":"03","name":"Niedersachsen"}},{"name":"Feldeschweg","postalCode":"26655","locality":"Westerstede","municipality":{"key":"03451007","name":"Westerstede, Stadt","type":"Stadt"},"district":{"key":"03451","name":"Ammerland","type":"Landkreis"},"federalState":{"key":"03","name":"Niedersachsen"}},{"name":"Feldstr.","postalCode":"26655","locality":"Westerstede","municipality":{"key":"03451007","name":"Westerstede, Stadt","type":"Stadt"},"district":{"key":"03451","name":"Ammerland","type":"Landkreis"},"federalState":{"key":"03","name":"Niedersachsen"}},{"name":"Fichtenstr.","postalCode":"26655","locality":"Westerstede","municipality":{"key":"03451007","name":"Westerstede, Stadt","type":"Stadt"},"district":{"key":"03451","name":"Ammerland","type":"Landkreis"},"federalState":{"key":"03","name":"Niedersachsen"}},{"name":"Fikensolterfeld","postalCode":"26655","locality":"Westerstede","municipality":{"key":"03451007","name":"Westerstede, Stadt","type":"Stadt"},"district":{"key":"03451","name":"Ammerland","type":"Landkreis"},"federalState":{"key":"03","name":"Niedersachsen"}},{"name":"Finkenweg","postalCode":"26655","locality":"Westerstede","municipality":{"key":"03451007","name":"Westerstede, Stadt","type":"Stadt"},"district":{"key":"03451","name":"Ammerland","type":"Landkreis"},"federalState":{"key":"03","name":"Niedersachsen"}},{"name":"Finkstroth","postalCode":"26655","locality":"Westerstede","municipality":{"key":"03451007","name":"Westerstede, Stadt","type":"Stadt"},"district":{"key":"03451","name":"Ammerland","type":"Landkreis"},"federalState":{"key":"03","name":"Niedersachsen"}},{"name":"Fischotterweg","postalCode":"26655","locality":"Westerstede","municipality":{"key":"03451007","name":"Westerstede, Stadt","type":"Stadt"},"district":{"key":"03451","name":"Ammerland","type":"Landkreis"},"federalState":{"key":"03","name":"Niedersachsen"}},{"name":"Fliederstr.","postalCode":"26655","locality":"Westerstede","municipality":{"key":"03451007","name":"Westerstede, Stadt","type":"Stadt"},"district":{"key":"03451","name":"Ammerland","type":"Landkreis"},"federalState":{"key":"03","name":"Niedersachsen"}},{"name":"Franz-Poppe-Str.","postalCode":"26655","locality":"Westerstede","municipality":{"key":"03451007","name":"Westerstede, Stadt","type":"Stadt"},"district":{"key":"03451","name":"Ammerland","type":"Landkreis"},"federalState":{"key":"03","name":"Niedersachsen"}},{"name":"Friesenschanze","postalCode":"26655","locality":"Westerstede","municipality":{"key":"03451007","name":"Westerstede, Stadt","type":"Stadt"},"district":{"key":"03451","name":"Ammerland","type":"Landkreis"},"federalState":{"key":"03","name":"Niedersachsen"}},{"name":"Friesenstr.","postalCode":"26655","locality":"Westerstede","municipality":{"key":"03451007","name":"Westerstede, Stadt","type":"Stadt"},"district":{"key":"03451","name":"Ammerland","type":"Landkreis"},"federalState":{"key":"03","name":"Niedersachsen"}},{"name":"Fritz-Büsing-Str.","postalCode":"26655","locality":"Westerstede","municipality":{"key":"03451007","name":"Westerstede, Stadt","type":"Stadt"},"district":{"key":"03451","name":"Ammerland","type":"Landkreis"},"federalState":{"key":"03","name":"Niedersachsen"}},{"name":"Fröbelstr.","postalCode":"26655","locality":"Westerstede","municipality":{"key":"03451007","name":"Westerstede, Stadt","type":"Stadt"},"district":{"key":"03451","name":"Ammerland","type":"Landkreis"},"federalState":{"key":"03","name":"Niedersachsen"}},{"name":"Gabelsberger Str.","postalCode":"26655","locality":"Westerstede","municipality":{"key":"03451007","name":"Westerstede, Stadt","type":"Stadt"},"district":{"key":"03451","name":"Ammerland","type":"Landkreis"},"federalState":{"key":"03","name":"Niedersachsen"}},{"name":"Gagelstr.","postalCode":"26655","locality":"Westerstede","municipality":{"key":"03451007","name":"Westerstede, Stadt","type":"Stadt"},"district":{"key":"03451","name":"Ammerland","type":"Landkreis"},"federalState":{"key":"03","name":"Niedersachsen"}},{"name":"Garnholterdamm","postalCode":"26655","locality":"Westerstede","municipality":{"key":"03451007","name":"Westerstede, Stadt","type":"Stadt"},"district":{"key":"03451","name":"Ammerland","type":"Landkreis"},"federalState":{"key":"03","name":"Niedersachsen"}},{"name":"Garnholter Str.","postalCode":"26655","locality":"Westerstede","municipality":{"key":"03451007","name":"Westerstede, Stadt","type":"Stadt"},"district":{"key":"03451","name":"Ammerland","type":"Landkreis"},"federalState":{"key":"03","name":"Niedersachsen"}},{"name":"Gartenstr.","postalCode":"26655","locality":"Westerstede","municipality":{"key":"03451007","name":"Westerstede, Stadt","type":"Stadt"},"district":{"key":"03451","name":"Ammerland","type":"Landkreis"},"federalState":{"key":"03","name":"Niedersachsen"}},{"name":"Gaststr.","postalCode":"26655","locality":"Westerstede","municipality":{"key":"03451007","name":"Westerstede, Stadt","type":"Stadt"},"district":{"key":"03451","name":"Ammerland","type":"Landkreis"},"federalState":{"key":"03","name":"Niedersachsen"}},{"name":"Georg-Ruseler-Str.","postalCode":"26655","locality":"Westerstede","municipality":{"key":"03451007","name":"Westerstede, Stadt","type":"Stadt"},"district":{"key":"03451","name":"Ammerland","type":"Landkreis"},"federalState":{"key":"03","name":"Niedersachsen"}},{"name":"Geranienweg","postalCode":"26655","locality":"Westerstede","municipality":{"key":"03451007","name":"Westerstede, Stadt","type":"Stadt"},"district":{"key":"03451","name":"Ammerland","type":"Landkreis"},"federalState":{"key":"03","name":"Niedersachsen"}},{"name":"Gerhard-Diedrich-Böhlje-Str.","postalCode":"26655","locality":"Westerstede","municipality":{"key":"03451007","name":"Westerstede, Stadt","type":"Stadt"},"district":{"key":"03451","name":"Ammerland","type":"Landkreis"},"federalState":{"key":"03","name":"Niedersachsen"}},{"name":"Gerhard-Eimers-Str.","postalCode":"26655","locality":"Westerstede","municipality":{"key":"03451007","name":"Westerstede, Stadt","type":"Stadt"},"district":{"key":"03451","name":"Ammerland","type":"Landkreis"},"federalState":{"key":"03","name":"Niedersachsen"}},{"name":"Gerhard-Wilhelm-Vogts-Str.","postalCode":"26655","locality":"Westerstede","municipality":{"key":"03451007","name":"Westerstede, Stadt","type":"Stadt"},"district":{"key":"03451","name":"Ammerland","type":"Landkreis"},"federalState":{"key":"03","name":"Niedersachsen"}},{"name":"Gerhart-Hauptmann-Str.","postalCode":"26655","locality":"Westerstede","municipality":{"key":"03451007","name":"Westerstede, Stadt","type":"Stadt"},"district":{"key":"03451","name":"Ammerland","type":"Landkreis"},"federalState":{"key":"03","name":"Niedersachsen"}},{"name":"Gerold-Otten-Weg","postalCode":"26655","locality":"Westerstede","municipality":{"key":"03451007","name":"Westerstede, Stadt","type":"Stadt"},"district":{"key":"03451","name":"Ammerland","type":"Landkreis"},"federalState":{"key":"03","name":"Niedersachsen"}},{"name":"Gertrud-Jaspers-Weg","postalCode":"26655","locality":"Westerstede","municipality":{"key":"03451007","name":"Westerstede, Stadt","type":"Stadt"},"district":{"key":"03451","name":"Ammerland","type":"Landkreis"},"federalState":{"key":"03","name":"Niedersachsen"}},{"name":"Gießelhorster Kirchweg","postalCode":"26655","locality":"Westerstede","municipality":{"key":"03451007","name":"Westerstede, Stadt","type":"Stadt"},"district":{"key":"03451","name":"Ammerland","type":"Landkreis"},"federalState":{"key":"03","name":"Niedersachsen"}},{"name":"Ginsterstr.","postalCode":"26655","locality":"Westerstede","municipality":{"key":"03451007","name":"Westerstede, Stadt","type":"Stadt"},"district":{"key":"03451","name":"Ammerland","type":"Landkreis"},"federalState":{"key":"03","name":"Niedersachsen"}},{"name":"Glockenblumenweg","postalCode":"26655","locality":"Westerstede","municipality":{"key":"03451007","name":"Westerstede, Stadt","type":"Stadt"},"district":{"key":"03451","name":"Ammerland","type":"Landkreis"},"federalState":{"key":"03","name":"Niedersachsen"}},{"name":"Godensholter Str.","postalCode":"26655","locality":"Westerstede","municipality":{"key":"03451007","name":"Westerstede, Stadt","type":"Stadt"},"district":{"key":"03451","name":"Ammerland","type":"Landkreis"},"federalState":{"key":"03","name":"Niedersachsen"}},{"name":"Goethestr.","postalCode":"26655","locality":"Westerstede","municipality":{"key":"03451007","name":"Westerstede, Stadt","type":"Stadt"},"district":{"key":"03451","name":"Ammerland","type":"Landkreis"},"federalState":{"key":"03","name":"Niedersachsen"}},{"name":"Göhlen","postalCode":"26655","locality":"Westerstede","municipality":{"key":"03451007","name":"Westerstede, Stadt","type":"Stadt"},"district":{"key":"03451","name":"Ammerland","type":"Landkreis"},"federalState":{"key":"03","name":"Niedersachsen"}},{"name":"Göhlenkamp","postalCode":"26655","locality":"Westerstede","municipality":{"key":"03451007","name":"Westerstede, Stadt","type":"Stadt"},"district":{"key":"03451","name":"Ammerland","type":"Landkreis"},"federalState":{"key":"03","name":"Niedersachsen"}},{"name":"Gottfried-Benn-Str.","postalCode":"26655","locality":"Westerstede","municipality":{"key":"03451007","name":"Westerstede, Stadt","type":"Stadt"},"district":{"key":"03451","name":"Ammerland","type":"Landkreis"},"federalState":{"key":"03","name":"Niedersachsen"}},{"name":"Grasbrook","postalCode":"26655","locality":"Westerstede","municipality":{"key":"03451007","name":"Westerstede, Stadt","type":"Stadt"},"district":{"key":"03451","name":"Ammerland","type":"Landkreis"},"federalState":{"key":"03","name":"Niedersachsen"}},{"name":"Grenzweg","postalCode":"26655","locality":"Westerstede","municipality":{"key":"03451007","name":"Westerstede, Stadt","type":"Stadt"},"district":{"key":"03451","name":"Ammerland","type":"Landkreis"},"federalState":{"key":"03","name":"Niedersachsen"}},{"name":"Grootflach","postalCode":"26655","locality":"Westerstede","municipality":{"key":"03451007","name":"Westerstede, Stadt","type":"Stadt"},"district":{"key":"03451","name":"Ammerland","type":"Landkreis"},"federalState":{"key":"03","name":"Niedersachsen"}},{"name":"Große Mühlenstr.","postalCode":"26655","locality":"Westerstede","municipality":{"key":"03451007","name":"Westerstede, Stadt","type":"Stadt"},"district":{"key":"03451","name":"Ammerland","type":"Landkreis"},"federalState":{"key":"03","name":"Niedersachsen"}},{"name":"Groß Neudorfer Weg","postalCode":"26655","locality":"Westerstede","municipality":{"key":"03451007","name":"Westerstede, Stadt","type":"Stadt"},"district":{"key":"03451","name":"Ammerland","type":"Landkreis"},"federalState":{"key":"03","name":"Niedersachsen"}},{"name":"Grotvaderskamp","postalCode":"26655","locality":"Westerstede","municipality":{"key":"03451007","name":"Westerstede, Stadt","type":"Stadt"},"district":{"key":"03451","name":"Ammerland","type":"Landkreis"},"federalState":{"key":"03","name":"Niedersachsen"}},{"name":"Grüner Weg","postalCode":"26655","locality":"Westerstede","municipality":{"key":"03451007","name":"Westerstede, Stadt","type":"Stadt"},"district":{"key":"03451","name":"Ammerland","type":"Landkreis"},"federalState":{"key":"03","name":"Niedersachsen"}},{"name":"Grüne Str.","postalCode":"26655","locality":"Westerstede","municipality":{"key":"03451007","name":"Westerstede, Stadt","type":"Stadt"},"district":{"key":"03451","name":"Ammerland","type":"Landkreis"},"federalState":{"key":"03","name":"Niedersachsen"}},{"name":"Gutenbergstr.","postalCode":"26655","locality":"Westerstede","municipality":{"key":"03451007","name":"Westerstede, Stadt","type":"Stadt"},"district":{"key":"03451","name":"Ammerland","type":"Landkreis"},"federalState":{"key":"03","name":"Niedersachsen"}},{"name":"Haarfurther Str.","postalCode":"26655","locality":"Westerstede","municipality":{"key":"03451007","name":"Westerstede, Stadt","type":"Stadt"},"district":{"key":"03451","name":"Ammerland","type":"Landkreis"},"federalState":{"key":"03","name":"Niedersachsen"}},{"name":"Hainbuchenweg","postalCode":"26655","locality":"Westerstede","municipality":{"key":"03451007","name":"Westerstede, Stadt","type":"Stadt"},"district":{"key":"03451","name":"Ammerland","type":"Landkreis"},"federalState":{"key":"03","name":"Niedersachsen"}},{"name":"Haisinger Weg","postalCode":"26655","locality":"Westerstede","municipality":{"key":"03451007","name":"Westerstede, Stadt","type":"Stadt"},"district":{"key":"03451","name":"Ammerland","type":"Landkreis"},"federalState":{"key":"03","name":"Niedersachsen"}},{"name":"Halbstrengen","postalCode":"26655","locality":"Westerstede","municipality":{"key":"03451007","name":"Westerstede, Stadt","type":"Stadt"},"district":{"key":"03451","name":"Ammerland","type":"Landkreis"},"federalState":{"key":"03","name":"Niedersachsen"}},{"name":"Halsbeker Esch","postalCode":"26655","locality":"Westerstede","municipality":{"key":"03451007","name":"Westerstede, Stadt","type":"Stadt"},"district":{"key":"03451","name":"Ammerland","type":"Landkreis"},"federalState":{"key":"03","name":"Niedersachsen"}},{"name":"Halsbeker Hauptstr.","postalCode":"26655","locality":"Westerstede","municipality":{"key":"03451007","name":"Westerstede, Stadt","type":"Stadt"},"district":{"key":"03451","name":"Ammerland","type":"Landkreis"},"federalState":{"key":"03","name":"Niedersachsen"}},{"name":"Halsbeker Str.","postalCode":"26655","locality":"Westerstede","municipality":{"key":"03451007","name":"Westerstede, Stadt","type":"Stadt"},"district":{"key":"03451","name":"Ammerland","type":"Landkreis"},"federalState":{"key":"03","name":"Niedersachsen"}},{"name":"Hänflingweg","postalCode":"26655","locality":"Westerstede","municipality":{"key":"03451007","name":"Westerstede, Stadt","type":"Stadt"},"district":{"key":"03451","name":"Ammerland","type":"Landkreis"},"federalState":{"key":"03","name":"Niedersachsen"}},{"name":"Hansacker","postalCode":"26655","locality":"Westerstede","municipality":{"key":"03451007","name":"Westerstede, Stadt","type":"Stadt"},"district":{"key":"03451","name":"Ammerland","type":"Landkreis"},"federalState":{"key":"03","name":"Niedersachsen"}},{"name":"Hans-Oetken-Padd","postalCode":"26655","locality":"Westerstede","municipality":{"key":"03451007","name":"Westerstede, Stadt","type":"Stadt"},"district":{"key":"03451","name":"Ammerland","type":"Landkreis"},"federalState":{"key":"03","name":"Niedersachsen"}},{"name":"Hans-Sander-Str.","postalCode":"26655","locality":"Westerstede","municipality":{"key":"03451007","name":"Westerstede, Stadt","type":"Stadt"},"district":{"key":"03451","name":"Ammerland","type":"Landkreis"},"federalState":{"key":"03","name":"Niedersachsen"}},{"name":"Hans-Scholl-Str.","postalCode":"26655","locality":"Westerstede","municipality":{"key":"03451007","name":"Westerstede, Stadt","type":"Stadt"},"district":{"key":"03451","name":"Ammerland","type":"Landkreis"},"federalState":{"key":"03","name":"Niedersachsen"}},{"name":"Hasbrink","postalCode":"26655","locality":"Westerstede","municipality":{"key":"03451007","name":"Westerstede, Stadt","type":"Stadt"},"district":{"key":"03451","name":"Ammerland","type":"Landkreis"},"federalState":{"key":"03","name":"Niedersachsen"}},{"name":"Hasenweg","postalCode":"26655","locality":"Westerstede","municipality":{"key":"03451007","name":"Westerstede, Stadt","type":"Stadt"},"district":{"key":"03451","name":"Ammerland","type":"Landkreis"},"federalState":{"key":"03","name":"Niedersachsen"}},{"name":"Hauptstr.","postalCode":"26655","locality":"Westerstede","municipality":{"key":"03451007","name":"Westerstede, Stadt","type":"Stadt"},"district":{"key":"03451","name":"Ammerland","type":"Landkreis"},"federalState":{"key":"03","name":"Niedersachsen"}},{"name":"Hausmannstr.","postalCode":"26655","locality":"Westerstede","municipality":{"key":"03451007","name":"Westerstede, Stadt","type":"Stadt"},"district":{"key":"03451","name":"Ammerland","type":"Landkreis"},"federalState":{"key":"03","name":"Niedersachsen"}},{"name":"Heidelbeerstr.","postalCode":"26655","locality":"Westerstede","municipality":{"key":"03451007","name":"Westerstede, Stadt","type":"Stadt"},"district":{"key":"03451","name":"Ammerland","type":"Landkreis"},"federalState":{"key":"03","name":"Niedersachsen"}},{"name":"Heideweg","postalCode":"26655","locality":"Westerstede","municipality":{"key":"03451007","name":"Westerstede, Stadt","type":"Stadt"},"district":{"key":"03451","name":"Ammerland","type":"Landkreis"},"federalState":{"key":"03","name":"Niedersachsen"}},{"name":"Heidkampsweg","postalCode":"26655","locality":"Westerstede","municipality":{"key":"03451007","name":"Westerstede, Stadt","type":"Stadt"},"district":{"key":"03451","name":"Ammerland","type":"Landkreis"},"federalState":{"key":"03","name":"Niedersachsen"}},{"name":"Heinrich-Borgmann-Str.","postalCode":"26655","locality":"Westerstede","municipality":{"key":"03451007","name":"Westerstede, Stadt","type":"Stadt"},"district":{"key":"03451","name":"Ammerland","type":"Landkreis"},"federalState":{"key":"03","name":"Niedersachsen"}},{"name":"Heinrich-Siede-Str.","postalCode":"26655","locality":"Westerstede","municipality":{"key":"03451007","name":"Westerstede, Stadt","type":"Stadt"},"district":{"key":"03451","name":"Ammerland","type":"Landkreis"},"federalState":{"key":"03","name":"Niedersachsen"}},{"name":"Heinz-Böhnke-Str.","postalCode":"26655","locality":"Westerstede","municipality":{"key":"03451007","name":"Westerstede, Stadt","type":"Stadt"},"district":{"key":"03451","name":"Ammerland","type":"Landkreis"},"federalState":{"key":"03","name":"Niedersachsen"}},{"name":"Henkenstr.","postalCode":"26655","locality":"Westerstede","municipality":{"key":"03451007","name":"Westerstede, Stadt","type":"Stadt"},"district":{"key":"03451","name":"Ammerland","type":"Landkreis"},"federalState":{"key":"03","name":"Niedersachsen"}},{"name":"Hermann-Löns-Str.","postalCode":"26655","locality":"Westerstede","municipality":{"key":"03451007","name":"Westerstede, Stadt","type":"Stadt"},"district":{"key":"03451","name":"Ammerland","type":"Landkreis"},"federalState":{"key":"03","name":"Niedersachsen"}},{"name":"Hermannsplatz","postalCode":"26655","locality":"Westerstede","municipality":{"key":"03451007","name":"Westerstede, Stadt","type":"Stadt"},"district":{"key":"03451","name":"Ammerland","type":"Landkreis"},"federalState":{"key":"03","name":"Niedersachsen"}},{"name":"Hermelinstr.","postalCode":"26655","locality":"Westerstede","municipality":{"key":"03451007","name":"Westerstede, Stadt","type":"Stadt"},"district":{"key":"03451","name":"Ammerland","type":"Landkreis"},"federalState":{"key":"03","name":"Niedersachsen"}},{"name":"Hinterm Berg","postalCode":"26655","locality":"Westerstede","municipality":{"key":"03451007","name":"Westerstede, Stadt","type":"Stadt"},"district":{"key":"03451","name":"Ammerland","type":"Landkreis"},"federalState":{"key":"03","name":"Niedersachsen"}},{"name":"Hisjeweg","postalCode":"26655","locality":"Westerstede","municipality":{"key":"03451007","name":"Westerstede, Stadt","type":"Stadt"},"district":{"key":"03451","name":"Ammerland","type":"Landkreis"},"federalState":{"key":"03","name":"Niedersachsen"}},{"name":"Hochkamp","postalCode":"26655","locality":"Westerstede","municipality":{"key":"03451007","name":"Westerstede, Stadt","type":"Stadt"},"district":{"key":"03451","name":"Ammerland","type":"Landkreis"},"federalState":{"key":"03","name":"Niedersachsen"}},{"name":"Hochtanger Weg","postalCode":"26655","locality":"Westerstede","municipality":{"key":"03451007","name":"Westerstede, Stadt","type":"Stadt"},"district":{"key":"03451","name":"Ammerland","type":"Landkreis"},"federalState":{"key":"03","name":"Niedersachsen"}},{"name":"Hofstr.","postalCode":"26655","locality":"Westerstede","municipality":{"key":"03451007","name":"Westerstede, Stadt","type":"Stadt"},"district":{"key":"03451","name":"Ammerland","type":"Landkreis"},"federalState":{"key":"03","name":"Niedersachsen"}},{"name":"Hohenmoorweg","postalCode":"26655","locality":"Westerstede","municipality":{"key":"03451007","name":"Westerstede, Stadt","type":"Stadt"},"district":{"key":"03451","name":"Ammerland","type":"Landkreis"},"federalState":{"key":"03","name":"Niedersachsen"}},{"name":"Hoher Weg","postalCode":"26655","locality":"Westerstede","municipality":{"key":"03451007","name":"Westerstede, Stadt","type":"Stadt"},"district":{"key":"03451","name":"Ammerland","type":"Landkreis"},"federalState":{"key":"03","name":"Niedersachsen"}},{"name":"Hollrieder Str.","postalCode":"26655","locality":"Westerstede","municipality":{"key":"03451007","name":"Westerstede, Stadt","type":"Stadt"},"district":{"key":"03451","name":"Ammerland","type":"Landkreis"},"federalState":{"key":"03","name":"Niedersachsen"}},{"name":"Hollwegerfelder Str.","postalCode":"26655","locality":"Westerstede","municipality":{"key":"03451007","name":"Westerstede, Stadt","type":"Stadt"},"district":{"key":"03451","name":"Ammerland","type":"Landkreis"},"federalState":{"key":"03","name":"Niedersachsen"}},{"name":"Holtkampsweg","postalCode":"26655","locality":"Westerstede","municipality":{"key":"03451007","name":"Westerstede, Stadt","type":"Stadt"},"district":{"key":"03451","name":"Ammerland","type":"Landkreis"},"federalState":{"key":"03","name":"Niedersachsen"}},{"name":"Holunderweg","postalCode":"26655","locality":"Westerstede","municipality":{"key":"03451007","name":"Westerstede, Stadt","type":"Stadt"},"district":{"key":"03451","name":"Ammerland","type":"Landkreis"},"federalState":{"key":"03","name":"Niedersachsen"}},{"name":"Hornsweg","postalCode":"26655","locality":"Westerstede","municipality":{"key":"03451007","name":"Westerstede, Stadt","type":"Stadt"},"district":{"key":"03451","name":"Ammerland","type":"Landkreis"},"federalState":{"key":"03","name":"Niedersachsen"}},{"name":"Hössenweg","postalCode":"26655","locality":"Westerstede","municipality":{"key":"03451007","name":"Westerstede, Stadt","type":"Stadt"},"district":{"key":"03451","name":"Ammerland","type":"Landkreis"},"federalState":{"key":"03","name":"Niedersachsen"}},{"name":"Howieker Flach","postalCode":"26655","locality":"Westerstede","municipality":{"key":"03451007","name":"Westerstede, Stadt","type":"Stadt"},"district":{"key":"03451","name":"Ammerland","type":"Landkreis"},"federalState":{"key":"03","name":"Niedersachsen"}},{"name":"Howieker Kamp","postalCode":"26655","locality":"Westerstede","municipality":{"key":"03451007","name":"Westerstede, Stadt","type":"Stadt"},"district":{"key":"03451","name":"Ammerland","type":"Landkreis"},"federalState":{"key":"03","name":"Niedersachsen"}},{"name":"Howieker Ring","postalCode":"26655","locality":"Westerstede","municipality":{"key":"03451007","name":"Westerstede, Stadt","type":"Stadt"},"district":{"key":"03451","name":"Ammerland","type":"Landkreis"},"federalState":{"key":"03","name":"Niedersachsen"}},{"name":"Howieker Str.","postalCode":"26655","locality":"Westerstede","municipality":{"key":"03451007","name":"Westerstede, Stadt","type":"Stadt"},"district":{"key":"03451","name":"Ammerland","type":"Landkreis"},"federalState":{"key":"03","name":"Niedersachsen"}},{"name":"Howieker Wall","postalCode":"26655","locality":"Westerstede","municipality":{"key":"03451007","name":"Westerstede, Stadt","type":"Stadt"},"district":{"key":"03451","name":"Ammerland","type":"Landkreis"},"federalState":{"key":"03","name":"Niedersachsen"}},{"name":"Hüls","postalCode":"26655","locality":"Westerstede","municipality":{"key":"03451007","name":"Westerstede, Stadt","type":"Stadt"},"district":{"key":"03451","name":"Ammerland","type":"Landkreis"},"federalState":{"key":"03","name":"Niedersachsen"}},{"name":"Humboldtstr.","postalCode":"26655","locality":"Westerstede","municipality":{"key":"03451007","name":"Westerstede, Stadt","type":"Stadt"},"district":{"key":"03451","name":"Ammerland","type":"Landkreis"},"federalState":{"key":"03","name":"Niedersachsen"}},{"name":"Igelstr.","postalCode":"26655","locality":"Westerstede","municipality":{"key":"03451007","name":"Westerstede, Stadt","type":"Stadt"},"district":{"key":"03451","name":"Ammerland","type":"Landkreis"},"federalState":{"key":"03","name":"Niedersachsen"}},{"name":"Ihausener Str.","postalCode":"26655","locality":"Westerstede","municipality":{"key":"03451007","name":"Westerstede, Stadt","type":"Stadt"},"district":{"key":"03451","name":"Ammerland","type":"Landkreis"},"federalState":{"key":"03","name":"Niedersachsen"}},{"name":"Ihauser Damm","postalCode":"26655","locality":"Westerstede","municipality":{"key":"03451007","name":"Westerstede, Stadt","type":"Stadt"},"district":{"key":"03451","name":"Ammerland","type":"Landkreis"},"federalState":{"key":"03","name":"Niedersachsen"}},{"name":"Iltisstr.","postalCode":"26655","locality":"Westerstede","municipality":{"key":"03451007","name":"Westerstede, Stadt","type":"Stadt"},"district":{"key":"03451","name":"Ammerland","type":"Landkreis"},"federalState":{"key":"03","name":"Niedersachsen"}},{"name":"Imkerstr.","postalCode":"26655","locality":"Westerstede","municipality":{"key":"03451007","name":"Westerstede, Stadt","type":"Stadt"},"district":{"key":"03451","name":"Ammerland","type":"Landkreis"},"federalState":{"key":"03","name":"Niedersachsen"}},{"name":"In der Baumschule","postalCode":"26655","locality":"Westerstede","municipality":{"key":"03451007","name":"Westerstede, Stadt","type":"Stadt"},"district":{"key":"03451","name":"Ammerland","type":"Landkreis"},"federalState":{"key":"03","name":"Niedersachsen"}},{"name":"In der Loge","postalCode":"26655","locality":"Westerstede","municipality":{"key":"03451007","name":"Westerstede, Stadt","type":"Stadt"},"district":{"key":"03451","name":"Ammerland","type":"Landkreis"},"federalState":{"key":"03","name":"Niedersachsen"}},{"name":"Industriestr.","postalCode":"26655","locality":"Westerstede","municipality":{"key":"03451007","name":"Westerstede, Stadt","type":"Stadt"},"district":{"key":"03451","name":"Ammerland","type":"Landkreis"},"federalState":{"key":"03","name":"Niedersachsen"}},{"name":"Jägerskamp","postalCode":"26655","locality":"Westerstede","municipality":{"key":"03451007","name":"Westerstede, Stadt","type":"Stadt"},"district":{"key":"03451","name":"Ammerland","type":"Landkreis"},"federalState":{"key":"03","name":"Niedersachsen"}},{"name":"Jahnallee","postalCode":"26655","locality":"Westerstede","municipality":{"key":"03451007","name":"Westerstede, Stadt","type":"Stadt"},"district":{"key":"03451","name":"Ammerland","type":"Landkreis"},"federalState":{"key":"03","name":"Niedersachsen"}},{"name":"Jasperskamp","postalCode":"26655","locality":"Westerstede","municipality":{"key":"03451007","name":"Westerstede, Stadt","type":"Stadt"},"district":{"key":"03451","name":"Ammerland","type":"Landkreis"},"federalState":{"key":"03","name":"Niedersachsen"}},{"name":"Johanna-Kirchner-Str.","postalCode":"26655","locality":"Westerstede","municipality":{"key":"03451007","name":"Westerstede, Stadt","type":"Stadt"},"district":{"key":"03451","name":"Ammerland","type":"Landkreis"},"federalState":{"key":"03","name":"Niedersachsen"}},{"name":"Johann-Wieting-Weg","postalCode":"26655","locality":"Westerstede","municipality":{"key":"03451007","name":"Westerstede, Stadt","type":"Stadt"},"district":{"key":"03451","name":"Ammerland","type":"Landkreis"},"federalState":{"key":"03","name":"Niedersachsen"}},{"name":"Jührdener Str.","postalCode":"26655","locality":"Westerstede","municipality":{"key":"03451007","name":"Westerstede, Stadt","type":"Stadt"},"district":{"key":"03451","name":"Ammerland","type":"Landkreis"},"federalState":{"key":"03","name":"Niedersachsen"}},{"name":"Kampstr.","postalCode":"26655","locality":"Westerstede","municipality":{"key":"03451007","name":"Westerstede, Stadt","type":"Stadt"},"district":{"key":"03451","name":"Ammerland","type":"Landkreis"},"federalState":{"key":"03","name":"Niedersachsen"}},{"name":"Kanalstr.","postalCode":"26655","locality":"Westerstede","municipality":{"key":"03451007","name":"Westerstede, Stadt","type":"Stadt"},"district":{"key":"03451","name":"Ammerland","type":"Landkreis"},"federalState":{"key":"03","name":"Niedersachsen"}},{"name":"Kantstr.","postalCode":"26655","locality":"Westerstede","municipality":{"key":"03451007","name":"Westerstede, Stadt","type":"Stadt"},"district":{"key":"03451","name":"Ammerland","type":"Landkreis"},"federalState":{"key":"03","name":"Niedersachsen"}},{"name":"Karkhorner Str.","postalCode":"26655","locality":"Westerstede","municipality":{"key":"03451007","name":"Westerstede, Stadt","type":"Stadt"},"district":{"key":"03451","name":"Ammerland","type":"Landkreis"},"federalState":{"key":"03","name":"Niedersachsen"}},{"name":"Karl-Heinz-Ewert-Str.","postalCode":"26655","locality":"Westerstede","municipality":{"key":"03451007","name":"Westerstede, Stadt","type":"Stadt"},"district":{"key":"03451","name":"Ammerland","type":"Landkreis"},"federalState":{"key":"03","name":"Niedersachsen"}},{"name":"Karl-Jaspers-Str.","postalCode":"26655","locality":"Westerstede","municipality":{"key":"03451007","name":"Westerstede, Stadt","type":"Stadt"},"district":{"key":"03451","name":"Ammerland","type":"Landkreis"},"federalState":{"key":"03","name":"Niedersachsen"}},{"name":"Karlshofer Str.","postalCode":"26655","locality":"Westerstede","municipality":{"key":"03451007","name":"Westerstede, Stadt","type":"Stadt"},"district":{"key":"03451","name":"Ammerland","type":"Landkreis"},"federalState":{"key":"03","name":"Niedersachsen"}},{"name":"Kastanienstr.","postalCode":"26655","locality":"Westerstede","municipality":{"key":"03451007","name":"Westerstede, Stadt","type":"Stadt"},"district":{"key":"03451","name":"Ammerland","type":"Landkreis"},"federalState":{"key":"03","name":"Niedersachsen"}},{"name":"Käthe-Kollwitz-Str.","postalCode":"26655","locality":"Westerstede","municipality":{"key":"03451007","name":"Westerstede, Stadt","type":"Stadt"},"district":{"key":"03451","name":"Ammerland","type":"Landkreis"},"federalState":{"key":"03","name":"Niedersachsen"}},{"name":"Kattekerpadd","postalCode":"26655","locality":"Westerstede","municipality":{"key":"03451007","name":"Westerstede, Stadt","type":"Stadt"},"district":{"key":"03451","name":"Ammerland","type":"Landkreis"},"federalState":{"key":"03","name":"Niedersachsen"}},{"name":"Kiefernstr.","postalCode":"26655","locality":"Westerstede","municipality":{"key":"03451007","name":"Westerstede, Stadt","type":"Stadt"},"district":{"key":"03451","name":"Ammerland","type":"Landkreis"},"federalState":{"key":"03","name":"Niedersachsen"}},{"name":"Kirchenstr.","postalCode":"26655","locality":"Westerstede","municipality":{"key":"03451007","name":"Westerstede, Stadt","type":"Stadt"},"district":{"key":"03451","name":"Ammerland","type":"Landkreis"},"federalState":{"key":"03","name":"Niedersachsen"}},{"name":"Kirchweg","postalCode":"26655","locality":"Westerstede","municipality":{"key":"03451007","name":"Westerstede, Stadt","type":"Stadt"},"district":{"key":"03451","name":"Ammerland","type":"Landkreis"},"federalState":{"key":"03","name":"Niedersachsen"}},{"name":"Kleinburgforder Str.","postalCode":"26655","locality":"Westerstede","municipality":{"key":"03451007","name":"Westerstede, Stadt","type":"Stadt"},"district":{"key":"03451","name":"Ammerland","type":"Landkreis"},"federalState":{"key":"03","name":"Niedersachsen"}},{"name":"Klein Helmsdorfer Weg","postalCode":"26655","locality":"Westerstede","municipality":{"key":"03451007","name":"Westerstede, Stadt","type":"Stadt"},"district":{"key":"03451","name":"Ammerland","type":"Landkreis"},"federalState":{"key":"03","name":"Niedersachsen"}},{"name":"Köhlmoorweg","postalCode":"26655","locality":"Westerstede","municipality":{"key":"03451007","name":"Westerstede, Stadt","type":"Stadt"},"district":{"key":"03451","name":"Ammerland","type":"Landkreis"},"federalState":{"key":"03","name":"Niedersachsen"}},{"name":"Kolberger Str.","postalCode":"26655","locality":"Westerstede","municipality":{"key":"03451007","name":"Westerstede, Stadt","type":"Stadt"},"district":{"key":"03451","name":"Ammerland","type":"Landkreis"},"federalState":{"key":"03","name":"Niedersachsen"}},{"name":"Königsberger Str.","postalCode":"26655","locality":"Westerstede","municipality":{"key":"03451007","name":"Westerstede, Stadt","type":"Stadt"},"district":{"key":"03451","name":"Ammerland","type":"Landkreis"},"federalState":{"key":"03","name":"Niedersachsen"}},{"name":"Königstr.","postalCode":"26655","locality":"Westerstede","municipality":{"key":"03451007","name":"Westerstede, Stadt","type":"Stadt"},"district":{"key":"03451","name":"Ammerland","type":"Landkreis"},"federalState":{"key":"03","name":"Niedersachsen"}},{"name":"Kornblumenweg","postalCode":"26655","locality":"Westerstede","municipality":{"key":"03451007","name":"Westerstede, Stadt","type":"Stadt"},"district":{"key":"03451","name":"Ammerland","type":"Landkreis"},"federalState":{"key":"03","name":"Niedersachsen"}},{"name":"Kornstr.","postalCode":"26655","locality":"Westerstede","municipality":{"key":"03451007","name":"Westerstede, Stadt","type":"Stadt"},"district":{"key":"03451","name":"Ammerland","type":"Landkreis"},"federalState":{"key":"03","name":"Niedersachsen"}},{"name":"Kösliner Str.","postalCode":"26655","locality":"Westerstede","municipality":{"key":"03451007","name":"Westerstede, Stadt","type":"Stadt"},"district":{"key":"03451","name":"Ammerland","type":"Landkreis"},"federalState":{"key":"03","name":"Niedersachsen"}},{"name":"Köterhörn","postalCode":"26655","locality":"Westerstede","municipality":{"key":"03451007","name":"Westerstede, Stadt","type":"Stadt"},"district":{"key":"03451","name":"Ammerland","type":"Landkreis"},"federalState":{"key":"03","name":"Niedersachsen"}},{"name":"Kramerei","postalCode":"26655","locality":"Westerstede","municipality":{"key":"03451007","name":"Westerstede, Stadt","type":"Stadt"},"district":{"key":"03451","name":"Ammerland","type":"Landkreis"},"federalState":{"key":"03","name":"Niedersachsen"}},{"name":"Krügerskamp","postalCode":"26655","locality":"Westerstede","municipality":{"key":"03451007","name":"Westerstede, Stadt","type":"Stadt"},"district":{"key":"03451","name":"Ammerland","type":"Landkreis"},"federalState":{"key":"03","name":"Niedersachsen"}},{"name":"Kuhlenstr.","postalCode":"26655","locality":"Westerstede","municipality":{"key":"03451007","name":"Westerstede, Stadt","type":"Stadt"},"district":{"key":"03451","name":"Ammerland","type":"Landkreis"},"federalState":{"key":"03","name":"Niedersachsen"}},{"name":"Langebrügger Str.","postalCode":"26655","locality":"Westerstede","municipality":{"key":"03451007","name":"Westerstede, Stadt","type":"Stadt"},"district":{"key":"03451","name":"Ammerland","type":"Landkreis"},"federalState":{"key":"03","name":"Niedersachsen"}},{"name":"Lange Riehe","postalCode":"26655","locality":"Westerstede","municipality":{"key":"03451007","name":"Westerstede, Stadt","type":"Stadt"},"district":{"key":"03451","name":"Ammerland","type":"Landkreis"},"federalState":{"key":"03","name":"Niedersachsen"}},{"name":"Langer Weg","postalCode":"26655","locality":"Westerstede","municipality":{"key":"03451007","name":"Westerstede, Stadt","type":"Stadt"},"district":{"key":"03451","name":"Ammerland","type":"Landkreis"},"federalState":{"key":"03","name":"Niedersachsen"}},{"name":"Lange Str.","postalCode":"26655","locality":"Westerstede","municipality":{"key":"03451007","name":"Westerstede, Stadt","type":"Stadt"},"district":{"key":"03451","name":"Ammerland","type":"Landkreis"},"federalState":{"key":"03","name":"Niedersachsen"}},{"name":"Lange Wischen","postalCode":"26655","locality":"Westerstede","municipality":{"key":"03451007","name":"Westerstede, Stadt","type":"Stadt"},"district":{"key":"03451","name":"Ammerland","type":"Landkreis"},"federalState":{"key":"03","name":"Niedersachsen"}},{"name":"Lanje Padd","postalCode":"26655","locality":"Westerstede","municipality":{"key":"03451007","name":"Westerstede, Stadt","type":"Stadt"},"district":{"key":"03451","name":"Ammerland","type":"Landkreis"},"federalState":{"key":"03","name":"Niedersachsen"}},{"name":"Leerer Str.","postalCode":"26655","locality":"Westerstede","municipality":{"key":"03451007","name":"Westerstede, Stadt","type":"Stadt"},"district":{"key":"03451","name":"Ammerland","type":"Landkreis"},"federalState":{"key":"03","name":"Niedersachsen"}},{"name":"Lehmkuhlenweg","postalCode":"26655","locality":"Westerstede","municipality":{"key":"03451007","name":"Westerstede, Stadt","type":"Stadt"},"district":{"key":"03451","name":"Ammerland","type":"Landkreis"},"federalState":{"key":"03","name":"Niedersachsen"}},{"name":"Leibnizstr.","postalCode":"26655","locality":"Westerstede","municipality":{"key":"03451007","name":"Westerstede, Stadt","type":"Stadt"},"district":{"key":"03451","name":"Ammerland","type":"Landkreis"},"federalState":{"key":"03","name":"Niedersachsen"}},{"name":"Lessingstr.","postalCode":"26655","locality":"Westerstede","municipality":{"key":"03451007","name":"Westerstede, Stadt","type":"Stadt"},"district":{"key":"03451","name":"Ammerland","type":"Landkreis"},"federalState":{"key":"03","name":"Niedersachsen"}},{"name":"Liebfrauenstr.","postalCode":"26655","locality":"Westerstede","municipality":{"key":"03451007","name":"Westerstede, Stadt","type":"Stadt"},"district":{"key":"03451","name":"Ammerland","type":"Landkreis"},"federalState":{"key":"03","name":"Niedersachsen"}},{"name":"Lilienweg","postalCode":"26655","locality":"Westerstede","municipality":{"key":"03451007","name":"Westerstede, Stadt","type":"Stadt"},"district":{"key":"03451","name":"Ammerland","type":"Landkreis"},"federalState":{"key":"03","name":"Niedersachsen"}},{"name":"Lina-Mineur-Str.","postalCode":"26655","locality":"Westerstede","municipality":{"key":"03451007","name":"Westerstede, Stadt","type":"Stadt"},"district":{"key":"03451","name":"Ammerland","type":"Landkreis"},"federalState":{"key":"03","name":"Niedersachsen"}},{"name":"Lindenallee","postalCode":"26655","locality":"Westerstede","municipality":{"key":"03451007","name":"Westerstede, Stadt","type":"Stadt"},"district":{"key":"03451","name":"Ammerland","type":"Landkreis"},"federalState":{"key":"03","name":"Niedersachsen"}},{"name":"Lindenstr.","postalCode":"26655","locality":"Westerstede","municipality":{"key":"03451007","name":"Westerstede, Stadt","type":"Stadt"},"district":{"key":"03451","name":"Ammerland","type":"Landkreis"},"federalState":{"key":"03","name":"Niedersachsen"}},{"name":"Linderner Damm","postalCode":"26655","locality":"Westerstede","municipality":{"key":"03451007","name":"Westerstede, Stadt","type":"Stadt"},"district":{"key":"03451","name":"Ammerland","type":"Landkreis"},"federalState":{"key":"03","name":"Niedersachsen"}},{"name":"Linderner Feldstr.","postalCode":"26655","locality":"Westerstede","municipality":{"key":"03451007","name":"Westerstede, Stadt","type":"Stadt"},"district":{"key":"03451","name":"Ammerland","type":"Landkreis"},"federalState":{"key":"03","name":"Niedersachsen"}},{"name":"Linsweger Esch","postalCode":"26655","locality":"Westerstede","municipality":{"key":"03451007","name":"Westerstede, Stadt","type":"Stadt"},"district":{"key":"03451","name":"Ammerland","type":"Landkreis"},"federalState":{"key":"03","name":"Niedersachsen"}},{"name":"Lübbersdamm","postalCode":"26655","locality":"Westerstede","municipality":{"key":"03451007","name":"Westerstede, Stadt","type":"Stadt"},"district":{"key":"03451","name":"Ammerland","type":"Landkreis"},"federalState":{"key":"03","name":"Niedersachsen"}},{"name":"Lubinusweg","postalCode":"26655","locality":"Westerstede","municipality":{"key":"03451007","name":"Westerstede, Stadt","type":"Stadt"},"district":{"key":"03451","name":"Ammerland","type":"Landkreis"},"federalState":{"key":"03","name":"Niedersachsen"}},{"name":"Lupinenweg","postalCode":"26655","locality":"Westerstede","municipality":{"key":"03451007","name":"Westerstede, Stadt","type":"Stadt"},"district":{"key":"03451","name":"Ammerland","type":"Landkreis"},"federalState":{"key":"03","name":"Niedersachsen"}},{"name":"Lüttje-Heinz-Padd","postalCode":"26655","locality":"Westerstede","municipality":{"key":"03451007","name":"Westerstede, Stadt","type":"Stadt"},"district":{"key":"03451","name":"Ammerland","type":"Landkreis"},"federalState":{"key":"03","name":"Niedersachsen"}},{"name":"Lüttje Moorpadd","postalCode":"26655","locality":"Westerstede","municipality":{"key":"03451007","name":"Westerstede, Stadt","type":"Stadt"},"district":{"key":"03451","name":"Ammerland","type":"Landkreis"},"federalState":{"key":"03","name":"Niedersachsen"}},{"name":"Maiglöckchenweg","postalCode":"26655","locality":"Westerstede","municipality":{"key":"03451007","name":"Westerstede, Stadt","type":"Stadt"},"district":{"key":"03451","name":"Ammerland","type":"Landkreis"},"federalState":{"key":"03","name":"Niedersachsen"}},{"name":"Marderstr.","postalCode":"26655","locality":"Westerstede","municipality":{"key":"03451007","name":"Westerstede, Stadt","type":"Stadt"},"district":{"key":"03451","name":"Ammerland","type":"Landkreis"},"federalState":{"key":"03","name":"Niedersachsen"}},{"name":"Marderweg","postalCode":"26655","locality":"Westerstede","municipality":{"key":"03451007","name":"Westerstede, Stadt","type":"Stadt"},"district":{"key":"03451","name":"Ammerland","type":"Landkreis"},"federalState":{"key":"03","name":"Niedersachsen"}},{"name":"Margeritenweg","postalCode":"26655","locality":"Westerstede","municipality":{"key":"03451007","name":"Westerstede, Stadt","type":"Stadt"},"district":{"key":"03451","name":"Ammerland","type":"Landkreis"},"federalState":{"key":"03","name":"Niedersachsen"}},{"name":"Marianne-Scheelken-Str.","postalCode":"26655","locality":"Westerstede","municipality":{"key":"03451007","name":"Westerstede, Stadt","type":"Stadt"},"district":{"key":"03451","name":"Ammerland","type":"Landkreis"},"federalState":{"key":"03","name":"Niedersachsen"}},{"name":"Marienstr.","postalCode":"26655","locality":"Westerstede","municipality":{"key":"03451007","name":"Westerstede, Stadt","type":"Stadt"},"district":{"key":"03451","name":"Ammerland","type":"Landkreis"},"federalState":{"key":"03","name":"Niedersachsen"}},{"name":"Martens Highway","postalCode":"26655","locality":"Westerstede","municipality":{"key":"03451007","name":"Westerstede, Stadt","type":"Stadt"},"district":{"key":"03451","name":"Ammerland","type":"Landkreis"},"federalState":{"key":"03","name":"Niedersachsen"}},{"name":"Martenspadd","postalCode":"26655","locality":"Westerstede","municipality":{"key":"03451007","name":"Westerstede, Stadt","type":"Stadt"},"district":{"key":"03451","name":"Ammerland","type":"Landkreis"},"federalState":{"key":"03","name":"Niedersachsen"}},{"name":"Max-Eyth-Str.","postalCode":"26655","locality":"Westerstede","municipality":{"key":"03451007","name":"Westerstede, Stadt","type":"Stadt"},"district":{"key":"03451","name":"Ammerland","type":"Landkreis"},"federalState":{"key":"03","name":"Niedersachsen"}},{"name":"Mayerskamp","postalCode":"26655","locality":"Westerstede","municipality":{"key":"03451007","name":"Westerstede, Stadt","type":"Stadt"},"district":{"key":"03451","name":"Ammerland","type":"Landkreis"},"federalState":{"key":"03","name":"Niedersachsen"}},{"name":"Meinardusstr.","postalCode":"26655","locality":"Westerstede","municipality":{"key":"03451007","name":"Westerstede, Stadt","type":"Stadt"},"district":{"key":"03451","name":"Ammerland","type":"Landkreis"},"federalState":{"key":"03","name":"Niedersachsen"}},{"name":"Meisenweg","postalCode":"26655","locality":"Westerstede","municipality":{"key":"03451007","name":"Westerstede, Stadt","type":"Stadt"},"district":{"key":"03451","name":"Ammerland","type":"Landkreis"},"federalState":{"key":"03","name":"Niedersachsen"}},{"name":"Mendelstr.","postalCode":"26655","locality":"Westerstede","municipality":{"key":"03451007","name":"Westerstede, Stadt","type":"Stadt"},"district":{"key":"03451","name":"Ammerland","type":"Landkreis"},"federalState":{"key":"03","name":"Niedersachsen"}},{"name":"Minna-Hemken-Str.","postalCode":"26655","locality":"Westerstede","municipality":{"key":"03451007","name":"Westerstede, Stadt","type":"Stadt"},"district":{"key":"03451","name":"Ammerland","type":"Landkreis"},"federalState":{"key":"03","name":"Niedersachsen"}},{"name":"Mittelstr.","postalCode":"26655","locality":"Westerstede","municipality":{"key":"03451007","name":"Westerstede, Stadt","type":"Stadt"},"district":{"key":"03451","name":"Ammerland","type":"Landkreis"},"federalState":{"key":"03","name":"Niedersachsen"}},{"name":"Mittelstroth","postalCode":"26655","locality":"Westerstede","municipality":{"key":"03451007","name":"Westerstede, Stadt","type":"Stadt"},"district":{"key":"03451","name":"Ammerland","type":"Landkreis"},"federalState":{"key":"03","name":"Niedersachsen"}},{"name":"Möhlenkamp","postalCode":"26655","locality":"Westerstede","municipality":{"key":"03451007","name":"Westerstede, Stadt","type":"Stadt"},"district":{"key":"03451","name":"Ammerland","type":"Landkreis"},"federalState":{"key":"03","name":"Niedersachsen"}},{"name":"Möhlenpadd","postalCode":"26655","locality":"Westerstede","municipality":{"key":"03451007","name":"Westerstede, Stadt","type":"Stadt"},"district":{"key":"03451","name":"Ammerland","type":"Landkreis"},"federalState":{"key":"03","name":"Niedersachsen"}},{"name":"Molkereiweg","postalCode":"26655","locality":"Westerstede","municipality":{"key":"03451007","name":"Westerstede, Stadt","type":"Stadt"},"district":{"key":"03451","name":"Ammerland","type":"Landkreis"},"federalState":{"key":"03","name":"Niedersachsen"}},{"name":"Moorweg","postalCode":"26655","locality":"Westerstede","municipality":{"key":"03451007","name":"Westerstede, Stadt","type":"Stadt"},"district":{"key":"03451","name":"Ammerland","type":"Landkreis"},"federalState":{"key":"03","name":"Niedersachsen"}},{"name":"Moosbroksweg","postalCode":"26655","locality":"Westerstede","municipality":{"key":"03451007","name":"Westerstede, Stadt","type":"Stadt"},"district":{"key":"03451","name":"Ammerland","type":"Landkreis"},"federalState":{"key":"03","name":"Niedersachsen"}},{"name":"Mörikestr.","postalCode":"26655","locality":"Westerstede","municipality":{"key":"03451007","name":"Westerstede, Stadt","type":"Stadt"},"district":{"key":"03451","name":"Ammerland","type":"Landkreis"},"federalState":{"key":"03","name":"Niedersachsen"}},{"name":"Mozartstr.","postalCode":"26655","locality":"Westerstede","municipality":{"key":"03451007","name":"Westerstede, Stadt","type":"Stadt"},"district":{"key":"03451","name":"Ammerland","type":"Landkreis"},"federalState":{"key":"03","name":"Niedersachsen"}},{"name":"Mühlenbrink","postalCode":"26655","locality":"Westerstede","municipality":{"key":"03451007","name":"Westerstede, Stadt","type":"Stadt"},"district":{"key":"03451","name":"Ammerland","type":"Landkreis"},"federalState":{"key":"03","name":"Niedersachsen"}},{"name":"Mühlenstr.","postalCode":"26655","locality":"Westerstede","municipality":{"key":"03451007","name":"Westerstede, Stadt","type":"Stadt"},"district":{"key":"03451","name":"Ammerland","type":"Landkreis"},"federalState":{"key":"03","name":"Niedersachsen"}},{"name":"Nachtigallenweg","postalCode":"26655","locality":"Westerstede","municipality":{"key":"03451007","name":"Westerstede, Stadt","type":"Stadt"},"district":{"key":"03451","name":"Ammerland","type":"Landkreis"},"federalState":{"key":"03","name":"Niedersachsen"}},{"name":"Narzissenweg","postalCode":"26655","locality":"Westerstede","municipality":{"key":"03451007","name":"Westerstede, Stadt","type":"Stadt"},"district":{"key":"03451","name":"Ammerland","type":"Landkreis"},"federalState":{"key":"03","name":"Niedersachsen"}},{"name":"Nelkenweg","postalCode":"26655","locality":"Westerstede","municipality":{"key":"03451007","name":"Westerstede, Stadt","type":"Stadt"},"district":{"key":"03451","name":"Ammerland","type":"Landkreis"},"federalState":{"key":"03","name":"Niedersachsen"}},{"name":"Nestenweg","postalCode":"26655","locality":"Westerstede","municipality":{"key":"03451007","name":"Westerstede, Stadt","type":"Stadt"},"district":{"key":"03451","name":"Ammerland","type":"Landkreis"},"federalState":{"key":"03","name":"Niedersachsen"}},{"name":"Neuenburger Str.","postalCode":"26655","locality":"Westerstede","municipality":{"key":"03451007","name":"Westerstede, Stadt","type":"Stadt"},"district":{"key":"03451","name":"Ammerland","type":"Landkreis"},"federalState":{"key":"03","name":"Niedersachsen"}},{"name":"Neuengländer Ringstr.","postalCode":"26655","locality":"Westerstede","municipality":{"key":"03451007","name":"Westerstede, Stadt","type":"Stadt"},"district":{"key":"03451","name":"Ammerland","type":"Landkreis"},"federalState":{"key":"03","name":"Niedersachsen"}},{"name":"Neuengländer Str.","postalCode":"26655","locality":"Westerstede","municipality":{"key":"03451007","name":"Westerstede, Stadt","type":"Stadt"},"district":{"key":"03451","name":"Ammerland","type":"Landkreis"},"federalState":{"key":"03","name":"Niedersachsen"}},{"name":"Neuer Bahnweg","postalCode":"26655","locality":"Westerstede","municipality":{"key":"03451007","name":"Westerstede, Stadt","type":"Stadt"},"district":{"key":"03451","name":"Ammerland","type":"Landkreis"},"federalState":{"key":"03","name":"Niedersachsen"}},{"name":"Neue Siedlung","postalCode":"26655","locality":"Westerstede","municipality":{"key":"03451007","name":"Westerstede, Stadt","type":"Stadt"},"district":{"key":"03451","name":"Ammerland","type":"Landkreis"},"federalState":{"key":"03","name":"Niedersachsen"}},{"name":"Neue Str.","postalCode":"26655","locality":"Westerstede","municipality":{"key":"03451007","name":"Westerstede, Stadt","type":"Stadt"},"district":{"key":"03451","name":"Ammerland","type":"Landkreis"},"federalState":{"key":"03","name":"Niedersachsen"}},{"name":"Neukamp","postalCode":"26655","locality":"Westerstede","municipality":{"key":"03451007","name":"Westerstede, Stadt","type":"Stadt"},"district":{"key":"03451","name":"Ammerland","type":"Landkreis"},"federalState":{"key":"03","name":"Niedersachsen"}},{"name":"Neulanden","postalCode":"26655","locality":"Westerstede","municipality":{"key":"03451007","name":"Westerstede, Stadt","type":"Stadt"},"district":{"key":"03451","name":"Ammerland","type":"Landkreis"},"federalState":{"key":"03","name":"Niedersachsen"}},{"name":"Norderstr.","postalCode":"26655","locality":"Westerstede","municipality":{"key":"03451007","name":"Westerstede, Stadt","type":"Stadt"},"district":{"key":"03451","name":"Ammerland","type":"Landkreis"},"federalState":{"key":"03","name":"Niedersachsen"}},{"name":"Norderweg","postalCode":"26655","locality":"Westerstede","municipality":{"key":"03451007","name":"Westerstede, Stadt","type":"Stadt"},"district":{"key":"03451","name":"Ammerland","type":"Landkreis"},"federalState":{"key":"03","name":"Niedersachsen"}},{"name":"Ohrweger Str.","postalCode":"26655","locality":"Westerstede","municipality":{"key":"03451007","name":"Westerstede, Stadt","type":"Stadt"},"district":{"key":"03451","name":"Ammerland","type":"Landkreis"},"federalState":{"key":"03","name":"Niedersachsen"}},{"name":"Oldenburger Str.","postalCode":"26655","locality":"Westerstede","municipality":{"key":"03451007","name":"Westerstede, Stadt","type":"Stadt"},"district":{"key":"03451","name":"Ammerland","type":"Landkreis"},"federalState":{"key":"03","name":"Niedersachsen"}},{"name":"Ole Kamp","postalCode":"26655","locality":"Westerstede","municipality":{"key":"03451007","name":"Westerstede, Stadt","type":"Stadt"},"district":{"key":"03451","name":"Ammerland","type":"Landkreis"},"federalState":{"key":"03","name":"Niedersachsen"}},{"name":"Ollenflag","postalCode":"26655","locality":"Westerstede","municipality":{"key":"03451007","name":"Westerstede, Stadt","type":"Stadt"},"district":{"key":"03451","name":"Ammerland","type":"Landkreis"},"federalState":{"key":"03","name":"Niedersachsen"}},{"name":"Ollenharder Str.","postalCode":"26655","locality":"Westerstede","municipality":{"key":"03451007","name":"Westerstede, Stadt","type":"Stadt"},"district":{"key":"03451","name":"Ammerland","type":"Landkreis"},"federalState":{"key":"03","name":"Niedersachsen"}},{"name":"Omorikastr.","postalCode":"26655","locality":"Westerstede","municipality":{"key":"03451007","name":"Westerstede, Stadt","type":"Stadt"},"district":{"key":"03451","name":"Ammerland","type":"Landkreis"},"federalState":{"key":"03","name":"Niedersachsen"}},{"name":"Orchideenweg","postalCode":"26655","locality":"Westerstede","municipality":{"key":"03451007","name":"Westerstede, Stadt","type":"Stadt"},"district":{"key":"03451","name":"Ammerland","type":"Landkreis"},"federalState":{"key":"03","name":"Niedersachsen"}},{"name":"Osterende","postalCode":"26655","locality":"Westerstede","municipality":{"key":"03451007","name":"Westerstede, Stadt","type":"Stadt"},"district":{"key":"03451","name":"Ammerland","type":"Landkreis"},"federalState":{"key":"03","name":"Niedersachsen"}},{"name":"Osterfeld","postalCode":"26655","locality":"Westerstede","municipality":{"key":"03451007","name":"Westerstede, Stadt","type":"Stadt"},"district":{"key":"03451","name":"Ammerland","type":"Landkreis"},"federalState":{"key":"03","name":"Niedersachsen"}},{"name":"Osterkamp","postalCode":"26655","locality":"Westerstede","municipality":{"key":"03451007","name":"Westerstede, Stadt","type":"Stadt"},"district":{"key":"03451","name":"Ammerland","type":"Landkreis"},"federalState":{"key":"03","name":"Niedersachsen"}},{"name":"Ostermoorstr.","postalCode":"26655","locality":"Westerstede","municipality":{"key":"03451007","name":"Westerstede, Stadt","type":"Stadt"},"district":{"key":"03451","name":"Ammerland","type":"Landkreis"},"federalState":{"key":"03","name":"Niedersachsen"}},{"name":"Ostlandstr.","postalCode":"26655","locality":"Westerstede","municipality":{"key":"03451007","name":"Westerstede, Stadt","type":"Stadt"},"district":{"key":"03451","name":"Ammerland","type":"Landkreis"},"federalState":{"key":"03","name":"Niedersachsen"}},{"name":"Otto-Hahn-Str.","postalCode":"26655","locality":"Westerstede","municipality":{"key":"03451007","name":"Westerstede, Stadt","type":"Stadt"},"district":{"key":"03451","name":"Ammerland","type":"Landkreis"},"federalState":{"key":"03","name":"Niedersachsen"}},{"name":"Pappelstr.","postalCode":"26655","locality":"Westerstede","municipality":{"key":"03451007","name":"Westerstede, Stadt","type":"Stadt"},"district":{"key":"03451","name":"Ammerland","type":"Landkreis"},"federalState":{"key":"03","name":"Niedersachsen"}},{"name":"Park beim Dorfplatz Ocholt","postalCode":"26655","locality":"Westerstede","municipality":{"key":"03451007","name":"Westerstede, Stadt","type":"Stadt"},"district":{"key":"03451","name":"Ammerland","type":"Landkreis"},"federalState":{"key":"03","name":"Niedersachsen"}},{"name":"Pastorenpadd","postalCode":"26655","locality":"Westerstede","municipality":{"key":"03451007","name":"Westerstede, Stadt","type":"Stadt"},"district":{"key":"03451","name":"Ammerland","type":"Landkreis"},"federalState":{"key":"03","name":"Niedersachsen"}},{"name":"Peterstr.","postalCode":"26655","locality":"Westerstede","municipality":{"key":"03451007","name":"Westerstede, Stadt","type":"Stadt"},"district":{"key":"03451","name":"Ammerland","type":"Landkreis"},"federalState":{"key":"03","name":"Niedersachsen"}},{"name":"Plackenweg","postalCode":"26655","locality":"Westerstede","municipality":{"key":"03451007","name":"Westerstede, Stadt","type":"Stadt"},"district":{"key":"03451","name":"Ammerland","type":"Landkreis"},"federalState":{"key":"03","name":"Niedersachsen"}},{"name":"Poischwitzer Str.","postalCode":"26655","locality":"Westerstede","municipality":{"key":"03451007","name":"Westerstede, Stadt","type":"Stadt"},"district":{"key":"03451","name":"Ammerland","type":"Landkreis"},"federalState":{"key":"03","name":"Niedersachsen"}},{"name":"Portmanns Kamp","postalCode":"26655","locality":"Westerstede","municipality":{"key":"03451007","name":"Westerstede, Stadt","type":"Stadt"},"district":{"key":"03451","name":"Ammerland","type":"Landkreis"},"federalState":{"key":"03","name":"Niedersachsen"}},{"name":"Poststr.","postalCode":"26655","locality":"Westerstede","municipality":{"key":"03451007","name":"Westerstede, Stadt","type":"Stadt"},"district":{"key":"03451","name":"Ammerland","type":"Landkreis"},"federalState":{"key":"03","name":"Niedersachsen"}},{"name":"Primelweg","postalCode":"26655","locality":"Westerstede","municipality":{"key":"03451007","name":"Westerstede, Stadt","type":"Stadt"},"district":{"key":"03451","name":"Ammerland","type":"Landkreis"},"federalState":{"key":"03","name":"Niedersachsen"}},{"name":"Querweg","postalCode":"26655","locality":"Westerstede","municipality":{"key":"03451007","name":"Westerstede, Stadt","type":"Stadt"},"district":{"key":"03451","name":"Ammerland","type":"Landkreis"},"federalState":{"key":"03","name":"Niedersachsen"}},{"name":"Quittenweg","postalCode":"26655","locality":"Westerstede","municipality":{"key":"03451007","name":"Westerstede, Stadt","type":"Stadt"},"district":{"key":"03451","name":"Ammerland","type":"Landkreis"},"federalState":{"key":"03","name":"Niedersachsen"}},{"name":"Raschenstr.","postalCode":"26655","locality":"Westerstede","municipality":{"key":"03451007","name":"Westerstede, Stadt","type":"Stadt"},"district":{"key":"03451","name":"Ammerland","type":"Landkreis"},"federalState":{"key":"03","name":"Niedersachsen"}},{"name":"Rhadenweg","postalCode":"26655","locality":"Westerstede","municipality":{"key":"03451007","name":"Westerstede, Stadt","type":"Stadt"},"district":{"key":"03451","name":"Ammerland","type":"Landkreis"},"federalState":{"key":"03","name":"Niedersachsen"}},{"name":"Rhododendronstr.","postalCode":"26655","locality":"Westerstede","municipality":{"key":"03451007","name":"Westerstede, Stadt","type":"Stadt"},"district":{"key":"03451","name":"Ammerland","type":"Landkreis"},"federalState":{"key":"03","name":"Niedersachsen"}},{"name":"Rhodopark Hobbie","postalCode":"26655","locality":"Westerstede","municipality":{"key":"03451007","name":"Westerstede, Stadt","type":"Stadt"},"district":{"key":"03451","name":"Ammerland","type":"Landkreis"},"federalState":{"key":"03","name":"Niedersachsen"}},{"name":"Rienstr.","postalCode":"26655","locality":"Westerstede","municipality":{"key":"03451007","name":"Westerstede, Stadt","type":"Stadt"},"district":{"key":"03451","name":"Ammerland","type":"Landkreis"},"federalState":{"key":"03","name":"Niedersachsen"}},{"name":"Ringelmannsdamm","postalCode":"26655","locality":"Westerstede","municipality":{"key":"03451007","name":"Westerstede, Stadt","type":"Stadt"},"district":{"key":"03451","name":"Ammerland","type":"Landkreis"},"federalState":{"key":"03","name":"Niedersachsen"}},{"name":"Ringstr.","postalCode":"26655","locality":"Westerstede","municipality":{"key":"03451007","name":"Westerstede, Stadt","type":"Stadt"},"district":{"key":"03451","name":"Ammerland","type":"Landkreis"},"federalState":{"key":"03","name":"Niedersachsen"}},{"name":"Robert-Koch-Str.","postalCode":"26655","locality":"Westerstede","municipality":{"key":"03451007","name":"Westerstede, Stadt","type":"Stadt"},"district":{"key":"03451","name":"Ammerland","type":"Landkreis"},"federalState":{"key":"03","name":"Niedersachsen"}},{"name":"Rolf-Hornig-Str.","postalCode":"26655","locality":"Westerstede","municipality":{"key":"03451007","name":"Westerstede, Stadt","type":"Stadt"},"district":{"key":"03451","name":"Ammerland","type":"Landkreis"},"federalState":{"key":"03","name":"Niedersachsen"}},{"name":"Röntgenstr.","postalCode":"26655","locality":"Westerstede","municipality":{"key":"03451007","name":"Westerstede, Stadt","type":"Stadt"},"district":{"key":"03451","name":"Ammerland","type":"Landkreis"},"federalState":{"key":"03","name":"Niedersachsen"}},{"name":"Rosenweg","postalCode":"26655","locality":"Westerstede","municipality":{"key":"03451007","name":"Westerstede, Stadt","type":"Stadt"},"district":{"key":"03451","name":"Ammerland","type":"Landkreis"},"federalState":{"key":"03","name":"Niedersachsen"}},{"name":"Rostruper Str.","postalCode":"26655","locality":"Westerstede","municipality":{"key":"03451007","name":"Westerstede, Stadt","type":"Stadt"},"district":{"key":"03451","name":"Ammerland","type":"Landkreis"},"federalState":{"key":"03","name":"Niedersachsen"}},{"name":"Routweg","postalCode":"26655","locality":"Westerstede","municipality":{"key":"03451007","name":"Westerstede, Stadt","type":"Stadt"},"district":{"key":"03451","name":"Ammerland","type":"Landkreis"},"federalState":{"key":"03","name":"Niedersachsen"}},{"name":"Rüschendamm","postalCode":"26655","locality":"Westerstede","municipality":{"key":"03451007","name":"Westerstede, Stadt","type":"Stadt"},"district":{"key":"03451","name":"Ammerland","type":"Landkreis"},"federalState":{"key":"03","name":"Niedersachsen"}},{"name":"Sanddornweg","postalCode":"26655","locality":"Westerstede","municipality":{"key":"03451007","name":"Westerstede, Stadt","type":"Stadt"},"district":{"key":"03451","name":"Ammerland","type":"Landkreis"},"federalState":{"key":"03","name":"Niedersachsen"}},{"name":"Sanders Padd","postalCode":"26655","locality":"Westerstede","municipality":{"key":"03451007","name":"Westerstede, Stadt","type":"Stadt"},"district":{"key":"03451","name":"Ammerland","type":"Landkreis"},"federalState":{"key":"03","name":"Niedersachsen"}},{"name":"Schafweg","postalCode":"26655","locality":"Westerstede","municipality":{"key":"03451007","name":"Westerstede, Stadt","type":"Stadt"},"district":{"key":"03451","name":"Ammerland","type":"Landkreis"},"federalState":{"key":"03","name":"Niedersachsen"}},{"name":"Scheeperskamp","postalCode":"26655","locality":"Westerstede","municipality":{"key":"03451007","name":"Westerstede, Stadt","type":"Stadt"},"district":{"key":"03451","name":"Ammerland","type":"Landkreis"},"federalState":{"key":"03","name":"Niedersachsen"}},{"name":"Schillerstr.","postalCode":"26655","locality":"Westerstede","municipality":{"key":"03451007","name":"Westerstede, Stadt","type":"Stadt"},"district":{"key":"03451","name":"Ammerland","type":"Landkreis"},"federalState":{"key":"03","name":"Niedersachsen"}},{"name":"Schlehdornstr.","postalCode":"26655","locality":"Westerstede","municipality":{"key":"03451007","name":"Westerstede, Stadt","type":"Stadt"},"district":{"key":"03451","name":"Ammerland","type":"Landkreis"},"federalState":{"key":"03","name":"Niedersachsen"}},{"name":"Schlesierstr.","postalCode":"26655","locality":"Westerstede","municipality":{"key":"03451007","name":"Westerstede, Stadt","type":"Stadt"},"district":{"key":"03451","name":"Ammerland","type":"Landkreis"},"federalState":{"key":"03","name":"Niedersachsen"}},{"name":"Schloßweg","postalCode":"26655","locality":"Westerstede","municipality":{"key":"03451007","name":"Westerstede, Stadt","type":"Stadt"},"district":{"key":"03451","name":"Ammerland","type":"Landkreis"},"federalState":{"key":"03","name":"Niedersachsen"}},{"name":"Schmalhorn","postalCode":"26655","locality":"Westerstede","municipality":{"key":"03451007","name":"Westerstede, Stadt","type":"Stadt"},"district":{"key":"03451","name":"Ammerland","type":"Landkreis"},"federalState":{"key":"03","name":"Niedersachsen"}},{"name":"Schoolpadd","postalCode":"26655","locality":"Westerstede","municipality":{"key":"03451007","name":"Westerstede, Stadt","type":"Stadt"},"district":{"key":"03451","name":"Ammerland","type":"Landkreis"},"federalState":{"key":"03","name":"Niedersachsen"}},{"name":"Schoolstraat","postalCode":"26655","locality":"Westerstede","municipality":{"key":"03451007","name":"Westerstede, Stadt","type":"Stadt"},"district":{"key":"03451","name":"Ammerland","type":"Landkreis"},"federalState":{"key":"03","name":"Niedersachsen"}},{"name":"Schulkamp","postalCode":"26655","locality":"Westerstede","municipality":{"key":"03451007","name":"Westerstede, Stadt","type":"Stadt"},"district":{"key":"03451","name":"Ammerland","type":"Landkreis"},"federalState":{"key":"03","name":"Niedersachsen"}},{"name":"Schulstr.","postalCode":"26655","locality":"Westerstede","municipality":{"key":"03451007","name":"Westerstede, Stadt","type":"Stadt"},"district":{"key":"03451","name":"Ammerland","type":"Landkreis"},"federalState":{"key":"03","name":"Niedersachsen"}},{"name":"Seggeriedenweg","postalCode":"26655","locality":"Westerstede","municipality":{"key":"03451007","name":"Westerstede, Stadt","type":"Stadt"},"district":{"key":"03451","name":"Ammerland","type":"Landkreis"},"federalState":{"key":"03","name":"Niedersachsen"}},{"name":"Seggerner Str.","postalCode":"26655","locality":"Westerstede","municipality":{"key":"03451007","name":"Westerstede, Stadt","type":"Stadt"},"district":{"key":"03451","name":"Ammerland","type":"Landkreis"},"federalState":{"key":"03","name":"Niedersachsen"}},{"name":"Seghorner Weg","postalCode":"26655","locality":"Westerstede","municipality":{"key":"03451007","name":"Westerstede, Stadt","type":"Stadt"},"district":{"key":"03451","name":"Ammerland","type":"Landkreis"},"federalState":{"key":"03","name":"Niedersachsen"}},{"name":"Sekmeder","postalCode":"26655","locality":"Westerstede","municipality":{"key":"03451007","name":"Westerstede, Stadt","type":"Stadt"},"district":{"key":"03451","name":"Ammerland","type":"Landkreis"},"federalState":{"key":"03","name":"Niedersachsen"}},{"name":"Sexmähen","postalCode":"26655","locality":"Westerstede","municipality":{"key":"03451007","name":"Westerstede, Stadt","type":"Stadt"},"district":{"key":"03451","name":"Ammerland","type":"Landkreis"},"federalState":{"key":"03","name":"Niedersachsen"}},{"name":"Sonnenblumenweg","postalCode":"26655","locality":"Westerstede","municipality":{"key":"03451007","name":"Westerstede, Stadt","type":"Stadt"},"district":{"key":"03451","name":"Ammerland","type":"Landkreis"},"federalState":{"key":"03","name":"Niedersachsen"}},{"name":"Sophie-Scholl-Str.","postalCode":"26655","locality":"Westerstede","municipality":{"key":"03451007","name":"Westerstede, Stadt","type":"Stadt"},"district":{"key":"03451","name":"Ammerland","type":"Landkreis"},"federalState":{"key":"03","name":"Niedersachsen"}},{"name":"Spitzenmeer","postalCode":"26655","locality":"Westerstede","municipality":{"key":"03451007","name":"Westerstede, Stadt","type":"Stadt"},"district":{"key":"03451","name":"Ammerland","type":"Landkreis"},"federalState":{"key":"03","name":"Niedersachsen"}},{"name":"Spohlermehden","postalCode":"26655","locality":"Westerstede","municipality":{"key":"03451007","name":"Westerstede, Stadt","type":"Stadt"},"district":{"key":"03451","name":"Ammerland","type":"Landkreis"},"federalState":{"key":"03","name":"Niedersachsen"}},{"name":"Spurplattenweg","postalCode":"26655","locality":"Westerstede","municipality":{"key":"03451007","name":"Westerstede, Stadt","type":"Stadt"},"district":{"key":"03451","name":"Ammerland","type":"Landkreis"},"federalState":{"key":"03","name":"Niedersachsen"}},{"name":"Stadtpark Thalenweide","postalCode":"26655","locality":"Westerstede","municipality":{"key":"03451007","name":"Westerstede, Stadt","type":"Stadt"},"district":{"key":"03451","name":"Ammerland","type":"Landkreis"},"federalState":{"key":"03","name":"Niedersachsen"}},{"name":"Steenfeldskamp","postalCode":"26655","locality":"Westerstede","municipality":{"key":"03451007","name":"Westerstede, Stadt","type":"Stadt"},"district":{"key":"03451","name":"Ammerland","type":"Landkreis"},"federalState":{"key":"03","name":"Niedersachsen"}},{"name":"Steilwall","postalCode":"26655","locality":"Westerstede","municipality":{"key":"03451007","name":"Westerstede, Stadt","type":"Stadt"},"district":{"key":"03451","name":"Ammerland","type":"Landkreis"},"federalState":{"key":"03","name":"Niedersachsen"}},{"name":"Stellhorner Str.","postalCode":"26655","locality":"Westerstede","municipality":{"key":"03451007","name":"Westerstede, Stadt","type":"Stadt"},"district":{"key":"03451","name":"Ammerland","type":"Landkreis"},"federalState":{"key":"03","name":"Niedersachsen"}},{"name":"Sternkamp","postalCode":"26655","locality":"Westerstede","municipality":{"key":"03451007","name":"Westerstede, Stadt","type":"Stadt"},"district":{"key":"03451","name":"Ammerland","type":"Landkreis"},"federalState":{"key":"03","name":"Niedersachsen"}},{"name":"Stettiner Str.","postalCode":"26655","locality":"Westerstede","municipality":{"key":"03451007","name":"Westerstede, Stadt","type":"Stadt"},"district":{"key":"03451","name":"Ammerland","type":"Landkreis"},"federalState":{"key":"03","name":"Niedersachsen"}},{"name":"Streehorn","postalCode":"26655","locality":"Westerstede","municipality":{"key":"03451007","name":"Westerstede, Stadt","type":"Stadt"},"district":{"key":"03451","name":"Ammerland","type":"Landkreis"},"federalState":{"key":"03","name":"Niedersachsen"}},{"name":"Streek","postalCode":"26655","locality":"Westerstede","municipality":{"key":"03451007","name":"Westerstede, Stadt","type":"Stadt"},"district":{"key":"03451","name":"Ammerland","type":"Landkreis"},"federalState":{"key":"03","name":"Niedersachsen"}},{"name":"Stroen","postalCode":"26655","locality":"Westerstede","municipality":{"key":"03451007","name":"Westerstede, Stadt","type":"Stadt"},"district":{"key":"03451","name":"Ammerland","type":"Landkreis"},"federalState":{"key":"03","name":"Niedersachsen"}},{"name":"Strohen","postalCode":"26655","locality":"Westerstede","municipality":{"key":"03451007","name":"Westerstede, Stadt","type":"Stadt"},"district":{"key":"03451","name":"Ammerland","type":"Landkreis"},"federalState":{"key":"03","name":"Niedersachsen"}},{"name":"Stubberei","postalCode":"26655","locality":"Westerstede","municipality":{"key":"03451007","name":"Westerstede, Stadt","type":"Stadt"},"district":{"key":"03451","name":"Ammerland","type":"Landkreis"},"federalState":{"key":"03","name":"Niedersachsen"}},{"name":"Süderstr.","postalCode":"26655","locality":"Westerstede","municipality":{"key":"03451007","name":"Westerstede, Stadt","type":"Stadt"},"district":{"key":"03451","name":"Ammerland","type":"Landkreis"},"federalState":{"key":"03","name":"Niedersachsen"}},{"name":"Südholter Str.","postalCode":"26655","locality":"Westerstede","municipality":{"key":"03451007","name":"Westerstede, Stadt","type":"Stadt"},"district":{"key":"03451","name":"Ammerland","type":"Landkreis"},"federalState":{"key":"03","name":"Niedersachsen"}},{"name":"Südring","postalCode":"26655","locality":"Westerstede","municipality":{"key":"03451007","name":"Westerstede, Stadt","type":"Stadt"},"district":{"key":"03451","name":"Ammerland","type":"Landkreis"},"federalState":{"key":"03","name":"Niedersachsen"}},{"name":"Takerbarg","postalCode":"26655","locality":"Westerstede","municipality":{"key":"03451007","name":"Westerstede, Stadt","type":"Stadt"},"district":{"key":"03451","name":"Ammerland","type":"Landkreis"},"federalState":{"key":"03","name":"Niedersachsen"}},{"name":"Tanneneck","postalCode":"26655","locality":"Westerstede","municipality":{"key":"03451007","name":"Westerstede, Stadt","type":"Stadt"},"district":{"key":"03451","name":"Ammerland","type":"Landkreis"},"federalState":{"key":"03","name":"Niedersachsen"}},{"name":"Tannenloge","postalCode":"26655","locality":"Westerstede","municipality":{"key":"03451007","name":"Westerstede, Stadt","type":"Stadt"},"district":{"key":"03451","name":"Ammerland","type":"Landkreis"},"federalState":{"key":"03","name":"Niedersachsen"}},{"name":"Thalenstr.","postalCode":"26655","locality":"Westerstede","municipality":{"key":"03451007","name":"Westerstede, Stadt","type":"Stadt"},"district":{"key":"03451","name":"Ammerland","type":"Landkreis"},"federalState":{"key":"03","name":"Niedersachsen"}},{"name":"Tietjenstr.","postalCode":"26655","locality":"Westerstede","municipality":{"key":"03451007","name":"Westerstede, Stadt","type":"Stadt"},"district":{"key":"03451","name":"Ammerland","type":"Landkreis"},"federalState":{"key":"03","name":"Niedersachsen"}},{"name":"Tilsiter Str.","postalCode":"26655","locality":"Westerstede","municipality":{"key":"03451007","name":"Westerstede, Stadt","type":"Stadt"},"district":{"key":"03451","name":"Ammerland","type":"Landkreis"},"federalState":{"key":"03","name":"Niedersachsen"}},{"name":"Torsholter Hauptstr.","postalCode":"26655","locality":"Westerstede","municipality":{"key":"03451007","name":"Westerstede, Stadt","type":"Stadt"},"district":{"key":"03451","name":"Ammerland","type":"Landkreis"},"federalState":{"key":"03","name":"Niedersachsen"}},{"name":"Torsholter Kirchweg","postalCode":"26655","locality":"Westerstede","municipality":{"key":"03451007","name":"Westerstede, Stadt","type":"Stadt"},"district":{"key":"03451","name":"Ammerland","type":"Landkreis"},"federalState":{"key":"03","name":"Niedersachsen"}},{"name":"Torsholter Weg","postalCode":"26655","locality":"Westerstede","municipality":{"key":"03451007","name":"Westerstede, Stadt","type":"Stadt"},"district":{"key":"03451","name":"Ammerland","type":"Landkreis"},"federalState":{"key":"03","name":"Niedersachsen"}},{"name":"Tulpenweg","postalCode":"26655","locality":"Westerstede","municipality":{"key":"03451007","name":"Westerstede, Stadt","type":"Stadt"},"district":{"key":"03451","name":"Ammerland","type":"Landkreis"},"federalState":{"key":"03","name":"Niedersachsen"}},{"name":"Twüschenweg","postalCode":"26655","locality":"Westerstede","municipality":{"key":"03451007","name":"Westerstede, Stadt","type":"Stadt"},"district":{"key":"03451","name":"Ammerland","type":"Landkreis"},"federalState":{"key":"03","name":"Niedersachsen"}},{"name":"Uhlandstr.","postalCode":"26655","locality":"Westerstede","municipality":{"key":"03451007","name":"Westerstede, Stadt","type":"Stadt"},"district":{"key":"03451","name":"Ammerland","type":"Landkreis"},"federalState":{"key":"03","name":"Niedersachsen"}},{"name":"Ulmenstr.","postalCode":"26655","locality":"Westerstede","municipality":{"key":"03451007","name":"Westerstede, Stadt","type":"Stadt"},"district":{"key":"03451","name":"Ammerland","type":"Landkreis"},"federalState":{"key":"03","name":"Niedersachsen"}},{"name":"Unter den Eichen","postalCode":"26655","locality":"Westerstede","municipality":{"key":"03451007","name":"Westerstede, Stadt","type":"Stadt"},"district":{"key":"03451","name":"Ammerland","type":"Landkreis"},"federalState":{"key":"03","name":"Niedersachsen"}},{"name":"Upn Hoff","postalCode":"26655","locality":"Westerstede","municipality":{"key":"03451007","name":"Westerstede, Stadt","type":"Stadt"},"district":{"key":"03451","name":"Ammerland","type":"Landkreis"},"federalState":{"key":"03","name":"Niedersachsen"}},{"name":"Vareler Str.","postalCode":"26655","locality":"Westerstede","municipality":{"key":"03451007","name":"Westerstede, Stadt","type":"Stadt"},"district":{"key":"03451","name":"Ammerland","type":"Landkreis"},"federalState":{"key":"03","name":"Niedersachsen"}},{"name":"Veilchenweg","postalCode":"26655","locality":"Westerstede","municipality":{"key":"03451007","name":"Westerstede, Stadt","type":"Stadt"},"district":{"key":"03451","name":"Ammerland","type":"Landkreis"},"federalState":{"key":"03","name":"Niedersachsen"}},{"name":"Virchowstr.","postalCode":"26655","locality":"Westerstede","municipality":{"key":"03451007","name":"Westerstede, Stadt","type":"Stadt"},"district":{"key":"03451","name":"Ammerland","type":"Landkreis"},"federalState":{"key":"03","name":"Niedersachsen"}},{"name":"Vogelkamp","postalCode":"26655","locality":"Westerstede","municipality":{"key":"03451007","name":"Westerstede, Stadt","type":"Stadt"},"district":{"key":"03451","name":"Ammerland","type":"Landkreis"},"federalState":{"key":"03","name":"Niedersachsen"}},{"name":"Vom-Stein-Str.","postalCode":"26655","locality":"Westerstede","municipality":{"key":"03451007","name":"Westerstede, Stadt","type":"Stadt"},"district":{"key":"03451","name":"Ammerland","type":"Landkreis"},"federalState":{"key":"03","name":"Niedersachsen"}},{"name":"Von-Negelein-Str.","postalCode":"26655","locality":"Westerstede","municipality":{"key":"03451007","name":"Westerstede, Stadt","type":"Stadt"},"district":{"key":"03451","name":"Ammerland","type":"Landkreis"},"federalState":{"key":"03","name":"Niedersachsen"}},{"name":"Von-Weber-Str.","postalCode":"26655","locality":"Westerstede","municipality":{"key":"03451007","name":"Westerstede, Stadt","type":"Stadt"},"district":{"key":"03451","name":"Ammerland","type":"Landkreis"},"federalState":{"key":"03","name":"Niedersachsen"}},{"name":"Von-Witken-Str.","postalCode":"26655","locality":"Westerstede","municipality":{"key":"03451007","name":"Westerstede, Stadt","type":"Stadt"},"district":{"key":"03451","name":"Ammerland","type":"Landkreis"},"federalState":{"key":"03","name":"Niedersachsen"}},{"name":"Vosskamp","postalCode":"26655","locality":"Westerstede","municipality":{"key":"03451007","name":"Westerstede, Stadt","type":"Stadt"},"district":{"key":"03451","name":"Ammerland","type":"Landkreis"},"federalState":{"key":"03","name":"Niedersachsen"}},{"name":"Wacholderweg","postalCode":"26655","locality":"Westerstede","municipality":{"key":"03451007","name":"Westerstede, Stadt","type":"Stadt"},"district":{"key":"03451","name":"Ammerland","type":"Landkreis"},"federalState":{"key":"03","name":"Niedersachsen"}},{"name":"Wachtendorfsweg","postalCode":"26655","locality":"Westerstede","municipality":{"key":"03451007","name":"Westerstede, Stadt","type":"Stadt"},"district":{"key":"03451","name":"Ammerland","type":"Landkreis"},"federalState":{"key":"03","name":"Niedersachsen"}},{"name":"Walbroksweg","postalCode":"26655","locality":"Westerstede","municipality":{"key":"03451007","name":"Westerstede, Stadt","type":"Stadt"},"district":{"key":"03451","name":"Ammerland","type":"Landkreis"},"federalState":{"key":"03","name":"Niedersachsen"}},{"name":"Waldstr.","postalCode":"26655","locality":"Westerstede","municipality":{"key":"03451007","name":"Westerstede, Stadt","type":"Stadt"},"district":{"key":"03451","name":"Ammerland","type":"Landkreis"},"federalState":{"key":"03","name":"Niedersachsen"}},{"name":"Waldweg","postalCode":"26655","locality":"Westerstede","municipality":{"key":"03451007","name":"Westerstede, Stadt","type":"Stadt"},"district":{"key":"03451","name":"Ammerland","type":"Landkreis"},"federalState":{"key":"03","name":"Niedersachsen"}},{"name":"Webers Flach","postalCode":"26655","locality":"Westerstede","municipality":{"key":"03451007","name":"Westerstede, Stadt","type":"Stadt"},"district":{"key":"03451","name":"Ammerland","type":"Landkreis"},"federalState":{"key":"03","name":"Niedersachsen"}},{"name":"Werner-von-Siemens-Str.","postalCode":"26655","locality":"Westerstede","municipality":{"key":"03451007","name":"Westerstede, Stadt","type":"Stadt"},"district":{"key":"03451","name":"Ammerland","type":"Landkreis"},"federalState":{"key":"03","name":"Niedersachsen"}},{"name":"Weshorn","postalCode":"26655","locality":"Westerstede","municipality":{"key":"03451007","name":"Westerstede, Stadt","type":"Stadt"},"district":{"key":"03451","name":"Ammerland","type":"Landkreis"},"federalState":{"key":"03","name":"Niedersachsen"}},{"name":"Westerkamp","postalCode":"26655","locality":"Westerstede","municipality":{"key":"03451007","name":"Westerstede, Stadt","type":"Stadt"},"district":{"key":"03451","name":"Ammerland","type":"Landkreis"},"federalState":{"key":"03","name":"Niedersachsen"}},{"name":"Westerloyer Str.","postalCode":"26655","locality":"Westerstede","municipality":{"key":"03451007","name":"Westerstede, Stadt","type":"Stadt"},"district":{"key":"03451","name":"Ammerland","type":"Landkreis"},"federalState":{"key":"03","name":"Niedersachsen"}},{"name":"Westersteder Str.","postalCode":"26655","locality":"Westerstede","municipality":{"key":"03451007","name":"Westerstede, Stadt","type":"Stadt"},"district":{"key":"03451","name":"Ammerland","type":"Landkreis"},"federalState":{"key":"03","name":"Niedersachsen"}},{"name":"Westerwischen","postalCode":"26655","locality":"Westerstede","municipality":{"key":"03451007","name":"Westerstede, Stadt","type":"Stadt"},"district":{"key":"03451","name":"Ammerland","type":"Landkreis"},"federalState":{"key":"03","name":"Niedersachsen"}},{"name":"Westring","postalCode":"26655","locality":"Westerstede","municipality":{"key":"03451007","name":"Westerstede, Stadt","type":"Stadt"},"district":{"key":"03451","name":"Ammerland","type":"Landkreis"},"federalState":{"key":"03","name":"Niedersachsen"}},{"name":"Wichelnstr.","postalCode":"26655","locality":"Westerstede","municipality":{"key":"03451007","name":"Westerstede, Stadt","type":"Stadt"},"district":{"key":"03451","name":"Ammerland","type":"Landkreis"},"federalState":{"key":"03","name":"Niedersachsen"}},{"name":"Wieselstr.","postalCode":"26655","locality":"Westerstede","municipality":{"key":"03451007","name":"Westerstede, Stadt","type":"Stadt"},"district":{"key":"03451","name":"Ammerland","type":"Landkreis"},"federalState":{"key":"03","name":"Niedersachsen"}},{"name":"Wiesenweg","postalCode":"26655","locality":"Westerstede","municipality":{"key":"03451007","name":"Westerstede, Stadt","type":"Stadt"},"district":{"key":"03451","name":"Ammerland","type":"Landkreis"},"federalState":{"key":"03","name":"Niedersachsen"}},{"name":"Wilhelm-Busch-Str.","postalCode":"26655","locality":"Westerstede","municipality":{"key":"03451007","name":"Westerstede, Stadt","type":"Stadt"},"district":{"key":"03451","name":"Ammerland","type":"Landkreis"},"federalState":{"key":"03","name":"Niedersachsen"}},{"name":"Wilhelm-Geiler-Str.","postalCode":"26655","locality":"Westerstede","municipality":{"key":"03451007","name":"Westerstede, Stadt","type":"Stadt"},"district":{"key":"03451","name":"Ammerland","type":"Landkreis"},"federalState":{"key":"03","name":"Niedersachsen"}},{"name":"Willerfang","postalCode":"26655","locality":"Westerstede","municipality":{"key":"03451007","name":"Westerstede, Stadt","type":"Stadt"},"district":{"key":"03451","name":"Ammerland","type":"Landkreis"},"federalState":{"key":"03","name":"Niedersachsen"}},{"name":"Winnewuppstraat","postalCode":"26655","locality":"Westerstede","municipality":{"key":"03451007","name":"Westerstede, Stadt","type":"Stadt"},"district":{"key":"03451","name":"Ammerland","type":"Landkreis"},"federalState":{"key":"03","name":"Niedersachsen"}},{"name":"Wittenheimstr.","postalCode":"26655","locality":"Westerstede","municipality":{"key":"03451007","name":"Westerstede, Stadt","type":"Stadt"},"district":{"key":"03451","name":"Ammerland","type":"Landkreis"},"federalState":{"key":"03","name":"Niedersachsen"}},{"name":"Wittriehendamm","postalCode":"26655","locality":"Westerstede","municipality":{"key":"03451007","name":"Westerstede, Stadt","type":"Stadt"},"district":{"key":"03451","name":"Ammerland","type":"Landkreis"},"federalState":{"key":"03","name":"Niedersachsen"}},{"name":"Wollgrasweg","postalCode":"26655","locality":"Westerstede","municipality":{"key":"03451007","name":"Westerstede, Stadt","type":"Stadt"},"district":{"key":"03451","name":"Ammerland","type":"Landkreis"},"federalState":{"key":"03","name":"Niedersachsen"}},{"name":"Woltersdamm","postalCode":"26655","locality":"Westerstede","municipality":{"key":"03451007","name":"Westerstede, Stadt","type":"Stadt"},"district":{"key":"03451","name":"Ammerland","type":"Landkreis"},"federalState":{"key":"03","name":"Niedersachsen"}},{"name":"Zedernstr.","postalCode":"26655","locality":"Westerstede","municipality":{"key":"03451007","name":"Westerstede, Stadt","type":"Stadt"},"district":{"key":"03451","name":"Ammerland","type":"Landkreis"},"federalState":{"key":"03","name":"Niedersachsen"}},{"name":"Ziegeleistr.","postalCode":"26655","locality":"Westerstede","municipality":{"key":"03451007","name":"Westerstede, Stadt","type":"Stadt"},"district":{"key":"03451","name":"Ammerland","type":"Landkreis"},"federalState":{"key":"03","name":"Niedersachsen"}},{"name":"Zu den Placken","postalCode":"26655","locality":"Westerstede","municipality":{"key":"03451007","name":"Westerstede, Stadt","type":"Stadt"},"district":{"key":"03451","name":"Ammerland","type":"Landkreis"},"federalState":{"key":"03","name":"Niedersachsen"}},{"name":"Zu den Tannen","postalCode":"26655","locality":"Westerstede","municipality":{"key":"03451007","name":"Westerstede, Stadt","type":"Stadt"},"district":{"key":"03451","name":"Ammerland","type":"Landkreis"},"federalState":{"key":"03","name":"Niedersachsen"}},{"name":"Zu den Wiesen","postalCode":"26655","locality":"Westerstede","municipality":{"key":"03451007","name":"Westerstede, Stadt","type":"Stadt"},"district":{"key":"03451","name":"Ammerland","type":"Landkreis"},"federalState":{"key":"03","name":"Niedersachsen"}},{"name":"Zu den Wischen","postalCode":"26655","locality":"Westerstede","municipality":{"key":"03451007","name":"Westerstede, Stadt","type":"Stadt"},"district":{"key":"03451","name":"Ammerland","type":"Landkreis"},"federalState":{"key":"03","name":"Niedersachsen"}},{"name":"Zum Burnkamp","postalCode":"26655","locality":"Westerstede","municipality":{"key":"03451007","name":"Westerstede, Stadt","type":"Stadt"},"district":{"key":"03451","name":"Ammerland","type":"Landkreis"},"federalState":{"key":"03","name":"Niedersachsen"}},{"name":"Zum Heerenberg","postalCode":"26655","locality":"Westerstede","municipality":{"key":"03451007","name":"Westerstede, Stadt","type":"Stadt"},"district":{"key":"03451","name":"Ammerland","type":"Landkreis"},"federalState":{"key":"03","name":"Niedersachsen"}},{"name":"Zum Hullen","postalCode":"26655","locality":"Westerstede","municipality":{"key":"03451007","name":"Westerstede, Stadt","type":"Stadt"},"district":{"key":"03451","name":"Ammerland","type":"Landkreis"},"federalState":{"key":"03","name":"Niedersachsen"}},{"name":"Zum Orchideenkamp","postalCode":"26655","locality":"Westerstede","municipality":{"key":"03451007","name":"Westerstede, Stadt","type":"Stadt"},"district":{"key":"03451","name":"Ammerland","type":"Landkreis"},"federalState":{"key":"03","name":"Niedersachsen"}},{"name":"Zum Stadtpark","postalCode":"26655","locality":"Westerstede","municipality":{"key":"03451007","name":"Westerstede, Stadt","type":"Stadt"},"district":{"key":"03451","name":"Ammerland","type":"Landkreis"},"federalState":{"key":"03","name":"Niedersachsen"}},{"name":"Zum Stiftungspark","postalCode":"26655","locality":"Westerstede","municipality":{"key":"03451007","name":"Westerstede, Stadt","type":"Stadt"},"district":{"key":"03451","name":"Ammerland","type":"Landkreis"},"federalState":{"key":"03","name":"Niedersachsen"}},{"name":"Zum Wehlen","postalCode":"26655","locality":"Westerstede","municipality":{"key":"03451007","name":"Westerstede, Stadt","type":"Stadt"},"district":{"key":"03451","name":"Ammerland","type":"Landkreis"},"federalState":{"key":"03","name":"Niedersachsen"}},{"name":"Zur Gärtnerei","postalCode":"26655","locality":"Westerstede","municipality":{"key":"03451007","name":"Westerstede, Stadt","type":"Stadt"},"district":{"key":"03451","name":"Ammerland","type":"Landkreis"},"federalState":{"key":"03","name":"Niedersachsen"}},{"name":"Zur Großen Meede","postalCode":"26655","locality":"Westerstede","municipality":{"key":"03451007","name":"Westerstede, Stadt","type":"Stadt"},"district":{"key":"03451","name":"Ammerland","type":"Landkreis"},"federalState":{"key":"03","name":"Niedersachsen"}},{"name":"Zur Hasenweide","postalCode":"26655","locality":"Westerstede","municipality":{"key":"03451007","name":"Westerstede, Stadt","type":"Stadt"},"district":{"key":"03451","name":"Ammerland","type":"Landkreis"},"federalState":{"key":"03","name":"Niedersachsen"}},{"name":"Zwischenahner Str.","postalCode":"26655","locality":"Westerstede","municipality":{"key":"03451007","name":"Westerstede, Stadt","type":"Stadt"},"district":{"key":"03451","name":"Ammerland","type":"Landkreis"},"federalState":{"key":"03","name":"Niedersachsen"}},{"name":"Överstendamm","postalCode":"26655","locality":"Westerstede","municipality":{"key":"03451007","name":"Westerstede, Stadt","type":"Stadt"},"district":{"key":"03451","name":"Ammerland","type":"Landkreis"},"federalState":{"key":"03","name":"Niedersachsen"}},]