[{"name":"Ackerhagen","postalCode":"32257","locality":"Bünde","municipality":{"key":"05758004","name":"Bünde, Stadt","type":"Stadt"},"district":{"key":"05758","name":"Herford","type":"Kreis"},"federalState":{"key":"05","name":"Nordrhein-Westfalen"}},{"name":"Adelstr.","postalCode":"32257","locality":"Bünde","municipality":{"key":"05758004","name":"Bünde, Stadt","type":"Stadt"},"district":{"key":"05758","name":"Herford","type":"Kreis"},"federalState":{"key":"05","name":"Nordrhein-Westfalen"}},{"name":"Ahler Grenzweg","postalCode":"32257","locality":"Bünde","municipality":{"key":"05758004","name":"Bünde, Stadt","type":"Stadt"},"district":{"key":"05758","name":"Herford","type":"Kreis"},"federalState":{"key":"05","name":"Nordrhein-Westfalen"}},{"name":"Ahler Heide","postalCode":"32257","locality":"Bünde","municipality":{"key":"05758004","name":"Bünde, Stadt","type":"Stadt"},"district":{"key":"05758","name":"Herford","type":"Kreis"},"federalState":{"key":"05","name":"Nordrhein-Westfalen"}},{"name":"Ahler Str.","postalCode":"32257","locality":"Bünde","municipality":{"key":"05758004","name":"Bünde, Stadt","type":"Stadt"},"district":{"key":"05758","name":"Herford","type":"Kreis"},"federalState":{"key":"05","name":"Nordrhein-Westfalen"}},{"name":"Ahlsdorfer Weg","postalCode":"27386","locality":"Hemsbünde","municipality":{"key":"03357024","name":"Hemsbünde","type":"Kreisangehörige_Gemeinde"},"district":{"key":"03357","name":"Rotenburg (Wümme)","type":"Landkreis"},"federalState":{"key":"03","name":"Niedersachsen"}},{"name":"Ahrlandweg","postalCode":"27386","locality":"Hemsbünde","municipality":{"key":"03357024","name":"Hemsbünde","type":"Kreisangehörige_Gemeinde"},"district":{"key":"03357","name":"Rotenburg (Wümme)","type":"Landkreis"},"federalState":{"key":"03","name":"Niedersachsen"}},{"name":"Akazienstr.","postalCode":"32257","locality":"Bünde","municipality":{"key":"05758004","name":"Bünde, Stadt","type":"Stadt"},"district":{"key":"05758","name":"Herford","type":"Kreis"},"federalState":{"key":"05","name":"Nordrhein-Westfalen"}},{"name":"Albert-Schweitzer-Str.","postalCode":"32257","locality":"Bünde","municipality":{"key":"05758004","name":"Bünde, Stadt","type":"Stadt"},"district":{"key":"05758","name":"Herford","type":"Kreis"},"federalState":{"key":"05","name":"Nordrhein-Westfalen"}},{"name":"Alte Heide","postalCode":"32257","locality":"Bünde","municipality":{"key":"05758004","name":"Bünde, Stadt","type":"Stadt"},"district":{"key":"05758","name":"Herford","type":"Kreis"},"federalState":{"key":"05","name":"Nordrhein-Westfalen"}},{"name":"Alte Kreisstr.","postalCode":"32257","locality":"Bünde","municipality":{"key":"05758004","name":"Bünde, Stadt","type":"Stadt"},"district":{"key":"05758","name":"Herford","type":"Kreis"},"federalState":{"key":"05","name":"Nordrhein-Westfalen"}},{"name":"Altemeierweg","postalCode":"32257","locality":"Bünde","municipality":{"key":"05758004","name":"Bünde, Stadt","type":"Stadt"},"district":{"key":"05758","name":"Herford","type":"Kreis"},"federalState":{"key":"05","name":"Nordrhein-Westfalen"}},{"name":"Alter Garten","postalCode":"32257","locality":"Bünde","municipality":{"key":"05758004","name":"Bünde, Stadt","type":"Stadt"},"district":{"key":"05758","name":"Herford","type":"Kreis"},"federalState":{"key":"05","name":"Nordrhein-Westfalen"}},{"name":"Alter Mühlenweg","postalCode":"27386","locality":"Hemsbünde","municipality":{"key":"03357024","name":"Hemsbünde","type":"Kreisangehörige_Gemeinde"},"district":{"key":"03357","name":"Rotenburg (Wümme)","type":"Landkreis"},"federalState":{"key":"03","name":"Niedersachsen"}},{"name":"Alter Postweg","postalCode":"32257","locality":"Bünde","municipality":{"key":"05758004","name":"Bünde, Stadt","type":"Stadt"},"district":{"key":"05758","name":"Herford","type":"Kreis"},"federalState":{"key":"05","name":"Nordrhein-Westfalen"}},{"name":"Am Böseberg","postalCode":"32257","locality":"Bünde","municipality":{"key":"05758004","name":"Bünde, Stadt","type":"Stadt"},"district":{"key":"05758","name":"Herford","type":"Kreis"},"federalState":{"key":"05","name":"Nordrhein-Westfalen"}},{"name":"Am Brunnen","postalCode":"32257","locality":"Bünde","municipality":{"key":"05758004","name":"Bünde, Stadt","type":"Stadt"},"district":{"key":"05758","name":"Herford","type":"Kreis"},"federalState":{"key":"05","name":"Nordrhein-Westfalen"}},{"name":"Am Bulskamp","postalCode":"32257","locality":"Bünde","municipality":{"key":"05758004","name":"Bünde, Stadt","type":"Stadt"},"district":{"key":"05758","name":"Herford","type":"Kreis"},"federalState":{"key":"05","name":"Nordrhein-Westfalen"}},{"name":"Am Dreiländereck","postalCode":"32257","locality":"Bünde","municipality":{"key":"05758004","name":"Bünde, Stadt","type":"Stadt"},"district":{"key":"05758","name":"Herford","type":"Kreis"},"federalState":{"key":"05","name":"Nordrhein-Westfalen"}},{"name":"Am Flachhof","postalCode":"32257","locality":"Bünde","municipality":{"key":"05758004","name":"Bünde, Stadt","type":"Stadt"},"district":{"key":"05758","name":"Herford","type":"Kreis"},"federalState":{"key":"05","name":"Nordrhein-Westfalen"}},{"name":"Am Goldsiek","postalCode":"32257","locality":"Bünde","municipality":{"key":"05758004","name":"Bünde, Stadt","type":"Stadt"},"district":{"key":"05758","name":"Herford","type":"Kreis"},"federalState":{"key":"05","name":"Nordrhein-Westfalen"}},{"name":"Am Hagsbrink","postalCode":"32257","locality":"Bünde","municipality":{"key":"05758004","name":"Bünde, Stadt","type":"Stadt"},"district":{"key":"05758","name":"Herford","type":"Kreis"},"federalState":{"key":"05","name":"Nordrhein-Westfalen"}},{"name":"Am Hückerholz","postalCode":"32257","locality":"Bünde","municipality":{"key":"05758004","name":"Bünde, Stadt","type":"Stadt"},"district":{"key":"05758","name":"Herford","type":"Kreis"},"federalState":{"key":"05","name":"Nordrhein-Westfalen"}},{"name":"Am Jägerkrug","postalCode":"32257","locality":"Bünde","municipality":{"key":"05758004","name":"Bünde, Stadt","type":"Stadt"},"district":{"key":"05758","name":"Herford","type":"Kreis"},"federalState":{"key":"05","name":"Nordrhein-Westfalen"}},{"name":"Am Kalkofen","postalCode":"32257","locality":"Bünde","municipality":{"key":"05758004","name":"Bünde, Stadt","type":"Stadt"},"district":{"key":"05758","name":"Herford","type":"Kreis"},"federalState":{"key":"05","name":"Nordrhein-Westfalen"}},{"name":"Am Kindergarten","postalCode":"32257","locality":"Bünde","municipality":{"key":"05758004","name":"Bünde, Stadt","type":"Stadt"},"district":{"key":"05758","name":"Herford","type":"Kreis"},"federalState":{"key":"05","name":"Nordrhein-Westfalen"}},{"name":"Am Krähenbusch","postalCode":"32257","locality":"Bünde","municipality":{"key":"05758004","name":"Bünde, Stadt","type":"Stadt"},"district":{"key":"05758","name":"Herford","type":"Kreis"},"federalState":{"key":"05","name":"Nordrhein-Westfalen"}},{"name":"Am Kreuzstein","postalCode":"32257","locality":"Bünde","municipality":{"key":"05758004","name":"Bünde, Stadt","type":"Stadt"},"district":{"key":"05758","name":"Herford","type":"Kreis"},"federalState":{"key":"05","name":"Nordrhein-Westfalen"}},{"name":"Am Meyerwege","postalCode":"32257","locality":"Bünde","municipality":{"key":"05758004","name":"Bünde, Stadt","type":"Stadt"},"district":{"key":"05758","name":"Herford","type":"Kreis"},"federalState":{"key":"05","name":"Nordrhein-Westfalen"}},{"name":"Am Ohrhagen","postalCode":"32257","locality":"Bünde","municipality":{"key":"05758004","name":"Bünde, Stadt","type":"Stadt"},"district":{"key":"05758","name":"Herford","type":"Kreis"},"federalState":{"key":"05","name":"Nordrhein-Westfalen"}},{"name":"Am Ostbach","postalCode":"32257","locality":"Bünde","municipality":{"key":"05758004","name":"Bünde, Stadt","type":"Stadt"},"district":{"key":"05758","name":"Herford","type":"Kreis"},"federalState":{"key":"05","name":"Nordrhein-Westfalen"}},{"name":"Am Röbekamp","postalCode":"32257","locality":"Bünde","municipality":{"key":"05758004","name":"Bünde, Stadt","type":"Stadt"},"district":{"key":"05758","name":"Herford","type":"Kreis"},"federalState":{"key":"05","name":"Nordrhein-Westfalen"}},{"name":"Am Sägewerk","postalCode":"27386","locality":"Hemsbünde","municipality":{"key":"03357024","name":"Hemsbünde","type":"Kreisangehörige_Gemeinde"},"district":{"key":"03357","name":"Rotenburg (Wümme)","type":"Landkreis"},"federalState":{"key":"03","name":"Niedersachsen"}},{"name":"Am schwarzen Hagen","postalCode":"32257","locality":"Bünde","municipality":{"key":"05758004","name":"Bünde, Stadt","type":"Stadt"},"district":{"key":"05758","name":"Herford","type":"Kreis"},"federalState":{"key":"05","name":"Nordrhein-Westfalen"}},{"name":"Am Sportplatz","postalCode":"32257","locality":"Bünde","municipality":{"key":"05758004","name":"Bünde, Stadt","type":"Stadt"},"district":{"key":"05758","name":"Herford","type":"Kreis"},"federalState":{"key":"05","name":"Nordrhein-Westfalen"}},{"name":"Am Steinacker","postalCode":"32257","locality":"Bünde","municipality":{"key":"05758004","name":"Bünde, Stadt","type":"Stadt"},"district":{"key":"05758","name":"Herford","type":"Kreis"},"federalState":{"key":"05","name":"Nordrhein-Westfalen"}},{"name":"Am Strangbach","postalCode":"32257","locality":"Bünde","municipality":{"key":"05758004","name":"Bünde, Stadt","type":"Stadt"},"district":{"key":"05758","name":"Herford","type":"Kreis"},"federalState":{"key":"05","name":"Nordrhein-Westfalen"}},{"name":"Am Sunderkamp","postalCode":"32257","locality":"Bünde","municipality":{"key":"05758004","name":"Bünde, Stadt","type":"Stadt"},"district":{"key":"05758","name":"Herford","type":"Kreis"},"federalState":{"key":"05","name":"Nordrhein-Westfalen"}},{"name":"Amtshausplatz","postalCode":"32257","locality":"Bünde","municipality":{"key":"05758004","name":"Bünde, Stadt","type":"Stadt"},"district":{"key":"05758","name":"Herford","type":"Kreis"},"federalState":{"key":"05","name":"Nordrhein-Westfalen"}},{"name":"Amtshausstr.","postalCode":"32257","locality":"Bünde","municipality":{"key":"05758004","name":"Bünde, Stadt","type":"Stadt"},"district":{"key":"05758","name":"Herford","type":"Kreis"},"federalState":{"key":"05","name":"Nordrhein-Westfalen"}},{"name":"Am Wickenkamp","postalCode":"32257","locality":"Bünde","municipality":{"key":"05758004","name":"Bünde, Stadt","type":"Stadt"},"district":{"key":"05758","name":"Herford","type":"Kreis"},"federalState":{"key":"05","name":"Nordrhein-Westfalen"}},{"name":"Am Wiedholz","postalCode":"32257","locality":"Bünde","municipality":{"key":"05758004","name":"Bünde, Stadt","type":"Stadt"},"district":{"key":"05758","name":"Herford","type":"Kreis"},"federalState":{"key":"05","name":"Nordrhein-Westfalen"}},{"name":"An den Büschen","postalCode":"32257","locality":"Bünde","municipality":{"key":"05758004","name":"Bünde, Stadt","type":"Stadt"},"district":{"key":"05758","name":"Herford","type":"Kreis"},"federalState":{"key":"05","name":"Nordrhein-Westfalen"}},{"name":"An den Kämpen","postalCode":"32257","locality":"Bünde","municipality":{"key":"05758004","name":"Bünde, Stadt","type":"Stadt"},"district":{"key":"05758","name":"Herford","type":"Kreis"},"federalState":{"key":"05","name":"Nordrhein-Westfalen"}},{"name":"An der Billerke","postalCode":"32257","locality":"Bünde","municipality":{"key":"05758004","name":"Bünde, Stadt","type":"Stadt"},"district":{"key":"05758","name":"Herford","type":"Kreis"},"federalState":{"key":"05","name":"Nordrhein-Westfalen"}},{"name":"An der Eichfeldstr.","postalCode":"32257","locality":"Bünde","municipality":{"key":"05758004","name":"Bünde, Stadt","type":"Stadt"},"district":{"key":"05758","name":"Herford","type":"Kreis"},"federalState":{"key":"05","name":"Nordrhein-Westfalen"}},{"name":"An der Friedhofstr.","postalCode":"32257","locality":"Bünde","municipality":{"key":"05758004","name":"Bünde, Stadt","type":"Stadt"},"district":{"key":"05758","name":"Herford","type":"Kreis"},"federalState":{"key":"05","name":"Nordrhein-Westfalen"}},{"name":"An der Schwartemeierstr.","postalCode":"32257","locality":"Bünde","municipality":{"key":"05758004","name":"Bünde, Stadt","type":"Stadt"},"district":{"key":"05758","name":"Herford","type":"Kreis"},"federalState":{"key":"05","name":"Nordrhein-Westfalen"}},{"name":"An der Talstr.","postalCode":"32257","locality":"Bünde","municipality":{"key":"05758004","name":"Bünde, Stadt","type":"Stadt"},"district":{"key":"05758","name":"Herford","type":"Kreis"},"federalState":{"key":"05","name":"Nordrhein-Westfalen"}},{"name":"Anglerweg","postalCode":"32257","locality":"Bünde","municipality":{"key":"05758004","name":"Bünde, Stadt","type":"Stadt"},"district":{"key":"05758","name":"Herford","type":"Kreis"},"federalState":{"key":"05","name":"Nordrhein-Westfalen"}},{"name":"Bachstr.","postalCode":"32257","locality":"Bünde","municipality":{"key":"05758004","name":"Bünde, Stadt","type":"Stadt"},"district":{"key":"05758","name":"Herford","type":"Kreis"},"federalState":{"key":"05","name":"Nordrhein-Westfalen"}},{"name":"Bäckerstr.","postalCode":"32257","locality":"Bünde","municipality":{"key":"05758004","name":"Bünde, Stadt","type":"Stadt"},"district":{"key":"05758","name":"Herford","type":"Kreis"},"federalState":{"key":"05","name":"Nordrhein-Westfalen"}},{"name":"Bäderstr.","postalCode":"32257","locality":"Bünde","municipality":{"key":"05758004","name":"Bünde, Stadt","type":"Stadt"},"district":{"key":"05758","name":"Herford","type":"Kreis"},"federalState":{"key":"05","name":"Nordrhein-Westfalen"}},{"name":"Bahnhofstr.","postalCode":"32257","locality":"Bünde","municipality":{"key":"05758004","name":"Bünde, Stadt","type":"Stadt"},"district":{"key":"05758","name":"Herford","type":"Kreis"},"federalState":{"key":"05","name":"Nordrhein-Westfalen"}},{"name":"Barlachstr.","postalCode":"32257","locality":"Bünde","municipality":{"key":"05758004","name":"Bünde, Stadt","type":"Stadt"},"district":{"key":"05758","name":"Herford","type":"Kreis"},"federalState":{"key":"05","name":"Nordrhein-Westfalen"}},{"name":"Barrenbruchweg","postalCode":"32257","locality":"Bünde","municipality":{"key":"05758004","name":"Bünde, Stadt","type":"Stadt"},"district":{"key":"05758","name":"Herford","type":"Kreis"},"federalState":{"key":"05","name":"Nordrhein-Westfalen"}},{"name":"Bartelsdorfer Weg","postalCode":"27386","locality":"Hemsbünde","municipality":{"key":"03357024","name":"Hemsbünde","type":"Kreisangehörige_Gemeinde"},"district":{"key":"03357","name":"Rotenburg (Wümme)","type":"Landkreis"},"federalState":{"key":"03","name":"Niedersachsen"}},{"name":"Baukamp","postalCode":"32257","locality":"Bünde","municipality":{"key":"05758004","name":"Bünde, Stadt","type":"Stadt"},"district":{"key":"05758","name":"Herford","type":"Kreis"},"federalState":{"key":"05","name":"Nordrhein-Westfalen"}},{"name":"Beethovenstr.","postalCode":"32257","locality":"Bünde","municipality":{"key":"05758004","name":"Bünde, Stadt","type":"Stadt"},"district":{"key":"05758","name":"Herford","type":"Kreis"},"federalState":{"key":"05","name":"Nordrhein-Westfalen"}},{"name":"Bergengruenstr.","postalCode":"32257","locality":"Bünde","municipality":{"key":"05758004","name":"Bünde, Stadt","type":"Stadt"},"district":{"key":"05758","name":"Herford","type":"Kreis"},"federalState":{"key":"05","name":"Nordrhein-Westfalen"}},{"name":"Bergstr.","postalCode":"32257","locality":"Bünde","municipality":{"key":"05758004","name":"Bünde, Stadt","type":"Stadt"},"district":{"key":"05758","name":"Herford","type":"Kreis"},"federalState":{"key":"05","name":"Nordrhein-Westfalen"}},{"name":"Billerkeweg","postalCode":"32257","locality":"Bünde","municipality":{"key":"05758004","name":"Bünde, Stadt","type":"Stadt"},"district":{"key":"05758","name":"Herford","type":"Kreis"},"federalState":{"key":"05","name":"Nordrhein-Westfalen"}},{"name":"Birkeneck","postalCode":"27386","locality":"Hemsbünde","municipality":{"key":"03357024","name":"Hemsbünde","type":"Kreisangehörige_Gemeinde"},"district":{"key":"03357","name":"Rotenburg (Wümme)","type":"Landkreis"},"federalState":{"key":"03","name":"Niedersachsen"}},{"name":"Birkenstr.","postalCode":"32257","locality":"Bünde","municipality":{"key":"05758004","name":"Bünde, Stadt","type":"Stadt"},"district":{"key":"05758","name":"Herford","type":"Kreis"},"federalState":{"key":"05","name":"Nordrhein-Westfalen"}},{"name":"Bismarckstr.","postalCode":"32257","locality":"Bünde","municipality":{"key":"05758004","name":"Bünde, Stadt","type":"Stadt"},"district":{"key":"05758","name":"Herford","type":"Kreis"},"federalState":{"key":"05","name":"Nordrhein-Westfalen"}},{"name":"Blankener Str.","postalCode":"32257","locality":"Bünde","municipality":{"key":"05758004","name":"Bünde, Stadt","type":"Stadt"},"district":{"key":"05758","name":"Herford","type":"Kreis"},"federalState":{"key":"05","name":"Nordrhein-Westfalen"}},{"name":"Blumenstr.","postalCode":"32257","locality":"Bünde","municipality":{"key":"05758004","name":"Bünde, Stadt","type":"Stadt"},"district":{"key":"05758","name":"Herford","type":"Kreis"},"federalState":{"key":"05","name":"Nordrhein-Westfalen"}},{"name":"Bodelschwinghstr.","postalCode":"32257","locality":"Bünde","municipality":{"key":"05758004","name":"Bünde, Stadt","type":"Stadt"},"district":{"key":"05758","name":"Herford","type":"Kreis"},"federalState":{"key":"05","name":"Nordrhein-Westfalen"}},{"name":"Bogenstr.","postalCode":"32257","locality":"Bünde","municipality":{"key":"05758004","name":"Bünde, Stadt","type":"Stadt"},"district":{"key":"05758","name":"Herford","type":"Kreis"},"federalState":{"key":"05","name":"Nordrhein-Westfalen"}},{"name":"Bohnenstr.","postalCode":"32257","locality":"Bünde","municipality":{"key":"05758004","name":"Bünde, Stadt","type":"Stadt"},"district":{"key":"05758","name":"Herford","type":"Kreis"},"federalState":{"key":"05","name":"Nordrhein-Westfalen"}},{"name":"Borrenkampstr.","postalCode":"32257","locality":"Bünde","municipality":{"key":"05758004","name":"Bünde, Stadt","type":"Stadt"},"district":{"key":"05758","name":"Herford","type":"Kreis"},"federalState":{"key":"05","name":"Nordrhein-Westfalen"}},{"name":"Borriesstr.","postalCode":"32257","locality":"Bünde","municipality":{"key":"05758004","name":"Bünde, Stadt","type":"Stadt"},"district":{"key":"05758","name":"Herford","type":"Kreis"},"federalState":{"key":"05","name":"Nordrhein-Westfalen"}},{"name":"Boschstr.","postalCode":"32257","locality":"Bünde","municipality":{"key":"05758004","name":"Bünde, Stadt","type":"Stadt"},"district":{"key":"05758","name":"Herford","type":"Kreis"},"federalState":{"key":"05","name":"Nordrhein-Westfalen"}},{"name":"Bösebergweg","postalCode":"32257","locality":"Bünde","municipality":{"key":"05758004","name":"Bünde, Stadt","type":"Stadt"},"district":{"key":"05758","name":"Herford","type":"Kreis"},"federalState":{"key":"05","name":"Nordrhein-Westfalen"}},{"name":"Brandhofstr.","postalCode":"32257","locality":"Bünde","municipality":{"key":"05758004","name":"Bünde, Stadt","type":"Stadt"},"district":{"key":"05758","name":"Herford","type":"Kreis"},"federalState":{"key":"05","name":"Nordrhein-Westfalen"}},{"name":"Brauksbrink","postalCode":"32257","locality":"Bünde","municipality":{"key":"05758004","name":"Bünde, Stadt","type":"Stadt"},"district":{"key":"05758","name":"Herford","type":"Kreis"},"federalState":{"key":"05","name":"Nordrhein-Westfalen"}},{"name":"Brechtstr.","postalCode":"32257","locality":"Bünde","municipality":{"key":"05758004","name":"Bünde, Stadt","type":"Stadt"},"district":{"key":"05758","name":"Herford","type":"Kreis"},"federalState":{"key":"05","name":"Nordrhein-Westfalen"}},{"name":"Breedestr.","postalCode":"32257","locality":"Bünde","municipality":{"key":"05758004","name":"Bünde, Stadt","type":"Stadt"},"district":{"key":"05758","name":"Herford","type":"Kreis"},"federalState":{"key":"05","name":"Nordrhein-Westfalen"}},{"name":"Breite Str.","postalCode":"32257","locality":"Bünde","municipality":{"key":"05758004","name":"Bünde, Stadt","type":"Stadt"},"district":{"key":"05758","name":"Herford","type":"Kreis"},"federalState":{"key":"05","name":"Nordrhein-Westfalen"}},{"name":"Bremer Str.","postalCode":"32257","locality":"Bünde","municipality":{"key":"05758004","name":"Bünde, Stadt","type":"Stadt"},"district":{"key":"05758","name":"Herford","type":"Kreis"},"federalState":{"key":"05","name":"Nordrhein-Westfalen"}},{"name":"Breslauer Str.","postalCode":"32257","locality":"Bünde","municipality":{"key":"05758004","name":"Bünde, Stadt","type":"Stadt"},"district":{"key":"05758","name":"Herford","type":"Kreis"},"federalState":{"key":"05","name":"Nordrhein-Westfalen"}},{"name":"Bruchweg","postalCode":"27386","locality":"Hemsbünde","municipality":{"key":"03357024","name":"Hemsbünde","type":"Kreisangehörige_Gemeinde"},"district":{"key":"03357","name":"Rotenburg (Wümme)","type":"Landkreis"},"federalState":{"key":"03","name":"Niedersachsen"}},{"name":"Brucknerstr.","postalCode":"32257","locality":"Bünde","municipality":{"key":"05758004","name":"Bünde, Stadt","type":"Stadt"},"district":{"key":"05758","name":"Herford","type":"Kreis"},"federalState":{"key":"05","name":"Nordrhein-Westfalen"}},{"name":"Brüggefeldweg","postalCode":"27386","locality":"Hemsbünde","municipality":{"key":"03357024","name":"Hemsbünde","type":"Kreisangehörige_Gemeinde"},"district":{"key":"03357","name":"Rotenburg (Wümme)","type":"Landkreis"},"federalState":{"key":"03","name":"Niedersachsen"}},{"name":"Brunestr.","postalCode":"32257","locality":"Bünde","municipality":{"key":"05758004","name":"Bünde, Stadt","type":"Stadt"},"district":{"key":"05758","name":"Herford","type":"Kreis"},"federalState":{"key":"05","name":"Nordrhein-Westfalen"}},{"name":"Brunnenallee","postalCode":"32257","locality":"Bünde","municipality":{"key":"05758004","name":"Bünde, Stadt","type":"Stadt"},"district":{"key":"05758","name":"Herford","type":"Kreis"},"federalState":{"key":"05","name":"Nordrhein-Westfalen"}},{"name":"Bukower Str.","postalCode":"32257","locality":"Bünde","municipality":{"key":"05758004","name":"Bünde, Stadt","type":"Stadt"},"district":{"key":"05758","name":"Herford","type":"Kreis"},"federalState":{"key":"05","name":"Nordrhein-Westfalen"}},{"name":"Bültstr.","postalCode":"32257","locality":"Bünde","municipality":{"key":"05758004","name":"Bünde, Stadt","type":"Stadt"},"district":{"key":"05758","name":"Herford","type":"Kreis"},"federalState":{"key":"05","name":"Nordrhein-Westfalen"}},{"name":"Bünder Welle","postalCode":"32257","locality":"Bünde","municipality":{"key":"05758004","name":"Bünde, Stadt","type":"Stadt"},"district":{"key":"05758","name":"Herford","type":"Kreis"},"federalState":{"key":"05","name":"Nordrhein-Westfalen"}},{"name":"Burgastr.","postalCode":"32257","locality":"Bünde","municipality":{"key":"05758004","name":"Bünde, Stadt","type":"Stadt"},"district":{"key":"05758","name":"Herford","type":"Kreis"},"federalState":{"key":"05","name":"Nordrhein-Westfalen"}},{"name":"Buschstr.","postalCode":"32257","locality":"Bünde","municipality":{"key":"05758004","name":"Bünde, Stadt","type":"Stadt"},"district":{"key":"05758","name":"Herford","type":"Kreis"},"federalState":{"key":"05","name":"Nordrhein-Westfalen"}},{"name":"Büssingstr.","postalCode":"32257","locality":"Bünde","municipality":{"key":"05758004","name":"Bünde, Stadt","type":"Stadt"},"district":{"key":"05758","name":"Herford","type":"Kreis"},"federalState":{"key":"05","name":"Nordrhein-Westfalen"}},{"name":"Bustedter Kämpe","postalCode":"32257","locality":"Bünde","municipality":{"key":"05758004","name":"Bünde, Stadt","type":"Stadt"},"district":{"key":"05758","name":"Herford","type":"Kreis"},"federalState":{"key":"05","name":"Nordrhein-Westfalen"}},{"name":"Bustedter Str.","postalCode":"32257","locality":"Bünde","municipality":{"key":"05758004","name":"Bünde, Stadt","type":"Stadt"},"district":{"key":"05758","name":"Herford","type":"Kreis"},"federalState":{"key":"05","name":"Nordrhein-Westfalen"}},{"name":"Bustedter Weg","postalCode":"32257","locality":"Bünde","municipality":{"key":"05758004","name":"Bünde, Stadt","type":"Stadt"},"district":{"key":"05758","name":"Herford","type":"Kreis"},"federalState":{"key":"05","name":"Nordrhein-Westfalen"}},{"name":"Carl-Diem-Str.","postalCode":"32257","locality":"Bünde","municipality":{"key":"05758004","name":"Bünde, Stadt","type":"Stadt"},"district":{"key":"05758","name":"Herford","type":"Kreis"},"federalState":{"key":"05","name":"Nordrhein-Westfalen"}},{"name":"Claudiusstr.","postalCode":"32257","locality":"Bünde","municipality":{"key":"05758004","name":"Bünde, Stadt","type":"Stadt"},"district":{"key":"05758","name":"Herford","type":"Kreis"},"federalState":{"key":"05","name":"Nordrhein-Westfalen"}},{"name":"Cranachstr.","postalCode":"32257","locality":"Bünde","municipality":{"key":"05758004","name":"Bünde, Stadt","type":"Stadt"},"district":{"key":"05758","name":"Herford","type":"Kreis"},"federalState":{"key":"05","name":"Nordrhein-Westfalen"}},{"name":"Daimlerstr.","postalCode":"32257","locality":"Bünde","municipality":{"key":"05758004","name":"Bünde, Stadt","type":"Stadt"},"district":{"key":"05758","name":"Herford","type":"Kreis"},"federalState":{"key":"05","name":"Nordrhein-Westfalen"}},{"name":"Dammstr.","postalCode":"32257","locality":"Bünde","municipality":{"key":"05758004","name":"Bünde, Stadt","type":"Stadt"},"district":{"key":"05758","name":"Herford","type":"Kreis"},"federalState":{"key":"05","name":"Nordrhein-Westfalen"}},{"name":"Dehmelstr.","postalCode":"32257","locality":"Bünde","municipality":{"key":"05758004","name":"Bünde, Stadt","type":"Stadt"},"district":{"key":"05758","name":"Herford","type":"Kreis"},"federalState":{"key":"05","name":"Nordrhein-Westfalen"}},{"name":"Diegerkamp","postalCode":"32257","locality":"Bünde","municipality":{"key":"05758004","name":"Bünde, Stadt","type":"Stadt"},"district":{"key":"05758","name":"Herford","type":"Kreis"},"federalState":{"key":"05","name":"Nordrhein-Westfalen"}},{"name":"Dieselstr.","postalCode":"32257","locality":"Bünde","municipality":{"key":"05758004","name":"Bünde, Stadt","type":"Stadt"},"district":{"key":"05758","name":"Herford","type":"Kreis"},"federalState":{"key":"05","name":"Nordrhein-Westfalen"}},{"name":"Dillenbreede","postalCode":"32257","locality":"Bünde","municipality":{"key":"05758004","name":"Bünde, Stadt","type":"Stadt"},"district":{"key":"05758","name":"Herford","type":"Kreis"},"federalState":{"key":"05","name":"Nordrhein-Westfalen"}},{"name":"Dinkelstr.","postalCode":"32257","locality":"Bünde","municipality":{"key":"05758004","name":"Bünde, Stadt","type":"Stadt"},"district":{"key":"05758","name":"Herford","type":"Kreis"},"federalState":{"key":"05","name":"Nordrhein-Westfalen"}},{"name":"Dobergstr.","postalCode":"32257","locality":"Bünde","municipality":{"key":"05758004","name":"Bünde, Stadt","type":"Stadt"},"district":{"key":"05758","name":"Herford","type":"Kreis"},"federalState":{"key":"05","name":"Nordrhein-Westfalen"}},{"name":"Domagkstr.","postalCode":"32257","locality":"Bünde","municipality":{"key":"05758004","name":"Bünde, Stadt","type":"Stadt"},"district":{"key":"05758","name":"Herford","type":"Kreis"},"federalState":{"key":"05","name":"Nordrhein-Westfalen"}},{"name":"Dorfstr.","postalCode":"27386","locality":"Hemsbünde","municipality":{"key":"03357024","name":"Hemsbünde","type":"Kreisangehörige_Gemeinde"},"district":{"key":"03357","name":"Rotenburg (Wümme)","type":"Landkreis"},"federalState":{"key":"03","name":"Niedersachsen"}},{"name":"Drögekamp","postalCode":"27386","locality":"Hemsbünde","municipality":{"key":"03357024","name":"Hemsbünde","type":"Kreisangehörige_Gemeinde"},"district":{"key":"03357","name":"Rotenburg (Wümme)","type":"Landkreis"},"federalState":{"key":"03","name":"Niedersachsen"}},{"name":"Düllerstr.","postalCode":"32257","locality":"Bünde","municipality":{"key":"05758004","name":"Bünde, Stadt","type":"Stadt"},"district":{"key":"05758","name":"Herford","type":"Kreis"},"federalState":{"key":"05","name":"Nordrhein-Westfalen"}},{"name":"Dünner Str.","postalCode":"32257","locality":"Bünde","municipality":{"key":"05758004","name":"Bünde, Stadt","type":"Stadt"},"district":{"key":"05758","name":"Herford","type":"Kreis"},"federalState":{"key":"05","name":"Nordrhein-Westfalen"}},{"name":"Dürerstr.","postalCode":"32257","locality":"Bünde","municipality":{"key":"05758004","name":"Bünde, Stadt","type":"Stadt"},"district":{"key":"05758","name":"Herford","type":"Kreis"},"federalState":{"key":"05","name":"Nordrhein-Westfalen"}},{"name":"Düsternkamp","postalCode":"32257","locality":"Bünde","municipality":{"key":"05758004","name":"Bünde, Stadt","type":"Stadt"},"district":{"key":"05758","name":"Herford","type":"Kreis"},"federalState":{"key":"05","name":"Nordrhein-Westfalen"}},{"name":"Dustholz","postalCode":"32257","locality":"Bünde","municipality":{"key":"05758004","name":"Bünde, Stadt","type":"Stadt"},"district":{"key":"05758","name":"Herford","type":"Kreis"},"federalState":{"key":"05","name":"Nordrhein-Westfalen"}},{"name":"Dustholzstr.","postalCode":"32257","locality":"Bünde","municipality":{"key":"05758004","name":"Bünde, Stadt","type":"Stadt"},"district":{"key":"05758","name":"Herford","type":"Kreis"},"federalState":{"key":"05","name":"Nordrhein-Westfalen"}},{"name":"Eichfeldstr.","postalCode":"32257","locality":"Bünde","municipality":{"key":"05758004","name":"Bünde, Stadt","type":"Stadt"},"district":{"key":"05758","name":"Herford","type":"Kreis"},"federalState":{"key":"05","name":"Nordrhein-Westfalen"}},{"name":"Eichholzstr.","postalCode":"32257","locality":"Bünde","municipality":{"key":"05758004","name":"Bünde, Stadt","type":"Stadt"},"district":{"key":"05758","name":"Herford","type":"Kreis"},"federalState":{"key":"05","name":"Nordrhein-Westfalen"}},{"name":"Eifelweg","postalCode":"32257","locality":"Bünde","municipality":{"key":"05758004","name":"Bünde, Stadt","type":"Stadt"},"district":{"key":"05758","name":"Herford","type":"Kreis"},"federalState":{"key":"05","name":"Nordrhein-Westfalen"}},{"name":"Ella-Ruben-Str.","postalCode":"32257","locality":"Bünde","municipality":{"key":"05758004","name":"Bünde, Stadt","type":"Stadt"},"district":{"key":"05758","name":"Herford","type":"Kreis"},"federalState":{"key":"05","name":"Nordrhein-Westfalen"}},{"name":"Ellernkamp","postalCode":"32257","locality":"Bünde","municipality":{"key":"05758004","name":"Bünde, Stadt","type":"Stadt"},"district":{"key":"05758","name":"Herford","type":"Kreis"},"federalState":{"key":"05","name":"Nordrhein-Westfalen"}},{"name":"Ellersiekstr.","postalCode":"32257","locality":"Bünde","municipality":{"key":"05758004","name":"Bünde, Stadt","type":"Stadt"},"district":{"key":"05758","name":"Herford","type":"Kreis"},"federalState":{"key":"05","name":"Nordrhein-Westfalen"}},{"name":"Elsa-Brandström-Str.","postalCode":"32257","locality":"Bünde","municipality":{"key":"05758004","name":"Bünde, Stadt","type":"Stadt"},"district":{"key":"05758","name":"Herford","type":"Kreis"},"federalState":{"key":"05","name":"Nordrhein-Westfalen"}},{"name":"Elsedamm","postalCode":"32257","locality":"Bünde","municipality":{"key":"05758004","name":"Bünde, Stadt","type":"Stadt"},"district":{"key":"05758","name":"Herford","type":"Kreis"},"federalState":{"key":"05","name":"Nordrhein-Westfalen"}},{"name":"Elsemühlenweg","postalCode":"32257","locality":"Bünde","municipality":{"key":"05758004","name":"Bünde, Stadt","type":"Stadt"},"district":{"key":"05758","name":"Herford","type":"Kreis"},"federalState":{"key":"05","name":"Nordrhein-Westfalen"}},{"name":"Elsestr.","postalCode":"32257","locality":"Bünde","municipality":{"key":"05758004","name":"Bünde, Stadt","type":"Stadt"},"district":{"key":"05758","name":"Herford","type":"Kreis"},"federalState":{"key":"05","name":"Nordrhein-Westfalen"}},{"name":"Elysiumstr.","postalCode":"32257","locality":"Bünde","municipality":{"key":"05758004","name":"Bünde, Stadt","type":"Stadt"},"district":{"key":"05758","name":"Herford","type":"Kreis"},"federalState":{"key":"05","name":"Nordrhein-Westfalen"}},{"name":"Emil-Fischer-Weg","postalCode":"32257","locality":"Bünde","municipality":{"key":"05758004","name":"Bünde, Stadt","type":"Stadt"},"district":{"key":"05758","name":"Herford","type":"Kreis"},"federalState":{"key":"05","name":"Nordrhein-Westfalen"}},{"name":"Engelmannstr.","postalCode":"32257","locality":"Bünde","municipality":{"key":"05758004","name":"Bünde, Stadt","type":"Stadt"},"district":{"key":"05758","name":"Herford","type":"Kreis"},"federalState":{"key":"05","name":"Nordrhein-Westfalen"}},{"name":"Engerstr.","postalCode":"32257","locality":"Bünde","municipality":{"key":"05758004","name":"Bünde, Stadt","type":"Stadt"},"district":{"key":"05758","name":"Herford","type":"Kreis"},"federalState":{"key":"05","name":"Nordrhein-Westfalen"}},{"name":"Enge Str.","postalCode":"32257","locality":"Bünde","municipality":{"key":"05758004","name":"Bünde, Stadt","type":"Stadt"},"district":{"key":"05758","name":"Herford","type":"Kreis"},"federalState":{"key":"05","name":"Nordrhein-Westfalen"}},{"name":"Erich-Martens-Str.","postalCode":"32257","locality":"Bünde","municipality":{"key":"05758004","name":"Bünde, Stadt","type":"Stadt"},"district":{"key":"05758","name":"Herford","type":"Kreis"},"federalState":{"key":"05","name":"Nordrhein-Westfalen"}},{"name":"Erlenstr.","postalCode":"32257","locality":"Bünde","municipality":{"key":"05758004","name":"Bünde, Stadt","type":"Stadt"},"district":{"key":"05758","name":"Herford","type":"Kreis"},"federalState":{"key":"05","name":"Nordrhein-Westfalen"}},{"name":"Ernst-Reuter-Str.","postalCode":"32257","locality":"Bünde","municipality":{"key":"05758004","name":"Bünde, Stadt","type":"Stadt"},"district":{"key":"05758","name":"Herford","type":"Kreis"},"federalState":{"key":"05","name":"Nordrhein-Westfalen"}},{"name":"Eschstr.","postalCode":"32257","locality":"Bünde","municipality":{"key":"05758004","name":"Bünde, Stadt","type":"Stadt"},"district":{"key":"05758","name":"Herford","type":"Kreis"},"federalState":{"key":"05","name":"Nordrhein-Westfalen"}},{"name":"Eskerheide","postalCode":"32257","locality":"Bünde","municipality":{"key":"05758004","name":"Bünde, Stadt","type":"Stadt"},"district":{"key":"05758","name":"Herford","type":"Kreis"},"federalState":{"key":"05","name":"Nordrhein-Westfalen"}},{"name":"Espenstr.","postalCode":"32257","locality":"Bünde","municipality":{"key":"05758004","name":"Bünde, Stadt","type":"Stadt"},"district":{"key":"05758","name":"Herford","type":"Kreis"},"federalState":{"key":"05","name":"Nordrhein-Westfalen"}},{"name":"Espernfeldweg","postalCode":"27386","locality":"Hemsbünde","municipality":{"key":"03357024","name":"Hemsbünde","type":"Kreisangehörige_Gemeinde"},"district":{"key":"03357","name":"Rotenburg (Wümme)","type":"Landkreis"},"federalState":{"key":"03","name":"Niedersachsen"}},{"name":"Fahrenkampstr.","postalCode":"32257","locality":"Bünde","municipality":{"key":"05758004","name":"Bünde, Stadt","type":"Stadt"},"district":{"key":"05758","name":"Herford","type":"Kreis"},"federalState":{"key":"05","name":"Nordrhein-Westfalen"}},{"name":"Falkenweg","postalCode":"27386","locality":"Hemsbünde","municipality":{"key":"03357024","name":"Hemsbünde","type":"Kreisangehörige_Gemeinde"},"district":{"key":"03357","name":"Rotenburg (Wümme)","type":"Landkreis"},"federalState":{"key":"03","name":"Niedersachsen"}},{"name":"Feldstr.","postalCode":"32257","locality":"Bünde","municipality":{"key":"05758004","name":"Bünde, Stadt","type":"Stadt"},"district":{"key":"05758","name":"Herford","type":"Kreis"},"federalState":{"key":"05","name":"Nordrhein-Westfalen"}},{"name":"Fichtestr.","postalCode":"32257","locality":"Bünde","municipality":{"key":"05758004","name":"Bünde, Stadt","type":"Stadt"},"district":{"key":"05758","name":"Herford","type":"Kreis"},"federalState":{"key":"05","name":"Nordrhein-Westfalen"}},{"name":"Fiskusweg","postalCode":"32257","locality":"Bünde","municipality":{"key":"05758004","name":"Bünde, Stadt","type":"Stadt"},"district":{"key":"05758","name":"Herford","type":"Kreis"},"federalState":{"key":"05","name":"Nordrhein-Westfalen"}},{"name":"Flachhofstr.","postalCode":"32257","locality":"Bünde","municipality":{"key":"05758004","name":"Bünde, Stadt","type":"Stadt"},"district":{"key":"05758","name":"Herford","type":"Kreis"},"federalState":{"key":"05","name":"Nordrhein-Westfalen"}},{"name":"Fliederstr.","postalCode":"32257","locality":"Bünde","municipality":{"key":"05758004","name":"Bünde, Stadt","type":"Stadt"},"district":{"key":"05758","name":"Herford","type":"Kreis"},"federalState":{"key":"05","name":"Nordrhein-Westfalen"}},{"name":"Florastr.","postalCode":"32257","locality":"Bünde","municipality":{"key":"05758004","name":"Bünde, Stadt","type":"Stadt"},"district":{"key":"05758","name":"Herford","type":"Kreis"},"federalState":{"key":"05","name":"Nordrhein-Westfalen"}},{"name":"Föhrenstr.","postalCode":"32257","locality":"Bünde","municipality":{"key":"05758004","name":"Bünde, Stadt","type":"Stadt"},"district":{"key":"05758","name":"Herford","type":"Kreis"},"federalState":{"key":"05","name":"Nordrhein-Westfalen"}},{"name":"Fontanestr.","postalCode":"32257","locality":"Bünde","municipality":{"key":"05758004","name":"Bünde, Stadt","type":"Stadt"},"district":{"key":"05758","name":"Herford","type":"Kreis"},"federalState":{"key":"05","name":"Nordrhein-Westfalen"}},{"name":"Frankenstr.","postalCode":"32257","locality":"Bünde","municipality":{"key":"05758004","name":"Bünde, Stadt","type":"Stadt"},"district":{"key":"05758","name":"Herford","type":"Kreis"},"federalState":{"key":"05","name":"Nordrhein-Westfalen"}},{"name":"Franziska-Spiegel-Str.","postalCode":"32257","locality":"Bünde","municipality":{"key":"05758004","name":"Bünde, Stadt","type":"Stadt"},"district":{"key":"05758","name":"Herford","type":"Kreis"},"federalState":{"key":"05","name":"Nordrhein-Westfalen"}},{"name":"Friedenstr.","postalCode":"32257","locality":"Bünde","municipality":{"key":"05758004","name":"Bünde, Stadt","type":"Stadt"},"district":{"key":"05758","name":"Herford","type":"Kreis"},"federalState":{"key":"05","name":"Nordrhein-Westfalen"}},{"name":"Friedhofstr.","postalCode":"32257","locality":"Bünde","municipality":{"key":"05758004","name":"Bünde, Stadt","type":"Stadt"},"district":{"key":"05758","name":"Herford","type":"Kreis"},"federalState":{"key":"05","name":"Nordrhein-Westfalen"}},{"name":"Friedrich-Ebert-Str.","postalCode":"32257","locality":"Bünde","municipality":{"key":"05758004","name":"Bünde, Stadt","type":"Stadt"},"district":{"key":"05758","name":"Herford","type":"Kreis"},"federalState":{"key":"05","name":"Nordrhein-Westfalen"}},{"name":"Friedrich-Langewiesche-Weg","postalCode":"32257","locality":"Bünde","municipality":{"key":"05758004","name":"Bünde, Stadt","type":"Stadt"},"district":{"key":"05758","name":"Herford","type":"Kreis"},"federalState":{"key":"05","name":"Nordrhein-Westfalen"}},{"name":"Friedrich-List-Str.","postalCode":"32257","locality":"Bünde","municipality":{"key":"05758004","name":"Bünde, Stadt","type":"Stadt"},"district":{"key":"05758","name":"Herford","type":"Kreis"},"federalState":{"key":"05","name":"Nordrhein-Westfalen"}},{"name":"Friedrich-Naumann-Weg","postalCode":"32257","locality":"Bünde","municipality":{"key":"05758004","name":"Bünde, Stadt","type":"Stadt"},"district":{"key":"05758","name":"Herford","type":"Kreis"},"federalState":{"key":"05","name":"Nordrhein-Westfalen"}},{"name":"Friedrichstr.","postalCode":"32257","locality":"Bünde","municipality":{"key":"05758004","name":"Bünde, Stadt","type":"Stadt"},"district":{"key":"05758","name":"Herford","type":"Kreis"},"federalState":{"key":"05","name":"Nordrhein-Westfalen"}},{"name":"Friedrich-Wilhelm-Weber-Str.","postalCode":"32257","locality":"Bünde","municipality":{"key":"05758004","name":"Bünde, Stadt","type":"Stadt"},"district":{"key":"05758","name":"Herford","type":"Kreis"},"federalState":{"key":"05","name":"Nordrhein-Westfalen"}},{"name":"Fritz-Erler-Str.","postalCode":"32257","locality":"Bünde","municipality":{"key":"05758004","name":"Bünde, Stadt","type":"Stadt"},"district":{"key":"05758","name":"Herford","type":"Kreis"},"federalState":{"key":"05","name":"Nordrhein-Westfalen"}},{"name":"Fünfhausenstr.","postalCode":"32257","locality":"Bünde","municipality":{"key":"05758004","name":"Bünde, Stadt","type":"Stadt"},"district":{"key":"05758","name":"Herford","type":"Kreis"},"federalState":{"key":"05","name":"Nordrhein-Westfalen"}},{"name":"Galileistr.","postalCode":"32257","locality":"Bünde","municipality":{"key":"05758004","name":"Bünde, Stadt","type":"Stadt"},"district":{"key":"05758","name":"Herford","type":"Kreis"},"federalState":{"key":"05","name":"Nordrhein-Westfalen"}},{"name":"Gartenweg","postalCode":"32257","locality":"Bünde","municipality":{"key":"05758004","name":"Bünde, Stadt","type":"Stadt"},"district":{"key":"05758","name":"Herford","type":"Kreis"},"federalState":{"key":"05","name":"Nordrhein-Westfalen"}},{"name":"Gasstr.","postalCode":"32257","locality":"Bünde","municipality":{"key":"05758004","name":"Bünde, Stadt","type":"Stadt"},"district":{"key":"05758","name":"Herford","type":"Kreis"},"federalState":{"key":"05","name":"Nordrhein-Westfalen"}},{"name":"Gatower Str.","postalCode":"32257","locality":"Bünde","municipality":{"key":"05758004","name":"Bünde, Stadt","type":"Stadt"},"district":{"key":"05758","name":"Herford","type":"Kreis"},"federalState":{"key":"05","name":"Nordrhein-Westfalen"}},{"name":"Gebrüder-Grimm-Str.","postalCode":"32257","locality":"Bünde","municipality":{"key":"05758004","name":"Bünde, Stadt","type":"Stadt"},"district":{"key":"05758","name":"Herford","type":"Kreis"},"federalState":{"key":"05","name":"Nordrhein-Westfalen"}},{"name":"Georg-Cantor-Str.","postalCode":"32257","locality":"Bünde","municipality":{"key":"05758004","name":"Bünde, Stadt","type":"Stadt"},"district":{"key":"05758","name":"Herford","type":"Kreis"},"federalState":{"key":"05","name":"Nordrhein-Westfalen"}},{"name":"Geranienstr.","postalCode":"32257","locality":"Bünde","municipality":{"key":"05758004","name":"Bünde, Stadt","type":"Stadt"},"district":{"key":"05758","name":"Herford","type":"Kreis"},"federalState":{"key":"05","name":"Nordrhein-Westfalen"}},{"name":"Gerhart-Hauptmann-Str.","postalCode":"32257","locality":"Bünde","municipality":{"key":"05758004","name":"Bünde, Stadt","type":"Stadt"},"district":{"key":"05758","name":"Herford","type":"Kreis"},"federalState":{"key":"05","name":"Nordrhein-Westfalen"}},{"name":"Gerstenfeld","postalCode":"32257","locality":"Bünde","municipality":{"key":"05758004","name":"Bünde, Stadt","type":"Stadt"},"district":{"key":"05758","name":"Herford","type":"Kreis"},"federalState":{"key":"05","name":"Nordrhein-Westfalen"}},{"name":"Geschwister-Scholl-Str.","postalCode":"32257","locality":"Bünde","municipality":{"key":"05758004","name":"Bünde, Stadt","type":"Stadt"},"district":{"key":"05758","name":"Herford","type":"Kreis"},"federalState":{"key":"05","name":"Nordrhein-Westfalen"}},{"name":"Geschwisterstr.","postalCode":"32257","locality":"Bünde","municipality":{"key":"05758004","name":"Bünde, Stadt","type":"Stadt"},"district":{"key":"05758","name":"Herford","type":"Kreis"},"federalState":{"key":"05","name":"Nordrhein-Westfalen"}},{"name":"Ginsterstr.","postalCode":"32257","locality":"Bünde","municipality":{"key":"05758004","name":"Bünde, Stadt","type":"Stadt"},"district":{"key":"05758","name":"Herford","type":"Kreis"},"federalState":{"key":"05","name":"Nordrhein-Westfalen"}},{"name":"Glockenheide","postalCode":"32257","locality":"Bünde","municipality":{"key":"05758004","name":"Bünde, Stadt","type":"Stadt"},"district":{"key":"05758","name":"Herford","type":"Kreis"},"federalState":{"key":"05","name":"Nordrhein-Westfalen"}},{"name":"Glogauer Str.","postalCode":"32257","locality":"Bünde","municipality":{"key":"05758004","name":"Bünde, Stadt","type":"Stadt"},"district":{"key":"05758","name":"Herford","type":"Kreis"},"federalState":{"key":"05","name":"Nordrhein-Westfalen"}},{"name":"Goerdelerstr.","postalCode":"32257","locality":"Bünde","municipality":{"key":"05758004","name":"Bünde, Stadt","type":"Stadt"},"district":{"key":"05758","name":"Herford","type":"Kreis"},"federalState":{"key":"05","name":"Nordrhein-Westfalen"}},{"name":"Goetheplatz","postalCode":"32257","locality":"Bünde","municipality":{"key":"05758004","name":"Bünde, Stadt","type":"Stadt"},"district":{"key":"05758","name":"Herford","type":"Kreis"},"federalState":{"key":"05","name":"Nordrhein-Westfalen"}},{"name":"Grabbestr.","postalCode":"32257","locality":"Bünde","municipality":{"key":"05758004","name":"Bünde, Stadt","type":"Stadt"},"district":{"key":"05758","name":"Herford","type":"Kreis"},"federalState":{"key":"05","name":"Nordrhein-Westfalen"}},{"name":"Grabenstr.","postalCode":"32257","locality":"Bünde","municipality":{"key":"05758004","name":"Bünde, Stadt","type":"Stadt"},"district":{"key":"05758","name":"Herford","type":"Kreis"},"federalState":{"key":"05","name":"Nordrhein-Westfalen"}},{"name":"Grüner Weg","postalCode":"32257","locality":"Bünde","municipality":{"key":"05758004","name":"Bünde, Stadt","type":"Stadt"},"district":{"key":"05758","name":"Herford","type":"Kreis"},"federalState":{"key":"05","name":"Nordrhein-Westfalen"}},{"name":"Grünewaldstr.","postalCode":"32257","locality":"Bünde","municipality":{"key":"05758004","name":"Bünde, Stadt","type":"Stadt"},"district":{"key":"05758","name":"Herford","type":"Kreis"},"federalState":{"key":"05","name":"Nordrhein-Westfalen"}},{"name":"Gustav-Heinemann-Str.","postalCode":"32257","locality":"Bünde","municipality":{"key":"05758004","name":"Bünde, Stadt","type":"Stadt"},"district":{"key":"05758","name":"Herford","type":"Kreis"},"federalState":{"key":"05","name":"Nordrhein-Westfalen"}},{"name":"Gutenbergstr.","postalCode":"32257","locality":"Bünde","municipality":{"key":"05758004","name":"Bünde, Stadt","type":"Stadt"},"district":{"key":"05758","name":"Herford","type":"Kreis"},"federalState":{"key":"05","name":"Nordrhein-Westfalen"}},{"name":"Habichtweg","postalCode":"27386","locality":"Hemsbünde","municipality":{"key":"03357024","name":"Hemsbünde","type":"Kreisangehörige_Gemeinde"},"district":{"key":"03357","name":"Rotenburg (Wümme)","type":"Landkreis"},"federalState":{"key":"03","name":"Niedersachsen"}},{"name":"Habighorster Weg","postalCode":"32257","locality":"Bünde","municipality":{"key":"05758004","name":"Bünde, Stadt","type":"Stadt"},"district":{"key":"05758","name":"Herford","type":"Kreis"},"federalState":{"key":"05","name":"Nordrhein-Westfalen"}},{"name":"Haferkamp","postalCode":"32257","locality":"Bünde","municipality":{"key":"05758004","name":"Bünde, Stadt","type":"Stadt"},"district":{"key":"05758","name":"Herford","type":"Kreis"},"federalState":{"key":"05","name":"Nordrhein-Westfalen"}},{"name":"Hagenweg","postalCode":"32257","locality":"Bünde","municipality":{"key":"05758004","name":"Bünde, Stadt","type":"Stadt"},"district":{"key":"05758","name":"Herford","type":"Kreis"},"federalState":{"key":"05","name":"Nordrhein-Westfalen"}},{"name":"Hainbuchenweg","postalCode":"32257","locality":"Bünde","municipality":{"key":"05758004","name":"Bünde, Stadt","type":"Stadt"},"district":{"key":"05758","name":"Herford","type":"Kreis"},"federalState":{"key":"05","name":"Nordrhein-Westfalen"}},{"name":"Händelstr.","postalCode":"32257","locality":"Bünde","municipality":{"key":"05758004","name":"Bünde, Stadt","type":"Stadt"},"district":{"key":"05758","name":"Herford","type":"Kreis"},"federalState":{"key":"05","name":"Nordrhein-Westfalen"}},{"name":"Hanffeld","postalCode":"32257","locality":"Bünde","municipality":{"key":"05758004","name":"Bünde, Stadt","type":"Stadt"},"district":{"key":"05758","name":"Herford","type":"Kreis"},"federalState":{"key":"05","name":"Nordrhein-Westfalen"}},{"name":"Hangbaumstr.","postalCode":"32257","locality":"Bünde","municipality":{"key":"05758004","name":"Bünde, Stadt","type":"Stadt"},"district":{"key":"05758","name":"Herford","type":"Kreis"},"federalState":{"key":"05","name":"Nordrhein-Westfalen"}},{"name":"Hansastr.","postalCode":"32257","locality":"Bünde","municipality":{"key":"05758004","name":"Bünde, Stadt","type":"Stadt"},"district":{"key":"05758","name":"Herford","type":"Kreis"},"federalState":{"key":"05","name":"Nordrhein-Westfalen"}},{"name":"Hans-Böckler-Str.","postalCode":"32257","locality":"Bünde","municipality":{"key":"05758004","name":"Bünde, Stadt","type":"Stadt"},"district":{"key":"05758","name":"Herford","type":"Kreis"},"federalState":{"key":"05","name":"Nordrhein-Westfalen"}},{"name":"Hans-Sachs-Str.","postalCode":"32257","locality":"Bünde","municipality":{"key":"05758004","name":"Bünde, Stadt","type":"Stadt"},"district":{"key":"05758","name":"Herford","type":"Kreis"},"federalState":{"key":"05","name":"Nordrhein-Westfalen"}},{"name":"Hasenneststr.","postalCode":"32257","locality":"Bünde","municipality":{"key":"05758004","name":"Bünde, Stadt","type":"Stadt"},"district":{"key":"05758","name":"Herford","type":"Kreis"},"federalState":{"key":"05","name":"Nordrhein-Westfalen"}},{"name":"Hasseler Dorfstr.","postalCode":"27386","locality":"Hemsbünde","municipality":{"key":"03357024","name":"Hemsbünde","type":"Kreisangehörige_Gemeinde"},"district":{"key":"03357","name":"Rotenburg (Wümme)","type":"Landkreis"},"federalState":{"key":"03","name":"Niedersachsen"}},{"name":"Haßkampstr.","postalCode":"32257","locality":"Bünde","municipality":{"key":"05758004","name":"Bünde, Stadt","type":"Stadt"},"district":{"key":"05758","name":"Herford","type":"Kreis"},"federalState":{"key":"05","name":"Nordrhein-Westfalen"}},{"name":"Hastedter Weg","postalCode":"27386","locality":"Hemsbünde","municipality":{"key":"03357024","name":"Hemsbünde","type":"Kreisangehörige_Gemeinde"},"district":{"key":"03357","name":"Rotenburg (Wümme)","type":"Landkreis"},"federalState":{"key":"03","name":"Niedersachsen"}},{"name":"Hauptstr.","postalCode":"32257","locality":"Bünde","municipality":{"key":"05758004","name":"Bünde, Stadt","type":"Stadt"},"district":{"key":"05758","name":"Herford","type":"Kreis"},"federalState":{"key":"05","name":"Nordrhein-Westfalen"}},{"name":"Hederkottenweg","postalCode":"32257","locality":"Bünde","municipality":{"key":"05758004","name":"Bünde, Stadt","type":"Stadt"},"district":{"key":"05758","name":"Herford","type":"Kreis"},"federalState":{"key":"05","name":"Nordrhein-Westfalen"}},{"name":"Hegelstr.","postalCode":"32257","locality":"Bünde","municipality":{"key":"05758004","name":"Bünde, Stadt","type":"Stadt"},"district":{"key":"05758","name":"Herford","type":"Kreis"},"federalState":{"key":"05","name":"Nordrhein-Westfalen"}},{"name":"Heidestr.","postalCode":"32257","locality":"Bünde","municipality":{"key":"05758004","name":"Bünde, Stadt","type":"Stadt"},"district":{"key":"05758","name":"Herford","type":"Kreis"},"federalState":{"key":"05","name":"Nordrhein-Westfalen"}},{"name":"Heidkampstr.","postalCode":"32257","locality":"Bünde","municipality":{"key":"05758004","name":"Bünde, Stadt","type":"Stadt"},"district":{"key":"05758","name":"Herford","type":"Kreis"},"federalState":{"key":"05","name":"Nordrhein-Westfalen"}},{"name":"Heimstättenweg","postalCode":"32257","locality":"Bünde","municipality":{"key":"05758004","name":"Bünde, Stadt","type":"Stadt"},"district":{"key":"05758","name":"Herford","type":"Kreis"},"federalState":{"key":"05","name":"Nordrhein-Westfalen"}},{"name":"Heinestr.","postalCode":"32257","locality":"Bünde","municipality":{"key":"05758004","name":"Bünde, Stadt","type":"Stadt"},"district":{"key":"05758","name":"Herford","type":"Kreis"},"federalState":{"key":"05","name":"Nordrhein-Westfalen"}},{"name":"Heinrich-Lübke-Str.","postalCode":"32257","locality":"Bünde","municipality":{"key":"05758004","name":"Bünde, Stadt","type":"Stadt"},"district":{"key":"05758","name":"Herford","type":"Kreis"},"federalState":{"key":"05","name":"Nordrhein-Westfalen"}},{"name":"Heinrichstr.","postalCode":"32257","locality":"Bünde","municipality":{"key":"05758004","name":"Bünde, Stadt","type":"Stadt"},"district":{"key":"05758","name":"Herford","type":"Kreis"},"federalState":{"key":"05","name":"Nordrhein-Westfalen"}},{"name":"Heisenbergstr.","postalCode":"32257","locality":"Bünde","municipality":{"key":"05758004","name":"Bünde, Stadt","type":"Stadt"},"district":{"key":"05758","name":"Herford","type":"Kreis"},"federalState":{"key":"05","name":"Nordrhein-Westfalen"}},{"name":"Hellmannstr.","postalCode":"32257","locality":"Bünde","municipality":{"key":"05758004","name":"Bünde, Stadt","type":"Stadt"},"district":{"key":"05758","name":"Herford","type":"Kreis"},"federalState":{"key":"05","name":"Nordrhein-Westfalen"}},{"name":"Hengistweg","postalCode":"32257","locality":"Bünde","municipality":{"key":"05758004","name":"Bünde, Stadt","type":"Stadt"},"district":{"key":"05758","name":"Herford","type":"Kreis"},"federalState":{"key":"05","name":"Nordrhein-Westfalen"}},{"name":"Henschelstr.","postalCode":"32257","locality":"Bünde","municipality":{"key":"05758004","name":"Bünde, Stadt","type":"Stadt"},"district":{"key":"05758","name":"Herford","type":"Kreis"},"federalState":{"key":"05","name":"Nordrhein-Westfalen"}},{"name":"Herbert-Voß-Str.","postalCode":"32257","locality":"Bünde","municipality":{"key":"05758004","name":"Bünde, Stadt","type":"Stadt"},"district":{"key":"05758","name":"Herford","type":"Kreis"},"federalState":{"key":"05","name":"Nordrhein-Westfalen"}},{"name":"Herderstr.","postalCode":"32257","locality":"Bünde","municipality":{"key":"05758004","name":"Bünde, Stadt","type":"Stadt"},"district":{"key":"05758","name":"Herford","type":"Kreis"},"federalState":{"key":"05","name":"Nordrhein-Westfalen"}},{"name":"Herforder Str.","postalCode":"32257","locality":"Bünde","municipality":{"key":"05758004","name":"Bünde, Stadt","type":"Stadt"},"district":{"key":"05758","name":"Herford","type":"Kreis"},"federalState":{"key":"05","name":"Nordrhein-Westfalen"}},{"name":"Hermann-Hesse-Str.","postalCode":"32257","locality":"Bünde","municipality":{"key":"05758004","name":"Bünde, Stadt","type":"Stadt"},"district":{"key":"05758","name":"Herford","type":"Kreis"},"federalState":{"key":"05","name":"Nordrhein-Westfalen"}},{"name":"Hermann-Rosenberg-Str.","postalCode":"32257","locality":"Bünde","municipality":{"key":"05758004","name":"Bünde, Stadt","type":"Stadt"},"district":{"key":"05758","name":"Herford","type":"Kreis"},"federalState":{"key":"05","name":"Nordrhein-Westfalen"}},{"name":"Hermannstr.","postalCode":"32257","locality":"Bünde","municipality":{"key":"05758004","name":"Bünde, Stadt","type":"Stadt"},"district":{"key":"05758","name":"Herford","type":"Kreis"},"federalState":{"key":"05","name":"Nordrhein-Westfalen"}},{"name":"Herzogweg","postalCode":"32257","locality":"Bünde","municipality":{"key":"05758004","name":"Bünde, Stadt","type":"Stadt"},"district":{"key":"05758","name":"Herford","type":"Kreis"},"federalState":{"key":"05","name":"Nordrhein-Westfalen"}},{"name":"Heuerlingsstr.","postalCode":"32257","locality":"Bünde","municipality":{"key":"05758004","name":"Bünde, Stadt","type":"Stadt"},"district":{"key":"05758","name":"Herford","type":"Kreis"},"federalState":{"key":"05","name":"Nordrhein-Westfalen"}},{"name":"Hiddenhausener Str.","postalCode":"32257","locality":"Bünde","municipality":{"key":"05758004","name":"Bünde, Stadt","type":"Stadt"},"district":{"key":"05758","name":"Herford","type":"Kreis"},"federalState":{"key":"05","name":"Nordrhein-Westfalen"}},{"name":"Hindenburgstr.","postalCode":"32257","locality":"Bünde","municipality":{"key":"05758004","name":"Bünde, Stadt","type":"Stadt"},"district":{"key":"05758","name":"Herford","type":"Kreis"},"federalState":{"key":"05","name":"Nordrhein-Westfalen"}},{"name":"Hinterm Brüggefeld","postalCode":"27386","locality":"Hemsbünde","municipality":{"key":"03357024","name":"Hemsbünde","type":"Kreisangehörige_Gemeinde"},"district":{"key":"03357","name":"Rotenburg (Wümme)","type":"Landkreis"},"federalState":{"key":"03","name":"Niedersachsen"}},{"name":"Hirtenweg","postalCode":"32257","locality":"Bünde","municipality":{"key":"05758004","name":"Bünde, Stadt","type":"Stadt"},"district":{"key":"05758","name":"Herford","type":"Kreis"},"federalState":{"key":"05","name":"Nordrhein-Westfalen"}},{"name":"Hochstr.","postalCode":"32257","locality":"Bünde","municipality":{"key":"05758004","name":"Bünde, Stadt","type":"Stadt"},"district":{"key":"05758","name":"Herford","type":"Kreis"},"federalState":{"key":"05","name":"Nordrhein-Westfalen"}},{"name":"Holbeinstr.","postalCode":"32257","locality":"Bünde","municipality":{"key":"05758004","name":"Bünde, Stadt","type":"Stadt"},"district":{"key":"05758","name":"Herford","type":"Kreis"},"federalState":{"key":"05","name":"Nordrhein-Westfalen"}},{"name":"Holser Str.","postalCode":"32257","locality":"Bünde","municipality":{"key":"05758004","name":"Bünde, Stadt","type":"Stadt"},"district":{"key":"05758","name":"Herford","type":"Kreis"},"federalState":{"key":"05","name":"Nordrhein-Westfalen"}},{"name":"Holtkampstr.","postalCode":"32257","locality":"Bünde","municipality":{"key":"05758004","name":"Bünde, Stadt","type":"Stadt"},"district":{"key":"05758","name":"Herford","type":"Kreis"},"federalState":{"key":"05","name":"Nordrhein-Westfalen"}},{"name":"Holzhauser Str.","postalCode":"32257","locality":"Bünde","municipality":{"key":"05758004","name":"Bünde, Stadt","type":"Stadt"},"district":{"key":"05758","name":"Herford","type":"Kreis"},"federalState":{"key":"05","name":"Nordrhein-Westfalen"}},{"name":"Homannweg","postalCode":"32257","locality":"Bünde","municipality":{"key":"05758004","name":"Bünde, Stadt","type":"Stadt"},"district":{"key":"05758","name":"Herford","type":"Kreis"},"federalState":{"key":"05","name":"Nordrhein-Westfalen"}},{"name":"Hopfenstr.","postalCode":"32257","locality":"Bünde","municipality":{"key":"05758004","name":"Bünde, Stadt","type":"Stadt"},"district":{"key":"05758","name":"Herford","type":"Kreis"},"federalState":{"key":"05","name":"Nordrhein-Westfalen"}},{"name":"Horsastr.","postalCode":"32257","locality":"Bünde","municipality":{"key":"05758004","name":"Bünde, Stadt","type":"Stadt"},"district":{"key":"05758","name":"Herford","type":"Kreis"},"federalState":{"key":"05","name":"Nordrhein-Westfalen"}},{"name":"Hörsterbusch","postalCode":"32257","locality":"Bünde","municipality":{"key":"05758004","name":"Bünde, Stadt","type":"Stadt"},"district":{"key":"05758","name":"Herford","type":"Kreis"},"federalState":{"key":"05","name":"Nordrhein-Westfalen"}},{"name":"Horstfeldweg","postalCode":"27386","locality":"Hemsbünde","municipality":{"key":"03357024","name":"Hemsbünde","type":"Kreisangehörige_Gemeinde"},"district":{"key":"03357","name":"Rotenburg (Wümme)","type":"Landkreis"},"federalState":{"key":"03","name":"Niedersachsen"}},{"name":"Im Borrenkamp","postalCode":"32257","locality":"Bünde","municipality":{"key":"05758004","name":"Bünde, Stadt","type":"Stadt"},"district":{"key":"05758","name":"Herford","type":"Kreis"},"federalState":{"key":"05","name":"Nordrhein-Westfalen"}},{"name":"Im Eilen","postalCode":"32257","locality":"Bünde","municipality":{"key":"05758004","name":"Bünde, Stadt","type":"Stadt"},"district":{"key":"05758","name":"Herford","type":"Kreis"},"federalState":{"key":"05","name":"Nordrhein-Westfalen"}},{"name":"Im Ellerbusch","postalCode":"32257","locality":"Bünde","municipality":{"key":"05758004","name":"Bünde, Stadt","type":"Stadt"},"district":{"key":"05758","name":"Herford","type":"Kreis"},"federalState":{"key":"05","name":"Nordrhein-Westfalen"}},{"name":"Im Fiskus","postalCode":"32257","locality":"Bünde","municipality":{"key":"05758004","name":"Bünde, Stadt","type":"Stadt"},"district":{"key":"05758","name":"Herford","type":"Kreis"},"federalState":{"key":"05","name":"Nordrhein-Westfalen"}},{"name":"Im Hagen","postalCode":"27386","locality":"Hemsbünde","municipality":{"key":"03357024","name":"Hemsbünde","type":"Kreisangehörige_Gemeinde"},"district":{"key":"03357","name":"Rotenburg (Wümme)","type":"Landkreis"},"federalState":{"key":"03","name":"Niedersachsen"}},{"name":"Im Hundesloh","postalCode":"27386","locality":"Hemsbünde","municipality":{"key":"03357024","name":"Hemsbünde","type":"Kreisangehörige_Gemeinde"},"district":{"key":"03357","name":"Rotenburg (Wümme)","type":"Landkreis"},"federalState":{"key":"03","name":"Niedersachsen"}},{"name":"Im Kampe","postalCode":"32257","locality":"Bünde","municipality":{"key":"05758004","name":"Bünde, Stadt","type":"Stadt"},"district":{"key":"05758","name":"Herford","type":"Kreis"},"federalState":{"key":"05","name":"Nordrhein-Westfalen"}},{"name":"Im Krümpel","postalCode":"32257","locality":"Bünde","municipality":{"key":"05758004","name":"Bünde, Stadt","type":"Stadt"},"district":{"key":"05758","name":"Herford","type":"Kreis"},"federalState":{"key":"05","name":"Nordrhein-Westfalen"}},{"name":"Im Lohfelde","postalCode":"32257","locality":"Bünde","municipality":{"key":"05758004","name":"Bünde, Stadt","type":"Stadt"},"district":{"key":"05758","name":"Herford","type":"Kreis"},"federalState":{"key":"05","name":"Nordrhein-Westfalen"}},{"name":"Im Mühlenfeld","postalCode":"32257","locality":"Bünde","municipality":{"key":"05758004","name":"Bünde, Stadt","type":"Stadt"},"district":{"key":"05758","name":"Herford","type":"Kreis"},"federalState":{"key":"05","name":"Nordrhein-Westfalen"}},{"name":"Im Osteresch","postalCode":"32257","locality":"Bünde","municipality":{"key":"05758004","name":"Bünde, Stadt","type":"Stadt"},"district":{"key":"05758","name":"Herford","type":"Kreis"},"federalState":{"key":"05","name":"Nordrhein-Westfalen"}},{"name":"Imperialstr.","postalCode":"32257","locality":"Bünde","municipality":{"key":"05758004","name":"Bünde, Stadt","type":"Stadt"},"district":{"key":"05758","name":"Herford","type":"Kreis"},"federalState":{"key":"05","name":"Nordrhein-Westfalen"}},{"name":"Im Schierholz","postalCode":"32257","locality":"Bünde","municipality":{"key":"05758004","name":"Bünde, Stadt","type":"Stadt"},"district":{"key":"05758","name":"Herford","type":"Kreis"},"federalState":{"key":"05","name":"Nordrhein-Westfalen"}},{"name":"Im Stenderbusch","postalCode":"32257","locality":"Bünde","municipality":{"key":"05758004","name":"Bünde, Stadt","type":"Stadt"},"district":{"key":"05758","name":"Herford","type":"Kreis"},"federalState":{"key":"05","name":"Nordrhein-Westfalen"}},{"name":"Im Südbrock","postalCode":"32257","locality":"Bünde","municipality":{"key":"05758004","name":"Bünde, Stadt","type":"Stadt"},"district":{"key":"05758","name":"Herford","type":"Kreis"},"federalState":{"key":"05","name":"Nordrhein-Westfalen"}},{"name":"Im Sundern","postalCode":"32257","locality":"Bünde","municipality":{"key":"05758004","name":"Bünde, Stadt","type":"Stadt"},"district":{"key":"05758","name":"Herford","type":"Kreis"},"federalState":{"key":"05","name":"Nordrhein-Westfalen"}},{"name":"Im Twehlen","postalCode":"32257","locality":"Bünde","municipality":{"key":"05758004","name":"Bünde, Stadt","type":"Stadt"},"district":{"key":"05758","name":"Herford","type":"Kreis"},"federalState":{"key":"05","name":"Nordrhein-Westfalen"}},{"name":"Im Uhlenbrock","postalCode":"32257","locality":"Bünde","municipality":{"key":"05758004","name":"Bünde, Stadt","type":"Stadt"},"district":{"key":"05758","name":"Herford","type":"Kreis"},"federalState":{"key":"05","name":"Nordrhein-Westfalen"}},{"name":"Im Vogelwinkel","postalCode":"32257","locality":"Bünde","municipality":{"key":"05758004","name":"Bünde, Stadt","type":"Stadt"},"district":{"key":"05758","name":"Herford","type":"Kreis"},"federalState":{"key":"05","name":"Nordrhein-Westfalen"}},{"name":"Im Wackensiek","postalCode":"32257","locality":"Bünde","municipality":{"key":"05758004","name":"Bünde, Stadt","type":"Stadt"},"district":{"key":"05758","name":"Herford","type":"Kreis"},"federalState":{"key":"05","name":"Nordrhein-Westfalen"}},{"name":"Im Weingarten","postalCode":"32257","locality":"Bünde","municipality":{"key":"05758004","name":"Bünde, Stadt","type":"Stadt"},"district":{"key":"05758","name":"Herford","type":"Kreis"},"federalState":{"key":"05","name":"Nordrhein-Westfalen"}},{"name":"Im Wiesengrund","postalCode":"32257","locality":"Bünde","municipality":{"key":"05758004","name":"Bünde, Stadt","type":"Stadt"},"district":{"key":"05758","name":"Herford","type":"Kreis"},"federalState":{"key":"05","name":"Nordrhein-Westfalen"}},{"name":"Im Winkel","postalCode":"32257","locality":"Bünde","municipality":{"key":"05758004","name":"Bünde, Stadt","type":"Stadt"},"district":{"key":"05758","name":"Herford","type":"Kreis"},"federalState":{"key":"05","name":"Nordrhein-Westfalen"}},{"name":"In den Wöhren","postalCode":"27386","locality":"Hemsbünde","municipality":{"key":"03357024","name":"Hemsbünde","type":"Kreisangehörige_Gemeinde"},"district":{"key":"03357","name":"Rotenburg (Wümme)","type":"Landkreis"},"federalState":{"key":"03","name":"Niedersachsen"}},{"name":"In der Hucht","postalCode":"32257","locality":"Bünde","municipality":{"key":"05758004","name":"Bünde, Stadt","type":"Stadt"},"district":{"key":"05758","name":"Herford","type":"Kreis"},"federalState":{"key":"05","name":"Nordrhein-Westfalen"}},{"name":"In der Loheide","postalCode":"32257","locality":"Bünde","municipality":{"key":"05758004","name":"Bünde, Stadt","type":"Stadt"},"district":{"key":"05758","name":"Herford","type":"Kreis"},"federalState":{"key":"05","name":"Nordrhein-Westfalen"}},{"name":"In der Orth","postalCode":"32257","locality":"Bünde","municipality":{"key":"05758004","name":"Bünde, Stadt","type":"Stadt"},"district":{"key":"05758","name":"Herford","type":"Kreis"},"federalState":{"key":"05","name":"Nordrhein-Westfalen"}},{"name":"In der Siedlung","postalCode":"32257","locality":"Bünde","municipality":{"key":"05758004","name":"Bünde, Stadt","type":"Stadt"},"district":{"key":"05758","name":"Herford","type":"Kreis"},"federalState":{"key":"05","name":"Nordrhein-Westfalen"}},{"name":"Inselweg","postalCode":"32257","locality":"Bünde","municipality":{"key":"05758004","name":"Bünde, Stadt","type":"Stadt"},"district":{"key":"05758","name":"Herford","type":"Kreis"},"federalState":{"key":"05","name":"Nordrhein-Westfalen"}},{"name":"Jägerstr.","postalCode":"32257","locality":"Bünde","municipality":{"key":"05758004","name":"Bünde, Stadt","type":"Stadt"},"district":{"key":"05758","name":"Herford","type":"Kreis"},"federalState":{"key":"05","name":"Nordrhein-Westfalen"}},{"name":"Jahnstr.","postalCode":"32257","locality":"Bünde","municipality":{"key":"05758004","name":"Bünde, Stadt","type":"Stadt"},"district":{"key":"05758","name":"Herford","type":"Kreis"},"federalState":{"key":"05","name":"Nordrhein-Westfalen"}},{"name":"Jakobstader Str.","postalCode":"32257","locality":"Bünde","municipality":{"key":"05758004","name":"Bünde, Stadt","type":"Stadt"},"district":{"key":"05758","name":"Herford","type":"Kreis"},"federalState":{"key":"05","name":"Nordrhein-Westfalen"}},{"name":"Jakob-Wassermann-Str.","postalCode":"32257","locality":"Bünde","municipality":{"key":"05758004","name":"Bünde, Stadt","type":"Stadt"},"district":{"key":"05758","name":"Herford","type":"Kreis"},"federalState":{"key":"05","name":"Nordrhein-Westfalen"}},{"name":"Jochen-Klepper-Str.","postalCode":"32257","locality":"Bünde","municipality":{"key":"05758004","name":"Bünde, Stadt","type":"Stadt"},"district":{"key":"05758","name":"Herford","type":"Kreis"},"federalState":{"key":"05","name":"Nordrhein-Westfalen"}},{"name":"Johannesweg","postalCode":"32257","locality":"Bünde","municipality":{"key":"05758004","name":"Bünde, Stadt","type":"Stadt"},"district":{"key":"05758","name":"Herford","type":"Kreis"},"federalState":{"key":"05","name":"Nordrhein-Westfalen"}},{"name":"Junkersstr.","postalCode":"32257","locality":"Bünde","municipality":{"key":"05758004","name":"Bünde, Stadt","type":"Stadt"},"district":{"key":"05758","name":"Herford","type":"Kreis"},"federalState":{"key":"05","name":"Nordrhein-Westfalen"}},{"name":"Justus-von-Liebig-Str.","postalCode":"32257","locality":"Bünde","municipality":{"key":"05758004","name":"Bünde, Stadt","type":"Stadt"},"district":{"key":"05758","name":"Herford","type":"Kreis"},"federalState":{"key":"05","name":"Nordrhein-Westfalen"}},{"name":"Kaiser-Wilhelm-Str.","postalCode":"32257","locality":"Bünde","municipality":{"key":"05758004","name":"Bünde, Stadt","type":"Stadt"},"district":{"key":"05758","name":"Herford","type":"Kreis"},"federalState":{"key":"05","name":"Nordrhein-Westfalen"}},{"name":"Kalversiek","postalCode":"32257","locality":"Bünde","municipality":{"key":"05758004","name":"Bünde, Stadt","type":"Stadt"},"district":{"key":"05758","name":"Herford","type":"Kreis"},"federalState":{"key":"05","name":"Nordrhein-Westfalen"}},{"name":"Kameradschaft","postalCode":"32257","locality":"Bünde","municipality":{"key":"05758004","name":"Bünde, Stadt","type":"Stadt"},"district":{"key":"05758","name":"Herford","type":"Kreis"},"federalState":{"key":"05","name":"Nordrhein-Westfalen"}},{"name":"Kampstr.","postalCode":"32257","locality":"Bünde","municipality":{"key":"05758004","name":"Bünde, Stadt","type":"Stadt"},"district":{"key":"05758","name":"Herford","type":"Kreis"},"federalState":{"key":"05","name":"Nordrhein-Westfalen"}},{"name":"Kapellenweg","postalCode":"32257","locality":"Bünde","municipality":{"key":"05758004","name":"Bünde, Stadt","type":"Stadt"},"district":{"key":"05758","name":"Herford","type":"Kreis"},"federalState":{"key":"05","name":"Nordrhein-Westfalen"}},{"name":"Karl-Barth-Str.","postalCode":"32257","locality":"Bünde","municipality":{"key":"05758004","name":"Bünde, Stadt","type":"Stadt"},"district":{"key":"05758","name":"Herford","type":"Kreis"},"federalState":{"key":"05","name":"Nordrhein-Westfalen"}},{"name":"Karrenbruch","postalCode":"32257","locality":"Bünde","municipality":{"key":"05758004","name":"Bünde, Stadt","type":"Stadt"},"district":{"key":"05758","name":"Herford","type":"Kreis"},"federalState":{"key":"05","name":"Nordrhein-Westfalen"}},{"name":"Kastanienstr.","postalCode":"32257","locality":"Bünde","municipality":{"key":"05758004","name":"Bünde, Stadt","type":"Stadt"},"district":{"key":"05758","name":"Herford","type":"Kreis"},"federalState":{"key":"05","name":"Nordrhein-Westfalen"}},{"name":"Käthe-Kollwitz-Str.","postalCode":"32257","locality":"Bünde","municipality":{"key":"05758004","name":"Bünde, Stadt","type":"Stadt"},"district":{"key":"05758","name":"Herford","type":"Kreis"},"federalState":{"key":"05","name":"Nordrhein-Westfalen"}},{"name":"Keplerstr.","postalCode":"32257","locality":"Bünde","municipality":{"key":"05758004","name":"Bünde, Stadt","type":"Stadt"},"district":{"key":"05758","name":"Herford","type":"Kreis"},"federalState":{"key":"05","name":"Nordrhein-Westfalen"}},{"name":"Kiefernstr.","postalCode":"32257","locality":"Bünde","municipality":{"key":"05758004","name":"Bünde, Stadt","type":"Stadt"},"district":{"key":"05758","name":"Herford","type":"Kreis"},"federalState":{"key":"05","name":"Nordrhein-Westfalen"}},{"name":"Kirchbrink","postalCode":"32257","locality":"Bünde","municipality":{"key":"05758004","name":"Bünde, Stadt","type":"Stadt"},"district":{"key":"05758","name":"Herford","type":"Kreis"},"federalState":{"key":"05","name":"Nordrhein-Westfalen"}},{"name":"Kirchnerstr.","postalCode":"32257","locality":"Bünde","municipality":{"key":"05758004","name":"Bünde, Stadt","type":"Stadt"},"district":{"key":"05758","name":"Herford","type":"Kreis"},"federalState":{"key":"05","name":"Nordrhein-Westfalen"}},{"name":"Kirchstr.","postalCode":"32257","locality":"Bünde","municipality":{"key":"05758004","name":"Bünde, Stadt","type":"Stadt"},"district":{"key":"05758","name":"Herford","type":"Kreis"},"federalState":{"key":"05","name":"Nordrhein-Westfalen"}},{"name":"Kladower Str.","postalCode":"32257","locality":"Bünde","municipality":{"key":"05758004","name":"Bünde, Stadt","type":"Stadt"},"district":{"key":"05758","name":"Herford","type":"Kreis"},"federalState":{"key":"05","name":"Nordrhein-Westfalen"}},{"name":"Klappmeiers Weg","postalCode":"32257","locality":"Bünde","municipality":{"key":"05758004","name":"Bünde, Stadt","type":"Stadt"},"district":{"key":"05758","name":"Herford","type":"Kreis"},"federalState":{"key":"05","name":"Nordrhein-Westfalen"}},{"name":"Kleffhagen","postalCode":"32257","locality":"Bünde","municipality":{"key":"05758004","name":"Bünde, Stadt","type":"Stadt"},"district":{"key":"05758","name":"Herford","type":"Kreis"},"federalState":{"key":"05","name":"Nordrhein-Westfalen"}},{"name":"Kleine Heide","postalCode":"32257","locality":"Bünde","municipality":{"key":"05758004","name":"Bünde, Stadt","type":"Stadt"},"district":{"key":"05758","name":"Herford","type":"Kreis"},"federalState":{"key":"05","name":"Nordrhein-Westfalen"}},{"name":"Kleine Liendlage","postalCode":"32257","locality":"Bünde","municipality":{"key":"05758004","name":"Bünde, Stadt","type":"Stadt"},"district":{"key":"05758","name":"Herford","type":"Kreis"},"federalState":{"key":"05","name":"Nordrhein-Westfalen"}},{"name":"Kleiner Bruchweg","postalCode":"32257","locality":"Bünde","municipality":{"key":"05758004","name":"Bünde, Stadt","type":"Stadt"},"district":{"key":"05758","name":"Herford","type":"Kreis"},"federalState":{"key":"05","name":"Nordrhein-Westfalen"}},{"name":"Kleine Stiege","postalCode":"32257","locality":"Bünde","municipality":{"key":"05758004","name":"Bünde, Stadt","type":"Stadt"},"district":{"key":"05758","name":"Herford","type":"Kreis"},"federalState":{"key":"05","name":"Nordrhein-Westfalen"}},{"name":"Kleine Str.","postalCode":"32257","locality":"Bünde","municipality":{"key":"05758004","name":"Bünde, Stadt","type":"Stadt"},"district":{"key":"05758","name":"Herford","type":"Kreis"},"federalState":{"key":"05","name":"Nordrhein-Westfalen"}},{"name":"Kleine Wasserbreite","postalCode":"32257","locality":"Bünde","municipality":{"key":"05758004","name":"Bünde, Stadt","type":"Stadt"},"district":{"key":"05758","name":"Herford","type":"Kreis"},"federalState":{"key":"05","name":"Nordrhein-Westfalen"}},{"name":"Kleiststr.","postalCode":"32257","locality":"Bünde","municipality":{"key":"05758004","name":"Bünde, Stadt","type":"Stadt"},"district":{"key":"05758","name":"Herford","type":"Kreis"},"federalState":{"key":"05","name":"Nordrhein-Westfalen"}},{"name":"Klingerstr.","postalCode":"32257","locality":"Bünde","municipality":{"key":"05758004","name":"Bünde, Stadt","type":"Stadt"},"district":{"key":"05758","name":"Herford","type":"Kreis"},"federalState":{"key":"05","name":"Nordrhein-Westfalen"}},{"name":"Klinkstr.","postalCode":"32257","locality":"Bünde","municipality":{"key":"05758004","name":"Bünde, Stadt","type":"Stadt"},"district":{"key":"05758","name":"Herford","type":"Kreis"},"federalState":{"key":"05","name":"Nordrhein-Westfalen"}},{"name":"Klockenstr.","postalCode":"32257","locality":"Bünde","municipality":{"key":"05758004","name":"Bünde, Stadt","type":"Stadt"},"district":{"key":"05758","name":"Herford","type":"Kreis"},"federalState":{"key":"05","name":"Nordrhein-Westfalen"}},{"name":"Klöcknerstr.","postalCode":"32257","locality":"Bünde","municipality":{"key":"05758004","name":"Bünde, Stadt","type":"Stadt"},"district":{"key":"05758","name":"Herford","type":"Kreis"},"federalState":{"key":"05","name":"Nordrhein-Westfalen"}},{"name":"Kloppenburgstr.","postalCode":"32257","locality":"Bünde","municipality":{"key":"05758004","name":"Bünde, Stadt","type":"Stadt"},"district":{"key":"05758","name":"Herford","type":"Kreis"},"federalState":{"key":"05","name":"Nordrhein-Westfalen"}},{"name":"Klusstr.","postalCode":"32257","locality":"Bünde","municipality":{"key":"05758004","name":"Bünde, Stadt","type":"Stadt"},"district":{"key":"05758","name":"Herford","type":"Kreis"},"federalState":{"key":"05","name":"Nordrhein-Westfalen"}},{"name":"Knoller Teichstr.","postalCode":"32257","locality":"Bünde","municipality":{"key":"05758004","name":"Bünde, Stadt","type":"Stadt"},"district":{"key":"05758","name":"Herford","type":"Kreis"},"federalState":{"key":"05","name":"Nordrhein-Westfalen"}},{"name":"Konrad-Adenauer-Kreisel","postalCode":"32257","locality":"Bünde","municipality":{"key":"05758004","name":"Bünde, Stadt","type":"Stadt"},"district":{"key":"05758","name":"Herford","type":"Kreis"},"federalState":{"key":"05","name":"Nordrhein-Westfalen"}},{"name":"Kopernikusstr.","postalCode":"32257","locality":"Bünde","municipality":{"key":"05758004","name":"Bünde, Stadt","type":"Stadt"},"district":{"key":"05758","name":"Herford","type":"Kreis"},"federalState":{"key":"05","name":"Nordrhein-Westfalen"}},{"name":"Koppelstieg","postalCode":"32257","locality":"Bünde","municipality":{"key":"05758004","name":"Bünde, Stadt","type":"Stadt"},"district":{"key":"05758","name":"Herford","type":"Kreis"},"federalState":{"key":"05","name":"Nordrhein-Westfalen"}},{"name":"Koppelweg","postalCode":"27386","locality":"Hemsbünde","municipality":{"key":"03357024","name":"Hemsbünde","type":"Kreisangehörige_Gemeinde"},"district":{"key":"03357","name":"Rotenburg (Wümme)","type":"Landkreis"},"federalState":{"key":"03","name":"Niedersachsen"}},{"name":"Körnerstr.","postalCode":"32257","locality":"Bünde","municipality":{"key":"05758004","name":"Bünde, Stadt","type":"Stadt"},"district":{"key":"05758","name":"Herford","type":"Kreis"},"federalState":{"key":"05","name":"Nordrhein-Westfalen"}},{"name":"Kötterweg","postalCode":"32257","locality":"Bünde","municipality":{"key":"05758004","name":"Bünde, Stadt","type":"Stadt"},"district":{"key":"05758","name":"Herford","type":"Kreis"},"federalState":{"key":"05","name":"Nordrhein-Westfalen"}},{"name":"Krähenhorststr.","postalCode":"32257","locality":"Bünde","municipality":{"key":"05758004","name":"Bünde, Stadt","type":"Stadt"},"district":{"key":"05758","name":"Herford","type":"Kreis"},"federalState":{"key":"05","name":"Nordrhein-Westfalen"}},{"name":"Krokusweg","postalCode":"27386","locality":"Hemsbünde","municipality":{"key":"03357024","name":"Hemsbünde","type":"Kreisangehörige_Gemeinde"},"district":{"key":"03357","name":"Rotenburg (Wümme)","type":"Landkreis"},"federalState":{"key":"03","name":"Niedersachsen"}},{"name":"Krummer Acker","postalCode":"27386","locality":"Hemsbünde","municipality":{"key":"03357024","name":"Hemsbünde","type":"Kreisangehörige_Gemeinde"},"district":{"key":"03357","name":"Rotenburg (Wümme)","type":"Landkreis"},"federalState":{"key":"03","name":"Niedersachsen"}},{"name":"Kurt-Schumacher-Str.","postalCode":"32257","locality":"Bünde","municipality":{"key":"05758004","name":"Bünde, Stadt","type":"Stadt"},"district":{"key":"05758","name":"Herford","type":"Kreis"},"federalState":{"key":"05","name":"Nordrhein-Westfalen"}},{"name":"Kurvenweg","postalCode":"32257","locality":"Bünde","municipality":{"key":"05758004","name":"Bünde, Stadt","type":"Stadt"},"district":{"key":"05758","name":"Herford","type":"Kreis"},"federalState":{"key":"05","name":"Nordrhein-Westfalen"}},{"name":"Kurweg","postalCode":"32257","locality":"Bünde","municipality":{"key":"05758004","name":"Bünde, Stadt","type":"Stadt"},"district":{"key":"05758","name":"Herford","type":"Kreis"},"federalState":{"key":"05","name":"Nordrhein-Westfalen"}},{"name":"Ladestr.","postalCode":"32257","locality":"Bünde","municipality":{"key":"05758004","name":"Bünde, Stadt","type":"Stadt"},"district":{"key":"05758","name":"Herford","type":"Kreis"},"federalState":{"key":"05","name":"Nordrhein-Westfalen"}},{"name":"Lambertweg","postalCode":"32257","locality":"Bünde","municipality":{"key":"05758004","name":"Bünde, Stadt","type":"Stadt"},"district":{"key":"05758","name":"Herford","type":"Kreis"},"federalState":{"key":"05","name":"Nordrhein-Westfalen"}},{"name":"Langenkamp","postalCode":"32257","locality":"Bünde","municipality":{"key":"05758004","name":"Bünde, Stadt","type":"Stadt"},"district":{"key":"05758","name":"Herford","type":"Kreis"},"federalState":{"key":"05","name":"Nordrhein-Westfalen"}},{"name":"Lange Str.","postalCode":"32257","locality":"Bünde","municipality":{"key":"05758004","name":"Bünde, Stadt","type":"Stadt"},"district":{"key":"05758","name":"Herford","type":"Kreis"},"federalState":{"key":"05","name":"Nordrhein-Westfalen"}},{"name":"Lehmfeld","postalCode":"32257","locality":"Bünde","municipality":{"key":"05758004","name":"Bünde, Stadt","type":"Stadt"},"district":{"key":"05758","name":"Herford","type":"Kreis"},"federalState":{"key":"05","name":"Nordrhein-Westfalen"}},{"name":"Lehmweg","postalCode":"32257","locality":"Bünde","municipality":{"key":"05758004","name":"Bünde, Stadt","type":"Stadt"},"district":{"key":"05758","name":"Herford","type":"Kreis"},"federalState":{"key":"05","name":"Nordrhein-Westfalen"}},{"name":"Leiblstr.","postalCode":"32257","locality":"Bünde","municipality":{"key":"05758004","name":"Bünde, Stadt","type":"Stadt"},"district":{"key":"05758","name":"Herford","type":"Kreis"},"federalState":{"key":"05","name":"Nordrhein-Westfalen"}},{"name":"Leibnizstr.","postalCode":"32257","locality":"Bünde","municipality":{"key":"05758004","name":"Bünde, Stadt","type":"Stadt"},"district":{"key":"05758","name":"Herford","type":"Kreis"},"federalState":{"key":"05","name":"Nordrhein-Westfalen"}},{"name":"Lengerheide","postalCode":"32257","locality":"Bünde","municipality":{"key":"05758004","name":"Bünde, Stadt","type":"Stadt"},"district":{"key":"05758","name":"Herford","type":"Kreis"},"federalState":{"key":"05","name":"Nordrhein-Westfalen"}},{"name":"Lenzstr.","postalCode":"32257","locality":"Bünde","municipality":{"key":"05758004","name":"Bünde, Stadt","type":"Stadt"},"district":{"key":"05758","name":"Herford","type":"Kreis"},"federalState":{"key":"05","name":"Nordrhein-Westfalen"}},{"name":"Lessingstr.","postalCode":"32257","locality":"Bünde","municipality":{"key":"05758004","name":"Bünde, Stadt","type":"Stadt"},"district":{"key":"05758","name":"Herford","type":"Kreis"},"federalState":{"key":"05","name":"Nordrhein-Westfalen"}},{"name":"Levisonstr.","postalCode":"32257","locality":"Bünde","municipality":{"key":"05758004","name":"Bünde, Stadt","type":"Stadt"},"district":{"key":"05758","name":"Herford","type":"Kreis"},"federalState":{"key":"05","name":"Nordrhein-Westfalen"}},{"name":"Liendlage","postalCode":"32257","locality":"Bünde","municipality":{"key":"05758004","name":"Bünde, Stadt","type":"Stadt"},"district":{"key":"05758","name":"Herford","type":"Kreis"},"federalState":{"key":"05","name":"Nordrhein-Westfalen"}},{"name":"Lilienweg","postalCode":"27386","locality":"Hemsbünde","municipality":{"key":"03357024","name":"Hemsbünde","type":"Kreisangehörige_Gemeinde"},"district":{"key":"03357","name":"Rotenburg (Wümme)","type":"Landkreis"},"federalState":{"key":"03","name":"Niedersachsen"}},{"name":"Lindenstr.","postalCode":"32257","locality":"Bünde","municipality":{"key":"05758004","name":"Bünde, Stadt","type":"Stadt"},"district":{"key":"05758","name":"Herford","type":"Kreis"},"federalState":{"key":"05","name":"Nordrhein-Westfalen"}},{"name":"Lindenweg","postalCode":"27386","locality":"Hemsbünde","municipality":{"key":"03357024","name":"Hemsbünde","type":"Kreisangehörige_Gemeinde"},"district":{"key":"03357","name":"Rotenburg (Wümme)","type":"Landkreis"},"federalState":{"key":"03","name":"Niedersachsen"}},{"name":"Lohmanns Riege","postalCode":"32257","locality":"Bünde","municipality":{"key":"05758004","name":"Bünde, Stadt","type":"Stadt"},"district":{"key":"05758","name":"Herford","type":"Kreis"},"federalState":{"key":"05","name":"Nordrhein-Westfalen"}},{"name":"Lönskamp","postalCode":"32257","locality":"Bünde","municipality":{"key":"05758004","name":"Bünde, Stadt","type":"Stadt"},"district":{"key":"05758","name":"Herford","type":"Kreis"},"federalState":{"key":"05","name":"Nordrhein-Westfalen"}},{"name":"Lönsweg","postalCode":"32257","locality":"Bünde","municipality":{"key":"05758004","name":"Bünde, Stadt","type":"Stadt"},"district":{"key":"05758","name":"Herford","type":"Kreis"},"federalState":{"key":"05","name":"Nordrhein-Westfalen"}},{"name":"Lortzingstr.","postalCode":"32257","locality":"Bünde","municipality":{"key":"05758004","name":"Bünde, Stadt","type":"Stadt"},"district":{"key":"05758","name":"Herford","type":"Kreis"},"federalState":{"key":"05","name":"Nordrhein-Westfalen"}},{"name":"Lübbecker Str.","postalCode":"32257","locality":"Bünde","municipality":{"key":"05758004","name":"Bünde, Stadt","type":"Stadt"},"district":{"key":"05758","name":"Herford","type":"Kreis"},"federalState":{"key":"05","name":"Nordrhein-Westfalen"}},{"name":"Ludwig-Beck-Str.","postalCode":"32257","locality":"Bünde","municipality":{"key":"05758004","name":"Bünde, Stadt","type":"Stadt"},"district":{"key":"05758","name":"Herford","type":"Kreis"},"federalState":{"key":"05","name":"Nordrhein-Westfalen"}},{"name":"Luisenstr.","postalCode":"32257","locality":"Bünde","municipality":{"key":"05758004","name":"Bünde, Stadt","type":"Stadt"},"district":{"key":"05758","name":"Herford","type":"Kreis"},"federalState":{"key":"05","name":"Nordrhein-Westfalen"}},{"name":"Lukasstr.","postalCode":"32257","locality":"Bünde","municipality":{"key":"05758004","name":"Bünde, Stadt","type":"Stadt"},"district":{"key":"05758","name":"Herford","type":"Kreis"},"federalState":{"key":"05","name":"Nordrhein-Westfalen"}},{"name":"Lüningsweg","postalCode":"32257","locality":"Bünde","municipality":{"key":"05758004","name":"Bünde, Stadt","type":"Stadt"},"district":{"key":"05758","name":"Herford","type":"Kreis"},"federalState":{"key":"05","name":"Nordrhein-Westfalen"}},{"name":"Lutherstr.","postalCode":"32257","locality":"Bünde","municipality":{"key":"05758004","name":"Bünde, Stadt","type":"Stadt"},"district":{"key":"05758","name":"Herford","type":"Kreis"},"federalState":{"key":"05","name":"Nordrhein-Westfalen"}},{"name":"Lutterhausen","postalCode":"32257","locality":"Bünde","municipality":{"key":"05758004","name":"Bünde, Stadt","type":"Stadt"},"district":{"key":"05758","name":"Herford","type":"Kreis"},"federalState":{"key":"05","name":"Nordrhein-Westfalen"}},{"name":"Luttermannsiedlung","postalCode":"32257","locality":"Bünde","municipality":{"key":"05758004","name":"Bünde, Stadt","type":"Stadt"},"district":{"key":"05758","name":"Herford","type":"Kreis"},"federalState":{"key":"05","name":"Nordrhein-Westfalen"}},{"name":"Maisfeld","postalCode":"32257","locality":"Bünde","municipality":{"key":"05758004","name":"Bünde, Stadt","type":"Stadt"},"district":{"key":"05758","name":"Herford","type":"Kreis"},"federalState":{"key":"05","name":"Nordrhein-Westfalen"}},{"name":"Marktplatz","postalCode":"32257","locality":"Bünde","municipality":{"key":"05758004","name":"Bünde, Stadt","type":"Stadt"},"district":{"key":"05758","name":"Herford","type":"Kreis"},"federalState":{"key":"05","name":"Nordrhein-Westfalen"}},{"name":"Marktstr.","postalCode":"32257","locality":"Bünde","municipality":{"key":"05758004","name":"Bünde, Stadt","type":"Stadt"},"district":{"key":"05758","name":"Herford","type":"Kreis"},"federalState":{"key":"05","name":"Nordrhein-Westfalen"}},{"name":"Markusweg","postalCode":"32257","locality":"Bünde","municipality":{"key":"05758004","name":"Bünde, Stadt","type":"Stadt"},"district":{"key":"05758","name":"Herford","type":"Kreis"},"federalState":{"key":"05","name":"Nordrhein-Westfalen"}},{"name":"Maschbruchstr.","postalCode":"32257","locality":"Bünde","municipality":{"key":"05758004","name":"Bünde, Stadt","type":"Stadt"},"district":{"key":"05758","name":"Herford","type":"Kreis"},"federalState":{"key":"05","name":"Nordrhein-Westfalen"}},{"name":"Max-Planck-Str.","postalCode":"32257","locality":"Bünde","municipality":{"key":"05758004","name":"Bünde, Stadt","type":"Stadt"},"district":{"key":"05758","name":"Herford","type":"Kreis"},"federalState":{"key":"05","name":"Nordrhein-Westfalen"}},{"name":"Max-von-Laue-Str.","postalCode":"32257","locality":"Bünde","municipality":{"key":"05758004","name":"Bünde, Stadt","type":"Stadt"},"district":{"key":"05758","name":"Herford","type":"Kreis"},"federalState":{"key":"05","name":"Nordrhein-Westfalen"}},{"name":"Maybachstr.","postalCode":"32257","locality":"Bünde","municipality":{"key":"05758004","name":"Bünde, Stadt","type":"Stadt"},"district":{"key":"05758","name":"Herford","type":"Kreis"},"federalState":{"key":"05","name":"Nordrhein-Westfalen"}},{"name":"Mendelstr.","postalCode":"32257","locality":"Bünde","municipality":{"key":"05758004","name":"Bünde, Stadt","type":"Stadt"},"district":{"key":"05758","name":"Herford","type":"Kreis"},"federalState":{"key":"05","name":"Nordrhein-Westfalen"}},{"name":"Miele-Str.","postalCode":"32257","locality":"Bünde","municipality":{"key":"05758004","name":"Bünde, Stadt","type":"Stadt"},"district":{"key":"05758","name":"Herford","type":"Kreis"},"federalState":{"key":"05","name":"Nordrhein-Westfalen"}},{"name":"Milanweg","postalCode":"27386","locality":"Hemsbünde","municipality":{"key":"03357024","name":"Hemsbünde","type":"Kreisangehörige_Gemeinde"},"district":{"key":"03357","name":"Rotenburg (Wümme)","type":"Landkreis"},"federalState":{"key":"03","name":"Niedersachsen"}},{"name":"Mindener Str.","postalCode":"32257","locality":"Bünde","municipality":{"key":"05758004","name":"Bünde, Stadt","type":"Stadt"},"district":{"key":"05758","name":"Herford","type":"Kreis"},"federalState":{"key":"05","name":"Nordrhein-Westfalen"}},{"name":"Mittelstr.","postalCode":"32257","locality":"Bünde","municipality":{"key":"05758004","name":"Bünde, Stadt","type":"Stadt"},"district":{"key":"05758","name":"Herford","type":"Kreis"},"federalState":{"key":"05","name":"Nordrhein-Westfalen"}},{"name":"Mohnweg","postalCode":"32257","locality":"Bünde","municipality":{"key":"05758004","name":"Bünde, Stadt","type":"Stadt"},"district":{"key":"05758","name":"Herford","type":"Kreis"},"federalState":{"key":"05","name":"Nordrhein-Westfalen"}},{"name":"Molkenkeller","postalCode":"32257","locality":"Bünde","municipality":{"key":"05758004","name":"Bünde, Stadt","type":"Stadt"},"district":{"key":"05758","name":"Herford","type":"Kreis"},"federalState":{"key":"05","name":"Nordrhein-Westfalen"}},{"name":"Moltkestr.","postalCode":"32257","locality":"Bünde","municipality":{"key":"05758004","name":"Bünde, Stadt","type":"Stadt"},"district":{"key":"05758","name":"Herford","type":"Kreis"},"federalState":{"key":"05","name":"Nordrhein-Westfalen"}},{"name":"Mörikestr.","postalCode":"32257","locality":"Bünde","municipality":{"key":"05758004","name":"Bünde, Stadt","type":"Stadt"},"district":{"key":"05758","name":"Herford","type":"Kreis"},"federalState":{"key":"05","name":"Nordrhein-Westfalen"}},{"name":"Mozartstr.","postalCode":"32257","locality":"Bünde","municipality":{"key":"05758004","name":"Bünde, Stadt","type":"Stadt"},"district":{"key":"05758","name":"Herford","type":"Kreis"},"federalState":{"key":"05","name":"Nordrhein-Westfalen"}},{"name":"Mühlenbachstr.","postalCode":"32257","locality":"Bünde","municipality":{"key":"05758004","name":"Bünde, Stadt","type":"Stadt"},"district":{"key":"05758","name":"Herford","type":"Kreis"},"federalState":{"key":"05","name":"Nordrhein-Westfalen"}},{"name":"Mühleneck","postalCode":"32257","locality":"Bünde","municipality":{"key":"05758004","name":"Bünde, Stadt","type":"Stadt"},"district":{"key":"05758","name":"Herford","type":"Kreis"},"federalState":{"key":"05","name":"Nordrhein-Westfalen"}},{"name":"Mühlenfeld","postalCode":"32257","locality":"Bünde","municipality":{"key":"05758004","name":"Bünde, Stadt","type":"Stadt"},"district":{"key":"05758","name":"Herford","type":"Kreis"},"federalState":{"key":"05","name":"Nordrhein-Westfalen"}},{"name":"Mühlenfeldstr.","postalCode":"32257","locality":"Bünde","municipality":{"key":"05758004","name":"Bünde, Stadt","type":"Stadt"},"district":{"key":"05758","name":"Herford","type":"Kreis"},"federalState":{"key":"05","name":"Nordrhein-Westfalen"}},{"name":"Mühlenteichstr.","postalCode":"32257","locality":"Bünde","municipality":{"key":"05758004","name":"Bünde, Stadt","type":"Stadt"},"district":{"key":"05758","name":"Herford","type":"Kreis"},"federalState":{"key":"05","name":"Nordrhein-Westfalen"}},{"name":"Museumsplatz","postalCode":"32257","locality":"Bünde","municipality":{"key":"05758004","name":"Bünde, Stadt","type":"Stadt"},"district":{"key":"05758","name":"Herford","type":"Kreis"},"federalState":{"key":"05","name":"Nordrhein-Westfalen"}},{"name":"Nelkenstr.","postalCode":"32257","locality":"Bünde","municipality":{"key":"05758004","name":"Bünde, Stadt","type":"Stadt"},"district":{"key":"05758","name":"Herford","type":"Kreis"},"federalState":{"key":"05","name":"Nordrhein-Westfalen"}},{"name":"Nelkenweg","postalCode":"27386","locality":"Hemsbünde","municipality":{"key":"03357024","name":"Hemsbünde","type":"Kreisangehörige_Gemeinde"},"district":{"key":"03357","name":"Rotenburg (Wümme)","type":"Landkreis"},"federalState":{"key":"03","name":"Niedersachsen"}},{"name":"Neue Str.","postalCode":"32257","locality":"Bünde","municipality":{"key":"05758004","name":"Bünde, Stadt","type":"Stadt"},"district":{"key":"05758","name":"Herford","type":"Kreis"},"federalState":{"key":"05","name":"Nordrhein-Westfalen"}},{"name":"Neustadt","postalCode":"32257","locality":"Bünde","municipality":{"key":"05758004","name":"Bünde, Stadt","type":"Stadt"},"district":{"key":"05758","name":"Herford","type":"Kreis"},"federalState":{"key":"05","name":"Nordrhein-Westfalen"}},{"name":"Nicolaistr.","postalCode":"32257","locality":"Bünde","municipality":{"key":"05758004","name":"Bünde, Stadt","type":"Stadt"},"district":{"key":"05758","name":"Herford","type":"Kreis"},"federalState":{"key":"05","name":"Nordrhein-Westfalen"}},{"name":"Niederfeldstr.","postalCode":"32257","locality":"Bünde","municipality":{"key":"05758004","name":"Bünde, Stadt","type":"Stadt"},"district":{"key":"05758","name":"Herford","type":"Kreis"},"federalState":{"key":"05","name":"Nordrhein-Westfalen"}},{"name":"Niedermanns Hof","postalCode":"32257","locality":"Bünde","municipality":{"key":"05758004","name":"Bünde, Stadt","type":"Stadt"},"district":{"key":"05758","name":"Herford","type":"Kreis"},"federalState":{"key":"05","name":"Nordrhein-Westfalen"}},{"name":"Nordring","postalCode":"32257","locality":"Bünde","municipality":{"key":"05758004","name":"Bünde, Stadt","type":"Stadt"},"district":{"key":"05758","name":"Herford","type":"Kreis"},"federalState":{"key":"05","name":"Nordrhein-Westfalen"}},{"name":"Oberahler Weg","postalCode":"32257","locality":"Bünde","municipality":{"key":"05758004","name":"Bünde, Stadt","type":"Stadt"},"district":{"key":"05758","name":"Herford","type":"Kreis"},"federalState":{"key":"05","name":"Nordrhein-Westfalen"}},{"name":"Oberweg","postalCode":"32257","locality":"Bünde","municipality":{"key":"05758004","name":"Bünde, Stadt","type":"Stadt"},"district":{"key":"05758","name":"Herford","type":"Kreis"},"federalState":{"key":"05","name":"Nordrhein-Westfalen"}},{"name":"Ortstr.","postalCode":"32257","locality":"Bünde","municipality":{"key":"05758004","name":"Bünde, Stadt","type":"Stadt"},"district":{"key":"05758","name":"Herford","type":"Kreis"},"federalState":{"key":"05","name":"Nordrhein-Westfalen"}},{"name":"Osnabrücker Str.","postalCode":"32257","locality":"Bünde","municipality":{"key":"05758004","name":"Bünde, Stadt","type":"Stadt"},"district":{"key":"05758","name":"Herford","type":"Kreis"},"federalState":{"key":"05","name":"Nordrhein-Westfalen"}},{"name":"Osterkamp","postalCode":"32257","locality":"Bünde","municipality":{"key":"05758004","name":"Bünde, Stadt","type":"Stadt"},"district":{"key":"05758","name":"Herford","type":"Kreis"},"federalState":{"key":"05","name":"Nordrhein-Westfalen"}},{"name":"Ostkilverstr.","postalCode":"32257","locality":"Bünde","municipality":{"key":"05758004","name":"Bünde, Stadt","type":"Stadt"},"district":{"key":"05758","name":"Herford","type":"Kreis"},"federalState":{"key":"05","name":"Nordrhein-Westfalen"}},{"name":"Ostlandstr.","postalCode":"32257","locality":"Bünde","municipality":{"key":"05758004","name":"Bünde, Stadt","type":"Stadt"},"district":{"key":"05758","name":"Herford","type":"Kreis"},"federalState":{"key":"05","name":"Nordrhein-Westfalen"}},{"name":"Otterloh","postalCode":"27386","locality":"Hemsbünde","municipality":{"key":"03357024","name":"Hemsbünde","type":"Kreisangehörige_Gemeinde"},"district":{"key":"03357","name":"Rotenburg (Wümme)","type":"Landkreis"},"federalState":{"key":"03","name":"Niedersachsen"}},{"name":"Otto-Hahn-Str.","postalCode":"32257","locality":"Bünde","municipality":{"key":"05758004","name":"Bünde, Stadt","type":"Stadt"},"district":{"key":"05758","name":"Herford","type":"Kreis"},"federalState":{"key":"05","name":"Nordrhein-Westfalen"}},{"name":"Otto-Spanier-Str.","postalCode":"32257","locality":"Bünde","municipality":{"key":"05758004","name":"Bünde, Stadt","type":"Stadt"},"district":{"key":"05758","name":"Herford","type":"Kreis"},"federalState":{"key":"05","name":"Nordrhein-Westfalen"}},{"name":"Papendiekstr.","postalCode":"32257","locality":"Bünde","municipality":{"key":"05758004","name":"Bünde, Stadt","type":"Stadt"},"district":{"key":"05758","name":"Herford","type":"Kreis"},"federalState":{"key":"05","name":"Nordrhein-Westfalen"}},{"name":"Pappelstr.","postalCode":"32257","locality":"Bünde","municipality":{"key":"05758004","name":"Bünde, Stadt","type":"Stadt"},"district":{"key":"05758","name":"Herford","type":"Kreis"},"federalState":{"key":"05","name":"Nordrhein-Westfalen"}},{"name":"Parlerstr.","postalCode":"32257","locality":"Bünde","municipality":{"key":"05758004","name":"Bünde, Stadt","type":"Stadt"},"district":{"key":"05758","name":"Herford","type":"Kreis"},"federalState":{"key":"05","name":"Nordrhein-Westfalen"}},{"name":"Paul-Klee-Str.","postalCode":"32257","locality":"Bünde","municipality":{"key":"05758004","name":"Bünde, Stadt","type":"Stadt"},"district":{"key":"05758","name":"Herford","type":"Kreis"},"federalState":{"key":"05","name":"Nordrhein-Westfalen"}},{"name":"Paul-Schneider-Str.","postalCode":"32257","locality":"Bünde","municipality":{"key":"05758004","name":"Bünde, Stadt","type":"Stadt"},"district":{"key":"05758","name":"Herford","type":"Kreis"},"federalState":{"key":"05","name":"Nordrhein-Westfalen"}},{"name":"Penningstr.","postalCode":"32257","locality":"Bünde","municipality":{"key":"05758004","name":"Bünde, Stadt","type":"Stadt"},"district":{"key":"05758","name":"Herford","type":"Kreis"},"federalState":{"key":"05","name":"Nordrhein-Westfalen"}},{"name":"Pestalozzistr.","postalCode":"32257","locality":"Bünde","municipality":{"key":"05758004","name":"Bünde, Stadt","type":"Stadt"},"district":{"key":"05758","name":"Herford","type":"Kreis"},"federalState":{"key":"05","name":"Nordrhein-Westfalen"}},{"name":"Philippstr.","postalCode":"32257","locality":"Bünde","municipality":{"key":"05758004","name":"Bünde, Stadt","type":"Stadt"},"district":{"key":"05758","name":"Herford","type":"Kreis"},"federalState":{"key":"05","name":"Nordrhein-Westfalen"}},{"name":"Platanenweg","postalCode":"32257","locality":"Bünde","municipality":{"key":"05758004","name":"Bünde, Stadt","type":"Stadt"},"district":{"key":"05758","name":"Herford","type":"Kreis"},"federalState":{"key":"05","name":"Nordrhein-Westfalen"}},{"name":"Plomplandweg","postalCode":"32257","locality":"Bünde","municipality":{"key":"05758004","name":"Bünde, Stadt","type":"Stadt"},"district":{"key":"05758","name":"Herford","type":"Kreis"},"federalState":{"key":"05","name":"Nordrhein-Westfalen"}},{"name":"Poggenkärken","postalCode":"32257","locality":"Bünde","municipality":{"key":"05758004","name":"Bünde, Stadt","type":"Stadt"},"district":{"key":"05758","name":"Herford","type":"Kreis"},"federalState":{"key":"05","name":"Nordrhein-Westfalen"}},{"name":"Pohlmann's Weg","postalCode":"32257","locality":"Bünde","municipality":{"key":"05758004","name":"Bünde, Stadt","type":"Stadt"},"district":{"key":"05758","name":"Herford","type":"Kreis"},"federalState":{"key":"05","name":"Nordrhein-Westfalen"}},{"name":"Quellenweg","postalCode":"32257","locality":"Bünde","municipality":{"key":"05758004","name":"Bünde, Stadt","type":"Stadt"},"district":{"key":"05758","name":"Herford","type":"Kreis"},"federalState":{"key":"05","name":"Nordrhein-Westfalen"}},{"name":"Raiffeisenstr.","postalCode":"32257","locality":"Bünde","municipality":{"key":"05758004","name":"Bünde, Stadt","type":"Stadt"},"district":{"key":"05758","name":"Herford","type":"Kreis"},"federalState":{"key":"05","name":"Nordrhein-Westfalen"}},{"name":"Rangstdorfer Str.","postalCode":"32257","locality":"Bünde","municipality":{"key":"05758004","name":"Bünde, Stadt","type":"Stadt"},"district":{"key":"05758","name":"Herford","type":"Kreis"},"federalState":{"key":"05","name":"Nordrhein-Westfalen"}},{"name":"Rembrandtstr.","postalCode":"32257","locality":"Bünde","municipality":{"key":"05758004","name":"Bünde, Stadt","type":"Stadt"},"district":{"key":"05758","name":"Herford","type":"Kreis"},"federalState":{"key":"05","name":"Nordrhein-Westfalen"}},{"name":"Remmerskamp","postalCode":"32257","locality":"Bünde","municipality":{"key":"05758004","name":"Bünde, Stadt","type":"Stadt"},"district":{"key":"05758","name":"Herford","type":"Kreis"},"federalState":{"key":"05","name":"Nordrhein-Westfalen"}},{"name":"Richard-Moes-Str.","postalCode":"32257","locality":"Bünde","municipality":{"key":"05758004","name":"Bünde, Stadt","type":"Stadt"},"district":{"key":"05758","name":"Herford","type":"Kreis"},"federalState":{"key":"05","name":"Nordrhein-Westfalen"}},{"name":"Ringstr.","postalCode":"32257","locality":"Bünde","municipality":{"key":"05758004","name":"Bünde, Stadt","type":"Stadt"},"district":{"key":"05758","name":"Herford","type":"Kreis"},"federalState":{"key":"05","name":"Nordrhein-Westfalen"}},{"name":"Robert-Koch-Str.","postalCode":"32257","locality":"Bünde","municipality":{"key":"05758004","name":"Bünde, Stadt","type":"Stadt"},"district":{"key":"05758","name":"Herford","type":"Kreis"},"federalState":{"key":"05","name":"Nordrhein-Westfalen"}},{"name":"Robert-Schumann-Str.","postalCode":"32257","locality":"Bünde","municipality":{"key":"05758004","name":"Bünde, Stadt","type":"Stadt"},"district":{"key":"05758","name":"Herford","type":"Kreis"},"federalState":{"key":"05","name":"Nordrhein-Westfalen"}},{"name":"Rodauweg","postalCode":"27386","locality":"Hemsbünde","municipality":{"key":"03357024","name":"Hemsbünde","type":"Kreisangehörige_Gemeinde"},"district":{"key":"03357","name":"Rotenburg (Wümme)","type":"Landkreis"},"federalState":{"key":"03","name":"Niedersachsen"}},{"name":"Rödinghauser Str.","postalCode":"32257","locality":"Bünde","municipality":{"key":"05758004","name":"Bünde, Stadt","type":"Stadt"},"district":{"key":"05758","name":"Herford","type":"Kreis"},"federalState":{"key":"05","name":"Nordrhein-Westfalen"}},{"name":"Rolandstr.","postalCode":"32257","locality":"Bünde","municipality":{"key":"05758004","name":"Bünde, Stadt","type":"Stadt"},"district":{"key":"05758","name":"Herford","type":"Kreis"},"federalState":{"key":"05","name":"Nordrhein-Westfalen"}},{"name":"Röntgenstr.","postalCode":"32257","locality":"Bünde","municipality":{"key":"05758004","name":"Bünde, Stadt","type":"Stadt"},"district":{"key":"05758","name":"Herford","type":"Kreis"},"federalState":{"key":"05","name":"Nordrhein-Westfalen"}},{"name":"Roonstr.","postalCode":"32257","locality":"Bünde","municipality":{"key":"05758004","name":"Bünde, Stadt","type":"Stadt"},"district":{"key":"05758","name":"Herford","type":"Kreis"},"federalState":{"key":"05","name":"Nordrhein-Westfalen"}},{"name":"Rosenstr.","postalCode":"32257","locality":"Bünde","municipality":{"key":"05758004","name":"Bünde, Stadt","type":"Stadt"},"district":{"key":"05758","name":"Herford","type":"Kreis"},"federalState":{"key":"05","name":"Nordrhein-Westfalen"}},{"name":"Rosenweg","postalCode":"27386","locality":"Hemsbünde","municipality":{"key":"03357024","name":"Hemsbünde","type":"Kreisangehörige_Gemeinde"},"district":{"key":"03357","name":"Rotenburg (Wümme)","type":"Landkreis"},"federalState":{"key":"03","name":"Niedersachsen"}},{"name":"Rotdornstr.","postalCode":"32257","locality":"Bünde","municipality":{"key":"05758004","name":"Bünde, Stadt","type":"Stadt"},"district":{"key":"05758","name":"Herford","type":"Kreis"},"federalState":{"key":"05","name":"Nordrhein-Westfalen"}},{"name":"Rotenburger Str.","postalCode":"27386","locality":"Hemsbünde","municipality":{"key":"03357024","name":"Hemsbünde","type":"Kreisangehörige_Gemeinde"},"district":{"key":"03357","name":"Rotenburg (Wümme)","type":"Landkreis"},"federalState":{"key":"03","name":"Niedersachsen"}},{"name":"Rubensstr.","postalCode":"32257","locality":"Bünde","municipality":{"key":"05758004","name":"Bünde, Stadt","type":"Stadt"},"district":{"key":"05758","name":"Herford","type":"Kreis"},"federalState":{"key":"05","name":"Nordrhein-Westfalen"}},{"name":"Rückertstr.","postalCode":"32257","locality":"Bünde","municipality":{"key":"05758004","name":"Bünde, Stadt","type":"Stadt"},"district":{"key":"05758","name":"Herford","type":"Kreis"},"federalState":{"key":"05","name":"Nordrhein-Westfalen"}},{"name":"Rummelsburger Str.","postalCode":"32257","locality":"Bünde","municipality":{"key":"05758004","name":"Bünde, Stadt","type":"Stadt"},"district":{"key":"05758","name":"Herford","type":"Kreis"},"federalState":{"key":"05","name":"Nordrhein-Westfalen"}},{"name":"Saarlandstr.","postalCode":"32257","locality":"Bünde","municipality":{"key":"05758004","name":"Bünde, Stadt","type":"Stadt"},"district":{"key":"05758","name":"Herford","type":"Kreis"},"federalState":{"key":"05","name":"Nordrhein-Westfalen"}},{"name":"Sandbreede","postalCode":"32257","locality":"Bünde","municipality":{"key":"05758004","name":"Bünde, Stadt","type":"Stadt"},"district":{"key":"05758","name":"Herford","type":"Kreis"},"federalState":{"key":"05","name":"Nordrhein-Westfalen"}},{"name":"Sandgrubenstr.","postalCode":"32257","locality":"Bünde","municipality":{"key":"05758004","name":"Bünde, Stadt","type":"Stadt"},"district":{"key":"05758","name":"Herford","type":"Kreis"},"federalState":{"key":"05","name":"Nordrhein-Westfalen"}},{"name":"Sandstr.","postalCode":"32257","locality":"Bünde","municipality":{"key":"05758004","name":"Bünde, Stadt","type":"Stadt"},"district":{"key":"05758","name":"Herford","type":"Kreis"},"federalState":{"key":"05","name":"Nordrhein-Westfalen"}},{"name":"Schäferholzweg","postalCode":"32257","locality":"Bünde","municipality":{"key":"05758004","name":"Bünde, Stadt","type":"Stadt"},"district":{"key":"05758","name":"Herford","type":"Kreis"},"federalState":{"key":"05","name":"Nordrhein-Westfalen"}},{"name":"Schäferweg","postalCode":"32257","locality":"Bünde","municipality":{"key":"05758004","name":"Bünde, Stadt","type":"Stadt"},"district":{"key":"05758","name":"Herford","type":"Kreis"},"federalState":{"key":"05","name":"Nordrhein-Westfalen"}},{"name":"Schierholzstr.","postalCode":"32257","locality":"Bünde","municipality":{"key":"05758004","name":"Bünde, Stadt","type":"Stadt"},"district":{"key":"05758","name":"Herford","type":"Kreis"},"federalState":{"key":"05","name":"Nordrhein-Westfalen"}},{"name":"Schillerstr.","postalCode":"32257","locality":"Bünde","municipality":{"key":"05758004","name":"Bünde, Stadt","type":"Stadt"},"district":{"key":"05758","name":"Herford","type":"Kreis"},"federalState":{"key":"05","name":"Nordrhein-Westfalen"}},{"name":"Schinkestr.","postalCode":"32257","locality":"Bünde","municipality":{"key":"05758004","name":"Bünde, Stadt","type":"Stadt"},"district":{"key":"05758","name":"Herford","type":"Kreis"},"federalState":{"key":"05","name":"Nordrhein-Westfalen"}},{"name":"Schlattheide","postalCode":"32257","locality":"Bünde","municipality":{"key":"05758004","name":"Bünde, Stadt","type":"Stadt"},"district":{"key":"05758","name":"Herford","type":"Kreis"},"federalState":{"key":"05","name":"Nordrhein-Westfalen"}},{"name":"Schlingstr.","postalCode":"32257","locality":"Bünde","municipality":{"key":"05758004","name":"Bünde, Stadt","type":"Stadt"},"district":{"key":"05758","name":"Herford","type":"Kreis"},"federalState":{"key":"05","name":"Nordrhein-Westfalen"}},{"name":"Schloßstr.","postalCode":"32257","locality":"Bünde","municipality":{"key":"05758004","name":"Bünde, Stadt","type":"Stadt"},"district":{"key":"05758","name":"Herford","type":"Kreis"},"federalState":{"key":"05","name":"Nordrhein-Westfalen"}},{"name":"Schluchtweg","postalCode":"32257","locality":"Bünde","municipality":{"key":"05758004","name":"Bünde, Stadt","type":"Stadt"},"district":{"key":"05758","name":"Herford","type":"Kreis"},"federalState":{"key":"05","name":"Nordrhein-Westfalen"}},{"name":"Schmiedestr.","postalCode":"32257","locality":"Bünde","municipality":{"key":"05758004","name":"Bünde, Stadt","type":"Stadt"},"district":{"key":"05758","name":"Herford","type":"Kreis"},"federalState":{"key":"05","name":"Nordrhein-Westfalen"}},{"name":"Schnellweg","postalCode":"32257","locality":"Bünde","municipality":{"key":"05758004","name":"Bünde, Stadt","type":"Stadt"},"district":{"key":"05758","name":"Herford","type":"Kreis"},"federalState":{"key":"05","name":"Nordrhein-Westfalen"}},{"name":"Schöneberger Str.","postalCode":"32257","locality":"Bünde","municipality":{"key":"05758004","name":"Bünde, Stadt","type":"Stadt"},"district":{"key":"05758","name":"Herford","type":"Kreis"},"federalState":{"key":"05","name":"Nordrhein-Westfalen"}},{"name":"Schongauer Str.","postalCode":"32257","locality":"Bünde","municipality":{"key":"05758004","name":"Bünde, Stadt","type":"Stadt"},"district":{"key":"05758","name":"Herford","type":"Kreis"},"federalState":{"key":"05","name":"Nordrhein-Westfalen"}},{"name":"Schubertstr.","postalCode":"32257","locality":"Bünde","municipality":{"key":"05758004","name":"Bünde, Stadt","type":"Stadt"},"district":{"key":"05758","name":"Herford","type":"Kreis"},"federalState":{"key":"05","name":"Nordrhein-Westfalen"}},{"name":"Schulstr.","postalCode":"32257","locality":"Bünde","municipality":{"key":"05758004","name":"Bünde, Stadt","type":"Stadt"},"district":{"key":"05758","name":"Herford","type":"Kreis"},"federalState":{"key":"05","name":"Nordrhein-Westfalen"}},{"name":"Schwartemeierstr.","postalCode":"32257","locality":"Bünde","municipality":{"key":"05758004","name":"Bünde, Stadt","type":"Stadt"},"district":{"key":"05758","name":"Herford","type":"Kreis"},"federalState":{"key":"05","name":"Nordrhein-Westfalen"}},{"name":"Schwarzenbrink","postalCode":"32257","locality":"Bünde","municipality":{"key":"05758004","name":"Bünde, Stadt","type":"Stadt"},"district":{"key":"05758","name":"Herford","type":"Kreis"},"federalState":{"key":"05","name":"Nordrhein-Westfalen"}},{"name":"Sedanstr.","postalCode":"32257","locality":"Bünde","municipality":{"key":"05758004","name":"Bünde, Stadt","type":"Stadt"},"district":{"key":"05758","name":"Herford","type":"Kreis"},"federalState":{"key":"05","name":"Nordrhein-Westfalen"}},{"name":"Semmelweg","postalCode":"32257","locality":"Bünde","municipality":{"key":"05758004","name":"Bünde, Stadt","type":"Stadt"},"district":{"key":"05758","name":"Herford","type":"Kreis"},"federalState":{"key":"05","name":"Nordrhein-Westfalen"}},{"name":"Seniwortstr.","postalCode":"32257","locality":"Bünde","municipality":{"key":"05758004","name":"Bünde, Stadt","type":"Stadt"},"district":{"key":"05758","name":"Herford","type":"Kreis"},"federalState":{"key":"05","name":"Nordrhein-Westfalen"}},{"name":"Senkfurche","postalCode":"32257","locality":"Bünde","municipality":{"key":"05758004","name":"Bünde, Stadt","type":"Stadt"},"district":{"key":"05758","name":"Herford","type":"Kreis"},"federalState":{"key":"05","name":"Nordrhein-Westfalen"}},{"name":"Siebensprüngen","postalCode":"32257","locality":"Bünde","municipality":{"key":"05758004","name":"Bünde, Stadt","type":"Stadt"},"district":{"key":"05758","name":"Herford","type":"Kreis"},"federalState":{"key":"05","name":"Nordrhein-Westfalen"}},{"name":"Siekstr.","postalCode":"32257","locality":"Bünde","municipality":{"key":"05758004","name":"Bünde, Stadt","type":"Stadt"},"district":{"key":"05758","name":"Herford","type":"Kreis"},"federalState":{"key":"05","name":"Nordrhein-Westfalen"}},{"name":"Sieler Weg","postalCode":"32257","locality":"Bünde","municipality":{"key":"05758004","name":"Bünde, Stadt","type":"Stadt"},"district":{"key":"05758","name":"Herford","type":"Kreis"},"federalState":{"key":"05","name":"Nordrhein-Westfalen"}},{"name":"Sielstr.","postalCode":"32257","locality":"Bünde","municipality":{"key":"05758004","name":"Bünde, Stadt","type":"Stadt"},"district":{"key":"05758","name":"Herford","type":"Kreis"},"federalState":{"key":"05","name":"Nordrhein-Westfalen"}},{"name":"Siemensstr.","postalCode":"32257","locality":"Bünde","municipality":{"key":"05758004","name":"Bünde, Stadt","type":"Stadt"},"district":{"key":"05758","name":"Herford","type":"Kreis"},"federalState":{"key":"05","name":"Nordrhein-Westfalen"}},{"name":"Sievekingstr.","postalCode":"32257","locality":"Bünde","municipality":{"key":"05758004","name":"Bünde, Stadt","type":"Stadt"},"district":{"key":"05758","name":"Herford","type":"Kreis"},"federalState":{"key":"05","name":"Nordrhein-Westfalen"}},{"name":"Simonweg","postalCode":"32257","locality":"Bünde","municipality":{"key":"05758004","name":"Bünde, Stadt","type":"Stadt"},"district":{"key":"05758","name":"Herford","type":"Kreis"},"federalState":{"key":"05","name":"Nordrhein-Westfalen"}},{"name":"Snatweg","postalCode":"32257","locality":"Bünde","municipality":{"key":"05758004","name":"Bünde, Stadt","type":"Stadt"},"district":{"key":"05758","name":"Herford","type":"Kreis"},"federalState":{"key":"05","name":"Nordrhein-Westfalen"}},{"name":"Soltauer Str.","postalCode":"27386","locality":"Hemsbünde","municipality":{"key":"03357024","name":"Hemsbünde","type":"Kreisangehörige_Gemeinde"},"district":{"key":"03357","name":"Rotenburg (Wümme)","type":"Landkreis"},"federalState":{"key":"03","name":"Niedersachsen"}},{"name":"Sonnenhügel","postalCode":"32257","locality":"Bünde","municipality":{"key":"05758004","name":"Bünde, Stadt","type":"Stadt"},"district":{"key":"05758","name":"Herford","type":"Kreis"},"federalState":{"key":"05","name":"Nordrhein-Westfalen"}},{"name":"Spandauer Str.","postalCode":"32257","locality":"Bünde","municipality":{"key":"05758004","name":"Bünde, Stadt","type":"Stadt"},"district":{"key":"05758","name":"Herford","type":"Kreis"},"federalState":{"key":"05","name":"Nordrhein-Westfalen"}},{"name":"Spenger Str.","postalCode":"32257","locality":"Bünde","municipality":{"key":"05758004","name":"Bünde, Stadt","type":"Stadt"},"district":{"key":"05758","name":"Herford","type":"Kreis"},"federalState":{"key":"05","name":"Nordrhein-Westfalen"}},{"name":"Sperberweg","postalCode":"27386","locality":"Hemsbünde","municipality":{"key":"03357024","name":"Hemsbünde","type":"Kreisangehörige_Gemeinde"},"district":{"key":"03357","name":"Rotenburg (Wümme)","type":"Landkreis"},"federalState":{"key":"03","name":"Niedersachsen"}},{"name":"Stadionstr.","postalCode":"32257","locality":"Bünde","municipality":{"key":"05758004","name":"Bünde, Stadt","type":"Stadt"},"district":{"key":"05758","name":"Herford","type":"Kreis"},"federalState":{"key":"05","name":"Nordrhein-Westfalen"}},{"name":"Steglitzer Str.","postalCode":"32257","locality":"Bünde","municipality":{"key":"05758004","name":"Bünde, Stadt","type":"Stadt"},"district":{"key":"05758","name":"Herford","type":"Kreis"},"federalState":{"key":"05","name":"Nordrhein-Westfalen"}},{"name":"Steinbreede","postalCode":"32257","locality":"Bünde","municipality":{"key":"05758004","name":"Bünde, Stadt","type":"Stadt"},"district":{"key":"05758","name":"Herford","type":"Kreis"},"federalState":{"key":"05","name":"Nordrhein-Westfalen"}},{"name":"Steinbrink","postalCode":"32257","locality":"Bünde","municipality":{"key":"05758004","name":"Bünde, Stadt","type":"Stadt"},"district":{"key":"05758","name":"Herford","type":"Kreis"},"federalState":{"key":"05","name":"Nordrhein-Westfalen"}},{"name":"Steinkampstr.","postalCode":"32257","locality":"Bünde","municipality":{"key":"05758004","name":"Bünde, Stadt","type":"Stadt"},"district":{"key":"05758","name":"Herford","type":"Kreis"},"federalState":{"key":"05","name":"Nordrhein-Westfalen"}},{"name":"Steinmeisterpark","postalCode":"32257","locality":"Bünde","municipality":{"key":"05758004","name":"Bünde, Stadt","type":"Stadt"},"district":{"key":"05758","name":"Herford","type":"Kreis"},"federalState":{"key":"05","name":"Nordrhein-Westfalen"}},{"name":"Stempeldiek","postalCode":"32257","locality":"Bünde","municipality":{"key":"05758004","name":"Bünde, Stadt","type":"Stadt"},"district":{"key":"05758","name":"Herford","type":"Kreis"},"federalState":{"key":"05","name":"Nordrhein-Westfalen"}},{"name":"Stettiner Str.","postalCode":"32257","locality":"Bünde","municipality":{"key":"05758004","name":"Bünde, Stadt","type":"Stadt"},"district":{"key":"05758","name":"Herford","type":"Kreis"},"federalState":{"key":"05","name":"Nordrhein-Westfalen"}},{"name":"Stiller Frieden","postalCode":"32257","locality":"Bünde","municipality":{"key":"05758004","name":"Bünde, Stadt","type":"Stadt"},"district":{"key":"05758","name":"Herford","type":"Kreis"},"federalState":{"key":"05","name":"Nordrhein-Westfalen"}},{"name":"Stormstr.","postalCode":"32257","locality":"Bünde","municipality":{"key":"05758004","name":"Bünde, Stadt","type":"Stadt"},"district":{"key":"05758","name":"Herford","type":"Kreis"},"federalState":{"key":"05","name":"Nordrhein-Westfalen"}},{"name":"Strotweg","postalCode":"32257","locality":"Bünde","municipality":{"key":"05758004","name":"Bünde, Stadt","type":"Stadt"},"district":{"key":"05758","name":"Herford","type":"Kreis"},"federalState":{"key":"05","name":"Nordrhein-Westfalen"}},{"name":"Südfeldstr.","postalCode":"32257","locality":"Bünde","municipality":{"key":"05758004","name":"Bünde, Stadt","type":"Stadt"},"district":{"key":"05758","name":"Herford","type":"Kreis"},"federalState":{"key":"05","name":"Nordrhein-Westfalen"}},{"name":"Talstr.","postalCode":"32257","locality":"Bünde","municipality":{"key":"05758004","name":"Bünde, Stadt","type":"Stadt"},"district":{"key":"05758","name":"Herford","type":"Kreis"},"federalState":{"key":"05","name":"Nordrhein-Westfalen"}},{"name":"Tannenbuschstr.","postalCode":"32257","locality":"Bünde","municipality":{"key":"05758004","name":"Bünde, Stadt","type":"Stadt"},"district":{"key":"05758","name":"Herford","type":"Kreis"},"federalState":{"key":"05","name":"Nordrhein-Westfalen"}},{"name":"Teichstr.","postalCode":"27386","locality":"Hemsbünde","municipality":{"key":"03357024","name":"Hemsbünde","type":"Kreisangehörige_Gemeinde"},"district":{"key":"03357","name":"Rotenburg (Wümme)","type":"Landkreis"},"federalState":{"key":"03","name":"Niedersachsen"}},{"name":"Teichstr.","postalCode":"32257","locality":"Bünde","municipality":{"key":"05758004","name":"Bünde, Stadt","type":"Stadt"},"district":{"key":"05758","name":"Herford","type":"Kreis"},"federalState":{"key":"05","name":"Nordrhein-Westfalen"}},{"name":"Theodora-Löwenstein-Str.","postalCode":"32257","locality":"Bünde","municipality":{"key":"05758004","name":"Bünde, Stadt","type":"Stadt"},"district":{"key":"05758","name":"Herford","type":"Kreis"},"federalState":{"key":"05","name":"Nordrhein-Westfalen"}},{"name":"Theodor-Heuss-Str.","postalCode":"32257","locality":"Bünde","municipality":{"key":"05758004","name":"Bünde, Stadt","type":"Stadt"},"district":{"key":"05758","name":"Herford","type":"Kreis"},"federalState":{"key":"05","name":"Nordrhein-Westfalen"}},{"name":"Thomas-Mann-Str.","postalCode":"32257","locality":"Bünde","municipality":{"key":"05758004","name":"Bünde, Stadt","type":"Stadt"},"district":{"key":"05758","name":"Herford","type":"Kreis"},"federalState":{"key":"05","name":"Nordrhein-Westfalen"}},{"name":"Tonstr.","postalCode":"32257","locality":"Bünde","municipality":{"key":"05758004","name":"Bünde, Stadt","type":"Stadt"},"district":{"key":"05758","name":"Herford","type":"Kreis"},"federalState":{"key":"05","name":"Nordrhein-Westfalen"}},{"name":"Toppenwiesen","postalCode":"32257","locality":"Bünde","municipality":{"key":"05758004","name":"Bünde, Stadt","type":"Stadt"},"district":{"key":"05758","name":"Herford","type":"Kreis"},"federalState":{"key":"05","name":"Nordrhein-Westfalen"}},{"name":"Treptower Str.","postalCode":"32257","locality":"Bünde","municipality":{"key":"05758004","name":"Bünde, Stadt","type":"Stadt"},"district":{"key":"05758","name":"Herford","type":"Kreis"},"federalState":{"key":"05","name":"Nordrhein-Westfalen"}},{"name":"Triftenweg","postalCode":"32257","locality":"Bünde","municipality":{"key":"05758004","name":"Bünde, Stadt","type":"Stadt"},"district":{"key":"05758","name":"Herford","type":"Kreis"},"federalState":{"key":"05","name":"Nordrhein-Westfalen"}},{"name":"Triftweg","postalCode":"27386","locality":"Hemsbünde","municipality":{"key":"03357024","name":"Hemsbünde","type":"Kreisangehörige_Gemeinde"},"district":{"key":"03357","name":"Rotenburg (Wümme)","type":"Landkreis"},"federalState":{"key":"03","name":"Niedersachsen"}},{"name":"Tulpenstr.","postalCode":"32257","locality":"Bünde","municipality":{"key":"05758004","name":"Bünde, Stadt","type":"Stadt"},"district":{"key":"05758","name":"Herford","type":"Kreis"},"federalState":{"key":"05","name":"Nordrhein-Westfalen"}},{"name":"Tulpenweg","postalCode":"27386","locality":"Hemsbünde","municipality":{"key":"03357024","name":"Hemsbünde","type":"Kreisangehörige_Gemeinde"},"district":{"key":"03357","name":"Rotenburg (Wümme)","type":"Landkreis"},"federalState":{"key":"03","name":"Niedersachsen"}},{"name":"Turnerstr.","postalCode":"32257","locality":"Bünde","municipality":{"key":"05758004","name":"Bünde, Stadt","type":"Stadt"},"district":{"key":"05758","name":"Herford","type":"Kreis"},"federalState":{"key":"05","name":"Nordrhein-Westfalen"}},{"name":"Uferstr.","postalCode":"32257","locality":"Bünde","municipality":{"key":"05758004","name":"Bünde, Stadt","type":"Stadt"},"district":{"key":"05758","name":"Herford","type":"Kreis"},"federalState":{"key":"05","name":"Nordrhein-Westfalen"}},{"name":"Uhlandstr.","postalCode":"32257","locality":"Bünde","municipality":{"key":"05758004","name":"Bünde, Stadt","type":"Stadt"},"district":{"key":"05758","name":"Herford","type":"Kreis"},"federalState":{"key":"05","name":"Nordrhein-Westfalen"}},{"name":"Uhlendiekstr.","postalCode":"32257","locality":"Bünde","municipality":{"key":"05758004","name":"Bünde, Stadt","type":"Stadt"},"district":{"key":"05758","name":"Herford","type":"Kreis"},"federalState":{"key":"05","name":"Nordrhein-Westfalen"}},{"name":"Ulmenstr.","postalCode":"32257","locality":"Bünde","municipality":{"key":"05758004","name":"Bünde, Stadt","type":"Stadt"},"district":{"key":"05758","name":"Herford","type":"Kreis"},"federalState":{"key":"05","name":"Nordrhein-Westfalen"}},{"name":"Untergönner Str.","postalCode":"32257","locality":"Bünde","municipality":{"key":"05758004","name":"Bünde, Stadt","type":"Stadt"},"district":{"key":"05758","name":"Herford","type":"Kreis"},"federalState":{"key":"05","name":"Nordrhein-Westfalen"}},{"name":"Upp'n Kamp","postalCode":"27386","locality":"Hemsbünde","municipality":{"key":"03357024","name":"Hemsbünde","type":"Kreisangehörige_Gemeinde"},"district":{"key":"03357","name":"Rotenburg (Wümme)","type":"Landkreis"},"federalState":{"key":"03","name":"Niedersachsen"}},{"name":"Urbanstr.","postalCode":"32257","locality":"Bünde","municipality":{"key":"05758004","name":"Bünde, Stadt","type":"Stadt"},"district":{"key":"05758","name":"Herford","type":"Kreis"},"federalState":{"key":"05","name":"Nordrhein-Westfalen"}},{"name":"Veilchenstr.","postalCode":"32257","locality":"Bünde","municipality":{"key":"05758004","name":"Bünde, Stadt","type":"Stadt"},"district":{"key":"05758","name":"Herford","type":"Kreis"},"federalState":{"key":"05","name":"Nordrhein-Westfalen"}},{"name":"Veilchenweg","postalCode":"27386","locality":"Hemsbünde","municipality":{"key":"03357024","name":"Hemsbünde","type":"Kreisangehörige_Gemeinde"},"district":{"key":"03357","name":"Rotenburg (Wümme)","type":"Landkreis"},"federalState":{"key":"03","name":"Niedersachsen"}},{"name":"Vom-Stein-Str.","postalCode":"32257","locality":"Bünde","municipality":{"key":"05758004","name":"Bünde, Stadt","type":"Stadt"},"district":{"key":"05758","name":"Herford","type":"Kreis"},"federalState":{"key":"05","name":"Nordrhein-Westfalen"}},{"name":"Vor dem Brinke","postalCode":"32257","locality":"Bünde","municipality":{"key":"05758004","name":"Bünde, Stadt","type":"Stadt"},"district":{"key":"05758","name":"Herford","type":"Kreis"},"federalState":{"key":"05","name":"Nordrhein-Westfalen"}},{"name":"Vor dem Bruche","postalCode":"32257","locality":"Bünde","municipality":{"key":"05758004","name":"Bünde, Stadt","type":"Stadt"},"district":{"key":"05758","name":"Herford","type":"Kreis"},"federalState":{"key":"05","name":"Nordrhein-Westfalen"}},{"name":"Vor den Döhren","postalCode":"32257","locality":"Bünde","municipality":{"key":"05758004","name":"Bünde, Stadt","type":"Stadt"},"district":{"key":"05758","name":"Herford","type":"Kreis"},"federalState":{"key":"05","name":"Nordrhein-Westfalen"}},{"name":"Vor der Kirche","postalCode":"32257","locality":"Bünde","municipality":{"key":"05758004","name":"Bünde, Stadt","type":"Stadt"},"district":{"key":"05758","name":"Herford","type":"Kreis"},"federalState":{"key":"05","name":"Nordrhein-Westfalen"}},{"name":"Vorm Walde","postalCode":"32257","locality":"Bünde","municipality":{"key":"05758004","name":"Bünde, Stadt","type":"Stadt"},"district":{"key":"05758","name":"Herford","type":"Kreis"},"federalState":{"key":"05","name":"Nordrhein-Westfalen"}},{"name":"Voßbruchweg","postalCode":"32257","locality":"Bünde","municipality":{"key":"05758004","name":"Bünde, Stadt","type":"Stadt"},"district":{"key":"05758","name":"Herford","type":"Kreis"},"federalState":{"key":"05","name":"Nordrhein-Westfalen"}},{"name":"Wagnerstr.","postalCode":"32257","locality":"Bünde","municipality":{"key":"05758004","name":"Bünde, Stadt","type":"Stadt"},"district":{"key":"05758","name":"Herford","type":"Kreis"},"federalState":{"key":"05","name":"Nordrhein-Westfalen"}},{"name":"Waldstr.","postalCode":"32257","locality":"Bünde","municipality":{"key":"05758004","name":"Bünde, Stadt","type":"Stadt"},"district":{"key":"05758","name":"Herford","type":"Kreis"},"federalState":{"key":"05","name":"Nordrhein-Westfalen"}},{"name":"Wasserbreite","postalCode":"32257","locality":"Bünde","municipality":{"key":"05758004","name":"Bünde, Stadt","type":"Stadt"},"district":{"key":"05758","name":"Herford","type":"Kreis"},"federalState":{"key":"05","name":"Nordrhein-Westfalen"}},{"name":"Weberstr.","postalCode":"32257","locality":"Bünde","municipality":{"key":"05758004","name":"Bünde, Stadt","type":"Stadt"},"district":{"key":"05758","name":"Herford","type":"Kreis"},"federalState":{"key":"05","name":"Nordrhein-Westfalen"}},{"name":"Wehmstr.","postalCode":"32257","locality":"Bünde","municipality":{"key":"05758004","name":"Bünde, Stadt","type":"Stadt"},"district":{"key":"05758","name":"Herford","type":"Kreis"},"federalState":{"key":"05","name":"Nordrhein-Westfalen"}},{"name":"Weingarten","postalCode":"32257","locality":"Bünde","municipality":{"key":"05758004","name":"Bünde, Stadt","type":"Stadt"},"district":{"key":"05758","name":"Herford","type":"Kreis"},"federalState":{"key":"05","name":"Nordrhein-Westfalen"}},{"name":"Weizenfeld","postalCode":"32257","locality":"Bünde","municipality":{"key":"05758004","name":"Bünde, Stadt","type":"Stadt"},"district":{"key":"05758","name":"Herford","type":"Kreis"},"federalState":{"key":"05","name":"Nordrhein-Westfalen"}},{"name":"Wellensieks Kamp","postalCode":"32257","locality":"Bünde","municipality":{"key":"05758004","name":"Bünde, Stadt","type":"Stadt"},"district":{"key":"05758","name":"Herford","type":"Kreis"},"federalState":{"key":"05","name":"Nordrhein-Westfalen"}},{"name":"Werfer Str.","postalCode":"32257","locality":"Bünde","municipality":{"key":"05758004","name":"Bünde, Stadt","type":"Stadt"},"district":{"key":"05758","name":"Herford","type":"Kreis"},"federalState":{"key":"05","name":"Nordrhein-Westfalen"}},{"name":"Weseler Str.","postalCode":"32257","locality":"Bünde","municipality":{"key":"05758004","name":"Bünde, Stadt","type":"Stadt"},"district":{"key":"05758","name":"Herford","type":"Kreis"},"federalState":{"key":"05","name":"Nordrhein-Westfalen"}},{"name":"Wichernstr.","postalCode":"32257","locality":"Bünde","municipality":{"key":"05758004","name":"Bünde, Stadt","type":"Stadt"},"district":{"key":"05758","name":"Herford","type":"Kreis"},"federalState":{"key":"05","name":"Nordrhein-Westfalen"}},{"name":"Wickenweg","postalCode":"32257","locality":"Bünde","municipality":{"key":"05758004","name":"Bünde, Stadt","type":"Stadt"},"district":{"key":"05758","name":"Herford","type":"Kreis"},"federalState":{"key":"05","name":"Nordrhein-Westfalen"}},{"name":"Wiehenstr.","postalCode":"32257","locality":"Bünde","municipality":{"key":"05758004","name":"Bünde, Stadt","type":"Stadt"},"district":{"key":"05758","name":"Herford","type":"Kreis"},"federalState":{"key":"05","name":"Nordrhein-Westfalen"}},{"name":"Wielandstr.","postalCode":"32257","locality":"Bünde","municipality":{"key":"05758004","name":"Bünde, Stadt","type":"Stadt"},"district":{"key":"05758","name":"Herford","type":"Kreis"},"federalState":{"key":"05","name":"Nordrhein-Westfalen"}},{"name":"Wiesenstr.","postalCode":"32257","locality":"Bünde","municipality":{"key":"05758004","name":"Bünde, Stadt","type":"Stadt"},"district":{"key":"05758","name":"Herford","type":"Kreis"},"federalState":{"key":"05","name":"Nordrhein-Westfalen"}},{"name":"Wilhelm-Raabe-Str.","postalCode":"32257","locality":"Bünde","municipality":{"key":"05758004","name":"Bünde, Stadt","type":"Stadt"},"district":{"key":"05758","name":"Herford","type":"Kreis"},"federalState":{"key":"05","name":"Nordrhein-Westfalen"}},{"name":"Wilhelmstr.","postalCode":"32257","locality":"Bünde","municipality":{"key":"05758004","name":"Bünde, Stadt","type":"Stadt"},"district":{"key":"05758","name":"Herford","type":"Kreis"},"federalState":{"key":"05","name":"Nordrhein-Westfalen"}},{"name":"Wincklerstr.","postalCode":"32257","locality":"Bünde","municipality":{"key":"05758004","name":"Bünde, Stadt","type":"Stadt"},"district":{"key":"05758","name":"Herford","type":"Kreis"},"federalState":{"key":"05","name":"Nordrhein-Westfalen"}},{"name":"Winkelstr.","postalCode":"32257","locality":"Bünde","municipality":{"key":"05758004","name":"Bünde, Stadt","type":"Stadt"},"district":{"key":"05758","name":"Herford","type":"Kreis"},"federalState":{"key":"05","name":"Nordrhein-Westfalen"}},{"name":"Wirtschaftsweg","postalCode":"32257","locality":"Bünde","municipality":{"key":"05758004","name":"Bünde, Stadt","type":"Stadt"},"district":{"key":"05758","name":"Herford","type":"Kreis"},"federalState":{"key":"05","name":"Nordrhein-Westfalen"}},{"name":"Wittekindstr.","postalCode":"32257","locality":"Bünde","municipality":{"key":"05758004","name":"Bünde, Stadt","type":"Stadt"},"district":{"key":"05758","name":"Herford","type":"Kreis"},"federalState":{"key":"05","name":"Nordrhein-Westfalen"}},{"name":"Wittholzstr.","postalCode":"32257","locality":"Bünde","municipality":{"key":"05758004","name":"Bünde, Stadt","type":"Stadt"},"district":{"key":"05758","name":"Herford","type":"Kreis"},"federalState":{"key":"05","name":"Nordrhein-Westfalen"}},{"name":"Wittkamp","postalCode":"32257","locality":"Bünde","municipality":{"key":"05758004","name":"Bünde, Stadt","type":"Stadt"},"district":{"key":"05758","name":"Herford","type":"Kreis"},"federalState":{"key":"05","name":"Nordrhein-Westfalen"}},{"name":"Wolfgang-Borchert-Str.","postalCode":"32257","locality":"Bünde","municipality":{"key":"05758004","name":"Bünde, Stadt","type":"Stadt"},"district":{"key":"05758","name":"Herford","type":"Kreis"},"federalState":{"key":"05","name":"Nordrhein-Westfalen"}},{"name":"Worth","postalCode":"27386","locality":"Hemsbünde","municipality":{"key":"03357024","name":"Hemsbünde","type":"Kreisangehörige_Gemeinde"},"district":{"key":"03357","name":"Rotenburg (Wümme)","type":"Landkreis"},"federalState":{"key":"03","name":"Niedersachsen"}},{"name":"Yorckstr.","postalCode":"32052","locality":"Herford","municipality":{"key":"05758012","name":"Herford, Hansestadt","type":"Stadt"},"district":{"key":"05758","name":"Herford","type":"Kreis"},"federalState":{"key":"05","name":"Nordrhein-Westfalen"}},{"name":"Zum Anschuß","postalCode":"32257","locality":"Bünde","municipality":{"key":"05758004","name":"Bünde, Stadt","type":"Stadt"},"district":{"key":"05758","name":"Herford","type":"Kreis"},"federalState":{"key":"05","name":"Nordrhein-Westfalen"}},{"name":"Zum Elsekamp","postalCode":"32257","locality":"Bünde","municipality":{"key":"05758004","name":"Bünde, Stadt","type":"Stadt"},"district":{"key":"05758","name":"Herford","type":"Kreis"},"federalState":{"key":"05","name":"Nordrhein-Westfalen"}},{"name":"Zum Hasselbach","postalCode":"27386","locality":"Hemsbünde","municipality":{"key":"03357024","name":"Hemsbünde","type":"Kreisangehörige_Gemeinde"},"district":{"key":"03357","name":"Rotenburg (Wümme)","type":"Landkreis"},"federalState":{"key":"03","name":"Niedersachsen"}},{"name":"Zum kühlen Grunde","postalCode":"27386","locality":"Hemsbünde","municipality":{"key":"03357024","name":"Hemsbünde","type":"Kreisangehörige_Gemeinde"},"district":{"key":"03357","name":"Rotenburg (Wümme)","type":"Landkreis"},"federalState":{"key":"03","name":"Niedersachsen"}},{"name":"Zum Waldhaus","postalCode":"32257","locality":"Bünde","municipality":{"key":"05758004","name":"Bünde, Stadt","type":"Stadt"},"district":{"key":"05758","name":"Herford","type":"Kreis"},"federalState":{"key":"05","name":"Nordrhein-Westfalen"}},{"name":"Zur Schnuckenheide","postalCode":"27386","locality":"Hemsbünde","municipality":{"key":"03357024","name":"Hemsbünde","type":"Kreisangehörige_Gemeinde"},"district":{"key":"03357","name":"Rotenburg (Wümme)","type":"Landkreis"},"federalState":{"key":"03","name":"Niedersachsen"}},{"name":"Zur Wilhelmshöhe","postalCode":"32257","locality":"Bünde","municipality":{"key":"05758004","name":"Bünde, Stadt","type":"Stadt"},"district":{"key":"05758","name":"Herford","type":"Kreis"},"federalState":{"key":"05","name":"Nordrhein-Westfalen"}},{"name":"Zypressenweg","postalCode":"32257","locality":"Bünde","municipality":{"key":"05758004","name":"Bünde, Stadt","type":"Stadt"},"district":{"key":"05758","name":"Herford","type":"Kreis"},"federalState":{"key":"05","name":"Nordrhein-Westfalen"}},]