[{"name":"Abt-Benedikt-Str.","postalCode":"77866","locality":"Rheinau","municipality":{"key":"08317153","name":"Rheinau, Stadt","type":"Stadt"},"district":{"key":"08317","name":"Ortenaukreis","type":"Landkreis"},"federalState":{"key":"08","name":"Baden-Württemberg"}},{"name":"Achertalstr.","postalCode":"77866","locality":"Rheinau","municipality":{"key":"08317153","name":"Rheinau, Stadt","type":"Stadt"},"district":{"key":"08317","name":"Ortenaukreis","type":"Landkreis"},"federalState":{"key":"08","name":"Baden-Württemberg"}},{"name":"Ahornweg","postalCode":"77866","locality":"Rheinau","municipality":{"key":"08317153","name":"Rheinau, Stadt","type":"Stadt"},"district":{"key":"08317","name":"Ortenaukreis","type":"Landkreis"},"federalState":{"key":"08","name":"Baden-Württemberg"}},{"name":"Akazienweg","postalCode":"77866","locality":"Rheinau","municipality":{"key":"08317153","name":"Rheinau, Stadt","type":"Stadt"},"district":{"key":"08317","name":"Ortenaukreis","type":"Landkreis"},"federalState":{"key":"08","name":"Baden-Württemberg"}},{"name":"Altrheinstr.","postalCode":"77866","locality":"Rheinau","municipality":{"key":"08317153","name":"Rheinau, Stadt","type":"Stadt"},"district":{"key":"08317","name":"Ortenaukreis","type":"Landkreis"},"federalState":{"key":"08","name":"Baden-Württemberg"}},{"name":"Am Erlenpark","postalCode":"77866","locality":"Rheinau","municipality":{"key":"08317153","name":"Rheinau, Stadt","type":"Stadt"},"district":{"key":"08317","name":"Ortenaukreis","type":"Landkreis"},"federalState":{"key":"08","name":"Baden-Württemberg"}},{"name":"Am Feldgraben","postalCode":"77866","locality":"Rheinau","municipality":{"key":"08317153","name":"Rheinau, Stadt","type":"Stadt"},"district":{"key":"08317","name":"Ortenaukreis","type":"Landkreis"},"federalState":{"key":"08","name":"Baden-Württemberg"}},{"name":"Am Galgenbach","postalCode":"77866","locality":"Rheinau","municipality":{"key":"08317153","name":"Rheinau, Stadt","type":"Stadt"},"district":{"key":"08317","name":"Ortenaukreis","type":"Landkreis"},"federalState":{"key":"08","name":"Baden-Württemberg"}},{"name":"Am Glockenloch","postalCode":"77866","locality":"Rheinau","municipality":{"key":"08317153","name":"Rheinau, Stadt","type":"Stadt"},"district":{"key":"08317","name":"Ortenaukreis","type":"Landkreis"},"federalState":{"key":"08","name":"Baden-Württemberg"}},{"name":"Am Grün","postalCode":"77866","locality":"Rheinau","municipality":{"key":"08317153","name":"Rheinau, Stadt","type":"Stadt"},"district":{"key":"08317","name":"Ortenaukreis","type":"Landkreis"},"federalState":{"key":"08","name":"Baden-Württemberg"}},{"name":"Am Gumpen","postalCode":"77866","locality":"Rheinau","municipality":{"key":"08317153","name":"Rheinau, Stadt","type":"Stadt"},"district":{"key":"08317","name":"Ortenaukreis","type":"Landkreis"},"federalState":{"key":"08","name":"Baden-Württemberg"}},{"name":"Am Köpfel","postalCode":"77866","locality":"Rheinau","municipality":{"key":"08317153","name":"Rheinau, Stadt","type":"Stadt"},"district":{"key":"08317","name":"Ortenaukreis","type":"Landkreis"},"federalState":{"key":"08","name":"Baden-Württemberg"}},{"name":"Am Kutzenbosch","postalCode":"77866","locality":"Rheinau","municipality":{"key":"08317153","name":"Rheinau, Stadt","type":"Stadt"},"district":{"key":"08317","name":"Ortenaukreis","type":"Landkreis"},"federalState":{"key":"08","name":"Baden-Württemberg"}},{"name":"Am Museum","postalCode":"77866","locality":"Rheinau","municipality":{"key":"08317153","name":"Rheinau, Stadt","type":"Stadt"},"district":{"key":"08317","name":"Ortenaukreis","type":"Landkreis"},"federalState":{"key":"08","name":"Baden-Württemberg"}},{"name":"Am Rheinübergang","postalCode":"77866","locality":"Rheinau","municipality":{"key":"08317153","name":"Rheinau, Stadt","type":"Stadt"},"district":{"key":"08317","name":"Ortenaukreis","type":"Landkreis"},"federalState":{"key":"08","name":"Baden-Württemberg"}},{"name":"Am Ringelplatz","postalCode":"77866","locality":"Rheinau","municipality":{"key":"08317153","name":"Rheinau, Stadt","type":"Stadt"},"district":{"key":"08317","name":"Ortenaukreis","type":"Landkreis"},"federalState":{"key":"08","name":"Baden-Württemberg"}},{"name":"Am Rinnbach","postalCode":"77866","locality":"Rheinau","municipality":{"key":"08317153","name":"Rheinau, Stadt","type":"Stadt"},"district":{"key":"08317","name":"Ortenaukreis","type":"Landkreis"},"federalState":{"key":"08","name":"Baden-Württemberg"}},{"name":"Am Spielplatz","postalCode":"77866","locality":"Rheinau","municipality":{"key":"08317153","name":"Rheinau, Stadt","type":"Stadt"},"district":{"key":"08317","name":"Ortenaukreis","type":"Landkreis"},"federalState":{"key":"08","name":"Baden-Württemberg"}},{"name":"Am Stein","postalCode":"77866","locality":"Rheinau","municipality":{"key":"08317153","name":"Rheinau, Stadt","type":"Stadt"},"district":{"key":"08317","name":"Ortenaukreis","type":"Landkreis"},"federalState":{"key":"08","name":"Baden-Württemberg"}},{"name":"Am Viehgrund","postalCode":"77866","locality":"Rheinau","municipality":{"key":"08317153","name":"Rheinau, Stadt","type":"Stadt"},"district":{"key":"08317","name":"Ortenaukreis","type":"Landkreis"},"federalState":{"key":"08","name":"Baden-Württemberg"}},{"name":"An den Fischteichen","postalCode":"77866","locality":"Rheinau","municipality":{"key":"08317153","name":"Rheinau, Stadt","type":"Stadt"},"district":{"key":"08317","name":"Ortenaukreis","type":"Landkreis"},"federalState":{"key":"08","name":"Baden-Württemberg"}},{"name":"An den Hanfretzen","postalCode":"77866","locality":"Rheinau","municipality":{"key":"08317153","name":"Rheinau, Stadt","type":"Stadt"},"district":{"key":"08317","name":"Ortenaukreis","type":"Landkreis"},"federalState":{"key":"08","name":"Baden-Württemberg"}},{"name":"Auestr.","postalCode":"77866","locality":"Rheinau","municipality":{"key":"08317153","name":"Rheinau, Stadt","type":"Stadt"},"district":{"key":"08317","name":"Ortenaukreis","type":"Landkreis"},"federalState":{"key":"08","name":"Baden-Württemberg"}},{"name":"Auf der Höhe","postalCode":"77866","locality":"Rheinau","municipality":{"key":"08317153","name":"Rheinau, Stadt","type":"Stadt"},"district":{"key":"08317","name":"Ortenaukreis","type":"Landkreis"},"federalState":{"key":"08","name":"Baden-Württemberg"}},{"name":"Bachstr.","postalCode":"77866","locality":"Rheinau","municipality":{"key":"08317153","name":"Rheinau, Stadt","type":"Stadt"},"district":{"key":"08317","name":"Ortenaukreis","type":"Landkreis"},"federalState":{"key":"08","name":"Baden-Württemberg"}},{"name":"Badstr.","postalCode":"77866","locality":"Rheinau","municipality":{"key":"08317153","name":"Rheinau, Stadt","type":"Stadt"},"district":{"key":"08317","name":"Ortenaukreis","type":"Landkreis"},"federalState":{"key":"08","name":"Baden-Württemberg"}},{"name":"Bahnfeldgaß","postalCode":"77866","locality":"Rheinau","municipality":{"key":"08317153","name":"Rheinau, Stadt","type":"Stadt"},"district":{"key":"08317","name":"Ortenaukreis","type":"Landkreis"},"federalState":{"key":"08","name":"Baden-Württemberg"}},{"name":"Bahnhofstr.","postalCode":"77866","locality":"Rheinau","municipality":{"key":"08317153","name":"Rheinau, Stadt","type":"Stadt"},"district":{"key":"08317","name":"Ortenaukreis","type":"Landkreis"},"federalState":{"key":"08","name":"Baden-Württemberg"}},{"name":"Bannfurter Brücke","postalCode":"77866","locality":"Rheinau","municipality":{"key":"08317153","name":"Rheinau, Stadt","type":"Stadt"},"district":{"key":"08317","name":"Ortenaukreis","type":"Landkreis"},"federalState":{"key":"08","name":"Baden-Württemberg"}},{"name":"Bärengasse","postalCode":"77866","locality":"Rheinau","municipality":{"key":"08317153","name":"Rheinau, Stadt","type":"Stadt"},"district":{"key":"08317","name":"Ortenaukreis","type":"Landkreis"},"federalState":{"key":"08","name":"Baden-Württemberg"}},{"name":"Barfußpfad","postalCode":"77866","locality":"Rheinau","municipality":{"key":"08317153","name":"Rheinau, Stadt","type":"Stadt"},"district":{"key":"08317","name":"Ortenaukreis","type":"Landkreis"},"federalState":{"key":"08","name":"Baden-Württemberg"}},{"name":"Baron-Kückh-Str.","postalCode":"77866","locality":"Rheinau","municipality":{"key":"08317153","name":"Rheinau, Stadt","type":"Stadt"},"district":{"key":"08317","name":"Ortenaukreis","type":"Landkreis"},"federalState":{"key":"08","name":"Baden-Württemberg"}},{"name":"Bauweg","postalCode":"77866","locality":"Rheinau","municipality":{"key":"08317153","name":"Rheinau, Stadt","type":"Stadt"},"district":{"key":"08317","name":"Ortenaukreis","type":"Landkreis"},"federalState":{"key":"08","name":"Baden-Württemberg"}},{"name":"Benzmattenweg","postalCode":"77866","locality":"Rheinau","municipality":{"key":"08317153","name":"Rheinau, Stadt","type":"Stadt"},"district":{"key":"08317","name":"Ortenaukreis","type":"Landkreis"},"federalState":{"key":"08","name":"Baden-Württemberg"}},{"name":"Bergstr.","postalCode":"77866","locality":"Rheinau","municipality":{"key":"08317153","name":"Rheinau, Stadt","type":"Stadt"},"district":{"key":"08317","name":"Ortenaukreis","type":"Landkreis"},"federalState":{"key":"08","name":"Baden-Württemberg"}},{"name":"Betonrohr als Steg","postalCode":"77866","locality":"Rheinau","municipality":{"key":"08317153","name":"Rheinau, Stadt","type":"Stadt"},"district":{"key":"08317","name":"Ortenaukreis","type":"Landkreis"},"federalState":{"key":"08","name":"Baden-Württemberg"}},{"name":"Bichofsheimer Grund","postalCode":"77866","locality":"Rheinau","municipality":{"key":"08317153","name":"Rheinau, Stadt","type":"Stadt"},"district":{"key":"08317","name":"Ortenaukreis","type":"Landkreis"},"federalState":{"key":"08","name":"Baden-Württemberg"}},{"name":"Bierkellerstr.","postalCode":"77866","locality":"Rheinau","municipality":{"key":"08317153","name":"Rheinau, Stadt","type":"Stadt"},"district":{"key":"08317","name":"Ortenaukreis","type":"Landkreis"},"federalState":{"key":"08","name":"Baden-Württemberg"}},{"name":"Birkenweg","postalCode":"77866","locality":"Rheinau","municipality":{"key":"08317153","name":"Rheinau, Stadt","type":"Stadt"},"district":{"key":"08317","name":"Ortenaukreis","type":"Landkreis"},"federalState":{"key":"08","name":"Baden-Württemberg"}},{"name":"Birnenwaldstr.","postalCode":"77866","locality":"Rheinau","municipality":{"key":"08317153","name":"Rheinau, Stadt","type":"Stadt"},"district":{"key":"08317","name":"Ortenaukreis","type":"Landkreis"},"federalState":{"key":"08","name":"Baden-Württemberg"}},{"name":"Blaues Loch - Brücke","postalCode":"77977","locality":"Rheinau","municipality":{"key":"08317971","name":"Rheinau, gemeindefreies Gebiet","type":"Gemeindefreies_Gebiet_Unbewohnt"},"district":{"key":"08317","name":"Ortenaukreis","type":"Landkreis"},"federalState":{"key":"08","name":"Baden-Württemberg"}},{"name":"Bleichstr.","postalCode":"77866","locality":"Rheinau","municipality":{"key":"08317153","name":"Rheinau, Stadt","type":"Stadt"},"district":{"key":"08317","name":"Ortenaukreis","type":"Landkreis"},"federalState":{"key":"08","name":"Baden-Württemberg"}},{"name":"Blumenstr.","postalCode":"77866","locality":"Rheinau","municipality":{"key":"08317153","name":"Rheinau, Stadt","type":"Stadt"},"district":{"key":"08317","name":"Ortenaukreis","type":"Landkreis"},"federalState":{"key":"08","name":"Baden-Württemberg"}},{"name":"Brahneckweg","postalCode":"77866","locality":"Rheinau","municipality":{"key":"08317153","name":"Rheinau, Stadt","type":"Stadt"},"district":{"key":"08317","name":"Ortenaukreis","type":"Landkreis"},"federalState":{"key":"08","name":"Baden-Württemberg"}},{"name":"Bruckenfeldstr.","postalCode":"77866","locality":"Rheinau","municipality":{"key":"08317153","name":"Rheinau, Stadt","type":"Stadt"},"district":{"key":"08317","name":"Ortenaukreis","type":"Landkreis"},"federalState":{"key":"08","name":"Baden-Württemberg"}},{"name":"Brummerlohweg","postalCode":"77866","locality":"Rheinau","municipality":{"key":"08317153","name":"Rheinau, Stadt","type":"Stadt"},"district":{"key":"08317","name":"Ortenaukreis","type":"Landkreis"},"federalState":{"key":"08","name":"Baden-Württemberg"}},{"name":"Brunnenweg","postalCode":"77866","locality":"Rheinau","municipality":{"key":"08317153","name":"Rheinau, Stadt","type":"Stadt"},"district":{"key":"08317","name":"Ortenaukreis","type":"Landkreis"},"federalState":{"key":"08","name":"Baden-Württemberg"}},{"name":"Buchenweg","postalCode":"77866","locality":"Rheinau","municipality":{"key":"08317153","name":"Rheinau, Stadt","type":"Stadt"},"district":{"key":"08317","name":"Ortenaukreis","type":"Landkreis"},"federalState":{"key":"08","name":"Baden-Württemberg"}},{"name":"C.-F.-Klotter-Str.","postalCode":"77866","locality":"Rheinau","municipality":{"key":"08317153","name":"Rheinau, Stadt","type":"Stadt"},"district":{"key":"08317","name":"Ortenaukreis","type":"Landkreis"},"federalState":{"key":"08","name":"Baden-Württemberg"}},{"name":"Dorfstr.","postalCode":"77866","locality":"Rheinau","municipality":{"key":"08317153","name":"Rheinau, Stadt","type":"Stadt"},"district":{"key":"08317","name":"Ortenaukreis","type":"Landkreis"},"federalState":{"key":"08","name":"Baden-Württemberg"}},{"name":"Dörnauweg","postalCode":"77866","locality":"Rheinau","municipality":{"key":"08317153","name":"Rheinau, Stadt","type":"Stadt"},"district":{"key":"08317","name":"Ortenaukreis","type":"Landkreis"},"federalState":{"key":"08","name":"Baden-Württemberg"}},{"name":"Drechslerweg","postalCode":"77866","locality":"Rheinau","municipality":{"key":"08317153","name":"Rheinau, Stadt","type":"Stadt"},"district":{"key":"08317","name":"Ortenaukreis","type":"Landkreis"},"federalState":{"key":"08","name":"Baden-Württemberg"}},{"name":"Dreimarkerweg","postalCode":"77866","locality":"Rheinau","municipality":{"key":"08317153","name":"Rheinau, Stadt","type":"Stadt"},"district":{"key":"08317","name":"Ortenaukreis","type":"Landkreis"},"federalState":{"key":"08","name":"Baden-Württemberg"}},{"name":"Dr.-Fritz-Baas-Weg","postalCode":"77866","locality":"Rheinau","municipality":{"key":"08317153","name":"Rheinau, Stadt","type":"Stadt"},"district":{"key":"08317","name":"Ortenaukreis","type":"Landkreis"},"federalState":{"key":"08","name":"Baden-Württemberg"}},{"name":"Dr.-Vogelbacher-Str.","postalCode":"77866","locality":"Rheinau","municipality":{"key":"08317153","name":"Rheinau, Stadt","type":"Stadt"},"district":{"key":"08317","name":"Ortenaukreis","type":"Landkreis"},"federalState":{"key":"08","name":"Baden-Württemberg"}},{"name":"Durbanhofstr.","postalCode":"77866","locality":"Rheinau","municipality":{"key":"08317153","name":"Rheinau, Stadt","type":"Stadt"},"district":{"key":"08317","name":"Ortenaukreis","type":"Landkreis"},"federalState":{"key":"08","name":"Baden-Württemberg"}},{"name":"Eichenweg","postalCode":"77866","locality":"Rheinau","municipality":{"key":"08317153","name":"Rheinau, Stadt","type":"Stadt"},"district":{"key":"08317","name":"Ortenaukreis","type":"Landkreis"},"federalState":{"key":"08","name":"Baden-Württemberg"}},{"name":"Erich-Heckel-Weg","postalCode":"77866","locality":"Rheinau","municipality":{"key":"08317153","name":"Rheinau, Stadt","type":"Stadt"},"district":{"key":"08317","name":"Ortenaukreis","type":"Landkreis"},"federalState":{"key":"08","name":"Baden-Württemberg"}},{"name":"Erlenpark","postalCode":"77866","locality":"Rheinau","municipality":{"key":"08317153","name":"Rheinau, Stadt","type":"Stadt"},"district":{"key":"08317","name":"Ortenaukreis","type":"Landkreis"},"federalState":{"key":"08","name":"Baden-Württemberg"}},{"name":"Erlenstr.","postalCode":"77866","locality":"Rheinau","municipality":{"key":"08317153","name":"Rheinau, Stadt","type":"Stadt"},"district":{"key":"08317","name":"Ortenaukreis","type":"Landkreis"},"federalState":{"key":"08","name":"Baden-Württemberg"}},{"name":"Erlenweg","postalCode":"77866","locality":"Rheinau","municipality":{"key":"08317153","name":"Rheinau, Stadt","type":"Stadt"},"district":{"key":"08317","name":"Ortenaukreis","type":"Landkreis"},"federalState":{"key":"08","name":"Baden-Württemberg"}},{"name":"Ernst-Ludwig-Kirchner-Weg","postalCode":"77866","locality":"Rheinau","municipality":{"key":"08317153","name":"Rheinau, Stadt","type":"Stadt"},"district":{"key":"08317","name":"Ortenaukreis","type":"Landkreis"},"federalState":{"key":"08","name":"Baden-Württemberg"}},{"name":"Eschweg","postalCode":"77866","locality":"Rheinau","municipality":{"key":"08317153","name":"Rheinau, Stadt","type":"Stadt"},"district":{"key":"08317","name":"Ortenaukreis","type":"Landkreis"},"federalState":{"key":"08","name":"Baden-Württemberg"}},{"name":"Eselsbrücke","postalCode":"77866","locality":"Rheinau","municipality":{"key":"08317153","name":"Rheinau, Stadt","type":"Stadt"},"district":{"key":"08317","name":"Ortenaukreis","type":"Landkreis"},"federalState":{"key":"08","name":"Baden-Württemberg"}},{"name":"Färberweg","postalCode":"77866","locality":"Rheinau","municipality":{"key":"08317153","name":"Rheinau, Stadt","type":"Stadt"},"district":{"key":"08317","name":"Ortenaukreis","type":"Landkreis"},"federalState":{"key":"08","name":"Baden-Württemberg"}},{"name":"Feldofenstr.","postalCode":"77866","locality":"Rheinau","municipality":{"key":"08317153","name":"Rheinau, Stadt","type":"Stadt"},"district":{"key":"08317","name":"Ortenaukreis","type":"Landkreis"},"federalState":{"key":"08","name":"Baden-Württemberg"}},{"name":"Fichtenweg","postalCode":"77866","locality":"Rheinau","municipality":{"key":"08317153","name":"Rheinau, Stadt","type":"Stadt"},"district":{"key":"08317","name":"Ortenaukreis","type":"Landkreis"},"federalState":{"key":"08","name":"Baden-Württemberg"}},{"name":"Fischadlerweg","postalCode":"77966","locality":"Rheinau","municipality":{"key":"08317971","name":"Rheinau, gemeindefreies Gebiet","type":"Gemeindefreies_Gebiet_Unbewohnt"},"district":{"key":"08317","name":"Ortenaukreis","type":"Landkreis"},"federalState":{"key":"08","name":"Baden-Württemberg"}},{"name":"Fischadlerweg","postalCode":"77977","locality":"Rheinau","municipality":{"key":"08317971","name":"Rheinau, gemeindefreies Gebiet","type":"Gemeindefreies_Gebiet_Unbewohnt"},"district":{"key":"08317","name":"Ortenaukreis","type":"Landkreis"},"federalState":{"key":"08","name":"Baden-Württemberg"}},{"name":"Fischereck","postalCode":"77866","locality":"Rheinau","municipality":{"key":"08317153","name":"Rheinau, Stadt","type":"Stadt"},"district":{"key":"08317","name":"Ortenaukreis","type":"Landkreis"},"federalState":{"key":"08","name":"Baden-Württemberg"}},{"name":"Fischerstr.","postalCode":"77866","locality":"Rheinau","municipality":{"key":"08317153","name":"Rheinau, Stadt","type":"Stadt"},"district":{"key":"08317","name":"Ortenaukreis","type":"Landkreis"},"federalState":{"key":"08","name":"Baden-Württemberg"}},{"name":"Fliederstr.","postalCode":"77866","locality":"Rheinau","municipality":{"key":"08317153","name":"Rheinau, Stadt","type":"Stadt"},"district":{"key":"08317","name":"Ortenaukreis","type":"Landkreis"},"federalState":{"key":"08","name":"Baden-Württemberg"}},{"name":"Flößerstr.","postalCode":"77866","locality":"Rheinau","municipality":{"key":"08317153","name":"Rheinau, Stadt","type":"Stadt"},"district":{"key":"08317","name":"Ortenaukreis","type":"Landkreis"},"federalState":{"key":"08","name":"Baden-Württemberg"}},{"name":"Forellenweg","postalCode":"77866","locality":"Rheinau","municipality":{"key":"08317153","name":"Rheinau, Stadt","type":"Stadt"},"district":{"key":"08317","name":"Ortenaukreis","type":"Landkreis"},"federalState":{"key":"08","name":"Baden-Württemberg"}},{"name":"Forsthausstr.","postalCode":"77866","locality":"Rheinau","municipality":{"key":"08317153","name":"Rheinau, Stadt","type":"Stadt"},"district":{"key":"08317","name":"Ortenaukreis","type":"Landkreis"},"federalState":{"key":"08","name":"Baden-Württemberg"}},{"name":"Freiburger Str.","postalCode":"77866","locality":"Rheinau","municipality":{"key":"08317153","name":"Rheinau, Stadt","type":"Stadt"},"district":{"key":"08317","name":"Ortenaukreis","type":"Landkreis"},"federalState":{"key":"08","name":"Baden-Württemberg"}},{"name":"Friedensstr.","postalCode":"77866","locality":"Rheinau","municipality":{"key":"08317153","name":"Rheinau, Stadt","type":"Stadt"},"district":{"key":"08317","name":"Ortenaukreis","type":"Landkreis"},"federalState":{"key":"08","name":"Baden-Württemberg"}},{"name":"Friedhofstr.","postalCode":"77866","locality":"Rheinau","municipality":{"key":"08317153","name":"Rheinau, Stadt","type":"Stadt"},"district":{"key":"08317","name":"Ortenaukreis","type":"Landkreis"},"federalState":{"key":"08","name":"Baden-Württemberg"}},{"name":"Friedrich-Silcher-Weg","postalCode":"77866","locality":"Rheinau","municipality":{"key":"08317153","name":"Rheinau, Stadt","type":"Stadt"},"district":{"key":"08317","name":"Ortenaukreis","type":"Landkreis"},"federalState":{"key":"08","name":"Baden-Württemberg"}},{"name":"Fronsbrücke","postalCode":"77977","locality":"Rheinau","municipality":{"key":"08317971","name":"Rheinau, gemeindefreies Gebiet","type":"Gemeindefreies_Gebiet_Unbewohnt"},"district":{"key":"08317","name":"Ortenaukreis","type":"Landkreis"},"federalState":{"key":"08","name":"Baden-Württemberg"}},{"name":"Funkstationenweg","postalCode":"77866","locality":"Rheinau","municipality":{"key":"08317153","name":"Rheinau, Stadt","type":"Stadt"},"district":{"key":"08317","name":"Ortenaukreis","type":"Landkreis"},"federalState":{"key":"08","name":"Baden-Württemberg"}},{"name":"Fußweg Menzbühndstr. - Langesträngstr.","postalCode":"77866","locality":"Rheinau","municipality":{"key":"08317153","name":"Rheinau, Stadt","type":"Stadt"},"district":{"key":"08317","name":"Ortenaukreis","type":"Landkreis"},"federalState":{"key":"08","name":"Baden-Württemberg"}},{"name":"Gartenstr.","postalCode":"77866","locality":"Rheinau","municipality":{"key":"08317153","name":"Rheinau, Stadt","type":"Stadt"},"district":{"key":"08317","name":"Ortenaukreis","type":"Landkreis"},"federalState":{"key":"08","name":"Baden-Württemberg"}},{"name":"Gaylingweg","postalCode":"77866","locality":"Rheinau","municipality":{"key":"08317153","name":"Rheinau, Stadt","type":"Stadt"},"district":{"key":"08317","name":"Ortenaukreis","type":"Landkreis"},"federalState":{"key":"08","name":"Baden-Württemberg"}},{"name":"Gerberweg","postalCode":"77866","locality":"Rheinau","municipality":{"key":"08317153","name":"Rheinau, Stadt","type":"Stadt"},"district":{"key":"08317","name":"Ortenaukreis","type":"Landkreis"},"federalState":{"key":"08","name":"Baden-Württemberg"}},{"name":"Gewerbestr.","postalCode":"77866","locality":"Rheinau","municipality":{"key":"08317153","name":"Rheinau, Stadt","type":"Stadt"},"district":{"key":"08317","name":"Ortenaukreis","type":"Landkreis"},"federalState":{"key":"08","name":"Baden-Württemberg"}},{"name":"Gieselbachstr.","postalCode":"77866","locality":"Rheinau","municipality":{"key":"08317153","name":"Rheinau, Stadt","type":"Stadt"},"district":{"key":"08317","name":"Ortenaukreis","type":"Landkreis"},"federalState":{"key":"08","name":"Baden-Württemberg"}},{"name":"Gießenweg","postalCode":"77866","locality":"Rheinau","municipality":{"key":"08317153","name":"Rheinau, Stadt","type":"Stadt"},"district":{"key":"08317","name":"Ortenaukreis","type":"Landkreis"},"federalState":{"key":"08","name":"Baden-Württemberg"}},{"name":"Grabenstr.","postalCode":"77866","locality":"Rheinau","municipality":{"key":"08317153","name":"Rheinau, Stadt","type":"Stadt"},"district":{"key":"08317","name":"Ortenaukreis","type":"Landkreis"},"federalState":{"key":"08","name":"Baden-Württemberg"}},{"name":"Gräberfeldstr.","postalCode":"77866","locality":"Rheinau","municipality":{"key":"08317153","name":"Rheinau, Stadt","type":"Stadt"},"district":{"key":"08317","name":"Ortenaukreis","type":"Landkreis"},"federalState":{"key":"08","name":"Baden-Württemberg"}},{"name":"Grasweg","postalCode":"77866","locality":"Rheinau","municipality":{"key":"08317153","name":"Rheinau, Stadt","type":"Stadt"},"district":{"key":"08317","name":"Ortenaukreis","type":"Landkreis"},"federalState":{"key":"08","name":"Baden-Württemberg"}},{"name":"Grenzweg","postalCode":"77866","locality":"Rheinau","municipality":{"key":"08317153","name":"Rheinau, Stadt","type":"Stadt"},"district":{"key":"08317","name":"Ortenaukreis","type":"Landkreis"},"federalState":{"key":"08","name":"Baden-Württemberg"}},{"name":"Grenzweg Linx","postalCode":"77866","locality":"Rheinau","municipality":{"key":"08317153","name":"Rheinau, Stadt","type":"Stadt"},"district":{"key":"08317","name":"Ortenaukreis","type":"Landkreis"},"federalState":{"key":"08","name":"Baden-Württemberg"}},{"name":"Grenzweg / Stellweg 7/8","postalCode":"77866","locality":"Rheinau","municipality":{"key":"08317153","name":"Rheinau, Stadt","type":"Stadt"},"district":{"key":"08317","name":"Ortenaukreis","type":"Landkreis"},"federalState":{"key":"08","name":"Baden-Württemberg"}},{"name":"Groschenwasserweg","postalCode":"77866","locality":"Rheinau","municipality":{"key":"08317153","name":"Rheinau, Stadt","type":"Stadt"},"district":{"key":"08317","name":"Ortenaukreis","type":"Landkreis"},"federalState":{"key":"08","name":"Baden-Württemberg"}},{"name":"Grosser Bosch","postalCode":"77866","locality":"Rheinau","municipality":{"key":"08317153","name":"Rheinau, Stadt","type":"Stadt"},"district":{"key":"08317","name":"Ortenaukreis","type":"Landkreis"},"federalState":{"key":"08","name":"Baden-Württemberg"}},{"name":"Großmühlgarten","postalCode":"77866","locality":"Rheinau","municipality":{"key":"08317153","name":"Rheinau, Stadt","type":"Stadt"},"district":{"key":"08317","name":"Ortenaukreis","type":"Landkreis"},"federalState":{"key":"08","name":"Baden-Württemberg"}},{"name":"Grüneck","postalCode":"77866","locality":"Rheinau","municipality":{"key":"08317153","name":"Rheinau, Stadt","type":"Stadt"},"district":{"key":"08317","name":"Ortenaukreis","type":"Landkreis"},"federalState":{"key":"08","name":"Baden-Württemberg"}},{"name":"Gymnasiumstr.","postalCode":"77866","locality":"Rheinau","municipality":{"key":"08317153","name":"Rheinau, Stadt","type":"Stadt"},"district":{"key":"08317","name":"Ortenaukreis","type":"Landkreis"},"federalState":{"key":"08","name":"Baden-Württemberg"}},{"name":"Hafenstr.","postalCode":"77866","locality":"Rheinau","municipality":{"key":"08317153","name":"Rheinau, Stadt","type":"Stadt"},"district":{"key":"08317","name":"Ortenaukreis","type":"Landkreis"},"federalState":{"key":"08","name":"Baden-Württemberg"}},{"name":"Hafnerweg","postalCode":"77866","locality":"Rheinau","municipality":{"key":"08317153","name":"Rheinau, Stadt","type":"Stadt"},"district":{"key":"08317","name":"Ortenaukreis","type":"Landkreis"},"federalState":{"key":"08","name":"Baden-Württemberg"}},{"name":"Hainbuchenweg","postalCode":"77866","locality":"Rheinau","municipality":{"key":"08317153","name":"Rheinau, Stadt","type":"Stadt"},"district":{"key":"08317","name":"Ortenaukreis","type":"Landkreis"},"federalState":{"key":"08","name":"Baden-Württemberg"}},{"name":"Hanauer Str.","postalCode":"77866","locality":"Rheinau","municipality":{"key":"08317153","name":"Rheinau, Stadt","type":"Stadt"},"district":{"key":"08317","name":"Ortenaukreis","type":"Landkreis"},"federalState":{"key":"08","name":"Baden-Württemberg"}},{"name":"Hauptstr.","postalCode":"77866","locality":"Rheinau","municipality":{"key":"08317153","name":"Rheinau, Stadt","type":"Stadt"},"district":{"key":"08317","name":"Ortenaukreis","type":"Landkreis"},"federalState":{"key":"08","name":"Baden-Württemberg"}},{"name":"Hausgereuter Mittelweg","postalCode":"77866","locality":"Rheinau","municipality":{"key":"08317153","name":"Rheinau, Stadt","type":"Stadt"},"district":{"key":"08317","name":"Ortenaukreis","type":"Landkreis"},"federalState":{"key":"08","name":"Baden-Württemberg"}},{"name":"Hebelstr.","postalCode":"77866","locality":"Rheinau","municipality":{"key":"08317153","name":"Rheinau, Stadt","type":"Stadt"},"district":{"key":"08317","name":"Ortenaukreis","type":"Landkreis"},"federalState":{"key":"08","name":"Baden-Württemberg"}},{"name":"Heftigweg","postalCode":"77866","locality":"Rheinau","municipality":{"key":"08317153","name":"Rheinau, Stadt","type":"Stadt"},"district":{"key":"08317","name":"Ortenaukreis","type":"Landkreis"},"federalState":{"key":"08","name":"Baden-Württemberg"}},{"name":"Herrenkopfbrücke","postalCode":"77977","locality":"Rheinau","municipality":{"key":"08317971","name":"Rheinau, gemeindefreies Gebiet","type":"Gemeindefreies_Gebiet_Unbewohnt"},"district":{"key":"08317","name":"Ortenaukreis","type":"Landkreis"},"federalState":{"key":"08","name":"Baden-Württemberg"}},{"name":"Herrenmattstr.","postalCode":"77866","locality":"Rheinau","municipality":{"key":"08317153","name":"Rheinau, Stadt","type":"Stadt"},"district":{"key":"08317","name":"Ortenaukreis","type":"Landkreis"},"federalState":{"key":"08","name":"Baden-Württemberg"}},{"name":"Herrenstr.","postalCode":"77866","locality":"Rheinau","municipality":{"key":"08317153","name":"Rheinau, Stadt","type":"Stadt"},"district":{"key":"08317","name":"Ortenaukreis","type":"Landkreis"},"federalState":{"key":"08","name":"Baden-Württemberg"}},{"name":"Heuweg","postalCode":"77866","locality":"Rheinau","municipality":{"key":"08317153","name":"Rheinau, Stadt","type":"Stadt"},"district":{"key":"08317","name":"Ortenaukreis","type":"Landkreis"},"federalState":{"key":"08","name":"Baden-Württemberg"}},{"name":"Hindenburgstr.","postalCode":"77866","locality":"Rheinau","municipality":{"key":"08317153","name":"Rheinau, Stadt","type":"Stadt"},"district":{"key":"08317","name":"Ortenaukreis","type":"Landkreis"},"federalState":{"key":"08","name":"Baden-Württemberg"}},{"name":"Hintere Allee","postalCode":"77866","locality":"Rheinau","municipality":{"key":"08317153","name":"Rheinau, Stadt","type":"Stadt"},"district":{"key":"08317","name":"Ortenaukreis","type":"Landkreis"},"federalState":{"key":"08","name":"Baden-Württemberg"}},{"name":"Hinterlanddamm","postalCode":"77866","locality":"Rheinau","municipality":{"key":"08317153","name":"Rheinau, Stadt","type":"Stadt"},"district":{"key":"08317","name":"Ortenaukreis","type":"Landkreis"},"federalState":{"key":"08","name":"Baden-Württemberg"}},{"name":"Hoch Bruck","postalCode":"77866","locality":"Rheinau","municipality":{"key":"08317153","name":"Rheinau, Stadt","type":"Stadt"},"district":{"key":"08317","name":"Ortenaukreis","type":"Landkreis"},"federalState":{"key":"08","name":"Baden-Württemberg"}},{"name":"Hohe-Au-Str.","postalCode":"77866","locality":"Rheinau","municipality":{"key":"08317153","name":"Rheinau, Stadt","type":"Stadt"},"district":{"key":"08317","name":"Ortenaukreis","type":"Landkreis"},"federalState":{"key":"08","name":"Baden-Württemberg"}},{"name":"Holchenstr.","postalCode":"77866","locality":"Rheinau","municipality":{"key":"08317153","name":"Rheinau, Stadt","type":"Stadt"},"district":{"key":"08317","name":"Ortenaukreis","type":"Landkreis"},"federalState":{"key":"08","name":"Baden-Württemberg"}},{"name":"Holerstr.","postalCode":"77866","locality":"Rheinau","municipality":{"key":"08317153","name":"Rheinau, Stadt","type":"Stadt"},"district":{"key":"08317","name":"Ortenaukreis","type":"Landkreis"},"federalState":{"key":"08","name":"Baden-Württemberg"}},{"name":"Höllengasse","postalCode":"77866","locality":"Rheinau","municipality":{"key":"08317153","name":"Rheinau, Stadt","type":"Stadt"},"district":{"key":"08317","name":"Ortenaukreis","type":"Landkreis"},"federalState":{"key":"08","name":"Baden-Württemberg"}},{"name":"Hölzelstr.","postalCode":"77866","locality":"Rheinau","municipality":{"key":"08317153","name":"Rheinau, Stadt","type":"Stadt"},"district":{"key":"08317","name":"Ortenaukreis","type":"Landkreis"},"federalState":{"key":"08","name":"Baden-Württemberg"}},{"name":"Holzhauser Str.","postalCode":"77866","locality":"Rheinau","municipality":{"key":"08317153","name":"Rheinau, Stadt","type":"Stadt"},"district":{"key":"08317","name":"Ortenaukreis","type":"Landkreis"},"federalState":{"key":"08","name":"Baden-Württemberg"}},{"name":"Hornisgrindestr.","postalCode":"77866","locality":"Rheinau","municipality":{"key":"08317153","name":"Rheinau, Stadt","type":"Stadt"},"district":{"key":"08317","name":"Ortenaukreis","type":"Landkreis"},"federalState":{"key":"08","name":"Baden-Württemberg"}},{"name":"Hundebollegass","postalCode":"77866","locality":"Rheinau","municipality":{"key":"08317153","name":"Rheinau, Stadt","type":"Stadt"},"district":{"key":"08317","name":"Ortenaukreis","type":"Landkreis"},"federalState":{"key":"08","name":"Baden-Württemberg"}},{"name":"Hungerfeldstr.","postalCode":"77866","locality":"Rheinau","municipality":{"key":"08317153","name":"Rheinau, Stadt","type":"Stadt"},"district":{"key":"08317","name":"Ortenaukreis","type":"Landkreis"},"federalState":{"key":"08","name":"Baden-Württemberg"}},{"name":"Hüttenweg","postalCode":"77866","locality":"Rheinau","municipality":{"key":"08317153","name":"Rheinau, Stadt","type":"Stadt"},"district":{"key":"08317","name":"Ortenaukreis","type":"Landkreis"},"federalState":{"key":"08","name":"Baden-Württemberg"}},{"name":"Im Bahnwörtel","postalCode":"77866","locality":"Rheinau","municipality":{"key":"08317153","name":"Rheinau, Stadt","type":"Stadt"},"district":{"key":"08317","name":"Ortenaukreis","type":"Landkreis"},"federalState":{"key":"08","name":"Baden-Württemberg"}},{"name":"Im Brambusch","postalCode":"77866","locality":"Rheinau","municipality":{"key":"08317153","name":"Rheinau, Stadt","type":"Stadt"},"district":{"key":"08317","name":"Ortenaukreis","type":"Landkreis"},"federalState":{"key":"08","name":"Baden-Württemberg"}},{"name":"Im Fehl","postalCode":"77866","locality":"Rheinau","municipality":{"key":"08317153","name":"Rheinau, Stadt","type":"Stadt"},"district":{"key":"08317","name":"Ortenaukreis","type":"Landkreis"},"federalState":{"key":"08","name":"Baden-Württemberg"}},{"name":"Im Grafenbühnd","postalCode":"77866","locality":"Rheinau","municipality":{"key":"08317153","name":"Rheinau, Stadt","type":"Stadt"},"district":{"key":"08317","name":"Ortenaukreis","type":"Landkreis"},"federalState":{"key":"08","name":"Baden-Württemberg"}},{"name":"Im Großfeld","postalCode":"77866","locality":"Rheinau","municipality":{"key":"08317153","name":"Rheinau, Stadt","type":"Stadt"},"district":{"key":"08317","name":"Ortenaukreis","type":"Landkreis"},"federalState":{"key":"08","name":"Baden-Württemberg"}},{"name":"Im Holer","postalCode":"77866","locality":"Rheinau","municipality":{"key":"08317153","name":"Rheinau, Stadt","type":"Stadt"},"district":{"key":"08317","name":"Ortenaukreis","type":"Landkreis"},"federalState":{"key":"08","name":"Baden-Württemberg"}},{"name":"Im Hölzel","postalCode":"77866","locality":"Rheinau","municipality":{"key":"08317153","name":"Rheinau, Stadt","type":"Stadt"},"district":{"key":"08317","name":"Ortenaukreis","type":"Landkreis"},"federalState":{"key":"08","name":"Baden-Württemberg"}},{"name":"Im Kirchfeld","postalCode":"77866","locality":"Rheinau","municipality":{"key":"08317153","name":"Rheinau, Stadt","type":"Stadt"},"district":{"key":"08317","name":"Ortenaukreis","type":"Landkreis"},"federalState":{"key":"08","name":"Baden-Württemberg"}},{"name":"Im Kirchkopf","postalCode":"77866","locality":"Rheinau","municipality":{"key":"08317153","name":"Rheinau, Stadt","type":"Stadt"},"district":{"key":"08317","name":"Ortenaukreis","type":"Landkreis"},"federalState":{"key":"08","name":"Baden-Württemberg"}},{"name":"Im Kressenbosch","postalCode":"77866","locality":"Rheinau","municipality":{"key":"08317153","name":"Rheinau, Stadt","type":"Stadt"},"district":{"key":"08317","name":"Ortenaukreis","type":"Landkreis"},"federalState":{"key":"08","name":"Baden-Württemberg"}},{"name":"Im Quan","postalCode":"77866","locality":"Rheinau","municipality":{"key":"08317153","name":"Rheinau, Stadt","type":"Stadt"},"district":{"key":"08317","name":"Ortenaukreis","type":"Landkreis"},"federalState":{"key":"08","name":"Baden-Württemberg"}},{"name":"Im Rechen","postalCode":"77866","locality":"Rheinau","municipality":{"key":"08317153","name":"Rheinau, Stadt","type":"Stadt"},"district":{"key":"08317","name":"Ortenaukreis","type":"Landkreis"},"federalState":{"key":"08","name":"Baden-Württemberg"}},{"name":"Im Ring","postalCode":"77866","locality":"Rheinau","municipality":{"key":"08317153","name":"Rheinau, Stadt","type":"Stadt"},"district":{"key":"08317","name":"Ortenaukreis","type":"Landkreis"},"federalState":{"key":"08","name":"Baden-Württemberg"}},{"name":"Im Schänzel","postalCode":"77866","locality":"Rheinau","municipality":{"key":"08317153","name":"Rheinau, Stadt","type":"Stadt"},"district":{"key":"08317","name":"Ortenaukreis","type":"Landkreis"},"federalState":{"key":"08","name":"Baden-Württemberg"}},{"name":"Im Schwanengarten","postalCode":"77866","locality":"Rheinau","municipality":{"key":"08317153","name":"Rheinau, Stadt","type":"Stadt"},"district":{"key":"08317","name":"Ortenaukreis","type":"Landkreis"},"federalState":{"key":"08","name":"Baden-Württemberg"}},{"name":"Im Wörth","postalCode":"77866","locality":"Rheinau","municipality":{"key":"08317153","name":"Rheinau, Stadt","type":"Stadt"},"district":{"key":"08317","name":"Ortenaukreis","type":"Landkreis"},"federalState":{"key":"08","name":"Baden-Württemberg"}},{"name":"In der Gaß","postalCode":"77866","locality":"Rheinau","municipality":{"key":"08317153","name":"Rheinau, Stadt","type":"Stadt"},"district":{"key":"08317","name":"Ortenaukreis","type":"Landkreis"},"federalState":{"key":"08","name":"Baden-Württemberg"}},{"name":"In der Matt","postalCode":"77866","locality":"Rheinau","municipality":{"key":"08317153","name":"Rheinau, Stadt","type":"Stadt"},"district":{"key":"08317","name":"Ortenaukreis","type":"Landkreis"},"federalState":{"key":"08","name":"Baden-Württemberg"}},{"name":"Infopfad","postalCode":"77866","locality":"Rheinau","municipality":{"key":"08317153","name":"Rheinau, Stadt","type":"Stadt"},"district":{"key":"08317","name":"Ortenaukreis","type":"Landkreis"},"federalState":{"key":"08","name":"Baden-Württemberg"}},{"name":"Inselstr.","postalCode":"77866","locality":"Rheinau","municipality":{"key":"08317153","name":"Rheinau, Stadt","type":"Stadt"},"district":{"key":"08317","name":"Ortenaukreis","type":"Landkreis"},"federalState":{"key":"08","name":"Baden-Württemberg"}},{"name":"Johann-Georg-Siehl-Str.","postalCode":"77866","locality":"Rheinau","municipality":{"key":"08317153","name":"Rheinau, Stadt","type":"Stadt"},"district":{"key":"08317","name":"Ortenaukreis","type":"Landkreis"},"federalState":{"key":"08","name":"Baden-Württemberg"}},{"name":"Junge Gruende","postalCode":"77866","locality":"Rheinau","municipality":{"key":"08317153","name":"Rheinau, Stadt","type":"Stadt"},"district":{"key":"08317","name":"Ortenaukreis","type":"Landkreis"},"federalState":{"key":"08","name":"Baden-Württemberg"}},{"name":"Junge Gründe","postalCode":"77866","locality":"Rheinau","municipality":{"key":"08317153","name":"Rheinau, Stadt","type":"Stadt"},"district":{"key":"08317","name":"Ortenaukreis","type":"Landkreis"},"federalState":{"key":"08","name":"Baden-Württemberg"}},{"name":"Kahmbachweg","postalCode":"77866","locality":"Rheinau","municipality":{"key":"08317153","name":"Rheinau, Stadt","type":"Stadt"},"district":{"key":"08317","name":"Ortenaukreis","type":"Landkreis"},"federalState":{"key":"08","name":"Baden-Württemberg"}},{"name":"Kaiserstr.","postalCode":"77866","locality":"Rheinau","municipality":{"key":"08317153","name":"Rheinau, Stadt","type":"Stadt"},"district":{"key":"08317","name":"Ortenaukreis","type":"Landkreis"},"federalState":{"key":"08","name":"Baden-Württemberg"}},{"name":"Kanalstr.","postalCode":"77866","locality":"Rheinau","municipality":{"key":"08317153","name":"Rheinau, Stadt","type":"Stadt"},"district":{"key":"08317","name":"Ortenaukreis","type":"Landkreis"},"federalState":{"key":"08","name":"Baden-Württemberg"}},{"name":"Kapellenstr.","postalCode":"77866","locality":"Rheinau","municipality":{"key":"08317153","name":"Rheinau, Stadt","type":"Stadt"},"district":{"key":"08317","name":"Ortenaukreis","type":"Landkreis"},"federalState":{"key":"08","name":"Baden-Württemberg"}},{"name":"Karl-Hubbuch-Weg","postalCode":"77866","locality":"Rheinau","municipality":{"key":"08317153","name":"Rheinau, Stadt","type":"Stadt"},"district":{"key":"08317","name":"Ortenaukreis","type":"Landkreis"},"federalState":{"key":"08","name":"Baden-Württemberg"}},{"name":"Karlstr.","postalCode":"77866","locality":"Rheinau","municipality":{"key":"08317153","name":"Rheinau, Stadt","type":"Stadt"},"district":{"key":"08317","name":"Ortenaukreis","type":"Landkreis"},"federalState":{"key":"08","name":"Baden-Württemberg"}},{"name":"Kastanienweg","postalCode":"77866","locality":"Rheinau","municipality":{"key":"08317153","name":"Rheinau, Stadt","type":"Stadt"},"district":{"key":"08317","name":"Ortenaukreis","type":"Landkreis"},"federalState":{"key":"08","name":"Baden-Württemberg"}},{"name":"Käthe-Kollwitz-Weg","postalCode":"77866","locality":"Rheinau","municipality":{"key":"08317153","name":"Rheinau, Stadt","type":"Stadt"},"district":{"key":"08317","name":"Ortenaukreis","type":"Landkreis"},"federalState":{"key":"08","name":"Baden-Württemberg"}},{"name":"Kehler Str.","postalCode":"77866","locality":"Rheinau","municipality":{"key":"08317153","name":"Rheinau, Stadt","type":"Stadt"},"district":{"key":"08317","name":"Ortenaukreis","type":"Landkreis"},"federalState":{"key":"08","name":"Baden-Württemberg"}},{"name":"Kindergartenweg","postalCode":"77866","locality":"Rheinau","municipality":{"key":"08317153","name":"Rheinau, Stadt","type":"Stadt"},"district":{"key":"08317","name":"Ortenaukreis","type":"Landkreis"},"federalState":{"key":"08","name":"Baden-Württemberg"}},{"name":"Kirchgasse","postalCode":"77866","locality":"Rheinau","municipality":{"key":"08317153","name":"Rheinau, Stadt","type":"Stadt"},"district":{"key":"08317","name":"Ortenaukreis","type":"Landkreis"},"federalState":{"key":"08","name":"Baden-Württemberg"}},{"name":"Kirchplatz","postalCode":"77866","locality":"Rheinau","municipality":{"key":"08317153","name":"Rheinau, Stadt","type":"Stadt"},"district":{"key":"08317","name":"Ortenaukreis","type":"Landkreis"},"federalState":{"key":"08","name":"Baden-Württemberg"}},{"name":"Kirchstr.","postalCode":"77866","locality":"Rheinau","municipality":{"key":"08317153","name":"Rheinau, Stadt","type":"Stadt"},"district":{"key":"08317","name":"Ortenaukreis","type":"Landkreis"},"federalState":{"key":"08","name":"Baden-Württemberg"}},{"name":"Kirschbaumstr.","postalCode":"77866","locality":"Rheinau","municipality":{"key":"08317153","name":"Rheinau, Stadt","type":"Stadt"},"district":{"key":"08317","name":"Ortenaukreis","type":"Landkreis"},"federalState":{"key":"08","name":"Baden-Württemberg"}},{"name":"Kleine Barr","postalCode":"77866","locality":"Rheinau","municipality":{"key":"08317153","name":"Rheinau, Stadt","type":"Stadt"},"district":{"key":"08317","name":"Ortenaukreis","type":"Landkreis"},"federalState":{"key":"08","name":"Baden-Württemberg"}},{"name":"Kniebisweg","postalCode":"77866","locality":"Rheinau","municipality":{"key":"08317153","name":"Rheinau, Stadt","type":"Stadt"},"district":{"key":"08317","name":"Ortenaukreis","type":"Landkreis"},"federalState":{"key":"08","name":"Baden-Württemberg"}},{"name":"Kohlenplatz","postalCode":"77866","locality":"Rheinau","municipality":{"key":"08317153","name":"Rheinau, Stadt","type":"Stadt"},"district":{"key":"08317","name":"Ortenaukreis","type":"Landkreis"},"federalState":{"key":"08","name":"Baden-Württemberg"}},{"name":"Krämerstr.","postalCode":"77866","locality":"Rheinau","municipality":{"key":"08317153","name":"Rheinau, Stadt","type":"Stadt"},"district":{"key":"08317","name":"Ortenaukreis","type":"Landkreis"},"federalState":{"key":"08","name":"Baden-Württemberg"}},{"name":"Kronenstr.","postalCode":"77866","locality":"Rheinau","municipality":{"key":"08317153","name":"Rheinau, Stadt","type":"Stadt"},"district":{"key":"08317","name":"Ortenaukreis","type":"Landkreis"},"federalState":{"key":"08","name":"Baden-Württemberg"}},{"name":"Küblerweg","postalCode":"77866","locality":"Rheinau","municipality":{"key":"08317153","name":"Rheinau, Stadt","type":"Stadt"},"district":{"key":"08317","name":"Ortenaukreis","type":"Landkreis"},"federalState":{"key":"08","name":"Baden-Württemberg"}},{"name":"Kurze Str.","postalCode":"77866","locality":"Rheinau","municipality":{"key":"08317153","name":"Rheinau, Stadt","type":"Stadt"},"district":{"key":"08317","name":"Ortenaukreis","type":"Landkreis"},"federalState":{"key":"08","name":"Baden-Württemberg"}},{"name":"Lachsweg","postalCode":"77966","locality":"Rheinau","municipality":{"key":"08317971","name":"Rheinau, gemeindefreies Gebiet","type":"Gemeindefreies_Gebiet_Unbewohnt"},"district":{"key":"08317","name":"Ortenaukreis","type":"Landkreis"},"federalState":{"key":"08","name":"Baden-Württemberg"}},{"name":"Lachweg","postalCode":"77866","locality":"Rheinau","municipality":{"key":"08317153","name":"Rheinau, Stadt","type":"Stadt"},"district":{"key":"08317","name":"Ortenaukreis","type":"Landkreis"},"federalState":{"key":"08","name":"Baden-Württemberg"}},{"name":"Langesträngstr.","postalCode":"77866","locality":"Rheinau","municipality":{"key":"08317153","name":"Rheinau, Stadt","type":"Stadt"},"district":{"key":"08317","name":"Ortenaukreis","type":"Landkreis"},"federalState":{"key":"08","name":"Baden-Württemberg"}},{"name":"Lenaustr.","postalCode":"77866","locality":"Rheinau","municipality":{"key":"08317153","name":"Rheinau, Stadt","type":"Stadt"},"district":{"key":"08317","name":"Ortenaukreis","type":"Landkreis"},"federalState":{"key":"08","name":"Baden-Württemberg"}},{"name":"Lerchenhüttenstr.","postalCode":"77866","locality":"Rheinau","municipality":{"key":"08317153","name":"Rheinau, Stadt","type":"Stadt"},"district":{"key":"08317","name":"Ortenaukreis","type":"Landkreis"},"federalState":{"key":"08","name":"Baden-Württemberg"}},{"name":"Lettloecher","postalCode":"77866","locality":"Rheinau","municipality":{"key":"08317153","name":"Rheinau, Stadt","type":"Stadt"},"district":{"key":"08317","name":"Ortenaukreis","type":"Landkreis"},"federalState":{"key":"08","name":"Baden-Württemberg"}},{"name":"Lichtenberger Str.","postalCode":"77866","locality":"Rheinau","municipality":{"key":"08317153","name":"Rheinau, Stadt","type":"Stadt"},"district":{"key":"08317","name":"Ortenaukreis","type":"Landkreis"},"federalState":{"key":"08","name":"Baden-Württemberg"}},{"name":"Lichterberger Str.","postalCode":"77866","locality":"Rheinau","municipality":{"key":"08317153","name":"Rheinau, Stadt","type":"Stadt"},"district":{"key":"08317","name":"Ortenaukreis","type":"Landkreis"},"federalState":{"key":"08","name":"Baden-Württemberg"}},{"name":"Lindenplatz","postalCode":"77866","locality":"Rheinau","municipality":{"key":"08317153","name":"Rheinau, Stadt","type":"Stadt"},"district":{"key":"08317","name":"Ortenaukreis","type":"Landkreis"},"federalState":{"key":"08","name":"Baden-Württemberg"}},{"name":"Lindenstr.","postalCode":"77866","locality":"Rheinau","municipality":{"key":"08317153","name":"Rheinau, Stadt","type":"Stadt"},"district":{"key":"08317","name":"Ortenaukreis","type":"Landkreis"},"federalState":{"key":"08","name":"Baden-Württemberg"}},{"name":"Lindenweg","postalCode":"77866","locality":"Rheinau","municipality":{"key":"08317153","name":"Rheinau, Stadt","type":"Stadt"},"district":{"key":"08317","name":"Ortenaukreis","type":"Landkreis"},"federalState":{"key":"08","name":"Baden-Württemberg"}},{"name":"Linxer Str.","postalCode":"77866","locality":"Rheinau","municipality":{"key":"08317153","name":"Rheinau, Stadt","type":"Stadt"},"district":{"key":"08317","name":"Ortenaukreis","type":"Landkreis"},"federalState":{"key":"08","name":"Baden-Württemberg"}},{"name":"Lotsenstr.","postalCode":"77866","locality":"Rheinau","municipality":{"key":"08317153","name":"Rheinau, Stadt","type":"Stadt"},"district":{"key":"08317","name":"Ortenaukreis","type":"Landkreis"},"federalState":{"key":"08","name":"Baden-Württemberg"}},{"name":"Ludwig-Jahn-Weg","postalCode":"77866","locality":"Rheinau","municipality":{"key":"08317153","name":"Rheinau, Stadt","type":"Stadt"},"district":{"key":"08317","name":"Ortenaukreis","type":"Landkreis"},"federalState":{"key":"08","name":"Baden-Württemberg"}},{"name":"Maierhof","postalCode":"77866","locality":"Rheinau","municipality":{"key":"08317153","name":"Rheinau, Stadt","type":"Stadt"},"district":{"key":"08317","name":"Ortenaukreis","type":"Landkreis"},"federalState":{"key":"08","name":"Baden-Württemberg"}},{"name":"Maiwaldsiedlung","postalCode":"77866","locality":"Rheinau","municipality":{"key":"08317153","name":"Rheinau, Stadt","type":"Stadt"},"district":{"key":"08317","name":"Ortenaukreis","type":"Landkreis"},"federalState":{"key":"08","name":"Baden-Württemberg"}},{"name":"Maiwaldstr.","postalCode":"77866","locality":"Rheinau","municipality":{"key":"08317153","name":"Rheinau, Stadt","type":"Stadt"},"district":{"key":"08317","name":"Ortenaukreis","type":"Landkreis"},"federalState":{"key":"08","name":"Baden-Württemberg"}},{"name":"Max-Beckmann-Weg","postalCode":"77866","locality":"Rheinau","municipality":{"key":"08317153","name":"Rheinau, Stadt","type":"Stadt"},"district":{"key":"08317","name":"Ortenaukreis","type":"Landkreis"},"federalState":{"key":"08","name":"Baden-Württemberg"}},{"name":"Max-Pechstein-Weg","postalCode":"77866","locality":"Rheinau","municipality":{"key":"08317153","name":"Rheinau, Stadt","type":"Stadt"},"district":{"key":"08317","name":"Ortenaukreis","type":"Landkreis"},"federalState":{"key":"08","name":"Baden-Württemberg"}},{"name":"Menzbühndstr.","postalCode":"77866","locality":"Rheinau","municipality":{"key":"08317153","name":"Rheinau, Stadt","type":"Stadt"},"district":{"key":"08317","name":"Ortenaukreis","type":"Landkreis"},"federalState":{"key":"08","name":"Baden-Württemberg"}},{"name":"Merkurweg","postalCode":"77866","locality":"Rheinau","municipality":{"key":"08317153","name":"Rheinau, Stadt","type":"Stadt"},"district":{"key":"08317","name":"Ortenaukreis","type":"Landkreis"},"federalState":{"key":"08","name":"Baden-Württemberg"}},{"name":"Michelwörth","postalCode":"77866","locality":"Rheinau","municipality":{"key":"08317153","name":"Rheinau, Stadt","type":"Stadt"},"district":{"key":"08317","name":"Ortenaukreis","type":"Landkreis"},"federalState":{"key":"08","name":"Baden-Württemberg"}},{"name":"Mittelauweg","postalCode":"77866","locality":"Rheinau","municipality":{"key":"08317153","name":"Rheinau, Stadt","type":"Stadt"},"district":{"key":"08317","name":"Ortenaukreis","type":"Landkreis"},"federalState":{"key":"08","name":"Baden-Württemberg"}},{"name":"Moscheroschstr.","postalCode":"77866","locality":"Rheinau","municipality":{"key":"08317153","name":"Rheinau, Stadt","type":"Stadt"},"district":{"key":"08317","name":"Ortenaukreis","type":"Landkreis"},"federalState":{"key":"08","name":"Baden-Württemberg"}},{"name":"Muckenschopfer Str.","postalCode":"77866","locality":"Rheinau","municipality":{"key":"08317153","name":"Rheinau, Stadt","type":"Stadt"},"district":{"key":"08317","name":"Ortenaukreis","type":"Landkreis"},"federalState":{"key":"08","name":"Baden-Württemberg"}},{"name":"Mühlbachstr.","postalCode":"77866","locality":"Rheinau","municipality":{"key":"08317153","name":"Rheinau, Stadt","type":"Stadt"},"district":{"key":"08317","name":"Ortenaukreis","type":"Landkreis"},"federalState":{"key":"08","name":"Baden-Württemberg"}},{"name":"Mühlbach-Wiede Weg","postalCode":"77866","locality":"Rheinau","municipality":{"key":"08317153","name":"Rheinau, Stadt","type":"Stadt"},"district":{"key":"08317","name":"Ortenaukreis","type":"Landkreis"},"federalState":{"key":"08","name":"Baden-Württemberg"}},{"name":"Mühlenstr.","postalCode":"77866","locality":"Rheinau","municipality":{"key":"08317153","name":"Rheinau, Stadt","type":"Stadt"},"district":{"key":"08317","name":"Ortenaukreis","type":"Landkreis"},"federalState":{"key":"08","name":"Baden-Württemberg"}},{"name":"Mühlweg","postalCode":"77866","locality":"Rheinau","municipality":{"key":"08317153","name":"Rheinau, Stadt","type":"Stadt"},"district":{"key":"08317","name":"Ortenaukreis","type":"Landkreis"},"federalState":{"key":"08","name":"Baden-Württemberg"}},{"name":"Nepfhurstweg","postalCode":"77866","locality":"Rheinau","municipality":{"key":"08317153","name":"Rheinau, Stadt","type":"Stadt"},"district":{"key":"08317","name":"Ortenaukreis","type":"Landkreis"},"federalState":{"key":"08","name":"Baden-Württemberg"}},{"name":"Neuer Weg","postalCode":"77866","locality":"Rheinau","municipality":{"key":"08317153","name":"Rheinau, Stadt","type":"Stadt"},"district":{"key":"08317","name":"Ortenaukreis","type":"Landkreis"},"federalState":{"key":"08","name":"Baden-Württemberg"}},{"name":"Neue Str.","postalCode":"77866","locality":"Rheinau","municipality":{"key":"08317153","name":"Rheinau, Stadt","type":"Stadt"},"district":{"key":"08317","name":"Ortenaukreis","type":"Landkreis"},"federalState":{"key":"08","name":"Baden-Württemberg"}},{"name":"Neufeldstr.","postalCode":"77866","locality":"Rheinau","municipality":{"key":"08317153","name":"Rheinau, Stadt","type":"Stadt"},"district":{"key":"08317","name":"Ortenaukreis","type":"Landkreis"},"federalState":{"key":"08","name":"Baden-Württemberg"}},{"name":"Neugasse","postalCode":"77866","locality":"Rheinau","municipality":{"key":"08317153","name":"Rheinau, Stadt","type":"Stadt"},"district":{"key":"08317","name":"Ortenaukreis","type":"Landkreis"},"federalState":{"key":"08","name":"Baden-Württemberg"}},{"name":"Neuländstr.","postalCode":"77866","locality":"Rheinau","municipality":{"key":"08317153","name":"Rheinau, Stadt","type":"Stadt"},"district":{"key":"08317","name":"Ortenaukreis","type":"Landkreis"},"federalState":{"key":"08","name":"Baden-Württemberg"}},{"name":"Niederfeldstr.","postalCode":"77866","locality":"Rheinau","municipality":{"key":"08317153","name":"Rheinau, Stadt","type":"Stadt"},"district":{"key":"08317","name":"Ortenaukreis","type":"Landkreis"},"federalState":{"key":"08","name":"Baden-Württemberg"}},{"name":"Niedermattenstr.","postalCode":"77866","locality":"Rheinau","municipality":{"key":"08317153","name":"Rheinau, Stadt","type":"Stadt"},"district":{"key":"08317","name":"Ortenaukreis","type":"Landkreis"},"federalState":{"key":"08","name":"Baden-Württemberg"}},{"name":"Nordallee","postalCode":"77866","locality":"Rheinau","municipality":{"key":"08317153","name":"Rheinau, Stadt","type":"Stadt"},"district":{"key":"08317","name":"Ortenaukreis","type":"Landkreis"},"federalState":{"key":"08","name":"Baden-Württemberg"}},{"name":"Nußbaumweg","postalCode":"77866","locality":"Rheinau","municipality":{"key":"08317153","name":"Rheinau, Stadt","type":"Stadt"},"district":{"key":"08317","name":"Ortenaukreis","type":"Landkreis"},"federalState":{"key":"08","name":"Baden-Württemberg"}},{"name":"Oberdorfstr.","postalCode":"77866","locality":"Rheinau","municipality":{"key":"08317153","name":"Rheinau, Stadt","type":"Stadt"},"district":{"key":"08317","name":"Ortenaukreis","type":"Landkreis"},"federalState":{"key":"08","name":"Baden-Württemberg"}},{"name":"Oberer Giessenweg","postalCode":"77866","locality":"Rheinau","municipality":{"key":"08317153","name":"Rheinau, Stadt","type":"Stadt"},"district":{"key":"08317","name":"Ortenaukreis","type":"Landkreis"},"federalState":{"key":"08","name":"Baden-Württemberg"}},{"name":"Oberfeldstr.","postalCode":"77866","locality":"Rheinau","municipality":{"key":"08317153","name":"Rheinau, Stadt","type":"Stadt"},"district":{"key":"08317","name":"Ortenaukreis","type":"Landkreis"},"federalState":{"key":"08","name":"Baden-Württemberg"}},{"name":"Ortsstr.","postalCode":"77866","locality":"Rheinau","municipality":{"key":"08317153","name":"Rheinau, Stadt","type":"Stadt"},"district":{"key":"08317","name":"Ortenaukreis","type":"Landkreis"},"federalState":{"key":"08","name":"Baden-Württemberg"}},{"name":"Oststr.","postalCode":"77866","locality":"Rheinau","municipality":{"key":"08317153","name":"Rheinau, Stadt","type":"Stadt"},"district":{"key":"08317","name":"Ortenaukreis","type":"Landkreis"},"federalState":{"key":"08","name":"Baden-Württemberg"}},{"name":"Pappelweg","postalCode":"77866","locality":"Rheinau","municipality":{"key":"08317153","name":"Rheinau, Stadt","type":"Stadt"},"district":{"key":"08317","name":"Ortenaukreis","type":"Landkreis"},"federalState":{"key":"08","name":"Baden-Württemberg"}},{"name":"Pestalozzistr.","postalCode":"77866","locality":"Rheinau","municipality":{"key":"08317153","name":"Rheinau, Stadt","type":"Stadt"},"district":{"key":"08317","name":"Ortenaukreis","type":"Landkreis"},"federalState":{"key":"08","name":"Baden-Württemberg"}},{"name":"Pfuhlbosch","postalCode":"77866","locality":"Rheinau","municipality":{"key":"08317153","name":"Rheinau, Stadt","type":"Stadt"},"district":{"key":"08317","name":"Ortenaukreis","type":"Landkreis"},"federalState":{"key":"08","name":"Baden-Württemberg"}},{"name":"Pfuhlmattenweg","postalCode":"77866","locality":"Rheinau","municipality":{"key":"08317153","name":"Rheinau, Stadt","type":"Stadt"},"district":{"key":"08317","name":"Ortenaukreis","type":"Landkreis"},"federalState":{"key":"08","name":"Baden-Württemberg"}},{"name":"Pirolweg","postalCode":"77977","locality":"Rheinau","municipality":{"key":"08317971","name":"Rheinau, gemeindefreies Gebiet","type":"Gemeindefreies_Gebiet_Unbewohnt"},"district":{"key":"08317","name":"Ortenaukreis","type":"Landkreis"},"federalState":{"key":"08","name":"Baden-Württemberg"}},{"name":"Raiffeisenstr.","postalCode":"77866","locality":"Rheinau","municipality":{"key":"08317153","name":"Rheinau, Stadt","type":"Stadt"},"district":{"key":"08317","name":"Ortenaukreis","type":"Landkreis"},"federalState":{"key":"08","name":"Baden-Württemberg"}},{"name":"Rainweg","postalCode":"77866","locality":"Rheinau","municipality":{"key":"08317153","name":"Rheinau, Stadt","type":"Stadt"},"district":{"key":"08317","name":"Ortenaukreis","type":"Landkreis"},"federalState":{"key":"08","name":"Baden-Württemberg"}},{"name":"Ramattenweg","postalCode":"77866","locality":"Rheinau","municipality":{"key":"08317153","name":"Rheinau, Stadt","type":"Stadt"},"district":{"key":"08317","name":"Ortenaukreis","type":"Landkreis"},"federalState":{"key":"08","name":"Baden-Württemberg"}},{"name":"Rathausstr.","postalCode":"77866","locality":"Rheinau","municipality":{"key":"08317153","name":"Rheinau, Stadt","type":"Stadt"},"district":{"key":"08317","name":"Ortenaukreis","type":"Landkreis"},"federalState":{"key":"08","name":"Baden-Württemberg"}},{"name":"Reinhardtstr.","postalCode":"77866","locality":"Rheinau","municipality":{"key":"08317153","name":"Rheinau, Stadt","type":"Stadt"},"district":{"key":"08317","name":"Ortenaukreis","type":"Landkreis"},"federalState":{"key":"08","name":"Baden-Württemberg"}},{"name":"Reitweg","postalCode":"77866","locality":"Rheinau","municipality":{"key":"08317153","name":"Rheinau, Stadt","type":"Stadt"},"district":{"key":"08317","name":"Ortenaukreis","type":"Landkreis"},"federalState":{"key":"08","name":"Baden-Württemberg"}},{"name":"Renchdamm","postalCode":"77866","locality":"Rheinau","municipality":{"key":"08317153","name":"Rheinau, Stadt","type":"Stadt"},"district":{"key":"08317","name":"Ortenaukreis","type":"Landkreis"},"federalState":{"key":"08","name":"Baden-Württemberg"}},{"name":"Renchener Str.","postalCode":"77866","locality":"Rheinau","municipality":{"key":"08317153","name":"Rheinau, Stadt","type":"Stadt"},"district":{"key":"08317","name":"Ortenaukreis","type":"Landkreis"},"federalState":{"key":"08","name":"Baden-Württemberg"}},{"name":"Rettungsgasse","postalCode":"77866","locality":"Rheinau","municipality":{"key":"08317153","name":"Rheinau, Stadt","type":"Stadt"},"district":{"key":"08317","name":"Ortenaukreis","type":"Landkreis"},"federalState":{"key":"08","name":"Baden-Württemberg"}},{"name":"Rheindamm","postalCode":"77966","locality":"Rheinau","municipality":{"key":"08317971","name":"Rheinau, gemeindefreies Gebiet","type":"Gemeindefreies_Gebiet_Unbewohnt"},"district":{"key":"08317","name":"Ortenaukreis","type":"Landkreis"},"federalState":{"key":"08","name":"Baden-Württemberg"}},{"name":"Rheindamm","postalCode":"77977","locality":"Rheinau","municipality":{"key":"08317971","name":"Rheinau, gemeindefreies Gebiet","type":"Gemeindefreies_Gebiet_Unbewohnt"},"district":{"key":"08317","name":"Ortenaukreis","type":"Landkreis"},"federalState":{"key":"08","name":"Baden-Württemberg"}},{"name":"Rheinstr.","postalCode":"77866","locality":"Rheinau","municipality":{"key":"08317153","name":"Rheinau, Stadt","type":"Stadt"},"district":{"key":"08317","name":"Ortenaukreis","type":"Landkreis"},"federalState":{"key":"08","name":"Baden-Württemberg"}},{"name":"Rheinstr.","postalCode":"77966","locality":"Rheinau","municipality":{"key":"08317971","name":"Rheinau, gemeindefreies Gebiet","type":"Gemeindefreies_Gebiet_Unbewohnt"},"district":{"key":"08317","name":"Ortenaukreis","type":"Landkreis"},"federalState":{"key":"08","name":"Baden-Württemberg"}},{"name":"Rheinwaldstr.","postalCode":"77866","locality":"Rheinau","municipality":{"key":"08317153","name":"Rheinau, Stadt","type":"Stadt"},"district":{"key":"08317","name":"Ortenaukreis","type":"Landkreis"},"federalState":{"key":"08","name":"Baden-Württemberg"}},{"name":"Rheinweg","postalCode":"77866","locality":"Rheinau","municipality":{"key":"08317153","name":"Rheinau, Stadt","type":"Stadt"},"district":{"key":"08317","name":"Ortenaukreis","type":"Landkreis"},"federalState":{"key":"08","name":"Baden-Württemberg"}},{"name":"Ringstr.","postalCode":"77866","locality":"Rheinau","municipality":{"key":"08317153","name":"Rheinau, Stadt","type":"Stadt"},"district":{"key":"08317","name":"Ortenaukreis","type":"Landkreis"},"federalState":{"key":"08","name":"Baden-Württemberg"}},{"name":"Rißbühn","postalCode":"77866","locality":"Rheinau","municipality":{"key":"08317153","name":"Rheinau, Stadt","type":"Stadt"},"district":{"key":"08317","name":"Ortenaukreis","type":"Landkreis"},"federalState":{"key":"08","name":"Baden-Württemberg"}},{"name":"Robert-Bosch-Str.","postalCode":"77866","locality":"Rheinau","municipality":{"key":"08317153","name":"Rheinau, Stadt","type":"Stadt"},"district":{"key":"08317","name":"Ortenaukreis","type":"Landkreis"},"federalState":{"key":"08","name":"Baden-Württemberg"}},{"name":"Römerweg","postalCode":"77866","locality":"Rheinau","municipality":{"key":"08317153","name":"Rheinau, Stadt","type":"Stadt"},"district":{"key":"08317","name":"Ortenaukreis","type":"Landkreis"},"federalState":{"key":"08","name":"Baden-Württemberg"}},{"name":"Rosenstr.","postalCode":"77866","locality":"Rheinau","municipality":{"key":"08317153","name":"Rheinau, Stadt","type":"Stadt"},"district":{"key":"08317","name":"Ortenaukreis","type":"Landkreis"},"federalState":{"key":"08","name":"Baden-Württemberg"}},{"name":"Rosenweg","postalCode":"77866","locality":"Rheinau","municipality":{"key":"08317153","name":"Rheinau, Stadt","type":"Stadt"},"district":{"key":"08317","name":"Ortenaukreis","type":"Landkreis"},"federalState":{"key":"08","name":"Baden-Württemberg"}},{"name":"Rößbühl","postalCode":"77866","locality":"Rheinau","municipality":{"key":"08317153","name":"Rheinau, Stadt","type":"Stadt"},"district":{"key":"08317","name":"Ortenaukreis","type":"Landkreis"},"federalState":{"key":"08","name":"Baden-Württemberg"}},{"name":"Rottweg","postalCode":"77866","locality":"Rheinau","municipality":{"key":"08317153","name":"Rheinau, Stadt","type":"Stadt"},"district":{"key":"08317","name":"Ortenaukreis","type":"Landkreis"},"federalState":{"key":"08","name":"Baden-Württemberg"}},{"name":"Rückegasse 2","postalCode":"77866","locality":"Rheinau","municipality":{"key":"08317153","name":"Rheinau, Stadt","type":"Stadt"},"district":{"key":"08317","name":"Ortenaukreis","type":"Landkreis"},"federalState":{"key":"08","name":"Baden-Württemberg"}},{"name":"Rückegasse 3","postalCode":"77866","locality":"Rheinau","municipality":{"key":"08317153","name":"Rheinau, Stadt","type":"Stadt"},"district":{"key":"08317","name":"Ortenaukreis","type":"Landkreis"},"federalState":{"key":"08","name":"Baden-Württemberg"}},{"name":"Rückgegasse 1","postalCode":"77866","locality":"Rheinau","municipality":{"key":"08317153","name":"Rheinau, Stadt","type":"Stadt"},"district":{"key":"08317","name":"Ortenaukreis","type":"Landkreis"},"federalState":{"key":"08","name":"Baden-Württemberg"}},{"name":"Ruhesteinstr.","postalCode":"77866","locality":"Rheinau","municipality":{"key":"08317153","name":"Rheinau, Stadt","type":"Stadt"},"district":{"key":"08317","name":"Ortenaukreis","type":"Landkreis"},"federalState":{"key":"08","name":"Baden-Württemberg"}},{"name":"Rundweg","postalCode":"77866","locality":"Rheinau","municipality":{"key":"08317153","name":"Rheinau, Stadt","type":"Stadt"},"district":{"key":"08317","name":"Ortenaukreis","type":"Landkreis"},"federalState":{"key":"08","name":"Baden-Württemberg"}},{"name":"Sattlerweg","postalCode":"77866","locality":"Rheinau","municipality":{"key":"08317153","name":"Rheinau, Stadt","type":"Stadt"},"district":{"key":"08317","name":"Ortenaukreis","type":"Landkreis"},"federalState":{"key":"08","name":"Baden-Württemberg"}},{"name":"Schäffereigasse","postalCode":"77866","locality":"Rheinau","municipality":{"key":"08317153","name":"Rheinau, Stadt","type":"Stadt"},"district":{"key":"08317","name":"Ortenaukreis","type":"Landkreis"},"federalState":{"key":"08","name":"Baden-Württemberg"}},{"name":"Schiesseirbergweg","postalCode":"77866","locality":"Rheinau","municipality":{"key":"08317153","name":"Rheinau, Stadt","type":"Stadt"},"district":{"key":"08317","name":"Ortenaukreis","type":"Landkreis"},"federalState":{"key":"08","name":"Baden-Württemberg"}},{"name":"Schießrain","postalCode":"77866","locality":"Rheinau","municipality":{"key":"08317153","name":"Rheinau, Stadt","type":"Stadt"},"district":{"key":"08317","name":"Ortenaukreis","type":"Landkreis"},"federalState":{"key":"08","name":"Baden-Württemberg"}},{"name":"Schifferstr.","postalCode":"77866","locality":"Rheinau","municipality":{"key":"08317153","name":"Rheinau, Stadt","type":"Stadt"},"district":{"key":"08317","name":"Ortenaukreis","type":"Landkreis"},"federalState":{"key":"08","name":"Baden-Württemberg"}},{"name":"Schillerstr.","postalCode":"77866","locality":"Rheinau","municipality":{"key":"08317153","name":"Rheinau, Stadt","type":"Stadt"},"district":{"key":"08317","name":"Ortenaukreis","type":"Landkreis"},"federalState":{"key":"08","name":"Baden-Württemberg"}},{"name":"Schliffkopfweg","postalCode":"77866","locality":"Rheinau","municipality":{"key":"08317153","name":"Rheinau, Stadt","type":"Stadt"},"district":{"key":"08317","name":"Ortenaukreis","type":"Landkreis"},"federalState":{"key":"08","name":"Baden-Württemberg"}},{"name":"Schlitzstr.","postalCode":"77866","locality":"Rheinau","municipality":{"key":"08317153","name":"Rheinau, Stadt","type":"Stadt"},"district":{"key":"08317","name":"Ortenaukreis","type":"Landkreis"},"federalState":{"key":"08","name":"Baden-Württemberg"}},{"name":"Schlößleweg","postalCode":"77866","locality":"Rheinau","municipality":{"key":"08317153","name":"Rheinau, Stadt","type":"Stadt"},"district":{"key":"08317","name":"Ortenaukreis","type":"Landkreis"},"federalState":{"key":"08","name":"Baden-Württemberg"}},{"name":"Schlossplatz","postalCode":"77866","locality":"Rheinau","municipality":{"key":"08317153","name":"Rheinau, Stadt","type":"Stadt"},"district":{"key":"08317","name":"Ortenaukreis","type":"Landkreis"},"federalState":{"key":"08","name":"Baden-Württemberg"}},{"name":"Schloßplatz","postalCode":"77866","locality":"Rheinau","municipality":{"key":"08317153","name":"Rheinau, Stadt","type":"Stadt"},"district":{"key":"08317","name":"Ortenaukreis","type":"Landkreis"},"federalState":{"key":"08","name":"Baden-Württemberg"}},{"name":"Schmiedweg","postalCode":"77866","locality":"Rheinau","municipality":{"key":"08317153","name":"Rheinau, Stadt","type":"Stadt"},"district":{"key":"08317","name":"Ortenaukreis","type":"Landkreis"},"federalState":{"key":"08","name":"Baden-Württemberg"}},{"name":"Schreinerweg","postalCode":"77866","locality":"Rheinau","municipality":{"key":"08317153","name":"Rheinau, Stadt","type":"Stadt"},"district":{"key":"08317","name":"Ortenaukreis","type":"Landkreis"},"federalState":{"key":"08","name":"Baden-Württemberg"}},{"name":"Schringelstr.","postalCode":"77866","locality":"Rheinau","municipality":{"key":"08317153","name":"Rheinau, Stadt","type":"Stadt"},"district":{"key":"08317","name":"Ortenaukreis","type":"Landkreis"},"federalState":{"key":"08","name":"Baden-Württemberg"}},{"name":"Schrott","postalCode":"77866","locality":"Rheinau","municipality":{"key":"08317153","name":"Rheinau, Stadt","type":"Stadt"},"district":{"key":"08317","name":"Ortenaukreis","type":"Landkreis"},"federalState":{"key":"08","name":"Baden-Württemberg"}},{"name":"Schulstr.","postalCode":"77866","locality":"Rheinau","municipality":{"key":"08317153","name":"Rheinau, Stadt","type":"Stadt"},"district":{"key":"08317","name":"Ortenaukreis","type":"Landkreis"},"federalState":{"key":"08","name":"Baden-Württemberg"}},{"name":"Schulwäldchen","postalCode":"77866","locality":"Rheinau","municipality":{"key":"08317153","name":"Rheinau, Stadt","type":"Stadt"},"district":{"key":"08317","name":"Ortenaukreis","type":"Landkreis"},"federalState":{"key":"08","name":"Baden-Württemberg"}},{"name":"Schwarzwaldstr.","postalCode":"77866","locality":"Rheinau","municipality":{"key":"08317153","name":"Rheinau, Stadt","type":"Stadt"},"district":{"key":"08317","name":"Ortenaukreis","type":"Landkreis"},"federalState":{"key":"08","name":"Baden-Württemberg"}},{"name":"Schwimmbadstr.","postalCode":"77866","locality":"Rheinau","municipality":{"key":"08317153","name":"Rheinau, Stadt","type":"Stadt"},"district":{"key":"08317","name":"Ortenaukreis","type":"Landkreis"},"federalState":{"key":"08","name":"Baden-Württemberg"}},{"name":"Section de la délimitation Epailly des propriétés entre le Royaume de France et le Grand-duché de Bade – 1816-1840","postalCode":"77977","locality":"Rheinau","municipality":{"key":"08317971","name":"Rheinau, gemeindefreies Gebiet","type":"Gemeindefreies_Gebiet_Unbewohnt"},"district":{"key":"08317","name":"Ortenaukreis","type":"Landkreis"},"federalState":{"key":"08","name":"Baden-Württemberg"}},{"name":"Section de la délimitation Epailly des propriétés entre le Royaume de France et le Grand-duché de Bade – 1816-1840 / Schwarzspechtweg","postalCode":"77977","locality":"Rheinau","municipality":{"key":"08317971","name":"Rheinau, gemeindefreies Gebiet","type":"Gemeindefreies_Gebiet_Unbewohnt"},"district":{"key":"08317","name":"Ortenaukreis","type":"Landkreis"},"federalState":{"key":"08","name":"Baden-Württemberg"}},{"name":"Selzau","postalCode":"77866","locality":"Rheinau","municipality":{"key":"08317153","name":"Rheinau, Stadt","type":"Stadt"},"district":{"key":"08317","name":"Ortenaukreis","type":"Landkreis"},"federalState":{"key":"08","name":"Baden-Württemberg"}},{"name":"Siedlung","postalCode":"77866","locality":"Rheinau","municipality":{"key":"08317153","name":"Rheinau, Stadt","type":"Stadt"},"district":{"key":"08317","name":"Ortenaukreis","type":"Landkreis"},"federalState":{"key":"08","name":"Baden-Württemberg"}},{"name":"Siedlungsstr.","postalCode":"77866","locality":"Rheinau","municipality":{"key":"08317153","name":"Rheinau, Stadt","type":"Stadt"},"district":{"key":"08317","name":"Ortenaukreis","type":"Landkreis"},"federalState":{"key":"08","name":"Baden-Württemberg"}},{"name":"Sommerdamm","postalCode":"77866","locality":"Rheinau","municipality":{"key":"08317153","name":"Rheinau, Stadt","type":"Stadt"},"district":{"key":"08317","name":"Ortenaukreis","type":"Landkreis"},"federalState":{"key":"08","name":"Baden-Württemberg"}},{"name":"Sommerfeldstr.","postalCode":"77866","locality":"Rheinau","municipality":{"key":"08317153","name":"Rheinau, Stadt","type":"Stadt"},"district":{"key":"08317","name":"Ortenaukreis","type":"Landkreis"},"federalState":{"key":"08","name":"Baden-Württemberg"}},{"name":"Stadionstr.","postalCode":"77866","locality":"Rheinau","municipality":{"key":"08317153","name":"Rheinau, Stadt","type":"Stadt"},"district":{"key":"08317","name":"Ortenaukreis","type":"Landkreis"},"federalState":{"key":"08","name":"Baden-Württemberg"}},{"name":"Stadtgarten in Niederfreistett","postalCode":"77866","locality":"Rheinau","municipality":{"key":"08317153","name":"Rheinau, Stadt","type":"Stadt"},"district":{"key":"08317","name":"Ortenaukreis","type":"Landkreis"},"federalState":{"key":"08","name":"Baden-Württemberg"}},{"name":"Steinböschel","postalCode":"77866","locality":"Rheinau","municipality":{"key":"08317153","name":"Rheinau, Stadt","type":"Stadt"},"district":{"key":"08317","name":"Ortenaukreis","type":"Landkreis"},"federalState":{"key":"08","name":"Baden-Württemberg"}},{"name":"Steingrund","postalCode":"77866","locality":"Rheinau","municipality":{"key":"08317153","name":"Rheinau, Stadt","type":"Stadt"},"district":{"key":"08317","name":"Ortenaukreis","type":"Landkreis"},"federalState":{"key":"08","name":"Baden-Württemberg"}},{"name":"Steinhurststr.","postalCode":"77866","locality":"Rheinau","municipality":{"key":"08317153","name":"Rheinau, Stadt","type":"Stadt"},"district":{"key":"08317","name":"Ortenaukreis","type":"Landkreis"},"federalState":{"key":"08","name":"Baden-Württemberg"}},{"name":"Stellweg 1","postalCode":"77866","locality":"Rheinau","municipality":{"key":"08317153","name":"Rheinau, Stadt","type":"Stadt"},"district":{"key":"08317","name":"Ortenaukreis","type":"Landkreis"},"federalState":{"key":"08","name":"Baden-Württemberg"}},{"name":"Stellweg 11/12","postalCode":"77866","locality":"Rheinau","municipality":{"key":"08317153","name":"Rheinau, Stadt","type":"Stadt"},"district":{"key":"08317","name":"Ortenaukreis","type":"Landkreis"},"federalState":{"key":"08","name":"Baden-Württemberg"}},{"name":"Stellweg 1/6","postalCode":"77866","locality":"Rheinau","municipality":{"key":"08317153","name":"Rheinau, Stadt","type":"Stadt"},"district":{"key":"08317","name":"Ortenaukreis","type":"Landkreis"},"federalState":{"key":"08","name":"Baden-Württemberg"}},{"name":"Stellweg 3/4","postalCode":"77866","locality":"Rheinau","municipality":{"key":"08317153","name":"Rheinau, Stadt","type":"Stadt"},"district":{"key":"08317","name":"Ortenaukreis","type":"Landkreis"},"federalState":{"key":"08","name":"Baden-Württemberg"}},{"name":"Sternenstr.","postalCode":"77866","locality":"Rheinau","municipality":{"key":"08317153","name":"Rheinau, Stadt","type":"Stadt"},"district":{"key":"08317","name":"Ortenaukreis","type":"Landkreis"},"federalState":{"key":"08","name":"Baden-Württemberg"}},{"name":"Straßburger Str.","postalCode":"77866","locality":"Rheinau","municipality":{"key":"08317153","name":"Rheinau, Stadt","type":"Stadt"},"district":{"key":"08317","name":"Ortenaukreis","type":"Landkreis"},"federalState":{"key":"08","name":"Baden-Württemberg"}},{"name":"Tannenweg","postalCode":"77866","locality":"Rheinau","municipality":{"key":"08317153","name":"Rheinau, Stadt","type":"Stadt"},"district":{"key":"08317","name":"Ortenaukreis","type":"Landkreis"},"federalState":{"key":"08","name":"Baden-Württemberg"}},{"name":"Tiefentalstr.","postalCode":"77866","locality":"Rheinau","municipality":{"key":"08317153","name":"Rheinau, Stadt","type":"Stadt"},"district":{"key":"08317","name":"Ortenaukreis","type":"Landkreis"},"federalState":{"key":"08","name":"Baden-Württemberg"}},{"name":"Tullastr.","postalCode":"77866","locality":"Rheinau","municipality":{"key":"08317153","name":"Rheinau, Stadt","type":"Stadt"},"district":{"key":"08317","name":"Ortenaukreis","type":"Landkreis"},"federalState":{"key":"08","name":"Baden-Württemberg"}},{"name":"Tulpenweg","postalCode":"77866","locality":"Rheinau","municipality":{"key":"08317153","name":"Rheinau, Stadt","type":"Stadt"},"district":{"key":"08317","name":"Ortenaukreis","type":"Landkreis"},"federalState":{"key":"08","name":"Baden-Württemberg"}},{"name":"Turnhallenstr.","postalCode":"77866","locality":"Rheinau","municipality":{"key":"08317153","name":"Rheinau, Stadt","type":"Stadt"},"district":{"key":"08317","name":"Ortenaukreis","type":"Landkreis"},"federalState":{"key":"08","name":"Baden-Württemberg"}},{"name":"Uhlandstr.","postalCode":"77866","locality":"Rheinau","municipality":{"key":"08317153","name":"Rheinau, Stadt","type":"Stadt"},"district":{"key":"08317","name":"Ortenaukreis","type":"Landkreis"},"federalState":{"key":"08","name":"Baden-Württemberg"}},{"name":"Ulmenweg","postalCode":"77866","locality":"Rheinau","municipality":{"key":"08317153","name":"Rheinau, Stadt","type":"Stadt"},"district":{"key":"08317","name":"Ortenaukreis","type":"Landkreis"},"federalState":{"key":"08","name":"Baden-Württemberg"}},{"name":"umgestürzter Baumstamm","postalCode":"77866","locality":"Rheinau","municipality":{"key":"08317153","name":"Rheinau, Stadt","type":"Stadt"},"district":{"key":"08317","name":"Ortenaukreis","type":"Landkreis"},"federalState":{"key":"08","name":"Baden-Württemberg"}},{"name":"Unterer Kieswerkweg","postalCode":"77866","locality":"Rheinau","municipality":{"key":"08317153","name":"Rheinau, Stadt","type":"Stadt"},"district":{"key":"08317","name":"Ortenaukreis","type":"Landkreis"},"federalState":{"key":"08","name":"Baden-Württemberg"}},{"name":"Verbindung Aue-Str. mit Mühlenstr.","postalCode":"77866","locality":"Rheinau","municipality":{"key":"08317153","name":"Rheinau, Stadt","type":"Stadt"},"district":{"key":"08317","name":"Ortenaukreis","type":"Landkreis"},"federalState":{"key":"08","name":"Baden-Württemberg"}},{"name":"Verbindung Stierstall Lotsenstr.","postalCode":"77866","locality":"Rheinau","municipality":{"key":"08317153","name":"Rheinau, Stadt","type":"Stadt"},"district":{"key":"08317","name":"Ortenaukreis","type":"Landkreis"},"federalState":{"key":"08","name":"Baden-Württemberg"}},{"name":"Vogesenstr.","postalCode":"77866","locality":"Rheinau","municipality":{"key":"08317153","name":"Rheinau, Stadt","type":"Stadt"},"district":{"key":"08317","name":"Ortenaukreis","type":"Landkreis"},"federalState":{"key":"08","name":"Baden-Württemberg"}},{"name":"Vordere Allee","postalCode":"77866","locality":"Rheinau","municipality":{"key":"08317153","name":"Rheinau, Stadt","type":"Stadt"},"district":{"key":"08317","name":"Ortenaukreis","type":"Landkreis"},"federalState":{"key":"08","name":"Baden-Württemberg"}},{"name":"Wagnerweg","postalCode":"77866","locality":"Rheinau","municipality":{"key":"08317153","name":"Rheinau, Stadt","type":"Stadt"},"district":{"key":"08317","name":"Ortenaukreis","type":"Landkreis"},"federalState":{"key":"08","name":"Baden-Württemberg"}},{"name":"Waldstr.","postalCode":"77866","locality":"Rheinau","municipality":{"key":"08317153","name":"Rheinau, Stadt","type":"Stadt"},"district":{"key":"08317","name":"Ortenaukreis","type":"Landkreis"},"federalState":{"key":"08","name":"Baden-Württemberg"}},{"name":"Walterslachstr.","postalCode":"77866","locality":"Rheinau","municipality":{"key":"08317153","name":"Rheinau, Stadt","type":"Stadt"},"district":{"key":"08317","name":"Ortenaukreis","type":"Landkreis"},"federalState":{"key":"08","name":"Baden-Württemberg"}},{"name":"Weiherstr.","postalCode":"77866","locality":"Rheinau","municipality":{"key":"08317153","name":"Rheinau, Stadt","type":"Stadt"},"district":{"key":"08317","name":"Ortenaukreis","type":"Landkreis"},"federalState":{"key":"08","name":"Baden-Württemberg"}},{"name":"Weißdorn","postalCode":"77866","locality":"Rheinau","municipality":{"key":"08317153","name":"Rheinau, Stadt","type":"Stadt"},"district":{"key":"08317","name":"Ortenaukreis","type":"Landkreis"},"federalState":{"key":"08","name":"Baden-Württemberg"}},{"name":"Wendlingsbühn","postalCode":"77866","locality":"Rheinau","municipality":{"key":"08317153","name":"Rheinau, Stadt","type":"Stadt"},"district":{"key":"08317","name":"Ortenaukreis","type":"Landkreis"},"federalState":{"key":"08","name":"Baden-Württemberg"}},{"name":"Werftstr.","postalCode":"77866","locality":"Rheinau","municipality":{"key":"08317153","name":"Rheinau, Stadt","type":"Stadt"},"district":{"key":"08317","name":"Ortenaukreis","type":"Landkreis"},"federalState":{"key":"08","name":"Baden-Württemberg"}},{"name":"Westendstr.","postalCode":"77866","locality":"Rheinau","municipality":{"key":"08317153","name":"Rheinau, Stadt","type":"Stadt"},"district":{"key":"08317","name":"Ortenaukreis","type":"Landkreis"},"federalState":{"key":"08","name":"Baden-Württemberg"}},{"name":"Wiesenstr.","postalCode":"77866","locality":"Rheinau","municipality":{"key":"08317153","name":"Rheinau, Stadt","type":"Stadt"},"district":{"key":"08317","name":"Ortenaukreis","type":"Landkreis"},"federalState":{"key":"08","name":"Baden-Württemberg"}},{"name":"Winkelweg","postalCode":"77866","locality":"Rheinau","municipality":{"key":"08317153","name":"Rheinau, Stadt","type":"Stadt"},"district":{"key":"08317","name":"Ortenaukreis","type":"Landkreis"},"federalState":{"key":"08","name":"Baden-Württemberg"}},{"name":"Yachtstr.","postalCode":"77866","locality":"Rheinau","municipality":{"key":"08317153","name":"Rheinau, Stadt","type":"Stadt"},"district":{"key":"08317","name":"Ortenaukreis","type":"Landkreis"},"federalState":{"key":"08","name":"Baden-Württemberg"}},{"name":"Zainweg","postalCode":"77866","locality":"Rheinau","municipality":{"key":"08317153","name":"Rheinau, Stadt","type":"Stadt"},"district":{"key":"08317","name":"Ortenaukreis","type":"Landkreis"},"federalState":{"key":"08","name":"Baden-Württemberg"}},{"name":"Zieglerstr.","postalCode":"77866","locality":"Rheinau","municipality":{"key":"08317153","name":"Rheinau, Stadt","type":"Stadt"},"district":{"key":"08317","name":"Ortenaukreis","type":"Landkreis"},"federalState":{"key":"08","name":"Baden-Württemberg"}},{"name":"Zollstr.","postalCode":"77866","locality":"Rheinau","municipality":{"key":"08317153","name":"Rheinau, Stadt","type":"Stadt"},"district":{"key":"08317","name":"Ortenaukreis","type":"Landkreis"},"federalState":{"key":"08","name":"Baden-Württemberg"}},{"name":"Zufahrtsweg zum Sportplatz","postalCode":"77866","locality":"Rheinau","municipality":{"key":"08317153","name":"Rheinau, Stadt","type":"Stadt"},"district":{"key":"08317","name":"Ortenaukreis","type":"Landkreis"},"federalState":{"key":"08","name":"Baden-Württemberg"}},{"name":"zum Submissionsplatz","postalCode":"77866","locality":"Rheinau","municipality":{"key":"08317153","name":"Rheinau, Stadt","type":"Stadt"},"district":{"key":"08317","name":"Ortenaukreis","type":"Landkreis"},"federalState":{"key":"08","name":"Baden-Württemberg"}},]