[{"name":"Alter Weg","postalCode":"63699","locality":"Kefenrod","municipality":{"key":"06440013","name":"Kefenrod","type":"Kreisangehörige_Gemeinde"},"district":{"key":"06440","name":"Wetteraukreis","type":"Landkreis"},"federalState":{"key":"06","name":"Hessen"}},{"name":"Am Hirtengarten","postalCode":"63699","locality":"Kefenrod","municipality":{"key":"06440013","name":"Kefenrod","type":"Kreisangehörige_Gemeinde"},"district":{"key":"06440","name":"Wetteraukreis","type":"Landkreis"},"federalState":{"key":"06","name":"Hessen"}},{"name":"Am Kirchberg","postalCode":"63699","locality":"Kefenrod","municipality":{"key":"06440013","name":"Kefenrod","type":"Kreisangehörige_Gemeinde"},"district":{"key":"06440","name":"Wetteraukreis","type":"Landkreis"},"federalState":{"key":"06","name":"Hessen"}},{"name":"Am Lindenberg","postalCode":"63699","locality":"Kefenrod","municipality":{"key":"06440013","name":"Kefenrod","type":"Kreisangehörige_Gemeinde"},"district":{"key":"06440","name":"Wetteraukreis","type":"Landkreis"},"federalState":{"key":"06","name":"Hessen"}},{"name":"Am Märzgarten","postalCode":"63699","locality":"Kefenrod","municipality":{"key":"06440013","name":"Kefenrod","type":"Kreisangehörige_Gemeinde"},"district":{"key":"06440","name":"Wetteraukreis","type":"Landkreis"},"federalState":{"key":"06","name":"Hessen"}},{"name":"Am Sportfeld","postalCode":"63699","locality":"Kefenrod","municipality":{"key":"06440013","name":"Kefenrod","type":"Kreisangehörige_Gemeinde"},"district":{"key":"06440","name":"Wetteraukreis","type":"Landkreis"},"federalState":{"key":"06","name":"Hessen"}},{"name":"Am Wasen","postalCode":"63699","locality":"Kefenrod","municipality":{"key":"06440013","name":"Kefenrod","type":"Kreisangehörige_Gemeinde"},"district":{"key":"06440","name":"Wetteraukreis","type":"Landkreis"},"federalState":{"key":"06","name":"Hessen"}},{"name":"An der Hohl","postalCode":"63699","locality":"Kefenrod","municipality":{"key":"06440013","name":"Kefenrod","type":"Kreisangehörige_Gemeinde"},"district":{"key":"06440","name":"Wetteraukreis","type":"Landkreis"},"federalState":{"key":"06","name":"Hessen"}},{"name":"An der Kirche","postalCode":"63699","locality":"Kefenrod","municipality":{"key":"06440013","name":"Kefenrod","type":"Kreisangehörige_Gemeinde"},"district":{"key":"06440","name":"Wetteraukreis","type":"Landkreis"},"federalState":{"key":"06","name":"Hessen"}},{"name":"An der Strut","postalCode":"63699","locality":"Kefenrod","municipality":{"key":"06440013","name":"Kefenrod","type":"Kreisangehörige_Gemeinde"},"district":{"key":"06440","name":"Wetteraukreis","type":"Landkreis"},"federalState":{"key":"06","name":"Hessen"}},{"name":"Auf dem Mühlgraben","postalCode":"63699","locality":"Kefenrod","municipality":{"key":"06440013","name":"Kefenrod","type":"Kreisangehörige_Gemeinde"},"district":{"key":"06440","name":"Wetteraukreis","type":"Landkreis"},"federalState":{"key":"06","name":"Hessen"}},{"name":"Außerhalb","postalCode":"63699","locality":"Kefenrod","municipality":{"key":"06440013","name":"Kefenrod","type":"Kreisangehörige_Gemeinde"},"district":{"key":"06440","name":"Wetteraukreis","type":"Landkreis"},"federalState":{"key":"06","name":"Hessen"}},{"name":"Bachweg","postalCode":"63699","locality":"Kefenrod","municipality":{"key":"06440013","name":"Kefenrod","type":"Kreisangehörige_Gemeinde"},"district":{"key":"06440","name":"Wetteraukreis","type":"Landkreis"},"federalState":{"key":"06","name":"Hessen"}},{"name":"Bangertsweg","postalCode":"63699","locality":"Kefenrod","municipality":{"key":"06440013","name":"Kefenrod","type":"Kreisangehörige_Gemeinde"},"district":{"key":"06440","name":"Wetteraukreis","type":"Landkreis"},"federalState":{"key":"06","name":"Hessen"}},{"name":"Bennerweg","postalCode":"63699","locality":"Kefenrod","municipality":{"key":"06440013","name":"Kefenrod","type":"Kreisangehörige_Gemeinde"},"district":{"key":"06440","name":"Wetteraukreis","type":"Landkreis"},"federalState":{"key":"06","name":"Hessen"}},{"name":"Bettenstr.","postalCode":"63699","locality":"Kefenrod","municipality":{"key":"06440013","name":"Kefenrod","type":"Kreisangehörige_Gemeinde"},"district":{"key":"06440","name":"Wetteraukreis","type":"Landkreis"},"federalState":{"key":"06","name":"Hessen"}},{"name":"Beundeweg","postalCode":"63699","locality":"Kefenrod","municipality":{"key":"06440013","name":"Kefenrod","type":"Kreisangehörige_Gemeinde"},"district":{"key":"06440","name":"Wetteraukreis","type":"Landkreis"},"federalState":{"key":"06","name":"Hessen"}},{"name":"Bindsachsener Str.","postalCode":"63699","locality":"Kefenrod","municipality":{"key":"06440013","name":"Kefenrod","type":"Kreisangehörige_Gemeinde"},"district":{"key":"06440","name":"Wetteraukreis","type":"Landkreis"},"federalState":{"key":"06","name":"Hessen"}},{"name":"Birsteiner Str.","postalCode":"63699","locality":"Kefenrod","municipality":{"key":"06440013","name":"Kefenrod","type":"Kreisangehörige_Gemeinde"},"district":{"key":"06440","name":"Wetteraukreis","type":"Landkreis"},"federalState":{"key":"06","name":"Hessen"}},{"name":"Blumenstr.","postalCode":"63699","locality":"Kefenrod","municipality":{"key":"06440013","name":"Kefenrod","type":"Kreisangehörige_Gemeinde"},"district":{"key":"06440","name":"Wetteraukreis","type":"Landkreis"},"federalState":{"key":"06","name":"Hessen"}},{"name":"Bornweg","postalCode":"63699","locality":"Kefenrod","municipality":{"key":"06440013","name":"Kefenrod","type":"Kreisangehörige_Gemeinde"},"district":{"key":"06440","name":"Wetteraukreis","type":"Landkreis"},"federalState":{"key":"06","name":"Hessen"}},{"name":"Brachttalstr.","postalCode":"63699","locality":"Kefenrod","municipality":{"key":"06440013","name":"Kefenrod","type":"Kreisangehörige_Gemeinde"},"district":{"key":"06440","name":"Wetteraukreis","type":"Landkreis"},"federalState":{"key":"06","name":"Hessen"}},{"name":"Büdinger Str.","postalCode":"63699","locality":"Kefenrod","municipality":{"key":"06440013","name":"Kefenrod","type":"Kreisangehörige_Gemeinde"},"district":{"key":"06440","name":"Wetteraukreis","type":"Landkreis"},"federalState":{"key":"06","name":"Hessen"}},{"name":"Burggasse","postalCode":"63699","locality":"Kefenrod","municipality":{"key":"06440013","name":"Kefenrod","type":"Kreisangehörige_Gemeinde"},"district":{"key":"06440","name":"Wetteraukreis","type":"Landkreis"},"federalState":{"key":"06","name":"Hessen"}},{"name":"Erlenweg","postalCode":"63699","locality":"Kefenrod","municipality":{"key":"06440013","name":"Kefenrod","type":"Kreisangehörige_Gemeinde"},"district":{"key":"06440","name":"Wetteraukreis","type":"Landkreis"},"federalState":{"key":"06","name":"Hessen"}},{"name":"Forststr.","postalCode":"63699","locality":"Kefenrod","municipality":{"key":"06440013","name":"Kefenrod","type":"Kreisangehörige_Gemeinde"},"district":{"key":"06440","name":"Wetteraukreis","type":"Landkreis"},"federalState":{"key":"06","name":"Hessen"}},{"name":"Frankfurter Str.","postalCode":"63699","locality":"Kefenrod","municipality":{"key":"06440013","name":"Kefenrod","type":"Kreisangehörige_Gemeinde"},"district":{"key":"06440","name":"Wetteraukreis","type":"Landkreis"},"federalState":{"key":"06","name":"Hessen"}},{"name":"Friedhofsweg","postalCode":"63699","locality":"Kefenrod","municipality":{"key":"06440013","name":"Kefenrod","type":"Kreisangehörige_Gemeinde"},"district":{"key":"06440","name":"Wetteraukreis","type":"Landkreis"},"federalState":{"key":"06","name":"Hessen"}},{"name":"Gartenstr.","postalCode":"63699","locality":"Kefenrod","municipality":{"key":"06440013","name":"Kefenrod","type":"Kreisangehörige_Gemeinde"},"district":{"key":"06440","name":"Wetteraukreis","type":"Landkreis"},"federalState":{"key":"06","name":"Hessen"}},{"name":"Hauptstr.","postalCode":"63699","locality":"Kefenrod","municipality":{"key":"06440013","name":"Kefenrod","type":"Kreisangehörige_Gemeinde"},"district":{"key":"06440","name":"Wetteraukreis","type":"Landkreis"},"federalState":{"key":"06","name":"Hessen"}},{"name":"Hinter der Schlagmühle","postalCode":"63699","locality":"Kefenrod","municipality":{"key":"06440013","name":"Kefenrod","type":"Kreisangehörige_Gemeinde"},"district":{"key":"06440","name":"Wetteraukreis","type":"Landkreis"},"federalState":{"key":"06","name":"Hessen"}},{"name":"Hitzkirchener Str.","postalCode":"63699","locality":"Kefenrod","municipality":{"key":"06440013","name":"Kefenrod","type":"Kreisangehörige_Gemeinde"},"district":{"key":"06440","name":"Wetteraukreis","type":"Landkreis"},"federalState":{"key":"06","name":"Hessen"}},{"name":"Höhenstr.","postalCode":"63699","locality":"Kefenrod","municipality":{"key":"06440013","name":"Kefenrod","type":"Kreisangehörige_Gemeinde"},"district":{"key":"06440","name":"Wetteraukreis","type":"Landkreis"},"federalState":{"key":"06","name":"Hessen"}},{"name":"Im Scheuergarten","postalCode":"63699","locality":"Kefenrod","municipality":{"key":"06440013","name":"Kefenrod","type":"Kreisangehörige_Gemeinde"},"district":{"key":"06440","name":"Wetteraukreis","type":"Landkreis"},"federalState":{"key":"06","name":"Hessen"}},{"name":"In den Ellern","postalCode":"63699","locality":"Kefenrod","municipality":{"key":"06440013","name":"Kefenrod","type":"Kreisangehörige_Gemeinde"},"district":{"key":"06440","name":"Wetteraukreis","type":"Landkreis"},"federalState":{"key":"06","name":"Hessen"}},{"name":"In der Ecke","postalCode":"63699","locality":"Kefenrod","municipality":{"key":"06440013","name":"Kefenrod","type":"Kreisangehörige_Gemeinde"},"district":{"key":"06440","name":"Wetteraukreis","type":"Landkreis"},"federalState":{"key":"06","name":"Hessen"}},{"name":"In der Leimenwiese","postalCode":"63699","locality":"Kefenrod","municipality":{"key":"06440013","name":"Kefenrod","type":"Kreisangehörige_Gemeinde"},"district":{"key":"06440","name":"Wetteraukreis","type":"Landkreis"},"federalState":{"key":"06","name":"Hessen"}},{"name":"Jahnstr.","postalCode":"63699","locality":"Kefenrod","municipality":{"key":"06440013","name":"Kefenrod","type":"Kreisangehörige_Gemeinde"},"district":{"key":"06440","name":"Wetteraukreis","type":"Landkreis"},"federalState":{"key":"06","name":"Hessen"}},{"name":"Kirchberg","postalCode":"63699","locality":"Kefenrod","municipality":{"key":"06440013","name":"Kefenrod","type":"Kreisangehörige_Gemeinde"},"district":{"key":"06440","name":"Wetteraukreis","type":"Landkreis"},"federalState":{"key":"06","name":"Hessen"}},{"name":"Kirchstr.","postalCode":"63699","locality":"Kefenrod","municipality":{"key":"06440013","name":"Kefenrod","type":"Kreisangehörige_Gemeinde"},"district":{"key":"06440","name":"Wetteraukreis","type":"Landkreis"},"federalState":{"key":"06","name":"Hessen"}},{"name":"Kirschbaumstr.","postalCode":"63699","locality":"Kefenrod","municipality":{"key":"06440013","name":"Kefenrod","type":"Kreisangehörige_Gemeinde"},"district":{"key":"06440","name":"Wetteraukreis","type":"Landkreis"},"federalState":{"key":"06","name":"Hessen"}},{"name":"Lehmweg","postalCode":"63699","locality":"Kefenrod","municipality":{"key":"06440013","name":"Kefenrod","type":"Kreisangehörige_Gemeinde"},"district":{"key":"06440","name":"Wetteraukreis","type":"Landkreis"},"federalState":{"key":"06","name":"Hessen"}},{"name":"Leisenwalder Weg","postalCode":"63699","locality":"Kefenrod","municipality":{"key":"06440013","name":"Kefenrod","type":"Kreisangehörige_Gemeinde"},"district":{"key":"06440","name":"Wetteraukreis","type":"Landkreis"},"federalState":{"key":"06","name":"Hessen"}},{"name":"Liebfrauenstr.","postalCode":"63699","locality":"Kefenrod","municipality":{"key":"06440013","name":"Kefenrod","type":"Kreisangehörige_Gemeinde"},"district":{"key":"06440","name":"Wetteraukreis","type":"Landkreis"},"federalState":{"key":"06","name":"Hessen"}},{"name":"Lindenstr.","postalCode":"63699","locality":"Kefenrod","municipality":{"key":"06440013","name":"Kefenrod","type":"Kreisangehörige_Gemeinde"},"district":{"key":"06440","name":"Wetteraukreis","type":"Landkreis"},"federalState":{"key":"06","name":"Hessen"}},{"name":"Mühlweg","postalCode":"63699","locality":"Kefenrod","municipality":{"key":"06440013","name":"Kefenrod","type":"Kreisangehörige_Gemeinde"},"district":{"key":"06440","name":"Wetteraukreis","type":"Landkreis"},"federalState":{"key":"06","name":"Hessen"}},{"name":"Nach der Engelhecke","postalCode":"63699","locality":"Kefenrod","municipality":{"key":"06440013","name":"Kefenrod","type":"Kreisangehörige_Gemeinde"},"district":{"key":"06440","name":"Wetteraukreis","type":"Landkreis"},"federalState":{"key":"06","name":"Hessen"}},{"name":"Neuer Weg","postalCode":"63699","locality":"Kefenrod","municipality":{"key":"06440013","name":"Kefenrod","type":"Kreisangehörige_Gemeinde"},"district":{"key":"06440","name":"Wetteraukreis","type":"Landkreis"},"federalState":{"key":"06","name":"Hessen"}},{"name":"Oberdorfstr.","postalCode":"63699","locality":"Kefenrod","municipality":{"key":"06440013","name":"Kefenrod","type":"Kreisangehörige_Gemeinde"},"district":{"key":"06440","name":"Wetteraukreis","type":"Landkreis"},"federalState":{"key":"06","name":"Hessen"}},{"name":"Obergasse","postalCode":"63699","locality":"Kefenrod","municipality":{"key":"06440013","name":"Kefenrod","type":"Kreisangehörige_Gemeinde"},"district":{"key":"06440","name":"Wetteraukreis","type":"Landkreis"},"federalState":{"key":"06","name":"Hessen"}},{"name":"Ortenbergstr.","postalCode":"63699","locality":"Kefenrod","municipality":{"key":"06440013","name":"Kefenrod","type":"Kreisangehörige_Gemeinde"},"district":{"key":"06440","name":"Wetteraukreis","type":"Landkreis"},"federalState":{"key":"06","name":"Hessen"}},{"name":"Ringstr.","postalCode":"63699","locality":"Kefenrod","municipality":{"key":"06440013","name":"Kefenrod","type":"Kreisangehörige_Gemeinde"},"district":{"key":"06440","name":"Wetteraukreis","type":"Landkreis"},"federalState":{"key":"06","name":"Hessen"}},{"name":"Roseneck","postalCode":"63699","locality":"Kefenrod","municipality":{"key":"06440013","name":"Kefenrod","type":"Kreisangehörige_Gemeinde"},"district":{"key":"06440","name":"Wetteraukreis","type":"Landkreis"},"federalState":{"key":"06","name":"Hessen"}},{"name":"Schulstr.","postalCode":"63699","locality":"Kefenrod","municipality":{"key":"06440013","name":"Kefenrod","type":"Kreisangehörige_Gemeinde"},"district":{"key":"06440","name":"Wetteraukreis","type":"Landkreis"},"federalState":{"key":"06","name":"Hessen"}},{"name":"Stockweg","postalCode":"63699","locality":"Kefenrod","municipality":{"key":"06440013","name":"Kefenrod","type":"Kreisangehörige_Gemeinde"},"district":{"key":"06440","name":"Wetteraukreis","type":"Landkreis"},"federalState":{"key":"06","name":"Hessen"}},{"name":"Str.nweg","postalCode":"63699","locality":"Kefenrod","municipality":{"key":"06440013","name":"Kefenrod","type":"Kreisangehörige_Gemeinde"},"district":{"key":"06440","name":"Wetteraukreis","type":"Landkreis"},"federalState":{"key":"06","name":"Hessen"}},{"name":"Talstr.","postalCode":"63699","locality":"Kefenrod","municipality":{"key":"06440013","name":"Kefenrod","type":"Kreisangehörige_Gemeinde"},"district":{"key":"06440","name":"Wetteraukreis","type":"Landkreis"},"federalState":{"key":"06","name":"Hessen"}},{"name":"Taubenweg","postalCode":"63699","locality":"Kefenrod","municipality":{"key":"06440013","name":"Kefenrod","type":"Kreisangehörige_Gemeinde"},"district":{"key":"06440","name":"Wetteraukreis","type":"Landkreis"},"federalState":{"key":"06","name":"Hessen"}},{"name":"Tränkweg","postalCode":"63699","locality":"Kefenrod","municipality":{"key":"06440013","name":"Kefenrod","type":"Kreisangehörige_Gemeinde"},"district":{"key":"06440","name":"Wetteraukreis","type":"Landkreis"},"federalState":{"key":"06","name":"Hessen"}},{"name":"Vogelsbergstr.","postalCode":"63699","locality":"Kefenrod","municipality":{"key":"06440013","name":"Kefenrod","type":"Kreisangehörige_Gemeinde"},"district":{"key":"06440","name":"Wetteraukreis","type":"Landkreis"},"federalState":{"key":"06","name":"Hessen"}},{"name":"Vordergasse","postalCode":"63699","locality":"Kefenrod","municipality":{"key":"06440013","name":"Kefenrod","type":"Kreisangehörige_Gemeinde"},"district":{"key":"06440","name":"Wetteraukreis","type":"Landkreis"},"federalState":{"key":"06","name":"Hessen"}},{"name":"Webergasse","postalCode":"63699","locality":"Kefenrod","municipality":{"key":"06440013","name":"Kefenrod","type":"Kreisangehörige_Gemeinde"},"district":{"key":"06440","name":"Wetteraukreis","type":"Landkreis"},"federalState":{"key":"06","name":"Hessen"}},{"name":"Weningser Str.","postalCode":"63699","locality":"Kefenrod","municipality":{"key":"06440013","name":"Kefenrod","type":"Kreisangehörige_Gemeinde"},"district":{"key":"06440","name":"Wetteraukreis","type":"Landkreis"},"federalState":{"key":"06","name":"Hessen"}},{"name":"Wiesenweg","postalCode":"63699","locality":"Kefenrod","municipality":{"key":"06440013","name":"Kefenrod","type":"Kreisangehörige_Gemeinde"},"district":{"key":"06440","name":"Wetteraukreis","type":"Landkreis"},"federalState":{"key":"06","name":"Hessen"}},{"name":"Wolferborner Weg","postalCode":"63699","locality":"Kefenrod","municipality":{"key":"06440013","name":"Kefenrod","type":"Kreisangehörige_Gemeinde"},"district":{"key":"06440","name":"Wetteraukreis","type":"Landkreis"},"federalState":{"key":"06","name":"Hessen"}},{"name":"Wolfsgasse","postalCode":"63699","locality":"Kefenrod","municipality":{"key":"06440013","name":"Kefenrod","type":"Kreisangehörige_Gemeinde"},"district":{"key":"06440","name":"Wetteraukreis","type":"Landkreis"},"federalState":{"key":"06","name":"Hessen"}},{"name":"Ziegelgasse","postalCode":"63699","locality":"Kefenrod","municipality":{"key":"06440013","name":"Kefenrod","type":"Kreisangehörige_Gemeinde"},"district":{"key":"06440","name":"Wetteraukreis","type":"Landkreis"},"federalState":{"key":"06","name":"Hessen"}},{"name":"Zum Wickenstein","postalCode":"63699","locality":"Kefenrod","municipality":{"key":"06440013","name":"Kefenrod","type":"Kreisangehörige_Gemeinde"},"district":{"key":"06440","name":"Wetteraukreis","type":"Landkreis"},"federalState":{"key":"06","name":"Hessen"}},]