[{"name":"Aalhoop","postalCode":"25557","locality":"Beldorf","municipality":{"key":"01058013","name":"Beldorf","type":"Kreisangehörige_Gemeinde"},"district":{"key":"01058","name":"Rendsburg-Eckernförde","type":"Kreis"},"federalState":{"key":"01","name":"Schleswig-Holstein"}},{"name":"Alte Meierei","postalCode":"25557","locality":"Beldorf","municipality":{"key":"01058013","name":"Beldorf","type":"Kreisangehörige_Gemeinde"},"district":{"key":"01058","name":"Rendsburg-Eckernförde","type":"Kreis"},"federalState":{"key":"01","name":"Schleswig-Holstein"}},{"name":"Alter Landweg","postalCode":"25767","locality":"Beldorf","municipality":{"key":"01058013","name":"Beldorf","type":"Kreisangehörige_Gemeinde"},"district":{"key":"01058","name":"Rendsburg-Eckernförde","type":"Kreis"},"federalState":{"key":"01","name":"Schleswig-Holstein"}},{"name":"Am Kanal","postalCode":"25557","locality":"Beldorf","municipality":{"key":"01058013","name":"Beldorf","type":"Kreisangehörige_Gemeinde"},"district":{"key":"01058","name":"Rendsburg-Eckernförde","type":"Kreis"},"federalState":{"key":"01","name":"Schleswig-Holstein"}},{"name":"Bundesstr.","postalCode":"25557","locality":"Beldorf","municipality":{"key":"01058013","name":"Beldorf","type":"Kreisangehörige_Gemeinde"},"district":{"key":"01058","name":"Rendsburg-Eckernförde","type":"Kreis"},"federalState":{"key":"01","name":"Schleswig-Holstein"}},{"name":"Bundesstr.","postalCode":"25767","locality":"Beldorf","municipality":{"key":"01058013","name":"Beldorf","type":"Kreisangehörige_Gemeinde"},"district":{"key":"01058","name":"Rendsburg-Eckernförde","type":"Kreis"},"federalState":{"key":"01","name":"Schleswig-Holstein"}},{"name":"Dorfstr.","postalCode":"25557","locality":"Beldorf","municipality":{"key":"01058013","name":"Beldorf","type":"Kreisangehörige_Gemeinde"},"district":{"key":"01058","name":"Rendsburg-Eckernförde","type":"Kreis"},"federalState":{"key":"01","name":"Schleswig-Holstein"}},{"name":"Hochbrückenstr.","postalCode":"25557","locality":"Beldorf","municipality":{"key":"01058013","name":"Beldorf","type":"Kreisangehörige_Gemeinde"},"district":{"key":"01058","name":"Rendsburg-Eckernförde","type":"Kreis"},"federalState":{"key":"01","name":"Schleswig-Holstein"}},{"name":"Kellerlandstr.","postalCode":"25557","locality":"Beldorf","municipality":{"key":"01058013","name":"Beldorf","type":"Kreisangehörige_Gemeinde"},"district":{"key":"01058","name":"Rendsburg-Eckernförde","type":"Kreis"},"federalState":{"key":"01","name":"Schleswig-Holstein"}},]