[{"name":"16-Büchles-Weg","postalCode":"71735","locality":"Eberdingen","municipality":{"key":"08118012","name":"Eberdingen","type":"Kreisangehörige_Gemeinde"},"district":{"key":"08118","name":"Ludwigsburg","type":"Landkreis"},"federalState":{"key":"08","name":"Baden-Württemberg"}},{"name":"1. Waldweg","postalCode":"75038","locality":"Oberderdingen","municipality":{"key":"08215059","name":"Oberderdingen","type":"Kreisangehörige_Gemeinde"},"district":{"key":"08215","name":"Karlsruhe","type":"Landkreis"},"federalState":{"key":"08","name":"Baden-Württemberg"}},{"name":"2. Waldweg","postalCode":"75038","locality":"Oberderdingen","municipality":{"key":"08215059","name":"Oberderdingen","type":"Kreisangehörige_Gemeinde"},"district":{"key":"08215","name":"Karlsruhe","type":"Landkreis"},"federalState":{"key":"08","name":"Baden-Württemberg"}},{"name":"3. Waldweg","postalCode":"75038","locality":"Oberderdingen","municipality":{"key":"08215059","name":"Oberderdingen","type":"Kreisangehörige_Gemeinde"},"district":{"key":"08215","name":"Karlsruhe","type":"Landkreis"},"federalState":{"key":"08","name":"Baden-Württemberg"}},{"name":"Adelbergstr.","postalCode":"85452","locality":"Moosinning","municipality":{"key":"09177130","name":"Moosinning","type":"Kreisangehörige_Gemeinde"},"district":{"key":"09177","name":"Erding","type":"Landkreis"},"federalState":{"key":"09","name":"Bayern"}},{"name":"Ahornweg","postalCode":"85452","locality":"Moosinning","municipality":{"key":"09177130","name":"Moosinning","type":"Kreisangehörige_Gemeinde"},"district":{"key":"09177","name":"Erding","type":"Landkreis"},"federalState":{"key":"09","name":"Bayern"}},{"name":"Almweg","postalCode":"85452","locality":"Moosinning","municipality":{"key":"09177130","name":"Moosinning","type":"Kreisangehörige_Gemeinde"},"district":{"key":"09177","name":"Erding","type":"Landkreis"},"federalState":{"key":"09","name":"Bayern"}},{"name":"Am Anger","postalCode":"85452","locality":"Moosinning","municipality":{"key":"09177130","name":"Moosinning","type":"Kreisangehörige_Gemeinde"},"district":{"key":"09177","name":"Erding","type":"Landkreis"},"federalState":{"key":"09","name":"Bayern"}},{"name":"Am Baggersee","postalCode":"85452","locality":"Moosinning","municipality":{"key":"09177130","name":"Moosinning","type":"Kreisangehörige_Gemeinde"},"district":{"key":"09177","name":"Erding","type":"Landkreis"},"federalState":{"key":"09","name":"Bayern"}},{"name":"Am Bleichbach","postalCode":"85452","locality":"Moosinning","municipality":{"key":"09177130","name":"Moosinning","type":"Kreisangehörige_Gemeinde"},"district":{"key":"09177","name":"Erding","type":"Landkreis"},"federalState":{"key":"09","name":"Bayern"}},{"name":"Am Gfängbach","postalCode":"85452","locality":"Moosinning","municipality":{"key":"09177130","name":"Moosinning","type":"Kreisangehörige_Gemeinde"},"district":{"key":"09177","name":"Erding","type":"Landkreis"},"federalState":{"key":"09","name":"Bayern"}},{"name":"Am Kindergarten","postalCode":"85452","locality":"Moosinning","municipality":{"key":"09177130","name":"Moosinning","type":"Kreisangehörige_Gemeinde"},"district":{"key":"09177","name":"Erding","type":"Landkreis"},"federalState":{"key":"09","name":"Bayern"}},{"name":"Am Pfarrhof","postalCode":"85452","locality":"Moosinning","municipality":{"key":"09177130","name":"Moosinning","type":"Kreisangehörige_Gemeinde"},"district":{"key":"09177","name":"Erding","type":"Landkreis"},"federalState":{"key":"09","name":"Bayern"}},{"name":"Amselweg","postalCode":"85452","locality":"Moosinning","municipality":{"key":"09177130","name":"Moosinning","type":"Kreisangehörige_Gemeinde"},"district":{"key":"09177","name":"Erding","type":"Landkreis"},"federalState":{"key":"09","name":"Bayern"}},{"name":"Am Steinberg","postalCode":"85452","locality":"Moosinning","municipality":{"key":"09177130","name":"Moosinning","type":"Kreisangehörige_Gemeinde"},"district":{"key":"09177","name":"Erding","type":"Landkreis"},"federalState":{"key":"09","name":"Bayern"}},{"name":"Am Vierergraben","postalCode":"85452","locality":"Moosinning","municipality":{"key":"09177130","name":"Moosinning","type":"Kreisangehörige_Gemeinde"},"district":{"key":"09177","name":"Erding","type":"Landkreis"},"federalState":{"key":"09","name":"Bayern"}},{"name":"Andreas-Kaiser-Str.","postalCode":"85452","locality":"Moosinning","municipality":{"key":"09177130","name":"Moosinning","type":"Kreisangehörige_Gemeinde"},"district":{"key":"09177","name":"Erding","type":"Landkreis"},"federalState":{"key":"09","name":"Bayern"}},{"name":"Anemonenweg","postalCode":"85452","locality":"Moosinning","municipality":{"key":"09177130","name":"Moosinning","type":"Kreisangehörige_Gemeinde"},"district":{"key":"09177","name":"Erding","type":"Landkreis"},"federalState":{"key":"09","name":"Bayern"}},{"name":"Auweg","postalCode":"85452","locality":"Moosinning","municipality":{"key":"09177130","name":"Moosinning","type":"Kreisangehörige_Gemeinde"},"district":{"key":"09177","name":"Erding","type":"Landkreis"},"federalState":{"key":"09","name":"Bayern"}},{"name":"Baderweg","postalCode":"85452","locality":"Moosinning","municipality":{"key":"09177130","name":"Moosinning","type":"Kreisangehörige_Gemeinde"},"district":{"key":"09177","name":"Erding","type":"Landkreis"},"federalState":{"key":"09","name":"Bayern"}},{"name":"Bergstr.","postalCode":"85452","locality":"Moosinning","municipality":{"key":"09177130","name":"Moosinning","type":"Kreisangehörige_Gemeinde"},"district":{"key":"09177","name":"Erding","type":"Landkreis"},"federalState":{"key":"09","name":"Bayern"}},{"name":"Birkenallee","postalCode":"85452","locality":"Moosinning","municipality":{"key":"09177130","name":"Moosinning","type":"Kreisangehörige_Gemeinde"},"district":{"key":"09177","name":"Erding","type":"Landkreis"},"federalState":{"key":"09","name":"Bayern"}},{"name":"Birkenstr.","postalCode":"85452","locality":"Moosinning","municipality":{"key":"09177130","name":"Moosinning","type":"Kreisangehörige_Gemeinde"},"district":{"key":"09177","name":"Erding","type":"Landkreis"},"federalState":{"key":"09","name":"Bayern"}},{"name":"Blumenstr.","postalCode":"85452","locality":"Moosinning","municipality":{"key":"09177130","name":"Moosinning","type":"Kreisangehörige_Gemeinde"},"district":{"key":"09177","name":"Erding","type":"Landkreis"},"federalState":{"key":"09","name":"Bayern"}},{"name":"Brunnenweg","postalCode":"85452","locality":"Moosinning","municipality":{"key":"09177130","name":"Moosinning","type":"Kreisangehörige_Gemeinde"},"district":{"key":"09177","name":"Erding","type":"Landkreis"},"federalState":{"key":"09","name":"Bayern"}},{"name":"Buchenweg","postalCode":"85452","locality":"Moosinning","municipality":{"key":"09177130","name":"Moosinning","type":"Kreisangehörige_Gemeinde"},"district":{"key":"09177","name":"Erding","type":"Landkreis"},"federalState":{"key":"09","name":"Bayern"}},{"name":"Camp Reinsehlen","postalCode":"29640","locality":"Schneverdingen","municipality":{"key":"03358019","name":"Schneverdingen, Stadt","type":"Stadt"},"district":{"key":"03358","name":"Heidekreis","type":"Landkreis"},"federalState":{"key":"03","name":"Niedersachsen"}},{"name":"Cantlerstr.","postalCode":"85435","locality":"Erding","municipality":{"key":"09177117","name":"Erding, GKSt","type":"Große_Kreisstadt"},"district":{"key":"09177","name":"Erding","type":"Landkreis"},"federalState":{"key":"09","name":"Bayern"}},{"name":"Carl-Neff-Str.","postalCode":"75038","locality":"Oberderdingen","municipality":{"key":"08215059","name":"Oberderdingen","type":"Kreisangehörige_Gemeinde"},"district":{"key":"08215","name":"Karlsruhe","type":"Landkreis"},"federalState":{"key":"08","name":"Baden-Württemberg"}},{"name":"Carl-Orff-Weg","postalCode":"70771","locality":"Leinfelden-Echterdingen","municipality":{"key":"08116078","name":"Leinfelden-Echterdingen, Stadt","type":"Große_Kreisstadt"},"district":{"key":"08116","name":"Esslingen","type":"Landkreis"},"federalState":{"key":"08","name":"Baden-Württemberg"}},{"name":"Carl-Spitzweg-Str.","postalCode":"70771","locality":"Leinfelden-Echterdingen","municipality":{"key":"08116078","name":"Leinfelden-Echterdingen, Stadt","type":"Große_Kreisstadt"},"district":{"key":"08116","name":"Esslingen","type":"Landkreis"},"federalState":{"key":"08","name":"Baden-Württemberg"}},{"name":"Charlottenweg","postalCode":"70771","locality":"Leinfelden-Echterdingen","municipality":{"key":"08116078","name":"Leinfelden-Echterdingen, Stadt","type":"Große_Kreisstadt"},"district":{"key":"08116","name":"Esslingen","type":"Landkreis"},"federalState":{"key":"08","name":"Baden-Württemberg"}},{"name":"Chisonestr.","postalCode":"75038","locality":"Oberderdingen","municipality":{"key":"08215059","name":"Oberderdingen","type":"Kreisangehörige_Gemeinde"},"district":{"key":"08215","name":"Karlsruhe","type":"Landkreis"},"federalState":{"key":"08","name":"Baden-Württemberg"}},{"name":"Christian-Jorhan-Str.","postalCode":"85445","locality":"Oberding","municipality":{"key":"09177133","name":"Oberding","type":"Kreisangehörige_Gemeinde"},"district":{"key":"09177","name":"Erding","type":"Landkreis"},"federalState":{"key":"09","name":"Bayern"}},{"name":"Christofstr.","postalCode":"71701","locality":"Schwieberdingen","municipality":{"key":"08118067","name":"Schwieberdingen","type":"Kreisangehörige_Gemeinde"},"district":{"key":"08118","name":"Ludwigsburg","type":"Landkreis"},"federalState":{"key":"08","name":"Baden-Württemberg"}},{"name":"Christofstr.","postalCode":"72127","locality":"Kusterdingen","municipality":{"key":"08416023","name":"Kusterdingen","type":"Kreisangehörige_Gemeinde"},"district":{"key":"08416","name":"Tübingen","type":"Landkreis"},"federalState":{"key":"08","name":"Baden-Württemberg"}},{"name":"Christophstr.","postalCode":"70771","locality":"Leinfelden-Echterdingen","municipality":{"key":"08116078","name":"Leinfelden-Echterdingen, Stadt","type":"Große_Kreisstadt"},"district":{"key":"08116","name":"Esslingen","type":"Landkreis"},"federalState":{"key":"08","name":"Baden-Württemberg"}},{"name":"Clara-Schumann-Str.","postalCode":"71701","locality":"Schwieberdingen","municipality":{"key":"08118067","name":"Schwieberdingen","type":"Kreisangehörige_Gemeinde"},"district":{"key":"08118","name":"Ludwigsburg","type":"Landkreis"},"federalState":{"key":"08","name":"Baden-Württemberg"}},{"name":"Claudiusstr.","postalCode":"70771","locality":"Leinfelden-Echterdingen","municipality":{"key":"08116078","name":"Leinfelden-Echterdingen, Stadt","type":"Große_Kreisstadt"},"district":{"key":"08116","name":"Esslingen","type":"Landkreis"},"federalState":{"key":"08","name":"Baden-Württemberg"}},{"name":"Claudiusstr.","postalCode":"71735","locality":"Eberdingen","municipality":{"key":"08118012","name":"Eberdingen","type":"Kreisangehörige_Gemeinde"},"district":{"key":"08118","name":"Ludwigsburg","type":"Landkreis"},"federalState":{"key":"08","name":"Baden-Württemberg"}},{"name":"Combastr.","postalCode":"75038","locality":"Oberderdingen","municipality":{"key":"08215059","name":"Oberderdingen","type":"Kreisangehörige_Gemeinde"},"district":{"key":"08215","name":"Karlsruhe","type":"Landkreis"},"federalState":{"key":"08","name":"Baden-Württemberg"}},{"name":"Cookstr.","postalCode":"70771","locality":"Leinfelden-Echterdingen","municipality":{"key":"08116078","name":"Leinfelden-Echterdingen, Stadt","type":"Große_Kreisstadt"},"district":{"key":"08116","name":"Esslingen","type":"Landkreis"},"federalState":{"key":"08","name":"Baden-Württemberg"}},{"name":"Dahlienstr.","postalCode":"85452","locality":"Moosinning","municipality":{"key":"09177130","name":"Moosinning","type":"Kreisangehörige_Gemeinde"},"district":{"key":"09177","name":"Erding","type":"Landkreis"},"federalState":{"key":"09","name":"Bayern"}},{"name":"Dorfstr.","postalCode":"85452","locality":"Moosinning","municipality":{"key":"09177130","name":"Moosinning","type":"Kreisangehörige_Gemeinde"},"district":{"key":"09177","name":"Erding","type":"Landkreis"},"federalState":{"key":"09","name":"Bayern"}},{"name":"Dr.-Burgholzer-Weg","postalCode":"85452","locality":"Moosinning","municipality":{"key":"09177130","name":"Moosinning","type":"Kreisangehörige_Gemeinde"},"district":{"key":"09177","name":"Erding","type":"Landkreis"},"federalState":{"key":"09","name":"Bayern"}},{"name":"Egerländer Str.","postalCode":"85452","locality":"Moosinning","municipality":{"key":"09177130","name":"Moosinning","type":"Kreisangehörige_Gemeinde"},"district":{"key":"09177","name":"Erding","type":"Landkreis"},"federalState":{"key":"09","name":"Bayern"}},{"name":"Eichenweg","postalCode":"85452","locality":"Moosinning","municipality":{"key":"09177130","name":"Moosinning","type":"Kreisangehörige_Gemeinde"},"district":{"key":"09177","name":"Erding","type":"Landkreis"},"federalState":{"key":"09","name":"Bayern"}},{"name":"Eicherloher Str.","postalCode":"85452","locality":"Moosinning","municipality":{"key":"09177130","name":"Moosinning","type":"Kreisangehörige_Gemeinde"},"district":{"key":"09177","name":"Erding","type":"Landkreis"},"federalState":{"key":"09","name":"Bayern"}},{"name":"Einfangstr.","postalCode":"85452","locality":"Moosinning","municipality":{"key":"09177130","name":"Moosinning","type":"Kreisangehörige_Gemeinde"},"district":{"key":"09177","name":"Erding","type":"Landkreis"},"federalState":{"key":"09","name":"Bayern"}},{"name":"Erdinger Str.","postalCode":"85452","locality":"Moosinning","municipality":{"key":"09177130","name":"Moosinning","type":"Kreisangehörige_Gemeinde"},"district":{"key":"09177","name":"Erding","type":"Landkreis"},"federalState":{"key":"09","name":"Bayern"}},{"name":"Erlenweg","postalCode":"85452","locality":"Moosinning","municipality":{"key":"09177130","name":"Moosinning","type":"Kreisangehörige_Gemeinde"},"district":{"key":"09177","name":"Erding","type":"Landkreis"},"federalState":{"key":"09","name":"Bayern"}},{"name":"Eschenweg","postalCode":"85452","locality":"Moosinning","municipality":{"key":"09177130","name":"Moosinning","type":"Kreisangehörige_Gemeinde"},"district":{"key":"09177","name":"Erding","type":"Landkreis"},"federalState":{"key":"09","name":"Bayern"}},{"name":"Fasanenweg","postalCode":"85452","locality":"Moosinning","municipality":{"key":"09177130","name":"Moosinning","type":"Kreisangehörige_Gemeinde"},"district":{"key":"09177","name":"Erding","type":"Landkreis"},"federalState":{"key":"09","name":"Bayern"}},{"name":"Fehlbachstr.","postalCode":"85452","locality":"Moosinning","municipality":{"key":"09177130","name":"Moosinning","type":"Kreisangehörige_Gemeinde"},"district":{"key":"09177","name":"Erding","type":"Landkreis"},"federalState":{"key":"09","name":"Bayern"}},{"name":"Fichtenstr.","postalCode":"85452","locality":"Moosinning","municipality":{"key":"09177130","name":"Moosinning","type":"Kreisangehörige_Gemeinde"},"district":{"key":"09177","name":"Erding","type":"Landkreis"},"federalState":{"key":"09","name":"Bayern"}},{"name":"Finkenstr.","postalCode":"85452","locality":"Moosinning","municipality":{"key":"09177130","name":"Moosinning","type":"Kreisangehörige_Gemeinde"},"district":{"key":"09177","name":"Erding","type":"Landkreis"},"federalState":{"key":"09","name":"Bayern"}},{"name":"Flurstr.","postalCode":"85452","locality":"Moosinning","municipality":{"key":"09177130","name":"Moosinning","type":"Kreisangehörige_Gemeinde"},"district":{"key":"09177","name":"Erding","type":"Landkreis"},"federalState":{"key":"09","name":"Bayern"}},{"name":"Franzheimer Ring","postalCode":"85452","locality":"Moosinning","municipality":{"key":"09177130","name":"Moosinning","type":"Kreisangehörige_Gemeinde"},"district":{"key":"09177","name":"Erding","type":"Landkreis"},"federalState":{"key":"09","name":"Bayern"}},{"name":"Freisinger Str.","postalCode":"85452","locality":"Moosinning","municipality":{"key":"09177130","name":"Moosinning","type":"Kreisangehörige_Gemeinde"},"district":{"key":"09177","name":"Erding","type":"Landkreis"},"federalState":{"key":"09","name":"Bayern"}},{"name":"Gartenweg","postalCode":"85452","locality":"Moosinning","municipality":{"key":"09177130","name":"Moosinning","type":"Kreisangehörige_Gemeinde"},"district":{"key":"09177","name":"Erding","type":"Landkreis"},"federalState":{"key":"09","name":"Bayern"}},{"name":"Gfällachstr.","postalCode":"85452","locality":"Moosinning","municipality":{"key":"09177130","name":"Moosinning","type":"Kreisangehörige_Gemeinde"},"district":{"key":"09177","name":"Erding","type":"Landkreis"},"federalState":{"key":"09","name":"Bayern"}},{"name":"Glockenbecherweg","postalCode":"85452","locality":"Moosinning","municipality":{"key":"09177130","name":"Moosinning","type":"Kreisangehörige_Gemeinde"},"district":{"key":"09177","name":"Erding","type":"Landkreis"},"federalState":{"key":"09","name":"Bayern"}},{"name":"Hauptstr.","postalCode":"85452","locality":"Moosinning","municipality":{"key":"09177130","name":"Moosinning","type":"Kreisangehörige_Gemeinde"},"district":{"key":"09177","name":"Erding","type":"Landkreis"},"federalState":{"key":"09","name":"Bayern"}},{"name":"Herdegenstr.","postalCode":"85452","locality":"Moosinning","municipality":{"key":"09177130","name":"Moosinning","type":"Kreisangehörige_Gemeinde"},"district":{"key":"09177","name":"Erding","type":"Landkreis"},"federalState":{"key":"09","name":"Bayern"}},{"name":"Ismaninger Str.","postalCode":"85452","locality":"Moosinning","municipality":{"key":"09177130","name":"Moosinning","type":"Kreisangehörige_Gemeinde"},"district":{"key":"09177","name":"Erding","type":"Landkreis"},"federalState":{"key":"09","name":"Bayern"}},{"name":"Josef-Gammel-Str.","postalCode":"85452","locality":"Moosinning","municipality":{"key":"09177130","name":"Moosinning","type":"Kreisangehörige_Gemeinde"},"district":{"key":"09177","name":"Erding","type":"Landkreis"},"federalState":{"key":"09","name":"Bayern"}},{"name":"Kanalweg","postalCode":"85452","locality":"Moosinning","municipality":{"key":"09177130","name":"Moosinning","type":"Kreisangehörige_Gemeinde"},"district":{"key":"09177","name":"Erding","type":"Landkreis"},"federalState":{"key":"09","name":"Bayern"}},{"name":"Kirchenstr.","postalCode":"85452","locality":"Moosinning","municipality":{"key":"09177130","name":"Moosinning","type":"Kreisangehörige_Gemeinde"},"district":{"key":"09177","name":"Erding","type":"Landkreis"},"federalState":{"key":"09","name":"Bayern"}},{"name":"Kurze Gasse","postalCode":"85452","locality":"Moosinning","municipality":{"key":"09177130","name":"Moosinning","type":"Kreisangehörige_Gemeinde"},"district":{"key":"09177","name":"Erding","type":"Landkreis"},"federalState":{"key":"09","name":"Bayern"}},{"name":"Lerchenstr.","postalCode":"85452","locality":"Moosinning","municipality":{"key":"09177130","name":"Moosinning","type":"Kreisangehörige_Gemeinde"},"district":{"key":"09177","name":"Erding","type":"Landkreis"},"federalState":{"key":"09","name":"Bayern"}},{"name":"Lilienstr.","postalCode":"85452","locality":"Moosinning","municipality":{"key":"09177130","name":"Moosinning","type":"Kreisangehörige_Gemeinde"},"district":{"key":"09177","name":"Erding","type":"Landkreis"},"federalState":{"key":"09","name":"Bayern"}},{"name":"Lindenstr.","postalCode":"85452","locality":"Moosinning","municipality":{"key":"09177130","name":"Moosinning","type":"Kreisangehörige_Gemeinde"},"district":{"key":"09177","name":"Erding","type":"Landkreis"},"federalState":{"key":"09","name":"Bayern"}},{"name":"Lohfeldstr.","postalCode":"85452","locality":"Moosinning","municipality":{"key":"09177130","name":"Moosinning","type":"Kreisangehörige_Gemeinde"},"district":{"key":"09177","name":"Erding","type":"Landkreis"},"federalState":{"key":"09","name":"Bayern"}},{"name":"Mohnweg","postalCode":"85452","locality":"Moosinning","municipality":{"key":"09177130","name":"Moosinning","type":"Kreisangehörige_Gemeinde"},"district":{"key":"09177","name":"Erding","type":"Landkreis"},"federalState":{"key":"09","name":"Bayern"}},{"name":"Münchner Str.","postalCode":"85452","locality":"Moosinning","municipality":{"key":"09177130","name":"Moosinning","type":"Kreisangehörige_Gemeinde"},"district":{"key":"09177","name":"Erding","type":"Landkreis"},"federalState":{"key":"09","name":"Bayern"}},{"name":"Narzissenweg","postalCode":"85452","locality":"Moosinning","municipality":{"key":"09177130","name":"Moosinning","type":"Kreisangehörige_Gemeinde"},"district":{"key":"09177","name":"Erding","type":"Landkreis"},"federalState":{"key":"09","name":"Bayern"}},{"name":"Nelkenstr.","postalCode":"85452","locality":"Moosinning","municipality":{"key":"09177130","name":"Moosinning","type":"Kreisangehörige_Gemeinde"},"district":{"key":"09177","name":"Erding","type":"Landkreis"},"federalState":{"key":"09","name":"Bayern"}},{"name":"Neuchinger Str.","postalCode":"85452","locality":"Moosinning","municipality":{"key":"09177130","name":"Moosinning","type":"Kreisangehörige_Gemeinde"},"district":{"key":"09177","name":"Erding","type":"Landkreis"},"federalState":{"key":"09","name":"Bayern"}},{"name":"Notzinger Weg","postalCode":"85452","locality":"Moosinning","municipality":{"key":"09177130","name":"Moosinning","type":"Kreisangehörige_Gemeinde"},"district":{"key":"09177","name":"Erding","type":"Landkreis"},"federalState":{"key":"09","name":"Bayern"}},{"name":"Ob den Bergen","postalCode":"71701","locality":"Schwieberdingen","municipality":{"key":"08118067","name":"Schwieberdingen","type":"Kreisangehörige_Gemeinde"},"district":{"key":"08118","name":"Ludwigsburg","type":"Landkreis"},"federalState":{"key":"08","name":"Baden-Württemberg"}},{"name":"Ob den Weingärten","postalCode":"71735","locality":"Eberdingen","municipality":{"key":"08118012","name":"Eberdingen","type":"Kreisangehörige_Gemeinde"},"district":{"key":"08118","name":"Ludwigsburg","type":"Landkreis"},"federalState":{"key":"08","name":"Baden-Württemberg"}},{"name":"Oberaichener Höhe","postalCode":"70771","locality":"Leinfelden-Echterdingen","municipality":{"key":"08116078","name":"Leinfelden-Echterdingen, Stadt","type":"Große_Kreisstadt"},"district":{"key":"08116","name":"Esslingen","type":"Landkreis"},"federalState":{"key":"08","name":"Baden-Württemberg"}},{"name":"Oberaicher Weg","postalCode":"70771","locality":"Leinfelden-Echterdingen","municipality":{"key":"08116078","name":"Leinfelden-Echterdingen, Stadt","type":"Große_Kreisstadt"},"district":{"key":"08116","name":"Esslingen","type":"Landkreis"},"federalState":{"key":"08","name":"Baden-Württemberg"}},{"name":"Oberbrunnweg","postalCode":"86862","locality":"Lamerdingen","municipality":{"key":"09777145","name":"Lamerdingen","type":"Kreisangehörige_Gemeinde"},"district":{"key":"09777","name":"Ostallgäu","type":"Landkreis"},"federalState":{"key":"09","name":"Bayern"}},{"name":"Oberdinger Str.","postalCode":"85445","locality":"Oberding","municipality":{"key":"09177133","name":"Oberding","type":"Kreisangehörige_Gemeinde"},"district":{"key":"09177","name":"Erding","type":"Landkreis"},"federalState":{"key":"09","name":"Bayern"}},{"name":"Oberdorfstr.","postalCode":"70771","locality":"Leinfelden-Echterdingen","municipality":{"key":"08116078","name":"Leinfelden-Echterdingen, Stadt","type":"Große_Kreisstadt"},"district":{"key":"08116","name":"Esslingen","type":"Landkreis"},"federalState":{"key":"08","name":"Baden-Württemberg"}},{"name":"Obere Gärten","postalCode":"70771","locality":"Leinfelden-Echterdingen","municipality":{"key":"08116078","name":"Leinfelden-Echterdingen, Stadt","type":"Große_Kreisstadt"},"district":{"key":"08116","name":"Esslingen","type":"Landkreis"},"federalState":{"key":"08","name":"Baden-Württemberg"}},{"name":"Obere Gasse","postalCode":"71735","locality":"Eberdingen","municipality":{"key":"08118012","name":"Eberdingen","type":"Kreisangehörige_Gemeinde"},"district":{"key":"08118","name":"Ludwigsburg","type":"Landkreis"},"federalState":{"key":"08","name":"Baden-Württemberg"}},{"name":"Obere Gasse","postalCode":"75038","locality":"Oberderdingen","municipality":{"key":"08215059","name":"Oberderdingen","type":"Kreisangehörige_Gemeinde"},"district":{"key":"08215","name":"Karlsruhe","type":"Landkreis"},"federalState":{"key":"08","name":"Baden-Württemberg"}},{"name":"Obere Halde","postalCode":"70771","locality":"Leinfelden-Echterdingen","municipality":{"key":"08116078","name":"Leinfelden-Echterdingen, Stadt","type":"Große_Kreisstadt"},"district":{"key":"08116","name":"Esslingen","type":"Landkreis"},"federalState":{"key":"08","name":"Baden-Württemberg"}},{"name":"Oberer Bongart","postalCode":"70771","locality":"Leinfelden-Echterdingen","municipality":{"key":"08116078","name":"Leinfelden-Echterdingen, Stadt","type":"Große_Kreisstadt"},"district":{"key":"08116","name":"Esslingen","type":"Landkreis"},"federalState":{"key":"08","name":"Baden-Württemberg"}},{"name":"Oberer Brandweg","postalCode":"70771","locality":"Leinfelden-Echterdingen","municipality":{"key":"08116078","name":"Leinfelden-Echterdingen, Stadt","type":"Große_Kreisstadt"},"district":{"key":"08116","name":"Esslingen","type":"Landkreis"},"federalState":{"key":"08","name":"Baden-Württemberg"}},{"name":"Oberer Bruchweg","postalCode":"75038","locality":"Oberderdingen","municipality":{"key":"08215059","name":"Oberderdingen","type":"Kreisangehörige_Gemeinde"},"district":{"key":"08215","name":"Karlsruhe","type":"Landkreis"},"federalState":{"key":"08","name":"Baden-Württemberg"}},{"name":"Oberer Dettenackerweg","postalCode":"71735","locality":"Eberdingen","municipality":{"key":"08118012","name":"Eberdingen","type":"Kreisangehörige_Gemeinde"},"district":{"key":"08118","name":"Ludwigsburg","type":"Landkreis"},"federalState":{"key":"08","name":"Baden-Württemberg"}},{"name":"Oberer Künzlisbergweg","postalCode":"79364","locality":"Malterdingen","municipality":{"key":"08316024","name":"Malterdingen","type":"Kreisangehörige_Gemeinde"},"district":{"key":"08316","name":"Emmendingen","type":"Landkreis"},"federalState":{"key":"08","name":"Baden-Württemberg"}},{"name":"Oberer Spitzwaldweg","postalCode":"79364","locality":"Malterdingen","municipality":{"key":"08316024","name":"Malterdingen","type":"Kreisangehörige_Gemeinde"},"district":{"key":"08316","name":"Emmendingen","type":"Landkreis"},"federalState":{"key":"08","name":"Baden-Württemberg"}},{"name":"Oberer Wannengrabenweg","postalCode":"79364","locality":"Malterdingen","municipality":{"key":"08316024","name":"Malterdingen","type":"Kreisangehörige_Gemeinde"},"district":{"key":"08316","name":"Emmendingen","type":"Landkreis"},"federalState":{"key":"08","name":"Baden-Württemberg"}},{"name":"Oberes Gäßle","postalCode":"72127","locality":"Kusterdingen","municipality":{"key":"08416023","name":"Kusterdingen","type":"Kreisangehörige_Gemeinde"},"district":{"key":"08416","name":"Tübingen","type":"Landkreis"},"federalState":{"key":"08","name":"Baden-Württemberg"}},{"name":"Obere Str.","postalCode":"72127","locality":"Kusterdingen","municipality":{"key":"08416023","name":"Kusterdingen","type":"Kreisangehörige_Gemeinde"},"district":{"key":"08416","name":"Tübingen","type":"Landkreis"},"federalState":{"key":"08","name":"Baden-Württemberg"}},{"name":"Oberfeldstr.","postalCode":"85435","locality":"Erding","municipality":{"key":"09177117","name":"Erding, GKSt","type":"Große_Kreisstadt"},"district":{"key":"09177","name":"Erding","type":"Landkreis"},"federalState":{"key":"09","name":"Bayern"}},{"name":"Obergasse","postalCode":"70771","locality":"Leinfelden-Echterdingen","municipality":{"key":"08116078","name":"Leinfelden-Echterdingen, Stadt","type":"Große_Kreisstadt"},"district":{"key":"08116","name":"Esslingen","type":"Landkreis"},"federalState":{"key":"08","name":"Baden-Württemberg"}},{"name":"Oberlinstr.","postalCode":"70771","locality":"Leinfelden-Echterdingen","municipality":{"key":"08116078","name":"Leinfelden-Echterdingen, Stadt","type":"Große_Kreisstadt"},"district":{"key":"08116","name":"Esslingen","type":"Landkreis"},"federalState":{"key":"08","name":"Baden-Württemberg"}},{"name":"Oberwiesachstr.","postalCode":"72131","locality":"Ofterdingen","municipality":{"key":"08416031","name":"Ofterdingen","type":"Kreisangehörige_Gemeinde"},"district":{"key":"08416","name":"Tübingen","type":"Landkreis"},"federalState":{"key":"08","name":"Baden-Württemberg"}},{"name":"Obstweg","postalCode":"70771","locality":"Leinfelden-Echterdingen","municipality":{"key":"08116078","name":"Leinfelden-Echterdingen, Stadt","type":"Große_Kreisstadt"},"district":{"key":"08116","name":"Esslingen","type":"Landkreis"},"federalState":{"key":"08","name":"Baden-Württemberg"}},{"name":"Ochsengäßle","postalCode":"72127","locality":"Kusterdingen","municipality":{"key":"08416023","name":"Kusterdingen","type":"Kreisangehörige_Gemeinde"},"district":{"key":"08416","name":"Tübingen","type":"Landkreis"},"federalState":{"key":"08","name":"Baden-Württemberg"}},{"name":"Ohmenhäuser Str.","postalCode":"72127","locality":"Kusterdingen","municipality":{"key":"08416023","name":"Kusterdingen","type":"Kreisangehörige_Gemeinde"},"district":{"key":"08416","name":"Tübingen","type":"Landkreis"},"federalState":{"key":"08","name":"Baden-Württemberg"}},{"name":"Ostdeutsche Str.","postalCode":"29640","locality":"Schneverdingen","municipality":{"key":"03358019","name":"Schneverdingen, Stadt","type":"Stadt"},"district":{"key":"03358","name":"Heidekreis","type":"Landkreis"},"federalState":{"key":"03","name":"Niedersachsen"}},{"name":"Osterheide","postalCode":"29640","locality":"Schneverdingen","municipality":{"key":"03358019","name":"Schneverdingen, Stadt","type":"Stadt"},"district":{"key":"03358","name":"Heidekreis","type":"Landkreis"},"federalState":{"key":"03","name":"Niedersachsen"}},{"name":"Osterwaldweg","postalCode":"29640","locality":"Schneverdingen","municipality":{"key":"03358019","name":"Schneverdingen, Stadt","type":"Stadt"},"district":{"key":"03358","name":"Heidekreis","type":"Landkreis"},"federalState":{"key":"03","name":"Niedersachsen"}},{"name":"Osterweder Schulweg","postalCode":"29640","locality":"Schneverdingen","municipality":{"key":"03358019","name":"Schneverdingen, Stadt","type":"Stadt"},"district":{"key":"03358","name":"Heidekreis","type":"Landkreis"},"federalState":{"key":"03","name":"Niedersachsen"}},{"name":"Ostlandweg","postalCode":"71701","locality":"Schwieberdingen","municipality":{"key":"08118067","name":"Schwieberdingen","type":"Kreisangehörige_Gemeinde"},"district":{"key":"08118","name":"Ludwigsburg","type":"Landkreis"},"federalState":{"key":"08","name":"Baden-Württemberg"}},{"name":"Oststr.","postalCode":"29640","locality":"Schneverdingen","municipality":{"key":"03358019","name":"Schneverdingen, Stadt","type":"Stadt"},"district":{"key":"03358","name":"Heidekreis","type":"Landkreis"},"federalState":{"key":"03","name":"Niedersachsen"}},{"name":"Ottenbrunnenweg","postalCode":"71701","locality":"Schwieberdingen","municipality":{"key":"08118067","name":"Schwieberdingen","type":"Kreisangehörige_Gemeinde"},"district":{"key":"08118","name":"Ludwigsburg","type":"Landkreis"},"federalState":{"key":"08","name":"Baden-Württemberg"}},{"name":"Otterer Mühlenweg","postalCode":"29640","locality":"Schneverdingen","municipality":{"key":"03358019","name":"Schneverdingen, Stadt","type":"Stadt"},"district":{"key":"03358","name":"Heidekreis","type":"Landkreis"},"federalState":{"key":"03","name":"Niedersachsen"}},{"name":"Otto-Hahn-Str.","postalCode":"85435","locality":"Erding","municipality":{"key":"09177117","name":"Erding, GKSt","type":"Große_Kreisstadt"},"district":{"key":"09177","name":"Erding","type":"Landkreis"},"federalState":{"key":"09","name":"Bayern"}},{"name":"Otto-Hahn-Weg","postalCode":"70771","locality":"Leinfelden-Echterdingen","municipality":{"key":"08116078","name":"Leinfelden-Echterdingen, Stadt","type":"Große_Kreisstadt"},"district":{"key":"08116","name":"Esslingen","type":"Landkreis"},"federalState":{"key":"08","name":"Baden-Württemberg"}},{"name":"Otto-Hahn-Weg","postalCode":"71735","locality":"Eberdingen","municipality":{"key":"08118012","name":"Eberdingen","type":"Kreisangehörige_Gemeinde"},"district":{"key":"08118","name":"Ludwigsburg","type":"Landkreis"},"federalState":{"key":"08","name":"Baden-Württemberg"}},{"name":"Ottostr.","postalCode":"29640","locality":"Schneverdingen","municipality":{"key":"03358019","name":"Schneverdingen, Stadt","type":"Stadt"},"district":{"key":"03358","name":"Heidekreis","type":"Landkreis"},"federalState":{"key":"03","name":"Niedersachsen"}},{"name":"Ottostr.","postalCode":"85435","locality":"Erding","municipality":{"key":"09177117","name":"Erding, GKSt","type":"Große_Kreisstadt"},"district":{"key":"09177","name":"Erding","type":"Landkreis"},"federalState":{"key":"09","name":"Bayern"}},{"name":"Overbeckstr.","postalCode":"29640","locality":"Schneverdingen","municipality":{"key":"03358019","name":"Schneverdingen, Stadt","type":"Stadt"},"district":{"key":"03358","name":"Heidekreis","type":"Landkreis"},"federalState":{"key":"03","name":"Niedersachsen"}},{"name":"Pfarrer-Forster-Str.","postalCode":"85452","locality":"Moosinning","municipality":{"key":"09177130","name":"Moosinning","type":"Kreisangehörige_Gemeinde"},"district":{"key":"09177","name":"Erding","type":"Landkreis"},"federalState":{"key":"09","name":"Bayern"}},{"name":"Quellenstr.","postalCode":"71735","locality":"Eberdingen","municipality":{"key":"08118012","name":"Eberdingen","type":"Kreisangehörige_Gemeinde"},"district":{"key":"08118","name":"Ludwigsburg","type":"Landkreis"},"federalState":{"key":"08","name":"Baden-Württemberg"}},{"name":"Querweg","postalCode":"29640","locality":"Schneverdingen","municipality":{"key":"03358019","name":"Schneverdingen, Stadt","type":"Stadt"},"district":{"key":"03358","name":"Heidekreis","type":"Landkreis"},"federalState":{"key":"03","name":"Niedersachsen"}},{"name":"Rebhuhnweg","postalCode":"85452","locality":"Moosinning","municipality":{"key":"09177130","name":"Moosinning","type":"Kreisangehörige_Gemeinde"},"district":{"key":"09177","name":"Erding","type":"Landkreis"},"federalState":{"key":"09","name":"Bayern"}},{"name":"Reiherweg","postalCode":"85452","locality":"Moosinning","municipality":{"key":"09177130","name":"Moosinning","type":"Kreisangehörige_Gemeinde"},"district":{"key":"09177","name":"Erding","type":"Landkreis"},"federalState":{"key":"09","name":"Bayern"}},{"name":"Riexing","postalCode":"85452","locality":"Moosinning","municipality":{"key":"09177130","name":"Moosinning","type":"Kreisangehörige_Gemeinde"},"district":{"key":"09177","name":"Erding","type":"Landkreis"},"federalState":{"key":"09","name":"Bayern"}},{"name":"Rosenstr.","postalCode":"85452","locality":"Moosinning","municipality":{"key":"09177130","name":"Moosinning","type":"Kreisangehörige_Gemeinde"},"district":{"key":"09177","name":"Erding","type":"Landkreis"},"federalState":{"key":"09","name":"Bayern"}},{"name":"Schönstr.","postalCode":"85452","locality":"Moosinning","municipality":{"key":"09177130","name":"Moosinning","type":"Kreisangehörige_Gemeinde"},"district":{"key":"09177","name":"Erding","type":"Landkreis"},"federalState":{"key":"09","name":"Bayern"}},{"name":"Schulstr.","postalCode":"85452","locality":"Moosinning","municipality":{"key":"09177130","name":"Moosinning","type":"Kreisangehörige_Gemeinde"},"district":{"key":"09177","name":"Erding","type":"Landkreis"},"federalState":{"key":"09","name":"Bayern"}},{"name":"Sebastianstr.","postalCode":"85452","locality":"Moosinning","municipality":{"key":"09177130","name":"Moosinning","type":"Kreisangehörige_Gemeinde"},"district":{"key":"09177","name":"Erding","type":"Landkreis"},"federalState":{"key":"09","name":"Bayern"}},{"name":"Sonnenstr.","postalCode":"85452","locality":"Moosinning","municipality":{"key":"09177130","name":"Moosinning","type":"Kreisangehörige_Gemeinde"},"district":{"key":"09177","name":"Erding","type":"Landkreis"},"federalState":{"key":"09","name":"Bayern"}},{"name":"St.-Emmeram-Weg","postalCode":"85452","locality":"Moosinning","municipality":{"key":"09177130","name":"Moosinning","type":"Kreisangehörige_Gemeinde"},"district":{"key":"09177","name":"Erding","type":"Landkreis"},"federalState":{"key":"09","name":"Bayern"}},{"name":"Sternstr.","postalCode":"85452","locality":"Moosinning","municipality":{"key":"09177130","name":"Moosinning","type":"Kreisangehörige_Gemeinde"},"district":{"key":"09177","name":"Erding","type":"Landkreis"},"federalState":{"key":"09","name":"Bayern"}},{"name":"Torfstr.","postalCode":"85452","locality":"Moosinning","municipality":{"key":"09177130","name":"Moosinning","type":"Kreisangehörige_Gemeinde"},"district":{"key":"09177","name":"Erding","type":"Landkreis"},"federalState":{"key":"09","name":"Bayern"}},{"name":"Tulpenstr.","postalCode":"85452","locality":"Moosinning","municipality":{"key":"09177130","name":"Moosinning","type":"Kreisangehörige_Gemeinde"},"district":{"key":"09177","name":"Erding","type":"Landkreis"},"federalState":{"key":"09","name":"Bayern"}},{"name":"Untere Point","postalCode":"85452","locality":"Moosinning","municipality":{"key":"09177130","name":"Moosinning","type":"Kreisangehörige_Gemeinde"},"district":{"key":"09177","name":"Erding","type":"Landkreis"},"federalState":{"key":"09","name":"Bayern"}},{"name":"Vahlzener Str.","postalCode":"29640","locality":"Schneverdingen","municipality":{"key":"03358019","name":"Schneverdingen, Stadt","type":"Stadt"},"district":{"key":"03358","name":"Heidekreis","type":"Landkreis"},"federalState":{"key":"03","name":"Niedersachsen"}},{"name":"Vaihinger Str.","postalCode":"70771","locality":"Leinfelden-Echterdingen","municipality":{"key":"08116078","name":"Leinfelden-Echterdingen, Stadt","type":"Große_Kreisstadt"},"district":{"key":"08116","name":"Esslingen","type":"Landkreis"},"federalState":{"key":"08","name":"Baden-Württemberg"}},{"name":"Vaihinger Str.","postalCode":"71701","locality":"Schwieberdingen","municipality":{"key":"08118067","name":"Schwieberdingen","type":"Kreisangehörige_Gemeinde"},"district":{"key":"08118","name":"Ludwigsburg","type":"Landkreis"},"federalState":{"key":"08","name":"Baden-Württemberg"}},{"name":"Vaihinger Str.","postalCode":"71735","locality":"Eberdingen","municipality":{"key":"08118012","name":"Eberdingen","type":"Kreisangehörige_Gemeinde"},"district":{"key":"08118","name":"Ludwigsburg","type":"Landkreis"},"federalState":{"key":"08","name":"Baden-Württemberg"}},{"name":"Valentin-Kirmeyer-Str.","postalCode":"85435","locality":"Erding","municipality":{"key":"09177117","name":"Erding, GKSt","type":"Große_Kreisstadt"},"district":{"key":"09177","name":"Erding","type":"Landkreis"},"federalState":{"key":"09","name":"Bayern"}},{"name":"Veigelweg","postalCode":"72127","locality":"Kusterdingen","municipality":{"key":"08416023","name":"Kusterdingen","type":"Kreisangehörige_Gemeinde"},"district":{"key":"08416","name":"Tübingen","type":"Landkreis"},"federalState":{"key":"08","name":"Baden-Württemberg"}},{"name":"Veilchenweg","postalCode":"70771","locality":"Leinfelden-Echterdingen","municipality":{"key":"08116078","name":"Leinfelden-Echterdingen, Stadt","type":"Große_Kreisstadt"},"district":{"key":"08116","name":"Esslingen","type":"Landkreis"},"federalState":{"key":"08","name":"Baden-Württemberg"}},{"name":"Verdener Str.","postalCode":"29640","locality":"Schneverdingen","municipality":{"key":"03358019","name":"Schneverdingen, Stadt","type":"Stadt"},"district":{"key":"03358","name":"Heidekreis","type":"Landkreis"},"federalState":{"key":"03","name":"Niedersachsen"}},{"name":"Verdiweg","postalCode":"70771","locality":"Leinfelden-Echterdingen","municipality":{"key":"08116078","name":"Leinfelden-Echterdingen, Stadt","type":"Große_Kreisstadt"},"district":{"key":"08116","name":"Esslingen","type":"Landkreis"},"federalState":{"key":"08","name":"Baden-Württemberg"}},{"name":"Vespucciweg","postalCode":"70771","locality":"Leinfelden-Echterdingen","municipality":{"key":"08116078","name":"Leinfelden-Echterdingen, Stadt","type":"Große_Kreisstadt"},"district":{"key":"08116","name":"Esslingen","type":"Landkreis"},"federalState":{"key":"08","name":"Baden-Württemberg"}},{"name":"Viehweg","postalCode":"70771","locality":"Leinfelden-Echterdingen","municipality":{"key":"08116078","name":"Leinfelden-Echterdingen, Stadt","type":"Große_Kreisstadt"},"district":{"key":"08116","name":"Esslingen","type":"Landkreis"},"federalState":{"key":"08","name":"Baden-Württemberg"}},{"name":"Vierburgenweg","postalCode":"79364","locality":"Malterdingen","municipality":{"key":"08316024","name":"Malterdingen","type":"Kreisangehörige_Gemeinde"},"district":{"key":"08316","name":"Emmendingen","type":"Landkreis"},"federalState":{"key":"08","name":"Baden-Württemberg"}},{"name":"Villar-Perosa-Str.","postalCode":"75038","locality":"Oberderdingen","municipality":{"key":"08215059","name":"Oberderdingen","type":"Kreisangehörige_Gemeinde"},"district":{"key":"08215","name":"Karlsruhe","type":"Landkreis"},"federalState":{"key":"08","name":"Baden-Württemberg"}},{"name":"Vinzenzstr.","postalCode":"85435","locality":"Erding","municipality":{"key":"09177117","name":"Erding, GKSt","type":"Große_Kreisstadt"},"district":{"key":"09177","name":"Erding","type":"Landkreis"},"federalState":{"key":"09","name":"Bayern"}},{"name":"Vogelbeerweg","postalCode":"29640","locality":"Schneverdingen","municipality":{"key":"03358019","name":"Schneverdingen, Stadt","type":"Stadt"},"district":{"key":"03358","name":"Heidekreis","type":"Landkreis"},"federalState":{"key":"03","name":"Niedersachsen"}},{"name":"Vogelherdweg","postalCode":"70771","locality":"Leinfelden-Echterdingen","municipality":{"key":"08116078","name":"Leinfelden-Echterdingen, Stadt","type":"Große_Kreisstadt"},"district":{"key":"08116","name":"Esslingen","type":"Landkreis"},"federalState":{"key":"08","name":"Baden-Württemberg"}},{"name":"Vogelsangstr.","postalCode":"72131","locality":"Ofterdingen","municipality":{"key":"08416031","name":"Ofterdingen","type":"Kreisangehörige_Gemeinde"},"district":{"key":"08416","name":"Tübingen","type":"Landkreis"},"federalState":{"key":"08","name":"Baden-Württemberg"}},{"name":"Vogesenstr.","postalCode":"79291","locality":"Merdingen","municipality":{"key":"08315072","name":"Merdingen","type":"Kreisangehörige_Gemeinde"},"district":{"key":"08315","name":"Breisgau-Hochschwarzwald","type":"Landkreis"},"federalState":{"key":"08","name":"Baden-Württemberg"}},{"name":"Vögtleinweg","postalCode":"70771","locality":"Leinfelden-Echterdingen","municipality":{"key":"08116078","name":"Leinfelden-Echterdingen, Stadt","type":"Große_Kreisstadt"},"district":{"key":"08116","name":"Esslingen","type":"Landkreis"},"federalState":{"key":"08","name":"Baden-Württemberg"}},{"name":"Vogtweg","postalCode":"79364","locality":"Malterdingen","municipality":{"key":"08316024","name":"Malterdingen","type":"Kreisangehörige_Gemeinde"},"district":{"key":"08316","name":"Emmendingen","type":"Landkreis"},"federalState":{"key":"08","name":"Baden-Württemberg"}},{"name":"Vöhinger Weg","postalCode":"71701","locality":"Schwieberdingen","municipality":{"key":"08118067","name":"Schwieberdingen","type":"Kreisangehörige_Gemeinde"},"district":{"key":"08118","name":"Ludwigsburg","type":"Landkreis"},"federalState":{"key":"08","name":"Baden-Württemberg"}},{"name":"Voigten","postalCode":"29640","locality":"Schneverdingen","municipality":{"key":"03358019","name":"Schneverdingen, Stadt","type":"Stadt"},"district":{"key":"03358","name":"Heidekreis","type":"Landkreis"},"federalState":{"key":"03","name":"Niedersachsen"}},{"name":"Von-Droste-Hülshoff-Weg","postalCode":"29640","locality":"Schneverdingen","municipality":{"key":"03358019","name":"Schneverdingen, Stadt","type":"Stadt"},"district":{"key":"03358","name":"Heidekreis","type":"Landkreis"},"federalState":{"key":"03","name":"Niedersachsen"}},{"name":"Von-Grainger-Weg","postalCode":"85435","locality":"Erding","municipality":{"key":"09177117","name":"Erding, GKSt","type":"Große_Kreisstadt"},"district":{"key":"09177","name":"Erding","type":"Landkreis"},"federalState":{"key":"09","name":"Bayern"}},{"name":"Von-Haag-Str.","postalCode":"85435","locality":"Erding","municipality":{"key":"09177117","name":"Erding, GKSt","type":"Große_Kreisstadt"},"district":{"key":"09177","name":"Erding","type":"Landkreis"},"federalState":{"key":"09","name":"Bayern"}},{"name":"Von-Kleist-Str.","postalCode":"85435","locality":"Erding","municipality":{"key":"09177117","name":"Erding, GKSt","type":"Große_Kreisstadt"},"district":{"key":"09177","name":"Erding","type":"Landkreis"},"federalState":{"key":"09","name":"Bayern"}},{"name":"Von-Linde-Str.","postalCode":"85435","locality":"Erding","municipality":{"key":"09177117","name":"Erding, GKSt","type":"Große_Kreisstadt"},"district":{"key":"09177","name":"Erding","type":"Landkreis"},"federalState":{"key":"09","name":"Bayern"}},{"name":"Von-Puech-Str.","postalCode":"85435","locality":"Erding","municipality":{"key":"09177117","name":"Erding, GKSt","type":"Große_Kreisstadt"},"district":{"key":"09177","name":"Erding","type":"Landkreis"},"federalState":{"key":"09","name":"Bayern"}},{"name":"Vor dem Holz","postalCode":"70771","locality":"Leinfelden-Echterdingen","municipality":{"key":"08116078","name":"Leinfelden-Echterdingen, Stadt","type":"Große_Kreisstadt"},"district":{"key":"08116","name":"Esslingen","type":"Landkreis"},"federalState":{"key":"08","name":"Baden-Württemberg"}},{"name":"Vor den Höfen","postalCode":"29640","locality":"Schneverdingen","municipality":{"key":"03358019","name":"Schneverdingen, Stadt","type":"Stadt"},"district":{"key":"03358","name":"Heidekreis","type":"Landkreis"},"federalState":{"key":"03","name":"Niedersachsen"}},{"name":"Vordere Weingartenstr.","postalCode":"71735","locality":"Eberdingen","municipality":{"key":"08118012","name":"Eberdingen","type":"Kreisangehörige_Gemeinde"},"district":{"key":"08118","name":"Ludwigsburg","type":"Landkreis"},"federalState":{"key":"08","name":"Baden-Württemberg"}},{"name":"Voßbarg","postalCode":"29640","locality":"Schneverdingen","municipality":{"key":"03358019","name":"Schneverdingen, Stadt","type":"Stadt"},"district":{"key":"03358","name":"Heidekreis","type":"Landkreis"},"federalState":{"key":"03","name":"Niedersachsen"}},{"name":"Waldstr.","postalCode":"85452","locality":"Moosinning","municipality":{"key":"09177130","name":"Moosinning","type":"Kreisangehörige_Gemeinde"},"district":{"key":"09177","name":"Erding","type":"Landkreis"},"federalState":{"key":"09","name":"Bayern"}},{"name":"Weidenstr.","postalCode":"85452","locality":"Moosinning","municipality":{"key":"09177130","name":"Moosinning","type":"Kreisangehörige_Gemeinde"},"district":{"key":"09177","name":"Erding","type":"Landkreis"},"federalState":{"key":"09","name":"Bayern"}},{"name":"Weiherhäuser","postalCode":"85452","locality":"Moosinning","municipality":{"key":"09177130","name":"Moosinning","type":"Kreisangehörige_Gemeinde"},"district":{"key":"09177","name":"Erding","type":"Landkreis"},"federalState":{"key":"09","name":"Bayern"}},{"name":"Wiesenstr.","postalCode":"85452","locality":"Moosinning","municipality":{"key":"09177130","name":"Moosinning","type":"Kreisangehörige_Gemeinde"},"district":{"key":"09177","name":"Erding","type":"Landkreis"},"federalState":{"key":"09","name":"Bayern"}},{"name":"Zeisigweg","postalCode":"85452","locality":"Moosinning","municipality":{"key":"09177130","name":"Moosinning","type":"Kreisangehörige_Gemeinde"},"district":{"key":"09177","name":"Erding","type":"Landkreis"},"federalState":{"key":"09","name":"Bayern"}},{"name":"Zum Schloßloh","postalCode":"85452","locality":"Moosinning","municipality":{"key":"09177130","name":"Moosinning","type":"Kreisangehörige_Gemeinde"},"district":{"key":"09177","name":"Erding","type":"Landkreis"},"federalState":{"key":"09","name":"Bayern"}},{"name":"Zur Alm","postalCode":"85452","locality":"Moosinning","municipality":{"key":"09177130","name":"Moosinning","type":"Kreisangehörige_Gemeinde"},"district":{"key":"09177","name":"Erding","type":"Landkreis"},"federalState":{"key":"09","name":"Bayern"}},{"name":"Zur Dorfen","postalCode":"85452","locality":"Moosinning","municipality":{"key":"09177130","name":"Moosinning","type":"Kreisangehörige_Gemeinde"},"district":{"key":"09177","name":"Erding","type":"Landkreis"},"federalState":{"key":"09","name":"Bayern"}},{"name":"Ölbergweg","postalCode":"75038","locality":"Oberderdingen","municipality":{"key":"08215059","name":"Oberderdingen","type":"Kreisangehörige_Gemeinde"},"district":{"key":"08215","name":"Karlsruhe","type":"Landkreis"},"federalState":{"key":"08","name":"Baden-Württemberg"}},{"name":"Ölmühle","postalCode":"75038","locality":"Oberderdingen","municipality":{"key":"08215059","name":"Oberderdingen","type":"Kreisangehörige_Gemeinde"},"district":{"key":"08215","name":"Karlsruhe","type":"Landkreis"},"federalState":{"key":"08","name":"Baden-Württemberg"}},{"name":"Ölmühlenkopfweg","postalCode":"75038","locality":"Oberderdingen","municipality":{"key":"08215059","name":"Oberderdingen","type":"Kreisangehörige_Gemeinde"},"district":{"key":"08215","name":"Karlsruhe","type":"Landkreis"},"federalState":{"key":"08","name":"Baden-Württemberg"}},{"name":"Örlesweg","postalCode":"70771","locality":"Leinfelden-Echterdingen","municipality":{"key":"08116078","name":"Leinfelden-Echterdingen, Stadt","type":"Große_Kreisstadt"},"district":{"key":"08116","name":"Esslingen","type":"Landkreis"},"federalState":{"key":"08","name":"Baden-Württemberg"}},{"name":"Österbergweg","postalCode":"72127","locality":"Kusterdingen","municipality":{"key":"08416023","name":"Kusterdingen","type":"Kreisangehörige_Gemeinde"},"district":{"key":"08416","name":"Tübingen","type":"Landkreis"},"federalState":{"key":"08","name":"Baden-Württemberg"}},{"name":"Östliche Bahnhofstr.","postalCode":"75038","locality":"Oberderdingen","municipality":{"key":"08215059","name":"Oberderdingen","type":"Kreisangehörige_Gemeinde"},"district":{"key":"08215","name":"Karlsruhe","type":"Landkreis"},"federalState":{"key":"08","name":"Baden-Württemberg"}},]