[{"name":"Ahornstr.","postalCode":"75334","locality":"Straubenhardt","municipality":{"key":"08236072","name":"Straubenhardt","type":"Kreisangehörige_Gemeinde"},"district":{"key":"08236","name":"Enzkreis","type":"Landkreis"},"federalState":{"key":"08","name":"Baden-Württemberg"}},{"name":"Akazienstr.","postalCode":"75334","locality":"Straubenhardt","municipality":{"key":"08236072","name":"Straubenhardt","type":"Kreisangehörige_Gemeinde"},"district":{"key":"08236","name":"Enzkreis","type":"Landkreis"},"federalState":{"key":"08","name":"Baden-Württemberg"}},{"name":"Albert-Schweitzer-Str.","postalCode":"75334","locality":"Straubenhardt","municipality":{"key":"08236072","name":"Straubenhardt","type":"Kreisangehörige_Gemeinde"},"district":{"key":"08236","name":"Enzkreis","type":"Landkreis"},"federalState":{"key":"08","name":"Baden-Württemberg"}},{"name":"Albstr.","postalCode":"75334","locality":"Straubenhardt","municipality":{"key":"08236072","name":"Straubenhardt","type":"Kreisangehörige_Gemeinde"},"district":{"key":"08236","name":"Enzkreis","type":"Landkreis"},"federalState":{"key":"08","name":"Baden-Württemberg"}},{"name":"Allmendstr.","postalCode":"75334","locality":"Straubenhardt","municipality":{"key":"08236072","name":"Straubenhardt","type":"Kreisangehörige_Gemeinde"},"district":{"key":"08236","name":"Enzkreis","type":"Landkreis"},"federalState":{"key":"08","name":"Baden-Württemberg"}},{"name":"Alter Talweg","postalCode":"75334","locality":"Straubenhardt","municipality":{"key":"08236072","name":"Straubenhardt","type":"Kreisangehörige_Gemeinde"},"district":{"key":"08236","name":"Enzkreis","type":"Landkreis"},"federalState":{"key":"08","name":"Baden-Württemberg"}},{"name":"Am Birkenbusch","postalCode":"75334","locality":"Straubenhardt","municipality":{"key":"08236072","name":"Straubenhardt","type":"Kreisangehörige_Gemeinde"},"district":{"key":"08236","name":"Enzkreis","type":"Landkreis"},"federalState":{"key":"08","name":"Baden-Württemberg"}},{"name":"Am Häselwäldle","postalCode":"75334","locality":"Straubenhardt","municipality":{"key":"08236072","name":"Straubenhardt","type":"Kreisangehörige_Gemeinde"},"district":{"key":"08236","name":"Enzkreis","type":"Landkreis"},"federalState":{"key":"08","name":"Baden-Württemberg"}},{"name":"Am Schlehenbusch","postalCode":"75334","locality":"Straubenhardt","municipality":{"key":"08236072","name":"Straubenhardt","type":"Kreisangehörige_Gemeinde"},"district":{"key":"08236","name":"Enzkreis","type":"Landkreis"},"federalState":{"key":"08","name":"Baden-Württemberg"}},{"name":"Amselweg","postalCode":"75334","locality":"Straubenhardt","municipality":{"key":"08236072","name":"Straubenhardt","type":"Kreisangehörige_Gemeinde"},"district":{"key":"08236","name":"Enzkreis","type":"Landkreis"},"federalState":{"key":"08","name":"Baden-Württemberg"}},{"name":"Am Sportplatz","postalCode":"75334","locality":"Straubenhardt","municipality":{"key":"08236072","name":"Straubenhardt","type":"Kreisangehörige_Gemeinde"},"district":{"key":"08236","name":"Enzkreis","type":"Landkreis"},"federalState":{"key":"08","name":"Baden-Württemberg"}},{"name":"Am Wiesengrund","postalCode":"75334","locality":"Straubenhardt","municipality":{"key":"08236072","name":"Straubenhardt","type":"Kreisangehörige_Gemeinde"},"district":{"key":"08236","name":"Enzkreis","type":"Landkreis"},"federalState":{"key":"08","name":"Baden-Württemberg"}},{"name":"An der Mauer","postalCode":"75334","locality":"Straubenhardt","municipality":{"key":"08236072","name":"Straubenhardt","type":"Kreisangehörige_Gemeinde"},"district":{"key":"08236","name":"Enzkreis","type":"Landkreis"},"federalState":{"key":"08","name":"Baden-Württemberg"}},{"name":"Appellhof","postalCode":"75334","locality":"Straubenhardt","municipality":{"key":"08236072","name":"Straubenhardt","type":"Kreisangehörige_Gemeinde"},"district":{"key":"08236","name":"Enzkreis","type":"Landkreis"},"federalState":{"key":"08","name":"Baden-Württemberg"}},{"name":"Arnbacher Str.","postalCode":"75334","locality":"Straubenhardt","municipality":{"key":"08236072","name":"Straubenhardt","type":"Kreisangehörige_Gemeinde"},"district":{"key":"08236","name":"Enzkreis","type":"Landkreis"},"federalState":{"key":"08","name":"Baden-Württemberg"}},{"name":"Auf der Metter","postalCode":"75334","locality":"Straubenhardt","municipality":{"key":"08236072","name":"Straubenhardt","type":"Kreisangehörige_Gemeinde"},"district":{"key":"08236","name":"Enzkreis","type":"Landkreis"},"federalState":{"key":"08","name":"Baden-Württemberg"}},{"name":"Aussichtsweg","postalCode":"75334","locality":"Straubenhardt","municipality":{"key":"08236072","name":"Straubenhardt","type":"Kreisangehörige_Gemeinde"},"district":{"key":"08236","name":"Enzkreis","type":"Landkreis"},"federalState":{"key":"08","name":"Baden-Württemberg"}},{"name":"Axtbergweg","postalCode":"75334","locality":"Straubenhardt","municipality":{"key":"08236072","name":"Straubenhardt","type":"Kreisangehörige_Gemeinde"},"district":{"key":"08236","name":"Enzkreis","type":"Landkreis"},"federalState":{"key":"08","name":"Baden-Württemberg"}},{"name":"Bachstr.","postalCode":"75334","locality":"Straubenhardt","municipality":{"key":"08236072","name":"Straubenhardt","type":"Kreisangehörige_Gemeinde"},"district":{"key":"08236","name":"Enzkreis","type":"Landkreis"},"federalState":{"key":"08","name":"Baden-Württemberg"}},{"name":"Bäckergässle","postalCode":"75334","locality":"Straubenhardt","municipality":{"key":"08236072","name":"Straubenhardt","type":"Kreisangehörige_Gemeinde"},"district":{"key":"08236","name":"Enzkreis","type":"Landkreis"},"federalState":{"key":"08","name":"Baden-Württemberg"}},{"name":"Banholzstr.","postalCode":"75334","locality":"Straubenhardt","municipality":{"key":"08236072","name":"Straubenhardt","type":"Kreisangehörige_Gemeinde"},"district":{"key":"08236","name":"Enzkreis","type":"Landkreis"},"federalState":{"key":"08","name":"Baden-Württemberg"}},{"name":"Bärengasse","postalCode":"75334","locality":"Straubenhardt","municipality":{"key":"08236072","name":"Straubenhardt","type":"Kreisangehörige_Gemeinde"},"district":{"key":"08236","name":"Enzkreis","type":"Landkreis"},"federalState":{"key":"08","name":"Baden-Württemberg"}},{"name":"Baumstr.","postalCode":"75334","locality":"Straubenhardt","municipality":{"key":"08236072","name":"Straubenhardt","type":"Kreisangehörige_Gemeinde"},"district":{"key":"08236","name":"Enzkreis","type":"Landkreis"},"federalState":{"key":"08","name":"Baden-Württemberg"}},{"name":"Beethovenstr.","postalCode":"75334","locality":"Straubenhardt","municipality":{"key":"08236072","name":"Straubenhardt","type":"Kreisangehörige_Gemeinde"},"district":{"key":"08236","name":"Enzkreis","type":"Landkreis"},"federalState":{"key":"08","name":"Baden-Württemberg"}},{"name":"Belchenstr.","postalCode":"75334","locality":"Straubenhardt","municipality":{"key":"08236072","name":"Straubenhardt","type":"Kreisangehörige_Gemeinde"},"district":{"key":"08236","name":"Enzkreis","type":"Landkreis"},"federalState":{"key":"08","name":"Baden-Württemberg"}},{"name":"Berglinie","postalCode":"75334","locality":"Straubenhardt","municipality":{"key":"08236072","name":"Straubenhardt","type":"Kreisangehörige_Gemeinde"},"district":{"key":"08236","name":"Enzkreis","type":"Landkreis"},"federalState":{"key":"08","name":"Baden-Württemberg"}},{"name":"Bergweg","postalCode":"75334","locality":"Straubenhardt","municipality":{"key":"08236072","name":"Straubenhardt","type":"Kreisangehörige_Gemeinde"},"district":{"key":"08236","name":"Enzkreis","type":"Landkreis"},"federalState":{"key":"08","name":"Baden-Württemberg"}},{"name":"Bernsteinstr.","postalCode":"75334","locality":"Straubenhardt","municipality":{"key":"08236072","name":"Straubenhardt","type":"Kreisangehörige_Gemeinde"},"district":{"key":"08236","name":"Enzkreis","type":"Landkreis"},"federalState":{"key":"08","name":"Baden-Württemberg"}},{"name":"Birkbuschweg","postalCode":"75334","locality":"Straubenhardt","municipality":{"key":"08236072","name":"Straubenhardt","type":"Kreisangehörige_Gemeinde"},"district":{"key":"08236","name":"Enzkreis","type":"Landkreis"},"federalState":{"key":"08","name":"Baden-Württemberg"}},{"name":"Birkenweg","postalCode":"75334","locality":"Straubenhardt","municipality":{"key":"08236072","name":"Straubenhardt","type":"Kreisangehörige_Gemeinde"},"district":{"key":"08236","name":"Enzkreis","type":"Landkreis"},"federalState":{"key":"08","name":"Baden-Württemberg"}},{"name":"Blumenstr.","postalCode":"75334","locality":"Straubenhardt","municipality":{"key":"08236072","name":"Straubenhardt","type":"Kreisangehörige_Gemeinde"},"district":{"key":"08236","name":"Enzkreis","type":"Landkreis"},"federalState":{"key":"08","name":"Baden-Württemberg"}},{"name":"Bombenlochweg","postalCode":"75334","locality":"Straubenhardt","municipality":{"key":"08236072","name":"Straubenhardt","type":"Kreisangehörige_Gemeinde"},"district":{"key":"08236","name":"Enzkreis","type":"Landkreis"},"federalState":{"key":"08","name":"Baden-Württemberg"}},{"name":"Brahmsstr.","postalCode":"75334","locality":"Straubenhardt","municipality":{"key":"08236072","name":"Straubenhardt","type":"Kreisangehörige_Gemeinde"},"district":{"key":"08236","name":"Enzkreis","type":"Landkreis"},"federalState":{"key":"08","name":"Baden-Württemberg"}},{"name":"Brecherlochweg","postalCode":"75334","locality":"Straubenhardt","municipality":{"key":"08236072","name":"Straubenhardt","type":"Kreisangehörige_Gemeinde"},"district":{"key":"08236","name":"Enzkreis","type":"Landkreis"},"federalState":{"key":"08","name":"Baden-Württemberg"}},{"name":"Breitackerweg","postalCode":"75334","locality":"Straubenhardt","municipality":{"key":"08236072","name":"Straubenhardt","type":"Kreisangehörige_Gemeinde"},"district":{"key":"08236","name":"Enzkreis","type":"Landkreis"},"federalState":{"key":"08","name":"Baden-Württemberg"}},{"name":"Brücklesweg","postalCode":"75334","locality":"Straubenhardt","municipality":{"key":"08236072","name":"Straubenhardt","type":"Kreisangehörige_Gemeinde"},"district":{"key":"08236","name":"Enzkreis","type":"Landkreis"},"federalState":{"key":"08","name":"Baden-Württemberg"}},{"name":"Brucknerstr.","postalCode":"75334","locality":"Straubenhardt","municipality":{"key":"08236072","name":"Straubenhardt","type":"Kreisangehörige_Gemeinde"},"district":{"key":"08236","name":"Enzkreis","type":"Landkreis"},"federalState":{"key":"08","name":"Baden-Württemberg"}},{"name":"Brunnenstr.","postalCode":"75334","locality":"Straubenhardt","municipality":{"key":"08236072","name":"Straubenhardt","type":"Kreisangehörige_Gemeinde"},"district":{"key":"08236","name":"Enzkreis","type":"Landkreis"},"federalState":{"key":"08","name":"Baden-Württemberg"}},{"name":"Buchenweg","postalCode":"75334","locality":"Straubenhardt","municipality":{"key":"08236072","name":"Straubenhardt","type":"Kreisangehörige_Gemeinde"},"district":{"key":"08236","name":"Enzkreis","type":"Landkreis"},"federalState":{"key":"08","name":"Baden-Württemberg"}},{"name":"Buckelstr.","postalCode":"75334","locality":"Straubenhardt","municipality":{"key":"08236072","name":"Straubenhardt","type":"Kreisangehörige_Gemeinde"},"district":{"key":"08236","name":"Enzkreis","type":"Landkreis"},"federalState":{"key":"08","name":"Baden-Württemberg"}},{"name":"Buckelweg","postalCode":"75334","locality":"Straubenhardt","municipality":{"key":"08236072","name":"Straubenhardt","type":"Kreisangehörige_Gemeinde"},"district":{"key":"08236","name":"Enzkreis","type":"Landkreis"},"federalState":{"key":"08","name":"Baden-Württemberg"}},{"name":"Burgweg","postalCode":"75334","locality":"Straubenhardt","municipality":{"key":"08236072","name":"Straubenhardt","type":"Kreisangehörige_Gemeinde"},"district":{"key":"08236","name":"Enzkreis","type":"Landkreis"},"federalState":{"key":"08","name":"Baden-Württemberg"}},{"name":"Burgwiesenweg","postalCode":"75334","locality":"Straubenhardt","municipality":{"key":"08236072","name":"Straubenhardt","type":"Kreisangehörige_Gemeinde"},"district":{"key":"08236","name":"Enzkreis","type":"Landkreis"},"federalState":{"key":"08","name":"Baden-Württemberg"}},{"name":"Chopinstr.","postalCode":"75334","locality":"Straubenhardt","municipality":{"key":"08236072","name":"Straubenhardt","type":"Kreisangehörige_Gemeinde"},"district":{"key":"08236","name":"Enzkreis","type":"Landkreis"},"federalState":{"key":"08","name":"Baden-Württemberg"}},{"name":"Conweiler F.A.D.-Weg","postalCode":"75334","locality":"Straubenhardt","municipality":{"key":"08236072","name":"Straubenhardt","type":"Kreisangehörige_Gemeinde"},"district":{"key":"08236","name":"Enzkreis","type":"Landkreis"},"federalState":{"key":"08","name":"Baden-Württemberg"}},{"name":"Dahlienstr.","postalCode":"75334","locality":"Straubenhardt","municipality":{"key":"08236072","name":"Straubenhardt","type":"Kreisangehörige_Gemeinde"},"district":{"key":"08236","name":"Enzkreis","type":"Landkreis"},"federalState":{"key":"08","name":"Baden-Württemberg"}},{"name":"Dennacher Str.","postalCode":"75334","locality":"Straubenhardt","municipality":{"key":"08236072","name":"Straubenhardt","type":"Kreisangehörige_Gemeinde"},"district":{"key":"08236","name":"Enzkreis","type":"Landkreis"},"federalState":{"key":"08","name":"Baden-Württemberg"}},{"name":"Dicker-Busch-Weg","postalCode":"75334","locality":"Straubenhardt","municipality":{"key":"08236072","name":"Straubenhardt","type":"Kreisangehörige_Gemeinde"},"district":{"key":"08236","name":"Enzkreis","type":"Landkreis"},"federalState":{"key":"08","name":"Baden-Württemberg"}},{"name":"Diemstr.","postalCode":"75334","locality":"Straubenhardt","municipality":{"key":"08236072","name":"Straubenhardt","type":"Kreisangehörige_Gemeinde"},"district":{"key":"08236","name":"Enzkreis","type":"Landkreis"},"federalState":{"key":"08","name":"Baden-Württemberg"}},{"name":"Dobler Str.","postalCode":"75334","locality":"Straubenhardt","municipality":{"key":"08236072","name":"Straubenhardt","type":"Kreisangehörige_Gemeinde"},"district":{"key":"08236","name":"Enzkreis","type":"Landkreis"},"federalState":{"key":"08","name":"Baden-Württemberg"}},{"name":"Dorbenstr.","postalCode":"75334","locality":"Straubenhardt","municipality":{"key":"08236072","name":"Straubenhardt","type":"Kreisangehörige_Gemeinde"},"district":{"key":"08236","name":"Enzkreis","type":"Landkreis"},"federalState":{"key":"08","name":"Baden-Württemberg"}},{"name":"Dreschhallenstr.","postalCode":"75334","locality":"Straubenhardt","municipality":{"key":"08236072","name":"Straubenhardt","type":"Kreisangehörige_Gemeinde"},"district":{"key":"08236","name":"Enzkreis","type":"Landkreis"},"federalState":{"key":"08","name":"Baden-Württemberg"}},{"name":"Drosselweg","postalCode":"75334","locality":"Straubenhardt","municipality":{"key":"08236072","name":"Straubenhardt","type":"Kreisangehörige_Gemeinde"},"district":{"key":"08236","name":"Enzkreis","type":"Landkreis"},"federalState":{"key":"08","name":"Baden-Württemberg"}},{"name":"Ebener Weg","postalCode":"75334","locality":"Straubenhardt","municipality":{"key":"08236072","name":"Straubenhardt","type":"Kreisangehörige_Gemeinde"},"district":{"key":"08236","name":"Enzkreis","type":"Landkreis"},"federalState":{"key":"08","name":"Baden-Württemberg"}},{"name":"Eibergstr.","postalCode":"75334","locality":"Straubenhardt","municipality":{"key":"08236072","name":"Straubenhardt","type":"Kreisangehörige_Gemeinde"},"district":{"key":"08236","name":"Enzkreis","type":"Landkreis"},"federalState":{"key":"08","name":"Baden-Württemberg"}},{"name":"Eichäckerweg","postalCode":"75334","locality":"Straubenhardt","municipality":{"key":"08236072","name":"Straubenhardt","type":"Kreisangehörige_Gemeinde"},"district":{"key":"08236","name":"Enzkreis","type":"Landkreis"},"federalState":{"key":"08","name":"Baden-Württemberg"}},{"name":"Eichwaldstr.","postalCode":"75334","locality":"Straubenhardt","municipality":{"key":"08236072","name":"Straubenhardt","type":"Kreisangehörige_Gemeinde"},"district":{"key":"08236","name":"Enzkreis","type":"Landkreis"},"federalState":{"key":"08","name":"Baden-Württemberg"}},{"name":"Eichwaldweg","postalCode":"75334","locality":"Straubenhardt","municipality":{"key":"08236072","name":"Straubenhardt","type":"Kreisangehörige_Gemeinde"},"district":{"key":"08236","name":"Enzkreis","type":"Landkreis"},"federalState":{"key":"08","name":"Baden-Württemberg"}},{"name":"Enzstr.","postalCode":"75334","locality":"Straubenhardt","municipality":{"key":"08236072","name":"Straubenhardt","type":"Kreisangehörige_Gemeinde"},"district":{"key":"08236","name":"Enzkreis","type":"Landkreis"},"federalState":{"key":"08","name":"Baden-Württemberg"}},{"name":"Erich-Kästner-Str.","postalCode":"75334","locality":"Straubenhardt","municipality":{"key":"08236072","name":"Straubenhardt","type":"Kreisangehörige_Gemeinde"},"district":{"key":"08236","name":"Enzkreis","type":"Landkreis"},"federalState":{"key":"08","name":"Baden-Württemberg"}},{"name":"Erlenweg","postalCode":"75334","locality":"Straubenhardt","municipality":{"key":"08236072","name":"Straubenhardt","type":"Kreisangehörige_Gemeinde"},"district":{"key":"08236","name":"Enzkreis","type":"Landkreis"},"federalState":{"key":"08","name":"Baden-Württemberg"}},{"name":"Ernst-Sachs-Str.","postalCode":"75334","locality":"Straubenhardt","municipality":{"key":"08236072","name":"Straubenhardt","type":"Kreisangehörige_Gemeinde"},"district":{"key":"08236","name":"Enzkreis","type":"Landkreis"},"federalState":{"key":"08","name":"Baden-Württemberg"}},{"name":"Eschenstr.","postalCode":"75334","locality":"Straubenhardt","municipality":{"key":"08236072","name":"Straubenhardt","type":"Kreisangehörige_Gemeinde"},"district":{"key":"08236","name":"Enzkreis","type":"Landkreis"},"federalState":{"key":"08","name":"Baden-Württemberg"}},{"name":"Ettlinger Weg","postalCode":"75334","locality":"Straubenhardt","municipality":{"key":"08236072","name":"Straubenhardt","type":"Kreisangehörige_Gemeinde"},"district":{"key":"08236","name":"Enzkreis","type":"Landkreis"},"federalState":{"key":"08","name":"Baden-Württemberg"}},{"name":"Etzäckerstr.","postalCode":"75334","locality":"Straubenhardt","municipality":{"key":"08236072","name":"Straubenhardt","type":"Kreisangehörige_Gemeinde"},"district":{"key":"08236","name":"Enzkreis","type":"Landkreis"},"federalState":{"key":"08","name":"Baden-Württemberg"}},{"name":"Eyachstr.","postalCode":"75334","locality":"Straubenhardt","municipality":{"key":"08236072","name":"Straubenhardt","type":"Kreisangehörige_Gemeinde"},"district":{"key":"08236","name":"Enzkreis","type":"Landkreis"},"federalState":{"key":"08","name":"Baden-Württemberg"}},{"name":"Farnbergweg","postalCode":"75334","locality":"Straubenhardt","municipality":{"key":"08236072","name":"Straubenhardt","type":"Kreisangehörige_Gemeinde"},"district":{"key":"08236","name":"Enzkreis","type":"Landkreis"},"federalState":{"key":"08","name":"Baden-Württemberg"}},{"name":"Fasanenweg","postalCode":"75334","locality":"Straubenhardt","municipality":{"key":"08236072","name":"Straubenhardt","type":"Kreisangehörige_Gemeinde"},"district":{"key":"08236","name":"Enzkreis","type":"Landkreis"},"federalState":{"key":"08","name":"Baden-Württemberg"}},{"name":"Fauler Weg","postalCode":"75334","locality":"Straubenhardt","municipality":{"key":"08236072","name":"Straubenhardt","type":"Kreisangehörige_Gemeinde"},"district":{"key":"08236","name":"Enzkreis","type":"Landkreis"},"federalState":{"key":"08","name":"Baden-Württemberg"}},{"name":"Federbachstr.","postalCode":"75334","locality":"Straubenhardt","municipality":{"key":"08236072","name":"Straubenhardt","type":"Kreisangehörige_Gemeinde"},"district":{"key":"08236","name":"Enzkreis","type":"Landkreis"},"federalState":{"key":"08","name":"Baden-Württemberg"}},{"name":"Feldbergstr.","postalCode":"75334","locality":"Straubenhardt","municipality":{"key":"08236072","name":"Straubenhardt","type":"Kreisangehörige_Gemeinde"},"district":{"key":"08236","name":"Enzkreis","type":"Landkreis"},"federalState":{"key":"08","name":"Baden-Württemberg"}},{"name":"Feldrennacher Str.","postalCode":"75334","locality":"Straubenhardt","municipality":{"key":"08236072","name":"Straubenhardt","type":"Kreisangehörige_Gemeinde"},"district":{"key":"08236","name":"Enzkreis","type":"Landkreis"},"federalState":{"key":"08","name":"Baden-Württemberg"}},{"name":"Feldrennacher Weg","postalCode":"75334","locality":"Straubenhardt","municipality":{"key":"08236072","name":"Straubenhardt","type":"Kreisangehörige_Gemeinde"},"district":{"key":"08236","name":"Enzkreis","type":"Landkreis"},"federalState":{"key":"08","name":"Baden-Württemberg"}},{"name":"Feldstr.","postalCode":"75334","locality":"Straubenhardt","municipality":{"key":"08236072","name":"Straubenhardt","type":"Kreisangehörige_Gemeinde"},"district":{"key":"08236","name":"Enzkreis","type":"Landkreis"},"federalState":{"key":"08","name":"Baden-Württemberg"}},{"name":"Feldweg","postalCode":"75334","locality":"Straubenhardt","municipality":{"key":"08236072","name":"Straubenhardt","type":"Kreisangehörige_Gemeinde"},"district":{"key":"08236","name":"Enzkreis","type":"Landkreis"},"federalState":{"key":"08","name":"Baden-Württemberg"}},{"name":"Fichtenstr.","postalCode":"75334","locality":"Straubenhardt","municipality":{"key":"08236072","name":"Straubenhardt","type":"Kreisangehörige_Gemeinde"},"district":{"key":"08236","name":"Enzkreis","type":"Landkreis"},"federalState":{"key":"08","name":"Baden-Württemberg"}},{"name":"Finkenweg","postalCode":"75334","locality":"Straubenhardt","municipality":{"key":"08236072","name":"Straubenhardt","type":"Kreisangehörige_Gemeinde"},"district":{"key":"08236","name":"Enzkreis","type":"Landkreis"},"federalState":{"key":"08","name":"Baden-Württemberg"}},{"name":"Fliederweg","postalCode":"75334","locality":"Straubenhardt","municipality":{"key":"08236072","name":"Straubenhardt","type":"Kreisangehörige_Gemeinde"},"district":{"key":"08236","name":"Enzkreis","type":"Landkreis"},"federalState":{"key":"08","name":"Baden-Württemberg"}},{"name":"Forlenweg","postalCode":"75334","locality":"Straubenhardt","municipality":{"key":"08236072","name":"Straubenhardt","type":"Kreisangehörige_Gemeinde"},"district":{"key":"08236","name":"Enzkreis","type":"Landkreis"},"federalState":{"key":"08","name":"Baden-Württemberg"}},{"name":"Fortlweg","postalCode":"75334","locality":"Straubenhardt","municipality":{"key":"08236072","name":"Straubenhardt","type":"Kreisangehörige_Gemeinde"},"district":{"key":"08236","name":"Enzkreis","type":"Landkreis"},"federalState":{"key":"08","name":"Baden-Württemberg"}},{"name":"Frauenalber Pfad","postalCode":"75334","locality":"Straubenhardt","municipality":{"key":"08236072","name":"Straubenhardt","type":"Kreisangehörige_Gemeinde"},"district":{"key":"08236","name":"Enzkreis","type":"Landkreis"},"federalState":{"key":"08","name":"Baden-Württemberg"}},{"name":"Friedenstr.","postalCode":"75334","locality":"Straubenhardt","municipality":{"key":"08236072","name":"Straubenhardt","type":"Kreisangehörige_Gemeinde"},"district":{"key":"08236","name":"Enzkreis","type":"Landkreis"},"federalState":{"key":"08","name":"Baden-Württemberg"}},{"name":"Friedhofstr.","postalCode":"75334","locality":"Straubenhardt","municipality":{"key":"08236072","name":"Straubenhardt","type":"Kreisangehörige_Gemeinde"},"district":{"key":"08236","name":"Enzkreis","type":"Landkreis"},"federalState":{"key":"08","name":"Baden-Württemberg"}},{"name":"Fronbergstr.","postalCode":"75334","locality":"Straubenhardt","municipality":{"key":"08236072","name":"Straubenhardt","type":"Kreisangehörige_Gemeinde"},"district":{"key":"08236","name":"Enzkreis","type":"Landkreis"},"federalState":{"key":"08","name":"Baden-Württemberg"}},{"name":"Frühlingsweg","postalCode":"75334","locality":"Straubenhardt","municipality":{"key":"08236072","name":"Straubenhardt","type":"Kreisangehörige_Gemeinde"},"district":{"key":"08236","name":"Enzkreis","type":"Landkreis"},"federalState":{"key":"08","name":"Baden-Württemberg"}},{"name":"Ganzhornweg","postalCode":"75334","locality":"Straubenhardt","municipality":{"key":"08236072","name":"Straubenhardt","type":"Kreisangehörige_Gemeinde"},"district":{"key":"08236","name":"Enzkreis","type":"Landkreis"},"federalState":{"key":"08","name":"Baden-Württemberg"}},{"name":"Gartenstr.","postalCode":"75334","locality":"Straubenhardt","municipality":{"key":"08236072","name":"Straubenhardt","type":"Kreisangehörige_Gemeinde"},"district":{"key":"08236","name":"Enzkreis","type":"Landkreis"},"federalState":{"key":"08","name":"Baden-Württemberg"}},{"name":"Gässlerstr.","postalCode":"75334","locality":"Straubenhardt","municipality":{"key":"08236072","name":"Straubenhardt","type":"Kreisangehörige_Gemeinde"},"district":{"key":"08236","name":"Enzkreis","type":"Landkreis"},"federalState":{"key":"08","name":"Baden-Württemberg"}},{"name":"Ginsterstr.","postalCode":"75334","locality":"Straubenhardt","municipality":{"key":"08236072","name":"Straubenhardt","type":"Kreisangehörige_Gemeinde"},"district":{"key":"08236","name":"Enzkreis","type":"Landkreis"},"federalState":{"key":"08","name":"Baden-Württemberg"}},{"name":"Goethestr.","postalCode":"75334","locality":"Straubenhardt","municipality":{"key":"08236072","name":"Straubenhardt","type":"Kreisangehörige_Gemeinde"},"district":{"key":"08236","name":"Enzkreis","type":"Landkreis"},"federalState":{"key":"08","name":"Baden-Württemberg"}},{"name":"Große Linie","postalCode":"75334","locality":"Straubenhardt","municipality":{"key":"08236072","name":"Straubenhardt","type":"Kreisangehörige_Gemeinde"},"district":{"key":"08236","name":"Enzkreis","type":"Landkreis"},"federalState":{"key":"08","name":"Baden-Württemberg"}},{"name":"Grundteichweg","postalCode":"75334","locality":"Straubenhardt","municipality":{"key":"08236072","name":"Straubenhardt","type":"Kreisangehörige_Gemeinde"},"district":{"key":"08236","name":"Enzkreis","type":"Landkreis"},"federalState":{"key":"08","name":"Baden-Württemberg"}},{"name":"Grundweg","postalCode":"75334","locality":"Straubenhardt","municipality":{"key":"08236072","name":"Straubenhardt","type":"Kreisangehörige_Gemeinde"},"district":{"key":"08236","name":"Enzkreis","type":"Landkreis"},"federalState":{"key":"08","name":"Baden-Württemberg"}},{"name":"Grünstr.","postalCode":"75334","locality":"Straubenhardt","municipality":{"key":"08236072","name":"Straubenhardt","type":"Kreisangehörige_Gemeinde"},"district":{"key":"08236","name":"Enzkreis","type":"Landkreis"},"federalState":{"key":"08","name":"Baden-Württemberg"}},{"name":"Gruppenstr.","postalCode":"75334","locality":"Straubenhardt","municipality":{"key":"08236072","name":"Straubenhardt","type":"Kreisangehörige_Gemeinde"},"district":{"key":"08236","name":"Enzkreis","type":"Landkreis"},"federalState":{"key":"08","name":"Baden-Württemberg"}},{"name":"Gscheid","postalCode":"75334","locality":"Straubenhardt","municipality":{"key":"08236072","name":"Straubenhardt","type":"Kreisangehörige_Gemeinde"},"district":{"key":"08236","name":"Enzkreis","type":"Landkreis"},"federalState":{"key":"08","name":"Baden-Württemberg"}},{"name":"Hainbuchenweg","postalCode":"75334","locality":"Straubenhardt","municipality":{"key":"08236072","name":"Straubenhardt","type":"Kreisangehörige_Gemeinde"},"district":{"key":"08236","name":"Enzkreis","type":"Landkreis"},"federalState":{"key":"08","name":"Baden-Württemberg"}},{"name":"Händelstr.","postalCode":"75334","locality":"Straubenhardt","municipality":{"key":"08236072","name":"Straubenhardt","type":"Kreisangehörige_Gemeinde"},"district":{"key":"08236","name":"Enzkreis","type":"Landkreis"},"federalState":{"key":"08","name":"Baden-Württemberg"}},{"name":"Hanfackerstr.","postalCode":"75334","locality":"Straubenhardt","municipality":{"key":"08236072","name":"Straubenhardt","type":"Kreisangehörige_Gemeinde"},"district":{"key":"08236","name":"Enzkreis","type":"Landkreis"},"federalState":{"key":"08","name":"Baden-Württemberg"}},{"name":"Hänlesmadweg","postalCode":"75334","locality":"Straubenhardt","municipality":{"key":"08236072","name":"Straubenhardt","type":"Kreisangehörige_Gemeinde"},"district":{"key":"08236","name":"Enzkreis","type":"Landkreis"},"federalState":{"key":"08","name":"Baden-Württemberg"}},{"name":"Hansgaß","postalCode":"75334","locality":"Straubenhardt","municipality":{"key":"08236072","name":"Straubenhardt","type":"Kreisangehörige_Gemeinde"},"district":{"key":"08236","name":"Enzkreis","type":"Landkreis"},"federalState":{"key":"08","name":"Baden-Württemberg"}},{"name":"Hans-Wiesles-Linie","postalCode":"75334","locality":"Straubenhardt","municipality":{"key":"08236072","name":"Straubenhardt","type":"Kreisangehörige_Gemeinde"},"district":{"key":"08236","name":"Enzkreis","type":"Landkreis"},"federalState":{"key":"08","name":"Baden-Württemberg"}},{"name":"Hardtstr.","postalCode":"75334","locality":"Straubenhardt","municipality":{"key":"08236072","name":"Straubenhardt","type":"Kreisangehörige_Gemeinde"},"district":{"key":"08236","name":"Enzkreis","type":"Landkreis"},"federalState":{"key":"08","name":"Baden-Württemberg"}},{"name":"Haselbrunnenweg","postalCode":"75334","locality":"Straubenhardt","municipality":{"key":"08236072","name":"Straubenhardt","type":"Kreisangehörige_Gemeinde"},"district":{"key":"08236","name":"Enzkreis","type":"Landkreis"},"federalState":{"key":"08","name":"Baden-Württemberg"}},{"name":"Häselstr.","postalCode":"75334","locality":"Straubenhardt","municipality":{"key":"08236072","name":"Straubenhardt","type":"Kreisangehörige_Gemeinde"},"district":{"key":"08236","name":"Enzkreis","type":"Landkreis"},"federalState":{"key":"08","name":"Baden-Württemberg"}},{"name":"Hauffstr.","postalCode":"75334","locality":"Straubenhardt","municipality":{"key":"08236072","name":"Straubenhardt","type":"Kreisangehörige_Gemeinde"},"district":{"key":"08236","name":"Enzkreis","type":"Landkreis"},"federalState":{"key":"08","name":"Baden-Württemberg"}},{"name":"Hauptstr.","postalCode":"75334","locality":"Straubenhardt","municipality":{"key":"08236072","name":"Straubenhardt","type":"Kreisangehörige_Gemeinde"},"district":{"key":"08236","name":"Enzkreis","type":"Landkreis"},"federalState":{"key":"08","name":"Baden-Württemberg"}},{"name":"Hauptweg","postalCode":"75334","locality":"Straubenhardt","municipality":{"key":"08236072","name":"Straubenhardt","type":"Kreisangehörige_Gemeinde"},"district":{"key":"08236","name":"Enzkreis","type":"Landkreis"},"federalState":{"key":"08","name":"Baden-Württemberg"}},{"name":"Hebelstr.","postalCode":"75334","locality":"Straubenhardt","municipality":{"key":"08236072","name":"Straubenhardt","type":"Kreisangehörige_Gemeinde"},"district":{"key":"08236","name":"Enzkreis","type":"Landkreis"},"federalState":{"key":"08","name":"Baden-Württemberg"}},{"name":"Heerstr.","postalCode":"75334","locality":"Straubenhardt","municipality":{"key":"08236072","name":"Straubenhardt","type":"Kreisangehörige_Gemeinde"},"district":{"key":"08236","name":"Enzkreis","type":"Landkreis"},"federalState":{"key":"08","name":"Baden-Württemberg"}},{"name":"Heidäckerstr.","postalCode":"75334","locality":"Straubenhardt","municipality":{"key":"08236072","name":"Straubenhardt","type":"Kreisangehörige_Gemeinde"},"district":{"key":"08236","name":"Enzkreis","type":"Landkreis"},"federalState":{"key":"08","name":"Baden-Württemberg"}},{"name":"Heidenweg","postalCode":"75334","locality":"Straubenhardt","municipality":{"key":"08236072","name":"Straubenhardt","type":"Kreisangehörige_Gemeinde"},"district":{"key":"08236","name":"Enzkreis","type":"Landkreis"},"federalState":{"key":"08","name":"Baden-Württemberg"}},{"name":"Heidwaldweg","postalCode":"75334","locality":"Straubenhardt","municipality":{"key":"08236072","name":"Straubenhardt","type":"Kreisangehörige_Gemeinde"},"district":{"key":"08236","name":"Enzkreis","type":"Landkreis"},"federalState":{"key":"08","name":"Baden-Württemberg"}},{"name":"Helene-Christaller-Weg","postalCode":"75334","locality":"Straubenhardt","municipality":{"key":"08236072","name":"Straubenhardt","type":"Kreisangehörige_Gemeinde"},"district":{"key":"08236","name":"Enzkreis","type":"Landkreis"},"federalState":{"key":"08","name":"Baden-Württemberg"}},{"name":"Herdeichen","postalCode":"75334","locality":"Straubenhardt","municipality":{"key":"08236072","name":"Straubenhardt","type":"Kreisangehörige_Gemeinde"},"district":{"key":"08236","name":"Enzkreis","type":"Landkreis"},"federalState":{"key":"08","name":"Baden-Württemberg"}},{"name":"Herrenalber Str.","postalCode":"75334","locality":"Straubenhardt","municipality":{"key":"08236072","name":"Straubenhardt","type":"Kreisangehörige_Gemeinde"},"district":{"key":"08236","name":"Enzkreis","type":"Landkreis"},"federalState":{"key":"08","name":"Baden-Württemberg"}},{"name":"Herrengasse","postalCode":"75334","locality":"Straubenhardt","municipality":{"key":"08236072","name":"Straubenhardt","type":"Kreisangehörige_Gemeinde"},"district":{"key":"08236","name":"Enzkreis","type":"Landkreis"},"federalState":{"key":"08","name":"Baden-Württemberg"}},{"name":"Hessestr.","postalCode":"75334","locality":"Straubenhardt","municipality":{"key":"08236072","name":"Straubenhardt","type":"Kreisangehörige_Gemeinde"},"district":{"key":"08236","name":"Enzkreis","type":"Landkreis"},"federalState":{"key":"08","name":"Baden-Württemberg"}},{"name":"Heubuckelweg","postalCode":"75334","locality":"Straubenhardt","municipality":{"key":"08236072","name":"Straubenhardt","type":"Kreisangehörige_Gemeinde"},"district":{"key":"08236","name":"Enzkreis","type":"Landkreis"},"federalState":{"key":"08","name":"Baden-Württemberg"}},{"name":"Heuweg","postalCode":"75334","locality":"Straubenhardt","municipality":{"key":"08236072","name":"Straubenhardt","type":"Kreisangehörige_Gemeinde"},"district":{"key":"08236","name":"Enzkreis","type":"Landkreis"},"federalState":{"key":"08","name":"Baden-Württemberg"}},{"name":"Hindenburgstr.","postalCode":"75334","locality":"Straubenhardt","municipality":{"key":"08236072","name":"Straubenhardt","type":"Kreisangehörige_Gemeinde"},"district":{"key":"08236","name":"Enzkreis","type":"Landkreis"},"federalState":{"key":"08","name":"Baden-Württemberg"}},{"name":"Hirschweg","postalCode":"75334","locality":"Straubenhardt","municipality":{"key":"08236072","name":"Straubenhardt","type":"Kreisangehörige_Gemeinde"},"district":{"key":"08236","name":"Enzkreis","type":"Landkreis"},"federalState":{"key":"08","name":"Baden-Württemberg"}},{"name":"Hirtenweg","postalCode":"75334","locality":"Straubenhardt","municipality":{"key":"08236072","name":"Straubenhardt","type":"Kreisangehörige_Gemeinde"},"district":{"key":"08236","name":"Enzkreis","type":"Landkreis"},"federalState":{"key":"08","name":"Baden-Württemberg"}},{"name":"Höhenstr.","postalCode":"75334","locality":"Straubenhardt","municipality":{"key":"08236072","name":"Straubenhardt","type":"Kreisangehörige_Gemeinde"},"district":{"key":"08236","name":"Enzkreis","type":"Landkreis"},"federalState":{"key":"08","name":"Baden-Württemberg"}},{"name":"Hohlohstr.","postalCode":"75334","locality":"Straubenhardt","municipality":{"key":"08236072","name":"Straubenhardt","type":"Kreisangehörige_Gemeinde"},"district":{"key":"08236","name":"Enzkreis","type":"Landkreis"},"federalState":{"key":"08","name":"Baden-Württemberg"}},{"name":"Hölderlinstr.","postalCode":"75334","locality":"Straubenhardt","municipality":{"key":"08236072","name":"Straubenhardt","type":"Kreisangehörige_Gemeinde"},"district":{"key":"08236","name":"Enzkreis","type":"Landkreis"},"federalState":{"key":"08","name":"Baden-Württemberg"}},{"name":"Holzbachsägmühle","postalCode":"75334","locality":"Straubenhardt","municipality":{"key":"08236072","name":"Straubenhardt","type":"Kreisangehörige_Gemeinde"},"district":{"key":"08236","name":"Enzkreis","type":"Landkreis"},"federalState":{"key":"08","name":"Baden-Württemberg"}},{"name":"Holzbachtal","postalCode":"75334","locality":"Straubenhardt","municipality":{"key":"08236072","name":"Straubenhardt","type":"Kreisangehörige_Gemeinde"},"district":{"key":"08236","name":"Enzkreis","type":"Landkreis"},"federalState":{"key":"08","name":"Baden-Württemberg"}},{"name":"Hubertusstr.","postalCode":"75334","locality":"Straubenhardt","municipality":{"key":"08236072","name":"Straubenhardt","type":"Kreisangehörige_Gemeinde"},"district":{"key":"08236","name":"Enzkreis","type":"Landkreis"},"federalState":{"key":"08","name":"Baden-Württemberg"}},{"name":"Hubweg","postalCode":"75334","locality":"Straubenhardt","municipality":{"key":"08236072","name":"Straubenhardt","type":"Kreisangehörige_Gemeinde"},"district":{"key":"08236","name":"Enzkreis","type":"Landkreis"},"federalState":{"key":"08","name":"Baden-Württemberg"}},{"name":"Im Eck","postalCode":"75334","locality":"Straubenhardt","municipality":{"key":"08236072","name":"Straubenhardt","type":"Kreisangehörige_Gemeinde"},"district":{"key":"08236","name":"Enzkreis","type":"Landkreis"},"federalState":{"key":"08","name":"Baden-Württemberg"}},{"name":"Im Gründle","postalCode":"75334","locality":"Straubenhardt","municipality":{"key":"08236072","name":"Straubenhardt","type":"Kreisangehörige_Gemeinde"},"district":{"key":"08236","name":"Enzkreis","type":"Landkreis"},"federalState":{"key":"08","name":"Baden-Württemberg"}},{"name":"Im Neubruch","postalCode":"75334","locality":"Straubenhardt","municipality":{"key":"08236072","name":"Straubenhardt","type":"Kreisangehörige_Gemeinde"},"district":{"key":"08236","name":"Enzkreis","type":"Landkreis"},"federalState":{"key":"08","name":"Baden-Württemberg"}},{"name":"In der Striet","postalCode":"75334","locality":"Straubenhardt","municipality":{"key":"08236072","name":"Straubenhardt","type":"Kreisangehörige_Gemeinde"},"district":{"key":"08236","name":"Enzkreis","type":"Landkreis"},"federalState":{"key":"08","name":"Baden-Württemberg"}},{"name":"In Heiligenäcker","postalCode":"75334","locality":"Straubenhardt","municipality":{"key":"08236072","name":"Straubenhardt","type":"Kreisangehörige_Gemeinde"},"district":{"key":"08236","name":"Enzkreis","type":"Landkreis"},"federalState":{"key":"08","name":"Baden-Württemberg"}},{"name":"Ittersbacher Str.","postalCode":"75334","locality":"Straubenhardt","municipality":{"key":"08236072","name":"Straubenhardt","type":"Kreisangehörige_Gemeinde"},"district":{"key":"08236","name":"Enzkreis","type":"Landkreis"},"federalState":{"key":"08","name":"Baden-Württemberg"}},{"name":"Jägerstr.","postalCode":"75334","locality":"Straubenhardt","municipality":{"key":"08236072","name":"Straubenhardt","type":"Kreisangehörige_Gemeinde"},"district":{"key":"08236","name":"Enzkreis","type":"Landkreis"},"federalState":{"key":"08","name":"Baden-Württemberg"}},{"name":"Jägerweg","postalCode":"75334","locality":"Straubenhardt","municipality":{"key":"08236072","name":"Straubenhardt","type":"Kreisangehörige_Gemeinde"},"district":{"key":"08236","name":"Enzkreis","type":"Landkreis"},"federalState":{"key":"08","name":"Baden-Württemberg"}},{"name":"Jahnstr.","postalCode":"75334","locality":"Straubenhardt","municipality":{"key":"08236072","name":"Straubenhardt","type":"Kreisangehörige_Gemeinde"},"district":{"key":"08236","name":"Enzkreis","type":"Landkreis"},"federalState":{"key":"08","name":"Baden-Württemberg"}},{"name":"Kalkstattstr.","postalCode":"75334","locality":"Straubenhardt","municipality":{"key":"08236072","name":"Straubenhardt","type":"Kreisangehörige_Gemeinde"},"district":{"key":"08236","name":"Enzkreis","type":"Landkreis"},"federalState":{"key":"08","name":"Baden-Württemberg"}},{"name":"Kandelstr.","postalCode":"75334","locality":"Straubenhardt","municipality":{"key":"08236072","name":"Straubenhardt","type":"Kreisangehörige_Gemeinde"},"district":{"key":"08236","name":"Enzkreis","type":"Landkreis"},"federalState":{"key":"08","name":"Baden-Württemberg"}},{"name":"Kantstr.","postalCode":"75334","locality":"Straubenhardt","municipality":{"key":"08236072","name":"Straubenhardt","type":"Kreisangehörige_Gemeinde"},"district":{"key":"08236","name":"Enzkreis","type":"Landkreis"},"federalState":{"key":"08","name":"Baden-Württemberg"}},{"name":"Karlsbader Str.","postalCode":"75334","locality":"Straubenhardt","municipality":{"key":"08236072","name":"Straubenhardt","type":"Kreisangehörige_Gemeinde"},"district":{"key":"08236","name":"Enzkreis","type":"Landkreis"},"federalState":{"key":"08","name":"Baden-Württemberg"}},{"name":"Kastanienstr.","postalCode":"75334","locality":"Straubenhardt","municipality":{"key":"08236072","name":"Straubenhardt","type":"Kreisangehörige_Gemeinde"},"district":{"key":"08236","name":"Enzkreis","type":"Landkreis"},"federalState":{"key":"08","name":"Baden-Württemberg"}},{"name":"Käthe-Kollwitz-Str.","postalCode":"75334","locality":"Straubenhardt","municipality":{"key":"08236072","name":"Straubenhardt","type":"Kreisangehörige_Gemeinde"},"district":{"key":"08236","name":"Enzkreis","type":"Landkreis"},"federalState":{"key":"08","name":"Baden-Württemberg"}},{"name":"Kelterstr.","postalCode":"75334","locality":"Straubenhardt","municipality":{"key":"08236072","name":"Straubenhardt","type":"Kreisangehörige_Gemeinde"},"district":{"key":"08236","name":"Enzkreis","type":"Landkreis"},"federalState":{"key":"08","name":"Baden-Württemberg"}},{"name":"Kernäckerstr.","postalCode":"75334","locality":"Straubenhardt","municipality":{"key":"08236072","name":"Straubenhardt","type":"Kreisangehörige_Gemeinde"},"district":{"key":"08236","name":"Enzkreis","type":"Landkreis"},"federalState":{"key":"08","name":"Baden-Württemberg"}},{"name":"Kernstr.","postalCode":"75334","locality":"Straubenhardt","municipality":{"key":"08236072","name":"Straubenhardt","type":"Kreisangehörige_Gemeinde"},"district":{"key":"08236","name":"Enzkreis","type":"Landkreis"},"federalState":{"key":"08","name":"Baden-Württemberg"}},{"name":"Kernwiesenweg","postalCode":"75334","locality":"Straubenhardt","municipality":{"key":"08236072","name":"Straubenhardt","type":"Kreisangehörige_Gemeinde"},"district":{"key":"08236","name":"Enzkreis","type":"Landkreis"},"federalState":{"key":"08","name":"Baden-Württemberg"}},{"name":"Kiefernstr.","postalCode":"75334","locality":"Straubenhardt","municipality":{"key":"08236072","name":"Straubenhardt","type":"Kreisangehörige_Gemeinde"},"district":{"key":"08236","name":"Enzkreis","type":"Landkreis"},"federalState":{"key":"08","name":"Baden-Württemberg"}},{"name":"Kinderschulweg","postalCode":"75334","locality":"Straubenhardt","municipality":{"key":"08236072","name":"Straubenhardt","type":"Kreisangehörige_Gemeinde"},"district":{"key":"08236","name":"Enzkreis","type":"Landkreis"},"federalState":{"key":"08","name":"Baden-Württemberg"}},{"name":"Kirchenweg","postalCode":"75334","locality":"Straubenhardt","municipality":{"key":"08236072","name":"Straubenhardt","type":"Kreisangehörige_Gemeinde"},"district":{"key":"08236","name":"Enzkreis","type":"Landkreis"},"federalState":{"key":"08","name":"Baden-Württemberg"}},{"name":"Kirchstaffel","postalCode":"75334","locality":"Straubenhardt","municipality":{"key":"08236072","name":"Straubenhardt","type":"Kreisangehörige_Gemeinde"},"district":{"key":"08236","name":"Enzkreis","type":"Landkreis"},"federalState":{"key":"08","name":"Baden-Württemberg"}},{"name":"Kirchstr.","postalCode":"75334","locality":"Straubenhardt","municipality":{"key":"08236072","name":"Straubenhardt","type":"Kreisangehörige_Gemeinde"},"district":{"key":"08236","name":"Enzkreis","type":"Landkreis"},"federalState":{"key":"08","name":"Baden-Württemberg"}},{"name":"Kirschenstr.","postalCode":"75334","locality":"Straubenhardt","municipality":{"key":"08236072","name":"Straubenhardt","type":"Kreisangehörige_Gemeinde"},"district":{"key":"08236","name":"Enzkreis","type":"Landkreis"},"federalState":{"key":"08","name":"Baden-Württemberg"}},{"name":"Kleine Linie","postalCode":"75334","locality":"Straubenhardt","municipality":{"key":"08236072","name":"Straubenhardt","type":"Kreisangehörige_Gemeinde"},"district":{"key":"08236","name":"Enzkreis","type":"Landkreis"},"federalState":{"key":"08","name":"Baden-Württemberg"}},{"name":"Kniebisstr.","postalCode":"75334","locality":"Straubenhardt","municipality":{"key":"08236072","name":"Straubenhardt","type":"Kreisangehörige_Gemeinde"},"district":{"key":"08236","name":"Enzkreis","type":"Landkreis"},"federalState":{"key":"08","name":"Baden-Württemberg"}},{"name":"Kohlplattweg","postalCode":"75334","locality":"Straubenhardt","municipality":{"key":"08236072","name":"Straubenhardt","type":"Kreisangehörige_Gemeinde"},"district":{"key":"08236","name":"Enzkreis","type":"Landkreis"},"federalState":{"key":"08","name":"Baden-Württemberg"}},{"name":"Königstr.","postalCode":"75334","locality":"Straubenhardt","municipality":{"key":"08236072","name":"Straubenhardt","type":"Kreisangehörige_Gemeinde"},"district":{"key":"08236","name":"Enzkreis","type":"Landkreis"},"federalState":{"key":"08","name":"Baden-Württemberg"}},{"name":"Kreuzstr.","postalCode":"75334","locality":"Straubenhardt","municipality":{"key":"08236072","name":"Straubenhardt","type":"Kreisangehörige_Gemeinde"},"district":{"key":"08236","name":"Enzkreis","type":"Landkreis"},"federalState":{"key":"08","name":"Baden-Württemberg"}},{"name":"Kreuzwaldweg","postalCode":"75334","locality":"Straubenhardt","municipality":{"key":"08236072","name":"Straubenhardt","type":"Kreisangehörige_Gemeinde"},"district":{"key":"08236","name":"Enzkreis","type":"Landkreis"},"federalState":{"key":"08","name":"Baden-Württemberg"}},{"name":"Kriegsweg","postalCode":"75334","locality":"Straubenhardt","municipality":{"key":"08236072","name":"Straubenhardt","type":"Kreisangehörige_Gemeinde"},"district":{"key":"08236","name":"Enzkreis","type":"Landkreis"},"federalState":{"key":"08","name":"Baden-Württemberg"}},{"name":"Krokusstr.","postalCode":"75334","locality":"Straubenhardt","municipality":{"key":"08236072","name":"Straubenhardt","type":"Kreisangehörige_Gemeinde"},"district":{"key":"08236","name":"Enzkreis","type":"Landkreis"},"federalState":{"key":"08","name":"Baden-Württemberg"}},{"name":"Kutschenweg","postalCode":"75334","locality":"Straubenhardt","municipality":{"key":"08236072","name":"Straubenhardt","type":"Kreisangehörige_Gemeinde"},"district":{"key":"08236","name":"Enzkreis","type":"Landkreis"},"federalState":{"key":"08","name":"Baden-Württemberg"}},{"name":"Landhausstr.","postalCode":"75334","locality":"Straubenhardt","municipality":{"key":"08236072","name":"Straubenhardt","type":"Kreisangehörige_Gemeinde"},"district":{"key":"08236","name":"Enzkreis","type":"Landkreis"},"federalState":{"key":"08","name":"Baden-Württemberg"}},{"name":"Langackerweg","postalCode":"75334","locality":"Straubenhardt","municipality":{"key":"08236072","name":"Straubenhardt","type":"Kreisangehörige_Gemeinde"},"district":{"key":"08236","name":"Enzkreis","type":"Landkreis"},"federalState":{"key":"08","name":"Baden-Württemberg"}},{"name":"Langenalber Str.","postalCode":"75334","locality":"Straubenhardt","municipality":{"key":"08236072","name":"Straubenhardt","type":"Kreisangehörige_Gemeinde"},"district":{"key":"08236","name":"Enzkreis","type":"Landkreis"},"federalState":{"key":"08","name":"Baden-Württemberg"}},{"name":"Lärchenweg","postalCode":"75334","locality":"Straubenhardt","municipality":{"key":"08236072","name":"Straubenhardt","type":"Kreisangehörige_Gemeinde"},"district":{"key":"08236","name":"Enzkreis","type":"Landkreis"},"federalState":{"key":"08","name":"Baden-Württemberg"}},{"name":"Leibsteinweg","postalCode":"75334","locality":"Straubenhardt","municipality":{"key":"08236072","name":"Straubenhardt","type":"Kreisangehörige_Gemeinde"},"district":{"key":"08236","name":"Enzkreis","type":"Landkreis"},"federalState":{"key":"08","name":"Baden-Württemberg"}},{"name":"Lerchenstr.","postalCode":"75334","locality":"Straubenhardt","municipality":{"key":"08236072","name":"Straubenhardt","type":"Kreisangehörige_Gemeinde"},"district":{"key":"08236","name":"Enzkreis","type":"Landkreis"},"federalState":{"key":"08","name":"Baden-Württemberg"}},{"name":"Lessingstr.","postalCode":"75334","locality":"Straubenhardt","municipality":{"key":"08236072","name":"Straubenhardt","type":"Kreisangehörige_Gemeinde"},"district":{"key":"08236","name":"Enzkreis","type":"Landkreis"},"federalState":{"key":"08","name":"Baden-Württemberg"}},{"name":"Lilienweg","postalCode":"75334","locality":"Straubenhardt","municipality":{"key":"08236072","name":"Straubenhardt","type":"Kreisangehörige_Gemeinde"},"district":{"key":"08236","name":"Enzkreis","type":"Landkreis"},"federalState":{"key":"08","name":"Baden-Württemberg"}},{"name":"Lindenstr.","postalCode":"75334","locality":"Straubenhardt","municipality":{"key":"08236072","name":"Straubenhardt","type":"Kreisangehörige_Gemeinde"},"district":{"key":"08236","name":"Enzkreis","type":"Landkreis"},"federalState":{"key":"08","name":"Baden-Württemberg"}},{"name":"Lise-Meitner-Str.","postalCode":"75334","locality":"Straubenhardt","municipality":{"key":"08236072","name":"Straubenhardt","type":"Kreisangehörige_Gemeinde"},"district":{"key":"08236","name":"Enzkreis","type":"Landkreis"},"federalState":{"key":"08","name":"Baden-Württemberg"}},{"name":"Lisztstr.","postalCode":"75334","locality":"Straubenhardt","municipality":{"key":"08236072","name":"Straubenhardt","type":"Kreisangehörige_Gemeinde"},"district":{"key":"08236","name":"Enzkreis","type":"Landkreis"},"federalState":{"key":"08","name":"Baden-Württemberg"}},{"name":"Lukaswegle","postalCode":"75334","locality":"Straubenhardt","municipality":{"key":"08236072","name":"Straubenhardt","type":"Kreisangehörige_Gemeinde"},"district":{"key":"08236","name":"Enzkreis","type":"Landkreis"},"federalState":{"key":"08","name":"Baden-Württemberg"}},{"name":"Mähfeldstr.","postalCode":"75334","locality":"Straubenhardt","municipality":{"key":"08236072","name":"Straubenhardt","type":"Kreisangehörige_Gemeinde"},"district":{"key":"08236","name":"Enzkreis","type":"Landkreis"},"federalState":{"key":"08","name":"Baden-Württemberg"}},{"name":"Mahlbergstr.","postalCode":"75334","locality":"Straubenhardt","municipality":{"key":"08236072","name":"Straubenhardt","type":"Kreisangehörige_Gemeinde"},"district":{"key":"08236","name":"Enzkreis","type":"Landkreis"},"federalState":{"key":"08","name":"Baden-Württemberg"}},{"name":"Maienstr.","postalCode":"75334","locality":"Straubenhardt","municipality":{"key":"08236072","name":"Straubenhardt","type":"Kreisangehörige_Gemeinde"},"district":{"key":"08236","name":"Enzkreis","type":"Landkreis"},"federalState":{"key":"08","name":"Baden-Württemberg"}},{"name":"Maisenbachtalstr.","postalCode":"75334","locality":"Straubenhardt","municipality":{"key":"08236072","name":"Straubenhardt","type":"Kreisangehörige_Gemeinde"},"district":{"key":"08236","name":"Enzkreis","type":"Landkreis"},"federalState":{"key":"08","name":"Baden-Württemberg"}},{"name":"Marktplatz","postalCode":"75334","locality":"Straubenhardt","municipality":{"key":"08236072","name":"Straubenhardt","type":"Kreisangehörige_Gemeinde"},"district":{"key":"08236","name":"Enzkreis","type":"Landkreis"},"federalState":{"key":"08","name":"Baden-Württemberg"}},{"name":"Marktstr.","postalCode":"75334","locality":"Straubenhardt","municipality":{"key":"08236072","name":"Straubenhardt","type":"Kreisangehörige_Gemeinde"},"district":{"key":"08236","name":"Enzkreis","type":"Landkreis"},"federalState":{"key":"08","name":"Baden-Württemberg"}},{"name":"Marxzeller Str.","postalCode":"75334","locality":"Straubenhardt","municipality":{"key":"08236072","name":"Straubenhardt","type":"Kreisangehörige_Gemeinde"},"district":{"key":"08236","name":"Enzkreis","type":"Landkreis"},"federalState":{"key":"08","name":"Baden-Württemberg"}},{"name":"Max-Planck-Str.","postalCode":"75334","locality":"Straubenhardt","municipality":{"key":"08236072","name":"Straubenhardt","type":"Kreisangehörige_Gemeinde"},"district":{"key":"08236","name":"Enzkreis","type":"Landkreis"},"federalState":{"key":"08","name":"Baden-Württemberg"}},{"name":"Meisenweg","postalCode":"75334","locality":"Straubenhardt","municipality":{"key":"08236072","name":"Straubenhardt","type":"Kreisangehörige_Gemeinde"},"district":{"key":"08236","name":"Enzkreis","type":"Landkreis"},"federalState":{"key":"08","name":"Baden-Württemberg"}},{"name":"Mistelstr.","postalCode":"75334","locality":"Straubenhardt","municipality":{"key":"08236072","name":"Straubenhardt","type":"Kreisangehörige_Gemeinde"},"district":{"key":"08236","name":"Enzkreis","type":"Landkreis"},"federalState":{"key":"08","name":"Baden-Württemberg"}},{"name":"Mönchstr.","postalCode":"75334","locality":"Straubenhardt","municipality":{"key":"08236072","name":"Straubenhardt","type":"Kreisangehörige_Gemeinde"},"district":{"key":"08236","name":"Enzkreis","type":"Landkreis"},"federalState":{"key":"08","name":"Baden-Württemberg"}},{"name":"Moosalbstr.","postalCode":"75334","locality":"Straubenhardt","municipality":{"key":"08236072","name":"Straubenhardt","type":"Kreisangehörige_Gemeinde"},"district":{"key":"08236","name":"Enzkreis","type":"Landkreis"},"federalState":{"key":"08","name":"Baden-Württemberg"}},{"name":"Mörikestr.","postalCode":"75334","locality":"Straubenhardt","municipality":{"key":"08236072","name":"Straubenhardt","type":"Kreisangehörige_Gemeinde"},"district":{"key":"08236","name":"Enzkreis","type":"Landkreis"},"federalState":{"key":"08","name":"Baden-Württemberg"}},{"name":"Mozartstr.","postalCode":"75334","locality":"Straubenhardt","municipality":{"key":"08236072","name":"Straubenhardt","type":"Kreisangehörige_Gemeinde"},"district":{"key":"08236","name":"Enzkreis","type":"Landkreis"},"federalState":{"key":"08","name":"Baden-Württemberg"}},{"name":"Mühlenweg","postalCode":"75334","locality":"Straubenhardt","municipality":{"key":"08236072","name":"Straubenhardt","type":"Kreisangehörige_Gemeinde"},"district":{"key":"08236","name":"Enzkreis","type":"Landkreis"},"federalState":{"key":"08","name":"Baden-Württemberg"}},{"name":"Mühlweg","postalCode":"75334","locality":"Straubenhardt","municipality":{"key":"08236072","name":"Straubenhardt","type":"Kreisangehörige_Gemeinde"},"district":{"key":"08236","name":"Enzkreis","type":"Landkreis"},"federalState":{"key":"08","name":"Baden-Württemberg"}},{"name":"Müllerweg","postalCode":"75334","locality":"Straubenhardt","municipality":{"key":"08236072","name":"Straubenhardt","type":"Kreisangehörige_Gemeinde"},"district":{"key":"08236","name":"Enzkreis","type":"Landkreis"},"federalState":{"key":"08","name":"Baden-Württemberg"}},{"name":"Murgstr.","postalCode":"75334","locality":"Straubenhardt","municipality":{"key":"08236072","name":"Straubenhardt","type":"Kreisangehörige_Gemeinde"},"district":{"key":"08236","name":"Enzkreis","type":"Landkreis"},"federalState":{"key":"08","name":"Baden-Württemberg"}},{"name":"Nagoldstr.","postalCode":"75334","locality":"Straubenhardt","municipality":{"key":"08236072","name":"Straubenhardt","type":"Kreisangehörige_Gemeinde"},"district":{"key":"08236","name":"Enzkreis","type":"Landkreis"},"federalState":{"key":"08","name":"Baden-Württemberg"}},{"name":"Neckarstr.","postalCode":"75334","locality":"Straubenhardt","municipality":{"key":"08236072","name":"Straubenhardt","type":"Kreisangehörige_Gemeinde"},"district":{"key":"08236","name":"Enzkreis","type":"Landkreis"},"federalState":{"key":"08","name":"Baden-Württemberg"}},{"name":"Nelkenstr.","postalCode":"75334","locality":"Straubenhardt","municipality":{"key":"08236072","name":"Straubenhardt","type":"Kreisangehörige_Gemeinde"},"district":{"key":"08236","name":"Enzkreis","type":"Landkreis"},"federalState":{"key":"08","name":"Baden-Württemberg"}},{"name":"Neuenbürger Str.","postalCode":"75334","locality":"Straubenhardt","municipality":{"key":"08236072","name":"Straubenhardt","type":"Kreisangehörige_Gemeinde"},"district":{"key":"08236","name":"Enzkreis","type":"Landkreis"},"federalState":{"key":"08","name":"Baden-Württemberg"}},{"name":"Neusatzer Sträßle","postalCode":"75334","locality":"Straubenhardt","municipality":{"key":"08236072","name":"Straubenhardt","type":"Kreisangehörige_Gemeinde"},"district":{"key":"08236","name":"Enzkreis","type":"Landkreis"},"federalState":{"key":"08","name":"Baden-Württemberg"}},{"name":"Obere Äcker","postalCode":"75334","locality":"Straubenhardt","municipality":{"key":"08236072","name":"Straubenhardt","type":"Kreisangehörige_Gemeinde"},"district":{"key":"08236","name":"Enzkreis","type":"Landkreis"},"federalState":{"key":"08","name":"Baden-Württemberg"}},{"name":"Ottenhäuser Str.","postalCode":"75334","locality":"Straubenhardt","municipality":{"key":"08236072","name":"Straubenhardt","type":"Kreisangehörige_Gemeinde"},"district":{"key":"08236","name":"Enzkreis","type":"Landkreis"},"federalState":{"key":"08","name":"Baden-Württemberg"}},{"name":"Panoramastr.","postalCode":"75334","locality":"Straubenhardt","municipality":{"key":"08236072","name":"Straubenhardt","type":"Kreisangehörige_Gemeinde"},"district":{"key":"08236","name":"Enzkreis","type":"Landkreis"},"federalState":{"key":"08","name":"Baden-Württemberg"}},{"name":"Panoramaweg","postalCode":"75334","locality":"Straubenhardt","municipality":{"key":"08236072","name":"Straubenhardt","type":"Kreisangehörige_Gemeinde"},"district":{"key":"08236","name":"Enzkreis","type":"Landkreis"},"federalState":{"key":"08","name":"Baden-Württemberg"}},{"name":"Pappelweg","postalCode":"75334","locality":"Straubenhardt","municipality":{"key":"08236072","name":"Straubenhardt","type":"Kreisangehörige_Gemeinde"},"district":{"key":"08236","name":"Enzkreis","type":"Landkreis"},"federalState":{"key":"08","name":"Baden-Württemberg"}},{"name":"Parkweg","postalCode":"75334","locality":"Straubenhardt","municipality":{"key":"08236072","name":"Straubenhardt","type":"Kreisangehörige_Gemeinde"},"district":{"key":"08236","name":"Enzkreis","type":"Landkreis"},"federalState":{"key":"08","name":"Baden-Württemberg"}},{"name":"Petersgässle","postalCode":"75334","locality":"Straubenhardt","municipality":{"key":"08236072","name":"Straubenhardt","type":"Kreisangehörige_Gemeinde"},"district":{"key":"08236","name":"Enzkreis","type":"Landkreis"},"federalState":{"key":"08","name":"Baden-Württemberg"}},{"name":"Pfalzstr.","postalCode":"75334","locality":"Straubenhardt","municipality":{"key":"08236072","name":"Straubenhardt","type":"Kreisangehörige_Gemeinde"},"district":{"key":"08236","name":"Enzkreis","type":"Landkreis"},"federalState":{"key":"08","name":"Baden-Württemberg"}},{"name":"Pfinzweiler Str.","postalCode":"75334","locality":"Straubenhardt","municipality":{"key":"08236072","name":"Straubenhardt","type":"Kreisangehörige_Gemeinde"},"district":{"key":"08236","name":"Enzkreis","type":"Landkreis"},"federalState":{"key":"08","name":"Baden-Württemberg"}},{"name":"Pfrommersriß","postalCode":"75334","locality":"Straubenhardt","municipality":{"key":"08236072","name":"Straubenhardt","type":"Kreisangehörige_Gemeinde"},"district":{"key":"08236","name":"Enzkreis","type":"Landkreis"},"federalState":{"key":"08","name":"Baden-Württemberg"}},{"name":"Pfrommersweg","postalCode":"75334","locality":"Straubenhardt","municipality":{"key":"08236072","name":"Straubenhardt","type":"Kreisangehörige_Gemeinde"},"district":{"key":"08236","name":"Enzkreis","type":"Landkreis"},"federalState":{"key":"08","name":"Baden-Württemberg"}},{"name":"Quellenstr.","postalCode":"75334","locality":"Straubenhardt","municipality":{"key":"08236072","name":"Straubenhardt","type":"Kreisangehörige_Gemeinde"},"district":{"key":"08236","name":"Enzkreis","type":"Landkreis"},"federalState":{"key":"08","name":"Baden-Württemberg"}},{"name":"Rainstr.","postalCode":"75334","locality":"Straubenhardt","municipality":{"key":"08236072","name":"Straubenhardt","type":"Kreisangehörige_Gemeinde"},"district":{"key":"08236","name":"Enzkreis","type":"Landkreis"},"federalState":{"key":"08","name":"Baden-Württemberg"}},{"name":"Rappengässle","postalCode":"75334","locality":"Straubenhardt","municipality":{"key":"08236072","name":"Straubenhardt","type":"Kreisangehörige_Gemeinde"},"district":{"key":"08236","name":"Enzkreis","type":"Landkreis"},"federalState":{"key":"08","name":"Baden-Württemberg"}},{"name":"Rathausgasse","postalCode":"75334","locality":"Straubenhardt","municipality":{"key":"08236072","name":"Straubenhardt","type":"Kreisangehörige_Gemeinde"},"district":{"key":"08236","name":"Enzkreis","type":"Landkreis"},"federalState":{"key":"08","name":"Baden-Württemberg"}},{"name":"Reutlinie","postalCode":"75334","locality":"Straubenhardt","municipality":{"key":"08236072","name":"Straubenhardt","type":"Kreisangehörige_Gemeinde"},"district":{"key":"08236","name":"Enzkreis","type":"Landkreis"},"federalState":{"key":"08","name":"Baden-Württemberg"}},{"name":"Reutweg","postalCode":"75334","locality":"Straubenhardt","municipality":{"key":"08236072","name":"Straubenhardt","type":"Kreisangehörige_Gemeinde"},"district":{"key":"08236","name":"Enzkreis","type":"Landkreis"},"federalState":{"key":"08","name":"Baden-Württemberg"}},{"name":"Riss","postalCode":"75334","locality":"Straubenhardt","municipality":{"key":"08236072","name":"Straubenhardt","type":"Kreisangehörige_Gemeinde"},"district":{"key":"08236","name":"Enzkreis","type":"Landkreis"},"federalState":{"key":"08","name":"Baden-Württemberg"}},{"name":"Römerstr.","postalCode":"75334","locality":"Straubenhardt","municipality":{"key":"08236072","name":"Straubenhardt","type":"Kreisangehörige_Gemeinde"},"district":{"key":"08236","name":"Enzkreis","type":"Landkreis"},"federalState":{"key":"08","name":"Baden-Württemberg"}},{"name":"Rominterstr.","postalCode":"75334","locality":"Straubenhardt","municipality":{"key":"08236072","name":"Straubenhardt","type":"Kreisangehörige_Gemeinde"},"district":{"key":"08236","name":"Enzkreis","type":"Landkreis"},"federalState":{"key":"08","name":"Baden-Württemberg"}},{"name":"Rosenstr.","postalCode":"75334","locality":"Straubenhardt","municipality":{"key":"08236072","name":"Straubenhardt","type":"Kreisangehörige_Gemeinde"},"district":{"key":"08236","name":"Enzkreis","type":"Landkreis"},"federalState":{"key":"08","name":"Baden-Württemberg"}},{"name":"Rösleinsweg","postalCode":"75334","locality":"Straubenhardt","municipality":{"key":"08236072","name":"Straubenhardt","type":"Kreisangehörige_Gemeinde"},"district":{"key":"08236","name":"Enzkreis","type":"Landkreis"},"federalState":{"key":"08","name":"Baden-Württemberg"}},{"name":"Rotenbachstr.","postalCode":"75334","locality":"Straubenhardt","municipality":{"key":"08236072","name":"Straubenhardt","type":"Kreisangehörige_Gemeinde"},"district":{"key":"08236","name":"Enzkreis","type":"Landkreis"},"federalState":{"key":"08","name":"Baden-Württemberg"}},{"name":"Rotenbachweg","postalCode":"75334","locality":"Straubenhardt","municipality":{"key":"08236072","name":"Straubenhardt","type":"Kreisangehörige_Gemeinde"},"district":{"key":"08236","name":"Enzkreis","type":"Landkreis"},"federalState":{"key":"08","name":"Baden-Württemberg"}},{"name":"Rotestr.","postalCode":"75334","locality":"Straubenhardt","municipality":{"key":"08236072","name":"Straubenhardt","type":"Kreisangehörige_Gemeinde"},"district":{"key":"08236","name":"Enzkreis","type":"Landkreis"},"federalState":{"key":"08","name":"Baden-Württemberg"}},{"name":"Rudmersbacher Str.","postalCode":"75334","locality":"Straubenhardt","municipality":{"key":"08236072","name":"Straubenhardt","type":"Kreisangehörige_Gemeinde"},"district":{"key":"08236","name":"Enzkreis","type":"Landkreis"},"federalState":{"key":"08","name":"Baden-Württemberg"}},{"name":"Sägmühlenweg","postalCode":"75334","locality":"Straubenhardt","municipality":{"key":"08236072","name":"Straubenhardt","type":"Kreisangehörige_Gemeinde"},"district":{"key":"08236","name":"Enzkreis","type":"Landkreis"},"federalState":{"key":"08","name":"Baden-Württemberg"}},{"name":"Saustallweg","postalCode":"75334","locality":"Straubenhardt","municipality":{"key":"08236072","name":"Straubenhardt","type":"Kreisangehörige_Gemeinde"},"district":{"key":"08236","name":"Enzkreis","type":"Landkreis"},"federalState":{"key":"08","name":"Baden-Württemberg"}},{"name":"Sautriebweg","postalCode":"75334","locality":"Straubenhardt","municipality":{"key":"08236072","name":"Straubenhardt","type":"Kreisangehörige_Gemeinde"},"district":{"key":"08236","name":"Enzkreis","type":"Landkreis"},"federalState":{"key":"08","name":"Baden-Württemberg"}},{"name":"Säuweg","postalCode":"75334","locality":"Straubenhardt","municipality":{"key":"08236072","name":"Straubenhardt","type":"Kreisangehörige_Gemeinde"},"district":{"key":"08236","name":"Enzkreis","type":"Landkreis"},"federalState":{"key":"08","name":"Baden-Württemberg"}},{"name":"Schauinslandstr.","postalCode":"75334","locality":"Straubenhardt","municipality":{"key":"08236072","name":"Straubenhardt","type":"Kreisangehörige_Gemeinde"},"district":{"key":"08236","name":"Enzkreis","type":"Landkreis"},"federalState":{"key":"08","name":"Baden-Württemberg"}},{"name":"Schelmenbuschweg","postalCode":"75334","locality":"Straubenhardt","municipality":{"key":"08236072","name":"Straubenhardt","type":"Kreisangehörige_Gemeinde"},"district":{"key":"08236","name":"Enzkreis","type":"Landkreis"},"federalState":{"key":"08","name":"Baden-Württemberg"}},{"name":"Schillerstr.","postalCode":"75334","locality":"Straubenhardt","municipality":{"key":"08236072","name":"Straubenhardt","type":"Kreisangehörige_Gemeinde"},"district":{"key":"08236","name":"Enzkreis","type":"Landkreis"},"federalState":{"key":"08","name":"Baden-Württemberg"}},{"name":"Schindlergasse","postalCode":"75334","locality":"Straubenhardt","municipality":{"key":"08236072","name":"Straubenhardt","type":"Kreisangehörige_Gemeinde"},"district":{"key":"08236","name":"Enzkreis","type":"Landkreis"},"federalState":{"key":"08","name":"Baden-Württemberg"}},{"name":"Schloßweg","postalCode":"75334","locality":"Straubenhardt","municipality":{"key":"08236072","name":"Straubenhardt","type":"Kreisangehörige_Gemeinde"},"district":{"key":"08236","name":"Enzkreis","type":"Landkreis"},"federalState":{"key":"08","name":"Baden-Württemberg"}},{"name":"Schluchtenweg","postalCode":"75334","locality":"Straubenhardt","municipality":{"key":"08236072","name":"Straubenhardt","type":"Kreisangehörige_Gemeinde"},"district":{"key":"08236","name":"Enzkreis","type":"Landkreis"},"federalState":{"key":"08","name":"Baden-Württemberg"}},{"name":"Schmidlichweg","postalCode":"75334","locality":"Straubenhardt","municipality":{"key":"08236072","name":"Straubenhardt","type":"Kreisangehörige_Gemeinde"},"district":{"key":"08236","name":"Enzkreis","type":"Landkreis"},"federalState":{"key":"08","name":"Baden-Württemberg"}},{"name":"Schönblickstr.","postalCode":"75334","locality":"Straubenhardt","municipality":{"key":"08236072","name":"Straubenhardt","type":"Kreisangehörige_Gemeinde"},"district":{"key":"08236","name":"Enzkreis","type":"Landkreis"},"federalState":{"key":"08","name":"Baden-Württemberg"}},{"name":"Schubertstr.","postalCode":"75334","locality":"Straubenhardt","municipality":{"key":"08236072","name":"Straubenhardt","type":"Kreisangehörige_Gemeinde"},"district":{"key":"08236","name":"Enzkreis","type":"Landkreis"},"federalState":{"key":"08","name":"Baden-Württemberg"}},{"name":"Schulgässle","postalCode":"75334","locality":"Straubenhardt","municipality":{"key":"08236072","name":"Straubenhardt","type":"Kreisangehörige_Gemeinde"},"district":{"key":"08236","name":"Enzkreis","type":"Landkreis"},"federalState":{"key":"08","name":"Baden-Württemberg"}},{"name":"Schulstr.","postalCode":"75334","locality":"Straubenhardt","municipality":{"key":"08236072","name":"Straubenhardt","type":"Kreisangehörige_Gemeinde"},"district":{"key":"08236","name":"Enzkreis","type":"Landkreis"},"federalState":{"key":"08","name":"Baden-Württemberg"}},{"name":"Schulzengasse","postalCode":"75334","locality":"Straubenhardt","municipality":{"key":"08236072","name":"Straubenhardt","type":"Kreisangehörige_Gemeinde"},"district":{"key":"08236","name":"Enzkreis","type":"Landkreis"},"federalState":{"key":"08","name":"Baden-Württemberg"}},{"name":"Schumannstr.","postalCode":"75334","locality":"Straubenhardt","municipality":{"key":"08236072","name":"Straubenhardt","type":"Kreisangehörige_Gemeinde"},"district":{"key":"08236","name":"Enzkreis","type":"Landkreis"},"federalState":{"key":"08","name":"Baden-Württemberg"}},{"name":"Schützenstr.","postalCode":"75334","locality":"Straubenhardt","municipality":{"key":"08236072","name":"Straubenhardt","type":"Kreisangehörige_Gemeinde"},"district":{"key":"08236","name":"Enzkreis","type":"Landkreis"},"federalState":{"key":"08","name":"Baden-Württemberg"}},{"name":"Schwanner F.A.D.-Weg","postalCode":"75334","locality":"Straubenhardt","municipality":{"key":"08236072","name":"Straubenhardt","type":"Kreisangehörige_Gemeinde"},"district":{"key":"08236","name":"Enzkreis","type":"Landkreis"},"federalState":{"key":"08","name":"Baden-Württemberg"}},{"name":"Schwanner Str.","postalCode":"75334","locality":"Straubenhardt","municipality":{"key":"08236072","name":"Straubenhardt","type":"Kreisangehörige_Gemeinde"},"district":{"key":"08236","name":"Enzkreis","type":"Landkreis"},"federalState":{"key":"08","name":"Baden-Württemberg"}},{"name":"Schwarzwaldstr.","postalCode":"75334","locality":"Straubenhardt","municipality":{"key":"08236072","name":"Straubenhardt","type":"Kreisangehörige_Gemeinde"},"district":{"key":"08236","name":"Enzkreis","type":"Landkreis"},"federalState":{"key":"08","name":"Baden-Württemberg"}},{"name":"Silcherstr.","postalCode":"75334","locality":"Straubenhardt","municipality":{"key":"08236072","name":"Straubenhardt","type":"Kreisangehörige_Gemeinde"},"district":{"key":"08236","name":"Enzkreis","type":"Landkreis"},"federalState":{"key":"08","name":"Baden-Württemberg"}},{"name":"Sonnenhalde","postalCode":"75334","locality":"Straubenhardt","municipality":{"key":"08236072","name":"Straubenhardt","type":"Kreisangehörige_Gemeinde"},"district":{"key":"08236","name":"Enzkreis","type":"Landkreis"},"federalState":{"key":"08","name":"Baden-Württemberg"}},{"name":"Sonnenstr.","postalCode":"75334","locality":"Straubenhardt","municipality":{"key":"08236072","name":"Straubenhardt","type":"Kreisangehörige_Gemeinde"},"district":{"key":"08236","name":"Enzkreis","type":"Landkreis"},"federalState":{"key":"08","name":"Baden-Württemberg"}},{"name":"Spechtweg","postalCode":"75334","locality":"Straubenhardt","municipality":{"key":"08236072","name":"Straubenhardt","type":"Kreisangehörige_Gemeinde"},"district":{"key":"08236","name":"Enzkreis","type":"Landkreis"},"federalState":{"key":"08","name":"Baden-Württemberg"}},{"name":"Spitzackerweg","postalCode":"75334","locality":"Straubenhardt","municipality":{"key":"08236072","name":"Straubenhardt","type":"Kreisangehörige_Gemeinde"},"district":{"key":"08236","name":"Enzkreis","type":"Landkreis"},"federalState":{"key":"08","name":"Baden-Württemberg"}},{"name":"Steinbeisstr.","postalCode":"75334","locality":"Straubenhardt","municipality":{"key":"08236072","name":"Straubenhardt","type":"Kreisangehörige_Gemeinde"},"district":{"key":"08236","name":"Enzkreis","type":"Landkreis"},"federalState":{"key":"08","name":"Baden-Württemberg"}},{"name":"Steinweg","postalCode":"75334","locality":"Straubenhardt","municipality":{"key":"08236072","name":"Straubenhardt","type":"Kreisangehörige_Gemeinde"},"district":{"key":"08236","name":"Enzkreis","type":"Landkreis"},"federalState":{"key":"08","name":"Baden-Württemberg"}},{"name":"Straubenhardtstr.","postalCode":"75334","locality":"Straubenhardt","municipality":{"key":"08236072","name":"Straubenhardt","type":"Kreisangehörige_Gemeinde"},"district":{"key":"08236","name":"Enzkreis","type":"Landkreis"},"federalState":{"key":"08","name":"Baden-Württemberg"}},{"name":"Strütweg","postalCode":"75334","locality":"Straubenhardt","municipality":{"key":"08236072","name":"Straubenhardt","type":"Kreisangehörige_Gemeinde"},"district":{"key":"08236","name":"Enzkreis","type":"Landkreis"},"federalState":{"key":"08","name":"Baden-Württemberg"}},{"name":"Stückelweg","postalCode":"75334","locality":"Straubenhardt","municipality":{"key":"08236072","name":"Straubenhardt","type":"Kreisangehörige_Gemeinde"},"district":{"key":"08236","name":"Enzkreis","type":"Landkreis"},"federalState":{"key":"08","name":"Baden-Württemberg"}},{"name":"Talblickweg","postalCode":"75334","locality":"Straubenhardt","municipality":{"key":"08236072","name":"Straubenhardt","type":"Kreisangehörige_Gemeinde"},"district":{"key":"08236","name":"Enzkreis","type":"Landkreis"},"federalState":{"key":"08","name":"Baden-Württemberg"}},{"name":"Talweg","postalCode":"75334","locality":"Straubenhardt","municipality":{"key":"08236072","name":"Straubenhardt","type":"Kreisangehörige_Gemeinde"},"district":{"key":"08236","name":"Enzkreis","type":"Landkreis"},"federalState":{"key":"08","name":"Baden-Württemberg"}},{"name":"Tannenweg","postalCode":"75334","locality":"Straubenhardt","municipality":{"key":"08236072","name":"Straubenhardt","type":"Kreisangehörige_Gemeinde"},"district":{"key":"08236","name":"Enzkreis","type":"Landkreis"},"federalState":{"key":"08","name":"Baden-Württemberg"}},{"name":"Tannschlagweg","postalCode":"75334","locality":"Straubenhardt","municipality":{"key":"08236072","name":"Straubenhardt","type":"Kreisangehörige_Gemeinde"},"district":{"key":"08236","name":"Enzkreis","type":"Landkreis"},"federalState":{"key":"08","name":"Baden-Württemberg"}},{"name":"Tannwaldstr.","postalCode":"75334","locality":"Straubenhardt","municipality":{"key":"08236072","name":"Straubenhardt","type":"Kreisangehörige_Gemeinde"},"district":{"key":"08236","name":"Enzkreis","type":"Landkreis"},"federalState":{"key":"08","name":"Baden-Württemberg"}},{"name":"Teinachstr.","postalCode":"75334","locality":"Straubenhardt","municipality":{"key":"08236072","name":"Straubenhardt","type":"Kreisangehörige_Gemeinde"},"district":{"key":"08236","name":"Enzkreis","type":"Landkreis"},"federalState":{"key":"08","name":"Baden-Württemberg"}},{"name":"Thomastr.","postalCode":"75334","locality":"Straubenhardt","municipality":{"key":"08236072","name":"Straubenhardt","type":"Kreisangehörige_Gemeinde"},"district":{"key":"08236","name":"Enzkreis","type":"Landkreis"},"federalState":{"key":"08","name":"Baden-Württemberg"}},{"name":"Tiergartenstr.","postalCode":"75334","locality":"Straubenhardt","municipality":{"key":"08236072","name":"Straubenhardt","type":"Kreisangehörige_Gemeinde"},"district":{"key":"08236","name":"Enzkreis","type":"Landkreis"},"federalState":{"key":"08","name":"Baden-Württemberg"}},{"name":"Treibersweg","postalCode":"75334","locality":"Straubenhardt","municipality":{"key":"08236072","name":"Straubenhardt","type":"Kreisangehörige_Gemeinde"},"district":{"key":"08236","name":"Enzkreis","type":"Landkreis"},"federalState":{"key":"08","name":"Baden-Württemberg"}},{"name":"Trifelsstr.","postalCode":"75334","locality":"Straubenhardt","municipality":{"key":"08236072","name":"Straubenhardt","type":"Kreisangehörige_Gemeinde"},"district":{"key":"08236","name":"Enzkreis","type":"Landkreis"},"federalState":{"key":"08","name":"Baden-Württemberg"}},{"name":"Tulpenstr.","postalCode":"75334","locality":"Straubenhardt","municipality":{"key":"08236072","name":"Straubenhardt","type":"Kreisangehörige_Gemeinde"},"district":{"key":"08236","name":"Enzkreis","type":"Landkreis"},"federalState":{"key":"08","name":"Baden-Württemberg"}},{"name":"Turmbergstr.","postalCode":"75334","locality":"Straubenhardt","municipality":{"key":"08236072","name":"Straubenhardt","type":"Kreisangehörige_Gemeinde"},"district":{"key":"08236","name":"Enzkreis","type":"Landkreis"},"federalState":{"key":"08","name":"Baden-Württemberg"}},{"name":"Turnstr.","postalCode":"75334","locality":"Straubenhardt","municipality":{"key":"08236072","name":"Straubenhardt","type":"Kreisangehörige_Gemeinde"},"district":{"key":"08236","name":"Enzkreis","type":"Landkreis"},"federalState":{"key":"08","name":"Baden-Württemberg"}},{"name":"Uhlandstr.","postalCode":"75334","locality":"Straubenhardt","municipality":{"key":"08236072","name":"Straubenhardt","type":"Kreisangehörige_Gemeinde"},"district":{"key":"08236","name":"Enzkreis","type":"Landkreis"},"federalState":{"key":"08","name":"Baden-Württemberg"}},{"name":"Ulmenstr.","postalCode":"75334","locality":"Straubenhardt","municipality":{"key":"08236072","name":"Straubenhardt","type":"Kreisangehörige_Gemeinde"},"district":{"key":"08236","name":"Enzkreis","type":"Landkreis"},"federalState":{"key":"08","name":"Baden-Württemberg"}},{"name":"Veilchenweg","postalCode":"75334","locality":"Straubenhardt","municipality":{"key":"08236072","name":"Straubenhardt","type":"Kreisangehörige_Gemeinde"},"district":{"key":"08236","name":"Enzkreis","type":"Landkreis"},"federalState":{"key":"08","name":"Baden-Württemberg"}},{"name":"Vogelsangstr.","postalCode":"75334","locality":"Straubenhardt","municipality":{"key":"08236072","name":"Straubenhardt","type":"Kreisangehörige_Gemeinde"},"district":{"key":"08236","name":"Enzkreis","type":"Landkreis"},"federalState":{"key":"08","name":"Baden-Württemberg"}},{"name":"Wagenweg","postalCode":"75334","locality":"Straubenhardt","municipality":{"key":"08236072","name":"Straubenhardt","type":"Kreisangehörige_Gemeinde"},"district":{"key":"08236","name":"Enzkreis","type":"Landkreis"},"federalState":{"key":"08","name":"Baden-Württemberg"}},{"name":"Wagnerstr.","postalCode":"75334","locality":"Straubenhardt","municipality":{"key":"08236072","name":"Straubenhardt","type":"Kreisangehörige_Gemeinde"},"district":{"key":"08236","name":"Enzkreis","type":"Landkreis"},"federalState":{"key":"08","name":"Baden-Württemberg"}},{"name":"Waidmannstr.","postalCode":"75334","locality":"Straubenhardt","municipality":{"key":"08236072","name":"Straubenhardt","type":"Kreisangehörige_Gemeinde"},"district":{"key":"08236","name":"Enzkreis","type":"Landkreis"},"federalState":{"key":"08","name":"Baden-Württemberg"}},{"name":"Waldblumenstr.","postalCode":"75334","locality":"Straubenhardt","municipality":{"key":"08236072","name":"Straubenhardt","type":"Kreisangehörige_Gemeinde"},"district":{"key":"08236","name":"Enzkreis","type":"Landkreis"},"federalState":{"key":"08","name":"Baden-Württemberg"}},{"name":"Waldstr.","postalCode":"75334","locality":"Straubenhardt","municipality":{"key":"08236072","name":"Straubenhardt","type":"Kreisangehörige_Gemeinde"},"district":{"key":"08236","name":"Enzkreis","type":"Landkreis"},"federalState":{"key":"08","name":"Baden-Württemberg"}},{"name":"Waldweg","postalCode":"75334","locality":"Straubenhardt","municipality":{"key":"08236072","name":"Straubenhardt","type":"Kreisangehörige_Gemeinde"},"district":{"key":"08236","name":"Enzkreis","type":"Landkreis"},"federalState":{"key":"08","name":"Baden-Württemberg"}},{"name":"Wasenweg","postalCode":"75334","locality":"Straubenhardt","municipality":{"key":"08236072","name":"Straubenhardt","type":"Kreisangehörige_Gemeinde"},"district":{"key":"08236","name":"Enzkreis","type":"Landkreis"},"federalState":{"key":"08","name":"Baden-Württemberg"}},{"name":"Wasserleitungsweg","postalCode":"75334","locality":"Straubenhardt","municipality":{"key":"08236072","name":"Straubenhardt","type":"Kreisangehörige_Gemeinde"},"district":{"key":"08236","name":"Enzkreis","type":"Landkreis"},"federalState":{"key":"08","name":"Baden-Württemberg"}},{"name":"Wässerlesweg","postalCode":"75334","locality":"Straubenhardt","municipality":{"key":"08236072","name":"Straubenhardt","type":"Kreisangehörige_Gemeinde"},"district":{"key":"08236","name":"Enzkreis","type":"Landkreis"},"federalState":{"key":"08","name":"Baden-Württemberg"}},{"name":"Weidenstr.","postalCode":"75334","locality":"Straubenhardt","municipality":{"key":"08236072","name":"Straubenhardt","type":"Kreisangehörige_Gemeinde"},"district":{"key":"08236","name":"Enzkreis","type":"Landkreis"},"federalState":{"key":"08","name":"Baden-Württemberg"}},{"name":"Weinweg","postalCode":"75334","locality":"Straubenhardt","municipality":{"key":"08236072","name":"Straubenhardt","type":"Kreisangehörige_Gemeinde"},"district":{"key":"08236","name":"Enzkreis","type":"Landkreis"},"federalState":{"key":"08","name":"Baden-Württemberg"}},{"name":"Werner-Henn-Weg","postalCode":"75334","locality":"Straubenhardt","municipality":{"key":"08236072","name":"Straubenhardt","type":"Kreisangehörige_Gemeinde"},"district":{"key":"08236","name":"Enzkreis","type":"Landkreis"},"federalState":{"key":"08","name":"Baden-Württemberg"}},{"name":"Westweg","postalCode":"75334","locality":"Straubenhardt","municipality":{"key":"08236072","name":"Straubenhardt","type":"Kreisangehörige_Gemeinde"},"district":{"key":"08236","name":"Enzkreis","type":"Landkreis"},"federalState":{"key":"08","name":"Baden-Württemberg"}},{"name":"Wiesenweg","postalCode":"75334","locality":"Straubenhardt","municipality":{"key":"08236072","name":"Straubenhardt","type":"Kreisangehörige_Gemeinde"},"district":{"key":"08236","name":"Enzkreis","type":"Landkreis"},"federalState":{"key":"08","name":"Baden-Württemberg"}},{"name":"Würmstr.","postalCode":"75334","locality":"Straubenhardt","municipality":{"key":"08236072","name":"Straubenhardt","type":"Kreisangehörige_Gemeinde"},"district":{"key":"08236","name":"Enzkreis","type":"Landkreis"},"federalState":{"key":"08","name":"Baden-Württemberg"}},{"name":"Zedernstr.","postalCode":"75334","locality":"Straubenhardt","municipality":{"key":"08236072","name":"Straubenhardt","type":"Kreisangehörige_Gemeinde"},"district":{"key":"08236","name":"Enzkreis","type":"Landkreis"},"federalState":{"key":"08","name":"Baden-Württemberg"}},{"name":"Ziegeleiweg","postalCode":"75334","locality":"Straubenhardt","municipality":{"key":"08236072","name":"Straubenhardt","type":"Kreisangehörige_Gemeinde"},"district":{"key":"08236","name":"Enzkreis","type":"Landkreis"},"federalState":{"key":"08","name":"Baden-Württemberg"}},{"name":"Zimmerplätzlesweg","postalCode":"75334","locality":"Straubenhardt","municipality":{"key":"08236072","name":"Straubenhardt","type":"Kreisangehörige_Gemeinde"},"district":{"key":"08236","name":"Enzkreis","type":"Landkreis"},"federalState":{"key":"08","name":"Baden-Württemberg"}},{"name":"Zur Samsruhe","postalCode":"75334","locality":"Straubenhardt","municipality":{"key":"08236072","name":"Straubenhardt","type":"Kreisangehörige_Gemeinde"},"district":{"key":"08236","name":"Enzkreis","type":"Landkreis"},"federalState":{"key":"08","name":"Baden-Württemberg"}},]