[{"name":"77er Str.","postalCode":"29221","locality":"Celle","municipality":{"key":"03351006","name":"Celle, Stadt","type":"Stadt"},"district":{"key":"03351","name":"Celle","type":"Landkreis"},"federalState":{"key":"03","name":"Niedersachsen"}},{"name":"Alter Hof","postalCode":"29339","locality":"Wathlingen","municipality":{"key":"03351021","name":"Wathlingen","type":"Kreisangehörige_Gemeinde"},"district":{"key":"03351","name":"Celle","type":"Landkreis"},"federalState":{"key":"03","name":"Niedersachsen"}},{"name":"Am Bahnhof","postalCode":"29339","locality":"Wathlingen","municipality":{"key":"03351021","name":"Wathlingen","type":"Kreisangehörige_Gemeinde"},"district":{"key":"03351","name":"Celle","type":"Landkreis"},"federalState":{"key":"03","name":"Niedersachsen"}},{"name":"Am Bohlgarten","postalCode":"29339","locality":"Wathlingen","municipality":{"key":"03351021","name":"Wathlingen","type":"Kreisangehörige_Gemeinde"},"district":{"key":"03351","name":"Celle","type":"Landkreis"},"federalState":{"key":"03","name":"Niedersachsen"}},{"name":"Am Bohlkamp","postalCode":"29339","locality":"Wathlingen","municipality":{"key":"03351021","name":"Wathlingen","type":"Kreisangehörige_Gemeinde"},"district":{"key":"03351","name":"Celle","type":"Landkreis"},"federalState":{"key":"03","name":"Niedersachsen"}},{"name":"Am Felde","postalCode":"29339","locality":"Wathlingen","municipality":{"key":"03351021","name":"Wathlingen","type":"Kreisangehörige_Gemeinde"},"district":{"key":"03351","name":"Celle","type":"Landkreis"},"federalState":{"key":"03","name":"Niedersachsen"}},{"name":"Am Förderturm","postalCode":"29339","locality":"Wathlingen","municipality":{"key":"03351021","name":"Wathlingen","type":"Kreisangehörige_Gemeinde"},"district":{"key":"03351","name":"Celle","type":"Landkreis"},"federalState":{"key":"03","name":"Niedersachsen"}},{"name":"Am Krähenberg","postalCode":"29339","locality":"Wathlingen","municipality":{"key":"03351021","name":"Wathlingen","type":"Kreisangehörige_Gemeinde"},"district":{"key":"03351","name":"Celle","type":"Landkreis"},"federalState":{"key":"03","name":"Niedersachsen"}},{"name":"Am Markshof","postalCode":"29339","locality":"Wathlingen","municipality":{"key":"03351021","name":"Wathlingen","type":"Kreisangehörige_Gemeinde"},"district":{"key":"03351","name":"Celle","type":"Landkreis"},"federalState":{"key":"03","name":"Niedersachsen"}},{"name":"Am Rehr","postalCode":"29339","locality":"Wathlingen","municipality":{"key":"03351021","name":"Wathlingen","type":"Kreisangehörige_Gemeinde"},"district":{"key":"03351","name":"Celle","type":"Landkreis"},"federalState":{"key":"03","name":"Niedersachsen"}},{"name":"Amselring","postalCode":"29339","locality":"Wathlingen","municipality":{"key":"03351021","name":"Wathlingen","type":"Kreisangehörige_Gemeinde"},"district":{"key":"03351","name":"Celle","type":"Landkreis"},"federalState":{"key":"03","name":"Niedersachsen"}},{"name":"Am Thie","postalCode":"29339","locality":"Wathlingen","municipality":{"key":"03351021","name":"Wathlingen","type":"Kreisangehörige_Gemeinde"},"district":{"key":"03351","name":"Celle","type":"Landkreis"},"federalState":{"key":"03","name":"Niedersachsen"}},{"name":"Am Urnenfeld","postalCode":"29339","locality":"Wathlingen","municipality":{"key":"03351021","name":"Wathlingen","type":"Kreisangehörige_Gemeinde"},"district":{"key":"03351","name":"Celle","type":"Landkreis"},"federalState":{"key":"03","name":"Niedersachsen"}},{"name":"Am Weizenkamp","postalCode":"29339","locality":"Wathlingen","municipality":{"key":"03351021","name":"Wathlingen","type":"Kreisangehörige_Gemeinde"},"district":{"key":"03351","name":"Celle","type":"Landkreis"},"federalState":{"key":"03","name":"Niedersachsen"}},{"name":"An den Röstebänken","postalCode":"29339","locality":"Wathlingen","municipality":{"key":"03351021","name":"Wathlingen","type":"Kreisangehörige_Gemeinde"},"district":{"key":"03351","name":"Celle","type":"Landkreis"},"federalState":{"key":"03","name":"Niedersachsen"}},{"name":"An der Legde","postalCode":"29339","locality":"Wathlingen","municipality":{"key":"03351021","name":"Wathlingen","type":"Kreisangehörige_Gemeinde"},"district":{"key":"03351","name":"Celle","type":"Landkreis"},"federalState":{"key":"03","name":"Niedersachsen"}},{"name":"Auf dem Spörgenkamp","postalCode":"29339","locality":"Wathlingen","municipality":{"key":"03351021","name":"Wathlingen","type":"Kreisangehörige_Gemeinde"},"district":{"key":"03351","name":"Celle","type":"Landkreis"},"federalState":{"key":"03","name":"Niedersachsen"}},{"name":"Auf der Heide","postalCode":"29339","locality":"Wathlingen","municipality":{"key":"03351021","name":"Wathlingen","type":"Kreisangehörige_Gemeinde"},"district":{"key":"03351","name":"Celle","type":"Landkreis"},"federalState":{"key":"03","name":"Niedersachsen"}},{"name":"Bachstr.","postalCode":"29339","locality":"Wathlingen","municipality":{"key":"03351021","name":"Wathlingen","type":"Kreisangehörige_Gemeinde"},"district":{"key":"03351","name":"Celle","type":"Landkreis"},"federalState":{"key":"03","name":"Niedersachsen"}},{"name":"Bahnhofstr.","postalCode":"29339","locality":"Wathlingen","municipality":{"key":"03351021","name":"Wathlingen","type":"Kreisangehörige_Gemeinde"},"district":{"key":"03351","name":"Celle","type":"Landkreis"},"federalState":{"key":"03","name":"Niedersachsen"}},{"name":"Bahntrasse","postalCode":"29339","locality":"Wathlingen","municipality":{"key":"03351021","name":"Wathlingen","type":"Kreisangehörige_Gemeinde"},"district":{"key":"03351","name":"Celle","type":"Landkreis"},"federalState":{"key":"03","name":"Niedersachsen"}},{"name":"Beethovenstr.","postalCode":"29339","locality":"Wathlingen","municipality":{"key":"03351021","name":"Wathlingen","type":"Kreisangehörige_Gemeinde"},"district":{"key":"03351","name":"Celle","type":"Landkreis"},"federalState":{"key":"03","name":"Niedersachsen"}},{"name":"Bergmannsweg","postalCode":"29339","locality":"Wathlingen","municipality":{"key":"03351021","name":"Wathlingen","type":"Kreisangehörige_Gemeinde"},"district":{"key":"03351","name":"Celle","type":"Landkreis"},"federalState":{"key":"03","name":"Niedersachsen"}},{"name":"Brahmsstr.","postalCode":"29339","locality":"Wathlingen","municipality":{"key":"03351021","name":"Wathlingen","type":"Kreisangehörige_Gemeinde"},"district":{"key":"03351","name":"Celle","type":"Landkreis"},"federalState":{"key":"03","name":"Niedersachsen"}},{"name":"Breslauer Str.","postalCode":"29339","locality":"Wathlingen","municipality":{"key":"03351021","name":"Wathlingen","type":"Kreisangehörige_Gemeinde"},"district":{"key":"03351","name":"Celle","type":"Landkreis"},"federalState":{"key":"03","name":"Niedersachsen"}},{"name":"Calvinstr.","postalCode":"29223","locality":"Celle","municipality":{"key":"03351006","name":"Celle, Stadt","type":"Stadt"},"district":{"key":"03351","name":"Celle","type":"Landkreis"},"federalState":{"key":"03","name":"Niedersachsen"}},{"name":"Carla-Meyer-Rasch-Str.","postalCode":"29221","locality":"Celle","municipality":{"key":"03351006","name":"Celle, Stadt","type":"Stadt"},"district":{"key":"03351","name":"Celle","type":"Landkreis"},"federalState":{"key":"03","name":"Niedersachsen"}},{"name":"Caroline-Mathilde-Str.","postalCode":"29225","locality":"Celle","municipality":{"key":"03351006","name":"Celle, Stadt","type":"Stadt"},"district":{"key":"03351","name":"Celle","type":"Landkreis"},"federalState":{"key":"03","name":"Niedersachsen"}},{"name":"Carstensstr.","postalCode":"29225","locality":"Celle","municipality":{"key":"03351006","name":"Celle, Stadt","type":"Stadt"},"district":{"key":"03351","name":"Celle","type":"Landkreis"},"federalState":{"key":"03","name":"Niedersachsen"}},{"name":"Celle-Ligure-Str.","postalCode":"29225","locality":"Celle","municipality":{"key":"03351006","name":"Celle, Stadt","type":"Stadt"},"district":{"key":"03351","name":"Celle","type":"Landkreis"},"federalState":{"key":"03","name":"Niedersachsen"}},{"name":"Celler Heerstr.","postalCode":"29229","locality":"Celle","municipality":{"key":"03351006","name":"Celle, Stadt","type":"Stadt"},"district":{"key":"03351","name":"Celle","type":"Landkreis"},"federalState":{"key":"03","name":"Niedersachsen"}},{"name":"Celler Heide","postalCode":"29227","locality":"Celle","municipality":{"key":"03351006","name":"Celle, Stadt","type":"Stadt"},"district":{"key":"03351","name":"Celle","type":"Landkreis"},"federalState":{"key":"03","name":"Niedersachsen"}},{"name":"Celler Str.","postalCode":"29229","locality":"Celle","municipality":{"key":"03351006","name":"Celle, Stadt","type":"Stadt"},"district":{"key":"03351","name":"Celle","type":"Landkreis"},"federalState":{"key":"03","name":"Niedersachsen"}},{"name":"Celler Weg","postalCode":"29227","locality":"Celle","municipality":{"key":"03351006","name":"Celle, Stadt","type":"Stadt"},"district":{"key":"03351","name":"Celle","type":"Landkreis"},"federalState":{"key":"03","name":"Niedersachsen"}},{"name":"Clemens-Cassel-Str.","postalCode":"29223","locality":"Celle","municipality":{"key":"03351006","name":"Celle, Stadt","type":"Stadt"},"district":{"key":"03351","name":"Celle","type":"Landkreis"},"federalState":{"key":"03","name":"Niedersachsen"}},{"name":"Dallmanns Twegte","postalCode":"29339","locality":"Wathlingen","municipality":{"key":"03351021","name":"Wathlingen","type":"Kreisangehörige_Gemeinde"},"district":{"key":"03351","name":"Celle","type":"Landkreis"},"federalState":{"key":"03","name":"Niedersachsen"}},{"name":"Danziger Platz","postalCode":"29339","locality":"Wathlingen","municipality":{"key":"03351021","name":"Wathlingen","type":"Kreisangehörige_Gemeinde"},"district":{"key":"03351","name":"Celle","type":"Landkreis"},"federalState":{"key":"03","name":"Niedersachsen"}},{"name":"Drosselweg","postalCode":"29339","locality":"Wathlingen","municipality":{"key":"03351021","name":"Wathlingen","type":"Kreisangehörige_Gemeinde"},"district":{"key":"03351","name":"Celle","type":"Landkreis"},"federalState":{"key":"03","name":"Niedersachsen"}},{"name":"Eicklinger Str.","postalCode":"29339","locality":"Wathlingen","municipality":{"key":"03351021","name":"Wathlingen","type":"Kreisangehörige_Gemeinde"},"district":{"key":"03351","name":"Celle","type":"Landkreis"},"federalState":{"key":"03","name":"Niedersachsen"}},{"name":"Erich-Kästner-Ring","postalCode":"29339","locality":"Wathlingen","municipality":{"key":"03351021","name":"Wathlingen","type":"Kreisangehörige_Gemeinde"},"district":{"key":"03351","name":"Celle","type":"Landkreis"},"federalState":{"key":"03","name":"Niedersachsen"}},{"name":"Ernst-Engelke-Ring","postalCode":"29339","locality":"Wathlingen","municipality":{"key":"03351021","name":"Wathlingen","type":"Kreisangehörige_Gemeinde"},"district":{"key":"03351","name":"Celle","type":"Landkreis"},"federalState":{"key":"03","name":"Niedersachsen"}},{"name":"Fasanenstr.","postalCode":"29339","locality":"Wathlingen","municipality":{"key":"03351021","name":"Wathlingen","type":"Kreisangehörige_Gemeinde"},"district":{"key":"03351","name":"Celle","type":"Landkreis"},"federalState":{"key":"03","name":"Niedersachsen"}},{"name":"Finkenweg","postalCode":"29339","locality":"Wathlingen","municipality":{"key":"03351021","name":"Wathlingen","type":"Kreisangehörige_Gemeinde"},"district":{"key":"03351","name":"Celle","type":"Landkreis"},"federalState":{"key":"03","name":"Niedersachsen"}},{"name":"Fliederwinkel","postalCode":"29339","locality":"Wathlingen","municipality":{"key":"03351021","name":"Wathlingen","type":"Kreisangehörige_Gemeinde"},"district":{"key":"03351","name":"Celle","type":"Landkreis"},"federalState":{"key":"03","name":"Niedersachsen"}},{"name":"Friedrich-Oberheide-Str.","postalCode":"29339","locality":"Wathlingen","municipality":{"key":"03351021","name":"Wathlingen","type":"Kreisangehörige_Gemeinde"},"district":{"key":"03351","name":"Celle","type":"Landkreis"},"federalState":{"key":"03","name":"Niedersachsen"}},{"name":"Fritz-Reuter-Str.","postalCode":"29339","locality":"Wathlingen","municipality":{"key":"03351021","name":"Wathlingen","type":"Kreisangehörige_Gemeinde"},"district":{"key":"03351","name":"Celle","type":"Landkreis"},"federalState":{"key":"03","name":"Niedersachsen"}},{"name":"Fuhrbergsweg","postalCode":"29339","locality":"Wathlingen","municipality":{"key":"03351021","name":"Wathlingen","type":"Kreisangehörige_Gemeinde"},"district":{"key":"03351","name":"Celle","type":"Landkreis"},"federalState":{"key":"03","name":"Niedersachsen"}},{"name":"Gartenstr.","postalCode":"29339","locality":"Wathlingen","municipality":{"key":"03351021","name":"Wathlingen","type":"Kreisangehörige_Gemeinde"},"district":{"key":"03351","name":"Celle","type":"Landkreis"},"federalState":{"key":"03","name":"Niedersachsen"}},{"name":"Gerhart-Hauptmann-Str.","postalCode":"29339","locality":"Wathlingen","municipality":{"key":"03351021","name":"Wathlingen","type":"Kreisangehörige_Gemeinde"},"district":{"key":"03351","name":"Celle","type":"Landkreis"},"federalState":{"key":"03","name":"Niedersachsen"}},{"name":"Glück-Auf-Str.","postalCode":"29339","locality":"Wathlingen","municipality":{"key":"03351021","name":"Wathlingen","type":"Kreisangehörige_Gemeinde"},"district":{"key":"03351","name":"Celle","type":"Landkreis"},"federalState":{"key":"03","name":"Niedersachsen"}},{"name":"Grenzstr.","postalCode":"29339","locality":"Wathlingen","municipality":{"key":"03351021","name":"Wathlingen","type":"Kreisangehörige_Gemeinde"},"district":{"key":"03351","name":"Celle","type":"Landkreis"},"federalState":{"key":"03","name":"Niedersachsen"}},{"name":"Großer Kamp","postalCode":"29339","locality":"Wathlingen","municipality":{"key":"03351021","name":"Wathlingen","type":"Kreisangehörige_Gemeinde"},"district":{"key":"03351","name":"Celle","type":"Landkreis"},"federalState":{"key":"03","name":"Niedersachsen"}},{"name":"Habichtstr.","postalCode":"29339","locality":"Wathlingen","municipality":{"key":"03351021","name":"Wathlingen","type":"Kreisangehörige_Gemeinde"},"district":{"key":"03351","name":"Celle","type":"Landkreis"},"federalState":{"key":"03","name":"Niedersachsen"}},{"name":"Händelstr.","postalCode":"29339","locality":"Wathlingen","municipality":{"key":"03351021","name":"Wathlingen","type":"Kreisangehörige_Gemeinde"},"district":{"key":"03351","name":"Celle","type":"Landkreis"},"federalState":{"key":"03","name":"Niedersachsen"}},{"name":"Hänigser Str.","postalCode":"29339","locality":"Wathlingen","municipality":{"key":"03351021","name":"Wathlingen","type":"Kreisangehörige_Gemeinde"},"district":{"key":"03351","name":"Celle","type":"Landkreis"},"federalState":{"key":"03","name":"Niedersachsen"}},{"name":"Hasklintweg","postalCode":"29339","locality":"Wathlingen","municipality":{"key":"03351021","name":"Wathlingen","type":"Kreisangehörige_Gemeinde"},"district":{"key":"03351","name":"Celle","type":"Landkreis"},"federalState":{"key":"03","name":"Niedersachsen"}},{"name":"Heesewinkel","postalCode":"29339","locality":"Wathlingen","municipality":{"key":"03351021","name":"Wathlingen","type":"Kreisangehörige_Gemeinde"},"district":{"key":"03351","name":"Celle","type":"Landkreis"},"federalState":{"key":"03","name":"Niedersachsen"}},{"name":"Heidland","postalCode":"29339","locality":"Wathlingen","municipality":{"key":"03351021","name":"Wathlingen","type":"Kreisangehörige_Gemeinde"},"district":{"key":"03351","name":"Celle","type":"Landkreis"},"federalState":{"key":"03","name":"Niedersachsen"}},{"name":"Heimstättenweg","postalCode":"29339","locality":"Wathlingen","municipality":{"key":"03351021","name":"Wathlingen","type":"Kreisangehörige_Gemeinde"},"district":{"key":"03351","name":"Celle","type":"Landkreis"},"federalState":{"key":"03","name":"Niedersachsen"}},{"name":"Heinrich-Heine-Str.","postalCode":"29339","locality":"Wathlingen","municipality":{"key":"03351021","name":"Wathlingen","type":"Kreisangehörige_Gemeinde"},"district":{"key":"03351","name":"Celle","type":"Landkreis"},"federalState":{"key":"03","name":"Niedersachsen"}},{"name":"Heinrich-Pröve-Winkel","postalCode":"29339","locality":"Wathlingen","municipality":{"key":"03351021","name":"Wathlingen","type":"Kreisangehörige_Gemeinde"},"district":{"key":"03351","name":"Celle","type":"Landkreis"},"federalState":{"key":"03","name":"Niedersachsen"}},{"name":"Heinrich-Schütz-Str.","postalCode":"29339","locality":"Wathlingen","municipality":{"key":"03351021","name":"Wathlingen","type":"Kreisangehörige_Gemeinde"},"district":{"key":"03351","name":"Celle","type":"Landkreis"},"federalState":{"key":"03","name":"Niedersachsen"}},{"name":"Heinz-Homann-Ring","postalCode":"29339","locality":"Wathlingen","municipality":{"key":"03351021","name":"Wathlingen","type":"Kreisangehörige_Gemeinde"},"district":{"key":"03351","name":"Celle","type":"Landkreis"},"federalState":{"key":"03","name":"Niedersachsen"}},{"name":"Hellebruch","postalCode":"29339","locality":"Wathlingen","municipality":{"key":"03351021","name":"Wathlingen","type":"Kreisangehörige_Gemeinde"},"district":{"key":"03351","name":"Celle","type":"Landkreis"},"federalState":{"key":"03","name":"Niedersachsen"}},{"name":"Hellebruchweg","postalCode":"29339","locality":"Wathlingen","municipality":{"key":"03351021","name":"Wathlingen","type":"Kreisangehörige_Gemeinde"},"district":{"key":"03351","name":"Celle","type":"Landkreis"},"federalState":{"key":"03","name":"Niedersachsen"}},{"name":"Helmut-Koch-Str.","postalCode":"29339","locality":"Wathlingen","municipality":{"key":"03351021","name":"Wathlingen","type":"Kreisangehörige_Gemeinde"},"district":{"key":"03351","name":"Celle","type":"Landkreis"},"federalState":{"key":"03","name":"Niedersachsen"}},{"name":"Hinter der Schmiede","postalCode":"29339","locality":"Wathlingen","municipality":{"key":"03351021","name":"Wathlingen","type":"Kreisangehörige_Gemeinde"},"district":{"key":"03351","name":"Celle","type":"Landkreis"},"federalState":{"key":"03","name":"Niedersachsen"}},{"name":"Hinter Kronen Hofe","postalCode":"29339","locality":"Wathlingen","municipality":{"key":"03351021","name":"Wathlingen","type":"Kreisangehörige_Gemeinde"},"district":{"key":"03351","name":"Celle","type":"Landkreis"},"federalState":{"key":"03","name":"Niedersachsen"}},{"name":"Holunderwinkel","postalCode":"29339","locality":"Wathlingen","municipality":{"key":"03351021","name":"Wathlingen","type":"Kreisangehörige_Gemeinde"},"district":{"key":"03351","name":"Celle","type":"Landkreis"},"federalState":{"key":"03","name":"Niedersachsen"}},{"name":"Im Brinksitzerwinkel","postalCode":"29339","locality":"Wathlingen","municipality":{"key":"03351021","name":"Wathlingen","type":"Kreisangehörige_Gemeinde"},"district":{"key":"03351","name":"Celle","type":"Landkreis"},"federalState":{"key":"03","name":"Niedersachsen"}},{"name":"Im Kirchenwinkel","postalCode":"29339","locality":"Wathlingen","municipality":{"key":"03351021","name":"Wathlingen","type":"Kreisangehörige_Gemeinde"},"district":{"key":"03351","name":"Celle","type":"Landkreis"},"federalState":{"key":"03","name":"Niedersachsen"}},{"name":"Im Mühlenfeld","postalCode":"29339","locality":"Wathlingen","municipality":{"key":"03351021","name":"Wathlingen","type":"Kreisangehörige_Gemeinde"},"district":{"key":"03351","name":"Celle","type":"Landkreis"},"federalState":{"key":"03","name":"Niedersachsen"}},{"name":"In der Aue","postalCode":"29339","locality":"Wathlingen","municipality":{"key":"03351021","name":"Wathlingen","type":"Kreisangehörige_Gemeinde"},"district":{"key":"03351","name":"Celle","type":"Landkreis"},"federalState":{"key":"03","name":"Niedersachsen"}},{"name":"Johann-Strauß-Str.","postalCode":"29339","locality":"Wathlingen","municipality":{"key":"03351021","name":"Wathlingen","type":"Kreisangehörige_Gemeinde"},"district":{"key":"03351","name":"Celle","type":"Landkreis"},"federalState":{"key":"03","name":"Niedersachsen"}},{"name":"Kahlen Weg","postalCode":"29339","locality":"Wathlingen","municipality":{"key":"03351021","name":"Wathlingen","type":"Kreisangehörige_Gemeinde"},"district":{"key":"03351","name":"Celle","type":"Landkreis"},"federalState":{"key":"03","name":"Niedersachsen"}},{"name":"Kantallee","postalCode":"29339","locality":"Wathlingen","municipality":{"key":"03351021","name":"Wathlingen","type":"Kreisangehörige_Gemeinde"},"district":{"key":"03351","name":"Celle","type":"Landkreis"},"federalState":{"key":"03","name":"Niedersachsen"}},{"name":"Kiebitzstr.","postalCode":"29339","locality":"Wathlingen","municipality":{"key":"03351021","name":"Wathlingen","type":"Kreisangehörige_Gemeinde"},"district":{"key":"03351","name":"Celle","type":"Landkreis"},"federalState":{"key":"03","name":"Niedersachsen"}},{"name":"Kirchstr.","postalCode":"29339","locality":"Wathlingen","municipality":{"key":"03351021","name":"Wathlingen","type":"Kreisangehörige_Gemeinde"},"district":{"key":"03351","name":"Celle","type":"Landkreis"},"federalState":{"key":"03","name":"Niedersachsen"}},{"name":"Kleiner Kamp","postalCode":"29339","locality":"Wathlingen","municipality":{"key":"03351021","name":"Wathlingen","type":"Kreisangehörige_Gemeinde"},"district":{"key":"03351","name":"Celle","type":"Landkreis"},"federalState":{"key":"03","name":"Niedersachsen"}},{"name":"Knappenstr.","postalCode":"29339","locality":"Wathlingen","municipality":{"key":"03351021","name":"Wathlingen","type":"Kreisangehörige_Gemeinde"},"district":{"key":"03351","name":"Celle","type":"Landkreis"},"federalState":{"key":"03","name":"Niedersachsen"}},{"name":"Krümmelweg","postalCode":"29339","locality":"Wathlingen","municipality":{"key":"03351021","name":"Wathlingen","type":"Kreisangehörige_Gemeinde"},"district":{"key":"03351","name":"Celle","type":"Landkreis"},"federalState":{"key":"03","name":"Niedersachsen"}},{"name":"Langer Weg","postalCode":"29339","locality":"Wathlingen","municipality":{"key":"03351021","name":"Wathlingen","type":"Kreisangehörige_Gemeinde"},"district":{"key":"03351","name":"Celle","type":"Landkreis"},"federalState":{"key":"03","name":"Niedersachsen"}},{"name":"Lerchenweg","postalCode":"29339","locality":"Wathlingen","municipality":{"key":"03351021","name":"Wathlingen","type":"Kreisangehörige_Gemeinde"},"district":{"key":"03351","name":"Celle","type":"Landkreis"},"federalState":{"key":"03","name":"Niedersachsen"}},{"name":"Lönsstr.","postalCode":"29339","locality":"Wathlingen","municipality":{"key":"03351021","name":"Wathlingen","type":"Kreisangehörige_Gemeinde"},"district":{"key":"03351","name":"Celle","type":"Landkreis"},"federalState":{"key":"03","name":"Niedersachsen"}},{"name":"Martin-Luther-Str.","postalCode":"29339","locality":"Wathlingen","municipality":{"key":"03351021","name":"Wathlingen","type":"Kreisangehörige_Gemeinde"},"district":{"key":"03351","name":"Celle","type":"Landkreis"},"federalState":{"key":"03","name":"Niedersachsen"}},{"name":"Molkereistr.","postalCode":"29339","locality":"Wathlingen","municipality":{"key":"03351021","name":"Wathlingen","type":"Kreisangehörige_Gemeinde"},"district":{"key":"03351","name":"Celle","type":"Landkreis"},"federalState":{"key":"03","name":"Niedersachsen"}},{"name":"Mozartstr.","postalCode":"29339","locality":"Wathlingen","municipality":{"key":"03351021","name":"Wathlingen","type":"Kreisangehörige_Gemeinde"},"district":{"key":"03351","name":"Celle","type":"Landkreis"},"federalState":{"key":"03","name":"Niedersachsen"}},{"name":"Niedersachsenstr.","postalCode":"29339","locality":"Wathlingen","municipality":{"key":"03351021","name":"Wathlingen","type":"Kreisangehörige_Gemeinde"},"district":{"key":"03351","name":"Celle","type":"Landkreis"},"federalState":{"key":"03","name":"Niedersachsen"}},{"name":"Nienhagener Str.","postalCode":"29339","locality":"Wathlingen","municipality":{"key":"03351021","name":"Wathlingen","type":"Kreisangehörige_Gemeinde"},"district":{"key":"03351","name":"Celle","type":"Landkreis"},"federalState":{"key":"03","name":"Niedersachsen"}},{"name":"Ostpreußenweg","postalCode":"29339","locality":"Wathlingen","municipality":{"key":"03351021","name":"Wathlingen","type":"Kreisangehörige_Gemeinde"},"district":{"key":"03351","name":"Celle","type":"Landkreis"},"federalState":{"key":"03","name":"Niedersachsen"}},{"name":"Pahlmannskampweg","postalCode":"29339","locality":"Wathlingen","municipality":{"key":"03351021","name":"Wathlingen","type":"Kreisangehörige_Gemeinde"},"district":{"key":"03351","name":"Celle","type":"Landkreis"},"federalState":{"key":"03","name":"Niedersachsen"}},{"name":"Park mit Schützenheim, Fußballplatz und Osterfeuerplatz","postalCode":"29339","locality":"Wathlingen","municipality":{"key":"03351021","name":"Wathlingen","type":"Kreisangehörige_Gemeinde"},"district":{"key":"03351","name":"Celle","type":"Landkreis"},"federalState":{"key":"03","name":"Niedersachsen"}},{"name":"Pirolstr.","postalCode":"29339","locality":"Wathlingen","municipality":{"key":"03351021","name":"Wathlingen","type":"Kreisangehörige_Gemeinde"},"district":{"key":"03351","name":"Celle","type":"Landkreis"},"federalState":{"key":"03","name":"Niedersachsen"}},{"name":"Pommernweg","postalCode":"29339","locality":"Wathlingen","municipality":{"key":"03351021","name":"Wathlingen","type":"Kreisangehörige_Gemeinde"},"district":{"key":"03351","name":"Celle","type":"Landkreis"},"federalState":{"key":"03","name":"Niedersachsen"}},{"name":"Posener Weg","postalCode":"29339","locality":"Wathlingen","municipality":{"key":"03351021","name":"Wathlingen","type":"Kreisangehörige_Gemeinde"},"district":{"key":"03351","name":"Celle","type":"Landkreis"},"federalState":{"key":"03","name":"Niedersachsen"}},{"name":"Quedlinburgstr.","postalCode":"29225","locality":"Celle","municipality":{"key":"03351006","name":"Celle, Stadt","type":"Stadt"},"district":{"key":"03351","name":"Celle","type":"Landkreis"},"federalState":{"key":"03","name":"Niedersachsen"}},{"name":"Quellweg","postalCode":"29229","locality":"Celle","municipality":{"key":"03351006","name":"Celle, Stadt","type":"Stadt"},"district":{"key":"03351","name":"Celle","type":"Landkreis"},"federalState":{"key":"03","name":"Niedersachsen"}},{"name":"Quittenweg","postalCode":"29223","locality":"Celle","municipality":{"key":"03351006","name":"Celle, Stadt","type":"Stadt"},"district":{"key":"03351","name":"Celle","type":"Landkreis"},"federalState":{"key":"03","name":"Niedersachsen"}},{"name":"Reiherstieg","postalCode":"29339","locality":"Wathlingen","municipality":{"key":"03351021","name":"Wathlingen","type":"Kreisangehörige_Gemeinde"},"district":{"key":"03351","name":"Celle","type":"Landkreis"},"federalState":{"key":"03","name":"Niedersachsen"}},{"name":"Richard-Wagner-Str.","postalCode":"29339","locality":"Wathlingen","municipality":{"key":"03351021","name":"Wathlingen","type":"Kreisangehörige_Gemeinde"},"district":{"key":"03351","name":"Celle","type":"Landkreis"},"federalState":{"key":"03","name":"Niedersachsen"}},{"name":"Riedelstr.","postalCode":"29339","locality":"Wathlingen","municipality":{"key":"03351021","name":"Wathlingen","type":"Kreisangehörige_Gemeinde"},"district":{"key":"03351","name":"Celle","type":"Landkreis"},"federalState":{"key":"03","name":"Niedersachsen"}},{"name":"Rotdornallee","postalCode":"29339","locality":"Wathlingen","municipality":{"key":"03351021","name":"Wathlingen","type":"Kreisangehörige_Gemeinde"},"district":{"key":"03351","name":"Celle","type":"Landkreis"},"federalState":{"key":"03","name":"Niedersachsen"}},{"name":"Sachsenring","postalCode":"29339","locality":"Wathlingen","municipality":{"key":"03351021","name":"Wathlingen","type":"Kreisangehörige_Gemeinde"},"district":{"key":"03351","name":"Celle","type":"Landkreis"},"federalState":{"key":"03","name":"Niedersachsen"}},{"name":"Sägemühlenstr.","postalCode":"29339","locality":"Wathlingen","municipality":{"key":"03351021","name":"Wathlingen","type":"Kreisangehörige_Gemeinde"},"district":{"key":"03351","name":"Celle","type":"Landkreis"},"federalState":{"key":"03","name":"Niedersachsen"}},{"name":"Sandberg","postalCode":"29339","locality":"Wathlingen","municipality":{"key":"03351021","name":"Wathlingen","type":"Kreisangehörige_Gemeinde"},"district":{"key":"03351","name":"Celle","type":"Landkreis"},"federalState":{"key":"03","name":"Niedersachsen"}},{"name":"Sanddornweg","postalCode":"29339","locality":"Wathlingen","municipality":{"key":"03351021","name":"Wathlingen","type":"Kreisangehörige_Gemeinde"},"district":{"key":"03351","name":"Celle","type":"Landkreis"},"federalState":{"key":"03","name":"Niedersachsen"}},{"name":"Schlesierweg","postalCode":"29339","locality":"Wathlingen","municipality":{"key":"03351021","name":"Wathlingen","type":"Kreisangehörige_Gemeinde"},"district":{"key":"03351","name":"Celle","type":"Landkreis"},"federalState":{"key":"03","name":"Niedersachsen"}},{"name":"Schneiderstr.","postalCode":"29339","locality":"Wathlingen","municipality":{"key":"03351021","name":"Wathlingen","type":"Kreisangehörige_Gemeinde"},"district":{"key":"03351","name":"Celle","type":"Landkreis"},"federalState":{"key":"03","name":"Niedersachsen"}},{"name":"Schubertwinkel","postalCode":"29339","locality":"Wathlingen","municipality":{"key":"03351021","name":"Wathlingen","type":"Kreisangehörige_Gemeinde"},"district":{"key":"03351","name":"Celle","type":"Landkreis"},"federalState":{"key":"03","name":"Niedersachsen"}},{"name":"Schulstr.","postalCode":"29339","locality":"Wathlingen","municipality":{"key":"03351021","name":"Wathlingen","type":"Kreisangehörige_Gemeinde"},"district":{"key":"03351","name":"Celle","type":"Landkreis"},"federalState":{"key":"03","name":"Niedersachsen"}},{"name":"Schwarzer Weg","postalCode":"29339","locality":"Wathlingen","municipality":{"key":"03351021","name":"Wathlingen","type":"Kreisangehörige_Gemeinde"},"district":{"key":"03351","name":"Celle","type":"Landkreis"},"federalState":{"key":"03","name":"Niedersachsen"}},{"name":"Steigerring","postalCode":"29339","locality":"Wathlingen","municipality":{"key":"03351021","name":"Wathlingen","type":"Kreisangehörige_Gemeinde"},"district":{"key":"03351","name":"Celle","type":"Landkreis"},"federalState":{"key":"03","name":"Niedersachsen"}},{"name":"Stettiner Weg","postalCode":"29339","locality":"Wathlingen","municipality":{"key":"03351021","name":"Wathlingen","type":"Kreisangehörige_Gemeinde"},"district":{"key":"03351","name":"Celle","type":"Landkreis"},"federalState":{"key":"03","name":"Niedersachsen"}},{"name":"Storchenweg","postalCode":"29339","locality":"Wathlingen","municipality":{"key":"03351021","name":"Wathlingen","type":"Kreisangehörige_Gemeinde"},"district":{"key":"03351","name":"Celle","type":"Landkreis"},"federalState":{"key":"03","name":"Niedersachsen"}},{"name":"Tilsiter Weg","postalCode":"29339","locality":"Wathlingen","municipality":{"key":"03351021","name":"Wathlingen","type":"Kreisangehörige_Gemeinde"},"district":{"key":"03351","name":"Celle","type":"Landkreis"},"federalState":{"key":"03","name":"Niedersachsen"}},{"name":"Triftweg","postalCode":"29339","locality":"Wathlingen","municipality":{"key":"03351021","name":"Wathlingen","type":"Kreisangehörige_Gemeinde"},"district":{"key":"03351","name":"Celle","type":"Landkreis"},"federalState":{"key":"03","name":"Niedersachsen"}},{"name":"Uetzer Weg","postalCode":"29339","locality":"Wathlingen","municipality":{"key":"03351021","name":"Wathlingen","type":"Kreisangehörige_Gemeinde"},"district":{"key":"03351","name":"Celle","type":"Landkreis"},"federalState":{"key":"03","name":"Niedersachsen"}},{"name":"Vogelbeerweg","postalCode":"29229","locality":"Celle","municipality":{"key":"03351006","name":"Celle, Stadt","type":"Stadt"},"district":{"key":"03351","name":"Celle","type":"Landkreis"},"federalState":{"key":"03","name":"Niedersachsen"}},{"name":"Vogelberg","postalCode":"29227","locality":"Celle","municipality":{"key":"03351006","name":"Celle, Stadt","type":"Stadt"},"district":{"key":"03351","name":"Celle","type":"Landkreis"},"federalState":{"key":"03","name":"Niedersachsen"}},{"name":"Vogelsang","postalCode":"29221","locality":"Celle","municipality":{"key":"03351006","name":"Celle, Stadt","type":"Stadt"},"district":{"key":"03351","name":"Celle","type":"Landkreis"},"federalState":{"key":"03","name":"Niedersachsen"}},{"name":"Von-Plauen-Str.","postalCode":"29225","locality":"Celle","municipality":{"key":"03351006","name":"Celle, Stadt","type":"Stadt"},"district":{"key":"03351","name":"Celle","type":"Landkreis"},"federalState":{"key":"03","name":"Niedersachsen"}},{"name":"Von-Stephan-Str.","postalCode":"29229","locality":"Celle","municipality":{"key":"03351006","name":"Celle, Stadt","type":"Stadt"},"district":{"key":"03351","name":"Celle","type":"Landkreis"},"federalState":{"key":"03","name":"Niedersachsen"}},{"name":"Vorbruch","postalCode":"29227","locality":"Celle","municipality":{"key":"03351006","name":"Celle, Stadt","type":"Stadt"},"district":{"key":"03351","name":"Celle","type":"Landkreis"},"federalState":{"key":"03","name":"Niedersachsen"}},{"name":"Vor den Fuhren","postalCode":"29221","locality":"Celle","municipality":{"key":"03351006","name":"Celle, Stadt","type":"Stadt"},"district":{"key":"03351","name":"Celle","type":"Landkreis"},"federalState":{"key":"03","name":"Niedersachsen"}},{"name":"Vorkampstr.","postalCode":"29223","locality":"Celle","municipality":{"key":"03351006","name":"Celle, Stadt","type":"Stadt"},"district":{"key":"03351","name":"Celle","type":"Landkreis"},"federalState":{"key":"03","name":"Niedersachsen"}},{"name":"Vorwerker Platz","postalCode":"29229","locality":"Celle","municipality":{"key":"03351006","name":"Celle, Stadt","type":"Stadt"},"district":{"key":"03351","name":"Celle","type":"Landkreis"},"federalState":{"key":"03","name":"Niedersachsen"}},{"name":"Wachtelstieg","postalCode":"29339","locality":"Wathlingen","municipality":{"key":"03351021","name":"Wathlingen","type":"Kreisangehörige_Gemeinde"},"district":{"key":"03351","name":"Celle","type":"Landkreis"},"federalState":{"key":"03","name":"Niedersachsen"}},{"name":"Weißdornweg","postalCode":"29339","locality":"Wathlingen","municipality":{"key":"03351021","name":"Wathlingen","type":"Kreisangehörige_Gemeinde"},"district":{"key":"03351","name":"Celle","type":"Landkreis"},"federalState":{"key":"03","name":"Niedersachsen"}},{"name":"Westpreußenring","postalCode":"29339","locality":"Wathlingen","municipality":{"key":"03351021","name":"Wathlingen","type":"Kreisangehörige_Gemeinde"},"district":{"key":"03351","name":"Celle","type":"Landkreis"},"federalState":{"key":"03","name":"Niedersachsen"}},{"name":"Wilhelm-Raabe-Str.","postalCode":"29339","locality":"Wathlingen","municipality":{"key":"03351021","name":"Wathlingen","type":"Kreisangehörige_Gemeinde"},"district":{"key":"03351","name":"Celle","type":"Landkreis"},"federalState":{"key":"03","name":"Niedersachsen"}},{"name":"Yorckstr.","postalCode":"29223","locality":"Celle","municipality":{"key":"03351006","name":"Celle, Stadt","type":"Stadt"},"district":{"key":"03351","name":"Celle","type":"Landkreis"},"federalState":{"key":"03","name":"Niedersachsen"}},{"name":"Zum Bröhn","postalCode":"29339","locality":"Wathlingen","municipality":{"key":"03351021","name":"Wathlingen","type":"Kreisangehörige_Gemeinde"},"district":{"key":"03351","name":"Celle","type":"Landkreis"},"federalState":{"key":"03","name":"Niedersachsen"}},{"name":"Zum Generationenpark","postalCode":"29339","locality":"Wathlingen","municipality":{"key":"03351021","name":"Wathlingen","type":"Kreisangehörige_Gemeinde"},"district":{"key":"03351","name":"Celle","type":"Landkreis"},"federalState":{"key":"03","name":"Niedersachsen"}},{"name":"Österleystr.","postalCode":"29225","locality":"Celle","municipality":{"key":"03351006","name":"Celle, Stadt","type":"Stadt"},"district":{"key":"03351","name":"Celle","type":"Landkreis"},"federalState":{"key":"03","name":"Niedersachsen"}},]