[{"name":"Ahlenbachweg","postalCode":"79286","locality":"Glottertal","municipality":{"key":"08315041","name":"Glottertal","type":"Kreisangehörige_Gemeinde"},"district":{"key":"08315","name":"Breisgau-Hochschwarzwald","type":"Landkreis"},"federalState":{"key":"08","name":"Baden-Württemberg"}},{"name":"Am Eichberg","postalCode":"79286","locality":"Glottertal","municipality":{"key":"08315041","name":"Glottertal","type":"Kreisangehörige_Gemeinde"},"district":{"key":"08315","name":"Breisgau-Hochschwarzwald","type":"Landkreis"},"federalState":{"key":"08","name":"Baden-Württemberg"}},{"name":"Am Heldhansenhof","postalCode":"79286","locality":"Glottertal","municipality":{"key":"08315041","name":"Glottertal","type":"Kreisangehörige_Gemeinde"},"district":{"key":"08315","name":"Breisgau-Hochschwarzwald","type":"Landkreis"},"federalState":{"key":"08","name":"Baden-Württemberg"}},{"name":"Am Hörnlesberg","postalCode":"79286","locality":"Glottertal","municipality":{"key":"08315041","name":"Glottertal","type":"Kreisangehörige_Gemeinde"},"district":{"key":"08315","name":"Breisgau-Hochschwarzwald","type":"Landkreis"},"federalState":{"key":"08","name":"Baden-Württemberg"}},{"name":"Am Kandelbächle","postalCode":"79286","locality":"Glottertal","municipality":{"key":"08315041","name":"Glottertal","type":"Kreisangehörige_Gemeinde"},"district":{"key":"08315","name":"Breisgau-Hochschwarzwald","type":"Landkreis"},"federalState":{"key":"08","name":"Baden-Württemberg"}},{"name":"Am Ohrensbächle","postalCode":"79286","locality":"Glottertal","municipality":{"key":"08315041","name":"Glottertal","type":"Kreisangehörige_Gemeinde"},"district":{"key":"08315","name":"Breisgau-Hochschwarzwald","type":"Landkreis"},"federalState":{"key":"08","name":"Baden-Württemberg"}},{"name":"Am Rinzberg","postalCode":"79286","locality":"Glottertal","municipality":{"key":"08315041","name":"Glottertal","type":"Kreisangehörige_Gemeinde"},"district":{"key":"08315","name":"Breisgau-Hochschwarzwald","type":"Landkreis"},"federalState":{"key":"08","name":"Baden-Württemberg"}},{"name":"Am Rotburenhof","postalCode":"79286","locality":"Glottertal","municipality":{"key":"08315041","name":"Glottertal","type":"Kreisangehörige_Gemeinde"},"district":{"key":"08315","name":"Breisgau-Hochschwarzwald","type":"Landkreis"},"federalState":{"key":"08","name":"Baden-Württemberg"}},{"name":"Badstr.","postalCode":"79286","locality":"Glottertal","municipality":{"key":"08315041","name":"Glottertal","type":"Kreisangehörige_Gemeinde"},"district":{"key":"08315","name":"Breisgau-Hochschwarzwald","type":"Landkreis"},"federalState":{"key":"08","name":"Baden-Württemberg"}},{"name":"Badwaldweg","postalCode":"79286","locality":"Glottertal","municipality":{"key":"08315041","name":"Glottertal","type":"Kreisangehörige_Gemeinde"},"district":{"key":"08315","name":"Breisgau-Hochschwarzwald","type":"Landkreis"},"federalState":{"key":"08","name":"Baden-Württemberg"}},{"name":"Borromäweg","postalCode":"79286","locality":"Glottertal","municipality":{"key":"08315041","name":"Glottertal","type":"Kreisangehörige_Gemeinde"},"district":{"key":"08315","name":"Breisgau-Hochschwarzwald","type":"Landkreis"},"federalState":{"key":"08","name":"Baden-Württemberg"}},{"name":"Dätscherstr.","postalCode":"79286","locality":"Glottertal","municipality":{"key":"08315041","name":"Glottertal","type":"Kreisangehörige_Gemeinde"},"district":{"key":"08315","name":"Breisgau-Hochschwarzwald","type":"Landkreis"},"federalState":{"key":"08","name":"Baden-Württemberg"}},{"name":"Eichwaldweg","postalCode":"79286","locality":"Glottertal","municipality":{"key":"08315041","name":"Glottertal","type":"Kreisangehörige_Gemeinde"},"district":{"key":"08315","name":"Breisgau-Hochschwarzwald","type":"Landkreis"},"federalState":{"key":"08","name":"Baden-Württemberg"}},{"name":"Ernst-Rossmy-Str.","postalCode":"79286","locality":"Glottertal","municipality":{"key":"08315041","name":"Glottertal","type":"Kreisangehörige_Gemeinde"},"district":{"key":"08315","name":"Breisgau-Hochschwarzwald","type":"Landkreis"},"federalState":{"key":"08","name":"Baden-Württemberg"}},{"name":"Falkensteinstr.","postalCode":"79286","locality":"Glottertal","municipality":{"key":"08315041","name":"Glottertal","type":"Kreisangehörige_Gemeinde"},"district":{"key":"08315","name":"Breisgau-Hochschwarzwald","type":"Landkreis"},"federalState":{"key":"08","name":"Baden-Württemberg"}},{"name":"Föhrentalerweg","postalCode":"79286","locality":"Glottertal","municipality":{"key":"08315041","name":"Glottertal","type":"Kreisangehörige_Gemeinde"},"district":{"key":"08315","name":"Breisgau-Hochschwarzwald","type":"Landkreis"},"federalState":{"key":"08","name":"Baden-Württemberg"}},{"name":"Föhrentalstr.","postalCode":"79286","locality":"Glottertal","municipality":{"key":"08315041","name":"Glottertal","type":"Kreisangehörige_Gemeinde"},"district":{"key":"08315","name":"Breisgau-Hochschwarzwald","type":"Landkreis"},"federalState":{"key":"08","name":"Baden-Württemberg"}},{"name":"Friedhofweg","postalCode":"79286","locality":"Glottertal","municipality":{"key":"08315041","name":"Glottertal","type":"Kreisangehörige_Gemeinde"},"district":{"key":"08315","name":"Breisgau-Hochschwarzwald","type":"Landkreis"},"federalState":{"key":"08","name":"Baden-Württemberg"}},{"name":"Fuchsfelsenweg","postalCode":"79286","locality":"Glottertal","municipality":{"key":"08315041","name":"Glottertal","type":"Kreisangehörige_Gemeinde"},"district":{"key":"08315","name":"Breisgau-Hochschwarzwald","type":"Landkreis"},"federalState":{"key":"08","name":"Baden-Württemberg"}},{"name":"Gartenstr.","postalCode":"79286","locality":"Glottertal","municipality":{"key":"08315041","name":"Glottertal","type":"Kreisangehörige_Gemeinde"},"district":{"key":"08315","name":"Breisgau-Hochschwarzwald","type":"Landkreis"},"federalState":{"key":"08","name":"Baden-Württemberg"}},{"name":"Gehrenstr.","postalCode":"79286","locality":"Glottertal","municipality":{"key":"08315041","name":"Glottertal","type":"Kreisangehörige_Gemeinde"},"district":{"key":"08315","name":"Breisgau-Hochschwarzwald","type":"Landkreis"},"federalState":{"key":"08","name":"Baden-Württemberg"}},{"name":"Glotterrainwaldweg","postalCode":"79286","locality":"Glottertal","municipality":{"key":"08315041","name":"Glottertal","type":"Kreisangehörige_Gemeinde"},"district":{"key":"08315","name":"Breisgau-Hochschwarzwald","type":"Landkreis"},"federalState":{"key":"08","name":"Baden-Württemberg"}},{"name":"Gullerhisliweg","postalCode":"79286","locality":"Glottertal","municipality":{"key":"08315041","name":"Glottertal","type":"Kreisangehörige_Gemeinde"},"district":{"key":"08315","name":"Breisgau-Hochschwarzwald","type":"Landkreis"},"federalState":{"key":"08","name":"Baden-Württemberg"}},{"name":"Gummenbergweg","postalCode":"79286","locality":"Glottertal","municipality":{"key":"08315041","name":"Glottertal","type":"Kreisangehörige_Gemeinde"},"district":{"key":"08315","name":"Breisgau-Hochschwarzwald","type":"Landkreis"},"federalState":{"key":"08","name":"Baden-Württemberg"}},{"name":"Häuslebergweg","postalCode":"79286","locality":"Glottertal","municipality":{"key":"08315041","name":"Glottertal","type":"Kreisangehörige_Gemeinde"},"district":{"key":"08315","name":"Breisgau-Hochschwarzwald","type":"Landkreis"},"federalState":{"key":"08","name":"Baden-Württemberg"}},{"name":"Herrmann Tritschler Weg","postalCode":"79286","locality":"Glottertal","municipality":{"key":"08315041","name":"Glottertal","type":"Kreisangehörige_Gemeinde"},"district":{"key":"08315","name":"Breisgau-Hochschwarzwald","type":"Landkreis"},"federalState":{"key":"08","name":"Baden-Württemberg"}},{"name":"Hochstiegweg","postalCode":"79286","locality":"Glottertal","municipality":{"key":"08315041","name":"Glottertal","type":"Kreisangehörige_Gemeinde"},"district":{"key":"08315","name":"Breisgau-Hochschwarzwald","type":"Landkreis"},"federalState":{"key":"08","name":"Baden-Württemberg"}},{"name":"In den Engematten","postalCode":"79286","locality":"Glottertal","municipality":{"key":"08315041","name":"Glottertal","type":"Kreisangehörige_Gemeinde"},"district":{"key":"08315","name":"Breisgau-Hochschwarzwald","type":"Landkreis"},"federalState":{"key":"08","name":"Baden-Württemberg"}},{"name":"Josef-Herbstritt-Str.","postalCode":"79286","locality":"Glottertal","municipality":{"key":"08315041","name":"Glottertal","type":"Kreisangehörige_Gemeinde"},"district":{"key":"08315","name":"Breisgau-Hochschwarzwald","type":"Landkreis"},"federalState":{"key":"08","name":"Baden-Württemberg"}},{"name":"Josef Hoferer Weg","postalCode":"79286","locality":"Glottertal","municipality":{"key":"08315041","name":"Glottertal","type":"Kreisangehörige_Gemeinde"},"district":{"key":"08315","name":"Breisgau-Hochschwarzwald","type":"Landkreis"},"federalState":{"key":"08","name":"Baden-Württemberg"}},{"name":"Kammweg","postalCode":"79286","locality":"Glottertal","municipality":{"key":"08315041","name":"Glottertal","type":"Kreisangehörige_Gemeinde"},"district":{"key":"08315","name":"Breisgau-Hochschwarzwald","type":"Landkreis"},"federalState":{"key":"08","name":"Baden-Württemberg"}},{"name":"Kandelhöhenweg","postalCode":"79286","locality":"Glottertal","municipality":{"key":"08315041","name":"Glottertal","type":"Kreisangehörige_Gemeinde"},"district":{"key":"08315","name":"Breisgau-Hochschwarzwald","type":"Landkreis"},"federalState":{"key":"08","name":"Baden-Württemberg"}},{"name":"Kandelstr.","postalCode":"79286","locality":"Glottertal","municipality":{"key":"08315041","name":"Glottertal","type":"Kreisangehörige_Gemeinde"},"district":{"key":"08315","name":"Breisgau-Hochschwarzwald","type":"Landkreis"},"federalState":{"key":"08","name":"Baden-Württemberg"}},{"name":"Kandelwaldweg","postalCode":"79286","locality":"Glottertal","municipality":{"key":"08315041","name":"Glottertal","type":"Kreisangehörige_Gemeinde"},"district":{"key":"08315","name":"Breisgau-Hochschwarzwald","type":"Landkreis"},"federalState":{"key":"08","name":"Baden-Württemberg"}},{"name":"Kirchplatz","postalCode":"79286","locality":"Glottertal","municipality":{"key":"08315041","name":"Glottertal","type":"Kreisangehörige_Gemeinde"},"district":{"key":"08315","name":"Breisgau-Hochschwarzwald","type":"Landkreis"},"federalState":{"key":"08","name":"Baden-Württemberg"}},{"name":"Kirchstr.","postalCode":"79286","locality":"Glottertal","municipality":{"key":"08315041","name":"Glottertal","type":"Kreisangehörige_Gemeinde"},"district":{"key":"08315","name":"Breisgau-Hochschwarzwald","type":"Landkreis"},"federalState":{"key":"08","name":"Baden-Württemberg"}},{"name":"Krämerweg","postalCode":"79286","locality":"Glottertal","municipality":{"key":"08315041","name":"Glottertal","type":"Kreisangehörige_Gemeinde"},"district":{"key":"08315","name":"Breisgau-Hochschwarzwald","type":"Landkreis"},"federalState":{"key":"08","name":"Baden-Württemberg"}},{"name":"Kuhbühlweg","postalCode":"79286","locality":"Glottertal","municipality":{"key":"08315041","name":"Glottertal","type":"Kreisangehörige_Gemeinde"},"district":{"key":"08315","name":"Breisgau-Hochschwarzwald","type":"Landkreis"},"federalState":{"key":"08","name":"Baden-Württemberg"}},{"name":"Landstr.","postalCode":"79286","locality":"Glottertal","municipality":{"key":"08315041","name":"Glottertal","type":"Kreisangehörige_Gemeinde"},"district":{"key":"08315","name":"Breisgau-Hochschwarzwald","type":"Landkreis"},"federalState":{"key":"08","name":"Baden-Württemberg"}},{"name":"Leimeneckstr.","postalCode":"79286","locality":"Glottertal","municipality":{"key":"08315041","name":"Glottertal","type":"Kreisangehörige_Gemeinde"},"district":{"key":"08315","name":"Breisgau-Hochschwarzwald","type":"Landkreis"},"federalState":{"key":"08","name":"Baden-Württemberg"}},{"name":"Lindingerweg","postalCode":"79286","locality":"Glottertal","municipality":{"key":"08315041","name":"Glottertal","type":"Kreisangehörige_Gemeinde"},"district":{"key":"08315","name":"Breisgau-Hochschwarzwald","type":"Landkreis"},"federalState":{"key":"08","name":"Baden-Württemberg"}},{"name":"Lindlewaldweg","postalCode":"79286","locality":"Glottertal","municipality":{"key":"08315041","name":"Glottertal","type":"Kreisangehörige_Gemeinde"},"district":{"key":"08315","name":"Breisgau-Hochschwarzwald","type":"Landkreis"},"federalState":{"key":"08","name":"Baden-Württemberg"}},{"name":"Luserweg","postalCode":"79286","locality":"Glottertal","municipality":{"key":"08315041","name":"Glottertal","type":"Kreisangehörige_Gemeinde"},"district":{"key":"08315","name":"Breisgau-Hochschwarzwald","type":"Landkreis"},"federalState":{"key":"08","name":"Baden-Württemberg"}},{"name":"Mühleweg","postalCode":"79286","locality":"Glottertal","municipality":{"key":"08315041","name":"Glottertal","type":"Kreisangehörige_Gemeinde"},"district":{"key":"08315","name":"Breisgau-Hochschwarzwald","type":"Landkreis"},"federalState":{"key":"08","name":"Baden-Württemberg"}},{"name":"Murweg","postalCode":"79286","locality":"Glottertal","municipality":{"key":"08315041","name":"Glottertal","type":"Kreisangehörige_Gemeinde"},"district":{"key":"08315","name":"Breisgau-Hochschwarzwald","type":"Landkreis"},"federalState":{"key":"08","name":"Baden-Württemberg"}},{"name":"Präsident-Thoma-Weg","postalCode":"79286","locality":"Glottertal","municipality":{"key":"08315041","name":"Glottertal","type":"Kreisangehörige_Gemeinde"},"district":{"key":"08315","name":"Breisgau-Hochschwarzwald","type":"Landkreis"},"federalState":{"key":"08","name":"Baden-Württemberg"}},{"name":"Rathausweg","postalCode":"79286","locality":"Glottertal","municipality":{"key":"08315041","name":"Glottertal","type":"Kreisangehörige_Gemeinde"},"district":{"key":"08315","name":"Breisgau-Hochschwarzwald","type":"Landkreis"},"federalState":{"key":"08","name":"Baden-Württemberg"}},{"name":"Rebbergweg","postalCode":"79286","locality":"Glottertal","municipality":{"key":"08315041","name":"Glottertal","type":"Kreisangehörige_Gemeinde"},"district":{"key":"08315","name":"Breisgau-Hochschwarzwald","type":"Landkreis"},"federalState":{"key":"08","name":"Baden-Württemberg"}},{"name":"Sägeweg","postalCode":"79286","locality":"Glottertal","municipality":{"key":"08315041","name":"Glottertal","type":"Kreisangehörige_Gemeinde"},"district":{"key":"08315","name":"Breisgau-Hochschwarzwald","type":"Landkreis"},"federalState":{"key":"08","name":"Baden-Württemberg"}},{"name":"Schiffsweg","postalCode":"79286","locality":"Glottertal","municipality":{"key":"08315041","name":"Glottertal","type":"Kreisangehörige_Gemeinde"},"district":{"key":"08315","name":"Breisgau-Hochschwarzwald","type":"Landkreis"},"federalState":{"key":"08","name":"Baden-Württemberg"}},{"name":"Schloßstr.","postalCode":"79286","locality":"Glottertal","municipality":{"key":"08315041","name":"Glottertal","type":"Kreisangehörige_Gemeinde"},"district":{"key":"08315","name":"Breisgau-Hochschwarzwald","type":"Landkreis"},"federalState":{"key":"08","name":"Baden-Württemberg"}},{"name":"Schurhammerweg","postalCode":"79286","locality":"Glottertal","municipality":{"key":"08315041","name":"Glottertal","type":"Kreisangehörige_Gemeinde"},"district":{"key":"08315","name":"Breisgau-Hochschwarzwald","type":"Landkreis"},"federalState":{"key":"08","name":"Baden-Württemberg"}},{"name":"Stanley Gasse","postalCode":"79286","locality":"Glottertal","municipality":{"key":"08315041","name":"Glottertal","type":"Kreisangehörige_Gemeinde"},"district":{"key":"08315","name":"Breisgau-Hochschwarzwald","type":"Landkreis"},"federalState":{"key":"08","name":"Baden-Württemberg"}},{"name":"Stollengrundweg","postalCode":"79286","locality":"Glottertal","municipality":{"key":"08315041","name":"Glottertal","type":"Kreisangehörige_Gemeinde"},"district":{"key":"08315","name":"Breisgau-Hochschwarzwald","type":"Landkreis"},"federalState":{"key":"08","name":"Baden-Württemberg"}},{"name":"Talstr.","postalCode":"79286","locality":"Glottertal","municipality":{"key":"08315041","name":"Glottertal","type":"Kreisangehörige_Gemeinde"},"district":{"key":"08315","name":"Breisgau-Hochschwarzwald","type":"Landkreis"},"federalState":{"key":"08","name":"Baden-Württemberg"}},{"name":"Tannholeweg","postalCode":"79286","locality":"Glottertal","municipality":{"key":"08315041","name":"Glottertal","type":"Kreisangehörige_Gemeinde"},"district":{"key":"08315","name":"Breisgau-Hochschwarzwald","type":"Landkreis"},"federalState":{"key":"08","name":"Baden-Württemberg"}},{"name":"Uhrengäßle","postalCode":"79286","locality":"Glottertal","municipality":{"key":"08315041","name":"Glottertal","type":"Kreisangehörige_Gemeinde"},"district":{"key":"08315","name":"Breisgau-Hochschwarzwald","type":"Landkreis"},"federalState":{"key":"08","name":"Baden-Württemberg"}},{"name":"Umleitung","postalCode":"79286","locality":"Glottertal","municipality":{"key":"08315041","name":"Glottertal","type":"Kreisangehörige_Gemeinde"},"district":{"key":"08315","name":"Breisgau-Hochschwarzwald","type":"Landkreis"},"federalState":{"key":"08","name":"Baden-Württemberg"}},{"name":"Waldemar-Koch-Weg","postalCode":"79286","locality":"Glottertal","municipality":{"key":"08315041","name":"Glottertal","type":"Kreisangehörige_Gemeinde"},"district":{"key":"08315","name":"Breisgau-Hochschwarzwald","type":"Landkreis"},"federalState":{"key":"08","name":"Baden-Württemberg"}},{"name":"Wiggishagweg","postalCode":"79286","locality":"Glottertal","municipality":{"key":"08315041","name":"Glottertal","type":"Kreisangehörige_Gemeinde"},"district":{"key":"08315","name":"Breisgau-Hochschwarzwald","type":"Landkreis"},"federalState":{"key":"08","name":"Baden-Württemberg"}},{"name":"Winterbachstr.","postalCode":"79286","locality":"Glottertal","municipality":{"key":"08315041","name":"Glottertal","type":"Kreisangehörige_Gemeinde"},"district":{"key":"08315","name":"Breisgau-Hochschwarzwald","type":"Landkreis"},"federalState":{"key":"08","name":"Baden-Württemberg"}},{"name":"Winzerpfad","postalCode":"79286","locality":"Glottertal","municipality":{"key":"08315041","name":"Glottertal","type":"Kreisangehörige_Gemeinde"},"district":{"key":"08315","name":"Breisgau-Hochschwarzwald","type":"Landkreis"},"federalState":{"key":"08","name":"Baden-Württemberg"}},{"name":"Winzerstr.","postalCode":"79286","locality":"Glottertal","municipality":{"key":"08315041","name":"Glottertal","type":"Kreisangehörige_Gemeinde"},"district":{"key":"08315","name":"Breisgau-Hochschwarzwald","type":"Landkreis"},"federalState":{"key":"08","name":"Baden-Württemberg"}},{"name":"Winzerweg","postalCode":"79286","locality":"Glottertal","municipality":{"key":"08315041","name":"Glottertal","type":"Kreisangehörige_Gemeinde"},"district":{"key":"08315","name":"Breisgau-Hochschwarzwald","type":"Landkreis"},"federalState":{"key":"08","name":"Baden-Württemberg"}},{"name":"Wissereckstr.","postalCode":"79286","locality":"Glottertal","municipality":{"key":"08315041","name":"Glottertal","type":"Kreisangehörige_Gemeinde"},"district":{"key":"08315","name":"Breisgau-Hochschwarzwald","type":"Landkreis"},"federalState":{"key":"08","name":"Baden-Württemberg"}},{"name":"Wuspenhof","postalCode":"79286","locality":"Glottertal","municipality":{"key":"08315041","name":"Glottertal","type":"Kreisangehörige_Gemeinde"},"district":{"key":"08315","name":"Breisgau-Hochschwarzwald","type":"Landkreis"},"federalState":{"key":"08","name":"Baden-Württemberg"}},]