[{"name":"Am Kindergarten","postalCode":"65558","locality":"Burgschwalbach","municipality":{"key":"07141020","name":"Burgschwalbach","type":"Kreisangehörige_Gemeinde"},"district":{"key":"07141","name":"Rhein-Lahn-Kreis","type":"Landkreis"},"federalState":{"key":"07","name":"Rheinland-Pfalz"}},{"name":"Am Sonnenberg","postalCode":"65558","locality":"Burgschwalbach","municipality":{"key":"07141020","name":"Burgschwalbach","type":"Kreisangehörige_Gemeinde"},"district":{"key":"07141","name":"Rhein-Lahn-Kreis","type":"Landkreis"},"federalState":{"key":"07","name":"Rheinland-Pfalz"}},{"name":"Auf der Lehmkaut","postalCode":"65558","locality":"Burgschwalbach","municipality":{"key":"07141020","name":"Burgschwalbach","type":"Kreisangehörige_Gemeinde"},"district":{"key":"07141","name":"Rhein-Lahn-Kreis","type":"Landkreis"},"federalState":{"key":"07","name":"Rheinland-Pfalz"}},{"name":"Bachstr.","postalCode":"65558","locality":"Burgschwalbach","municipality":{"key":"07141020","name":"Burgschwalbach","type":"Kreisangehörige_Gemeinde"},"district":{"key":"07141","name":"Rhein-Lahn-Kreis","type":"Landkreis"},"federalState":{"key":"07","name":"Rheinland-Pfalz"}},{"name":"Bahnhofstr.","postalCode":"65558","locality":"Burgschwalbach","municipality":{"key":"07141020","name":"Burgschwalbach","type":"Kreisangehörige_Gemeinde"},"district":{"key":"07141","name":"Rhein-Lahn-Kreis","type":"Landkreis"},"federalState":{"key":"07","name":"Rheinland-Pfalz"}},{"name":"Brennersgraben","postalCode":"65558","locality":"Burgschwalbach","municipality":{"key":"07141020","name":"Burgschwalbach","type":"Kreisangehörige_Gemeinde"},"district":{"key":"07141","name":"Rhein-Lahn-Kreis","type":"Landkreis"},"federalState":{"key":"07","name":"Rheinland-Pfalz"}},{"name":"Burgschwalbacher Str.","postalCode":"65558","locality":"Burgschwalbach","municipality":{"key":"07141020","name":"Burgschwalbach","type":"Kreisangehörige_Gemeinde"},"district":{"key":"07141","name":"Rhein-Lahn-Kreis","type":"Landkreis"},"federalState":{"key":"07","name":"Rheinland-Pfalz"}},{"name":"Buswendeplatz","postalCode":"65558","locality":"Burgschwalbach","municipality":{"key":"07141020","name":"Burgschwalbach","type":"Kreisangehörige_Gemeinde"},"district":{"key":"07141","name":"Rhein-Lahn-Kreis","type":"Landkreis"},"federalState":{"key":"07","name":"Rheinland-Pfalz"}},{"name":"Feldstr.","postalCode":"65558","locality":"Burgschwalbach","municipality":{"key":"07141020","name":"Burgschwalbach","type":"Kreisangehörige_Gemeinde"},"district":{"key":"07141","name":"Rhein-Lahn-Kreis","type":"Landkreis"},"federalState":{"key":"07","name":"Rheinland-Pfalz"}},{"name":"Friedhofstr.","postalCode":"65558","locality":"Burgschwalbach","municipality":{"key":"07141020","name":"Burgschwalbach","type":"Kreisangehörige_Gemeinde"},"district":{"key":"07141","name":"Rhein-Lahn-Kreis","type":"Landkreis"},"federalState":{"key":"07","name":"Rheinland-Pfalz"}},{"name":"Gartenstr.","postalCode":"65558","locality":"Burgschwalbach","municipality":{"key":"07141020","name":"Burgschwalbach","type":"Kreisangehörige_Gemeinde"},"district":{"key":"07141","name":"Rhein-Lahn-Kreis","type":"Landkreis"},"federalState":{"key":"07","name":"Rheinland-Pfalz"}},{"name":"Grabenstr.","postalCode":"65558","locality":"Burgschwalbach","municipality":{"key":"07141020","name":"Burgschwalbach","type":"Kreisangehörige_Gemeinde"},"district":{"key":"07141","name":"Rhein-Lahn-Kreis","type":"Landkreis"},"federalState":{"key":"07","name":"Rheinland-Pfalz"}},{"name":"Hinter den Zäunen","postalCode":"65558","locality":"Burgschwalbach","municipality":{"key":"07141020","name":"Burgschwalbach","type":"Kreisangehörige_Gemeinde"},"district":{"key":"07141","name":"Rhein-Lahn-Kreis","type":"Landkreis"},"federalState":{"key":"07","name":"Rheinland-Pfalz"}},{"name":"Im kleinen Feldchen","postalCode":"65558","locality":"Burgschwalbach","municipality":{"key":"07141020","name":"Burgschwalbach","type":"Kreisangehörige_Gemeinde"},"district":{"key":"07141","name":"Rhein-Lahn-Kreis","type":"Landkreis"},"federalState":{"key":"07","name":"Rheinland-Pfalz"}},{"name":"In der Au","postalCode":"65558","locality":"Burgschwalbach","municipality":{"key":"07141020","name":"Burgschwalbach","type":"Kreisangehörige_Gemeinde"},"district":{"key":"07141","name":"Rhein-Lahn-Kreis","type":"Landkreis"},"federalState":{"key":"07","name":"Rheinland-Pfalz"}},{"name":"In der Seite","postalCode":"65558","locality":"Burgschwalbach","municipality":{"key":"07141020","name":"Burgschwalbach","type":"Kreisangehörige_Gemeinde"},"district":{"key":"07141","name":"Rhein-Lahn-Kreis","type":"Landkreis"},"federalState":{"key":"07","name":"Rheinland-Pfalz"}},{"name":"Kettenbacher Str.","postalCode":"65558","locality":"Burgschwalbach","municipality":{"key":"07141020","name":"Burgschwalbach","type":"Kreisangehörige_Gemeinde"},"district":{"key":"07141","name":"Rhein-Lahn-Kreis","type":"Landkreis"},"federalState":{"key":"07","name":"Rheinland-Pfalz"}},{"name":"Kirchstr.","postalCode":"65558","locality":"Burgschwalbach","municipality":{"key":"07141020","name":"Burgschwalbach","type":"Kreisangehörige_Gemeinde"},"district":{"key":"07141","name":"Rhein-Lahn-Kreis","type":"Landkreis"},"federalState":{"key":"07","name":"Rheinland-Pfalz"}},{"name":"Kirchweg","postalCode":"65558","locality":"Burgschwalbach","municipality":{"key":"07141020","name":"Burgschwalbach","type":"Kreisangehörige_Gemeinde"},"district":{"key":"07141","name":"Rhein-Lahn-Kreis","type":"Landkreis"},"federalState":{"key":"07","name":"Rheinland-Pfalz"}},{"name":"Obere Gartenstr.","postalCode":"65558","locality":"Burgschwalbach","municipality":{"key":"07141020","name":"Burgschwalbach","type":"Kreisangehörige_Gemeinde"},"district":{"key":"07141","name":"Rhein-Lahn-Kreis","type":"Landkreis"},"federalState":{"key":"07","name":"Rheinland-Pfalz"}},{"name":"Panröder Str.","postalCode":"65558","locality":"Burgschwalbach","municipality":{"key":"07141020","name":"Burgschwalbach","type":"Kreisangehörige_Gemeinde"},"district":{"key":"07141","name":"Rhein-Lahn-Kreis","type":"Landkreis"},"federalState":{"key":"07","name":"Rheinland-Pfalz"}},{"name":"Paul-Morant-Allee","postalCode":"65558","locality":"Burgschwalbach","municipality":{"key":"07141020","name":"Burgschwalbach","type":"Kreisangehörige_Gemeinde"},"district":{"key":"07141","name":"Rhein-Lahn-Kreis","type":"Landkreis"},"federalState":{"key":"07","name":"Rheinland-Pfalz"}},{"name":"Präbachstr.","postalCode":"65558","locality":"Burgschwalbach","municipality":{"key":"07141020","name":"Burgschwalbach","type":"Kreisangehörige_Gemeinde"},"district":{"key":"07141","name":"Rhein-Lahn-Kreis","type":"Landkreis"},"federalState":{"key":"07","name":"Rheinland-Pfalz"}},{"name":"Rathausstr.","postalCode":"65558","locality":"Burgschwalbach","municipality":{"key":"07141020","name":"Burgschwalbach","type":"Kreisangehörige_Gemeinde"},"district":{"key":"07141","name":"Rhein-Lahn-Kreis","type":"Landkreis"},"federalState":{"key":"07","name":"Rheinland-Pfalz"}},{"name":"Rückershäuser Str.","postalCode":"65558","locality":"Burgschwalbach","municipality":{"key":"07141020","name":"Burgschwalbach","type":"Kreisangehörige_Gemeinde"},"district":{"key":"07141","name":"Rhein-Lahn-Kreis","type":"Landkreis"},"federalState":{"key":"07","name":"Rheinland-Pfalz"}},{"name":"Schloßstr.","postalCode":"65558","locality":"Burgschwalbach","municipality":{"key":"07141020","name":"Burgschwalbach","type":"Kreisangehörige_Gemeinde"},"district":{"key":"07141","name":"Rhein-Lahn-Kreis","type":"Landkreis"},"federalState":{"key":"07","name":"Rheinland-Pfalz"}},{"name":"Schönbachstr.","postalCode":"65558","locality":"Burgschwalbach","municipality":{"key":"07141020","name":"Burgschwalbach","type":"Kreisangehörige_Gemeinde"},"district":{"key":"07141","name":"Rhein-Lahn-Kreis","type":"Landkreis"},"federalState":{"key":"07","name":"Rheinland-Pfalz"}},{"name":"Schöne Aussicht","postalCode":"65558","locality":"Burgschwalbach","municipality":{"key":"07141020","name":"Burgschwalbach","type":"Kreisangehörige_Gemeinde"},"district":{"key":"07141","name":"Rhein-Lahn-Kreis","type":"Landkreis"},"federalState":{"key":"07","name":"Rheinland-Pfalz"}},{"name":"Schulbergstr.","postalCode":"65558","locality":"Burgschwalbach","municipality":{"key":"07141020","name":"Burgschwalbach","type":"Kreisangehörige_Gemeinde"},"district":{"key":"07141","name":"Rhein-Lahn-Kreis","type":"Landkreis"},"federalState":{"key":"07","name":"Rheinland-Pfalz"}},{"name":"Taunusstr.","postalCode":"65558","locality":"Burgschwalbach","municipality":{"key":"07141020","name":"Burgschwalbach","type":"Kreisangehörige_Gemeinde"},"district":{"key":"07141","name":"Rhein-Lahn-Kreis","type":"Landkreis"},"federalState":{"key":"07","name":"Rheinland-Pfalz"}},{"name":"Waldstr.","postalCode":"65558","locality":"Burgschwalbach","municipality":{"key":"07141020","name":"Burgschwalbach","type":"Kreisangehörige_Gemeinde"},"district":{"key":"07141","name":"Rhein-Lahn-Kreis","type":"Landkreis"},"federalState":{"key":"07","name":"Rheinland-Pfalz"}},{"name":"Weinbergstr.","postalCode":"65558","locality":"Burgschwalbach","municipality":{"key":"07141020","name":"Burgschwalbach","type":"Kreisangehörige_Gemeinde"},"district":{"key":"07141","name":"Rhein-Lahn-Kreis","type":"Landkreis"},"federalState":{"key":"07","name":"Rheinland-Pfalz"}},{"name":"Wiesenstr.","postalCode":"65558","locality":"Burgschwalbach","municipality":{"key":"07141020","name":"Burgschwalbach","type":"Kreisangehörige_Gemeinde"},"district":{"key":"07141","name":"Rhein-Lahn-Kreis","type":"Landkreis"},"federalState":{"key":"07","name":"Rheinland-Pfalz"}},{"name":"Zum Burgblick","postalCode":"65558","locality":"Burgschwalbach","municipality":{"key":"07141020","name":"Burgschwalbach","type":"Kreisangehörige_Gemeinde"},"district":{"key":"07141","name":"Rhein-Lahn-Kreis","type":"Landkreis"},"federalState":{"key":"07","name":"Rheinland-Pfalz"}},]