[{"name":"Achtert Holt","postalCode":"23747","locality":"Dahme","municipality":{"key":"01055010","name":"Dahme","type":"Kreisangehörige_Gemeinde"},"district":{"key":"01055","name":"Ostholstein","type":"Kreis"},"federalState":{"key":"01","name":"Schleswig-Holstein"}},{"name":"Ackerstr.","postalCode":"15936","locality":"Dahme/Mark","municipality":{"key":"12072053","name":"Dahme/Mark, Stadt","type":"Stadt"},"district":{"key":"12072","name":"Teltow-Fläming","type":"Landkreis"},"federalState":{"key":"12","name":"Brandenburg"}},{"name":"Alleenstr.","postalCode":"17166","locality":"Dahmen","municipality":{"key":"13072023","name":"Dahmen","type":"Kreisangehörige_Gemeinde"},"district":{"key":"13072","name":"Landkreis Rostock","type":"Landkreis"},"federalState":{"key":"13","name":"Mecklenburg-Vorpommern"}},{"name":"Alte Dorfstr.","postalCode":"17166","locality":"Dahmen","municipality":{"key":"13072023","name":"Dahmen","type":"Kreisangehörige_Gemeinde"},"district":{"key":"13072","name":"Landkreis Rostock","type":"Landkreis"},"federalState":{"key":"13","name":"Mecklenburg-Vorpommern"}},{"name":"Altsorgefeld","postalCode":"15936","locality":"Dahme/Mark","municipality":{"key":"12072053","name":"Dahme/Mark, Stadt","type":"Stadt"},"district":{"key":"12072","name":"Teltow-Fläming","type":"Landkreis"},"federalState":{"key":"12","name":"Brandenburg"}},{"name":"Am Anger","postalCode":"17166","locality":"Dahmen","municipality":{"key":"13072023","name":"Dahmen","type":"Kreisangehörige_Gemeinde"},"district":{"key":"13072","name":"Landkreis Rostock","type":"Landkreis"},"federalState":{"key":"13","name":"Mecklenburg-Vorpommern"}},{"name":"Am Brook","postalCode":"23747","locality":"Dahme","municipality":{"key":"01055010","name":"Dahme","type":"Kreisangehörige_Gemeinde"},"district":{"key":"01055","name":"Ostholstein","type":"Kreis"},"federalState":{"key":"01","name":"Schleswig-Holstein"}},{"name":"Am Deich","postalCode":"23747","locality":"Dahme","municipality":{"key":"01055010","name":"Dahme","type":"Kreisangehörige_Gemeinde"},"district":{"key":"01055","name":"Ostholstein","type":"Kreis"},"federalState":{"key":"01","name":"Schleswig-Holstein"}},{"name":"Am Erlengrund","postalCode":"17166","locality":"Dahmen","municipality":{"key":"13072023","name":"Dahmen","type":"Kreisangehörige_Gemeinde"},"district":{"key":"13072","name":"Landkreis Rostock","type":"Landkreis"},"federalState":{"key":"13","name":"Mecklenburg-Vorpommern"}},{"name":"Am Kampland","postalCode":"23747","locality":"Dahme","municipality":{"key":"01055010","name":"Dahme","type":"Kreisangehörige_Gemeinde"},"district":{"key":"01055","name":"Ostholstein","type":"Kreis"},"federalState":{"key":"01","name":"Schleswig-Holstein"}},{"name":"Am Kanal","postalCode":"17166","locality":"Dahmen","municipality":{"key":"13072023","name":"Dahmen","type":"Kreisangehörige_Gemeinde"},"district":{"key":"13072","name":"Landkreis Rostock","type":"Landkreis"},"federalState":{"key":"13","name":"Mecklenburg-Vorpommern"}},{"name":"Am Kloster","postalCode":"15936","locality":"Dahme/Mark","municipality":{"key":"12072053","name":"Dahme/Mark, Stadt","type":"Stadt"},"district":{"key":"12072","name":"Teltow-Fläming","type":"Landkreis"},"federalState":{"key":"12","name":"Brandenburg"}},{"name":"Am Knüll","postalCode":"23747","locality":"Dahme","municipality":{"key":"01055010","name":"Dahme","type":"Kreisangehörige_Gemeinde"},"district":{"key":"01055","name":"Ostholstein","type":"Kreis"},"federalState":{"key":"01","name":"Schleswig-Holstein"}},{"name":"Am Kurpark","postalCode":"23747","locality":"Dahme","municipality":{"key":"01055010","name":"Dahme","type":"Kreisangehörige_Gemeinde"},"district":{"key":"01055","name":"Ostholstein","type":"Kreis"},"federalState":{"key":"01","name":"Schleswig-Holstein"}},{"name":"Am Schloß","postalCode":"15936","locality":"Dahme/Mark","municipality":{"key":"12072053","name":"Dahme/Mark, Stadt","type":"Stadt"},"district":{"key":"12072","name":"Teltow-Fläming","type":"Landkreis"},"federalState":{"key":"12","name":"Brandenburg"}},{"name":"Am Sportplatz","postalCode":"17166","locality":"Dahmen","municipality":{"key":"13072023","name":"Dahmen","type":"Kreisangehörige_Gemeinde"},"district":{"key":"13072","name":"Landkreis Rostock","type":"Landkreis"},"federalState":{"key":"13","name":"Mecklenburg-Vorpommern"}},{"name":"Am Stadtbad","postalCode":"15936","locality":"Dahme/Mark","municipality":{"key":"12072053","name":"Dahme/Mark, Stadt","type":"Stadt"},"district":{"key":"12072","name":"Teltow-Fläming","type":"Landkreis"},"federalState":{"key":"12","name":"Brandenburg"}},{"name":"Am Wittenwiewerbarg","postalCode":"23747","locality":"Dahme","municipality":{"key":"01055010","name":"Dahme","type":"Kreisangehörige_Gemeinde"},"district":{"key":"01055","name":"Ostholstein","type":"Kreis"},"federalState":{"key":"01","name":"Schleswig-Holstein"}},{"name":"An der Allee","postalCode":"23747","locality":"Dahme","municipality":{"key":"01055010","name":"Dahme","type":"Kreisangehörige_Gemeinde"},"district":{"key":"01055","name":"Ostholstein","type":"Kreis"},"federalState":{"key":"01","name":"Schleswig-Holstein"}},{"name":"An der Aue","postalCode":"23747","locality":"Dahme","municipality":{"key":"01055010","name":"Dahme","type":"Kreisangehörige_Gemeinde"},"district":{"key":"01055","name":"Ostholstein","type":"Kreis"},"federalState":{"key":"01","name":"Schleswig-Holstein"}},{"name":"Bahnhofstr.","postalCode":"15936","locality":"Dahme/Mark","municipality":{"key":"12072053","name":"Dahme/Mark, Stadt","type":"Stadt"},"district":{"key":"12072","name":"Teltow-Fläming","type":"Landkreis"},"federalState":{"key":"12","name":"Brandenburg"}},{"name":"Baruther Str.","postalCode":"15936","locality":"Dahme/Mark","municipality":{"key":"12072053","name":"Dahme/Mark, Stadt","type":"Stadt"},"district":{"key":"12072","name":"Teltow-Fläming","type":"Landkreis"},"federalState":{"key":"12","name":"Brandenburg"}},{"name":"Barz","postalCode":"17166","locality":"Dahmen","municipality":{"key":"13072023","name":"Dahmen","type":"Kreisangehörige_Gemeinde"},"district":{"key":"13072","name":"Landkreis Rostock","type":"Landkreis"},"federalState":{"key":"13","name":"Mecklenburg-Vorpommern"}},{"name":"Bauernredder","postalCode":"23747","locality":"Dahme","municipality":{"key":"01055010","name":"Dahme","type":"Kreisangehörige_Gemeinde"},"district":{"key":"01055","name":"Ostholstein","type":"Kreis"},"federalState":{"key":"01","name":"Schleswig-Holstein"}},{"name":"Berliner Str.","postalCode":"23747","locality":"Dahme","municipality":{"key":"01055010","name":"Dahme","type":"Kreisangehörige_Gemeinde"},"district":{"key":"01055","name":"Ostholstein","type":"Kreis"},"federalState":{"key":"01","name":"Schleswig-Holstein"}},{"name":"Bochstr.","postalCode":"15936","locality":"Dahme/Mark","municipality":{"key":"12072053","name":"Dahme/Mark, Stadt","type":"Stadt"},"district":{"key":"12072","name":"Teltow-Fläming","type":"Landkreis"},"federalState":{"key":"12","name":"Brandenburg"}},{"name":"Bodenreformweg","postalCode":"15936","locality":"Dahme/Mark","municipality":{"key":"12072053","name":"Dahme/Mark, Stadt","type":"Stadt"},"district":{"key":"12072","name":"Teltow-Fläming","type":"Landkreis"},"federalState":{"key":"12","name":"Brandenburg"}},{"name":"Braugasse","postalCode":"15936","locality":"Dahme/Mark","municipality":{"key":"12072053","name":"Dahme/Mark, Stadt","type":"Stadt"},"district":{"key":"12072","name":"Teltow-Fläming","type":"Landkreis"},"federalState":{"key":"12","name":"Brandenburg"}},{"name":"Breite Wiesenweg","postalCode":"15936","locality":"Dahme/Mark","municipality":{"key":"12072053","name":"Dahme/Mark, Stadt","type":"Stadt"},"district":{"key":"12072","name":"Teltow-Fläming","type":"Landkreis"},"federalState":{"key":"12","name":"Brandenburg"}},{"name":"Brookweg","postalCode":"23747","locality":"Dahme","municipality":{"key":"01055010","name":"Dahme","type":"Kreisangehörige_Gemeinde"},"district":{"key":"01055","name":"Ostholstein","type":"Kreis"},"federalState":{"key":"01","name":"Schleswig-Holstein"}},{"name":"Buckow","postalCode":"15936","locality":"Dahme/Mark","municipality":{"key":"12072053","name":"Dahme/Mark, Stadt","type":"Stadt"},"district":{"key":"12072","name":"Teltow-Fläming","type":"Landkreis"},"federalState":{"key":"12","name":"Brandenburg"}},{"name":"Burgtalweg","postalCode":"17166","locality":"Dahmen","municipality":{"key":"13072023","name":"Dahmen","type":"Kreisangehörige_Gemeinde"},"district":{"key":"13072","name":"Landkreis Rostock","type":"Landkreis"},"federalState":{"key":"13","name":"Mecklenburg-Vorpommern"}},{"name":"Cismarer Str.","postalCode":"23747","locality":"Dahme","municipality":{"key":"01055010","name":"Dahme","type":"Kreisangehörige_Gemeinde"},"district":{"key":"01055","name":"Ostholstein","type":"Kreis"},"federalState":{"key":"01","name":"Schleswig-Holstein"}},{"name":"Dahmerfelde","postalCode":"23747","locality":"Dahme","municipality":{"key":"01055010","name":"Dahme","type":"Kreisangehörige_Gemeinde"},"district":{"key":"01055","name":"Ostholstein","type":"Kreis"},"federalState":{"key":"01","name":"Schleswig-Holstein"}},{"name":"Denkmalplatz","postalCode":"23747","locality":"Dahme","municipality":{"key":"01055010","name":"Dahme","type":"Kreisangehörige_Gemeinde"},"district":{"key":"01055","name":"Ostholstein","type":"Kreis"},"federalState":{"key":"01","name":"Schleswig-Holstein"}},{"name":"Dorfstr.","postalCode":"15936","locality":"Dahme/Mark","municipality":{"key":"12072053","name":"Dahme/Mark, Stadt","type":"Stadt"},"district":{"key":"12072","name":"Teltow-Fläming","type":"Landkreis"},"federalState":{"key":"12","name":"Brandenburg"}},{"name":"Dorfstr.","postalCode":"17166","locality":"Dahmen","municipality":{"key":"13072023","name":"Dahmen","type":"Kreisangehörige_Gemeinde"},"district":{"key":"13072","name":"Landkreis Rostock","type":"Landkreis"},"federalState":{"key":"13","name":"Mecklenburg-Vorpommern"}},{"name":"Dresdener Str.","postalCode":"15936","locality":"Dahme/Mark","municipality":{"key":"12072053","name":"Dahme/Mark, Stadt","type":"Stadt"},"district":{"key":"12072","name":"Teltow-Fläming","type":"Landkreis"},"federalState":{"key":"12","name":"Brandenburg"}},{"name":"Falkenberger Weg","postalCode":"15936","locality":"Dahme/Mark","municipality":{"key":"12072053","name":"Dahme/Mark, Stadt","type":"Stadt"},"district":{"key":"12072","name":"Teltow-Fläming","type":"Landkreis"},"federalState":{"key":"12","name":"Brandenburg"}},{"name":"Fasanenweg","postalCode":"23747","locality":"Dahme","municipality":{"key":"01055010","name":"Dahme","type":"Kreisangehörige_Gemeinde"},"district":{"key":"01055","name":"Ostholstein","type":"Kreis"},"federalState":{"key":"01","name":"Schleswig-Holstein"}},{"name":"Friedhofsgasse","postalCode":"15936","locality":"Dahme/Mark","municipality":{"key":"12072053","name":"Dahme/Mark, Stadt","type":"Stadt"},"district":{"key":"12072","name":"Teltow-Fläming","type":"Landkreis"},"federalState":{"key":"12","name":"Brandenburg"}},{"name":"Ganterhals","postalCode":"23747","locality":"Dahme","municipality":{"key":"01055010","name":"Dahme","type":"Kreisangehörige_Gemeinde"},"district":{"key":"01055","name":"Ostholstein","type":"Kreis"},"federalState":{"key":"01","name":"Schleswig-Holstein"}},{"name":"Gartenstr.","postalCode":"15936","locality":"Dahme/Mark","municipality":{"key":"12072053","name":"Dahme/Mark, Stadt","type":"Stadt"},"district":{"key":"12072","name":"Teltow-Fläming","type":"Landkreis"},"federalState":{"key":"12","name":"Brandenburg"}},{"name":"Gärtnereiweg","postalCode":"15936","locality":"Dahme/Mark","municipality":{"key":"12072053","name":"Dahme/Mark, Stadt","type":"Stadt"},"district":{"key":"12072","name":"Teltow-Fläming","type":"Landkreis"},"federalState":{"key":"12","name":"Brandenburg"}},{"name":"Gebersdorf","postalCode":"15936","locality":"Dahme/Mark","municipality":{"key":"12072053","name":"Dahme/Mark, Stadt","type":"Stadt"},"district":{"key":"12072","name":"Teltow-Fläming","type":"Landkreis"},"federalState":{"key":"12","name":"Brandenburg"}},{"name":"Geschwister-Scholl-Str.","postalCode":"15936","locality":"Dahme/Mark","municipality":{"key":"12072053","name":"Dahme/Mark, Stadt","type":"Stadt"},"district":{"key":"12072","name":"Teltow-Fläming","type":"Landkreis"},"federalState":{"key":"12","name":"Brandenburg"}},{"name":"Gewerbegebiet","postalCode":"15936","locality":"Dahme/Mark","municipality":{"key":"12072053","name":"Dahme/Mark, Stadt","type":"Stadt"},"district":{"key":"12072","name":"Teltow-Fläming","type":"Landkreis"},"federalState":{"key":"12","name":"Brandenburg"}},{"name":"Görsdorf","postalCode":"15936","locality":"Dahmetal","municipality":{"key":"12072055","name":"Dahmetal","type":"Kreisangehörige_Gemeinde"},"district":{"key":"12072","name":"Teltow-Fläming","type":"Landkreis"},"federalState":{"key":"12","name":"Brandenburg"}},{"name":"Große Wildbahn","postalCode":"15936","locality":"Dahme/Mark","municipality":{"key":"12072053","name":"Dahme/Mark, Stadt","type":"Stadt"},"district":{"key":"12072","name":"Teltow-Fläming","type":"Landkreis"},"federalState":{"key":"12","name":"Brandenburg"}},{"name":"Gruber Weg","postalCode":"23747","locality":"Dahme","municipality":{"key":"01055010","name":"Dahme","type":"Kreisangehörige_Gemeinde"},"district":{"key":"01055","name":"Ostholstein","type":"Kreis"},"federalState":{"key":"01","name":"Schleswig-Holstein"}},{"name":"Grünstr.","postalCode":"15936","locality":"Dahme/Mark","municipality":{"key":"12072053","name":"Dahme/Mark, Stadt","type":"Stadt"},"district":{"key":"12072","name":"Teltow-Fläming","type":"Landkreis"},"federalState":{"key":"12","name":"Brandenburg"}},{"name":"Gutsweg","postalCode":"17166","locality":"Dahmen","municipality":{"key":"13072023","name":"Dahmen","type":"Kreisangehörige_Gemeinde"},"district":{"key":"13072","name":"Landkreis Rostock","type":"Landkreis"},"federalState":{"key":"13","name":"Mecklenburg-Vorpommern"}},{"name":"Haakestr.","postalCode":"23747","locality":"Dahme","municipality":{"key":"01055010","name":"Dahme","type":"Kreisangehörige_Gemeinde"},"district":{"key":"01055","name":"Ostholstein","type":"Kreis"},"federalState":{"key":"01","name":"Schleswig-Holstein"}},{"name":"Hauptstr.","postalCode":"15936","locality":"Dahme/Mark","municipality":{"key":"12072053","name":"Dahme/Mark, Stadt","type":"Stadt"},"district":{"key":"12072","name":"Teltow-Fläming","type":"Landkreis"},"federalState":{"key":"12","name":"Brandenburg"}},{"name":"Hauptweg","postalCode":"15936","locality":"Dahme/Mark","municipality":{"key":"12072053","name":"Dahme/Mark, Stadt","type":"Stadt"},"district":{"key":"12072","name":"Teltow-Fläming","type":"Landkreis"},"federalState":{"key":"12","name":"Brandenburg"}},{"name":"Heinrich-Mann-Str.","postalCode":"15936","locality":"Dahme/Mark","municipality":{"key":"12072053","name":"Dahme/Mark, Stadt","type":"Stadt"},"district":{"key":"12072","name":"Teltow-Fläming","type":"Landkreis"},"federalState":{"key":"12","name":"Brandenburg"}},{"name":"Heinsdorf-Angerstr.","postalCode":"15936","locality":"Dahme/Mark","municipality":{"key":"12072053","name":"Dahme/Mark, Stadt","type":"Stadt"},"district":{"key":"12072","name":"Teltow-Fläming","type":"Landkreis"},"federalState":{"key":"12","name":"Brandenburg"}},{"name":"Heinsdorf-Dahmer Weg","postalCode":"15936","locality":"Dahme/Mark","municipality":{"key":"12072053","name":"Dahme/Mark, Stadt","type":"Stadt"},"district":{"key":"12072","name":"Teltow-Fläming","type":"Landkreis"},"federalState":{"key":"12","name":"Brandenburg"}},{"name":"Heinsdorf-Gartenweg","postalCode":"15936","locality":"Dahme/Mark","municipality":{"key":"12072053","name":"Dahme/Mark, Stadt","type":"Stadt"},"district":{"key":"12072","name":"Teltow-Fläming","type":"Landkreis"},"federalState":{"key":"12","name":"Brandenburg"}},{"name":"Heinsdorf-Gutshof","postalCode":"15936","locality":"Dahme/Mark","municipality":{"key":"12072053","name":"Dahme/Mark, Stadt","type":"Stadt"},"district":{"key":"12072","name":"Teltow-Fläming","type":"Landkreis"},"federalState":{"key":"12","name":"Brandenburg"}},{"name":"Heinsdorf-Hohenseefelder Weg","postalCode":"15936","locality":"Dahme/Mark","municipality":{"key":"12072053","name":"Dahme/Mark, Stadt","type":"Stadt"},"district":{"key":"12072","name":"Teltow-Fläming","type":"Landkreis"},"federalState":{"key":"12","name":"Brandenburg"}},{"name":"Heinsdorf-Niebendorfer Str.","postalCode":"15936","locality":"Dahme/Mark","municipality":{"key":"12072053","name":"Dahme/Mark, Stadt","type":"Stadt"},"district":{"key":"12072","name":"Teltow-Fläming","type":"Landkreis"},"federalState":{"key":"12","name":"Brandenburg"}},{"name":"Heinsdorf-Parkstr.","postalCode":"15936","locality":"Dahme/Mark","municipality":{"key":"12072053","name":"Dahme/Mark, Stadt","type":"Stadt"},"district":{"key":"12072","name":"Teltow-Fläming","type":"Landkreis"},"federalState":{"key":"12","name":"Brandenburg"}},{"name":"Heinsdorf-Ringstr.","postalCode":"15936","locality":"Dahme/Mark","municipality":{"key":"12072053","name":"Dahme/Mark, Stadt","type":"Stadt"},"district":{"key":"12072","name":"Teltow-Fläming","type":"Landkreis"},"federalState":{"key":"12","name":"Brandenburg"}},{"name":"Herzberger Chaussee","postalCode":"15936","locality":"Dahme/Mark","municipality":{"key":"12072053","name":"Dahme/Mark, Stadt","type":"Stadt"},"district":{"key":"12072","name":"Teltow-Fläming","type":"Landkreis"},"federalState":{"key":"12","name":"Brandenburg"}},{"name":"Herzberger Str.","postalCode":"15936","locality":"Dahme/Mark","municipality":{"key":"12072053","name":"Dahme/Mark, Stadt","type":"Stadt"},"district":{"key":"12072","name":"Teltow-Fläming","type":"Landkreis"},"federalState":{"key":"12","name":"Brandenburg"}},{"name":"Im Apfelgarten","postalCode":"23747","locality":"Dahme","municipality":{"key":"01055010","name":"Dahme","type":"Kreisangehörige_Gemeinde"},"district":{"key":"01055","name":"Ostholstein","type":"Kreis"},"federalState":{"key":"01","name":"Schleswig-Holstein"}},{"name":"Im Winkel","postalCode":"23747","locality":"Dahme","municipality":{"key":"01055010","name":"Dahme","type":"Kreisangehörige_Gemeinde"},"district":{"key":"01055","name":"Ostholstein","type":"Kreis"},"federalState":{"key":"01","name":"Schleswig-Holstein"}},{"name":"Jägerstr.","postalCode":"15936","locality":"Dahme/Mark","municipality":{"key":"12072053","name":"Dahme/Mark, Stadt","type":"Stadt"},"district":{"key":"12072","name":"Teltow-Fläming","type":"Landkreis"},"federalState":{"key":"12","name":"Brandenburg"}},{"name":"Jahnweg","postalCode":"15936","locality":"Dahme/Mark","municipality":{"key":"12072053","name":"Dahme/Mark, Stadt","type":"Stadt"},"district":{"key":"12072","name":"Teltow-Fläming","type":"Landkreis"},"federalState":{"key":"12","name":"Brandenburg"}},{"name":"Jüterboger Chaussee","postalCode":"15936","locality":"Dahme/Mark","municipality":{"key":"12072053","name":"Dahme/Mark, Stadt","type":"Stadt"},"district":{"key":"12072","name":"Teltow-Fläming","type":"Landkreis"},"federalState":{"key":"12","name":"Brandenburg"}},{"name":"Jüterboger Str.","postalCode":"15936","locality":"Dahme/Mark","municipality":{"key":"12072053","name":"Dahme/Mark, Stadt","type":"Stadt"},"district":{"key":"12072","name":"Teltow-Fläming","type":"Landkreis"},"federalState":{"key":"12","name":"Brandenburg"}},{"name":"Karl-Liebknecht-Allee","postalCode":"15936","locality":"Dahme/Mark","municipality":{"key":"12072053","name":"Dahme/Mark, Stadt","type":"Stadt"},"district":{"key":"12072","name":"Teltow-Fläming","type":"Landkreis"},"federalState":{"key":"12","name":"Brandenburg"}},{"name":"Kellenhusener Weg","postalCode":"23747","locality":"Dahme","municipality":{"key":"01055010","name":"Dahme","type":"Kreisangehörige_Gemeinde"},"district":{"key":"01055","name":"Ostholstein","type":"Kreis"},"federalState":{"key":"01","name":"Schleswig-Holstein"}},{"name":"Kemlitz-Alter Weg","postalCode":"15936","locality":"Dahme/Mark","municipality":{"key":"12072053","name":"Dahme/Mark, Stadt","type":"Stadt"},"district":{"key":"12072","name":"Teltow-Fläming","type":"Landkreis"},"federalState":{"key":"12","name":"Brandenburg"}},{"name":"Kemlitz-Am Gut","postalCode":"15936","locality":"Dahme/Mark","municipality":{"key":"12072053","name":"Dahme/Mark, Stadt","type":"Stadt"},"district":{"key":"12072","name":"Teltow-Fläming","type":"Landkreis"},"federalState":{"key":"12","name":"Brandenburg"}},{"name":"Kemlitz-Dorfweg","postalCode":"15936","locality":"Dahme/Mark","municipality":{"key":"12072053","name":"Dahme/Mark, Stadt","type":"Stadt"},"district":{"key":"12072","name":"Teltow-Fläming","type":"Landkreis"},"federalState":{"key":"12","name":"Brandenburg"}},{"name":"Kemlitz-Neue Chaussee","postalCode":"15936","locality":"Dahme/Mark","municipality":{"key":"12072053","name":"Dahme/Mark, Stadt","type":"Stadt"},"district":{"key":"12072","name":"Teltow-Fläming","type":"Landkreis"},"federalState":{"key":"12","name":"Brandenburg"}},{"name":"Kemlitz-Str. des Friedens","postalCode":"15936","locality":"Dahme/Mark","municipality":{"key":"12072053","name":"Dahme/Mark, Stadt","type":"Stadt"},"district":{"key":"12072","name":"Teltow-Fläming","type":"Landkreis"},"federalState":{"key":"12","name":"Brandenburg"}},{"name":"Kemlitz-Wildauer Weg","postalCode":"15936","locality":"Dahme/Mark","municipality":{"key":"12072053","name":"Dahme/Mark, Stadt","type":"Stadt"},"district":{"key":"12072","name":"Teltow-Fläming","type":"Landkreis"},"federalState":{"key":"12","name":"Brandenburg"}},{"name":"Kemlitz-Wüstermarker Weg","postalCode":"15936","locality":"Dahme/Mark","municipality":{"key":"12072053","name":"Dahme/Mark, Stadt","type":"Stadt"},"district":{"key":"12072","name":"Teltow-Fläming","type":"Landkreis"},"federalState":{"key":"12","name":"Brandenburg"}},{"name":"Kemlitz-Zur Springe","postalCode":"15936","locality":"Dahme/Mark","municipality":{"key":"12072053","name":"Dahme/Mark, Stadt","type":"Stadt"},"district":{"key":"12072","name":"Teltow-Fläming","type":"Landkreis"},"federalState":{"key":"12","name":"Brandenburg"}},{"name":"Kiefernweg","postalCode":"15936","locality":"Dahme/Mark","municipality":{"key":"12072053","name":"Dahme/Mark, Stadt","type":"Stadt"},"district":{"key":"12072","name":"Teltow-Fläming","type":"Landkreis"},"federalState":{"key":"12","name":"Brandenburg"}},{"name":"Kirchenweg","postalCode":"23747","locality":"Dahme","municipality":{"key":"01055010","name":"Dahme","type":"Kreisangehörige_Gemeinde"},"district":{"key":"01055","name":"Ostholstein","type":"Kreis"},"federalState":{"key":"01","name":"Schleswig-Holstein"}},{"name":"Kirchsteig","postalCode":"17166","locality":"Dahmen","municipality":{"key":"13072023","name":"Dahmen","type":"Kreisangehörige_Gemeinde"},"district":{"key":"13072","name":"Landkreis Rostock","type":"Landkreis"},"federalState":{"key":"13","name":"Mecklenburg-Vorpommern"}},{"name":"Kirchstr.","postalCode":"15936","locality":"Dahme/Mark","municipality":{"key":"12072053","name":"Dahme/Mark, Stadt","type":"Stadt"},"district":{"key":"12072","name":"Teltow-Fläming","type":"Landkreis"},"federalState":{"key":"12","name":"Brandenburg"}},{"name":"Klimantweg","postalCode":"23747","locality":"Dahme","municipality":{"key":"01055010","name":"Dahme","type":"Kreisangehörige_Gemeinde"},"district":{"key":"01055","name":"Ostholstein","type":"Kreis"},"federalState":{"key":"01","name":"Schleswig-Holstein"}},{"name":"Kolonie","postalCode":"15936","locality":"Dahme/Mark","municipality":{"key":"12072053","name":"Dahme/Mark, Stadt","type":"Stadt"},"district":{"key":"12072","name":"Teltow-Fläming","type":"Landkreis"},"federalState":{"key":"12","name":"Brandenburg"}},{"name":"Kolpien","postalCode":"15936","locality":"Dahme/Mark","municipality":{"key":"12072053","name":"Dahme/Mark, Stadt","type":"Stadt"},"district":{"key":"12072","name":"Teltow-Fläming","type":"Landkreis"},"federalState":{"key":"12","name":"Brandenburg"}},{"name":"Kornhof","postalCode":"23747","locality":"Dahme","municipality":{"key":"01055010","name":"Dahme","type":"Kreisangehörige_Gemeinde"},"district":{"key":"01055","name":"Ostholstein","type":"Kreis"},"federalState":{"key":"01","name":"Schleswig-Holstein"}},{"name":"Kurpark","postalCode":"23747","locality":"Dahme","municipality":{"key":"01055010","name":"Dahme","type":"Kreisangehörige_Gemeinde"},"district":{"key":"01055","name":"Ostholstein","type":"Kreis"},"federalState":{"key":"01","name":"Schleswig-Holstein"}},{"name":"Lange Gasse","postalCode":"15936","locality":"Dahme/Mark","municipality":{"key":"12072053","name":"Dahme/Mark, Stadt","type":"Stadt"},"district":{"key":"12072","name":"Teltow-Fläming","type":"Landkreis"},"federalState":{"key":"12","name":"Brandenburg"}},{"name":"Lange Wiese","postalCode":"23747","locality":"Dahme","municipality":{"key":"01055010","name":"Dahme","type":"Kreisangehörige_Gemeinde"},"district":{"key":"01055","name":"Ostholstein","type":"Kreis"},"federalState":{"key":"01","name":"Schleswig-Holstein"}},{"name":"Lebusaer Str.","postalCode":"15936","locality":"Dahme/Mark","municipality":{"key":"12072053","name":"Dahme/Mark, Stadt","type":"Stadt"},"district":{"key":"12072","name":"Teltow-Fläming","type":"Landkreis"},"federalState":{"key":"12","name":"Brandenburg"}},{"name":"Leuchtturmstr.","postalCode":"23747","locality":"Dahme","municipality":{"key":"01055010","name":"Dahme","type":"Kreisangehörige_Gemeinde"},"district":{"key":"01055","name":"Ostholstein","type":"Kreis"},"federalState":{"key":"01","name":"Schleswig-Holstein"}},{"name":"Liebsdorf","postalCode":"15936","locality":"Dahmetal","municipality":{"key":"12072055","name":"Dahmetal","type":"Kreisangehörige_Gemeinde"},"district":{"key":"12072","name":"Teltow-Fläming","type":"Landkreis"},"federalState":{"key":"12","name":"Brandenburg"}},{"name":"Liedekahle","postalCode":"15936","locality":"Dahmetal","municipality":{"key":"12072055","name":"Dahmetal","type":"Kreisangehörige_Gemeinde"},"district":{"key":"12072","name":"Teltow-Fläming","type":"Landkreis"},"federalState":{"key":"12","name":"Brandenburg"}},{"name":"Liepe","postalCode":"15936","locality":"Dahme/Mark","municipality":{"key":"12072053","name":"Dahme/Mark, Stadt","type":"Stadt"},"district":{"key":"12072","name":"Teltow-Fläming","type":"Landkreis"},"federalState":{"key":"12","name":"Brandenburg"}},{"name":"Lindenstr.","postalCode":"17166","locality":"Dahmen","municipality":{"key":"13072023","name":"Dahmen","type":"Kreisangehörige_Gemeinde"},"district":{"key":"13072","name":"Landkreis Rostock","type":"Landkreis"},"federalState":{"key":"13","name":"Mecklenburg-Vorpommern"}},{"name":"Luckauer Chaussee","postalCode":"15936","locality":"Dahme/Mark","municipality":{"key":"12072053","name":"Dahme/Mark, Stadt","type":"Stadt"},"district":{"key":"12072","name":"Teltow-Fläming","type":"Landkreis"},"federalState":{"key":"12","name":"Brandenburg"}},{"name":"Luckauer Str.","postalCode":"15936","locality":"Dahme/Mark","municipality":{"key":"12072053","name":"Dahme/Mark, Stadt","type":"Stadt"},"district":{"key":"12072","name":"Teltow-Fläming","type":"Landkreis"},"federalState":{"key":"12","name":"Brandenburg"}},{"name":"Luckenwalder Str.","postalCode":"15936","locality":"Dahme/Mark","municipality":{"key":"12072053","name":"Dahme/Mark, Stadt","type":"Stadt"},"district":{"key":"12072","name":"Teltow-Fläming","type":"Landkreis"},"federalState":{"key":"12","name":"Brandenburg"}},{"name":"Mauergasse","postalCode":"15936","locality":"Dahme/Mark","municipality":{"key":"12072053","name":"Dahme/Mark, Stadt","type":"Stadt"},"district":{"key":"12072","name":"Teltow-Fläming","type":"Landkreis"},"federalState":{"key":"12","name":"Brandenburg"}},{"name":"Max-Hannemann-Str.","postalCode":"15936","locality":"Dahme/Mark","municipality":{"key":"12072053","name":"Dahme/Mark, Stadt","type":"Stadt"},"district":{"key":"12072","name":"Teltow-Fläming","type":"Landkreis"},"federalState":{"key":"12","name":"Brandenburg"}},{"name":"Mehlsdorfer Weg","postalCode":"15936","locality":"Dahme/Mark","municipality":{"key":"12072053","name":"Dahme/Mark, Stadt","type":"Stadt"},"district":{"key":"12072","name":"Teltow-Fläming","type":"Landkreis"},"federalState":{"key":"12","name":"Brandenburg"}},{"name":"Memelstr.","postalCode":"23747","locality":"Dahme","municipality":{"key":"01055010","name":"Dahme","type":"Kreisangehörige_Gemeinde"},"district":{"key":"01055","name":"Ostholstein","type":"Kreis"},"federalState":{"key":"01","name":"Schleswig-Holstein"}},{"name":"Mittelstr.","postalCode":"15936","locality":"Dahme/Mark","municipality":{"key":"12072053","name":"Dahme/Mark, Stadt","type":"Stadt"},"district":{"key":"12072","name":"Teltow-Fläming","type":"Landkreis"},"federalState":{"key":"12","name":"Brandenburg"}},{"name":"Mühlenstr.","postalCode":"17166","locality":"Dahmen","municipality":{"key":"13072023","name":"Dahmen","type":"Kreisangehörige_Gemeinde"},"district":{"key":"13072","name":"Landkreis Rostock","type":"Landkreis"},"federalState":{"key":"13","name":"Mecklenburg-Vorpommern"}},{"name":"Nachthainichenweg","postalCode":"15936","locality":"Dahme/Mark","municipality":{"key":"12072053","name":"Dahme/Mark, Stadt","type":"Stadt"},"district":{"key":"12072","name":"Teltow-Fläming","type":"Landkreis"},"federalState":{"key":"12","name":"Brandenburg"}},{"name":"Neuer Weg","postalCode":"15936","locality":"Dahme/Mark","municipality":{"key":"12072053","name":"Dahme/Mark, Stadt","type":"Stadt"},"district":{"key":"12072","name":"Teltow-Fläming","type":"Landkreis"},"federalState":{"key":"12","name":"Brandenburg"}},{"name":"Neuhäuser Erholungsgebiet","postalCode":"17166","locality":"Dahmen","municipality":{"key":"13072023","name":"Dahmen","type":"Kreisangehörige_Gemeinde"},"district":{"key":"13072","name":"Landkreis Rostock","type":"Landkreis"},"federalState":{"key":"13","name":"Mecklenburg-Vorpommern"}},{"name":"Neu Ziddorf","postalCode":"17166","locality":"Dahmen","municipality":{"key":"13072023","name":"Dahmen","type":"Kreisangehörige_Gemeinde"},"district":{"key":"13072","name":"Landkreis Rostock","type":"Landkreis"},"federalState":{"key":"13","name":"Mecklenburg-Vorpommern"}},{"name":"Niebendorf","postalCode":"15936","locality":"Dahme/Mark","municipality":{"key":"12072053","name":"Dahme/Mark, Stadt","type":"Stadt"},"district":{"key":"12072","name":"Teltow-Fläming","type":"Landkreis"},"federalState":{"key":"12","name":"Brandenburg"}},{"name":"Niendorfer Landstr.","postalCode":"15936","locality":"Dahme/Mark","municipality":{"key":"12072053","name":"Dahme/Mark, Stadt","type":"Stadt"},"district":{"key":"12072","name":"Teltow-Fläming","type":"Landkreis"},"federalState":{"key":"12","name":"Brandenburg"}},{"name":"Niendorfer Weg","postalCode":"15936","locality":"Dahme/Mark","municipality":{"key":"12072053","name":"Dahme/Mark, Stadt","type":"Stadt"},"district":{"key":"12072","name":"Teltow-Fläming","type":"Landkreis"},"federalState":{"key":"12","name":"Brandenburg"}},{"name":"Nordhag","postalCode":"15936","locality":"Dahme/Mark","municipality":{"key":"12072053","name":"Dahme/Mark, Stadt","type":"Stadt"},"district":{"key":"12072","name":"Teltow-Fläming","type":"Landkreis"},"federalState":{"key":"12","name":"Brandenburg"}},{"name":"Parkstr.","postalCode":"17166","locality":"Dahmen","municipality":{"key":"13072023","name":"Dahmen","type":"Kreisangehörige_Gemeinde"},"district":{"key":"13072","name":"Landkreis Rostock","type":"Landkreis"},"federalState":{"key":"13","name":"Mecklenburg-Vorpommern"}},{"name":"Parkweg","postalCode":"17166","locality":"Dahmen","municipality":{"key":"13072023","name":"Dahmen","type":"Kreisangehörige_Gemeinde"},"district":{"key":"13072","name":"Landkreis Rostock","type":"Landkreis"},"federalState":{"key":"13","name":"Mecklenburg-Vorpommern"}},{"name":"Peenhäuser","postalCode":"17166","locality":"Dahmen","municipality":{"key":"13072023","name":"Dahmen","type":"Kreisangehörige_Gemeinde"},"district":{"key":"13072","name":"Landkreis Rostock","type":"Landkreis"},"federalState":{"key":"13","name":"Mecklenburg-Vorpommern"}},{"name":"Prensdorf","postalCode":"15936","locality":"Dahmetal","municipality":{"key":"12072055","name":"Dahmetal","type":"Kreisangehörige_Gemeinde"},"district":{"key":"12072","name":"Teltow-Fläming","type":"Landkreis"},"federalState":{"key":"12","name":"Brandenburg"}},{"name":"Quellweg","postalCode":"15936","locality":"Dahme/Mark","municipality":{"key":"12072053","name":"Dahme/Mark, Stadt","type":"Stadt"},"district":{"key":"12072","name":"Teltow-Fläming","type":"Landkreis"},"federalState":{"key":"12","name":"Brandenburg"}},{"name":"Querstr.","postalCode":"23747","locality":"Dahme","municipality":{"key":"01055010","name":"Dahme","type":"Kreisangehörige_Gemeinde"},"district":{"key":"01055","name":"Ostholstein","type":"Kreis"},"federalState":{"key":"01","name":"Schleswig-Holstein"}},{"name":"Rehainweg","postalCode":"15936","locality":"Dahme/Mark","municipality":{"key":"12072053","name":"Dahme/Mark, Stadt","type":"Stadt"},"district":{"key":"12072","name":"Teltow-Fläming","type":"Landkreis"},"federalState":{"key":"12","name":"Brandenburg"}},{"name":"Rietdorfer Weg","postalCode":"15936","locality":"Dahme/Mark","municipality":{"key":"12072053","name":"Dahme/Mark, Stadt","type":"Stadt"},"district":{"key":"12072","name":"Teltow-Fläming","type":"Landkreis"},"federalState":{"key":"12","name":"Brandenburg"}},{"name":"Rosenthal","postalCode":"15936","locality":"Dahme/Mark","municipality":{"key":"12072053","name":"Dahme/Mark, Stadt","type":"Stadt"},"district":{"key":"12072","name":"Teltow-Fläming","type":"Landkreis"},"federalState":{"key":"12","name":"Brandenburg"}},{"name":"Rothenmoor","postalCode":"17166","locality":"Dahmen","municipality":{"key":"13072023","name":"Dahmen","type":"Kreisangehörige_Gemeinde"},"district":{"key":"13072","name":"Landkreis Rostock","type":"Landkreis"},"federalState":{"key":"13","name":"Mecklenburg-Vorpommern"}},{"name":"Rudolf-Breitscheid-Str.","postalCode":"15936","locality":"Dahme/Mark","municipality":{"key":"12072053","name":"Dahme/Mark, Stadt","type":"Stadt"},"district":{"key":"12072","name":"Teltow-Fläming","type":"Landkreis"},"federalState":{"key":"12","name":"Brandenburg"}},{"name":"Saarstr.","postalCode":"23747","locality":"Dahme","municipality":{"key":"01055010","name":"Dahme","type":"Kreisangehörige_Gemeinde"},"district":{"key":"01055","name":"Ostholstein","type":"Kreis"},"federalState":{"key":"01","name":"Schleswig-Holstein"}},{"name":"Schellstr.","postalCode":"15936","locality":"Dahme/Mark","municipality":{"key":"12072053","name":"Dahme/Mark, Stadt","type":"Stadt"},"district":{"key":"12072","name":"Teltow-Fläming","type":"Landkreis"},"federalState":{"key":"12","name":"Brandenburg"}},{"name":"Scheunenfeldweg","postalCode":"15936","locality":"Dahme/Mark","municipality":{"key":"12072053","name":"Dahme/Mark, Stadt","type":"Stadt"},"district":{"key":"12072","name":"Teltow-Fläming","type":"Landkreis"},"federalState":{"key":"12","name":"Brandenburg"}},{"name":"Schlehenberg","postalCode":"17166","locality":"Dahmen","municipality":{"key":"13072023","name":"Dahmen","type":"Kreisangehörige_Gemeinde"},"district":{"key":"13072","name":"Landkreis Rostock","type":"Landkreis"},"federalState":{"key":"13","name":"Mecklenburg-Vorpommern"}},{"name":"Schloßgasse","postalCode":"15936","locality":"Dahme/Mark","municipality":{"key":"12072053","name":"Dahme/Mark, Stadt","type":"Stadt"},"district":{"key":"12072","name":"Teltow-Fläming","type":"Landkreis"},"federalState":{"key":"12","name":"Brandenburg"}},{"name":"Schloßpark","postalCode":"15936","locality":"Dahme/Mark","municipality":{"key":"12072053","name":"Dahme/Mark, Stadt","type":"Stadt"},"district":{"key":"12072","name":"Teltow-Fläming","type":"Landkreis"},"federalState":{"key":"12","name":"Brandenburg"}},{"name":"Schöna","postalCode":"15936","locality":"Dahme/Mark","municipality":{"key":"12072053","name":"Dahme/Mark, Stadt","type":"Stadt"},"district":{"key":"12072","name":"Teltow-Fläming","type":"Landkreis"},"federalState":{"key":"12","name":"Brandenburg"}},{"name":"Schulstr.","postalCode":"17166","locality":"Dahmen","municipality":{"key":"13072023","name":"Dahmen","type":"Kreisangehörige_Gemeinde"},"district":{"key":"13072","name":"Landkreis Rostock","type":"Landkreis"},"federalState":{"key":"13","name":"Mecklenburg-Vorpommern"}},{"name":"Schwarzer Weg","postalCode":"17166","locality":"Dahmen","municipality":{"key":"13072023","name":"Dahmen","type":"Kreisangehörige_Gemeinde"},"district":{"key":"13072","name":"Landkreis Rostock","type":"Landkreis"},"federalState":{"key":"13","name":"Mecklenburg-Vorpommern"}},{"name":"Schwebendorf","postalCode":"15936","locality":"Dahme/Mark","municipality":{"key":"12072053","name":"Dahme/Mark, Stadt","type":"Stadt"},"district":{"key":"12072","name":"Teltow-Fläming","type":"Landkreis"},"federalState":{"key":"12","name":"Brandenburg"}},{"name":"Schwebendorfer Weg","postalCode":"15936","locality":"Dahme/Mark","municipality":{"key":"12072053","name":"Dahme/Mark, Stadt","type":"Stadt"},"district":{"key":"12072","name":"Teltow-Fläming","type":"Landkreis"},"federalState":{"key":"12","name":"Brandenburg"}},{"name":"Seebrücke Dahme","postalCode":"23747","locality":"Dahme","municipality":{"key":"01055010","name":"Dahme","type":"Kreisangehörige_Gemeinde"},"district":{"key":"01055","name":"Ostholstein","type":"Kreis"},"federalState":{"key":"01","name":"Schleswig-Holstein"}},{"name":"Seesternweg","postalCode":"23747","locality":"Dahme","municipality":{"key":"01055010","name":"Dahme","type":"Kreisangehörige_Gemeinde"},"district":{"key":"01055","name":"Ostholstein","type":"Kreis"},"federalState":{"key":"01","name":"Schleswig-Holstein"}},{"name":"Seestr.","postalCode":"17166","locality":"Dahmen","municipality":{"key":"13072023","name":"Dahmen","type":"Kreisangehörige_Gemeinde"},"district":{"key":"13072","name":"Landkreis Rostock","type":"Landkreis"},"federalState":{"key":"13","name":"Mecklenburg-Vorpommern"}},{"name":"Seestr.","postalCode":"23747","locality":"Dahme","municipality":{"key":"01055010","name":"Dahme","type":"Kreisangehörige_Gemeinde"},"district":{"key":"01055","name":"Ostholstein","type":"Kreis"},"federalState":{"key":"01","name":"Schleswig-Holstein"}},{"name":"Sieb Eichengrund","postalCode":"15936","locality":"Dahme/Mark","municipality":{"key":"12072053","name":"Dahme/Mark, Stadt","type":"Stadt"},"district":{"key":"12072","name":"Teltow-Fläming","type":"Landkreis"},"federalState":{"key":"12","name":"Brandenburg"}},{"name":"Sportplatz","postalCode":"23747","locality":"Dahme","municipality":{"key":"01055010","name":"Dahme","type":"Kreisangehörige_Gemeinde"},"district":{"key":"01055","name":"Ostholstein","type":"Kreis"},"federalState":{"key":"01","name":"Schleswig-Holstein"}},{"name":"Stiftweg","postalCode":"15936","locality":"Dahme/Mark","municipality":{"key":"12072053","name":"Dahme/Mark, Stadt","type":"Stadt"},"district":{"key":"12072","name":"Teltow-Fläming","type":"Landkreis"},"federalState":{"key":"12","name":"Brandenburg"}},{"name":"Stinkbütelsgang","postalCode":"23747","locality":"Dahme","municipality":{"key":"01055010","name":"Dahme","type":"Kreisangehörige_Gemeinde"},"district":{"key":"01055","name":"Ostholstein","type":"Kreis"},"federalState":{"key":"01","name":"Schleswig-Holstein"}},{"name":"Strandbereich","postalCode":"15936","locality":"Dahme/Mark","municipality":{"key":"12072053","name":"Dahme/Mark, Stadt","type":"Stadt"},"district":{"key":"12072","name":"Teltow-Fläming","type":"Landkreis"},"federalState":{"key":"12","name":"Brandenburg"}},{"name":"Strandstr.","postalCode":"23747","locality":"Dahme","municipality":{"key":"01055010","name":"Dahme","type":"Kreisangehörige_Gemeinde"},"district":{"key":"01055","name":"Ostholstein","type":"Kreis"},"federalState":{"key":"01","name":"Schleswig-Holstein"}},{"name":"Strandweg","postalCode":"23747","locality":"Dahme","municipality":{"key":"01055010","name":"Dahme","type":"Kreisangehörige_Gemeinde"},"district":{"key":"01055","name":"Ostholstein","type":"Kreis"},"federalState":{"key":"01","name":"Schleswig-Holstein"}},{"name":"Strandwiese","postalCode":"23747","locality":"Dahme","municipality":{"key":"01055010","name":"Dahme","type":"Kreisangehörige_Gemeinde"},"district":{"key":"01055","name":"Ostholstein","type":"Kreis"},"federalState":{"key":"01","name":"Schleswig-Holstein"}},{"name":"Thomas-Müntzer-Weg","postalCode":"15936","locality":"Dahme/Mark","municipality":{"key":"12072053","name":"Dahme/Mark, Stadt","type":"Stadt"},"district":{"key":"12072","name":"Teltow-Fläming","type":"Landkreis"},"federalState":{"key":"12","name":"Brandenburg"}},{"name":"Töpfermarkt","postalCode":"15936","locality":"Dahme/Mark","municipality":{"key":"12072053","name":"Dahme/Mark, Stadt","type":"Stadt"},"district":{"key":"12072","name":"Teltow-Fläming","type":"Landkreis"},"federalState":{"key":"12","name":"Brandenburg"}},{"name":"Töpferstr.","postalCode":"15936","locality":"Dahme/Mark","municipality":{"key":"12072053","name":"Dahme/Mark, Stadt","type":"Stadt"},"district":{"key":"12072","name":"Teltow-Fläming","type":"Landkreis"},"federalState":{"key":"12","name":"Brandenburg"}},{"name":"Torgasse","postalCode":"15936","locality":"Dahme/Mark","municipality":{"key":"12072053","name":"Dahme/Mark, Stadt","type":"Stadt"},"district":{"key":"12072","name":"Teltow-Fläming","type":"Landkreis"},"federalState":{"key":"12","name":"Brandenburg"}},{"name":"Tränkestr.","postalCode":"15936","locality":"Dahme/Mark","municipality":{"key":"12072053","name":"Dahme/Mark, Stadt","type":"Stadt"},"district":{"key":"12072","name":"Teltow-Fläming","type":"Landkreis"},"federalState":{"key":"12","name":"Brandenburg"}},{"name":"Trift","postalCode":"15936","locality":"Dahme/Mark","municipality":{"key":"12072053","name":"Dahme/Mark, Stadt","type":"Stadt"},"district":{"key":"12072","name":"Teltow-Fläming","type":"Landkreis"},"federalState":{"key":"12","name":"Brandenburg"}},{"name":"Ulmenweg","postalCode":"23747","locality":"Dahme","municipality":{"key":"01055010","name":"Dahme","type":"Kreisangehörige_Gemeinde"},"district":{"key":"01055","name":"Ostholstein","type":"Kreis"},"federalState":{"key":"01","name":"Schleswig-Holstein"}},{"name":"Wahlsdorf","postalCode":"15936","locality":"Dahme/Mark","municipality":{"key":"12072053","name":"Dahme/Mark, Stadt","type":"Stadt"},"district":{"key":"12072","name":"Teltow-Fläming","type":"Landkreis"},"federalState":{"key":"12","name":"Brandenburg"}},{"name":"Waldlehrpfad \"Alte Elbe\"","postalCode":"15936","locality":"Dahme/Mark","municipality":{"key":"12072053","name":"Dahme/Mark, Stadt","type":"Stadt"},"district":{"key":"12072","name":"Teltow-Fläming","type":"Landkreis"},"federalState":{"key":"12","name":"Brandenburg"}},{"name":"Waldstr.","postalCode":"23747","locality":"Dahme","municipality":{"key":"01055010","name":"Dahme","type":"Kreisangehörige_Gemeinde"},"district":{"key":"01055","name":"Ostholstein","type":"Kreis"},"federalState":{"key":"01","name":"Schleswig-Holstein"}},{"name":"Waldweg","postalCode":"23747","locality":"Dahme","municipality":{"key":"01055010","name":"Dahme","type":"Kreisangehörige_Gemeinde"},"district":{"key":"01055","name":"Ostholstein","type":"Kreis"},"federalState":{"key":"01","name":"Schleswig-Holstein"}},{"name":"Wallstr.","postalCode":"15936","locality":"Dahme/Mark","municipality":{"key":"12072053","name":"Dahme/Mark, Stadt","type":"Stadt"},"district":{"key":"12072","name":"Teltow-Fläming","type":"Landkreis"},"federalState":{"key":"12","name":"Brandenburg"}},{"name":"Weiße Siedlung","postalCode":"15936","locality":"Dahme/Mark","municipality":{"key":"12072053","name":"Dahme/Mark, Stadt","type":"Stadt"},"district":{"key":"12072","name":"Teltow-Fläming","type":"Landkreis"},"federalState":{"key":"12","name":"Brandenburg"}},{"name":"Wiesenweg","postalCode":"17166","locality":"Dahmen","municipality":{"key":"13072023","name":"Dahmen","type":"Kreisangehörige_Gemeinde"},"district":{"key":"13072","name":"Landkreis Rostock","type":"Landkreis"},"federalState":{"key":"13","name":"Mecklenburg-Vorpommern"}},{"name":"Wildau-Wentdorf","postalCode":"15936","locality":"Dahmetal","municipality":{"key":"12072055","name":"Dahmetal","type":"Kreisangehörige_Gemeinde"},"district":{"key":"12072","name":"Teltow-Fläming","type":"Landkreis"},"federalState":{"key":"12","name":"Brandenburg"}},{"name":"Zagelsdorf","postalCode":"15936","locality":"Dahme/Mark","municipality":{"key":"12072053","name":"Dahme/Mark, Stadt","type":"Stadt"},"district":{"key":"12072","name":"Teltow-Fläming","type":"Landkreis"},"federalState":{"key":"12","name":"Brandenburg"}},{"name":"Zagelsdorfer Damm","postalCode":"15936","locality":"Dahme/Mark","municipality":{"key":"12072053","name":"Dahme/Mark, Stadt","type":"Stadt"},"district":{"key":"12072","name":"Teltow-Fläming","type":"Landkreis"},"federalState":{"key":"12","name":"Brandenburg"}},{"name":"Zum Seeblick","postalCode":"17166","locality":"Dahmen","municipality":{"key":"13072023","name":"Dahmen","type":"Kreisangehörige_Gemeinde"},"district":{"key":"13072","name":"Landkreis Rostock","type":"Landkreis"},"federalState":{"key":"13","name":"Mecklenburg-Vorpommern"}},{"name":"Zur Blaue","postalCode":"15936","locality":"Dahme/Mark","municipality":{"key":"12072053","name":"Dahme/Mark, Stadt","type":"Stadt"},"district":{"key":"12072","name":"Teltow-Fläming","type":"Landkreis"},"federalState":{"key":"12","name":"Brandenburg"}},]