[{"name":"Am Ellerhoop","postalCode":"27404","locality":"Rhade","municipality":{"key":"03357038","name":"Rhade","type":"Kreisangehörige_Gemeinde"},"district":{"key":"03357","name":"Rotenburg (Wümme)","type":"Landkreis"},"federalState":{"key":"03","name":"Niedersachsen"}},{"name":"Am Sportplatz","postalCode":"27404","locality":"Rhade","municipality":{"key":"03357038","name":"Rhade","type":"Kreisangehörige_Gemeinde"},"district":{"key":"03357","name":"Rotenburg (Wümme)","type":"Landkreis"},"federalState":{"key":"03","name":"Niedersachsen"}},{"name":"Am Steg","postalCode":"27404","locality":"Rhade","municipality":{"key":"03357038","name":"Rhade","type":"Kreisangehörige_Gemeinde"},"district":{"key":"03357","name":"Rotenburg (Wümme)","type":"Landkreis"},"federalState":{"key":"03","name":"Niedersachsen"}},{"name":"Bahnhofstr.","postalCode":"27404","locality":"Rhade","municipality":{"key":"03357038","name":"Rhade","type":"Kreisangehörige_Gemeinde"},"district":{"key":"03357","name":"Rotenburg (Wümme)","type":"Landkreis"},"federalState":{"key":"03","name":"Niedersachsen"}},{"name":"Bolleweg","postalCode":"27404","locality":"Rhade","municipality":{"key":"03357038","name":"Rhade","type":"Kreisangehörige_Gemeinde"},"district":{"key":"03357","name":"Rotenburg (Wümme)","type":"Landkreis"},"federalState":{"key":"03","name":"Niedersachsen"}},{"name":"Brinkweg","postalCode":"27404","locality":"Rhade","municipality":{"key":"03357038","name":"Rhade","type":"Kreisangehörige_Gemeinde"},"district":{"key":"03357","name":"Rotenburg (Wümme)","type":"Landkreis"},"federalState":{"key":"03","name":"Niedersachsen"}},{"name":"Bruchdamm","postalCode":"27404","locality":"Rhade","municipality":{"key":"03357038","name":"Rhade","type":"Kreisangehörige_Gemeinde"},"district":{"key":"03357","name":"Rotenburg (Wümme)","type":"Landkreis"},"federalState":{"key":"03","name":"Niedersachsen"}},{"name":"Eckrehm","postalCode":"27404","locality":"Rhade","municipality":{"key":"03357038","name":"Rhade","type":"Kreisangehörige_Gemeinde"},"district":{"key":"03357","name":"Rotenburg (Wümme)","type":"Landkreis"},"federalState":{"key":"03","name":"Niedersachsen"}},{"name":"Feuerhörn","postalCode":"27404","locality":"Rhade","municipality":{"key":"03357038","name":"Rhade","type":"Kreisangehörige_Gemeinde"},"district":{"key":"03357","name":"Rotenburg (Wümme)","type":"Landkreis"},"federalState":{"key":"03","name":"Niedersachsen"}},{"name":"Flötenkiel","postalCode":"27404","locality":"Rhade","municipality":{"key":"03357038","name":"Rhade","type":"Kreisangehörige_Gemeinde"},"district":{"key":"03357","name":"Rotenburg (Wümme)","type":"Landkreis"},"federalState":{"key":"03","name":"Niedersachsen"}},{"name":"Friedhofstr.","postalCode":"27404","locality":"Rhade","municipality":{"key":"03357038","name":"Rhade","type":"Kreisangehörige_Gemeinde"},"district":{"key":"03357","name":"Rotenburg (Wümme)","type":"Landkreis"},"federalState":{"key":"03","name":"Niedersachsen"}},{"name":"Gartenstr.","postalCode":"27404","locality":"Rhade","municipality":{"key":"03357038","name":"Rhade","type":"Kreisangehörige_Gemeinde"},"district":{"key":"03357","name":"Rotenburg (Wümme)","type":"Landkreis"},"federalState":{"key":"03","name":"Niedersachsen"}},{"name":"Grode Wisch","postalCode":"27404","locality":"Rhade","municipality":{"key":"03357038","name":"Rhade","type":"Kreisangehörige_Gemeinde"},"district":{"key":"03357","name":"Rotenburg (Wümme)","type":"Landkreis"},"federalState":{"key":"03","name":"Niedersachsen"}},{"name":"Hanstedter Str.","postalCode":"27404","locality":"Rhade","municipality":{"key":"03357038","name":"Rhade","type":"Kreisangehörige_Gemeinde"},"district":{"key":"03357","name":"Rotenburg (Wümme)","type":"Landkreis"},"federalState":{"key":"03","name":"Niedersachsen"}},{"name":"Hauptstr.","postalCode":"27404","locality":"Rhade","municipality":{"key":"03357038","name":"Rhade","type":"Kreisangehörige_Gemeinde"},"district":{"key":"03357","name":"Rotenburg (Wümme)","type":"Landkreis"},"federalState":{"key":"03","name":"Niedersachsen"}},{"name":"Hundebachweg","postalCode":"27404","locality":"Rhade","municipality":{"key":"03357038","name":"Rhade","type":"Kreisangehörige_Gemeinde"},"district":{"key":"03357","name":"Rotenburg (Wümme)","type":"Landkreis"},"federalState":{"key":"03","name":"Niedersachsen"}},{"name":"Im Deechmoor","postalCode":"27404","locality":"Rhade","municipality":{"key":"03357038","name":"Rhade","type":"Kreisangehörige_Gemeinde"},"district":{"key":"03357","name":"Rotenburg (Wümme)","type":"Landkreis"},"federalState":{"key":"03","name":"Niedersachsen"}},{"name":"In den Wiesen","postalCode":"27404","locality":"Rhade","municipality":{"key":"03357038","name":"Rhade","type":"Kreisangehörige_Gemeinde"},"district":{"key":"03357","name":"Rotenburg (Wümme)","type":"Landkreis"},"federalState":{"key":"03","name":"Niedersachsen"}},{"name":"Kurze Str.","postalCode":"27404","locality":"Rhade","municipality":{"key":"03357038","name":"Rhade","type":"Kreisangehörige_Gemeinde"},"district":{"key":"03357","name":"Rotenburg (Wümme)","type":"Landkreis"},"federalState":{"key":"03","name":"Niedersachsen"}},{"name":"Landesstr.","postalCode":"27404","locality":"Rhade","municipality":{"key":"03357038","name":"Rhade","type":"Kreisangehörige_Gemeinde"},"district":{"key":"03357","name":"Rotenburg (Wümme)","type":"Landkreis"},"federalState":{"key":"03","name":"Niedersachsen"}},{"name":"Lüttensweg","postalCode":"27404","locality":"Rhade","municipality":{"key":"03357038","name":"Rhade","type":"Kreisangehörige_Gemeinde"},"district":{"key":"03357","name":"Rotenburg (Wümme)","type":"Landkreis"},"federalState":{"key":"03","name":"Niedersachsen"}},{"name":"Neuer Löhdamm","postalCode":"27404","locality":"Rhade","municipality":{"key":"03357038","name":"Rhade","type":"Kreisangehörige_Gemeinde"},"district":{"key":"03357","name":"Rotenburg (Wümme)","type":"Landkreis"},"federalState":{"key":"03","name":"Niedersachsen"}},{"name":"Neuer Weg","postalCode":"27404","locality":"Rhade","municipality":{"key":"03357038","name":"Rhade","type":"Kreisangehörige_Gemeinde"},"district":{"key":"03357","name":"Rotenburg (Wümme)","type":"Landkreis"},"federalState":{"key":"03","name":"Niedersachsen"}},{"name":"Schulstr.","postalCode":"27404","locality":"Rhade","municipality":{"key":"03357038","name":"Rhade","type":"Kreisangehörige_Gemeinde"},"district":{"key":"03357","name":"Rotenburg (Wümme)","type":"Landkreis"},"federalState":{"key":"03","name":"Niedersachsen"}},{"name":"Selsinger Str.","postalCode":"27404","locality":"Rhade","municipality":{"key":"03357038","name":"Rhade","type":"Kreisangehörige_Gemeinde"},"district":{"key":"03357","name":"Rotenburg (Wümme)","type":"Landkreis"},"federalState":{"key":"03","name":"Niedersachsen"}},{"name":"Steindamm","postalCode":"27404","locality":"Rhade","municipality":{"key":"03357038","name":"Rhade","type":"Kreisangehörige_Gemeinde"},"district":{"key":"03357","name":"Rotenburg (Wümme)","type":"Landkreis"},"federalState":{"key":"03","name":"Niedersachsen"}},{"name":"Viehdamm","postalCode":"27404","locality":"Rhade","municipality":{"key":"03357038","name":"Rhade","type":"Kreisangehörige_Gemeinde"},"district":{"key":"03357","name":"Rotenburg (Wümme)","type":"Landkreis"},"federalState":{"key":"03","name":"Niedersachsen"}},{"name":"Wiesenweg","postalCode":"27404","locality":"Rhade","municipality":{"key":"03357038","name":"Rhade","type":"Kreisangehörige_Gemeinde"},"district":{"key":"03357","name":"Rotenburg (Wümme)","type":"Landkreis"},"federalState":{"key":"03","name":"Niedersachsen"}},{"name":"Winterdamm","postalCode":"27404","locality":"Rhade","municipality":{"key":"03357038","name":"Rhade","type":"Kreisangehörige_Gemeinde"},"district":{"key":"03357","name":"Rotenburg (Wümme)","type":"Landkreis"},"federalState":{"key":"03","name":"Niedersachsen"}},{"name":"Zevener Str.","postalCode":"27404","locality":"Rhade","municipality":{"key":"03357038","name":"Rhade","type":"Kreisangehörige_Gemeinde"},"district":{"key":"03357","name":"Rotenburg (Wümme)","type":"Landkreis"},"federalState":{"key":"03","name":"Niedersachsen"}},{"name":"Zum Königsmoor","postalCode":"27404","locality":"Rhade","municipality":{"key":"03357038","name":"Rhade","type":"Kreisangehörige_Gemeinde"},"district":{"key":"03357","name":"Rotenburg (Wümme)","type":"Landkreis"},"federalState":{"key":"03","name":"Niedersachsen"}},]