[{"key":"10253026","name":"Au Chaforne","postalCode":"1626","locality":"Rueyres-Treyfayes","commune":{"key":"2152","name":"Sâles","shortName":"Sâles"},"district":{"key":"1003","name":"District de la Gruyère"},"canton":{"key":"10","code":"FR","name":"Fribourg / Freiburg"},"status":"Real"},{"key":"10119697","name":"Champ du Carre","postalCode":"1552","locality":"Trey","commune":{"key":"5827","name":"Trey","shortName":"Trey"},"district":{"key":"2222","name":"District de la Broye-Vully"},"canton":{"key":"22","code":"VD","name":"Vaud"},"status":"Real"},{"key":"10049211","name":"Champ-Murat","postalCode":"1436","locality":"Treycovagnes","commune":{"key":"5931","name":"Treycovagnes","shortName":"Treycovagnes"},"district":{"key":"2224","name":"District du Jura-Nord vaudois"},"canton":{"key":"22","code":"VD","name":"Vaud"},"status":"Real"},{"key":"10173167","name":"Chemin de Chavannes","postalCode":"1538","locality":"Treytorrens (Payerne)","commune":{"key":"5828","name":"Treytorrens (Payerne)","shortName":"Treytorrens (Payerne)"},"district":{"key":"2222","name":"District de la Broye-Vully"},"canton":{"key":"22","code":"VD","name":"Vaud"},"status":"Real"},{"key":"10024432","name":"Chemin de Frontin","postalCode":"1733","locality":"Treyvaux","commune":{"key":"2226","name":"Treyvaux","shortName":"Treyvaux"},"district":{"key":"1004","name":"District de la Sarine"},"canton":{"key":"10","code":"FR","name":"Fribourg / Freiburg"},"status":"Real"},{"key":"10181065","name":"Chemin de la Côte","postalCode":"1538","locality":"Treytorrens (Payerne)","commune":{"key":"5828","name":"Treytorrens (Payerne)","shortName":"Treytorrens (Payerne)"},"district":{"key":"2222","name":"District de la Broye-Vully"},"canton":{"key":"22","code":"VD","name":"Vaud"},"status":"Real"},{"key":"10252862","name":"Chemin de la Crausa","postalCode":"1733","locality":"Treyvaux","commune":{"key":"2226","name":"Treyvaux","shortName":"Treyvaux"},"district":{"key":"1004","name":"District de la Sarine"},"canton":{"key":"10","code":"FR","name":"Fribourg / Freiburg"},"status":"Real"},{"key":"10156412","name":"Chemin de la Fontaine","postalCode":"1436","locality":"Treycovagnes","commune":{"key":"5931","name":"Treycovagnes","shortName":"Treycovagnes"},"district":{"key":"2224","name":"District du Jura-Nord vaudois"},"canton":{"key":"22","code":"VD","name":"Vaud"},"status":"Real"},{"key":"10173169","name":"Chemin de l'Ancienne-Poste","postalCode":"1538","locality":"Treytorrens (Payerne)","commune":{"key":"5828","name":"Treytorrens (Payerne)","shortName":"Treytorrens (Payerne)"},"district":{"key":"2222","name":"District de la Broye-Vully"},"canton":{"key":"22","code":"VD","name":"Vaud"},"status":"Real"},{"key":"10024701","name":"Chemin de la Pala","postalCode":"1733","locality":"Treyvaux","commune":{"key":"2226","name":"Treyvaux","shortName":"Treyvaux"},"district":{"key":"1004","name":"District de la Sarine"},"canton":{"key":"10","code":"FR","name":"Fribourg / Freiburg"},"status":"Real"},{"key":"10027476","name":"Chemin de la Scierie","postalCode":"1733","locality":"Treyvaux","commune":{"key":"2226","name":"Treyvaux","shortName":"Treyvaux"},"district":{"key":"1004","name":"District de la Sarine"},"canton":{"key":"10","code":"FR","name":"Fribourg / Freiburg"},"status":"Real"},{"key":"10173168","name":"Chemin de la Tranquillité","postalCode":"1538","locality":"Treytorrens (Payerne)","commune":{"key":"5828","name":"Treytorrens (Payerne)","shortName":"Treytorrens (Payerne)"},"district":{"key":"2222","name":"District de la Broye-Vully"},"canton":{"key":"22","code":"VD","name":"Vaud"},"status":"Real"},{"key":"10041722","name":"Chemin de Malafin","postalCode":"1552","locality":"Trey","commune":{"key":"5827","name":"Trey","shortName":"Trey"},"district":{"key":"2222","name":"District de la Broye-Vully"},"canton":{"key":"22","code":"VD","name":"Vaud"},"status":"Real"},{"key":"10173170","name":"Chemin de Nuvilly","postalCode":"1538","locality":"Treytorrens (Payerne)","commune":{"key":"5828","name":"Treytorrens (Payerne)","shortName":"Treytorrens (Payerne)"},"district":{"key":"2222","name":"District de la Broye-Vully"},"canton":{"key":"22","code":"VD","name":"Vaud"},"status":"Real"},{"key":"10091470","name":"Chemin de Prassasson","postalCode":"1733","locality":"Treyvaux","commune":{"key":"2226","name":"Treyvaux","shortName":"Treyvaux"},"district":{"key":"1004","name":"District de la Sarine"},"canton":{"key":"10","code":"FR","name":"Fribourg / Freiburg"},"status":"Real"},{"key":"10252868","name":"Chemin de Praudian","postalCode":"1733","locality":"Treyvaux","commune":{"key":"2226","name":"Treyvaux","shortName":"Treyvaux"},"district":{"key":"1004","name":"District de la Sarine"},"canton":{"key":"10","code":"FR","name":"Fribourg / Freiburg"},"status":"Real"},{"key":"10024433","name":"Chemin de Proveyres","postalCode":"1733","locality":"Treyvaux","commune":{"key":"2226","name":"Treyvaux","shortName":"Treyvaux"},"district":{"key":"1004","name":"District de la Sarine"},"canton":{"key":"10","code":"FR","name":"Fribourg / Freiburg"},"status":"Real"},{"key":"10104155","name":"Chemin des Bioleyres","postalCode":"1552","locality":"Trey","commune":{"key":"5827","name":"Trey","shortName":"Trey"},"district":{"key":"2222","name":"District de la Broye-Vully"},"canton":{"key":"22","code":"VD","name":"Vaud"},"status":"Real"},{"key":"10156413","name":"Chemin des Bosquets","postalCode":"1436","locality":"Treycovagnes","commune":{"key":"5931","name":"Treycovagnes","shortName":"Treycovagnes"},"district":{"key":"2224","name":"District du Jura-Nord vaudois"},"canton":{"key":"22","code":"VD","name":"Vaud"},"status":"Real"},{"key":"10024702","name":"Chemin des Chalets","postalCode":"1733","locality":"Treyvaux","commune":{"key":"2226","name":"Treyvaux","shortName":"Treyvaux"},"district":{"key":"1004","name":"District de la Sarine"},"canton":{"key":"10","code":"FR","name":"Fribourg / Freiburg"},"status":"Real"},{"key":"10041718","name":"Chemin des deux Riaux","postalCode":"1552","locality":"Trey","commune":{"key":"5827","name":"Trey","shortName":"Trey"},"district":{"key":"2222","name":"District de la Broye-Vully"},"canton":{"key":"22","code":"VD","name":"Vaud"},"status":"Real"},{"key":"10173171","name":"Chemin des Ecoliers","postalCode":"1538","locality":"Treytorrens (Payerne)","commune":{"key":"5828","name":"Treytorrens (Payerne)","shortName":"Treytorrens (Payerne)"},"district":{"key":"2222","name":"District de la Broye-Vully"},"canton":{"key":"22","code":"VD","name":"Vaud"},"status":"Real"},{"key":"10173175","name":"Chemin des Molliettes","postalCode":"1538","locality":"Treytorrens (Payerne)","commune":{"key":"5828","name":"Treytorrens (Payerne)","shortName":"Treytorrens (Payerne)"},"district":{"key":"2222","name":"District de la Broye-Vully"},"canton":{"key":"22","code":"VD","name":"Vaud"},"status":"Real"},{"key":"10091471","name":"Chemin des Planchettes","postalCode":"1733","locality":"Treyvaux","commune":{"key":"2226","name":"Treyvaux","shortName":"Treyvaux"},"district":{"key":"1004","name":"District de la Sarine"},"canton":{"key":"10","code":"FR","name":"Fribourg / Freiburg"},"status":"Real"},{"key":"10180028","name":"Chemin des Trois Décis","postalCode":"1538","locality":"Treytorrens (Payerne)","commune":{"key":"5828","name":"Treytorrens (Payerne)","shortName":"Treytorrens (Payerne)"},"district":{"key":"2222","name":"District de la Broye-Vully"},"canton":{"key":"22","code":"VD","name":"Vaud"},"status":"Real"},{"key":"10072657","name":"Chemin de Vers-St-Pierre","postalCode":"1733","locality":"Treyvaux","commune":{"key":"2226","name":"Treyvaux","shortName":"Treyvaux"},"district":{"key":"1004","name":"District de la Sarine"},"canton":{"key":"10","code":"FR","name":"Fribourg / Freiburg"},"status":"Real"},{"key":"10114931","name":"Chemin du Botsalet","postalCode":"1733","locality":"Treyvaux","commune":{"key":"2226","name":"Treyvaux","shortName":"Treyvaux"},"district":{"key":"1004","name":"District de la Sarine"},"canton":{"key":"10","code":"FR","name":"Fribourg / Freiburg"},"status":"Real"},{"key":"10102135","name":"Chemin du Bugnon","postalCode":"1436","locality":"Treycovagnes","commune":{"key":"5931","name":"Treycovagnes","shortName":"Treycovagnes"},"district":{"key":"2224","name":"District du Jura-Nord vaudois"},"canton":{"key":"22","code":"VD","name":"Vaud"},"status":"Real"},{"key":"10173176","name":"Chemin du Château","postalCode":"1538","locality":"Treytorrens (Payerne)","commune":{"key":"5828","name":"Treytorrens (Payerne)","shortName":"Treytorrens (Payerne)"},"district":{"key":"2222","name":"District de la Broye-Vully"},"canton":{"key":"22","code":"VD","name":"Vaud"},"status":"Real"},{"key":"10072658","name":"Chemin du Clos-des-Moines","postalCode":"1733","locality":"Treyvaux","commune":{"key":"2226","name":"Treyvaux","shortName":"Treyvaux"},"district":{"key":"1004","name":"District de la Sarine"},"canton":{"key":"10","code":"FR","name":"Fribourg / Freiburg"},"status":"Real"},{"key":"10027477","name":"Chemin du Clos-d'Illens","postalCode":"1733","locality":"Treyvaux","commune":{"key":"2226","name":"Treyvaux","shortName":"Treyvaux"},"district":{"key":"1004","name":"District de la Sarine"},"canton":{"key":"10","code":"FR","name":"Fribourg / Freiburg"},"status":"Real"},{"key":"10172545","name":"Chemin du Jordil","postalCode":"1538","locality":"Treytorrens (Payerne)","commune":{"key":"5828","name":"Treytorrens (Payerne)","shortName":"Treytorrens (Payerne)"},"district":{"key":"2222","name":"District de la Broye-Vully"},"canton":{"key":"22","code":"VD","name":"Vaud"},"status":"Real"},{"key":"10091472","name":"Chemin du Marais","postalCode":"1733","locality":"Treyvaux","commune":{"key":"2226","name":"Treyvaux","shortName":"Treyvaux"},"district":{"key":"1004","name":"District de la Sarine"},"canton":{"key":"10","code":"FR","name":"Fribourg / Freiburg"},"status":"Real"},{"key":"10151821","name":"Chemin du Mont","postalCode":"1733","locality":"Treyvaux","commune":{"key":"2226","name":"Treyvaux","shortName":"Treyvaux"},"district":{"key":"1004","name":"District de la Sarine"},"canton":{"key":"10","code":"FR","name":"Fribourg / Freiburg"},"status":"Real"},{"key":"10027478","name":"Chemin du Mont","postalCode":"1733","locality":"Treyvaux","commune":{"key":"2226","name":"Treyvaux","shortName":"Treyvaux"},"district":{"key":"1004","name":"District de la Sarine"},"canton":{"key":"10","code":"FR","name":"Fribourg / Freiburg"},"status":"Real"},{"key":"10185739","name":"Chemin du Moulin","postalCode":"1733","locality":"Treyvaux","commune":{"key":"2226","name":"Treyvaux","shortName":"Treyvaux"},"district":{"key":"1004","name":"District de la Sarine"},"canton":{"key":"10","code":"FR","name":"Fribourg / Freiburg"},"status":"Real"},{"key":"10145370","name":"Chemin du Pétrole","postalCode":"1436","locality":"Treycovagnes","commune":{"key":"5931","name":"Treycovagnes","shortName":"Treycovagnes"},"district":{"key":"2224","name":"District du Jura-Nord vaudois"},"canton":{"key":"22","code":"VD","name":"Vaud"},"status":"Real"},{"key":"10091473","name":"Chemin du Pramodié","postalCode":"1733","locality":"Treyvaux","commune":{"key":"2226","name":"Treyvaux","shortName":"Treyvaux"},"district":{"key":"1004","name":"District de la Sarine"},"canton":{"key":"10","code":"FR","name":"Fribourg / Freiburg"},"status":"Real"},{"key":"10171229","name":"Chemin du Refuge","postalCode":"1538","locality":"Treytorrens (Payerne)","commune":{"key":"5828","name":"Treytorrens (Payerne)","shortName":"Treytorrens (Payerne)"},"district":{"key":"2222","name":"District de la Broye-Vully"},"canton":{"key":"22","code":"VD","name":"Vaud"},"status":"Real"},{"key":"10172546","name":"Chemin du Réservoir","postalCode":"1538","locality":"Treytorrens (Payerne)","commune":{"key":"5828","name":"Treytorrens (Payerne)","shortName":"Treytorrens (Payerne)"},"district":{"key":"2222","name":"District de la Broye-Vully"},"canton":{"key":"22","code":"VD","name":"Vaud"},"status":"Real"},{"key":"10076876","name":"Chemin du Ruz","postalCode":"1436","locality":"Treycovagnes","commune":{"key":"5931","name":"Treycovagnes","shortName":"Treycovagnes"},"district":{"key":"2224","name":"District du Jura-Nord vaudois"},"canton":{"key":"22","code":"VD","name":"Vaud"},"status":"Real"},{"key":"10027479","name":"Chemin du Sapalé","postalCode":"1733","locality":"Treyvaux","commune":{"key":"2226","name":"Treyvaux","shortName":"Treyvaux"},"district":{"key":"1004","name":"District de la Sarine"},"canton":{"key":"10","code":"FR","name":"Fribourg / Freiburg"},"status":"Real"},{"key":"10148683","name":"Domaine des Marais","postalCode":"1436","locality":"Treycovagnes","commune":{"key":"5931","name":"Treycovagnes","shortName":"Treycovagnes"},"district":{"key":"2224","name":"District du Jura-Nord vaudois"},"canton":{"key":"22","code":"VD","name":"Vaud"},"status":"Real"},{"key":"10235383","name":"En Beauregard","postalCode":"1733","locality":"Treyvaux","commune":{"key":"2226","name":"Treyvaux","shortName":"Treyvaux"},"district":{"key":"1004","name":"District de la Sarine"},"canton":{"key":"10","code":"FR","name":"Fribourg / Freiburg"},"status":"Real"},{"key":"10027480","name":"En Chantemerle","postalCode":"1733","locality":"Treyvaux","commune":{"key":"2226","name":"Treyvaux","shortName":"Treyvaux"},"district":{"key":"1004","name":"District de la Sarine"},"canton":{"key":"10","code":"FR","name":"Fribourg / Freiburg"},"status":"Real"},{"key":"10201433","name":"En Crochet","postalCode":"1436","locality":"Treycovagnes","commune":{"key":"5931","name":"Treycovagnes","shortName":"Treycovagnes"},"district":{"key":"2224","name":"District du Jura-Nord vaudois"},"canton":{"key":"22","code":"VD","name":"Vaud"},"status":"Real"},{"key":"10027481","name":"En Pelard","postalCode":"1733","locality":"Treyvaux","commune":{"key":"2226","name":"Treyvaux","shortName":"Treyvaux"},"district":{"key":"1004","name":"District de la Sarine"},"canton":{"key":"10","code":"FR","name":"Fribourg / Freiburg"},"status":"Real"},{"key":"10072659","name":"En Plan","postalCode":"1733","locality":"Treyvaux","commune":{"key":"2226","name":"Treyvaux","shortName":"Treyvaux"},"district":{"key":"1004","name":"District de la Sarine"},"canton":{"key":"10","code":"FR","name":"Fribourg / Freiburg"},"status":"Real"},{"key":"10091474","name":"En Rosset","postalCode":"1733","locality":"Treyvaux","commune":{"key":"2226","name":"Treyvaux","shortName":"Treyvaux"},"district":{"key":"1004","name":"District de la Sarine"},"canton":{"key":"10","code":"FR","name":"Fribourg / Freiburg"},"status":"Real"},{"key":"10072660","name":"En Tsapalla","postalCode":"1733","locality":"Treyvaux","commune":{"key":"2226","name":"Treyvaux","shortName":"Treyvaux"},"district":{"key":"1004","name":"District de la Sarine"},"canton":{"key":"10","code":"FR","name":"Fribourg / Freiburg"},"status":"Real"},{"key":"10137584","name":"Grand-Rue","postalCode":"1436","locality":"Treycovagnes","commune":{"key":"5931","name":"Treycovagnes","shortName":"Treycovagnes"},"district":{"key":"2224","name":"District du Jura-Nord vaudois"},"canton":{"key":"22","code":"VD","name":"Vaud"},"status":"Real"},{"key":"10160554","name":"Halte de Trey","postalCode":"1552","locality":"Trey","commune":{"key":"5827","name":"Trey","shortName":"Trey"},"district":{"key":"2222","name":"District de la Broye-Vully"},"canton":{"key":"22","code":"VD","name":"Vaud"},"status":"Real"},{"key":"10017279","name":"Impasse de la Fin","postalCode":"1626","locality":"Rueyres-Treyfayes","commune":{"key":"2152","name":"Sâles","shortName":"Sâles"},"district":{"key":"1003","name":"District de la Gruyère"},"canton":{"key":"10","code":"FR","name":"Fribourg / Freiburg"},"status":"Real"},{"key":"10153657","name":"Impasse de la Forge","postalCode":"1552","locality":"Trey","commune":{"key":"5827","name":"Trey","shortName":"Trey"},"district":{"key":"2222","name":"District de la Broye-Vully"},"canton":{"key":"22","code":"VD","name":"Vaud"},"status":"Real"},{"key":"10119405","name":"Impasse de la Golette","postalCode":"1552","locality":"Trey","commune":{"key":"5827","name":"Trey","shortName":"Trey"},"district":{"key":"2222","name":"District de la Broye-Vully"},"canton":{"key":"22","code":"VD","name":"Vaud"},"status":"Real"},{"key":"10144788","name":"Impasse des Oches","postalCode":"1626","locality":"Rueyres-Treyfayes","commune":{"key":"2152","name":"Sâles","shortName":"Sâles"},"district":{"key":"1003","name":"District de la Gruyère"},"canton":{"key":"10","code":"FR","name":"Fribourg / Freiburg"},"status":"Real"},{"key":"10173177","name":"Impasse du Belvédère","postalCode":"1538","locality":"Treytorrens (Payerne)","commune":{"key":"5828","name":"Treytorrens (Payerne)","shortName":"Treytorrens (Payerne)"},"district":{"key":"2222","name":"District de la Broye-Vully"},"canton":{"key":"22","code":"VD","name":"Vaud"},"status":"Real"},{"key":"10197315","name":"Impasse du Château","postalCode":"1552","locality":"Trey","commune":{"key":"5827","name":"Trey","shortName":"Trey"},"district":{"key":"2222","name":"District de la Broye-Vully"},"canton":{"key":"22","code":"VD","name":"Vaud"},"status":"Real"},{"key":"10118880","name":"Impasse du Coutset","postalCode":"1552","locality":"Trey","commune":{"key":"5827","name":"Trey","shortName":"Trey"},"district":{"key":"2222","name":"District de la Broye-Vully"},"canton":{"key":"22","code":"VD","name":"Vaud"},"status":"Real"},{"key":"10121732","name":"Impasse du Fostet","postalCode":"1552","locality":"Trey","commune":{"key":"5827","name":"Trey","shortName":"Trey"},"district":{"key":"2222","name":"District de la Broye-Vully"},"canton":{"key":"22","code":"VD","name":"Vaud"},"status":"Real"},{"key":"10068565","name":"Impasse du Moulin","postalCode":"1552","locality":"Trey","commune":{"key":"5827","name":"Trey","shortName":"Trey"},"district":{"key":"2222","name":"District de la Broye-Vully"},"canton":{"key":"22","code":"VD","name":"Vaud"},"status":"Real"},{"key":"10027483","name":"La Chenevière","postalCode":"1733","locality":"Treyvaux","commune":{"key":"2226","name":"Treyvaux","shortName":"Treyvaux"},"district":{"key":"1004","name":"District de la Sarine"},"canton":{"key":"10","code":"FR","name":"Fribourg / Freiburg"},"status":"Real"},{"key":"10252873","name":"La Comba","postalCode":"1733","locality":"Treyvaux","commune":{"key":"2226","name":"Treyvaux","shortName":"Treyvaux"},"district":{"key":"1004","name":"District de la Sarine"},"canton":{"key":"10","code":"FR","name":"Fribourg / Freiburg"},"status":"Real"},{"key":"10252878","name":"La Combert","postalCode":"1733","locality":"Treyvaux","commune":{"key":"2226","name":"Treyvaux","shortName":"Treyvaux"},"district":{"key":"1004","name":"District de la Sarine"},"canton":{"key":"10","code":"FR","name":"Fribourg / Freiburg"},"status":"Real"},{"key":"10160315","name":"La Crausa","postalCode":"1626","locality":"Rueyres-Treyfayes","commune":{"key":"2152","name":"Sâles","shortName":"Sâles"},"district":{"key":"1003","name":"District de la Gruyère"},"canton":{"key":"10","code":"FR","name":"Fribourg / Freiburg"},"status":"Real"},{"key":"10091475","name":"La Crausa","postalCode":"1733","locality":"Treyvaux","commune":{"key":"2226","name":"Treyvaux","shortName":"Treyvaux"},"district":{"key":"1004","name":"District de la Sarine"},"canton":{"key":"10","code":"FR","name":"Fribourg / Freiburg"},"status":"Real"},{"key":"10027484","name":"La Fin","postalCode":"1733","locality":"Treyvaux","commune":{"key":"2226","name":"Treyvaux","shortName":"Treyvaux"},"district":{"key":"1004","name":"District de la Sarine"},"canton":{"key":"10","code":"FR","name":"Fribourg / Freiburg"},"status":"Real"},{"key":"10252882","name":"La Gîte de Montévraz","postalCode":"1733","locality":"Treyvaux","commune":{"key":"2226","name":"Treyvaux","shortName":"Treyvaux"},"district":{"key":"1004","name":"District de la Sarine"},"canton":{"key":"10","code":"FR","name":"Fribourg / Freiburg"},"status":"Real"},{"key":"10187722","name":"La Grande-Planche","postalCode":"1733","locality":"Treyvaux","commune":{"key":"2226","name":"Treyvaux","shortName":"Treyvaux"},"district":{"key":"1004","name":"District de la Sarine"},"canton":{"key":"10","code":"FR","name":"Fribourg / Freiburg"},"status":"Real"},{"key":"10252883","name":"La Grange aux Dones","postalCode":"1733","locality":"Treyvaux","commune":{"key":"2226","name":"Treyvaux","shortName":"Treyvaux"},"district":{"key":"1004","name":"District de la Sarine"},"canton":{"key":"10","code":"FR","name":"Fribourg / Freiburg"},"status":"Real"},{"key":"10252885","name":"La Joux","postalCode":"1733","locality":"Treyvaux","commune":{"key":"2226","name":"Treyvaux","shortName":"Treyvaux"},"district":{"key":"1004","name":"District de la Sarine"},"canton":{"key":"10","code":"FR","name":"Fribourg / Freiburg"},"status":"Real"},{"key":"10092202","name":"La Longeraye","postalCode":"1733","locality":"Treyvaux","commune":{"key":"2226","name":"Treyvaux","shortName":"Treyvaux"},"district":{"key":"1004","name":"District de la Sarine"},"canton":{"key":"10","code":"FR","name":"Fribourg / Freiburg"},"status":"Real"},{"key":"10027485","name":"La Perrausa","postalCode":"1733","locality":"Treyvaux","commune":{"key":"2226","name":"Treyvaux","shortName":"Treyvaux"},"district":{"key":"1004","name":"District de la Sarine"},"canton":{"key":"10","code":"FR","name":"Fribourg / Freiburg"},"status":"Real"},{"key":"10068564","name":"La Perrause","postalCode":"1552","locality":"Trey","commune":{"key":"5827","name":"Trey","shortName":"Trey"},"district":{"key":"2222","name":"District de la Broye-Vully"},"canton":{"key":"22","code":"VD","name":"Vaud"},"status":"Real"},{"key":"10252889","name":"La Planche","postalCode":"1733","locality":"Treyvaux","commune":{"key":"2226","name":"Treyvaux","shortName":"Treyvaux"},"district":{"key":"1004","name":"District de la Sarine"},"canton":{"key":"10","code":"FR","name":"Fribourg / Freiburg"},"status":"Real"},{"key":"10173178","name":"La Ruelle","postalCode":"1538","locality":"Treytorrens (Payerne)","commune":{"key":"5828","name":"Treytorrens (Payerne)","shortName":"Treytorrens (Payerne)"},"district":{"key":"2222","name":"District de la Broye-Vully"},"canton":{"key":"22","code":"VD","name":"Vaud"},"status":"Real"},{"key":"10252894","name":"La Toffeyre","postalCode":"1733","locality":"Treyvaux","commune":{"key":"2226","name":"Treyvaux","shortName":"Treyvaux"},"district":{"key":"1004","name":"District de la Sarine"},"canton":{"key":"10","code":"FR","name":"Fribourg / Freiburg"},"status":"Real"},{"key":"10107890","name":"Le Bugnon","postalCode":"1733","locality":"Treyvaux","commune":{"key":"2226","name":"Treyvaux","shortName":"Treyvaux"},"district":{"key":"1004","name":"District de la Sarine"},"canton":{"key":"10","code":"FR","name":"Fribourg / Freiburg"},"status":"Real"},{"key":"10049212","name":"Le Châtelard","postalCode":"1436","locality":"Treycovagnes","commune":{"key":"5931","name":"Treycovagnes","shortName":"Treycovagnes"},"district":{"key":"2224","name":"District du Jura-Nord vaudois"},"canton":{"key":"22","code":"VD","name":"Vaud"},"status":"Real"},{"key":"10091476","name":"Le Chêne","postalCode":"1733","locality":"Treyvaux","commune":{"key":"2226","name":"Treyvaux","shortName":"Treyvaux"},"district":{"key":"1004","name":"District de la Sarine"},"canton":{"key":"10","code":"FR","name":"Fribourg / Freiburg"},"status":"Real"},{"key":"10124054","name":"Le Crau","postalCode":"1733","locality":"Treyvaux","commune":{"key":"2226","name":"Treyvaux","shortName":"Treyvaux"},"district":{"key":"1004","name":"District de la Sarine"},"canton":{"key":"10","code":"FR","name":"Fribourg / Freiburg"},"status":"Real"},{"key":"10185740","name":"Le Mellerey","postalCode":"1733","locality":"Treyvaux","commune":{"key":"2226","name":"Treyvaux","shortName":"Treyvaux"},"district":{"key":"1004","name":"District de la Sarine"},"canton":{"key":"10","code":"FR","name":"Fribourg / Freiburg"},"status":"Real"},{"key":"10102136","name":"L'Epine","postalCode":"1436","locality":"Treycovagnes","commune":{"key":"5931","name":"Treycovagnes","shortName":"Treycovagnes"},"district":{"key":"2224","name":"District du Jura-Nord vaudois"},"canton":{"key":"22","code":"VD","name":"Vaud"},"status":"Real"},{"key":"10252897","name":"L'Epinette","postalCode":"1733","locality":"Treyvaux","commune":{"key":"2226","name":"Treyvaux","shortName":"Treyvaux"},"district":{"key":"1004","name":"District de la Sarine"},"canton":{"key":"10","code":"FR","name":"Fribourg / Freiburg"},"status":"Real"},{"key":"10025739","name":"Le Poyet","postalCode":"1733","locality":"Treyvaux","commune":{"key":"2226","name":"Treyvaux","shortName":"Treyvaux"},"district":{"key":"1004","name":"District de la Sarine"},"canton":{"key":"10","code":"FR","name":"Fribourg / Freiburg"},"status":"Real"},{"key":"10181064","name":"Le Pralex","postalCode":"1552","locality":"Trey","commune":{"key":"5827","name":"Trey","shortName":"Trey"},"district":{"key":"2222","name":"District de la Broye-Vully"},"canton":{"key":"22","code":"VD","name":"Vaud"},"status":"Real"},{"key":"10091477","name":"Le Pré de la Maison","postalCode":"1733","locality":"Treyvaux","commune":{"key":"2226","name":"Treyvaux","shortName":"Treyvaux"},"district":{"key":"1004","name":"District de la Sarine"},"canton":{"key":"10","code":"FR","name":"Fribourg / Freiburg"},"status":"Real"},{"key":"10114173","name":"Les Aubiers","postalCode":"1436","locality":"Treycovagnes","commune":{"key":"5931","name":"Treycovagnes","shortName":"Treycovagnes"},"district":{"key":"2224","name":"District du Jura-Nord vaudois"},"canton":{"key":"22","code":"VD","name":"Vaud"},"status":"Real"},{"key":"10027486","name":"Les Biolleyres","postalCode":"1733","locality":"Treyvaux","commune":{"key":"2226","name":"Treyvaux","shortName":"Treyvaux"},"district":{"key":"1004","name":"District de la Sarine"},"canton":{"key":"10","code":"FR","name":"Fribourg / Freiburg"},"status":"Real"},{"key":"10072661","name":"Les Chaussices","postalCode":"1733","locality":"Treyvaux","commune":{"key":"2226","name":"Treyvaux","shortName":"Treyvaux"},"district":{"key":"1004","name":"District de la Sarine"},"canton":{"key":"10","code":"FR","name":"Fribourg / Freiburg"},"status":"Real"},{"key":"10252901","name":"Les Ciernes","postalCode":"1733","locality":"Treyvaux","commune":{"key":"2226","name":"Treyvaux","shortName":"Treyvaux"},"district":{"key":"1004","name":"District de la Sarine"},"canton":{"key":"10","code":"FR","name":"Fribourg / Freiburg"},"status":"Real"},{"key":"10020597","name":"Les Combes","postalCode":"1733","locality":"Treyvaux","commune":{"key":"2226","name":"Treyvaux","shortName":"Treyvaux"},"district":{"key":"1004","name":"District de la Sarine"},"canton":{"key":"10","code":"FR","name":"Fribourg / Freiburg"},"status":"Real"},{"key":"10252904","name":"Les Coulayes","postalCode":"1733","locality":"Treyvaux","commune":{"key":"2226","name":"Treyvaux","shortName":"Treyvaux"},"district":{"key":"1004","name":"District de la Sarine"},"canton":{"key":"10","code":"FR","name":"Fribourg / Freiburg"},"status":"Real"},{"key":"10252908","name":"Les Ecorcheventres","postalCode":"1733","locality":"Treyvaux","commune":{"key":"2226","name":"Treyvaux","shortName":"Treyvaux"},"district":{"key":"1004","name":"District de la Sarine"},"canton":{"key":"10","code":"FR","name":"Fribourg / Freiburg"},"status":"Real"},{"key":"10077707","name":"Les Folosses","postalCode":"1552","locality":"Trey","commune":{"key":"5827","name":"Trey","shortName":"Trey"},"district":{"key":"2222","name":"District de la Broye-Vully"},"canton":{"key":"22","code":"VD","name":"Vaud"},"status":"Real"},{"key":"10252910","name":"Les Gottaux","postalCode":"1733","locality":"Treyvaux","commune":{"key":"2226","name":"Treyvaux","shortName":"Treyvaux"},"district":{"key":"1004","name":"District de la Sarine"},"canton":{"key":"10","code":"FR","name":"Fribourg / Freiburg"},"status":"Real"},{"key":"10255041","name":"Les Groupraz","postalCode":"1552","locality":"Trey","commune":{"key":"5827","name":"Trey","shortName":"Trey"},"district":{"key":"2222","name":"District de la Broye-Vully"},"canton":{"key":"22","code":"VD","name":"Vaud"},"status":"Real"},{"key":"10027488","name":"Les Lécheires","postalCode":"1733","locality":"Treyvaux","commune":{"key":"2226","name":"Treyvaux","shortName":"Treyvaux"},"district":{"key":"1004","name":"District de la Sarine"},"canton":{"key":"10","code":"FR","name":"Fribourg / Freiburg"},"status":"Real"},{"key":"10146223","name":"Les Marais","postalCode":"1552","locality":"Trey","commune":{"key":"5827","name":"Trey","shortName":"Trey"},"district":{"key":"2222","name":"District de la Broye-Vully"},"canton":{"key":"22","code":"VD","name":"Vaud"},"status":"Real"},{"key":"10041721","name":"Les Piécettes","postalCode":"1552","locality":"Trey","commune":{"key":"5827","name":"Trey","shortName":"Trey"},"district":{"key":"2222","name":"District de la Broye-Vully"},"canton":{"key":"22","code":"VD","name":"Vaud"},"status":"Real"},{"key":"10091478","name":"Les Rontes","postalCode":"1733","locality":"Treyvaux","commune":{"key":"2226","name":"Treyvaux","shortName":"Treyvaux"},"district":{"key":"1004","name":"District de la Sarine"},"canton":{"key":"10","code":"FR","name":"Fribourg / Freiburg"},"status":"Real"},{"key":"10196260","name":"Le Trepalley","postalCode":"1733","locality":"Treyvaux","commune":{"key":"2226","name":"Treyvaux","shortName":"Treyvaux"},"district":{"key":"1004","name":"District de la Sarine"},"canton":{"key":"10","code":"FR","name":"Fribourg / Freiburg"},"status":"Real"},{"key":"10173179","name":"Passage des Abeilles","postalCode":"1538","locality":"Treytorrens (Payerne)","commune":{"key":"5828","name":"Treytorrens (Payerne)","shortName":"Treytorrens (Payerne)"},"district":{"key":"2222","name":"District de la Broye-Vully"},"canton":{"key":"22","code":"VD","name":"Vaud"},"status":"Real"},{"key":"10141605","name":"Place du Collège","postalCode":"1552","locality":"Trey","commune":{"key":"5827","name":"Trey","shortName":"Trey"},"district":{"key":"2222","name":"District de la Broye-Vully"},"canton":{"key":"22","code":"VD","name":"Vaud"},"status":"Real"},{"key":"10077708","name":"Planche Failly","postalCode":"1552","locality":"Trey","commune":{"key":"5827","name":"Trey","shortName":"Trey"},"district":{"key":"2222","name":"District de la Broye-Vully"},"canton":{"key":"22","code":"VD","name":"Vaud"},"status":"Real"},{"key":"10020595","name":"Prabou","postalCode":"1733","locality":"Treyvaux","commune":{"key":"2226","name":"Treyvaux","shortName":"Treyvaux"},"district":{"key":"1004","name":"District de la Sarine"},"canton":{"key":"10","code":"FR","name":"Fribourg / Freiburg"},"status":"Real"},{"key":"10027489","name":"Prameya","postalCode":"1733","locality":"Treyvaux","commune":{"key":"2226","name":"Treyvaux","shortName":"Treyvaux"},"district":{"key":"1004","name":"District de la Sarine"},"canton":{"key":"10","code":"FR","name":"Fribourg / Freiburg"},"status":"Real"},{"key":"10252912","name":"Pratevy","postalCode":"1733","locality":"Treyvaux","commune":{"key":"2226","name":"Treyvaux","shortName":"Treyvaux"},"district":{"key":"1004","name":"District de la Sarine"},"canton":{"key":"10","code":"FR","name":"Fribourg / Freiburg"},"status":"Real"},{"key":"10072662","name":"Praudian","postalCode":"1733","locality":"Treyvaux","commune":{"key":"2226","name":"Treyvaux","shortName":"Treyvaux"},"district":{"key":"1004","name":"District de la Sarine"},"canton":{"key":"10","code":"FR","name":"Fribourg / Freiburg"},"status":"Real"},{"key":"10252918","name":"Praudian-Dessous","postalCode":"1733","locality":"Treyvaux","commune":{"key":"2226","name":"Treyvaux","shortName":"Treyvaux"},"district":{"key":"1004","name":"District de la Sarine"},"canton":{"key":"10","code":"FR","name":"Fribourg / Freiburg"},"status":"Real"},{"key":"10114932","name":"Prila","postalCode":"1733","locality":"Treyvaux","commune":{"key":"2226","name":"Treyvaux","shortName":"Treyvaux"},"district":{"key":"1004","name":"District de la Sarine"},"canton":{"key":"10","code":"FR","name":"Fribourg / Freiburg"},"status":"Real"},{"key":"10252922","name":"Prila d'Amont","postalCode":"1733","locality":"Treyvaux","commune":{"key":"2226","name":"Treyvaux","shortName":"Treyvaux"},"district":{"key":"1004","name":"District de la Sarine"},"canton":{"key":"10","code":"FR","name":"Fribourg / Freiburg"},"status":"Real"},{"key":"10252926","name":"Prila d'Avau","postalCode":"1733","locality":"Treyvaux","commune":{"key":"2226","name":"Treyvaux","shortName":"Treyvaux"},"district":{"key":"1004","name":"District de la Sarine"},"canton":{"key":"10","code":"FR","name":"Fribourg / Freiburg"},"status":"Real"},{"key":"10027490","name":"Prila-Derrey","postalCode":"1733","locality":"Treyvaux","commune":{"key":"2226","name":"Treyvaux","shortName":"Treyvaux"},"district":{"key":"1004","name":"District de la Sarine"},"canton":{"key":"10","code":"FR","name":"Fribourg / Freiburg"},"status":"Real"},{"key":"10020598","name":"Priletta","postalCode":"1733","locality":"Treyvaux","commune":{"key":"2226","name":"Treyvaux","shortName":"Treyvaux"},"district":{"key":"1004","name":"District de la Sarine"},"canton":{"key":"10","code":"FR","name":"Fribourg / Freiburg"},"status":"Real"},{"key":"10252929","name":"Purlau","postalCode":"1733","locality":"Treyvaux","commune":{"key":"2226","name":"Treyvaux","shortName":"Treyvaux"},"district":{"key":"1004","name":"District de la Sarine"},"canton":{"key":"10","code":"FR","name":"Fribourg / Freiburg"},"status":"Real"},{"key":"10072663","name":"Route d'Arconciel","postalCode":"1733","locality":"Treyvaux","commune":{"key":"2226","name":"Treyvaux","shortName":"Treyvaux"},"district":{"key":"1004","name":"District de la Sarine"},"canton":{"key":"10","code":"FR","name":"Fribourg / Freiburg"},"status":"Real"},{"key":"10049213","name":"Route de Chamblon","postalCode":"1436","locality":"Treycovagnes","commune":{"key":"5931","name":"Treycovagnes","shortName":"Treycovagnes"},"district":{"key":"2224","name":"District du Jura-Nord vaudois"},"canton":{"key":"22","code":"VD","name":"Vaud"},"status":"Real"},{"key":"10185741","name":"Route de Ferpicloz","postalCode":"1733","locality":"Treyvaux","commune":{"key":"2226","name":"Treyvaux","shortName":"Treyvaux"},"district":{"key":"1004","name":"District de la Sarine"},"canton":{"key":"10","code":"FR","name":"Fribourg / Freiburg"},"status":"Real"},{"key":"10170617","name":"Route de la Gaîté","postalCode":"1538","locality":"Treytorrens (Payerne)","commune":{"key":"5828","name":"Treytorrens (Payerne)","shortName":"Treytorrens (Payerne)"},"district":{"key":"2222","name":"District de la Broye-Vully"},"canton":{"key":"22","code":"VD","name":"Vaud"},"status":"Real"},{"key":"10027491","name":"Route de la Gruyère","postalCode":"1733","locality":"Treyvaux","commune":{"key":"2226","name":"Treyvaux","shortName":"Treyvaux"},"district":{"key":"1004","name":"District de la Sarine"},"canton":{"key":"10","code":"FR","name":"Fribourg / Freiburg"},"status":"Real"},{"key":"10019850","name":"Route de Mouna","postalCode":"1626","locality":"Rueyres-Treyfayes","commune":{"key":"2152","name":"Sâles","shortName":"Sâles"},"district":{"key":"1003","name":"District de la Gruyère"},"canton":{"key":"10","code":"FR","name":"Fribourg / Freiburg"},"status":"Real"},{"key":"10146224","name":"Route de Payerne","postalCode":"1552","locality":"Trey","commune":{"key":"5827","name":"Trey","shortName":"Trey"},"district":{"key":"2222","name":"District de la Broye-Vully"},"canton":{"key":"22","code":"VD","name":"Vaud"},"status":"Real"},{"key":"10086229","name":"Route de Pont-la-Ville","postalCode":"1733","locality":"Treyvaux","commune":{"key":"2226","name":"Treyvaux","shortName":"Treyvaux"},"district":{"key":"1004","name":"District de la Sarine"},"canton":{"key":"10","code":"FR","name":"Fribourg / Freiburg"},"status":"Real"},{"key":"10104342","name":"Route de Rueyres","postalCode":"1626","locality":"Rueyres-Treyfayes","commune":{"key":"2152","name":"Sâles","shortName":"Sâles"},"district":{"key":"1003","name":"District de la Gruyère"},"canton":{"key":"10","code":"FR","name":"Fribourg / Freiburg"},"status":"Real"},{"key":"10144960","name":"Route des deux Villages","postalCode":"1552","locality":"Trey","commune":{"key":"5827","name":"Trey","shortName":"Trey"},"district":{"key":"2222","name":"District de la Broye-Vully"},"canton":{"key":"22","code":"VD","name":"Vaud"},"status":"Real"},{"key":"10091479","name":"Route d'Essert","postalCode":"1733","locality":"Treyvaux","commune":{"key":"2226","name":"Treyvaux","shortName":"Treyvaux"},"district":{"key":"1004","name":"District de la Sarine"},"canton":{"key":"10","code":"FR","name":"Fribourg / Freiburg"},"status":"Real"},{"key":"10173180","name":"Route d'Estavayer-le-Lac","postalCode":"1538","locality":"Treytorrens (Payerne)","commune":{"key":"5828","name":"Treytorrens (Payerne)","shortName":"Treytorrens (Payerne)"},"district":{"key":"2222","name":"District de la Broye-Vully"},"canton":{"key":"22","code":"VD","name":"Vaud"},"status":"Real"},{"key":"10160323","name":"Route d'Estévenens","postalCode":"1626","locality":"Treyfayes","commune":{"key":"2152","name":"Sâles","shortName":"Sâles"},"district":{"key":"1003","name":"District de la Gruyère"},"canton":{"key":"10","code":"FR","name":"Fribourg / Freiburg"},"status":"Real"},{"key":"10161295","name":"Route de Treyfayes","postalCode":"1626","locality":"Rueyres-Treyfayes","commune":{"key":"2152","name":"Sâles","shortName":"Sâles"},"district":{"key":"1003","name":"District de la Gruyère"},"canton":{"key":"10","code":"FR","name":"Fribourg / Freiburg"},"status":"Real"},{"key":"10161295","name":"Route de Treyfayes","postalCode":"1626","locality":"Treyfayes","commune":{"key":"2152","name":"Sâles","shortName":"Sâles"},"district":{"key":"1003","name":"District de la Gruyère"},"canton":{"key":"10","code":"FR","name":"Fribourg / Freiburg"},"status":"Real"},{"key":"10027492","name":"Route du Barrage","postalCode":"1733","locality":"Treyvaux","commune":{"key":"2226","name":"Treyvaux","shortName":"Treyvaux"},"district":{"key":"1004","name":"District de la Sarine"},"canton":{"key":"10","code":"FR","name":"Fribourg / Freiburg"},"status":"Real"},{"key":"10173181","name":"Route du Champ Rond","postalCode":"1538","locality":"Treytorrens (Payerne)","commune":{"key":"5828","name":"Treytorrens (Payerne)","shortName":"Treytorrens (Payerne)"},"district":{"key":"2222","name":"District de la Broye-Vully"},"canton":{"key":"22","code":"VD","name":"Vaud"},"status":"Real"},{"key":"10141606","name":"Route du Coin","postalCode":"1552","locality":"Trey","commune":{"key":"5827","name":"Trey","shortName":"Trey"},"district":{"key":"2222","name":"District de la Broye-Vully"},"canton":{"key":"22","code":"VD","name":"Vaud"},"status":"Real"},{"key":"10173182","name":"Route du Mont","postalCode":"1538","locality":"Treytorrens (Payerne)","commune":{"key":"5828","name":"Treytorrens (Payerne)","shortName":"Treytorrens (Payerne)"},"district":{"key":"2222","name":"District de la Broye-Vully"},"canton":{"key":"22","code":"VD","name":"Vaud"},"status":"Real"},{"key":"10077709","name":"Route du Moulin","postalCode":"1538","locality":"Treytorrens (Payerne)","commune":{"key":"5828","name":"Treytorrens (Payerne)","shortName":"Treytorrens (Payerne)"},"district":{"key":"2222","name":"District de la Broye-Vully"},"canton":{"key":"22","code":"VD","name":"Vaud"},"status":"Real"},{"key":"10072664","name":"Route du Pratzey","postalCode":"1733","locality":"Treyvaux","commune":{"key":"2226","name":"Treyvaux","shortName":"Treyvaux"},"district":{"key":"1004","name":"District de la Sarine"},"canton":{"key":"10","code":"FR","name":"Fribourg / Freiburg"},"status":"Real"},{"key":"10137586","name":"Route d'Yverdon","postalCode":"1436","locality":"Treycovagnes","commune":{"key":"5931","name":"Treycovagnes","shortName":"Treycovagnes"},"district":{"key":"2224","name":"District du Jura-Nord vaudois"},"canton":{"key":"22","code":"VD","name":"Vaud"},"status":"Real"},{"key":"10141607","name":"Rue à Jules","postalCode":"1552","locality":"Trey","commune":{"key":"5827","name":"Trey","shortName":"Trey"},"district":{"key":"2222","name":"District de la Broye-Vully"},"canton":{"key":"22","code":"VD","name":"Vaud"},"status":"Real"},{"key":"10104154","name":"Rue de Granges-sous-Trey","postalCode":"1552","locality":"Trey","commune":{"key":"5827","name":"Trey","shortName":"Trey"},"district":{"key":"2222","name":"District de la Broye-Vully"},"canton":{"key":"22","code":"VD","name":"Vaud"},"status":"Real"},{"key":"10158994","name":"Rue de l'Ancien Collège","postalCode":"1436","locality":"Treycovagnes","commune":{"key":"5931","name":"Treycovagnes","shortName":"Treycovagnes"},"district":{"key":"2224","name":"District du Jura-Nord vaudois"},"canton":{"key":"22","code":"VD","name":"Vaud"},"status":"Real"},{"key":"10119698","name":"Rue des Fontanelles","postalCode":"1552","locality":"Trey","commune":{"key":"5827","name":"Trey","shortName":"Trey"},"district":{"key":"2222","name":"District de la Broye-Vully"},"canton":{"key":"22","code":"VD","name":"Vaud"},"status":"Real"},{"key":"10173183","name":"Rue du Couvent","postalCode":"1538","locality":"Treytorrens (Payerne)","commune":{"key":"5828","name":"Treytorrens (Payerne)","shortName":"Treytorrens (Payerne)"},"district":{"key":"2222","name":"District de la Broye-Vully"},"canton":{"key":"22","code":"VD","name":"Vaud"},"status":"Real"},{"key":"10243409","name":"Sur la Chaux","postalCode":"1733","locality":"Treyvaux","commune":{"key":"2226","name":"Treyvaux","shortName":"Treyvaux"},"district":{"key":"1004","name":"District de la Sarine"},"canton":{"key":"10","code":"FR","name":"Fribourg / Freiburg"},"status":"Real"},{"key":"10110360","name":"Sur Taillisse","postalCode":"1733","locality":"Treyvaux","commune":{"key":"2226","name":"Treyvaux","shortName":"Treyvaux"},"district":{"key":"1004","name":"District de la Sarine"},"canton":{"key":"10","code":"FR","name":"Fribourg / Freiburg"},"status":"Real"},{"key":"10023792","name":"Vers Thivena","postalCode":"1733","locality":"Treyvaux","commune":{"key":"2226","name":"Treyvaux","shortName":"Treyvaux"},"district":{"key":"1004","name":"District de la Sarine"},"canton":{"key":"10","code":"FR","name":"Fribourg / Freiburg"},"status":"Real"},{"key":"10252933","name":"Zellmatten","postalCode":"1733","locality":"Treyvaux","commune":{"key":"2226","name":"Treyvaux","shortName":"Treyvaux"},"district":{"key":"1004","name":"District de la Sarine"},"canton":{"key":"10","code":"FR","name":"Fribourg / Freiburg"},"status":"Real"},]