[{"name":"Adam-Ries-Str.","postalCode":"99834","locality":"Gerstungen","municipality":{"key":"16063097","name":"Gerstungen","type":"Kreisangehörige_Gemeinde"},"district":{"key":"16063","name":"Wartburgkreis","type":"Landkreis"},"federalState":{"key":"16","name":"Thüringen"}},{"name":"Ahornweg","postalCode":"99834","locality":"Gerstungen","municipality":{"key":"16063097","name":"Gerstungen","type":"Kreisangehörige_Gemeinde"},"district":{"key":"16063","name":"Wartburgkreis","type":"Landkreis"},"federalState":{"key":"16","name":"Thüringen"}},{"name":"Alexander-Puschkin-Str.","postalCode":"99834","locality":"Gerstungen","municipality":{"key":"16063097","name":"Gerstungen","type":"Kreisangehörige_Gemeinde"},"district":{"key":"16063","name":"Wartburgkreis","type":"Landkreis"},"federalState":{"key":"16","name":"Thüringen"}},{"name":"Alte Braugasse","postalCode":"99834","locality":"Gerstungen","municipality":{"key":"16063097","name":"Gerstungen","type":"Kreisangehörige_Gemeinde"},"district":{"key":"16063","name":"Wartburgkreis","type":"Landkreis"},"federalState":{"key":"16","name":"Thüringen"}},{"name":"Alte Chaussee","postalCode":"99834","locality":"Gerstungen","municipality":{"key":"16063097","name":"Gerstungen","type":"Kreisangehörige_Gemeinde"},"district":{"key":"16063","name":"Wartburgkreis","type":"Landkreis"},"federalState":{"key":"16","name":"Thüringen"}},{"name":"Alte Eisenacher Str.","postalCode":"99834","locality":"Gerstungen","municipality":{"key":"16063097","name":"Gerstungen","type":"Kreisangehörige_Gemeinde"},"district":{"key":"16063","name":"Wartburgkreis","type":"Landkreis"},"federalState":{"key":"16","name":"Thüringen"}},{"name":"Alte Marksuhler Str.","postalCode":"99834","locality":"Gerstungen","municipality":{"key":"16063097","name":"Gerstungen","type":"Kreisangehörige_Gemeinde"},"district":{"key":"16063","name":"Wartburgkreis","type":"Landkreis"},"federalState":{"key":"16","name":"Thüringen"}},{"name":"Alte Obereller Str.","postalCode":"99834","locality":"Gerstungen","municipality":{"key":"16063097","name":"Gerstungen","type":"Kreisangehörige_Gemeinde"},"district":{"key":"16063","name":"Wartburgkreis","type":"Landkreis"},"federalState":{"key":"16","name":"Thüringen"}},{"name":"Alter Schulweg","postalCode":"99834","locality":"Gerstungen","municipality":{"key":"16063097","name":"Gerstungen","type":"Kreisangehörige_Gemeinde"},"district":{"key":"16063","name":"Wartburgkreis","type":"Landkreis"},"federalState":{"key":"16","name":"Thüringen"}},{"name":"Am Anger","postalCode":"99834","locality":"Gerstungen","municipality":{"key":"16063097","name":"Gerstungen","type":"Kreisangehörige_Gemeinde"},"district":{"key":"16063","name":"Wartburgkreis","type":"Landkreis"},"federalState":{"key":"16","name":"Thüringen"}},{"name":"Am Bach","postalCode":"99834","locality":"Gerstungen","municipality":{"key":"16063097","name":"Gerstungen","type":"Kreisangehörige_Gemeinde"},"district":{"key":"16063","name":"Wartburgkreis","type":"Landkreis"},"federalState":{"key":"16","name":"Thüringen"}},{"name":"Am Bahnhof","postalCode":"99834","locality":"Gerstungen","municipality":{"key":"16063097","name":"Gerstungen","type":"Kreisangehörige_Gemeinde"},"district":{"key":"16063","name":"Wartburgkreis","type":"Landkreis"},"federalState":{"key":"16","name":"Thüringen"}},{"name":"Am Berg","postalCode":"99834","locality":"Gerstungen","municipality":{"key":"16063097","name":"Gerstungen","type":"Kreisangehörige_Gemeinde"},"district":{"key":"16063","name":"Wartburgkreis","type":"Landkreis"},"federalState":{"key":"16","name":"Thüringen"}},{"name":"Am Dorfbrunnen","postalCode":"99834","locality":"Gerstungen","municipality":{"key":"16063097","name":"Gerstungen","type":"Kreisangehörige_Gemeinde"},"district":{"key":"16063","name":"Wartburgkreis","type":"Landkreis"},"federalState":{"key":"16","name":"Thüringen"}},{"name":"Am Ehmesberg","postalCode":"99834","locality":"Gerstungen","municipality":{"key":"16063097","name":"Gerstungen","type":"Kreisangehörige_Gemeinde"},"district":{"key":"16063","name":"Wartburgkreis","type":"Landkreis"},"federalState":{"key":"16","name":"Thüringen"}},{"name":"Am Elsterberg","postalCode":"99834","locality":"Gerstungen","municipality":{"key":"16063097","name":"Gerstungen","type":"Kreisangehörige_Gemeinde"},"district":{"key":"16063","name":"Wartburgkreis","type":"Landkreis"},"federalState":{"key":"16","name":"Thüringen"}},{"name":"Am Erlenbach","postalCode":"99834","locality":"Gerstungen","municipality":{"key":"16063097","name":"Gerstungen","type":"Kreisangehörige_Gemeinde"},"district":{"key":"16063","name":"Wartburgkreis","type":"Landkreis"},"federalState":{"key":"16","name":"Thüringen"}},{"name":"Am Heiligen Graben","postalCode":"99834","locality":"Gerstungen","municipality":{"key":"16063097","name":"Gerstungen","type":"Kreisangehörige_Gemeinde"},"district":{"key":"16063","name":"Wartburgkreis","type":"Landkreis"},"federalState":{"key":"16","name":"Thüringen"}},{"name":"Am Hütschberg","postalCode":"99834","locality":"Gerstungen","municipality":{"key":"16063097","name":"Gerstungen","type":"Kreisangehörige_Gemeinde"},"district":{"key":"16063","name":"Wartburgkreis","type":"Landkreis"},"federalState":{"key":"16","name":"Thüringen"}},{"name":"Am Knieberg","postalCode":"99834","locality":"Gerstungen","municipality":{"key":"16063097","name":"Gerstungen","type":"Kreisangehörige_Gemeinde"},"district":{"key":"16063","name":"Wartburgkreis","type":"Landkreis"},"federalState":{"key":"16","name":"Thüringen"}},{"name":"Am Kreuzweg","postalCode":"99834","locality":"Gerstungen","municipality":{"key":"16063097","name":"Gerstungen","type":"Kreisangehörige_Gemeinde"},"district":{"key":"16063","name":"Wartburgkreis","type":"Landkreis"},"federalState":{"key":"16","name":"Thüringen"}},{"name":"Am Lindig","postalCode":"99834","locality":"Gerstungen","municipality":{"key":"16063097","name":"Gerstungen","type":"Kreisangehörige_Gemeinde"},"district":{"key":"16063","name":"Wartburgkreis","type":"Landkreis"},"federalState":{"key":"16","name":"Thüringen"}},{"name":"Am Nesselberg","postalCode":"99834","locality":"Gerstungen","municipality":{"key":"16063097","name":"Gerstungen","type":"Kreisangehörige_Gemeinde"},"district":{"key":"16063","name":"Wartburgkreis","type":"Landkreis"},"federalState":{"key":"16","name":"Thüringen"}},{"name":"Am Rain","postalCode":"99834","locality":"Gerstungen","municipality":{"key":"16063097","name":"Gerstungen","type":"Kreisangehörige_Gemeinde"},"district":{"key":"16063","name":"Wartburgkreis","type":"Landkreis"},"federalState":{"key":"16","name":"Thüringen"}},{"name":"Am Rasen","postalCode":"99834","locality":"Gerstungen","municipality":{"key":"16063097","name":"Gerstungen","type":"Kreisangehörige_Gemeinde"},"district":{"key":"16063","name":"Wartburgkreis","type":"Landkreis"},"federalState":{"key":"16","name":"Thüringen"}},{"name":"Am Rasenweg","postalCode":"99834","locality":"Gerstungen","municipality":{"key":"16063097","name":"Gerstungen","type":"Kreisangehörige_Gemeinde"},"district":{"key":"16063","name":"Wartburgkreis","type":"Landkreis"},"federalState":{"key":"16","name":"Thüringen"}},{"name":"Am Rennsteig","postalCode":"99834","locality":"Gerstungen","municipality":{"key":"16063097","name":"Gerstungen","type":"Kreisangehörige_Gemeinde"},"district":{"key":"16063","name":"Wartburgkreis","type":"Landkreis"},"federalState":{"key":"16","name":"Thüringen"}},{"name":"Am Ritter","postalCode":"99834","locality":"Gerstungen","municipality":{"key":"16063097","name":"Gerstungen","type":"Kreisangehörige_Gemeinde"},"district":{"key":"16063","name":"Wartburgkreis","type":"Landkreis"},"federalState":{"key":"16","name":"Thüringen"}},{"name":"Am Stechberg","postalCode":"99834","locality":"Gerstungen","municipality":{"key":"16063097","name":"Gerstungen","type":"Kreisangehörige_Gemeinde"},"district":{"key":"16063","name":"Wartburgkreis","type":"Landkreis"},"federalState":{"key":"16","name":"Thüringen"}},{"name":"Am Teich","postalCode":"99834","locality":"Gerstungen","municipality":{"key":"16063097","name":"Gerstungen","type":"Kreisangehörige_Gemeinde"},"district":{"key":"16063","name":"Wartburgkreis","type":"Landkreis"},"federalState":{"key":"16","name":"Thüringen"}},{"name":"Am Weinberg","postalCode":"99834","locality":"Gerstungen","municipality":{"key":"16063097","name":"Gerstungen","type":"Kreisangehörige_Gemeinde"},"district":{"key":"16063","name":"Wartburgkreis","type":"Landkreis"},"federalState":{"key":"16","name":"Thüringen"}},{"name":"An den Gärten","postalCode":"99834","locality":"Gerstungen","municipality":{"key":"16063097","name":"Gerstungen","type":"Kreisangehörige_Gemeinde"},"district":{"key":"16063","name":"Wartburgkreis","type":"Landkreis"},"federalState":{"key":"16","name":"Thüringen"}},{"name":"An der Elte","postalCode":"99834","locality":"Gerstungen","municipality":{"key":"16063097","name":"Gerstungen","type":"Kreisangehörige_Gemeinde"},"district":{"key":"16063","name":"Wartburgkreis","type":"Landkreis"},"federalState":{"key":"16","name":"Thüringen"}},{"name":"An der Höhe","postalCode":"99834","locality":"Gerstungen","municipality":{"key":"16063097","name":"Gerstungen","type":"Kreisangehörige_Gemeinde"},"district":{"key":"16063","name":"Wartburgkreis","type":"Landkreis"},"federalState":{"key":"16","name":"Thüringen"}},{"name":"An der Kirche","postalCode":"99834","locality":"Gerstungen","municipality":{"key":"16063097","name":"Gerstungen","type":"Kreisangehörige_Gemeinde"},"district":{"key":"16063","name":"Wartburgkreis","type":"Landkreis"},"federalState":{"key":"16","name":"Thüringen"}},{"name":"An der Lieden","postalCode":"99834","locality":"Gerstungen","municipality":{"key":"16063097","name":"Gerstungen","type":"Kreisangehörige_Gemeinde"},"district":{"key":"16063","name":"Wartburgkreis","type":"Landkreis"},"federalState":{"key":"16","name":"Thüringen"}},{"name":"Andersen-Wohnpark","postalCode":"99834","locality":"Gerstungen","municipality":{"key":"16063097","name":"Gerstungen","type":"Kreisangehörige_Gemeinde"},"district":{"key":"16063","name":"Wartburgkreis","type":"Landkreis"},"federalState":{"key":"16","name":"Thüringen"}},{"name":"An der Werra","postalCode":"99834","locality":"Gerstungen","municipality":{"key":"16063097","name":"Gerstungen","type":"Kreisangehörige_Gemeinde"},"district":{"key":"16063","name":"Wartburgkreis","type":"Landkreis"},"federalState":{"key":"16","name":"Thüringen"}},{"name":"An der Ziegelhütte","postalCode":"99834","locality":"Gerstungen","municipality":{"key":"16063097","name":"Gerstungen","type":"Kreisangehörige_Gemeinde"},"district":{"key":"16063","name":"Wartburgkreis","type":"Landkreis"},"federalState":{"key":"16","name":"Thüringen"}},{"name":"Atchenbach","postalCode":"99834","locality":"Gerstungen","municipality":{"key":"16063097","name":"Gerstungen","type":"Kreisangehörige_Gemeinde"},"district":{"key":"16063","name":"Wartburgkreis","type":"Landkreis"},"federalState":{"key":"16","name":"Thüringen"}},{"name":"Aue","postalCode":"99834","locality":"Gerstungen","municipality":{"key":"16063097","name":"Gerstungen","type":"Kreisangehörige_Gemeinde"},"district":{"key":"16063","name":"Wartburgkreis","type":"Landkreis"},"federalState":{"key":"16","name":"Thüringen"}},{"name":"Auf dem Pfarrland","postalCode":"99834","locality":"Gerstungen","municipality":{"key":"16063097","name":"Gerstungen","type":"Kreisangehörige_Gemeinde"},"district":{"key":"16063","name":"Wartburgkreis","type":"Landkreis"},"federalState":{"key":"16","name":"Thüringen"}},{"name":"Auf der Aue","postalCode":"99834","locality":"Gerstungen","municipality":{"key":"16063097","name":"Gerstungen","type":"Kreisangehörige_Gemeinde"},"district":{"key":"16063","name":"Wartburgkreis","type":"Landkreis"},"federalState":{"key":"16","name":"Thüringen"}},{"name":"Auf der Viehburg","postalCode":"99834","locality":"Gerstungen","municipality":{"key":"16063097","name":"Gerstungen","type":"Kreisangehörige_Gemeinde"},"district":{"key":"16063","name":"Wartburgkreis","type":"Landkreis"},"federalState":{"key":"16","name":"Thüringen"}},{"name":"Auf der Wolfsburg","postalCode":"99834","locality":"Gerstungen","municipality":{"key":"16063097","name":"Gerstungen","type":"Kreisangehörige_Gemeinde"},"district":{"key":"16063","name":"Wartburgkreis","type":"Landkreis"},"federalState":{"key":"16","name":"Thüringen"}},{"name":"Augustus Pfad","postalCode":"99834","locality":"Gerstungen","municipality":{"key":"16063097","name":"Gerstungen","type":"Kreisangehörige_Gemeinde"},"district":{"key":"16063","name":"Wartburgkreis","type":"Landkreis"},"federalState":{"key":"16","name":"Thüringen"}},{"name":"Aumühlengasse","postalCode":"99834","locality":"Gerstungen","municipality":{"key":"16063097","name":"Gerstungen","type":"Kreisangehörige_Gemeinde"},"district":{"key":"16063","name":"Wartburgkreis","type":"Landkreis"},"federalState":{"key":"16","name":"Thüringen"}},{"name":"Bahnhof Förtha","postalCode":"99834","locality":"Gerstungen","municipality":{"key":"16063097","name":"Gerstungen","type":"Kreisangehörige_Gemeinde"},"district":{"key":"16063","name":"Wartburgkreis","type":"Landkreis"},"federalState":{"key":"16","name":"Thüringen"}},{"name":"Bahnhofsplatz","postalCode":"99834","locality":"Gerstungen","municipality":{"key":"16063097","name":"Gerstungen","type":"Kreisangehörige_Gemeinde"},"district":{"key":"16063","name":"Wartburgkreis","type":"Landkreis"},"federalState":{"key":"16","name":"Thüringen"}},{"name":"Bahnhofstr.","postalCode":"99834","locality":"Gerstungen","municipality":{"key":"16063097","name":"Gerstungen","type":"Kreisangehörige_Gemeinde"},"district":{"key":"16063","name":"Wartburgkreis","type":"Landkreis"},"federalState":{"key":"16","name":"Thüringen"}},{"name":"Baueshof","postalCode":"99834","locality":"Gerstungen","municipality":{"key":"16063097","name":"Gerstungen","type":"Kreisangehörige_Gemeinde"},"district":{"key":"16063","name":"Wartburgkreis","type":"Landkreis"},"federalState":{"key":"16","name":"Thüringen"}},{"name":"Beim Schulland","postalCode":"99834","locality":"Gerstungen","municipality":{"key":"16063097","name":"Gerstungen","type":"Kreisangehörige_Gemeinde"},"district":{"key":"16063","name":"Wartburgkreis","type":"Landkreis"},"federalState":{"key":"16","name":"Thüringen"}},{"name":"Bergmannsweg","postalCode":"99834","locality":"Gerstungen","municipality":{"key":"16063097","name":"Gerstungen","type":"Kreisangehörige_Gemeinde"},"district":{"key":"16063","name":"Wartburgkreis","type":"Landkreis"},"federalState":{"key":"16","name":"Thüringen"}},{"name":"Bergstr.","postalCode":"99834","locality":"Gerstungen","municipality":{"key":"16063097","name":"Gerstungen","type":"Kreisangehörige_Gemeinde"},"district":{"key":"16063","name":"Wartburgkreis","type":"Landkreis"},"federalState":{"key":"16","name":"Thüringen"}},{"name":"Berkaer Str.","postalCode":"99834","locality":"Gerstungen","municipality":{"key":"16063097","name":"Gerstungen","type":"Kreisangehörige_Gemeinde"},"district":{"key":"16063","name":"Wartburgkreis","type":"Landkreis"},"federalState":{"key":"16","name":"Thüringen"}},{"name":"Bienengasse","postalCode":"99834","locality":"Gerstungen","municipality":{"key":"16063097","name":"Gerstungen","type":"Kreisangehörige_Gemeinde"},"district":{"key":"16063","name":"Wartburgkreis","type":"Landkreis"},"federalState":{"key":"16","name":"Thüringen"}},{"name":"Bohngartental","postalCode":"99834","locality":"Gerstungen","municipality":{"key":"16063097","name":"Gerstungen","type":"Kreisangehörige_Gemeinde"},"district":{"key":"16063","name":"Wartburgkreis","type":"Landkreis"},"federalState":{"key":"16","name":"Thüringen"}},{"name":"Borngasse","postalCode":"99834","locality":"Gerstungen","municipality":{"key":"16063097","name":"Gerstungen","type":"Kreisangehörige_Gemeinde"},"district":{"key":"16063","name":"Wartburgkreis","type":"Landkreis"},"federalState":{"key":"16","name":"Thüringen"}},{"name":"Braugasse","postalCode":"99834","locality":"Gerstungen","municipality":{"key":"16063097","name":"Gerstungen","type":"Kreisangehörige_Gemeinde"},"district":{"key":"16063","name":"Wartburgkreis","type":"Landkreis"},"federalState":{"key":"16","name":"Thüringen"}},{"name":"Brückenstr.","postalCode":"99834","locality":"Gerstungen","municipality":{"key":"16063097","name":"Gerstungen","type":"Kreisangehörige_Gemeinde"},"district":{"key":"16063","name":"Wartburgkreis","type":"Landkreis"},"federalState":{"key":"16","name":"Thüringen"}},{"name":"Brunnenstr.","postalCode":"99834","locality":"Gerstungen","municipality":{"key":"16063097","name":"Gerstungen","type":"Kreisangehörige_Gemeinde"},"district":{"key":"16063","name":"Wartburgkreis","type":"Landkreis"},"federalState":{"key":"16","name":"Thüringen"}},{"name":"Bungalowsiedlung In der Struth I","postalCode":"99834","locality":"Gerstungen","municipality":{"key":"16063097","name":"Gerstungen","type":"Kreisangehörige_Gemeinde"},"district":{"key":"16063","name":"Wartburgkreis","type":"Landkreis"},"federalState":{"key":"16","name":"Thüringen"}},{"name":"Bungalowsiedlung In der Struth II","postalCode":"99834","locality":"Gerstungen","municipality":{"key":"16063097","name":"Gerstungen","type":"Kreisangehörige_Gemeinde"},"district":{"key":"16063","name":"Wartburgkreis","type":"Landkreis"},"federalState":{"key":"16","name":"Thüringen"}},{"name":"Bungalowsiedlung In der Struth III","postalCode":"99834","locality":"Gerstungen","municipality":{"key":"16063097","name":"Gerstungen","type":"Kreisangehörige_Gemeinde"},"district":{"key":"16063","name":"Wartburgkreis","type":"Landkreis"},"federalState":{"key":"16","name":"Thüringen"}},{"name":"Burkhardtrodaer Weg","postalCode":"99834","locality":"Gerstungen","municipality":{"key":"16063097","name":"Gerstungen","type":"Kreisangehörige_Gemeinde"},"district":{"key":"16063","name":"Wartburgkreis","type":"Landkreis"},"federalState":{"key":"16","name":"Thüringen"}},{"name":"Clausberg","postalCode":"99834","locality":"Gerstungen","municipality":{"key":"16063097","name":"Gerstungen","type":"Kreisangehörige_Gemeinde"},"district":{"key":"16063","name":"Wartburgkreis","type":"Landkreis"},"federalState":{"key":"16","name":"Thüringen"}},{"name":"Diesterwegstr.","postalCode":"99834","locality":"Gerstungen","municipality":{"key":"16063097","name":"Gerstungen","type":"Kreisangehörige_Gemeinde"},"district":{"key":"16063","name":"Wartburgkreis","type":"Landkreis"},"federalState":{"key":"16","name":"Thüringen"}},{"name":"Dorfstr.","postalCode":"99834","locality":"Gerstungen","municipality":{"key":"16063097","name":"Gerstungen","type":"Kreisangehörige_Gemeinde"},"district":{"key":"16063","name":"Wartburgkreis","type":"Landkreis"},"federalState":{"key":"16","name":"Thüringen"}},{"name":"Eckardtshäuser Weg","postalCode":"99834","locality":"Gerstungen","municipality":{"key":"16063097","name":"Gerstungen","type":"Kreisangehörige_Gemeinde"},"district":{"key":"16063","name":"Wartburgkreis","type":"Landkreis"},"federalState":{"key":"16","name":"Thüringen"}},{"name":"Eichgrund","postalCode":"99834","locality":"Gerstungen","municipality":{"key":"16063097","name":"Gerstungen","type":"Kreisangehörige_Gemeinde"},"district":{"key":"16063","name":"Wartburgkreis","type":"Landkreis"},"federalState":{"key":"16","name":"Thüringen"}},{"name":"Eiermarkt","postalCode":"99834","locality":"Gerstungen","municipality":{"key":"16063097","name":"Gerstungen","type":"Kreisangehörige_Gemeinde"},"district":{"key":"16063","name":"Wartburgkreis","type":"Landkreis"},"federalState":{"key":"16","name":"Thüringen"}},{"name":"Eisenacher Str.","postalCode":"99834","locality":"Gerstungen","municipality":{"key":"16063097","name":"Gerstungen","type":"Kreisangehörige_Gemeinde"},"district":{"key":"16063","name":"Wartburgkreis","type":"Landkreis"},"federalState":{"key":"16","name":"Thüringen"}},{"name":"Eisfeld","postalCode":"99834","locality":"Gerstungen","municipality":{"key":"16063097","name":"Gerstungen","type":"Kreisangehörige_Gemeinde"},"district":{"key":"16063","name":"Wartburgkreis","type":"Landkreis"},"federalState":{"key":"16","name":"Thüringen"}},{"name":"Ellerstr.","postalCode":"99834","locality":"Gerstungen","municipality":{"key":"16063097","name":"Gerstungen","type":"Kreisangehörige_Gemeinde"},"district":{"key":"16063","name":"Wartburgkreis","type":"Landkreis"},"federalState":{"key":"16","name":"Thüringen"}},{"name":"Eltestr.","postalCode":"99834","locality":"Gerstungen","municipality":{"key":"16063097","name":"Gerstungen","type":"Kreisangehörige_Gemeinde"},"district":{"key":"16063","name":"Wartburgkreis","type":"Landkreis"},"federalState":{"key":"16","name":"Thüringen"}},{"name":"Elteweg","postalCode":"99834","locality":"Gerstungen","municipality":{"key":"16063097","name":"Gerstungen","type":"Kreisangehörige_Gemeinde"},"district":{"key":"16063","name":"Wartburgkreis","type":"Landkreis"},"federalState":{"key":"16","name":"Thüringen"}},{"name":"Epichneller Str.","postalCode":"99834","locality":"Gerstungen","municipality":{"key":"16063097","name":"Gerstungen","type":"Kreisangehörige_Gemeinde"},"district":{"key":"16063","name":"Wartburgkreis","type":"Landkreis"},"federalState":{"key":"16","name":"Thüringen"}},{"name":"Ernst-Thälmann-Str.","postalCode":"99834","locality":"Gerstungen","municipality":{"key":"16063097","name":"Gerstungen","type":"Kreisangehörige_Gemeinde"},"district":{"key":"16063","name":"Wartburgkreis","type":"Landkreis"},"federalState":{"key":"16","name":"Thüringen"}},{"name":"Ettenhäuser Weg","postalCode":"99834","locality":"Gerstungen","municipality":{"key":"16063097","name":"Gerstungen","type":"Kreisangehörige_Gemeinde"},"district":{"key":"16063","name":"Wartburgkreis","type":"Landkreis"},"federalState":{"key":"16","name":"Thüringen"}},{"name":"Feldstr.","postalCode":"99834","locality":"Gerstungen","municipality":{"key":"16063097","name":"Gerstungen","type":"Kreisangehörige_Gemeinde"},"district":{"key":"16063","name":"Wartburgkreis","type":"Landkreis"},"federalState":{"key":"16","name":"Thüringen"}},{"name":"Feldweg","postalCode":"99834","locality":"Gerstungen","municipality":{"key":"16063097","name":"Gerstungen","type":"Kreisangehörige_Gemeinde"},"district":{"key":"16063","name":"Wartburgkreis","type":"Landkreis"},"federalState":{"key":"16","name":"Thüringen"}},{"name":"Festplatz","postalCode":"99834","locality":"Gerstungen","municipality":{"key":"16063097","name":"Gerstungen","type":"Kreisangehörige_Gemeinde"},"district":{"key":"16063","name":"Wartburgkreis","type":"Landkreis"},"federalState":{"key":"16","name":"Thüringen"}},{"name":"Fischgasse","postalCode":"99834","locality":"Gerstungen","municipality":{"key":"16063097","name":"Gerstungen","type":"Kreisangehörige_Gemeinde"},"district":{"key":"16063","name":"Wartburgkreis","type":"Landkreis"},"federalState":{"key":"16","name":"Thüringen"}},{"name":"fix me","postalCode":"99834","locality":"Gerstungen","municipality":{"key":"16063097","name":"Gerstungen","type":"Kreisangehörige_Gemeinde"},"district":{"key":"16063","name":"Wartburgkreis","type":"Landkreis"},"federalState":{"key":"16","name":"Thüringen"}},{"name":"Fliederweg","postalCode":"99834","locality":"Gerstungen","municipality":{"key":"16063097","name":"Gerstungen","type":"Kreisangehörige_Gemeinde"},"district":{"key":"16063","name":"Wartburgkreis","type":"Landkreis"},"federalState":{"key":"16","name":"Thüringen"}},{"name":"Flurstr.","postalCode":"99834","locality":"Gerstungen","municipality":{"key":"16063097","name":"Gerstungen","type":"Kreisangehörige_Gemeinde"},"district":{"key":"16063","name":"Wartburgkreis","type":"Landkreis"},"federalState":{"key":"16","name":"Thüringen"}},{"name":"Förthaer Str.","postalCode":"99834","locality":"Gerstungen","municipality":{"key":"16063097","name":"Gerstungen","type":"Kreisangehörige_Gemeinde"},"district":{"key":"16063","name":"Wartburgkreis","type":"Landkreis"},"federalState":{"key":"16","name":"Thüringen"}},{"name":"Förthaer Weg","postalCode":"99834","locality":"Gerstungen","municipality":{"key":"16063097","name":"Gerstungen","type":"Kreisangehörige_Gemeinde"},"district":{"key":"16063","name":"Wartburgkreis","type":"Landkreis"},"federalState":{"key":"16","name":"Thüringen"}},{"name":"Frankfurter Str.","postalCode":"99834","locality":"Gerstungen","municipality":{"key":"16063097","name":"Gerstungen","type":"Kreisangehörige_Gemeinde"},"district":{"key":"16063","name":"Wartburgkreis","type":"Landkreis"},"federalState":{"key":"16","name":"Thüringen"}},{"name":"Friedensteinstr.","postalCode":"99834","locality":"Gerstungen","municipality":{"key":"16063097","name":"Gerstungen","type":"Kreisangehörige_Gemeinde"},"district":{"key":"16063","name":"Wartburgkreis","type":"Landkreis"},"federalState":{"key":"16","name":"Thüringen"}},{"name":"Friedhofstr.","postalCode":"99834","locality":"Gerstungen","municipality":{"key":"16063097","name":"Gerstungen","type":"Kreisangehörige_Gemeinde"},"district":{"key":"16063","name":"Wartburgkreis","type":"Landkreis"},"federalState":{"key":"16","name":"Thüringen"}},{"name":"Friedhofsweg","postalCode":"99834","locality":"Gerstungen","municipality":{"key":"16063097","name":"Gerstungen","type":"Kreisangehörige_Gemeinde"},"district":{"key":"16063","name":"Wartburgkreis","type":"Landkreis"},"federalState":{"key":"16","name":"Thüringen"}},{"name":"Friedrich-Ebert-Str.","postalCode":"99834","locality":"Gerstungen","municipality":{"key":"16063097","name":"Gerstungen","type":"Kreisangehörige_Gemeinde"},"district":{"key":"16063","name":"Wartburgkreis","type":"Landkreis"},"federalState":{"key":"16","name":"Thüringen"}},{"name":"Fries-Weg","postalCode":"99834","locality":"Gerstungen","municipality":{"key":"16063097","name":"Gerstungen","type":"Kreisangehörige_Gemeinde"},"district":{"key":"16063","name":"Wartburgkreis","type":"Landkreis"},"federalState":{"key":"16","name":"Thüringen"}},{"name":"Fröbelstr.","postalCode":"99834","locality":"Gerstungen","municipality":{"key":"16063097","name":"Gerstungen","type":"Kreisangehörige_Gemeinde"},"district":{"key":"16063","name":"Wartburgkreis","type":"Landkreis"},"federalState":{"key":"16","name":"Thüringen"}},{"name":"Gartenstr.","postalCode":"99834","locality":"Gerstungen","municipality":{"key":"16063097","name":"Gerstungen","type":"Kreisangehörige_Gemeinde"},"district":{"key":"16063","name":"Wartburgkreis","type":"Landkreis"},"federalState":{"key":"16","name":"Thüringen"}},{"name":"Gasse","postalCode":"99834","locality":"Gerstungen","municipality":{"key":"16063097","name":"Gerstungen","type":"Kreisangehörige_Gemeinde"},"district":{"key":"16063","name":"Wartburgkreis","type":"Landkreis"},"federalState":{"key":"16","name":"Thüringen"}},{"name":"Gäufeldener Str.","postalCode":"99834","locality":"Gerstungen","municipality":{"key":"16063097","name":"Gerstungen","type":"Kreisangehörige_Gemeinde"},"district":{"key":"16063","name":"Wartburgkreis","type":"Landkreis"},"federalState":{"key":"16","name":"Thüringen"}},{"name":"Gerstunger Str.","postalCode":"99834","locality":"Gerstungen","municipality":{"key":"16063097","name":"Gerstungen","type":"Kreisangehörige_Gemeinde"},"district":{"key":"16063","name":"Wartburgkreis","type":"Landkreis"},"federalState":{"key":"16","name":"Thüringen"}},{"name":"Gintzbach","postalCode":"99834","locality":"Gerstungen","municipality":{"key":"16063097","name":"Gerstungen","type":"Kreisangehörige_Gemeinde"},"district":{"key":"16063","name":"Wartburgkreis","type":"Landkreis"},"federalState":{"key":"16","name":"Thüringen"}},{"name":"Goethestr.","postalCode":"99834","locality":"Gerstungen","municipality":{"key":"16063097","name":"Gerstungen","type":"Kreisangehörige_Gemeinde"},"district":{"key":"16063","name":"Wartburgkreis","type":"Landkreis"},"federalState":{"key":"16","name":"Thüringen"}},{"name":"Grenzstr.","postalCode":"99834","locality":"Gerstungen","municipality":{"key":"16063097","name":"Gerstungen","type":"Kreisangehörige_Gemeinde"},"district":{"key":"16063","name":"Wartburgkreis","type":"Landkreis"},"federalState":{"key":"16","name":"Thüringen"}},{"name":"Grenzweg","postalCode":"99834","locality":"Gerstungen","municipality":{"key":"16063097","name":"Gerstungen","type":"Kreisangehörige_Gemeinde"},"district":{"key":"16063","name":"Wartburgkreis","type":"Landkreis"},"federalState":{"key":"16","name":"Thüringen"}},{"name":"Großgasse","postalCode":"99834","locality":"Gerstungen","municipality":{"key":"16063097","name":"Gerstungen","type":"Kreisangehörige_Gemeinde"},"district":{"key":"16063","name":"Wartburgkreis","type":"Landkreis"},"federalState":{"key":"16","name":"Thüringen"}},{"name":"Grünanlage","postalCode":"99834","locality":"Gerstungen","municipality":{"key":"16063097","name":"Gerstungen","type":"Kreisangehörige_Gemeinde"},"district":{"key":"16063","name":"Wartburgkreis","type":"Landkreis"},"federalState":{"key":"16","name":"Thüringen"}},{"name":"Grund","postalCode":"99834","locality":"Gerstungen","municipality":{"key":"16063097","name":"Gerstungen","type":"Kreisangehörige_Gemeinde"},"district":{"key":"16063","name":"Wartburgkreis","type":"Landkreis"},"federalState":{"key":"16","name":"Thüringen"}},{"name":"Grundstr.","postalCode":"99834","locality":"Gerstungen","municipality":{"key":"16063097","name":"Gerstungen","type":"Kreisangehörige_Gemeinde"},"district":{"key":"16063","name":"Wartburgkreis","type":"Landkreis"},"federalState":{"key":"16","name":"Thüringen"}},{"name":"Gunkelsgasse","postalCode":"99834","locality":"Gerstungen","municipality":{"key":"16063097","name":"Gerstungen","type":"Kreisangehörige_Gemeinde"},"district":{"key":"16063","name":"Wartburgkreis","type":"Landkreis"},"federalState":{"key":"16","name":"Thüringen"}},{"name":"Hagelgasse","postalCode":"99834","locality":"Gerstungen","municipality":{"key":"16063097","name":"Gerstungen","type":"Kreisangehörige_Gemeinde"},"district":{"key":"16063","name":"Wartburgkreis","type":"Landkreis"},"federalState":{"key":"16","name":"Thüringen"}},{"name":"Hartweg","postalCode":"99834","locality":"Gerstungen","municipality":{"key":"16063097","name":"Gerstungen","type":"Kreisangehörige_Gemeinde"},"district":{"key":"16063","name":"Wartburgkreis","type":"Landkreis"},"federalState":{"key":"16","name":"Thüringen"}},{"name":"Hauptstr.","postalCode":"99834","locality":"Gerstungen","municipality":{"key":"16063097","name":"Gerstungen","type":"Kreisangehörige_Gemeinde"},"district":{"key":"16063","name":"Wartburgkreis","type":"Landkreis"},"federalState":{"key":"16","name":"Thüringen"}},{"name":"Heinrich-Heine-Str.","postalCode":"99834","locality":"Gerstungen","municipality":{"key":"16063097","name":"Gerstungen","type":"Kreisangehörige_Gemeinde"},"district":{"key":"16063","name":"Wartburgkreis","type":"Landkreis"},"federalState":{"key":"16","name":"Thüringen"}},{"name":"Herdaer Str.","postalCode":"99834","locality":"Gerstungen","municipality":{"key":"16063097","name":"Gerstungen","type":"Kreisangehörige_Gemeinde"},"district":{"key":"16063","name":"Wartburgkreis","type":"Landkreis"},"federalState":{"key":"16","name":"Thüringen"}},{"name":"Herdaer Weg","postalCode":"99834","locality":"Gerstungen","municipality":{"key":"16063097","name":"Gerstungen","type":"Kreisangehörige_Gemeinde"},"district":{"key":"16063","name":"Wartburgkreis","type":"Landkreis"},"federalState":{"key":"16","name":"Thüringen"}},{"name":"Herleshäuser Str.","postalCode":"99834","locality":"Gerstungen","municipality":{"key":"16063097","name":"Gerstungen","type":"Kreisangehörige_Gemeinde"},"district":{"key":"16063","name":"Wartburgkreis","type":"Landkreis"},"federalState":{"key":"16","name":"Thüringen"}},{"name":"Hermannstr.","postalCode":"99834","locality":"Gerstungen","municipality":{"key":"16063097","name":"Gerstungen","type":"Kreisangehörige_Gemeinde"},"district":{"key":"16063","name":"Wartburgkreis","type":"Landkreis"},"federalState":{"key":"16","name":"Thüringen"}},{"name":"Herrenmühlenacker","postalCode":"99834","locality":"Gerstungen","municipality":{"key":"16063097","name":"Gerstungen","type":"Kreisangehörige_Gemeinde"},"district":{"key":"16063","name":"Wartburgkreis","type":"Landkreis"},"federalState":{"key":"16","name":"Thüringen"}},{"name":"Herrschaftsbrücke","postalCode":"99834","locality":"Gerstungen","municipality":{"key":"16063097","name":"Gerstungen","type":"Kreisangehörige_Gemeinde"},"district":{"key":"16063","name":"Wartburgkreis","type":"Landkreis"},"federalState":{"key":"16","name":"Thüringen"}},{"name":"Herth","postalCode":"99834","locality":"Gerstungen","municipality":{"key":"16063097","name":"Gerstungen","type":"Kreisangehörige_Gemeinde"},"district":{"key":"16063","name":"Wartburgkreis","type":"Landkreis"},"federalState":{"key":"16","name":"Thüringen"}},{"name":"Hinter den Gärten","postalCode":"99834","locality":"Gerstungen","municipality":{"key":"16063097","name":"Gerstungen","type":"Kreisangehörige_Gemeinde"},"district":{"key":"16063","name":"Wartburgkreis","type":"Landkreis"},"federalState":{"key":"16","name":"Thüringen"}},{"name":"Hinter den Höfen","postalCode":"99834","locality":"Gerstungen","municipality":{"key":"16063097","name":"Gerstungen","type":"Kreisangehörige_Gemeinde"},"district":{"key":"16063","name":"Wartburgkreis","type":"Landkreis"},"federalState":{"key":"16","name":"Thüringen"}},{"name":"Hintergasse","postalCode":"99834","locality":"Gerstungen","municipality":{"key":"16063097","name":"Gerstungen","type":"Kreisangehörige_Gemeinde"},"district":{"key":"16063","name":"Wartburgkreis","type":"Landkreis"},"federalState":{"key":"16","name":"Thüringen"}},{"name":"Hinterm Garten","postalCode":"99834","locality":"Gerstungen","municipality":{"key":"16063097","name":"Gerstungen","type":"Kreisangehörige_Gemeinde"},"district":{"key":"16063","name":"Wartburgkreis","type":"Landkreis"},"federalState":{"key":"16","name":"Thüringen"}},{"name":"Hirtgasse","postalCode":"99834","locality":"Gerstungen","municipality":{"key":"16063097","name":"Gerstungen","type":"Kreisangehörige_Gemeinde"},"district":{"key":"16063","name":"Wartburgkreis","type":"Landkreis"},"federalState":{"key":"16","name":"Thüringen"}},{"name":"hohe Roth","postalCode":"99834","locality":"Gerstungen","municipality":{"key":"16063097","name":"Gerstungen","type":"Kreisangehörige_Gemeinde"},"district":{"key":"16063","name":"Wartburgkreis","type":"Landkreis"},"federalState":{"key":"16","name":"Thüringen"}},{"name":"Hütschhof","postalCode":"99834","locality":"Gerstungen","municipality":{"key":"16063097","name":"Gerstungen","type":"Kreisangehörige_Gemeinde"},"district":{"key":"16063","name":"Wartburgkreis","type":"Landkreis"},"federalState":{"key":"16","name":"Thüringen"}},{"name":"Im Brühl","postalCode":"99834","locality":"Gerstungen","municipality":{"key":"16063097","name":"Gerstungen","type":"Kreisangehörige_Gemeinde"},"district":{"key":"16063","name":"Wartburgkreis","type":"Landkreis"},"federalState":{"key":"16","name":"Thüringen"}},{"name":"Im Feld","postalCode":"99834","locality":"Gerstungen","municipality":{"key":"16063097","name":"Gerstungen","type":"Kreisangehörige_Gemeinde"},"district":{"key":"16063","name":"Wartburgkreis","type":"Landkreis"},"federalState":{"key":"16","name":"Thüringen"}},{"name":"Im Kleegarten","postalCode":"99834","locality":"Gerstungen","municipality":{"key":"16063097","name":"Gerstungen","type":"Kreisangehörige_Gemeinde"},"district":{"key":"16063","name":"Wartburgkreis","type":"Landkreis"},"federalState":{"key":"16","name":"Thüringen"}},{"name":"Im Kleinen Dorf","postalCode":"99834","locality":"Gerstungen","municipality":{"key":"16063097","name":"Gerstungen","type":"Kreisangehörige_Gemeinde"},"district":{"key":"16063","name":"Wartburgkreis","type":"Landkreis"},"federalState":{"key":"16","name":"Thüringen"}},{"name":"Im Lindigshof","postalCode":"99834","locality":"Gerstungen","municipality":{"key":"16063097","name":"Gerstungen","type":"Kreisangehörige_Gemeinde"},"district":{"key":"16063","name":"Wartburgkreis","type":"Landkreis"},"federalState":{"key":"16","name":"Thüringen"}},{"name":"Im Mühlengrund","postalCode":"99834","locality":"Gerstungen","municipality":{"key":"16063097","name":"Gerstungen","type":"Kreisangehörige_Gemeinde"},"district":{"key":"16063","name":"Wartburgkreis","type":"Landkreis"},"federalState":{"key":"16","name":"Thüringen"}},{"name":"Im Riete","postalCode":"99834","locality":"Gerstungen","municipality":{"key":"16063097","name":"Gerstungen","type":"Kreisangehörige_Gemeinde"},"district":{"key":"16063","name":"Wartburgkreis","type":"Landkreis"},"federalState":{"key":"16","name":"Thüringen"}},{"name":"Im Weihersfelde","postalCode":"99834","locality":"Gerstungen","municipality":{"key":"16063097","name":"Gerstungen","type":"Kreisangehörige_Gemeinde"},"district":{"key":"16063","name":"Wartburgkreis","type":"Landkreis"},"federalState":{"key":"16","name":"Thüringen"}},{"name":"Im Wiesengrund","postalCode":"99834","locality":"Gerstungen","municipality":{"key":"16063097","name":"Gerstungen","type":"Kreisangehörige_Gemeinde"},"district":{"key":"16063","name":"Wartburgkreis","type":"Landkreis"},"federalState":{"key":"16","name":"Thüringen"}},{"name":"In der Flur","postalCode":"99834","locality":"Gerstungen","municipality":{"key":"16063097","name":"Gerstungen","type":"Kreisangehörige_Gemeinde"},"district":{"key":"16063","name":"Wartburgkreis","type":"Landkreis"},"federalState":{"key":"16","name":"Thüringen"}},{"name":"In der Kubig","postalCode":"99834","locality":"Gerstungen","municipality":{"key":"16063097","name":"Gerstungen","type":"Kreisangehörige_Gemeinde"},"district":{"key":"16063","name":"Wartburgkreis","type":"Landkreis"},"federalState":{"key":"16","name":"Thüringen"}},{"name":"In der Pfitz","postalCode":"99834","locality":"Gerstungen","municipality":{"key":"16063097","name":"Gerstungen","type":"Kreisangehörige_Gemeinde"},"district":{"key":"16063","name":"Wartburgkreis","type":"Landkreis"},"federalState":{"key":"16","name":"Thüringen"}},{"name":"In der Schmiede","postalCode":"99834","locality":"Gerstungen","municipality":{"key":"16063097","name":"Gerstungen","type":"Kreisangehörige_Gemeinde"},"district":{"key":"16063","name":"Wartburgkreis","type":"Landkreis"},"federalState":{"key":"16","name":"Thüringen"}},{"name":"In der Struth","postalCode":"99834","locality":"Gerstungen","municipality":{"key":"16063097","name":"Gerstungen","type":"Kreisangehörige_Gemeinde"},"district":{"key":"16063","name":"Wartburgkreis","type":"Landkreis"},"federalState":{"key":"16","name":"Thüringen"}},{"name":"Jahnstr.","postalCode":"99834","locality":"Gerstungen","municipality":{"key":"16063097","name":"Gerstungen","type":"Kreisangehörige_Gemeinde"},"district":{"key":"16063","name":"Wartburgkreis","type":"Landkreis"},"federalState":{"key":"16","name":"Thüringen"}},{"name":"Josthof","postalCode":"99834","locality":"Gerstungen","municipality":{"key":"16063097","name":"Gerstungen","type":"Kreisangehörige_Gemeinde"},"district":{"key":"16063","name":"Wartburgkreis","type":"Landkreis"},"federalState":{"key":"16","name":"Thüringen"}},{"name":"K 505","postalCode":"99834","locality":"Gerstungen","municipality":{"key":"16063097","name":"Gerstungen","type":"Kreisangehörige_Gemeinde"},"district":{"key":"16063","name":"Wartburgkreis","type":"Landkreis"},"federalState":{"key":"16","name":"Thüringen"}},{"name":"Kapellenstr.","postalCode":"99834","locality":"Gerstungen","municipality":{"key":"16063097","name":"Gerstungen","type":"Kreisangehörige_Gemeinde"},"district":{"key":"16063","name":"Wartburgkreis","type":"Landkreis"},"federalState":{"key":"16","name":"Thüringen"}},{"name":"Kapellenweg","postalCode":"99834","locality":"Gerstungen","municipality":{"key":"16063097","name":"Gerstungen","type":"Kreisangehörige_Gemeinde"},"district":{"key":"16063","name":"Wartburgkreis","type":"Landkreis"},"federalState":{"key":"16","name":"Thüringen"}},{"name":"Karlstr.","postalCode":"99834","locality":"Gerstungen","municipality":{"key":"16063097","name":"Gerstungen","type":"Kreisangehörige_Gemeinde"},"district":{"key":"16063","name":"Wartburgkreis","type":"Landkreis"},"federalState":{"key":"16","name":"Thüringen"}},{"name":"Kirchplatz","postalCode":"99834","locality":"Gerstungen","municipality":{"key":"16063097","name":"Gerstungen","type":"Kreisangehörige_Gemeinde"},"district":{"key":"16063","name":"Wartburgkreis","type":"Landkreis"},"federalState":{"key":"16","name":"Thüringen"}},{"name":"Kohlbachstr.","postalCode":"99834","locality":"Gerstungen","municipality":{"key":"16063097","name":"Gerstungen","type":"Kreisangehörige_Gemeinde"},"district":{"key":"16063","name":"Wartburgkreis","type":"Landkreis"},"federalState":{"key":"16","name":"Thüringen"}},{"name":"Kolonnenweg","postalCode":"99834","locality":"Gerstungen","municipality":{"key":"16063097","name":"Gerstungen","type":"Kreisangehörige_Gemeinde"},"district":{"key":"16063","name":"Wartburgkreis","type":"Landkreis"},"federalState":{"key":"16","name":"Thüringen"}},{"name":"Kreuzäcker","postalCode":"99834","locality":"Gerstungen","municipality":{"key":"16063097","name":"Gerstungen","type":"Kreisangehörige_Gemeinde"},"district":{"key":"16063","name":"Wartburgkreis","type":"Landkreis"},"federalState":{"key":"16","name":"Thüringen"}},{"name":"Kröchergasse","postalCode":"99834","locality":"Gerstungen","municipality":{"key":"16063097","name":"Gerstungen","type":"Kreisangehörige_Gemeinde"},"district":{"key":"16063","name":"Wartburgkreis","type":"Landkreis"},"federalState":{"key":"16","name":"Thüringen"}},{"name":"Kuhgasse","postalCode":"99834","locality":"Gerstungen","municipality":{"key":"16063097","name":"Gerstungen","type":"Kreisangehörige_Gemeinde"},"district":{"key":"16063","name":"Wartburgkreis","type":"Landkreis"},"federalState":{"key":"16","name":"Thüringen"}},{"name":"Kupfersuhler Str.","postalCode":"99834","locality":"Gerstungen","municipality":{"key":"16063097","name":"Gerstungen","type":"Kreisangehörige_Gemeinde"},"district":{"key":"16063","name":"Wartburgkreis","type":"Landkreis"},"federalState":{"key":"16","name":"Thüringen"}},{"name":"Kupfersuhler Weg","postalCode":"99834","locality":"Gerstungen","municipality":{"key":"16063097","name":"Gerstungen","type":"Kreisangehörige_Gemeinde"},"district":{"key":"16063","name":"Wartburgkreis","type":"Landkreis"},"federalState":{"key":"16","name":"Thüringen"}},{"name":"Lagerplatz","postalCode":"99834","locality":"Gerstungen","municipality":{"key":"16063097","name":"Gerstungen","type":"Kreisangehörige_Gemeinde"},"district":{"key":"16063","name":"Wartburgkreis","type":"Landkreis"},"federalState":{"key":"16","name":"Thüringen"}},{"name":"Landstr.","postalCode":"99834","locality":"Gerstungen","municipality":{"key":"16063097","name":"Gerstungen","type":"Kreisangehörige_Gemeinde"},"district":{"key":"16063","name":"Wartburgkreis","type":"Landkreis"},"federalState":{"key":"16","name":"Thüringen"}},{"name":"Lange Birke","postalCode":"99834","locality":"Gerstungen","municipality":{"key":"16063097","name":"Gerstungen","type":"Kreisangehörige_Gemeinde"},"district":{"key":"16063","name":"Wartburgkreis","type":"Landkreis"},"federalState":{"key":"16","name":"Thüringen"}},{"name":"Langer Streif","postalCode":"99834","locality":"Gerstungen","municipality":{"key":"16063097","name":"Gerstungen","type":"Kreisangehörige_Gemeinde"},"district":{"key":"16063","name":"Wartburgkreis","type":"Landkreis"},"federalState":{"key":"16","name":"Thüringen"}},{"name":"Langgarten","postalCode":"99834","locality":"Gerstungen","municipality":{"key":"16063097","name":"Gerstungen","type":"Kreisangehörige_Gemeinde"},"district":{"key":"16063","name":"Wartburgkreis","type":"Landkreis"},"federalState":{"key":"16","name":"Thüringen"}},{"name":"Lärchenweg","postalCode":"99834","locality":"Gerstungen","municipality":{"key":"16063097","name":"Gerstungen","type":"Kreisangehörige_Gemeinde"},"district":{"key":"16063","name":"Wartburgkreis","type":"Landkreis"},"federalState":{"key":"16","name":"Thüringen"}},{"name":"Leipziger Str.","postalCode":"99834","locality":"Gerstungen","municipality":{"key":"16063097","name":"Gerstungen","type":"Kreisangehörige_Gemeinde"},"district":{"key":"16063","name":"Wartburgkreis","type":"Landkreis"},"federalState":{"key":"16","name":"Thüringen"}},{"name":"Lindenplatz","postalCode":"99834","locality":"Gerstungen","municipality":{"key":"16063097","name":"Gerstungen","type":"Kreisangehörige_Gemeinde"},"district":{"key":"16063","name":"Wartburgkreis","type":"Landkreis"},"federalState":{"key":"16","name":"Thüringen"}},{"name":"Lindenstr.","postalCode":"99834","locality":"Gerstungen","municipality":{"key":"16063097","name":"Gerstungen","type":"Kreisangehörige_Gemeinde"},"district":{"key":"16063","name":"Wartburgkreis","type":"Landkreis"},"federalState":{"key":"16","name":"Thüringen"}},{"name":"Löbersgasse","postalCode":"99834","locality":"Gerstungen","municipality":{"key":"16063097","name":"Gerstungen","type":"Kreisangehörige_Gemeinde"},"district":{"key":"16063","name":"Wartburgkreis","type":"Landkreis"},"federalState":{"key":"16","name":"Thüringen"}},{"name":"LPG-Str.","postalCode":"99834","locality":"Gerstungen","municipality":{"key":"16063097","name":"Gerstungen","type":"Kreisangehörige_Gemeinde"},"district":{"key":"16063","name":"Wartburgkreis","type":"Landkreis"},"federalState":{"key":"16","name":"Thüringen"}},{"name":"Lulluspfad","postalCode":"99834","locality":"Gerstungen","municipality":{"key":"16063097","name":"Gerstungen","type":"Kreisangehörige_Gemeinde"},"district":{"key":"16063","name":"Wartburgkreis","type":"Landkreis"},"federalState":{"key":"16","name":"Thüringen"}},{"name":"Lutherstr.","postalCode":"99834","locality":"Gerstungen","municipality":{"key":"16063097","name":"Gerstungen","type":"Kreisangehörige_Gemeinde"},"district":{"key":"16063","name":"Wartburgkreis","type":"Landkreis"},"federalState":{"key":"16","name":"Thüringen"}},{"name":"Lutzberg","postalCode":"99834","locality":"Gerstungen","municipality":{"key":"16063097","name":"Gerstungen","type":"Kreisangehörige_Gemeinde"},"district":{"key":"16063","name":"Wartburgkreis","type":"Landkreis"},"federalState":{"key":"16","name":"Thüringen"}},{"name":"Marienstr.","postalCode":"99834","locality":"Gerstungen","municipality":{"key":"16063097","name":"Gerstungen","type":"Kreisangehörige_Gemeinde"},"district":{"key":"16063","name":"Wartburgkreis","type":"Landkreis"},"federalState":{"key":"16","name":"Thüringen"}},{"name":"Marksuhler Str.","postalCode":"99834","locality":"Gerstungen","municipality":{"key":"16063097","name":"Gerstungen","type":"Kreisangehörige_Gemeinde"},"district":{"key":"16063","name":"Wartburgkreis","type":"Landkreis"},"federalState":{"key":"16","name":"Thüringen"}},{"name":"Markt","postalCode":"99834","locality":"Gerstungen","municipality":{"key":"16063097","name":"Gerstungen","type":"Kreisangehörige_Gemeinde"},"district":{"key":"16063","name":"Wartburgkreis","type":"Landkreis"},"federalState":{"key":"16","name":"Thüringen"}},{"name":"Marktplatz","postalCode":"99834","locality":"Gerstungen","municipality":{"key":"16063097","name":"Gerstungen","type":"Kreisangehörige_Gemeinde"},"district":{"key":"16063","name":"Wartburgkreis","type":"Landkreis"},"federalState":{"key":"16","name":"Thüringen"}},{"name":"Mehliete","postalCode":"99834","locality":"Gerstungen","municipality":{"key":"16063097","name":"Gerstungen","type":"Kreisangehörige_Gemeinde"},"district":{"key":"16063","name":"Wartburgkreis","type":"Landkreis"},"federalState":{"key":"16","name":"Thüringen"}},{"name":"Meileshof","postalCode":"99834","locality":"Gerstungen","municipality":{"key":"16063097","name":"Gerstungen","type":"Kreisangehörige_Gemeinde"},"district":{"key":"16063","name":"Wartburgkreis","type":"Landkreis"},"federalState":{"key":"16","name":"Thüringen"}},{"name":"Mittelweg","postalCode":"99834","locality":"Gerstungen","municipality":{"key":"16063097","name":"Gerstungen","type":"Kreisangehörige_Gemeinde"},"district":{"key":"16063","name":"Wartburgkreis","type":"Landkreis"},"federalState":{"key":"16","name":"Thüringen"}},{"name":"mittlerer Eckweg","postalCode":"99834","locality":"Gerstungen","municipality":{"key":"16063097","name":"Gerstungen","type":"Kreisangehörige_Gemeinde"},"district":{"key":"16063","name":"Wartburgkreis","type":"Landkreis"},"federalState":{"key":"16","name":"Thüringen"}},{"name":"Möhraer Weg","postalCode":"99834","locality":"Gerstungen","municipality":{"key":"16063097","name":"Gerstungen","type":"Kreisangehörige_Gemeinde"},"district":{"key":"16063","name":"Wartburgkreis","type":"Landkreis"},"federalState":{"key":"16","name":"Thüringen"}},{"name":"Mölmeshof","postalCode":"99834","locality":"Gerstungen","municipality":{"key":"16063097","name":"Gerstungen","type":"Kreisangehörige_Gemeinde"},"district":{"key":"16063","name":"Wartburgkreis","type":"Landkreis"},"federalState":{"key":"16","name":"Thüringen"}},{"name":"Mölmeshöfer Str.","postalCode":"99834","locality":"Gerstungen","municipality":{"key":"16063097","name":"Gerstungen","type":"Kreisangehörige_Gemeinde"},"district":{"key":"16063","name":"Wartburgkreis","type":"Landkreis"},"federalState":{"key":"16","name":"Thüringen"}},{"name":"Mückengasse","postalCode":"99834","locality":"Gerstungen","municipality":{"key":"16063097","name":"Gerstungen","type":"Kreisangehörige_Gemeinde"},"district":{"key":"16063","name":"Wartburgkreis","type":"Landkreis"},"federalState":{"key":"16","name":"Thüringen"}},{"name":"Mühlenstr.","postalCode":"99834","locality":"Gerstungen","municipality":{"key":"16063097","name":"Gerstungen","type":"Kreisangehörige_Gemeinde"},"district":{"key":"16063","name":"Wartburgkreis","type":"Landkreis"},"federalState":{"key":"16","name":"Thüringen"}},{"name":"Mühlgasse","postalCode":"99834","locality":"Gerstungen","municipality":{"key":"16063097","name":"Gerstungen","type":"Kreisangehörige_Gemeinde"},"district":{"key":"16063","name":"Wartburgkreis","type":"Landkreis"},"federalState":{"key":"16","name":"Thüringen"}},{"name":"Mühlgrabenweg","postalCode":"99834","locality":"Gerstungen","municipality":{"key":"16063097","name":"Gerstungen","type":"Kreisangehörige_Gemeinde"},"district":{"key":"16063","name":"Wartburgkreis","type":"Landkreis"},"federalState":{"key":"16","name":"Thüringen"}},{"name":"Mühlrasen","postalCode":"99834","locality":"Gerstungen","municipality":{"key":"16063097","name":"Gerstungen","type":"Kreisangehörige_Gemeinde"},"district":{"key":"16063","name":"Wartburgkreis","type":"Landkreis"},"federalState":{"key":"16","name":"Thüringen"}},{"name":"Mühlwiese","postalCode":"99834","locality":"Gerstungen","municipality":{"key":"16063097","name":"Gerstungen","type":"Kreisangehörige_Gemeinde"},"district":{"key":"16063","name":"Wartburgkreis","type":"Landkreis"},"federalState":{"key":"16","name":"Thüringen"}},{"name":"Napoleonsweg","postalCode":"99834","locality":"Gerstungen","municipality":{"key":"16063097","name":"Gerstungen","type":"Kreisangehörige_Gemeinde"},"district":{"key":"16063","name":"Wartburgkreis","type":"Landkreis"},"federalState":{"key":"16","name":"Thüringen"}},{"name":"Neue Braugasse","postalCode":"99834","locality":"Gerstungen","municipality":{"key":"16063097","name":"Gerstungen","type":"Kreisangehörige_Gemeinde"},"district":{"key":"16063","name":"Wartburgkreis","type":"Landkreis"},"federalState":{"key":"16","name":"Thüringen"}},{"name":"Neue Str.","postalCode":"99834","locality":"Gerstungen","municipality":{"key":"16063097","name":"Gerstungen","type":"Kreisangehörige_Gemeinde"},"district":{"key":"16063","name":"Wartburgkreis","type":"Landkreis"},"federalState":{"key":"16","name":"Thüringen"}},{"name":"Obereller Str.","postalCode":"99834","locality":"Gerstungen","municipality":{"key":"16063097","name":"Gerstungen","type":"Kreisangehörige_Gemeinde"},"district":{"key":"16063","name":"Wartburgkreis","type":"Landkreis"},"federalState":{"key":"16","name":"Thüringen"}},{"name":"Obereller Weg","postalCode":"99834","locality":"Gerstungen","municipality":{"key":"16063097","name":"Gerstungen","type":"Kreisangehörige_Gemeinde"},"district":{"key":"16063","name":"Wartburgkreis","type":"Landkreis"},"federalState":{"key":"16","name":"Thüringen"}},{"name":"oberer Eckweg","postalCode":"99834","locality":"Gerstungen","municipality":{"key":"16063097","name":"Gerstungen","type":"Kreisangehörige_Gemeinde"},"district":{"key":"16063","name":"Wartburgkreis","type":"Landkreis"},"federalState":{"key":"16","name":"Thüringen"}},{"name":"oberer Seeweg","postalCode":"99834","locality":"Gerstungen","municipality":{"key":"16063097","name":"Gerstungen","type":"Kreisangehörige_Gemeinde"},"district":{"key":"16063","name":"Wartburgkreis","type":"Landkreis"},"federalState":{"key":"16","name":"Thüringen"}},{"name":"Oberfeld","postalCode":"99834","locality":"Gerstungen","municipality":{"key":"16063097","name":"Gerstungen","type":"Kreisangehörige_Gemeinde"},"district":{"key":"16063","name":"Wartburgkreis","type":"Landkreis"},"federalState":{"key":"16","name":"Thüringen"}},{"name":"Obermühle","postalCode":"99834","locality":"Gerstungen","municipality":{"key":"16063097","name":"Gerstungen","type":"Kreisangehörige_Gemeinde"},"district":{"key":"16063","name":"Wartburgkreis","type":"Landkreis"},"federalState":{"key":"16","name":"Thüringen"}},{"name":"Ostwaldstr.","postalCode":"99834","locality":"Gerstungen","municipality":{"key":"16063097","name":"Gerstungen","type":"Kreisangehörige_Gemeinde"},"district":{"key":"16063","name":"Wartburgkreis","type":"Landkreis"},"federalState":{"key":"16","name":"Thüringen"}},{"name":"Panzerstr.","postalCode":"99834","locality":"Gerstungen","municipality":{"key":"16063097","name":"Gerstungen","type":"Kreisangehörige_Gemeinde"},"district":{"key":"16063","name":"Wartburgkreis","type":"Landkreis"},"federalState":{"key":"16","name":"Thüringen"}},{"name":"Pfarrgässchen","postalCode":"99834","locality":"Gerstungen","municipality":{"key":"16063097","name":"Gerstungen","type":"Kreisangehörige_Gemeinde"},"district":{"key":"16063","name":"Wartburgkreis","type":"Landkreis"},"federalState":{"key":"16","name":"Thüringen"}},{"name":"Pfarrgasse","postalCode":"99834","locality":"Gerstungen","municipality":{"key":"16063097","name":"Gerstungen","type":"Kreisangehörige_Gemeinde"},"district":{"key":"16063","name":"Wartburgkreis","type":"Landkreis"},"federalState":{"key":"16","name":"Thüringen"}},{"name":"Pfarrweg","postalCode":"99834","locality":"Gerstungen","municipality":{"key":"16063097","name":"Gerstungen","type":"Kreisangehörige_Gemeinde"},"district":{"key":"16063","name":"Wartburgkreis","type":"Landkreis"},"federalState":{"key":"16","name":"Thüringen"}},{"name":"Poststr.","postalCode":"99834","locality":"Gerstungen","municipality":{"key":"16063097","name":"Gerstungen","type":"Kreisangehörige_Gemeinde"},"district":{"key":"16063","name":"Wartburgkreis","type":"Landkreis"},"federalState":{"key":"16","name":"Thüringen"}},{"name":"Prommenadenweg","postalCode":"99834","locality":"Gerstungen","municipality":{"key":"16063097","name":"Gerstungen","type":"Kreisangehörige_Gemeinde"},"district":{"key":"16063","name":"Wartburgkreis","type":"Landkreis"},"federalState":{"key":"16","name":"Thüringen"}},{"name":"Quergasse","postalCode":"99834","locality":"Gerstungen","municipality":{"key":"16063097","name":"Gerstungen","type":"Kreisangehörige_Gemeinde"},"district":{"key":"16063","name":"Wartburgkreis","type":"Landkreis"},"federalState":{"key":"16","name":"Thüringen"}},{"name":"Querstr.","postalCode":"99834","locality":"Gerstungen","municipality":{"key":"16063097","name":"Gerstungen","type":"Kreisangehörige_Gemeinde"},"district":{"key":"16063","name":"Wartburgkreis","type":"Landkreis"},"federalState":{"key":"16","name":"Thüringen"}},{"name":"Rasengasse","postalCode":"99834","locality":"Gerstungen","municipality":{"key":"16063097","name":"Gerstungen","type":"Kreisangehörige_Gemeinde"},"district":{"key":"16063","name":"Wartburgkreis","type":"Landkreis"},"federalState":{"key":"16","name":"Thüringen"}},{"name":"Rasenweg","postalCode":"99834","locality":"Gerstungen","municipality":{"key":"16063097","name":"Gerstungen","type":"Kreisangehörige_Gemeinde"},"district":{"key":"16063","name":"Wartburgkreis","type":"Landkreis"},"federalState":{"key":"16","name":"Thüringen"}},{"name":"Rathauspark","postalCode":"99834","locality":"Gerstungen","municipality":{"key":"16063097","name":"Gerstungen","type":"Kreisangehörige_Gemeinde"},"district":{"key":"16063","name":"Wartburgkreis","type":"Landkreis"},"federalState":{"key":"16","name":"Thüringen"}},{"name":"Reine Gasse","postalCode":"99834","locality":"Gerstungen","municipality":{"key":"16063097","name":"Gerstungen","type":"Kreisangehörige_Gemeinde"},"district":{"key":"16063","name":"Wartburgkreis","type":"Landkreis"},"federalState":{"key":"16","name":"Thüringen"}},{"name":"Rennsteig","postalCode":"99834","locality":"Gerstungen","municipality":{"key":"16063097","name":"Gerstungen","type":"Kreisangehörige_Gemeinde"},"district":{"key":"16063","name":"Wartburgkreis","type":"Landkreis"},"federalState":{"key":"16","name":"Thüringen"}},{"name":"Rennsteigstr.","postalCode":"99834","locality":"Gerstungen","municipality":{"key":"16063097","name":"Gerstungen","type":"Kreisangehörige_Gemeinde"},"district":{"key":"16063","name":"Wartburgkreis","type":"Landkreis"},"federalState":{"key":"16","name":"Thüringen"}},{"name":"Richelsdorfer Hohle","postalCode":"99834","locality":"Gerstungen","municipality":{"key":"16063097","name":"Gerstungen","type":"Kreisangehörige_Gemeinde"},"district":{"key":"16063","name":"Wartburgkreis","type":"Landkreis"},"federalState":{"key":"16","name":"Thüringen"}},{"name":"Richelsdorfer Str.","postalCode":"99834","locality":"Gerstungen","municipality":{"key":"16063097","name":"Gerstungen","type":"Kreisangehörige_Gemeinde"},"district":{"key":"16063","name":"Wartburgkreis","type":"Landkreis"},"federalState":{"key":"16","name":"Thüringen"}},{"name":"Rosenstr.","postalCode":"99834","locality":"Gerstungen","municipality":{"key":"16063097","name":"Gerstungen","type":"Kreisangehörige_Gemeinde"},"district":{"key":"16063","name":"Wartburgkreis","type":"Landkreis"},"federalState":{"key":"16","name":"Thüringen"}},{"name":"Sallmannshäuser Rennsteig","postalCode":"99834","locality":"Gerstungen","municipality":{"key":"16063097","name":"Gerstungen","type":"Kreisangehörige_Gemeinde"},"district":{"key":"16063","name":"Wartburgkreis","type":"Landkreis"},"federalState":{"key":"16","name":"Thüringen"}},{"name":"Sandgasse","postalCode":"99834","locality":"Gerstungen","municipality":{"key":"16063097","name":"Gerstungen","type":"Kreisangehörige_Gemeinde"},"district":{"key":"16063","name":"Wartburgkreis","type":"Landkreis"},"federalState":{"key":"16","name":"Thüringen"}},{"name":"Sankt-Annen-Str.","postalCode":"99834","locality":"Gerstungen","municipality":{"key":"16063097","name":"Gerstungen","type":"Kreisangehörige_Gemeinde"},"district":{"key":"16063","name":"Wartburgkreis","type":"Landkreis"},"federalState":{"key":"16","name":"Thüringen"}},{"name":"Schafgasse","postalCode":"99834","locality":"Gerstungen","municipality":{"key":"16063097","name":"Gerstungen","type":"Kreisangehörige_Gemeinde"},"district":{"key":"16063","name":"Wartburgkreis","type":"Landkreis"},"federalState":{"key":"16","name":"Thüringen"}},{"name":"Schillerstr.","postalCode":"99834","locality":"Gerstungen","municipality":{"key":"16063097","name":"Gerstungen","type":"Kreisangehörige_Gemeinde"},"district":{"key":"16063","name":"Wartburgkreis","type":"Landkreis"},"federalState":{"key":"16","name":"Thüringen"}},{"name":"Schloß","postalCode":"99834","locality":"Gerstungen","municipality":{"key":"16063097","name":"Gerstungen","type":"Kreisangehörige_Gemeinde"},"district":{"key":"16063","name":"Wartburgkreis","type":"Landkreis"},"federalState":{"key":"16","name":"Thüringen"}},{"name":"Schlossmauer","postalCode":"99834","locality":"Gerstungen","municipality":{"key":"16063097","name":"Gerstungen","type":"Kreisangehörige_Gemeinde"},"district":{"key":"16063","name":"Wartburgkreis","type":"Landkreis"},"federalState":{"key":"16","name":"Thüringen"}},{"name":"Schloßpark Wilhelmsthal","postalCode":"99834","locality":"Gerstungen","municipality":{"key":"16063097","name":"Gerstungen","type":"Kreisangehörige_Gemeinde"},"district":{"key":"16063","name":"Wartburgkreis","type":"Landkreis"},"federalState":{"key":"16","name":"Thüringen"}},{"name":"Schlossstr.","postalCode":"99834","locality":"Gerstungen","municipality":{"key":"16063097","name":"Gerstungen","type":"Kreisangehörige_Gemeinde"},"district":{"key":"16063","name":"Wartburgkreis","type":"Landkreis"},"federalState":{"key":"16","name":"Thüringen"}},{"name":"Schmettergasse","postalCode":"99834","locality":"Gerstungen","municipality":{"key":"16063097","name":"Gerstungen","type":"Kreisangehörige_Gemeinde"},"district":{"key":"16063","name":"Wartburgkreis","type":"Landkreis"},"federalState":{"key":"16","name":"Thüringen"}},{"name":"Schreinersgasse","postalCode":"99834","locality":"Gerstungen","municipality":{"key":"16063097","name":"Gerstungen","type":"Kreisangehörige_Gemeinde"},"district":{"key":"16063","name":"Wartburgkreis","type":"Landkreis"},"federalState":{"key":"16","name":"Thüringen"}},{"name":"Schulplatz","postalCode":"99834","locality":"Gerstungen","municipality":{"key":"16063097","name":"Gerstungen","type":"Kreisangehörige_Gemeinde"},"district":{"key":"16063","name":"Wartburgkreis","type":"Landkreis"},"federalState":{"key":"16","name":"Thüringen"}},{"name":"Schulstr.","postalCode":"99834","locality":"Gerstungen","municipality":{"key":"16063097","name":"Gerstungen","type":"Kreisangehörige_Gemeinde"},"district":{"key":"16063","name":"Wartburgkreis","type":"Landkreis"},"federalState":{"key":"16","name":"Thüringen"}},{"name":"Schulzengasse","postalCode":"99834","locality":"Gerstungen","municipality":{"key":"16063097","name":"Gerstungen","type":"Kreisangehörige_Gemeinde"},"district":{"key":"16063","name":"Wartburgkreis","type":"Landkreis"},"federalState":{"key":"16","name":"Thüringen"}},{"name":"Schwarzer Weg","postalCode":"99834","locality":"Gerstungen","municipality":{"key":"16063097","name":"Gerstungen","type":"Kreisangehörige_Gemeinde"},"district":{"key":"16063","name":"Wartburgkreis","type":"Landkreis"},"federalState":{"key":"16","name":"Thüringen"}},{"name":"Sebastian-Bach-Str.","postalCode":"99834","locality":"Gerstungen","municipality":{"key":"16063097","name":"Gerstungen","type":"Kreisangehörige_Gemeinde"},"district":{"key":"16063","name":"Wartburgkreis","type":"Landkreis"},"federalState":{"key":"16","name":"Thüringen"}},{"name":"Siedlung","postalCode":"99834","locality":"Gerstungen","municipality":{"key":"16063097","name":"Gerstungen","type":"Kreisangehörige_Gemeinde"},"district":{"key":"16063","name":"Wartburgkreis","type":"Landkreis"},"federalState":{"key":"16","name":"Thüringen"}},{"name":"Sonnengasse","postalCode":"99834","locality":"Gerstungen","municipality":{"key":"16063097","name":"Gerstungen","type":"Kreisangehörige_Gemeinde"},"district":{"key":"16063","name":"Wartburgkreis","type":"Landkreis"},"federalState":{"key":"16","name":"Thüringen"}},{"name":"Sophienstr.","postalCode":"99834","locality":"Gerstungen","municipality":{"key":"16063097","name":"Gerstungen","type":"Kreisangehörige_Gemeinde"},"district":{"key":"16063","name":"Wartburgkreis","type":"Landkreis"},"federalState":{"key":"16","name":"Thüringen"}},{"name":"Spielplatz","postalCode":"99834","locality":"Gerstungen","municipality":{"key":"16063097","name":"Gerstungen","type":"Kreisangehörige_Gemeinde"},"district":{"key":"16063","name":"Wartburgkreis","type":"Landkreis"},"federalState":{"key":"16","name":"Thüringen"}},{"name":"Stiegelsgasse","postalCode":"99834","locality":"Gerstungen","municipality":{"key":"16063097","name":"Gerstungen","type":"Kreisangehörige_Gemeinde"},"district":{"key":"16063","name":"Wartburgkreis","type":"Landkreis"},"federalState":{"key":"16","name":"Thüringen"}},{"name":"Stöltenstr.","postalCode":"99834","locality":"Gerstungen","municipality":{"key":"16063097","name":"Gerstungen","type":"Kreisangehörige_Gemeinde"},"district":{"key":"16063","name":"Wartburgkreis","type":"Landkreis"},"federalState":{"key":"16","name":"Thüringen"}},{"name":"Storchennest","postalCode":"99834","locality":"Gerstungen","municipality":{"key":"16063097","name":"Gerstungen","type":"Kreisangehörige_Gemeinde"},"district":{"key":"16063","name":"Wartburgkreis","type":"Landkreis"},"federalState":{"key":"16","name":"Thüringen"}},{"name":"Triftstr.","postalCode":"99834","locality":"Gerstungen","municipality":{"key":"16063097","name":"Gerstungen","type":"Kreisangehörige_Gemeinde"},"district":{"key":"16063","name":"Wartburgkreis","type":"Landkreis"},"federalState":{"key":"16","name":"Thüringen"}},{"name":"Triftweg","postalCode":"99834","locality":"Gerstungen","municipality":{"key":"16063097","name":"Gerstungen","type":"Kreisangehörige_Gemeinde"},"district":{"key":"16063","name":"Wartburgkreis","type":"Landkreis"},"federalState":{"key":"16","name":"Thüringen"}},{"name":"Uferstr.","postalCode":"99834","locality":"Gerstungen","municipality":{"key":"16063097","name":"Gerstungen","type":"Kreisangehörige_Gemeinde"},"district":{"key":"16063","name":"Wartburgkreis","type":"Landkreis"},"federalState":{"key":"16","name":"Thüringen"}},{"name":"Unter den Weiden","postalCode":"99834","locality":"Gerstungen","municipality":{"key":"16063097","name":"Gerstungen","type":"Kreisangehörige_Gemeinde"},"district":{"key":"16063","name":"Wartburgkreis","type":"Landkreis"},"federalState":{"key":"16","name":"Thüringen"}},{"name":"Untereller Str.","postalCode":"99834","locality":"Gerstungen","municipality":{"key":"16063097","name":"Gerstungen","type":"Kreisangehörige_Gemeinde"},"district":{"key":"16063","name":"Wartburgkreis","type":"Landkreis"},"federalState":{"key":"16","name":"Thüringen"}},{"name":"Unterfeld","postalCode":"99834","locality":"Gerstungen","municipality":{"key":"16063097","name":"Gerstungen","type":"Kreisangehörige_Gemeinde"},"district":{"key":"16063","name":"Wartburgkreis","type":"Landkreis"},"federalState":{"key":"16","name":"Thüringen"}},{"name":"Untergasse","postalCode":"99834","locality":"Gerstungen","municipality":{"key":"16063097","name":"Gerstungen","type":"Kreisangehörige_Gemeinde"},"district":{"key":"16063","name":"Wartburgkreis","type":"Landkreis"},"federalState":{"key":"16","name":"Thüringen"}},{"name":"Unterm Eichberg","postalCode":"99834","locality":"Gerstungen","municipality":{"key":"16063097","name":"Gerstungen","type":"Kreisangehörige_Gemeinde"},"district":{"key":"16063","name":"Wartburgkreis","type":"Landkreis"},"federalState":{"key":"16","name":"Thüringen"}},{"name":"Unterm Elsterberg","postalCode":"99834","locality":"Gerstungen","municipality":{"key":"16063097","name":"Gerstungen","type":"Kreisangehörige_Gemeinde"},"district":{"key":"16063","name":"Wartburgkreis","type":"Landkreis"},"federalState":{"key":"16","name":"Thüringen"}},{"name":"Unterm Klafterberg","postalCode":"99834","locality":"Gerstungen","municipality":{"key":"16063097","name":"Gerstungen","type":"Kreisangehörige_Gemeinde"},"district":{"key":"16063","name":"Wartburgkreis","type":"Landkreis"},"federalState":{"key":"16","name":"Thüringen"}},{"name":"Unterm Sperlingsberg","postalCode":"99834","locality":"Gerstungen","municipality":{"key":"16063097","name":"Gerstungen","type":"Kreisangehörige_Gemeinde"},"district":{"key":"16063","name":"Wartburgkreis","type":"Landkreis"},"federalState":{"key":"16","name":"Thüringen"}},{"name":"Unterstr.","postalCode":"99834","locality":"Gerstungen","municipality":{"key":"16063097","name":"Gerstungen","type":"Kreisangehörige_Gemeinde"},"district":{"key":"16063","name":"Wartburgkreis","type":"Landkreis"},"federalState":{"key":"16","name":"Thüringen"}},{"name":"Untersuhler Str.","postalCode":"99834","locality":"Gerstungen","municipality":{"key":"16063097","name":"Gerstungen","type":"Kreisangehörige_Gemeinde"},"district":{"key":"16063","name":"Wartburgkreis","type":"Landkreis"},"federalState":{"key":"16","name":"Thüringen"}},{"name":"Vachaer Str.","postalCode":"99834","locality":"Gerstungen","municipality":{"key":"16063097","name":"Gerstungen","type":"Kreisangehörige_Gemeinde"},"district":{"key":"16063","name":"Wartburgkreis","type":"Landkreis"},"federalState":{"key":"16","name":"Thüringen"}},{"name":"Waldbad","postalCode":"99834","locality":"Gerstungen","municipality":{"key":"16063097","name":"Gerstungen","type":"Kreisangehörige_Gemeinde"},"district":{"key":"16063","name":"Wartburgkreis","type":"Landkreis"},"federalState":{"key":"16","name":"Thüringen"}},{"name":"Waldstr.","postalCode":"99834","locality":"Gerstungen","municipality":{"key":"16063097","name":"Gerstungen","type":"Kreisangehörige_Gemeinde"},"district":{"key":"16063","name":"Wartburgkreis","type":"Landkreis"},"federalState":{"key":"16","name":"Thüringen"}},{"name":"Weiher","postalCode":"99834","locality":"Gerstungen","municipality":{"key":"16063097","name":"Gerstungen","type":"Kreisangehörige_Gemeinde"},"district":{"key":"16063","name":"Wartburgkreis","type":"Landkreis"},"federalState":{"key":"16","name":"Thüringen"}},{"name":"Weihersgasse","postalCode":"99834","locality":"Gerstungen","municipality":{"key":"16063097","name":"Gerstungen","type":"Kreisangehörige_Gemeinde"},"district":{"key":"16063","name":"Wartburgkreis","type":"Landkreis"},"federalState":{"key":"16","name":"Thüringen"}},{"name":"Weihersgrund","postalCode":"99834","locality":"Gerstungen","municipality":{"key":"16063097","name":"Gerstungen","type":"Kreisangehörige_Gemeinde"},"district":{"key":"16063","name":"Wartburgkreis","type":"Landkreis"},"federalState":{"key":"16","name":"Thüringen"}},{"name":"Weiherstr.","postalCode":"99834","locality":"Gerstungen","municipality":{"key":"16063097","name":"Gerstungen","type":"Kreisangehörige_Gemeinde"},"district":{"key":"16063","name":"Wartburgkreis","type":"Landkreis"},"federalState":{"key":"16","name":"Thüringen"}},{"name":"Weinbergstr.","postalCode":"99834","locality":"Gerstungen","municipality":{"key":"16063097","name":"Gerstungen","type":"Kreisangehörige_Gemeinde"},"district":{"key":"16063","name":"Wartburgkreis","type":"Landkreis"},"federalState":{"key":"16","name":"Thüringen"}},{"name":"Weingasse","postalCode":"99834","locality":"Gerstungen","municipality":{"key":"16063097","name":"Gerstungen","type":"Kreisangehörige_Gemeinde"},"district":{"key":"16063","name":"Wartburgkreis","type":"Landkreis"},"federalState":{"key":"16","name":"Thüringen"}},{"name":"Werrastr.","postalCode":"99834","locality":"Gerstungen","municipality":{"key":"16063097","name":"Gerstungen","type":"Kreisangehörige_Gemeinde"},"district":{"key":"16063","name":"Wartburgkreis","type":"Landkreis"},"federalState":{"key":"16","name":"Thüringen"}},{"name":"Werratal-Radweg","postalCode":"99834","locality":"Gerstungen","municipality":{"key":"16063097","name":"Gerstungen","type":"Kreisangehörige_Gemeinde"},"district":{"key":"16063","name":"Wartburgkreis","type":"Landkreis"},"federalState":{"key":"16","name":"Thüringen"}},{"name":"Wiesenweg","postalCode":"99834","locality":"Gerstungen","municipality":{"key":"16063097","name":"Gerstungen","type":"Kreisangehörige_Gemeinde"},"district":{"key":"16063","name":"Wartburgkreis","type":"Landkreis"},"federalState":{"key":"16","name":"Thüringen"}},{"name":"Wildeckstr.","postalCode":"99834","locality":"Gerstungen","municipality":{"key":"16063097","name":"Gerstungen","type":"Kreisangehörige_Gemeinde"},"district":{"key":"16063","name":"Wartburgkreis","type":"Landkreis"},"federalState":{"key":"16","name":"Thüringen"}},{"name":"Wilhelmsthal","postalCode":"99834","locality":"Gerstungen","municipality":{"key":"16063097","name":"Gerstungen","type":"Kreisangehörige_Gemeinde"},"district":{"key":"16063","name":"Wartburgkreis","type":"Landkreis"},"federalState":{"key":"16","name":"Thüringen"}},{"name":"Wilhelmsthaler Str.","postalCode":"99834","locality":"Gerstungen","municipality":{"key":"16063097","name":"Gerstungen","type":"Kreisangehörige_Gemeinde"},"district":{"key":"16063","name":"Wartburgkreis","type":"Landkreis"},"federalState":{"key":"16","name":"Thüringen"}},{"name":"Wilhelmstr.","postalCode":"99834","locality":"Gerstungen","municipality":{"key":"16063097","name":"Gerstungen","type":"Kreisangehörige_Gemeinde"},"district":{"key":"16063","name":"Wartburgkreis","type":"Landkreis"},"federalState":{"key":"16","name":"Thüringen"}},{"name":"Wolfsburger Str.","postalCode":"99834","locality":"Gerstungen","municipality":{"key":"16063097","name":"Gerstungen","type":"Kreisangehörige_Gemeinde"},"district":{"key":"16063","name":"Wartburgkreis","type":"Landkreis"},"federalState":{"key":"16","name":"Thüringen"}},{"name":"Wünschensuhler Weg","postalCode":"99834","locality":"Gerstungen","municipality":{"key":"16063097","name":"Gerstungen","type":"Kreisangehörige_Gemeinde"},"district":{"key":"16063","name":"Wartburgkreis","type":"Landkreis"},"federalState":{"key":"16","name":"Thüringen"}},{"name":"Zum Anglergrund","postalCode":"99834","locality":"Gerstungen","municipality":{"key":"16063097","name":"Gerstungen","type":"Kreisangehörige_Gemeinde"},"district":{"key":"16063","name":"Wartburgkreis","type":"Landkreis"},"federalState":{"key":"16","name":"Thüringen"}},{"name":"Zum blauen Berg","postalCode":"99834","locality":"Gerstungen","municipality":{"key":"16063097","name":"Gerstungen","type":"Kreisangehörige_Gemeinde"},"district":{"key":"16063","name":"Wartburgkreis","type":"Landkreis"},"federalState":{"key":"16","name":"Thüringen"}},{"name":"Zum Kellerbaum","postalCode":"99834","locality":"Gerstungen","municipality":{"key":"16063097","name":"Gerstungen","type":"Kreisangehörige_Gemeinde"},"district":{"key":"16063","name":"Wartburgkreis","type":"Landkreis"},"federalState":{"key":"16","name":"Thüringen"}},{"name":"Zum Sand","postalCode":"99834","locality":"Gerstungen","municipality":{"key":"16063097","name":"Gerstungen","type":"Kreisangehörige_Gemeinde"},"district":{"key":"16063","name":"Wartburgkreis","type":"Landkreis"},"federalState":{"key":"16","name":"Thüringen"}},{"name":"Zur Mühle","postalCode":"99834","locality":"Gerstungen","municipality":{"key":"16063097","name":"Gerstungen","type":"Kreisangehörige_Gemeinde"},"district":{"key":"16063","name":"Wartburgkreis","type":"Landkreis"},"federalState":{"key":"16","name":"Thüringen"}},{"name":"Über den Gärten","postalCode":"99834","locality":"Gerstungen","municipality":{"key":"16063097","name":"Gerstungen","type":"Kreisangehörige_Gemeinde"},"district":{"key":"16063","name":"Wartburgkreis","type":"Landkreis"},"federalState":{"key":"16","name":"Thüringen"}},]