[{"name":"Am Siehnberg","postalCode":"37339","locality":"Wehnde","municipality":{"key":"16061103","name":"Wehnde","type":"Kreisangehörige_Gemeinde"},"district":{"key":"16061","name":"Eichsfeld","type":"Landkreis"},"federalState":{"key":"16","name":"Thüringen"}},{"name":"Bachstr.","postalCode":"37339","locality":"Wehnde","municipality":{"key":"16061103","name":"Wehnde","type":"Kreisangehörige_Gemeinde"},"district":{"key":"16061","name":"Eichsfeld","type":"Landkreis"},"federalState":{"key":"16","name":"Thüringen"}},{"name":"Diedorfer Str.","postalCode":"99988","locality":"Südeichsfeld","municipality":{"key":"16064074","name":"Südeichsfeld","type":"Kreisangehörige_Gemeinde"},"district":{"key":"16064","name":"Unstrut-Hainich-Kreis","type":"Landkreis"},"federalState":{"key":"16","name":"Thüringen"}},{"name":"Dorfstr.","postalCode":"99988","locality":"Südeichsfeld","municipality":{"key":"16064074","name":"Südeichsfeld","type":"Kreisangehörige_Gemeinde"},"district":{"key":"16064","name":"Unstrut-Hainich-Kreis","type":"Landkreis"},"federalState":{"key":"16","name":"Thüringen"}},{"name":"Dreiling","postalCode":"99988","locality":"Südeichsfeld","municipality":{"key":"16064074","name":"Südeichsfeld","type":"Kreisangehörige_Gemeinde"},"district":{"key":"16064","name":"Unstrut-Hainich-Kreis","type":"Landkreis"},"federalState":{"key":"16","name":"Thüringen"}},{"name":"Drosselweg","postalCode":"99988","locality":"Südeichsfeld","municipality":{"key":"16064074","name":"Südeichsfeld","type":"Kreisangehörige_Gemeinde"},"district":{"key":"16064","name":"Unstrut-Hainich-Kreis","type":"Landkreis"},"federalState":{"key":"16","name":"Thüringen"}},{"name":"Effelder Weg","postalCode":"99976","locality":"Südeichsfeld","municipality":{"key":"16064074","name":"Südeichsfeld","type":"Kreisangehörige_Gemeinde"},"district":{"key":"16064","name":"Unstrut-Hainich-Kreis","type":"Landkreis"},"federalState":{"key":"16","name":"Thüringen"}},{"name":"Eichsfelder Str.","postalCode":"99988","locality":"Südeichsfeld","municipality":{"key":"16064074","name":"Südeichsfeld","type":"Kreisangehörige_Gemeinde"},"district":{"key":"16064","name":"Unstrut-Hainich-Kreis","type":"Landkreis"},"federalState":{"key":"16","name":"Thüringen"}},{"name":"Eichtal","postalCode":"99988","locality":"Südeichsfeld","municipality":{"key":"16064074","name":"Südeichsfeld","type":"Kreisangehörige_Gemeinde"},"district":{"key":"16064","name":"Unstrut-Hainich-Kreis","type":"Landkreis"},"federalState":{"key":"16","name":"Thüringen"}},{"name":"Eisenacher Str.","postalCode":"99988","locality":"Südeichsfeld","municipality":{"key":"16064074","name":"Südeichsfeld","type":"Kreisangehörige_Gemeinde"},"district":{"key":"16064","name":"Unstrut-Hainich-Kreis","type":"Landkreis"},"federalState":{"key":"16","name":"Thüringen"}},{"name":"Feldgasse","postalCode":"99976","locality":"Südeichsfeld","municipality":{"key":"16064074","name":"Südeichsfeld","type":"Kreisangehörige_Gemeinde"},"district":{"key":"16064","name":"Unstrut-Hainich-Kreis","type":"Landkreis"},"federalState":{"key":"16","name":"Thüringen"}},{"name":"Feldstr.","postalCode":"99988","locality":"Südeichsfeld","municipality":{"key":"16064074","name":"Südeichsfeld","type":"Kreisangehörige_Gemeinde"},"district":{"key":"16064","name":"Unstrut-Hainich-Kreis","type":"Landkreis"},"federalState":{"key":"16","name":"Thüringen"}},{"name":"Feldweg","postalCode":"99988","locality":"Südeichsfeld","municipality":{"key":"16064074","name":"Südeichsfeld","type":"Kreisangehörige_Gemeinde"},"district":{"key":"16064","name":"Unstrut-Hainich-Kreis","type":"Landkreis"},"federalState":{"key":"16","name":"Thüringen"}},{"name":"Festplatz","postalCode":"99976","locality":"Südeichsfeld","municipality":{"key":"16064074","name":"Südeichsfeld","type":"Kreisangehörige_Gemeinde"},"district":{"key":"16064","name":"Unstrut-Hainich-Kreis","type":"Landkreis"},"federalState":{"key":"16","name":"Thüringen"}},{"name":"Fichtenstr.","postalCode":"99988","locality":"Südeichsfeld","municipality":{"key":"16064074","name":"Südeichsfeld","type":"Kreisangehörige_Gemeinde"},"district":{"key":"16064","name":"Unstrut-Hainich-Kreis","type":"Landkreis"},"federalState":{"key":"16","name":"Thüringen"}},{"name":"Forsthaus","postalCode":"99976","locality":"Südeichsfeld","municipality":{"key":"16064074","name":"Südeichsfeld","type":"Kreisangehörige_Gemeinde"},"district":{"key":"16064","name":"Unstrut-Hainich-Kreis","type":"Landkreis"},"federalState":{"key":"16","name":"Thüringen"}},{"name":"Forsthaus Bischofstein","postalCode":"99976","locality":"Südeichsfeld","municipality":{"key":"16064074","name":"Südeichsfeld","type":"Kreisangehörige_Gemeinde"},"district":{"key":"16064","name":"Unstrut-Hainich-Kreis","type":"Landkreis"},"federalState":{"key":"16","name":"Thüringen"}},{"name":"Franzstr.","postalCode":"99988","locality":"Südeichsfeld","municipality":{"key":"16064074","name":"Südeichsfeld","type":"Kreisangehörige_Gemeinde"},"district":{"key":"16064","name":"Unstrut-Hainich-Kreis","type":"Landkreis"},"federalState":{"key":"16","name":"Thüringen"}},{"name":"Friedensstr.","postalCode":"99976","locality":"Südeichsfeld","municipality":{"key":"16064074","name":"Südeichsfeld","type":"Kreisangehörige_Gemeinde"},"district":{"key":"16064","name":"Unstrut-Hainich-Kreis","type":"Landkreis"},"federalState":{"key":"16","name":"Thüringen"}},{"name":"Friedensstr.","postalCode":"99988","locality":"Südeichsfeld","municipality":{"key":"16064074","name":"Südeichsfeld","type":"Kreisangehörige_Gemeinde"},"district":{"key":"16064","name":"Unstrut-Hainich-Kreis","type":"Landkreis"},"federalState":{"key":"16","name":"Thüringen"}},{"name":"Friedhofstr.","postalCode":"99988","locality":"Südeichsfeld","municipality":{"key":"16064074","name":"Südeichsfeld","type":"Kreisangehörige_Gemeinde"},"district":{"key":"16064","name":"Unstrut-Hainich-Kreis","type":"Landkreis"},"federalState":{"key":"16","name":"Thüringen"}},{"name":"Friedrichstr.","postalCode":"99988","locality":"Südeichsfeld","municipality":{"key":"16064074","name":"Südeichsfeld","type":"Kreisangehörige_Gemeinde"},"district":{"key":"16064","name":"Unstrut-Hainich-Kreis","type":"Landkreis"},"federalState":{"key":"16","name":"Thüringen"}},{"name":"Fußgasse","postalCode":"99988","locality":"Südeichsfeld","municipality":{"key":"16064074","name":"Südeichsfeld","type":"Kreisangehörige_Gemeinde"},"district":{"key":"16064","name":"Unstrut-Hainich-Kreis","type":"Landkreis"},"federalState":{"key":"16","name":"Thüringen"}},{"name":"Gasse","postalCode":"37339","locality":"Wehnde","municipality":{"key":"16061103","name":"Wehnde","type":"Kreisangehörige_Gemeinde"},"district":{"key":"16061","name":"Eichsfeld","type":"Landkreis"},"federalState":{"key":"16","name":"Thüringen"}},{"name":"Glockenbornstr.","postalCode":"37339","locality":"Wehnde","municipality":{"key":"16061103","name":"Wehnde","type":"Kreisangehörige_Gemeinde"},"district":{"key":"16061","name":"Eichsfeld","type":"Landkreis"},"federalState":{"key":"16","name":"Thüringen"}},{"name":"Hagengasse","postalCode":"99988","locality":"Südeichsfeld","municipality":{"key":"16064074","name":"Südeichsfeld","type":"Kreisangehörige_Gemeinde"},"district":{"key":"16064","name":"Unstrut-Hainich-Kreis","type":"Landkreis"},"federalState":{"key":"16","name":"Thüringen"}},{"name":"Hauptstr.","postalCode":"99976","locality":"Südeichsfeld","municipality":{"key":"16064074","name":"Südeichsfeld","type":"Kreisangehörige_Gemeinde"},"district":{"key":"16064","name":"Unstrut-Hainich-Kreis","type":"Landkreis"},"federalState":{"key":"16","name":"Thüringen"}},{"name":"Hauptstr.","postalCode":"99988","locality":"Südeichsfeld","municipality":{"key":"16064074","name":"Südeichsfeld","type":"Kreisangehörige_Gemeinde"},"district":{"key":"16064","name":"Unstrut-Hainich-Kreis","type":"Landkreis"},"federalState":{"key":"16","name":"Thüringen"}},{"name":"Heinemannstr.","postalCode":"99988","locality":"Südeichsfeld","municipality":{"key":"16064074","name":"Südeichsfeld","type":"Kreisangehörige_Gemeinde"},"district":{"key":"16064","name":"Unstrut-Hainich-Kreis","type":"Landkreis"},"federalState":{"key":"16","name":"Thüringen"}},{"name":"Heinrich-Heine-Str.","postalCode":"99988","locality":"Südeichsfeld","municipality":{"key":"16064074","name":"Südeichsfeld","type":"Kreisangehörige_Gemeinde"},"district":{"key":"16064","name":"Unstrut-Hainich-Kreis","type":"Landkreis"},"federalState":{"key":"16","name":"Thüringen"}},{"name":"Hermann-Löns-Str.","postalCode":"99988","locality":"Südeichsfeld","municipality":{"key":"16064074","name":"Südeichsfeld","type":"Kreisangehörige_Gemeinde"},"district":{"key":"16064","name":"Unstrut-Hainich-Kreis","type":"Landkreis"},"federalState":{"key":"16","name":"Thüringen"}},{"name":"Herrengasse","postalCode":"99976","locality":"Südeichsfeld","municipality":{"key":"16064074","name":"Südeichsfeld","type":"Kreisangehörige_Gemeinde"},"district":{"key":"16064","name":"Unstrut-Hainich-Kreis","type":"Landkreis"},"federalState":{"key":"16","name":"Thüringen"}},{"name":"Herrenstr.","postalCode":"99988","locality":"Südeichsfeld","municipality":{"key":"16064074","name":"Südeichsfeld","type":"Kreisangehörige_Gemeinde"},"district":{"key":"16064","name":"Unstrut-Hainich-Kreis","type":"Landkreis"},"federalState":{"key":"16","name":"Thüringen"}},{"name":"Herzrain","postalCode":"99988","locality":"Südeichsfeld","municipality":{"key":"16064074","name":"Südeichsfeld","type":"Kreisangehörige_Gemeinde"},"district":{"key":"16064","name":"Unstrut-Hainich-Kreis","type":"Landkreis"},"federalState":{"key":"16","name":"Thüringen"}},{"name":"Hinter den Höfen","postalCode":"99988","locality":"Südeichsfeld","municipality":{"key":"16064074","name":"Südeichsfeld","type":"Kreisangehörige_Gemeinde"},"district":{"key":"16064","name":"Unstrut-Hainich-Kreis","type":"Landkreis"},"federalState":{"key":"16","name":"Thüringen"}},{"name":"Hintergasse","postalCode":"99988","locality":"Südeichsfeld","municipality":{"key":"16064074","name":"Südeichsfeld","type":"Kreisangehörige_Gemeinde"},"district":{"key":"16064","name":"Unstrut-Hainich-Kreis","type":"Landkreis"},"federalState":{"key":"16","name":"Thüringen"}},{"name":"Hinterm Schloß","postalCode":"99988","locality":"Südeichsfeld","municipality":{"key":"16064074","name":"Südeichsfeld","type":"Kreisangehörige_Gemeinde"},"district":{"key":"16064","name":"Unstrut-Hainich-Kreis","type":"Landkreis"},"federalState":{"key":"16","name":"Thüringen"}},{"name":"Hohlweg","postalCode":"99988","locality":"Südeichsfeld","municipality":{"key":"16064074","name":"Südeichsfeld","type":"Kreisangehörige_Gemeinde"},"district":{"key":"16064","name":"Unstrut-Hainich-Kreis","type":"Landkreis"},"federalState":{"key":"16","name":"Thüringen"}},{"name":"Im Grunde","postalCode":"99988","locality":"Südeichsfeld","municipality":{"key":"16064074","name":"Südeichsfeld","type":"Kreisangehörige_Gemeinde"},"district":{"key":"16064","name":"Unstrut-Hainich-Kreis","type":"Landkreis"},"federalState":{"key":"16","name":"Thüringen"}},{"name":"Im Gut","postalCode":"99988","locality":"Südeichsfeld","municipality":{"key":"16064074","name":"Südeichsfeld","type":"Kreisangehörige_Gemeinde"},"district":{"key":"16064","name":"Unstrut-Hainich-Kreis","type":"Landkreis"},"federalState":{"key":"16","name":"Thüringen"}},{"name":"Im Kessel","postalCode":"99988","locality":"Südeichsfeld","municipality":{"key":"16064074","name":"Südeichsfeld","type":"Kreisangehörige_Gemeinde"},"district":{"key":"16064","name":"Unstrut-Hainich-Kreis","type":"Landkreis"},"federalState":{"key":"16","name":"Thüringen"}},{"name":"Im Neuen Hof","postalCode":"99988","locality":"Südeichsfeld","municipality":{"key":"16064074","name":"Südeichsfeld","type":"Kreisangehörige_Gemeinde"},"district":{"key":"16064","name":"Unstrut-Hainich-Kreis","type":"Landkreis"},"federalState":{"key":"16","name":"Thüringen"}},{"name":"Johngasse","postalCode":"37339","locality":"Wehnde","municipality":{"key":"16061103","name":"Wehnde","type":"Kreisangehörige_Gemeinde"},"district":{"key":"16061","name":"Eichsfeld","type":"Landkreis"},"federalState":{"key":"16","name":"Thüringen"}},{"name":"Kolonnenweg","postalCode":"37339","locality":"Wehnde","municipality":{"key":"16061103","name":"Wehnde","type":"Kreisangehörige_Gemeinde"},"district":{"key":"16061","name":"Eichsfeld","type":"Landkreis"},"federalState":{"key":"16","name":"Thüringen"}},{"name":"Kolonnenweg DDR-Grenze","postalCode":"37339","locality":"Wehnde","municipality":{"key":"16061103","name":"Wehnde","type":"Kreisangehörige_Gemeinde"},"district":{"key":"16061","name":"Eichsfeld","type":"Landkreis"},"federalState":{"key":"16","name":"Thüringen"}},{"name":"Landstr.","postalCode":"99988","locality":"Südeichsfeld","municipality":{"key":"16064074","name":"Südeichsfeld","type":"Kreisangehörige_Gemeinde"},"district":{"key":"16064","name":"Unstrut-Hainich-Kreis","type":"Landkreis"},"federalState":{"key":"16","name":"Thüringen"}},{"name":"Lengenfelder Weg","postalCode":"99976","locality":"Südeichsfeld","municipality":{"key":"16064074","name":"Südeichsfeld","type":"Kreisangehörige_Gemeinde"},"district":{"key":"16064","name":"Unstrut-Hainich-Kreis","type":"Landkreis"},"federalState":{"key":"16","name":"Thüringen"}},{"name":"Lessingstr.","postalCode":"99988","locality":"Südeichsfeld","municipality":{"key":"16064074","name":"Südeichsfeld","type":"Kreisangehörige_Gemeinde"},"district":{"key":"16064","name":"Unstrut-Hainich-Kreis","type":"Landkreis"},"federalState":{"key":"16","name":"Thüringen"}},{"name":"Lindenstr.","postalCode":"99988","locality":"Südeichsfeld","municipality":{"key":"16064074","name":"Südeichsfeld","type":"Kreisangehörige_Gemeinde"},"district":{"key":"16064","name":"Unstrut-Hainich-Kreis","type":"Landkreis"},"federalState":{"key":"16","name":"Thüringen"}},{"name":"Lindenufer","postalCode":"99976","locality":"Südeichsfeld","municipality":{"key":"16064074","name":"Südeichsfeld","type":"Kreisangehörige_Gemeinde"},"district":{"key":"16064","name":"Unstrut-Hainich-Kreis","type":"Landkreis"},"federalState":{"key":"16","name":"Thüringen"}},{"name":"Musikantenweg","postalCode":"37339","locality":"Wehnde","municipality":{"key":"16061103","name":"Wehnde","type":"Kreisangehörige_Gemeinde"},"district":{"key":"16061","name":"Eichsfeld","type":"Landkreis"},"federalState":{"key":"16","name":"Thüringen"}},{"name":"Neuenkirchener Str.","postalCode":"99988","locality":"Südeichsfeld","municipality":{"key":"16064074","name":"Südeichsfeld","type":"Kreisangehörige_Gemeinde"},"district":{"key":"16064","name":"Unstrut-Hainich-Kreis","type":"Landkreis"},"federalState":{"key":"16","name":"Thüringen"}},{"name":"Neue Str.","postalCode":"99976","locality":"Südeichsfeld","municipality":{"key":"16064074","name":"Südeichsfeld","type":"Kreisangehörige_Gemeinde"},"district":{"key":"16064","name":"Unstrut-Hainich-Kreis","type":"Landkreis"},"federalState":{"key":"16","name":"Thüringen"}},{"name":"Neue Str.","postalCode":"99988","locality":"Südeichsfeld","municipality":{"key":"16064074","name":"Südeichsfeld","type":"Kreisangehörige_Gemeinde"},"district":{"key":"16064","name":"Unstrut-Hainich-Kreis","type":"Landkreis"},"federalState":{"key":"16","name":"Thüringen"}},{"name":"Obere Dorfstr.","postalCode":"37339","locality":"Wehnde","municipality":{"key":"16061103","name":"Wehnde","type":"Kreisangehörige_Gemeinde"},"district":{"key":"16061","name":"Eichsfeld","type":"Landkreis"},"federalState":{"key":"16","name":"Thüringen"}},{"name":"Rasen","postalCode":"99976","locality":"Südeichsfeld","municipality":{"key":"16064074","name":"Südeichsfeld","type":"Kreisangehörige_Gemeinde"},"district":{"key":"16064","name":"Unstrut-Hainich-Kreis","type":"Landkreis"},"federalState":{"key":"16","name":"Thüringen"}},{"name":"Riedstr.","postalCode":"99988","locality":"Südeichsfeld","municipality":{"key":"16064074","name":"Südeichsfeld","type":"Kreisangehörige_Gemeinde"},"district":{"key":"16064","name":"Unstrut-Hainich-Kreis","type":"Landkreis"},"federalState":{"key":"16","name":"Thüringen"}},{"name":"Rosengarten","postalCode":"99988","locality":"Südeichsfeld","municipality":{"key":"16064074","name":"Südeichsfeld","type":"Kreisangehörige_Gemeinde"},"district":{"key":"16064","name":"Unstrut-Hainich-Kreis","type":"Landkreis"},"federalState":{"key":"16","name":"Thüringen"}},{"name":"Rosenstr.","postalCode":"99988","locality":"Südeichsfeld","municipality":{"key":"16064074","name":"Südeichsfeld","type":"Kreisangehörige_Gemeinde"},"district":{"key":"16064","name":"Unstrut-Hainich-Kreis","type":"Landkreis"},"federalState":{"key":"16","name":"Thüringen"}},{"name":"Sälzerweg","postalCode":"99988","locality":"Südeichsfeld","municipality":{"key":"16064074","name":"Südeichsfeld","type":"Kreisangehörige_Gemeinde"},"district":{"key":"16064","name":"Unstrut-Hainich-Kreis","type":"Landkreis"},"federalState":{"key":"16","name":"Thüringen"}},{"name":"Schafhof","postalCode":"99976","locality":"Südeichsfeld","municipality":{"key":"16064074","name":"Südeichsfeld","type":"Kreisangehörige_Gemeinde"},"district":{"key":"16064","name":"Unstrut-Hainich-Kreis","type":"Landkreis"},"federalState":{"key":"16","name":"Thüringen"}},{"name":"Schanzenweg","postalCode":"99988","locality":"Südeichsfeld","municipality":{"key":"16064074","name":"Südeichsfeld","type":"Kreisangehörige_Gemeinde"},"district":{"key":"16064","name":"Unstrut-Hainich-Kreis","type":"Landkreis"},"federalState":{"key":"16","name":"Thüringen"}},{"name":"Scharfloher Str.","postalCode":"99988","locality":"Südeichsfeld","municipality":{"key":"16064074","name":"Südeichsfeld","type":"Kreisangehörige_Gemeinde"},"district":{"key":"16064","name":"Unstrut-Hainich-Kreis","type":"Landkreis"},"federalState":{"key":"16","name":"Thüringen"}},{"name":"Schierschwender Str.","postalCode":"99988","locality":"Südeichsfeld","municipality":{"key":"16064074","name":"Südeichsfeld","type":"Kreisangehörige_Gemeinde"},"district":{"key":"16064","name":"Unstrut-Hainich-Kreis","type":"Landkreis"},"federalState":{"key":"16","name":"Thüringen"}},{"name":"Schillerstr.","postalCode":"99988","locality":"Südeichsfeld","municipality":{"key":"16064074","name":"Südeichsfeld","type":"Kreisangehörige_Gemeinde"},"district":{"key":"16064","name":"Unstrut-Hainich-Kreis","type":"Landkreis"},"federalState":{"key":"16","name":"Thüringen"}},{"name":"Schloßhofstr.","postalCode":"99988","locality":"Südeichsfeld","municipality":{"key":"16064074","name":"Südeichsfeld","type":"Kreisangehörige_Gemeinde"},"district":{"key":"16064","name":"Unstrut-Hainich-Kreis","type":"Landkreis"},"federalState":{"key":"16","name":"Thüringen"}},{"name":"Schloßstr.","postalCode":"99988","locality":"Südeichsfeld","municipality":{"key":"16064074","name":"Südeichsfeld","type":"Kreisangehörige_Gemeinde"},"district":{"key":"16064","name":"Unstrut-Hainich-Kreis","type":"Landkreis"},"federalState":{"key":"16","name":"Thüringen"}},{"name":"Schloßweg","postalCode":"99976","locality":"Südeichsfeld","municipality":{"key":"16064074","name":"Südeichsfeld","type":"Kreisangehörige_Gemeinde"},"district":{"key":"16064","name":"Unstrut-Hainich-Kreis","type":"Landkreis"},"federalState":{"key":"16","name":"Thüringen"}},{"name":"Schulstr.","postalCode":"99976","locality":"Südeichsfeld","municipality":{"key":"16064074","name":"Südeichsfeld","type":"Kreisangehörige_Gemeinde"},"district":{"key":"16064","name":"Unstrut-Hainich-Kreis","type":"Landkreis"},"federalState":{"key":"16","name":"Thüringen"}},{"name":"Sengelsberg","postalCode":"99988","locality":"Südeichsfeld","municipality":{"key":"16064074","name":"Südeichsfeld","type":"Kreisangehörige_Gemeinde"},"district":{"key":"16064","name":"Unstrut-Hainich-Kreis","type":"Landkreis"},"federalState":{"key":"16","name":"Thüringen"}},{"name":"Siedlung","postalCode":"99988","locality":"Südeichsfeld","municipality":{"key":"16064074","name":"Südeichsfeld","type":"Kreisangehörige_Gemeinde"},"district":{"key":"16064","name":"Unstrut-Hainich-Kreis","type":"Landkreis"},"federalState":{"key":"16","name":"Thüringen"}},{"name":"Steintor","postalCode":"99988","locality":"Südeichsfeld","municipality":{"key":"16064074","name":"Südeichsfeld","type":"Kreisangehörige_Gemeinde"},"district":{"key":"16064","name":"Unstrut-Hainich-Kreis","type":"Landkreis"},"federalState":{"key":"16","name":"Thüringen"}},{"name":"Strauchstr.","postalCode":"99988","locality":"Südeichsfeld","municipality":{"key":"16064074","name":"Südeichsfeld","type":"Kreisangehörige_Gemeinde"},"district":{"key":"16064","name":"Unstrut-Hainich-Kreis","type":"Landkreis"},"federalState":{"key":"16","name":"Thüringen"}},{"name":"Tannengasse","postalCode":"37339","locality":"Wehnde","municipality":{"key":"16061103","name":"Wehnde","type":"Kreisangehörige_Gemeinde"},"district":{"key":"16061","name":"Eichsfeld","type":"Landkreis"},"federalState":{"key":"16","name":"Thüringen"}},{"name":"Tastunger Str.","postalCode":"37339","locality":"Wehnde","municipality":{"key":"16061103","name":"Wehnde","type":"Kreisangehörige_Gemeinde"},"district":{"key":"16061","name":"Eichsfeld","type":"Landkreis"},"federalState":{"key":"16","name":"Thüringen"}},{"name":"Teistunger Weg","postalCode":"37339","locality":"Wehnde","municipality":{"key":"16061103","name":"Wehnde","type":"Kreisangehörige_Gemeinde"},"district":{"key":"16061","name":"Eichsfeld","type":"Landkreis"},"federalState":{"key":"16","name":"Thüringen"}},{"name":"Thomas-Müntzer-Str.","postalCode":"37339","locality":"Wehnde","municipality":{"key":"16061103","name":"Wehnde","type":"Kreisangehörige_Gemeinde"},"district":{"key":"16061","name":"Eichsfeld","type":"Landkreis"},"federalState":{"key":"16","name":"Thüringen"}},{"name":"Untere Dorfstr.","postalCode":"37339","locality":"Wehnde","municipality":{"key":"16061103","name":"Wehnde","type":"Kreisangehörige_Gemeinde"},"district":{"key":"16061","name":"Eichsfeld","type":"Landkreis"},"federalState":{"key":"16","name":"Thüringen"}},{"name":"Vor dem Kreuztal","postalCode":"99988","locality":"Südeichsfeld","municipality":{"key":"16064074","name":"Südeichsfeld","type":"Kreisangehörige_Gemeinde"},"district":{"key":"16064","name":"Unstrut-Hainich-Kreis","type":"Landkreis"},"federalState":{"key":"16","name":"Thüringen"}},{"name":"Wickenhof","postalCode":"37339","locality":"Wehnde","municipality":{"key":"16061103","name":"Wehnde","type":"Kreisangehörige_Gemeinde"},"district":{"key":"16061","name":"Eichsfeld","type":"Landkreis"},"federalState":{"key":"16","name":"Thüringen"}},{"name":"Ziehborn","postalCode":"99976","locality":"Südeichsfeld","municipality":{"key":"16064074","name":"Südeichsfeld","type":"Kreisangehörige_Gemeinde"},"district":{"key":"16064","name":"Unstrut-Hainich-Kreis","type":"Landkreis"},"federalState":{"key":"16","name":"Thüringen"}},{"name":"Zittelstr.","postalCode":"99988","locality":"Südeichsfeld","municipality":{"key":"16064074","name":"Südeichsfeld","type":"Kreisangehörige_Gemeinde"},"district":{"key":"16064","name":"Unstrut-Hainich-Kreis","type":"Landkreis"},"federalState":{"key":"16","name":"Thüringen"}},{"name":"Zollgasse","postalCode":"99988","locality":"Südeichsfeld","municipality":{"key":"16064074","name":"Südeichsfeld","type":"Kreisangehörige_Gemeinde"},"district":{"key":"16064","name":"Unstrut-Hainich-Kreis","type":"Landkreis"},"federalState":{"key":"16","name":"Thüringen"}},{"name":"Zum Steinacker","postalCode":"99988","locality":"Südeichsfeld","municipality":{"key":"16064074","name":"Südeichsfeld","type":"Kreisangehörige_Gemeinde"},"district":{"key":"16064","name":"Unstrut-Hainich-Kreis","type":"Landkreis"},"federalState":{"key":"16","name":"Thüringen"}},{"name":"Zum Vogelsang","postalCode":"99988","locality":"Südeichsfeld","municipality":{"key":"16064074","name":"Südeichsfeld","type":"Kreisangehörige_Gemeinde"},"district":{"key":"16064","name":"Unstrut-Hainich-Kreis","type":"Landkreis"},"federalState":{"key":"16","name":"Thüringen"}},{"name":"Zur Salztrift","postalCode":"99988","locality":"Südeichsfeld","municipality":{"key":"16064074","name":"Südeichsfeld","type":"Kreisangehörige_Gemeinde"},"district":{"key":"16064","name":"Unstrut-Hainich-Kreis","type":"Landkreis"},"federalState":{"key":"16","name":"Thüringen"}},]