[{"key":"10187209","name":"Aeschistrasse","postalCode":"3362","locality":"Niederönz","commune":{"key":"982","name":"Niederönz","shortName":"Niederönz"},"district":{"key":"244","name":"Verwaltungskreis Oberaargau"},"canton":{"key":"2","code":"BE","name":"Bern / Berne"},"status":"Real"},{"key":"10040034","name":"Alpenweg","postalCode":"3362","locality":"Niederönz","commune":{"key":"982","name":"Niederönz","shortName":"Niederönz"},"district":{"key":"244","name":"Verwaltungskreis Oberaargau"},"canton":{"key":"2","code":"BE","name":"Bern / Berne"},"status":"Real"},{"key":"10082260","name":"Beundenstrasse","postalCode":"3362","locality":"Niederönz","commune":{"key":"982","name":"Niederönz","shortName":"Niederönz"},"district":{"key":"244","name":"Verwaltungskreis Oberaargau"},"canton":{"key":"2","code":"BE","name":"Bern / Berne"},"status":"Real"},{"key":"10189950","name":"Blumenweg","postalCode":"3362","locality":"Niederönz","commune":{"key":"982","name":"Niederönz","shortName":"Niederönz"},"district":{"key":"244","name":"Verwaltungskreis Oberaargau"},"canton":{"key":"2","code":"BE","name":"Bern / Berne"},"status":"Real"},{"key":"10217309","name":"Bolkenweg","postalCode":"3362","locality":"Niederönz","commune":{"key":"982","name":"Niederönz","shortName":"Niederönz"},"district":{"key":"244","name":"Verwaltungskreis Oberaargau"},"canton":{"key":"2","code":"BE","name":"Bern / Berne"},"status":"Real"},{"key":"10040035","name":"Brunnenstrasse","postalCode":"3362","locality":"Niederönz","commune":{"key":"982","name":"Niederönz","shortName":"Niederönz"},"district":{"key":"244","name":"Verwaltungskreis Oberaargau"},"canton":{"key":"2","code":"BE","name":"Bern / Berne"},"status":"Real"},{"key":"10113130","name":"Brunngasse","postalCode":"3362","locality":"Niederönz","commune":{"key":"982","name":"Niederönz","shortName":"Niederönz"},"district":{"key":"244","name":"Verwaltungskreis Oberaargau"},"canton":{"key":"2","code":"BE","name":"Bern / Berne"},"status":"Real"},{"key":"10014172","name":"Buchseefeldstrasse","postalCode":"3362","locality":"Niederönz","commune":{"key":"982","name":"Niederönz","shortName":"Niederönz"},"district":{"key":"244","name":"Verwaltungskreis Oberaargau"},"canton":{"key":"2","code":"BE","name":"Bern / Berne"},"status":"Real"},{"key":"10124329","name":"Byfangstrasse","postalCode":"3362","locality":"Niederönz","commune":{"key":"982","name":"Niederönz","shortName":"Niederönz"},"district":{"key":"244","name":"Verwaltungskreis Oberaargau"},"canton":{"key":"2","code":"BE","name":"Bern / Berne"},"status":"Real"},{"key":"10040036","name":"Dörflistrasse","postalCode":"3362","locality":"Niederönz","commune":{"key":"982","name":"Niederönz","shortName":"Niederönz"},"district":{"key":"244","name":"Verwaltungskreis Oberaargau"},"canton":{"key":"2","code":"BE","name":"Bern / Berne"},"status":"Real"},{"key":"10217313","name":"Eichwaldweg","postalCode":"3362","locality":"Niederönz","commune":{"key":"982","name":"Niederönz","shortName":"Niederönz"},"district":{"key":"244","name":"Verwaltungskreis Oberaargau"},"canton":{"key":"2","code":"BE","name":"Bern / Berne"},"status":"Real"},{"key":"10065223","name":"Erlenweg","postalCode":"3362","locality":"Niederönz","commune":{"key":"982","name":"Niederönz","shortName":"Niederönz"},"district":{"key":"244","name":"Verwaltungskreis Oberaargau"},"canton":{"key":"2","code":"BE","name":"Bern / Berne"},"status":"Real"},{"key":"10082261","name":"Feldeggstrasse","postalCode":"3362","locality":"Niederönz","commune":{"key":"982","name":"Niederönz","shortName":"Niederönz"},"district":{"key":"244","name":"Verwaltungskreis Oberaargau"},"canton":{"key":"2","code":"BE","name":"Bern / Berne"},"status":"Real"},{"key":"10142638","name":"Fichtenweg","postalCode":"3362","locality":"Niederönz","commune":{"key":"982","name":"Niederönz","shortName":"Niederönz"},"district":{"key":"244","name":"Verwaltungskreis Oberaargau"},"canton":{"key":"2","code":"BE","name":"Bern / Berne"},"status":"Real"},{"key":"10014173","name":"Fluhacherstrasse","postalCode":"3362","locality":"Niederönz","commune":{"key":"982","name":"Niederönz","shortName":"Niederönz"},"district":{"key":"244","name":"Verwaltungskreis Oberaargau"},"canton":{"key":"2","code":"BE","name":"Bern / Berne"},"status":"Real"},{"key":"10102751","name":"Grossacherweg","postalCode":"3362","locality":"Niederönz","commune":{"key":"982","name":"Niederönz","shortName":"Niederönz"},"district":{"key":"244","name":"Verwaltungskreis Oberaargau"},"canton":{"key":"2","code":"BE","name":"Bern / Berne"},"status":"Real"},{"key":"10014174","name":"Grubenweg","postalCode":"3362","locality":"Niederönz","commune":{"key":"982","name":"Niederönz","shortName":"Niederönz"},"district":{"key":"244","name":"Verwaltungskreis Oberaargau"},"canton":{"key":"2","code":"BE","name":"Bern / Berne"},"status":"Real"},{"key":"10217317","name":"Hochstrasse","postalCode":"3362","locality":"Niederönz","commune":{"key":"982","name":"Niederönz","shortName":"Niederönz"},"district":{"key":"244","name":"Verwaltungskreis Oberaargau"},"canton":{"key":"2","code":"BE","name":"Bern / Berne"},"status":"Real"},{"key":"10014175","name":"Hofweg","postalCode":"3362","locality":"Niederönz","commune":{"key":"982","name":"Niederönz","shortName":"Niederönz"},"district":{"key":"244","name":"Verwaltungskreis Oberaargau"},"canton":{"key":"2","code":"BE","name":"Bern / Berne"},"status":"Real"},{"key":"10040037","name":"Höheweg","postalCode":"3362","locality":"Niederönz","commune":{"key":"982","name":"Niederönz","shortName":"Niederönz"},"district":{"key":"244","name":"Verwaltungskreis Oberaargau"},"canton":{"key":"2","code":"BE","name":"Bern / Berne"},"status":"Real"},{"key":"10065224","name":"Industriestrasse","postalCode":"3362","locality":"Niederönz","commune":{"key":"982","name":"Niederönz","shortName":"Niederönz"},"district":{"key":"244","name":"Verwaltungskreis Oberaargau"},"canton":{"key":"2","code":"BE","name":"Bern / Berne"},"status":"Real"},{"key":"10218933","name":"Inkwilweg","postalCode":"3362","locality":"Niederönz","commune":{"key":"982","name":"Niederönz","shortName":"Niederönz"},"district":{"key":"244","name":"Verwaltungskreis Oberaargau"},"canton":{"key":"2","code":"BE","name":"Bern / Berne"},"status":"Real"},{"key":"10180166","name":"Juraweg","postalCode":"3362","locality":"Niederönz","commune":{"key":"982","name":"Niederönz","shortName":"Niederönz"},"district":{"key":"244","name":"Verwaltungskreis Oberaargau"},"canton":{"key":"2","code":"BE","name":"Bern / Berne"},"status":"Real"},{"key":"10196519","name":"Kleinfeldweg","postalCode":"3362","locality":"Niederönz","commune":{"key":"982","name":"Niederönz","shortName":"Niederönz"},"district":{"key":"244","name":"Verwaltungskreis Oberaargau"},"canton":{"key":"2","code":"BE","name":"Bern / Berne"},"status":"Real"},{"key":"10187156","name":"Klusweg","postalCode":"3362","locality":"Niederönz","commune":{"key":"982","name":"Niederönz","shortName":"Niederönz"},"district":{"key":"244","name":"Verwaltungskreis Oberaargau"},"canton":{"key":"2","code":"BE","name":"Bern / Berne"},"status":"Real"},{"key":"10218937","name":"Kreuzstrasse","postalCode":"3362","locality":"Niederönz","commune":{"key":"982","name":"Niederönz","shortName":"Niederönz"},"district":{"key":"244","name":"Verwaltungskreis Oberaargau"},"canton":{"key":"2","code":"BE","name":"Bern / Berne"},"status":"Real"},{"key":"10040038","name":"Länggasse","postalCode":"3362","locality":"Niederönz","commune":{"key":"982","name":"Niederönz","shortName":"Niederönz"},"district":{"key":"244","name":"Verwaltungskreis Oberaargau"},"canton":{"key":"2","code":"BE","name":"Bern / Berne"},"status":"Real"},{"key":"10082262","name":"Lindenstrasse","postalCode":"3362","locality":"Niederönz","commune":{"key":"982","name":"Niederönz","shortName":"Niederönz"},"district":{"key":"244","name":"Verwaltungskreis Oberaargau"},"canton":{"key":"2","code":"BE","name":"Bern / Berne"},"status":"Real"},{"key":"10014176","name":"Mattenweg","postalCode":"3362","locality":"Niederönz","commune":{"key":"982","name":"Niederönz","shortName":"Niederönz"},"district":{"key":"244","name":"Verwaltungskreis Oberaargau"},"canton":{"key":"2","code":"BE","name":"Bern / Berne"},"status":"Real"},{"key":"10014177","name":"Mühlestrasse","postalCode":"3362","locality":"Niederönz","commune":{"key":"982","name":"Niederönz","shortName":"Niederönz"},"district":{"key":"244","name":"Verwaltungskreis Oberaargau"},"canton":{"key":"2","code":"BE","name":"Bern / Berne"},"status":"Real"},{"key":"10040039","name":"Niesenweg","postalCode":"3362","locality":"Niederönz","commune":{"key":"982","name":"Niederönz","shortName":"Niederönz"},"district":{"key":"244","name":"Verwaltungskreis Oberaargau"},"canton":{"key":"2","code":"BE","name":"Bern / Berne"},"status":"Real"},{"key":"10082263","name":"Oberer Fluhacherweg","postalCode":"3362","locality":"Niederönz","commune":{"key":"982","name":"Niederönz","shortName":"Niederönz"},"district":{"key":"244","name":"Verwaltungskreis Oberaargau"},"canton":{"key":"2","code":"BE","name":"Bern / Berne"},"status":"Real"},{"key":"10065225","name":"Oberfeldstrasse","postalCode":"3362","locality":"Niederönz","commune":{"key":"982","name":"Niederönz","shortName":"Niederönz"},"district":{"key":"244","name":"Verwaltungskreis Oberaargau"},"canton":{"key":"2","code":"BE","name":"Bern / Berne"},"status":"Real"},{"key":"10040040","name":"Oberfeldweg","postalCode":"3362","locality":"Niederönz","commune":{"key":"982","name":"Niederönz","shortName":"Niederönz"},"district":{"key":"244","name":"Verwaltungskreis Oberaargau"},"canton":{"key":"2","code":"BE","name":"Bern / Berne"},"status":"Real"},{"key":"10218941","name":"Oenzberg","postalCode":"3362","locality":"Niederönz","commune":{"key":"982","name":"Niederönz","shortName":"Niederönz"},"district":{"key":"244","name":"Verwaltungskreis Oberaargau"},"canton":{"key":"2","code":"BE","name":"Bern / Berne"},"status":"Real"},{"key":"10146796","name":"Oenzgasse","postalCode":"3362","locality":"Niederönz","commune":{"key":"982","name":"Niederönz","shortName":"Niederönz"},"district":{"key":"244","name":"Verwaltungskreis Oberaargau"},"canton":{"key":"2","code":"BE","name":"Bern / Berne"},"status":"Real"},{"key":"10014178","name":"Oenzweg","postalCode":"3362","locality":"Niederönz","commune":{"key":"982","name":"Niederönz","shortName":"Niederönz"},"district":{"key":"244","name":"Verwaltungskreis Oberaargau"},"canton":{"key":"2","code":"BE","name":"Bern / Berne"},"status":"Real"},{"key":"10160086","name":"Parkweg","postalCode":"3362","locality":"Niederönz","commune":{"key":"982","name":"Niederönz","shortName":"Niederönz"},"district":{"key":"244","name":"Verwaltungskreis Oberaargau"},"canton":{"key":"2","code":"BE","name":"Bern / Berne"},"status":"Real"},{"key":"10102752","name":"Poststrasse","postalCode":"3362","locality":"Niederönz","commune":{"key":"982","name":"Niederönz","shortName":"Niederönz"},"district":{"key":"244","name":"Verwaltungskreis Oberaargau"},"canton":{"key":"2","code":"BE","name":"Bern / Berne"},"status":"Real"},{"key":"10014179","name":"Reinacherstrasse","postalCode":"3362","locality":"Niederönz","commune":{"key":"982","name":"Niederönz","shortName":"Niederönz"},"district":{"key":"244","name":"Verwaltungskreis Oberaargau"},"canton":{"key":"2","code":"BE","name":"Bern / Berne"},"status":"Real"},{"key":"10187206","name":"Richterweg","postalCode":"3362","locality":"Niederönz","commune":{"key":"982","name":"Niederönz","shortName":"Niederönz"},"district":{"key":"244","name":"Verwaltungskreis Oberaargau"},"canton":{"key":"2","code":"BE","name":"Bern / Berne"},"status":"Real"},{"key":"10211295","name":"Ringstrasse","postalCode":"3362","locality":"Niederönz","commune":{"key":"982","name":"Niederönz","shortName":"Niederönz"},"district":{"key":"244","name":"Verwaltungskreis Oberaargau"},"canton":{"key":"2","code":"BE","name":"Bern / Berne"},"status":"Real"},{"key":"10040041","name":"Rosenweg","postalCode":"3362","locality":"Niederönz","commune":{"key":"982","name":"Niederönz","shortName":"Niederönz"},"district":{"key":"244","name":"Verwaltungskreis Oberaargau"},"canton":{"key":"2","code":"BE","name":"Bern / Berne"},"status":"Real"},{"key":"10257662","name":"Sandacherstrasse","postalCode":"3362","locality":"Niederönz","commune":{"key":"982","name":"Niederönz","shortName":"Niederönz"},"district":{"key":"244","name":"Verwaltungskreis Oberaargau"},"canton":{"key":"2","code":"BE","name":"Bern / Berne"},"status":"Real"},{"key":"10082264","name":"Schlyffiweg","postalCode":"3362","locality":"Niederönz","commune":{"key":"982","name":"Niederönz","shortName":"Niederönz"},"district":{"key":"244","name":"Verwaltungskreis Oberaargau"},"canton":{"key":"2","code":"BE","name":"Bern / Berne"},"status":"Real"},{"key":"10065226","name":"Schmiedeweg","postalCode":"3362","locality":"Niederönz","commune":{"key":"982","name":"Niederönz","shortName":"Niederönz"},"district":{"key":"244","name":"Verwaltungskreis Oberaargau"},"canton":{"key":"2","code":"BE","name":"Bern / Berne"},"status":"Real"},{"key":"10040042","name":"Schulhausstrasse","postalCode":"3362","locality":"Niederönz","commune":{"key":"982","name":"Niederönz","shortName":"Niederönz"},"district":{"key":"244","name":"Verwaltungskreis Oberaargau"},"canton":{"key":"2","code":"BE","name":"Bern / Berne"},"status":"Real"},{"key":"10118640","name":"Schulhausweg","postalCode":"3362","locality":"Niederönz","commune":{"key":"982","name":"Niederönz","shortName":"Niederönz"},"district":{"key":"244","name":"Verwaltungskreis Oberaargau"},"canton":{"key":"2","code":"BE","name":"Bern / Berne"},"status":"Real"},{"key":"10014180","name":"Solothurnstrasse","postalCode":"3362","locality":"Niederönz","commune":{"key":"982","name":"Niederönz","shortName":"Niederönz"},"district":{"key":"244","name":"Verwaltungskreis Oberaargau"},"canton":{"key":"2","code":"BE","name":"Bern / Berne"},"status":"Real"},{"key":"10189951","name":"Tannenweg","postalCode":"3362","locality":"Niederönz","commune":{"key":"982","name":"Niederönz","shortName":"Niederönz"},"district":{"key":"244","name":"Verwaltungskreis Oberaargau"},"canton":{"key":"2","code":"BE","name":"Bern / Berne"},"status":"Real"},{"key":"10186163","name":"Unterer Fluhacherweg","postalCode":"3362","locality":"Niederönz","commune":{"key":"982","name":"Niederönz","shortName":"Niederönz"},"district":{"key":"244","name":"Verwaltungskreis Oberaargau"},"canton":{"key":"2","code":"BE","name":"Bern / Berne"},"status":"Real"},{"key":"10040043","name":"Weissensteinstrasse","postalCode":"3362","locality":"Niederönz","commune":{"key":"982","name":"Niederönz","shortName":"Niederönz"},"district":{"key":"244","name":"Verwaltungskreis Oberaargau"},"canton":{"key":"2","code":"BE","name":"Bern / Berne"},"status":"Real"},{"key":"10113131","name":"Wiesenstrasse","postalCode":"3362","locality":"Niederönz","commune":{"key":"982","name":"Niederönz","shortName":"Niederönz"},"district":{"key":"244","name":"Verwaltungskreis Oberaargau"},"canton":{"key":"2","code":"BE","name":"Bern / Berne"},"status":"Real"},{"key":"10065227","name":"Zelgliweg","postalCode":"3362","locality":"Niederönz","commune":{"key":"982","name":"Niederönz","shortName":"Niederönz"},"district":{"key":"244","name":"Verwaltungskreis Oberaargau"},"canton":{"key":"2","code":"BE","name":"Bern / Berne"},"status":"Real"},]