[{"name":"Achalmstr.","postalCode":"72793","locality":"Pfullingen","municipality":{"key":"08415059","name":"Pfullingen, Stadt","type":"Stadt"},"district":{"key":"08415","name":"Reutlingen","type":"Landkreis"},"federalState":{"key":"08","name":"Baden-Württemberg"}},{"name":"Adolf-Hölzel-Weg","postalCode":"72793","locality":"Pfullingen","municipality":{"key":"08415059","name":"Pfullingen, Stadt","type":"Stadt"},"district":{"key":"08415","name":"Reutlingen","type":"Landkreis"},"federalState":{"key":"08","name":"Baden-Württemberg"}},{"name":"Ahlbolweg","postalCode":"72793","locality":"Pfullingen","municipality":{"key":"08415059","name":"Pfullingen, Stadt","type":"Stadt"},"district":{"key":"08415","name":"Reutlingen","type":"Landkreis"},"federalState":{"key":"08","name":"Baden-Württemberg"}},{"name":"Ahlsberg","postalCode":"72793","locality":"Pfullingen","municipality":{"key":"08415059","name":"Pfullingen, Stadt","type":"Stadt"},"district":{"key":"08415","name":"Reutlingen","type":"Landkreis"},"federalState":{"key":"08","name":"Baden-Württemberg"}},{"name":"Ahlsteige","postalCode":"72793","locality":"Pfullingen","municipality":{"key":"08415059","name":"Pfullingen, Stadt","type":"Stadt"},"district":{"key":"08415","name":"Reutlingen","type":"Landkreis"},"federalState":{"key":"08","name":"Baden-Württemberg"}},{"name":"Albstr.","postalCode":"72793","locality":"Pfullingen","municipality":{"key":"08415059","name":"Pfullingen, Stadt","type":"Stadt"},"district":{"key":"08415","name":"Reutlingen","type":"Landkreis"},"federalState":{"key":"08","name":"Baden-Württemberg"}},{"name":"Alte Steige","postalCode":"72793","locality":"Pfullingen","municipality":{"key":"08415059","name":"Pfullingen, Stadt","type":"Stadt"},"district":{"key":"08415","name":"Reutlingen","type":"Landkreis"},"federalState":{"key":"08","name":"Baden-Württemberg"}},{"name":"Alte Stuhlsteige","postalCode":"72793","locality":"Pfullingen","municipality":{"key":"08415059","name":"Pfullingen, Stadt","type":"Stadt"},"district":{"key":"08415","name":"Reutlingen","type":"Landkreis"},"federalState":{"key":"08","name":"Baden-Württemberg"}},{"name":"Am Ahlsberg","postalCode":"72793","locality":"Pfullingen","municipality":{"key":"08415059","name":"Pfullingen, Stadt","type":"Stadt"},"district":{"key":"08415","name":"Reutlingen","type":"Landkreis"},"federalState":{"key":"08","name":"Baden-Württemberg"}},{"name":"Am Echazufer","postalCode":"72793","locality":"Pfullingen","municipality":{"key":"08415059","name":"Pfullingen, Stadt","type":"Stadt"},"district":{"key":"08415","name":"Reutlingen","type":"Landkreis"},"federalState":{"key":"08","name":"Baden-Württemberg"}},{"name":"Am Eierbach","postalCode":"72793","locality":"Pfullingen","municipality":{"key":"08415059","name":"Pfullingen, Stadt","type":"Stadt"},"district":{"key":"08415","name":"Reutlingen","type":"Landkreis"},"federalState":{"key":"08","name":"Baden-Württemberg"}},{"name":"Amselweg","postalCode":"72793","locality":"Pfullingen","municipality":{"key":"08415059","name":"Pfullingen, Stadt","type":"Stadt"},"district":{"key":"08415","name":"Reutlingen","type":"Landkreis"},"federalState":{"key":"08","name":"Baden-Württemberg"}},{"name":"Am Steinenberg","postalCode":"72793","locality":"Pfullingen","municipality":{"key":"08415059","name":"Pfullingen, Stadt","type":"Stadt"},"district":{"key":"08415","name":"Reutlingen","type":"Landkreis"},"federalState":{"key":"08","name":"Baden-Württemberg"}},{"name":"An der Echaz","postalCode":"72793","locality":"Pfullingen","municipality":{"key":"08415059","name":"Pfullingen, Stadt","type":"Stadt"},"district":{"key":"08415","name":"Reutlingen","type":"Landkreis"},"federalState":{"key":"08","name":"Baden-Württemberg"}},{"name":"An der Renn","postalCode":"72793","locality":"Pfullingen","municipality":{"key":"08415059","name":"Pfullingen, Stadt","type":"Stadt"},"district":{"key":"08415","name":"Reutlingen","type":"Landkreis"},"federalState":{"key":"08","name":"Baden-Württemberg"}},{"name":"An der Stuhlsteige","postalCode":"72793","locality":"Pfullingen","municipality":{"key":"08415059","name":"Pfullingen, Stadt","type":"Stadt"},"district":{"key":"08415","name":"Reutlingen","type":"Landkreis"},"federalState":{"key":"08","name":"Baden-Württemberg"}},{"name":"An der Urfall","postalCode":"72793","locality":"Pfullingen","municipality":{"key":"08415059","name":"Pfullingen, Stadt","type":"Stadt"},"district":{"key":"08415","name":"Reutlingen","type":"Landkreis"},"federalState":{"key":"08","name":"Baden-Württemberg"}},{"name":"Arbach ob der Str.","postalCode":"72793","locality":"Pfullingen","municipality":{"key":"08415059","name":"Pfullingen, Stadt","type":"Stadt"},"district":{"key":"08415","name":"Reutlingen","type":"Landkreis"},"federalState":{"key":"08","name":"Baden-Württemberg"}},{"name":"Arbachstr.","postalCode":"72793","locality":"Pfullingen","municipality":{"key":"08415059","name":"Pfullingen, Stadt","type":"Stadt"},"district":{"key":"08415","name":"Reutlingen","type":"Landkreis"},"federalState":{"key":"08","name":"Baden-Württemberg"}},{"name":"Auchtertweg","postalCode":"72793","locality":"Pfullingen","municipality":{"key":"08415059","name":"Pfullingen, Stadt","type":"Stadt"},"district":{"key":"08415","name":"Reutlingen","type":"Landkreis"},"federalState":{"key":"08","name":"Baden-Württemberg"}},{"name":"Auf der Mauer","postalCode":"72793","locality":"Pfullingen","municipality":{"key":"08415059","name":"Pfullingen, Stadt","type":"Stadt"},"district":{"key":"08415","name":"Reutlingen","type":"Landkreis"},"federalState":{"key":"08","name":"Baden-Württemberg"}},{"name":"Auf Weil","postalCode":"72793","locality":"Pfullingen","municipality":{"key":"08415059","name":"Pfullingen, Stadt","type":"Stadt"},"district":{"key":"08415","name":"Reutlingen","type":"Landkreis"},"federalState":{"key":"08","name":"Baden-Württemberg"}},{"name":"August-Lämmle-Weg","postalCode":"72793","locality":"Pfullingen","municipality":{"key":"08415059","name":"Pfullingen, Stadt","type":"Stadt"},"district":{"key":"08415","name":"Reutlingen","type":"Landkreis"},"federalState":{"key":"08","name":"Baden-Württemberg"}},{"name":"Bachstr.","postalCode":"72793","locality":"Pfullingen","municipality":{"key":"08415059","name":"Pfullingen, Stadt","type":"Stadt"},"district":{"key":"08415","name":"Reutlingen","type":"Landkreis"},"federalState":{"key":"08","name":"Baden-Württemberg"}},{"name":"Badstr.","postalCode":"72793","locality":"Pfullingen","municipality":{"key":"08415059","name":"Pfullingen, Stadt","type":"Stadt"},"district":{"key":"08415","name":"Reutlingen","type":"Landkreis"},"federalState":{"key":"08","name":"Baden-Württemberg"}},{"name":"Bahnhofstr.","postalCode":"72793","locality":"Pfullingen","municipality":{"key":"08415059","name":"Pfullingen, Stadt","type":"Stadt"},"district":{"key":"08415","name":"Reutlingen","type":"Landkreis"},"federalState":{"key":"08","name":"Baden-Württemberg"}},{"name":"Baumgartenweg","postalCode":"72793","locality":"Pfullingen","municipality":{"key":"08415059","name":"Pfullingen, Stadt","type":"Stadt"},"district":{"key":"08415","name":"Reutlingen","type":"Landkreis"},"federalState":{"key":"08","name":"Baden-Württemberg"}},{"name":"Beethovenstr.","postalCode":"72793","locality":"Pfullingen","municipality":{"key":"08415059","name":"Pfullingen, Stadt","type":"Stadt"},"district":{"key":"08415","name":"Reutlingen","type":"Landkreis"},"federalState":{"key":"08","name":"Baden-Württemberg"}},{"name":"Benzstr.","postalCode":"72793","locality":"Pfullingen","municipality":{"key":"08415059","name":"Pfullingen, Stadt","type":"Stadt"},"district":{"key":"08415","name":"Reutlingen","type":"Landkreis"},"federalState":{"key":"08","name":"Baden-Württemberg"}},{"name":"Bergstr.","postalCode":"72793","locality":"Pfullingen","municipality":{"key":"08415059","name":"Pfullingen, Stadt","type":"Stadt"},"district":{"key":"08415","name":"Reutlingen","type":"Landkreis"},"federalState":{"key":"08","name":"Baden-Württemberg"}},{"name":"Birnenweg","postalCode":"72793","locality":"Pfullingen","municipality":{"key":"08415059","name":"Pfullingen, Stadt","type":"Stadt"},"district":{"key":"08415","name":"Reutlingen","type":"Landkreis"},"federalState":{"key":"08","name":"Baden-Württemberg"}},{"name":"Bismarckstr.","postalCode":"72793","locality":"Pfullingen","municipality":{"key":"08415059","name":"Pfullingen, Stadt","type":"Stadt"},"district":{"key":"08415","name":"Reutlingen","type":"Landkreis"},"federalState":{"key":"08","name":"Baden-Württemberg"}},{"name":"Blumenstr.","postalCode":"72793","locality":"Pfullingen","municipality":{"key":"08415059","name":"Pfullingen, Stadt","type":"Stadt"},"district":{"key":"08415","name":"Reutlingen","type":"Landkreis"},"federalState":{"key":"08","name":"Baden-Württemberg"}},{"name":"Bolbergweg","postalCode":"72793","locality":"Pfullingen","municipality":{"key":"08415059","name":"Pfullingen, Stadt","type":"Stadt"},"district":{"key":"08415","name":"Reutlingen","type":"Landkreis"},"federalState":{"key":"08","name":"Baden-Württemberg"}},{"name":"Boleyweg","postalCode":"72793","locality":"Pfullingen","municipality":{"key":"08415059","name":"Pfullingen, Stadt","type":"Stadt"},"district":{"key":"08415","name":"Reutlingen","type":"Landkreis"},"federalState":{"key":"08","name":"Baden-Württemberg"}},{"name":"Bollstr.","postalCode":"72793","locality":"Pfullingen","municipality":{"key":"08415059","name":"Pfullingen, Stadt","type":"Stadt"},"district":{"key":"08415","name":"Reutlingen","type":"Landkreis"},"federalState":{"key":"08","name":"Baden-Württemberg"}},{"name":"Bongertweg","postalCode":"72793","locality":"Pfullingen","municipality":{"key":"08415059","name":"Pfullingen, Stadt","type":"Stadt"},"district":{"key":"08415","name":"Reutlingen","type":"Landkreis"},"federalState":{"key":"08","name":"Baden-Württemberg"}},{"name":"Braikestr.","postalCode":"72793","locality":"Pfullingen","municipality":{"key":"08415059","name":"Pfullingen, Stadt","type":"Stadt"},"district":{"key":"08415","name":"Reutlingen","type":"Landkreis"},"federalState":{"key":"08","name":"Baden-Württemberg"}},{"name":"Breitenbachweg","postalCode":"72793","locality":"Pfullingen","municipality":{"key":"08415059","name":"Pfullingen, Stadt","type":"Stadt"},"district":{"key":"08415","name":"Reutlingen","type":"Landkreis"},"federalState":{"key":"08","name":"Baden-Württemberg"}},{"name":"Brönnelesteichweg","postalCode":"72793","locality":"Pfullingen","municipality":{"key":"08415059","name":"Pfullingen, Stadt","type":"Stadt"},"district":{"key":"08415","name":"Reutlingen","type":"Landkreis"},"federalState":{"key":"08","name":"Baden-Württemberg"}},{"name":"Brucknerstr.","postalCode":"72793","locality":"Pfullingen","municipality":{"key":"08415059","name":"Pfullingen, Stadt","type":"Stadt"},"district":{"key":"08415","name":"Reutlingen","type":"Landkreis"},"federalState":{"key":"08","name":"Baden-Württemberg"}},{"name":"Brühlstr.","postalCode":"72793","locality":"Pfullingen","municipality":{"key":"08415059","name":"Pfullingen, Stadt","type":"Stadt"},"district":{"key":"08415","name":"Reutlingen","type":"Landkreis"},"federalState":{"key":"08","name":"Baden-Württemberg"}},{"name":"Brunnenstr.","postalCode":"72793","locality":"Pfullingen","municipality":{"key":"08415059","name":"Pfullingen, Stadt","type":"Stadt"},"district":{"key":"08415","name":"Reutlingen","type":"Landkreis"},"federalState":{"key":"08","name":"Baden-Württemberg"}},{"name":"Burgstr.","postalCode":"72793","locality":"Pfullingen","municipality":{"key":"08415059","name":"Pfullingen, Stadt","type":"Stadt"},"district":{"key":"08415","name":"Reutlingen","type":"Landkreis"},"federalState":{"key":"08","name":"Baden-Württemberg"}},{"name":"Bützen","postalCode":"72793","locality":"Pfullingen","municipality":{"key":"08415059","name":"Pfullingen, Stadt","type":"Stadt"},"district":{"key":"08415","name":"Reutlingen","type":"Landkreis"},"federalState":{"key":"08","name":"Baden-Württemberg"}},{"name":"Carl-Zeiss-Str.","postalCode":"72793","locality":"Pfullingen","municipality":{"key":"08415059","name":"Pfullingen, Stadt","type":"Stadt"},"district":{"key":"08415","name":"Reutlingen","type":"Landkreis"},"federalState":{"key":"08","name":"Baden-Württemberg"}},{"name":"Christofstr.","postalCode":"72793","locality":"Pfullingen","municipality":{"key":"08415059","name":"Pfullingen, Stadt","type":"Stadt"},"district":{"key":"08415","name":"Reutlingen","type":"Landkreis"},"federalState":{"key":"08","name":"Baden-Württemberg"}},{"name":"Daimlerstr.","postalCode":"72793","locality":"Pfullingen","municipality":{"key":"08415059","name":"Pfullingen, Stadt","type":"Stadt"},"district":{"key":"08415","name":"Reutlingen","type":"Landkreis"},"federalState":{"key":"08","name":"Baden-Württemberg"}},{"name":"Dieselstr.","postalCode":"72793","locality":"Pfullingen","municipality":{"key":"08415059","name":"Pfullingen, Stadt","type":"Stadt"},"district":{"key":"08415","name":"Reutlingen","type":"Landkreis"},"federalState":{"key":"08","name":"Baden-Württemberg"}},{"name":"Drosselweg","postalCode":"72793","locality":"Pfullingen","municipality":{"key":"08415059","name":"Pfullingen, Stadt","type":"Stadt"},"district":{"key":"08415","name":"Reutlingen","type":"Landkreis"},"federalState":{"key":"08","name":"Baden-Württemberg"}},{"name":"Ehrenspächweg","postalCode":"72793","locality":"Pfullingen","municipality":{"key":"08415059","name":"Pfullingen, Stadt","type":"Stadt"},"district":{"key":"08415","name":"Reutlingen","type":"Landkreis"},"federalState":{"key":"08","name":"Baden-Württemberg"}},{"name":"Eichendorffstr.","postalCode":"72793","locality":"Pfullingen","municipality":{"key":"08415059","name":"Pfullingen, Stadt","type":"Stadt"},"district":{"key":"08415","name":"Reutlingen","type":"Landkreis"},"federalState":{"key":"08","name":"Baden-Württemberg"}},{"name":"Eisenbahnstr.","postalCode":"72793","locality":"Pfullingen","municipality":{"key":"08415059","name":"Pfullingen, Stadt","type":"Stadt"},"district":{"key":"08415","name":"Reutlingen","type":"Landkreis"},"federalState":{"key":"08","name":"Baden-Württemberg"}},{"name":"Elisenweg","postalCode":"72793","locality":"Pfullingen","municipality":{"key":"08415059","name":"Pfullingen, Stadt","type":"Stadt"},"district":{"key":"08415","name":"Reutlingen","type":"Landkreis"},"federalState":{"key":"08","name":"Baden-Württemberg"}},{"name":"Elsterweg","postalCode":"72793","locality":"Pfullingen","municipality":{"key":"08415059","name":"Pfullingen, Stadt","type":"Stadt"},"district":{"key":"08415","name":"Reutlingen","type":"Landkreis"},"federalState":{"key":"08","name":"Baden-Württemberg"}},{"name":"Eninger Weg","postalCode":"72793","locality":"Pfullingen","municipality":{"key":"08415059","name":"Pfullingen, Stadt","type":"Stadt"},"district":{"key":"08415","name":"Reutlingen","type":"Landkreis"},"federalState":{"key":"08","name":"Baden-Württemberg"}},{"name":"Ernst-Moritz-Arndt-Weg","postalCode":"72793","locality":"Pfullingen","municipality":{"key":"08415059","name":"Pfullingen, Stadt","type":"Stadt"},"district":{"key":"08415","name":"Reutlingen","type":"Landkreis"},"federalState":{"key":"08","name":"Baden-Württemberg"}},{"name":"Ernststr.","postalCode":"72793","locality":"Pfullingen","municipality":{"key":"08415059","name":"Pfullingen, Stadt","type":"Stadt"},"district":{"key":"08415","name":"Reutlingen","type":"Landkreis"},"federalState":{"key":"08","name":"Baden-Württemberg"}},{"name":"Erwin-Seiz-Str.","postalCode":"72793","locality":"Pfullingen","municipality":{"key":"08415059","name":"Pfullingen, Stadt","type":"Stadt"},"district":{"key":"08415","name":"Reutlingen","type":"Landkreis"},"federalState":{"key":"08","name":"Baden-Württemberg"}},{"name":"Eugenstr.","postalCode":"72793","locality":"Pfullingen","municipality":{"key":"08415059","name":"Pfullingen, Stadt","type":"Stadt"},"district":{"key":"08415","name":"Reutlingen","type":"Landkreis"},"federalState":{"key":"08","name":"Baden-Württemberg"}},{"name":"Fichtestr.","postalCode":"72793","locality":"Pfullingen","municipality":{"key":"08415059","name":"Pfullingen, Stadt","type":"Stadt"},"district":{"key":"08415","name":"Reutlingen","type":"Landkreis"},"federalState":{"key":"08","name":"Baden-Württemberg"}},{"name":"Finkenweg","postalCode":"72793","locality":"Pfullingen","municipality":{"key":"08415059","name":"Pfullingen, Stadt","type":"Stadt"},"district":{"key":"08415","name":"Reutlingen","type":"Landkreis"},"federalState":{"key":"08","name":"Baden-Württemberg"}},{"name":"Frauenhalde","postalCode":"72793","locality":"Pfullingen","municipality":{"key":"08415059","name":"Pfullingen, Stadt","type":"Stadt"},"district":{"key":"08415","name":"Reutlingen","type":"Landkreis"},"federalState":{"key":"08","name":"Baden-Württemberg"}},{"name":"Friedrich-Ebert-Str.","postalCode":"72793","locality":"Pfullingen","municipality":{"key":"08415059","name":"Pfullingen, Stadt","type":"Stadt"},"district":{"key":"08415","name":"Reutlingen","type":"Landkreis"},"federalState":{"key":"08","name":"Baden-Württemberg"}},{"name":"Friedrichstr.","postalCode":"72793","locality":"Pfullingen","municipality":{"key":"08415059","name":"Pfullingen, Stadt","type":"Stadt"},"district":{"key":"08415","name":"Reutlingen","type":"Landkreis"},"federalState":{"key":"08","name":"Baden-Württemberg"}},{"name":"Friesenstr.","postalCode":"72793","locality":"Pfullingen","municipality":{"key":"08415059","name":"Pfullingen, Stadt","type":"Stadt"},"district":{"key":"08415","name":"Reutlingen","type":"Landkreis"},"federalState":{"key":"08","name":"Baden-Württemberg"}},{"name":"Gailenbühlweg","postalCode":"72793","locality":"Pfullingen","municipality":{"key":"08415059","name":"Pfullingen, Stadt","type":"Stadt"},"district":{"key":"08415","name":"Reutlingen","type":"Landkreis"},"federalState":{"key":"08","name":"Baden-Württemberg"}},{"name":"Gartenstr.","postalCode":"72793","locality":"Pfullingen","municipality":{"key":"08415059","name":"Pfullingen, Stadt","type":"Stadt"},"district":{"key":"08415","name":"Reutlingen","type":"Landkreis"},"federalState":{"key":"08","name":"Baden-Württemberg"}},{"name":"Georgenweg","postalCode":"72793","locality":"Pfullingen","municipality":{"key":"08415059","name":"Pfullingen, Stadt","type":"Stadt"},"district":{"key":"08415","name":"Reutlingen","type":"Landkreis"},"federalState":{"key":"08","name":"Baden-Württemberg"}},{"name":"Gerhart-Hauptmann-Str.","postalCode":"72793","locality":"Pfullingen","municipality":{"key":"08415059","name":"Pfullingen, Stadt","type":"Stadt"},"district":{"key":"08415","name":"Reutlingen","type":"Landkreis"},"federalState":{"key":"08","name":"Baden-Württemberg"}},{"name":"Gielsbergweg","postalCode":"72793","locality":"Pfullingen","municipality":{"key":"08415059","name":"Pfullingen, Stadt","type":"Stadt"},"district":{"key":"08415","name":"Reutlingen","type":"Landkreis"},"federalState":{"key":"08","name":"Baden-Württemberg"}},{"name":"Goethestr.","postalCode":"72793","locality":"Pfullingen","municipality":{"key":"08415059","name":"Pfullingen, Stadt","type":"Stadt"},"district":{"key":"08415","name":"Reutlingen","type":"Landkreis"},"federalState":{"key":"08","name":"Baden-Württemberg"}},{"name":"Gönninger Str.","postalCode":"72793","locality":"Pfullingen","municipality":{"key":"08415059","name":"Pfullingen, Stadt","type":"Stadt"},"district":{"key":"08415","name":"Reutlingen","type":"Landkreis"},"federalState":{"key":"08","name":"Baden-Württemberg"}},{"name":"Gottfried-Maier-Str.","postalCode":"72793","locality":"Pfullingen","municipality":{"key":"08415059","name":"Pfullingen, Stadt","type":"Stadt"},"district":{"key":"08415","name":"Reutlingen","type":"Landkreis"},"federalState":{"key":"08","name":"Baden-Württemberg"}},{"name":"Grieshalde","postalCode":"72793","locality":"Pfullingen","municipality":{"key":"08415059","name":"Pfullingen, Stadt","type":"Stadt"},"district":{"key":"08415","name":"Reutlingen","type":"Landkreis"},"federalState":{"key":"08","name":"Baden-Württemberg"}},{"name":"Griesstr.","postalCode":"72793","locality":"Pfullingen","municipality":{"key":"08415059","name":"Pfullingen, Stadt","type":"Stadt"},"district":{"key":"08415","name":"Reutlingen","type":"Landkreis"},"federalState":{"key":"08","name":"Baden-Württemberg"}},{"name":"Große Heerstr.","postalCode":"72793","locality":"Pfullingen","municipality":{"key":"08415059","name":"Pfullingen, Stadt","type":"Stadt"},"district":{"key":"08415","name":"Reutlingen","type":"Landkreis"},"federalState":{"key":"08","name":"Baden-Württemberg"}},{"name":"Große Ziegelstr.","postalCode":"72793","locality":"Pfullingen","municipality":{"key":"08415059","name":"Pfullingen, Stadt","type":"Stadt"},"district":{"key":"08415","name":"Reutlingen","type":"Landkreis"},"federalState":{"key":"08","name":"Baden-Württemberg"}},{"name":"Gutenbergstr.","postalCode":"72793","locality":"Pfullingen","municipality":{"key":"08415059","name":"Pfullingen, Stadt","type":"Stadt"},"district":{"key":"08415","name":"Reutlingen","type":"Landkreis"},"federalState":{"key":"08","name":"Baden-Württemberg"}},{"name":"Häglenstr.","postalCode":"72793","locality":"Pfullingen","municipality":{"key":"08415059","name":"Pfullingen, Stadt","type":"Stadt"},"district":{"key":"08415","name":"Reutlingen","type":"Landkreis"},"federalState":{"key":"08","name":"Baden-Württemberg"}},{"name":"Hans-Brühlmann-Weg","postalCode":"72793","locality":"Pfullingen","municipality":{"key":"08415059","name":"Pfullingen, Stadt","type":"Stadt"},"district":{"key":"08415","name":"Reutlingen","type":"Landkreis"},"federalState":{"key":"08","name":"Baden-Württemberg"}},{"name":"Hartweg","postalCode":"72793","locality":"Pfullingen","municipality":{"key":"08415059","name":"Pfullingen, Stadt","type":"Stadt"},"district":{"key":"08415","name":"Reutlingen","type":"Landkreis"},"federalState":{"key":"08","name":"Baden-Württemberg"}},{"name":"Hartweinberg","postalCode":"72793","locality":"Pfullingen","municipality":{"key":"08415059","name":"Pfullingen, Stadt","type":"Stadt"},"district":{"key":"08415","name":"Reutlingen","type":"Landkreis"},"federalState":{"key":"08","name":"Baden-Württemberg"}},{"name":"Hauffstr.","postalCode":"72793","locality":"Pfullingen","municipality":{"key":"08415059","name":"Pfullingen, Stadt","type":"Stadt"},"district":{"key":"08415","name":"Reutlingen","type":"Landkreis"},"federalState":{"key":"08","name":"Baden-Württemberg"}},{"name":"Hegelweg","postalCode":"72793","locality":"Pfullingen","municipality":{"key":"08415059","name":"Pfullingen, Stadt","type":"Stadt"},"district":{"key":"08415","name":"Reutlingen","type":"Landkreis"},"federalState":{"key":"08","name":"Baden-Württemberg"}},{"name":"Heinrich-Heine-Weg","postalCode":"72793","locality":"Pfullingen","municipality":{"key":"08415059","name":"Pfullingen, Stadt","type":"Stadt"},"district":{"key":"08415","name":"Reutlingen","type":"Landkreis"},"federalState":{"key":"08","name":"Baden-Württemberg"}},{"name":"Hermann-Burkhardt-Str.","postalCode":"72793","locality":"Pfullingen","municipality":{"key":"08415059","name":"Pfullingen, Stadt","type":"Stadt"},"district":{"key":"08415","name":"Reutlingen","type":"Landkreis"},"federalState":{"key":"08","name":"Baden-Württemberg"}},{"name":"Hermann-Hesse-Str.","postalCode":"72793","locality":"Pfullingen","municipality":{"key":"08415059","name":"Pfullingen, Stadt","type":"Stadt"},"district":{"key":"08415","name":"Reutlingen","type":"Landkreis"},"federalState":{"key":"08","name":"Baden-Württemberg"}},{"name":"Hermannstr.","postalCode":"72793","locality":"Pfullingen","municipality":{"key":"08415059","name":"Pfullingen, Stadt","type":"Stadt"},"district":{"key":"08415","name":"Reutlingen","type":"Landkreis"},"federalState":{"key":"08","name":"Baden-Württemberg"}},{"name":"Hinter dem Urselberg","postalCode":"72793","locality":"Pfullingen","municipality":{"key":"08415059","name":"Pfullingen, Stadt","type":"Stadt"},"district":{"key":"08415","name":"Reutlingen","type":"Landkreis"},"federalState":{"key":"08","name":"Baden-Württemberg"}},{"name":"Hinterer Spielbach","postalCode":"72793","locality":"Pfullingen","municipality":{"key":"08415059","name":"Pfullingen, Stadt","type":"Stadt"},"district":{"key":"08415","name":"Reutlingen","type":"Landkreis"},"federalState":{"key":"08","name":"Baden-Württemberg"}},{"name":"Hochbergsteige","postalCode":"72793","locality":"Pfullingen","municipality":{"key":"08415059","name":"Pfullingen, Stadt","type":"Stadt"},"district":{"key":"08415","name":"Reutlingen","type":"Landkreis"},"federalState":{"key":"08","name":"Baden-Württemberg"}},{"name":"Hohe Str.","postalCode":"72793","locality":"Pfullingen","municipality":{"key":"08415059","name":"Pfullingen, Stadt","type":"Stadt"},"district":{"key":"08415","name":"Reutlingen","type":"Landkreis"},"federalState":{"key":"08","name":"Baden-Württemberg"}},{"name":"Hohmorgenstr.","postalCode":"72793","locality":"Pfullingen","municipality":{"key":"08415059","name":"Pfullingen, Stadt","type":"Stadt"},"district":{"key":"08415","name":"Reutlingen","type":"Landkreis"},"federalState":{"key":"08","name":"Baden-Württemberg"}},{"name":"Hölderlinstr.","postalCode":"72793","locality":"Pfullingen","municipality":{"key":"08415059","name":"Pfullingen, Stadt","type":"Stadt"},"district":{"key":"08415","name":"Reutlingen","type":"Landkreis"},"federalState":{"key":"08","name":"Baden-Württemberg"}},{"name":"Hörnlesweg","postalCode":"72793","locality":"Pfullingen","municipality":{"key":"08415059","name":"Pfullingen, Stadt","type":"Stadt"},"district":{"key":"08415","name":"Reutlingen","type":"Landkreis"},"federalState":{"key":"08","name":"Baden-Württemberg"}},{"name":"Im Ehespach","postalCode":"72793","locality":"Pfullingen","municipality":{"key":"08415059","name":"Pfullingen, Stadt","type":"Stadt"},"district":{"key":"08415","name":"Reutlingen","type":"Landkreis"},"federalState":{"key":"08","name":"Baden-Württemberg"}},{"name":"Im Entensee","postalCode":"72793","locality":"Pfullingen","municipality":{"key":"08415059","name":"Pfullingen, Stadt","type":"Stadt"},"district":{"key":"08415","name":"Reutlingen","type":"Landkreis"},"federalState":{"key":"08","name":"Baden-Württemberg"}},{"name":"Im Gansbrunnen","postalCode":"72793","locality":"Pfullingen","municipality":{"key":"08415059","name":"Pfullingen, Stadt","type":"Stadt"},"district":{"key":"08415","name":"Reutlingen","type":"Landkreis"},"federalState":{"key":"08","name":"Baden-Württemberg"}},{"name":"Im Käppele","postalCode":"72793","locality":"Pfullingen","municipality":{"key":"08415059","name":"Pfullingen, Stadt","type":"Stadt"},"district":{"key":"08415","name":"Reutlingen","type":"Landkreis"},"federalState":{"key":"08","name":"Baden-Württemberg"}},{"name":"Im Katzenbol","postalCode":"72793","locality":"Pfullingen","municipality":{"key":"08415059","name":"Pfullingen, Stadt","type":"Stadt"},"district":{"key":"08415","name":"Reutlingen","type":"Landkreis"},"federalState":{"key":"08","name":"Baden-Württemberg"}},{"name":"Im Kromerle","postalCode":"72793","locality":"Pfullingen","municipality":{"key":"08415059","name":"Pfullingen, Stadt","type":"Stadt"},"district":{"key":"08415","name":"Reutlingen","type":"Landkreis"},"federalState":{"key":"08","name":"Baden-Württemberg"}},{"name":"Im Kühnenbach","postalCode":"72793","locality":"Pfullingen","municipality":{"key":"08415059","name":"Pfullingen, Stadt","type":"Stadt"},"district":{"key":"08415","name":"Reutlingen","type":"Landkreis"},"federalState":{"key":"08","name":"Baden-Württemberg"}},{"name":"Immenbergweg","postalCode":"72793","locality":"Pfullingen","municipality":{"key":"08415059","name":"Pfullingen, Stadt","type":"Stadt"},"district":{"key":"08415","name":"Reutlingen","type":"Landkreis"},"federalState":{"key":"08","name":"Baden-Württemberg"}},{"name":"Jägerbergweg","postalCode":"72793","locality":"Pfullingen","municipality":{"key":"08415059","name":"Pfullingen, Stadt","type":"Stadt"},"district":{"key":"08415","name":"Reutlingen","type":"Landkreis"},"federalState":{"key":"08","name":"Baden-Württemberg"}},{"name":"Jahnstr.","postalCode":"72793","locality":"Pfullingen","municipality":{"key":"08415059","name":"Pfullingen, Stadt","type":"Stadt"},"district":{"key":"08415","name":"Reutlingen","type":"Landkreis"},"federalState":{"key":"08","name":"Baden-Württemberg"}},{"name":"Johannesstr.","postalCode":"72793","locality":"Pfullingen","municipality":{"key":"08415059","name":"Pfullingen, Stadt","type":"Stadt"},"district":{"key":"08415","name":"Reutlingen","type":"Landkreis"},"federalState":{"key":"08","name":"Baden-Württemberg"}},{"name":"Josefstr.","postalCode":"72793","locality":"Pfullingen","municipality":{"key":"08415059","name":"Pfullingen, Stadt","type":"Stadt"},"district":{"key":"08415","name":"Reutlingen","type":"Landkreis"},"federalState":{"key":"08","name":"Baden-Württemberg"}},{"name":"Kaiserstr.","postalCode":"72793","locality":"Pfullingen","municipality":{"key":"08415059","name":"Pfullingen, Stadt","type":"Stadt"},"district":{"key":"08415","name":"Reutlingen","type":"Landkreis"},"federalState":{"key":"08","name":"Baden-Württemberg"}},{"name":"Kaltenbronnenweg","postalCode":"72793","locality":"Pfullingen","municipality":{"key":"08415059","name":"Pfullingen, Stadt","type":"Stadt"},"district":{"key":"08415","name":"Reutlingen","type":"Landkreis"},"federalState":{"key":"08","name":"Baden-Württemberg"}},{"name":"Kantweg","postalCode":"72793","locality":"Pfullingen","municipality":{"key":"08415059","name":"Pfullingen, Stadt","type":"Stadt"},"district":{"key":"08415","name":"Reutlingen","type":"Landkreis"},"federalState":{"key":"08","name":"Baden-Württemberg"}},{"name":"Karl-Kuppinger-Str.","postalCode":"72793","locality":"Pfullingen","municipality":{"key":"08415059","name":"Pfullingen, Stadt","type":"Stadt"},"district":{"key":"08415","name":"Reutlingen","type":"Landkreis"},"federalState":{"key":"08","name":"Baden-Württemberg"}},{"name":"Karlshöhe","postalCode":"72793","locality":"Pfullingen","municipality":{"key":"08415059","name":"Pfullingen, Stadt","type":"Stadt"},"district":{"key":"08415","name":"Reutlingen","type":"Landkreis"},"federalState":{"key":"08","name":"Baden-Württemberg"}},{"name":"Karlstr.","postalCode":"72793","locality":"Pfullingen","municipality":{"key":"08415059","name":"Pfullingen, Stadt","type":"Stadt"},"district":{"key":"08415","name":"Reutlingen","type":"Landkreis"},"federalState":{"key":"08","name":"Baden-Württemberg"}},{"name":"Karl-von-Drais-Str.","postalCode":"72793","locality":"Pfullingen","municipality":{"key":"08415059","name":"Pfullingen, Stadt","type":"Stadt"},"district":{"key":"08415","name":"Reutlingen","type":"Landkreis"},"federalState":{"key":"08","name":"Baden-Württemberg"}},{"name":"Katzenbolsteigle","postalCode":"72793","locality":"Pfullingen","municipality":{"key":"08415059","name":"Pfullingen, Stadt","type":"Stadt"},"district":{"key":"08415","name":"Reutlingen","type":"Landkreis"},"federalState":{"key":"08","name":"Baden-Württemberg"}},{"name":"Kernerstr.","postalCode":"72793","locality":"Pfullingen","municipality":{"key":"08415059","name":"Pfullingen, Stadt","type":"Stadt"},"district":{"key":"08415","name":"Reutlingen","type":"Landkreis"},"federalState":{"key":"08","name":"Baden-Württemberg"}},{"name":"Kiessteige","postalCode":"72793","locality":"Pfullingen","municipality":{"key":"08415059","name":"Pfullingen, Stadt","type":"Stadt"},"district":{"key":"08415","name":"Reutlingen","type":"Landkreis"},"federalState":{"key":"08","name":"Baden-Württemberg"}},{"name":"Kirchstr.","postalCode":"72793","locality":"Pfullingen","municipality":{"key":"08415059","name":"Pfullingen, Stadt","type":"Stadt"},"district":{"key":"08415","name":"Reutlingen","type":"Landkreis"},"federalState":{"key":"08","name":"Baden-Württemberg"}},{"name":"Kleine Ziegelstr.","postalCode":"72793","locality":"Pfullingen","municipality":{"key":"08415059","name":"Pfullingen, Stadt","type":"Stadt"},"district":{"key":"08415","name":"Reutlingen","type":"Landkreis"},"federalState":{"key":"08","name":"Baden-Württemberg"}},{"name":"Klemmenstr.","postalCode":"72793","locality":"Pfullingen","municipality":{"key":"08415059","name":"Pfullingen, Stadt","type":"Stadt"},"district":{"key":"08415","name":"Reutlingen","type":"Landkreis"},"federalState":{"key":"08","name":"Baden-Württemberg"}},{"name":"Klosterstr.","postalCode":"72793","locality":"Pfullingen","municipality":{"key":"08415059","name":"Pfullingen, Stadt","type":"Stadt"},"district":{"key":"08415","name":"Reutlingen","type":"Landkreis"},"federalState":{"key":"08","name":"Baden-Württemberg"}},{"name":"Kraußstr.","postalCode":"72793","locality":"Pfullingen","municipality":{"key":"08415059","name":"Pfullingen, Stadt","type":"Stadt"},"district":{"key":"08415","name":"Reutlingen","type":"Landkreis"},"federalState":{"key":"08","name":"Baden-Württemberg"}},{"name":"Krumme Str.","postalCode":"72793","locality":"Pfullingen","municipality":{"key":"08415059","name":"Pfullingen, Stadt","type":"Stadt"},"district":{"key":"08415","name":"Reutlingen","type":"Landkreis"},"federalState":{"key":"08","name":"Baden-Württemberg"}},{"name":"Küchensteige","postalCode":"72793","locality":"Pfullingen","municipality":{"key":"08415059","name":"Pfullingen, Stadt","type":"Stadt"},"district":{"key":"08415","name":"Reutlingen","type":"Landkreis"},"federalState":{"key":"08","name":"Baden-Württemberg"}},{"name":"Kugelbergweg","postalCode":"72793","locality":"Pfullingen","municipality":{"key":"08415059","name":"Pfullingen, Stadt","type":"Stadt"},"district":{"key":"08415","name":"Reutlingen","type":"Landkreis"},"federalState":{"key":"08","name":"Baden-Württemberg"}},{"name":"Kühnenbachweg","postalCode":"72793","locality":"Pfullingen","municipality":{"key":"08415059","name":"Pfullingen, Stadt","type":"Stadt"},"district":{"key":"08415","name":"Reutlingen","type":"Landkreis"},"federalState":{"key":"08","name":"Baden-Württemberg"}},{"name":"Kunstmühlestr.","postalCode":"72793","locality":"Pfullingen","municipality":{"key":"08415059","name":"Pfullingen, Stadt","type":"Stadt"},"district":{"key":"08415","name":"Reutlingen","type":"Landkreis"},"federalState":{"key":"08","name":"Baden-Württemberg"}},{"name":"Kurze Str.","postalCode":"72793","locality":"Pfullingen","municipality":{"key":"08415059","name":"Pfullingen, Stadt","type":"Stadt"},"district":{"key":"08415","name":"Reutlingen","type":"Landkreis"},"federalState":{"key":"08","name":"Baden-Württemberg"}},{"name":"Laiblinspark","postalCode":"72793","locality":"Pfullingen","municipality":{"key":"08415059","name":"Pfullingen, Stadt","type":"Stadt"},"district":{"key":"08415","name":"Reutlingen","type":"Landkreis"},"federalState":{"key":"08","name":"Baden-Württemberg"}},{"name":"Laiblinsplatz","postalCode":"72793","locality":"Pfullingen","municipality":{"key":"08415059","name":"Pfullingen, Stadt","type":"Stadt"},"district":{"key":"08415","name":"Reutlingen","type":"Landkreis"},"federalState":{"key":"08","name":"Baden-Württemberg"}},{"name":"Leonhardstr.","postalCode":"72793","locality":"Pfullingen","municipality":{"key":"08415059","name":"Pfullingen, Stadt","type":"Stadt"},"district":{"key":"08415","name":"Reutlingen","type":"Landkreis"},"federalState":{"key":"08","name":"Baden-Württemberg"}},{"name":"Lerchenstr.","postalCode":"72793","locality":"Pfullingen","municipality":{"key":"08415059","name":"Pfullingen, Stadt","type":"Stadt"},"district":{"key":"08415","name":"Reutlingen","type":"Landkreis"},"federalState":{"key":"08","name":"Baden-Württemberg"}},{"name":"Lindachstr.","postalCode":"72793","locality":"Pfullingen","municipality":{"key":"08415059","name":"Pfullingen, Stadt","type":"Stadt"},"district":{"key":"08415","name":"Reutlingen","type":"Landkreis"},"federalState":{"key":"08","name":"Baden-Württemberg"}},{"name":"Lindenplatz","postalCode":"72793","locality":"Pfullingen","municipality":{"key":"08415059","name":"Pfullingen, Stadt","type":"Stadt"},"district":{"key":"08415","name":"Reutlingen","type":"Landkreis"},"federalState":{"key":"08","name":"Baden-Württemberg"}},{"name":"Lindenstr.","postalCode":"72793","locality":"Pfullingen","municipality":{"key":"08415059","name":"Pfullingen, Stadt","type":"Stadt"},"district":{"key":"08415","name":"Reutlingen","type":"Landkreis"},"federalState":{"key":"08","name":"Baden-Württemberg"}},{"name":"Liststr.","postalCode":"72793","locality":"Pfullingen","municipality":{"key":"08415059","name":"Pfullingen, Stadt","type":"Stadt"},"district":{"key":"08415","name":"Reutlingen","type":"Landkreis"},"federalState":{"key":"08","name":"Baden-Württemberg"}},{"name":"Louis-Laiblin-Weg","postalCode":"72793","locality":"Pfullingen","municipality":{"key":"08415059","name":"Pfullingen, Stadt","type":"Stadt"},"district":{"key":"08415","name":"Reutlingen","type":"Landkreis"},"federalState":{"key":"08","name":"Baden-Württemberg"}},{"name":"Ludwigstr.","postalCode":"72793","locality":"Pfullingen","municipality":{"key":"08415059","name":"Pfullingen, Stadt","type":"Stadt"},"district":{"key":"08415","name":"Reutlingen","type":"Landkreis"},"federalState":{"key":"08","name":"Baden-Württemberg"}},{"name":"Lutherstr.","postalCode":"72793","locality":"Pfullingen","municipality":{"key":"08415059","name":"Pfullingen, Stadt","type":"Stadt"},"district":{"key":"08415","name":"Reutlingen","type":"Landkreis"},"federalState":{"key":"08","name":"Baden-Württemberg"}},{"name":"Maiers Gewand","postalCode":"72793","locality":"Pfullingen","municipality":{"key":"08415059","name":"Pfullingen, Stadt","type":"Stadt"},"district":{"key":"08415","name":"Reutlingen","type":"Landkreis"},"federalState":{"key":"08","name":"Baden-Württemberg"}},{"name":"Marktplatz","postalCode":"72793","locality":"Pfullingen","municipality":{"key":"08415059","name":"Pfullingen, Stadt","type":"Stadt"},"district":{"key":"08415","name":"Reutlingen","type":"Landkreis"},"federalState":{"key":"08","name":"Baden-Württemberg"}},{"name":"Marktstr.","postalCode":"72793","locality":"Pfullingen","municipality":{"key":"08415059","name":"Pfullingen, Stadt","type":"Stadt"},"district":{"key":"08415","name":"Reutlingen","type":"Landkreis"},"federalState":{"key":"08","name":"Baden-Württemberg"}},{"name":"Maustäle","postalCode":"72793","locality":"Pfullingen","municipality":{"key":"08415059","name":"Pfullingen, Stadt","type":"Stadt"},"district":{"key":"08415","name":"Reutlingen","type":"Landkreis"},"federalState":{"key":"08","name":"Baden-Württemberg"}},{"name":"Maustalsträßchen","postalCode":"72793","locality":"Pfullingen","municipality":{"key":"08415059","name":"Pfullingen, Stadt","type":"Stadt"},"district":{"key":"08415","name":"Reutlingen","type":"Landkreis"},"federalState":{"key":"08","name":"Baden-Württemberg"}},{"name":"Max-Eyth-Str.","postalCode":"72793","locality":"Pfullingen","municipality":{"key":"08415059","name":"Pfullingen, Stadt","type":"Stadt"},"district":{"key":"08415","name":"Reutlingen","type":"Landkreis"},"federalState":{"key":"08","name":"Baden-Württemberg"}},{"name":"Meisenweg","postalCode":"72793","locality":"Pfullingen","municipality":{"key":"08415059","name":"Pfullingen, Stadt","type":"Stadt"},"district":{"key":"08415","name":"Reutlingen","type":"Landkreis"},"federalState":{"key":"08","name":"Baden-Württemberg"}},{"name":"Memmelers Wiese","postalCode":"72793","locality":"Pfullingen","municipality":{"key":"08415059","name":"Pfullingen, Stadt","type":"Stadt"},"district":{"key":"08415","name":"Reutlingen","type":"Landkreis"},"federalState":{"key":"08","name":"Baden-Württemberg"}},{"name":"Mittlerer Hulbenweg","postalCode":"72793","locality":"Pfullingen","municipality":{"key":"08415059","name":"Pfullingen, Stadt","type":"Stadt"},"district":{"key":"08415","name":"Reutlingen","type":"Landkreis"},"federalState":{"key":"08","name":"Baden-Württemberg"}},{"name":"Moltkestr.","postalCode":"72793","locality":"Pfullingen","municipality":{"key":"08415059","name":"Pfullingen, Stadt","type":"Stadt"},"district":{"key":"08415","name":"Reutlingen","type":"Landkreis"},"federalState":{"key":"08","name":"Baden-Württemberg"}},{"name":"Mörikestr.","postalCode":"72793","locality":"Pfullingen","municipality":{"key":"08415059","name":"Pfullingen, Stadt","type":"Stadt"},"district":{"key":"08415","name":"Reutlingen","type":"Landkreis"},"federalState":{"key":"08","name":"Baden-Württemberg"}},{"name":"Mozartstr.","postalCode":"72793","locality":"Pfullingen","municipality":{"key":"08415059","name":"Pfullingen, Stadt","type":"Stadt"},"district":{"key":"08415","name":"Reutlingen","type":"Landkreis"},"federalState":{"key":"08","name":"Baden-Württemberg"}},{"name":"Mühlstr.","postalCode":"72793","locality":"Pfullingen","municipality":{"key":"08415059","name":"Pfullingen, Stadt","type":"Stadt"},"district":{"key":"08415","name":"Reutlingen","type":"Landkreis"},"federalState":{"key":"08","name":"Baden-Württemberg"}},{"name":"Nägelesäcker","postalCode":"72770","locality":"Reutlingen","municipality":{"key":"08415061","name":"Reutlingen, Stadt","type":"Große_Kreisstadt"},"district":{"key":"08415","name":"Reutlingen","type":"Landkreis"},"federalState":{"key":"08","name":"Baden-Württemberg"}},{"name":"Nägelestr.","postalCode":"72770","locality":"Reutlingen","municipality":{"key":"08415061","name":"Reutlingen, Stadt","type":"Große_Kreisstadt"},"district":{"key":"08415","name":"Reutlingen","type":"Landkreis"},"federalState":{"key":"08","name":"Baden-Württemberg"}},{"name":"Nahestr.","postalCode":"72768","locality":"Reutlingen","municipality":{"key":"08415061","name":"Reutlingen, Stadt","type":"Große_Kreisstadt"},"district":{"key":"08415","name":"Reutlingen","type":"Landkreis"},"federalState":{"key":"08","name":"Baden-Württemberg"}},{"name":"Narzissenweg","postalCode":"72770","locality":"Reutlingen","municipality":{"key":"08415061","name":"Reutlingen, Stadt","type":"Große_Kreisstadt"},"district":{"key":"08415","name":"Reutlingen","type":"Landkreis"},"federalState":{"key":"08","name":"Baden-Württemberg"}},{"name":"Neckarstr.","postalCode":"72768","locality":"Reutlingen","municipality":{"key":"08415061","name":"Reutlingen, Stadt","type":"Große_Kreisstadt"},"district":{"key":"08415","name":"Reutlingen","type":"Landkreis"},"federalState":{"key":"08","name":"Baden-Württemberg"}},{"name":"Neckartal-Radweg","postalCode":"72768","locality":"Reutlingen","municipality":{"key":"08415061","name":"Reutlingen, Stadt","type":"Große_Kreisstadt"},"district":{"key":"08415","name":"Reutlingen","type":"Landkreis"},"federalState":{"key":"08","name":"Baden-Württemberg"}},{"name":"Neckartalstr.","postalCode":"72768","locality":"Reutlingen","municipality":{"key":"08415061","name":"Reutlingen, Stadt","type":"Große_Kreisstadt"},"district":{"key":"08415","name":"Reutlingen","type":"Landkreis"},"federalState":{"key":"08","name":"Baden-Württemberg"}},{"name":"Neckartenzlinger Str.","postalCode":"72766","locality":"Reutlingen","municipality":{"key":"08415061","name":"Reutlingen, Stadt","type":"Große_Kreisstadt"},"district":{"key":"08415","name":"Reutlingen","type":"Landkreis"},"federalState":{"key":"08","name":"Baden-Württemberg"}},{"name":"Negelerstr.","postalCode":"72762","locality":"Reutlingen","municipality":{"key":"08415061","name":"Reutlingen, Stadt","type":"Große_Kreisstadt"},"district":{"key":"08415","name":"Reutlingen","type":"Landkreis"},"federalState":{"key":"08","name":"Baden-Württemberg"}},{"name":"Nelkenstr.","postalCode":"72764","locality":"Reutlingen","municipality":{"key":"08415061","name":"Reutlingen, Stadt","type":"Große_Kreisstadt"},"district":{"key":"08415","name":"Reutlingen","type":"Landkreis"},"federalState":{"key":"08","name":"Baden-Württemberg"}},{"name":"Nerzweg","postalCode":"72768","locality":"Reutlingen","municipality":{"key":"08415061","name":"Reutlingen, Stadt","type":"Große_Kreisstadt"},"district":{"key":"08415","name":"Reutlingen","type":"Landkreis"},"federalState":{"key":"08","name":"Baden-Württemberg"}},{"name":"Neue Str.","postalCode":"72770","locality":"Reutlingen","municipality":{"key":"08415061","name":"Reutlingen, Stadt","type":"Große_Kreisstadt"},"district":{"key":"08415","name":"Reutlingen","type":"Landkreis"},"federalState":{"key":"08","name":"Baden-Württemberg"}},{"name":"Neuffenweg","postalCode":"72766","locality":"Reutlingen","municipality":{"key":"08415061","name":"Reutlingen, Stadt","type":"Große_Kreisstadt"},"district":{"key":"08415","name":"Reutlingen","type":"Landkreis"},"federalState":{"key":"08","name":"Baden-Württemberg"}},{"name":"Nibelungenstr.","postalCode":"72768","locality":"Reutlingen","municipality":{"key":"08415061","name":"Reutlingen, Stadt","type":"Große_Kreisstadt"},"district":{"key":"08415","name":"Reutlingen","type":"Landkreis"},"federalState":{"key":"08","name":"Baden-Württemberg"}},{"name":"Nikolausstr.","postalCode":"72768","locality":"Reutlingen","municipality":{"key":"08415061","name":"Reutlingen, Stadt","type":"Große_Kreisstadt"},"district":{"key":"08415","name":"Reutlingen","type":"Landkreis"},"federalState":{"key":"08","name":"Baden-Württemberg"}},{"name":"Nonnenwasenstr.","postalCode":"72766","locality":"Reutlingen","municipality":{"key":"08415061","name":"Reutlingen, Stadt","type":"Große_Kreisstadt"},"district":{"key":"08415","name":"Reutlingen","type":"Landkreis"},"federalState":{"key":"08","name":"Baden-Württemberg"}},{"name":"Nördlinger Str.","postalCode":"72760","locality":"Reutlingen","municipality":{"key":"08415061","name":"Reutlingen, Stadt","type":"Große_Kreisstadt"},"district":{"key":"08415","name":"Reutlingen","type":"Landkreis"},"federalState":{"key":"08","name":"Baden-Württemberg"}},{"name":"Novalisweg","postalCode":"72770","locality":"Reutlingen","municipality":{"key":"08415061","name":"Reutlingen, Stadt","type":"Große_Kreisstadt"},"district":{"key":"08415","name":"Reutlingen","type":"Landkreis"},"federalState":{"key":"08","name":"Baden-Württemberg"}},{"name":"Nürnberger Str.","postalCode":"72760","locality":"Reutlingen","municipality":{"key":"08415061","name":"Reutlingen, Stadt","type":"Große_Kreisstadt"},"district":{"key":"08415","name":"Reutlingen","type":"Landkreis"},"federalState":{"key":"08","name":"Baden-Württemberg"}},{"name":"Nürtingerhofstr.","postalCode":"72764","locality":"Reutlingen","municipality":{"key":"08415061","name":"Reutlingen, Stadt","type":"Große_Kreisstadt"},"district":{"key":"08415","name":"Reutlingen","type":"Landkreis"},"federalState":{"key":"08","name":"Baden-Württemberg"}},{"name":"Obere Seiten","postalCode":"72793","locality":"Pfullingen","municipality":{"key":"08415059","name":"Pfullingen, Stadt","type":"Stadt"},"district":{"key":"08415","name":"Reutlingen","type":"Landkreis"},"federalState":{"key":"08","name":"Baden-Württemberg"}},{"name":"Oberhaldenweg","postalCode":"72793","locality":"Pfullingen","municipality":{"key":"08415059","name":"Pfullingen, Stadt","type":"Stadt"},"district":{"key":"08415","name":"Reutlingen","type":"Landkreis"},"federalState":{"key":"08","name":"Baden-Württemberg"}},{"name":"Ochsensteige","postalCode":"72793","locality":"Pfullingen","municipality":{"key":"08415059","name":"Pfullingen, Stadt","type":"Stadt"},"district":{"key":"08415","name":"Reutlingen","type":"Landkreis"},"federalState":{"key":"08","name":"Baden-Württemberg"}},{"name":"Ottostr.","postalCode":"72793","locality":"Pfullingen","municipality":{"key":"08415059","name":"Pfullingen, Stadt","type":"Stadt"},"district":{"key":"08415","name":"Reutlingen","type":"Landkreis"},"federalState":{"key":"08","name":"Baden-Württemberg"}},{"name":"Panoramastr.","postalCode":"72793","locality":"Pfullingen","municipality":{"key":"08415059","name":"Pfullingen, Stadt","type":"Stadt"},"district":{"key":"08415","name":"Reutlingen","type":"Landkreis"},"federalState":{"key":"08","name":"Baden-Württemberg"}},{"name":"Parkplatz Wanne","postalCode":"72793","locality":"Pfullingen","municipality":{"key":"08415059","name":"Pfullingen, Stadt","type":"Stadt"},"district":{"key":"08415","name":"Reutlingen","type":"Landkreis"},"federalState":{"key":"08","name":"Baden-Württemberg"}},{"name":"Quellenstr.","postalCode":"72770","locality":"Reutlingen","municipality":{"key":"08415061","name":"Reutlingen, Stadt","type":"Große_Kreisstadt"},"district":{"key":"08415","name":"Reutlingen","type":"Landkreis"},"federalState":{"key":"08","name":"Baden-Württemberg"}},{"name":"Rebenweg","postalCode":"72793","locality":"Pfullingen","municipality":{"key":"08415059","name":"Pfullingen, Stadt","type":"Stadt"},"district":{"key":"08415","name":"Reutlingen","type":"Landkreis"},"federalState":{"key":"08","name":"Baden-Württemberg"}},{"name":"Rempenholzweg","postalCode":"72793","locality":"Pfullingen","municipality":{"key":"08415059","name":"Pfullingen, Stadt","type":"Stadt"},"district":{"key":"08415","name":"Reutlingen","type":"Landkreis"},"federalState":{"key":"08","name":"Baden-Württemberg"}},{"name":"Richard-Silber-Str.","postalCode":"72793","locality":"Pfullingen","municipality":{"key":"08415059","name":"Pfullingen, Stadt","type":"Stadt"},"district":{"key":"08415","name":"Reutlingen","type":"Landkreis"},"federalState":{"key":"08","name":"Baden-Württemberg"}},{"name":"Robert-Bosch-Str.","postalCode":"72793","locality":"Pfullingen","municipality":{"key":"08415059","name":"Pfullingen, Stadt","type":"Stadt"},"district":{"key":"08415","name":"Reutlingen","type":"Landkreis"},"federalState":{"key":"08","name":"Baden-Württemberg"}},{"name":"Römerstr.","postalCode":"72793","locality":"Pfullingen","municipality":{"key":"08415059","name":"Pfullingen, Stadt","type":"Stadt"},"district":{"key":"08415","name":"Reutlingen","type":"Landkreis"},"federalState":{"key":"08","name":"Baden-Württemberg"}},{"name":"Rosenstr.","postalCode":"72793","locality":"Pfullingen","municipality":{"key":"08415059","name":"Pfullingen, Stadt","type":"Stadt"},"district":{"key":"08415","name":"Reutlingen","type":"Landkreis"},"federalState":{"key":"08","name":"Baden-Württemberg"}},{"name":"Roßbergweg","postalCode":"72793","locality":"Pfullingen","municipality":{"key":"08415059","name":"Pfullingen, Stadt","type":"Stadt"},"district":{"key":"08415","name":"Reutlingen","type":"Landkreis"},"federalState":{"key":"08","name":"Baden-Württemberg"}},{"name":"Roßwag","postalCode":"72793","locality":"Pfullingen","municipality":{"key":"08415059","name":"Pfullingen, Stadt","type":"Stadt"},"district":{"key":"08415","name":"Reutlingen","type":"Landkreis"},"federalState":{"key":"08","name":"Baden-Württemberg"}},{"name":"Roßwagstr.","postalCode":"72793","locality":"Pfullingen","municipality":{"key":"08415059","name":"Pfullingen, Stadt","type":"Stadt"},"district":{"key":"08415","name":"Reutlingen","type":"Landkreis"},"federalState":{"key":"08","name":"Baden-Württemberg"}},{"name":"Rötsteige","postalCode":"72793","locality":"Pfullingen","municipality":{"key":"08415059","name":"Pfullingen, Stadt","type":"Stadt"},"district":{"key":"08415","name":"Reutlingen","type":"Landkreis"},"federalState":{"key":"08","name":"Baden-Württemberg"}},{"name":"Sandstr.","postalCode":"72793","locality":"Pfullingen","municipality":{"key":"08415059","name":"Pfullingen, Stadt","type":"Stadt"},"district":{"key":"08415","name":"Reutlingen","type":"Landkreis"},"federalState":{"key":"08","name":"Baden-Württemberg"}},{"name":"Sandwiesenstr.","postalCode":"72793","locality":"Pfullingen","municipality":{"key":"08415059","name":"Pfullingen, Stadt","type":"Stadt"},"district":{"key":"08415","name":"Reutlingen","type":"Landkreis"},"federalState":{"key":"08","name":"Baden-Württemberg"}},{"name":"Sauhagweg","postalCode":"72793","locality":"Pfullingen","municipality":{"key":"08415059","name":"Pfullingen, Stadt","type":"Stadt"},"district":{"key":"08415","name":"Reutlingen","type":"Landkreis"},"federalState":{"key":"08","name":"Baden-Württemberg"}},{"name":"Scheffelweg","postalCode":"72793","locality":"Pfullingen","municipality":{"key":"08415059","name":"Pfullingen, Stadt","type":"Stadt"},"district":{"key":"08415","name":"Reutlingen","type":"Landkreis"},"federalState":{"key":"08","name":"Baden-Württemberg"}},{"name":"Scheibenbergtraufweg","postalCode":"72793","locality":"Pfullingen","municipality":{"key":"08415059","name":"Pfullingen, Stadt","type":"Stadt"},"district":{"key":"08415","name":"Reutlingen","type":"Landkreis"},"federalState":{"key":"08","name":"Baden-Württemberg"}},{"name":"Scheibenbergtraufweg;Alte Stuhlsteige","postalCode":"72793","locality":"Pfullingen","municipality":{"key":"08415059","name":"Pfullingen, Stadt","type":"Stadt"},"district":{"key":"08415","name":"Reutlingen","type":"Landkreis"},"federalState":{"key":"08","name":"Baden-Württemberg"}},{"name":"Scheibenbergweg","postalCode":"72793","locality":"Pfullingen","municipality":{"key":"08415059","name":"Pfullingen, Stadt","type":"Stadt"},"district":{"key":"08415","name":"Reutlingen","type":"Landkreis"},"federalState":{"key":"08","name":"Baden-Württemberg"}},{"name":"Scheibenbergweg;Alte Stuhlsteige","postalCode":"72793","locality":"Pfullingen","municipality":{"key":"08415059","name":"Pfullingen, Stadt","type":"Stadt"},"district":{"key":"08415","name":"Reutlingen","type":"Landkreis"},"federalState":{"key":"08","name":"Baden-Württemberg"}},{"name":"Schillerstr.","postalCode":"72793","locality":"Pfullingen","municipality":{"key":"08415059","name":"Pfullingen, Stadt","type":"Stadt"},"district":{"key":"08415","name":"Reutlingen","type":"Landkreis"},"federalState":{"key":"08","name":"Baden-Württemberg"}},{"name":"Schlayerstr.","postalCode":"72793","locality":"Pfullingen","municipality":{"key":"08415059","name":"Pfullingen, Stadt","type":"Stadt"},"district":{"key":"08415","name":"Reutlingen","type":"Landkreis"},"federalState":{"key":"08","name":"Baden-Württemberg"}},{"name":"Schlehenweg","postalCode":"72793","locality":"Pfullingen","municipality":{"key":"08415059","name":"Pfullingen, Stadt","type":"Stadt"},"district":{"key":"08415","name":"Reutlingen","type":"Landkreis"},"federalState":{"key":"08","name":"Baden-Württemberg"}},{"name":"Schloßgartenstr.","postalCode":"72793","locality":"Pfullingen","municipality":{"key":"08415059","name":"Pfullingen, Stadt","type":"Stadt"},"district":{"key":"08415","name":"Reutlingen","type":"Landkreis"},"federalState":{"key":"08","name":"Baden-Württemberg"}},{"name":"Schlösslespark","postalCode":"72793","locality":"Pfullingen","municipality":{"key":"08415059","name":"Pfullingen, Stadt","type":"Stadt"},"district":{"key":"08415","name":"Reutlingen","type":"Landkreis"},"federalState":{"key":"08","name":"Baden-Württemberg"}},{"name":"Schloßstr.","postalCode":"72793","locality":"Pfullingen","municipality":{"key":"08415059","name":"Pfullingen, Stadt","type":"Stadt"},"district":{"key":"08415","name":"Reutlingen","type":"Landkreis"},"federalState":{"key":"08","name":"Baden-Württemberg"}},{"name":"Schmale Str.","postalCode":"72793","locality":"Pfullingen","municipality":{"key":"08415059","name":"Pfullingen, Stadt","type":"Stadt"},"district":{"key":"08415","name":"Reutlingen","type":"Landkreis"},"federalState":{"key":"08","name":"Baden-Württemberg"}},{"name":"Schönbergstr.","postalCode":"72793","locality":"Pfullingen","municipality":{"key":"08415059","name":"Pfullingen, Stadt","type":"Stadt"},"district":{"key":"08415","name":"Reutlingen","type":"Landkreis"},"federalState":{"key":"08","name":"Baden-Württemberg"}},{"name":"Schubertstr.","postalCode":"72793","locality":"Pfullingen","municipality":{"key":"08415059","name":"Pfullingen, Stadt","type":"Stadt"},"district":{"key":"08415","name":"Reutlingen","type":"Landkreis"},"federalState":{"key":"08","name":"Baden-Württemberg"}},{"name":"Schulstr.","postalCode":"72793","locality":"Pfullingen","municipality":{"key":"08415059","name":"Pfullingen, Stadt","type":"Stadt"},"district":{"key":"08415","name":"Reutlingen","type":"Landkreis"},"federalState":{"key":"08","name":"Baden-Württemberg"}},{"name":"Schützenstr.","postalCode":"72793","locality":"Pfullingen","municipality":{"key":"08415059","name":"Pfullingen, Stadt","type":"Stadt"},"district":{"key":"08415","name":"Reutlingen","type":"Landkreis"},"federalState":{"key":"08","name":"Baden-Württemberg"}},{"name":"Schwabstr.","postalCode":"72793","locality":"Pfullingen","municipality":{"key":"08415059","name":"Pfullingen, Stadt","type":"Stadt"},"district":{"key":"08415","name":"Reutlingen","type":"Landkreis"},"federalState":{"key":"08","name":"Baden-Württemberg"}},{"name":"Schwalbenweg","postalCode":"72793","locality":"Pfullingen","municipality":{"key":"08415059","name":"Pfullingen, Stadt","type":"Stadt"},"district":{"key":"08415","name":"Reutlingen","type":"Landkreis"},"federalState":{"key":"08","name":"Baden-Württemberg"}},{"name":"Seitenhalde","postalCode":"72793","locality":"Pfullingen","municipality":{"key":"08415059","name":"Pfullingen, Stadt","type":"Stadt"},"district":{"key":"08415","name":"Reutlingen","type":"Landkreis"},"federalState":{"key":"08","name":"Baden-Württemberg"}},{"name":"Seitenstr.","postalCode":"72793","locality":"Pfullingen","municipality":{"key":"08415059","name":"Pfullingen, Stadt","type":"Stadt"},"district":{"key":"08415","name":"Reutlingen","type":"Landkreis"},"federalState":{"key":"08","name":"Baden-Württemberg"}},{"name":"Siemensstr.","postalCode":"72793","locality":"Pfullingen","municipality":{"key":"08415059","name":"Pfullingen, Stadt","type":"Stadt"},"district":{"key":"08415","name":"Reutlingen","type":"Landkreis"},"federalState":{"key":"08","name":"Baden-Württemberg"}},{"name":"Silcherstr.","postalCode":"72793","locality":"Pfullingen","municipality":{"key":"08415059","name":"Pfullingen, Stadt","type":"Stadt"},"district":{"key":"08415","name":"Reutlingen","type":"Landkreis"},"federalState":{"key":"08","name":"Baden-Württemberg"}},{"name":"Spielbachweg","postalCode":"72793","locality":"Pfullingen","municipality":{"key":"08415059","name":"Pfullingen, Stadt","type":"Stadt"},"district":{"key":"08415","name":"Reutlingen","type":"Landkreis"},"federalState":{"key":"08","name":"Baden-Württemberg"}},{"name":"Stadtgarten","postalCode":"72793","locality":"Pfullingen","municipality":{"key":"08415059","name":"Pfullingen, Stadt","type":"Stadt"},"district":{"key":"08415","name":"Reutlingen","type":"Landkreis"},"federalState":{"key":"08","name":"Baden-Württemberg"}},{"name":"Starenweg","postalCode":"72793","locality":"Pfullingen","municipality":{"key":"08415059","name":"Pfullingen, Stadt","type":"Stadt"},"district":{"key":"08415","name":"Reutlingen","type":"Landkreis"},"federalState":{"key":"08","name":"Baden-Württemberg"}},{"name":"Steinenbolstr.","postalCode":"72793","locality":"Pfullingen","municipality":{"key":"08415059","name":"Pfullingen, Stadt","type":"Stadt"},"district":{"key":"08415","name":"Reutlingen","type":"Landkreis"},"federalState":{"key":"08","name":"Baden-Württemberg"}},{"name":"Stellenbuckelweg","postalCode":"72793","locality":"Pfullingen","municipality":{"key":"08415059","name":"Pfullingen, Stadt","type":"Stadt"},"district":{"key":"08415","name":"Reutlingen","type":"Landkreis"},"federalState":{"key":"08","name":"Baden-Württemberg"}},{"name":"Stieglitzweg","postalCode":"72793","locality":"Pfullingen","municipality":{"key":"08415059","name":"Pfullingen, Stadt","type":"Stadt"},"district":{"key":"08415","name":"Reutlingen","type":"Landkreis"},"federalState":{"key":"08","name":"Baden-Württemberg"}},{"name":"Stöffelbergweg","postalCode":"72793","locality":"Pfullingen","municipality":{"key":"08415059","name":"Pfullingen, Stadt","type":"Stadt"},"district":{"key":"08415","name":"Reutlingen","type":"Landkreis"},"federalState":{"key":"08","name":"Baden-Württemberg"}},{"name":"Strohweiler Str.","postalCode":"72793","locality":"Pfullingen","municipality":{"key":"08415059","name":"Pfullingen, Stadt","type":"Stadt"},"district":{"key":"08415","name":"Reutlingen","type":"Landkreis"},"federalState":{"key":"08","name":"Baden-Württemberg"}},{"name":"Stuhlsteige","postalCode":"72793","locality":"Pfullingen","municipality":{"key":"08415059","name":"Pfullingen, Stadt","type":"Stadt"},"district":{"key":"08415","name":"Reutlingen","type":"Landkreis"},"federalState":{"key":"08","name":"Baden-Württemberg"}},{"name":"Talackerstr.","postalCode":"72793","locality":"Pfullingen","municipality":{"key":"08415059","name":"Pfullingen, Stadt","type":"Stadt"},"district":{"key":"08415","name":"Reutlingen","type":"Landkreis"},"federalState":{"key":"08","name":"Baden-Württemberg"}},{"name":"Theodor-Fischer-Str.","postalCode":"72793","locality":"Pfullingen","municipality":{"key":"08415059","name":"Pfullingen, Stadt","type":"Stadt"},"district":{"key":"08415","name":"Reutlingen","type":"Landkreis"},"federalState":{"key":"08","name":"Baden-Württemberg"}},{"name":"Traubenstr.","postalCode":"72793","locality":"Pfullingen","municipality":{"key":"08415059","name":"Pfullingen, Stadt","type":"Stadt"},"district":{"key":"08415","name":"Reutlingen","type":"Landkreis"},"federalState":{"key":"08","name":"Baden-Württemberg"}},{"name":"Uhlandstr.","postalCode":"72793","locality":"Pfullingen","municipality":{"key":"08415059","name":"Pfullingen, Stadt","type":"Stadt"},"district":{"key":"08415","name":"Reutlingen","type":"Landkreis"},"federalState":{"key":"08","name":"Baden-Württemberg"}},{"name":"Ulrichstr.","postalCode":"72793","locality":"Pfullingen","municipality":{"key":"08415059","name":"Pfullingen, Stadt","type":"Stadt"},"district":{"key":"08415","name":"Reutlingen","type":"Landkreis"},"federalState":{"key":"08","name":"Baden-Württemberg"}},{"name":"Unter den Wegen","postalCode":"72793","locality":"Pfullingen","municipality":{"key":"08415059","name":"Pfullingen, Stadt","type":"Stadt"},"district":{"key":"08415","name":"Reutlingen","type":"Landkreis"},"federalState":{"key":"08","name":"Baden-Württemberg"}},{"name":"Unterer Hulbenweg","postalCode":"72793","locality":"Pfullingen","municipality":{"key":"08415059","name":"Pfullingen, Stadt","type":"Stadt"},"district":{"key":"08415","name":"Reutlingen","type":"Landkreis"},"federalState":{"key":"08","name":"Baden-Württemberg"}},{"name":"Ursulabergtunnel","postalCode":"72793","locality":"Pfullingen","municipality":{"key":"08415059","name":"Pfullingen, Stadt","type":"Stadt"},"district":{"key":"08415","name":"Reutlingen","type":"Landkreis"},"federalState":{"key":"08","name":"Baden-Württemberg"}},{"name":"Ursulastr.","postalCode":"72793","locality":"Pfullingen","municipality":{"key":"08415059","name":"Pfullingen, Stadt","type":"Stadt"},"district":{"key":"08415","name":"Reutlingen","type":"Landkreis"},"federalState":{"key":"08","name":"Baden-Württemberg"}},{"name":"Vor Buch Weg","postalCode":"72793","locality":"Pfullingen","municipality":{"key":"08415059","name":"Pfullingen, Stadt","type":"Stadt"},"district":{"key":"08415","name":"Reutlingen","type":"Landkreis"},"federalState":{"key":"08","name":"Baden-Württemberg"}},{"name":"Vor dem Ahlsberg","postalCode":"72793","locality":"Pfullingen","municipality":{"key":"08415059","name":"Pfullingen, Stadt","type":"Stadt"},"district":{"key":"08415","name":"Reutlingen","type":"Landkreis"},"federalState":{"key":"08","name":"Baden-Württemberg"}},{"name":"Wacholderweg","postalCode":"72793","locality":"Pfullingen","municipality":{"key":"08415059","name":"Pfullingen, Stadt","type":"Stadt"},"district":{"key":"08415","name":"Reutlingen","type":"Landkreis"},"federalState":{"key":"08","name":"Baden-Württemberg"}},{"name":"Wackersteinsteige","postalCode":"72793","locality":"Pfullingen","municipality":{"key":"08415059","name":"Pfullingen, Stadt","type":"Stadt"},"district":{"key":"08415","name":"Reutlingen","type":"Landkreis"},"federalState":{"key":"08","name":"Baden-Württemberg"}},{"name":"Wackersteinstr.","postalCode":"72793","locality":"Pfullingen","municipality":{"key":"08415059","name":"Pfullingen, Stadt","type":"Stadt"},"district":{"key":"08415","name":"Reutlingen","type":"Landkreis"},"federalState":{"key":"08","name":"Baden-Württemberg"}},{"name":"Wannenweg","postalCode":"72793","locality":"Pfullingen","municipality":{"key":"08415059","name":"Pfullingen, Stadt","type":"Stadt"},"district":{"key":"08415","name":"Reutlingen","type":"Landkreis"},"federalState":{"key":"08","name":"Baden-Württemberg"}},{"name":"Wanneweg","postalCode":"72793","locality":"Pfullingen","municipality":{"key":"08415059","name":"Pfullingen, Stadt","type":"Stadt"},"district":{"key":"08415","name":"Reutlingen","type":"Landkreis"},"federalState":{"key":"08","name":"Baden-Württemberg"}},{"name":"Wasserteich","postalCode":"72793","locality":"Pfullingen","municipality":{"key":"08415059","name":"Pfullingen, Stadt","type":"Stadt"},"district":{"key":"08415","name":"Reutlingen","type":"Landkreis"},"federalState":{"key":"08","name":"Baden-Württemberg"}},{"name":"Weinbergstr.","postalCode":"72793","locality":"Pfullingen","municipality":{"key":"08415059","name":"Pfullingen, Stadt","type":"Stadt"},"district":{"key":"08415","name":"Reutlingen","type":"Landkreis"},"federalState":{"key":"08","name":"Baden-Württemberg"}},{"name":"Wendlerstr.","postalCode":"72793","locality":"Pfullingen","municipality":{"key":"08415059","name":"Pfullingen, Stadt","type":"Stadt"},"district":{"key":"08415","name":"Reutlingen","type":"Landkreis"},"federalState":{"key":"08","name":"Baden-Württemberg"}},{"name":"Wielandstr.","postalCode":"72793","locality":"Pfullingen","municipality":{"key":"08415059","name":"Pfullingen, Stadt","type":"Stadt"},"district":{"key":"08415","name":"Reutlingen","type":"Landkreis"},"federalState":{"key":"08","name":"Baden-Württemberg"}},{"name":"Wilhelm-Blos-Str.","postalCode":"72793","locality":"Pfullingen","municipality":{"key":"08415059","name":"Pfullingen, Stadt","type":"Stadt"},"district":{"key":"08415","name":"Reutlingen","type":"Landkreis"},"federalState":{"key":"08","name":"Baden-Württemberg"}},{"name":"Wilhelm-Koch-Weg","postalCode":"72793","locality":"Pfullingen","municipality":{"key":"08415059","name":"Pfullingen, Stadt","type":"Stadt"},"district":{"key":"08415","name":"Reutlingen","type":"Landkreis"},"federalState":{"key":"08","name":"Baden-Württemberg"}},{"name":"Wilhelmstr.","postalCode":"72793","locality":"Pfullingen","municipality":{"key":"08415059","name":"Pfullingen, Stadt","type":"Stadt"},"district":{"key":"08415","name":"Reutlingen","type":"Landkreis"},"federalState":{"key":"08","name":"Baden-Württemberg"}},{"name":"Wolfgangstr.","postalCode":"72793","locality":"Pfullingen","municipality":{"key":"08415059","name":"Pfullingen, Stadt","type":"Stadt"},"district":{"key":"08415","name":"Reutlingen","type":"Landkreis"},"federalState":{"key":"08","name":"Baden-Württemberg"}},{"name":"Wolfsgrubenweg","postalCode":"72793","locality":"Pfullingen","municipality":{"key":"08415059","name":"Pfullingen, Stadt","type":"Stadt"},"district":{"key":"08415","name":"Reutlingen","type":"Landkreis"},"federalState":{"key":"08","name":"Baden-Württemberg"}},{"name":"Wörthstr.","postalCode":"72793","locality":"Pfullingen","municipality":{"key":"08415059","name":"Pfullingen, Stadt","type":"Stadt"},"district":{"key":"08415","name":"Reutlingen","type":"Landkreis"},"federalState":{"key":"08","name":"Baden-Württemberg"}},{"name":"Zeppelinstr.","postalCode":"72793","locality":"Pfullingen","municipality":{"key":"08415059","name":"Pfullingen, Stadt","type":"Stadt"},"district":{"key":"08415","name":"Reutlingen","type":"Landkreis"},"federalState":{"key":"08","name":"Baden-Württemberg"}},{"name":"Äußere Kelterstr.","postalCode":"72764","locality":"Reutlingen","municipality":{"key":"08415061","name":"Reutlingen, Stadt","type":"Große_Kreisstadt"},"district":{"key":"08415","name":"Reutlingen","type":"Landkreis"},"federalState":{"key":"08","name":"Baden-Württemberg"}},{"name":"Öläckerweg","postalCode":"72770","locality":"Reutlingen","municipality":{"key":"08415061","name":"Reutlingen, Stadt","type":"Große_Kreisstadt"},"district":{"key":"08415","name":"Reutlingen","type":"Landkreis"},"federalState":{"key":"08","name":"Baden-Württemberg"}},{"name":"Öschbergweg","postalCode":"72766","locality":"Reutlingen","municipality":{"key":"08415061","name":"Reutlingen, Stadt","type":"Große_Kreisstadt"},"district":{"key":"08415","name":"Reutlingen","type":"Landkreis"},"federalState":{"key":"08","name":"Baden-Württemberg"}},{"name":"Öschinger Str.","postalCode":"72770","locality":"Reutlingen","municipality":{"key":"08415061","name":"Reutlingen, Stadt","type":"Große_Kreisstadt"},"district":{"key":"08415","name":"Reutlingen","type":"Landkreis"},"federalState":{"key":"08","name":"Baden-Württemberg"}},{"name":"Über den Halden","postalCode":"72768","locality":"Reutlingen","municipality":{"key":"08415061","name":"Reutlingen, Stadt","type":"Große_Kreisstadt"},"district":{"key":"08415","name":"Reutlingen","type":"Landkreis"},"federalState":{"key":"08","name":"Baden-Württemberg"}},{"name":"Überm Neckar","postalCode":"72768","locality":"Reutlingen","municipality":{"key":"08415061","name":"Reutlingen, Stadt","type":"Große_Kreisstadt"},"district":{"key":"08415","name":"Reutlingen","type":"Landkreis"},"federalState":{"key":"08","name":"Baden-Württemberg"}},]