[{"name":"Am Anger","postalCode":"86733","locality":"Alerheim","municipality":{"key":"09779111","name":"Alerheim","type":"Kreisangehörige_Gemeinde"},"district":{"key":"09779","name":"Donau-Ries","type":"Landkreis"},"federalState":{"key":"09","name":"Bayern"}},{"name":"Am Bokusbach","postalCode":"86733","locality":"Alerheim","municipality":{"key":"09779111","name":"Alerheim","type":"Kreisangehörige_Gemeinde"},"district":{"key":"09779","name":"Donau-Ries","type":"Landkreis"},"federalState":{"key":"09","name":"Bayern"}},{"name":"Am Gwändle","postalCode":"86733","locality":"Alerheim","municipality":{"key":"09779111","name":"Alerheim","type":"Kreisangehörige_Gemeinde"},"district":{"key":"09779","name":"Donau-Ries","type":"Landkreis"},"federalState":{"key":"09","name":"Bayern"}},{"name":"Am Kirchberg","postalCode":"86733","locality":"Alerheim","municipality":{"key":"09779111","name":"Alerheim","type":"Kreisangehörige_Gemeinde"},"district":{"key":"09779","name":"Donau-Ries","type":"Landkreis"},"federalState":{"key":"09","name":"Bayern"}},{"name":"Am Postweg","postalCode":"86733","locality":"Alerheim","municipality":{"key":"09779111","name":"Alerheim","type":"Kreisangehörige_Gemeinde"},"district":{"key":"09779","name":"Donau-Ries","type":"Landkreis"},"federalState":{"key":"09","name":"Bayern"}},{"name":"Appetshofener Str.","postalCode":"86733","locality":"Alerheim","municipality":{"key":"09779111","name":"Alerheim","type":"Kreisangehörige_Gemeinde"},"district":{"key":"09779","name":"Donau-Ries","type":"Landkreis"},"federalState":{"key":"09","name":"Bayern"}},{"name":"Burgwiese","postalCode":"86733","locality":"Alerheim","municipality":{"key":"09779111","name":"Alerheim","type":"Kreisangehörige_Gemeinde"},"district":{"key":"09779","name":"Donau-Ries","type":"Landkreis"},"federalState":{"key":"09","name":"Bayern"}},{"name":"Dorfstr.","postalCode":"86733","locality":"Alerheim","municipality":{"key":"09779111","name":"Alerheim","type":"Kreisangehörige_Gemeinde"},"district":{"key":"09779","name":"Donau-Ries","type":"Landkreis"},"federalState":{"key":"09","name":"Bayern"}},{"name":"Dr.-Roderius-Str.","postalCode":"86733","locality":"Alerheim","municipality":{"key":"09779111","name":"Alerheim","type":"Kreisangehörige_Gemeinde"},"district":{"key":"09779","name":"Donau-Ries","type":"Landkreis"},"federalState":{"key":"09","name":"Bayern"}},{"name":"Dr.-von-Lips-Str.","postalCode":"86733","locality":"Alerheim","municipality":{"key":"09779111","name":"Alerheim","type":"Kreisangehörige_Gemeinde"},"district":{"key":"09779","name":"Donau-Ries","type":"Landkreis"},"federalState":{"key":"09","name":"Bayern"}},{"name":"Fessenheimer Str.","postalCode":"86733","locality":"Alerheim","municipality":{"key":"09779111","name":"Alerheim","type":"Kreisangehörige_Gemeinde"},"district":{"key":"09779","name":"Donau-Ries","type":"Landkreis"},"federalState":{"key":"09","name":"Bayern"}},{"name":"Flurweg","postalCode":"86733","locality":"Alerheim","municipality":{"key":"09779111","name":"Alerheim","type":"Kreisangehörige_Gemeinde"},"district":{"key":"09779","name":"Donau-Ries","type":"Landkreis"},"federalState":{"key":"09","name":"Bayern"}},{"name":"Hauckstr.","postalCode":"86733","locality":"Alerheim","municipality":{"key":"09779111","name":"Alerheim","type":"Kreisangehörige_Gemeinde"},"district":{"key":"09779","name":"Donau-Ries","type":"Landkreis"},"federalState":{"key":"09","name":"Bayern"}},{"name":"Hauptstr.","postalCode":"86733","locality":"Alerheim","municipality":{"key":"09779111","name":"Alerheim","type":"Kreisangehörige_Gemeinde"},"district":{"key":"09779","name":"Donau-Ries","type":"Landkreis"},"federalState":{"key":"09","name":"Bayern"}},{"name":"Heideweg","postalCode":"86733","locality":"Alerheim","municipality":{"key":"09779111","name":"Alerheim","type":"Kreisangehörige_Gemeinde"},"district":{"key":"09779","name":"Donau-Ries","type":"Landkreis"},"federalState":{"key":"09","name":"Bayern"}},{"name":"Heinrich-Stähle-Str.","postalCode":"86733","locality":"Alerheim","municipality":{"key":"09779111","name":"Alerheim","type":"Kreisangehörige_Gemeinde"},"district":{"key":"09779","name":"Donau-Ries","type":"Landkreis"},"federalState":{"key":"09","name":"Bayern"}},{"name":"Holzgasse","postalCode":"86733","locality":"Alerheim","municipality":{"key":"09779111","name":"Alerheim","type":"Kreisangehörige_Gemeinde"},"district":{"key":"09779","name":"Donau-Ries","type":"Landkreis"},"federalState":{"key":"09","name":"Bayern"}},{"name":"Im Gäßle","postalCode":"86733","locality":"Alerheim","municipality":{"key":"09779111","name":"Alerheim","type":"Kreisangehörige_Gemeinde"},"district":{"key":"09779","name":"Donau-Ries","type":"Landkreis"},"federalState":{"key":"09","name":"Bayern"}},{"name":"Johann-Wilhelm-Klein-Str.","postalCode":"86733","locality":"Alerheim","municipality":{"key":"09779111","name":"Alerheim","type":"Kreisangehörige_Gemeinde"},"district":{"key":"09779","name":"Donau-Ries","type":"Landkreis"},"federalState":{"key":"09","name":"Bayern"}},{"name":"Lange Äcker","postalCode":"86733","locality":"Alerheim","municipality":{"key":"09779111","name":"Alerheim","type":"Kreisangehörige_Gemeinde"},"district":{"key":"09779","name":"Donau-Ries","type":"Landkreis"},"federalState":{"key":"09","name":"Bayern"}},{"name":"Lehengärten","postalCode":"86733","locality":"Alerheim","municipality":{"key":"09779111","name":"Alerheim","type":"Kreisangehörige_Gemeinde"},"district":{"key":"09779","name":"Donau-Ries","type":"Landkreis"},"federalState":{"key":"09","name":"Bayern"}},{"name":"Pfarrer-Karrer-Str.","postalCode":"86733","locality":"Alerheim","municipality":{"key":"09779111","name":"Alerheim","type":"Kreisangehörige_Gemeinde"},"district":{"key":"09779","name":"Donau-Ries","type":"Landkreis"},"federalState":{"key":"09","name":"Bayern"}},{"name":"Pflegweg","postalCode":"86733","locality":"Alerheim","municipality":{"key":"09779111","name":"Alerheim","type":"Kreisangehörige_Gemeinde"},"district":{"key":"09779","name":"Donau-Ries","type":"Landkreis"},"federalState":{"key":"09","name":"Bayern"}},{"name":"Raiffeisenstr.","postalCode":"86733","locality":"Alerheim","municipality":{"key":"09779111","name":"Alerheim","type":"Kreisangehörige_Gemeinde"},"district":{"key":"09779","name":"Donau-Ries","type":"Landkreis"},"federalState":{"key":"09","name":"Bayern"}},{"name":"Ringstr.","postalCode":"86733","locality":"Alerheim","municipality":{"key":"09779111","name":"Alerheim","type":"Kreisangehörige_Gemeinde"},"district":{"key":"09779","name":"Donau-Ries","type":"Landkreis"},"federalState":{"key":"09","name":"Bayern"}},{"name":"Schloss","postalCode":"86733","locality":"Alerheim","municipality":{"key":"09779111","name":"Alerheim","type":"Kreisangehörige_Gemeinde"},"district":{"key":"09779","name":"Donau-Ries","type":"Landkreis"},"federalState":{"key":"09","name":"Bayern"}},{"name":"Schwalbweg","postalCode":"86733","locality":"Alerheim","municipality":{"key":"09779111","name":"Alerheim","type":"Kreisangehörige_Gemeinde"},"district":{"key":"09779","name":"Donau-Ries","type":"Landkreis"},"federalState":{"key":"09","name":"Bayern"}},{"name":"St.-Ulrich-Str.","postalCode":"86733","locality":"Alerheim","municipality":{"key":"09779111","name":"Alerheim","type":"Kreisangehörige_Gemeinde"},"district":{"key":"09779","name":"Donau-Ries","type":"Landkreis"},"federalState":{"key":"09","name":"Bayern"}},{"name":"Von-Mercy-Str.","postalCode":"86733","locality":"Alerheim","municipality":{"key":"09779111","name":"Alerheim","type":"Kreisangehörige_Gemeinde"},"district":{"key":"09779","name":"Donau-Ries","type":"Landkreis"},"federalState":{"key":"09","name":"Bayern"}},]