[{"key":"10150086","name":"Brenzikofenstrasse","postalCode":"3671","locality":"Herbligen","commune":{"key":"610","name":"Herbligen","shortName":"Herbligen"},"district":{"key":"246","name":"Verwaltungskreis Bern-Mittelland"},"canton":{"key":"2","code":"BE","name":"Bern / Berne"},"status":"Real"},{"key":"10060556","name":"Buechegg","postalCode":"3671","locality":"Herbligen","commune":{"key":"610","name":"Herbligen","shortName":"Herbligen"},"district":{"key":"246","name":"Verwaltungskreis Bern-Mittelland"},"canton":{"key":"2","code":"BE","name":"Bern / Berne"},"status":"Real"},{"key":"10075092","name":"Bühlstrasse","postalCode":"3671","locality":"Herbligen","commune":{"key":"610","name":"Herbligen","shortName":"Herbligen"},"district":{"key":"246","name":"Verwaltungskreis Bern-Mittelland"},"canton":{"key":"2","code":"BE","name":"Bern / Berne"},"status":"Real"},{"key":"10006570","name":"Dorfstrasse","postalCode":"3671","locality":"Herbligen","commune":{"key":"610","name":"Herbligen","shortName":"Herbligen"},"district":{"key":"246","name":"Verwaltungskreis Bern-Mittelland"},"canton":{"key":"2","code":"BE","name":"Bern / Berne"},"status":"Real"},{"key":"10058678","name":"Egg","postalCode":"3671","locality":"Herbligen","commune":{"key":"610","name":"Herbligen","shortName":"Herbligen"},"district":{"key":"246","name":"Verwaltungskreis Bern-Mittelland"},"canton":{"key":"2","code":"BE","name":"Bern / Berne"},"status":"Real"},{"key":"10060557","name":"Eichberg","postalCode":"3671","locality":"Herbligen","commune":{"key":"610","name":"Herbligen","shortName":"Herbligen"},"district":{"key":"246","name":"Verwaltungskreis Bern-Mittelland"},"canton":{"key":"2","code":"BE","name":"Bern / Berne"},"status":"Real"},{"key":"10006571","name":"Grube","postalCode":"3671","locality":"Herbligen","commune":{"key":"610","name":"Herbligen","shortName":"Herbligen"},"district":{"key":"246","name":"Verwaltungskreis Bern-Mittelland"},"canton":{"key":"2","code":"BE","name":"Bern / Berne"},"status":"Real"},{"key":"10113756","name":"Haubenstrasse","postalCode":"3671","locality":"Herbligen","commune":{"key":"610","name":"Herbligen","shortName":"Herbligen"},"district":{"key":"246","name":"Verwaltungskreis Bern-Mittelland"},"canton":{"key":"2","code":"BE","name":"Bern / Berne"},"status":"Real"},{"key":"10075093","name":"Hauptstrasse","postalCode":"3671","locality":"Herbligen","commune":{"key":"610","name":"Herbligen","shortName":"Herbligen"},"district":{"key":"246","name":"Verwaltungskreis Bern-Mittelland"},"canton":{"key":"2","code":"BE","name":"Bern / Berne"},"status":"Real"},{"key":"10006572","name":"Hausmatten","postalCode":"3671","locality":"Herbligen","commune":{"key":"610","name":"Herbligen","shortName":"Herbligen"},"district":{"key":"246","name":"Verwaltungskreis Bern-Mittelland"},"canton":{"key":"2","code":"BE","name":"Bern / Berne"},"status":"Real"},{"key":"10006573","name":"Helisbühlstrasse","postalCode":"3671","locality":"Herbligen","commune":{"key":"610","name":"Herbligen","shortName":"Herbligen"},"district":{"key":"246","name":"Verwaltungskreis Bern-Mittelland"},"canton":{"key":"2","code":"BE","name":"Bern / Berne"},"status":"Real"},{"key":"10130445","name":"Hirsern","postalCode":"3671","locality":"Herbligen","commune":{"key":"610","name":"Herbligen","shortName":"Herbligen"},"district":{"key":"246","name":"Verwaltungskreis Bern-Mittelland"},"canton":{"key":"2","code":"BE","name":"Bern / Berne"},"status":"Real"},{"key":"10060559","name":"Hubel","postalCode":"3671","locality":"Herbligen","commune":{"key":"610","name":"Herbligen","shortName":"Herbligen"},"district":{"key":"246","name":"Verwaltungskreis Bern-Mittelland"},"canton":{"key":"2","code":"BE","name":"Bern / Berne"},"status":"Real"},{"key":"10216781","name":"Moos","postalCode":"3671","locality":"Herbligen","commune":{"key":"610","name":"Herbligen","shortName":"Herbligen"},"district":{"key":"246","name":"Verwaltungskreis Bern-Mittelland"},"canton":{"key":"2","code":"BE","name":"Bern / Berne"},"status":"Real"},{"key":"10006574","name":"Rebacker","postalCode":"3671","locality":"Herbligen","commune":{"key":"610","name":"Herbligen","shortName":"Herbligen"},"district":{"key":"246","name":"Verwaltungskreis Bern-Mittelland"},"canton":{"key":"2","code":"BE","name":"Bern / Berne"},"status":"Real"},{"key":"10060560","name":"Sagistrasse","postalCode":"3671","locality":"Herbligen","commune":{"key":"610","name":"Herbligen","shortName":"Herbligen"},"district":{"key":"246","name":"Verwaltungskreis Bern-Mittelland"},"canton":{"key":"2","code":"BE","name":"Bern / Berne"},"status":"Real"},{"key":"10116924","name":"Wydibühlstrasse","postalCode":"3671","locality":"Herbligen","commune":{"key":"610","name":"Herbligen","shortName":"Herbligen"},"district":{"key":"246","name":"Verwaltungskreis Bern-Mittelland"},"canton":{"key":"2","code":"BE","name":"Bern / Berne"},"status":"Real"},{"key":"10110308","name":"Wyhalde","postalCode":"3671","locality":"Herbligen","commune":{"key":"610","name":"Herbligen","shortName":"Herbligen"},"district":{"key":"246","name":"Verwaltungskreis Bern-Mittelland"},"canton":{"key":"2","code":"BE","name":"Bern / Berne"},"status":"Real"},]