[{"name":"Altstr.","postalCode":"55278","locality":"Hahnheim","municipality":{"key":"07339025","name":"Hahnheim","type":"Kreisangehörige_Gemeinde"},"district":{"key":"07339","name":"Mainz-Bingen","type":"Landkreis"},"federalState":{"key":"07","name":"Rheinland-Pfalz"}},{"name":"Am alten Bahnhof","postalCode":"55278","locality":"Hahnheim","municipality":{"key":"07339025","name":"Hahnheim","type":"Kreisangehörige_Gemeinde"},"district":{"key":"07339","name":"Mainz-Bingen","type":"Landkreis"},"federalState":{"key":"07","name":"Rheinland-Pfalz"}},{"name":"Am Angel","postalCode":"55278","locality":"Hahnheim","municipality":{"key":"07339025","name":"Hahnheim","type":"Kreisangehörige_Gemeinde"},"district":{"key":"07339","name":"Mainz-Bingen","type":"Landkreis"},"federalState":{"key":"07","name":"Rheinland-Pfalz"}},{"name":"Am Schneckenberg","postalCode":"55278","locality":"Hahnheim","municipality":{"key":"07339025","name":"Hahnheim","type":"Kreisangehörige_Gemeinde"},"district":{"key":"07339","name":"Mainz-Bingen","type":"Landkreis"},"federalState":{"key":"07","name":"Rheinland-Pfalz"}},{"name":"An der Pfingstweide","postalCode":"55278","locality":"Hahnheim","municipality":{"key":"07339025","name":"Hahnheim","type":"Kreisangehörige_Gemeinde"},"district":{"key":"07339","name":"Mainz-Bingen","type":"Landkreis"},"federalState":{"key":"07","name":"Rheinland-Pfalz"}},{"name":"An der Selz","postalCode":"55278","locality":"Hahnheim","municipality":{"key":"07339025","name":"Hahnheim","type":"Kreisangehörige_Gemeinde"},"district":{"key":"07339","name":"Mainz-Bingen","type":"Landkreis"},"federalState":{"key":"07","name":"Rheinland-Pfalz"}},{"name":"Außerhalb","postalCode":"55278","locality":"Hahnheim","municipality":{"key":"07339025","name":"Hahnheim","type":"Kreisangehörige_Gemeinde"},"district":{"key":"07339","name":"Mainz-Bingen","type":"Landkreis"},"federalState":{"key":"07","name":"Rheinland-Pfalz"}},{"name":"Backhausgasse","postalCode":"55278","locality":"Hahnheim","municipality":{"key":"07339025","name":"Hahnheim","type":"Kreisangehörige_Gemeinde"},"district":{"key":"07339","name":"Mainz-Bingen","type":"Landkreis"},"federalState":{"key":"07","name":"Rheinland-Pfalz"}},{"name":"Bahnhofstr.","postalCode":"55278","locality":"Hahnheim","municipality":{"key":"07339025","name":"Hahnheim","type":"Kreisangehörige_Gemeinde"},"district":{"key":"07339","name":"Mainz-Bingen","type":"Landkreis"},"federalState":{"key":"07","name":"Rheinland-Pfalz"}},{"name":"Bruchgasse","postalCode":"55278","locality":"Hahnheim","municipality":{"key":"07339025","name":"Hahnheim","type":"Kreisangehörige_Gemeinde"},"district":{"key":"07339","name":"Mainz-Bingen","type":"Landkreis"},"federalState":{"key":"07","name":"Rheinland-Pfalz"}},{"name":"Dr.-Hoffmann-Str.","postalCode":"55278","locality":"Hahnheim","municipality":{"key":"07339025","name":"Hahnheim","type":"Kreisangehörige_Gemeinde"},"district":{"key":"07339","name":"Mainz-Bingen","type":"Landkreis"},"federalState":{"key":"07","name":"Rheinland-Pfalz"}},{"name":"Freier Platz","postalCode":"55278","locality":"Hahnheim","municipality":{"key":"07339025","name":"Hahnheim","type":"Kreisangehörige_Gemeinde"},"district":{"key":"07339","name":"Mainz-Bingen","type":"Landkreis"},"federalState":{"key":"07","name":"Rheinland-Pfalz"}},{"name":"Große Zanggasse","postalCode":"55278","locality":"Hahnheim","municipality":{"key":"07339025","name":"Hahnheim","type":"Kreisangehörige_Gemeinde"},"district":{"key":"07339","name":"Mainz-Bingen","type":"Landkreis"},"federalState":{"key":"07","name":"Rheinland-Pfalz"}},{"name":"Hintere-Land-Str.","postalCode":"55278","locality":"Hahnheim","municipality":{"key":"07339025","name":"Hahnheim","type":"Kreisangehörige_Gemeinde"},"district":{"key":"07339","name":"Mainz-Bingen","type":"Landkreis"},"federalState":{"key":"07","name":"Rheinland-Pfalz"}},{"name":"Im Hunnental","postalCode":"55278","locality":"Hahnheim","municipality":{"key":"07339025","name":"Hahnheim","type":"Kreisangehörige_Gemeinde"},"district":{"key":"07339","name":"Mainz-Bingen","type":"Landkreis"},"federalState":{"key":"07","name":"Rheinland-Pfalz"}},{"name":"Im Kleegarten","postalCode":"55278","locality":"Hahnheim","municipality":{"key":"07339025","name":"Hahnheim","type":"Kreisangehörige_Gemeinde"},"district":{"key":"07339","name":"Mainz-Bingen","type":"Landkreis"},"federalState":{"key":"07","name":"Rheinland-Pfalz"}},{"name":"In den Eichgärten","postalCode":"55278","locality":"Hahnheim","municipality":{"key":"07339025","name":"Hahnheim","type":"Kreisangehörige_Gemeinde"},"district":{"key":"07339","name":"Mainz-Bingen","type":"Landkreis"},"federalState":{"key":"07","name":"Rheinland-Pfalz"}},{"name":"In den Spitzenäckern","postalCode":"55278","locality":"Hahnheim","municipality":{"key":"07339025","name":"Hahnheim","type":"Kreisangehörige_Gemeinde"},"district":{"key":"07339","name":"Mainz-Bingen","type":"Landkreis"},"federalState":{"key":"07","name":"Rheinland-Pfalz"}},{"name":"Jahnstr.","postalCode":"55278","locality":"Hahnheim","municipality":{"key":"07339025","name":"Hahnheim","type":"Kreisangehörige_Gemeinde"},"district":{"key":"07339","name":"Mainz-Bingen","type":"Landkreis"},"federalState":{"key":"07","name":"Rheinland-Pfalz"}},{"name":"Kleine Zanggasse","postalCode":"55278","locality":"Hahnheim","municipality":{"key":"07339025","name":"Hahnheim","type":"Kreisangehörige_Gemeinde"},"district":{"key":"07339","name":"Mainz-Bingen","type":"Landkreis"},"federalState":{"key":"07","name":"Rheinland-Pfalz"}},{"name":"Kloster-Eberbach-Str.","postalCode":"55278","locality":"Hahnheim","municipality":{"key":"07339025","name":"Hahnheim","type":"Kreisangehörige_Gemeinde"},"district":{"key":"07339","name":"Mainz-Bingen","type":"Landkreis"},"federalState":{"key":"07","name":"Rheinland-Pfalz"}},{"name":"Mittelgasse","postalCode":"55278","locality":"Hahnheim","municipality":{"key":"07339025","name":"Hahnheim","type":"Kreisangehörige_Gemeinde"},"district":{"key":"07339","name":"Mainz-Bingen","type":"Landkreis"},"federalState":{"key":"07","name":"Rheinland-Pfalz"}},{"name":"Neugasse","postalCode":"55278","locality":"Hahnheim","municipality":{"key":"07339025","name":"Hahnheim","type":"Kreisangehörige_Gemeinde"},"district":{"key":"07339","name":"Mainz-Bingen","type":"Landkreis"},"federalState":{"key":"07","name":"Rheinland-Pfalz"}},{"name":"Obere Hauptstr.","postalCode":"55278","locality":"Hahnheim","municipality":{"key":"07339025","name":"Hahnheim","type":"Kreisangehörige_Gemeinde"},"district":{"key":"07339","name":"Mainz-Bingen","type":"Landkreis"},"federalState":{"key":"07","name":"Rheinland-Pfalz"}},{"name":"Peterstr.","postalCode":"55278","locality":"Hahnheim","municipality":{"key":"07339025","name":"Hahnheim","type":"Kreisangehörige_Gemeinde"},"district":{"key":"07339","name":"Mainz-Bingen","type":"Landkreis"},"federalState":{"key":"07","name":"Rheinland-Pfalz"}},{"name":"Philipp-Schömbs-Str.","postalCode":"55278","locality":"Hahnheim","municipality":{"key":"07339025","name":"Hahnheim","type":"Kreisangehörige_Gemeinde"},"district":{"key":"07339","name":"Mainz-Bingen","type":"Landkreis"},"federalState":{"key":"07","name":"Rheinland-Pfalz"}},{"name":"Rieslingstr.","postalCode":"55278","locality":"Hahnheim","municipality":{"key":"07339025","name":"Hahnheim","type":"Kreisangehörige_Gemeinde"},"district":{"key":"07339","name":"Mainz-Bingen","type":"Landkreis"},"federalState":{"key":"07","name":"Rheinland-Pfalz"}},{"name":"Sackgasse","postalCode":"55278","locality":"Hahnheim","municipality":{"key":"07339025","name":"Hahnheim","type":"Kreisangehörige_Gemeinde"},"district":{"key":"07339","name":"Mainz-Bingen","type":"Landkreis"},"federalState":{"key":"07","name":"Rheinland-Pfalz"}},{"name":"Schillerstr.","postalCode":"55278","locality":"Hahnheim","municipality":{"key":"07339025","name":"Hahnheim","type":"Kreisangehörige_Gemeinde"},"district":{"key":"07339","name":"Mainz-Bingen","type":"Landkreis"},"federalState":{"key":"07","name":"Rheinland-Pfalz"}},{"name":"Schloßgasse","postalCode":"55278","locality":"Hahnheim","municipality":{"key":"07339025","name":"Hahnheim","type":"Kreisangehörige_Gemeinde"},"district":{"key":"07339","name":"Mainz-Bingen","type":"Landkreis"},"federalState":{"key":"07","name":"Rheinland-Pfalz"}},{"name":"Schulstr.","postalCode":"55278","locality":"Hahnheim","municipality":{"key":"07339025","name":"Hahnheim","type":"Kreisangehörige_Gemeinde"},"district":{"key":"07339","name":"Mainz-Bingen","type":"Landkreis"},"federalState":{"key":"07","name":"Rheinland-Pfalz"}},{"name":"Tränkgasse","postalCode":"55278","locality":"Hahnheim","municipality":{"key":"07339025","name":"Hahnheim","type":"Kreisangehörige_Gemeinde"},"district":{"key":"07339","name":"Mainz-Bingen","type":"Landkreis"},"federalState":{"key":"07","name":"Rheinland-Pfalz"}},{"name":"Undenheimer Weg","postalCode":"55278","locality":"Hahnheim","municipality":{"key":"07339025","name":"Hahnheim","type":"Kreisangehörige_Gemeinde"},"district":{"key":"07339","name":"Mainz-Bingen","type":"Landkreis"},"federalState":{"key":"07","name":"Rheinland-Pfalz"}},{"name":"Untere Hauptstr.","postalCode":"55278","locality":"Hahnheim","municipality":{"key":"07339025","name":"Hahnheim","type":"Kreisangehörige_Gemeinde"},"district":{"key":"07339","name":"Mainz-Bingen","type":"Landkreis"},"federalState":{"key":"07","name":"Rheinland-Pfalz"}},{"name":"Wahlheimer Hof","postalCode":"55278","locality":"Hahnheim","municipality":{"key":"07339025","name":"Hahnheim","type":"Kreisangehörige_Gemeinde"},"district":{"key":"07339","name":"Mainz-Bingen","type":"Landkreis"},"federalState":{"key":"07","name":"Rheinland-Pfalz"}},{"name":"Zum Sportplatz","postalCode":"55278","locality":"Hahnheim","municipality":{"key":"07339025","name":"Hahnheim","type":"Kreisangehörige_Gemeinde"},"district":{"key":"07339","name":"Mainz-Bingen","type":"Landkreis"},"federalState":{"key":"07","name":"Rheinland-Pfalz"}},{"name":"Zur Wäschbach","postalCode":"55278","locality":"Hahnheim","municipality":{"key":"07339025","name":"Hahnheim","type":"Kreisangehörige_Gemeinde"},"district":{"key":"07339","name":"Mainz-Bingen","type":"Landkreis"},"federalState":{"key":"07","name":"Rheinland-Pfalz"}},]