[{"key":"16063003","name":"Bad Salzungen, Stadt","type":"Stadt","postalCode":"36433","multiplePostalCodes":true,"association":{"key":"16063","name":"Bad Salzungen, Stadt","type":"Erfüllende_Gemeinde"},"district":{"key":"16063","name":"Wartburgkreis","type":"Landkreis"},"federalState":{"key":"16","name":"Thüringen"}},{"key":"16063004","name":"Barchfeld-Immelborn","type":"Kreisangehörige_Gemeinde","postalCode":"36456","multiplePostalCodes":false,"association":{"key":"16063","name":"Barchfeld-Immelborn","type":"Verbandsfreie_Gemeinde"},"district":{"key":"16063","name":"Wartburgkreis","type":"Landkreis"},"federalState":{"key":"16","name":"Thüringen"}},{"key":"16063006","name":"Berka v. d. Hainich","type":"Kreisangehörige_Gemeinde","postalCode":"99826","multiplePostalCodes":true,"association":{"key":"16063","name":"Hainich-Werratal","type":"Verwaltungsgemeinschaft"},"district":{"key":"16063","name":"Wartburgkreis","type":"Landkreis"},"federalState":{"key":"16","name":"Thüringen"}},{"key":"16063008","name":"Bischofroda","type":"Kreisangehörige_Gemeinde","postalCode":"99826","multiplePostalCodes":true,"association":{"key":"16063","name":"Hainich-Werratal","type":"Verwaltungsgemeinschaft"},"district":{"key":"16063","name":"Wartburgkreis","type":"Landkreis"},"federalState":{"key":"16","name":"Thüringen"}},{"key":"16063011","name":"Buttlar","type":"Kreisangehörige_Gemeinde","postalCode":"36419","multiplePostalCodes":false,"association":{"key":"16063","name":"Geisa, Stadt","type":"Erfüllende_Gemeinde"},"district":{"key":"16063","name":"Wartburgkreis","type":"Landkreis"},"federalState":{"key":"16","name":"Thüringen"}},{"key":"16063015","name":"Dermbach","type":"Kreisangehörige_Gemeinde","postalCode":"36466","multiplePostalCodes":false,"association":{"key":"16063","name":"Dermbach","type":"Erfüllende_Gemeinde"},"district":{"key":"16063","name":"Wartburgkreis","type":"Landkreis"},"federalState":{"key":"16","name":"Thüringen"}},{"key":"16063023","name":"Empfertshausen","type":"Kreisangehörige_Gemeinde","postalCode":"36452","multiplePostalCodes":true,"association":{"key":"16063","name":"Dermbach","type":"Erfüllende_Gemeinde"},"district":{"key":"16063","name":"Wartburgkreis","type":"Landkreis"},"federalState":{"key":"16","name":"Thüringen"}},{"key":"16063028","name":"Frankenroda","type":"Kreisangehörige_Gemeinde","postalCode":"99826","multiplePostalCodes":true,"association":{"key":"16063","name":"Hainich-Werratal","type":"Verwaltungsgemeinschaft"},"district":{"key":"16063","name":"Wartburgkreis","type":"Landkreis"},"federalState":{"key":"16","name":"Thüringen"}},{"key":"16063032","name":"Geisa, Stadt","type":"Stadt","postalCode":"36419","multiplePostalCodes":false,"association":{"key":"16063","name":"Geisa, Stadt","type":"Erfüllende_Gemeinde"},"district":{"key":"16063","name":"Wartburgkreis","type":"Landkreis"},"federalState":{"key":"16","name":"Thüringen"}},{"key":"16063033","name":"Gerstengrund","type":"Kreisangehörige_Gemeinde","postalCode":"36419","multiplePostalCodes":false,"association":{"key":"16063","name":"Geisa, Stadt","type":"Erfüllende_Gemeinde"},"district":{"key":"16063","name":"Wartburgkreis","type":"Landkreis"},"federalState":{"key":"16","name":"Thüringen"}},{"key":"16063037","name":"Hallungen","type":"Kreisangehörige_Gemeinde","postalCode":"99826","multiplePostalCodes":true,"association":{"key":"16063","name":"Hainich-Werratal","type":"Verwaltungsgemeinschaft"},"district":{"key":"16063","name":"Wartburgkreis","type":"Landkreis"},"federalState":{"key":"16","name":"Thüringen"}},{"key":"16063046","name":"Krauthausen","type":"Kreisangehörige_Gemeinde","postalCode":"99819","multiplePostalCodes":true,"association":{"key":"16063","name":"Hainich-Werratal","type":"Verwaltungsgemeinschaft"},"district":{"key":"16063","name":"Wartburgkreis","type":"Landkreis"},"federalState":{"key":"16","name":"Thüringen"}},{"key":"16063049","name":"Lauterbach","type":"Kreisangehörige_Gemeinde","postalCode":"99826","multiplePostalCodes":true,"association":{"key":"16063","name":"Hainich-Werratal","type":"Verwaltungsgemeinschaft"},"district":{"key":"16063","name":"Wartburgkreis","type":"Landkreis"},"federalState":{"key":"16","name":"Thüringen"}},{"key":"16063051","name":"Leimbach","type":"Kreisangehörige_Gemeinde","postalCode":"36433","multiplePostalCodes":false,"association":{"key":"16063","name":"Bad Salzungen, Stadt","type":"Erfüllende_Gemeinde"},"district":{"key":"16063","name":"Wartburgkreis","type":"Landkreis"},"federalState":{"key":"16","name":"Thüringen"}},{"key":"16063058","name":"Nazza","type":"Kreisangehörige_Gemeinde","postalCode":"99826","multiplePostalCodes":true,"association":{"key":"16063","name":"Hainich-Werratal","type":"Verwaltungsgemeinschaft"},"district":{"key":"16063","name":"Wartburgkreis","type":"Landkreis"},"federalState":{"key":"16","name":"Thüringen"}},{"key":"16063062","name":"Oechsen","type":"Kreisangehörige_Gemeinde","postalCode":"36404","multiplePostalCodes":true,"association":{"key":"16063","name":"Dermbach","type":"Erfüllende_Gemeinde"},"district":{"key":"16063","name":"Wartburgkreis","type":"Landkreis"},"federalState":{"key":"16","name":"Thüringen"}},{"key":"16063066","name":"Ruhla, Stadt","type":"Stadt","postalCode":"99842","multiplePostalCodes":false,"association":{"key":"16063","name":"Ruhla, Stadt","type":"Erfüllende_Gemeinde"},"district":{"key":"16063","name":"Wartburgkreis","type":"Landkreis"},"federalState":{"key":"16","name":"Thüringen"}},{"key":"16063068","name":"Schleid","type":"Kreisangehörige_Gemeinde","postalCode":"36419","multiplePostalCodes":false,"association":{"key":"16063","name":"Geisa, Stadt","type":"Erfüllende_Gemeinde"},"district":{"key":"16063","name":"Wartburgkreis","type":"Landkreis"},"federalState":{"key":"16","name":"Thüringen"}},{"key":"16063071","name":"Seebach","type":"Kreisangehörige_Gemeinde","postalCode":"99846","multiplePostalCodes":true,"association":{"key":"16063","name":"Ruhla, Stadt","type":"Erfüllende_Gemeinde"},"district":{"key":"16063","name":"Wartburgkreis","type":"Landkreis"},"federalState":{"key":"16","name":"Thüringen"}},{"key":"16063076","name":"Treffurt, Stadt","type":"Stadt","postalCode":"99830","multiplePostalCodes":false,"association":{"key":"16063","name":"Treffurt, Stadt","type":"Verbandsfreie_Gemeinde"},"district":{"key":"16063","name":"Wartburgkreis","type":"Landkreis"},"federalState":{"key":"16","name":"Thüringen"}},{"key":"16063078","name":"Unterbreizbach","type":"Kreisangehörige_Gemeinde","postalCode":"36414","multiplePostalCodes":false,"association":{"key":"16063","name":"Unterbreizbach","type":"Verbandsfreie_Gemeinde"},"district":{"key":"16063","name":"Wartburgkreis","type":"Landkreis"},"federalState":{"key":"16","name":"Thüringen"}},{"key":"16063082","name":"Vacha, Stadt","type":"Stadt","postalCode":"36404","multiplePostalCodes":false,"association":{"key":"16063","name":"Vacha, Stadt","type":"Verbandsfreie_Gemeinde"},"district":{"key":"16063","name":"Wartburgkreis","type":"Landkreis"},"federalState":{"key":"16","name":"Thüringen"}},{"key":"16063084","name":"Weilar","type":"Kreisangehörige_Gemeinde","postalCode":"36457","multiplePostalCodes":true,"association":{"key":"16063","name":"Dermbach","type":"Erfüllende_Gemeinde"},"district":{"key":"16063","name":"Wartburgkreis","type":"Landkreis"},"federalState":{"key":"16","name":"Thüringen"}},{"key":"16063086","name":"Wiesenthal","type":"Kreisangehörige_Gemeinde","postalCode":"36466","multiplePostalCodes":false,"association":{"key":"16063","name":"Dermbach","type":"Erfüllende_Gemeinde"},"district":{"key":"16063","name":"Wartburgkreis","type":"Landkreis"},"federalState":{"key":"16","name":"Thüringen"}},{"key":"16063092","name":"Wutha-Farnroda","type":"Kreisangehörige_Gemeinde","postalCode":"99848","multiplePostalCodes":false,"association":{"key":"16063","name":"Wutha-Farnroda","type":"Verbandsfreie_Gemeinde"},"district":{"key":"16063","name":"Wartburgkreis","type":"Landkreis"},"federalState":{"key":"16","name":"Thüringen"}},{"key":"16063097","name":"Gerstungen","type":"Kreisangehörige_Gemeinde","postalCode":"99834","multiplePostalCodes":false,"association":{"key":"16063","name":"Gerstungen","type":"Verbandsfreie_Gemeinde"},"district":{"key":"16063","name":"Wartburgkreis","type":"Landkreis"},"federalState":{"key":"16","name":"Thüringen"}},{"key":"16063098","name":"Hörselberg-Hainich","type":"Kreisangehörige_Gemeinde","postalCode":"99820","multiplePostalCodes":false,"association":{"key":"16063","name":"Hörselberg-Hainich","type":"Verbandsfreie_Gemeinde"},"district":{"key":"16063","name":"Wartburgkreis","type":"Landkreis"},"federalState":{"key":"16","name":"Thüringen"}},{"key":"16063099","name":"Bad Liebenstein, Stadt","type":"Stadt","postalCode":"36448","multiplePostalCodes":false,"association":{"key":"16063","name":"Bad Liebenstein, Stadt","type":"Verbandsfreie_Gemeinde"},"district":{"key":"16063","name":"Wartburgkreis","type":"Landkreis"},"federalState":{"key":"16","name":"Thüringen"}},{"key":"16063101","name":"Krayenberggemeinde","type":"Kreisangehörige_Gemeinde","postalCode":"36460","multiplePostalCodes":false,"association":{"key":"16063","name":"Krayenberggemeinde","type":"Verbandsfreie_Gemeinde"},"district":{"key":"16063","name":"Wartburgkreis","type":"Landkreis"},"federalState":{"key":"16","name":"Thüringen"}},{"key":"16063103","name":"Werra-Suhl-Tal, Stadt","type":"Stadt","postalCode":"99837","multiplePostalCodes":false,"association":{"key":"16063","name":"Werra-Suhl-Tal, Stadt","type":"Verbandsfreie_Gemeinde"},"district":{"key":"16063","name":"Wartburgkreis","type":"Landkreis"},"federalState":{"key":"16","name":"Thüringen"}},{"key":"16063104","name":"Amt Creuzburg, Stadt","type":"Stadt","postalCode":"99831","multiplePostalCodes":false,"association":{"key":"16063","name":"Hainich-Werratal","type":"Verwaltungsgemeinschaft"},"district":{"key":"16063","name":"Wartburgkreis","type":"Landkreis"},"federalState":{"key":"16","name":"Thüringen"}},{"key":"16063105","name":"Eisenach, Stadt","type":"Stadt","postalCode":"99817","multiplePostalCodes":false,"association":{"key":"16063","name":"Eisenach, Stadt","type":"Verbandsfreie_Gemeinde"},"district":{"key":"16063","name":"Wartburgkreis","type":"Landkreis"},"federalState":{"key":"16","name":"Thüringen"}}]