[{"name":"Am Anfang","postalCode":"57567","locality":"Daaden","municipality":{"key":"07132018","name":"Daaden, Stadt","type":"Stadt"},"district":{"key":"07132","name":"Altenkirchen (Westerwald)","type":"Landkreis"},"federalState":{"key":"07","name":"Rheinland-Pfalz"}},{"name":"Am Füsseberg","postalCode":"57567","locality":"Daaden","municipality":{"key":"07132018","name":"Daaden, Stadt","type":"Stadt"},"district":{"key":"07132","name":"Altenkirchen (Westerwald)","type":"Landkreis"},"federalState":{"key":"07","name":"Rheinland-Pfalz"}},{"name":"Am Gewerbegebiet","postalCode":"57567","locality":"Daaden","municipality":{"key":"07132018","name":"Daaden, Stadt","type":"Stadt"},"district":{"key":"07132","name":"Altenkirchen (Westerwald)","type":"Landkreis"},"federalState":{"key":"07","name":"Rheinland-Pfalz"}},{"name":"Am Glaskopf","postalCode":"57567","locality":"Daaden","municipality":{"key":"07132018","name":"Daaden, Stadt","type":"Stadt"},"district":{"key":"07132","name":"Altenkirchen (Westerwald)","type":"Landkreis"},"federalState":{"key":"07","name":"Rheinland-Pfalz"}},{"name":"Am Hahnenkopf","postalCode":"57567","locality":"Daaden","municipality":{"key":"07132018","name":"Daaden, Stadt","type":"Stadt"},"district":{"key":"07132","name":"Altenkirchen (Westerwald)","type":"Landkreis"},"federalState":{"key":"07","name":"Rheinland-Pfalz"}},{"name":"Am Hallenbad","postalCode":"57567","locality":"Daaden","municipality":{"key":"07132018","name":"Daaden, Stadt","type":"Stadt"},"district":{"key":"07132","name":"Altenkirchen (Westerwald)","type":"Landkreis"},"federalState":{"key":"07","name":"Rheinland-Pfalz"}},{"name":"Am Hasenberg","postalCode":"57567","locality":"Daaden","municipality":{"key":"07132018","name":"Daaden, Stadt","type":"Stadt"},"district":{"key":"07132","name":"Altenkirchen (Westerwald)","type":"Landkreis"},"federalState":{"key":"07","name":"Rheinland-Pfalz"}},{"name":"Am Kirchplatz","postalCode":"57567","locality":"Daaden","municipality":{"key":"07132018","name":"Daaden, Stadt","type":"Stadt"},"district":{"key":"07132","name":"Altenkirchen (Westerwald)","type":"Landkreis"},"federalState":{"key":"07","name":"Rheinland-Pfalz"}},{"name":"Am Silberberg","postalCode":"57567","locality":"Daaden","municipality":{"key":"07132018","name":"Daaden, Stadt","type":"Stadt"},"district":{"key":"07132","name":"Altenkirchen (Westerwald)","type":"Landkreis"},"federalState":{"key":"07","name":"Rheinland-Pfalz"}},{"name":"Am Sportplatz","postalCode":"57567","locality":"Daaden","municipality":{"key":"07132018","name":"Daaden, Stadt","type":"Stadt"},"district":{"key":"07132","name":"Altenkirchen (Westerwald)","type":"Landkreis"},"federalState":{"key":"07","name":"Rheinland-Pfalz"}},{"name":"Am Steinbaum","postalCode":"57567","locality":"Daaden","municipality":{"key":"07132018","name":"Daaden, Stadt","type":"Stadt"},"district":{"key":"07132","name":"Altenkirchen (Westerwald)","type":"Landkreis"},"federalState":{"key":"07","name":"Rheinland-Pfalz"}},{"name":"Am Steinhäuschen","postalCode":"57567","locality":"Daaden","municipality":{"key":"07132018","name":"Daaden, Stadt","type":"Stadt"},"district":{"key":"07132","name":"Altenkirchen (Westerwald)","type":"Landkreis"},"federalState":{"key":"07","name":"Rheinland-Pfalz"}},{"name":"Am Stoß","postalCode":"57567","locality":"Daaden","municipality":{"key":"07132018","name":"Daaden, Stadt","type":"Stadt"},"district":{"key":"07132","name":"Altenkirchen (Westerwald)","type":"Landkreis"},"federalState":{"key":"07","name":"Rheinland-Pfalz"}},{"name":"Auf der Bölze","postalCode":"57567","locality":"Daaden","municipality":{"key":"07132018","name":"Daaden, Stadt","type":"Stadt"},"district":{"key":"07132","name":"Altenkirchen (Westerwald)","type":"Landkreis"},"federalState":{"key":"07","name":"Rheinland-Pfalz"}},{"name":"Austr.","postalCode":"57567","locality":"Daaden","municipality":{"key":"07132018","name":"Daaden, Stadt","type":"Stadt"},"district":{"key":"07132","name":"Altenkirchen (Westerwald)","type":"Landkreis"},"federalState":{"key":"07","name":"Rheinland-Pfalz"}},{"name":"Bahnhofstr.","postalCode":"57567","locality":"Daaden","municipality":{"key":"07132018","name":"Daaden, Stadt","type":"Stadt"},"district":{"key":"07132","name":"Altenkirchen (Westerwald)","type":"Landkreis"},"federalState":{"key":"07","name":"Rheinland-Pfalz"}},{"name":"Bergstr.","postalCode":"57567","locality":"Daaden","municipality":{"key":"07132018","name":"Daaden, Stadt","type":"Stadt"},"district":{"key":"07132","name":"Altenkirchen (Westerwald)","type":"Landkreis"},"federalState":{"key":"07","name":"Rheinland-Pfalz"}},{"name":"Betzdorfer Str.","postalCode":"57567","locality":"Daaden","municipality":{"key":"07132018","name":"Daaden, Stadt","type":"Stadt"},"district":{"key":"07132","name":"Altenkirchen (Westerwald)","type":"Landkreis"},"federalState":{"key":"07","name":"Rheinland-Pfalz"}},{"name":"Birkenweg","postalCode":"57567","locality":"Daaden","municipality":{"key":"07132018","name":"Daaden, Stadt","type":"Stadt"},"district":{"key":"07132","name":"Altenkirchen (Westerwald)","type":"Landkreis"},"federalState":{"key":"07","name":"Rheinland-Pfalz"}},{"name":"Denkmalstr.","postalCode":"57567","locality":"Daaden","municipality":{"key":"07132018","name":"Daaden, Stadt","type":"Stadt"},"district":{"key":"07132","name":"Altenkirchen (Westerwald)","type":"Landkreis"},"federalState":{"key":"07","name":"Rheinland-Pfalz"}},{"name":"Dr.-Karl-Heinz-Muhr-Str.","postalCode":"57567","locality":"Daaden","municipality":{"key":"07132018","name":"Daaden, Stadt","type":"Stadt"},"district":{"key":"07132","name":"Altenkirchen (Westerwald)","type":"Landkreis"},"federalState":{"key":"07","name":"Rheinland-Pfalz"}},{"name":"Friedhofstr.","postalCode":"57567","locality":"Daaden","municipality":{"key":"07132018","name":"Daaden, Stadt","type":"Stadt"},"district":{"key":"07132","name":"Altenkirchen (Westerwald)","type":"Landkreis"},"federalState":{"key":"07","name":"Rheinland-Pfalz"}},{"name":"Friesenstr.","postalCode":"57567","locality":"Daaden","municipality":{"key":"07132018","name":"Daaden, Stadt","type":"Stadt"},"district":{"key":"07132","name":"Altenkirchen (Westerwald)","type":"Landkreis"},"federalState":{"key":"07","name":"Rheinland-Pfalz"}},{"name":"Fünf Linden","postalCode":"57567","locality":"Daaden","municipality":{"key":"07132018","name":"Daaden, Stadt","type":"Stadt"},"district":{"key":"07132","name":"Altenkirchen (Westerwald)","type":"Landkreis"},"federalState":{"key":"07","name":"Rheinland-Pfalz"}},{"name":"Gartenstr.","postalCode":"57567","locality":"Daaden","municipality":{"key":"07132018","name":"Daaden, Stadt","type":"Stadt"},"district":{"key":"07132","name":"Altenkirchen (Westerwald)","type":"Landkreis"},"federalState":{"key":"07","name":"Rheinland-Pfalz"}},{"name":"Gerberstr.","postalCode":"57567","locality":"Daaden","municipality":{"key":"07132018","name":"Daaden, Stadt","type":"Stadt"},"district":{"key":"07132","name":"Altenkirchen (Westerwald)","type":"Landkreis"},"federalState":{"key":"07","name":"Rheinland-Pfalz"}},{"name":"Goethestr.","postalCode":"57567","locality":"Daaden","municipality":{"key":"07132018","name":"Daaden, Stadt","type":"Stadt"},"district":{"key":"07132","name":"Altenkirchen (Westerwald)","type":"Landkreis"},"federalState":{"key":"07","name":"Rheinland-Pfalz"}},{"name":"Hachenburger Str.","postalCode":"57567","locality":"Daaden","municipality":{"key":"07132018","name":"Daaden, Stadt","type":"Stadt"},"district":{"key":"07132","name":"Altenkirchen (Westerwald)","type":"Landkreis"},"federalState":{"key":"07","name":"Rheinland-Pfalz"}},{"name":"Hauptstr.","postalCode":"57567","locality":"Daaden","municipality":{"key":"07132018","name":"Daaden, Stadt","type":"Stadt"},"district":{"key":"07132","name":"Altenkirchen (Westerwald)","type":"Landkreis"},"federalState":{"key":"07","name":"Rheinland-Pfalz"}},{"name":"Heinrich-Heine-Str.","postalCode":"57567","locality":"Daaden","municipality":{"key":"07132018","name":"Daaden, Stadt","type":"Stadt"},"district":{"key":"07132","name":"Altenkirchen (Westerwald)","type":"Landkreis"},"federalState":{"key":"07","name":"Rheinland-Pfalz"}},{"name":"Herdorfer Str.","postalCode":"57567","locality":"Daaden","municipality":{"key":"07132018","name":"Daaden, Stadt","type":"Stadt"},"district":{"key":"07132","name":"Altenkirchen (Westerwald)","type":"Landkreis"},"federalState":{"key":"07","name":"Rheinland-Pfalz"}},{"name":"Höhenweg","postalCode":"57567","locality":"Daaden","municipality":{"key":"07132018","name":"Daaden, Stadt","type":"Stadt"},"district":{"key":"07132","name":"Altenkirchen (Westerwald)","type":"Landkreis"},"federalState":{"key":"07","name":"Rheinland-Pfalz"}},{"name":"Hopfengarten","postalCode":"57567","locality":"Daaden","municipality":{"key":"07132018","name":"Daaden, Stadt","type":"Stadt"},"district":{"key":"07132","name":"Altenkirchen (Westerwald)","type":"Landkreis"},"federalState":{"key":"07","name":"Rheinland-Pfalz"}},{"name":"Hüttenweg","postalCode":"57567","locality":"Daaden","municipality":{"key":"07132018","name":"Daaden, Stadt","type":"Stadt"},"district":{"key":"07132","name":"Altenkirchen (Westerwald)","type":"Landkreis"},"federalState":{"key":"07","name":"Rheinland-Pfalz"}},{"name":"Im Hilgerseifen","postalCode":"57567","locality":"Daaden","municipality":{"key":"07132018","name":"Daaden, Stadt","type":"Stadt"},"district":{"key":"07132","name":"Altenkirchen (Westerwald)","type":"Landkreis"},"federalState":{"key":"07","name":"Rheinland-Pfalz"}},{"name":"Im Kirdorf","postalCode":"57567","locality":"Daaden","municipality":{"key":"07132018","name":"Daaden, Stadt","type":"Stadt"},"district":{"key":"07132","name":"Altenkirchen (Westerwald)","type":"Landkreis"},"federalState":{"key":"07","name":"Rheinland-Pfalz"}},{"name":"Im Krain","postalCode":"57567","locality":"Daaden","municipality":{"key":"07132018","name":"Daaden, Stadt","type":"Stadt"},"district":{"key":"07132","name":"Altenkirchen (Westerwald)","type":"Landkreis"},"federalState":{"key":"07","name":"Rheinland-Pfalz"}},{"name":"Im Mühlengründchen","postalCode":"57567","locality":"Daaden","municipality":{"key":"07132018","name":"Daaden, Stadt","type":"Stadt"},"district":{"key":"07132","name":"Altenkirchen (Westerwald)","type":"Landkreis"},"federalState":{"key":"07","name":"Rheinland-Pfalz"}},{"name":"Im Reuschewäldchen","postalCode":"57567","locality":"Daaden","municipality":{"key":"07132018","name":"Daaden, Stadt","type":"Stadt"},"district":{"key":"07132","name":"Altenkirchen (Westerwald)","type":"Landkreis"},"federalState":{"key":"07","name":"Rheinland-Pfalz"}},{"name":"Im Schützenhof","postalCode":"57567","locality":"Daaden","municipality":{"key":"07132018","name":"Daaden, Stadt","type":"Stadt"},"district":{"key":"07132","name":"Altenkirchen (Westerwald)","type":"Landkreis"},"federalState":{"key":"07","name":"Rheinland-Pfalz"}},{"name":"Im Stahlwäldchen","postalCode":"57567","locality":"Daaden","municipality":{"key":"07132018","name":"Daaden, Stadt","type":"Stadt"},"district":{"key":"07132","name":"Altenkirchen (Westerwald)","type":"Landkreis"},"federalState":{"key":"07","name":"Rheinland-Pfalz"}},{"name":"In der Grünebach","postalCode":"57567","locality":"Daaden","municipality":{"key":"07132018","name":"Daaden, Stadt","type":"Stadt"},"district":{"key":"07132","name":"Altenkirchen (Westerwald)","type":"Landkreis"},"federalState":{"key":"07","name":"Rheinland-Pfalz"}},{"name":"In der Hüll","postalCode":"57567","locality":"Daaden","municipality":{"key":"07132018","name":"Daaden, Stadt","type":"Stadt"},"district":{"key":"07132","name":"Altenkirchen (Westerwald)","type":"Landkreis"},"federalState":{"key":"07","name":"Rheinland-Pfalz"}},{"name":"In der Schneisenbach","postalCode":"57567","locality":"Daaden","municipality":{"key":"07132018","name":"Daaden, Stadt","type":"Stadt"},"district":{"key":"07132","name":"Altenkirchen (Westerwald)","type":"Landkreis"},"federalState":{"key":"07","name":"Rheinland-Pfalz"}},{"name":"In der Walsbach","postalCode":"57567","locality":"Daaden","municipality":{"key":"07132018","name":"Daaden, Stadt","type":"Stadt"},"district":{"key":"07132","name":"Altenkirchen (Westerwald)","type":"Landkreis"},"federalState":{"key":"07","name":"Rheinland-Pfalz"}},{"name":"Jahnstr.","postalCode":"57567","locality":"Daaden","municipality":{"key":"07132018","name":"Daaden, Stadt","type":"Stadt"},"district":{"key":"07132","name":"Altenkirchen (Westerwald)","type":"Landkreis"},"federalState":{"key":"07","name":"Rheinland-Pfalz"}},{"name":"Jungental","postalCode":"57567","locality":"Daaden","municipality":{"key":"07132018","name":"Daaden, Stadt","type":"Stadt"},"district":{"key":"07132","name":"Altenkirchen (Westerwald)","type":"Landkreis"},"federalState":{"key":"07","name":"Rheinland-Pfalz"}},{"name":"Kalkstück","postalCode":"57567","locality":"Daaden","municipality":{"key":"07132018","name":"Daaden, Stadt","type":"Stadt"},"district":{"key":"07132","name":"Altenkirchen (Westerwald)","type":"Landkreis"},"federalState":{"key":"07","name":"Rheinland-Pfalz"}},{"name":"Kantstr.","postalCode":"57567","locality":"Daaden","municipality":{"key":"07132018","name":"Daaden, Stadt","type":"Stadt"},"district":{"key":"07132","name":"Altenkirchen (Westerwald)","type":"Landkreis"},"federalState":{"key":"07","name":"Rheinland-Pfalz"}},{"name":"Kirchhofgasse","postalCode":"57567","locality":"Daaden","municipality":{"key":"07132018","name":"Daaden, Stadt","type":"Stadt"},"district":{"key":"07132","name":"Altenkirchen (Westerwald)","type":"Landkreis"},"federalState":{"key":"07","name":"Rheinland-Pfalz"}},{"name":"Kronenburger Weg","postalCode":"57567","locality":"Daaden","municipality":{"key":"07132018","name":"Daaden, Stadt","type":"Stadt"},"district":{"key":"07132","name":"Altenkirchen (Westerwald)","type":"Landkreis"},"federalState":{"key":"07","name":"Rheinland-Pfalz"}},{"name":"Lamprechtstr.","postalCode":"57567","locality":"Daaden","municipality":{"key":"07132018","name":"Daaden, Stadt","type":"Stadt"},"district":{"key":"07132","name":"Altenkirchen (Westerwald)","type":"Landkreis"},"federalState":{"key":"07","name":"Rheinland-Pfalz"}},{"name":"Lessingstr.","postalCode":"57567","locality":"Daaden","municipality":{"key":"07132018","name":"Daaden, Stadt","type":"Stadt"},"district":{"key":"07132","name":"Altenkirchen (Westerwald)","type":"Landkreis"},"federalState":{"key":"07","name":"Rheinland-Pfalz"}},{"name":"Martin-Luther-Str.","postalCode":"57567","locality":"Daaden","municipality":{"key":"07132018","name":"Daaden, Stadt","type":"Stadt"},"district":{"key":"07132","name":"Altenkirchen (Westerwald)","type":"Landkreis"},"federalState":{"key":"07","name":"Rheinland-Pfalz"}},{"name":"Mittelstr.","postalCode":"57567","locality":"Daaden","municipality":{"key":"07132018","name":"Daaden, Stadt","type":"Stadt"},"district":{"key":"07132","name":"Altenkirchen (Westerwald)","type":"Landkreis"},"federalState":{"key":"07","name":"Rheinland-Pfalz"}},{"name":"Mühlhofsweg","postalCode":"57567","locality":"Daaden","municipality":{"key":"07132018","name":"Daaden, Stadt","type":"Stadt"},"district":{"key":"07132","name":"Altenkirchen (Westerwald)","type":"Landkreis"},"federalState":{"key":"07","name":"Rheinland-Pfalz"}},{"name":"Oberdreisbacher Str.","postalCode":"57567","locality":"Daaden","municipality":{"key":"07132018","name":"Daaden, Stadt","type":"Stadt"},"district":{"key":"07132","name":"Altenkirchen (Westerwald)","type":"Landkreis"},"federalState":{"key":"07","name":"Rheinland-Pfalz"}},{"name":"Oberer Mühlhof","postalCode":"57567","locality":"Daaden","municipality":{"key":"07132018","name":"Daaden, Stadt","type":"Stadt"},"district":{"key":"07132","name":"Altenkirchen (Westerwald)","type":"Landkreis"},"federalState":{"key":"07","name":"Rheinland-Pfalz"}},{"name":"Oberste Ströthe","postalCode":"57567","locality":"Daaden","municipality":{"key":"07132018","name":"Daaden, Stadt","type":"Stadt"},"district":{"key":"07132","name":"Altenkirchen (Westerwald)","type":"Landkreis"},"federalState":{"key":"07","name":"Rheinland-Pfalz"}},{"name":"Saynische Str.","postalCode":"57567","locality":"Daaden","municipality":{"key":"07132018","name":"Daaden, Stadt","type":"Stadt"},"district":{"key":"07132","name":"Altenkirchen (Westerwald)","type":"Landkreis"},"federalState":{"key":"07","name":"Rheinland-Pfalz"}},{"name":"Schaftrift","postalCode":"57567","locality":"Daaden","municipality":{"key":"07132018","name":"Daaden, Stadt","type":"Stadt"},"district":{"key":"07132","name":"Altenkirchen (Westerwald)","type":"Landkreis"},"federalState":{"key":"07","name":"Rheinland-Pfalz"}},{"name":"Schillerstr.","postalCode":"57567","locality":"Daaden","municipality":{"key":"07132018","name":"Daaden, Stadt","type":"Stadt"},"district":{"key":"07132","name":"Altenkirchen (Westerwald)","type":"Landkreis"},"federalState":{"key":"07","name":"Rheinland-Pfalz"}},{"name":"Schulweg","postalCode":"57567","locality":"Daaden","municipality":{"key":"07132018","name":"Daaden, Stadt","type":"Stadt"},"district":{"key":"07132","name":"Altenkirchen (Westerwald)","type":"Landkreis"},"federalState":{"key":"07","name":"Rheinland-Pfalz"}},{"name":"Sonnenborn","postalCode":"57567","locality":"Daaden","municipality":{"key":"07132018","name":"Daaden, Stadt","type":"Stadt"},"district":{"key":"07132","name":"Altenkirchen (Westerwald)","type":"Landkreis"},"federalState":{"key":"07","name":"Rheinland-Pfalz"}},{"name":"Ströther Börnchen","postalCode":"57567","locality":"Daaden","municipality":{"key":"07132018","name":"Daaden, Stadt","type":"Stadt"},"district":{"key":"07132","name":"Altenkirchen (Westerwald)","type":"Landkreis"},"federalState":{"key":"07","name":"Rheinland-Pfalz"}},{"name":"Ströther Weg","postalCode":"57567","locality":"Daaden","municipality":{"key":"07132018","name":"Daaden, Stadt","type":"Stadt"},"district":{"key":"07132","name":"Altenkirchen (Westerwald)","type":"Landkreis"},"federalState":{"key":"07","name":"Rheinland-Pfalz"}},{"name":"Talstr.","postalCode":"57567","locality":"Daaden","municipality":{"key":"07132018","name":"Daaden, Stadt","type":"Stadt"},"district":{"key":"07132","name":"Altenkirchen (Westerwald)","type":"Landkreis"},"federalState":{"key":"07","name":"Rheinland-Pfalz"}},{"name":"Unterer Mühlhof","postalCode":"57567","locality":"Daaden","municipality":{"key":"07132018","name":"Daaden, Stadt","type":"Stadt"},"district":{"key":"07132","name":"Altenkirchen (Westerwald)","type":"Landkreis"},"federalState":{"key":"07","name":"Rheinland-Pfalz"}},{"name":"Vor der Helle","postalCode":"57567","locality":"Daaden","municipality":{"key":"07132018","name":"Daaden, Stadt","type":"Stadt"},"district":{"key":"07132","name":"Altenkirchen (Westerwald)","type":"Landkreis"},"federalState":{"key":"07","name":"Rheinland-Pfalz"}},{"name":"Werrbachstr.","postalCode":"57567","locality":"Daaden","municipality":{"key":"07132018","name":"Daaden, Stadt","type":"Stadt"},"district":{"key":"07132","name":"Altenkirchen (Westerwald)","type":"Landkreis"},"federalState":{"key":"07","name":"Rheinland-Pfalz"}},{"name":"Wiesenstr.","postalCode":"57567","locality":"Daaden","municipality":{"key":"07132018","name":"Daaden, Stadt","type":"Stadt"},"district":{"key":"07132","name":"Altenkirchen (Westerwald)","type":"Landkreis"},"federalState":{"key":"07","name":"Rheinland-Pfalz"}},{"name":"Zur Hüllbuche","postalCode":"57567","locality":"Daaden","municipality":{"key":"07132018","name":"Daaden, Stadt","type":"Stadt"},"district":{"key":"07132","name":"Altenkirchen (Westerwald)","type":"Landkreis"},"federalState":{"key":"07","name":"Rheinland-Pfalz"}},]