[{"name":"Am Bornbruch","postalCode":"17139","locality":"Gielow","municipality":{"key":"13071039","name":"Gielow","type":"Kreisangehörige_Gemeinde"},"district":{"key":"13071","name":"Mecklenburgische Seenplatte","type":"Landkreis"},"federalState":{"key":"13","name":"Mecklenburg-Vorpommern"}},{"name":"Am Dornbusch","postalCode":"17139","locality":"Gielow","municipality":{"key":"13071039","name":"Gielow","type":"Kreisangehörige_Gemeinde"},"district":{"key":"13071","name":"Mecklenburgische Seenplatte","type":"Landkreis"},"federalState":{"key":"13","name":"Mecklenburg-Vorpommern"}},{"name":"Am Sonnenberg","postalCode":"17139","locality":"Gielow","municipality":{"key":"13071039","name":"Gielow","type":"Kreisangehörige_Gemeinde"},"district":{"key":"13071","name":"Mecklenburgische Seenplatte","type":"Landkreis"},"federalState":{"key":"13","name":"Mecklenburg-Vorpommern"}},{"name":"August-Bebel-Str.","postalCode":"17139","locality":"Gielow","municipality":{"key":"13071039","name":"Gielow","type":"Kreisangehörige_Gemeinde"},"district":{"key":"13071","name":"Mecklenburgische Seenplatte","type":"Landkreis"},"federalState":{"key":"13","name":"Mecklenburg-Vorpommern"}},{"name":"Beethovenstr.","postalCode":"17139","locality":"Gielow","municipality":{"key":"13071039","name":"Gielow","type":"Kreisangehörige_Gemeinde"},"district":{"key":"13071","name":"Mecklenburgische Seenplatte","type":"Landkreis"},"federalState":{"key":"13","name":"Mecklenburg-Vorpommern"}},{"name":"Bergstr.","postalCode":"17139","locality":"Gielow","municipality":{"key":"13071039","name":"Gielow","type":"Kreisangehörige_Gemeinde"},"district":{"key":"13071","name":"Mecklenburgische Seenplatte","type":"Landkreis"},"federalState":{"key":"13","name":"Mecklenburg-Vorpommern"}},{"name":"Fritz-Reuter-Str.","postalCode":"17139","locality":"Gielow","municipality":{"key":"13071039","name":"Gielow","type":"Kreisangehörige_Gemeinde"},"district":{"key":"13071","name":"Mecklenburgische Seenplatte","type":"Landkreis"},"federalState":{"key":"13","name":"Mecklenburg-Vorpommern"}},{"name":"Gielow-Ausbau","postalCode":"17139","locality":"Gielow","municipality":{"key":"13071039","name":"Gielow","type":"Kreisangehörige_Gemeinde"},"district":{"key":"13071","name":"Mecklenburgische Seenplatte","type":"Landkreis"},"federalState":{"key":"13","name":"Mecklenburg-Vorpommern"}},{"name":"Hainholzstr.","postalCode":"17139","locality":"Gielow","municipality":{"key":"13071039","name":"Gielow","type":"Kreisangehörige_Gemeinde"},"district":{"key":"13071","name":"Mecklenburgische Seenplatte","type":"Landkreis"},"federalState":{"key":"13","name":"Mecklenburg-Vorpommern"}},{"name":"Hinrichsfelder Str.","postalCode":"17139","locality":"Gielow","municipality":{"key":"13071039","name":"Gielow","type":"Kreisangehörige_Gemeinde"},"district":{"key":"13071","name":"Mecklenburgische Seenplatte","type":"Landkreis"},"federalState":{"key":"13","name":"Mecklenburg-Vorpommern"}},{"name":"Malchiner Str.","postalCode":"17139","locality":"Gielow","municipality":{"key":"13071039","name":"Gielow","type":"Kreisangehörige_Gemeinde"},"district":{"key":"13071","name":"Mecklenburgische Seenplatte","type":"Landkreis"},"federalState":{"key":"13","name":"Mecklenburg-Vorpommern"}},{"name":"Peenhäuser","postalCode":"17139","locality":"Gielow","municipality":{"key":"13071039","name":"Gielow","type":"Kreisangehörige_Gemeinde"},"district":{"key":"13071","name":"Mecklenburgische Seenplatte","type":"Landkreis"},"federalState":{"key":"13","name":"Mecklenburg-Vorpommern"}},{"name":"Str. der Einheit","postalCode":"17139","locality":"Gielow","municipality":{"key":"13071039","name":"Gielow","type":"Kreisangehörige_Gemeinde"},"district":{"key":"13071","name":"Mecklenburgische Seenplatte","type":"Landkreis"},"federalState":{"key":"13","name":"Mecklenburg-Vorpommern"}},{"name":"Tannenstr.","postalCode":"17139","locality":"Gielow","municipality":{"key":"13071039","name":"Gielow","type":"Kreisangehörige_Gemeinde"},"district":{"key":"13071","name":"Mecklenburgische Seenplatte","type":"Landkreis"},"federalState":{"key":"13","name":"Mecklenburg-Vorpommern"}},]