[{"key":"10060541","name":"Aeschi","postalCode":"3671","locality":"Brenzikofen","commune":{"key":"606","name":"Brenzikofen","shortName":"Brenzikofen"},"district":{"key":"246","name":"Verwaltungskreis Bern-Mittelland"},"canton":{"key":"2","code":"BE","name":"Bern / Berne"},"status":"Real"},{"key":"10075076","name":"Bahnhofplatz","postalCode":"3671","locality":"Brenzikofen","commune":{"key":"606","name":"Brenzikofen","shortName":"Brenzikofen"},"district":{"key":"246","name":"Verwaltungskreis Bern-Mittelland"},"canton":{"key":"2","code":"BE","name":"Bern / Berne"},"status":"Real"},{"key":"10113749","name":"Bällizrain","postalCode":"3671","locality":"Brenzikofen","commune":{"key":"606","name":"Brenzikofen","shortName":"Brenzikofen"},"district":{"key":"246","name":"Verwaltungskreis Bern-Mittelland"},"canton":{"key":"2","code":"BE","name":"Bern / Berne"},"status":"Real"},{"key":"10180616","name":"Bällizstrasse","postalCode":"3671","locality":"Brenzikofen","commune":{"key":"606","name":"Brenzikofen","shortName":"Brenzikofen"},"district":{"key":"246","name":"Verwaltungskreis Bern-Mittelland"},"canton":{"key":"2","code":"BE","name":"Bern / Berne"},"status":"Real"},{"key":"10103788","name":"Bergli","postalCode":"3671","locality":"Brenzikofen","commune":{"key":"606","name":"Brenzikofen","shortName":"Brenzikofen"},"district":{"key":"246","name":"Verwaltungskreis Bern-Mittelland"},"canton":{"key":"2","code":"BE","name":"Bern / Berne"},"status":"Real"},{"key":"10104090","name":"Bleikenstrasse","postalCode":"3671","locality":"Brenzikofen","commune":{"key":"606","name":"Brenzikofen","shortName":"Brenzikofen"},"district":{"key":"246","name":"Verwaltungskreis Bern-Mittelland"},"canton":{"key":"2","code":"BE","name":"Bern / Berne"},"status":"Real"},{"key":"10007645","name":"Bodenstrasse","postalCode":"3671","locality":"Brenzikofen","commune":{"key":"606","name":"Brenzikofen","shortName":"Brenzikofen"},"district":{"key":"246","name":"Verwaltungskreis Bern-Mittelland"},"canton":{"key":"2","code":"BE","name":"Bern / Berne"},"status":"Real"},{"key":"10007646","name":"Brachweg","postalCode":"3671","locality":"Brenzikofen","commune":{"key":"606","name":"Brenzikofen","shortName":"Brenzikofen"},"district":{"key":"246","name":"Verwaltungskreis Bern-Mittelland"},"canton":{"key":"2","code":"BE","name":"Bern / Berne"},"status":"Real"},{"key":"10128438","name":"Brenzikofenstrasse","postalCode":"3671","locality":"Brenzikofen","commune":{"key":"606","name":"Brenzikofen","shortName":"Brenzikofen"},"district":{"key":"246","name":"Verwaltungskreis Bern-Mittelland"},"canton":{"key":"2","code":"BE","name":"Bern / Berne"},"status":"Real"},{"key":"10209783","name":"Chatzestyg","postalCode":"3671","locality":"Brenzikofen","commune":{"key":"606","name":"Brenzikofen","shortName":"Brenzikofen"},"district":{"key":"246","name":"Verwaltungskreis Bern-Mittelland"},"canton":{"key":"2","code":"BE","name":"Bern / Berne"},"status":"Real"},{"key":"10257349","name":"Chrüzmatte","postalCode":"3671","locality":"Brenzikofen","commune":{"key":"606","name":"Brenzikofen","shortName":"Brenzikofen"},"district":{"key":"246","name":"Verwaltungskreis Bern-Mittelland"},"canton":{"key":"2","code":"BE","name":"Bern / Berne"},"status":"Planned"},{"key":"10060542","name":"Dorfstrasse","postalCode":"3671","locality":"Brenzikofen","commune":{"key":"606","name":"Brenzikofen","shortName":"Brenzikofen"},"district":{"key":"246","name":"Verwaltungskreis Bern-Mittelland"},"canton":{"key":"2","code":"BE","name":"Bern / Berne"},"status":"Real"},{"key":"10007647","name":"Eggmoos","postalCode":"3671","locality":"Brenzikofen","commune":{"key":"606","name":"Brenzikofen","shortName":"Brenzikofen"},"district":{"key":"246","name":"Verwaltungskreis Bern-Mittelland"},"canton":{"key":"2","code":"BE","name":"Bern / Berne"},"status":"Real"},{"key":"10216741","name":"Hasliau","postalCode":"3671","locality":"Brenzikofen","commune":{"key":"606","name":"Brenzikofen","shortName":"Brenzikofen"},"district":{"key":"246","name":"Verwaltungskreis Bern-Mittelland"},"canton":{"key":"2","code":"BE","name":"Bern / Berne"},"status":"Real"},{"key":"10007648","name":"Herbligenstrasse","postalCode":"3671","locality":"Brenzikofen","commune":{"key":"606","name":"Brenzikofen","shortName":"Brenzikofen"},"district":{"key":"246","name":"Verwaltungskreis Bern-Mittelland"},"canton":{"key":"2","code":"BE","name":"Bern / Berne"},"status":"Real"},{"key":"10061509","name":"Holz","postalCode":"3671","locality":"Brenzikofen","commune":{"key":"606","name":"Brenzikofen","shortName":"Brenzikofen"},"district":{"key":"246","name":"Verwaltungskreis Bern-Mittelland"},"canton":{"key":"2","code":"BE","name":"Bern / Berne"},"status":"Real"},{"key":"10124629","name":"Hubel","postalCode":"3671","locality":"Brenzikofen","commune":{"key":"606","name":"Brenzikofen","shortName":"Brenzikofen"},"district":{"key":"246","name":"Verwaltungskreis Bern-Mittelland"},"canton":{"key":"2","code":"BE","name":"Bern / Berne"},"status":"Real"},{"key":"10123099","name":"Mattlisbühl","postalCode":"3671","locality":"Brenzikofen","commune":{"key":"606","name":"Brenzikofen","shortName":"Brenzikofen"},"district":{"key":"246","name":"Verwaltungskreis Bern-Mittelland"},"canton":{"key":"2","code":"BE","name":"Bern / Berne"},"status":"Real"},{"key":"10075077","name":"Neumattweg","postalCode":"3671","locality":"Brenzikofen","commune":{"key":"606","name":"Brenzikofen","shortName":"Brenzikofen"},"district":{"key":"246","name":"Verwaltungskreis Bern-Mittelland"},"canton":{"key":"2","code":"BE","name":"Bern / Berne"},"status":"Real"},{"key":"10007649","name":"Oppligenstrasse","postalCode":"3671","locality":"Brenzikofen","commune":{"key":"606","name":"Brenzikofen","shortName":"Brenzikofen"},"district":{"key":"246","name":"Verwaltungskreis Bern-Mittelland"},"canton":{"key":"2","code":"BE","name":"Bern / Berne"},"status":"Real"},{"key":"10007650","name":"Rothachenweg","postalCode":"3671","locality":"Brenzikofen","commune":{"key":"606","name":"Brenzikofen","shortName":"Brenzikofen"},"district":{"key":"246","name":"Verwaltungskreis Bern-Mittelland"},"canton":{"key":"2","code":"BE","name":"Bern / Berne"},"status":"Real"},{"key":"10188466","name":"Schulhausstrasse","postalCode":"3671","locality":"Brenzikofen","commune":{"key":"606","name":"Brenzikofen","shortName":"Brenzikofen"},"district":{"key":"246","name":"Verwaltungskreis Bern-Mittelland"},"canton":{"key":"2","code":"BE","name":"Bern / Berne"},"status":"Real"},{"key":"10075078","name":"Sonnmattweg","postalCode":"3671","locality":"Brenzikofen","commune":{"key":"606","name":"Brenzikofen","shortName":"Brenzikofen"},"district":{"key":"246","name":"Verwaltungskreis Bern-Mittelland"},"canton":{"key":"2","code":"BE","name":"Bern / Berne"},"status":"Real"},{"key":"10113750","name":"Sonnrain","postalCode":"3671","locality":"Brenzikofen","commune":{"key":"606","name":"Brenzikofen","shortName":"Brenzikofen"},"district":{"key":"246","name":"Verwaltungskreis Bern-Mittelland"},"canton":{"key":"2","code":"BE","name":"Bern / Berne"},"status":"Real"},{"key":"10007651","name":"Stationsstrasse","postalCode":"3671","locality":"Brenzikofen","commune":{"key":"606","name":"Brenzikofen","shortName":"Brenzikofen"},"district":{"key":"246","name":"Verwaltungskreis Bern-Mittelland"},"canton":{"key":"2","code":"BE","name":"Bern / Berne"},"status":"Real"},{"key":"10007652","name":"Steingrübli","postalCode":"3671","locality":"Brenzikofen","commune":{"key":"606","name":"Brenzikofen","shortName":"Brenzikofen"},"district":{"key":"246","name":"Verwaltungskreis Bern-Mittelland"},"canton":{"key":"2","code":"BE","name":"Bern / Berne"},"status":"Real"},{"key":"10061510","name":"Wydeli","postalCode":"3671","locality":"Brenzikofen","commune":{"key":"606","name":"Brenzikofen","shortName":"Brenzikofen"},"district":{"key":"246","name":"Verwaltungskreis Bern-Mittelland"},"canton":{"key":"2","code":"BE","name":"Bern / Berne"},"status":"Real"},]