[{"name":"Achatweg","postalCode":"04600","locality":"Altenburg","municipality":{"key":"16077001","name":"Altenburg, Stadt","type":"Stadt"},"district":{"key":"16077","name":"Altenburger Land","type":"Landkreis"},"federalState":{"key":"16","name":"Thüringen"}},{"name":"Agnesgarten","postalCode":"04600","locality":"Altenburg","municipality":{"key":"16077001","name":"Altenburg, Stadt","type":"Stadt"},"district":{"key":"16077","name":"Altenburger Land","type":"Landkreis"},"federalState":{"key":"16","name":"Thüringen"}},{"name":"Ahornstr.","postalCode":"04600","locality":"Altenburg","municipality":{"key":"16077001","name":"Altenburg, Stadt","type":"Stadt"},"district":{"key":"16077","name":"Altenburger Land","type":"Landkreis"},"federalState":{"key":"16","name":"Thüringen"}},{"name":"Albert-Einstein-Str.","postalCode":"04600","locality":"Altenburg","municipality":{"key":"16077001","name":"Altenburg, Stadt","type":"Stadt"},"district":{"key":"16077","name":"Altenburger Land","type":"Landkreis"},"federalState":{"key":"16","name":"Thüringen"}},{"name":"Albert-Levy-Str.","postalCode":"04600","locality":"Altenburg","municipality":{"key":"16077001","name":"Altenburg, Stadt","type":"Stadt"},"district":{"key":"16077","name":"Altenburger Land","type":"Landkreis"},"federalState":{"key":"16","name":"Thüringen"}},{"name":"Altendorf","postalCode":"04600","locality":"Altenburg","municipality":{"key":"16077001","name":"Altenburg, Stadt","type":"Stadt"},"district":{"key":"16077","name":"Altenburger Land","type":"Landkreis"},"federalState":{"key":"16","name":"Thüringen"}},{"name":"Alte Poststr.","postalCode":"04600","locality":"Altenburg","municipality":{"key":"16077001","name":"Altenburg, Stadt","type":"Stadt"},"district":{"key":"16077","name":"Altenburger Land","type":"Landkreis"},"federalState":{"key":"16","name":"Thüringen"}},{"name":"Alt-Kauerndorf","postalCode":"04600","locality":"Altenburg","municipality":{"key":"16077001","name":"Altenburg, Stadt","type":"Stadt"},"district":{"key":"16077","name":"Altenburger Land","type":"Landkreis"},"federalState":{"key":"16","name":"Thüringen"}},{"name":"Am Anger","postalCode":"04600","locality":"Altenburg","municipality":{"key":"16077001","name":"Altenburg, Stadt","type":"Stadt"},"district":{"key":"16077","name":"Altenburger Land","type":"Landkreis"},"federalState":{"key":"16","name":"Thüringen"}},{"name":"Am Eichenberg","postalCode":"04600","locality":"Altenburg","municipality":{"key":"16077001","name":"Altenburg, Stadt","type":"Stadt"},"district":{"key":"16077","name":"Altenburger Land","type":"Landkreis"},"federalState":{"key":"16","name":"Thüringen"}},{"name":"Amendestr.","postalCode":"04600","locality":"Altenburg","municipality":{"key":"16077001","name":"Altenburg, Stadt","type":"Stadt"},"district":{"key":"16077","name":"Altenburger Land","type":"Landkreis"},"federalState":{"key":"16","name":"Thüringen"}},{"name":"Am Feldberg","postalCode":"04600","locality":"Altenburg","municipality":{"key":"16077001","name":"Altenburg, Stadt","type":"Stadt"},"district":{"key":"16077","name":"Altenburger Land","type":"Landkreis"},"federalState":{"key":"16","name":"Thüringen"}},{"name":"Am Gerstenbach","postalCode":"04600","locality":"Altenburg","municipality":{"key":"16077001","name":"Altenburg, Stadt","type":"Stadt"},"district":{"key":"16077","name":"Altenburger Land","type":"Landkreis"},"federalState":{"key":"16","name":"Thüringen"}},{"name":"Am Kleinen Teich","postalCode":"04600","locality":"Altenburg","municipality":{"key":"16077001","name":"Altenburg, Stadt","type":"Stadt"},"district":{"key":"16077","name":"Altenburger Land","type":"Landkreis"},"federalState":{"key":"16","name":"Thüringen"}},{"name":"Am Lerchenberg","postalCode":"04600","locality":"Altenburg","municipality":{"key":"16077001","name":"Altenburg, Stadt","type":"Stadt"},"district":{"key":"16077","name":"Altenburger Land","type":"Landkreis"},"federalState":{"key":"16","name":"Thüringen"}},{"name":"Am Marktsteigfeld","postalCode":"04600","locality":"Altenburg","municipality":{"key":"16077001","name":"Altenburg, Stadt","type":"Stadt"},"district":{"key":"16077","name":"Altenburger Land","type":"Landkreis"},"federalState":{"key":"16","name":"Thüringen"}},{"name":"Am Modelwitzer Holz","postalCode":"04600","locality":"Altenburg","municipality":{"key":"16077001","name":"Altenburg, Stadt","type":"Stadt"},"district":{"key":"16077","name":"Altenburger Land","type":"Landkreis"},"federalState":{"key":"16","name":"Thüringen"}},{"name":"Am Neubau","postalCode":"04600","locality":"Altenburg","municipality":{"key":"16077001","name":"Altenburg, Stadt","type":"Stadt"},"district":{"key":"16077","name":"Altenburger Land","type":"Landkreis"},"federalState":{"key":"16","name":"Thüringen"}},{"name":"Am Schenkengraben","postalCode":"04600","locality":"Altenburg","municipality":{"key":"16077001","name":"Altenburg, Stadt","type":"Stadt"},"district":{"key":"16077","name":"Altenburger Land","type":"Landkreis"},"federalState":{"key":"16","name":"Thüringen"}},{"name":"Am Spitzenberg","postalCode":"04600","locality":"Altenburg","municipality":{"key":"16077001","name":"Altenburg, Stadt","type":"Stadt"},"district":{"key":"16077","name":"Altenburger Land","type":"Landkreis"},"federalState":{"key":"16","name":"Thüringen"}},{"name":"Am Sportplatz","postalCode":"04600","locality":"Altenburg","municipality":{"key":"16077001","name":"Altenburg, Stadt","type":"Stadt"},"district":{"key":"16077","name":"Altenburger Land","type":"Landkreis"},"federalState":{"key":"16","name":"Thüringen"}},{"name":"Am Stadtberg","postalCode":"04600","locality":"Altenburg","municipality":{"key":"16077001","name":"Altenburg, Stadt","type":"Stadt"},"district":{"key":"16077","name":"Altenburger Land","type":"Landkreis"},"federalState":{"key":"16","name":"Thüringen"}},{"name":"Am Stadtwald","postalCode":"04600","locality":"Altenburg","municipality":{"key":"16077001","name":"Altenburg, Stadt","type":"Stadt"},"district":{"key":"16077","name":"Altenburger Land","type":"Landkreis"},"federalState":{"key":"16","name":"Thüringen"}},{"name":"Am Steinbruch","postalCode":"04600","locality":"Altenburg","municipality":{"key":"16077001","name":"Altenburg, Stadt","type":"Stadt"},"district":{"key":"16077","name":"Altenburger Land","type":"Landkreis"},"federalState":{"key":"16","name":"Thüringen"}},{"name":"Am Steinweg","postalCode":"04600","locality":"Altenburg","municipality":{"key":"16077001","name":"Altenburg, Stadt","type":"Stadt"},"district":{"key":"16077","name":"Altenburger Land","type":"Landkreis"},"federalState":{"key":"16","name":"Thüringen"}},{"name":"Am Südhang","postalCode":"04600","locality":"Altenburg","municipality":{"key":"16077001","name":"Altenburg, Stadt","type":"Stadt"},"district":{"key":"16077","name":"Altenburger Land","type":"Landkreis"},"federalState":{"key":"16","name":"Thüringen"}},{"name":"Amtsgasse","postalCode":"04600","locality":"Altenburg","municipality":{"key":"16077001","name":"Altenburg, Stadt","type":"Stadt"},"district":{"key":"16077","name":"Altenburger Land","type":"Landkreis"},"federalState":{"key":"16","name":"Thüringen"}},{"name":"Am Turnplatz","postalCode":"04600","locality":"Altenburg","municipality":{"key":"16077001","name":"Altenburg, Stadt","type":"Stadt"},"district":{"key":"16077","name":"Altenburger Land","type":"Landkreis"},"federalState":{"key":"16","name":"Thüringen"}},{"name":"Am Waldessaum","postalCode":"04600","locality":"Altenburg","municipality":{"key":"16077001","name":"Altenburg, Stadt","type":"Stadt"},"district":{"key":"16077","name":"Altenburger Land","type":"Landkreis"},"federalState":{"key":"16","name":"Thüringen"}},{"name":"Am Wolfenholz","postalCode":"04600","locality":"Altenburg","municipality":{"key":"16077001","name":"Altenburg, Stadt","type":"Stadt"},"district":{"key":"16077","name":"Altenburger Land","type":"Landkreis"},"federalState":{"key":"16","name":"Thüringen"}},{"name":"An den Fischhältern","postalCode":"04600","locality":"Altenburg","municipality":{"key":"16077001","name":"Altenburg, Stadt","type":"Stadt"},"district":{"key":"16077","name":"Altenburger Land","type":"Landkreis"},"federalState":{"key":"16","name":"Thüringen"}},{"name":"An den Geraer Linden","postalCode":"04600","locality":"Altenburg","municipality":{"key":"16077001","name":"Altenburg, Stadt","type":"Stadt"},"district":{"key":"16077","name":"Altenburger Land","type":"Landkreis"},"federalState":{"key":"16","name":"Thüringen"}},{"name":"An den Rotbuchen","postalCode":"04600","locality":"Altenburg","municipality":{"key":"16077001","name":"Altenburg, Stadt","type":"Stadt"},"district":{"key":"16077","name":"Altenburger Land","type":"Landkreis"},"federalState":{"key":"16","name":"Thüringen"}},{"name":"An den Schanzen","postalCode":"04600","locality":"Altenburg","municipality":{"key":"16077001","name":"Altenburg, Stadt","type":"Stadt"},"district":{"key":"16077","name":"Altenburger Land","type":"Landkreis"},"federalState":{"key":"16","name":"Thüringen"}},{"name":"An der Bäckerei","postalCode":"04600","locality":"Altenburg","municipality":{"key":"16077001","name":"Altenburg, Stadt","type":"Stadt"},"district":{"key":"16077","name":"Altenburger Land","type":"Landkreis"},"federalState":{"key":"16","name":"Thüringen"}},{"name":"An der Blauen Flut","postalCode":"04600","locality":"Altenburg","municipality":{"key":"16077001","name":"Altenburg, Stadt","type":"Stadt"},"district":{"key":"16077","name":"Altenburger Land","type":"Landkreis"},"federalState":{"key":"16","name":"Thüringen"}},{"name":"An der Glashütte","postalCode":"04600","locality":"Altenburg","municipality":{"key":"16077001","name":"Altenburg, Stadt","type":"Stadt"},"district":{"key":"16077","name":"Altenburger Land","type":"Landkreis"},"federalState":{"key":"16","name":"Thüringen"}},{"name":"An der Hohle","postalCode":"04600","locality":"Altenburg","municipality":{"key":"16077001","name":"Altenburg, Stadt","type":"Stadt"},"district":{"key":"16077","name":"Altenburger Land","type":"Landkreis"},"federalState":{"key":"16","name":"Thüringen"}},{"name":"An der Kirche","postalCode":"04600","locality":"Altenburg","municipality":{"key":"16077001","name":"Altenburg, Stadt","type":"Stadt"},"district":{"key":"16077","name":"Altenburger Land","type":"Landkreis"},"federalState":{"key":"16","name":"Thüringen"}},{"name":"An der Pleiße","postalCode":"04600","locality":"Altenburg","municipality":{"key":"16077001","name":"Altenburg, Stadt","type":"Stadt"},"district":{"key":"16077","name":"Altenburger Land","type":"Landkreis"},"federalState":{"key":"16","name":"Thüringen"}},{"name":"An der Schmiede","postalCode":"04600","locality":"Altenburg","municipality":{"key":"16077001","name":"Altenburg, Stadt","type":"Stadt"},"district":{"key":"16077","name":"Altenburger Land","type":"Landkreis"},"federalState":{"key":"16","name":"Thüringen"}},{"name":"Anger","postalCode":"04600","locality":"Altenburg","municipality":{"key":"16077001","name":"Altenburg, Stadt","type":"Stadt"},"district":{"key":"16077","name":"Altenburger Land","type":"Landkreis"},"federalState":{"key":"16","name":"Thüringen"}},{"name":"Auenstr.","postalCode":"04600","locality":"Altenburg","municipality":{"key":"16077001","name":"Altenburg, Stadt","type":"Stadt"},"district":{"key":"16077","name":"Altenburger Land","type":"Landkreis"},"federalState":{"key":"16","name":"Thüringen"}},{"name":"August-Bebel-Str.","postalCode":"04600","locality":"Altenburg","municipality":{"key":"16077001","name":"Altenburg, Stadt","type":"Stadt"},"district":{"key":"16077","name":"Altenburger Land","type":"Landkreis"},"federalState":{"key":"16","name":"Thüringen"}},{"name":"Bachweg","postalCode":"04600","locality":"Altenburg","municipality":{"key":"16077001","name":"Altenburg, Stadt","type":"Stadt"},"district":{"key":"16077","name":"Altenburger Land","type":"Landkreis"},"federalState":{"key":"16","name":"Thüringen"}},{"name":"Bahnhofstr.","postalCode":"04600","locality":"Altenburg","municipality":{"key":"16077001","name":"Altenburg, Stadt","type":"Stadt"},"district":{"key":"16077","name":"Altenburger Land","type":"Landkreis"},"federalState":{"key":"16","name":"Thüringen"}},{"name":"Barlachstr.","postalCode":"04600","locality":"Altenburg","municipality":{"key":"16077001","name":"Altenburg, Stadt","type":"Stadt"},"district":{"key":"16077","name":"Altenburger Land","type":"Landkreis"},"federalState":{"key":"16","name":"Thüringen"}},{"name":"Bauernweg","postalCode":"04600","locality":"Altenburg","municipality":{"key":"16077001","name":"Altenburg, Stadt","type":"Stadt"},"district":{"key":"16077","name":"Altenburger Land","type":"Landkreis"},"federalState":{"key":"16","name":"Thüringen"}},{"name":"Baumschulenweg","postalCode":"04600","locality":"Altenburg","municipality":{"key":"16077001","name":"Altenburg, Stadt","type":"Stadt"},"district":{"key":"16077","name":"Altenburger Land","type":"Landkreis"},"federalState":{"key":"16","name":"Thüringen"}},{"name":"Bauvereinsstr.","postalCode":"04600","locality":"Altenburg","municipality":{"key":"16077001","name":"Altenburg, Stadt","type":"Stadt"},"district":{"key":"16077","name":"Altenburger Land","type":"Landkreis"},"federalState":{"key":"16","name":"Thüringen"}},{"name":"Beethovenstr.","postalCode":"04600","locality":"Altenburg","municipality":{"key":"16077001","name":"Altenburg, Stadt","type":"Stadt"},"district":{"key":"16077","name":"Altenburger Land","type":"Landkreis"},"federalState":{"key":"16","name":"Thüringen"}},{"name":"Behringstr.","postalCode":"04600","locality":"Altenburg","municipality":{"key":"16077001","name":"Altenburg, Stadt","type":"Stadt"},"district":{"key":"16077","name":"Altenburger Land","type":"Landkreis"},"federalState":{"key":"16","name":"Thüringen"}},{"name":"Bei der Brüderkirche","postalCode":"04600","locality":"Altenburg","municipality":{"key":"16077001","name":"Altenburg, Stadt","type":"Stadt"},"district":{"key":"16077","name":"Altenburger Land","type":"Landkreis"},"federalState":{"key":"16","name":"Thüringen"}},{"name":"Beim Goldenen Pflug","postalCode":"04600","locality":"Altenburg","municipality":{"key":"16077001","name":"Altenburg, Stadt","type":"Stadt"},"district":{"key":"16077","name":"Altenburger Land","type":"Landkreis"},"federalState":{"key":"16","name":"Thüringen"}},{"name":"Berggasse","postalCode":"04600","locality":"Altenburg","municipality":{"key":"16077001","name":"Altenburg, Stadt","type":"Stadt"},"district":{"key":"16077","name":"Altenburger Land","type":"Landkreis"},"federalState":{"key":"16","name":"Thüringen"}},{"name":"Berghäuser","postalCode":"04600","locality":"Altenburg","municipality":{"key":"16077001","name":"Altenburg, Stadt","type":"Stadt"},"district":{"key":"16077","name":"Altenburger Land","type":"Landkreis"},"federalState":{"key":"16","name":"Thüringen"}},{"name":"Bergstr.","postalCode":"04600","locality":"Altenburg","municipality":{"key":"16077001","name":"Altenburg, Stadt","type":"Stadt"},"district":{"key":"16077","name":"Altenburger Land","type":"Landkreis"},"federalState":{"key":"16","name":"Thüringen"}},{"name":"Bertolt-Brecht-Str.","postalCode":"04600","locality":"Altenburg","municipality":{"key":"16077001","name":"Altenburg, Stadt","type":"Stadt"},"district":{"key":"16077","name":"Altenburger Land","type":"Landkreis"},"federalState":{"key":"16","name":"Thüringen"}},{"name":"Birkenstr.","postalCode":"04600","locality":"Altenburg","municipality":{"key":"16077001","name":"Altenburg, Stadt","type":"Stadt"},"district":{"key":"16077","name":"Altenburger Land","type":"Landkreis"},"federalState":{"key":"16","name":"Thüringen"}},{"name":"Blumenstr.","postalCode":"04600","locality":"Altenburg","municipality":{"key":"16077001","name":"Altenburg, Stadt","type":"Stadt"},"district":{"key":"16077","name":"Altenburger Land","type":"Landkreis"},"federalState":{"key":"16","name":"Thüringen"}},{"name":"Bonhoefferstr.","postalCode":"04600","locality":"Altenburg","municipality":{"key":"16077001","name":"Altenburg, Stadt","type":"Stadt"},"district":{"key":"16077","name":"Altenburger Land","type":"Landkreis"},"federalState":{"key":"16","name":"Thüringen"}},{"name":"Borchertstr.","postalCode":"04600","locality":"Altenburg","municipality":{"key":"16077001","name":"Altenburg, Stadt","type":"Stadt"},"district":{"key":"16077","name":"Altenburger Land","type":"Landkreis"},"federalState":{"key":"16","name":"Thüringen"}},{"name":"Borngasse","postalCode":"04600","locality":"Altenburg","municipality":{"key":"16077001","name":"Altenburg, Stadt","type":"Stadt"},"district":{"key":"16077","name":"Altenburger Land","type":"Landkreis"},"federalState":{"key":"16","name":"Thüringen"}},{"name":"Brauereistr.","postalCode":"04600","locality":"Altenburg","municipality":{"key":"16077001","name":"Altenburg, Stadt","type":"Stadt"},"district":{"key":"16077","name":"Altenburger Land","type":"Landkreis"},"federalState":{"key":"16","name":"Thüringen"}},{"name":"Braugartenweg","postalCode":"04600","locality":"Altenburg","municipality":{"key":"16077001","name":"Altenburg, Stadt","type":"Stadt"},"district":{"key":"16077","name":"Altenburger Land","type":"Landkreis"},"federalState":{"key":"16","name":"Thüringen"}},{"name":"Brauhausstr.","postalCode":"04600","locality":"Altenburg","municipality":{"key":"16077001","name":"Altenburg, Stadt","type":"Stadt"},"district":{"key":"16077","name":"Altenburger Land","type":"Landkreis"},"federalState":{"key":"16","name":"Thüringen"}},{"name":"Brehmweg","postalCode":"04600","locality":"Altenburg","municipality":{"key":"16077001","name":"Altenburg, Stadt","type":"Stadt"},"district":{"key":"16077","name":"Altenburger Land","type":"Landkreis"},"federalState":{"key":"16","name":"Thüringen"}},{"name":"Breiter Weg","postalCode":"04600","locality":"Altenburg","municipality":{"key":"16077001","name":"Altenburg, Stadt","type":"Stadt"},"district":{"key":"16077","name":"Altenburger Land","type":"Landkreis"},"federalState":{"key":"16","name":"Thüringen"}},{"name":"Brockhausstr.","postalCode":"04600","locality":"Altenburg","municipality":{"key":"16077001","name":"Altenburg, Stadt","type":"Stadt"},"district":{"key":"16077","name":"Altenburger Land","type":"Landkreis"},"federalState":{"key":"16","name":"Thüringen"}},{"name":"Brückchen","postalCode":"04600","locality":"Altenburg","municipality":{"key":"16077001","name":"Altenburg, Stadt","type":"Stadt"},"district":{"key":"16077","name":"Altenburger Land","type":"Landkreis"},"federalState":{"key":"16","name":"Thüringen"}},{"name":"Brüdergasse","postalCode":"04600","locality":"Altenburg","municipality":{"key":"16077001","name":"Altenburg, Stadt","type":"Stadt"},"district":{"key":"16077","name":"Altenburger Land","type":"Landkreis"},"federalState":{"key":"16","name":"Thüringen"}},{"name":"Brühl","postalCode":"04600","locality":"Altenburg","municipality":{"key":"16077001","name":"Altenburg, Stadt","type":"Stadt"},"district":{"key":"16077","name":"Altenburger Land","type":"Landkreis"},"federalState":{"key":"16","name":"Thüringen"}},{"name":"Brunnenstr.","postalCode":"04600","locality":"Altenburg","municipality":{"key":"16077001","name":"Altenburg, Stadt","type":"Stadt"},"district":{"key":"16077","name":"Altenburger Land","type":"Landkreis"},"federalState":{"key":"16","name":"Thüringen"}},{"name":"Buchenring","postalCode":"04600","locality":"Altenburg","municipality":{"key":"16077001","name":"Altenburg, Stadt","type":"Stadt"},"district":{"key":"16077","name":"Altenburger Land","type":"Landkreis"},"federalState":{"key":"16","name":"Thüringen"}},{"name":"Burgstr.","postalCode":"04600","locality":"Altenburg","municipality":{"key":"16077001","name":"Altenburg, Stadt","type":"Stadt"},"district":{"key":"16077","name":"Altenburger Land","type":"Landkreis"},"federalState":{"key":"16","name":"Thüringen"}},{"name":"Carl-von-Ossietzky-Str.","postalCode":"04600","locality":"Altenburg","municipality":{"key":"16077001","name":"Altenburg, Stadt","type":"Stadt"},"district":{"key":"16077","name":"Altenburger Land","type":"Landkreis"},"federalState":{"key":"16","name":"Thüringen"}},{"name":"Chausseestr.","postalCode":"04600","locality":"Altenburg","municipality":{"key":"16077001","name":"Altenburg, Stadt","type":"Stadt"},"district":{"key":"16077","name":"Altenburger Land","type":"Landkreis"},"federalState":{"key":"16","name":"Thüringen"}},{"name":"Christian-Friedrich-Witt-Str.","postalCode":"04600","locality":"Altenburg","municipality":{"key":"16077001","name":"Altenburg, Stadt","type":"Stadt"},"district":{"key":"16077","name":"Altenburger Land","type":"Landkreis"},"federalState":{"key":"16","name":"Thüringen"}},{"name":"Dahlienring","postalCode":"04600","locality":"Altenburg","municipality":{"key":"16077001","name":"Altenburg, Stadt","type":"Stadt"},"district":{"key":"16077","name":"Altenburger Land","type":"Landkreis"},"federalState":{"key":"16","name":"Thüringen"}},{"name":"Darwinstr.","postalCode":"04600","locality":"Altenburg","municipality":{"key":"16077001","name":"Altenburg, Stadt","type":"Stadt"},"district":{"key":"16077","name":"Altenburger Land","type":"Landkreis"},"federalState":{"key":"16","name":"Thüringen"}},{"name":"Dechanei","postalCode":"04600","locality":"Altenburg","municipality":{"key":"16077001","name":"Altenburg, Stadt","type":"Stadt"},"district":{"key":"16077","name":"Altenburger Land","type":"Landkreis"},"federalState":{"key":"16","name":"Thüringen"}},{"name":"Denkmalring","postalCode":"04600","locality":"Altenburg","municipality":{"key":"16077001","name":"Altenburg, Stadt","type":"Stadt"},"district":{"key":"16077","name":"Altenburger Land","type":"Landkreis"},"federalState":{"key":"16","name":"Thüringen"}},{"name":"Dorfanger","postalCode":"04600","locality":"Altenburg","municipality":{"key":"16077001","name":"Altenburg, Stadt","type":"Stadt"},"district":{"key":"16077","name":"Altenburger Land","type":"Landkreis"},"federalState":{"key":"16","name":"Thüringen"}},{"name":"Dostojewskistr.","postalCode":"04600","locality":"Altenburg","municipality":{"key":"16077001","name":"Altenburg, Stadt","type":"Stadt"},"district":{"key":"16077","name":"Altenburger Land","type":"Landkreis"},"federalState":{"key":"16","name":"Thüringen"}},{"name":"Dreschaer Dorfstr.","postalCode":"04600","locality":"Altenburg","municipality":{"key":"16077001","name":"Altenburg, Stadt","type":"Stadt"},"district":{"key":"16077","name":"Altenburger Land","type":"Landkreis"},"federalState":{"key":"16","name":"Thüringen"}},{"name":"Dreschaer Weg","postalCode":"04600","locality":"Altenburg","municipality":{"key":"16077001","name":"Altenburg, Stadt","type":"Stadt"},"district":{"key":"16077","name":"Altenburger Land","type":"Landkreis"},"federalState":{"key":"16","name":"Thüringen"}},{"name":"Dr.-Wilhelm-Külz-Str.","postalCode":"04600","locality":"Altenburg","municipality":{"key":"16077001","name":"Altenburg, Stadt","type":"Stadt"},"district":{"key":"16077","name":"Altenburger Land","type":"Landkreis"},"federalState":{"key":"16","name":"Thüringen"}},{"name":"Dürerstr.","postalCode":"04600","locality":"Altenburg","municipality":{"key":"16077001","name":"Altenburg, Stadt","type":"Stadt"},"district":{"key":"16077","name":"Altenburger Land","type":"Landkreis"},"federalState":{"key":"16","name":"Thüringen"}},{"name":"Ehrenberger Str.","postalCode":"04600","locality":"Altenburg","municipality":{"key":"16077001","name":"Altenburg, Stadt","type":"Stadt"},"district":{"key":"16077","name":"Altenburger Land","type":"Landkreis"},"federalState":{"key":"16","name":"Thüringen"}},{"name":"Ehrenhainer Str.","postalCode":"04600","locality":"Altenburg","municipality":{"key":"16077001","name":"Altenburg, Stadt","type":"Stadt"},"district":{"key":"16077","name":"Altenburger Land","type":"Landkreis"},"federalState":{"key":"16","name":"Thüringen"}},{"name":"Eisenbahnstr.","postalCode":"04600","locality":"Altenburg","municipality":{"key":"16077001","name":"Altenburg, Stadt","type":"Stadt"},"district":{"key":"16077","name":"Altenburger Land","type":"Landkreis"},"federalState":{"key":"16","name":"Thüringen"}},{"name":"Elfenweg","postalCode":"04600","locality":"Altenburg","municipality":{"key":"16077001","name":"Altenburg, Stadt","type":"Stadt"},"district":{"key":"16077","name":"Altenburger Land","type":"Landkreis"},"federalState":{"key":"16","name":"Thüringen"}},{"name":"Elie-Wiesel-Str.","postalCode":"04600","locality":"Altenburg","municipality":{"key":"16077001","name":"Altenburg, Stadt","type":"Stadt"},"district":{"key":"16077","name":"Altenburger Land","type":"Landkreis"},"federalState":{"key":"16","name":"Thüringen"}},{"name":"Erich-Mäder-Str.","postalCode":"04600","locality":"Altenburg","municipality":{"key":"16077001","name":"Altenburg, Stadt","type":"Stadt"},"district":{"key":"16077","name":"Altenburger Land","type":"Landkreis"},"federalState":{"key":"16","name":"Thüringen"}},{"name":"Eschenstr.","postalCode":"04600","locality":"Altenburg","municipality":{"key":"16077001","name":"Altenburg, Stadt","type":"Stadt"},"district":{"key":"16077","name":"Altenburger Land","type":"Landkreis"},"federalState":{"key":"16","name":"Thüringen"}},{"name":"Eselsweg","postalCode":"04600","locality":"Altenburg","municipality":{"key":"16077001","name":"Altenburg, Stadt","type":"Stadt"},"district":{"key":"16077","name":"Altenburger Land","type":"Landkreis"},"federalState":{"key":"16","name":"Thüringen"}},{"name":"Fabrikstr.","postalCode":"04600","locality":"Altenburg","municipality":{"key":"16077001","name":"Altenburg, Stadt","type":"Stadt"},"district":{"key":"16077","name":"Altenburger Land","type":"Landkreis"},"federalState":{"key":"16","name":"Thüringen"}},{"name":"Falkenplatz","postalCode":"04600","locality":"Altenburg","municipality":{"key":"16077001","name":"Altenburg, Stadt","type":"Stadt"},"district":{"key":"16077","name":"Altenburger Land","type":"Landkreis"},"federalState":{"key":"16","name":"Thüringen"}},{"name":"Feldscheunenweg","postalCode":"04600","locality":"Altenburg","municipality":{"key":"16077001","name":"Altenburg, Stadt","type":"Stadt"},"district":{"key":"16077","name":"Altenburger Land","type":"Landkreis"},"federalState":{"key":"16","name":"Thüringen"}},{"name":"Feldstr.","postalCode":"04600","locality":"Altenburg","municipality":{"key":"16077001","name":"Altenburg, Stadt","type":"Stadt"},"district":{"key":"16077","name":"Altenburger Land","type":"Landkreis"},"federalState":{"key":"16","name":"Thüringen"}},{"name":"Fichtenhainichener Str.","postalCode":"04600","locality":"Altenburg","municipality":{"key":"16077001","name":"Altenburg, Stadt","type":"Stadt"},"district":{"key":"16077","name":"Altenburger Land","type":"Landkreis"},"federalState":{"key":"16","name":"Thüringen"}},{"name":"Fleischergasse","postalCode":"04600","locality":"Altenburg","municipality":{"key":"16077001","name":"Altenburg, Stadt","type":"Stadt"},"district":{"key":"16077","name":"Altenburger Land","type":"Landkreis"},"federalState":{"key":"16","name":"Thüringen"}},{"name":"Franz-Mehring-Str.","postalCode":"04600","locality":"Altenburg","municipality":{"key":"16077001","name":"Altenburg, Stadt","type":"Stadt"},"district":{"key":"16077","name":"Altenburger Land","type":"Landkreis"},"federalState":{"key":"16","name":"Thüringen"}},{"name":"Franzosengraben","postalCode":"04600","locality":"Altenburg","municipality":{"key":"16077001","name":"Altenburg, Stadt","type":"Stadt"},"district":{"key":"16077","name":"Altenburger Land","type":"Landkreis"},"federalState":{"key":"16","name":"Thüringen"}},{"name":"Frauenfelsstr.","postalCode":"04600","locality":"Altenburg","municipality":{"key":"16077001","name":"Altenburg, Stadt","type":"Stadt"},"district":{"key":"16077","name":"Altenburger Land","type":"Landkreis"},"federalState":{"key":"16","name":"Thüringen"}},{"name":"Frauengasse","postalCode":"04600","locality":"Altenburg","municipality":{"key":"16077001","name":"Altenburg, Stadt","type":"Stadt"},"district":{"key":"16077","name":"Altenburger Land","type":"Landkreis"},"federalState":{"key":"16","name":"Thüringen"}},{"name":"Friedrich-Ebert-Str.","postalCode":"04600","locality":"Altenburg","municipality":{"key":"16077001","name":"Altenburg, Stadt","type":"Stadt"},"district":{"key":"16077","name":"Altenburger Land","type":"Landkreis"},"federalState":{"key":"16","name":"Thüringen"}},{"name":"Friedrich-List-Str.","postalCode":"04600","locality":"Altenburg","municipality":{"key":"16077001","name":"Altenburg, Stadt","type":"Stadt"},"district":{"key":"16077","name":"Altenburger Land","type":"Landkreis"},"federalState":{"key":"16","name":"Thüringen"}},{"name":"Friedrich-Wolf-Ring","postalCode":"04600","locality":"Altenburg","municipality":{"key":"16077001","name":"Altenburg, Stadt","type":"Stadt"},"district":{"key":"16077","name":"Altenburger Land","type":"Landkreis"},"federalState":{"key":"16","name":"Thüringen"}},{"name":"Friesenplatz","postalCode":"04600","locality":"Altenburg","municipality":{"key":"16077001","name":"Altenburg, Stadt","type":"Stadt"},"district":{"key":"16077","name":"Altenburger Land","type":"Landkreis"},"federalState":{"key":"16","name":"Thüringen"}},{"name":"Friesenstr.","postalCode":"04600","locality":"Altenburg","municipality":{"key":"16077001","name":"Altenburg, Stadt","type":"Stadt"},"district":{"key":"16077","name":"Altenburger Land","type":"Landkreis"},"federalState":{"key":"16","name":"Thüringen"}},{"name":"Gabelentzstr.","postalCode":"04600","locality":"Altenburg","municipality":{"key":"16077001","name":"Altenburg, Stadt","type":"Stadt"},"district":{"key":"16077","name":"Altenburger Land","type":"Landkreis"},"federalState":{"key":"16","name":"Thüringen"}},{"name":"Gabelsbergerstr.","postalCode":"04600","locality":"Altenburg","municipality":{"key":"16077001","name":"Altenburg, Stadt","type":"Stadt"},"district":{"key":"16077","name":"Altenburger Land","type":"Landkreis"},"federalState":{"key":"16","name":"Thüringen"}},{"name":"Geinitzstr.","postalCode":"04600","locality":"Altenburg","municipality":{"key":"16077001","name":"Altenburg, Stadt","type":"Stadt"},"district":{"key":"16077","name":"Altenburger Land","type":"Landkreis"},"federalState":{"key":"16","name":"Thüringen"}},{"name":"Geraer Str.","postalCode":"04600","locality":"Altenburg","municipality":{"key":"16077001","name":"Altenburg, Stadt","type":"Stadt"},"district":{"key":"16077","name":"Altenburger Land","type":"Landkreis"},"federalState":{"key":"16","name":"Thüringen"}},{"name":"Gerhard-Altenbourg-Str.","postalCode":"04600","locality":"Altenburg","municipality":{"key":"16077001","name":"Altenburg, Stadt","type":"Stadt"},"district":{"key":"16077","name":"Altenburger Land","type":"Landkreis"},"federalState":{"key":"16","name":"Thüringen"}},{"name":"Gerhart-Hauptmann-Str.","postalCode":"04600","locality":"Altenburg","municipality":{"key":"16077001","name":"Altenburg, Stadt","type":"Stadt"},"district":{"key":"16077","name":"Altenburger Land","type":"Landkreis"},"federalState":{"key":"16","name":"Thüringen"}},{"name":"Gerstenberger Str.","postalCode":"04600","locality":"Altenburg","municipality":{"key":"16077001","name":"Altenburg, Stadt","type":"Stadt"},"district":{"key":"16077","name":"Altenburger Land","type":"Landkreis"},"federalState":{"key":"16","name":"Thüringen"}},{"name":"Geschwister-Scholl-Str.","postalCode":"04600","locality":"Altenburg","municipality":{"key":"16077001","name":"Altenburg, Stadt","type":"Stadt"},"district":{"key":"16077","name":"Altenburger Land","type":"Landkreis"},"federalState":{"key":"16","name":"Thüringen"}},{"name":"Giebaer Str.","postalCode":"04600","locality":"Altenburg","municipality":{"key":"16077001","name":"Altenburg, Stadt","type":"Stadt"},"district":{"key":"16077","name":"Altenburger Land","type":"Landkreis"},"federalState":{"key":"16","name":"Thüringen"}},{"name":"Glockengasse","postalCode":"04600","locality":"Altenburg","municipality":{"key":"16077001","name":"Altenburg, Stadt","type":"Stadt"},"district":{"key":"16077","name":"Altenburger Land","type":"Landkreis"},"federalState":{"key":"16","name":"Thüringen"}},{"name":"Goethestr.","postalCode":"04600","locality":"Altenburg","municipality":{"key":"16077001","name":"Altenburg, Stadt","type":"Stadt"},"district":{"key":"16077","name":"Altenburger Land","type":"Landkreis"},"federalState":{"key":"16","name":"Thüringen"}},{"name":"Grabenstr.","postalCode":"04600","locality":"Altenburg","municipality":{"key":"16077001","name":"Altenburg, Stadt","type":"Stadt"},"district":{"key":"16077","name":"Altenburger Land","type":"Landkreis"},"federalState":{"key":"16","name":"Thüringen"}},{"name":"Greipziger Str.","postalCode":"04600","locality":"Altenburg","municipality":{"key":"16077001","name":"Altenburg, Stadt","type":"Stadt"},"district":{"key":"16077","name":"Altenburger Land","type":"Landkreis"},"federalState":{"key":"16","name":"Thüringen"}},{"name":"Greipziger Weg","postalCode":"04600","locality":"Altenburg","municipality":{"key":"16077001","name":"Altenburg, Stadt","type":"Stadt"},"district":{"key":"16077","name":"Altenburger Land","type":"Landkreis"},"federalState":{"key":"16","name":"Thüringen"}},{"name":"Grundweg","postalCode":"04600","locality":"Altenburg","municipality":{"key":"16077001","name":"Altenburg, Stadt","type":"Stadt"},"district":{"key":"16077","name":"Altenburger Land","type":"Landkreis"},"federalState":{"key":"16","name":"Thüringen"}},{"name":"Grüntaler Weg","postalCode":"04600","locality":"Altenburg","municipality":{"key":"16077001","name":"Altenburg, Stadt","type":"Stadt"},"district":{"key":"16077","name":"Altenburger Land","type":"Landkreis"},"federalState":{"key":"16","name":"Thüringen"}},{"name":"Gutenbergstr.","postalCode":"04600","locality":"Altenburg","municipality":{"key":"16077001","name":"Altenburg, Stadt","type":"Stadt"},"district":{"key":"16077","name":"Altenburger Land","type":"Landkreis"},"federalState":{"key":"16","name":"Thüringen"}},{"name":"Haeckelstr.","postalCode":"04600","locality":"Altenburg","municipality":{"key":"16077001","name":"Altenburg, Stadt","type":"Stadt"},"district":{"key":"16077","name":"Altenburger Land","type":"Landkreis"},"federalState":{"key":"16","name":"Thüringen"}},{"name":"Hauptstr.","postalCode":"04600","locality":"Altenburg","municipality":{"key":"16077001","name":"Altenburg, Stadt","type":"Stadt"},"district":{"key":"16077","name":"Altenburger Land","type":"Landkreis"},"federalState":{"key":"16","name":"Thüringen"}},{"name":"Häuslergasse","postalCode":"04600","locality":"Altenburg","municipality":{"key":"16077001","name":"Altenburg, Stadt","type":"Stadt"},"district":{"key":"16077","name":"Altenburger Land","type":"Landkreis"},"federalState":{"key":"16","name":"Thüringen"}},{"name":"Hausweg","postalCode":"04600","locality":"Altenburg","municipality":{"key":"16077001","name":"Altenburg, Stadt","type":"Stadt"},"district":{"key":"16077","name":"Altenburger Land","type":"Landkreis"},"federalState":{"key":"16","name":"Thüringen"}},{"name":"Heinrich-Gottfried-Trost-Weg","postalCode":"04600","locality":"Altenburg","municipality":{"key":"16077001","name":"Altenburg, Stadt","type":"Stadt"},"district":{"key":"16077","name":"Altenburger Land","type":"Landkreis"},"federalState":{"key":"16","name":"Thüringen"}},{"name":"Heinrich-Heine-Str.","postalCode":"04600","locality":"Altenburg","municipality":{"key":"16077001","name":"Altenburg, Stadt","type":"Stadt"},"district":{"key":"16077","name":"Altenburger Land","type":"Landkreis"},"federalState":{"key":"16","name":"Thüringen"}},{"name":"Heinrich-Mann-Str.","postalCode":"04600","locality":"Altenburg","municipality":{"key":"16077001","name":"Altenburg, Stadt","type":"Stadt"},"district":{"key":"16077","name":"Altenburger Land","type":"Landkreis"},"federalState":{"key":"16","name":"Thüringen"}},{"name":"Heinrich-Zille-Str.","postalCode":"04600","locality":"Altenburg","municipality":{"key":"16077001","name":"Altenburg, Stadt","type":"Stadt"},"district":{"key":"16077","name":"Altenburger Land","type":"Landkreis"},"federalState":{"key":"16","name":"Thüringen"}},{"name":"Hellwiese","postalCode":"04600","locality":"Altenburg","municipality":{"key":"16077001","name":"Altenburg, Stadt","type":"Stadt"},"district":{"key":"16077","name":"Altenburger Land","type":"Landkreis"},"federalState":{"key":"16","name":"Thüringen"}},{"name":"Hempelstr.","postalCode":"04600","locality":"Altenburg","municipality":{"key":"16077001","name":"Altenburg, Stadt","type":"Stadt"},"district":{"key":"16077","name":"Altenburger Land","type":"Landkreis"},"federalState":{"key":"16","name":"Thüringen"}},{"name":"Hermann-Schlegel-Str.","postalCode":"04600","locality":"Altenburg","municipality":{"key":"16077001","name":"Altenburg, Stadt","type":"Stadt"},"district":{"key":"16077","name":"Altenburger Land","type":"Landkreis"},"federalState":{"key":"16","name":"Thüringen"}},{"name":"Herzog-Ernst-Platz","postalCode":"04600","locality":"Altenburg","municipality":{"key":"16077001","name":"Altenburg, Stadt","type":"Stadt"},"district":{"key":"16077","name":"Altenburger Land","type":"Landkreis"},"federalState":{"key":"16","name":"Thüringen"}},{"name":"Hillgasse","postalCode":"04600","locality":"Altenburg","municipality":{"key":"16077001","name":"Altenburg, Stadt","type":"Stadt"},"district":{"key":"16077","name":"Altenburger Land","type":"Landkreis"},"federalState":{"key":"16","name":"Thüringen"}},{"name":"Hinter der Waage","postalCode":"04600","locality":"Altenburg","municipality":{"key":"16077001","name":"Altenburg, Stadt","type":"Stadt"},"district":{"key":"16077","name":"Altenburger Land","type":"Landkreis"},"federalState":{"key":"16","name":"Thüringen"}},{"name":"Hirtengasse","postalCode":"04600","locality":"Altenburg","municipality":{"key":"16077001","name":"Altenburg, Stadt","type":"Stadt"},"district":{"key":"16077","name":"Altenburger Land","type":"Landkreis"},"federalState":{"key":"16","name":"Thüringen"}},{"name":"Hohlweg","postalCode":"04600","locality":"Altenburg","municipality":{"key":"16077001","name":"Altenburg, Stadt","type":"Stadt"},"district":{"key":"16077","name":"Altenburger Land","type":"Landkreis"},"federalState":{"key":"16","name":"Thüringen"}},{"name":"Hospitalplatz","postalCode":"04600","locality":"Altenburg","municipality":{"key":"16077001","name":"Altenburg, Stadt","type":"Stadt"},"district":{"key":"16077","name":"Altenburger Land","type":"Landkreis"},"federalState":{"key":"16","name":"Thüringen"}},{"name":"Hospitalstr.","postalCode":"04600","locality":"Altenburg","municipality":{"key":"16077001","name":"Altenburg, Stadt","type":"Stadt"},"district":{"key":"16077","name":"Altenburger Land","type":"Landkreis"},"federalState":{"key":"16","name":"Thüringen"}},{"name":"Humboldtstr.","postalCode":"04600","locality":"Altenburg","municipality":{"key":"16077001","name":"Altenburg, Stadt","type":"Stadt"},"district":{"key":"16077","name":"Altenburger Land","type":"Landkreis"},"federalState":{"key":"16","name":"Thüringen"}},{"name":"Im Gäßchen","postalCode":"04600","locality":"Altenburg","municipality":{"key":"16077001","name":"Altenburg, Stadt","type":"Stadt"},"district":{"key":"16077","name":"Altenburger Land","type":"Landkreis"},"federalState":{"key":"16","name":"Thüringen"}},{"name":"Irisweg","postalCode":"04600","locality":"Altenburg","municipality":{"key":"16077001","name":"Altenburg, Stadt","type":"Stadt"},"district":{"key":"16077","name":"Altenburger Land","type":"Landkreis"},"federalState":{"key":"16","name":"Thüringen"}},{"name":"Jahnplatz","postalCode":"04600","locality":"Altenburg","municipality":{"key":"16077001","name":"Altenburg, Stadt","type":"Stadt"},"district":{"key":"16077","name":"Altenburger Land","type":"Landkreis"},"federalState":{"key":"16","name":"Thüringen"}},{"name":"Jahnstr.","postalCode":"04600","locality":"Altenburg","municipality":{"key":"16077001","name":"Altenburg, Stadt","type":"Stadt"},"district":{"key":"16077","name":"Altenburger Land","type":"Landkreis"},"federalState":{"key":"16","name":"Thüringen"}},{"name":"Johannisgraben","postalCode":"04600","locality":"Altenburg","municipality":{"key":"16077001","name":"Altenburg, Stadt","type":"Stadt"},"district":{"key":"16077","name":"Altenburger Land","type":"Landkreis"},"federalState":{"key":"16","name":"Thüringen"}},{"name":"Johannisstr.","postalCode":"04600","locality":"Altenburg","municipality":{"key":"16077001","name":"Altenburg, Stadt","type":"Stadt"},"district":{"key":"16077","name":"Altenburger Land","type":"Landkreis"},"federalState":{"key":"16","name":"Thüringen"}},{"name":"Johannisvorstadt","postalCode":"04600","locality":"Altenburg","municipality":{"key":"16077001","name":"Altenburg, Stadt","type":"Stadt"},"district":{"key":"16077","name":"Altenburger Land","type":"Landkreis"},"federalState":{"key":"16","name":"Thüringen"}},{"name":"Johann-Sebastian-Bach-Str.","postalCode":"04600","locality":"Altenburg","municipality":{"key":"16077001","name":"Altenburg, Stadt","type":"Stadt"},"district":{"key":"16077","name":"Altenburger Land","type":"Landkreis"},"federalState":{"key":"16","name":"Thüringen"}},{"name":"Jüdengasse","postalCode":"04600","locality":"Altenburg","municipality":{"key":"16077001","name":"Altenburg, Stadt","type":"Stadt"},"district":{"key":"16077","name":"Altenburger Land","type":"Landkreis"},"federalState":{"key":"16","name":"Thüringen"}},{"name":"Julius-Zinkeisen-Str.","postalCode":"04600","locality":"Altenburg","municipality":{"key":"16077001","name":"Altenburg, Stadt","type":"Stadt"},"district":{"key":"16077","name":"Altenburger Land","type":"Landkreis"},"federalState":{"key":"16","name":"Thüringen"}},{"name":"Jungferngasse","postalCode":"04600","locality":"Altenburg","municipality":{"key":"16077001","name":"Altenburg, Stadt","type":"Stadt"},"district":{"key":"16077","name":"Altenburger Land","type":"Landkreis"},"federalState":{"key":"16","name":"Thüringen"}},{"name":"Kanalstr.","postalCode":"04600","locality":"Altenburg","municipality":{"key":"16077001","name":"Altenburg, Stadt","type":"Stadt"},"district":{"key":"16077","name":"Altenburger Land","type":"Landkreis"},"federalState":{"key":"16","name":"Thüringen"}},{"name":"Kastanienstr.","postalCode":"04600","locality":"Altenburg","municipality":{"key":"16077001","name":"Altenburg, Stadt","type":"Stadt"},"district":{"key":"16077","name":"Altenburger Land","type":"Landkreis"},"federalState":{"key":"16","name":"Thüringen"}},{"name":"Käthe-Kollwitz-Str.","postalCode":"04600","locality":"Altenburg","municipality":{"key":"16077001","name":"Altenburg, Stadt","type":"Stadt"},"district":{"key":"16077","name":"Altenburger Land","type":"Landkreis"},"federalState":{"key":"16","name":"Thüringen"}},{"name":"Kauerndorfer Allee","postalCode":"04600","locality":"Altenburg","municipality":{"key":"16077001","name":"Altenburg, Stadt","type":"Stadt"},"district":{"key":"16077","name":"Altenburger Land","type":"Landkreis"},"federalState":{"key":"16","name":"Thüringen"}},{"name":"Keplerplatz","postalCode":"04600","locality":"Altenburg","municipality":{"key":"16077001","name":"Altenburg, Stadt","type":"Stadt"},"district":{"key":"16077","name":"Altenburger Land","type":"Landkreis"},"federalState":{"key":"16","name":"Thüringen"}},{"name":"Kesselgasse","postalCode":"04600","locality":"Altenburg","municipality":{"key":"16077001","name":"Altenburg, Stadt","type":"Stadt"},"district":{"key":"16077","name":"Altenburger Land","type":"Landkreis"},"federalState":{"key":"16","name":"Thüringen"}},{"name":"Kirchberg","postalCode":"04600","locality":"Altenburg","municipality":{"key":"16077001","name":"Altenburg, Stadt","type":"Stadt"},"district":{"key":"16077","name":"Altenburger Land","type":"Landkreis"},"federalState":{"key":"16","name":"Thüringen"}},{"name":"Kirschenweg","postalCode":"04600","locality":"Altenburg","municipality":{"key":"16077001","name":"Altenburg, Stadt","type":"Stadt"},"district":{"key":"16077","name":"Altenburger Land","type":"Landkreis"},"federalState":{"key":"16","name":"Thüringen"}},{"name":"Kleiststr.","postalCode":"04600","locality":"Altenburg","municipality":{"key":"16077001","name":"Altenburg, Stadt","type":"Stadt"},"district":{"key":"16077","name":"Altenburger Land","type":"Landkreis"},"federalState":{"key":"16","name":"Thüringen"}},{"name":"Klostergasse","postalCode":"04600","locality":"Altenburg","municipality":{"key":"16077001","name":"Altenburg, Stadt","type":"Stadt"},"district":{"key":"16077","name":"Altenburger Land","type":"Landkreis"},"federalState":{"key":"16","name":"Thüringen"}},{"name":"Knausche Str.","postalCode":"04600","locality":"Altenburg","municipality":{"key":"16077001","name":"Altenburg, Stadt","type":"Stadt"},"district":{"key":"16077","name":"Altenburger Land","type":"Landkreis"},"federalState":{"key":"16","name":"Thüringen"}},{"name":"Kopernikusstr.","postalCode":"04600","locality":"Altenburg","municipality":{"key":"16077001","name":"Altenburg, Stadt","type":"Stadt"},"district":{"key":"16077","name":"Altenburger Land","type":"Landkreis"},"federalState":{"key":"16","name":"Thüringen"}},{"name":"Körnerstr.","postalCode":"04600","locality":"Altenburg","municipality":{"key":"16077001","name":"Altenburg, Stadt","type":"Stadt"},"district":{"key":"16077","name":"Altenburger Land","type":"Landkreis"},"federalState":{"key":"16","name":"Thüringen"}},{"name":"Kornmarkt","postalCode":"04600","locality":"Altenburg","municipality":{"key":"16077001","name":"Altenburg, Stadt","type":"Stadt"},"district":{"key":"16077","name":"Altenburger Land","type":"Landkreis"},"federalState":{"key":"16","name":"Thüringen"}},{"name":"Kräutrichsgasse","postalCode":"04600","locality":"Altenburg","municipality":{"key":"16077001","name":"Altenburg, Stadt","type":"Stadt"},"district":{"key":"16077","name":"Altenburger Land","type":"Landkreis"},"federalState":{"key":"16","name":"Thüringen"}},{"name":"Kreuzstr.","postalCode":"04600","locality":"Altenburg","municipality":{"key":"16077001","name":"Altenburg, Stadt","type":"Stadt"},"district":{"key":"16077","name":"Altenburger Land","type":"Landkreis"},"federalState":{"key":"16","name":"Thüringen"}},{"name":"Kunstgasse","postalCode":"04600","locality":"Altenburg","municipality":{"key":"16077001","name":"Altenburg, Stadt","type":"Stadt"},"district":{"key":"16077","name":"Altenburger Land","type":"Landkreis"},"federalState":{"key":"16","name":"Thüringen"}},{"name":"Kürbitz","postalCode":"04600","locality":"Altenburg","municipality":{"key":"16077001","name":"Altenburg, Stadt","type":"Stadt"},"district":{"key":"16077","name":"Altenburger Land","type":"Landkreis"},"federalState":{"key":"16","name":"Thüringen"}},{"name":"Kurzer Weg","postalCode":"04600","locality":"Altenburg","municipality":{"key":"16077001","name":"Altenburg, Stadt","type":"Stadt"},"district":{"key":"16077","name":"Altenburger Land","type":"Landkreis"},"federalState":{"key":"16","name":"Thüringen"}},{"name":"Langengasse","postalCode":"04600","locality":"Altenburg","municipality":{"key":"16077001","name":"Altenburg, Stadt","type":"Stadt"},"district":{"key":"16077","name":"Altenburger Land","type":"Landkreis"},"federalState":{"key":"16","name":"Thüringen"}},{"name":"Lehndorfer Str.","postalCode":"04600","locality":"Altenburg","municipality":{"key":"16077001","name":"Altenburg, Stadt","type":"Stadt"},"district":{"key":"16077","name":"Altenburger Land","type":"Landkreis"},"federalState":{"key":"16","name":"Thüringen"}},{"name":"Lehnitzscher Str.","postalCode":"04600","locality":"Altenburg","municipality":{"key":"16077001","name":"Altenburg, Stadt","type":"Stadt"},"district":{"key":"16077","name":"Altenburger Land","type":"Landkreis"},"federalState":{"key":"16","name":"Thüringen"}},{"name":"Leipziger Str.","postalCode":"04600","locality":"Altenburg","municipality":{"key":"16077001","name":"Altenburg, Stadt","type":"Stadt"},"district":{"key":"16077","name":"Altenburger Land","type":"Landkreis"},"federalState":{"key":"16","name":"Thüringen"}},{"name":"Leitergasse","postalCode":"04600","locality":"Altenburg","municipality":{"key":"16077001","name":"Altenburg, Stadt","type":"Stadt"},"district":{"key":"16077","name":"Altenburger Land","type":"Landkreis"},"federalState":{"key":"16","name":"Thüringen"}},{"name":"Leonhard-Frank-Str.","postalCode":"04600","locality":"Altenburg","municipality":{"key":"16077001","name":"Altenburg, Stadt","type":"Stadt"},"district":{"key":"16077","name":"Altenburger Land","type":"Landkreis"},"federalState":{"key":"16","name":"Thüringen"}},{"name":"Lessingstr.","postalCode":"04600","locality":"Altenburg","municipality":{"key":"16077001","name":"Altenburg, Stadt","type":"Stadt"},"district":{"key":"16077","name":"Altenburger Land","type":"Landkreis"},"federalState":{"key":"16","name":"Thüringen"}},{"name":"Liebermannstr.","postalCode":"04600","locality":"Altenburg","municipality":{"key":"16077001","name":"Altenburg, Stadt","type":"Stadt"},"district":{"key":"16077","name":"Altenburger Land","type":"Landkreis"},"federalState":{"key":"16","name":"Thüringen"}},{"name":"Lilienstr.","postalCode":"04600","locality":"Altenburg","municipality":{"key":"16077001","name":"Altenburg, Stadt","type":"Stadt"},"district":{"key":"16077","name":"Altenburger Land","type":"Landkreis"},"federalState":{"key":"16","name":"Thüringen"}},{"name":"Lindenaustr.","postalCode":"04600","locality":"Altenburg","municipality":{"key":"16077001","name":"Altenburg, Stadt","type":"Stadt"},"district":{"key":"16077","name":"Altenburger Land","type":"Landkreis"},"federalState":{"key":"16","name":"Thüringen"}},{"name":"Lindenring","postalCode":"04600","locality":"Altenburg","municipality":{"key":"16077001","name":"Altenburg, Stadt","type":"Stadt"},"district":{"key":"16077","name":"Altenburger Land","type":"Landkreis"},"federalState":{"key":"16","name":"Thüringen"}},{"name":"Lindenweg","postalCode":"04600","locality":"Altenburg","municipality":{"key":"16077001","name":"Altenburg, Stadt","type":"Stadt"},"district":{"key":"16077","name":"Altenburger Land","type":"Landkreis"},"federalState":{"key":"16","name":"Thüringen"}},{"name":"Lossener Str.","postalCode":"04600","locality":"Altenburg","municipality":{"key":"16077001","name":"Altenburg, Stadt","type":"Stadt"},"district":{"key":"16077","name":"Altenburger Land","type":"Landkreis"},"federalState":{"key":"16","name":"Thüringen"}},{"name":"Luckaer Str.","postalCode":"04600","locality":"Altenburg","municipality":{"key":"16077001","name":"Altenburg, Stadt","type":"Stadt"},"district":{"key":"16077","name":"Altenburger Land","type":"Landkreis"},"federalState":{"key":"16","name":"Thüringen"}},{"name":"Ludwig-Hayne-Str.","postalCode":"04600","locality":"Altenburg","municipality":{"key":"16077001","name":"Altenburg, Stadt","type":"Stadt"},"district":{"key":"16077","name":"Altenburger Land","type":"Landkreis"},"federalState":{"key":"16","name":"Thüringen"}},{"name":"Malvenstr.","postalCode":"04600","locality":"Altenburg","municipality":{"key":"16077001","name":"Altenburg, Stadt","type":"Stadt"},"district":{"key":"16077","name":"Altenburger Land","type":"Landkreis"},"federalState":{"key":"16","name":"Thüringen"}},{"name":"Malzberg","postalCode":"04600","locality":"Altenburg","municipality":{"key":"16077001","name":"Altenburg, Stadt","type":"Stadt"},"district":{"key":"16077","name":"Altenburger Land","type":"Landkreis"},"federalState":{"key":"16","name":"Thüringen"}},{"name":"Markt","postalCode":"04600","locality":"Altenburg","municipality":{"key":"16077001","name":"Altenburg, Stadt","type":"Stadt"},"district":{"key":"16077","name":"Altenburger Land","type":"Landkreis"},"federalState":{"key":"16","name":"Thüringen"}},{"name":"Marktgasse","postalCode":"04600","locality":"Altenburg","municipality":{"key":"16077001","name":"Altenburg, Stadt","type":"Stadt"},"district":{"key":"16077","name":"Altenburger Land","type":"Landkreis"},"federalState":{"key":"16","name":"Thüringen"}},{"name":"Marktsteig","postalCode":"04600","locality":"Altenburg","municipality":{"key":"16077001","name":"Altenburg, Stadt","type":"Stadt"},"district":{"key":"16077","name":"Altenburger Land","type":"Landkreis"},"federalState":{"key":"16","name":"Thüringen"}},{"name":"Marstallstr.","postalCode":"04600","locality":"Altenburg","municipality":{"key":"16077001","name":"Altenburg, Stadt","type":"Stadt"},"district":{"key":"16077","name":"Altenburger Land","type":"Landkreis"},"federalState":{"key":"16","name":"Thüringen"}},{"name":"Martin-Luther-Str.","postalCode":"04600","locality":"Altenburg","municipality":{"key":"16077001","name":"Altenburg, Stadt","type":"Stadt"},"district":{"key":"16077","name":"Altenburger Land","type":"Landkreis"},"federalState":{"key":"16","name":"Thüringen"}},{"name":"Mauerstr.","postalCode":"04600","locality":"Altenburg","municipality":{"key":"16077001","name":"Altenburg, Stadt","type":"Stadt"},"district":{"key":"16077","name":"Altenburger Land","type":"Landkreis"},"federalState":{"key":"16","name":"Thüringen"}},{"name":"Meißnerstr.","postalCode":"04600","locality":"Altenburg","municipality":{"key":"16077001","name":"Altenburg, Stadt","type":"Stadt"},"district":{"key":"16077","name":"Altenburger Land","type":"Landkreis"},"federalState":{"key":"16","name":"Thüringen"}},{"name":"Melchior-Bauer-Gasse","postalCode":"04600","locality":"Altenburg","municipality":{"key":"16077001","name":"Altenburg, Stadt","type":"Stadt"},"district":{"key":"16077","name":"Altenburger Land","type":"Landkreis"},"federalState":{"key":"16","name":"Thüringen"}},{"name":"Mittelstr.","postalCode":"04600","locality":"Altenburg","municipality":{"key":"16077001","name":"Altenburg, Stadt","type":"Stadt"},"district":{"key":"16077","name":"Altenburger Land","type":"Landkreis"},"federalState":{"key":"16","name":"Thüringen"}},{"name":"Mockerner Str.","postalCode":"04600","locality":"Altenburg","municipality":{"key":"16077001","name":"Altenburg, Stadt","type":"Stadt"},"district":{"key":"16077","name":"Altenburger Land","type":"Landkreis"},"federalState":{"key":"16","name":"Thüringen"}},{"name":"Mockziger Str.","postalCode":"04600","locality":"Altenburg","municipality":{"key":"16077001","name":"Altenburg, Stadt","type":"Stadt"},"district":{"key":"16077","name":"Altenburger Land","type":"Landkreis"},"federalState":{"key":"16","name":"Thüringen"}},{"name":"Modelwitzer Gasse","postalCode":"04600","locality":"Altenburg","municipality":{"key":"16077001","name":"Altenburg, Stadt","type":"Stadt"},"district":{"key":"16077","name":"Altenburger Land","type":"Landkreis"},"federalState":{"key":"16","name":"Thüringen"}},{"name":"Molbitzer Str.","postalCode":"04600","locality":"Altenburg","municipality":{"key":"16077001","name":"Altenburg, Stadt","type":"Stadt"},"district":{"key":"16077","name":"Altenburger Land","type":"Landkreis"},"federalState":{"key":"16","name":"Thüringen"}},{"name":"Mönchsgasse","postalCode":"04600","locality":"Altenburg","municipality":{"key":"16077001","name":"Altenburg, Stadt","type":"Stadt"},"district":{"key":"16077","name":"Altenburger Land","type":"Landkreis"},"federalState":{"key":"16","name":"Thüringen"}},{"name":"Moritzstr.","postalCode":"04600","locality":"Altenburg","municipality":{"key":"16077001","name":"Altenburg, Stadt","type":"Stadt"},"district":{"key":"16077","name":"Altenburger Land","type":"Landkreis"},"federalState":{"key":"16","name":"Thüringen"}},{"name":"Mozartstr.","postalCode":"04600","locality":"Altenburg","municipality":{"key":"16077001","name":"Altenburg, Stadt","type":"Stadt"},"district":{"key":"16077","name":"Altenburger Land","type":"Landkreis"},"federalState":{"key":"16","name":"Thüringen"}},{"name":"Mühlenstr.","postalCode":"04600","locality":"Altenburg","municipality":{"key":"16077001","name":"Altenburg, Stadt","type":"Stadt"},"district":{"key":"16077","name":"Altenburger Land","type":"Landkreis"},"federalState":{"key":"16","name":"Thüringen"}},{"name":"Mühlpforte","postalCode":"04600","locality":"Altenburg","municipality":{"key":"16077001","name":"Altenburg, Stadt","type":"Stadt"},"district":{"key":"16077","name":"Altenburger Land","type":"Landkreis"},"federalState":{"key":"16","name":"Thüringen"}},{"name":"Münsaer Str.","postalCode":"04600","locality":"Altenburg","municipality":{"key":"16077001","name":"Altenburg, Stadt","type":"Stadt"},"district":{"key":"16077","name":"Altenburger Land","type":"Landkreis"},"federalState":{"key":"16","name":"Thüringen"}},{"name":"Nelkenstr.","postalCode":"04600","locality":"Altenburg","municipality":{"key":"16077001","name":"Altenburg, Stadt","type":"Stadt"},"district":{"key":"16077","name":"Altenburger Land","type":"Landkreis"},"federalState":{"key":"16","name":"Thüringen"}},{"name":"Neuer Weg","postalCode":"04600","locality":"Altenburg","municipality":{"key":"16077001","name":"Altenburg, Stadt","type":"Stadt"},"district":{"key":"16077","name":"Altenburger Land","type":"Landkreis"},"federalState":{"key":"16","name":"Thüringen"}},{"name":"Neue Siedlung","postalCode":"04600","locality":"Altenburg","municipality":{"key":"16077001","name":"Altenburg, Stadt","type":"Stadt"},"district":{"key":"16077","name":"Altenburger Land","type":"Landkreis"},"federalState":{"key":"16","name":"Thüringen"}},{"name":"Neue Sorge","postalCode":"04600","locality":"Altenburg","municipality":{"key":"16077001","name":"Altenburg, Stadt","type":"Stadt"},"district":{"key":"16077","name":"Altenburger Land","type":"Landkreis"},"federalState":{"key":"16","name":"Thüringen"}},{"name":"Neugasse","postalCode":"04600","locality":"Altenburg","municipality":{"key":"16077001","name":"Altenburg, Stadt","type":"Stadt"},"district":{"key":"16077","name":"Altenburger Land","type":"Landkreis"},"federalState":{"key":"16","name":"Thüringen"}},{"name":"Neustadt","postalCode":"04600","locality":"Altenburg","municipality":{"key":"16077001","name":"Altenburg, Stadt","type":"Stadt"},"district":{"key":"16077","name":"Altenburger Land","type":"Landkreis"},"federalState":{"key":"16","name":"Thüringen"}},{"name":"Newtonstr.","postalCode":"04600","locality":"Altenburg","municipality":{"key":"16077001","name":"Altenburg, Stadt","type":"Stadt"},"district":{"key":"16077","name":"Altenburger Land","type":"Landkreis"},"federalState":{"key":"16","name":"Thüringen"}},{"name":"Niemöllerstr.","postalCode":"04600","locality":"Altenburg","municipality":{"key":"16077001","name":"Altenburg, Stadt","type":"Stadt"},"district":{"key":"16077","name":"Altenburger Land","type":"Landkreis"},"federalState":{"key":"16","name":"Thüringen"}},{"name":"Nikolaikirchhof","postalCode":"04600","locality":"Altenburg","municipality":{"key":"16077001","name":"Altenburg, Stadt","type":"Stadt"},"district":{"key":"16077","name":"Altenburger Land","type":"Landkreis"},"federalState":{"key":"16","name":"Thüringen"}},{"name":"Nonnengrund","postalCode":"04600","locality":"Altenburg","municipality":{"key":"16077001","name":"Altenburg, Stadt","type":"Stadt"},"district":{"key":"16077","name":"Altenburger Land","type":"Landkreis"},"federalState":{"key":"16","name":"Thüringen"}},{"name":"Nordplatz","postalCode":"04600","locality":"Altenburg","municipality":{"key":"16077001","name":"Altenburg, Stadt","type":"Stadt"},"district":{"key":"16077","name":"Altenburger Land","type":"Landkreis"},"federalState":{"key":"16","name":"Thüringen"}},{"name":"Nordstr.","postalCode":"04600","locality":"Altenburg","municipality":{"key":"16077001","name":"Altenburg, Stadt","type":"Stadt"},"district":{"key":"16077","name":"Altenburger Land","type":"Landkreis"},"federalState":{"key":"16","name":"Thüringen"}},{"name":"Oberer Wiesenhang","postalCode":"04600","locality":"Altenburg","municipality":{"key":"16077001","name":"Altenburg, Stadt","type":"Stadt"},"district":{"key":"16077","name":"Altenburger Land","type":"Landkreis"},"federalState":{"key":"16","name":"Thüringen"}},{"name":"Oberzetzschaer Str.","postalCode":"04600","locality":"Altenburg","municipality":{"key":"16077001","name":"Altenburg, Stadt","type":"Stadt"},"district":{"key":"16077","name":"Altenburger Land","type":"Landkreis"},"federalState":{"key":"16","name":"Thüringen"}},{"name":"Offenburger Allee","postalCode":"04600","locality":"Altenburg","municipality":{"key":"16077001","name":"Altenburg, Stadt","type":"Stadt"},"district":{"key":"16077","name":"Altenburger Land","type":"Landkreis"},"federalState":{"key":"16","name":"Thüringen"}},{"name":"Otto-Dix-Str.","postalCode":"04600","locality":"Altenburg","municipality":{"key":"16077001","name":"Altenburg, Stadt","type":"Stadt"},"district":{"key":"16077","name":"Altenburger Land","type":"Landkreis"},"federalState":{"key":"16","name":"Thüringen"}},{"name":"Paditzer Fußweg","postalCode":"04600","locality":"Altenburg","municipality":{"key":"16077001","name":"Altenburg, Stadt","type":"Stadt"},"district":{"key":"16077","name":"Altenburger Land","type":"Landkreis"},"federalState":{"key":"16","name":"Thüringen"}},{"name":"Paditzer Str.","postalCode":"04600","locality":"Altenburg","municipality":{"key":"16077001","name":"Altenburg, Stadt","type":"Stadt"},"district":{"key":"16077","name":"Altenburger Land","type":"Landkreis"},"federalState":{"key":"16","name":"Thüringen"}},{"name":"Pappelstr.","postalCode":"04600","locality":"Altenburg","municipality":{"key":"16077001","name":"Altenburg, Stadt","type":"Stadt"},"district":{"key":"16077","name":"Altenburger Land","type":"Landkreis"},"federalState":{"key":"16","name":"Thüringen"}},{"name":"Parkstr.","postalCode":"04600","locality":"Altenburg","municipality":{"key":"16077001","name":"Altenburg, Stadt","type":"Stadt"},"district":{"key":"16077","name":"Altenburger Land","type":"Landkreis"},"federalState":{"key":"16","name":"Thüringen"}},{"name":"Pauritzer Platz","postalCode":"04600","locality":"Altenburg","municipality":{"key":"16077001","name":"Altenburg, Stadt","type":"Stadt"},"district":{"key":"16077","name":"Altenburger Land","type":"Landkreis"},"federalState":{"key":"16","name":"Thüringen"}},{"name":"Pauritzer Str.","postalCode":"04600","locality":"Altenburg","municipality":{"key":"16077001","name":"Altenburg, Stadt","type":"Stadt"},"district":{"key":"16077","name":"Altenburger Land","type":"Landkreis"},"federalState":{"key":"16","name":"Thüringen"}},{"name":"Pestalozzistr.","postalCode":"04600","locality":"Altenburg","municipality":{"key":"16077001","name":"Altenburg, Stadt","type":"Stadt"},"district":{"key":"16077","name":"Altenburger Land","type":"Landkreis"},"federalState":{"key":"16","name":"Thüringen"}},{"name":"Pfarrgasse","postalCode":"04600","locality":"Altenburg","municipality":{"key":"16077001","name":"Altenburg, Stadt","type":"Stadt"},"district":{"key":"16077","name":"Altenburger Land","type":"Landkreis"},"federalState":{"key":"16","name":"Thüringen"}},{"name":"Pfarring","postalCode":"04600","locality":"Altenburg","municipality":{"key":"16077001","name":"Altenburg, Stadt","type":"Stadt"},"district":{"key":"16077","name":"Altenburger Land","type":"Landkreis"},"federalState":{"key":"16","name":"Thüringen"}},{"name":"Piererstr.","postalCode":"04600","locality":"Altenburg","municipality":{"key":"16077001","name":"Altenburg, Stadt","type":"Stadt"},"district":{"key":"16077","name":"Altenburger Land","type":"Landkreis"},"federalState":{"key":"16","name":"Thüringen"}},{"name":"Plankenweg","postalCode":"04600","locality":"Altenburg","municipality":{"key":"16077001","name":"Altenburg, Stadt","type":"Stadt"},"district":{"key":"16077","name":"Altenburger Land","type":"Landkreis"},"federalState":{"key":"16","name":"Thüringen"}},{"name":"Platanenstr.","postalCode":"04600","locality":"Altenburg","municipality":{"key":"16077001","name":"Altenburg, Stadt","type":"Stadt"},"district":{"key":"16077","name":"Altenburger Land","type":"Landkreis"},"federalState":{"key":"16","name":"Thüringen"}},{"name":"Pleißenweg","postalCode":"04600","locality":"Altenburg","municipality":{"key":"16077001","name":"Altenburg, Stadt","type":"Stadt"},"district":{"key":"16077","name":"Altenburger Land","type":"Landkreis"},"federalState":{"key":"16","name":"Thüringen"}},{"name":"Pohlhof","postalCode":"04600","locality":"Altenburg","municipality":{"key":"16077001","name":"Altenburg, Stadt","type":"Stadt"},"district":{"key":"16077","name":"Altenburger Land","type":"Landkreis"},"federalState":{"key":"16","name":"Thüringen"}},{"name":"Pohlhofgasse","postalCode":"04600","locality":"Altenburg","municipality":{"key":"16077001","name":"Altenburg, Stadt","type":"Stadt"},"district":{"key":"16077","name":"Altenburger Land","type":"Landkreis"},"federalState":{"key":"16","name":"Thüringen"}},{"name":"Porphyrstr.","postalCode":"04600","locality":"Altenburg","municipality":{"key":"16077001","name":"Altenburg, Stadt","type":"Stadt"},"district":{"key":"16077","name":"Altenburger Land","type":"Landkreis"},"federalState":{"key":"16","name":"Thüringen"}},{"name":"Poschwitzer Park","postalCode":"04600","locality":"Altenburg","municipality":{"key":"16077001","name":"Altenburg, Stadt","type":"Stadt"},"district":{"key":"16077","name":"Altenburger Land","type":"Landkreis"},"federalState":{"key":"16","name":"Thüringen"}},{"name":"Poschwitzer Str.","postalCode":"04600","locality":"Altenburg","municipality":{"key":"16077001","name":"Altenburg, Stadt","type":"Stadt"},"district":{"key":"16077","name":"Altenburger Land","type":"Landkreis"},"federalState":{"key":"16","name":"Thüringen"}},{"name":"Poststr.","postalCode":"04600","locality":"Altenburg","municipality":{"key":"16077001","name":"Altenburg, Stadt","type":"Stadt"},"district":{"key":"16077","name":"Altenburger Land","type":"Landkreis"},"federalState":{"key":"16","name":"Thüringen"}},{"name":"Priefeler Str.","postalCode":"04600","locality":"Altenburg","municipality":{"key":"16077001","name":"Altenburg, Stadt","type":"Stadt"},"district":{"key":"16077","name":"Altenburger Land","type":"Landkreis"},"federalState":{"key":"16","name":"Thüringen"}},{"name":"Prisselberger Str.","postalCode":"04600","locality":"Altenburg","municipality":{"key":"16077001","name":"Altenburg, Stadt","type":"Stadt"},"district":{"key":"16077","name":"Altenburger Land","type":"Landkreis"},"federalState":{"key":"16","name":"Thüringen"}},{"name":"Puschkinstr.","postalCode":"04600","locality":"Altenburg","municipality":{"key":"16077001","name":"Altenburg, Stadt","type":"Stadt"},"district":{"key":"16077","name":"Altenburger Land","type":"Landkreis"},"federalState":{"key":"16","name":"Thüringen"}},{"name":"Quarzring","postalCode":"04600","locality":"Altenburg","municipality":{"key":"16077001","name":"Altenburg, Stadt","type":"Stadt"},"district":{"key":"16077","name":"Altenburger Land","type":"Landkreis"},"federalState":{"key":"16","name":"Thüringen"}},{"name":"Querstr.","postalCode":"04600","locality":"Altenburg","municipality":{"key":"16077001","name":"Altenburg, Stadt","type":"Stadt"},"district":{"key":"16077","name":"Altenburger Land","type":"Landkreis"},"federalState":{"key":"16","name":"Thüringen"}},{"name":"Rasephaser Dorfanger","postalCode":"04600","locality":"Altenburg","municipality":{"key":"16077001","name":"Altenburg, Stadt","type":"Stadt"},"district":{"key":"16077","name":"Altenburger Land","type":"Landkreis"},"federalState":{"key":"16","name":"Thüringen"}},{"name":"Rasephaser Str.","postalCode":"04600","locality":"Altenburg","municipality":{"key":"16077001","name":"Altenburg, Stadt","type":"Stadt"},"district":{"key":"16077","name":"Altenburger Land","type":"Landkreis"},"federalState":{"key":"16","name":"Thüringen"}},{"name":"Reiherstr.","postalCode":"04600","locality":"Altenburg","municipality":{"key":"16077001","name":"Altenburg, Stadt","type":"Stadt"},"district":{"key":"16077","name":"Altenburger Land","type":"Landkreis"},"federalState":{"key":"16","name":"Thüringen"}},{"name":"Rembrandtstr.","postalCode":"04600","locality":"Altenburg","municipality":{"key":"16077001","name":"Altenburg, Stadt","type":"Stadt"},"district":{"key":"16077","name":"Altenburger Land","type":"Landkreis"},"federalState":{"key":"16","name":"Thüringen"}},{"name":"Remsaer Str.","postalCode":"04600","locality":"Altenburg","municipality":{"key":"16077001","name":"Altenburg, Stadt","type":"Stadt"},"district":{"key":"16077","name":"Altenburger Land","type":"Landkreis"},"federalState":{"key":"16","name":"Thüringen"}},{"name":"Richard-Wagner-Platz","postalCode":"04600","locality":"Altenburg","municipality":{"key":"16077001","name":"Altenburg, Stadt","type":"Stadt"},"district":{"key":"16077","name":"Altenburger Land","type":"Landkreis"},"federalState":{"key":"16","name":"Thüringen"}},{"name":"Riegenstr.","postalCode":"04600","locality":"Altenburg","municipality":{"key":"16077001","name":"Altenburg, Stadt","type":"Stadt"},"district":{"key":"16077","name":"Altenburger Land","type":"Landkreis"},"federalState":{"key":"16","name":"Thüringen"}},{"name":"Ringstr.","postalCode":"04600","locality":"Altenburg","municipality":{"key":"16077001","name":"Altenburg, Stadt","type":"Stadt"},"district":{"key":"16077","name":"Altenburger Land","type":"Landkreis"},"federalState":{"key":"16","name":"Thüringen"}},{"name":"Robert-Koch-Str.","postalCode":"04600","locality":"Altenburg","municipality":{"key":"16077001","name":"Altenburg, Stadt","type":"Stadt"},"district":{"key":"16077","name":"Altenburger Land","type":"Landkreis"},"federalState":{"key":"16","name":"Thüringen"}},{"name":"Rosa-Luxemburg-Str.","postalCode":"04600","locality":"Altenburg","municipality":{"key":"16077001","name":"Altenburg, Stadt","type":"Stadt"},"district":{"key":"16077","name":"Altenburger Land","type":"Landkreis"},"federalState":{"key":"16","name":"Thüringen"}},{"name":"Rosenweg","postalCode":"04600","locality":"Altenburg","municipality":{"key":"16077001","name":"Altenburg, Stadt","type":"Stadt"},"district":{"key":"16077","name":"Altenburger Land","type":"Landkreis"},"federalState":{"key":"16","name":"Thüringen"}},{"name":"Roßplan","postalCode":"04600","locality":"Altenburg","municipality":{"key":"16077001","name":"Altenburg, Stadt","type":"Stadt"},"district":{"key":"16077","name":"Altenburger Land","type":"Landkreis"},"federalState":{"key":"16","name":"Thüringen"}},{"name":"Rousseaustr.","postalCode":"04600","locality":"Altenburg","municipality":{"key":"16077001","name":"Altenburg, Stadt","type":"Stadt"},"district":{"key":"16077","name":"Altenburger Land","type":"Landkreis"},"federalState":{"key":"16","name":"Thüringen"}},{"name":"Rudolf-Breitscheid-Str.","postalCode":"04600","locality":"Altenburg","municipality":{"key":"16077001","name":"Altenburg, Stadt","type":"Stadt"},"district":{"key":"16077","name":"Altenburger Land","type":"Landkreis"},"federalState":{"key":"16","name":"Thüringen"}},{"name":"Runkwitzstr.","postalCode":"04600","locality":"Altenburg","municipality":{"key":"16077001","name":"Altenburg, Stadt","type":"Stadt"},"district":{"key":"16077","name":"Altenburger Land","type":"Landkreis"},"federalState":{"key":"16","name":"Thüringen"}},{"name":"Schelchwitzer Weg","postalCode":"04600","locality":"Altenburg","municipality":{"key":"16077001","name":"Altenburg, Stadt","type":"Stadt"},"district":{"key":"16077","name":"Altenburger Land","type":"Landkreis"},"federalState":{"key":"16","name":"Thüringen"}},{"name":"Schenkenberg","postalCode":"04600","locality":"Altenburg","municipality":{"key":"16077001","name":"Altenburg, Stadt","type":"Stadt"},"district":{"key":"16077","name":"Altenburger Land","type":"Landkreis"},"federalState":{"key":"16","name":"Thüringen"}},{"name":"Schillerstr.","postalCode":"04600","locality":"Altenburg","municipality":{"key":"16077001","name":"Altenburg, Stadt","type":"Stadt"},"district":{"key":"16077","name":"Altenburger Land","type":"Landkreis"},"federalState":{"key":"16","name":"Thüringen"}},{"name":"Schloß","postalCode":"04600","locality":"Altenburg","municipality":{"key":"16077001","name":"Altenburg, Stadt","type":"Stadt"},"district":{"key":"16077","name":"Altenburger Land","type":"Landkreis"},"federalState":{"key":"16","name":"Thüringen"}},{"name":"Schloßberg","postalCode":"04600","locality":"Altenburg","municipality":{"key":"16077001","name":"Altenburg, Stadt","type":"Stadt"},"district":{"key":"16077","name":"Altenburger Land","type":"Landkreis"},"federalState":{"key":"16","name":"Thüringen"}},{"name":"Schlosspark","postalCode":"04600","locality":"Altenburg","municipality":{"key":"16077001","name":"Altenburg, Stadt","type":"Stadt"},"district":{"key":"16077","name":"Altenburger Land","type":"Landkreis"},"federalState":{"key":"16","name":"Thüringen"}},{"name":"Schloßstr.","postalCode":"04600","locality":"Altenburg","municipality":{"key":"16077001","name":"Altenburg, Stadt","type":"Stadt"},"district":{"key":"16077","name":"Altenburger Land","type":"Landkreis"},"federalState":{"key":"16","name":"Thüringen"}},{"name":"Schmaler Weg","postalCode":"04600","locality":"Altenburg","municipality":{"key":"16077001","name":"Altenburg, Stadt","type":"Stadt"},"district":{"key":"16077","name":"Altenburger Land","type":"Landkreis"},"federalState":{"key":"16","name":"Thüringen"}},{"name":"Schmiedegasse","postalCode":"04600","locality":"Altenburg","municipality":{"key":"16077001","name":"Altenburg, Stadt","type":"Stadt"},"district":{"key":"16077","name":"Altenburger Land","type":"Landkreis"},"federalState":{"key":"16","name":"Thüringen"}},{"name":"Schmöllnsche Landstr.","postalCode":"04600","locality":"Altenburg","municipality":{"key":"16077001","name":"Altenburg, Stadt","type":"Stadt"},"district":{"key":"16077","name":"Altenburger Land","type":"Landkreis"},"federalState":{"key":"16","name":"Thüringen"}},{"name":"Schmöllnsche Str.","postalCode":"04600","locality":"Altenburg","municipality":{"key":"16077001","name":"Altenburg, Stadt","type":"Stadt"},"district":{"key":"16077","name":"Altenburger Land","type":"Landkreis"},"federalState":{"key":"16","name":"Thüringen"}},{"name":"Schmöllnsche Vorstadt","postalCode":"04600","locality":"Altenburg","municipality":{"key":"16077001","name":"Altenburg, Stadt","type":"Stadt"},"district":{"key":"16077","name":"Altenburger Land","type":"Landkreis"},"federalState":{"key":"16","name":"Thüringen"}},{"name":"Schulstr.","postalCode":"04600","locality":"Altenburg","municipality":{"key":"16077001","name":"Altenburg, Stadt","type":"Stadt"},"district":{"key":"16077","name":"Altenburger Land","type":"Landkreis"},"federalState":{"key":"16","name":"Thüringen"}},{"name":"Schustergasse","postalCode":"04600","locality":"Altenburg","municipality":{"key":"16077001","name":"Altenburg, Stadt","type":"Stadt"},"district":{"key":"16077","name":"Altenburger Land","type":"Landkreis"},"federalState":{"key":"16","name":"Thüringen"}},{"name":"Schwanenstr.","postalCode":"04600","locality":"Altenburg","municipality":{"key":"16077001","name":"Altenburg, Stadt","type":"Stadt"},"district":{"key":"16077","name":"Altenburger Land","type":"Landkreis"},"federalState":{"key":"16","name":"Thüringen"}},{"name":"Siedlungsring","postalCode":"04600","locality":"Altenburg","municipality":{"key":"16077001","name":"Altenburg, Stadt","type":"Stadt"},"district":{"key":"16077","name":"Altenburger Land","type":"Landkreis"},"federalState":{"key":"16","name":"Thüringen"}},{"name":"Siegfried-Flack-Str.","postalCode":"04600","locality":"Altenburg","municipality":{"key":"16077001","name":"Altenburg, Stadt","type":"Stadt"},"district":{"key":"16077","name":"Altenburger Land","type":"Landkreis"},"federalState":{"key":"16","name":"Thüringen"}},{"name":"Sonnenstr.","postalCode":"04600","locality":"Altenburg","municipality":{"key":"16077001","name":"Altenburg, Stadt","type":"Stadt"},"district":{"key":"16077","name":"Altenburger Land","type":"Landkreis"},"federalState":{"key":"16","name":"Thüringen"}},{"name":"Sophie-Mereau-Weg","postalCode":"04600","locality":"Altenburg","municipality":{"key":"16077001","name":"Altenburg, Stadt","type":"Stadt"},"district":{"key":"16077","name":"Altenburger Land","type":"Landkreis"},"federalState":{"key":"16","name":"Thüringen"}},{"name":"Spalatinpromenade","postalCode":"04600","locality":"Altenburg","municipality":{"key":"16077001","name":"Altenburg, Stadt","type":"Stadt"},"district":{"key":"16077","name":"Altenburger Land","type":"Landkreis"},"federalState":{"key":"16","name":"Thüringen"}},{"name":"Spechtstr.","postalCode":"04600","locality":"Altenburg","municipality":{"key":"16077001","name":"Altenburg, Stadt","type":"Stadt"},"district":{"key":"16077","name":"Altenburger Land","type":"Landkreis"},"federalState":{"key":"16","name":"Thüringen"}},{"name":"Sperberstr.","postalCode":"04600","locality":"Altenburg","municipality":{"key":"16077001","name":"Altenburg, Stadt","type":"Stadt"},"district":{"key":"16077","name":"Altenburger Land","type":"Landkreis"},"federalState":{"key":"16","name":"Thüringen"}},{"name":"Sperlingsberg","postalCode":"04600","locality":"Altenburg","municipality":{"key":"16077001","name":"Altenburg, Stadt","type":"Stadt"},"district":{"key":"16077","name":"Altenburger Land","type":"Landkreis"},"federalState":{"key":"16","name":"Thüringen"}},{"name":"Spiegelgasse","postalCode":"04600","locality":"Altenburg","municipality":{"key":"16077001","name":"Altenburg, Stadt","type":"Stadt"},"district":{"key":"16077","name":"Altenburger Land","type":"Landkreis"},"federalState":{"key":"16","name":"Thüringen"}},{"name":"Spinnbahn","postalCode":"04600","locality":"Altenburg","municipality":{"key":"16077001","name":"Altenburg, Stadt","type":"Stadt"},"district":{"key":"16077","name":"Altenburger Land","type":"Landkreis"},"federalState":{"key":"16","name":"Thüringen"}},{"name":"Spinozastr.","postalCode":"04600","locality":"Altenburg","municipality":{"key":"16077001","name":"Altenburg, Stadt","type":"Stadt"},"district":{"key":"16077","name":"Altenburger Land","type":"Landkreis"},"federalState":{"key":"16","name":"Thüringen"}},{"name":"Spitzweggäßchen","postalCode":"04600","locality":"Altenburg","municipality":{"key":"16077001","name":"Altenburg, Stadt","type":"Stadt"},"district":{"key":"16077","name":"Altenburger Land","type":"Landkreis"},"federalState":{"key":"16","name":"Thüringen"}},{"name":"Stauffenbergstr.","postalCode":"04600","locality":"Altenburg","municipality":{"key":"16077001","name":"Altenburg, Stadt","type":"Stadt"},"district":{"key":"16077","name":"Altenburger Land","type":"Landkreis"},"federalState":{"key":"16","name":"Thüringen"}},{"name":"Steinbergstr.","postalCode":"04600","locality":"Altenburg","municipality":{"key":"16077001","name":"Altenburg, Stadt","type":"Stadt"},"district":{"key":"16077","name":"Altenburger Land","type":"Landkreis"},"federalState":{"key":"16","name":"Thüringen"}},{"name":"Steinweg","postalCode":"04600","locality":"Altenburg","municipality":{"key":"16077001","name":"Altenburg, Stadt","type":"Stadt"},"district":{"key":"16077","name":"Altenburger Land","type":"Landkreis"},"federalState":{"key":"16","name":"Thüringen"}},{"name":"Steinwitz","postalCode":"04600","locality":"Altenburg","municipality":{"key":"16077001","name":"Altenburg, Stadt","type":"Stadt"},"district":{"key":"16077","name":"Altenburger Land","type":"Landkreis"},"federalState":{"key":"16","name":"Thüringen"}},{"name":"Steinwitzer Str.","postalCode":"04600","locality":"Altenburg","municipality":{"key":"16077001","name":"Altenburg, Stadt","type":"Stadt"},"district":{"key":"16077","name":"Altenburger Land","type":"Landkreis"},"federalState":{"key":"16","name":"Thüringen"}},{"name":"Sterlsgasse","postalCode":"04600","locality":"Altenburg","municipality":{"key":"16077001","name":"Altenburg, Stadt","type":"Stadt"},"district":{"key":"16077","name":"Altenburger Land","type":"Landkreis"},"federalState":{"key":"16","name":"Thüringen"}},{"name":"Sternstr.","postalCode":"04600","locality":"Altenburg","municipality":{"key":"16077001","name":"Altenburg, Stadt","type":"Stadt"},"district":{"key":"16077","name":"Altenburger Land","type":"Landkreis"},"federalState":{"key":"16","name":"Thüringen"}},{"name":"Stiftsgraben","postalCode":"04600","locality":"Altenburg","municipality":{"key":"16077001","name":"Altenburg, Stadt","type":"Stadt"},"district":{"key":"16077","name":"Altenburger Land","type":"Landkreis"},"federalState":{"key":"16","name":"Thüringen"}},{"name":"Stünzhainer Str.","postalCode":"04600","locality":"Altenburg","municipality":{"key":"16077001","name":"Altenburg, Stadt","type":"Stadt"},"district":{"key":"16077","name":"Altenburger Land","type":"Landkreis"},"federalState":{"key":"16","name":"Thüringen"}},{"name":"Südstr.","postalCode":"04600","locality":"Altenburg","municipality":{"key":"16077001","name":"Altenburg, Stadt","type":"Stadt"},"district":{"key":"16077","name":"Altenburger Land","type":"Landkreis"},"federalState":{"key":"16","name":"Thüringen"}},{"name":"Talstr.","postalCode":"04600","locality":"Altenburg","municipality":{"key":"16077001","name":"Altenburg, Stadt","type":"Stadt"},"district":{"key":"16077","name":"Altenburger Land","type":"Landkreis"},"federalState":{"key":"16","name":"Thüringen"}},{"name":"Teichplan","postalCode":"04600","locality":"Altenburg","municipality":{"key":"16077001","name":"Altenburg, Stadt","type":"Stadt"},"district":{"key":"16077","name":"Altenburger Land","type":"Landkreis"},"federalState":{"key":"16","name":"Thüringen"}},{"name":"Teichpromenade","postalCode":"04600","locality":"Altenburg","municipality":{"key":"16077001","name":"Altenburg, Stadt","type":"Stadt"},"district":{"key":"16077","name":"Altenburger Land","type":"Landkreis"},"federalState":{"key":"16","name":"Thüringen"}},{"name":"Teichstr.","postalCode":"04600","locality":"Altenburg","municipality":{"key":"16077001","name":"Altenburg, Stadt","type":"Stadt"},"district":{"key":"16077","name":"Altenburger Land","type":"Landkreis"},"federalState":{"key":"16","name":"Thüringen"}},{"name":"Teichvorstadt","postalCode":"04600","locality":"Altenburg","municipality":{"key":"16077001","name":"Altenburg, Stadt","type":"Stadt"},"district":{"key":"16077","name":"Altenburger Land","type":"Landkreis"},"federalState":{"key":"16","name":"Thüringen"}},{"name":"Terrassenstr.","postalCode":"04600","locality":"Altenburg","municipality":{"key":"16077001","name":"Altenburg, Stadt","type":"Stadt"},"district":{"key":"16077","name":"Altenburger Land","type":"Landkreis"},"federalState":{"key":"16","name":"Thüringen"}},{"name":"Theaterplatz","postalCode":"04600","locality":"Altenburg","municipality":{"key":"16077001","name":"Altenburg, Stadt","type":"Stadt"},"district":{"key":"16077","name":"Altenburger Land","type":"Landkreis"},"federalState":{"key":"16","name":"Thüringen"}},{"name":"Theo-Neubauer-Str.","postalCode":"04600","locality":"Altenburg","municipality":{"key":"16077001","name":"Altenburg, Stadt","type":"Stadt"},"district":{"key":"16077","name":"Altenburger Land","type":"Landkreis"},"federalState":{"key":"16","name":"Thüringen"}},{"name":"Thomas-Mann-Siedlung","postalCode":"04600","locality":"Altenburg","municipality":{"key":"16077001","name":"Altenburg, Stadt","type":"Stadt"},"district":{"key":"16077","name":"Altenburger Land","type":"Landkreis"},"federalState":{"key":"16","name":"Thüringen"}},{"name":"Thomas-Müntzer-Siedlung","postalCode":"04600","locality":"Altenburg","municipality":{"key":"16077001","name":"Altenburg, Stadt","type":"Stadt"},"district":{"key":"16077","name":"Altenburger Land","type":"Landkreis"},"federalState":{"key":"16","name":"Thüringen"}},{"name":"Thümmelstr.","postalCode":"04600","locality":"Altenburg","municipality":{"key":"16077001","name":"Altenburg, Stadt","type":"Stadt"},"district":{"key":"16077","name":"Altenburger Land","type":"Landkreis"},"federalState":{"key":"16","name":"Thüringen"}},{"name":"Tischlergasse","postalCode":"04600","locality":"Altenburg","municipality":{"key":"16077001","name":"Altenburg, Stadt","type":"Stadt"},"district":{"key":"16077","name":"Altenburger Land","type":"Landkreis"},"federalState":{"key":"16","name":"Thüringen"}},{"name":"Topfmarkt","postalCode":"04600","locality":"Altenburg","municipality":{"key":"16077001","name":"Altenburg, Stadt","type":"Stadt"},"district":{"key":"16077","name":"Altenburger Land","type":"Landkreis"},"federalState":{"key":"16","name":"Thüringen"}},{"name":"Torgasse","postalCode":"04600","locality":"Altenburg","municipality":{"key":"16077001","name":"Altenburg, Stadt","type":"Stadt"},"district":{"key":"16077","name":"Altenburger Land","type":"Landkreis"},"federalState":{"key":"16","name":"Thüringen"}},{"name":"Treppengasse","postalCode":"04600","locality":"Altenburg","municipality":{"key":"16077001","name":"Altenburg, Stadt","type":"Stadt"},"district":{"key":"16077","name":"Altenburger Land","type":"Landkreis"},"federalState":{"key":"16","name":"Thüringen"}},{"name":"Tulpenstr.","postalCode":"04600","locality":"Altenburg","municipality":{"key":"16077001","name":"Altenburg, Stadt","type":"Stadt"},"district":{"key":"16077","name":"Altenburger Land","type":"Landkreis"},"federalState":{"key":"16","name":"Thüringen"}},{"name":"Turnerstr.","postalCode":"04600","locality":"Altenburg","municipality":{"key":"16077001","name":"Altenburg, Stadt","type":"Stadt"},"district":{"key":"16077","name":"Altenburger Land","type":"Landkreis"},"federalState":{"key":"16","name":"Thüringen"}},{"name":"Uhlandstr.","postalCode":"04600","locality":"Altenburg","municipality":{"key":"16077001","name":"Altenburg, Stadt","type":"Stadt"},"district":{"key":"16077","name":"Altenburger Land","type":"Landkreis"},"federalState":{"key":"16","name":"Thüringen"}},{"name":"Unterer Wiesenhang","postalCode":"04600","locality":"Altenburg","municipality":{"key":"16077001","name":"Altenburg, Stadt","type":"Stadt"},"district":{"key":"16077","name":"Altenburger Land","type":"Landkreis"},"federalState":{"key":"16","name":"Thüringen"}},{"name":"Unterm Schloß","postalCode":"04600","locality":"Altenburg","municipality":{"key":"16077001","name":"Altenburg, Stadt","type":"Stadt"},"district":{"key":"16077","name":"Altenburger Land","type":"Landkreis"},"federalState":{"key":"16","name":"Thüringen"}},{"name":"Viaduktweg","postalCode":"04600","locality":"Altenburg","municipality":{"key":"16077001","name":"Altenburg, Stadt","type":"Stadt"},"district":{"key":"16077","name":"Altenburger Land","type":"Landkreis"},"federalState":{"key":"16","name":"Thüringen"}},{"name":"Waldring","postalCode":"04600","locality":"Altenburg","municipality":{"key":"16077001","name":"Altenburg, Stadt","type":"Stadt"},"district":{"key":"16077","name":"Altenburger Land","type":"Landkreis"},"federalState":{"key":"16","name":"Thüringen"}},{"name":"Wallstr.","postalCode":"04600","locality":"Altenburg","municipality":{"key":"16077001","name":"Altenburg, Stadt","type":"Stadt"},"district":{"key":"16077","name":"Altenburger Land","type":"Landkreis"},"federalState":{"key":"16","name":"Thüringen"}},{"name":"Weibermarkt","postalCode":"04600","locality":"Altenburg","municipality":{"key":"16077001","name":"Altenburg, Stadt","type":"Stadt"},"district":{"key":"16077","name":"Altenburger Land","type":"Landkreis"},"federalState":{"key":"16","name":"Thüringen"}},{"name":"Wenzelstr.","postalCode":"04600","locality":"Altenburg","municipality":{"key":"16077001","name":"Altenburg, Stadt","type":"Stadt"},"district":{"key":"16077","name":"Altenburger Land","type":"Landkreis"},"federalState":{"key":"16","name":"Thüringen"}},{"name":"Weststr.","postalCode":"04600","locality":"Altenburg","municipality":{"key":"16077001","name":"Altenburg, Stadt","type":"Stadt"},"district":{"key":"16077","name":"Altenburger Land","type":"Landkreis"},"federalState":{"key":"16","name":"Thüringen"}},{"name":"Wettinerstr.","postalCode":"04600","locality":"Altenburg","municipality":{"key":"16077001","name":"Altenburg, Stadt","type":"Stadt"},"district":{"key":"16077","name":"Altenburger Land","type":"Landkreis"},"federalState":{"key":"16","name":"Thüringen"}},{"name":"Wielandstr.","postalCode":"04600","locality":"Altenburg","municipality":{"key":"16077001","name":"Altenburg, Stadt","type":"Stadt"},"district":{"key":"16077","name":"Altenburger Land","type":"Landkreis"},"federalState":{"key":"16","name":"Thüringen"}},{"name":"Wiesenweg","postalCode":"04600","locality":"Altenburg","municipality":{"key":"16077001","name":"Altenburg, Stadt","type":"Stadt"},"district":{"key":"16077","name":"Altenburger Land","type":"Landkreis"},"federalState":{"key":"16","name":"Thüringen"}},{"name":"Wilchwitzer Weg","postalCode":"04600","locality":"Altenburg","municipality":{"key":"16077001","name":"Altenburg, Stadt","type":"Stadt"},"district":{"key":"16077","name":"Altenburger Land","type":"Landkreis"},"federalState":{"key":"16","name":"Thüringen"}},{"name":"Winterstr.","postalCode":"04600","locality":"Altenburg","municipality":{"key":"16077001","name":"Altenburg, Stadt","type":"Stadt"},"district":{"key":"16077","name":"Altenburger Land","type":"Landkreis"},"federalState":{"key":"16","name":"Thüringen"}},{"name":"Wolfsgasse","postalCode":"04600","locality":"Altenburg","municipality":{"key":"16077001","name":"Altenburg, Stadt","type":"Stadt"},"district":{"key":"16077","name":"Altenburger Land","type":"Landkreis"},"federalState":{"key":"16","name":"Thüringen"}},{"name":"Zacharias-Kresse-Str.","postalCode":"04600","locality":"Altenburg","municipality":{"key":"16077001","name":"Altenburg, Stadt","type":"Stadt"},"district":{"key":"16077","name":"Altenburger Land","type":"Landkreis"},"federalState":{"key":"16","name":"Thüringen"}},{"name":"Zehmaer Str.","postalCode":"04600","locality":"Altenburg","municipality":{"key":"16077001","name":"Altenburg, Stadt","type":"Stadt"},"district":{"key":"16077","name":"Altenburger Land","type":"Landkreis"},"federalState":{"key":"16","name":"Thüringen"}},{"name":"Zeitzer Str.","postalCode":"04600","locality":"Altenburg","municipality":{"key":"16077001","name":"Altenburg, Stadt","type":"Stadt"},"district":{"key":"16077","name":"Altenburger Land","type":"Landkreis"},"federalState":{"key":"16","name":"Thüringen"}},{"name":"Zick-Zack-Weg","postalCode":"04600","locality":"Altenburg","municipality":{"key":"16077001","name":"Altenburg, Stadt","type":"Stadt"},"district":{"key":"16077","name":"Altenburger Land","type":"Landkreis"},"federalState":{"key":"16","name":"Thüringen"}},{"name":"Ziegelfeldstr.","postalCode":"04600","locality":"Altenburg","municipality":{"key":"16077001","name":"Altenburg, Stadt","type":"Stadt"},"district":{"key":"16077","name":"Altenburger Land","type":"Landkreis"},"federalState":{"key":"16","name":"Thüringen"}},{"name":"Zschaigaer Str.","postalCode":"04600","locality":"Altenburg","municipality":{"key":"16077001","name":"Altenburg, Stadt","type":"Stadt"},"district":{"key":"16077","name":"Altenburger Land","type":"Landkreis"},"federalState":{"key":"16","name":"Thüringen"}},{"name":"Zschechwitzer Weg","postalCode":"04600","locality":"Altenburg","municipality":{"key":"16077001","name":"Altenburg, Stadt","type":"Stadt"},"district":{"key":"16077","name":"Altenburger Land","type":"Landkreis"},"federalState":{"key":"16","name":"Thüringen"}},{"name":"Zschernitzscher Str.","postalCode":"04600","locality":"Altenburg","municipality":{"key":"16077001","name":"Altenburg, Stadt","type":"Stadt"},"district":{"key":"16077","name":"Altenburger Land","type":"Landkreis"},"federalState":{"key":"16","name":"Thüringen"}},{"name":"Zschernitzscher Weg","postalCode":"04600","locality":"Altenburg","municipality":{"key":"16077001","name":"Altenburg, Stadt","type":"Stadt"},"district":{"key":"16077","name":"Altenburger Land","type":"Landkreis"},"federalState":{"key":"16","name":"Thüringen"}},{"name":"Zum Mühlhof","postalCode":"04600","locality":"Altenburg","municipality":{"key":"16077001","name":"Altenburg, Stadt","type":"Stadt"},"district":{"key":"16077","name":"Altenburger Land","type":"Landkreis"},"federalState":{"key":"16","name":"Thüringen"}},{"name":"Zum Wiesengrund","postalCode":"04600","locality":"Altenburg","municipality":{"key":"16077001","name":"Altenburg, Stadt","type":"Stadt"},"district":{"key":"16077","name":"Altenburger Land","type":"Landkreis"},"federalState":{"key":"16","name":"Thüringen"}},{"name":"Zur Alten Ziegelei","postalCode":"04600","locality":"Altenburg","municipality":{"key":"16077001","name":"Altenburg, Stadt","type":"Stadt"},"district":{"key":"16077","name":"Altenburger Land","type":"Landkreis"},"federalState":{"key":"16","name":"Thüringen"}},{"name":"Zur Fasanerie","postalCode":"04600","locality":"Altenburg","municipality":{"key":"16077001","name":"Altenburg, Stadt","type":"Stadt"},"district":{"key":"16077","name":"Altenburger Land","type":"Landkreis"},"federalState":{"key":"16","name":"Thüringen"}},{"name":"Zur Goldenen Glucke","postalCode":"04600","locality":"Altenburg","municipality":{"key":"16077001","name":"Altenburg, Stadt","type":"Stadt"},"district":{"key":"16077","name":"Altenburger Land","type":"Landkreis"},"federalState":{"key":"16","name":"Thüringen"}},{"name":"Zwickauer Str.","postalCode":"04600","locality":"Altenburg","municipality":{"key":"16077001","name":"Altenburg, Stadt","type":"Stadt"},"district":{"key":"16077","name":"Altenburger Land","type":"Landkreis"},"federalState":{"key":"16","name":"Thüringen"}},]