[{"name":"Am Oberstein","postalCode":"67715","locality":"Geiselberg","municipality":{"key":"07340012","name":"Geiselberg","type":"Kreisangehörige_Gemeinde"},"district":{"key":"07340","name":"Südwestpfalz","type":"Landkreis"},"federalState":{"key":"07","name":"Rheinland-Pfalz"}},{"name":"Friedhofstr.","postalCode":"67715","locality":"Geiselberg","municipality":{"key":"07340012","name":"Geiselberg","type":"Kreisangehörige_Gemeinde"},"district":{"key":"07340","name":"Südwestpfalz","type":"Landkreis"},"federalState":{"key":"07","name":"Rheinland-Pfalz"}},{"name":"Gartenstr.","postalCode":"67715","locality":"Geiselberg","municipality":{"key":"07340012","name":"Geiselberg","type":"Kreisangehörige_Gemeinde"},"district":{"key":"07340","name":"Südwestpfalz","type":"Landkreis"},"federalState":{"key":"07","name":"Rheinland-Pfalz"}},{"name":"Hauptstr.","postalCode":"67715","locality":"Geiselberg","municipality":{"key":"07340012","name":"Geiselberg","type":"Kreisangehörige_Gemeinde"},"district":{"key":"07340","name":"Südwestpfalz","type":"Landkreis"},"federalState":{"key":"07","name":"Rheinland-Pfalz"}},{"name":"Hirschalbstr.","postalCode":"67715","locality":"Geiselberg","municipality":{"key":"07340012","name":"Geiselberg","type":"Kreisangehörige_Gemeinde"},"district":{"key":"07340","name":"Südwestpfalz","type":"Landkreis"},"federalState":{"key":"07","name":"Rheinland-Pfalz"}},{"name":"Im Börnersfeld","postalCode":"67715","locality":"Geiselberg","municipality":{"key":"07340012","name":"Geiselberg","type":"Kreisangehörige_Gemeinde"},"district":{"key":"07340","name":"Südwestpfalz","type":"Landkreis"},"federalState":{"key":"07","name":"Rheinland-Pfalz"}},{"name":"Im Eck","postalCode":"67715","locality":"Geiselberg","municipality":{"key":"07340012","name":"Geiselberg","type":"Kreisangehörige_Gemeinde"},"district":{"key":"07340","name":"Südwestpfalz","type":"Landkreis"},"federalState":{"key":"07","name":"Rheinland-Pfalz"}},{"name":"Im Flürchen","postalCode":"67715","locality":"Geiselberg","municipality":{"key":"07340012","name":"Geiselberg","type":"Kreisangehörige_Gemeinde"},"district":{"key":"07340","name":"Südwestpfalz","type":"Landkreis"},"federalState":{"key":"07","name":"Rheinland-Pfalz"}},{"name":"Im Weißenfeld","postalCode":"67715","locality":"Geiselberg","municipality":{"key":"07340012","name":"Geiselberg","type":"Kreisangehörige_Gemeinde"},"district":{"key":"07340","name":"Südwestpfalz","type":"Landkreis"},"federalState":{"key":"07","name":"Rheinland-Pfalz"}},{"name":"Lindenstr.","postalCode":"67715","locality":"Geiselberg","municipality":{"key":"07340012","name":"Geiselberg","type":"Kreisangehörige_Gemeinde"},"district":{"key":"07340","name":"Südwestpfalz","type":"Landkreis"},"federalState":{"key":"07","name":"Rheinland-Pfalz"}},{"name":"Schulstr.","postalCode":"67715","locality":"Geiselberg","municipality":{"key":"07340012","name":"Geiselberg","type":"Kreisangehörige_Gemeinde"},"district":{"key":"07340","name":"Südwestpfalz","type":"Landkreis"},"federalState":{"key":"07","name":"Rheinland-Pfalz"}},{"name":"Seebergstr.","postalCode":"67715","locality":"Geiselberg","municipality":{"key":"07340012","name":"Geiselberg","type":"Kreisangehörige_Gemeinde"},"district":{"key":"07340","name":"Südwestpfalz","type":"Landkreis"},"federalState":{"key":"07","name":"Rheinland-Pfalz"}},{"name":"Waldstr.","postalCode":"67715","locality":"Geiselberg","municipality":{"key":"07340012","name":"Geiselberg","type":"Kreisangehörige_Gemeinde"},"district":{"key":"07340","name":"Südwestpfalz","type":"Landkreis"},"federalState":{"key":"07","name":"Rheinland-Pfalz"}},{"name":"Weishof","postalCode":"67715","locality":"Geiselberg","municipality":{"key":"07340012","name":"Geiselberg","type":"Kreisangehörige_Gemeinde"},"district":{"key":"07340","name":"Südwestpfalz","type":"Landkreis"},"federalState":{"key":"07","name":"Rheinland-Pfalz"}},{"name":"Wiesenhalde","postalCode":"67715","locality":"Geiselberg","municipality":{"key":"07340012","name":"Geiselberg","type":"Kreisangehörige_Gemeinde"},"district":{"key":"07340","name":"Südwestpfalz","type":"Landkreis"},"federalState":{"key":"07","name":"Rheinland-Pfalz"}},]