[{"name":"18.-März-Str.","postalCode":"99867","locality":"Gotha","municipality":{"key":"16067029","name":"Gotha, Stadt","type":"Stadt"},"district":{"key":"16067","name":"Gotha","type":"Landkreis"},"federalState":{"key":"16","name":"Thüringen"}},{"name":"Am Dorfgraben","postalCode":"99869","locality":"Sonneborn","municipality":{"key":"16067063","name":"Sonneborn","type":"Kreisangehörige_Gemeinde"},"district":{"key":"16067","name":"Gotha","type":"Landkreis"},"federalState":{"key":"16","name":"Thüringen"}},{"name":"Am Rabtal","postalCode":"99869","locality":"Sonneborn","municipality":{"key":"16067063","name":"Sonneborn","type":"Kreisangehörige_Gemeinde"},"district":{"key":"16067","name":"Gotha","type":"Landkreis"},"federalState":{"key":"16","name":"Thüringen"}},{"name":"Breite Str.","postalCode":"99869","locality":"Sonneborn","municipality":{"key":"16067063","name":"Sonneborn","type":"Kreisangehörige_Gemeinde"},"district":{"key":"16067","name":"Gotha","type":"Landkreis"},"federalState":{"key":"16","name":"Thüringen"}},{"name":"Carl-Vogel-Weg","postalCode":"99867","locality":"Gotha","municipality":{"key":"16067029","name":"Gotha, Stadt","type":"Stadt"},"district":{"key":"16067","name":"Gotha","type":"Landkreis"},"federalState":{"key":"16","name":"Thüringen"}},{"name":"Carl-von-Ossietzky-Str.","postalCode":"99867","locality":"Gotha","municipality":{"key":"16067029","name":"Gotha, Stadt","type":"Stadt"},"district":{"key":"16067","name":"Gotha","type":"Landkreis"},"federalState":{"key":"16","name":"Thüringen"}},{"name":"Clara-Zetkin-Str.","postalCode":"99867","locality":"Gotha","municipality":{"key":"16067029","name":"Gotha, Stadt","type":"Stadt"},"district":{"key":"16067","name":"Gotha","type":"Landkreis"},"federalState":{"key":"16","name":"Thüringen"}},{"name":"Cobstädter Weg","postalCode":"99867","locality":"Gotha","municipality":{"key":"16067029","name":"Gotha, Stadt","type":"Stadt"},"district":{"key":"16067","name":"Gotha","type":"Landkreis"},"federalState":{"key":"16","name":"Thüringen"}},{"name":"Cosmarstr.","postalCode":"99867","locality":"Gotha","municipality":{"key":"16067029","name":"Gotha, Stadt","type":"Stadt"},"district":{"key":"16067","name":"Gotha","type":"Landkreis"},"federalState":{"key":"16","name":"Thüringen"}},{"name":"Dr.-Wilhelm-Külz-Str.","postalCode":"99869","locality":"Sonneborn","municipality":{"key":"16067063","name":"Sonneborn","type":"Kreisangehörige_Gemeinde"},"district":{"key":"16067","name":"Gotha","type":"Landkreis"},"federalState":{"key":"16","name":"Thüringen"}},{"name":"Eberstädter Str.","postalCode":"99869","locality":"Sonneborn","municipality":{"key":"16067063","name":"Sonneborn","type":"Kreisangehörige_Gemeinde"},"district":{"key":"16067","name":"Gotha","type":"Landkreis"},"federalState":{"key":"16","name":"Thüringen"}},{"name":"Enge Gasse","postalCode":"99869","locality":"Sonneborn","municipality":{"key":"16067063","name":"Sonneborn","type":"Kreisangehörige_Gemeinde"},"district":{"key":"16067","name":"Gotha","type":"Landkreis"},"federalState":{"key":"16","name":"Thüringen"}},{"name":"Friedrichswerther Str.","postalCode":"99869","locality":"Sonneborn","municipality":{"key":"16067063","name":"Sonneborn","type":"Kreisangehörige_Gemeinde"},"district":{"key":"16067","name":"Gotha","type":"Landkreis"},"federalState":{"key":"16","name":"Thüringen"}},{"name":"Goldbacher Weg","postalCode":"99869","locality":"Sonneborn","municipality":{"key":"16067063","name":"Sonneborn","type":"Kreisangehörige_Gemeinde"},"district":{"key":"16067","name":"Gotha","type":"Landkreis"},"federalState":{"key":"16","name":"Thüringen"}},{"name":"Gothaer Str.","postalCode":"99869","locality":"Sonneborn","municipality":{"key":"16067063","name":"Sonneborn","type":"Kreisangehörige_Gemeinde"},"district":{"key":"16067","name":"Gotha","type":"Landkreis"},"federalState":{"key":"16","name":"Thüringen"}},{"name":"Gothaer Weg","postalCode":"99869","locality":"Sonneborn","municipality":{"key":"16067063","name":"Sonneborn","type":"Kreisangehörige_Gemeinde"},"district":{"key":"16067","name":"Gotha","type":"Landkreis"},"federalState":{"key":"16","name":"Thüringen"}},{"name":"Grethengasse","postalCode":"99869","locality":"Sonneborn","municipality":{"key":"16067063","name":"Sonneborn","type":"Kreisangehörige_Gemeinde"},"district":{"key":"16067","name":"Gotha","type":"Landkreis"},"federalState":{"key":"16","name":"Thüringen"}},{"name":"Großer Anger","postalCode":"99869","locality":"Sonneborn","municipality":{"key":"16067063","name":"Sonneborn","type":"Kreisangehörige_Gemeinde"},"district":{"key":"16067","name":"Gotha","type":"Landkreis"},"federalState":{"key":"16","name":"Thüringen"}},{"name":"Haulacher Weg","postalCode":"99869","locality":"Sonneborn","municipality":{"key":"16067063","name":"Sonneborn","type":"Kreisangehörige_Gemeinde"},"district":{"key":"16067","name":"Gotha","type":"Landkreis"},"federalState":{"key":"16","name":"Thüringen"}},{"name":"Herrenstr.","postalCode":"99869","locality":"Sonneborn","municipality":{"key":"16067063","name":"Sonneborn","type":"Kreisangehörige_Gemeinde"},"district":{"key":"16067","name":"Gotha","type":"Landkreis"},"federalState":{"key":"16","name":"Thüringen"}},{"name":"Hohe Str.","postalCode":"99869","locality":"Sonneborn","municipality":{"key":"16067063","name":"Sonneborn","type":"Kreisangehörige_Gemeinde"},"district":{"key":"16067","name":"Gotha","type":"Landkreis"},"federalState":{"key":"16","name":"Thüringen"}},{"name":"Ida-Koch-Weg","postalCode":"99867","locality":"Gotha","municipality":{"key":"16067029","name":"Gotha, Stadt","type":"Stadt"},"district":{"key":"16067","name":"Gotha","type":"Landkreis"},"federalState":{"key":"16","name":"Thüringen"}},{"name":"Ifflandstr.","postalCode":"99867","locality":"Gotha","municipality":{"key":"16067029","name":"Gotha, Stadt","type":"Stadt"},"district":{"key":"16067","name":"Gotha","type":"Landkreis"},"federalState":{"key":"16","name":"Thüringen"}},{"name":"In der Güldenen Aue","postalCode":"99867","locality":"Gotha","municipality":{"key":"16067029","name":"Gotha, Stadt","type":"Stadt"},"district":{"key":"16067","name":"Gotha","type":"Landkreis"},"federalState":{"key":"16","name":"Thüringen"}},{"name":"In der Klinge","postalCode":"99867","locality":"Gotha","municipality":{"key":"16067029","name":"Gotha, Stadt","type":"Stadt"},"district":{"key":"16067","name":"Gotha","type":"Landkreis"},"federalState":{"key":"16","name":"Thüringen"}},{"name":"Inselsbergstr.","postalCode":"99867","locality":"Gotha","municipality":{"key":"16067029","name":"Gotha, Stadt","type":"Stadt"},"district":{"key":"16067","name":"Gotha","type":"Landkreis"},"federalState":{"key":"16","name":"Thüringen"}},{"name":"Jägergasse","postalCode":"99867","locality":"Gotha","municipality":{"key":"16067029","name":"Gotha, Stadt","type":"Stadt"},"district":{"key":"16067","name":"Gotha","type":"Landkreis"},"federalState":{"key":"16","name":"Thüringen"}},{"name":"Jägerstr.","postalCode":"99867","locality":"Gotha","municipality":{"key":"16067029","name":"Gotha, Stadt","type":"Stadt"},"district":{"key":"16067","name":"Gotha","type":"Landkreis"},"federalState":{"key":"16","name":"Thüringen"}},{"name":"Jenzschstr.","postalCode":"99867","locality":"Gotha","municipality":{"key":"16067029","name":"Gotha, Stadt","type":"Stadt"},"district":{"key":"16067","name":"Gotha","type":"Landkreis"},"federalState":{"key":"16","name":"Thüringen"}},{"name":"Johannesgasse","postalCode":"99867","locality":"Gotha","municipality":{"key":"16067029","name":"Gotha, Stadt","type":"Stadt"},"district":{"key":"16067","name":"Gotha","type":"Landkreis"},"federalState":{"key":"16","name":"Thüringen"}},{"name":"Johannesstr.","postalCode":"99867","locality":"Gotha","municipality":{"key":"16067029","name":"Gotha, Stadt","type":"Stadt"},"district":{"key":"16067","name":"Gotha","type":"Landkreis"},"federalState":{"key":"16","name":"Thüringen"}},{"name":"Joseph-Meyer-Str.","postalCode":"99867","locality":"Gotha","municipality":{"key":"16067029","name":"Gotha, Stadt","type":"Stadt"},"district":{"key":"16067","name":"Gotha","type":"Landkreis"},"federalState":{"key":"16","name":"Thüringen"}},{"name":"Jüdenstr.","postalCode":"99867","locality":"Gotha","municipality":{"key":"16067029","name":"Gotha, Stadt","type":"Stadt"},"district":{"key":"16067","name":"Gotha","type":"Landkreis"},"federalState":{"key":"16","name":"Thüringen"}},{"name":"Julius-Bertuch-Str.","postalCode":"99867","locality":"Gotha","municipality":{"key":"16067029","name":"Gotha, Stadt","type":"Stadt"},"district":{"key":"16067","name":"Gotha","type":"Landkreis"},"federalState":{"key":"16","name":"Thüringen"}},{"name":"Juri-Gagarin-Str.","postalCode":"99867","locality":"Gotha","municipality":{"key":"16067029","name":"Gotha, Stadt","type":"Stadt"},"district":{"key":"16067","name":"Gotha","type":"Landkreis"},"federalState":{"key":"16","name":"Thüringen"}},{"name":"Justus-Perthes-Str.","postalCode":"99867","locality":"Gotha","municipality":{"key":"16067029","name":"Gotha, Stadt","type":"Stadt"},"district":{"key":"16067","name":"Gotha","type":"Landkreis"},"federalState":{"key":"16","name":"Thüringen"}},{"name":"Kirchgasse","postalCode":"99869","locality":"Sonneborn","municipality":{"key":"16067063","name":"Sonneborn","type":"Kreisangehörige_Gemeinde"},"district":{"key":"16067","name":"Gotha","type":"Landkreis"},"federalState":{"key":"16","name":"Thüringen"}},{"name":"Kleiner Anger","postalCode":"99869","locality":"Sonneborn","municipality":{"key":"16067063","name":"Sonneborn","type":"Kreisangehörige_Gemeinde"},"district":{"key":"16067","name":"Gotha","type":"Landkreis"},"federalState":{"key":"16","name":"Thüringen"}},{"name":"Landgraf-Balthasar-Weg","postalCode":"99867","locality":"Gotha","municipality":{"key":"16067029","name":"Gotha, Stadt","type":"Stadt"},"district":{"key":"16067","name":"Gotha","type":"Landkreis"},"federalState":{"key":"16","name":"Thüringen"}},{"name":"Landhaus","postalCode":"99867","locality":"Gotha","municipality":{"key":"16067029","name":"Gotha, Stadt","type":"Stadt"},"district":{"key":"16067","name":"Gotha","type":"Landkreis"},"federalState":{"key":"16","name":"Thüringen"}},{"name":"Lange Gasse","postalCode":"99867","locality":"Gotha","municipality":{"key":"16067029","name":"Gotha, Stadt","type":"Stadt"},"district":{"key":"16067","name":"Gotha","type":"Landkreis"},"federalState":{"key":"16","name":"Thüringen"}},{"name":"Langensalzaer Str.","postalCode":"99867","locality":"Gotha","municipality":{"key":"16067029","name":"Gotha, Stadt","type":"Stadt"},"district":{"key":"16067","name":"Gotha","type":"Landkreis"},"federalState":{"key":"16","name":"Thüringen"}},{"name":"Lassallestr.","postalCode":"99867","locality":"Gotha","municipality":{"key":"16067029","name":"Gotha, Stadt","type":"Stadt"},"district":{"key":"16067","name":"Gotha","type":"Landkreis"},"federalState":{"key":"16","name":"Thüringen"}},{"name":"Leesenstr.","postalCode":"99867","locality":"Gotha","municipality":{"key":"16067029","name":"Gotha, Stadt","type":"Stadt"},"district":{"key":"16067","name":"Gotha","type":"Landkreis"},"federalState":{"key":"16","name":"Thüringen"}},{"name":"Leinastr.","postalCode":"99867","locality":"Gotha","municipality":{"key":"16067029","name":"Gotha, Stadt","type":"Stadt"},"district":{"key":"16067","name":"Gotha","type":"Landkreis"},"federalState":{"key":"16","name":"Thüringen"}},{"name":"Leinefelder Str.","postalCode":"99867","locality":"Gotha","municipality":{"key":"16067029","name":"Gotha, Stadt","type":"Stadt"},"district":{"key":"16067","name":"Gotha","type":"Landkreis"},"federalState":{"key":"16","name":"Thüringen"}},{"name":"Lenaustr.","postalCode":"99867","locality":"Gotha","municipality":{"key":"16067029","name":"Gotha, Stadt","type":"Stadt"},"district":{"key":"16067","name":"Gotha","type":"Landkreis"},"federalState":{"key":"16","name":"Thüringen"}},{"name":"Lerchenweg","postalCode":"99867","locality":"Gotha","municipality":{"key":"16067029","name":"Gotha, Stadt","type":"Stadt"},"district":{"key":"16067","name":"Gotha","type":"Landkreis"},"federalState":{"key":"16","name":"Thüringen"}},{"name":"Lessingstr.","postalCode":"99867","locality":"Gotha","municipality":{"key":"16067029","name":"Gotha, Stadt","type":"Stadt"},"district":{"key":"16067","name":"Gotha","type":"Landkreis"},"federalState":{"key":"16","name":"Thüringen"}},{"name":"Liebetraustr.","postalCode":"99867","locality":"Gotha","municipality":{"key":"16067029","name":"Gotha, Stadt","type":"Stadt"},"district":{"key":"16067","name":"Gotha","type":"Landkreis"},"federalState":{"key":"16","name":"Thüringen"}},{"name":"Lindemannstr.","postalCode":"99867","locality":"Gotha","municipality":{"key":"16067029","name":"Gotha, Stadt","type":"Stadt"},"district":{"key":"16067","name":"Gotha","type":"Landkreis"},"federalState":{"key":"16","name":"Thüringen"}},{"name":"Lindenauallee","postalCode":"99867","locality":"Gotha","municipality":{"key":"16067029","name":"Gotha, Stadt","type":"Stadt"},"district":{"key":"16067","name":"Gotha","type":"Landkreis"},"federalState":{"key":"16","name":"Thüringen"}},{"name":"Lindenweg","postalCode":"99867","locality":"Gotha","municipality":{"key":"16067029","name":"Gotha, Stadt","type":"Stadt"},"district":{"key":"16067","name":"Gotha","type":"Landkreis"},"federalState":{"key":"16","name":"Thüringen"}},{"name":"Lothringer Str.","postalCode":"99867","locality":"Gotha","municipality":{"key":"16067029","name":"Gotha, Stadt","type":"Stadt"},"district":{"key":"16067","name":"Gotha","type":"Landkreis"},"federalState":{"key":"16","name":"Thüringen"}},{"name":"Lucas-Cranach-Str.","postalCode":"99867","locality":"Gotha","municipality":{"key":"16067029","name":"Gotha, Stadt","type":"Stadt"},"district":{"key":"16067","name":"Gotha","type":"Landkreis"},"federalState":{"key":"16","name":"Thüringen"}},{"name":"Ludwig-Jahn-Str.","postalCode":"99867","locality":"Gotha","municipality":{"key":"16067029","name":"Gotha, Stadt","type":"Stadt"},"district":{"key":"16067","name":"Gotha","type":"Landkreis"},"federalState":{"key":"16","name":"Thüringen"}},{"name":"Ludwig-Storch-Weg","postalCode":"99867","locality":"Gotha","municipality":{"key":"16067029","name":"Gotha, Stadt","type":"Stadt"},"district":{"key":"16067","name":"Gotha","type":"Landkreis"},"federalState":{"key":"16","name":"Thüringen"}},{"name":"Ludwigstr.","postalCode":"99867","locality":"Gotha","municipality":{"key":"16067029","name":"Gotha, Stadt","type":"Stadt"},"district":{"key":"16067","name":"Gotha","type":"Landkreis"},"federalState":{"key":"16","name":"Thüringen"}},{"name":"Luisestr.","postalCode":"99867","locality":"Gotha","municipality":{"key":"16067029","name":"Gotha, Stadt","type":"Stadt"},"district":{"key":"16067","name":"Gotha","type":"Landkreis"},"federalState":{"key":"16","name":"Thüringen"}},{"name":"Lutherstr.","postalCode":"99867","locality":"Gotha","municipality":{"key":"16067029","name":"Gotha, Stadt","type":"Stadt"},"district":{"key":"16067","name":"Gotha","type":"Landkreis"},"federalState":{"key":"16","name":"Thüringen"}},{"name":"Max-Voß-Str.","postalCode":"99869","locality":"Sonneborn","municipality":{"key":"16067063","name":"Sonneborn","type":"Kreisangehörige_Gemeinde"},"district":{"key":"16067","name":"Gotha","type":"Landkreis"},"federalState":{"key":"16","name":"Thüringen"}},{"name":"Mühlstr.","postalCode":"99869","locality":"Sonneborn","municipality":{"key":"16067063","name":"Sonneborn","type":"Kreisangehörige_Gemeinde"},"district":{"key":"16067","name":"Gotha","type":"Landkreis"},"federalState":{"key":"16","name":"Thüringen"}},{"name":"Neue Str.","postalCode":"99869","locality":"Sonneborn","municipality":{"key":"16067063","name":"Sonneborn","type":"Kreisangehörige_Gemeinde"},"district":{"key":"16067","name":"Gotha","type":"Landkreis"},"federalState":{"key":"16","name":"Thüringen"}},{"name":"Nordhofner Str.","postalCode":"99869","locality":"Sonneborn","municipality":{"key":"16067063","name":"Sonneborn","type":"Kreisangehörige_Gemeinde"},"district":{"key":"16067","name":"Gotha","type":"Landkreis"},"federalState":{"key":"16","name":"Thüringen"}},{"name":"Oberdorf","postalCode":"99869","locality":"Sonneborn","municipality":{"key":"16067063","name":"Sonneborn","type":"Kreisangehörige_Gemeinde"},"district":{"key":"16067","name":"Gotha","type":"Landkreis"},"federalState":{"key":"16","name":"Thüringen"}},{"name":"Pappelrondell","postalCode":"99867","locality":"Gotha","municipality":{"key":"16067029","name":"Gotha, Stadt","type":"Stadt"},"district":{"key":"16067","name":"Gotha","type":"Landkreis"},"federalState":{"key":"16","name":"Thüringen"}},{"name":"Paracelsusstr.","postalCode":"99867","locality":"Gotha","municipality":{"key":"16067029","name":"Gotha, Stadt","type":"Stadt"},"district":{"key":"16067","name":"Gotha","type":"Landkreis"},"federalState":{"key":"16","name":"Thüringen"}},{"name":"Parkstr.","postalCode":"99867","locality":"Gotha","municipality":{"key":"16067029","name":"Gotha, Stadt","type":"Stadt"},"district":{"key":"16067","name":"Gotha","type":"Landkreis"},"federalState":{"key":"16","name":"Thüringen"}},{"name":"Passauer Str.","postalCode":"99867","locality":"Gotha","municipality":{"key":"16067029","name":"Gotha, Stadt","type":"Stadt"},"district":{"key":"16067","name":"Gotha","type":"Landkreis"},"federalState":{"key":"16","name":"Thüringen"}},{"name":"Pestalozzistr.","postalCode":"99867","locality":"Gotha","municipality":{"key":"16067029","name":"Gotha, Stadt","type":"Stadt"},"district":{"key":"16067","name":"Gotha","type":"Landkreis"},"federalState":{"key":"16","name":"Thüringen"}},{"name":"Pfarrstr.","postalCode":"99867","locality":"Gotha","municipality":{"key":"16067029","name":"Gotha, Stadt","type":"Stadt"},"district":{"key":"16067","name":"Gotha","type":"Landkreis"},"federalState":{"key":"16","name":"Thüringen"}},{"name":"Pfortenstr.","postalCode":"99867","locality":"Gotha","municipality":{"key":"16067029","name":"Gotha, Stadt","type":"Stadt"},"district":{"key":"16067","name":"Gotha","type":"Landkreis"},"federalState":{"key":"16","name":"Thüringen"}},{"name":"Pfortenwallgasse","postalCode":"99867","locality":"Gotha","municipality":{"key":"16067029","name":"Gotha, Stadt","type":"Stadt"},"district":{"key":"16067","name":"Gotha","type":"Landkreis"},"federalState":{"key":"16","name":"Thüringen"}},{"name":"Pfullendorfer Str.","postalCode":"99867","locality":"Gotha","municipality":{"key":"16067029","name":"Gotha, Stadt","type":"Stadt"},"district":{"key":"16067","name":"Gotha","type":"Landkreis"},"federalState":{"key":"16","name":"Thüringen"}},{"name":"Philosophenweg","postalCode":"99867","locality":"Gotha","municipality":{"key":"16067029","name":"Gotha, Stadt","type":"Stadt"},"district":{"key":"16067","name":"Gotha","type":"Landkreis"},"federalState":{"key":"16","name":"Thüringen"}},{"name":"Prießnitzstr.","postalCode":"99867","locality":"Gotha","municipality":{"key":"16067029","name":"Gotha, Stadt","type":"Stadt"},"district":{"key":"16067","name":"Gotha","type":"Landkreis"},"federalState":{"key":"16","name":"Thüringen"}},{"name":"Puschkinallee","postalCode":"99867","locality":"Gotha","municipality":{"key":"16067029","name":"Gotha, Stadt","type":"Stadt"},"district":{"key":"16067","name":"Gotha","type":"Landkreis"},"federalState":{"key":"16","name":"Thüringen"}},{"name":"Querstr.","postalCode":"99869","locality":"Sonneborn","municipality":{"key":"16067063","name":"Sonneborn","type":"Kreisangehörige_Gemeinde"},"district":{"key":"16067","name":"Gotha","type":"Landkreis"},"federalState":{"key":"16","name":"Thüringen"}},{"name":"Rühler Str.","postalCode":"99869","locality":"Sonneborn","municipality":{"key":"16067063","name":"Sonneborn","type":"Kreisangehörige_Gemeinde"},"district":{"key":"16067","name":"Gotha","type":"Landkreis"},"federalState":{"key":"16","name":"Thüringen"}},{"name":"Sackgasse","postalCode":"99869","locality":"Sonneborn","municipality":{"key":"16067063","name":"Sonneborn","type":"Kreisangehörige_Gemeinde"},"district":{"key":"16067","name":"Gotha","type":"Landkreis"},"federalState":{"key":"16","name":"Thüringen"}},{"name":"Schloßgasse","postalCode":"99869","locality":"Sonneborn","municipality":{"key":"16067063","name":"Sonneborn","type":"Kreisangehörige_Gemeinde"},"district":{"key":"16067","name":"Gotha","type":"Landkreis"},"federalState":{"key":"16","name":"Thüringen"}},{"name":"Tabarzer Str.","postalCode":"99867","locality":"Gotha","municipality":{"key":"16067029","name":"Gotha, Stadt","type":"Stadt"},"district":{"key":"16067","name":"Gotha","type":"Landkreis"},"federalState":{"key":"16","name":"Thüringen"}},{"name":"Tambacher Str.","postalCode":"99867","locality":"Gotha","municipality":{"key":"16067029","name":"Gotha, Stadt","type":"Stadt"},"district":{"key":"16067","name":"Gotha","type":"Landkreis"},"federalState":{"key":"16","name":"Thüringen"}},{"name":"Tonnaer Str.","postalCode":"99867","locality":"Gotha","municipality":{"key":"16067029","name":"Gotha, Stadt","type":"Stadt"},"district":{"key":"16067","name":"Gotha","type":"Landkreis"},"federalState":{"key":"16","name":"Thüringen"}},{"name":"Töpferweg","postalCode":"99867","locality":"Gotha","municipality":{"key":"16067029","name":"Gotha, Stadt","type":"Stadt"},"district":{"key":"16067","name":"Gotha","type":"Landkreis"},"federalState":{"key":"16","name":"Thüringen"}},{"name":"Töpfleber Weg","postalCode":"99867","locality":"Gotha","municipality":{"key":"16067029","name":"Gotha, Stadt","type":"Stadt"},"district":{"key":"16067","name":"Gotha","type":"Landkreis"},"federalState":{"key":"16","name":"Thüringen"}},{"name":"Treppengasse","postalCode":"99867","locality":"Gotha","municipality":{"key":"16067029","name":"Gotha, Stadt","type":"Stadt"},"district":{"key":"16067","name":"Gotha","type":"Landkreis"},"federalState":{"key":"16","name":"Thüringen"}},{"name":"Trügleber Str.","postalCode":"99867","locality":"Gotha","municipality":{"key":"16067029","name":"Gotha, Stadt","type":"Stadt"},"district":{"key":"16067","name":"Gotha","type":"Landkreis"},"federalState":{"key":"16","name":"Thüringen"}},{"name":"Trützschlerplatz","postalCode":"99867","locality":"Gotha","municipality":{"key":"16067029","name":"Gotha, Stadt","type":"Stadt"},"district":{"key":"16067","name":"Gotha","type":"Landkreis"},"federalState":{"key":"16","name":"Thüringen"}},{"name":"Tulpenweg","postalCode":"99867","locality":"Gotha","municipality":{"key":"16067029","name":"Gotha, Stadt","type":"Stadt"},"district":{"key":"16067","name":"Gotha","type":"Landkreis"},"federalState":{"key":"16","name":"Thüringen"}},{"name":"Tüttleber Weg","postalCode":"99867","locality":"Gotha","municipality":{"key":"16067029","name":"Gotha, Stadt","type":"Stadt"},"district":{"key":"16067","name":"Gotha","type":"Landkreis"},"federalState":{"key":"16","name":"Thüringen"}},{"name":"Uelleber Str.","postalCode":"99867","locality":"Gotha","municipality":{"key":"16067029","name":"Gotha, Stadt","type":"Stadt"},"district":{"key":"16067","name":"Gotha","type":"Landkreis"},"federalState":{"key":"16","name":"Thüringen"}},{"name":"Uhlandstr.","postalCode":"99867","locality":"Gotha","municipality":{"key":"16067029","name":"Gotha, Stadt","type":"Stadt"},"district":{"key":"16067","name":"Gotha","type":"Landkreis"},"federalState":{"key":"16","name":"Thüringen"}},{"name":"Ulmenweg","postalCode":"99867","locality":"Gotha","municipality":{"key":"16067029","name":"Gotha, Stadt","type":"Stadt"},"district":{"key":"16067","name":"Gotha","type":"Landkreis"},"federalState":{"key":"16","name":"Thüringen"}},{"name":"Unterstr.","postalCode":"99867","locality":"Gotha","municipality":{"key":"16067029","name":"Gotha, Stadt","type":"Stadt"},"district":{"key":"16067","name":"Gotha","type":"Landkreis"},"federalState":{"key":"16","name":"Thüringen"}},{"name":"Uthmannstr.","postalCode":"99867","locality":"Gotha","municipality":{"key":"16067029","name":"Gotha, Stadt","type":"Stadt"},"district":{"key":"16067","name":"Gotha","type":"Landkreis"},"federalState":{"key":"16","name":"Thüringen"}},{"name":"Vordorf","postalCode":"99869","locality":"Sonneborn","municipality":{"key":"16067063","name":"Sonneborn","type":"Kreisangehörige_Gemeinde"},"district":{"key":"16067","name":"Gotha","type":"Landkreis"},"federalState":{"key":"16","name":"Thüringen"}},{"name":"Waltershäuser Str.","postalCode":"99869","locality":"Sonneborn","municipality":{"key":"16067063","name":"Sonneborn","type":"Kreisangehörige_Gemeinde"},"district":{"key":"16067","name":"Gotha","type":"Landkreis"},"federalState":{"key":"16","name":"Thüringen"}},{"name":"Waltershäuser Weg","postalCode":"99869","locality":"Sonneborn","municipality":{"key":"16067063","name":"Sonneborn","type":"Kreisangehörige_Gemeinde"},"district":{"key":"16067","name":"Gotha","type":"Landkreis"},"federalState":{"key":"16","name":"Thüringen"}},{"name":"Wangenheimer Weg","postalCode":"99869","locality":"Sonneborn","municipality":{"key":"16067063","name":"Sonneborn","type":"Kreisangehörige_Gemeinde"},"district":{"key":"16067","name":"Gotha","type":"Landkreis"},"federalState":{"key":"16","name":"Thüringen"}},{"name":"Zacharias-Becker-Str.","postalCode":"99867","locality":"Gotha","municipality":{"key":"16067029","name":"Gotha, Stadt","type":"Stadt"},"district":{"key":"16067","name":"Gotha","type":"Landkreis"},"federalState":{"key":"16","name":"Thüringen"}},{"name":"Zeisigweg","postalCode":"99867","locality":"Gotha","municipality":{"key":"16067029","name":"Gotha, Stadt","type":"Stadt"},"district":{"key":"16067","name":"Gotha","type":"Landkreis"},"federalState":{"key":"16","name":"Thüringen"}},{"name":"Zeppelinstr.","postalCode":"99867","locality":"Gotha","municipality":{"key":"16067029","name":"Gotha, Stadt","type":"Stadt"},"district":{"key":"16067","name":"Gotha","type":"Landkreis"},"federalState":{"key":"16","name":"Thüringen"}},{"name":"Ziegeleigasse","postalCode":"99867","locality":"Gotha","municipality":{"key":"16067029","name":"Gotha, Stadt","type":"Stadt"},"district":{"key":"16067","name":"Gotha","type":"Landkreis"},"federalState":{"key":"16","name":"Thüringen"}},{"name":"Zum Boxberg","postalCode":"99867","locality":"Gotha","municipality":{"key":"16067029","name":"Gotha, Stadt","type":"Stadt"},"district":{"key":"16067","name":"Gotha","type":"Landkreis"},"federalState":{"key":"16","name":"Thüringen"}},]