[{"name":"Alte Heerstr.","postalCode":"04720","locality":"Zschaitz-Ottewig","municipality":{"key":"14522620","name":"Zschaitz-Ottewig","type":"Kreisangehörige_Gemeinde"},"district":{"key":"14522","name":"Mittelsachsen","type":"Landkreis"},"federalState":{"key":"14","name":"Sachsen"}},{"name":"Am Bahnhofsberg","postalCode":"04720","locality":"Zschaitz-Ottewig","municipality":{"key":"14522620","name":"Zschaitz-Ottewig","type":"Kreisangehörige_Gemeinde"},"district":{"key":"14522","name":"Mittelsachsen","type":"Landkreis"},"federalState":{"key":"14","name":"Sachsen"}},{"name":"Am Burgberg","postalCode":"04720","locality":"Zschaitz-Ottewig","municipality":{"key":"14522620","name":"Zschaitz-Ottewig","type":"Kreisangehörige_Gemeinde"},"district":{"key":"14522","name":"Mittelsachsen","type":"Landkreis"},"federalState":{"key":"14","name":"Sachsen"}},{"name":"Am Doktorberg","postalCode":"04720","locality":"Zschaitz-Ottewig","municipality":{"key":"14522620","name":"Zschaitz-Ottewig","type":"Kreisangehörige_Gemeinde"},"district":{"key":"14522","name":"Mittelsachsen","type":"Landkreis"},"federalState":{"key":"14","name":"Sachsen"}},{"name":"Am Dreieck","postalCode":"04720","locality":"Zschaitz-Ottewig","municipality":{"key":"14522620","name":"Zschaitz-Ottewig","type":"Kreisangehörige_Gemeinde"},"district":{"key":"14522","name":"Mittelsachsen","type":"Landkreis"},"federalState":{"key":"14","name":"Sachsen"}},{"name":"Am Kirchberg","postalCode":"04720","locality":"Zschaitz-Ottewig","municipality":{"key":"14522620","name":"Zschaitz-Ottewig","type":"Kreisangehörige_Gemeinde"},"district":{"key":"14522","name":"Mittelsachsen","type":"Landkreis"},"federalState":{"key":"14","name":"Sachsen"}},{"name":"Am Semmiggut","postalCode":"04720","locality":"Zschaitz-Ottewig","municipality":{"key":"14522620","name":"Zschaitz-Ottewig","type":"Kreisangehörige_Gemeinde"},"district":{"key":"14522","name":"Mittelsachsen","type":"Landkreis"},"federalState":{"key":"14","name":"Sachsen"}},{"name":"Am Sonneneck","postalCode":"04720","locality":"Zschaitz-Ottewig","municipality":{"key":"14522620","name":"Zschaitz-Ottewig","type":"Kreisangehörige_Gemeinde"},"district":{"key":"14522","name":"Mittelsachsen","type":"Landkreis"},"federalState":{"key":"14","name":"Sachsen"}},{"name":"Am Teich","postalCode":"04720","locality":"Zschaitz-Ottewig","municipality":{"key":"14522620","name":"Zschaitz-Ottewig","type":"Kreisangehörige_Gemeinde"},"district":{"key":"14522","name":"Mittelsachsen","type":"Landkreis"},"federalState":{"key":"14","name":"Sachsen"}},{"name":"Am Wanderweg","postalCode":"04720","locality":"Zschaitz-Ottewig","municipality":{"key":"14522620","name":"Zschaitz-Ottewig","type":"Kreisangehörige_Gemeinde"},"district":{"key":"14522","name":"Mittelsachsen","type":"Landkreis"},"federalState":{"key":"14","name":"Sachsen"}},{"name":"Am Wolfsgut","postalCode":"04720","locality":"Zschaitz-Ottewig","municipality":{"key":"14522620","name":"Zschaitz-Ottewig","type":"Kreisangehörige_Gemeinde"},"district":{"key":"14522","name":"Mittelsachsen","type":"Landkreis"},"federalState":{"key":"14","name":"Sachsen"}},{"name":"Auterwitz","postalCode":"04720","locality":"Zschaitz-Ottewig","municipality":{"key":"14522620","name":"Zschaitz-Ottewig","type":"Kreisangehörige_Gemeinde"},"district":{"key":"14522","name":"Mittelsachsen","type":"Landkreis"},"federalState":{"key":"14","name":"Sachsen"}},{"name":"Dorfstr.","postalCode":"04720","locality":"Zschaitz-Ottewig","municipality":{"key":"14522620","name":"Zschaitz-Ottewig","type":"Kreisangehörige_Gemeinde"},"district":{"key":"14522","name":"Mittelsachsen","type":"Landkreis"},"federalState":{"key":"14","name":"Sachsen"}},{"name":"Dürrweitzschen","postalCode":"04720","locality":"Zschaitz-Ottewig","municipality":{"key":"14522620","name":"Zschaitz-Ottewig","type":"Kreisangehörige_Gemeinde"},"district":{"key":"14522","name":"Mittelsachsen","type":"Landkreis"},"federalState":{"key":"14","name":"Sachsen"}},{"name":"Glauchaer Str.","postalCode":"04720","locality":"Zschaitz-Ottewig","municipality":{"key":"14522620","name":"Zschaitz-Ottewig","type":"Kreisangehörige_Gemeinde"},"district":{"key":"14522","name":"Mittelsachsen","type":"Landkreis"},"federalState":{"key":"14","name":"Sachsen"}},{"name":"Gutsweg","postalCode":"04720","locality":"Zschaitz-Ottewig","municipality":{"key":"14522620","name":"Zschaitz-Ottewig","type":"Kreisangehörige_Gemeinde"},"district":{"key":"14522","name":"Mittelsachsen","type":"Landkreis"},"federalState":{"key":"14","name":"Sachsen"}},{"name":"Hohlweg","postalCode":"04720","locality":"Zschaitz-Ottewig","municipality":{"key":"14522620","name":"Zschaitz-Ottewig","type":"Kreisangehörige_Gemeinde"},"district":{"key":"14522","name":"Mittelsachsen","type":"Landkreis"},"federalState":{"key":"14","name":"Sachsen"}},{"name":"Im Gut","postalCode":"04720","locality":"Zschaitz-Ottewig","municipality":{"key":"14522620","name":"Zschaitz-Ottewig","type":"Kreisangehörige_Gemeinde"},"district":{"key":"14522","name":"Mittelsachsen","type":"Landkreis"},"federalState":{"key":"14","name":"Sachsen"}},{"name":"Kirschberg","postalCode":"04720","locality":"Zschaitz-Ottewig","municipality":{"key":"14522620","name":"Zschaitz-Ottewig","type":"Kreisangehörige_Gemeinde"},"district":{"key":"14522","name":"Mittelsachsen","type":"Landkreis"},"federalState":{"key":"14","name":"Sachsen"}},{"name":"Lerchenweg","postalCode":"04720","locality":"Zschaitz-Ottewig","municipality":{"key":"14522620","name":"Zschaitz-Ottewig","type":"Kreisangehörige_Gemeinde"},"district":{"key":"14522","name":"Mittelsachsen","type":"Landkreis"},"federalState":{"key":"14","name":"Sachsen"}},{"name":"Lüttewitzer Weg","postalCode":"04720","locality":"Zschaitz-Ottewig","municipality":{"key":"14522620","name":"Zschaitz-Ottewig","type":"Kreisangehörige_Gemeinde"},"district":{"key":"14522","name":"Mittelsachsen","type":"Landkreis"},"federalState":{"key":"14","name":"Sachsen"}},{"name":"Lützschnitz","postalCode":"04720","locality":"Zschaitz-Ottewig","municipality":{"key":"14522620","name":"Zschaitz-Ottewig","type":"Kreisangehörige_Gemeinde"},"district":{"key":"14522","name":"Mittelsachsen","type":"Landkreis"},"federalState":{"key":"14","name":"Sachsen"}},{"name":"Mühlweg","postalCode":"04720","locality":"Zschaitz-Ottewig","municipality":{"key":"14522620","name":"Zschaitz-Ottewig","type":"Kreisangehörige_Gemeinde"},"district":{"key":"14522","name":"Mittelsachsen","type":"Landkreis"},"federalState":{"key":"14","name":"Sachsen"}},{"name":"Obere Gasse","postalCode":"04720","locality":"Zschaitz-Ottewig","municipality":{"key":"14522620","name":"Zschaitz-Ottewig","type":"Kreisangehörige_Gemeinde"},"district":{"key":"14522","name":"Mittelsachsen","type":"Landkreis"},"federalState":{"key":"14","name":"Sachsen"}},{"name":"Ottewiger Park","postalCode":"04720","locality":"Zschaitz-Ottewig","municipality":{"key":"14522620","name":"Zschaitz-Ottewig","type":"Kreisangehörige_Gemeinde"},"district":{"key":"14522","name":"Mittelsachsen","type":"Landkreis"},"federalState":{"key":"14","name":"Sachsen"}},{"name":"Ottewiger Str.","postalCode":"04720","locality":"Zschaitz-Ottewig","municipality":{"key":"14522620","name":"Zschaitz-Ottewig","type":"Kreisangehörige_Gemeinde"},"district":{"key":"14522","name":"Mittelsachsen","type":"Landkreis"},"federalState":{"key":"14","name":"Sachsen"}},{"name":"Pommlitzer Weg","postalCode":"04720","locality":"Zschaitz-Ottewig","municipality":{"key":"14522620","name":"Zschaitz-Ottewig","type":"Kreisangehörige_Gemeinde"},"district":{"key":"14522","name":"Mittelsachsen","type":"Landkreis"},"federalState":{"key":"14","name":"Sachsen"}},{"name":"Querweg","postalCode":"04720","locality":"Zschaitz-Ottewig","municipality":{"key":"14522620","name":"Zschaitz-Ottewig","type":"Kreisangehörige_Gemeinde"},"district":{"key":"14522","name":"Mittelsachsen","type":"Landkreis"},"federalState":{"key":"14","name":"Sachsen"}},{"name":"Riesaer Str.","postalCode":"04720","locality":"Zschaitz-Ottewig","municipality":{"key":"14522620","name":"Zschaitz-Ottewig","type":"Kreisangehörige_Gemeinde"},"district":{"key":"14522","name":"Mittelsachsen","type":"Landkreis"},"federalState":{"key":"14","name":"Sachsen"}},{"name":"Schrebergartenstr.","postalCode":"04720","locality":"Zschaitz-Ottewig","municipality":{"key":"14522620","name":"Zschaitz-Ottewig","type":"Kreisangehörige_Gemeinde"},"district":{"key":"14522","name":"Mittelsachsen","type":"Landkreis"},"federalState":{"key":"14","name":"Sachsen"}},{"name":"Schulstr.","postalCode":"04720","locality":"Zschaitz-Ottewig","municipality":{"key":"14522620","name":"Zschaitz-Ottewig","type":"Kreisangehörige_Gemeinde"},"district":{"key":"14522","name":"Mittelsachsen","type":"Landkreis"},"federalState":{"key":"14","name":"Sachsen"}},{"name":"Schustergasse","postalCode":"04720","locality":"Zschaitz-Ottewig","municipality":{"key":"14522620","name":"Zschaitz-Ottewig","type":"Kreisangehörige_Gemeinde"},"district":{"key":"14522","name":"Mittelsachsen","type":"Landkreis"},"federalState":{"key":"14","name":"Sachsen"}},{"name":"Schweimnitzer Weg","postalCode":"04720","locality":"Zschaitz-Ottewig","municipality":{"key":"14522620","name":"Zschaitz-Ottewig","type":"Kreisangehörige_Gemeinde"},"district":{"key":"14522","name":"Mittelsachsen","type":"Landkreis"},"federalState":{"key":"14","name":"Sachsen"}},{"name":"Simselwitzer Str.","postalCode":"04720","locality":"Zschaitz-Ottewig","municipality":{"key":"14522620","name":"Zschaitz-Ottewig","type":"Kreisangehörige_Gemeinde"},"district":{"key":"14522","name":"Mittelsachsen","type":"Landkreis"},"federalState":{"key":"14","name":"Sachsen"}},{"name":"Steiler Weg","postalCode":"04720","locality":"Zschaitz-Ottewig","municipality":{"key":"14522620","name":"Zschaitz-Ottewig","type":"Kreisangehörige_Gemeinde"},"district":{"key":"14522","name":"Mittelsachsen","type":"Landkreis"},"federalState":{"key":"14","name":"Sachsen"}},{"name":"Talweg","postalCode":"04720","locality":"Zschaitz-Ottewig","municipality":{"key":"14522620","name":"Zschaitz-Ottewig","type":"Kreisangehörige_Gemeinde"},"district":{"key":"14522","name":"Mittelsachsen","type":"Landkreis"},"federalState":{"key":"14","name":"Sachsen"}},{"name":"Waldweg","postalCode":"04720","locality":"Zschaitz-Ottewig","municipality":{"key":"14522620","name":"Zschaitz-Ottewig","type":"Kreisangehörige_Gemeinde"},"district":{"key":"14522","name":"Mittelsachsen","type":"Landkreis"},"federalState":{"key":"14","name":"Sachsen"}},{"name":"Zum Stausee","postalCode":"04720","locality":"Zschaitz-Ottewig","municipality":{"key":"14522620","name":"Zschaitz-Ottewig","type":"Kreisangehörige_Gemeinde"},"district":{"key":"14522","name":"Mittelsachsen","type":"Landkreis"},"federalState":{"key":"14","name":"Sachsen"}},{"name":"Zum Wasserberg","postalCode":"04720","locality":"Zschaitz-Ottewig","municipality":{"key":"14522620","name":"Zschaitz-Ottewig","type":"Kreisangehörige_Gemeinde"},"district":{"key":"14522","name":"Mittelsachsen","type":"Landkreis"},"federalState":{"key":"14","name":"Sachsen"}},{"name":"Zur Mühle","postalCode":"04720","locality":"Zschaitz-Ottewig","municipality":{"key":"14522620","name":"Zschaitz-Ottewig","type":"Kreisangehörige_Gemeinde"},"district":{"key":"14522","name":"Mittelsachsen","type":"Landkreis"},"federalState":{"key":"14","name":"Sachsen"}},{"name":"Zur Siedlung","postalCode":"04720","locality":"Zschaitz-Ottewig","municipality":{"key":"14522620","name":"Zschaitz-Ottewig","type":"Kreisangehörige_Gemeinde"},"district":{"key":"14522","name":"Mittelsachsen","type":"Landkreis"},"federalState":{"key":"14","name":"Sachsen"}},]