[{"key":"10044855","name":"Chemin de Ballègue","postalCode":"1066","locality":"Epalinges","commune":{"key":"5584","name":"Epalinges","shortName":"Epalinges"},"district":{"key":"2225","name":"District de Lausanne"},"canton":{"key":"22","code":"VD","name":"Vaud"},"status":"Real"},{"key":"10107535","name":"Chemin de Florimont","postalCode":"1066","locality":"Epalinges","commune":{"key":"5584","name":"Epalinges","shortName":"Epalinges"},"district":{"key":"2225","name":"District de Lausanne"},"canton":{"key":"22","code":"VD","name":"Vaud"},"status":"Real"},{"key":"10044859","name":"Chemin de la Biolleyre","postalCode":"1066","locality":"Epalinges","commune":{"key":"5584","name":"Epalinges","shortName":"Epalinges"},"district":{"key":"2225","name":"District de Lausanne"},"canton":{"key":"22","code":"VD","name":"Vaud"},"status":"Real"},{"key":"10102827","name":"Chemin de la Butte","postalCode":"1066","locality":"Epalinges","commune":{"key":"5584","name":"Epalinges","shortName":"Epalinges"},"district":{"key":"2225","name":"District de Lausanne"},"canton":{"key":"22","code":"VD","name":"Vaud"},"status":"Real"},{"key":"10044860","name":"Chemin de la Cabolétaz","postalCode":"1066","locality":"Epalinges","commune":{"key":"5584","name":"Epalinges","shortName":"Epalinges"},"district":{"key":"2225","name":"District de Lausanne"},"canton":{"key":"22","code":"VD","name":"Vaud"},"status":"Real"},{"key":"10106669","name":"Chemin de la Côte","postalCode":"1066","locality":"Epalinges","commune":{"key":"5584","name":"Epalinges","shortName":"Epalinges"},"district":{"key":"2225","name":"District de Lausanne"},"canton":{"key":"22","code":"VD","name":"Vaud"},"status":"Real"},{"key":"10182546","name":"Chemin de la Crausaz","postalCode":"1066","locality":"Epalinges","commune":{"key":"5584","name":"Epalinges","shortName":"Epalinges"},"district":{"key":"2225","name":"District de Lausanne"},"canton":{"key":"22","code":"VD","name":"Vaud"},"status":"Real"},{"key":"10102828","name":"Chemin de la Cure","postalCode":"1066","locality":"Epalinges","commune":{"key":"5584","name":"Epalinges","shortName":"Epalinges"},"district":{"key":"2225","name":"District de Lausanne"},"canton":{"key":"22","code":"VD","name":"Vaud"},"status":"Real"},{"key":"10078813","name":"Chemin de la Girarde","postalCode":"1066","locality":"Epalinges","commune":{"key":"5584","name":"Epalinges","shortName":"Epalinges"},"district":{"key":"2225","name":"District de Lausanne"},"canton":{"key":"22","code":"VD","name":"Vaud"},"status":"Real"},{"key":"10134798","name":"Chemin de la Jaquière","postalCode":"1066","locality":"Epalinges","commune":{"key":"5584","name":"Epalinges","shortName":"Epalinges"},"district":{"key":"2225","name":"District de Lausanne"},"canton":{"key":"22","code":"VD","name":"Vaud"},"status":"Real"},{"key":"10044861","name":"Chemin de la Laiterie","postalCode":"1066","locality":"Epalinges","commune":{"key":"5584","name":"Epalinges","shortName":"Epalinges"},"district":{"key":"2225","name":"District de Lausanne"},"canton":{"key":"22","code":"VD","name":"Vaud"},"status":"Real"},{"key":"10102830","name":"Chemin de la Pécholettaz","postalCode":"1066","locality":"Epalinges","commune":{"key":"5584","name":"Epalinges","shortName":"Epalinges"},"district":{"key":"2225","name":"District de Lausanne"},"canton":{"key":"22","code":"VD","name":"Vaud"},"status":"Real"},{"key":"10102829","name":"Chemin de la Pierraz","postalCode":"1066","locality":"Epalinges","commune":{"key":"5584","name":"Epalinges","shortName":"Epalinges"},"district":{"key":"2225","name":"District de Lausanne"},"canton":{"key":"22","code":"VD","name":"Vaud"},"status":"Real"},{"key":"10116052","name":"Chemin de la Possession","postalCode":"1066","locality":"Epalinges","commune":{"key":"5584","name":"Epalinges","shortName":"Epalinges"},"district":{"key":"2225","name":"District de Lausanne"},"canton":{"key":"22","code":"VD","name":"Vaud"},"status":"Real"},{"key":"10044862","name":"Chemin de la Prairie","postalCode":"1066","locality":"Epalinges","commune":{"key":"5584","name":"Epalinges","shortName":"Epalinges"},"district":{"key":"2225","name":"District de Lausanne"},"canton":{"key":"22","code":"VD","name":"Vaud"},"status":"Real"},{"key":"10102826","name":"Chemin de l'Arzillier","postalCode":"1066","locality":"Epalinges","commune":{"key":"5584","name":"Epalinges","shortName":"Epalinges"},"district":{"key":"2225","name":"District de Lausanne"},"canton":{"key":"22","code":"VD","name":"Vaud"},"status":"Real"},{"key":"10044863","name":"Chemin de la Vulliettaz","postalCode":"1066","locality":"Epalinges","commune":{"key":"5584","name":"Epalinges","shortName":"Epalinges"},"district":{"key":"2225","name":"District de Lausanne"},"canton":{"key":"22","code":"VD","name":"Vaud"},"status":"Real"},{"key":"10044886","name":"Chemin de la Vulliette","postalCode":"1066","locality":"Epalinges","commune":{"key":"5584","name":"Epalinges","shortName":"Epalinges"},"district":{"key":"2225","name":"District de Lausanne"},"canton":{"key":"22","code":"VD","name":"Vaud"},"status":"Real"},{"key":"10044858","name":"Chemin de l'Eglise","postalCode":"1066","locality":"Epalinges","commune":{"key":"5584","name":"Epalinges","shortName":"Epalinges"},"district":{"key":"2225","name":"District de Lausanne"},"canton":{"key":"22","code":"VD","name":"Vaud"},"status":"Real"},{"key":"10102825","name":"Chemin de Mon-Repos","postalCode":"1066","locality":"Epalinges","commune":{"key":"5584","name":"Epalinges","shortName":"Epalinges"},"district":{"key":"2225","name":"District de Lausanne"},"canton":{"key":"22","code":"VD","name":"Vaud"},"status":"Real"},{"key":"10044856","name":"Chemin de Montéclard","postalCode":"1066","locality":"Epalinges","commune":{"key":"5584","name":"Epalinges","shortName":"Epalinges"},"district":{"key":"2225","name":"District de Lausanne"},"canton":{"key":"22","code":"VD","name":"Vaud"},"status":"Real"},{"key":"10078814","name":"Chemin des Bodérons","postalCode":"1066","locality":"Epalinges","commune":{"key":"5584","name":"Epalinges","shortName":"Epalinges"},"district":{"key":"2225","name":"District de Lausanne"},"canton":{"key":"22","code":"VD","name":"Vaud"},"status":"Real"},{"key":"10044864","name":"Chemin des Boveresses","postalCode":"1066","locality":"Epalinges","commune":{"key":"5584","name":"Epalinges","shortName":"Epalinges"},"district":{"key":"2225","name":"District de Lausanne"},"canton":{"key":"22","code":"VD","name":"Vaud"},"status":"Real"},{"key":"10160363","name":"Chemin des Clairières","postalCode":"1066","locality":"Epalinges","commune":{"key":"5584","name":"Epalinges","shortName":"Epalinges"},"district":{"key":"2225","name":"District de Lausanne"},"canton":{"key":"22","code":"VD","name":"Vaud"},"status":"Real"},{"key":"10102831","name":"Chemin des Croisettes","postalCode":"1066","locality":"Epalinges","commune":{"key":"5584","name":"Epalinges","shortName":"Epalinges"},"district":{"key":"2225","name":"District de Lausanne"},"canton":{"key":"22","code":"VD","name":"Vaud"},"status":"Real"},{"key":"10044865","name":"Chemin des Dailles","postalCode":"1066","locality":"Epalinges","commune":{"key":"5584","name":"Epalinges","shortName":"Epalinges"},"district":{"key":"2225","name":"District de Lausanne"},"canton":{"key":"22","code":"VD","name":"Vaud"},"status":"Real"},{"key":"10044866","name":"Chemin des Daillettes","postalCode":"1066","locality":"Epalinges","commune":{"key":"5584","name":"Epalinges","shortName":"Epalinges"},"district":{"key":"2225","name":"District de Lausanne"},"canton":{"key":"22","code":"VD","name":"Vaud"},"status":"Real"},{"key":"10102832","name":"Chemin des Fontannins","postalCode":"1066","locality":"Epalinges","commune":{"key":"5584","name":"Epalinges","shortName":"Epalinges"},"district":{"key":"2225","name":"District de Lausanne"},"canton":{"key":"22","code":"VD","name":"Vaud"},"status":"Real"},{"key":"10048030","name":"Chemin des Geais","postalCode":"1066","locality":"Epalinges","commune":{"key":"5584","name":"Epalinges","shortName":"Epalinges"},"district":{"key":"2225","name":"District de Lausanne"},"canton":{"key":"22","code":"VD","name":"Vaud"},"status":"Real"},{"key":"10107536","name":"Chemin des Moulins","postalCode":"1066","locality":"Epalinges","commune":{"key":"5584","name":"Epalinges","shortName":"Epalinges"},"district":{"key":"2225","name":"District de Lausanne"},"canton":{"key":"22","code":"VD","name":"Vaud"},"status":"Real"},{"key":"10044867","name":"Chemin des Orchez","postalCode":"1066","locality":"Epalinges","commune":{"key":"5584","name":"Epalinges","shortName":"Epalinges"},"district":{"key":"2225","name":"District de Lausanne"},"canton":{"key":"22","code":"VD","name":"Vaud"},"status":"Real"},{"key":"10044868","name":"Chemin des Ormeaux","postalCode":"1066","locality":"Epalinges","commune":{"key":"5584","name":"Epalinges","shortName":"Epalinges"},"district":{"key":"2225","name":"District de Lausanne"},"canton":{"key":"22","code":"VD","name":"Vaud"},"status":"Real"},{"key":"10115388","name":"Chemin des Planchamps","postalCode":"1066","locality":"Epalinges","commune":{"key":"5584","name":"Epalinges","shortName":"Epalinges"},"district":{"key":"2225","name":"District de Lausanne"},"canton":{"key":"22","code":"VD","name":"Vaud"},"status":"Real"},{"key":"10102833","name":"Chemin des Planches","postalCode":"1066","locality":"Epalinges","commune":{"key":"5584","name":"Epalinges","shortName":"Epalinges"},"district":{"key":"2225","name":"District de Lausanne"},"canton":{"key":"22","code":"VD","name":"Vaud"},"status":"Real"},{"key":"10182547","name":"Chemin des Roches","postalCode":"1066","locality":"Epalinges","commune":{"key":"5584","name":"Epalinges","shortName":"Epalinges"},"district":{"key":"2225","name":"District de Lausanne"},"canton":{"key":"22","code":"VD","name":"Vaud"},"status":"Real"},{"key":"10044869","name":"Chemin des Tuileries","postalCode":"1066","locality":"Epalinges","commune":{"key":"5584","name":"Epalinges","shortName":"Epalinges"},"district":{"key":"2225","name":"District de Lausanne"},"canton":{"key":"22","code":"VD","name":"Vaud"},"status":"Real"},{"key":"10044857","name":"Chemin de Sylvana","postalCode":"1066","locality":"Epalinges","commune":{"key":"5584","name":"Epalinges","shortName":"Epalinges"},"district":{"key":"2225","name":"District de Lausanne"},"canton":{"key":"22","code":"VD","name":"Vaud"},"status":"Real"},{"key":"10078812","name":"Chemin d'Ofréquaz","postalCode":"1066","locality":"Epalinges","commune":{"key":"5584","name":"Epalinges","shortName":"Epalinges"},"district":{"key":"2225","name":"District de Lausanne"},"canton":{"key":"22","code":"VD","name":"Vaud"},"status":"Real"},{"key":"10160362","name":"Chemin du Bocage","postalCode":"1066","locality":"Epalinges","commune":{"key":"5584","name":"Epalinges","shortName":"Epalinges"},"district":{"key":"2225","name":"District de Lausanne"},"canton":{"key":"22","code":"VD","name":"Vaud"},"status":"Real"},{"key":"10106670","name":"Chemin du Bois-de-Ban","postalCode":"1066","locality":"Epalinges","commune":{"key":"5584","name":"Epalinges","shortName":"Epalinges"},"district":{"key":"2225","name":"District de Lausanne"},"canton":{"key":"22","code":"VD","name":"Vaud"},"status":"Real"},{"key":"10123701","name":"Chemin du Bois de la Chapelle","postalCode":"1066","locality":"Epalinges","commune":{"key":"5584","name":"Epalinges","shortName":"Epalinges"},"district":{"key":"2225","name":"District de Lausanne"},"canton":{"key":"22","code":"VD","name":"Vaud"},"status":"Real"},{"key":"10048031","name":"Chemin du Bois-de-Menton","postalCode":"1066","locality":"Epalinges","commune":{"key":"5584","name":"Epalinges","shortName":"Epalinges"},"district":{"key":"2225","name":"District de Lausanne"},"canton":{"key":"22","code":"VD","name":"Vaud"},"status":"Real"},{"key":"10102834","name":"Chemin du Bois-Murat","postalCode":"1066","locality":"Epalinges","commune":{"key":"5584","name":"Epalinges","shortName":"Epalinges"},"district":{"key":"2225","name":"District de Lausanne"},"canton":{"key":"22","code":"VD","name":"Vaud"},"status":"Real"},{"key":"10044870","name":"Chemin du Bornalet","postalCode":"1066","locality":"Epalinges","commune":{"key":"5584","name":"Epalinges","shortName":"Epalinges"},"district":{"key":"2225","name":"District de Lausanne"},"canton":{"key":"22","code":"VD","name":"Vaud"},"status":"Real"},{"key":"10128048","name":"Chemin du Chaugand","postalCode":"1066","locality":"Epalinges","commune":{"key":"5584","name":"Epalinges","shortName":"Epalinges"},"district":{"key":"2225","name":"District de Lausanne"},"canton":{"key":"22","code":"VD","name":"Vaud"},"status":"Real"},{"key":"10102165","name":"Chemin du Clair-Matin","postalCode":"1066","locality":"Epalinges","commune":{"key":"5584","name":"Epalinges","shortName":"Epalinges"},"district":{"key":"2225","name":"District de Lausanne"},"canton":{"key":"22","code":"VD","name":"Vaud"},"status":"Real"},{"key":"10044871","name":"Chemin du Giziaux","postalCode":"1066","locality":"Epalinges","commune":{"key":"5584","name":"Epalinges","shortName":"Epalinges"},"district":{"key":"2225","name":"District de Lausanne"},"canton":{"key":"22","code":"VD","name":"Vaud"},"status":"Real"},{"key":"10102835","name":"Chemin du Grand-Pré","postalCode":"1066","locality":"Epalinges","commune":{"key":"5584","name":"Epalinges","shortName":"Epalinges"},"district":{"key":"2225","name":"District de Lausanne"},"canton":{"key":"22","code":"VD","name":"Vaud"},"status":"Real"},{"key":"10044872","name":"Chemin du Grand-Vennes","postalCode":"1066","locality":"Epalinges","commune":{"key":"5584","name":"Epalinges","shortName":"Epalinges"},"district":{"key":"2225","name":"District de Lausanne"},"canton":{"key":"22","code":"VD","name":"Vaud"},"status":"Real"},{"key":"10078815","name":"Chemin du Petit-Cerisier","postalCode":"1066","locality":"Epalinges","commune":{"key":"5584","name":"Epalinges","shortName":"Epalinges"},"district":{"key":"2225","name":"District de Lausanne"},"canton":{"key":"22","code":"VD","name":"Vaud"},"status":"Real"},{"key":"10182548","name":"Le Grand-Chemin","postalCode":"1066","locality":"Epalinges","commune":{"key":"5584","name":"Epalinges","shortName":"Epalinges"},"district":{"key":"2225","name":"District de Lausanne"},"canton":{"key":"22","code":"VD","name":"Vaud"},"status":"Real"},{"key":"10079855","name":"Place de la Croix-Blanche","postalCode":"1066","locality":"Epalinges","commune":{"key":"5584","name":"Epalinges","shortName":"Epalinges"},"district":{"key":"2225","name":"District de Lausanne"},"canton":{"key":"22","code":"VD","name":"Vaud"},"status":"Real"},{"key":"10116053","name":"Route de Berne","postalCode":"1066","locality":"Epalinges","commune":{"key":"5584","name":"Epalinges","shortName":"Epalinges"},"district":{"key":"2225","name":"District de Lausanne"},"canton":{"key":"22","code":"VD","name":"Vaud"},"status":"Real"},{"key":"10142436","name":"Route de la Corniche","postalCode":"1066","locality":"Epalinges","commune":{"key":"5584","name":"Epalinges","shortName":"Epalinges"},"district":{"key":"2225","name":"District de Lausanne"},"canton":{"key":"22","code":"VD","name":"Vaud"},"status":"Real"},{"key":"10076064","name":"Route de la Croix-Blanche","postalCode":"1066","locality":"Epalinges","commune":{"key":"5584","name":"Epalinges","shortName":"Epalinges"},"district":{"key":"2225","name":"District de Lausanne"},"canton":{"key":"22","code":"VD","name":"Vaud"},"status":"Real"},{"key":"10048034","name":"Route de Montblesson","postalCode":"1066","locality":"Epalinges","commune":{"key":"5584","name":"Epalinges","shortName":"Epalinges"},"district":{"key":"2225","name":"District de Lausanne"},"canton":{"key":"22","code":"VD","name":"Vaud"},"status":"Real"},{"key":"10097411","name":"Route du Village","postalCode":"1066","locality":"Epalinges","commune":{"key":"5584","name":"Epalinges","shortName":"Epalinges"},"district":{"key":"2225","name":"District de Lausanne"},"canton":{"key":"22","code":"VD","name":"Vaud"},"status":"Real"},{"key":"10044876","name":"Sentier de l'Arzillier","postalCode":"1066","locality":"Epalinges","commune":{"key":"5584","name":"Epalinges","shortName":"Epalinges"},"district":{"key":"2225","name":"District de Lausanne"},"canton":{"key":"22","code":"VD","name":"Vaud"},"status":"Real"},]