[{"name":"Alte Hauptstr.","postalCode":"24395","locality":"Stangheck","municipality":{"key":"01059163","name":"Stangheck","type":"Kreisangehörige_Gemeinde"},"district":{"key":"01059","name":"Schleswig-Flensburg","type":"Kreis"},"federalState":{"key":"01","name":"Schleswig-Holstein"}},{"name":"Dorfstr.","postalCode":"24395","locality":"Stangheck","municipality":{"key":"01059163","name":"Stangheck","type":"Kreisangehörige_Gemeinde"},"district":{"key":"01059","name":"Schleswig-Flensburg","type":"Kreis"},"federalState":{"key":"01","name":"Schleswig-Holstein"}},{"name":"Großkoppel","postalCode":"24395","locality":"Stangheck","municipality":{"key":"01059163","name":"Stangheck","type":"Kreisangehörige_Gemeinde"},"district":{"key":"01059","name":"Schleswig-Flensburg","type":"Kreis"},"federalState":{"key":"01","name":"Schleswig-Holstein"}},{"name":"Mariannenhofer Str.","postalCode":"24395","locality":"Stangheck","municipality":{"key":"01059163","name":"Stangheck","type":"Kreisangehörige_Gemeinde"},"district":{"key":"01059","name":"Schleswig-Flensburg","type":"Kreis"},"federalState":{"key":"01","name":"Schleswig-Holstein"}},{"name":"Moorweg","postalCode":"24395","locality":"Stangheck","municipality":{"key":"01059163","name":"Stangheck","type":"Kreisangehörige_Gemeinde"},"district":{"key":"01059","name":"Schleswig-Flensburg","type":"Kreis"},"federalState":{"key":"01","name":"Schleswig-Holstein"}},{"name":"Poststr.","postalCode":"24395","locality":"Stangheck","municipality":{"key":"01059163","name":"Stangheck","type":"Kreisangehörige_Gemeinde"},"district":{"key":"01059","name":"Schleswig-Flensburg","type":"Kreis"},"federalState":{"key":"01","name":"Schleswig-Holstein"}},{"name":"Regelsrott","postalCode":"24395","locality":"Stangheck","municipality":{"key":"01059163","name":"Stangheck","type":"Kreisangehörige_Gemeinde"},"district":{"key":"01059","name":"Schleswig-Flensburg","type":"Kreis"},"federalState":{"key":"01","name":"Schleswig-Holstein"}},{"name":"Rottberg","postalCode":"24395","locality":"Stangheck","municipality":{"key":"01059163","name":"Stangheck","type":"Kreisangehörige_Gemeinde"},"district":{"key":"01059","name":"Schleswig-Flensburg","type":"Kreis"},"federalState":{"key":"01","name":"Schleswig-Holstein"}},{"name":"Rundhofer Chaussee","postalCode":"24395","locality":"Stangheck","municipality":{"key":"01059163","name":"Stangheck","type":"Kreisangehörige_Gemeinde"},"district":{"key":"01059","name":"Schleswig-Flensburg","type":"Kreis"},"federalState":{"key":"01","name":"Schleswig-Holstein"}},{"name":"Schmiedeberg","postalCode":"24395","locality":"Stangheck","municipality":{"key":"01059163","name":"Stangheck","type":"Kreisangehörige_Gemeinde"},"district":{"key":"01059","name":"Schleswig-Flensburg","type":"Kreis"},"federalState":{"key":"01","name":"Schleswig-Holstein"}},{"name":"Tranbüll","postalCode":"24395","locality":"Stangheck","municipality":{"key":"01059163","name":"Stangheck","type":"Kreisangehörige_Gemeinde"},"district":{"key":"01059","name":"Schleswig-Flensburg","type":"Kreis"},"federalState":{"key":"01","name":"Schleswig-Holstein"}},]