[{"name":"Alleestr.","postalCode":"99947","locality":"Bad Langensalza","municipality":{"key":"16064003","name":"Bad Langensalza, Stadt","type":"Stadt"},"district":{"key":"16064","name":"Unstrut-Hainich-Kreis","type":"Landkreis"},"federalState":{"key":"16","name":"Thüringen"}},{"name":"Alte Pfarrgasse","postalCode":"99947","locality":"Bad Langensalza","municipality":{"key":"16064003","name":"Bad Langensalza, Stadt","type":"Stadt"},"district":{"key":"16064","name":"Unstrut-Hainich-Kreis","type":"Landkreis"},"federalState":{"key":"16","name":"Thüringen"}},{"name":"Alterstedter Str.","postalCode":"99947","locality":"Bad Langensalza","municipality":{"key":"16064003","name":"Bad Langensalza, Stadt","type":"Stadt"},"district":{"key":"16064","name":"Unstrut-Hainich-Kreis","type":"Landkreis"},"federalState":{"key":"16","name":"Thüringen"}},{"name":"Alte Tennstedter Str.","postalCode":"99947","locality":"Bad Langensalza","municipality":{"key":"16064003","name":"Bad Langensalza, Stadt","type":"Stadt"},"district":{"key":"16064","name":"Unstrut-Hainich-Kreis","type":"Landkreis"},"federalState":{"key":"16","name":"Thüringen"}},{"name":"Am Alten Anger","postalCode":"99947","locality":"Bad Langensalza","municipality":{"key":"16064003","name":"Bad Langensalza, Stadt","type":"Stadt"},"district":{"key":"16064","name":"Unstrut-Hainich-Kreis","type":"Landkreis"},"federalState":{"key":"16","name":"Thüringen"}},{"name":"Am Anger","postalCode":"99947","locality":"Bad Langensalza","municipality":{"key":"16064003","name":"Bad Langensalza, Stadt","type":"Stadt"},"district":{"key":"16064","name":"Unstrut-Hainich-Kreis","type":"Landkreis"},"federalState":{"key":"16","name":"Thüringen"}},{"name":"Am Auweg","postalCode":"99947","locality":"Bad Langensalza","municipality":{"key":"16064003","name":"Bad Langensalza, Stadt","type":"Stadt"},"district":{"key":"16064","name":"Unstrut-Hainich-Kreis","type":"Landkreis"},"federalState":{"key":"16","name":"Thüringen"}},{"name":"Am Bache","postalCode":"99947","locality":"Bad Langensalza","municipality":{"key":"16064003","name":"Bad Langensalza, Stadt","type":"Stadt"},"district":{"key":"16064","name":"Unstrut-Hainich-Kreis","type":"Landkreis"},"federalState":{"key":"16","name":"Thüringen"}},{"name":"Am Bahnhof","postalCode":"99947","locality":"Bad Langensalza","municipality":{"key":"16064003","name":"Bad Langensalza, Stadt","type":"Stadt"},"district":{"key":"16064","name":"Unstrut-Hainich-Kreis","type":"Landkreis"},"federalState":{"key":"16","name":"Thüringen"}},{"name":"Am Dorfgraben","postalCode":"99947","locality":"Bad Langensalza","municipality":{"key":"16064003","name":"Bad Langensalza, Stadt","type":"Stadt"},"district":{"key":"16064","name":"Unstrut-Hainich-Kreis","type":"Landkreis"},"federalState":{"key":"16","name":"Thüringen"}},{"name":"Am Friedhof","postalCode":"99947","locality":"Bad Langensalza","municipality":{"key":"16064003","name":"Bad Langensalza, Stadt","type":"Stadt"},"district":{"key":"16064","name":"Unstrut-Hainich-Kreis","type":"Landkreis"},"federalState":{"key":"16","name":"Thüringen"}},{"name":"Am Graben","postalCode":"99947","locality":"Bad Langensalza","municipality":{"key":"16064003","name":"Bad Langensalza, Stadt","type":"Stadt"},"district":{"key":"16064","name":"Unstrut-Hainich-Kreis","type":"Landkreis"},"federalState":{"key":"16","name":"Thüringen"}},{"name":"Am Gut","postalCode":"99947","locality":"Bad Langensalza","municipality":{"key":"16064003","name":"Bad Langensalza, Stadt","type":"Stadt"},"district":{"key":"16064","name":"Unstrut-Hainich-Kreis","type":"Landkreis"},"federalState":{"key":"16","name":"Thüringen"}},{"name":"Am Güterbahnhof","postalCode":"99947","locality":"Bad Langensalza","municipality":{"key":"16064003","name":"Bad Langensalza, Stadt","type":"Stadt"},"district":{"key":"16064","name":"Unstrut-Hainich-Kreis","type":"Landkreis"},"federalState":{"key":"16","name":"Thüringen"}},{"name":"Am Harthaus","postalCode":"99947","locality":"Bad Langensalza","municipality":{"key":"16064003","name":"Bad Langensalza, Stadt","type":"Stadt"},"district":{"key":"16064","name":"Unstrut-Hainich-Kreis","type":"Landkreis"},"federalState":{"key":"16","name":"Thüringen"}},{"name":"Am Jüdenhügel","postalCode":"99947","locality":"Bad Langensalza","municipality":{"key":"16064003","name":"Bad Langensalza, Stadt","type":"Stadt"},"district":{"key":"16064","name":"Unstrut-Hainich-Kreis","type":"Landkreis"},"federalState":{"key":"16","name":"Thüringen"}},{"name":"Am Kindergarten","postalCode":"99947","locality":"Bad Langensalza","municipality":{"key":"16064003","name":"Bad Langensalza, Stadt","type":"Stadt"},"district":{"key":"16064","name":"Unstrut-Hainich-Kreis","type":"Landkreis"},"federalState":{"key":"16","name":"Thüringen"}},{"name":"Am Kirchberg","postalCode":"99947","locality":"Bad Langensalza","municipality":{"key":"16064003","name":"Bad Langensalza, Stadt","type":"Stadt"},"district":{"key":"16064","name":"Unstrut-Hainich-Kreis","type":"Landkreis"},"federalState":{"key":"16","name":"Thüringen"}},{"name":"Am Klingengraben","postalCode":"99947","locality":"Bad Langensalza","municipality":{"key":"16064003","name":"Bad Langensalza, Stadt","type":"Stadt"},"district":{"key":"16064","name":"Unstrut-Hainich-Kreis","type":"Landkreis"},"federalState":{"key":"16","name":"Thüringen"}},{"name":"Am Komturhof","postalCode":"99947","locality":"Bad Langensalza","municipality":{"key":"16064003","name":"Bad Langensalza, Stadt","type":"Stadt"},"district":{"key":"16064","name":"Unstrut-Hainich-Kreis","type":"Landkreis"},"federalState":{"key":"16","name":"Thüringen"}},{"name":"Am Lindenbach","postalCode":"99947","locality":"Bad Langensalza","municipality":{"key":"16064003","name":"Bad Langensalza, Stadt","type":"Stadt"},"district":{"key":"16064","name":"Unstrut-Hainich-Kreis","type":"Landkreis"},"federalState":{"key":"16","name":"Thüringen"}},{"name":"Am Lindenweg","postalCode":"99947","locality":"Bad Langensalza","municipality":{"key":"16064003","name":"Bad Langensalza, Stadt","type":"Stadt"},"district":{"key":"16064","name":"Unstrut-Hainich-Kreis","type":"Landkreis"},"federalState":{"key":"16","name":"Thüringen"}},{"name":"Am Mühltor","postalCode":"99947","locality":"Bad Langensalza","municipality":{"key":"16064003","name":"Bad Langensalza, Stadt","type":"Stadt"},"district":{"key":"16064","name":"Unstrut-Hainich-Kreis","type":"Landkreis"},"federalState":{"key":"16","name":"Thüringen"}},{"name":"Am Nägelstedter Bahnhof","postalCode":"99947","locality":"Bad Langensalza","municipality":{"key":"16064003","name":"Bad Langensalza, Stadt","type":"Stadt"},"district":{"key":"16064","name":"Unstrut-Hainich-Kreis","type":"Landkreis"},"federalState":{"key":"16","name":"Thüringen"}},{"name":"Am Nicolausturm","postalCode":"99947","locality":"Bad Langensalza","municipality":{"key":"16064003","name":"Bad Langensalza, Stadt","type":"Stadt"},"district":{"key":"16064","name":"Unstrut-Hainich-Kreis","type":"Landkreis"},"federalState":{"key":"16","name":"Thüringen"}},{"name":"Am Plan","postalCode":"99947","locality":"Bad Langensalza","municipality":{"key":"16064003","name":"Bad Langensalza, Stadt","type":"Stadt"},"district":{"key":"16064","name":"Unstrut-Hainich-Kreis","type":"Landkreis"},"federalState":{"key":"16","name":"Thüringen"}},{"name":"Am Plan","postalCode":"99955","locality":"Bad Langensalza","municipality":{"key":"16064003","name":"Bad Langensalza, Stadt","type":"Stadt"},"district":{"key":"16064","name":"Unstrut-Hainich-Kreis","type":"Landkreis"},"federalState":{"key":"16","name":"Thüringen"}},{"name":"Am Rasenfleck","postalCode":"99947","locality":"Bad Langensalza","municipality":{"key":"16064003","name":"Bad Langensalza, Stadt","type":"Stadt"},"district":{"key":"16064","name":"Unstrut-Hainich-Kreis","type":"Landkreis"},"federalState":{"key":"16","name":"Thüringen"}},{"name":"Am Riedsgraben","postalCode":"99947","locality":"Bad Langensalza","municipality":{"key":"16064003","name":"Bad Langensalza, Stadt","type":"Stadt"},"district":{"key":"16064","name":"Unstrut-Hainich-Kreis","type":"Landkreis"},"federalState":{"key":"16","name":"Thüringen"}},{"name":"Am Rosengarten","postalCode":"99947","locality":"Bad Langensalza","municipality":{"key":"16064003","name":"Bad Langensalza, Stadt","type":"Stadt"},"district":{"key":"16064","name":"Unstrut-Hainich-Kreis","type":"Landkreis"},"federalState":{"key":"16","name":"Thüringen"}},{"name":"Am Rosenthal","postalCode":"99947","locality":"Bad Langensalza","municipality":{"key":"16064003","name":"Bad Langensalza, Stadt","type":"Stadt"},"district":{"key":"16064","name":"Unstrut-Hainich-Kreis","type":"Landkreis"},"federalState":{"key":"16","name":"Thüringen"}},{"name":"Am Schanzgraben","postalCode":"99947","locality":"Bad Langensalza","municipality":{"key":"16064003","name":"Bad Langensalza, Stadt","type":"Stadt"},"district":{"key":"16064","name":"Unstrut-Hainich-Kreis","type":"Landkreis"},"federalState":{"key":"16","name":"Thüringen"}},{"name":"Am Schlossberg","postalCode":"99947","locality":"Bad Langensalza","municipality":{"key":"16064003","name":"Bad Langensalza, Stadt","type":"Stadt"},"district":{"key":"16064","name":"Unstrut-Hainich-Kreis","type":"Landkreis"},"federalState":{"key":"16","name":"Thüringen"}},{"name":"Am Schwarzbach","postalCode":"99947","locality":"Bad Langensalza","municipality":{"key":"16064003","name":"Bad Langensalza, Stadt","type":"Stadt"},"district":{"key":"16064","name":"Unstrut-Hainich-Kreis","type":"Landkreis"},"federalState":{"key":"16","name":"Thüringen"}},{"name":"Am Sportplatz","postalCode":"99947","locality":"Bad Langensalza","municipality":{"key":"16064003","name":"Bad Langensalza, Stadt","type":"Stadt"},"district":{"key":"16064","name":"Unstrut-Hainich-Kreis","type":"Landkreis"},"federalState":{"key":"16","name":"Thüringen"}},{"name":"Am Sportplatz","postalCode":"99955","locality":"Bad Langensalza","municipality":{"key":"16064003","name":"Bad Langensalza, Stadt","type":"Stadt"},"district":{"key":"16064","name":"Unstrut-Hainich-Kreis","type":"Landkreis"},"federalState":{"key":"16","name":"Thüringen"}},{"name":"Am Stadtgraben","postalCode":"99947","locality":"Bad Langensalza","municipality":{"key":"16064003","name":"Bad Langensalza, Stadt","type":"Stadt"},"district":{"key":"16064","name":"Unstrut-Hainich-Kreis","type":"Landkreis"},"federalState":{"key":"16","name":"Thüringen"}},{"name":"Am Sülzenberg","postalCode":"99947","locality":"Bad Langensalza","municipality":{"key":"16064003","name":"Bad Langensalza, Stadt","type":"Stadt"},"district":{"key":"16064","name":"Unstrut-Hainich-Kreis","type":"Landkreis"},"federalState":{"key":"16","name":"Thüringen"}},{"name":"Am Weinberg","postalCode":"99947","locality":"Bad Langensalza","municipality":{"key":"16064003","name":"Bad Langensalza, Stadt","type":"Stadt"},"district":{"key":"16064","name":"Unstrut-Hainich-Kreis","type":"Landkreis"},"federalState":{"key":"16","name":"Thüringen"}},{"name":"Am Wilden Graben","postalCode":"99947","locality":"Bad Langensalza","municipality":{"key":"16064003","name":"Bad Langensalza, Stadt","type":"Stadt"},"district":{"key":"16064","name":"Unstrut-Hainich-Kreis","type":"Landkreis"},"federalState":{"key":"16","name":"Thüringen"}},{"name":"Am Zimmerweg","postalCode":"99947","locality":"Bad Langensalza","municipality":{"key":"16064003","name":"Bad Langensalza, Stadt","type":"Stadt"},"district":{"key":"16064","name":"Unstrut-Hainich-Kreis","type":"Landkreis"},"federalState":{"key":"16","name":"Thüringen"}},{"name":"An der Alten Post","postalCode":"99947","locality":"Bad Langensalza","municipality":{"key":"16064003","name":"Bad Langensalza, Stadt","type":"Stadt"},"district":{"key":"16064","name":"Unstrut-Hainich-Kreis","type":"Landkreis"},"federalState":{"key":"16","name":"Thüringen"}},{"name":"An der Kastanienallee","postalCode":"99947","locality":"Bad Langensalza","municipality":{"key":"16064003","name":"Bad Langensalza, Stadt","type":"Stadt"},"district":{"key":"16064","name":"Unstrut-Hainich-Kreis","type":"Landkreis"},"federalState":{"key":"16","name":"Thüringen"}},{"name":"An der Stadtmauer","postalCode":"99947","locality":"Bad Langensalza","municipality":{"key":"16064003","name":"Bad Langensalza, Stadt","type":"Stadt"},"district":{"key":"16064","name":"Unstrut-Hainich-Kreis","type":"Landkreis"},"federalState":{"key":"16","name":"Thüringen"}},{"name":"An der Unstrut","postalCode":"99947","locality":"Bad Langensalza","municipality":{"key":"16064003","name":"Bad Langensalza, Stadt","type":"Stadt"},"district":{"key":"16064","name":"Unstrut-Hainich-Kreis","type":"Landkreis"},"federalState":{"key":"16","name":"Thüringen"}},{"name":"Anger","postalCode":"99947","locality":"Bad Langensalza","municipality":{"key":"16064003","name":"Bad Langensalza, Stadt","type":"Stadt"},"district":{"key":"16064","name":"Unstrut-Hainich-Kreis","type":"Landkreis"},"federalState":{"key":"16","name":"Thüringen"}},{"name":"Arboretum","postalCode":"99947","locality":"Bad Langensalza","municipality":{"key":"16064003","name":"Bad Langensalza, Stadt","type":"Stadt"},"district":{"key":"16064","name":"Unstrut-Hainich-Kreis","type":"Landkreis"},"federalState":{"key":"16","name":"Thüringen"}},{"name":"Ascharaer Kreuz","postalCode":"99947","locality":"Bad Langensalza","municipality":{"key":"16064003","name":"Bad Langensalza, Stadt","type":"Stadt"},"district":{"key":"16064","name":"Unstrut-Hainich-Kreis","type":"Landkreis"},"federalState":{"key":"16","name":"Thüringen"}},{"name":"Auf dem Berge","postalCode":"99947","locality":"Bad Langensalza","municipality":{"key":"16064003","name":"Bad Langensalza, Stadt","type":"Stadt"},"district":{"key":"16064","name":"Unstrut-Hainich-Kreis","type":"Landkreis"},"federalState":{"key":"16","name":"Thüringen"}},{"name":"Auf dem Kirchberg","postalCode":"99947","locality":"Bad Langensalza","municipality":{"key":"16064003","name":"Bad Langensalza, Stadt","type":"Stadt"},"district":{"key":"16064","name":"Unstrut-Hainich-Kreis","type":"Landkreis"},"federalState":{"key":"16","name":"Thüringen"}},{"name":"Backgasse","postalCode":"99947","locality":"Bad Langensalza","municipality":{"key":"16064003","name":"Bad Langensalza, Stadt","type":"Stadt"},"district":{"key":"16064","name":"Unstrut-Hainich-Kreis","type":"Landkreis"},"federalState":{"key":"16","name":"Thüringen"}},{"name":"Backhausstr.","postalCode":"99947","locality":"Bad Langensalza","municipality":{"key":"16064003","name":"Bad Langensalza, Stadt","type":"Stadt"},"district":{"key":"16064","name":"Unstrut-Hainich-Kreis","type":"Landkreis"},"federalState":{"key":"16","name":"Thüringen"}},{"name":"Backsberg","postalCode":"99947","locality":"Bad Langensalza","municipality":{"key":"16064003","name":"Bad Langensalza, Stadt","type":"Stadt"},"district":{"key":"16064","name":"Unstrut-Hainich-Kreis","type":"Landkreis"},"federalState":{"key":"16","name":"Thüringen"}},{"name":"Badeweg","postalCode":"99947","locality":"Bad Langensalza","municipality":{"key":"16064003","name":"Bad Langensalza, Stadt","type":"Stadt"},"district":{"key":"16064","name":"Unstrut-Hainich-Kreis","type":"Landkreis"},"federalState":{"key":"16","name":"Thüringen"}},{"name":"Bad Nauheimer Str.","postalCode":"99947","locality":"Bad Langensalza","municipality":{"key":"16064003","name":"Bad Langensalza, Stadt","type":"Stadt"},"district":{"key":"16064","name":"Unstrut-Hainich-Kreis","type":"Landkreis"},"federalState":{"key":"16","name":"Thüringen"}},{"name":"Bahnhofstr.","postalCode":"99947","locality":"Bad Langensalza","municipality":{"key":"16064003","name":"Bad Langensalza, Stadt","type":"Stadt"},"district":{"key":"16064","name":"Unstrut-Hainich-Kreis","type":"Landkreis"},"federalState":{"key":"16","name":"Thüringen"}},{"name":"Bei der Marktkirche","postalCode":"99947","locality":"Bad Langensalza","municipality":{"key":"16064003","name":"Bad Langensalza, Stadt","type":"Stadt"},"district":{"key":"16064","name":"Unstrut-Hainich-Kreis","type":"Landkreis"},"federalState":{"key":"16","name":"Thüringen"}},{"name":"Beim Anger","postalCode":"99947","locality":"Bad Langensalza","municipality":{"key":"16064003","name":"Bad Langensalza, Stadt","type":"Stadt"},"district":{"key":"16064","name":"Unstrut-Hainich-Kreis","type":"Landkreis"},"federalState":{"key":"16","name":"Thüringen"}},{"name":"Beim Bahndamm","postalCode":"99947","locality":"Bad Langensalza","municipality":{"key":"16064003","name":"Bad Langensalza, Stadt","type":"Stadt"},"district":{"key":"16064","name":"Unstrut-Hainich-Kreis","type":"Landkreis"},"federalState":{"key":"16","name":"Thüringen"}},{"name":"Beim Barfüßer","postalCode":"99947","locality":"Bad Langensalza","municipality":{"key":"16064003","name":"Bad Langensalza, Stadt","type":"Stadt"},"district":{"key":"16064","name":"Unstrut-Hainich-Kreis","type":"Landkreis"},"federalState":{"key":"16","name":"Thüringen"}},{"name":"Bergstr.","postalCode":"99947","locality":"Bad Langensalza","municipality":{"key":"16064003","name":"Bad Langensalza, Stadt","type":"Stadt"},"district":{"key":"16064","name":"Unstrut-Hainich-Kreis","type":"Landkreis"},"federalState":{"key":"16","name":"Thüringen"}},{"name":"Birkenweg","postalCode":"99947","locality":"Bad Langensalza","municipality":{"key":"16064003","name":"Bad Langensalza, Stadt","type":"Stadt"},"district":{"key":"16064","name":"Unstrut-Hainich-Kreis","type":"Landkreis"},"federalState":{"key":"16","name":"Thüringen"}},{"name":"Böhmenstr.","postalCode":"99947","locality":"Bad Langensalza","municipality":{"key":"16064003","name":"Bad Langensalza, Stadt","type":"Stadt"},"district":{"key":"16064","name":"Unstrut-Hainich-Kreis","type":"Landkreis"},"federalState":{"key":"16","name":"Thüringen"}},{"name":"Bornklagengasse","postalCode":"99947","locality":"Bad Langensalza","municipality":{"key":"16064003","name":"Bad Langensalza, Stadt","type":"Stadt"},"district":{"key":"16064","name":"Unstrut-Hainich-Kreis","type":"Landkreis"},"federalState":{"key":"16","name":"Thüringen"}},{"name":"Botanischer Garten","postalCode":"99947","locality":"Bad Langensalza","municipality":{"key":"16064003","name":"Bad Langensalza, Stadt","type":"Stadt"},"district":{"key":"16064","name":"Unstrut-Hainich-Kreis","type":"Landkreis"},"federalState":{"key":"16","name":"Thüringen"}},{"name":"Brauhausstr.","postalCode":"99947","locality":"Bad Langensalza","municipality":{"key":"16064003","name":"Bad Langensalza, Stadt","type":"Stadt"},"district":{"key":"16064","name":"Unstrut-Hainich-Kreis","type":"Landkreis"},"federalState":{"key":"16","name":"Thüringen"}},{"name":"Breitscheidstr.","postalCode":"99947","locality":"Bad Langensalza","municipality":{"key":"16064003","name":"Bad Langensalza, Stadt","type":"Stadt"},"district":{"key":"16064","name":"Unstrut-Hainich-Kreis","type":"Landkreis"},"federalState":{"key":"16","name":"Thüringen"}},{"name":"Brentanostr.","postalCode":"99947","locality":"Bad Langensalza","municipality":{"key":"16064003","name":"Bad Langensalza, Stadt","type":"Stadt"},"district":{"key":"16064","name":"Unstrut-Hainich-Kreis","type":"Landkreis"},"federalState":{"key":"16","name":"Thüringen"}},{"name":"Brückenstr.","postalCode":"99947","locality":"Bad Langensalza","municipality":{"key":"16064003","name":"Bad Langensalza, Stadt","type":"Stadt"},"district":{"key":"16064","name":"Unstrut-Hainich-Kreis","type":"Landkreis"},"federalState":{"key":"16","name":"Thüringen"}},{"name":"Brücktor","postalCode":"99947","locality":"Bad Langensalza","municipality":{"key":"16064003","name":"Bad Langensalza, Stadt","type":"Stadt"},"district":{"key":"16064","name":"Unstrut-Hainich-Kreis","type":"Landkreis"},"federalState":{"key":"16","name":"Thüringen"}},{"name":"Brunnenbau-Conrad-Str.","postalCode":"99947","locality":"Bad Langensalza","municipality":{"key":"16064003","name":"Bad Langensalza, Stadt","type":"Stadt"},"district":{"key":"16064","name":"Unstrut-Hainich-Kreis","type":"Landkreis"},"federalState":{"key":"16","name":"Thüringen"}},{"name":"Burggasse","postalCode":"99947","locality":"Bad Langensalza","municipality":{"key":"16064003","name":"Bad Langensalza, Stadt","type":"Stadt"},"district":{"key":"16064","name":"Unstrut-Hainich-Kreis","type":"Landkreis"},"federalState":{"key":"16","name":"Thüringen"}},{"name":"Citronengasse","postalCode":"99947","locality":"Bad Langensalza","municipality":{"key":"16064003","name":"Bad Langensalza, Stadt","type":"Stadt"},"district":{"key":"16064","name":"Unstrut-Hainich-Kreis","type":"Landkreis"},"federalState":{"key":"16","name":"Thüringen"}},{"name":"Clara-Zetkin-Str.","postalCode":"99947","locality":"Bad Langensalza","municipality":{"key":"16064003","name":"Bad Langensalza, Stadt","type":"Stadt"},"district":{"key":"16064","name":"Unstrut-Hainich-Kreis","type":"Landkreis"},"federalState":{"key":"16","name":"Thüringen"}},{"name":"Dammtorstr.","postalCode":"99947","locality":"Bad Langensalza","municipality":{"key":"16064003","name":"Bad Langensalza, Stadt","type":"Stadt"},"district":{"key":"16064","name":"Unstrut-Hainich-Kreis","type":"Landkreis"},"federalState":{"key":"16","name":"Thüringen"}},{"name":"Das Gäßchen","postalCode":"99955","locality":"Bad Langensalza","municipality":{"key":"16064003","name":"Bad Langensalza, Stadt","type":"Stadt"},"district":{"key":"16064","name":"Unstrut-Hainich-Kreis","type":"Landkreis"},"federalState":{"key":"16","name":"Thüringen"}},{"name":"Döppingstr.","postalCode":"99947","locality":"Bad Langensalza","municipality":{"key":"16064003","name":"Bad Langensalza, Stadt","type":"Stadt"},"district":{"key":"16064","name":"Unstrut-Hainich-Kreis","type":"Landkreis"},"federalState":{"key":"16","name":"Thüringen"}},{"name":"Dorfplatz","postalCode":"99947","locality":"Bad Langensalza","municipality":{"key":"16064003","name":"Bad Langensalza, Stadt","type":"Stadt"},"district":{"key":"16064","name":"Unstrut-Hainich-Kreis","type":"Landkreis"},"federalState":{"key":"16","name":"Thüringen"}},{"name":"Dorfstr.","postalCode":"99947","locality":"Bad Langensalza","municipality":{"key":"16064003","name":"Bad Langensalza, Stadt","type":"Stadt"},"district":{"key":"16064","name":"Unstrut-Hainich-Kreis","type":"Landkreis"},"federalState":{"key":"16","name":"Thüringen"}},{"name":"ehem. Bahnstrecke Bad Langensalza–Haussömmern","postalCode":"99947","locality":"Bad Langensalza","municipality":{"key":"16064003","name":"Bad Langensalza, Stadt","type":"Stadt"},"district":{"key":"16064","name":"Unstrut-Hainich-Kreis","type":"Landkreis"},"federalState":{"key":"16","name":"Thüringen"}},{"name":"Eichsfeldstr.","postalCode":"99947","locality":"Bad Langensalza","municipality":{"key":"16064003","name":"Bad Langensalza, Stadt","type":"Stadt"},"district":{"key":"16064","name":"Unstrut-Hainich-Kreis","type":"Landkreis"},"federalState":{"key":"16","name":"Thüringen"}},{"name":"Eisenacher Str.","postalCode":"99947","locality":"Bad Langensalza","municipality":{"key":"16064003","name":"Bad Langensalza, Stadt","type":"Stadt"},"district":{"key":"16064","name":"Unstrut-Hainich-Kreis","type":"Landkreis"},"federalState":{"key":"16","name":"Thüringen"}},{"name":"Enge Str.","postalCode":"99947","locality":"Bad Langensalza","municipality":{"key":"16064003","name":"Bad Langensalza, Stadt","type":"Stadt"},"district":{"key":"16064","name":"Unstrut-Hainich-Kreis","type":"Landkreis"},"federalState":{"key":"16","name":"Thüringen"}},{"name":"Entenlaich","postalCode":"99947","locality":"Bad Langensalza","municipality":{"key":"16064003","name":"Bad Langensalza, Stadt","type":"Stadt"},"district":{"key":"16064","name":"Unstrut-Hainich-Kreis","type":"Landkreis"},"federalState":{"key":"16","name":"Thüringen"}},{"name":"Erfurter Str.","postalCode":"99947","locality":"Bad Langensalza","municipality":{"key":"16064003","name":"Bad Langensalza, Stadt","type":"Stadt"},"district":{"key":"16064","name":"Unstrut-Hainich-Kreis","type":"Landkreis"},"federalState":{"key":"16","name":"Thüringen"}},{"name":"Fabrikstr.","postalCode":"99947","locality":"Bad Langensalza","municipality":{"key":"16064003","name":"Bad Langensalza, Stadt","type":"Stadt"},"district":{"key":"16064","name":"Unstrut-Hainich-Kreis","type":"Landkreis"},"federalState":{"key":"16","name":"Thüringen"}},{"name":"Feldstr.","postalCode":"99947","locality":"Bad Langensalza","municipality":{"key":"16064003","name":"Bad Langensalza, Stadt","type":"Stadt"},"district":{"key":"16064","name":"Unstrut-Hainich-Kreis","type":"Landkreis"},"federalState":{"key":"16","name":"Thüringen"}},{"name":"Felsenkellerstr.","postalCode":"99947","locality":"Bad Langensalza","municipality":{"key":"16064003","name":"Bad Langensalza, Stadt","type":"Stadt"},"district":{"key":"16064","name":"Unstrut-Hainich-Kreis","type":"Landkreis"},"federalState":{"key":"16","name":"Thüringen"}},{"name":"Frauenberg","postalCode":"99947","locality":"Bad Langensalza","municipality":{"key":"16064003","name":"Bad Langensalza, Stadt","type":"Stadt"},"district":{"key":"16064","name":"Unstrut-Hainich-Kreis","type":"Landkreis"},"federalState":{"key":"16","name":"Thüringen"}},{"name":"Friedhofstr.","postalCode":"99947","locality":"Bad Langensalza","municipality":{"key":"16064003","name":"Bad Langensalza, Stadt","type":"Stadt"},"district":{"key":"16064","name":"Unstrut-Hainich-Kreis","type":"Landkreis"},"federalState":{"key":"16","name":"Thüringen"}},{"name":"Friedrich-Ebert-Str.","postalCode":"99947","locality":"Bad Langensalza","municipality":{"key":"16064003","name":"Bad Langensalza, Stadt","type":"Stadt"},"district":{"key":"16064","name":"Unstrut-Hainich-Kreis","type":"Landkreis"},"federalState":{"key":"16","name":"Thüringen"}},{"name":"Friedrich-Hahn-Str.","postalCode":"99947","locality":"Bad Langensalza","municipality":{"key":"16064003","name":"Bad Langensalza, Stadt","type":"Stadt"},"district":{"key":"16064","name":"Unstrut-Hainich-Kreis","type":"Landkreis"},"federalState":{"key":"16","name":"Thüringen"}},{"name":"Friedrich-Mann-Str.","postalCode":"99947","locality":"Bad Langensalza","municipality":{"key":"16064003","name":"Bad Langensalza, Stadt","type":"Stadt"},"district":{"key":"16064","name":"Unstrut-Hainich-Kreis","type":"Landkreis"},"federalState":{"key":"16","name":"Thüringen"}},{"name":"Gartenstr.","postalCode":"99947","locality":"Bad Langensalza","municipality":{"key":"16064003","name":"Bad Langensalza, Stadt","type":"Stadt"},"district":{"key":"16064","name":"Unstrut-Hainich-Kreis","type":"Landkreis"},"federalState":{"key":"16","name":"Thüringen"}},{"name":"Gärtnerweg","postalCode":"99947","locality":"Bad Langensalza","municipality":{"key":"16064003","name":"Bad Langensalza, Stadt","type":"Stadt"},"district":{"key":"16064","name":"Unstrut-Hainich-Kreis","type":"Landkreis"},"federalState":{"key":"16","name":"Thüringen"}},{"name":"Gässchen","postalCode":"99947","locality":"Bad Langensalza","municipality":{"key":"16064003","name":"Bad Langensalza, Stadt","type":"Stadt"},"district":{"key":"16064","name":"Unstrut-Hainich-Kreis","type":"Landkreis"},"federalState":{"key":"16","name":"Thüringen"}},{"name":"Geranienweg","postalCode":"99947","locality":"Bad Langensalza","municipality":{"key":"16064003","name":"Bad Langensalza, Stadt","type":"Stadt"},"district":{"key":"16064","name":"Unstrut-Hainich-Kreis","type":"Landkreis"},"federalState":{"key":"16","name":"Thüringen"}},{"name":"Gewerbegebiet Ost","postalCode":"99947","locality":"Bad Langensalza","municipality":{"key":"16064003","name":"Bad Langensalza, Stadt","type":"Stadt"},"district":{"key":"16064","name":"Unstrut-Hainich-Kreis","type":"Landkreis"},"federalState":{"key":"16","name":"Thüringen"}},{"name":"Gewerbepark","postalCode":"99947","locality":"Bad Langensalza","municipality":{"key":"16064003","name":"Bad Langensalza, Stadt","type":"Stadt"},"district":{"key":"16064","name":"Unstrut-Hainich-Kreis","type":"Landkreis"},"federalState":{"key":"16","name":"Thüringen"}},{"name":"Goethestr.","postalCode":"99947","locality":"Bad Langensalza","municipality":{"key":"16064003","name":"Bad Langensalza, Stadt","type":"Stadt"},"district":{"key":"16064","name":"Unstrut-Hainich-Kreis","type":"Landkreis"},"federalState":{"key":"16","name":"Thüringen"}},{"name":"Gothaer Chaussee","postalCode":"99947","locality":"Bad Langensalza","municipality":{"key":"16064003","name":"Bad Langensalza, Stadt","type":"Stadt"},"district":{"key":"16064","name":"Unstrut-Hainich-Kreis","type":"Landkreis"},"federalState":{"key":"16","name":"Thüringen"}},{"name":"Gothaer Landstr.","postalCode":"99947","locality":"Bad Langensalza","municipality":{"key":"16064003","name":"Bad Langensalza, Stadt","type":"Stadt"},"district":{"key":"16064","name":"Unstrut-Hainich-Kreis","type":"Landkreis"},"federalState":{"key":"16","name":"Thüringen"}},{"name":"Gothaer Str.","postalCode":"99947","locality":"Bad Langensalza","municipality":{"key":"16064003","name":"Bad Langensalza, Stadt","type":"Stadt"},"district":{"key":"16064","name":"Unstrut-Hainich-Kreis","type":"Landkreis"},"federalState":{"key":"16","name":"Thüringen"}},{"name":"Gottersche Str.","postalCode":"99947","locality":"Bad Langensalza","municipality":{"key":"16064003","name":"Bad Langensalza, Stadt","type":"Stadt"},"district":{"key":"16064","name":"Unstrut-Hainich-Kreis","type":"Landkreis"},"federalState":{"key":"16","name":"Thüringen"}},{"name":"Grabenstr.","postalCode":"99947","locality":"Bad Langensalza","municipality":{"key":"16064003","name":"Bad Langensalza, Stadt","type":"Stadt"},"district":{"key":"16064","name":"Unstrut-Hainich-Kreis","type":"Landkreis"},"federalState":{"key":"16","name":"Thüringen"}},{"name":"Greußengasse","postalCode":"99947","locality":"Bad Langensalza","municipality":{"key":"16064003","name":"Bad Langensalza, Stadt","type":"Stadt"},"district":{"key":"16064","name":"Unstrut-Hainich-Kreis","type":"Landkreis"},"federalState":{"key":"16","name":"Thüringen"}},{"name":"Große Pfarrgasse","postalCode":"99947","locality":"Bad Langensalza","municipality":{"key":"16064003","name":"Bad Langensalza, Stadt","type":"Stadt"},"district":{"key":"16064","name":"Unstrut-Hainich-Kreis","type":"Landkreis"},"federalState":{"key":"16","name":"Thüringen"}},{"name":"Große Quergasse","postalCode":"99947","locality":"Bad Langensalza","municipality":{"key":"16064003","name":"Bad Langensalza, Stadt","type":"Stadt"},"district":{"key":"16064","name":"Unstrut-Hainich-Kreis","type":"Landkreis"},"federalState":{"key":"16","name":"Thüringen"}},{"name":"Großwelsbacher Hauptstr.","postalCode":"99947","locality":"Bad Langensalza","municipality":{"key":"16064003","name":"Bad Langensalza, Stadt","type":"Stadt"},"district":{"key":"16064","name":"Unstrut-Hainich-Kreis","type":"Landkreis"},"federalState":{"key":"16","name":"Thüringen"}},{"name":"Großwelsbacher Str.","postalCode":"99947","locality":"Bad Langensalza","municipality":{"key":"16064003","name":"Bad Langensalza, Stadt","type":"Stadt"},"district":{"key":"16064","name":"Unstrut-Hainich-Kreis","type":"Landkreis"},"federalState":{"key":"16","name":"Thüringen"}},{"name":"Grumbacher Anger","postalCode":"99947","locality":"Bad Langensalza","municipality":{"key":"16064003","name":"Bad Langensalza, Stadt","type":"Stadt"},"district":{"key":"16064","name":"Unstrut-Hainich-Kreis","type":"Landkreis"},"federalState":{"key":"16","name":"Thüringen"}},{"name":"Gutbierstr.","postalCode":"99947","locality":"Bad Langensalza","municipality":{"key":"16064003","name":"Bad Langensalza, Stadt","type":"Stadt"},"district":{"key":"16064","name":"Unstrut-Hainich-Kreis","type":"Landkreis"},"federalState":{"key":"16","name":"Thüringen"}},{"name":"Gutenbergstr.","postalCode":"99947","locality":"Bad Langensalza","municipality":{"key":"16064003","name":"Bad Langensalza, Stadt","type":"Stadt"},"district":{"key":"16064","name":"Unstrut-Hainich-Kreis","type":"Landkreis"},"federalState":{"key":"16","name":"Thüringen"}},{"name":"Hannoversche Str.","postalCode":"99947","locality":"Bad Langensalza","municipality":{"key":"16064003","name":"Bad Langensalza, Stadt","type":"Stadt"},"district":{"key":"16064","name":"Unstrut-Hainich-Kreis","type":"Landkreis"},"federalState":{"key":"16","name":"Thüringen"}},{"name":"Hauptstr.","postalCode":"99947","locality":"Bad Langensalza","municipality":{"key":"16064003","name":"Bad Langensalza, Stadt","type":"Stadt"},"district":{"key":"16064","name":"Unstrut-Hainich-Kreis","type":"Landkreis"},"federalState":{"key":"16","name":"Thüringen"}},{"name":"Hausgasse","postalCode":"99947","locality":"Bad Langensalza","municipality":{"key":"16064003","name":"Bad Langensalza, Stadt","type":"Stadt"},"district":{"key":"16064","name":"Unstrut-Hainich-Kreis","type":"Landkreis"},"federalState":{"key":"16","name":"Thüringen"}},{"name":"Hennengasse","postalCode":"99947","locality":"Bad Langensalza","municipality":{"key":"16064003","name":"Bad Langensalza, Stadt","type":"Stadt"},"district":{"key":"16064","name":"Unstrut-Hainich-Kreis","type":"Landkreis"},"federalState":{"key":"16","name":"Thüringen"}},{"name":"Henningsleber Hauptstr.","postalCode":"99947","locality":"Bad Langensalza","municipality":{"key":"16064003","name":"Bad Langensalza, Stadt","type":"Stadt"},"district":{"key":"16064","name":"Unstrut-Hainich-Kreis","type":"Landkreis"},"federalState":{"key":"16","name":"Thüringen"}},{"name":"Henningsleber Weg","postalCode":"99947","locality":"Bad Langensalza","municipality":{"key":"16064003","name":"Bad Langensalza, Stadt","type":"Stadt"},"district":{"key":"16064","name":"Unstrut-Hainich-Kreis","type":"Landkreis"},"federalState":{"key":"16","name":"Thüringen"}},{"name":"Hermann-von-Salza-Str.","postalCode":"99947","locality":"Bad Langensalza","municipality":{"key":"16064003","name":"Bad Langensalza, Stadt","type":"Stadt"},"district":{"key":"16064","name":"Unstrut-Hainich-Kreis","type":"Landkreis"},"federalState":{"key":"16","name":"Thüringen"}},{"name":"Herrenstr.","postalCode":"99947","locality":"Bad Langensalza","municipality":{"key":"16064003","name":"Bad Langensalza, Stadt","type":"Stadt"},"district":{"key":"16064","name":"Unstrut-Hainich-Kreis","type":"Landkreis"},"federalState":{"key":"16","name":"Thüringen"}},{"name":"Hinter dem Krankenhaus","postalCode":"99947","locality":"Bad Langensalza","municipality":{"key":"16064003","name":"Bad Langensalza, Stadt","type":"Stadt"},"district":{"key":"16064","name":"Unstrut-Hainich-Kreis","type":"Landkreis"},"federalState":{"key":"16","name":"Thüringen"}},{"name":"Hinter den Wänden","postalCode":"99947","locality":"Bad Langensalza","municipality":{"key":"16064003","name":"Bad Langensalza, Stadt","type":"Stadt"},"district":{"key":"16064","name":"Unstrut-Hainich-Kreis","type":"Landkreis"},"federalState":{"key":"16","name":"Thüringen"}},{"name":"Hinter der Brauerei","postalCode":"99947","locality":"Bad Langensalza","municipality":{"key":"16064003","name":"Bad Langensalza, Stadt","type":"Stadt"},"district":{"key":"16064","name":"Unstrut-Hainich-Kreis","type":"Landkreis"},"federalState":{"key":"16","name":"Thüringen"}},{"name":"Hintere Gasse","postalCode":"99947","locality":"Bad Langensalza","municipality":{"key":"16064003","name":"Bad Langensalza, Stadt","type":"Stadt"},"district":{"key":"16064","name":"Unstrut-Hainich-Kreis","type":"Landkreis"},"federalState":{"key":"16","name":"Thüringen"}},{"name":"Hintergasse","postalCode":"99947","locality":"Bad Langensalza","municipality":{"key":"16064003","name":"Bad Langensalza, Stadt","type":"Stadt"},"district":{"key":"16064","name":"Unstrut-Hainich-Kreis","type":"Landkreis"},"federalState":{"key":"16","name":"Thüringen"}},{"name":"Hirtengasse","postalCode":"99947","locality":"Bad Langensalza","municipality":{"key":"16064003","name":"Bad Langensalza, Stadt","type":"Stadt"},"district":{"key":"16064","name":"Unstrut-Hainich-Kreis","type":"Landkreis"},"federalState":{"key":"16","name":"Thüringen"}},{"name":"Hohe Str.","postalCode":"99947","locality":"Bad Langensalza","municipality":{"key":"16064003","name":"Bad Langensalza, Stadt","type":"Stadt"},"district":{"key":"16064","name":"Unstrut-Hainich-Kreis","type":"Landkreis"},"federalState":{"key":"16","name":"Thüringen"}},{"name":"Hohle","postalCode":"99947","locality":"Bad Langensalza","municipality":{"key":"16064003","name":"Bad Langensalza, Stadt","type":"Stadt"},"district":{"key":"16064","name":"Unstrut-Hainich-Kreis","type":"Landkreis"},"federalState":{"key":"16","name":"Thüringen"}},{"name":"Holzgasse","postalCode":"99947","locality":"Bad Langensalza","municipality":{"key":"16064003","name":"Bad Langensalza, Stadt","type":"Stadt"},"district":{"key":"16064","name":"Unstrut-Hainich-Kreis","type":"Landkreis"},"federalState":{"key":"16","name":"Thüringen"}},{"name":"Homburger Weg","postalCode":"99947","locality":"Bad Langensalza","municipality":{"key":"16064003","name":"Bad Langensalza, Stadt","type":"Stadt"},"district":{"key":"16064","name":"Unstrut-Hainich-Kreis","type":"Landkreis"},"federalState":{"key":"16","name":"Thüringen"}},{"name":"Hospitalplatz","postalCode":"99947","locality":"Bad Langensalza","municipality":{"key":"16064003","name":"Bad Langensalza, Stadt","type":"Stadt"},"district":{"key":"16064","name":"Unstrut-Hainich-Kreis","type":"Landkreis"},"federalState":{"key":"16","name":"Thüringen"}},{"name":"Hufelandstr.","postalCode":"99947","locality":"Bad Langensalza","municipality":{"key":"16064003","name":"Bad Langensalza, Stadt","type":"Stadt"},"district":{"key":"16064","name":"Unstrut-Hainich-Kreis","type":"Landkreis"},"federalState":{"key":"16","name":"Thüringen"}},{"name":"Hüngelsgasse","postalCode":"99947","locality":"Bad Langensalza","municipality":{"key":"16064003","name":"Bad Langensalza, Stadt","type":"Stadt"},"district":{"key":"16064","name":"Unstrut-Hainich-Kreis","type":"Landkreis"},"federalState":{"key":"16","name":"Thüringen"}},{"name":"Illebener Anger","postalCode":"99947","locality":"Bad Langensalza","municipality":{"key":"16064003","name":"Bad Langensalza, Stadt","type":"Stadt"},"district":{"key":"16064","name":"Unstrut-Hainich-Kreis","type":"Landkreis"},"federalState":{"key":"16","name":"Thüringen"}},{"name":"Illebener Weg","postalCode":"99947","locality":"Bad Langensalza","municipality":{"key":"16064003","name":"Bad Langensalza, Stadt","type":"Stadt"},"district":{"key":"16064","name":"Unstrut-Hainich-Kreis","type":"Landkreis"},"federalState":{"key":"16","name":"Thüringen"}},{"name":"Im Jacobieck","postalCode":"99947","locality":"Bad Langensalza","municipality":{"key":"16064003","name":"Bad Langensalza, Stadt","type":"Stadt"},"district":{"key":"16064","name":"Unstrut-Hainich-Kreis","type":"Landkreis"},"federalState":{"key":"16","name":"Thüringen"}},{"name":"Im Jacobifeld","postalCode":"99947","locality":"Bad Langensalza","municipality":{"key":"16064003","name":"Bad Langensalza, Stadt","type":"Stadt"},"district":{"key":"16064","name":"Unstrut-Hainich-Kreis","type":"Landkreis"},"federalState":{"key":"16","name":"Thüringen"}},{"name":"Im Marktfelde","postalCode":"99947","locality":"Bad Langensalza","municipality":{"key":"16064003","name":"Bad Langensalza, Stadt","type":"Stadt"},"district":{"key":"16064","name":"Unstrut-Hainich-Kreis","type":"Landkreis"},"federalState":{"key":"16","name":"Thüringen"}},{"name":"Im Neustädter Feld","postalCode":"99947","locality":"Bad Langensalza","municipality":{"key":"16064003","name":"Bad Langensalza, Stadt","type":"Stadt"},"district":{"key":"16064","name":"Unstrut-Hainich-Kreis","type":"Landkreis"},"federalState":{"key":"16","name":"Thüringen"}},{"name":"Im Oberfelde","postalCode":"99947","locality":"Bad Langensalza","municipality":{"key":"16064003","name":"Bad Langensalza, Stadt","type":"Stadt"},"district":{"key":"16064","name":"Unstrut-Hainich-Kreis","type":"Landkreis"},"federalState":{"key":"16","name":"Thüringen"}},{"name":"Im Winkel","postalCode":"99947","locality":"Bad Langensalza","municipality":{"key":"16064003","name":"Bad Langensalza, Stadt","type":"Stadt"},"district":{"key":"16064","name":"Unstrut-Hainich-Kreis","type":"Landkreis"},"federalState":{"key":"16","name":"Thüringen"}},{"name":"Jägerstr.","postalCode":"99947","locality":"Bad Langensalza","municipality":{"key":"16064003","name":"Bad Langensalza, Stadt","type":"Stadt"},"district":{"key":"16064","name":"Unstrut-Hainich-Kreis","type":"Landkreis"},"federalState":{"key":"16","name":"Thüringen"}},{"name":"Jahnplatz","postalCode":"99947","locality":"Bad Langensalza","municipality":{"key":"16064003","name":"Bad Langensalza, Stadt","type":"Stadt"},"district":{"key":"16064","name":"Unstrut-Hainich-Kreis","type":"Landkreis"},"federalState":{"key":"16","name":"Thüringen"}},{"name":"Jahnstr.","postalCode":"99947","locality":"Bad Langensalza","municipality":{"key":"16064003","name":"Bad Langensalza, Stadt","type":"Stadt"},"district":{"key":"16064","name":"Unstrut-Hainich-Kreis","type":"Landkreis"},"federalState":{"key":"16","name":"Thüringen"}},{"name":"Japanischer Garten","postalCode":"99947","locality":"Bad Langensalza","municipality":{"key":"16064003","name":"Bad Langensalza, Stadt","type":"Stadt"},"district":{"key":"16064","name":"Unstrut-Hainich-Kreis","type":"Landkreis"},"federalState":{"key":"16","name":"Thüringen"}},{"name":"Johann-Christian-Wiegleb-Str.","postalCode":"99947","locality":"Bad Langensalza","municipality":{"key":"16064003","name":"Bad Langensalza, Stadt","type":"Stadt"},"district":{"key":"16064","name":"Unstrut-Hainich-Kreis","type":"Landkreis"},"federalState":{"key":"16","name":"Thüringen"}},{"name":"Jüdengasse","postalCode":"99947","locality":"Bad Langensalza","municipality":{"key":"16064003","name":"Bad Langensalza, Stadt","type":"Stadt"},"district":{"key":"16064","name":"Unstrut-Hainich-Kreis","type":"Landkreis"},"federalState":{"key":"16","name":"Thüringen"}},{"name":"Jüdenhügel","postalCode":"99947","locality":"Bad Langensalza","municipality":{"key":"16064003","name":"Bad Langensalza, Stadt","type":"Stadt"},"district":{"key":"16064","name":"Unstrut-Hainich-Kreis","type":"Landkreis"},"federalState":{"key":"16","name":"Thüringen"}},{"name":"Karl-Liebknecht-Platz","postalCode":"99947","locality":"Bad Langensalza","municipality":{"key":"16064003","name":"Bad Langensalza, Stadt","type":"Stadt"},"district":{"key":"16064","name":"Unstrut-Hainich-Kreis","type":"Landkreis"},"federalState":{"key":"16","name":"Thüringen"}},{"name":"Karlstr.","postalCode":"99947","locality":"Bad Langensalza","municipality":{"key":"16064003","name":"Bad Langensalza, Stadt","type":"Stadt"},"district":{"key":"16064","name":"Unstrut-Hainich-Kreis","type":"Landkreis"},"federalState":{"key":"16","name":"Thüringen"}},{"name":"Käthe-Kollwitz-Str.","postalCode":"99947","locality":"Bad Langensalza","municipality":{"key":"16064003","name":"Bad Langensalza, Stadt","type":"Stadt"},"district":{"key":"16064","name":"Unstrut-Hainich-Kreis","type":"Landkreis"},"federalState":{"key":"16","name":"Thüringen"}},{"name":"Kepfe","postalCode":"99947","locality":"Bad Langensalza","municipality":{"key":"16064003","name":"Bad Langensalza, Stadt","type":"Stadt"},"district":{"key":"16064","name":"Unstrut-Hainich-Kreis","type":"Landkreis"},"federalState":{"key":"16","name":"Thüringen"}},{"name":"Kirchberg","postalCode":"99947","locality":"Bad Langensalza","municipality":{"key":"16064003","name":"Bad Langensalza, Stadt","type":"Stadt"},"district":{"key":"16064","name":"Unstrut-Hainich-Kreis","type":"Landkreis"},"federalState":{"key":"16","name":"Thüringen"}},{"name":"Kirchgasse","postalCode":"99947","locality":"Bad Langensalza","municipality":{"key":"16064003","name":"Bad Langensalza, Stadt","type":"Stadt"},"district":{"key":"16064","name":"Unstrut-Hainich-Kreis","type":"Landkreis"},"federalState":{"key":"16","name":"Thüringen"}},{"name":"Kirchheilinger Str.","postalCode":"99947","locality":"Bad Langensalza","municipality":{"key":"16064003","name":"Bad Langensalza, Stadt","type":"Stadt"},"district":{"key":"16064","name":"Unstrut-Hainich-Kreis","type":"Landkreis"},"federalState":{"key":"16","name":"Thüringen"}},{"name":"Kirchplatz","postalCode":"99947","locality":"Bad Langensalza","municipality":{"key":"16064003","name":"Bad Langensalza, Stadt","type":"Stadt"},"district":{"key":"16064","name":"Unstrut-Hainich-Kreis","type":"Landkreis"},"federalState":{"key":"16","name":"Thüringen"}},{"name":"Kläranlage","postalCode":"99947","locality":"Bad Langensalza","municipality":{"key":"16064003","name":"Bad Langensalza, Stadt","type":"Stadt"},"district":{"key":"16064","name":"Unstrut-Hainich-Kreis","type":"Landkreis"},"federalState":{"key":"16","name":"Thüringen"}},{"name":"Klausbergstr.","postalCode":"99947","locality":"Bad Langensalza","municipality":{"key":"16064003","name":"Bad Langensalza, Stadt","type":"Stadt"},"district":{"key":"16064","name":"Unstrut-Hainich-Kreis","type":"Landkreis"},"federalState":{"key":"16","name":"Thüringen"}},{"name":"Kleine Bergstr.","postalCode":"99947","locality":"Bad Langensalza","municipality":{"key":"16064003","name":"Bad Langensalza, Stadt","type":"Stadt"},"district":{"key":"16064","name":"Unstrut-Hainich-Kreis","type":"Landkreis"},"federalState":{"key":"16","name":"Thüringen"}},{"name":"Kleine Pfarrgasse","postalCode":"99947","locality":"Bad Langensalza","municipality":{"key":"16064003","name":"Bad Langensalza, Stadt","type":"Stadt"},"district":{"key":"16064","name":"Unstrut-Hainich-Kreis","type":"Landkreis"},"federalState":{"key":"16","name":"Thüringen"}},{"name":"Kleine Poststrasse","postalCode":"99947","locality":"Bad Langensalza","municipality":{"key":"16064003","name":"Bad Langensalza, Stadt","type":"Stadt"},"district":{"key":"16064","name":"Unstrut-Hainich-Kreis","type":"Landkreis"},"federalState":{"key":"16","name":"Thüringen"}},{"name":"Kleine Quergasse","postalCode":"99947","locality":"Bad Langensalza","municipality":{"key":"16064003","name":"Bad Langensalza, Stadt","type":"Stadt"},"district":{"key":"16064","name":"Unstrut-Hainich-Kreis","type":"Landkreis"},"federalState":{"key":"16","name":"Thüringen"}},{"name":"Kleine Reinhardsbrunner Str.","postalCode":"99947","locality":"Bad Langensalza","municipality":{"key":"16064003","name":"Bad Langensalza, Stadt","type":"Stadt"},"district":{"key":"16064","name":"Unstrut-Hainich-Kreis","type":"Landkreis"},"federalState":{"key":"16","name":"Thüringen"}},{"name":"Kleinspehnstr.","postalCode":"99947","locality":"Bad Langensalza","municipality":{"key":"16064003","name":"Bad Langensalza, Stadt","type":"Stadt"},"district":{"key":"16064","name":"Unstrut-Hainich-Kreis","type":"Landkreis"},"federalState":{"key":"16","name":"Thüringen"}},{"name":"Klingenstr.","postalCode":"99947","locality":"Bad Langensalza","municipality":{"key":"16064003","name":"Bad Langensalza, Stadt","type":"Stadt"},"district":{"key":"16064","name":"Unstrut-Hainich-Kreis","type":"Landkreis"},"federalState":{"key":"16","name":"Thüringen"}},{"name":"Klopstockstr.","postalCode":"99947","locality":"Bad Langensalza","municipality":{"key":"16064003","name":"Bad Langensalza, Stadt","type":"Stadt"},"district":{"key":"16064","name":"Unstrut-Hainich-Kreis","type":"Landkreis"},"federalState":{"key":"16","name":"Thüringen"}},{"name":"Klostergasse","postalCode":"99947","locality":"Bad Langensalza","municipality":{"key":"16064003","name":"Bad Langensalza, Stadt","type":"Stadt"},"district":{"key":"16064","name":"Unstrut-Hainich-Kreis","type":"Landkreis"},"federalState":{"key":"16","name":"Thüringen"}},{"name":"Königsplatz","postalCode":"99947","locality":"Bad Langensalza","municipality":{"key":"16064003","name":"Bad Langensalza, Stadt","type":"Stadt"},"district":{"key":"16064","name":"Unstrut-Hainich-Kreis","type":"Landkreis"},"federalState":{"key":"16","name":"Thüringen"}},{"name":"Kornmarkt","postalCode":"99947","locality":"Bad Langensalza","municipality":{"key":"16064003","name":"Bad Langensalza, Stadt","type":"Stadt"},"district":{"key":"16064","name":"Unstrut-Hainich-Kreis","type":"Landkreis"},"federalState":{"key":"16","name":"Thüringen"}},{"name":"Kreuzweg","postalCode":"99947","locality":"Bad Langensalza","municipality":{"key":"16064003","name":"Bad Langensalza, Stadt","type":"Stadt"},"district":{"key":"16064","name":"Unstrut-Hainich-Kreis","type":"Landkreis"},"federalState":{"key":"16","name":"Thüringen"}},{"name":"Kurpark","postalCode":"99947","locality":"Bad Langensalza","municipality":{"key":"16064003","name":"Bad Langensalza, Stadt","type":"Stadt"},"district":{"key":"16064","name":"Unstrut-Hainich-Kreis","type":"Landkreis"},"federalState":{"key":"16","name":"Thüringen"}},{"name":"Kurpromenade","postalCode":"99947","locality":"Bad Langensalza","municipality":{"key":"16064003","name":"Bad Langensalza, Stadt","type":"Stadt"},"district":{"key":"16064","name":"Unstrut-Hainich-Kreis","type":"Landkreis"},"federalState":{"key":"16","name":"Thüringen"}},{"name":"Kurze Brüdergasse","postalCode":"99947","locality":"Bad Langensalza","municipality":{"key":"16064003","name":"Bad Langensalza, Stadt","type":"Stadt"},"district":{"key":"16064","name":"Unstrut-Hainich-Kreis","type":"Landkreis"},"federalState":{"key":"16","name":"Thüringen"}},{"name":"Lange Brüdergasse","postalCode":"99947","locality":"Bad Langensalza","municipality":{"key":"16064003","name":"Bad Langensalza, Stadt","type":"Stadt"},"district":{"key":"16064","name":"Unstrut-Hainich-Kreis","type":"Landkreis"},"federalState":{"key":"16","name":"Thüringen"}},{"name":"Langensalzaer Str.","postalCode":"99947","locality":"Bad Langensalza","municipality":{"key":"16064003","name":"Bad Langensalza, Stadt","type":"Stadt"},"district":{"key":"16064","name":"Unstrut-Hainich-Kreis","type":"Landkreis"},"federalState":{"key":"16","name":"Thüringen"}},{"name":"Langensalzaer Str.","postalCode":"99955","locality":"Bad Langensalza","municipality":{"key":"16064003","name":"Bad Langensalza, Stadt","type":"Stadt"},"district":{"key":"16064","name":"Unstrut-Hainich-Kreis","type":"Landkreis"},"federalState":{"key":"16","name":"Thüringen"}},{"name":"Langer Rasen","postalCode":"99947","locality":"Bad Langensalza","municipality":{"key":"16064003","name":"Bad Langensalza, Stadt","type":"Stadt"},"district":{"key":"16064","name":"Unstrut-Hainich-Kreis","type":"Landkreis"},"federalState":{"key":"16","name":"Thüringen"}},{"name":"Lange Str.","postalCode":"99947","locality":"Bad Langensalza","municipality":{"key":"16064003","name":"Bad Langensalza, Stadt","type":"Stadt"},"district":{"key":"16064","name":"Unstrut-Hainich-Kreis","type":"Landkreis"},"federalState":{"key":"16","name":"Thüringen"}},{"name":"Lange Str.","postalCode":"99955","locality":"Bad Langensalza","municipality":{"key":"16064003","name":"Bad Langensalza, Stadt","type":"Stadt"},"district":{"key":"16064","name":"Unstrut-Hainich-Kreis","type":"Landkreis"},"federalState":{"key":"16","name":"Thüringen"}},{"name":"Langgasse","postalCode":"99947","locality":"Bad Langensalza","municipality":{"key":"16064003","name":"Bad Langensalza, Stadt","type":"Stadt"},"district":{"key":"16064","name":"Unstrut-Hainich-Kreis","type":"Landkreis"},"federalState":{"key":"16","name":"Thüringen"}},{"name":"Lessingstr.","postalCode":"99947","locality":"Bad Langensalza","municipality":{"key":"16064003","name":"Bad Langensalza, Stadt","type":"Stadt"},"district":{"key":"16064","name":"Unstrut-Hainich-Kreis","type":"Landkreis"},"federalState":{"key":"16","name":"Thüringen"}},{"name":"Lindenbühl","postalCode":"99947","locality":"Bad Langensalza","municipality":{"key":"16064003","name":"Bad Langensalza, Stadt","type":"Stadt"},"district":{"key":"16064","name":"Unstrut-Hainich-Kreis","type":"Landkreis"},"federalState":{"key":"16","name":"Thüringen"}},{"name":"Lindenstr.","postalCode":"99947","locality":"Bad Langensalza","municipality":{"key":"16064003","name":"Bad Langensalza, Stadt","type":"Stadt"},"district":{"key":"16064","name":"Unstrut-Hainich-Kreis","type":"Landkreis"},"federalState":{"key":"16","name":"Thüringen"}},{"name":"Löbersgasse","postalCode":"99947","locality":"Bad Langensalza","municipality":{"key":"16064003","name":"Bad Langensalza, Stadt","type":"Stadt"},"district":{"key":"16064","name":"Unstrut-Hainich-Kreis","type":"Landkreis"},"federalState":{"key":"16","name":"Thüringen"}},{"name":"Lohmühle","postalCode":"99947","locality":"Bad Langensalza","municipality":{"key":"16064003","name":"Bad Langensalza, Stadt","type":"Stadt"},"district":{"key":"16064","name":"Unstrut-Hainich-Kreis","type":"Landkreis"},"federalState":{"key":"16","name":"Thüringen"}},{"name":"Magnoliengarten","postalCode":"99947","locality":"Bad Langensalza","municipality":{"key":"16064003","name":"Bad Langensalza, Stadt","type":"Stadt"},"district":{"key":"16064","name":"Unstrut-Hainich-Kreis","type":"Landkreis"},"federalState":{"key":"16","name":"Thüringen"}},{"name":"Marktplatz","postalCode":"99947","locality":"Bad Langensalza","municipality":{"key":"16064003","name":"Bad Langensalza, Stadt","type":"Stadt"},"district":{"key":"16064","name":"Unstrut-Hainich-Kreis","type":"Landkreis"},"federalState":{"key":"16","name":"Thüringen"}},{"name":"Mauergasse","postalCode":"99947","locality":"Bad Langensalza","municipality":{"key":"16064003","name":"Bad Langensalza, Stadt","type":"Stadt"},"district":{"key":"16064","name":"Unstrut-Hainich-Kreis","type":"Landkreis"},"federalState":{"key":"16","name":"Thüringen"}},{"name":"Maxim-Gorki-Str.","postalCode":"99947","locality":"Bad Langensalza","municipality":{"key":"16064003","name":"Bad Langensalza, Stadt","type":"Stadt"},"district":{"key":"16064","name":"Unstrut-Hainich-Kreis","type":"Landkreis"},"federalState":{"key":"16","name":"Thüringen"}},{"name":"Merxlebener Hauptstr.","postalCode":"99947","locality":"Bad Langensalza","municipality":{"key":"16064003","name":"Bad Langensalza, Stadt","type":"Stadt"},"district":{"key":"16064","name":"Unstrut-Hainich-Kreis","type":"Landkreis"},"federalState":{"key":"16","name":"Thüringen"}},{"name":"Merxlebener Weg","postalCode":"99947","locality":"Bad Langensalza","municipality":{"key":"16064003","name":"Bad Langensalza, Stadt","type":"Stadt"},"district":{"key":"16064","name":"Unstrut-Hainich-Kreis","type":"Landkreis"},"federalState":{"key":"16","name":"Thüringen"}},{"name":"Merxleber Str.","postalCode":"99947","locality":"Bad Langensalza","municipality":{"key":"16064003","name":"Bad Langensalza, Stadt","type":"Stadt"},"district":{"key":"16064","name":"Unstrut-Hainich-Kreis","type":"Landkreis"},"federalState":{"key":"16","name":"Thüringen"}},{"name":"Molkereistr.","postalCode":"99947","locality":"Bad Langensalza","municipality":{"key":"16064003","name":"Bad Langensalza, Stadt","type":"Stadt"},"district":{"key":"16064","name":"Unstrut-Hainich-Kreis","type":"Landkreis"},"federalState":{"key":"16","name":"Thüringen"}},{"name":"Mühlgarten","postalCode":"99947","locality":"Bad Langensalza","municipality":{"key":"16064003","name":"Bad Langensalza, Stadt","type":"Stadt"},"district":{"key":"16064","name":"Unstrut-Hainich-Kreis","type":"Landkreis"},"federalState":{"key":"16","name":"Thüringen"}},{"name":"Mühlgasse","postalCode":"99947","locality":"Bad Langensalza","municipality":{"key":"16064003","name":"Bad Langensalza, Stadt","type":"Stadt"},"district":{"key":"16064","name":"Unstrut-Hainich-Kreis","type":"Landkreis"},"federalState":{"key":"16","name":"Thüringen"}},{"name":"Mühlhäuser Landstr.","postalCode":"99947","locality":"Bad Langensalza","municipality":{"key":"16064003","name":"Bad Langensalza, Stadt","type":"Stadt"},"district":{"key":"16064","name":"Unstrut-Hainich-Kreis","type":"Landkreis"},"federalState":{"key":"16","name":"Thüringen"}},{"name":"Mühlhäuser Landstrasse","postalCode":"99947","locality":"Bad Langensalza","municipality":{"key":"16064003","name":"Bad Langensalza, Stadt","type":"Stadt"},"district":{"key":"16064","name":"Unstrut-Hainich-Kreis","type":"Landkreis"},"federalState":{"key":"16","name":"Thüringen"}},{"name":"Mühlhäuser Str.","postalCode":"99947","locality":"Bad Langensalza","municipality":{"key":"16064003","name":"Bad Langensalza, Stadt","type":"Stadt"},"district":{"key":"16064","name":"Unstrut-Hainich-Kreis","type":"Landkreis"},"federalState":{"key":"16","name":"Thüringen"}},{"name":"Mühlstr.","postalCode":"99947","locality":"Bad Langensalza","municipality":{"key":"16064003","name":"Bad Langensalza, Stadt","type":"Stadt"},"district":{"key":"16064","name":"Unstrut-Hainich-Kreis","type":"Landkreis"},"federalState":{"key":"16","name":"Thüringen"}},{"name":"Mühltalstr.","postalCode":"99947","locality":"Bad Langensalza","municipality":{"key":"16064003","name":"Bad Langensalza, Stadt","type":"Stadt"},"district":{"key":"16064","name":"Unstrut-Hainich-Kreis","type":"Landkreis"},"federalState":{"key":"16","name":"Thüringen"}},{"name":"Nägelstedter Gartenstr.","postalCode":"99947","locality":"Bad Langensalza","municipality":{"key":"16064003","name":"Bad Langensalza, Stadt","type":"Stadt"},"district":{"key":"16064","name":"Unstrut-Hainich-Kreis","type":"Landkreis"},"federalState":{"key":"16","name":"Thüringen"}},{"name":"Naturgarten des BUND-Bad Langensalza","postalCode":"99947","locality":"Bad Langensalza","municipality":{"key":"16064003","name":"Bad Langensalza, Stadt","type":"Stadt"},"district":{"key":"16064","name":"Unstrut-Hainich-Kreis","type":"Landkreis"},"federalState":{"key":"16","name":"Thüringen"}},{"name":"Netzbornstr.","postalCode":"99947","locality":"Bad Langensalza","municipality":{"key":"16064003","name":"Bad Langensalza, Stadt","type":"Stadt"},"district":{"key":"16064","name":"Unstrut-Hainich-Kreis","type":"Landkreis"},"federalState":{"key":"16","name":"Thüringen"}},{"name":"Neubau","postalCode":"99955","locality":"Bad Langensalza","municipality":{"key":"16064003","name":"Bad Langensalza, Stadt","type":"Stadt"},"district":{"key":"16064","name":"Unstrut-Hainich-Kreis","type":"Landkreis"},"federalState":{"key":"16","name":"Thüringen"}},{"name":"Neue Gasse","postalCode":"99947","locality":"Bad Langensalza","municipality":{"key":"16064003","name":"Bad Langensalza, Stadt","type":"Stadt"},"district":{"key":"16064","name":"Unstrut-Hainich-Kreis","type":"Landkreis"},"federalState":{"key":"16","name":"Thüringen"}},{"name":"Neue Str.","postalCode":"99947","locality":"Bad Langensalza","municipality":{"key":"16064003","name":"Bad Langensalza, Stadt","type":"Stadt"},"district":{"key":"16064","name":"Unstrut-Hainich-Kreis","type":"Landkreis"},"federalState":{"key":"16","name":"Thüringen"}},{"name":"Neunheilinger Str.","postalCode":"99947","locality":"Bad Langensalza","municipality":{"key":"16064003","name":"Bad Langensalza, Stadt","type":"Stadt"},"district":{"key":"16064","name":"Unstrut-Hainich-Kreis","type":"Landkreis"},"federalState":{"key":"16","name":"Thüringen"}},{"name":"Neustadt","postalCode":"99955","locality":"Bad Langensalza","municipality":{"key":"16064003","name":"Bad Langensalza, Stadt","type":"Stadt"},"district":{"key":"16064","name":"Unstrut-Hainich-Kreis","type":"Landkreis"},"federalState":{"key":"16","name":"Thüringen"}},{"name":"Neustädter Str.","postalCode":"99947","locality":"Bad Langensalza","municipality":{"key":"16064003","name":"Bad Langensalza, Stadt","type":"Stadt"},"district":{"key":"16064","name":"Unstrut-Hainich-Kreis","type":"Landkreis"},"federalState":{"key":"16","name":"Thüringen"}},{"name":"Niederhöfer Str.","postalCode":"99947","locality":"Bad Langensalza","municipality":{"key":"16064003","name":"Bad Langensalza, Stadt","type":"Stadt"},"district":{"key":"16064","name":"Unstrut-Hainich-Kreis","type":"Landkreis"},"federalState":{"key":"16","name":"Thüringen"}},{"name":"Nordstr.","postalCode":"99947","locality":"Bad Langensalza","municipality":{"key":"16064003","name":"Bad Langensalza, Stadt","type":"Stadt"},"district":{"key":"16064","name":"Unstrut-Hainich-Kreis","type":"Landkreis"},"federalState":{"key":"16","name":"Thüringen"}},{"name":"Oberdorf","postalCode":"99947","locality":"Bad Langensalza","municipality":{"key":"16064003","name":"Bad Langensalza, Stadt","type":"Stadt"},"district":{"key":"16064","name":"Unstrut-Hainich-Kreis","type":"Landkreis"},"federalState":{"key":"16","name":"Thüringen"}},{"name":"Obere Gasse","postalCode":"99947","locality":"Bad Langensalza","municipality":{"key":"16064003","name":"Bad Langensalza, Stadt","type":"Stadt"},"district":{"key":"16064","name":"Unstrut-Hainich-Kreis","type":"Landkreis"},"federalState":{"key":"16","name":"Thüringen"}},{"name":"Obere Salzastr.","postalCode":"99947","locality":"Bad Langensalza","municipality":{"key":"16064003","name":"Bad Langensalza, Stadt","type":"Stadt"},"district":{"key":"16064","name":"Unstrut-Hainich-Kreis","type":"Landkreis"},"federalState":{"key":"16","name":"Thüringen"}},{"name":"Obergasse","postalCode":"99947","locality":"Bad Langensalza","municipality":{"key":"16064003","name":"Bad Langensalza, Stadt","type":"Stadt"},"district":{"key":"16064","name":"Unstrut-Hainich-Kreis","type":"Landkreis"},"federalState":{"key":"16","name":"Thüringen"}},{"name":"Oelweg","postalCode":"99947","locality":"Bad Langensalza","municipality":{"key":"16064003","name":"Bad Langensalza, Stadt","type":"Stadt"},"district":{"key":"16064","name":"Unstrut-Hainich-Kreis","type":"Landkreis"},"federalState":{"key":"16","name":"Thüringen"}},{"name":"Oostkampstr.","postalCode":"99947","locality":"Bad Langensalza","municipality":{"key":"16064003","name":"Bad Langensalza, Stadt","type":"Stadt"},"district":{"key":"16064","name":"Unstrut-Hainich-Kreis","type":"Landkreis"},"federalState":{"key":"16","name":"Thüringen"}},{"name":"Ostsiedlung","postalCode":"99947","locality":"Bad Langensalza","municipality":{"key":"16064003","name":"Bad Langensalza, Stadt","type":"Stadt"},"district":{"key":"16064","name":"Unstrut-Hainich-Kreis","type":"Landkreis"},"federalState":{"key":"16","name":"Thüringen"}},{"name":"Oststr.","postalCode":"99947","locality":"Bad Langensalza","municipality":{"key":"16064003","name":"Bad Langensalza, Stadt","type":"Stadt"},"district":{"key":"16064","name":"Unstrut-Hainich-Kreis","type":"Landkreis"},"federalState":{"key":"16","name":"Thüringen"}},{"name":"Parkstr.","postalCode":"99947","locality":"Bad Langensalza","municipality":{"key":"16064003","name":"Bad Langensalza, Stadt","type":"Stadt"},"district":{"key":"16064","name":"Unstrut-Hainich-Kreis","type":"Landkreis"},"federalState":{"key":"16","name":"Thüringen"}},{"name":"Pfarrgasse","postalCode":"99947","locality":"Bad Langensalza","municipality":{"key":"16064003","name":"Bad Langensalza, Stadt","type":"Stadt"},"district":{"key":"16064","name":"Unstrut-Hainich-Kreis","type":"Landkreis"},"federalState":{"key":"16","name":"Thüringen"}},{"name":"Pfarrstr.","postalCode":"99947","locality":"Bad Langensalza","municipality":{"key":"16064003","name":"Bad Langensalza, Stadt","type":"Stadt"},"district":{"key":"16064","name":"Unstrut-Hainich-Kreis","type":"Landkreis"},"federalState":{"key":"16","name":"Thüringen"}},{"name":"Pfortenstr.","postalCode":"99947","locality":"Bad Langensalza","municipality":{"key":"16064003","name":"Bad Langensalza, Stadt","type":"Stadt"},"district":{"key":"16064","name":"Unstrut-Hainich-Kreis","type":"Landkreis"},"federalState":{"key":"16","name":"Thüringen"}},{"name":"Plan","postalCode":"99947","locality":"Bad Langensalza","municipality":{"key":"16064003","name":"Bad Langensalza, Stadt","type":"Stadt"},"district":{"key":"16064","name":"Unstrut-Hainich-Kreis","type":"Landkreis"},"federalState":{"key":"16","name":"Thüringen"}},{"name":"Poststr.","postalCode":"99947","locality":"Bad Langensalza","municipality":{"key":"16064003","name":"Bad Langensalza, Stadt","type":"Stadt"},"district":{"key":"16064","name":"Unstrut-Hainich-Kreis","type":"Landkreis"},"federalState":{"key":"16","name":"Thüringen"}},{"name":"Puschkinstr.","postalCode":"99947","locality":"Bad Langensalza","municipality":{"key":"16064003","name":"Bad Langensalza, Stadt","type":"Stadt"},"district":{"key":"16064","name":"Unstrut-Hainich-Kreis","type":"Landkreis"},"federalState":{"key":"16","name":"Thüringen"}},{"name":"Rasenfleckstr.","postalCode":"99947","locality":"Bad Langensalza","municipality":{"key":"16064003","name":"Bad Langensalza, Stadt","type":"Stadt"},"district":{"key":"16064","name":"Unstrut-Hainich-Kreis","type":"Landkreis"},"federalState":{"key":"16","name":"Thüringen"}},{"name":"Rasenmühle","postalCode":"99947","locality":"Bad Langensalza","municipality":{"key":"16064003","name":"Bad Langensalza, Stadt","type":"Stadt"},"district":{"key":"16064","name":"Unstrut-Hainich-Kreis","type":"Landkreis"},"federalState":{"key":"16","name":"Thüringen"}},{"name":"Rasenmühlenweg","postalCode":"99947","locality":"Bad Langensalza","municipality":{"key":"16064003","name":"Bad Langensalza, Stadt","type":"Stadt"},"district":{"key":"16064","name":"Unstrut-Hainich-Kreis","type":"Landkreis"},"federalState":{"key":"16","name":"Thüringen"}},{"name":"Rathenaustr.","postalCode":"99947","locality":"Bad Langensalza","municipality":{"key":"16064003","name":"Bad Langensalza, Stadt","type":"Stadt"},"district":{"key":"16064","name":"Unstrut-Hainich-Kreis","type":"Landkreis"},"federalState":{"key":"16","name":"Thüringen"}},{"name":"Rautengasse","postalCode":"99947","locality":"Bad Langensalza","municipality":{"key":"16064003","name":"Bad Langensalza, Stadt","type":"Stadt"},"district":{"key":"16064","name":"Unstrut-Hainich-Kreis","type":"Landkreis"},"federalState":{"key":"16","name":"Thüringen"}},{"name":"Reinhardsbrunner Str.","postalCode":"99947","locality":"Bad Langensalza","municipality":{"key":"16064003","name":"Bad Langensalza, Stadt","type":"Stadt"},"district":{"key":"16064","name":"Unstrut-Hainich-Kreis","type":"Landkreis"},"federalState":{"key":"16","name":"Thüringen"}},{"name":"Riethstorplatz","postalCode":"99947","locality":"Bad Langensalza","municipality":{"key":"16064003","name":"Bad Langensalza, Stadt","type":"Stadt"},"district":{"key":"16064","name":"Unstrut-Hainich-Kreis","type":"Landkreis"},"federalState":{"key":"16","name":"Thüringen"}},{"name":"Riethstorstr.","postalCode":"99947","locality":"Bad Langensalza","municipality":{"key":"16064003","name":"Bad Langensalza, Stadt","type":"Stadt"},"district":{"key":"16064","name":"Unstrut-Hainich-Kreis","type":"Landkreis"},"federalState":{"key":"16","name":"Thüringen"}},{"name":"Rosa-Luxemburg-Str.","postalCode":"99947","locality":"Bad Langensalza","municipality":{"key":"16064003","name":"Bad Langensalza, Stadt","type":"Stadt"},"district":{"key":"16064","name":"Unstrut-Hainich-Kreis","type":"Landkreis"},"federalState":{"key":"16","name":"Thüringen"}},{"name":"Rosengarten","postalCode":"99947","locality":"Bad Langensalza","municipality":{"key":"16064003","name":"Bad Langensalza, Stadt","type":"Stadt"},"district":{"key":"16064","name":"Unstrut-Hainich-Kreis","type":"Landkreis"},"federalState":{"key":"16","name":"Thüringen"}},{"name":"Rosenstr.","postalCode":"99947","locality":"Bad Langensalza","municipality":{"key":"16064003","name":"Bad Langensalza, Stadt","type":"Stadt"},"district":{"key":"16064","name":"Unstrut-Hainich-Kreis","type":"Landkreis"},"federalState":{"key":"16","name":"Thüringen"}},{"name":"Rudolf-Weiss-Str.","postalCode":"99947","locality":"Bad Langensalza","municipality":{"key":"16064003","name":"Bad Langensalza, Stadt","type":"Stadt"},"district":{"key":"16064","name":"Unstrut-Hainich-Kreis","type":"Landkreis"},"federalState":{"key":"16","name":"Thüringen"}},{"name":"Rumbachstr.","postalCode":"99947","locality":"Bad Langensalza","municipality":{"key":"16064003","name":"Bad Langensalza, Stadt","type":"Stadt"},"district":{"key":"16064","name":"Unstrut-Hainich-Kreis","type":"Landkreis"},"federalState":{"key":"16","name":"Thüringen"}},{"name":"Salzastr.","postalCode":"99947","locality":"Bad Langensalza","municipality":{"key":"16064003","name":"Bad Langensalza, Stadt","type":"Stadt"},"district":{"key":"16064","name":"Unstrut-Hainich-Kreis","type":"Landkreis"},"federalState":{"key":"16","name":"Thüringen"}},{"name":"Salzstr.","postalCode":"99947","locality":"Bad Langensalza","municipality":{"key":"16064003","name":"Bad Langensalza, Stadt","type":"Stadt"},"district":{"key":"16064","name":"Unstrut-Hainich-Kreis","type":"Landkreis"},"federalState":{"key":"16","name":"Thüringen"}},{"name":"Sandweg","postalCode":"99947","locality":"Bad Langensalza","municipality":{"key":"16064003","name":"Bad Langensalza, Stadt","type":"Stadt"},"district":{"key":"16064","name":"Unstrut-Hainich-Kreis","type":"Landkreis"},"federalState":{"key":"16","name":"Thüringen"}},{"name":"Schacktor","postalCode":"99947","locality":"Bad Langensalza","municipality":{"key":"16064003","name":"Bad Langensalza, Stadt","type":"Stadt"},"district":{"key":"16064","name":"Unstrut-Hainich-Kreis","type":"Landkreis"},"federalState":{"key":"16","name":"Thüringen"}},{"name":"Schenksberg","postalCode":"99955","locality":"Bad Langensalza","municipality":{"key":"16064003","name":"Bad Langensalza, Stadt","type":"Stadt"},"district":{"key":"16064","name":"Unstrut-Hainich-Kreis","type":"Landkreis"},"federalState":{"key":"16","name":"Thüringen"}},{"name":"Schenkshoeg","postalCode":"99947","locality":"Bad Langensalza","municipality":{"key":"16064003","name":"Bad Langensalza, Stadt","type":"Stadt"},"district":{"key":"16064","name":"Unstrut-Hainich-Kreis","type":"Landkreis"},"federalState":{"key":"16","name":"Thüringen"}},{"name":"Schillerstr.","postalCode":"99947","locality":"Bad Langensalza","municipality":{"key":"16064003","name":"Bad Langensalza, Stadt","type":"Stadt"},"district":{"key":"16064","name":"Unstrut-Hainich-Kreis","type":"Landkreis"},"federalState":{"key":"16","name":"Thüringen"}},{"name":"Schlösschenpark","postalCode":"99947","locality":"Bad Langensalza","municipality":{"key":"16064003","name":"Bad Langensalza, Stadt","type":"Stadt"},"district":{"key":"16064","name":"Unstrut-Hainich-Kreis","type":"Landkreis"},"federalState":{"key":"16","name":"Thüringen"}},{"name":"Schloßstr.","postalCode":"99947","locality":"Bad Langensalza","municipality":{"key":"16064003","name":"Bad Langensalza, Stadt","type":"Stadt"},"district":{"key":"16064","name":"Unstrut-Hainich-Kreis","type":"Landkreis"},"federalState":{"key":"16","name":"Thüringen"}},{"name":"Schönstedter Str.","postalCode":"99947","locality":"Bad Langensalza","municipality":{"key":"16064003","name":"Bad Langensalza, Stadt","type":"Stadt"},"district":{"key":"16064","name":"Unstrut-Hainich-Kreis","type":"Landkreis"},"federalState":{"key":"16","name":"Thüringen"}},{"name":"Schönstedter Weg","postalCode":"99947","locality":"Bad Langensalza","municipality":{"key":"16064003","name":"Bad Langensalza, Stadt","type":"Stadt"},"district":{"key":"16064","name":"Unstrut-Hainich-Kreis","type":"Landkreis"},"federalState":{"key":"16","name":"Thüringen"}},{"name":"Schulgasse","postalCode":"99947","locality":"Bad Langensalza","municipality":{"key":"16064003","name":"Bad Langensalza, Stadt","type":"Stadt"},"district":{"key":"16064","name":"Unstrut-Hainich-Kreis","type":"Landkreis"},"federalState":{"key":"16","name":"Thüringen"}},{"name":"Schulplatz","postalCode":"99947","locality":"Bad Langensalza","municipality":{"key":"16064003","name":"Bad Langensalza, Stadt","type":"Stadt"},"district":{"key":"16064","name":"Unstrut-Hainich-Kreis","type":"Landkreis"},"federalState":{"key":"16","name":"Thüringen"}},{"name":"Schulstr.","postalCode":"99947","locality":"Bad Langensalza","municipality":{"key":"16064003","name":"Bad Langensalza, Stadt","type":"Stadt"},"district":{"key":"16064","name":"Unstrut-Hainich-Kreis","type":"Landkreis"},"federalState":{"key":"16","name":"Thüringen"}},{"name":"Schwichingsweg","postalCode":"99947","locality":"Bad Langensalza","municipality":{"key":"16064003","name":"Bad Langensalza, Stadt","type":"Stadt"},"district":{"key":"16064","name":"Unstrut-Hainich-Kreis","type":"Landkreis"},"federalState":{"key":"16","name":"Thüringen"}},{"name":"Seufzerallee","postalCode":"99947","locality":"Bad Langensalza","municipality":{"key":"16064003","name":"Bad Langensalza, Stadt","type":"Stadt"},"district":{"key":"16064","name":"Unstrut-Hainich-Kreis","type":"Landkreis"},"federalState":{"key":"16","name":"Thüringen"}},{"name":"Siedlung","postalCode":"99947","locality":"Bad Langensalza","municipality":{"key":"16064003","name":"Bad Langensalza, Stadt","type":"Stadt"},"district":{"key":"16064","name":"Unstrut-Hainich-Kreis","type":"Landkreis"},"federalState":{"key":"16","name":"Thüringen"}},{"name":"Siedlung","postalCode":"99955","locality":"Bad Langensalza","municipality":{"key":"16064003","name":"Bad Langensalza, Stadt","type":"Stadt"},"district":{"key":"16064","name":"Unstrut-Hainich-Kreis","type":"Landkreis"},"federalState":{"key":"16","name":"Thüringen"}},{"name":"Siedlungsweg","postalCode":"99955","locality":"Bad Langensalza","municipality":{"key":"16064003","name":"Bad Langensalza, Stadt","type":"Stadt"},"district":{"key":"16064","name":"Unstrut-Hainich-Kreis","type":"Landkreis"},"federalState":{"key":"16","name":"Thüringen"}},{"name":"Sondershäuser Str.","postalCode":"99947","locality":"Bad Langensalza","municipality":{"key":"16064003","name":"Bad Langensalza, Stadt","type":"Stadt"},"district":{"key":"16064","name":"Unstrut-Hainich-Kreis","type":"Landkreis"},"federalState":{"key":"16","name":"Thüringen"}},{"name":"Sperlingsgasse","postalCode":"99947","locality":"Bad Langensalza","municipality":{"key":"16064003","name":"Bad Langensalza, Stadt","type":"Stadt"},"district":{"key":"16064","name":"Unstrut-Hainich-Kreis","type":"Landkreis"},"federalState":{"key":"16","name":"Thüringen"}},{"name":"Stadtweg","postalCode":"99947","locality":"Bad Langensalza","municipality":{"key":"16064003","name":"Bad Langensalza, Stadt","type":"Stadt"},"district":{"key":"16064","name":"Unstrut-Hainich-Kreis","type":"Landkreis"},"federalState":{"key":"16","name":"Thüringen"}},{"name":"Steinbergweg","postalCode":"99947","locality":"Bad Langensalza","municipality":{"key":"16064003","name":"Bad Langensalza, Stadt","type":"Stadt"},"district":{"key":"16064","name":"Unstrut-Hainich-Kreis","type":"Landkreis"},"federalState":{"key":"16","name":"Thüringen"}},{"name":"Steinbornstr.","postalCode":"99947","locality":"Bad Langensalza","municipality":{"key":"16064003","name":"Bad Langensalza, Stadt","type":"Stadt"},"district":{"key":"16064","name":"Unstrut-Hainich-Kreis","type":"Landkreis"},"federalState":{"key":"16","name":"Thüringen"}},{"name":"Steingrubenstr.","postalCode":"99947","locality":"Bad Langensalza","municipality":{"key":"16064003","name":"Bad Langensalza, Stadt","type":"Stadt"},"district":{"key":"16064","name":"Unstrut-Hainich-Kreis","type":"Landkreis"},"federalState":{"key":"16","name":"Thüringen"}},{"name":"Steinweg","postalCode":"99947","locality":"Bad Langensalza","municipality":{"key":"16064003","name":"Bad Langensalza, Stadt","type":"Stadt"},"district":{"key":"16064","name":"Unstrut-Hainich-Kreis","type":"Landkreis"},"federalState":{"key":"16","name":"Thüringen"}},{"name":"Steubenstr.","postalCode":"99947","locality":"Bad Langensalza","municipality":{"key":"16064003","name":"Bad Langensalza, Stadt","type":"Stadt"},"district":{"key":"16064","name":"Unstrut-Hainich-Kreis","type":"Landkreis"},"federalState":{"key":"16","name":"Thüringen"}},{"name":"Stiegelweg","postalCode":"99947","locality":"Bad Langensalza","municipality":{"key":"16064003","name":"Bad Langensalza, Stadt","type":"Stadt"},"district":{"key":"16064","name":"Unstrut-Hainich-Kreis","type":"Landkreis"},"federalState":{"key":"16","name":"Thüringen"}},{"name":"Str. der Einheit","postalCode":"99947","locality":"Bad Langensalza","municipality":{"key":"16064003","name":"Bad Langensalza, Stadt","type":"Stadt"},"district":{"key":"16064","name":"Unstrut-Hainich-Kreis","type":"Landkreis"},"federalState":{"key":"16","name":"Thüringen"}},{"name":"Str. der Freundschaft","postalCode":"99947","locality":"Bad Langensalza","municipality":{"key":"16064003","name":"Bad Langensalza, Stadt","type":"Stadt"},"district":{"key":"16064","name":"Unstrut-Hainich-Kreis","type":"Landkreis"},"federalState":{"key":"16","name":"Thüringen"}},{"name":"Str. des Friedens","postalCode":"99947","locality":"Bad Langensalza","municipality":{"key":"16064003","name":"Bad Langensalza, Stadt","type":"Stadt"},"district":{"key":"16064","name":"Unstrut-Hainich-Kreis","type":"Landkreis"},"federalState":{"key":"16","name":"Thüringen"}},{"name":"Südstr.","postalCode":"99947","locality":"Bad Langensalza","municipality":{"key":"16064003","name":"Bad Langensalza, Stadt","type":"Stadt"},"district":{"key":"16064","name":"Unstrut-Hainich-Kreis","type":"Landkreis"},"federalState":{"key":"16","name":"Thüringen"}},{"name":"Sundhäuser Weg","postalCode":"99947","locality":"Bad Langensalza","municipality":{"key":"16064003","name":"Bad Langensalza, Stadt","type":"Stadt"},"district":{"key":"16064","name":"Unstrut-Hainich-Kreis","type":"Landkreis"},"federalState":{"key":"16","name":"Thüringen"}},{"name":"Talweg","postalCode":"99947","locality":"Bad Langensalza","municipality":{"key":"16064003","name":"Bad Langensalza, Stadt","type":"Stadt"},"district":{"key":"16064","name":"Unstrut-Hainich-Kreis","type":"Landkreis"},"federalState":{"key":"16","name":"Thüringen"}},{"name":"Tennstedter Str.","postalCode":"99947","locality":"Bad Langensalza","municipality":{"key":"16064003","name":"Bad Langensalza, Stadt","type":"Stadt"},"district":{"key":"16064","name":"Unstrut-Hainich-Kreis","type":"Landkreis"},"federalState":{"key":"16","name":"Thüringen"}},{"name":"Thamsbrücker Hauptstr.","postalCode":"99947","locality":"Bad Langensalza","municipality":{"key":"16064003","name":"Bad Langensalza, Stadt","type":"Stadt"},"district":{"key":"16064","name":"Unstrut-Hainich-Kreis","type":"Landkreis"},"federalState":{"key":"16","name":"Thüringen"}},{"name":"Thamsbrücker Landstr.","postalCode":"99947","locality":"Bad Langensalza","municipality":{"key":"16064003","name":"Bad Langensalza, Stadt","type":"Stadt"},"district":{"key":"16064","name":"Unstrut-Hainich-Kreis","type":"Landkreis"},"federalState":{"key":"16","name":"Thüringen"}},{"name":"Thamsbrücker Str.","postalCode":"99947","locality":"Bad Langensalza","municipality":{"key":"16064003","name":"Bad Langensalza, Stadt","type":"Stadt"},"district":{"key":"16064","name":"Unstrut-Hainich-Kreis","type":"Landkreis"},"federalState":{"key":"16","name":"Thüringen"}},{"name":"Thiemsburger Weg","postalCode":"99947","locality":"Bad Langensalza","municipality":{"key":"16064003","name":"Bad Langensalza, Stadt","type":"Stadt"},"district":{"key":"16064","name":"Unstrut-Hainich-Kreis","type":"Landkreis"},"federalState":{"key":"16","name":"Thüringen"}},{"name":"Thomas-Müntzer-Platz","postalCode":"99947","locality":"Bad Langensalza","municipality":{"key":"16064003","name":"Bad Langensalza, Stadt","type":"Stadt"},"district":{"key":"16064","name":"Unstrut-Hainich-Kreis","type":"Landkreis"},"federalState":{"key":"16","name":"Thüringen"}},{"name":"TMP Str.","postalCode":"99947","locality":"Bad Langensalza","municipality":{"key":"16064003","name":"Bad Langensalza, Stadt","type":"Stadt"},"district":{"key":"16064","name":"Unstrut-Hainich-Kreis","type":"Landkreis"},"federalState":{"key":"16","name":"Thüringen"}},{"name":"Tonnaer Str.","postalCode":"99947","locality":"Bad Langensalza","municipality":{"key":"16064003","name":"Bad Langensalza, Stadt","type":"Stadt"},"district":{"key":"16064","name":"Unstrut-Hainich-Kreis","type":"Landkreis"},"federalState":{"key":"16","name":"Thüringen"}},{"name":"Tonnaer Weg","postalCode":"99947","locality":"Bad Langensalza","municipality":{"key":"16064003","name":"Bad Langensalza, Stadt","type":"Stadt"},"district":{"key":"16064","name":"Unstrut-Hainich-Kreis","type":"Landkreis"},"federalState":{"key":"16","name":"Thüringen"}},{"name":"Töpfermarkt","postalCode":"99947","locality":"Bad Langensalza","municipality":{"key":"16064003","name":"Bad Langensalza, Stadt","type":"Stadt"},"district":{"key":"16064","name":"Unstrut-Hainich-Kreis","type":"Landkreis"},"federalState":{"key":"16","name":"Thüringen"}},{"name":"Traco-Park","postalCode":"99947","locality":"Bad Langensalza","municipality":{"key":"16064003","name":"Bad Langensalza, Stadt","type":"Stadt"},"district":{"key":"16064","name":"Unstrut-Hainich-Kreis","type":"Landkreis"},"federalState":{"key":"16","name":"Thüringen"}},{"name":"Tränkgasse","postalCode":"99947","locality":"Bad Langensalza","municipality":{"key":"16064003","name":"Bad Langensalza, Stadt","type":"Stadt"},"district":{"key":"16064","name":"Unstrut-Hainich-Kreis","type":"Landkreis"},"federalState":{"key":"16","name":"Thüringen"}},{"name":"Transfeldstr.","postalCode":"99947","locality":"Bad Langensalza","municipality":{"key":"16064003","name":"Bad Langensalza, Stadt","type":"Stadt"},"district":{"key":"16064","name":"Unstrut-Hainich-Kreis","type":"Landkreis"},"federalState":{"key":"16","name":"Thüringen"}},{"name":"Travertinstr.","postalCode":"99947","locality":"Bad Langensalza","municipality":{"key":"16064003","name":"Bad Langensalza, Stadt","type":"Stadt"},"district":{"key":"16064","name":"Unstrut-Hainich-Kreis","type":"Landkreis"},"federalState":{"key":"16","name":"Thüringen"}},{"name":"Tuchmachergasse","postalCode":"99947","locality":"Bad Langensalza","municipality":{"key":"16064003","name":"Bad Langensalza, Stadt","type":"Stadt"},"district":{"key":"16064","name":"Unstrut-Hainich-Kreis","type":"Landkreis"},"federalState":{"key":"16","name":"Thüringen"}},{"name":"Turmstr.","postalCode":"99947","locality":"Bad Langensalza","municipality":{"key":"16064003","name":"Bad Langensalza, Stadt","type":"Stadt"},"district":{"key":"16064","name":"Unstrut-Hainich-Kreis","type":"Landkreis"},"federalState":{"key":"16","name":"Thüringen"}},{"name":"Ufhover Kirchplatz","postalCode":"99947","locality":"Bad Langensalza","municipality":{"key":"16064003","name":"Bad Langensalza, Stadt","type":"Stadt"},"district":{"key":"16064","name":"Unstrut-Hainich-Kreis","type":"Landkreis"},"federalState":{"key":"16","name":"Thüringen"}},{"name":"Unter den Linden","postalCode":"99947","locality":"Bad Langensalza","municipality":{"key":"16064003","name":"Bad Langensalza, Stadt","type":"Stadt"},"district":{"key":"16064","name":"Unstrut-Hainich-Kreis","type":"Landkreis"},"federalState":{"key":"16","name":"Thüringen"}},{"name":"Unterdorf","postalCode":"99947","locality":"Bad Langensalza","municipality":{"key":"16064003","name":"Bad Langensalza, Stadt","type":"Stadt"},"district":{"key":"16064","name":"Unstrut-Hainich-Kreis","type":"Landkreis"},"federalState":{"key":"16","name":"Thüringen"}},{"name":"Untere Gasse","postalCode":"99947","locality":"Bad Langensalza","municipality":{"key":"16064003","name":"Bad Langensalza, Stadt","type":"Stadt"},"district":{"key":"16064","name":"Unstrut-Hainich-Kreis","type":"Landkreis"},"federalState":{"key":"16","name":"Thüringen"}},{"name":"Untergasse","postalCode":"99947","locality":"Bad Langensalza","municipality":{"key":"16064003","name":"Bad Langensalza, Stadt","type":"Stadt"},"district":{"key":"16064","name":"Unstrut-Hainich-Kreis","type":"Landkreis"},"federalState":{"key":"16","name":"Thüringen"}},{"name":"Unterm Berge","postalCode":"99947","locality":"Bad Langensalza","municipality":{"key":"16064003","name":"Bad Langensalza, Stadt","type":"Stadt"},"district":{"key":"16064","name":"Unstrut-Hainich-Kreis","type":"Landkreis"},"federalState":{"key":"16","name":"Thüringen"}},{"name":"Unterm Königsplatz","postalCode":"99947","locality":"Bad Langensalza","municipality":{"key":"16064003","name":"Bad Langensalza, Stadt","type":"Stadt"},"district":{"key":"16064","name":"Unstrut-Hainich-Kreis","type":"Landkreis"},"federalState":{"key":"16","name":"Thüringen"}},{"name":"Untermühle","postalCode":"99947","locality":"Bad Langensalza","municipality":{"key":"16064003","name":"Bad Langensalza, Stadt","type":"Stadt"},"district":{"key":"16064","name":"Unstrut-Hainich-Kreis","type":"Landkreis"},"federalState":{"key":"16","name":"Thüringen"}},{"name":"Voigtgasse","postalCode":"99947","locality":"Bad Langensalza","municipality":{"key":"16064003","name":"Bad Langensalza, Stadt","type":"Stadt"},"district":{"key":"16064","name":"Unstrut-Hainich-Kreis","type":"Landkreis"},"federalState":{"key":"16","name":"Thüringen"}},{"name":"Vor dem Böhmen","postalCode":"99947","locality":"Bad Langensalza","municipality":{"key":"16064003","name":"Bad Langensalza, Stadt","type":"Stadt"},"district":{"key":"16064","name":"Unstrut-Hainich-Kreis","type":"Landkreis"},"federalState":{"key":"16","name":"Thüringen"}},{"name":"Vor dem Klagetor","postalCode":"99947","locality":"Bad Langensalza","municipality":{"key":"16064003","name":"Bad Langensalza, Stadt","type":"Stadt"},"district":{"key":"16064","name":"Unstrut-Hainich-Kreis","type":"Landkreis"},"federalState":{"key":"16","name":"Thüringen"}},{"name":"Vor dem Schlosse","postalCode":"99947","locality":"Bad Langensalza","municipality":{"key":"16064003","name":"Bad Langensalza, Stadt","type":"Stadt"},"district":{"key":"16064","name":"Unstrut-Hainich-Kreis","type":"Landkreis"},"federalState":{"key":"16","name":"Thüringen"}},{"name":"Vor dem Westtor","postalCode":"99947","locality":"Bad Langensalza","municipality":{"key":"16064003","name":"Bad Langensalza, Stadt","type":"Stadt"},"district":{"key":"16064","name":"Unstrut-Hainich-Kreis","type":"Landkreis"},"federalState":{"key":"16","name":"Thüringen"}},{"name":"Vor den Rosenfeldern","postalCode":"99947","locality":"Bad Langensalza","municipality":{"key":"16064003","name":"Bad Langensalza, Stadt","type":"Stadt"},"district":{"key":"16064","name":"Unstrut-Hainich-Kreis","type":"Landkreis"},"federalState":{"key":"16","name":"Thüringen"}},{"name":"Vor der Mühle","postalCode":"99947","locality":"Bad Langensalza","municipality":{"key":"16064003","name":"Bad Langensalza, Stadt","type":"Stadt"},"district":{"key":"16064","name":"Unstrut-Hainich-Kreis","type":"Landkreis"},"federalState":{"key":"16","name":"Thüringen"}},{"name":"Waidweg","postalCode":"99947","locality":"Bad Langensalza","municipality":{"key":"16064003","name":"Bad Langensalza, Stadt","type":"Stadt"},"district":{"key":"16064","name":"Unstrut-Hainich-Kreis","type":"Landkreis"},"federalState":{"key":"16","name":"Thüringen"}},{"name":"Waldstedter Hauptstr.","postalCode":"99947","locality":"Bad Langensalza","municipality":{"key":"16064003","name":"Bad Langensalza, Stadt","type":"Stadt"},"district":{"key":"16064","name":"Unstrut-Hainich-Kreis","type":"Landkreis"},"federalState":{"key":"16","name":"Thüringen"}},{"name":"Wartbergstr.","postalCode":"99947","locality":"Bad Langensalza","municipality":{"key":"16064003","name":"Bad Langensalza, Stadt","type":"Stadt"},"district":{"key":"16064","name":"Unstrut-Hainich-Kreis","type":"Landkreis"},"federalState":{"key":"16","name":"Thüringen"}},{"name":"Wassergasse","postalCode":"99947","locality":"Bad Langensalza","municipality":{"key":"16064003","name":"Bad Langensalza, Stadt","type":"Stadt"},"district":{"key":"16064","name":"Unstrut-Hainich-Kreis","type":"Landkreis"},"federalState":{"key":"16","name":"Thüringen"}},{"name":"Weinbergstr.","postalCode":"99947","locality":"Bad Langensalza","municipality":{"key":"16064003","name":"Bad Langensalza, Stadt","type":"Stadt"},"district":{"key":"16064","name":"Unstrut-Hainich-Kreis","type":"Landkreis"},"federalState":{"key":"16","name":"Thüringen"}},{"name":"Westsiedlung","postalCode":"99947","locality":"Bad Langensalza","municipality":{"key":"16064003","name":"Bad Langensalza, Stadt","type":"Stadt"},"district":{"key":"16064","name":"Unstrut-Hainich-Kreis","type":"Landkreis"},"federalState":{"key":"16","name":"Thüringen"}},{"name":"Weststr.","postalCode":"99947","locality":"Bad Langensalza","municipality":{"key":"16064003","name":"Bad Langensalza, Stadt","type":"Stadt"},"district":{"key":"16064","name":"Unstrut-Hainich-Kreis","type":"Landkreis"},"federalState":{"key":"16","name":"Thüringen"}},{"name":"Wiebeckplatz","postalCode":"99947","locality":"Bad Langensalza","municipality":{"key":"16064003","name":"Bad Langensalza, Stadt","type":"Stadt"},"district":{"key":"16064","name":"Unstrut-Hainich-Kreis","type":"Landkreis"},"federalState":{"key":"16","name":"Thüringen"}},{"name":"Wiegleber Str.","postalCode":"99947","locality":"Bad Langensalza","municipality":{"key":"16064003","name":"Bad Langensalza, Stadt","type":"Stadt"},"district":{"key":"16064","name":"Unstrut-Hainich-Kreis","type":"Landkreis"},"federalState":{"key":"16","name":"Thüringen"}},{"name":"Wiegleber Weg","postalCode":"99947","locality":"Bad Langensalza","municipality":{"key":"16064003","name":"Bad Langensalza, Stadt","type":"Stadt"},"district":{"key":"16064","name":"Unstrut-Hainich-Kreis","type":"Landkreis"},"federalState":{"key":"16","name":"Thüringen"}},{"name":"Wiesenweg","postalCode":"99947","locality":"Bad Langensalza","municipality":{"key":"16064003","name":"Bad Langensalza, Stadt","type":"Stadt"},"district":{"key":"16064","name":"Unstrut-Hainich-Kreis","type":"Landkreis"},"federalState":{"key":"16","name":"Thüringen"}},{"name":"Winkelgasse","postalCode":"99947","locality":"Bad Langensalza","municipality":{"key":"16064003","name":"Bad Langensalza, Stadt","type":"Stadt"},"district":{"key":"16064","name":"Unstrut-Hainich-Kreis","type":"Landkreis"},"federalState":{"key":"16","name":"Thüringen"}},{"name":"Wörth","postalCode":"99947","locality":"Bad Langensalza","municipality":{"key":"16064003","name":"Bad Langensalza, Stadt","type":"Stadt"},"district":{"key":"16064","name":"Unstrut-Hainich-Kreis","type":"Landkreis"},"federalState":{"key":"16","name":"Thüringen"}},{"name":"Ziegeleiweg","postalCode":"99947","locality":"Bad Langensalza","municipality":{"key":"16064003","name":"Bad Langensalza, Stadt","type":"Stadt"},"district":{"key":"16064","name":"Unstrut-Hainich-Kreis","type":"Landkreis"},"federalState":{"key":"16","name":"Thüringen"}},{"name":"Ziegelhof","postalCode":"99947","locality":"Bad Langensalza","municipality":{"key":"16064003","name":"Bad Langensalza, Stadt","type":"Stadt"},"district":{"key":"16064","name":"Unstrut-Hainich-Kreis","type":"Landkreis"},"federalState":{"key":"16","name":"Thüringen"}},{"name":"Zum Backhausberg","postalCode":"99947","locality":"Bad Langensalza","municipality":{"key":"16064003","name":"Bad Langensalza, Stadt","type":"Stadt"},"district":{"key":"16064","name":"Unstrut-Hainich-Kreis","type":"Landkreis"},"federalState":{"key":"16","name":"Thüringen"}},{"name":"Zum Bahnhof","postalCode":"99947","locality":"Bad Langensalza","municipality":{"key":"16064003","name":"Bad Langensalza, Stadt","type":"Stadt"},"district":{"key":"16064","name":"Unstrut-Hainich-Kreis","type":"Landkreis"},"federalState":{"key":"16","name":"Thüringen"}},{"name":"Zum Bleichbrunnen","postalCode":"99947","locality":"Bad Langensalza","municipality":{"key":"16064003","name":"Bad Langensalza, Stadt","type":"Stadt"},"district":{"key":"16064","name":"Unstrut-Hainich-Kreis","type":"Landkreis"},"federalState":{"key":"16","name":"Thüringen"}},{"name":"Zum Forstweg","postalCode":"99947","locality":"Bad Langensalza","municipality":{"key":"16064003","name":"Bad Langensalza, Stadt","type":"Stadt"},"district":{"key":"16064","name":"Unstrut-Hainich-Kreis","type":"Landkreis"},"federalState":{"key":"16","name":"Thüringen"}},{"name":"Zum Friedhof","postalCode":"99947","locality":"Bad Langensalza","municipality":{"key":"16064003","name":"Bad Langensalza, Stadt","type":"Stadt"},"district":{"key":"16064","name":"Unstrut-Hainich-Kreis","type":"Landkreis"},"federalState":{"key":"16","name":"Thüringen"}},{"name":"Zum Homburger Felde","postalCode":"99947","locality":"Bad Langensalza","municipality":{"key":"16064003","name":"Bad Langensalza, Stadt","type":"Stadt"},"district":{"key":"16064","name":"Unstrut-Hainich-Kreis","type":"Landkreis"},"federalState":{"key":"16","name":"Thüringen"}},{"name":"Zum Kittel","postalCode":"99947","locality":"Bad Langensalza","municipality":{"key":"16064003","name":"Bad Langensalza, Stadt","type":"Stadt"},"district":{"key":"16064","name":"Unstrut-Hainich-Kreis","type":"Landkreis"},"federalState":{"key":"16","name":"Thüringen"}},{"name":"Zum Stiegel","postalCode":"99947","locality":"Bad Langensalza","municipality":{"key":"16064003","name":"Bad Langensalza, Stadt","type":"Stadt"},"district":{"key":"16064","name":"Unstrut-Hainich-Kreis","type":"Landkreis"},"federalState":{"key":"16","name":"Thüringen"}},{"name":"Zum Stiftsgut","postalCode":"99947","locality":"Bad Langensalza","municipality":{"key":"16064003","name":"Bad Langensalza, Stadt","type":"Stadt"},"district":{"key":"16064","name":"Unstrut-Hainich-Kreis","type":"Landkreis"},"federalState":{"key":"16","name":"Thüringen"}},{"name":"Zum Unstruttal","postalCode":"99947","locality":"Bad Langensalza","municipality":{"key":"16064003","name":"Bad Langensalza, Stadt","type":"Stadt"},"district":{"key":"16064","name":"Unstrut-Hainich-Kreis","type":"Landkreis"},"federalState":{"key":"16","name":"Thüringen"}},{"name":"Zur Kleinbahn","postalCode":"99947","locality":"Bad Langensalza","municipality":{"key":"16064003","name":"Bad Langensalza, Stadt","type":"Stadt"},"district":{"key":"16064","name":"Unstrut-Hainich-Kreis","type":"Landkreis"},"federalState":{"key":"16","name":"Thüringen"}},{"name":"Zur Unteren Mühle","postalCode":"99947","locality":"Bad Langensalza","municipality":{"key":"16064003","name":"Bad Langensalza, Stadt","type":"Stadt"},"district":{"key":"16064","name":"Unstrut-Hainich-Kreis","type":"Landkreis"},"federalState":{"key":"16","name":"Thüringen"}},{"name":"Zur Wörth","postalCode":"99947","locality":"Bad Langensalza","municipality":{"key":"16064003","name":"Bad Langensalza, Stadt","type":"Stadt"},"district":{"key":"16064","name":"Unstrut-Hainich-Kreis","type":"Landkreis"},"federalState":{"key":"16","name":"Thüringen"}},]