[{"name":"Ahornweg","postalCode":"67354","locality":"Römerberg","municipality":{"key":"07338023","name":"Römerberg","type":"Kreisangehörige_Gemeinde"},"district":{"key":"07338","name":"Rhein-Pfalz-Kreis","type":"Landkreis"},"federalState":{"key":"07","name":"Rheinland-Pfalz"}},{"name":"Altenhofweg","postalCode":"67354","locality":"Römerberg","municipality":{"key":"07338023","name":"Römerberg","type":"Kreisangehörige_Gemeinde"},"district":{"key":"07338","name":"Rhein-Pfalz-Kreis","type":"Landkreis"},"federalState":{"key":"07","name":"Rheinland-Pfalz"}},{"name":"Am Fraumersberg","postalCode":"67354","locality":"Römerberg","municipality":{"key":"07338023","name":"Römerberg","type":"Kreisangehörige_Gemeinde"},"district":{"key":"07338","name":"Rhein-Pfalz-Kreis","type":"Landkreis"},"federalState":{"key":"07","name":"Rheinland-Pfalz"}},{"name":"Am Narrenberg","postalCode":"67354","locality":"Römerberg","municipality":{"key":"07338023","name":"Römerberg","type":"Kreisangehörige_Gemeinde"},"district":{"key":"07338","name":"Rhein-Pfalz-Kreis","type":"Landkreis"},"federalState":{"key":"07","name":"Rheinland-Pfalz"}},{"name":"Am Rathaus","postalCode":"67354","locality":"Römerberg","municipality":{"key":"07338023","name":"Römerberg","type":"Kreisangehörige_Gemeinde"},"district":{"key":"07338","name":"Rhein-Pfalz-Kreis","type":"Landkreis"},"federalState":{"key":"07","name":"Rheinland-Pfalz"}},{"name":"Am Römerberg","postalCode":"67354","locality":"Römerberg","municipality":{"key":"07338023","name":"Römerberg","type":"Kreisangehörige_Gemeinde"},"district":{"key":"07338","name":"Rhein-Pfalz-Kreis","type":"Landkreis"},"federalState":{"key":"07","name":"Rheinland-Pfalz"}},{"name":"Am Unteren Schlittberg","postalCode":"67354","locality":"Römerberg","municipality":{"key":"07338023","name":"Römerberg","type":"Kreisangehörige_Gemeinde"},"district":{"key":"07338","name":"Rhein-Pfalz-Kreis","type":"Landkreis"},"federalState":{"key":"07","name":"Rheinland-Pfalz"}},{"name":"Am Weberplatz","postalCode":"67354","locality":"Römerberg","municipality":{"key":"07338023","name":"Römerberg","type":"Kreisangehörige_Gemeinde"},"district":{"key":"07338","name":"Rhein-Pfalz-Kreis","type":"Landkreis"},"federalState":{"key":"07","name":"Rheinland-Pfalz"}},{"name":"An der kleinen Hohl","postalCode":"67354","locality":"Römerberg","municipality":{"key":"07338023","name":"Römerberg","type":"Kreisangehörige_Gemeinde"},"district":{"key":"07338","name":"Rhein-Pfalz-Kreis","type":"Landkreis"},"federalState":{"key":"07","name":"Rheinland-Pfalz"}},{"name":"Bahnhofstr.","postalCode":"67354","locality":"Römerberg","municipality":{"key":"07338023","name":"Römerberg","type":"Kreisangehörige_Gemeinde"},"district":{"key":"07338","name":"Rhein-Pfalz-Kreis","type":"Landkreis"},"federalState":{"key":"07","name":"Rheinland-Pfalz"}},{"name":"Bäumelweg","postalCode":"67354","locality":"Römerberg","municipality":{"key":"07338023","name":"Römerberg","type":"Kreisangehörige_Gemeinde"},"district":{"key":"07338","name":"Rhein-Pfalz-Kreis","type":"Landkreis"},"federalState":{"key":"07","name":"Rheinland-Pfalz"}},{"name":"Beethovenstr.","postalCode":"67354","locality":"Römerberg","municipality":{"key":"07338023","name":"Römerberg","type":"Kreisangehörige_Gemeinde"},"district":{"key":"07338","name":"Rhein-Pfalz-Kreis","type":"Landkreis"},"federalState":{"key":"07","name":"Rheinland-Pfalz"}},{"name":"Berghäuser Str.","postalCode":"67354","locality":"Römerberg","municipality":{"key":"07338023","name":"Römerberg","type":"Kreisangehörige_Gemeinde"},"district":{"key":"07338","name":"Rhein-Pfalz-Kreis","type":"Landkreis"},"federalState":{"key":"07","name":"Rheinland-Pfalz"}},{"name":"Berwartsteinstr.","postalCode":"67354","locality":"Römerberg","municipality":{"key":"07338023","name":"Römerberg","type":"Kreisangehörige_Gemeinde"},"district":{"key":"07338","name":"Rhein-Pfalz-Kreis","type":"Landkreis"},"federalState":{"key":"07","name":"Rheinland-Pfalz"}},{"name":"Birkenweg","postalCode":"67354","locality":"Römerberg","municipality":{"key":"07338023","name":"Römerberg","type":"Kreisangehörige_Gemeinde"},"district":{"key":"07338","name":"Rhein-Pfalz-Kreis","type":"Landkreis"},"federalState":{"key":"07","name":"Rheinland-Pfalz"}},{"name":"Bonhoeffer Str.","postalCode":"67354","locality":"Römerberg","municipality":{"key":"07338023","name":"Römerberg","type":"Kreisangehörige_Gemeinde"},"district":{"key":"07338","name":"Rhein-Pfalz-Kreis","type":"Landkreis"},"federalState":{"key":"07","name":"Rheinland-Pfalz"}},{"name":"Brahmsstr.","postalCode":"67354","locality":"Römerberg","municipality":{"key":"07338023","name":"Römerberg","type":"Kreisangehörige_Gemeinde"},"district":{"key":"07338","name":"Rhein-Pfalz-Kreis","type":"Landkreis"},"federalState":{"key":"07","name":"Rheinland-Pfalz"}},{"name":"Breitenweg","postalCode":"67354","locality":"Römerberg","municipality":{"key":"07338023","name":"Römerberg","type":"Kreisangehörige_Gemeinde"},"district":{"key":"07338","name":"Rhein-Pfalz-Kreis","type":"Landkreis"},"federalState":{"key":"07","name":"Rheinland-Pfalz"}},{"name":"Brucknerstr.","postalCode":"67354","locality":"Römerberg","municipality":{"key":"07338023","name":"Römerberg","type":"Kreisangehörige_Gemeinde"},"district":{"key":"07338","name":"Rhein-Pfalz-Kreis","type":"Landkreis"},"federalState":{"key":"07","name":"Rheinland-Pfalz"}},{"name":"Buchenweg","postalCode":"67354","locality":"Römerberg","municipality":{"key":"07338023","name":"Römerberg","type":"Kreisangehörige_Gemeinde"},"district":{"key":"07338","name":"Rhein-Pfalz-Kreis","type":"Landkreis"},"federalState":{"key":"07","name":"Rheinland-Pfalz"}},{"name":"Drachenfelsstr.","postalCode":"67354","locality":"Römerberg","municipality":{"key":"07338023","name":"Römerberg","type":"Kreisangehörige_Gemeinde"},"district":{"key":"07338","name":"Rhein-Pfalz-Kreis","type":"Landkreis"},"federalState":{"key":"07","name":"Rheinland-Pfalz"}},{"name":"Dr.-Grundhöfer-Str.","postalCode":"67354","locality":"Römerberg","municipality":{"key":"07338023","name":"Römerberg","type":"Kreisangehörige_Gemeinde"},"district":{"key":"07338","name":"Rhein-Pfalz-Kreis","type":"Landkreis"},"federalState":{"key":"07","name":"Rheinland-Pfalz"}},{"name":"Dr.-Rieth-Str.","postalCode":"67354","locality":"Römerberg","municipality":{"key":"07338023","name":"Römerberg","type":"Kreisangehörige_Gemeinde"},"district":{"key":"07338","name":"Rhein-Pfalz-Kreis","type":"Landkreis"},"federalState":{"key":"07","name":"Rheinland-Pfalz"}},{"name":"Dudenhofer Str.","postalCode":"67354","locality":"Römerberg","municipality":{"key":"07338023","name":"Römerberg","type":"Kreisangehörige_Gemeinde"},"district":{"key":"07338","name":"Rhein-Pfalz-Kreis","type":"Landkreis"},"federalState":{"key":"07","name":"Rheinland-Pfalz"}},{"name":"Dürerweg","postalCode":"67354","locality":"Römerberg","municipality":{"key":"07338023","name":"Römerberg","type":"Kreisangehörige_Gemeinde"},"district":{"key":"07338","name":"Rhein-Pfalz-Kreis","type":"Landkreis"},"federalState":{"key":"07","name":"Rheinland-Pfalz"}},{"name":"Edith-Stein-Str.","postalCode":"67354","locality":"Römerberg","municipality":{"key":"07338023","name":"Römerberg","type":"Kreisangehörige_Gemeinde"},"district":{"key":"07338","name":"Rhein-Pfalz-Kreis","type":"Landkreis"},"federalState":{"key":"07","name":"Rheinland-Pfalz"}},{"name":"Eichendorffstr.","postalCode":"67354","locality":"Römerberg","municipality":{"key":"07338023","name":"Römerberg","type":"Kreisangehörige_Gemeinde"},"district":{"key":"07338","name":"Rhein-Pfalz-Kreis","type":"Landkreis"},"federalState":{"key":"07","name":"Rheinland-Pfalz"}},{"name":"Eichenweg","postalCode":"67354","locality":"Römerberg","municipality":{"key":"07338023","name":"Römerberg","type":"Kreisangehörige_Gemeinde"},"district":{"key":"07338","name":"Rhein-Pfalz-Kreis","type":"Landkreis"},"federalState":{"key":"07","name":"Rheinland-Pfalz"}},{"name":"Eisenbahnstr.","postalCode":"67354","locality":"Römerberg","municipality":{"key":"07338023","name":"Römerberg","type":"Kreisangehörige_Gemeinde"},"district":{"key":"07338","name":"Rhein-Pfalz-Kreis","type":"Landkreis"},"federalState":{"key":"07","name":"Rheinland-Pfalz"}},{"name":"Fahrweg","postalCode":"67354","locality":"Römerberg","municipality":{"key":"07338023","name":"Römerberg","type":"Kreisangehörige_Gemeinde"},"district":{"key":"07338","name":"Rhein-Pfalz-Kreis","type":"Landkreis"},"federalState":{"key":"07","name":"Rheinland-Pfalz"}},{"name":"Feuerbachstr.","postalCode":"67354","locality":"Römerberg","municipality":{"key":"07338023","name":"Römerberg","type":"Kreisangehörige_Gemeinde"},"district":{"key":"07338","name":"Rhein-Pfalz-Kreis","type":"Landkreis"},"federalState":{"key":"07","name":"Rheinland-Pfalz"}},{"name":"Fliederweg","postalCode":"67354","locality":"Römerberg","municipality":{"key":"07338023","name":"Römerberg","type":"Kreisangehörige_Gemeinde"},"district":{"key":"07338","name":"Rhein-Pfalz-Kreis","type":"Landkreis"},"federalState":{"key":"07","name":"Rheinland-Pfalz"}},{"name":"Fraumersbergstr.","postalCode":"67354","locality":"Römerberg","municipality":{"key":"07338023","name":"Römerberg","type":"Kreisangehörige_Gemeinde"},"district":{"key":"07338","name":"Rhein-Pfalz-Kreis","type":"Landkreis"},"federalState":{"key":"07","name":"Rheinland-Pfalz"}},{"name":"Friedensstr.","postalCode":"67354","locality":"Römerberg","municipality":{"key":"07338023","name":"Römerberg","type":"Kreisangehörige_Gemeinde"},"district":{"key":"07338","name":"Rhein-Pfalz-Kreis","type":"Landkreis"},"federalState":{"key":"07","name":"Rheinland-Pfalz"}},{"name":"Friedhofstr.","postalCode":"67354","locality":"Römerberg","municipality":{"key":"07338023","name":"Römerberg","type":"Kreisangehörige_Gemeinde"},"district":{"key":"07338","name":"Rhein-Pfalz-Kreis","type":"Landkreis"},"federalState":{"key":"07","name":"Rheinland-Pfalz"}},{"name":"Gartenstr.","postalCode":"67354","locality":"Römerberg","municipality":{"key":"07338023","name":"Römerberg","type":"Kreisangehörige_Gemeinde"},"district":{"key":"07338","name":"Rhein-Pfalz-Kreis","type":"Landkreis"},"federalState":{"key":"07","name":"Rheinland-Pfalz"}},{"name":"Georg-Sitzenstuhl-Str.","postalCode":"67354","locality":"Römerberg","municipality":{"key":"07338023","name":"Römerberg","type":"Kreisangehörige_Gemeinde"},"district":{"key":"07338","name":"Rhein-Pfalz-Kreis","type":"Landkreis"},"federalState":{"key":"07","name":"Rheinland-Pfalz"}},{"name":"Germersheimer Str.","postalCode":"67354","locality":"Römerberg","municipality":{"key":"07338023","name":"Römerberg","type":"Kreisangehörige_Gemeinde"},"district":{"key":"07338","name":"Rhein-Pfalz-Kreis","type":"Landkreis"},"federalState":{"key":"07","name":"Rheinland-Pfalz"}},{"name":"Goethestr.","postalCode":"67354","locality":"Römerberg","municipality":{"key":"07338023","name":"Römerberg","type":"Kreisangehörige_Gemeinde"},"district":{"key":"07338","name":"Rhein-Pfalz-Kreis","type":"Landkreis"},"federalState":{"key":"07","name":"Rheinland-Pfalz"}},{"name":"Große Hohl","postalCode":"67354","locality":"Römerberg","municipality":{"key":"07338023","name":"Römerberg","type":"Kreisangehörige_Gemeinde"},"district":{"key":"07338","name":"Rhein-Pfalz-Kreis","type":"Landkreis"},"federalState":{"key":"07","name":"Rheinland-Pfalz"}},{"name":"Grünewaldstr.","postalCode":"67354","locality":"Römerberg","municipality":{"key":"07338023","name":"Römerberg","type":"Kreisangehörige_Gemeinde"},"district":{"key":"07338","name":"Rhein-Pfalz-Kreis","type":"Landkreis"},"federalState":{"key":"07","name":"Rheinland-Pfalz"}},{"name":"Gutenbergstr.","postalCode":"67354","locality":"Römerberg","municipality":{"key":"07338023","name":"Römerberg","type":"Kreisangehörige_Gemeinde"},"district":{"key":"07338","name":"Rhein-Pfalz-Kreis","type":"Landkreis"},"federalState":{"key":"07","name":"Rheinland-Pfalz"}},{"name":"Habsburgerstr.","postalCode":"67354","locality":"Römerberg","municipality":{"key":"07338023","name":"Römerberg","type":"Kreisangehörige_Gemeinde"},"district":{"key":"07338","name":"Rhein-Pfalz-Kreis","type":"Landkreis"},"federalState":{"key":"07","name":"Rheinland-Pfalz"}},{"name":"Hardenburgstr.","postalCode":"67354","locality":"Römerberg","municipality":{"key":"07338023","name":"Römerberg","type":"Kreisangehörige_Gemeinde"},"district":{"key":"07338","name":"Rhein-Pfalz-Kreis","type":"Landkreis"},"federalState":{"key":"07","name":"Rheinland-Pfalz"}},{"name":"Harthäuser Str.","postalCode":"67354","locality":"Römerberg","municipality":{"key":"07338023","name":"Römerberg","type":"Kreisangehörige_Gemeinde"},"district":{"key":"07338","name":"Rhein-Pfalz-Kreis","type":"Landkreis"},"federalState":{"key":"07","name":"Rheinland-Pfalz"}},{"name":"Haydnstr.","postalCode":"67354","locality":"Römerberg","municipality":{"key":"07338023","name":"Römerberg","type":"Kreisangehörige_Gemeinde"},"district":{"key":"07338","name":"Rhein-Pfalz-Kreis","type":"Landkreis"},"federalState":{"key":"07","name":"Rheinland-Pfalz"}},{"name":"Heiligensteiner Str.","postalCode":"67354","locality":"Römerberg","municipality":{"key":"07338023","name":"Römerberg","type":"Kreisangehörige_Gemeinde"},"district":{"key":"07338","name":"Rhein-Pfalz-Kreis","type":"Landkreis"},"federalState":{"key":"07","name":"Rheinland-Pfalz"}},{"name":"Hermann-Löns-Str.","postalCode":"67354","locality":"Römerberg","municipality":{"key":"07338023","name":"Römerberg","type":"Kreisangehörige_Gemeinde"},"district":{"key":"07338","name":"Rhein-Pfalz-Kreis","type":"Landkreis"},"federalState":{"key":"07","name":"Rheinland-Pfalz"}},{"name":"Hinter der Kirche","postalCode":"67354","locality":"Römerberg","municipality":{"key":"07338023","name":"Römerberg","type":"Kreisangehörige_Gemeinde"},"district":{"key":"07338","name":"Rhein-Pfalz-Kreis","type":"Landkreis"},"federalState":{"key":"07","name":"Rheinland-Pfalz"}},{"name":"Hohenzollernstr.","postalCode":"67354","locality":"Römerberg","municipality":{"key":"07338023","name":"Römerberg","type":"Kreisangehörige_Gemeinde"},"district":{"key":"07338","name":"Rhein-Pfalz-Kreis","type":"Landkreis"},"federalState":{"key":"07","name":"Rheinland-Pfalz"}},{"name":"Holzgasse","postalCode":"67354","locality":"Römerberg","municipality":{"key":"07338023","name":"Römerberg","type":"Kreisangehörige_Gemeinde"},"district":{"key":"07338","name":"Rhein-Pfalz-Kreis","type":"Landkreis"},"federalState":{"key":"07","name":"Rheinland-Pfalz"}},{"name":"Holzweg","postalCode":"67354","locality":"Römerberg","municipality":{"key":"07338023","name":"Römerberg","type":"Kreisangehörige_Gemeinde"},"district":{"key":"07338","name":"Rhein-Pfalz-Kreis","type":"Landkreis"},"federalState":{"key":"07","name":"Rheinland-Pfalz"}},{"name":"Im Blümel","postalCode":"67354","locality":"Römerberg","municipality":{"key":"07338023","name":"Römerberg","type":"Kreisangehörige_Gemeinde"},"district":{"key":"07338","name":"Rhein-Pfalz-Kreis","type":"Landkreis"},"federalState":{"key":"07","name":"Rheinland-Pfalz"}},{"name":"Im Gässel","postalCode":"67354","locality":"Römerberg","municipality":{"key":"07338023","name":"Römerberg","type":"Kreisangehörige_Gemeinde"},"district":{"key":"07338","name":"Rhein-Pfalz-Kreis","type":"Landkreis"},"federalState":{"key":"07","name":"Rheinland-Pfalz"}},{"name":"Im Krautgarten","postalCode":"67354","locality":"Römerberg","municipality":{"key":"07338023","name":"Römerberg","type":"Kreisangehörige_Gemeinde"},"district":{"key":"07338","name":"Rhein-Pfalz-Kreis","type":"Landkreis"},"federalState":{"key":"07","name":"Rheinland-Pfalz"}},{"name":"Im Oberen Berg","postalCode":"67354","locality":"Römerberg","municipality":{"key":"07338023","name":"Römerberg","type":"Kreisangehörige_Gemeinde"},"district":{"key":"07338","name":"Rhein-Pfalz-Kreis","type":"Landkreis"},"federalState":{"key":"07","name":"Rheinland-Pfalz"}},{"name":"Jahnstr.","postalCode":"67354","locality":"Römerberg","municipality":{"key":"07338023","name":"Römerberg","type":"Kreisangehörige_Gemeinde"},"district":{"key":"07338","name":"Rhein-Pfalz-Kreis","type":"Landkreis"},"federalState":{"key":"07","name":"Rheinland-Pfalz"}},{"name":"Karolingerstr.","postalCode":"67354","locality":"Römerberg","municipality":{"key":"07338023","name":"Römerberg","type":"Kreisangehörige_Gemeinde"},"district":{"key":"07338","name":"Rhein-Pfalz-Kreis","type":"Landkreis"},"federalState":{"key":"07","name":"Rheinland-Pfalz"}},{"name":"Kirchenweg","postalCode":"67354","locality":"Römerberg","municipality":{"key":"07338023","name":"Römerberg","type":"Kreisangehörige_Gemeinde"},"district":{"key":"07338","name":"Rhein-Pfalz-Kreis","type":"Landkreis"},"federalState":{"key":"07","name":"Rheinland-Pfalz"}},{"name":"Kleine Hohl","postalCode":"67354","locality":"Römerberg","municipality":{"key":"07338023","name":"Römerberg","type":"Kreisangehörige_Gemeinde"},"district":{"key":"07338","name":"Rhein-Pfalz-Kreis","type":"Landkreis"},"federalState":{"key":"07","name":"Rheinland-Pfalz"}},{"name":"Kneippstr.","postalCode":"67354","locality":"Römerberg","municipality":{"key":"07338023","name":"Römerberg","type":"Kreisangehörige_Gemeinde"},"district":{"key":"07338","name":"Rhein-Pfalz-Kreis","type":"Landkreis"},"federalState":{"key":"07","name":"Rheinland-Pfalz"}},{"name":"Kolpingstr.","postalCode":"67354","locality":"Römerberg","municipality":{"key":"07338023","name":"Römerberg","type":"Kreisangehörige_Gemeinde"},"district":{"key":"07338","name":"Rhein-Pfalz-Kreis","type":"Landkreis"},"federalState":{"key":"07","name":"Rheinland-Pfalz"}},{"name":"Kropsburgstr.","postalCode":"67354","locality":"Römerberg","municipality":{"key":"07338023","name":"Römerberg","type":"Kreisangehörige_Gemeinde"},"district":{"key":"07338","name":"Rhein-Pfalz-Kreis","type":"Landkreis"},"federalState":{"key":"07","name":"Rheinland-Pfalz"}},{"name":"Lessingstr.","postalCode":"67354","locality":"Römerberg","municipality":{"key":"07338023","name":"Römerberg","type":"Kreisangehörige_Gemeinde"},"district":{"key":"07338","name":"Rhein-Pfalz-Kreis","type":"Landkreis"},"federalState":{"key":"07","name":"Rheinland-Pfalz"}},{"name":"Limburgstr.","postalCode":"67354","locality":"Römerberg","municipality":{"key":"07338023","name":"Römerberg","type":"Kreisangehörige_Gemeinde"},"district":{"key":"07338","name":"Rhein-Pfalz-Kreis","type":"Landkreis"},"federalState":{"key":"07","name":"Rheinland-Pfalz"}},{"name":"Lina-Sommer-Str.","postalCode":"67354","locality":"Römerberg","municipality":{"key":"07338023","name":"Römerberg","type":"Kreisangehörige_Gemeinde"},"district":{"key":"07338","name":"Rhein-Pfalz-Kreis","type":"Landkreis"},"federalState":{"key":"07","name":"Rheinland-Pfalz"}},{"name":"Lindelbrunnstr.","postalCode":"67354","locality":"Römerberg","municipality":{"key":"07338023","name":"Römerberg","type":"Kreisangehörige_Gemeinde"},"district":{"key":"07338","name":"Rhein-Pfalz-Kreis","type":"Landkreis"},"federalState":{"key":"07","name":"Rheinland-Pfalz"}},{"name":"Lindenplatz","postalCode":"67354","locality":"Römerberg","municipality":{"key":"07338023","name":"Römerberg","type":"Kreisangehörige_Gemeinde"},"district":{"key":"07338","name":"Rhein-Pfalz-Kreis","type":"Landkreis"},"federalState":{"key":"07","name":"Rheinland-Pfalz"}},{"name":"Lindenstr.","postalCode":"67354","locality":"Römerberg","municipality":{"key":"07338023","name":"Römerberg","type":"Kreisangehörige_Gemeinde"},"district":{"key":"07338","name":"Rhein-Pfalz-Kreis","type":"Landkreis"},"federalState":{"key":"07","name":"Rheinland-Pfalz"}},{"name":"Lingenfelder Str.","postalCode":"67354","locality":"Römerberg","municipality":{"key":"07338023","name":"Römerberg","type":"Kreisangehörige_Gemeinde"},"district":{"key":"07338","name":"Rhein-Pfalz-Kreis","type":"Landkreis"},"federalState":{"key":"07","name":"Rheinland-Pfalz"}},{"name":"Madenburgstr.","postalCode":"67354","locality":"Römerberg","municipality":{"key":"07338023","name":"Römerberg","type":"Kreisangehörige_Gemeinde"},"district":{"key":"07338","name":"Rhein-Pfalz-Kreis","type":"Landkreis"},"federalState":{"key":"07","name":"Rheinland-Pfalz"}},{"name":"Malzfabrikstr.","postalCode":"67354","locality":"Römerberg","municipality":{"key":"07338023","name":"Römerberg","type":"Kreisangehörige_Gemeinde"},"district":{"key":"07338","name":"Rhein-Pfalz-Kreis","type":"Landkreis"},"federalState":{"key":"07","name":"Rheinland-Pfalz"}},{"name":"Marnheimer Weg","postalCode":"67354","locality":"Römerberg","municipality":{"key":"07338023","name":"Römerberg","type":"Kreisangehörige_Gemeinde"},"district":{"key":"07338","name":"Rhein-Pfalz-Kreis","type":"Landkreis"},"federalState":{"key":"07","name":"Rheinland-Pfalz"}},{"name":"Martin-Greif-Str.","postalCode":"67354","locality":"Römerberg","municipality":{"key":"07338023","name":"Römerberg","type":"Kreisangehörige_Gemeinde"},"district":{"key":"07338","name":"Rhein-Pfalz-Kreis","type":"Landkreis"},"federalState":{"key":"07","name":"Rheinland-Pfalz"}},{"name":"Marxenweidenweg","postalCode":"67354","locality":"Römerberg","municipality":{"key":"07338023","name":"Römerberg","type":"Kreisangehörige_Gemeinde"},"district":{"key":"07338","name":"Rhein-Pfalz-Kreis","type":"Landkreis"},"federalState":{"key":"07","name":"Rheinland-Pfalz"}},{"name":"Maxburgstr.","postalCode":"67354","locality":"Römerberg","municipality":{"key":"07338023","name":"Römerberg","type":"Kreisangehörige_Gemeinde"},"district":{"key":"07338","name":"Rhein-Pfalz-Kreis","type":"Landkreis"},"federalState":{"key":"07","name":"Rheinland-Pfalz"}},{"name":"Mechtersheimer Str.","postalCode":"67354","locality":"Römerberg","municipality":{"key":"07338023","name":"Römerberg","type":"Kreisangehörige_Gemeinde"},"district":{"key":"07338","name":"Rhein-Pfalz-Kreis","type":"Landkreis"},"federalState":{"key":"07","name":"Rheinland-Pfalz"}},{"name":"Mozartstr.","postalCode":"67354","locality":"Römerberg","municipality":{"key":"07338023","name":"Römerberg","type":"Kreisangehörige_Gemeinde"},"district":{"key":"07338","name":"Rhein-Pfalz-Kreis","type":"Landkreis"},"federalState":{"key":"07","name":"Rheinland-Pfalz"}},{"name":"Obergässel","postalCode":"67354","locality":"Römerberg","municipality":{"key":"07338023","name":"Römerberg","type":"Kreisangehörige_Gemeinde"},"district":{"key":"07338","name":"Rhein-Pfalz-Kreis","type":"Landkreis"},"federalState":{"key":"07","name":"Rheinland-Pfalz"}},{"name":"Pappelweg","postalCode":"67354","locality":"Römerberg","municipality":{"key":"07338023","name":"Römerberg","type":"Kreisangehörige_Gemeinde"},"district":{"key":"07338","name":"Rhein-Pfalz-Kreis","type":"Landkreis"},"federalState":{"key":"07","name":"Rheinland-Pfalz"}},{"name":"Philippsburger Str.","postalCode":"67354","locality":"Römerberg","municipality":{"key":"07338023","name":"Römerberg","type":"Kreisangehörige_Gemeinde"},"district":{"key":"07338","name":"Rhein-Pfalz-Kreis","type":"Landkreis"},"federalState":{"key":"07","name":"Rheinland-Pfalz"}},{"name":"Querstr.","postalCode":"67354","locality":"Römerberg","municipality":{"key":"07338023","name":"Römerberg","type":"Kreisangehörige_Gemeinde"},"district":{"key":"07338","name":"Rhein-Pfalz-Kreis","type":"Landkreis"},"federalState":{"key":"07","name":"Rheinland-Pfalz"}},{"name":"Rheinfeldstr.","postalCode":"67354","locality":"Römerberg","municipality":{"key":"07338023","name":"Römerberg","type":"Kreisangehörige_Gemeinde"},"district":{"key":"07338","name":"Rhein-Pfalz-Kreis","type":"Landkreis"},"federalState":{"key":"07","name":"Rheinland-Pfalz"}},{"name":"Rietburgstr.","postalCode":"67354","locality":"Römerberg","municipality":{"key":"07338023","name":"Römerberg","type":"Kreisangehörige_Gemeinde"},"district":{"key":"07338","name":"Rhein-Pfalz-Kreis","type":"Landkreis"},"federalState":{"key":"07","name":"Rheinland-Pfalz"}},{"name":"Robert-Koch-Str.","postalCode":"67354","locality":"Römerberg","municipality":{"key":"07338023","name":"Römerberg","type":"Kreisangehörige_Gemeinde"},"district":{"key":"07338","name":"Rhein-Pfalz-Kreis","type":"Landkreis"},"federalState":{"key":"07","name":"Rheinland-Pfalz"}},{"name":"Rosenweg","postalCode":"67354","locality":"Römerberg","municipality":{"key":"07338023","name":"Römerberg","type":"Kreisangehörige_Gemeinde"},"district":{"key":"07338","name":"Rhein-Pfalz-Kreis","type":"Landkreis"},"federalState":{"key":"07","name":"Rheinland-Pfalz"}},{"name":"Salierstr.","postalCode":"67354","locality":"Römerberg","municipality":{"key":"07338023","name":"Römerberg","type":"Kreisangehörige_Gemeinde"},"district":{"key":"07338","name":"Rhein-Pfalz-Kreis","type":"Landkreis"},"federalState":{"key":"07","name":"Rheinland-Pfalz"}},{"name":"Sandstr.","postalCode":"67354","locality":"Römerberg","municipality":{"key":"07338023","name":"Römerberg","type":"Kreisangehörige_Gemeinde"},"district":{"key":"07338","name":"Rhein-Pfalz-Kreis","type":"Landkreis"},"federalState":{"key":"07","name":"Rheinland-Pfalz"}},{"name":"Sankt-Bernhardus-Str.","postalCode":"67354","locality":"Römerberg","municipality":{"key":"07338023","name":"Römerberg","type":"Kreisangehörige_Gemeinde"},"district":{"key":"07338","name":"Rhein-Pfalz-Kreis","type":"Landkreis"},"federalState":{"key":"07","name":"Rheinland-Pfalz"}},{"name":"Sankt-Michael-Str.","postalCode":"67354","locality":"Römerberg","municipality":{"key":"07338023","name":"Römerberg","type":"Kreisangehörige_Gemeinde"},"district":{"key":"07338","name":"Rhein-Pfalz-Kreis","type":"Landkreis"},"federalState":{"key":"07","name":"Rheinland-Pfalz"}},{"name":"Schillerstr.","postalCode":"67354","locality":"Römerberg","municipality":{"key":"07338023","name":"Römerberg","type":"Kreisangehörige_Gemeinde"},"district":{"key":"07338","name":"Rhein-Pfalz-Kreis","type":"Landkreis"},"federalState":{"key":"07","name":"Rheinland-Pfalz"}},{"name":"Schraudolphstr.","postalCode":"67354","locality":"Römerberg","municipality":{"key":"07338023","name":"Römerberg","type":"Kreisangehörige_Gemeinde"},"district":{"key":"07338","name":"Rhein-Pfalz-Kreis","type":"Landkreis"},"federalState":{"key":"07","name":"Rheinland-Pfalz"}},{"name":"Schubertstr.","postalCode":"67354","locality":"Römerberg","municipality":{"key":"07338023","name":"Römerberg","type":"Kreisangehörige_Gemeinde"},"district":{"key":"07338","name":"Rhein-Pfalz-Kreis","type":"Landkreis"},"federalState":{"key":"07","name":"Rheinland-Pfalz"}},{"name":"Schulstr.","postalCode":"67354","locality":"Römerberg","municipality":{"key":"07338023","name":"Römerberg","type":"Kreisangehörige_Gemeinde"},"district":{"key":"07338","name":"Rhein-Pfalz-Kreis","type":"Landkreis"},"federalState":{"key":"07","name":"Rheinland-Pfalz"}},{"name":"Schwarzwaldweg","postalCode":"67354","locality":"Römerberg","municipality":{"key":"07338023","name":"Römerberg","type":"Kreisangehörige_Gemeinde"},"district":{"key":"07338","name":"Rhein-Pfalz-Kreis","type":"Landkreis"},"federalState":{"key":"07","name":"Rheinland-Pfalz"}},{"name":"Schwegenheimer Str.","postalCode":"67354","locality":"Römerberg","municipality":{"key":"07338023","name":"Römerberg","type":"Kreisangehörige_Gemeinde"},"district":{"key":"07338","name":"Rhein-Pfalz-Kreis","type":"Landkreis"},"federalState":{"key":"07","name":"Rheinland-Pfalz"}},{"name":"Schwegenheimer Weg","postalCode":"67354","locality":"Römerberg","municipality":{"key":"07338023","name":"Römerberg","type":"Kreisangehörige_Gemeinde"},"district":{"key":"07338","name":"Rhein-Pfalz-Kreis","type":"Landkreis"},"federalState":{"key":"07","name":"Rheinland-Pfalz"}},{"name":"Slevogtweg","postalCode":"67354","locality":"Römerberg","municipality":{"key":"07338023","name":"Römerberg","type":"Kreisangehörige_Gemeinde"},"district":{"key":"07338","name":"Rhein-Pfalz-Kreis","type":"Landkreis"},"federalState":{"key":"07","name":"Rheinland-Pfalz"}},{"name":"Speyerer Str.","postalCode":"67354","locality":"Römerberg","municipality":{"key":"07338023","name":"Römerberg","type":"Kreisangehörige_Gemeinde"},"district":{"key":"07338","name":"Rhein-Pfalz-Kreis","type":"Landkreis"},"federalState":{"key":"07","name":"Rheinland-Pfalz"}},{"name":"Stauferstr.","postalCode":"67354","locality":"Römerberg","municipality":{"key":"07338023","name":"Römerberg","type":"Kreisangehörige_Gemeinde"},"district":{"key":"07338","name":"Rhein-Pfalz-Kreis","type":"Landkreis"},"federalState":{"key":"07","name":"Rheinland-Pfalz"}},{"name":"Trifelsstr.","postalCode":"67354","locality":"Römerberg","municipality":{"key":"07338023","name":"Römerberg","type":"Kreisangehörige_Gemeinde"},"district":{"key":"07338","name":"Rhein-Pfalz-Kreis","type":"Landkreis"},"federalState":{"key":"07","name":"Rheinland-Pfalz"}},{"name":"Uhlandstr.","postalCode":"67354","locality":"Römerberg","municipality":{"key":"07338023","name":"Römerberg","type":"Kreisangehörige_Gemeinde"},"district":{"key":"07338","name":"Rhein-Pfalz-Kreis","type":"Landkreis"},"federalState":{"key":"07","name":"Rheinland-Pfalz"}},{"name":"Viehtriftstr.","postalCode":"67354","locality":"Römerberg","municipality":{"key":"07338023","name":"Römerberg","type":"Kreisangehörige_Gemeinde"},"district":{"key":"07338","name":"Rhein-Pfalz-Kreis","type":"Landkreis"},"federalState":{"key":"07","name":"Rheinland-Pfalz"}},{"name":"Von-Bolanden-Str.","postalCode":"67354","locality":"Römerberg","municipality":{"key":"07338023","name":"Römerberg","type":"Kreisangehörige_Gemeinde"},"district":{"key":"07338","name":"Rhein-Pfalz-Kreis","type":"Landkreis"},"federalState":{"key":"07","name":"Rheinland-Pfalz"}},{"name":"Von-Ketteler-Str.","postalCode":"67354","locality":"Römerberg","municipality":{"key":"07338023","name":"Römerberg","type":"Kreisangehörige_Gemeinde"},"district":{"key":"07338","name":"Rhein-Pfalz-Kreis","type":"Landkreis"},"federalState":{"key":"07","name":"Rheinland-Pfalz"}},{"name":"Wachtenburgstr.","postalCode":"67354","locality":"Römerberg","municipality":{"key":"07338023","name":"Römerberg","type":"Kreisangehörige_Gemeinde"},"district":{"key":"07338","name":"Rhein-Pfalz-Kreis","type":"Landkreis"},"federalState":{"key":"07","name":"Rheinland-Pfalz"}},{"name":"Wasengartenstr.","postalCode":"67354","locality":"Römerberg","municipality":{"key":"07338023","name":"Römerberg","type":"Kreisangehörige_Gemeinde"},"district":{"key":"07338","name":"Rhein-Pfalz-Kreis","type":"Landkreis"},"federalState":{"key":"07","name":"Rheinland-Pfalz"}},{"name":"Wielandstr.","postalCode":"67354","locality":"Römerberg","municipality":{"key":"07338023","name":"Römerberg","type":"Kreisangehörige_Gemeinde"},"district":{"key":"07338","name":"Rhein-Pfalz-Kreis","type":"Landkreis"},"federalState":{"key":"07","name":"Rheinland-Pfalz"}},{"name":"Wiesenstr.","postalCode":"67354","locality":"Römerberg","municipality":{"key":"07338023","name":"Römerberg","type":"Kreisangehörige_Gemeinde"},"district":{"key":"07338","name":"Rhein-Pfalz-Kreis","type":"Landkreis"},"federalState":{"key":"07","name":"Rheinland-Pfalz"}},{"name":"Wittelsbacherstr.","postalCode":"67354","locality":"Römerberg","municipality":{"key":"07338023","name":"Römerberg","type":"Kreisangehörige_Gemeinde"},"district":{"key":"07338","name":"Rhein-Pfalz-Kreis","type":"Landkreis"},"federalState":{"key":"07","name":"Rheinland-Pfalz"}},{"name":"Zwergstr.","postalCode":"67354","locality":"Römerberg","municipality":{"key":"07338023","name":"Römerberg","type":"Kreisangehörige_Gemeinde"},"district":{"key":"07338","name":"Rhein-Pfalz-Kreis","type":"Landkreis"},"federalState":{"key":"07","name":"Rheinland-Pfalz"}},]