[{"name":"Albstr.","postalCode":"73262","locality":"Reichenbach an der Fils","municipality":{"key":"08116058","name":"Reichenbach an der Fils","type":"Kreisangehörige_Gemeinde"},"district":{"key":"08116","name":"Esslingen","type":"Landkreis"},"federalState":{"key":"08","name":"Baden-Württemberg"}},{"name":"Alte Hegenloher Str.","postalCode":"73262","locality":"Reichenbach an der Fils","municipality":{"key":"08116058","name":"Reichenbach an der Fils","type":"Kreisangehörige_Gemeinde"},"district":{"key":"08116","name":"Esslingen","type":"Landkreis"},"federalState":{"key":"08","name":"Baden-Württemberg"}},{"name":"Am Mühlweg","postalCode":"73262","locality":"Reichenbach an der Fils","municipality":{"key":"08116058","name":"Reichenbach an der Fils","type":"Kreisangehörige_Gemeinde"},"district":{"key":"08116","name":"Esslingen","type":"Landkreis"},"federalState":{"key":"08","name":"Baden-Württemberg"}},{"name":"Am Schönblick","postalCode":"73262","locality":"Reichenbach an der Fils","municipality":{"key":"08116058","name":"Reichenbach an der Fils","type":"Kreisangehörige_Gemeinde"},"district":{"key":"08116","name":"Esslingen","type":"Landkreis"},"federalState":{"key":"08","name":"Baden-Württemberg"}},{"name":"Asternweg","postalCode":"73262","locality":"Reichenbach an der Fils","municipality":{"key":"08116058","name":"Reichenbach an der Fils","type":"Kreisangehörige_Gemeinde"},"district":{"key":"08116","name":"Esslingen","type":"Landkreis"},"federalState":{"key":"08","name":"Baden-Württemberg"}},{"name":"Bachstr.","postalCode":"73262","locality":"Reichenbach an der Fils","municipality":{"key":"08116058","name":"Reichenbach an der Fils","type":"Kreisangehörige_Gemeinde"},"district":{"key":"08116","name":"Esslingen","type":"Landkreis"},"federalState":{"key":"08","name":"Baden-Württemberg"}},{"name":"Bahnhofstr.","postalCode":"73262","locality":"Reichenbach an der Fils","municipality":{"key":"08116058","name":"Reichenbach an der Fils","type":"Kreisangehörige_Gemeinde"},"district":{"key":"08116","name":"Esslingen","type":"Landkreis"},"federalState":{"key":"08","name":"Baden-Württemberg"}},{"name":"Baltmannsweiler Str.","postalCode":"73262","locality":"Reichenbach an der Fils","municipality":{"key":"08116058","name":"Reichenbach an der Fils","type":"Kreisangehörige_Gemeinde"},"district":{"key":"08116","name":"Esslingen","type":"Landkreis"},"federalState":{"key":"08","name":"Baden-Württemberg"}},{"name":"Bergstr.","postalCode":"73262","locality":"Reichenbach an der Fils","municipality":{"key":"08116058","name":"Reichenbach an der Fils","type":"Kreisangehörige_Gemeinde"},"district":{"key":"08116","name":"Esslingen","type":"Landkreis"},"federalState":{"key":"08","name":"Baden-Württemberg"}},{"name":"Bismarckstr.","postalCode":"73262","locality":"Reichenbach an der Fils","municipality":{"key":"08116058","name":"Reichenbach an der Fils","type":"Kreisangehörige_Gemeinde"},"district":{"key":"08116","name":"Esslingen","type":"Landkreis"},"federalState":{"key":"08","name":"Baden-Württemberg"}},{"name":"Blumenstr.","postalCode":"73262","locality":"Reichenbach an der Fils","municipality":{"key":"08116058","name":"Reichenbach an der Fils","type":"Kreisangehörige_Gemeinde"},"district":{"key":"08116","name":"Esslingen","type":"Landkreis"},"federalState":{"key":"08","name":"Baden-Württemberg"}},{"name":"Breslauer Str.","postalCode":"73262","locality":"Reichenbach an der Fils","municipality":{"key":"08116058","name":"Reichenbach an der Fils","type":"Kreisangehörige_Gemeinde"},"district":{"key":"08116","name":"Esslingen","type":"Landkreis"},"federalState":{"key":"08","name":"Baden-Württemberg"}},{"name":"Brunnenstr.","postalCode":"73262","locality":"Reichenbach an der Fils","municipality":{"key":"08116058","name":"Reichenbach an der Fils","type":"Kreisangehörige_Gemeinde"},"district":{"key":"08116","name":"Esslingen","type":"Landkreis"},"federalState":{"key":"08","name":"Baden-Württemberg"}},{"name":"Christofstr.","postalCode":"73262","locality":"Reichenbach an der Fils","municipality":{"key":"08116058","name":"Reichenbach an der Fils","type":"Kreisangehörige_Gemeinde"},"district":{"key":"08116","name":"Esslingen","type":"Landkreis"},"federalState":{"key":"08","name":"Baden-Württemberg"}},{"name":"Dachshöhlerweg","postalCode":"73262","locality":"Reichenbach an der Fils","municipality":{"key":"08116058","name":"Reichenbach an der Fils","type":"Kreisangehörige_Gemeinde"},"district":{"key":"08116","name":"Esslingen","type":"Landkreis"},"federalState":{"key":"08","name":"Baden-Württemberg"}},{"name":"Danziger Str.","postalCode":"73262","locality":"Reichenbach an der Fils","municipality":{"key":"08116058","name":"Reichenbach an der Fils","type":"Kreisangehörige_Gemeinde"},"district":{"key":"08116","name":"Esslingen","type":"Landkreis"},"federalState":{"key":"08","name":"Baden-Württemberg"}},{"name":"Eberhardstr.","postalCode":"73262","locality":"Reichenbach an der Fils","municipality":{"key":"08116058","name":"Reichenbach an der Fils","type":"Kreisangehörige_Gemeinde"},"district":{"key":"08116","name":"Esslingen","type":"Landkreis"},"federalState":{"key":"08","name":"Baden-Württemberg"}},{"name":"Eichstr.","postalCode":"73262","locality":"Reichenbach an der Fils","municipality":{"key":"08116058","name":"Reichenbach an der Fils","type":"Kreisangehörige_Gemeinde"},"district":{"key":"08116","name":"Esslingen","type":"Landkreis"},"federalState":{"key":"08","name":"Baden-Württemberg"}},{"name":"Engesenbachweg","postalCode":"73262","locality":"Reichenbach an der Fils","municipality":{"key":"08116058","name":"Reichenbach an der Fils","type":"Kreisangehörige_Gemeinde"},"district":{"key":"08116","name":"Esslingen","type":"Landkreis"},"federalState":{"key":"08","name":"Baden-Württemberg"}},{"name":"Filsstr.","postalCode":"73262","locality":"Reichenbach an der Fils","municipality":{"key":"08116058","name":"Reichenbach an der Fils","type":"Kreisangehörige_Gemeinde"},"district":{"key":"08116","name":"Esslingen","type":"Landkreis"},"federalState":{"key":"08","name":"Baden-Württemberg"}},{"name":"Fischerstr.","postalCode":"73262","locality":"Reichenbach an der Fils","municipality":{"key":"08116058","name":"Reichenbach an der Fils","type":"Kreisangehörige_Gemeinde"},"district":{"key":"08116","name":"Esslingen","type":"Landkreis"},"federalState":{"key":"08","name":"Baden-Württemberg"}},{"name":"Friedhofstr.","postalCode":"73262","locality":"Reichenbach an der Fils","municipality":{"key":"08116058","name":"Reichenbach an der Fils","type":"Kreisangehörige_Gemeinde"},"district":{"key":"08116","name":"Esslingen","type":"Landkreis"},"federalState":{"key":"08","name":"Baden-Württemberg"}},{"name":"Friedrichstr.","postalCode":"73262","locality":"Reichenbach an der Fils","municipality":{"key":"08116058","name":"Reichenbach an der Fils","type":"Kreisangehörige_Gemeinde"},"district":{"key":"08116","name":"Esslingen","type":"Landkreis"},"federalState":{"key":"08","name":"Baden-Württemberg"}},{"name":"Frühlingstr.","postalCode":"73262","locality":"Reichenbach an der Fils","municipality":{"key":"08116058","name":"Reichenbach an der Fils","type":"Kreisangehörige_Gemeinde"},"district":{"key":"08116","name":"Esslingen","type":"Landkreis"},"federalState":{"key":"08","name":"Baden-Württemberg"}},{"name":"Fürstenstr.","postalCode":"73262","locality":"Reichenbach an der Fils","municipality":{"key":"08116058","name":"Reichenbach an der Fils","type":"Kreisangehörige_Gemeinde"},"district":{"key":"08116","name":"Esslingen","type":"Landkreis"},"federalState":{"key":"08","name":"Baden-Württemberg"}},{"name":"Geishaldenweg","postalCode":"73262","locality":"Reichenbach an der Fils","municipality":{"key":"08116058","name":"Reichenbach an der Fils","type":"Kreisangehörige_Gemeinde"},"district":{"key":"08116","name":"Esslingen","type":"Landkreis"},"federalState":{"key":"08","name":"Baden-Württemberg"}},{"name":"Gerberstr.","postalCode":"73262","locality":"Reichenbach an der Fils","municipality":{"key":"08116058","name":"Reichenbach an der Fils","type":"Kreisangehörige_Gemeinde"},"district":{"key":"08116","name":"Esslingen","type":"Landkreis"},"federalState":{"key":"08","name":"Baden-Württemberg"}},{"name":"Goethestr.","postalCode":"73262","locality":"Reichenbach an der Fils","municipality":{"key":"08116058","name":"Reichenbach an der Fils","type":"Kreisangehörige_Gemeinde"},"district":{"key":"08116","name":"Esslingen","type":"Landkreis"},"federalState":{"key":"08","name":"Baden-Württemberg"}},{"name":"Grabenstr.","postalCode":"73262","locality":"Reichenbach an der Fils","municipality":{"key":"08116058","name":"Reichenbach an der Fils","type":"Kreisangehörige_Gemeinde"},"district":{"key":"08116","name":"Esslingen","type":"Landkreis"},"federalState":{"key":"08","name":"Baden-Württemberg"}},{"name":"Grundstr.","postalCode":"73262","locality":"Reichenbach an der Fils","municipality":{"key":"08116058","name":"Reichenbach an der Fils","type":"Kreisangehörige_Gemeinde"},"district":{"key":"08116","name":"Esslingen","type":"Landkreis"},"federalState":{"key":"08","name":"Baden-Württemberg"}},{"name":"Haldenstr.","postalCode":"73262","locality":"Reichenbach an der Fils","municipality":{"key":"08116058","name":"Reichenbach an der Fils","type":"Kreisangehörige_Gemeinde"},"district":{"key":"08116","name":"Esslingen","type":"Landkreis"},"federalState":{"key":"08","name":"Baden-Württemberg"}},{"name":"Hannestobelstr.","postalCode":"73262","locality":"Reichenbach an der Fils","municipality":{"key":"08116058","name":"Reichenbach an der Fils","type":"Kreisangehörige_Gemeinde"},"district":{"key":"08116","name":"Esslingen","type":"Landkreis"},"federalState":{"key":"08","name":"Baden-Württemberg"}},{"name":"Hauptstr.","postalCode":"73262","locality":"Reichenbach an der Fils","municipality":{"key":"08116058","name":"Reichenbach an der Fils","type":"Kreisangehörige_Gemeinde"},"district":{"key":"08116","name":"Esslingen","type":"Landkreis"},"federalState":{"key":"08","name":"Baden-Württemberg"}},{"name":"Heinrich-Otto-Str.","postalCode":"73262","locality":"Reichenbach an der Fils","municipality":{"key":"08116058","name":"Reichenbach an der Fils","type":"Kreisangehörige_Gemeinde"},"district":{"key":"08116","name":"Esslingen","type":"Landkreis"},"federalState":{"key":"08","name":"Baden-Württemberg"}},{"name":"Hermannstr.","postalCode":"73262","locality":"Reichenbach an der Fils","municipality":{"key":"08116058","name":"Reichenbach an der Fils","type":"Kreisangehörige_Gemeinde"},"district":{"key":"08116","name":"Esslingen","type":"Landkreis"},"federalState":{"key":"08","name":"Baden-Württemberg"}},{"name":"Hohenstaufenstr.","postalCode":"73262","locality":"Reichenbach an der Fils","municipality":{"key":"08116058","name":"Reichenbach an der Fils","type":"Kreisangehörige_Gemeinde"},"district":{"key":"08116","name":"Esslingen","type":"Landkreis"},"federalState":{"key":"08","name":"Baden-Württemberg"}},{"name":"Hohenzollernstr.","postalCode":"73262","locality":"Reichenbach an der Fils","municipality":{"key":"08116058","name":"Reichenbach an der Fils","type":"Kreisangehörige_Gemeinde"},"district":{"key":"08116","name":"Esslingen","type":"Landkreis"},"federalState":{"key":"08","name":"Baden-Württemberg"}},{"name":"Im Massau","postalCode":"73262","locality":"Reichenbach an der Fils","municipality":{"key":"08116058","name":"Reichenbach an der Fils","type":"Kreisangehörige_Gemeinde"},"district":{"key":"08116","name":"Esslingen","type":"Landkreis"},"federalState":{"key":"08","name":"Baden-Württemberg"}},{"name":"Im Vogelsang","postalCode":"73262","locality":"Reichenbach an der Fils","municipality":{"key":"08116058","name":"Reichenbach an der Fils","type":"Kreisangehörige_Gemeinde"},"district":{"key":"08116","name":"Esslingen","type":"Landkreis"},"federalState":{"key":"08","name":"Baden-Württemberg"}},{"name":"Im Weilerbett","postalCode":"73262","locality":"Reichenbach an der Fils","municipality":{"key":"08116058","name":"Reichenbach an der Fils","type":"Kreisangehörige_Gemeinde"},"district":{"key":"08116","name":"Esslingen","type":"Landkreis"},"federalState":{"key":"08","name":"Baden-Württemberg"}},{"name":"In den Amseläckern","postalCode":"73262","locality":"Reichenbach an der Fils","municipality":{"key":"08116058","name":"Reichenbach an der Fils","type":"Kreisangehörige_Gemeinde"},"district":{"key":"08116","name":"Esslingen","type":"Landkreis"},"federalState":{"key":"08","name":"Baden-Württemberg"}},{"name":"Jahnstr.","postalCode":"73262","locality":"Reichenbach an der Fils","municipality":{"key":"08116058","name":"Reichenbach an der Fils","type":"Kreisangehörige_Gemeinde"},"district":{"key":"08116","name":"Esslingen","type":"Landkreis"},"federalState":{"key":"08","name":"Baden-Württemberg"}},{"name":"Karlstr.","postalCode":"73262","locality":"Reichenbach an der Fils","municipality":{"key":"08116058","name":"Reichenbach an der Fils","type":"Kreisangehörige_Gemeinde"},"district":{"key":"08116","name":"Esslingen","type":"Landkreis"},"federalState":{"key":"08","name":"Baden-Württemberg"}},{"name":"Katharinenstr.","postalCode":"73262","locality":"Reichenbach an der Fils","municipality":{"key":"08116058","name":"Reichenbach an der Fils","type":"Kreisangehörige_Gemeinde"},"district":{"key":"08116","name":"Esslingen","type":"Landkreis"},"federalState":{"key":"08","name":"Baden-Württemberg"}},{"name":"Kelterstr.","postalCode":"73262","locality":"Reichenbach an der Fils","municipality":{"key":"08116058","name":"Reichenbach an der Fils","type":"Kreisangehörige_Gemeinde"},"district":{"key":"08116","name":"Esslingen","type":"Landkreis"},"federalState":{"key":"08","name":"Baden-Württemberg"}},{"name":"Kirchstr.","postalCode":"73262","locality":"Reichenbach an der Fils","municipality":{"key":"08116058","name":"Reichenbach an der Fils","type":"Kreisangehörige_Gemeinde"},"district":{"key":"08116","name":"Esslingen","type":"Landkreis"},"federalState":{"key":"08","name":"Baden-Württemberg"}},{"name":"Lehmgrubenstr.","postalCode":"73262","locality":"Reichenbach an der Fils","municipality":{"key":"08116058","name":"Reichenbach an der Fils","type":"Kreisangehörige_Gemeinde"},"district":{"key":"08116","name":"Esslingen","type":"Landkreis"},"federalState":{"key":"08","name":"Baden-Württemberg"}},{"name":"Leintelstr.","postalCode":"73262","locality":"Reichenbach an der Fils","municipality":{"key":"08116058","name":"Reichenbach an der Fils","type":"Kreisangehörige_Gemeinde"},"district":{"key":"08116","name":"Esslingen","type":"Landkreis"},"federalState":{"key":"08","name":"Baden-Württemberg"}},{"name":"Lichtensteinstr.","postalCode":"73262","locality":"Reichenbach an der Fils","municipality":{"key":"08116058","name":"Reichenbach an der Fils","type":"Kreisangehörige_Gemeinde"},"district":{"key":"08116","name":"Esslingen","type":"Landkreis"},"federalState":{"key":"08","name":"Baden-Württemberg"}},{"name":"Lützelbachstr.","postalCode":"73262","locality":"Reichenbach an der Fils","municipality":{"key":"08116058","name":"Reichenbach an der Fils","type":"Kreisangehörige_Gemeinde"},"district":{"key":"08116","name":"Esslingen","type":"Landkreis"},"federalState":{"key":"08","name":"Baden-Württemberg"}},{"name":"Lützelbachtalweg","postalCode":"73262","locality":"Reichenbach an der Fils","municipality":{"key":"08116058","name":"Reichenbach an der Fils","type":"Kreisangehörige_Gemeinde"},"district":{"key":"08116","name":"Esslingen","type":"Landkreis"},"federalState":{"key":"08","name":"Baden-Württemberg"}},{"name":"Marienstr.","postalCode":"73262","locality":"Reichenbach an der Fils","municipality":{"key":"08116058","name":"Reichenbach an der Fils","type":"Kreisangehörige_Gemeinde"},"district":{"key":"08116","name":"Esslingen","type":"Landkreis"},"federalState":{"key":"08","name":"Baden-Württemberg"}},{"name":"Moltkestr.","postalCode":"73262","locality":"Reichenbach an der Fils","municipality":{"key":"08116058","name":"Reichenbach an der Fils","type":"Kreisangehörige_Gemeinde"},"district":{"key":"08116","name":"Esslingen","type":"Landkreis"},"federalState":{"key":"08","name":"Baden-Württemberg"}},{"name":"Mühlstr.","postalCode":"73262","locality":"Reichenbach an der Fils","municipality":{"key":"08116058","name":"Reichenbach an der Fils","type":"Kreisangehörige_Gemeinde"},"district":{"key":"08116","name":"Esslingen","type":"Landkreis"},"federalState":{"key":"08","name":"Baden-Württemberg"}},{"name":"Neuffenstr.","postalCode":"73262","locality":"Reichenbach an der Fils","municipality":{"key":"08116058","name":"Reichenbach an der Fils","type":"Kreisangehörige_Gemeinde"},"district":{"key":"08116","name":"Esslingen","type":"Landkreis"},"federalState":{"key":"08","name":"Baden-Württemberg"}},{"name":"Neuwiesenstr.","postalCode":"73262","locality":"Reichenbach an der Fils","municipality":{"key":"08116058","name":"Reichenbach an der Fils","type":"Kreisangehörige_Gemeinde"},"district":{"key":"08116","name":"Esslingen","type":"Landkreis"},"federalState":{"key":"08","name":"Baden-Württemberg"}},{"name":"Obere Rinne","postalCode":"73262","locality":"Reichenbach an der Fils","municipality":{"key":"08116058","name":"Reichenbach an der Fils","type":"Kreisangehörige_Gemeinde"},"district":{"key":"08116","name":"Esslingen","type":"Landkreis"},"federalState":{"key":"08","name":"Baden-Württemberg"}},{"name":"Olgastr.","postalCode":"73262","locality":"Reichenbach an der Fils","municipality":{"key":"08116058","name":"Reichenbach an der Fils","type":"Kreisangehörige_Gemeinde"},"district":{"key":"08116","name":"Esslingen","type":"Landkreis"},"federalState":{"key":"08","name":"Baden-Württemberg"}},{"name":"Ostweg","postalCode":"73262","locality":"Reichenbach an der Fils","municipality":{"key":"08116058","name":"Reichenbach an der Fils","type":"Kreisangehörige_Gemeinde"},"district":{"key":"08116","name":"Esslingen","type":"Landkreis"},"federalState":{"key":"08","name":"Baden-Württemberg"}},{"name":"Paulinenstr.","postalCode":"73262","locality":"Reichenbach an der Fils","municipality":{"key":"08116058","name":"Reichenbach an der Fils","type":"Kreisangehörige_Gemeinde"},"district":{"key":"08116","name":"Esslingen","type":"Landkreis"},"federalState":{"key":"08","name":"Baden-Württemberg"}},{"name":"Quittenweg","postalCode":"73733","locality":"Esslingen am Neckar","municipality":{"key":"08116019","name":"Esslingen am Neckar, Stadt","type":"Große_Kreisstadt"},"district":{"key":"08116","name":"Esslingen","type":"Landkreis"},"federalState":{"key":"08","name":"Baden-Württemberg"}},{"name":"Rechbergstr.","postalCode":"73262","locality":"Reichenbach an der Fils","municipality":{"key":"08116058","name":"Reichenbach an der Fils","type":"Kreisangehörige_Gemeinde"},"district":{"key":"08116","name":"Esslingen","type":"Landkreis"},"federalState":{"key":"08","name":"Baden-Württemberg"}},{"name":"Reichenbachstr.","postalCode":"73262","locality":"Reichenbach an der Fils","municipality":{"key":"08116058","name":"Reichenbach an der Fils","type":"Kreisangehörige_Gemeinde"},"district":{"key":"08116","name":"Esslingen","type":"Landkreis"},"federalState":{"key":"08","name":"Baden-Württemberg"}},{"name":"Rinnenweg","postalCode":"73262","locality":"Reichenbach an der Fils","municipality":{"key":"08116058","name":"Reichenbach an der Fils","type":"Kreisangehörige_Gemeinde"},"district":{"key":"08116","name":"Esslingen","type":"Landkreis"},"federalState":{"key":"08","name":"Baden-Württemberg"}},{"name":"Rißhaldenweg","postalCode":"73262","locality":"Reichenbach an der Fils","municipality":{"key":"08116058","name":"Reichenbach an der Fils","type":"Kreisangehörige_Gemeinde"},"district":{"key":"08116","name":"Esslingen","type":"Landkreis"},"federalState":{"key":"08","name":"Baden-Württemberg"}},{"name":"Rißhaldeweg","postalCode":"73262","locality":"Reichenbach an der Fils","municipality":{"key":"08116058","name":"Reichenbach an der Fils","type":"Kreisangehörige_Gemeinde"},"district":{"key":"08116","name":"Esslingen","type":"Landkreis"},"federalState":{"key":"08","name":"Baden-Württemberg"}},{"name":"Römerweg","postalCode":"73262","locality":"Reichenbach an der Fils","municipality":{"key":"08116058","name":"Reichenbach an der Fils","type":"Kreisangehörige_Gemeinde"},"district":{"key":"08116","name":"Esslingen","type":"Landkreis"},"federalState":{"key":"08","name":"Baden-Württemberg"}},{"name":"Saint-Savine-Brücke","postalCode":"73262","locality":"Reichenbach an der Fils","municipality":{"key":"08116058","name":"Reichenbach an der Fils","type":"Kreisangehörige_Gemeinde"},"district":{"key":"08116","name":"Esslingen","type":"Landkreis"},"federalState":{"key":"08","name":"Baden-Württemberg"}},{"name":"Sandgrubenweg","postalCode":"73262","locality":"Reichenbach an der Fils","municipality":{"key":"08116058","name":"Reichenbach an der Fils","type":"Kreisangehörige_Gemeinde"},"district":{"key":"08116","name":"Esslingen","type":"Landkreis"},"federalState":{"key":"08","name":"Baden-Württemberg"}},{"name":"Saulachweg","postalCode":"73262","locality":"Reichenbach an der Fils","municipality":{"key":"08116058","name":"Reichenbach an der Fils","type":"Kreisangehörige_Gemeinde"},"district":{"key":"08116","name":"Esslingen","type":"Landkreis"},"federalState":{"key":"08","name":"Baden-Württemberg"}},{"name":"Schafhausweg","postalCode":"73262","locality":"Reichenbach an der Fils","municipality":{"key":"08116058","name":"Reichenbach an der Fils","type":"Kreisangehörige_Gemeinde"},"district":{"key":"08116","name":"Esslingen","type":"Landkreis"},"federalState":{"key":"08","name":"Baden-Württemberg"}},{"name":"Schillerstr.","postalCode":"73262","locality":"Reichenbach an der Fils","municipality":{"key":"08116058","name":"Reichenbach an der Fils","type":"Kreisangehörige_Gemeinde"},"district":{"key":"08116","name":"Esslingen","type":"Landkreis"},"federalState":{"key":"08","name":"Baden-Württemberg"}},{"name":"Schorndorfer Str.","postalCode":"73262","locality":"Reichenbach an der Fils","municipality":{"key":"08116058","name":"Reichenbach an der Fils","type":"Kreisangehörige_Gemeinde"},"district":{"key":"08116","name":"Esslingen","type":"Landkreis"},"federalState":{"key":"08","name":"Baden-Württemberg"}},{"name":"Schulstr.","postalCode":"73262","locality":"Reichenbach an der Fils","municipality":{"key":"08116058","name":"Reichenbach an der Fils","type":"Kreisangehörige_Gemeinde"},"district":{"key":"08116","name":"Esslingen","type":"Landkreis"},"federalState":{"key":"08","name":"Baden-Württemberg"}},{"name":"Seestr.","postalCode":"73262","locality":"Reichenbach an der Fils","municipality":{"key":"08116058","name":"Reichenbach an der Fils","type":"Kreisangehörige_Gemeinde"},"district":{"key":"08116","name":"Esslingen","type":"Landkreis"},"federalState":{"key":"08","name":"Baden-Württemberg"}},{"name":"Seidenstr.","postalCode":"73262","locality":"Reichenbach an der Fils","municipality":{"key":"08116058","name":"Reichenbach an der Fils","type":"Kreisangehörige_Gemeinde"},"district":{"key":"08116","name":"Esslingen","type":"Landkreis"},"federalState":{"key":"08","name":"Baden-Württemberg"}},{"name":"Siegenbergplatz","postalCode":"73262","locality":"Reichenbach an der Fils","municipality":{"key":"08116058","name":"Reichenbach an der Fils","type":"Kreisangehörige_Gemeinde"},"district":{"key":"08116","name":"Esslingen","type":"Landkreis"},"federalState":{"key":"08","name":"Baden-Württemberg"}},{"name":"Siegenbergstr.","postalCode":"73262","locality":"Reichenbach an der Fils","municipality":{"key":"08116058","name":"Reichenbach an der Fils","type":"Kreisangehörige_Gemeinde"},"district":{"key":"08116","name":"Esslingen","type":"Landkreis"},"federalState":{"key":"08","name":"Baden-Württemberg"}},{"name":"Siegenhof","postalCode":"73262","locality":"Reichenbach an der Fils","municipality":{"key":"08116058","name":"Reichenbach an der Fils","type":"Kreisangehörige_Gemeinde"},"district":{"key":"08116","name":"Esslingen","type":"Landkreis"},"federalState":{"key":"08","name":"Baden-Württemberg"}},{"name":"Silcherstr.","postalCode":"73262","locality":"Reichenbach an der Fils","municipality":{"key":"08116058","name":"Reichenbach an der Fils","type":"Kreisangehörige_Gemeinde"},"district":{"key":"08116","name":"Esslingen","type":"Landkreis"},"federalState":{"key":"08","name":"Baden-Württemberg"}},{"name":"Steinäckerstr.","postalCode":"73262","locality":"Reichenbach an der Fils","municipality":{"key":"08116058","name":"Reichenbach an der Fils","type":"Kreisangehörige_Gemeinde"},"district":{"key":"08116","name":"Esslingen","type":"Landkreis"},"federalState":{"key":"08","name":"Baden-Württemberg"}},{"name":"Stuifenstr.","postalCode":"73262","locality":"Reichenbach an der Fils","municipality":{"key":"08116058","name":"Reichenbach an der Fils","type":"Kreisangehörige_Gemeinde"},"district":{"key":"08116","name":"Esslingen","type":"Landkreis"},"federalState":{"key":"08","name":"Baden-Württemberg"}},{"name":"Stuttgarter Str.","postalCode":"73262","locality":"Reichenbach an der Fils","municipality":{"key":"08116058","name":"Reichenbach an der Fils","type":"Kreisangehörige_Gemeinde"},"district":{"key":"08116","name":"Esslingen","type":"Landkreis"},"federalState":{"key":"08","name":"Baden-Württemberg"}},{"name":"Talweg","postalCode":"73262","locality":"Reichenbach an der Fils","municipality":{"key":"08116058","name":"Reichenbach an der Fils","type":"Kreisangehörige_Gemeinde"},"district":{"key":"08116","name":"Esslingen","type":"Landkreis"},"federalState":{"key":"08","name":"Baden-Württemberg"}},{"name":"Teckstr.","postalCode":"73262","locality":"Reichenbach an der Fils","municipality":{"key":"08116058","name":"Reichenbach an der Fils","type":"Kreisangehörige_Gemeinde"},"district":{"key":"08116","name":"Esslingen","type":"Landkreis"},"federalState":{"key":"08","name":"Baden-Württemberg"}},{"name":"Tulpenweg","postalCode":"73262","locality":"Reichenbach an der Fils","municipality":{"key":"08116058","name":"Reichenbach an der Fils","type":"Kreisangehörige_Gemeinde"},"district":{"key":"08116","name":"Esslingen","type":"Landkreis"},"federalState":{"key":"08","name":"Baden-Württemberg"}},{"name":"Uhlandstr.","postalCode":"73262","locality":"Reichenbach an der Fils","municipality":{"key":"08116058","name":"Reichenbach an der Fils","type":"Kreisangehörige_Gemeinde"},"district":{"key":"08116","name":"Esslingen","type":"Landkreis"},"federalState":{"key":"08","name":"Baden-Württemberg"}},{"name":"Ulmer Str.","postalCode":"73262","locality":"Reichenbach an der Fils","municipality":{"key":"08116058","name":"Reichenbach an der Fils","type":"Kreisangehörige_Gemeinde"},"district":{"key":"08116","name":"Esslingen","type":"Landkreis"},"federalState":{"key":"08","name":"Baden-Württemberg"}},{"name":"Veilchenweg","postalCode":"73730","locality":"Esslingen am Neckar","municipality":{"key":"08116019","name":"Esslingen am Neckar, Stadt","type":"Große_Kreisstadt"},"district":{"key":"08116","name":"Esslingen","type":"Landkreis"},"federalState":{"key":"08","name":"Baden-Württemberg"}},{"name":"Viehgasse","postalCode":"73733","locality":"Esslingen am Neckar","municipality":{"key":"08116019","name":"Esslingen am Neckar, Stadt","type":"Große_Kreisstadt"},"district":{"key":"08116","name":"Esslingen","type":"Landkreis"},"federalState":{"key":"08","name":"Baden-Württemberg"}},{"name":"Vogelsangbrücke","postalCode":"73728","locality":"Esslingen am Neckar","municipality":{"key":"08116019","name":"Esslingen am Neckar, Stadt","type":"Große_Kreisstadt"},"district":{"key":"08116","name":"Esslingen","type":"Landkreis"},"federalState":{"key":"08","name":"Baden-Württemberg"}},{"name":"Vogelsangbrücke","postalCode":"73734","locality":"Esslingen am Neckar","municipality":{"key":"08116019","name":"Esslingen am Neckar, Stadt","type":"Große_Kreisstadt"},"district":{"key":"08116","name":"Esslingen","type":"Landkreis"},"federalState":{"key":"08","name":"Baden-Württemberg"}},{"name":"Vogelsangstr.","postalCode":"73728","locality":"Esslingen am Neckar","municipality":{"key":"08116019","name":"Esslingen am Neckar, Stadt","type":"Große_Kreisstadt"},"district":{"key":"08116","name":"Esslingen","type":"Landkreis"},"federalState":{"key":"08","name":"Baden-Württemberg"}},{"name":"Volker-Boehringer-Weg","postalCode":"73732","locality":"Esslingen am Neckar","municipality":{"key":"08116019","name":"Esslingen am Neckar, Stadt","type":"Große_Kreisstadt"},"district":{"key":"08116","name":"Esslingen","type":"Landkreis"},"federalState":{"key":"08","name":"Baden-Württemberg"}},{"name":"Wagnerstr.","postalCode":"73262","locality":"Reichenbach an der Fils","municipality":{"key":"08116058","name":"Reichenbach an der Fils","type":"Kreisangehörige_Gemeinde"},"district":{"key":"08116","name":"Esslingen","type":"Landkreis"},"federalState":{"key":"08","name":"Baden-Württemberg"}},{"name":"Wagnerwiese","postalCode":"73262","locality":"Reichenbach an der Fils","municipality":{"key":"08116058","name":"Reichenbach an der Fils","type":"Kreisangehörige_Gemeinde"},"district":{"key":"08116","name":"Esslingen","type":"Landkreis"},"federalState":{"key":"08","name":"Baden-Württemberg"}},{"name":"Weberstr.","postalCode":"73262","locality":"Reichenbach an der Fils","municipality":{"key":"08116058","name":"Reichenbach an der Fils","type":"Kreisangehörige_Gemeinde"},"district":{"key":"08116","name":"Esslingen","type":"Landkreis"},"federalState":{"key":"08","name":"Baden-Württemberg"}},{"name":"Weinbergstr.","postalCode":"73262","locality":"Reichenbach an der Fils","municipality":{"key":"08116058","name":"Reichenbach an der Fils","type":"Kreisangehörige_Gemeinde"},"district":{"key":"08116","name":"Esslingen","type":"Landkreis"},"federalState":{"key":"08","name":"Baden-Württemberg"}},{"name":"Wilhelmspark","postalCode":"73262","locality":"Reichenbach an der Fils","municipality":{"key":"08116058","name":"Reichenbach an der Fils","type":"Kreisangehörige_Gemeinde"},"district":{"key":"08116","name":"Esslingen","type":"Landkreis"},"federalState":{"key":"08","name":"Baden-Württemberg"}},{"name":"Wilhelmstr.","postalCode":"73262","locality":"Reichenbach an der Fils","municipality":{"key":"08116058","name":"Reichenbach an der Fils","type":"Kreisangehörige_Gemeinde"},"district":{"key":"08116","name":"Esslingen","type":"Landkreis"},"federalState":{"key":"08","name":"Baden-Württemberg"}},{"name":"Zeppelinstr.","postalCode":"73262","locality":"Reichenbach an der Fils","municipality":{"key":"08116058","name":"Reichenbach an der Fils","type":"Kreisangehörige_Gemeinde"},"district":{"key":"08116","name":"Esslingen","type":"Landkreis"},"federalState":{"key":"08","name":"Baden-Württemberg"}},{"name":"Ziegelstr.","postalCode":"73262","locality":"Reichenbach an der Fils","municipality":{"key":"08116058","name":"Reichenbach an der Fils","type":"Kreisangehörige_Gemeinde"},"district":{"key":"08116","name":"Esslingen","type":"Landkreis"},"federalState":{"key":"08","name":"Baden-Württemberg"}},]