[{"name":"4x4 Modul","postalCode":"78194","locality":"Immendingen","municipality":{"key":"08327025","name":"Immendingen","type":"Kreisangehörige_Gemeinde"},"district":{"key":"08327","name":"Tuttlingen","type":"Landkreis"},"federalState":{"key":"08","name":"Baden-Württemberg"}},{"name":"Adamsgasse","postalCode":"78194","locality":"Immendingen","municipality":{"key":"08327025","name":"Immendingen","type":"Kreisangehörige_Gemeinde"},"district":{"key":"08327","name":"Tuttlingen","type":"Landkreis"},"federalState":{"key":"08","name":"Baden-Württemberg"}},{"name":"Ahornweg","postalCode":"78194","locality":"Immendingen","municipality":{"key":"08327025","name":"Immendingen","type":"Kreisangehörige_Gemeinde"},"district":{"key":"08327","name":"Tuttlingen","type":"Landkreis"},"federalState":{"key":"08","name":"Baden-Württemberg"}},{"name":"Alemannenweg","postalCode":"78194","locality":"Immendingen","municipality":{"key":"08327025","name":"Immendingen","type":"Kreisangehörige_Gemeinde"},"district":{"key":"08327","name":"Tuttlingen","type":"Landkreis"},"federalState":{"key":"08","name":"Baden-Württemberg"}},{"name":"Allmenweg","postalCode":"78194","locality":"Immendingen","municipality":{"key":"08327025","name":"Immendingen","type":"Kreisangehörige_Gemeinde"},"district":{"key":"08327","name":"Tuttlingen","type":"Landkreis"},"federalState":{"key":"08","name":"Baden-Württemberg"}},{"name":"Alpenstr.","postalCode":"78194","locality":"Immendingen","municipality":{"key":"08327025","name":"Immendingen","type":"Kreisangehörige_Gemeinde"},"district":{"key":"08327","name":"Tuttlingen","type":"Landkreis"},"federalState":{"key":"08","name":"Baden-Württemberg"}},{"name":"Alte Mauenheimer Str.","postalCode":"78194","locality":"Immendingen","municipality":{"key":"08327025","name":"Immendingen","type":"Kreisangehörige_Gemeinde"},"district":{"key":"08327","name":"Tuttlingen","type":"Landkreis"},"federalState":{"key":"08","name":"Baden-Württemberg"}},{"name":"Altwasserweg","postalCode":"78194","locality":"Immendingen","municipality":{"key":"08327025","name":"Immendingen","type":"Kreisangehörige_Gemeinde"},"district":{"key":"08327","name":"Tuttlingen","type":"Landkreis"},"federalState":{"key":"08","name":"Baden-Württemberg"}},{"name":"Am Bogen","postalCode":"78194","locality":"Immendingen","municipality":{"key":"08327025","name":"Immendingen","type":"Kreisangehörige_Gemeinde"},"district":{"key":"08327","name":"Tuttlingen","type":"Landkreis"},"federalState":{"key":"08","name":"Baden-Württemberg"}},{"name":"Am Dietrain","postalCode":"78194","locality":"Immendingen","municipality":{"key":"08327025","name":"Immendingen","type":"Kreisangehörige_Gemeinde"},"district":{"key":"08327","name":"Tuttlingen","type":"Landkreis"},"federalState":{"key":"08","name":"Baden-Württemberg"}},{"name":"Am Freizeitzentrum","postalCode":"78194","locality":"Immendingen","municipality":{"key":"08327025","name":"Immendingen","type":"Kreisangehörige_Gemeinde"},"district":{"key":"08327","name":"Tuttlingen","type":"Landkreis"},"federalState":{"key":"08","name":"Baden-Württemberg"}},{"name":"Am Hang","postalCode":"78194","locality":"Immendingen","municipality":{"key":"08327025","name":"Immendingen","type":"Kreisangehörige_Gemeinde"},"district":{"key":"08327","name":"Tuttlingen","type":"Landkreis"},"federalState":{"key":"08","name":"Baden-Württemberg"}},{"name":"Am Hattinger Weg","postalCode":"78194","locality":"Immendingen","municipality":{"key":"08327025","name":"Immendingen","type":"Kreisangehörige_Gemeinde"},"district":{"key":"08327","name":"Tuttlingen","type":"Landkreis"},"federalState":{"key":"08","name":"Baden-Württemberg"}},{"name":"Am Hewenegg","postalCode":"78194","locality":"Immendingen","municipality":{"key":"08327025","name":"Immendingen","type":"Kreisangehörige_Gemeinde"},"district":{"key":"08327","name":"Tuttlingen","type":"Landkreis"},"federalState":{"key":"08","name":"Baden-Württemberg"}},{"name":"Am Hotzenbohl","postalCode":"78194","locality":"Immendingen","municipality":{"key":"08327025","name":"Immendingen","type":"Kreisangehörige_Gemeinde"},"district":{"key":"08327","name":"Tuttlingen","type":"Landkreis"},"federalState":{"key":"08","name":"Baden-Württemberg"}},{"name":"Am Mettenberg","postalCode":"78194","locality":"Immendingen","municipality":{"key":"08327025","name":"Immendingen","type":"Kreisangehörige_Gemeinde"},"district":{"key":"08327","name":"Tuttlingen","type":"Landkreis"},"federalState":{"key":"08","name":"Baden-Württemberg"}},{"name":"Amselweg","postalCode":"78194","locality":"Immendingen","municipality":{"key":"08327025","name":"Immendingen","type":"Kreisangehörige_Gemeinde"},"district":{"key":"08327","name":"Tuttlingen","type":"Landkreis"},"federalState":{"key":"08","name":"Baden-Württemberg"}},{"name":"Am Spritzenhaus","postalCode":"78194","locality":"Immendingen","municipality":{"key":"08327025","name":"Immendingen","type":"Kreisangehörige_Gemeinde"},"district":{"key":"08327","name":"Tuttlingen","type":"Landkreis"},"federalState":{"key":"08","name":"Baden-Württemberg"}},{"name":"Amtenhausener Str.","postalCode":"78194","locality":"Immendingen","municipality":{"key":"08327025","name":"Immendingen","type":"Kreisangehörige_Gemeinde"},"district":{"key":"08327","name":"Tuttlingen","type":"Landkreis"},"federalState":{"key":"08","name":"Baden-Württemberg"}},{"name":"An der Steig","postalCode":"78194","locality":"Immendingen","municipality":{"key":"08327025","name":"Immendingen","type":"Kreisangehörige_Gemeinde"},"district":{"key":"08327","name":"Tuttlingen","type":"Landkreis"},"federalState":{"key":"08","name":"Baden-Württemberg"}},{"name":"Bachzimmerer Ösch","postalCode":"78194","locality":"Immendingen","municipality":{"key":"08327025","name":"Immendingen","type":"Kreisangehörige_Gemeinde"},"district":{"key":"08327","name":"Tuttlingen","type":"Landkreis"},"federalState":{"key":"08","name":"Baden-Württemberg"}},{"name":"Bachzimmerer Str.","postalCode":"78194","locality":"Immendingen","municipality":{"key":"08327025","name":"Immendingen","type":"Kreisangehörige_Gemeinde"},"district":{"key":"08327","name":"Tuttlingen","type":"Landkreis"},"federalState":{"key":"08","name":"Baden-Württemberg"}},{"name":"Bachzimmern","postalCode":"78194","locality":"Immendingen","municipality":{"key":"08327025","name":"Immendingen","type":"Kreisangehörige_Gemeinde"},"district":{"key":"08327","name":"Tuttlingen","type":"Landkreis"},"federalState":{"key":"08","name":"Baden-Württemberg"}},{"name":"Bahnhofstr.","postalCode":"78194","locality":"Immendingen","municipality":{"key":"08327025","name":"Immendingen","type":"Kreisangehörige_Gemeinde"},"district":{"key":"08327","name":"Tuttlingen","type":"Landkreis"},"federalState":{"key":"08","name":"Baden-Württemberg"}},{"name":"Beethovenstr.","postalCode":"78194","locality":"Immendingen","municipality":{"key":"08327025","name":"Immendingen","type":"Kreisangehörige_Gemeinde"},"district":{"key":"08327","name":"Tuttlingen","type":"Landkreis"},"federalState":{"key":"08","name":"Baden-Württemberg"}},{"name":"Bergstr.","postalCode":"78194","locality":"Immendingen","municipality":{"key":"08327025","name":"Immendingen","type":"Kreisangehörige_Gemeinde"},"district":{"key":"08327","name":"Tuttlingen","type":"Landkreis"},"federalState":{"key":"08","name":"Baden-Württemberg"}},{"name":"Birkenstr.","postalCode":"78194","locality":"Immendingen","municipality":{"key":"08327025","name":"Immendingen","type":"Kreisangehörige_Gemeinde"},"district":{"key":"08327","name":"Tuttlingen","type":"Landkreis"},"federalState":{"key":"08","name":"Baden-Württemberg"}},{"name":"Bismarckstr.","postalCode":"78194","locality":"Immendingen","municipality":{"key":"08327025","name":"Immendingen","type":"Kreisangehörige_Gemeinde"},"district":{"key":"08327","name":"Tuttlingen","type":"Landkreis"},"federalState":{"key":"08","name":"Baden-Württemberg"}},{"name":"Blumenstr.","postalCode":"78194","locality":"Immendingen","municipality":{"key":"08327025","name":"Immendingen","type":"Kreisangehörige_Gemeinde"},"district":{"key":"08327","name":"Tuttlingen","type":"Landkreis"},"federalState":{"key":"08","name":"Baden-Württemberg"}},{"name":"Blumenweg","postalCode":"78194","locality":"Immendingen","municipality":{"key":"08327025","name":"Immendingen","type":"Kreisangehörige_Gemeinde"},"district":{"key":"08327","name":"Tuttlingen","type":"Landkreis"},"federalState":{"key":"08","name":"Baden-Württemberg"}},{"name":"Breitestr.","postalCode":"78194","locality":"Immendingen","municipality":{"key":"08327025","name":"Immendingen","type":"Kreisangehörige_Gemeinde"},"district":{"key":"08327","name":"Tuttlingen","type":"Landkreis"},"federalState":{"key":"08","name":"Baden-Württemberg"}},{"name":"Breslauer Str.","postalCode":"78194","locality":"Immendingen","municipality":{"key":"08327025","name":"Immendingen","type":"Kreisangehörige_Gemeinde"},"district":{"key":"08327","name":"Tuttlingen","type":"Landkreis"},"federalState":{"key":"08","name":"Baden-Württemberg"}},{"name":"Brucknerweg","postalCode":"78194","locality":"Immendingen","municipality":{"key":"08327025","name":"Immendingen","type":"Kreisangehörige_Gemeinde"},"district":{"key":"08327","name":"Tuttlingen","type":"Landkreis"},"federalState":{"key":"08","name":"Baden-Württemberg"}},{"name":"Brunnenstr.","postalCode":"78194","locality":"Immendingen","municipality":{"key":"08327025","name":"Immendingen","type":"Kreisangehörige_Gemeinde"},"district":{"key":"08327","name":"Tuttlingen","type":"Landkreis"},"federalState":{"key":"08","name":"Baden-Württemberg"}},{"name":"Büchenhofweg","postalCode":"78194","locality":"Immendingen","municipality":{"key":"08327025","name":"Immendingen","type":"Kreisangehörige_Gemeinde"},"district":{"key":"08327","name":"Tuttlingen","type":"Landkreis"},"federalState":{"key":"08","name":"Baden-Württemberg"}},{"name":"Buchenstr.","postalCode":"78194","locality":"Immendingen","municipality":{"key":"08327025","name":"Immendingen","type":"Kreisangehörige_Gemeinde"},"district":{"key":"08327","name":"Tuttlingen","type":"Landkreis"},"federalState":{"key":"08","name":"Baden-Württemberg"}},{"name":"Carl-Benz-Str.","postalCode":"78532","locality":"Tuttlingen","municipality":{"key":"08327050","name":"Tuttlingen, Stadt","type":"Große_Kreisstadt"},"district":{"key":"08327","name":"Tuttlingen","type":"Landkreis"},"federalState":{"key":"08","name":"Baden-Württemberg"}},{"name":"Carl-Zeiss-Str.","postalCode":"78532","locality":"Tuttlingen","municipality":{"key":"08327050","name":"Tuttlingen, Stadt","type":"Große_Kreisstadt"},"district":{"key":"08327","name":"Tuttlingen","type":"Landkreis"},"federalState":{"key":"08","name":"Baden-Württemberg"}},{"name":"Charlottenstr.","postalCode":"78532","locality":"Tuttlingen","municipality":{"key":"08327050","name":"Tuttlingen, Stadt","type":"Große_Kreisstadt"},"district":{"key":"08327","name":"Tuttlingen","type":"Landkreis"},"federalState":{"key":"08","name":"Baden-Württemberg"}},{"name":"Christian-Scheerer-Str.","postalCode":"78532","locality":"Tuttlingen","municipality":{"key":"08327050","name":"Tuttlingen, Stadt","type":"Große_Kreisstadt"},"district":{"key":"08327","name":"Tuttlingen","type":"Landkreis"},"federalState":{"key":"08","name":"Baden-Württemberg"}},{"name":"Christophstr.","postalCode":"78532","locality":"Tuttlingen","municipality":{"key":"08327050","name":"Tuttlingen, Stadt","type":"Große_Kreisstadt"},"district":{"key":"08327","name":"Tuttlingen","type":"Landkreis"},"federalState":{"key":"08","name":"Baden-Württemberg"}},{"name":"Danziger Str.","postalCode":"78194","locality":"Immendingen","municipality":{"key":"08327025","name":"Immendingen","type":"Kreisangehörige_Gemeinde"},"district":{"key":"08327","name":"Tuttlingen","type":"Landkreis"},"federalState":{"key":"08","name":"Baden-Württemberg"}},{"name":"Daxmietweg","postalCode":"78194","locality":"Immendingen","municipality":{"key":"08327025","name":"Immendingen","type":"Kreisangehörige_Gemeinde"},"district":{"key":"08327","name":"Tuttlingen","type":"Landkreis"},"federalState":{"key":"08","name":"Baden-Württemberg"}},{"name":"Dellenbergweg","postalCode":"78194","locality":"Immendingen","municipality":{"key":"08327025","name":"Immendingen","type":"Kreisangehörige_Gemeinde"},"district":{"key":"08327","name":"Tuttlingen","type":"Landkreis"},"federalState":{"key":"08","name":"Baden-Württemberg"}},{"name":"Dielstr.","postalCode":"78194","locality":"Immendingen","municipality":{"key":"08327025","name":"Immendingen","type":"Kreisangehörige_Gemeinde"},"district":{"key":"08327","name":"Tuttlingen","type":"Landkreis"},"federalState":{"key":"08","name":"Baden-Württemberg"}},{"name":"Donaubrücke","postalCode":"78194","locality":"Immendingen","municipality":{"key":"08327025","name":"Immendingen","type":"Kreisangehörige_Gemeinde"},"district":{"key":"08327","name":"Tuttlingen","type":"Landkreis"},"federalState":{"key":"08","name":"Baden-Württemberg"}},{"name":"Donauradweg","postalCode":"78194","locality":"Immendingen","municipality":{"key":"08327025","name":"Immendingen","type":"Kreisangehörige_Gemeinde"},"district":{"key":"08327","name":"Tuttlingen","type":"Landkreis"},"federalState":{"key":"08","name":"Baden-Württemberg"}},{"name":"Donaustr.","postalCode":"78194","locality":"Immendingen","municipality":{"key":"08327025","name":"Immendingen","type":"Kreisangehörige_Gemeinde"},"district":{"key":"08327","name":"Tuttlingen","type":"Landkreis"},"federalState":{"key":"08","name":"Baden-Württemberg"}},{"name":"Dorfstr.","postalCode":"78194","locality":"Immendingen","municipality":{"key":"08327025","name":"Immendingen","type":"Kreisangehörige_Gemeinde"},"district":{"key":"08327","name":"Tuttlingen","type":"Landkreis"},"federalState":{"key":"08","name":"Baden-Württemberg"}},{"name":"Eckgasse","postalCode":"78194","locality":"Immendingen","municipality":{"key":"08327025","name":"Immendingen","type":"Kreisangehörige_Gemeinde"},"district":{"key":"08327","name":"Tuttlingen","type":"Landkreis"},"federalState":{"key":"08","name":"Baden-Württemberg"}},{"name":"Elmengrundweg","postalCode":"78194","locality":"Immendingen","municipality":{"key":"08327025","name":"Immendingen","type":"Kreisangehörige_Gemeinde"},"district":{"key":"08327","name":"Tuttlingen","type":"Landkreis"},"federalState":{"key":"08","name":"Baden-Württemberg"}},{"name":"Fabrikstr.","postalCode":"78194","locality":"Immendingen","municipality":{"key":"08327025","name":"Immendingen","type":"Kreisangehörige_Gemeinde"},"district":{"key":"08327","name":"Tuttlingen","type":"Landkreis"},"federalState":{"key":"08","name":"Baden-Württemberg"}},{"name":"Falkenstr.","postalCode":"78194","locality":"Immendingen","municipality":{"key":"08327025","name":"Immendingen","type":"Kreisangehörige_Gemeinde"},"district":{"key":"08327","name":"Tuttlingen","type":"Landkreis"},"federalState":{"key":"08","name":"Baden-Württemberg"}},{"name":"Feldelestr.","postalCode":"78194","locality":"Immendingen","municipality":{"key":"08327025","name":"Immendingen","type":"Kreisangehörige_Gemeinde"},"district":{"key":"08327","name":"Tuttlingen","type":"Landkreis"},"federalState":{"key":"08","name":"Baden-Württemberg"}},{"name":"Felsweg","postalCode":"78194","locality":"Immendingen","municipality":{"key":"08327025","name":"Immendingen","type":"Kreisangehörige_Gemeinde"},"district":{"key":"08327","name":"Tuttlingen","type":"Landkreis"},"federalState":{"key":"08","name":"Baden-Württemberg"}},{"name":"Fichtenweg","postalCode":"78194","locality":"Immendingen","municipality":{"key":"08327025","name":"Immendingen","type":"Kreisangehörige_Gemeinde"},"district":{"key":"08327","name":"Tuttlingen","type":"Landkreis"},"federalState":{"key":"08","name":"Baden-Württemberg"}},{"name":"Finkenstr.","postalCode":"78194","locality":"Immendingen","municipality":{"key":"08327025","name":"Immendingen","type":"Kreisangehörige_Gemeinde"},"district":{"key":"08327","name":"Tuttlingen","type":"Landkreis"},"federalState":{"key":"08","name":"Baden-Württemberg"}},{"name":"Föhrenweg","postalCode":"78194","locality":"Immendingen","municipality":{"key":"08327025","name":"Immendingen","type":"Kreisangehörige_Gemeinde"},"district":{"key":"08327","name":"Tuttlingen","type":"Landkreis"},"federalState":{"key":"08","name":"Baden-Württemberg"}},{"name":"Forstweg,Waldweg","postalCode":"78194","locality":"Immendingen","municipality":{"key":"08327025","name":"Immendingen","type":"Kreisangehörige_Gemeinde"},"district":{"key":"08327","name":"Tuttlingen","type":"Landkreis"},"federalState":{"key":"08","name":"Baden-Württemberg"}},{"name":"Friedhofstr.","postalCode":"78194","locality":"Immendingen","municipality":{"key":"08327025","name":"Immendingen","type":"Kreisangehörige_Gemeinde"},"district":{"key":"08327","name":"Tuttlingen","type":"Landkreis"},"federalState":{"key":"08","name":"Baden-Württemberg"}},{"name":"Gartenstr.","postalCode":"78194","locality":"Immendingen","municipality":{"key":"08327025","name":"Immendingen","type":"Kreisangehörige_Gemeinde"},"district":{"key":"08327","name":"Tuttlingen","type":"Landkreis"},"federalState":{"key":"08","name":"Baden-Württemberg"}},{"name":"Gauertstr.","postalCode":"78194","locality":"Immendingen","municipality":{"key":"08327025","name":"Immendingen","type":"Kreisangehörige_Gemeinde"},"district":{"key":"08327","name":"Tuttlingen","type":"Landkreis"},"federalState":{"key":"08","name":"Baden-Württemberg"}},{"name":"Güterbahnhofstr.","postalCode":"78194","locality":"Immendingen","municipality":{"key":"08327025","name":"Immendingen","type":"Kreisangehörige_Gemeinde"},"district":{"key":"08327","name":"Tuttlingen","type":"Landkreis"},"federalState":{"key":"08","name":"Baden-Württemberg"}},{"name":"Hakenäckerstr.","postalCode":"78194","locality":"Immendingen","municipality":{"key":"08327025","name":"Immendingen","type":"Kreisangehörige_Gemeinde"},"district":{"key":"08327","name":"Tuttlingen","type":"Landkreis"},"federalState":{"key":"08","name":"Baden-Württemberg"}},{"name":"Haldenackerweg","postalCode":"78194","locality":"Immendingen","municipality":{"key":"08327025","name":"Immendingen","type":"Kreisangehörige_Gemeinde"},"district":{"key":"08327","name":"Tuttlingen","type":"Landkreis"},"federalState":{"key":"08","name":"Baden-Württemberg"}},{"name":"Haldenstr.","postalCode":"78194","locality":"Immendingen","municipality":{"key":"08327025","name":"Immendingen","type":"Kreisangehörige_Gemeinde"},"district":{"key":"08327","name":"Tuttlingen","type":"Landkreis"},"federalState":{"key":"08","name":"Baden-Württemberg"}},{"name":"Hardstr.","postalCode":"78194","locality":"Immendingen","municipality":{"key":"08327025","name":"Immendingen","type":"Kreisangehörige_Gemeinde"},"district":{"key":"08327","name":"Tuttlingen","type":"Landkreis"},"federalState":{"key":"08","name":"Baden-Württemberg"}},{"name":"Hattinger Str.","postalCode":"78194","locality":"Immendingen","municipality":{"key":"08327025","name":"Immendingen","type":"Kreisangehörige_Gemeinde"},"district":{"key":"08327","name":"Tuttlingen","type":"Landkreis"},"federalState":{"key":"08","name":"Baden-Württemberg"}},{"name":"Haubergstr.","postalCode":"78194","locality":"Immendingen","municipality":{"key":"08327025","name":"Immendingen","type":"Kreisangehörige_Gemeinde"},"district":{"key":"08327","name":"Tuttlingen","type":"Landkreis"},"federalState":{"key":"08","name":"Baden-Württemberg"}},{"name":"Hauptstr.","postalCode":"78194","locality":"Immendingen","municipality":{"key":"08327025","name":"Immendingen","type":"Kreisangehörige_Gemeinde"},"district":{"key":"08327","name":"Tuttlingen","type":"Landkreis"},"federalState":{"key":"08","name":"Baden-Württemberg"}},{"name":"Hegaustr.","postalCode":"78194","locality":"Immendingen","municipality":{"key":"08327025","name":"Immendingen","type":"Kreisangehörige_Gemeinde"},"district":{"key":"08327","name":"Tuttlingen","type":"Landkreis"},"federalState":{"key":"08","name":"Baden-Württemberg"}},{"name":"Helmut-Mahler Weg","postalCode":"78194","locality":"Immendingen","municipality":{"key":"08327025","name":"Immendingen","type":"Kreisangehörige_Gemeinde"},"district":{"key":"08327","name":"Tuttlingen","type":"Landkreis"},"federalState":{"key":"08","name":"Baden-Württemberg"}},{"name":"Hewenstr.","postalCode":"78194","locality":"Immendingen","municipality":{"key":"08327025","name":"Immendingen","type":"Kreisangehörige_Gemeinde"},"district":{"key":"08327","name":"Tuttlingen","type":"Landkreis"},"federalState":{"key":"08","name":"Baden-Württemberg"}},{"name":"Himmelbergstr.","postalCode":"78194","locality":"Immendingen","municipality":{"key":"08327025","name":"Immendingen","type":"Kreisangehörige_Gemeinde"},"district":{"key":"08327","name":"Tuttlingen","type":"Landkreis"},"federalState":{"key":"08","name":"Baden-Württemberg"}},{"name":"Hindenburgstr.","postalCode":"78194","locality":"Immendingen","municipality":{"key":"08327025","name":"Immendingen","type":"Kreisangehörige_Gemeinde"},"district":{"key":"08327","name":"Tuttlingen","type":"Landkreis"},"federalState":{"key":"08","name":"Baden-Württemberg"}},{"name":"Hinterbirkenweg","postalCode":"78194","locality":"Immendingen","municipality":{"key":"08327025","name":"Immendingen","type":"Kreisangehörige_Gemeinde"},"district":{"key":"08327","name":"Tuttlingen","type":"Landkreis"},"federalState":{"key":"08","name":"Baden-Württemberg"}},{"name":"Hinterbuch","postalCode":"78194","locality":"Immendingen","municipality":{"key":"08327025","name":"Immendingen","type":"Kreisangehörige_Gemeinde"},"district":{"key":"08327","name":"Tuttlingen","type":"Landkreis"},"federalState":{"key":"08","name":"Baden-Württemberg"}},{"name":"Hinter-Kirchen","postalCode":"78194","locality":"Immendingen","municipality":{"key":"08327025","name":"Immendingen","type":"Kreisangehörige_Gemeinde"},"district":{"key":"08327","name":"Tuttlingen","type":"Landkreis"},"federalState":{"key":"08","name":"Baden-Württemberg"}},{"name":"Hofstatt","postalCode":"78194","locality":"Immendingen","municipality":{"key":"08327025","name":"Immendingen","type":"Kreisangehörige_Gemeinde"},"district":{"key":"08327","name":"Tuttlingen","type":"Landkreis"},"federalState":{"key":"08","name":"Baden-Württemberg"}},{"name":"Hohentwielstr.","postalCode":"78194","locality":"Immendingen","municipality":{"key":"08327025","name":"Immendingen","type":"Kreisangehörige_Gemeinde"},"district":{"key":"08327","name":"Tuttlingen","type":"Landkreis"},"federalState":{"key":"08","name":"Baden-Württemberg"}},{"name":"Hornensteigstr.","postalCode":"78194","locality":"Immendingen","municipality":{"key":"08327025","name":"Immendingen","type":"Kreisangehörige_Gemeinde"},"district":{"key":"08327","name":"Tuttlingen","type":"Landkreis"},"federalState":{"key":"08","name":"Baden-Württemberg"}},{"name":"Iltishalde","postalCode":"78194","locality":"Immendingen","municipality":{"key":"08327025","name":"Immendingen","type":"Kreisangehörige_Gemeinde"},"district":{"key":"08327","name":"Tuttlingen","type":"Landkreis"},"federalState":{"key":"08","name":"Baden-Württemberg"}},{"name":"Iltishaldenweg","postalCode":"78194","locality":"Immendingen","municipality":{"key":"08327025","name":"Immendingen","type":"Kreisangehörige_Gemeinde"},"district":{"key":"08327","name":"Tuttlingen","type":"Landkreis"},"federalState":{"key":"08","name":"Baden-Württemberg"}},{"name":"Im Brennofen","postalCode":"78194","locality":"Immendingen","municipality":{"key":"08327025","name":"Immendingen","type":"Kreisangehörige_Gemeinde"},"district":{"key":"08327","name":"Tuttlingen","type":"Landkreis"},"federalState":{"key":"08","name":"Baden-Württemberg"}},{"name":"Im Donaupark","postalCode":"78194","locality":"Immendingen","municipality":{"key":"08327025","name":"Immendingen","type":"Kreisangehörige_Gemeinde"},"district":{"key":"08327","name":"Tuttlingen","type":"Landkreis"},"federalState":{"key":"08","name":"Baden-Württemberg"}},{"name":"Im Gewerbepark","postalCode":"78194","locality":"Immendingen","municipality":{"key":"08327025","name":"Immendingen","type":"Kreisangehörige_Gemeinde"},"district":{"key":"08327","name":"Tuttlingen","type":"Landkreis"},"federalState":{"key":"08","name":"Baden-Württemberg"}},{"name":"Im Hocken","postalCode":"78194","locality":"Immendingen","municipality":{"key":"08327025","name":"Immendingen","type":"Kreisangehörige_Gemeinde"},"district":{"key":"08327","name":"Tuttlingen","type":"Landkreis"},"federalState":{"key":"08","name":"Baden-Württemberg"}},{"name":"Im Jokental","postalCode":"78194","locality":"Immendingen","municipality":{"key":"08327025","name":"Immendingen","type":"Kreisangehörige_Gemeinde"},"district":{"key":"08327","name":"Tuttlingen","type":"Landkreis"},"federalState":{"key":"08","name":"Baden-Württemberg"}},{"name":"Im Stockäcker","postalCode":"78194","locality":"Immendingen","municipality":{"key":"08327025","name":"Immendingen","type":"Kreisangehörige_Gemeinde"},"district":{"key":"08327","name":"Tuttlingen","type":"Landkreis"},"federalState":{"key":"08","name":"Baden-Württemberg"}},{"name":"Im Winkel","postalCode":"78194","locality":"Immendingen","municipality":{"key":"08327025","name":"Immendingen","type":"Kreisangehörige_Gemeinde"},"district":{"key":"08327","name":"Tuttlingen","type":"Landkreis"},"federalState":{"key":"08","name":"Baden-Württemberg"}},{"name":"Jahnstr.","postalCode":"78194","locality":"Immendingen","municipality":{"key":"08327025","name":"Immendingen","type":"Kreisangehörige_Gemeinde"},"district":{"key":"08327","name":"Tuttlingen","type":"Landkreis"},"federalState":{"key":"08","name":"Baden-Württemberg"}},{"name":"Johann-Peter-Hebel-Str.","postalCode":"78194","locality":"Immendingen","municipality":{"key":"08327025","name":"Immendingen","type":"Kreisangehörige_Gemeinde"},"district":{"key":"08327","name":"Tuttlingen","type":"Landkreis"},"federalState":{"key":"08","name":"Baden-Württemberg"}},{"name":"Josefstr.","postalCode":"78194","locality":"Immendingen","municipality":{"key":"08327025","name":"Immendingen","type":"Kreisangehörige_Gemeinde"},"district":{"key":"08327","name":"Tuttlingen","type":"Landkreis"},"federalState":{"key":"08","name":"Baden-Württemberg"}},{"name":"Joseph-Haydn-Weg","postalCode":"78194","locality":"Immendingen","municipality":{"key":"08327025","name":"Immendingen","type":"Kreisangehörige_Gemeinde"},"district":{"key":"08327","name":"Tuttlingen","type":"Landkreis"},"federalState":{"key":"08","name":"Baden-Württemberg"}},{"name":"Kastanienweg","postalCode":"78194","locality":"Immendingen","municipality":{"key":"08327025","name":"Immendingen","type":"Kreisangehörige_Gemeinde"},"district":{"key":"08327","name":"Tuttlingen","type":"Landkreis"},"federalState":{"key":"08","name":"Baden-Württemberg"}},{"name":"Katzensteigweg","postalCode":"78194","locality":"Immendingen","municipality":{"key":"08327025","name":"Immendingen","type":"Kreisangehörige_Gemeinde"},"district":{"key":"08327","name":"Tuttlingen","type":"Landkreis"},"federalState":{"key":"08","name":"Baden-Württemberg"}},{"name":"Kirchgasse","postalCode":"78194","locality":"Immendingen","municipality":{"key":"08327025","name":"Immendingen","type":"Kreisangehörige_Gemeinde"},"district":{"key":"08327","name":"Tuttlingen","type":"Landkreis"},"federalState":{"key":"08","name":"Baden-Württemberg"}},{"name":"Kirchstr.","postalCode":"78194","locality":"Immendingen","municipality":{"key":"08327025","name":"Immendingen","type":"Kreisangehörige_Gemeinde"},"district":{"key":"08327","name":"Tuttlingen","type":"Landkreis"},"federalState":{"key":"08","name":"Baden-Württemberg"}},{"name":"Kirchtalweg","postalCode":"78194","locality":"Immendingen","municipality":{"key":"08327025","name":"Immendingen","type":"Kreisangehörige_Gemeinde"},"district":{"key":"08327","name":"Tuttlingen","type":"Landkreis"},"federalState":{"key":"08","name":"Baden-Württemberg"}},{"name":"Klein-Öschle","postalCode":"78194","locality":"Immendingen","municipality":{"key":"08327025","name":"Immendingen","type":"Kreisangehörige_Gemeinde"},"district":{"key":"08327","name":"Tuttlingen","type":"Landkreis"},"federalState":{"key":"08","name":"Baden-Württemberg"}},{"name":"Kohlbergstr.","postalCode":"78194","locality":"Immendingen","municipality":{"key":"08327025","name":"Immendingen","type":"Kreisangehörige_Gemeinde"},"district":{"key":"08327","name":"Tuttlingen","type":"Landkreis"},"federalState":{"key":"08","name":"Baden-Württemberg"}},{"name":"Königsberger Str.","postalCode":"78194","locality":"Immendingen","municipality":{"key":"08327025","name":"Immendingen","type":"Kreisangehörige_Gemeinde"},"district":{"key":"08327","name":"Tuttlingen","type":"Landkreis"},"federalState":{"key":"08","name":"Baden-Württemberg"}},{"name":"Kreutzerweg","postalCode":"78194","locality":"Immendingen","municipality":{"key":"08327025","name":"Immendingen","type":"Kreisangehörige_Gemeinde"},"district":{"key":"08327","name":"Tuttlingen","type":"Landkreis"},"federalState":{"key":"08","name":"Baden-Württemberg"}},{"name":"Kreuzallee","postalCode":"78194","locality":"Immendingen","municipality":{"key":"08327025","name":"Immendingen","type":"Kreisangehörige_Gemeinde"},"district":{"key":"08327","name":"Tuttlingen","type":"Landkreis"},"federalState":{"key":"08","name":"Baden-Württemberg"}},{"name":"Ledergasse","postalCode":"78194","locality":"Immendingen","municipality":{"key":"08327025","name":"Immendingen","type":"Kreisangehörige_Gemeinde"},"district":{"key":"08327","name":"Tuttlingen","type":"Landkreis"},"federalState":{"key":"08","name":"Baden-Württemberg"}},{"name":"Leimenstr.","postalCode":"78194","locality":"Immendingen","municipality":{"key":"08327025","name":"Immendingen","type":"Kreisangehörige_Gemeinde"},"district":{"key":"08327","name":"Tuttlingen","type":"Landkreis"},"federalState":{"key":"08","name":"Baden-Württemberg"}},{"name":"Leitzenfeldstr.","postalCode":"78194","locality":"Immendingen","municipality":{"key":"08327025","name":"Immendingen","type":"Kreisangehörige_Gemeinde"},"district":{"key":"08327","name":"Tuttlingen","type":"Landkreis"},"federalState":{"key":"08","name":"Baden-Württemberg"}},{"name":"Lerchenackerweg","postalCode":"78194","locality":"Immendingen","municipality":{"key":"08327025","name":"Immendingen","type":"Kreisangehörige_Gemeinde"},"district":{"key":"08327","name":"Tuttlingen","type":"Landkreis"},"federalState":{"key":"08","name":"Baden-Württemberg"}},{"name":"Lindenbergstr.","postalCode":"78194","locality":"Immendingen","municipality":{"key":"08327025","name":"Immendingen","type":"Kreisangehörige_Gemeinde"},"district":{"key":"08327","name":"Tuttlingen","type":"Landkreis"},"federalState":{"key":"08","name":"Baden-Württemberg"}},{"name":"Mangerstr.","postalCode":"78194","locality":"Immendingen","municipality":{"key":"08327025","name":"Immendingen","type":"Kreisangehörige_Gemeinde"},"district":{"key":"08327","name":"Tuttlingen","type":"Landkreis"},"federalState":{"key":"08","name":"Baden-Württemberg"}},{"name":"Mauenheimer Str.","postalCode":"78194","locality":"Immendingen","municipality":{"key":"08327025","name":"Immendingen","type":"Kreisangehörige_Gemeinde"},"district":{"key":"08327","name":"Tuttlingen","type":"Landkreis"},"federalState":{"key":"08","name":"Baden-Württemberg"}},{"name":"Maurenstr.","postalCode":"78194","locality":"Immendingen","municipality":{"key":"08327025","name":"Immendingen","type":"Kreisangehörige_Gemeinde"},"district":{"key":"08327","name":"Tuttlingen","type":"Landkreis"},"federalState":{"key":"08","name":"Baden-Württemberg"}},{"name":"Max-Eyth-Str.","postalCode":"78194","locality":"Immendingen","municipality":{"key":"08327025","name":"Immendingen","type":"Kreisangehörige_Gemeinde"},"district":{"key":"08327","name":"Tuttlingen","type":"Landkreis"},"federalState":{"key":"08","name":"Baden-Württemberg"}},{"name":"Möhringer Täle","postalCode":"78194","locality":"Immendingen","municipality":{"key":"08327025","name":"Immendingen","type":"Kreisangehörige_Gemeinde"},"district":{"key":"08327","name":"Tuttlingen","type":"Landkreis"},"federalState":{"key":"08","name":"Baden-Württemberg"}},{"name":"Möhringer Weg","postalCode":"78194","locality":"Immendingen","municipality":{"key":"08327025","name":"Immendingen","type":"Kreisangehörige_Gemeinde"},"district":{"key":"08327","name":"Tuttlingen","type":"Landkreis"},"federalState":{"key":"08","name":"Baden-Württemberg"}},{"name":"Mörikeweg","postalCode":"78194","locality":"Immendingen","municipality":{"key":"08327025","name":"Immendingen","type":"Kreisangehörige_Gemeinde"},"district":{"key":"08327","name":"Tuttlingen","type":"Landkreis"},"federalState":{"key":"08","name":"Baden-Württemberg"}},{"name":"Mozartstr.","postalCode":"78194","locality":"Immendingen","municipality":{"key":"08327025","name":"Immendingen","type":"Kreisangehörige_Gemeinde"},"district":{"key":"08327","name":"Tuttlingen","type":"Landkreis"},"federalState":{"key":"08","name":"Baden-Württemberg"}},{"name":"Mühlenweg","postalCode":"78194","locality":"Immendingen","municipality":{"key":"08327025","name":"Immendingen","type":"Kreisangehörige_Gemeinde"},"district":{"key":"08327","name":"Tuttlingen","type":"Landkreis"},"federalState":{"key":"08","name":"Baden-Württemberg"}},{"name":"Mühlewies","postalCode":"78194","locality":"Immendingen","municipality":{"key":"08327025","name":"Immendingen","type":"Kreisangehörige_Gemeinde"},"district":{"key":"08327","name":"Tuttlingen","type":"Landkreis"},"federalState":{"key":"08","name":"Baden-Württemberg"}},{"name":"Mühlkapfweg","postalCode":"78194","locality":"Immendingen","municipality":{"key":"08327025","name":"Immendingen","type":"Kreisangehörige_Gemeinde"},"district":{"key":"08327","name":"Tuttlingen","type":"Landkreis"},"federalState":{"key":"08","name":"Baden-Württemberg"}},{"name":"Mühlstädtle","postalCode":"78194","locality":"Immendingen","municipality":{"key":"08327025","name":"Immendingen","type":"Kreisangehörige_Gemeinde"},"district":{"key":"08327","name":"Tuttlingen","type":"Landkreis"},"federalState":{"key":"08","name":"Baden-Württemberg"}},{"name":"Neuer Weg","postalCode":"78194","locality":"Immendingen","municipality":{"key":"08327025","name":"Immendingen","type":"Kreisangehörige_Gemeinde"},"district":{"key":"08327","name":"Tuttlingen","type":"Landkreis"},"federalState":{"key":"08","name":"Baden-Württemberg"}},{"name":"Oberdorfstr.","postalCode":"78194","locality":"Immendingen","municipality":{"key":"08327025","name":"Immendingen","type":"Kreisangehörige_Gemeinde"},"district":{"key":"08327","name":"Tuttlingen","type":"Landkreis"},"federalState":{"key":"08","name":"Baden-Württemberg"}},{"name":"Oberer Donauhaldenweg","postalCode":"78194","locality":"Immendingen","municipality":{"key":"08327025","name":"Immendingen","type":"Kreisangehörige_Gemeinde"},"district":{"key":"08327","name":"Tuttlingen","type":"Landkreis"},"federalState":{"key":"08","name":"Baden-Württemberg"}},{"name":"Oberriedstr.","postalCode":"78194","locality":"Immendingen","municipality":{"key":"08327025","name":"Immendingen","type":"Kreisangehörige_Gemeinde"},"district":{"key":"08327","name":"Tuttlingen","type":"Landkreis"},"federalState":{"key":"08","name":"Baden-Württemberg"}},{"name":"Offenbachweg","postalCode":"78194","locality":"Immendingen","municipality":{"key":"08327025","name":"Immendingen","type":"Kreisangehörige_Gemeinde"},"district":{"key":"08327","name":"Tuttlingen","type":"Landkreis"},"federalState":{"key":"08","name":"Baden-Württemberg"}},{"name":"Ortsstr.","postalCode":"78194","locality":"Immendingen","municipality":{"key":"08327025","name":"Immendingen","type":"Kreisangehörige_Gemeinde"},"district":{"key":"08327","name":"Tuttlingen","type":"Landkreis"},"federalState":{"key":"08","name":"Baden-Württemberg"}},{"name":"Osterbergweg","postalCode":"78194","locality":"Immendingen","municipality":{"key":"08327025","name":"Immendingen","type":"Kreisangehörige_Gemeinde"},"district":{"key":"08327","name":"Tuttlingen","type":"Landkreis"},"federalState":{"key":"08","name":"Baden-Württemberg"}},{"name":"Panoramastr.","postalCode":"78194","locality":"Immendingen","municipality":{"key":"08327025","name":"Immendingen","type":"Kreisangehörige_Gemeinde"},"district":{"key":"08327","name":"Tuttlingen","type":"Landkreis"},"federalState":{"key":"08","name":"Baden-Württemberg"}},{"name":"Pfaffenwinkelweg","postalCode":"78194","locality":"Immendingen","municipality":{"key":"08327025","name":"Immendingen","type":"Kreisangehörige_Gemeinde"},"district":{"key":"08327","name":"Tuttlingen","type":"Landkreis"},"federalState":{"key":"08","name":"Baden-Württemberg"}},{"name":"Postweg","postalCode":"78194","locality":"Immendingen","municipality":{"key":"08327025","name":"Immendingen","type":"Kreisangehörige_Gemeinde"},"district":{"key":"08327","name":"Tuttlingen","type":"Landkreis"},"federalState":{"key":"08","name":"Baden-Württemberg"}},{"name":"Potaschenkopfweg","postalCode":"78194","locality":"Immendingen","municipality":{"key":"08327025","name":"Immendingen","type":"Kreisangehörige_Gemeinde"},"district":{"key":"08327","name":"Tuttlingen","type":"Landkreis"},"federalState":{"key":"08","name":"Baden-Württemberg"}},{"name":"Querstr.","postalCode":"78532","locality":"Tuttlingen","municipality":{"key":"08327050","name":"Tuttlingen, Stadt","type":"Große_Kreisstadt"},"district":{"key":"08327","name":"Tuttlingen","type":"Landkreis"},"federalState":{"key":"08","name":"Baden-Württemberg"}},{"name":"Rathausstr.","postalCode":"78194","locality":"Immendingen","municipality":{"key":"08327025","name":"Immendingen","type":"Kreisangehörige_Gemeinde"},"district":{"key":"08327","name":"Tuttlingen","type":"Landkreis"},"federalState":{"key":"08","name":"Baden-Württemberg"}},{"name":"Rehhagweg","postalCode":"78194","locality":"Immendingen","municipality":{"key":"08327025","name":"Immendingen","type":"Kreisangehörige_Gemeinde"},"district":{"key":"08327","name":"Tuttlingen","type":"Landkreis"},"federalState":{"key":"08","name":"Baden-Württemberg"}},{"name":"Rehhofstr.","postalCode":"78194","locality":"Immendingen","municipality":{"key":"08327025","name":"Immendingen","type":"Kreisangehörige_Gemeinde"},"district":{"key":"08327","name":"Tuttlingen","type":"Landkreis"},"federalState":{"key":"08","name":"Baden-Württemberg"}},{"name":"Renzenweg","postalCode":"78194","locality":"Immendingen","municipality":{"key":"08327025","name":"Immendingen","type":"Kreisangehörige_Gemeinde"},"district":{"key":"08327","name":"Tuttlingen","type":"Landkreis"},"federalState":{"key":"08","name":"Baden-Württemberg"}},{"name":"Richard-Wagner-Weg","postalCode":"78194","locality":"Immendingen","municipality":{"key":"08327025","name":"Immendingen","type":"Kreisangehörige_Gemeinde"},"district":{"key":"08327","name":"Tuttlingen","type":"Landkreis"},"federalState":{"key":"08","name":"Baden-Württemberg"}},{"name":"Rundweg","postalCode":"78194","locality":"Immendingen","municipality":{"key":"08327025","name":"Immendingen","type":"Kreisangehörige_Gemeinde"},"district":{"key":"08327","name":"Tuttlingen","type":"Landkreis"},"federalState":{"key":"08","name":"Baden-Württemberg"}},{"name":"Säntisstr.","postalCode":"78194","locality":"Immendingen","municipality":{"key":"08327025","name":"Immendingen","type":"Kreisangehörige_Gemeinde"},"district":{"key":"08327","name":"Tuttlingen","type":"Landkreis"},"federalState":{"key":"08","name":"Baden-Württemberg"}},{"name":"Scheffelstr.","postalCode":"78194","locality":"Immendingen","municipality":{"key":"08327025","name":"Immendingen","type":"Kreisangehörige_Gemeinde"},"district":{"key":"08327","name":"Tuttlingen","type":"Landkreis"},"federalState":{"key":"08","name":"Baden-Württemberg"}},{"name":"Schlachthausstr.","postalCode":"78194","locality":"Immendingen","municipality":{"key":"08327025","name":"Immendingen","type":"Kreisangehörige_Gemeinde"},"district":{"key":"08327","name":"Tuttlingen","type":"Landkreis"},"federalState":{"key":"08","name":"Baden-Württemberg"}},{"name":"Schlappengasse","postalCode":"78194","locality":"Immendingen","municipality":{"key":"08327025","name":"Immendingen","type":"Kreisangehörige_Gemeinde"},"district":{"key":"08327","name":"Tuttlingen","type":"Landkreis"},"federalState":{"key":"08","name":"Baden-Württemberg"}},{"name":"Schlechtwegring","postalCode":"78194","locality":"Immendingen","municipality":{"key":"08327025","name":"Immendingen","type":"Kreisangehörige_Gemeinde"},"district":{"key":"08327","name":"Tuttlingen","type":"Landkreis"},"federalState":{"key":"08","name":"Baden-Württemberg"}},{"name":"Schlechtwegverschmutzungsstrecke","postalCode":"78194","locality":"Immendingen","municipality":{"key":"08327025","name":"Immendingen","type":"Kreisangehörige_Gemeinde"},"district":{"key":"08327","name":"Tuttlingen","type":"Landkreis"},"federalState":{"key":"08","name":"Baden-Württemberg"}},{"name":"Schloßplatz","postalCode":"78194","locality":"Immendingen","municipality":{"key":"08327025","name":"Immendingen","type":"Kreisangehörige_Gemeinde"},"district":{"key":"08327","name":"Tuttlingen","type":"Landkreis"},"federalState":{"key":"08","name":"Baden-Württemberg"}},{"name":"Schmiedgasse","postalCode":"78194","locality":"Immendingen","municipality":{"key":"08327025","name":"Immendingen","type":"Kreisangehörige_Gemeinde"},"district":{"key":"08327","name":"Tuttlingen","type":"Landkreis"},"federalState":{"key":"08","name":"Baden-Württemberg"}},{"name":"Schöntalstr.","postalCode":"78194","locality":"Immendingen","municipality":{"key":"08327025","name":"Immendingen","type":"Kreisangehörige_Gemeinde"},"district":{"key":"08327","name":"Tuttlingen","type":"Landkreis"},"federalState":{"key":"08","name":"Baden-Württemberg"}},{"name":"Schreckensteinstr.","postalCode":"78194","locality":"Immendingen","municipality":{"key":"08327025","name":"Immendingen","type":"Kreisangehörige_Gemeinde"},"district":{"key":"08327","name":"Tuttlingen","type":"Landkreis"},"federalState":{"key":"08","name":"Baden-Württemberg"}},{"name":"Schubertstr.","postalCode":"78194","locality":"Immendingen","municipality":{"key":"08327025","name":"Immendingen","type":"Kreisangehörige_Gemeinde"},"district":{"key":"08327","name":"Tuttlingen","type":"Landkreis"},"federalState":{"key":"08","name":"Baden-Württemberg"}},{"name":"Schulstr.","postalCode":"78194","locality":"Immendingen","municipality":{"key":"08327025","name":"Immendingen","type":"Kreisangehörige_Gemeinde"},"district":{"key":"08327","name":"Tuttlingen","type":"Landkreis"},"federalState":{"key":"08","name":"Baden-Württemberg"}},{"name":"Schustergäßle","postalCode":"78194","locality":"Immendingen","municipality":{"key":"08327025","name":"Immendingen","type":"Kreisangehörige_Gemeinde"},"district":{"key":"08327","name":"Tuttlingen","type":"Landkreis"},"federalState":{"key":"08","name":"Baden-Württemberg"}},{"name":"Schwarzwaldstr.","postalCode":"78194","locality":"Immendingen","municipality":{"key":"08327025","name":"Immendingen","type":"Kreisangehörige_Gemeinde"},"district":{"key":"08327","name":"Tuttlingen","type":"Landkreis"},"federalState":{"key":"08","name":"Baden-Württemberg"}},{"name":"Stadtäcker","postalCode":"78194","locality":"Immendingen","municipality":{"key":"08327025","name":"Immendingen","type":"Kreisangehörige_Gemeinde"},"district":{"key":"08327","name":"Tuttlingen","type":"Landkreis"},"federalState":{"key":"08","name":"Baden-Württemberg"}},{"name":"Stadtdobelweg","postalCode":"78194","locality":"Immendingen","municipality":{"key":"08327025","name":"Immendingen","type":"Kreisangehörige_Gemeinde"},"district":{"key":"08327","name":"Tuttlingen","type":"Landkreis"},"federalState":{"key":"08","name":"Baden-Württemberg"}},{"name":"Steinäckerstr.","postalCode":"78194","locality":"Immendingen","municipality":{"key":"08327025","name":"Immendingen","type":"Kreisangehörige_Gemeinde"},"district":{"key":"08327","name":"Tuttlingen","type":"Landkreis"},"federalState":{"key":"08","name":"Baden-Württemberg"}},{"name":"Steinweg","postalCode":"78194","locality":"Immendingen","municipality":{"key":"08327025","name":"Immendingen","type":"Kreisangehörige_Gemeinde"},"district":{"key":"08327","name":"Tuttlingen","type":"Landkreis"},"federalState":{"key":"08","name":"Baden-Württemberg"}},{"name":"Stettiner Str.","postalCode":"78194","locality":"Immendingen","municipality":{"key":"08327025","name":"Immendingen","type":"Kreisangehörige_Gemeinde"},"district":{"key":"08327","name":"Tuttlingen","type":"Landkreis"},"federalState":{"key":"08","name":"Baden-Württemberg"}},{"name":"Stieg Str.","postalCode":"78194","locality":"Immendingen","municipality":{"key":"08327025","name":"Immendingen","type":"Kreisangehörige_Gemeinde"},"district":{"key":"08327","name":"Tuttlingen","type":"Landkreis"},"federalState":{"key":"08","name":"Baden-Württemberg"}},{"name":"Talbachstr.","postalCode":"78194","locality":"Immendingen","municipality":{"key":"08327025","name":"Immendingen","type":"Kreisangehörige_Gemeinde"},"district":{"key":"08327","name":"Tuttlingen","type":"Landkreis"},"federalState":{"key":"08","name":"Baden-Württemberg"}},{"name":"Tännlehau-Rundweg","postalCode":"78194","locality":"Immendingen","municipality":{"key":"08327025","name":"Immendingen","type":"Kreisangehörige_Gemeinde"},"district":{"key":"08327","name":"Tuttlingen","type":"Landkreis"},"federalState":{"key":"08","name":"Baden-Württemberg"}},{"name":"Tannweg","postalCode":"78194","locality":"Immendingen","municipality":{"key":"08327025","name":"Immendingen","type":"Kreisangehörige_Gemeinde"},"district":{"key":"08327","name":"Tuttlingen","type":"Landkreis"},"federalState":{"key":"08","name":"Baden-Württemberg"}},{"name":"Theodor-Heuss-Str.","postalCode":"78194","locality":"Immendingen","municipality":{"key":"08327025","name":"Immendingen","type":"Kreisangehörige_Gemeinde"},"district":{"key":"08327","name":"Tuttlingen","type":"Landkreis"},"federalState":{"key":"08","name":"Baden-Württemberg"}},{"name":"Uhlandstr.","postalCode":"78194","locality":"Immendingen","municipality":{"key":"08327025","name":"Immendingen","type":"Kreisangehörige_Gemeinde"},"district":{"key":"08327","name":"Tuttlingen","type":"Landkreis"},"federalState":{"key":"08","name":"Baden-Württemberg"}},{"name":"Unterer Hardweg","postalCode":"78194","locality":"Immendingen","municipality":{"key":"08327025","name":"Immendingen","type":"Kreisangehörige_Gemeinde"},"district":{"key":"08327","name":"Tuttlingen","type":"Landkreis"},"federalState":{"key":"08","name":"Baden-Württemberg"}},{"name":"Unterer Iltishaldenweg","postalCode":"78194","locality":"Immendingen","municipality":{"key":"08327025","name":"Immendingen","type":"Kreisangehörige_Gemeinde"},"district":{"key":"08327","name":"Tuttlingen","type":"Landkreis"},"federalState":{"key":"08","name":"Baden-Württemberg"}},{"name":"Vogelsangweg","postalCode":"78532","locality":"Tuttlingen","municipality":{"key":"08327050","name":"Tuttlingen, Stadt","type":"Große_Kreisstadt"},"district":{"key":"08327","name":"Tuttlingen","type":"Landkreis"},"federalState":{"key":"08","name":"Baden-Württemberg"}},{"name":"Vogt's Mistweg","postalCode":"78532","locality":"Tuttlingen","municipality":{"key":"08327050","name":"Tuttlingen, Stadt","type":"Große_Kreisstadt"},"district":{"key":"08327","name":"Tuttlingen","type":"Landkreis"},"federalState":{"key":"08","name":"Baden-Württemberg"}},{"name":"Wacholderweg","postalCode":"78194","locality":"Immendingen","municipality":{"key":"08327025","name":"Immendingen","type":"Kreisangehörige_Gemeinde"},"district":{"key":"08327","name":"Tuttlingen","type":"Landkreis"},"federalState":{"key":"08","name":"Baden-Württemberg"}},{"name":"Waldstr.","postalCode":"78194","locality":"Immendingen","municipality":{"key":"08327025","name":"Immendingen","type":"Kreisangehörige_Gemeinde"},"district":{"key":"08327","name":"Tuttlingen","type":"Landkreis"},"federalState":{"key":"08","name":"Baden-Württemberg"}},{"name":"Weisenbachweg","postalCode":"78194","locality":"Immendingen","municipality":{"key":"08327025","name":"Immendingen","type":"Kreisangehörige_Gemeinde"},"district":{"key":"08327","name":"Tuttlingen","type":"Landkreis"},"federalState":{"key":"08","name":"Baden-Württemberg"}},{"name":"Wiesenstr.","postalCode":"78194","locality":"Immendingen","municipality":{"key":"08327025","name":"Immendingen","type":"Kreisangehörige_Gemeinde"},"district":{"key":"08327","name":"Tuttlingen","type":"Landkreis"},"federalState":{"key":"08","name":"Baden-Württemberg"}},{"name":"Winkelweg","postalCode":"78194","locality":"Immendingen","municipality":{"key":"08327025","name":"Immendingen","type":"Kreisangehörige_Gemeinde"},"district":{"key":"08327","name":"Tuttlingen","type":"Landkreis"},"federalState":{"key":"08","name":"Baden-Württemberg"}},{"name":"Wittmenweg","postalCode":"78194","locality":"Immendingen","municipality":{"key":"08327025","name":"Immendingen","type":"Kreisangehörige_Gemeinde"},"district":{"key":"08327","name":"Tuttlingen","type":"Landkreis"},"federalState":{"key":"08","name":"Baden-Württemberg"}},{"name":"Zeppelinstr.","postalCode":"78194","locality":"Immendingen","municipality":{"key":"08327025","name":"Immendingen","type":"Kreisangehörige_Gemeinde"},"district":{"key":"08327","name":"Tuttlingen","type":"Landkreis"},"federalState":{"key":"08","name":"Baden-Württemberg"}},{"name":"Ziegelhütte","postalCode":"78194","locality":"Immendingen","municipality":{"key":"08327025","name":"Immendingen","type":"Kreisangehörige_Gemeinde"},"district":{"key":"08327","name":"Tuttlingen","type":"Landkreis"},"federalState":{"key":"08","name":"Baden-Württemberg"}},{"name":"Zielgasse","postalCode":"78194","locality":"Immendingen","municipality":{"key":"08327025","name":"Immendingen","type":"Kreisangehörige_Gemeinde"},"district":{"key":"08327","name":"Tuttlingen","type":"Landkreis"},"federalState":{"key":"08","name":"Baden-Württemberg"}},{"name":"Öfinger Str.","postalCode":"78194","locality":"Immendingen","municipality":{"key":"08327025","name":"Immendingen","type":"Kreisangehörige_Gemeinde"},"district":{"key":"08327","name":"Tuttlingen","type":"Landkreis"},"federalState":{"key":"08","name":"Baden-Württemberg"}},]