[{"name":"Am Heydelberg","postalCode":"01877","locality":"Schmölln-Putzkau","municipality":{"key":"14625530","name":"Schmölln-Putzkau","type":"Kreisangehörige_Gemeinde"},"district":{"key":"14625","name":"Bautzen","type":"Landkreis"},"federalState":{"key":"14","name":"Sachsen"}},{"name":"Am Mühlteich","postalCode":"01877","locality":"Schmölln-Putzkau","municipality":{"key":"14625530","name":"Schmölln-Putzkau","type":"Kreisangehörige_Gemeinde"},"district":{"key":"14625","name":"Bautzen","type":"Landkreis"},"federalState":{"key":"14","name":"Sachsen"}},{"name":"Am Schwarzwasser","postalCode":"01877","locality":"Schmölln-Putzkau","municipality":{"key":"14625530","name":"Schmölln-Putzkau","type":"Kreisangehörige_Gemeinde"},"district":{"key":"14625","name":"Bautzen","type":"Landkreis"},"federalState":{"key":"14","name":"Sachsen"}},{"name":"Am Viadukt","postalCode":"01877","locality":"Schmölln-Putzkau","municipality":{"key":"14625530","name":"Schmölln-Putzkau","type":"Kreisangehörige_Gemeinde"},"district":{"key":"14625","name":"Bautzen","type":"Landkreis"},"federalState":{"key":"14","name":"Sachsen"}},{"name":"An der Wesenitz","postalCode":"01877","locality":"Schmölln-Putzkau","municipality":{"key":"14625530","name":"Schmölln-Putzkau","type":"Kreisangehörige_Gemeinde"},"district":{"key":"14625","name":"Bautzen","type":"Landkreis"},"federalState":{"key":"14","name":"Sachsen"}},{"name":"Bahnhofstr.","postalCode":"01877","locality":"Schmölln-Putzkau","municipality":{"key":"14625530","name":"Schmölln-Putzkau","type":"Kreisangehörige_Gemeinde"},"district":{"key":"14625","name":"Bautzen","type":"Landkreis"},"federalState":{"key":"14","name":"Sachsen"}},{"name":"Belmsdorfer Str.","postalCode":"01877","locality":"Schmölln-Putzkau","municipality":{"key":"14625530","name":"Schmölln-Putzkau","type":"Kreisangehörige_Gemeinde"},"district":{"key":"14625","name":"Bautzen","type":"Landkreis"},"federalState":{"key":"14","name":"Sachsen"}},{"name":"Bergweg","postalCode":"01877","locality":"Schmölln-Putzkau","municipality":{"key":"14625530","name":"Schmölln-Putzkau","type":"Kreisangehörige_Gemeinde"},"district":{"key":"14625","name":"Bautzen","type":"Landkreis"},"federalState":{"key":"14","name":"Sachsen"}},{"name":"Bischofswerdaer Str.","postalCode":"01877","locality":"Schmölln-Putzkau","municipality":{"key":"14625530","name":"Schmölln-Putzkau","type":"Kreisangehörige_Gemeinde"},"district":{"key":"14625","name":"Bautzen","type":"Landkreis"},"federalState":{"key":"14","name":"Sachsen"}},{"name":"Brauereistr.","postalCode":"01877","locality":"Schmölln-Putzkau","municipality":{"key":"14625530","name":"Schmölln-Putzkau","type":"Kreisangehörige_Gemeinde"},"district":{"key":"14625","name":"Bautzen","type":"Landkreis"},"federalState":{"key":"14","name":"Sachsen"}},{"name":"Clara-Zetkin-Str.","postalCode":"02625","locality":"Bautzen","municipality":{"key":"14625020","name":"Bautzen / Budyšin, Stadt","type":"Stadt"},"district":{"key":"14625","name":"Bautzen","type":"Landkreis"},"federalState":{"key":"14","name":"Sachsen"}},{"name":"Czornebohstr.","postalCode":"02625","locality":"Bautzen","municipality":{"key":"14625020","name":"Bautzen / Budyšin, Stadt","type":"Stadt"},"district":{"key":"14625","name":"Bautzen","type":"Landkreis"},"federalState":{"key":"14","name":"Sachsen"}},{"name":"Dammweg","postalCode":"01877","locality":"Schmölln-Putzkau","municipality":{"key":"14625530","name":"Schmölln-Putzkau","type":"Kreisangehörige_Gemeinde"},"district":{"key":"14625","name":"Bautzen","type":"Landkreis"},"federalState":{"key":"14","name":"Sachsen"}},{"name":"Demitzer Str.","postalCode":"01877","locality":"Schmölln-Putzkau","municipality":{"key":"14625530","name":"Schmölln-Putzkau","type":"Kreisangehörige_Gemeinde"},"district":{"key":"14625","name":"Bautzen","type":"Landkreis"},"federalState":{"key":"14","name":"Sachsen"}},{"name":"Diebssteig","postalCode":"01877","locality":"Schmölln-Putzkau","municipality":{"key":"14625530","name":"Schmölln-Putzkau","type":"Kreisangehörige_Gemeinde"},"district":{"key":"14625","name":"Bautzen","type":"Landkreis"},"federalState":{"key":"14","name":"Sachsen"}},{"name":"Dorfstr.","postalCode":"01877","locality":"Schmölln-Putzkau","municipality":{"key":"14625530","name":"Schmölln-Putzkau","type":"Kreisangehörige_Gemeinde"},"district":{"key":"14625","name":"Bautzen","type":"Landkreis"},"federalState":{"key":"14","name":"Sachsen"}},{"name":"Dresdener Str.","postalCode":"01877","locality":"Schmölln-Putzkau","municipality":{"key":"14625530","name":"Schmölln-Putzkau","type":"Kreisangehörige_Gemeinde"},"district":{"key":"14625","name":"Bautzen","type":"Landkreis"},"federalState":{"key":"14","name":"Sachsen"}},{"name":"ehemaliger Kirchsteg","postalCode":"01877","locality":"Schmölln-Putzkau","municipality":{"key":"14625530","name":"Schmölln-Putzkau","type":"Kreisangehörige_Gemeinde"},"district":{"key":"14625","name":"Bautzen","type":"Landkreis"},"federalState":{"key":"14","name":"Sachsen"}},{"name":"Fabrikstr.","postalCode":"02625","locality":"Bautzen","municipality":{"key":"14625020","name":"Bautzen / Budyšin, Stadt","type":"Stadt"},"district":{"key":"14625","name":"Bautzen","type":"Landkreis"},"federalState":{"key":"14","name":"Sachsen"}},{"name":"Fallantgässchen","postalCode":"02625","locality":"Bautzen","municipality":{"key":"14625020","name":"Bautzen / Budyšin, Stadt","type":"Stadt"},"district":{"key":"14625","name":"Bautzen","type":"Landkreis"},"federalState":{"key":"14","name":"Sachsen"}},{"name":"Fasanenweg","postalCode":"02625","locality":"Bautzen","municipality":{"key":"14625020","name":"Bautzen / Budyšin, Stadt","type":"Stadt"},"district":{"key":"14625","name":"Bautzen","type":"Landkreis"},"federalState":{"key":"14","name":"Sachsen"}},{"name":"Felix-Wilhelm-Weg","postalCode":"02625","locality":"Bautzen","municipality":{"key":"14625020","name":"Bautzen / Budyšin, Stadt","type":"Stadt"},"district":{"key":"14625","name":"Bautzen","type":"Landkreis"},"federalState":{"key":"14","name":"Sachsen"}},{"name":"Fichteschulweg","postalCode":"02625","locality":"Bautzen","municipality":{"key":"14625020","name":"Bautzen / Budyšin, Stadt","type":"Stadt"},"district":{"key":"14625","name":"Bautzen","type":"Landkreis"},"federalState":{"key":"14","name":"Sachsen"}},{"name":"Fichtestr.","postalCode":"02625","locality":"Bautzen","municipality":{"key":"14625020","name":"Bautzen / Budyšin, Stadt","type":"Stadt"},"district":{"key":"14625","name":"Bautzen","type":"Landkreis"},"federalState":{"key":"14","name":"Sachsen"}},{"name":"Fiedlerstr.","postalCode":"02625","locality":"Bautzen","municipality":{"key":"14625020","name":"Bautzen / Budyšin, Stadt","type":"Stadt"},"district":{"key":"14625","name":"Bautzen","type":"Landkreis"},"federalState":{"key":"14","name":"Sachsen"}},{"name":"Fischergasse","postalCode":"02625","locality":"Bautzen","municipality":{"key":"14625020","name":"Bautzen / Budyšin, Stadt","type":"Stadt"},"district":{"key":"14625","name":"Bautzen","type":"Landkreis"},"federalState":{"key":"14","name":"Sachsen"}},{"name":"Fleischergasse","postalCode":"02625","locality":"Bautzen","municipality":{"key":"14625020","name":"Bautzen / Budyšin, Stadt","type":"Stadt"},"district":{"key":"14625","name":"Bautzen","type":"Landkreis"},"federalState":{"key":"14","name":"Sachsen"}},{"name":"Fleischmarkt","postalCode":"02625","locality":"Bautzen","municipality":{"key":"14625020","name":"Bautzen / Budyšin, Stadt","type":"Stadt"},"district":{"key":"14625","name":"Bautzen","type":"Landkreis"},"federalState":{"key":"14","name":"Sachsen"}},{"name":"Fliederweg","postalCode":"02625","locality":"Bautzen","municipality":{"key":"14625020","name":"Bautzen / Budyšin, Stadt","type":"Stadt"},"district":{"key":"14625","name":"Bautzen","type":"Landkreis"},"federalState":{"key":"14","name":"Sachsen"}},{"name":"Flinzstr.","postalCode":"02625","locality":"Bautzen","municipality":{"key":"14625020","name":"Bautzen / Budyšin, Stadt","type":"Stadt"},"district":{"key":"14625","name":"Bautzen","type":"Landkreis"},"federalState":{"key":"14","name":"Sachsen"}},{"name":"Frankfurt","postalCode":"02625","locality":"Bautzen","municipality":{"key":"14625020","name":"Bautzen / Budyšin, Stadt","type":"Stadt"},"district":{"key":"14625","name":"Bautzen","type":"Landkreis"},"federalState":{"key":"14","name":"Sachsen"}},{"name":"Frederic-Joliot-Curie-Str.","postalCode":"02625","locality":"Bautzen","municipality":{"key":"14625020","name":"Bautzen / Budyšin, Stadt","type":"Stadt"},"district":{"key":"14625","name":"Bautzen","type":"Landkreis"},"federalState":{"key":"14","name":"Sachsen"}},{"name":"Friedhofsweg","postalCode":"02625","locality":"Bautzen","municipality":{"key":"14625020","name":"Bautzen / Budyšin, Stadt","type":"Stadt"},"district":{"key":"14625","name":"Bautzen","type":"Landkreis"},"federalState":{"key":"14","name":"Sachsen"}},{"name":"Friedrich-Ebert-Str.","postalCode":"02625","locality":"Bautzen","municipality":{"key":"14625020","name":"Bautzen / Budyšin, Stadt","type":"Stadt"},"district":{"key":"14625","name":"Bautzen","type":"Landkreis"},"federalState":{"key":"14","name":"Sachsen"}},{"name":"Friedrich-Engels-Platz","postalCode":"02625","locality":"Bautzen","municipality":{"key":"14625020","name":"Bautzen / Budyšin, Stadt","type":"Stadt"},"district":{"key":"14625","name":"Bautzen","type":"Landkreis"},"federalState":{"key":"14","name":"Sachsen"}},{"name":"Friedrich-Gruhl-Str.","postalCode":"02625","locality":"Bautzen","municipality":{"key":"14625020","name":"Bautzen / Budyšin, Stadt","type":"Stadt"},"district":{"key":"14625","name":"Bautzen","type":"Landkreis"},"federalState":{"key":"14","name":"Sachsen"}},{"name":"Friedrich-List-Str.","postalCode":"02625","locality":"Bautzen","municipality":{"key":"14625020","name":"Bautzen / Budyšin, Stadt","type":"Stadt"},"district":{"key":"14625","name":"Bautzen","type":"Landkreis"},"federalState":{"key":"14","name":"Sachsen"}},{"name":"Friedrich-Olbricht-Str.","postalCode":"02625","locality":"Bautzen","municipality":{"key":"14625020","name":"Bautzen / Budyšin, Stadt","type":"Stadt"},"district":{"key":"14625","name":"Bautzen","type":"Landkreis"},"federalState":{"key":"14","name":"Sachsen"}},{"name":"Friedrich-Wolf-Str.","postalCode":"02625","locality":"Bautzen","municipality":{"key":"14625020","name":"Bautzen / Budyšin, Stadt","type":"Stadt"},"district":{"key":"14625","name":"Bautzen","type":"Landkreis"},"federalState":{"key":"14","name":"Sachsen"}},{"name":"Fuchsweg","postalCode":"02625","locality":"Bautzen","municipality":{"key":"14625020","name":"Bautzen / Budyšin, Stadt","type":"Stadt"},"district":{"key":"14625","name":"Bautzen","type":"Landkreis"},"federalState":{"key":"14","name":"Sachsen"}},{"name":"Gartenweg","postalCode":"01877","locality":"Schmölln-Putzkau","municipality":{"key":"14625530","name":"Schmölln-Putzkau","type":"Kreisangehörige_Gemeinde"},"district":{"key":"14625","name":"Bautzen","type":"Landkreis"},"federalState":{"key":"14","name":"Sachsen"}},{"name":"Grenzweg","postalCode":"01877","locality":"Schmölln-Putzkau","municipality":{"key":"14625530","name":"Schmölln-Putzkau","type":"Kreisangehörige_Gemeinde"},"district":{"key":"14625","name":"Bautzen","type":"Landkreis"},"federalState":{"key":"14","name":"Sachsen"}},{"name":"Hufenweg","postalCode":"01877","locality":"Schmölln-Putzkau","municipality":{"key":"14625530","name":"Schmölln-Putzkau","type":"Kreisangehörige_Gemeinde"},"district":{"key":"14625","name":"Bautzen","type":"Landkreis"},"federalState":{"key":"14","name":"Sachsen"}},{"name":"Hüttenhäuser","postalCode":"01877","locality":"Schmölln-Putzkau","municipality":{"key":"14625530","name":"Schmölln-Putzkau","type":"Kreisangehörige_Gemeinde"},"district":{"key":"14625","name":"Bautzen","type":"Landkreis"},"federalState":{"key":"14","name":"Sachsen"}},{"name":"Innere Lauenstr.","postalCode":"02625","locality":"Bautzen","municipality":{"key":"14625020","name":"Bautzen / Budyšin, Stadt","type":"Stadt"},"district":{"key":"14625","name":"Bautzen","type":"Landkreis"},"federalState":{"key":"14","name":"Sachsen"}},{"name":"Jagdweg","postalCode":"02625","locality":"Bautzen","municipality":{"key":"14625020","name":"Bautzen / Budyšin, Stadt","type":"Stadt"},"district":{"key":"14625","name":"Bautzen","type":"Landkreis"},"federalState":{"key":"14","name":"Sachsen"}},{"name":"Jägerstr.","postalCode":"02625","locality":"Bautzen","municipality":{"key":"14625020","name":"Bautzen / Budyšin, Stadt","type":"Stadt"},"district":{"key":"14625","name":"Bautzen","type":"Landkreis"},"federalState":{"key":"14","name":"Sachsen"}},{"name":"Jahnstr.","postalCode":"02625","locality":"Bautzen","municipality":{"key":"14625020","name":"Bautzen / Budyšin, Stadt","type":"Stadt"},"district":{"key":"14625","name":"Bautzen","type":"Landkreis"},"federalState":{"key":"14","name":"Sachsen"}},{"name":"Jan-Skala-Str.","postalCode":"02625","locality":"Bautzen","municipality":{"key":"14625020","name":"Bautzen / Budyšin, Stadt","type":"Stadt"},"district":{"key":"14625","name":"Bautzen","type":"Landkreis"},"federalState":{"key":"14","name":"Sachsen"}},{"name":"Johannes-Kepler-Str.","postalCode":"02625","locality":"Bautzen","municipality":{"key":"14625020","name":"Bautzen / Budyšin, Stadt","type":"Stadt"},"district":{"key":"14625","name":"Bautzen","type":"Landkreis"},"federalState":{"key":"14","name":"Sachsen"}},{"name":"Johannes-R.-Becher-Str.","postalCode":"02625","locality":"Bautzen","municipality":{"key":"14625020","name":"Bautzen / Budyšin, Stadt","type":"Stadt"},"district":{"key":"14625","name":"Bautzen","type":"Landkreis"},"federalState":{"key":"14","name":"Sachsen"}},{"name":"Johann-Sebastian-Bach-Str.","postalCode":"02625","locality":"Bautzen","municipality":{"key":"14625020","name":"Bautzen / Budyšin, Stadt","type":"Stadt"},"district":{"key":"14625","name":"Bautzen","type":"Landkreis"},"federalState":{"key":"14","name":"Sachsen"}},{"name":"Jordantalbrücke","postalCode":"02625","locality":"Bautzen","municipality":{"key":"14625020","name":"Bautzen / Budyšin, Stadt","type":"Stadt"},"district":{"key":"14625","name":"Bautzen","type":"Landkreis"},"federalState":{"key":"14","name":"Sachsen"}},{"name":"Juri-Gagarin-Str.","postalCode":"02625","locality":"Bautzen","municipality":{"key":"14625020","name":"Bautzen / Budyšin, Stadt","type":"Stadt"},"district":{"key":"14625","name":"Bautzen","type":"Landkreis"},"federalState":{"key":"14","name":"Sachsen"}},{"name":"Kanzelweg","postalCode":"01877","locality":"Schmölln-Putzkau","municipality":{"key":"14625530","name":"Schmölln-Putzkau","type":"Kreisangehörige_Gemeinde"},"district":{"key":"14625","name":"Bautzen","type":"Landkreis"},"federalState":{"key":"14","name":"Sachsen"}},{"name":"Kesselweg","postalCode":"01877","locality":"Schmölln-Putzkau","municipality":{"key":"14625530","name":"Schmölln-Putzkau","type":"Kreisangehörige_Gemeinde"},"district":{"key":"14625","name":"Bautzen","type":"Landkreis"},"federalState":{"key":"14","name":"Sachsen"}},{"name":"Klosterbergstr.","postalCode":"01877","locality":"Schmölln-Putzkau","municipality":{"key":"14625530","name":"Schmölln-Putzkau","type":"Kreisangehörige_Gemeinde"},"district":{"key":"14625","name":"Bautzen","type":"Landkreis"},"federalState":{"key":"14","name":"Sachsen"}},{"name":"Klosterbergweg","postalCode":"01877","locality":"Schmölln-Putzkau","municipality":{"key":"14625530","name":"Schmölln-Putzkau","type":"Kreisangehörige_Gemeinde"},"district":{"key":"14625","name":"Bautzen","type":"Landkreis"},"federalState":{"key":"14","name":"Sachsen"}},{"name":"Lärchenweg","postalCode":"01877","locality":"Schmölln-Putzkau","municipality":{"key":"14625530","name":"Schmölln-Putzkau","type":"Kreisangehörige_Gemeinde"},"district":{"key":"14625","name":"Bautzen","type":"Landkreis"},"federalState":{"key":"14","name":"Sachsen"}},{"name":"Lehnbergweg","postalCode":"01877","locality":"Schmölln-Putzkau","municipality":{"key":"14625530","name":"Schmölln-Putzkau","type":"Kreisangehörige_Gemeinde"},"district":{"key":"14625","name":"Bautzen","type":"Landkreis"},"federalState":{"key":"14","name":"Sachsen"}},{"name":"Mittelweg","postalCode":"01877","locality":"Schmölln-Putzkau","municipality":{"key":"14625530","name":"Schmölln-Putzkau","type":"Kreisangehörige_Gemeinde"},"district":{"key":"14625","name":"Bautzen","type":"Landkreis"},"federalState":{"key":"14","name":"Sachsen"}},{"name":"Mühlenstr.","postalCode":"01877","locality":"Schmölln-Putzkau","municipality":{"key":"14625530","name":"Schmölln-Putzkau","type":"Kreisangehörige_Gemeinde"},"district":{"key":"14625","name":"Bautzen","type":"Landkreis"},"federalState":{"key":"14","name":"Sachsen"}},{"name":"Mühlweg","postalCode":"01877","locality":"Schmölln-Putzkau","municipality":{"key":"14625530","name":"Schmölln-Putzkau","type":"Kreisangehörige_Gemeinde"},"district":{"key":"14625","name":"Bautzen","type":"Landkreis"},"federalState":{"key":"14","name":"Sachsen"}},{"name":"Naßweg","postalCode":"01877","locality":"Schmölln-Putzkau","municipality":{"key":"14625530","name":"Schmölln-Putzkau","type":"Kreisangehörige_Gemeinde"},"district":{"key":"14625","name":"Bautzen","type":"Landkreis"},"federalState":{"key":"14","name":"Sachsen"}},{"name":"Naundorfer Str.","postalCode":"01877","locality":"Schmölln-Putzkau","municipality":{"key":"14625530","name":"Schmölln-Putzkau","type":"Kreisangehörige_Gemeinde"},"district":{"key":"14625","name":"Bautzen","type":"Landkreis"},"federalState":{"key":"14","name":"Sachsen"}},{"name":"Neubaustr.","postalCode":"01877","locality":"Schmölln-Putzkau","municipality":{"key":"14625530","name":"Schmölln-Putzkau","type":"Kreisangehörige_Gemeinde"},"district":{"key":"14625","name":"Bautzen","type":"Landkreis"},"federalState":{"key":"14","name":"Sachsen"}},{"name":"Neue Häuser","postalCode":"01877","locality":"Schmölln-Putzkau","municipality":{"key":"14625530","name":"Schmölln-Putzkau","type":"Kreisangehörige_Gemeinde"},"district":{"key":"14625","name":"Bautzen","type":"Landkreis"},"federalState":{"key":"14","name":"Sachsen"}},{"name":"Neukircher Str.","postalCode":"01877","locality":"Schmölln-Putzkau","municipality":{"key":"14625530","name":"Schmölln-Putzkau","type":"Kreisangehörige_Gemeinde"},"district":{"key":"14625","name":"Bautzen","type":"Landkreis"},"federalState":{"key":"14","name":"Sachsen"}},{"name":"Neukircher Weg","postalCode":"01877","locality":"Schmölln-Putzkau","municipality":{"key":"14625530","name":"Schmölln-Putzkau","type":"Kreisangehörige_Gemeinde"},"district":{"key":"14625","name":"Bautzen","type":"Landkreis"},"federalState":{"key":"14","name":"Sachsen"}},{"name":"Neuschmöllner Str.","postalCode":"01877","locality":"Schmölln-Putzkau","municipality":{"key":"14625530","name":"Schmölln-Putzkau","type":"Kreisangehörige_Gemeinde"},"district":{"key":"14625","name":"Bautzen","type":"Landkreis"},"federalState":{"key":"14","name":"Sachsen"}},{"name":"Neustädter Str.","postalCode":"01877","locality":"Schmölln-Putzkau","municipality":{"key":"14625530","name":"Schmölln-Putzkau","type":"Kreisangehörige_Gemeinde"},"district":{"key":"14625","name":"Bautzen","type":"Landkreis"},"federalState":{"key":"14","name":"Sachsen"}},{"name":"Oberhofberg","postalCode":"01877","locality":"Schmölln-Putzkau","municipality":{"key":"14625530","name":"Schmölln-Putzkau","type":"Kreisangehörige_Gemeinde"},"district":{"key":"14625","name":"Bautzen","type":"Landkreis"},"federalState":{"key":"14","name":"Sachsen"}},{"name":"Ottendorfer Gemeindeweg","postalCode":"01877","locality":"Schmölln-Putzkau","municipality":{"key":"14625530","name":"Schmölln-Putzkau","type":"Kreisangehörige_Gemeinde"},"district":{"key":"14625","name":"Bautzen","type":"Landkreis"},"federalState":{"key":"14","name":"Sachsen"}},{"name":"Ottendorfer Str.","postalCode":"01877","locality":"Schmölln-Putzkau","municipality":{"key":"14625530","name":"Schmölln-Putzkau","type":"Kreisangehörige_Gemeinde"},"district":{"key":"14625","name":"Bautzen","type":"Landkreis"},"federalState":{"key":"14","name":"Sachsen"}},{"name":"Putzkauer Str.","postalCode":"01877","locality":"Schmölln-Putzkau","municipality":{"key":"14625530","name":"Schmölln-Putzkau","type":"Kreisangehörige_Gemeinde"},"district":{"key":"14625","name":"Bautzen","type":"Landkreis"},"federalState":{"key":"14","name":"Sachsen"}},{"name":"Putzkauer Weg","postalCode":"01877","locality":"Schmölln-Putzkau","municipality":{"key":"14625530","name":"Schmölln-Putzkau","type":"Kreisangehörige_Gemeinde"},"district":{"key":"14625","name":"Bautzen","type":"Landkreis"},"federalState":{"key":"14","name":"Sachsen"}},{"name":"Querstr.","postalCode":"01877","locality":"Schmölln-Putzkau","municipality":{"key":"14625530","name":"Schmölln-Putzkau","type":"Kreisangehörige_Gemeinde"},"district":{"key":"14625","name":"Bautzen","type":"Landkreis"},"federalState":{"key":"14","name":"Sachsen"}},{"name":"Ringstr.","postalCode":"01877","locality":"Schmölln-Putzkau","municipality":{"key":"14625530","name":"Schmölln-Putzkau","type":"Kreisangehörige_Gemeinde"},"district":{"key":"14625","name":"Bautzen","type":"Landkreis"},"federalState":{"key":"14","name":"Sachsen"}},{"name":"Ringweg","postalCode":"01877","locality":"Schmölln-Putzkau","municipality":{"key":"14625530","name":"Schmölln-Putzkau","type":"Kreisangehörige_Gemeinde"},"district":{"key":"14625","name":"Bautzen","type":"Landkreis"},"federalState":{"key":"14","name":"Sachsen"}},{"name":"Rückenweg","postalCode":"01877","locality":"Schmölln-Putzkau","municipality":{"key":"14625530","name":"Schmölln-Putzkau","type":"Kreisangehörige_Gemeinde"},"district":{"key":"14625","name":"Bautzen","type":"Landkreis"},"federalState":{"key":"14","name":"Sachsen"}},{"name":"Sandweg","postalCode":"01877","locality":"Schmölln-Putzkau","municipality":{"key":"14625530","name":"Schmölln-Putzkau","type":"Kreisangehörige_Gemeinde"},"district":{"key":"14625","name":"Bautzen","type":"Landkreis"},"federalState":{"key":"14","name":"Sachsen"}},{"name":"Schaftreibe","postalCode":"01877","locality":"Schmölln-Putzkau","municipality":{"key":"14625530","name":"Schmölln-Putzkau","type":"Kreisangehörige_Gemeinde"},"district":{"key":"14625","name":"Bautzen","type":"Landkreis"},"federalState":{"key":"14","name":"Sachsen"}},{"name":"Schenkhäuserstr.","postalCode":"01877","locality":"Schmölln-Putzkau","municipality":{"key":"14625530","name":"Schmölln-Putzkau","type":"Kreisangehörige_Gemeinde"},"district":{"key":"14625","name":"Bautzen","type":"Landkreis"},"federalState":{"key":"14","name":"Sachsen"}},{"name":"Schmöllner Str.","postalCode":"01877","locality":"Schmölln-Putzkau","municipality":{"key":"14625530","name":"Schmölln-Putzkau","type":"Kreisangehörige_Gemeinde"},"district":{"key":"14625","name":"Bautzen","type":"Landkreis"},"federalState":{"key":"14","name":"Sachsen"}},{"name":"Schulstr.","postalCode":"01877","locality":"Schmölln-Putzkau","municipality":{"key":"14625530","name":"Schmölln-Putzkau","type":"Kreisangehörige_Gemeinde"},"district":{"key":"14625","name":"Bautzen","type":"Landkreis"},"federalState":{"key":"14","name":"Sachsen"}},{"name":"Siedlerstr.","postalCode":"01877","locality":"Schmölln-Putzkau","municipality":{"key":"14625530","name":"Schmölln-Putzkau","type":"Kreisangehörige_Gemeinde"},"district":{"key":"14625","name":"Bautzen","type":"Landkreis"},"federalState":{"key":"14","name":"Sachsen"}},{"name":"Sportplatzweg","postalCode":"01877","locality":"Schmölln-Putzkau","municipality":{"key":"14625530","name":"Schmölln-Putzkau","type":"Kreisangehörige_Gemeinde"},"district":{"key":"14625","name":"Bautzen","type":"Landkreis"},"federalState":{"key":"14","name":"Sachsen"}},{"name":"Steinweg","postalCode":"01877","locality":"Schmölln-Putzkau","municipality":{"key":"14625530","name":"Schmölln-Putzkau","type":"Kreisangehörige_Gemeinde"},"district":{"key":"14625","name":"Bautzen","type":"Landkreis"},"federalState":{"key":"14","name":"Sachsen"}},{"name":"Str. der Jugend","postalCode":"01877","locality":"Schmölln-Putzkau","municipality":{"key":"14625530","name":"Schmölln-Putzkau","type":"Kreisangehörige_Gemeinde"},"district":{"key":"14625","name":"Bautzen","type":"Landkreis"},"federalState":{"key":"14","name":"Sachsen"}},{"name":"Str. des Friedens","postalCode":"01877","locality":"Schmölln-Putzkau","municipality":{"key":"14625530","name":"Schmölln-Putzkau","type":"Kreisangehörige_Gemeinde"},"district":{"key":"14625","name":"Bautzen","type":"Landkreis"},"federalState":{"key":"14","name":"Sachsen"}},{"name":"Stufenweg","postalCode":"01877","locality":"Schmölln-Putzkau","municipality":{"key":"14625530","name":"Schmölln-Putzkau","type":"Kreisangehörige_Gemeinde"},"district":{"key":"14625","name":"Bautzen","type":"Landkreis"},"federalState":{"key":"14","name":"Sachsen"}},{"name":"Tröbigauer Str.","postalCode":"01877","locality":"Schmölln-Putzkau","municipality":{"key":"14625530","name":"Schmölln-Putzkau","type":"Kreisangehörige_Gemeinde"},"district":{"key":"14625","name":"Bautzen","type":"Landkreis"},"federalState":{"key":"14","name":"Sachsen"}},{"name":"Uferweg","postalCode":"01877","locality":"Schmölln-Putzkau","municipality":{"key":"14625530","name":"Schmölln-Putzkau","type":"Kreisangehörige_Gemeinde"},"district":{"key":"14625","name":"Bautzen","type":"Landkreis"},"federalState":{"key":"14","name":"Sachsen"}},{"name":"Veilchenberg","postalCode":"02625","locality":"Bautzen","municipality":{"key":"14625020","name":"Bautzen / Budyšin, Stadt","type":"Stadt"},"district":{"key":"14625","name":"Bautzen","type":"Landkreis"},"federalState":{"key":"14","name":"Sachsen"}},{"name":"Vor dem Gerbertor","postalCode":"02625","locality":"Bautzen","municipality":{"key":"14625020","name":"Bautzen / Budyšin, Stadt","type":"Stadt"},"district":{"key":"14625","name":"Bautzen","type":"Landkreis"},"federalState":{"key":"14","name":"Sachsen"}},{"name":"Vor dem Schülertor","postalCode":"02625","locality":"Bautzen","municipality":{"key":"14625020","name":"Bautzen / Budyšin, Stadt","type":"Stadt"},"district":{"key":"14625","name":"Bautzen","type":"Landkreis"},"federalState":{"key":"14","name":"Sachsen"}},{"name":"Vor der Fischerpforte","postalCode":"02625","locality":"Bautzen","municipality":{"key":"14625020","name":"Bautzen / Budyšin, Stadt","type":"Stadt"},"district":{"key":"14625","name":"Bautzen","type":"Landkreis"},"federalState":{"key":"14","name":"Sachsen"}},{"name":"Wiesenweg","postalCode":"01877","locality":"Schmölln-Putzkau","municipality":{"key":"14625530","name":"Schmölln-Putzkau","type":"Kreisangehörige_Gemeinde"},"district":{"key":"14625","name":"Bautzen","type":"Landkreis"},"federalState":{"key":"14","name":"Sachsen"}},{"name":"Yorckstr.","postalCode":"02625","locality":"Bautzen","municipality":{"key":"14625020","name":"Bautzen / Budyšin, Stadt","type":"Stadt"},"district":{"key":"14625","name":"Bautzen","type":"Landkreis"},"federalState":{"key":"14","name":"Sachsen"}},{"name":"Zittauer Str.","postalCode":"01877","locality":"Schmölln-Putzkau","municipality":{"key":"14625530","name":"Schmölln-Putzkau","type":"Kreisangehörige_Gemeinde"},"district":{"key":"14625","name":"Bautzen","type":"Landkreis"},"federalState":{"key":"14","name":"Sachsen"}},{"name":"Zum Bahndamm","postalCode":"01877","locality":"Schmölln-Putzkau","municipality":{"key":"14625530","name":"Schmölln-Putzkau","type":"Kreisangehörige_Gemeinde"},"district":{"key":"14625","name":"Bautzen","type":"Landkreis"},"federalState":{"key":"14","name":"Sachsen"}},{"name":"Äußere Lauenstr.","postalCode":"02625","locality":"Bautzen","municipality":{"key":"14625020","name":"Bautzen / Budyšin, Stadt","type":"Stadt"},"district":{"key":"14625","name":"Bautzen","type":"Landkreis"},"federalState":{"key":"14","name":"Sachsen"}},]