[{"name":"Admiralskoppel","postalCode":"24107","locality":"Quarnbek","municipality":{"key":"01058130","name":"Quarnbek","type":"Kreisangehörige_Gemeinde"},"district":{"key":"01058","name":"Rendsburg-Eckernförde","type":"Kreis"},"federalState":{"key":"01","name":"Schleswig-Holstein"}},{"name":"Alte Landstr.","postalCode":"24107","locality":"Quarnbek","municipality":{"key":"01058130","name":"Quarnbek","type":"Kreisangehörige_Gemeinde"},"district":{"key":"01058","name":"Rendsburg-Eckernförde","type":"Kreis"},"federalState":{"key":"01","name":"Schleswig-Holstein"}},{"name":"Am Breitschlag","postalCode":"24107","locality":"Quarnbek","municipality":{"key":"01058130","name":"Quarnbek","type":"Kreisangehörige_Gemeinde"},"district":{"key":"01058","name":"Rendsburg-Eckernförde","type":"Kreis"},"federalState":{"key":"01","name":"Schleswig-Holstein"}},{"name":"Am Fährberg","postalCode":"24107","locality":"Quarnbek","municipality":{"key":"01058130","name":"Quarnbek","type":"Kreisangehörige_Gemeinde"},"district":{"key":"01058","name":"Rendsburg-Eckernförde","type":"Kreis"},"federalState":{"key":"01","name":"Schleswig-Holstein"}},{"name":"Am Gut","postalCode":"24107","locality":"Quarnbek","municipality":{"key":"01058130","name":"Quarnbek","type":"Kreisangehörige_Gemeinde"},"district":{"key":"01058","name":"Rendsburg-Eckernförde","type":"Kreis"},"federalState":{"key":"01","name":"Schleswig-Holstein"}},{"name":"Am Landkrug","postalCode":"24107","locality":"Quarnbek","municipality":{"key":"01058130","name":"Quarnbek","type":"Kreisangehörige_Gemeinde"},"district":{"key":"01058","name":"Rendsburg-Eckernförde","type":"Kreis"},"federalState":{"key":"01","name":"Schleswig-Holstein"}},{"name":"Am Ringkanal","postalCode":"24107","locality":"Quarnbek","municipality":{"key":"01058130","name":"Quarnbek","type":"Kreisangehörige_Gemeinde"},"district":{"key":"01058","name":"Rendsburg-Eckernförde","type":"Kreis"},"federalState":{"key":"01","name":"Schleswig-Holstein"}},{"name":"Bahnhof","postalCode":"24107","locality":"Quarnbek","municipality":{"key":"01058130","name":"Quarnbek","type":"Kreisangehörige_Gemeinde"},"district":{"key":"01058","name":"Rendsburg-Eckernförde","type":"Kreis"},"federalState":{"key":"01","name":"Schleswig-Holstein"}},{"name":"Birkenweg","postalCode":"24107","locality":"Quarnbek","municipality":{"key":"01058130","name":"Quarnbek","type":"Kreisangehörige_Gemeinde"},"district":{"key":"01058","name":"Rendsburg-Eckernförde","type":"Kreis"},"federalState":{"key":"01","name":"Schleswig-Holstein"}},{"name":"Birnbaumfeld","postalCode":"24107","locality":"Quarnbek","municipality":{"key":"01058130","name":"Quarnbek","type":"Kreisangehörige_Gemeinde"},"district":{"key":"01058","name":"Rendsburg-Eckernförde","type":"Kreis"},"federalState":{"key":"01","name":"Schleswig-Holstein"}},{"name":"Dorfstr.","postalCode":"24107","locality":"Quarnbek","municipality":{"key":"01058130","name":"Quarnbek","type":"Kreisangehörige_Gemeinde"},"district":{"key":"01058","name":"Rendsburg-Eckernförde","type":"Kreis"},"federalState":{"key":"01","name":"Schleswig-Holstein"}},{"name":"Eichkamp","postalCode":"24107","locality":"Quarnbek","municipality":{"key":"01058130","name":"Quarnbek","type":"Kreisangehörige_Gemeinde"},"district":{"key":"01058","name":"Rendsburg-Eckernförde","type":"Kreis"},"federalState":{"key":"01","name":"Schleswig-Holstein"}},{"name":"Fliederweg","postalCode":"24107","locality":"Quarnbek","municipality":{"key":"01058130","name":"Quarnbek","type":"Kreisangehörige_Gemeinde"},"district":{"key":"01058","name":"Rendsburg-Eckernförde","type":"Kreis"},"federalState":{"key":"01","name":"Schleswig-Holstein"}},{"name":"Gartenkamp","postalCode":"24107","locality":"Quarnbek","municipality":{"key":"01058130","name":"Quarnbek","type":"Kreisangehörige_Gemeinde"},"district":{"key":"01058","name":"Rendsburg-Eckernförde","type":"Kreis"},"federalState":{"key":"01","name":"Schleswig-Holstein"}},{"name":"Ginsterbusch","postalCode":"24107","locality":"Quarnbek","municipality":{"key":"01058130","name":"Quarnbek","type":"Kreisangehörige_Gemeinde"},"district":{"key":"01058","name":"Rendsburg-Eckernförde","type":"Kreis"},"federalState":{"key":"01","name":"Schleswig-Holstein"}},{"name":"Hofkoppel","postalCode":"24107","locality":"Quarnbek","municipality":{"key":"01058130","name":"Quarnbek","type":"Kreisangehörige_Gemeinde"},"district":{"key":"01058","name":"Rendsburg-Eckernförde","type":"Kreis"},"federalState":{"key":"01","name":"Schleswig-Holstein"}},{"name":"Holm","postalCode":"24107","locality":"Quarnbek","municipality":{"key":"01058130","name":"Quarnbek","type":"Kreisangehörige_Gemeinde"},"district":{"key":"01058","name":"Rendsburg-Eckernförde","type":"Kreis"},"federalState":{"key":"01","name":"Schleswig-Holstein"}},{"name":"Immenkamp","postalCode":"24107","locality":"Quarnbek","municipality":{"key":"01058130","name":"Quarnbek","type":"Kreisangehörige_Gemeinde"},"district":{"key":"01058","name":"Rendsburg-Eckernförde","type":"Kreis"},"federalState":{"key":"01","name":"Schleswig-Holstein"}},{"name":"Inspektor-Weimar-Weg","postalCode":"24107","locality":"Quarnbek","municipality":{"key":"01058130","name":"Quarnbek","type":"Kreisangehörige_Gemeinde"},"district":{"key":"01058","name":"Rendsburg-Eckernförde","type":"Kreis"},"federalState":{"key":"01","name":"Schleswig-Holstein"}},{"name":"Kirchkamp","postalCode":"24107","locality":"Quarnbek","municipality":{"key":"01058130","name":"Quarnbek","type":"Kreisangehörige_Gemeinde"},"district":{"key":"01058","name":"Rendsburg-Eckernförde","type":"Kreis"},"federalState":{"key":"01","name":"Schleswig-Holstein"}},{"name":"Kirschgarten","postalCode":"24107","locality":"Quarnbek","municipality":{"key":"01058130","name":"Quarnbek","type":"Kreisangehörige_Gemeinde"},"district":{"key":"01058","name":"Rendsburg-Eckernförde","type":"Kreis"},"federalState":{"key":"01","name":"Schleswig-Holstein"}},{"name":"Köhlerbarg","postalCode":"24107","locality":"Quarnbek","municipality":{"key":"01058130","name":"Quarnbek","type":"Kreisangehörige_Gemeinde"},"district":{"key":"01058","name":"Rendsburg-Eckernförde","type":"Kreis"},"federalState":{"key":"01","name":"Schleswig-Holstein"}},{"name":"Küsterkoppel","postalCode":"24107","locality":"Quarnbek","municipality":{"key":"01058130","name":"Quarnbek","type":"Kreisangehörige_Gemeinde"},"district":{"key":"01058","name":"Rendsburg-Eckernförde","type":"Kreis"},"federalState":{"key":"01","name":"Schleswig-Holstein"}},{"name":"Lerchenkamp","postalCode":"24107","locality":"Quarnbek","municipality":{"key":"01058130","name":"Quarnbek","type":"Kreisangehörige_Gemeinde"},"district":{"key":"01058","name":"Rendsburg-Eckernförde","type":"Kreis"},"federalState":{"key":"01","name":"Schleswig-Holstein"}},{"name":"Lindenkamp","postalCode":"24107","locality":"Quarnbek","municipality":{"key":"01058130","name":"Quarnbek","type":"Kreisangehörige_Gemeinde"},"district":{"key":"01058","name":"Rendsburg-Eckernförde","type":"Kreis"},"federalState":{"key":"01","name":"Schleswig-Holstein"}},{"name":"Möhlenbarg","postalCode":"24107","locality":"Quarnbek","municipality":{"key":"01058130","name":"Quarnbek","type":"Kreisangehörige_Gemeinde"},"district":{"key":"01058","name":"Rendsburg-Eckernförde","type":"Kreis"},"federalState":{"key":"01","name":"Schleswig-Holstein"}},{"name":"Mönkbergseck","postalCode":"24107","locality":"Quarnbek","municipality":{"key":"01058130","name":"Quarnbek","type":"Kreisangehörige_Gemeinde"},"district":{"key":"01058","name":"Rendsburg-Eckernförde","type":"Kreis"},"federalState":{"key":"01","name":"Schleswig-Holstein"}},{"name":"Petersilienweg","postalCode":"24107","locality":"Quarnbek","municipality":{"key":"01058130","name":"Quarnbek","type":"Kreisangehörige_Gemeinde"},"district":{"key":"01058","name":"Rendsburg-Eckernförde","type":"Kreis"},"federalState":{"key":"01","name":"Schleswig-Holstein"}},{"name":"Plattenberg","postalCode":"24107","locality":"Quarnbek","municipality":{"key":"01058130","name":"Quarnbek","type":"Kreisangehörige_Gemeinde"},"district":{"key":"01058","name":"Rendsburg-Eckernförde","type":"Kreis"},"federalState":{"key":"01","name":"Schleswig-Holstein"}},{"name":"Rajensdorfer Weg","postalCode":"24107","locality":"Quarnbek","municipality":{"key":"01058130","name":"Quarnbek","type":"Kreisangehörige_Gemeinde"},"district":{"key":"01058","name":"Rendsburg-Eckernförde","type":"Kreis"},"federalState":{"key":"01","name":"Schleswig-Holstein"}},{"name":"Reimershofer Weg","postalCode":"24107","locality":"Quarnbek","municipality":{"key":"01058130","name":"Quarnbek","type":"Kreisangehörige_Gemeinde"},"district":{"key":"01058","name":"Rendsburg-Eckernförde","type":"Kreis"},"federalState":{"key":"01","name":"Schleswig-Holstein"}},{"name":"Rosenweg","postalCode":"24107","locality":"Quarnbek","municipality":{"key":"01058130","name":"Quarnbek","type":"Kreisangehörige_Gemeinde"},"district":{"key":"01058","name":"Rendsburg-Eckernförde","type":"Kreis"},"federalState":{"key":"01","name":"Schleswig-Holstein"}},{"name":"Schmiedeberg","postalCode":"24107","locality":"Quarnbek","municipality":{"key":"01058130","name":"Quarnbek","type":"Kreisangehörige_Gemeinde"},"district":{"key":"01058","name":"Rendsburg-Eckernförde","type":"Kreis"},"federalState":{"key":"01","name":"Schleswig-Holstein"}},{"name":"Schüttenredder","postalCode":"24107","locality":"Quarnbek","municipality":{"key":"01058130","name":"Quarnbek","type":"Kreisangehörige_Gemeinde"},"district":{"key":"01058","name":"Rendsburg-Eckernförde","type":"Kreis"},"federalState":{"key":"01","name":"Schleswig-Holstein"}},{"name":"Sledenbarg","postalCode":"24107","locality":"Quarnbek","municipality":{"key":"01058130","name":"Quarnbek","type":"Kreisangehörige_Gemeinde"},"district":{"key":"01058","name":"Rendsburg-Eckernförde","type":"Kreis"},"federalState":{"key":"01","name":"Schleswig-Holstein"}},{"name":"Spitzenrade","postalCode":"24107","locality":"Quarnbek","municipality":{"key":"01058130","name":"Quarnbek","type":"Kreisangehörige_Gemeinde"},"district":{"key":"01058","name":"Rendsburg-Eckernförde","type":"Kreis"},"federalState":{"key":"01","name":"Schleswig-Holstein"}},{"name":"Steinkamp","postalCode":"24107","locality":"Quarnbek","municipality":{"key":"01058130","name":"Quarnbek","type":"Kreisangehörige_Gemeinde"},"district":{"key":"01058","name":"Rendsburg-Eckernförde","type":"Kreis"},"federalState":{"key":"01","name":"Schleswig-Holstein"}},{"name":"Sturenberg","postalCode":"24107","locality":"Quarnbek","municipality":{"key":"01058130","name":"Quarnbek","type":"Kreisangehörige_Gemeinde"},"district":{"key":"01058","name":"Rendsburg-Eckernförde","type":"Kreis"},"federalState":{"key":"01","name":"Schleswig-Holstein"}},{"name":"Toweddern","postalCode":"24107","locality":"Quarnbek","municipality":{"key":"01058130","name":"Quarnbek","type":"Kreisangehörige_Gemeinde"},"district":{"key":"01058","name":"Rendsburg-Eckernförde","type":"Kreis"},"federalState":{"key":"01","name":"Schleswig-Holstein"}},{"name":"Treidelweg","postalCode":"24107","locality":"Quarnbek","municipality":{"key":"01058130","name":"Quarnbek","type":"Kreisangehörige_Gemeinde"},"district":{"key":"01058","name":"Rendsburg-Eckernförde","type":"Kreis"},"federalState":{"key":"01","name":"Schleswig-Holstein"}},{"name":"Uhlenkamp","postalCode":"24107","locality":"Quarnbek","municipality":{"key":"01058130","name":"Quarnbek","type":"Kreisangehörige_Gemeinde"},"district":{"key":"01058","name":"Rendsburg-Eckernförde","type":"Kreis"},"federalState":{"key":"01","name":"Schleswig-Holstein"}},{"name":"Wiedenkamp","postalCode":"24107","locality":"Quarnbek","municipality":{"key":"01058130","name":"Quarnbek","type":"Kreisangehörige_Gemeinde"},"district":{"key":"01058","name":"Rendsburg-Eckernförde","type":"Kreis"},"federalState":{"key":"01","name":"Schleswig-Holstein"}},{"name":"Zum Sportplatz","postalCode":"24107","locality":"Quarnbek","municipality":{"key":"01058130","name":"Quarnbek","type":"Kreisangehörige_Gemeinde"},"district":{"key":"01058","name":"Rendsburg-Eckernförde","type":"Kreis"},"federalState":{"key":"01","name":"Schleswig-Holstein"}},]