[{"name":"1. Dwarsweg","postalCode":"26607","locality":"Aurich","municipality":{"key":"03452001","name":"Aurich, Stadt","type":"Stadt"},"district":{"key":"03452","name":"Aurich","type":"Landkreis"},"federalState":{"key":"03","name":"Niedersachsen"}},{"name":"1. Feldstückenweg","postalCode":"26605","locality":"Aurich","municipality":{"key":"03452001","name":"Aurich, Stadt","type":"Stadt"},"district":{"key":"03452","name":"Aurich","type":"Landkreis"},"federalState":{"key":"03","name":"Niedersachsen"}},{"name":"1. Hammweg","postalCode":"26607","locality":"Aurich","municipality":{"key":"03452001","name":"Aurich, Stadt","type":"Stadt"},"district":{"key":"03452","name":"Aurich","type":"Landkreis"},"federalState":{"key":"03","name":"Niedersachsen"}},{"name":"1. Leegmoorweg","postalCode":"26607","locality":"Aurich","municipality":{"key":"03452001","name":"Aurich, Stadt","type":"Stadt"},"district":{"key":"03452","name":"Aurich","type":"Landkreis"},"federalState":{"key":"03","name":"Niedersachsen"}},{"name":"2. Dwarsweg","postalCode":"26607","locality":"Aurich","municipality":{"key":"03452001","name":"Aurich, Stadt","type":"Stadt"},"district":{"key":"03452","name":"Aurich","type":"Landkreis"},"federalState":{"key":"03","name":"Niedersachsen"}},{"name":"2. Leegmoorweg","postalCode":"26607","locality":"Aurich","municipality":{"key":"03452001","name":"Aurich, Stadt","type":"Stadt"},"district":{"key":"03452","name":"Aurich","type":"Landkreis"},"federalState":{"key":"03","name":"Niedersachsen"}},{"name":"3. Dwarsweg","postalCode":"26607","locality":"Aurich","municipality":{"key":"03452001","name":"Aurich, Stadt","type":"Stadt"},"district":{"key":"03452","name":"Aurich","type":"Landkreis"},"federalState":{"key":"03","name":"Niedersachsen"}},{"name":"3. Leegmoorweg","postalCode":"26607","locality":"Aurich","municipality":{"key":"03452001","name":"Aurich, Stadt","type":"Stadt"},"district":{"key":"03452","name":"Aurich","type":"Landkreis"},"federalState":{"key":"03","name":"Niedersachsen"}},{"name":"Aland","postalCode":"26529","locality":"Wirdum","municipality":{"key":"03452026","name":"Wirdum","type":"Kreisangehörige_Gemeinde"},"district":{"key":"03452","name":"Aurich","type":"Landkreis"},"federalState":{"key":"03","name":"Niedersachsen"}},{"name":"Am Dorfe","postalCode":"26529","locality":"Wirdum","municipality":{"key":"03452026","name":"Wirdum","type":"Kreisangehörige_Gemeinde"},"district":{"key":"03452","name":"Aurich","type":"Landkreis"},"federalState":{"key":"03","name":"Niedersachsen"}},{"name":"Am Gemeindezentrum","postalCode":"26529","locality":"Wirdum","municipality":{"key":"03452026","name":"Wirdum","type":"Kreisangehörige_Gemeinde"},"district":{"key":"03452","name":"Aurich","type":"Landkreis"},"federalState":{"key":"03","name":"Niedersachsen"}},{"name":"Am Löschteich","postalCode":"26529","locality":"Wirdum","municipality":{"key":"03452026","name":"Wirdum","type":"Kreisangehörige_Gemeinde"},"district":{"key":"03452","name":"Aurich","type":"Landkreis"},"federalState":{"key":"03","name":"Niedersachsen"}},{"name":"Am Spritzenhaus","postalCode":"26529","locality":"Wirdum","municipality":{"key":"03452026","name":"Wirdum","type":"Kreisangehörige_Gemeinde"},"district":{"key":"03452","name":"Aurich","type":"Landkreis"},"federalState":{"key":"03","name":"Niedersachsen"}},{"name":"Am Stig","postalCode":"26529","locality":"Wirdum","municipality":{"key":"03452026","name":"Wirdum","type":"Kreisangehörige_Gemeinde"},"district":{"key":"03452","name":"Aurich","type":"Landkreis"},"federalState":{"key":"03","name":"Niedersachsen"}},{"name":"Am Wendeplatz","postalCode":"26529","locality":"Wirdum","municipality":{"key":"03452026","name":"Wirdum","type":"Kreisangehörige_Gemeinde"},"district":{"key":"03452","name":"Aurich","type":"Landkreis"},"federalState":{"key":"03","name":"Niedersachsen"}},{"name":"An der Alten Schule","postalCode":"26529","locality":"Wirdum","municipality":{"key":"03452026","name":"Wirdum","type":"Kreisangehörige_Gemeinde"},"district":{"key":"03452","name":"Aurich","type":"Landkreis"},"federalState":{"key":"03","name":"Niedersachsen"}},{"name":"An der Kirche","postalCode":"26529","locality":"Wirdum","municipality":{"key":"03452026","name":"Wirdum","type":"Kreisangehörige_Gemeinde"},"district":{"key":"03452","name":"Aurich","type":"Landkreis"},"federalState":{"key":"03","name":"Niedersachsen"}},{"name":"Armenlandsweg","postalCode":"26529","locality":"Wirdum","municipality":{"key":"03452026","name":"Wirdum","type":"Kreisangehörige_Gemeinde"},"district":{"key":"03452","name":"Aurich","type":"Landkreis"},"federalState":{"key":"03","name":"Niedersachsen"}},{"name":"Balkweg","postalCode":"26529","locality":"Wirdum","municipality":{"key":"03452026","name":"Wirdum","type":"Kreisangehörige_Gemeinde"},"district":{"key":"03452","name":"Aurich","type":"Landkreis"},"federalState":{"key":"03","name":"Niedersachsen"}},{"name":"Biesterfeldweg","postalCode":"26529","locality":"Wirdum","municipality":{"key":"03452026","name":"Wirdum","type":"Kreisangehörige_Gemeinde"},"district":{"key":"03452","name":"Aurich","type":"Landkreis"},"federalState":{"key":"03","name":"Niedersachsen"}},{"name":"Bunderdeich","postalCode":"26529","locality":"Wirdum","municipality":{"key":"03452026","name":"Wirdum","type":"Kreisangehörige_Gemeinde"},"district":{"key":"03452","name":"Aurich","type":"Landkreis"},"federalState":{"key":"03","name":"Niedersachsen"}},{"name":"Carl-von-Ossietzky-Str.","postalCode":"26603","locality":"Aurich","municipality":{"key":"03452001","name":"Aurich, Stadt","type":"Stadt"},"district":{"key":"03452","name":"Aurich","type":"Landkreis"},"federalState":{"key":"03","name":"Niedersachsen"}},{"name":"Carolinengang","postalCode":"26603","locality":"Aurich","municipality":{"key":"03452001","name":"Aurich, Stadt","type":"Stadt"},"district":{"key":"03452","name":"Aurich","type":"Landkreis"},"federalState":{"key":"03","name":"Niedersachsen"}},{"name":"Cirksenastr.","postalCode":"26603","locality":"Aurich","municipality":{"key":"03452001","name":"Aurich, Stadt","type":"Stadt"},"district":{"key":"03452","name":"Aurich","type":"Landkreis"},"federalState":{"key":"03","name":"Niedersachsen"}},{"name":"Collmannsgang","postalCode":"26603","locality":"Aurich","municipality":{"key":"03452001","name":"Aurich, Stadt","type":"Stadt"},"district":{"key":"03452","name":"Aurich","type":"Landkreis"},"federalState":{"key":"03","name":"Niedersachsen"}},{"name":"Diekenshof","postalCode":"26529","locality":"Wirdum","municipality":{"key":"03452026","name":"Wirdum","type":"Kreisangehörige_Gemeinde"},"district":{"key":"03452","name":"Aurich","type":"Landkreis"},"federalState":{"key":"03","name":"Niedersachsen"}},{"name":"Dorfstr.","postalCode":"26529","locality":"Wirdum","municipality":{"key":"03452026","name":"Wirdum","type":"Kreisangehörige_Gemeinde"},"district":{"key":"03452","name":"Aurich","type":"Landkreis"},"federalState":{"key":"03","name":"Niedersachsen"}},{"name":"Emder Weg","postalCode":"26529","locality":"Wirdum","municipality":{"key":"03452026","name":"Wirdum","type":"Kreisangehörige_Gemeinde"},"district":{"key":"03452","name":"Aurich","type":"Landkreis"},"federalState":{"key":"03","name":"Niedersachsen"}},{"name":"Fief-Grasen-Weg","postalCode":"26529","locality":"Wirdum","municipality":{"key":"03452026","name":"Wirdum","type":"Kreisangehörige_Gemeinde"},"district":{"key":"03452","name":"Aurich","type":"Landkreis"},"federalState":{"key":"03","name":"Niedersachsen"}},{"name":"Greedeweg","postalCode":"26529","locality":"Wirdum","municipality":{"key":"03452026","name":"Wirdum","type":"Kreisangehörige_Gemeinde"},"district":{"key":"03452","name":"Aurich","type":"Landkreis"},"federalState":{"key":"03","name":"Niedersachsen"}},{"name":"Grimersumer Str.","postalCode":"26529","locality":"Wirdum","municipality":{"key":"03452026","name":"Wirdum","type":"Kreisangehörige_Gemeinde"},"district":{"key":"03452","name":"Aurich","type":"Landkreis"},"federalState":{"key":"03","name":"Niedersachsen"}},{"name":"Heifennenweg","postalCode":"26529","locality":"Wirdum","municipality":{"key":"03452026","name":"Wirdum","type":"Kreisangehörige_Gemeinde"},"district":{"key":"03452","name":"Aurich","type":"Landkreis"},"federalState":{"key":"03","name":"Niedersachsen"}},{"name":"Ihlower Weg","postalCode":"26605","locality":"Aurich","municipality":{"key":"03452001","name":"Aurich, Stadt","type":"Stadt"},"district":{"key":"03452","name":"Aurich","type":"Landkreis"},"federalState":{"key":"03","name":"Niedersachsen"}},{"name":"Ihmermeedenweg","postalCode":"26607","locality":"Aurich","municipality":{"key":"03452001","name":"Aurich, Stadt","type":"Stadt"},"district":{"key":"03452","name":"Aurich","type":"Landkreis"},"federalState":{"key":"03","name":"Niedersachsen"}},{"name":"Iltisweg","postalCode":"26603","locality":"Aurich","municipality":{"key":"03452001","name":"Aurich, Stadt","type":"Stadt"},"district":{"key":"03452","name":"Aurich","type":"Landkreis"},"federalState":{"key":"03","name":"Niedersachsen"}},{"name":"Im Alten Moor","postalCode":"26605","locality":"Aurich","municipality":{"key":"03452001","name":"Aurich, Stadt","type":"Stadt"},"district":{"key":"03452","name":"Aurich","type":"Landkreis"},"federalState":{"key":"03","name":"Niedersachsen"}},{"name":"Im Beeholt","postalCode":"26605","locality":"Aurich","municipality":{"key":"03452001","name":"Aurich, Stadt","type":"Stadt"},"district":{"key":"03452","name":"Aurich","type":"Landkreis"},"federalState":{"key":"03","name":"Niedersachsen"}},{"name":"Im Birkengrund","postalCode":"26605","locality":"Aurich","municipality":{"key":"03452001","name":"Aurich, Stadt","type":"Stadt"},"district":{"key":"03452","name":"Aurich","type":"Landkreis"},"federalState":{"key":"03","name":"Niedersachsen"}},{"name":"Imbuschweg","postalCode":"26605","locality":"Aurich","municipality":{"key":"03452001","name":"Aurich, Stadt","type":"Stadt"},"district":{"key":"03452","name":"Aurich","type":"Landkreis"},"federalState":{"key":"03","name":"Niedersachsen"}},{"name":"Im Dorfe","postalCode":"26607","locality":"Aurich","municipality":{"key":"03452001","name":"Aurich, Stadt","type":"Stadt"},"district":{"key":"03452","name":"Aurich","type":"Landkreis"},"federalState":{"key":"03","name":"Niedersachsen"}},{"name":"Im Eickebusch","postalCode":"26603","locality":"Aurich","municipality":{"key":"03452001","name":"Aurich, Stadt","type":"Stadt"},"district":{"key":"03452","name":"Aurich","type":"Landkreis"},"federalState":{"key":"03","name":"Niedersachsen"}},{"name":"Im Ellerkenbusch","postalCode":"26607","locality":"Aurich","municipality":{"key":"03452001","name":"Aurich, Stadt","type":"Stadt"},"district":{"key":"03452","name":"Aurich","type":"Landkreis"},"federalState":{"key":"03","name":"Niedersachsen"}},{"name":"Im Extumer Hammrich","postalCode":"26605","locality":"Aurich","municipality":{"key":"03452001","name":"Aurich, Stadt","type":"Stadt"},"district":{"key":"03452","name":"Aurich","type":"Landkreis"},"federalState":{"key":"03","name":"Niedersachsen"}},{"name":"Im Flachsmeer","postalCode":"26605","locality":"Aurich","municipality":{"key":"03452001","name":"Aurich, Stadt","type":"Stadt"},"district":{"key":"03452","name":"Aurich","type":"Landkreis"},"federalState":{"key":"03","name":"Niedersachsen"}},{"name":"Im Hagenkamp","postalCode":"26607","locality":"Aurich","municipality":{"key":"03452001","name":"Aurich, Stadt","type":"Stadt"},"district":{"key":"03452","name":"Aurich","type":"Landkreis"},"federalState":{"key":"03","name":"Niedersachsen"}},{"name":"Im Halg","postalCode":"26605","locality":"Aurich","municipality":{"key":"03452001","name":"Aurich, Stadt","type":"Stadt"},"district":{"key":"03452","name":"Aurich","type":"Landkreis"},"federalState":{"key":"03","name":"Niedersachsen"}},{"name":"Im Hammrich","postalCode":"26603","locality":"Aurich","municipality":{"key":"03452001","name":"Aurich, Stadt","type":"Stadt"},"district":{"key":"03452","name":"Aurich","type":"Landkreis"},"federalState":{"key":"03","name":"Niedersachsen"}},{"name":"Im Heidkamp","postalCode":"26605","locality":"Aurich","municipality":{"key":"03452001","name":"Aurich, Stadt","type":"Stadt"},"district":{"key":"03452","name":"Aurich","type":"Landkreis"},"federalState":{"key":"03","name":"Niedersachsen"}},{"name":"Im Hook","postalCode":"26605","locality":"Aurich","municipality":{"key":"03452001","name":"Aurich, Stadt","type":"Stadt"},"district":{"key":"03452","name":"Aurich","type":"Landkreis"},"federalState":{"key":"03","name":"Niedersachsen"}},{"name":"Im Kamp","postalCode":"26605","locality":"Aurich","municipality":{"key":"03452001","name":"Aurich, Stadt","type":"Stadt"},"district":{"key":"03452","name":"Aurich","type":"Landkreis"},"federalState":{"key":"03","name":"Niedersachsen"}},{"name":"Im Kieferngrund","postalCode":"26605","locality":"Aurich","municipality":{"key":"03452001","name":"Aurich, Stadt","type":"Stadt"},"district":{"key":"03452","name":"Aurich","type":"Landkreis"},"federalState":{"key":"03","name":"Niedersachsen"}},{"name":"Im Leegland","postalCode":"26605","locality":"Aurich","municipality":{"key":"03452001","name":"Aurich, Stadt","type":"Stadt"},"district":{"key":"03452","name":"Aurich","type":"Landkreis"},"federalState":{"key":"03","name":"Niedersachsen"}},{"name":"Im Loog","postalCode":"26607","locality":"Aurich","municipality":{"key":"03452001","name":"Aurich, Stadt","type":"Stadt"},"district":{"key":"03452","name":"Aurich","type":"Landkreis"},"federalState":{"key":"03","name":"Niedersachsen"}},{"name":"Im Meerhusener Moor","postalCode":"26607","locality":"Aurich","municipality":{"key":"03452001","name":"Aurich, Stadt","type":"Stadt"},"district":{"key":"03452","name":"Aurich","type":"Landkreis"},"federalState":{"key":"03","name":"Niedersachsen"}},{"name":"Im Neuen Moor","postalCode":"26605","locality":"Aurich","municipality":{"key":"03452001","name":"Aurich, Stadt","type":"Stadt"},"district":{"key":"03452","name":"Aurich","type":"Landkreis"},"federalState":{"key":"03","name":"Niedersachsen"}},{"name":"Im Osterloog","postalCode":"26607","locality":"Aurich","municipality":{"key":"03452001","name":"Aurich, Stadt","type":"Stadt"},"district":{"key":"03452","name":"Aurich","type":"Landkreis"},"federalState":{"key":"03","name":"Niedersachsen"}},{"name":"Im Ostermoor","postalCode":"26605","locality":"Aurich","municipality":{"key":"03452001","name":"Aurich, Stadt","type":"Stadt"},"district":{"key":"03452","name":"Aurich","type":"Landkreis"},"federalState":{"key":"03","name":"Niedersachsen"}},{"name":"Im Pulvermoor","postalCode":"26607","locality":"Aurich","municipality":{"key":"03452001","name":"Aurich, Stadt","type":"Stadt"},"district":{"key":"03452","name":"Aurich","type":"Landkreis"},"federalState":{"key":"03","name":"Niedersachsen"}},{"name":"Im Tannengrund","postalCode":"26605","locality":"Aurich","municipality":{"key":"03452001","name":"Aurich, Stadt","type":"Stadt"},"district":{"key":"03452","name":"Aurich","type":"Landkreis"},"federalState":{"key":"03","name":"Niedersachsen"}},{"name":"Im Timp","postalCode":"26605","locality":"Aurich","municipality":{"key":"03452001","name":"Aurich, Stadt","type":"Stadt"},"district":{"key":"03452","name":"Aurich","type":"Landkreis"},"federalState":{"key":"03","name":"Niedersachsen"}},{"name":"Im Weißen Moor","postalCode":"26607","locality":"Aurich","municipality":{"key":"03452001","name":"Aurich, Stadt","type":"Stadt"},"district":{"key":"03452","name":"Aurich","type":"Landkreis"},"federalState":{"key":"03","name":"Niedersachsen"}},{"name":"Im Westerfeld","postalCode":"26605","locality":"Aurich","municipality":{"key":"03452001","name":"Aurich, Stadt","type":"Stadt"},"district":{"key":"03452","name":"Aurich","type":"Landkreis"},"federalState":{"key":"03","name":"Niedersachsen"}},{"name":"Im Westermoor","postalCode":"26605","locality":"Aurich","municipality":{"key":"03452001","name":"Aurich, Stadt","type":"Stadt"},"district":{"key":"03452","name":"Aurich","type":"Landkreis"},"federalState":{"key":"03","name":"Niedersachsen"}},{"name":"Im Winkel","postalCode":"26603","locality":"Aurich","municipality":{"key":"03452001","name":"Aurich, Stadt","type":"Stadt"},"district":{"key":"03452","name":"Aurich","type":"Landkreis"},"federalState":{"key":"03","name":"Niedersachsen"}},{"name":"In den Wolden","postalCode":"26607","locality":"Aurich","municipality":{"key":"03452001","name":"Aurich, Stadt","type":"Stadt"},"district":{"key":"03452","name":"Aurich","type":"Landkreis"},"federalState":{"key":"03","name":"Niedersachsen"}},{"name":"Ingrid-Buck-Str.","postalCode":"26605","locality":"Aurich","municipality":{"key":"03452001","name":"Aurich, Stadt","type":"Stadt"},"district":{"key":"03452","name":"Aurich","type":"Landkreis"},"federalState":{"key":"03","name":"Niedersachsen"}},{"name":"Insterburger Str.","postalCode":"26603","locality":"Aurich","municipality":{"key":"03452001","name":"Aurich, Stadt","type":"Stadt"},"district":{"key":"03452","name":"Aurich","type":"Landkreis"},"federalState":{"key":"03","name":"Niedersachsen"}},{"name":"Jadestr.","postalCode":"26605","locality":"Aurich","municipality":{"key":"03452001","name":"Aurich, Stadt","type":"Stadt"},"district":{"key":"03452","name":"Aurich","type":"Landkreis"},"federalState":{"key":"03","name":"Niedersachsen"}},{"name":"Jagdweg","postalCode":"26605","locality":"Aurich","municipality":{"key":"03452001","name":"Aurich, Stadt","type":"Stadt"},"district":{"key":"03452","name":"Aurich","type":"Landkreis"},"federalState":{"key":"03","name":"Niedersachsen"}},{"name":"Jägerstr.","postalCode":"26607","locality":"Aurich","municipality":{"key":"03452001","name":"Aurich, Stadt","type":"Stadt"},"district":{"key":"03452","name":"Aurich","type":"Landkreis"},"federalState":{"key":"03","name":"Niedersachsen"}},{"name":"Jahnstr.","postalCode":"26603","locality":"Aurich","municipality":{"key":"03452001","name":"Aurich, Stadt","type":"Stadt"},"district":{"key":"03452","name":"Aurich","type":"Landkreis"},"federalState":{"key":"03","name":"Niedersachsen"}},{"name":"Jann-Berghaus-Str.","postalCode":"26603","locality":"Aurich","municipality":{"key":"03452001","name":"Aurich, Stadt","type":"Stadt"},"district":{"key":"03452","name":"Aurich","type":"Landkreis"},"federalState":{"key":"03","name":"Niedersachsen"}},{"name":"Johannes-Diekhoff-Str.","postalCode":"26605","locality":"Aurich","municipality":{"key":"03452001","name":"Aurich, Stadt","type":"Stadt"},"district":{"key":"03452","name":"Aurich","type":"Landkreis"},"federalState":{"key":"03","name":"Niedersachsen"}},{"name":"Juiststr.","postalCode":"26603","locality":"Aurich","municipality":{"key":"03452001","name":"Aurich, Stadt","type":"Stadt"},"district":{"key":"03452","name":"Aurich","type":"Landkreis"},"federalState":{"key":"03","name":"Niedersachsen"}},{"name":"Julianenburger Str.","postalCode":"26603","locality":"Aurich","municipality":{"key":"03452001","name":"Aurich, Stadt","type":"Stadt"},"district":{"key":"03452","name":"Aurich","type":"Landkreis"},"federalState":{"key":"03","name":"Niedersachsen"}},{"name":"Jümmestr.","postalCode":"26605","locality":"Aurich","municipality":{"key":"03452001","name":"Aurich, Stadt","type":"Stadt"},"district":{"key":"03452","name":"Aurich","type":"Landkreis"},"federalState":{"key":"03","name":"Niedersachsen"}},{"name":"Kiel","postalCode":"26529","locality":"Wirdum","municipality":{"key":"03452026","name":"Wirdum","type":"Kreisangehörige_Gemeinde"},"district":{"key":"03452","name":"Aurich","type":"Landkreis"},"federalState":{"key":"03","name":"Niedersachsen"}},{"name":"Kirchlohne","postalCode":"26529","locality":"Wirdum","municipality":{"key":"03452026","name":"Wirdum","type":"Kreisangehörige_Gemeinde"},"district":{"key":"03452","name":"Aurich","type":"Landkreis"},"federalState":{"key":"03","name":"Niedersachsen"}},{"name":"Kirchwarfenweg","postalCode":"26529","locality":"Wirdum","municipality":{"key":"03452026","name":"Wirdum","type":"Kreisangehörige_Gemeinde"},"district":{"key":"03452","name":"Aurich","type":"Landkreis"},"federalState":{"key":"03","name":"Niedersachsen"}},{"name":"Kuhfennenweg","postalCode":"26529","locality":"Wirdum","municipality":{"key":"03452026","name":"Wirdum","type":"Kreisangehörige_Gemeinde"},"district":{"key":"03452","name":"Aurich","type":"Landkreis"},"federalState":{"key":"03","name":"Niedersachsen"}},{"name":"Loppersumer Str.","postalCode":"26529","locality":"Wirdum","municipality":{"key":"03452026","name":"Wirdum","type":"Kreisangehörige_Gemeinde"},"district":{"key":"03452","name":"Aurich","type":"Landkreis"},"federalState":{"key":"03","name":"Niedersachsen"}},{"name":"Marienhafer Str.","postalCode":"26529","locality":"Wirdum","municipality":{"key":"03452026","name":"Wirdum","type":"Kreisangehörige_Gemeinde"},"district":{"key":"03452","name":"Aurich","type":"Landkreis"},"federalState":{"key":"03","name":"Niedersachsen"}},{"name":"Meestertun","postalCode":"26529","locality":"Wirdum","municipality":{"key":"03452026","name":"Wirdum","type":"Kreisangehörige_Gemeinde"},"district":{"key":"03452","name":"Aurich","type":"Landkreis"},"federalState":{"key":"03","name":"Niedersachsen"}},{"name":"Neulander Weg","postalCode":"26529","locality":"Wirdum","municipality":{"key":"03452026","name":"Wirdum","type":"Kreisangehörige_Gemeinde"},"district":{"key":"03452","name":"Aurich","type":"Landkreis"},"federalState":{"key":"03","name":"Niedersachsen"}},{"name":"Nordlohne","postalCode":"26529","locality":"Wirdum","municipality":{"key":"03452026","name":"Wirdum","type":"Kreisangehörige_Gemeinde"},"district":{"key":"03452","name":"Aurich","type":"Landkreis"},"federalState":{"key":"03","name":"Niedersachsen"}},{"name":"Ostlohne","postalCode":"26529","locality":"Wirdum","municipality":{"key":"03452026","name":"Wirdum","type":"Kreisangehörige_Gemeinde"},"district":{"key":"03452","name":"Aurich","type":"Landkreis"},"federalState":{"key":"03","name":"Niedersachsen"}},{"name":"Padkamp","postalCode":"26605","locality":"Aurich","municipality":{"key":"03452001","name":"Aurich, Stadt","type":"Stadt"},"district":{"key":"03452","name":"Aurich","type":"Landkreis"},"federalState":{"key":"03","name":"Niedersachsen"}},{"name":"Pappelweg","postalCode":"26605","locality":"Aurich","municipality":{"key":"03452001","name":"Aurich, Stadt","type":"Stadt"},"district":{"key":"03452","name":"Aurich","type":"Landkreis"},"federalState":{"key":"03","name":"Niedersachsen"}},{"name":"Park Haxtum","postalCode":"26605","locality":"Aurich","municipality":{"key":"03452001","name":"Aurich, Stadt","type":"Stadt"},"district":{"key":"03452","name":"Aurich","type":"Landkreis"},"federalState":{"key":"03","name":"Niedersachsen"}},{"name":"Parkstr.","postalCode":"26605","locality":"Aurich","municipality":{"key":"03452001","name":"Aurich, Stadt","type":"Stadt"},"district":{"key":"03452","name":"Aurich","type":"Landkreis"},"federalState":{"key":"03","name":"Niedersachsen"}},{"name":"Pechfennenweg","postalCode":"26605","locality":"Aurich","municipality":{"key":"03452001","name":"Aurich, Stadt","type":"Stadt"},"district":{"key":"03452","name":"Aurich","type":"Landkreis"},"federalState":{"key":"03","name":"Niedersachsen"}},{"name":"Peerkuhl","postalCode":"26605","locality":"Aurich","municipality":{"key":"03452001","name":"Aurich, Stadt","type":"Stadt"},"district":{"key":"03452","name":"Aurich","type":"Landkreis"},"federalState":{"key":"03","name":"Niedersachsen"}},{"name":"Pfalzdorfer Str.","postalCode":"26607","locality":"Aurich","municipality":{"key":"03452001","name":"Aurich, Stadt","type":"Stadt"},"district":{"key":"03452","name":"Aurich","type":"Landkreis"},"federalState":{"key":"03","name":"Niedersachsen"}},{"name":"Pfälzerstr.","postalCode":"26607","locality":"Aurich","municipality":{"key":"03452001","name":"Aurich, Stadt","type":"Stadt"},"district":{"key":"03452","name":"Aurich","type":"Landkreis"},"federalState":{"key":"03","name":"Niedersachsen"}},{"name":"Pfauenweg","postalCode":"26603","locality":"Aurich","municipality":{"key":"03452001","name":"Aurich, Stadt","type":"Stadt"},"district":{"key":"03452","name":"Aurich","type":"Landkreis"},"federalState":{"key":"03","name":"Niedersachsen"}},{"name":"Pferdekoppel","postalCode":"26605","locality":"Aurich","municipality":{"key":"03452001","name":"Aurich, Stadt","type":"Stadt"},"district":{"key":"03452","name":"Aurich","type":"Landkreis"},"federalState":{"key":"03","name":"Niedersachsen"}},{"name":"Piepmortenweg","postalCode":"26607","locality":"Aurich","municipality":{"key":"03452001","name":"Aurich, Stadt","type":"Stadt"},"district":{"key":"03452","name":"Aurich","type":"Landkreis"},"federalState":{"key":"03","name":"Niedersachsen"}},{"name":"Pillauer Str.","postalCode":"26603","locality":"Aurich","municipality":{"key":"03452001","name":"Aurich, Stadt","type":"Stadt"},"district":{"key":"03452","name":"Aurich","type":"Landkreis"},"federalState":{"key":"03","name":"Niedersachsen"}},{"name":"Plackweg","postalCode":"26605","locality":"Aurich","municipality":{"key":"03452001","name":"Aurich, Stadt","type":"Stadt"},"district":{"key":"03452","name":"Aurich","type":"Landkreis"},"federalState":{"key":"03","name":"Niedersachsen"}},{"name":"Pollerweg","postalCode":"26607","locality":"Aurich","municipality":{"key":"03452001","name":"Aurich, Stadt","type":"Stadt"},"district":{"key":"03452","name":"Aurich","type":"Landkreis"},"federalState":{"key":"03","name":"Niedersachsen"}},{"name":"Pommernweg","postalCode":"26603","locality":"Aurich","municipality":{"key":"03452001","name":"Aurich, Stadt","type":"Stadt"},"district":{"key":"03452","name":"Aurich","type":"Landkreis"},"federalState":{"key":"03","name":"Niedersachsen"}},{"name":"Popenser Str.","postalCode":"26603","locality":"Aurich","municipality":{"key":"03452001","name":"Aurich, Stadt","type":"Stadt"},"district":{"key":"03452","name":"Aurich","type":"Landkreis"},"federalState":{"key":"03","name":"Niedersachsen"}},{"name":"Popenser Str.","postalCode":"26605","locality":"Aurich","municipality":{"key":"03452001","name":"Aurich, Stadt","type":"Stadt"},"district":{"key":"03452","name":"Aurich","type":"Landkreis"},"federalState":{"key":"03","name":"Niedersachsen"}},{"name":"Pottackerring","postalCode":"26605","locality":"Aurich","municipality":{"key":"03452001","name":"Aurich, Stadt","type":"Stadt"},"district":{"key":"03452","name":"Aurich","type":"Landkreis"},"federalState":{"key":"03","name":"Niedersachsen"}},{"name":"Preiselbeerweg","postalCode":"26605","locality":"Aurich","municipality":{"key":"03452001","name":"Aurich, Stadt","type":"Stadt"},"district":{"key":"03452","name":"Aurich","type":"Landkreis"},"federalState":{"key":"03","name":"Niedersachsen"}},{"name":"Prinz-Ratibor-Str.","postalCode":"26605","locality":"Aurich","municipality":{"key":"03452001","name":"Aurich, Stadt","type":"Stadt"},"district":{"key":"03452","name":"Aurich","type":"Landkreis"},"federalState":{"key":"03","name":"Niedersachsen"}},{"name":"Quembarger Weg","postalCode":"26607","locality":"Aurich","municipality":{"key":"03452001","name":"Aurich, Stadt","type":"Stadt"},"district":{"key":"03452","name":"Aurich","type":"Landkreis"},"federalState":{"key":"03","name":"Niedersachsen"}},{"name":"Querweg","postalCode":"26605","locality":"Aurich","municipality":{"key":"03452001","name":"Aurich, Stadt","type":"Stadt"},"district":{"key":"03452","name":"Aurich","type":"Landkreis"},"federalState":{"key":"03","name":"Niedersachsen"}},{"name":"Radbodstr.","postalCode":"26603","locality":"Aurich","municipality":{"key":"03452001","name":"Aurich, Stadt","type":"Stadt"},"district":{"key":"03452","name":"Aurich","type":"Landkreis"},"federalState":{"key":"03","name":"Niedersachsen"}},{"name":"Raher Str.","postalCode":"26605","locality":"Aurich","municipality":{"key":"03452001","name":"Aurich, Stadt","type":"Stadt"},"district":{"key":"03452","name":"Aurich","type":"Landkreis"},"federalState":{"key":"03","name":"Niedersachsen"}},{"name":"Rahester Moor","postalCode":"26605","locality":"Aurich","municipality":{"key":"03452001","name":"Aurich, Stadt","type":"Stadt"},"district":{"key":"03452","name":"Aurich","type":"Landkreis"},"federalState":{"key":"03","name":"Niedersachsen"}},{"name":"Rahester Postweg","postalCode":"26605","locality":"Aurich","municipality":{"key":"03452001","name":"Aurich, Stadt","type":"Stadt"},"district":{"key":"03452","name":"Aurich","type":"Landkreis"},"federalState":{"key":"03","name":"Niedersachsen"}},{"name":"Rahester Verlaat","postalCode":"26605","locality":"Aurich","municipality":{"key":"03452001","name":"Aurich, Stadt","type":"Stadt"},"district":{"key":"03452","name":"Aurich","type":"Landkreis"},"federalState":{"key":"03","name":"Niedersachsen"}},{"name":"Raiffeisenstr.","postalCode":"26603","locality":"Aurich","municipality":{"key":"03452001","name":"Aurich, Stadt","type":"Stadt"},"district":{"key":"03452","name":"Aurich","type":"Landkreis"},"federalState":{"key":"03","name":"Niedersachsen"}},{"name":"Raperieweg","postalCode":"26607","locality":"Aurich","municipality":{"key":"03452001","name":"Aurich, Stadt","type":"Stadt"},"district":{"key":"03452","name":"Aurich","type":"Landkreis"},"federalState":{"key":"03","name":"Niedersachsen"}},{"name":"Rathausgang","postalCode":"26603","locality":"Aurich","municipality":{"key":"03452001","name":"Aurich, Stadt","type":"Stadt"},"district":{"key":"03452","name":"Aurich","type":"Landkreis"},"federalState":{"key":"03","name":"Niedersachsen"}},{"name":"Recha-Freier-Str.","postalCode":"26605","locality":"Aurich","municipality":{"key":"03452001","name":"Aurich, Stadt","type":"Stadt"},"district":{"key":"03452","name":"Aurich","type":"Landkreis"},"federalState":{"key":"03","name":"Niedersachsen"}},{"name":"Rehweg","postalCode":"26607","locality":"Aurich","municipality":{"key":"03452001","name":"Aurich, Stadt","type":"Stadt"},"district":{"key":"03452","name":"Aurich","type":"Landkreis"},"federalState":{"key":"03","name":"Niedersachsen"}},{"name":"Reiherweg","postalCode":"26603","locality":"Aurich","municipality":{"key":"03452001","name":"Aurich, Stadt","type":"Stadt"},"district":{"key":"03452","name":"Aurich","type":"Landkreis"},"federalState":{"key":"03","name":"Niedersachsen"}},{"name":"Reilstr.","postalCode":"26603","locality":"Aurich","municipality":{"key":"03452001","name":"Aurich, Stadt","type":"Stadt"},"district":{"key":"03452","name":"Aurich","type":"Landkreis"},"federalState":{"key":"03","name":"Niedersachsen"}},{"name":"Reitkampsweg","postalCode":"26607","locality":"Aurich","municipality":{"key":"03452001","name":"Aurich, Stadt","type":"Stadt"},"district":{"key":"03452","name":"Aurich","type":"Landkreis"},"federalState":{"key":"03","name":"Niedersachsen"}},{"name":"Rhododendronstr.","postalCode":"26605","locality":"Aurich","municipality":{"key":"03452001","name":"Aurich, Stadt","type":"Stadt"},"district":{"key":"03452","name":"Aurich","type":"Landkreis"},"federalState":{"key":"03","name":"Niedersachsen"}},{"name":"Ricklefsche Trift","postalCode":"26607","locality":"Aurich","municipality":{"key":"03452001","name":"Aurich, Stadt","type":"Stadt"},"district":{"key":"03452","name":"Aurich","type":"Landkreis"},"federalState":{"key":"03","name":"Niedersachsen"}},{"name":"Ringstr.","postalCode":"26605","locality":"Aurich","municipality":{"key":"03452001","name":"Aurich, Stadt","type":"Stadt"},"district":{"key":"03452","name":"Aurich","type":"Landkreis"},"federalState":{"key":"03","name":"Niedersachsen"}},{"name":"Robert-Koch-Str.","postalCode":"26607","locality":"Aurich","municipality":{"key":"03452001","name":"Aurich, Stadt","type":"Stadt"},"district":{"key":"03452","name":"Aurich","type":"Landkreis"},"federalState":{"key":"03","name":"Niedersachsen"}},{"name":"Rockerstrift","postalCode":"26607","locality":"Aurich","municipality":{"key":"03452001","name":"Aurich, Stadt","type":"Stadt"},"district":{"key":"03452","name":"Aurich","type":"Landkreis"},"federalState":{"key":"03","name":"Niedersachsen"}},{"name":"Rode","postalCode":"26605","locality":"Aurich","municipality":{"key":"03452001","name":"Aurich, Stadt","type":"Stadt"},"district":{"key":"03452","name":"Aurich","type":"Landkreis"},"federalState":{"key":"03","name":"Niedersachsen"}},{"name":"Roggenweg","postalCode":"26605","locality":"Aurich","municipality":{"key":"03452001","name":"Aurich, Stadt","type":"Stadt"},"district":{"key":"03452","name":"Aurich","type":"Landkreis"},"federalState":{"key":"03","name":"Niedersachsen"}},{"name":"Rohmweg","postalCode":"26607","locality":"Aurich","municipality":{"key":"03452001","name":"Aurich, Stadt","type":"Stadt"},"district":{"key":"03452","name":"Aurich","type":"Landkreis"},"federalState":{"key":"03","name":"Niedersachsen"}},{"name":"Röntgenstr.","postalCode":"26607","locality":"Aurich","municipality":{"key":"03452001","name":"Aurich, Stadt","type":"Stadt"},"district":{"key":"03452","name":"Aurich","type":"Landkreis"},"federalState":{"key":"03","name":"Niedersachsen"}},{"name":"Rosbarger Weg","postalCode":"26607","locality":"Aurich","municipality":{"key":"03452001","name":"Aurich, Stadt","type":"Stadt"},"district":{"key":"03452","name":"Aurich","type":"Landkreis"},"federalState":{"key":"03","name":"Niedersachsen"}},{"name":"Rosenstr.","postalCode":"26605","locality":"Aurich","municipality":{"key":"03452001","name":"Aurich, Stadt","type":"Stadt"},"district":{"key":"03452","name":"Aurich","type":"Landkreis"},"federalState":{"key":"03","name":"Niedersachsen"}},{"name":"Roßkamp","postalCode":"26605","locality":"Aurich","municipality":{"key":"03452001","name":"Aurich, Stadt","type":"Stadt"},"district":{"key":"03452","name":"Aurich","type":"Landkreis"},"federalState":{"key":"03","name":"Niedersachsen"}},{"name":"Roßmüllersweg","postalCode":"26605","locality":"Aurich","municipality":{"key":"03452001","name":"Aurich, Stadt","type":"Stadt"},"district":{"key":"03452","name":"Aurich","type":"Landkreis"},"federalState":{"key":"03","name":"Niedersachsen"}},{"name":"Rotdornstr.","postalCode":"26607","locality":"Aurich","municipality":{"key":"03452001","name":"Aurich, Stadt","type":"Stadt"},"district":{"key":"03452","name":"Aurich","type":"Landkreis"},"federalState":{"key":"03","name":"Niedersachsen"}},{"name":"Roter Weg","postalCode":"26605","locality":"Aurich","municipality":{"key":"03452001","name":"Aurich, Stadt","type":"Stadt"},"district":{"key":"03452","name":"Aurich","type":"Landkreis"},"federalState":{"key":"03","name":"Niedersachsen"}},{"name":"Rotsandweg","postalCode":"26605","locality":"Aurich","municipality":{"key":"03452001","name":"Aurich, Stadt","type":"Stadt"},"district":{"key":"03452","name":"Aurich","type":"Landkreis"},"federalState":{"key":"03","name":"Niedersachsen"}},{"name":"Rudolf-Eucken-Allee","postalCode":"26603","locality":"Aurich","municipality":{"key":"03452001","name":"Aurich, Stadt","type":"Stadt"},"district":{"key":"03452","name":"Aurich","type":"Landkreis"},"federalState":{"key":"03","name":"Niedersachsen"}},{"name":"Rundweg","postalCode":"26603","locality":"Aurich","municipality":{"key":"03452001","name":"Aurich, Stadt","type":"Stadt"},"district":{"key":"03452","name":"Aurich","type":"Landkreis"},"federalState":{"key":"03","name":"Niedersachsen"}},{"name":"Rüskenpad","postalCode":"26607","locality":"Aurich","municipality":{"key":"03452001","name":"Aurich, Stadt","type":"Stadt"},"district":{"key":"03452","name":"Aurich","type":"Landkreis"},"federalState":{"key":"03","name":"Niedersachsen"}},{"name":"Rußland","postalCode":"26605","locality":"Aurich","municipality":{"key":"03452001","name":"Aurich, Stadt","type":"Stadt"},"district":{"key":"03452","name":"Aurich","type":"Landkreis"},"federalState":{"key":"03","name":"Niedersachsen"}},{"name":"Schoonorther Kreisstr.","postalCode":"26529","locality":"Wirdum","municipality":{"key":"03452026","name":"Wirdum","type":"Kreisangehörige_Gemeinde"},"district":{"key":"03452","name":"Aurich","type":"Landkreis"},"federalState":{"key":"03","name":"Niedersachsen"}},{"name":"Schoonorther Str.","postalCode":"26529","locality":"Wirdum","municipality":{"key":"03452026","name":"Wirdum","type":"Kreisangehörige_Gemeinde"},"district":{"key":"03452","name":"Aurich","type":"Landkreis"},"federalState":{"key":"03","name":"Niedersachsen"}},{"name":"Siedlerweg","postalCode":"26529","locality":"Wirdum","municipality":{"key":"03452026","name":"Wirdum","type":"Kreisangehörige_Gemeinde"},"district":{"key":"03452","name":"Aurich","type":"Landkreis"},"federalState":{"key":"03","name":"Niedersachsen"}},{"name":"Stipendiumsweg","postalCode":"26529","locality":"Wirdum","municipality":{"key":"03452026","name":"Wirdum","type":"Kreisangehörige_Gemeinde"},"district":{"key":"03452","name":"Aurich","type":"Landkreis"},"federalState":{"key":"03","name":"Niedersachsen"}},{"name":"Südlohne","postalCode":"26529","locality":"Wirdum","municipality":{"key":"03452026","name":"Wirdum","type":"Kreisangehörige_Gemeinde"},"district":{"key":"03452","name":"Aurich","type":"Landkreis"},"federalState":{"key":"03","name":"Niedersachsen"}},{"name":"Transformatorenweg","postalCode":"26529","locality":"Wirdum","municipality":{"key":"03452026","name":"Wirdum","type":"Kreisangehörige_Gemeinde"},"district":{"key":"03452","name":"Aurich","type":"Landkreis"},"federalState":{"key":"03","name":"Niedersachsen"}},{"name":"Treckpad","postalCode":"26529","locality":"Wirdum","municipality":{"key":"03452026","name":"Wirdum","type":"Kreisangehörige_Gemeinde"},"district":{"key":"03452","name":"Aurich","type":"Landkreis"},"federalState":{"key":"03","name":"Niedersachsen"}},{"name":"Ubbo-Emmius-Str.","postalCode":"26603","locality":"Aurich","municipality":{"key":"03452001","name":"Aurich, Stadt","type":"Stadt"},"district":{"key":"03452","name":"Aurich","type":"Landkreis"},"federalState":{"key":"03","name":"Niedersachsen"}},{"name":"Ukenastr.","postalCode":"26603","locality":"Aurich","municipality":{"key":"03452001","name":"Aurich, Stadt","type":"Stadt"},"district":{"key":"03452","name":"Aurich","type":"Landkreis"},"federalState":{"key":"03","name":"Niedersachsen"}},{"name":"Ulenmoorweg","postalCode":"26603","locality":"Aurich","municipality":{"key":"03452001","name":"Aurich, Stadt","type":"Stadt"},"district":{"key":"03452","name":"Aurich","type":"Landkreis"},"federalState":{"key":"03","name":"Niedersachsen"}},{"name":"Unlander Weg","postalCode":"26605","locality":"Aurich","municipality":{"key":"03452001","name":"Aurich, Stadt","type":"Stadt"},"district":{"key":"03452","name":"Aurich","type":"Landkreis"},"federalState":{"key":"03","name":"Niedersachsen"}},{"name":"Unterfanke","postalCode":"26605","locality":"Aurich","municipality":{"key":"03452001","name":"Aurich, Stadt","type":"Stadt"},"district":{"key":"03452","name":"Aurich","type":"Landkreis"},"federalState":{"key":"03","name":"Niedersachsen"}},{"name":"Up Höcht","postalCode":"26605","locality":"Aurich","municipality":{"key":"03452001","name":"Aurich, Stadt","type":"Stadt"},"district":{"key":"03452","name":"Aurich","type":"Landkreis"},"federalState":{"key":"03","name":"Niedersachsen"}},{"name":"Upt Gast","postalCode":"26607","locality":"Aurich","municipality":{"key":"03452001","name":"Aurich, Stadt","type":"Stadt"},"district":{"key":"03452","name":"Aurich","type":"Landkreis"},"federalState":{"key":"03","name":"Niedersachsen"}},{"name":"Upt Gorn","postalCode":"26607","locality":"Aurich","municipality":{"key":"03452001","name":"Aurich, Stadt","type":"Stadt"},"district":{"key":"03452","name":"Aurich","type":"Landkreis"},"federalState":{"key":"03","name":"Niedersachsen"}},{"name":"Utlandshörner Str.","postalCode":"26607","locality":"Aurich","municipality":{"key":"03452001","name":"Aurich, Stadt","type":"Stadt"},"district":{"key":"03452","name":"Aurich","type":"Landkreis"},"federalState":{"key":"03","name":"Niedersachsen"}},{"name":"Van Dell","postalCode":"26605","locality":"Aurich","municipality":{"key":"03452001","name":"Aurich, Stadt","type":"Stadt"},"district":{"key":"03452","name":"Aurich","type":"Landkreis"},"federalState":{"key":"03","name":"Niedersachsen"}},{"name":"Veerkchenweg","postalCode":"26605","locality":"Aurich","municipality":{"key":"03452001","name":"Aurich, Stadt","type":"Stadt"},"district":{"key":"03452","name":"Aurich","type":"Landkreis"},"federalState":{"key":"03","name":"Niedersachsen"}},{"name":"Viebenweg","postalCode":"26607","locality":"Aurich","municipality":{"key":"03452001","name":"Aurich, Stadt","type":"Stadt"},"district":{"key":"03452","name":"Aurich","type":"Landkreis"},"federalState":{"key":"03","name":"Niedersachsen"}},{"name":"Viehtrift","postalCode":"26607","locality":"Aurich","municipality":{"key":"03452001","name":"Aurich, Stadt","type":"Stadt"},"district":{"key":"03452","name":"Aurich","type":"Landkreis"},"federalState":{"key":"03","name":"Niedersachsen"}},{"name":"Virchowstr.","postalCode":"26607","locality":"Aurich","municipality":{"key":"03452001","name":"Aurich, Stadt","type":"Stadt"},"district":{"key":"03452","name":"Aurich","type":"Landkreis"},"federalState":{"key":"03","name":"Niedersachsen"}},{"name":"Voerkampstr.","postalCode":"26607","locality":"Aurich","municipality":{"key":"03452001","name":"Aurich, Stadt","type":"Stadt"},"district":{"key":"03452","name":"Aurich","type":"Landkreis"},"federalState":{"key":"03","name":"Niedersachsen"}},{"name":"Vogelbeerweg","postalCode":"26607","locality":"Aurich","municipality":{"key":"03452001","name":"Aurich, Stadt","type":"Stadt"},"district":{"key":"03452","name":"Aurich","type":"Landkreis"},"federalState":{"key":"03","name":"Niedersachsen"}},{"name":"Vögelwatersweg","postalCode":"26607","locality":"Aurich","municipality":{"key":"03452001","name":"Aurich, Stadt","type":"Stadt"},"district":{"key":"03452","name":"Aurich","type":"Landkreis"},"federalState":{"key":"03","name":"Niedersachsen"}},{"name":"Von-Bodelschwingh-Str.","postalCode":"26603","locality":"Aurich","municipality":{"key":"03452001","name":"Aurich, Stadt","type":"Stadt"},"district":{"key":"03452","name":"Aurich","type":"Landkreis"},"federalState":{"key":"03","name":"Niedersachsen"}},{"name":"Von-Derschau-Str.","postalCode":"26603","locality":"Aurich","municipality":{"key":"03452001","name":"Aurich, Stadt","type":"Stadt"},"district":{"key":"03452","name":"Aurich","type":"Landkreis"},"federalState":{"key":"03","name":"Niedersachsen"}},{"name":"Von-Frerichs-Str.","postalCode":"26603","locality":"Aurich","municipality":{"key":"03452001","name":"Aurich, Stadt","type":"Stadt"},"district":{"key":"03452","name":"Aurich","type":"Landkreis"},"federalState":{"key":"03","name":"Niedersachsen"}},{"name":"Von-Halem-Str.","postalCode":"26603","locality":"Aurich","municipality":{"key":"03452001","name":"Aurich, Stadt","type":"Stadt"},"district":{"key":"03452","name":"Aurich","type":"Landkreis"},"federalState":{"key":"03","name":"Niedersachsen"}},{"name":"Von-Jhering-Str.","postalCode":"26603","locality":"Aurich","municipality":{"key":"03452001","name":"Aurich, Stadt","type":"Stadt"},"district":{"key":"03452","name":"Aurich","type":"Landkreis"},"federalState":{"key":"03","name":"Niedersachsen"}},{"name":"Von-Tirpitz-Str.","postalCode":"26603","locality":"Aurich","municipality":{"key":"03452001","name":"Aurich, Stadt","type":"Stadt"},"district":{"key":"03452","name":"Aurich","type":"Landkreis"},"federalState":{"key":"03","name":"Niedersachsen"}},{"name":"Vor Brewater","postalCode":"26607","locality":"Aurich","municipality":{"key":"03452001","name":"Aurich, Stadt","type":"Stadt"},"district":{"key":"03452","name":"Aurich","type":"Landkreis"},"federalState":{"key":"03","name":"Niedersachsen"}},{"name":"Vordereschen","postalCode":"26603","locality":"Aurich","municipality":{"key":"03452001","name":"Aurich, Stadt","type":"Stadt"},"district":{"key":"03452","name":"Aurich","type":"Landkreis"},"federalState":{"key":"03","name":"Niedersachsen"}},{"name":"Vör de Tummel","postalCode":"26607","locality":"Aurich","municipality":{"key":"03452001","name":"Aurich, Stadt","type":"Stadt"},"district":{"key":"03452","name":"Aurich","type":"Landkreis"},"federalState":{"key":"03","name":"Niedersachsen"}},{"name":"Vörwolderweg","postalCode":"26607","locality":"Aurich","municipality":{"key":"03452001","name":"Aurich, Stadt","type":"Stadt"},"district":{"key":"03452","name":"Aurich","type":"Landkreis"},"federalState":{"key":"03","name":"Niedersachsen"}},{"name":"Voßhöcht","postalCode":"26607","locality":"Aurich","municipality":{"key":"03452001","name":"Aurich, Stadt","type":"Stadt"},"district":{"key":"03452","name":"Aurich","type":"Landkreis"},"federalState":{"key":"03","name":"Niedersachsen"}},{"name":"Voßweg","postalCode":"26607","locality":"Aurich","municipality":{"key":"03452001","name":"Aurich, Stadt","type":"Stadt"},"district":{"key":"03452","name":"Aurich","type":"Landkreis"},"federalState":{"key":"03","name":"Niedersachsen"}},{"name":"Warfenweg","postalCode":"26529","locality":"Wirdum","municipality":{"key":"03452026","name":"Wirdum","type":"Kreisangehörige_Gemeinde"},"district":{"key":"03452","name":"Aurich","type":"Landkreis"},"federalState":{"key":"03","name":"Niedersachsen"}},{"name":"Westeresker Weg","postalCode":"26529","locality":"Wirdum","municipality":{"key":"03452026","name":"Wirdum","type":"Kreisangehörige_Gemeinde"},"district":{"key":"03452","name":"Aurich","type":"Landkreis"},"federalState":{"key":"03","name":"Niedersachsen"}},{"name":"Westlohne","postalCode":"26529","locality":"Wirdum","municipality":{"key":"03452026","name":"Wirdum","type":"Kreisangehörige_Gemeinde"},"district":{"key":"03452","name":"Aurich","type":"Landkreis"},"federalState":{"key":"03","name":"Niedersachsen"}},{"name":"Westpfad","postalCode":"26529","locality":"Wirdum","municipality":{"key":"03452026","name":"Wirdum","type":"Kreisangehörige_Gemeinde"},"district":{"key":"03452","name":"Aurich","type":"Landkreis"},"federalState":{"key":"03","name":"Niedersachsen"}},{"name":"Wirdumer Altendeich","postalCode":"26529","locality":"Wirdum","municipality":{"key":"03452026","name":"Wirdum","type":"Kreisangehörige_Gemeinde"},"district":{"key":"03452","name":"Aurich","type":"Landkreis"},"federalState":{"key":"03","name":"Niedersachsen"}},{"name":"Wittjeweg","postalCode":"26529","locality":"Wirdum","municipality":{"key":"03452026","name":"Wirdum","type":"Kreisangehörige_Gemeinde"},"district":{"key":"03452","name":"Aurich","type":"Landkreis"},"federalState":{"key":"03","name":"Niedersachsen"}},{"name":"Yorckstr.","postalCode":"26603","locality":"Aurich","municipality":{"key":"03452001","name":"Aurich, Stadt","type":"Stadt"},"district":{"key":"03452","name":"Aurich","type":"Landkreis"},"federalState":{"key":"03","name":"Niedersachsen"}},{"name":"Zum Stig","postalCode":"26529","locality":"Wirdum","municipality":{"key":"03452026","name":"Wirdum","type":"Kreisangehörige_Gemeinde"},"district":{"key":"03452","name":"Aurich","type":"Landkreis"},"federalState":{"key":"03","name":"Niedersachsen"}},]