[{"name":"Alpenblick","postalCode":"78603","locality":"Renquishausen","municipality":{"key":"08327041","name":"Renquishausen","type":"Kreisangehörige_Gemeinde"},"district":{"key":"08327","name":"Tuttlingen","type":"Landkreis"},"federalState":{"key":"08","name":"Baden-Württemberg"}},{"name":"Am Heuweg","postalCode":"78603","locality":"Renquishausen","municipality":{"key":"08327041","name":"Renquishausen","type":"Kreisangehörige_Gemeinde"},"district":{"key":"08327","name":"Tuttlingen","type":"Landkreis"},"federalState":{"key":"08","name":"Baden-Württemberg"}},{"name":"Am Neuen Brunnen","postalCode":"78603","locality":"Renquishausen","municipality":{"key":"08327041","name":"Renquishausen","type":"Kreisangehörige_Gemeinde"},"district":{"key":"08327","name":"Tuttlingen","type":"Landkreis"},"federalState":{"key":"08","name":"Baden-Württemberg"}},{"name":"Am Windpark","postalCode":"78603","locality":"Renquishausen","municipality":{"key":"08327041","name":"Renquishausen","type":"Kreisangehörige_Gemeinde"},"district":{"key":"08327","name":"Tuttlingen","type":"Landkreis"},"federalState":{"key":"08","name":"Baden-Württemberg"}},{"name":"Angerstr.","postalCode":"78603","locality":"Renquishausen","municipality":{"key":"08327041","name":"Renquishausen","type":"Kreisangehörige_Gemeinde"},"district":{"key":"08327","name":"Tuttlingen","type":"Landkreis"},"federalState":{"key":"08","name":"Baden-Württemberg"}},{"name":"Bärenthaler Str.","postalCode":"78603","locality":"Renquishausen","municipality":{"key":"08327041","name":"Renquishausen","type":"Kreisangehörige_Gemeinde"},"district":{"key":"08327","name":"Tuttlingen","type":"Landkreis"},"federalState":{"key":"08","name":"Baden-Württemberg"}},{"name":"Bärwiesenstr.","postalCode":"78603","locality":"Renquishausen","municipality":{"key":"08327041","name":"Renquishausen","type":"Kreisangehörige_Gemeinde"},"district":{"key":"08327","name":"Tuttlingen","type":"Landkreis"},"federalState":{"key":"08","name":"Baden-Württemberg"}},{"name":"Buchweg","postalCode":"78603","locality":"Renquishausen","municipality":{"key":"08327041","name":"Renquishausen","type":"Kreisangehörige_Gemeinde"},"district":{"key":"08327","name":"Tuttlingen","type":"Landkreis"},"federalState":{"key":"08","name":"Baden-Württemberg"}},{"name":"Burgerstr.","postalCode":"78603","locality":"Renquishausen","municipality":{"key":"08327041","name":"Renquishausen","type":"Kreisangehörige_Gemeinde"},"district":{"key":"08327","name":"Tuttlingen","type":"Landkreis"},"federalState":{"key":"08","name":"Baden-Württemberg"}},{"name":"Carl-Benz-Str.","postalCode":"78532","locality":"Tuttlingen","municipality":{"key":"08327050","name":"Tuttlingen, Stadt","type":"Große_Kreisstadt"},"district":{"key":"08327","name":"Tuttlingen","type":"Landkreis"},"federalState":{"key":"08","name":"Baden-Württemberg"}},{"name":"Carl-Zeiss-Str.","postalCode":"78532","locality":"Tuttlingen","municipality":{"key":"08327050","name":"Tuttlingen, Stadt","type":"Große_Kreisstadt"},"district":{"key":"08327","name":"Tuttlingen","type":"Landkreis"},"federalState":{"key":"08","name":"Baden-Württemberg"}},{"name":"Charlottenstr.","postalCode":"78532","locality":"Tuttlingen","municipality":{"key":"08327050","name":"Tuttlingen, Stadt","type":"Große_Kreisstadt"},"district":{"key":"08327","name":"Tuttlingen","type":"Landkreis"},"federalState":{"key":"08","name":"Baden-Württemberg"}},{"name":"Christian-Scheerer-Str.","postalCode":"78532","locality":"Tuttlingen","municipality":{"key":"08327050","name":"Tuttlingen, Stadt","type":"Große_Kreisstadt"},"district":{"key":"08327","name":"Tuttlingen","type":"Landkreis"},"federalState":{"key":"08","name":"Baden-Württemberg"}},{"name":"Christophstr.","postalCode":"78532","locality":"Tuttlingen","municipality":{"key":"08327050","name":"Tuttlingen, Stadt","type":"Große_Kreisstadt"},"district":{"key":"08327","name":"Tuttlingen","type":"Landkreis"},"federalState":{"key":"08","name":"Baden-Württemberg"}},{"name":"Dachsweg","postalCode":"78532","locality":"Tuttlingen","municipality":{"key":"08327050","name":"Tuttlingen, Stadt","type":"Große_Kreisstadt"},"district":{"key":"08327","name":"Tuttlingen","type":"Landkreis"},"federalState":{"key":"08","name":"Baden-Württemberg"}},{"name":"Daimlerstr.","postalCode":"78532","locality":"Tuttlingen","municipality":{"key":"08327050","name":"Tuttlingen, Stadt","type":"Große_Kreisstadt"},"district":{"key":"08327","name":"Tuttlingen","type":"Landkreis"},"federalState":{"key":"08","name":"Baden-Württemberg"}},{"name":"Dammstr.","postalCode":"78532","locality":"Tuttlingen","municipality":{"key":"08327050","name":"Tuttlingen, Stadt","type":"Große_Kreisstadt"},"district":{"key":"08327","name":"Tuttlingen","type":"Landkreis"},"federalState":{"key":"08","name":"Baden-Württemberg"}},{"name":"Danziger Str.","postalCode":"78532","locality":"Tuttlingen","municipality":{"key":"08327050","name":"Tuttlingen, Stadt","type":"Große_Kreisstadt"},"district":{"key":"08327","name":"Tuttlingen","type":"Landkreis"},"federalState":{"key":"08","name":"Baden-Württemberg"}},{"name":"D'Groß Bruck","postalCode":"78532","locality":"Tuttlingen","municipality":{"key":"08327050","name":"Tuttlingen, Stadt","type":"Große_Kreisstadt"},"district":{"key":"08327","name":"Tuttlingen","type":"Landkreis"},"federalState":{"key":"08","name":"Baden-Württemberg"}},{"name":"Dietrich-Bonhoeffer-Str.","postalCode":"78532","locality":"Tuttlingen","municipality":{"key":"08327050","name":"Tuttlingen, Stadt","type":"Große_Kreisstadt"},"district":{"key":"08327","name":"Tuttlingen","type":"Landkreis"},"federalState":{"key":"08","name":"Baden-Württemberg"}},{"name":"Dietweg","postalCode":"78532","locality":"Tuttlingen","municipality":{"key":"08327050","name":"Tuttlingen, Stadt","type":"Große_Kreisstadt"},"district":{"key":"08327","name":"Tuttlingen","type":"Landkreis"},"federalState":{"key":"08","name":"Baden-Württemberg"}},{"name":"Donaubrücke","postalCode":"78532","locality":"Tuttlingen","municipality":{"key":"08327050","name":"Tuttlingen, Stadt","type":"Große_Kreisstadt"},"district":{"key":"08327","name":"Tuttlingen","type":"Landkreis"},"federalState":{"key":"08","name":"Baden-Württemberg"}},{"name":"Donaueschinger Str.","postalCode":"78532","locality":"Tuttlingen","municipality":{"key":"08327050","name":"Tuttlingen, Stadt","type":"Große_Kreisstadt"},"district":{"key":"08327","name":"Tuttlingen","type":"Landkreis"},"federalState":{"key":"08","name":"Baden-Württemberg"}},{"name":"Donaukiesweg","postalCode":"78532","locality":"Tuttlingen","municipality":{"key":"08327050","name":"Tuttlingen, Stadt","type":"Große_Kreisstadt"},"district":{"key":"08327","name":"Tuttlingen","type":"Landkreis"},"federalState":{"key":"08","name":"Baden-Württemberg"}},{"name":"Donaustr.","postalCode":"78532","locality":"Tuttlingen","municipality":{"key":"08327050","name":"Tuttlingen, Stadt","type":"Große_Kreisstadt"},"district":{"key":"08327","name":"Tuttlingen","type":"Landkreis"},"federalState":{"key":"08","name":"Baden-Württemberg"}},{"name":"Donautalstr.","postalCode":"78532","locality":"Tuttlingen","municipality":{"key":"08327050","name":"Tuttlingen, Stadt","type":"Große_Kreisstadt"},"district":{"key":"08327","name":"Tuttlingen","type":"Landkreis"},"federalState":{"key":"08","name":"Baden-Württemberg"}},{"name":"Dorchentöbeleweg","postalCode":"78532","locality":"Tuttlingen","municipality":{"key":"08327050","name":"Tuttlingen, Stadt","type":"Große_Kreisstadt"},"district":{"key":"08327","name":"Tuttlingen","type":"Landkreis"},"federalState":{"key":"08","name":"Baden-Württemberg"}},{"name":"Dornerweg","postalCode":"78532","locality":"Tuttlingen","municipality":{"key":"08327050","name":"Tuttlingen, Stadt","type":"Große_Kreisstadt"},"district":{"key":"08327","name":"Tuttlingen","type":"Landkreis"},"federalState":{"key":"08","name":"Baden-Württemberg"}},{"name":"Dornierstr.","postalCode":"78532","locality":"Tuttlingen","municipality":{"key":"08327050","name":"Tuttlingen, Stadt","type":"Große_Kreisstadt"},"district":{"key":"08327","name":"Tuttlingen","type":"Landkreis"},"federalState":{"key":"08","name":"Baden-Württemberg"}},{"name":"Dornröschenweg","postalCode":"78532","locality":"Tuttlingen","municipality":{"key":"08327050","name":"Tuttlingen, Stadt","type":"Große_Kreisstadt"},"district":{"key":"08327","name":"Tuttlingen","type":"Landkreis"},"federalState":{"key":"08","name":"Baden-Württemberg"}},{"name":"Dresdner Str.","postalCode":"78532","locality":"Tuttlingen","municipality":{"key":"08327050","name":"Tuttlingen, Stadt","type":"Große_Kreisstadt"},"district":{"key":"08327","name":"Tuttlingen","type":"Landkreis"},"federalState":{"key":"08","name":"Baden-Württemberg"}},{"name":"Dr. Karl-Storz-Platz","postalCode":"78532","locality":"Tuttlingen","municipality":{"key":"08327050","name":"Tuttlingen, Stadt","type":"Große_Kreisstadt"},"district":{"key":"08327","name":"Tuttlingen","type":"Landkreis"},"federalState":{"key":"08","name":"Baden-Württemberg"}},{"name":"Dr. Karl-Storz-Str.","postalCode":"78532","locality":"Tuttlingen","municipality":{"key":"08327050","name":"Tuttlingen, Stadt","type":"Große_Kreisstadt"},"district":{"key":"08327","name":"Tuttlingen","type":"Landkreis"},"federalState":{"key":"08","name":"Baden-Württemberg"}},{"name":"Duttentalstr.","postalCode":"78532","locality":"Tuttlingen","municipality":{"key":"08327050","name":"Tuttlingen, Stadt","type":"Große_Kreisstadt"},"district":{"key":"08327","name":"Tuttlingen","type":"Landkreis"},"federalState":{"key":"08","name":"Baden-Württemberg"}},{"name":"Duttentalweg","postalCode":"78532","locality":"Tuttlingen","municipality":{"key":"08327050","name":"Tuttlingen, Stadt","type":"Große_Kreisstadt"},"district":{"key":"08327","name":"Tuttlingen","type":"Landkreis"},"federalState":{"key":"08","name":"Baden-Württemberg"}},{"name":"Eckweg","postalCode":"78603","locality":"Renquishausen","municipality":{"key":"08327041","name":"Renquishausen","type":"Kreisangehörige_Gemeinde"},"district":{"key":"08327","name":"Tuttlingen","type":"Landkreis"},"federalState":{"key":"08","name":"Baden-Württemberg"}},{"name":"Filzweg","postalCode":"78603","locality":"Renquishausen","municipality":{"key":"08327041","name":"Renquishausen","type":"Kreisangehörige_Gemeinde"},"district":{"key":"08327","name":"Tuttlingen","type":"Landkreis"},"federalState":{"key":"08","name":"Baden-Württemberg"}},{"name":"Flatzstr.","postalCode":"78603","locality":"Renquishausen","municipality":{"key":"08327041","name":"Renquishausen","type":"Kreisangehörige_Gemeinde"},"district":{"key":"08327","name":"Tuttlingen","type":"Landkreis"},"federalState":{"key":"08","name":"Baden-Württemberg"}},{"name":"Goethestr.","postalCode":"78603","locality":"Renquishausen","municipality":{"key":"08327041","name":"Renquishausen","type":"Kreisangehörige_Gemeinde"},"district":{"key":"08327","name":"Tuttlingen","type":"Landkreis"},"federalState":{"key":"08","name":"Baden-Württemberg"}},{"name":"Greuthstr.","postalCode":"78603","locality":"Renquishausen","municipality":{"key":"08327041","name":"Renquishausen","type":"Kreisangehörige_Gemeinde"},"district":{"key":"08327","name":"Tuttlingen","type":"Landkreis"},"federalState":{"key":"08","name":"Baden-Württemberg"}},{"name":"Griemenstr.","postalCode":"78603","locality":"Renquishausen","municipality":{"key":"08327041","name":"Renquishausen","type":"Kreisangehörige_Gemeinde"},"district":{"key":"08327","name":"Tuttlingen","type":"Landkreis"},"federalState":{"key":"08","name":"Baden-Württemberg"}},{"name":"Gückenhühle","postalCode":"78603","locality":"Renquishausen","municipality":{"key":"08327041","name":"Renquishausen","type":"Kreisangehörige_Gemeinde"},"district":{"key":"08327","name":"Tuttlingen","type":"Landkreis"},"federalState":{"key":"08","name":"Baden-Württemberg"}},{"name":"Herrenwiesenstr.","postalCode":"78603","locality":"Renquishausen","municipality":{"key":"08327041","name":"Renquishausen","type":"Kreisangehörige_Gemeinde"},"district":{"key":"08327","name":"Tuttlingen","type":"Landkreis"},"federalState":{"key":"08","name":"Baden-Württemberg"}},{"name":"Hirschstr.","postalCode":"78603","locality":"Renquishausen","municipality":{"key":"08327041","name":"Renquishausen","type":"Kreisangehörige_Gemeinde"},"district":{"key":"08327","name":"Tuttlingen","type":"Landkreis"},"federalState":{"key":"08","name":"Baden-Württemberg"}},{"name":"Hohenriedstr.","postalCode":"78603","locality":"Renquishausen","municipality":{"key":"08327041","name":"Renquishausen","type":"Kreisangehörige_Gemeinde"},"district":{"key":"08327","name":"Tuttlingen","type":"Landkreis"},"federalState":{"key":"08","name":"Baden-Württemberg"}},{"name":"Iltisweg","postalCode":"78532","locality":"Tuttlingen","municipality":{"key":"08327050","name":"Tuttlingen, Stadt","type":"Große_Kreisstadt"},"district":{"key":"08327","name":"Tuttlingen","type":"Landkreis"},"federalState":{"key":"08","name":"Baden-Württemberg"}},{"name":"Im Ameisental","postalCode":"78532","locality":"Tuttlingen","municipality":{"key":"08327050","name":"Tuttlingen, Stadt","type":"Große_Kreisstadt"},"district":{"key":"08327","name":"Tuttlingen","type":"Landkreis"},"federalState":{"key":"08","name":"Baden-Württemberg"}},{"name":"Im Anger","postalCode":"78532","locality":"Tuttlingen","municipality":{"key":"08327050","name":"Tuttlingen, Stadt","type":"Große_Kreisstadt"},"district":{"key":"08327","name":"Tuttlingen","type":"Landkreis"},"federalState":{"key":"08","name":"Baden-Württemberg"}},{"name":"Im Donaufeld","postalCode":"78532","locality":"Tuttlingen","municipality":{"key":"08327050","name":"Tuttlingen, Stadt","type":"Große_Kreisstadt"},"district":{"key":"08327","name":"Tuttlingen","type":"Landkreis"},"federalState":{"key":"08","name":"Baden-Württemberg"}},{"name":"Im Egartenweg","postalCode":"78532","locality":"Tuttlingen","municipality":{"key":"08327050","name":"Tuttlingen, Stadt","type":"Große_Kreisstadt"},"district":{"key":"08327","name":"Tuttlingen","type":"Landkreis"},"federalState":{"key":"08","name":"Baden-Württemberg"}},{"name":"Im Holderstöckle","postalCode":"78532","locality":"Tuttlingen","municipality":{"key":"08327050","name":"Tuttlingen, Stadt","type":"Große_Kreisstadt"},"district":{"key":"08327","name":"Tuttlingen","type":"Landkreis"},"federalState":{"key":"08","name":"Baden-Württemberg"}},{"name":"Im Jungen Steigle","postalCode":"78532","locality":"Tuttlingen","municipality":{"key":"08327050","name":"Tuttlingen, Stadt","type":"Große_Kreisstadt"},"district":{"key":"08327","name":"Tuttlingen","type":"Landkreis"},"federalState":{"key":"08","name":"Baden-Württemberg"}},{"name":"Im Koppenland","postalCode":"78532","locality":"Tuttlingen","municipality":{"key":"08327050","name":"Tuttlingen, Stadt","type":"Große_Kreisstadt"},"district":{"key":"08327","name":"Tuttlingen","type":"Landkreis"},"federalState":{"key":"08","name":"Baden-Württemberg"}},{"name":"Immendinger Str.","postalCode":"78532","locality":"Tuttlingen","municipality":{"key":"08327050","name":"Tuttlingen, Stadt","type":"Große_Kreisstadt"},"district":{"key":"08327","name":"Tuttlingen","type":"Landkreis"},"federalState":{"key":"08","name":"Baden-Württemberg"}},{"name":"Im Mittleren Ösch","postalCode":"78532","locality":"Tuttlingen","municipality":{"key":"08327050","name":"Tuttlingen, Stadt","type":"Große_Kreisstadt"},"district":{"key":"08327","name":"Tuttlingen","type":"Landkreis"},"federalState":{"key":"08","name":"Baden-Württemberg"}},{"name":"Im Sengentäle","postalCode":"78532","locality":"Tuttlingen","municipality":{"key":"08327050","name":"Tuttlingen, Stadt","type":"Große_Kreisstadt"},"district":{"key":"08327","name":"Tuttlingen","type":"Landkreis"},"federalState":{"key":"08","name":"Baden-Württemberg"}},{"name":"Im Steinigen Tal","postalCode":"78532","locality":"Tuttlingen","municipality":{"key":"08327050","name":"Tuttlingen, Stadt","type":"Große_Kreisstadt"},"district":{"key":"08327","name":"Tuttlingen","type":"Landkreis"},"federalState":{"key":"08","name":"Baden-Württemberg"}},{"name":"Im Tal","postalCode":"78532","locality":"Tuttlingen","municipality":{"key":"08327050","name":"Tuttlingen, Stadt","type":"Große_Kreisstadt"},"district":{"key":"08327","name":"Tuttlingen","type":"Landkreis"},"federalState":{"key":"08","name":"Baden-Württemberg"}},{"name":"Im Taubentäle","postalCode":"78532","locality":"Tuttlingen","municipality":{"key":"08327050","name":"Tuttlingen, Stadt","type":"Große_Kreisstadt"},"district":{"key":"08327","name":"Tuttlingen","type":"Landkreis"},"federalState":{"key":"08","name":"Baden-Württemberg"}},{"name":"Im Winkel","postalCode":"78532","locality":"Tuttlingen","municipality":{"key":"08327050","name":"Tuttlingen, Stadt","type":"Große_Kreisstadt"},"district":{"key":"08327","name":"Tuttlingen","type":"Landkreis"},"federalState":{"key":"08","name":"Baden-Württemberg"}},{"name":"Im Wolfsbühl","postalCode":"78532","locality":"Tuttlingen","municipality":{"key":"08327050","name":"Tuttlingen, Stadt","type":"Große_Kreisstadt"},"district":{"key":"08327","name":"Tuttlingen","type":"Landkreis"},"federalState":{"key":"08","name":"Baden-Württemberg"}},{"name":"Im Zeitenlob","postalCode":"78532","locality":"Tuttlingen","municipality":{"key":"08327050","name":"Tuttlingen, Stadt","type":"Große_Kreisstadt"},"district":{"key":"08327","name":"Tuttlingen","type":"Landkreis"},"federalState":{"key":"08","name":"Baden-Württemberg"}},{"name":"In Altwegen","postalCode":"78532","locality":"Tuttlingen","municipality":{"key":"08327050","name":"Tuttlingen, Stadt","type":"Große_Kreisstadt"},"district":{"key":"08327","name":"Tuttlingen","type":"Landkreis"},"federalState":{"key":"08","name":"Baden-Württemberg"}},{"name":"In Aspen","postalCode":"78532","locality":"Tuttlingen","municipality":{"key":"08327050","name":"Tuttlingen, Stadt","type":"Große_Kreisstadt"},"district":{"key":"08327","name":"Tuttlingen","type":"Landkreis"},"federalState":{"key":"08","name":"Baden-Württemberg"}},{"name":"In der Thürn","postalCode":"78532","locality":"Tuttlingen","municipality":{"key":"08327050","name":"Tuttlingen, Stadt","type":"Große_Kreisstadt"},"district":{"key":"08327","name":"Tuttlingen","type":"Landkreis"},"federalState":{"key":"08","name":"Baden-Württemberg"}},{"name":"Industriestr.","postalCode":"78532","locality":"Tuttlingen","municipality":{"key":"08327050","name":"Tuttlingen, Stadt","type":"Große_Kreisstadt"},"district":{"key":"08327","name":"Tuttlingen","type":"Landkreis"},"federalState":{"key":"08","name":"Baden-Württemberg"}},{"name":"In Göhren","postalCode":"78532","locality":"Tuttlingen","municipality":{"key":"08327050","name":"Tuttlingen, Stadt","type":"Große_Kreisstadt"},"district":{"key":"08327","name":"Tuttlingen","type":"Landkreis"},"federalState":{"key":"08","name":"Baden-Württemberg"}},{"name":"In Grubenäcker","postalCode":"78532","locality":"Tuttlingen","municipality":{"key":"08327050","name":"Tuttlingen, Stadt","type":"Große_Kreisstadt"},"district":{"key":"08327","name":"Tuttlingen","type":"Landkreis"},"federalState":{"key":"08","name":"Baden-Württemberg"}},{"name":"In Haslen","postalCode":"78532","locality":"Tuttlingen","municipality":{"key":"08327050","name":"Tuttlingen, Stadt","type":"Große_Kreisstadt"},"district":{"key":"08327","name":"Tuttlingen","type":"Landkreis"},"federalState":{"key":"08","name":"Baden-Württemberg"}},{"name":"In Hohensteig","postalCode":"78532","locality":"Tuttlingen","municipality":{"key":"08327050","name":"Tuttlingen, Stadt","type":"Große_Kreisstadt"},"district":{"key":"08327","name":"Tuttlingen","type":"Landkreis"},"federalState":{"key":"08","name":"Baden-Württemberg"}},{"name":"In Wagäckern","postalCode":"78532","locality":"Tuttlingen","municipality":{"key":"08327050","name":"Tuttlingen, Stadt","type":"Große_Kreisstadt"},"district":{"key":"08327","name":"Tuttlingen","type":"Landkreis"},"federalState":{"key":"08","name":"Baden-Württemberg"}},{"name":"In Wöhrden","postalCode":"78532","locality":"Tuttlingen","municipality":{"key":"08327050","name":"Tuttlingen, Stadt","type":"Große_Kreisstadt"},"district":{"key":"08327","name":"Tuttlingen","type":"Landkreis"},"federalState":{"key":"08","name":"Baden-Württemberg"}},{"name":"Ippinger Str.","postalCode":"78532","locality":"Tuttlingen","municipality":{"key":"08327050","name":"Tuttlingen, Stadt","type":"Große_Kreisstadt"},"district":{"key":"08327","name":"Tuttlingen","type":"Landkreis"},"federalState":{"key":"08","name":"Baden-Württemberg"}},{"name":"Jägerbuchenweg","postalCode":"78532","locality":"Tuttlingen","municipality":{"key":"08327050","name":"Tuttlingen, Stadt","type":"Große_Kreisstadt"},"district":{"key":"08327","name":"Tuttlingen","type":"Landkreis"},"federalState":{"key":"08","name":"Baden-Württemberg"}},{"name":"Jägerhofstr.","postalCode":"78532","locality":"Tuttlingen","municipality":{"key":"08327050","name":"Tuttlingen, Stadt","type":"Große_Kreisstadt"},"district":{"key":"08327","name":"Tuttlingen","type":"Landkreis"},"federalState":{"key":"08","name":"Baden-Württemberg"}},{"name":"Jägerstr.","postalCode":"78532","locality":"Tuttlingen","municipality":{"key":"08327050","name":"Tuttlingen, Stadt","type":"Große_Kreisstadt"},"district":{"key":"08327","name":"Tuttlingen","type":"Landkreis"},"federalState":{"key":"08","name":"Baden-Württemberg"}},{"name":"Jahnstr.","postalCode":"78532","locality":"Tuttlingen","municipality":{"key":"08327050","name":"Tuttlingen, Stadt","type":"Große_Kreisstadt"},"district":{"key":"08327","name":"Tuttlingen","type":"Landkreis"},"federalState":{"key":"08","name":"Baden-Württemberg"}},{"name":"Jakobstr.","postalCode":"78532","locality":"Tuttlingen","municipality":{"key":"08327050","name":"Tuttlingen, Stadt","type":"Große_Kreisstadt"},"district":{"key":"08327","name":"Tuttlingen","type":"Landkreis"},"federalState":{"key":"08","name":"Baden-Württemberg"}},{"name":"Jetterstr.","postalCode":"78532","locality":"Tuttlingen","municipality":{"key":"08327050","name":"Tuttlingen, Stadt","type":"Große_Kreisstadt"},"district":{"key":"08327","name":"Tuttlingen","type":"Landkreis"},"federalState":{"key":"08","name":"Baden-Württemberg"}},{"name":"Johann-Sebastian-Bach-Str.","postalCode":"78532","locality":"Tuttlingen","municipality":{"key":"08327050","name":"Tuttlingen, Stadt","type":"Große_Kreisstadt"},"district":{"key":"08327","name":"Tuttlingen","type":"Landkreis"},"federalState":{"key":"08","name":"Baden-Württemberg"}},{"name":"Joseph-Haas-Weg","postalCode":"78532","locality":"Tuttlingen","municipality":{"key":"08327050","name":"Tuttlingen, Stadt","type":"Große_Kreisstadt"},"district":{"key":"08327","name":"Tuttlingen","type":"Landkreis"},"federalState":{"key":"08","name":"Baden-Württemberg"}},{"name":"Joseph-Haydn-Weg","postalCode":"78532","locality":"Tuttlingen","municipality":{"key":"08327050","name":"Tuttlingen, Stadt","type":"Große_Kreisstadt"},"district":{"key":"08327","name":"Tuttlingen","type":"Landkreis"},"federalState":{"key":"08","name":"Baden-Württemberg"}},{"name":"Julius-Fröhlich-Platz","postalCode":"78532","locality":"Tuttlingen","municipality":{"key":"08327050","name":"Tuttlingen, Stadt","type":"Große_Kreisstadt"},"district":{"key":"08327","name":"Tuttlingen","type":"Landkreis"},"federalState":{"key":"08","name":"Baden-Württemberg"}},{"name":"Junkersstr.","postalCode":"78532","locality":"Tuttlingen","municipality":{"key":"08327050","name":"Tuttlingen, Stadt","type":"Große_Kreisstadt"},"district":{"key":"08327","name":"Tuttlingen","type":"Landkreis"},"federalState":{"key":"08","name":"Baden-Württemberg"}},{"name":"Kapellenweg","postalCode":"78603","locality":"Renquishausen","municipality":{"key":"08327041","name":"Renquishausen","type":"Kreisangehörige_Gemeinde"},"district":{"key":"08327","name":"Tuttlingen","type":"Landkreis"},"federalState":{"key":"08","name":"Baden-Württemberg"}},{"name":"Kindergartenstr.","postalCode":"78603","locality":"Renquishausen","municipality":{"key":"08327041","name":"Renquishausen","type":"Kreisangehörige_Gemeinde"},"district":{"key":"08327","name":"Tuttlingen","type":"Landkreis"},"federalState":{"key":"08","name":"Baden-Württemberg"}},{"name":"Kirchstr.","postalCode":"78603","locality":"Renquishausen","municipality":{"key":"08327041","name":"Renquishausen","type":"Kreisangehörige_Gemeinde"},"district":{"key":"08327","name":"Tuttlingen","type":"Landkreis"},"federalState":{"key":"08","name":"Baden-Württemberg"}},{"name":"Kolbinger Str.","postalCode":"78603","locality":"Renquishausen","municipality":{"key":"08327041","name":"Renquishausen","type":"Kreisangehörige_Gemeinde"},"district":{"key":"08327","name":"Tuttlingen","type":"Landkreis"},"federalState":{"key":"08","name":"Baden-Württemberg"}},{"name":"Königsheimer Str.","postalCode":"78603","locality":"Renquishausen","municipality":{"key":"08327041","name":"Renquishausen","type":"Kreisangehörige_Gemeinde"},"district":{"key":"08327","name":"Tuttlingen","type":"Landkreis"},"federalState":{"key":"08","name":"Baden-Württemberg"}},{"name":"Lindenstr.","postalCode":"78603","locality":"Renquishausen","municipality":{"key":"08327041","name":"Renquishausen","type":"Kreisangehörige_Gemeinde"},"district":{"key":"08327","name":"Tuttlingen","type":"Landkreis"},"federalState":{"key":"08","name":"Baden-Württemberg"}},{"name":"Maienweg","postalCode":"78532","locality":"Tuttlingen","municipality":{"key":"08327050","name":"Tuttlingen, Stadt","type":"Große_Kreisstadt"},"district":{"key":"08327","name":"Tuttlingen","type":"Landkreis"},"federalState":{"key":"08","name":"Baden-Württemberg"}},{"name":"Malatzäcker","postalCode":"78532","locality":"Tuttlingen","municipality":{"key":"08327050","name":"Tuttlingen, Stadt","type":"Große_Kreisstadt"},"district":{"key":"08327","name":"Tuttlingen","type":"Landkreis"},"federalState":{"key":"08","name":"Baden-Württemberg"}},{"name":"Marderweg","postalCode":"78532","locality":"Tuttlingen","municipality":{"key":"08327050","name":"Tuttlingen, Stadt","type":"Große_Kreisstadt"},"district":{"key":"08327","name":"Tuttlingen","type":"Landkreis"},"federalState":{"key":"08","name":"Baden-Württemberg"}},{"name":"Marienburgstr.","postalCode":"78532","locality":"Tuttlingen","municipality":{"key":"08327050","name":"Tuttlingen, Stadt","type":"Große_Kreisstadt"},"district":{"key":"08327","name":"Tuttlingen","type":"Landkreis"},"federalState":{"key":"08","name":"Baden-Württemberg"}},{"name":"Marienweg","postalCode":"78532","locality":"Tuttlingen","municipality":{"key":"08327050","name":"Tuttlingen, Stadt","type":"Große_Kreisstadt"},"district":{"key":"08327","name":"Tuttlingen","type":"Landkreis"},"federalState":{"key":"08","name":"Baden-Württemberg"}},{"name":"Marktgasse","postalCode":"78532","locality":"Tuttlingen","municipality":{"key":"08327050","name":"Tuttlingen, Stadt","type":"Große_Kreisstadt"},"district":{"key":"08327","name":"Tuttlingen","type":"Landkreis"},"federalState":{"key":"08","name":"Baden-Württemberg"}},{"name":"Markusweg","postalCode":"78532","locality":"Tuttlingen","municipality":{"key":"08327050","name":"Tuttlingen, Stadt","type":"Große_Kreisstadt"},"district":{"key":"08327","name":"Tuttlingen","type":"Landkreis"},"federalState":{"key":"08","name":"Baden-Württemberg"}},{"name":"Martin-Luther-Weg","postalCode":"78532","locality":"Tuttlingen","municipality":{"key":"08327050","name":"Tuttlingen, Stadt","type":"Große_Kreisstadt"},"district":{"key":"08327","name":"Tuttlingen","type":"Landkreis"},"federalState":{"key":"08","name":"Baden-Württemberg"}},{"name":"Mattsteigstr.","postalCode":"78532","locality":"Tuttlingen","municipality":{"key":"08327050","name":"Tuttlingen, Stadt","type":"Große_Kreisstadt"},"district":{"key":"08327","name":"Tuttlingen","type":"Landkreis"},"federalState":{"key":"08","name":"Baden-Württemberg"}},{"name":"Max-Beckmann-Weg","postalCode":"78532","locality":"Tuttlingen","municipality":{"key":"08327050","name":"Tuttlingen, Stadt","type":"Große_Kreisstadt"},"district":{"key":"08327","name":"Tuttlingen","type":"Landkreis"},"federalState":{"key":"08","name":"Baden-Württemberg"}},{"name":"Max-Eyth-Str.","postalCode":"78532","locality":"Tuttlingen","municipality":{"key":"08327050","name":"Tuttlingen, Stadt","type":"Große_Kreisstadt"},"district":{"key":"08327","name":"Tuttlingen","type":"Landkreis"},"federalState":{"key":"08","name":"Baden-Württemberg"}},{"name":"Max-Planck-Str.","postalCode":"78532","locality":"Tuttlingen","municipality":{"key":"08327050","name":"Tuttlingen, Stadt","type":"Große_Kreisstadt"},"district":{"key":"08327","name":"Tuttlingen","type":"Landkreis"},"federalState":{"key":"08","name":"Baden-Württemberg"}},{"name":"Maybachstr.","postalCode":"78532","locality":"Tuttlingen","municipality":{"key":"08327050","name":"Tuttlingen, Stadt","type":"Große_Kreisstadt"},"district":{"key":"08327","name":"Tuttlingen","type":"Landkreis"},"federalState":{"key":"08","name":"Baden-Württemberg"}},{"name":"Melbishaldenweg","postalCode":"78532","locality":"Tuttlingen","municipality":{"key":"08327050","name":"Tuttlingen, Stadt","type":"Große_Kreisstadt"},"district":{"key":"08327","name":"Tuttlingen","type":"Landkreis"},"federalState":{"key":"08","name":"Baden-Württemberg"}},{"name":"Menzelweg","postalCode":"78532","locality":"Tuttlingen","municipality":{"key":"08327050","name":"Tuttlingen, Stadt","type":"Große_Kreisstadt"},"district":{"key":"08327","name":"Tuttlingen","type":"Landkreis"},"federalState":{"key":"08","name":"Baden-Württemberg"}},{"name":"Messerschmittstr.","postalCode":"78532","locality":"Tuttlingen","municipality":{"key":"08327050","name":"Tuttlingen, Stadt","type":"Große_Kreisstadt"},"district":{"key":"08327","name":"Tuttlingen","type":"Landkreis"},"federalState":{"key":"08","name":"Baden-Württemberg"}},{"name":"Meßkircher Str.","postalCode":"78532","locality":"Tuttlingen","municipality":{"key":"08327050","name":"Tuttlingen, Stadt","type":"Große_Kreisstadt"},"district":{"key":"08327","name":"Tuttlingen","type":"Landkreis"},"federalState":{"key":"08","name":"Baden-Württemberg"}},{"name":"Mettenbergstr.","postalCode":"78532","locality":"Tuttlingen","municipality":{"key":"08327050","name":"Tuttlingen, Stadt","type":"Große_Kreisstadt"},"district":{"key":"08327","name":"Tuttlingen","type":"Landkreis"},"federalState":{"key":"08","name":"Baden-Württemberg"}},{"name":"Mittelstr.","postalCode":"78532","locality":"Tuttlingen","municipality":{"key":"08327050","name":"Tuttlingen, Stadt","type":"Große_Kreisstadt"},"district":{"key":"08327","name":"Tuttlingen","type":"Landkreis"},"federalState":{"key":"08","name":"Baden-Württemberg"}},{"name":"Mittlere Gasse","postalCode":"78532","locality":"Tuttlingen","municipality":{"key":"08327050","name":"Tuttlingen, Stadt","type":"Große_Kreisstadt"},"district":{"key":"08327","name":"Tuttlingen","type":"Landkreis"},"federalState":{"key":"08","name":"Baden-Württemberg"}},{"name":"Mohlstr.","postalCode":"78532","locality":"Tuttlingen","municipality":{"key":"08327050","name":"Tuttlingen, Stadt","type":"Große_Kreisstadt"},"district":{"key":"08327","name":"Tuttlingen","type":"Landkreis"},"federalState":{"key":"08","name":"Baden-Württemberg"}},{"name":"Mohrendobeltraufweg","postalCode":"78532","locality":"Tuttlingen","municipality":{"key":"08327050","name":"Tuttlingen, Stadt","type":"Große_Kreisstadt"},"district":{"key":"08327","name":"Tuttlingen","type":"Landkreis"},"federalState":{"key":"08","name":"Baden-Württemberg"}},{"name":"Möhringer Str.","postalCode":"78532","locality":"Tuttlingen","municipality":{"key":"08327050","name":"Tuttlingen, Stadt","type":"Große_Kreisstadt"},"district":{"key":"08327","name":"Tuttlingen","type":"Landkreis"},"federalState":{"key":"08","name":"Baden-Württemberg"}},{"name":"Moltkestr.","postalCode":"78532","locality":"Tuttlingen","municipality":{"key":"08327050","name":"Tuttlingen, Stadt","type":"Große_Kreisstadt"},"district":{"key":"08327","name":"Tuttlingen","type":"Landkreis"},"federalState":{"key":"08","name":"Baden-Württemberg"}},{"name":"Mörikeweg","postalCode":"78532","locality":"Tuttlingen","municipality":{"key":"08327050","name":"Tuttlingen, Stadt","type":"Große_Kreisstadt"},"district":{"key":"08327","name":"Tuttlingen","type":"Landkreis"},"federalState":{"key":"08","name":"Baden-Württemberg"}},{"name":"Mozartstr.","postalCode":"78532","locality":"Tuttlingen","municipality":{"key":"08327050","name":"Tuttlingen, Stadt","type":"Große_Kreisstadt"},"district":{"key":"08327","name":"Tuttlingen","type":"Landkreis"},"federalState":{"key":"08","name":"Baden-Württemberg"}},{"name":"Mühlenweg","postalCode":"78532","locality":"Tuttlingen","municipality":{"key":"08327050","name":"Tuttlingen, Stadt","type":"Große_Kreisstadt"},"district":{"key":"08327","name":"Tuttlingen","type":"Landkreis"},"federalState":{"key":"08","name":"Baden-Württemberg"}},{"name":"Mühlheimer Str.","postalCode":"78532","locality":"Tuttlingen","municipality":{"key":"08327050","name":"Tuttlingen, Stadt","type":"Große_Kreisstadt"},"district":{"key":"08327","name":"Tuttlingen","type":"Landkreis"},"federalState":{"key":"08","name":"Baden-Württemberg"}},{"name":"Mühlsteigstr.","postalCode":"78532","locality":"Tuttlingen","municipality":{"key":"08327050","name":"Tuttlingen, Stadt","type":"Große_Kreisstadt"},"district":{"key":"08327","name":"Tuttlingen","type":"Landkreis"},"federalState":{"key":"08","name":"Baden-Württemberg"}},{"name":"Mühlsteinweg","postalCode":"78532","locality":"Tuttlingen","municipality":{"key":"08327050","name":"Tuttlingen, Stadt","type":"Große_Kreisstadt"},"district":{"key":"08327","name":"Tuttlingen","type":"Landkreis"},"federalState":{"key":"08","name":"Baden-Württemberg"}},{"name":"Nelkenstr.","postalCode":"78532","locality":"Tuttlingen","municipality":{"key":"08327050","name":"Tuttlingen, Stadt","type":"Große_Kreisstadt"},"district":{"key":"08327","name":"Tuttlingen","type":"Landkreis"},"federalState":{"key":"08","name":"Baden-Württemberg"}},{"name":"Nendinger Allee","postalCode":"78532","locality":"Tuttlingen","municipality":{"key":"08327050","name":"Tuttlingen, Stadt","type":"Große_Kreisstadt"},"district":{"key":"08327","name":"Tuttlingen","type":"Landkreis"},"federalState":{"key":"08","name":"Baden-Württemberg"}},{"name":"Neuer Wurzenweg","postalCode":"78532","locality":"Tuttlingen","municipality":{"key":"08327050","name":"Tuttlingen, Stadt","type":"Große_Kreisstadt"},"district":{"key":"08327","name":"Tuttlingen","type":"Landkreis"},"federalState":{"key":"08","name":"Baden-Württemberg"}},{"name":"Neuhauser Str.","postalCode":"78532","locality":"Tuttlingen","municipality":{"key":"08327050","name":"Tuttlingen, Stadt","type":"Große_Kreisstadt"},"district":{"key":"08327","name":"Tuttlingen","type":"Landkreis"},"federalState":{"key":"08","name":"Baden-Württemberg"}},{"name":"Nonnenburgstr.","postalCode":"78532","locality":"Tuttlingen","municipality":{"key":"08327050","name":"Tuttlingen, Stadt","type":"Große_Kreisstadt"},"district":{"key":"08327","name":"Tuttlingen","type":"Landkreis"},"federalState":{"key":"08","name":"Baden-Württemberg"}},{"name":"Ob der Brücke","postalCode":"78532","locality":"Tuttlingen","municipality":{"key":"08327050","name":"Tuttlingen, Stadt","type":"Große_Kreisstadt"},"district":{"key":"08327","name":"Tuttlingen","type":"Landkreis"},"federalState":{"key":"08","name":"Baden-Württemberg"}},{"name":"Oberamteistr.","postalCode":"78532","locality":"Tuttlingen","municipality":{"key":"08327050","name":"Tuttlingen, Stadt","type":"Große_Kreisstadt"},"district":{"key":"08327","name":"Tuttlingen","type":"Landkreis"},"federalState":{"key":"08","name":"Baden-Württemberg"}},{"name":"Obere Gasse","postalCode":"78532","locality":"Tuttlingen","municipality":{"key":"08327050","name":"Tuttlingen, Stadt","type":"Große_Kreisstadt"},"district":{"key":"08327","name":"Tuttlingen","type":"Landkreis"},"federalState":{"key":"08","name":"Baden-Württemberg"}},{"name":"Obere Hauptstr.","postalCode":"78532","locality":"Tuttlingen","municipality":{"key":"08327050","name":"Tuttlingen, Stadt","type":"Große_Kreisstadt"},"district":{"key":"08327","name":"Tuttlingen","type":"Landkreis"},"federalState":{"key":"08","name":"Baden-Württemberg"}},{"name":"Oberer Bann","postalCode":"78532","locality":"Tuttlingen","municipality":{"key":"08327050","name":"Tuttlingen, Stadt","type":"Große_Kreisstadt"},"district":{"key":"08327","name":"Tuttlingen","type":"Landkreis"},"federalState":{"key":"08","name":"Baden-Württemberg"}},{"name":"Oberer Hangweg","postalCode":"78532","locality":"Tuttlingen","municipality":{"key":"08327050","name":"Tuttlingen, Stadt","type":"Große_Kreisstadt"},"district":{"key":"08327","name":"Tuttlingen","type":"Landkreis"},"federalState":{"key":"08","name":"Baden-Württemberg"}},{"name":"Oberer Klammenweg","postalCode":"78532","locality":"Tuttlingen","municipality":{"key":"08327050","name":"Tuttlingen, Stadt","type":"Große_Kreisstadt"},"district":{"key":"08327","name":"Tuttlingen","type":"Landkreis"},"federalState":{"key":"08","name":"Baden-Württemberg"}},{"name":"Obere Vorstadt","postalCode":"78532","locality":"Tuttlingen","municipality":{"key":"08327050","name":"Tuttlingen, Stadt","type":"Große_Kreisstadt"},"district":{"key":"08327","name":"Tuttlingen","type":"Landkreis"},"federalState":{"key":"08","name":"Baden-Württemberg"}},{"name":"Ob.Stichweg","postalCode":"78532","locality":"Tuttlingen","municipality":{"key":"08327050","name":"Tuttlingen, Stadt","type":"Große_Kreisstadt"},"district":{"key":"08327","name":"Tuttlingen","type":"Landkreis"},"federalState":{"key":"08","name":"Baden-Württemberg"}},{"name":"Olgastr.","postalCode":"78532","locality":"Tuttlingen","municipality":{"key":"08327050","name":"Tuttlingen, Stadt","type":"Große_Kreisstadt"},"district":{"key":"08327","name":"Tuttlingen","type":"Landkreis"},"federalState":{"key":"08","name":"Baden-Württemberg"}},{"name":"Ottilienstr.","postalCode":"78532","locality":"Tuttlingen","municipality":{"key":"08327050","name":"Tuttlingen, Stadt","type":"Große_Kreisstadt"},"district":{"key":"08327","name":"Tuttlingen","type":"Landkreis"},"federalState":{"key":"08","name":"Baden-Württemberg"}},{"name":"Otto-Dix-Str.","postalCode":"78532","locality":"Tuttlingen","municipality":{"key":"08327050","name":"Tuttlingen, Stadt","type":"Große_Kreisstadt"},"district":{"key":"08327","name":"Tuttlingen","type":"Landkreis"},"federalState":{"key":"08","name":"Baden-Württemberg"}},{"name":"Palisadenhauweg","postalCode":"78532","locality":"Tuttlingen","municipality":{"key":"08327050","name":"Tuttlingen, Stadt","type":"Große_Kreisstadt"},"district":{"key":"08327","name":"Tuttlingen","type":"Landkreis"},"federalState":{"key":"08","name":"Baden-Württemberg"}},{"name":"Panoramastr.","postalCode":"78532","locality":"Tuttlingen","municipality":{"key":"08327050","name":"Tuttlingen, Stadt","type":"Große_Kreisstadt"},"district":{"key":"08327","name":"Tuttlingen","type":"Landkreis"},"federalState":{"key":"08","name":"Baden-Württemberg"}},{"name":"Paracelsusweg","postalCode":"78532","locality":"Tuttlingen","municipality":{"key":"08327050","name":"Tuttlingen, Stadt","type":"Große_Kreisstadt"},"district":{"key":"08327","name":"Tuttlingen","type":"Landkreis"},"federalState":{"key":"08","name":"Baden-Württemberg"}},{"name":"Paradiestäle","postalCode":"78532","locality":"Tuttlingen","municipality":{"key":"08327050","name":"Tuttlingen, Stadt","type":"Große_Kreisstadt"},"district":{"key":"08327","name":"Tuttlingen","type":"Landkreis"},"federalState":{"key":"08","name":"Baden-Württemberg"}},{"name":"Paul-Ehrlich-Weg","postalCode":"78532","locality":"Tuttlingen","municipality":{"key":"08327050","name":"Tuttlingen, Stadt","type":"Große_Kreisstadt"},"district":{"key":"08327","name":"Tuttlingen","type":"Landkreis"},"federalState":{"key":"08","name":"Baden-Württemberg"}},{"name":"Pestalozzistr.","postalCode":"78532","locality":"Tuttlingen","municipality":{"key":"08327050","name":"Tuttlingen, Stadt","type":"Große_Kreisstadt"},"district":{"key":"08327","name":"Tuttlingen","type":"Landkreis"},"federalState":{"key":"08","name":"Baden-Württemberg"}},{"name":"Peterstr.","postalCode":"78532","locality":"Tuttlingen","municipality":{"key":"08327050","name":"Tuttlingen, Stadt","type":"Große_Kreisstadt"},"district":{"key":"08327","name":"Tuttlingen","type":"Landkreis"},"federalState":{"key":"08","name":"Baden-Württemberg"}},{"name":"Pettenkoferweg","postalCode":"78532","locality":"Tuttlingen","municipality":{"key":"08327050","name":"Tuttlingen, Stadt","type":"Große_Kreisstadt"},"district":{"key":"08327","name":"Tuttlingen","type":"Landkreis"},"federalState":{"key":"08","name":"Baden-Württemberg"}},{"name":"Pfaffennutzenhölzleweg","postalCode":"78532","locality":"Tuttlingen","municipality":{"key":"08327050","name":"Tuttlingen, Stadt","type":"Große_Kreisstadt"},"district":{"key":"08327","name":"Tuttlingen","type":"Landkreis"},"federalState":{"key":"08","name":"Baden-Württemberg"}},{"name":"Pfarrstr.","postalCode":"78532","locality":"Tuttlingen","municipality":{"key":"08327050","name":"Tuttlingen, Stadt","type":"Große_Kreisstadt"},"district":{"key":"08327","name":"Tuttlingen","type":"Landkreis"},"federalState":{"key":"08","name":"Baden-Württemberg"}},{"name":"Pflanzschulweg","postalCode":"78532","locality":"Tuttlingen","municipality":{"key":"08327050","name":"Tuttlingen, Stadt","type":"Große_Kreisstadt"},"district":{"key":"08327","name":"Tuttlingen","type":"Landkreis"},"federalState":{"key":"08","name":"Baden-Württemberg"}},{"name":"Philosophenweg","postalCode":"78532","locality":"Tuttlingen","municipality":{"key":"08327050","name":"Tuttlingen, Stadt","type":"Große_Kreisstadt"},"district":{"key":"08327","name":"Tuttlingen","type":"Landkreis"},"federalState":{"key":"08","name":"Baden-Württemberg"}},{"name":"Plettenbergstr.","postalCode":"78532","locality":"Tuttlingen","municipality":{"key":"08327050","name":"Tuttlingen, Stadt","type":"Große_Kreisstadt"},"district":{"key":"08327","name":"Tuttlingen","type":"Landkreis"},"federalState":{"key":"08","name":"Baden-Württemberg"}},{"name":"Querstr.","postalCode":"78532","locality":"Tuttlingen","municipality":{"key":"08327050","name":"Tuttlingen, Stadt","type":"Große_Kreisstadt"},"district":{"key":"08327","name":"Tuttlingen","type":"Landkreis"},"federalState":{"key":"08","name":"Baden-Württemberg"}},{"name":"Reckholderstr.","postalCode":"78603","locality":"Renquishausen","municipality":{"key":"08327041","name":"Renquishausen","type":"Kreisangehörige_Gemeinde"},"district":{"key":"08327","name":"Tuttlingen","type":"Landkreis"},"federalState":{"key":"08","name":"Baden-Württemberg"}},{"name":"Riedweg","postalCode":"78603","locality":"Renquishausen","municipality":{"key":"08327041","name":"Renquishausen","type":"Kreisangehörige_Gemeinde"},"district":{"key":"08327","name":"Tuttlingen","type":"Landkreis"},"federalState":{"key":"08","name":"Baden-Württemberg"}},{"name":"Schäferweg","postalCode":"78603","locality":"Renquishausen","municipality":{"key":"08327041","name":"Renquishausen","type":"Kreisangehörige_Gemeinde"},"district":{"key":"08327","name":"Tuttlingen","type":"Landkreis"},"federalState":{"key":"08","name":"Baden-Württemberg"}},{"name":"Schillerstr.","postalCode":"78603","locality":"Renquishausen","municipality":{"key":"08327041","name":"Renquishausen","type":"Kreisangehörige_Gemeinde"},"district":{"key":"08327","name":"Tuttlingen","type":"Landkreis"},"federalState":{"key":"08","name":"Baden-Württemberg"}},{"name":"Sonnenweg","postalCode":"78603","locality":"Renquishausen","municipality":{"key":"08327041","name":"Renquishausen","type":"Kreisangehörige_Gemeinde"},"district":{"key":"08327","name":"Tuttlingen","type":"Landkreis"},"federalState":{"key":"08","name":"Baden-Württemberg"}},{"name":"Steigstr.","postalCode":"78603","locality":"Renquishausen","municipality":{"key":"08327041","name":"Renquishausen","type":"Kreisangehörige_Gemeinde"},"district":{"key":"08327","name":"Tuttlingen","type":"Landkreis"},"federalState":{"key":"08","name":"Baden-Württemberg"}},{"name":"Talheimer Str.","postalCode":"78532","locality":"Tuttlingen","municipality":{"key":"08327050","name":"Tuttlingen, Stadt","type":"Große_Kreisstadt"},"district":{"key":"08327","name":"Tuttlingen","type":"Landkreis"},"federalState":{"key":"08","name":"Baden-Württemberg"}},{"name":"Talstr.","postalCode":"78532","locality":"Tuttlingen","municipality":{"key":"08327050","name":"Tuttlingen, Stadt","type":"Große_Kreisstadt"},"district":{"key":"08327","name":"Tuttlingen","type":"Landkreis"},"federalState":{"key":"08","name":"Baden-Württemberg"}},{"name":"Tannenweg","postalCode":"78532","locality":"Tuttlingen","municipality":{"key":"08327050","name":"Tuttlingen, Stadt","type":"Große_Kreisstadt"},"district":{"key":"08327","name":"Tuttlingen","type":"Landkreis"},"federalState":{"key":"08","name":"Baden-Württemberg"}},{"name":"Theodor-Heuss-Allee","postalCode":"78532","locality":"Tuttlingen","municipality":{"key":"08327050","name":"Tuttlingen, Stadt","type":"Große_Kreisstadt"},"district":{"key":"08327","name":"Tuttlingen","type":"Landkreis"},"federalState":{"key":"08","name":"Baden-Württemberg"}},{"name":"Titiseestr.","postalCode":"78532","locality":"Tuttlingen","municipality":{"key":"08327050","name":"Tuttlingen, Stadt","type":"Große_Kreisstadt"},"district":{"key":"08327","name":"Tuttlingen","type":"Landkreis"},"federalState":{"key":"08","name":"Baden-Württemberg"}},{"name":"Trossinger Str.","postalCode":"78532","locality":"Tuttlingen","municipality":{"key":"08327050","name":"Tuttlingen, Stadt","type":"Große_Kreisstadt"},"district":{"key":"08327","name":"Tuttlingen","type":"Landkreis"},"federalState":{"key":"08","name":"Baden-Württemberg"}},{"name":"Unterm Trieb","postalCode":"78603","locality":"Renquishausen","municipality":{"key":"08327041","name":"Renquishausen","type":"Kreisangehörige_Gemeinde"},"district":{"key":"08327","name":"Tuttlingen","type":"Landkreis"},"federalState":{"key":"08","name":"Baden-Württemberg"}},{"name":"Vogelsangweg","postalCode":"78532","locality":"Tuttlingen","municipality":{"key":"08327050","name":"Tuttlingen, Stadt","type":"Große_Kreisstadt"},"district":{"key":"08327","name":"Tuttlingen","type":"Landkreis"},"federalState":{"key":"08","name":"Baden-Württemberg"}},{"name":"Vogt's Mistweg","postalCode":"78532","locality":"Tuttlingen","municipality":{"key":"08327050","name":"Tuttlingen, Stadt","type":"Große_Kreisstadt"},"district":{"key":"08327","name":"Tuttlingen","type":"Landkreis"},"federalState":{"key":"08","name":"Baden-Württemberg"}},{"name":"Waaghausstr.","postalCode":"78532","locality":"Tuttlingen","municipality":{"key":"08327050","name":"Tuttlingen, Stadt","type":"Große_Kreisstadt"},"district":{"key":"08327","name":"Tuttlingen","type":"Landkreis"},"federalState":{"key":"08","name":"Baden-Württemberg"}},{"name":"Wagenstr.","postalCode":"78532","locality":"Tuttlingen","municipality":{"key":"08327050","name":"Tuttlingen, Stadt","type":"Große_Kreisstadt"},"district":{"key":"08327","name":"Tuttlingen","type":"Landkreis"},"federalState":{"key":"08","name":"Baden-Württemberg"}},{"name":"Waidhofener Str.","postalCode":"78532","locality":"Tuttlingen","municipality":{"key":"08327050","name":"Tuttlingen, Stadt","type":"Große_Kreisstadt"},"district":{"key":"08327","name":"Tuttlingen","type":"Landkreis"},"federalState":{"key":"08","name":"Baden-Württemberg"}},{"name":"Waldstr.","postalCode":"78532","locality":"Tuttlingen","municipality":{"key":"08327050","name":"Tuttlingen, Stadt","type":"Große_Kreisstadt"},"district":{"key":"08327","name":"Tuttlingen","type":"Landkreis"},"federalState":{"key":"08","name":"Baden-Württemberg"}},{"name":"Wallenburgweg","postalCode":"78532","locality":"Tuttlingen","municipality":{"key":"08327050","name":"Tuttlingen, Stadt","type":"Große_Kreisstadt"},"district":{"key":"08327","name":"Tuttlingen","type":"Landkreis"},"federalState":{"key":"08","name":"Baden-Württemberg"}},{"name":"Wartenbergstr.","postalCode":"78532","locality":"Tuttlingen","municipality":{"key":"08327050","name":"Tuttlingen, Stadt","type":"Große_Kreisstadt"},"district":{"key":"08327","name":"Tuttlingen","type":"Landkreis"},"federalState":{"key":"08","name":"Baden-Württemberg"}},{"name":"Wasserstiege","postalCode":"78532","locality":"Tuttlingen","municipality":{"key":"08327050","name":"Tuttlingen, Stadt","type":"Große_Kreisstadt"},"district":{"key":"08327","name":"Tuttlingen","type":"Landkreis"},"federalState":{"key":"08","name":"Baden-Württemberg"}},{"name":"Weilatten","postalCode":"78532","locality":"Tuttlingen","municipality":{"key":"08327050","name":"Tuttlingen, Stadt","type":"Große_Kreisstadt"},"district":{"key":"08327","name":"Tuttlingen","type":"Landkreis"},"federalState":{"key":"08","name":"Baden-Württemberg"}},{"name":"Weimarstr.","postalCode":"78532","locality":"Tuttlingen","municipality":{"key":"08327050","name":"Tuttlingen, Stadt","type":"Große_Kreisstadt"},"district":{"key":"08327","name":"Tuttlingen","type":"Landkreis"},"federalState":{"key":"08","name":"Baden-Württemberg"}},{"name":"Weißdornweg","postalCode":"78532","locality":"Tuttlingen","municipality":{"key":"08327050","name":"Tuttlingen, Stadt","type":"Große_Kreisstadt"},"district":{"key":"08327","name":"Tuttlingen","type":"Landkreis"},"federalState":{"key":"08","name":"Baden-Württemberg"}},{"name":"Weißrosenstr.","postalCode":"78532","locality":"Tuttlingen","municipality":{"key":"08327050","name":"Tuttlingen, Stadt","type":"Große_Kreisstadt"},"district":{"key":"08327","name":"Tuttlingen","type":"Landkreis"},"federalState":{"key":"08","name":"Baden-Württemberg"}},{"name":"Wendelsgrundweg","postalCode":"78532","locality":"Tuttlingen","municipality":{"key":"08327050","name":"Tuttlingen, Stadt","type":"Große_Kreisstadt"},"district":{"key":"08327","name":"Tuttlingen","type":"Landkreis"},"federalState":{"key":"08","name":"Baden-Württemberg"}},{"name":"Werderstr.","postalCode":"78532","locality":"Tuttlingen","municipality":{"key":"08327050","name":"Tuttlingen, Stadt","type":"Große_Kreisstadt"},"district":{"key":"08327","name":"Tuttlingen","type":"Landkreis"},"federalState":{"key":"08","name":"Baden-Württemberg"}},{"name":"Werenwagstr.","postalCode":"78532","locality":"Tuttlingen","municipality":{"key":"08327050","name":"Tuttlingen, Stadt","type":"Große_Kreisstadt"},"district":{"key":"08327","name":"Tuttlingen","type":"Landkreis"},"federalState":{"key":"08","name":"Baden-Württemberg"}},{"name":"Widerholdstr.","postalCode":"78532","locality":"Tuttlingen","municipality":{"key":"08327050","name":"Tuttlingen, Stadt","type":"Große_Kreisstadt"},"district":{"key":"08327","name":"Tuttlingen","type":"Landkreis"},"federalState":{"key":"08","name":"Baden-Württemberg"}},{"name":"Wiechertstr.","postalCode":"78532","locality":"Tuttlingen","municipality":{"key":"08327050","name":"Tuttlingen, Stadt","type":"Große_Kreisstadt"},"district":{"key":"08327","name":"Tuttlingen","type":"Landkreis"},"federalState":{"key":"08","name":"Baden-Württemberg"}},{"name":"Wielandstr.","postalCode":"78532","locality":"Tuttlingen","municipality":{"key":"08327050","name":"Tuttlingen, Stadt","type":"Große_Kreisstadt"},"district":{"key":"08327","name":"Tuttlingen","type":"Landkreis"},"federalState":{"key":"08","name":"Baden-Württemberg"}},{"name":"Wieselweg","postalCode":"78532","locality":"Tuttlingen","municipality":{"key":"08327050","name":"Tuttlingen, Stadt","type":"Große_Kreisstadt"},"district":{"key":"08327","name":"Tuttlingen","type":"Landkreis"},"federalState":{"key":"08","name":"Baden-Württemberg"}},{"name":"Wildensteinstr.","postalCode":"78532","locality":"Tuttlingen","municipality":{"key":"08327050","name":"Tuttlingen, Stadt","type":"Große_Kreisstadt"},"district":{"key":"08327","name":"Tuttlingen","type":"Landkreis"},"federalState":{"key":"08","name":"Baden-Württemberg"}},{"name":"Wilhelm-Hauff-Weg","postalCode":"78532","locality":"Tuttlingen","municipality":{"key":"08327050","name":"Tuttlingen, Stadt","type":"Große_Kreisstadt"},"district":{"key":"08327","name":"Tuttlingen","type":"Landkreis"},"federalState":{"key":"08","name":"Baden-Württemberg"}},{"name":"Wilhelm-Leuschner-Str.","postalCode":"78532","locality":"Tuttlingen","municipality":{"key":"08327050","name":"Tuttlingen, Stadt","type":"Große_Kreisstadt"},"district":{"key":"08327","name":"Tuttlingen","type":"Landkreis"},"federalState":{"key":"08","name":"Baden-Württemberg"}},{"name":"Wilhelm-Nagel-Weg","postalCode":"78532","locality":"Tuttlingen","municipality":{"key":"08327050","name":"Tuttlingen, Stadt","type":"Große_Kreisstadt"},"district":{"key":"08327","name":"Tuttlingen","type":"Landkreis"},"federalState":{"key":"08","name":"Baden-Württemberg"}},{"name":"Wilhelmstr.","postalCode":"78532","locality":"Tuttlingen","municipality":{"key":"08327050","name":"Tuttlingen, Stadt","type":"Große_Kreisstadt"},"district":{"key":"08327","name":"Tuttlingen","type":"Landkreis"},"federalState":{"key":"08","name":"Baden-Württemberg"}},{"name":"Winkelgasse","postalCode":"78532","locality":"Tuttlingen","municipality":{"key":"08327050","name":"Tuttlingen, Stadt","type":"Große_Kreisstadt"},"district":{"key":"08327","name":"Tuttlingen","type":"Landkreis"},"federalState":{"key":"08","name":"Baden-Württemberg"}},{"name":"Winterhaldenweg","postalCode":"78532","locality":"Tuttlingen","municipality":{"key":"08327050","name":"Tuttlingen, Stadt","type":"Große_Kreisstadt"},"district":{"key":"08327","name":"Tuttlingen","type":"Landkreis"},"federalState":{"key":"08","name":"Baden-Württemberg"}},{"name":"Witthautraufweg","postalCode":"78532","locality":"Tuttlingen","municipality":{"key":"08327050","name":"Tuttlingen, Stadt","type":"Große_Kreisstadt"},"district":{"key":"08327","name":"Tuttlingen","type":"Landkreis"},"federalState":{"key":"08","name":"Baden-Württemberg"}},{"name":"Witthohsteige","postalCode":"78532","locality":"Tuttlingen","municipality":{"key":"08327050","name":"Tuttlingen, Stadt","type":"Große_Kreisstadt"},"district":{"key":"08327","name":"Tuttlingen","type":"Landkreis"},"federalState":{"key":"08","name":"Baden-Württemberg"}},{"name":"Wöhrdenbrücke","postalCode":"78532","locality":"Tuttlingen","municipality":{"key":"08327050","name":"Tuttlingen, Stadt","type":"Große_Kreisstadt"},"district":{"key":"08327","name":"Tuttlingen","type":"Landkreis"},"federalState":{"key":"08","name":"Baden-Württemberg"}},{"name":"Wurzenweg","postalCode":"78532","locality":"Tuttlingen","municipality":{"key":"08327050","name":"Tuttlingen, Stadt","type":"Große_Kreisstadt"},"district":{"key":"08327","name":"Tuttlingen","type":"Landkreis"},"federalState":{"key":"08","name":"Baden-Württemberg"}},{"name":"Ziegelweg","postalCode":"78603","locality":"Renquishausen","municipality":{"key":"08327041","name":"Renquishausen","type":"Kreisangehörige_Gemeinde"},"district":{"key":"08327","name":"Tuttlingen","type":"Landkreis"},"federalState":{"key":"08","name":"Baden-Württemberg"}},]