[{"name":"Aehlenbach","postalCode":"66646","locality":"Marpingen","municipality":{"key":"10046112","name":"Marpingen","type":"Kreisangehörige_Gemeinde"},"district":{"key":"10046","name":"St. Wendel","type":"Landkreis"},"federalState":{"key":"10","name":"Saarland"}},{"name":"Alsbachstr.","postalCode":"66646","locality":"Marpingen","municipality":{"key":"10046112","name":"Marpingen","type":"Kreisangehörige_Gemeinde"},"district":{"key":"10046","name":"St. Wendel","type":"Landkreis"},"federalState":{"key":"10","name":"Saarland"}},{"name":"Alsweilerstr.","postalCode":"66646","locality":"Marpingen","municipality":{"key":"10046112","name":"Marpingen","type":"Kreisangehörige_Gemeinde"},"district":{"key":"10046","name":"St. Wendel","type":"Landkreis"},"federalState":{"key":"10","name":"Saarland"}},{"name":"Alte Klosterstr.","postalCode":"66646","locality":"Marpingen","municipality":{"key":"10046112","name":"Marpingen","type":"Kreisangehörige_Gemeinde"},"district":{"key":"10046","name":"St. Wendel","type":"Landkreis"},"federalState":{"key":"10","name":"Saarland"}},{"name":"Altgasse","postalCode":"66646","locality":"Marpingen","municipality":{"key":"10046112","name":"Marpingen","type":"Kreisangehörige_Gemeinde"},"district":{"key":"10046","name":"St. Wendel","type":"Landkreis"},"federalState":{"key":"10","name":"Saarland"}},{"name":"Am Alten Markt","postalCode":"66646","locality":"Marpingen","municipality":{"key":"10046112","name":"Marpingen","type":"Kreisangehörige_Gemeinde"},"district":{"key":"10046","name":"St. Wendel","type":"Landkreis"},"federalState":{"key":"10","name":"Saarland"}},{"name":"Am Biehl","postalCode":"66646","locality":"Marpingen","municipality":{"key":"10046112","name":"Marpingen","type":"Kreisangehörige_Gemeinde"},"district":{"key":"10046","name":"St. Wendel","type":"Landkreis"},"federalState":{"key":"10","name":"Saarland"}},{"name":"Am Bienengarten","postalCode":"66646","locality":"Marpingen","municipality":{"key":"10046112","name":"Marpingen","type":"Kreisangehörige_Gemeinde"},"district":{"key":"10046","name":"St. Wendel","type":"Landkreis"},"federalState":{"key":"10","name":"Saarland"}},{"name":"Am Dorfbach","postalCode":"66646","locality":"Marpingen","municipality":{"key":"10046112","name":"Marpingen","type":"Kreisangehörige_Gemeinde"},"district":{"key":"10046","name":"St. Wendel","type":"Landkreis"},"federalState":{"key":"10","name":"Saarland"}},{"name":"Am Hahnenrech","postalCode":"66646","locality":"Marpingen","municipality":{"key":"10046112","name":"Marpingen","type":"Kreisangehörige_Gemeinde"},"district":{"key":"10046","name":"St. Wendel","type":"Landkreis"},"federalState":{"key":"10","name":"Saarland"}},{"name":"Am Häselberg","postalCode":"66646","locality":"Marpingen","municipality":{"key":"10046112","name":"Marpingen","type":"Kreisangehörige_Gemeinde"},"district":{"key":"10046","name":"St. Wendel","type":"Landkreis"},"federalState":{"key":"10","name":"Saarland"}},{"name":"Am Höhbüsch","postalCode":"66646","locality":"Marpingen","municipality":{"key":"10046112","name":"Marpingen","type":"Kreisangehörige_Gemeinde"},"district":{"key":"10046","name":"St. Wendel","type":"Landkreis"},"federalState":{"key":"10","name":"Saarland"}},{"name":"Am Homerich","postalCode":"66646","locality":"Marpingen","municipality":{"key":"10046112","name":"Marpingen","type":"Kreisangehörige_Gemeinde"},"district":{"key":"10046","name":"St. Wendel","type":"Landkreis"},"federalState":{"key":"10","name":"Saarland"}},{"name":"Am Kappelberg","postalCode":"66646","locality":"Marpingen","municipality":{"key":"10046112","name":"Marpingen","type":"Kreisangehörige_Gemeinde"},"district":{"key":"10046","name":"St. Wendel","type":"Landkreis"},"federalState":{"key":"10","name":"Saarland"}},{"name":"Am Kirchhübel","postalCode":"66646","locality":"Marpingen","municipality":{"key":"10046112","name":"Marpingen","type":"Kreisangehörige_Gemeinde"},"district":{"key":"10046","name":"St. Wendel","type":"Landkreis"},"federalState":{"key":"10","name":"Saarland"}},{"name":"Am Kirmesplatz","postalCode":"66646","locality":"Marpingen","municipality":{"key":"10046112","name":"Marpingen","type":"Kreisangehörige_Gemeinde"},"district":{"key":"10046","name":"St. Wendel","type":"Landkreis"},"federalState":{"key":"10","name":"Saarland"}},{"name":"Am Langenstrank","postalCode":"66646","locality":"Marpingen","municipality":{"key":"10046112","name":"Marpingen","type":"Kreisangehörige_Gemeinde"},"district":{"key":"10046","name":"St. Wendel","type":"Landkreis"},"federalState":{"key":"10","name":"Saarland"}},{"name":"Am Marienbrunnen","postalCode":"66646","locality":"Marpingen","municipality":{"key":"10046112","name":"Marpingen","type":"Kreisangehörige_Gemeinde"},"district":{"key":"10046","name":"St. Wendel","type":"Landkreis"},"federalState":{"key":"10","name":"Saarland"}},{"name":"Am Mühlenberg","postalCode":"66646","locality":"Marpingen","municipality":{"key":"10046112","name":"Marpingen","type":"Kreisangehörige_Gemeinde"},"district":{"key":"10046","name":"St. Wendel","type":"Landkreis"},"federalState":{"key":"10","name":"Saarland"}},{"name":"Am Reitzenberg","postalCode":"66646","locality":"Marpingen","municipality":{"key":"10046112","name":"Marpingen","type":"Kreisangehörige_Gemeinde"},"district":{"key":"10046","name":"St. Wendel","type":"Landkreis"},"federalState":{"key":"10","name":"Saarland"}},{"name":"Am Rothenberg","postalCode":"66646","locality":"Marpingen","municipality":{"key":"10046112","name":"Marpingen","type":"Kreisangehörige_Gemeinde"},"district":{"key":"10046","name":"St. Wendel","type":"Landkreis"},"federalState":{"key":"10","name":"Saarland"}},{"name":"An der Alten Mühle","postalCode":"66646","locality":"Marpingen","municipality":{"key":"10046112","name":"Marpingen","type":"Kreisangehörige_Gemeinde"},"district":{"key":"10046","name":"St. Wendel","type":"Landkreis"},"federalState":{"key":"10","name":"Saarland"}},{"name":"An der Goldgasse","postalCode":"66646","locality":"Marpingen","municipality":{"key":"10046112","name":"Marpingen","type":"Kreisangehörige_Gemeinde"},"district":{"key":"10046","name":"St. Wendel","type":"Landkreis"},"federalState":{"key":"10","name":"Saarland"}},{"name":"An der Hümes","postalCode":"66646","locality":"Marpingen","municipality":{"key":"10046112","name":"Marpingen","type":"Kreisangehörige_Gemeinde"},"district":{"key":"10046","name":"St. Wendel","type":"Landkreis"},"federalState":{"key":"10","name":"Saarland"}},{"name":"Auf dem Triesch","postalCode":"66646","locality":"Marpingen","municipality":{"key":"10046112","name":"Marpingen","type":"Kreisangehörige_Gemeinde"},"district":{"key":"10046","name":"St. Wendel","type":"Landkreis"},"federalState":{"key":"10","name":"Saarland"}},{"name":"Auf der Gaß","postalCode":"66646","locality":"Marpingen","municipality":{"key":"10046112","name":"Marpingen","type":"Kreisangehörige_Gemeinde"},"district":{"key":"10046","name":"St. Wendel","type":"Landkreis"},"federalState":{"key":"10","name":"Saarland"}},{"name":"Auf der Härtel","postalCode":"66646","locality":"Marpingen","municipality":{"key":"10046112","name":"Marpingen","type":"Kreisangehörige_Gemeinde"},"district":{"key":"10046","name":"St. Wendel","type":"Landkreis"},"federalState":{"key":"10","name":"Saarland"}},{"name":"Auf der Platt","postalCode":"66646","locality":"Marpingen","municipality":{"key":"10046112","name":"Marpingen","type":"Kreisangehörige_Gemeinde"},"district":{"key":"10046","name":"St. Wendel","type":"Landkreis"},"federalState":{"key":"10","name":"Saarland"}},{"name":"Auf der Sang","postalCode":"66646","locality":"Marpingen","municipality":{"key":"10046112","name":"Marpingen","type":"Kreisangehörige_Gemeinde"},"district":{"key":"10046","name":"St. Wendel","type":"Landkreis"},"federalState":{"key":"10","name":"Saarland"}},{"name":"Auf Gottrod","postalCode":"66646","locality":"Marpingen","municipality":{"key":"10046112","name":"Marpingen","type":"Kreisangehörige_Gemeinde"},"district":{"key":"10046","name":"St. Wendel","type":"Landkreis"},"federalState":{"key":"10","name":"Saarland"}},{"name":"Auf Klingen","postalCode":"66646","locality":"Marpingen","municipality":{"key":"10046112","name":"Marpingen","type":"Kreisangehörige_Gemeinde"},"district":{"key":"10046","name":"St. Wendel","type":"Landkreis"},"federalState":{"key":"10","name":"Saarland"}},{"name":"Auf Krumrech","postalCode":"66646","locality":"Marpingen","municipality":{"key":"10046112","name":"Marpingen","type":"Kreisangehörige_Gemeinde"},"district":{"key":"10046","name":"St. Wendel","type":"Landkreis"},"federalState":{"key":"10","name":"Saarland"}},{"name":"Auf Lohren","postalCode":"66646","locality":"Marpingen","municipality":{"key":"10046112","name":"Marpingen","type":"Kreisangehörige_Gemeinde"},"district":{"key":"10046","name":"St. Wendel","type":"Landkreis"},"federalState":{"key":"10","name":"Saarland"}},{"name":"Auf Merzborn","postalCode":"66646","locality":"Marpingen","municipality":{"key":"10046112","name":"Marpingen","type":"Kreisangehörige_Gemeinde"},"district":{"key":"10046","name":"St. Wendel","type":"Landkreis"},"federalState":{"key":"10","name":"Saarland"}},{"name":"Auf Weißmauer","postalCode":"66646","locality":"Marpingen","municipality":{"key":"10046112","name":"Marpingen","type":"Kreisangehörige_Gemeinde"},"district":{"key":"10046","name":"St. Wendel","type":"Landkreis"},"federalState":{"key":"10","name":"Saarland"}},{"name":"Auf Wittum","postalCode":"66646","locality":"Marpingen","municipality":{"key":"10046112","name":"Marpingen","type":"Kreisangehörige_Gemeinde"},"district":{"key":"10046","name":"St. Wendel","type":"Landkreis"},"federalState":{"key":"10","name":"Saarland"}},{"name":"Beethovenstr.","postalCode":"66646","locality":"Marpingen","municipality":{"key":"10046112","name":"Marpingen","type":"Kreisangehörige_Gemeinde"},"district":{"key":"10046","name":"St. Wendel","type":"Landkreis"},"federalState":{"key":"10","name":"Saarland"}},{"name":"Beim Bildchen","postalCode":"66646","locality":"Marpingen","municipality":{"key":"10046112","name":"Marpingen","type":"Kreisangehörige_Gemeinde"},"district":{"key":"10046","name":"St. Wendel","type":"Landkreis"},"federalState":{"key":"10","name":"Saarland"}},{"name":"Bergstr.","postalCode":"66646","locality":"Marpingen","municipality":{"key":"10046112","name":"Marpingen","type":"Kreisangehörige_Gemeinde"},"district":{"key":"10046","name":"St. Wendel","type":"Landkreis"},"federalState":{"key":"10","name":"Saarland"}},{"name":"Berschweilerstr.","postalCode":"66646","locality":"Marpingen","municipality":{"key":"10046112","name":"Marpingen","type":"Kreisangehörige_Gemeinde"},"district":{"key":"10046","name":"St. Wendel","type":"Landkreis"},"federalState":{"key":"10","name":"Saarland"}},{"name":"Birkenstr.","postalCode":"66646","locality":"Marpingen","municipality":{"key":"10046112","name":"Marpingen","type":"Kreisangehörige_Gemeinde"},"district":{"key":"10046","name":"St. Wendel","type":"Landkreis"},"federalState":{"key":"10","name":"Saarland"}},{"name":"Brunnenstr.","postalCode":"66646","locality":"Marpingen","municipality":{"key":"10046112","name":"Marpingen","type":"Kreisangehörige_Gemeinde"},"district":{"key":"10046","name":"St. Wendel","type":"Landkreis"},"federalState":{"key":"10","name":"Saarland"}},{"name":"Buchenweg","postalCode":"66646","locality":"Marpingen","municipality":{"key":"10046112","name":"Marpingen","type":"Kreisangehörige_Gemeinde"},"district":{"key":"10046","name":"St. Wendel","type":"Landkreis"},"federalState":{"key":"10","name":"Saarland"}},{"name":"Buchwaldstr.","postalCode":"66646","locality":"Marpingen","municipality":{"key":"10046112","name":"Marpingen","type":"Kreisangehörige_Gemeinde"},"district":{"key":"10046","name":"St. Wendel","type":"Landkreis"},"federalState":{"key":"10","name":"Saarland"}},{"name":"Dillwiesstr.","postalCode":"66646","locality":"Marpingen","municipality":{"key":"10046112","name":"Marpingen","type":"Kreisangehörige_Gemeinde"},"district":{"key":"10046","name":"St. Wendel","type":"Landkreis"},"federalState":{"key":"10","name":"Saarland"}},{"name":"Dirminger Str.","postalCode":"66646","locality":"Marpingen","municipality":{"key":"10046112","name":"Marpingen","type":"Kreisangehörige_Gemeinde"},"district":{"key":"10046","name":"St. Wendel","type":"Landkreis"},"federalState":{"key":"10","name":"Saarland"}},{"name":"Dorfplatz Urexweiler","postalCode":"66646","locality":"Marpingen","municipality":{"key":"10046112","name":"Marpingen","type":"Kreisangehörige_Gemeinde"},"district":{"key":"10046","name":"St. Wendel","type":"Landkreis"},"federalState":{"key":"10","name":"Saarland"}},{"name":"Eichenweg","postalCode":"66646","locality":"Marpingen","municipality":{"key":"10046112","name":"Marpingen","type":"Kreisangehörige_Gemeinde"},"district":{"key":"10046","name":"St. Wendel","type":"Landkreis"},"federalState":{"key":"10","name":"Saarland"}},{"name":"Erlenweg","postalCode":"66646","locality":"Marpingen","municipality":{"key":"10046112","name":"Marpingen","type":"Kreisangehörige_Gemeinde"},"district":{"key":"10046","name":"St. Wendel","type":"Landkreis"},"federalState":{"key":"10","name":"Saarland"}},{"name":"Eulenwald","postalCode":"66646","locality":"Marpingen","municipality":{"key":"10046112","name":"Marpingen","type":"Kreisangehörige_Gemeinde"},"district":{"key":"10046","name":"St. Wendel","type":"Landkreis"},"federalState":{"key":"10","name":"Saarland"}},{"name":"Feldstr.","postalCode":"66646","locality":"Marpingen","municipality":{"key":"10046112","name":"Marpingen","type":"Kreisangehörige_Gemeinde"},"district":{"key":"10046","name":"St. Wendel","type":"Landkreis"},"federalState":{"key":"10","name":"Saarland"}},{"name":"Fichtenweg","postalCode":"66646","locality":"Marpingen","municipality":{"key":"10046112","name":"Marpingen","type":"Kreisangehörige_Gemeinde"},"district":{"key":"10046","name":"St. Wendel","type":"Landkreis"},"federalState":{"key":"10","name":"Saarland"}},{"name":"Finkenweg","postalCode":"66646","locality":"Marpingen","municipality":{"key":"10046112","name":"Marpingen","type":"Kreisangehörige_Gemeinde"},"district":{"key":"10046","name":"St. Wendel","type":"Landkreis"},"federalState":{"key":"10","name":"Saarland"}},{"name":"Friedhofstr.","postalCode":"66646","locality":"Marpingen","municipality":{"key":"10046112","name":"Marpingen","type":"Kreisangehörige_Gemeinde"},"district":{"key":"10046","name":"St. Wendel","type":"Landkreis"},"federalState":{"key":"10","name":"Saarland"}},{"name":"Friedrichstr.","postalCode":"66646","locality":"Marpingen","municipality":{"key":"10046112","name":"Marpingen","type":"Kreisangehörige_Gemeinde"},"district":{"key":"10046","name":"St. Wendel","type":"Landkreis"},"federalState":{"key":"10","name":"Saarland"}},{"name":"Gartenstr.","postalCode":"66646","locality":"Marpingen","municipality":{"key":"10046112","name":"Marpingen","type":"Kreisangehörige_Gemeinde"},"district":{"key":"10046","name":"St. Wendel","type":"Landkreis"},"federalState":{"key":"10","name":"Saarland"}},{"name":"Geierschell","postalCode":"66646","locality":"Marpingen","municipality":{"key":"10046112","name":"Marpingen","type":"Kreisangehörige_Gemeinde"},"district":{"key":"10046","name":"St. Wendel","type":"Landkreis"},"federalState":{"key":"10","name":"Saarland"}},{"name":"Glockenhof Urexweiler","postalCode":"66646","locality":"Marpingen","municipality":{"key":"10046112","name":"Marpingen","type":"Kreisangehörige_Gemeinde"},"district":{"key":"10046","name":"St. Wendel","type":"Landkreis"},"federalState":{"key":"10","name":"Saarland"}},{"name":"Glückaufstr.","postalCode":"66646","locality":"Marpingen","municipality":{"key":"10046112","name":"Marpingen","type":"Kreisangehörige_Gemeinde"},"district":{"key":"10046","name":"St. Wendel","type":"Landkreis"},"federalState":{"key":"10","name":"Saarland"}},{"name":"Goethestr.","postalCode":"66646","locality":"Marpingen","municipality":{"key":"10046112","name":"Marpingen","type":"Kreisangehörige_Gemeinde"},"district":{"key":"10046","name":"St. Wendel","type":"Landkreis"},"federalState":{"key":"10","name":"Saarland"}},{"name":"Grubenstr.","postalCode":"66646","locality":"Marpingen","municipality":{"key":"10046112","name":"Marpingen","type":"Kreisangehörige_Gemeinde"},"district":{"key":"10046","name":"St. Wendel","type":"Landkreis"},"federalState":{"key":"10","name":"Saarland"}},{"name":"Grummetswies","postalCode":"66646","locality":"Marpingen","municipality":{"key":"10046112","name":"Marpingen","type":"Kreisangehörige_Gemeinde"},"district":{"key":"10046","name":"St. Wendel","type":"Landkreis"},"federalState":{"key":"10","name":"Saarland"}},{"name":"Habenichts","postalCode":"66646","locality":"Marpingen","municipality":{"key":"10046112","name":"Marpingen","type":"Kreisangehörige_Gemeinde"},"district":{"key":"10046","name":"St. Wendel","type":"Landkreis"},"federalState":{"key":"10","name":"Saarland"}},{"name":"Härtelhohl","postalCode":"66646","locality":"Marpingen","municipality":{"key":"10046112","name":"Marpingen","type":"Kreisangehörige_Gemeinde"},"district":{"key":"10046","name":"St. Wendel","type":"Landkreis"},"federalState":{"key":"10","name":"Saarland"}},{"name":"Hauptstr.","postalCode":"66646","locality":"Marpingen","municipality":{"key":"10046112","name":"Marpingen","type":"Kreisangehörige_Gemeinde"},"district":{"key":"10046","name":"St. Wendel","type":"Landkreis"},"federalState":{"key":"10","name":"Saarland"}},{"name":"Haydnstr.","postalCode":"66646","locality":"Marpingen","municipality":{"key":"10046112","name":"Marpingen","type":"Kreisangehörige_Gemeinde"},"district":{"key":"10046","name":"St. Wendel","type":"Landkreis"},"federalState":{"key":"10","name":"Saarland"}},{"name":"Hinten auf der Gaß","postalCode":"66646","locality":"Marpingen","municipality":{"key":"10046112","name":"Marpingen","type":"Kreisangehörige_Gemeinde"},"district":{"key":"10046","name":"St. Wendel","type":"Landkreis"},"federalState":{"key":"10","name":"Saarland"}},{"name":"Hinter der Kirche","postalCode":"66646","locality":"Marpingen","municipality":{"key":"10046112","name":"Marpingen","type":"Kreisangehörige_Gemeinde"},"district":{"key":"10046","name":"St. Wendel","type":"Landkreis"},"federalState":{"key":"10","name":"Saarland"}},{"name":"Hinter der Lehmkaul","postalCode":"66646","locality":"Marpingen","municipality":{"key":"10046112","name":"Marpingen","type":"Kreisangehörige_Gemeinde"},"district":{"key":"10046","name":"St. Wendel","type":"Landkreis"},"federalState":{"key":"10","name":"Saarland"}},{"name":"Hirtenhübel","postalCode":"66646","locality":"Marpingen","municipality":{"key":"10046112","name":"Marpingen","type":"Kreisangehörige_Gemeinde"},"district":{"key":"10046","name":"St. Wendel","type":"Landkreis"},"federalState":{"key":"10","name":"Saarland"}},{"name":"Hofstr.","postalCode":"66646","locality":"Marpingen","municipality":{"key":"10046112","name":"Marpingen","type":"Kreisangehörige_Gemeinde"},"district":{"key":"10046","name":"St. Wendel","type":"Landkreis"},"federalState":{"key":"10","name":"Saarland"}},{"name":"Höhenstr.","postalCode":"66646","locality":"Marpingen","municipality":{"key":"10046112","name":"Marpingen","type":"Kreisangehörige_Gemeinde"},"district":{"key":"10046","name":"St. Wendel","type":"Landkreis"},"federalState":{"key":"10","name":"Saarland"}},{"name":"Hübelstr.","postalCode":"66646","locality":"Marpingen","municipality":{"key":"10046112","name":"Marpingen","type":"Kreisangehörige_Gemeinde"},"district":{"key":"10046","name":"St. Wendel","type":"Landkreis"},"federalState":{"key":"10","name":"Saarland"}},{"name":"Hurthümes","postalCode":"66646","locality":"Marpingen","municipality":{"key":"10046112","name":"Marpingen","type":"Kreisangehörige_Gemeinde"},"district":{"key":"10046","name":"St. Wendel","type":"Landkreis"},"federalState":{"key":"10","name":"Saarland"}},{"name":"Illbachstr.","postalCode":"66646","locality":"Marpingen","municipality":{"key":"10046112","name":"Marpingen","type":"Kreisangehörige_Gemeinde"},"district":{"key":"10046","name":"St. Wendel","type":"Landkreis"},"federalState":{"key":"10","name":"Saarland"}},{"name":"Illinger Str.","postalCode":"66646","locality":"Marpingen","municipality":{"key":"10046112","name":"Marpingen","type":"Kreisangehörige_Gemeinde"},"district":{"key":"10046","name":"St. Wendel","type":"Landkreis"},"federalState":{"key":"10","name":"Saarland"}},{"name":"Im Brühl","postalCode":"66646","locality":"Marpingen","municipality":{"key":"10046112","name":"Marpingen","type":"Kreisangehörige_Gemeinde"},"district":{"key":"10046","name":"St. Wendel","type":"Landkreis"},"federalState":{"key":"10","name":"Saarland"}},{"name":"Im Engstereck","postalCode":"66646","locality":"Marpingen","municipality":{"key":"10046112","name":"Marpingen","type":"Kreisangehörige_Gemeinde"},"district":{"key":"10046","name":"St. Wendel","type":"Landkreis"},"federalState":{"key":"10","name":"Saarland"}},{"name":"Im Grund","postalCode":"66646","locality":"Marpingen","municipality":{"key":"10046112","name":"Marpingen","type":"Kreisangehörige_Gemeinde"},"district":{"key":"10046","name":"St. Wendel","type":"Landkreis"},"federalState":{"key":"10","name":"Saarland"}},{"name":"Im Hanfgarten","postalCode":"66646","locality":"Marpingen","municipality":{"key":"10046112","name":"Marpingen","type":"Kreisangehörige_Gemeinde"},"district":{"key":"10046","name":"St. Wendel","type":"Landkreis"},"federalState":{"key":"10","name":"Saarland"}},{"name":"Im Kimp","postalCode":"66646","locality":"Marpingen","municipality":{"key":"10046112","name":"Marpingen","type":"Kreisangehörige_Gemeinde"},"district":{"key":"10046","name":"St. Wendel","type":"Landkreis"},"federalState":{"key":"10","name":"Saarland"}},{"name":"Im Langgarten","postalCode":"66646","locality":"Marpingen","municipality":{"key":"10046112","name":"Marpingen","type":"Kreisangehörige_Gemeinde"},"district":{"key":"10046","name":"St. Wendel","type":"Landkreis"},"federalState":{"key":"10","name":"Saarland"}},{"name":"Im Limbach","postalCode":"66646","locality":"Marpingen","municipality":{"key":"10046112","name":"Marpingen","type":"Kreisangehörige_Gemeinde"},"district":{"key":"10046","name":"St. Wendel","type":"Landkreis"},"federalState":{"key":"10","name":"Saarland"}},{"name":"Im Mitteldorf","postalCode":"66646","locality":"Marpingen","municipality":{"key":"10046112","name":"Marpingen","type":"Kreisangehörige_Gemeinde"},"district":{"key":"10046","name":"St. Wendel","type":"Landkreis"},"federalState":{"key":"10","name":"Saarland"}},{"name":"Im Oberdorf","postalCode":"66646","locality":"Marpingen","municipality":{"key":"10046112","name":"Marpingen","type":"Kreisangehörige_Gemeinde"},"district":{"key":"10046","name":"St. Wendel","type":"Landkreis"},"federalState":{"key":"10","name":"Saarland"}},{"name":"In den Gärten","postalCode":"66646","locality":"Marpingen","municipality":{"key":"10046112","name":"Marpingen","type":"Kreisangehörige_Gemeinde"},"district":{"key":"10046","name":"St. Wendel","type":"Landkreis"},"federalState":{"key":"10","name":"Saarland"}},{"name":"In der Dell","postalCode":"66646","locality":"Marpingen","municipality":{"key":"10046112","name":"Marpingen","type":"Kreisangehörige_Gemeinde"},"district":{"key":"10046","name":"St. Wendel","type":"Landkreis"},"federalState":{"key":"10","name":"Saarland"}},{"name":"In der Nauwies","postalCode":"66646","locality":"Marpingen","municipality":{"key":"10046112","name":"Marpingen","type":"Kreisangehörige_Gemeinde"},"district":{"key":"10046","name":"St. Wendel","type":"Landkreis"},"federalState":{"key":"10","name":"Saarland"}},{"name":"In der Sölz","postalCode":"66646","locality":"Marpingen","municipality":{"key":"10046112","name":"Marpingen","type":"Kreisangehörige_Gemeinde"},"district":{"key":"10046","name":"St. Wendel","type":"Landkreis"},"federalState":{"key":"10","name":"Saarland"}},{"name":"Kapellenweg","postalCode":"66646","locality":"Marpingen","municipality":{"key":"10046112","name":"Marpingen","type":"Kreisangehörige_Gemeinde"},"district":{"key":"10046","name":"St. Wendel","type":"Landkreis"},"federalState":{"key":"10","name":"Saarland"}},{"name":"Kettelerstr.","postalCode":"66646","locality":"Marpingen","municipality":{"key":"10046112","name":"Marpingen","type":"Kreisangehörige_Gemeinde"},"district":{"key":"10046","name":"St. Wendel","type":"Landkreis"},"federalState":{"key":"10","name":"Saarland"}},{"name":"Kirchberg","postalCode":"66646","locality":"Marpingen","municipality":{"key":"10046112","name":"Marpingen","type":"Kreisangehörige_Gemeinde"},"district":{"key":"10046","name":"St. Wendel","type":"Landkreis"},"federalState":{"key":"10","name":"Saarland"}},{"name":"Klingenrech","postalCode":"66646","locality":"Marpingen","municipality":{"key":"10046112","name":"Marpingen","type":"Kreisangehörige_Gemeinde"},"district":{"key":"10046","name":"St. Wendel","type":"Landkreis"},"federalState":{"key":"10","name":"Saarland"}},{"name":"Knoppstr.","postalCode":"66646","locality":"Marpingen","municipality":{"key":"10046112","name":"Marpingen","type":"Kreisangehörige_Gemeinde"},"district":{"key":"10046","name":"St. Wendel","type":"Landkreis"},"federalState":{"key":"10","name":"Saarland"}},{"name":"Kolpingstr.","postalCode":"66646","locality":"Marpingen","municipality":{"key":"10046112","name":"Marpingen","type":"Kreisangehörige_Gemeinde"},"district":{"key":"10046","name":"St. Wendel","type":"Landkreis"},"federalState":{"key":"10","name":"Saarland"}},{"name":"Königstr.","postalCode":"66646","locality":"Marpingen","municipality":{"key":"10046112","name":"Marpingen","type":"Kreisangehörige_Gemeinde"},"district":{"key":"10046","name":"St. Wendel","type":"Landkreis"},"federalState":{"key":"10","name":"Saarland"}},{"name":"Kreuzbergstr.","postalCode":"66646","locality":"Marpingen","municipality":{"key":"10046112","name":"Marpingen","type":"Kreisangehörige_Gemeinde"},"district":{"key":"10046","name":"St. Wendel","type":"Landkreis"},"federalState":{"key":"10","name":"Saarland"}},{"name":"Kreuzweg","postalCode":"66646","locality":"Marpingen","municipality":{"key":"10046112","name":"Marpingen","type":"Kreisangehörige_Gemeinde"},"district":{"key":"10046","name":"St. Wendel","type":"Landkreis"},"federalState":{"key":"10","name":"Saarland"}},{"name":"Langwiesstr.","postalCode":"66646","locality":"Marpingen","municipality":{"key":"10046112","name":"Marpingen","type":"Kreisangehörige_Gemeinde"},"district":{"key":"10046","name":"St. Wendel","type":"Landkreis"},"federalState":{"key":"10","name":"Saarland"}},{"name":"Leitenackerstr.","postalCode":"66646","locality":"Marpingen","municipality":{"key":"10046112","name":"Marpingen","type":"Kreisangehörige_Gemeinde"},"district":{"key":"10046","name":"St. Wendel","type":"Landkreis"},"federalState":{"key":"10","name":"Saarland"}},{"name":"Lindenstr.","postalCode":"66646","locality":"Marpingen","municipality":{"key":"10046112","name":"Marpingen","type":"Kreisangehörige_Gemeinde"},"district":{"key":"10046","name":"St. Wendel","type":"Landkreis"},"federalState":{"key":"10","name":"Saarland"}},{"name":"Marienstr.","postalCode":"66646","locality":"Marpingen","municipality":{"key":"10046112","name":"Marpingen","type":"Kreisangehörige_Gemeinde"},"district":{"key":"10046","name":"St. Wendel","type":"Landkreis"},"federalState":{"key":"10","name":"Saarland"}},{"name":"Marktplatz","postalCode":"66646","locality":"Marpingen","municipality":{"key":"10046112","name":"Marpingen","type":"Kreisangehörige_Gemeinde"},"district":{"key":"10046","name":"St. Wendel","type":"Landkreis"},"federalState":{"key":"10","name":"Saarland"}},{"name":"Marpinger Str.","postalCode":"66646","locality":"Marpingen","municipality":{"key":"10046112","name":"Marpingen","type":"Kreisangehörige_Gemeinde"},"district":{"key":"10046","name":"St. Wendel","type":"Landkreis"},"federalState":{"key":"10","name":"Saarland"}},{"name":"Mozartstr.","postalCode":"66646","locality":"Marpingen","municipality":{"key":"10046112","name":"Marpingen","type":"Kreisangehörige_Gemeinde"},"district":{"key":"10046","name":"St. Wendel","type":"Landkreis"},"federalState":{"key":"10","name":"Saarland"}},{"name":"Mühlenstr.","postalCode":"66646","locality":"Marpingen","municipality":{"key":"10046112","name":"Marpingen","type":"Kreisangehörige_Gemeinde"},"district":{"key":"10046","name":"St. Wendel","type":"Landkreis"},"federalState":{"key":"10","name":"Saarland"}},{"name":"Neugasse","postalCode":"66646","locality":"Marpingen","municipality":{"key":"10046112","name":"Marpingen","type":"Kreisangehörige_Gemeinde"},"district":{"key":"10046","name":"St. Wendel","type":"Landkreis"},"federalState":{"key":"10","name":"Saarland"}},{"name":"Obere Rittersheck","postalCode":"66646","locality":"Marpingen","municipality":{"key":"10046112","name":"Marpingen","type":"Kreisangehörige_Gemeinde"},"district":{"key":"10046","name":"St. Wendel","type":"Landkreis"},"federalState":{"key":"10","name":"Saarland"}},{"name":"Pater-Becker-Str.","postalCode":"66646","locality":"Marpingen","municipality":{"key":"10046112","name":"Marpingen","type":"Kreisangehörige_Gemeinde"},"district":{"key":"10046","name":"St. Wendel","type":"Landkreis"},"federalState":{"key":"10","name":"Saarland"}},{"name":"Raiffeisenstr.","postalCode":"66646","locality":"Marpingen","municipality":{"key":"10046112","name":"Marpingen","type":"Kreisangehörige_Gemeinde"},"district":{"key":"10046","name":"St. Wendel","type":"Landkreis"},"federalState":{"key":"10","name":"Saarland"}},{"name":"Rechelsberg","postalCode":"66646","locality":"Marpingen","municipality":{"key":"10046112","name":"Marpingen","type":"Kreisangehörige_Gemeinde"},"district":{"key":"10046","name":"St. Wendel","type":"Landkreis"},"federalState":{"key":"10","name":"Saarland"}},{"name":"Reitersberg","postalCode":"66646","locality":"Marpingen","municipality":{"key":"10046112","name":"Marpingen","type":"Kreisangehörige_Gemeinde"},"district":{"key":"10046","name":"St. Wendel","type":"Landkreis"},"federalState":{"key":"10","name":"Saarland"}},{"name":"Remmesweilerstr.","postalCode":"66646","locality":"Marpingen","municipality":{"key":"10046112","name":"Marpingen","type":"Kreisangehörige_Gemeinde"},"district":{"key":"10046","name":"St. Wendel","type":"Landkreis"},"federalState":{"key":"10","name":"Saarland"}},{"name":"Rheinstr.","postalCode":"66646","locality":"Marpingen","municipality":{"key":"10046112","name":"Marpingen","type":"Kreisangehörige_Gemeinde"},"district":{"key":"10046","name":"St. Wendel","type":"Landkreis"},"federalState":{"key":"10","name":"Saarland"}},{"name":"Ringelgasse","postalCode":"66646","locality":"Marpingen","municipality":{"key":"10046112","name":"Marpingen","type":"Kreisangehörige_Gemeinde"},"district":{"key":"10046","name":"St. Wendel","type":"Landkreis"},"federalState":{"key":"10","name":"Saarland"}},{"name":"Ringstr.","postalCode":"66646","locality":"Marpingen","municipality":{"key":"10046112","name":"Marpingen","type":"Kreisangehörige_Gemeinde"},"district":{"key":"10046","name":"St. Wendel","type":"Landkreis"},"federalState":{"key":"10","name":"Saarland"}},{"name":"Rosenweg","postalCode":"66646","locality":"Marpingen","municipality":{"key":"10046112","name":"Marpingen","type":"Kreisangehörige_Gemeinde"},"district":{"key":"10046","name":"St. Wendel","type":"Landkreis"},"federalState":{"key":"10","name":"Saarland"}},{"name":"Rübendellweg","postalCode":"66646","locality":"Marpingen","municipality":{"key":"10046112","name":"Marpingen","type":"Kreisangehörige_Gemeinde"},"district":{"key":"10046","name":"St. Wendel","type":"Landkreis"},"federalState":{"key":"10","name":"Saarland"}},{"name":"Schafbrücke","postalCode":"66646","locality":"Marpingen","municipality":{"key":"10046112","name":"Marpingen","type":"Kreisangehörige_Gemeinde"},"district":{"key":"10046","name":"St. Wendel","type":"Landkreis"},"federalState":{"key":"10","name":"Saarland"}},{"name":"Schalksbergstr.","postalCode":"66646","locality":"Marpingen","municipality":{"key":"10046112","name":"Marpingen","type":"Kreisangehörige_Gemeinde"},"district":{"key":"10046","name":"St. Wendel","type":"Landkreis"},"federalState":{"key":"10","name":"Saarland"}},{"name":"Schillerweg","postalCode":"66646","locality":"Marpingen","municipality":{"key":"10046112","name":"Marpingen","type":"Kreisangehörige_Gemeinde"},"district":{"key":"10046","name":"St. Wendel","type":"Landkreis"},"federalState":{"key":"10","name":"Saarland"}},{"name":"Schloßstr.","postalCode":"66646","locality":"Marpingen","municipality":{"key":"10046112","name":"Marpingen","type":"Kreisangehörige_Gemeinde"},"district":{"key":"10046","name":"St. Wendel","type":"Landkreis"},"federalState":{"key":"10","name":"Saarland"}},{"name":"Schulstr.","postalCode":"66646","locality":"Marpingen","municipality":{"key":"10046112","name":"Marpingen","type":"Kreisangehörige_Gemeinde"},"district":{"key":"10046","name":"St. Wendel","type":"Landkreis"},"federalState":{"key":"10","name":"Saarland"}},{"name":"Sickfeld","postalCode":"66646","locality":"Marpingen","municipality":{"key":"10046112","name":"Marpingen","type":"Kreisangehörige_Gemeinde"},"district":{"key":"10046","name":"St. Wendel","type":"Landkreis"},"federalState":{"key":"10","name":"Saarland"}},{"name":"Steilstr.","postalCode":"66646","locality":"Marpingen","municipality":{"key":"10046112","name":"Marpingen","type":"Kreisangehörige_Gemeinde"},"district":{"key":"10046","name":"St. Wendel","type":"Landkreis"},"federalState":{"key":"10","name":"Saarland"}},{"name":"Steinkaul","postalCode":"66646","locality":"Marpingen","municipality":{"key":"10046112","name":"Marpingen","type":"Kreisangehörige_Gemeinde"},"district":{"key":"10046","name":"St. Wendel","type":"Landkreis"},"federalState":{"key":"10","name":"Saarland"}},{"name":"Talstr.","postalCode":"66646","locality":"Marpingen","municipality":{"key":"10046112","name":"Marpingen","type":"Kreisangehörige_Gemeinde"},"district":{"key":"10046","name":"St. Wendel","type":"Landkreis"},"federalState":{"key":"10","name":"Saarland"}},{"name":"Tannenweg","postalCode":"66646","locality":"Marpingen","municipality":{"key":"10046112","name":"Marpingen","type":"Kreisangehörige_Gemeinde"},"district":{"key":"10046","name":"St. Wendel","type":"Landkreis"},"federalState":{"key":"10","name":"Saarland"}},{"name":"Tholeyer Berg","postalCode":"66646","locality":"Marpingen","municipality":{"key":"10046112","name":"Marpingen","type":"Kreisangehörige_Gemeinde"},"district":{"key":"10046","name":"St. Wendel","type":"Landkreis"},"federalState":{"key":"10","name":"Saarland"}},{"name":"Tholeyer Str.","postalCode":"66646","locality":"Marpingen","municipality":{"key":"10046112","name":"Marpingen","type":"Kreisangehörige_Gemeinde"},"district":{"key":"10046","name":"St. Wendel","type":"Landkreis"},"federalState":{"key":"10","name":"Saarland"}},{"name":"Tulpenweg","postalCode":"66646","locality":"Marpingen","municipality":{"key":"10046112","name":"Marpingen","type":"Kreisangehörige_Gemeinde"},"district":{"key":"10046","name":"St. Wendel","type":"Landkreis"},"federalState":{"key":"10","name":"Saarland"}},{"name":"Umweg","postalCode":"66646","locality":"Marpingen","municipality":{"key":"10046112","name":"Marpingen","type":"Kreisangehörige_Gemeinde"},"district":{"key":"10046","name":"St. Wendel","type":"Landkreis"},"federalState":{"key":"10","name":"Saarland"}},{"name":"Untere Rittersheck","postalCode":"66646","locality":"Marpingen","municipality":{"key":"10046112","name":"Marpingen","type":"Kreisangehörige_Gemeinde"},"district":{"key":"10046","name":"St. Wendel","type":"Landkreis"},"federalState":{"key":"10","name":"Saarland"}},{"name":"Urexweilerstr.","postalCode":"66646","locality":"Marpingen","municipality":{"key":"10046112","name":"Marpingen","type":"Kreisangehörige_Gemeinde"},"district":{"key":"10046","name":"St. Wendel","type":"Landkreis"},"federalState":{"key":"10","name":"Saarland"}},{"name":"Weierwaldstr.","postalCode":"66646","locality":"Marpingen","municipality":{"key":"10046112","name":"Marpingen","type":"Kreisangehörige_Gemeinde"},"district":{"key":"10046","name":"St. Wendel","type":"Landkreis"},"federalState":{"key":"10","name":"Saarland"}},{"name":"Wendalinusstr.","postalCode":"66646","locality":"Marpingen","municipality":{"key":"10046112","name":"Marpingen","type":"Kreisangehörige_Gemeinde"},"district":{"key":"10046","name":"St. Wendel","type":"Landkreis"},"federalState":{"key":"10","name":"Saarland"}},{"name":"Wendelsteig","postalCode":"66646","locality":"Marpingen","municipality":{"key":"10046112","name":"Marpingen","type":"Kreisangehörige_Gemeinde"},"district":{"key":"10046","name":"St. Wendel","type":"Landkreis"},"federalState":{"key":"10","name":"Saarland"}},{"name":"Zu den Thiergärten","postalCode":"66646","locality":"Marpingen","municipality":{"key":"10046112","name":"Marpingen","type":"Kreisangehörige_Gemeinde"},"district":{"key":"10046","name":"St. Wendel","type":"Landkreis"},"federalState":{"key":"10","name":"Saarland"}},{"name":"Zum Alten Forsthaus","postalCode":"66646","locality":"Marpingen","municipality":{"key":"10046112","name":"Marpingen","type":"Kreisangehörige_Gemeinde"},"district":{"key":"10046","name":"St. Wendel","type":"Landkreis"},"federalState":{"key":"10","name":"Saarland"}},{"name":"Zum Flugplatz","postalCode":"66646","locality":"Marpingen","municipality":{"key":"10046112","name":"Marpingen","type":"Kreisangehörige_Gemeinde"},"district":{"key":"10046","name":"St. Wendel","type":"Landkreis"},"federalState":{"key":"10","name":"Saarland"}},{"name":"Zum Heckenborn","postalCode":"66646","locality":"Marpingen","municipality":{"key":"10046112","name":"Marpingen","type":"Kreisangehörige_Gemeinde"},"district":{"key":"10046","name":"St. Wendel","type":"Landkreis"},"federalState":{"key":"10","name":"Saarland"}},{"name":"Zum Heiligenhäuschen","postalCode":"66646","locality":"Marpingen","municipality":{"key":"10046112","name":"Marpingen","type":"Kreisangehörige_Gemeinde"},"district":{"key":"10046","name":"St. Wendel","type":"Landkreis"},"federalState":{"key":"10","name":"Saarland"}},{"name":"Zum Kallenborn","postalCode":"66646","locality":"Marpingen","municipality":{"key":"10046112","name":"Marpingen","type":"Kreisangehörige_Gemeinde"},"district":{"key":"10046","name":"St. Wendel","type":"Landkreis"},"federalState":{"key":"10","name":"Saarland"}},{"name":"Zum Ritterswald","postalCode":"66646","locality":"Marpingen","municipality":{"key":"10046112","name":"Marpingen","type":"Kreisangehörige_Gemeinde"},"district":{"key":"10046","name":"St. Wendel","type":"Landkreis"},"federalState":{"key":"10","name":"Saarland"}},{"name":"Zum Roppertsborn","postalCode":"66646","locality":"Marpingen","municipality":{"key":"10046112","name":"Marpingen","type":"Kreisangehörige_Gemeinde"},"district":{"key":"10046","name":"St. Wendel","type":"Landkreis"},"federalState":{"key":"10","name":"Saarland"}},{"name":"Zum Rudert","postalCode":"66646","locality":"Marpingen","municipality":{"key":"10046112","name":"Marpingen","type":"Kreisangehörige_Gemeinde"},"district":{"key":"10046","name":"St. Wendel","type":"Landkreis"},"federalState":{"key":"10","name":"Saarland"}},{"name":"Zum Strengenberg","postalCode":"66646","locality":"Marpingen","municipality":{"key":"10046112","name":"Marpingen","type":"Kreisangehörige_Gemeinde"},"district":{"key":"10046","name":"St. Wendel","type":"Landkreis"},"federalState":{"key":"10","name":"Saarland"}},{"name":"Zur Brack","postalCode":"66646","locality":"Marpingen","municipality":{"key":"10046112","name":"Marpingen","type":"Kreisangehörige_Gemeinde"},"district":{"key":"10046","name":"St. Wendel","type":"Landkreis"},"federalState":{"key":"10","name":"Saarland"}},{"name":"Zur Dick Eich","postalCode":"66646","locality":"Marpingen","municipality":{"key":"10046112","name":"Marpingen","type":"Kreisangehörige_Gemeinde"},"district":{"key":"10046","name":"St. Wendel","type":"Landkreis"},"federalState":{"key":"10","name":"Saarland"}},{"name":"Zur Frankenbach","postalCode":"66646","locality":"Marpingen","municipality":{"key":"10046112","name":"Marpingen","type":"Kreisangehörige_Gemeinde"},"district":{"key":"10046","name":"St. Wendel","type":"Landkreis"},"federalState":{"key":"10","name":"Saarland"}},{"name":"Zur Gassenheck","postalCode":"66646","locality":"Marpingen","municipality":{"key":"10046112","name":"Marpingen","type":"Kreisangehörige_Gemeinde"},"district":{"key":"10046","name":"St. Wendel","type":"Landkreis"},"federalState":{"key":"10","name":"Saarland"}},{"name":"Zur Hirst","postalCode":"66646","locality":"Marpingen","municipality":{"key":"10046112","name":"Marpingen","type":"Kreisangehörige_Gemeinde"},"district":{"key":"10046","name":"St. Wendel","type":"Landkreis"},"federalState":{"key":"10","name":"Saarland"}},{"name":"Zur Landgrafenheck","postalCode":"66646","locality":"Marpingen","municipality":{"key":"10046112","name":"Marpingen","type":"Kreisangehörige_Gemeinde"},"district":{"key":"10046","name":"St. Wendel","type":"Landkreis"},"federalState":{"key":"10","name":"Saarland"}},{"name":"Zur Laubwiese","postalCode":"66646","locality":"Marpingen","municipality":{"key":"10046112","name":"Marpingen","type":"Kreisangehörige_Gemeinde"},"district":{"key":"10046","name":"St. Wendel","type":"Landkreis"},"federalState":{"key":"10","name":"Saarland"}},{"name":"Zur Nautheilung","postalCode":"66646","locality":"Marpingen","municipality":{"key":"10046112","name":"Marpingen","type":"Kreisangehörige_Gemeinde"},"district":{"key":"10046","name":"St. Wendel","type":"Landkreis"},"federalState":{"key":"10","name":"Saarland"}},{"name":"Zur Pottaschhütte","postalCode":"66646","locality":"Marpingen","municipality":{"key":"10046112","name":"Marpingen","type":"Kreisangehörige_Gemeinde"},"district":{"key":"10046","name":"St. Wendel","type":"Landkreis"},"federalState":{"key":"10","name":"Saarland"}},{"name":"Zur Römerstr.","postalCode":"66646","locality":"Marpingen","municipality":{"key":"10046112","name":"Marpingen","type":"Kreisangehörige_Gemeinde"},"district":{"key":"10046","name":"St. Wendel","type":"Landkreis"},"federalState":{"key":"10","name":"Saarland"}},{"name":"Zur Spritz","postalCode":"66646","locality":"Marpingen","municipality":{"key":"10046112","name":"Marpingen","type":"Kreisangehörige_Gemeinde"},"district":{"key":"10046","name":"St. Wendel","type":"Landkreis"},"federalState":{"key":"10","name":"Saarland"}},{"name":"Zur Unterst Mühl","postalCode":"66646","locality":"Marpingen","municipality":{"key":"10046112","name":"Marpingen","type":"Kreisangehörige_Gemeinde"},"district":{"key":"10046","name":"St. Wendel","type":"Landkreis"},"federalState":{"key":"10","name":"Saarland"}},{"name":"Zur Wolfsheck","postalCode":"66646","locality":"Marpingen","municipality":{"key":"10046112","name":"Marpingen","type":"Kreisangehörige_Gemeinde"},"district":{"key":"10046","name":"St. Wendel","type":"Landkreis"},"federalState":{"key":"10","name":"Saarland"}},]