[{"name":"Alwine-Heiliger-Str.","postalCode":"56843","locality":"Irmenach","municipality":{"key":"07231501","name":"Irmenach","type":"Kreisangehörige_Gemeinde"},"district":{"key":"07231","name":"Bernkastel-Wittlich","type":"Landkreis"},"federalState":{"key":"07","name":"Rheinland-Pfalz"}},{"name":"Am Elber","postalCode":"56843","locality":"Irmenach","municipality":{"key":"07231501","name":"Irmenach","type":"Kreisangehörige_Gemeinde"},"district":{"key":"07231","name":"Bernkastel-Wittlich","type":"Landkreis"},"federalState":{"key":"07","name":"Rheinland-Pfalz"}},{"name":"Auf dem Kiemel","postalCode":"56843","locality":"Irmenach","municipality":{"key":"07231501","name":"Irmenach","type":"Kreisangehörige_Gemeinde"},"district":{"key":"07231","name":"Bernkastel-Wittlich","type":"Landkreis"},"federalState":{"key":"07","name":"Rheinland-Pfalz"}},{"name":"Auf der Höhe","postalCode":"56843","locality":"Irmenach","municipality":{"key":"07231501","name":"Irmenach","type":"Kreisangehörige_Gemeinde"},"district":{"key":"07231","name":"Bernkastel-Wittlich","type":"Landkreis"},"federalState":{"key":"07","name":"Rheinland-Pfalz"}},{"name":"Auf'm Steg","postalCode":"56843","locality":"Irmenach","municipality":{"key":"07231501","name":"Irmenach","type":"Kreisangehörige_Gemeinde"},"district":{"key":"07231","name":"Bernkastel-Wittlich","type":"Landkreis"},"federalState":{"key":"07","name":"Rheinland-Pfalz"}},{"name":"Bachweg","postalCode":"56843","locality":"Irmenach","municipality":{"key":"07231501","name":"Irmenach","type":"Kreisangehörige_Gemeinde"},"district":{"key":"07231","name":"Bernkastel-Wittlich","type":"Landkreis"},"federalState":{"key":"07","name":"Rheinland-Pfalz"}},{"name":"Beurener Str.","postalCode":"56843","locality":"Irmenach","municipality":{"key":"07231501","name":"Irmenach","type":"Kreisangehörige_Gemeinde"},"district":{"key":"07231","name":"Bernkastel-Wittlich","type":"Landkreis"},"federalState":{"key":"07","name":"Rheinland-Pfalz"}},{"name":"Bienengarten","postalCode":"56843","locality":"Irmenach","municipality":{"key":"07231501","name":"Irmenach","type":"Kreisangehörige_Gemeinde"},"district":{"key":"07231","name":"Bernkastel-Wittlich","type":"Landkreis"},"federalState":{"key":"07","name":"Rheinland-Pfalz"}},{"name":"Brühlstr.","postalCode":"56843","locality":"Irmenach","municipality":{"key":"07231501","name":"Irmenach","type":"Kreisangehörige_Gemeinde"},"district":{"key":"07231","name":"Bernkastel-Wittlich","type":"Landkreis"},"federalState":{"key":"07","name":"Rheinland-Pfalz"}},{"name":"Burgstr.","postalCode":"56843","locality":"Irmenach","municipality":{"key":"07231501","name":"Irmenach","type":"Kreisangehörige_Gemeinde"},"district":{"key":"07231","name":"Bernkastel-Wittlich","type":"Landkreis"},"federalState":{"key":"07","name":"Rheinland-Pfalz"}},{"name":"Fehlenacker","postalCode":"56843","locality":"Irmenach","municipality":{"key":"07231501","name":"Irmenach","type":"Kreisangehörige_Gemeinde"},"district":{"key":"07231","name":"Bernkastel-Wittlich","type":"Landkreis"},"federalState":{"key":"07","name":"Rheinland-Pfalz"}},{"name":"Friedrich-Karl-Ströher-Str.","postalCode":"56843","locality":"Irmenach","municipality":{"key":"07231501","name":"Irmenach","type":"Kreisangehörige_Gemeinde"},"district":{"key":"07231","name":"Bernkastel-Wittlich","type":"Landkreis"},"federalState":{"key":"07","name":"Rheinland-Pfalz"}},{"name":"Gartenstr.","postalCode":"56843","locality":"Irmenach","municipality":{"key":"07231501","name":"Irmenach","type":"Kreisangehörige_Gemeinde"},"district":{"key":"07231","name":"Bernkastel-Wittlich","type":"Landkreis"},"federalState":{"key":"07","name":"Rheinland-Pfalz"}},{"name":"Hans-Wilhelm-Kirst-Str.","postalCode":"56843","locality":"Irmenach","municipality":{"key":"07231501","name":"Irmenach","type":"Kreisangehörige_Gemeinde"},"district":{"key":"07231","name":"Bernkastel-Wittlich","type":"Landkreis"},"federalState":{"key":"07","name":"Rheinland-Pfalz"}},{"name":"Heinrich-Rodewald-Str.","postalCode":"56843","locality":"Irmenach","municipality":{"key":"07231501","name":"Irmenach","type":"Kreisangehörige_Gemeinde"},"district":{"key":"07231","name":"Bernkastel-Wittlich","type":"Landkreis"},"federalState":{"key":"07","name":"Rheinland-Pfalz"}},{"name":"Hinterm Scheuerchen","postalCode":"56843","locality":"Irmenach","municipality":{"key":"07231501","name":"Irmenach","type":"Kreisangehörige_Gemeinde"},"district":{"key":"07231","name":"Bernkastel-Wittlich","type":"Landkreis"},"federalState":{"key":"07","name":"Rheinland-Pfalz"}},{"name":"Im Gehren","postalCode":"56843","locality":"Irmenach","municipality":{"key":"07231501","name":"Irmenach","type":"Kreisangehörige_Gemeinde"},"district":{"key":"07231","name":"Bernkastel-Wittlich","type":"Landkreis"},"federalState":{"key":"07","name":"Rheinland-Pfalz"}},{"name":"Im Wiesengrund","postalCode":"56843","locality":"Irmenach","municipality":{"key":"07231501","name":"Irmenach","type":"Kreisangehörige_Gemeinde"},"district":{"key":"07231","name":"Bernkastel-Wittlich","type":"Landkreis"},"federalState":{"key":"07","name":"Rheinland-Pfalz"}},{"name":"Kirchstr.","postalCode":"56843","locality":"Irmenach","municipality":{"key":"07231501","name":"Irmenach","type":"Kreisangehörige_Gemeinde"},"district":{"key":"07231","name":"Bernkastel-Wittlich","type":"Landkreis"},"federalState":{"key":"07","name":"Rheinland-Pfalz"}},{"name":"Kleinicher Str.","postalCode":"56843","locality":"Irmenach","municipality":{"key":"07231501","name":"Irmenach","type":"Kreisangehörige_Gemeinde"},"district":{"key":"07231","name":"Bernkastel-Wittlich","type":"Landkreis"},"federalState":{"key":"07","name":"Rheinland-Pfalz"}},{"name":"Neuweg","postalCode":"56843","locality":"Irmenach","municipality":{"key":"07231501","name":"Irmenach","type":"Kreisangehörige_Gemeinde"},"district":{"key":"07231","name":"Bernkastel-Wittlich","type":"Landkreis"},"federalState":{"key":"07","name":"Rheinland-Pfalz"}},{"name":"Oberstr.","postalCode":"56843","locality":"Irmenach","municipality":{"key":"07231501","name":"Irmenach","type":"Kreisangehörige_Gemeinde"},"district":{"key":"07231","name":"Bernkastel-Wittlich","type":"Landkreis"},"federalState":{"key":"07","name":"Rheinland-Pfalz"}},{"name":"Raiffeisenstr.","postalCode":"56843","locality":"Irmenach","municipality":{"key":"07231501","name":"Irmenach","type":"Kreisangehörige_Gemeinde"},"district":{"key":"07231","name":"Bernkastel-Wittlich","type":"Landkreis"},"federalState":{"key":"07","name":"Rheinland-Pfalz"}},{"name":"Trarbacher Str.","postalCode":"56843","locality":"Irmenach","municipality":{"key":"07231501","name":"Irmenach","type":"Kreisangehörige_Gemeinde"},"district":{"key":"07231","name":"Bernkastel-Wittlich","type":"Landkreis"},"federalState":{"key":"07","name":"Rheinland-Pfalz"}},{"name":"Unterstr.","postalCode":"56843","locality":"Irmenach","municipality":{"key":"07231501","name":"Irmenach","type":"Kreisangehörige_Gemeinde"},"district":{"key":"07231","name":"Bernkastel-Wittlich","type":"Landkreis"},"federalState":{"key":"07","name":"Rheinland-Pfalz"}},{"name":"Zu den Linden","postalCode":"56843","locality":"Irmenach","municipality":{"key":"07231501","name":"Irmenach","type":"Kreisangehörige_Gemeinde"},"district":{"key":"07231","name":"Bernkastel-Wittlich","type":"Landkreis"},"federalState":{"key":"07","name":"Rheinland-Pfalz"}},{"name":"Zum Acker","postalCode":"56843","locality":"Irmenach","municipality":{"key":"07231501","name":"Irmenach","type":"Kreisangehörige_Gemeinde"},"district":{"key":"07231","name":"Bernkastel-Wittlich","type":"Landkreis"},"federalState":{"key":"07","name":"Rheinland-Pfalz"}},{"name":"Zur Heide","postalCode":"56843","locality":"Irmenach","municipality":{"key":"07231501","name":"Irmenach","type":"Kreisangehörige_Gemeinde"},"district":{"key":"07231","name":"Bernkastel-Wittlich","type":"Landkreis"},"federalState":{"key":"07","name":"Rheinland-Pfalz"}},]