[{"name":"Agathastr.","postalCode":"57439","locality":"Attendorn","municipality":{"key":"05966004","name":"Attendorn, Hansestadt","type":"Stadt"},"district":{"key":"05966","name":"Olpe","type":"Kreis"},"federalState":{"key":"05","name":"Nordrhein-Westfalen"}},{"name":"Albert-Kemmerich-Str.","postalCode":"57439","locality":"Attendorn","municipality":{"key":"05966004","name":"Attendorn, Hansestadt","type":"Stadt"},"district":{"key":"05966","name":"Olpe","type":"Kreis"},"federalState":{"key":"05","name":"Nordrhein-Westfalen"}},{"name":"Alfred-Schnüttgen-Str.","postalCode":"57439","locality":"Attendorn","municipality":{"key":"05966004","name":"Attendorn, Hansestadt","type":"Stadt"},"district":{"key":"05966","name":"Olpe","type":"Kreis"},"federalState":{"key":"05","name":"Nordrhein-Westfalen"}},{"name":"Alte Handelsstr.","postalCode":"57439","locality":"Attendorn","municipality":{"key":"05966004","name":"Attendorn, Hansestadt","type":"Stadt"},"district":{"key":"05966","name":"Olpe","type":"Kreis"},"federalState":{"key":"05","name":"Nordrhein-Westfalen"}},{"name":"Alter Schulplatz","postalCode":"57439","locality":"Attendorn","municipality":{"key":"05966004","name":"Attendorn, Hansestadt","type":"Stadt"},"district":{"key":"05966","name":"Olpe","type":"Kreis"},"federalState":{"key":"05","name":"Nordrhein-Westfalen"}},{"name":"Alter Weg","postalCode":"57439","locality":"Attendorn","municipality":{"key":"05966004","name":"Attendorn, Hansestadt","type":"Stadt"},"district":{"key":"05966","name":"Olpe","type":"Kreis"},"federalState":{"key":"05","name":"Nordrhein-Westfalen"}},{"name":"Am Ahorn","postalCode":"57439","locality":"Attendorn","municipality":{"key":"05966004","name":"Attendorn, Hansestadt","type":"Stadt"},"district":{"key":"05966","name":"Olpe","type":"Kreis"},"federalState":{"key":"05","name":"Nordrhein-Westfalen"}},{"name":"Am Baukhan","postalCode":"57439","locality":"Attendorn","municipality":{"key":"05966004","name":"Attendorn, Hansestadt","type":"Stadt"},"district":{"key":"05966","name":"Olpe","type":"Kreis"},"federalState":{"key":"05","name":"Nordrhein-Westfalen"}},{"name":"Am Berndebach","postalCode":"57439","locality":"Attendorn","municipality":{"key":"05966004","name":"Attendorn, Hansestadt","type":"Stadt"},"district":{"key":"05966","name":"Olpe","type":"Kreis"},"federalState":{"key":"05","name":"Nordrhein-Westfalen"}},{"name":"Am Daßte","postalCode":"57439","locality":"Attendorn","municipality":{"key":"05966004","name":"Attendorn, Hansestadt","type":"Stadt"},"district":{"key":"05966","name":"Olpe","type":"Kreis"},"federalState":{"key":"05","name":"Nordrhein-Westfalen"}},{"name":"Am Dümpel","postalCode":"57439","locality":"Attendorn","municipality":{"key":"05966004","name":"Attendorn, Hansestadt","type":"Stadt"},"district":{"key":"05966","name":"Olpe","type":"Kreis"},"federalState":{"key":"05","name":"Nordrhein-Westfalen"}},{"name":"Am Dünneckenberg","postalCode":"57439","locality":"Attendorn","municipality":{"key":"05966004","name":"Attendorn, Hansestadt","type":"Stadt"},"district":{"key":"05966","name":"Olpe","type":"Kreis"},"federalState":{"key":"05","name":"Nordrhein-Westfalen"}},{"name":"Am Eckenbach","postalCode":"57439","locality":"Attendorn","municipality":{"key":"05966004","name":"Attendorn, Hansestadt","type":"Stadt"},"district":{"key":"05966","name":"Olpe","type":"Kreis"},"federalState":{"key":"05","name":"Nordrhein-Westfalen"}},{"name":"Am Friedhof","postalCode":"57439","locality":"Attendorn","municipality":{"key":"05966004","name":"Attendorn, Hansestadt","type":"Stadt"},"district":{"key":"05966","name":"Olpe","type":"Kreis"},"federalState":{"key":"05","name":"Nordrhein-Westfalen"}},{"name":"Am Gäßchen","postalCode":"57439","locality":"Attendorn","municipality":{"key":"05966004","name":"Attendorn, Hansestadt","type":"Stadt"},"district":{"key":"05966","name":"Olpe","type":"Kreis"},"federalState":{"key":"05","name":"Nordrhein-Westfalen"}},{"name":"Am Gerbergraben","postalCode":"57439","locality":"Attendorn","municipality":{"key":"05966004","name":"Attendorn, Hansestadt","type":"Stadt"},"district":{"key":"05966","name":"Olpe","type":"Kreis"},"federalState":{"key":"05","name":"Nordrhein-Westfalen"}},{"name":"Am Glockenberg","postalCode":"57439","locality":"Attendorn","municipality":{"key":"05966004","name":"Attendorn, Hansestadt","type":"Stadt"},"district":{"key":"05966","name":"Olpe","type":"Kreis"},"federalState":{"key":"05","name":"Nordrhein-Westfalen"}},{"name":"Am Hahnbeul","postalCode":"57439","locality":"Attendorn","municipality":{"key":"05966004","name":"Attendorn, Hansestadt","type":"Stadt"},"district":{"key":"05966","name":"Olpe","type":"Kreis"},"federalState":{"key":"05","name":"Nordrhein-Westfalen"}},{"name":"Am Hasel","postalCode":"57439","locality":"Attendorn","municipality":{"key":"05966004","name":"Attendorn, Hansestadt","type":"Stadt"},"district":{"key":"05966","name":"Olpe","type":"Kreis"},"federalState":{"key":"05","name":"Nordrhein-Westfalen"}},{"name":"Am Hellepädchen","postalCode":"57439","locality":"Attendorn","municipality":{"key":"05966004","name":"Attendorn, Hansestadt","type":"Stadt"},"district":{"key":"05966","name":"Olpe","type":"Kreis"},"federalState":{"key":"05","name":"Nordrhein-Westfalen"}},{"name":"Am Hettmecker Teich","postalCode":"57439","locality":"Attendorn","municipality":{"key":"05966004","name":"Attendorn, Hansestadt","type":"Stadt"},"district":{"key":"05966","name":"Olpe","type":"Kreis"},"federalState":{"key":"05","name":"Nordrhein-Westfalen"}},{"name":"Am Himmelsberg","postalCode":"57439","locality":"Attendorn","municipality":{"key":"05966004","name":"Attendorn, Hansestadt","type":"Stadt"},"district":{"key":"05966","name":"Olpe","type":"Kreis"},"federalState":{"key":"05","name":"Nordrhein-Westfalen"}},{"name":"Am Hollenloch","postalCode":"57439","locality":"Attendorn","municipality":{"key":"05966004","name":"Attendorn, Hansestadt","type":"Stadt"},"district":{"key":"05966","name":"Olpe","type":"Kreis"},"federalState":{"key":"05","name":"Nordrhein-Westfalen"}},{"name":"Am Kirchplatz","postalCode":"57439","locality":"Attendorn","municipality":{"key":"05966004","name":"Attendorn, Hansestadt","type":"Stadt"},"district":{"key":"05966","name":"Olpe","type":"Kreis"},"federalState":{"key":"05","name":"Nordrhein-Westfalen"}},{"name":"Am Kleinen Graben","postalCode":"57439","locality":"Attendorn","municipality":{"key":"05966004","name":"Attendorn, Hansestadt","type":"Stadt"},"district":{"key":"05966","name":"Olpe","type":"Kreis"},"federalState":{"key":"05","name":"Nordrhein-Westfalen"}},{"name":"Am Knapp","postalCode":"57439","locality":"Attendorn","municipality":{"key":"05966004","name":"Attendorn, Hansestadt","type":"Stadt"},"district":{"key":"05966","name":"Olpe","type":"Kreis"},"federalState":{"key":"05","name":"Nordrhein-Westfalen"}},{"name":"Am Krähenberg","postalCode":"57439","locality":"Attendorn","municipality":{"key":"05966004","name":"Attendorn, Hansestadt","type":"Stadt"},"district":{"key":"05966","name":"Olpe","type":"Kreis"},"federalState":{"key":"05","name":"Nordrhein-Westfalen"}},{"name":"Am Mooskamp","postalCode":"57439","locality":"Attendorn","municipality":{"key":"05966004","name":"Attendorn, Hansestadt","type":"Stadt"},"district":{"key":"05966","name":"Olpe","type":"Kreis"},"federalState":{"key":"05","name":"Nordrhein-Westfalen"}},{"name":"Am Musebieter","postalCode":"57439","locality":"Attendorn","municipality":{"key":"05966004","name":"Attendorn, Hansestadt","type":"Stadt"},"district":{"key":"05966","name":"Olpe","type":"Kreis"},"federalState":{"key":"05","name":"Nordrhein-Westfalen"}},{"name":"Am Noacken","postalCode":"57439","locality":"Attendorn","municipality":{"key":"05966004","name":"Attendorn, Hansestadt","type":"Stadt"},"district":{"key":"05966","name":"Olpe","type":"Kreis"},"federalState":{"key":"05","name":"Nordrhein-Westfalen"}},{"name":"Am Rappelsberg","postalCode":"57439","locality":"Attendorn","municipality":{"key":"05966004","name":"Attendorn, Hansestadt","type":"Stadt"},"district":{"key":"05966","name":"Olpe","type":"Kreis"},"federalState":{"key":"05","name":"Nordrhein-Westfalen"}},{"name":"Am Remmenstein","postalCode":"57439","locality":"Attendorn","municipality":{"key":"05966004","name":"Attendorn, Hansestadt","type":"Stadt"},"district":{"key":"05966","name":"Olpe","type":"Kreis"},"federalState":{"key":"05","name":"Nordrhein-Westfalen"}},{"name":"Am Repscheid","postalCode":"57439","locality":"Attendorn","municipality":{"key":"05966004","name":"Attendorn, Hansestadt","type":"Stadt"},"district":{"key":"05966","name":"Olpe","type":"Kreis"},"federalState":{"key":"05","name":"Nordrhein-Westfalen"}},{"name":"Am Riedesel","postalCode":"57439","locality":"Attendorn","municipality":{"key":"05966004","name":"Attendorn, Hansestadt","type":"Stadt"},"district":{"key":"05966","name":"Olpe","type":"Kreis"},"federalState":{"key":"05","name":"Nordrhein-Westfalen"}},{"name":"Am Ritterlöh","postalCode":"57439","locality":"Attendorn","municipality":{"key":"05966004","name":"Attendorn, Hansestadt","type":"Stadt"},"district":{"key":"05966","name":"Olpe","type":"Kreis"},"federalState":{"key":"05","name":"Nordrhein-Westfalen"}},{"name":"Am Seewerngraben","postalCode":"57439","locality":"Attendorn","municipality":{"key":"05966004","name":"Attendorn, Hansestadt","type":"Stadt"},"district":{"key":"05966","name":"Olpe","type":"Kreis"},"federalState":{"key":"05","name":"Nordrhein-Westfalen"}},{"name":"Amselstr.","postalCode":"57439","locality":"Attendorn","municipality":{"key":"05966004","name":"Attendorn, Hansestadt","type":"Stadt"},"district":{"key":"05966","name":"Olpe","type":"Kreis"},"federalState":{"key":"05","name":"Nordrhein-Westfalen"}},{"name":"Amselweg","postalCode":"57439","locality":"Attendorn","municipality":{"key":"05966004","name":"Attendorn, Hansestadt","type":"Stadt"},"district":{"key":"05966","name":"Olpe","type":"Kreis"},"federalState":{"key":"05","name":"Nordrhein-Westfalen"}},{"name":"Am Spindelsburggraben","postalCode":"57439","locality":"Attendorn","municipality":{"key":"05966004","name":"Attendorn, Hansestadt","type":"Stadt"},"district":{"key":"05966","name":"Olpe","type":"Kreis"},"federalState":{"key":"05","name":"Nordrhein-Westfalen"}},{"name":"Am Stappenweg","postalCode":"57439","locality":"Attendorn","municipality":{"key":"05966004","name":"Attendorn, Hansestadt","type":"Stadt"},"district":{"key":"05966","name":"Olpe","type":"Kreis"},"federalState":{"key":"05","name":"Nordrhein-Westfalen"}},{"name":"Am Stege","postalCode":"57439","locality":"Attendorn","municipality":{"key":"05966004","name":"Attendorn, Hansestadt","type":"Stadt"},"district":{"key":"05966","name":"Olpe","type":"Kreis"},"federalState":{"key":"05","name":"Nordrhein-Westfalen"}},{"name":"Am Stürzenberg","postalCode":"57439","locality":"Attendorn","municipality":{"key":"05966004","name":"Attendorn, Hansestadt","type":"Stadt"},"district":{"key":"05966","name":"Olpe","type":"Kreis"},"federalState":{"key":"05","name":"Nordrhein-Westfalen"}},{"name":"Am Südhang","postalCode":"57439","locality":"Attendorn","municipality":{"key":"05966004","name":"Attendorn, Hansestadt","type":"Stadt"},"district":{"key":"05966","name":"Olpe","type":"Kreis"},"federalState":{"key":"05","name":"Nordrhein-Westfalen"}},{"name":"Am Sündersweg","postalCode":"57439","locality":"Attendorn","municipality":{"key":"05966004","name":"Attendorn, Hansestadt","type":"Stadt"},"district":{"key":"05966","name":"Olpe","type":"Kreis"},"federalState":{"key":"05","name":"Nordrhein-Westfalen"}},{"name":"Am Tannenberg","postalCode":"57439","locality":"Attendorn","municipality":{"key":"05966004","name":"Attendorn, Hansestadt","type":"Stadt"},"district":{"key":"05966","name":"Olpe","type":"Kreis"},"federalState":{"key":"05","name":"Nordrhein-Westfalen"}},{"name":"Am Wassertor","postalCode":"57439","locality":"Attendorn","municipality":{"key":"05966004","name":"Attendorn, Hansestadt","type":"Stadt"},"district":{"key":"05966","name":"Olpe","type":"Kreis"},"federalState":{"key":"05","name":"Nordrhein-Westfalen"}},{"name":"Am Zollstock","postalCode":"57439","locality":"Attendorn","municipality":{"key":"05966004","name":"Attendorn, Hansestadt","type":"Stadt"},"district":{"key":"05966","name":"Olpe","type":"Kreis"},"federalState":{"key":"05","name":"Nordrhein-Westfalen"}},{"name":"Am Zweiling","postalCode":"57439","locality":"Attendorn","municipality":{"key":"05966004","name":"Attendorn, Hansestadt","type":"Stadt"},"district":{"key":"05966","name":"Olpe","type":"Kreis"},"federalState":{"key":"05","name":"Nordrhein-Westfalen"}},{"name":"An der Brake","postalCode":"57439","locality":"Attendorn","municipality":{"key":"05966004","name":"Attendorn, Hansestadt","type":"Stadt"},"district":{"key":"05966","name":"Olpe","type":"Kreis"},"federalState":{"key":"05","name":"Nordrhein-Westfalen"}},{"name":"An der Pulvermühle","postalCode":"57439","locality":"Attendorn","municipality":{"key":"05966004","name":"Attendorn, Hansestadt","type":"Stadt"},"district":{"key":"05966","name":"Olpe","type":"Kreis"},"federalState":{"key":"05","name":"Nordrhein-Westfalen"}},{"name":"Bachschwinde","postalCode":"57439","locality":"Attendorn","municipality":{"key":"05966004","name":"Attendorn, Hansestadt","type":"Stadt"},"district":{"key":"05966","name":"Olpe","type":"Kreis"},"federalState":{"key":"05","name":"Nordrhein-Westfalen"}},{"name":"Bäckerstr.","postalCode":"57439","locality":"Attendorn","municipality":{"key":"05966004","name":"Attendorn, Hansestadt","type":"Stadt"},"district":{"key":"05966","name":"Olpe","type":"Kreis"},"federalState":{"key":"05","name":"Nordrhein-Westfalen"}},{"name":"Bahnhofstr.","postalCode":"57439","locality":"Attendorn","municipality":{"key":"05966004","name":"Attendorn, Hansestadt","type":"Stadt"},"district":{"key":"05966","name":"Olpe","type":"Kreis"},"federalState":{"key":"05","name":"Nordrhein-Westfalen"}},{"name":"Bahnstr.","postalCode":"57439","locality":"Attendorn","municipality":{"key":"05966004","name":"Attendorn, Hansestadt","type":"Stadt"},"district":{"key":"05966","name":"Olpe","type":"Kreis"},"federalState":{"key":"05","name":"Nordrhein-Westfalen"}},{"name":"Bauzunftstr.","postalCode":"57439","locality":"Attendorn","municipality":{"key":"05966004","name":"Attendorn, Hansestadt","type":"Stadt"},"district":{"key":"05966","name":"Olpe","type":"Kreis"},"federalState":{"key":"05","name":"Nordrhein-Westfalen"}},{"name":"Benzstr.","postalCode":"57439","locality":"Attendorn","municipality":{"key":"05966004","name":"Attendorn, Hansestadt","type":"Stadt"},"district":{"key":"05966","name":"Olpe","type":"Kreis"},"federalState":{"key":"05","name":"Nordrhein-Westfalen"}},{"name":"Bergkuhle","postalCode":"57439","locality":"Attendorn","municipality":{"key":"05966004","name":"Attendorn, Hansestadt","type":"Stadt"},"district":{"key":"05966","name":"Olpe","type":"Kreis"},"federalState":{"key":"05","name":"Nordrhein-Westfalen"}},{"name":"Bergstr.","postalCode":"57439","locality":"Attendorn","municipality":{"key":"05966004","name":"Attendorn, Hansestadt","type":"Stadt"},"district":{"key":"05966","name":"Olpe","type":"Kreis"},"federalState":{"key":"05","name":"Nordrhein-Westfalen"}},{"name":"Berliner Str.","postalCode":"57439","locality":"Attendorn","municipality":{"key":"05966004","name":"Attendorn, Hansestadt","type":"Stadt"},"district":{"key":"05966","name":"Olpe","type":"Kreis"},"federalState":{"key":"05","name":"Nordrhein-Westfalen"}},{"name":"Berlinghausen","postalCode":"57439","locality":"Attendorn","municipality":{"key":"05966004","name":"Attendorn, Hansestadt","type":"Stadt"},"district":{"key":"05966","name":"Olpe","type":"Kreis"},"federalState":{"key":"05","name":"Nordrhein-Westfalen"}},{"name":"Bieke","postalCode":"57439","locality":"Attendorn","municipality":{"key":"05966004","name":"Attendorn, Hansestadt","type":"Stadt"},"district":{"key":"05966","name":"Olpe","type":"Kreis"},"federalState":{"key":"05","name":"Nordrhein-Westfalen"}},{"name":"Biekegang","postalCode":"57439","locality":"Attendorn","municipality":{"key":"05966004","name":"Attendorn, Hansestadt","type":"Stadt"},"district":{"key":"05966","name":"Olpe","type":"Kreis"},"federalState":{"key":"05","name":"Nordrhein-Westfalen"}},{"name":"Bieketurmstr.","postalCode":"57439","locality":"Attendorn","municipality":{"key":"05966004","name":"Attendorn, Hansestadt","type":"Stadt"},"district":{"key":"05966","name":"Olpe","type":"Kreis"},"federalState":{"key":"05","name":"Nordrhein-Westfalen"}},{"name":"Biekhofer Str.","postalCode":"57439","locality":"Attendorn","municipality":{"key":"05966004","name":"Attendorn, Hansestadt","type":"Stadt"},"district":{"key":"05966","name":"Olpe","type":"Kreis"},"federalState":{"key":"05","name":"Nordrhein-Westfalen"}},{"name":"Biggeseestr.","postalCode":"57439","locality":"Attendorn","municipality":{"key":"05966004","name":"Attendorn, Hansestadt","type":"Stadt"},"district":{"key":"05966","name":"Olpe","type":"Kreis"},"federalState":{"key":"05","name":"Nordrhein-Westfalen"}},{"name":"Biggeweg","postalCode":"57439","locality":"Attendorn","municipality":{"key":"05966004","name":"Attendorn, Hansestadt","type":"Stadt"},"district":{"key":"05966","name":"Olpe","type":"Kreis"},"federalState":{"key":"05","name":"Nordrhein-Westfalen"}},{"name":"Bilsteiner Weg","postalCode":"57439","locality":"Attendorn","municipality":{"key":"05966004","name":"Attendorn, Hansestadt","type":"Stadt"},"district":{"key":"05966","name":"Olpe","type":"Kreis"},"federalState":{"key":"05","name":"Nordrhein-Westfalen"}},{"name":"Birkenfeld","postalCode":"57439","locality":"Attendorn","municipality":{"key":"05966004","name":"Attendorn, Hansestadt","type":"Stadt"},"district":{"key":"05966","name":"Olpe","type":"Kreis"},"federalState":{"key":"05","name":"Nordrhein-Westfalen"}},{"name":"Birkenweg","postalCode":"57439","locality":"Attendorn","municipality":{"key":"05966004","name":"Attendorn, Hansestadt","type":"Stadt"},"district":{"key":"05966","name":"Olpe","type":"Kreis"},"federalState":{"key":"05","name":"Nordrhein-Westfalen"}},{"name":"Birkeshardt","postalCode":"57439","locality":"Attendorn","municipality":{"key":"05966004","name":"Attendorn, Hansestadt","type":"Stadt"},"district":{"key":"05966","name":"Olpe","type":"Kreis"},"federalState":{"key":"05","name":"Nordrhein-Westfalen"}},{"name":"Bleichengasse","postalCode":"57439","locality":"Attendorn","municipality":{"key":"05966004","name":"Attendorn, Hansestadt","type":"Stadt"},"district":{"key":"05966","name":"Olpe","type":"Kreis"},"federalState":{"key":"05","name":"Nordrhein-Westfalen"}},{"name":"Blumenweg","postalCode":"57439","locality":"Attendorn","municipality":{"key":"05966004","name":"Attendorn, Hansestadt","type":"Stadt"},"district":{"key":"05966","name":"Olpe","type":"Kreis"},"federalState":{"key":"05","name":"Nordrhein-Westfalen"}},{"name":"Bornweg","postalCode":"57439","locality":"Attendorn","municipality":{"key":"05966004","name":"Attendorn, Hansestadt","type":"Stadt"},"district":{"key":"05966","name":"Olpe","type":"Kreis"},"federalState":{"key":"05","name":"Nordrhein-Westfalen"}},{"name":"Breiter Hagen","postalCode":"57439","locality":"Attendorn","municipality":{"key":"05966004","name":"Attendorn, Hansestadt","type":"Stadt"},"district":{"key":"05966","name":"Olpe","type":"Kreis"},"federalState":{"key":"05","name":"Nordrhein-Westfalen"}},{"name":"Breite Str.","postalCode":"57439","locality":"Attendorn","municipality":{"key":"05966004","name":"Attendorn, Hansestadt","type":"Stadt"},"district":{"key":"05966","name":"Olpe","type":"Kreis"},"federalState":{"key":"05","name":"Nordrhein-Westfalen"}},{"name":"Breite Techt","postalCode":"57439","locality":"Attendorn","municipality":{"key":"05966004","name":"Attendorn, Hansestadt","type":"Stadt"},"district":{"key":"05966","name":"Olpe","type":"Kreis"},"federalState":{"key":"05","name":"Nordrhein-Westfalen"}},{"name":"Bremer Str.","postalCode":"57439","locality":"Attendorn","municipality":{"key":"05966004","name":"Attendorn, Hansestadt","type":"Stadt"},"district":{"key":"05966","name":"Olpe","type":"Kreis"},"federalState":{"key":"05","name":"Nordrhein-Westfalen"}},{"name":"Bremge","postalCode":"57439","locality":"Attendorn","municipality":{"key":"05966004","name":"Attendorn, Hansestadt","type":"Stadt"},"district":{"key":"05966","name":"Olpe","type":"Kreis"},"federalState":{"key":"05","name":"Nordrhein-Westfalen"}},{"name":"Bremger Weg","postalCode":"57439","locality":"Attendorn","municipality":{"key":"05966004","name":"Attendorn, Hansestadt","type":"Stadt"},"district":{"key":"05966","name":"Olpe","type":"Kreis"},"federalState":{"key":"05","name":"Nordrhein-Westfalen"}},{"name":"Breslauer Str.","postalCode":"57439","locality":"Attendorn","municipality":{"key":"05966004","name":"Attendorn, Hansestadt","type":"Stadt"},"district":{"key":"05966","name":"Olpe","type":"Kreis"},"federalState":{"key":"05","name":"Nordrhein-Westfalen"}},{"name":"Briloner Str.","postalCode":"57439","locality":"Attendorn","municipality":{"key":"05966004","name":"Attendorn, Hansestadt","type":"Stadt"},"district":{"key":"05966","name":"Olpe","type":"Kreis"},"federalState":{"key":"05","name":"Nordrhein-Westfalen"}},{"name":"Bruchstr.","postalCode":"57439","locality":"Attendorn","municipality":{"key":"05966004","name":"Attendorn, Hansestadt","type":"Stadt"},"district":{"key":"05966","name":"Olpe","type":"Kreis"},"federalState":{"key":"05","name":"Nordrhein-Westfalen"}},{"name":"Brunabendstr.","postalCode":"57439","locality":"Attendorn","municipality":{"key":"05966004","name":"Attendorn, Hansestadt","type":"Stadt"},"district":{"key":"05966","name":"Olpe","type":"Kreis"},"federalState":{"key":"05","name":"Nordrhein-Westfalen"}},{"name":"Brunnengasse","postalCode":"57439","locality":"Attendorn","municipality":{"key":"05966004","name":"Attendorn, Hansestadt","type":"Stadt"},"district":{"key":"05966","name":"Olpe","type":"Kreis"},"federalState":{"key":"05","name":"Nordrhein-Westfalen"}},{"name":"Buchhagen","postalCode":"57439","locality":"Attendorn","municipality":{"key":"05966004","name":"Attendorn, Hansestadt","type":"Stadt"},"district":{"key":"05966","name":"Olpe","type":"Kreis"},"federalState":{"key":"05","name":"Nordrhein-Westfalen"}},{"name":"Carl-Samuel-Senff-Str.","postalCode":"01833","locality":"Stolpen","municipality":{"key":"14628380","name":"Stolpen, Stadt","type":"Stadt"},"district":{"key":"14628","name":"Sächsische Schweiz-Osterzgebirge","type":"Landkreis"},"federalState":{"key":"14","name":"Sachsen"}},{"name":"Caspar-Klein-Weg","postalCode":"57462","locality":"Olpe","municipality":{"key":"05966024","name":"Olpe, Stadt","type":"Stadt"},"district":{"key":"05966","name":"Olpe","type":"Kreis"},"federalState":{"key":"05","name":"Nordrhein-Westfalen"}},{"name":"Christian-Gercken-Str.","postalCode":"01833","locality":"Stolpen","municipality":{"key":"14628380","name":"Stolpen, Stadt","type":"Stadt"},"district":{"key":"14628","name":"Sächsische Schweiz-Osterzgebirge","type":"Landkreis"},"federalState":{"key":"14","name":"Sachsen"}},{"name":"Christophorusweg","postalCode":"57462","locality":"Olpe","municipality":{"key":"05966024","name":"Olpe, Stadt","type":"Stadt"},"district":{"key":"05966","name":"Olpe","type":"Kreis"},"federalState":{"key":"05","name":"Nordrhein-Westfalen"}},{"name":"Clemens-Brentano-Str.","postalCode":"57462","locality":"Olpe","municipality":{"key":"05966024","name":"Olpe, Stadt","type":"Stadt"},"district":{"key":"05966","name":"Olpe","type":"Kreis"},"federalState":{"key":"05","name":"Nordrhein-Westfalen"}},{"name":"Coselgasse","postalCode":"01833","locality":"Stolpen","municipality":{"key":"14628380","name":"Stolpen, Stadt","type":"Stadt"},"district":{"key":"14628","name":"Sächsische Schweiz-Osterzgebirge","type":"Landkreis"},"federalState":{"key":"14","name":"Sachsen"}},{"name":"Daimlerstr.","postalCode":"57439","locality":"Attendorn","municipality":{"key":"05966004","name":"Attendorn, Hansestadt","type":"Stadt"},"district":{"key":"05966","name":"Olpe","type":"Kreis"},"federalState":{"key":"05","name":"Nordrhein-Westfalen"}},{"name":"Dammweg","postalCode":"57439","locality":"Attendorn","municipality":{"key":"05966004","name":"Attendorn, Hansestadt","type":"Stadt"},"district":{"key":"05966","name":"Olpe","type":"Kreis"},"federalState":{"key":"05","name":"Nordrhein-Westfalen"}},{"name":"Daseberg","postalCode":"57439","locality":"Attendorn","municipality":{"key":"05966004","name":"Attendorn, Hansestadt","type":"Stadt"},"district":{"key":"05966","name":"Olpe","type":"Kreis"},"federalState":{"key":"05","name":"Nordrhein-Westfalen"}},{"name":"Dechant-Schulte-Str.","postalCode":"57439","locality":"Attendorn","municipality":{"key":"05966004","name":"Attendorn, Hansestadt","type":"Stadt"},"district":{"key":"05966","name":"Olpe","type":"Kreis"},"federalState":{"key":"05","name":"Nordrhein-Westfalen"}},{"name":"Dieselstr.","postalCode":"57439","locality":"Attendorn","municipality":{"key":"05966004","name":"Attendorn, Hansestadt","type":"Stadt"},"district":{"key":"05966","name":"Olpe","type":"Kreis"},"federalState":{"key":"05","name":"Nordrhein-Westfalen"}},{"name":"Donnerwenge","postalCode":"57439","locality":"Attendorn","municipality":{"key":"05966004","name":"Attendorn, Hansestadt","type":"Stadt"},"district":{"key":"05966","name":"Olpe","type":"Kreis"},"federalState":{"key":"05","name":"Nordrhein-Westfalen"}},{"name":"Dorfstr.","postalCode":"57439","locality":"Attendorn","municipality":{"key":"05966004","name":"Attendorn, Hansestadt","type":"Stadt"},"district":{"key":"05966","name":"Olpe","type":"Kreis"},"federalState":{"key":"05","name":"Nordrhein-Westfalen"}},{"name":"Dortmunder Str.","postalCode":"57439","locality":"Attendorn","municipality":{"key":"05966004","name":"Attendorn, Hansestadt","type":"Stadt"},"district":{"key":"05966","name":"Olpe","type":"Kreis"},"federalState":{"key":"05","name":"Nordrhein-Westfalen"}},{"name":"Drift","postalCode":"57439","locality":"Attendorn","municipality":{"key":"05966004","name":"Attendorn, Hansestadt","type":"Stadt"},"district":{"key":"05966","name":"Olpe","type":"Kreis"},"federalState":{"key":"05","name":"Nordrhein-Westfalen"}},{"name":"Drinker Schlaa","postalCode":"57439","locality":"Attendorn","municipality":{"key":"05966004","name":"Attendorn, Hansestadt","type":"Stadt"},"district":{"key":"05966","name":"Olpe","type":"Kreis"},"federalState":{"key":"05","name":"Nordrhein-Westfalen"}},{"name":"Drosselweg","postalCode":"57439","locality":"Attendorn","municipality":{"key":"05966004","name":"Attendorn, Hansestadt","type":"Stadt"},"district":{"key":"05966","name":"Olpe","type":"Kreis"},"federalState":{"key":"05","name":"Nordrhein-Westfalen"}},{"name":"Dünscheder Str.","postalCode":"57439","locality":"Attendorn","municipality":{"key":"05966004","name":"Attendorn, Hansestadt","type":"Stadt"},"district":{"key":"05966","name":"Olpe","type":"Kreis"},"federalState":{"key":"05","name":"Nordrhein-Westfalen"}},{"name":"Dusenschuren","postalCode":"57439","locality":"Attendorn","municipality":{"key":"05966004","name":"Attendorn, Hansestadt","type":"Stadt"},"district":{"key":"05966","name":"Olpe","type":"Kreis"},"federalState":{"key":"05","name":"Nordrhein-Westfalen"}},{"name":"Ebbekammloipe","postalCode":"57439","locality":"Attendorn","municipality":{"key":"05966004","name":"Attendorn, Hansestadt","type":"Stadt"},"district":{"key":"05966","name":"Olpe","type":"Kreis"},"federalState":{"key":"05","name":"Nordrhein-Westfalen"}},{"name":"Ebbeweg","postalCode":"57439","locality":"Attendorn","municipality":{"key":"05966004","name":"Attendorn, Hansestadt","type":"Stadt"},"district":{"key":"05966","name":"Olpe","type":"Kreis"},"federalState":{"key":"05","name":"Nordrhein-Westfalen"}},{"name":"Eiche","postalCode":"57439","locality":"Attendorn","municipality":{"key":"05966004","name":"Attendorn, Hansestadt","type":"Stadt"},"district":{"key":"05966","name":"Olpe","type":"Kreis"},"federalState":{"key":"05","name":"Nordrhein-Westfalen"}},{"name":"Eichendorffstr.","postalCode":"57439","locality":"Attendorn","municipality":{"key":"05966004","name":"Attendorn, Hansestadt","type":"Stadt"},"district":{"key":"05966","name":"Olpe","type":"Kreis"},"federalState":{"key":"05","name":"Nordrhein-Westfalen"}},{"name":"Eifelstr.","postalCode":"57439","locality":"Attendorn","municipality":{"key":"05966004","name":"Attendorn, Hansestadt","type":"Stadt"},"district":{"key":"05966","name":"Olpe","type":"Kreis"},"federalState":{"key":"05","name":"Nordrhein-Westfalen"}},{"name":"Else-Tump-Weg","postalCode":"57439","locality":"Attendorn","municipality":{"key":"05966004","name":"Attendorn, Hansestadt","type":"Stadt"},"district":{"key":"05966","name":"Olpe","type":"Kreis"},"federalState":{"key":"05","name":"Nordrhein-Westfalen"}},{"name":"Engelbertstr.","postalCode":"57439","locality":"Attendorn","municipality":{"key":"05966004","name":"Attendorn, Hansestadt","type":"Stadt"},"district":{"key":"05966","name":"Olpe","type":"Kreis"},"federalState":{"key":"05","name":"Nordrhein-Westfalen"}},{"name":"Ennester Str.","postalCode":"57439","locality":"Attendorn","municipality":{"key":"05966004","name":"Attendorn, Hansestadt","type":"Stadt"},"district":{"key":"05966","name":"Olpe","type":"Kreis"},"federalState":{"key":"05","name":"Nordrhein-Westfalen"}},{"name":"Ennester Weg","postalCode":"57439","locality":"Attendorn","municipality":{"key":"05966004","name":"Attendorn, Hansestadt","type":"Stadt"},"district":{"key":"05966","name":"Olpe","type":"Kreis"},"federalState":{"key":"05","name":"Nordrhein-Westfalen"}},{"name":"Ensenhohl","postalCode":"57439","locality":"Attendorn","municipality":{"key":"05966004","name":"Attendorn, Hansestadt","type":"Stadt"},"district":{"key":"05966","name":"Olpe","type":"Kreis"},"federalState":{"key":"05","name":"Nordrhein-Westfalen"}},{"name":"Enzianstr.","postalCode":"57439","locality":"Attendorn","municipality":{"key":"05966004","name":"Attendorn, Hansestadt","type":"Stadt"},"district":{"key":"05966","name":"Olpe","type":"Kreis"},"federalState":{"key":"05","name":"Nordrhein-Westfalen"}},{"name":"Erlenstr.","postalCode":"57439","locality":"Attendorn","municipality":{"key":"05966004","name":"Attendorn, Hansestadt","type":"Stadt"},"district":{"key":"05966","name":"Olpe","type":"Kreis"},"federalState":{"key":"05","name":"Nordrhein-Westfalen"}},{"name":"Ernteweg","postalCode":"57439","locality":"Attendorn","municipality":{"key":"05966004","name":"Attendorn, Hansestadt","type":"Stadt"},"district":{"key":"05966","name":"Olpe","type":"Kreis"},"federalState":{"key":"05","name":"Nordrhein-Westfalen"}},{"name":"Eschenweg","postalCode":"57439","locality":"Attendorn","municipality":{"key":"05966004","name":"Attendorn, Hansestadt","type":"Stadt"},"district":{"key":"05966","name":"Olpe","type":"Kreis"},"federalState":{"key":"05","name":"Nordrhein-Westfalen"}},{"name":"Ewiger Str.","postalCode":"57439","locality":"Attendorn","municipality":{"key":"05966004","name":"Attendorn, Hansestadt","type":"Stadt"},"district":{"key":"05966","name":"Olpe","type":"Kreis"},"federalState":{"key":"05","name":"Nordrhein-Westfalen"}},{"name":"Falschede","postalCode":"57439","locality":"Attendorn","municipality":{"key":"05966004","name":"Attendorn, Hansestadt","type":"Stadt"},"district":{"key":"05966","name":"Olpe","type":"Kreis"},"federalState":{"key":"05","name":"Nordrhein-Westfalen"}},{"name":"Färberstr.","postalCode":"57439","locality":"Attendorn","municipality":{"key":"05966004","name":"Attendorn, Hansestadt","type":"Stadt"},"district":{"key":"05966","name":"Olpe","type":"Kreis"},"federalState":{"key":"05","name":"Nordrhein-Westfalen"}},{"name":"Fernholte","postalCode":"57439","locality":"Attendorn","municipality":{"key":"05966004","name":"Attendorn, Hansestadt","type":"Stadt"},"district":{"key":"05966","name":"Olpe","type":"Kreis"},"federalState":{"key":"05","name":"Nordrhein-Westfalen"}},{"name":"Feuerteichplatz","postalCode":"57439","locality":"Attendorn","municipality":{"key":"05966004","name":"Attendorn, Hansestadt","type":"Stadt"},"district":{"key":"05966","name":"Olpe","type":"Kreis"},"federalState":{"key":"05","name":"Nordrhein-Westfalen"}},{"name":"Fichtenhang","postalCode":"57439","locality":"Attendorn","municipality":{"key":"05966004","name":"Attendorn, Hansestadt","type":"Stadt"},"district":{"key":"05966","name":"Olpe","type":"Kreis"},"federalState":{"key":"05","name":"Nordrhein-Westfalen"}},{"name":"Fichtenweg","postalCode":"57439","locality":"Attendorn","municipality":{"key":"05966004","name":"Attendorn, Hansestadt","type":"Stadt"},"district":{"key":"05966","name":"Olpe","type":"Kreis"},"federalState":{"key":"05","name":"Nordrhein-Westfalen"}},{"name":"Finkenstr.","postalCode":"57439","locality":"Attendorn","municipality":{"key":"05966004","name":"Attendorn, Hansestadt","type":"Stadt"},"district":{"key":"05966","name":"Olpe","type":"Kreis"},"federalState":{"key":"05","name":"Nordrhein-Westfalen"}},{"name":"Finkenweg","postalCode":"57439","locality":"Attendorn","municipality":{"key":"05966004","name":"Attendorn, Hansestadt","type":"Stadt"},"district":{"key":"05966","name":"Olpe","type":"Kreis"},"federalState":{"key":"05","name":"Nordrhein-Westfalen"}},{"name":"Finnentroper Str.","postalCode":"57439","locality":"Attendorn","municipality":{"key":"05966004","name":"Attendorn, Hansestadt","type":"Stadt"},"district":{"key":"05966","name":"Olpe","type":"Kreis"},"federalState":{"key":"05","name":"Nordrhein-Westfalen"}},{"name":"Fleischhauerstr.","postalCode":"57439","locality":"Attendorn","municipality":{"key":"05966004","name":"Attendorn, Hansestadt","type":"Stadt"},"district":{"key":"05966","name":"Olpe","type":"Kreis"},"federalState":{"key":"05","name":"Nordrhein-Westfalen"}},{"name":"Flensburger Str.","postalCode":"57439","locality":"Attendorn","municipality":{"key":"05966004","name":"Attendorn, Hansestadt","type":"Stadt"},"district":{"key":"05966","name":"Olpe","type":"Kreis"},"federalState":{"key":"05","name":"Nordrhein-Westfalen"}},{"name":"Förder Weg","postalCode":"57439","locality":"Attendorn","municipality":{"key":"05966004","name":"Attendorn, Hansestadt","type":"Stadt"},"district":{"key":"05966","name":"Olpe","type":"Kreis"},"federalState":{"key":"05","name":"Nordrhein-Westfalen"}},{"name":"Franz-Rinscheid-Str.","postalCode":"57439","locality":"Attendorn","municipality":{"key":"05966004","name":"Attendorn, Hansestadt","type":"Stadt"},"district":{"key":"05966","name":"Olpe","type":"Kreis"},"federalState":{"key":"05","name":"Nordrhein-Westfalen"}},{"name":"Freithoffstr.","postalCode":"57439","locality":"Attendorn","municipality":{"key":"05966004","name":"Attendorn, Hansestadt","type":"Stadt"},"district":{"key":"05966","name":"Olpe","type":"Kreis"},"federalState":{"key":"05","name":"Nordrhein-Westfalen"}},{"name":"Friedensstr.","postalCode":"57439","locality":"Attendorn","municipality":{"key":"05966004","name":"Attendorn, Hansestadt","type":"Stadt"},"district":{"key":"05966","name":"Olpe","type":"Kreis"},"federalState":{"key":"05","name":"Nordrhein-Westfalen"}},{"name":"Friedhofstr.","postalCode":"57439","locality":"Attendorn","municipality":{"key":"05966004","name":"Attendorn, Hansestadt","type":"Stadt"},"district":{"key":"05966","name":"Olpe","type":"Kreis"},"federalState":{"key":"05","name":"Nordrhein-Westfalen"}},{"name":"Fuchsring","postalCode":"57439","locality":"Attendorn","municipality":{"key":"05966004","name":"Attendorn, Hansestadt","type":"Stadt"},"district":{"key":"05966","name":"Olpe","type":"Kreis"},"federalState":{"key":"05","name":"Nordrhein-Westfalen"}},{"name":"Fürstmickestr.","postalCode":"57439","locality":"Attendorn","municipality":{"key":"05966004","name":"Attendorn, Hansestadt","type":"Stadt"},"district":{"key":"05966","name":"Olpe","type":"Kreis"},"federalState":{"key":"05","name":"Nordrhein-Westfalen"}},{"name":"Gartenstr.","postalCode":"57439","locality":"Attendorn","municipality":{"key":"05966004","name":"Attendorn, Hansestadt","type":"Stadt"},"district":{"key":"05966","name":"Olpe","type":"Kreis"},"federalState":{"key":"05","name":"Nordrhein-Westfalen"}},{"name":"Gartenweg","postalCode":"57439","locality":"Attendorn","municipality":{"key":"05966004","name":"Attendorn, Hansestadt","type":"Stadt"},"district":{"key":"05966","name":"Olpe","type":"Kreis"},"federalState":{"key":"05","name":"Nordrhein-Westfalen"}},{"name":"Gerhard-Stern-Str.","postalCode":"57439","locality":"Attendorn","municipality":{"key":"05966004","name":"Attendorn, Hansestadt","type":"Stadt"},"district":{"key":"05966","name":"Olpe","type":"Kreis"},"federalState":{"key":"05","name":"Nordrhein-Westfalen"}},{"name":"Gerhart-Hauptmann-Str.","postalCode":"57439","locality":"Attendorn","municipality":{"key":"05966004","name":"Attendorn, Hansestadt","type":"Stadt"},"district":{"key":"05966","name":"Olpe","type":"Kreis"},"federalState":{"key":"05","name":"Nordrhein-Westfalen"}},{"name":"Gilberg","postalCode":"57439","locality":"Attendorn","municipality":{"key":"05966004","name":"Attendorn, Hansestadt","type":"Stadt"},"district":{"key":"05966","name":"Olpe","type":"Kreis"},"federalState":{"key":"05","name":"Nordrhein-Westfalen"}},{"name":"Glockengasse","postalCode":"57439","locality":"Attendorn","municipality":{"key":"05966004","name":"Attendorn, Hansestadt","type":"Stadt"},"district":{"key":"05966","name":"Olpe","type":"Kreis"},"federalState":{"key":"05","name":"Nordrhein-Westfalen"}},{"name":"Goethestr.","postalCode":"57439","locality":"Attendorn","municipality":{"key":"05966004","name":"Attendorn, Hansestadt","type":"Stadt"},"district":{"key":"05966","name":"Olpe","type":"Kreis"},"federalState":{"key":"05","name":"Nordrhein-Westfalen"}},{"name":"Goldammerstr.","postalCode":"57439","locality":"Attendorn","municipality":{"key":"05966004","name":"Attendorn, Hansestadt","type":"Stadt"},"district":{"key":"05966","name":"Olpe","type":"Kreis"},"federalState":{"key":"05","name":"Nordrhein-Westfalen"}},{"name":"Grafweg","postalCode":"57439","locality":"Attendorn","municipality":{"key":"05966004","name":"Attendorn, Hansestadt","type":"Stadt"},"district":{"key":"05966","name":"Olpe","type":"Kreis"},"federalState":{"key":"05","name":"Nordrhein-Westfalen"}},{"name":"Grüner Weg","postalCode":"57439","locality":"Attendorn","municipality":{"key":"05966004","name":"Attendorn, Hansestadt","type":"Stadt"},"district":{"key":"05966","name":"Olpe","type":"Kreis"},"federalState":{"key":"05","name":"Nordrhein-Westfalen"}},{"name":"Gutenbergstr.","postalCode":"57439","locality":"Attendorn","municipality":{"key":"05966004","name":"Attendorn, Hansestadt","type":"Stadt"},"district":{"key":"05966","name":"Olpe","type":"Kreis"},"federalState":{"key":"05","name":"Nordrhein-Westfalen"}},{"name":"Gutsweg","postalCode":"57439","locality":"Attendorn","municipality":{"key":"05966004","name":"Attendorn, Hansestadt","type":"Stadt"},"district":{"key":"05966","name":"Olpe","type":"Kreis"},"federalState":{"key":"05","name":"Nordrhein-Westfalen"}},{"name":"Hahnbeuler Kreuz","postalCode":"57439","locality":"Attendorn","municipality":{"key":"05966004","name":"Attendorn, Hansestadt","type":"Stadt"},"district":{"key":"05966","name":"Olpe","type":"Kreis"},"federalState":{"key":"05","name":"Nordrhein-Westfalen"}},{"name":"Halbfaßweg","postalCode":"57439","locality":"Attendorn","municipality":{"key":"05966004","name":"Attendorn, Hansestadt","type":"Stadt"},"district":{"key":"05966","name":"Olpe","type":"Kreis"},"federalState":{"key":"05","name":"Nordrhein-Westfalen"}},{"name":"Hamburger Str.","postalCode":"57439","locality":"Attendorn","municipality":{"key":"05966004","name":"Attendorn, Hansestadt","type":"Stadt"},"district":{"key":"05966","name":"Olpe","type":"Kreis"},"federalState":{"key":"05","name":"Nordrhein-Westfalen"}},{"name":"Hamerland","postalCode":"57439","locality":"Attendorn","municipality":{"key":"05966004","name":"Attendorn, Hansestadt","type":"Stadt"},"district":{"key":"05966","name":"Olpe","type":"Kreis"},"federalState":{"key":"05","name":"Nordrhein-Westfalen"}},{"name":"Hansastr.","postalCode":"57439","locality":"Attendorn","municipality":{"key":"05966004","name":"Attendorn, Hansestadt","type":"Stadt"},"district":{"key":"05966","name":"Olpe","type":"Kreis"},"federalState":{"key":"05","name":"Nordrhein-Westfalen"}},{"name":"Haselweg","postalCode":"57439","locality":"Attendorn","municipality":{"key":"05966004","name":"Attendorn, Hansestadt","type":"Stadt"},"district":{"key":"05966","name":"Olpe","type":"Kreis"},"federalState":{"key":"05","name":"Nordrhein-Westfalen"}},{"name":"Hebberger Str.","postalCode":"57439","locality":"Attendorn","municipality":{"key":"05966004","name":"Attendorn, Hansestadt","type":"Stadt"},"district":{"key":"05966","name":"Olpe","type":"Kreis"},"federalState":{"key":"05","name":"Nordrhein-Westfalen"}},{"name":"Heggener Str.","postalCode":"57439","locality":"Attendorn","municipality":{"key":"05966004","name":"Attendorn, Hansestadt","type":"Stadt"},"district":{"key":"05966","name":"Olpe","type":"Kreis"},"federalState":{"key":"05","name":"Nordrhein-Westfalen"}},{"name":"Heggener Weg","postalCode":"57439","locality":"Attendorn","municipality":{"key":"05966004","name":"Attendorn, Hansestadt","type":"Stadt"},"district":{"key":"05966","name":"Olpe","type":"Kreis"},"federalState":{"key":"05","name":"Nordrhein-Westfalen"}},{"name":"Heidenstr.","postalCode":"57439","locality":"Attendorn","municipality":{"key":"05966004","name":"Attendorn, Hansestadt","type":"Stadt"},"district":{"key":"05966","name":"Olpe","type":"Kreis"},"federalState":{"key":"05","name":"Nordrhein-Westfalen"}},{"name":"Heideweg","postalCode":"57439","locality":"Attendorn","municipality":{"key":"05966004","name":"Attendorn, Hansestadt","type":"Stadt"},"district":{"key":"05966","name":"Olpe","type":"Kreis"},"federalState":{"key":"05","name":"Nordrhein-Westfalen"}},{"name":"Heinrich-Kaiser-Str.","postalCode":"57439","locality":"Attendorn","municipality":{"key":"05966004","name":"Attendorn, Hansestadt","type":"Stadt"},"district":{"key":"05966","name":"Olpe","type":"Kreis"},"federalState":{"key":"05","name":"Nordrhein-Westfalen"}},{"name":"Heldener Str.","postalCode":"57439","locality":"Attendorn","municipality":{"key":"05966004","name":"Attendorn, Hansestadt","type":"Stadt"},"district":{"key":"05966","name":"Olpe","type":"Kreis"},"federalState":{"key":"05","name":"Nordrhein-Westfalen"}},{"name":"Helle","postalCode":"57439","locality":"Attendorn","municipality":{"key":"05966004","name":"Attendorn, Hansestadt","type":"Stadt"},"district":{"key":"05966","name":"Olpe","type":"Kreis"},"federalState":{"key":"05","name":"Nordrhein-Westfalen"}},{"name":"Helle Bieke","postalCode":"57439","locality":"Attendorn","municipality":{"key":"05966004","name":"Attendorn, Hansestadt","type":"Stadt"},"district":{"key":"05966","name":"Olpe","type":"Kreis"},"federalState":{"key":"05","name":"Nordrhein-Westfalen"}},{"name":"Helle Schlah","postalCode":"57439","locality":"Attendorn","municipality":{"key":"05966004","name":"Attendorn, Hansestadt","type":"Stadt"},"district":{"key":"05966","name":"Olpe","type":"Kreis"},"federalState":{"key":"05","name":"Nordrhein-Westfalen"}},{"name":"Herforder Str.","postalCode":"57439","locality":"Attendorn","municipality":{"key":"05966004","name":"Attendorn, Hansestadt","type":"Stadt"},"district":{"key":"05966","name":"Olpe","type":"Kreis"},"federalState":{"key":"05","name":"Nordrhein-Westfalen"}},{"name":"Hermann-Forck-Str.","postalCode":"57439","locality":"Attendorn","municipality":{"key":"05966004","name":"Attendorn, Hansestadt","type":"Stadt"},"district":{"key":"05966","name":"Olpe","type":"Kreis"},"federalState":{"key":"05","name":"Nordrhein-Westfalen"}},{"name":"Himberg","postalCode":"57439","locality":"Attendorn","municipality":{"key":"05966004","name":"Attendorn, Hansestadt","type":"Stadt"},"district":{"key":"05966","name":"Olpe","type":"Kreis"},"federalState":{"key":"05","name":"Nordrhein-Westfalen"}},{"name":"Himrichweg","postalCode":"57439","locality":"Attendorn","municipality":{"key":"05966004","name":"Attendorn, Hansestadt","type":"Stadt"},"district":{"key":"05966","name":"Olpe","type":"Kreis"},"federalState":{"key":"05","name":"Nordrhein-Westfalen"}},{"name":"Hofestatt","postalCode":"57439","locality":"Attendorn","municipality":{"key":"05966004","name":"Attendorn, Hansestadt","type":"Stadt"},"district":{"key":"05966","name":"Olpe","type":"Kreis"},"federalState":{"key":"05","name":"Nordrhein-Westfalen"}},{"name":"Hofstr.","postalCode":"57439","locality":"Attendorn","municipality":{"key":"05966004","name":"Attendorn, Hansestadt","type":"Stadt"},"district":{"key":"05966","name":"Olpe","type":"Kreis"},"federalState":{"key":"05","name":"Nordrhein-Westfalen"}},{"name":"Höhenstr.","postalCode":"57439","locality":"Attendorn","municipality":{"key":"05966004","name":"Attendorn, Hansestadt","type":"Stadt"},"district":{"key":"05966","name":"Olpe","type":"Kreis"},"federalState":{"key":"05","name":"Nordrhein-Westfalen"}},{"name":"Hohler Weg","postalCode":"57439","locality":"Attendorn","municipality":{"key":"05966004","name":"Attendorn, Hansestadt","type":"Stadt"},"district":{"key":"05966","name":"Olpe","type":"Kreis"},"federalState":{"key":"05","name":"Nordrhein-Westfalen"}},{"name":"Hollenbocker Str.","postalCode":"57439","locality":"Attendorn","municipality":{"key":"05966004","name":"Attendorn, Hansestadt","type":"Stadt"},"district":{"key":"05966","name":"Olpe","type":"Kreis"},"federalState":{"key":"05","name":"Nordrhein-Westfalen"}},{"name":"Hollenfeld","postalCode":"57439","locality":"Attendorn","municipality":{"key":"05966004","name":"Attendorn, Hansestadt","type":"Stadt"},"district":{"key":"05966","name":"Olpe","type":"Kreis"},"federalState":{"key":"05","name":"Nordrhein-Westfalen"}},{"name":"Holunderweg","postalCode":"57439","locality":"Attendorn","municipality":{"key":"05966004","name":"Attendorn, Hansestadt","type":"Stadt"},"district":{"key":"05966","name":"Olpe","type":"Kreis"},"federalState":{"key":"05","name":"Nordrhein-Westfalen"}},{"name":"Holzweger Kamp","postalCode":"57439","locality":"Attendorn","municipality":{"key":"05966004","name":"Attendorn, Hansestadt","type":"Stadt"},"district":{"key":"05966","name":"Olpe","type":"Kreis"},"federalState":{"key":"05","name":"Nordrhein-Westfalen"}},{"name":"Holzweger Str.","postalCode":"57439","locality":"Attendorn","municipality":{"key":"05966004","name":"Attendorn, Hansestadt","type":"Stadt"},"district":{"key":"05966","name":"Olpe","type":"Kreis"},"federalState":{"key":"05","name":"Nordrhein-Westfalen"}},{"name":"Hubertusstr.","postalCode":"57439","locality":"Attendorn","municipality":{"key":"05966004","name":"Attendorn, Hansestadt","type":"Stadt"},"district":{"key":"05966","name":"Olpe","type":"Kreis"},"federalState":{"key":"05","name":"Nordrhein-Westfalen"}},{"name":"Hügelweg","postalCode":"57439","locality":"Attendorn","municipality":{"key":"05966004","name":"Attendorn, Hansestadt","type":"Stadt"},"district":{"key":"05966","name":"Olpe","type":"Kreis"},"federalState":{"key":"05","name":"Nordrhein-Westfalen"}},{"name":"Huhlenmarkt","postalCode":"57439","locality":"Attendorn","municipality":{"key":"05966004","name":"Attendorn, Hansestadt","type":"Stadt"},"district":{"key":"05966","name":"Olpe","type":"Kreis"},"federalState":{"key":"05","name":"Nordrhein-Westfalen"}},{"name":"Hülschotter Str.","postalCode":"57439","locality":"Attendorn","municipality":{"key":"05966004","name":"Attendorn, Hansestadt","type":"Stadt"},"district":{"key":"05966","name":"Olpe","type":"Kreis"},"federalState":{"key":"05","name":"Nordrhein-Westfalen"}},{"name":"Hunnebrink","postalCode":"57439","locality":"Attendorn","municipality":{"key":"05966004","name":"Attendorn, Hansestadt","type":"Stadt"},"district":{"key":"05966","name":"Olpe","type":"Kreis"},"federalState":{"key":"05","name":"Nordrhein-Westfalen"}},{"name":"Ihnestr.","postalCode":"57439","locality":"Attendorn","municipality":{"key":"05966004","name":"Attendorn, Hansestadt","type":"Stadt"},"district":{"key":"05966","name":"Olpe","type":"Kreis"},"federalState":{"key":"05","name":"Nordrhein-Westfalen"}},{"name":"Im Grund","postalCode":"57439","locality":"Attendorn","municipality":{"key":"05966004","name":"Attendorn, Hansestadt","type":"Stadt"},"district":{"key":"05966","name":"Olpe","type":"Kreis"},"federalState":{"key":"05","name":"Nordrhein-Westfalen"}},{"name":"Im Hain","postalCode":"57439","locality":"Attendorn","municipality":{"key":"05966004","name":"Attendorn, Hansestadt","type":"Stadt"},"district":{"key":"05966","name":"Olpe","type":"Kreis"},"federalState":{"key":"05","name":"Nordrhein-Westfalen"}},{"name":"Im Hof","postalCode":"57439","locality":"Attendorn","municipality":{"key":"05966004","name":"Attendorn, Hansestadt","type":"Stadt"},"district":{"key":"05966","name":"Olpe","type":"Kreis"},"federalState":{"key":"05","name":"Nordrhein-Westfalen"}},{"name":"Im Hohl","postalCode":"57439","locality":"Attendorn","municipality":{"key":"05966004","name":"Attendorn, Hansestadt","type":"Stadt"},"district":{"key":"05966","name":"Olpe","type":"Kreis"},"federalState":{"key":"05","name":"Nordrhein-Westfalen"}},{"name":"Im Kamp","postalCode":"57439","locality":"Attendorn","municipality":{"key":"05966004","name":"Attendorn, Hansestadt","type":"Stadt"},"district":{"key":"05966","name":"Olpe","type":"Kreis"},"federalState":{"key":"05","name":"Nordrhein-Westfalen"}},{"name":"Im Sackhof","postalCode":"57439","locality":"Attendorn","municipality":{"key":"05966004","name":"Attendorn, Hansestadt","type":"Stadt"},"district":{"key":"05966","name":"Olpe","type":"Kreis"},"federalState":{"key":"05","name":"Nordrhein-Westfalen"}},{"name":"Im Schade","postalCode":"57439","locality":"Attendorn","municipality":{"key":"05966004","name":"Attendorn, Hansestadt","type":"Stadt"},"district":{"key":"05966","name":"Olpe","type":"Kreis"},"federalState":{"key":"05","name":"Nordrhein-Westfalen"}},{"name":"Im Schwalbenohl","postalCode":"57439","locality":"Attendorn","municipality":{"key":"05966004","name":"Attendorn, Hansestadt","type":"Stadt"},"district":{"key":"05966","name":"Olpe","type":"Kreis"},"federalState":{"key":"05","name":"Nordrhein-Westfalen"}},{"name":"Im Siepen","postalCode":"57439","locality":"Attendorn","municipality":{"key":"05966004","name":"Attendorn, Hansestadt","type":"Stadt"},"district":{"key":"05966","name":"Olpe","type":"Kreis"},"federalState":{"key":"05","name":"Nordrhein-Westfalen"}},{"name":"Im Sonnenhohl","postalCode":"57439","locality":"Attendorn","municipality":{"key":"05966004","name":"Attendorn, Hansestadt","type":"Stadt"},"district":{"key":"05966","name":"Olpe","type":"Kreis"},"federalState":{"key":"05","name":"Nordrhein-Westfalen"}},{"name":"Im Tal","postalCode":"57439","locality":"Attendorn","municipality":{"key":"05966004","name":"Attendorn, Hansestadt","type":"Stadt"},"district":{"key":"05966","name":"Olpe","type":"Kreis"},"federalState":{"key":"05","name":"Nordrhein-Westfalen"}},{"name":"Im Tangel","postalCode":"57439","locality":"Attendorn","municipality":{"key":"05966004","name":"Attendorn, Hansestadt","type":"Stadt"},"district":{"key":"05966","name":"Olpe","type":"Kreis"},"federalState":{"key":"05","name":"Nordrhein-Westfalen"}},{"name":"Im Weingarten","postalCode":"57439","locality":"Attendorn","municipality":{"key":"05966004","name":"Attendorn, Hansestadt","type":"Stadt"},"district":{"key":"05966","name":"Olpe","type":"Kreis"},"federalState":{"key":"05","name":"Nordrhein-Westfalen"}},{"name":"Im Wiebusch","postalCode":"57439","locality":"Attendorn","municipality":{"key":"05966004","name":"Attendorn, Hansestadt","type":"Stadt"},"district":{"key":"05966","name":"Olpe","type":"Kreis"},"federalState":{"key":"05","name":"Nordrhein-Westfalen"}},{"name":"In der Bache","postalCode":"57439","locality":"Attendorn","municipality":{"key":"05966004","name":"Attendorn, Hansestadt","type":"Stadt"},"district":{"key":"05966","name":"Olpe","type":"Kreis"},"federalState":{"key":"05","name":"Nordrhein-Westfalen"}},{"name":"In der Bunne","postalCode":"57439","locality":"Attendorn","municipality":{"key":"05966004","name":"Attendorn, Hansestadt","type":"Stadt"},"district":{"key":"05966","name":"Olpe","type":"Kreis"},"federalState":{"key":"05","name":"Nordrhein-Westfalen"}},{"name":"In der Nette","postalCode":"57439","locality":"Attendorn","municipality":{"key":"05966004","name":"Attendorn, Hansestadt","type":"Stadt"},"district":{"key":"05966","name":"Olpe","type":"Kreis"},"federalState":{"key":"05","name":"Nordrhein-Westfalen"}},{"name":"In der Schlade","postalCode":"57439","locality":"Attendorn","municipality":{"key":"05966004","name":"Attendorn, Hansestadt","type":"Stadt"},"district":{"key":"05966","name":"Olpe","type":"Kreis"},"federalState":{"key":"05","name":"Nordrhein-Westfalen"}},{"name":"In der Stesse","postalCode":"57439","locality":"Attendorn","municipality":{"key":"05966004","name":"Attendorn, Hansestadt","type":"Stadt"},"district":{"key":"05966","name":"Olpe","type":"Kreis"},"federalState":{"key":"05","name":"Nordrhein-Westfalen"}},{"name":"In der Waldemei","postalCode":"57439","locality":"Attendorn","municipality":{"key":"05966004","name":"Attendorn, Hansestadt","type":"Stadt"},"district":{"key":"05966","name":"Olpe","type":"Kreis"},"federalState":{"key":"05","name":"Nordrhein-Westfalen"}},{"name":"In der Wörde","postalCode":"57439","locality":"Attendorn","municipality":{"key":"05966004","name":"Attendorn, Hansestadt","type":"Stadt"},"district":{"key":"05966","name":"Olpe","type":"Kreis"},"federalState":{"key":"05","name":"Nordrhein-Westfalen"}},{"name":"Jäckelchen","postalCode":"57439","locality":"Attendorn","municipality":{"key":"05966004","name":"Attendorn, Hansestadt","type":"Stadt"},"district":{"key":"05966","name":"Olpe","type":"Kreis"},"federalState":{"key":"05","name":"Nordrhein-Westfalen"}},{"name":"Jakobusstr.","postalCode":"57439","locality":"Attendorn","municipality":{"key":"05966004","name":"Attendorn, Hansestadt","type":"Stadt"},"district":{"key":"05966","name":"Olpe","type":"Kreis"},"federalState":{"key":"05","name":"Nordrhein-Westfalen"}},{"name":"Johannes-Schulte-Str.","postalCode":"57439","locality":"Attendorn","municipality":{"key":"05966004","name":"Attendorn, Hansestadt","type":"Stadt"},"district":{"key":"05966","name":"Olpe","type":"Kreis"},"federalState":{"key":"05","name":"Nordrhein-Westfalen"}},{"name":"Johannes-Thomä-Str.","postalCode":"57439","locality":"Attendorn","municipality":{"key":"05966004","name":"Attendorn, Hansestadt","type":"Stadt"},"district":{"key":"05966","name":"Olpe","type":"Kreis"},"federalState":{"key":"05","name":"Nordrhein-Westfalen"}},{"name":"Johann-Metz-Str.","postalCode":"57439","locality":"Attendorn","municipality":{"key":"05966004","name":"Attendorn, Hansestadt","type":"Stadt"},"district":{"key":"05966","name":"Olpe","type":"Kreis"},"federalState":{"key":"05","name":"Nordrhein-Westfalen"}},{"name":"Julius-Pickert-Str.","postalCode":"57439","locality":"Attendorn","municipality":{"key":"05966004","name":"Attendorn, Hansestadt","type":"Stadt"},"district":{"key":"05966","name":"Olpe","type":"Kreis"},"federalState":{"key":"05","name":"Nordrhein-Westfalen"}},{"name":"Kämpchen","postalCode":"57439","locality":"Attendorn","municipality":{"key":"05966004","name":"Attendorn, Hansestadt","type":"Stadt"},"district":{"key":"05966","name":"Olpe","type":"Kreis"},"federalState":{"key":"05","name":"Nordrhein-Westfalen"}},{"name":"Kampstr.","postalCode":"57439","locality":"Attendorn","municipality":{"key":"05966004","name":"Attendorn, Hansestadt","type":"Stadt"},"district":{"key":"05966","name":"Olpe","type":"Kreis"},"federalState":{"key":"05","name":"Nordrhein-Westfalen"}},{"name":"Kapellenweg","postalCode":"57439","locality":"Attendorn","municipality":{"key":"05966004","name":"Attendorn, Hansestadt","type":"Stadt"},"district":{"key":"05966","name":"Olpe","type":"Kreis"},"federalState":{"key":"05","name":"Nordrhein-Westfalen"}},{"name":"Kehlberg","postalCode":"57439","locality":"Attendorn","municipality":{"key":"05966004","name":"Attendorn, Hansestadt","type":"Stadt"},"district":{"key":"05966","name":"Olpe","type":"Kreis"},"federalState":{"key":"05","name":"Nordrhein-Westfalen"}},{"name":"Kerstein","postalCode":"57439","locality":"Attendorn","municipality":{"key":"05966004","name":"Attendorn, Hansestadt","type":"Stadt"},"district":{"key":"05966","name":"Olpe","type":"Kreis"},"federalState":{"key":"05","name":"Nordrhein-Westfalen"}},{"name":"Keuperkusen","postalCode":"57439","locality":"Attendorn","municipality":{"key":"05966004","name":"Attendorn, Hansestadt","type":"Stadt"},"district":{"key":"05966","name":"Olpe","type":"Kreis"},"federalState":{"key":"05","name":"Nordrhein-Westfalen"}},{"name":"Kirchstr.","postalCode":"57439","locality":"Attendorn","municipality":{"key":"05966004","name":"Attendorn, Hansestadt","type":"Stadt"},"district":{"key":"05966","name":"Olpe","type":"Kreis"},"federalState":{"key":"05","name":"Nordrhein-Westfalen"}},{"name":"Kleine Kampstr.","postalCode":"57439","locality":"Attendorn","municipality":{"key":"05966004","name":"Attendorn, Hansestadt","type":"Stadt"},"district":{"key":"05966","name":"Olpe","type":"Kreis"},"federalState":{"key":"05","name":"Nordrhein-Westfalen"}},{"name":"Kleiner Markt","postalCode":"57439","locality":"Attendorn","municipality":{"key":"05966004","name":"Attendorn, Hansestadt","type":"Stadt"},"district":{"key":"05966","name":"Olpe","type":"Kreis"},"federalState":{"key":"05","name":"Nordrhein-Westfalen"}},{"name":"Klippe","postalCode":"57439","locality":"Attendorn","municipality":{"key":"05966004","name":"Attendorn, Hansestadt","type":"Stadt"},"district":{"key":"05966","name":"Olpe","type":"Kreis"},"federalState":{"key":"05","name":"Nordrhein-Westfalen"}},{"name":"Klostergasse","postalCode":"57439","locality":"Attendorn","municipality":{"key":"05966004","name":"Attendorn, Hansestadt","type":"Stadt"},"district":{"key":"05966","name":"Olpe","type":"Kreis"},"federalState":{"key":"05","name":"Nordrhein-Westfalen"}},{"name":"Kluser Weg","postalCode":"57439","locality":"Attendorn","municipality":{"key":"05966004","name":"Attendorn, Hansestadt","type":"Stadt"},"district":{"key":"05966","name":"Olpe","type":"Kreis"},"federalState":{"key":"05","name":"Nordrhein-Westfalen"}},{"name":"Kölner Str.","postalCode":"57439","locality":"Attendorn","municipality":{"key":"05966004","name":"Attendorn, Hansestadt","type":"Stadt"},"district":{"key":"05966","name":"Olpe","type":"Kreis"},"federalState":{"key":"05","name":"Nordrhein-Westfalen"}},{"name":"Kolpingweg","postalCode":"57439","locality":"Attendorn","municipality":{"key":"05966004","name":"Attendorn, Hansestadt","type":"Stadt"},"district":{"key":"05966","name":"Olpe","type":"Kreis"},"federalState":{"key":"05","name":"Nordrhein-Westfalen"}},{"name":"Königsberger Str.","postalCode":"57439","locality":"Attendorn","municipality":{"key":"05966004","name":"Attendorn, Hansestadt","type":"Stadt"},"district":{"key":"05966","name":"Olpe","type":"Kreis"},"federalState":{"key":"05","name":"Nordrhein-Westfalen"}},{"name":"Köppelchen","postalCode":"57439","locality":"Attendorn","municipality":{"key":"05966004","name":"Attendorn, Hansestadt","type":"Stadt"},"district":{"key":"05966","name":"Olpe","type":"Kreis"},"federalState":{"key":"05","name":"Nordrhein-Westfalen"}},{"name":"Korbacher Str.","postalCode":"57439","locality":"Attendorn","municipality":{"key":"05966004","name":"Attendorn, Hansestadt","type":"Stadt"},"district":{"key":"05966","name":"Olpe","type":"Kreis"},"federalState":{"key":"05","name":"Nordrhein-Westfalen"}},{"name":"Kösters Siepen","postalCode":"57439","locality":"Attendorn","municipality":{"key":"05966004","name":"Attendorn, Hansestadt","type":"Stadt"},"district":{"key":"05966","name":"Olpe","type":"Kreis"},"federalState":{"key":"05","name":"Nordrhein-Westfalen"}},{"name":"Krähenbergstr.","postalCode":"57439","locality":"Attendorn","municipality":{"key":"05966004","name":"Attendorn, Hansestadt","type":"Stadt"},"district":{"key":"05966","name":"Olpe","type":"Kreis"},"federalState":{"key":"05","name":"Nordrhein-Westfalen"}},{"name":"Lamfertweg","postalCode":"57439","locality":"Attendorn","municipality":{"key":"05966004","name":"Attendorn, Hansestadt","type":"Stadt"},"district":{"key":"05966","name":"Olpe","type":"Kreis"},"federalState":{"key":"05","name":"Nordrhein-Westfalen"}},{"name":"Laufhahn","postalCode":"57439","locality":"Attendorn","municipality":{"key":"05966004","name":"Attendorn, Hansestadt","type":"Stadt"},"district":{"key":"05966","name":"Olpe","type":"Kreis"},"federalState":{"key":"05","name":"Nordrhein-Westfalen"}},{"name":"Lerchenstr.","postalCode":"57439","locality":"Attendorn","municipality":{"key":"05966004","name":"Attendorn, Hansestadt","type":"Stadt"},"district":{"key":"05966","name":"Olpe","type":"Kreis"},"federalState":{"key":"05","name":"Nordrhein-Westfalen"}},{"name":"Lindenhardt","postalCode":"57439","locality":"Attendorn","municipality":{"key":"05966004","name":"Attendorn, Hansestadt","type":"Stadt"},"district":{"key":"05966","name":"Olpe","type":"Kreis"},"federalState":{"key":"05","name":"Nordrhein-Westfalen"}},{"name":"Lindenstr.","postalCode":"57439","locality":"Attendorn","municipality":{"key":"05966004","name":"Attendorn, Hansestadt","type":"Stadt"},"district":{"key":"05966","name":"Olpe","type":"Kreis"},"federalState":{"key":"05","name":"Nordrhein-Westfalen"}},{"name":"Lindenweg","postalCode":"57439","locality":"Attendorn","municipality":{"key":"05966004","name":"Attendorn, Hansestadt","type":"Stadt"},"district":{"key":"05966","name":"Olpe","type":"Kreis"},"federalState":{"key":"05","name":"Nordrhein-Westfalen"}},{"name":"Listertalstr.","postalCode":"57439","locality":"Attendorn","municipality":{"key":"05966004","name":"Attendorn, Hansestadt","type":"Stadt"},"district":{"key":"05966","name":"Olpe","type":"Kreis"},"federalState":{"key":"05","name":"Nordrhein-Westfalen"}},{"name":"Lübecker Str.","postalCode":"57439","locality":"Attendorn","municipality":{"key":"05966004","name":"Attendorn, Hansestadt","type":"Stadt"},"district":{"key":"05966","name":"Olpe","type":"Kreis"},"federalState":{"key":"05","name":"Nordrhein-Westfalen"}},{"name":"Lüneburger Str.","postalCode":"57439","locality":"Attendorn","municipality":{"key":"05966004","name":"Attendorn, Hansestadt","type":"Stadt"},"district":{"key":"05966","name":"Olpe","type":"Kreis"},"federalState":{"key":"05","name":"Nordrhein-Westfalen"}},{"name":"Magdeburger Str.","postalCode":"57439","locality":"Attendorn","municipality":{"key":"05966004","name":"Attendorn, Hansestadt","type":"Stadt"},"district":{"key":"05966","name":"Olpe","type":"Kreis"},"federalState":{"key":"05","name":"Nordrhein-Westfalen"}},{"name":"Mainzer Str.","postalCode":"57439","locality":"Attendorn","municipality":{"key":"05966004","name":"Attendorn, Hansestadt","type":"Stadt"},"district":{"key":"05966","name":"Olpe","type":"Kreis"},"federalState":{"key":"05","name":"Nordrhein-Westfalen"}},{"name":"Margaretastr.","postalCode":"57439","locality":"Attendorn","municipality":{"key":"05966004","name":"Attendorn, Hansestadt","type":"Stadt"},"district":{"key":"05966","name":"Olpe","type":"Kreis"},"federalState":{"key":"05","name":"Nordrhein-Westfalen"}},{"name":"Märkische Str.","postalCode":"57439","locality":"Attendorn","municipality":{"key":"05966004","name":"Attendorn, Hansestadt","type":"Stadt"},"district":{"key":"05966","name":"Olpe","type":"Kreis"},"federalState":{"key":"05","name":"Nordrhein-Westfalen"}},{"name":"Markweg","postalCode":"57439","locality":"Attendorn","municipality":{"key":"05966004","name":"Attendorn, Hansestadt","type":"Stadt"},"district":{"key":"05966","name":"Olpe","type":"Kreis"},"federalState":{"key":"05","name":"Nordrhein-Westfalen"}},{"name":"Martinusstr.","postalCode":"57439","locality":"Attendorn","municipality":{"key":"05966004","name":"Attendorn, Hansestadt","type":"Stadt"},"district":{"key":"05966","name":"Olpe","type":"Kreis"},"federalState":{"key":"05","name":"Nordrhein-Westfalen"}},{"name":"Mattmecke","postalCode":"57439","locality":"Attendorn","municipality":{"key":"05966004","name":"Attendorn, Hansestadt","type":"Stadt"},"district":{"key":"05966","name":"Olpe","type":"Kreis"},"federalState":{"key":"05","name":"Nordrhein-Westfalen"}},{"name":"Mecklinghauser Str.","postalCode":"57439","locality":"Attendorn","municipality":{"key":"05966004","name":"Attendorn, Hansestadt","type":"Stadt"},"district":{"key":"05966","name":"Olpe","type":"Kreis"},"federalState":{"key":"05","name":"Nordrhein-Westfalen"}},{"name":"Meisenstr.","postalCode":"57439","locality":"Attendorn","municipality":{"key":"05966004","name":"Attendorn, Hansestadt","type":"Stadt"},"district":{"key":"05966","name":"Olpe","type":"Kreis"},"federalState":{"key":"05","name":"Nordrhein-Westfalen"}},{"name":"Milstenau","postalCode":"57439","locality":"Attendorn","municipality":{"key":"05966004","name":"Attendorn, Hansestadt","type":"Stadt"},"district":{"key":"05966","name":"Olpe","type":"Kreis"},"federalState":{"key":"05","name":"Nordrhein-Westfalen"}},{"name":"Milstenauer Str.","postalCode":"57439","locality":"Attendorn","municipality":{"key":"05966004","name":"Attendorn, Hansestadt","type":"Stadt"},"district":{"key":"05966","name":"Olpe","type":"Kreis"},"federalState":{"key":"05","name":"Nordrhein-Westfalen"}},{"name":"Mindener Str.","postalCode":"57439","locality":"Attendorn","municipality":{"key":"05966004","name":"Attendorn, Hansestadt","type":"Stadt"},"district":{"key":"05966","name":"Olpe","type":"Kreis"},"federalState":{"key":"05","name":"Nordrhein-Westfalen"}},{"name":"Modschlade","postalCode":"57439","locality":"Attendorn","municipality":{"key":"05966004","name":"Attendorn, Hansestadt","type":"Stadt"},"district":{"key":"05966","name":"Olpe","type":"Kreis"},"federalState":{"key":"05","name":"Nordrhein-Westfalen"}},{"name":"Mohnfeld","postalCode":"57439","locality":"Attendorn","municipality":{"key":"05966004","name":"Attendorn, Hansestadt","type":"Stadt"},"district":{"key":"05966","name":"Olpe","type":"Kreis"},"federalState":{"key":"05","name":"Nordrhein-Westfalen"}},{"name":"Mozartstr.","postalCode":"57439","locality":"Attendorn","municipality":{"key":"05966004","name":"Attendorn, Hansestadt","type":"Stadt"},"district":{"key":"05966","name":"Olpe","type":"Kreis"},"federalState":{"key":"05","name":"Nordrhein-Westfalen"}},{"name":"Mühlengraben","postalCode":"57439","locality":"Attendorn","municipality":{"key":"05966004","name":"Attendorn, Hansestadt","type":"Stadt"},"district":{"key":"05966","name":"Olpe","type":"Kreis"},"federalState":{"key":"05","name":"Nordrhein-Westfalen"}},{"name":"Mühlenschlader Str.","postalCode":"57439","locality":"Attendorn","municipality":{"key":"05966004","name":"Attendorn, Hansestadt","type":"Stadt"},"district":{"key":"05966","name":"Olpe","type":"Kreis"},"federalState":{"key":"05","name":"Nordrhein-Westfalen"}},{"name":"Mühlenweg","postalCode":"57439","locality":"Attendorn","municipality":{"key":"05966004","name":"Attendorn, Hansestadt","type":"Stadt"},"district":{"key":"05966","name":"Olpe","type":"Kreis"},"federalState":{"key":"05","name":"Nordrhein-Westfalen"}},{"name":"Mühlhardt","postalCode":"57439","locality":"Attendorn","municipality":{"key":"05966004","name":"Attendorn, Hansestadt","type":"Stadt"},"district":{"key":"05966","name":"Olpe","type":"Kreis"},"federalState":{"key":"05","name":"Nordrhein-Westfalen"}},{"name":"Mühlwiese","postalCode":"57439","locality":"Attendorn","municipality":{"key":"05966004","name":"Attendorn, Hansestadt","type":"Stadt"},"district":{"key":"05966","name":"Olpe","type":"Kreis"},"federalState":{"key":"05","name":"Nordrhein-Westfalen"}},{"name":"Münchener Str.","postalCode":"57439","locality":"Attendorn","municipality":{"key":"05966004","name":"Attendorn, Hansestadt","type":"Stadt"},"district":{"key":"05966","name":"Olpe","type":"Kreis"},"federalState":{"key":"05","name":"Nordrhein-Westfalen"}},{"name":"Neue Str.","postalCode":"57439","locality":"Attendorn","municipality":{"key":"05966004","name":"Attendorn, Hansestadt","type":"Stadt"},"district":{"key":"05966","name":"Olpe","type":"Kreis"},"federalState":{"key":"05","name":"Nordrhein-Westfalen"}},{"name":"Neumarkt","postalCode":"57439","locality":"Attendorn","municipality":{"key":"05966004","name":"Attendorn, Hansestadt","type":"Stadt"},"district":{"key":"05966","name":"Olpe","type":"Kreis"},"federalState":{"key":"05","name":"Nordrhein-Westfalen"}},{"name":"Niederste Str.","postalCode":"57439","locality":"Attendorn","municipality":{"key":"05966004","name":"Attendorn, Hansestadt","type":"Stadt"},"district":{"key":"05966","name":"Olpe","type":"Kreis"},"federalState":{"key":"05","name":"Nordrhein-Westfalen"}},{"name":"Nordwall","postalCode":"57439","locality":"Attendorn","municipality":{"key":"05966004","name":"Attendorn, Hansestadt","type":"Stadt"},"district":{"key":"05966","name":"Olpe","type":"Kreis"},"federalState":{"key":"05","name":"Nordrhein-Westfalen"}},{"name":"Notburgaplatz","postalCode":"57439","locality":"Attendorn","municipality":{"key":"05966004","name":"Attendorn, Hansestadt","type":"Stadt"},"district":{"key":"05966","name":"Olpe","type":"Kreis"},"federalState":{"key":"05","name":"Nordrhein-Westfalen"}},{"name":"Oberdorf","postalCode":"57439","locality":"Attendorn","municipality":{"key":"05966004","name":"Attendorn, Hansestadt","type":"Stadt"},"district":{"key":"05966","name":"Olpe","type":"Kreis"},"federalState":{"key":"05","name":"Nordrhein-Westfalen"}},{"name":"Oberer Kehlberg","postalCode":"57439","locality":"Attendorn","municipality":{"key":"05966004","name":"Attendorn, Hansestadt","type":"Stadt"},"district":{"key":"05966","name":"Olpe","type":"Kreis"},"federalState":{"key":"05","name":"Nordrhein-Westfalen"}},{"name":"Obergarten","postalCode":"57439","locality":"Attendorn","municipality":{"key":"05966004","name":"Attendorn, Hansestadt","type":"Stadt"},"district":{"key":"05966","name":"Olpe","type":"Kreis"},"federalState":{"key":"05","name":"Nordrhein-Westfalen"}},{"name":"Oberstr.","postalCode":"57439","locality":"Attendorn","municipality":{"key":"05966004","name":"Attendorn, Hansestadt","type":"Stadt"},"district":{"key":"05966","name":"Olpe","type":"Kreis"},"federalState":{"key":"05","name":"Nordrhein-Westfalen"}},{"name":"Osemundweg","postalCode":"57439","locality":"Attendorn","municipality":{"key":"05966004","name":"Attendorn, Hansestadt","type":"Stadt"},"district":{"key":"05966","name":"Olpe","type":"Kreis"},"federalState":{"key":"05","name":"Nordrhein-Westfalen"}},{"name":"Osnabrücker Str.","postalCode":"57439","locality":"Attendorn","municipality":{"key":"05966004","name":"Attendorn, Hansestadt","type":"Stadt"},"district":{"key":"05966","name":"Olpe","type":"Kreis"},"federalState":{"key":"05","name":"Nordrhein-Westfalen"}},{"name":"Osterfeuerweg","postalCode":"57439","locality":"Attendorn","municipality":{"key":"05966004","name":"Attendorn, Hansestadt","type":"Stadt"},"district":{"key":"05966","name":"Olpe","type":"Kreis"},"federalState":{"key":"05","name":"Nordrhein-Westfalen"}},{"name":"Osterschlah","postalCode":"57439","locality":"Attendorn","municipality":{"key":"05966004","name":"Attendorn, Hansestadt","type":"Stadt"},"district":{"key":"05966","name":"Olpe","type":"Kreis"},"federalState":{"key":"05","name":"Nordrhein-Westfalen"}},{"name":"Ostwall","postalCode":"57439","locality":"Attendorn","municipality":{"key":"05966004","name":"Attendorn, Hansestadt","type":"Stadt"},"district":{"key":"05966","name":"Olpe","type":"Kreis"},"federalState":{"key":"05","name":"Nordrhein-Westfalen"}},{"name":"Pater-Kilian-Weg","postalCode":"57439","locality":"Attendorn","municipality":{"key":"05966004","name":"Attendorn, Hansestadt","type":"Stadt"},"district":{"key":"05966","name":"Olpe","type":"Kreis"},"federalState":{"key":"05","name":"Nordrhein-Westfalen"}},{"name":"Petersburger Weg","postalCode":"57439","locality":"Attendorn","municipality":{"key":"05966004","name":"Attendorn, Hansestadt","type":"Stadt"},"district":{"key":"05966","name":"Olpe","type":"Kreis"},"federalState":{"key":"05","name":"Nordrhein-Westfalen"}},{"name":"Pettmecke","postalCode":"57439","locality":"Attendorn","municipality":{"key":"05966004","name":"Attendorn, Hansestadt","type":"Stadt"},"district":{"key":"05966","name":"Olpe","type":"Kreis"},"federalState":{"key":"05","name":"Nordrhein-Westfalen"}},{"name":"Pfarrer-Gabriel-Weg","postalCode":"57439","locality":"Attendorn","municipality":{"key":"05966004","name":"Attendorn, Hansestadt","type":"Stadt"},"district":{"key":"05966","name":"Olpe","type":"Kreis"},"federalState":{"key":"05","name":"Nordrhein-Westfalen"}},{"name":"Pfarrweg","postalCode":"57439","locality":"Attendorn","municipality":{"key":"05966004","name":"Attendorn, Hansestadt","type":"Stadt"},"district":{"key":"05966","name":"Olpe","type":"Kreis"},"federalState":{"key":"05","name":"Nordrhein-Westfalen"}},{"name":"Plaßmannshof","postalCode":"57439","locality":"Attendorn","municipality":{"key":"05966004","name":"Attendorn, Hansestadt","type":"Stadt"},"district":{"key":"05966","name":"Olpe","type":"Kreis"},"federalState":{"key":"05","name":"Nordrhein-Westfalen"}},{"name":"Plettenberger Str.","postalCode":"57439","locality":"Attendorn","municipality":{"key":"05966004","name":"Attendorn, Hansestadt","type":"Stadt"},"district":{"key":"05966","name":"Olpe","type":"Kreis"},"federalState":{"key":"05","name":"Nordrhein-Westfalen"}},{"name":"Poststr.","postalCode":"57439","locality":"Attendorn","municipality":{"key":"05966004","name":"Attendorn, Hansestadt","type":"Stadt"},"district":{"key":"05966","name":"Olpe","type":"Kreis"},"federalState":{"key":"05","name":"Nordrhein-Westfalen"}},{"name":"Quellenweg","postalCode":"57439","locality":"Attendorn","municipality":{"key":"05966004","name":"Attendorn, Hansestadt","type":"Stadt"},"district":{"key":"05966","name":"Olpe","type":"Kreis"},"federalState":{"key":"05","name":"Nordrhein-Westfalen"}},{"name":"Rapsweg","postalCode":"57439","locality":"Attendorn","municipality":{"key":"05966004","name":"Attendorn, Hansestadt","type":"Stadt"},"district":{"key":"05966","name":"Olpe","type":"Kreis"},"federalState":{"key":"05","name":"Nordrhein-Westfalen"}},{"name":"Rathauspassage","postalCode":"57439","locality":"Attendorn","municipality":{"key":"05966004","name":"Attendorn, Hansestadt","type":"Stadt"},"district":{"key":"05966","name":"Olpe","type":"Kreis"},"federalState":{"key":"05","name":"Nordrhein-Westfalen"}},{"name":"Rauterkusen","postalCode":"57439","locality":"Attendorn","municipality":{"key":"05966004","name":"Attendorn, Hansestadt","type":"Stadt"},"district":{"key":"05966","name":"Olpe","type":"Kreis"},"federalState":{"key":"05","name":"Nordrhein-Westfalen"}},{"name":"Relekes Weg","postalCode":"57439","locality":"Attendorn","municipality":{"key":"05966004","name":"Attendorn, Hansestadt","type":"Stadt"},"district":{"key":"05966","name":"Olpe","type":"Kreis"},"federalState":{"key":"05","name":"Nordrhein-Westfalen"}},{"name":"Rennofenweg","postalCode":"57439","locality":"Attendorn","municipality":{"key":"05966004","name":"Attendorn, Hansestadt","type":"Stadt"},"district":{"key":"05966","name":"Olpe","type":"Kreis"},"federalState":{"key":"05","name":"Nordrhein-Westfalen"}},{"name":"Reper Höhe","postalCode":"57439","locality":"Attendorn","municipality":{"key":"05966004","name":"Attendorn, Hansestadt","type":"Stadt"},"district":{"key":"05966","name":"Olpe","type":"Kreis"},"federalState":{"key":"05","name":"Nordrhein-Westfalen"}},{"name":"Reper Weg","postalCode":"57439","locality":"Attendorn","municipality":{"key":"05966004","name":"Attendorn, Hansestadt","type":"Stadt"},"district":{"key":"05966","name":"Olpe","type":"Kreis"},"federalState":{"key":"05","name":"Nordrhein-Westfalen"}},{"name":"Repetalstr.","postalCode":"57439","locality":"Attendorn","municipality":{"key":"05966004","name":"Attendorn, Hansestadt","type":"Stadt"},"district":{"key":"05966","name":"Olpe","type":"Kreis"},"federalState":{"key":"05","name":"Nordrhein-Westfalen"}},{"name":"Rieflinghauser Weg","postalCode":"57439","locality":"Attendorn","municipality":{"key":"05966004","name":"Attendorn, Hansestadt","type":"Stadt"},"district":{"key":"05966","name":"Olpe","type":"Kreis"},"federalState":{"key":"05","name":"Nordrhein-Westfalen"}},{"name":"Ritterlöhstr.","postalCode":"57439","locality":"Attendorn","municipality":{"key":"05966004","name":"Attendorn, Hansestadt","type":"Stadt"},"district":{"key":"05966","name":"Olpe","type":"Kreis"},"federalState":{"key":"05","name":"Nordrhein-Westfalen"}},{"name":"Riviusstr.","postalCode":"57439","locality":"Attendorn","municipality":{"key":"05966004","name":"Attendorn, Hansestadt","type":"Stadt"},"district":{"key":"05966","name":"Olpe","type":"Kreis"},"federalState":{"key":"05","name":"Nordrhein-Westfalen"}},{"name":"Röntgenstr.","postalCode":"57439","locality":"Attendorn","municipality":{"key":"05966004","name":"Attendorn, Hansestadt","type":"Stadt"},"district":{"key":"05966","name":"Olpe","type":"Kreis"},"federalState":{"key":"05","name":"Nordrhein-Westfalen"}},{"name":"Rosenhof","postalCode":"57439","locality":"Attendorn","municipality":{"key":"05966004","name":"Attendorn, Hansestadt","type":"Stadt"},"district":{"key":"05966","name":"Olpe","type":"Kreis"},"federalState":{"key":"05","name":"Nordrhein-Westfalen"}},{"name":"Rosenweg","postalCode":"57439","locality":"Attendorn","municipality":{"key":"05966004","name":"Attendorn, Hansestadt","type":"Stadt"},"district":{"key":"05966","name":"Olpe","type":"Kreis"},"federalState":{"key":"05","name":"Nordrhein-Westfalen"}},{"name":"Rostocker Str.","postalCode":"57439","locality":"Attendorn","municipality":{"key":"05966004","name":"Attendorn, Hansestadt","type":"Stadt"},"district":{"key":"05966","name":"Olpe","type":"Kreis"},"federalState":{"key":"05","name":"Nordrhein-Westfalen"}},{"name":"Rotdornweg","postalCode":"57439","locality":"Attendorn","municipality":{"key":"05966004","name":"Attendorn, Hansestadt","type":"Stadt"},"district":{"key":"05966","name":"Olpe","type":"Kreis"},"federalState":{"key":"05","name":"Nordrhein-Westfalen"}},{"name":"Ruhland","postalCode":"57439","locality":"Attendorn","municipality":{"key":"05966004","name":"Attendorn, Hansestadt","type":"Stadt"},"district":{"key":"05966","name":"Olpe","type":"Kreis"},"federalState":{"key":"05","name":"Nordrhein-Westfalen"}},{"name":"Saarbrücker Str.","postalCode":"57439","locality":"Attendorn","municipality":{"key":"05966004","name":"Attendorn, Hansestadt","type":"Stadt"},"district":{"key":"05966","name":"Olpe","type":"Kreis"},"federalState":{"key":"05","name":"Nordrhein-Westfalen"}},{"name":"Sankt-Josef-Str.","postalCode":"57439","locality":"Attendorn","municipality":{"key":"05966004","name":"Attendorn, Hansestadt","type":"Stadt"},"district":{"key":"05966","name":"Olpe","type":"Kreis"},"federalState":{"key":"05","name":"Nordrhein-Westfalen"}},{"name":"Sankt-Ursula-Str.","postalCode":"57439","locality":"Attendorn","municipality":{"key":"05966004","name":"Attendorn, Hansestadt","type":"Stadt"},"district":{"key":"05966","name":"Olpe","type":"Kreis"},"federalState":{"key":"05","name":"Nordrhein-Westfalen"}},{"name":"Sassestr.","postalCode":"57439","locality":"Attendorn","municipality":{"key":"05966004","name":"Attendorn, Hansestadt","type":"Stadt"},"district":{"key":"05966","name":"Olpe","type":"Kreis"},"federalState":{"key":"05","name":"Nordrhein-Westfalen"}},{"name":"Schafsbrücke","postalCode":"57439","locality":"Attendorn","municipality":{"key":"05966004","name":"Attendorn, Hansestadt","type":"Stadt"},"district":{"key":"05966","name":"Olpe","type":"Kreis"},"federalState":{"key":"05","name":"Nordrhein-Westfalen"}},{"name":"Schallhollenloch","postalCode":"57439","locality":"Attendorn","municipality":{"key":"05966004","name":"Attendorn, Hansestadt","type":"Stadt"},"district":{"key":"05966","name":"Olpe","type":"Kreis"},"federalState":{"key":"05","name":"Nordrhein-Westfalen"}},{"name":"Schemperstr.","postalCode":"57439","locality":"Attendorn","municipality":{"key":"05966004","name":"Attendorn, Hansestadt","type":"Stadt"},"district":{"key":"05966","name":"Olpe","type":"Kreis"},"federalState":{"key":"05","name":"Nordrhein-Westfalen"}},{"name":"Schillerstr.","postalCode":"57439","locality":"Attendorn","municipality":{"key":"05966004","name":"Attendorn, Hansestadt","type":"Stadt"},"district":{"key":"05966","name":"Olpe","type":"Kreis"},"federalState":{"key":"05","name":"Nordrhein-Westfalen"}},{"name":"Schladeweg","postalCode":"57439","locality":"Attendorn","municipality":{"key":"05966004","name":"Attendorn, Hansestadt","type":"Stadt"},"district":{"key":"05966","name":"Olpe","type":"Kreis"},"federalState":{"key":"05","name":"Nordrhein-Westfalen"}},{"name":"Schlegge","postalCode":"57439","locality":"Attendorn","municipality":{"key":"05966004","name":"Attendorn, Hansestadt","type":"Stadt"},"district":{"key":"05966","name":"Olpe","type":"Kreis"},"federalState":{"key":"05","name":"Nordrhein-Westfalen"}},{"name":"Schmalscheid","postalCode":"57439","locality":"Attendorn","municipality":{"key":"05966004","name":"Attendorn, Hansestadt","type":"Stadt"},"district":{"key":"05966","name":"Olpe","type":"Kreis"},"federalState":{"key":"05","name":"Nordrhein-Westfalen"}},{"name":"Schmiedestr.","postalCode":"57439","locality":"Attendorn","municipality":{"key":"05966004","name":"Attendorn, Hansestadt","type":"Stadt"},"district":{"key":"05966","name":"Olpe","type":"Kreis"},"federalState":{"key":"05","name":"Nordrhein-Westfalen"}},{"name":"Schmittenwiese","postalCode":"57439","locality":"Attendorn","municipality":{"key":"05966004","name":"Attendorn, Hansestadt","type":"Stadt"},"district":{"key":"05966","name":"Olpe","type":"Kreis"},"federalState":{"key":"05","name":"Nordrhein-Westfalen"}},{"name":"Schneiderstr.","postalCode":"57439","locality":"Attendorn","municipality":{"key":"05966004","name":"Attendorn, Hansestadt","type":"Stadt"},"district":{"key":"05966","name":"Olpe","type":"Kreis"},"federalState":{"key":"05","name":"Nordrhein-Westfalen"}},{"name":"Schnellenberger Weg","postalCode":"57439","locality":"Attendorn","municipality":{"key":"05966004","name":"Attendorn, Hansestadt","type":"Stadt"},"district":{"key":"05966","name":"Olpe","type":"Kreis"},"federalState":{"key":"05","name":"Nordrhein-Westfalen"}},{"name":"Schrödershof","postalCode":"57439","locality":"Attendorn","municipality":{"key":"05966004","name":"Attendorn, Hansestadt","type":"Stadt"},"district":{"key":"05966","name":"Olpe","type":"Kreis"},"federalState":{"key":"05","name":"Nordrhein-Westfalen"}},{"name":"Schubertstr.","postalCode":"57439","locality":"Attendorn","municipality":{"key":"05966004","name":"Attendorn, Hansestadt","type":"Stadt"},"district":{"key":"05966","name":"Olpe","type":"Kreis"},"federalState":{"key":"05","name":"Nordrhein-Westfalen"}},{"name":"Schuhmacherstr.","postalCode":"57439","locality":"Attendorn","municipality":{"key":"05966004","name":"Attendorn, Hansestadt","type":"Stadt"},"district":{"key":"05966","name":"Olpe","type":"Kreis"},"federalState":{"key":"05","name":"Nordrhein-Westfalen"}},{"name":"Schüldernhof","postalCode":"57439","locality":"Attendorn","municipality":{"key":"05966004","name":"Attendorn, Hansestadt","type":"Stadt"},"district":{"key":"05966","name":"Olpe","type":"Kreis"},"federalState":{"key":"05","name":"Nordrhein-Westfalen"}},{"name":"Schulstr.","postalCode":"57439","locality":"Attendorn","municipality":{"key":"05966004","name":"Attendorn, Hansestadt","type":"Stadt"},"district":{"key":"05966","name":"Olpe","type":"Kreis"},"federalState":{"key":"05","name":"Nordrhein-Westfalen"}},{"name":"Schulweg","postalCode":"57439","locality":"Attendorn","municipality":{"key":"05966004","name":"Attendorn, Hansestadt","type":"Stadt"},"district":{"key":"05966","name":"Olpe","type":"Kreis"},"federalState":{"key":"05","name":"Nordrhein-Westfalen"}},{"name":"Schützenstr.","postalCode":"57439","locality":"Attendorn","municipality":{"key":"05966004","name":"Attendorn, Hansestadt","type":"Stadt"},"district":{"key":"05966","name":"Olpe","type":"Kreis"},"federalState":{"key":"05","name":"Nordrhein-Westfalen"}},{"name":"Schwarze Aue","postalCode":"57439","locality":"Attendorn","municipality":{"key":"05966004","name":"Attendorn, Hansestadt","type":"Stadt"},"district":{"key":"05966","name":"Olpe","type":"Kreis"},"federalState":{"key":"05","name":"Nordrhein-Westfalen"}},{"name":"Schwedengraben","postalCode":"57439","locality":"Attendorn","municipality":{"key":"05966004","name":"Attendorn, Hansestadt","type":"Stadt"},"district":{"key":"05966","name":"Olpe","type":"Kreis"},"federalState":{"key":"05","name":"Nordrhein-Westfalen"}},{"name":"Schweriner Str.","postalCode":"57439","locality":"Attendorn","municipality":{"key":"05966004","name":"Attendorn, Hansestadt","type":"Stadt"},"district":{"key":"05966","name":"Olpe","type":"Kreis"},"federalState":{"key":"05","name":"Nordrhein-Westfalen"}},{"name":"Schwester-Gerharda-Weg","postalCode":"57439","locality":"Attendorn","municipality":{"key":"05966004","name":"Attendorn, Hansestadt","type":"Stadt"},"district":{"key":"05966","name":"Olpe","type":"Kreis"},"federalState":{"key":"05","name":"Nordrhein-Westfalen"}},{"name":"Sebastianstr.","postalCode":"57439","locality":"Attendorn","municipality":{"key":"05966004","name":"Attendorn, Hansestadt","type":"Stadt"},"district":{"key":"05966","name":"Olpe","type":"Kreis"},"federalState":{"key":"05","name":"Nordrhein-Westfalen"}},{"name":"Seenstr.","postalCode":"57439","locality":"Attendorn","municipality":{"key":"05966004","name":"Attendorn, Hansestadt","type":"Stadt"},"district":{"key":"05966","name":"Olpe","type":"Kreis"},"federalState":{"key":"05","name":"Nordrhein-Westfalen"}},{"name":"Siemensstr.","postalCode":"57439","locality":"Attendorn","municipality":{"key":"05966004","name":"Attendorn, Hansestadt","type":"Stadt"},"district":{"key":"05966","name":"Olpe","type":"Kreis"},"federalState":{"key":"05","name":"Nordrhein-Westfalen"}},{"name":"Silbecker Str.","postalCode":"57439","locality":"Attendorn","municipality":{"key":"05966004","name":"Attendorn, Hansestadt","type":"Stadt"},"district":{"key":"05966","name":"Olpe","type":"Kreis"},"federalState":{"key":"05","name":"Nordrhein-Westfalen"}},{"name":"Soester Str.","postalCode":"57439","locality":"Attendorn","municipality":{"key":"05966004","name":"Attendorn, Hansestadt","type":"Stadt"},"district":{"key":"05966","name":"Olpe","type":"Kreis"},"federalState":{"key":"05","name":"Nordrhein-Westfalen"}},{"name":"Sommerhan","postalCode":"57439","locality":"Attendorn","municipality":{"key":"05966004","name":"Attendorn, Hansestadt","type":"Stadt"},"district":{"key":"05966","name":"Olpe","type":"Kreis"},"federalState":{"key":"05","name":"Nordrhein-Westfalen"}},{"name":"Sonnenhang","postalCode":"57439","locality":"Attendorn","municipality":{"key":"05966004","name":"Attendorn, Hansestadt","type":"Stadt"},"district":{"key":"05966","name":"Olpe","type":"Kreis"},"federalState":{"key":"05","name":"Nordrhein-Westfalen"}},{"name":"Sonnenhof","postalCode":"57439","locality":"Attendorn","municipality":{"key":"05966004","name":"Attendorn, Hansestadt","type":"Stadt"},"district":{"key":"05966","name":"Olpe","type":"Kreis"},"federalState":{"key":"05","name":"Nordrhein-Westfalen"}},{"name":"Sonnenweg","postalCode":"57439","locality":"Attendorn","municipality":{"key":"05966004","name":"Attendorn, Hansestadt","type":"Stadt"},"district":{"key":"05966","name":"Olpe","type":"Kreis"},"federalState":{"key":"05","name":"Nordrhein-Westfalen"}},{"name":"Spechtstr.","postalCode":"57439","locality":"Attendorn","municipality":{"key":"05966004","name":"Attendorn, Hansestadt","type":"Stadt"},"district":{"key":"05966","name":"Olpe","type":"Kreis"},"federalState":{"key":"05","name":"Nordrhein-Westfalen"}},{"name":"Sportplatz","postalCode":"57439","locality":"Attendorn","municipality":{"key":"05966004","name":"Attendorn, Hansestadt","type":"Stadt"},"district":{"key":"05966","name":"Olpe","type":"Kreis"},"federalState":{"key":"05","name":"Nordrhein-Westfalen"}},{"name":"Starenweg","postalCode":"57439","locality":"Attendorn","municipality":{"key":"05966004","name":"Attendorn, Hansestadt","type":"Stadt"},"district":{"key":"05966","name":"Olpe","type":"Kreis"},"federalState":{"key":"05","name":"Nordrhein-Westfalen"}},{"name":"Steinertstr.","postalCode":"57439","locality":"Attendorn","municipality":{"key":"05966004","name":"Attendorn, Hansestadt","type":"Stadt"},"district":{"key":"05966","name":"Olpe","type":"Kreis"},"federalState":{"key":"05","name":"Nordrhein-Westfalen"}},{"name":"Steinkuhle","postalCode":"57439","locality":"Attendorn","municipality":{"key":"05966004","name":"Attendorn, Hansestadt","type":"Stadt"},"district":{"key":"05966","name":"Olpe","type":"Kreis"},"federalState":{"key":"05","name":"Nordrhein-Westfalen"}},{"name":"Steinstr.","postalCode":"57439","locality":"Attendorn","municipality":{"key":"05966004","name":"Attendorn, Hansestadt","type":"Stadt"},"district":{"key":"05966","name":"Olpe","type":"Kreis"},"federalState":{"key":"05","name":"Nordrhein-Westfalen"}},{"name":"Stettiner Str.","postalCode":"57439","locality":"Attendorn","municipality":{"key":"05966004","name":"Attendorn, Hansestadt","type":"Stadt"},"district":{"key":"05966","name":"Olpe","type":"Kreis"},"federalState":{"key":"05","name":"Nordrhein-Westfalen"}},{"name":"Stuttgarter Str.","postalCode":"57439","locality":"Attendorn","municipality":{"key":"05966004","name":"Attendorn, Hansestadt","type":"Stadt"},"district":{"key":"05966","name":"Olpe","type":"Kreis"},"federalState":{"key":"05","name":"Nordrhein-Westfalen"}},{"name":"Südhangweg","postalCode":"57439","locality":"Attendorn","municipality":{"key":"05966004","name":"Attendorn, Hansestadt","type":"Stadt"},"district":{"key":"05966","name":"Olpe","type":"Kreis"},"federalState":{"key":"05","name":"Nordrhein-Westfalen"}},{"name":"Südwall","postalCode":"57439","locality":"Attendorn","municipality":{"key":"05966004","name":"Attendorn, Hansestadt","type":"Stadt"},"district":{"key":"05966","name":"Olpe","type":"Kreis"},"federalState":{"key":"05","name":"Nordrhein-Westfalen"}},{"name":"Talblick","postalCode":"57439","locality":"Attendorn","municipality":{"key":"05966004","name":"Attendorn, Hansestadt","type":"Stadt"},"district":{"key":"05966","name":"Olpe","type":"Kreis"},"federalState":{"key":"05","name":"Nordrhein-Westfalen"}},{"name":"Talstr.","postalCode":"57439","locality":"Attendorn","municipality":{"key":"05966004","name":"Attendorn, Hansestadt","type":"Stadt"},"district":{"key":"05966","name":"Olpe","type":"Kreis"},"federalState":{"key":"05","name":"Nordrhein-Westfalen"}},{"name":"Tecklinghauser Weg","postalCode":"57439","locality":"Attendorn","municipality":{"key":"05966004","name":"Attendorn, Hansestadt","type":"Stadt"},"district":{"key":"05966","name":"Olpe","type":"Kreis"},"federalState":{"key":"05","name":"Nordrhein-Westfalen"}},{"name":"Tieenbrink","postalCode":"57439","locality":"Attendorn","municipality":{"key":"05966004","name":"Attendorn, Hansestadt","type":"Stadt"},"district":{"key":"05966","name":"Olpe","type":"Kreis"},"federalState":{"key":"05","name":"Nordrhein-Westfalen"}},{"name":"Torenkasten","postalCode":"57439","locality":"Attendorn","municipality":{"key":"05966004","name":"Attendorn, Hansestadt","type":"Stadt"},"district":{"key":"05966","name":"Olpe","type":"Kreis"},"federalState":{"key":"05","name":"Nordrhein-Westfalen"}},{"name":"Totenweg","postalCode":"57439","locality":"Attendorn","municipality":{"key":"05966004","name":"Attendorn, Hansestadt","type":"Stadt"},"district":{"key":"05966","name":"Olpe","type":"Kreis"},"federalState":{"key":"05","name":"Nordrhein-Westfalen"}},{"name":"Truchseßgasse","postalCode":"57439","locality":"Attendorn","municipality":{"key":"05966004","name":"Attendorn, Hansestadt","type":"Stadt"},"district":{"key":"05966","name":"Olpe","type":"Kreis"},"federalState":{"key":"05","name":"Nordrhein-Westfalen"}},{"name":"Uelhof","postalCode":"57439","locality":"Attendorn","municipality":{"key":"05966004","name":"Attendorn, Hansestadt","type":"Stadt"},"district":{"key":"05966","name":"Olpe","type":"Kreis"},"federalState":{"key":"05","name":"Nordrhein-Westfalen"}},{"name":"Uelhoffs Wiese","postalCode":"57439","locality":"Attendorn","municipality":{"key":"05966004","name":"Attendorn, Hansestadt","type":"Stadt"},"district":{"key":"05966","name":"Olpe","type":"Kreis"},"federalState":{"key":"05","name":"Nordrhein-Westfalen"}},{"name":"Ulrich-Rocksloh-Str.","postalCode":"57439","locality":"Attendorn","municipality":{"key":"05966004","name":"Attendorn, Hansestadt","type":"Stadt"},"district":{"key":"05966","name":"Olpe","type":"Kreis"},"federalState":{"key":"05","name":"Nordrhein-Westfalen"}},{"name":"Umgehungsstr.","postalCode":"57439","locality":"Attendorn","municipality":{"key":"05966004","name":"Attendorn, Hansestadt","type":"Stadt"},"district":{"key":"05966","name":"Olpe","type":"Kreis"},"federalState":{"key":"05","name":"Nordrhein-Westfalen"}},{"name":"Unter den Eichen","postalCode":"57439","locality":"Attendorn","municipality":{"key":"05966004","name":"Attendorn, Hansestadt","type":"Stadt"},"district":{"key":"05966","name":"Olpe","type":"Kreis"},"federalState":{"key":"05","name":"Nordrhein-Westfalen"}},{"name":"Unterdorf","postalCode":"57439","locality":"Attendorn","municipality":{"key":"05966004","name":"Attendorn, Hansestadt","type":"Stadt"},"district":{"key":"05966","name":"Olpe","type":"Kreis"},"federalState":{"key":"05","name":"Nordrhein-Westfalen"}},{"name":"Unterer Weg","postalCode":"57439","locality":"Attendorn","municipality":{"key":"05966004","name":"Attendorn, Hansestadt","type":"Stadt"},"district":{"key":"05966","name":"Olpe","type":"Kreis"},"federalState":{"key":"05","name":"Nordrhein-Westfalen"}},{"name":"Unterm Hunnebrink","postalCode":"57439","locality":"Attendorn","municipality":{"key":"05966004","name":"Attendorn, Hansestadt","type":"Stadt"},"district":{"key":"05966","name":"Olpe","type":"Kreis"},"federalState":{"key":"05","name":"Nordrhein-Westfalen"}},{"name":"Varenkopf","postalCode":"57439","locality":"Attendorn","municipality":{"key":"05966004","name":"Attendorn, Hansestadt","type":"Stadt"},"district":{"key":"05966","name":"Olpe","type":"Kreis"},"federalState":{"key":"05","name":"Nordrhein-Westfalen"}},{"name":"Vergessene Str.","postalCode":"57439","locality":"Attendorn","municipality":{"key":"05966004","name":"Attendorn, Hansestadt","type":"Stadt"},"district":{"key":"05966","name":"Olpe","type":"Kreis"},"federalState":{"key":"05","name":"Nordrhein-Westfalen"}},{"name":"Viega Platz","postalCode":"57439","locality":"Attendorn","municipality":{"key":"05966004","name":"Attendorn, Hansestadt","type":"Stadt"},"district":{"key":"05966","name":"Olpe","type":"Kreis"},"federalState":{"key":"05","name":"Nordrhein-Westfalen"}},{"name":"Vogelsang","postalCode":"57439","locality":"Attendorn","municipality":{"key":"05966004","name":"Attendorn, Hansestadt","type":"Stadt"},"district":{"key":"05966","name":"Olpe","type":"Kreis"},"federalState":{"key":"05","name":"Nordrhein-Westfalen"}},{"name":"Voßsiepen","postalCode":"57439","locality":"Attendorn","municipality":{"key":"05966004","name":"Attendorn, Hansestadt","type":"Stadt"},"district":{"key":"05966","name":"Olpe","type":"Kreis"},"federalState":{"key":"05","name":"Nordrhein-Westfalen"}},{"name":"Wacholderweg","postalCode":"57439","locality":"Attendorn","municipality":{"key":"05966004","name":"Attendorn, Hansestadt","type":"Stadt"},"district":{"key":"05966","name":"Olpe","type":"Kreis"},"federalState":{"key":"05","name":"Nordrhein-Westfalen"}},{"name":"Waldenburger Weg","postalCode":"57439","locality":"Attendorn","municipality":{"key":"05966004","name":"Attendorn, Hansestadt","type":"Stadt"},"district":{"key":"05966","name":"Olpe","type":"Kreis"},"federalState":{"key":"05","name":"Nordrhein-Westfalen"}},{"name":"Waldweg","postalCode":"57439","locality":"Attendorn","municipality":{"key":"05966004","name":"Attendorn, Hansestadt","type":"Stadt"},"district":{"key":"05966","name":"Olpe","type":"Kreis"},"federalState":{"key":"05","name":"Nordrhein-Westfalen"}},{"name":"Warburger Str.","postalCode":"57439","locality":"Attendorn","municipality":{"key":"05966004","name":"Attendorn, Hansestadt","type":"Stadt"},"district":{"key":"05966","name":"Olpe","type":"Kreis"},"federalState":{"key":"05","name":"Nordrhein-Westfalen"}},{"name":"Wasserstr.","postalCode":"57439","locality":"Attendorn","municipality":{"key":"05966004","name":"Attendorn, Hansestadt","type":"Stadt"},"district":{"key":"05966","name":"Olpe","type":"Kreis"},"federalState":{"key":"05","name":"Nordrhein-Westfalen"}},{"name":"Weberstr.","postalCode":"57439","locality":"Attendorn","municipality":{"key":"05966004","name":"Attendorn, Hansestadt","type":"Stadt"},"district":{"key":"05966","name":"Olpe","type":"Kreis"},"federalState":{"key":"05","name":"Nordrhein-Westfalen"}},{"name":"Weidenweg","postalCode":"57439","locality":"Attendorn","municipality":{"key":"05966004","name":"Attendorn, Hansestadt","type":"Stadt"},"district":{"key":"05966","name":"Olpe","type":"Kreis"},"federalState":{"key":"05","name":"Nordrhein-Westfalen"}},{"name":"Weißdornweg","postalCode":"57439","locality":"Attendorn","municipality":{"key":"05966004","name":"Attendorn, Hansestadt","type":"Stadt"},"district":{"key":"05966","name":"Olpe","type":"Kreis"},"federalState":{"key":"05","name":"Nordrhein-Westfalen"}},{"name":"Werler Str.","postalCode":"57439","locality":"Attendorn","municipality":{"key":"05966004","name":"Attendorn, Hansestadt","type":"Stadt"},"district":{"key":"05966","name":"Olpe","type":"Kreis"},"federalState":{"key":"05","name":"Nordrhein-Westfalen"}},{"name":"Wescheder Weg","postalCode":"57439","locality":"Attendorn","municipality":{"key":"05966004","name":"Attendorn, Hansestadt","type":"Stadt"},"district":{"key":"05966","name":"Olpe","type":"Kreis"},"federalState":{"key":"05","name":"Nordrhein-Westfalen"}},{"name":"Wesmecke","postalCode":"57439","locality":"Attendorn","municipality":{"key":"05966004","name":"Attendorn, Hansestadt","type":"Stadt"},"district":{"key":"05966","name":"Olpe","type":"Kreis"},"federalState":{"key":"05","name":"Nordrhein-Westfalen"}},{"name":"Westfälische Str.","postalCode":"57439","locality":"Attendorn","municipality":{"key":"05966004","name":"Attendorn, Hansestadt","type":"Stadt"},"district":{"key":"05966","name":"Olpe","type":"Kreis"},"federalState":{"key":"05","name":"Nordrhein-Westfalen"}},{"name":"Westwall","postalCode":"57439","locality":"Attendorn","municipality":{"key":"05966004","name":"Attendorn, Hansestadt","type":"Stadt"},"district":{"key":"05966","name":"Olpe","type":"Kreis"},"federalState":{"key":"05","name":"Nordrhein-Westfalen"}},{"name":"Wiehtfeld","postalCode":"57439","locality":"Attendorn","municipality":{"key":"05966004","name":"Attendorn, Hansestadt","type":"Stadt"},"district":{"key":"05966","name":"Olpe","type":"Kreis"},"federalState":{"key":"05","name":"Nordrhein-Westfalen"}},{"name":"Wiesbadener Str.","postalCode":"57439","locality":"Attendorn","municipality":{"key":"05966004","name":"Attendorn, Hansestadt","type":"Stadt"},"district":{"key":"05966","name":"Olpe","type":"Kreis"},"federalState":{"key":"05","name":"Nordrhein-Westfalen"}},{"name":"Wiesenhaferstr.","postalCode":"57439","locality":"Attendorn","municipality":{"key":"05966004","name":"Attendorn, Hansestadt","type":"Stadt"},"district":{"key":"05966","name":"Olpe","type":"Kreis"},"federalState":{"key":"05","name":"Nordrhein-Westfalen"}},{"name":"Wiesenhang","postalCode":"57439","locality":"Attendorn","municipality":{"key":"05966004","name":"Attendorn, Hansestadt","type":"Stadt"},"district":{"key":"05966","name":"Olpe","type":"Kreis"},"federalState":{"key":"05","name":"Nordrhein-Westfalen"}},{"name":"Wiesenstr.","postalCode":"57439","locality":"Attendorn","municipality":{"key":"05966004","name":"Attendorn, Hansestadt","type":"Stadt"},"district":{"key":"05966","name":"Olpe","type":"Kreis"},"federalState":{"key":"05","name":"Nordrhein-Westfalen"}},{"name":"Wiesental","postalCode":"57439","locality":"Attendorn","municipality":{"key":"05966004","name":"Attendorn, Hansestadt","type":"Stadt"},"district":{"key":"05966","name":"Olpe","type":"Kreis"},"federalState":{"key":"05","name":"Nordrhein-Westfalen"}},{"name":"Windhauser Str.","postalCode":"57439","locality":"Attendorn","municipality":{"key":"05966004","name":"Attendorn, Hansestadt","type":"Stadt"},"district":{"key":"05966","name":"Olpe","type":"Kreis"},"federalState":{"key":"05","name":"Nordrhein-Westfalen"}},{"name":"Wippeskuhlen","postalCode":"57439","locality":"Attendorn","municipality":{"key":"05966004","name":"Attendorn, Hansestadt","type":"Stadt"},"district":{"key":"05966","name":"Olpe","type":"Kreis"},"federalState":{"key":"05","name":"Nordrhein-Westfalen"}},{"name":"Wörmge","postalCode":"57439","locality":"Attendorn","municipality":{"key":"05966004","name":"Attendorn, Hansestadt","type":"Stadt"},"district":{"key":"05966","name":"Olpe","type":"Kreis"},"federalState":{"key":"05","name":"Nordrhein-Westfalen"}},{"name":"Zeppelinstr.","postalCode":"57439","locality":"Attendorn","municipality":{"key":"05966004","name":"Attendorn, Hansestadt","type":"Stadt"},"district":{"key":"05966","name":"Olpe","type":"Kreis"},"federalState":{"key":"05","name":"Nordrhein-Westfalen"}},{"name":"Ziegelofenweg","postalCode":"57439","locality":"Attendorn","municipality":{"key":"05966004","name":"Attendorn, Hansestadt","type":"Stadt"},"district":{"key":"05966","name":"Olpe","type":"Kreis"},"federalState":{"key":"05","name":"Nordrhein-Westfalen"}},{"name":"Zu den Gruben","postalCode":"57439","locality":"Attendorn","municipality":{"key":"05966004","name":"Attendorn, Hansestadt","type":"Stadt"},"district":{"key":"05966","name":"Olpe","type":"Kreis"},"federalState":{"key":"05","name":"Nordrhein-Westfalen"}},{"name":"Zu den Höfen","postalCode":"57439","locality":"Attendorn","municipality":{"key":"05966004","name":"Attendorn, Hansestadt","type":"Stadt"},"district":{"key":"05966","name":"Olpe","type":"Kreis"},"federalState":{"key":"05","name":"Nordrhein-Westfalen"}},{"name":"Zum Dörensborn","postalCode":"57439","locality":"Attendorn","municipality":{"key":"05966004","name":"Attendorn, Hansestadt","type":"Stadt"},"district":{"key":"05966","name":"Olpe","type":"Kreis"},"federalState":{"key":"05","name":"Nordrhein-Westfalen"}},{"name":"Zum Eben","postalCode":"57439","locality":"Attendorn","municipality":{"key":"05966004","name":"Attendorn, Hansestadt","type":"Stadt"},"district":{"key":"05966","name":"Olpe","type":"Kreis"},"federalState":{"key":"05","name":"Nordrhein-Westfalen"}},{"name":"Zum Ehrenmal","postalCode":"57439","locality":"Attendorn","municipality":{"key":"05966004","name":"Attendorn, Hansestadt","type":"Stadt"},"district":{"key":"05966","name":"Olpe","type":"Kreis"},"federalState":{"key":"05","name":"Nordrhein-Westfalen"}},{"name":"Zum Heiligenhäuschen","postalCode":"57439","locality":"Attendorn","municipality":{"key":"05966004","name":"Attendorn, Hansestadt","type":"Stadt"},"district":{"key":"05966","name":"Olpe","type":"Kreis"},"federalState":{"key":"05","name":"Nordrhein-Westfalen"}},{"name":"Zum Kalkofen","postalCode":"57439","locality":"Attendorn","municipality":{"key":"05966004","name":"Attendorn, Hansestadt","type":"Stadt"},"district":{"key":"05966","name":"Olpe","type":"Kreis"},"federalState":{"key":"05","name":"Nordrhein-Westfalen"}},{"name":"Zum Öhlchen","postalCode":"57439","locality":"Attendorn","municipality":{"key":"05966004","name":"Attendorn, Hansestadt","type":"Stadt"},"district":{"key":"05966","name":"Olpe","type":"Kreis"},"federalState":{"key":"05","name":"Nordrhein-Westfalen"}},{"name":"Zum Sonnenberg","postalCode":"57439","locality":"Attendorn","municipality":{"key":"05966004","name":"Attendorn, Hansestadt","type":"Stadt"},"district":{"key":"05966","name":"Olpe","type":"Kreis"},"federalState":{"key":"05","name":"Nordrhein-Westfalen"}},{"name":"Zum Stenn","postalCode":"57439","locality":"Attendorn","municipality":{"key":"05966004","name":"Attendorn, Hansestadt","type":"Stadt"},"district":{"key":"05966","name":"Olpe","type":"Kreis"},"federalState":{"key":"05","name":"Nordrhein-Westfalen"}},{"name":"Zum Waterland","postalCode":"57439","locality":"Attendorn","municipality":{"key":"05966004","name":"Attendorn, Hansestadt","type":"Stadt"},"district":{"key":"05966","name":"Olpe","type":"Kreis"},"federalState":{"key":"05","name":"Nordrhein-Westfalen"}},{"name":"Zum Ziegenberg","postalCode":"57439","locality":"Attendorn","municipality":{"key":"05966004","name":"Attendorn, Hansestadt","type":"Stadt"},"district":{"key":"05966","name":"Olpe","type":"Kreis"},"federalState":{"key":"05","name":"Nordrhein-Westfalen"}},{"name":"Zur Bracht","postalCode":"57439","locality":"Attendorn","municipality":{"key":"05966004","name":"Attendorn, Hansestadt","type":"Stadt"},"district":{"key":"05966","name":"Olpe","type":"Kreis"},"federalState":{"key":"05","name":"Nordrhein-Westfalen"}},{"name":"Zur Dasselkuhle","postalCode":"57439","locality":"Attendorn","municipality":{"key":"05966004","name":"Attendorn, Hansestadt","type":"Stadt"},"district":{"key":"05966","name":"Olpe","type":"Kreis"},"federalState":{"key":"05","name":"Nordrhein-Westfalen"}},{"name":"Zur Hofwiese","postalCode":"57439","locality":"Attendorn","municipality":{"key":"05966004","name":"Attendorn, Hansestadt","type":"Stadt"},"district":{"key":"05966","name":"Olpe","type":"Kreis"},"federalState":{"key":"05","name":"Nordrhein-Westfalen"}},{"name":"Zur Klinke","postalCode":"57439","locality":"Attendorn","municipality":{"key":"05966004","name":"Attendorn, Hansestadt","type":"Stadt"},"district":{"key":"05966","name":"Olpe","type":"Kreis"},"federalState":{"key":"05","name":"Nordrhein-Westfalen"}},{"name":"Zur Lehmkuhle","postalCode":"57439","locality":"Attendorn","municipality":{"key":"05966004","name":"Attendorn, Hansestadt","type":"Stadt"},"district":{"key":"05966","name":"Olpe","type":"Kreis"},"federalState":{"key":"05","name":"Nordrhein-Westfalen"}},{"name":"Zur Leye","postalCode":"57439","locality":"Attendorn","municipality":{"key":"05966004","name":"Attendorn, Hansestadt","type":"Stadt"},"district":{"key":"05966","name":"Olpe","type":"Kreis"},"federalState":{"key":"05","name":"Nordrhein-Westfalen"}},{"name":"Zur Steinlegge","postalCode":"57439","locality":"Attendorn","municipality":{"key":"05966004","name":"Attendorn, Hansestadt","type":"Stadt"},"district":{"key":"05966","name":"Olpe","type":"Kreis"},"federalState":{"key":"05","name":"Nordrhein-Westfalen"}},{"name":"Zur Vogelsrute","postalCode":"57439","locality":"Attendorn","municipality":{"key":"05966004","name":"Attendorn, Hansestadt","type":"Stadt"},"district":{"key":"05966","name":"Olpe","type":"Kreis"},"federalState":{"key":"05","name":"Nordrhein-Westfalen"}},{"name":"Zweilingsweg","postalCode":"57439","locality":"Attendorn","municipality":{"key":"05966004","name":"Attendorn, Hansestadt","type":"Stadt"},"district":{"key":"05966","name":"Olpe","type":"Kreis"},"federalState":{"key":"05","name":"Nordrhein-Westfalen"}},{"name":"Überm See","postalCode":"57462","locality":"Olpe","municipality":{"key":"05966024","name":"Olpe, Stadt","type":"Stadt"},"district":{"key":"05966","name":"Olpe","type":"Kreis"},"federalState":{"key":"05","name":"Nordrhein-Westfalen"}},{"name":"Üggelmicke","postalCode":"57462","locality":"Olpe","municipality":{"key":"05966024","name":"Olpe, Stadt","type":"Stadt"},"district":{"key":"05966","name":"Olpe","type":"Kreis"},"federalState":{"key":"05","name":"Nordrhein-Westfalen"}},]