[{"name":"1. Dwarsweg","postalCode":"26607","locality":"Aurich","municipality":{"key":"03452001","name":"Aurich, Stadt","type":"Stadt"},"district":{"key":"03452","name":"Aurich","type":"Landkreis"},"federalState":{"key":"03","name":"Niedersachsen"}},{"name":"1. Feldstückenweg","postalCode":"26605","locality":"Aurich","municipality":{"key":"03452001","name":"Aurich, Stadt","type":"Stadt"},"district":{"key":"03452","name":"Aurich","type":"Landkreis"},"federalState":{"key":"03","name":"Niedersachsen"}},{"name":"1. Hammweg","postalCode":"26607","locality":"Aurich","municipality":{"key":"03452001","name":"Aurich, Stadt","type":"Stadt"},"district":{"key":"03452","name":"Aurich","type":"Landkreis"},"federalState":{"key":"03","name":"Niedersachsen"}},{"name":"1. Leegmoorweg","postalCode":"26607","locality":"Aurich","municipality":{"key":"03452001","name":"Aurich, Stadt","type":"Stadt"},"district":{"key":"03452","name":"Aurich","type":"Landkreis"},"federalState":{"key":"03","name":"Niedersachsen"}},{"name":"2. Dwarsweg","postalCode":"26607","locality":"Aurich","municipality":{"key":"03452001","name":"Aurich, Stadt","type":"Stadt"},"district":{"key":"03452","name":"Aurich","type":"Landkreis"},"federalState":{"key":"03","name":"Niedersachsen"}},{"name":"2. Leegmoorweg","postalCode":"26607","locality":"Aurich","municipality":{"key":"03452001","name":"Aurich, Stadt","type":"Stadt"},"district":{"key":"03452","name":"Aurich","type":"Landkreis"},"federalState":{"key":"03","name":"Niedersachsen"}},{"name":"3. Dwarsweg","postalCode":"26607","locality":"Aurich","municipality":{"key":"03452001","name":"Aurich, Stadt","type":"Stadt"},"district":{"key":"03452","name":"Aurich","type":"Landkreis"},"federalState":{"key":"03","name":"Niedersachsen"}},{"name":"3. Leegmoorweg","postalCode":"26607","locality":"Aurich","municipality":{"key":"03452001","name":"Aurich, Stadt","type":"Stadt"},"district":{"key":"03452","name":"Aurich","type":"Landkreis"},"federalState":{"key":"03","name":"Niedersachsen"}},{"name":"Aalweg","postalCode":"26759","locality":"Hinte","municipality":{"key":"03452011","name":"Hinte","type":"Kreisangehörige_Gemeinde"},"district":{"key":"03452","name":"Aurich","type":"Landkreis"},"federalState":{"key":"03","name":"Niedersachsen"}},{"name":"Accordhausstr.","postalCode":"26759","locality":"Hinte","municipality":{"key":"03452011","name":"Hinte","type":"Kreisangehörige_Gemeinde"},"district":{"key":"03452","name":"Aurich","type":"Landkreis"},"federalState":{"key":"03","name":"Niedersachsen"}},{"name":"Ackerstr.","postalCode":"55743","locality":"Hintertiefenbach","municipality":{"key":"07134041","name":"Hintertiefenbach","type":"Kreisangehörige_Gemeinde"},"district":{"key":"07134","name":"Birkenfeld","type":"Landkreis"},"federalState":{"key":"07","name":"Rheinland-Pfalz"}},{"name":"Adlerplatz","postalCode":"79856","locality":"Hinterzarten","municipality":{"key":"08315052","name":"Hinterzarten","type":"Kreisangehörige_Gemeinde"},"district":{"key":"08315","name":"Breisgau-Hochschwarzwald","type":"Landkreis"},"federalState":{"key":"08","name":"Baden-Württemberg"}},{"name":"Adlerschanze","postalCode":"79856","locality":"Hinterzarten","municipality":{"key":"08315052","name":"Hinterzarten","type":"Kreisangehörige_Gemeinde"},"district":{"key":"08315","name":"Breisgau-Hochschwarzwald","type":"Landkreis"},"federalState":{"key":"08","name":"Baden-Württemberg"}},{"name":"Adlerweg","postalCode":"79856","locality":"Hinterzarten","municipality":{"key":"08315052","name":"Hinterzarten","type":"Kreisangehörige_Gemeinde"},"district":{"key":"08315","name":"Breisgau-Hochschwarzwald","type":"Landkreis"},"federalState":{"key":"08","name":"Baden-Württemberg"}},{"name":"Agterum","postalCode":"26759","locality":"Hinte","municipality":{"key":"03452011","name":"Hinte","type":"Kreisangehörige_Gemeinde"},"district":{"key":"03452","name":"Aurich","type":"Landkreis"},"federalState":{"key":"03","name":"Niedersachsen"}},{"name":"Ahornweg","postalCode":"26759","locality":"Hinte","municipality":{"key":"03452011","name":"Hinte","type":"Kreisangehörige_Gemeinde"},"district":{"key":"03452","name":"Aurich","type":"Landkreis"},"federalState":{"key":"03","name":"Niedersachsen"}},{"name":"Albert-Ketterer-Weg","postalCode":"79856","locality":"Hinterzarten","municipality":{"key":"08315052","name":"Hinterzarten","type":"Kreisangehörige_Gemeinde"},"district":{"key":"08315","name":"Breisgau-Hochschwarzwald","type":"Landkreis"},"federalState":{"key":"08","name":"Baden-Württemberg"}},{"name":"Albringwehrster Weg","postalCode":"26759","locality":"Hinte","municipality":{"key":"03452011","name":"Hinte","type":"Kreisangehörige_Gemeinde"},"district":{"key":"03452","name":"Aurich","type":"Landkreis"},"federalState":{"key":"03","name":"Niedersachsen"}},{"name":"Alemannenhofweg","postalCode":"79856","locality":"Hinterzarten","municipality":{"key":"08315052","name":"Hinterzarten","type":"Kreisangehörige_Gemeinde"},"district":{"key":"08315","name":"Breisgau-Hochschwarzwald","type":"Landkreis"},"federalState":{"key":"08","name":"Baden-Württemberg"}},{"name":"Alte Maar","postalCode":"26759","locality":"Hinte","municipality":{"key":"03452011","name":"Hinte","type":"Kreisangehörige_Gemeinde"},"district":{"key":"03452","name":"Aurich","type":"Landkreis"},"federalState":{"key":"03","name":"Niedersachsen"}},{"name":"Alter Heerweg","postalCode":"26759","locality":"Hinte","municipality":{"key":"03452011","name":"Hinte","type":"Kreisangehörige_Gemeinde"},"district":{"key":"03452","name":"Aurich","type":"Landkreis"},"federalState":{"key":"03","name":"Niedersachsen"}},{"name":"Alter Postweg","postalCode":"26759","locality":"Hinte","municipality":{"key":"03452011","name":"Hinte","type":"Kreisangehörige_Gemeinde"},"district":{"key":"03452","name":"Aurich","type":"Landkreis"},"federalState":{"key":"03","name":"Niedersachsen"}},{"name":"Alter Schulweg","postalCode":"26759","locality":"Hinte","municipality":{"key":"03452011","name":"Hinte","type":"Kreisangehörige_Gemeinde"},"district":{"key":"03452","name":"Aurich","type":"Landkreis"},"federalState":{"key":"03","name":"Niedersachsen"}},{"name":"Alter Weg","postalCode":"54570","locality":"Hinterweiler","municipality":{"key":"07233030","name":"Hinterweiler","type":"Kreisangehörige_Gemeinde"},"district":{"key":"07233","name":"Vulkaneifel","type":"Landkreis"},"federalState":{"key":"07","name":"Rheinland-Pfalz"}},{"name":"Am Adlerpark","postalCode":"79856","locality":"Hinterzarten","municipality":{"key":"08315052","name":"Hinterzarten","type":"Kreisangehörige_Gemeinde"},"district":{"key":"08315","name":"Breisgau-Hochschwarzwald","type":"Landkreis"},"federalState":{"key":"08","name":"Baden-Württemberg"}},{"name":"Am alten Sportplatz","postalCode":"26759","locality":"Hinte","municipality":{"key":"03452011","name":"Hinte","type":"Kreisangehörige_Gemeinde"},"district":{"key":"03452","name":"Aurich","type":"Landkreis"},"federalState":{"key":"03","name":"Niedersachsen"}},{"name":"Am alten Tief","postalCode":"26759","locality":"Hinte","municipality":{"key":"03452011","name":"Hinte","type":"Kreisangehörige_Gemeinde"},"district":{"key":"03452","name":"Aurich","type":"Landkreis"},"federalState":{"key":"03","name":"Niedersachsen"}},{"name":"Am Apfelgarten","postalCode":"26759","locality":"Hinte","municipality":{"key":"03452011","name":"Hinte","type":"Kreisangehörige_Gemeinde"},"district":{"key":"03452","name":"Aurich","type":"Landkreis"},"federalState":{"key":"03","name":"Niedersachsen"}},{"name":"Am Bahndamm","postalCode":"26759","locality":"Hinte","municipality":{"key":"03452011","name":"Hinte","type":"Kreisangehörige_Gemeinde"},"district":{"key":"03452","name":"Aurich","type":"Landkreis"},"federalState":{"key":"03","name":"Niedersachsen"}},{"name":"Am Biegel","postalCode":"94146","locality":"Hinterschmiding","municipality":{"key":"09272126","name":"Hinterschmiding","type":"Kreisangehörige_Gemeinde"},"district":{"key":"09272","name":"Freyung-Grafenau","type":"Landkreis"},"federalState":{"key":"09","name":"Bayern"}},{"name":"Amboßweg","postalCode":"26759","locality":"Hinte","municipality":{"key":"03452011","name":"Hinte","type":"Kreisangehörige_Gemeinde"},"district":{"key":"03452","name":"Aurich","type":"Landkreis"},"federalState":{"key":"03","name":"Niedersachsen"}},{"name":"Am Burggarten","postalCode":"26759","locality":"Hinte","municipality":{"key":"03452011","name":"Hinte","type":"Kreisangehörige_Gemeinde"},"district":{"key":"03452","name":"Aurich","type":"Landkreis"},"federalState":{"key":"03","name":"Niedersachsen"}},{"name":"Am Denkmal","postalCode":"26759","locality":"Hinte","municipality":{"key":"03452011","name":"Hinte","type":"Kreisangehörige_Gemeinde"},"district":{"key":"03452","name":"Aurich","type":"Landkreis"},"federalState":{"key":"03","name":"Niedersachsen"}},{"name":"Am Düsterland","postalCode":"26759","locality":"Hinte","municipality":{"key":"03452011","name":"Hinte","type":"Kreisangehörige_Gemeinde"},"district":{"key":"03452","name":"Aurich","type":"Landkreis"},"federalState":{"key":"03","name":"Niedersachsen"}},{"name":"Am Etschberg","postalCode":"66999","locality":"Hinterweidenthal","municipality":{"key":"07340020","name":"Hinterweidenthal","type":"Kreisangehörige_Gemeinde"},"district":{"key":"07340","name":"Südwestpfalz","type":"Landkreis"},"federalState":{"key":"07","name":"Rheinland-Pfalz"}},{"name":"Am Feldberg","postalCode":"79856","locality":"Hinterzarten","municipality":{"key":"08315052","name":"Hinterzarten","type":"Kreisangehörige_Gemeinde"},"district":{"key":"08315","name":"Breisgau-Hochschwarzwald","type":"Landkreis"},"federalState":{"key":"08","name":"Baden-Württemberg"}},{"name":"Am Gasthof","postalCode":"26759","locality":"Hinte","municipality":{"key":"03452011","name":"Hinte","type":"Kreisangehörige_Gemeinde"},"district":{"key":"03452","name":"Aurich","type":"Landkreis"},"federalState":{"key":"03","name":"Niedersachsen"}},{"name":"Am Glockenhorn","postalCode":"66999","locality":"Hinterweidenthal","municipality":{"key":"07340020","name":"Hinterweidenthal","type":"Kreisangehörige_Gemeinde"},"district":{"key":"07340","name":"Südwestpfalz","type":"Landkreis"},"federalState":{"key":"07","name":"Rheinland-Pfalz"}},{"name":"Am Goldacker","postalCode":"26759","locality":"Hinte","municipality":{"key":"03452011","name":"Hinte","type":"Kreisangehörige_Gemeinde"},"district":{"key":"03452","name":"Aurich","type":"Landkreis"},"federalState":{"key":"03","name":"Niedersachsen"}},{"name":"Am Goldenen Steig","postalCode":"94146","locality":"Hinterschmiding","municipality":{"key":"09272126","name":"Hinterschmiding","type":"Kreisangehörige_Gemeinde"},"district":{"key":"09272","name":"Freyung-Grafenau","type":"Landkreis"},"federalState":{"key":"09","name":"Bayern"}},{"name":"Am Haskamp","postalCode":"26759","locality":"Hinte","municipality":{"key":"03452011","name":"Hinte","type":"Kreisangehörige_Gemeinde"},"district":{"key":"03452","name":"Aurich","type":"Landkreis"},"federalState":{"key":"03","name":"Niedersachsen"}},{"name":"Am Heem","postalCode":"26759","locality":"Hinte","municipality":{"key":"03452011","name":"Hinte","type":"Kreisangehörige_Gemeinde"},"district":{"key":"03452","name":"Aurich","type":"Landkreis"},"federalState":{"key":"03","name":"Niedersachsen"}},{"name":"Am Heibertstein","postalCode":"66999","locality":"Hinterweidenthal","municipality":{"key":"07340020","name":"Hinterweidenthal","type":"Kreisangehörige_Gemeinde"},"district":{"key":"07340","name":"Südwestpfalz","type":"Landkreis"},"federalState":{"key":"07","name":"Rheinland-Pfalz"}},{"name":"Am Heidbühl","postalCode":"66999","locality":"Hinterweidenthal","municipality":{"key":"07340020","name":"Hinterweidenthal","type":"Kreisangehörige_Gemeinde"},"district":{"key":"07340","name":"Südwestpfalz","type":"Landkreis"},"federalState":{"key":"07","name":"Rheinland-Pfalz"}},{"name":"Am Hinter Tief","postalCode":"26759","locality":"Hinte","municipality":{"key":"03452011","name":"Hinte","type":"Kreisangehörige_Gemeinde"},"district":{"key":"03452","name":"Aurich","type":"Landkreis"},"federalState":{"key":"03","name":"Niedersachsen"}},{"name":"Am Horst","postalCode":"26759","locality":"Hinte","municipality":{"key":"03452011","name":"Hinte","type":"Kreisangehörige_Gemeinde"},"district":{"key":"03452","name":"Aurich","type":"Landkreis"},"federalState":{"key":"03","name":"Niedersachsen"}},{"name":"Am Hügel","postalCode":"26759","locality":"Hinte","municipality":{"key":"03452011","name":"Hinte","type":"Kreisangehörige_Gemeinde"},"district":{"key":"03452","name":"Aurich","type":"Landkreis"},"federalState":{"key":"03","name":"Niedersachsen"}},{"name":"Am Kesslerberg","postalCode":"79856","locality":"Hinterzarten","municipality":{"key":"08315052","name":"Hinterzarten","type":"Kreisangehörige_Gemeinde"},"district":{"key":"08315","name":"Breisgau-Hochschwarzwald","type":"Landkreis"},"federalState":{"key":"08","name":"Baden-Württemberg"}},{"name":"Am Kindergarten","postalCode":"26759","locality":"Hinte","municipality":{"key":"03452011","name":"Hinte","type":"Kreisangehörige_Gemeinde"},"district":{"key":"03452","name":"Aurich","type":"Landkreis"},"federalState":{"key":"03","name":"Niedersachsen"}},{"name":"Am Knockster Tief","postalCode":"26759","locality":"Hinte","municipality":{"key":"03452011","name":"Hinte","type":"Kreisangehörige_Gemeinde"},"district":{"key":"03452","name":"Aurich","type":"Landkreis"},"federalState":{"key":"03","name":"Niedersachsen"}},{"name":"Am Löschteich","postalCode":"26759","locality":"Hinte","municipality":{"key":"03452011","name":"Hinte","type":"Kreisangehörige_Gemeinde"},"district":{"key":"03452","name":"Aurich","type":"Landkreis"},"federalState":{"key":"03","name":"Niedersachsen"}},{"name":"Am Margarethenhof","postalCode":"26759","locality":"Hinte","municipality":{"key":"03452011","name":"Hinte","type":"Kreisangehörige_Gemeinde"},"district":{"key":"03452","name":"Aurich","type":"Landkreis"},"federalState":{"key":"03","name":"Niedersachsen"}},{"name":"Ammolandsweg","postalCode":"26759","locality":"Hinte","municipality":{"key":"03452011","name":"Hinte","type":"Kreisangehörige_Gemeinde"},"district":{"key":"03452","name":"Aurich","type":"Landkreis"},"federalState":{"key":"03","name":"Niedersachsen"}},{"name":"Am Obstgarten","postalCode":"26759","locality":"Hinte","municipality":{"key":"03452011","name":"Hinte","type":"Kreisangehörige_Gemeinde"},"district":{"key":"03452","name":"Aurich","type":"Landkreis"},"federalState":{"key":"03","name":"Niedersachsen"}},{"name":"Am Schiefen Turm","postalCode":"26759","locality":"Hinte","municipality":{"key":"03452011","name":"Hinte","type":"Kreisangehörige_Gemeinde"},"district":{"key":"03452","name":"Aurich","type":"Landkreis"},"federalState":{"key":"03","name":"Niedersachsen"}},{"name":"Am Schütt","postalCode":"26759","locality":"Hinte","municipality":{"key":"03452011","name":"Hinte","type":"Kreisangehörige_Gemeinde"},"district":{"key":"03452","name":"Aurich","type":"Landkreis"},"federalState":{"key":"03","name":"Niedersachsen"}},{"name":"Amselweg","postalCode":"26759","locality":"Hinte","municipality":{"key":"03452011","name":"Hinte","type":"Kreisangehörige_Gemeinde"},"district":{"key":"03452","name":"Aurich","type":"Landkreis"},"federalState":{"key":"03","name":"Niedersachsen"}},{"name":"Am Spielplatz","postalCode":"26759","locality":"Hinte","municipality":{"key":"03452011","name":"Hinte","type":"Kreisangehörige_Gemeinde"},"district":{"key":"03452","name":"Aurich","type":"Landkreis"},"federalState":{"key":"03","name":"Niedersachsen"}},{"name":"Bahnhofstr.","postalCode":"26759","locality":"Hinte","municipality":{"key":"03452011","name":"Hinte","type":"Kreisangehörige_Gemeinde"},"district":{"key":"03452","name":"Aurich","type":"Landkreis"},"federalState":{"key":"03","name":"Niedersachsen"}},{"name":"Bahnhofstr.","postalCode":"66999","locality":"Hinterweidenthal","municipality":{"key":"07340020","name":"Hinterweidenthal","type":"Kreisangehörige_Gemeinde"},"district":{"key":"07340","name":"Südwestpfalz","type":"Landkreis"},"federalState":{"key":"07","name":"Rheinland-Pfalz"}},{"name":"Bahnhofweg","postalCode":"79856","locality":"Hinterzarten","municipality":{"key":"08315052","name":"Hinterzarten","type":"Kreisangehörige_Gemeinde"},"district":{"key":"08315","name":"Breisgau-Hochschwarzwald","type":"Landkreis"},"federalState":{"key":"08","name":"Baden-Württemberg"}},{"name":"Bankgalliweg","postalCode":"79856","locality":"Hinterzarten","municipality":{"key":"08315052","name":"Hinterzarten","type":"Kreisangehörige_Gemeinde"},"district":{"key":"08315","name":"Breisgau-Hochschwarzwald","type":"Landkreis"},"federalState":{"key":"08","name":"Baden-Württemberg"}},{"name":"Barschweg","postalCode":"26759","locality":"Hinte","municipality":{"key":"03452011","name":"Hinte","type":"Kreisangehörige_Gemeinde"},"district":{"key":"03452","name":"Aurich","type":"Landkreis"},"federalState":{"key":"03","name":"Niedersachsen"}},{"name":"Baumschulweg","postalCode":"94146","locality":"Hinterschmiding","municipality":{"key":"09272126","name":"Hinterschmiding","type":"Kreisangehörige_Gemeinde"},"district":{"key":"09272","name":"Freyung-Grafenau","type":"Landkreis"},"federalState":{"key":"09","name":"Bayern"}},{"name":"Bei Abbingwehr","postalCode":"26759","locality":"Hinte","municipality":{"key":"03452011","name":"Hinte","type":"Kreisangehörige_Gemeinde"},"district":{"key":"03452","name":"Aurich","type":"Landkreis"},"federalState":{"key":"03","name":"Niedersachsen"}},{"name":"Bei Kringwehrum","postalCode":"26759","locality":"Hinte","municipality":{"key":"03452011","name":"Hinte","type":"Kreisangehörige_Gemeinde"},"district":{"key":"03452","name":"Aurich","type":"Landkreis"},"federalState":{"key":"03","name":"Niedersachsen"}},{"name":"Bei Vliehaus","postalCode":"26759","locality":"Hinte","municipality":{"key":"03452011","name":"Hinte","type":"Kreisangehörige_Gemeinde"},"district":{"key":"03452","name":"Aurich","type":"Landkreis"},"federalState":{"key":"03","name":"Niedersachsen"}},{"name":"Bei Wichhusen","postalCode":"26759","locality":"Hinte","municipality":{"key":"03452011","name":"Hinte","type":"Kreisangehörige_Gemeinde"},"district":{"key":"03452","name":"Aurich","type":"Landkreis"},"federalState":{"key":"03","name":"Niedersachsen"}},{"name":"Bergackerweg","postalCode":"79856","locality":"Hinterzarten","municipality":{"key":"08315052","name":"Hinterzarten","type":"Kreisangehörige_Gemeinde"},"district":{"key":"08315","name":"Breisgau-Hochschwarzwald","type":"Landkreis"},"federalState":{"key":"08","name":"Baden-Württemberg"}},{"name":"Bergstr.","postalCode":"55743","locality":"Hintertiefenbach","municipality":{"key":"07134041","name":"Hintertiefenbach","type":"Kreisangehörige_Gemeinde"},"district":{"key":"07134","name":"Birkenfeld","type":"Landkreis"},"federalState":{"key":"07","name":"Rheinland-Pfalz"}},{"name":"Bergstr.","postalCode":"66999","locality":"Hinterweidenthal","municipality":{"key":"07340020","name":"Hinterweidenthal","type":"Kreisangehörige_Gemeinde"},"district":{"key":"07340","name":"Südwestpfalz","type":"Landkreis"},"federalState":{"key":"07","name":"Rheinland-Pfalz"}},{"name":"Bergstrassl","postalCode":"94146","locality":"Hinterschmiding","municipality":{"key":"09272126","name":"Hinterschmiding","type":"Kreisangehörige_Gemeinde"},"district":{"key":"09272","name":"Freyung-Grafenau","type":"Landkreis"},"federalState":{"key":"09","name":"Bayern"}},{"name":"Binsenstr.","postalCode":"26759","locality":"Hinte","municipality":{"key":"03452011","name":"Hinte","type":"Kreisangehörige_Gemeinde"},"district":{"key":"03452","name":"Aurich","type":"Landkreis"},"federalState":{"key":"03","name":"Niedersachsen"}},{"name":"Birkenweg","postalCode":"26759","locality":"Hinte","municipality":{"key":"03452011","name":"Hinte","type":"Kreisangehörige_Gemeinde"},"district":{"key":"03452","name":"Aurich","type":"Landkreis"},"federalState":{"key":"03","name":"Niedersachsen"}},{"name":"Birkenweg","postalCode":"79856","locality":"Hinterzarten","municipality":{"key":"08315052","name":"Hinterzarten","type":"Kreisangehörige_Gemeinde"},"district":{"key":"08315","name":"Breisgau-Hochschwarzwald","type":"Landkreis"},"federalState":{"key":"08","name":"Baden-Württemberg"}},{"name":"Bistenwaldstr.","postalCode":"79856","locality":"Hinterzarten","municipality":{"key":"08315052","name":"Hinterzarten","type":"Kreisangehörige_Gemeinde"},"district":{"key":"08315","name":"Breisgau-Hochschwarzwald","type":"Landkreis"},"federalState":{"key":"08","name":"Baden-Württemberg"}},{"name":"Bleskeweg","postalCode":"26759","locality":"Hinte","municipality":{"key":"03452011","name":"Hinte","type":"Kreisangehörige_Gemeinde"},"district":{"key":"03452","name":"Aurich","type":"Landkreis"},"federalState":{"key":"03","name":"Niedersachsen"}},{"name":"Blockhausweg","postalCode":"26759","locality":"Hinte","municipality":{"key":"03452011","name":"Hinte","type":"Kreisangehörige_Gemeinde"},"district":{"key":"03452","name":"Aurich","type":"Landkreis"},"federalState":{"key":"03","name":"Niedersachsen"}},{"name":"Blumenweg","postalCode":"26759","locality":"Hinte","municipality":{"key":"03452011","name":"Hinte","type":"Kreisangehörige_Gemeinde"},"district":{"key":"03452","name":"Aurich","type":"Landkreis"},"federalState":{"key":"03","name":"Niedersachsen"}},{"name":"Börgstee","postalCode":"26759","locality":"Hinte","municipality":{"key":"03452011","name":"Hinte","type":"Kreisangehörige_Gemeinde"},"district":{"key":"03452","name":"Aurich","type":"Landkreis"},"federalState":{"key":"03","name":"Niedersachsen"}},{"name":"Börgtuun","postalCode":"26759","locality":"Hinte","municipality":{"key":"03452011","name":"Hinte","type":"Kreisangehörige_Gemeinde"},"district":{"key":"03452","name":"Aurich","type":"Landkreis"},"federalState":{"key":"03","name":"Niedersachsen"}},{"name":"Breiter Weg","postalCode":"26759","locality":"Hinte","municipality":{"key":"03452011","name":"Hinte","type":"Kreisangehörige_Gemeinde"},"district":{"key":"03452","name":"Aurich","type":"Landkreis"},"federalState":{"key":"03","name":"Niedersachsen"}},{"name":"Brombeerweg","postalCode":"26759","locality":"Hinte","municipality":{"key":"03452011","name":"Hinte","type":"Kreisangehörige_Gemeinde"},"district":{"key":"03452","name":"Aurich","type":"Landkreis"},"federalState":{"key":"03","name":"Niedersachsen"}},{"name":"Brückstr.","postalCode":"26759","locality":"Hinte","municipality":{"key":"03452011","name":"Hinte","type":"Kreisangehörige_Gemeinde"},"district":{"key":"03452","name":"Aurich","type":"Landkreis"},"federalState":{"key":"03","name":"Niedersachsen"}},{"name":"Bruderhalde","postalCode":"79856","locality":"Hinterzarten","municipality":{"key":"08315052","name":"Hinterzarten","type":"Kreisangehörige_Gemeinde"},"district":{"key":"08315","name":"Breisgau-Hochschwarzwald","type":"Landkreis"},"federalState":{"key":"08","name":"Baden-Württemberg"}},{"name":"Bruderstiegweg","postalCode":"79856","locality":"Hinterzarten","municipality":{"key":"08315052","name":"Hinterzarten","type":"Kreisangehörige_Gemeinde"},"district":{"key":"08315","name":"Breisgau-Hochschwarzwald","type":"Landkreis"},"federalState":{"key":"08","name":"Baden-Württemberg"}},{"name":"Buchbühlweg","postalCode":"79856","locality":"Hinterzarten","municipality":{"key":"08315052","name":"Hinterzarten","type":"Kreisangehörige_Gemeinde"},"district":{"key":"08315","name":"Breisgau-Hochschwarzwald","type":"Landkreis"},"federalState":{"key":"08","name":"Baden-Württemberg"}},{"name":"Buchenweg","postalCode":"26759","locality":"Hinte","municipality":{"key":"03452011","name":"Hinte","type":"Kreisangehörige_Gemeinde"},"district":{"key":"03452","name":"Aurich","type":"Landkreis"},"federalState":{"key":"03","name":"Niedersachsen"}},{"name":"Buchenweg","postalCode":"94146","locality":"Hinterschmiding","municipality":{"key":"09272126","name":"Hinterschmiding","type":"Kreisangehörige_Gemeinde"},"district":{"key":"09272","name":"Freyung-Grafenau","type":"Landkreis"},"federalState":{"key":"09","name":"Bayern"}},{"name":"Bühlhofweg","postalCode":"79856","locality":"Hinterzarten","municipality":{"key":"08315052","name":"Hinterzarten","type":"Kreisangehörige_Gemeinde"},"district":{"key":"08315","name":"Breisgau-Hochschwarzwald","type":"Landkreis"},"federalState":{"key":"08","name":"Baden-Württemberg"}},{"name":"Bundesstr.","postalCode":"79856","locality":"Hinterzarten","municipality":{"key":"08315052","name":"Hinterzarten","type":"Kreisangehörige_Gemeinde"},"district":{"key":"08315","name":"Breisgau-Hochschwarzwald","type":"Landkreis"},"federalState":{"key":"08","name":"Baden-Württemberg"}},{"name":"Burgstr.","postalCode":"26759","locality":"Hinte","municipality":{"key":"03452011","name":"Hinte","type":"Kreisangehörige_Gemeinde"},"district":{"key":"03452","name":"Aurich","type":"Landkreis"},"federalState":{"key":"03","name":"Niedersachsen"}},{"name":"Buschweg","postalCode":"26759","locality":"Hinte","municipality":{"key":"03452011","name":"Hinte","type":"Kreisangehörige_Gemeinde"},"district":{"key":"03452","name":"Aurich","type":"Landkreis"},"federalState":{"key":"03","name":"Niedersachsen"}},{"name":"Bussardweg","postalCode":"26759","locality":"Hinte","municipality":{"key":"03452011","name":"Hinte","type":"Kreisangehörige_Gemeinde"},"district":{"key":"03452","name":"Aurich","type":"Landkreis"},"federalState":{"key":"03","name":"Niedersachsen"}},{"name":"Canhuser Ring","postalCode":"26759","locality":"Hinte","municipality":{"key":"03452011","name":"Hinte","type":"Kreisangehörige_Gemeinde"},"district":{"key":"03452","name":"Aurich","type":"Landkreis"},"federalState":{"key":"03","name":"Niedersachsen"}},{"name":"Canhuser Str.","postalCode":"26759","locality":"Hinte","municipality":{"key":"03452011","name":"Hinte","type":"Kreisangehörige_Gemeinde"},"district":{"key":"03452","name":"Aurich","type":"Landkreis"},"federalState":{"key":"03","name":"Niedersachsen"}},{"name":"Carsjensweg","postalCode":"26759","locality":"Hinte","municipality":{"key":"03452011","name":"Hinte","type":"Kreisangehörige_Gemeinde"},"district":{"key":"03452","name":"Aurich","type":"Landkreis"},"federalState":{"key":"03","name":"Niedersachsen"}},{"name":"Cirksenaweg","postalCode":"26759","locality":"Hinte","municipality":{"key":"03452011","name":"Hinte","type":"Kreisangehörige_Gemeinde"},"district":{"key":"03452","name":"Aurich","type":"Landkreis"},"federalState":{"key":"03","name":"Niedersachsen"}},{"name":"Cirkwehrumer Ring","postalCode":"26759","locality":"Hinte","municipality":{"key":"03452011","name":"Hinte","type":"Kreisangehörige_Gemeinde"},"district":{"key":"03452","name":"Aurich","type":"Landkreis"},"federalState":{"key":"03","name":"Niedersachsen"}},{"name":"Cirkwehrumer Str.","postalCode":"26759","locality":"Hinte","municipality":{"key":"03452011","name":"Hinte","type":"Kreisangehörige_Gemeinde"},"district":{"key":"03452","name":"Aurich","type":"Landkreis"},"federalState":{"key":"03","name":"Niedersachsen"}},{"name":"Concordiastr.","postalCode":"26759","locality":"Hinte","municipality":{"key":"03452011","name":"Hinte","type":"Kreisangehörige_Gemeinde"},"district":{"key":"03452","name":"Aurich","type":"Landkreis"},"federalState":{"key":"03","name":"Niedersachsen"}},{"name":"Cramerstr.","postalCode":"26759","locality":"Hinte","municipality":{"key":"03452011","name":"Hinte","type":"Kreisangehörige_Gemeinde"},"district":{"key":"03452","name":"Aurich","type":"Landkreis"},"federalState":{"key":"03","name":"Niedersachsen"}},{"name":"Dammsweg","postalCode":"26759","locality":"Hinte","municipality":{"key":"03452011","name":"Hinte","type":"Kreisangehörige_Gemeinde"},"district":{"key":"03452","name":"Aurich","type":"Landkreis"},"federalState":{"key":"03","name":"Niedersachsen"}},{"name":"Dorflohne","postalCode":"26759","locality":"Hinte","municipality":{"key":"03452011","name":"Hinte","type":"Kreisangehörige_Gemeinde"},"district":{"key":"03452","name":"Aurich","type":"Landkreis"},"federalState":{"key":"03","name":"Niedersachsen"}},{"name":"Dorfplatz","postalCode":"94146","locality":"Hinterschmiding","municipality":{"key":"09272126","name":"Hinterschmiding","type":"Kreisangehörige_Gemeinde"},"district":{"key":"09272","name":"Freyung-Grafenau","type":"Landkreis"},"federalState":{"key":"09","name":"Bayern"}},{"name":"Dorfstr.","postalCode":"17375","locality":"Hintersee","municipality":{"key":"13075051","name":"Hintersee","type":"Kreisangehörige_Gemeinde"},"district":{"key":"13075","name":"Vorpommern-Greifswald","type":"Landkreis"},"federalState":{"key":"13","name":"Mecklenburg-Vorpommern"}},{"name":"Dorfstr.","postalCode":"26759","locality":"Hinte","municipality":{"key":"03452011","name":"Hinte","type":"Kreisangehörige_Gemeinde"},"district":{"key":"03452","name":"Aurich","type":"Landkreis"},"federalState":{"key":"03","name":"Niedersachsen"}},{"name":"Dorfstr.","postalCode":"94146","locality":"Hinterschmiding","municipality":{"key":"09272126","name":"Hinterschmiding","type":"Kreisangehörige_Gemeinde"},"district":{"key":"09272","name":"Freyung-Grafenau","type":"Landkreis"},"federalState":{"key":"09","name":"Bayern"}},{"name":"Dorfweg","postalCode":"26759","locality":"Hinte","municipality":{"key":"03452011","name":"Hinte","type":"Kreisangehörige_Gemeinde"},"district":{"key":"03452","name":"Aurich","type":"Landkreis"},"federalState":{"key":"03","name":"Niedersachsen"}},{"name":"Dorneck","postalCode":"79856","locality":"Hinterzarten","municipality":{"key":"08315052","name":"Hinterzarten","type":"Kreisangehörige_Gemeinde"},"district":{"key":"08315","name":"Breisgau-Hochschwarzwald","type":"Landkreis"},"federalState":{"key":"08","name":"Baden-Württemberg"}},{"name":"Dreisprung","postalCode":"26759","locality":"Hinte","municipality":{"key":"03452011","name":"Hinte","type":"Kreisangehörige_Gemeinde"},"district":{"key":"03452","name":"Aurich","type":"Landkreis"},"federalState":{"key":"03","name":"Niedersachsen"}},{"name":"Dr. Ganter Weg","postalCode":"79856","locality":"Hinterzarten","municipality":{"key":"08315052","name":"Hinterzarten","type":"Kreisangehörige_Gemeinde"},"district":{"key":"08315","name":"Breisgau-Hochschwarzwald","type":"Landkreis"},"federalState":{"key":"08","name":"Baden-Württemberg"}},{"name":"Drosselweg","postalCode":"26759","locality":"Hinte","municipality":{"key":"03452011","name":"Hinte","type":"Kreisangehörige_Gemeinde"},"district":{"key":"03452","name":"Aurich","type":"Landkreis"},"federalState":{"key":"03","name":"Niedersachsen"}},{"name":"Ebelweg","postalCode":"79856","locality":"Hinterzarten","municipality":{"key":"08315052","name":"Hinterzarten","type":"Kreisangehörige_Gemeinde"},"district":{"key":"08315","name":"Breisgau-Hochschwarzwald","type":"Landkreis"},"federalState":{"key":"08","name":"Baden-Württemberg"}},{"name":"Eichenweg","postalCode":"26759","locality":"Hinte","municipality":{"key":"03452011","name":"Hinte","type":"Kreisangehörige_Gemeinde"},"district":{"key":"03452","name":"Aurich","type":"Landkreis"},"federalState":{"key":"03","name":"Niedersachsen"}},{"name":"Eisinghuser Str.","postalCode":"26759","locality":"Hinte","municipality":{"key":"03452011","name":"Hinte","type":"Kreisangehörige_Gemeinde"},"district":{"key":"03452","name":"Aurich","type":"Landkreis"},"federalState":{"key":"03","name":"Niedersachsen"}},{"name":"Eisinghuser Weg","postalCode":"26759","locality":"Hinte","municipality":{"key":"03452011","name":"Hinte","type":"Kreisangehörige_Gemeinde"},"district":{"key":"03452","name":"Aurich","type":"Landkreis"},"federalState":{"key":"03","name":"Niedersachsen"}},{"name":"Emder Str.","postalCode":"26759","locality":"Hinte","municipality":{"key":"03452011","name":"Hinte","type":"Kreisangehörige_Gemeinde"},"district":{"key":"03452","name":"Aurich","type":"Landkreis"},"federalState":{"key":"03","name":"Niedersachsen"}},{"name":"Erlebnispark Teufelstisch","postalCode":"66999","locality":"Hinterweidenthal","municipality":{"key":"07340020","name":"Hinterweidenthal","type":"Kreisangehörige_Gemeinde"},"district":{"key":"07340","name":"Südwestpfalz","type":"Landkreis"},"federalState":{"key":"07","name":"Rheinland-Pfalz"}},{"name":"Erlenbachweg","postalCode":"79856","locality":"Hinterzarten","municipality":{"key":"08315052","name":"Hinterzarten","type":"Kreisangehörige_Gemeinde"},"district":{"key":"08315","name":"Breisgau-Hochschwarzwald","type":"Landkreis"},"federalState":{"key":"08","name":"Baden-Württemberg"}},{"name":"Erlenbruck","postalCode":"79856","locality":"Hinterzarten","municipality":{"key":"08315052","name":"Hinterzarten","type":"Kreisangehörige_Gemeinde"},"district":{"key":"08315","name":"Breisgau-Hochschwarzwald","type":"Landkreis"},"federalState":{"key":"08","name":"Baden-Württemberg"}},{"name":"Erlenbrucker Str.","postalCode":"79856","locality":"Hinterzarten","municipality":{"key":"08315052","name":"Hinterzarten","type":"Kreisangehörige_Gemeinde"},"district":{"key":"08315","name":"Breisgau-Hochschwarzwald","type":"Landkreis"},"federalState":{"key":"08","name":"Baden-Württemberg"}},{"name":"Erlenweg","postalCode":"26759","locality":"Hinte","municipality":{"key":"03452011","name":"Hinte","type":"Kreisangehörige_Gemeinde"},"district":{"key":"03452","name":"Aurich","type":"Landkreis"},"federalState":{"key":"03","name":"Niedersachsen"}},{"name":"Escherweg","postalCode":"26759","locality":"Hinte","municipality":{"key":"03452011","name":"Hinte","type":"Kreisangehörige_Gemeinde"},"district":{"key":"03452","name":"Aurich","type":"Landkreis"},"federalState":{"key":"03","name":"Niedersachsen"}},{"name":"Finkenweg","postalCode":"26759","locality":"Hinte","municipality":{"key":"03452011","name":"Hinte","type":"Kreisangehörige_Gemeinde"},"district":{"key":"03452","name":"Aurich","type":"Landkreis"},"federalState":{"key":"03","name":"Niedersachsen"}},{"name":"Fischlochweg","postalCode":"79856","locality":"Hinterzarten","municipality":{"key":"08315052","name":"Hinterzarten","type":"Kreisangehörige_Gemeinde"},"district":{"key":"08315","name":"Breisgau-Hochschwarzwald","type":"Landkreis"},"federalState":{"key":"08","name":"Baden-Württemberg"}},{"name":"Florianweg","postalCode":"94146","locality":"Hinterschmiding","municipality":{"key":"09272126","name":"Hinterschmiding","type":"Kreisangehörige_Gemeinde"},"district":{"key":"09272","name":"Freyung-Grafenau","type":"Landkreis"},"federalState":{"key":"09","name":"Bayern"}},{"name":"Flurstr.","postalCode":"66999","locality":"Hinterweidenthal","municipality":{"key":"07340020","name":"Hinterweidenthal","type":"Kreisangehörige_Gemeinde"},"district":{"key":"07340","name":"Südwestpfalz","type":"Landkreis"},"federalState":{"key":"07","name":"Rheinland-Pfalz"}},{"name":"Flurweg","postalCode":"94146","locality":"Hinterschmiding","municipality":{"key":"09272126","name":"Hinterschmiding","type":"Kreisangehörige_Gemeinde"},"district":{"key":"09272","name":"Freyung-Grafenau","type":"Landkreis"},"federalState":{"key":"09","name":"Bayern"}},{"name":"Folkertsstr.","postalCode":"26759","locality":"Hinte","municipality":{"key":"03452011","name":"Hinte","type":"Kreisangehörige_Gemeinde"},"district":{"key":"03452","name":"Aurich","type":"Landkreis"},"federalState":{"key":"03","name":"Niedersachsen"}},{"name":"Forellenweg","postalCode":"26759","locality":"Hinte","municipality":{"key":"03452011","name":"Hinte","type":"Kreisangehörige_Gemeinde"},"district":{"key":"03452","name":"Aurich","type":"Landkreis"},"federalState":{"key":"03","name":"Niedersachsen"}},{"name":"Freiburger Str.","postalCode":"79856","locality":"Hinterzarten","municipality":{"key":"08315052","name":"Hinterzarten","type":"Kreisangehörige_Gemeinde"},"district":{"key":"08315","name":"Breisgau-Hochschwarzwald","type":"Landkreis"},"federalState":{"key":"08","name":"Baden-Württemberg"}},{"name":"Freyunger Str.","postalCode":"94146","locality":"Hinterschmiding","municipality":{"key":"09272126","name":"Hinterschmiding","type":"Kreisangehörige_Gemeinde"},"district":{"key":"09272","name":"Freyung-Grafenau","type":"Landkreis"},"federalState":{"key":"09","name":"Bayern"}},{"name":"Friedenstr.","postalCode":"26759","locality":"Hinte","municipality":{"key":"03452011","name":"Hinte","type":"Kreisangehörige_Gemeinde"},"district":{"key":"03452","name":"Aurich","type":"Landkreis"},"federalState":{"key":"03","name":"Niedersachsen"}},{"name":"Friedhofstr.","postalCode":"26759","locality":"Hinte","municipality":{"key":"03452011","name":"Hinte","type":"Kreisangehörige_Gemeinde"},"district":{"key":"03452","name":"Aurich","type":"Landkreis"},"federalState":{"key":"03","name":"Niedersachsen"}},{"name":"Friedrich-Ebert-Str.","postalCode":"26759","locality":"Hinte","municipality":{"key":"03452011","name":"Hinte","type":"Kreisangehörige_Gemeinde"},"district":{"key":"03452","name":"Aurich","type":"Landkreis"},"federalState":{"key":"03","name":"Niedersachsen"}},{"name":"Friesenstr.","postalCode":"26759","locality":"Hinte","municipality":{"key":"03452011","name":"Hinte","type":"Kreisangehörige_Gemeinde"},"district":{"key":"03452","name":"Aurich","type":"Landkreis"},"federalState":{"key":"03","name":"Niedersachsen"}},{"name":"Fürsatz","postalCode":"79856","locality":"Hinterzarten","municipality":{"key":"08315052","name":"Hinterzarten","type":"Kreisangehörige_Gemeinde"},"district":{"key":"08315","name":"Breisgau-Hochschwarzwald","type":"Landkreis"},"federalState":{"key":"08","name":"Baden-Württemberg"}},{"name":"Garnweg","postalCode":"26759","locality":"Hinte","municipality":{"key":"03452011","name":"Hinte","type":"Kreisangehörige_Gemeinde"},"district":{"key":"03452","name":"Aurich","type":"Landkreis"},"federalState":{"key":"03","name":"Niedersachsen"}},{"name":"Gartenstr.","postalCode":"26759","locality":"Hinte","municipality":{"key":"03452011","name":"Hinte","type":"Kreisangehörige_Gemeinde"},"district":{"key":"03452","name":"Aurich","type":"Landkreis"},"federalState":{"key":"03","name":"Niedersachsen"}},{"name":"Gartenstr.","postalCode":"66999","locality":"Hinterweidenthal","municipality":{"key":"07340020","name":"Hinterweidenthal","type":"Kreisangehörige_Gemeinde"},"district":{"key":"07340","name":"Südwestpfalz","type":"Landkreis"},"federalState":{"key":"07","name":"Rheinland-Pfalz"}},{"name":"Gartenweg","postalCode":"94146","locality":"Hinterschmiding","municipality":{"key":"09272126","name":"Hinterschmiding","type":"Kreisangehörige_Gemeinde"},"district":{"key":"09272","name":"Freyung-Grafenau","type":"Landkreis"},"federalState":{"key":"09","name":"Bayern"}},{"name":"Gersteweg","postalCode":"26759","locality":"Hinte","municipality":{"key":"03452011","name":"Hinte","type":"Kreisangehörige_Gemeinde"},"district":{"key":"03452","name":"Aurich","type":"Landkreis"},"federalState":{"key":"03","name":"Niedersachsen"}},{"name":"Gewerbestr.","postalCode":"26759","locality":"Hinte","municipality":{"key":"03452011","name":"Hinte","type":"Kreisangehörige_Gemeinde"},"district":{"key":"03452","name":"Aurich","type":"Landkreis"},"federalState":{"key":"03","name":"Niedersachsen"}},{"name":"Graineter Str.","postalCode":"94146","locality":"Hinterschmiding","municipality":{"key":"09272126","name":"Hinterschmiding","type":"Kreisangehörige_Gemeinde"},"district":{"key":"09272","name":"Freyung-Grafenau","type":"Landkreis"},"federalState":{"key":"09","name":"Bayern"}},{"name":"Grasweg","postalCode":"26759","locality":"Hinte","municipality":{"key":"03452011","name":"Hinte","type":"Kreisangehörige_Gemeinde"},"district":{"key":"03452","name":"Aurich","type":"Landkreis"},"federalState":{"key":"03","name":"Niedersachsen"}},{"name":"Großer Ochsenkamp","postalCode":"26759","locality":"Hinte","municipality":{"key":"03452011","name":"Hinte","type":"Kreisangehörige_Gemeinde"},"district":{"key":"03452","name":"Aurich","type":"Landkreis"},"federalState":{"key":"03","name":"Niedersachsen"}},{"name":"Großer Sielweg","postalCode":"26759","locality":"Hinte","municipality":{"key":"03452011","name":"Hinte","type":"Kreisangehörige_Gemeinde"},"district":{"key":"03452","name":"Aurich","type":"Landkreis"},"federalState":{"key":"03","name":"Niedersachsen"}},{"name":"Groß-Midlumer Ring","postalCode":"26759","locality":"Hinte","municipality":{"key":"03452011","name":"Hinte","type":"Kreisangehörige_Gemeinde"},"district":{"key":"03452","name":"Aurich","type":"Landkreis"},"federalState":{"key":"03","name":"Niedersachsen"}},{"name":"Grüner Weg","postalCode":"26759","locality":"Hinte","municipality":{"key":"03452011","name":"Hinte","type":"Kreisangehörige_Gemeinde"},"district":{"key":"03452","name":"Aurich","type":"Landkreis"},"federalState":{"key":"03","name":"Niedersachsen"}},{"name":"Gschwendeweg","postalCode":"79856","locality":"Hinterzarten","municipality":{"key":"08315052","name":"Hinterzarten","type":"Kreisangehörige_Gemeinde"},"district":{"key":"08315","name":"Breisgau-Hochschwarzwald","type":"Landkreis"},"federalState":{"key":"08","name":"Baden-Württemberg"}},{"name":"Habbeweg","postalCode":"26759","locality":"Hinte","municipality":{"key":"03452011","name":"Hinte","type":"Kreisangehörige_Gemeinde"},"district":{"key":"03452","name":"Aurich","type":"Landkreis"},"federalState":{"key":"03","name":"Niedersachsen"}},{"name":"Haidlstr.","postalCode":"94146","locality":"Hinterschmiding","municipality":{"key":"09272126","name":"Hinterschmiding","type":"Kreisangehörige_Gemeinde"},"district":{"key":"09272","name":"Freyung-Grafenau","type":"Landkreis"},"federalState":{"key":"09","name":"Bayern"}},{"name":"Hammrichweg","postalCode":"26759","locality":"Hinte","municipality":{"key":"03452011","name":"Hinte","type":"Kreisangehörige_Gemeinde"},"district":{"key":"03452","name":"Aurich","type":"Landkreis"},"federalState":{"key":"03","name":"Niedersachsen"}},{"name":"Handelsstr.","postalCode":"26759","locality":"Hinte","municipality":{"key":"03452011","name":"Hinte","type":"Kreisangehörige_Gemeinde"},"district":{"key":"03452","name":"Aurich","type":"Landkreis"},"federalState":{"key":"03","name":"Niedersachsen"}},{"name":"Handwerksstr.","postalCode":"26759","locality":"Hinte","municipality":{"key":"03452011","name":"Hinte","type":"Kreisangehörige_Gemeinde"},"district":{"key":"03452","name":"Aurich","type":"Landkreis"},"federalState":{"key":"03","name":"Niedersachsen"}},{"name":"Haneburger Str.","postalCode":"26759","locality":"Hinte","municipality":{"key":"03452011","name":"Hinte","type":"Kreisangehörige_Gemeinde"},"district":{"key":"03452","name":"Aurich","type":"Landkreis"},"federalState":{"key":"03","name":"Niedersachsen"}},{"name":"Hans-Böckler-Allee","postalCode":"26759","locality":"Hinte","municipality":{"key":"03452011","name":"Hinte","type":"Kreisangehörige_Gemeinde"},"district":{"key":"03452","name":"Aurich","type":"Landkreis"},"federalState":{"key":"03","name":"Niedersachsen"}},{"name":"Hanselehofweg","postalCode":"79856","locality":"Hinterzarten","municipality":{"key":"08315052","name":"Hinterzarten","type":"Kreisangehörige_Gemeinde"},"district":{"key":"08315","name":"Breisgau-Hochschwarzwald","type":"Landkreis"},"federalState":{"key":"08","name":"Baden-Württemberg"}},{"name":"Hans-Thoma-Str.","postalCode":"79856","locality":"Hinterzarten","municipality":{"key":"08315052","name":"Hinterzarten","type":"Kreisangehörige_Gemeinde"},"district":{"key":"08315","name":"Breisgau-Hochschwarzwald","type":"Landkreis"},"federalState":{"key":"08","name":"Baden-Württemberg"}},{"name":"Hauptstr.","postalCode":"54570","locality":"Hinterweiler","municipality":{"key":"07233030","name":"Hinterweiler","type":"Kreisangehörige_Gemeinde"},"district":{"key":"07233","name":"Vulkaneifel","type":"Landkreis"},"federalState":{"key":"07","name":"Rheinland-Pfalz"}},{"name":"Hauptstr.","postalCode":"55743","locality":"Hintertiefenbach","municipality":{"key":"07134041","name":"Hintertiefenbach","type":"Kreisangehörige_Gemeinde"},"district":{"key":"07134","name":"Birkenfeld","type":"Landkreis"},"federalState":{"key":"07","name":"Rheinland-Pfalz"}},{"name":"Hauptstr.","postalCode":"66999","locality":"Hinterweidenthal","municipality":{"key":"07340020","name":"Hinterweidenthal","type":"Kreisangehörige_Gemeinde"},"district":{"key":"07340","name":"Südwestpfalz","type":"Landkreis"},"federalState":{"key":"07","name":"Rheinland-Pfalz"}},{"name":"Hauptstr.","postalCode":"94146","locality":"Hinterschmiding","municipality":{"key":"09272126","name":"Hinterschmiding","type":"Kreisangehörige_Gemeinde"},"district":{"key":"09272","name":"Freyung-Grafenau","type":"Landkreis"},"federalState":{"key":"09","name":"Bayern"}},{"name":"Hechtweg","postalCode":"26759","locality":"Hinte","municipality":{"key":"03452011","name":"Hinte","type":"Kreisangehörige_Gemeinde"},"district":{"key":"03452","name":"Aurich","type":"Landkreis"},"federalState":{"key":"03","name":"Niedersachsen"}},{"name":"Heckenweg","postalCode":"26759","locality":"Hinte","municipality":{"key":"03452011","name":"Hinte","type":"Kreisangehörige_Gemeinde"},"district":{"key":"03452","name":"Aurich","type":"Landkreis"},"federalState":{"key":"03","name":"Niedersachsen"}},{"name":"Heerweg","postalCode":"26759","locality":"Hinte","municipality":{"key":"03452011","name":"Hinte","type":"Kreisangehörige_Gemeinde"},"district":{"key":"03452","name":"Aurich","type":"Landkreis"},"federalState":{"key":"03","name":"Niedersachsen"}},{"name":"Heidensgang","postalCode":"26759","locality":"Hinte","municipality":{"key":"03452011","name":"Hinte","type":"Kreisangehörige_Gemeinde"},"district":{"key":"03452","name":"Aurich","type":"Landkreis"},"federalState":{"key":"03","name":"Niedersachsen"}},{"name":"Heiko-Kuhlmann-Weg","postalCode":"26759","locality":"Hinte","municipality":{"key":"03452011","name":"Hinte","type":"Kreisangehörige_Gemeinde"},"district":{"key":"03452","name":"Aurich","type":"Landkreis"},"federalState":{"key":"03","name":"Niedersachsen"}},{"name":"Hellerstr.","postalCode":"26759","locality":"Hinte","municipality":{"key":"03452011","name":"Hinte","type":"Kreisangehörige_Gemeinde"},"district":{"key":"03452","name":"Aurich","type":"Landkreis"},"federalState":{"key":"03","name":"Niedersachsen"}},{"name":"Heringweg","postalCode":"26759","locality":"Hinte","municipality":{"key":"03452011","name":"Hinte","type":"Kreisangehörige_Gemeinde"},"district":{"key":"03452","name":"Aurich","type":"Landkreis"},"federalState":{"key":"03","name":"Niedersachsen"}},{"name":"Herzogreuter Str.","postalCode":"94146","locality":"Hinterschmiding","municipality":{"key":"09272126","name":"Hinterschmiding","type":"Kreisangehörige_Gemeinde"},"district":{"key":"09272","name":"Freyung-Grafenau","type":"Landkreis"},"federalState":{"key":"09","name":"Bayern"}},{"name":"Herzogsreuter Str.","postalCode":"94146","locality":"Hinterschmiding","municipality":{"key":"09272126","name":"Hinterschmiding","type":"Kreisangehörige_Gemeinde"},"district":{"key":"09272","name":"Freyung-Grafenau","type":"Landkreis"},"federalState":{"key":"09","name":"Bayern"}},{"name":"Hierbachweg","postalCode":"94146","locality":"Hinterschmiding","municipality":{"key":"09272126","name":"Hinterschmiding","type":"Kreisangehörige_Gemeinde"},"district":{"key":"09272","name":"Freyung-Grafenau","type":"Landkreis"},"federalState":{"key":"09","name":"Bayern"}},{"name":"Hieveweg","postalCode":"26759","locality":"Hinte","municipality":{"key":"03452011","name":"Hinte","type":"Kreisangehörige_Gemeinde"},"district":{"key":"03452","name":"Aurich","type":"Landkreis"},"federalState":{"key":"03","name":"Niedersachsen"}},{"name":"Hinter Kirchgang","postalCode":"26759","locality":"Hinte","municipality":{"key":"03452011","name":"Hinte","type":"Kreisangehörige_Gemeinde"},"district":{"key":"03452","name":"Aurich","type":"Landkreis"},"federalState":{"key":"03","name":"Niedersachsen"}},{"name":"Hirtenstr.","postalCode":"26759","locality":"Hinte","municipality":{"key":"03452011","name":"Hinte","type":"Kreisangehörige_Gemeinde"},"district":{"key":"03452","name":"Aurich","type":"Landkreis"},"federalState":{"key":"03","name":"Niedersachsen"}},{"name":"Hochfeld","postalCode":"94146","locality":"Hinterschmiding","municipality":{"key":"09272126","name":"Hinterschmiding","type":"Kreisangehörige_Gemeinde"},"district":{"key":"09272","name":"Freyung-Grafenau","type":"Landkreis"},"federalState":{"key":"09","name":"Bayern"}},{"name":"Hofäcker","postalCode":"94146","locality":"Hinterschmiding","municipality":{"key":"09272126","name":"Hinterschmiding","type":"Kreisangehörige_Gemeinde"},"district":{"key":"09272","name":"Freyung-Grafenau","type":"Landkreis"},"federalState":{"key":"09","name":"Bayern"}},{"name":"Hoflohne","postalCode":"26759","locality":"Hinte","municipality":{"key":"03452011","name":"Hinte","type":"Kreisangehörige_Gemeinde"},"district":{"key":"03452","name":"Aurich","type":"Landkreis"},"federalState":{"key":"03","name":"Niedersachsen"}},{"name":"Hofreutstr.","postalCode":"94146","locality":"Hinterschmiding","municipality":{"key":"09272126","name":"Hinterschmiding","type":"Kreisangehörige_Gemeinde"},"district":{"key":"09272","name":"Freyung-Grafenau","type":"Landkreis"},"federalState":{"key":"09","name":"Bayern"}},{"name":"Hofwiesenstr.","postalCode":"94146","locality":"Hinterschmiding","municipality":{"key":"09272126","name":"Hinterschmiding","type":"Kreisangehörige_Gemeinde"},"district":{"key":"09272","name":"Freyung-Grafenau","type":"Landkreis"},"federalState":{"key":"09","name":"Bayern"}},{"name":"Hog Hallerweg","postalCode":"26759","locality":"Hinte","municipality":{"key":"03452011","name":"Hinte","type":"Kreisangehörige_Gemeinde"},"district":{"key":"03452","name":"Aurich","type":"Landkreis"},"federalState":{"key":"03","name":"Niedersachsen"}},{"name":"Höhenstr.","postalCode":"66999","locality":"Hinterweidenthal","municipality":{"key":"07340020","name":"Hinterweidenthal","type":"Kreisangehörige_Gemeinde"},"district":{"key":"07340","name":"Südwestpfalz","type":"Landkreis"},"federalState":{"key":"07","name":"Rheinland-Pfalz"}},{"name":"Hugenbergweg","postalCode":"79856","locality":"Hinterzarten","municipality":{"key":"08315052","name":"Hinterzarten","type":"Kreisangehörige_Gemeinde"},"district":{"key":"08315","name":"Breisgau-Hochschwarzwald","type":"Landkreis"},"federalState":{"key":"08","name":"Baden-Württemberg"}},{"name":"Hugenhofweg","postalCode":"79856","locality":"Hinterzarten","municipality":{"key":"08315052","name":"Hinterzarten","type":"Kreisangehörige_Gemeinde"},"district":{"key":"08315","name":"Breisgau-Hochschwarzwald","type":"Landkreis"},"federalState":{"key":"08","name":"Baden-Württemberg"}},{"name":"Hummelweiherstr.","postalCode":"79856","locality":"Hinterzarten","municipality":{"key":"08315052","name":"Hinterzarten","type":"Kreisangehörige_Gemeinde"},"district":{"key":"08315","name":"Breisgau-Hochschwarzwald","type":"Landkreis"},"federalState":{"key":"08","name":"Baden-Württemberg"}},{"name":"Hüttenmarleweg","postalCode":"79856","locality":"Hinterzarten","municipality":{"key":"08315052","name":"Hinterzarten","type":"Kreisangehörige_Gemeinde"},"district":{"key":"08315","name":"Breisgau-Hochschwarzwald","type":"Landkreis"},"federalState":{"key":"08","name":"Baden-Württemberg"}},{"name":"Imberiwaldstr.","postalCode":"79856","locality":"Hinterzarten","municipality":{"key":"08315052","name":"Hinterzarten","type":"Kreisangehörige_Gemeinde"},"district":{"key":"08315","name":"Breisgau-Hochschwarzwald","type":"Landkreis"},"federalState":{"key":"08","name":"Baden-Württemberg"}},{"name":"Im Dorfring","postalCode":"26759","locality":"Hinte","municipality":{"key":"03452011","name":"Hinte","type":"Kreisangehörige_Gemeinde"},"district":{"key":"03452","name":"Aurich","type":"Landkreis"},"federalState":{"key":"03","name":"Niedersachsen"}},{"name":"Im Grund","postalCode":"79856","locality":"Hinterzarten","municipality":{"key":"08315052","name":"Hinterzarten","type":"Kreisangehörige_Gemeinde"},"district":{"key":"08315","name":"Breisgau-Hochschwarzwald","type":"Landkreis"},"federalState":{"key":"08","name":"Baden-Württemberg"}},{"name":"Im Hahn","postalCode":"54570","locality":"Hinterweiler","municipality":{"key":"07233030","name":"Hinterweiler","type":"Kreisangehörige_Gemeinde"},"district":{"key":"07233","name":"Vulkaneifel","type":"Landkreis"},"federalState":{"key":"07","name":"Rheinland-Pfalz"}},{"name":"Im Handschuhteich","postalCode":"66999","locality":"Hinterweidenthal","municipality":{"key":"07340020","name":"Hinterweidenthal","type":"Kreisangehörige_Gemeinde"},"district":{"key":"07340","name":"Südwestpfalz","type":"Landkreis"},"federalState":{"key":"07","name":"Rheinland-Pfalz"}},{"name":"Im Hunzenpesch","postalCode":"54570","locality":"Hinterweiler","municipality":{"key":"07233030","name":"Hinterweiler","type":"Kreisangehörige_Gemeinde"},"district":{"key":"07233","name":"Vulkaneifel","type":"Landkreis"},"federalState":{"key":"07","name":"Rheinland-Pfalz"}},{"name":"Im Langenhof","postalCode":"54570","locality":"Hinterweiler","municipality":{"key":"07233030","name":"Hinterweiler","type":"Kreisangehörige_Gemeinde"},"district":{"key":"07233","name":"Vulkaneifel","type":"Landkreis"},"federalState":{"key":"07","name":"Rheinland-Pfalz"}},{"name":"Im Tal","postalCode":"66999","locality":"Hinterweidenthal","municipality":{"key":"07340020","name":"Hinterweidenthal","type":"Kreisangehörige_Gemeinde"},"district":{"key":"07340","name":"Südwestpfalz","type":"Landkreis"},"federalState":{"key":"07","name":"Rheinland-Pfalz"}},{"name":"Im Wiesel","postalCode":"66999","locality":"Hinterweidenthal","municipality":{"key":"07340020","name":"Hinterweidenthal","type":"Kreisangehörige_Gemeinde"},"district":{"key":"07340","name":"Südwestpfalz","type":"Landkreis"},"federalState":{"key":"07","name":"Rheinland-Pfalz"}},{"name":"Im Winkel","postalCode":"26759","locality":"Hinte","municipality":{"key":"03452011","name":"Hinte","type":"Kreisangehörige_Gemeinde"},"district":{"key":"03452","name":"Aurich","type":"Landkreis"},"federalState":{"key":"03","name":"Niedersachsen"}},{"name":"In den Birken","postalCode":"66999","locality":"Hinterweidenthal","municipality":{"key":"07340020","name":"Hinterweidenthal","type":"Kreisangehörige_Gemeinde"},"district":{"key":"07340","name":"Südwestpfalz","type":"Landkreis"},"federalState":{"key":"07","name":"Rheinland-Pfalz"}},{"name":"In der Dell","postalCode":"55743","locality":"Hintertiefenbach","municipality":{"key":"07134041","name":"Hintertiefenbach","type":"Kreisangehörige_Gemeinde"},"district":{"key":"07134","name":"Birkenfeld","type":"Landkreis"},"federalState":{"key":"07","name":"Rheinland-Pfalz"}},{"name":"In Langesbach","postalCode":"55743","locality":"Hintertiefenbach","municipality":{"key":"07134041","name":"Hintertiefenbach","type":"Kreisangehörige_Gemeinde"},"district":{"key":"07134","name":"Birkenfeld","type":"Landkreis"},"federalState":{"key":"07","name":"Rheinland-Pfalz"}},{"name":"In't Kampke","postalCode":"26759","locality":"Hinte","municipality":{"key":"03452011","name":"Hinte","type":"Kreisangehörige_Gemeinde"},"district":{"key":"03452","name":"Aurich","type":"Landkreis"},"federalState":{"key":"03","name":"Niedersachsen"}},{"name":"Jagdweg","postalCode":"26759","locality":"Hinte","municipality":{"key":"03452011","name":"Hinte","type":"Kreisangehörige_Gemeinde"},"district":{"key":"03452","name":"Aurich","type":"Landkreis"},"federalState":{"key":"03","name":"Niedersachsen"}},{"name":"Johannisbeerweg","postalCode":"26759","locality":"Hinte","municipality":{"key":"03452011","name":"Hinte","type":"Kreisangehörige_Gemeinde"},"district":{"key":"03452","name":"Aurich","type":"Landkreis"},"federalState":{"key":"03","name":"Niedersachsen"}},{"name":"Kaikerweg","postalCode":"26759","locality":"Hinte","municipality":{"key":"03452011","name":"Hinte","type":"Kreisangehörige_Gemeinde"},"district":{"key":"03452","name":"Aurich","type":"Landkreis"},"federalState":{"key":"03","name":"Niedersachsen"}},{"name":"Kaininger Str.","postalCode":"94146","locality":"Hinterschmiding","municipality":{"key":"09272126","name":"Hinterschmiding","type":"Kreisangehörige_Gemeinde"},"district":{"key":"09272","name":"Freyung-Grafenau","type":"Landkreis"},"federalState":{"key":"09","name":"Bayern"}},{"name":"Kaltenbach","postalCode":"66999","locality":"Hinterweidenthal","municipality":{"key":"07340020","name":"Hinterweidenthal","type":"Kreisangehörige_Gemeinde"},"district":{"key":"07340","name":"Südwestpfalz","type":"Landkreis"},"federalState":{"key":"07","name":"Rheinland-Pfalz"}},{"name":"Kanalstr.","postalCode":"26759","locality":"Hinte","municipality":{"key":"03452011","name":"Hinte","type":"Kreisangehörige_Gemeinde"},"district":{"key":"03452","name":"Aurich","type":"Landkreis"},"federalState":{"key":"03","name":"Niedersachsen"}},{"name":"Kanalweg","postalCode":"79856","locality":"Hinterzarten","municipality":{"key":"08315052","name":"Hinterzarten","type":"Kreisangehörige_Gemeinde"},"district":{"key":"08315","name":"Breisgau-Hochschwarzwald","type":"Landkreis"},"federalState":{"key":"08","name":"Baden-Württemberg"}},{"name":"Karkstraat","postalCode":"26759","locality":"Hinte","municipality":{"key":"03452011","name":"Hinte","type":"Kreisangehörige_Gemeinde"},"district":{"key":"03452","name":"Aurich","type":"Landkreis"},"federalState":{"key":"03","name":"Niedersachsen"}},{"name":"Karpfenweg","postalCode":"26759","locality":"Hinte","municipality":{"key":"03452011","name":"Hinte","type":"Kreisangehörige_Gemeinde"},"district":{"key":"03452","name":"Aurich","type":"Landkreis"},"federalState":{"key":"03","name":"Niedersachsen"}},{"name":"Kiebitzweg","postalCode":"26759","locality":"Hinte","municipality":{"key":"03452011","name":"Hinte","type":"Kreisangehörige_Gemeinde"},"district":{"key":"03452","name":"Aurich","type":"Landkreis"},"federalState":{"key":"03","name":"Niedersachsen"}},{"name":"Kiefernweg","postalCode":"26759","locality":"Hinte","municipality":{"key":"03452011","name":"Hinte","type":"Kreisangehörige_Gemeinde"},"district":{"key":"03452","name":"Aurich","type":"Landkreis"},"federalState":{"key":"03","name":"Niedersachsen"}},{"name":"Kirchlohne","postalCode":"26759","locality":"Hinte","municipality":{"key":"03452011","name":"Hinte","type":"Kreisangehörige_Gemeinde"},"district":{"key":"03452","name":"Aurich","type":"Landkreis"},"federalState":{"key":"03","name":"Niedersachsen"}},{"name":"Kirchstr.","postalCode":"26759","locality":"Hinte","municipality":{"key":"03452011","name":"Hinte","type":"Kreisangehörige_Gemeinde"},"district":{"key":"03452","name":"Aurich","type":"Landkreis"},"federalState":{"key":"03","name":"Niedersachsen"}},{"name":"Kirchweg","postalCode":"94146","locality":"Hinterschmiding","municipality":{"key":"09272126","name":"Hinterschmiding","type":"Kreisangehörige_Gemeinde"},"district":{"key":"09272","name":"Freyung-Grafenau","type":"Landkreis"},"federalState":{"key":"09","name":"Bayern"}},{"name":"Kirschweg","postalCode":"26759","locality":"Hinte","municipality":{"key":"03452011","name":"Hinte","type":"Kreisangehörige_Gemeinde"},"district":{"key":"03452","name":"Aurich","type":"Landkreis"},"federalState":{"key":"03","name":"Niedersachsen"}},{"name":"Klaus-Drubba-Weg","postalCode":"79856","locality":"Hinterzarten","municipality":{"key":"08315052","name":"Hinterzarten","type":"Kreisangehörige_Gemeinde"},"district":{"key":"08315","name":"Breisgau-Hochschwarzwald","type":"Landkreis"},"federalState":{"key":"08","name":"Baden-Württemberg"}},{"name":"Klaus-Hofstetter-Weg","postalCode":"79856","locality":"Hinterzarten","municipality":{"key":"08315052","name":"Hinterzarten","type":"Kreisangehörige_Gemeinde"},"district":{"key":"08315","name":"Breisgau-Hochschwarzwald","type":"Landkreis"},"federalState":{"key":"08","name":"Baden-Württemberg"}},{"name":"Kleimakerstr.","postalCode":"26759","locality":"Hinte","municipality":{"key":"03452011","name":"Hinte","type":"Kreisangehörige_Gemeinde"},"district":{"key":"03452","name":"Aurich","type":"Landkreis"},"federalState":{"key":"03","name":"Niedersachsen"}},{"name":"Kleinbahnweg","postalCode":"26759","locality":"Hinte","municipality":{"key":"03452011","name":"Hinte","type":"Kreisangehörige_Gemeinde"},"district":{"key":"03452","name":"Aurich","type":"Landkreis"},"federalState":{"key":"03","name":"Niedersachsen"}},{"name":"Kleiner Ockerweg","postalCode":"26759","locality":"Hinte","municipality":{"key":"03452011","name":"Hinte","type":"Kreisangehörige_Gemeinde"},"district":{"key":"03452","name":"Aurich","type":"Landkreis"},"federalState":{"key":"03","name":"Niedersachsen"}},{"name":"Kleiner Sielweg","postalCode":"26759","locality":"Hinte","municipality":{"key":"03452011","name":"Hinte","type":"Kreisangehörige_Gemeinde"},"district":{"key":"03452","name":"Aurich","type":"Landkreis"},"federalState":{"key":"03","name":"Niedersachsen"}},{"name":"Kleiner Weg","postalCode":"26759","locality":"Hinte","municipality":{"key":"03452011","name":"Hinte","type":"Kreisangehörige_Gemeinde"},"district":{"key":"03452","name":"Aurich","type":"Landkreis"},"federalState":{"key":"03","name":"Niedersachsen"}},{"name":"Klosterweg","postalCode":"26759","locality":"Hinte","municipality":{"key":"03452011","name":"Hinte","type":"Kreisangehörige_Gemeinde"},"district":{"key":"03452","name":"Aurich","type":"Landkreis"},"federalState":{"key":"03","name":"Niedersachsen"}},{"name":"Kohlplatzweg","postalCode":"79856","locality":"Hinterzarten","municipality":{"key":"08315052","name":"Hinterzarten","type":"Kreisangehörige_Gemeinde"},"district":{"key":"08315","name":"Breisgau-Hochschwarzwald","type":"Landkreis"},"federalState":{"key":"08","name":"Baden-Württemberg"}},{"name":"Koppelstr.","postalCode":"26759","locality":"Hinte","municipality":{"key":"03452011","name":"Hinte","type":"Kreisangehörige_Gemeinde"},"district":{"key":"03452","name":"Aurich","type":"Landkreis"},"federalState":{"key":"03","name":"Niedersachsen"}},{"name":"Kreuzberger Web","postalCode":"94146","locality":"Hinterschmiding","municipality":{"key":"09272126","name":"Hinterschmiding","type":"Kreisangehörige_Gemeinde"},"district":{"key":"09272","name":"Freyung-Grafenau","type":"Landkreis"},"federalState":{"key":"09","name":"Bayern"}},{"name":"Kreuzstr.","postalCode":"26759","locality":"Hinte","municipality":{"key":"03452011","name":"Hinte","type":"Kreisangehörige_Gemeinde"},"district":{"key":"03452","name":"Aurich","type":"Landkreis"},"federalState":{"key":"03","name":"Niedersachsen"}},{"name":"Kriegerweg","postalCode":"94146","locality":"Hinterschmiding","municipality":{"key":"09272126","name":"Hinterschmiding","type":"Kreisangehörige_Gemeinde"},"district":{"key":"09272","name":"Freyung-Grafenau","type":"Landkreis"},"federalState":{"key":"09","name":"Bayern"}},{"name":"Kringwehrumer Str.","postalCode":"26759","locality":"Hinte","municipality":{"key":"03452011","name":"Hinte","type":"Kreisangehörige_Gemeinde"},"district":{"key":"03452","name":"Aurich","type":"Landkreis"},"federalState":{"key":"03","name":"Niedersachsen"}},{"name":"Krummer Weg","postalCode":"26759","locality":"Hinte","municipality":{"key":"03452011","name":"Hinte","type":"Kreisangehörige_Gemeinde"},"district":{"key":"03452","name":"Aurich","type":"Landkreis"},"federalState":{"key":"03","name":"Niedersachsen"}},{"name":"Kurt-Schumacher-Str.","postalCode":"26759","locality":"Hinte","municipality":{"key":"03452011","name":"Hinte","type":"Kreisangehörige_Gemeinde"},"district":{"key":"03452","name":"Aurich","type":"Landkreis"},"federalState":{"key":"03","name":"Niedersachsen"}},{"name":"Kurzer Weg","postalCode":"26759","locality":"Hinte","municipality":{"key":"03452011","name":"Hinte","type":"Kreisangehörige_Gemeinde"},"district":{"key":"03452","name":"Aurich","type":"Landkreis"},"federalState":{"key":"03","name":"Niedersachsen"}},{"name":"Landesstr.","postalCode":"26759","locality":"Hinte","municipality":{"key":"03452011","name":"Hinte","type":"Kreisangehörige_Gemeinde"},"district":{"key":"03452","name":"Aurich","type":"Landkreis"},"federalState":{"key":"03","name":"Niedersachsen"}},{"name":"Lange Str.","postalCode":"26759","locality":"Hinte","municipality":{"key":"03452011","name":"Hinte","type":"Kreisangehörige_Gemeinde"},"district":{"key":"03452","name":"Aurich","type":"Landkreis"},"federalState":{"key":"03","name":"Niedersachsen"}},{"name":"Langfeld","postalCode":"94146","locality":"Hinterschmiding","municipality":{"key":"09272126","name":"Hinterschmiding","type":"Kreisangehörige_Gemeinde"},"district":{"key":"09272","name":"Freyung-Grafenau","type":"Landkreis"},"federalState":{"key":"09","name":"Bayern"}},{"name":"Langsteert","postalCode":"26759","locality":"Hinte","municipality":{"key":"03452011","name":"Hinte","type":"Kreisangehörige_Gemeinde"},"district":{"key":"03452","name":"Aurich","type":"Landkreis"},"federalState":{"key":"03","name":"Niedersachsen"}},{"name":"Leinenstr.","postalCode":"26759","locality":"Hinte","municipality":{"key":"03452011","name":"Hinte","type":"Kreisangehörige_Gemeinde"},"district":{"key":"03452","name":"Aurich","type":"Landkreis"},"federalState":{"key":"03","name":"Niedersachsen"}},{"name":"Lemberger Str.","postalCode":"66999","locality":"Hinterweidenthal","municipality":{"key":"07340020","name":"Hinterweidenthal","type":"Kreisangehörige_Gemeinde"},"district":{"key":"07340","name":"Südwestpfalz","type":"Landkreis"},"federalState":{"key":"07","name":"Rheinland-Pfalz"}},{"name":"Lerchenweg","postalCode":"26759","locality":"Hinte","municipality":{"key":"03452011","name":"Hinte","type":"Kreisangehörige_Gemeinde"},"district":{"key":"03452","name":"Aurich","type":"Landkreis"},"federalState":{"key":"03","name":"Niedersachsen"}},{"name":"Liftbergstr.","postalCode":"94146","locality":"Hinterschmiding","municipality":{"key":"09272126","name":"Hinterschmiding","type":"Kreisangehörige_Gemeinde"},"district":{"key":"09272","name":"Freyung-Grafenau","type":"Landkreis"},"federalState":{"key":"09","name":"Bayern"}},{"name":"Ligusterweg","postalCode":"26759","locality":"Hinte","municipality":{"key":"03452011","name":"Hinte","type":"Kreisangehörige_Gemeinde"},"district":{"key":"03452","name":"Aurich","type":"Landkreis"},"federalState":{"key":"03","name":"Niedersachsen"}},{"name":"Lindenstr.","postalCode":"26759","locality":"Hinte","municipality":{"key":"03452011","name":"Hinte","type":"Kreisangehörige_Gemeinde"},"district":{"key":"03452","name":"Aurich","type":"Landkreis"},"federalState":{"key":"03","name":"Niedersachsen"}},{"name":"Lindenwaldweg","postalCode":"79856","locality":"Hinterzarten","municipality":{"key":"08315052","name":"Hinterzarten","type":"Kreisangehörige_Gemeinde"},"district":{"key":"08315","name":"Breisgau-Hochschwarzwald","type":"Landkreis"},"federalState":{"key":"08","name":"Baden-Württemberg"}},{"name":"Lindenweg","postalCode":"94146","locality":"Hinterschmiding","municipality":{"key":"09272126","name":"Hinterschmiding","type":"Kreisangehörige_Gemeinde"},"district":{"key":"09272","name":"Freyung-Grafenau","type":"Landkreis"},"federalState":{"key":"09","name":"Bayern"}},{"name":"Löffeltalweg","postalCode":"79856","locality":"Hinterzarten","municipality":{"key":"08315052","name":"Hinterzarten","type":"Kreisangehörige_Gemeinde"},"district":{"key":"08315","name":"Breisgau-Hochschwarzwald","type":"Landkreis"},"federalState":{"key":"08","name":"Baden-Württemberg"}},{"name":"Loppersumer Ring","postalCode":"26759","locality":"Hinte","municipality":{"key":"03452011","name":"Hinte","type":"Kreisangehörige_Gemeinde"},"district":{"key":"03452","name":"Aurich","type":"Landkreis"},"federalState":{"key":"03","name":"Niedersachsen"}},{"name":"Loppersumer Str.","postalCode":"26759","locality":"Hinte","municipality":{"key":"03452011","name":"Hinte","type":"Kreisangehörige_Gemeinde"},"district":{"key":"03452","name":"Aurich","type":"Landkreis"},"federalState":{"key":"03","name":"Niedersachsen"}},{"name":"Lottmannstr.","postalCode":"26759","locality":"Hinte","municipality":{"key":"03452011","name":"Hinte","type":"Kreisangehörige_Gemeinde"},"district":{"key":"03452","name":"Aurich","type":"Landkreis"},"federalState":{"key":"03","name":"Niedersachsen"}},{"name":"Lusenweg","postalCode":"94146","locality":"Hinterschmiding","municipality":{"key":"09272126","name":"Hinterschmiding","type":"Kreisangehörige_Gemeinde"},"district":{"key":"09272","name":"Freyung-Grafenau","type":"Landkreis"},"federalState":{"key":"09","name":"Bayern"}},{"name":"Marienstr.","postalCode":"94146","locality":"Hinterschmiding","municipality":{"key":"09272126","name":"Hinterschmiding","type":"Kreisangehörige_Gemeinde"},"district":{"key":"09272","name":"Freyung-Grafenau","type":"Landkreis"},"federalState":{"key":"09","name":"Bayern"}},{"name":"Martin-Gremminger-Weg","postalCode":"79856","locality":"Hinterzarten","municipality":{"key":"08315052","name":"Hinterzarten","type":"Kreisangehörige_Gemeinde"},"district":{"key":"08315","name":"Breisgau-Hochschwarzwald","type":"Landkreis"},"federalState":{"key":"08","name":"Baden-Württemberg"}},{"name":"Mathisleweiher Weg","postalCode":"79856","locality":"Hinterzarten","municipality":{"key":"08315052","name":"Hinterzarten","type":"Kreisangehörige_Gemeinde"},"district":{"key":"08315","name":"Breisgau-Hochschwarzwald","type":"Landkreis"},"federalState":{"key":"08","name":"Baden-Württemberg"}},{"name":"Mattenweg","postalCode":"79856","locality":"Hinterzarten","municipality":{"key":"08315052","name":"Hinterzarten","type":"Kreisangehörige_Gemeinde"},"district":{"key":"08315","name":"Breisgau-Hochschwarzwald","type":"Landkreis"},"federalState":{"key":"08","name":"Baden-Württemberg"}},{"name":"Meedeweg","postalCode":"26759","locality":"Hinte","municipality":{"key":"03452011","name":"Hinte","type":"Kreisangehörige_Gemeinde"},"district":{"key":"03452","name":"Aurich","type":"Landkreis"},"federalState":{"key":"03","name":"Niedersachsen"}},{"name":"Meerkeweg","postalCode":"26759","locality":"Hinte","municipality":{"key":"03452011","name":"Hinte","type":"Kreisangehörige_Gemeinde"},"district":{"key":"03452","name":"Aurich","type":"Landkreis"},"federalState":{"key":"03","name":"Niedersachsen"}},{"name":"Mehlbergweg","postalCode":"79856","locality":"Hinterzarten","municipality":{"key":"08315052","name":"Hinterzarten","type":"Kreisangehörige_Gemeinde"},"district":{"key":"08315","name":"Breisgau-Hochschwarzwald","type":"Landkreis"},"federalState":{"key":"08","name":"Baden-Württemberg"}},{"name":"Mirabellenweg","postalCode":"26759","locality":"Hinte","municipality":{"key":"03452011","name":"Hinte","type":"Kreisangehörige_Gemeinde"},"district":{"key":"03452","name":"Aurich","type":"Landkreis"},"federalState":{"key":"03","name":"Niedersachsen"}},{"name":"Mittelstr.","postalCode":"26759","locality":"Hinte","municipality":{"key":"03452011","name":"Hinte","type":"Kreisangehörige_Gemeinde"},"district":{"key":"03452","name":"Aurich","type":"Landkreis"},"federalState":{"key":"03","name":"Niedersachsen"}},{"name":"Mittelweg","postalCode":"26759","locality":"Hinte","municipality":{"key":"03452011","name":"Hinte","type":"Kreisangehörige_Gemeinde"},"district":{"key":"03452","name":"Aurich","type":"Landkreis"},"federalState":{"key":"03","name":"Niedersachsen"}},{"name":"Moorweg","postalCode":"26759","locality":"Hinte","municipality":{"key":"03452011","name":"Hinte","type":"Kreisangehörige_Gemeinde"},"district":{"key":"03452","name":"Aurich","type":"Landkreis"},"federalState":{"key":"03","name":"Niedersachsen"}},{"name":"Mooshofweg","postalCode":"79856","locality":"Hinterzarten","municipality":{"key":"08315052","name":"Hinterzarten","type":"Kreisangehörige_Gemeinde"},"district":{"key":"08315","name":"Breisgau-Hochschwarzwald","type":"Landkreis"},"federalState":{"key":"08","name":"Baden-Württemberg"}},{"name":"Möselstr.","postalCode":"94146","locality":"Hinterschmiding","municipality":{"key":"09272126","name":"Hinterschmiding","type":"Kreisangehörige_Gemeinde"},"district":{"key":"09272","name":"Freyung-Grafenau","type":"Landkreis"},"federalState":{"key":"09","name":"Bayern"}},{"name":"Möweninsel","postalCode":"26759","locality":"Hinte","municipality":{"key":"03452011","name":"Hinte","type":"Kreisangehörige_Gemeinde"},"district":{"key":"03452","name":"Aurich","type":"Landkreis"},"federalState":{"key":"03","name":"Niedersachsen"}},{"name":"Möwenstr.","postalCode":"26759","locality":"Hinte","municipality":{"key":"03452011","name":"Hinte","type":"Kreisangehörige_Gemeinde"},"district":{"key":"03452","name":"Aurich","type":"Landkreis"},"federalState":{"key":"03","name":"Niedersachsen"}},{"name":"Mühlenstr.","postalCode":"26759","locality":"Hinte","municipality":{"key":"03452011","name":"Hinte","type":"Kreisangehörige_Gemeinde"},"district":{"key":"03452","name":"Aurich","type":"Landkreis"},"federalState":{"key":"03","name":"Niedersachsen"}},{"name":"Musennaweg","postalCode":"79856","locality":"Hinterzarten","municipality":{"key":"08315052","name":"Hinterzarten","type":"Kreisangehörige_Gemeinde"},"district":{"key":"08315","name":"Breisgau-Hochschwarzwald","type":"Landkreis"},"federalState":{"key":"08","name":"Baden-Württemberg"}},{"name":"Nachtweg","postalCode":"26759","locality":"Hinte","municipality":{"key":"03452011","name":"Hinte","type":"Kreisangehörige_Gemeinde"},"district":{"key":"03452","name":"Aurich","type":"Landkreis"},"federalState":{"key":"03","name":"Niedersachsen"}},{"name":"Naturerlebnispfad","postalCode":"79856","locality":"Hinterzarten","municipality":{"key":"08315052","name":"Hinterzarten","type":"Kreisangehörige_Gemeinde"},"district":{"key":"08315","name":"Breisgau-Hochschwarzwald","type":"Landkreis"},"federalState":{"key":"08","name":"Baden-Württemberg"}},{"name":"Nelkenstr.","postalCode":"26759","locality":"Hinte","municipality":{"key":"03452011","name":"Hinte","type":"Kreisangehörige_Gemeinde"},"district":{"key":"03452","name":"Aurich","type":"Landkreis"},"federalState":{"key":"03","name":"Niedersachsen"}},{"name":"Neubau Jagdwirtschaft","postalCode":"17375","locality":"Hintersee","municipality":{"key":"13075051","name":"Hintersee","type":"Kreisangehörige_Gemeinde"},"district":{"key":"13075","name":"Vorpommern-Greifswald","type":"Landkreis"},"federalState":{"key":"13","name":"Mecklenburg-Vorpommern"}},{"name":"Neuer Weg","postalCode":"26759","locality":"Hinte","municipality":{"key":"03452011","name":"Hinte","type":"Kreisangehörige_Gemeinde"},"district":{"key":"03452","name":"Aurich","type":"Landkreis"},"federalState":{"key":"03","name":"Niedersachsen"}},{"name":"Neuweltweg","postalCode":"79856","locality":"Hinterzarten","municipality":{"key":"08315052","name":"Hinterzarten","type":"Kreisangehörige_Gemeinde"},"district":{"key":"08315","name":"Breisgau-Hochschwarzwald","type":"Landkreis"},"federalState":{"key":"08","name":"Baden-Württemberg"}},{"name":"Nordlandstr.","postalCode":"26759","locality":"Hinte","municipality":{"key":"03452011","name":"Hinte","type":"Kreisangehörige_Gemeinde"},"district":{"key":"03452","name":"Aurich","type":"Landkreis"},"federalState":{"key":"03","name":"Niedersachsen"}},{"name":"Nordring","postalCode":"26759","locality":"Hinte","municipality":{"key":"03452011","name":"Hinte","type":"Kreisangehörige_Gemeinde"},"district":{"key":"03452","name":"Aurich","type":"Landkreis"},"federalState":{"key":"03","name":"Niedersachsen"}},{"name":"Obere Dell","postalCode":"55743","locality":"Hintertiefenbach","municipality":{"key":"07134041","name":"Hintertiefenbach","type":"Kreisangehörige_Gemeinde"},"district":{"key":"07134","name":"Birkenfeld","type":"Landkreis"},"federalState":{"key":"07","name":"Rheinland-Pfalz"}},{"name":"Oberer Bistenwaldweg","postalCode":"79856","locality":"Hinterzarten","municipality":{"key":"08315052","name":"Hinterzarten","type":"Kreisangehörige_Gemeinde"},"district":{"key":"08315","name":"Breisgau-Hochschwarzwald","type":"Landkreis"},"federalState":{"key":"08","name":"Baden-Württemberg"}},{"name":"Oberer Stuckwaldweg","postalCode":"79856","locality":"Hinterzarten","municipality":{"key":"08315052","name":"Hinterzarten","type":"Kreisangehörige_Gemeinde"},"district":{"key":"08315","name":"Breisgau-Hochschwarzwald","type":"Landkreis"},"federalState":{"key":"08","name":"Baden-Württemberg"}},{"name":"Oberzartener Weg","postalCode":"79856","locality":"Hinterzarten","municipality":{"key":"08315052","name":"Hinterzarten","type":"Kreisangehörige_Gemeinde"},"district":{"key":"08315","name":"Breisgau-Hochschwarzwald","type":"Landkreis"},"federalState":{"key":"08","name":"Baden-Württemberg"}},{"name":"Ospelewaldweg","postalCode":"79856","locality":"Hinterzarten","municipality":{"key":"08315052","name":"Hinterzarten","type":"Kreisangehörige_Gemeinde"},"district":{"key":"08315","name":"Breisgau-Hochschwarzwald","type":"Landkreis"},"federalState":{"key":"08","name":"Baden-Württemberg"}},{"name":"Oss-Peter-Weg","postalCode":"26759","locality":"Hinte","municipality":{"key":"03452011","name":"Hinte","type":"Kreisangehörige_Gemeinde"},"district":{"key":"03452","name":"Aurich","type":"Landkreis"},"federalState":{"key":"03","name":"Niedersachsen"}},{"name":"Osterhuser Siel","postalCode":"26759","locality":"Hinte","municipality":{"key":"03452011","name":"Hinte","type":"Kreisangehörige_Gemeinde"},"district":{"key":"03452","name":"Aurich","type":"Landkreis"},"federalState":{"key":"03","name":"Niedersachsen"}},{"name":"Osterhuser Str.","postalCode":"26759","locality":"Hinte","municipality":{"key":"03452011","name":"Hinte","type":"Kreisangehörige_Gemeinde"},"district":{"key":"03452","name":"Aurich","type":"Landkreis"},"federalState":{"key":"03","name":"Niedersachsen"}},{"name":"Pappelallee","postalCode":"26759","locality":"Hinte","municipality":{"key":"03452011","name":"Hinte","type":"Kreisangehörige_Gemeinde"},"district":{"key":"03452","name":"Aurich","type":"Landkreis"},"federalState":{"key":"03","name":"Niedersachsen"}},{"name":"Parkstr.","postalCode":"26759","locality":"Hinte","municipality":{"key":"03452011","name":"Hinte","type":"Kreisangehörige_Gemeinde"},"district":{"key":"03452","name":"Aurich","type":"Landkreis"},"federalState":{"key":"03","name":"Niedersachsen"}},{"name":"Polderstr.","postalCode":"26759","locality":"Hinte","municipality":{"key":"03452011","name":"Hinte","type":"Kreisangehörige_Gemeinde"},"district":{"key":"03452","name":"Aurich","type":"Landkreis"},"federalState":{"key":"03","name":"Niedersachsen"}},{"name":"Poppenmeedeweg","postalCode":"26759","locality":"Hinte","municipality":{"key":"03452011","name":"Hinte","type":"Kreisangehörige_Gemeinde"},"district":{"key":"03452","name":"Aurich","type":"Landkreis"},"federalState":{"key":"03","name":"Niedersachsen"}},{"name":"Quittenweg","postalCode":"26759","locality":"Hinte","municipality":{"key":"03452011","name":"Hinte","type":"Kreisangehörige_Gemeinde"},"district":{"key":"03452","name":"Aurich","type":"Landkreis"},"federalState":{"key":"03","name":"Niedersachsen"}},{"name":"Radbodweg","postalCode":"26759","locality":"Hinte","municipality":{"key":"03452011","name":"Hinte","type":"Kreisangehörige_Gemeinde"},"district":{"key":"03452","name":"Aurich","type":"Landkreis"},"federalState":{"key":"03","name":"Niedersachsen"}},{"name":"Raimartihofweg","postalCode":"79856","locality":"Hinterzarten","municipality":{"key":"08315052","name":"Hinterzarten","type":"Kreisangehörige_Gemeinde"},"district":{"key":"08315","name":"Breisgau-Hochschwarzwald","type":"Landkreis"},"federalState":{"key":"08","name":"Baden-Württemberg"}},{"name":"Ramselehöhenweg","postalCode":"79856","locality":"Hinterzarten","municipality":{"key":"08315052","name":"Hinterzarten","type":"Kreisangehörige_Gemeinde"},"district":{"key":"08315","name":"Breisgau-Hochschwarzwald","type":"Landkreis"},"federalState":{"key":"08","name":"Baden-Württemberg"}},{"name":"Ramseleweg","postalCode":"79856","locality":"Hinterzarten","municipality":{"key":"08315052","name":"Hinterzarten","type":"Kreisangehörige_Gemeinde"},"district":{"key":"08315","name":"Breisgau-Hochschwarzwald","type":"Landkreis"},"federalState":{"key":"08","name":"Baden-Württemberg"}},{"name":"Rappeneckweg","postalCode":"79856","locality":"Hinterzarten","municipality":{"key":"08315052","name":"Hinterzarten","type":"Kreisangehörige_Gemeinde"},"district":{"key":"08315","name":"Breisgau-Hochschwarzwald","type":"Landkreis"},"federalState":{"key":"08","name":"Baden-Württemberg"}},{"name":"Rathausstr.","postalCode":"79856","locality":"Hinterzarten","municipality":{"key":"08315052","name":"Hinterzarten","type":"Kreisangehörige_Gemeinde"},"district":{"key":"08315","name":"Breisgau-Hochschwarzwald","type":"Landkreis"},"federalState":{"key":"08","name":"Baden-Württemberg"}},{"name":"Reetweg","postalCode":"26759","locality":"Hinte","municipality":{"key":"03452011","name":"Hinte","type":"Kreisangehörige_Gemeinde"},"district":{"key":"03452","name":"Aurich","type":"Landkreis"},"federalState":{"key":"03","name":"Niedersachsen"}},{"name":"Reiterweg","postalCode":"94146","locality":"Hinterschmiding","municipality":{"key":"09272126","name":"Hinterschmiding","type":"Kreisangehörige_Gemeinde"},"district":{"key":"09272","name":"Freyung-Grafenau","type":"Landkreis"},"federalState":{"key":"09","name":"Bayern"}},{"name":"Rheidermeer","postalCode":"26759","locality":"Hinte","municipality":{"key":"03452011","name":"Hinte","type":"Kreisangehörige_Gemeinde"},"district":{"key":"03452","name":"Aurich","type":"Landkreis"},"federalState":{"key":"03","name":"Niedersachsen"}},{"name":"Richardstr.","postalCode":"26759","locality":"Hinte","municipality":{"key":"03452011","name":"Hinte","type":"Kreisangehörige_Gemeinde"},"district":{"key":"03452","name":"Aurich","type":"Landkreis"},"federalState":{"key":"03","name":"Niedersachsen"}},{"name":"Ringstr.","postalCode":"26759","locality":"Hinte","municipality":{"key":"03452011","name":"Hinte","type":"Kreisangehörige_Gemeinde"},"district":{"key":"03452","name":"Aurich","type":"Landkreis"},"federalState":{"key":"03","name":"Niedersachsen"}},{"name":"Ringstr.","postalCode":"66999","locality":"Hinterweidenthal","municipality":{"key":"07340020","name":"Hinterweidenthal","type":"Kreisangehörige_Gemeinde"},"district":{"key":"07340","name":"Südwestpfalz","type":"Landkreis"},"federalState":{"key":"07","name":"Rheinland-Pfalz"}},{"name":"Ringstr.","postalCode":"94146","locality":"Hinterschmiding","municipality":{"key":"09272126","name":"Hinterschmiding","type":"Kreisangehörige_Gemeinde"},"district":{"key":"09272","name":"Freyung-Grafenau","type":"Landkreis"},"federalState":{"key":"09","name":"Bayern"}},{"name":"Roggenweg","postalCode":"26759","locality":"Hinte","municipality":{"key":"03452011","name":"Hinte","type":"Kreisangehörige_Gemeinde"},"district":{"key":"03452","name":"Aurich","type":"Landkreis"},"federalState":{"key":"03","name":"Niedersachsen"}},{"name":"Rohrkolbenweg","postalCode":"26759","locality":"Hinte","municipality":{"key":"03452011","name":"Hinte","type":"Kreisangehörige_Gemeinde"},"district":{"key":"03452","name":"Aurich","type":"Landkreis"},"federalState":{"key":"03","name":"Niedersachsen"}},{"name":"Rosenstr.","postalCode":"26759","locality":"Hinte","municipality":{"key":"03452011","name":"Hinte","type":"Kreisangehörige_Gemeinde"},"district":{"key":"03452","name":"Aurich","type":"Landkreis"},"federalState":{"key":"03","name":"Niedersachsen"}},{"name":"Rößlehofweg","postalCode":"79856","locality":"Hinterzarten","municipality":{"key":"08315052","name":"Hinterzarten","type":"Kreisangehörige_Gemeinde"},"district":{"key":"08315","name":"Breisgau-Hochschwarzwald","type":"Landkreis"},"federalState":{"key":"08","name":"Baden-Württemberg"}},{"name":"Rotbachau","postalCode":"94146","locality":"Hinterschmiding","municipality":{"key":"09272126","name":"Hinterschmiding","type":"Kreisangehörige_Gemeinde"},"district":{"key":"09272","name":"Freyung-Grafenau","type":"Landkreis"},"federalState":{"key":"09","name":"Bayern"}},{"name":"Rotdornweg","postalCode":"26759","locality":"Hinte","municipality":{"key":"03452011","name":"Hinte","type":"Kreisangehörige_Gemeinde"},"district":{"key":"03452","name":"Aurich","type":"Landkreis"},"federalState":{"key":"03","name":"Niedersachsen"}},{"name":"Rotwasser","postalCode":"79856","locality":"Hinterzarten","municipality":{"key":"08315052","name":"Hinterzarten","type":"Kreisangehörige_Gemeinde"},"district":{"key":"08315","name":"Breisgau-Hochschwarzwald","type":"Landkreis"},"federalState":{"key":"08","name":"Baden-Württemberg"}},{"name":"Rotwasser","postalCode":"79868","locality":"Hinterzarten","municipality":{"key":"08315052","name":"Hinterzarten","type":"Kreisangehörige_Gemeinde"},"district":{"key":"08315","name":"Breisgau-Hochschwarzwald","type":"Landkreis"},"federalState":{"key":"08","name":"Baden-Württemberg"}},{"name":"Rufenhofweg","postalCode":"79856","locality":"Hinterzarten","municipality":{"key":"08315052","name":"Hinterzarten","type":"Kreisangehörige_Gemeinde"},"district":{"key":"08315","name":"Breisgau-Hochschwarzwald","type":"Landkreis"},"federalState":{"key":"08","name":"Baden-Württemberg"}},{"name":"Rufenlochweg","postalCode":"79856","locality":"Hinterzarten","municipality":{"key":"08315052","name":"Hinterzarten","type":"Kreisangehörige_Gemeinde"},"district":{"key":"08315","name":"Breisgau-Hochschwarzwald","type":"Landkreis"},"federalState":{"key":"08","name":"Baden-Württemberg"}},{"name":"Rufensteg","postalCode":"79856","locality":"Hinterzarten","municipality":{"key":"08315052","name":"Hinterzarten","type":"Kreisangehörige_Gemeinde"},"district":{"key":"08315","name":"Breisgau-Hochschwarzwald","type":"Landkreis"},"federalState":{"key":"08","name":"Baden-Württemberg"}},{"name":"Rundum","postalCode":"26759","locality":"Hinte","municipality":{"key":"03452011","name":"Hinte","type":"Kreisangehörige_Gemeinde"},"district":{"key":"03452","name":"Aurich","type":"Landkreis"},"federalState":{"key":"03","name":"Niedersachsen"}},{"name":"Rüskenweg","postalCode":"26759","locality":"Hinte","municipality":{"key":"03452011","name":"Hinte","type":"Kreisangehörige_Gemeinde"},"district":{"key":"03452","name":"Aurich","type":"Landkreis"},"federalState":{"key":"03","name":"Niedersachsen"}},{"name":"Sägrainweg","postalCode":"79856","locality":"Hinterzarten","municipality":{"key":"08315052","name":"Hinterzarten","type":"Kreisangehörige_Gemeinde"},"district":{"key":"08315","name":"Breisgau-Hochschwarzwald","type":"Landkreis"},"federalState":{"key":"08","name":"Baden-Württemberg"}},{"name":"Sandweg","postalCode":"94146","locality":"Hinterschmiding","municipality":{"key":"09272126","name":"Hinterschmiding","type":"Kreisangehörige_Gemeinde"},"district":{"key":"09272","name":"Freyung-Grafenau","type":"Landkreis"},"federalState":{"key":"09","name":"Bayern"}},{"name":"Säumerweg","postalCode":"94146","locality":"Hinterschmiding","municipality":{"key":"09272126","name":"Hinterschmiding","type":"Kreisangehörige_Gemeinde"},"district":{"key":"09272","name":"Freyung-Grafenau","type":"Landkreis"},"federalState":{"key":"09","name":"Bayern"}},{"name":"Saußbachweg","postalCode":"94146","locality":"Hinterschmiding","municipality":{"key":"09272126","name":"Hinterschmiding","type":"Kreisangehörige_Gemeinde"},"district":{"key":"09272","name":"Freyung-Grafenau","type":"Landkreis"},"federalState":{"key":"09","name":"Bayern"}},{"name":"Schäferstr.","postalCode":"26759","locality":"Hinte","municipality":{"key":"03452011","name":"Hinte","type":"Kreisangehörige_Gemeinde"},"district":{"key":"03452","name":"Aurich","type":"Landkreis"},"federalState":{"key":"03","name":"Niedersachsen"}},{"name":"Schafweg","postalCode":"26759","locality":"Hinte","municipality":{"key":"03452011","name":"Hinte","type":"Kreisangehörige_Gemeinde"},"district":{"key":"03452","name":"Aurich","type":"Landkreis"},"federalState":{"key":"03","name":"Niedersachsen"}},{"name":"Scheibenweg","postalCode":"94146","locality":"Hinterschmiding","municipality":{"key":"09272126","name":"Hinterschmiding","type":"Kreisangehörige_Gemeinde"},"district":{"key":"09272","name":"Freyung-Grafenau","type":"Landkreis"},"federalState":{"key":"09","name":"Bayern"}},{"name":"Scherzinger Waldweg","postalCode":"79856","locality":"Hinterzarten","municipality":{"key":"08315052","name":"Hinterzarten","type":"Kreisangehörige_Gemeinde"},"district":{"key":"08315","name":"Breisgau-Hochschwarzwald","type":"Landkreis"},"federalState":{"key":"08","name":"Baden-Württemberg"}},{"name":"Schilfstr.","postalCode":"26759","locality":"Hinte","municipality":{"key":"03452011","name":"Hinte","type":"Kreisangehörige_Gemeinde"},"district":{"key":"03452","name":"Aurich","type":"Landkreis"},"federalState":{"key":"03","name":"Niedersachsen"}},{"name":"Schleiweg","postalCode":"26759","locality":"Hinte","municipality":{"key":"03452011","name":"Hinte","type":"Kreisangehörige_Gemeinde"},"district":{"key":"03452","name":"Aurich","type":"Landkreis"},"federalState":{"key":"03","name":"Niedersachsen"}},{"name":"Schloßgarten","postalCode":"26759","locality":"Hinte","municipality":{"key":"03452011","name":"Hinte","type":"Kreisangehörige_Gemeinde"},"district":{"key":"03452","name":"Aurich","type":"Landkreis"},"federalState":{"key":"03","name":"Niedersachsen"}},{"name":"Schloßstr.","postalCode":"26759","locality":"Hinte","municipality":{"key":"03452011","name":"Hinte","type":"Kreisangehörige_Gemeinde"},"district":{"key":"03452","name":"Aurich","type":"Landkreis"},"federalState":{"key":"03","name":"Niedersachsen"}},{"name":"Schmaler Weg","postalCode":"26759","locality":"Hinte","municipality":{"key":"03452011","name":"Hinte","type":"Kreisangehörige_Gemeinde"},"district":{"key":"03452","name":"Aurich","type":"Landkreis"},"federalState":{"key":"03","name":"Niedersachsen"}},{"name":"Schmidinger Mitte","postalCode":"94146","locality":"Hinterschmiding","municipality":{"key":"09272126","name":"Hinterschmiding","type":"Kreisangehörige_Gemeinde"},"district":{"key":"09272","name":"Freyung-Grafenau","type":"Landkreis"},"federalState":{"key":"09","name":"Bayern"}},{"name":"Schmidinger Str.","postalCode":"94146","locality":"Hinterschmiding","municipality":{"key":"09272126","name":"Hinterschmiding","type":"Kreisangehörige_Gemeinde"},"district":{"key":"09272","name":"Freyung-Grafenau","type":"Landkreis"},"federalState":{"key":"09","name":"Bayern"}},{"name":"Schmiedestr.","postalCode":"26759","locality":"Hinte","municipality":{"key":"03452011","name":"Hinte","type":"Kreisangehörige_Gemeinde"},"district":{"key":"03452","name":"Aurich","type":"Landkreis"},"federalState":{"key":"03","name":"Niedersachsen"}},{"name":"Schönauer Weg","postalCode":"94146","locality":"Hinterschmiding","municipality":{"key":"09272126","name":"Hinterschmiding","type":"Kreisangehörige_Gemeinde"},"district":{"key":"09272","name":"Freyung-Grafenau","type":"Landkreis"},"federalState":{"key":"09","name":"Bayern"}},{"name":"Schulstr.","postalCode":"26759","locality":"Hinte","municipality":{"key":"03452011","name":"Hinte","type":"Kreisangehörige_Gemeinde"},"district":{"key":"03452","name":"Aurich","type":"Landkreis"},"federalState":{"key":"03","name":"Niedersachsen"}},{"name":"Schulstr.","postalCode":"55743","locality":"Hintertiefenbach","municipality":{"key":"07134041","name":"Hintertiefenbach","type":"Kreisangehörige_Gemeinde"},"district":{"key":"07134","name":"Birkenfeld","type":"Landkreis"},"federalState":{"key":"07","name":"Rheinland-Pfalz"}},{"name":"Schulstr.","postalCode":"66999","locality":"Hinterweidenthal","municipality":{"key":"07340020","name":"Hinterweidenthal","type":"Kreisangehörige_Gemeinde"},"district":{"key":"07340","name":"Südwestpfalz","type":"Landkreis"},"federalState":{"key":"07","name":"Rheinland-Pfalz"}},{"name":"Schulstr.","postalCode":"94146","locality":"Hinterschmiding","municipality":{"key":"09272126","name":"Hinterschmiding","type":"Kreisangehörige_Gemeinde"},"district":{"key":"09272","name":"Freyung-Grafenau","type":"Landkreis"},"federalState":{"key":"09","name":"Bayern"}},{"name":"Schustergasse","postalCode":"26759","locality":"Hinte","municipality":{"key":"03452011","name":"Hinte","type":"Kreisangehörige_Gemeinde"},"district":{"key":"03452","name":"Aurich","type":"Landkreis"},"federalState":{"key":"03","name":"Niedersachsen"}},{"name":"Schusterweg","postalCode":"94146","locality":"Hinterschmiding","municipality":{"key":"09272126","name":"Hinterschmiding","type":"Kreisangehörige_Gemeinde"},"district":{"key":"09272","name":"Freyung-Grafenau","type":"Landkreis"},"federalState":{"key":"09","name":"Bayern"}},{"name":"Schwalbenweg","postalCode":"26759","locality":"Hinte","municipality":{"key":"03452011","name":"Hinte","type":"Kreisangehörige_Gemeinde"},"district":{"key":"03452","name":"Aurich","type":"Landkreis"},"federalState":{"key":"03","name":"Niedersachsen"}},{"name":"Schwarzer Weg","postalCode":"26759","locality":"Hinte","municipality":{"key":"03452011","name":"Hinte","type":"Kreisangehörige_Gemeinde"},"district":{"key":"03452","name":"Aurich","type":"Landkreis"},"federalState":{"key":"03","name":"Niedersachsen"}},{"name":"Schwarzkopfstr.","postalCode":"94146","locality":"Hinterschmiding","municipality":{"key":"09272126","name":"Hinterschmiding","type":"Kreisangehörige_Gemeinde"},"district":{"key":"09272","name":"Freyung-Grafenau","type":"Landkreis"},"federalState":{"key":"09","name":"Bayern"}},{"name":"Schwedenweg","postalCode":"94146","locality":"Hinterschmiding","municipality":{"key":"09272126","name":"Hinterschmiding","type":"Kreisangehörige_Gemeinde"},"district":{"key":"09272","name":"Freyung-Grafenau","type":"Landkreis"},"federalState":{"key":"09","name":"Bayern"}},{"name":"Schwendreuter Str.","postalCode":"94146","locality":"Hinterschmiding","municipality":{"key":"09272126","name":"Hinterschmiding","type":"Kreisangehörige_Gemeinde"},"district":{"key":"09272","name":"Freyung-Grafenau","type":"Landkreis"},"federalState":{"key":"09","name":"Bayern"}},{"name":"Sebensweg","postalCode":"26759","locality":"Hinte","municipality":{"key":"03452011","name":"Hinte","type":"Kreisangehörige_Gemeinde"},"district":{"key":"03452","name":"Aurich","type":"Landkreis"},"federalState":{"key":"03","name":"Niedersachsen"}},{"name":"Seehäuslewiesenweg","postalCode":"79856","locality":"Hinterzarten","municipality":{"key":"08315052","name":"Hinterzarten","type":"Kreisangehörige_Gemeinde"},"district":{"key":"08315","name":"Breisgau-Hochschwarzwald","type":"Landkreis"},"federalState":{"key":"08","name":"Baden-Württemberg"}},{"name":"Seesternweg","postalCode":"26759","locality":"Hinte","municipality":{"key":"03452011","name":"Hinte","type":"Kreisangehörige_Gemeinde"},"district":{"key":"03452","name":"Aurich","type":"Landkreis"},"federalState":{"key":"03","name":"Niedersachsen"}},{"name":"Seewaldweg","postalCode":"79856","locality":"Hinterzarten","municipality":{"key":"08315052","name":"Hinterzarten","type":"Kreisangehörige_Gemeinde"},"district":{"key":"08315","name":"Breisgau-Hochschwarzwald","type":"Landkreis"},"federalState":{"key":"08","name":"Baden-Württemberg"}},{"name":"Sickinger Str.","postalCode":"79856","locality":"Hinterzarten","municipality":{"key":"08315052","name":"Hinterzarten","type":"Kreisangehörige_Gemeinde"},"district":{"key":"08315","name":"Breisgau-Hochschwarzwald","type":"Landkreis"},"federalState":{"key":"08","name":"Baden-Württemberg"}},{"name":"Siedlungsstr.","postalCode":"26759","locality":"Hinte","municipality":{"key":"03452011","name":"Hinte","type":"Kreisangehörige_Gemeinde"},"district":{"key":"03452","name":"Aurich","type":"Landkreis"},"federalState":{"key":"03","name":"Niedersachsen"}},{"name":"Sielmönker Kreisstr.","postalCode":"26759","locality":"Hinte","municipality":{"key":"03452011","name":"Hinte","type":"Kreisangehörige_Gemeinde"},"district":{"key":"03452","name":"Aurich","type":"Landkreis"},"federalState":{"key":"03","name":"Niedersachsen"}},{"name":"Silberberg","postalCode":"79856","locality":"Hinterzarten","municipality":{"key":"08315052","name":"Hinterzarten","type":"Kreisangehörige_Gemeinde"},"district":{"key":"08315","name":"Breisgau-Hochschwarzwald","type":"Landkreis"},"federalState":{"key":"08","name":"Baden-Württemberg"}},{"name":"Silberbergweg","postalCode":"79856","locality":"Hinterzarten","municipality":{"key":"08315052","name":"Hinterzarten","type":"Kreisangehörige_Gemeinde"},"district":{"key":"08315","name":"Breisgau-Hochschwarzwald","type":"Landkreis"},"federalState":{"key":"08","name":"Baden-Württemberg"}},{"name":"Smal Joed","postalCode":"26759","locality":"Hinte","municipality":{"key":"03452011","name":"Hinte","type":"Kreisangehörige_Gemeinde"},"district":{"key":"03452","name":"Aurich","type":"Landkreis"},"federalState":{"key":"03","name":"Niedersachsen"}},{"name":"Sonndorfer Siedlung","postalCode":"94146","locality":"Hinterschmiding","municipality":{"key":"09272126","name":"Hinterschmiding","type":"Kreisangehörige_Gemeinde"},"district":{"key":"09272","name":"Freyung-Grafenau","type":"Landkreis"},"federalState":{"key":"09","name":"Bayern"}},{"name":"Sonnenbühlweg","postalCode":"79856","locality":"Hinterzarten","municipality":{"key":"08315052","name":"Hinterzarten","type":"Kreisangehörige_Gemeinde"},"district":{"key":"08315","name":"Breisgau-Hochschwarzwald","type":"Landkreis"},"federalState":{"key":"08","name":"Baden-Württemberg"}},{"name":"Sonnenstr.","postalCode":"94146","locality":"Hinterschmiding","municipality":{"key":"09272126","name":"Hinterschmiding","type":"Kreisangehörige_Gemeinde"},"district":{"key":"09272","name":"Freyung-Grafenau","type":"Landkreis"},"federalState":{"key":"09","name":"Bayern"}},{"name":"Spähnplatz","postalCode":"79856","locality":"Hinterzarten","municipality":{"key":"08315052","name":"Hinterzarten","type":"Kreisangehörige_Gemeinde"},"district":{"key":"08315","name":"Breisgau-Hochschwarzwald","type":"Landkreis"},"federalState":{"key":"08","name":"Baden-Württemberg"}},{"name":"Spähnplatzweg","postalCode":"79856","locality":"Hinterzarten","municipality":{"key":"08315052","name":"Hinterzarten","type":"Kreisangehörige_Gemeinde"},"district":{"key":"08315","name":"Breisgau-Hochschwarzwald","type":"Landkreis"},"federalState":{"key":"08","name":"Baden-Württemberg"}},{"name":"Sportplatzstr.","postalCode":"26759","locality":"Hinte","municipality":{"key":"03452011","name":"Hinte","type":"Kreisangehörige_Gemeinde"},"district":{"key":"03452","name":"Aurich","type":"Landkreis"},"federalState":{"key":"03","name":"Niedersachsen"}},{"name":"Sportplatzweg","postalCode":"66999","locality":"Hinterweidenthal","municipality":{"key":"07340020","name":"Hinterweidenthal","type":"Kreisangehörige_Gemeinde"},"district":{"key":"07340","name":"Südwestpfalz","type":"Landkreis"},"federalState":{"key":"07","name":"Rheinland-Pfalz"}},{"name":"Sportplatzweg","postalCode":"79856","locality":"Hinterzarten","municipality":{"key":"08315052","name":"Hinterzarten","type":"Kreisangehörige_Gemeinde"},"district":{"key":"08315","name":"Breisgau-Hochschwarzwald","type":"Landkreis"},"federalState":{"key":"08","name":"Baden-Württemberg"}},{"name":"Stachelbeerweg","postalCode":"26759","locality":"Hinte","municipality":{"key":"03452011","name":"Hinte","type":"Kreisangehörige_Gemeinde"},"district":{"key":"03452","name":"Aurich","type":"Landkreis"},"federalState":{"key":"03","name":"Niedersachsen"}},{"name":"Steiertenschlagweg","postalCode":"79856","locality":"Hinterzarten","municipality":{"key":"08315052","name":"Hinterzarten","type":"Kreisangehörige_Gemeinde"},"district":{"key":"08315","name":"Breisgau-Hochschwarzwald","type":"Landkreis"},"federalState":{"key":"08","name":"Baden-Württemberg"}},{"name":"Steinhalderstr.","postalCode":"66999","locality":"Hinterweidenthal","municipality":{"key":"07340020","name":"Hinterweidenthal","type":"Kreisangehörige_Gemeinde"},"district":{"key":"07340","name":"Südwestpfalz","type":"Landkreis"},"federalState":{"key":"07","name":"Rheinland-Pfalz"}},{"name":"Stiekelborger Weg","postalCode":"26759","locality":"Hinte","municipality":{"key":"03452011","name":"Hinte","type":"Kreisangehörige_Gemeinde"},"district":{"key":"03452","name":"Aurich","type":"Landkreis"},"federalState":{"key":"03","name":"Niedersachsen"}},{"name":"Tannenweg","postalCode":"26759","locality":"Hinte","municipality":{"key":"03452011","name":"Hinte","type":"Kreisangehörige_Gemeinde"},"district":{"key":"03452","name":"Aurich","type":"Landkreis"},"federalState":{"key":"03","name":"Niedersachsen"}},{"name":"Taubengang","postalCode":"26759","locality":"Hinte","municipality":{"key":"03452011","name":"Hinte","type":"Kreisangehörige_Gemeinde"},"district":{"key":"03452","name":"Aurich","type":"Landkreis"},"federalState":{"key":"03","name":"Niedersachsen"}},{"name":"Teestr.","postalCode":"26759","locality":"Hinte","municipality":{"key":"03452011","name":"Hinte","type":"Kreisangehörige_Gemeinde"},"district":{"key":"03452","name":"Aurich","type":"Landkreis"},"federalState":{"key":"03","name":"Niedersachsen"}},{"name":"Teichrosenweg","postalCode":"26759","locality":"Hinte","municipality":{"key":"03452011","name":"Hinte","type":"Kreisangehörige_Gemeinde"},"district":{"key":"03452","name":"Aurich","type":"Landkreis"},"federalState":{"key":"03","name":"Niedersachsen"}},{"name":"Ten-Doornkaat-Str.","postalCode":"26759","locality":"Hinte","municipality":{"key":"03452011","name":"Hinte","type":"Kreisangehörige_Gemeinde"},"district":{"key":"03452","name":"Aurich","type":"Landkreis"},"federalState":{"key":"03","name":"Niedersachsen"}},{"name":"Torfstr.","postalCode":"26759","locality":"Hinte","municipality":{"key":"03452011","name":"Hinte","type":"Kreisangehörige_Gemeinde"},"district":{"key":"03452","name":"Aurich","type":"Landkreis"},"federalState":{"key":"03","name":"Niedersachsen"}},{"name":"Treidelweg","postalCode":"26759","locality":"Hinte","municipality":{"key":"03452011","name":"Hinte","type":"Kreisangehörige_Gemeinde"},"district":{"key":"03452","name":"Aurich","type":"Landkreis"},"federalState":{"key":"03","name":"Niedersachsen"}},{"name":"Turnstr.","postalCode":"66999","locality":"Hinterweidenthal","municipality":{"key":"07340020","name":"Hinterweidenthal","type":"Kreisangehörige_Gemeinde"},"district":{"key":"07340","name":"Südwestpfalz","type":"Landkreis"},"federalState":{"key":"07","name":"Rheinland-Pfalz"}},{"name":"Ubbo-Jacobs-Ring","postalCode":"26759","locality":"Hinte","municipality":{"key":"03452011","name":"Hinte","type":"Kreisangehörige_Gemeinde"},"district":{"key":"03452","name":"Aurich","type":"Landkreis"},"federalState":{"key":"03","name":"Niedersachsen"}},{"name":"Uferstr.","postalCode":"26759","locality":"Hinte","municipality":{"key":"03452011","name":"Hinte","type":"Kreisangehörige_Gemeinde"},"district":{"key":"03452","name":"Aurich","type":"Landkreis"},"federalState":{"key":"03","name":"Niedersachsen"}},{"name":"Ulmenweg","postalCode":"94146","locality":"Hinterschmiding","municipality":{"key":"09272126","name":"Hinterschmiding","type":"Kreisangehörige_Gemeinde"},"district":{"key":"09272","name":"Freyung-Grafenau","type":"Landkreis"},"federalState":{"key":"09","name":"Bayern"}},{"name":"Unterer Gschwendeweg","postalCode":"79856","locality":"Hinterzarten","municipality":{"key":"08315052","name":"Hinterzarten","type":"Kreisangehörige_Gemeinde"},"district":{"key":"08315","name":"Breisgau-Hochschwarzwald","type":"Landkreis"},"federalState":{"key":"08","name":"Baden-Württemberg"}},{"name":"Utsplittweg","postalCode":"26759","locality":"Hinte","municipality":{"key":"03452011","name":"Hinte","type":"Kreisangehörige_Gemeinde"},"district":{"key":"03452","name":"Aurich","type":"Landkreis"},"federalState":{"key":"03","name":"Niedersachsen"}},{"name":"Uttumer Weg","postalCode":"26759","locality":"Hinte","municipality":{"key":"03452011","name":"Hinte","type":"Kreisangehörige_Gemeinde"},"district":{"key":"03452","name":"Aurich","type":"Landkreis"},"federalState":{"key":"03","name":"Niedersachsen"}},{"name":"Viertelweg","postalCode":"94146","locality":"Hinterschmiding","municipality":{"key":"09272126","name":"Hinterschmiding","type":"Kreisangehörige_Gemeinde"},"district":{"key":"09272","name":"Freyung-Grafenau","type":"Landkreis"},"federalState":{"key":"09","name":"Bayern"}},{"name":"Viertelwegsiedlung","postalCode":"94146","locality":"Hinterschmiding","municipality":{"key":"09272126","name":"Hinterschmiding","type":"Kreisangehörige_Gemeinde"},"district":{"key":"09272","name":"Freyung-Grafenau","type":"Landkreis"},"federalState":{"key":"09","name":"Bayern"}},{"name":"Vincenz-Zahn-Weg","postalCode":"79856","locality":"Hinterzarten","municipality":{"key":"08315052","name":"Hinterzarten","type":"Kreisangehörige_Gemeinde"},"district":{"key":"08315","name":"Breisgau-Hochschwarzwald","type":"Landkreis"},"federalState":{"key":"08","name":"Baden-Württemberg"}},{"name":"Vliehauser Weg","postalCode":"26759","locality":"Hinte","municipality":{"key":"03452011","name":"Hinte","type":"Kreisangehörige_Gemeinde"},"district":{"key":"03452","name":"Aurich","type":"Landkreis"},"federalState":{"key":"03","name":"Niedersachsen"}},{"name":"Voßfenne","postalCode":"26759","locality":"Hinte","municipality":{"key":"03452011","name":"Hinte","type":"Kreisangehörige_Gemeinde"},"district":{"key":"03452","name":"Aurich","type":"Landkreis"},"federalState":{"key":"03","name":"Niedersachsen"}},{"name":"Waldmühlstr.","postalCode":"94146","locality":"Hinterschmiding","municipality":{"key":"09272126","name":"Hinterschmiding","type":"Kreisangehörige_Gemeinde"},"district":{"key":"09272","name":"Freyung-Grafenau","type":"Landkreis"},"federalState":{"key":"09","name":"Bayern"}},{"name":"Waldstr.","postalCode":"66999","locality":"Hinterweidenthal","municipality":{"key":"07340020","name":"Hinterweidenthal","type":"Kreisangehörige_Gemeinde"},"district":{"key":"07340","name":"Südwestpfalz","type":"Landkreis"},"federalState":{"key":"07","name":"Rheinland-Pfalz"}},{"name":"Waldweg","postalCode":"94146","locality":"Hinterschmiding","municipality":{"key":"09272126","name":"Hinterschmiding","type":"Kreisangehörige_Gemeinde"},"district":{"key":"09272","name":"Freyung-Grafenau","type":"Landkreis"},"federalState":{"key":"09","name":"Bayern"}},{"name":"Walter-Bubert-Str.","postalCode":"26759","locality":"Hinte","municipality":{"key":"03452011","name":"Hinte","type":"Kreisangehörige_Gemeinde"},"district":{"key":"03452","name":"Aurich","type":"Landkreis"},"federalState":{"key":"03","name":"Niedersachsen"}},{"name":"Walter-Wilde-Weg","postalCode":"79856","locality":"Hinterzarten","municipality":{"key":"08315052","name":"Hinterzarten","type":"Kreisangehörige_Gemeinde"},"district":{"key":"08315","name":"Breisgau-Hochschwarzwald","type":"Landkreis"},"federalState":{"key":"08","name":"Baden-Württemberg"}},{"name":"Warfsweg","postalCode":"26759","locality":"Hinte","municipality":{"key":"03452011","name":"Hinte","type":"Kreisangehörige_Gemeinde"},"district":{"key":"03452","name":"Aurich","type":"Landkreis"},"federalState":{"key":"03","name":"Niedersachsen"}},{"name":"Wartbachstr.","postalCode":"66999","locality":"Hinterweidenthal","municipality":{"key":"07340020","name":"Hinterweidenthal","type":"Kreisangehörige_Gemeinde"},"district":{"key":"07340","name":"Südwestpfalz","type":"Landkreis"},"federalState":{"key":"07","name":"Rheinland-Pfalz"}},{"name":"Weberstr.","postalCode":"26759","locality":"Hinte","municipality":{"key":"03452011","name":"Hinte","type":"Kreisangehörige_Gemeinde"},"district":{"key":"03452","name":"Aurich","type":"Landkreis"},"federalState":{"key":"03","name":"Niedersachsen"}},{"name":"Wehrstr.","postalCode":"26759","locality":"Hinte","municipality":{"key":"03452011","name":"Hinte","type":"Kreisangehörige_Gemeinde"},"district":{"key":"03452","name":"Aurich","type":"Landkreis"},"federalState":{"key":"03","name":"Niedersachsen"}},{"name":"Weidenweg","postalCode":"26759","locality":"Hinte","municipality":{"key":"03452011","name":"Hinte","type":"Kreisangehörige_Gemeinde"},"district":{"key":"03452","name":"Aurich","type":"Landkreis"},"federalState":{"key":"03","name":"Niedersachsen"}},{"name":"Weizenweg","postalCode":"26759","locality":"Hinte","municipality":{"key":"03452011","name":"Hinte","type":"Kreisangehörige_Gemeinde"},"district":{"key":"03452","name":"Aurich","type":"Landkreis"},"federalState":{"key":"03","name":"Niedersachsen"}},{"name":"Westerstr.","postalCode":"26759","locality":"Hinte","municipality":{"key":"03452011","name":"Hinte","type":"Kreisangehörige_Gemeinde"},"district":{"key":"03452","name":"Aurich","type":"Landkreis"},"federalState":{"key":"03","name":"Niedersachsen"}},{"name":"Westerweg","postalCode":"26759","locality":"Hinte","municipality":{"key":"03452011","name":"Hinte","type":"Kreisangehörige_Gemeinde"},"district":{"key":"03452","name":"Aurich","type":"Landkreis"},"federalState":{"key":"03","name":"Niedersachsen"}},{"name":"Wiederkehr","postalCode":"94146","locality":"Hinterschmiding","municipality":{"key":"09272126","name":"Hinterschmiding","type":"Kreisangehörige_Gemeinde"},"district":{"key":"09272","name":"Freyung-Grafenau","type":"Landkreis"},"federalState":{"key":"09","name":"Bayern"}},{"name":"Wiesenweg","postalCode":"26759","locality":"Hinte","municipality":{"key":"03452011","name":"Hinte","type":"Kreisangehörige_Gemeinde"},"district":{"key":"03452","name":"Aurich","type":"Landkreis"},"federalState":{"key":"03","name":"Niedersachsen"}},{"name":"Wilhelm-Wichmann-Weg","postalCode":"26759","locality":"Hinte","municipality":{"key":"03452011","name":"Hinte","type":"Kreisangehörige_Gemeinde"},"district":{"key":"03452","name":"Aurich","type":"Landkreis"},"federalState":{"key":"03","name":"Niedersachsen"}},{"name":"Windeck","postalCode":"79856","locality":"Hinterzarten","municipality":{"key":"08315052","name":"Hinterzarten","type":"Kreisangehörige_Gemeinde"},"district":{"key":"08315","name":"Breisgau-Hochschwarzwald","type":"Landkreis"},"federalState":{"key":"08","name":"Baden-Württemberg"}},{"name":"Windeckkopfweg","postalCode":"79856","locality":"Hinterzarten","municipality":{"key":"08315052","name":"Hinterzarten","type":"Kreisangehörige_Gemeinde"},"district":{"key":"08315","name":"Breisgau-Hochschwarzwald","type":"Landkreis"},"federalState":{"key":"08","name":"Baden-Württemberg"}},{"name":"Windeckweg","postalCode":"79856","locality":"Hinterzarten","municipality":{"key":"08315052","name":"Hinterzarten","type":"Kreisangehörige_Gemeinde"},"district":{"key":"08315","name":"Breisgau-Hochschwarzwald","type":"Landkreis"},"federalState":{"key":"08","name":"Baden-Württemberg"}},{"name":"Winterhaldenweg","postalCode":"79856","locality":"Hinterzarten","municipality":{"key":"08315052","name":"Hinterzarten","type":"Kreisangehörige_Gemeinde"},"district":{"key":"08315","name":"Breisgau-Hochschwarzwald","type":"Landkreis"},"federalState":{"key":"08","name":"Baden-Württemberg"}},{"name":"Witwenweg","postalCode":"26759","locality":"Hinte","municipality":{"key":"03452011","name":"Hinte","type":"Kreisangehörige_Gemeinde"},"district":{"key":"03452","name":"Aurich","type":"Landkreis"},"federalState":{"key":"03","name":"Niedersachsen"}},{"name":"Woldenweg","postalCode":"26759","locality":"Hinte","municipality":{"key":"03452011","name":"Hinte","type":"Kreisangehörige_Gemeinde"},"district":{"key":"03452","name":"Aurich","type":"Landkreis"},"federalState":{"key":"03","name":"Niedersachsen"}},{"name":"Wunderlehofweg","postalCode":"79856","locality":"Hinterzarten","municipality":{"key":"08315052","name":"Hinterzarten","type":"Kreisangehörige_Gemeinde"},"district":{"key":"08315","name":"Breisgau-Hochschwarzwald","type":"Landkreis"},"federalState":{"key":"08","name":"Baden-Württemberg"}},{"name":"Yorckstr.","postalCode":"26603","locality":"Aurich","municipality":{"key":"03452001","name":"Aurich, Stadt","type":"Stadt"},"district":{"key":"03452","name":"Aurich","type":"Landkreis"},"federalState":{"key":"03","name":"Niedersachsen"}},{"name":"Zanderweg","postalCode":"26759","locality":"Hinte","municipality":{"key":"03452011","name":"Hinte","type":"Kreisangehörige_Gemeinde"},"district":{"key":"03452","name":"Aurich","type":"Landkreis"},"federalState":{"key":"03","name":"Niedersachsen"}},{"name":"Zartenbachweg","postalCode":"79856","locality":"Hinterzarten","municipality":{"key":"08315052","name":"Hinterzarten","type":"Kreisangehörige_Gemeinde"},"district":{"key":"08315","name":"Breisgau-Hochschwarzwald","type":"Landkreis"},"federalState":{"key":"08","name":"Baden-Württemberg"}},{"name":"Zipfelhofstr.","postalCode":"79856","locality":"Hinterzarten","municipality":{"key":"08315052","name":"Hinterzarten","type":"Kreisangehörige_Gemeinde"},"district":{"key":"08315","name":"Breisgau-Hochschwarzwald","type":"Landkreis"},"federalState":{"key":"08","name":"Baden-Württemberg"}},{"name":"Zopfenbeck","postalCode":"17375","locality":"Hintersee","municipality":{"key":"13075051","name":"Hintersee","type":"Kreisangehörige_Gemeinde"},"district":{"key":"13075","name":"Vorpommern-Greifswald","type":"Landkreis"},"federalState":{"key":"13","name":"Mecklenburg-Vorpommern"}},{"name":"Zum Ernstberg","postalCode":"54570","locality":"Hinterweiler","municipality":{"key":"07233030","name":"Hinterweiler","type":"Kreisangehörige_Gemeinde"},"district":{"key":"07233","name":"Vulkaneifel","type":"Landkreis"},"federalState":{"key":"07","name":"Rheinland-Pfalz"}},{"name":"Zwetschenweg","postalCode":"26759","locality":"Hinte","municipality":{"key":"03452011","name":"Hinte","type":"Kreisangehörige_Gemeinde"},"district":{"key":"03452","name":"Aurich","type":"Landkreis"},"federalState":{"key":"03","name":"Niedersachsen"}},]