[{"key":"16066005","name":"Belrieth","type":"Kreisangehörige_Gemeinde","postalCode":"98617","multiplePostalCodes":true,"association":{"key":"16066","name":"Dolmar-Salzbrücke","type":"Verwaltungsgemeinschaft"},"district":{"key":"16066","name":"Schmalkalden-Meiningen","type":"Landkreis"},"federalState":{"key":"16","name":"Thüringen"}},{"key":"16066012","name":"Birx","type":"Kreisangehörige_Gemeinde","postalCode":"98634","multiplePostalCodes":true,"association":{"key":"16066","name":"Hohe Rhön","type":"Verwaltungsgemeinschaft"},"district":{"key":"16066","name":"Schmalkalden-Meiningen","type":"Landkreis"},"federalState":{"key":"16","name":"Thüringen"}},{"key":"16066013","name":"Breitungen/Werra","type":"Kreisangehörige_Gemeinde","postalCode":"98597","multiplePostalCodes":false,"association":{"key":"16066","name":"Breitungen/Werra","type":"Erfüllende_Gemeinde"},"district":{"key":"16066","name":"Schmalkalden-Meiningen","type":"Landkreis"},"federalState":{"key":"16","name":"Thüringen"}},{"key":"16066015","name":"Christes","type":"Kreisangehörige_Gemeinde","postalCode":"98547","multiplePostalCodes":false,"association":{"key":"16066","name":"Dolmar-Salzbrücke","type":"Verwaltungsgemeinschaft"},"district":{"key":"16066","name":"Schmalkalden-Meiningen","type":"Landkreis"},"federalState":{"key":"16","name":"Thüringen"}},{"key":"16066016","name":"Dillstädt","type":"Kreisangehörige_Gemeinde","postalCode":"98530","multiplePostalCodes":true,"association":{"key":"16066","name":"Dolmar-Salzbrücke","type":"Verwaltungsgemeinschaft"},"district":{"key":"16066","name":"Schmalkalden-Meiningen","type":"Landkreis"},"federalState":{"key":"16","name":"Thüringen"}},{"key":"16066017","name":"Einhausen","type":"Kreisangehörige_Gemeinde","postalCode":"98617","multiplePostalCodes":true,"association":{"key":"16066","name":"Dolmar-Salzbrücke","type":"Verwaltungsgemeinschaft"},"district":{"key":"16066","name":"Schmalkalden-Meiningen","type":"Landkreis"},"federalState":{"key":"16","name":"Thüringen"}},{"key":"16066018","name":"Ellingshausen","type":"Kreisangehörige_Gemeinde","postalCode":"98617","multiplePostalCodes":true,"association":{"key":"16066","name":"Dolmar-Salzbrücke","type":"Verwaltungsgemeinschaft"},"district":{"key":"16066","name":"Schmalkalden-Meiningen","type":"Landkreis"},"federalState":{"key":"16","name":"Thüringen"}},{"key":"16066019","name":"Erbenhausen","type":"Kreisangehörige_Gemeinde","postalCode":"98634","multiplePostalCodes":true,"association":{"key":"16066","name":"Hohe Rhön","type":"Verwaltungsgemeinschaft"},"district":{"key":"16066","name":"Schmalkalden-Meiningen","type":"Landkreis"},"federalState":{"key":"16","name":"Thüringen"}},{"key":"16066022","name":"Fambach","type":"Kreisangehörige_Gemeinde","postalCode":"98597","multiplePostalCodes":false,"association":{"key":"16066","name":"Breitungen/Werra","type":"Erfüllende_Gemeinde"},"district":{"key":"16066","name":"Schmalkalden-Meiningen","type":"Landkreis"},"federalState":{"key":"16","name":"Thüringen"}},{"key":"16066023","name":"Floh-Seligenthal","type":"Kreisangehörige_Gemeinde","postalCode":"98593","multiplePostalCodes":false,"association":{"key":"16066","name":"Floh-Seligenthal","type":"Verbandsfreie_Gemeinde"},"district":{"key":"16066","name":"Schmalkalden-Meiningen","type":"Landkreis"},"federalState":{"key":"16","name":"Thüringen"}},{"key":"16066024","name":"Frankenheim/Rhön","type":"Kreisangehörige_Gemeinde","postalCode":"98634","multiplePostalCodes":true,"association":{"key":"16066","name":"Hohe Rhön","type":"Verwaltungsgemeinschaft"},"district":{"key":"16066","name":"Schmalkalden-Meiningen","type":"Landkreis"},"federalState":{"key":"16","name":"Thüringen"}},{"key":"16066025","name":"Friedelshausen","type":"Kreisangehörige_Gemeinde","postalCode":"98634","multiplePostalCodes":false,"association":{"key":"16066","name":"Wasungen-Amt Sand","type":"Verwaltungsgemeinschaft"},"district":{"key":"16066","name":"Schmalkalden-Meiningen","type":"Landkreis"},"federalState":{"key":"16","name":"Thüringen"}},{"key":"16066038","name":"Kühndorf","type":"Kreisangehörige_Gemeinde","postalCode":"98547","multiplePostalCodes":false,"association":{"key":"16066","name":"Dolmar-Salzbrücke","type":"Verwaltungsgemeinschaft"},"district":{"key":"16066","name":"Schmalkalden-Meiningen","type":"Landkreis"},"federalState":{"key":"16","name":"Thüringen"}},{"key":"16066039","name":"Leutersdorf","type":"Kreisangehörige_Gemeinde","postalCode":"98617","multiplePostalCodes":true,"association":{"key":"16066","name":"Dolmar-Salzbrücke","type":"Verwaltungsgemeinschaft"},"district":{"key":"16066","name":"Schmalkalden-Meiningen","type":"Landkreis"},"federalState":{"key":"16","name":"Thüringen"}},{"key":"16066041","name":"Mehmels","type":"Kreisangehörige_Gemeinde","postalCode":"98634","multiplePostalCodes":false,"association":{"key":"16066","name":"Wasungen-Amt Sand","type":"Verwaltungsgemeinschaft"},"district":{"key":"16066","name":"Schmalkalden-Meiningen","type":"Landkreis"},"federalState":{"key":"16","name":"Thüringen"}},{"key":"16066042","name":"Meiningen, Stadt","type":"Stadt","postalCode":"98617","multiplePostalCodes":false,"association":{"key":"16066","name":"Meiningen, Stadt","type":"Erfüllende_Gemeinde"},"district":{"key":"16066","name":"Schmalkalden-Meiningen","type":"Landkreis"},"federalState":{"key":"16","name":"Thüringen"}},{"key":"16066045","name":"Neubrunn","type":"Kreisangehörige_Gemeinde","postalCode":"98617","multiplePostalCodes":true,"association":{"key":"16066","name":"Dolmar-Salzbrücke","type":"Verwaltungsgemeinschaft"},"district":{"key":"16066","name":"Schmalkalden-Meiningen","type":"Landkreis"},"federalState":{"key":"16","name":"Thüringen"}},{"key":"16066047","name":"Oberhof, Stadt","type":"Stadt","postalCode":"98559","multiplePostalCodes":false,"association":{"key":"16066","name":"Oberhof, Stadt","type":"Verbandsfreie_Gemeinde"},"district":{"key":"16066","name":"Schmalkalden-Meiningen","type":"Landkreis"},"federalState":{"key":"16","name":"Thüringen"}},{"key":"16066049","name":"Obermaßfeld-Grimmenthal","type":"Kreisangehörige_Gemeinde","postalCode":"98617","multiplePostalCodes":true,"association":{"key":"16066","name":"Dolmar-Salzbrücke","type":"Verwaltungsgemeinschaft"},"district":{"key":"16066","name":"Schmalkalden-Meiningen","type":"Landkreis"},"federalState":{"key":"16","name":"Thüringen"}},{"key":"16066052","name":"Oberweid","type":"Kreisangehörige_Gemeinde","postalCode":"98634","multiplePostalCodes":true,"association":{"key":"16066","name":"Hohe Rhön","type":"Verwaltungsgemeinschaft"},"district":{"key":"16066","name":"Schmalkalden-Meiningen","type":"Landkreis"},"federalState":{"key":"16","name":"Thüringen"}},{"key":"16066056","name":"Rippershausen","type":"Kreisangehörige_Gemeinde","postalCode":"98639","multiplePostalCodes":true,"association":{"key":"16066","name":"Meiningen, Stadt","type":"Erfüllende_Gemeinde"},"district":{"key":"16066","name":"Schmalkalden-Meiningen","type":"Landkreis"},"federalState":{"key":"16","name":"Thüringen"}},{"key":"16066057","name":"Ritschenhausen","type":"Kreisangehörige_Gemeinde","postalCode":"98617","multiplePostalCodes":true,"association":{"key":"16066","name":"Dolmar-Salzbrücke","type":"Verwaltungsgemeinschaft"},"district":{"key":"16066","name":"Schmalkalden-Meiningen","type":"Landkreis"},"federalState":{"key":"16","name":"Thüringen"}},{"key":"16066058","name":"Rohr","type":"Kreisangehörige_Gemeinde","postalCode":"98530","multiplePostalCodes":true,"association":{"key":"16066","name":"Dolmar-Salzbrücke","type":"Verwaltungsgemeinschaft"},"district":{"key":"16066","name":"Schmalkalden-Meiningen","type":"Landkreis"},"federalState":{"key":"16","name":"Thüringen"}},{"key":"16066059","name":"Rosa","type":"Kreisangehörige_Gemeinde","postalCode":"98590","multiplePostalCodes":true,"association":{"key":"16066","name":"Breitungen/Werra","type":"Erfüllende_Gemeinde"},"district":{"key":"16066","name":"Schmalkalden-Meiningen","type":"Landkreis"},"federalState":{"key":"16","name":"Thüringen"}},{"key":"16066061","name":"Roßdorf","type":"Kreisangehörige_Gemeinde","postalCode":"98590","multiplePostalCodes":true,"association":{"key":"16066","name":"Breitungen/Werra","type":"Erfüllende_Gemeinde"},"district":{"key":"16066","name":"Schmalkalden-Meiningen","type":"Landkreis"},"federalState":{"key":"16","name":"Thüringen"}},{"key":"16066063","name":"Schmalkalden, Stadt","type":"Stadt","postalCode":"98574","multiplePostalCodes":false,"association":{"key":"16066","name":"Schmalkalden, Stadt","type":"Verbandsfreie_Gemeinde"},"district":{"key":"16066","name":"Schmalkalden-Meiningen","type":"Landkreis"},"federalState":{"key":"16","name":"Thüringen"}},{"key":"16066064","name":"Schwallungen","type":"Kreisangehörige_Gemeinde","postalCode":"98590","multiplePostalCodes":true,"association":{"key":"16066","name":"Wasungen-Amt Sand","type":"Verwaltungsgemeinschaft"},"district":{"key":"16066","name":"Schmalkalden-Meiningen","type":"Landkreis"},"federalState":{"key":"16","name":"Thüringen"}},{"key":"16066065","name":"Schwarza","type":"Kreisangehörige_Gemeinde","postalCode":"98547","multiplePostalCodes":false,"association":{"key":"16066","name":"Dolmar-Salzbrücke","type":"Verwaltungsgemeinschaft"},"district":{"key":"16066","name":"Schmalkalden-Meiningen","type":"Landkreis"},"federalState":{"key":"16","name":"Thüringen"}},{"key":"16066069","name":"Steinbach-Hallenberg, Stadt","type":"Stadt","postalCode":"98587","multiplePostalCodes":false,"association":{"key":"16066","name":"Steinbach-Hallenberg, Stadt","type":"Verbandsfreie_Gemeinde"},"district":{"key":"16066","name":"Schmalkalden-Meiningen","type":"Landkreis"},"federalState":{"key":"16","name":"Thüringen"}},{"key":"16066073","name":"Sülzfeld","type":"Kreisangehörige_Gemeinde","postalCode":"98617","multiplePostalCodes":false,"association":{"key":"16066","name":"Meiningen, Stadt","type":"Erfüllende_Gemeinde"},"district":{"key":"16066","name":"Schmalkalden-Meiningen","type":"Landkreis"},"federalState":{"key":"16","name":"Thüringen"}},{"key":"16066074","name":"Brotterode-Trusetal, Stadt","type":"Stadt","postalCode":"98596","multiplePostalCodes":false,"association":{"key":"16066","name":"Brotterode-Trusetal, Stadt","type":"Verbandsfreie_Gemeinde"},"district":{"key":"16066","name":"Schmalkalden-Meiningen","type":"Landkreis"},"federalState":{"key":"16","name":"Thüringen"}},{"key":"16066076","name":"Untermaßfeld","type":"Kreisangehörige_Gemeinde","postalCode":"98617","multiplePostalCodes":false,"association":{"key":"16066","name":"Meiningen, Stadt","type":"Erfüllende_Gemeinde"},"district":{"key":"16066","name":"Schmalkalden-Meiningen","type":"Landkreis"},"federalState":{"key":"16","name":"Thüringen"}},{"key":"16066079","name":"Utendorf","type":"Kreisangehörige_Gemeinde","postalCode":"98617","multiplePostalCodes":true,"association":{"key":"16066","name":"Dolmar-Salzbrücke","type":"Verwaltungsgemeinschaft"},"district":{"key":"16066","name":"Schmalkalden-Meiningen","type":"Landkreis"},"federalState":{"key":"16","name":"Thüringen"}},{"key":"16066081","name":"Vachdorf","type":"Kreisangehörige_Gemeinde","postalCode":"98617","multiplePostalCodes":true,"association":{"key":"16066","name":"Dolmar-Salzbrücke","type":"Verwaltungsgemeinschaft"},"district":{"key":"16066","name":"Schmalkalden-Meiningen","type":"Landkreis"},"federalState":{"key":"16","name":"Thüringen"}},{"key":"16066086","name":"Wasungen, Stadt","type":"Stadt","postalCode":"98634","multiplePostalCodes":false,"association":{"key":"16066","name":"Wasungen-Amt Sand","type":"Verwaltungsgemeinschaft"},"district":{"key":"16066","name":"Schmalkalden-Meiningen","type":"Landkreis"},"federalState":{"key":"16","name":"Thüringen"}},{"key":"16066092","name":"Zella-Mehlis, Stadt","type":"Stadt","postalCode":"98544","multiplePostalCodes":false,"association":{"key":"16066","name":"Zella-Mehlis, Stadt","type":"Verbandsfreie_Gemeinde"},"district":{"key":"16066","name":"Schmalkalden-Meiningen","type":"Landkreis"},"federalState":{"key":"16","name":"Thüringen"}},{"key":"16066093","name":"Rhönblick","type":"Kreisangehörige_Gemeinde","postalCode":"98617","multiplePostalCodes":false,"association":{"key":"16066","name":"Rhönblick","type":"Verbandsfreie_Gemeinde"},"district":{"key":"16066","name":"Schmalkalden-Meiningen","type":"Landkreis"},"federalState":{"key":"16","name":"Thüringen"}},{"key":"16066094","name":"Grabfeld","type":"Kreisangehörige_Gemeinde","postalCode":"98631","multiplePostalCodes":false,"association":{"key":"16066","name":"Grabfeld","type":"Verbandsfreie_Gemeinde"},"district":{"key":"16066","name":"Schmalkalden-Meiningen","type":"Landkreis"},"federalState":{"key":"16","name":"Thüringen"}},{"key":"16066095","name":"Kaltennordheim, Stadt","type":"Stadt","postalCode":"36452","multiplePostalCodes":false,"association":{"key":"16066","name":"Hohe Rhön","type":"Verwaltungsgemeinschaft"},"district":{"key":"16066","name":"Schmalkalden-Meiningen","type":"Landkreis"},"federalState":{"key":"16","name":"Thüringen"}}]