[{"key":"01054001","name":"Achtrup","type":"Kreisangehörige_Gemeinde","postalCode":"25917","multiplePostalCodes":false,"association":{"key":"01054","name":"Südtondern","type":"Amt"},"district":{"key":"01054","name":"Nordfriesland","type":"Kreis"},"federalState":{"key":"01","name":"Schleswig-Holstein"}},{"key":"01054002","name":"Ahrenshöft","type":"Kreisangehörige_Gemeinde","postalCode":"25853","multiplePostalCodes":false,"association":{"key":"01054","name":"Mittleres Nordfriesland","type":"Amt"},"district":{"key":"01054","name":"Nordfriesland","type":"Kreis"},"federalState":{"key":"01","name":"Schleswig-Holstein"}},{"key":"01054003","name":"Ahrenviöl","type":"Kreisangehörige_Gemeinde","postalCode":"25885","multiplePostalCodes":false,"association":{"key":"01054","name":"Viöl","type":"Amt"},"district":{"key":"01054","name":"Nordfriesland","type":"Kreis"},"federalState":{"key":"01","name":"Schleswig-Holstein"}},{"key":"01054004","name":"Ahrenviölfeld","type":"Kreisangehörige_Gemeinde","postalCode":"25885","multiplePostalCodes":true,"association":{"key":"01054","name":"Viöl","type":"Amt"},"district":{"key":"01054","name":"Nordfriesland","type":"Kreis"},"federalState":{"key":"01","name":"Schleswig-Holstein"}},{"key":"01054005","name":"Alkersum","type":"Kreisangehörige_Gemeinde","postalCode":"25938","multiplePostalCodes":false,"association":{"key":"01054","name":"Föhr-Amrum","type":"Amt"},"district":{"key":"01054","name":"Nordfriesland","type":"Kreis"},"federalState":{"key":"01","name":"Schleswig-Holstein"}},{"key":"01054006","name":"Almdorf","type":"Kreisangehörige_Gemeinde","postalCode":"25821","multiplePostalCodes":false,"association":{"key":"01054","name":"Mittleres Nordfriesland","type":"Amt"},"district":{"key":"01054","name":"Nordfriesland","type":"Kreis"},"federalState":{"key":"01","name":"Schleswig-Holstein"}},{"key":"01054007","name":"Arlewatt","type":"Kreisangehörige_Gemeinde","postalCode":"25860","multiplePostalCodes":false,"association":{"key":"01054","name":"Nordsee-Treene","type":"Amt"},"district":{"key":"01054","name":"Nordfriesland","type":"Kreis"},"federalState":{"key":"01","name":"Schleswig-Holstein"}},{"key":"01054009","name":"Aventoft","type":"Kreisangehörige_Gemeinde","postalCode":"25927","multiplePostalCodes":false,"association":{"key":"01054","name":"Südtondern","type":"Amt"},"district":{"key":"01054","name":"Nordfriesland","type":"Kreis"},"federalState":{"key":"01","name":"Schleswig-Holstein"}},{"key":"01054010","name":"Bargum","type":"Kreisangehörige_Gemeinde","postalCode":"25842","multiplePostalCodes":false,"association":{"key":"01054","name":"Mittleres Nordfriesland","type":"Amt"},"district":{"key":"01054","name":"Nordfriesland","type":"Kreis"},"federalState":{"key":"01","name":"Schleswig-Holstein"}},{"key":"01054011","name":"Behrendorf","type":"Kreisangehörige_Gemeinde","postalCode":"25850","multiplePostalCodes":false,"association":{"key":"01054","name":"Viöl","type":"Amt"},"district":{"key":"01054","name":"Nordfriesland","type":"Kreis"},"federalState":{"key":"01","name":"Schleswig-Holstein"}},{"key":"01054012","name":"Bohmstedt","type":"Kreisangehörige_Gemeinde","postalCode":"25853","multiplePostalCodes":false,"association":{"key":"01054","name":"Mittleres Nordfriesland","type":"Amt"},"district":{"key":"01054","name":"Nordfriesland","type":"Kreis"},"federalState":{"key":"01","name":"Schleswig-Holstein"}},{"key":"01054013","name":"Bondelum","type":"Kreisangehörige_Gemeinde","postalCode":"25850","multiplePostalCodes":false,"association":{"key":"01054","name":"Viöl","type":"Amt"},"district":{"key":"01054","name":"Nordfriesland","type":"Kreis"},"federalState":{"key":"01","name":"Schleswig-Holstein"}},{"key":"01054014","name":"Bordelum","type":"Kreisangehörige_Gemeinde","postalCode":"25852","multiplePostalCodes":true,"association":{"key":"01054","name":"Mittleres Nordfriesland","type":"Amt"},"district":{"key":"01054","name":"Nordfriesland","type":"Kreis"},"federalState":{"key":"01","name":"Schleswig-Holstein"}},{"key":"01054015","name":"Borgsum","type":"Kreisangehörige_Gemeinde","postalCode":"25938","multiplePostalCodes":false,"association":{"key":"01054","name":"Föhr-Amrum","type":"Amt"},"district":{"key":"01054","name":"Nordfriesland","type":"Kreis"},"federalState":{"key":"01","name":"Schleswig-Holstein"}},{"key":"01054016","name":"Bosbüll","type":"Kreisangehörige_Gemeinde","postalCode":"25899","multiplePostalCodes":false,"association":{"key":"01054","name":"Südtondern","type":"Amt"},"district":{"key":"01054","name":"Nordfriesland","type":"Kreis"},"federalState":{"key":"01","name":"Schleswig-Holstein"}},{"key":"01054017","name":"Braderup","type":"Kreisangehörige_Gemeinde","postalCode":"25923","multiplePostalCodes":false,"association":{"key":"01054","name":"Südtondern","type":"Amt"},"district":{"key":"01054","name":"Nordfriesland","type":"Kreis"},"federalState":{"key":"01","name":"Schleswig-Holstein"}},{"key":"01054018","name":"Bramstedtlund","type":"Kreisangehörige_Gemeinde","postalCode":"25926","multiplePostalCodes":false,"association":{"key":"01054","name":"Südtondern","type":"Amt"},"district":{"key":"01054","name":"Nordfriesland","type":"Kreis"},"federalState":{"key":"01","name":"Schleswig-Holstein"}},{"key":"01054019","name":"Bredstedt, Stadt","type":"Stadt","postalCode":"25821","multiplePostalCodes":false,"association":{"key":"01054","name":"Mittleres Nordfriesland","type":"Amt"},"district":{"key":"01054","name":"Nordfriesland","type":"Kreis"},"federalState":{"key":"01","name":"Schleswig-Holstein"}},{"key":"01054020","name":"Breklum","type":"Kreisangehörige_Gemeinde","postalCode":"25821","multiplePostalCodes":false,"association":{"key":"01054","name":"Mittleres Nordfriesland","type":"Amt"},"district":{"key":"01054","name":"Nordfriesland","type":"Kreis"},"federalState":{"key":"01","name":"Schleswig-Holstein"}},{"key":"01054022","name":"Dagebüll","type":"Kreisangehörige_Gemeinde","postalCode":"25899","multiplePostalCodes":false,"association":{"key":"01054","name":"Südtondern","type":"Amt"},"district":{"key":"01054","name":"Nordfriesland","type":"Kreis"},"federalState":{"key":"01","name":"Schleswig-Holstein"}},{"key":"01054023","name":"Drage","type":"Kreisangehörige_Gemeinde","postalCode":"25878","multiplePostalCodes":true,"association":{"key":"01054","name":"Nordsee-Treene","type":"Amt"},"district":{"key":"01054","name":"Nordfriesland","type":"Kreis"},"federalState":{"key":"01","name":"Schleswig-Holstein"}},{"key":"01054024","name":"Drelsdorf","type":"Kreisangehörige_Gemeinde","postalCode":"25853","multiplePostalCodes":false,"association":{"key":"01054","name":"Mittleres Nordfriesland","type":"Amt"},"district":{"key":"01054","name":"Nordfriesland","type":"Kreis"},"federalState":{"key":"01","name":"Schleswig-Holstein"}},{"key":"01054025","name":"Dunsum","type":"Kreisangehörige_Gemeinde","postalCode":"25938","multiplePostalCodes":false,"association":{"key":"01054","name":"Föhr-Amrum","type":"Amt"},"district":{"key":"01054","name":"Nordfriesland","type":"Kreis"},"federalState":{"key":"01","name":"Schleswig-Holstein"}},{"key":"01054026","name":"Elisabeth-Sophien-Koog","type":"Kreisangehörige_Gemeinde","postalCode":"25845","multiplePostalCodes":false,"association":{"key":"01054","name":"Nordsee-Treene","type":"Amt"},"district":{"key":"01054","name":"Nordfriesland","type":"Kreis"},"federalState":{"key":"01","name":"Schleswig-Holstein"}},{"key":"01054027","name":"Ellhöft","type":"Kreisangehörige_Gemeinde","postalCode":"25923","multiplePostalCodes":false,"association":{"key":"01054","name":"Südtondern","type":"Amt"},"district":{"key":"01054","name":"Nordfriesland","type":"Kreis"},"federalState":{"key":"01","name":"Schleswig-Holstein"}},{"key":"01054032","name":"Fresendelf","type":"Kreisangehörige_Gemeinde","postalCode":"25876","multiplePostalCodes":false,"association":{"key":"01054","name":"Nordsee-Treene","type":"Amt"},"district":{"key":"01054","name":"Nordfriesland","type":"Kreis"},"federalState":{"key":"01","name":"Schleswig-Holstein"}},{"key":"01054033","name":"Friedrichstadt, Stadt","type":"Stadt","postalCode":"25840","multiplePostalCodes":false,"association":{"key":"01054","name":"Friedrichstadt, Stadt","type":"Verbandsfreie_Gemeinde"},"district":{"key":"01054","name":"Nordfriesland","type":"Kreis"},"federalState":{"key":"01","name":"Schleswig-Holstein"}},{"key":"01054034","name":"Friedrich-Wilhelm-Lübke-Koog","type":"Kreisangehörige_Gemeinde","postalCode":"25924","multiplePostalCodes":false,"association":{"key":"01054","name":"Südtondern","type":"Amt"},"district":{"key":"01054","name":"Nordfriesland","type":"Kreis"},"federalState":{"key":"01","name":"Schleswig-Holstein"}},{"key":"01054035","name":"Garding, Kirchspiel","type":"Kreisangehörige_Gemeinde","postalCode":"25836","multiplePostalCodes":false,"association":{"key":"01054","name":"Eiderstedt","type":"Amt"},"district":{"key":"01054","name":"Nordfriesland","type":"Kreis"},"federalState":{"key":"01","name":"Schleswig-Holstein"}},{"key":"01054036","name":"Garding, Stadt","type":"Stadt","postalCode":"25836","multiplePostalCodes":false,"association":{"key":"01054","name":"Eiderstedt","type":"Amt"},"district":{"key":"01054","name":"Nordfriesland","type":"Kreis"},"federalState":{"key":"01","name":"Schleswig-Holstein"}},{"key":"01054037","name":"Goldebek","type":"Kreisangehörige_Gemeinde","postalCode":"25862","multiplePostalCodes":false,"association":{"key":"01054","name":"Mittleres Nordfriesland","type":"Amt"},"district":{"key":"01054","name":"Nordfriesland","type":"Kreis"},"federalState":{"key":"01","name":"Schleswig-Holstein"}},{"key":"01054038","name":"Goldelund","type":"Kreisangehörige_Gemeinde","postalCode":"25862","multiplePostalCodes":false,"association":{"key":"01054","name":"Mittleres Nordfriesland","type":"Amt"},"district":{"key":"01054","name":"Nordfriesland","type":"Kreis"},"federalState":{"key":"01","name":"Schleswig-Holstein"}},{"key":"01054039","name":"Gröde","type":"Kreisangehörige_Gemeinde","postalCode":"25869","multiplePostalCodes":false,"association":{"key":"01054","name":"Pellworm","type":"Amt"},"district":{"key":"01054","name":"Nordfriesland","type":"Kreis"},"federalState":{"key":"01","name":"Schleswig-Holstein"}},{"key":"01054040","name":"Grothusenkoog","type":"Kreisangehörige_Gemeinde","postalCode":"25836","multiplePostalCodes":false,"association":{"key":"01054","name":"Eiderstedt","type":"Amt"},"district":{"key":"01054","name":"Nordfriesland","type":"Kreis"},"federalState":{"key":"01","name":"Schleswig-Holstein"}},{"key":"01054041","name":"Haselund","type":"Kreisangehörige_Gemeinde","postalCode":"25855","multiplePostalCodes":false,"association":{"key":"01054","name":"Viöl","type":"Amt"},"district":{"key":"01054","name":"Nordfriesland","type":"Kreis"},"federalState":{"key":"01","name":"Schleswig-Holstein"}},{"key":"01054042","name":"Hattstedt","type":"Kreisangehörige_Gemeinde","postalCode":"25856","multiplePostalCodes":false,"association":{"key":"01054","name":"Nordsee-Treene","type":"Amt"},"district":{"key":"01054","name":"Nordfriesland","type":"Kreis"},"federalState":{"key":"01","name":"Schleswig-Holstein"}},{"key":"01054043","name":"Hattstedtermarsch","type":"Kreisangehörige_Gemeinde","postalCode":"25856","multiplePostalCodes":false,"association":{"key":"01054","name":"Nordsee-Treene","type":"Amt"},"district":{"key":"01054","name":"Nordfriesland","type":"Kreis"},"federalState":{"key":"01","name":"Schleswig-Holstein"}},{"key":"01054045","name":"Högel","type":"Kreisangehörige_Gemeinde","postalCode":"25858","multiplePostalCodes":false,"association":{"key":"01054","name":"Mittleres Nordfriesland","type":"Amt"},"district":{"key":"01054","name":"Nordfriesland","type":"Kreis"},"federalState":{"key":"01","name":"Schleswig-Holstein"}},{"key":"01054046","name":"Hörnum (Sylt)","type":"Kreisangehörige_Gemeinde","postalCode":"25997","multiplePostalCodes":false,"association":{"key":"01054","name":"Landschaft Sylt","type":"Amt"},"district":{"key":"01054","name":"Nordfriesland","type":"Kreis"},"federalState":{"key":"01","name":"Schleswig-Holstein"}},{"key":"01054048","name":"Holm","type":"Kreisangehörige_Gemeinde","postalCode":"25923","multiplePostalCodes":false,"association":{"key":"01054","name":"Südtondern","type":"Amt"},"district":{"key":"01054","name":"Nordfriesland","type":"Kreis"},"federalState":{"key":"01","name":"Schleswig-Holstein"}},{"key":"01054050","name":"Hallig Hooge","type":"Kreisangehörige_Gemeinde","postalCode":"25859","multiplePostalCodes":false,"association":{"key":"01054","name":"Pellworm","type":"Amt"},"district":{"key":"01054","name":"Nordfriesland","type":"Kreis"},"federalState":{"key":"01","name":"Schleswig-Holstein"}},{"key":"01054052","name":"Horstedt","type":"Kreisangehörige_Gemeinde","postalCode":"25860","multiplePostalCodes":true,"association":{"key":"01054","name":"Nordsee-Treene","type":"Amt"},"district":{"key":"01054","name":"Nordfriesland","type":"Kreis"},"federalState":{"key":"01","name":"Schleswig-Holstein"}},{"key":"01054054","name":"Hude","type":"Kreisangehörige_Gemeinde","postalCode":"25876","multiplePostalCodes":false,"association":{"key":"01054","name":"Nordsee-Treene","type":"Amt"},"district":{"key":"01054","name":"Nordfriesland","type":"Kreis"},"federalState":{"key":"01","name":"Schleswig-Holstein"}},{"key":"01054055","name":"Humptrup","type":"Kreisangehörige_Gemeinde","postalCode":"25923","multiplePostalCodes":false,"association":{"key":"01054","name":"Südtondern","type":"Amt"},"district":{"key":"01054","name":"Nordfriesland","type":"Kreis"},"federalState":{"key":"01","name":"Schleswig-Holstein"}},{"key":"01054056","name":"Husum, Stadt","type":"Stadt","postalCode":"25813","multiplePostalCodes":false,"association":{"key":"01054","name":"Husum, Stadt","type":"Verbandsfreie_Gemeinde"},"district":{"key":"01054","name":"Nordfriesland","type":"Kreis"},"federalState":{"key":"01","name":"Schleswig-Holstein"}},{"key":"01054057","name":"Immenstedt","type":"Kreisangehörige_Gemeinde","postalCode":"25885","multiplePostalCodes":false,"association":{"key":"01054","name":"Viöl","type":"Amt"},"district":{"key":"01054","name":"Nordfriesland","type":"Kreis"},"federalState":{"key":"01","name":"Schleswig-Holstein"}},{"key":"01054059","name":"Joldelund","type":"Kreisangehörige_Gemeinde","postalCode":"25862","multiplePostalCodes":false,"association":{"key":"01054","name":"Mittleres Nordfriesland","type":"Amt"},"district":{"key":"01054","name":"Nordfriesland","type":"Kreis"},"federalState":{"key":"01","name":"Schleswig-Holstein"}},{"key":"01054061","name":"Kampen (Sylt)","type":"Kreisangehörige_Gemeinde","postalCode":"25999","multiplePostalCodes":true,"association":{"key":"01054","name":"Landschaft Sylt","type":"Amt"},"district":{"key":"01054","name":"Nordfriesland","type":"Kreis"},"federalState":{"key":"01","name":"Schleswig-Holstein"}},{"key":"01054062","name":"Karlum","type":"Kreisangehörige_Gemeinde","postalCode":"25926","multiplePostalCodes":false,"association":{"key":"01054","name":"Südtondern","type":"Amt"},"district":{"key":"01054","name":"Nordfriesland","type":"Kreis"},"federalState":{"key":"01","name":"Schleswig-Holstein"}},{"key":"01054063","name":"Katharinenheerd","type":"Kreisangehörige_Gemeinde","postalCode":"25836","multiplePostalCodes":false,"association":{"key":"01054","name":"Eiderstedt","type":"Amt"},"district":{"key":"01054","name":"Nordfriesland","type":"Kreis"},"federalState":{"key":"01","name":"Schleswig-Holstein"}},{"key":"01054065","name":"Klanxbüll","type":"Kreisangehörige_Gemeinde","postalCode":"25924","multiplePostalCodes":false,"association":{"key":"01054","name":"Südtondern","type":"Amt"},"district":{"key":"01054","name":"Nordfriesland","type":"Kreis"},"federalState":{"key":"01","name":"Schleswig-Holstein"}},{"key":"01054068","name":"Klixbüll","type":"Kreisangehörige_Gemeinde","postalCode":"25899","multiplePostalCodes":false,"association":{"key":"01054","name":"Südtondern","type":"Amt"},"district":{"key":"01054","name":"Nordfriesland","type":"Kreis"},"federalState":{"key":"01","name":"Schleswig-Holstein"}},{"key":"01054070","name":"Koldenbüttel","type":"Kreisangehörige_Gemeinde","postalCode":"25840","multiplePostalCodes":false,"association":{"key":"01054","name":"Nordsee-Treene","type":"Amt"},"district":{"key":"01054","name":"Nordfriesland","type":"Kreis"},"federalState":{"key":"01","name":"Schleswig-Holstein"}},{"key":"01054071","name":"Kolkerheide","type":"Kreisangehörige_Gemeinde","postalCode":"25862","multiplePostalCodes":false,"association":{"key":"01054","name":"Mittleres Nordfriesland","type":"Amt"},"district":{"key":"01054","name":"Nordfriesland","type":"Kreis"},"federalState":{"key":"01","name":"Schleswig-Holstein"}},{"key":"01054072","name":"Kotzenbüll","type":"Kreisangehörige_Gemeinde","postalCode":"25832","multiplePostalCodes":false,"association":{"key":"01054","name":"Eiderstedt","type":"Amt"},"district":{"key":"01054","name":"Nordfriesland","type":"Kreis"},"federalState":{"key":"01","name":"Schleswig-Holstein"}},{"key":"01054073","name":"Ladelund","type":"Kreisangehörige_Gemeinde","postalCode":"25926","multiplePostalCodes":false,"association":{"key":"01054","name":"Südtondern","type":"Amt"},"district":{"key":"01054","name":"Nordfriesland","type":"Kreis"},"federalState":{"key":"01","name":"Schleswig-Holstein"}},{"key":"01054074","name":"Langeneß","type":"Kreisangehörige_Gemeinde","postalCode":"25863","multiplePostalCodes":true,"association":{"key":"01054","name":"Pellworm","type":"Amt"},"district":{"key":"01054","name":"Nordfriesland","type":"Kreis"},"federalState":{"key":"01","name":"Schleswig-Holstein"}},{"key":"01054075","name":"Langenhorn","type":"Kreisangehörige_Gemeinde","postalCode":"25842","multiplePostalCodes":false,"association":{"key":"01054","name":"Mittleres Nordfriesland","type":"Amt"},"district":{"key":"01054","name":"Nordfriesland","type":"Kreis"},"federalState":{"key":"01","name":"Schleswig-Holstein"}},{"key":"01054076","name":"Leck","type":"Kreisangehörige_Gemeinde","postalCode":"25917","multiplePostalCodes":false,"association":{"key":"01054","name":"Südtondern","type":"Amt"},"district":{"key":"01054","name":"Nordfriesland","type":"Kreis"},"federalState":{"key":"01","name":"Schleswig-Holstein"}},{"key":"01054077","name":"Lexgaard","type":"Kreisangehörige_Gemeinde","postalCode":"25923","multiplePostalCodes":false,"association":{"key":"01054","name":"Südtondern","type":"Amt"},"district":{"key":"01054","name":"Nordfriesland","type":"Kreis"},"federalState":{"key":"01","name":"Schleswig-Holstein"}},{"key":"01054078","name":"List auf Sylt","type":"Kreisangehörige_Gemeinde","postalCode":"25992","multiplePostalCodes":false,"association":{"key":"01054","name":"Landschaft Sylt","type":"Amt"},"district":{"key":"01054","name":"Nordfriesland","type":"Kreis"},"federalState":{"key":"01","name":"Schleswig-Holstein"}},{"key":"01054079","name":"Löwenstedt","type":"Kreisangehörige_Gemeinde","postalCode":"25864","multiplePostalCodes":false,"association":{"key":"01054","name":"Viöl","type":"Amt"},"district":{"key":"01054","name":"Nordfriesland","type":"Kreis"},"federalState":{"key":"01","name":"Schleswig-Holstein"}},{"key":"01054080","name":"Lütjenholm","type":"Kreisangehörige_Gemeinde","postalCode":"25842","multiplePostalCodes":false,"association":{"key":"01054","name":"Mittleres Nordfriesland","type":"Amt"},"district":{"key":"01054","name":"Nordfriesland","type":"Kreis"},"federalState":{"key":"01","name":"Schleswig-Holstein"}},{"key":"01054083","name":"Midlum","type":"Kreisangehörige_Gemeinde","postalCode":"25938","multiplePostalCodes":false,"association":{"key":"01054","name":"Föhr-Amrum","type":"Amt"},"district":{"key":"01054","name":"Nordfriesland","type":"Kreis"},"federalState":{"key":"01","name":"Schleswig-Holstein"}},{"key":"01054084","name":"Mildstedt","type":"Kreisangehörige_Gemeinde","postalCode":"25866","multiplePostalCodes":false,"association":{"key":"01054","name":"Nordsee-Treene","type":"Amt"},"district":{"key":"01054","name":"Nordfriesland","type":"Kreis"},"federalState":{"key":"01","name":"Schleswig-Holstein"}},{"key":"01054085","name":"Nebel","type":"Kreisangehörige_Gemeinde","postalCode":"25946","multiplePostalCodes":false,"association":{"key":"01054","name":"Föhr-Amrum","type":"Amt"},"district":{"key":"01054","name":"Nordfriesland","type":"Kreis"},"federalState":{"key":"01","name":"Schleswig-Holstein"}},{"key":"01054086","name":"Neukirchen","type":"Kreisangehörige_Gemeinde","postalCode":"25927","multiplePostalCodes":false,"association":{"key":"01054","name":"Südtondern","type":"Amt"},"district":{"key":"01054","name":"Nordfriesland","type":"Kreis"},"federalState":{"key":"01","name":"Schleswig-Holstein"}},{"key":"01054087","name":"Nieblum","type":"Kreisangehörige_Gemeinde","postalCode":"25938","multiplePostalCodes":false,"association":{"key":"01054","name":"Föhr-Amrum","type":"Amt"},"district":{"key":"01054","name":"Nordfriesland","type":"Kreis"},"federalState":{"key":"01","name":"Schleswig-Holstein"}},{"key":"01054088","name":"Niebüll, Stadt","type":"Stadt","postalCode":"25899","multiplePostalCodes":false,"association":{"key":"01054","name":"Südtondern","type":"Amt"},"district":{"key":"01054","name":"Nordfriesland","type":"Kreis"},"federalState":{"key":"01","name":"Schleswig-Holstein"}},{"key":"01054089","name":"Norddorf auf Amrum","type":"Kreisangehörige_Gemeinde","postalCode":"25946","multiplePostalCodes":false,"association":{"key":"01054","name":"Föhr-Amrum","type":"Amt"},"district":{"key":"01054","name":"Nordfriesland","type":"Kreis"},"federalState":{"key":"01","name":"Schleswig-Holstein"}},{"key":"01054090","name":"Norderfriedrichskoog","type":"Kreisangehörige_Gemeinde","postalCode":"25870","multiplePostalCodes":false,"association":{"key":"01054","name":"Eiderstedt","type":"Amt"},"district":{"key":"01054","name":"Nordfriesland","type":"Kreis"},"federalState":{"key":"01","name":"Schleswig-Holstein"}},{"key":"01054091","name":"Nordstrand","type":"Kreisangehörige_Gemeinde","postalCode":"25845","multiplePostalCodes":false,"association":{"key":"01054","name":"Nordsee-Treene","type":"Amt"},"district":{"key":"01054","name":"Nordfriesland","type":"Kreis"},"federalState":{"key":"01","name":"Schleswig-Holstein"}},{"key":"01054092","name":"Norstedt","type":"Kreisangehörige_Gemeinde","postalCode":"25884","multiplePostalCodes":false,"association":{"key":"01054","name":"Viöl","type":"Amt"},"district":{"key":"01054","name":"Nordfriesland","type":"Kreis"},"federalState":{"key":"01","name":"Schleswig-Holstein"}},{"key":"01054093","name":"Ockholm","type":"Kreisangehörige_Gemeinde","postalCode":"25842","multiplePostalCodes":false,"association":{"key":"01054","name":"Mittleres Nordfriesland","type":"Amt"},"district":{"key":"01054","name":"Nordfriesland","type":"Kreis"},"federalState":{"key":"01","name":"Schleswig-Holstein"}},{"key":"01054094","name":"Oevenum","type":"Kreisangehörige_Gemeinde","postalCode":"25938","multiplePostalCodes":false,"association":{"key":"01054","name":"Föhr-Amrum","type":"Amt"},"district":{"key":"01054","name":"Nordfriesland","type":"Kreis"},"federalState":{"key":"01","name":"Schleswig-Holstein"}},{"key":"01054095","name":"Oldenswort","type":"Kreisangehörige_Gemeinde","postalCode":"25870","multiplePostalCodes":false,"association":{"key":"01054","name":"Eiderstedt","type":"Amt"},"district":{"key":"01054","name":"Nordfriesland","type":"Kreis"},"federalState":{"key":"01","name":"Schleswig-Holstein"}},{"key":"01054096","name":"Oldersbek","type":"Kreisangehörige_Gemeinde","postalCode":"25873","multiplePostalCodes":false,"association":{"key":"01054","name":"Nordsee-Treene","type":"Amt"},"district":{"key":"01054","name":"Nordfriesland","type":"Kreis"},"federalState":{"key":"01","name":"Schleswig-Holstein"}},{"key":"01054097","name":"Olderup","type":"Kreisangehörige_Gemeinde","postalCode":"25860","multiplePostalCodes":false,"association":{"key":"01054","name":"Nordsee-Treene","type":"Amt"},"district":{"key":"01054","name":"Nordfriesland","type":"Kreis"},"federalState":{"key":"01","name":"Schleswig-Holstein"}},{"key":"01054098","name":"Oldsum","type":"Kreisangehörige_Gemeinde","postalCode":"25938","multiplePostalCodes":false,"association":{"key":"01054","name":"Föhr-Amrum","type":"Amt"},"district":{"key":"01054","name":"Nordfriesland","type":"Kreis"},"federalState":{"key":"01","name":"Schleswig-Holstein"}},{"key":"01054099","name":"Ostenfeld (Husum)","type":"Kreisangehörige_Gemeinde","postalCode":"25872","multiplePostalCodes":false,"association":{"key":"01054","name":"Nordsee-Treene","type":"Amt"},"district":{"key":"01054","name":"Nordfriesland","type":"Kreis"},"federalState":{"key":"01","name":"Schleswig-Holstein"}},{"key":"01054100","name":"Osterhever","type":"Kreisangehörige_Gemeinde","postalCode":"25836","multiplePostalCodes":false,"association":{"key":"01054","name":"Eiderstedt","type":"Amt"},"district":{"key":"01054","name":"Nordfriesland","type":"Kreis"},"federalState":{"key":"01","name":"Schleswig-Holstein"}},{"key":"01054101","name":"Oster-Ohrstedt","type":"Kreisangehörige_Gemeinde","postalCode":"25885","multiplePostalCodes":false,"association":{"key":"01054","name":"Viöl","type":"Amt"},"district":{"key":"01054","name":"Nordfriesland","type":"Kreis"},"federalState":{"key":"01","name":"Schleswig-Holstein"}},{"key":"01054103","name":"Pellworm","type":"Kreisangehörige_Gemeinde","postalCode":"25849","multiplePostalCodes":true,"association":{"key":"01054","name":"Pellworm","type":"Amt"},"district":{"key":"01054","name":"Nordfriesland","type":"Kreis"},"federalState":{"key":"01","name":"Schleswig-Holstein"}},{"key":"01054104","name":"Poppenbüll","type":"Kreisangehörige_Gemeinde","postalCode":"25836","multiplePostalCodes":false,"association":{"key":"01054","name":"Eiderstedt","type":"Amt"},"district":{"key":"01054","name":"Nordfriesland","type":"Kreis"},"federalState":{"key":"01","name":"Schleswig-Holstein"}},{"key":"01054105","name":"Ramstedt","type":"Kreisangehörige_Gemeinde","postalCode":"25876","multiplePostalCodes":false,"association":{"key":"01054","name":"Nordsee-Treene","type":"Amt"},"district":{"key":"01054","name":"Nordfriesland","type":"Kreis"},"federalState":{"key":"01","name":"Schleswig-Holstein"}},{"key":"01054106","name":"Rantrum","type":"Kreisangehörige_Gemeinde","postalCode":"25873","multiplePostalCodes":false,"association":{"key":"01054","name":"Nordsee-Treene","type":"Amt"},"district":{"key":"01054","name":"Nordfriesland","type":"Kreis"},"federalState":{"key":"01","name":"Schleswig-Holstein"}},{"key":"01054108","name":"Reußenköge","type":"Kreisangehörige_Gemeinde","postalCode":"25821","multiplePostalCodes":false,"association":{"key":"01054","name":"Reußenköge","type":"Verbandsfreie_Gemeinde"},"district":{"key":"01054","name":"Nordfriesland","type":"Kreis"},"federalState":{"key":"01","name":"Schleswig-Holstein"}},{"key":"01054109","name":"Risum-Lindholm","type":"Kreisangehörige_Gemeinde","postalCode":"25920","multiplePostalCodes":true,"association":{"key":"01054","name":"Südtondern","type":"Amt"},"district":{"key":"01054","name":"Nordfriesland","type":"Kreis"},"federalState":{"key":"01","name":"Schleswig-Holstein"}},{"key":"01054110","name":"Rodenäs","type":"Kreisangehörige_Gemeinde","postalCode":"25924","multiplePostalCodes":false,"association":{"key":"01054","name":"Südtondern","type":"Amt"},"district":{"key":"01054","name":"Nordfriesland","type":"Kreis"},"federalState":{"key":"01","name":"Schleswig-Holstein"}},{"key":"01054113","name":"Sankt Peter-Ording","type":"Kreisangehörige_Gemeinde","postalCode":"25826","multiplePostalCodes":false,"association":{"key":"01054","name":"Eiderstedt","type":"Amt"},"district":{"key":"01054","name":"Nordfriesland","type":"Kreis"},"federalState":{"key":"01","name":"Schleswig-Holstein"}},{"key":"01054116","name":"Schwabstedt","type":"Kreisangehörige_Gemeinde","postalCode":"25876","multiplePostalCodes":false,"association":{"key":"01054","name":"Nordsee-Treene","type":"Amt"},"district":{"key":"01054","name":"Nordfriesland","type":"Kreis"},"federalState":{"key":"01","name":"Schleswig-Holstein"}},{"key":"01054118","name":"Schwesing","type":"Kreisangehörige_Gemeinde","postalCode":"25813","multiplePostalCodes":false,"association":{"key":"01054","name":"Viöl","type":"Amt"},"district":{"key":"01054","name":"Nordfriesland","type":"Kreis"},"federalState":{"key":"01","name":"Schleswig-Holstein"}},{"key":"01054119","name":"Seeth","type":"Kreisangehörige_Gemeinde","postalCode":"25878","multiplePostalCodes":true,"association":{"key":"01054","name":"Nordsee-Treene","type":"Amt"},"district":{"key":"01054","name":"Nordfriesland","type":"Kreis"},"federalState":{"key":"01","name":"Schleswig-Holstein"}},{"key":"01054120","name":"Simonsberg","type":"Kreisangehörige_Gemeinde","postalCode":"25813","multiplePostalCodes":false,"association":{"key":"01054","name":"Nordsee-Treene","type":"Amt"},"district":{"key":"01054","name":"Nordfriesland","type":"Kreis"},"federalState":{"key":"01","name":"Schleswig-Holstein"}},{"key":"01054121","name":"Sönnebüll","type":"Kreisangehörige_Gemeinde","postalCode":"25821","multiplePostalCodes":false,"association":{"key":"01054","name":"Mittleres Nordfriesland","type":"Amt"},"district":{"key":"01054","name":"Nordfriesland","type":"Kreis"},"federalState":{"key":"01","name":"Schleswig-Holstein"}},{"key":"01054123","name":"Sollwitt","type":"Kreisangehörige_Gemeinde","postalCode":"25884","multiplePostalCodes":false,"association":{"key":"01054","name":"Viöl","type":"Amt"},"district":{"key":"01054","name":"Nordfriesland","type":"Kreis"},"federalState":{"key":"01","name":"Schleswig-Holstein"}},{"key":"01054124","name":"Sprakebüll","type":"Kreisangehörige_Gemeinde","postalCode":"25917","multiplePostalCodes":false,"association":{"key":"01054","name":"Südtondern","type":"Amt"},"district":{"key":"01054","name":"Nordfriesland","type":"Kreis"},"federalState":{"key":"01","name":"Schleswig-Holstein"}},{"key":"01054125","name":"Stadum","type":"Kreisangehörige_Gemeinde","postalCode":"25917","multiplePostalCodes":false,"association":{"key":"01054","name":"Südtondern","type":"Amt"},"district":{"key":"01054","name":"Nordfriesland","type":"Kreis"},"federalState":{"key":"01","name":"Schleswig-Holstein"}},{"key":"01054126","name":"Stedesand","type":"Kreisangehörige_Gemeinde","postalCode":"25920","multiplePostalCodes":false,"association":{"key":"01054","name":"Südtondern","type":"Amt"},"district":{"key":"01054","name":"Nordfriesland","type":"Kreis"},"federalState":{"key":"01","name":"Schleswig-Holstein"}},{"key":"01054128","name":"Struckum","type":"Kreisangehörige_Gemeinde","postalCode":"25821","multiplePostalCodes":false,"association":{"key":"01054","name":"Mittleres Nordfriesland","type":"Amt"},"district":{"key":"01054","name":"Nordfriesland","type":"Kreis"},"federalState":{"key":"01","name":"Schleswig-Holstein"}},{"key":"01054129","name":"Süderende","type":"Kreisangehörige_Gemeinde","postalCode":"25938","multiplePostalCodes":false,"association":{"key":"01054","name":"Föhr-Amrum","type":"Amt"},"district":{"key":"01054","name":"Nordfriesland","type":"Kreis"},"federalState":{"key":"01","name":"Schleswig-Holstein"}},{"key":"01054130","name":"Süderhöft","type":"Kreisangehörige_Gemeinde","postalCode":"25876","multiplePostalCodes":false,"association":{"key":"01054","name":"Nordsee-Treene","type":"Amt"},"district":{"key":"01054","name":"Nordfriesland","type":"Kreis"},"federalState":{"key":"01","name":"Schleswig-Holstein"}},{"key":"01054131","name":"Süderlügum","type":"Kreisangehörige_Gemeinde","postalCode":"25923","multiplePostalCodes":false,"association":{"key":"01054","name":"Südtondern","type":"Amt"},"district":{"key":"01054","name":"Nordfriesland","type":"Kreis"},"federalState":{"key":"01","name":"Schleswig-Holstein"}},{"key":"01054132","name":"Südermarsch","type":"Kreisangehörige_Gemeinde","postalCode":"25813","multiplePostalCodes":false,"association":{"key":"01054","name":"Nordsee-Treene","type":"Amt"},"district":{"key":"01054","name":"Nordfriesland","type":"Kreis"},"federalState":{"key":"01","name":"Schleswig-Holstein"}},{"key":"01054134","name":"Tating","type":"Kreisangehörige_Gemeinde","postalCode":"25881","multiplePostalCodes":false,"association":{"key":"01054","name":"Eiderstedt","type":"Amt"},"district":{"key":"01054","name":"Nordfriesland","type":"Kreis"},"federalState":{"key":"01","name":"Schleswig-Holstein"}},{"key":"01054135","name":"Tetenbüll","type":"Kreisangehörige_Gemeinde","postalCode":"25882","multiplePostalCodes":false,"association":{"key":"01054","name":"Eiderstedt","type":"Amt"},"district":{"key":"01054","name":"Nordfriesland","type":"Kreis"},"federalState":{"key":"01","name":"Schleswig-Holstein"}},{"key":"01054136","name":"Tinningstedt","type":"Kreisangehörige_Gemeinde","postalCode":"25917","multiplePostalCodes":false,"association":{"key":"01054","name":"Südtondern","type":"Amt"},"district":{"key":"01054","name":"Nordfriesland","type":"Kreis"},"federalState":{"key":"01","name":"Schleswig-Holstein"}},{"key":"01054138","name":"Tönning, Stadt","type":"Stadt","postalCode":"25832","multiplePostalCodes":false,"association":{"key":"01054","name":"Tönning, Stadt","type":"Verbandsfreie_Gemeinde"},"district":{"key":"01054","name":"Nordfriesland","type":"Kreis"},"federalState":{"key":"01","name":"Schleswig-Holstein"}},{"key":"01054140","name":"Tümlauer Koog","type":"Kreisangehörige_Gemeinde","postalCode":"25881","multiplePostalCodes":false,"association":{"key":"01054","name":"Eiderstedt","type":"Amt"},"district":{"key":"01054","name":"Nordfriesland","type":"Kreis"},"federalState":{"key":"01","name":"Schleswig-Holstein"}},{"key":"01054141","name":"Uelvesbüll","type":"Kreisangehörige_Gemeinde","postalCode":"25889","multiplePostalCodes":false,"association":{"key":"01054","name":"Nordsee-Treene","type":"Amt"},"district":{"key":"01054","name":"Nordfriesland","type":"Kreis"},"federalState":{"key":"01","name":"Schleswig-Holstein"}},{"key":"01054142","name":"Uphusum","type":"Kreisangehörige_Gemeinde","postalCode":"25923","multiplePostalCodes":false,"association":{"key":"01054","name":"Südtondern","type":"Amt"},"district":{"key":"01054","name":"Nordfriesland","type":"Kreis"},"federalState":{"key":"01","name":"Schleswig-Holstein"}},{"key":"01054143","name":"Utersum","type":"Kreisangehörige_Gemeinde","postalCode":"25938","multiplePostalCodes":false,"association":{"key":"01054","name":"Föhr-Amrum","type":"Amt"},"district":{"key":"01054","name":"Nordfriesland","type":"Kreis"},"federalState":{"key":"01","name":"Schleswig-Holstein"}},{"key":"01054144","name":"Viöl","type":"Kreisangehörige_Gemeinde","postalCode":"25884","multiplePostalCodes":false,"association":{"key":"01054","name":"Viöl","type":"Amt"},"district":{"key":"01054","name":"Nordfriesland","type":"Kreis"},"federalState":{"key":"01","name":"Schleswig-Holstein"}},{"key":"01054145","name":"Vollerwiek","type":"Kreisangehörige_Gemeinde","postalCode":"25836","multiplePostalCodes":false,"association":{"key":"01054","name":"Eiderstedt","type":"Amt"},"district":{"key":"01054","name":"Nordfriesland","type":"Kreis"},"federalState":{"key":"01","name":"Schleswig-Holstein"}},{"key":"01054146","name":"Vollstedt","type":"Kreisangehörige_Gemeinde","postalCode":"25821","multiplePostalCodes":false,"association":{"key":"01054","name":"Mittleres Nordfriesland","type":"Amt"},"district":{"key":"01054","name":"Nordfriesland","type":"Kreis"},"federalState":{"key":"01","name":"Schleswig-Holstein"}},{"key":"01054148","name":"Welt","type":"Kreisangehörige_Gemeinde","postalCode":"25836","multiplePostalCodes":false,"association":{"key":"01054","name":"Eiderstedt","type":"Amt"},"district":{"key":"01054","name":"Nordfriesland","type":"Kreis"},"federalState":{"key":"01","name":"Schleswig-Holstein"}},{"key":"01054149","name":"Wenningstedt-Braderup (Sylt)","type":"Kreisangehörige_Gemeinde","postalCode":"25996","multiplePostalCodes":false,"association":{"key":"01054","name":"Landschaft Sylt","type":"Amt"},"district":{"key":"01054","name":"Nordfriesland","type":"Kreis"},"federalState":{"key":"01","name":"Schleswig-Holstein"}},{"key":"01054150","name":"Westerhever","type":"Kreisangehörige_Gemeinde","postalCode":"25881","multiplePostalCodes":false,"association":{"key":"01054","name":"Eiderstedt","type":"Amt"},"district":{"key":"01054","name":"Nordfriesland","type":"Kreis"},"federalState":{"key":"01","name":"Schleswig-Holstein"}},{"key":"01054152","name":"Wester-Ohrstedt","type":"Kreisangehörige_Gemeinde","postalCode":"25885","multiplePostalCodes":false,"association":{"key":"01054","name":"Viöl","type":"Amt"},"district":{"key":"01054","name":"Nordfriesland","type":"Kreis"},"federalState":{"key":"01","name":"Schleswig-Holstein"}},{"key":"01054154","name":"Westre","type":"Kreisangehörige_Gemeinde","postalCode":"25926","multiplePostalCodes":false,"association":{"key":"01054","name":"Südtondern","type":"Amt"},"district":{"key":"01054","name":"Nordfriesland","type":"Kreis"},"federalState":{"key":"01","name":"Schleswig-Holstein"}},{"key":"01054156","name":"Winnert","type":"Kreisangehörige_Gemeinde","postalCode":"25887","multiplePostalCodes":false,"association":{"key":"01054","name":"Nordsee-Treene","type":"Amt"},"district":{"key":"01054","name":"Nordfriesland","type":"Kreis"},"federalState":{"key":"01","name":"Schleswig-Holstein"}},{"key":"01054157","name":"Wisch","type":"Kreisangehörige_Gemeinde","postalCode":"25876","multiplePostalCodes":false,"association":{"key":"01054","name":"Nordsee-Treene","type":"Amt"},"district":{"key":"01054","name":"Nordfriesland","type":"Kreis"},"federalState":{"key":"01","name":"Schleswig-Holstein"}},{"key":"01054158","name":"Witsum","type":"Kreisangehörige_Gemeinde","postalCode":"25938","multiplePostalCodes":false,"association":{"key":"01054","name":"Föhr-Amrum","type":"Amt"},"district":{"key":"01054","name":"Nordfriesland","type":"Kreis"},"federalState":{"key":"01","name":"Schleswig-Holstein"}},{"key":"01054159","name":"Wittbek","type":"Kreisangehörige_Gemeinde","postalCode":"25872","multiplePostalCodes":false,"association":{"key":"01054","name":"Nordsee-Treene","type":"Amt"},"district":{"key":"01054","name":"Nordfriesland","type":"Kreis"},"federalState":{"key":"01","name":"Schleswig-Holstein"}},{"key":"01054160","name":"Wittdün auf Amrum","type":"Kreisangehörige_Gemeinde","postalCode":"25946","multiplePostalCodes":false,"association":{"key":"01054","name":"Föhr-Amrum","type":"Amt"},"district":{"key":"01054","name":"Nordfriesland","type":"Kreis"},"federalState":{"key":"01","name":"Schleswig-Holstein"}},{"key":"01054161","name":"Witzwort","type":"Kreisangehörige_Gemeinde","postalCode":"25889","multiplePostalCodes":false,"association":{"key":"01054","name":"Nordsee-Treene","type":"Amt"},"district":{"key":"01054","name":"Nordfriesland","type":"Kreis"},"federalState":{"key":"01","name":"Schleswig-Holstein"}},{"key":"01054162","name":"Wobbenbüll","type":"Kreisangehörige_Gemeinde","postalCode":"25856","multiplePostalCodes":false,"association":{"key":"01054","name":"Nordsee-Treene","type":"Amt"},"district":{"key":"01054","name":"Nordfriesland","type":"Kreis"},"federalState":{"key":"01","name":"Schleswig-Holstein"}},{"key":"01054163","name":"Wrixum","type":"Kreisangehörige_Gemeinde","postalCode":"25938","multiplePostalCodes":false,"association":{"key":"01054","name":"Föhr-Amrum","type":"Amt"},"district":{"key":"01054","name":"Nordfriesland","type":"Kreis"},"federalState":{"key":"01","name":"Schleswig-Holstein"}},{"key":"01054164","name":"Wyk auf Föhr, Stadt","type":"Stadt","postalCode":"25938","multiplePostalCodes":false,"association":{"key":"01054","name":"Föhr-Amrum","type":"Amt"},"district":{"key":"01054","name":"Nordfriesland","type":"Kreis"},"federalState":{"key":"01","name":"Schleswig-Holstein"}},{"key":"01054165","name":"Galmsbüll","type":"Kreisangehörige_Gemeinde","postalCode":"25899","multiplePostalCodes":false,"association":{"key":"01054","name":"Südtondern","type":"Amt"},"district":{"key":"01054","name":"Nordfriesland","type":"Kreis"},"federalState":{"key":"01","name":"Schleswig-Holstein"}},{"key":"01054166","name":"Emmelsbüll-Horsbüll","type":"Kreisangehörige_Gemeinde","postalCode":"25924","multiplePostalCodes":true,"association":{"key":"01054","name":"Südtondern","type":"Amt"},"district":{"key":"01054","name":"Nordfriesland","type":"Kreis"},"federalState":{"key":"01","name":"Schleswig-Holstein"}},{"key":"01054167","name":"Enge-Sande","type":"Kreisangehörige_Gemeinde","postalCode":"25917","multiplePostalCodes":false,"association":{"key":"01054","name":"Südtondern","type":"Amt"},"district":{"key":"01054","name":"Nordfriesland","type":"Kreis"},"federalState":{"key":"01","name":"Schleswig-Holstein"}},{"key":"01054168","name":"Sylt","type":"Kreisangehörige_Gemeinde","postalCode":"25980","multiplePostalCodes":false,"association":{"key":"01054","name":"Sylt","type":"Verbandsfreie_Gemeinde"},"district":{"key":"01054","name":"Nordfriesland","type":"Kreis"},"federalState":{"key":"01","name":"Schleswig-Holstein"}}]