[{"name":"Am Schloss","postalCode":"23936","locality":"Bernstorf","municipality":{"key":"13074005","name":"Bernstorf","type":"Kreisangehörige_Gemeinde"},"district":{"key":"13074","name":"Nordwestmecklenburg","type":"Landkreis"},"federalState":{"key":"13","name":"Mecklenburg-Vorpommern"}},{"name":"Hauptstr.","postalCode":"23936","locality":"Bernstorf","municipality":{"key":"13074005","name":"Bernstorf","type":"Kreisangehörige_Gemeinde"},"district":{"key":"13074","name":"Nordwestmecklenburg","type":"Landkreis"},"federalState":{"key":"13","name":"Mecklenburg-Vorpommern"}},{"name":"Hauptstr. Bernstorf","postalCode":"23936","locality":"Bernstorf","municipality":{"key":"13074005","name":"Bernstorf","type":"Kreisangehörige_Gemeinde"},"district":{"key":"13074","name":"Nordwestmecklenburg","type":"Landkreis"},"federalState":{"key":"13","name":"Mecklenburg-Vorpommern"}},{"name":"Jeese","postalCode":"23936","locality":"Bernstorf","municipality":{"key":"13074005","name":"Bernstorf","type":"Kreisangehörige_Gemeinde"},"district":{"key":"13074","name":"Nordwestmecklenburg","type":"Landkreis"},"federalState":{"key":"13","name":"Mecklenburg-Vorpommern"}},{"name":"Kombinatsweg","postalCode":"23936","locality":"Bernstorf","municipality":{"key":"13074005","name":"Bernstorf","type":"Kreisangehörige_Gemeinde"},"district":{"key":"13074","name":"Nordwestmecklenburg","type":"Landkreis"},"federalState":{"key":"13","name":"Mecklenburg-Vorpommern"}},{"name":"Nebenstr.","postalCode":"23936","locality":"Bernstorf","municipality":{"key":"13074005","name":"Bernstorf","type":"Kreisangehörige_Gemeinde"},"district":{"key":"13074","name":"Nordwestmecklenburg","type":"Landkreis"},"federalState":{"key":"13","name":"Mecklenburg-Vorpommern"}},{"name":"Pieverstorf","postalCode":"23936","locality":"Bernstorf","municipality":{"key":"13074005","name":"Bernstorf","type":"Kreisangehörige_Gemeinde"},"district":{"key":"13074","name":"Nordwestmecklenburg","type":"Landkreis"},"federalState":{"key":"13","name":"Mecklenburg-Vorpommern"}},{"name":"Ringstr.","postalCode":"23936","locality":"Bernstorf","municipality":{"key":"13074005","name":"Bernstorf","type":"Kreisangehörige_Gemeinde"},"district":{"key":"13074","name":"Nordwestmecklenburg","type":"Landkreis"},"federalState":{"key":"13","name":"Mecklenburg-Vorpommern"}},{"name":"Wirtschaftsweg","postalCode":"23936","locality":"Bernstorf","municipality":{"key":"13074005","name":"Bernstorf","type":"Kreisangehörige_Gemeinde"},"district":{"key":"13074","name":"Nordwestmecklenburg","type":"Landkreis"},"federalState":{"key":"13","name":"Mecklenburg-Vorpommern"}},{"name":"Wölschendorf","postalCode":"23936","locality":"Bernstorf","municipality":{"key":"13074005","name":"Bernstorf","type":"Kreisangehörige_Gemeinde"},"district":{"key":"13074","name":"Nordwestmecklenburg","type":"Landkreis"},"federalState":{"key":"13","name":"Mecklenburg-Vorpommern"}},]