[{"name":"80-Morgen-Weg","postalCode":"38524","locality":"Sassenburg","municipality":{"key":"03151025","name":"Sassenburg","type":"Kreisangehörige_Gemeinde"},"district":{"key":"03151","name":"Gifhorn","type":"Landkreis"},"federalState":{"key":"03","name":"Niedersachsen"}},{"name":"Aakweg","postalCode":"59505","locality":"Bad Sassendorf","municipality":{"key":"05974008","name":"Bad Sassendorf","type":"Kreisangehörige_Gemeinde"},"district":{"key":"05974","name":"Soest","type":"Kreis"},"federalState":{"key":"05","name":"Nordrhein-Westfalen"}},{"name":"Aanepool","postalCode":"48336","locality":"Sassenberg","municipality":{"key":"05570036","name":"Sassenberg, Stadt","type":"Stadt"},"district":{"key":"05570","name":"Warendorf","type":"Kreis"},"federalState":{"key":"05","name":"Nordrhein-Westfalen"}},{"name":"Abt-Albert-Hausner-Str.","postalCode":"95652","locality":"Waldsassen","municipality":{"key":"09377158","name":"Waldsassen, St","type":"Stadt"},"district":{"key":"09377","name":"Tirschenreuth","type":"Landkreis"},"federalState":{"key":"09","name":"Bayern"}},{"name":"Achtermannstr.","postalCode":"48336","locality":"Sassenberg","municipality":{"key":"05570036","name":"Sassenberg, Stadt","type":"Stadt"},"district":{"key":"05570","name":"Warendorf","type":"Kreis"},"federalState":{"key":"05","name":"Nordrhein-Westfalen"}},{"name":"Adalbert-Stifter-Str.","postalCode":"95652","locality":"Waldsassen","municipality":{"key":"09377158","name":"Waldsassen, St","type":"Stadt"},"district":{"key":"09377","name":"Tirschenreuth","type":"Landkreis"},"federalState":{"key":"09","name":"Bayern"}},{"name":"Ahornstr.","postalCode":"59505","locality":"Bad Sassendorf","municipality":{"key":"05974008","name":"Bad Sassendorf","type":"Kreisangehörige_Gemeinde"},"district":{"key":"05974","name":"Soest","type":"Kreis"},"federalState":{"key":"05","name":"Nordrhein-Westfalen"}},{"name":"Ahornweg","postalCode":"38524","locality":"Sassenburg","municipality":{"key":"03151025","name":"Sassenburg","type":"Kreisangehörige_Gemeinde"},"district":{"key":"03151","name":"Gifhorn","type":"Landkreis"},"federalState":{"key":"03","name":"Niedersachsen"}},{"name":"Ahseweg","postalCode":"59505","locality":"Bad Sassendorf","municipality":{"key":"05974008","name":"Bad Sassendorf","type":"Kreisangehörige_Gemeinde"},"district":{"key":"05974","name":"Soest","type":"Kreis"},"federalState":{"key":"05","name":"Nordrhein-Westfalen"}},{"name":"Akazienstr.","postalCode":"59505","locality":"Bad Sassendorf","municipality":{"key":"05974008","name":"Bad Sassendorf","type":"Kreisangehörige_Gemeinde"},"district":{"key":"05974","name":"Soest","type":"Kreis"},"federalState":{"key":"05","name":"Nordrhein-Westfalen"}},{"name":"Albert-Otto-Weg","postalCode":"59505","locality":"Bad Sassendorf","municipality":{"key":"05974008","name":"Bad Sassendorf","type":"Kreisangehörige_Gemeinde"},"district":{"key":"05974","name":"Soest","type":"Kreis"},"federalState":{"key":"05","name":"Nordrhein-Westfalen"}},{"name":"Alleestr.","postalCode":"59505","locality":"Bad Sassendorf","municipality":{"key":"05974008","name":"Bad Sassendorf","type":"Kreisangehörige_Gemeinde"},"district":{"key":"05974","name":"Soest","type":"Kreis"},"federalState":{"key":"05","name":"Nordrhein-Westfalen"}},{"name":"Allensteiner Str.","postalCode":"48336","locality":"Sassenberg","municipality":{"key":"05570036","name":"Sassenberg, Stadt","type":"Stadt"},"district":{"key":"05570","name":"Warendorf","type":"Kreis"},"federalState":{"key":"05","name":"Nordrhein-Westfalen"}},{"name":"Allerstr.","postalCode":"38524","locality":"Sassenburg","municipality":{"key":"03151025","name":"Sassenburg","type":"Kreisangehörige_Gemeinde"},"district":{"key":"03151","name":"Gifhorn","type":"Landkreis"},"federalState":{"key":"03","name":"Niedersachsen"}},{"name":"Alte Gräfte","postalCode":"48336","locality":"Sassenberg","municipality":{"key":"05570036","name":"Sassenberg, Stadt","type":"Stadt"},"district":{"key":"05570","name":"Warendorf","type":"Kreis"},"federalState":{"key":"05","name":"Nordrhein-Westfalen"}},{"name":"Alte Ladestr.","postalCode":"59505","locality":"Bad Sassendorf","municipality":{"key":"05974008","name":"Bad Sassendorf","type":"Kreisangehörige_Gemeinde"},"district":{"key":"05974","name":"Soest","type":"Kreis"},"federalState":{"key":"05","name":"Nordrhein-Westfalen"}},{"name":"Alte Landstr.","postalCode":"38524","locality":"Sassenburg","municipality":{"key":"03151025","name":"Sassenburg","type":"Kreisangehörige_Gemeinde"},"district":{"key":"03151","name":"Gifhorn","type":"Landkreis"},"federalState":{"key":"03","name":"Niedersachsen"}},{"name":"Alte Mühle","postalCode":"38524","locality":"Sassenburg","municipality":{"key":"03151025","name":"Sassenburg","type":"Kreisangehörige_Gemeinde"},"district":{"key":"03151","name":"Gifhorn","type":"Landkreis"},"federalState":{"key":"03","name":"Niedersachsen"}},{"name":"Altenhammerweg","postalCode":"95652","locality":"Waldsassen","municipality":{"key":"09377158","name":"Waldsassen, St","type":"Stadt"},"district":{"key":"09377","name":"Tirschenreuth","type":"Landkreis"},"federalState":{"key":"09","name":"Bayern"}},{"name":"Alter Elfser Weg","postalCode":"59505","locality":"Bad Sassendorf","municipality":{"key":"05974008","name":"Bad Sassendorf","type":"Kreisangehörige_Gemeinde"},"district":{"key":"05974","name":"Soest","type":"Kreis"},"federalState":{"key":"05","name":"Nordrhein-Westfalen"}},{"name":"Alter Hellweg","postalCode":"59505","locality":"Bad Sassendorf","municipality":{"key":"05974008","name":"Bad Sassendorf","type":"Kreisangehörige_Gemeinde"},"district":{"key":"05974","name":"Soest","type":"Kreis"},"federalState":{"key":"05","name":"Nordrhein-Westfalen"}},{"name":"Alter Kirchweg","postalCode":"38524","locality":"Sassenburg","municipality":{"key":"03151025","name":"Sassenburg","type":"Kreisangehörige_Gemeinde"},"district":{"key":"03151","name":"Gifhorn","type":"Landkreis"},"federalState":{"key":"03","name":"Niedersachsen"}},{"name":"Alter Steinweg","postalCode":"59505","locality":"Bad Sassendorf","municipality":{"key":"05974008","name":"Bad Sassendorf","type":"Kreisangehörige_Gemeinde"},"district":{"key":"05974","name":"Soest","type":"Kreis"},"federalState":{"key":"05","name":"Nordrhein-Westfalen"}},{"name":"Alte Schulstr.","postalCode":"38524","locality":"Sassenburg","municipality":{"key":"03151025","name":"Sassenburg","type":"Kreisangehörige_Gemeinde"},"district":{"key":"03151","name":"Gifhorn","type":"Landkreis"},"federalState":{"key":"03","name":"Niedersachsen"}},{"name":"Alte Str.","postalCode":"95652","locality":"Waldsassen","municipality":{"key":"09377158","name":"Waldsassen, St","type":"Stadt"},"district":{"key":"09377","name":"Tirschenreuth","type":"Landkreis"},"federalState":{"key":"09","name":"Bayern"}},{"name":"Am Appeldamm","postalCode":"38524","locality":"Sassenburg","municipality":{"key":"03151025","name":"Sassenburg","type":"Kreisangehörige_Gemeinde"},"district":{"key":"03151","name":"Gifhorn","type":"Landkreis"},"federalState":{"key":"03","name":"Niedersachsen"}},{"name":"Am Bahndamm","postalCode":"38524","locality":"Sassenburg","municipality":{"key":"03151025","name":"Sassenburg","type":"Kreisangehörige_Gemeinde"},"district":{"key":"03151","name":"Gifhorn","type":"Landkreis"},"federalState":{"key":"03","name":"Niedersachsen"}},{"name":"Am Bahnhof","postalCode":"59505","locality":"Bad Sassendorf","municipality":{"key":"05974008","name":"Bad Sassendorf","type":"Kreisangehörige_Gemeinde"},"district":{"key":"05974","name":"Soest","type":"Kreis"},"federalState":{"key":"05","name":"Nordrhein-Westfalen"}},{"name":"Am Baisenpoth","postalCode":"59505","locality":"Bad Sassendorf","municipality":{"key":"05974008","name":"Bad Sassendorf","type":"Kreisangehörige_Gemeinde"},"district":{"key":"05974","name":"Soest","type":"Kreis"},"federalState":{"key":"05","name":"Nordrhein-Westfalen"}},{"name":"Am Blöcken","postalCode":"38524","locality":"Sassenburg","municipality":{"key":"03151025","name":"Sassenburg","type":"Kreisangehörige_Gemeinde"},"district":{"key":"03151","name":"Gifhorn","type":"Landkreis"},"federalState":{"key":"03","name":"Niedersachsen"}},{"name":"Am Braken","postalCode":"38524","locality":"Sassenburg","municipality":{"key":"03151025","name":"Sassenburg","type":"Kreisangehörige_Gemeinde"},"district":{"key":"03151","name":"Gifhorn","type":"Landkreis"},"federalState":{"key":"03","name":"Niedersachsen"}},{"name":"Ambrosiusstr.","postalCode":"48336","locality":"Sassenberg","municipality":{"key":"05570036","name":"Sassenberg, Stadt","type":"Stadt"},"district":{"key":"05570","name":"Warendorf","type":"Kreis"},"federalState":{"key":"05","name":"Nordrhein-Westfalen"}},{"name":"Am Buksot","postalCode":"59505","locality":"Bad Sassendorf","municipality":{"key":"05974008","name":"Bad Sassendorf","type":"Kreisangehörige_Gemeinde"},"district":{"key":"05974","name":"Soest","type":"Kreis"},"federalState":{"key":"05","name":"Nordrhein-Westfalen"}},{"name":"Am Damerower Wald","postalCode":"17121","locality":"Sassen-Trantow","municipality":{"key":"13075123","name":"Sassen-Trantow","type":"Kreisangehörige_Gemeinde"},"district":{"key":"13075","name":"Vorpommern-Greifswald","type":"Landkreis"},"federalState":{"key":"13","name":"Mecklenburg-Vorpommern"}},{"name":"Am Dorfplatz","postalCode":"38524","locality":"Sassenburg","municipality":{"key":"03151025","name":"Sassenburg","type":"Kreisangehörige_Gemeinde"},"district":{"key":"03151","name":"Gifhorn","type":"Landkreis"},"federalState":{"key":"03","name":"Niedersachsen"}},{"name":"Am Eichenwald","postalCode":"59505","locality":"Bad Sassendorf","municipality":{"key":"05974008","name":"Bad Sassendorf","type":"Kreisangehörige_Gemeinde"},"district":{"key":"05974","name":"Soest","type":"Kreis"},"federalState":{"key":"05","name":"Nordrhein-Westfalen"}},{"name":"Am Eichweg","postalCode":"59505","locality":"Bad Sassendorf","municipality":{"key":"05974008","name":"Bad Sassendorf","type":"Kreisangehörige_Gemeinde"},"district":{"key":"05974","name":"Soest","type":"Kreis"},"federalState":{"key":"05","name":"Nordrhein-Westfalen"}},{"name":"Am Einbäumchen","postalCode":"59505","locality":"Bad Sassendorf","municipality":{"key":"05974008","name":"Bad Sassendorf","type":"Kreisangehörige_Gemeinde"},"district":{"key":"05974","name":"Soest","type":"Kreis"},"federalState":{"key":"05","name":"Nordrhein-Westfalen"}},{"name":"Am Felde","postalCode":"38524","locality":"Sassenburg","municipality":{"key":"03151025","name":"Sassenburg","type":"Kreisangehörige_Gemeinde"},"district":{"key":"03151","name":"Gifhorn","type":"Landkreis"},"federalState":{"key":"03","name":"Niedersachsen"}},{"name":"Am Hagen","postalCode":"38524","locality":"Sassenburg","municipality":{"key":"03151025","name":"Sassenburg","type":"Kreisangehörige_Gemeinde"},"district":{"key":"03151","name":"Gifhorn","type":"Landkreis"},"federalState":{"key":"03","name":"Niedersachsen"}},{"name":"Am Haienpoth","postalCode":"59505","locality":"Bad Sassendorf","municipality":{"key":"05974008","name":"Bad Sassendorf","type":"Kreisangehörige_Gemeinde"},"district":{"key":"05974","name":"Soest","type":"Kreis"},"federalState":{"key":"05","name":"Nordrhein-Westfalen"}},{"name":"Am Hamannsgarten","postalCode":"95652","locality":"Waldsassen","municipality":{"key":"09377158","name":"Waldsassen, St","type":"Stadt"},"district":{"key":"09377","name":"Tirschenreuth","type":"Landkreis"},"federalState":{"key":"09","name":"Bayern"}},{"name":"Am Haselbach","postalCode":"59505","locality":"Bad Sassendorf","municipality":{"key":"05974008","name":"Bad Sassendorf","type":"Kreisangehörige_Gemeinde"},"district":{"key":"05974","name":"Soest","type":"Kreis"},"federalState":{"key":"05","name":"Nordrhein-Westfalen"}},{"name":"Am Haullenbach","postalCode":"59505","locality":"Bad Sassendorf","municipality":{"key":"05974008","name":"Bad Sassendorf","type":"Kreisangehörige_Gemeinde"},"district":{"key":"05974","name":"Soest","type":"Kreis"},"federalState":{"key":"05","name":"Nordrhein-Westfalen"}},{"name":"Am Heidekrug","postalCode":"38524","locality":"Sassenburg","municipality":{"key":"03151025","name":"Sassenburg","type":"Kreisangehörige_Gemeinde"},"district":{"key":"03151","name":"Gifhorn","type":"Landkreis"},"federalState":{"key":"03","name":"Niedersachsen"}},{"name":"Am Hellenbrink","postalCode":"59505","locality":"Bad Sassendorf","municipality":{"key":"05974008","name":"Bad Sassendorf","type":"Kreisangehörige_Gemeinde"},"district":{"key":"05974","name":"Soest","type":"Kreis"},"federalState":{"key":"05","name":"Nordrhein-Westfalen"}},{"name":"Am Kirchhof","postalCode":"59505","locality":"Bad Sassendorf","municipality":{"key":"05974008","name":"Bad Sassendorf","type":"Kreisangehörige_Gemeinde"},"district":{"key":"05974","name":"Soest","type":"Kreis"},"federalState":{"key":"05","name":"Nordrhein-Westfalen"}},{"name":"Am Knüppeldamm","postalCode":"38524","locality":"Sassenburg","municipality":{"key":"03151025","name":"Sassenburg","type":"Kreisangehörige_Gemeinde"},"district":{"key":"03151","name":"Gifhorn","type":"Landkreis"},"federalState":{"key":"03","name":"Niedersachsen"}},{"name":"Am Lämmeracker","postalCode":"95652","locality":"Waldsassen","municipality":{"key":"09377158","name":"Waldsassen, St","type":"Stadt"},"district":{"key":"09377","name":"Tirschenreuth","type":"Landkreis"},"federalState":{"key":"09","name":"Bayern"}},{"name":"Am Lohof","postalCode":"59505","locality":"Bad Sassendorf","municipality":{"key":"05974008","name":"Bad Sassendorf","type":"Kreisangehörige_Gemeinde"},"district":{"key":"05974","name":"Soest","type":"Kreis"},"federalState":{"key":"05","name":"Nordrhein-Westfalen"}},{"name":"Am Mittelpunkt","postalCode":"38524","locality":"Sassenburg","municipality":{"key":"03151025","name":"Sassenburg","type":"Kreisangehörige_Gemeinde"},"district":{"key":"03151","name":"Gifhorn","type":"Landkreis"},"federalState":{"key":"03","name":"Niedersachsen"}},{"name":"Bachweg","postalCode":"59505","locality":"Bad Sassendorf","municipality":{"key":"05974008","name":"Bad Sassendorf","type":"Kreisangehörige_Gemeinde"},"district":{"key":"05974","name":"Soest","type":"Kreis"},"federalState":{"key":"05","name":"Nordrhein-Westfalen"}},{"name":"Bäckerweg","postalCode":"38524","locality":"Sassenburg","municipality":{"key":"03151025","name":"Sassenburg","type":"Kreisangehörige_Gemeinde"},"district":{"key":"03151","name":"Gifhorn","type":"Landkreis"},"federalState":{"key":"03","name":"Niedersachsen"}},{"name":"Badestr.","postalCode":"59505","locality":"Bad Sassendorf","municipality":{"key":"05974008","name":"Bad Sassendorf","type":"Kreisangehörige_Gemeinde"},"district":{"key":"05974","name":"Soest","type":"Kreis"},"federalState":{"key":"05","name":"Nordrhein-Westfalen"}},{"name":"Badstr.","postalCode":"95652","locality":"Waldsassen","municipality":{"key":"09377158","name":"Waldsassen, St","type":"Stadt"},"district":{"key":"09377","name":"Tirschenreuth","type":"Landkreis"},"federalState":{"key":"09","name":"Bayern"}},{"name":"Bahnhofstr.","postalCode":"38524","locality":"Sassenburg","municipality":{"key":"03151025","name":"Sassenburg","type":"Kreisangehörige_Gemeinde"},"district":{"key":"03151","name":"Gifhorn","type":"Landkreis"},"federalState":{"key":"03","name":"Niedersachsen"}},{"name":"Bahnhofstr.","postalCode":"59505","locality":"Bad Sassendorf","municipality":{"key":"05974008","name":"Bad Sassendorf","type":"Kreisangehörige_Gemeinde"},"district":{"key":"05974","name":"Soest","type":"Kreis"},"federalState":{"key":"05","name":"Nordrhein-Westfalen"}},{"name":"Bahnhofstr.","postalCode":"95652","locality":"Waldsassen","municipality":{"key":"09377158","name":"Waldsassen, St","type":"Stadt"},"district":{"key":"09377","name":"Tirschenreuth","type":"Landkreis"},"federalState":{"key":"09","name":"Bayern"}},{"name":"Barbarastr.","postalCode":"95652","locality":"Waldsassen","municipality":{"key":"09377158","name":"Waldsassen, St","type":"Stadt"},"district":{"key":"09377","name":"Tirschenreuth","type":"Landkreis"},"federalState":{"key":"09","name":"Bayern"}},{"name":"Barwedeler Weg","postalCode":"38524","locality":"Sassenburg","municipality":{"key":"03151025","name":"Sassenburg","type":"Kreisangehörige_Gemeinde"},"district":{"key":"03151","name":"Gifhorn","type":"Landkreis"},"federalState":{"key":"03","name":"Niedersachsen"}},{"name":"Basilikaplatz","postalCode":"95652","locality":"Waldsassen","municipality":{"key":"09377158","name":"Waldsassen, St","type":"Stadt"},"district":{"key":"09377","name":"Tirschenreuth","type":"Landkreis"},"federalState":{"key":"09","name":"Bayern"}},{"name":"Baumeister-Emil-Engel-Str.","postalCode":"95652","locality":"Waldsassen","municipality":{"key":"09377158","name":"Waldsassen, St","type":"Stadt"},"district":{"key":"09377","name":"Tirschenreuth","type":"Landkreis"},"federalState":{"key":"09","name":"Bayern"}},{"name":"Baumschulenstr.","postalCode":"17121","locality":"Sassen-Trantow","municipality":{"key":"13075123","name":"Sassen-Trantow","type":"Kreisangehörige_Gemeinde"},"district":{"key":"13075","name":"Vorpommern-Greifswald","type":"Landkreis"},"federalState":{"key":"13","name":"Mecklenburg-Vorpommern"}},{"name":"Baumschulstr.","postalCode":"17121","locality":"Sassen-Trantow","municipality":{"key":"13075123","name":"Sassen-Trantow","type":"Kreisangehörige_Gemeinde"},"district":{"key":"13075","name":"Vorpommern-Greifswald","type":"Landkreis"},"federalState":{"key":"13","name":"Mecklenburg-Vorpommern"}},{"name":"Bayerlandstr.","postalCode":"95652","locality":"Waldsassen","municipality":{"key":"09377158","name":"Waldsassen, St","type":"Stadt"},"district":{"key":"09377","name":"Tirschenreuth","type":"Landkreis"},"federalState":{"key":"09","name":"Bayern"}},{"name":"Beethovenstr.","postalCode":"48336","locality":"Sassenberg","municipality":{"key":"05570036","name":"Sassenberg, Stadt","type":"Stadt"},"district":{"key":"05570","name":"Warendorf","type":"Kreis"},"federalState":{"key":"05","name":"Nordrhein-Westfalen"}},{"name":"Beethovenweg","postalCode":"59505","locality":"Bad Sassendorf","municipality":{"key":"05974008","name":"Bad Sassendorf","type":"Kreisangehörige_Gemeinde"},"district":{"key":"05974","name":"Soest","type":"Kreis"},"federalState":{"key":"05","name":"Nordrhein-Westfalen"}},{"name":"Bekassinenweg","postalCode":"48336","locality":"Sassenberg","municipality":{"key":"05570036","name":"Sassenberg, Stadt","type":"Stadt"},"district":{"key":"05570","name":"Warendorf","type":"Kreis"},"federalState":{"key":"05","name":"Nordrhein-Westfalen"}},{"name":"Bergstr.","postalCode":"38524","locality":"Sassenburg","municipality":{"key":"03151025","name":"Sassenburg","type":"Kreisangehörige_Gemeinde"},"district":{"key":"03151","name":"Gifhorn","type":"Landkreis"},"federalState":{"key":"03","name":"Niedersachsen"}},{"name":"Berliner Str.","postalCode":"59505","locality":"Bad Sassendorf","municipality":{"key":"05974008","name":"Bad Sassendorf","type":"Kreisangehörige_Gemeinde"},"district":{"key":"05974","name":"Soest","type":"Kreis"},"federalState":{"key":"05","name":"Nordrhein-Westfalen"}},{"name":"Bernhardstr.","postalCode":"48336","locality":"Sassenberg","municipality":{"key":"05570036","name":"Sassenberg, Stadt","type":"Stadt"},"district":{"key":"05570","name":"Warendorf","type":"Kreis"},"federalState":{"key":"05","name":"Nordrhein-Westfalen"}},{"name":"Bernhard-Tarner-Weg","postalCode":"48336","locality":"Sassenberg","municipality":{"key":"05570036","name":"Sassenberg, Stadt","type":"Stadt"},"district":{"key":"05570","name":"Warendorf","type":"Kreis"},"federalState":{"key":"05","name":"Nordrhein-Westfalen"}},{"name":"Bernsteinallee","postalCode":"38524","locality":"Sassenburg","municipality":{"key":"03151025","name":"Sassenburg","type":"Kreisangehörige_Gemeinde"},"district":{"key":"03151","name":"Gifhorn","type":"Landkreis"},"federalState":{"key":"03","name":"Niedersachsen"}},{"name":"Bettinghauser Str.","postalCode":"59505","locality":"Bad Sassendorf","municipality":{"key":"05974008","name":"Bad Sassendorf","type":"Kreisangehörige_Gemeinde"},"district":{"key":"05974","name":"Soest","type":"Kreis"},"federalState":{"key":"05","name":"Nordrhein-Westfalen"}},{"name":"Bettinghauser Weg","postalCode":"59505","locality":"Bad Sassendorf","municipality":{"key":"05974008","name":"Bad Sassendorf","type":"Kreisangehörige_Gemeinde"},"district":{"key":"05974","name":"Soest","type":"Kreis"},"federalState":{"key":"05","name":"Nordrhein-Westfalen"}},{"name":"Beusingser Str.","postalCode":"59505","locality":"Bad Sassendorf","municipality":{"key":"05974008","name":"Bad Sassendorf","type":"Kreisangehörige_Gemeinde"},"district":{"key":"05974","name":"Soest","type":"Kreis"},"federalState":{"key":"05","name":"Nordrhein-Westfalen"}},{"name":"Bevermühle","postalCode":"38524","locality":"Sassenburg","municipality":{"key":"03151025","name":"Sassenburg","type":"Kreisangehörige_Gemeinde"},"district":{"key":"03151","name":"Gifhorn","type":"Landkreis"},"federalState":{"key":"03","name":"Niedersachsen"}},{"name":"Bevermühler Str.","postalCode":"38524","locality":"Sassenburg","municipality":{"key":"03151025","name":"Sassenburg","type":"Kreisangehörige_Gemeinde"},"district":{"key":"03151","name":"Gifhorn","type":"Landkreis"},"federalState":{"key":"03","name":"Niedersachsen"}},{"name":"Binhackstr.","postalCode":"95652","locality":"Waldsassen","municipality":{"key":"09377158","name":"Waldsassen, St","type":"Stadt"},"district":{"key":"09377","name":"Tirschenreuth","type":"Landkreis"},"federalState":{"key":"09","name":"Bayern"}},{"name":"Birkenweg","postalCode":"38524","locality":"Sassenburg","municipality":{"key":"03151025","name":"Sassenburg","type":"Kreisangehörige_Gemeinde"},"district":{"key":"03151","name":"Gifhorn","type":"Landkreis"},"federalState":{"key":"03","name":"Niedersachsen"}},{"name":"Birkenweg","postalCode":"48336","locality":"Sassenberg","municipality":{"key":"05570036","name":"Sassenberg, Stadt","type":"Stadt"},"district":{"key":"05570","name":"Warendorf","type":"Kreis"},"federalState":{"key":"05","name":"Nordrhein-Westfalen"}},{"name":"Birkenweg","postalCode":"56767","locality":"Sassen","municipality":{"key":"07233236","name":"Sassen","type":"Kreisangehörige_Gemeinde"},"district":{"key":"07233","name":"Vulkaneifel","type":"Landkreis"},"federalState":{"key":"07","name":"Rheinland-Pfalz"}},{"name":"Birkenweg","postalCode":"59505","locality":"Bad Sassendorf","municipality":{"key":"05974008","name":"Bad Sassendorf","type":"Kreisangehörige_Gemeinde"},"district":{"key":"05974","name":"Soest","type":"Kreis"},"federalState":{"key":"05","name":"Nordrhein-Westfalen"}},{"name":"Birkhuhnweg","postalCode":"48336","locality":"Sassenberg","municipality":{"key":"05570036","name":"Sassenberg, Stadt","type":"Stadt"},"district":{"key":"05570","name":"Warendorf","type":"Kreis"},"federalState":{"key":"05","name":"Nordrhein-Westfalen"}},{"name":"Birnendamm","postalCode":"38524","locality":"Sassenburg","municipality":{"key":"03151025","name":"Sassenburg","type":"Kreisangehörige_Gemeinde"},"district":{"key":"03151","name":"Gifhorn","type":"Landkreis"},"federalState":{"key":"03","name":"Niedersachsen"}},{"name":"Bischof-Senestrey-Str.","postalCode":"95652","locality":"Waldsassen","municipality":{"key":"09377158","name":"Waldsassen, St","type":"Stadt"},"district":{"key":"09377","name":"Tirschenreuth","type":"Landkreis"},"federalState":{"key":"09","name":"Bayern"}},{"name":"Bisdorfer Str.","postalCode":"17121","locality":"Sassen-Trantow","municipality":{"key":"13075123","name":"Sassen-Trantow","type":"Kreisangehörige_Gemeinde"},"district":{"key":"13075","name":"Vorpommern-Greifswald","type":"Landkreis"},"federalState":{"key":"13","name":"Mecklenburg-Vorpommern"}},{"name":"Bismarckstr.","postalCode":"59505","locality":"Bad Sassendorf","municipality":{"key":"05974008","name":"Bad Sassendorf","type":"Kreisangehörige_Gemeinde"},"district":{"key":"05974","name":"Soest","type":"Kreis"},"federalState":{"key":"05","name":"Nordrhein-Westfalen"}},{"name":"Blaubeergasse","postalCode":"38524","locality":"Sassenburg","municipality":{"key":"03151025","name":"Sassenburg","type":"Kreisangehörige_Gemeinde"},"district":{"key":"03151","name":"Gifhorn","type":"Landkreis"},"federalState":{"key":"03","name":"Niedersachsen"}},{"name":"Bleiche","postalCode":"48336","locality":"Sassenberg","municipality":{"key":"05570036","name":"Sassenberg, Stadt","type":"Stadt"},"district":{"key":"05570","name":"Warendorf","type":"Kreis"},"federalState":{"key":"05","name":"Nordrhein-Westfalen"}},{"name":"Blumenstr.","postalCode":"59505","locality":"Bad Sassendorf","municipality":{"key":"05974008","name":"Bad Sassendorf","type":"Kreisangehörige_Gemeinde"},"district":{"key":"05974","name":"Soest","type":"Kreis"},"federalState":{"key":"05","name":"Nordrhein-Westfalen"}},{"name":"Blumenweg","postalCode":"38524","locality":"Sassenburg","municipality":{"key":"03151025","name":"Sassenburg","type":"Kreisangehörige_Gemeinde"},"district":{"key":"03151","name":"Gifhorn","type":"Landkreis"},"federalState":{"key":"03","name":"Niedersachsen"}},{"name":"Bokensdorfer Weg","postalCode":"38524","locality":"Sassenburg","municipality":{"key":"03151025","name":"Sassenburg","type":"Kreisangehörige_Gemeinde"},"district":{"key":"03151","name":"Gifhorn","type":"Landkreis"},"federalState":{"key":"03","name":"Niedersachsen"}},{"name":"Boklingweg","postalCode":"38524","locality":"Sassenburg","municipality":{"key":"03151025","name":"Sassenburg","type":"Kreisangehörige_Gemeinde"},"district":{"key":"03151","name":"Gifhorn","type":"Landkreis"},"federalState":{"key":"03","name":"Niedersachsen"}},{"name":"Bördenstr.","postalCode":"59505","locality":"Bad Sassendorf","municipality":{"key":"05974008","name":"Bad Sassendorf","type":"Kreisangehörige_Gemeinde"},"district":{"key":"05974","name":"Soest","type":"Kreis"},"federalState":{"key":"05","name":"Nordrhein-Westfalen"}},{"name":"Boven Hoten","postalCode":"59505","locality":"Bad Sassendorf","municipality":{"key":"05974008","name":"Bad Sassendorf","type":"Kreisangehörige_Gemeinde"},"district":{"key":"05974","name":"Soest","type":"Kreis"},"federalState":{"key":"05","name":"Nordrhein-Westfalen"}},{"name":"Brachvogelweg","postalCode":"48336","locality":"Sassenberg","municipality":{"key":"05570036","name":"Sassenberg, Stadt","type":"Stadt"},"district":{"key":"05570","name":"Warendorf","type":"Kreis"},"federalState":{"key":"05","name":"Nordrhein-Westfalen"}},{"name":"Brahmsstr.","postalCode":"48336","locality":"Sassenberg","municipality":{"key":"05570036","name":"Sassenberg, Stadt","type":"Stadt"},"district":{"key":"05570","name":"Warendorf","type":"Kreis"},"federalState":{"key":"05","name":"Nordrhein-Westfalen"}},{"name":"Brauhausstr.","postalCode":"95652","locality":"Waldsassen","municipality":{"key":"09377158","name":"Waldsassen, St","type":"Stadt"},"district":{"key":"09377","name":"Tirschenreuth","type":"Landkreis"},"federalState":{"key":"09","name":"Bayern"}},{"name":"Breeweg","postalCode":"48336","locality":"Sassenberg","municipality":{"key":"05570036","name":"Sassenberg, Stadt","type":"Stadt"},"district":{"key":"05570","name":"Warendorf","type":"Kreis"},"federalState":{"key":"05","name":"Nordrhein-Westfalen"}},{"name":"Breiteweg","postalCode":"59505","locality":"Bad Sassendorf","municipality":{"key":"05974008","name":"Bad Sassendorf","type":"Kreisangehörige_Gemeinde"},"district":{"key":"05974","name":"Soest","type":"Kreis"},"federalState":{"key":"05","name":"Nordrhein-Westfalen"}},{"name":"Carl-Benz-Str.","postalCode":"48336","locality":"Sassenberg","municipality":{"key":"05570036","name":"Sassenberg, Stadt","type":"Stadt"},"district":{"key":"05570","name":"Warendorf","type":"Kreis"},"federalState":{"key":"05","name":"Nordrhein-Westfalen"}},{"name":"Carlonestr.","postalCode":"95652","locality":"Waldsassen","municipality":{"key":"09377158","name":"Waldsassen, St","type":"Stadt"},"district":{"key":"09377","name":"Tirschenreuth","type":"Landkreis"},"federalState":{"key":"09","name":"Bayern"}},{"name":"Carl-Zeiss-Str.","postalCode":"48336","locality":"Sassenberg","municipality":{"key":"05570036","name":"Sassenberg, Stadt","type":"Stadt"},"district":{"key":"05570","name":"Warendorf","type":"Kreis"},"federalState":{"key":"05","name":"Nordrhein-Westfalen"}},{"name":"Chodauer Str.","postalCode":"95652","locality":"Waldsassen","municipality":{"key":"09377158","name":"Waldsassen, St","type":"Stadt"},"district":{"key":"09377","name":"Tirschenreuth","type":"Landkreis"},"federalState":{"key":"09","name":"Bayern"}},{"name":"Christian-Rath-Str.","postalCode":"48336","locality":"Sassenberg","municipality":{"key":"05570036","name":"Sassenberg, Stadt","type":"Stadt"},"district":{"key":"05570","name":"Warendorf","type":"Kreis"},"federalState":{"key":"05","name":"Nordrhein-Westfalen"}},{"name":"Dachsbau","postalCode":"38524","locality":"Sassenburg","municipality":{"key":"03151025","name":"Sassenburg","type":"Kreisangehörige_Gemeinde"},"district":{"key":"03151","name":"Gifhorn","type":"Landkreis"},"federalState":{"key":"03","name":"Niedersachsen"}},{"name":"Dackmar","postalCode":"48336","locality":"Sassenberg","municipality":{"key":"05570036","name":"Sassenberg, Stadt","type":"Stadt"},"district":{"key":"05570","name":"Warendorf","type":"Kreis"},"federalState":{"key":"05","name":"Nordrhein-Westfalen"}},{"name":"Dahleweg","postalCode":"59505","locality":"Bad Sassendorf","municipality":{"key":"05974008","name":"Bad Sassendorf","type":"Kreisangehörige_Gemeinde"},"district":{"key":"05974","name":"Soest","type":"Kreis"},"federalState":{"key":"05","name":"Nordrhein-Westfalen"}},{"name":"Damerower Weg","postalCode":"17121","locality":"Sassen-Trantow","municipality":{"key":"13075123","name":"Sassen-Trantow","type":"Kreisangehörige_Gemeinde"},"district":{"key":"13075","name":"Vorpommern-Greifswald","type":"Landkreis"},"federalState":{"key":"13","name":"Mecklenburg-Vorpommern"}},{"name":"Dämmeweg","postalCode":"38524","locality":"Sassenburg","municipality":{"key":"03151025","name":"Sassenburg","type":"Kreisangehörige_Gemeinde"},"district":{"key":"03151","name":"Gifhorn","type":"Landkreis"},"federalState":{"key":"03","name":"Niedersachsen"}},{"name":"Dannenbütteler Weg","postalCode":"38524","locality":"Sassenburg","municipality":{"key":"03151025","name":"Sassenburg","type":"Kreisangehörige_Gemeinde"},"district":{"key":"03151","name":"Gifhorn","type":"Landkreis"},"federalState":{"key":"03","name":"Niedersachsen"}},{"name":"Danziger Str.","postalCode":"38524","locality":"Sassenburg","municipality":{"key":"03151025","name":"Sassenburg","type":"Kreisangehörige_Gemeinde"},"district":{"key":"03151","name":"Gifhorn","type":"Landkreis"},"federalState":{"key":"03","name":"Niedersachsen"}},{"name":"Danziger Str.","postalCode":"48336","locality":"Sassenberg","municipality":{"key":"05570036","name":"Sassenberg, Stadt","type":"Stadt"},"district":{"key":"05570","name":"Warendorf","type":"Kreis"},"federalState":{"key":"05","name":"Nordrhein-Westfalen"}},{"name":"Dechant-Kondring-Str.","postalCode":"48336","locality":"Sassenberg","municipality":{"key":"05570036","name":"Sassenberg, Stadt","type":"Stadt"},"district":{"key":"05570","name":"Warendorf","type":"Kreis"},"federalState":{"key":"05","name":"Nordrhein-Westfalen"}},{"name":"Demandstr.","postalCode":"59505","locality":"Bad Sassendorf","municipality":{"key":"05974008","name":"Bad Sassendorf","type":"Kreisangehörige_Gemeinde"},"district":{"key":"05974","name":"Soest","type":"Kreis"},"federalState":{"key":"05","name":"Nordrhein-Westfalen"}},{"name":"Dietrich-Bonhoeffer-Weg","postalCode":"48336","locality":"Sassenberg","municipality":{"key":"05570036","name":"Sassenberg, Stadt","type":"Stadt"},"district":{"key":"05570","name":"Warendorf","type":"Kreis"},"federalState":{"key":"05","name":"Nordrhein-Westfalen"}},{"name":"Distelweg","postalCode":"38524","locality":"Sassenburg","municipality":{"key":"03151025","name":"Sassenburg","type":"Kreisangehörige_Gemeinde"},"district":{"key":"03151","name":"Gifhorn","type":"Landkreis"},"federalState":{"key":"03","name":"Niedersachsen"}},{"name":"Döberlstr.","postalCode":"95652","locality":"Waldsassen","municipality":{"key":"09377158","name":"Waldsassen, St","type":"Stadt"},"district":{"key":"09377","name":"Tirschenreuth","type":"Landkreis"},"federalState":{"key":"09","name":"Bayern"}},{"name":"Dorfstr.","postalCode":"38524","locality":"Sassenburg","municipality":{"key":"03151025","name":"Sassenburg","type":"Kreisangehörige_Gemeinde"},"district":{"key":"03151","name":"Gifhorn","type":"Landkreis"},"federalState":{"key":"03","name":"Niedersachsen"}},{"name":"Dorfstr.","postalCode":"59505","locality":"Bad Sassendorf","municipality":{"key":"05974008","name":"Bad Sassendorf","type":"Kreisangehörige_Gemeinde"},"district":{"key":"05974","name":"Soest","type":"Kreis"},"federalState":{"key":"05","name":"Nordrhein-Westfalen"}},{"name":"Dornröschenweg","postalCode":"38524","locality":"Sassenburg","municipality":{"key":"03151025","name":"Sassenburg","type":"Kreisangehörige_Gemeinde"},"district":{"key":"03151","name":"Gifhorn","type":"Landkreis"},"federalState":{"key":"03","name":"Niedersachsen"}},{"name":"Dr.-Bernhard-Riese-Str.","postalCode":"48336","locality":"Sassenberg","municipality":{"key":"05570036","name":"Sassenberg, Stadt","type":"Stadt"},"district":{"key":"05570","name":"Warendorf","type":"Kreis"},"federalState":{"key":"05","name":"Nordrhein-Westfalen"}},{"name":"Dreihüm","postalCode":"48336","locality":"Sassenberg","municipality":{"key":"05570036","name":"Sassenberg, Stadt","type":"Stadt"},"district":{"key":"05570","name":"Warendorf","type":"Kreis"},"federalState":{"key":"05","name":"Nordrhein-Westfalen"}},{"name":"Dreiländerbrücke","postalCode":"38524","locality":"Sassenburg","municipality":{"key":"03151025","name":"Sassenburg","type":"Kreisangehörige_Gemeinde"},"district":{"key":"03151","name":"Gifhorn","type":"Landkreis"},"federalState":{"key":"03","name":"Niedersachsen"}},{"name":"Dresdener Str.","postalCode":"48336","locality":"Sassenberg","municipality":{"key":"05570036","name":"Sassenberg, Stadt","type":"Stadt"},"district":{"key":"05570","name":"Warendorf","type":"Kreis"},"federalState":{"key":"05","name":"Nordrhein-Westfalen"}},{"name":"Dr.-Heim-Str.","postalCode":"95652","locality":"Waldsassen","municipality":{"key":"09377158","name":"Waldsassen, St","type":"Stadt"},"district":{"key":"09377","name":"Tirschenreuth","type":"Landkreis"},"federalState":{"key":"09","name":"Bayern"}},{"name":"Droschkenweg","postalCode":"48336","locality":"Sassenberg","municipality":{"key":"05570036","name":"Sassenberg, Stadt","type":"Stadt"},"district":{"key":"05570","name":"Warendorf","type":"Kreis"},"federalState":{"key":"05","name":"Nordrhein-Westfalen"}},{"name":"Drosselweg","postalCode":"38524","locality":"Sassenburg","municipality":{"key":"03151025","name":"Sassenburg","type":"Kreisangehörige_Gemeinde"},"district":{"key":"03151","name":"Gifhorn","type":"Landkreis"},"federalState":{"key":"03","name":"Niedersachsen"}},{"name":"Drosselweg","postalCode":"48336","locality":"Sassenberg","municipality":{"key":"05570036","name":"Sassenberg, Stadt","type":"Stadt"},"district":{"key":"05570","name":"Warendorf","type":"Kreis"},"federalState":{"key":"05","name":"Nordrhein-Westfalen"}},{"name":"Droste-Hülshoff-Str.","postalCode":"48336","locality":"Sassenberg","municipality":{"key":"05570036","name":"Sassenberg, Stadt","type":"Stadt"},"district":{"key":"05570","name":"Warendorf","type":"Kreis"},"federalState":{"key":"05","name":"Nordrhein-Westfalen"}},{"name":"Drostenstr.","postalCode":"48336","locality":"Sassenberg","municipality":{"key":"05570036","name":"Sassenberg, Stadt","type":"Stadt"},"district":{"key":"05570","name":"Warendorf","type":"Kreis"},"federalState":{"key":"05","name":"Nordrhein-Westfalen"}},{"name":"Dr.-Otto-Seidl-Str.","postalCode":"95652","locality":"Waldsassen","municipality":{"key":"09377158","name":"Waldsassen, St","type":"Stadt"},"district":{"key":"09377","name":"Tirschenreuth","type":"Landkreis"},"federalState":{"key":"09","name":"Bayern"}},{"name":"Dunkler Weg","postalCode":"59505","locality":"Bad Sassendorf","municipality":{"key":"05974008","name":"Bad Sassendorf","type":"Kreisangehörige_Gemeinde"},"district":{"key":"05974","name":"Soest","type":"Kreis"},"federalState":{"key":"05","name":"Nordrhein-Westfalen"}},{"name":"Düsbergstr.","postalCode":"48336","locality":"Sassenberg","municipality":{"key":"05570036","name":"Sassenberg, Stadt","type":"Stadt"},"district":{"key":"05570","name":"Warendorf","type":"Kreis"},"federalState":{"key":"05","name":"Nordrhein-Westfalen"}},{"name":"Edith-Stein-Weg","postalCode":"48336","locality":"Sassenberg","municipality":{"key":"05570036","name":"Sassenberg, Stadt","type":"Stadt"},"district":{"key":"05570","name":"Warendorf","type":"Kreis"},"federalState":{"key":"05","name":"Nordrhein-Westfalen"}},{"name":"Egerer Str.","postalCode":"95652","locality":"Waldsassen","municipality":{"key":"09377158","name":"Waldsassen, St","type":"Stadt"},"district":{"key":"09377","name":"Tirschenreuth","type":"Landkreis"},"federalState":{"key":"09","name":"Bayern"}},{"name":"Egerländer Str.","postalCode":"95652","locality":"Waldsassen","municipality":{"key":"09377158","name":"Waldsassen, St","type":"Stadt"},"district":{"key":"09377","name":"Tirschenreuth","type":"Landkreis"},"federalState":{"key":"09","name":"Bayern"}},{"name":"Egnermühlweg","postalCode":"95652","locality":"Waldsassen","municipality":{"key":"09377158","name":"Waldsassen, St","type":"Stadt"},"district":{"key":"09377","name":"Tirschenreuth","type":"Landkreis"},"federalState":{"key":"09","name":"Bayern"}},{"name":"Eichendorffstr.","postalCode":"59505","locality":"Bad Sassendorf","municipality":{"key":"05974008","name":"Bad Sassendorf","type":"Kreisangehörige_Gemeinde"},"district":{"key":"05974","name":"Soest","type":"Kreis"},"federalState":{"key":"05","name":"Nordrhein-Westfalen"}},{"name":"Eichendorffstr.","postalCode":"95652","locality":"Waldsassen","municipality":{"key":"09377158","name":"Waldsassen, St","type":"Stadt"},"district":{"key":"09377","name":"Tirschenreuth","type":"Landkreis"},"federalState":{"key":"09","name":"Bayern"}},{"name":"Eichenkamp","postalCode":"38524","locality":"Sassenburg","municipality":{"key":"03151025","name":"Sassenburg","type":"Kreisangehörige_Gemeinde"},"district":{"key":"03151","name":"Gifhorn","type":"Landkreis"},"federalState":{"key":"03","name":"Niedersachsen"}},{"name":"Eichenweg","postalCode":"38524","locality":"Sassenburg","municipality":{"key":"03151025","name":"Sassenburg","type":"Kreisangehörige_Gemeinde"},"district":{"key":"03151","name":"Gifhorn","type":"Landkreis"},"federalState":{"key":"03","name":"Niedersachsen"}},{"name":"Eichenweg","postalCode":"48336","locality":"Sassenberg","municipality":{"key":"05570036","name":"Sassenberg, Stadt","type":"Stadt"},"district":{"key":"05570","name":"Warendorf","type":"Kreis"},"federalState":{"key":"05","name":"Nordrhein-Westfalen"}},{"name":"Eichhörnchenweg","postalCode":"38524","locality":"Sassenburg","municipality":{"key":"03151025","name":"Sassenburg","type":"Kreisangehörige_Gemeinde"},"district":{"key":"03151","name":"Gifhorn","type":"Landkreis"},"federalState":{"key":"03","name":"Niedersachsen"}},{"name":"Eichkampweg","postalCode":"59505","locality":"Bad Sassendorf","municipality":{"key":"05974008","name":"Bad Sassendorf","type":"Kreisangehörige_Gemeinde"},"district":{"key":"05974","name":"Soest","type":"Kreis"},"federalState":{"key":"05","name":"Nordrhein-Westfalen"}},{"name":"Eickelborner Str.","postalCode":"59505","locality":"Bad Sassendorf","municipality":{"key":"05974008","name":"Bad Sassendorf","type":"Kreisangehörige_Gemeinde"},"district":{"key":"05974","name":"Soest","type":"Kreis"},"federalState":{"key":"05","name":"Nordrhein-Westfalen"}},{"name":"Elfser Bruch","postalCode":"59505","locality":"Bad Sassendorf","municipality":{"key":"05974008","name":"Bad Sassendorf","type":"Kreisangehörige_Gemeinde"},"district":{"key":"05974","name":"Soest","type":"Kreis"},"federalState":{"key":"05","name":"Nordrhein-Westfalen"}},{"name":"Elfser Markt","postalCode":"59505","locality":"Bad Sassendorf","municipality":{"key":"05974008","name":"Bad Sassendorf","type":"Kreisangehörige_Gemeinde"},"district":{"key":"05974","name":"Soest","type":"Kreis"},"federalState":{"key":"05","name":"Nordrhein-Westfalen"}},{"name":"Elfser Str.","postalCode":"59505","locality":"Bad Sassendorf","municipality":{"key":"05974008","name":"Bad Sassendorf","type":"Kreisangehörige_Gemeinde"},"district":{"key":"05974","name":"Soest","type":"Kreis"},"federalState":{"key":"05","name":"Nordrhein-Westfalen"}},{"name":"Elisabethstr.","postalCode":"48336","locality":"Sassenberg","municipality":{"key":"05570036","name":"Sassenberg, Stadt","type":"Stadt"},"district":{"key":"05570","name":"Warendorf","type":"Kreis"},"federalState":{"key":"05","name":"Nordrhein-Westfalen"}},{"name":"Elsa-Brändström-Str.","postalCode":"95652","locality":"Waldsassen","municipality":{"key":"09377158","name":"Waldsassen, St","type":"Stadt"},"district":{"key":"09377","name":"Tirschenreuth","type":"Landkreis"},"federalState":{"key":"09","name":"Bayern"}},{"name":"Elver Dämmken","postalCode":"48336","locality":"Sassenberg","municipality":{"key":"05570036","name":"Sassenberg, Stadt","type":"Stadt"},"district":{"key":"05570","name":"Warendorf","type":"Kreis"},"federalState":{"key":"05","name":"Nordrhein-Westfalen"}},{"name":"Elverdesstr.","postalCode":"48336","locality":"Sassenberg","municipality":{"key":"05570036","name":"Sassenberg, Stadt","type":"Stadt"},"district":{"key":"05570","name":"Warendorf","type":"Kreis"},"federalState":{"key":"05","name":"Nordrhein-Westfalen"}},{"name":"Emanuel-von-Ketteler-Str.","postalCode":"48336","locality":"Sassenberg","municipality":{"key":"05570036","name":"Sassenberg, Stadt","type":"Stadt"},"district":{"key":"05570","name":"Warendorf","type":"Kreis"},"federalState":{"key":"05","name":"Nordrhein-Westfalen"}},{"name":"Enkeser Soestweg","postalCode":"59505","locality":"Bad Sassendorf","municipality":{"key":"05974008","name":"Bad Sassendorf","type":"Kreisangehörige_Gemeinde"},"district":{"key":"05974","name":"Soest","type":"Kreis"},"federalState":{"key":"05","name":"Nordrhein-Westfalen"}},{"name":"Enkeser Str.","postalCode":"59505","locality":"Bad Sassendorf","municipality":{"key":"05974008","name":"Bad Sassendorf","type":"Kreisangehörige_Gemeinde"},"district":{"key":"05974","name":"Soest","type":"Kreis"},"federalState":{"key":"05","name":"Nordrhein-Westfalen"}},{"name":"Erbrocksweg","postalCode":"59505","locality":"Bad Sassendorf","municipality":{"key":"05974008","name":"Bad Sassendorf","type":"Kreisangehörige_Gemeinde"},"district":{"key":"05974","name":"Soest","type":"Kreis"},"federalState":{"key":"05","name":"Nordrhein-Westfalen"}},{"name":"Erich-Kästner-Str.","postalCode":"48336","locality":"Sassenberg","municipality":{"key":"05570036","name":"Sassenberg, Stadt","type":"Stadt"},"district":{"key":"05570","name":"Warendorf","type":"Kreis"},"federalState":{"key":"05","name":"Nordrhein-Westfalen"}},{"name":"Erlenweg","postalCode":"38524","locality":"Sassenburg","municipality":{"key":"03151025","name":"Sassenburg","type":"Kreisangehörige_Gemeinde"},"district":{"key":"03151","name":"Gifhorn","type":"Landkreis"},"federalState":{"key":"03","name":"Niedersachsen"}},{"name":"Erlenweg","postalCode":"48336","locality":"Sassenberg","municipality":{"key":"05570036","name":"Sassenberg, Stadt","type":"Stadt"},"district":{"key":"05570","name":"Warendorf","type":"Kreis"},"federalState":{"key":"05","name":"Nordrhein-Westfalen"}},{"name":"Erlenweg","postalCode":"59505","locality":"Bad Sassendorf","municipality":{"key":"05974008","name":"Bad Sassendorf","type":"Kreisangehörige_Gemeinde"},"district":{"key":"05974","name":"Soest","type":"Kreis"},"federalState":{"key":"05","name":"Nordrhein-Westfalen"}},{"name":"Ernst-Behrens-Weg","postalCode":"38524","locality":"Sassenburg","municipality":{"key":"03151025","name":"Sassenburg","type":"Kreisangehörige_Gemeinde"},"district":{"key":"03151","name":"Gifhorn","type":"Landkreis"},"federalState":{"key":"03","name":"Niedersachsen"}},{"name":"Eskenholz","postalCode":"59505","locality":"Bad Sassendorf","municipality":{"key":"05974008","name":"Bad Sassendorf","type":"Kreisangehörige_Gemeinde"},"district":{"key":"05974","name":"Soest","type":"Kreis"},"federalState":{"key":"05","name":"Nordrhein-Westfalen"}},{"name":"Eulenweg","postalCode":"38524","locality":"Sassenburg","municipality":{"key":"03151025","name":"Sassenburg","type":"Kreisangehörige_Gemeinde"},"district":{"key":"03151","name":"Gifhorn","type":"Landkreis"},"federalState":{"key":"03","name":"Niedersachsen"}},{"name":"Fasanenweg","postalCode":"48336","locality":"Sassenberg","municipality":{"key":"05570036","name":"Sassenberg, Stadt","type":"Stadt"},"district":{"key":"05570","name":"Warendorf","type":"Kreis"},"federalState":{"key":"05","name":"Nordrhein-Westfalen"}},{"name":"Feldstr.","postalCode":"38524","locality":"Sassenburg","municipality":{"key":"03151025","name":"Sassenburg","type":"Kreisangehörige_Gemeinde"},"district":{"key":"03151","name":"Gifhorn","type":"Landkreis"},"federalState":{"key":"03","name":"Niedersachsen"}},{"name":"Feldweg","postalCode":"17121","locality":"Sassen-Trantow","municipality":{"key":"13075123","name":"Sassen-Trantow","type":"Kreisangehörige_Gemeinde"},"district":{"key":"13075","name":"Vorpommern-Greifswald","type":"Landkreis"},"federalState":{"key":"13","name":"Mecklenburg-Vorpommern"}},{"name":"Ferdinandstr.","postalCode":"48336","locality":"Sassenberg","municipality":{"key":"05570036","name":"Sassenberg, Stadt","type":"Stadt"},"district":{"key":"05570","name":"Warendorf","type":"Kreis"},"federalState":{"key":"05","name":"Nordrhein-Westfalen"}},{"name":"Feuerdornweg","postalCode":"48336","locality":"Sassenberg","municipality":{"key":"05570036","name":"Sassenberg, Stadt","type":"Stadt"},"district":{"key":"05570","name":"Warendorf","type":"Kreis"},"federalState":{"key":"05","name":"Nordrhein-Westfalen"}},{"name":"Feuerkrautstr.","postalCode":"38524","locality":"Sassenburg","municipality":{"key":"03151025","name":"Sassenburg","type":"Kreisangehörige_Gemeinde"},"district":{"key":"03151","name":"Gifhorn","type":"Landkreis"},"federalState":{"key":"03","name":"Niedersachsen"}},{"name":"Fichtenstr.","postalCode":"48336","locality":"Sassenberg","municipality":{"key":"05570036","name":"Sassenberg, Stadt","type":"Stadt"},"district":{"key":"05570","name":"Warendorf","type":"Kreis"},"federalState":{"key":"05","name":"Nordrhein-Westfalen"}},{"name":"Filterberg","postalCode":"38524","locality":"Sassenburg","municipality":{"key":"03151025","name":"Sassenburg","type":"Kreisangehörige_Gemeinde"},"district":{"key":"03151","name":"Gifhorn","type":"Landkreis"},"federalState":{"key":"03","name":"Niedersachsen"}},{"name":"Finkenbühlstr.","postalCode":"95652","locality":"Waldsassen","municipality":{"key":"09377158","name":"Waldsassen, St","type":"Stadt"},"district":{"key":"09377","name":"Tirschenreuth","type":"Landkreis"},"federalState":{"key":"09","name":"Bayern"}},{"name":"Finkenstr.","postalCode":"48336","locality":"Sassenberg","municipality":{"key":"05570036","name":"Sassenberg, Stadt","type":"Stadt"},"district":{"key":"05570","name":"Warendorf","type":"Kreis"},"federalState":{"key":"05","name":"Nordrhein-Westfalen"}},{"name":"Finkenweg","postalCode":"38524","locality":"Sassenburg","municipality":{"key":"03151025","name":"Sassenburg","type":"Kreisangehörige_Gemeinde"},"district":{"key":"03151","name":"Gifhorn","type":"Landkreis"},"federalState":{"key":"03","name":"Niedersachsen"}},{"name":"Flachskamp","postalCode":"48336","locality":"Sassenberg","municipality":{"key":"05570036","name":"Sassenberg, Stadt","type":"Stadt"},"district":{"key":"05570","name":"Warendorf","type":"Kreis"},"federalState":{"key":"05","name":"Nordrhein-Westfalen"}},{"name":"Flachsstr.","postalCode":"48336","locality":"Sassenberg","municipality":{"key":"05570036","name":"Sassenberg, Stadt","type":"Stadt"},"district":{"key":"05570","name":"Warendorf","type":"Kreis"},"federalState":{"key":"05","name":"Nordrhein-Westfalen"}},{"name":"Fliederstr.","postalCode":"48336","locality":"Sassenberg","municipality":{"key":"05570036","name":"Sassenberg, Stadt","type":"Stadt"},"district":{"key":"05570","name":"Warendorf","type":"Kreis"},"federalState":{"key":"05","name":"Nordrhein-Westfalen"}},{"name":"Fliederweg","postalCode":"38524","locality":"Sassenburg","municipality":{"key":"03151025","name":"Sassenburg","type":"Kreisangehörige_Gemeinde"},"district":{"key":"03151","name":"Gifhorn","type":"Landkreis"},"federalState":{"key":"03","name":"Niedersachsen"}},{"name":"Fliederweg","postalCode":"59505","locality":"Bad Sassendorf","municipality":{"key":"05974008","name":"Bad Sassendorf","type":"Kreisangehörige_Gemeinde"},"district":{"key":"05974","name":"Soest","type":"Kreis"},"federalState":{"key":"05","name":"Nordrhein-Westfalen"}},{"name":"Fliegenpilzstr.","postalCode":"38524","locality":"Sassenburg","municipality":{"key":"03151025","name":"Sassenburg","type":"Kreisangehörige_Gemeinde"},"district":{"key":"03151","name":"Gifhorn","type":"Landkreis"},"federalState":{"key":"03","name":"Niedersachsen"}},{"name":"Flurstr.","postalCode":"95652","locality":"Waldsassen","municipality":{"key":"09377158","name":"Waldsassen, St","type":"Stadt"},"district":{"key":"09377","name":"Tirschenreuth","type":"Landkreis"},"federalState":{"key":"09","name":"Bayern"}},{"name":"Föhrenweg","postalCode":"48336","locality":"Sassenberg","municipality":{"key":"05570036","name":"Sassenberg, Stadt","type":"Stadt"},"district":{"key":"05570","name":"Warendorf","type":"Kreis"},"federalState":{"key":"05","name":"Nordrhein-Westfalen"}},{"name":"Fontaneweg","postalCode":"48336","locality":"Sassenberg","municipality":{"key":"05570036","name":"Sassenberg, Stadt","type":"Stadt"},"district":{"key":"05570","name":"Warendorf","type":"Kreis"},"federalState":{"key":"05","name":"Nordrhein-Westfalen"}},{"name":"Forellengasse","postalCode":"38524","locality":"Sassenburg","municipality":{"key":"03151025","name":"Sassenburg","type":"Kreisangehörige_Gemeinde"},"district":{"key":"03151","name":"Gifhorn","type":"Landkreis"},"federalState":{"key":"03","name":"Niedersachsen"}},{"name":"Forkatshofer Weg","postalCode":"95652","locality":"Waldsassen","municipality":{"key":"09377158","name":"Waldsassen, St","type":"Stadt"},"district":{"key":"09377","name":"Tirschenreuth","type":"Landkreis"},"federalState":{"key":"09","name":"Bayern"}},{"name":"Försterweg","postalCode":"38524","locality":"Sassenburg","municipality":{"key":"03151025","name":"Sassenburg","type":"Kreisangehörige_Gemeinde"},"district":{"key":"03151","name":"Gifhorn","type":"Landkreis"},"federalState":{"key":"03","name":"Niedersachsen"}},{"name":"Frankenweg","postalCode":"59505","locality":"Bad Sassendorf","municipality":{"key":"05974008","name":"Bad Sassendorf","type":"Kreisangehörige_Gemeinde"},"district":{"key":"05974","name":"Soest","type":"Kreis"},"federalState":{"key":"05","name":"Nordrhein-Westfalen"}},{"name":"Freiherr-Vom-Stein-Str.","postalCode":"59505","locality":"Bad Sassendorf","municipality":{"key":"05974008","name":"Bad Sassendorf","type":"Kreisangehörige_Gemeinde"},"district":{"key":"05974","name":"Soest","type":"Kreis"},"federalState":{"key":"05","name":"Nordrhein-Westfalen"}},{"name":"Freiligrathstr.","postalCode":"59505","locality":"Bad Sassendorf","municipality":{"key":"05974008","name":"Bad Sassendorf","type":"Kreisangehörige_Gemeinde"},"district":{"key":"05974","name":"Soest","type":"Kreis"},"federalState":{"key":"05","name":"Nordrhein-Westfalen"}},{"name":"Friedhofstr.","postalCode":"38524","locality":"Sassenburg","municipality":{"key":"03151025","name":"Sassenburg","type":"Kreisangehörige_Gemeinde"},"district":{"key":"03151","name":"Gifhorn","type":"Landkreis"},"federalState":{"key":"03","name":"Niedersachsen"}},{"name":"Friedhofstr.","postalCode":"48336","locality":"Sassenberg","municipality":{"key":"05570036","name":"Sassenberg, Stadt","type":"Stadt"},"district":{"key":"05570","name":"Warendorf","type":"Kreis"},"federalState":{"key":"05","name":"Nordrhein-Westfalen"}},{"name":"Friedhofstr.","postalCode":"59505","locality":"Bad Sassendorf","municipality":{"key":"05974008","name":"Bad Sassendorf","type":"Kreisangehörige_Gemeinde"},"district":{"key":"05974","name":"Soest","type":"Kreis"},"federalState":{"key":"05","name":"Nordrhein-Westfalen"}},{"name":"Friedrichstr.","postalCode":"59505","locality":"Bad Sassendorf","municipality":{"key":"05974008","name":"Bad Sassendorf","type":"Kreisangehörige_Gemeinde"},"district":{"key":"05974","name":"Soest","type":"Kreis"},"federalState":{"key":"05","name":"Nordrhein-Westfalen"}},{"name":"Fuchsweg","postalCode":"38524","locality":"Sassenburg","municipality":{"key":"03151025","name":"Sassenburg","type":"Kreisangehörige_Gemeinde"},"district":{"key":"03151","name":"Gifhorn","type":"Landkreis"},"federalState":{"key":"03","name":"Niedersachsen"}},{"name":"Füchtorfer Str.","postalCode":"48336","locality":"Sassenberg","municipality":{"key":"05570036","name":"Sassenberg, Stadt","type":"Stadt"},"district":{"key":"05570","name":"Warendorf","type":"Kreis"},"federalState":{"key":"05","name":"Nordrhein-Westfalen"}},{"name":"Gabrechter Weg","postalCode":"59505","locality":"Bad Sassendorf","municipality":{"key":"05974008","name":"Bad Sassendorf","type":"Kreisangehörige_Gemeinde"},"district":{"key":"05974","name":"Soest","type":"Kreis"},"federalState":{"key":"05","name":"Nordrhein-Westfalen"}},{"name":"Gamser Weg","postalCode":"38524","locality":"Sassenburg","municipality":{"key":"03151025","name":"Sassenburg","type":"Kreisangehörige_Gemeinde"},"district":{"key":"03151","name":"Gifhorn","type":"Landkreis"},"federalState":{"key":"03","name":"Niedersachsen"}},{"name":"Gartenstr.","postalCode":"38524","locality":"Sassenburg","municipality":{"key":"03151025","name":"Sassenburg","type":"Kreisangehörige_Gemeinde"},"district":{"key":"03151","name":"Gifhorn","type":"Landkreis"},"federalState":{"key":"03","name":"Niedersachsen"}},{"name":"Gartenstr.","postalCode":"56767","locality":"Sassen","municipality":{"key":"07233236","name":"Sassen","type":"Kreisangehörige_Gemeinde"},"district":{"key":"07233","name":"Vulkaneifel","type":"Landkreis"},"federalState":{"key":"07","name":"Rheinland-Pfalz"}},{"name":"Gartenstr.","postalCode":"59505","locality":"Bad Sassendorf","municipality":{"key":"05974008","name":"Bad Sassendorf","type":"Kreisangehörige_Gemeinde"},"district":{"key":"05974","name":"Soest","type":"Kreis"},"federalState":{"key":"05","name":"Nordrhein-Westfalen"}},{"name":"Gartenstr.","postalCode":"95652","locality":"Waldsassen","municipality":{"key":"09377158","name":"Waldsassen, St","type":"Stadt"},"district":{"key":"09377","name":"Tirschenreuth","type":"Landkreis"},"federalState":{"key":"09","name":"Bayern"}},{"name":"Gartenweg","postalCode":"48336","locality":"Sassenberg","municipality":{"key":"05570036","name":"Sassenberg, Stadt","type":"Stadt"},"district":{"key":"05570","name":"Warendorf","type":"Kreis"},"federalState":{"key":"05","name":"Nordrhein-Westfalen"}},{"name":"Gebrüder-Geisel-Str.","postalCode":"95652","locality":"Waldsassen","municipality":{"key":"09377158","name":"Waldsassen, St","type":"Stadt"},"district":{"key":"09377","name":"Tirschenreuth","type":"Landkreis"},"federalState":{"key":"09","name":"Bayern"}},{"name":"Georg-Dientzenhofer-Str.","postalCode":"95652","locality":"Waldsassen","municipality":{"key":"09377158","name":"Waldsassen, St","type":"Stadt"},"district":{"key":"09377","name":"Tirschenreuth","type":"Landkreis"},"federalState":{"key":"09","name":"Bayern"}},{"name":"Georgstr.","postalCode":"48336","locality":"Sassenberg","municipality":{"key":"05570036","name":"Sassenberg, Stadt","type":"Stadt"},"district":{"key":"05570","name":"Warendorf","type":"Kreis"},"federalState":{"key":"05","name":"Nordrhein-Westfalen"}},{"name":"Gerwigstr.","postalCode":"95652","locality":"Waldsassen","municipality":{"key":"09377158","name":"Waldsassen, St","type":"Stadt"},"district":{"key":"09377","name":"Tirschenreuth","type":"Landkreis"},"federalState":{"key":"09","name":"Bayern"}},{"name":"Geschwister-Scholl-Weg","postalCode":"48336","locality":"Sassenberg","municipality":{"key":"05570036","name":"Sassenberg, Stadt","type":"Stadt"},"district":{"key":"05570","name":"Warendorf","type":"Kreis"},"federalState":{"key":"05","name":"Nordrhein-Westfalen"}},{"name":"Gifhorner Str.","postalCode":"38524","locality":"Sassenburg","municipality":{"key":"03151025","name":"Sassenburg","type":"Kreisangehörige_Gemeinde"},"district":{"key":"03151","name":"Gifhorn","type":"Landkreis"},"federalState":{"key":"03","name":"Niedersachsen"}},{"name":"Ginsterstr.","postalCode":"48336","locality":"Sassenberg","municipality":{"key":"05570036","name":"Sassenberg, Stadt","type":"Stadt"},"district":{"key":"05570","name":"Warendorf","type":"Kreis"},"federalState":{"key":"05","name":"Nordrhein-Westfalen"}},{"name":"Glandorfer Str.","postalCode":"48336","locality":"Sassenberg","municipality":{"key":"05570036","name":"Sassenberg, Stadt","type":"Stadt"},"district":{"key":"05570","name":"Warendorf","type":"Kreis"},"federalState":{"key":"05","name":"Nordrhein-Westfalen"}},{"name":"Glasbergstr.","postalCode":"95652","locality":"Waldsassen","municipality":{"key":"09377158","name":"Waldsassen, St","type":"Stadt"},"district":{"key":"09377","name":"Tirschenreuth","type":"Landkreis"},"federalState":{"key":"09","name":"Bayern"}},{"name":"Glashüttenweg","postalCode":"38524","locality":"Sassenburg","municipality":{"key":"03151025","name":"Sassenburg","type":"Kreisangehörige_Gemeinde"},"district":{"key":"03151","name":"Gifhorn","type":"Landkreis"},"federalState":{"key":"03","name":"Niedersachsen"}},{"name":"Glashüttenweg","postalCode":"95652","locality":"Waldsassen","municipality":{"key":"09377158","name":"Waldsassen, St","type":"Stadt"},"district":{"key":"09377","name":"Tirschenreuth","type":"Landkreis"},"federalState":{"key":"09","name":"Bayern"}},{"name":"Gleiwitzer Str.","postalCode":"48336","locality":"Sassenberg","municipality":{"key":"05570036","name":"Sassenberg, Stadt","type":"Stadt"},"district":{"key":"05570","name":"Warendorf","type":"Kreis"},"federalState":{"key":"05","name":"Nordrhein-Westfalen"}},{"name":"Goetheplatz","postalCode":"95652","locality":"Waldsassen","municipality":{"key":"09377158","name":"Waldsassen, St","type":"Stadt"},"district":{"key":"09377","name":"Tirschenreuth","type":"Landkreis"},"federalState":{"key":"09","name":"Bayern"}},{"name":"Goethestr.","postalCode":"48336","locality":"Sassenberg","municipality":{"key":"05570036","name":"Sassenberg, Stadt","type":"Stadt"},"district":{"key":"05570","name":"Warendorf","type":"Kreis"},"federalState":{"key":"05","name":"Nordrhein-Westfalen"}},{"name":"Goethestr.","postalCode":"59505","locality":"Bad Sassendorf","municipality":{"key":"05974008","name":"Bad Sassendorf","type":"Kreisangehörige_Gemeinde"},"district":{"key":"05974","name":"Soest","type":"Kreis"},"federalState":{"key":"05","name":"Nordrhein-Westfalen"}},{"name":"Goethestr.","postalCode":"95652","locality":"Waldsassen","municipality":{"key":"09377158","name":"Waldsassen, St","type":"Stadt"},"district":{"key":"09377","name":"Tirschenreuth","type":"Landkreis"},"federalState":{"key":"09","name":"Bayern"}},{"name":"Goren","postalCode":"59505","locality":"Bad Sassendorf","municipality":{"key":"05974008","name":"Bad Sassendorf","type":"Kreisangehörige_Gemeinde"},"district":{"key":"05974","name":"Soest","type":"Kreis"},"federalState":{"key":"05","name":"Nordrhein-Westfalen"}},{"name":"Gösselweg","postalCode":"17121","locality":"Sassen-Trantow","municipality":{"key":"13075123","name":"Sassen-Trantow","type":"Kreisangehörige_Gemeinde"},"district":{"key":"13075","name":"Vorpommern-Greifswald","type":"Landkreis"},"federalState":{"key":"13","name":"Mecklenburg-Vorpommern"}},{"name":"Graffelder Esch","postalCode":"48336","locality":"Sassenberg","municipality":{"key":"05570036","name":"Sassenberg, Stadt","type":"Stadt"},"district":{"key":"05570","name":"Warendorf","type":"Kreis"},"federalState":{"key":"05","name":"Nordrhein-Westfalen"}},{"name":"Grasweg","postalCode":"38524","locality":"Sassenburg","municipality":{"key":"03151025","name":"Sassenburg","type":"Kreisangehörige_Gemeinde"},"district":{"key":"03151","name":"Gifhorn","type":"Landkreis"},"federalState":{"key":"03","name":"Niedersachsen"}},{"name":"Greffener Str.","postalCode":"48336","locality":"Sassenberg","municipality":{"key":"05570036","name":"Sassenberg, Stadt","type":"Stadt"},"district":{"key":"05570","name":"Warendorf","type":"Kreis"},"federalState":{"key":"05","name":"Nordrhein-Westfalen"}},{"name":"Grenzweg","postalCode":"48336","locality":"Sassenberg","municipality":{"key":"05570036","name":"Sassenberg, Stadt","type":"Stadt"},"district":{"key":"05570","name":"Warendorf","type":"Kreis"},"federalState":{"key":"05","name":"Nordrhein-Westfalen"}},{"name":"Gröblingen","postalCode":"48336","locality":"Sassenberg","municipality":{"key":"05570036","name":"Sassenberg, Stadt","type":"Stadt"},"district":{"key":"05570","name":"Warendorf","type":"Kreis"},"federalState":{"key":"05","name":"Nordrhein-Westfalen"}},{"name":"Gröblinger Str.","postalCode":"48336","locality":"Sassenberg","municipality":{"key":"05570036","name":"Sassenberg, Stadt","type":"Stadt"},"district":{"key":"05570","name":"Warendorf","type":"Kreis"},"federalState":{"key":"05","name":"Nordrhein-Westfalen"}},{"name":"Groppenheim","postalCode":"95652","locality":"Waldsassen","municipality":{"key":"09377158","name":"Waldsassen, St","type":"Stadt"},"district":{"key":"09377","name":"Tirschenreuth","type":"Landkreis"},"federalState":{"key":"09","name":"Bayern"}},{"name":"Grüner Grund","postalCode":"48336","locality":"Sassenberg","municipality":{"key":"05570036","name":"Sassenberg, Stadt","type":"Stadt"},"district":{"key":"05570","name":"Warendorf","type":"Kreis"},"federalState":{"key":"05","name":"Nordrhein-Westfalen"}},{"name":"Grüner Weg","postalCode":"38524","locality":"Sassenburg","municipality":{"key":"03151025","name":"Sassenburg","type":"Kreisangehörige_Gemeinde"},"district":{"key":"03151","name":"Gifhorn","type":"Landkreis"},"federalState":{"key":"03","name":"Niedersachsen"}},{"name":"Grüner Weg","postalCode":"59505","locality":"Bad Sassendorf","municipality":{"key":"05974008","name":"Bad Sassendorf","type":"Kreisangehörige_Gemeinde"},"district":{"key":"05974","name":"Soest","type":"Kreis"},"federalState":{"key":"05","name":"Nordrhein-Westfalen"}},{"name":"Grünnersweg","postalCode":"59505","locality":"Bad Sassendorf","municipality":{"key":"05974008","name":"Bad Sassendorf","type":"Kreisangehörige_Gemeinde"},"district":{"key":"05974","name":"Soest","type":"Kreis"},"federalState":{"key":"05","name":"Nordrhein-Westfalen"}},{"name":"Grußendorfer Str.","postalCode":"38524","locality":"Sassenburg","municipality":{"key":"03151025","name":"Sassenburg","type":"Kreisangehörige_Gemeinde"},"district":{"key":"03151","name":"Gifhorn","type":"Landkreis"},"federalState":{"key":"03","name":"Niedersachsen"}},{"name":"Gustav-Rothbart-Ring","postalCode":"38524","locality":"Sassenburg","municipality":{"key":"03151025","name":"Sassenburg","type":"Kreisangehörige_Gemeinde"},"district":{"key":"03151","name":"Gifhorn","type":"Landkreis"},"federalState":{"key":"03","name":"Niedersachsen"}},{"name":"Gutsstr.","postalCode":"38524","locality":"Sassenburg","municipality":{"key":"03151025","name":"Sassenburg","type":"Kreisangehörige_Gemeinde"},"district":{"key":"03151","name":"Gifhorn","type":"Landkreis"},"federalState":{"key":"03","name":"Niedersachsen"}},{"name":"Hagenfeldstr.","postalCode":"38524","locality":"Sassenburg","municipality":{"key":"03151025","name":"Sassenburg","type":"Kreisangehörige_Gemeinde"},"district":{"key":"03151","name":"Gifhorn","type":"Landkreis"},"federalState":{"key":"03","name":"Niedersachsen"}},{"name":"Hagenheis Wieske","postalCode":"48336","locality":"Sassenberg","municipality":{"key":"05570036","name":"Sassenberg, Stadt","type":"Stadt"},"district":{"key":"05570","name":"Warendorf","type":"Kreis"},"federalState":{"key":"05","name":"Nordrhein-Westfalen"}},{"name":"Hagenriede","postalCode":"38524","locality":"Sassenburg","municipality":{"key":"03151025","name":"Sassenburg","type":"Kreisangehörige_Gemeinde"},"district":{"key":"03151","name":"Gifhorn","type":"Landkreis"},"federalState":{"key":"03","name":"Niedersachsen"}},{"name":"Hainbuchenweg","postalCode":"59505","locality":"Bad Sassendorf","municipality":{"key":"05974008","name":"Bad Sassendorf","type":"Kreisangehörige_Gemeinde"},"district":{"key":"05974","name":"Soest","type":"Kreis"},"federalState":{"key":"05","name":"Nordrhein-Westfalen"}},{"name":"Händelweg","postalCode":"59505","locality":"Bad Sassendorf","municipality":{"key":"05974008","name":"Bad Sassendorf","type":"Kreisangehörige_Gemeinde"},"district":{"key":"05974","name":"Soest","type":"Kreis"},"federalState":{"key":"05","name":"Nordrhein-Westfalen"}},{"name":"Hanfstr.","postalCode":"48336","locality":"Sassenberg","municipality":{"key":"05570036","name":"Sassenberg, Stadt","type":"Stadt"},"district":{"key":"05570","name":"Warendorf","type":"Kreis"},"federalState":{"key":"05","name":"Nordrhein-Westfalen"}},{"name":"Hans-Rimpau-Weg","postalCode":"38524","locality":"Sassenburg","municipality":{"key":"03151025","name":"Sassenburg","type":"Kreisangehörige_Gemeinde"},"district":{"key":"03151","name":"Gifhorn","type":"Landkreis"},"federalState":{"key":"03","name":"Niedersachsen"}},{"name":"Hasenbuschweg","postalCode":"38524","locality":"Sassenburg","municipality":{"key":"03151025","name":"Sassenburg","type":"Kreisangehörige_Gemeinde"},"district":{"key":"03151","name":"Gifhorn","type":"Landkreis"},"federalState":{"key":"03","name":"Niedersachsen"}},{"name":"Hasenheide","postalCode":"38524","locality":"Sassenburg","municipality":{"key":"03151025","name":"Sassenburg","type":"Kreisangehörige_Gemeinde"},"district":{"key":"03151","name":"Gifhorn","type":"Landkreis"},"federalState":{"key":"03","name":"Niedersachsen"}},{"name":"Hasenstr.","postalCode":"48336","locality":"Sassenberg","municipality":{"key":"05570036","name":"Sassenberg, Stadt","type":"Stadt"},"district":{"key":"05570","name":"Warendorf","type":"Kreis"},"federalState":{"key":"05","name":"Nordrhein-Westfalen"}},{"name":"Hauptstr.","postalCode":"38524","locality":"Sassenburg","municipality":{"key":"03151025","name":"Sassenburg","type":"Kreisangehörige_Gemeinde"},"district":{"key":"03151","name":"Gifhorn","type":"Landkreis"},"federalState":{"key":"03","name":"Niedersachsen"}},{"name":"Hauptstr.","postalCode":"56767","locality":"Sassen","municipality":{"key":"07233236","name":"Sassen","type":"Kreisangehörige_Gemeinde"},"district":{"key":"07233","name":"Vulkaneifel","type":"Landkreis"},"federalState":{"key":"07","name":"Rheinland-Pfalz"}},{"name":"Hauptstr.","postalCode":"59505","locality":"Bad Sassendorf","municipality":{"key":"05974008","name":"Bad Sassendorf","type":"Kreisangehörige_Gemeinde"},"district":{"key":"05974","name":"Soest","type":"Kreis"},"federalState":{"key":"05","name":"Nordrhein-Westfalen"}},{"name":"Hauptstr.","postalCode":"95652","locality":"Waldsassen","municipality":{"key":"09377158","name":"Waldsassen, St","type":"Stadt"},"district":{"key":"09377","name":"Tirschenreuth","type":"Landkreis"},"federalState":{"key":"09","name":"Bayern"}},{"name":"Hauskämpe","postalCode":"48336","locality":"Sassenberg","municipality":{"key":"05570036","name":"Sassenberg, Stadt","type":"Stadt"},"district":{"key":"05570","name":"Warendorf","type":"Kreis"},"federalState":{"key":"05","name":"Nordrhein-Westfalen"}},{"name":"Haydnstr.","postalCode":"48336","locality":"Sassenberg","municipality":{"key":"05570036","name":"Sassenberg, Stadt","type":"Stadt"},"district":{"key":"05570","name":"Warendorf","type":"Kreis"},"federalState":{"key":"05","name":"Nordrhein-Westfalen"}},{"name":"Heckenweg","postalCode":"48336","locality":"Sassenberg","municipality":{"key":"05570036","name":"Sassenberg, Stadt","type":"Stadt"},"district":{"key":"05570","name":"Warendorf","type":"Kreis"},"federalState":{"key":"05","name":"Nordrhein-Westfalen"}},{"name":"Heerbruch","postalCode":"38524","locality":"Sassenburg","municipality":{"key":"03151025","name":"Sassenburg","type":"Kreisangehörige_Gemeinde"},"district":{"key":"03151","name":"Gifhorn","type":"Landkreis"},"federalState":{"key":"03","name":"Niedersachsen"}},{"name":"Hehler-Bahn","postalCode":"38524","locality":"Sassenburg","municipality":{"key":"03151025","name":"Sassenburg","type":"Kreisangehörige_Gemeinde"},"district":{"key":"03151","name":"Gifhorn","type":"Landkreis"},"federalState":{"key":"03","name":"Niedersachsen"}},{"name":"Heidbrink","postalCode":"38524","locality":"Sassenburg","municipality":{"key":"03151025","name":"Sassenburg","type":"Kreisangehörige_Gemeinde"},"district":{"key":"03151","name":"Gifhorn","type":"Landkreis"},"federalState":{"key":"03","name":"Niedersachsen"}},{"name":"Heidestr.","postalCode":"48336","locality":"Sassenberg","municipality":{"key":"05570036","name":"Sassenberg, Stadt","type":"Stadt"},"district":{"key":"05570","name":"Warendorf","type":"Kreis"},"federalState":{"key":"05","name":"Nordrhein-Westfalen"}},{"name":"Heideweg","postalCode":"38524","locality":"Sassenburg","municipality":{"key":"03151025","name":"Sassenburg","type":"Kreisangehörige_Gemeinde"},"district":{"key":"03151","name":"Gifhorn","type":"Landkreis"},"federalState":{"key":"03","name":"Niedersachsen"}},{"name":"Heinrich-Arnold-Weg","postalCode":"38524","locality":"Sassenburg","municipality":{"key":"03151025","name":"Sassenburg","type":"Kreisangehörige_Gemeinde"},"district":{"key":"03151","name":"Gifhorn","type":"Landkreis"},"federalState":{"key":"03","name":"Niedersachsen"}},{"name":"Heinrich-Lippelt-Weg","postalCode":"38524","locality":"Sassenburg","municipality":{"key":"03151025","name":"Sassenburg","type":"Kreisangehörige_Gemeinde"},"district":{"key":"03151","name":"Gifhorn","type":"Landkreis"},"federalState":{"key":"03","name":"Niedersachsen"}},{"name":"Heinrich-Plötz-Str.","postalCode":"95652","locality":"Waldsassen","municipality":{"key":"09377158","name":"Waldsassen, St","type":"Stadt"},"district":{"key":"09377","name":"Tirschenreuth","type":"Landkreis"},"federalState":{"key":"09","name":"Bayern"}},{"name":"Heinrich-Suhl-Weg","postalCode":"38524","locality":"Sassenburg","municipality":{"key":"03151025","name":"Sassenburg","type":"Kreisangehörige_Gemeinde"},"district":{"key":"03151","name":"Gifhorn","type":"Landkreis"},"federalState":{"key":"03","name":"Niedersachsen"}},{"name":"Heinrich-Tellen-Str.","postalCode":"48336","locality":"Sassenberg","municipality":{"key":"05570036","name":"Sassenberg, Stadt","type":"Stadt"},"district":{"key":"05570","name":"Warendorf","type":"Kreis"},"federalState":{"key":"05","name":"Nordrhein-Westfalen"}},{"name":"Hellweg","postalCode":"59505","locality":"Bad Sassendorf","municipality":{"key":"05974008","name":"Bad Sassendorf","type":"Kreisangehörige_Gemeinde"},"district":{"key":"05974","name":"Soest","type":"Kreis"},"federalState":{"key":"05","name":"Nordrhein-Westfalen"}},{"name":"Hepper Str.","postalCode":"59505","locality":"Bad Sassendorf","municipality":{"key":"05974008","name":"Bad Sassendorf","type":"Kreisangehörige_Gemeinde"},"district":{"key":"05974","name":"Soest","type":"Kreis"},"federalState":{"key":"05","name":"Nordrhein-Westfalen"}},{"name":"Hermann-Buschius-Str.","postalCode":"48336","locality":"Sassenberg","municipality":{"key":"05570036","name":"Sassenberg, Stadt","type":"Stadt"},"district":{"key":"05570","name":"Warendorf","type":"Kreis"},"federalState":{"key":"05","name":"Nordrhein-Westfalen"}},{"name":"Hermann-Koehler-Str.","postalCode":"38524","locality":"Sassenburg","municipality":{"key":"03151025","name":"Sassenburg","type":"Kreisangehörige_Gemeinde"},"district":{"key":"03151","name":"Gifhorn","type":"Landkreis"},"federalState":{"key":"03","name":"Niedersachsen"}},{"name":"Hermann-Löns-Weg","postalCode":"59505","locality":"Bad Sassendorf","municipality":{"key":"05974008","name":"Bad Sassendorf","type":"Kreisangehörige_Gemeinde"},"district":{"key":"05974","name":"Soest","type":"Kreis"},"federalState":{"key":"05","name":"Nordrhein-Westfalen"}},{"name":"Herringser Höfe","postalCode":"59505","locality":"Bad Sassendorf","municipality":{"key":"05974008","name":"Bad Sassendorf","type":"Kreisangehörige_Gemeinde"},"district":{"key":"05974","name":"Soest","type":"Kreis"},"federalState":{"key":"05","name":"Nordrhein-Westfalen"}},{"name":"Herringser Weg","postalCode":"59505","locality":"Bad Sassendorf","municipality":{"key":"05974008","name":"Bad Sassendorf","type":"Kreisangehörige_Gemeinde"},"district":{"key":"05974","name":"Soest","type":"Kreis"},"federalState":{"key":"05","name":"Nordrhein-Westfalen"}},{"name":"Hesselstr.","postalCode":"48336","locality":"Sassenberg","municipality":{"key":"05570036","name":"Sassenberg, Stadt","type":"Stadt"},"district":{"key":"05570","name":"Warendorf","type":"Kreis"},"federalState":{"key":"05","name":"Nordrhein-Westfalen"}},{"name":"Heudamm","postalCode":"38524","locality":"Sassenburg","municipality":{"key":"03151025","name":"Sassenburg","type":"Kreisangehörige_Gemeinde"},"district":{"key":"03151","name":"Gifhorn","type":"Landkreis"},"federalState":{"key":"03","name":"Niedersachsen"}},{"name":"Hexentanzplatz","postalCode":"38524","locality":"Sassenburg","municipality":{"key":"03151025","name":"Sassenburg","type":"Kreisangehörige_Gemeinde"},"district":{"key":"03151","name":"Gifhorn","type":"Landkreis"},"federalState":{"key":"03","name":"Niedersachsen"}},{"name":"Himbeergasse","postalCode":"38524","locality":"Sassenburg","municipality":{"key":"03151025","name":"Sassenburg","type":"Kreisangehörige_Gemeinde"},"district":{"key":"03151","name":"Gifhorn","type":"Landkreis"},"federalState":{"key":"03","name":"Niedersachsen"}},{"name":"Hinter den Grashöfen","postalCode":"38524","locality":"Sassenburg","municipality":{"key":"03151025","name":"Sassenburg","type":"Kreisangehörige_Gemeinde"},"district":{"key":"03151","name":"Gifhorn","type":"Landkreis"},"federalState":{"key":"03","name":"Niedersachsen"}},{"name":"Hinter den Häusern","postalCode":"38524","locality":"Sassenburg","municipality":{"key":"03151025","name":"Sassenburg","type":"Kreisangehörige_Gemeinde"},"district":{"key":"03151","name":"Gifhorn","type":"Landkreis"},"federalState":{"key":"03","name":"Niedersachsen"}},{"name":"Hochäckerweg","postalCode":"95652","locality":"Waldsassen","municipality":{"key":"09377158","name":"Waldsassen, St","type":"Stadt"},"district":{"key":"09377","name":"Tirschenreuth","type":"Landkreis"},"federalState":{"key":"09","name":"Bayern"}},{"name":"Hofäckerstr.","postalCode":"38524","locality":"Sassenburg","municipality":{"key":"03151025","name":"Sassenburg","type":"Kreisangehörige_Gemeinde"},"district":{"key":"03151","name":"Gifhorn","type":"Landkreis"},"federalState":{"key":"03","name":"Niedersachsen"}},{"name":"Hof Haulle","postalCode":"59505","locality":"Bad Sassendorf","municipality":{"key":"05974008","name":"Bad Sassendorf","type":"Kreisangehörige_Gemeinde"},"district":{"key":"05974","name":"Soest","type":"Kreis"},"federalState":{"key":"05","name":"Nordrhein-Westfalen"}},{"name":"Hohe Luft","postalCode":"38524","locality":"Sassenburg","municipality":{"key":"03151025","name":"Sassenburg","type":"Kreisangehörige_Gemeinde"},"district":{"key":"03151","name":"Gifhorn","type":"Landkreis"},"federalState":{"key":"03","name":"Niedersachsen"}},{"name":"Hohenleipischweg","postalCode":"38524","locality":"Sassenburg","municipality":{"key":"03151025","name":"Sassenburg","type":"Kreisangehörige_Gemeinde"},"district":{"key":"03151","name":"Gifhorn","type":"Landkreis"},"federalState":{"key":"03","name":"Niedersachsen"}},{"name":"Hohlweg","postalCode":"95652","locality":"Waldsassen","municipality":{"key":"09377158","name":"Waldsassen, St","type":"Stadt"},"district":{"key":"09377","name":"Tirschenreuth","type":"Landkreis"},"federalState":{"key":"09","name":"Bayern"}},{"name":"Holunderstr.","postalCode":"48336","locality":"Sassenberg","municipality":{"key":"05570036","name":"Sassenberg, Stadt","type":"Stadt"},"district":{"key":"05570","name":"Warendorf","type":"Kreis"},"federalState":{"key":"05","name":"Nordrhein-Westfalen"}},{"name":"Holunderweg","postalCode":"38524","locality":"Sassenburg","municipality":{"key":"03151025","name":"Sassenburg","type":"Kreisangehörige_Gemeinde"},"district":{"key":"03151","name":"Gifhorn","type":"Landkreis"},"federalState":{"key":"03","name":"Niedersachsen"}},{"name":"Holzstr.","postalCode":"59505","locality":"Bad Sassendorf","municipality":{"key":"05974008","name":"Bad Sassendorf","type":"Kreisangehörige_Gemeinde"},"district":{"key":"05974","name":"Soest","type":"Kreis"},"federalState":{"key":"05","name":"Nordrhein-Westfalen"}},{"name":"Holzwiesenweg","postalCode":"38524","locality":"Sassenburg","municipality":{"key":"03151025","name":"Sassenburg","type":"Kreisangehörige_Gemeinde"},"district":{"key":"03151","name":"Gifhorn","type":"Landkreis"},"federalState":{"key":"03","name":"Niedersachsen"}},{"name":"Igelgasse","postalCode":"38524","locality":"Sassenburg","municipality":{"key":"03151025","name":"Sassenburg","type":"Kreisangehörige_Gemeinde"},"district":{"key":"03151","name":"Gifhorn","type":"Landkreis"},"federalState":{"key":"03","name":"Niedersachsen"}},{"name":"Iltisweg","postalCode":"38524","locality":"Sassenburg","municipality":{"key":"03151025","name":"Sassenburg","type":"Kreisangehörige_Gemeinde"},"district":{"key":"03151","name":"Gifhorn","type":"Landkreis"},"federalState":{"key":"03","name":"Niedersachsen"}},{"name":"Im Baukelsfeld","postalCode":"38524","locality":"Sassenburg","municipality":{"key":"03151025","name":"Sassenburg","type":"Kreisangehörige_Gemeinde"},"district":{"key":"03151","name":"Gifhorn","type":"Landkreis"},"federalState":{"key":"03","name":"Niedersachsen"}},{"name":"Im Blecken","postalCode":"38524","locality":"Sassenburg","municipality":{"key":"03151025","name":"Sassenburg","type":"Kreisangehörige_Gemeinde"},"district":{"key":"03151","name":"Gifhorn","type":"Landkreis"},"federalState":{"key":"03","name":"Niedersachsen"}},{"name":"Im Bruch","postalCode":"59505","locality":"Bad Sassendorf","municipality":{"key":"05974008","name":"Bad Sassendorf","type":"Kreisangehörige_Gemeinde"},"district":{"key":"05974","name":"Soest","type":"Kreis"},"federalState":{"key":"05","name":"Nordrhein-Westfalen"}},{"name":"Im Dorfwinkel","postalCode":"38524","locality":"Sassenburg","municipality":{"key":"03151025","name":"Sassenburg","type":"Kreisangehörige_Gemeinde"},"district":{"key":"03151","name":"Gifhorn","type":"Landkreis"},"federalState":{"key":"03","name":"Niedersachsen"}},{"name":"Im Dragen","postalCode":"38524","locality":"Sassenburg","municipality":{"key":"03151025","name":"Sassenburg","type":"Kreisangehörige_Gemeinde"},"district":{"key":"03151","name":"Gifhorn","type":"Landkreis"},"federalState":{"key":"03","name":"Niedersachsen"}},{"name":"Im Flassroden","postalCode":"38524","locality":"Sassenburg","municipality":{"key":"03151025","name":"Sassenburg","type":"Kreisangehörige_Gemeinde"},"district":{"key":"03151","name":"Gifhorn","type":"Landkreis"},"federalState":{"key":"03","name":"Niedersachsen"}},{"name":"Im Forst","postalCode":"56767","locality":"Sassen","municipality":{"key":"07233236","name":"Sassen","type":"Kreisangehörige_Gemeinde"},"district":{"key":"07233","name":"Vulkaneifel","type":"Landkreis"},"federalState":{"key":"07","name":"Rheinland-Pfalz"}},{"name":"Im Grunde","postalCode":"59505","locality":"Bad Sassendorf","municipality":{"key":"05974008","name":"Bad Sassendorf","type":"Kreisangehörige_Gemeinde"},"district":{"key":"05974","name":"Soest","type":"Kreis"},"federalState":{"key":"05","name":"Nordrhein-Westfalen"}},{"name":"Im Grünen Winkel","postalCode":"59505","locality":"Bad Sassendorf","municipality":{"key":"05974008","name":"Bad Sassendorf","type":"Kreisangehörige_Gemeinde"},"district":{"key":"05974","name":"Soest","type":"Kreis"},"federalState":{"key":"05","name":"Nordrhein-Westfalen"}},{"name":"Im Hägen","postalCode":"38524","locality":"Sassenburg","municipality":{"key":"03151025","name":"Sassenburg","type":"Kreisangehörige_Gemeinde"},"district":{"key":"03151","name":"Gifhorn","type":"Landkreis"},"federalState":{"key":"03","name":"Niedersachsen"}},{"name":"Im Herxfeld","postalCode":"48336","locality":"Sassenberg","municipality":{"key":"05570036","name":"Sassenberg, Stadt","type":"Stadt"},"district":{"key":"05570","name":"Warendorf","type":"Kreis"},"federalState":{"key":"05","name":"Nordrhein-Westfalen"}},{"name":"Im Kohlaischen","postalCode":"38524","locality":"Sassenburg","municipality":{"key":"03151025","name":"Sassenburg","type":"Kreisangehörige_Gemeinde"},"district":{"key":"03151","name":"Gifhorn","type":"Landkreis"},"federalState":{"key":"03","name":"Niedersachsen"}},{"name":"Im Kuhlen","postalCode":"59505","locality":"Bad Sassendorf","municipality":{"key":"05974008","name":"Bad Sassendorf","type":"Kreisangehörige_Gemeinde"},"district":{"key":"05974","name":"Soest","type":"Kreis"},"federalState":{"key":"05","name":"Nordrhein-Westfalen"}},{"name":"Im Lohner Klei","postalCode":"59505","locality":"Bad Sassendorf","municipality":{"key":"05974008","name":"Bad Sassendorf","type":"Kreisangehörige_Gemeinde"},"district":{"key":"05974","name":"Soest","type":"Kreis"},"federalState":{"key":"05","name":"Nordrhein-Westfalen"}},{"name":"Im Malerwinkel","postalCode":"59505","locality":"Bad Sassendorf","municipality":{"key":"05974008","name":"Bad Sassendorf","type":"Kreisangehörige_Gemeinde"},"district":{"key":"05974","name":"Soest","type":"Kreis"},"federalState":{"key":"05","name":"Nordrhein-Westfalen"}},{"name":"Immengarten","postalCode":"38524","locality":"Sassenburg","municipality":{"key":"03151025","name":"Sassenburg","type":"Kreisangehörige_Gemeinde"},"district":{"key":"03151","name":"Gifhorn","type":"Landkreis"},"federalState":{"key":"03","name":"Niedersachsen"}},{"name":"Im Oberdorf","postalCode":"59505","locality":"Bad Sassendorf","municipality":{"key":"05974008","name":"Bad Sassendorf","type":"Kreisangehörige_Gemeinde"},"district":{"key":"05974","name":"Soest","type":"Kreis"},"federalState":{"key":"05","name":"Nordrhein-Westfalen"}},{"name":"Im Parsau","postalCode":"38524","locality":"Sassenburg","municipality":{"key":"03151025","name":"Sassenburg","type":"Kreisangehörige_Gemeinde"},"district":{"key":"03151","name":"Gifhorn","type":"Landkreis"},"federalState":{"key":"03","name":"Niedersachsen"}},{"name":"Im Pocken","postalCode":"38524","locality":"Sassenburg","municipality":{"key":"03151025","name":"Sassenburg","type":"Kreisangehörige_Gemeinde"},"district":{"key":"03151","name":"Gifhorn","type":"Landkreis"},"federalState":{"key":"03","name":"Niedersachsen"}},{"name":"Im Schönen Winkel","postalCode":"38524","locality":"Sassenburg","municipality":{"key":"03151025","name":"Sassenburg","type":"Kreisangehörige_Gemeinde"},"district":{"key":"03151","name":"Gifhorn","type":"Landkreis"},"federalState":{"key":"03","name":"Niedersachsen"}},{"name":"Im Schulzenhof","postalCode":"59505","locality":"Bad Sassendorf","municipality":{"key":"05974008","name":"Bad Sassendorf","type":"Kreisangehörige_Gemeinde"},"district":{"key":"05974","name":"Soest","type":"Kreis"},"federalState":{"key":"05","name":"Nordrhein-Westfalen"}},{"name":"Im Stillen Grund","postalCode":"59505","locality":"Bad Sassendorf","municipality":{"key":"05974008","name":"Bad Sassendorf","type":"Kreisangehörige_Gemeinde"},"district":{"key":"05974","name":"Soest","type":"Kreis"},"federalState":{"key":"05","name":"Nordrhein-Westfalen"}},{"name":"Im Tütfeld","postalCode":"38524","locality":"Sassenburg","municipality":{"key":"03151025","name":"Sassenburg","type":"Kreisangehörige_Gemeinde"},"district":{"key":"03151","name":"Gifhorn","type":"Landkreis"},"federalState":{"key":"03","name":"Niedersachsen"}},{"name":"Im Wiemhof","postalCode":"59505","locality":"Bad Sassendorf","municipality":{"key":"05974008","name":"Bad Sassendorf","type":"Kreisangehörige_Gemeinde"},"district":{"key":"05974","name":"Soest","type":"Kreis"},"federalState":{"key":"05","name":"Nordrhein-Westfalen"}},{"name":"Im Wiesengrund","postalCode":"38524","locality":"Sassenburg","municipality":{"key":"03151025","name":"Sassenburg","type":"Kreisangehörige_Gemeinde"},"district":{"key":"03151","name":"Gifhorn","type":"Landkreis"},"federalState":{"key":"03","name":"Niedersachsen"}},{"name":"Im Wiesengrund","postalCode":"48336","locality":"Sassenberg","municipality":{"key":"05570036","name":"Sassenberg, Stadt","type":"Stadt"},"district":{"key":"05570","name":"Warendorf","type":"Kreis"},"federalState":{"key":"05","name":"Nordrhein-Westfalen"}},{"name":"Im Winkel","postalCode":"38524","locality":"Sassenburg","municipality":{"key":"03151025","name":"Sassenburg","type":"Kreisangehörige_Gemeinde"},"district":{"key":"03151","name":"Gifhorn","type":"Landkreis"},"federalState":{"key":"03","name":"Niedersachsen"}},{"name":"In den Gärten","postalCode":"48336","locality":"Sassenberg","municipality":{"key":"05570036","name":"Sassenberg, Stadt","type":"Stadt"},"district":{"key":"05570","name":"Warendorf","type":"Kreis"},"federalState":{"key":"05","name":"Nordrhein-Westfalen"}},{"name":"In den Wiesen","postalCode":"59505","locality":"Bad Sassendorf","municipality":{"key":"05974008","name":"Bad Sassendorf","type":"Kreisangehörige_Gemeinde"},"district":{"key":"05974","name":"Soest","type":"Kreis"},"federalState":{"key":"05","name":"Nordrhein-Westfalen"}},{"name":"In der Lander","postalCode":"59505","locality":"Bad Sassendorf","municipality":{"key":"05974008","name":"Bad Sassendorf","type":"Kreisangehörige_Gemeinde"},"district":{"key":"05974","name":"Soest","type":"Kreis"},"federalState":{"key":"05","name":"Nordrhein-Westfalen"}},{"name":"In der Lanner","postalCode":"59505","locality":"Bad Sassendorf","municipality":{"key":"05974008","name":"Bad Sassendorf","type":"Kreisangehörige_Gemeinde"},"district":{"key":"05974","name":"Soest","type":"Kreis"},"federalState":{"key":"05","name":"Nordrhein-Westfalen"}},{"name":"In der Maierzelch","postalCode":"95652","locality":"Waldsassen","municipality":{"key":"09377158","name":"Waldsassen, St","type":"Stadt"},"district":{"key":"09377","name":"Tirschenreuth","type":"Landkreis"},"federalState":{"key":"09","name":"Bayern"}},{"name":"Iseweg","postalCode":"38524","locality":"Sassenburg","municipality":{"key":"03151025","name":"Sassenburg","type":"Kreisangehörige_Gemeinde"},"district":{"key":"03151","name":"Gifhorn","type":"Landkreis"},"federalState":{"key":"03","name":"Niedersachsen"}},{"name":"Jacob-Grimm-Weg","postalCode":"59505","locality":"Bad Sassendorf","municipality":{"key":"05974008","name":"Bad Sassendorf","type":"Kreisangehörige_Gemeinde"},"district":{"key":"05974","name":"Soest","type":"Kreis"},"federalState":{"key":"05","name":"Nordrhein-Westfalen"}},{"name":"Jahnstr.","postalCode":"48336","locality":"Sassenberg","municipality":{"key":"05570036","name":"Sassenberg, Stadt","type":"Stadt"},"district":{"key":"05570","name":"Warendorf","type":"Kreis"},"federalState":{"key":"05","name":"Nordrhein-Westfalen"}},{"name":"Jahnstr.","postalCode":"95652","locality":"Waldsassen","municipality":{"key":"09377158","name":"Waldsassen, St","type":"Stadt"},"district":{"key":"09377","name":"Tirschenreuth","type":"Landkreis"},"federalState":{"key":"09","name":"Bayern"}},{"name":"Jakob-Steinfels-Str.","postalCode":"95652","locality":"Waldsassen","municipality":{"key":"09377158","name":"Waldsassen, St","type":"Stadt"},"district":{"key":"09377","name":"Tirschenreuth","type":"Landkreis"},"federalState":{"key":"09","name":"Bayern"}},{"name":"Johannesstr.","postalCode":"48336","locality":"Sassenberg","municipality":{"key":"05570036","name":"Sassenberg, Stadt","type":"Stadt"},"district":{"key":"05570","name":"Warendorf","type":"Kreis"},"federalState":{"key":"05","name":"Nordrhein-Westfalen"}},{"name":"Johann-Hinrich-Wichern-Str.","postalCode":"48336","locality":"Sassenberg","municipality":{"key":"05570036","name":"Sassenberg, Stadt","type":"Stadt"},"district":{"key":"05570","name":"Warendorf","type":"Kreis"},"federalState":{"key":"05","name":"Nordrhein-Westfalen"}},{"name":"Johannisplatz","postalCode":"95652","locality":"Waldsassen","municipality":{"key":"09377158","name":"Waldsassen, St","type":"Stadt"},"district":{"key":"09377","name":"Tirschenreuth","type":"Landkreis"},"federalState":{"key":"09","name":"Bayern"}},{"name":"Johann-Strauß-Str.","postalCode":"48336","locality":"Sassenberg","municipality":{"key":"05570036","name":"Sassenberg, Stadt","type":"Stadt"},"district":{"key":"05570","name":"Warendorf","type":"Kreis"},"federalState":{"key":"05","name":"Nordrhein-Westfalen"}},{"name":"Josef-Hierl-Str.","postalCode":"95652","locality":"Waldsassen","municipality":{"key":"09377158","name":"Waldsassen, St","type":"Stadt"},"district":{"key":"09377","name":"Tirschenreuth","type":"Landkreis"},"federalState":{"key":"09","name":"Bayern"}},{"name":"Joseph-Wiesnet-Str.","postalCode":"95652","locality":"Waldsassen","municipality":{"key":"09377158","name":"Waldsassen, St","type":"Stadt"},"district":{"key":"09377","name":"Tirschenreuth","type":"Landkreis"},"federalState":{"key":"09","name":"Bayern"}},{"name":"Kaiserstr.","postalCode":"59505","locality":"Bad Sassendorf","municipality":{"key":"05974008","name":"Bad Sassendorf","type":"Kreisangehörige_Gemeinde"},"district":{"key":"05974","name":"Soest","type":"Kreis"},"federalState":{"key":"05","name":"Nordrhein-Westfalen"}},{"name":"Kampstr.","postalCode":"48336","locality":"Sassenberg","municipality":{"key":"05570036","name":"Sassenberg, Stadt","type":"Stadt"},"district":{"key":"05570","name":"Warendorf","type":"Kreis"},"federalState":{"key":"05","name":"Nordrhein-Westfalen"}},{"name":"Kampstr.","postalCode":"59505","locality":"Bad Sassendorf","municipality":{"key":"05974008","name":"Bad Sassendorf","type":"Kreisangehörige_Gemeinde"},"district":{"key":"05974","name":"Soest","type":"Kreis"},"federalState":{"key":"05","name":"Nordrhein-Westfalen"}},{"name":"Kapellenweg","postalCode":"59505","locality":"Bad Sassendorf","municipality":{"key":"05974008","name":"Bad Sassendorf","type":"Kreisangehörige_Gemeinde"},"district":{"key":"05974","name":"Soest","type":"Kreis"},"federalState":{"key":"05","name":"Nordrhein-Westfalen"}},{"name":"Karauschengasse","postalCode":"38524","locality":"Sassenburg","municipality":{"key":"03151025","name":"Sassenburg","type":"Kreisangehörige_Gemeinde"},"district":{"key":"03151","name":"Gifhorn","type":"Landkreis"},"federalState":{"key":"03","name":"Niedersachsen"}},{"name":"Karl-Leisner-Str.","postalCode":"48336","locality":"Sassenberg","municipality":{"key":"05570036","name":"Sassenberg, Stadt","type":"Stadt"},"district":{"key":"05570","name":"Warendorf","type":"Kreis"},"federalState":{"key":"05","name":"Nordrhein-Westfalen"}},{"name":"Karl-Stilp-Str.","postalCode":"95652","locality":"Waldsassen","municipality":{"key":"09377158","name":"Waldsassen, St","type":"Stadt"},"district":{"key":"09377","name":"Tirschenreuth","type":"Landkreis"},"federalState":{"key":"09","name":"Bayern"}},{"name":"Karl-Wagenfeld-Str.","postalCode":"48336","locality":"Sassenberg","municipality":{"key":"05570036","name":"Sassenberg, Stadt","type":"Stadt"},"district":{"key":"05570","name":"Warendorf","type":"Kreis"},"federalState":{"key":"05","name":"Nordrhein-Westfalen"}},{"name":"Karolinenstr.","postalCode":"95652","locality":"Waldsassen","municipality":{"key":"09377158","name":"Waldsassen, St","type":"Stadt"},"district":{"key":"09377","name":"Tirschenreuth","type":"Landkreis"},"federalState":{"key":"09","name":"Bayern"}},{"name":"Karpfengasse","postalCode":"38524","locality":"Sassenburg","municipality":{"key":"03151025","name":"Sassenburg","type":"Kreisangehörige_Gemeinde"},"district":{"key":"03151","name":"Gifhorn","type":"Landkreis"},"federalState":{"key":"03","name":"Niedersachsen"}},{"name":"Kastanienallee","postalCode":"38524","locality":"Sassenburg","municipality":{"key":"03151025","name":"Sassenburg","type":"Kreisangehörige_Gemeinde"},"district":{"key":"03151","name":"Gifhorn","type":"Landkreis"},"federalState":{"key":"03","name":"Niedersachsen"}},{"name":"Kastanienweg","postalCode":"48336","locality":"Sassenberg","municipality":{"key":"05570036","name":"Sassenberg, Stadt","type":"Stadt"},"district":{"key":"05570","name":"Warendorf","type":"Kreis"},"federalState":{"key":"05","name":"Nordrhein-Westfalen"}},{"name":"Kettelstr.","postalCode":"48336","locality":"Sassenberg","municipality":{"key":"05570036","name":"Sassenberg, Stadt","type":"Stadt"},"district":{"key":"05570","name":"Warendorf","type":"Kreis"},"federalState":{"key":"05","name":"Nordrhein-Westfalen"}},{"name":"Kiärkenkamp","postalCode":"48336","locality":"Sassenberg","municipality":{"key":"05570036","name":"Sassenberg, Stadt","type":"Stadt"},"district":{"key":"05570","name":"Warendorf","type":"Kreis"},"federalState":{"key":"05","name":"Nordrhein-Westfalen"}},{"name":"Kiebitzstr.","postalCode":"48336","locality":"Sassenberg","municipality":{"key":"05570036","name":"Sassenberg, Stadt","type":"Stadt"},"district":{"key":"05570","name":"Warendorf","type":"Kreis"},"federalState":{"key":"05","name":"Nordrhein-Westfalen"}},{"name":"Kiebitzweg","postalCode":"38524","locality":"Sassenburg","municipality":{"key":"03151025","name":"Sassenburg","type":"Kreisangehörige_Gemeinde"},"district":{"key":"03151","name":"Gifhorn","type":"Landkreis"},"federalState":{"key":"03","name":"Niedersachsen"}},{"name":"Kiefernhain","postalCode":"38524","locality":"Sassenburg","municipality":{"key":"03151025","name":"Sassenburg","type":"Kreisangehörige_Gemeinde"},"district":{"key":"03151","name":"Gifhorn","type":"Landkreis"},"federalState":{"key":"03","name":"Niedersachsen"}},{"name":"Kiefernweg","postalCode":"48336","locality":"Sassenberg","municipality":{"key":"05570036","name":"Sassenberg, Stadt","type":"Stadt"},"district":{"key":"05570","name":"Warendorf","type":"Kreis"},"federalState":{"key":"05","name":"Nordrhein-Westfalen"}},{"name":"Kirchenstr.","postalCode":"95652","locality":"Waldsassen","municipality":{"key":"09377158","name":"Waldsassen, St","type":"Stadt"},"district":{"key":"09377","name":"Tirschenreuth","type":"Landkreis"},"federalState":{"key":"09","name":"Bayern"}},{"name":"Kirchkamp","postalCode":"59505","locality":"Bad Sassendorf","municipality":{"key":"05974008","name":"Bad Sassendorf","type":"Kreisangehörige_Gemeinde"},"district":{"key":"05974","name":"Soest","type":"Kreis"},"federalState":{"key":"05","name":"Nordrhein-Westfalen"}},{"name":"Kirchplatz","postalCode":"48336","locality":"Sassenberg","municipality":{"key":"05570036","name":"Sassenberg, Stadt","type":"Stadt"},"district":{"key":"05570","name":"Warendorf","type":"Kreis"},"federalState":{"key":"05","name":"Nordrhein-Westfalen"}},{"name":"Kirchplatz","postalCode":"59505","locality":"Bad Sassendorf","municipality":{"key":"05974008","name":"Bad Sassendorf","type":"Kreisangehörige_Gemeinde"},"district":{"key":"05974","name":"Soest","type":"Kreis"},"federalState":{"key":"05","name":"Nordrhein-Westfalen"}},{"name":"Kirchstr.","postalCode":"59505","locality":"Bad Sassendorf","municipality":{"key":"05974008","name":"Bad Sassendorf","type":"Kreisangehörige_Gemeinde"},"district":{"key":"05974","name":"Soest","type":"Kreis"},"federalState":{"key":"05","name":"Nordrhein-Westfalen"}},{"name":"Kirchvenn","postalCode":"48336","locality":"Sassenberg","municipality":{"key":"05570036","name":"Sassenberg, Stadt","type":"Stadt"},"district":{"key":"05570","name":"Warendorf","type":"Kreis"},"federalState":{"key":"05","name":"Nordrhein-Westfalen"}},{"name":"Kirchweg","postalCode":"59505","locality":"Bad Sassendorf","municipality":{"key":"05974008","name":"Bad Sassendorf","type":"Kreisangehörige_Gemeinde"},"district":{"key":"05974","name":"Soest","type":"Kreis"},"federalState":{"key":"05","name":"Nordrhein-Westfalen"}},{"name":"Kittelhakenstr.","postalCode":"59505","locality":"Bad Sassendorf","municipality":{"key":"05974008","name":"Bad Sassendorf","type":"Kreisangehörige_Gemeinde"},"district":{"key":"05974","name":"Soest","type":"Kreis"},"federalState":{"key":"05","name":"Nordrhein-Westfalen"}},{"name":"Klärwerkstr.","postalCode":"95652","locality":"Waldsassen","municipality":{"key":"09377158","name":"Waldsassen, St","type":"Stadt"},"district":{"key":"09377","name":"Tirschenreuth","type":"Landkreis"},"federalState":{"key":"09","name":"Bayern"}},{"name":"Kleine Dorfstr.","postalCode":"38524","locality":"Sassenburg","municipality":{"key":"03151025","name":"Sassenburg","type":"Kreisangehörige_Gemeinde"},"district":{"key":"03151","name":"Gifhorn","type":"Landkreis"},"federalState":{"key":"03","name":"Niedersachsen"}},{"name":"Klein Westerbeck","postalCode":"38524","locality":"Sassenburg","municipality":{"key":"03151025","name":"Sassenburg","type":"Kreisangehörige_Gemeinde"},"district":{"key":"03151","name":"Gifhorn","type":"Landkreis"},"federalState":{"key":"03","name":"Niedersachsen"}},{"name":"Kleiweg","postalCode":"59505","locality":"Bad Sassendorf","municipality":{"key":"05974008","name":"Bad Sassendorf","type":"Kreisangehörige_Gemeinde"},"district":{"key":"05974","name":"Soest","type":"Kreis"},"federalState":{"key":"05","name":"Nordrhein-Westfalen"}},{"name":"Klingenhagen","postalCode":"48336","locality":"Sassenberg","municipality":{"key":"05570036","name":"Sassenberg, Stadt","type":"Stadt"},"district":{"key":"05570","name":"Warendorf","type":"Kreis"},"federalState":{"key":"05","name":"Nordrhein-Westfalen"}},{"name":"Klostergasse","postalCode":"95652","locality":"Waldsassen","municipality":{"key":"09377158","name":"Waldsassen, St","type":"Stadt"},"district":{"key":"09377","name":"Tirschenreuth","type":"Landkreis"},"federalState":{"key":"09","name":"Bayern"}},{"name":"Knapp","postalCode":"48336","locality":"Sassenberg","municipality":{"key":"05570036","name":"Sassenberg, Stadt","type":"Stadt"},"district":{"key":"05570","name":"Warendorf","type":"Kreis"},"federalState":{"key":"05","name":"Nordrhein-Westfalen"}},{"name":"Knesebecker Weg","postalCode":"38524","locality":"Sassenburg","municipality":{"key":"03151025","name":"Sassenburg","type":"Kreisangehörige_Gemeinde"},"district":{"key":"03151","name":"Gifhorn","type":"Landkreis"},"federalState":{"key":"03","name":"Niedersachsen"}},{"name":"Knetterhauser Str.","postalCode":"48336","locality":"Sassenberg","municipality":{"key":"05570036","name":"Sassenberg, Stadt","type":"Stadt"},"district":{"key":"05570","name":"Warendorf","type":"Kreis"},"federalState":{"key":"05","name":"Nordrhein-Westfalen"}},{"name":"Kolleweg","postalCode":"38524","locality":"Sassenburg","municipality":{"key":"03151025","name":"Sassenburg","type":"Kreisangehörige_Gemeinde"},"district":{"key":"03151","name":"Gifhorn","type":"Landkreis"},"federalState":{"key":"03","name":"Niedersachsen"}},{"name":"Kölnergrünstr.","postalCode":"95652","locality":"Waldsassen","municipality":{"key":"09377158","name":"Waldsassen, St","type":"Stadt"},"district":{"key":"09377","name":"Tirschenreuth","type":"Landkreis"},"federalState":{"key":"09","name":"Bayern"}},{"name":"Kolpingstr.","postalCode":"48336","locality":"Sassenberg","municipality":{"key":"05570036","name":"Sassenberg, Stadt","type":"Stadt"},"district":{"key":"05570","name":"Warendorf","type":"Kreis"},"federalState":{"key":"05","name":"Nordrhein-Westfalen"}},{"name":"Kolpingstr.","postalCode":"95652","locality":"Waldsassen","municipality":{"key":"09377158","name":"Waldsassen, St","type":"Stadt"},"district":{"key":"09377","name":"Tirschenreuth","type":"Landkreis"},"federalState":{"key":"09","name":"Bayern"}},{"name":"Kolpingweg","postalCode":"59505","locality":"Bad Sassendorf","municipality":{"key":"05974008","name":"Bad Sassendorf","type":"Kreisangehörige_Gemeinde"},"district":{"key":"05974","name":"Soest","type":"Kreis"},"federalState":{"key":"05","name":"Nordrhein-Westfalen"}},{"name":"Kondrauer Quellenweg","postalCode":"95652","locality":"Waldsassen","municipality":{"key":"09377158","name":"Waldsassen, St","type":"Stadt"},"district":{"key":"09377","name":"Tirschenreuth","type":"Landkreis"},"federalState":{"key":"09","name":"Bayern"}},{"name":"Königsberger Str.","postalCode":"38524","locality":"Sassenburg","municipality":{"key":"03151025","name":"Sassenburg","type":"Kreisangehörige_Gemeinde"},"district":{"key":"03151","name":"Gifhorn","type":"Landkreis"},"federalState":{"key":"03","name":"Niedersachsen"}},{"name":"Königsberger Str.","postalCode":"48336","locality":"Sassenberg","municipality":{"key":"05570036","name":"Sassenberg, Stadt","type":"Stadt"},"district":{"key":"05570","name":"Warendorf","type":"Kreis"},"federalState":{"key":"05","name":"Nordrhein-Westfalen"}},{"name":"Königseichenpark Triangel","postalCode":"38524","locality":"Sassenburg","municipality":{"key":"03151025","name":"Sassenburg","type":"Kreisangehörige_Gemeinde"},"district":{"key":"03151","name":"Gifhorn","type":"Landkreis"},"federalState":{"key":"03","name":"Niedersachsen"}},{"name":"Konnersreuther Str.","postalCode":"95652","locality":"Waldsassen","municipality":{"key":"09377158","name":"Waldsassen, St","type":"Stadt"},"district":{"key":"09377","name":"Tirschenreuth","type":"Landkreis"},"federalState":{"key":"09","name":"Bayern"}},{"name":"Kopernikusstr.","postalCode":"59505","locality":"Bad Sassendorf","municipality":{"key":"05974008","name":"Bad Sassendorf","type":"Kreisangehörige_Gemeinde"},"district":{"key":"05974","name":"Soest","type":"Kreis"},"federalState":{"key":"05","name":"Nordrhein-Westfalen"}},{"name":"Kornblumenring","postalCode":"38524","locality":"Sassenburg","municipality":{"key":"03151025","name":"Sassenburg","type":"Kreisangehörige_Gemeinde"},"district":{"key":"03151","name":"Gifhorn","type":"Landkreis"},"federalState":{"key":"03","name":"Niedersachsen"}},{"name":"Körnerweg","postalCode":"59505","locality":"Bad Sassendorf","municipality":{"key":"05974008","name":"Bad Sassendorf","type":"Kreisangehörige_Gemeinde"},"district":{"key":"05974","name":"Soest","type":"Kreis"},"federalState":{"key":"05","name":"Nordrhein-Westfalen"}},{"name":"Kranichweg","postalCode":"38524","locality":"Sassenburg","municipality":{"key":"03151025","name":"Sassenburg","type":"Kreisangehörige_Gemeinde"},"district":{"key":"03151","name":"Gifhorn","type":"Landkreis"},"federalState":{"key":"03","name":"Niedersachsen"}},{"name":"Kranlandsweg","postalCode":"59505","locality":"Bad Sassendorf","municipality":{"key":"05974008","name":"Bad Sassendorf","type":"Kreisangehörige_Gemeinde"},"district":{"key":"05974","name":"Soest","type":"Kreis"},"federalState":{"key":"05","name":"Nordrhein-Westfalen"}},{"name":"Laerer Str.","postalCode":"48336","locality":"Sassenberg","municipality":{"key":"05570036","name":"Sassenberg, Stadt","type":"Stadt"},"district":{"key":"05570","name":"Warendorf","type":"Kreis"},"federalState":{"key":"05","name":"Nordrhein-Westfalen"}},{"name":"Lämmerstr.","postalCode":"95652","locality":"Waldsassen","municipality":{"key":"09377158","name":"Waldsassen, St","type":"Stadt"},"district":{"key":"09377","name":"Tirschenreuth","type":"Landkreis"},"federalState":{"key":"09","name":"Bayern"}},{"name":"Landerpfad","postalCode":"59505","locality":"Bad Sassendorf","municipality":{"key":"05974008","name":"Bad Sassendorf","type":"Kreisangehörige_Gemeinde"},"district":{"key":"05974","name":"Soest","type":"Kreis"},"federalState":{"key":"05","name":"Nordrhein-Westfalen"}},{"name":"Landwehr","postalCode":"59505","locality":"Bad Sassendorf","municipality":{"key":"05974008","name":"Bad Sassendorf","type":"Kreisangehörige_Gemeinde"},"district":{"key":"05974","name":"Soest","type":"Kreis"},"federalState":{"key":"05","name":"Nordrhein-Westfalen"}},{"name":"Langefort","postalCode":"48336","locality":"Sassenberg","municipality":{"key":"05570036","name":"Sassenberg, Stadt","type":"Stadt"},"district":{"key":"05570","name":"Warendorf","type":"Kreis"},"federalState":{"key":"05","name":"Nordrhein-Westfalen"}},{"name":"Langer Kamp","postalCode":"48336","locality":"Sassenberg","municipality":{"key":"05570036","name":"Sassenberg, Stadt","type":"Stadt"},"district":{"key":"05570","name":"Warendorf","type":"Kreis"},"federalState":{"key":"05","name":"Nordrhein-Westfalen"}},{"name":"Lange Str.","postalCode":"59505","locality":"Bad Sassendorf","municipality":{"key":"05974008","name":"Bad Sassendorf","type":"Kreisangehörige_Gemeinde"},"district":{"key":"05974","name":"Soest","type":"Kreis"},"federalState":{"key":"05","name":"Nordrhein-Westfalen"}},{"name":"Langeweg","postalCode":"38524","locality":"Sassenburg","municipality":{"key":"03151025","name":"Sassenburg","type":"Kreisangehörige_Gemeinde"},"district":{"key":"03151","name":"Gifhorn","type":"Landkreis"},"federalState":{"key":"03","name":"Niedersachsen"}},{"name":"Langewiese","postalCode":"48336","locality":"Sassenberg","municipality":{"key":"05570036","name":"Sassenberg, Stadt","type":"Stadt"},"district":{"key":"05570","name":"Warendorf","type":"Kreis"},"federalState":{"key":"05","name":"Nordrhein-Westfalen"}},{"name":"Langhammerstr.","postalCode":"95652","locality":"Waldsassen","municipality":{"key":"09377158","name":"Waldsassen, St","type":"Stadt"},"district":{"key":"09377","name":"Tirschenreuth","type":"Landkreis"},"federalState":{"key":"09","name":"Bayern"}},{"name":"Lappenbrink","postalCode":"48336","locality":"Sassenberg","municipality":{"key":"05570036","name":"Sassenberg, Stadt","type":"Stadt"},"district":{"key":"05570","name":"Warendorf","type":"Kreis"},"federalState":{"key":"05","name":"Nordrhein-Westfalen"}},{"name":"Lehmweg","postalCode":"59505","locality":"Bad Sassendorf","municipality":{"key":"05974008","name":"Bad Sassendorf","type":"Kreisangehörige_Gemeinde"},"district":{"key":"05974","name":"Soest","type":"Kreis"},"federalState":{"key":"05","name":"Nordrhein-Westfalen"}},{"name":"Leipziger Weg","postalCode":"48336","locality":"Sassenberg","municipality":{"key":"05570036","name":"Sassenberg, Stadt","type":"Stadt"},"district":{"key":"05570","name":"Warendorf","type":"Kreis"},"federalState":{"key":"05","name":"Nordrhein-Westfalen"}},{"name":"Lerchenfeld","postalCode":"38524","locality":"Sassenburg","municipality":{"key":"03151025","name":"Sassenburg","type":"Kreisangehörige_Gemeinde"},"district":{"key":"03151","name":"Gifhorn","type":"Landkreis"},"federalState":{"key":"03","name":"Niedersachsen"}},{"name":"Lerchensteg","postalCode":"59505","locality":"Bad Sassendorf","municipality":{"key":"05974008","name":"Bad Sassendorf","type":"Kreisangehörige_Gemeinde"},"district":{"key":"05974","name":"Soest","type":"Kreis"},"federalState":{"key":"05","name":"Nordrhein-Westfalen"}},{"name":"Lerchenweg","postalCode":"38524","locality":"Sassenburg","municipality":{"key":"03151025","name":"Sassenburg","type":"Kreisangehörige_Gemeinde"},"district":{"key":"03151","name":"Gifhorn","type":"Landkreis"},"federalState":{"key":"03","name":"Niedersachsen"}},{"name":"Lerchenweg","postalCode":"48336","locality":"Sassenberg","municipality":{"key":"05570036","name":"Sassenberg, Stadt","type":"Stadt"},"district":{"key":"05570","name":"Warendorf","type":"Kreis"},"federalState":{"key":"05","name":"Nordrhein-Westfalen"}},{"name":"Lessingstr.","postalCode":"59505","locality":"Bad Sassendorf","municipality":{"key":"05974008","name":"Bad Sassendorf","type":"Kreisangehörige_Gemeinde"},"district":{"key":"05974","name":"Soest","type":"Kreis"},"federalState":{"key":"05","name":"Nordrhein-Westfalen"}},{"name":"Lessingweg","postalCode":"48336","locality":"Sassenberg","municipality":{"key":"05570036","name":"Sassenberg, Stadt","type":"Stadt"},"district":{"key":"05570","name":"Warendorf","type":"Kreis"},"federalState":{"key":"05","name":"Nordrhein-Westfalen"}},{"name":"Leuthnerstr.","postalCode":"95652","locality":"Waldsassen","municipality":{"key":"09377158","name":"Waldsassen, St","type":"Stadt"},"district":{"key":"09377","name":"Tirschenreuth","type":"Landkreis"},"federalState":{"key":"09","name":"Bayern"}},{"name":"Lindenhof","postalCode":"59505","locality":"Bad Sassendorf","municipality":{"key":"05974008","name":"Bad Sassendorf","type":"Kreisangehörige_Gemeinde"},"district":{"key":"05974","name":"Soest","type":"Kreis"},"federalState":{"key":"05","name":"Nordrhein-Westfalen"}},{"name":"Lindenstr.","postalCode":"17121","locality":"Sassen-Trantow","municipality":{"key":"13075123","name":"Sassen-Trantow","type":"Kreisangehörige_Gemeinde"},"district":{"key":"13075","name":"Vorpommern-Greifswald","type":"Landkreis"},"federalState":{"key":"13","name":"Mecklenburg-Vorpommern"}},{"name":"Lindenstr.","postalCode":"38524","locality":"Sassenburg","municipality":{"key":"03151025","name":"Sassenburg","type":"Kreisangehörige_Gemeinde"},"district":{"key":"03151","name":"Gifhorn","type":"Landkreis"},"federalState":{"key":"03","name":"Niedersachsen"}},{"name":"Lindenstr.","postalCode":"59505","locality":"Bad Sassendorf","municipality":{"key":"05974008","name":"Bad Sassendorf","type":"Kreisangehörige_Gemeinde"},"district":{"key":"05974","name":"Soest","type":"Kreis"},"federalState":{"key":"05","name":"Nordrhein-Westfalen"}},{"name":"Lindenweg","postalCode":"17121","locality":"Sassen-Trantow","municipality":{"key":"13075123","name":"Sassen-Trantow","type":"Kreisangehörige_Gemeinde"},"district":{"key":"13075","name":"Vorpommern-Greifswald","type":"Landkreis"},"federalState":{"key":"13","name":"Mecklenburg-Vorpommern"}},{"name":"Lindenweg","postalCode":"38524","locality":"Sassenburg","municipality":{"key":"03151025","name":"Sassenburg","type":"Kreisangehörige_Gemeinde"},"district":{"key":"03151","name":"Gifhorn","type":"Landkreis"},"federalState":{"key":"03","name":"Niedersachsen"}},{"name":"Liststr.","postalCode":"95652","locality":"Waldsassen","municipality":{"key":"09377158","name":"Waldsassen, St","type":"Stadt"},"district":{"key":"09377","name":"Tirschenreuth","type":"Landkreis"},"federalState":{"key":"09","name":"Bayern"}},{"name":"Lisztstr.","postalCode":"48336","locality":"Sassenberg","municipality":{"key":"05570036","name":"Sassenberg, Stadt","type":"Stadt"},"district":{"key":"05570","name":"Warendorf","type":"Kreis"},"federalState":{"key":"05","name":"Nordrhein-Westfalen"}},{"name":"Löcknitzer Str.","postalCode":"48336","locality":"Sassenberg","municipality":{"key":"05570036","name":"Sassenberg, Stadt","type":"Stadt"},"district":{"key":"05570","name":"Warendorf","type":"Kreis"},"federalState":{"key":"05","name":"Nordrhein-Westfalen"}},{"name":"Lodermühlweg","postalCode":"95652","locality":"Waldsassen","municipality":{"key":"09377158","name":"Waldsassen, St","type":"Stadt"},"district":{"key":"09377","name":"Tirschenreuth","type":"Landkreis"},"federalState":{"key":"09","name":"Bayern"}},{"name":"Loher Str.","postalCode":"59505","locality":"Bad Sassendorf","municipality":{"key":"05974008","name":"Bad Sassendorf","type":"Kreisangehörige_Gemeinde"},"district":{"key":"05974","name":"Soest","type":"Kreis"},"federalState":{"key":"05","name":"Nordrhein-Westfalen"}},{"name":"Lohner Höhe","postalCode":"59505","locality":"Bad Sassendorf","municipality":{"key":"05974008","name":"Bad Sassendorf","type":"Kreisangehörige_Gemeinde"},"district":{"key":"05974","name":"Soest","type":"Kreis"},"federalState":{"key":"05","name":"Nordrhein-Westfalen"}},{"name":"Lohweg","postalCode":"59505","locality":"Bad Sassendorf","municipality":{"key":"05974008","name":"Bad Sassendorf","type":"Kreisangehörige_Gemeinde"},"district":{"key":"05974","name":"Soest","type":"Kreis"},"federalState":{"key":"05","name":"Nordrhein-Westfalen"}},{"name":"Loitzer Str.","postalCode":"17121","locality":"Sassen-Trantow","municipality":{"key":"13075123","name":"Sassen-Trantow","type":"Kreisangehörige_Gemeinde"},"district":{"key":"13075","name":"Vorpommern-Greifswald","type":"Landkreis"},"federalState":{"key":"13","name":"Mecklenburg-Vorpommern"}},{"name":"Lönsweg","postalCode":"38524","locality":"Sassenburg","municipality":{"key":"03151025","name":"Sassenburg","type":"Kreisangehörige_Gemeinde"},"district":{"key":"03151","name":"Gifhorn","type":"Landkreis"},"federalState":{"key":"03","name":"Niedersachsen"}},{"name":"Loxtener Str.","postalCode":"48336","locality":"Sassenberg","municipality":{"key":"05570036","name":"Sassenberg, Stadt","type":"Stadt"},"district":{"key":"05570","name":"Warendorf","type":"Kreis"},"federalState":{"key":"05","name":"Nordrhein-Westfalen"}},{"name":"Ludwig-Jahn-Str.","postalCode":"38524","locality":"Sassenburg","municipality":{"key":"03151025","name":"Sassenburg","type":"Kreisangehörige_Gemeinde"},"district":{"key":"03151","name":"Gifhorn","type":"Landkreis"},"federalState":{"key":"03","name":"Niedersachsen"}},{"name":"Ludwig-Thoma-Str.","postalCode":"95652","locality":"Waldsassen","municipality":{"key":"09377158","name":"Waldsassen, St","type":"Stadt"},"district":{"key":"09377","name":"Tirschenreuth","type":"Landkreis"},"federalState":{"key":"09","name":"Bayern"}},{"name":"Luisenstr.","postalCode":"59505","locality":"Bad Sassendorf","municipality":{"key":"05974008","name":"Bad Sassendorf","type":"Kreisangehörige_Gemeinde"},"district":{"key":"05974","name":"Soest","type":"Kreis"},"federalState":{"key":"05","name":"Nordrhein-Westfalen"}},{"name":"Lupinenweg","postalCode":"38524","locality":"Sassenburg","municipality":{"key":"03151025","name":"Sassenburg","type":"Kreisangehörige_Gemeinde"},"district":{"key":"03151","name":"Gifhorn","type":"Landkreis"},"federalState":{"key":"03","name":"Niedersachsen"}},{"name":"Lütgen Busch","postalCode":"59505","locality":"Bad Sassendorf","municipality":{"key":"05974008","name":"Bad Sassendorf","type":"Kreisangehörige_Gemeinde"},"district":{"key":"05974","name":"Soest","type":"Kreis"},"federalState":{"key":"05","name":"Nordrhein-Westfalen"}},{"name":"Lütgenweg","postalCode":"59505","locality":"Bad Sassendorf","municipality":{"key":"05974008","name":"Bad Sassendorf","type":"Kreisangehörige_Gemeinde"},"district":{"key":"05974","name":"Soest","type":"Kreis"},"federalState":{"key":"05","name":"Nordrhein-Westfalen"}},{"name":"Magdeburger Str.","postalCode":"38524","locality":"Sassenburg","municipality":{"key":"03151025","name":"Sassenburg","type":"Kreisangehörige_Gemeinde"},"district":{"key":"03151","name":"Gifhorn","type":"Landkreis"},"federalState":{"key":"03","name":"Niedersachsen"}},{"name":"Marcoussisstr.","postalCode":"95652","locality":"Waldsassen","municipality":{"key":"09377158","name":"Waldsassen, St","type":"Stadt"},"district":{"key":"09377","name":"Tirschenreuth","type":"Landkreis"},"federalState":{"key":"09","name":"Bayern"}},{"name":"Marderweg","postalCode":"38524","locality":"Sassenburg","municipality":{"key":"03151025","name":"Sassenburg","type":"Kreisangehörige_Gemeinde"},"district":{"key":"03151","name":"Gifhorn","type":"Landkreis"},"federalState":{"key":"03","name":"Niedersachsen"}},{"name":"Margarete-Windthorst-Str.","postalCode":"48336","locality":"Sassenberg","municipality":{"key":"05570036","name":"Sassenberg, Stadt","type":"Stadt"},"district":{"key":"05570","name":"Warendorf","type":"Kreis"},"federalState":{"key":"05","name":"Nordrhein-Westfalen"}},{"name":"Marienstr.","postalCode":"48336","locality":"Sassenberg","municipality":{"key":"05570036","name":"Sassenberg, Stadt","type":"Stadt"},"district":{"key":"05570","name":"Warendorf","type":"Kreis"},"federalState":{"key":"05","name":"Nordrhein-Westfalen"}},{"name":"Markgraf-Diepold-Str.","postalCode":"95652","locality":"Waldsassen","municipality":{"key":"09377158","name":"Waldsassen, St","type":"Stadt"},"district":{"key":"09377","name":"Tirschenreuth","type":"Landkreis"},"federalState":{"key":"09","name":"Bayern"}},{"name":"Maronengasse","postalCode":"38524","locality":"Sassenburg","municipality":{"key":"03151025","name":"Sassenburg","type":"Kreisangehörige_Gemeinde"},"district":{"key":"03151","name":"Gifhorn","type":"Landkreis"},"federalState":{"key":"03","name":"Niedersachsen"}},{"name":"Martin-Hirsch-Str.","postalCode":"95652","locality":"Waldsassen","municipality":{"key":"09377158","name":"Waldsassen, St","type":"Stadt"},"district":{"key":"09377","name":"Tirschenreuth","type":"Landkreis"},"federalState":{"key":"09","name":"Bayern"}},{"name":"Martin-Luther-King-Str.","postalCode":"48336","locality":"Sassenberg","municipality":{"key":"05570036","name":"Sassenberg, Stadt","type":"Stadt"},"district":{"key":"05570","name":"Warendorf","type":"Kreis"},"federalState":{"key":"05","name":"Nordrhein-Westfalen"}},{"name":"Martin-Luther-Str.","postalCode":"95652","locality":"Waldsassen","municipality":{"key":"09377158","name":"Waldsassen, St","type":"Stadt"},"district":{"key":"09377","name":"Tirschenreuth","type":"Landkreis"},"federalState":{"key":"09","name":"Bayern"}},{"name":"Maschgartenberg","postalCode":"38524","locality":"Sassenburg","municipality":{"key":"03151025","name":"Sassenburg","type":"Kreisangehörige_Gemeinde"},"district":{"key":"03151","name":"Gifhorn","type":"Landkreis"},"federalState":{"key":"03","name":"Niedersachsen"}},{"name":"Maschstr.","postalCode":"38524","locality":"Sassenburg","municipality":{"key":"03151025","name":"Sassenburg","type":"Kreisangehörige_Gemeinde"},"district":{"key":"03151","name":"Gifhorn","type":"Landkreis"},"federalState":{"key":"03","name":"Niedersachsen"}},{"name":"Mathildenhof","postalCode":"38524","locality":"Sassenburg","municipality":{"key":"03151025","name":"Sassenburg","type":"Kreisangehörige_Gemeinde"},"district":{"key":"03151","name":"Gifhorn","type":"Landkreis"},"federalState":{"key":"03","name":"Niedersachsen"}},{"name":"Maximilian-Kolbe-Str.","postalCode":"48336","locality":"Sassenberg","municipality":{"key":"05570036","name":"Sassenberg, Stadt","type":"Stadt"},"district":{"key":"05570","name":"Warendorf","type":"Kreis"},"federalState":{"key":"05","name":"Nordrhein-Westfalen"}},{"name":"Meisenweg","postalCode":"38524","locality":"Sassenburg","municipality":{"key":"03151025","name":"Sassenburg","type":"Kreisangehörige_Gemeinde"},"district":{"key":"03151","name":"Gifhorn","type":"Landkreis"},"federalState":{"key":"03","name":"Niedersachsen"}},{"name":"Meisenweg","postalCode":"48336","locality":"Sassenberg","municipality":{"key":"05570036","name":"Sassenberg, Stadt","type":"Stadt"},"district":{"key":"05570","name":"Warendorf","type":"Kreis"},"federalState":{"key":"05","name":"Nordrhein-Westfalen"}},{"name":"Mertzstr.","postalCode":"48336","locality":"Sassenberg","municipality":{"key":"05570036","name":"Sassenberg, Stadt","type":"Stadt"},"district":{"key":"05570","name":"Warendorf","type":"Kreis"},"federalState":{"key":"05","name":"Nordrhein-Westfalen"}},{"name":"Milter Str.","postalCode":"48336","locality":"Sassenberg","municipality":{"key":"05570036","name":"Sassenberg, Stadt","type":"Stadt"},"district":{"key":"05570","name":"Warendorf","type":"Kreis"},"federalState":{"key":"05","name":"Nordrhein-Westfalen"}},{"name":"Mistelweg","postalCode":"38524","locality":"Sassenburg","municipality":{"key":"03151025","name":"Sassenburg","type":"Kreisangehörige_Gemeinde"},"district":{"key":"03151","name":"Gifhorn","type":"Landkreis"},"federalState":{"key":"03","name":"Niedersachsen"}},{"name":"Mitberstr.","postalCode":"48336","locality":"Sassenberg","municipality":{"key":"05570036","name":"Sassenberg, Stadt","type":"Stadt"},"district":{"key":"05570","name":"Warendorf","type":"Kreis"},"federalState":{"key":"05","name":"Nordrhein-Westfalen"}},{"name":"Mittelweg","postalCode":"38524","locality":"Sassenburg","municipality":{"key":"03151025","name":"Sassenburg","type":"Kreisangehörige_Gemeinde"},"district":{"key":"03151","name":"Gifhorn","type":"Landkreis"},"federalState":{"key":"03","name":"Niedersachsen"}},{"name":"Mittelweg","postalCode":"59505","locality":"Bad Sassendorf","municipality":{"key":"05974008","name":"Bad Sassendorf","type":"Kreisangehörige_Gemeinde"},"district":{"key":"05974","name":"Soest","type":"Kreis"},"federalState":{"key":"05","name":"Nordrhein-Westfalen"}},{"name":"Mitterteicher Str.","postalCode":"95652","locality":"Waldsassen","municipality":{"key":"09377158","name":"Waldsassen, St","type":"Stadt"},"district":{"key":"09377","name":"Tirschenreuth","type":"Landkreis"},"federalState":{"key":"09","name":"Bayern"}},{"name":"Mohnweg","postalCode":"38524","locality":"Sassenburg","municipality":{"key":"03151025","name":"Sassenburg","type":"Kreisangehörige_Gemeinde"},"district":{"key":"03151","name":"Gifhorn","type":"Landkreis"},"federalState":{"key":"03","name":"Niedersachsen"}},{"name":"Möllmanns Kamp","postalCode":"48336","locality":"Sassenberg","municipality":{"key":"05570036","name":"Sassenberg, Stadt","type":"Stadt"},"district":{"key":"05570","name":"Warendorf","type":"Kreis"},"federalState":{"key":"05","name":"Nordrhein-Westfalen"}},{"name":"Mooreiche","postalCode":"38524","locality":"Sassenburg","municipality":{"key":"03151025","name":"Sassenburg","type":"Kreisangehörige_Gemeinde"},"district":{"key":"03151","name":"Gifhorn","type":"Landkreis"},"federalState":{"key":"03","name":"Niedersachsen"}},{"name":"Moorweg","postalCode":"38524","locality":"Sassenburg","municipality":{"key":"03151025","name":"Sassenburg","type":"Kreisangehörige_Gemeinde"},"district":{"key":"03151","name":"Gifhorn","type":"Landkreis"},"federalState":{"key":"03","name":"Niedersachsen"}},{"name":"Moorweg","postalCode":"48336","locality":"Sassenberg","municipality":{"key":"05570036","name":"Sassenberg, Stadt","type":"Stadt"},"district":{"key":"05570","name":"Warendorf","type":"Kreis"},"federalState":{"key":"05","name":"Nordrhein-Westfalen"}},{"name":"Moosweg","postalCode":"38524","locality":"Sassenburg","municipality":{"key":"03151025","name":"Sassenburg","type":"Kreisangehörige_Gemeinde"},"district":{"key":"03151","name":"Gifhorn","type":"Landkreis"},"federalState":{"key":"03","name":"Niedersachsen"}},{"name":"Mörikestr.","postalCode":"59505","locality":"Bad Sassendorf","municipality":{"key":"05974008","name":"Bad Sassendorf","type":"Kreisangehörige_Gemeinde"},"district":{"key":"05974","name":"Soest","type":"Kreis"},"federalState":{"key":"05","name":"Nordrhein-Westfalen"}},{"name":"Mozartstr.","postalCode":"48336","locality":"Sassenberg","municipality":{"key":"05570036","name":"Sassenberg, Stadt","type":"Stadt"},"district":{"key":"05570","name":"Warendorf","type":"Kreis"},"federalState":{"key":"05","name":"Nordrhein-Westfalen"}},{"name":"Mozartweg","postalCode":"59505","locality":"Bad Sassendorf","municipality":{"key":"05974008","name":"Bad Sassendorf","type":"Kreisangehörige_Gemeinde"},"district":{"key":"05974","name":"Soest","type":"Kreis"},"federalState":{"key":"05","name":"Nordrhein-Westfalen"}},{"name":"Mückenweg","postalCode":"38524","locality":"Sassenburg","municipality":{"key":"03151025","name":"Sassenburg","type":"Kreisangehörige_Gemeinde"},"district":{"key":"03151","name":"Gifhorn","type":"Landkreis"},"federalState":{"key":"03","name":"Niedersachsen"}},{"name":"Mühlbachgasse","postalCode":"95652","locality":"Waldsassen","municipality":{"key":"09377158","name":"Waldsassen, St","type":"Stadt"},"district":{"key":"09377","name":"Tirschenreuth","type":"Landkreis"},"federalState":{"key":"09","name":"Bayern"}},{"name":"Mühlenberg","postalCode":"38524","locality":"Sassenburg","municipality":{"key":"03151025","name":"Sassenburg","type":"Kreisangehörige_Gemeinde"},"district":{"key":"03151","name":"Gifhorn","type":"Landkreis"},"federalState":{"key":"03","name":"Niedersachsen"}},{"name":"Mühlenfuhren","postalCode":"38524","locality":"Sassenburg","municipality":{"key":"03151025","name":"Sassenburg","type":"Kreisangehörige_Gemeinde"},"district":{"key":"03151","name":"Gifhorn","type":"Landkreis"},"federalState":{"key":"03","name":"Niedersachsen"}},{"name":"Mühlengasse","postalCode":"59505","locality":"Bad Sassendorf","municipality":{"key":"05974008","name":"Bad Sassendorf","type":"Kreisangehörige_Gemeinde"},"district":{"key":"05974","name":"Soest","type":"Kreis"},"federalState":{"key":"05","name":"Nordrhein-Westfalen"}},{"name":"Mühlenweg","postalCode":"38524","locality":"Sassenburg","municipality":{"key":"03151025","name":"Sassenburg","type":"Kreisangehörige_Gemeinde"},"district":{"key":"03151","name":"Gifhorn","type":"Landkreis"},"federalState":{"key":"03","name":"Niedersachsen"}},{"name":"Mühlenweg","postalCode":"59505","locality":"Bad Sassendorf","municipality":{"key":"05974008","name":"Bad Sassendorf","type":"Kreisangehörige_Gemeinde"},"district":{"key":"05974","name":"Soest","type":"Kreis"},"federalState":{"key":"05","name":"Nordrhein-Westfalen"}},{"name":"Münchenreuth","postalCode":"95652","locality":"Waldsassen","municipality":{"key":"09377158","name":"Waldsassen, St","type":"Stadt"},"district":{"key":"09377","name":"Tirschenreuth","type":"Landkreis"},"federalState":{"key":"09","name":"Bayern"}},{"name":"Münchenreuther Str.","postalCode":"95652","locality":"Waldsassen","municipality":{"key":"09377158","name":"Waldsassen, St","type":"Stadt"},"district":{"key":"09377","name":"Tirschenreuth","type":"Landkreis"},"federalState":{"key":"09","name":"Bayern"}},{"name":"Museumsstr.","postalCode":"95652","locality":"Waldsassen","municipality":{"key":"09377158","name":"Waldsassen, St","type":"Stadt"},"district":{"key":"09377","name":"Tirschenreuth","type":"Landkreis"},"federalState":{"key":"09","name":"Bayern"}},{"name":"Muttonestr.","postalCode":"95652","locality":"Waldsassen","municipality":{"key":"09377158","name":"Waldsassen, St","type":"Stadt"},"district":{"key":"09377","name":"Tirschenreuth","type":"Landkreis"},"federalState":{"key":"09","name":"Bayern"}},{"name":"Nachtfalterweg","postalCode":"38524","locality":"Sassenburg","municipality":{"key":"03151025","name":"Sassenburg","type":"Kreisangehörige_Gemeinde"},"district":{"key":"03151","name":"Gifhorn","type":"Landkreis"},"federalState":{"key":"03","name":"Niedersachsen"}},{"name":"Nachtigallenallee","postalCode":"38524","locality":"Sassenburg","municipality":{"key":"03151025","name":"Sassenburg","type":"Kreisangehörige_Gemeinde"},"district":{"key":"03151","name":"Gifhorn","type":"Landkreis"},"federalState":{"key":"03","name":"Niedersachsen"}},{"name":"Netzstahler Str.","postalCode":"95652","locality":"Waldsassen","municipality":{"key":"09377158","name":"Waldsassen, St","type":"Stadt"},"district":{"key":"09377","name":"Tirschenreuth","type":"Landkreis"},"federalState":{"key":"09","name":"Bayern"}},{"name":"Neualbenreuther Str.","postalCode":"95652","locality":"Waldsassen","municipality":{"key":"09377158","name":"Waldsassen, St","type":"Stadt"},"district":{"key":"09377","name":"Tirschenreuth","type":"Landkreis"},"federalState":{"key":"09","name":"Bayern"}},{"name":"Neue Dorfstr.","postalCode":"38524","locality":"Sassenburg","municipality":{"key":"03151025","name":"Sassenburg","type":"Kreisangehörige_Gemeinde"},"district":{"key":"03151","name":"Gifhorn","type":"Landkreis"},"federalState":{"key":"03","name":"Niedersachsen"}},{"name":"Neue Gärten","postalCode":"95652","locality":"Waldsassen","municipality":{"key":"09377158","name":"Waldsassen, St","type":"Stadt"},"district":{"key":"09377","name":"Tirschenreuth","type":"Landkreis"},"federalState":{"key":"09","name":"Bayern"}},{"name":"Neuengeseker Heide","postalCode":"59505","locality":"Bad Sassendorf","municipality":{"key":"05974008","name":"Bad Sassendorf","type":"Kreisangehörige_Gemeinde"},"district":{"key":"05974","name":"Soest","type":"Kreis"},"federalState":{"key":"05","name":"Nordrhein-Westfalen"}},{"name":"Neuengeseker Str.","postalCode":"59505","locality":"Bad Sassendorf","municipality":{"key":"05974008","name":"Bad Sassendorf","type":"Kreisangehörige_Gemeinde"},"district":{"key":"05974","name":"Soest","type":"Kreis"},"federalState":{"key":"05","name":"Nordrhein-Westfalen"}},{"name":"Neuenkamp","postalCode":"59505","locality":"Bad Sassendorf","municipality":{"key":"05974008","name":"Bad Sassendorf","type":"Kreisangehörige_Gemeinde"},"district":{"key":"05974","name":"Soest","type":"Kreis"},"federalState":{"key":"05","name":"Nordrhein-Westfalen"}},{"name":"Neuer Weg","postalCode":"59505","locality":"Bad Sassendorf","municipality":{"key":"05974008","name":"Bad Sassendorf","type":"Kreisangehörige_Gemeinde"},"district":{"key":"05974","name":"Soest","type":"Kreis"},"federalState":{"key":"05","name":"Nordrhein-Westfalen"}},{"name":"Neue Str.","postalCode":"38524","locality":"Sassenburg","municipality":{"key":"03151025","name":"Sassenburg","type":"Kreisangehörige_Gemeinde"},"district":{"key":"03151","name":"Gifhorn","type":"Landkreis"},"federalState":{"key":"03","name":"Niedersachsen"}},{"name":"Neuferchauer Str.","postalCode":"38524","locality":"Sassenburg","municipality":{"key":"03151025","name":"Sassenburg","type":"Kreisangehörige_Gemeinde"},"district":{"key":"03151","name":"Gifhorn","type":"Landkreis"},"federalState":{"key":"03","name":"Niedersachsen"}},{"name":"Neuhaus","postalCode":"38524","locality":"Sassenburg","municipality":{"key":"03151025","name":"Sassenburg","type":"Kreisangehörige_Gemeinde"},"district":{"key":"03151","name":"Gifhorn","type":"Landkreis"},"federalState":{"key":"03","name":"Niedersachsen"}},{"name":"Neumühlenstr.","postalCode":"48336","locality":"Sassenberg","municipality":{"key":"05570036","name":"Sassenberg, Stadt","type":"Stadt"},"district":{"key":"05570","name":"Warendorf","type":"Kreis"},"federalState":{"key":"05","name":"Nordrhein-Westfalen"}},{"name":"Neuteichweg","postalCode":"95652","locality":"Waldsassen","municipality":{"key":"09377158","name":"Waldsassen, St","type":"Stadt"},"district":{"key":"09377","name":"Tirschenreuth","type":"Landkreis"},"federalState":{"key":"09","name":"Bayern"}},{"name":"Nieländer","postalCode":"48336","locality":"Sassenberg","municipality":{"key":"05570036","name":"Sassenberg, Stadt","type":"Stadt"},"district":{"key":"05570","name":"Warendorf","type":"Kreis"},"federalState":{"key":"05","name":"Nordrhein-Westfalen"}},{"name":"Oberdorf","postalCode":"59505","locality":"Bad Sassendorf","municipality":{"key":"05974008","name":"Bad Sassendorf","type":"Kreisangehörige_Gemeinde"},"district":{"key":"05974","name":"Soest","type":"Kreis"},"federalState":{"key":"05","name":"Nordrhein-Westfalen"}},{"name":"Oberm Teich","postalCode":"59505","locality":"Bad Sassendorf","municipality":{"key":"05974008","name":"Bad Sassendorf","type":"Kreisangehörige_Gemeinde"},"district":{"key":"05974","name":"Soest","type":"Kreis"},"federalState":{"key":"05","name":"Nordrhein-Westfalen"}},{"name":"Oesterweger Str.","postalCode":"48336","locality":"Sassenberg","municipality":{"key":"05570036","name":"Sassenberg, Stadt","type":"Stadt"},"district":{"key":"05570","name":"Warendorf","type":"Kreis"},"federalState":{"key":"05","name":"Nordrhein-Westfalen"}},{"name":"Opmünder Weg","postalCode":"59505","locality":"Bad Sassendorf","municipality":{"key":"05974008","name":"Bad Sassendorf","type":"Kreisangehörige_Gemeinde"},"district":{"key":"05974","name":"Soest","type":"Kreis"},"federalState":{"key":"05","name":"Nordrhein-Westfalen"}},{"name":"Oppelner Str.","postalCode":"48336","locality":"Sassenberg","municipality":{"key":"05570036","name":"Sassenberg, Stadt","type":"Stadt"},"district":{"key":"05570","name":"Warendorf","type":"Kreis"},"federalState":{"key":"05","name":"Nordrhein-Westfalen"}},{"name":"Ostermannstr.","postalCode":"59505","locality":"Bad Sassendorf","municipality":{"key":"05974008","name":"Bad Sassendorf","type":"Kreisangehörige_Gemeinde"},"district":{"key":"05974","name":"Soest","type":"Kreis"},"federalState":{"key":"05","name":"Nordrhein-Westfalen"}},{"name":"Ostinghauser Str.","postalCode":"59505","locality":"Bad Sassendorf","municipality":{"key":"05974008","name":"Bad Sassendorf","type":"Kreisangehörige_Gemeinde"},"district":{"key":"05974","name":"Soest","type":"Kreis"},"federalState":{"key":"05","name":"Nordrhein-Westfalen"}},{"name":"Ostlandweg","postalCode":"38524","locality":"Sassenburg","municipality":{"key":"03151025","name":"Sassenburg","type":"Kreisangehörige_Gemeinde"},"district":{"key":"03151","name":"Gifhorn","type":"Landkreis"},"federalState":{"key":"03","name":"Niedersachsen"}},{"name":"Ostpreußenweg","postalCode":"59505","locality":"Bad Sassendorf","municipality":{"key":"05974008","name":"Bad Sassendorf","type":"Kreisangehörige_Gemeinde"},"district":{"key":"05974","name":"Soest","type":"Kreis"},"federalState":{"key":"05","name":"Nordrhein-Westfalen"}},{"name":"Oststr.","postalCode":"59505","locality":"Bad Sassendorf","municipality":{"key":"05974008","name":"Bad Sassendorf","type":"Kreisangehörige_Gemeinde"},"district":{"key":"05974","name":"Soest","type":"Kreis"},"federalState":{"key":"05","name":"Nordrhein-Westfalen"}},{"name":"Otto-Freundl-Str.","postalCode":"95652","locality":"Waldsassen","municipality":{"key":"09377158","name":"Waldsassen, St","type":"Stadt"},"district":{"key":"09377","name":"Tirschenreuth","type":"Landkreis"},"federalState":{"key":"09","name":"Bayern"}},{"name":"Otto-Krenz-Str.","postalCode":"38524","locality":"Sassenburg","municipality":{"key":"03151025","name":"Sassenburg","type":"Kreisangehörige_Gemeinde"},"district":{"key":"03151","name":"Gifhorn","type":"Landkreis"},"federalState":{"key":"03","name":"Niedersachsen"}},{"name":"Otto-Plagge-Weg","postalCode":"38524","locality":"Sassenburg","municipality":{"key":"03151025","name":"Sassenburg","type":"Kreisangehörige_Gemeinde"},"district":{"key":"03151","name":"Gifhorn","type":"Landkreis"},"federalState":{"key":"03","name":"Niedersachsen"}},{"name":"Pappelgasse","postalCode":"38524","locality":"Sassenburg","municipality":{"key":"03151025","name":"Sassenburg","type":"Kreisangehörige_Gemeinde"},"district":{"key":"03151","name":"Gifhorn","type":"Landkreis"},"federalState":{"key":"03","name":"Niedersachsen"}},{"name":"Pastor-Keller-Str.","postalCode":"17121","locality":"Sassen-Trantow","municipality":{"key":"13075123","name":"Sassen-Trantow","type":"Kreisangehörige_Gemeinde"},"district":{"key":"13075","name":"Vorpommern-Greifswald","type":"Landkreis"},"federalState":{"key":"13","name":"Mecklenburg-Vorpommern"}},{"name":"Pater-Mauritius-Str.","postalCode":"95652","locality":"Waldsassen","municipality":{"key":"09377158","name":"Waldsassen, St","type":"Stadt"},"district":{"key":"09377","name":"Tirschenreuth","type":"Landkreis"},"federalState":{"key":"09","name":"Bayern"}},{"name":"Paulinenhöhe","postalCode":"48336","locality":"Sassenberg","municipality":{"key":"05570036","name":"Sassenberg, Stadt","type":"Stadt"},"district":{"key":"05570","name":"Warendorf","type":"Kreis"},"federalState":{"key":"05","name":"Nordrhein-Westfalen"}},{"name":"Peckeloher Str.","postalCode":"48336","locality":"Sassenberg","municipality":{"key":"05570036","name":"Sassenberg, Stadt","type":"Stadt"},"district":{"key":"05570","name":"Warendorf","type":"Kreis"},"federalState":{"key":"05","name":"Nordrhein-Westfalen"}},{"name":"Peeneberg","postalCode":"17121","locality":"Sassen-Trantow","municipality":{"key":"13075123","name":"Sassen-Trantow","type":"Kreisangehörige_Gemeinde"},"district":{"key":"13075","name":"Vorpommern-Greifswald","type":"Landkreis"},"federalState":{"key":"13","name":"Mecklenburg-Vorpommern"}},{"name":"Pencoed-Ring","postalCode":"95652","locality":"Waldsassen","municipality":{"key":"09377158","name":"Waldsassen, St","type":"Stadt"},"district":{"key":"09377","name":"Tirschenreuth","type":"Landkreis"},"federalState":{"key":"09","name":"Bayern"}},{"name":"Pfaffenreuther Str.","postalCode":"95652","locality":"Waldsassen","municipality":{"key":"09377158","name":"Waldsassen, St","type":"Stadt"},"district":{"key":"09377","name":"Tirschenreuth","type":"Landkreis"},"federalState":{"key":"09","name":"Bayern"}},{"name":"Pferdekoppel","postalCode":"38524","locality":"Sassenburg","municipality":{"key":"03151025","name":"Sassenburg","type":"Kreisangehörige_Gemeinde"},"district":{"key":"03151","name":"Gifhorn","type":"Landkreis"},"federalState":{"key":"03","name":"Niedersachsen"}},{"name":"PHÖNIX-Seniorenzentrum Eichenhof","postalCode":"38524","locality":"Sassenburg","municipality":{"key":"03151025","name":"Sassenburg","type":"Kreisangehörige_Gemeinde"},"district":{"key":"03151","name":"Gifhorn","type":"Landkreis"},"federalState":{"key":"03","name":"Niedersachsen"}},{"name":"Pictoriusstr.","postalCode":"48336","locality":"Sassenberg","municipality":{"key":"05570036","name":"Sassenberg, Stadt","type":"Stadt"},"district":{"key":"05570","name":"Warendorf","type":"Kreis"},"federalState":{"key":"05","name":"Nordrhein-Westfalen"}},{"name":"Pirolweg","postalCode":"48336","locality":"Sassenberg","municipality":{"key":"05570036","name":"Sassenberg, Stadt","type":"Stadt"},"district":{"key":"05570","name":"Warendorf","type":"Kreis"},"federalState":{"key":"05","name":"Nordrhein-Westfalen"}},{"name":"Platering","postalCode":"38524","locality":"Sassenburg","municipality":{"key":"03151025","name":"Sassenburg","type":"Kreisangehörige_Gemeinde"},"district":{"key":"03151","name":"Gifhorn","type":"Landkreis"},"federalState":{"key":"03","name":"Niedersachsen"}},{"name":"Pleußener Weg","postalCode":"95652","locality":"Waldsassen","municipality":{"key":"09377158","name":"Waldsassen, St","type":"Stadt"},"district":{"key":"09377","name":"Tirschenreuth","type":"Landkreis"},"federalState":{"key":"09","name":"Bayern"}},{"name":"Plöwener Str.","postalCode":"48336","locality":"Sassenberg","municipality":{"key":"05570036","name":"Sassenberg, Stadt","type":"Stadt"},"district":{"key":"05570","name":"Warendorf","type":"Kreis"},"federalState":{"key":"05","name":"Nordrhein-Westfalen"}},{"name":"Poggenbrook","postalCode":"48336","locality":"Sassenberg","municipality":{"key":"05570036","name":"Sassenberg, Stadt","type":"Stadt"},"district":{"key":"05570","name":"Warendorf","type":"Kreis"},"federalState":{"key":"05","name":"Nordrhein-Westfalen"}},{"name":"Pointweg","postalCode":"95652","locality":"Waldsassen","municipality":{"key":"09377158","name":"Waldsassen, St","type":"Stadt"},"district":{"key":"09377","name":"Tirschenreuth","type":"Landkreis"},"federalState":{"key":"09","name":"Bayern"}},{"name":"Porschestr.","postalCode":"48336","locality":"Sassenberg","municipality":{"key":"05570036","name":"Sassenberg, Stadt","type":"Stadt"},"district":{"key":"05570","name":"Warendorf","type":"Kreis"},"federalState":{"key":"05","name":"Nordrhein-Westfalen"}},{"name":"Posener Str.","postalCode":"38524","locality":"Sassenburg","municipality":{"key":"03151025","name":"Sassenburg","type":"Kreisangehörige_Gemeinde"},"district":{"key":"03151","name":"Gifhorn","type":"Landkreis"},"federalState":{"key":"03","name":"Niedersachsen"}},{"name":"Pötzlstr.","postalCode":"95652","locality":"Waldsassen","municipality":{"key":"09377158","name":"Waldsassen, St","type":"Stadt"},"district":{"key":"09377","name":"Tirschenreuth","type":"Landkreis"},"federalState":{"key":"09","name":"Bayern"}},{"name":"Prinz-Ludwig-Str.","postalCode":"95652","locality":"Waldsassen","municipality":{"key":"09377158","name":"Waldsassen, St","type":"Stadt"},"district":{"key":"09377","name":"Tirschenreuth","type":"Landkreis"},"federalState":{"key":"09","name":"Bayern"}},{"name":"Prinzregent-Luitpold-Str.","postalCode":"95652","locality":"Waldsassen","municipality":{"key":"09377158","name":"Waldsassen, St","type":"Stadt"},"district":{"key":"09377","name":"Tirschenreuth","type":"Landkreis"},"federalState":{"key":"09","name":"Bayern"}},{"name":"Pustow Ausbau","postalCode":"17121","locality":"Sassen-Trantow","municipality":{"key":"13075123","name":"Sassen-Trantow","type":"Kreisangehörige_Gemeinde"},"district":{"key":"13075","name":"Vorpommern-Greifswald","type":"Landkreis"},"federalState":{"key":"13","name":"Mecklenburg-Vorpommern"}},{"name":"Quellengrund","postalCode":"38524","locality":"Sassenburg","municipality":{"key":"03151025","name":"Sassenburg","type":"Kreisangehörige_Gemeinde"},"district":{"key":"03151","name":"Gifhorn","type":"Landkreis"},"federalState":{"key":"03","name":"Niedersachsen"}},{"name":"Querenbach","postalCode":"95652","locality":"Waldsassen","municipality":{"key":"09377158","name":"Waldsassen, St","type":"Stadt"},"district":{"key":"09377","name":"Tirschenreuth","type":"Landkreis"},"federalState":{"key":"09","name":"Bayern"}},{"name":"Raiffeisenstr.","postalCode":"95652","locality":"Waldsassen","municipality":{"key":"09377158","name":"Waldsassen, St","type":"Stadt"},"district":{"key":"09377","name":"Tirschenreuth","type":"Landkreis"},"federalState":{"key":"09","name":"Bayern"}},{"name":"Raiffeisenweg","postalCode":"48336","locality":"Sassenberg","municipality":{"key":"05570036","name":"Sassenberg, Stadt","type":"Stadt"},"district":{"key":"05570","name":"Warendorf","type":"Kreis"},"federalState":{"key":"05","name":"Nordrhein-Westfalen"}},{"name":"Rauklohweg","postalCode":"59505","locality":"Bad Sassendorf","municipality":{"key":"05974008","name":"Bad Sassendorf","type":"Kreisangehörige_Gemeinde"},"district":{"key":"05974","name":"Soest","type":"Kreis"},"federalState":{"key":"05","name":"Nordrhein-Westfalen"}},{"name":"Ravensberger Str.","postalCode":"48336","locality":"Sassenberg","municipality":{"key":"05570036","name":"Sassenberg, Stadt","type":"Stadt"},"district":{"key":"05570","name":"Warendorf","type":"Kreis"},"federalState":{"key":"05","name":"Nordrhein-Westfalen"}},{"name":"Rebhuhnweg","postalCode":"38524","locality":"Sassenburg","municipality":{"key":"03151025","name":"Sassenburg","type":"Kreisangehörige_Gemeinde"},"district":{"key":"03151","name":"Gifhorn","type":"Landkreis"},"federalState":{"key":"03","name":"Niedersachsen"}},{"name":"Reckstr.","postalCode":"48336","locality":"Sassenberg","municipality":{"key":"05570036","name":"Sassenberg, Stadt","type":"Stadt"},"district":{"key":"05570","name":"Warendorf","type":"Kreis"},"federalState":{"key":"05","name":"Nordrhein-Westfalen"}},{"name":"Reckweg","postalCode":"48336","locality":"Sassenberg","municipality":{"key":"05570036","name":"Sassenberg, Stadt","type":"Stadt"},"district":{"key":"05570","name":"Warendorf","type":"Kreis"},"federalState":{"key":"05","name":"Nordrhein-Westfalen"}},{"name":"Reichenbacher Str.","postalCode":"48336","locality":"Sassenberg","municipality":{"key":"05570036","name":"Sassenberg, Stadt","type":"Stadt"},"district":{"key":"05570","name":"Warendorf","type":"Kreis"},"federalState":{"key":"05","name":"Nordrhein-Westfalen"}},{"name":"Reiherwinkel","postalCode":"38524","locality":"Sassenburg","municipality":{"key":"03151025","name":"Sassenburg","type":"Kreisangehörige_Gemeinde"},"district":{"key":"03151","name":"Gifhorn","type":"Landkreis"},"federalState":{"key":"03","name":"Niedersachsen"}},{"name":"Reinharzstr.","postalCode":"48336","locality":"Sassenberg","municipality":{"key":"05570036","name":"Sassenberg, Stadt","type":"Stadt"},"district":{"key":"05570","name":"Warendorf","type":"Kreis"},"federalState":{"key":"05","name":"Nordrhein-Westfalen"}},{"name":"Reinholdstr.","postalCode":"48336","locality":"Sassenberg","municipality":{"key":"05570036","name":"Sassenberg, Stadt","type":"Stadt"},"district":{"key":"05570","name":"Warendorf","type":"Kreis"},"federalState":{"key":"05","name":"Nordrhein-Westfalen"}},{"name":"Reiterweg","postalCode":"59505","locality":"Bad Sassendorf","municipality":{"key":"05974008","name":"Bad Sassendorf","type":"Kreisangehörige_Gemeinde"},"district":{"key":"05974","name":"Soest","type":"Kreis"},"federalState":{"key":"05","name":"Nordrhein-Westfalen"}},{"name":"Rennweg","postalCode":"59505","locality":"Bad Sassendorf","municipality":{"key":"05974008","name":"Bad Sassendorf","type":"Kreisangehörige_Gemeinde"},"district":{"key":"05974","name":"Soest","type":"Kreis"},"federalState":{"key":"05","name":"Nordrhein-Westfalen"}},{"name":"Resedastr.","postalCode":"38524","locality":"Sassenburg","municipality":{"key":"03151025","name":"Sassenburg","type":"Kreisangehörige_Gemeinde"},"district":{"key":"03151","name":"Gifhorn","type":"Landkreis"},"federalState":{"key":"03","name":"Niedersachsen"}},{"name":"Rhododendronpark Triangel","postalCode":"38524","locality":"Sassenburg","municipality":{"key":"03151025","name":"Sassenburg","type":"Kreisangehörige_Gemeinde"},"district":{"key":"03151","name":"Gifhorn","type":"Landkreis"},"federalState":{"key":"03","name":"Niedersachsen"}},{"name":"Riesengasse","postalCode":"38524","locality":"Sassenburg","municipality":{"key":"03151025","name":"Sassenburg","type":"Kreisangehörige_Gemeinde"},"district":{"key":"03151","name":"Gifhorn","type":"Landkreis"},"federalState":{"key":"03","name":"Niedersachsen"}},{"name":"Ringstr.","postalCode":"38524","locality":"Sassenburg","municipality":{"key":"03151025","name":"Sassenburg","type":"Kreisangehörige_Gemeinde"},"district":{"key":"03151","name":"Gifhorn","type":"Landkreis"},"federalState":{"key":"03","name":"Niedersachsen"}},{"name":"Ringstr.","postalCode":"48336","locality":"Sassenberg","municipality":{"key":"05570036","name":"Sassenberg, Stadt","type":"Stadt"},"district":{"key":"05570","name":"Warendorf","type":"Kreis"},"federalState":{"key":"05","name":"Nordrhein-Westfalen"}},{"name":"Rittberg","postalCode":"56767","locality":"Sassen","municipality":{"key":"07233236","name":"Sassen","type":"Kreisangehörige_Gemeinde"},"district":{"key":"07233","name":"Vulkaneifel","type":"Landkreis"},"federalState":{"key":"07","name":"Rheinland-Pfalz"}},{"name":"Röbeler Str.","postalCode":"38524","locality":"Sassenburg","municipality":{"key":"03151025","name":"Sassenburg","type":"Kreisangehörige_Gemeinde"},"district":{"key":"03151","name":"Gifhorn","type":"Landkreis"},"federalState":{"key":"03","name":"Niedersachsen"}},{"name":"Robert-Linnemann-Str.","postalCode":"48336","locality":"Sassenberg","municipality":{"key":"05570036","name":"Sassenberg, Stadt","type":"Stadt"},"district":{"key":"05570","name":"Warendorf","type":"Kreis"},"federalState":{"key":"05","name":"Nordrhein-Westfalen"}},{"name":"Roggenkamp","postalCode":"59505","locality":"Bad Sassendorf","municipality":{"key":"05974008","name":"Bad Sassendorf","type":"Kreisangehörige_Gemeinde"},"district":{"key":"05974","name":"Soest","type":"Kreis"},"federalState":{"key":"05","name":"Nordrhein-Westfalen"}},{"name":"Rosenstr.","postalCode":"48336","locality":"Sassenberg","municipality":{"key":"05570036","name":"Sassenberg, Stadt","type":"Stadt"},"district":{"key":"05570","name":"Warendorf","type":"Kreis"},"federalState":{"key":"05","name":"Nordrhein-Westfalen"}},{"name":"Rosenstr.","postalCode":"59505","locality":"Bad Sassendorf","municipality":{"key":"05974008","name":"Bad Sassendorf","type":"Kreisangehörige_Gemeinde"},"district":{"key":"05974","name":"Soest","type":"Kreis"},"federalState":{"key":"05","name":"Nordrhein-Westfalen"}},{"name":"Rosenweg","postalCode":"38524","locality":"Sassenburg","municipality":{"key":"03151025","name":"Sassenburg","type":"Kreisangehörige_Gemeinde"},"district":{"key":"03151","name":"Gifhorn","type":"Landkreis"},"federalState":{"key":"03","name":"Niedersachsen"}},{"name":"Rosenweg","postalCode":"48336","locality":"Sassenberg","municipality":{"key":"05570036","name":"Sassenberg, Stadt","type":"Stadt"},"district":{"key":"05570","name":"Warendorf","type":"Kreis"},"federalState":{"key":"05","name":"Nordrhein-Westfalen"}},{"name":"Rotdornweg","postalCode":"38524","locality":"Sassenburg","municipality":{"key":"03151025","name":"Sassenburg","type":"Kreisangehörige_Gemeinde"},"district":{"key":"03151","name":"Gifhorn","type":"Landkreis"},"federalState":{"key":"03","name":"Niedersachsen"}},{"name":"Rotdornweg","postalCode":"48336","locality":"Sassenberg","municipality":{"key":"05570036","name":"Sassenberg, Stadt","type":"Stadt"},"district":{"key":"05570","name":"Warendorf","type":"Kreis"},"federalState":{"key":"05","name":"Nordrhein-Westfalen"}},{"name":"Rothe Lohe","postalCode":"95652","locality":"Waldsassen","municipality":{"key":"09377158","name":"Waldsassen, St","type":"Stadt"},"district":{"key":"09377","name":"Tirschenreuth","type":"Landkreis"},"federalState":{"key":"09","name":"Bayern"}},{"name":"Rotkäppchenweg","postalCode":"38524","locality":"Sassenburg","municipality":{"key":"03151025","name":"Sassenburg","type":"Kreisangehörige_Gemeinde"},"district":{"key":"03151","name":"Gifhorn","type":"Landkreis"},"federalState":{"key":"03","name":"Niedersachsen"}},{"name":"Rüschkamp","postalCode":"48336","locality":"Sassenberg","municipality":{"key":"05570036","name":"Sassenberg, Stadt","type":"Stadt"},"district":{"key":"05570","name":"Warendorf","type":"Kreis"},"federalState":{"key":"05","name":"Nordrhein-Westfalen"}},{"name":"Salzstr.","postalCode":"59505","locality":"Bad Sassendorf","municipality":{"key":"05974008","name":"Bad Sassendorf","type":"Kreisangehörige_Gemeinde"},"district":{"key":"05974","name":"Soest","type":"Kreis"},"federalState":{"key":"05","name":"Nordrhein-Westfalen"}},{"name":"Salzwedeler Str.","postalCode":"38524","locality":"Sassenburg","municipality":{"key":"03151025","name":"Sassenburg","type":"Kreisangehörige_Gemeinde"},"district":{"key":"03151","name":"Gifhorn","type":"Landkreis"},"federalState":{"key":"03","name":"Niedersachsen"}},{"name":"Sandberg","postalCode":"17121","locality":"Sassen-Trantow","municipality":{"key":"13075123","name":"Sassen-Trantow","type":"Kreisangehörige_Gemeinde"},"district":{"key":"13075","name":"Vorpommern-Greifswald","type":"Landkreis"},"federalState":{"key":"13","name":"Mecklenburg-Vorpommern"}},{"name":"Sanddamm","postalCode":"38524","locality":"Sassenburg","municipality":{"key":"03151025","name":"Sassenburg","type":"Kreisangehörige_Gemeinde"},"district":{"key":"03151","name":"Gifhorn","type":"Landkreis"},"federalState":{"key":"03","name":"Niedersachsen"}},{"name":"Sanddornweg","postalCode":"48336","locality":"Sassenberg","municipality":{"key":"05570036","name":"Sassenberg, Stadt","type":"Stadt"},"district":{"key":"05570","name":"Warendorf","type":"Kreis"},"federalState":{"key":"05","name":"Nordrhein-Westfalen"}},{"name":"Sandstr.","postalCode":"95652","locality":"Waldsassen","municipality":{"key":"09377158","name":"Waldsassen, St","type":"Stadt"},"district":{"key":"09377","name":"Tirschenreuth","type":"Landkreis"},"federalState":{"key":"09","name":"Bayern"}},{"name":"Sandweg","postalCode":"38524","locality":"Sassenburg","municipality":{"key":"03151025","name":"Sassenburg","type":"Kreisangehörige_Gemeinde"},"district":{"key":"03151","name":"Gifhorn","type":"Landkreis"},"federalState":{"key":"03","name":"Niedersachsen"}},{"name":"Sassenberger Str.","postalCode":"48336","locality":"Sassenberg","municipality":{"key":"05570036","name":"Sassenberg, Stadt","type":"Stadt"},"district":{"key":"05570","name":"Warendorf","type":"Kreis"},"federalState":{"key":"05","name":"Nordrhein-Westfalen"}},{"name":"Sassenburgstr.","postalCode":"38524","locality":"Sassenburg","municipality":{"key":"03151025","name":"Sassenburg","type":"Kreisangehörige_Gemeinde"},"district":{"key":"03151","name":"Gifhorn","type":"Landkreis"},"federalState":{"key":"03","name":"Niedersachsen"}},{"name":"Sattlerstr.","postalCode":"48336","locality":"Sassenberg","municipality":{"key":"05570036","name":"Sassenberg, Stadt","type":"Stadt"},"district":{"key":"05570","name":"Warendorf","type":"Kreis"},"federalState":{"key":"05","name":"Nordrhein-Westfalen"}},{"name":"Sattlerweg","postalCode":"59505","locality":"Bad Sassendorf","municipality":{"key":"05974008","name":"Bad Sassendorf","type":"Kreisangehörige_Gemeinde"},"district":{"key":"05974","name":"Soest","type":"Kreis"},"federalState":{"key":"05","name":"Nordrhein-Westfalen"}},{"name":"Sauerstr.","postalCode":"59505","locality":"Bad Sassendorf","municipality":{"key":"05974008","name":"Bad Sassendorf","type":"Kreisangehörige_Gemeinde"},"district":{"key":"05974","name":"Soest","type":"Kreis"},"federalState":{"key":"05","name":"Nordrhein-Westfalen"}},{"name":"Schachblumenweg","postalCode":"48336","locality":"Sassenberg","municipality":{"key":"05570036","name":"Sassenberg, Stadt","type":"Stadt"},"district":{"key":"05570","name":"Warendorf","type":"Kreis"},"federalState":{"key":"05","name":"Nordrhein-Westfalen"}},{"name":"Schaefstr.","postalCode":"48336","locality":"Sassenberg","municipality":{"key":"05570036","name":"Sassenberg, Stadt","type":"Stadt"},"district":{"key":"05570","name":"Warendorf","type":"Kreis"},"federalState":{"key":"05","name":"Nordrhein-Westfalen"}},{"name":"Schaller Weg","postalCode":"59505","locality":"Bad Sassendorf","municipality":{"key":"05974008","name":"Bad Sassendorf","type":"Kreisangehörige_Gemeinde"},"district":{"key":"05974","name":"Soest","type":"Kreis"},"federalState":{"key":"05","name":"Nordrhein-Westfalen"}},{"name":"Schickerweg","postalCode":"95652","locality":"Waldsassen","municipality":{"key":"09377158","name":"Waldsassen, St","type":"Stadt"},"district":{"key":"09377","name":"Tirschenreuth","type":"Landkreis"},"federalState":{"key":"09","name":"Bayern"}},{"name":"Schillerstr.","postalCode":"48336","locality":"Sassenberg","municipality":{"key":"05570036","name":"Sassenberg, Stadt","type":"Stadt"},"district":{"key":"05570","name":"Warendorf","type":"Kreis"},"federalState":{"key":"05","name":"Nordrhein-Westfalen"}},{"name":"Schillerstr.","postalCode":"59505","locality":"Bad Sassendorf","municipality":{"key":"05974008","name":"Bad Sassendorf","type":"Kreisangehörige_Gemeinde"},"district":{"key":"05974","name":"Soest","type":"Kreis"},"federalState":{"key":"05","name":"Nordrhein-Westfalen"}},{"name":"Schillerstr.","postalCode":"95652","locality":"Waldsassen","municipality":{"key":"09377158","name":"Waldsassen, St","type":"Stadt"},"district":{"key":"09377","name":"Tirschenreuth","type":"Landkreis"},"federalState":{"key":"09","name":"Bayern"}},{"name":"Schlatmanns Weg","postalCode":"48336","locality":"Sassenberg","municipality":{"key":"05570036","name":"Sassenberg, Stadt","type":"Stadt"},"district":{"key":"05570","name":"Warendorf","type":"Kreis"},"federalState":{"key":"05","name":"Nordrhein-Westfalen"}},{"name":"Schlaunstr.","postalCode":"48336","locality":"Sassenberg","municipality":{"key":"05570036","name":"Sassenberg, Stadt","type":"Stadt"},"district":{"key":"05570","name":"Warendorf","type":"Kreis"},"federalState":{"key":"05","name":"Nordrhein-Westfalen"}},{"name":"Schleddebreite","postalCode":"59505","locality":"Bad Sassendorf","municipality":{"key":"05974008","name":"Bad Sassendorf","type":"Kreisangehörige_Gemeinde"},"district":{"key":"05974","name":"Soest","type":"Kreis"},"federalState":{"key":"05","name":"Nordrhein-Westfalen"}},{"name":"Schlehenweg","postalCode":"48336","locality":"Sassenberg","municipality":{"key":"05570036","name":"Sassenberg, Stadt","type":"Stadt"},"district":{"key":"05570","name":"Warendorf","type":"Kreis"},"federalState":{"key":"05","name":"Nordrhein-Westfalen"}},{"name":"Schleppsgraben","postalCode":"59505","locality":"Bad Sassendorf","municipality":{"key":"05974008","name":"Bad Sassendorf","type":"Kreisangehörige_Gemeinde"},"district":{"key":"05974","name":"Soest","type":"Kreis"},"federalState":{"key":"05","name":"Nordrhein-Westfalen"}},{"name":"Schlesierstr.","postalCode":"95652","locality":"Waldsassen","municipality":{"key":"09377158","name":"Waldsassen, St","type":"Stadt"},"district":{"key":"09377","name":"Tirschenreuth","type":"Landkreis"},"federalState":{"key":"09","name":"Bayern"}},{"name":"Schlosserstr.","postalCode":"48336","locality":"Sassenberg","municipality":{"key":"05570036","name":"Sassenberg, Stadt","type":"Stadt"},"district":{"key":"05570","name":"Warendorf","type":"Kreis"},"federalState":{"key":"05","name":"Nordrhein-Westfalen"}},{"name":"Schloßstr.","postalCode":"48336","locality":"Sassenberg","municipality":{"key":"05570036","name":"Sassenberg, Stadt","type":"Stadt"},"district":{"key":"05570","name":"Warendorf","type":"Kreis"},"federalState":{"key":"05","name":"Nordrhein-Westfalen"}},{"name":"Schluppergasse","postalCode":"59505","locality":"Bad Sassendorf","municipality":{"key":"05974008","name":"Bad Sassendorf","type":"Kreisangehörige_Gemeinde"},"district":{"key":"05974","name":"Soest","type":"Kreis"},"federalState":{"key":"05","name":"Nordrhein-Westfalen"}},{"name":"Schmiedestr.","postalCode":"48336","locality":"Sassenberg","municipality":{"key":"05570036","name":"Sassenberg, Stadt","type":"Stadt"},"district":{"key":"05570","name":"Warendorf","type":"Kreis"},"federalState":{"key":"05","name":"Nordrhein-Westfalen"}},{"name":"Schmiedeweg","postalCode":"59505","locality":"Bad Sassendorf","municipality":{"key":"05974008","name":"Bad Sassendorf","type":"Kreisangehörige_Gemeinde"},"district":{"key":"05974","name":"Soest","type":"Kreis"},"federalState":{"key":"05","name":"Nordrhein-Westfalen"}},{"name":"Schmiedplatz","postalCode":"95652","locality":"Waldsassen","municipality":{"key":"09377158","name":"Waldsassen, St","type":"Stadt"},"district":{"key":"09377","name":"Tirschenreuth","type":"Landkreis"},"federalState":{"key":"09","name":"Bayern"}},{"name":"Schneewittchenweg","postalCode":"38524","locality":"Sassenburg","municipality":{"key":"03151025","name":"Sassenburg","type":"Kreisangehörige_Gemeinde"},"district":{"key":"03151","name":"Gifhorn","type":"Landkreis"},"federalState":{"key":"03","name":"Niedersachsen"}},{"name":"Schneiderstr.","postalCode":"59505","locality":"Bad Sassendorf","municipality":{"key":"05974008","name":"Bad Sassendorf","type":"Kreisangehörige_Gemeinde"},"district":{"key":"05974","name":"Soest","type":"Kreis"},"federalState":{"key":"05","name":"Nordrhein-Westfalen"}},{"name":"Schnepfenweg","postalCode":"38524","locality":"Sassenburg","municipality":{"key":"03151025","name":"Sassenburg","type":"Kreisangehörige_Gemeinde"},"district":{"key":"03151","name":"Gifhorn","type":"Landkreis"},"federalState":{"key":"03","name":"Niedersachsen"}},{"name":"Schnepfenweg","postalCode":"48336","locality":"Sassenberg","municipality":{"key":"05570036","name":"Sassenberg, Stadt","type":"Stadt"},"district":{"key":"05570","name":"Warendorf","type":"Kreis"},"federalState":{"key":"05","name":"Nordrhein-Westfalen"}},{"name":"Schoneberger Str.","postalCode":"59505","locality":"Bad Sassendorf","municipality":{"key":"05974008","name":"Bad Sassendorf","type":"Kreisangehörige_Gemeinde"},"district":{"key":"05974","name":"Soest","type":"Kreis"},"federalState":{"key":"05","name":"Nordrhein-Westfalen"}},{"name":"Schubertstr.","postalCode":"48336","locality":"Sassenberg","municipality":{"key":"05570036","name":"Sassenberg, Stadt","type":"Stadt"},"district":{"key":"05570","name":"Warendorf","type":"Kreis"},"federalState":{"key":"05","name":"Nordrhein-Westfalen"}},{"name":"Schubertweg","postalCode":"59505","locality":"Bad Sassendorf","municipality":{"key":"05974008","name":"Bad Sassendorf","type":"Kreisangehörige_Gemeinde"},"district":{"key":"05974","name":"Soest","type":"Kreis"},"federalState":{"key":"05","name":"Nordrhein-Westfalen"}},{"name":"Schückingstr.","postalCode":"48336","locality":"Sassenberg","municipality":{"key":"05570036","name":"Sassenberg, Stadt","type":"Stadt"},"district":{"key":"05570","name":"Warendorf","type":"Kreis"},"federalState":{"key":"05","name":"Nordrhein-Westfalen"}},{"name":"Schulstr.","postalCode":"38524","locality":"Sassenburg","municipality":{"key":"03151025","name":"Sassenburg","type":"Kreisangehörige_Gemeinde"},"district":{"key":"03151","name":"Gifhorn","type":"Landkreis"},"federalState":{"key":"03","name":"Niedersachsen"}},{"name":"Schulstr.","postalCode":"59505","locality":"Bad Sassendorf","municipality":{"key":"05974008","name":"Bad Sassendorf","type":"Kreisangehörige_Gemeinde"},"district":{"key":"05974","name":"Soest","type":"Kreis"},"federalState":{"key":"05","name":"Nordrhein-Westfalen"}},{"name":"Schulstr.","postalCode":"95652","locality":"Waldsassen","municipality":{"key":"09377158","name":"Waldsassen, St","type":"Stadt"},"district":{"key":"09377","name":"Tirschenreuth","type":"Landkreis"},"federalState":{"key":"09","name":"Bayern"}},{"name":"Schulweg","postalCode":"38524","locality":"Sassenburg","municipality":{"key":"03151025","name":"Sassenburg","type":"Kreisangehörige_Gemeinde"},"district":{"key":"03151","name":"Gifhorn","type":"Landkreis"},"federalState":{"key":"03","name":"Niedersachsen"}},{"name":"Schulweg","postalCode":"59505","locality":"Bad Sassendorf","municipality":{"key":"05974008","name":"Bad Sassendorf","type":"Kreisangehörige_Gemeinde"},"district":{"key":"05974","name":"Soest","type":"Kreis"},"federalState":{"key":"05","name":"Nordrhein-Westfalen"}},{"name":"Schumannstr.","postalCode":"48336","locality":"Sassenberg","municipality":{"key":"05570036","name":"Sassenberg, Stadt","type":"Stadt"},"district":{"key":"05570","name":"Warendorf","type":"Kreis"},"federalState":{"key":"05","name":"Nordrhein-Westfalen"}},{"name":"Schürenknapp","postalCode":"48336","locality":"Sassenberg","municipality":{"key":"05570036","name":"Sassenberg, Stadt","type":"Stadt"},"district":{"key":"05570","name":"Warendorf","type":"Kreis"},"federalState":{"key":"05","name":"Nordrhein-Westfalen"}},{"name":"Schürenstr.","postalCode":"48336","locality":"Sassenberg","municipality":{"key":"05570036","name":"Sassenberg, Stadt","type":"Stadt"},"district":{"key":"05570","name":"Warendorf","type":"Kreis"},"federalState":{"key":"05","name":"Nordrhein-Westfalen"}},{"name":"Schustergasse","postalCode":"59505","locality":"Bad Sassendorf","municipality":{"key":"05974008","name":"Bad Sassendorf","type":"Kreisangehörige_Gemeinde"},"district":{"key":"05974","name":"Soest","type":"Kreis"},"federalState":{"key":"05","name":"Nordrhein-Westfalen"}},{"name":"Schützenstr.","postalCode":"59505","locality":"Bad Sassendorf","municipality":{"key":"05974008","name":"Bad Sassendorf","type":"Kreisangehörige_Gemeinde"},"district":{"key":"05974","name":"Soest","type":"Kreis"},"federalState":{"key":"05","name":"Nordrhein-Westfalen"}},{"name":"Schützenstr.","postalCode":"95652","locality":"Waldsassen","municipality":{"key":"09377158","name":"Waldsassen, St","type":"Stadt"},"district":{"key":"09377","name":"Tirschenreuth","type":"Landkreis"},"federalState":{"key":"09","name":"Bayern"}},{"name":"Talstr.","postalCode":"38524","locality":"Sassenburg","municipality":{"key":"03151025","name":"Sassenburg","type":"Kreisangehörige_Gemeinde"},"district":{"key":"03151","name":"Gifhorn","type":"Landkreis"},"federalState":{"key":"03","name":"Niedersachsen"}},{"name":"Talweg","postalCode":"56767","locality":"Sassen","municipality":{"key":"07233236","name":"Sassen","type":"Kreisangehörige_Gemeinde"},"district":{"key":"07233","name":"Vulkaneifel","type":"Landkreis"},"federalState":{"key":"07","name":"Rheinland-Pfalz"}},{"name":"Tannenweg","postalCode":"38524","locality":"Sassenburg","municipality":{"key":"03151025","name":"Sassenburg","type":"Kreisangehörige_Gemeinde"},"district":{"key":"03151","name":"Gifhorn","type":"Landkreis"},"federalState":{"key":"03","name":"Niedersachsen"}},{"name":"Tannenweg","postalCode":"48336","locality":"Sassenberg","municipality":{"key":"05570036","name":"Sassenberg, Stadt","type":"Stadt"},"district":{"key":"05570","name":"Warendorf","type":"Kreis"},"federalState":{"key":"05","name":"Nordrhein-Westfalen"}},{"name":"Taubenstr.","postalCode":"48336","locality":"Sassenberg","municipality":{"key":"05570036","name":"Sassenberg, Stadt","type":"Stadt"},"district":{"key":"05570","name":"Warendorf","type":"Kreis"},"federalState":{"key":"05","name":"Nordrhein-Westfalen"}},{"name":"Teichstr.","postalCode":"59505","locality":"Bad Sassendorf","municipality":{"key":"05974008","name":"Bad Sassendorf","type":"Kreisangehörige_Gemeinde"},"district":{"key":"05974","name":"Soest","type":"Kreis"},"federalState":{"key":"05","name":"Nordrhein-Westfalen"}},{"name":"Telgenkamp","postalCode":"48336","locality":"Sassenberg","municipality":{"key":"05570036","name":"Sassenberg, Stadt","type":"Stadt"},"district":{"key":"05570","name":"Warendorf","type":"Kreis"},"federalState":{"key":"05","name":"Nordrhein-Westfalen"}},{"name":"Therese-Kuhlmann-Str.","postalCode":"48336","locality":"Sassenberg","municipality":{"key":"05570036","name":"Sassenberg, Stadt","type":"Stadt"},"district":{"key":"05570","name":"Warendorf","type":"Kreis"},"federalState":{"key":"05","name":"Nordrhein-Westfalen"}},{"name":"Tie","postalCode":"48336","locality":"Sassenberg","municipality":{"key":"05570036","name":"Sassenberg, Stadt","type":"Stadt"},"district":{"key":"05570","name":"Warendorf","type":"Kreis"},"federalState":{"key":"05","name":"Nordrhein-Westfalen"}},{"name":"Tippengasse","postalCode":"59505","locality":"Bad Sassendorf","municipality":{"key":"05974008","name":"Bad Sassendorf","type":"Kreisangehörige_Gemeinde"},"district":{"key":"05974","name":"Soest","type":"Kreis"},"federalState":{"key":"05","name":"Nordrhein-Westfalen"}},{"name":"Tondorfstr.","postalCode":"48336","locality":"Sassenberg","municipality":{"key":"05570036","name":"Sassenberg, Stadt","type":"Stadt"},"district":{"key":"05570","name":"Warendorf","type":"Kreis"},"federalState":{"key":"05","name":"Nordrhein-Westfalen"}},{"name":"Torfplatz","postalCode":"38524","locality":"Sassenburg","municipality":{"key":"03151025","name":"Sassenburg","type":"Kreisangehörige_Gemeinde"},"district":{"key":"03151","name":"Gifhorn","type":"Landkreis"},"federalState":{"key":"03","name":"Niedersachsen"}},{"name":"Triangeler Hauptstr.","postalCode":"38524","locality":"Sassenburg","municipality":{"key":"03151025","name":"Sassenburg","type":"Kreisangehörige_Gemeinde"},"district":{"key":"03151","name":"Gifhorn","type":"Landkreis"},"federalState":{"key":"03","name":"Niedersachsen"}},{"name":"Triangeler Kuhbrücke","postalCode":"38524","locality":"Sassenburg","municipality":{"key":"03151025","name":"Sassenburg","type":"Kreisangehörige_Gemeinde"},"district":{"key":"03151","name":"Gifhorn","type":"Landkreis"},"federalState":{"key":"03","name":"Niedersachsen"}},{"name":"Triftweg","postalCode":"38524","locality":"Sassenburg","municipality":{"key":"03151025","name":"Sassenburg","type":"Kreisangehörige_Gemeinde"},"district":{"key":"03151","name":"Gifhorn","type":"Landkreis"},"federalState":{"key":"03","name":"Niedersachsen"}},{"name":"Triftweg","postalCode":"59505","locality":"Bad Sassendorf","municipality":{"key":"05974008","name":"Bad Sassendorf","type":"Kreisangehörige_Gemeinde"},"district":{"key":"05974","name":"Soest","type":"Kreis"},"federalState":{"key":"05","name":"Nordrhein-Westfalen"}},{"name":"Tüleck","postalCode":"48336","locality":"Sassenberg","municipality":{"key":"05570036","name":"Sassenberg, Stadt","type":"Stadt"},"district":{"key":"05570","name":"Warendorf","type":"Kreis"},"federalState":{"key":"05","name":"Nordrhein-Westfalen"}},{"name":"Turnerweg","postalCode":"95652","locality":"Waldsassen","municipality":{"key":"09377158","name":"Waldsassen, St","type":"Stadt"},"district":{"key":"09377","name":"Tirschenreuth","type":"Landkreis"},"federalState":{"key":"09","name":"Bayern"}},{"name":"Twilingen","postalCode":"48336","locality":"Sassenberg","municipality":{"key":"05570036","name":"Sassenberg, Stadt","type":"Stadt"},"district":{"key":"05570","name":"Warendorf","type":"Kreis"},"federalState":{"key":"05","name":"Nordrhein-Westfalen"}},{"name":"Uferstr.","postalCode":"38524","locality":"Sassenburg","municipality":{"key":"03151025","name":"Sassenburg","type":"Kreisangehörige_Gemeinde"},"district":{"key":"03151","name":"Gifhorn","type":"Landkreis"},"federalState":{"key":"03","name":"Niedersachsen"}},{"name":"Uhlandweg","postalCode":"59505","locality":"Bad Sassendorf","municipality":{"key":"05974008","name":"Bad Sassendorf","type":"Kreisangehörige_Gemeinde"},"district":{"key":"05974","name":"Soest","type":"Kreis"},"federalState":{"key":"05","name":"Nordrhein-Westfalen"}},{"name":"Uhlenbrink","postalCode":"48336","locality":"Sassenberg","municipality":{"key":"05570036","name":"Sassenberg, Stadt","type":"Stadt"},"district":{"key":"05570","name":"Warendorf","type":"Kreis"},"federalState":{"key":"05","name":"Nordrhein-Westfalen"}},{"name":"Uhlenknapp","postalCode":"48336","locality":"Sassenberg","municipality":{"key":"05570036","name":"Sassenberg, Stadt","type":"Stadt"},"district":{"key":"05570","name":"Warendorf","type":"Kreis"},"federalState":{"key":"05","name":"Nordrhein-Westfalen"}},{"name":"Ulmenstr.","postalCode":"59505","locality":"Bad Sassendorf","municipality":{"key":"05974008","name":"Bad Sassendorf","type":"Kreisangehörige_Gemeinde"},"district":{"key":"05974","name":"Soest","type":"Kreis"},"federalState":{"key":"05","name":"Nordrhein-Westfalen"}},{"name":"Unter den Linden","postalCode":"59505","locality":"Bad Sassendorf","municipality":{"key":"05974008","name":"Bad Sassendorf","type":"Kreisangehörige_Gemeinde"},"district":{"key":"05974","name":"Soest","type":"Kreis"},"federalState":{"key":"05","name":"Nordrhein-Westfalen"}},{"name":"Unter den Weiden","postalCode":"59505","locality":"Bad Sassendorf","municipality":{"key":"05974008","name":"Bad Sassendorf","type":"Kreisangehörige_Gemeinde"},"district":{"key":"05974","name":"Soest","type":"Kreis"},"federalState":{"key":"05","name":"Nordrhein-Westfalen"}},{"name":"Uphuesstr.","postalCode":"48336","locality":"Sassenberg","municipality":{"key":"05570036","name":"Sassenberg, Stadt","type":"Stadt"},"district":{"key":"05570","name":"Warendorf","type":"Kreis"},"federalState":{"key":"05","name":"Nordrhein-Westfalen"}},{"name":"Veilchenweg","postalCode":"38524","locality":"Sassenburg","municipality":{"key":"03151025","name":"Sassenburg","type":"Kreisangehörige_Gemeinde"},"district":{"key":"03151","name":"Gifhorn","type":"Landkreis"},"federalState":{"key":"03","name":"Niedersachsen"}},{"name":"Velsener Weg","postalCode":"48336","locality":"Sassenberg","municipality":{"key":"05570036","name":"Sassenberg, Stadt","type":"Stadt"},"district":{"key":"05570","name":"Warendorf","type":"Kreis"},"federalState":{"key":"05","name":"Nordrhein-Westfalen"}},{"name":"Vennstr.","postalCode":"48336","locality":"Sassenberg","municipality":{"key":"05570036","name":"Sassenberg, Stadt","type":"Stadt"},"district":{"key":"05570","name":"Warendorf","type":"Kreis"},"federalState":{"key":"05","name":"Nordrhein-Westfalen"}},{"name":"Versmolder Str.","postalCode":"48336","locality":"Sassenberg","municipality":{"key":"05570036","name":"Sassenberg, Stadt","type":"Stadt"},"district":{"key":"05570","name":"Warendorf","type":"Kreis"},"federalState":{"key":"05","name":"Nordrhein-Westfalen"}},{"name":"Vierower Allee","postalCode":"17121","locality":"Sassen-Trantow","municipality":{"key":"13075123","name":"Sassen-Trantow","type":"Kreisangehörige_Gemeinde"},"district":{"key":"13075","name":"Vorpommern-Greifswald","type":"Landkreis"},"federalState":{"key":"13","name":"Mecklenburg-Vorpommern"}},{"name":"Viktoriastr.","postalCode":"59505","locality":"Bad Sassendorf","municipality":{"key":"05974008","name":"Bad Sassendorf","type":"Kreisangehörige_Gemeinde"},"district":{"key":"05974","name":"Soest","type":"Kreis"},"federalState":{"key":"05","name":"Nordrhein-Westfalen"}},{"name":"Vinnenberger Str.","postalCode":"48336","locality":"Sassenberg","municipality":{"key":"05570036","name":"Sassenberg, Stadt","type":"Stadt"},"district":{"key":"05570","name":"Warendorf","type":"Kreis"},"federalState":{"key":"05","name":"Nordrhein-Westfalen"}},{"name":"Vohrener Str.","postalCode":"48336","locality":"Sassenberg","municipality":{"key":"05570036","name":"Sassenberg, Stadt","type":"Stadt"},"district":{"key":"05570","name":"Warendorf","type":"Kreis"},"federalState":{"key":"05","name":"Nordrhein-Westfalen"}},{"name":"Vom-Stein-Str.","postalCode":"48336","locality":"Sassenberg","municipality":{"key":"05570036","name":"Sassenberg, Stadt","type":"Stadt"},"district":{"key":"05570","name":"Warendorf","type":"Kreis"},"federalState":{"key":"05","name":"Nordrhein-Westfalen"}},{"name":"Von-Casum-Weg","postalCode":"48336","locality":"Sassenberg","municipality":{"key":"05570036","name":"Sassenberg, Stadt","type":"Stadt"},"district":{"key":"05570","name":"Warendorf","type":"Kreis"},"federalState":{"key":"05","name":"Nordrhein-Westfalen"}},{"name":"Von-Galen-Str.","postalCode":"48336","locality":"Sassenberg","municipality":{"key":"05570036","name":"Sassenberg, Stadt","type":"Stadt"},"district":{"key":"05570","name":"Warendorf","type":"Kreis"},"federalState":{"key":"05","name":"Nordrhein-Westfalen"}},{"name":"Von-Gall-Weg","postalCode":"48336","locality":"Sassenberg","municipality":{"key":"05570036","name":"Sassenberg, Stadt","type":"Stadt"},"district":{"key":"05570","name":"Warendorf","type":"Kreis"},"federalState":{"key":"05","name":"Nordrhein-Westfalen"}},{"name":"Von-Hardenberg-Str.","postalCode":"59505","locality":"Bad Sassendorf","municipality":{"key":"05974008","name":"Bad Sassendorf","type":"Kreisangehörige_Gemeinde"},"district":{"key":"05974","name":"Soest","type":"Kreis"},"federalState":{"key":"05","name":"Nordrhein-Westfalen"}},{"name":"Von-Horsteloh-Str.","postalCode":"48336","locality":"Sassenberg","municipality":{"key":"05570036","name":"Sassenberg, Stadt","type":"Stadt"},"district":{"key":"05570","name":"Warendorf","type":"Kreis"},"federalState":{"key":"05","name":"Nordrhein-Westfalen"}},{"name":"Von-Ketteler-Str.","postalCode":"95652","locality":"Waldsassen","municipality":{"key":"09377158","name":"Waldsassen, St","type":"Stadt"},"district":{"key":"09377","name":"Tirschenreuth","type":"Landkreis"},"federalState":{"key":"09","name":"Bayern"}},{"name":"Von-Korff-Str.","postalCode":"48336","locality":"Sassenberg","municipality":{"key":"05570036","name":"Sassenberg, Stadt","type":"Stadt"},"district":{"key":"05570","name":"Warendorf","type":"Kreis"},"federalState":{"key":"05","name":"Nordrhein-Westfalen"}},{"name":"Von-Merveldt-Str.","postalCode":"48336","locality":"Sassenberg","municipality":{"key":"05570036","name":"Sassenberg, Stadt","type":"Stadt"},"district":{"key":"05570","name":"Warendorf","type":"Kreis"},"federalState":{"key":"05","name":"Nordrhein-Westfalen"}},{"name":"Von-Nagel-Str.","postalCode":"48336","locality":"Sassenberg","municipality":{"key":"05570036","name":"Sassenberg, Stadt","type":"Stadt"},"district":{"key":"05570","name":"Warendorf","type":"Kreis"},"federalState":{"key":"05","name":"Nordrhein-Westfalen"}},{"name":"Von-Schenking-Str.","postalCode":"48336","locality":"Sassenberg","municipality":{"key":"05570036","name":"Sassenberg, Stadt","type":"Stadt"},"district":{"key":"05570","name":"Warendorf","type":"Kreis"},"federalState":{"key":"05","name":"Nordrhein-Westfalen"}},{"name":"Von-Schilder-Str.","postalCode":"48336","locality":"Sassenberg","municipality":{"key":"05570036","name":"Sassenberg, Stadt","type":"Stadt"},"district":{"key":"05570","name":"Warendorf","type":"Kreis"},"federalState":{"key":"05","name":"Nordrhein-Westfalen"}},{"name":"Von-Twist-Str.","postalCode":"48336","locality":"Sassenberg","municipality":{"key":"05570036","name":"Sassenberg, Stadt","type":"Stadt"},"district":{"key":"05570","name":"Warendorf","type":"Kreis"},"federalState":{"key":"05","name":"Nordrhein-Westfalen"}},{"name":"Vor dem Berge","postalCode":"38524","locality":"Sassenburg","municipality":{"key":"03151025","name":"Sassenburg","type":"Kreisangehörige_Gemeinde"},"district":{"key":"03151","name":"Gifhorn","type":"Landkreis"},"federalState":{"key":"03","name":"Niedersachsen"}},{"name":"Vor den Eichen","postalCode":"38524","locality":"Sassenburg","municipality":{"key":"03151025","name":"Sassenburg","type":"Kreisangehörige_Gemeinde"},"district":{"key":"03151","name":"Gifhorn","type":"Landkreis"},"federalState":{"key":"03","name":"Niedersachsen"}},{"name":"Wacholderring","postalCode":"38524","locality":"Sassenburg","municipality":{"key":"03151025","name":"Sassenburg","type":"Kreisangehörige_Gemeinde"},"district":{"key":"03151","name":"Gifhorn","type":"Landkreis"},"federalState":{"key":"03","name":"Niedersachsen"}},{"name":"Wacholderstr.","postalCode":"48336","locality":"Sassenberg","municipality":{"key":"05570036","name":"Sassenberg, Stadt","type":"Stadt"},"district":{"key":"05570","name":"Warendorf","type":"Kreis"},"federalState":{"key":"05","name":"Nordrhein-Westfalen"}},{"name":"Wachtelweg","postalCode":"48336","locality":"Sassenberg","municipality":{"key":"05570036","name":"Sassenberg, Stadt","type":"Stadt"},"district":{"key":"05570","name":"Warendorf","type":"Kreis"},"federalState":{"key":"05","name":"Nordrhein-Westfalen"}},{"name":"Wagnerstr.","postalCode":"48336","locality":"Sassenberg","municipality":{"key":"05570036","name":"Sassenberg, Stadt","type":"Stadt"},"district":{"key":"05570","name":"Warendorf","type":"Kreis"},"federalState":{"key":"05","name":"Nordrhein-Westfalen"}},{"name":"Waldsassener Str.","postalCode":"95652","locality":"Waldsassen","municipality":{"key":"09377158","name":"Waldsassen, St","type":"Stadt"},"district":{"key":"09377","name":"Tirschenreuth","type":"Landkreis"},"federalState":{"key":"09","name":"Bayern"}},{"name":"Waldstr.","postalCode":"38524","locality":"Sassenburg","municipality":{"key":"03151025","name":"Sassenburg","type":"Kreisangehörige_Gemeinde"},"district":{"key":"03151","name":"Gifhorn","type":"Landkreis"},"federalState":{"key":"03","name":"Niedersachsen"}},{"name":"Waldstr.","postalCode":"95652","locality":"Waldsassen","municipality":{"key":"09377158","name":"Waldsassen, St","type":"Stadt"},"district":{"key":"09377","name":"Tirschenreuth","type":"Landkreis"},"federalState":{"key":"09","name":"Bayern"}},{"name":"Waldweg","postalCode":"38524","locality":"Sassenburg","municipality":{"key":"03151025","name":"Sassenburg","type":"Kreisangehörige_Gemeinde"},"district":{"key":"03151","name":"Gifhorn","type":"Landkreis"},"federalState":{"key":"03","name":"Niedersachsen"}},{"name":"Waldweg","postalCode":"59505","locality":"Bad Sassendorf","municipality":{"key":"05974008","name":"Bad Sassendorf","type":"Kreisangehörige_Gemeinde"},"district":{"key":"05974","name":"Soest","type":"Kreis"},"federalState":{"key":"05","name":"Nordrhein-Westfalen"}},{"name":"Warteweg","postalCode":"59505","locality":"Bad Sassendorf","municipality":{"key":"05974008","name":"Bad Sassendorf","type":"Kreisangehörige_Gemeinde"},"district":{"key":"05974","name":"Soest","type":"Kreis"},"federalState":{"key":"05","name":"Nordrhein-Westfalen"}},{"name":"Wasserstr.","postalCode":"48336","locality":"Sassenberg","municipality":{"key":"05570036","name":"Sassenberg, Stadt","type":"Stadt"},"district":{"key":"05570","name":"Warendorf","type":"Kreis"},"federalState":{"key":"05","name":"Nordrhein-Westfalen"}},{"name":"Wasserstr.","postalCode":"59505","locality":"Bad Sassendorf","municipality":{"key":"05974008","name":"Bad Sassendorf","type":"Kreisangehörige_Gemeinde"},"district":{"key":"05974","name":"Soest","type":"Kreis"},"federalState":{"key":"05","name":"Nordrhein-Westfalen"}},{"name":"Wasserweg","postalCode":"38524","locality":"Sassenburg","municipality":{"key":"03151025","name":"Sassenburg","type":"Kreisangehörige_Gemeinde"},"district":{"key":"03151","name":"Gifhorn","type":"Landkreis"},"federalState":{"key":"03","name":"Niedersachsen"}},{"name":"Weberstr.","postalCode":"48336","locality":"Sassenberg","municipality":{"key":"05570036","name":"Sassenberg, Stadt","type":"Stadt"},"district":{"key":"05570","name":"Warendorf","type":"Kreis"},"federalState":{"key":"05","name":"Nordrhein-Westfalen"}},{"name":"Wegenerring","postalCode":"38524","locality":"Sassenburg","municipality":{"key":"03151025","name":"Sassenburg","type":"Kreisangehörige_Gemeinde"},"district":{"key":"03151","name":"Gifhorn","type":"Landkreis"},"federalState":{"key":"03","name":"Niedersachsen"}},{"name":"Wegener Str.","postalCode":"59505","locality":"Bad Sassendorf","municipality":{"key":"05974008","name":"Bad Sassendorf","type":"Kreisangehörige_Gemeinde"},"district":{"key":"05974","name":"Soest","type":"Kreis"},"federalState":{"key":"05","name":"Nordrhein-Westfalen"}},{"name":"Weg zur Brunecke","postalCode":"59505","locality":"Bad Sassendorf","municipality":{"key":"05974008","name":"Bad Sassendorf","type":"Kreisangehörige_Gemeinde"},"district":{"key":"05974","name":"Soest","type":"Kreis"},"federalState":{"key":"05","name":"Nordrhein-Westfalen"}},{"name":"Weißdornweg","postalCode":"48336","locality":"Sassenberg","municipality":{"key":"05570036","name":"Sassenberg, Stadt","type":"Stadt"},"district":{"key":"05570","name":"Warendorf","type":"Kreis"},"federalState":{"key":"05","name":"Nordrhein-Westfalen"}},{"name":"Wernerstr.","postalCode":"48336","locality":"Sassenberg","municipality":{"key":"05570036","name":"Sassenberg, Stadt","type":"Stadt"},"district":{"key":"05570","name":"Warendorf","type":"Kreis"},"federalState":{"key":"05","name":"Nordrhein-Westfalen"}},{"name":"Weslarner Str.","postalCode":"59505","locality":"Bad Sassendorf","municipality":{"key":"05974008","name":"Bad Sassendorf","type":"Kreisangehörige_Gemeinde"},"district":{"key":"05974","name":"Soest","type":"Kreis"},"federalState":{"key":"05","name":"Nordrhein-Westfalen"}},{"name":"Weslarner Weg","postalCode":"59505","locality":"Bad Sassendorf","municipality":{"key":"05974008","name":"Bad Sassendorf","type":"Kreisangehörige_Gemeinde"},"district":{"key":"05974","name":"Soest","type":"Kreis"},"federalState":{"key":"05","name":"Nordrhein-Westfalen"}},{"name":"Westerbecker Str.","postalCode":"38524","locality":"Sassenburg","municipality":{"key":"03151025","name":"Sassenburg","type":"Kreisangehörige_Gemeinde"},"district":{"key":"03151","name":"Gifhorn","type":"Landkreis"},"federalState":{"key":"03","name":"Niedersachsen"}},{"name":"Westerbecker Weg","postalCode":"38524","locality":"Sassenburg","municipality":{"key":"03151025","name":"Sassenburg","type":"Kreisangehörige_Gemeinde"},"district":{"key":"03151","name":"Gifhorn","type":"Landkreis"},"federalState":{"key":"03","name":"Niedersachsen"}},{"name":"Weststr.","postalCode":"59505","locality":"Bad Sassendorf","municipality":{"key":"05974008","name":"Bad Sassendorf","type":"Kreisangehörige_Gemeinde"},"district":{"key":"05974","name":"Soest","type":"Kreis"},"federalState":{"key":"05","name":"Nordrhein-Westfalen"}},{"name":"Wickedestr.","postalCode":"48336","locality":"Sassenberg","municipality":{"key":"05570036","name":"Sassenberg, Stadt","type":"Stadt"},"district":{"key":"05570","name":"Warendorf","type":"Kreis"},"federalState":{"key":"05","name":"Nordrhein-Westfalen"}},{"name":"Wickenkamp","postalCode":"48336","locality":"Sassenberg","municipality":{"key":"05570036","name":"Sassenberg, Stadt","type":"Stadt"},"district":{"key":"05570","name":"Warendorf","type":"Kreis"},"federalState":{"key":"05","name":"Nordrhein-Westfalen"}},{"name":"Wieselstr.","postalCode":"48336","locality":"Sassenberg","municipality":{"key":"05570036","name":"Sassenberg, Stadt","type":"Stadt"},"district":{"key":"05570","name":"Warendorf","type":"Kreis"},"federalState":{"key":"05","name":"Nordrhein-Westfalen"}},{"name":"Wiesenstr.","postalCode":"17121","locality":"Sassen-Trantow","municipality":{"key":"13075123","name":"Sassen-Trantow","type":"Kreisangehörige_Gemeinde"},"district":{"key":"13075","name":"Vorpommern-Greifswald","type":"Landkreis"},"federalState":{"key":"13","name":"Mecklenburg-Vorpommern"}},{"name":"Wiesenstr.","postalCode":"59505","locality":"Bad Sassendorf","municipality":{"key":"05974008","name":"Bad Sassendorf","type":"Kreisangehörige_Gemeinde"},"district":{"key":"05974","name":"Soest","type":"Kreis"},"federalState":{"key":"05","name":"Nordrhein-Westfalen"}},{"name":"Wiesenstr.","postalCode":"95652","locality":"Waldsassen","municipality":{"key":"09377158","name":"Waldsassen, St","type":"Stadt"},"district":{"key":"09377","name":"Tirschenreuth","type":"Landkreis"},"federalState":{"key":"09","name":"Bayern"}},{"name":"Wiesenweg","postalCode":"38524","locality":"Sassenburg","municipality":{"key":"03151025","name":"Sassenburg","type":"Kreisangehörige_Gemeinde"},"district":{"key":"03151","name":"Gifhorn","type":"Landkreis"},"federalState":{"key":"03","name":"Niedersachsen"}},{"name":"Wilhelm-Ahrens-Weg","postalCode":"38524","locality":"Sassenburg","municipality":{"key":"03151025","name":"Sassenburg","type":"Kreisangehörige_Gemeinde"},"district":{"key":"03151","name":"Gifhorn","type":"Landkreis"},"federalState":{"key":"03","name":"Niedersachsen"}},{"name":"Wilhelm-Busch-Weg","postalCode":"59505","locality":"Bad Sassendorf","municipality":{"key":"05974008","name":"Bad Sassendorf","type":"Kreisangehörige_Gemeinde"},"district":{"key":"05974","name":"Soest","type":"Kreis"},"federalState":{"key":"05","name":"Nordrhein-Westfalen"}},{"name":"Wilhelmstr.","postalCode":"59505","locality":"Bad Sassendorf","municipality":{"key":"05974008","name":"Bad Sassendorf","type":"Kreisangehörige_Gemeinde"},"district":{"key":"05974","name":"Soest","type":"Kreis"},"federalState":{"key":"05","name":"Nordrhein-Westfalen"}},{"name":"Wirtsgasse","postalCode":"95652","locality":"Waldsassen","municipality":{"key":"09377158","name":"Waldsassen, St","type":"Stadt"},"district":{"key":"09377","name":"Tirschenreuth","type":"Landkreis"},"federalState":{"key":"09","name":"Bayern"}},{"name":"Wittlers Garten","postalCode":"48336","locality":"Sassenberg","municipality":{"key":"05570036","name":"Sassenberg, Stadt","type":"Stadt"},"district":{"key":"05570","name":"Warendorf","type":"Kreis"},"federalState":{"key":"05","name":"Nordrhein-Westfalen"}},{"name":"Woesteweg","postalCode":"59505","locality":"Bad Sassendorf","municipality":{"key":"05974008","name":"Bad Sassendorf","type":"Kreisangehörige_Gemeinde"},"district":{"key":"05974","name":"Soest","type":"Kreis"},"federalState":{"key":"05","name":"Nordrhein-Westfalen"}},{"name":"Wolfskamp","postalCode":"38524","locality":"Sassenburg","municipality":{"key":"03151025","name":"Sassenburg","type":"Kreisangehörige_Gemeinde"},"district":{"key":"03151","name":"Gifhorn","type":"Landkreis"},"federalState":{"key":"03","name":"Niedersachsen"}},{"name":"Zappenburg","postalCode":"38524","locality":"Sassenburg","municipality":{"key":"03151025","name":"Sassenburg","type":"Kreisangehörige_Gemeinde"},"district":{"key":"03151","name":"Gifhorn","type":"Landkreis"},"federalState":{"key":"03","name":"Niedersachsen"}},{"name":"Zedernweg","postalCode":"38524","locality":"Sassenburg","municipality":{"key":"03151025","name":"Sassenburg","type":"Kreisangehörige_Gemeinde"},"district":{"key":"03151","name":"Gifhorn","type":"Landkreis"},"federalState":{"key":"03","name":"Niedersachsen"}},{"name":"Zeisigweg","postalCode":"38524","locality":"Sassenburg","municipality":{"key":"03151025","name":"Sassenburg","type":"Kreisangehörige_Gemeinde"},"district":{"key":"03151","name":"Gifhorn","type":"Landkreis"},"federalState":{"key":"03","name":"Niedersachsen"}},{"name":"Zinkenwehrstr.","postalCode":"95652","locality":"Waldsassen","municipality":{"key":"09377158","name":"Waldsassen, St","type":"Stadt"},"district":{"key":"09377","name":"Tirschenreuth","type":"Landkreis"},"federalState":{"key":"09","name":"Bayern"}},{"name":"Zu den Diekeskuhlen","postalCode":"48336","locality":"Sassenberg","municipality":{"key":"05570036","name":"Sassenberg, Stadt","type":"Stadt"},"district":{"key":"05570","name":"Warendorf","type":"Kreis"},"federalState":{"key":"05","name":"Nordrhein-Westfalen"}},{"name":"Zum Brökeland","postalCode":"48336","locality":"Sassenberg","municipality":{"key":"05570036","name":"Sassenberg, Stadt","type":"Stadt"},"district":{"key":"05570","name":"Warendorf","type":"Kreis"},"federalState":{"key":"05","name":"Nordrhein-Westfalen"}},{"name":"Zum Dorfteich","postalCode":"17121","locality":"Sassen-Trantow","municipality":{"key":"13075123","name":"Sassen-Trantow","type":"Kreisangehörige_Gemeinde"},"district":{"key":"13075","name":"Vorpommern-Greifswald","type":"Landkreis"},"federalState":{"key":"13","name":"Mecklenburg-Vorpommern"}},{"name":"Zum Felde","postalCode":"17121","locality":"Sassen-Trantow","municipality":{"key":"13075123","name":"Sassen-Trantow","type":"Kreisangehörige_Gemeinde"},"district":{"key":"13075","name":"Vorpommern-Greifswald","type":"Landkreis"},"federalState":{"key":"13","name":"Mecklenburg-Vorpommern"}},{"name":"Zum Friedhof","postalCode":"48336","locality":"Sassenberg","municipality":{"key":"05570036","name":"Sassenberg, Stadt","type":"Stadt"},"district":{"key":"05570","name":"Warendorf","type":"Kreis"},"federalState":{"key":"05","name":"Nordrhein-Westfalen"}},{"name":"Zum grünen Weiher","postalCode":"56767","locality":"Sassen","municipality":{"key":"07233236","name":"Sassen","type":"Kreisangehörige_Gemeinde"},"district":{"key":"07233","name":"Vulkaneifel","type":"Landkreis"},"federalState":{"key":"07","name":"Rheinland-Pfalz"}},{"name":"Zum Hagenbach","postalCode":"48336","locality":"Sassenberg","municipality":{"key":"05570036","name":"Sassenberg, Stadt","type":"Stadt"},"district":{"key":"05570","name":"Warendorf","type":"Kreis"},"federalState":{"key":"05","name":"Nordrhein-Westfalen"}},{"name":"Zum Hahnekamp","postalCode":"59505","locality":"Bad Sassendorf","municipality":{"key":"05974008","name":"Bad Sassendorf","type":"Kreisangehörige_Gemeinde"},"district":{"key":"05974","name":"Soest","type":"Kreis"},"federalState":{"key":"05","name":"Nordrhein-Westfalen"}},{"name":"Zum Hilgenbrink","postalCode":"48336","locality":"Sassenberg","municipality":{"key":"05570036","name":"Sassenberg, Stadt","type":"Stadt"},"district":{"key":"05570","name":"Warendorf","type":"Kreis"},"federalState":{"key":"05","name":"Nordrhein-Westfalen"}},{"name":"Zum Holzplatz","postalCode":"38524","locality":"Sassenburg","municipality":{"key":"03151025","name":"Sassenburg","type":"Kreisangehörige_Gemeinde"},"district":{"key":"03151","name":"Gifhorn","type":"Landkreis"},"federalState":{"key":"03","name":"Niedersachsen"}},{"name":"Zum Jägersteig","postalCode":"95652","locality":"Waldsassen","municipality":{"key":"09377158","name":"Waldsassen, St","type":"Stadt"},"district":{"key":"09377","name":"Tirschenreuth","type":"Landkreis"},"federalState":{"key":"09","name":"Bayern"}},{"name":"Zum Kampe","postalCode":"38524","locality":"Sassenburg","municipality":{"key":"03151025","name":"Sassenburg","type":"Kreisangehörige_Gemeinde"},"district":{"key":"03151","name":"Gifhorn","type":"Landkreis"},"federalState":{"key":"03","name":"Niedersachsen"}},{"name":"Zum Knapp","postalCode":"48336","locality":"Sassenberg","municipality":{"key":"05570036","name":"Sassenberg, Stadt","type":"Stadt"},"district":{"key":"05570","name":"Warendorf","type":"Kreis"},"federalState":{"key":"05","name":"Nordrhein-Westfalen"}},{"name":"Zum Leinweber","postalCode":"59505","locality":"Bad Sassendorf","municipality":{"key":"05974008","name":"Bad Sassendorf","type":"Kreisangehörige_Gemeinde"},"district":{"key":"05974","name":"Soest","type":"Kreis"},"federalState":{"key":"05","name":"Nordrhein-Westfalen"}},{"name":"Zum Örtlinger Kreuz","postalCode":"48336","locality":"Sassenberg","municipality":{"key":"05570036","name":"Sassenberg, Stadt","type":"Stadt"},"district":{"key":"05570","name":"Warendorf","type":"Kreis"},"federalState":{"key":"05","name":"Nordrhein-Westfalen"}},{"name":"Zum Park","postalCode":"38524","locality":"Sassenburg","municipality":{"key":"03151025","name":"Sassenburg","type":"Kreisangehörige_Gemeinde"},"district":{"key":"03151","name":"Gifhorn","type":"Landkreis"},"federalState":{"key":"03","name":"Niedersachsen"}},{"name":"Zum Reitstall","postalCode":"38524","locality":"Sassenburg","municipality":{"key":"03151025","name":"Sassenburg","type":"Kreisangehörige_Gemeinde"},"district":{"key":"03151","name":"Gifhorn","type":"Landkreis"},"federalState":{"key":"03","name":"Niedersachsen"}},{"name":"Zum Schwingetal","postalCode":"17121","locality":"Sassen-Trantow","municipality":{"key":"13075123","name":"Sassen-Trantow","type":"Kreisangehörige_Gemeinde"},"district":{"key":"13075","name":"Vorpommern-Greifswald","type":"Landkreis"},"federalState":{"key":"13","name":"Mecklenburg-Vorpommern"}},{"name":"Zum Sportplatz","postalCode":"38524","locality":"Sassenburg","municipality":{"key":"03151025","name":"Sassenburg","type":"Kreisangehörige_Gemeinde"},"district":{"key":"03151","name":"Gifhorn","type":"Landkreis"},"federalState":{"key":"03","name":"Niedersachsen"}},{"name":"Zum Stüttie","postalCode":"59505","locality":"Bad Sassendorf","municipality":{"key":"05974008","name":"Bad Sassendorf","type":"Kreisangehörige_Gemeinde"},"district":{"key":"05974","name":"Soest","type":"Kreis"},"federalState":{"key":"05","name":"Nordrhein-Westfalen"}},{"name":"Zum Südfeld","postalCode":"59505","locality":"Bad Sassendorf","municipality":{"key":"05974008","name":"Bad Sassendorf","type":"Kreisangehörige_Gemeinde"},"district":{"key":"05974","name":"Soest","type":"Kreis"},"federalState":{"key":"05","name":"Nordrhein-Westfalen"}},{"name":"Zum Uhlenbrink","postalCode":"48336","locality":"Sassenberg","municipality":{"key":"05570036","name":"Sassenberg, Stadt","type":"Stadt"},"district":{"key":"05570","name":"Warendorf","type":"Kreis"},"federalState":{"key":"05","name":"Nordrhein-Westfalen"}},{"name":"Zur Alten Feldsaline","postalCode":"59505","locality":"Bad Sassendorf","municipality":{"key":"05974008","name":"Bad Sassendorf","type":"Kreisangehörige_Gemeinde"},"district":{"key":"05974","name":"Soest","type":"Kreis"},"federalState":{"key":"05","name":"Nordrhein-Westfalen"}},{"name":"Zur Dornheide","postalCode":"59505","locality":"Bad Sassendorf","municipality":{"key":"05974008","name":"Bad Sassendorf","type":"Kreisangehörige_Gemeinde"},"district":{"key":"05974","name":"Soest","type":"Kreis"},"federalState":{"key":"05","name":"Nordrhein-Westfalen"}},{"name":"Zur ehemaligen Porzellanfabrik","postalCode":"95652","locality":"Waldsassen","municipality":{"key":"09377158","name":"Waldsassen, St","type":"Stadt"},"district":{"key":"09377","name":"Tirschenreuth","type":"Landkreis"},"federalState":{"key":"09","name":"Bayern"}},{"name":"Zur Hepper Höhe","postalCode":"59505","locality":"Bad Sassendorf","municipality":{"key":"05974008","name":"Bad Sassendorf","type":"Kreisangehörige_Gemeinde"},"district":{"key":"05974","name":"Soest","type":"Kreis"},"federalState":{"key":"05","name":"Nordrhein-Westfalen"}},{"name":"Zur Hessel","postalCode":"48336","locality":"Sassenberg","municipality":{"key":"05570036","name":"Sassenberg, Stadt","type":"Stadt"},"district":{"key":"05570","name":"Warendorf","type":"Kreis"},"federalState":{"key":"05","name":"Nordrhein-Westfalen"}},{"name":"Zur Sälzerschule","postalCode":"59505","locality":"Bad Sassendorf","municipality":{"key":"05974008","name":"Bad Sassendorf","type":"Kreisangehörige_Gemeinde"},"district":{"key":"05974","name":"Soest","type":"Kreis"},"federalState":{"key":"05","name":"Nordrhein-Westfalen"}},{"name":"Zur Scheune","postalCode":"38524","locality":"Sassenburg","municipality":{"key":"03151025","name":"Sassenburg","type":"Kreisangehörige_Gemeinde"},"district":{"key":"03151","name":"Gifhorn","type":"Landkreis"},"federalState":{"key":"03","name":"Niedersachsen"}},{"name":"Zur Schwinge","postalCode":"17121","locality":"Sassen-Trantow","municipality":{"key":"13075123","name":"Sassen-Trantow","type":"Kreisangehörige_Gemeinde"},"district":{"key":"13075","name":"Vorpommern-Greifswald","type":"Landkreis"},"federalState":{"key":"13","name":"Mecklenburg-Vorpommern"}},{"name":"Zur Wasserfuhr","postalCode":"59505","locality":"Bad Sassendorf","municipality":{"key":"05974008","name":"Bad Sassendorf","type":"Kreisangehörige_Gemeinde"},"district":{"key":"05974","name":"Soest","type":"Kreis"},"federalState":{"key":"05","name":"Nordrhein-Westfalen"}},{"name":"Zwergengasse","postalCode":"38524","locality":"Sassenburg","municipality":{"key":"03151025","name":"Sassenburg","type":"Kreisangehörige_Gemeinde"},"district":{"key":"03151","name":"Gifhorn","type":"Landkreis"},"federalState":{"key":"03","name":"Niedersachsen"}},{"name":"Ährenweg","postalCode":"38524","locality":"Sassenburg","municipality":{"key":"03151025","name":"Sassenburg","type":"Kreisangehörige_Gemeinde"},"district":{"key":"03151","name":"Gifhorn","type":"Landkreis"},"federalState":{"key":"03","name":"Niedersachsen"}},{"name":"Überm Dorf","postalCode":"59505","locality":"Bad Sassendorf","municipality":{"key":"05974008","name":"Bad Sassendorf","type":"Kreisangehörige_Gemeinde"},"district":{"key":"05974","name":"Soest","type":"Kreis"},"federalState":{"key":"05","name":"Nordrhein-Westfalen"}},{"name":"Überm Mersch","postalCode":"59505","locality":"Bad Sassendorf","municipality":{"key":"05974008","name":"Bad Sassendorf","type":"Kreisangehörige_Gemeinde"},"district":{"key":"05974","name":"Soest","type":"Kreis"},"federalState":{"key":"05","name":"Nordrhein-Westfalen"}},]