[{"key":"10097564","name":"Chemin de la Colline","postalCode":"1318","locality":"Pompaples","commune":{"key":"5497","name":"Pompaples","shortName":"Pompaples"},"district":{"key":"2227","name":"District de Morges"},"canton":{"key":"22","code":"VD","name":"Vaud"},"status":"Real"},{"key":"10107951","name":"Chemin de la Léchire","postalCode":"1318","locality":"Pompaples","commune":{"key":"5497","name":"Pompaples","shortName":"Pompaples"},"district":{"key":"2227","name":"District de Morges"},"canton":{"key":"22","code":"VD","name":"Vaud"},"status":"Real"},{"key":"10136124","name":"Chemin de la Vaux","postalCode":"1318","locality":"Pompaples","commune":{"key":"5497","name":"Pompaples","shortName":"Pompaples"},"district":{"key":"2227","name":"District de Morges"},"canton":{"key":"22","code":"VD","name":"Vaud"},"status":"Real"},{"key":"10090294","name":"Chemin des Anémones","postalCode":"1318","locality":"Pompaples","commune":{"key":"5497","name":"Pompaples","shortName":"Pompaples"},"district":{"key":"2227","name":"District de Morges"},"canton":{"key":"22","code":"VD","name":"Vaud"},"status":"Real"},{"key":"10206104","name":"Chemin des Buis","postalCode":"1318","locality":"Pompaples","commune":{"key":"5497","name":"Pompaples","shortName":"Pompaples"},"district":{"key":"2227","name":"District de Morges"},"canton":{"key":"22","code":"VD","name":"Vaud"},"status":"Real"},{"key":"10115385","name":"Chemin des Condémines","postalCode":"1318","locality":"Pompaples","commune":{"key":"5497","name":"Pompaples","shortName":"Pompaples"},"district":{"key":"2227","name":"District de Morges"},"canton":{"key":"22","code":"VD","name":"Vaud"},"status":"Real"},{"key":"10143289","name":"Chemin des Dailles","postalCode":"1318","locality":"Pompaples","commune":{"key":"5497","name":"Pompaples","shortName":"Pompaples"},"district":{"key":"2227","name":"District de Morges"},"canton":{"key":"22","code":"VD","name":"Vaud"},"status":"Real"},{"key":"10034235","name":"Chemin des Devens","postalCode":"1318","locality":"Pompaples","commune":{"key":"5497","name":"Pompaples","shortName":"Pompaples"},"district":{"key":"2227","name":"District de Morges"},"canton":{"key":"22","code":"VD","name":"Vaud"},"status":"Real"},{"key":"10034231","name":"Chemin des Rocs","postalCode":"1318","locality":"Pompaples","commune":{"key":"5497","name":"Pompaples","shortName":"Pompaples"},"district":{"key":"2227","name":"District de Morges"},"canton":{"key":"22","code":"VD","name":"Vaud"},"status":"Real"},{"key":"10176323","name":"Chemin des Sordettes","postalCode":"1318","locality":"Pompaples","commune":{"key":"5497","name":"Pompaples","shortName":"Pompaples"},"district":{"key":"2227","name":"District de Morges"},"canton":{"key":"22","code":"VD","name":"Vaud"},"status":"Real"},{"key":"10034232","name":"Chemin des Sources","postalCode":"1318","locality":"Pompaples","commune":{"key":"5497","name":"Pompaples","shortName":"Pompaples"},"district":{"key":"2227","name":"District de Morges"},"canton":{"key":"22","code":"VD","name":"Vaud"},"status":"Real"},{"key":"10079886","name":"Chemin du Champ Courbe","postalCode":"1318","locality":"Pompaples","commune":{"key":"5497","name":"Pompaples","shortName":"Pompaples"},"district":{"key":"2227","name":"District de Morges"},"canton":{"key":"22","code":"VD","name":"Vaud"},"status":"Real"},{"key":"10034233","name":"Chemin du Crêt Maunet","postalCode":"1318","locality":"Pompaples","commune":{"key":"5497","name":"Pompaples","shortName":"Pompaples"},"district":{"key":"2227","name":"District de Morges"},"canton":{"key":"22","code":"VD","name":"Vaud"},"status":"Real"},{"key":"10211353","name":"Chemin du Pré Coupin","postalCode":"1318","locality":"Pompaples","commune":{"key":"5497","name":"Pompaples","shortName":"Pompaples"},"district":{"key":"2227","name":"District de Morges"},"canton":{"key":"22","code":"VD","name":"Vaud"},"status":"Real"},{"key":"10034236","name":"Chemin du Pré Girard","postalCode":"1318","locality":"Pompaples","commune":{"key":"5497","name":"Pompaples","shortName":"Pompaples"},"district":{"key":"2227","name":"District de Morges"},"canton":{"key":"22","code":"VD","name":"Vaud"},"status":"Real"},{"key":"10107952","name":"Chemin du Trésillon","postalCode":"1318","locality":"Pompaples","commune":{"key":"5497","name":"Pompaples","shortName":"Pompaples"},"district":{"key":"2227","name":"District de Morges"},"canton":{"key":"22","code":"VD","name":"Vaud"},"status":"Real"},{"key":"10143633","name":"Chemin en Beauregard","postalCode":"1318","locality":"Pompaples","commune":{"key":"5497","name":"Pompaples","shortName":"Pompaples"},"district":{"key":"2227","name":"District de Morges"},"canton":{"key":"22","code":"VD","name":"Vaud"},"status":"Real"},{"key":"10090295","name":"Chemin En Montanney","postalCode":"1318","locality":"Pompaples","commune":{"key":"5497","name":"Pompaples","shortName":"Pompaples"},"district":{"key":"2227","name":"District de Morges"},"canton":{"key":"22","code":"VD","name":"Vaud"},"status":"Real"},{"key":"10090296","name":"Moulin Bornu","postalCode":"1318","locality":"Pompaples","commune":{"key":"5497","name":"Pompaples","shortName":"Pompaples"},"district":{"key":"2227","name":"District de Morges"},"canton":{"key":"22","code":"VD","name":"Vaud"},"status":"Real"},{"key":"10079887","name":"Route de Saint-Loup","postalCode":"1318","locality":"Pompaples","commune":{"key":"5497","name":"Pompaples","shortName":"Pompaples"},"district":{"key":"2227","name":"District de Morges"},"canton":{"key":"22","code":"VD","name":"Vaud"},"status":"Real"},{"key":"10047995","name":"Route du Milieu du Monde","postalCode":"1318","locality":"Pompaples","commune":{"key":"5497","name":"Pompaples","shortName":"Pompaples"},"district":{"key":"2227","name":"District de Morges"},"canton":{"key":"22","code":"VD","name":"Vaud"},"status":"Real"},{"key":"10090297","name":"Rue du Four","postalCode":"1318","locality":"Pompaples","commune":{"key":"5497","name":"Pompaples","shortName":"Pompaples"},"district":{"key":"2227","name":"District de Morges"},"canton":{"key":"22","code":"VD","name":"Vaud"},"status":"Real"},{"key":"10121851","name":"Ruelle de la Laiterie","postalCode":"1318","locality":"Pompaples","commune":{"key":"5497","name":"Pompaples","shortName":"Pompaples"},"district":{"key":"2227","name":"District de Morges"},"canton":{"key":"22","code":"VD","name":"Vaud"},"status":"Real"},{"key":"10034237","name":"St-Loup","postalCode":"1318","locality":"Pompaples","commune":{"key":"5497","name":"Pompaples","shortName":"Pompaples"},"district":{"key":"2227","name":"District de Morges"},"canton":{"key":"22","code":"VD","name":"Vaud"},"status":"Real"},]