[{"key":"10111818","name":"Aegerte","postalCode":"3326","locality":"Krauchthal","commune":{"key":"414","name":"Krauchthal","shortName":"Krauchthal"},"district":{"key":"245","name":"Verwaltungskreis Emmental"},"canton":{"key":"2","code":"BE","name":"Bern / Berne"},"status":"Real"},{"key":"10217965","name":"Alpmösli","postalCode":"3326","locality":"Krauchthal","commune":{"key":"414","name":"Krauchthal","shortName":"Krauchthal"},"district":{"key":"245","name":"Verwaltungskreis Emmental"},"canton":{"key":"2","code":"BE","name":"Bern / Berne"},"status":"Real"},{"key":"10067178","name":"An der Bäichlen","postalCode":"3326","locality":"Krauchthal","commune":{"key":"414","name":"Krauchthal","shortName":"Krauchthal"},"district":{"key":"245","name":"Verwaltungskreis Emmental"},"canton":{"key":"2","code":"BE","name":"Bern / Berne"},"status":"Real"},{"key":"10045530","name":"Bachmatt","postalCode":"3326","locality":"Krauchthal","commune":{"key":"414","name":"Krauchthal","shortName":"Krauchthal"},"district":{"key":"245","name":"Verwaltungskreis Emmental"},"canton":{"key":"2","code":"BE","name":"Bern / Berne"},"status":"Real"},{"key":"10242885","name":"Bannholz","postalCode":"3326","locality":"Krauchthal","commune":{"key":"414","name":"Krauchthal","shortName":"Krauchthal"},"district":{"key":"245","name":"Verwaltungskreis Emmental"},"canton":{"key":"2","code":"BE","name":"Bern / Berne"},"status":"Real"},{"key":"10088297","name":"Bannholzrain","postalCode":"3326","locality":"Krauchthal","commune":{"key":"414","name":"Krauchthal","shortName":"Krauchthal"},"district":{"key":"245","name":"Verwaltungskreis Emmental"},"canton":{"key":"2","code":"BE","name":"Bern / Berne"},"status":"Real"},{"key":"10004954","name":"Banziloch","postalCode":"3326","locality":"Krauchthal","commune":{"key":"414","name":"Krauchthal","shortName":"Krauchthal"},"district":{"key":"245","name":"Verwaltungskreis Emmental"},"canton":{"key":"2","code":"BE","name":"Bern / Berne"},"status":"Real"},{"key":"10177643","name":"Birbach","postalCode":"3326","locality":"Krauchthal","commune":{"key":"414","name":"Krauchthal","shortName":"Krauchthal"},"district":{"key":"245","name":"Verwaltungskreis Emmental"},"canton":{"key":"2","code":"BE","name":"Bern / Berne"},"status":"Real"},{"key":"10179952","name":"Bodenacher","postalCode":"3326","locality":"Krauchthal","commune":{"key":"414","name":"Krauchthal","shortName":"Krauchthal"},"district":{"key":"245","name":"Verwaltungskreis Emmental"},"canton":{"key":"2","code":"BE","name":"Bern / Berne"},"status":"Real"},{"key":"10088298","name":"Bolligenstrasse","postalCode":"3326","locality":"Krauchthal","commune":{"key":"414","name":"Krauchthal","shortName":"Krauchthal"},"district":{"key":"245","name":"Verwaltungskreis Emmental"},"canton":{"key":"2","code":"BE","name":"Bern / Berne"},"status":"Real"},{"key":"10004955","name":"Breiten","postalCode":"3326","locality":"Krauchthal","commune":{"key":"414","name":"Krauchthal","shortName":"Krauchthal"},"district":{"key":"245","name":"Verwaltungskreis Emmental"},"canton":{"key":"2","code":"BE","name":"Bern / Berne"},"status":"Real"},{"key":"10004956","name":"Brünnliacher","postalCode":"3326","locality":"Krauchthal","commune":{"key":"414","name":"Krauchthal","shortName":"Krauchthal"},"district":{"key":"245","name":"Verwaltungskreis Emmental"},"canton":{"key":"2","code":"BE","name":"Bern / Berne"},"status":"Real"},{"key":"10004957","name":"Buch","postalCode":"3326","locality":"Krauchthal","commune":{"key":"414","name":"Krauchthal","shortName":"Krauchthal"},"district":{"key":"245","name":"Verwaltungskreis Emmental"},"canton":{"key":"2","code":"BE","name":"Bern / Berne"},"status":"Real"},{"key":"10004958","name":"Chräbslochweg","postalCode":"3326","locality":"Krauchthal","commune":{"key":"414","name":"Krauchthal","shortName":"Krauchthal"},"district":{"key":"245","name":"Verwaltungskreis Emmental"},"canton":{"key":"2","code":"BE","name":"Bern / Berne"},"status":"Real"},{"key":"10216887","name":"Dälhölzli","postalCode":"3326","locality":"Krauchthal","commune":{"key":"414","name":"Krauchthal","shortName":"Krauchthal"},"district":{"key":"245","name":"Verwaltungskreis Emmental"},"canton":{"key":"2","code":"BE","name":"Bern / Berne"},"status":"Real"},{"key":"10088299","name":"Dieterswald","postalCode":"3326","locality":"Krauchthal","commune":{"key":"414","name":"Krauchthal","shortName":"Krauchthal"},"district":{"key":"245","name":"Verwaltungskreis Emmental"},"canton":{"key":"2","code":"BE","name":"Bern / Berne"},"status":"Real"},{"key":"10177644","name":"Dieterswaldstrasse","postalCode":"3326","locality":"Krauchthal","commune":{"key":"414","name":"Krauchthal","shortName":"Krauchthal"},"district":{"key":"245","name":"Verwaltungskreis Emmental"},"canton":{"key":"2","code":"BE","name":"Bern / Berne"},"status":"Real"},{"key":"10103631","name":"Eggen","postalCode":"3326","locality":"Krauchthal","commune":{"key":"414","name":"Krauchthal","shortName":"Krauchthal"},"district":{"key":"245","name":"Verwaltungskreis Emmental"},"canton":{"key":"2","code":"BE","name":"Bern / Berne"},"status":"Real"},{"key":"10216891","name":"Eichacher","postalCode":"3326","locality":"Krauchthal","commune":{"key":"414","name":"Krauchthal","shortName":"Krauchthal"},"district":{"key":"245","name":"Verwaltungskreis Emmental"},"canton":{"key":"2","code":"BE","name":"Bern / Berne"},"status":"Real"},{"key":"10111819","name":"Eichmatt","postalCode":"3326","locality":"Krauchthal","commune":{"key":"414","name":"Krauchthal","shortName":"Krauchthal"},"district":{"key":"245","name":"Verwaltungskreis Emmental"},"canton":{"key":"2","code":"BE","name":"Bern / Berne"},"status":"Real"},{"key":"10216896","name":"Eichwäldli","postalCode":"3326","locality":"Krauchthal","commune":{"key":"414","name":"Krauchthal","shortName":"Krauchthal"},"district":{"key":"245","name":"Verwaltungskreis Emmental"},"canton":{"key":"2","code":"BE","name":"Bern / Berne"},"status":"Real"},{"key":"10067182","name":"Ey","postalCode":"3326","locality":"Krauchthal","commune":{"key":"414","name":"Krauchthal","shortName":"Krauchthal"},"district":{"key":"245","name":"Verwaltungskreis Emmental"},"canton":{"key":"2","code":"BE","name":"Bern / Berne"},"status":"Real"},{"key":"10088300","name":"Eyhale","postalCode":"3326","locality":"Krauchthal","commune":{"key":"414","name":"Krauchthal","shortName":"Krauchthal"},"district":{"key":"245","name":"Verwaltungskreis Emmental"},"canton":{"key":"2","code":"BE","name":"Bern / Berne"},"status":"Real"},{"key":"10196429","name":"Fluehüsli","postalCode":"3326","locality":"Krauchthal","commune":{"key":"414","name":"Krauchthal","shortName":"Krauchthal"},"district":{"key":"245","name":"Verwaltungskreis Emmental"},"canton":{"key":"2","code":"BE","name":"Bern / Berne"},"status":"Real"},{"key":"10117119","name":"Gasserhusweg","postalCode":"3326","locality":"Krauchthal","commune":{"key":"414","name":"Krauchthal","shortName":"Krauchthal"},"district":{"key":"245","name":"Verwaltungskreis Emmental"},"canton":{"key":"2","code":"BE","name":"Bern / Berne"},"status":"Real"},{"key":"10004959","name":"Geissmont","postalCode":"3326","locality":"Krauchthal","commune":{"key":"414","name":"Krauchthal","shortName":"Krauchthal"},"district":{"key":"245","name":"Verwaltungskreis Emmental"},"canton":{"key":"2","code":"BE","name":"Bern / Berne"},"status":"Real"},{"key":"10045531","name":"Gitziboden","postalCode":"3326","locality":"Krauchthal","commune":{"key":"414","name":"Krauchthal","shortName":"Krauchthal"},"district":{"key":"245","name":"Verwaltungskreis Emmental"},"canton":{"key":"2","code":"BE","name":"Bern / Berne"},"status":"Real"},{"key":"10004960","name":"Grossacher","postalCode":"3326","locality":"Krauchthal","commune":{"key":"414","name":"Krauchthal","shortName":"Krauchthal"},"district":{"key":"245","name":"Verwaltungskreis Emmental"},"canton":{"key":"2","code":"BE","name":"Bern / Berne"},"status":"Real"},{"key":"10067183","name":"Habsegg","postalCode":"3326","locality":"Krauchthal","commune":{"key":"414","name":"Krauchthal","shortName":"Krauchthal"},"district":{"key":"245","name":"Verwaltungskreis Emmental"},"canton":{"key":"2","code":"BE","name":"Bern / Berne"},"status":"Real"},{"key":"10088301","name":"Hardeggweg","postalCode":"3326","locality":"Krauchthal","commune":{"key":"414","name":"Krauchthal","shortName":"Krauchthal"},"district":{"key":"245","name":"Verwaltungskreis Emmental"},"canton":{"key":"2","code":"BE","name":"Bern / Berne"},"status":"Real"},{"key":"10004961","name":"Haspiweg","postalCode":"3326","locality":"Krauchthal","commune":{"key":"414","name":"Krauchthal","shortName":"Krauchthal"},"district":{"key":"245","name":"Verwaltungskreis Emmental"},"canton":{"key":"2","code":"BE","name":"Bern / Berne"},"status":"Real"},{"key":"10177642","name":"Hindelbankstrasse","postalCode":"3326","locality":"Krauchthal","commune":{"key":"414","name":"Krauchthal","shortName":"Krauchthal"},"district":{"key":"245","name":"Verwaltungskreis Emmental"},"canton":{"key":"2","code":"BE","name":"Bern / Berne"},"status":"Real"},{"key":"10004962","name":"Hunsperg","postalCode":"3326","locality":"Krauchthal","commune":{"key":"414","name":"Krauchthal","shortName":"Krauchthal"},"district":{"key":"245","name":"Verwaltungskreis Emmental"},"canton":{"key":"2","code":"BE","name":"Bern / Berne"},"status":"Real"},{"key":"10175287","name":"Im Weidli","postalCode":"3326","locality":"Krauchthal","commune":{"key":"414","name":"Krauchthal","shortName":"Krauchthal"},"district":{"key":"245","name":"Verwaltungskreis Emmental"},"canton":{"key":"2","code":"BE","name":"Bern / Berne"},"status":"Real"},{"key":"10242759","name":"Ischlag","postalCode":"3326","locality":"Krauchthal","commune":{"key":"414","name":"Krauchthal","shortName":"Krauchthal"},"district":{"key":"245","name":"Verwaltungskreis Emmental"},"canton":{"key":"2","code":"BE","name":"Bern / Berne"},"status":"Real"},{"key":"10004963","name":"Jucken","postalCode":"3326","locality":"Krauchthal","commune":{"key":"414","name":"Krauchthal","shortName":"Krauchthal"},"district":{"key":"245","name":"Verwaltungskreis Emmental"},"canton":{"key":"2","code":"BE","name":"Bern / Berne"},"status":"Real"},{"key":"10004964","name":"Klosteralp","postalCode":"3326","locality":"Krauchthal","commune":{"key":"414","name":"Krauchthal","shortName":"Krauchthal"},"district":{"key":"245","name":"Verwaltungskreis Emmental"},"canton":{"key":"2","code":"BE","name":"Bern / Berne"},"status":"Real"},{"key":"10177645","name":"Länggasse","postalCode":"3326","locality":"Krauchthal","commune":{"key":"414","name":"Krauchthal","shortName":"Krauchthal"},"district":{"key":"245","name":"Verwaltungskreis Emmental"},"canton":{"key":"2","code":"BE","name":"Bern / Berne"},"status":"Real"},{"key":"10191623","name":"Laufenbad","postalCode":"3326","locality":"Krauchthal","commune":{"key":"414","name":"Krauchthal","shortName":"Krauchthal"},"district":{"key":"245","name":"Verwaltungskreis Emmental"},"canton":{"key":"2","code":"BE","name":"Bern / Berne"},"status":"Real"},{"key":"10083235","name":"Laufeweg","postalCode":"3326","locality":"Krauchthal","commune":{"key":"414","name":"Krauchthal","shortName":"Krauchthal"},"district":{"key":"245","name":"Verwaltungskreis Emmental"},"canton":{"key":"2","code":"BE","name":"Bern / Berne"},"status":"Real"},{"key":"10088302","name":"Laufeweg","postalCode":"3326","locality":"Krauchthal","commune":{"key":"414","name":"Krauchthal","shortName":"Krauchthal"},"district":{"key":"245","name":"Verwaltungskreis Emmental"},"canton":{"key":"2","code":"BE","name":"Bern / Berne"},"status":"Real"},{"key":"10067185","name":"Lautermoos","postalCode":"3326","locality":"Krauchthal","commune":{"key":"414","name":"Krauchthal","shortName":"Krauchthal"},"district":{"key":"245","name":"Verwaltungskreis Emmental"},"canton":{"key":"2","code":"BE","name":"Bern / Berne"},"status":"Real"},{"key":"10116074","name":"Lindenfeld","postalCode":"3326","locality":"Krauchthal","commune":{"key":"414","name":"Krauchthal","shortName":"Krauchthal"},"district":{"key":"245","name":"Verwaltungskreis Emmental"},"canton":{"key":"2","code":"BE","name":"Bern / Berne"},"status":"Real"},{"key":"10216903","name":"Lochacher","postalCode":"3326","locality":"Krauchthal","commune":{"key":"414","name":"Krauchthal","shortName":"Krauchthal"},"district":{"key":"245","name":"Verwaltungskreis Emmental"},"canton":{"key":"2","code":"BE","name":"Bern / Berne"},"status":"Real"},{"key":"10216907","name":"Lochmattweid","postalCode":"3326","locality":"Krauchthal","commune":{"key":"414","name":"Krauchthal","shortName":"Krauchthal"},"district":{"key":"245","name":"Verwaltungskreis Emmental"},"canton":{"key":"2","code":"BE","name":"Bern / Berne"},"status":"Real"},{"key":"10216911","name":"Mülistei","postalCode":"3326","locality":"Krauchthal","commune":{"key":"414","name":"Krauchthal","shortName":"Krauchthal"},"district":{"key":"245","name":"Verwaltungskreis Emmental"},"canton":{"key":"2","code":"BE","name":"Bern / Berne"},"status":"Real"},{"key":"10125367","name":"Müliweidli","postalCode":"3326","locality":"Krauchthal","commune":{"key":"414","name":"Krauchthal","shortName":"Krauchthal"},"district":{"key":"245","name":"Verwaltungskreis Emmental"},"canton":{"key":"2","code":"BE","name":"Bern / Berne"},"status":"Real"},{"key":"10111820","name":"Neuhusweg","postalCode":"3326","locality":"Krauchthal","commune":{"key":"414","name":"Krauchthal","shortName":"Krauchthal"},"district":{"key":"245","name":"Verwaltungskreis Emmental"},"canton":{"key":"2","code":"BE","name":"Bern / Berne"},"status":"Real"},{"key":"10088303","name":"Oberburgstrasse","postalCode":"3326","locality":"Krauchthal","commune":{"key":"414","name":"Krauchthal","shortName":"Krauchthal"},"district":{"key":"245","name":"Verwaltungskreis Emmental"},"canton":{"key":"2","code":"BE","name":"Bern / Berne"},"status":"Real"},{"key":"10004965","name":"Oberdorf","postalCode":"3326","locality":"Krauchthal","commune":{"key":"414","name":"Krauchthal","shortName":"Krauchthal"},"district":{"key":"245","name":"Verwaltungskreis Emmental"},"canton":{"key":"2","code":"BE","name":"Bern / Berne"},"status":"Real"},{"key":"10216915","name":"Ochseweid","postalCode":"3326","locality":"Krauchthal","commune":{"key":"414","name":"Krauchthal","shortName":"Krauchthal"},"district":{"key":"245","name":"Verwaltungskreis Emmental"},"canton":{"key":"2","code":"BE","name":"Bern / Berne"},"status":"Real"},{"key":"10216919","name":"Räbhale","postalCode":"3326","locality":"Krauchthal","commune":{"key":"414","name":"Krauchthal","shortName":"Krauchthal"},"district":{"key":"245","name":"Verwaltungskreis Emmental"},"canton":{"key":"2","code":"BE","name":"Bern / Berne"},"status":"Real"},{"key":"10004967","name":"Räbmatt","postalCode":"3326","locality":"Krauchthal","commune":{"key":"414","name":"Krauchthal","shortName":"Krauchthal"},"district":{"key":"245","name":"Verwaltungskreis Emmental"},"canton":{"key":"2","code":"BE","name":"Bern / Berne"},"status":"Real"},{"key":"10182905","name":"Riedhalde","postalCode":"3326","locality":"Krauchthal","commune":{"key":"414","name":"Krauchthal","shortName":"Krauchthal"},"district":{"key":"245","name":"Verwaltungskreis Emmental"},"canton":{"key":"2","code":"BE","name":"Bern / Berne"},"status":"Real"},{"key":"10004966","name":"Rothenegg","postalCode":"3326","locality":"Krauchthal","commune":{"key":"414","name":"Krauchthal","shortName":"Krauchthal"},"district":{"key":"245","name":"Verwaltungskreis Emmental"},"canton":{"key":"2","code":"BE","name":"Bern / Berne"},"status":"Real"},{"key":"10193339","name":"Sandacher","postalCode":"3326","locality":"Krauchthal","commune":{"key":"414","name":"Krauchthal","shortName":"Krauchthal"},"district":{"key":"245","name":"Verwaltungskreis Emmental"},"canton":{"key":"2","code":"BE","name":"Bern / Berne"},"status":"Real"},{"key":"10067187","name":"Sandhole","postalCode":"3326","locality":"Krauchthal","commune":{"key":"414","name":"Krauchthal","shortName":"Krauchthal"},"district":{"key":"245","name":"Verwaltungskreis Emmental"},"canton":{"key":"2","code":"BE","name":"Bern / Berne"},"status":"Real"},{"key":"10004968","name":"Schafberg","postalCode":"3326","locality":"Krauchthal","commune":{"key":"414","name":"Krauchthal","shortName":"Krauchthal"},"district":{"key":"245","name":"Verwaltungskreis Emmental"},"canton":{"key":"2","code":"BE","name":"Bern / Berne"},"status":"Real"},{"key":"10088304","name":"Schwändi","postalCode":"3326","locality":"Krauchthal","commune":{"key":"414","name":"Krauchthal","shortName":"Krauchthal"},"district":{"key":"245","name":"Verwaltungskreis Emmental"},"canton":{"key":"2","code":"BE","name":"Bern / Berne"},"status":"Real"},{"key":"10216924","name":"Siggisbode","postalCode":"3326","locality":"Krauchthal","commune":{"key":"414","name":"Krauchthal","shortName":"Krauchthal"},"district":{"key":"245","name":"Verwaltungskreis Emmental"},"canton":{"key":"2","code":"BE","name":"Bern / Berne"},"status":"Real"},{"key":"10216928","name":"Steigruebe","postalCode":"3326","locality":"Krauchthal","commune":{"key":"414","name":"Krauchthal","shortName":"Krauchthal"},"district":{"key":"245","name":"Verwaltungskreis Emmental"},"canton":{"key":"2","code":"BE","name":"Bern / Berne"},"status":"Real"},{"key":"10216941","name":"Strickhaule","postalCode":"3326","locality":"Krauchthal","commune":{"key":"414","name":"Krauchthal","shortName":"Krauchthal"},"district":{"key":"245","name":"Verwaltungskreis Emmental"},"canton":{"key":"2","code":"BE","name":"Bern / Berne"},"status":"Real"},{"key":"10216945","name":"Tannbode","postalCode":"3326","locality":"Krauchthal","commune":{"key":"414","name":"Krauchthal","shortName":"Krauchthal"},"district":{"key":"245","name":"Verwaltungskreis Emmental"},"canton":{"key":"2","code":"BE","name":"Bern / Berne"},"status":"Real"},{"key":"10103632","name":"Thorberg","postalCode":"3326","locality":"Krauchthal","commune":{"key":"414","name":"Krauchthal","shortName":"Krauchthal"},"district":{"key":"245","name":"Verwaltungskreis Emmental"},"canton":{"key":"2","code":"BE","name":"Bern / Berne"},"status":"Real"},{"key":"10004969","name":"Thorbergstrasse","postalCode":"3326","locality":"Krauchthal","commune":{"key":"414","name":"Krauchthal","shortName":"Krauchthal"},"district":{"key":"245","name":"Verwaltungskreis Emmental"},"canton":{"key":"2","code":"BE","name":"Bern / Berne"},"status":"Real"},{"key":"10191412","name":"Unger dr Flue","postalCode":"3326","locality":"Krauchthal","commune":{"key":"414","name":"Krauchthal","shortName":"Krauchthal"},"district":{"key":"245","name":"Verwaltungskreis Emmental"},"canton":{"key":"2","code":"BE","name":"Bern / Berne"},"status":"Real"},{"key":"10004970","name":"Wannetalweg","postalCode":"3326","locality":"Krauchthal","commune":{"key":"414","name":"Krauchthal","shortName":"Krauchthal"},"district":{"key":"245","name":"Verwaltungskreis Emmental"},"canton":{"key":"2","code":"BE","name":"Bern / Berne"},"status":"Real"},{"key":"10216949","name":"Weiermatt","postalCode":"3326","locality":"Krauchthal","commune":{"key":"414","name":"Krauchthal","shortName":"Krauchthal"},"district":{"key":"245","name":"Verwaltungskreis Emmental"},"canton":{"key":"2","code":"BE","name":"Bern / Berne"},"status":"Real"},{"key":"10216953","name":"Wysstannewald","postalCode":"3326","locality":"Krauchthal","commune":{"key":"414","name":"Krauchthal","shortName":"Krauchthal"},"district":{"key":"245","name":"Verwaltungskreis Emmental"},"canton":{"key":"2","code":"BE","name":"Bern / Berne"},"status":"Real"},{"key":"10217970","name":"Änggräte","postalCode":"3326","locality":"Krauchthal","commune":{"key":"414","name":"Krauchthal","shortName":"Krauchthal"},"district":{"key":"245","name":"Verwaltungskreis Emmental"},"canton":{"key":"2","code":"BE","name":"Bern / Berne"},"status":"Real"},]