[{"name":"Abetzstr.","postalCode":"75245","locality":"Neulingen","municipality":{"key":"08236073","name":"Neulingen","type":"Kreisangehörige_Gemeinde"},"district":{"key":"08236","name":"Enzkreis","type":"Landkreis"},"federalState":{"key":"08","name":"Baden-Württemberg"}},{"name":"Ahornstr.","postalCode":"75245","locality":"Neulingen","municipality":{"key":"08236073","name":"Neulingen","type":"Kreisangehörige_Gemeinde"},"district":{"key":"08236","name":"Enzkreis","type":"Landkreis"},"federalState":{"key":"08","name":"Baden-Württemberg"}},{"name":"Allmendstr.","postalCode":"75245","locality":"Neulingen","municipality":{"key":"08236073","name":"Neulingen","type":"Kreisangehörige_Gemeinde"},"district":{"key":"08236","name":"Enzkreis","type":"Landkreis"},"federalState":{"key":"08","name":"Baden-Württemberg"}},{"name":"Alte Brettener Str.","postalCode":"75245","locality":"Neulingen","municipality":{"key":"08236073","name":"Neulingen","type":"Kreisangehörige_Gemeinde"},"district":{"key":"08236","name":"Enzkreis","type":"Landkreis"},"federalState":{"key":"08","name":"Baden-Württemberg"}},{"name":"Alter Gaben","postalCode":"75245","locality":"Neulingen","municipality":{"key":"08236073","name":"Neulingen","type":"Kreisangehörige_Gemeinde"},"district":{"key":"08236","name":"Enzkreis","type":"Landkreis"},"federalState":{"key":"08","name":"Baden-Württemberg"}},{"name":"Am Anger","postalCode":"75245","locality":"Neulingen","municipality":{"key":"08236073","name":"Neulingen","type":"Kreisangehörige_Gemeinde"},"district":{"key":"08236","name":"Enzkreis","type":"Landkreis"},"federalState":{"key":"08","name":"Baden-Württemberg"}},{"name":"Am Brontalgraben","postalCode":"75245","locality":"Neulingen","municipality":{"key":"08236073","name":"Neulingen","type":"Kreisangehörige_Gemeinde"},"district":{"key":"08236","name":"Enzkreis","type":"Landkreis"},"federalState":{"key":"08","name":"Baden-Württemberg"}},{"name":"Am Diehlgarten","postalCode":"75245","locality":"Neulingen","municipality":{"key":"08236073","name":"Neulingen","type":"Kreisangehörige_Gemeinde"},"district":{"key":"08236","name":"Enzkreis","type":"Landkreis"},"federalState":{"key":"08","name":"Baden-Württemberg"}},{"name":"Am Göbricher Pfad","postalCode":"75245","locality":"Neulingen","municipality":{"key":"08236073","name":"Neulingen","type":"Kreisangehörige_Gemeinde"},"district":{"key":"08236","name":"Enzkreis","type":"Landkreis"},"federalState":{"key":"08","name":"Baden-Württemberg"}},{"name":"Am Hohen Baum","postalCode":"75245","locality":"Neulingen","municipality":{"key":"08236073","name":"Neulingen","type":"Kreisangehörige_Gemeinde"},"district":{"key":"08236","name":"Enzkreis","type":"Landkreis"},"federalState":{"key":"08","name":"Baden-Württemberg"}},{"name":"Am Laugrund","postalCode":"75245","locality":"Neulingen","municipality":{"key":"08236073","name":"Neulingen","type":"Kreisangehörige_Gemeinde"},"district":{"key":"08236","name":"Enzkreis","type":"Landkreis"},"federalState":{"key":"08","name":"Baden-Württemberg"}},{"name":"Am Mittelrain","postalCode":"75245","locality":"Neulingen","municipality":{"key":"08236073","name":"Neulingen","type":"Kreisangehörige_Gemeinde"},"district":{"key":"08236","name":"Enzkreis","type":"Landkreis"},"federalState":{"key":"08","name":"Baden-Württemberg"}},{"name":"Am Rain","postalCode":"75245","locality":"Neulingen","municipality":{"key":"08236073","name":"Neulingen","type":"Kreisangehörige_Gemeinde"},"district":{"key":"08236","name":"Enzkreis","type":"Landkreis"},"federalState":{"key":"08","name":"Baden-Württemberg"}},{"name":"Amselstr.","postalCode":"75245","locality":"Neulingen","municipality":{"key":"08236073","name":"Neulingen","type":"Kreisangehörige_Gemeinde"},"district":{"key":"08236","name":"Enzkreis","type":"Landkreis"},"federalState":{"key":"08","name":"Baden-Württemberg"}},{"name":"Am Sickenbrünnle","postalCode":"75245","locality":"Neulingen","municipality":{"key":"08236073","name":"Neulingen","type":"Kreisangehörige_Gemeinde"},"district":{"key":"08236","name":"Enzkreis","type":"Landkreis"},"federalState":{"key":"08","name":"Baden-Württemberg"}},{"name":"Am Steinbruch","postalCode":"75245","locality":"Neulingen","municipality":{"key":"08236073","name":"Neulingen","type":"Kreisangehörige_Gemeinde"},"district":{"key":"08236","name":"Enzkreis","type":"Landkreis"},"federalState":{"key":"08","name":"Baden-Württemberg"}},{"name":"Am Wolfsbaum","postalCode":"75245","locality":"Neulingen","municipality":{"key":"08236073","name":"Neulingen","type":"Kreisangehörige_Gemeinde"},"district":{"key":"08236","name":"Enzkreis","type":"Landkreis"},"federalState":{"key":"08","name":"Baden-Württemberg"}},{"name":"Annette-von-Droste-Hülshoff-Weg","postalCode":"75245","locality":"Neulingen","municipality":{"key":"08236073","name":"Neulingen","type":"Kreisangehörige_Gemeinde"},"district":{"key":"08236","name":"Enzkreis","type":"Landkreis"},"federalState":{"key":"08","name":"Baden-Württemberg"}},{"name":"Auf der Lau","postalCode":"75245","locality":"Neulingen","municipality":{"key":"08236073","name":"Neulingen","type":"Kreisangehörige_Gemeinde"},"district":{"key":"08236","name":"Enzkreis","type":"Landkreis"},"federalState":{"key":"08","name":"Baden-Württemberg"}},{"name":"Auweg","postalCode":"75245","locality":"Neulingen","municipality":{"key":"08236073","name":"Neulingen","type":"Kreisangehörige_Gemeinde"},"district":{"key":"08236","name":"Enzkreis","type":"Landkreis"},"federalState":{"key":"08","name":"Baden-Württemberg"}},{"name":"Bauschlotter Str.","postalCode":"75245","locality":"Neulingen","municipality":{"key":"08236073","name":"Neulingen","type":"Kreisangehörige_Gemeinde"},"district":{"key":"08236","name":"Enzkreis","type":"Landkreis"},"federalState":{"key":"08","name":"Baden-Württemberg"}},{"name":"Bei den Dolinen","postalCode":"75245","locality":"Neulingen","municipality":{"key":"08236073","name":"Neulingen","type":"Kreisangehörige_Gemeinde"},"district":{"key":"08236","name":"Enzkreis","type":"Landkreis"},"federalState":{"key":"08","name":"Baden-Württemberg"}},{"name":"Bergstr.","postalCode":"75245","locality":"Neulingen","municipality":{"key":"08236073","name":"Neulingen","type":"Kreisangehörige_Gemeinde"},"district":{"key":"08236","name":"Enzkreis","type":"Landkreis"},"federalState":{"key":"08","name":"Baden-Württemberg"}},{"name":"Binsenäckerstr.","postalCode":"75245","locality":"Neulingen","municipality":{"key":"08236073","name":"Neulingen","type":"Kreisangehörige_Gemeinde"},"district":{"key":"08236","name":"Enzkreis","type":"Landkreis"},"federalState":{"key":"08","name":"Baden-Württemberg"}},{"name":"Binzenlöchleweg","postalCode":"75245","locality":"Neulingen","municipality":{"key":"08236073","name":"Neulingen","type":"Kreisangehörige_Gemeinde"},"district":{"key":"08236","name":"Enzkreis","type":"Landkreis"},"federalState":{"key":"08","name":"Baden-Württemberg"}},{"name":"Birkenhof","postalCode":"75245","locality":"Neulingen","municipality":{"key":"08236073","name":"Neulingen","type":"Kreisangehörige_Gemeinde"},"district":{"key":"08236","name":"Enzkreis","type":"Landkreis"},"federalState":{"key":"08","name":"Baden-Württemberg"}},{"name":"Birkenstr.","postalCode":"75245","locality":"Neulingen","municipality":{"key":"08236073","name":"Neulingen","type":"Kreisangehörige_Gemeinde"},"district":{"key":"08236","name":"Enzkreis","type":"Landkreis"},"federalState":{"key":"08","name":"Baden-Württemberg"}},{"name":"Bleichstr.","postalCode":"75245","locality":"Neulingen","municipality":{"key":"08236073","name":"Neulingen","type":"Kreisangehörige_Gemeinde"},"district":{"key":"08236","name":"Enzkreis","type":"Landkreis"},"federalState":{"key":"08","name":"Baden-Württemberg"}},{"name":"Brettener Str.","postalCode":"75245","locality":"Neulingen","municipality":{"key":"08236073","name":"Neulingen","type":"Kreisangehörige_Gemeinde"},"district":{"key":"08236","name":"Enzkreis","type":"Landkreis"},"federalState":{"key":"08","name":"Baden-Württemberg"}},{"name":"Brettener Weg","postalCode":"75245","locality":"Neulingen","municipality":{"key":"08236073","name":"Neulingen","type":"Kreisangehörige_Gemeinde"},"district":{"key":"08236","name":"Enzkreis","type":"Landkreis"},"federalState":{"key":"08","name":"Baden-Württemberg"}},{"name":"Brunnenstr.","postalCode":"75245","locality":"Neulingen","municipality":{"key":"08236073","name":"Neulingen","type":"Kreisangehörige_Gemeinde"},"district":{"key":"08236","name":"Enzkreis","type":"Landkreis"},"federalState":{"key":"08","name":"Baden-Württemberg"}},{"name":"Brünnlesweg","postalCode":"75245","locality":"Neulingen","municipality":{"key":"08236073","name":"Neulingen","type":"Kreisangehörige_Gemeinde"},"district":{"key":"08236","name":"Enzkreis","type":"Landkreis"},"federalState":{"key":"08","name":"Baden-Württemberg"}},{"name":"Buchenstr.","postalCode":"75245","locality":"Neulingen","municipality":{"key":"08236073","name":"Neulingen","type":"Kreisangehörige_Gemeinde"},"district":{"key":"08236","name":"Enzkreis","type":"Landkreis"},"federalState":{"key":"08","name":"Baden-Württemberg"}},{"name":"Büchigstr.","postalCode":"75245","locality":"Neulingen","municipality":{"key":"08236073","name":"Neulingen","type":"Kreisangehörige_Gemeinde"},"district":{"key":"08236","name":"Enzkreis","type":"Landkreis"},"federalState":{"key":"08","name":"Baden-Württemberg"}},{"name":"Bussardweg","postalCode":"75245","locality":"Neulingen","municipality":{"key":"08236073","name":"Neulingen","type":"Kreisangehörige_Gemeinde"},"district":{"key":"08236","name":"Enzkreis","type":"Landkreis"},"federalState":{"key":"08","name":"Baden-Württemberg"}},{"name":"Diebsbrunnenweg","postalCode":"75245","locality":"Neulingen","municipality":{"key":"08236073","name":"Neulingen","type":"Kreisangehörige_Gemeinde"},"district":{"key":"08236","name":"Enzkreis","type":"Landkreis"},"federalState":{"key":"08","name":"Baden-Württemberg"}},{"name":"Drosselweg","postalCode":"75245","locality":"Neulingen","municipality":{"key":"08236073","name":"Neulingen","type":"Kreisangehörige_Gemeinde"},"district":{"key":"08236","name":"Enzkreis","type":"Landkreis"},"federalState":{"key":"08","name":"Baden-Württemberg"}},{"name":"Dürrner Str.","postalCode":"75245","locality":"Neulingen","municipality":{"key":"08236073","name":"Neulingen","type":"Kreisangehörige_Gemeinde"},"district":{"key":"08236","name":"Enzkreis","type":"Landkreis"},"federalState":{"key":"08","name":"Baden-Württemberg"}},{"name":"Dürrner Weg","postalCode":"75245","locality":"Neulingen","municipality":{"key":"08236073","name":"Neulingen","type":"Kreisangehörige_Gemeinde"},"district":{"key":"08236","name":"Enzkreis","type":"Landkreis"},"federalState":{"key":"08","name":"Baden-Württemberg"}},{"name":"Eduard-Mörike-Ring","postalCode":"75245","locality":"Neulingen","municipality":{"key":"08236073","name":"Neulingen","type":"Kreisangehörige_Gemeinde"},"district":{"key":"08236","name":"Enzkreis","type":"Landkreis"},"federalState":{"key":"08","name":"Baden-Württemberg"}},{"name":"Eichelbergstr.","postalCode":"75245","locality":"Neulingen","municipality":{"key":"08236073","name":"Neulingen","type":"Kreisangehörige_Gemeinde"},"district":{"key":"08236","name":"Enzkreis","type":"Landkreis"},"federalState":{"key":"08","name":"Baden-Württemberg"}},{"name":"Eisinger Grund","postalCode":"75245","locality":"Neulingen","municipality":{"key":"08236073","name":"Neulingen","type":"Kreisangehörige_Gemeinde"},"district":{"key":"08236","name":"Enzkreis","type":"Landkreis"},"federalState":{"key":"08","name":"Baden-Württemberg"}},{"name":"Eisinger Str.","postalCode":"75245","locality":"Neulingen","municipality":{"key":"08236073","name":"Neulingen","type":"Kreisangehörige_Gemeinde"},"district":{"key":"08236","name":"Enzkreis","type":"Landkreis"},"federalState":{"key":"08","name":"Baden-Württemberg"}},{"name":"Erich-Kästner-Weg","postalCode":"75245","locality":"Neulingen","municipality":{"key":"08236073","name":"Neulingen","type":"Kreisangehörige_Gemeinde"},"district":{"key":"08236","name":"Enzkreis","type":"Landkreis"},"federalState":{"key":"08","name":"Baden-Württemberg"}},{"name":"Erlenstr.","postalCode":"75245","locality":"Neulingen","municipality":{"key":"08236073","name":"Neulingen","type":"Kreisangehörige_Gemeinde"},"district":{"key":"08236","name":"Enzkreis","type":"Landkreis"},"federalState":{"key":"08","name":"Baden-Württemberg"}},{"name":"Eulenlochgraben","postalCode":"75245","locality":"Neulingen","municipality":{"key":"08236073","name":"Neulingen","type":"Kreisangehörige_Gemeinde"},"district":{"key":"08236","name":"Enzkreis","type":"Landkreis"},"federalState":{"key":"08","name":"Baden-Württemberg"}},{"name":"Falkenweg","postalCode":"75245","locality":"Neulingen","municipality":{"key":"08236073","name":"Neulingen","type":"Kreisangehörige_Gemeinde"},"district":{"key":"08236","name":"Enzkreis","type":"Landkreis"},"federalState":{"key":"08","name":"Baden-Württemberg"}},{"name":"Fasanenstr.","postalCode":"75245","locality":"Neulingen","municipality":{"key":"08236073","name":"Neulingen","type":"Kreisangehörige_Gemeinde"},"district":{"key":"08236","name":"Enzkreis","type":"Landkreis"},"federalState":{"key":"08","name":"Baden-Württemberg"}},{"name":"Feldstr.","postalCode":"75245","locality":"Neulingen","municipality":{"key":"08236073","name":"Neulingen","type":"Kreisangehörige_Gemeinde"},"district":{"key":"08236","name":"Enzkreis","type":"Landkreis"},"federalState":{"key":"08","name":"Baden-Württemberg"}},{"name":"Fichtenstr.","postalCode":"75245","locality":"Neulingen","municipality":{"key":"08236073","name":"Neulingen","type":"Kreisangehörige_Gemeinde"},"district":{"key":"08236","name":"Enzkreis","type":"Landkreis"},"federalState":{"key":"08","name":"Baden-Württemberg"}},{"name":"Finkenweg","postalCode":"75245","locality":"Neulingen","municipality":{"key":"08236073","name":"Neulingen","type":"Kreisangehörige_Gemeinde"},"district":{"key":"08236","name":"Enzkreis","type":"Landkreis"},"federalState":{"key":"08","name":"Baden-Württemberg"}},{"name":"Fliederweg","postalCode":"75245","locality":"Neulingen","municipality":{"key":"08236073","name":"Neulingen","type":"Kreisangehörige_Gemeinde"},"district":{"key":"08236","name":"Enzkreis","type":"Landkreis"},"federalState":{"key":"08","name":"Baden-Württemberg"}},{"name":"Forchenweg","postalCode":"75245","locality":"Neulingen","municipality":{"key":"08236073","name":"Neulingen","type":"Kreisangehörige_Gemeinde"},"district":{"key":"08236","name":"Enzkreis","type":"Landkreis"},"federalState":{"key":"08","name":"Baden-Württemberg"}},{"name":"Forlenstr.","postalCode":"75245","locality":"Neulingen","municipality":{"key":"08236073","name":"Neulingen","type":"Kreisangehörige_Gemeinde"},"district":{"key":"08236","name":"Enzkreis","type":"Landkreis"},"federalState":{"key":"08","name":"Baden-Württemberg"}},{"name":"Friedenstr.","postalCode":"75245","locality":"Neulingen","municipality":{"key":"08236073","name":"Neulingen","type":"Kreisangehörige_Gemeinde"},"district":{"key":"08236","name":"Enzkreis","type":"Landkreis"},"federalState":{"key":"08","name":"Baden-Württemberg"}},{"name":"Friedrich-Hölderlin-Weg","postalCode":"75245","locality":"Neulingen","municipality":{"key":"08236073","name":"Neulingen","type":"Kreisangehörige_Gemeinde"},"district":{"key":"08236","name":"Enzkreis","type":"Landkreis"},"federalState":{"key":"08","name":"Baden-Württemberg"}},{"name":"Friedrich-Schiller-Weg","postalCode":"75245","locality":"Neulingen","municipality":{"key":"08236073","name":"Neulingen","type":"Kreisangehörige_Gemeinde"},"district":{"key":"08236","name":"Enzkreis","type":"Landkreis"},"federalState":{"key":"08","name":"Baden-Württemberg"}},{"name":"Gartenstr.","postalCode":"75245","locality":"Neulingen","municipality":{"key":"08236073","name":"Neulingen","type":"Kreisangehörige_Gemeinde"},"district":{"key":"08236","name":"Enzkreis","type":"Landkreis"},"federalState":{"key":"08","name":"Baden-Württemberg"}},{"name":"Geisberg","postalCode":"75245","locality":"Neulingen","municipality":{"key":"08236073","name":"Neulingen","type":"Kreisangehörige_Gemeinde"},"district":{"key":"08236","name":"Enzkreis","type":"Landkreis"},"federalState":{"key":"08","name":"Baden-Württemberg"}},{"name":"Göbricher Str.","postalCode":"75245","locality":"Neulingen","municipality":{"key":"08236073","name":"Neulingen","type":"Kreisangehörige_Gemeinde"},"district":{"key":"08236","name":"Enzkreis","type":"Landkreis"},"federalState":{"key":"08","name":"Baden-Württemberg"}},{"name":"Grabenstr.","postalCode":"75245","locality":"Neulingen","municipality":{"key":"08236073","name":"Neulingen","type":"Kreisangehörige_Gemeinde"},"district":{"key":"08236","name":"Enzkreis","type":"Landkreis"},"federalState":{"key":"08","name":"Baden-Württemberg"}},{"name":"Großer Buchenweg","postalCode":"75245","locality":"Neulingen","municipality":{"key":"08236073","name":"Neulingen","type":"Kreisangehörige_Gemeinde"},"district":{"key":"08236","name":"Enzkreis","type":"Landkreis"},"federalState":{"key":"08","name":"Baden-Württemberg"}},{"name":"Grünstr.","postalCode":"75245","locality":"Neulingen","municipality":{"key":"08236073","name":"Neulingen","type":"Kreisangehörige_Gemeinde"},"district":{"key":"08236","name":"Enzkreis","type":"Landkreis"},"federalState":{"key":"08","name":"Baden-Württemberg"}},{"name":"Habichtweg","postalCode":"75245","locality":"Neulingen","municipality":{"key":"08236073","name":"Neulingen","type":"Kreisangehörige_Gemeinde"},"district":{"key":"08236","name":"Enzkreis","type":"Landkreis"},"federalState":{"key":"08","name":"Baden-Württemberg"}},{"name":"Hauptstr.","postalCode":"75245","locality":"Neulingen","municipality":{"key":"08236073","name":"Neulingen","type":"Kreisangehörige_Gemeinde"},"district":{"key":"08236","name":"Enzkreis","type":"Landkreis"},"federalState":{"key":"08","name":"Baden-Württemberg"}},{"name":"Heimbronner Fußpfad","postalCode":"75245","locality":"Neulingen","municipality":{"key":"08236073","name":"Neulingen","type":"Kreisangehörige_Gemeinde"},"district":{"key":"08236","name":"Enzkreis","type":"Landkreis"},"federalState":{"key":"08","name":"Baden-Württemberg"}},{"name":"Heimbronner Weg","postalCode":"75245","locality":"Neulingen","municipality":{"key":"08236073","name":"Neulingen","type":"Kreisangehörige_Gemeinde"},"district":{"key":"08236","name":"Enzkreis","type":"Landkreis"},"federalState":{"key":"08","name":"Baden-Württemberg"}},{"name":"Hermann-Hesse-Weg","postalCode":"75245","locality":"Neulingen","municipality":{"key":"08236073","name":"Neulingen","type":"Kreisangehörige_Gemeinde"},"district":{"key":"08236","name":"Enzkreis","type":"Landkreis"},"federalState":{"key":"08","name":"Baden-Württemberg"}},{"name":"Herrschaftswaldweg","postalCode":"75245","locality":"Neulingen","municipality":{"key":"08236073","name":"Neulingen","type":"Kreisangehörige_Gemeinde"},"district":{"key":"08236","name":"Enzkreis","type":"Landkreis"},"federalState":{"key":"08","name":"Baden-Württemberg"}},{"name":"Hertweg","postalCode":"75245","locality":"Neulingen","municipality":{"key":"08236073","name":"Neulingen","type":"Kreisangehörige_Gemeinde"},"district":{"key":"08236","name":"Enzkreis","type":"Landkreis"},"federalState":{"key":"08","name":"Baden-Württemberg"}},{"name":"Hinter den Diehlgärten","postalCode":"75245","locality":"Neulingen","municipality":{"key":"08236073","name":"Neulingen","type":"Kreisangehörige_Gemeinde"},"district":{"key":"08236","name":"Enzkreis","type":"Landkreis"},"federalState":{"key":"08","name":"Baden-Württemberg"}},{"name":"Hinter den Gärten","postalCode":"75245","locality":"Neulingen","municipality":{"key":"08236073","name":"Neulingen","type":"Kreisangehörige_Gemeinde"},"district":{"key":"08236","name":"Enzkreis","type":"Landkreis"},"federalState":{"key":"08","name":"Baden-Württemberg"}},{"name":"Hochstr.","postalCode":"75245","locality":"Neulingen","municipality":{"key":"08236073","name":"Neulingen","type":"Kreisangehörige_Gemeinde"},"district":{"key":"08236","name":"Enzkreis","type":"Landkreis"},"federalState":{"key":"08","name":"Baden-Württemberg"}},{"name":"Höhenstr.","postalCode":"75245","locality":"Neulingen","municipality":{"key":"08236073","name":"Neulingen","type":"Kreisangehörige_Gemeinde"},"district":{"key":"08236","name":"Enzkreis","type":"Landkreis"},"federalState":{"key":"08","name":"Baden-Württemberg"}},{"name":"Hohlstr.","postalCode":"75245","locality":"Neulingen","municipality":{"key":"08236073","name":"Neulingen","type":"Kreisangehörige_Gemeinde"},"district":{"key":"08236","name":"Enzkreis","type":"Landkreis"},"federalState":{"key":"08","name":"Baden-Württemberg"}},{"name":"Hohwaldstr.","postalCode":"75245","locality":"Neulingen","municipality":{"key":"08236073","name":"Neulingen","type":"Kreisangehörige_Gemeinde"},"district":{"key":"08236","name":"Enzkreis","type":"Landkreis"},"federalState":{"key":"08","name":"Baden-Württemberg"}},{"name":"Höselstr.","postalCode":"75245","locality":"Neulingen","municipality":{"key":"08236073","name":"Neulingen","type":"Kreisangehörige_Gemeinde"},"district":{"key":"08236","name":"Enzkreis","type":"Landkreis"},"federalState":{"key":"08","name":"Baden-Württemberg"}},{"name":"Hübschstr.","postalCode":"75245","locality":"Neulingen","municipality":{"key":"08236073","name":"Neulingen","type":"Kreisangehörige_Gemeinde"},"district":{"key":"08236","name":"Enzkreis","type":"Landkreis"},"federalState":{"key":"08","name":"Baden-Württemberg"}},{"name":"Hubweg","postalCode":"75245","locality":"Neulingen","municipality":{"key":"08236073","name":"Neulingen","type":"Kreisangehörige_Gemeinde"},"district":{"key":"08236","name":"Enzkreis","type":"Landkreis"},"federalState":{"key":"08","name":"Baden-Württemberg"}},{"name":"Hügelstr.","postalCode":"75245","locality":"Neulingen","municipality":{"key":"08236073","name":"Neulingen","type":"Kreisangehörige_Gemeinde"},"district":{"key":"08236","name":"Enzkreis","type":"Landkreis"},"federalState":{"key":"08","name":"Baden-Württemberg"}},{"name":"Im Bill","postalCode":"75245","locality":"Neulingen","municipality":{"key":"08236073","name":"Neulingen","type":"Kreisangehörige_Gemeinde"},"district":{"key":"08236","name":"Enzkreis","type":"Landkreis"},"federalState":{"key":"08","name":"Baden-Württemberg"}},{"name":"Im Brunnenbusch","postalCode":"75245","locality":"Neulingen","municipality":{"key":"08236073","name":"Neulingen","type":"Kreisangehörige_Gemeinde"},"district":{"key":"08236","name":"Enzkreis","type":"Landkreis"},"federalState":{"key":"08","name":"Baden-Württemberg"}},{"name":"Im Heilesgrund","postalCode":"75245","locality":"Neulingen","municipality":{"key":"08236073","name":"Neulingen","type":"Kreisangehörige_Gemeinde"},"district":{"key":"08236","name":"Enzkreis","type":"Landkreis"},"federalState":{"key":"08","name":"Baden-Württemberg"}},{"name":"Im Hösel","postalCode":"75245","locality":"Neulingen","municipality":{"key":"08236073","name":"Neulingen","type":"Kreisangehörige_Gemeinde"},"district":{"key":"08236","name":"Enzkreis","type":"Landkreis"},"federalState":{"key":"08","name":"Baden-Württemberg"}},{"name":"Im Schönblick","postalCode":"75245","locality":"Neulingen","municipality":{"key":"08236073","name":"Neulingen","type":"Kreisangehörige_Gemeinde"},"district":{"key":"08236","name":"Enzkreis","type":"Landkreis"},"federalState":{"key":"08","name":"Baden-Württemberg"}},{"name":"Johannes-Heynlin-Weg","postalCode":"75245","locality":"Neulingen","municipality":{"key":"08236073","name":"Neulingen","type":"Kreisangehörige_Gemeinde"},"district":{"key":"08236","name":"Enzkreis","type":"Landkreis"},"federalState":{"key":"08","name":"Baden-Württemberg"}},{"name":"Kanalstr.","postalCode":"75245","locality":"Neulingen","municipality":{"key":"08236073","name":"Neulingen","type":"Kreisangehörige_Gemeinde"},"district":{"key":"08236","name":"Enzkreis","type":"Landkreis"},"federalState":{"key":"08","name":"Baden-Württemberg"}},{"name":"Kanalweg","postalCode":"75245","locality":"Neulingen","municipality":{"key":"08236073","name":"Neulingen","type":"Kreisangehörige_Gemeinde"},"district":{"key":"08236","name":"Enzkreis","type":"Landkreis"},"federalState":{"key":"08","name":"Baden-Württemberg"}},{"name":"Kelterstr.","postalCode":"75245","locality":"Neulingen","municipality":{"key":"08236073","name":"Neulingen","type":"Kreisangehörige_Gemeinde"},"district":{"key":"08236","name":"Enzkreis","type":"Landkreis"},"federalState":{"key":"08","name":"Baden-Württemberg"}},{"name":"Kirchstr.","postalCode":"75245","locality":"Neulingen","municipality":{"key":"08236073","name":"Neulingen","type":"Kreisangehörige_Gemeinde"},"district":{"key":"08236","name":"Enzkreis","type":"Landkreis"},"federalState":{"key":"08","name":"Baden-Württemberg"}},{"name":"Knittlinger Landstr.","postalCode":"75245","locality":"Neulingen","municipality":{"key":"08236073","name":"Neulingen","type":"Kreisangehörige_Gemeinde"},"district":{"key":"08236","name":"Enzkreis","type":"Landkreis"},"federalState":{"key":"08","name":"Baden-Württemberg"}},{"name":"Kraichgaustr.","postalCode":"75245","locality":"Neulingen","municipality":{"key":"08236073","name":"Neulingen","type":"Kreisangehörige_Gemeinde"},"district":{"key":"08236","name":"Enzkreis","type":"Landkreis"},"federalState":{"key":"08","name":"Baden-Württemberg"}},{"name":"Kronenstr.","postalCode":"75245","locality":"Neulingen","municipality":{"key":"08236073","name":"Neulingen","type":"Kreisangehörige_Gemeinde"},"district":{"key":"08236","name":"Enzkreis","type":"Landkreis"},"federalState":{"key":"08","name":"Baden-Württemberg"}},{"name":"Lärchenstr.","postalCode":"75245","locality":"Neulingen","municipality":{"key":"08236073","name":"Neulingen","type":"Kreisangehörige_Gemeinde"},"district":{"key":"08236","name":"Enzkreis","type":"Landkreis"},"federalState":{"key":"08","name":"Baden-Württemberg"}},{"name":"Lembergweg","postalCode":"75245","locality":"Neulingen","municipality":{"key":"08236073","name":"Neulingen","type":"Kreisangehörige_Gemeinde"},"district":{"key":"08236","name":"Enzkreis","type":"Landkreis"},"federalState":{"key":"08","name":"Baden-Württemberg"}},{"name":"Leopoldstr.","postalCode":"75245","locality":"Neulingen","municipality":{"key":"08236073","name":"Neulingen","type":"Kreisangehörige_Gemeinde"},"district":{"key":"08236","name":"Enzkreis","type":"Landkreis"},"federalState":{"key":"08","name":"Baden-Württemberg"}},{"name":"Ließweg","postalCode":"75245","locality":"Neulingen","municipality":{"key":"08236073","name":"Neulingen","type":"Kreisangehörige_Gemeinde"},"district":{"key":"08236","name":"Enzkreis","type":"Landkreis"},"federalState":{"key":"08","name":"Baden-Württemberg"}},{"name":"Lindenstr.","postalCode":"75245","locality":"Neulingen","municipality":{"key":"08236073","name":"Neulingen","type":"Kreisangehörige_Gemeinde"},"district":{"key":"08236","name":"Enzkreis","type":"Landkreis"},"federalState":{"key":"08","name":"Baden-Württemberg"}},{"name":"Ludwig-Uhland-Weg","postalCode":"75245","locality":"Neulingen","municipality":{"key":"08236073","name":"Neulingen","type":"Kreisangehörige_Gemeinde"},"district":{"key":"08236","name":"Enzkreis","type":"Landkreis"},"federalState":{"key":"08","name":"Baden-Württemberg"}},{"name":"Luisenhöhe","postalCode":"75245","locality":"Neulingen","municipality":{"key":"08236073","name":"Neulingen","type":"Kreisangehörige_Gemeinde"},"district":{"key":"08236","name":"Enzkreis","type":"Landkreis"},"federalState":{"key":"08","name":"Baden-Württemberg"}},{"name":"Marie-Luise-Kaschnitz-Weg","postalCode":"75245","locality":"Neulingen","municipality":{"key":"08236073","name":"Neulingen","type":"Kreisangehörige_Gemeinde"},"district":{"key":"08236","name":"Enzkreis","type":"Landkreis"},"federalState":{"key":"08","name":"Baden-Württemberg"}},{"name":"Maulbronner Weg","postalCode":"75245","locality":"Neulingen","municipality":{"key":"08236073","name":"Neulingen","type":"Kreisangehörige_Gemeinde"},"district":{"key":"08236","name":"Enzkreis","type":"Landkreis"},"federalState":{"key":"08","name":"Baden-Württemberg"}},{"name":"Meisenweg","postalCode":"75245","locality":"Neulingen","municipality":{"key":"08236073","name":"Neulingen","type":"Kreisangehörige_Gemeinde"},"district":{"key":"08236","name":"Enzkreis","type":"Landkreis"},"federalState":{"key":"08","name":"Baden-Württemberg"}},{"name":"Milanweg","postalCode":"75245","locality":"Neulingen","municipality":{"key":"08236073","name":"Neulingen","type":"Kreisangehörige_Gemeinde"},"district":{"key":"08236","name":"Enzkreis","type":"Landkreis"},"federalState":{"key":"08","name":"Baden-Württemberg"}},{"name":"Mittengäßle","postalCode":"75245","locality":"Neulingen","municipality":{"key":"08236073","name":"Neulingen","type":"Kreisangehörige_Gemeinde"},"district":{"key":"08236","name":"Enzkreis","type":"Landkreis"},"federalState":{"key":"08","name":"Baden-Württemberg"}},{"name":"Mittlerer Büchigweg","postalCode":"75245","locality":"Neulingen","municipality":{"key":"08236073","name":"Neulingen","type":"Kreisangehörige_Gemeinde"},"district":{"key":"08236","name":"Enzkreis","type":"Landkreis"},"federalState":{"key":"08","name":"Baden-Württemberg"}},{"name":"Mittlerer Weg","postalCode":"75245","locality":"Neulingen","municipality":{"key":"08236073","name":"Neulingen","type":"Kreisangehörige_Gemeinde"},"district":{"key":"08236","name":"Enzkreis","type":"Landkreis"},"federalState":{"key":"08","name":"Baden-Württemberg"}},{"name":"Mühlenweg","postalCode":"75245","locality":"Neulingen","municipality":{"key":"08236073","name":"Neulingen","type":"Kreisangehörige_Gemeinde"},"district":{"key":"08236","name":"Enzkreis","type":"Landkreis"},"federalState":{"key":"08","name":"Baden-Württemberg"}},{"name":"Nelly-Sachs-Weg","postalCode":"75245","locality":"Neulingen","municipality":{"key":"08236073","name":"Neulingen","type":"Kreisangehörige_Gemeinde"},"district":{"key":"08236","name":"Enzkreis","type":"Landkreis"},"federalState":{"key":"08","name":"Baden-Württemberg"}},{"name":"Neulinger Weg","postalCode":"75245","locality":"Neulingen","municipality":{"key":"08236073","name":"Neulingen","type":"Kreisangehörige_Gemeinde"},"district":{"key":"08236","name":"Enzkreis","type":"Landkreis"},"federalState":{"key":"08","name":"Baden-Württemberg"}},{"name":"Nordweg","postalCode":"75245","locality":"Neulingen","municipality":{"key":"08236073","name":"Neulingen","type":"Kreisangehörige_Gemeinde"},"district":{"key":"08236","name":"Enzkreis","type":"Landkreis"},"federalState":{"key":"08","name":"Baden-Württemberg"}},{"name":"Nußbaumer Str.","postalCode":"75245","locality":"Neulingen","municipality":{"key":"08236073","name":"Neulingen","type":"Kreisangehörige_Gemeinde"},"district":{"key":"08236","name":"Enzkreis","type":"Landkreis"},"federalState":{"key":"08","name":"Baden-Württemberg"}},{"name":"Obere Klinge","postalCode":"75245","locality":"Neulingen","municipality":{"key":"08236073","name":"Neulingen","type":"Kreisangehörige_Gemeinde"},"district":{"key":"08236","name":"Enzkreis","type":"Landkreis"},"federalState":{"key":"08","name":"Baden-Württemberg"}},{"name":"Oberer Forchenweg","postalCode":"75245","locality":"Neulingen","municipality":{"key":"08236073","name":"Neulingen","type":"Kreisangehörige_Gemeinde"},"district":{"key":"08236","name":"Enzkreis","type":"Landkreis"},"federalState":{"key":"08","name":"Baden-Württemberg"}},{"name":"Oberer Strietweg","postalCode":"75245","locality":"Neulingen","municipality":{"key":"08236073","name":"Neulingen","type":"Kreisangehörige_Gemeinde"},"district":{"key":"08236","name":"Enzkreis","type":"Landkreis"},"federalState":{"key":"08","name":"Baden-Württemberg"}},{"name":"Panoramahof","postalCode":"75245","locality":"Neulingen","municipality":{"key":"08236073","name":"Neulingen","type":"Kreisangehörige_Gemeinde"},"district":{"key":"08236","name":"Enzkreis","type":"Landkreis"},"federalState":{"key":"08","name":"Baden-Württemberg"}},{"name":"Panoramastr.","postalCode":"75245","locality":"Neulingen","municipality":{"key":"08236073","name":"Neulingen","type":"Kreisangehörige_Gemeinde"},"district":{"key":"08236","name":"Enzkreis","type":"Landkreis"},"federalState":{"key":"08","name":"Baden-Württemberg"}},{"name":"Pfarrstr.","postalCode":"75245","locality":"Neulingen","municipality":{"key":"08236073","name":"Neulingen","type":"Kreisangehörige_Gemeinde"},"district":{"key":"08236","name":"Enzkreis","type":"Landkreis"},"federalState":{"key":"08","name":"Baden-Württemberg"}},{"name":"Pforzheimer Str.","postalCode":"75245","locality":"Neulingen","municipality":{"key":"08236073","name":"Neulingen","type":"Kreisangehörige_Gemeinde"},"district":{"key":"08236","name":"Enzkreis","type":"Landkreis"},"federalState":{"key":"08","name":"Baden-Württemberg"}},{"name":"Prinz-Karl-Str.","postalCode":"75245","locality":"Neulingen","municipality":{"key":"08236073","name":"Neulingen","type":"Kreisangehörige_Gemeinde"},"district":{"key":"08236","name":"Enzkreis","type":"Landkreis"},"federalState":{"key":"08","name":"Baden-Württemberg"}},{"name":"Quellenweg","postalCode":"75245","locality":"Neulingen","municipality":{"key":"08236073","name":"Neulingen","type":"Kreisangehörige_Gemeinde"},"district":{"key":"08236","name":"Enzkreis","type":"Landkreis"},"federalState":{"key":"08","name":"Baden-Württemberg"}},{"name":"Rathausstr.","postalCode":"75245","locality":"Neulingen","municipality":{"key":"08236073","name":"Neulingen","type":"Kreisangehörige_Gemeinde"},"district":{"key":"08236","name":"Enzkreis","type":"Landkreis"},"federalState":{"key":"08","name":"Baden-Württemberg"}},{"name":"Rebhuhnstr.","postalCode":"75245","locality":"Neulingen","municipality":{"key":"08236073","name":"Neulingen","type":"Kreisangehörige_Gemeinde"},"district":{"key":"08236","name":"Enzkreis","type":"Landkreis"},"federalState":{"key":"08","name":"Baden-Württemberg"}},{"name":"Rhenastr.","postalCode":"75245","locality":"Neulingen","municipality":{"key":"08236073","name":"Neulingen","type":"Kreisangehörige_Gemeinde"},"district":{"key":"08236","name":"Enzkreis","type":"Landkreis"},"federalState":{"key":"08","name":"Baden-Württemberg"}},{"name":"Ricarda-Huch-Weg","postalCode":"75245","locality":"Neulingen","municipality":{"key":"08236073","name":"Neulingen","type":"Kreisangehörige_Gemeinde"},"district":{"key":"08236","name":"Enzkreis","type":"Landkreis"},"federalState":{"key":"08","name":"Baden-Württemberg"}},{"name":"Rietweg","postalCode":"75245","locality":"Neulingen","municipality":{"key":"08236073","name":"Neulingen","type":"Kreisangehörige_Gemeinde"},"district":{"key":"08236","name":"Enzkreis","type":"Landkreis"},"federalState":{"key":"08","name":"Baden-Württemberg"}},{"name":"Römerstr.","postalCode":"75245","locality":"Neulingen","municipality":{"key":"08236073","name":"Neulingen","type":"Kreisangehörige_Gemeinde"},"district":{"key":"08236","name":"Enzkreis","type":"Landkreis"},"federalState":{"key":"08","name":"Baden-Württemberg"}},{"name":"Rosenstr.","postalCode":"75245","locality":"Neulingen","municipality":{"key":"08236073","name":"Neulingen","type":"Kreisangehörige_Gemeinde"},"district":{"key":"08236","name":"Enzkreis","type":"Landkreis"},"federalState":{"key":"08","name":"Baden-Württemberg"}},{"name":"Rotstr.","postalCode":"75245","locality":"Neulingen","municipality":{"key":"08236073","name":"Neulingen","type":"Kreisangehörige_Gemeinde"},"district":{"key":"08236","name":"Enzkreis","type":"Landkreis"},"federalState":{"key":"08","name":"Baden-Württemberg"}},{"name":"Ruiter Str.","postalCode":"75245","locality":"Neulingen","municipality":{"key":"08236073","name":"Neulingen","type":"Kreisangehörige_Gemeinde"},"district":{"key":"08236","name":"Enzkreis","type":"Landkreis"},"federalState":{"key":"08","name":"Baden-Württemberg"}},{"name":"Ruiter Weg","postalCode":"75245","locality":"Neulingen","municipality":{"key":"08236073","name":"Neulingen","type":"Kreisangehörige_Gemeinde"},"district":{"key":"08236","name":"Enzkreis","type":"Landkreis"},"federalState":{"key":"08","name":"Baden-Württemberg"}},{"name":"Saatschulweg","postalCode":"75245","locality":"Neulingen","municipality":{"key":"08236073","name":"Neulingen","type":"Kreisangehörige_Gemeinde"},"district":{"key":"08236","name":"Enzkreis","type":"Landkreis"},"federalState":{"key":"08","name":"Baden-Württemberg"}},{"name":"Schlettichstr.","postalCode":"75245","locality":"Neulingen","municipality":{"key":"08236073","name":"Neulingen","type":"Kreisangehörige_Gemeinde"},"district":{"key":"08236","name":"Enzkreis","type":"Landkreis"},"federalState":{"key":"08","name":"Baden-Württemberg"}},{"name":"Schlettichweg","postalCode":"75245","locality":"Neulingen","municipality":{"key":"08236073","name":"Neulingen","type":"Kreisangehörige_Gemeinde"},"district":{"key":"08236","name":"Enzkreis","type":"Landkreis"},"federalState":{"key":"08","name":"Baden-Württemberg"}},{"name":"Schloßstr.","postalCode":"75245","locality":"Neulingen","municipality":{"key":"08236073","name":"Neulingen","type":"Kreisangehörige_Gemeinde"},"district":{"key":"08236","name":"Enzkreis","type":"Landkreis"},"federalState":{"key":"08","name":"Baden-Württemberg"}},{"name":"Schulstr.","postalCode":"75245","locality":"Neulingen","municipality":{"key":"08236073","name":"Neulingen","type":"Kreisangehörige_Gemeinde"},"district":{"key":"08236","name":"Enzkreis","type":"Landkreis"},"federalState":{"key":"08","name":"Baden-Württemberg"}},{"name":"Schützenstr.","postalCode":"75245","locality":"Neulingen","municipality":{"key":"08236073","name":"Neulingen","type":"Kreisangehörige_Gemeinde"},"district":{"key":"08236","name":"Enzkreis","type":"Landkreis"},"federalState":{"key":"08","name":"Baden-Württemberg"}},{"name":"Schwalbenstr.","postalCode":"75245","locality":"Neulingen","municipality":{"key":"08236073","name":"Neulingen","type":"Kreisangehörige_Gemeinde"},"district":{"key":"08236","name":"Enzkreis","type":"Landkreis"},"federalState":{"key":"08","name":"Baden-Württemberg"}},{"name":"Seeblickstr.","postalCode":"75245","locality":"Neulingen","municipality":{"key":"08236073","name":"Neulingen","type":"Kreisangehörige_Gemeinde"},"district":{"key":"08236","name":"Enzkreis","type":"Landkreis"},"federalState":{"key":"08","name":"Baden-Württemberg"}},{"name":"Siedlungsstr.","postalCode":"75245","locality":"Neulingen","municipality":{"key":"08236073","name":"Neulingen","type":"Kreisangehörige_Gemeinde"},"district":{"key":"08236","name":"Enzkreis","type":"Landkreis"},"federalState":{"key":"08","name":"Baden-Württemberg"}},{"name":"Sperberslaubweg","postalCode":"75245","locality":"Neulingen","municipality":{"key":"08236073","name":"Neulingen","type":"Kreisangehörige_Gemeinde"},"district":{"key":"08236","name":"Enzkreis","type":"Landkreis"},"federalState":{"key":"08","name":"Baden-Württemberg"}},{"name":"Sperlingstr.","postalCode":"75245","locality":"Neulingen","municipality":{"key":"08236073","name":"Neulingen","type":"Kreisangehörige_Gemeinde"},"district":{"key":"08236","name":"Enzkreis","type":"Landkreis"},"federalState":{"key":"08","name":"Baden-Württemberg"}},{"name":"Starenweg","postalCode":"75245","locality":"Neulingen","municipality":{"key":"08236073","name":"Neulingen","type":"Kreisangehörige_Gemeinde"},"district":{"key":"08236","name":"Enzkreis","type":"Landkreis"},"federalState":{"key":"08","name":"Baden-Württemberg"}},{"name":"Steiner Str.","postalCode":"75245","locality":"Neulingen","municipality":{"key":"08236073","name":"Neulingen","type":"Kreisangehörige_Gemeinde"},"district":{"key":"08236","name":"Enzkreis","type":"Landkreis"},"federalState":{"key":"08","name":"Baden-Württemberg"}},{"name":"Strietweg","postalCode":"75245","locality":"Neulingen","municipality":{"key":"08236073","name":"Neulingen","type":"Kreisangehörige_Gemeinde"},"district":{"key":"08236","name":"Enzkreis","type":"Landkreis"},"federalState":{"key":"08","name":"Baden-Württemberg"}},{"name":"Strombergstr.","postalCode":"75245","locality":"Neulingen","municipality":{"key":"08236073","name":"Neulingen","type":"Kreisangehörige_Gemeinde"},"district":{"key":"08236","name":"Enzkreis","type":"Landkreis"},"federalState":{"key":"08","name":"Baden-Württemberg"}},{"name":"Südweg","postalCode":"75245","locality":"Neulingen","municipality":{"key":"08236073","name":"Neulingen","type":"Kreisangehörige_Gemeinde"},"district":{"key":"08236","name":"Enzkreis","type":"Landkreis"},"federalState":{"key":"08","name":"Baden-Württemberg"}},{"name":"Talblickstr.","postalCode":"75245","locality":"Neulingen","municipality":{"key":"08236073","name":"Neulingen","type":"Kreisangehörige_Gemeinde"},"district":{"key":"08236","name":"Enzkreis","type":"Landkreis"},"federalState":{"key":"08","name":"Baden-Württemberg"}},{"name":"Thomas-Mann-Weg","postalCode":"75245","locality":"Neulingen","municipality":{"key":"08236073","name":"Neulingen","type":"Kreisangehörige_Gemeinde"},"district":{"key":"08236","name":"Enzkreis","type":"Landkreis"},"federalState":{"key":"08","name":"Baden-Württemberg"}},{"name":"Viehweg","postalCode":"75245","locality":"Neulingen","municipality":{"key":"08236073","name":"Neulingen","type":"Kreisangehörige_Gemeinde"},"district":{"key":"08236","name":"Enzkreis","type":"Landkreis"},"federalState":{"key":"08","name":"Baden-Württemberg"}},{"name":"Wachtelstr.","postalCode":"75245","locality":"Neulingen","municipality":{"key":"08236073","name":"Neulingen","type":"Kreisangehörige_Gemeinde"},"district":{"key":"08236","name":"Enzkreis","type":"Landkreis"},"federalState":{"key":"08","name":"Baden-Württemberg"}},{"name":"Wachtelweg","postalCode":"75245","locality":"Neulingen","municipality":{"key":"08236073","name":"Neulingen","type":"Kreisangehörige_Gemeinde"},"district":{"key":"08236","name":"Enzkreis","type":"Landkreis"},"federalState":{"key":"08","name":"Baden-Württemberg"}},{"name":"Waldblickstr.","postalCode":"75245","locality":"Neulingen","municipality":{"key":"08236073","name":"Neulingen","type":"Kreisangehörige_Gemeinde"},"district":{"key":"08236","name":"Enzkreis","type":"Landkreis"},"federalState":{"key":"08","name":"Baden-Württemberg"}},{"name":"Wäldeleweg","postalCode":"75245","locality":"Neulingen","municipality":{"key":"08236073","name":"Neulingen","type":"Kreisangehörige_Gemeinde"},"district":{"key":"08236","name":"Enzkreis","type":"Landkreis"},"federalState":{"key":"08","name":"Baden-Württemberg"}},{"name":"Wallsteinstr.","postalCode":"75245","locality":"Neulingen","municipality":{"key":"08236073","name":"Neulingen","type":"Kreisangehörige_Gemeinde"},"district":{"key":"08236","name":"Enzkreis","type":"Landkreis"},"federalState":{"key":"08","name":"Baden-Württemberg"}},{"name":"Weiherstr.","postalCode":"75245","locality":"Neulingen","municipality":{"key":"08236073","name":"Neulingen","type":"Kreisangehörige_Gemeinde"},"district":{"key":"08236","name":"Enzkreis","type":"Landkreis"},"federalState":{"key":"08","name":"Baden-Württemberg"}},{"name":"Weiher Wegle","postalCode":"75245","locality":"Neulingen","municipality":{"key":"08236073","name":"Neulingen","type":"Kreisangehörige_Gemeinde"},"district":{"key":"08236","name":"Enzkreis","type":"Landkreis"},"federalState":{"key":"08","name":"Baden-Württemberg"}},{"name":"Weinbrennerstr.","postalCode":"75245","locality":"Neulingen","municipality":{"key":"08236073","name":"Neulingen","type":"Kreisangehörige_Gemeinde"},"district":{"key":"08236","name":"Enzkreis","type":"Landkreis"},"federalState":{"key":"08","name":"Baden-Württemberg"}},{"name":"Westlicher Neulinger Weg","postalCode":"75245","locality":"Neulingen","municipality":{"key":"08236073","name":"Neulingen","type":"Kreisangehörige_Gemeinde"},"district":{"key":"08236","name":"Enzkreis","type":"Landkreis"},"federalState":{"key":"08","name":"Baden-Württemberg"}},{"name":"Wiesenstr.","postalCode":"75245","locality":"Neulingen","municipality":{"key":"08236073","name":"Neulingen","type":"Kreisangehörige_Gemeinde"},"district":{"key":"08236","name":"Enzkreis","type":"Landkreis"},"federalState":{"key":"08","name":"Baden-Württemberg"}},{"name":"Wilhelm-Hauff-Weg","postalCode":"75245","locality":"Neulingen","municipality":{"key":"08236073","name":"Neulingen","type":"Kreisangehörige_Gemeinde"},"district":{"key":"08236","name":"Enzkreis","type":"Landkreis"},"federalState":{"key":"08","name":"Baden-Württemberg"}},{"name":"Winterhaldenweg","postalCode":"75245","locality":"Neulingen","municipality":{"key":"08236073","name":"Neulingen","type":"Kreisangehörige_Gemeinde"},"district":{"key":"08236","name":"Enzkreis","type":"Landkreis"},"federalState":{"key":"08","name":"Baden-Württemberg"}},{"name":"Wittumstr.","postalCode":"75245","locality":"Neulingen","municipality":{"key":"08236073","name":"Neulingen","type":"Kreisangehörige_Gemeinde"},"district":{"key":"08236","name":"Enzkreis","type":"Landkreis"},"federalState":{"key":"08","name":"Baden-Württemberg"}},{"name":"Wössinger Weg","postalCode":"75245","locality":"Neulingen","municipality":{"key":"08236073","name":"Neulingen","type":"Kreisangehörige_Gemeinde"},"district":{"key":"08236","name":"Enzkreis","type":"Landkreis"},"federalState":{"key":"08","name":"Baden-Württemberg"}},{"name":"Zaunkönigstr.","postalCode":"75245","locality":"Neulingen","municipality":{"key":"08236073","name":"Neulingen","type":"Kreisangehörige_Gemeinde"},"district":{"key":"08236","name":"Enzkreis","type":"Landkreis"},"federalState":{"key":"08","name":"Baden-Württemberg"}},{"name":"Zehntstr.","postalCode":"75245","locality":"Neulingen","municipality":{"key":"08236073","name":"Neulingen","type":"Kreisangehörige_Gemeinde"},"district":{"key":"08236","name":"Enzkreis","type":"Landkreis"},"federalState":{"key":"08","name":"Baden-Württemberg"}},{"name":"Zeilweg","postalCode":"75245","locality":"Neulingen","municipality":{"key":"08236073","name":"Neulingen","type":"Kreisangehörige_Gemeinde"},"district":{"key":"08236","name":"Enzkreis","type":"Landkreis"},"federalState":{"key":"08","name":"Baden-Württemberg"}},{"name":"Ölbronner Str.","postalCode":"75245","locality":"Neulingen","municipality":{"key":"08236073","name":"Neulingen","type":"Kreisangehörige_Gemeinde"},"district":{"key":"08236","name":"Enzkreis","type":"Landkreis"},"federalState":{"key":"08","name":"Baden-Württemberg"}},]