[{"name":"Achstr.","postalCode":"87549","locality":"Rettenberg","municipality":{"key":"09780137","name":"Rettenberg","type":"Kreisangehörige_Gemeinde"},"district":{"key":"09780","name":"Oberallgäu","type":"Landkreis"},"federalState":{"key":"09","name":"Bayern"}},{"name":"Ahornweg","postalCode":"87549","locality":"Rettenberg","municipality":{"key":"09780137","name":"Rettenberg","type":"Kreisangehörige_Gemeinde"},"district":{"key":"09780","name":"Oberallgäu","type":"Landkreis"},"federalState":{"key":"09","name":"Bayern"}},{"name":"Alpweg","postalCode":"87549","locality":"Rettenberg","municipality":{"key":"09780137","name":"Rettenberg","type":"Kreisangehörige_Gemeinde"},"district":{"key":"09780","name":"Oberallgäu","type":"Landkreis"},"federalState":{"key":"09","name":"Bayern"}},{"name":"Alte Salzstr.","postalCode":"87549","locality":"Rettenberg","municipality":{"key":"09780137","name":"Rettenberg","type":"Kreisangehörige_Gemeinde"},"district":{"key":"09780","name":"Oberallgäu","type":"Landkreis"},"federalState":{"key":"09","name":"Bayern"}},{"name":"Am Anger","postalCode":"87549","locality":"Rettenberg","municipality":{"key":"09780137","name":"Rettenberg","type":"Kreisangehörige_Gemeinde"},"district":{"key":"09780","name":"Oberallgäu","type":"Landkreis"},"federalState":{"key":"09","name":"Bayern"}},{"name":"Am Dorfbach","postalCode":"87549","locality":"Rettenberg","municipality":{"key":"09780137","name":"Rettenberg","type":"Kreisangehörige_Gemeinde"},"district":{"key":"09780","name":"Oberallgäu","type":"Landkreis"},"federalState":{"key":"09","name":"Bayern"}},{"name":"Am Erch","postalCode":"87549","locality":"Rettenberg","municipality":{"key":"09780137","name":"Rettenberg","type":"Kreisangehörige_Gemeinde"},"district":{"key":"09780","name":"Oberallgäu","type":"Landkreis"},"federalState":{"key":"09","name":"Bayern"}},{"name":"Am Galetschbach","postalCode":"87549","locality":"Rettenberg","municipality":{"key":"09780137","name":"Rettenberg","type":"Kreisangehörige_Gemeinde"},"district":{"key":"09780","name":"Oberallgäu","type":"Landkreis"},"federalState":{"key":"09","name":"Bayern"}},{"name":"Am Hohenbühl","postalCode":"87549","locality":"Rettenberg","municipality":{"key":"09780137","name":"Rettenberg","type":"Kreisangehörige_Gemeinde"},"district":{"key":"09780","name":"Oberallgäu","type":"Landkreis"},"federalState":{"key":"09","name":"Bayern"}},{"name":"Am Kurpark","postalCode":"87549","locality":"Rettenberg","municipality":{"key":"09780137","name":"Rettenberg","type":"Kreisangehörige_Gemeinde"},"district":{"key":"09780","name":"Oberallgäu","type":"Landkreis"},"federalState":{"key":"09","name":"Bayern"}},{"name":"Am Mühlbach","postalCode":"87549","locality":"Rettenberg","municipality":{"key":"09780137","name":"Rettenberg","type":"Kreisangehörige_Gemeinde"},"district":{"key":"09780","name":"Oberallgäu","type":"Landkreis"},"federalState":{"key":"09","name":"Bayern"}},{"name":"Am Pfaffenbichl","postalCode":"87549","locality":"Rettenberg","municipality":{"key":"09780137","name":"Rettenberg","type":"Kreisangehörige_Gemeinde"},"district":{"key":"09780","name":"Oberallgäu","type":"Landkreis"},"federalState":{"key":"09","name":"Bayern"}},{"name":"Am Scheidplatz","postalCode":"87549","locality":"Rettenberg","municipality":{"key":"09780137","name":"Rettenberg","type":"Kreisangehörige_Gemeinde"},"district":{"key":"09780","name":"Oberallgäu","type":"Landkreis"},"federalState":{"key":"09","name":"Bayern"}},{"name":"Am Schießplatz","postalCode":"87549","locality":"Rettenberg","municipality":{"key":"09780137","name":"Rettenberg","type":"Kreisangehörige_Gemeinde"},"district":{"key":"09780","name":"Oberallgäu","type":"Landkreis"},"federalState":{"key":"09","name":"Bayern"}},{"name":"Am Schilf","postalCode":"87549","locality":"Rettenberg","municipality":{"key":"09780137","name":"Rettenberg","type":"Kreisangehörige_Gemeinde"},"district":{"key":"09780","name":"Oberallgäu","type":"Landkreis"},"federalState":{"key":"09","name":"Bayern"}},{"name":"Am Schleifenbach","postalCode":"87549","locality":"Rettenberg","municipality":{"key":"09780137","name":"Rettenberg","type":"Kreisangehörige_Gemeinde"},"district":{"key":"09780","name":"Oberallgäu","type":"Landkreis"},"federalState":{"key":"09","name":"Bayern"}},{"name":"Amthausstr.","postalCode":"87549","locality":"Rettenberg","municipality":{"key":"09780137","name":"Rettenberg","type":"Kreisangehörige_Gemeinde"},"district":{"key":"09780","name":"Oberallgäu","type":"Landkreis"},"federalState":{"key":"09","name":"Bayern"}},{"name":"Am Widdum","postalCode":"87549","locality":"Rettenberg","municipality":{"key":"09780137","name":"Rettenberg","type":"Kreisangehörige_Gemeinde"},"district":{"key":"09780","name":"Oberallgäu","type":"Landkreis"},"federalState":{"key":"09","name":"Bayern"}},{"name":"Am Wildbach","postalCode":"87549","locality":"Rettenberg","municipality":{"key":"09780137","name":"Rettenberg","type":"Kreisangehörige_Gemeinde"},"district":{"key":"09780","name":"Oberallgäu","type":"Landkreis"},"federalState":{"key":"09","name":"Bayern"}},{"name":"An der Halde","postalCode":"87549","locality":"Rettenberg","municipality":{"key":"09780137","name":"Rettenberg","type":"Kreisangehörige_Gemeinde"},"district":{"key":"09780","name":"Oberallgäu","type":"Landkreis"},"federalState":{"key":"09","name":"Bayern"}},{"name":"An der Staig","postalCode":"87549","locality":"Rettenberg","municipality":{"key":"09780137","name":"Rettenberg","type":"Kreisangehörige_Gemeinde"},"district":{"key":"09780","name":"Oberallgäu","type":"Landkreis"},"federalState":{"key":"09","name":"Bayern"}},{"name":"Auf der Au","postalCode":"87549","locality":"Rettenberg","municipality":{"key":"09780137","name":"Rettenberg","type":"Kreisangehörige_Gemeinde"},"district":{"key":"09780","name":"Oberallgäu","type":"Landkreis"},"federalState":{"key":"09","name":"Bayern"}},{"name":"Auf der Egg","postalCode":"87549","locality":"Rettenberg","municipality":{"key":"09780137","name":"Rettenberg","type":"Kreisangehörige_Gemeinde"},"district":{"key":"09780","name":"Oberallgäu","type":"Landkreis"},"federalState":{"key":"09","name":"Bayern"}},{"name":"Bellen","postalCode":"87549","locality":"Rettenberg","municipality":{"key":"09780137","name":"Rettenberg","type":"Kreisangehörige_Gemeinde"},"district":{"key":"09780","name":"Oberallgäu","type":"Landkreis"},"federalState":{"key":"09","name":"Bayern"}},{"name":"Bergstr.","postalCode":"87549","locality":"Rettenberg","municipality":{"key":"09780137","name":"Rettenberg","type":"Kreisangehörige_Gemeinde"},"district":{"key":"09780","name":"Oberallgäu","type":"Landkreis"},"federalState":{"key":"09","name":"Bayern"}},{"name":"Bichel","postalCode":"87549","locality":"Rettenberg","municipality":{"key":"09780137","name":"Rettenberg","type":"Kreisangehörige_Gemeinde"},"district":{"key":"09780","name":"Oberallgäu","type":"Landkreis"},"federalState":{"key":"09","name":"Bayern"}},{"name":"Bichelweg","postalCode":"87549","locality":"Rettenberg","municipality":{"key":"09780137","name":"Rettenberg","type":"Kreisangehörige_Gemeinde"},"district":{"key":"09780","name":"Oberallgäu","type":"Landkreis"},"federalState":{"key":"09","name":"Bayern"}},{"name":"Birkenallee","postalCode":"87549","locality":"Rettenberg","municipality":{"key":"09780137","name":"Rettenberg","type":"Kreisangehörige_Gemeinde"},"district":{"key":"09780","name":"Oberallgäu","type":"Landkreis"},"federalState":{"key":"09","name":"Bayern"}},{"name":"Birkenweg","postalCode":"87549","locality":"Rettenberg","municipality":{"key":"09780137","name":"Rettenberg","type":"Kreisangehörige_Gemeinde"},"district":{"key":"09780","name":"Oberallgäu","type":"Landkreis"},"federalState":{"key":"09","name":"Bayern"}},{"name":"Breitensteinweg","postalCode":"87549","locality":"Rettenberg","municipality":{"key":"09780137","name":"Rettenberg","type":"Kreisangehörige_Gemeinde"},"district":{"key":"09780","name":"Oberallgäu","type":"Landkreis"},"federalState":{"key":"09","name":"Bayern"}},{"name":"Buchenweg","postalCode":"87549","locality":"Rettenberg","municipality":{"key":"09780137","name":"Rettenberg","type":"Kreisangehörige_Gemeinde"},"district":{"key":"09780","name":"Oberallgäu","type":"Landkreis"},"federalState":{"key":"09","name":"Bayern"}},{"name":"Burgberger Str.","postalCode":"87549","locality":"Rettenberg","municipality":{"key":"09780137","name":"Rettenberg","type":"Kreisangehörige_Gemeinde"},"district":{"key":"09780","name":"Oberallgäu","type":"Landkreis"},"federalState":{"key":"09","name":"Bayern"}},{"name":"Burgweg","postalCode":"87549","locality":"Rettenberg","municipality":{"key":"09780137","name":"Rettenberg","type":"Kreisangehörige_Gemeinde"},"district":{"key":"09780","name":"Oberallgäu","type":"Landkreis"},"federalState":{"key":"09","name":"Bayern"}},{"name":"Dorfstr.","postalCode":"87549","locality":"Rettenberg","municipality":{"key":"09780137","name":"Rettenberg","type":"Kreisangehörige_Gemeinde"},"district":{"key":"09780","name":"Oberallgäu","type":"Landkreis"},"federalState":{"key":"09","name":"Bayern"}},{"name":"Eichenweg","postalCode":"87549","locality":"Rettenberg","municipality":{"key":"09780137","name":"Rettenberg","type":"Kreisangehörige_Gemeinde"},"district":{"key":"09780","name":"Oberallgäu","type":"Landkreis"},"federalState":{"key":"09","name":"Bayern"}},{"name":"Falkensteinweg","postalCode":"87549","locality":"Rettenberg","municipality":{"key":"09780137","name":"Rettenberg","type":"Kreisangehörige_Gemeinde"},"district":{"key":"09780","name":"Oberallgäu","type":"Landkreis"},"federalState":{"key":"09","name":"Bayern"}},{"name":"Flurstr.","postalCode":"87549","locality":"Rettenberg","municipality":{"key":"09780137","name":"Rettenberg","type":"Kreisangehörige_Gemeinde"},"district":{"key":"09780","name":"Oberallgäu","type":"Landkreis"},"federalState":{"key":"09","name":"Bayern"}},{"name":"Forstweg Rottachalpe","postalCode":"87549","locality":"Rettenberg","municipality":{"key":"09780137","name":"Rettenberg","type":"Kreisangehörige_Gemeinde"},"district":{"key":"09780","name":"Oberallgäu","type":"Landkreis"},"federalState":{"key":"09","name":"Bayern"}},{"name":"Forstweg Schachen","postalCode":"87549","locality":"Rettenberg","municipality":{"key":"09780137","name":"Rettenberg","type":"Kreisangehörige_Gemeinde"},"district":{"key":"09780","name":"Oberallgäu","type":"Landkreis"},"federalState":{"key":"09","name":"Bayern"}},{"name":"Freidorfer Str.","postalCode":"87549","locality":"Rettenberg","municipality":{"key":"09780137","name":"Rettenberg","type":"Kreisangehörige_Gemeinde"},"district":{"key":"09780","name":"Oberallgäu","type":"Landkreis"},"federalState":{"key":"09","name":"Bayern"}},{"name":"Fritz-Bilek-Weg","postalCode":"87549","locality":"Rettenberg","municipality":{"key":"09780137","name":"Rettenberg","type":"Kreisangehörige_Gemeinde"},"district":{"key":"09780","name":"Oberallgäu","type":"Landkreis"},"federalState":{"key":"09","name":"Bayern"}},{"name":"Gartenäckerweg","postalCode":"87549","locality":"Rettenberg","municipality":{"key":"09780137","name":"Rettenberg","type":"Kreisangehörige_Gemeinde"},"district":{"key":"09780","name":"Oberallgäu","type":"Landkreis"},"federalState":{"key":"09","name":"Bayern"}},{"name":"Großdorfer Str.","postalCode":"87549","locality":"Rettenberg","municipality":{"key":"09780137","name":"Rettenberg","type":"Kreisangehörige_Gemeinde"},"district":{"key":"09780","name":"Oberallgäu","type":"Landkreis"},"federalState":{"key":"09","name":"Bayern"}},{"name":"Grüntenstr.","postalCode":"87549","locality":"Rettenberg","municipality":{"key":"09780137","name":"Rettenberg","type":"Kreisangehörige_Gemeinde"},"district":{"key":"09780","name":"Oberallgäu","type":"Landkreis"},"federalState":{"key":"09","name":"Bayern"}},{"name":"Halde","postalCode":"87549","locality":"Rettenberg","municipality":{"key":"09780137","name":"Rettenberg","type":"Kreisangehörige_Gemeinde"},"district":{"key":"09780","name":"Oberallgäu","type":"Landkreis"},"federalState":{"key":"09","name":"Bayern"}},{"name":"Handwerkshof","postalCode":"87549","locality":"Rettenberg","municipality":{"key":"09780137","name":"Rettenberg","type":"Kreisangehörige_Gemeinde"},"district":{"key":"09780","name":"Oberallgäu","type":"Landkreis"},"federalState":{"key":"09","name":"Bayern"}},{"name":"Hauptstr.","postalCode":"87549","locality":"Rettenberg","municipality":{"key":"09780137","name":"Rettenberg","type":"Kreisangehörige_Gemeinde"},"district":{"key":"09780","name":"Oberallgäu","type":"Landkreis"},"federalState":{"key":"09","name":"Bayern"}},{"name":"Hausäckerweg","postalCode":"87549","locality":"Rettenberg","municipality":{"key":"09780137","name":"Rettenberg","type":"Kreisangehörige_Gemeinde"},"district":{"key":"09780","name":"Oberallgäu","type":"Landkreis"},"federalState":{"key":"09","name":"Bayern"}},{"name":"Illerweg","postalCode":"87549","locality":"Rettenberg","municipality":{"key":"09780137","name":"Rettenberg","type":"Kreisangehörige_Gemeinde"},"district":{"key":"09780","name":"Oberallgäu","type":"Landkreis"},"federalState":{"key":"09","name":"Bayern"}},{"name":"Immenstädter Str.","postalCode":"87549","locality":"Rettenberg","municipality":{"key":"09780137","name":"Rettenberg","type":"Kreisangehörige_Gemeinde"},"district":{"key":"09780","name":"Oberallgäu","type":"Landkreis"},"federalState":{"key":"09","name":"Bayern"}},{"name":"Josef-Hofmiller-Weg","postalCode":"87549","locality":"Rettenberg","municipality":{"key":"09780137","name":"Rettenberg","type":"Kreisangehörige_Gemeinde"},"district":{"key":"09780","name":"Oberallgäu","type":"Landkreis"},"federalState":{"key":"09","name":"Bayern"}},{"name":"Kalchenbach","postalCode":"87549","locality":"Rettenberg","municipality":{"key":"09780137","name":"Rettenberg","type":"Kreisangehörige_Gemeinde"},"district":{"key":"09780","name":"Oberallgäu","type":"Landkreis"},"federalState":{"key":"09","name":"Bayern"}},{"name":"Kalchenbachweg","postalCode":"87549","locality":"Rettenberg","municipality":{"key":"09780137","name":"Rettenberg","type":"Kreisangehörige_Gemeinde"},"district":{"key":"09780","name":"Oberallgäu","type":"Landkreis"},"federalState":{"key":"09","name":"Bayern"}},{"name":"Kammeregger Weg","postalCode":"87549","locality":"Rettenberg","municipality":{"key":"09780137","name":"Rettenberg","type":"Kreisangehörige_Gemeinde"},"district":{"key":"09780","name":"Oberallgäu","type":"Landkreis"},"federalState":{"key":"09","name":"Bayern"}},{"name":"Kapellenweg","postalCode":"87549","locality":"Rettenberg","municipality":{"key":"09780137","name":"Rettenberg","type":"Kreisangehörige_Gemeinde"},"district":{"key":"09780","name":"Oberallgäu","type":"Landkreis"},"federalState":{"key":"09","name":"Bayern"}},{"name":"Keller","postalCode":"87549","locality":"Rettenberg","municipality":{"key":"09780137","name":"Rettenberg","type":"Kreisangehörige_Gemeinde"},"district":{"key":"09780","name":"Oberallgäu","type":"Landkreis"},"federalState":{"key":"09","name":"Bayern"}},{"name":"Kirchbichl","postalCode":"87549","locality":"Rettenberg","municipality":{"key":"09780137","name":"Rettenberg","type":"Kreisangehörige_Gemeinde"},"district":{"key":"09780","name":"Oberallgäu","type":"Landkreis"},"federalState":{"key":"09","name":"Bayern"}},{"name":"Kirchdorfer Str.","postalCode":"87549","locality":"Rettenberg","municipality":{"key":"09780137","name":"Rettenberg","type":"Kreisangehörige_Gemeinde"},"district":{"key":"09780","name":"Oberallgäu","type":"Landkreis"},"federalState":{"key":"09","name":"Bayern"}},{"name":"Kirchstr.","postalCode":"87549","locality":"Rettenberg","municipality":{"key":"09780137","name":"Rettenberg","type":"Kreisangehörige_Gemeinde"},"district":{"key":"09780","name":"Oberallgäu","type":"Landkreis"},"federalState":{"key":"09","name":"Bayern"}},{"name":"Kohlgrubäcker","postalCode":"87549","locality":"Rettenberg","municipality":{"key":"09780137","name":"Rettenberg","type":"Kreisangehörige_Gemeinde"},"district":{"key":"09780","name":"Oberallgäu","type":"Landkreis"},"federalState":{"key":"09","name":"Bayern"}},{"name":"Kranzegger Str.","postalCode":"87549","locality":"Rettenberg","municipality":{"key":"09780137","name":"Rettenberg","type":"Kreisangehörige_Gemeinde"},"district":{"key":"09780","name":"Oberallgäu","type":"Landkreis"},"federalState":{"key":"09","name":"Bayern"}},{"name":"La-Frenaye-Weg","postalCode":"87549","locality":"Rettenberg","municipality":{"key":"09780137","name":"Rettenberg","type":"Kreisangehörige_Gemeinde"},"district":{"key":"09780","name":"Oberallgäu","type":"Landkreis"},"federalState":{"key":"09","name":"Bayern"}},{"name":"Langeneggerweg","postalCode":"87549","locality":"Rettenberg","municipality":{"key":"09780137","name":"Rettenberg","type":"Kreisangehörige_Gemeinde"},"district":{"key":"09780","name":"Oberallgäu","type":"Landkreis"},"federalState":{"key":"09","name":"Bayern"}},{"name":"Lärchenweg","postalCode":"87549","locality":"Rettenberg","municipality":{"key":"09780137","name":"Rettenberg","type":"Kreisangehörige_Gemeinde"},"district":{"key":"09780","name":"Oberallgäu","type":"Landkreis"},"federalState":{"key":"09","name":"Bayern"}},{"name":"Liftweg","postalCode":"87549","locality":"Rettenberg","municipality":{"key":"09780137","name":"Rettenberg","type":"Kreisangehörige_Gemeinde"},"district":{"key":"09780","name":"Oberallgäu","type":"Landkreis"},"federalState":{"key":"09","name":"Bayern"}},{"name":"Lustiger Wanderweg","postalCode":"87549","locality":"Rettenberg","municipality":{"key":"09780137","name":"Rettenberg","type":"Kreisangehörige_Gemeinde"},"district":{"key":"09780","name":"Oberallgäu","type":"Landkreis"},"federalState":{"key":"09","name":"Bayern"}},{"name":"Luswiese","postalCode":"87549","locality":"Rettenberg","municipality":{"key":"09780137","name":"Rettenberg","type":"Kreisangehörige_Gemeinde"},"district":{"key":"09780","name":"Oberallgäu","type":"Landkreis"},"federalState":{"key":"09","name":"Bayern"}},{"name":"Maler-Weiß-Weg","postalCode":"87549","locality":"Rettenberg","municipality":{"key":"09780137","name":"Rettenberg","type":"Kreisangehörige_Gemeinde"},"district":{"key":"09780","name":"Oberallgäu","type":"Landkreis"},"federalState":{"key":"09","name":"Bayern"}},{"name":"Mühlenweg","postalCode":"87549","locality":"Rettenberg","municipality":{"key":"09780137","name":"Rettenberg","type":"Kreisangehörige_Gemeinde"},"district":{"key":"09780","name":"Oberallgäu","type":"Landkreis"},"federalState":{"key":"09","name":"Bayern"}},{"name":"Oberer Weg","postalCode":"87549","locality":"Rettenberg","municipality":{"key":"09780137","name":"Rettenberg","type":"Kreisangehörige_Gemeinde"},"district":{"key":"09780","name":"Oberallgäu","type":"Landkreis"},"federalState":{"key":"09","name":"Bayern"}},{"name":"Oyweg","postalCode":"87549","locality":"Rettenberg","municipality":{"key":"09780137","name":"Rettenberg","type":"Kreisangehörige_Gemeinde"},"district":{"key":"09780","name":"Oberallgäu","type":"Landkreis"},"federalState":{"key":"09","name":"Bayern"}},{"name":"Pfarrweg","postalCode":"87549","locality":"Rettenberg","municipality":{"key":"09780137","name":"Rettenberg","type":"Kreisangehörige_Gemeinde"},"district":{"key":"09780","name":"Oberallgäu","type":"Landkreis"},"federalState":{"key":"09","name":"Bayern"}},{"name":"Reichener Str.","postalCode":"87549","locality":"Rettenberg","municipality":{"key":"09780137","name":"Rettenberg","type":"Kreisangehörige_Gemeinde"},"district":{"key":"09780","name":"Oberallgäu","type":"Landkreis"},"federalState":{"key":"09","name":"Bayern"}},{"name":"Rottachbergweg","postalCode":"87549","locality":"Rettenberg","municipality":{"key":"09780137","name":"Rettenberg","type":"Kreisangehörige_Gemeinde"},"district":{"key":"09780","name":"Oberallgäu","type":"Landkreis"},"federalState":{"key":"09","name":"Bayern"}},{"name":"Sackgasse","postalCode":"87549","locality":"Rettenberg","municipality":{"key":"09780137","name":"Rettenberg","type":"Kreisangehörige_Gemeinde"},"district":{"key":"09780","name":"Oberallgäu","type":"Landkreis"},"federalState":{"key":"09","name":"Bayern"}},{"name":"Sonthofener Str.","postalCode":"87549","locality":"Rettenberg","municipality":{"key":"09780137","name":"Rettenberg","type":"Kreisangehörige_Gemeinde"},"district":{"key":"09780","name":"Oberallgäu","type":"Landkreis"},"federalState":{"key":"09","name":"Bayern"}},{"name":"Sterkliser Weg","postalCode":"87549","locality":"Rettenberg","municipality":{"key":"09780137","name":"Rettenberg","type":"Kreisangehörige_Gemeinde"},"district":{"key":"09780","name":"Oberallgäu","type":"Landkreis"},"federalState":{"key":"09","name":"Bayern"}},{"name":"Sulzberger Str.","postalCode":"87549","locality":"Rettenberg","municipality":{"key":"09780137","name":"Rettenberg","type":"Kreisangehörige_Gemeinde"},"district":{"key":"09780","name":"Oberallgäu","type":"Landkreis"},"federalState":{"key":"09","name":"Bayern"}},{"name":"Vorderburger Str.","postalCode":"87549","locality":"Rettenberg","municipality":{"key":"09780137","name":"Rettenberg","type":"Kreisangehörige_Gemeinde"},"district":{"key":"09780","name":"Oberallgäu","type":"Landkreis"},"federalState":{"key":"09","name":"Bayern"}},{"name":"Wacholderweg","postalCode":"87549","locality":"Rettenberg","municipality":{"key":"09780137","name":"Rettenberg","type":"Kreisangehörige_Gemeinde"},"district":{"key":"09780","name":"Oberallgäu","type":"Landkreis"},"federalState":{"key":"09","name":"Bayern"}},{"name":"Wagneritz","postalCode":"87549","locality":"Rettenberg","municipality":{"key":"09780137","name":"Rettenberg","type":"Kreisangehörige_Gemeinde"},"district":{"key":"09780","name":"Oberallgäu","type":"Landkreis"},"federalState":{"key":"09","name":"Bayern"}},{"name":"Wasseramselweg","postalCode":"87549","locality":"Rettenberg","municipality":{"key":"09780137","name":"Rettenberg","type":"Kreisangehörige_Gemeinde"},"district":{"key":"09780","name":"Oberallgäu","type":"Landkreis"},"federalState":{"key":"09","name":"Bayern"}},{"name":"Weidachstr.","postalCode":"87549","locality":"Rettenberg","municipality":{"key":"09780137","name":"Rettenberg","type":"Kreisangehörige_Gemeinde"},"district":{"key":"09780","name":"Oberallgäu","type":"Landkreis"},"federalState":{"key":"09","name":"Bayern"}},{"name":"Weiheräcker","postalCode":"87549","locality":"Rettenberg","municipality":{"key":"09780137","name":"Rettenberg","type":"Kreisangehörige_Gemeinde"},"district":{"key":"09780","name":"Oberallgäu","type":"Landkreis"},"federalState":{"key":"09","name":"Bayern"}},{"name":"Wertacher Str.","postalCode":"87549","locality":"Rettenberg","municipality":{"key":"09780137","name":"Rettenberg","type":"Kreisangehörige_Gemeinde"},"district":{"key":"09780","name":"Oberallgäu","type":"Landkreis"},"federalState":{"key":"09","name":"Bayern"}},]