[{"name":"Am Dümpel","postalCode":"18184","locality":"Thulendorf","municipality":{"key":"13072108","name":"Thulendorf","type":"Kreisangehörige_Gemeinde"},"district":{"key":"13072","name":"Landkreis Rostock","type":"Landkreis"},"federalState":{"key":"13","name":"Mecklenburg-Vorpommern"}},{"name":"Am Storchenhof","postalCode":"18184","locality":"Thulendorf","municipality":{"key":"13072108","name":"Thulendorf","type":"Kreisangehörige_Gemeinde"},"district":{"key":"13072","name":"Landkreis Rostock","type":"Landkreis"},"federalState":{"key":"13","name":"Mecklenburg-Vorpommern"}},{"name":"An der B 110","postalCode":"18184","locality":"Thulendorf","municipality":{"key":"13072108","name":"Thulendorf","type":"Kreisangehörige_Gemeinde"},"district":{"key":"13072","name":"Landkreis Rostock","type":"Landkreis"},"federalState":{"key":"13","name":"Mecklenburg-Vorpommern"}},{"name":"Birkenallee","postalCode":"18184","locality":"Thulendorf","municipality":{"key":"13072108","name":"Thulendorf","type":"Kreisangehörige_Gemeinde"},"district":{"key":"13072","name":"Landkreis Rostock","type":"Landkreis"},"federalState":{"key":"13","name":"Mecklenburg-Vorpommern"}},{"name":"Langen-Lustig","postalCode":"18184","locality":"Thulendorf","municipality":{"key":"13072108","name":"Thulendorf","type":"Kreisangehörige_Gemeinde"},"district":{"key":"13072","name":"Landkreis Rostock","type":"Landkreis"},"federalState":{"key":"13","name":"Mecklenburg-Vorpommern"}},{"name":"Molkereistr.","postalCode":"18184","locality":"Thulendorf","municipality":{"key":"13072108","name":"Thulendorf","type":"Kreisangehörige_Gemeinde"},"district":{"key":"13072","name":"Landkreis Rostock","type":"Landkreis"},"federalState":{"key":"13","name":"Mecklenburg-Vorpommern"}},{"name":"Pappelweg","postalCode":"18184","locality":"Thulendorf","municipality":{"key":"13072108","name":"Thulendorf","type":"Kreisangehörige_Gemeinde"},"district":{"key":"13072","name":"Landkreis Rostock","type":"Landkreis"},"federalState":{"key":"13","name":"Mecklenburg-Vorpommern"}},{"name":"Pastorenweg","postalCode":"18184","locality":"Thulendorf","municipality":{"key":"13072108","name":"Thulendorf","type":"Kreisangehörige_Gemeinde"},"district":{"key":"13072","name":"Landkreis Rostock","type":"Landkreis"},"federalState":{"key":"13","name":"Mecklenburg-Vorpommern"}},{"name":"Teichweg","postalCode":"18184","locality":"Thulendorf","municipality":{"key":"13072108","name":"Thulendorf","type":"Kreisangehörige_Gemeinde"},"district":{"key":"13072","name":"Landkreis Rostock","type":"Landkreis"},"federalState":{"key":"13","name":"Mecklenburg-Vorpommern"}},{"name":"Zum Bienenhain","postalCode":"18184","locality":"Thulendorf","municipality":{"key":"13072108","name":"Thulendorf","type":"Kreisangehörige_Gemeinde"},"district":{"key":"13072","name":"Landkreis Rostock","type":"Landkreis"},"federalState":{"key":"13","name":"Mecklenburg-Vorpommern"}},{"name":"Zur Schulwiese","postalCode":"18184","locality":"Thulendorf","municipality":{"key":"13072108","name":"Thulendorf","type":"Kreisangehörige_Gemeinde"},"district":{"key":"13072","name":"Landkreis Rostock","type":"Landkreis"},"federalState":{"key":"13","name":"Mecklenburg-Vorpommern"}},]