[{"name":"Ahornweg","postalCode":"74673","locality":"Mulfingen","municipality":{"key":"08126056","name":"Mulfingen","type":"Kreisangehörige_Gemeinde"},"district":{"key":"08126","name":"Hohenlohekreis","type":"Landkreis"},"federalState":{"key":"08","name":"Baden-Württemberg"}},{"name":"Ailringer Str.","postalCode":"74673","locality":"Mulfingen","municipality":{"key":"08126056","name":"Mulfingen","type":"Kreisangehörige_Gemeinde"},"district":{"key":"08126","name":"Hohenlohekreis","type":"Landkreis"},"federalState":{"key":"08","name":"Baden-Württemberg"}},{"name":"Albertshof","postalCode":"74673","locality":"Mulfingen","municipality":{"key":"08126056","name":"Mulfingen","type":"Kreisangehörige_Gemeinde"},"district":{"key":"08126","name":"Hohenlohekreis","type":"Landkreis"},"federalState":{"key":"08","name":"Baden-Württemberg"}},{"name":"Altenberg","postalCode":"74673","locality":"Mulfingen","municipality":{"key":"08126056","name":"Mulfingen","type":"Kreisangehörige_Gemeinde"},"district":{"key":"08126","name":"Hohenlohekreis","type":"Landkreis"},"federalState":{"key":"08","name":"Baden-Württemberg"}},{"name":"Alte Poststr.","postalCode":"74673","locality":"Mulfingen","municipality":{"key":"08126056","name":"Mulfingen","type":"Kreisangehörige_Gemeinde"},"district":{"key":"08126","name":"Hohenlohekreis","type":"Landkreis"},"federalState":{"key":"08","name":"Baden-Württemberg"}},{"name":"Am Kleb","postalCode":"74673","locality":"Mulfingen","municipality":{"key":"08126056","name":"Mulfingen","type":"Kreisangehörige_Gemeinde"},"district":{"key":"08126","name":"Hohenlohekreis","type":"Landkreis"},"federalState":{"key":"08","name":"Baden-Württemberg"}},{"name":"Am Kreuz","postalCode":"74673","locality":"Mulfingen","municipality":{"key":"08126056","name":"Mulfingen","type":"Kreisangehörige_Gemeinde"},"district":{"key":"08126","name":"Hohenlohekreis","type":"Landkreis"},"federalState":{"key":"08","name":"Baden-Württemberg"}},{"name":"Am Kreuzstein","postalCode":"74673","locality":"Mulfingen","municipality":{"key":"08126056","name":"Mulfingen","type":"Kreisangehörige_Gemeinde"},"district":{"key":"08126","name":"Hohenlohekreis","type":"Landkreis"},"federalState":{"key":"08","name":"Baden-Württemberg"}},{"name":"Am Märzenbach","postalCode":"74673","locality":"Mulfingen","municipality":{"key":"08126056","name":"Mulfingen","type":"Kreisangehörige_Gemeinde"},"district":{"key":"08126","name":"Hohenlohekreis","type":"Landkreis"},"federalState":{"key":"08","name":"Baden-Württemberg"}},{"name":"Am Sonnenhang","postalCode":"74673","locality":"Mulfingen","municipality":{"key":"08126056","name":"Mulfingen","type":"Kreisangehörige_Gemeinde"},"district":{"key":"08126","name":"Hohenlohekreis","type":"Landkreis"},"federalState":{"key":"08","name":"Baden-Württemberg"}},{"name":"Am Sportplatz","postalCode":"74673","locality":"Mulfingen","municipality":{"key":"08126056","name":"Mulfingen","type":"Kreisangehörige_Gemeinde"},"district":{"key":"08126","name":"Hohenlohekreis","type":"Landkreis"},"federalState":{"key":"08","name":"Baden-Württemberg"}},{"name":"Am Talberg","postalCode":"74673","locality":"Mulfingen","municipality":{"key":"08126056","name":"Mulfingen","type":"Kreisangehörige_Gemeinde"},"district":{"key":"08126","name":"Hohenlohekreis","type":"Landkreis"},"federalState":{"key":"08","name":"Baden-Württemberg"}},{"name":"Amtstr.","postalCode":"74673","locality":"Mulfingen","municipality":{"key":"08126056","name":"Mulfingen","type":"Kreisangehörige_Gemeinde"},"district":{"key":"08126","name":"Hohenlohekreis","type":"Landkreis"},"federalState":{"key":"08","name":"Baden-Württemberg"}},{"name":"Am Turnplatz","postalCode":"74673","locality":"Mulfingen","municipality":{"key":"08126056","name":"Mulfingen","type":"Kreisangehörige_Gemeinde"},"district":{"key":"08126","name":"Hohenlohekreis","type":"Landkreis"},"federalState":{"key":"08","name":"Baden-Württemberg"}},{"name":"An der Linde","postalCode":"74673","locality":"Mulfingen","municipality":{"key":"08126056","name":"Mulfingen","type":"Kreisangehörige_Gemeinde"},"district":{"key":"08126","name":"Hohenlohekreis","type":"Landkreis"},"federalState":{"key":"08","name":"Baden-Württemberg"}},{"name":"Bachgasse","postalCode":"74673","locality":"Mulfingen","municipality":{"key":"08126056","name":"Mulfingen","type":"Kreisangehörige_Gemeinde"},"district":{"key":"08126","name":"Hohenlohekreis","type":"Landkreis"},"federalState":{"key":"08","name":"Baden-Württemberg"}},{"name":"Bachweg","postalCode":"74673","locality":"Mulfingen","municipality":{"key":"08126056","name":"Mulfingen","type":"Kreisangehörige_Gemeinde"},"district":{"key":"08126","name":"Hohenlohekreis","type":"Landkreis"},"federalState":{"key":"08","name":"Baden-Württemberg"}},{"name":"Badau","postalCode":"74673","locality":"Mulfingen","municipality":{"key":"08126056","name":"Mulfingen","type":"Kreisangehörige_Gemeinde"},"district":{"key":"08126","name":"Hohenlohekreis","type":"Landkreis"},"federalState":{"key":"08","name":"Baden-Württemberg"}},{"name":"Badsteige","postalCode":"74673","locality":"Mulfingen","municipality":{"key":"08126056","name":"Mulfingen","type":"Kreisangehörige_Gemeinde"},"district":{"key":"08126","name":"Hohenlohekreis","type":"Landkreis"},"federalState":{"key":"08","name":"Baden-Württemberg"}},{"name":"Badwiesenweg","postalCode":"74673","locality":"Mulfingen","municipality":{"key":"08126056","name":"Mulfingen","type":"Kreisangehörige_Gemeinde"},"district":{"key":"08126","name":"Hohenlohekreis","type":"Landkreis"},"federalState":{"key":"08","name":"Baden-Württemberg"}},{"name":"Bartensteiner Str.","postalCode":"74673","locality":"Mulfingen","municipality":{"key":"08126056","name":"Mulfingen","type":"Kreisangehörige_Gemeinde"},"district":{"key":"08126","name":"Hohenlohekreis","type":"Landkreis"},"federalState":{"key":"08","name":"Baden-Württemberg"}},{"name":"Bergstr.","postalCode":"74673","locality":"Mulfingen","municipality":{"key":"08126056","name":"Mulfingen","type":"Kreisangehörige_Gemeinde"},"district":{"key":"08126","name":"Hohenlohekreis","type":"Landkreis"},"federalState":{"key":"08","name":"Baden-Württemberg"}},{"name":"Berndshöfer Str.","postalCode":"74673","locality":"Mulfingen","municipality":{"key":"08126056","name":"Mulfingen","type":"Kreisangehörige_Gemeinde"},"district":{"key":"08126","name":"Hohenlohekreis","type":"Landkreis"},"federalState":{"key":"08","name":"Baden-Württemberg"}},{"name":"Beundle","postalCode":"74673","locality":"Mulfingen","municipality":{"key":"08126056","name":"Mulfingen","type":"Kreisangehörige_Gemeinde"},"district":{"key":"08126","name":"Hohenlohekreis","type":"Landkreis"},"federalState":{"key":"08","name":"Baden-Württemberg"}},{"name":"Bildackerstr.","postalCode":"74673","locality":"Mulfingen","municipality":{"key":"08126056","name":"Mulfingen","type":"Kreisangehörige_Gemeinde"},"district":{"key":"08126","name":"Hohenlohekreis","type":"Landkreis"},"federalState":{"key":"08","name":"Baden-Württemberg"}},{"name":"Bodenhöfer Str.","postalCode":"74673","locality":"Mulfingen","municipality":{"key":"08126056","name":"Mulfingen","type":"Kreisangehörige_Gemeinde"},"district":{"key":"08126","name":"Hohenlohekreis","type":"Landkreis"},"federalState":{"key":"08","name":"Baden-Württemberg"}},{"name":"Breite Gasse","postalCode":"74673","locality":"Mulfingen","municipality":{"key":"08126056","name":"Mulfingen","type":"Kreisangehörige_Gemeinde"},"district":{"key":"08126","name":"Hohenlohekreis","type":"Landkreis"},"federalState":{"key":"08","name":"Baden-Württemberg"}},{"name":"Brüchlinger Weg","postalCode":"74673","locality":"Mulfingen","municipality":{"key":"08126056","name":"Mulfingen","type":"Kreisangehörige_Gemeinde"},"district":{"key":"08126","name":"Hohenlohekreis","type":"Landkreis"},"federalState":{"key":"08","name":"Baden-Württemberg"}},{"name":"Brunnenäcker","postalCode":"74673","locality":"Mulfingen","municipality":{"key":"08126056","name":"Mulfingen","type":"Kreisangehörige_Gemeinde"},"district":{"key":"08126","name":"Hohenlohekreis","type":"Landkreis"},"federalState":{"key":"08","name":"Baden-Württemberg"}},{"name":"Brunnengasse","postalCode":"74673","locality":"Mulfingen","municipality":{"key":"08126056","name":"Mulfingen","type":"Kreisangehörige_Gemeinde"},"district":{"key":"08126","name":"Hohenlohekreis","type":"Landkreis"},"federalState":{"key":"08","name":"Baden-Württemberg"}},{"name":"Brunnenweg","postalCode":"74673","locality":"Mulfingen","municipality":{"key":"08126056","name":"Mulfingen","type":"Kreisangehörige_Gemeinde"},"district":{"key":"08126","name":"Hohenlohekreis","type":"Landkreis"},"federalState":{"key":"08","name":"Baden-Württemberg"}},{"name":"Buchenbacher Str.","postalCode":"74673","locality":"Mulfingen","municipality":{"key":"08126056","name":"Mulfingen","type":"Kreisangehörige_Gemeinde"},"district":{"key":"08126","name":"Hohenlohekreis","type":"Landkreis"},"federalState":{"key":"08","name":"Baden-Württemberg"}},{"name":"Buchenweg","postalCode":"74673","locality":"Mulfingen","municipality":{"key":"08126056","name":"Mulfingen","type":"Kreisangehörige_Gemeinde"},"district":{"key":"08126","name":"Hohenlohekreis","type":"Landkreis"},"federalState":{"key":"08","name":"Baden-Württemberg"}},{"name":"Burgweg","postalCode":"74673","locality":"Mulfingen","municipality":{"key":"08126056","name":"Mulfingen","type":"Kreisangehörige_Gemeinde"},"district":{"key":"08126","name":"Hohenlohekreis","type":"Landkreis"},"federalState":{"key":"08","name":"Baden-Württemberg"}},{"name":"Buweg","postalCode":"74673","locality":"Mulfingen","municipality":{"key":"08126056","name":"Mulfingen","type":"Kreisangehörige_Gemeinde"},"district":{"key":"08126","name":"Hohenlohekreis","type":"Landkreis"},"federalState":{"key":"08","name":"Baden-Württemberg"}},{"name":"Eberbacher Str.","postalCode":"74673","locality":"Mulfingen","municipality":{"key":"08126056","name":"Mulfingen","type":"Kreisangehörige_Gemeinde"},"district":{"key":"08126","name":"Hohenlohekreis","type":"Landkreis"},"federalState":{"key":"08","name":"Baden-Württemberg"}},{"name":"Eichenstr.","postalCode":"74673","locality":"Mulfingen","municipality":{"key":"08126056","name":"Mulfingen","type":"Kreisangehörige_Gemeinde"},"district":{"key":"08126","name":"Hohenlohekreis","type":"Landkreis"},"federalState":{"key":"08","name":"Baden-Württemberg"}},{"name":"Eichhörnle","postalCode":"74673","locality":"Mulfingen","municipality":{"key":"08126056","name":"Mulfingen","type":"Kreisangehörige_Gemeinde"},"district":{"key":"08126","name":"Hohenlohekreis","type":"Landkreis"},"federalState":{"key":"08","name":"Baden-Württemberg"}},{"name":"Ettetalstr.","postalCode":"74673","locality":"Mulfingen","municipality":{"key":"08126056","name":"Mulfingen","type":"Kreisangehörige_Gemeinde"},"district":{"key":"08126","name":"Hohenlohekreis","type":"Landkreis"},"federalState":{"key":"08","name":"Baden-Württemberg"}},{"name":"Friedhofsweg","postalCode":"74673","locality":"Mulfingen","municipality":{"key":"08126056","name":"Mulfingen","type":"Kreisangehörige_Gemeinde"},"district":{"key":"08126","name":"Hohenlohekreis","type":"Landkreis"},"federalState":{"key":"08","name":"Baden-Württemberg"}},{"name":"Fritzental","postalCode":"74673","locality":"Mulfingen","municipality":{"key":"08126056","name":"Mulfingen","type":"Kreisangehörige_Gemeinde"},"district":{"key":"08126","name":"Hohenlohekreis","type":"Landkreis"},"federalState":{"key":"08","name":"Baden-Württemberg"}},{"name":"Gänsweg","postalCode":"74673","locality":"Mulfingen","municipality":{"key":"08126056","name":"Mulfingen","type":"Kreisangehörige_Gemeinde"},"district":{"key":"08126","name":"Hohenlohekreis","type":"Landkreis"},"federalState":{"key":"08","name":"Baden-Württemberg"}},{"name":"Gartenstr.","postalCode":"74673","locality":"Mulfingen","municipality":{"key":"08126056","name":"Mulfingen","type":"Kreisangehörige_Gemeinde"},"district":{"key":"08126","name":"Hohenlohekreis","type":"Landkreis"},"federalState":{"key":"08","name":"Baden-Württemberg"}},{"name":"Geißbergweg","postalCode":"74673","locality":"Mulfingen","municipality":{"key":"08126056","name":"Mulfingen","type":"Kreisangehörige_Gemeinde"},"district":{"key":"08126","name":"Hohenlohekreis","type":"Landkreis"},"federalState":{"key":"08","name":"Baden-Württemberg"}},{"name":"Georg-Böhringer-Weg","postalCode":"74673","locality":"Mulfingen","municipality":{"key":"08126056","name":"Mulfingen","type":"Kreisangehörige_Gemeinde"},"district":{"key":"08126","name":"Hohenlohekreis","type":"Landkreis"},"federalState":{"key":"08","name":"Baden-Württemberg"}},{"name":"Großer Brühl","postalCode":"74673","locality":"Mulfingen","municipality":{"key":"08126056","name":"Mulfingen","type":"Kreisangehörige_Gemeinde"},"district":{"key":"08126","name":"Hohenlohekreis","type":"Landkreis"},"federalState":{"key":"08","name":"Baden-Württemberg"}},{"name":"Grottenweg","postalCode":"74673","locality":"Mulfingen","municipality":{"key":"08126056","name":"Mulfingen","type":"Kreisangehörige_Gemeinde"},"district":{"key":"08126","name":"Hohenlohekreis","type":"Landkreis"},"federalState":{"key":"08","name":"Baden-Württemberg"}},{"name":"Haagweg","postalCode":"74673","locality":"Mulfingen","municipality":{"key":"08126056","name":"Mulfingen","type":"Kreisangehörige_Gemeinde"},"district":{"key":"08126","name":"Hohenlohekreis","type":"Landkreis"},"federalState":{"key":"08","name":"Baden-Württemberg"}},{"name":"Hachtler Weg","postalCode":"74673","locality":"Mulfingen","municipality":{"key":"08126056","name":"Mulfingen","type":"Kreisangehörige_Gemeinde"},"district":{"key":"08126","name":"Hohenlohekreis","type":"Landkreis"},"federalState":{"key":"08","name":"Baden-Württemberg"}},{"name":"Hafengasse","postalCode":"74673","locality":"Mulfingen","municipality":{"key":"08126056","name":"Mulfingen","type":"Kreisangehörige_Gemeinde"},"district":{"key":"08126","name":"Hohenlohekreis","type":"Landkreis"},"federalState":{"key":"08","name":"Baden-Württemberg"}},{"name":"Haggässle","postalCode":"74673","locality":"Mulfingen","municipality":{"key":"08126056","name":"Mulfingen","type":"Kreisangehörige_Gemeinde"},"district":{"key":"08126","name":"Hohenlohekreis","type":"Landkreis"},"federalState":{"key":"08","name":"Baden-Württemberg"}},{"name":"Haldenweg","postalCode":"74673","locality":"Mulfingen","municipality":{"key":"08126056","name":"Mulfingen","type":"Kreisangehörige_Gemeinde"},"district":{"key":"08126","name":"Hohenlohekreis","type":"Landkreis"},"federalState":{"key":"08","name":"Baden-Württemberg"}},{"name":"Hauptstr.","postalCode":"74673","locality":"Mulfingen","municipality":{"key":"08126056","name":"Mulfingen","type":"Kreisangehörige_Gemeinde"},"district":{"key":"08126","name":"Hohenlohekreis","type":"Landkreis"},"federalState":{"key":"08","name":"Baden-Württemberg"}},{"name":"Hausnr.Unterer Railhof","postalCode":"74673","locality":"Mulfingen","municipality":{"key":"08126056","name":"Mulfingen","type":"Kreisangehörige_Gemeinde"},"district":{"key":"08126","name":"Hohenlohekreis","type":"Landkreis"},"federalState":{"key":"08","name":"Baden-Württemberg"}},{"name":"Hauswiesen","postalCode":"74673","locality":"Mulfingen","municipality":{"key":"08126056","name":"Mulfingen","type":"Kreisangehörige_Gemeinde"},"district":{"key":"08126","name":"Hohenlohekreis","type":"Landkreis"},"federalState":{"key":"08","name":"Baden-Württemberg"}},{"name":"Herbsthäuser Weg","postalCode":"74673","locality":"Mulfingen","municipality":{"key":"08126056","name":"Mulfingen","type":"Kreisangehörige_Gemeinde"},"district":{"key":"08126","name":"Hohenlohekreis","type":"Landkreis"},"federalState":{"key":"08","name":"Baden-Württemberg"}},{"name":"Herrenwiesenweg","postalCode":"74673","locality":"Mulfingen","municipality":{"key":"08126056","name":"Mulfingen","type":"Kreisangehörige_Gemeinde"},"district":{"key":"08126","name":"Hohenlohekreis","type":"Landkreis"},"federalState":{"key":"08","name":"Baden-Württemberg"}},{"name":"Heßlachshofer Str.","postalCode":"74673","locality":"Mulfingen","municipality":{"key":"08126056","name":"Mulfingen","type":"Kreisangehörige_Gemeinde"},"district":{"key":"08126","name":"Hohenlohekreis","type":"Landkreis"},"federalState":{"key":"08","name":"Baden-Württemberg"}},{"name":"Hintere Gasse","postalCode":"74673","locality":"Mulfingen","municipality":{"key":"08126056","name":"Mulfingen","type":"Kreisangehörige_Gemeinde"},"district":{"key":"08126","name":"Hohenlohekreis","type":"Landkreis"},"federalState":{"key":"08","name":"Baden-Württemberg"}},{"name":"Hirtengäßle","postalCode":"74673","locality":"Mulfingen","municipality":{"key":"08126056","name":"Mulfingen","type":"Kreisangehörige_Gemeinde"},"district":{"key":"08126","name":"Hohenlohekreis","type":"Landkreis"},"federalState":{"key":"08","name":"Baden-Württemberg"}},{"name":"Hochstr.","postalCode":"74673","locality":"Mulfingen","municipality":{"key":"08126056","name":"Mulfingen","type":"Kreisangehörige_Gemeinde"},"district":{"key":"08126","name":"Hohenlohekreis","type":"Landkreis"},"federalState":{"key":"08","name":"Baden-Württemberg"}},{"name":"Hofäcker","postalCode":"74673","locality":"Mulfingen","municipality":{"key":"08126056","name":"Mulfingen","type":"Kreisangehörige_Gemeinde"},"district":{"key":"08126","name":"Hohenlohekreis","type":"Landkreis"},"federalState":{"key":"08","name":"Baden-Württemberg"}},{"name":"Hoffeldstr.","postalCode":"74673","locality":"Mulfingen","municipality":{"key":"08126056","name":"Mulfingen","type":"Kreisangehörige_Gemeinde"},"district":{"key":"08126","name":"Hohenlohekreis","type":"Landkreis"},"federalState":{"key":"08","name":"Baden-Württemberg"}},{"name":"Hofweg","postalCode":"74673","locality":"Mulfingen","municipality":{"key":"08126056","name":"Mulfingen","type":"Kreisangehörige_Gemeinde"},"district":{"key":"08126","name":"Hohenlohekreis","type":"Landkreis"},"federalState":{"key":"08","name":"Baden-Württemberg"}},{"name":"Hofwiesenstr.","postalCode":"74673","locality":"Mulfingen","municipality":{"key":"08126056","name":"Mulfingen","type":"Kreisangehörige_Gemeinde"},"district":{"key":"08126","name":"Hohenlohekreis","type":"Landkreis"},"federalState":{"key":"08","name":"Baden-Württemberg"}},{"name":"Hohebacher Str.","postalCode":"74673","locality":"Mulfingen","municipality":{"key":"08126056","name":"Mulfingen","type":"Kreisangehörige_Gemeinde"},"district":{"key":"08126","name":"Hohenlohekreis","type":"Landkreis"},"federalState":{"key":"08","name":"Baden-Württemberg"}},{"name":"Hohenlohestr.","postalCode":"74673","locality":"Mulfingen","municipality":{"key":"08126056","name":"Mulfingen","type":"Kreisangehörige_Gemeinde"},"district":{"key":"08126","name":"Hohenlohekreis","type":"Landkreis"},"federalState":{"key":"08","name":"Baden-Württemberg"}},{"name":"Hohstr.","postalCode":"74673","locality":"Mulfingen","municipality":{"key":"08126056","name":"Mulfingen","type":"Kreisangehörige_Gemeinde"},"district":{"key":"08126","name":"Hohenlohekreis","type":"Landkreis"},"federalState":{"key":"08","name":"Baden-Württemberg"}},{"name":"Hollenbacher Steige","postalCode":"74673","locality":"Mulfingen","municipality":{"key":"08126056","name":"Mulfingen","type":"Kreisangehörige_Gemeinde"},"district":{"key":"08126","name":"Hohenlohekreis","type":"Landkreis"},"federalState":{"key":"08","name":"Baden-Württemberg"}},{"name":"Hollenbacher Str.","postalCode":"74673","locality":"Mulfingen","municipality":{"key":"08126056","name":"Mulfingen","type":"Kreisangehörige_Gemeinde"},"district":{"key":"08126","name":"Hohenlohekreis","type":"Landkreis"},"federalState":{"key":"08","name":"Baden-Württemberg"}},{"name":"Im Bremig","postalCode":"74673","locality":"Mulfingen","municipality":{"key":"08126056","name":"Mulfingen","type":"Kreisangehörige_Gemeinde"},"district":{"key":"08126","name":"Hohenlohekreis","type":"Landkreis"},"federalState":{"key":"08","name":"Baden-Württemberg"}},{"name":"Im Brücklein","postalCode":"74673","locality":"Mulfingen","municipality":{"key":"08126056","name":"Mulfingen","type":"Kreisangehörige_Gemeinde"},"district":{"key":"08126","name":"Hohenlohekreis","type":"Landkreis"},"federalState":{"key":"08","name":"Baden-Württemberg"}},{"name":"Im Brühl","postalCode":"74673","locality":"Mulfingen","municipality":{"key":"08126056","name":"Mulfingen","type":"Kreisangehörige_Gemeinde"},"district":{"key":"08126","name":"Hohenlohekreis","type":"Landkreis"},"federalState":{"key":"08","name":"Baden-Württemberg"}},{"name":"Im Greut","postalCode":"74673","locality":"Mulfingen","municipality":{"key":"08126056","name":"Mulfingen","type":"Kreisangehörige_Gemeinde"},"district":{"key":"08126","name":"Hohenlohekreis","type":"Landkreis"},"federalState":{"key":"08","name":"Baden-Württemberg"}},{"name":"Im Hof","postalCode":"74673","locality":"Mulfingen","municipality":{"key":"08126056","name":"Mulfingen","type":"Kreisangehörige_Gemeinde"},"district":{"key":"08126","name":"Hohenlohekreis","type":"Landkreis"},"federalState":{"key":"08","name":"Baden-Württemberg"}},{"name":"Im Hohlweg","postalCode":"74673","locality":"Mulfingen","municipality":{"key":"08126056","name":"Mulfingen","type":"Kreisangehörige_Gemeinde"},"district":{"key":"08126","name":"Hohenlohekreis","type":"Landkreis"},"federalState":{"key":"08","name":"Baden-Württemberg"}},{"name":"Im Reipel","postalCode":"74673","locality":"Mulfingen","municipality":{"key":"08126056","name":"Mulfingen","type":"Kreisangehörige_Gemeinde"},"district":{"key":"08126","name":"Hohenlohekreis","type":"Landkreis"},"federalState":{"key":"08","name":"Baden-Württemberg"}},{"name":"Im Rüblen","postalCode":"74673","locality":"Mulfingen","municipality":{"key":"08126056","name":"Mulfingen","type":"Kreisangehörige_Gemeinde"},"district":{"key":"08126","name":"Hohenlohekreis","type":"Landkreis"},"federalState":{"key":"08","name":"Baden-Württemberg"}},{"name":"Im Sommerrain","postalCode":"74673","locality":"Mulfingen","municipality":{"key":"08126056","name":"Mulfingen","type":"Kreisangehörige_Gemeinde"},"district":{"key":"08126","name":"Hohenlohekreis","type":"Landkreis"},"federalState":{"key":"08","name":"Baden-Württemberg"}},{"name":"Im Tal","postalCode":"74673","locality":"Mulfingen","municipality":{"key":"08126056","name":"Mulfingen","type":"Kreisangehörige_Gemeinde"},"district":{"key":"08126","name":"Hohenlohekreis","type":"Landkreis"},"federalState":{"key":"08","name":"Baden-Württemberg"}},{"name":"Im Wasen","postalCode":"74673","locality":"Mulfingen","municipality":{"key":"08126056","name":"Mulfingen","type":"Kreisangehörige_Gemeinde"},"district":{"key":"08126","name":"Hohenlohekreis","type":"Landkreis"},"federalState":{"key":"08","name":"Baden-Württemberg"}},{"name":"In den Gänsäckern","postalCode":"74673","locality":"Mulfingen","municipality":{"key":"08126056","name":"Mulfingen","type":"Kreisangehörige_Gemeinde"},"district":{"key":"08126","name":"Hohenlohekreis","type":"Landkreis"},"federalState":{"key":"08","name":"Baden-Württemberg"}},{"name":"In den Hundswiesen","postalCode":"74673","locality":"Mulfingen","municipality":{"key":"08126056","name":"Mulfingen","type":"Kreisangehörige_Gemeinde"},"district":{"key":"08126","name":"Hohenlohekreis","type":"Landkreis"},"federalState":{"key":"08","name":"Baden-Württemberg"}},{"name":"In den Schafäckern","postalCode":"74673","locality":"Mulfingen","municipality":{"key":"08126056","name":"Mulfingen","type":"Kreisangehörige_Gemeinde"},"district":{"key":"08126","name":"Hohenlohekreis","type":"Landkreis"},"federalState":{"key":"08","name":"Baden-Württemberg"}},{"name":"In den Weingärten","postalCode":"74673","locality":"Mulfingen","municipality":{"key":"08126056","name":"Mulfingen","type":"Kreisangehörige_Gemeinde"},"district":{"key":"08126","name":"Hohenlohekreis","type":"Landkreis"},"federalState":{"key":"08","name":"Baden-Württemberg"}},{"name":"Jagstberger Str.","postalCode":"74673","locality":"Mulfingen","municipality":{"key":"08126056","name":"Mulfingen","type":"Kreisangehörige_Gemeinde"},"district":{"key":"08126","name":"Hohenlohekreis","type":"Landkreis"},"federalState":{"key":"08","name":"Baden-Württemberg"}},{"name":"Jagstmühlenweg","postalCode":"74673","locality":"Mulfingen","municipality":{"key":"08126056","name":"Mulfingen","type":"Kreisangehörige_Gemeinde"},"district":{"key":"08126","name":"Hohenlohekreis","type":"Landkreis"},"federalState":{"key":"08","name":"Baden-Württemberg"}},{"name":"Jagsttalstr.","postalCode":"74673","locality":"Mulfingen","municipality":{"key":"08126056","name":"Mulfingen","type":"Kreisangehörige_Gemeinde"},"district":{"key":"08126","name":"Hohenlohekreis","type":"Landkreis"},"federalState":{"key":"08","name":"Baden-Württemberg"}},{"name":"Kapellenweg","postalCode":"74673","locality":"Mulfingen","municipality":{"key":"08126056","name":"Mulfingen","type":"Kreisangehörige_Gemeinde"},"district":{"key":"08126","name":"Hohenlohekreis","type":"Landkreis"},"federalState":{"key":"08","name":"Baden-Württemberg"}},{"name":"Kapellrain","postalCode":"74673","locality":"Mulfingen","municipality":{"key":"08126056","name":"Mulfingen","type":"Kreisangehörige_Gemeinde"},"district":{"key":"08126","name":"Hohenlohekreis","type":"Landkreis"},"federalState":{"key":"08","name":"Baden-Württemberg"}},{"name":"Katzenklinge","postalCode":"74673","locality":"Mulfingen","municipality":{"key":"08126056","name":"Mulfingen","type":"Kreisangehörige_Gemeinde"},"district":{"key":"08126","name":"Hohenlohekreis","type":"Landkreis"},"federalState":{"key":"08","name":"Baden-Württemberg"}},{"name":"Kiesweg","postalCode":"74673","locality":"Mulfingen","municipality":{"key":"08126056","name":"Mulfingen","type":"Kreisangehörige_Gemeinde"},"district":{"key":"08126","name":"Hohenlohekreis","type":"Landkreis"},"federalState":{"key":"08","name":"Baden-Württemberg"}},{"name":"Kirchbergweg","postalCode":"74673","locality":"Mulfingen","municipality":{"key":"08126056","name":"Mulfingen","type":"Kreisangehörige_Gemeinde"},"district":{"key":"08126","name":"Hohenlohekreis","type":"Landkreis"},"federalState":{"key":"08","name":"Baden-Württemberg"}},{"name":"Kirchplatz","postalCode":"74673","locality":"Mulfingen","municipality":{"key":"08126056","name":"Mulfingen","type":"Kreisangehörige_Gemeinde"},"district":{"key":"08126","name":"Hohenlohekreis","type":"Landkreis"},"federalState":{"key":"08","name":"Baden-Württemberg"}},{"name":"Kirchweg","postalCode":"74673","locality":"Mulfingen","municipality":{"key":"08126056","name":"Mulfingen","type":"Kreisangehörige_Gemeinde"},"district":{"key":"08126","name":"Hohenlohekreis","type":"Landkreis"},"federalState":{"key":"08","name":"Baden-Württemberg"}},{"name":"Klebweg","postalCode":"74673","locality":"Mulfingen","municipality":{"key":"08126056","name":"Mulfingen","type":"Kreisangehörige_Gemeinde"},"district":{"key":"08126","name":"Hohenlohekreis","type":"Landkreis"},"federalState":{"key":"08","name":"Baden-Württemberg"}},{"name":"Klingenweg","postalCode":"74673","locality":"Mulfingen","municipality":{"key":"08126056","name":"Mulfingen","type":"Kreisangehörige_Gemeinde"},"district":{"key":"08126","name":"Hohenlohekreis","type":"Landkreis"},"federalState":{"key":"08","name":"Baden-Württemberg"}},{"name":"Kohläcker","postalCode":"74673","locality":"Mulfingen","municipality":{"key":"08126056","name":"Mulfingen","type":"Kreisangehörige_Gemeinde"},"district":{"key":"08126","name":"Hohenlohekreis","type":"Landkreis"},"federalState":{"key":"08","name":"Baden-Württemberg"}},{"name":"Kreuzweg","postalCode":"74673","locality":"Mulfingen","municipality":{"key":"08126056","name":"Mulfingen","type":"Kreisangehörige_Gemeinde"},"district":{"key":"08126","name":"Hohenlohekreis","type":"Landkreis"},"federalState":{"key":"08","name":"Baden-Württemberg"}},{"name":"Kronenweg","postalCode":"74673","locality":"Mulfingen","municipality":{"key":"08126056","name":"Mulfingen","type":"Kreisangehörige_Gemeinde"},"district":{"key":"08126","name":"Hohenlohekreis","type":"Landkreis"},"federalState":{"key":"08","name":"Baden-Württemberg"}},{"name":"Küfergasse","postalCode":"74673","locality":"Mulfingen","municipality":{"key":"08126056","name":"Mulfingen","type":"Kreisangehörige_Gemeinde"},"district":{"key":"08126","name":"Hohenlohekreis","type":"Landkreis"},"federalState":{"key":"08","name":"Baden-Württemberg"}},{"name":"Künzelsauer Str.","postalCode":"74673","locality":"Mulfingen","municipality":{"key":"08126056","name":"Mulfingen","type":"Kreisangehörige_Gemeinde"},"district":{"key":"08126","name":"Hohenlohekreis","type":"Landkreis"},"federalState":{"key":"08","name":"Baden-Württemberg"}},{"name":"Kupfergasse","postalCode":"74673","locality":"Mulfingen","municipality":{"key":"08126056","name":"Mulfingen","type":"Kreisangehörige_Gemeinde"},"district":{"key":"08126","name":"Hohenlohekreis","type":"Landkreis"},"federalState":{"key":"08","name":"Baden-Württemberg"}},{"name":"Langenburger Str.","postalCode":"74673","locality":"Mulfingen","municipality":{"key":"08126056","name":"Mulfingen","type":"Kreisangehörige_Gemeinde"},"district":{"key":"08126","name":"Hohenlohekreis","type":"Landkreis"},"federalState":{"key":"08","name":"Baden-Württemberg"}},{"name":"Langes Feld","postalCode":"74673","locality":"Mulfingen","municipality":{"key":"08126056","name":"Mulfingen","type":"Kreisangehörige_Gemeinde"},"district":{"key":"08126","name":"Hohenlohekreis","type":"Landkreis"},"federalState":{"key":"08","name":"Baden-Württemberg"}},{"name":"Lange Steige","postalCode":"74673","locality":"Mulfingen","municipality":{"key":"08126056","name":"Mulfingen","type":"Kreisangehörige_Gemeinde"},"district":{"key":"08126","name":"Hohenlohekreis","type":"Landkreis"},"federalState":{"key":"08","name":"Baden-Württemberg"}},{"name":"Lärchenweg","postalCode":"74673","locality":"Mulfingen","municipality":{"key":"08126056","name":"Mulfingen","type":"Kreisangehörige_Gemeinde"},"district":{"key":"08126","name":"Hohenlohekreis","type":"Landkreis"},"federalState":{"key":"08","name":"Baden-Württemberg"}},{"name":"Lausenweg","postalCode":"74673","locality":"Mulfingen","municipality":{"key":"08126056","name":"Mulfingen","type":"Kreisangehörige_Gemeinde"},"district":{"key":"08126","name":"Hohenlohekreis","type":"Landkreis"},"federalState":{"key":"08","name":"Baden-Württemberg"}},{"name":"Lindenstr.","postalCode":"74673","locality":"Mulfingen","municipality":{"key":"08126056","name":"Mulfingen","type":"Kreisangehörige_Gemeinde"},"district":{"key":"08126","name":"Hohenlohekreis","type":"Landkreis"},"federalState":{"key":"08","name":"Baden-Württemberg"}},{"name":"Marienstr.","postalCode":"74673","locality":"Mulfingen","municipality":{"key":"08126056","name":"Mulfingen","type":"Kreisangehörige_Gemeinde"},"district":{"key":"08126","name":"Hohenlohekreis","type":"Landkreis"},"federalState":{"key":"08","name":"Baden-Württemberg"}},{"name":"Mäusberger Str.","postalCode":"74673","locality":"Mulfingen","municipality":{"key":"08126056","name":"Mulfingen","type":"Kreisangehörige_Gemeinde"},"district":{"key":"08126","name":"Hohenlohekreis","type":"Landkreis"},"federalState":{"key":"08","name":"Baden-Württemberg"}},{"name":"Mühlweg","postalCode":"74673","locality":"Mulfingen","municipality":{"key":"08126056","name":"Mulfingen","type":"Kreisangehörige_Gemeinde"},"district":{"key":"08126","name":"Hohenlohekreis","type":"Landkreis"},"federalState":{"key":"08","name":"Baden-Württemberg"}},{"name":"Mulfinger Str.","postalCode":"74673","locality":"Mulfingen","municipality":{"key":"08126056","name":"Mulfingen","type":"Kreisangehörige_Gemeinde"},"district":{"key":"08126","name":"Hohenlohekreis","type":"Landkreis"},"federalState":{"key":"08","name":"Baden-Württemberg"}},{"name":"Nelkenweg","postalCode":"74673","locality":"Mulfingen","municipality":{"key":"08126056","name":"Mulfingen","type":"Kreisangehörige_Gemeinde"},"district":{"key":"08126","name":"Hohenlohekreis","type":"Landkreis"},"federalState":{"key":"08","name":"Baden-Württemberg"}},{"name":"Neubergstr.","postalCode":"74673","locality":"Mulfingen","municipality":{"key":"08126056","name":"Mulfingen","type":"Kreisangehörige_Gemeinde"},"district":{"key":"08126","name":"Hohenlohekreis","type":"Landkreis"},"federalState":{"key":"08","name":"Baden-Württemberg"}},{"name":"Neues Gütlein","postalCode":"74673","locality":"Mulfingen","municipality":{"key":"08126056","name":"Mulfingen","type":"Kreisangehörige_Gemeinde"},"district":{"key":"08126","name":"Hohenlohekreis","type":"Landkreis"},"federalState":{"key":"08","name":"Baden-Württemberg"}},{"name":"Nitzenhäuser Str.","postalCode":"74673","locality":"Mulfingen","municipality":{"key":"08126056","name":"Mulfingen","type":"Kreisangehörige_Gemeinde"},"district":{"key":"08126","name":"Hohenlohekreis","type":"Landkreis"},"federalState":{"key":"08","name":"Baden-Württemberg"}},{"name":"Obere Gänsäcker","postalCode":"74673","locality":"Mulfingen","municipality":{"key":"08126056","name":"Mulfingen","type":"Kreisangehörige_Gemeinde"},"district":{"key":"08126","name":"Hohenlohekreis","type":"Landkreis"},"federalState":{"key":"08","name":"Baden-Württemberg"}},{"name":"Obere Gasse","postalCode":"74673","locality":"Mulfingen","municipality":{"key":"08126056","name":"Mulfingen","type":"Kreisangehörige_Gemeinde"},"district":{"key":"08126","name":"Hohenlohekreis","type":"Landkreis"},"federalState":{"key":"08","name":"Baden-Württemberg"}},{"name":"Obere Hofäcker","postalCode":"74673","locality":"Mulfingen","municipality":{"key":"08126056","name":"Mulfingen","type":"Kreisangehörige_Gemeinde"},"district":{"key":"08126","name":"Hohenlohekreis","type":"Landkreis"},"federalState":{"key":"08","name":"Baden-Württemberg"}},{"name":"Oberer Mühlweg","postalCode":"74673","locality":"Mulfingen","municipality":{"key":"08126056","name":"Mulfingen","type":"Kreisangehörige_Gemeinde"},"district":{"key":"08126","name":"Hohenlohekreis","type":"Landkreis"},"federalState":{"key":"08","name":"Baden-Württemberg"}},{"name":"Oberes Hag","postalCode":"74673","locality":"Mulfingen","municipality":{"key":"08126056","name":"Mulfingen","type":"Kreisangehörige_Gemeinde"},"district":{"key":"08126","name":"Hohenlohekreis","type":"Landkreis"},"federalState":{"key":"08","name":"Baden-Württemberg"}},{"name":"Obere Weinberge","postalCode":"74673","locality":"Mulfingen","municipality":{"key":"08126056","name":"Mulfingen","type":"Kreisangehörige_Gemeinde"},"district":{"key":"08126","name":"Hohenlohekreis","type":"Landkreis"},"federalState":{"key":"08","name":"Baden-Württemberg"}},{"name":"Ochsentaler Str.","postalCode":"74673","locality":"Mulfingen","municipality":{"key":"08126056","name":"Mulfingen","type":"Kreisangehörige_Gemeinde"},"district":{"key":"08126","name":"Hohenlohekreis","type":"Landkreis"},"federalState":{"key":"08","name":"Baden-Württemberg"}},{"name":"Poststr.","postalCode":"74673","locality":"Mulfingen","municipality":{"key":"08126056","name":"Mulfingen","type":"Kreisangehörige_Gemeinde"},"district":{"key":"08126","name":"Hohenlohekreis","type":"Landkreis"},"federalState":{"key":"08","name":"Baden-Württemberg"}},{"name":"Rahmgasse","postalCode":"74673","locality":"Mulfingen","municipality":{"key":"08126056","name":"Mulfingen","type":"Kreisangehörige_Gemeinde"},"district":{"key":"08126","name":"Hohenlohekreis","type":"Landkreis"},"federalState":{"key":"08","name":"Baden-Württemberg"}},{"name":"Railhöfer Str.","postalCode":"74673","locality":"Mulfingen","municipality":{"key":"08126056","name":"Mulfingen","type":"Kreisangehörige_Gemeinde"},"district":{"key":"08126","name":"Hohenlohekreis","type":"Landkreis"},"federalState":{"key":"08","name":"Baden-Württemberg"}},{"name":"Regenbacher Str.","postalCode":"74673","locality":"Mulfingen","municipality":{"key":"08126056","name":"Mulfingen","type":"Kreisangehörige_Gemeinde"},"district":{"key":"08126","name":"Hohenlohekreis","type":"Landkreis"},"federalState":{"key":"08","name":"Baden-Württemberg"}},{"name":"Rengershäuser Weg","postalCode":"74673","locality":"Mulfingen","municipality":{"key":"08126056","name":"Mulfingen","type":"Kreisangehörige_Gemeinde"},"district":{"key":"08126","name":"Hohenlohekreis","type":"Landkreis"},"federalState":{"key":"08","name":"Baden-Württemberg"}},{"name":"Riedweg","postalCode":"74673","locality":"Mulfingen","municipality":{"key":"08126056","name":"Mulfingen","type":"Kreisangehörige_Gemeinde"},"district":{"key":"08126","name":"Hohenlohekreis","type":"Landkreis"},"federalState":{"key":"08","name":"Baden-Württemberg"}},{"name":"Ringstr.","postalCode":"74673","locality":"Mulfingen","municipality":{"key":"08126056","name":"Mulfingen","type":"Kreisangehörige_Gemeinde"},"district":{"key":"08126","name":"Hohenlohekreis","type":"Landkreis"},"federalState":{"key":"08","name":"Baden-Württemberg"}},{"name":"Rißbachgasse","postalCode":"74673","locality":"Mulfingen","municipality":{"key":"08126056","name":"Mulfingen","type":"Kreisangehörige_Gemeinde"},"district":{"key":"08126","name":"Hohenlohekreis","type":"Landkreis"},"federalState":{"key":"08","name":"Baden-Württemberg"}},{"name":"Rodelsteige","postalCode":"74673","locality":"Mulfingen","municipality":{"key":"08126056","name":"Mulfingen","type":"Kreisangehörige_Gemeinde"},"district":{"key":"08126","name":"Hohenlohekreis","type":"Landkreis"},"federalState":{"key":"08","name":"Baden-Württemberg"}},{"name":"Rosenweg","postalCode":"74673","locality":"Mulfingen","municipality":{"key":"08126056","name":"Mulfingen","type":"Kreisangehörige_Gemeinde"},"district":{"key":"08126","name":"Hohenlohekreis","type":"Landkreis"},"federalState":{"key":"08","name":"Baden-Württemberg"}},{"name":"Roßklinge","postalCode":"74673","locality":"Mulfingen","municipality":{"key":"08126056","name":"Mulfingen","type":"Kreisangehörige_Gemeinde"},"district":{"key":"08126","name":"Hohenlohekreis","type":"Landkreis"},"federalState":{"key":"08","name":"Baden-Württemberg"}},{"name":"Röthelweg","postalCode":"74673","locality":"Mulfingen","municipality":{"key":"08126056","name":"Mulfingen","type":"Kreisangehörige_Gemeinde"},"district":{"key":"08126","name":"Hohenlohekreis","type":"Landkreis"},"federalState":{"key":"08","name":"Baden-Württemberg"}},{"name":"Sankt Nepomukstr.","postalCode":"74673","locality":"Mulfingen","municipality":{"key":"08126056","name":"Mulfingen","type":"Kreisangehörige_Gemeinde"},"district":{"key":"08126","name":"Hohenlohekreis","type":"Landkreis"},"federalState":{"key":"08","name":"Baden-Württemberg"}},{"name":"Schafgasse","postalCode":"74673","locality":"Mulfingen","municipality":{"key":"08126056","name":"Mulfingen","type":"Kreisangehörige_Gemeinde"},"district":{"key":"08126","name":"Hohenlohekreis","type":"Landkreis"},"federalState":{"key":"08","name":"Baden-Württemberg"}},{"name":"Schloßbergweg","postalCode":"74673","locality":"Mulfingen","municipality":{"key":"08126056","name":"Mulfingen","type":"Kreisangehörige_Gemeinde"},"district":{"key":"08126","name":"Hohenlohekreis","type":"Landkreis"},"federalState":{"key":"08","name":"Baden-Württemberg"}},{"name":"Schulweg","postalCode":"74673","locality":"Mulfingen","municipality":{"key":"08126056","name":"Mulfingen","type":"Kreisangehörige_Gemeinde"},"district":{"key":"08126","name":"Hohenlohekreis","type":"Landkreis"},"federalState":{"key":"08","name":"Baden-Württemberg"}},{"name":"Sebastian-Wunderlich-Str.","postalCode":"74673","locality":"Mulfingen","municipality":{"key":"08126056","name":"Mulfingen","type":"Kreisangehörige_Gemeinde"},"district":{"key":"08126","name":"Hohenlohekreis","type":"Landkreis"},"federalState":{"key":"08","name":"Baden-Württemberg"}},{"name":"Seebrunnenweg","postalCode":"74673","locality":"Mulfingen","municipality":{"key":"08126056","name":"Mulfingen","type":"Kreisangehörige_Gemeinde"},"district":{"key":"08126","name":"Hohenlohekreis","type":"Landkreis"},"federalState":{"key":"08","name":"Baden-Württemberg"}},{"name":"Seelesweg","postalCode":"74673","locality":"Mulfingen","municipality":{"key":"08126056","name":"Mulfingen","type":"Kreisangehörige_Gemeinde"},"district":{"key":"08126","name":"Hohenlohekreis","type":"Landkreis"},"federalState":{"key":"08","name":"Baden-Württemberg"}},{"name":"Simprechtshäuser Str.","postalCode":"74673","locality":"Mulfingen","municipality":{"key":"08126056","name":"Mulfingen","type":"Kreisangehörige_Gemeinde"},"district":{"key":"08126","name":"Hohenlohekreis","type":"Landkreis"},"federalState":{"key":"08","name":"Baden-Württemberg"}},{"name":"Sonnhöfer Weg","postalCode":"74673","locality":"Mulfingen","municipality":{"key":"08126056","name":"Mulfingen","type":"Kreisangehörige_Gemeinde"},"district":{"key":"08126","name":"Hohenlohekreis","type":"Landkreis"},"federalState":{"key":"08","name":"Baden-Württemberg"}},{"name":"Speltbachweg","postalCode":"74673","locality":"Mulfingen","municipality":{"key":"08126056","name":"Mulfingen","type":"Kreisangehörige_Gemeinde"},"district":{"key":"08126","name":"Hohenlohekreis","type":"Landkreis"},"federalState":{"key":"08","name":"Baden-Württemberg"}},{"name":"Staigerbacher Str.","postalCode":"74673","locality":"Mulfingen","municipality":{"key":"08126056","name":"Mulfingen","type":"Kreisangehörige_Gemeinde"},"district":{"key":"08126","name":"Hohenlohekreis","type":"Landkreis"},"federalState":{"key":"08","name":"Baden-Württemberg"}},{"name":"Steige","postalCode":"74673","locality":"Mulfingen","municipality":{"key":"08126056","name":"Mulfingen","type":"Kreisangehörige_Gemeinde"},"district":{"key":"08126","name":"Hohenlohekreis","type":"Landkreis"},"federalState":{"key":"08","name":"Baden-Württemberg"}},{"name":"Steigenäcker","postalCode":"74673","locality":"Mulfingen","municipality":{"key":"08126056","name":"Mulfingen","type":"Kreisangehörige_Gemeinde"},"district":{"key":"08126","name":"Hohenlohekreis","type":"Landkreis"},"federalState":{"key":"08","name":"Baden-Württemberg"}},{"name":"Steinweg","postalCode":"74673","locality":"Mulfingen","municipality":{"key":"08126056","name":"Mulfingen","type":"Kreisangehörige_Gemeinde"},"district":{"key":"08126","name":"Hohenlohekreis","type":"Landkreis"},"federalState":{"key":"08","name":"Baden-Württemberg"}},{"name":"Talweg","postalCode":"74673","locality":"Mulfingen","municipality":{"key":"08126056","name":"Mulfingen","type":"Kreisangehörige_Gemeinde"},"district":{"key":"08126","name":"Hohenlohekreis","type":"Landkreis"},"federalState":{"key":"08","name":"Baden-Württemberg"}},{"name":"Taubenhofweg","postalCode":"74673","locality":"Mulfingen","municipality":{"key":"08126056","name":"Mulfingen","type":"Kreisangehörige_Gemeinde"},"district":{"key":"08126","name":"Hohenlohekreis","type":"Landkreis"},"federalState":{"key":"08","name":"Baden-Württemberg"}},{"name":"Theodor-Haecker-Str.","postalCode":"74673","locality":"Mulfingen","municipality":{"key":"08126056","name":"Mulfingen","type":"Kreisangehörige_Gemeinde"},"district":{"key":"08126","name":"Hohenlohekreis","type":"Landkreis"},"federalState":{"key":"08","name":"Baden-Württemberg"}},{"name":"Toräckerstr.","postalCode":"74673","locality":"Mulfingen","municipality":{"key":"08126056","name":"Mulfingen","type":"Kreisangehörige_Gemeinde"},"district":{"key":"08126","name":"Hohenlohekreis","type":"Landkreis"},"federalState":{"key":"08","name":"Baden-Württemberg"}},{"name":"Torwiesenweg","postalCode":"74673","locality":"Mulfingen","municipality":{"key":"08126056","name":"Mulfingen","type":"Kreisangehörige_Gemeinde"},"district":{"key":"08126","name":"Hohenlohekreis","type":"Landkreis"},"federalState":{"key":"08","name":"Baden-Württemberg"}},{"name":"Treppweg","postalCode":"74673","locality":"Mulfingen","municipality":{"key":"08126056","name":"Mulfingen","type":"Kreisangehörige_Gemeinde"},"district":{"key":"08126","name":"Hohenlohekreis","type":"Landkreis"},"federalState":{"key":"08","name":"Baden-Württemberg"}},{"name":"Triebweg","postalCode":"74673","locality":"Mulfingen","municipality":{"key":"08126056","name":"Mulfingen","type":"Kreisangehörige_Gemeinde"},"district":{"key":"08126","name":"Hohenlohekreis","type":"Landkreis"},"federalState":{"key":"08","name":"Baden-Württemberg"}},{"name":"Untere Gasse","postalCode":"74673","locality":"Mulfingen","municipality":{"key":"08126056","name":"Mulfingen","type":"Kreisangehörige_Gemeinde"},"district":{"key":"08126","name":"Hohenlohekreis","type":"Landkreis"},"federalState":{"key":"08","name":"Baden-Württemberg"}},{"name":"Unterer Bach","postalCode":"74673","locality":"Mulfingen","municipality":{"key":"08126056","name":"Mulfingen","type":"Kreisangehörige_Gemeinde"},"district":{"key":"08126","name":"Hohenlohekreis","type":"Landkreis"},"federalState":{"key":"08","name":"Baden-Württemberg"}},{"name":"Unterer Mühlweg","postalCode":"74673","locality":"Mulfingen","municipality":{"key":"08126056","name":"Mulfingen","type":"Kreisangehörige_Gemeinde"},"district":{"key":"08126","name":"Hohenlohekreis","type":"Landkreis"},"federalState":{"key":"08","name":"Baden-Württemberg"}},{"name":"Unteres Hag","postalCode":"74673","locality":"Mulfingen","municipality":{"key":"08126056","name":"Mulfingen","type":"Kreisangehörige_Gemeinde"},"district":{"key":"08126","name":"Hohenlohekreis","type":"Landkreis"},"federalState":{"key":"08","name":"Baden-Württemberg"}},{"name":"Vorstattweg","postalCode":"74673","locality":"Mulfingen","municipality":{"key":"08126056","name":"Mulfingen","type":"Kreisangehörige_Gemeinde"},"district":{"key":"08126","name":"Hohenlohekreis","type":"Landkreis"},"federalState":{"key":"08","name":"Baden-Württemberg"}},{"name":"Wachbacher Weg","postalCode":"74673","locality":"Mulfingen","municipality":{"key":"08126056","name":"Mulfingen","type":"Kreisangehörige_Gemeinde"},"district":{"key":"08126","name":"Hohenlohekreis","type":"Landkreis"},"federalState":{"key":"08","name":"Baden-Württemberg"}},{"name":"Wasenweg","postalCode":"74673","locality":"Mulfingen","municipality":{"key":"08126056","name":"Mulfingen","type":"Kreisangehörige_Gemeinde"},"district":{"key":"08126","name":"Hohenlohekreis","type":"Landkreis"},"federalState":{"key":"08","name":"Baden-Württemberg"}},{"name":"Wasserweg","postalCode":"74673","locality":"Mulfingen","municipality":{"key":"08126056","name":"Mulfingen","type":"Kreisangehörige_Gemeinde"},"district":{"key":"08126","name":"Hohenlohekreis","type":"Landkreis"},"federalState":{"key":"08","name":"Baden-Württemberg"}},{"name":"Weinbergweg","postalCode":"74673","locality":"Mulfingen","municipality":{"key":"08126056","name":"Mulfingen","type":"Kreisangehörige_Gemeinde"},"district":{"key":"08126","name":"Hohenlohekreis","type":"Landkreis"},"federalState":{"key":"08","name":"Baden-Württemberg"}},{"name":"Wertstr.","postalCode":"74673","locality":"Mulfingen","municipality":{"key":"08126056","name":"Mulfingen","type":"Kreisangehörige_Gemeinde"},"district":{"key":"08126","name":"Hohenlohekreis","type":"Landkreis"},"federalState":{"key":"08","name":"Baden-Württemberg"}},{"name":"Wiesenweg","postalCode":"74673","locality":"Mulfingen","municipality":{"key":"08126056","name":"Mulfingen","type":"Kreisangehörige_Gemeinde"},"district":{"key":"08126","name":"Hohenlohekreis","type":"Landkreis"},"federalState":{"key":"08","name":"Baden-Württemberg"}},{"name":"Zaisenhäuser Weg","postalCode":"74673","locality":"Mulfingen","municipality":{"key":"08126056","name":"Mulfingen","type":"Kreisangehörige_Gemeinde"},"district":{"key":"08126","name":"Hohenlohekreis","type":"Landkreis"},"federalState":{"key":"08","name":"Baden-Württemberg"}},]