[{"key":"10198928","name":"Balm","postalCode":"8376","locality":"Fischingen","commune":{"key":"3392","name":"Kirchberg (SG)","shortName":"Kirchberg (SG)"},"district":{"key":"1727","name":"Wahlkreis Toggenburg"},"canton":{"key":"17","code":"SG","name":"St. Gallen"},"status":"Real"},{"key":"10187703","name":"Bruggacker","postalCode":"8376","locality":"Fischingen","commune":{"key":"3392","name":"Kirchberg (SG)","shortName":"Kirchberg (SG)"},"district":{"key":"1727","name":"Wahlkreis Toggenburg"},"canton":{"key":"17","code":"SG","name":"St. Gallen"},"status":"Real"},{"key":"10060138","name":"Bühl","postalCode":"8376","locality":"Fischingen","commune":{"key":"3392","name":"Kirchberg (SG)","shortName":"Kirchberg (SG)"},"district":{"key":"1727","name":"Wahlkreis Toggenburg"},"canton":{"key":"17","code":"SG","name":"St. Gallen"},"status":"Real"},{"key":"10070813","name":"Buhwil","postalCode":"8376","locality":"Fischingen","commune":{"key":"3392","name":"Kirchberg (SG)","shortName":"Kirchberg (SG)"},"district":{"key":"1727","name":"Wahlkreis Toggenburg"},"canton":{"key":"17","code":"SG","name":"St. Gallen"},"status":"Real"},{"key":"10038884","name":"Buhwilerstrasse","postalCode":"8376","locality":"Fischingen","commune":{"key":"3392","name":"Kirchberg (SG)","shortName":"Kirchberg (SG)"},"district":{"key":"1727","name":"Wahlkreis Toggenburg"},"canton":{"key":"17","code":"SG","name":"St. Gallen"},"status":"Real"},{"key":"10038885","name":"Bündt","postalCode":"8376","locality":"Fischingen","commune":{"key":"3392","name":"Kirchberg (SG)","shortName":"Kirchberg (SG)"},"district":{"key":"1727","name":"Wahlkreis Toggenburg"},"canton":{"key":"17","code":"SG","name":"St. Gallen"},"status":"Real"},{"key":"10191332","name":"Buomberg","postalCode":"8376","locality":"Fischingen","commune":{"key":"3392","name":"Kirchberg (SG)","shortName":"Kirchberg (SG)"},"district":{"key":"1727","name":"Wahlkreis Toggenburg"},"canton":{"key":"17","code":"SG","name":"St. Gallen"},"status":"Real"},{"key":"10234894","name":"Buombergstrasse","postalCode":"8376","locality":"Fischingen","commune":{"key":"3392","name":"Kirchberg (SG)","shortName":"Kirchberg (SG)"},"district":{"key":"1727","name":"Wahlkreis Toggenburg"},"canton":{"key":"17","code":"SG","name":"St. Gallen"},"status":"Real"},{"key":"10107022","name":"Chilbergstrasse","postalCode":"8376","locality":"Fischingen","commune":{"key":"3392","name":"Kirchberg (SG)","shortName":"Kirchberg (SG)"},"district":{"key":"1727","name":"Wahlkreis Toggenburg"},"canton":{"key":"17","code":"SG","name":"St. Gallen"},"status":"Real"},{"key":"10027808","name":"Ernstel","postalCode":"8376","locality":"Fischingen","commune":{"key":"3392","name":"Kirchberg (SG)","shortName":"Kirchberg (SG)"},"district":{"key":"1727","name":"Wahlkreis Toggenburg"},"canton":{"key":"17","code":"SG","name":"St. Gallen"},"status":"Real"},{"key":"10249885","name":"Ernstelstrasse","postalCode":"8376","locality":"Fischingen","commune":{"key":"3392","name":"Kirchberg (SG)","shortName":"Kirchberg (SG)"},"district":{"key":"1727","name":"Wahlkreis Toggenburg"},"canton":{"key":"17","code":"SG","name":"St. Gallen"},"status":"Real"},{"key":"10249888","name":"Eschenholzweg","postalCode":"8376","locality":"Fischingen","commune":{"key":"3392","name":"Kirchberg (SG)","shortName":"Kirchberg (SG)"},"district":{"key":"1727","name":"Wahlkreis Toggenburg"},"canton":{"key":"17","code":"SG","name":"St. Gallen"},"status":"Real"},{"key":"10092087","name":"Feld","postalCode":"8376","locality":"Fischingen","commune":{"key":"3392","name":"Kirchberg (SG)","shortName":"Kirchberg (SG)"},"district":{"key":"1727","name":"Wahlkreis Toggenburg"},"canton":{"key":"17","code":"SG","name":"St. Gallen"},"status":"Real"},{"key":"10092084","name":"Fischingerstrasse","postalCode":"8376","locality":"Fischingen","commune":{"key":"3392","name":"Kirchberg (SG)","shortName":"Kirchberg (SG)"},"district":{"key":"1727","name":"Wahlkreis Toggenburg"},"canton":{"key":"17","code":"SG","name":"St. Gallen"},"status":"Real"},{"key":"10092076","name":"Frohsinnstrasse","postalCode":"8376","locality":"Fischingen","commune":{"key":"3392","name":"Kirchberg (SG)","shortName":"Kirchberg (SG)"},"district":{"key":"1727","name":"Wahlkreis Toggenburg"},"canton":{"key":"17","code":"SG","name":"St. Gallen"},"status":"Real"},{"key":"10199360","name":"Groossacker","postalCode":"8376","locality":"Fischingen","commune":{"key":"3392","name":"Kirchberg (SG)","shortName":"Kirchberg (SG)"},"district":{"key":"1727","name":"Wahlkreis Toggenburg"},"canton":{"key":"17","code":"SG","name":"St. Gallen"},"status":"Real"},{"key":"10229337","name":"Grundackerstrasse","postalCode":"8376","locality":"Fischingen","commune":{"key":"3392","name":"Kirchberg (SG)","shortName":"Kirchberg (SG)"},"district":{"key":"1727","name":"Wahlkreis Toggenburg"},"canton":{"key":"17","code":"SG","name":"St. Gallen"},"status":"Real"},{"key":"10092088","name":"Grüt","postalCode":"8376","locality":"Fischingen","commune":{"key":"3392","name":"Kirchberg (SG)","shortName":"Kirchberg (SG)"},"district":{"key":"1727","name":"Wahlkreis Toggenburg"},"canton":{"key":"17","code":"SG","name":"St. Gallen"},"status":"Real"},{"key":"10038887","name":"Grütstrasse","postalCode":"8376","locality":"Fischingen","commune":{"key":"3392","name":"Kirchberg (SG)","shortName":"Kirchberg (SG)"},"district":{"key":"1727","name":"Wahlkreis Toggenburg"},"canton":{"key":"17","code":"SG","name":"St. Gallen"},"status":"Real"},{"key":"10038888","name":"Hauptstrasse","postalCode":"8376","locality":"Fischingen","commune":{"key":"3392","name":"Kirchberg (SG)","shortName":"Kirchberg (SG)"},"district":{"key":"1727","name":"Wahlkreis Toggenburg"},"canton":{"key":"17","code":"SG","name":"St. Gallen"},"status":"Real"},{"key":"10038889","name":"Hinterdorfstrasse","postalCode":"8376","locality":"Fischingen","commune":{"key":"3392","name":"Kirchberg (SG)","shortName":"Kirchberg (SG)"},"district":{"key":"1727","name":"Wahlkreis Toggenburg"},"canton":{"key":"17","code":"SG","name":"St. Gallen"},"status":"Real"},{"key":"10092090","name":"Hofackerweg","postalCode":"8376","locality":"Fischingen","commune":{"key":"3392","name":"Kirchberg (SG)","shortName":"Kirchberg (SG)"},"district":{"key":"1727","name":"Wahlkreis Toggenburg"},"canton":{"key":"17","code":"SG","name":"St. Gallen"},"status":"Real"},{"key":"10198364","name":"Hofholz","postalCode":"8376","locality":"Fischingen","commune":{"key":"3392","name":"Kirchberg (SG)","shortName":"Kirchberg (SG)"},"district":{"key":"1727","name":"Wahlkreis Toggenburg"},"canton":{"key":"17","code":"SG","name":"St. Gallen"},"status":"Real"},{"key":"10190383","name":"Kloster","postalCode":"8376","locality":"Fischingen","commune":{"key":"3392","name":"Kirchberg (SG)","shortName":"Kirchberg (SG)"},"district":{"key":"1727","name":"Wahlkreis Toggenburg"},"canton":{"key":"17","code":"SG","name":"St. Gallen"},"status":"Real"},{"key":"10198933","name":"Langwis","postalCode":"8376","locality":"Fischingen","commune":{"key":"3392","name":"Kirchberg (SG)","shortName":"Kirchberg (SG)"},"district":{"key":"1727","name":"Wahlkreis Toggenburg"},"canton":{"key":"17","code":"SG","name":"St. Gallen"},"status":"Real"},{"key":"10256608","name":"Loch","postalCode":"8376","locality":"Fischingen","commune":{"key":"3392","name":"Kirchberg (SG)","shortName":"Kirchberg (SG)"},"district":{"key":"1727","name":"Wahlkreis Toggenburg"},"canton":{"key":"17","code":"SG","name":"St. Gallen"},"status":"Real"},{"key":"10110446","name":"Mettlen","postalCode":"8376","locality":"Fischingen","commune":{"key":"3392","name":"Kirchberg (SG)","shortName":"Kirchberg (SG)"},"district":{"key":"1727","name":"Wahlkreis Toggenburg"},"canton":{"key":"17","code":"SG","name":"St. Gallen"},"status":"Real"},{"key":"10038893","name":"Murgstrasse","postalCode":"8376","locality":"Fischingen","commune":{"key":"3392","name":"Kirchberg (SG)","shortName":"Kirchberg (SG)"},"district":{"key":"1727","name":"Wahlkreis Toggenburg"},"canton":{"key":"17","code":"SG","name":"St. Gallen"},"status":"Real"},{"key":"10038894","name":"Neugrüt","postalCode":"8376","locality":"Fischingen","commune":{"key":"3392","name":"Kirchberg (SG)","shortName":"Kirchberg (SG)"},"district":{"key":"1727","name":"Wahlkreis Toggenburg"},"canton":{"key":"17","code":"SG","name":"St. Gallen"},"status":"Real"},{"key":"10038895","name":"Neuschür","postalCode":"8376","locality":"Fischingen","commune":{"key":"3392","name":"Kirchberg (SG)","shortName":"Kirchberg (SG)"},"district":{"key":"1727","name":"Wahlkreis Toggenburg"},"canton":{"key":"17","code":"SG","name":"St. Gallen"},"status":"Real"},{"key":"10070822","name":"Rudlenstrasse","postalCode":"8376","locality":"Fischingen","commune":{"key":"3392","name":"Kirchberg (SG)","shortName":"Kirchberg (SG)"},"district":{"key":"1727","name":"Wahlkreis Toggenburg"},"canton":{"key":"17","code":"SG","name":"St. Gallen"},"status":"Real"},{"key":"10092093","name":"Schulstrasse","postalCode":"8376","locality":"Fischingen","commune":{"key":"3392","name":"Kirchberg (SG)","shortName":"Kirchberg (SG)"},"district":{"key":"1727","name":"Wahlkreis Toggenburg"},"canton":{"key":"17","code":"SG","name":"St. Gallen"},"status":"Real"},{"key":"10199350","name":"Schwand","postalCode":"8376","locality":"Fischingen","commune":{"key":"3392","name":"Kirchberg (SG)","shortName":"Kirchberg (SG)"},"district":{"key":"1727","name":"Wahlkreis Toggenburg"},"canton":{"key":"17","code":"SG","name":"St. Gallen"},"status":"Real"},{"key":"10145291","name":"Schwändacker","postalCode":"8376","locality":"Fischingen","commune":{"key":"3392","name":"Kirchberg (SG)","shortName":"Kirchberg (SG)"},"district":{"key":"1727","name":"Wahlkreis Toggenburg"},"canton":{"key":"17","code":"SG","name":"St. Gallen"},"status":"Real"},{"key":"10110447","name":"Sonneggweg","postalCode":"8376","locality":"Fischingen","commune":{"key":"3392","name":"Kirchberg (SG)","shortName":"Kirchberg (SG)"},"district":{"key":"1727","name":"Wahlkreis Toggenburg"},"canton":{"key":"17","code":"SG","name":"St. Gallen"},"status":"Real"},{"key":"10197766","name":"Tonenau","postalCode":"8376","locality":"Fischingen","commune":{"key":"3392","name":"Kirchberg (SG)","shortName":"Kirchberg (SG)"},"district":{"key":"1727","name":"Wahlkreis Toggenburg"},"canton":{"key":"17","code":"SG","name":"St. Gallen"},"status":"Real"},{"key":"10142533","name":"Underernstel","postalCode":"8376","locality":"Fischingen","commune":{"key":"3392","name":"Kirchberg (SG)","shortName":"Kirchberg (SG)"},"district":{"key":"1727","name":"Wahlkreis Toggenburg"},"canton":{"key":"17","code":"SG","name":"St. Gallen"},"status":"Real"},{"key":"10107835","name":"Unter-Hanfgarten","postalCode":"8376","locality":"Fischingen","commune":{"key":"3392","name":"Kirchberg (SG)","shortName":"Kirchberg (SG)"},"district":{"key":"1727","name":"Wahlkreis Toggenburg"},"canton":{"key":"17","code":"SG","name":"St. Gallen"},"status":"Real"},{"key":"10199332","name":"Weidli","postalCode":"8376","locality":"Fischingen","commune":{"key":"3392","name":"Kirchberg (SG)","shortName":"Kirchberg (SG)"},"district":{"key":"1727","name":"Wahlkreis Toggenburg"},"canton":{"key":"17","code":"SG","name":"St. Gallen"},"status":"Real"},{"key":"10184712","name":"Wind","postalCode":"8376","locality":"Fischingen","commune":{"key":"3392","name":"Kirchberg (SG)","shortName":"Kirchberg (SG)"},"district":{"key":"1727","name":"Wahlkreis Toggenburg"},"canton":{"key":"17","code":"SG","name":"St. Gallen"},"status":"Real"},{"key":"10250130","name":"Windstrasse","postalCode":"8376","locality":"Fischingen","commune":{"key":"3392","name":"Kirchberg (SG)","shortName":"Kirchberg (SG)"},"district":{"key":"1727","name":"Wahlkreis Toggenburg"},"canton":{"key":"17","code":"SG","name":"St. Gallen"},"status":"Real"},]