[{"name":"Aggensteinstr.","postalCode":"87669","locality":"Rieden am Forggensee","municipality":{"key":"09777163","name":"Rieden am Forggensee","type":"Kreisangehörige_Gemeinde"},"district":{"key":"09777","name":"Ostallgäu","type":"Landkreis"},"federalState":{"key":"09","name":"Bayern"}},{"name":"Almstr.","postalCode":"87669","locality":"Rieden am Forggensee","municipality":{"key":"09777163","name":"Rieden am Forggensee","type":"Kreisangehörige_Gemeinde"},"district":{"key":"09777","name":"Ostallgäu","type":"Landkreis"},"federalState":{"key":"09","name":"Bayern"}},{"name":"Am Sandbichl","postalCode":"87669","locality":"Rieden am Forggensee","municipality":{"key":"09777163","name":"Rieden am Forggensee","type":"Kreisangehörige_Gemeinde"},"district":{"key":"09777","name":"Ostallgäu","type":"Landkreis"},"federalState":{"key":"09","name":"Bayern"}},{"name":"An der Hausstatt","postalCode":"87669","locality":"Rieden am Forggensee","municipality":{"key":"09777163","name":"Rieden am Forggensee","type":"Kreisangehörige_Gemeinde"},"district":{"key":"09777","name":"Ostallgäu","type":"Landkreis"},"federalState":{"key":"09","name":"Bayern"}},{"name":"Auf der Spitze","postalCode":"87669","locality":"Rieden am Forggensee","municipality":{"key":"09777163","name":"Rieden am Forggensee","type":"Kreisangehörige_Gemeinde"},"district":{"key":"09777","name":"Ostallgäu","type":"Landkreis"},"federalState":{"key":"09","name":"Bayern"}},{"name":"August-Geier-Str.","postalCode":"87669","locality":"Rieden am Forggensee","municipality":{"key":"09777163","name":"Rieden am Forggensee","type":"Kreisangehörige_Gemeinde"},"district":{"key":"09777","name":"Ostallgäu","type":"Landkreis"},"federalState":{"key":"09","name":"Bayern"}},{"name":"Bachtalstr.","postalCode":"87669","locality":"Rieden am Forggensee","municipality":{"key":"09777163","name":"Rieden am Forggensee","type":"Kreisangehörige_Gemeinde"},"district":{"key":"09777","name":"Ostallgäu","type":"Landkreis"},"federalState":{"key":"09","name":"Bayern"}},{"name":"Bergblickstr.","postalCode":"87669","locality":"Rieden am Forggensee","municipality":{"key":"09777163","name":"Rieden am Forggensee","type":"Kreisangehörige_Gemeinde"},"district":{"key":"09777","name":"Ostallgäu","type":"Landkreis"},"federalState":{"key":"09","name":"Bayern"}},{"name":"Brunnenstr.","postalCode":"87669","locality":"Rieden am Forggensee","municipality":{"key":"09777163","name":"Rieden am Forggensee","type":"Kreisangehörige_Gemeinde"},"district":{"key":"09777","name":"Ostallgäu","type":"Landkreis"},"federalState":{"key":"09","name":"Bayern"}},{"name":"Christophorusweg","postalCode":"87669","locality":"Rieden am Forggensee","municipality":{"key":"09777163","name":"Rieden am Forggensee","type":"Kreisangehörige_Gemeinde"},"district":{"key":"09777","name":"Ostallgäu","type":"Landkreis"},"federalState":{"key":"09","name":"Bayern"}},{"name":"Dietringer Almstr.","postalCode":"87669","locality":"Rieden am Forggensee","municipality":{"key":"09777163","name":"Rieden am Forggensee","type":"Kreisangehörige_Gemeinde"},"district":{"key":"09777","name":"Ostallgäu","type":"Landkreis"},"federalState":{"key":"09","name":"Bayern"}},{"name":"Dietringer Str.","postalCode":"87669","locality":"Rieden am Forggensee","municipality":{"key":"09777163","name":"Rieden am Forggensee","type":"Kreisangehörige_Gemeinde"},"district":{"key":"09777","name":"Ostallgäu","type":"Landkreis"},"federalState":{"key":"09","name":"Bayern"}},{"name":"Ehrwangweg","postalCode":"87669","locality":"Rieden am Forggensee","municipality":{"key":"09777163","name":"Rieden am Forggensee","type":"Kreisangehörige_Gemeinde"},"district":{"key":"09777","name":"Ostallgäu","type":"Landkreis"},"federalState":{"key":"09","name":"Bayern"}},{"name":"Faulenseestr.","postalCode":"87669","locality":"Rieden am Forggensee","municipality":{"key":"09777163","name":"Rieden am Forggensee","type":"Kreisangehörige_Gemeinde"},"district":{"key":"09777","name":"Ostallgäu","type":"Landkreis"},"federalState":{"key":"09","name":"Bayern"}},{"name":"Forellenweg","postalCode":"87669","locality":"Rieden am Forggensee","municipality":{"key":"09777163","name":"Rieden am Forggensee","type":"Kreisangehörige_Gemeinde"},"district":{"key":"09777","name":"Ostallgäu","type":"Landkreis"},"federalState":{"key":"09","name":"Bayern"}},{"name":"Forggenseestr.","postalCode":"87669","locality":"Rieden am Forggensee","municipality":{"key":"09777163","name":"Rieden am Forggensee","type":"Kreisangehörige_Gemeinde"},"district":{"key":"09777","name":"Ostallgäu","type":"Landkreis"},"federalState":{"key":"09","name":"Bayern"}},{"name":"Hintere Schöne","postalCode":"87669","locality":"Rieden am Forggensee","municipality":{"key":"09777163","name":"Rieden am Forggensee","type":"Kreisangehörige_Gemeinde"},"district":{"key":"09777","name":"Ostallgäu","type":"Landkreis"},"federalState":{"key":"09","name":"Bayern"}},{"name":"Im Tal","postalCode":"87669","locality":"Rieden am Forggensee","municipality":{"key":"09777163","name":"Rieden am Forggensee","type":"Kreisangehörige_Gemeinde"},"district":{"key":"09777","name":"Ostallgäu","type":"Landkreis"},"federalState":{"key":"09","name":"Bayern"}},{"name":"Kirchenweg","postalCode":"87669","locality":"Rieden am Forggensee","municipality":{"key":"09777163","name":"Rieden am Forggensee","type":"Kreisangehörige_Gemeinde"},"district":{"key":"09777","name":"Ostallgäu","type":"Landkreis"},"federalState":{"key":"09","name":"Bayern"}},{"name":"Lautenmacherstr.","postalCode":"87669","locality":"Rieden am Forggensee","municipality":{"key":"09777163","name":"Rieden am Forggensee","type":"Kreisangehörige_Gemeinde"},"district":{"key":"09777","name":"Ostallgäu","type":"Landkreis"},"federalState":{"key":"09","name":"Bayern"}},{"name":"Lindenweg","postalCode":"87669","locality":"Rieden am Forggensee","municipality":{"key":"09777163","name":"Rieden am Forggensee","type":"Kreisangehörige_Gemeinde"},"district":{"key":"09777","name":"Ostallgäu","type":"Landkreis"},"federalState":{"key":"09","name":"Bayern"}},{"name":"Maxweg","postalCode":"87669","locality":"Rieden am Forggensee","municipality":{"key":"09777163","name":"Rieden am Forggensee","type":"Kreisangehörige_Gemeinde"},"district":{"key":"09777","name":"Ostallgäu","type":"Landkreis"},"federalState":{"key":"09","name":"Bayern"}},{"name":"Panoramaweg","postalCode":"87669","locality":"Rieden am Forggensee","municipality":{"key":"09777163","name":"Rieden am Forggensee","type":"Kreisangehörige_Gemeinde"},"district":{"key":"09777","name":"Ostallgäu","type":"Landkreis"},"federalState":{"key":"09","name":"Bayern"}},{"name":"Riedener Str.","postalCode":"87669","locality":"Rieden am Forggensee","municipality":{"key":"09777163","name":"Rieden am Forggensee","type":"Kreisangehörige_Gemeinde"},"district":{"key":"09777","name":"Ostallgäu","type":"Landkreis"},"federalState":{"key":"09","name":"Bayern"}},{"name":"Rosenweg","postalCode":"87669","locality":"Rieden am Forggensee","municipality":{"key":"09777163","name":"Rieden am Forggensee","type":"Kreisangehörige_Gemeinde"},"district":{"key":"09777","name":"Ostallgäu","type":"Landkreis"},"federalState":{"key":"09","name":"Bayern"}},{"name":"Salenbergweg","postalCode":"87669","locality":"Rieden am Forggensee","municipality":{"key":"09777163","name":"Rieden am Forggensee","type":"Kreisangehörige_Gemeinde"},"district":{"key":"09777","name":"Ostallgäu","type":"Landkreis"},"federalState":{"key":"09","name":"Bayern"}},{"name":"Sankt-Urban-Weg","postalCode":"87669","locality":"Rieden am Forggensee","municipality":{"key":"09777163","name":"Rieden am Forggensee","type":"Kreisangehörige_Gemeinde"},"district":{"key":"09777","name":"Ostallgäu","type":"Landkreis"},"federalState":{"key":"09","name":"Bayern"}},{"name":"Säulingstr.","postalCode":"87669","locality":"Rieden am Forggensee","municipality":{"key":"09777163","name":"Rieden am Forggensee","type":"Kreisangehörige_Gemeinde"},"district":{"key":"09777","name":"Ostallgäu","type":"Landkreis"},"federalState":{"key":"09","name":"Bayern"}},{"name":"Seestr.","postalCode":"87669","locality":"Rieden am Forggensee","municipality":{"key":"09777163","name":"Rieden am Forggensee","type":"Kreisangehörige_Gemeinde"},"district":{"key":"09777","name":"Ostallgäu","type":"Landkreis"},"federalState":{"key":"09","name":"Bayern"}},{"name":"Tegelbergstr.","postalCode":"87669","locality":"Rieden am Forggensee","municipality":{"key":"09777163","name":"Rieden am Forggensee","type":"Kreisangehörige_Gemeinde"},"district":{"key":"09777","name":"Ostallgäu","type":"Landkreis"},"federalState":{"key":"09","name":"Bayern"}},{"name":"Weberweg","postalCode":"87669","locality":"Rieden am Forggensee","municipality":{"key":"09777163","name":"Rieden am Forggensee","type":"Kreisangehörige_Gemeinde"},"district":{"key":"09777","name":"Ostallgäu","type":"Landkreis"},"federalState":{"key":"09","name":"Bayern"}},{"name":"Wiesenweg","postalCode":"87669","locality":"Rieden am Forggensee","municipality":{"key":"09777163","name":"Rieden am Forggensee","type":"Kreisangehörige_Gemeinde"},"district":{"key":"09777","name":"Ostallgäu","type":"Landkreis"},"federalState":{"key":"09","name":"Bayern"}},{"name":"Zwieselberger Str.","postalCode":"87669","locality":"Rieden am Forggensee","municipality":{"key":"09777163","name":"Rieden am Forggensee","type":"Kreisangehörige_Gemeinde"},"district":{"key":"09777","name":"Ostallgäu","type":"Landkreis"},"federalState":{"key":"09","name":"Bayern"}},]