[{"name":"Am Mühlweg","postalCode":"76857","locality":"Münchweiler am Klingbach","municipality":{"key":"07337054","name":"Münchweiler am Klingbach","type":"Kreisangehörige_Gemeinde"},"district":{"key":"07337","name":"Südliche Weinstraße","type":"Landkreis"},"federalState":{"key":"07","name":"Rheinland-Pfalz"}},{"name":"Berwartsteinstr.","postalCode":"76857","locality":"Münchweiler am Klingbach","municipality":{"key":"07337054","name":"Münchweiler am Klingbach","type":"Kreisangehörige_Gemeinde"},"district":{"key":"07337","name":"Südliche Weinstraße","type":"Landkreis"},"federalState":{"key":"07","name":"Rheinland-Pfalz"}},{"name":"Hauptstr.","postalCode":"76857","locality":"Münchweiler am Klingbach","municipality":{"key":"07337054","name":"Münchweiler am Klingbach","type":"Kreisangehörige_Gemeinde"},"district":{"key":"07337","name":"Südliche Weinstraße","type":"Landkreis"},"federalState":{"key":"07","name":"Rheinland-Pfalz"}},{"name":"Im Wiesengrund","postalCode":"76857","locality":"Münchweiler am Klingbach","municipality":{"key":"07337054","name":"Münchweiler am Klingbach","type":"Kreisangehörige_Gemeinde"},"district":{"key":"07337","name":"Südliche Weinstraße","type":"Landkreis"},"federalState":{"key":"07","name":"Rheinland-Pfalz"}},{"name":"Lindelbrunnstr.","postalCode":"76857","locality":"Münchweiler am Klingbach","municipality":{"key":"07337054","name":"Münchweiler am Klingbach","type":"Kreisangehörige_Gemeinde"},"district":{"key":"07337","name":"Südliche Weinstraße","type":"Landkreis"},"federalState":{"key":"07","name":"Rheinland-Pfalz"}},{"name":"Linnenstr.","postalCode":"76857","locality":"Münchweiler am Klingbach","municipality":{"key":"07337054","name":"Münchweiler am Klingbach","type":"Kreisangehörige_Gemeinde"},"district":{"key":"07337","name":"Südliche Weinstraße","type":"Landkreis"},"federalState":{"key":"07","name":"Rheinland-Pfalz"}},{"name":"Mühlweg","postalCode":"76857","locality":"Münchweiler am Klingbach","municipality":{"key":"07337054","name":"Münchweiler am Klingbach","type":"Kreisangehörige_Gemeinde"},"district":{"key":"07337","name":"Südliche Weinstraße","type":"Landkreis"},"federalState":{"key":"07","name":"Rheinland-Pfalz"}},{"name":"Schulstr.","postalCode":"76857","locality":"Münchweiler am Klingbach","municipality":{"key":"07337054","name":"Münchweiler am Klingbach","type":"Kreisangehörige_Gemeinde"},"district":{"key":"07337","name":"Südliche Weinstraße","type":"Landkreis"},"federalState":{"key":"07","name":"Rheinland-Pfalz"}},{"name":"Steinbruchstr.","postalCode":"76857","locality":"Münchweiler am Klingbach","municipality":{"key":"07337054","name":"Münchweiler am Klingbach","type":"Kreisangehörige_Gemeinde"},"district":{"key":"07337","name":"Südliche Weinstraße","type":"Landkreis"},"federalState":{"key":"07","name":"Rheinland-Pfalz"}},]