[{"name":"Alter Gutsweg","postalCode":"29484","locality":"Langendorf","municipality":{"key":"03354014","name":"Langendorf","type":"Kreisangehörige_Gemeinde"},"district":{"key":"03354","name":"Lüchow-Dannenberg","type":"Landkreis"},"federalState":{"key":"03","name":"Niedersachsen"}},{"name":"Alter Postweg","postalCode":"29484","locality":"Langendorf","municipality":{"key":"03354014","name":"Langendorf","type":"Kreisangehörige_Gemeinde"},"district":{"key":"03354","name":"Lüchow-Dannenberg","type":"Landkreis"},"federalState":{"key":"03","name":"Niedersachsen"}},{"name":"Am Deich","postalCode":"29484","locality":"Langendorf","municipality":{"key":"03354014","name":"Langendorf","type":"Kreisangehörige_Gemeinde"},"district":{"key":"03354","name":"Lüchow-Dannenberg","type":"Landkreis"},"federalState":{"key":"03","name":"Niedersachsen"}},{"name":"Am Kosakenberg","postalCode":"29484","locality":"Langendorf","municipality":{"key":"03354014","name":"Langendorf","type":"Kreisangehörige_Gemeinde"},"district":{"key":"03354","name":"Lüchow-Dannenberg","type":"Landkreis"},"federalState":{"key":"03","name":"Niedersachsen"}},{"name":"Am Kuhlenberg","postalCode":"29484","locality":"Langendorf","municipality":{"key":"03354014","name":"Langendorf","type":"Kreisangehörige_Gemeinde"},"district":{"key":"03354","name":"Lüchow-Dannenberg","type":"Landkreis"},"federalState":{"key":"03","name":"Niedersachsen"}},{"name":"Am Landgraben","postalCode":"29484","locality":"Langendorf","municipality":{"key":"03354014","name":"Langendorf","type":"Kreisangehörige_Gemeinde"},"district":{"key":"03354","name":"Lüchow-Dannenberg","type":"Landkreis"},"federalState":{"key":"03","name":"Niedersachsen"}},{"name":"Am Mühlenberg","postalCode":"29484","locality":"Langendorf","municipality":{"key":"03354014","name":"Langendorf","type":"Kreisangehörige_Gemeinde"},"district":{"key":"03354","name":"Lüchow-Dannenberg","type":"Landkreis"},"federalState":{"key":"03","name":"Niedersachsen"}},{"name":"Am Sandberg","postalCode":"29484","locality":"Langendorf","municipality":{"key":"03354014","name":"Langendorf","type":"Kreisangehörige_Gemeinde"},"district":{"key":"03354","name":"Lüchow-Dannenberg","type":"Landkreis"},"federalState":{"key":"03","name":"Niedersachsen"}},{"name":"An der Kreisstr.","postalCode":"29484","locality":"Langendorf","municipality":{"key":"03354014","name":"Langendorf","type":"Kreisangehörige_Gemeinde"},"district":{"key":"03354","name":"Lüchow-Dannenberg","type":"Landkreis"},"federalState":{"key":"03","name":"Niedersachsen"}},{"name":"Cacheriener Str.","postalCode":"29484","locality":"Langendorf","municipality":{"key":"03354014","name":"Langendorf","type":"Kreisangehörige_Gemeinde"},"district":{"key":"03354","name":"Lüchow-Dannenberg","type":"Landkreis"},"federalState":{"key":"03","name":"Niedersachsen"}},{"name":"Dannenberger Str.","postalCode":"29484","locality":"Langendorf","municipality":{"key":"03354014","name":"Langendorf","type":"Kreisangehörige_Gemeinde"},"district":{"key":"03354","name":"Lüchow-Dannenberg","type":"Landkreis"},"federalState":{"key":"03","name":"Niedersachsen"}},{"name":"Deichstr.","postalCode":"29484","locality":"Langendorf","municipality":{"key":"03354014","name":"Langendorf","type":"Kreisangehörige_Gemeinde"},"district":{"key":"03354","name":"Lüchow-Dannenberg","type":"Landkreis"},"federalState":{"key":"03","name":"Niedersachsen"}},{"name":"Deichweg","postalCode":"29484","locality":"Langendorf","municipality":{"key":"03354014","name":"Langendorf","type":"Kreisangehörige_Gemeinde"},"district":{"key":"03354","name":"Lüchow-Dannenberg","type":"Landkreis"},"federalState":{"key":"03","name":"Niedersachsen"}},{"name":"Dorfplatz","postalCode":"29484","locality":"Langendorf","municipality":{"key":"03354014","name":"Langendorf","type":"Kreisangehörige_Gemeinde"},"district":{"key":"03354","name":"Lüchow-Dannenberg","type":"Landkreis"},"federalState":{"key":"03","name":"Niedersachsen"}},{"name":"Dorfstr.","postalCode":"29484","locality":"Langendorf","municipality":{"key":"03354014","name":"Langendorf","type":"Kreisangehörige_Gemeinde"},"district":{"key":"03354","name":"Lüchow-Dannenberg","type":"Landkreis"},"federalState":{"key":"03","name":"Niedersachsen"}},{"name":"Eichenweg","postalCode":"29484","locality":"Langendorf","municipality":{"key":"03354014","name":"Langendorf","type":"Kreisangehörige_Gemeinde"},"district":{"key":"03354","name":"Lüchow-Dannenberg","type":"Landkreis"},"federalState":{"key":"03","name":"Niedersachsen"}},{"name":"Elbuferstr.","postalCode":"29484","locality":"Langendorf","municipality":{"key":"03354014","name":"Langendorf","type":"Kreisangehörige_Gemeinde"},"district":{"key":"03354","name":"Lüchow-Dannenberg","type":"Landkreis"},"federalState":{"key":"03","name":"Niedersachsen"}},{"name":"Fischerstr.","postalCode":"29484","locality":"Langendorf","municipality":{"key":"03354014","name":"Langendorf","type":"Kreisangehörige_Gemeinde"},"district":{"key":"03354","name":"Lüchow-Dannenberg","type":"Landkreis"},"federalState":{"key":"03","name":"Niedersachsen"}},{"name":"Gorlebener Str.","postalCode":"29484","locality":"Langendorf","municipality":{"key":"03354014","name":"Langendorf","type":"Kreisangehörige_Gemeinde"},"district":{"key":"03354","name":"Lüchow-Dannenberg","type":"Landkreis"},"federalState":{"key":"03","name":"Niedersachsen"}},{"name":"Grippeler Elbuferstr.","postalCode":"29484","locality":"Langendorf","municipality":{"key":"03354014","name":"Langendorf","type":"Kreisangehörige_Gemeinde"},"district":{"key":"03354","name":"Lüchow-Dannenberg","type":"Landkreis"},"federalState":{"key":"03","name":"Niedersachsen"}},{"name":"Grüner Weg","postalCode":"29484","locality":"Langendorf","municipality":{"key":"03354014","name":"Langendorf","type":"Kreisangehörige_Gemeinde"},"district":{"key":"03354","name":"Lüchow-Dannenberg","type":"Landkreis"},"federalState":{"key":"03","name":"Niedersachsen"}},{"name":"Gusborner Weg","postalCode":"29484","locality":"Langendorf","municipality":{"key":"03354014","name":"Langendorf","type":"Kreisangehörige_Gemeinde"},"district":{"key":"03354","name":"Lüchow-Dannenberg","type":"Landkreis"},"federalState":{"key":"03","name":"Niedersachsen"}},{"name":"Kreuzweg","postalCode":"29484","locality":"Langendorf","municipality":{"key":"03354014","name":"Langendorf","type":"Kreisangehörige_Gemeinde"},"district":{"key":"03354","name":"Lüchow-Dannenberg","type":"Landkreis"},"federalState":{"key":"03","name":"Niedersachsen"}},{"name":"Mühlenweg","postalCode":"29484","locality":"Langendorf","municipality":{"key":"03354014","name":"Langendorf","type":"Kreisangehörige_Gemeinde"},"district":{"key":"03354","name":"Lüchow-Dannenberg","type":"Landkreis"},"federalState":{"key":"03","name":"Niedersachsen"}},{"name":"Neue Str.","postalCode":"29484","locality":"Langendorf","municipality":{"key":"03354014","name":"Langendorf","type":"Kreisangehörige_Gemeinde"},"district":{"key":"03354","name":"Lüchow-Dannenberg","type":"Landkreis"},"federalState":{"key":"03","name":"Niedersachsen"}},{"name":"Steindamm","postalCode":"29484","locality":"Langendorf","municipality":{"key":"03354014","name":"Langendorf","type":"Kreisangehörige_Gemeinde"},"district":{"key":"03354","name":"Lüchow-Dannenberg","type":"Landkreis"},"federalState":{"key":"03","name":"Niedersachsen"}},{"name":"Waldsiedlung","postalCode":"29484","locality":"Langendorf","municipality":{"key":"03354014","name":"Langendorf","type":"Kreisangehörige_Gemeinde"},"district":{"key":"03354","name":"Lüchow-Dannenberg","type":"Landkreis"},"federalState":{"key":"03","name":"Niedersachsen"}},{"name":"Zur Elbe","postalCode":"29484","locality":"Langendorf","municipality":{"key":"03354014","name":"Langendorf","type":"Kreisangehörige_Gemeinde"},"district":{"key":"03354","name":"Lüchow-Dannenberg","type":"Landkreis"},"federalState":{"key":"03","name":"Niedersachsen"}},]