[{"key":"10197104","name":"Alte Gasse","postalCode":"7235","locality":"Fideris","commune":{"key":"3861","name":"Fideris","shortName":"Fideris"},"district":{"key":"1849","name":"Region Prättigau / Davos"},"canton":{"key":"18","code":"GR","name":"Graubünden / Grigioni / Grischun"},"status":"Real"},{"key":"10255285","name":"Alter Bergweg","postalCode":"7235","locality":"Fideris","commune":{"key":"3861","name":"Fideris","shortName":"Fideris"},"district":{"key":"1849","name":"Region Prättigau / Davos"},"canton":{"key":"18","code":"GR","name":"Graubünden / Grigioni / Grischun"},"status":"Real"},{"key":"10255290","name":"Altsässliweg","postalCode":"7235","locality":"Fideris","commune":{"key":"3861","name":"Fideris","shortName":"Fideris"},"district":{"key":"1849","name":"Region Prättigau / Davos"},"canton":{"key":"18","code":"GR","name":"Graubünden / Grigioni / Grischun"},"status":"Real"},{"key":"10216604","name":"Arieschbachstrasse","postalCode":"7235","locality":"Fideris","commune":{"key":"3861","name":"Fideris","shortName":"Fideris"},"district":{"key":"1849","name":"Region Prättigau / Davos"},"canton":{"key":"18","code":"GR","name":"Graubünden / Grigioni / Grischun"},"status":"Real"},{"key":"10039367","name":"Au","postalCode":"7235","locality":"Fideris","commune":{"key":"3861","name":"Fideris","shortName":"Fideris"},"district":{"key":"1849","name":"Region Prättigau / Davos"},"canton":{"key":"18","code":"GR","name":"Graubünden / Grigioni / Grischun"},"status":"Real"},{"key":"10255292","name":"Badsteinweg","postalCode":"7235","locality":"Fideris","commune":{"key":"3861","name":"Fideris","shortName":"Fideris"},"district":{"key":"1849","name":"Region Prättigau / Davos"},"canton":{"key":"18","code":"GR","name":"Graubünden / Grigioni / Grischun"},"status":"Real"},{"key":"10255294","name":"Badwisliweg","postalCode":"7235","locality":"Fideris","commune":{"key":"3861","name":"Fideris","shortName":"Fideris"},"district":{"key":"1849","name":"Region Prättigau / Davos"},"canton":{"key":"18","code":"GR","name":"Graubünden / Grigioni / Grischun"},"status":"Real"},{"key":"10206782","name":"Bofis","postalCode":"7235","locality":"Fideris","commune":{"key":"3861","name":"Fideris","shortName":"Fideris"},"district":{"key":"1849","name":"Region Prättigau / Davos"},"canton":{"key":"18","code":"GR","name":"Graubünden / Grigioni / Grischun"},"status":"Real"},{"key":"10209563","name":"Bonersch Wis","postalCode":"7235","locality":"Fideris","commune":{"key":"3861","name":"Fideris","shortName":"Fideris"},"district":{"key":"1849","name":"Region Prättigau / Davos"},"canton":{"key":"18","code":"GR","name":"Graubünden / Grigioni / Grischun"},"status":"Real"},{"key":"10076735","name":"Büel","postalCode":"7235","locality":"Fideris","commune":{"key":"3861","name":"Fideris","shortName":"Fideris"},"district":{"key":"1849","name":"Region Prättigau / Davos"},"canton":{"key":"18","code":"GR","name":"Graubünden / Grigioni / Grischun"},"status":"Real"},{"key":"10208649","name":"Chopfstein","postalCode":"7235","locality":"Fideris","commune":{"key":"3861","name":"Fideris","shortName":"Fideris"},"district":{"key":"1849","name":"Region Prättigau / Davos"},"canton":{"key":"18","code":"GR","name":"Graubünden / Grigioni / Grischun"},"status":"Real"},{"key":"10255298","name":"Clunweg","postalCode":"7235","locality":"Fideris","commune":{"key":"3861","name":"Fideris","shortName":"Fideris"},"district":{"key":"1849","name":"Region Prättigau / Davos"},"canton":{"key":"18","code":"GR","name":"Graubünden / Grigioni / Grischun"},"status":"Real"},{"key":"10197105","name":"Dorfstrasse","postalCode":"7235","locality":"Fideris","commune":{"key":"3861","name":"Fideris","shortName":"Fideris"},"district":{"key":"1849","name":"Region Prättigau / Davos"},"canton":{"key":"18","code":"GR","name":"Graubünden / Grigioni / Grischun"},"status":"Real"},{"key":"10255300","name":"Eggaweg","postalCode":"7235","locality":"Fideris","commune":{"key":"3861","name":"Fideris","shortName":"Fideris"},"district":{"key":"1849","name":"Region Prättigau / Davos"},"canton":{"key":"18","code":"GR","name":"Graubünden / Grigioni / Grischun"},"status":"Real"},{"key":"10209413","name":"Fataunis","postalCode":"7235","locality":"Fideris","commune":{"key":"3861","name":"Fideris","shortName":"Fideris"},"district":{"key":"1849","name":"Region Prättigau / Davos"},"canton":{"key":"18","code":"GR","name":"Graubünden / Grigioni / Grischun"},"status":"Real"},{"key":"10197106","name":"Fideriserstrasse","postalCode":"7235","locality":"Fideris","commune":{"key":"3861","name":"Fideris","shortName":"Fideris"},"district":{"key":"1849","name":"Region Prättigau / Davos"},"canton":{"key":"18","code":"GR","name":"Graubünden / Grigioni / Grischun"},"status":"Real"},{"key":"10255301","name":"Gadierisweg","postalCode":"7235","locality":"Fideris","commune":{"key":"3861","name":"Fideris","shortName":"Fideris"},"district":{"key":"1849","name":"Region Prättigau / Davos"},"canton":{"key":"18","code":"GR","name":"Graubünden / Grigioni / Grischun"},"status":"Real"},{"key":"10209080","name":"Gams","postalCode":"7235","locality":"Fideris","commune":{"key":"3861","name":"Fideris","shortName":"Fideris"},"district":{"key":"1849","name":"Region Prättigau / Davos"},"canton":{"key":"18","code":"GR","name":"Graubünden / Grigioni / Grischun"},"status":"Real"},{"key":"10255302","name":"Gaschlisweg","postalCode":"7235","locality":"Fideris","commune":{"key":"3861","name":"Fideris","shortName":"Fideris"},"district":{"key":"1849","name":"Region Prättigau / Davos"},"canton":{"key":"18","code":"GR","name":"Graubünden / Grigioni / Grischun"},"status":"Real"},{"key":"10255307","name":"Gruobaweg","postalCode":"7235","locality":"Fideris","commune":{"key":"3861","name":"Fideris","shortName":"Fideris"},"district":{"key":"1849","name":"Region Prättigau / Davos"},"canton":{"key":"18","code":"GR","name":"Graubünden / Grigioni / Grischun"},"status":"Real"},{"key":"10095243","name":"Heubergstrasse","postalCode":"7235","locality":"Fideris","commune":{"key":"3861","name":"Fideris","shortName":"Fideris"},"district":{"key":"1849","name":"Region Prättigau / Davos"},"canton":{"key":"18","code":"GR","name":"Graubünden / Grigioni / Grischun"},"status":"Real"},{"key":"10255282","name":"Höch Stelliweg","postalCode":"7235","locality":"Fideris","commune":{"key":"3861","name":"Fideris","shortName":"Fideris"},"district":{"key":"1849","name":"Region Prättigau / Davos"},"canton":{"key":"18","code":"GR","name":"Graubünden / Grigioni / Grischun"},"status":"Real"},{"key":"10197107","name":"Hofstrasse","postalCode":"7235","locality":"Fideris","commune":{"key":"3861","name":"Fideris","shortName":"Fideris"},"district":{"key":"1849","name":"Region Prättigau / Davos"},"canton":{"key":"18","code":"GR","name":"Graubünden / Grigioni / Grischun"},"status":"Real"},{"key":"10255304","name":"Horaboden","postalCode":"7235","locality":"Fideris","commune":{"key":"3861","name":"Fideris","shortName":"Fideris"},"district":{"key":"1849","name":"Region Prättigau / Davos"},"canton":{"key":"18","code":"GR","name":"Graubünden / Grigioni / Grischun"},"status":"Real"},{"key":"10255309","name":"Hornweg","postalCode":"7235","locality":"Fideris","commune":{"key":"3861","name":"Fideris","shortName":"Fideris"},"district":{"key":"1849","name":"Region Prättigau / Davos"},"canton":{"key":"18","code":"GR","name":"Graubünden / Grigioni / Grischun"},"status":"Real"},{"key":"10039371","name":"Joosa Wisli","postalCode":"7235","locality":"Fideris","commune":{"key":"3861","name":"Fideris","shortName":"Fideris"},"district":{"key":"1849","name":"Region Prättigau / Davos"},"canton":{"key":"18","code":"GR","name":"Graubünden / Grigioni / Grischun"},"status":"Real"},{"key":"10207039","name":"Kapitelhof","postalCode":"7235","locality":"Fideris","commune":{"key":"3861","name":"Fideris","shortName":"Fideris"},"district":{"key":"1849","name":"Region Prättigau / Davos"},"canton":{"key":"18","code":"GR","name":"Graubünden / Grigioni / Grischun"},"status":"Real"},{"key":"10174889","name":"Kreuzgasse","postalCode":"7235","locality":"Fideris","commune":{"key":"3861","name":"Fideris","shortName":"Fideris"},"district":{"key":"1849","name":"Region Prättigau / Davos"},"canton":{"key":"18","code":"GR","name":"Graubünden / Grigioni / Grischun"},"status":"Real"},{"key":"10255312","name":"Laflinaweg","postalCode":"7235","locality":"Fideris","commune":{"key":"3861","name":"Fideris","shortName":"Fideris"},"district":{"key":"1849","name":"Region Prättigau / Davos"},"canton":{"key":"18","code":"GR","name":"Graubünden / Grigioni / Grischun"},"status":"Real"},{"key":"10255314","name":"Lerchwaldstrasse","postalCode":"7235","locality":"Fideris","commune":{"key":"3861","name":"Fideris","shortName":"Fideris"},"district":{"key":"1849","name":"Region Prättigau / Davos"},"canton":{"key":"18","code":"GR","name":"Graubünden / Grigioni / Grischun"},"status":"Real"},{"key":"10255286","name":"Marclainweg","postalCode":"7235","locality":"Fideris","commune":{"key":"3861","name":"Fideris","shortName":"Fideris"},"district":{"key":"1849","name":"Region Prättigau / Davos"},"canton":{"key":"18","code":"GR","name":"Graubünden / Grigioni / Grischun"},"status":"Real"},{"key":"10206362","name":"Matalta","postalCode":"7235","locality":"Fideris","commune":{"key":"3861","name":"Fideris","shortName":"Fideris"},"district":{"key":"1849","name":"Region Prättigau / Davos"},"canton":{"key":"18","code":"GR","name":"Graubünden / Grigioni / Grischun"},"status":"Real"},{"key":"10255287","name":"Matingsweg","postalCode":"7235","locality":"Fideris","commune":{"key":"3861","name":"Fideris","shortName":"Fideris"},"district":{"key":"1849","name":"Region Prättigau / Davos"},"canton":{"key":"18","code":"GR","name":"Graubünden / Grigioni / Grischun"},"status":"Real"},{"key":"10255317","name":"Mittlerer Prafiebweg","postalCode":"7235","locality":"Fideris","commune":{"key":"3861","name":"Fideris","shortName":"Fideris"},"district":{"key":"1849","name":"Region Prättigau / Davos"},"canton":{"key":"18","code":"GR","name":"Graubünden / Grigioni / Grischun"},"status":"Real"},{"key":"10255291","name":"Oberer Parmartschweg","postalCode":"7235","locality":"Fideris","commune":{"key":"3861","name":"Fideris","shortName":"Fideris"},"district":{"key":"1849","name":"Region Prättigau / Davos"},"canton":{"key":"18","code":"GR","name":"Graubünden / Grigioni / Grischun"},"status":"Real"},{"key":"10197108","name":"Ober Strahlegg","postalCode":"7235","locality":"Fideris","commune":{"key":"3861","name":"Fideris","shortName":"Fideris"},"district":{"key":"1849","name":"Region Prättigau / Davos"},"canton":{"key":"18","code":"GR","name":"Graubünden / Grigioni / Grischun"},"status":"Real"},{"key":"10255295","name":"Padelsweg","postalCode":"7235","locality":"Fideris","commune":{"key":"3861","name":"Fideris","shortName":"Fideris"},"district":{"key":"1849","name":"Region Prättigau / Davos"},"canton":{"key":"18","code":"GR","name":"Graubünden / Grigioni / Grischun"},"status":"Real"},{"key":"10039374","name":"Palottis","postalCode":"7235","locality":"Fideris","commune":{"key":"3861","name":"Fideris","shortName":"Fideris"},"district":{"key":"1849","name":"Region Prättigau / Davos"},"canton":{"key":"18","code":"GR","name":"Graubünden / Grigioni / Grischun"},"status":"Real"},{"key":"10255283","name":"Pardätschweg","postalCode":"7235","locality":"Fideris","commune":{"key":"3861","name":"Fideris","shortName":"Fideris"},"district":{"key":"1849","name":"Region Prättigau / Davos"},"canton":{"key":"18","code":"GR","name":"Graubünden / Grigioni / Grischun"},"status":"Real"},{"key":"10209540","name":"Pargüetscha","postalCode":"7235","locality":"Fideris","commune":{"key":"3861","name":"Fideris","shortName":"Fideris"},"district":{"key":"1849","name":"Region Prättigau / Davos"},"canton":{"key":"18","code":"GR","name":"Graubünden / Grigioni / Grischun"},"status":"Real"},{"key":"10142140","name":"Parwals","postalCode":"7235","locality":"Fideris","commune":{"key":"3861","name":"Fideris","shortName":"Fideris"},"district":{"key":"1849","name":"Region Prättigau / Davos"},"canton":{"key":"18","code":"GR","name":"Graubünden / Grigioni / Grischun"},"status":"Real"},{"key":"10106871","name":"Pederis","postalCode":"7235","locality":"Fideris","commune":{"key":"3861","name":"Fideris","shortName":"Fideris"},"district":{"key":"1849","name":"Region Prättigau / Davos"},"canton":{"key":"18","code":"GR","name":"Graubünden / Grigioni / Grischun"},"status":"Real"},{"key":"10255296","name":"Plattisweg","postalCode":"7235","locality":"Fideris","commune":{"key":"3861","name":"Fideris","shortName":"Fideris"},"district":{"key":"1849","name":"Region Prättigau / Davos"},"canton":{"key":"18","code":"GR","name":"Graubünden / Grigioni / Grischun"},"status":"Real"},{"key":"10255303","name":"Prättigauerstrasse","postalCode":"7235","locality":"Fideris","commune":{"key":"3861","name":"Fideris","shortName":"Fideris"},"district":{"key":"1849","name":"Region Prättigau / Davos"},"canton":{"key":"18","code":"GR","name":"Graubünden / Grigioni / Grischun"},"status":"Real"},{"key":"10255305","name":"Püschenweg","postalCode":"7235","locality":"Fideris","commune":{"key":"3861","name":"Fideris","shortName":"Fideris"},"district":{"key":"1849","name":"Region Prättigau / Davos"},"canton":{"key":"18","code":"GR","name":"Graubünden / Grigioni / Grischun"},"status":"Real"},{"key":"10255308","name":"Ramaidelserweg","postalCode":"7235","locality":"Fideris","commune":{"key":"3861","name":"Fideris","shortName":"Fideris"},"district":{"key":"1849","name":"Region Prättigau / Davos"},"canton":{"key":"18","code":"GR","name":"Graubünden / Grigioni / Grischun"},"status":"Real"},{"key":"10255310","name":"Raschitscherweg","postalCode":"7235","locality":"Fideris","commune":{"key":"3861","name":"Fideris","shortName":"Fideris"},"district":{"key":"1849","name":"Region Prättigau / Davos"},"canton":{"key":"18","code":"GR","name":"Graubünden / Grigioni / Grischun"},"status":"Real"},{"key":"10111854","name":"Röza","postalCode":"7235","locality":"Fideris","commune":{"key":"3861","name":"Fideris","shortName":"Fideris"},"district":{"key":"1849","name":"Region Prättigau / Davos"},"canton":{"key":"18","code":"GR","name":"Graubünden / Grigioni / Grischun"},"status":"Real"},{"key":"10206109","name":"Runggalia","postalCode":"7235","locality":"Fideris","commune":{"key":"3861","name":"Fideris","shortName":"Fideris"},"district":{"key":"1849","name":"Region Prättigau / Davos"},"canton":{"key":"18","code":"GR","name":"Graubünden / Grigioni / Grischun"},"status":"Real"},{"key":"10216610","name":"Runggaplaun","postalCode":"7235","locality":"Fideris","commune":{"key":"3861","name":"Fideris","shortName":"Fideris"},"district":{"key":"1849","name":"Region Prättigau / Davos"},"canton":{"key":"18","code":"GR","name":"Graubünden / Grigioni / Grischun"},"status":"Real"},{"key":"10190154","name":"Sammacrest","postalCode":"7235","locality":"Fideris","commune":{"key":"3861","name":"Fideris","shortName":"Fideris"},"district":{"key":"1849","name":"Region Prättigau / Davos"},"canton":{"key":"18","code":"GR","name":"Graubünden / Grigioni / Grischun"},"status":"Real"},{"key":"10255313","name":"Schanännweg","postalCode":"7235","locality":"Fideris","commune":{"key":"3861","name":"Fideris","shortName":"Fideris"},"district":{"key":"1849","name":"Region Prättigau / Davos"},"canton":{"key":"18","code":"GR","name":"Graubünden / Grigioni / Grischun"},"status":"Real"},{"key":"10255315","name":"Schindelboden","postalCode":"7235","locality":"Fideris","commune":{"key":"3861","name":"Fideris","shortName":"Fideris"},"district":{"key":"1849","name":"Region Prättigau / Davos"},"canton":{"key":"18","code":"GR","name":"Graubünden / Grigioni / Grischun"},"status":"Real"},{"key":"10255299","name":"Schlegelweg","postalCode":"7235","locality":"Fideris","commune":{"key":"3861","name":"Fideris","shortName":"Fideris"},"district":{"key":"1849","name":"Region Prättigau / Davos"},"canton":{"key":"18","code":"GR","name":"Graubünden / Grigioni / Grischun"},"status":"Real"},{"key":"10255297","name":"Seewisweg","postalCode":"7235","locality":"Fideris","commune":{"key":"3861","name":"Fideris","shortName":"Fideris"},"district":{"key":"1849","name":"Region Prättigau / Davos"},"canton":{"key":"18","code":"GR","name":"Graubünden / Grigioni / Grischun"},"status":"Real"},{"key":"10095246","name":"Strahlegg","postalCode":"7235","locality":"Fideris","commune":{"key":"3861","name":"Fideris","shortName":"Fideris"},"district":{"key":"1849","name":"Region Prättigau / Davos"},"canton":{"key":"18","code":"GR","name":"Graubünden / Grigioni / Grischun"},"status":"Real"},{"key":"10255306","name":"Tanailweg","postalCode":"7235","locality":"Fideris","commune":{"key":"3861","name":"Fideris","shortName":"Fideris"},"district":{"key":"1849","name":"Region Prättigau / Davos"},"canton":{"key":"18","code":"GR","name":"Graubünden / Grigioni / Grischun"},"status":"Real"},{"key":"10255311","name":"Tarnutzweg","postalCode":"7235","locality":"Fideris","commune":{"key":"3861","name":"Fideris","shortName":"Fideris"},"district":{"key":"1849","name":"Region Prättigau / Davos"},"canton":{"key":"18","code":"GR","name":"Graubünden / Grigioni / Grischun"},"status":"Real"},{"key":"10197109","name":"Tobelstrasse","postalCode":"7235","locality":"Fideris","commune":{"key":"3861","name":"Fideris","shortName":"Fideris"},"district":{"key":"1849","name":"Region Prättigau / Davos"},"canton":{"key":"18","code":"GR","name":"Graubünden / Grigioni / Grischun"},"status":"Real"},{"key":"10255316","name":"Türliwisweg","postalCode":"7235","locality":"Fideris","commune":{"key":"3861","name":"Fideris","shortName":"Fideris"},"district":{"key":"1849","name":"Region Prättigau / Davos"},"canton":{"key":"18","code":"GR","name":"Graubünden / Grigioni / Grischun"},"status":"Real"},{"key":"10255284","name":"Unterer Parmartschweg","postalCode":"7235","locality":"Fideris","commune":{"key":"3861","name":"Fideris","shortName":"Fideris"},"district":{"key":"1849","name":"Region Prättigau / Davos"},"canton":{"key":"18","code":"GR","name":"Graubünden / Grigioni / Grischun"},"status":"Real"},{"key":"10255288","name":"Unterer Prafiebweg","postalCode":"7235","locality":"Fideris","commune":{"key":"3861","name":"Fideris","shortName":"Fideris"},"district":{"key":"1849","name":"Region Prättigau / Davos"},"canton":{"key":"18","code":"GR","name":"Graubünden / Grigioni / Grischun"},"status":"Real"},{"key":"10095247","name":"Unterwinkel","postalCode":"7235","locality":"Fideris","commune":{"key":"3861","name":"Fideris","shortName":"Fideris"},"district":{"key":"1849","name":"Region Prättigau / Davos"},"canton":{"key":"18","code":"GR","name":"Graubünden / Grigioni / Grischun"},"status":"Real"},{"key":"10255289","name":"Usserbordweg","postalCode":"7235","locality":"Fideris","commune":{"key":"3861","name":"Fideris","shortName":"Fideris"},"district":{"key":"1849","name":"Region Prättigau / Davos"},"canton":{"key":"18","code":"GR","name":"Graubünden / Grigioni / Grischun"},"status":"Real"},{"key":"10255293","name":"Valziggweg","postalCode":"7235","locality":"Fideris","commune":{"key":"3861","name":"Fideris","shortName":"Fideris"},"district":{"key":"1849","name":"Region Prättigau / Davos"},"canton":{"key":"18","code":"GR","name":"Graubünden / Grigioni / Grischun"},"status":"Real"},{"key":"10206698","name":"Versals","postalCode":"7235","locality":"Fideris","commune":{"key":"3861","name":"Fideris","shortName":"Fideris"},"district":{"key":"1849","name":"Region Prättigau / Davos"},"canton":{"key":"18","code":"GR","name":"Graubünden / Grigioni / Grischun"},"status":"Real"},{"key":"10205896","name":"Wölfi","postalCode":"7235","locality":"Fideris","commune":{"key":"3861","name":"Fideris","shortName":"Fideris"},"district":{"key":"1849","name":"Region Prättigau / Davos"},"canton":{"key":"18","code":"GR","name":"Graubünden / Grigioni / Grischun"},"status":"Real"},{"key":"10216608","name":"Ärmiggin","postalCode":"7235","locality":"Fideris","commune":{"key":"3861","name":"Fideris","shortName":"Fideris"},"district":{"key":"1849","name":"Region Prättigau / Davos"},"canton":{"key":"18","code":"GR","name":"Graubünden / Grigioni / Grischun"},"status":"Real"},]