[{"name":"Alleshauser Str.","postalCode":"88422","locality":"Betzenweiler","municipality":{"key":"08426020","name":"Betzenweiler","type":"Kreisangehörige_Gemeinde"},"district":{"key":"08426","name":"Biberach","type":"Landkreis"},"federalState":{"key":"08","name":"Baden-Württemberg"}},{"name":"Am Köhlberg","postalCode":"88422","locality":"Betzenweiler","municipality":{"key":"08426020","name":"Betzenweiler","type":"Kreisangehörige_Gemeinde"},"district":{"key":"08426","name":"Biberach","type":"Landkreis"},"federalState":{"key":"08","name":"Baden-Württemberg"}},{"name":"Bauhofweg","postalCode":"88422","locality":"Betzenweiler","municipality":{"key":"08426020","name":"Betzenweiler","type":"Kreisangehörige_Gemeinde"},"district":{"key":"08426","name":"Biberach","type":"Landkreis"},"federalState":{"key":"08","name":"Baden-Württemberg"}},{"name":"Bischmannshausen","postalCode":"88422","locality":"Betzenweiler","municipality":{"key":"08426020","name":"Betzenweiler","type":"Kreisangehörige_Gemeinde"},"district":{"key":"08426","name":"Biberach","type":"Landkreis"},"federalState":{"key":"08","name":"Baden-Württemberg"}},{"name":"Buchauer Str.","postalCode":"88422","locality":"Betzenweiler","municipality":{"key":"08426020","name":"Betzenweiler","type":"Kreisangehörige_Gemeinde"},"district":{"key":"08426","name":"Biberach","type":"Landkreis"},"federalState":{"key":"08","name":"Baden-Württemberg"}},{"name":"Bussenstr.","postalCode":"88422","locality":"Betzenweiler","municipality":{"key":"08426020","name":"Betzenweiler","type":"Kreisangehörige_Gemeinde"},"district":{"key":"08426","name":"Biberach","type":"Landkreis"},"federalState":{"key":"08","name":"Baden-Württemberg"}},{"name":"Christian-Koehler-Weg","postalCode":"88400","locality":"Biberach an der Riß","municipality":{"key":"08426021","name":"Biberach an der Riß, Stadt","type":"Große_Kreisstadt"},"district":{"key":"08426","name":"Biberach","type":"Landkreis"},"federalState":{"key":"08","name":"Baden-Württemberg"}},{"name":"Christian-Xeller-Weg","postalCode":"88400","locality":"Biberach an der Riß","municipality":{"key":"08426021","name":"Biberach an der Riß, Stadt","type":"Große_Kreisstadt"},"district":{"key":"08426","name":"Biberach","type":"Landkreis"},"federalState":{"key":"08","name":"Baden-Württemberg"}},{"name":"Clara-Schumann-Str.","postalCode":"88400","locality":"Biberach an der Riß","municipality":{"key":"08426021","name":"Biberach an der Riß, Stadt","type":"Große_Kreisstadt"},"district":{"key":"08426","name":"Biberach","type":"Landkreis"},"federalState":{"key":"08","name":"Baden-Württemberg"}},{"name":"Consulentengasse","postalCode":"88400","locality":"Biberach an der Riß","municipality":{"key":"08426021","name":"Biberach an der Riß, Stadt","type":"Große_Kreisstadt"},"district":{"key":"08426","name":"Biberach","type":"Landkreis"},"federalState":{"key":"08","name":"Baden-Württemberg"}},{"name":"Dachsbauweg","postalCode":"77781","locality":"Biberach","municipality":{"key":"08317011","name":"Biberach","type":"Kreisangehörige_Gemeinde"},"district":{"key":"08317","name":"Ortenaukreis","type":"Landkreis"},"federalState":{"key":"08","name":"Baden-Württemberg"}},{"name":"Danzigbrücke","postalCode":"88400","locality":"Biberach an der Riß","municipality":{"key":"08426021","name":"Biberach an der Riß, Stadt","type":"Große_Kreisstadt"},"district":{"key":"08426","name":"Biberach","type":"Landkreis"},"federalState":{"key":"08","name":"Baden-Württemberg"}},{"name":"Degernauer Str.","postalCode":"88441","locality":"Mittelbiberach","municipality":{"key":"08426074","name":"Mittelbiberach","type":"Kreisangehörige_Gemeinde"},"district":{"key":"08426","name":"Biberach","type":"Landkreis"},"federalState":{"key":"08","name":"Baden-Württemberg"}},{"name":"Dinglingerstr.","postalCode":"88400","locality":"Biberach an der Riß","municipality":{"key":"08426021","name":"Biberach an der Riß, Stadt","type":"Große_Kreisstadt"},"district":{"key":"08426","name":"Biberach","type":"Landkreis"},"federalState":{"key":"08","name":"Baden-Württemberg"}},{"name":"Dirk-Raudies-Weg","postalCode":"88400","locality":"Biberach an der Riß","municipality":{"key":"08426021","name":"Biberach an der Riß, Stadt","type":"Große_Kreisstadt"},"district":{"key":"08426","name":"Biberach","type":"Landkreis"},"federalState":{"key":"08","name":"Baden-Württemberg"}},{"name":"Dittmarstr.","postalCode":"88400","locality":"Biberach an der Riß","municipality":{"key":"08426021","name":"Biberach an der Riß, Stadt","type":"Große_Kreisstadt"},"district":{"key":"08426","name":"Biberach","type":"Landkreis"},"federalState":{"key":"08","name":"Baden-Württemberg"}},{"name":"Dobelweg","postalCode":"77781","locality":"Biberach","municipality":{"key":"08317011","name":"Biberach","type":"Kreisangehörige_Gemeinde"},"district":{"key":"08317","name":"Ortenaukreis","type":"Landkreis"},"federalState":{"key":"08","name":"Baden-Württemberg"}},{"name":"Dominikus-Zell-Weg","postalCode":"88400","locality":"Biberach an der Riß","municipality":{"key":"08426021","name":"Biberach an der Riß, Stadt","type":"Große_Kreisstadt"},"district":{"key":"08426","name":"Biberach","type":"Landkreis"},"federalState":{"key":"08","name":"Baden-Württemberg"}},{"name":"Dorfäckerweg","postalCode":"88400","locality":"Biberach an der Riß","municipality":{"key":"08426021","name":"Biberach an der Riß, Stadt","type":"Große_Kreisstadt"},"district":{"key":"08426","name":"Biberach","type":"Landkreis"},"federalState":{"key":"08","name":"Baden-Württemberg"}},{"name":"Dörfle","postalCode":"77781","locality":"Biberach","municipality":{"key":"08317011","name":"Biberach","type":"Kreisangehörige_Gemeinde"},"district":{"key":"08317","name":"Ortenaukreis","type":"Landkreis"},"federalState":{"key":"08","name":"Baden-Württemberg"}},{"name":"Drosselweg","postalCode":"88400","locality":"Biberach an der Riß","municipality":{"key":"08426021","name":"Biberach an der Riß, Stadt","type":"Große_Kreisstadt"},"district":{"key":"08426","name":"Biberach","type":"Landkreis"},"federalState":{"key":"08","name":"Baden-Württemberg"}},{"name":"Drosselweg","postalCode":"88441","locality":"Mittelbiberach","municipality":{"key":"08426074","name":"Mittelbiberach","type":"Kreisangehörige_Gemeinde"},"district":{"key":"08426","name":"Biberach","type":"Landkreis"},"federalState":{"key":"08","name":"Baden-Württemberg"}},{"name":"Dunantstr.","postalCode":"88400","locality":"Biberach an der Riß","municipality":{"key":"08426021","name":"Biberach an der Riß, Stadt","type":"Große_Kreisstadt"},"district":{"key":"08426","name":"Biberach","type":"Landkreis"},"federalState":{"key":"08","name":"Baden-Württemberg"}},{"name":"Dürnachweg","postalCode":"88400","locality":"Biberach an der Riß","municipality":{"key":"08426021","name":"Biberach an der Riß, Stadt","type":"Große_Kreisstadt"},"district":{"key":"08426","name":"Biberach","type":"Landkreis"},"federalState":{"key":"08","name":"Baden-Württemberg"}},{"name":"Eichwald","postalCode":"88422","locality":"Betzenweiler","municipality":{"key":"08426020","name":"Betzenweiler","type":"Kreisangehörige_Gemeinde"},"district":{"key":"08426","name":"Biberach","type":"Landkreis"},"federalState":{"key":"08","name":"Baden-Württemberg"}},{"name":"Fabrikstr.","postalCode":"88400","locality":"Biberach an der Riß","municipality":{"key":"08426021","name":"Biberach an der Riß, Stadt","type":"Große_Kreisstadt"},"district":{"key":"08426","name":"Biberach","type":"Landkreis"},"federalState":{"key":"08","name":"Baden-Württemberg"}},{"name":"Falkenweg","postalCode":"88400","locality":"Biberach an der Riß","municipality":{"key":"08426021","name":"Biberach an der Riß, Stadt","type":"Große_Kreisstadt"},"district":{"key":"08426","name":"Biberach","type":"Landkreis"},"federalState":{"key":"08","name":"Baden-Württemberg"}},{"name":"Fanny-Hensel-Str.","postalCode":"88400","locality":"Biberach an der Riß","municipality":{"key":"08426021","name":"Biberach an der Riß, Stadt","type":"Große_Kreisstadt"},"district":{"key":"08426","name":"Biberach","type":"Landkreis"},"federalState":{"key":"08","name":"Baden-Württemberg"}},{"name":"Felbenstockweg","postalCode":"88400","locality":"Biberach an der Riß","municipality":{"key":"08426021","name":"Biberach an der Riß, Stadt","type":"Große_Kreisstadt"},"district":{"key":"08426","name":"Biberach","type":"Landkreis"},"federalState":{"key":"08","name":"Baden-Württemberg"}},{"name":"Felsenäcker","postalCode":"88400","locality":"Biberach an der Riß","municipality":{"key":"08426021","name":"Biberach an der Riß, Stadt","type":"Große_Kreisstadt"},"district":{"key":"08426","name":"Biberach","type":"Landkreis"},"federalState":{"key":"08","name":"Baden-Württemberg"}},{"name":"Felsengartenstr.","postalCode":"88400","locality":"Biberach an der Riß","municipality":{"key":"08426021","name":"Biberach an der Riß, Stadt","type":"Große_Kreisstadt"},"district":{"key":"08426","name":"Biberach","type":"Landkreis"},"federalState":{"key":"08","name":"Baden-Württemberg"}},{"name":"Felsenweg","postalCode":"88400","locality":"Biberach an der Riß","municipality":{"key":"08426021","name":"Biberach an der Riß, Stadt","type":"Große_Kreisstadt"},"district":{"key":"08426","name":"Biberach","type":"Landkreis"},"federalState":{"key":"08","name":"Baden-Württemberg"}},{"name":"Finkenweg","postalCode":"77781","locality":"Biberach","municipality":{"key":"08317011","name":"Biberach","type":"Kreisangehörige_Gemeinde"},"district":{"key":"08317","name":"Ortenaukreis","type":"Landkreis"},"federalState":{"key":"08","name":"Baden-Württemberg"}},{"name":"Finkenweg","postalCode":"88400","locality":"Biberach an der Riß","municipality":{"key":"08426021","name":"Biberach an der Riß, Stadt","type":"Große_Kreisstadt"},"district":{"key":"08426","name":"Biberach","type":"Landkreis"},"federalState":{"key":"08","name":"Baden-Württemberg"}},{"name":"Fliederweg","postalCode":"88400","locality":"Biberach an der Riß","municipality":{"key":"08426021","name":"Biberach an der Riß, Stadt","type":"Große_Kreisstadt"},"district":{"key":"08426","name":"Biberach","type":"Landkreis"},"federalState":{"key":"08","name":"Baden-Württemberg"}},{"name":"Fliederweg","postalCode":"88441","locality":"Mittelbiberach","municipality":{"key":"08426074","name":"Mittelbiberach","type":"Kreisangehörige_Gemeinde"},"district":{"key":"08426","name":"Biberach","type":"Landkreis"},"federalState":{"key":"08","name":"Baden-Württemberg"}},{"name":"Florian-Geyer-Str.","postalCode":"88400","locality":"Biberach an der Riß","municipality":{"key":"08426021","name":"Biberach an der Riß, Stadt","type":"Große_Kreisstadt"},"district":{"key":"08426","name":"Biberach","type":"Landkreis"},"federalState":{"key":"08","name":"Baden-Württemberg"}},{"name":"Fohrenweg","postalCode":"88400","locality":"Biberach an der Riß","municipality":{"key":"08426021","name":"Biberach an der Riß, Stadt","type":"Große_Kreisstadt"},"district":{"key":"08426","name":"Biberach","type":"Landkreis"},"federalState":{"key":"08","name":"Baden-Württemberg"}},{"name":"Forststr.","postalCode":"88441","locality":"Mittelbiberach","municipality":{"key":"08426074","name":"Mittelbiberach","type":"Kreisangehörige_Gemeinde"},"district":{"key":"08426","name":"Biberach","type":"Landkreis"},"federalState":{"key":"08","name":"Baden-Württemberg"}},{"name":"Franzfeldweg","postalCode":"88400","locality":"Biberach an der Riß","municipality":{"key":"08426021","name":"Biberach an der Riß, Stadt","type":"Große_Kreisstadt"},"district":{"key":"08426","name":"Biberach","type":"Landkreis"},"federalState":{"key":"08","name":"Baden-Württemberg"}},{"name":"Friedenslinde","postalCode":"88441","locality":"Mittelbiberach","municipality":{"key":"08426074","name":"Mittelbiberach","type":"Kreisangehörige_Gemeinde"},"district":{"key":"08426","name":"Biberach","type":"Landkreis"},"federalState":{"key":"08","name":"Baden-Württemberg"}},{"name":"Friedenstr.","postalCode":"77781","locality":"Biberach","municipality":{"key":"08317011","name":"Biberach","type":"Kreisangehörige_Gemeinde"},"district":{"key":"08317","name":"Ortenaukreis","type":"Landkreis"},"federalState":{"key":"08","name":"Baden-Württemberg"}},{"name":"Friedhofweg","postalCode":"88400","locality":"Biberach an der Riß","municipality":{"key":"08426021","name":"Biberach an der Riß, Stadt","type":"Große_Kreisstadt"},"district":{"key":"08426","name":"Biberach","type":"Landkreis"},"federalState":{"key":"08","name":"Baden-Württemberg"}},{"name":"Friedrich-Ebert-Str.","postalCode":"88400","locality":"Biberach an der Riß","municipality":{"key":"08426021","name":"Biberach an der Riß, Stadt","type":"Große_Kreisstadt"},"district":{"key":"08426","name":"Biberach","type":"Landkreis"},"federalState":{"key":"08","name":"Baden-Württemberg"}},{"name":"Friedrich-Goll-Weg","postalCode":"88400","locality":"Biberach an der Riß","municipality":{"key":"08426021","name":"Biberach an der Riß, Stadt","type":"Große_Kreisstadt"},"district":{"key":"08426","name":"Biberach","type":"Landkreis"},"federalState":{"key":"08","name":"Baden-Württemberg"}},{"name":"Friedrich-Kaiser-Str.","postalCode":"88400","locality":"Biberach an der Riß","municipality":{"key":"08426021","name":"Biberach an der Riß, Stadt","type":"Große_Kreisstadt"},"district":{"key":"08426","name":"Biberach","type":"Landkreis"},"federalState":{"key":"08","name":"Baden-Württemberg"}},{"name":"Fritz-Erler-Str.","postalCode":"88400","locality":"Biberach an der Riß","municipality":{"key":"08426021","name":"Biberach an der Riß, Stadt","type":"Große_Kreisstadt"},"district":{"key":"08426","name":"Biberach","type":"Landkreis"},"federalState":{"key":"08","name":"Baden-Württemberg"}},{"name":"Fritz-Lieb-Str.","postalCode":"88400","locality":"Biberach an der Riß","municipality":{"key":"08426021","name":"Biberach an der Riß, Stadt","type":"Große_Kreisstadt"},"district":{"key":"08426","name":"Biberach","type":"Landkreis"},"federalState":{"key":"08","name":"Baden-Württemberg"}},{"name":"Fröschbacher Str.","postalCode":"77781","locality":"Biberach","municipality":{"key":"08317011","name":"Biberach","type":"Kreisangehörige_Gemeinde"},"district":{"key":"08317","name":"Ortenaukreis","type":"Landkreis"},"federalState":{"key":"08","name":"Baden-Württemberg"}},{"name":"Fünf Linden","postalCode":"88400","locality":"Biberach an der Riß","municipality":{"key":"08426021","name":"Biberach an der Riß, Stadt","type":"Große_Kreisstadt"},"district":{"key":"08426","name":"Biberach","type":"Landkreis"},"federalState":{"key":"08","name":"Baden-Württemberg"}},{"name":"Gaisentalstr.","postalCode":"88400","locality":"Biberach an der Riß","municipality":{"key":"08426021","name":"Biberach an der Riß, Stadt","type":"Große_Kreisstadt"},"district":{"key":"08426","name":"Biberach","type":"Landkreis"},"federalState":{"key":"08","name":"Baden-Württemberg"}},{"name":"Galgenbergstr.","postalCode":"88441","locality":"Mittelbiberach","municipality":{"key":"08426074","name":"Mittelbiberach","type":"Kreisangehörige_Gemeinde"},"district":{"key":"08426","name":"Biberach","type":"Landkreis"},"federalState":{"key":"08","name":"Baden-Württemberg"}},{"name":"Gartenäcker","postalCode":"88441","locality":"Mittelbiberach","municipality":{"key":"08426074","name":"Mittelbiberach","type":"Kreisangehörige_Gemeinde"},"district":{"key":"08426","name":"Biberach","type":"Landkreis"},"federalState":{"key":"08","name":"Baden-Württemberg"}},{"name":"Gartenstr.","postalCode":"77781","locality":"Biberach","municipality":{"key":"08317011","name":"Biberach","type":"Kreisangehörige_Gemeinde"},"district":{"key":"08317","name":"Ortenaukreis","type":"Landkreis"},"federalState":{"key":"08","name":"Baden-Württemberg"}},{"name":"Gartenstr.","postalCode":"88400","locality":"Biberach an der Riß","municipality":{"key":"08426021","name":"Biberach an der Riß, Stadt","type":"Große_Kreisstadt"},"district":{"key":"08426","name":"Biberach","type":"Landkreis"},"federalState":{"key":"08","name":"Baden-Württemberg"}},{"name":"Gartenstr.","postalCode":"88441","locality":"Mittelbiberach","municipality":{"key":"08426074","name":"Mittelbiberach","type":"Kreisangehörige_Gemeinde"},"district":{"key":"08426","name":"Biberach","type":"Landkreis"},"federalState":{"key":"08","name":"Baden-Württemberg"}},{"name":"Gartenweg","postalCode":"88400","locality":"Biberach an der Riß","municipality":{"key":"08426021","name":"Biberach an der Riß, Stadt","type":"Große_Kreisstadt"},"district":{"key":"08426","name":"Biberach","type":"Landkreis"},"federalState":{"key":"08","name":"Baden-Württemberg"}},{"name":"Gärtnerweg","postalCode":"77781","locality":"Biberach","municipality":{"key":"08317011","name":"Biberach","type":"Kreisangehörige_Gemeinde"},"district":{"key":"08317","name":"Ortenaukreis","type":"Landkreis"},"federalState":{"key":"08","name":"Baden-Württemberg"}},{"name":"Georg-Ignatius-Baur-Str.","postalCode":"88400","locality":"Biberach an der Riß","municipality":{"key":"08426021","name":"Biberach an der Riß, Stadt","type":"Große_Kreisstadt"},"district":{"key":"08426","name":"Biberach","type":"Landkreis"},"federalState":{"key":"08","name":"Baden-Württemberg"}},{"name":"Georg-Schinbain-Str.","postalCode":"88400","locality":"Biberach an der Riß","municipality":{"key":"08426021","name":"Biberach an der Riß, Stadt","type":"Große_Kreisstadt"},"district":{"key":"08426","name":"Biberach","type":"Landkreis"},"federalState":{"key":"08","name":"Baden-Württemberg"}},{"name":"Gerbergasse","postalCode":"88400","locality":"Biberach an der Riß","municipality":{"key":"08426021","name":"Biberach an der Riß, Stadt","type":"Große_Kreisstadt"},"district":{"key":"08426","name":"Biberach","type":"Landkreis"},"federalState":{"key":"08","name":"Baden-Württemberg"}},{"name":"Gerhard-Storz-Str.","postalCode":"88400","locality":"Biberach an der Riß","municipality":{"key":"08426021","name":"Biberach an der Riß, Stadt","type":"Große_Kreisstadt"},"district":{"key":"08426","name":"Biberach","type":"Landkreis"},"federalState":{"key":"08","name":"Baden-Württemberg"}},{"name":"Geroldseckstr.","postalCode":"77781","locality":"Biberach","municipality":{"key":"08317011","name":"Biberach","type":"Kreisangehörige_Gemeinde"},"district":{"key":"08317","name":"Ortenaukreis","type":"Landkreis"},"federalState":{"key":"08","name":"Baden-Württemberg"}},{"name":"Geschwister-Rommer-Weg","postalCode":"88400","locality":"Biberach an der Riß","municipality":{"key":"08426021","name":"Biberach an der Riß, Stadt","type":"Große_Kreisstadt"},"district":{"key":"08426","name":"Biberach","type":"Landkreis"},"federalState":{"key":"08","name":"Baden-Württemberg"}},{"name":"Geschwister-Scholl-Str.","postalCode":"88400","locality":"Biberach an der Riß","municipality":{"key":"08426021","name":"Biberach an der Riß, Stadt","type":"Große_Kreisstadt"},"district":{"key":"08426","name":"Biberach","type":"Landkreis"},"federalState":{"key":"08","name":"Baden-Württemberg"}},{"name":"Giesenweg","postalCode":"77781","locality":"Biberach","municipality":{"key":"08317011","name":"Biberach","type":"Kreisangehörige_Gemeinde"},"district":{"key":"08317","name":"Ortenaukreis","type":"Landkreis"},"federalState":{"key":"08","name":"Baden-Württemberg"}},{"name":"Gießübelgasse","postalCode":"88400","locality":"Biberach an der Riß","municipality":{"key":"08426021","name":"Biberach an der Riß, Stadt","type":"Große_Kreisstadt"},"district":{"key":"08426","name":"Biberach","type":"Landkreis"},"federalState":{"key":"08","name":"Baden-Württemberg"}},{"name":"Gigelbergstr.","postalCode":"88400","locality":"Biberach an der Riß","municipality":{"key":"08426021","name":"Biberach an der Riß, Stadt","type":"Große_Kreisstadt"},"district":{"key":"08426","name":"Biberach","type":"Landkreis"},"federalState":{"key":"08","name":"Baden-Württemberg"}},{"name":"Ginsterhalde","postalCode":"88400","locality":"Biberach an der Riß","municipality":{"key":"08426021","name":"Biberach an der Riß, Stadt","type":"Große_Kreisstadt"},"district":{"key":"08426","name":"Biberach","type":"Landkreis"},"federalState":{"key":"08","name":"Baden-Württemberg"}},{"name":"Ginsterweg","postalCode":"88441","locality":"Mittelbiberach","municipality":{"key":"08426074","name":"Mittelbiberach","type":"Kreisangehörige_Gemeinde"},"district":{"key":"08426","name":"Biberach","type":"Landkreis"},"federalState":{"key":"08","name":"Baden-Württemberg"}},{"name":"Gletscherweg","postalCode":"88400","locality":"Biberach an der Riß","municipality":{"key":"08426021","name":"Biberach an der Riß, Stadt","type":"Große_Kreisstadt"},"district":{"key":"08426","name":"Biberach","type":"Landkreis"},"federalState":{"key":"08","name":"Baden-Württemberg"}},{"name":"Glockengasse","postalCode":"88400","locality":"Biberach an der Riß","municipality":{"key":"08426021","name":"Biberach an der Riß, Stadt","type":"Große_Kreisstadt"},"district":{"key":"08426","name":"Biberach","type":"Landkreis"},"federalState":{"key":"08","name":"Baden-Württemberg"}},{"name":"Goethestr.","postalCode":"88441","locality":"Mittelbiberach","municipality":{"key":"08426074","name":"Mittelbiberach","type":"Kreisangehörige_Gemeinde"},"district":{"key":"08426","name":"Biberach","type":"Landkreis"},"federalState":{"key":"08","name":"Baden-Württemberg"}},{"name":"Goetheweg","postalCode":"88400","locality":"Biberach an der Riß","municipality":{"key":"08426021","name":"Biberach an der Riß, Stadt","type":"Große_Kreisstadt"},"district":{"key":"08426","name":"Biberach","type":"Landkreis"},"federalState":{"key":"08","name":"Baden-Württemberg"}},{"name":"Görlitzweg","postalCode":"88400","locality":"Biberach an der Riß","municipality":{"key":"08426021","name":"Biberach an der Riß, Stadt","type":"Große_Kreisstadt"},"district":{"key":"08426","name":"Biberach","type":"Landkreis"},"federalState":{"key":"08","name":"Baden-Württemberg"}},{"name":"Grabengasse","postalCode":"88400","locality":"Biberach an der Riß","municipality":{"key":"08426021","name":"Biberach an der Riß, Stadt","type":"Große_Kreisstadt"},"district":{"key":"08426","name":"Biberach","type":"Landkreis"},"federalState":{"key":"08","name":"Baden-Württemberg"}},{"name":"Grangetweg","postalCode":"77781","locality":"Biberach","municipality":{"key":"08317011","name":"Biberach","type":"Kreisangehörige_Gemeinde"},"district":{"key":"08317","name":"Ortenaukreis","type":"Landkreis"},"federalState":{"key":"08","name":"Baden-Württemberg"}},{"name":"Grüner Weg","postalCode":"88400","locality":"Biberach an der Riß","municipality":{"key":"08426021","name":"Biberach an der Riß, Stadt","type":"Große_Kreisstadt"},"district":{"key":"08426","name":"Biberach","type":"Landkreis"},"federalState":{"key":"08","name":"Baden-Württemberg"}},{"name":"Grüner Weg","postalCode":"88441","locality":"Mittelbiberach","municipality":{"key":"08426074","name":"Mittelbiberach","type":"Kreisangehörige_Gemeinde"},"district":{"key":"08426","name":"Biberach","type":"Landkreis"},"federalState":{"key":"08","name":"Baden-Württemberg"}},{"name":"Guernseyallee","postalCode":"88400","locality":"Biberach an der Riß","municipality":{"key":"08426021","name":"Biberach an der Riß, Stadt","type":"Große_Kreisstadt"},"district":{"key":"08426","name":"Biberach","type":"Landkreis"},"federalState":{"key":"08","name":"Baden-Württemberg"}},{"name":"Guntiusweg","postalCode":"88400","locality":"Biberach an der Riß","municipality":{"key":"08426021","name":"Biberach an der Riß, Stadt","type":"Große_Kreisstadt"},"district":{"key":"08426","name":"Biberach","type":"Landkreis"},"federalState":{"key":"08","name":"Baden-Württemberg"}},{"name":"Gustav-Gerster-Str.","postalCode":"88400","locality":"Biberach an der Riß","municipality":{"key":"08426021","name":"Biberach an der Riß, Stadt","type":"Große_Kreisstadt"},"district":{"key":"08426","name":"Biberach","type":"Landkreis"},"federalState":{"key":"08","name":"Baden-Württemberg"}},{"name":"Gustav-Maerz-Str.","postalCode":"88400","locality":"Biberach an der Riß","municipality":{"key":"08426021","name":"Biberach an der Riß, Stadt","type":"Große_Kreisstadt"},"district":{"key":"08426","name":"Biberach","type":"Landkreis"},"federalState":{"key":"08","name":"Baden-Württemberg"}},{"name":"Gustav-Reich-Str.","postalCode":"88400","locality":"Biberach an der Riß","municipality":{"key":"08426021","name":"Biberach an der Riß, Stadt","type":"Große_Kreisstadt"},"district":{"key":"08426","name":"Biberach","type":"Landkreis"},"federalState":{"key":"08","name":"Baden-Württemberg"}},{"name":"Guttenbrunnweg","postalCode":"88400","locality":"Biberach an der Riß","municipality":{"key":"08426021","name":"Biberach an der Riß, Stadt","type":"Große_Kreisstadt"},"district":{"key":"08426","name":"Biberach","type":"Landkreis"},"federalState":{"key":"08","name":"Baden-Württemberg"}},{"name":"Gymnasiumstr.","postalCode":"88400","locality":"Biberach an der Riß","municipality":{"key":"08426021","name":"Biberach an der Riß, Stadt","type":"Große_Kreisstadt"},"district":{"key":"08426","name":"Biberach","type":"Landkreis"},"federalState":{"key":"08","name":"Baden-Württemberg"}},{"name":"Hirtenwinkel","postalCode":"88422","locality":"Betzenweiler","municipality":{"key":"08426020","name":"Betzenweiler","type":"Kreisangehörige_Gemeinde"},"district":{"key":"08426","name":"Biberach","type":"Landkreis"},"federalState":{"key":"08","name":"Baden-Württemberg"}},{"name":"Im Alten Berg","postalCode":"88400","locality":"Biberach an der Riß","municipality":{"key":"08426021","name":"Biberach an der Riß, Stadt","type":"Große_Kreisstadt"},"district":{"key":"08426","name":"Biberach","type":"Landkreis"},"federalState":{"key":"08","name":"Baden-Württemberg"}},{"name":"Im Fälchle","postalCode":"88400","locality":"Biberach an der Riß","municipality":{"key":"08426021","name":"Biberach an der Riß, Stadt","type":"Große_Kreisstadt"},"district":{"key":"08426","name":"Biberach","type":"Landkreis"},"federalState":{"key":"08","name":"Baden-Württemberg"}},{"name":"Im Forstgarten","postalCode":"88400","locality":"Biberach an der Riß","municipality":{"key":"08426021","name":"Biberach an der Riß, Stadt","type":"Große_Kreisstadt"},"district":{"key":"08426","name":"Biberach","type":"Landkreis"},"federalState":{"key":"08","name":"Baden-Württemberg"}},{"name":"Im Gansflug","postalCode":"77781","locality":"Biberach","municipality":{"key":"08317011","name":"Biberach","type":"Kreisangehörige_Gemeinde"},"district":{"key":"08317","name":"Ortenaukreis","type":"Landkreis"},"federalState":{"key":"08","name":"Baden-Württemberg"}},{"name":"Im Graben","postalCode":"88400","locality":"Biberach an der Riß","municipality":{"key":"08426021","name":"Biberach an der Riß, Stadt","type":"Große_Kreisstadt"},"district":{"key":"08426","name":"Biberach","type":"Landkreis"},"federalState":{"key":"08","name":"Baden-Württemberg"}},{"name":"Im Großfeld","postalCode":"77781","locality":"Biberach","municipality":{"key":"08317011","name":"Biberach","type":"Kreisangehörige_Gemeinde"},"district":{"key":"08317","name":"Ortenaukreis","type":"Landkreis"},"federalState":{"key":"08","name":"Baden-Württemberg"}},{"name":"Im Grumpen","postalCode":"88400","locality":"Biberach an der Riß","municipality":{"key":"08426021","name":"Biberach an der Riß, Stadt","type":"Große_Kreisstadt"},"district":{"key":"08426","name":"Biberach","type":"Landkreis"},"federalState":{"key":"08","name":"Baden-Württemberg"}},{"name":"Im Mühlengrund","postalCode":"77781","locality":"Biberach","municipality":{"key":"08317011","name":"Biberach","type":"Kreisangehörige_Gemeinde"},"district":{"key":"08317","name":"Ortenaukreis","type":"Landkreis"},"federalState":{"key":"08","name":"Baden-Württemberg"}},{"name":"Im Öschle","postalCode":"88400","locality":"Biberach an der Riß","municipality":{"key":"08426021","name":"Biberach an der Riß, Stadt","type":"Große_Kreisstadt"},"district":{"key":"08426","name":"Biberach","type":"Landkreis"},"federalState":{"key":"08","name":"Baden-Württemberg"}},{"name":"Im Talösch","postalCode":"88400","locality":"Biberach an der Riß","municipality":{"key":"08426021","name":"Biberach an der Riß, Stadt","type":"Große_Kreisstadt"},"district":{"key":"08426","name":"Biberach","type":"Landkreis"},"federalState":{"key":"08","name":"Baden-Württemberg"}},{"name":"Im Weideler","postalCode":"88400","locality":"Biberach an der Riß","municipality":{"key":"08426021","name":"Biberach an der Riß, Stadt","type":"Große_Kreisstadt"},"district":{"key":"08426","name":"Biberach","type":"Landkreis"},"federalState":{"key":"08","name":"Baden-Württemberg"}},{"name":"Im Winkel","postalCode":"88400","locality":"Biberach an der Riß","municipality":{"key":"08426021","name":"Biberach an der Riß, Stadt","type":"Große_Kreisstadt"},"district":{"key":"08426","name":"Biberach","type":"Landkreis"},"federalState":{"key":"08","name":"Baden-Württemberg"}},{"name":"In der Aye","postalCode":"88400","locality":"Biberach an der Riß","municipality":{"key":"08426021","name":"Biberach an der Riß, Stadt","type":"Große_Kreisstadt"},"district":{"key":"08426","name":"Biberach","type":"Landkreis"},"federalState":{"key":"08","name":"Baden-Württemberg"}},{"name":"Jägerpfad","postalCode":"77781","locality":"Biberach","municipality":{"key":"08317011","name":"Biberach","type":"Kreisangehörige_Gemeinde"},"district":{"key":"08317","name":"Ortenaukreis","type":"Landkreis"},"federalState":{"key":"08","name":"Baden-Württemberg"}},{"name":"Jahnstr.","postalCode":"88400","locality":"Biberach an der Riß","municipality":{"key":"08426021","name":"Biberach an der Riß, Stadt","type":"Große_Kreisstadt"},"district":{"key":"08426","name":"Biberach","type":"Landkreis"},"federalState":{"key":"08","name":"Baden-Württemberg"}},{"name":"Jakob-Bräckle-Str.","postalCode":"88400","locality":"Biberach an der Riß","municipality":{"key":"08426021","name":"Biberach an der Riß, Stadt","type":"Große_Kreisstadt"},"district":{"key":"08426","name":"Biberach","type":"Landkreis"},"federalState":{"key":"08","name":"Baden-Württemberg"}},{"name":"Jakob-Emele-Weg","postalCode":"88400","locality":"Biberach an der Riß","municipality":{"key":"08426021","name":"Biberach an der Riß, Stadt","type":"Große_Kreisstadt"},"district":{"key":"08426","name":"Biberach","type":"Landkreis"},"federalState":{"key":"08","name":"Baden-Württemberg"}},{"name":"Jarekstr.","postalCode":"88400","locality":"Biberach an der Riß","municipality":{"key":"08426021","name":"Biberach an der Riß, Stadt","type":"Große_Kreisstadt"},"district":{"key":"08426","name":"Biberach","type":"Landkreis"},"federalState":{"key":"08","name":"Baden-Württemberg"}},{"name":"Jerseyweg","postalCode":"88400","locality":"Biberach an der Riß","municipality":{"key":"08426021","name":"Biberach an der Riß, Stadt","type":"Große_Kreisstadt"},"district":{"key":"08426","name":"Biberach","type":"Landkreis"},"federalState":{"key":"08","name":"Baden-Württemberg"}},{"name":"Johann-Sebastian-Bach-Str.","postalCode":"88400","locality":"Biberach an der Riß","municipality":{"key":"08426021","name":"Biberach an der Riß, Stadt","type":"Große_Kreisstadt"},"district":{"key":"08426","name":"Biberach","type":"Landkreis"},"federalState":{"key":"08","name":"Baden-Württemberg"}},{"name":"Jordanbergweg","postalCode":"88400","locality":"Biberach an der Riß","municipality":{"key":"08426021","name":"Biberach an der Riß, Stadt","type":"Große_Kreisstadt"},"district":{"key":"08426","name":"Biberach","type":"Landkreis"},"federalState":{"key":"08","name":"Baden-Württemberg"}},{"name":"Jordanei","postalCode":"88400","locality":"Biberach an der Riß","municipality":{"key":"08426021","name":"Biberach an der Riß, Stadt","type":"Große_Kreisstadt"},"district":{"key":"08426","name":"Biberach","type":"Landkreis"},"federalState":{"key":"08","name":"Baden-Württemberg"}},{"name":"Josef-Angele-Str.","postalCode":"88400","locality":"Biberach an der Riß","municipality":{"key":"08426021","name":"Biberach an der Riß, Stadt","type":"Große_Kreisstadt"},"district":{"key":"08426","name":"Biberach","type":"Landkreis"},"federalState":{"key":"08","name":"Baden-Württemberg"}},{"name":"Josef-Bühler-Weg","postalCode":"77781","locality":"Biberach","municipality":{"key":"08317011","name":"Biberach","type":"Kreisangehörige_Gemeinde"},"district":{"key":"08317","name":"Ortenaukreis","type":"Landkreis"},"federalState":{"key":"08","name":"Baden-Württemberg"}},{"name":"Josef-Probst-Weg","postalCode":"88400","locality":"Biberach an der Riß","municipality":{"key":"08426021","name":"Biberach an der Riß, Stadt","type":"Große_Kreisstadt"},"district":{"key":"08426","name":"Biberach","type":"Landkreis"},"federalState":{"key":"08","name":"Baden-Württemberg"}},{"name":"Josef-Schenk-Weg","postalCode":"88400","locality":"Biberach an der Riß","municipality":{"key":"08426021","name":"Biberach an der Riß, Stadt","type":"Große_Kreisstadt"},"district":{"key":"08426","name":"Biberach","type":"Landkreis"},"federalState":{"key":"08","name":"Baden-Württemberg"}},{"name":"Jungholzweg","postalCode":"88400","locality":"Biberach an der Riß","municipality":{"key":"08426021","name":"Biberach an der Riß, Stadt","type":"Große_Kreisstadt"},"district":{"key":"08426","name":"Biberach","type":"Landkreis"},"federalState":{"key":"08","name":"Baden-Württemberg"}},{"name":"Juraweg","postalCode":"88400","locality":"Biberach an der Riß","municipality":{"key":"08426021","name":"Biberach an der Riß, Stadt","type":"Große_Kreisstadt"},"district":{"key":"08426","name":"Biberach","type":"Landkreis"},"federalState":{"key":"08","name":"Baden-Württemberg"}},{"name":"Justinus-Heinrich-Knecht-Str.","postalCode":"88400","locality":"Biberach an der Riß","municipality":{"key":"08426021","name":"Biberach an der Riß, Stadt","type":"Große_Kreisstadt"},"district":{"key":"08426","name":"Biberach","type":"Landkreis"},"federalState":{"key":"08","name":"Baden-Württemberg"}},{"name":"Kanzacher Berg","postalCode":"88422","locality":"Betzenweiler","municipality":{"key":"08426020","name":"Betzenweiler","type":"Kreisangehörige_Gemeinde"},"district":{"key":"08426","name":"Biberach","type":"Landkreis"},"federalState":{"key":"08","name":"Baden-Württemberg"}},{"name":"Kanzacher Str.","postalCode":"88422","locality":"Betzenweiler","municipality":{"key":"08426020","name":"Betzenweiler","type":"Kreisangehörige_Gemeinde"},"district":{"key":"08426","name":"Biberach","type":"Landkreis"},"federalState":{"key":"08","name":"Baden-Württemberg"}},{"name":"Kirchenöschle","postalCode":"88422","locality":"Betzenweiler","municipality":{"key":"08426020","name":"Betzenweiler","type":"Kreisangehörige_Gemeinde"},"district":{"key":"08426","name":"Biberach","type":"Landkreis"},"federalState":{"key":"08","name":"Baden-Württemberg"}},{"name":"Kutz","postalCode":"88422","locality":"Betzenweiler","municipality":{"key":"08426020","name":"Betzenweiler","type":"Kreisangehörige_Gemeinde"},"district":{"key":"08426","name":"Biberach","type":"Landkreis"},"federalState":{"key":"08","name":"Baden-Württemberg"}},{"name":"Lamparterweg","postalCode":"88400","locality":"Biberach an der Riß","municipality":{"key":"08426021","name":"Biberach an der Riß, Stadt","type":"Große_Kreisstadt"},"district":{"key":"08426","name":"Biberach","type":"Landkreis"},"federalState":{"key":"08","name":"Baden-Württemberg"}},{"name":"Lange Wiesen","postalCode":"88400","locality":"Biberach an der Riß","municipality":{"key":"08426021","name":"Biberach an der Riß, Stadt","type":"Große_Kreisstadt"},"district":{"key":"08426","name":"Biberach","type":"Landkreis"},"federalState":{"key":"08","name":"Baden-Württemberg"}},{"name":"Lärchenstr.","postalCode":"77781","locality":"Biberach","municipality":{"key":"08317011","name":"Biberach","type":"Kreisangehörige_Gemeinde"},"district":{"key":"08317","name":"Ortenaukreis","type":"Landkreis"},"federalState":{"key":"08","name":"Baden-Württemberg"}},{"name":"Laubenweg","postalCode":"77781","locality":"Biberach","municipality":{"key":"08317011","name":"Biberach","type":"Kreisangehörige_Gemeinde"},"district":{"key":"08317","name":"Ortenaukreis","type":"Landkreis"},"federalState":{"key":"08","name":"Baden-Württemberg"}},{"name":"Laupertshauser Str.","postalCode":"88400","locality":"Biberach an der Riß","municipality":{"key":"08426021","name":"Biberach an der Riß, Stadt","type":"Große_Kreisstadt"},"district":{"key":"08426","name":"Biberach","type":"Landkreis"},"federalState":{"key":"08","name":"Baden-Württemberg"}},{"name":"Laurenbühlstr.","postalCode":"88441","locality":"Mittelbiberach","municipality":{"key":"08426074","name":"Mittelbiberach","type":"Kreisangehörige_Gemeinde"},"district":{"key":"08426","name":"Biberach","type":"Landkreis"},"federalState":{"key":"08","name":"Baden-Württemberg"}},{"name":"Laurenbühlweg","postalCode":"88400","locality":"Biberach an der Riß","municipality":{"key":"08426021","name":"Biberach an der Riß, Stadt","type":"Große_Kreisstadt"},"district":{"key":"08426","name":"Biberach","type":"Landkreis"},"federalState":{"key":"08","name":"Baden-Württemberg"}},{"name":"Legerweg","postalCode":"77781","locality":"Biberach","municipality":{"key":"08317011","name":"Biberach","type":"Kreisangehörige_Gemeinde"},"district":{"key":"08317","name":"Ortenaukreis","type":"Landkreis"},"federalState":{"key":"08","name":"Baden-Württemberg"}},{"name":"Leimelerstr.","postalCode":"88400","locality":"Biberach an der Riß","municipality":{"key":"08426021","name":"Biberach an der Riß, Stadt","type":"Große_Kreisstadt"},"district":{"key":"08426","name":"Biberach","type":"Landkreis"},"federalState":{"key":"08","name":"Baden-Württemberg"}},{"name":"Leimenäcker","postalCode":"77781","locality":"Biberach","municipality":{"key":"08317011","name":"Biberach","type":"Kreisangehörige_Gemeinde"},"district":{"key":"08317","name":"Ortenaukreis","type":"Landkreis"},"federalState":{"key":"08","name":"Baden-Württemberg"}},{"name":"Leipzigstr.","postalCode":"88400","locality":"Biberach an der Riß","municipality":{"key":"08426021","name":"Biberach an der Riß, Stadt","type":"Große_Kreisstadt"},"district":{"key":"08426","name":"Biberach","type":"Landkreis"},"federalState":{"key":"08","name":"Baden-Württemberg"}},{"name":"Lerchenweg","postalCode":"88400","locality":"Biberach an der Riß","municipality":{"key":"08426021","name":"Biberach an der Riß, Stadt","type":"Große_Kreisstadt"},"district":{"key":"08426","name":"Biberach","type":"Landkreis"},"federalState":{"key":"08","name":"Baden-Württemberg"}},{"name":"Lilienstr.","postalCode":"88441","locality":"Mittelbiberach","municipality":{"key":"08426074","name":"Mittelbiberach","type":"Kreisangehörige_Gemeinde"},"district":{"key":"08426","name":"Biberach","type":"Landkreis"},"federalState":{"key":"08","name":"Baden-Württemberg"}},{"name":"Lindele","postalCode":"88400","locality":"Biberach an der Riß","municipality":{"key":"08426021","name":"Biberach an der Riß, Stadt","type":"Große_Kreisstadt"},"district":{"key":"08426","name":"Biberach","type":"Landkreis"},"federalState":{"key":"08","name":"Baden-Württemberg"}},{"name":"Lindelestr.","postalCode":"88400","locality":"Biberach an der Riß","municipality":{"key":"08426021","name":"Biberach an der Riß, Stadt","type":"Große_Kreisstadt"},"district":{"key":"08426","name":"Biberach","type":"Landkreis"},"federalState":{"key":"08","name":"Baden-Württemberg"}},{"name":"Lindenstr.","postalCode":"77781","locality":"Biberach","municipality":{"key":"08317011","name":"Biberach","type":"Kreisangehörige_Gemeinde"},"district":{"key":"08317","name":"Ortenaukreis","type":"Landkreis"},"federalState":{"key":"08","name":"Baden-Württemberg"}},{"name":"Lindenstr.","postalCode":"88441","locality":"Mittelbiberach","municipality":{"key":"08426074","name":"Mittelbiberach","type":"Kreisangehörige_Gemeinde"},"district":{"key":"08426","name":"Biberach","type":"Landkreis"},"federalState":{"key":"08","name":"Baden-Württemberg"}},{"name":"Löcherstr.","postalCode":"88400","locality":"Biberach an der Riß","municipality":{"key":"08426021","name":"Biberach an der Riß, Stadt","type":"Große_Kreisstadt"},"district":{"key":"08426","name":"Biberach","type":"Landkreis"},"federalState":{"key":"08","name":"Baden-Württemberg"}},{"name":"Lukas-Seidler-Weg","postalCode":"88400","locality":"Biberach an der Riß","municipality":{"key":"08426021","name":"Biberach an der Riß, Stadt","type":"Große_Kreisstadt"},"district":{"key":"08426","name":"Biberach","type":"Landkreis"},"federalState":{"key":"08","name":"Baden-Württemberg"}},{"name":"Lupinstr.","postalCode":"88400","locality":"Biberach an der Riß","municipality":{"key":"08426021","name":"Biberach an der Riß, Stadt","type":"Große_Kreisstadt"},"district":{"key":"08426","name":"Biberach","type":"Landkreis"},"federalState":{"key":"08","name":"Baden-Württemberg"}},{"name":"Magnolienweg","postalCode":"88400","locality":"Biberach an der Riß","municipality":{"key":"08426021","name":"Biberach an der Riß, Stadt","type":"Große_Kreisstadt"},"district":{"key":"08426","name":"Biberach","type":"Landkreis"},"federalState":{"key":"08","name":"Baden-Württemberg"}},{"name":"Maierhofstr.","postalCode":"88441","locality":"Mittelbiberach","municipality":{"key":"08426074","name":"Mittelbiberach","type":"Kreisangehörige_Gemeinde"},"district":{"key":"08426","name":"Biberach","type":"Landkreis"},"federalState":{"key":"08","name":"Baden-Württemberg"}},{"name":"Maiwiesen","postalCode":"88400","locality":"Biberach an der Riß","municipality":{"key":"08426021","name":"Biberach an der Riß, Stadt","type":"Große_Kreisstadt"},"district":{"key":"08426","name":"Biberach","type":"Landkreis"},"federalState":{"key":"08","name":"Baden-Württemberg"}},{"name":"Maliweg","postalCode":"88400","locality":"Biberach an der Riß","municipality":{"key":"08426021","name":"Biberach an der Riß, Stadt","type":"Große_Kreisstadt"},"district":{"key":"08426","name":"Biberach","type":"Landkreis"},"federalState":{"key":"08","name":"Baden-Württemberg"}},{"name":"Maria-Menz-Weg","postalCode":"88400","locality":"Biberach an der Riß","municipality":{"key":"08426021","name":"Biberach an der Riß, Stadt","type":"Große_Kreisstadt"},"district":{"key":"08426","name":"Biberach","type":"Landkreis"},"federalState":{"key":"08","name":"Baden-Württemberg"}},{"name":"Maria-Müller-Gögler-Weg","postalCode":"88400","locality":"Biberach an der Riß","municipality":{"key":"08426021","name":"Biberach an der Riß, Stadt","type":"Große_Kreisstadt"},"district":{"key":"08426","name":"Biberach","type":"Landkreis"},"federalState":{"key":"08","name":"Baden-Württemberg"}},{"name":"Marie-Curie-Str.","postalCode":"88400","locality":"Biberach an der Riß","municipality":{"key":"08426021","name":"Biberach an der Riß, Stadt","type":"Große_Kreisstadt"},"district":{"key":"08426","name":"Biberach","type":"Landkreis"},"federalState":{"key":"08","name":"Baden-Württemberg"}},{"name":"Marktplatz","postalCode":"88400","locality":"Biberach an der Riß","municipality":{"key":"08426021","name":"Biberach an der Riß, Stadt","type":"Große_Kreisstadt"},"district":{"key":"08426","name":"Biberach","type":"Landkreis"},"federalState":{"key":"08","name":"Baden-Württemberg"}},{"name":"Martin-Luther-Str.","postalCode":"88400","locality":"Biberach an der Riß","municipality":{"key":"08426021","name":"Biberach an der Riß, Stadt","type":"Große_Kreisstadt"},"district":{"key":"08426","name":"Biberach","type":"Landkreis"},"federalState":{"key":"08","name":"Baden-Württemberg"}},{"name":"Martinstr.","postalCode":"88400","locality":"Biberach an der Riß","municipality":{"key":"08426021","name":"Biberach an der Riß, Stadt","type":"Große_Kreisstadt"},"district":{"key":"08426","name":"Biberach","type":"Landkreis"},"federalState":{"key":"08","name":"Baden-Württemberg"}},{"name":"Matthias-Erzberger-Str.","postalCode":"88400","locality":"Biberach an der Riß","municipality":{"key":"08426021","name":"Biberach an der Riß, Stadt","type":"Große_Kreisstadt"},"district":{"key":"08426","name":"Biberach","type":"Landkreis"},"federalState":{"key":"08","name":"Baden-Württemberg"}},{"name":"Max-Eyth-Str.","postalCode":"88400","locality":"Biberach an der Riß","municipality":{"key":"08426021","name":"Biberach an der Riß, Stadt","type":"Große_Kreisstadt"},"district":{"key":"08426","name":"Biberach","type":"Landkreis"},"federalState":{"key":"08","name":"Baden-Württemberg"}},{"name":"Meisenweg","postalCode":"88400","locality":"Biberach an der Riß","municipality":{"key":"08426021","name":"Biberach an der Riß, Stadt","type":"Große_Kreisstadt"},"district":{"key":"08426","name":"Biberach","type":"Landkreis"},"federalState":{"key":"08","name":"Baden-Württemberg"}},{"name":"Memelstr.","postalCode":"88400","locality":"Biberach an der Riß","municipality":{"key":"08426021","name":"Biberach an der Riß, Stadt","type":"Große_Kreisstadt"},"district":{"key":"08426","name":"Biberach","type":"Landkreis"},"federalState":{"key":"08","name":"Baden-Württemberg"}},{"name":"Memminger Str.","postalCode":"88400","locality":"Biberach an der Riß","municipality":{"key":"08426021","name":"Biberach an der Riß, Stadt","type":"Große_Kreisstadt"},"district":{"key":"08426","name":"Biberach","type":"Landkreis"},"federalState":{"key":"08","name":"Baden-Württemberg"}},{"name":"Mettenberger Str.","postalCode":"88400","locality":"Biberach an der Riß","municipality":{"key":"08426021","name":"Biberach an der Riß, Stadt","type":"Große_Kreisstadt"},"district":{"key":"08426","name":"Biberach","type":"Landkreis"},"federalState":{"key":"08","name":"Baden-Württemberg"}},{"name":"Mettenberger Weg","postalCode":"88400","locality":"Biberach an der Riß","municipality":{"key":"08426021","name":"Biberach an der Riß, Stadt","type":"Große_Kreisstadt"},"district":{"key":"08426","name":"Biberach","type":"Landkreis"},"federalState":{"key":"08","name":"Baden-Württemberg"}},{"name":"Michael-Mohr-Weg","postalCode":"88400","locality":"Biberach an der Riß","municipality":{"key":"08426021","name":"Biberach an der Riß, Stadt","type":"Große_Kreisstadt"},"district":{"key":"08426","name":"Biberach","type":"Landkreis"},"federalState":{"key":"08","name":"Baden-Württemberg"}},{"name":"Mildred-Scheel-Weg","postalCode":"88400","locality":"Biberach an der Riß","municipality":{"key":"08426021","name":"Biberach an der Riß, Stadt","type":"Große_Kreisstadt"},"district":{"key":"08426","name":"Biberach","type":"Landkreis"},"federalState":{"key":"08","name":"Baden-Württemberg"}},{"name":"Mistelweg","postalCode":"88400","locality":"Biberach an der Riß","municipality":{"key":"08426021","name":"Biberach an der Riß, Stadt","type":"Große_Kreisstadt"},"district":{"key":"08426","name":"Biberach","type":"Landkreis"},"federalState":{"key":"08","name":"Baden-Württemberg"}},{"name":"Mittelbergstr.","postalCode":"88400","locality":"Biberach an der Riß","municipality":{"key":"08426021","name":"Biberach an der Riß, Stadt","type":"Große_Kreisstadt"},"district":{"key":"08426","name":"Biberach","type":"Landkreis"},"federalState":{"key":"08","name":"Baden-Württemberg"}},{"name":"Mittelbiberacher Steige","postalCode":"88400","locality":"Biberach an der Riß","municipality":{"key":"08426021","name":"Biberach an der Riß, Stadt","type":"Große_Kreisstadt"},"district":{"key":"08426","name":"Biberach","type":"Landkreis"},"federalState":{"key":"08","name":"Baden-Württemberg"}},{"name":"Mittelbiberacher Str.","postalCode":"88441","locality":"Mittelbiberach","municipality":{"key":"08426074","name":"Mittelbiberach","type":"Kreisangehörige_Gemeinde"},"district":{"key":"08426","name":"Biberach","type":"Landkreis"},"federalState":{"key":"08","name":"Baden-Württemberg"}},{"name":"Mittelbucher Str.","postalCode":"88400","locality":"Biberach an der Riß","municipality":{"key":"08426021","name":"Biberach an der Riß, Stadt","type":"Große_Kreisstadt"},"district":{"key":"08426","name":"Biberach","type":"Landkreis"},"federalState":{"key":"08","name":"Baden-Württemberg"}},{"name":"Mittelbuhlweg","postalCode":"77781","locality":"Biberach","municipality":{"key":"08317011","name":"Biberach","type":"Kreisangehörige_Gemeinde"},"district":{"key":"08317","name":"Ortenaukreis","type":"Landkreis"},"federalState":{"key":"08","name":"Baden-Württemberg"}},{"name":"Mitteldorfstr.","postalCode":"77781","locality":"Biberach","municipality":{"key":"08317011","name":"Biberach","type":"Kreisangehörige_Gemeinde"},"district":{"key":"08317","name":"Ortenaukreis","type":"Landkreis"},"federalState":{"key":"08","name":"Baden-Württemberg"}},{"name":"Mittelgasse","postalCode":"88400","locality":"Biberach an der Riß","municipality":{"key":"08426021","name":"Biberach an der Riß, Stadt","type":"Große_Kreisstadt"},"district":{"key":"08426","name":"Biberach","type":"Landkreis"},"federalState":{"key":"08","name":"Baden-Württemberg"}},{"name":"Mondstr.","postalCode":"88400","locality":"Biberach an der Riß","municipality":{"key":"08426021","name":"Biberach an der Riß, Stadt","type":"Große_Kreisstadt"},"district":{"key":"08426","name":"Biberach","type":"Landkreis"},"federalState":{"key":"08","name":"Baden-Württemberg"}},{"name":"Mörikestr.","postalCode":"88400","locality":"Biberach an der Riß","municipality":{"key":"08426021","name":"Biberach an der Riß, Stadt","type":"Große_Kreisstadt"},"district":{"key":"08426","name":"Biberach","type":"Landkreis"},"federalState":{"key":"08","name":"Baden-Württemberg"}},{"name":"Mörikeweg","postalCode":"88441","locality":"Mittelbiberach","municipality":{"key":"08426074","name":"Mittelbiberach","type":"Kreisangehörige_Gemeinde"},"district":{"key":"08426","name":"Biberach","type":"Landkreis"},"federalState":{"key":"08","name":"Baden-Württemberg"}},{"name":"Mozartstr.","postalCode":"88400","locality":"Biberach an der Riß","municipality":{"key":"08426021","name":"Biberach an der Riß, Stadt","type":"Große_Kreisstadt"},"district":{"key":"08426","name":"Biberach","type":"Landkreis"},"federalState":{"key":"08","name":"Baden-Württemberg"}},{"name":"Mozartstr.","postalCode":"88441","locality":"Mittelbiberach","municipality":{"key":"08426074","name":"Mittelbiberach","type":"Kreisangehörige_Gemeinde"},"district":{"key":"08426","name":"Biberach","type":"Landkreis"},"federalState":{"key":"08","name":"Baden-Württemberg"}},{"name":"Mühlenstr.","postalCode":"77781","locality":"Biberach","municipality":{"key":"08317011","name":"Biberach","type":"Kreisangehörige_Gemeinde"},"district":{"key":"08317","name":"Ortenaukreis","type":"Landkreis"},"federalState":{"key":"08","name":"Baden-Württemberg"}},{"name":"Mühlenweg","postalCode":"77781","locality":"Biberach","municipality":{"key":"08317011","name":"Biberach","type":"Kreisangehörige_Gemeinde"},"district":{"key":"08317","name":"Ortenaukreis","type":"Landkreis"},"federalState":{"key":"08","name":"Baden-Württemberg"}},{"name":"Mühlgartenstr.","postalCode":"77781","locality":"Biberach","municipality":{"key":"08317011","name":"Biberach","type":"Kreisangehörige_Gemeinde"},"district":{"key":"08317","name":"Ortenaukreis","type":"Landkreis"},"federalState":{"key":"08","name":"Baden-Württemberg"}},{"name":"Mühlweg","postalCode":"88400","locality":"Biberach an der Riß","municipality":{"key":"08426021","name":"Biberach an der Riß, Stadt","type":"Große_Kreisstadt"},"district":{"key":"08426","name":"Biberach","type":"Landkreis"},"federalState":{"key":"08","name":"Baden-Württemberg"}},{"name":"Museumstr.","postalCode":"88400","locality":"Biberach an der Riß","municipality":{"key":"08426021","name":"Biberach an der Riß, Stadt","type":"Große_Kreisstadt"},"district":{"key":"08426","name":"Biberach","type":"Landkreis"},"federalState":{"key":"08","name":"Baden-Württemberg"}},{"name":"Neherstr.","postalCode":"88400","locality":"Biberach an der Riß","municipality":{"key":"08426021","name":"Biberach an der Riß, Stadt","type":"Große_Kreisstadt"},"district":{"key":"08426","name":"Biberach","type":"Landkreis"},"federalState":{"key":"08","name":"Baden-Württemberg"}},{"name":"Nelkenweg","postalCode":"88441","locality":"Mittelbiberach","municipality":{"key":"08426074","name":"Mittelbiberach","type":"Kreisangehörige_Gemeinde"},"district":{"key":"08426","name":"Biberach","type":"Landkreis"},"federalState":{"key":"08","name":"Baden-Württemberg"}},{"name":"Neue Gasse","postalCode":"88400","locality":"Biberach an der Riß","municipality":{"key":"08426021","name":"Biberach an der Riß, Stadt","type":"Große_Kreisstadt"},"district":{"key":"08426","name":"Biberach","type":"Landkreis"},"federalState":{"key":"08","name":"Baden-Württemberg"}},{"name":"Neue Heimat","postalCode":"88400","locality":"Biberach an der Riß","municipality":{"key":"08426021","name":"Biberach an der Riß, Stadt","type":"Große_Kreisstadt"},"district":{"key":"08426","name":"Biberach","type":"Landkreis"},"federalState":{"key":"08","name":"Baden-Württemberg"}},{"name":"Neusatzweg","postalCode":"88400","locality":"Biberach an der Riß","municipality":{"key":"08426021","name":"Biberach an der Riß, Stadt","type":"Große_Kreisstadt"},"district":{"key":"08426","name":"Biberach","type":"Landkreis"},"federalState":{"key":"08","name":"Baden-Württemberg"}},{"name":"Nickeleshalde","postalCode":"88400","locality":"Biberach an der Riß","municipality":{"key":"08426021","name":"Biberach an der Riß, Stadt","type":"Große_Kreisstadt"},"district":{"key":"08426","name":"Biberach","type":"Landkreis"},"federalState":{"key":"08","name":"Baden-Württemberg"}},{"name":"Oberdorfer Str.","postalCode":"88441","locality":"Mittelbiberach","municipality":{"key":"08426074","name":"Mittelbiberach","type":"Kreisangehörige_Gemeinde"},"district":{"key":"08426","name":"Biberach","type":"Landkreis"},"federalState":{"key":"08","name":"Baden-Württemberg"}},{"name":"Obere Au","postalCode":"88400","locality":"Biberach an der Riß","municipality":{"key":"08426021","name":"Biberach an der Riß, Stadt","type":"Große_Kreisstadt"},"district":{"key":"08426","name":"Biberach","type":"Landkreis"},"federalState":{"key":"08","name":"Baden-Württemberg"}},{"name":"Oberer Bühl","postalCode":"88400","locality":"Biberach an der Riß","municipality":{"key":"08426021","name":"Biberach an der Riß, Stadt","type":"Große_Kreisstadt"},"district":{"key":"08426","name":"Biberach","type":"Landkreis"},"federalState":{"key":"08","name":"Baden-Württemberg"}},{"name":"Oberer Kirchweg","postalCode":"88441","locality":"Mittelbiberach","municipality":{"key":"08426074","name":"Mittelbiberach","type":"Kreisangehörige_Gemeinde"},"district":{"key":"08426","name":"Biberach","type":"Landkreis"},"federalState":{"key":"08","name":"Baden-Württemberg"}},{"name":"Obere Schügelestr.","postalCode":"88441","locality":"Mittelbiberach","municipality":{"key":"08426074","name":"Mittelbiberach","type":"Kreisangehörige_Gemeinde"},"district":{"key":"08426","name":"Biberach","type":"Landkreis"},"federalState":{"key":"08","name":"Baden-Württemberg"}},{"name":"Obere Stegwiesen","postalCode":"88400","locality":"Biberach an der Riß","municipality":{"key":"08426021","name":"Biberach an der Riß, Stadt","type":"Große_Kreisstadt"},"district":{"key":"08426","name":"Biberach","type":"Landkreis"},"federalState":{"key":"08","name":"Baden-Württemberg"}},{"name":"Obere Str.","postalCode":"88400","locality":"Biberach an der Riß","municipality":{"key":"08426021","name":"Biberach an der Riß, Stadt","type":"Große_Kreisstadt"},"district":{"key":"08426","name":"Biberach","type":"Landkreis"},"federalState":{"key":"08","name":"Baden-Württemberg"}},{"name":"Obstmarkt","postalCode":"88400","locality":"Biberach an der Riß","municipality":{"key":"08426021","name":"Biberach an der Riß, Stadt","type":"Große_Kreisstadt"},"district":{"key":"08426","name":"Biberach","type":"Landkreis"},"federalState":{"key":"08","name":"Baden-Württemberg"}},{"name":"Olgastr.","postalCode":"88400","locality":"Biberach an der Riß","municipality":{"key":"08426021","name":"Biberach an der Riß, Stadt","type":"Große_Kreisstadt"},"district":{"key":"08426","name":"Biberach","type":"Landkreis"},"federalState":{"key":"08","name":"Baden-Württemberg"}},{"name":"Osterbergstr.","postalCode":"88400","locality":"Biberach an der Riß","municipality":{"key":"08426021","name":"Biberach an der Riß, Stadt","type":"Große_Kreisstadt"},"district":{"key":"08426","name":"Biberach","type":"Landkreis"},"federalState":{"key":"08","name":"Baden-Württemberg"}},{"name":"Otto-Schlecht-Str.","postalCode":"88400","locality":"Biberach an der Riß","municipality":{"key":"08426021","name":"Biberach an der Riß, Stadt","type":"Große_Kreisstadt"},"district":{"key":"08426","name":"Biberach","type":"Landkreis"},"federalState":{"key":"08","name":"Baden-Württemberg"}},{"name":"Palmenweg","postalCode":"77781","locality":"Biberach","municipality":{"key":"08317011","name":"Biberach","type":"Kreisangehörige_Gemeinde"},"district":{"key":"08317","name":"Ortenaukreis","type":"Landkreis"},"federalState":{"key":"08","name":"Baden-Württemberg"}},{"name":"Panoramaweg","postalCode":"88400","locality":"Biberach an der Riß","municipality":{"key":"08426021","name":"Biberach an der Riß, Stadt","type":"Große_Kreisstadt"},"district":{"key":"08426","name":"Biberach","type":"Landkreis"},"federalState":{"key":"08","name":"Baden-Württemberg"}},{"name":"Panoramaweg","postalCode":"88441","locality":"Mittelbiberach","municipality":{"key":"08426074","name":"Mittelbiberach","type":"Kreisangehörige_Gemeinde"},"district":{"key":"08426","name":"Biberach","type":"Landkreis"},"federalState":{"key":"08","name":"Baden-Württemberg"}},{"name":"Pfluggasse","postalCode":"88400","locality":"Biberach an der Riß","municipality":{"key":"08426021","name":"Biberach an der Riß, Stadt","type":"Große_Kreisstadt"},"district":{"key":"08426","name":"Biberach","type":"Landkreis"},"federalState":{"key":"08","name":"Baden-Württemberg"}},{"name":"Pflummernstr.","postalCode":"88400","locality":"Biberach an der Riß","municipality":{"key":"08426021","name":"Biberach an der Riß, Stadt","type":"Große_Kreisstadt"},"district":{"key":"08426","name":"Biberach","type":"Landkreis"},"federalState":{"key":"08","name":"Baden-Württemberg"}},{"name":"Plattenösch","postalCode":"88400","locality":"Biberach an der Riß","municipality":{"key":"08426021","name":"Biberach an der Riß, Stadt","type":"Große_Kreisstadt"},"district":{"key":"08426","name":"Biberach","type":"Landkreis"},"federalState":{"key":"08","name":"Baden-Württemberg"}},{"name":"Poststr.","postalCode":"88400","locality":"Biberach an der Riß","municipality":{"key":"08426021","name":"Biberach an der Riß, Stadt","type":"Große_Kreisstadt"},"district":{"key":"08426","name":"Biberach","type":"Landkreis"},"federalState":{"key":"08","name":"Baden-Württemberg"}},{"name":"Poststr.","postalCode":"88441","locality":"Mittelbiberach","municipality":{"key":"08426074","name":"Mittelbiberach","type":"Kreisangehörige_Gemeinde"},"district":{"key":"08426","name":"Biberach","type":"Landkreis"},"federalState":{"key":"08","name":"Baden-Württemberg"}},{"name":"Probststr.","postalCode":"88400","locality":"Biberach an der Riß","municipality":{"key":"08426021","name":"Biberach an der Riß, Stadt","type":"Große_Kreisstadt"},"district":{"key":"08426","name":"Biberach","type":"Landkreis"},"federalState":{"key":"08","name":"Baden-Württemberg"}},{"name":"Riedlinger Str.","postalCode":"88422","locality":"Betzenweiler","municipality":{"key":"08426020","name":"Betzenweiler","type":"Kreisangehörige_Gemeinde"},"district":{"key":"08426","name":"Biberach","type":"Landkreis"},"federalState":{"key":"08","name":"Baden-Württemberg"}},{"name":"Seelenwaldgasse","postalCode":"88422","locality":"Betzenweiler","municipality":{"key":"08426020","name":"Betzenweiler","type":"Kreisangehörige_Gemeinde"},"district":{"key":"08426","name":"Biberach","type":"Landkreis"},"federalState":{"key":"08","name":"Baden-Württemberg"}},{"name":"Streuberg","postalCode":"88422","locality":"Betzenweiler","municipality":{"key":"08426020","name":"Betzenweiler","type":"Kreisangehörige_Gemeinde"},"district":{"key":"08426","name":"Biberach","type":"Landkreis"},"federalState":{"key":"08","name":"Baden-Württemberg"}},{"name":"Talblick","postalCode":"88400","locality":"Biberach an der Riß","municipality":{"key":"08426021","name":"Biberach an der Riß, Stadt","type":"Große_Kreisstadt"},"district":{"key":"08426","name":"Biberach","type":"Landkreis"},"federalState":{"key":"08","name":"Baden-Württemberg"}},{"name":"Talfeldstr.","postalCode":"88400","locality":"Biberach an der Riß","municipality":{"key":"08426021","name":"Biberach an der Riß, Stadt","type":"Große_Kreisstadt"},"district":{"key":"08426","name":"Biberach","type":"Landkreis"},"federalState":{"key":"08","name":"Baden-Württemberg"}},{"name":"Tannenstr.","postalCode":"88400","locality":"Biberach an der Riß","municipality":{"key":"08426021","name":"Biberach an der Riß, Stadt","type":"Große_Kreisstadt"},"district":{"key":"08426","name":"Biberach","type":"Landkreis"},"federalState":{"key":"08","name":"Baden-Württemberg"}},{"name":"Tannenweg","postalCode":"77781","locality":"Biberach","municipality":{"key":"08317011","name":"Biberach","type":"Kreisangehörige_Gemeinde"},"district":{"key":"08317","name":"Ortenaukreis","type":"Landkreis"},"federalState":{"key":"08","name":"Baden-Württemberg"}},{"name":"Teichweg","postalCode":"88400","locality":"Biberach an der Riß","municipality":{"key":"08426021","name":"Biberach an der Riß, Stadt","type":"Große_Kreisstadt"},"district":{"key":"08426","name":"Biberach","type":"Landkreis"},"federalState":{"key":"08","name":"Baden-Württemberg"}},{"name":"Telawiallee","postalCode":"88400","locality":"Biberach an der Riß","municipality":{"key":"08426021","name":"Biberach an der Riß, Stadt","type":"Große_Kreisstadt"},"district":{"key":"08426","name":"Biberach","type":"Landkreis"},"federalState":{"key":"08","name":"Baden-Württemberg"}},{"name":"Teuchelhaldenstr.","postalCode":"88400","locality":"Biberach an der Riß","municipality":{"key":"08426021","name":"Biberach an der Riß, Stadt","type":"Große_Kreisstadt"},"district":{"key":"08426","name":"Biberach","type":"Landkreis"},"federalState":{"key":"08","name":"Baden-Württemberg"}},{"name":"Theaterstr.","postalCode":"88400","locality":"Biberach an der Riß","municipality":{"key":"08426021","name":"Biberach an der Riß, Stadt","type":"Große_Kreisstadt"},"district":{"key":"08426","name":"Biberach","type":"Landkreis"},"federalState":{"key":"08","name":"Baden-Württemberg"}},{"name":"Theodor-Castor-Weg","postalCode":"88400","locality":"Biberach an der Riß","municipality":{"key":"08426021","name":"Biberach an der Riß, Stadt","type":"Große_Kreisstadt"},"district":{"key":"08426","name":"Biberach","type":"Landkreis"},"federalState":{"key":"08","name":"Baden-Württemberg"}},{"name":"Theodor-Heuss-Str.","postalCode":"88400","locality":"Biberach an der Riß","municipality":{"key":"08426021","name":"Biberach an der Riß, Stadt","type":"Große_Kreisstadt"},"district":{"key":"08426","name":"Biberach","type":"Landkreis"},"federalState":{"key":"08","name":"Baden-Württemberg"}},{"name":"Thüringenstr.","postalCode":"88400","locality":"Biberach an der Riß","municipality":{"key":"08426021","name":"Biberach an der Riß, Stadt","type":"Große_Kreisstadt"},"district":{"key":"08426","name":"Biberach","type":"Landkreis"},"federalState":{"key":"08","name":"Baden-Württemberg"}},{"name":"Tobelweg","postalCode":"88400","locality":"Biberach an der Riß","municipality":{"key":"08426021","name":"Biberach an der Riß, Stadt","type":"Große_Kreisstadt"},"district":{"key":"08426","name":"Biberach","type":"Landkreis"},"federalState":{"key":"08","name":"Baden-Württemberg"}},{"name":"Trattengasse","postalCode":"88400","locality":"Biberach an der Riß","municipality":{"key":"08426021","name":"Biberach an der Riß, Stadt","type":"Große_Kreisstadt"},"district":{"key":"08426","name":"Biberach","type":"Landkreis"},"federalState":{"key":"08","name":"Baden-Württemberg"}},{"name":"Treutweg","postalCode":"88400","locality":"Biberach an der Riß","municipality":{"key":"08426021","name":"Biberach an der Riß, Stadt","type":"Große_Kreisstadt"},"district":{"key":"08426","name":"Biberach","type":"Landkreis"},"federalState":{"key":"08","name":"Baden-Württemberg"}},{"name":"Tulpenstr.","postalCode":"88441","locality":"Mittelbiberach","municipality":{"key":"08426074","name":"Mittelbiberach","type":"Kreisangehörige_Gemeinde"},"district":{"key":"08426","name":"Biberach","type":"Landkreis"},"federalState":{"key":"08","name":"Baden-Württemberg"}},{"name":"Tulpenweg","postalCode":"88400","locality":"Biberach an der Riß","municipality":{"key":"08426021","name":"Biberach an der Riß, Stadt","type":"Große_Kreisstadt"},"district":{"key":"08426","name":"Biberach","type":"Landkreis"},"federalState":{"key":"08","name":"Baden-Württemberg"}},{"name":"Tunnelweg","postalCode":"88400","locality":"Biberach an der Riß","municipality":{"key":"08426021","name":"Biberach an der Riß, Stadt","type":"Große_Kreisstadt"},"district":{"key":"08426","name":"Biberach","type":"Landkreis"},"federalState":{"key":"08","name":"Baden-Württemberg"}},{"name":"Unterdorfstr.","postalCode":"88422","locality":"Betzenweiler","municipality":{"key":"08426020","name":"Betzenweiler","type":"Kreisangehörige_Gemeinde"},"district":{"key":"08426","name":"Biberach","type":"Landkreis"},"federalState":{"key":"08","name":"Baden-Württemberg"}},{"name":"Uttenweiler Str.","postalCode":"88422","locality":"Betzenweiler","municipality":{"key":"08426020","name":"Betzenweiler","type":"Kreisangehörige_Gemeinde"},"district":{"key":"08426","name":"Biberach","type":"Landkreis"},"federalState":{"key":"08","name":"Baden-Württemberg"}},{"name":"Valenceallee","postalCode":"88400","locality":"Biberach an der Riß","municipality":{"key":"08426021","name":"Biberach an der Riß, Stadt","type":"Große_Kreisstadt"},"district":{"key":"08426","name":"Biberach","type":"Landkreis"},"federalState":{"key":"08","name":"Baden-Württemberg"}},{"name":"Viehmarktplatz","postalCode":"88400","locality":"Biberach an der Riß","municipality":{"key":"08426021","name":"Biberach an der Riß, Stadt","type":"Große_Kreisstadt"},"district":{"key":"08426","name":"Biberach","type":"Landkreis"},"federalState":{"key":"08","name":"Baden-Württemberg"}},{"name":"Viehmarktstr.","postalCode":"88400","locality":"Biberach an der Riß","municipality":{"key":"08426021","name":"Biberach an der Riß, Stadt","type":"Große_Kreisstadt"},"district":{"key":"08426","name":"Biberach","type":"Landkreis"},"federalState":{"key":"08","name":"Baden-Württemberg"}},{"name":"Vogesenstr.","postalCode":"77781","locality":"Biberach","municipality":{"key":"08317011","name":"Biberach","type":"Kreisangehörige_Gemeinde"},"district":{"key":"08317","name":"Ortenaukreis","type":"Landkreis"},"federalState":{"key":"08","name":"Baden-Württemberg"}},{"name":"Vogteistr.","postalCode":"88441","locality":"Mittelbiberach","municipality":{"key":"08426074","name":"Mittelbiberach","type":"Kreisangehörige_Gemeinde"},"district":{"key":"08426","name":"Biberach","type":"Landkreis"},"federalState":{"key":"08","name":"Baden-Württemberg"}},{"name":"Vollmerstr.","postalCode":"88400","locality":"Biberach an der Riß","municipality":{"key":"08426021","name":"Biberach an der Riß, Stadt","type":"Große_Kreisstadt"},"district":{"key":"08426","name":"Biberach","type":"Landkreis"},"federalState":{"key":"08","name":"Baden-Württemberg"}},{"name":"Volmarweg","postalCode":"88400","locality":"Biberach an der Riß","municipality":{"key":"08426021","name":"Biberach an der Riß, Stadt","type":"Große_Kreisstadt"},"district":{"key":"08426","name":"Biberach","type":"Landkreis"},"federalState":{"key":"08","name":"Baden-Württemberg"}},{"name":"Vonierweg","postalCode":"88400","locality":"Biberach an der Riß","municipality":{"key":"08426021","name":"Biberach an der Riß, Stadt","type":"Große_Kreisstadt"},"district":{"key":"08426","name":"Biberach","type":"Landkreis"},"federalState":{"key":"08","name":"Baden-Württemberg"}},{"name":"Vorarlberger Str.","postalCode":"88400","locality":"Biberach an der Riß","municipality":{"key":"08426021","name":"Biberach an der Riß, Stadt","type":"Große_Kreisstadt"},"district":{"key":"08426","name":"Biberach","type":"Landkreis"},"federalState":{"key":"08","name":"Baden-Württemberg"}},{"name":"Vordere Au","postalCode":"88400","locality":"Biberach an der Riß","municipality":{"key":"08426021","name":"Biberach an der Riß, Stadt","type":"Große_Kreisstadt"},"district":{"key":"08426","name":"Biberach","type":"Landkreis"},"federalState":{"key":"08","name":"Baden-Württemberg"}},{"name":"Waaghausstr.","postalCode":"88400","locality":"Biberach an der Riß","municipality":{"key":"08426021","name":"Biberach an der Riß, Stadt","type":"Große_Kreisstadt"},"district":{"key":"08426","name":"Biberach","type":"Landkreis"},"federalState":{"key":"08","name":"Baden-Württemberg"}},{"name":"Wächweg","postalCode":"88400","locality":"Biberach an der Riß","municipality":{"key":"08426021","name":"Biberach an der Riß, Stadt","type":"Große_Kreisstadt"},"district":{"key":"08426","name":"Biberach","type":"Landkreis"},"federalState":{"key":"08","name":"Baden-Württemberg"}},{"name":"Waldseer Str.","postalCode":"88400","locality":"Biberach an der Riß","municipality":{"key":"08426021","name":"Biberach an der Riß, Stadt","type":"Große_Kreisstadt"},"district":{"key":"08426","name":"Biberach","type":"Landkreis"},"federalState":{"key":"08","name":"Baden-Württemberg"}},{"name":"Waldstr.","postalCode":"77781","locality":"Biberach","municipality":{"key":"08317011","name":"Biberach","type":"Kreisangehörige_Gemeinde"},"district":{"key":"08317","name":"Ortenaukreis","type":"Landkreis"},"federalState":{"key":"08","name":"Baden-Württemberg"}},{"name":"Wässerwiesen","postalCode":"88400","locality":"Biberach an der Riß","municipality":{"key":"08426021","name":"Biberach an der Riß, Stadt","type":"Große_Kreisstadt"},"district":{"key":"08426","name":"Biberach","type":"Landkreis"},"federalState":{"key":"08","name":"Baden-Württemberg"}},{"name":"Weberberggasse","postalCode":"88400","locality":"Biberach an der Riß","municipality":{"key":"08426021","name":"Biberach an der Riß, Stadt","type":"Große_Kreisstadt"},"district":{"key":"08426","name":"Biberach","type":"Landkreis"},"federalState":{"key":"08","name":"Baden-Württemberg"}},{"name":"Weidenweg","postalCode":"88400","locality":"Biberach an der Riß","municipality":{"key":"08426021","name":"Biberach an der Riß, Stadt","type":"Große_Kreisstadt"},"district":{"key":"08426","name":"Biberach","type":"Landkreis"},"federalState":{"key":"08","name":"Baden-Württemberg"}},{"name":"Weidenweg","postalCode":"88441","locality":"Mittelbiberach","municipality":{"key":"08426074","name":"Mittelbiberach","type":"Kreisangehörige_Gemeinde"},"district":{"key":"08426","name":"Biberach","type":"Landkreis"},"federalState":{"key":"08","name":"Baden-Württemberg"}},{"name":"Weingartenbergstr.","postalCode":"88400","locality":"Biberach an der Riß","municipality":{"key":"08426021","name":"Biberach an der Riß, Stadt","type":"Große_Kreisstadt"},"district":{"key":"08426","name":"Biberach","type":"Landkreis"},"federalState":{"key":"08","name":"Baden-Württemberg"}},{"name":"Weingarthalde","postalCode":"88400","locality":"Biberach an der Riß","municipality":{"key":"08426021","name":"Biberach an der Riß, Stadt","type":"Große_Kreisstadt"},"district":{"key":"08426","name":"Biberach","type":"Landkreis"},"federalState":{"key":"08","name":"Baden-Württemberg"}},{"name":"Weißdornweg","postalCode":"88400","locality":"Biberach an der Riß","municipality":{"key":"08426021","name":"Biberach an der Riß, Stadt","type":"Große_Kreisstadt"},"district":{"key":"08426","name":"Biberach","type":"Landkreis"},"federalState":{"key":"08","name":"Baden-Württemberg"}},{"name":"Weißhauptstr.","postalCode":"88400","locality":"Biberach an der Riß","municipality":{"key":"08426021","name":"Biberach an der Riß, Stadt","type":"Große_Kreisstadt"},"district":{"key":"08426","name":"Biberach","type":"Landkreis"},"federalState":{"key":"08","name":"Baden-Württemberg"}},{"name":"Werbasweg","postalCode":"88400","locality":"Biberach an der Riß","municipality":{"key":"08426021","name":"Biberach an der Riß, Stadt","type":"Große_Kreisstadt"},"district":{"key":"08426","name":"Biberach","type":"Landkreis"},"federalState":{"key":"08","name":"Baden-Württemberg"}},{"name":"Wetterkreuzstr.","postalCode":"88400","locality":"Biberach an der Riß","municipality":{"key":"08426021","name":"Biberach an der Riß, Stadt","type":"Große_Kreisstadt"},"district":{"key":"08426","name":"Biberach","type":"Landkreis"},"federalState":{"key":"08","name":"Baden-Württemberg"}},{"name":"Widdersteinstr.","postalCode":"88400","locality":"Biberach an der Riß","municipality":{"key":"08426021","name":"Biberach an der Riß, Stadt","type":"Große_Kreisstadt"},"district":{"key":"08426","name":"Biberach","type":"Landkreis"},"federalState":{"key":"08","name":"Baden-Württemberg"}},{"name":"Wielandpark","postalCode":"88400","locality":"Biberach an der Riß","municipality":{"key":"08426021","name":"Biberach an der Riß, Stadt","type":"Große_Kreisstadt"},"district":{"key":"08426","name":"Biberach","type":"Landkreis"},"federalState":{"key":"08","name":"Baden-Württemberg"}},{"name":"Wielandstr.","postalCode":"88400","locality":"Biberach an der Riß","municipality":{"key":"08426021","name":"Biberach an der Riß, Stadt","type":"Große_Kreisstadt"},"district":{"key":"08426","name":"Biberach","type":"Landkreis"},"federalState":{"key":"08","name":"Baden-Württemberg"}},{"name":"Wielandstr.","postalCode":"88441","locality":"Mittelbiberach","municipality":{"key":"08426074","name":"Mittelbiberach","type":"Kreisangehörige_Gemeinde"},"district":{"key":"08426","name":"Biberach","type":"Landkreis"},"federalState":{"key":"08","name":"Baden-Württemberg"}},{"name":"Wiesenbreite","postalCode":"88400","locality":"Biberach an der Riß","municipality":{"key":"08426021","name":"Biberach an der Riß, Stadt","type":"Große_Kreisstadt"},"district":{"key":"08426","name":"Biberach","type":"Landkreis"},"federalState":{"key":"08","name":"Baden-Württemberg"}},{"name":"Wiesenstr.","postalCode":"88400","locality":"Biberach an der Riß","municipality":{"key":"08426021","name":"Biberach an der Riß, Stadt","type":"Große_Kreisstadt"},"district":{"key":"08426","name":"Biberach","type":"Landkreis"},"federalState":{"key":"08","name":"Baden-Württemberg"}},{"name":"Wilhelm-Leger-Str.","postalCode":"88400","locality":"Biberach an der Riß","municipality":{"key":"08426021","name":"Biberach an der Riß, Stadt","type":"Große_Kreisstadt"},"district":{"key":"08426","name":"Biberach","type":"Landkreis"},"federalState":{"key":"08","name":"Baden-Württemberg"}},{"name":"Wilhelm-Röntgen-Str.","postalCode":"88400","locality":"Biberach an der Riß","municipality":{"key":"08426021","name":"Biberach an der Riß, Stadt","type":"Große_Kreisstadt"},"district":{"key":"08426","name":"Biberach","type":"Landkreis"},"federalState":{"key":"08","name":"Baden-Württemberg"}},{"name":"Winkelstr.","postalCode":"88441","locality":"Mittelbiberach","municipality":{"key":"08426074","name":"Mittelbiberach","type":"Kreisangehörige_Gemeinde"},"district":{"key":"08426","name":"Biberach","type":"Landkreis"},"federalState":{"key":"08","name":"Baden-Württemberg"}},{"name":"Winterreute","postalCode":"88400","locality":"Biberach an der Riß","municipality":{"key":"08426021","name":"Biberach an der Riß, Stadt","type":"Große_Kreisstadt"},"district":{"key":"08426","name":"Biberach","type":"Landkreis"},"federalState":{"key":"08","name":"Baden-Württemberg"}},{"name":"Winterreuter Str.","postalCode":"88400","locality":"Biberach an der Riß","municipality":{"key":"08426021","name":"Biberach an der Riß, Stadt","type":"Große_Kreisstadt"},"district":{"key":"08426","name":"Biberach","type":"Landkreis"},"federalState":{"key":"08","name":"Baden-Württemberg"}},{"name":"Wittlingerweg","postalCode":"88400","locality":"Biberach an der Riß","municipality":{"key":"08426021","name":"Biberach an der Riß, Stadt","type":"Große_Kreisstadt"},"district":{"key":"08426","name":"Biberach","type":"Landkreis"},"federalState":{"key":"08","name":"Baden-Württemberg"}},{"name":"Wolfental","postalCode":"88400","locality":"Biberach an der Riß","municipality":{"key":"08426021","name":"Biberach an der Riß, Stadt","type":"Große_Kreisstadt"},"district":{"key":"08426","name":"Biberach","type":"Landkreis"},"federalState":{"key":"08","name":"Baden-Württemberg"}},{"name":"Wolfentalblick","postalCode":"88441","locality":"Mittelbiberach","municipality":{"key":"08426074","name":"Mittelbiberach","type":"Kreisangehörige_Gemeinde"},"district":{"key":"08426","name":"Biberach","type":"Landkreis"},"federalState":{"key":"08","name":"Baden-Württemberg"}},{"name":"Wolfentalstr.","postalCode":"88400","locality":"Biberach an der Riß","municipality":{"key":"08426021","name":"Biberach an der Riß, Stadt","type":"Große_Kreisstadt"},"district":{"key":"08426","name":"Biberach","type":"Landkreis"},"federalState":{"key":"08","name":"Baden-Württemberg"}},{"name":"Wolfgangstr.","postalCode":"88400","locality":"Biberach an der Riß","municipality":{"key":"08426021","name":"Biberach an der Riß, Stadt","type":"Große_Kreisstadt"},"district":{"key":"08426","name":"Biberach","type":"Landkreis"},"federalState":{"key":"08","name":"Baden-Württemberg"}},{"name":"Zeller Str.","postalCode":"77781","locality":"Biberach","municipality":{"key":"08317011","name":"Biberach","type":"Kreisangehörige_Gemeinde"},"district":{"key":"08317","name":"Ortenaukreis","type":"Landkreis"},"federalState":{"key":"08","name":"Baden-Württemberg"}},{"name":"Zeppelinring","postalCode":"88400","locality":"Biberach an der Riß","municipality":{"key":"08426021","name":"Biberach an der Riß, Stadt","type":"Große_Kreisstadt"},"district":{"key":"08426","name":"Biberach","type":"Landkreis"},"federalState":{"key":"08","name":"Baden-Württemberg"}},{"name":"Zeppelinstr.","postalCode":"88441","locality":"Mittelbiberach","municipality":{"key":"08426074","name":"Mittelbiberach","type":"Kreisangehörige_Gemeinde"},"district":{"key":"08426","name":"Biberach","type":"Landkreis"},"federalState":{"key":"08","name":"Baden-Württemberg"}},{"name":"Zeughausgasse","postalCode":"88400","locality":"Biberach an der Riß","municipality":{"key":"08426021","name":"Biberach an der Riß, Stadt","type":"Große_Kreisstadt"},"district":{"key":"08426","name":"Biberach","type":"Landkreis"},"federalState":{"key":"08","name":"Baden-Württemberg"}},{"name":"Ziegeldumpf","postalCode":"88400","locality":"Biberach an der Riß","municipality":{"key":"08426021","name":"Biberach an der Riß, Stadt","type":"Große_Kreisstadt"},"district":{"key":"08426","name":"Biberach","type":"Landkreis"},"federalState":{"key":"08","name":"Baden-Württemberg"}},{"name":"Ziegeleistr.","postalCode":"88441","locality":"Mittelbiberach","municipality":{"key":"08426074","name":"Mittelbiberach","type":"Kreisangehörige_Gemeinde"},"district":{"key":"08426","name":"Biberach","type":"Landkreis"},"federalState":{"key":"08","name":"Baden-Württemberg"}},{"name":"Ziegelhausstr.","postalCode":"88400","locality":"Biberach an der Riß","municipality":{"key":"08426021","name":"Biberach an der Riß, Stadt","type":"Große_Kreisstadt"},"district":{"key":"08426","name":"Biberach","type":"Landkreis"},"federalState":{"key":"08","name":"Baden-Württemberg"}},{"name":"Ziegelweg","postalCode":"88400","locality":"Biberach an der Riß","municipality":{"key":"08426021","name":"Biberach an der Riß, Stadt","type":"Große_Kreisstadt"},"district":{"key":"08426","name":"Biberach","type":"Landkreis"},"federalState":{"key":"08","name":"Baden-Württemberg"}},{"name":"ZOB/Bahnhof (Steig 10)","postalCode":"88400","locality":"Biberach an der Riß","municipality":{"key":"08426021","name":"Biberach an der Riß, Stadt","type":"Große_Kreisstadt"},"district":{"key":"08426","name":"Biberach","type":"Landkreis"},"federalState":{"key":"08","name":"Baden-Württemberg"}},{"name":"Zollerweg","postalCode":"88400","locality":"Biberach an der Riß","municipality":{"key":"08426021","name":"Biberach an der Riß, Stadt","type":"Große_Kreisstadt"},"district":{"key":"08426","name":"Biberach","type":"Landkreis"},"federalState":{"key":"08","name":"Baden-Württemberg"}},{"name":"ZumSodhof","postalCode":"77781","locality":"Biberach","municipality":{"key":"08317011","name":"Biberach","type":"Kreisangehörige_Gemeinde"},"district":{"key":"08317","name":"Ortenaukreis","type":"Landkreis"},"federalState":{"key":"08","name":"Baden-Württemberg"}},{"name":"Zur Breite","postalCode":"88400","locality":"Biberach an der Riß","municipality":{"key":"08426021","name":"Biberach an der Riß, Stadt","type":"Große_Kreisstadt"},"district":{"key":"08426","name":"Biberach","type":"Landkreis"},"federalState":{"key":"08","name":"Baden-Württemberg"}},{"name":"Zwingergasse","postalCode":"88400","locality":"Biberach an der Riß","municipality":{"key":"08426021","name":"Biberach an der Riß, Stadt","type":"Große_Kreisstadt"},"district":{"key":"08426","name":"Biberach","type":"Landkreis"},"federalState":{"key":"08","name":"Baden-Württemberg"}},{"name":"Öschweg","postalCode":"88441","locality":"Mittelbiberach","municipality":{"key":"08426074","name":"Mittelbiberach","type":"Kreisangehörige_Gemeinde"},"district":{"key":"08426","name":"Biberach","type":"Landkreis"},"federalState":{"key":"08","name":"Baden-Württemberg"}},]