[{"name":"Am Graben","postalCode":"56244","locality":"Freirachdorf","municipality":{"key":"07143019","name":"Freirachdorf","type":"Kreisangehörige_Gemeinde"},"district":{"key":"07143","name":"Westerwaldkreis","type":"Landkreis"},"federalState":{"key":"07","name":"Rheinland-Pfalz"}},{"name":"Am Guckelsberg","postalCode":"56244","locality":"Freirachdorf","municipality":{"key":"07143019","name":"Freirachdorf","type":"Kreisangehörige_Gemeinde"},"district":{"key":"07143","name":"Westerwaldkreis","type":"Landkreis"},"federalState":{"key":"07","name":"Rheinland-Pfalz"}},{"name":"Am Sonnenhang","postalCode":"56244","locality":"Freirachdorf","municipality":{"key":"07143019","name":"Freirachdorf","type":"Kreisangehörige_Gemeinde"},"district":{"key":"07143","name":"Westerwaldkreis","type":"Landkreis"},"federalState":{"key":"07","name":"Rheinland-Pfalz"}},{"name":"Auf der Höhe","postalCode":"56244","locality":"Freirachdorf","municipality":{"key":"07143019","name":"Freirachdorf","type":"Kreisangehörige_Gemeinde"},"district":{"key":"07143","name":"Westerwaldkreis","type":"Landkreis"},"federalState":{"key":"07","name":"Rheinland-Pfalz"}},{"name":"Auf der Jöst","postalCode":"56244","locality":"Freirachdorf","municipality":{"key":"07143019","name":"Freirachdorf","type":"Kreisangehörige_Gemeinde"},"district":{"key":"07143","name":"Westerwaldkreis","type":"Landkreis"},"federalState":{"key":"07","name":"Rheinland-Pfalz"}},{"name":"Eichenweg","postalCode":"56244","locality":"Freirachdorf","municipality":{"key":"07143019","name":"Freirachdorf","type":"Kreisangehörige_Gemeinde"},"district":{"key":"07143","name":"Westerwaldkreis","type":"Landkreis"},"federalState":{"key":"07","name":"Rheinland-Pfalz"}},{"name":"Forststr.","postalCode":"56244","locality":"Freirachdorf","municipality":{"key":"07143019","name":"Freirachdorf","type":"Kreisangehörige_Gemeinde"},"district":{"key":"07143","name":"Westerwaldkreis","type":"Landkreis"},"federalState":{"key":"07","name":"Rheinland-Pfalz"}},{"name":"Gartenstr.","postalCode":"56244","locality":"Freirachdorf","municipality":{"key":"07143019","name":"Freirachdorf","type":"Kreisangehörige_Gemeinde"},"district":{"key":"07143","name":"Westerwaldkreis","type":"Landkreis"},"federalState":{"key":"07","name":"Rheinland-Pfalz"}},{"name":"Hauptstr.","postalCode":"56244","locality":"Freirachdorf","municipality":{"key":"07143019","name":"Freirachdorf","type":"Kreisangehörige_Gemeinde"},"district":{"key":"07143","name":"Westerwaldkreis","type":"Landkreis"},"federalState":{"key":"07","name":"Rheinland-Pfalz"}},{"name":"Holzbachstr.","postalCode":"56244","locality":"Freirachdorf","municipality":{"key":"07143019","name":"Freirachdorf","type":"Kreisangehörige_Gemeinde"},"district":{"key":"07143","name":"Westerwaldkreis","type":"Landkreis"},"federalState":{"key":"07","name":"Rheinland-Pfalz"}},{"name":"Karl-Beyer-Str.","postalCode":"56244","locality":"Freirachdorf","municipality":{"key":"07143019","name":"Freirachdorf","type":"Kreisangehörige_Gemeinde"},"district":{"key":"07143","name":"Westerwaldkreis","type":"Landkreis"},"federalState":{"key":"07","name":"Rheinland-Pfalz"}},{"name":"Kirchstr.","postalCode":"56244","locality":"Freirachdorf","municipality":{"key":"07143019","name":"Freirachdorf","type":"Kreisangehörige_Gemeinde"},"district":{"key":"07143","name":"Westerwaldkreis","type":"Landkreis"},"federalState":{"key":"07","name":"Rheinland-Pfalz"}},{"name":"Lerchenweg","postalCode":"56244","locality":"Freirachdorf","municipality":{"key":"07143019","name":"Freirachdorf","type":"Kreisangehörige_Gemeinde"},"district":{"key":"07143","name":"Westerwaldkreis","type":"Landkreis"},"federalState":{"key":"07","name":"Rheinland-Pfalz"}},{"name":"Meisenweg","postalCode":"56244","locality":"Freirachdorf","municipality":{"key":"07143019","name":"Freirachdorf","type":"Kreisangehörige_Gemeinde"},"district":{"key":"07143","name":"Westerwaldkreis","type":"Landkreis"},"federalState":{"key":"07","name":"Rheinland-Pfalz"}},{"name":"Mittelstr.","postalCode":"56244","locality":"Freirachdorf","municipality":{"key":"07143019","name":"Freirachdorf","type":"Kreisangehörige_Gemeinde"},"district":{"key":"07143","name":"Westerwaldkreis","type":"Landkreis"},"federalState":{"key":"07","name":"Rheinland-Pfalz"}},{"name":"Mühlenweg","postalCode":"56244","locality":"Freirachdorf","municipality":{"key":"07143019","name":"Freirachdorf","type":"Kreisangehörige_Gemeinde"},"district":{"key":"07143","name":"Westerwaldkreis","type":"Landkreis"},"federalState":{"key":"07","name":"Rheinland-Pfalz"}},{"name":"Neustr.","postalCode":"56244","locality":"Freirachdorf","municipality":{"key":"07143019","name":"Freirachdorf","type":"Kreisangehörige_Gemeinde"},"district":{"key":"07143","name":"Westerwaldkreis","type":"Landkreis"},"federalState":{"key":"07","name":"Rheinland-Pfalz"}},{"name":"Nordstr.","postalCode":"56244","locality":"Freirachdorf","municipality":{"key":"07143019","name":"Freirachdorf","type":"Kreisangehörige_Gemeinde"},"district":{"key":"07143","name":"Westerwaldkreis","type":"Landkreis"},"federalState":{"key":"07","name":"Rheinland-Pfalz"}},{"name":"Poststr.","postalCode":"56244","locality":"Freirachdorf","municipality":{"key":"07143019","name":"Freirachdorf","type":"Kreisangehörige_Gemeinde"},"district":{"key":"07143","name":"Westerwaldkreis","type":"Landkreis"},"federalState":{"key":"07","name":"Rheinland-Pfalz"}},{"name":"Ringstr.","postalCode":"56244","locality":"Freirachdorf","municipality":{"key":"07143019","name":"Freirachdorf","type":"Kreisangehörige_Gemeinde"},"district":{"key":"07143","name":"Westerwaldkreis","type":"Landkreis"},"federalState":{"key":"07","name":"Rheinland-Pfalz"}},{"name":"Schulstr.","postalCode":"56244","locality":"Freirachdorf","municipality":{"key":"07143019","name":"Freirachdorf","type":"Kreisangehörige_Gemeinde"},"district":{"key":"07143","name":"Westerwaldkreis","type":"Landkreis"},"federalState":{"key":"07","name":"Rheinland-Pfalz"}},{"name":"Waldstr.","postalCode":"56244","locality":"Freirachdorf","municipality":{"key":"07143019","name":"Freirachdorf","type":"Kreisangehörige_Gemeinde"},"district":{"key":"07143","name":"Westerwaldkreis","type":"Landkreis"},"federalState":{"key":"07","name":"Rheinland-Pfalz"}},{"name":"Waldweg","postalCode":"56244","locality":"Freirachdorf","municipality":{"key":"07143019","name":"Freirachdorf","type":"Kreisangehörige_Gemeinde"},"district":{"key":"07143","name":"Westerwaldkreis","type":"Landkreis"},"federalState":{"key":"07","name":"Rheinland-Pfalz"}},{"name":"Wiesenstr.","postalCode":"56244","locality":"Freirachdorf","municipality":{"key":"07143019","name":"Freirachdorf","type":"Kreisangehörige_Gemeinde"},"district":{"key":"07143","name":"Westerwaldkreis","type":"Landkreis"},"federalState":{"key":"07","name":"Rheinland-Pfalz"}},{"name":"Zum Acker","postalCode":"56244","locality":"Freirachdorf","municipality":{"key":"07143019","name":"Freirachdorf","type":"Kreisangehörige_Gemeinde"},"district":{"key":"07143","name":"Westerwaldkreis","type":"Landkreis"},"federalState":{"key":"07","name":"Rheinland-Pfalz"}},{"name":"Zum Paradies","postalCode":"56244","locality":"Freirachdorf","municipality":{"key":"07143019","name":"Freirachdorf","type":"Kreisangehörige_Gemeinde"},"district":{"key":"07143","name":"Westerwaldkreis","type":"Landkreis"},"federalState":{"key":"07","name":"Rheinland-Pfalz"}},]