[{"name":"Adalbert-Stifter-Weg","postalCode":"85661","locality":"Forstinning","municipality":{"key":"09175118","name":"Forstinning","type":"Kreisangehörige_Gemeinde"},"district":{"key":"09175","name":"Ebersberg","type":"Landkreis"},"federalState":{"key":"09","name":"Bayern"}},{"name":"Ahornweg","postalCode":"85661","locality":"Forstinning","municipality":{"key":"09175118","name":"Forstinning","type":"Kreisangehörige_Gemeinde"},"district":{"key":"09175","name":"Ebersberg","type":"Landkreis"},"federalState":{"key":"09","name":"Bayern"}},{"name":"Aicher Str.","postalCode":"85661","locality":"Forstinning","municipality":{"key":"09175118","name":"Forstinning","type":"Kreisangehörige_Gemeinde"},"district":{"key":"09175","name":"Ebersberg","type":"Landkreis"},"federalState":{"key":"09","name":"Bayern"}},{"name":"Aitersteinering","postalCode":"85661","locality":"Forstinning","municipality":{"key":"09175118","name":"Forstinning","type":"Kreisangehörige_Gemeinde"},"district":{"key":"09175","name":"Ebersberg","type":"Landkreis"},"federalState":{"key":"09","name":"Bayern"}},{"name":"Alpenstr.","postalCode":"85661","locality":"Forstinning","municipality":{"key":"09175118","name":"Forstinning","type":"Kreisangehörige_Gemeinde"},"district":{"key":"09175","name":"Ebersberg","type":"Landkreis"},"federalState":{"key":"09","name":"Bayern"}},{"name":"Am Angerl","postalCode":"85661","locality":"Forstinning","municipality":{"key":"09175118","name":"Forstinning","type":"Kreisangehörige_Gemeinde"},"district":{"key":"09175","name":"Ebersberg","type":"Landkreis"},"federalState":{"key":"09","name":"Bayern"}},{"name":"Am Binsweg","postalCode":"85661","locality":"Forstinning","municipality":{"key":"09175118","name":"Forstinning","type":"Kreisangehörige_Gemeinde"},"district":{"key":"09175","name":"Ebersberg","type":"Landkreis"},"federalState":{"key":"09","name":"Bayern"}},{"name":"Am Holzfeld","postalCode":"85661","locality":"Forstinning","municipality":{"key":"09175118","name":"Forstinning","type":"Kreisangehörige_Gemeinde"},"district":{"key":"09175","name":"Ebersberg","type":"Landkreis"},"federalState":{"key":"09","name":"Bayern"}},{"name":"Am Jägergarten","postalCode":"85661","locality":"Forstinning","municipality":{"key":"09175118","name":"Forstinning","type":"Kreisangehörige_Gemeinde"},"district":{"key":"09175","name":"Ebersberg","type":"Landkreis"},"federalState":{"key":"09","name":"Bayern"}},{"name":"Amselweg","postalCode":"85661","locality":"Forstinning","municipality":{"key":"09175118","name":"Forstinning","type":"Kreisangehörige_Gemeinde"},"district":{"key":"09175","name":"Ebersberg","type":"Landkreis"},"federalState":{"key":"09","name":"Bayern"}},{"name":"Am Steinland","postalCode":"85661","locality":"Forstinning","municipality":{"key":"09175118","name":"Forstinning","type":"Kreisangehörige_Gemeinde"},"district":{"key":"09175","name":"Ebersberg","type":"Landkreis"},"federalState":{"key":"09","name":"Bayern"}},{"name":"Bajuwarenstr.","postalCode":"85661","locality":"Forstinning","municipality":{"key":"09175118","name":"Forstinning","type":"Kreisangehörige_Gemeinde"},"district":{"key":"09175","name":"Ebersberg","type":"Landkreis"},"federalState":{"key":"09","name":"Bayern"}},{"name":"Birkenweg","postalCode":"85661","locality":"Forstinning","municipality":{"key":"09175118","name":"Forstinning","type":"Kreisangehörige_Gemeinde"},"district":{"key":"09175","name":"Ebersberg","type":"Landkreis"},"federalState":{"key":"09","name":"Bayern"}},{"name":"Buchenstr.","postalCode":"85661","locality":"Forstinning","municipality":{"key":"09175118","name":"Forstinning","type":"Kreisangehörige_Gemeinde"},"district":{"key":"09175","name":"Ebersberg","type":"Landkreis"},"federalState":{"key":"09","name":"Bayern"}},{"name":"Candid-Huber-Str.","postalCode":"85560","locality":"Ebersberg","municipality":{"key":"09175115","name":"Ebersberg, St","type":"Stadt"},"district":{"key":"09175","name":"Ebersberg","type":"Landkreis"},"federalState":{"key":"09","name":"Bayern"}},{"name":"Drosselweg","postalCode":"85661","locality":"Forstinning","municipality":{"key":"09175118","name":"Forstinning","type":"Kreisangehörige_Gemeinde"},"district":{"key":"09175","name":"Ebersberg","type":"Landkreis"},"federalState":{"key":"09","name":"Bayern"}},{"name":"Eberhardstr.","postalCode":"85661","locality":"Forstinning","municipality":{"key":"09175118","name":"Forstinning","type":"Kreisangehörige_Gemeinde"},"district":{"key":"09175","name":"Ebersberg","type":"Landkreis"},"federalState":{"key":"09","name":"Bayern"}},{"name":"Ebersberger Str.","postalCode":"85661","locality":"Forstinning","municipality":{"key":"09175118","name":"Forstinning","type":"Kreisangehörige_Gemeinde"},"district":{"key":"09175","name":"Ebersberg","type":"Landkreis"},"federalState":{"key":"09","name":"Bayern"}},{"name":"Eberweg","postalCode":"85661","locality":"Forstinning","municipality":{"key":"09175118","name":"Forstinning","type":"Kreisangehörige_Gemeinde"},"district":{"key":"09175","name":"Ebersberg","type":"Landkreis"},"federalState":{"key":"09","name":"Bayern"}},{"name":"Elsternweg","postalCode":"85661","locality":"Forstinning","municipality":{"key":"09175118","name":"Forstinning","type":"Kreisangehörige_Gemeinde"},"district":{"key":"09175","name":"Ebersberg","type":"Landkreis"},"federalState":{"key":"09","name":"Bayern"}},{"name":"Erlbacher Str.","postalCode":"85661","locality":"Forstinning","municipality":{"key":"09175118","name":"Forstinning","type":"Kreisangehörige_Gemeinde"},"district":{"key":"09175","name":"Ebersberg","type":"Landkreis"},"federalState":{"key":"09","name":"Bayern"}},{"name":"Fasanenweg","postalCode":"85661","locality":"Forstinning","municipality":{"key":"09175118","name":"Forstinning","type":"Kreisangehörige_Gemeinde"},"district":{"key":"09175","name":"Ebersberg","type":"Landkreis"},"federalState":{"key":"09","name":"Bayern"}},{"name":"Fichtenstr.","postalCode":"85661","locality":"Forstinning","municipality":{"key":"09175118","name":"Forstinning","type":"Kreisangehörige_Gemeinde"},"district":{"key":"09175","name":"Ebersberg","type":"Landkreis"},"federalState":{"key":"09","name":"Bayern"}},{"name":"Finkenstr.","postalCode":"85661","locality":"Forstinning","municipality":{"key":"09175118","name":"Forstinning","type":"Kreisangehörige_Gemeinde"},"district":{"key":"09175","name":"Ebersberg","type":"Landkreis"},"federalState":{"key":"09","name":"Bayern"}},{"name":"Fluchtweg","postalCode":"85661","locality":"Forstinning","municipality":{"key":"09175118","name":"Forstinning","type":"Kreisangehörige_Gemeinde"},"district":{"key":"09175","name":"Ebersberg","type":"Landkreis"},"federalState":{"key":"09","name":"Bayern"}},{"name":"Flurstr.","postalCode":"85661","locality":"Forstinning","municipality":{"key":"09175118","name":"Forstinning","type":"Kreisangehörige_Gemeinde"},"district":{"key":"09175","name":"Ebersberg","type":"Landkreis"},"federalState":{"key":"09","name":"Bayern"}},{"name":"Föhrenweg","postalCode":"85661","locality":"Forstinning","municipality":{"key":"09175118","name":"Forstinning","type":"Kreisangehörige_Gemeinde"},"district":{"key":"09175","name":"Ebersberg","type":"Landkreis"},"federalState":{"key":"09","name":"Bayern"}},{"name":"Forsthausweg","postalCode":"85661","locality":"Forstinning","municipality":{"key":"09175118","name":"Forstinning","type":"Kreisangehörige_Gemeinde"},"district":{"key":"09175","name":"Ebersberg","type":"Landkreis"},"federalState":{"key":"09","name":"Bayern"}},{"name":"Frühlingstr.","postalCode":"85661","locality":"Forstinning","municipality":{"key":"09175118","name":"Forstinning","type":"Kreisangehörige_Gemeinde"},"district":{"key":"09175","name":"Ebersberg","type":"Landkreis"},"federalState":{"key":"09","name":"Bayern"}},{"name":"Gadsenstr.","postalCode":"85661","locality":"Forstinning","municipality":{"key":"09175118","name":"Forstinning","type":"Kreisangehörige_Gemeinde"},"district":{"key":"09175","name":"Ebersberg","type":"Landkreis"},"federalState":{"key":"09","name":"Bayern"}},{"name":"Geibitzweg","postalCode":"85661","locality":"Forstinning","municipality":{"key":"09175118","name":"Forstinning","type":"Kreisangehörige_Gemeinde"},"district":{"key":"09175","name":"Ebersberg","type":"Landkreis"},"federalState":{"key":"09","name":"Bayern"}},{"name":"Gewerbebogen","postalCode":"85661","locality":"Forstinning","municipality":{"key":"09175118","name":"Forstinning","type":"Kreisangehörige_Gemeinde"},"district":{"key":"09175","name":"Ebersberg","type":"Landkreis"},"federalState":{"key":"09","name":"Bayern"}},{"name":"Hallstattstr.","postalCode":"85661","locality":"Forstinning","municipality":{"key":"09175118","name":"Forstinning","type":"Kreisangehörige_Gemeinde"},"district":{"key":"09175","name":"Ebersberg","type":"Landkreis"},"federalState":{"key":"09","name":"Bayern"}},{"name":"Heiglstr.","postalCode":"85661","locality":"Forstinning","municipality":{"key":"09175118","name":"Forstinning","type":"Kreisangehörige_Gemeinde"},"district":{"key":"09175","name":"Ebersberg","type":"Landkreis"},"federalState":{"key":"09","name":"Bayern"}},{"name":"Hirschauerweg","postalCode":"85661","locality":"Forstinning","municipality":{"key":"09175118","name":"Forstinning","type":"Kreisangehörige_Gemeinde"},"district":{"key":"09175","name":"Ebersberg","type":"Landkreis"},"federalState":{"key":"09","name":"Bayern"}},{"name":"Holzwinkelweg","postalCode":"85661","locality":"Forstinning","municipality":{"key":"09175118","name":"Forstinning","type":"Kreisangehörige_Gemeinde"},"district":{"key":"09175","name":"Ebersberg","type":"Landkreis"},"federalState":{"key":"09","name":"Bayern"}},{"name":"Hubertusstr.","postalCode":"85661","locality":"Forstinning","municipality":{"key":"09175118","name":"Forstinning","type":"Kreisangehörige_Gemeinde"},"district":{"key":"09175","name":"Ebersberg","type":"Landkreis"},"federalState":{"key":"09","name":"Bayern"}},{"name":"Ignaz-Perner-Str.","postalCode":"85560","locality":"Ebersberg","municipality":{"key":"09175115","name":"Ebersberg, St","type":"Stadt"},"district":{"key":"09175","name":"Ebersberg","type":"Landkreis"},"federalState":{"key":"09","name":"Bayern"}},{"name":"Im Augrund","postalCode":"85560","locality":"Ebersberg","municipality":{"key":"09175115","name":"Ebersberg, St","type":"Stadt"},"district":{"key":"09175","name":"Ebersberg","type":"Landkreis"},"federalState":{"key":"09","name":"Bayern"}},{"name":"Im Tal","postalCode":"85560","locality":"Ebersberg","municipality":{"key":"09175115","name":"Ebersberg, St","type":"Stadt"},"district":{"key":"09175","name":"Ebersberg","type":"Landkreis"},"federalState":{"key":"09","name":"Bayern"}},{"name":"Jahnstr.","postalCode":"85661","locality":"Forstinning","municipality":{"key":"09175118","name":"Forstinning","type":"Kreisangehörige_Gemeinde"},"district":{"key":"09175","name":"Ebersberg","type":"Landkreis"},"federalState":{"key":"09","name":"Bayern"}},{"name":"Keltenstr.","postalCode":"85661","locality":"Forstinning","municipality":{"key":"09175118","name":"Forstinning","type":"Kreisangehörige_Gemeinde"},"district":{"key":"09175","name":"Ebersberg","type":"Landkreis"},"federalState":{"key":"09","name":"Bayern"}},{"name":"Kerschensteinerstr.","postalCode":"85661","locality":"Forstinning","municipality":{"key":"09175118","name":"Forstinning","type":"Kreisangehörige_Gemeinde"},"district":{"key":"09175","name":"Ebersberg","type":"Landkreis"},"federalState":{"key":"09","name":"Bayern"}},{"name":"Kirchenweg","postalCode":"85661","locality":"Forstinning","municipality":{"key":"09175118","name":"Forstinning","type":"Kreisangehörige_Gemeinde"},"district":{"key":"09175","name":"Ebersberg","type":"Landkreis"},"federalState":{"key":"09","name":"Bayern"}},{"name":"Kressiermühle","postalCode":"85661","locality":"Forstinning","municipality":{"key":"09175118","name":"Forstinning","type":"Kreisangehörige_Gemeinde"},"district":{"key":"09175","name":"Ebersberg","type":"Landkreis"},"federalState":{"key":"09","name":"Bayern"}},{"name":"Lerchenweg","postalCode":"85661","locality":"Forstinning","municipality":{"key":"09175118","name":"Forstinning","type":"Kreisangehörige_Gemeinde"},"district":{"key":"09175","name":"Ebersberg","type":"Landkreis"},"federalState":{"key":"09","name":"Bayern"}},{"name":"Lindenstr.","postalCode":"85661","locality":"Forstinning","municipality":{"key":"09175118","name":"Forstinning","type":"Kreisangehörige_Gemeinde"},"district":{"key":"09175","name":"Ebersberg","type":"Landkreis"},"federalState":{"key":"09","name":"Bayern"}},{"name":"Meisenweg","postalCode":"85661","locality":"Forstinning","municipality":{"key":"09175118","name":"Forstinning","type":"Kreisangehörige_Gemeinde"},"district":{"key":"09175","name":"Ebersberg","type":"Landkreis"},"federalState":{"key":"09","name":"Bayern"}},{"name":"Mühldorfer Str.","postalCode":"85661","locality":"Forstinning","municipality":{"key":"09175118","name":"Forstinning","type":"Kreisangehörige_Gemeinde"},"district":{"key":"09175","name":"Ebersberg","type":"Landkreis"},"federalState":{"key":"09","name":"Bayern"}},{"name":"Münchener Str.","postalCode":"85661","locality":"Forstinning","municipality":{"key":"09175118","name":"Forstinning","type":"Kreisangehörige_Gemeinde"},"district":{"key":"09175","name":"Ebersberg","type":"Landkreis"},"federalState":{"key":"09","name":"Bayern"}},{"name":"Otto-von-Scheyern-Weg","postalCode":"85661","locality":"Forstinning","municipality":{"key":"09175118","name":"Forstinning","type":"Kreisangehörige_Gemeinde"},"district":{"key":"09175","name":"Ebersberg","type":"Landkreis"},"federalState":{"key":"09","name":"Bayern"}},{"name":"Parkstr.","postalCode":"85661","locality":"Forstinning","municipality":{"key":"09175118","name":"Forstinning","type":"Kreisangehörige_Gemeinde"},"district":{"key":"09175","name":"Ebersberg","type":"Landkreis"},"federalState":{"key":"09","name":"Bayern"}},{"name":"Pfarrgarten","postalCode":"85661","locality":"Forstinning","municipality":{"key":"09175118","name":"Forstinning","type":"Kreisangehörige_Gemeinde"},"district":{"key":"09175","name":"Ebersberg","type":"Landkreis"},"federalState":{"key":"09","name":"Bayern"}},{"name":"Raiffeisenstr.","postalCode":"85661","locality":"Forstinning","municipality":{"key":"09175118","name":"Forstinning","type":"Kreisangehörige_Gemeinde"},"district":{"key":"09175","name":"Ebersberg","type":"Landkreis"},"federalState":{"key":"09","name":"Bayern"}},{"name":"Richardisweg","postalCode":"85661","locality":"Forstinning","municipality":{"key":"09175118","name":"Forstinning","type":"Kreisangehörige_Gemeinde"},"district":{"key":"09175","name":"Ebersberg","type":"Landkreis"},"federalState":{"key":"09","name":"Bayern"}},{"name":"Römerstr.","postalCode":"85661","locality":"Forstinning","municipality":{"key":"09175118","name":"Forstinning","type":"Kreisangehörige_Gemeinde"},"district":{"key":"09175","name":"Ebersberg","type":"Landkreis"},"federalState":{"key":"09","name":"Bayern"}},{"name":"Salzburg","postalCode":"85661","locality":"Forstinning","municipality":{"key":"09175118","name":"Forstinning","type":"Kreisangehörige_Gemeinde"},"district":{"key":"09175","name":"Ebersberg","type":"Landkreis"},"federalState":{"key":"09","name":"Bayern"}},{"name":"Sankt-Johannes-Str.","postalCode":"85661","locality":"Forstinning","municipality":{"key":"09175118","name":"Forstinning","type":"Kreisangehörige_Gemeinde"},"district":{"key":"09175","name":"Ebersberg","type":"Landkreis"},"federalState":{"key":"09","name":"Bayern"}},{"name":"Sankt-Josef-Str.","postalCode":"85661","locality":"Forstinning","municipality":{"key":"09175118","name":"Forstinning","type":"Kreisangehörige_Gemeinde"},"district":{"key":"09175","name":"Ebersberg","type":"Landkreis"},"federalState":{"key":"09","name":"Bayern"}},{"name":"Sankt-Korbinian-Str.","postalCode":"85661","locality":"Forstinning","municipality":{"key":"09175118","name":"Forstinning","type":"Kreisangehörige_Gemeinde"},"district":{"key":"09175","name":"Ebersberg","type":"Landkreis"},"federalState":{"key":"09","name":"Bayern"}},{"name":"Sankt-Martin-Str.","postalCode":"85661","locality":"Forstinning","municipality":{"key":"09175118","name":"Forstinning","type":"Kreisangehörige_Gemeinde"},"district":{"key":"09175","name":"Ebersberg","type":"Landkreis"},"federalState":{"key":"09","name":"Bayern"}},{"name":"Sankt-Sylvester-Str.","postalCode":"85661","locality":"Forstinning","municipality":{"key":"09175118","name":"Forstinning","type":"Kreisangehörige_Gemeinde"},"district":{"key":"09175","name":"Ebersberg","type":"Landkreis"},"federalState":{"key":"09","name":"Bayern"}},{"name":"Schlesierweg","postalCode":"85661","locality":"Forstinning","municipality":{"key":"09175118","name":"Forstinning","type":"Kreisangehörige_Gemeinde"},"district":{"key":"09175","name":"Ebersberg","type":"Landkreis"},"federalState":{"key":"09","name":"Bayern"}},{"name":"Schwabener Str.","postalCode":"85661","locality":"Forstinning","municipality":{"key":"09175118","name":"Forstinning","type":"Kreisangehörige_Gemeinde"},"district":{"key":"09175","name":"Ebersberg","type":"Landkreis"},"federalState":{"key":"09","name":"Bayern"}},{"name":"Schwalbenweg","postalCode":"85661","locality":"Forstinning","municipality":{"key":"09175118","name":"Forstinning","type":"Kreisangehörige_Gemeinde"},"district":{"key":"09175","name":"Ebersberg","type":"Landkreis"},"federalState":{"key":"09","name":"Bayern"}},{"name":"Semptweg","postalCode":"85661","locality":"Forstinning","municipality":{"key":"09175118","name":"Forstinning","type":"Kreisangehörige_Gemeinde"},"district":{"key":"09175","name":"Ebersberg","type":"Landkreis"},"federalState":{"key":"09","name":"Bayern"}},{"name":"Sieghartstr.","postalCode":"85661","locality":"Forstinning","municipality":{"key":"09175118","name":"Forstinning","type":"Kreisangehörige_Gemeinde"},"district":{"key":"09175","name":"Ebersberg","type":"Landkreis"},"federalState":{"key":"09","name":"Bayern"}},{"name":"Siegstätter Weg","postalCode":"85661","locality":"Forstinning","municipality":{"key":"09175118","name":"Forstinning","type":"Kreisangehörige_Gemeinde"},"district":{"key":"09175","name":"Ebersberg","type":"Landkreis"},"federalState":{"key":"09","name":"Bayern"}},{"name":"Sonnengasse","postalCode":"85661","locality":"Forstinning","municipality":{"key":"09175118","name":"Forstinning","type":"Kreisangehörige_Gemeinde"},"district":{"key":"09175","name":"Ebersberg","type":"Landkreis"},"federalState":{"key":"09","name":"Bayern"}},{"name":"Steffelmühle","postalCode":"85661","locality":"Forstinning","municipality":{"key":"09175118","name":"Forstinning","type":"Kreisangehörige_Gemeinde"},"district":{"key":"09175","name":"Ebersberg","type":"Landkreis"},"federalState":{"key":"09","name":"Bayern"}},{"name":"Storchenweg","postalCode":"85661","locality":"Forstinning","municipality":{"key":"09175118","name":"Forstinning","type":"Kreisangehörige_Gemeinde"},"district":{"key":"09175","name":"Ebersberg","type":"Landkreis"},"federalState":{"key":"09","name":"Bayern"}},{"name":"Straßhamer Str.","postalCode":"85661","locality":"Forstinning","municipality":{"key":"09175118","name":"Forstinning","type":"Kreisangehörige_Gemeinde"},"district":{"key":"09175","name":"Ebersberg","type":"Landkreis"},"federalState":{"key":"09","name":"Bayern"}},{"name":"Sudetenweg","postalCode":"85661","locality":"Forstinning","municipality":{"key":"09175118","name":"Forstinning","type":"Kreisangehörige_Gemeinde"},"district":{"key":"09175","name":"Ebersberg","type":"Landkreis"},"federalState":{"key":"09","name":"Bayern"}},{"name":"Tannenweg","postalCode":"85661","locality":"Forstinning","municipality":{"key":"09175118","name":"Forstinning","type":"Kreisangehörige_Gemeinde"},"district":{"key":"09175","name":"Ebersberg","type":"Landkreis"},"federalState":{"key":"09","name":"Bayern"}},{"name":"Tassiloweg","postalCode":"85661","locality":"Forstinning","municipality":{"key":"09175118","name":"Forstinning","type":"Kreisangehörige_Gemeinde"},"district":{"key":"09175","name":"Ebersberg","type":"Landkreis"},"federalState":{"key":"09","name":"Bayern"}},{"name":"Tilsiterweg","postalCode":"85661","locality":"Forstinning","municipality":{"key":"09175118","name":"Forstinning","type":"Kreisangehörige_Gemeinde"},"district":{"key":"09175","name":"Ebersberg","type":"Landkreis"},"federalState":{"key":"09","name":"Bayern"}},{"name":"Törring-Geräumt","postalCode":"85661","locality":"Forstinning","municipality":{"key":"09175118","name":"Forstinning","type":"Kreisangehörige_Gemeinde"},"district":{"key":"09175","name":"Ebersberg","type":"Landkreis"},"federalState":{"key":"09","name":"Bayern"}},{"name":"Trischbergerweg","postalCode":"85661","locality":"Forstinning","municipality":{"key":"09175118","name":"Forstinning","type":"Kreisangehörige_Gemeinde"},"district":{"key":"09175","name":"Ebersberg","type":"Landkreis"},"federalState":{"key":"09","name":"Bayern"}},{"name":"Undeostr.","postalCode":"85661","locality":"Forstinning","municipality":{"key":"09175118","name":"Forstinning","type":"Kreisangehörige_Gemeinde"},"district":{"key":"09175","name":"Ebersberg","type":"Landkreis"},"federalState":{"key":"09","name":"Bayern"}},{"name":"Von-Mezzi-Str.","postalCode":"85661","locality":"Forstinning","municipality":{"key":"09175118","name":"Forstinning","type":"Kreisangehörige_Gemeinde"},"district":{"key":"09175","name":"Ebersberg","type":"Landkreis"},"federalState":{"key":"09","name":"Bayern"}},{"name":"Waldfriedhofstr.","postalCode":"85661","locality":"Forstinning","municipality":{"key":"09175118","name":"Forstinning","type":"Kreisangehörige_Gemeinde"},"district":{"key":"09175","name":"Ebersberg","type":"Landkreis"},"federalState":{"key":"09","name":"Bayern"}},{"name":"Waldstr.","postalCode":"85661","locality":"Forstinning","municipality":{"key":"09175118","name":"Forstinning","type":"Kreisangehörige_Gemeinde"},"district":{"key":"09175","name":"Ebersberg","type":"Landkreis"},"federalState":{"key":"09","name":"Bayern"}},{"name":"Wind","postalCode":"85661","locality":"Forstinning","municipality":{"key":"09175118","name":"Forstinning","type":"Kreisangehörige_Gemeinde"},"district":{"key":"09175","name":"Ebersberg","type":"Landkreis"},"federalState":{"key":"09","name":"Bayern"}},{"name":"Yrsch-Geräumt","postalCode":"85560","locality":"Ebersberger Forst","municipality":{"key":"09175452","name":"Ebersberger Forst","type":"Gemeindefreies_Gebiet_Unbewohnt"},"district":{"key":"09175","name":"Ebersberg","type":"Landkreis"},"federalState":{"key":"09","name":"Bayern"}},{"name":"Yrsch-Geräumt","postalCode":"85664","locality":"Ebersberger Forst","municipality":{"key":"09175452","name":"Ebersberger Forst","type":"Gemeindefreies_Gebiet_Unbewohnt"},"district":{"key":"09175","name":"Ebersberg","type":"Landkreis"},"federalState":{"key":"09","name":"Bayern"}},{"name":"Zangellucken-Geräumt","postalCode":"85560","locality":"Ebersberger Forst","municipality":{"key":"09175452","name":"Ebersberger Forst","type":"Gemeindefreies_Gebiet_Unbewohnt"},"district":{"key":"09175","name":"Ebersberg","type":"Landkreis"},"federalState":{"key":"09","name":"Bayern"}},{"name":"Zugspitzstr.","postalCode":"85560","locality":"Ebersberg","municipality":{"key":"09175115","name":"Ebersberg, St","type":"Stadt"},"district":{"key":"09175","name":"Ebersberg","type":"Landkreis"},"federalState":{"key":"09","name":"Bayern"}},{"name":"Zum Söll","postalCode":"85560","locality":"Ebersberg","municipality":{"key":"09175115","name":"Ebersberg, St","type":"Stadt"},"district":{"key":"09175","name":"Ebersberg","type":"Landkreis"},"federalState":{"key":"09","name":"Bayern"}},{"name":"Zur Gass","postalCode":"85560","locality":"Ebersberg","municipality":{"key":"09175115","name":"Ebersberg, St","type":"Stadt"},"district":{"key":"09175","name":"Ebersberg","type":"Landkreis"},"federalState":{"key":"09","name":"Bayern"}},{"name":"Zweiter Geräumtweg","postalCode":"85560","locality":"Ebersberg","municipality":{"key":"09175115","name":"Ebersberg, St","type":"Stadt"},"district":{"key":"09175","name":"Ebersberg","type":"Landkreis"},"federalState":{"key":"09","name":"Bayern"}},]