[{"name":"Am Backhaus","postalCode":"56271","locality":"Maroth","municipality":{"key":"07143045","name":"Maroth","type":"Kreisangehörige_Gemeinde"},"district":{"key":"07143","name":"Westerwaldkreis","type":"Landkreis"},"federalState":{"key":"07","name":"Rheinland-Pfalz"}},{"name":"Am Mühlenweg","postalCode":"56271","locality":"Maroth","municipality":{"key":"07143045","name":"Maroth","type":"Kreisangehörige_Gemeinde"},"district":{"key":"07143","name":"Westerwaldkreis","type":"Landkreis"},"federalState":{"key":"07","name":"Rheinland-Pfalz"}},{"name":"Am Schulgarten","postalCode":"56271","locality":"Maroth","municipality":{"key":"07143045","name":"Maroth","type":"Kreisangehörige_Gemeinde"},"district":{"key":"07143","name":"Westerwaldkreis","type":"Landkreis"},"federalState":{"key":"07","name":"Rheinland-Pfalz"}},{"name":"Am Staudamm","postalCode":"56271","locality":"Maroth","municipality":{"key":"07143045","name":"Maroth","type":"Kreisangehörige_Gemeinde"},"district":{"key":"07143","name":"Westerwaldkreis","type":"Landkreis"},"federalState":{"key":"07","name":"Rheinland-Pfalz"}},{"name":"Am Weidchen","postalCode":"56271","locality":"Maroth","municipality":{"key":"07143045","name":"Maroth","type":"Kreisangehörige_Gemeinde"},"district":{"key":"07143","name":"Westerwaldkreis","type":"Landkreis"},"federalState":{"key":"07","name":"Rheinland-Pfalz"}},{"name":"Bergweg","postalCode":"56271","locality":"Maroth","municipality":{"key":"07143045","name":"Maroth","type":"Kreisangehörige_Gemeinde"},"district":{"key":"07143","name":"Westerwaldkreis","type":"Landkreis"},"federalState":{"key":"07","name":"Rheinland-Pfalz"}},{"name":"Birkenstr.","postalCode":"56271","locality":"Maroth","municipality":{"key":"07143045","name":"Maroth","type":"Kreisangehörige_Gemeinde"},"district":{"key":"07143","name":"Westerwaldkreis","type":"Landkreis"},"federalState":{"key":"07","name":"Rheinland-Pfalz"}},{"name":"Waldseestr.","postalCode":"56271","locality":"Maroth","municipality":{"key":"07143045","name":"Maroth","type":"Kreisangehörige_Gemeinde"},"district":{"key":"07143","name":"Westerwaldkreis","type":"Landkreis"},"federalState":{"key":"07","name":"Rheinland-Pfalz"}},]