[{"name":"Achalmstr.","postalCode":"71131","locality":"Jettingen","municipality":{"key":"08115053","name":"Jettingen","type":"Kreisangehörige_Gemeinde"},"district":{"key":"08115","name":"Böblingen","type":"Landkreis"},"federalState":{"key":"08","name":"Baden-Württemberg"}},{"name":"Adlerstr.","postalCode":"89343","locality":"Jettingen-Scheppach","municipality":{"key":"09774144","name":"Jettingen-Scheppach, M","type":"Markt"},"district":{"key":"09774","name":"Günzburg","type":"Landkreis"},"federalState":{"key":"09","name":"Bayern"}},{"name":"Ahornstr.","postalCode":"71131","locality":"Jettingen","municipality":{"key":"08115053","name":"Jettingen","type":"Kreisangehörige_Gemeinde"},"district":{"key":"08115","name":"Böblingen","type":"Landkreis"},"federalState":{"key":"08","name":"Baden-Württemberg"}},{"name":"Aischbachstr.","postalCode":"71131","locality":"Jettingen","municipality":{"key":"08115053","name":"Jettingen","type":"Kreisangehörige_Gemeinde"},"district":{"key":"08115","name":"Böblingen","type":"Landkreis"},"federalState":{"key":"08","name":"Baden-Württemberg"}},{"name":"Albert-Einstein-Str.","postalCode":"89343","locality":"Jettingen-Scheppach","municipality":{"key":"09774144","name":"Jettingen-Scheppach, M","type":"Markt"},"district":{"key":"09774","name":"Günzburg","type":"Landkreis"},"federalState":{"key":"09","name":"Bayern"}},{"name":"Albert-Schweitzer-Str.","postalCode":"89343","locality":"Jettingen-Scheppach","municipality":{"key":"09774144","name":"Jettingen-Scheppach, M","type":"Markt"},"district":{"key":"09774","name":"Günzburg","type":"Landkreis"},"federalState":{"key":"09","name":"Bayern"}},{"name":"Albstr.","postalCode":"71131","locality":"Jettingen","municipality":{"key":"08115053","name":"Jettingen","type":"Kreisangehörige_Gemeinde"},"district":{"key":"08115","name":"Böblingen","type":"Landkreis"},"federalState":{"key":"08","name":"Baden-Württemberg"}},{"name":"Alemannenweg","postalCode":"71131","locality":"Jettingen","municipality":{"key":"08115053","name":"Jettingen","type":"Kreisangehörige_Gemeinde"},"district":{"key":"08115","name":"Böblingen","type":"Landkreis"},"federalState":{"key":"08","name":"Baden-Württemberg"}},{"name":"Alfred-Delp-Weg","postalCode":"89343","locality":"Jettingen-Scheppach","municipality":{"key":"09774144","name":"Jettingen-Scheppach, M","type":"Markt"},"district":{"key":"09774","name":"Günzburg","type":"Landkreis"},"federalState":{"key":"09","name":"Bayern"}},{"name":"Allerheiligenstr.","postalCode":"89343","locality":"Jettingen-Scheppach","municipality":{"key":"09774144","name":"Jettingen-Scheppach, M","type":"Markt"},"district":{"key":"09774","name":"Günzburg","type":"Landkreis"},"federalState":{"key":"09","name":"Bayern"}},{"name":"Allgerstr.","postalCode":"89343","locality":"Jettingen-Scheppach","municipality":{"key":"09774144","name":"Jettingen-Scheppach, M","type":"Markt"},"district":{"key":"09774","name":"Günzburg","type":"Landkreis"},"federalState":{"key":"09","name":"Bayern"}},{"name":"Am alten Sportplatz","postalCode":"89343","locality":"Jettingen-Scheppach","municipality":{"key":"09774144","name":"Jettingen-Scheppach, M","type":"Markt"},"district":{"key":"09774","name":"Günzburg","type":"Landkreis"},"federalState":{"key":"09","name":"Bayern"}},{"name":"Am Bergle","postalCode":"71131","locality":"Jettingen","municipality":{"key":"08115053","name":"Jettingen","type":"Kreisangehörige_Gemeinde"},"district":{"key":"08115","name":"Böblingen","type":"Landkreis"},"federalState":{"key":"08","name":"Baden-Württemberg"}},{"name":"Am Herrschaftsanger","postalCode":"89343","locality":"Jettingen-Scheppach","municipality":{"key":"09774144","name":"Jettingen-Scheppach, M","type":"Markt"},"district":{"key":"09774","name":"Günzburg","type":"Landkreis"},"federalState":{"key":"09","name":"Bayern"}},{"name":"Am Hölzle","postalCode":"89343","locality":"Jettingen-Scheppach","municipality":{"key":"09774144","name":"Jettingen-Scheppach, M","type":"Markt"},"district":{"key":"09774","name":"Günzburg","type":"Landkreis"},"federalState":{"key":"09","name":"Bayern"}},{"name":"Am Hopfengarten","postalCode":"89343","locality":"Jettingen-Scheppach","municipality":{"key":"09774144","name":"Jettingen-Scheppach, M","type":"Markt"},"district":{"key":"09774","name":"Günzburg","type":"Landkreis"},"federalState":{"key":"09","name":"Bayern"}},{"name":"Am Kapf","postalCode":"89343","locality":"Jettingen-Scheppach","municipality":{"key":"09774144","name":"Jettingen-Scheppach, M","type":"Markt"},"district":{"key":"09774","name":"Günzburg","type":"Landkreis"},"federalState":{"key":"09","name":"Bayern"}},{"name":"Am Kiesweg","postalCode":"89343","locality":"Jettingen-Scheppach","municipality":{"key":"09774144","name":"Jettingen-Scheppach, M","type":"Markt"},"district":{"key":"09774","name":"Günzburg","type":"Landkreis"},"federalState":{"key":"09","name":"Bayern"}},{"name":"Am Mühlweg","postalCode":"71131","locality":"Jettingen","municipality":{"key":"08115053","name":"Jettingen","type":"Kreisangehörige_Gemeinde"},"district":{"key":"08115","name":"Böblingen","type":"Landkreis"},"federalState":{"key":"08","name":"Baden-Württemberg"}},{"name":"Am Pflanzgarten","postalCode":"89343","locality":"Jettingen-Scheppach","municipality":{"key":"09774144","name":"Jettingen-Scheppach, M","type":"Markt"},"district":{"key":"09774","name":"Günzburg","type":"Landkreis"},"federalState":{"key":"09","name":"Bayern"}},{"name":"Am Rosenbrünnle","postalCode":"71131","locality":"Jettingen","municipality":{"key":"08115053","name":"Jettingen","type":"Kreisangehörige_Gemeinde"},"district":{"key":"08115","name":"Böblingen","type":"Landkreis"},"federalState":{"key":"08","name":"Baden-Württemberg"}},{"name":"Am Schießplatz","postalCode":"89343","locality":"Jettingen-Scheppach","municipality":{"key":"09774144","name":"Jettingen-Scheppach, M","type":"Markt"},"district":{"key":"09774","name":"Günzburg","type":"Landkreis"},"federalState":{"key":"09","name":"Bayern"}},{"name":"Amselstr.","postalCode":"71131","locality":"Jettingen","municipality":{"key":"08115053","name":"Jettingen","type":"Kreisangehörige_Gemeinde"},"district":{"key":"08115","name":"Böblingen","type":"Landkreis"},"federalState":{"key":"08","name":"Baden-Württemberg"}},{"name":"Amselweg","postalCode":"89343","locality":"Jettingen-Scheppach","municipality":{"key":"09774144","name":"Jettingen-Scheppach, M","type":"Markt"},"district":{"key":"09774","name":"Günzburg","type":"Landkreis"},"federalState":{"key":"09","name":"Bayern"}},{"name":"An der Kapelle","postalCode":"89343","locality":"Jettingen-Scheppach","municipality":{"key":"09774144","name":"Jettingen-Scheppach, M","type":"Markt"},"district":{"key":"09774","name":"Günzburg","type":"Landkreis"},"federalState":{"key":"09","name":"Bayern"}},{"name":"Angerstr.","postalCode":"89343","locality":"Jettingen-Scheppach","municipality":{"key":"09774144","name":"Jettingen-Scheppach, M","type":"Markt"},"district":{"key":"09774","name":"Günzburg","type":"Landkreis"},"federalState":{"key":"09","name":"Bayern"}},{"name":"Apfelrain","postalCode":"71131","locality":"Jettingen","municipality":{"key":"08115053","name":"Jettingen","type":"Kreisangehörige_Gemeinde"},"district":{"key":"08115","name":"Böblingen","type":"Landkreis"},"federalState":{"key":"08","name":"Baden-Württemberg"}},{"name":"Asternweg","postalCode":"71131","locality":"Jettingen","municipality":{"key":"08115053","name":"Jettingen","type":"Kreisangehörige_Gemeinde"},"district":{"key":"08115","name":"Böblingen","type":"Landkreis"},"federalState":{"key":"08","name":"Baden-Württemberg"}},{"name":"Auf der Ebene","postalCode":"89343","locality":"Jettingen-Scheppach","municipality":{"key":"09774144","name":"Jettingen-Scheppach, M","type":"Markt"},"district":{"key":"09774","name":"Günzburg","type":"Landkreis"},"federalState":{"key":"09","name":"Bayern"}},{"name":"Augsburger Str.","postalCode":"89343","locality":"Jettingen-Scheppach","municipality":{"key":"09774144","name":"Jettingen-Scheppach, M","type":"Markt"},"district":{"key":"09774","name":"Günzburg","type":"Landkreis"},"federalState":{"key":"09","name":"Bayern"}},{"name":"Bachstr.","postalCode":"89343","locality":"Jettingen-Scheppach","municipality":{"key":"09774144","name":"Jettingen-Scheppach, M","type":"Markt"},"district":{"key":"09774","name":"Günzburg","type":"Landkreis"},"federalState":{"key":"09","name":"Bayern"}},{"name":"Bahnhofstr.","postalCode":"89343","locality":"Jettingen-Scheppach","municipality":{"key":"09774144","name":"Jettingen-Scheppach, M","type":"Markt"},"district":{"key":"09774","name":"Günzburg","type":"Landkreis"},"federalState":{"key":"09","name":"Bayern"}},{"name":"Bahnhofweg","postalCode":"89343","locality":"Jettingen-Scheppach","municipality":{"key":"09774144","name":"Jettingen-Scheppach, M","type":"Markt"},"district":{"key":"09774","name":"Günzburg","type":"Landkreis"},"federalState":{"key":"09","name":"Bayern"}},{"name":"Bärengasse","postalCode":"71131","locality":"Jettingen","municipality":{"key":"08115053","name":"Jettingen","type":"Kreisangehörige_Gemeinde"},"district":{"key":"08115","name":"Böblingen","type":"Landkreis"},"federalState":{"key":"08","name":"Baden-Württemberg"}},{"name":"Bauerngasse","postalCode":"89343","locality":"Jettingen-Scheppach","municipality":{"key":"09774144","name":"Jettingen-Scheppach, M","type":"Markt"},"district":{"key":"09774","name":"Günzburg","type":"Landkreis"},"federalState":{"key":"09","name":"Bayern"}},{"name":"Baumäckerstr.","postalCode":"71131","locality":"Jettingen","municipality":{"key":"08115053","name":"Jettingen","type":"Kreisangehörige_Gemeinde"},"district":{"key":"08115","name":"Böblingen","type":"Landkreis"},"federalState":{"key":"08","name":"Baden-Württemberg"}},{"name":"Baumgartenstr.","postalCode":"71131","locality":"Jettingen","municipality":{"key":"08115053","name":"Jettingen","type":"Kreisangehörige_Gemeinde"},"district":{"key":"08115","name":"Böblingen","type":"Landkreis"},"federalState":{"key":"08","name":"Baden-Württemberg"}},{"name":"Bayerstr.","postalCode":"89343","locality":"Jettingen-Scheppach","municipality":{"key":"09774144","name":"Jettingen-Scheppach, M","type":"Markt"},"district":{"key":"09774","name":"Günzburg","type":"Landkreis"},"federalState":{"key":"09","name":"Bayern"}},{"name":"Beethovenstr.","postalCode":"71131","locality":"Jettingen","municipality":{"key":"08115053","name":"Jettingen","type":"Kreisangehörige_Gemeinde"},"district":{"key":"08115","name":"Böblingen","type":"Landkreis"},"federalState":{"key":"08","name":"Baden-Württemberg"}},{"name":"Beethovenstr.","postalCode":"89343","locality":"Jettingen-Scheppach","municipality":{"key":"09774144","name":"Jettingen-Scheppach, M","type":"Markt"},"district":{"key":"09774","name":"Günzburg","type":"Landkreis"},"federalState":{"key":"09","name":"Bayern"}},{"name":"Belchenstr.","postalCode":"71131","locality":"Jettingen","municipality":{"key":"08115053","name":"Jettingen","type":"Kreisangehörige_Gemeinde"},"district":{"key":"08115","name":"Böblingen","type":"Landkreis"},"federalState":{"key":"08","name":"Baden-Württemberg"}},{"name":"Bergstr.","postalCode":"71131","locality":"Jettingen","municipality":{"key":"08115053","name":"Jettingen","type":"Kreisangehörige_Gemeinde"},"district":{"key":"08115","name":"Böblingen","type":"Landkreis"},"federalState":{"key":"08","name":"Baden-Württemberg"}},{"name":"Bergstr.","postalCode":"89343","locality":"Jettingen-Scheppach","municipality":{"key":"09774144","name":"Jettingen-Scheppach, M","type":"Markt"},"district":{"key":"09774","name":"Günzburg","type":"Landkreis"},"federalState":{"key":"09","name":"Bayern"}},{"name":"Bgm.-Herner-Str.","postalCode":"89343","locality":"Jettingen-Scheppach","municipality":{"key":"09774144","name":"Jettingen-Scheppach, M","type":"Markt"},"district":{"key":"09774","name":"Günzburg","type":"Landkreis"},"federalState":{"key":"09","name":"Bayern"}},{"name":"Billing","postalCode":"71131","locality":"Jettingen","municipality":{"key":"08115053","name":"Jettingen","type":"Kreisangehörige_Gemeinde"},"district":{"key":"08115","name":"Böblingen","type":"Landkreis"},"federalState":{"key":"08","name":"Baden-Württemberg"}},{"name":"Billingstr.","postalCode":"71131","locality":"Jettingen","municipality":{"key":"08115053","name":"Jettingen","type":"Kreisangehörige_Gemeinde"},"district":{"key":"08115","name":"Böblingen","type":"Landkreis"},"federalState":{"key":"08","name":"Baden-Württemberg"}},{"name":"Binsgasse","postalCode":"71131","locality":"Jettingen","municipality":{"key":"08115053","name":"Jettingen","type":"Kreisangehörige_Gemeinde"},"district":{"key":"08115","name":"Böblingen","type":"Landkreis"},"federalState":{"key":"08","name":"Baden-Württemberg"}},{"name":"Birkenweg","postalCode":"71131","locality":"Jettingen","municipality":{"key":"08115053","name":"Jettingen","type":"Kreisangehörige_Gemeinde"},"district":{"key":"08115","name":"Böblingen","type":"Landkreis"},"federalState":{"key":"08","name":"Baden-Württemberg"}},{"name":"Birkenweg","postalCode":"89343","locality":"Jettingen-Scheppach","municipality":{"key":"09774144","name":"Jettingen-Scheppach, M","type":"Markt"},"district":{"key":"09774","name":"Günzburg","type":"Landkreis"},"federalState":{"key":"09","name":"Bayern"}},{"name":"Bischofstr.","postalCode":"89343","locality":"Jettingen-Scheppach","municipality":{"key":"09774144","name":"Jettingen-Scheppach, M","type":"Markt"},"district":{"key":"09774","name":"Günzburg","type":"Landkreis"},"federalState":{"key":"09","name":"Bayern"}},{"name":"Bischof-von-Ketteler-Str.","postalCode":"89343","locality":"Jettingen-Scheppach","municipality":{"key":"09774144","name":"Jettingen-Scheppach, M","type":"Markt"},"district":{"key":"09774","name":"Günzburg","type":"Landkreis"},"federalState":{"key":"09","name":"Bayern"}},{"name":"Bleichstr.","postalCode":"89343","locality":"Jettingen-Scheppach","municipality":{"key":"09774144","name":"Jettingen-Scheppach, M","type":"Markt"},"district":{"key":"09774","name":"Günzburg","type":"Landkreis"},"federalState":{"key":"09","name":"Bayern"}},{"name":"Blumenstr.","postalCode":"71131","locality":"Jettingen","municipality":{"key":"08115053","name":"Jettingen","type":"Kreisangehörige_Gemeinde"},"district":{"key":"08115","name":"Böblingen","type":"Landkreis"},"federalState":{"key":"08","name":"Baden-Württemberg"}},{"name":"Blumenstr.","postalCode":"89343","locality":"Jettingen-Scheppach","municipality":{"key":"09774144","name":"Jettingen-Scheppach, M","type":"Markt"},"district":{"key":"09774","name":"Günzburg","type":"Landkreis"},"federalState":{"key":"09","name":"Bayern"}},{"name":"Bongartstr.","postalCode":"71131","locality":"Jettingen","municipality":{"key":"08115053","name":"Jettingen","type":"Kreisangehörige_Gemeinde"},"district":{"key":"08115","name":"Böblingen","type":"Landkreis"},"federalState":{"key":"08","name":"Baden-Württemberg"}},{"name":"Brahmsstr.","postalCode":"71131","locality":"Jettingen","municipality":{"key":"08115053","name":"Jettingen","type":"Kreisangehörige_Gemeinde"},"district":{"key":"08115","name":"Böblingen","type":"Landkreis"},"federalState":{"key":"08","name":"Baden-Württemberg"}},{"name":"Brechgasse","postalCode":"71131","locality":"Jettingen","municipality":{"key":"08115053","name":"Jettingen","type":"Kreisangehörige_Gemeinde"},"district":{"key":"08115","name":"Böblingen","type":"Landkreis"},"federalState":{"key":"08","name":"Baden-Württemberg"}},{"name":"Brementalstr.","postalCode":"89343","locality":"Jettingen-Scheppach","municipality":{"key":"09774144","name":"Jettingen-Scheppach, M","type":"Markt"},"district":{"key":"09774","name":"Günzburg","type":"Landkreis"},"federalState":{"key":"09","name":"Bayern"}},{"name":"Bronnerweg","postalCode":"89343","locality":"Jettingen-Scheppach","municipality":{"key":"09774144","name":"Jettingen-Scheppach, M","type":"Markt"},"district":{"key":"09774","name":"Günzburg","type":"Landkreis"},"federalState":{"key":"09","name":"Bayern"}},{"name":"Brühlstr.","postalCode":"71131","locality":"Jettingen","municipality":{"key":"08115053","name":"Jettingen","type":"Kreisangehörige_Gemeinde"},"district":{"key":"08115","name":"Böblingen","type":"Landkreis"},"federalState":{"key":"08","name":"Baden-Württemberg"}},{"name":"Brünnelesweg","postalCode":"71131","locality":"Jettingen","municipality":{"key":"08115053","name":"Jettingen","type":"Kreisangehörige_Gemeinde"},"district":{"key":"08115","name":"Böblingen","type":"Landkreis"},"federalState":{"key":"08","name":"Baden-Württemberg"}},{"name":"Brunnenstr.","postalCode":"71131","locality":"Jettingen","municipality":{"key":"08115053","name":"Jettingen","type":"Kreisangehörige_Gemeinde"},"district":{"key":"08115","name":"Böblingen","type":"Landkreis"},"federalState":{"key":"08","name":"Baden-Württemberg"}},{"name":"Brunnenstr.","postalCode":"89343","locality":"Jettingen-Scheppach","municipality":{"key":"09774144","name":"Jettingen-Scheppach, M","type":"Markt"},"district":{"key":"09774","name":"Günzburg","type":"Landkreis"},"federalState":{"key":"09","name":"Bayern"}},{"name":"Buchenstr.","postalCode":"71131","locality":"Jettingen","municipality":{"key":"08115053","name":"Jettingen","type":"Kreisangehörige_Gemeinde"},"district":{"key":"08115","name":"Böblingen","type":"Landkreis"},"federalState":{"key":"08","name":"Baden-Württemberg"}},{"name":"Buchenweg","postalCode":"89343","locality":"Jettingen-Scheppach","municipality":{"key":"09774144","name":"Jettingen-Scheppach, M","type":"Markt"},"district":{"key":"09774","name":"Günzburg","type":"Landkreis"},"federalState":{"key":"09","name":"Bayern"}},{"name":"Burgauer Weg","postalCode":"89343","locality":"Jettingen-Scheppach","municipality":{"key":"09774144","name":"Jettingen-Scheppach, M","type":"Markt"},"district":{"key":"09774","name":"Günzburg","type":"Landkreis"},"federalState":{"key":"09","name":"Bayern"}},{"name":"Bussardstr.","postalCode":"71131","locality":"Jettingen","municipality":{"key":"08115053","name":"Jettingen","type":"Kreisangehörige_Gemeinde"},"district":{"key":"08115","name":"Böblingen","type":"Landkreis"},"federalState":{"key":"08","name":"Baden-Württemberg"}},{"name":"Carl-von-Linde Str.","postalCode":"89343","locality":"Jettingen-Scheppach","municipality":{"key":"09774144","name":"Jettingen-Scheppach, M","type":"Markt"},"district":{"key":"09774","name":"Günzburg","type":"Landkreis"},"federalState":{"key":"09","name":"Bayern"}},{"name":"Christian-Hartmann-Str.","postalCode":"89343","locality":"Jettingen-Scheppach","municipality":{"key":"09774144","name":"Jettingen-Scheppach, M","type":"Markt"},"district":{"key":"09774","name":"Günzburg","type":"Landkreis"},"federalState":{"key":"09","name":"Bayern"}},{"name":"Christoph-von-Schmid-Str.","postalCode":"89343","locality":"Jettingen-Scheppach","municipality":{"key":"09774144","name":"Jettingen-Scheppach, M","type":"Markt"},"district":{"key":"09774","name":"Günzburg","type":"Landkreis"},"federalState":{"key":"09","name":"Bayern"}},{"name":"Claus-von-Stauffenberg-Str.","postalCode":"89343","locality":"Jettingen-Scheppach","municipality":{"key":"09774144","name":"Jettingen-Scheppach, M","type":"Markt"},"district":{"key":"09774","name":"Günzburg","type":"Landkreis"},"federalState":{"key":"09","name":"Bayern"}},{"name":"Dinkelweg","postalCode":"71131","locality":"Jettingen","municipality":{"key":"08115053","name":"Jettingen","type":"Kreisangehörige_Gemeinde"},"district":{"key":"08115","name":"Böblingen","type":"Landkreis"},"federalState":{"key":"08","name":"Baden-Württemberg"}},{"name":"Dobelstr.","postalCode":"71131","locality":"Jettingen","municipality":{"key":"08115053","name":"Jettingen","type":"Kreisangehörige_Gemeinde"},"district":{"key":"08115","name":"Böblingen","type":"Landkreis"},"federalState":{"key":"08","name":"Baden-Württemberg"}},{"name":"Dominikus-Böhm-Str.","postalCode":"89343","locality":"Jettingen-Scheppach","municipality":{"key":"09774144","name":"Jettingen-Scheppach, M","type":"Markt"},"district":{"key":"09774","name":"Günzburg","type":"Landkreis"},"federalState":{"key":"09","name":"Bayern"}},{"name":"Dossenberger Str.","postalCode":"89343","locality":"Jettingen-Scheppach","municipality":{"key":"09774144","name":"Jettingen-Scheppach, M","type":"Markt"},"district":{"key":"09774","name":"Günzburg","type":"Landkreis"},"federalState":{"key":"09","name":"Bayern"}},{"name":"Drosselweg","postalCode":"71131","locality":"Jettingen","municipality":{"key":"08115053","name":"Jettingen","type":"Kreisangehörige_Gemeinde"},"district":{"key":"08115","name":"Böblingen","type":"Landkreis"},"federalState":{"key":"08","name":"Baden-Württemberg"}},{"name":"Drosselweg","postalCode":"89343","locality":"Jettingen-Scheppach","municipality":{"key":"09774144","name":"Jettingen-Scheppach, M","type":"Markt"},"district":{"key":"09774","name":"Günzburg","type":"Landkreis"},"federalState":{"key":"09","name":"Bayern"}},{"name":"Dr.-Würth-Str.","postalCode":"89343","locality":"Jettingen-Scheppach","municipality":{"key":"09774144","name":"Jettingen-Scheppach, M","type":"Markt"},"district":{"key":"09774","name":"Günzburg","type":"Landkreis"},"federalState":{"key":"09","name":"Bayern"}},{"name":"Dürrenbergweg","postalCode":"89343","locality":"Jettingen-Scheppach","municipality":{"key":"09774144","name":"Jettingen-Scheppach, M","type":"Markt"},"district":{"key":"09774","name":"Günzburg","type":"Landkreis"},"federalState":{"key":"09","name":"Bayern"}},{"name":"Eibenweg","postalCode":"71131","locality":"Jettingen","municipality":{"key":"08115053","name":"Jettingen","type":"Kreisangehörige_Gemeinde"},"district":{"key":"08115","name":"Böblingen","type":"Landkreis"},"federalState":{"key":"08","name":"Baden-Württemberg"}},{"name":"Eichendorffstr.","postalCode":"89343","locality":"Jettingen-Scheppach","municipality":{"key":"09774144","name":"Jettingen-Scheppach, M","type":"Markt"},"district":{"key":"09774","name":"Günzburg","type":"Landkreis"},"federalState":{"key":"09","name":"Bayern"}},{"name":"Eichenweg","postalCode":"71131","locality":"Jettingen","municipality":{"key":"08115053","name":"Jettingen","type":"Kreisangehörige_Gemeinde"},"district":{"key":"08115","name":"Böblingen","type":"Landkreis"},"federalState":{"key":"08","name":"Baden-Württemberg"}},{"name":"Eichenweg","postalCode":"89343","locality":"Jettingen-Scheppach","municipality":{"key":"09774144","name":"Jettingen-Scheppach, M","type":"Markt"},"district":{"key":"09774","name":"Günzburg","type":"Landkreis"},"federalState":{"key":"09","name":"Bayern"}},{"name":"Eichenwiesenstr.","postalCode":"71131","locality":"Jettingen","municipality":{"key":"08115053","name":"Jettingen","type":"Kreisangehörige_Gemeinde"},"district":{"key":"08115","name":"Böblingen","type":"Landkreis"},"federalState":{"key":"08","name":"Baden-Württemberg"}},{"name":"Elsternweg","postalCode":"71131","locality":"Jettingen","municipality":{"key":"08115053","name":"Jettingen","type":"Kreisangehörige_Gemeinde"},"district":{"key":"08115","name":"Böblingen","type":"Landkreis"},"federalState":{"key":"08","name":"Baden-Württemberg"}},{"name":"Emminger Str.","postalCode":"71131","locality":"Jettingen","municipality":{"key":"08115053","name":"Jettingen","type":"Kreisangehörige_Gemeinde"},"district":{"key":"08115","name":"Böblingen","type":"Landkreis"},"federalState":{"key":"08","name":"Baden-Württemberg"}},{"name":"Enderlestr.","postalCode":"89343","locality":"Jettingen-Scheppach","municipality":{"key":"09774144","name":"Jettingen-Scheppach, M","type":"Markt"},"district":{"key":"09774","name":"Günzburg","type":"Landkreis"},"federalState":{"key":"09","name":"Bayern"}},{"name":"Enges Gässle","postalCode":"71131","locality":"Jettingen","municipality":{"key":"08115053","name":"Jettingen","type":"Kreisangehörige_Gemeinde"},"district":{"key":"08115","name":"Böblingen","type":"Landkreis"},"federalState":{"key":"08","name":"Baden-Württemberg"}},{"name":"Erlenbach","postalCode":"89343","locality":"Jettingen-Scheppach","municipality":{"key":"09774144","name":"Jettingen-Scheppach, M","type":"Markt"},"district":{"key":"09774","name":"Günzburg","type":"Landkreis"},"federalState":{"key":"09","name":"Bayern"}},{"name":"Erlenbachstr.","postalCode":"89343","locality":"Jettingen-Scheppach","municipality":{"key":"09774144","name":"Jettingen-Scheppach, M","type":"Markt"},"district":{"key":"09774","name":"Günzburg","type":"Landkreis"},"federalState":{"key":"09","name":"Bayern"}},{"name":"Erlenweg","postalCode":"71131","locality":"Jettingen","municipality":{"key":"08115053","name":"Jettingen","type":"Kreisangehörige_Gemeinde"},"district":{"key":"08115","name":"Böblingen","type":"Landkreis"},"federalState":{"key":"08","name":"Baden-Württemberg"}},{"name":"Eschenweg","postalCode":"71131","locality":"Jettingen","municipality":{"key":"08115053","name":"Jettingen","type":"Kreisangehörige_Gemeinde"},"district":{"key":"08115","name":"Böblingen","type":"Landkreis"},"federalState":{"key":"08","name":"Baden-Württemberg"}},{"name":"Espachstr.","postalCode":"89343","locality":"Jettingen-Scheppach","municipality":{"key":"09774144","name":"Jettingen-Scheppach, M","type":"Markt"},"district":{"key":"09774","name":"Günzburg","type":"Landkreis"},"federalState":{"key":"09","name":"Bayern"}},{"name":"Etzwiesenstr.","postalCode":"71131","locality":"Jettingen","municipality":{"key":"08115053","name":"Jettingen","type":"Kreisangehörige_Gemeinde"},"district":{"key":"08115","name":"Böblingen","type":"Landkreis"},"federalState":{"key":"08","name":"Baden-Württemberg"}},{"name":"Fabrikstr.","postalCode":"89343","locality":"Jettingen-Scheppach","municipality":{"key":"09774144","name":"Jettingen-Scheppach, M","type":"Markt"},"district":{"key":"09774","name":"Günzburg","type":"Landkreis"},"federalState":{"key":"09","name":"Bayern"}},{"name":"Falkenstr.","postalCode":"89343","locality":"Jettingen-Scheppach","municipality":{"key":"09774144","name":"Jettingen-Scheppach, M","type":"Markt"},"district":{"key":"09774","name":"Günzburg","type":"Landkreis"},"federalState":{"key":"09","name":"Bayern"}},{"name":"Falkenweg","postalCode":"71131","locality":"Jettingen","municipality":{"key":"08115053","name":"Jettingen","type":"Kreisangehörige_Gemeinde"},"district":{"key":"08115","name":"Böblingen","type":"Landkreis"},"federalState":{"key":"08","name":"Baden-Württemberg"}},{"name":"Fasanenstr.","postalCode":"71131","locality":"Jettingen","municipality":{"key":"08115053","name":"Jettingen","type":"Kreisangehörige_Gemeinde"},"district":{"key":"08115","name":"Böblingen","type":"Landkreis"},"federalState":{"key":"08","name":"Baden-Württemberg"}},{"name":"Feldbergstr.","postalCode":"71131","locality":"Jettingen","municipality":{"key":"08115053","name":"Jettingen","type":"Kreisangehörige_Gemeinde"},"district":{"key":"08115","name":"Böblingen","type":"Landkreis"},"federalState":{"key":"08","name":"Baden-Württemberg"}},{"name":"Fichtenweg","postalCode":"71131","locality":"Jettingen","municipality":{"key":"08115053","name":"Jettingen","type":"Kreisangehörige_Gemeinde"},"district":{"key":"08115","name":"Böblingen","type":"Landkreis"},"federalState":{"key":"08","name":"Baden-Württemberg"}},{"name":"Finkenweg","postalCode":"71131","locality":"Jettingen","municipality":{"key":"08115053","name":"Jettingen","type":"Kreisangehörige_Gemeinde"},"district":{"key":"08115","name":"Böblingen","type":"Landkreis"},"federalState":{"key":"08","name":"Baden-Württemberg"}},{"name":"Finkenweg","postalCode":"89343","locality":"Jettingen-Scheppach","municipality":{"key":"09774144","name":"Jettingen-Scheppach, M","type":"Markt"},"district":{"key":"09774","name":"Günzburg","type":"Landkreis"},"federalState":{"key":"09","name":"Bayern"}},{"name":"Fischerstr.","postalCode":"89343","locality":"Jettingen-Scheppach","municipality":{"key":"09774144","name":"Jettingen-Scheppach, M","type":"Markt"},"district":{"key":"09774","name":"Günzburg","type":"Landkreis"},"federalState":{"key":"09","name":"Bayern"}},{"name":"Flachsweg","postalCode":"71131","locality":"Jettingen","municipality":{"key":"08115053","name":"Jettingen","type":"Kreisangehörige_Gemeinde"},"district":{"key":"08115","name":"Böblingen","type":"Landkreis"},"federalState":{"key":"08","name":"Baden-Württemberg"}},{"name":"Fliederweg","postalCode":"71131","locality":"Jettingen","municipality":{"key":"08115053","name":"Jettingen","type":"Kreisangehörige_Gemeinde"},"district":{"key":"08115","name":"Böblingen","type":"Landkreis"},"federalState":{"key":"08","name":"Baden-Württemberg"}},{"name":"Föhrstr.","postalCode":"71131","locality":"Jettingen","municipality":{"key":"08115053","name":"Jettingen","type":"Kreisangehörige_Gemeinde"},"district":{"key":"08115","name":"Böblingen","type":"Landkreis"},"federalState":{"key":"08","name":"Baden-Württemberg"}},{"name":"Forchenweg","postalCode":"71131","locality":"Jettingen","municipality":{"key":"08115053","name":"Jettingen","type":"Kreisangehörige_Gemeinde"},"district":{"key":"08115","name":"Böblingen","type":"Landkreis"},"federalState":{"key":"08","name":"Baden-Württemberg"}},{"name":"Forsthäldelesweg","postalCode":"71131","locality":"Jettingen","municipality":{"key":"08115053","name":"Jettingen","type":"Kreisangehörige_Gemeinde"},"district":{"key":"08115","name":"Böblingen","type":"Landkreis"},"federalState":{"key":"08","name":"Baden-Württemberg"}},{"name":"Franziska-von-Hohenheim-Str.","postalCode":"71131","locality":"Jettingen","municipality":{"key":"08115053","name":"Jettingen","type":"Kreisangehörige_Gemeinde"},"district":{"key":"08115","name":"Böblingen","type":"Landkreis"},"federalState":{"key":"08","name":"Baden-Württemberg"}},{"name":"Freihalder Str.","postalCode":"89343","locality":"Jettingen-Scheppach","municipality":{"key":"09774144","name":"Jettingen-Scheppach, M","type":"Markt"},"district":{"key":"09774","name":"Günzburg","type":"Landkreis"},"federalState":{"key":"09","name":"Bayern"}},{"name":"Friedhofstr.","postalCode":"71131","locality":"Jettingen","municipality":{"key":"08115053","name":"Jettingen","type":"Kreisangehörige_Gemeinde"},"district":{"key":"08115","name":"Böblingen","type":"Landkreis"},"federalState":{"key":"08","name":"Baden-Württemberg"}},{"name":"Friedrich-Ebert-Str.","postalCode":"89343","locality":"Jettingen-Scheppach","municipality":{"key":"09774144","name":"Jettingen-Scheppach, M","type":"Markt"},"district":{"key":"09774","name":"Günzburg","type":"Landkreis"},"federalState":{"key":"09","name":"Bayern"}},{"name":"Friedrichstr.","postalCode":"71131","locality":"Jettingen","municipality":{"key":"08115053","name":"Jettingen","type":"Kreisangehörige_Gemeinde"},"district":{"key":"08115","name":"Böblingen","type":"Landkreis"},"federalState":{"key":"08","name":"Baden-Württemberg"}},{"name":"Friedrich-von-Schiller-Str.","postalCode":"89343","locality":"Jettingen-Scheppach","municipality":{"key":"09774144","name":"Jettingen-Scheppach, M","type":"Markt"},"district":{"key":"09774","name":"Günzburg","type":"Landkreis"},"federalState":{"key":"09","name":"Bayern"}},{"name":"Frühlingstr.","postalCode":"89343","locality":"Jettingen-Scheppach","municipality":{"key":"09774144","name":"Jettingen-Scheppach, M","type":"Markt"},"district":{"key":"09774","name":"Günzburg","type":"Landkreis"},"federalState":{"key":"09","name":"Bayern"}},{"name":"Gartenstr.","postalCode":"71131","locality":"Jettingen","municipality":{"key":"08115053","name":"Jettingen","type":"Kreisangehörige_Gemeinde"},"district":{"key":"08115","name":"Böblingen","type":"Landkreis"},"federalState":{"key":"08","name":"Baden-Württemberg"}},{"name":"Gartenstr.","postalCode":"89343","locality":"Jettingen-Scheppach","municipality":{"key":"09774144","name":"Jettingen-Scheppach, M","type":"Markt"},"district":{"key":"09774","name":"Günzburg","type":"Landkreis"},"federalState":{"key":"09","name":"Bayern"}},{"name":"Gärtlesweg","postalCode":"71131","locality":"Jettingen","municipality":{"key":"08115053","name":"Jettingen","type":"Kreisangehörige_Gemeinde"},"district":{"key":"08115","name":"Böblingen","type":"Landkreis"},"federalState":{"key":"08","name":"Baden-Württemberg"}},{"name":"Gerberstr.","postalCode":"89343","locality":"Jettingen-Scheppach","municipality":{"key":"09774144","name":"Jettingen-Scheppach, M","type":"Markt"},"district":{"key":"09774","name":"Günzburg","type":"Landkreis"},"federalState":{"key":"09","name":"Bayern"}},{"name":"Geschwister-Scholl-Str.","postalCode":"89343","locality":"Jettingen-Scheppach","municipality":{"key":"09774144","name":"Jettingen-Scheppach, M","type":"Markt"},"district":{"key":"09774","name":"Günzburg","type":"Landkreis"},"federalState":{"key":"09","name":"Bayern"}},{"name":"Goethestr.","postalCode":"71131","locality":"Jettingen","municipality":{"key":"08115053","name":"Jettingen","type":"Kreisangehörige_Gemeinde"},"district":{"key":"08115","name":"Böblingen","type":"Landkreis"},"federalState":{"key":"08","name":"Baden-Württemberg"}},{"name":"Goethestr.","postalCode":"89343","locality":"Jettingen-Scheppach","municipality":{"key":"09774144","name":"Jettingen-Scheppach, M","type":"Markt"},"district":{"key":"09774","name":"Günzburg","type":"Landkreis"},"federalState":{"key":"09","name":"Bayern"}},{"name":"Goldammerweg","postalCode":"89343","locality":"Jettingen-Scheppach","municipality":{"key":"09774144","name":"Jettingen-Scheppach, M","type":"Markt"},"district":{"key":"09774","name":"Günzburg","type":"Landkreis"},"federalState":{"key":"09","name":"Bayern"}},{"name":"Grabenstr.","postalCode":"71131","locality":"Jettingen","municipality":{"key":"08115053","name":"Jettingen","type":"Kreisangehörige_Gemeinde"},"district":{"key":"08115","name":"Böblingen","type":"Landkreis"},"federalState":{"key":"08","name":"Baden-Württemberg"}},{"name":"Grießweg","postalCode":"71131","locality":"Jettingen","municipality":{"key":"08115053","name":"Jettingen","type":"Kreisangehörige_Gemeinde"},"district":{"key":"08115","name":"Böblingen","type":"Landkreis"},"federalState":{"key":"08","name":"Baden-Württemberg"}},{"name":"Grottenaustr.","postalCode":"89343","locality":"Jettingen-Scheppach","municipality":{"key":"09774144","name":"Jettingen-Scheppach, M","type":"Markt"},"district":{"key":"09774","name":"Günzburg","type":"Landkreis"},"federalState":{"key":"09","name":"Bayern"}},{"name":"Gustav-Streseman-Str.","postalCode":"89343","locality":"Jettingen-Scheppach","municipality":{"key":"09774144","name":"Jettingen-Scheppach, M","type":"Markt"},"district":{"key":"09774","name":"Günzburg","type":"Landkreis"},"federalState":{"key":"09","name":"Bayern"}},{"name":"Gutmeisterweg","postalCode":"71131","locality":"Jettingen","municipality":{"key":"08115053","name":"Jettingen","type":"Kreisangehörige_Gemeinde"},"district":{"key":"08115","name":"Böblingen","type":"Landkreis"},"federalState":{"key":"08","name":"Baden-Württemberg"}},{"name":"Habsburger Str.","postalCode":"89343","locality":"Jettingen-Scheppach","municipality":{"key":"09774144","name":"Jettingen-Scheppach, M","type":"Markt"},"district":{"key":"09774","name":"Günzburg","type":"Landkreis"},"federalState":{"key":"09","name":"Bayern"}},{"name":"Haferweg","postalCode":"71131","locality":"Jettingen","municipality":{"key":"08115053","name":"Jettingen","type":"Kreisangehörige_Gemeinde"},"district":{"key":"08115","name":"Böblingen","type":"Landkreis"},"federalState":{"key":"08","name":"Baden-Württemberg"}},{"name":"Haldenstr.","postalCode":"71131","locality":"Jettingen","municipality":{"key":"08115053","name":"Jettingen","type":"Kreisangehörige_Gemeinde"},"district":{"key":"08115","name":"Böblingen","type":"Landkreis"},"federalState":{"key":"08","name":"Baden-Württemberg"}},{"name":"Hammerschmiedweg","postalCode":"89343","locality":"Jettingen-Scheppach","municipality":{"key":"09774144","name":"Jettingen-Scheppach, M","type":"Markt"},"district":{"key":"09774","name":"Günzburg","type":"Landkreis"},"federalState":{"key":"09","name":"Bayern"}},{"name":"Hanggasse","postalCode":"71131","locality":"Jettingen","municipality":{"key":"08115053","name":"Jettingen","type":"Kreisangehörige_Gemeinde"},"district":{"key":"08115","name":"Böblingen","type":"Landkreis"},"federalState":{"key":"08","name":"Baden-Württemberg"}},{"name":"Haselweg","postalCode":"71131","locality":"Jettingen","municipality":{"key":"08115053","name":"Jettingen","type":"Kreisangehörige_Gemeinde"},"district":{"key":"08115","name":"Böblingen","type":"Landkreis"},"federalState":{"key":"08","name":"Baden-Württemberg"}},{"name":"Haslacher Str.","postalCode":"71131","locality":"Jettingen","municipality":{"key":"08115053","name":"Jettingen","type":"Kreisangehörige_Gemeinde"},"district":{"key":"08115","name":"Böblingen","type":"Landkreis"},"federalState":{"key":"08","name":"Baden-Württemberg"}},{"name":"Hauffstr.","postalCode":"71131","locality":"Jettingen","municipality":{"key":"08115053","name":"Jettingen","type":"Kreisangehörige_Gemeinde"},"district":{"key":"08115","name":"Böblingen","type":"Landkreis"},"federalState":{"key":"08","name":"Baden-Württemberg"}},{"name":"Hauptstr.","postalCode":"71131","locality":"Jettingen","municipality":{"key":"08115053","name":"Jettingen","type":"Kreisangehörige_Gemeinde"},"district":{"key":"08115","name":"Böblingen","type":"Landkreis"},"federalState":{"key":"08","name":"Baden-Württemberg"}},{"name":"Hauptstr.","postalCode":"89343","locality":"Jettingen-Scheppach","municipality":{"key":"09774144","name":"Jettingen-Scheppach, M","type":"Markt"},"district":{"key":"09774","name":"Günzburg","type":"Landkreis"},"federalState":{"key":"09","name":"Bayern"}},{"name":"Hauptstr. 207, 209","postalCode":"89343","locality":"Jettingen-Scheppach","municipality":{"key":"09774144","name":"Jettingen-Scheppach, M","type":"Markt"},"district":{"key":"09774","name":"Günzburg","type":"Landkreis"},"federalState":{"key":"09","name":"Bayern"}},{"name":"Hebelstr.","postalCode":"71131","locality":"Jettingen","municipality":{"key":"08115053","name":"Jettingen","type":"Kreisangehörige_Gemeinde"},"district":{"key":"08115","name":"Böblingen","type":"Landkreis"},"federalState":{"key":"08","name":"Baden-Württemberg"}},{"name":"Heilbergstr.","postalCode":"71131","locality":"Jettingen","municipality":{"key":"08115053","name":"Jettingen","type":"Kreisangehörige_Gemeinde"},"district":{"key":"08115","name":"Böblingen","type":"Landkreis"},"federalState":{"key":"08","name":"Baden-Württemberg"}},{"name":"Heinrich-Barthelmes-Str.","postalCode":"89343","locality":"Jettingen-Scheppach","municipality":{"key":"09774144","name":"Jettingen-Scheppach, M","type":"Markt"},"district":{"key":"09774","name":"Günzburg","type":"Landkreis"},"federalState":{"key":"09","name":"Bayern"}},{"name":"Herdweg","postalCode":"71131","locality":"Jettingen","municipality":{"key":"08115053","name":"Jettingen","type":"Kreisangehörige_Gemeinde"},"district":{"key":"08115","name":"Böblingen","type":"Landkreis"},"federalState":{"key":"08","name":"Baden-Württemberg"}},{"name":"Herrenberger Str.","postalCode":"71131","locality":"Jettingen","municipality":{"key":"08115053","name":"Jettingen","type":"Kreisangehörige_Gemeinde"},"district":{"key":"08115","name":"Böblingen","type":"Landkreis"},"federalState":{"key":"08","name":"Baden-Württemberg"}},{"name":"Herrenstr.","postalCode":"89343","locality":"Jettingen-Scheppach","municipality":{"key":"09774144","name":"Jettingen-Scheppach, M","type":"Markt"},"district":{"key":"09774","name":"Günzburg","type":"Landkreis"},"federalState":{"key":"09","name":"Bayern"}},{"name":"Heubergring","postalCode":"71131","locality":"Jettingen","municipality":{"key":"08115053","name":"Jettingen","type":"Kreisangehörige_Gemeinde"},"district":{"key":"08115","name":"Böblingen","type":"Landkreis"},"federalState":{"key":"08","name":"Baden-Württemberg"}},{"name":"Hinter den oberen Gärten","postalCode":"89343","locality":"Jettingen-Scheppach","municipality":{"key":"09774144","name":"Jettingen-Scheppach, M","type":"Markt"},"district":{"key":"09774","name":"Günzburg","type":"Landkreis"},"federalState":{"key":"09","name":"Bayern"}},{"name":"Hintere Leintelstr.","postalCode":"71131","locality":"Jettingen","municipality":{"key":"08115053","name":"Jettingen","type":"Kreisangehörige_Gemeinde"},"district":{"key":"08115","name":"Böblingen","type":"Landkreis"},"federalState":{"key":"08","name":"Baden-Württemberg"}},{"name":"Hinterer Berg","postalCode":"89343","locality":"Jettingen-Scheppach","municipality":{"key":"09774144","name":"Jettingen-Scheppach, M","type":"Markt"},"district":{"key":"09774","name":"Günzburg","type":"Landkreis"},"federalState":{"key":"09","name":"Bayern"}},{"name":"Hinterer Höges","postalCode":"89343","locality":"Jettingen-Scheppach","municipality":{"key":"09774144","name":"Jettingen-Scheppach, M","type":"Markt"},"district":{"key":"09774","name":"Günzburg","type":"Landkreis"},"federalState":{"key":"09","name":"Bayern"}},{"name":"Hittelbrunnstr.","postalCode":"71131","locality":"Jettingen","municipality":{"key":"08115053","name":"Jettingen","type":"Kreisangehörige_Gemeinde"},"district":{"key":"08115","name":"Böblingen","type":"Landkreis"},"federalState":{"key":"08","name":"Baden-Württemberg"}},{"name":"Hofäckerstr.","postalCode":"71131","locality":"Jettingen","municipality":{"key":"08115053","name":"Jettingen","type":"Kreisangehörige_Gemeinde"},"district":{"key":"08115","name":"Böblingen","type":"Landkreis"},"federalState":{"key":"08","name":"Baden-Württemberg"}},{"name":"Höflestr.","postalCode":"71131","locality":"Jettingen","municipality":{"key":"08115053","name":"Jettingen","type":"Kreisangehörige_Gemeinde"},"district":{"key":"08115","name":"Böblingen","type":"Landkreis"},"federalState":{"key":"08","name":"Baden-Württemberg"}},{"name":"Hofwiesweg","postalCode":"89343","locality":"Jettingen-Scheppach","municipality":{"key":"09774144","name":"Jettingen-Scheppach, M","type":"Markt"},"district":{"key":"09774","name":"Günzburg","type":"Landkreis"},"federalState":{"key":"09","name":"Bayern"}},{"name":"Hohenrainstr.","postalCode":"71131","locality":"Jettingen","municipality":{"key":"08115053","name":"Jettingen","type":"Kreisangehörige_Gemeinde"},"district":{"key":"08115","name":"Böblingen","type":"Landkreis"},"federalState":{"key":"08","name":"Baden-Württemberg"}},{"name":"Hoher Weg","postalCode":"71131","locality":"Jettingen","municipality":{"key":"08115053","name":"Jettingen","type":"Kreisangehörige_Gemeinde"},"district":{"key":"08115","name":"Böblingen","type":"Landkreis"},"federalState":{"key":"08","name":"Baden-Württemberg"}},{"name":"Hohleweg","postalCode":"71131","locality":"Jettingen","municipality":{"key":"08115053","name":"Jettingen","type":"Kreisangehörige_Gemeinde"},"district":{"key":"08115","name":"Böblingen","type":"Landkreis"},"federalState":{"key":"08","name":"Baden-Württemberg"}},{"name":"Hölderlinstr.","postalCode":"71131","locality":"Jettingen","municipality":{"key":"08115053","name":"Jettingen","type":"Kreisangehörige_Gemeinde"},"district":{"key":"08115","name":"Böblingen","type":"Landkreis"},"federalState":{"key":"08","name":"Baden-Württemberg"}},{"name":"Holgersteig","postalCode":"89343","locality":"Jettingen-Scheppach","municipality":{"key":"09774144","name":"Jettingen-Scheppach, M","type":"Markt"},"district":{"key":"09774","name":"Günzburg","type":"Landkreis"},"federalState":{"key":"09","name":"Bayern"}},{"name":"Höllweg","postalCode":"89343","locality":"Jettingen-Scheppach","municipality":{"key":"09774144","name":"Jettingen-Scheppach, M","type":"Markt"},"district":{"key":"09774","name":"Günzburg","type":"Landkreis"},"federalState":{"key":"09","name":"Bayern"}},{"name":"Hubweg","postalCode":"71131","locality":"Jettingen","municipality":{"key":"08115053","name":"Jettingen","type":"Kreisangehörige_Gemeinde"},"district":{"key":"08115","name":"Böblingen","type":"Landkreis"},"federalState":{"key":"08","name":"Baden-Württemberg"}},{"name":"Im Ländle","postalCode":"71131","locality":"Jettingen","municipality":{"key":"08115053","name":"Jettingen","type":"Kreisangehörige_Gemeinde"},"district":{"key":"08115","name":"Böblingen","type":"Landkreis"},"federalState":{"key":"08","name":"Baden-Württemberg"}},{"name":"Im Winkel","postalCode":"71131","locality":"Jettingen","municipality":{"key":"08115053","name":"Jettingen","type":"Kreisangehörige_Gemeinde"},"district":{"key":"08115","name":"Böblingen","type":"Landkreis"},"federalState":{"key":"08","name":"Baden-Württemberg"}},{"name":"In den Streuobstwiesen","postalCode":"71131","locality":"Jettingen","municipality":{"key":"08115053","name":"Jettingen","type":"Kreisangehörige_Gemeinde"},"district":{"key":"08115","name":"Böblingen","type":"Landkreis"},"federalState":{"key":"08","name":"Baden-Württemberg"}},{"name":"In den Streuobswiesen","postalCode":"71131","locality":"Jettingen","municipality":{"key":"08115053","name":"Jettingen","type":"Kreisangehörige_Gemeinde"},"district":{"key":"08115","name":"Böblingen","type":"Landkreis"},"federalState":{"key":"08","name":"Baden-Württemberg"}},{"name":"In der Breite","postalCode":"71131","locality":"Jettingen","municipality":{"key":"08115053","name":"Jettingen","type":"Kreisangehörige_Gemeinde"},"district":{"key":"08115","name":"Böblingen","type":"Landkreis"},"federalState":{"key":"08","name":"Baden-Württemberg"}},{"name":"Industriestr.","postalCode":"71131","locality":"Jettingen","municipality":{"key":"08115053","name":"Jettingen","type":"Kreisangehörige_Gemeinde"},"district":{"key":"08115","name":"Böblingen","type":"Landkreis"},"federalState":{"key":"08","name":"Baden-Württemberg"}},{"name":"Ipfweg","postalCode":"71131","locality":"Jettingen","municipality":{"key":"08115053","name":"Jettingen","type":"Kreisangehörige_Gemeinde"},"district":{"key":"08115","name":"Böblingen","type":"Landkreis"},"federalState":{"key":"08","name":"Baden-Württemberg"}},{"name":"Jahnstr.","postalCode":"89343","locality":"Jettingen-Scheppach","municipality":{"key":"09774144","name":"Jettingen-Scheppach, M","type":"Markt"},"district":{"key":"09774","name":"Günzburg","type":"Landkreis"},"federalState":{"key":"09","name":"Bayern"}},{"name":"Jettinger Str.","postalCode":"89343","locality":"Jettingen-Scheppach","municipality":{"key":"09774144","name":"Jettingen-Scheppach, M","type":"Markt"},"district":{"key":"09774","name":"Günzburg","type":"Landkreis"},"federalState":{"key":"09","name":"Bayern"}},{"name":"Johann-Ernst-Eberlin-Str.","postalCode":"89343","locality":"Jettingen-Scheppach","municipality":{"key":"09774144","name":"Jettingen-Scheppach, M","type":"Markt"},"district":{"key":"09774","name":"Günzburg","type":"Landkreis"},"federalState":{"key":"09","name":"Bayern"}},{"name":"Johann-Sebastian-Bach-Str.","postalCode":"71131","locality":"Jettingen","municipality":{"key":"08115053","name":"Jettingen","type":"Kreisangehörige_Gemeinde"},"district":{"key":"08115","name":"Böblingen","type":"Landkreis"},"federalState":{"key":"08","name":"Baden-Württemberg"}},{"name":"Josef-Biberacher-Str.","postalCode":"89343","locality":"Jettingen-Scheppach","municipality":{"key":"09774144","name":"Jettingen-Scheppach, M","type":"Markt"},"district":{"key":"09774","name":"Günzburg","type":"Landkreis"},"federalState":{"key":"09","name":"Bayern"}},{"name":"Jusiweg","postalCode":"71131","locality":"Jettingen","municipality":{"key":"08115053","name":"Jettingen","type":"Kreisangehörige_Gemeinde"},"district":{"key":"08115","name":"Böblingen","type":"Landkreis"},"federalState":{"key":"08","name":"Baden-Württemberg"}},{"name":"Kanalstr.","postalCode":"89343","locality":"Jettingen-Scheppach","municipality":{"key":"09774144","name":"Jettingen-Scheppach, M","type":"Markt"},"district":{"key":"09774","name":"Günzburg","type":"Landkreis"},"federalState":{"key":"09","name":"Bayern"}},{"name":"Karl-Schmid-Str.","postalCode":"89343","locality":"Jettingen-Scheppach","municipality":{"key":"09774144","name":"Jettingen-Scheppach, M","type":"Markt"},"district":{"key":"09774","name":"Günzburg","type":"Landkreis"},"federalState":{"key":"09","name":"Bayern"}},{"name":"Kastanienstr.","postalCode":"71131","locality":"Jettingen","municipality":{"key":"08115053","name":"Jettingen","type":"Kreisangehörige_Gemeinde"},"district":{"key":"08115","name":"Böblingen","type":"Landkreis"},"federalState":{"key":"08","name":"Baden-Württemberg"}},{"name":"Kemnater Str.","postalCode":"89343","locality":"Jettingen-Scheppach","municipality":{"key":"09774144","name":"Jettingen-Scheppach, M","type":"Markt"},"district":{"key":"09774","name":"Günzburg","type":"Landkreis"},"federalState":{"key":"09","name":"Bayern"}},{"name":"Kiefernweg","postalCode":"71131","locality":"Jettingen","municipality":{"key":"08115053","name":"Jettingen","type":"Kreisangehörige_Gemeinde"},"district":{"key":"08115","name":"Böblingen","type":"Landkreis"},"federalState":{"key":"08","name":"Baden-Württemberg"}},{"name":"Killesweg","postalCode":"71131","locality":"Jettingen","municipality":{"key":"08115053","name":"Jettingen","type":"Kreisangehörige_Gemeinde"},"district":{"key":"08115","name":"Böblingen","type":"Landkreis"},"federalState":{"key":"08","name":"Baden-Württemberg"}},{"name":"Kirchberg","postalCode":"89343","locality":"Jettingen-Scheppach","municipality":{"key":"09774144","name":"Jettingen-Scheppach, M","type":"Markt"},"district":{"key":"09774","name":"Günzburg","type":"Landkreis"},"federalState":{"key":"09","name":"Bayern"}},{"name":"Kirchengässle","postalCode":"71131","locality":"Jettingen","municipality":{"key":"08115053","name":"Jettingen","type":"Kreisangehörige_Gemeinde"},"district":{"key":"08115","name":"Böblingen","type":"Landkreis"},"federalState":{"key":"08","name":"Baden-Württemberg"}},{"name":"Kirchstr.","postalCode":"71131","locality":"Jettingen","municipality":{"key":"08115053","name":"Jettingen","type":"Kreisangehörige_Gemeinde"},"district":{"key":"08115","name":"Böblingen","type":"Landkreis"},"federalState":{"key":"08","name":"Baden-Württemberg"}},{"name":"Kirchstr.","postalCode":"89343","locality":"Jettingen-Scheppach","municipality":{"key":"09774144","name":"Jettingen-Scheppach, M","type":"Markt"},"district":{"key":"09774","name":"Günzburg","type":"Landkreis"},"federalState":{"key":"09","name":"Bayern"}},{"name":"Kirchweg","postalCode":"89343","locality":"Jettingen-Scheppach","municipality":{"key":"09774144","name":"Jettingen-Scheppach, M","type":"Markt"},"district":{"key":"09774","name":"Günzburg","type":"Landkreis"},"federalState":{"key":"09","name":"Bayern"}},{"name":"Kirschenweg","postalCode":"71131","locality":"Jettingen","municipality":{"key":"08115053","name":"Jettingen","type":"Kreisangehörige_Gemeinde"},"district":{"key":"08115","name":"Böblingen","type":"Landkreis"},"federalState":{"key":"08","name":"Baden-Württemberg"}},{"name":"Klaus-Spahlinger-Weg","postalCode":"71131","locality":"Jettingen","municipality":{"key":"08115053","name":"Jettingen","type":"Kreisangehörige_Gemeinde"},"district":{"key":"08115","name":"Böblingen","type":"Landkreis"},"federalState":{"key":"08","name":"Baden-Württemberg"}},{"name":"Kniebisstr.","postalCode":"71131","locality":"Jettingen","municipality":{"key":"08115053","name":"Jettingen","type":"Kreisangehörige_Gemeinde"},"district":{"key":"08115","name":"Böblingen","type":"Landkreis"},"federalState":{"key":"08","name":"Baden-Württemberg"}},{"name":"Kohlplatte","postalCode":"71131","locality":"Jettingen","municipality":{"key":"08115053","name":"Jettingen","type":"Kreisangehörige_Gemeinde"},"district":{"key":"08115","name":"Böblingen","type":"Landkreis"},"federalState":{"key":"08","name":"Baden-Württemberg"}},{"name":"Konrad-Adenauer-Str.","postalCode":"89343","locality":"Jettingen-Scheppach","municipality":{"key":"09774144","name":"Jettingen-Scheppach, M","type":"Markt"},"district":{"key":"09774","name":"Günzburg","type":"Landkreis"},"federalState":{"key":"09","name":"Bayern"}},{"name":"Krankenhausstr.","postalCode":"89343","locality":"Jettingen-Scheppach","municipality":{"key":"09774144","name":"Jettingen-Scheppach, M","type":"Markt"},"district":{"key":"09774","name":"Günzburg","type":"Landkreis"},"federalState":{"key":"09","name":"Bayern"}},{"name":"Krautgartenweg","postalCode":"89343","locality":"Jettingen-Scheppach","municipality":{"key":"09774144","name":"Jettingen-Scheppach, M","type":"Markt"},"district":{"key":"09774","name":"Günzburg","type":"Landkreis"},"federalState":{"key":"09","name":"Bayern"}},{"name":"Krautweg","postalCode":"71131","locality":"Jettingen","municipality":{"key":"08115053","name":"Jettingen","type":"Kreisangehörige_Gemeinde"},"district":{"key":"08115","name":"Böblingen","type":"Landkreis"},"federalState":{"key":"08","name":"Baden-Württemberg"}},{"name":"Kreuzberg","postalCode":"89343","locality":"Jettingen-Scheppach","municipality":{"key":"09774144","name":"Jettingen-Scheppach, M","type":"Markt"},"district":{"key":"09774","name":"Günzburg","type":"Landkreis"},"federalState":{"key":"09","name":"Bayern"}},{"name":"Kreuzweg","postalCode":"89343","locality":"Jettingen-Scheppach","municipality":{"key":"09774144","name":"Jettingen-Scheppach, M","type":"Markt"},"district":{"key":"09774","name":"Günzburg","type":"Landkreis"},"federalState":{"key":"09","name":"Bayern"}},{"name":"Kuenstr.","postalCode":"89343","locality":"Jettingen-Scheppach","municipality":{"key":"09774144","name":"Jettingen-Scheppach, M","type":"Markt"},"district":{"key":"09774","name":"Günzburg","type":"Landkreis"},"federalState":{"key":"09","name":"Bayern"}},{"name":"Kurt-Schumacher-Str.","postalCode":"89343","locality":"Jettingen-Scheppach","municipality":{"key":"09774144","name":"Jettingen-Scheppach, M","type":"Markt"},"district":{"key":"09774","name":"Günzburg","type":"Landkreis"},"federalState":{"key":"09","name":"Bayern"}},{"name":"Kurze Str.","postalCode":"71131","locality":"Jettingen","municipality":{"key":"08115053","name":"Jettingen","type":"Kreisangehörige_Gemeinde"},"district":{"key":"08115","name":"Böblingen","type":"Landkreis"},"federalState":{"key":"08","name":"Baden-Württemberg"}},{"name":"Langer Zaun","postalCode":"71131","locality":"Jettingen","municipality":{"key":"08115053","name":"Jettingen","type":"Kreisangehörige_Gemeinde"},"district":{"key":"08115","name":"Böblingen","type":"Landkreis"},"federalState":{"key":"08","name":"Baden-Württemberg"}},{"name":"Lange Str.","postalCode":"71131","locality":"Jettingen","municipality":{"key":"08115053","name":"Jettingen","type":"Kreisangehörige_Gemeinde"},"district":{"key":"08115","name":"Böblingen","type":"Landkreis"},"federalState":{"key":"08","name":"Baden-Württemberg"}},{"name":"Lauterbrunnstr.","postalCode":"89343","locality":"Jettingen-Scheppach","municipality":{"key":"09774144","name":"Jettingen-Scheppach, M","type":"Markt"},"district":{"key":"09774","name":"Günzburg","type":"Landkreis"},"federalState":{"key":"09","name":"Bayern"}},{"name":"Lehenmahdweg","postalCode":"89343","locality":"Jettingen-Scheppach","municipality":{"key":"09774144","name":"Jettingen-Scheppach, M","type":"Markt"},"district":{"key":"09774","name":"Günzburg","type":"Landkreis"},"federalState":{"key":"09","name":"Bayern"}},{"name":"Lehlesstr.","postalCode":"71131","locality":"Jettingen","municipality":{"key":"08115053","name":"Jettingen","type":"Kreisangehörige_Gemeinde"},"district":{"key":"08115","name":"Böblingen","type":"Landkreis"},"federalState":{"key":"08","name":"Baden-Württemberg"}},{"name":"Leintelstr.","postalCode":"71131","locality":"Jettingen","municipality":{"key":"08115053","name":"Jettingen","type":"Kreisangehörige_Gemeinde"},"district":{"key":"08115","name":"Böblingen","type":"Landkreis"},"federalState":{"key":"08","name":"Baden-Württemberg"}},{"name":"Lembergstr.","postalCode":"71131","locality":"Jettingen","municipality":{"key":"08115053","name":"Jettingen","type":"Kreisangehörige_Gemeinde"},"district":{"key":"08115","name":"Böblingen","type":"Landkreis"},"federalState":{"key":"08","name":"Baden-Württemberg"}},{"name":"Leonhard-Moll-Str.","postalCode":"89343","locality":"Jettingen-Scheppach","municipality":{"key":"09774144","name":"Jettingen-Scheppach, M","type":"Markt"},"district":{"key":"09774","name":"Günzburg","type":"Landkreis"},"federalState":{"key":"09","name":"Bayern"}},{"name":"Leonhardsweg","postalCode":"89343","locality":"Jettingen-Scheppach","municipality":{"key":"09774144","name":"Jettingen-Scheppach, M","type":"Markt"},"district":{"key":"09774","name":"Günzburg","type":"Landkreis"},"federalState":{"key":"09","name":"Bayern"}},{"name":"Lerchenweg","postalCode":"71131","locality":"Jettingen","municipality":{"key":"08115053","name":"Jettingen","type":"Kreisangehörige_Gemeinde"},"district":{"key":"08115","name":"Böblingen","type":"Landkreis"},"federalState":{"key":"08","name":"Baden-Württemberg"}},{"name":"Lerchenweg","postalCode":"89343","locality":"Jettingen-Scheppach","municipality":{"key":"09774144","name":"Jettingen-Scheppach, M","type":"Markt"},"district":{"key":"09774","name":"Günzburg","type":"Landkreis"},"federalState":{"key":"09","name":"Bayern"}},{"name":"Lettenstr.","postalCode":"71131","locality":"Jettingen","municipality":{"key":"08115053","name":"Jettingen","type":"Kreisangehörige_Gemeinde"},"district":{"key":"08115","name":"Böblingen","type":"Landkreis"},"federalState":{"key":"08","name":"Baden-Württemberg"}},{"name":"Leutzenbergweg","postalCode":"89343","locality":"Jettingen-Scheppach","municipality":{"key":"09774144","name":"Jettingen-Scheppach, M","type":"Markt"},"district":{"key":"09774","name":"Günzburg","type":"Landkreis"},"federalState":{"key":"09","name":"Bayern"}},{"name":"Lichtensteinweg","postalCode":"71131","locality":"Jettingen","municipality":{"key":"08115053","name":"Jettingen","type":"Kreisangehörige_Gemeinde"},"district":{"key":"08115","name":"Böblingen","type":"Landkreis"},"federalState":{"key":"08","name":"Baden-Württemberg"}},{"name":"Lilienstr.","postalCode":"71131","locality":"Jettingen","municipality":{"key":"08115053","name":"Jettingen","type":"Kreisangehörige_Gemeinde"},"district":{"key":"08115","name":"Böblingen","type":"Landkreis"},"federalState":{"key":"08","name":"Baden-Württemberg"}},{"name":"Lindenhof","postalCode":"71131","locality":"Jettingen","municipality":{"key":"08115053","name":"Jettingen","type":"Kreisangehörige_Gemeinde"},"district":{"key":"08115","name":"Böblingen","type":"Landkreis"},"federalState":{"key":"08","name":"Baden-Württemberg"}},{"name":"Lindenweg","postalCode":"71131","locality":"Jettingen","municipality":{"key":"08115053","name":"Jettingen","type":"Kreisangehörige_Gemeinde"},"district":{"key":"08115","name":"Böblingen","type":"Landkreis"},"federalState":{"key":"08","name":"Baden-Württemberg"}},{"name":"Lindenweg","postalCode":"89343","locality":"Jettingen-Scheppach","municipality":{"key":"09774144","name":"Jettingen-Scheppach, M","type":"Markt"},"district":{"key":"09774","name":"Günzburg","type":"Landkreis"},"federalState":{"key":"09","name":"Bayern"}},{"name":"Lisztstr.","postalCode":"71131","locality":"Jettingen","municipality":{"key":"08115053","name":"Jettingen","type":"Kreisangehörige_Gemeinde"},"district":{"key":"08115","name":"Böblingen","type":"Landkreis"},"federalState":{"key":"08","name":"Baden-Württemberg"}},{"name":"Lochenweg","postalCode":"71131","locality":"Jettingen","municipality":{"key":"08115053","name":"Jettingen","type":"Kreisangehörige_Gemeinde"},"district":{"key":"08115","name":"Böblingen","type":"Landkreis"},"federalState":{"key":"08","name":"Baden-Württemberg"}},{"name":"Ludwig-Erhard-Str.","postalCode":"89343","locality":"Jettingen-Scheppach","municipality":{"key":"09774144","name":"Jettingen-Scheppach, M","type":"Markt"},"district":{"key":"09774","name":"Günzburg","type":"Landkreis"},"federalState":{"key":"09","name":"Bayern"}},{"name":"Marktplatz","postalCode":"71131","locality":"Jettingen","municipality":{"key":"08115053","name":"Jettingen","type":"Kreisangehörige_Gemeinde"},"district":{"key":"08115","name":"Böblingen","type":"Landkreis"},"federalState":{"key":"08","name":"Baden-Württemberg"}},{"name":"Martinsweg","postalCode":"71131","locality":"Jettingen","municipality":{"key":"08115053","name":"Jettingen","type":"Kreisangehörige_Gemeinde"},"district":{"key":"08115","name":"Böblingen","type":"Landkreis"},"federalState":{"key":"08","name":"Baden-Württemberg"}},{"name":"Mauerwiesenstr.","postalCode":"71131","locality":"Jettingen","municipality":{"key":"08115053","name":"Jettingen","type":"Kreisangehörige_Gemeinde"},"district":{"key":"08115","name":"Böblingen","type":"Landkreis"},"federalState":{"key":"08","name":"Baden-Württemberg"}},{"name":"Meisenweg","postalCode":"71131","locality":"Jettingen","municipality":{"key":"08115053","name":"Jettingen","type":"Kreisangehörige_Gemeinde"},"district":{"key":"08115","name":"Böblingen","type":"Landkreis"},"federalState":{"key":"08","name":"Baden-Württemberg"}},{"name":"Meisenweg","postalCode":"89343","locality":"Jettingen-Scheppach","municipality":{"key":"09774144","name":"Jettingen-Scheppach, M","type":"Markt"},"district":{"key":"09774","name":"Günzburg","type":"Landkreis"},"federalState":{"key":"09","name":"Bayern"}},{"name":"Messerschmittstr.","postalCode":"89343","locality":"Jettingen-Scheppach","municipality":{"key":"09774144","name":"Jettingen-Scheppach, M","type":"Markt"},"district":{"key":"09774","name":"Günzburg","type":"Landkreis"},"federalState":{"key":"09","name":"Bayern"}},{"name":"Mindeltalstr.","postalCode":"89343","locality":"Jettingen-Scheppach","municipality":{"key":"09774144","name":"Jettingen-Scheppach, M","type":"Markt"},"district":{"key":"09774","name":"Günzburg","type":"Landkreis"},"federalState":{"key":"09","name":"Bayern"}},{"name":"Mindelweg","postalCode":"89343","locality":"Jettingen-Scheppach","municipality":{"key":"09774144","name":"Jettingen-Scheppach, M","type":"Markt"},"district":{"key":"09774","name":"Günzburg","type":"Landkreis"},"federalState":{"key":"09","name":"Bayern"}},{"name":"Mirabellenstr.","postalCode":"71131","locality":"Jettingen","municipality":{"key":"08115053","name":"Jettingen","type":"Kreisangehörige_Gemeinde"},"district":{"key":"08115","name":"Böblingen","type":"Landkreis"},"federalState":{"key":"08","name":"Baden-Württemberg"}},{"name":"Mooslethstr.","postalCode":"89343","locality":"Jettingen-Scheppach","municipality":{"key":"09774144","name":"Jettingen-Scheppach, M","type":"Markt"},"district":{"key":"09774","name":"Günzburg","type":"Landkreis"},"federalState":{"key":"09","name":"Bayern"}},{"name":"Moosweg","postalCode":"89343","locality":"Jettingen-Scheppach","municipality":{"key":"09774144","name":"Jettingen-Scheppach, M","type":"Markt"},"district":{"key":"09774","name":"Günzburg","type":"Landkreis"},"federalState":{"key":"09","name":"Bayern"}},{"name":"Mörikestr.","postalCode":"71131","locality":"Jettingen","municipality":{"key":"08115053","name":"Jettingen","type":"Kreisangehörige_Gemeinde"},"district":{"key":"08115","name":"Böblingen","type":"Landkreis"},"federalState":{"key":"08","name":"Baden-Württemberg"}},{"name":"Mötzinger Str.","postalCode":"71131","locality":"Jettingen","municipality":{"key":"08115053","name":"Jettingen","type":"Kreisangehörige_Gemeinde"},"district":{"key":"08115","name":"Böblingen","type":"Landkreis"},"federalState":{"key":"08","name":"Baden-Württemberg"}},{"name":"Mozartstr.","postalCode":"71131","locality":"Jettingen","municipality":{"key":"08115053","name":"Jettingen","type":"Kreisangehörige_Gemeinde"},"district":{"key":"08115","name":"Böblingen","type":"Landkreis"},"federalState":{"key":"08","name":"Baden-Württemberg"}},{"name":"Mozartstr.","postalCode":"89343","locality":"Jettingen-Scheppach","municipality":{"key":"09774144","name":"Jettingen-Scheppach, M","type":"Markt"},"district":{"key":"09774","name":"Günzburg","type":"Landkreis"},"federalState":{"key":"09","name":"Bayern"}},{"name":"Mühlstr.","postalCode":"89343","locality":"Jettingen-Scheppach","municipality":{"key":"09774144","name":"Jettingen-Scheppach, M","type":"Markt"},"district":{"key":"09774","name":"Günzburg","type":"Landkreis"},"federalState":{"key":"09","name":"Bayern"}},{"name":"Nagolder Str.","postalCode":"71131","locality":"Jettingen","municipality":{"key":"08115053","name":"Jettingen","type":"Kreisangehörige_Gemeinde"},"district":{"key":"08115","name":"Böblingen","type":"Landkreis"},"federalState":{"key":"08","name":"Baden-Württemberg"}},{"name":"Nebringer Str.","postalCode":"71131","locality":"Jettingen","municipality":{"key":"08115053","name":"Jettingen","type":"Kreisangehörige_Gemeinde"},"district":{"key":"08115","name":"Böblingen","type":"Landkreis"},"federalState":{"key":"08","name":"Baden-Württemberg"}},{"name":"Nelkenweg","postalCode":"71131","locality":"Jettingen","municipality":{"key":"08115053","name":"Jettingen","type":"Kreisangehörige_Gemeinde"},"district":{"key":"08115","name":"Böblingen","type":"Landkreis"},"federalState":{"key":"08","name":"Baden-Württemberg"}},{"name":"Neuffenstr.","postalCode":"71131","locality":"Jettingen","municipality":{"key":"08115053","name":"Jettingen","type":"Kreisangehörige_Gemeinde"},"district":{"key":"08115","name":"Böblingen","type":"Landkreis"},"federalState":{"key":"08","name":"Baden-Württemberg"}},{"name":"Obere Dorfstr.","postalCode":"89343","locality":"Jettingen-Scheppach","municipality":{"key":"09774144","name":"Jettingen-Scheppach, M","type":"Markt"},"district":{"key":"09774","name":"Günzburg","type":"Landkreis"},"federalState":{"key":"09","name":"Bayern"}},{"name":"Obere Maierhofstr.","postalCode":"89343","locality":"Jettingen-Scheppach","municipality":{"key":"09774144","name":"Jettingen-Scheppach, M","type":"Markt"},"district":{"key":"09774","name":"Günzburg","type":"Landkreis"},"federalState":{"key":"09","name":"Bayern"}},{"name":"Oberer Angerweg","postalCode":"89343","locality":"Jettingen-Scheppach","municipality":{"key":"09774144","name":"Jettingen-Scheppach, M","type":"Markt"},"district":{"key":"09774","name":"Günzburg","type":"Landkreis"},"federalState":{"key":"09","name":"Bayern"}},{"name":"Oberfeldstr.","postalCode":"89343","locality":"Jettingen-Scheppach","municipality":{"key":"09774144","name":"Jettingen-Scheppach, M","type":"Markt"},"district":{"key":"09774","name":"Günzburg","type":"Landkreis"},"federalState":{"key":"09","name":"Bayern"}},{"name":"Oberjettinger Str.","postalCode":"71131","locality":"Jettingen","municipality":{"key":"08115053","name":"Jettingen","type":"Kreisangehörige_Gemeinde"},"district":{"key":"08115","name":"Böblingen","type":"Landkreis"},"federalState":{"key":"08","name":"Baden-Württemberg"}},{"name":"Otto-Geiselhart-Weg","postalCode":"89343","locality":"Jettingen-Scheppach","municipality":{"key":"09774144","name":"Jettingen-Scheppach, M","type":"Markt"},"district":{"key":"09774","name":"Günzburg","type":"Landkreis"},"federalState":{"key":"09","name":"Bayern"}},{"name":"Panoramastr.","postalCode":"71131","locality":"Jettingen","municipality":{"key":"08115053","name":"Jettingen","type":"Kreisangehörige_Gemeinde"},"district":{"key":"08115","name":"Böblingen","type":"Landkreis"},"federalState":{"key":"08","name":"Baden-Württemberg"}},{"name":"Pfarrer-Koch-Str.","postalCode":"89343","locality":"Jettingen-Scheppach","municipality":{"key":"09774144","name":"Jettingen-Scheppach, M","type":"Markt"},"district":{"key":"09774","name":"Günzburg","type":"Landkreis"},"federalState":{"key":"09","name":"Bayern"}},{"name":"Pfarrweg","postalCode":"71131","locality":"Jettingen","municipality":{"key":"08115053","name":"Jettingen","type":"Kreisangehörige_Gemeinde"},"district":{"key":"08115","name":"Böblingen","type":"Landkreis"},"federalState":{"key":"08","name":"Baden-Württemberg"}},{"name":"Pirolweg","postalCode":"71131","locality":"Jettingen","municipality":{"key":"08115053","name":"Jettingen","type":"Kreisangehörige_Gemeinde"},"district":{"key":"08115","name":"Böblingen","type":"Landkreis"},"federalState":{"key":"08","name":"Baden-Württemberg"}},{"name":"Poststr.","postalCode":"89343","locality":"Jettingen-Scheppach","municipality":{"key":"09774144","name":"Jettingen-Scheppach, M","type":"Markt"},"district":{"key":"09774","name":"Günzburg","type":"Landkreis"},"federalState":{"key":"09","name":"Bayern"}},{"name":"Quellenweg","postalCode":"71131","locality":"Jettingen","municipality":{"key":"08115053","name":"Jettingen","type":"Kreisangehörige_Gemeinde"},"district":{"key":"08115","name":"Böblingen","type":"Landkreis"},"federalState":{"key":"08","name":"Baden-Württemberg"}},{"name":"Rechbergweg","postalCode":"71131","locality":"Jettingen","municipality":{"key":"08115053","name":"Jettingen","type":"Kreisangehörige_Gemeinde"},"district":{"key":"08115","name":"Böblingen","type":"Landkreis"},"federalState":{"key":"08","name":"Baden-Württemberg"}},{"name":"Reformstr.","postalCode":"89343","locality":"Jettingen-Scheppach","municipality":{"key":"09774144","name":"Jettingen-Scheppach, M","type":"Markt"},"district":{"key":"09774","name":"Günzburg","type":"Landkreis"},"federalState":{"key":"09","name":"Bayern"}},{"name":"Reußensteinweg","postalCode":"71131","locality":"Jettingen","municipality":{"key":"08115053","name":"Jettingen","type":"Kreisangehörige_Gemeinde"},"district":{"key":"08115","name":"Böblingen","type":"Landkreis"},"federalState":{"key":"08","name":"Baden-Württemberg"}},{"name":"Richard-Wagner-Str.","postalCode":"71131","locality":"Jettingen","municipality":{"key":"08115053","name":"Jettingen","type":"Kreisangehörige_Gemeinde"},"district":{"key":"08115","name":"Böblingen","type":"Landkreis"},"federalState":{"key":"08","name":"Baden-Württemberg"}},{"name":"Rieder Hühle","postalCode":"89343","locality":"Jettingen-Scheppach","municipality":{"key":"09774144","name":"Jettingen-Scheppach, M","type":"Markt"},"district":{"key":"09774","name":"Günzburg","type":"Landkreis"},"federalState":{"key":"09","name":"Bayern"}},{"name":"Rieder Weg","postalCode":"89343","locality":"Jettingen-Scheppach","municipality":{"key":"09774144","name":"Jettingen-Scheppach, M","type":"Markt"},"district":{"key":"09774","name":"Günzburg","type":"Landkreis"},"federalState":{"key":"09","name":"Bayern"}},{"name":"Riedweg","postalCode":"89343","locality":"Jettingen-Scheppach","municipality":{"key":"09774144","name":"Jettingen-Scheppach, M","type":"Markt"},"district":{"key":"09774","name":"Günzburg","type":"Landkreis"},"federalState":{"key":"09","name":"Bayern"}},{"name":"Ringstr.","postalCode":"71131","locality":"Jettingen","municipality":{"key":"08115053","name":"Jettingen","type":"Kreisangehörige_Gemeinde"},"district":{"key":"08115","name":"Böblingen","type":"Landkreis"},"federalState":{"key":"08","name":"Baden-Württemberg"}},{"name":"Ritter-von-Stain Str.","postalCode":"89343","locality":"Jettingen-Scheppach","municipality":{"key":"09774144","name":"Jettingen-Scheppach, M","type":"Markt"},"district":{"key":"09774","name":"Günzburg","type":"Landkreis"},"federalState":{"key":"09","name":"Bayern"}},{"name":"Robert-Bosch-Str.","postalCode":"89343","locality":"Jettingen-Scheppach","municipality":{"key":"09774144","name":"Jettingen-Scheppach, M","type":"Markt"},"district":{"key":"09774","name":"Günzburg","type":"Landkreis"},"federalState":{"key":"09","name":"Bayern"}},{"name":"Roggenäcker","postalCode":"71131","locality":"Jettingen","municipality":{"key":"08115053","name":"Jettingen","type":"Kreisangehörige_Gemeinde"},"district":{"key":"08115","name":"Böblingen","type":"Landkreis"},"federalState":{"key":"08","name":"Baden-Württemberg"}},{"name":"Römerstr.","postalCode":"71131","locality":"Jettingen","municipality":{"key":"08115053","name":"Jettingen","type":"Kreisangehörige_Gemeinde"},"district":{"key":"08115","name":"Böblingen","type":"Landkreis"},"federalState":{"key":"08","name":"Baden-Württemberg"}},{"name":"Röntgenstr.","postalCode":"89343","locality":"Jettingen-Scheppach","municipality":{"key":"09774144","name":"Jettingen-Scheppach, M","type":"Markt"},"district":{"key":"09774","name":"Günzburg","type":"Landkreis"},"federalState":{"key":"09","name":"Bayern"}},{"name":"Rosenstr.","postalCode":"71131","locality":"Jettingen","municipality":{"key":"08115053","name":"Jettingen","type":"Kreisangehörige_Gemeinde"},"district":{"key":"08115","name":"Böblingen","type":"Landkreis"},"federalState":{"key":"08","name":"Baden-Württemberg"}},{"name":"Roßbergstr.","postalCode":"71131","locality":"Jettingen","municipality":{"key":"08115053","name":"Jettingen","type":"Kreisangehörige_Gemeinde"},"district":{"key":"08115","name":"Böblingen","type":"Landkreis"},"federalState":{"key":"08","name":"Baden-Württemberg"}},{"name":"Rötestr.","postalCode":"71131","locality":"Jettingen","municipality":{"key":"08115053","name":"Jettingen","type":"Kreisangehörige_Gemeinde"},"district":{"key":"08115","name":"Böblingen","type":"Landkreis"},"federalState":{"key":"08","name":"Baden-Württemberg"}},{"name":"Ruhesteinweg","postalCode":"71131","locality":"Jettingen","municipality":{"key":"08115053","name":"Jettingen","type":"Kreisangehörige_Gemeinde"},"district":{"key":"08115","name":"Böblingen","type":"Landkreis"},"federalState":{"key":"08","name":"Baden-Württemberg"}},{"name":"Schäfflerstr.","postalCode":"89343","locality":"Jettingen-Scheppach","municipality":{"key":"09774144","name":"Jettingen-Scheppach, M","type":"Markt"},"district":{"key":"09774","name":"Günzburg","type":"Landkreis"},"federalState":{"key":"09","name":"Bayern"}},{"name":"Schauinslandstr.","postalCode":"71131","locality":"Jettingen","municipality":{"key":"08115053","name":"Jettingen","type":"Kreisangehörige_Gemeinde"},"district":{"key":"08115","name":"Böblingen","type":"Landkreis"},"federalState":{"key":"08","name":"Baden-Württemberg"}},{"name":"Scheppacher Mühle","postalCode":"89343","locality":"Jettingen-Scheppach","municipality":{"key":"09774144","name":"Jettingen-Scheppach, M","type":"Markt"},"district":{"key":"09774","name":"Günzburg","type":"Landkreis"},"federalState":{"key":"09","name":"Bayern"}},{"name":"Schillerstr.","postalCode":"71131","locality":"Jettingen","municipality":{"key":"08115053","name":"Jettingen","type":"Kreisangehörige_Gemeinde"},"district":{"key":"08115","name":"Böblingen","type":"Landkreis"},"federalState":{"key":"08","name":"Baden-Württemberg"}},{"name":"Schlehenweg","postalCode":"71131","locality":"Jettingen","municipality":{"key":"08115053","name":"Jettingen","type":"Kreisangehörige_Gemeinde"},"district":{"key":"08115","name":"Böblingen","type":"Landkreis"},"federalState":{"key":"08","name":"Baden-Württemberg"}},{"name":"Schleifweg","postalCode":"89343","locality":"Jettingen-Scheppach","municipality":{"key":"09774144","name":"Jettingen-Scheppach, M","type":"Markt"},"district":{"key":"09774","name":"Günzburg","type":"Landkreis"},"federalState":{"key":"09","name":"Bayern"}},{"name":"Schloßstr.","postalCode":"71131","locality":"Jettingen","municipality":{"key":"08115053","name":"Jettingen","type":"Kreisangehörige_Gemeinde"},"district":{"key":"08115","name":"Böblingen","type":"Landkreis"},"federalState":{"key":"08","name":"Baden-Württemberg"}},{"name":"Schloßstr.","postalCode":"89343","locality":"Jettingen-Scheppach","municipality":{"key":"09774144","name":"Jettingen-Scheppach, M","type":"Markt"},"district":{"key":"09774","name":"Günzburg","type":"Landkreis"},"federalState":{"key":"09","name":"Bayern"}},{"name":"Schmiedegasse","postalCode":"71131","locality":"Jettingen","municipality":{"key":"08115053","name":"Jettingen","type":"Kreisangehörige_Gemeinde"},"district":{"key":"08115","name":"Böblingen","type":"Landkreis"},"federalState":{"key":"08","name":"Baden-Württemberg"}},{"name":"Schmiedgasse","postalCode":"89343","locality":"Jettingen-Scheppach","municipality":{"key":"09774144","name":"Jettingen-Scheppach, M","type":"Markt"},"district":{"key":"09774","name":"Günzburg","type":"Landkreis"},"federalState":{"key":"09","name":"Bayern"}},{"name":"Schönenberger Str.","postalCode":"89343","locality":"Jettingen-Scheppach","municipality":{"key":"09774144","name":"Jettingen-Scheppach, M","type":"Markt"},"district":{"key":"09774","name":"Günzburg","type":"Landkreis"},"federalState":{"key":"09","name":"Bayern"}},{"name":"Schulstr.","postalCode":"71131","locality":"Jettingen","municipality":{"key":"08115053","name":"Jettingen","type":"Kreisangehörige_Gemeinde"},"district":{"key":"08115","name":"Böblingen","type":"Landkreis"},"federalState":{"key":"08","name":"Baden-Württemberg"}},{"name":"Schulstr.","postalCode":"89343","locality":"Jettingen-Scheppach","municipality":{"key":"09774144","name":"Jettingen-Scheppach, M","type":"Markt"},"district":{"key":"09774","name":"Günzburg","type":"Landkreis"},"federalState":{"key":"09","name":"Bayern"}},{"name":"Schwabenstr.","postalCode":"89343","locality":"Jettingen-Scheppach","municipality":{"key":"09774144","name":"Jettingen-Scheppach, M","type":"Markt"},"district":{"key":"09774","name":"Günzburg","type":"Landkreis"},"federalState":{"key":"09","name":"Bayern"}},{"name":"Schwalbenweg","postalCode":"89343","locality":"Jettingen-Scheppach","municipality":{"key":"09774144","name":"Jettingen-Scheppach, M","type":"Markt"},"district":{"key":"09774","name":"Günzburg","type":"Landkreis"},"federalState":{"key":"09","name":"Bayern"}},{"name":"Schwarzwaldstr.","postalCode":"71131","locality":"Jettingen","municipality":{"key":"08115053","name":"Jettingen","type":"Kreisangehörige_Gemeinde"},"district":{"key":"08115","name":"Böblingen","type":"Landkreis"},"federalState":{"key":"08","name":"Baden-Württemberg"}},{"name":"Siedlerstr.","postalCode":"89343","locality":"Jettingen-Scheppach","municipality":{"key":"09774144","name":"Jettingen-Scheppach, M","type":"Markt"},"district":{"key":"09774","name":"Günzburg","type":"Landkreis"},"federalState":{"key":"09","name":"Bayern"}},{"name":"Siemensstr.","postalCode":"89343","locality":"Jettingen-Scheppach","municipality":{"key":"09774144","name":"Jettingen-Scheppach, M","type":"Markt"},"district":{"key":"09774","name":"Günzburg","type":"Landkreis"},"federalState":{"key":"09","name":"Bayern"}},{"name":"Silcherstr.","postalCode":"71131","locality":"Jettingen","municipality":{"key":"08115053","name":"Jettingen","type":"Kreisangehörige_Gemeinde"},"district":{"key":"08115","name":"Böblingen","type":"Landkreis"},"federalState":{"key":"08","name":"Baden-Württemberg"}},{"name":"Sindlinger Str.","postalCode":"71131","locality":"Jettingen","municipality":{"key":"08115053","name":"Jettingen","type":"Kreisangehörige_Gemeinde"},"district":{"key":"08115","name":"Böblingen","type":"Landkreis"},"federalState":{"key":"08","name":"Baden-Württemberg"}},{"name":"Sindlinger Weg","postalCode":"71131","locality":"Jettingen","municipality":{"key":"08115053","name":"Jettingen","type":"Kreisangehörige_Gemeinde"},"district":{"key":"08115","name":"Böblingen","type":"Landkreis"},"federalState":{"key":"08","name":"Baden-Württemberg"}},{"name":"Sommerstr.","postalCode":"89343","locality":"Jettingen-Scheppach","municipality":{"key":"09774144","name":"Jettingen-Scheppach, M","type":"Markt"},"district":{"key":"09774","name":"Günzburg","type":"Landkreis"},"federalState":{"key":"09","name":"Bayern"}},{"name":"Spechtweg","postalCode":"89343","locality":"Jettingen-Scheppach","municipality":{"key":"09774144","name":"Jettingen-Scheppach, M","type":"Markt"},"district":{"key":"09774","name":"Günzburg","type":"Landkreis"},"federalState":{"key":"09","name":"Bayern"}},{"name":"Stahlstr.","postalCode":"71131","locality":"Jettingen","municipality":{"key":"08115053","name":"Jettingen","type":"Kreisangehörige_Gemeinde"},"district":{"key":"08115","name":"Böblingen","type":"Landkreis"},"federalState":{"key":"08","name":"Baden-Württemberg"}},{"name":"Starenweg","postalCode":"71131","locality":"Jettingen","municipality":{"key":"08115053","name":"Jettingen","type":"Kreisangehörige_Gemeinde"},"district":{"key":"08115","name":"Böblingen","type":"Landkreis"},"federalState":{"key":"08","name":"Baden-Württemberg"}},{"name":"Starenweg","postalCode":"89343","locality":"Jettingen-Scheppach","municipality":{"key":"09774144","name":"Jettingen-Scheppach, M","type":"Markt"},"district":{"key":"09774","name":"Günzburg","type":"Landkreis"},"federalState":{"key":"09","name":"Bayern"}},{"name":"Staufenweg","postalCode":"71131","locality":"Jettingen","municipality":{"key":"08115053","name":"Jettingen","type":"Kreisangehörige_Gemeinde"},"district":{"key":"08115","name":"Böblingen","type":"Landkreis"},"federalState":{"key":"08","name":"Baden-Württemberg"}},{"name":"Steinung","postalCode":"71131","locality":"Jettingen","municipality":{"key":"08115053","name":"Jettingen","type":"Kreisangehörige_Gemeinde"},"district":{"key":"08115","name":"Böblingen","type":"Landkreis"},"federalState":{"key":"08","name":"Baden-Württemberg"}},{"name":"Stöckachstr.","postalCode":"71131","locality":"Jettingen","municipality":{"key":"08115053","name":"Jettingen","type":"Kreisangehörige_Gemeinde"},"district":{"key":"08115","name":"Böblingen","type":"Landkreis"},"federalState":{"key":"08","name":"Baden-Württemberg"}},{"name":"Talbachstr.","postalCode":"89343","locality":"Jettingen-Scheppach","municipality":{"key":"09774144","name":"Jettingen-Scheppach, M","type":"Markt"},"district":{"key":"09774","name":"Günzburg","type":"Landkreis"},"federalState":{"key":"09","name":"Bayern"}},{"name":"Talstr.","postalCode":"71131","locality":"Jettingen","municipality":{"key":"08115053","name":"Jettingen","type":"Kreisangehörige_Gemeinde"},"district":{"key":"08115","name":"Böblingen","type":"Landkreis"},"federalState":{"key":"08","name":"Baden-Württemberg"}},{"name":"Talsträßchen","postalCode":"71131","locality":"Jettingen","municipality":{"key":"08115053","name":"Jettingen","type":"Kreisangehörige_Gemeinde"},"district":{"key":"08115","name":"Böblingen","type":"Landkreis"},"federalState":{"key":"08","name":"Baden-Württemberg"}},{"name":"Tannenstr.","postalCode":"71131","locality":"Jettingen","municipality":{"key":"08115053","name":"Jettingen","type":"Kreisangehörige_Gemeinde"},"district":{"key":"08115","name":"Böblingen","type":"Landkreis"},"federalState":{"key":"08","name":"Baden-Württemberg"}},{"name":"Taubenweg","postalCode":"71131","locality":"Jettingen","municipality":{"key":"08115053","name":"Jettingen","type":"Kreisangehörige_Gemeinde"},"district":{"key":"08115","name":"Böblingen","type":"Landkreis"},"federalState":{"key":"08","name":"Baden-Württemberg"}},{"name":"Teckstr.","postalCode":"71131","locality":"Jettingen","municipality":{"key":"08115053","name":"Jettingen","type":"Kreisangehörige_Gemeinde"},"district":{"key":"08115","name":"Böblingen","type":"Landkreis"},"federalState":{"key":"08","name":"Baden-Württemberg"}},{"name":"Theodor-Heuss-Str.","postalCode":"89343","locality":"Jettingen-Scheppach","municipality":{"key":"09774144","name":"Jettingen-Scheppach, M","type":"Markt"},"district":{"key":"09774","name":"Günzburg","type":"Landkreis"},"federalState":{"key":"09","name":"Bayern"}},{"name":"Uhlandstr.","postalCode":"71131","locality":"Jettingen","municipality":{"key":"08115053","name":"Jettingen","type":"Kreisangehörige_Gemeinde"},"district":{"key":"08115","name":"Böblingen","type":"Landkreis"},"federalState":{"key":"08","name":"Baden-Württemberg"}},{"name":"Uhlandstr.","postalCode":"89343","locality":"Jettingen-Scheppach","municipality":{"key":"09774144","name":"Jettingen-Scheppach, M","type":"Markt"},"district":{"key":"09774","name":"Günzburg","type":"Landkreis"},"federalState":{"key":"09","name":"Bayern"}},{"name":"Ulmenweg","postalCode":"71131","locality":"Jettingen","municipality":{"key":"08115053","name":"Jettingen","type":"Kreisangehörige_Gemeinde"},"district":{"key":"08115","name":"Böblingen","type":"Landkreis"},"federalState":{"key":"08","name":"Baden-Württemberg"}},{"name":"Ulmenweg","postalCode":"89343","locality":"Jettingen-Scheppach","municipality":{"key":"09774144","name":"Jettingen-Scheppach, M","type":"Markt"},"district":{"key":"09774","name":"Günzburg","type":"Landkreis"},"federalState":{"key":"09","name":"Bayern"}},{"name":"Untere Dorfstr.","postalCode":"89343","locality":"Jettingen-Scheppach","municipality":{"key":"09774144","name":"Jettingen-Scheppach, M","type":"Markt"},"district":{"key":"09774","name":"Günzburg","type":"Landkreis"},"federalState":{"key":"09","name":"Bayern"}},{"name":"Untere Dorfstr. 19-5","postalCode":"89343","locality":"Jettingen-Scheppach","municipality":{"key":"09774144","name":"Jettingen-Scheppach, M","type":"Markt"},"district":{"key":"09774","name":"Günzburg","type":"Landkreis"},"federalState":{"key":"09","name":"Bayern"}},{"name":"Untere Maierhofstr.","postalCode":"89343","locality":"Jettingen-Scheppach","municipality":{"key":"09774144","name":"Jettingen-Scheppach, M","type":"Markt"},"district":{"key":"09774","name":"Günzburg","type":"Landkreis"},"federalState":{"key":"09","name":"Bayern"}},{"name":"Unterer Angerweg","postalCode":"89343","locality":"Jettingen-Scheppach","municipality":{"key":"09774144","name":"Jettingen-Scheppach, M","type":"Markt"},"district":{"key":"09774","name":"Günzburg","type":"Landkreis"},"federalState":{"key":"09","name":"Bayern"}},{"name":"Unterer Garten","postalCode":"71131","locality":"Jettingen","municipality":{"key":"08115053","name":"Jettingen","type":"Kreisangehörige_Gemeinde"},"district":{"key":"08115","name":"Böblingen","type":"Landkreis"},"federalState":{"key":"08","name":"Baden-Württemberg"}},{"name":"Unterjettinger Str.","postalCode":"71131","locality":"Jettingen","municipality":{"key":"08115053","name":"Jettingen","type":"Kreisangehörige_Gemeinde"},"district":{"key":"08115","name":"Böblingen","type":"Landkreis"},"federalState":{"key":"08","name":"Baden-Württemberg"}},{"name":"Urdorfstr.","postalCode":"71131","locality":"Jettingen","municipality":{"key":"08115053","name":"Jettingen","type":"Kreisangehörige_Gemeinde"},"district":{"key":"08115","name":"Böblingen","type":"Landkreis"},"federalState":{"key":"08","name":"Baden-Württemberg"}},{"name":"Vogelsangstr.","postalCode":"71131","locality":"Jettingen","municipality":{"key":"08115053","name":"Jettingen","type":"Kreisangehörige_Gemeinde"},"district":{"key":"08115","name":"Böblingen","type":"Landkreis"},"federalState":{"key":"08","name":"Baden-Württemberg"}},{"name":"Vogelsangstr.","postalCode":"89343","locality":"Jettingen-Scheppach","municipality":{"key":"09774144","name":"Jettingen-Scheppach, M","type":"Markt"},"district":{"key":"09774","name":"Günzburg","type":"Landkreis"},"federalState":{"key":"09","name":"Bayern"}},{"name":"Von Kleist Str.","postalCode":"89343","locality":"Jettingen-Scheppach","municipality":{"key":"09774144","name":"Jettingen-Scheppach, M","type":"Markt"},"district":{"key":"09774","name":"Günzburg","type":"Landkreis"},"federalState":{"key":"09","name":"Bayern"}},{"name":"Von-Knöringen-Str.","postalCode":"89343","locality":"Jettingen-Scheppach","municipality":{"key":"09774144","name":"Jettingen-Scheppach, M","type":"Markt"},"district":{"key":"09774","name":"Günzburg","type":"Landkreis"},"federalState":{"key":"09","name":"Bayern"}},{"name":"Vorderer Höges","postalCode":"89343","locality":"Jettingen-Scheppach","municipality":{"key":"09774144","name":"Jettingen-Scheppach, M","type":"Markt"},"district":{"key":"09774","name":"Günzburg","type":"Landkreis"},"federalState":{"key":"09","name":"Bayern"}},{"name":"Vorholzstr.","postalCode":"89343","locality":"Jettingen-Scheppach","municipality":{"key":"09774144","name":"Jettingen-Scheppach, M","type":"Markt"},"district":{"key":"09774","name":"Günzburg","type":"Landkreis"},"federalState":{"key":"09","name":"Bayern"}},{"name":"Waldstr.","postalCode":"89343","locality":"Jettingen-Scheppach","municipality":{"key":"09774144","name":"Jettingen-Scheppach, M","type":"Markt"},"district":{"key":"09774","name":"Günzburg","type":"Landkreis"},"federalState":{"key":"09","name":"Bayern"}},{"name":"Wasenäckerstr.","postalCode":"71131","locality":"Jettingen","municipality":{"key":"08115053","name":"Jettingen","type":"Kreisangehörige_Gemeinde"},"district":{"key":"08115","name":"Böblingen","type":"Landkreis"},"federalState":{"key":"08","name":"Baden-Württemberg"}},{"name":"Weberstr.","postalCode":"89343","locality":"Jettingen-Scheppach","municipality":{"key":"09774144","name":"Jettingen-Scheppach, M","type":"Markt"},"district":{"key":"09774","name":"Günzburg","type":"Landkreis"},"federalState":{"key":"09","name":"Bayern"}},{"name":"Weihermahdstr.","postalCode":"89343","locality":"Jettingen-Scheppach","municipality":{"key":"09774144","name":"Jettingen-Scheppach, M","type":"Markt"},"district":{"key":"09774","name":"Günzburg","type":"Landkreis"},"federalState":{"key":"09","name":"Bayern"}},{"name":"Weiherwiesenweg","postalCode":"71131","locality":"Jettingen","municipality":{"key":"08115053","name":"Jettingen","type":"Kreisangehörige_Gemeinde"},"district":{"key":"08115","name":"Böblingen","type":"Landkreis"},"federalState":{"key":"08","name":"Baden-Württemberg"}},{"name":"Weizenweg","postalCode":"71131","locality":"Jettingen","municipality":{"key":"08115053","name":"Jettingen","type":"Kreisangehörige_Gemeinde"},"district":{"key":"08115","name":"Böblingen","type":"Landkreis"},"federalState":{"key":"08","name":"Baden-Württemberg"}},{"name":"Westenäckerstr.","postalCode":"89343","locality":"Jettingen-Scheppach","municipality":{"key":"09774144","name":"Jettingen-Scheppach, M","type":"Markt"},"district":{"key":"09774","name":"Günzburg","type":"Landkreis"},"federalState":{"key":"09","name":"Bayern"}},{"name":"Wettenhauser Str.","postalCode":"89343","locality":"Jettingen-Scheppach","municipality":{"key":"09774144","name":"Jettingen-Scheppach, M","type":"Markt"},"district":{"key":"09774","name":"Günzburg","type":"Landkreis"},"federalState":{"key":"09","name":"Bayern"}},{"name":"Wielandstr.","postalCode":"71131","locality":"Jettingen","municipality":{"key":"08115053","name":"Jettingen","type":"Kreisangehörige_Gemeinde"},"district":{"key":"08115","name":"Böblingen","type":"Landkreis"},"federalState":{"key":"08","name":"Baden-Württemberg"}},{"name":"Wiesenstr.","postalCode":"71131","locality":"Jettingen","municipality":{"key":"08115053","name":"Jettingen","type":"Kreisangehörige_Gemeinde"},"district":{"key":"08115","name":"Böblingen","type":"Landkreis"},"federalState":{"key":"08","name":"Baden-Württemberg"}},{"name":"Wildberger Str.","postalCode":"71131","locality":"Jettingen","municipality":{"key":"08115053","name":"Jettingen","type":"Kreisangehörige_Gemeinde"},"district":{"key":"08115","name":"Böblingen","type":"Landkreis"},"federalState":{"key":"08","name":"Baden-Württemberg"}},{"name":"Wittumstr.","postalCode":"71131","locality":"Jettingen","municipality":{"key":"08115053","name":"Jettingen","type":"Kreisangehörige_Gemeinde"},"district":{"key":"08115","name":"Böblingen","type":"Landkreis"},"federalState":{"key":"08","name":"Baden-Württemberg"}},{"name":"Zeiselhalde","postalCode":"89343","locality":"Jettingen-Scheppach","municipality":{"key":"09774144","name":"Jettingen-Scheppach, M","type":"Markt"},"district":{"key":"09774","name":"Günzburg","type":"Landkreis"},"federalState":{"key":"09","name":"Bayern"}},{"name":"Zeisigweg","postalCode":"71131","locality":"Jettingen","municipality":{"key":"08115053","name":"Jettingen","type":"Kreisangehörige_Gemeinde"},"district":{"key":"08115","name":"Böblingen","type":"Landkreis"},"federalState":{"key":"08","name":"Baden-Württemberg"}},{"name":"Zeppelinstr.","postalCode":"89343","locality":"Jettingen-Scheppach","municipality":{"key":"09774144","name":"Jettingen-Scheppach, M","type":"Markt"},"district":{"key":"09774","name":"Günzburg","type":"Landkreis"},"federalState":{"key":"09","name":"Bayern"}},{"name":"Ziegeläckerweg","postalCode":"89343","locality":"Jettingen-Scheppach","municipality":{"key":"09774144","name":"Jettingen-Scheppach, M","type":"Markt"},"district":{"key":"09774","name":"Günzburg","type":"Landkreis"},"federalState":{"key":"09","name":"Bayern"}},{"name":"Zollernweg","postalCode":"71131","locality":"Jettingen","municipality":{"key":"08115053","name":"Jettingen","type":"Kreisangehörige_Gemeinde"},"district":{"key":"08115","name":"Böblingen","type":"Landkreis"},"federalState":{"key":"08","name":"Baden-Württemberg"}},{"name":"Zum Frauenlehen","postalCode":"89343","locality":"Jettingen-Scheppach","municipality":{"key":"09774144","name":"Jettingen-Scheppach, M","type":"Markt"},"district":{"key":"09774","name":"Günzburg","type":"Landkreis"},"federalState":{"key":"09","name":"Bayern"}},{"name":"Öfelepass","postalCode":"71131","locality":"Jettingen","municipality":{"key":"08115053","name":"Jettingen","type":"Kreisangehörige_Gemeinde"},"district":{"key":"08115","name":"Böblingen","type":"Landkreis"},"federalState":{"key":"08","name":"Baden-Württemberg"}},{"name":"Öschelbronner Str.","postalCode":"71131","locality":"Jettingen","municipality":{"key":"08115053","name":"Jettingen","type":"Kreisangehörige_Gemeinde"},"district":{"key":"08115","name":"Böblingen","type":"Landkreis"},"federalState":{"key":"08","name":"Baden-Württemberg"}},]