[{"name":"Ameisenbühlstr.","postalCode":"92552","locality":"Teunz","municipality":{"key":"09376171","name":"Teunz","type":"Kreisangehörige_Gemeinde"},"district":{"key":"09376","name":"Schwandorf","type":"Landkreis"},"federalState":{"key":"09","name":"Bayern"}},{"name":"Am Feuerwehrhaus","postalCode":"92552","locality":"Teunz","municipality":{"key":"09376171","name":"Teunz","type":"Kreisangehörige_Gemeinde"},"district":{"key":"09376","name":"Schwandorf","type":"Landkreis"},"federalState":{"key":"09","name":"Bayern"}},{"name":"Am Mühlanger","postalCode":"92552","locality":"Teunz","municipality":{"key":"09376171","name":"Teunz","type":"Kreisangehörige_Gemeinde"},"district":{"key":"09376","name":"Schwandorf","type":"Landkreis"},"federalState":{"key":"09","name":"Bayern"}},{"name":"Am Schießlkreuz","postalCode":"92552","locality":"Teunz","municipality":{"key":"09376171","name":"Teunz","type":"Kreisangehörige_Gemeinde"},"district":{"key":"09376","name":"Schwandorf","type":"Landkreis"},"federalState":{"key":"09","name":"Bayern"}},{"name":"Am Setzerweiher","postalCode":"92552","locality":"Teunz","municipality":{"key":"09376171","name":"Teunz","type":"Kreisangehörige_Gemeinde"},"district":{"key":"09376","name":"Schwandorf","type":"Landkreis"},"federalState":{"key":"09","name":"Bayern"}},{"name":"Am Sportplatz","postalCode":"92552","locality":"Teunz","municipality":{"key":"09376171","name":"Teunz","type":"Kreisangehörige_Gemeinde"},"district":{"key":"09376","name":"Schwandorf","type":"Landkreis"},"federalState":{"key":"09","name":"Bayern"}},{"name":"Am Steinbruch","postalCode":"92552","locality":"Teunz","municipality":{"key":"09376171","name":"Teunz","type":"Kreisangehörige_Gemeinde"},"district":{"key":"09376","name":"Schwandorf","type":"Landkreis"},"federalState":{"key":"09","name":"Bayern"}},{"name":"Am Waldfrieden","postalCode":"92552","locality":"Teunz","municipality":{"key":"09376171","name":"Teunz","type":"Kreisangehörige_Gemeinde"},"district":{"key":"09376","name":"Schwandorf","type":"Landkreis"},"federalState":{"key":"09","name":"Bayern"}},{"name":"Am Wiesengrund","postalCode":"92552","locality":"Teunz","municipality":{"key":"09376171","name":"Teunz","type":"Kreisangehörige_Gemeinde"},"district":{"key":"09376","name":"Schwandorf","type":"Landkreis"},"federalState":{"key":"09","name":"Bayern"}},{"name":"Bergstr.","postalCode":"92552","locality":"Teunz","municipality":{"key":"09376171","name":"Teunz","type":"Kreisangehörige_Gemeinde"},"district":{"key":"09376","name":"Schwandorf","type":"Landkreis"},"federalState":{"key":"09","name":"Bayern"}},{"name":"Bubenlohe","postalCode":"92552","locality":"Teunz","municipality":{"key":"09376171","name":"Teunz","type":"Kreisangehörige_Gemeinde"},"district":{"key":"09376","name":"Schwandorf","type":"Landkreis"},"federalState":{"key":"09","name":"Bayern"}},{"name":"Bürgermeister-Kiesl-Str.","postalCode":"92552","locality":"Teunz","municipality":{"key":"09376171","name":"Teunz","type":"Kreisangehörige_Gemeinde"},"district":{"key":"09376","name":"Schwandorf","type":"Landkreis"},"federalState":{"key":"09","name":"Bayern"}},{"name":"Bürgermeister-Kirchberger-Str.","postalCode":"92552","locality":"Teunz","municipality":{"key":"09376171","name":"Teunz","type":"Kreisangehörige_Gemeinde"},"district":{"key":"09376","name":"Schwandorf","type":"Landkreis"},"federalState":{"key":"09","name":"Bayern"}},{"name":"Burkhardsberger Str.","postalCode":"92552","locality":"Teunz","municipality":{"key":"09376171","name":"Teunz","type":"Kreisangehörige_Gemeinde"},"district":{"key":"09376","name":"Schwandorf","type":"Landkreis"},"federalState":{"key":"09","name":"Bayern"}},{"name":"Celsiusstr.","postalCode":"92421","locality":"Schwandorf","municipality":{"key":"09376161","name":"Schwandorf, GKSt","type":"Große_Kreisstadt"},"district":{"key":"09376","name":"Schwandorf","type":"Landkreis"},"federalState":{"key":"09","name":"Bayern"}},{"name":"Charlottenhof","postalCode":"92421","locality":"Schwandorf","municipality":{"key":"09376161","name":"Schwandorf, GKSt","type":"Große_Kreisstadt"},"district":{"key":"09376","name":"Schwandorf","type":"Landkreis"},"federalState":{"key":"09","name":"Bayern"}},{"name":"Dachelberg","postalCode":"92421","locality":"Schwandorf","municipality":{"key":"09376161","name":"Schwandorf, GKSt","type":"Große_Kreisstadt"},"district":{"key":"09376","name":"Schwandorf","type":"Landkreis"},"federalState":{"key":"09","name":"Bayern"}},{"name":"Dachelhofer Str.","postalCode":"92421","locality":"Schwandorf","municipality":{"key":"09376161","name":"Schwandorf, GKSt","type":"Große_Kreisstadt"},"district":{"key":"09376","name":"Schwandorf","type":"Landkreis"},"federalState":{"key":"09","name":"Bayern"}},{"name":"Daimlerstr.","postalCode":"92421","locality":"Schwandorf","municipality":{"key":"09376161","name":"Schwandorf, GKSt","type":"Große_Kreisstadt"},"district":{"key":"09376","name":"Schwandorf","type":"Landkreis"},"federalState":{"key":"09","name":"Bayern"}},{"name":"Danziger Str.","postalCode":"92421","locality":"Schwandorf","municipality":{"key":"09376161","name":"Schwandorf, GKSt","type":"Große_Kreisstadt"},"district":{"key":"09376","name":"Schwandorf","type":"Landkreis"},"federalState":{"key":"09","name":"Bayern"}},{"name":"Detterstr.","postalCode":"92421","locality":"Schwandorf","municipality":{"key":"09376161","name":"Schwandorf, GKSt","type":"Große_Kreisstadt"},"district":{"key":"09376","name":"Schwandorf","type":"Landkreis"},"federalState":{"key":"09","name":"Bayern"}},{"name":"Dieselstr.","postalCode":"92421","locality":"Schwandorf","municipality":{"key":"09376161","name":"Schwandorf, GKSt","type":"Große_Kreisstadt"},"district":{"key":"09376","name":"Schwandorf","type":"Landkreis"},"federalState":{"key":"09","name":"Bayern"}},{"name":"Diethardstr.","postalCode":"92421","locality":"Schwandorf","municipality":{"key":"09376161","name":"Schwandorf, GKSt","type":"Große_Kreisstadt"},"district":{"key":"09376","name":"Schwandorf","type":"Landkreis"},"federalState":{"key":"09","name":"Bayern"}},{"name":"Dietrich-Bonhoeffer-Str.","postalCode":"92421","locality":"Schwandorf","municipality":{"key":"09376161","name":"Schwandorf, GKSt","type":"Große_Kreisstadt"},"district":{"key":"09376","name":"Schwandorf","type":"Landkreis"},"federalState":{"key":"09","name":"Bayern"}},{"name":"Distlhofer Str.","postalCode":"92421","locality":"Schwandorf","municipality":{"key":"09376161","name":"Schwandorf, GKSt","type":"Große_Kreisstadt"},"district":{"key":"09376","name":"Schwandorf","type":"Landkreis"},"federalState":{"key":"09","name":"Bayern"}},{"name":"Dollackerstr.","postalCode":"92421","locality":"Schwandorf","municipality":{"key":"09376161","name":"Schwandorf, GKSt","type":"Große_Kreisstadt"},"district":{"key":"09376","name":"Schwandorf","type":"Landkreis"},"federalState":{"key":"09","name":"Bayern"}},{"name":"Dominikanerinnenstr.","postalCode":"92421","locality":"Schwandorf","municipality":{"key":"09376161","name":"Schwandorf, GKSt","type":"Große_Kreisstadt"},"district":{"key":"09376","name":"Schwandorf","type":"Landkreis"},"federalState":{"key":"09","name":"Bayern"}},{"name":"Dresdner Str.","postalCode":"92421","locality":"Schwandorf","municipality":{"key":"09376161","name":"Schwandorf, GKSt","type":"Große_Kreisstadt"},"district":{"key":"09376","name":"Schwandorf","type":"Landkreis"},"federalState":{"key":"09","name":"Bayern"}},{"name":"Dr.-Georg-Klitta-Str.","postalCode":"92421","locality":"Schwandorf","municipality":{"key":"09376161","name":"Schwandorf, GKSt","type":"Große_Kreisstadt"},"district":{"key":"09376","name":"Schwandorf","type":"Landkreis"},"federalState":{"key":"09","name":"Bayern"}},{"name":"Dr.-Martin-Luther-Str.","postalCode":"92421","locality":"Schwandorf","municipality":{"key":"09376161","name":"Schwandorf, GKSt","type":"Große_Kreisstadt"},"district":{"key":"09376","name":"Schwandorf","type":"Landkreis"},"federalState":{"key":"09","name":"Bayern"}},{"name":"Dr.-Menge-Str.","postalCode":"92421","locality":"Schwandorf","municipality":{"key":"09376161","name":"Schwandorf, GKSt","type":"Große_Kreisstadt"},"district":{"key":"09376","name":"Schwandorf","type":"Landkreis"},"federalState":{"key":"09","name":"Bayern"}},{"name":"Drosselweg","postalCode":"92421","locality":"Schwandorf","municipality":{"key":"09376161","name":"Schwandorf, GKSt","type":"Große_Kreisstadt"},"district":{"key":"09376","name":"Schwandorf","type":"Landkreis"},"federalState":{"key":"09","name":"Bayern"}},{"name":"Eichenweg","postalCode":"92552","locality":"Teunz","municipality":{"key":"09376171","name":"Teunz","type":"Kreisangehörige_Gemeinde"},"district":{"key":"09376","name":"Schwandorf","type":"Landkreis"},"federalState":{"key":"09","name":"Bayern"}},{"name":"Faustnitzweg","postalCode":"92552","locality":"Teunz","municipality":{"key":"09376171","name":"Teunz","type":"Kreisangehörige_Gemeinde"},"district":{"key":"09376","name":"Schwandorf","type":"Landkreis"},"federalState":{"key":"09","name":"Bayern"}},{"name":"Fichtenweg","postalCode":"92552","locality":"Teunz","municipality":{"key":"09376171","name":"Teunz","type":"Kreisangehörige_Gemeinde"},"district":{"key":"09376","name":"Schwandorf","type":"Landkreis"},"federalState":{"key":"09","name":"Bayern"}},{"name":"Fuchsberger Str.","postalCode":"92552","locality":"Teunz","municipality":{"key":"09376171","name":"Teunz","type":"Kreisangehörige_Gemeinde"},"district":{"key":"09376","name":"Schwandorf","type":"Landkreis"},"federalState":{"key":"09","name":"Bayern"}},{"name":"Gabelsberger Str.","postalCode":"92421","locality":"Schwandorf","municipality":{"key":"09376161","name":"Schwandorf, GKSt","type":"Große_Kreisstadt"},"district":{"key":"09376","name":"Schwandorf","type":"Landkreis"},"federalState":{"key":"09","name":"Bayern"}},{"name":"Gaisbergstr.","postalCode":"92421","locality":"Schwandorf","municipality":{"key":"09376161","name":"Schwandorf, GKSt","type":"Große_Kreisstadt"},"district":{"key":"09376","name":"Schwandorf","type":"Landkreis"},"federalState":{"key":"09","name":"Bayern"}},{"name":"Galgengasse","postalCode":"92421","locality":"Schwandorf","municipality":{"key":"09376161","name":"Schwandorf, GKSt","type":"Große_Kreisstadt"},"district":{"key":"09376","name":"Schwandorf","type":"Landkreis"},"federalState":{"key":"09","name":"Bayern"}},{"name":"Galileistr.","postalCode":"92421","locality":"Schwandorf","municipality":{"key":"09376161","name":"Schwandorf, GKSt","type":"Große_Kreisstadt"},"district":{"key":"09376","name":"Schwandorf","type":"Landkreis"},"federalState":{"key":"09","name":"Bayern"}},{"name":"Galvanistr.","postalCode":"92421","locality":"Schwandorf","municipality":{"key":"09376161","name":"Schwandorf, GKSt","type":"Große_Kreisstadt"},"district":{"key":"09376","name":"Schwandorf","type":"Landkreis"},"federalState":{"key":"09","name":"Bayern"}},{"name":"Ganghoferstr.","postalCode":"92421","locality":"Schwandorf","municipality":{"key":"09376161","name":"Schwandorf, GKSt","type":"Große_Kreisstadt"},"district":{"key":"09376","name":"Schwandorf","type":"Landkreis"},"federalState":{"key":"09","name":"Bayern"}},{"name":"Garrstr.","postalCode":"92421","locality":"Schwandorf","municipality":{"key":"09376161","name":"Schwandorf, GKSt","type":"Große_Kreisstadt"},"district":{"key":"09376","name":"Schwandorf","type":"Landkreis"},"federalState":{"key":"09","name":"Bayern"}},{"name":"Gartenackerstr.","postalCode":"92421","locality":"Schwandorf","municipality":{"key":"09376161","name":"Schwandorf, GKSt","type":"Große_Kreisstadt"},"district":{"key":"09376","name":"Schwandorf","type":"Landkreis"},"federalState":{"key":"09","name":"Bayern"}},{"name":"Gartenstr.","postalCode":"92421","locality":"Schwandorf","municipality":{"key":"09376161","name":"Schwandorf, GKSt","type":"Große_Kreisstadt"},"district":{"key":"09376","name":"Schwandorf","type":"Landkreis"},"federalState":{"key":"09","name":"Bayern"}},{"name":"Gärtnerstr.","postalCode":"92421","locality":"Schwandorf","municipality":{"key":"09376161","name":"Schwandorf, GKSt","type":"Große_Kreisstadt"},"district":{"key":"09376","name":"Schwandorf","type":"Landkreis"},"federalState":{"key":"09","name":"Bayern"}},{"name":"Gebrüder-Grimm-Str.","postalCode":"92421","locality":"Schwandorf","municipality":{"key":"09376161","name":"Schwandorf, GKSt","type":"Große_Kreisstadt"},"district":{"key":"09376","name":"Schwandorf","type":"Landkreis"},"federalState":{"key":"09","name":"Bayern"}},{"name":"Georg-Feldmeier-Str.","postalCode":"92421","locality":"Schwandorf","municipality":{"key":"09376161","name":"Schwandorf, GKSt","type":"Große_Kreisstadt"},"district":{"key":"09376","name":"Schwandorf","type":"Landkreis"},"federalState":{"key":"09","name":"Bayern"}},{"name":"Georg-Schambeck-Str.","postalCode":"92421","locality":"Schwandorf","municipality":{"key":"09376161","name":"Schwandorf, GKSt","type":"Große_Kreisstadt"},"district":{"key":"09376","name":"Schwandorf","type":"Landkreis"},"federalState":{"key":"09","name":"Bayern"}},{"name":"Geranienweg","postalCode":"92421","locality":"Schwandorf","municipality":{"key":"09376161","name":"Schwandorf, GKSt","type":"Große_Kreisstadt"},"district":{"key":"09376","name":"Schwandorf","type":"Landkreis"},"federalState":{"key":"09","name":"Bayern"}},{"name":"Geschwister-Scholl-Str.","postalCode":"92421","locality":"Schwandorf","municipality":{"key":"09376161","name":"Schwandorf, GKSt","type":"Große_Kreisstadt"},"district":{"key":"09376","name":"Schwandorf","type":"Landkreis"},"federalState":{"key":"09","name":"Bayern"}},{"name":"Gibachtstr.","postalCode":"92421","locality":"Schwandorf","municipality":{"key":"09376161","name":"Schwandorf, GKSt","type":"Große_Kreisstadt"},"district":{"key":"09376","name":"Schwandorf","type":"Landkreis"},"federalState":{"key":"09","name":"Bayern"}},{"name":"Ginsterweg","postalCode":"92421","locality":"Schwandorf","municipality":{"key":"09376161","name":"Schwandorf, GKSt","type":"Große_Kreisstadt"},"district":{"key":"09376","name":"Schwandorf","type":"Landkreis"},"federalState":{"key":"09","name":"Bayern"}},{"name":"Gladiolenstr.","postalCode":"92421","locality":"Schwandorf","municipality":{"key":"09376161","name":"Schwandorf, GKSt","type":"Große_Kreisstadt"},"district":{"key":"09376","name":"Schwandorf","type":"Landkreis"},"federalState":{"key":"09","name":"Bayern"}},{"name":"Glätzlstr.","postalCode":"92421","locality":"Schwandorf","municipality":{"key":"09376161","name":"Schwandorf, GKSt","type":"Große_Kreisstadt"},"district":{"key":"09376","name":"Schwandorf","type":"Landkreis"},"federalState":{"key":"09","name":"Bayern"}},{"name":"Gleiwitzer Str.","postalCode":"92421","locality":"Schwandorf","municipality":{"key":"09376161","name":"Schwandorf, GKSt","type":"Große_Kreisstadt"},"district":{"key":"09376","name":"Schwandorf","type":"Landkreis"},"federalState":{"key":"09","name":"Bayern"}},{"name":"Goethestr.","postalCode":"92421","locality":"Schwandorf","municipality":{"key":"09376161","name":"Schwandorf, GKSt","type":"Große_Kreisstadt"},"district":{"key":"09376","name":"Schwandorf","type":"Landkreis"},"federalState":{"key":"09","name":"Bayern"}},{"name":"Gögglbacher Ring","postalCode":"92421","locality":"Schwandorf","municipality":{"key":"09376161","name":"Schwandorf, GKSt","type":"Große_Kreisstadt"},"district":{"key":"09376","name":"Schwandorf","type":"Landkreis"},"federalState":{"key":"09","name":"Bayern"}},{"name":"Goldregenstr.","postalCode":"92421","locality":"Schwandorf","municipality":{"key":"09376161","name":"Schwandorf, GKSt","type":"Große_Kreisstadt"},"district":{"key":"09376","name":"Schwandorf","type":"Landkreis"},"federalState":{"key":"09","name":"Bayern"}},{"name":"Goldsternstr.","postalCode":"92421","locality":"Schwandorf","municipality":{"key":"09376161","name":"Schwandorf, GKSt","type":"Große_Kreisstadt"},"district":{"key":"09376","name":"Schwandorf","type":"Landkreis"},"federalState":{"key":"09","name":"Bayern"}},{"name":"Grabenweg","postalCode":"92421","locality":"Schwandorf","municipality":{"key":"09376161","name":"Schwandorf, GKSt","type":"Große_Kreisstadt"},"district":{"key":"09376","name":"Schwandorf","type":"Landkreis"},"federalState":{"key":"09","name":"Bayern"}},{"name":"Graf-von-Stauffenberg-Str.","postalCode":"92421","locality":"Schwandorf","municipality":{"key":"09376161","name":"Schwandorf, GKSt","type":"Große_Kreisstadt"},"district":{"key":"09376","name":"Schwandorf","type":"Landkreis"},"federalState":{"key":"09","name":"Bayern"}},{"name":"Grain","postalCode":"92421","locality":"Schwandorf","municipality":{"key":"09376161","name":"Schwandorf, GKSt","type":"Große_Kreisstadt"},"district":{"key":"09376","name":"Schwandorf","type":"Landkreis"},"federalState":{"key":"09","name":"Bayern"}},{"name":"Grieslweg","postalCode":"92421","locality":"Schwandorf","municipality":{"key":"09376161","name":"Schwandorf, GKSt","type":"Große_Kreisstadt"},"district":{"key":"09376","name":"Schwandorf","type":"Landkreis"},"federalState":{"key":"09","name":"Bayern"}},{"name":"Grillparzerplatz","postalCode":"92421","locality":"Schwandorf","municipality":{"key":"09376161","name":"Schwandorf, GKSt","type":"Große_Kreisstadt"},"district":{"key":"09376","name":"Schwandorf","type":"Landkreis"},"federalState":{"key":"09","name":"Bayern"}},{"name":"Grünstr.","postalCode":"92421","locality":"Schwandorf","municipality":{"key":"09376161","name":"Schwandorf, GKSt","type":"Große_Kreisstadt"},"district":{"key":"09376","name":"Schwandorf","type":"Landkreis"},"federalState":{"key":"09","name":"Bayern"}},{"name":"Grünwaldstr.","postalCode":"92421","locality":"Schwandorf","municipality":{"key":"09376161","name":"Schwandorf, GKSt","type":"Große_Kreisstadt"},"district":{"key":"09376","name":"Schwandorf","type":"Landkreis"},"federalState":{"key":"09","name":"Bayern"}},{"name":"Guerickestr.","postalCode":"92421","locality":"Schwandorf","municipality":{"key":"09376161","name":"Schwandorf, GKSt","type":"Große_Kreisstadt"},"district":{"key":"09376","name":"Schwandorf","type":"Landkreis"},"federalState":{"key":"09","name":"Bayern"}},{"name":"Gustav-Hertz-Str.","postalCode":"92421","locality":"Schwandorf","municipality":{"key":"09376161","name":"Schwandorf, GKSt","type":"Große_Kreisstadt"},"district":{"key":"09376","name":"Schwandorf","type":"Landkreis"},"federalState":{"key":"09","name":"Bayern"}},{"name":"Güterhallenstr.","postalCode":"92421","locality":"Schwandorf","municipality":{"key":"09376161","name":"Schwandorf, GKSt","type":"Große_Kreisstadt"},"district":{"key":"09376","name":"Schwandorf","type":"Landkreis"},"federalState":{"key":"09","name":"Bayern"}},{"name":"Haidhofer Str.","postalCode":"92552","locality":"Teunz","municipality":{"key":"09376171","name":"Teunz","type":"Kreisangehörige_Gemeinde"},"district":{"key":"09376","name":"Schwandorf","type":"Landkreis"},"federalState":{"key":"09","name":"Bayern"}},{"name":"Hanauweg","postalCode":"92552","locality":"Teunz","municipality":{"key":"09376171","name":"Teunz","type":"Kreisangehörige_Gemeinde"},"district":{"key":"09376","name":"Schwandorf","type":"Landkreis"},"federalState":{"key":"09","name":"Bayern"}},{"name":"Hauptstr.","postalCode":"92552","locality":"Teunz","municipality":{"key":"09376171","name":"Teunz","type":"Kreisangehörige_Gemeinde"},"district":{"key":"09376","name":"Schwandorf","type":"Landkreis"},"federalState":{"key":"09","name":"Bayern"}},{"name":"Hebermühlstr.","postalCode":"92552","locality":"Teunz","municipality":{"key":"09376171","name":"Teunz","type":"Kreisangehörige_Gemeinde"},"district":{"key":"09376","name":"Schwandorf","type":"Landkreis"},"federalState":{"key":"09","name":"Bayern"}},{"name":"Heideweg","postalCode":"92552","locality":"Teunz","municipality":{"key":"09376171","name":"Teunz","type":"Kreisangehörige_Gemeinde"},"district":{"key":"09376","name":"Schwandorf","type":"Landkreis"},"federalState":{"key":"09","name":"Bayern"}},{"name":"Iferweg","postalCode":"92421","locality":"Schwandorf","municipality":{"key":"09376161","name":"Schwandorf, GKSt","type":"Große_Kreisstadt"},"district":{"key":"09376","name":"Schwandorf","type":"Landkreis"},"federalState":{"key":"09","name":"Bayern"}},{"name":"Im Bründl","postalCode":"92421","locality":"Schwandorf","municipality":{"key":"09376161","name":"Schwandorf, GKSt","type":"Große_Kreisstadt"},"district":{"key":"09376","name":"Schwandorf","type":"Landkreis"},"federalState":{"key":"09","name":"Bayern"}},{"name":"Im Freihöfl","postalCode":"92421","locality":"Schwandorf","municipality":{"key":"09376161","name":"Schwandorf, GKSt","type":"Große_Kreisstadt"},"district":{"key":"09376","name":"Schwandorf","type":"Landkreis"},"federalState":{"key":"09","name":"Bayern"}},{"name":"Imkerstr.","postalCode":"92421","locality":"Schwandorf","municipality":{"key":"09376161","name":"Schwandorf, GKSt","type":"Große_Kreisstadt"},"district":{"key":"09376","name":"Schwandorf","type":"Landkreis"},"federalState":{"key":"09","name":"Bayern"}},{"name":"In der Flur","postalCode":"92421","locality":"Schwandorf","municipality":{"key":"09376161","name":"Schwandorf, GKSt","type":"Große_Kreisstadt"},"district":{"key":"09376","name":"Schwandorf","type":"Landkreis"},"federalState":{"key":"09","name":"Bayern"}},{"name":"In der Trift","postalCode":"92421","locality":"Schwandorf","municipality":{"key":"09376161","name":"Schwandorf, GKSt","type":"Große_Kreisstadt"},"district":{"key":"09376","name":"Schwandorf","type":"Landkreis"},"federalState":{"key":"09","name":"Bayern"}},{"name":"Industriestr.","postalCode":"92421","locality":"Schwandorf","municipality":{"key":"09376161","name":"Schwandorf, GKSt","type":"Große_Kreisstadt"},"district":{"key":"09376","name":"Schwandorf","type":"Landkreis"},"federalState":{"key":"09","name":"Bayern"}},{"name":"Irisstr.","postalCode":"92421","locality":"Schwandorf","municipality":{"key":"09376161","name":"Schwandorf, GKSt","type":"Große_Kreisstadt"},"district":{"key":"09376","name":"Schwandorf","type":"Landkreis"},"federalState":{"key":"09","name":"Bayern"}},{"name":"Irlachinger Str.","postalCode":"92421","locality":"Schwandorf","municipality":{"key":"09376161","name":"Schwandorf, GKSt","type":"Große_Kreisstadt"},"district":{"key":"09376","name":"Schwandorf","type":"Landkreis"},"federalState":{"key":"09","name":"Bayern"}},{"name":"Irlbach","postalCode":"92421","locality":"Schwandorf","municipality":{"key":"09376161","name":"Schwandorf, GKSt","type":"Große_Kreisstadt"},"district":{"key":"09376","name":"Schwandorf","type":"Landkreis"},"federalState":{"key":"09","name":"Bayern"}},{"name":"Jahnstr.","postalCode":"92421","locality":"Schwandorf","municipality":{"key":"09376161","name":"Schwandorf, GKSt","type":"Große_Kreisstadt"},"district":{"key":"09376","name":"Schwandorf","type":"Landkreis"},"federalState":{"key":"09","name":"Bayern"}},{"name":"Jakobsweg Tillyschanz > Nürnberg, Abschnitt Tillyschanz - Ensdorf","postalCode":"92421","locality":"Schwandorf","municipality":{"key":"09376161","name":"Schwandorf, GKSt","type":"Große_Kreisstadt"},"district":{"key":"09376","name":"Schwandorf","type":"Landkreis"},"federalState":{"key":"09","name":"Bayern"}},{"name":"Johannesleite","postalCode":"92421","locality":"Schwandorf","municipality":{"key":"09376161","name":"Schwandorf, GKSt","type":"Große_Kreisstadt"},"district":{"key":"09376","name":"Schwandorf","type":"Landkreis"},"federalState":{"key":"09","name":"Bayern"}},{"name":"Johann-Feuerer-Weg","postalCode":"92421","locality":"Schwandorf","municipality":{"key":"09376161","name":"Schwandorf, GKSt","type":"Große_Kreisstadt"},"district":{"key":"09376","name":"Schwandorf","type":"Landkreis"},"federalState":{"key":"09","name":"Bayern"}},{"name":"Johannisweg","postalCode":"92421","locality":"Schwandorf","municipality":{"key":"09376161","name":"Schwandorf, GKSt","type":"Große_Kreisstadt"},"district":{"key":"09376","name":"Schwandorf","type":"Landkreis"},"federalState":{"key":"09","name":"Bayern"}},{"name":"Johann-Schwab-Str.","postalCode":"92421","locality":"Schwandorf","municipality":{"key":"09376161","name":"Schwandorf, GKSt","type":"Große_Kreisstadt"},"district":{"key":"09376","name":"Schwandorf","type":"Landkreis"},"federalState":{"key":"09","name":"Bayern"}},{"name":"Josef-Grabinger-Str.","postalCode":"92421","locality":"Schwandorf","municipality":{"key":"09376161","name":"Schwandorf, GKSt","type":"Große_Kreisstadt"},"district":{"key":"09376","name":"Schwandorf","type":"Landkreis"},"federalState":{"key":"09","name":"Bayern"}},{"name":"Josef-Karl-Str.","postalCode":"92421","locality":"Schwandorf","municipality":{"key":"09376161","name":"Schwandorf, GKSt","type":"Große_Kreisstadt"},"district":{"key":"09376","name":"Schwandorf","type":"Landkreis"},"federalState":{"key":"09","name":"Bayern"}},{"name":"Julius-Braun-Str.","postalCode":"92421","locality":"Schwandorf","municipality":{"key":"09376161","name":"Schwandorf, GKSt","type":"Große_Kreisstadt"},"district":{"key":"09376","name":"Schwandorf","type":"Landkreis"},"federalState":{"key":"09","name":"Bayern"}},{"name":"Julius-Leber-Str.","postalCode":"92421","locality":"Schwandorf","municipality":{"key":"09376161","name":"Schwandorf, GKSt","type":"Große_Kreisstadt"},"district":{"key":"09376","name":"Schwandorf","type":"Landkreis"},"federalState":{"key":"09","name":"Bayern"}},{"name":"Kreisstr.","postalCode":"92552","locality":"Teunz","municipality":{"key":"09376171","name":"Teunz","type":"Kreisangehörige_Gemeinde"},"district":{"key":"09376","name":"Schwandorf","type":"Landkreis"},"federalState":{"key":"09","name":"Bayern"}},{"name":"Lindenweg","postalCode":"92552","locality":"Teunz","municipality":{"key":"09376171","name":"Teunz","type":"Kreisangehörige_Gemeinde"},"district":{"key":"09376","name":"Schwandorf","type":"Landkreis"},"federalState":{"key":"09","name":"Bayern"}},{"name":"Löhweg","postalCode":"92552","locality":"Teunz","municipality":{"key":"09376171","name":"Teunz","type":"Kreisangehörige_Gemeinde"},"district":{"key":"09376","name":"Schwandorf","type":"Landkreis"},"federalState":{"key":"09","name":"Bayern"}},{"name":"Mühlbachweg","postalCode":"92552","locality":"Teunz","municipality":{"key":"09376171","name":"Teunz","type":"Kreisangehörige_Gemeinde"},"district":{"key":"09376","name":"Schwandorf","type":"Landkreis"},"federalState":{"key":"09","name":"Bayern"}},{"name":"Nabburger Str.","postalCode":"92552","locality":"Teunz","municipality":{"key":"09376171","name":"Teunz","type":"Kreisangehörige_Gemeinde"},"district":{"key":"09376","name":"Schwandorf","type":"Landkreis"},"federalState":{"key":"09","name":"Bayern"}},{"name":"Niedermuracher Str.","postalCode":"92552","locality":"Teunz","municipality":{"key":"09376171","name":"Teunz","type":"Kreisangehörige_Gemeinde"},"district":{"key":"09376","name":"Schwandorf","type":"Landkreis"},"federalState":{"key":"09","name":"Bayern"}},{"name":"Obere Dorfstr.","postalCode":"92552","locality":"Teunz","municipality":{"key":"09376171","name":"Teunz","type":"Kreisangehörige_Gemeinde"},"district":{"key":"09376","name":"Schwandorf","type":"Landkreis"},"federalState":{"key":"09","name":"Bayern"}},{"name":"Obere Siedlungsstr.","postalCode":"92552","locality":"Teunz","municipality":{"key":"09376171","name":"Teunz","type":"Kreisangehörige_Gemeinde"},"district":{"key":"09376","name":"Schwandorf","type":"Landkreis"},"federalState":{"key":"09","name":"Bayern"}},{"name":"Oberviechtacher Str.","postalCode":"92552","locality":"Teunz","municipality":{"key":"09376171","name":"Teunz","type":"Kreisangehörige_Gemeinde"},"district":{"key":"09376","name":"Schwandorf","type":"Landkreis"},"federalState":{"key":"09","name":"Bayern"}},{"name":"Pfarrbergweg","postalCode":"92552","locality":"Teunz","municipality":{"key":"09376171","name":"Teunz","type":"Kreisangehörige_Gemeinde"},"district":{"key":"09376","name":"Schwandorf","type":"Landkreis"},"federalState":{"key":"09","name":"Bayern"}},{"name":"Pfarrer-Wendl-Str.","postalCode":"92552","locality":"Teunz","municipality":{"key":"09376171","name":"Teunz","type":"Kreisangehörige_Gemeinde"},"district":{"key":"09376","name":"Schwandorf","type":"Landkreis"},"federalState":{"key":"09","name":"Bayern"}},{"name":"Quellweg","postalCode":"92421","locality":"Schwandorf","municipality":{"key":"09376161","name":"Schwandorf, GKSt","type":"Große_Kreisstadt"},"district":{"key":"09376","name":"Schwandorf","type":"Landkreis"},"federalState":{"key":"09","name":"Bayern"}},{"name":"Rachelstr.","postalCode":"92421","locality":"Schwandorf","municipality":{"key":"09376161","name":"Schwandorf, GKSt","type":"Große_Kreisstadt"},"district":{"key":"09376","name":"Schwandorf","type":"Landkreis"},"federalState":{"key":"09","name":"Bayern"}},{"name":"Radweg zum Ortsteil Büchelkühn","postalCode":"92421","locality":"Schwandorf","municipality":{"key":"09376161","name":"Schwandorf, GKSt","type":"Große_Kreisstadt"},"district":{"key":"09376","name":"Schwandorf","type":"Landkreis"},"federalState":{"key":"09","name":"Bayern"}},{"name":"Raiffeisenstr.","postalCode":"92421","locality":"Schwandorf","municipality":{"key":"09376161","name":"Schwandorf, GKSt","type":"Große_Kreisstadt"},"district":{"key":"09376","name":"Schwandorf","type":"Landkreis"},"federalState":{"key":"09","name":"Bayern"}},{"name":"Ranawerkstr.","postalCode":"92421","locality":"Schwandorf","municipality":{"key":"09376161","name":"Schwandorf, GKSt","type":"Große_Kreisstadt"},"district":{"key":"09376","name":"Schwandorf","type":"Landkreis"},"federalState":{"key":"09","name":"Bayern"}},{"name":"Randolph-von-Breidbach-Str.","postalCode":"92421","locality":"Schwandorf","municipality":{"key":"09376161","name":"Schwandorf, GKSt","type":"Große_Kreisstadt"},"district":{"key":"09376","name":"Schwandorf","type":"Landkreis"},"federalState":{"key":"09","name":"Bayern"}},{"name":"Rasenstr.","postalCode":"92421","locality":"Schwandorf","municipality":{"key":"09376161","name":"Schwandorf, GKSt","type":"Große_Kreisstadt"},"district":{"key":"09376","name":"Schwandorf","type":"Landkreis"},"federalState":{"key":"09","name":"Bayern"}},{"name":"Rathausstr.","postalCode":"92421","locality":"Schwandorf","municipality":{"key":"09376161","name":"Schwandorf, GKSt","type":"Große_Kreisstadt"},"district":{"key":"09376","name":"Schwandorf","type":"Landkreis"},"federalState":{"key":"09","name":"Bayern"}},{"name":"Regensburger Str.","postalCode":"92421","locality":"Schwandorf","municipality":{"key":"09376161","name":"Schwandorf, GKSt","type":"Große_Kreisstadt"},"district":{"key":"09376","name":"Schwandorf","type":"Landkreis"},"federalState":{"key":"09","name":"Bayern"}},{"name":"Reichlgasse","postalCode":"92421","locality":"Schwandorf","municipality":{"key":"09376161","name":"Schwandorf, GKSt","type":"Große_Kreisstadt"},"district":{"key":"09376","name":"Schwandorf","type":"Landkreis"},"federalState":{"key":"09","name":"Bayern"}},{"name":"Reiherstr.","postalCode":"92421","locality":"Schwandorf","municipality":{"key":"09376161","name":"Schwandorf, GKSt","type":"Große_Kreisstadt"},"district":{"key":"09376","name":"Schwandorf","type":"Landkreis"},"federalState":{"key":"09","name":"Bayern"}},{"name":"Reisstr.","postalCode":"92421","locality":"Schwandorf","municipality":{"key":"09376161","name":"Schwandorf, GKSt","type":"Große_Kreisstadt"},"district":{"key":"09376","name":"Schwandorf","type":"Landkreis"},"federalState":{"key":"09","name":"Bayern"}},{"name":"Richter Weg","postalCode":"92421","locality":"Schwandorf","municipality":{"key":"09376161","name":"Schwandorf, GKSt","type":"Große_Kreisstadt"},"district":{"key":"09376","name":"Schwandorf","type":"Landkreis"},"federalState":{"key":"09","name":"Bayern"}},{"name":"Ringstr.","postalCode":"92421","locality":"Schwandorf","municipality":{"key":"09376161","name":"Schwandorf, GKSt","type":"Große_Kreisstadt"},"district":{"key":"09376","name":"Schwandorf","type":"Landkreis"},"federalState":{"key":"09","name":"Bayern"}},{"name":"Robert-Koch-Str.","postalCode":"92421","locality":"Schwandorf","municipality":{"key":"09376161","name":"Schwandorf, GKSt","type":"Große_Kreisstadt"},"district":{"key":"09376","name":"Schwandorf","type":"Landkreis"},"federalState":{"key":"09","name":"Bayern"}},{"name":"Roidlweg","postalCode":"92421","locality":"Schwandorf","municipality":{"key":"09376161","name":"Schwandorf, GKSt","type":"Große_Kreisstadt"},"district":{"key":"09376","name":"Schwandorf","type":"Landkreis"},"federalState":{"key":"09","name":"Bayern"}},{"name":"Rölsstr.","postalCode":"92421","locality":"Schwandorf","municipality":{"key":"09376161","name":"Schwandorf, GKSt","type":"Große_Kreisstadt"},"district":{"key":"09376","name":"Schwandorf","type":"Landkreis"},"federalState":{"key":"09","name":"Bayern"}},{"name":"Röntgenstr.","postalCode":"92421","locality":"Schwandorf","municipality":{"key":"09376161","name":"Schwandorf, GKSt","type":"Große_Kreisstadt"},"district":{"key":"09376","name":"Schwandorf","type":"Landkreis"},"federalState":{"key":"09","name":"Bayern"}},{"name":"Röschstr.","postalCode":"92421","locality":"Schwandorf","municipality":{"key":"09376161","name":"Schwandorf, GKSt","type":"Große_Kreisstadt"},"district":{"key":"09376","name":"Schwandorf","type":"Landkreis"},"federalState":{"key":"09","name":"Bayern"}},{"name":"Roseggerstr.","postalCode":"92421","locality":"Schwandorf","municipality":{"key":"09376161","name":"Schwandorf, GKSt","type":"Große_Kreisstadt"},"district":{"key":"09376","name":"Schwandorf","type":"Landkreis"},"federalState":{"key":"09","name":"Bayern"}},{"name":"Rosenstr.","postalCode":"92421","locality":"Schwandorf","municipality":{"key":"09376161","name":"Schwandorf, GKSt","type":"Große_Kreisstadt"},"district":{"key":"09376","name":"Schwandorf","type":"Landkreis"},"federalState":{"key":"09","name":"Bayern"}},{"name":"Rothlindenstr.","postalCode":"92421","locality":"Schwandorf","municipality":{"key":"09376161","name":"Schwandorf, GKSt","type":"Große_Kreisstadt"},"district":{"key":"09376","name":"Schwandorf","type":"Landkreis"},"federalState":{"key":"09","name":"Bayern"}},{"name":"Rotleite","postalCode":"92421","locality":"Schwandorf","municipality":{"key":"09376161","name":"Schwandorf, GKSt","type":"Große_Kreisstadt"},"district":{"key":"09376","name":"Schwandorf","type":"Landkreis"},"federalState":{"key":"09","name":"Bayern"}},{"name":"Rübenackerweg","postalCode":"92421","locality":"Schwandorf","municipality":{"key":"09376161","name":"Schwandorf, GKSt","type":"Große_Kreisstadt"},"district":{"key":"09376","name":"Schwandorf","type":"Landkreis"},"federalState":{"key":"09","name":"Bayern"}},{"name":"Rudolf-Danhardt-Str.","postalCode":"92421","locality":"Schwandorf","municipality":{"key":"09376161","name":"Schwandorf, GKSt","type":"Große_Kreisstadt"},"district":{"key":"09376","name":"Schwandorf","type":"Landkreis"},"federalState":{"key":"09","name":"Bayern"}},{"name":"Ruhseugstr.","postalCode":"92421","locality":"Schwandorf","municipality":{"key":"09376161","name":"Schwandorf, GKSt","type":"Große_Kreisstadt"},"district":{"key":"09376","name":"Schwandorf","type":"Landkreis"},"federalState":{"key":"09","name":"Bayern"}},{"name":"Ruselstr.","postalCode":"92421","locality":"Schwandorf","municipality":{"key":"09376161","name":"Schwandorf, GKSt","type":"Große_Kreisstadt"},"district":{"key":"09376","name":"Schwandorf","type":"Landkreis"},"federalState":{"key":"09","name":"Bayern"}},{"name":"Rußwurmstr.","postalCode":"92421","locality":"Schwandorf","municipality":{"key":"09376161","name":"Schwandorf, GKSt","type":"Große_Kreisstadt"},"district":{"key":"09376","name":"Schwandorf","type":"Landkreis"},"federalState":{"key":"09","name":"Bayern"}},{"name":"Rüsterstr.","postalCode":"92421","locality":"Schwandorf","municipality":{"key":"09376161","name":"Schwandorf, GKSt","type":"Große_Kreisstadt"},"district":{"key":"09376","name":"Schwandorf","type":"Landkreis"},"federalState":{"key":"09","name":"Bayern"}},{"name":"Satzenhofenstr.","postalCode":"92552","locality":"Teunz","municipality":{"key":"09376171","name":"Teunz","type":"Kreisangehörige_Gemeinde"},"district":{"key":"09376","name":"Schwandorf","type":"Landkreis"},"federalState":{"key":"09","name":"Bayern"}},{"name":"Schlehuberweg","postalCode":"92552","locality":"Teunz","municipality":{"key":"09376171","name":"Teunz","type":"Kreisangehörige_Gemeinde"},"district":{"key":"09376","name":"Schwandorf","type":"Landkreis"},"federalState":{"key":"09","name":"Bayern"}},{"name":"Schmidbügerlweg","postalCode":"92552","locality":"Teunz","municipality":{"key":"09376171","name":"Teunz","type":"Kreisangehörige_Gemeinde"},"district":{"key":"09376","name":"Schwandorf","type":"Landkreis"},"federalState":{"key":"09","name":"Bayern"}},{"name":"Schömersdorf","postalCode":"92552","locality":"Teunz","municipality":{"key":"09376171","name":"Teunz","type":"Kreisangehörige_Gemeinde"},"district":{"key":"09376","name":"Schwandorf","type":"Landkreis"},"federalState":{"key":"09","name":"Bayern"}},{"name":"Schreinergasse","postalCode":"92552","locality":"Teunz","municipality":{"key":"09376171","name":"Teunz","type":"Kreisangehörige_Gemeinde"},"district":{"key":"09376","name":"Schwandorf","type":"Landkreis"},"federalState":{"key":"09","name":"Bayern"}},{"name":"Schulstr.","postalCode":"92552","locality":"Teunz","municipality":{"key":"09376171","name":"Teunz","type":"Kreisangehörige_Gemeinde"},"district":{"key":"09376","name":"Schwandorf","type":"Landkreis"},"federalState":{"key":"09","name":"Bayern"}},{"name":"Sonnenburger Str.","postalCode":"92552","locality":"Teunz","municipality":{"key":"09376171","name":"Teunz","type":"Kreisangehörige_Gemeinde"},"district":{"key":"09376","name":"Schwandorf","type":"Landkreis"},"federalState":{"key":"09","name":"Bayern"}},{"name":"Tannenweg","postalCode":"92552","locality":"Teunz","municipality":{"key":"09376171","name":"Teunz","type":"Kreisangehörige_Gemeinde"},"district":{"key":"09376","name":"Schwandorf","type":"Landkreis"},"federalState":{"key":"09","name":"Bayern"}},{"name":"Taufkirchenstr.","postalCode":"92552","locality":"Teunz","municipality":{"key":"09376171","name":"Teunz","type":"Kreisangehörige_Gemeinde"},"district":{"key":"09376","name":"Schwandorf","type":"Landkreis"},"federalState":{"key":"09","name":"Bayern"}},{"name":"Teunzer Str.","postalCode":"92552","locality":"Teunz","municipality":{"key":"09376171","name":"Teunz","type":"Kreisangehörige_Gemeinde"},"district":{"key":"09376","name":"Schwandorf","type":"Landkreis"},"federalState":{"key":"09","name":"Bayern"}},{"name":"Untere Dorfstr.","postalCode":"92552","locality":"Teunz","municipality":{"key":"09376171","name":"Teunz","type":"Kreisangehörige_Gemeinde"},"district":{"key":"09376","name":"Schwandorf","type":"Landkreis"},"federalState":{"key":"09","name":"Bayern"}},{"name":"Untere Siedlungsstr.","postalCode":"92552","locality":"Teunz","municipality":{"key":"09376171","name":"Teunz","type":"Kreisangehörige_Gemeinde"},"district":{"key":"09376","name":"Schwandorf","type":"Landkreis"},"federalState":{"key":"09","name":"Bayern"}},{"name":"Von-der-Wahl-Str.","postalCode":"92552","locality":"Teunz","municipality":{"key":"09376171","name":"Teunz","type":"Kreisangehörige_Gemeinde"},"district":{"key":"09376","name":"Schwandorf","type":"Landkreis"},"federalState":{"key":"09","name":"Bayern"}},{"name":"Waldweg","postalCode":"92552","locality":"Teunz","municipality":{"key":"09376171","name":"Teunz","type":"Kreisangehörige_Gemeinde"},"district":{"key":"09376","name":"Schwandorf","type":"Landkreis"},"federalState":{"key":"09","name":"Bayern"}},{"name":"Wildsteiner Str.","postalCode":"92552","locality":"Teunz","municipality":{"key":"09376171","name":"Teunz","type":"Kreisangehörige_Gemeinde"},"district":{"key":"09376","name":"Schwandorf","type":"Landkreis"},"federalState":{"key":"09","name":"Bayern"}},{"name":"Wirtsgasse","postalCode":"92552","locality":"Teunz","municipality":{"key":"09376171","name":"Teunz","type":"Kreisangehörige_Gemeinde"},"district":{"key":"09376","name":"Schwandorf","type":"Landkreis"},"federalState":{"key":"09","name":"Bayern"}},{"name":"Zachenbügerlweg","postalCode":"92552","locality":"Teunz","municipality":{"key":"09376171","name":"Teunz","type":"Kreisangehörige_Gemeinde"},"district":{"key":"09376","name":"Schwandorf","type":"Landkreis"},"federalState":{"key":"09","name":"Bayern"}},{"name":"Zeinried","postalCode":"92552","locality":"Teunz","municipality":{"key":"09376171","name":"Teunz","type":"Kreisangehörige_Gemeinde"},"district":{"key":"09376","name":"Schwandorf","type":"Landkreis"},"federalState":{"key":"09","name":"Bayern"}},{"name":"Zeinrieder Str.","postalCode":"92552","locality":"Teunz","municipality":{"key":"09376171","name":"Teunz","type":"Kreisangehörige_Gemeinde"},"district":{"key":"09376","name":"Schwandorf","type":"Landkreis"},"federalState":{"key":"09","name":"Bayern"}},{"name":"Zengerweiherweg","postalCode":"92552","locality":"Teunz","municipality":{"key":"09376171","name":"Teunz","type":"Kreisangehörige_Gemeinde"},"district":{"key":"09376","name":"Schwandorf","type":"Landkreis"},"federalState":{"key":"09","name":"Bayern"}},{"name":"Zur Siedlung","postalCode":"92552","locality":"Teunz","municipality":{"key":"09376171","name":"Teunz","type":"Kreisangehörige_Gemeinde"},"district":{"key":"09376","name":"Schwandorf","type":"Landkreis"},"federalState":{"key":"09","name":"Bayern"}},{"name":"Ödmiesbacher Str.","postalCode":"92552","locality":"Teunz","municipality":{"key":"09376171","name":"Teunz","type":"Kreisangehörige_Gemeinde"},"district":{"key":"09376","name":"Schwandorf","type":"Landkreis"},"federalState":{"key":"09","name":"Bayern"}},]