[{"name":"Abelbecker Weg","postalCode":"29614","locality":"Soltau","municipality":{"key":"03358021","name":"Soltau, Stadt","type":"Stadt"},"district":{"key":"03358","name":"Heidekreis","type":"Landkreis"},"federalState":{"key":"03","name":"Niedersachsen"}},{"name":"Achtergang","postalCode":"29614","locality":"Soltau","municipality":{"key":"03358021","name":"Soltau, Stadt","type":"Stadt"},"district":{"key":"03358","name":"Heidekreis","type":"Landkreis"},"federalState":{"key":"03","name":"Niedersachsen"}},{"name":"Adolf-Arnold-Weg","postalCode":"29614","locality":"Soltau","municipality":{"key":"03358021","name":"Soltau, Stadt","type":"Stadt"},"district":{"key":"03358","name":"Heidekreis","type":"Landkreis"},"federalState":{"key":"03","name":"Niedersachsen"}},{"name":"Adolf-Reichwein-Str.","postalCode":"29614","locality":"Soltau","municipality":{"key":"03358021","name":"Soltau, Stadt","type":"Stadt"},"district":{"key":"03358","name":"Heidekreis","type":"Landkreis"},"federalState":{"key":"03","name":"Niedersachsen"}},{"name":"Ahlftener Kirchweg","postalCode":"29614","locality":"Soltau","municipality":{"key":"03358021","name":"Soltau, Stadt","type":"Stadt"},"district":{"key":"03358","name":"Heidekreis","type":"Landkreis"},"federalState":{"key":"03","name":"Niedersachsen"}},{"name":"Ahornweg","postalCode":"29614","locality":"Soltau","municipality":{"key":"03358021","name":"Soltau, Stadt","type":"Stadt"},"district":{"key":"03358","name":"Heidekreis","type":"Landkreis"},"federalState":{"key":"03","name":"Niedersachsen"}},{"name":"Akazienweg","postalCode":"29614","locality":"Soltau","municipality":{"key":"03358021","name":"Soltau, Stadt","type":"Stadt"},"district":{"key":"03358","name":"Heidekreis","type":"Landkreis"},"federalState":{"key":"03","name":"Niedersachsen"}},{"name":"Albert-Schweitzer-Str.","postalCode":"29614","locality":"Soltau","municipality":{"key":"03358021","name":"Soltau, Stadt","type":"Stadt"},"district":{"key":"03358","name":"Heidekreis","type":"Landkreis"},"federalState":{"key":"03","name":"Niedersachsen"}},{"name":"Albrecht-Thaer-Str.","postalCode":"29614","locality":"Soltau","municipality":{"key":"03358021","name":"Soltau, Stadt","type":"Stadt"},"district":{"key":"03358","name":"Heidekreis","type":"Landkreis"},"federalState":{"key":"03","name":"Niedersachsen"}},{"name":"Alfred-Delp-Str.","postalCode":"29614","locality":"Soltau","municipality":{"key":"03358021","name":"Soltau, Stadt","type":"Stadt"},"district":{"key":"03358","name":"Heidekreis","type":"Landkreis"},"federalState":{"key":"03","name":"Niedersachsen"}},{"name":"Alm","postalCode":"29614","locality":"Soltau","municipality":{"key":"03358021","name":"Soltau, Stadt","type":"Stadt"},"district":{"key":"03358","name":"Heidekreis","type":"Landkreis"},"federalState":{"key":"03","name":"Niedersachsen"}},{"name":"Almer Kirchweg","postalCode":"29614","locality":"Soltau","municipality":{"key":"03358021","name":"Soltau, Stadt","type":"Stadt"},"district":{"key":"03358","name":"Heidekreis","type":"Landkreis"},"federalState":{"key":"03","name":"Niedersachsen"}},{"name":"Almhöhe","postalCode":"29614","locality":"Soltau","municipality":{"key":"03358021","name":"Soltau, Stadt","type":"Stadt"},"district":{"key":"03358","name":"Heidekreis","type":"Landkreis"},"federalState":{"key":"03","name":"Niedersachsen"}},{"name":"Alter Badeweg","postalCode":"29614","locality":"Soltau","municipality":{"key":"03358021","name":"Soltau, Stadt","type":"Stadt"},"district":{"key":"03358","name":"Heidekreis","type":"Landkreis"},"federalState":{"key":"03","name":"Niedersachsen"}},{"name":"Alter Grenzweg","postalCode":"29614","locality":"Soltau","municipality":{"key":"03358021","name":"Soltau, Stadt","type":"Stadt"},"district":{"key":"03358","name":"Heidekreis","type":"Landkreis"},"federalState":{"key":"03","name":"Niedersachsen"}},{"name":"Alte Trift","postalCode":"29614","locality":"Soltau","municipality":{"key":"03358021","name":"Soltau, Stadt","type":"Stadt"},"district":{"key":"03358","name":"Heidekreis","type":"Landkreis"},"federalState":{"key":"03","name":"Niedersachsen"}},{"name":"Alte Zollstr.","postalCode":"29614","locality":"Soltau","municipality":{"key":"03358021","name":"Soltau, Stadt","type":"Stadt"},"district":{"key":"03358","name":"Heidekreis","type":"Landkreis"},"federalState":{"key":"03","name":"Niedersachsen"}},{"name":"Am Alten Stadtgraben","postalCode":"29614","locality":"Soltau","municipality":{"key":"03358021","name":"Soltau, Stadt","type":"Stadt"},"district":{"key":"03358","name":"Heidekreis","type":"Landkreis"},"federalState":{"key":"03","name":"Niedersachsen"}},{"name":"Am Bahnhof","postalCode":"29614","locality":"Soltau","municipality":{"key":"03358021","name":"Soltau, Stadt","type":"Stadt"},"district":{"key":"03358","name":"Heidekreis","type":"Landkreis"},"federalState":{"key":"03","name":"Niedersachsen"}},{"name":"Am Berge","postalCode":"29614","locality":"Soltau","municipality":{"key":"03358021","name":"Soltau, Stadt","type":"Stadt"},"district":{"key":"03358","name":"Heidekreis","type":"Landkreis"},"federalState":{"key":"03","name":"Niedersachsen"}},{"name":"Am Bienenzaun","postalCode":"29614","locality":"Soltau","municipality":{"key":"03358021","name":"Soltau, Stadt","type":"Stadt"},"district":{"key":"03358","name":"Heidekreis","type":"Landkreis"},"federalState":{"key":"03","name":"Niedersachsen"}},{"name":"Am Ebshang","postalCode":"29614","locality":"Soltau","municipality":{"key":"03358021","name":"Soltau, Stadt","type":"Stadt"},"district":{"key":"03358","name":"Heidekreis","type":"Landkreis"},"federalState":{"key":"03","name":"Niedersachsen"}},{"name":"Am Fischteich","postalCode":"29614","locality":"Soltau","municipality":{"key":"03358021","name":"Soltau, Stadt","type":"Stadt"},"district":{"key":"03358","name":"Heidekreis","type":"Landkreis"},"federalState":{"key":"03","name":"Niedersachsen"}},{"name":"Am Halifax","postalCode":"29614","locality":"Soltau","municipality":{"key":"03358021","name":"Soltau, Stadt","type":"Stadt"},"district":{"key":"03358","name":"Heidekreis","type":"Landkreis"},"federalState":{"key":"03","name":"Niedersachsen"}},{"name":"Am Hang","postalCode":"29614","locality":"Soltau","municipality":{"key":"03358021","name":"Soltau, Stadt","type":"Stadt"},"district":{"key":"03358","name":"Heidekreis","type":"Landkreis"},"federalState":{"key":"03","name":"Niedersachsen"}},{"name":"Am Hegt","postalCode":"29614","locality":"Soltau","municipality":{"key":"03358021","name":"Soltau, Stadt","type":"Stadt"},"district":{"key":"03358","name":"Heidekreis","type":"Landkreis"},"federalState":{"key":"03","name":"Niedersachsen"}},{"name":"Am Helmstein","postalCode":"29614","locality":"Soltau","municipality":{"key":"03358021","name":"Soltau, Stadt","type":"Stadt"},"district":{"key":"03358","name":"Heidekreis","type":"Landkreis"},"federalState":{"key":"03","name":"Niedersachsen"}},{"name":"Am Hohen Kamp","postalCode":"29614","locality":"Soltau","municipality":{"key":"03358021","name":"Soltau, Stadt","type":"Stadt"},"district":{"key":"03358","name":"Heidekreis","type":"Landkreis"},"federalState":{"key":"03","name":"Niedersachsen"}},{"name":"Am Hollbusch","postalCode":"29614","locality":"Soltau","municipality":{"key":"03358021","name":"Soltau, Stadt","type":"Stadt"},"district":{"key":"03358","name":"Heidekreis","type":"Landkreis"},"federalState":{"key":"03","name":"Niedersachsen"}},{"name":"Am Hornberg","postalCode":"29614","locality":"Soltau","municipality":{"key":"03358021","name":"Soltau, Stadt","type":"Stadt"},"district":{"key":"03358","name":"Heidekreis","type":"Landkreis"},"federalState":{"key":"03","name":"Niedersachsen"}},{"name":"Am Hungerborn","postalCode":"29614","locality":"Soltau","municipality":{"key":"03358021","name":"Soltau, Stadt","type":"Stadt"},"district":{"key":"03358","name":"Heidekreis","type":"Landkreis"},"federalState":{"key":"03","name":"Niedersachsen"}},{"name":"Am Husselbeck","postalCode":"29614","locality":"Soltau","municipality":{"key":"03358021","name":"Soltau, Stadt","type":"Stadt"},"district":{"key":"03358","name":"Heidekreis","type":"Landkreis"},"federalState":{"key":"03","name":"Niedersachsen"}},{"name":"Am Kahlberg","postalCode":"29614","locality":"Soltau","municipality":{"key":"03358021","name":"Soltau, Stadt","type":"Stadt"},"district":{"key":"03358","name":"Heidekreis","type":"Landkreis"},"federalState":{"key":"03","name":"Niedersachsen"}},{"name":"Am Mönchenberg","postalCode":"29614","locality":"Soltau","municipality":{"key":"03358021","name":"Soltau, Stadt","type":"Stadt"},"district":{"key":"03358","name":"Heidekreis","type":"Landkreis"},"federalState":{"key":"03","name":"Niedersachsen"}},{"name":"Am Oeninger Moor","postalCode":"29614","locality":"Soltau","municipality":{"key":"03358021","name":"Soltau, Stadt","type":"Stadt"},"district":{"key":"03358","name":"Heidekreis","type":"Landkreis"},"federalState":{"key":"03","name":"Niedersachsen"}},{"name":"Am Sandberg","postalCode":"29614","locality":"Soltau","municipality":{"key":"03358021","name":"Soltau, Stadt","type":"Stadt"},"district":{"key":"03358","name":"Heidekreis","type":"Landkreis"},"federalState":{"key":"03","name":"Niedersachsen"}},{"name":"Am Schwarzen Busch","postalCode":"29614","locality":"Soltau","municipality":{"key":"03358021","name":"Soltau, Stadt","type":"Stadt"},"district":{"key":"03358","name":"Heidekreis","type":"Landkreis"},"federalState":{"key":"03","name":"Niedersachsen"}},{"name":"Amselweg","postalCode":"29614","locality":"Soltau","municipality":{"key":"03358021","name":"Soltau, Stadt","type":"Stadt"},"district":{"key":"03358","name":"Heidekreis","type":"Landkreis"},"federalState":{"key":"03","name":"Niedersachsen"}},{"name":"Am Spiekerhof","postalCode":"29614","locality":"Soltau","municipality":{"key":"03358021","name":"Soltau, Stadt","type":"Stadt"},"district":{"key":"03358","name":"Heidekreis","type":"Landkreis"},"federalState":{"key":"03","name":"Niedersachsen"}},{"name":"Am Stuckeberg","postalCode":"29614","locality":"Soltau","municipality":{"key":"03358021","name":"Soltau, Stadt","type":"Stadt"},"district":{"key":"03358","name":"Heidekreis","type":"Landkreis"},"federalState":{"key":"03","name":"Niedersachsen"}},{"name":"Am Wacholderpark","postalCode":"29614","locality":"Soltau","municipality":{"key":"03358021","name":"Soltau, Stadt","type":"Stadt"},"district":{"key":"03358","name":"Heidekreis","type":"Landkreis"},"federalState":{"key":"03","name":"Niedersachsen"}},{"name":"Am Wall","postalCode":"29614","locality":"Soltau","municipality":{"key":"03358021","name":"Soltau, Stadt","type":"Stadt"},"district":{"key":"03358","name":"Heidekreis","type":"Landkreis"},"federalState":{"key":"03","name":"Niedersachsen"}},{"name":"Am Westerfeld","postalCode":"29614","locality":"Soltau","municipality":{"key":"03358021","name":"Soltau, Stadt","type":"Stadt"},"district":{"key":"03358","name":"Heidekreis","type":"Landkreis"},"federalState":{"key":"03","name":"Niedersachsen"}},{"name":"Am Wildpark","postalCode":"29614","locality":"Soltau","municipality":{"key":"03358021","name":"Soltau, Stadt","type":"Stadt"},"district":{"key":"03358","name":"Heidekreis","type":"Landkreis"},"federalState":{"key":"03","name":"Niedersachsen"}},{"name":"An den Kiefern","postalCode":"29614","locality":"Soltau","municipality":{"key":"03358021","name":"Soltau, Stadt","type":"Stadt"},"district":{"key":"03358","name":"Heidekreis","type":"Landkreis"},"federalState":{"key":"03","name":"Niedersachsen"}},{"name":"An den Moorwiesen","postalCode":"29614","locality":"Soltau","municipality":{"key":"03358021","name":"Soltau, Stadt","type":"Stadt"},"district":{"key":"03358","name":"Heidekreis","type":"Landkreis"},"federalState":{"key":"03","name":"Niedersachsen"}},{"name":"An den Sieben Stücken","postalCode":"29614","locality":"Soltau","municipality":{"key":"03358021","name":"Soltau, Stadt","type":"Stadt"},"district":{"key":"03358","name":"Heidekreis","type":"Landkreis"},"federalState":{"key":"03","name":"Niedersachsen"}},{"name":"An der Almaue","postalCode":"29614","locality":"Soltau","municipality":{"key":"03358021","name":"Soltau, Stadt","type":"Stadt"},"district":{"key":"03358","name":"Heidekreis","type":"Landkreis"},"federalState":{"key":"03","name":"Niedersachsen"}},{"name":"An der Bundesstr.","postalCode":"29614","locality":"Soltau","municipality":{"key":"03358021","name":"Soltau, Stadt","type":"Stadt"},"district":{"key":"03358","name":"Heidekreis","type":"Landkreis"},"federalState":{"key":"03","name":"Niedersachsen"}},{"name":"An der Steinfabrik","postalCode":"29614","locality":"Soltau","municipality":{"key":"03358021","name":"Soltau, Stadt","type":"Stadt"},"district":{"key":"03358","name":"Heidekreis","type":"Landkreis"},"federalState":{"key":"03","name":"Niedersachsen"}},{"name":"Bachstr.","postalCode":"29614","locality":"Soltau","municipality":{"key":"03358021","name":"Soltau, Stadt","type":"Stadt"},"district":{"key":"03358","name":"Heidekreis","type":"Landkreis"},"federalState":{"key":"03","name":"Niedersachsen"}},{"name":"Baderstr.","postalCode":"29614","locality":"Soltau","municipality":{"key":"03358021","name":"Soltau, Stadt","type":"Stadt"},"district":{"key":"03358","name":"Heidekreis","type":"Landkreis"},"federalState":{"key":"03","name":"Niedersachsen"}},{"name":"Bahnhofstr.","postalCode":"29614","locality":"Soltau","municipality":{"key":"03358021","name":"Soltau, Stadt","type":"Stadt"},"district":{"key":"03358","name":"Heidekreis","type":"Landkreis"},"federalState":{"key":"03","name":"Niedersachsen"}},{"name":"Baumschulenweg","postalCode":"29614","locality":"Soltau","municipality":{"key":"03358021","name":"Soltau, Stadt","type":"Stadt"},"district":{"key":"03358","name":"Heidekreis","type":"Landkreis"},"federalState":{"key":"03","name":"Niedersachsen"}},{"name":"Beethovenstr.","postalCode":"29614","locality":"Soltau","municipality":{"key":"03358021","name":"Soltau, Stadt","type":"Stadt"},"district":{"key":"03358","name":"Heidekreis","type":"Landkreis"},"federalState":{"key":"03","name":"Niedersachsen"}},{"name":"Beim Schäferkreuz","postalCode":"29614","locality":"Soltau","municipality":{"key":"03358021","name":"Soltau, Stadt","type":"Stadt"},"district":{"key":"03358","name":"Heidekreis","type":"Landkreis"},"federalState":{"key":"03","name":"Niedersachsen"}},{"name":"Bergstr.","postalCode":"29614","locality":"Soltau","municipality":{"key":"03358021","name":"Soltau, Stadt","type":"Stadt"},"district":{"key":"03358","name":"Heidekreis","type":"Landkreis"},"federalState":{"key":"03","name":"Niedersachsen"}},{"name":"Berliner Platz","postalCode":"29614","locality":"Soltau","municipality":{"key":"03358021","name":"Soltau, Stadt","type":"Stadt"},"district":{"key":"03358","name":"Heidekreis","type":"Landkreis"},"federalState":{"key":"03","name":"Niedersachsen"}},{"name":"Betenbarg","postalCode":"29614","locality":"Soltau","municipality":{"key":"03358021","name":"Soltau, Stadt","type":"Stadt"},"district":{"key":"03358","name":"Heidekreis","type":"Landkreis"},"federalState":{"key":"03","name":"Niedersachsen"}},{"name":"Bickbeerngrund","postalCode":"29614","locality":"Soltau","municipality":{"key":"03358021","name":"Soltau, Stadt","type":"Stadt"},"district":{"key":"03358","name":"Heidekreis","type":"Landkreis"},"federalState":{"key":"03","name":"Niedersachsen"}},{"name":"Billunghof","postalCode":"29614","locality":"Soltau","municipality":{"key":"03358021","name":"Soltau, Stadt","type":"Stadt"},"district":{"key":"03358","name":"Heidekreis","type":"Landkreis"},"federalState":{"key":"03","name":"Niedersachsen"}},{"name":"Billungstr.","postalCode":"29614","locality":"Soltau","municipality":{"key":"03358021","name":"Soltau, Stadt","type":"Stadt"},"district":{"key":"03358","name":"Heidekreis","type":"Landkreis"},"federalState":{"key":"03","name":"Niedersachsen"}},{"name":"Birkenstr.","postalCode":"29614","locality":"Soltau","municipality":{"key":"03358021","name":"Soltau, Stadt","type":"Stadt"},"district":{"key":"03358","name":"Heidekreis","type":"Landkreis"},"federalState":{"key":"03","name":"Niedersachsen"}},{"name":"Birkenweg","postalCode":"29614","locality":"Soltau","municipality":{"key":"03358021","name":"Soltau, Stadt","type":"Stadt"},"district":{"key":"03358","name":"Heidekreis","type":"Landkreis"},"federalState":{"key":"03","name":"Niedersachsen"}},{"name":"Birkhahnweg","postalCode":"29614","locality":"Soltau","municipality":{"key":"03358021","name":"Soltau, Stadt","type":"Stadt"},"district":{"key":"03358","name":"Heidekreis","type":"Landkreis"},"federalState":{"key":"03","name":"Niedersachsen"}},{"name":"Blumenstr.","postalCode":"29614","locality":"Soltau","municipality":{"key":"03358021","name":"Soltau, Stadt","type":"Stadt"},"district":{"key":"03358","name":"Heidekreis","type":"Landkreis"},"federalState":{"key":"03","name":"Niedersachsen"}},{"name":"Böhmepark","postalCode":"29614","locality":"Soltau","municipality":{"key":"03358021","name":"Soltau, Stadt","type":"Stadt"},"district":{"key":"03358","name":"Heidekreis","type":"Landkreis"},"federalState":{"key":"03","name":"Niedersachsen"}},{"name":"Böhmeweg","postalCode":"29614","locality":"Soltau","municipality":{"key":"03358021","name":"Soltau, Stadt","type":"Stadt"},"district":{"key":"03358","name":"Heidekreis","type":"Landkreis"},"federalState":{"key":"03","name":"Niedersachsen"}},{"name":"Böhmheide","postalCode":"29614","locality":"Soltau","municipality":{"key":"03358021","name":"Soltau, Stadt","type":"Stadt"},"district":{"key":"03358","name":"Heidekreis","type":"Landkreis"},"federalState":{"key":"03","name":"Niedersachsen"}},{"name":"Böningweg","postalCode":"29614","locality":"Soltau","municipality":{"key":"03358021","name":"Soltau, Stadt","type":"Stadt"},"district":{"key":"03358","name":"Heidekreis","type":"Landkreis"},"federalState":{"key":"03","name":"Niedersachsen"}},{"name":"Bornemannstr.","postalCode":"29614","locality":"Soltau","municipality":{"key":"03358021","name":"Soltau, Stadt","type":"Stadt"},"district":{"key":"03358","name":"Heidekreis","type":"Landkreis"},"federalState":{"key":"03","name":"Niedersachsen"}},{"name":"Bornkamp","postalCode":"29614","locality":"Soltau","municipality":{"key":"03358021","name":"Soltau, Stadt","type":"Stadt"},"district":{"key":"03358","name":"Heidekreis","type":"Landkreis"},"federalState":{"key":"03","name":"Niedersachsen"}},{"name":"Böttcherstr.","postalCode":"29614","locality":"Soltau","municipality":{"key":"03358021","name":"Soltau, Stadt","type":"Stadt"},"district":{"key":"03358","name":"Heidekreis","type":"Landkreis"},"federalState":{"key":"03","name":"Niedersachsen"}},{"name":"Brandenburger Hof","postalCode":"29614","locality":"Soltau","municipality":{"key":"03358021","name":"Soltau, Stadt","type":"Stadt"},"district":{"key":"03358","name":"Heidekreis","type":"Landkreis"},"federalState":{"key":"03","name":"Niedersachsen"}},{"name":"Brandenburger Str.","postalCode":"29614","locality":"Soltau","municipality":{"key":"03358021","name":"Soltau, Stadt","type":"Stadt"},"district":{"key":"03358","name":"Heidekreis","type":"Landkreis"},"federalState":{"key":"03","name":"Niedersachsen"}},{"name":"Brandgasse","postalCode":"29614","locality":"Soltau","municipality":{"key":"03358021","name":"Soltau, Stadt","type":"Stadt"},"district":{"key":"03358","name":"Heidekreis","type":"Landkreis"},"federalState":{"key":"03","name":"Niedersachsen"}},{"name":"Breckweg","postalCode":"29614","locality":"Soltau","municipality":{"key":"03358021","name":"Soltau, Stadt","type":"Stadt"},"district":{"key":"03358","name":"Heidekreis","type":"Landkreis"},"federalState":{"key":"03","name":"Niedersachsen"}},{"name":"Breidings Garten","postalCode":"29614","locality":"Soltau","municipality":{"key":"03358021","name":"Soltau, Stadt","type":"Stadt"},"district":{"key":"03358","name":"Heidekreis","type":"Landkreis"},"federalState":{"key":"03","name":"Niedersachsen"}},{"name":"Breidingstr.","postalCode":"29614","locality":"Soltau","municipality":{"key":"03358021","name":"Soltau, Stadt","type":"Stadt"},"district":{"key":"03358","name":"Heidekreis","type":"Landkreis"},"federalState":{"key":"03","name":"Niedersachsen"}},{"name":"Brekland","postalCode":"29614","locality":"Soltau","municipality":{"key":"03358021","name":"Soltau, Stadt","type":"Stadt"},"district":{"key":"03358","name":"Heidekreis","type":"Landkreis"},"federalState":{"key":"03","name":"Niedersachsen"}},{"name":"Breslauer Str.","postalCode":"29614","locality":"Soltau","municipality":{"key":"03358021","name":"Soltau, Stadt","type":"Stadt"},"district":{"key":"03358","name":"Heidekreis","type":"Landkreis"},"federalState":{"key":"03","name":"Niedersachsen"}},{"name":"Brombeerweg","postalCode":"29614","locality":"Soltau","municipality":{"key":"03358021","name":"Soltau, Stadt","type":"Stadt"},"district":{"key":"03358","name":"Heidekreis","type":"Landkreis"},"federalState":{"key":"03","name":"Niedersachsen"}},{"name":"Brüderstr.","postalCode":"29614","locality":"Soltau","municipality":{"key":"03358021","name":"Soltau, Stadt","type":"Stadt"},"district":{"key":"03358","name":"Heidekreis","type":"Landkreis"},"federalState":{"key":"03","name":"Niedersachsen"}},{"name":"Buchenweg","postalCode":"29614","locality":"Soltau","municipality":{"key":"03358021","name":"Soltau, Stadt","type":"Stadt"},"district":{"key":"03358","name":"Heidekreis","type":"Landkreis"},"federalState":{"key":"03","name":"Niedersachsen"}},{"name":"Buchhopsweg","postalCode":"29614","locality":"Soltau","municipality":{"key":"03358021","name":"Soltau, Stadt","type":"Stadt"},"district":{"key":"03358","name":"Heidekreis","type":"Landkreis"},"federalState":{"key":"03","name":"Niedersachsen"}},{"name":"Buchweizenstr.","postalCode":"29614","locality":"Soltau","municipality":{"key":"03358021","name":"Soltau, Stadt","type":"Stadt"},"district":{"key":"03358","name":"Heidekreis","type":"Landkreis"},"federalState":{"key":"03","name":"Niedersachsen"}},{"name":"Bugenhagenweg","postalCode":"29614","locality":"Soltau","municipality":{"key":"03358021","name":"Soltau, Stadt","type":"Stadt"},"district":{"key":"03358","name":"Heidekreis","type":"Landkreis"},"federalState":{"key":"03","name":"Niedersachsen"}},{"name":"Büntweg","postalCode":"29614","locality":"Soltau","municipality":{"key":"03358021","name":"Soltau, Stadt","type":"Stadt"},"district":{"key":"03358","name":"Heidekreis","type":"Landkreis"},"federalState":{"key":"03","name":"Niedersachsen"}},{"name":"Bürgermeister-Lindloff-Platz","postalCode":"29614","locality":"Soltau","municipality":{"key":"03358021","name":"Soltau, Stadt","type":"Stadt"},"district":{"key":"03358","name":"Heidekreis","type":"Landkreis"},"federalState":{"key":"03","name":"Niedersachsen"}},{"name":"Bürgermeister-Pfeiffer-Str.","postalCode":"29614","locality":"Soltau","municipality":{"key":"03358021","name":"Soltau, Stadt","type":"Stadt"},"district":{"key":"03358","name":"Heidekreis","type":"Landkreis"},"federalState":{"key":"03","name":"Niedersachsen"}},{"name":"Bürgermeister-Schultz-Str.","postalCode":"29614","locality":"Soltau","municipality":{"key":"03358021","name":"Soltau, Stadt","type":"Stadt"},"district":{"key":"03358","name":"Heidekreis","type":"Landkreis"},"federalState":{"key":"03","name":"Niedersachsen"}},{"name":"Bürgermeister-Wischhoff-Str.","postalCode":"29614","locality":"Soltau","municipality":{"key":"03358021","name":"Soltau, Stadt","type":"Stadt"},"district":{"key":"03358","name":"Heidekreis","type":"Landkreis"},"federalState":{"key":"03","name":"Niedersachsen"}},{"name":"Burggasse","postalCode":"29614","locality":"Soltau","municipality":{"key":"03358021","name":"Soltau, Stadt","type":"Stadt"},"district":{"key":"03358","name":"Heidekreis","type":"Landkreis"},"federalState":{"key":"03","name":"Niedersachsen"}},{"name":"Carl-Benz-Str.","postalCode":"29614","locality":"Soltau","municipality":{"key":"03358021","name":"Soltau, Stadt","type":"Stadt"},"district":{"key":"03358","name":"Heidekreis","type":"Landkreis"},"federalState":{"key":"03","name":"Niedersachsen"}},{"name":"Carl-Friedrich-Goerdeler-Str.","postalCode":"29614","locality":"Soltau","municipality":{"key":"03358021","name":"Soltau, Stadt","type":"Stadt"},"district":{"key":"03358","name":"Heidekreis","type":"Landkreis"},"federalState":{"key":"03","name":"Niedersachsen"}},{"name":"Carl-Mardorf-Weg","postalCode":"29614","locality":"Soltau","municipality":{"key":"03358021","name":"Soltau, Stadt","type":"Stadt"},"district":{"key":"03358","name":"Heidekreis","type":"Landkreis"},"federalState":{"key":"03","name":"Niedersachsen"}},{"name":"Carl-von-Ossietzky-Str.","postalCode":"29614","locality":"Soltau","municipality":{"key":"03358021","name":"Soltau, Stadt","type":"Stadt"},"district":{"key":"03358","name":"Heidekreis","type":"Landkreis"},"federalState":{"key":"03","name":"Niedersachsen"}},{"name":"Celler Str.","postalCode":"29614","locality":"Soltau","municipality":{"key":"03358021","name":"Soltau, Stadt","type":"Stadt"},"district":{"key":"03358","name":"Heidekreis","type":"Landkreis"},"federalState":{"key":"03","name":"Niedersachsen"}},{"name":"Charlottenstr.","postalCode":"29614","locality":"Soltau","municipality":{"key":"03358021","name":"Soltau, Stadt","type":"Stadt"},"district":{"key":"03358","name":"Heidekreis","type":"Landkreis"},"federalState":{"key":"03","name":"Niedersachsen"}},{"name":"Claudiusstr.","postalCode":"29614","locality":"Soltau","municipality":{"key":"03358021","name":"Soltau, Stadt","type":"Stadt"},"district":{"key":"03358","name":"Heidekreis","type":"Landkreis"},"federalState":{"key":"03","name":"Niedersachsen"}},{"name":"Damaschkeweg","postalCode":"29614","locality":"Soltau","municipality":{"key":"03358021","name":"Soltau, Stadt","type":"Stadt"},"district":{"key":"03358","name":"Heidekreis","type":"Landkreis"},"federalState":{"key":"03","name":"Niedersachsen"}},{"name":"Dannhorn","postalCode":"29614","locality":"Soltau","municipality":{"key":"03358021","name":"Soltau, Stadt","type":"Stadt"},"district":{"key":"03358","name":"Heidekreis","type":"Landkreis"},"federalState":{"key":"03","name":"Niedersachsen"}},{"name":"Danziger Hof","postalCode":"29614","locality":"Soltau","municipality":{"key":"03358021","name":"Soltau, Stadt","type":"Stadt"},"district":{"key":"03358","name":"Heidekreis","type":"Landkreis"},"federalState":{"key":"03","name":"Niedersachsen"}},{"name":"Danziger Str.","postalCode":"29614","locality":"Soltau","municipality":{"key":"03358021","name":"Soltau, Stadt","type":"Stadt"},"district":{"key":"03358","name":"Heidekreis","type":"Landkreis"},"federalState":{"key":"03","name":"Niedersachsen"}},{"name":"Deimern","postalCode":"29614","locality":"Soltau","municipality":{"key":"03358021","name":"Soltau, Stadt","type":"Stadt"},"district":{"key":"03358","name":"Heidekreis","type":"Landkreis"},"federalState":{"key":"03","name":"Niedersachsen"}},{"name":"Diedrich-Speckmann-Str.","postalCode":"29614","locality":"Soltau","municipality":{"key":"03358021","name":"Soltau, Stadt","type":"Stadt"},"district":{"key":"03358","name":"Heidekreis","type":"Landkreis"},"federalState":{"key":"03","name":"Niedersachsen"}},{"name":"Diesterwegstr.","postalCode":"29614","locality":"Soltau","municipality":{"key":"03358021","name":"Soltau, Stadt","type":"Stadt"},"district":{"key":"03358","name":"Heidekreis","type":"Landkreis"},"federalState":{"key":"03","name":"Niedersachsen"}},{"name":"Dietrich-Bonhoeffer-Str.","postalCode":"29614","locality":"Soltau","municipality":{"key":"03358021","name":"Soltau, Stadt","type":"Stadt"},"district":{"key":"03358","name":"Heidekreis","type":"Landkreis"},"federalState":{"key":"03","name":"Niedersachsen"}},{"name":"Drögenheide","postalCode":"29614","locality":"Soltau","municipality":{"key":"03358021","name":"Soltau, Stadt","type":"Stadt"},"district":{"key":"03358","name":"Heidekreis","type":"Landkreis"},"federalState":{"key":"03","name":"Niedersachsen"}},{"name":"Drosselweg","postalCode":"29614","locality":"Soltau","municipality":{"key":"03358021","name":"Soltau, Stadt","type":"Stadt"},"district":{"key":"03358","name":"Heidekreis","type":"Landkreis"},"federalState":{"key":"03","name":"Niedersachsen"}},{"name":"Drülloh","postalCode":"29614","locality":"Soltau","municipality":{"key":"03358021","name":"Soltau, Stadt","type":"Stadt"},"district":{"key":"03358","name":"Heidekreis","type":"Landkreis"},"federalState":{"key":"03","name":"Niedersachsen"}},{"name":"Ebsmoor","postalCode":"29614","locality":"Soltau","municipality":{"key":"03358021","name":"Soltau, Stadt","type":"Stadt"},"district":{"key":"03358","name":"Heidekreis","type":"Landkreis"},"federalState":{"key":"03","name":"Niedersachsen"}},{"name":"Eckermannweg","postalCode":"29614","locality":"Soltau","municipality":{"key":"03358021","name":"Soltau, Stadt","type":"Stadt"},"district":{"key":"03358","name":"Heidekreis","type":"Landkreis"},"federalState":{"key":"03","name":"Niedersachsen"}},{"name":"Edelingstr.","postalCode":"29614","locality":"Soltau","municipality":{"key":"03358021","name":"Soltau, Stadt","type":"Stadt"},"district":{"key":"03358","name":"Heidekreis","type":"Landkreis"},"federalState":{"key":"03","name":"Niedersachsen"}},{"name":"Edith-Stein-Str.","postalCode":"29614","locality":"Soltau","municipality":{"key":"03358021","name":"Soltau, Stadt","type":"Stadt"},"district":{"key":"03358","name":"Heidekreis","type":"Landkreis"},"federalState":{"key":"03","name":"Niedersachsen"}},{"name":"Eduard-Röders-Str.","postalCode":"29614","locality":"Soltau","municipality":{"key":"03358021","name":"Soltau, Stadt","type":"Stadt"},"district":{"key":"03358","name":"Heidekreis","type":"Landkreis"},"federalState":{"key":"03","name":"Niedersachsen"}},{"name":"Eduard-Salfeld-Str.","postalCode":"29614","locality":"Soltau","municipality":{"key":"03358021","name":"Soltau, Stadt","type":"Stadt"},"district":{"key":"03358","name":"Heidekreis","type":"Landkreis"},"federalState":{"key":"03","name":"Niedersachsen"}},{"name":"Eduard-Wendebourg-Weg","postalCode":"29614","locality":"Soltau","municipality":{"key":"03358021","name":"Soltau, Stadt","type":"Stadt"},"district":{"key":"03358","name":"Heidekreis","type":"Landkreis"},"federalState":{"key":"03","name":"Niedersachsen"}},{"name":"Eibenweg","postalCode":"29614","locality":"Soltau","municipality":{"key":"03358021","name":"Soltau, Stadt","type":"Stadt"},"district":{"key":"03358","name":"Heidekreis","type":"Landkreis"},"federalState":{"key":"03","name":"Niedersachsen"}},{"name":"Eichenbrink","postalCode":"29614","locality":"Soltau","municipality":{"key":"03358021","name":"Soltau, Stadt","type":"Stadt"},"district":{"key":"03358","name":"Heidekreis","type":"Landkreis"},"federalState":{"key":"03","name":"Niedersachsen"}},{"name":"Einfrielinger Weg","postalCode":"29614","locality":"Soltau","municipality":{"key":"03358021","name":"Soltau, Stadt","type":"Stadt"},"district":{"key":"03358","name":"Heidekreis","type":"Landkreis"},"federalState":{"key":"03","name":"Niedersachsen"}},{"name":"Eitze","postalCode":"29614","locality":"Soltau","municipality":{"key":"03358021","name":"Soltau, Stadt","type":"Stadt"},"district":{"key":"03358","name":"Heidekreis","type":"Landkreis"},"federalState":{"key":"03","name":"Niedersachsen"}},{"name":"Ellingen","postalCode":"29614","locality":"Soltau","municipality":{"key":"03358021","name":"Soltau, Stadt","type":"Stadt"},"district":{"key":"03358","name":"Heidekreis","type":"Landkreis"},"federalState":{"key":"03","name":"Niedersachsen"}},{"name":"Elsterweg","postalCode":"29614","locality":"Soltau","municipality":{"key":"03358021","name":"Soltau, Stadt","type":"Stadt"},"district":{"key":"03358","name":"Heidekreis","type":"Landkreis"},"federalState":{"key":"03","name":"Niedersachsen"}},{"name":"Emmingen","postalCode":"29614","locality":"Soltau","municipality":{"key":"03358021","name":"Soltau, Stadt","type":"Stadt"},"district":{"key":"03358","name":"Heidekreis","type":"Landkreis"},"federalState":{"key":"03","name":"Niedersachsen"}},{"name":"Erich-Kästner-Str.","postalCode":"29614","locality":"Soltau","municipality":{"key":"03358021","name":"Soltau, Stadt","type":"Stadt"},"district":{"key":"03358","name":"Heidekreis","type":"Landkreis"},"federalState":{"key":"03","name":"Niedersachsen"}},{"name":"Erlengrund","postalCode":"29614","locality":"Soltau","municipality":{"key":"03358021","name":"Soltau, Stadt","type":"Stadt"},"district":{"key":"03358","name":"Heidekreis","type":"Landkreis"},"federalState":{"key":"03","name":"Niedersachsen"}},{"name":"Erlenweg","postalCode":"29614","locality":"Soltau","municipality":{"key":"03358021","name":"Soltau, Stadt","type":"Stadt"},"district":{"key":"03358","name":"Heidekreis","type":"Landkreis"},"federalState":{"key":"03","name":"Niedersachsen"}},{"name":"Ernst-August-Str.","postalCode":"29614","locality":"Soltau","municipality":{"key":"03358021","name":"Soltau, Stadt","type":"Stadt"},"district":{"key":"03358","name":"Heidekreis","type":"Landkreis"},"federalState":{"key":"03","name":"Niedersachsen"}},{"name":"Eschenweg","postalCode":"29614","locality":"Soltau","municipality":{"key":"03358021","name":"Soltau, Stadt","type":"Stadt"},"district":{"key":"03358","name":"Heidekreis","type":"Landkreis"},"federalState":{"key":"03","name":"Niedersachsen"}},{"name":"Eva-Maria-Buch-Str.","postalCode":"29614","locality":"Soltau","municipality":{"key":"03358021","name":"Soltau, Stadt","type":"Stadt"},"district":{"key":"03358","name":"Heidekreis","type":"Landkreis"},"federalState":{"key":"03","name":"Niedersachsen"}},{"name":"Färberring","postalCode":"29614","locality":"Soltau","municipality":{"key":"03358021","name":"Soltau, Stadt","type":"Stadt"},"district":{"key":"03358","name":"Heidekreis","type":"Landkreis"},"federalState":{"key":"03","name":"Niedersachsen"}},{"name":"Fasanenweg","postalCode":"29614","locality":"Soltau","municipality":{"key":"03358021","name":"Soltau, Stadt","type":"Stadt"},"district":{"key":"03358","name":"Heidekreis","type":"Landkreis"},"federalState":{"key":"03","name":"Niedersachsen"}},{"name":"Feldstr.","postalCode":"29614","locality":"Soltau","municipality":{"key":"03358021","name":"Soltau, Stadt","type":"Stadt"},"district":{"key":"03358","name":"Heidekreis","type":"Landkreis"},"federalState":{"key":"03","name":"Niedersachsen"}},{"name":"Fichteweg","postalCode":"29614","locality":"Soltau","municipality":{"key":"03358021","name":"Soltau, Stadt","type":"Stadt"},"district":{"key":"03358","name":"Heidekreis","type":"Landkreis"},"federalState":{"key":"03","name":"Niedersachsen"}},{"name":"Finkenweg","postalCode":"29614","locality":"Soltau","municipality":{"key":"03358021","name":"Soltau, Stadt","type":"Stadt"},"district":{"key":"03358","name":"Heidekreis","type":"Landkreis"},"federalState":{"key":"03","name":"Niedersachsen"}},{"name":"Flachslandstr.","postalCode":"29614","locality":"Soltau","municipality":{"key":"03358021","name":"Soltau, Stadt","type":"Stadt"},"district":{"key":"03358","name":"Heidekreis","type":"Landkreis"},"federalState":{"key":"03","name":"Niedersachsen"}},{"name":"Florian-Bartos-Str.","postalCode":"29614","locality":"Soltau","municipality":{"key":"03358021","name":"Soltau, Stadt","type":"Stadt"},"district":{"key":"03358","name":"Heidekreis","type":"Landkreis"},"federalState":{"key":"03","name":"Niedersachsen"}},{"name":"Forellenweg","postalCode":"29614","locality":"Soltau","municipality":{"key":"03358021","name":"Soltau, Stadt","type":"Stadt"},"district":{"key":"03358","name":"Heidekreis","type":"Landkreis"},"federalState":{"key":"03","name":"Niedersachsen"}},{"name":"Forstgarten","postalCode":"29614","locality":"Soltau","municipality":{"key":"03358021","name":"Soltau, Stadt","type":"Stadt"},"district":{"key":"03358","name":"Heidekreis","type":"Landkreis"},"federalState":{"key":"03","name":"Niedersachsen"}},{"name":"Franz-Büttner-Str.","postalCode":"29614","locality":"Soltau","municipality":{"key":"03358021","name":"Soltau, Stadt","type":"Stadt"},"district":{"key":"03358","name":"Heidekreis","type":"Landkreis"},"federalState":{"key":"03","name":"Niedersachsen"}},{"name":"Freiherr-vom-Stein-Str.","postalCode":"29614","locality":"Soltau","municipality":{"key":"03358021","name":"Soltau, Stadt","type":"Stadt"},"district":{"key":"03358","name":"Heidekreis","type":"Landkreis"},"federalState":{"key":"03","name":"Niedersachsen"}},{"name":"Freudenthalstr.","postalCode":"29614","locality":"Soltau","municipality":{"key":"03358021","name":"Soltau, Stadt","type":"Stadt"},"district":{"key":"03358","name":"Heidekreis","type":"Landkreis"},"federalState":{"key":"03","name":"Niedersachsen"}},{"name":"Frido-Witte-Weg","postalCode":"29614","locality":"Soltau","municipality":{"key":"03358021","name":"Soltau, Stadt","type":"Stadt"},"district":{"key":"03358","name":"Heidekreis","type":"Landkreis"},"federalState":{"key":"03","name":"Niedersachsen"}},{"name":"Friedenstr.","postalCode":"29614","locality":"Soltau","municipality":{"key":"03358021","name":"Soltau, Stadt","type":"Stadt"},"district":{"key":"03358","name":"Heidekreis","type":"Landkreis"},"federalState":{"key":"03","name":"Niedersachsen"}},{"name":"Friedrich-Einhoff-Ring","postalCode":"29614","locality":"Soltau","municipality":{"key":"03358021","name":"Soltau, Stadt","type":"Stadt"},"district":{"key":"03358","name":"Heidekreis","type":"Landkreis"},"federalState":{"key":"03","name":"Niedersachsen"}},{"name":"Friedrich-Ludwig-Jahn-Str.","postalCode":"29614","locality":"Soltau","municipality":{"key":"03358021","name":"Soltau, Stadt","type":"Stadt"},"district":{"key":"03358","name":"Heidekreis","type":"Landkreis"},"federalState":{"key":"03","name":"Niedersachsen"}},{"name":"Fritz-Reuter-Str.","postalCode":"29614","locality":"Soltau","municipality":{"key":"03358021","name":"Soltau, Stadt","type":"Stadt"},"district":{"key":"03358","name":"Heidekreis","type":"Landkreis"},"federalState":{"key":"03","name":"Niedersachsen"}},{"name":"Fröbelstr.","postalCode":"29614","locality":"Soltau","municipality":{"key":"03358021","name":"Soltau, Stadt","type":"Stadt"},"district":{"key":"03358","name":"Heidekreis","type":"Landkreis"},"federalState":{"key":"03","name":"Niedersachsen"}},{"name":"Fuchsschneise","postalCode":"29614","locality":"Soltau","municipality":{"key":"03358021","name":"Soltau, Stadt","type":"Stadt"},"district":{"key":"03358","name":"Heidekreis","type":"Landkreis"},"federalState":{"key":"03","name":"Niedersachsen"}},{"name":"Fuhrenkamp","postalCode":"29614","locality":"Soltau","municipality":{"key":"03358021","name":"Soltau, Stadt","type":"Stadt"},"district":{"key":"03358","name":"Heidekreis","type":"Landkreis"},"federalState":{"key":"03","name":"Niedersachsen"}},{"name":"Gartenstr.","postalCode":"29614","locality":"Soltau","municipality":{"key":"03358021","name":"Soltau, Stadt","type":"Stadt"},"district":{"key":"03358","name":"Heidekreis","type":"Landkreis"},"federalState":{"key":"03","name":"Niedersachsen"}},{"name":"Gaudigstr.","postalCode":"29614","locality":"Soltau","municipality":{"key":"03358021","name":"Soltau, Stadt","type":"Stadt"},"district":{"key":"03358","name":"Heidekreis","type":"Landkreis"},"federalState":{"key":"03","name":"Niedersachsen"}},{"name":"Gellertstr.","postalCode":"29614","locality":"Soltau","municipality":{"key":"03358021","name":"Soltau, Stadt","type":"Stadt"},"district":{"key":"03358","name":"Heidekreis","type":"Landkreis"},"federalState":{"key":"03","name":"Niedersachsen"}},{"name":"Georg-Droste-Weg","postalCode":"29614","locality":"Soltau","municipality":{"key":"03358021","name":"Soltau, Stadt","type":"Stadt"},"district":{"key":"03358","name":"Heidekreis","type":"Landkreis"},"federalState":{"key":"03","name":"Niedersachsen"}},{"name":"Georges-Goffart-Weg","postalCode":"29614","locality":"Soltau","municipality":{"key":"03358021","name":"Soltau, Stadt","type":"Stadt"},"district":{"key":"03358","name":"Heidekreis","type":"Landkreis"},"federalState":{"key":"03","name":"Niedersachsen"}},{"name":"Georges-Lemoine-Platz","postalCode":"29614","locality":"Soltau","municipality":{"key":"03358021","name":"Soltau, Stadt","type":"Stadt"},"district":{"key":"03358","name":"Heidekreis","type":"Landkreis"},"federalState":{"key":"03","name":"Niedersachsen"}},{"name":"Gerberplatz","postalCode":"29614","locality":"Soltau","municipality":{"key":"03358021","name":"Soltau, Stadt","type":"Stadt"},"district":{"key":"03358","name":"Heidekreis","type":"Landkreis"},"federalState":{"key":"03","name":"Niedersachsen"}},{"name":"Gerstenweg","postalCode":"29614","locality":"Soltau","municipality":{"key":"03358021","name":"Soltau, Stadt","type":"Stadt"},"district":{"key":"03358","name":"Heidekreis","type":"Landkreis"},"federalState":{"key":"03","name":"Niedersachsen"}},{"name":"Geschwister-Scholl-Str.","postalCode":"29614","locality":"Soltau","municipality":{"key":"03358021","name":"Soltau, Stadt","type":"Stadt"},"district":{"key":"03358","name":"Heidekreis","type":"Landkreis"},"federalState":{"key":"03","name":"Niedersachsen"}},{"name":"Ginsterweg","postalCode":"29614","locality":"Soltau","municipality":{"key":"03358021","name":"Soltau, Stadt","type":"Stadt"},"district":{"key":"03358","name":"Heidekreis","type":"Landkreis"},"federalState":{"key":"03","name":"Niedersachsen"}},{"name":"Goethestr.","postalCode":"29614","locality":"Soltau","municipality":{"key":"03358021","name":"Soltau, Stadt","type":"Stadt"},"district":{"key":"03358","name":"Heidekreis","type":"Landkreis"},"federalState":{"key":"03","name":"Niedersachsen"}},{"name":"Gorch-Fock-Str.","postalCode":"29614","locality":"Soltau","municipality":{"key":"03358021","name":"Soltau, Stadt","type":"Stadt"},"district":{"key":"03358","name":"Heidekreis","type":"Landkreis"},"federalState":{"key":"03","name":"Niedersachsen"}},{"name":"Gottfried-von-Cramm-Str.","postalCode":"29614","locality":"Soltau","municipality":{"key":"03358021","name":"Soltau, Stadt","type":"Stadt"},"district":{"key":"03358","name":"Heidekreis","type":"Landkreis"},"federalState":{"key":"03","name":"Niedersachsen"}},{"name":"Graf-Galen-Str.","postalCode":"29614","locality":"Soltau","municipality":{"key":"03358021","name":"Soltau, Stadt","type":"Stadt"},"district":{"key":"03358","name":"Heidekreis","type":"Landkreis"},"federalState":{"key":"03","name":"Niedersachsen"}},{"name":"Graf-von-Moltke-Str.","postalCode":"29614","locality":"Soltau","municipality":{"key":"03358021","name":"Soltau, Stadt","type":"Stadt"},"district":{"key":"03358","name":"Heidekreis","type":"Landkreis"},"federalState":{"key":"03","name":"Niedersachsen"}},{"name":"Grenzwall","postalCode":"29614","locality":"Soltau","municipality":{"key":"03358021","name":"Soltau, Stadt","type":"Stadt"},"district":{"key":"03358","name":"Heidekreis","type":"Landkreis"},"federalState":{"key":"03","name":"Niedersachsen"}},{"name":"Greveweg","postalCode":"29614","locality":"Soltau","municipality":{"key":"03358021","name":"Soltau, Stadt","type":"Stadt"},"district":{"key":"03358","name":"Heidekreis","type":"Landkreis"},"federalState":{"key":"03","name":"Niedersachsen"}},{"name":"Grillplatz","postalCode":"29614","locality":"Soltau","municipality":{"key":"03358021","name":"Soltau, Stadt","type":"Stadt"},"district":{"key":"03358","name":"Heidekreis","type":"Landkreis"},"federalState":{"key":"03","name":"Niedersachsen"}},{"name":"Grüne Aue","postalCode":"29614","locality":"Soltau","municipality":{"key":"03358021","name":"Soltau, Stadt","type":"Stadt"},"district":{"key":"03358","name":"Heidekreis","type":"Landkreis"},"federalState":{"key":"03","name":"Niedersachsen"}},{"name":"Grünhagensweg","postalCode":"29614","locality":"Soltau","municipality":{"key":"03358021","name":"Soltau, Stadt","type":"Stadt"},"district":{"key":"03358","name":"Heidekreis","type":"Landkreis"},"federalState":{"key":"03","name":"Niedersachsen"}},{"name":"Habichtsweg","postalCode":"29614","locality":"Soltau","municipality":{"key":"03358021","name":"Soltau, Stadt","type":"Stadt"},"district":{"key":"03358","name":"Heidekreis","type":"Landkreis"},"federalState":{"key":"03","name":"Niedersachsen"}},{"name":"Haferweg","postalCode":"29614","locality":"Soltau","municipality":{"key":"03358021","name":"Soltau, Stadt","type":"Stadt"},"district":{"key":"03358","name":"Heidekreis","type":"Landkreis"},"federalState":{"key":"03","name":"Niedersachsen"}},{"name":"Hagebuttenweg","postalCode":"29614","locality":"Soltau","municipality":{"key":"03358021","name":"Soltau, Stadt","type":"Stadt"},"district":{"key":"03358","name":"Heidekreis","type":"Landkreis"},"federalState":{"key":"03","name":"Niedersachsen"}},{"name":"Hambostel","postalCode":"29614","locality":"Soltau","municipality":{"key":"03358021","name":"Soltau, Stadt","type":"Stadt"},"district":{"key":"03358","name":"Heidekreis","type":"Landkreis"},"federalState":{"key":"03","name":"Niedersachsen"}},{"name":"Händelstr.","postalCode":"29614","locality":"Soltau","municipality":{"key":"03358021","name":"Soltau, Stadt","type":"Stadt"},"district":{"key":"03358","name":"Heidekreis","type":"Landkreis"},"federalState":{"key":"03","name":"Niedersachsen"}},{"name":"Hanna-Rehr-Str.","postalCode":"29614","locality":"Soltau","municipality":{"key":"03358021","name":"Soltau, Stadt","type":"Stadt"},"district":{"key":"03358","name":"Heidekreis","type":"Landkreis"},"federalState":{"key":"03","name":"Niedersachsen"}},{"name":"Harber (Soltau), Mühle","postalCode":"29614","locality":"Soltau","municipality":{"key":"03358021","name":"Soltau, Stadt","type":"Stadt"},"district":{"key":"03358","name":"Heidekreis","type":"Landkreis"},"federalState":{"key":"03","name":"Niedersachsen"}},{"name":"Harburger Str.","postalCode":"29614","locality":"Soltau","municipality":{"key":"03358021","name":"Soltau, Stadt","type":"Stadt"},"district":{"key":"03358","name":"Heidekreis","type":"Landkreis"},"federalState":{"key":"03","name":"Niedersachsen"}},{"name":"Harmelingen","postalCode":"29614","locality":"Soltau","municipality":{"key":"03358021","name":"Soltau, Stadt","type":"Stadt"},"district":{"key":"03358","name":"Heidekreis","type":"Landkreis"},"federalState":{"key":"03","name":"Niedersachsen"}},{"name":"Harmelinger Horstweg","postalCode":"29614","locality":"Soltau","municipality":{"key":"03358021","name":"Soltau, Stadt","type":"Stadt"},"district":{"key":"03358","name":"Heidekreis","type":"Landkreis"},"federalState":{"key":"03","name":"Niedersachsen"}},{"name":"Harm-Tyding-Hof","postalCode":"29614","locality":"Soltau","municipality":{"key":"03358021","name":"Soltau, Stadt","type":"Stadt"},"district":{"key":"03358","name":"Heidekreis","type":"Landkreis"},"federalState":{"key":"03","name":"Niedersachsen"}},{"name":"Harm-Tyding-Str.","postalCode":"29614","locality":"Soltau","municipality":{"key":"03358021","name":"Soltau, Stadt","type":"Stadt"},"district":{"key":"03358","name":"Heidekreis","type":"Landkreis"},"federalState":{"key":"03","name":"Niedersachsen"}},{"name":"Haselhang","postalCode":"29614","locality":"Soltau","municipality":{"key":"03358021","name":"Soltau, Stadt","type":"Stadt"},"district":{"key":"03358","name":"Heidekreis","type":"Landkreis"},"federalState":{"key":"03","name":"Niedersachsen"}},{"name":"Hasenheide","postalCode":"29614","locality":"Soltau","municipality":{"key":"03358021","name":"Soltau, Stadt","type":"Stadt"},"district":{"key":"03358","name":"Heidekreis","type":"Landkreis"},"federalState":{"key":"03","name":"Niedersachsen"}},{"name":"Hasenwinkel","postalCode":"29614","locality":"Soltau","municipality":{"key":"03358021","name":"Soltau, Stadt","type":"Stadt"},"district":{"key":"03358","name":"Heidekreis","type":"Landkreis"},"federalState":{"key":"03","name":"Niedersachsen"}},{"name":"Heidberg","postalCode":"29614","locality":"Soltau","municipality":{"key":"03358021","name":"Soltau, Stadt","type":"Stadt"},"district":{"key":"03358","name":"Heidekreis","type":"Landkreis"},"federalState":{"key":"03","name":"Niedersachsen"}},{"name":"Heidenhof","postalCode":"29614","locality":"Soltau","municipality":{"key":"03358021","name":"Soltau, Stadt","type":"Stadt"},"district":{"key":"03358","name":"Heidekreis","type":"Landkreis"},"federalState":{"key":"03","name":"Niedersachsen"}},{"name":"Heideweg","postalCode":"29614","locality":"Soltau","municipality":{"key":"03358021","name":"Soltau, Stadt","type":"Stadt"},"district":{"key":"03358","name":"Heidekreis","type":"Landkreis"},"federalState":{"key":"03","name":"Niedersachsen"}},{"name":"Heidjerweg","postalCode":"29614","locality":"Soltau","municipality":{"key":"03358021","name":"Soltau, Stadt","type":"Stadt"},"district":{"key":"03358","name":"Heidekreis","type":"Landkreis"},"federalState":{"key":"03","name":"Niedersachsen"}},{"name":"Heidlandstr.","postalCode":"29614","locality":"Soltau","municipality":{"key":"03358021","name":"Soltau, Stadt","type":"Stadt"},"district":{"key":"03358","name":"Heidekreis","type":"Landkreis"},"federalState":{"key":"03","name":"Niedersachsen"}},{"name":"Heinrich-Heine-Str.","postalCode":"29614","locality":"Soltau","municipality":{"key":"03358021","name":"Soltau, Stadt","type":"Stadt"},"district":{"key":"03358","name":"Heidekreis","type":"Landkreis"},"federalState":{"key":"03","name":"Niedersachsen"}},{"name":"Heinrich-Mann-Str.","postalCode":"29614","locality":"Soltau","municipality":{"key":"03358021","name":"Soltau, Stadt","type":"Stadt"},"district":{"key":"03358","name":"Heidekreis","type":"Landkreis"},"federalState":{"key":"03","name":"Niedersachsen"}},{"name":"Hemsener Weg","postalCode":"29614","locality":"Soltau","municipality":{"key":"03358021","name":"Soltau, Stadt","type":"Stadt"},"district":{"key":"03358","name":"Heidekreis","type":"Landkreis"},"federalState":{"key":"03","name":"Niedersachsen"}},{"name":"Henning-von-Tresckow-Weg","postalCode":"29614","locality":"Soltau","municipality":{"key":"03358021","name":"Soltau, Stadt","type":"Stadt"},"district":{"key":"03358","name":"Heidekreis","type":"Landkreis"},"federalState":{"key":"03","name":"Niedersachsen"}},{"name":"Herbartstr.","postalCode":"29614","locality":"Soltau","municipality":{"key":"03358021","name":"Soltau, Stadt","type":"Stadt"},"district":{"key":"03358","name":"Heidekreis","type":"Landkreis"},"federalState":{"key":"03","name":"Niedersachsen"}},{"name":"Herderstr.","postalCode":"29614","locality":"Soltau","municipality":{"key":"03358021","name":"Soltau, Stadt","type":"Stadt"},"district":{"key":"03358","name":"Heidekreis","type":"Landkreis"},"federalState":{"key":"03","name":"Niedersachsen"}},{"name":"Herzog-Bernd-Str.","postalCode":"29614","locality":"Soltau","municipality":{"key":"03358021","name":"Soltau, Stadt","type":"Stadt"},"district":{"key":"03358","name":"Heidekreis","type":"Landkreis"},"federalState":{"key":"03","name":"Niedersachsen"}},{"name":"Herzog-Magnus-Str.","postalCode":"29614","locality":"Soltau","municipality":{"key":"03358021","name":"Soltau, Stadt","type":"Stadt"},"district":{"key":"03358","name":"Heidekreis","type":"Landkreis"},"federalState":{"key":"03","name":"Niedersachsen"}},{"name":"Hinter der Wiese","postalCode":"29614","locality":"Soltau","municipality":{"key":"03358021","name":"Soltau, Stadt","type":"Stadt"},"district":{"key":"03358","name":"Heidekreis","type":"Landkreis"},"federalState":{"key":"03","name":"Niedersachsen"}},{"name":"Hirtenweg","postalCode":"29614","locality":"Soltau","municipality":{"key":"03358021","name":"Soltau, Stadt","type":"Stadt"},"district":{"key":"03358","name":"Heidekreis","type":"Landkreis"},"federalState":{"key":"03","name":"Niedersachsen"}},{"name":"Hof Loh","postalCode":"29614","locality":"Soltau","municipality":{"key":"03358021","name":"Soltau, Stadt","type":"Stadt"},"district":{"key":"03358","name":"Heidekreis","type":"Landkreis"},"federalState":{"key":"03","name":"Niedersachsen"}},{"name":"Hollenmoor","postalCode":"29614","locality":"Soltau","municipality":{"key":"03358021","name":"Soltau, Stadt","type":"Stadt"},"district":{"key":"03358","name":"Heidekreis","type":"Landkreis"},"federalState":{"key":"03","name":"Niedersachsen"}},{"name":"Honhorstweg","postalCode":"29614","locality":"Soltau","municipality":{"key":"03358021","name":"Soltau, Stadt","type":"Stadt"},"district":{"key":"03358","name":"Heidekreis","type":"Landkreis"},"federalState":{"key":"03","name":"Niedersachsen"}},{"name":"Höpenhof","postalCode":"29614","locality":"Soltau","municipality":{"key":"03358021","name":"Soltau, Stadt","type":"Stadt"},"district":{"key":"03358","name":"Heidekreis","type":"Landkreis"},"federalState":{"key":"03","name":"Niedersachsen"}},{"name":"Hötzingen","postalCode":"29614","locality":"Soltau","municipality":{"key":"03358021","name":"Soltau, Stadt","type":"Stadt"},"district":{"key":"03358","name":"Heidekreis","type":"Landkreis"},"federalState":{"key":"03","name":"Niedersachsen"}},{"name":"Hoyner Heide","postalCode":"29614","locality":"Soltau","municipality":{"key":"03358021","name":"Soltau, Stadt","type":"Stadt"},"district":{"key":"03358","name":"Heidekreis","type":"Landkreis"},"federalState":{"key":"03","name":"Niedersachsen"}},{"name":"Huckenrieth","postalCode":"29614","locality":"Soltau","municipality":{"key":"03358021","name":"Soltau, Stadt","type":"Stadt"},"district":{"key":"03358","name":"Heidekreis","type":"Landkreis"},"federalState":{"key":"03","name":"Niedersachsen"}},{"name":"Hummelweg","postalCode":"29614","locality":"Soltau","municipality":{"key":"03358021","name":"Soltau, Stadt","type":"Stadt"},"district":{"key":"03358","name":"Heidekreis","type":"Landkreis"},"federalState":{"key":"03","name":"Niedersachsen"}},{"name":"Im Dorfe","postalCode":"29614","locality":"Soltau","municipality":{"key":"03358021","name":"Soltau, Stadt","type":"Stadt"},"district":{"key":"03358","name":"Heidekreis","type":"Landkreis"},"federalState":{"key":"03","name":"Niedersachsen"}},{"name":"Immenweg","postalCode":"29614","locality":"Soltau","municipality":{"key":"03358021","name":"Soltau, Stadt","type":"Stadt"},"district":{"key":"03358","name":"Heidekreis","type":"Landkreis"},"federalState":{"key":"03","name":"Niedersachsen"}},{"name":"Im Winkel","postalCode":"29614","locality":"Soltau","municipality":{"key":"03358021","name":"Soltau, Stadt","type":"Stadt"},"district":{"key":"03358","name":"Heidekreis","type":"Landkreis"},"federalState":{"key":"03","name":"Niedersachsen"}},{"name":"In den Hübeeten","postalCode":"29614","locality":"Soltau","municipality":{"key":"03358021","name":"Soltau, Stadt","type":"Stadt"},"district":{"key":"03358","name":"Heidekreis","type":"Landkreis"},"federalState":{"key":"03","name":"Niedersachsen"}},{"name":"In der Heide","postalCode":"29614","locality":"Soltau","municipality":{"key":"03358021","name":"Soltau, Stadt","type":"Stadt"},"district":{"key":"03358","name":"Heidekreis","type":"Landkreis"},"federalState":{"key":"03","name":"Niedersachsen"}},{"name":"In der Weide","postalCode":"29614","locality":"Soltau","municipality":{"key":"03358021","name":"Soltau, Stadt","type":"Stadt"},"district":{"key":"03358","name":"Heidekreis","type":"Landkreis"},"federalState":{"key":"03","name":"Niedersachsen"}},{"name":"Jettebrucher Weg","postalCode":"29614","locality":"Soltau","municipality":{"key":"03358021","name":"Soltau, Stadt","type":"Stadt"},"district":{"key":"03358","name":"Heidekreis","type":"Landkreis"},"federalState":{"key":"03","name":"Niedersachsen"}},{"name":"Jochen-Klepper-Str.","postalCode":"29614","locality":"Soltau","municipality":{"key":"03358021","name":"Soltau, Stadt","type":"Stadt"},"district":{"key":"03358","name":"Heidekreis","type":"Landkreis"},"federalState":{"key":"03","name":"Niedersachsen"}},{"name":"Johanna-Röders-Ring","postalCode":"29614","locality":"Soltau","municipality":{"key":"03358021","name":"Soltau, Stadt","type":"Stadt"},"district":{"key":"03358","name":"Heidekreis","type":"Landkreis"},"federalState":{"key":"03","name":"Niedersachsen"}},{"name":"Julius-Leber-Str.","postalCode":"29614","locality":"Soltau","municipality":{"key":"03358021","name":"Soltau, Stadt","type":"Stadt"},"district":{"key":"03358","name":"Heidekreis","type":"Landkreis"},"federalState":{"key":"03","name":"Niedersachsen"}},{"name":"Kabenbusch","postalCode":"29614","locality":"Soltau","municipality":{"key":"03358021","name":"Soltau, Stadt","type":"Stadt"},"district":{"key":"03358","name":"Heidekreis","type":"Landkreis"},"federalState":{"key":"03","name":"Niedersachsen"}},{"name":"Kamerun","postalCode":"29614","locality":"Soltau","municipality":{"key":"03358021","name":"Soltau, Stadt","type":"Stadt"},"district":{"key":"03358","name":"Heidekreis","type":"Landkreis"},"federalState":{"key":"03","name":"Niedersachsen"}},{"name":"Kampstr.","postalCode":"29614","locality":"Soltau","municipality":{"key":"03358021","name":"Soltau, Stadt","type":"Stadt"},"district":{"key":"03358","name":"Heidekreis","type":"Landkreis"},"federalState":{"key":"03","name":"Niedersachsen"}},{"name":"Kannengießerstr.","postalCode":"29614","locality":"Soltau","municipality":{"key":"03358021","name":"Soltau, Stadt","type":"Stadt"},"district":{"key":"03358","name":"Heidekreis","type":"Landkreis"},"federalState":{"key":"03","name":"Niedersachsen"}},{"name":"Kantweg","postalCode":"29614","locality":"Soltau","municipality":{"key":"03358021","name":"Soltau, Stadt","type":"Stadt"},"district":{"key":"03358","name":"Heidekreis","type":"Landkreis"},"federalState":{"key":"03","name":"Niedersachsen"}},{"name":"Karl-Baurichter-Str.","postalCode":"29614","locality":"Soltau","municipality":{"key":"03358021","name":"Soltau, Stadt","type":"Stadt"},"district":{"key":"03358","name":"Heidekreis","type":"Landkreis"},"federalState":{"key":"03","name":"Niedersachsen"}},{"name":"Kastanienweg","postalCode":"29614","locality":"Soltau","municipality":{"key":"03358021","name":"Soltau, Stadt","type":"Stadt"},"district":{"key":"03358","name":"Heidekreis","type":"Landkreis"},"federalState":{"key":"03","name":"Niedersachsen"}},{"name":"Kerschensteinerstr.","postalCode":"29614","locality":"Soltau","municipality":{"key":"03358021","name":"Soltau, Stadt","type":"Stadt"},"district":{"key":"03358","name":"Heidekreis","type":"Landkreis"},"federalState":{"key":"03","name":"Niedersachsen"}},{"name":"Kiebitzweg","postalCode":"29614","locality":"Soltau","municipality":{"key":"03358021","name":"Soltau, Stadt","type":"Stadt"},"district":{"key":"03358","name":"Heidekreis","type":"Landkreis"},"federalState":{"key":"03","name":"Niedersachsen"}},{"name":"Kiefernweg","postalCode":"29614","locality":"Soltau","municipality":{"key":"03358021","name":"Soltau, Stadt","type":"Stadt"},"district":{"key":"03358","name":"Heidekreis","type":"Landkreis"},"federalState":{"key":"03","name":"Niedersachsen"}},{"name":"Kinaustr.","postalCode":"29614","locality":"Soltau","municipality":{"key":"03358021","name":"Soltau, Stadt","type":"Stadt"},"district":{"key":"03358","name":"Heidekreis","type":"Landkreis"},"federalState":{"key":"03","name":"Niedersachsen"}},{"name":"Kirchstr.","postalCode":"29614","locality":"Soltau","municipality":{"key":"03358021","name":"Soltau, Stadt","type":"Stadt"},"district":{"key":"03358","name":"Heidekreis","type":"Landkreis"},"federalState":{"key":"03","name":"Niedersachsen"}},{"name":"Klabundeweg","postalCode":"29614","locality":"Soltau","municipality":{"key":"03358021","name":"Soltau, Stadt","type":"Stadt"},"district":{"key":"03358","name":"Heidekreis","type":"Landkreis"},"federalState":{"key":"03","name":"Niedersachsen"}},{"name":"Klaus-Groth-Str.","postalCode":"29614","locality":"Soltau","municipality":{"key":"03358021","name":"Soltau, Stadt","type":"Stadt"},"district":{"key":"03358","name":"Heidekreis","type":"Landkreis"},"federalState":{"key":"03","name":"Niedersachsen"}},{"name":"Kleiner Ring","postalCode":"29614","locality":"Soltau","municipality":{"key":"03358021","name":"Soltau, Stadt","type":"Stadt"},"district":{"key":"03358","name":"Heidekreis","type":"Landkreis"},"federalState":{"key":"03","name":"Niedersachsen"}},{"name":"Kleinschmiedstr.","postalCode":"29614","locality":"Soltau","municipality":{"key":"03358021","name":"Soltau, Stadt","type":"Stadt"},"district":{"key":"03358","name":"Heidekreis","type":"Landkreis"},"federalState":{"key":"03","name":"Niedersachsen"}},{"name":"Kleiststr.","postalCode":"29614","locality":"Soltau","municipality":{"key":"03358021","name":"Soltau, Stadt","type":"Stadt"},"district":{"key":"03358","name":"Heidekreis","type":"Landkreis"},"federalState":{"key":"03","name":"Niedersachsen"}},{"name":"Königsberger Str.","postalCode":"29614","locality":"Soltau","municipality":{"key":"03358021","name":"Soltau, Stadt","type":"Stadt"},"district":{"key":"03358","name":"Heidekreis","type":"Landkreis"},"federalState":{"key":"03","name":"Niedersachsen"}},{"name":"Kreuzkamp","postalCode":"29614","locality":"Soltau","municipality":{"key":"03358021","name":"Soltau, Stadt","type":"Stadt"},"district":{"key":"03358","name":"Heidekreis","type":"Landkreis"},"federalState":{"key":"03","name":"Niedersachsen"}},{"name":"Kronsbeerenweg","postalCode":"29614","locality":"Soltau","municipality":{"key":"03358021","name":"Soltau, Stadt","type":"Stadt"},"district":{"key":"03358","name":"Heidekreis","type":"Landkreis"},"federalState":{"key":"03","name":"Niedersachsen"}},{"name":"Krumme Rieth","postalCode":"29614","locality":"Soltau","municipality":{"key":"03358021","name":"Soltau, Stadt","type":"Stadt"},"district":{"key":"03358","name":"Heidekreis","type":"Landkreis"},"federalState":{"key":"03","name":"Niedersachsen"}},{"name":"Kürschnerweg","postalCode":"29614","locality":"Soltau","municipality":{"key":"03358021","name":"Soltau, Stadt","type":"Stadt"},"district":{"key":"03358","name":"Heidekreis","type":"Landkreis"},"federalState":{"key":"03","name":"Niedersachsen"}},{"name":"Lakenmacherstr.","postalCode":"29614","locality":"Soltau","municipality":{"key":"03358021","name":"Soltau, Stadt","type":"Stadt"},"district":{"key":"03358","name":"Heidekreis","type":"Landkreis"},"federalState":{"key":"03","name":"Niedersachsen"}},{"name":"Landolfdamm","postalCode":"29614","locality":"Soltau","municipality":{"key":"03358021","name":"Soltau, Stadt","type":"Stadt"},"district":{"key":"03358","name":"Heidekreis","type":"Landkreis"},"federalState":{"key":"03","name":"Niedersachsen"}},{"name":"Landolfhof","postalCode":"29614","locality":"Soltau","municipality":{"key":"03358021","name":"Soltau, Stadt","type":"Stadt"},"district":{"key":"03358","name":"Heidekreis","type":"Landkreis"},"federalState":{"key":"03","name":"Niedersachsen"}},{"name":"Langobardenweg","postalCode":"29614","locality":"Soltau","municipality":{"key":"03358021","name":"Soltau, Stadt","type":"Stadt"},"district":{"key":"03358","name":"Heidekreis","type":"Landkreis"},"federalState":{"key":"03","name":"Niedersachsen"}},{"name":"Lerchenstr.","postalCode":"29614","locality":"Soltau","municipality":{"key":"03358021","name":"Soltau, Stadt","type":"Stadt"},"district":{"key":"03358","name":"Heidekreis","type":"Landkreis"},"federalState":{"key":"03","name":"Niedersachsen"}},{"name":"Lessingstr.","postalCode":"29614","locality":"Soltau","municipality":{"key":"03358021","name":"Soltau, Stadt","type":"Stadt"},"district":{"key":"03358","name":"Heidekreis","type":"Landkreis"},"federalState":{"key":"03","name":"Niedersachsen"}},{"name":"Libellenweg","postalCode":"29614","locality":"Soltau","municipality":{"key":"03358021","name":"Soltau, Stadt","type":"Stadt"},"district":{"key":"03358","name":"Heidekreis","type":"Landkreis"},"federalState":{"key":"03","name":"Niedersachsen"}},{"name":"Lohengaustr.","postalCode":"29614","locality":"Soltau","municipality":{"key":"03358021","name":"Soltau, Stadt","type":"Stadt"},"district":{"key":"03358","name":"Heidekreis","type":"Landkreis"},"federalState":{"key":"03","name":"Niedersachsen"}},{"name":"Lönsweg","postalCode":"29614","locality":"Soltau","municipality":{"key":"03358021","name":"Soltau, Stadt","type":"Stadt"},"district":{"key":"03358","name":"Heidekreis","type":"Landkreis"},"federalState":{"key":"03","name":"Niedersachsen"}},{"name":"Lorenz-Wiegels-Str.","postalCode":"29614","locality":"Soltau","municipality":{"key":"03358021","name":"Soltau, Stadt","type":"Stadt"},"district":{"key":"03358","name":"Heidekreis","type":"Landkreis"},"federalState":{"key":"03","name":"Niedersachsen"}},{"name":"Louis-Harms-Str.","postalCode":"29614","locality":"Soltau","municipality":{"key":"03358021","name":"Soltau, Stadt","type":"Stadt"},"district":{"key":"03358","name":"Heidekreis","type":"Landkreis"},"federalState":{"key":"03","name":"Niedersachsen"}},{"name":"Lüneburger Str.","postalCode":"29614","locality":"Soltau","municipality":{"key":"03358021","name":"Soltau, Stadt","type":"Stadt"},"district":{"key":"03358","name":"Heidekreis","type":"Landkreis"},"federalState":{"key":"03","name":"Niedersachsen"}},{"name":"Lürmenweg","postalCode":"29614","locality":"Soltau","municipality":{"key":"03358021","name":"Soltau, Stadt","type":"Stadt"},"district":{"key":"03358","name":"Heidekreis","type":"Landkreis"},"federalState":{"key":"03","name":"Niedersachsen"}},{"name":"Marbostel","postalCode":"29614","locality":"Soltau","municipality":{"key":"03358021","name":"Soltau, Stadt","type":"Stadt"},"district":{"key":"03358","name":"Heidekreis","type":"Landkreis"},"federalState":{"key":"03","name":"Niedersachsen"}},{"name":"Marbosteler Weg","postalCode":"29614","locality":"Soltau","municipality":{"key":"03358021","name":"Soltau, Stadt","type":"Stadt"},"district":{"key":"03358","name":"Heidekreis","type":"Landkreis"},"federalState":{"key":"03","name":"Niedersachsen"}},{"name":"Marienburger Damm","postalCode":"29614","locality":"Soltau","municipality":{"key":"03358021","name":"Soltau, Stadt","type":"Stadt"},"district":{"key":"03358","name":"Heidekreis","type":"Landkreis"},"federalState":{"key":"03","name":"Niedersachsen"}},{"name":"Martin-Luther-Str.","postalCode":"29614","locality":"Soltau","municipality":{"key":"03358021","name":"Soltau, Stadt","type":"Stadt"},"district":{"key":"03358","name":"Heidekreis","type":"Landkreis"},"federalState":{"key":"03","name":"Niedersachsen"}},{"name":"Meinern","postalCode":"29614","locality":"Soltau","municipality":{"key":"03358021","name":"Soltau, Stadt","type":"Stadt"},"district":{"key":"03358","name":"Heidekreis","type":"Landkreis"},"federalState":{"key":"03","name":"Niedersachsen"}},{"name":"Meßhausen","postalCode":"29614","locality":"Soltau","municipality":{"key":"03358021","name":"Soltau, Stadt","type":"Stadt"},"district":{"key":"03358","name":"Heidekreis","type":"Landkreis"},"federalState":{"key":"03","name":"Niedersachsen"}},{"name":"Meßhäuser Kirchweg","postalCode":"29614","locality":"Soltau","municipality":{"key":"03358021","name":"Soltau, Stadt","type":"Stadt"},"district":{"key":"03358","name":"Heidekreis","type":"Landkreis"},"federalState":{"key":"03","name":"Niedersachsen"}},{"name":"Meßhäuser Weg","postalCode":"29614","locality":"Soltau","municipality":{"key":"03358021","name":"Soltau, Stadt","type":"Stadt"},"district":{"key":"03358","name":"Heidekreis","type":"Landkreis"},"federalState":{"key":"03","name":"Niedersachsen"}},{"name":"Meyers Bruch","postalCode":"29614","locality":"Soltau","municipality":{"key":"03358021","name":"Soltau, Stadt","type":"Stadt"},"district":{"key":"03358","name":"Heidekreis","type":"Landkreis"},"federalState":{"key":"03","name":"Niedersachsen"}},{"name":"Mittelstendorf","postalCode":"29614","locality":"Soltau","municipality":{"key":"03358021","name":"Soltau, Stadt","type":"Stadt"},"district":{"key":"03358","name":"Heidekreis","type":"Landkreis"},"federalState":{"key":"03","name":"Niedersachsen"}},{"name":"Moider Mühlenweg","postalCode":"29614","locality":"Soltau","municipality":{"key":"03358021","name":"Soltau, Stadt","type":"Stadt"},"district":{"key":"03358","name":"Heidekreis","type":"Landkreis"},"federalState":{"key":"03","name":"Niedersachsen"}},{"name":"Montessoristr.","postalCode":"29614","locality":"Soltau","municipality":{"key":"03358021","name":"Soltau, Stadt","type":"Stadt"},"district":{"key":"03358","name":"Heidekreis","type":"Landkreis"},"federalState":{"key":"03","name":"Niedersachsen"}},{"name":"Moorstr.","postalCode":"29614","locality":"Soltau","municipality":{"key":"03358021","name":"Soltau, Stadt","type":"Stadt"},"district":{"key":"03358","name":"Heidekreis","type":"Landkreis"},"federalState":{"key":"03","name":"Niedersachsen"}},{"name":"Mozartstr.","postalCode":"29614","locality":"Soltau","municipality":{"key":"03358021","name":"Soltau, Stadt","type":"Stadt"},"district":{"key":"03358","name":"Heidekreis","type":"Landkreis"},"federalState":{"key":"03","name":"Niedersachsen"}},{"name":"Mühlenstr.","postalCode":"29614","locality":"Soltau","municipality":{"key":"03358021","name":"Soltau, Stadt","type":"Stadt"},"district":{"key":"03358","name":"Heidekreis","type":"Landkreis"},"federalState":{"key":"03","name":"Niedersachsen"}},{"name":"Mühlenweg","postalCode":"29614","locality":"Soltau","municipality":{"key":"03358021","name":"Soltau, Stadt","type":"Stadt"},"district":{"key":"03358","name":"Heidekreis","type":"Landkreis"},"federalState":{"key":"03","name":"Niedersachsen"}},{"name":"Mümmelmannsweg","postalCode":"29614","locality":"Soltau","municipality":{"key":"03358021","name":"Soltau, Stadt","type":"Stadt"},"district":{"key":"03358","name":"Heidekreis","type":"Landkreis"},"federalState":{"key":"03","name":"Niedersachsen"}},{"name":"Mundschenkweg","postalCode":"29614","locality":"Soltau","municipality":{"key":"03358021","name":"Soltau, Stadt","type":"Stadt"},"district":{"key":"03358","name":"Heidekreis","type":"Landkreis"},"federalState":{"key":"03","name":"Niedersachsen"}},{"name":"Neue Gärten","postalCode":"29614","locality":"Soltau","municipality":{"key":"03358021","name":"Soltau, Stadt","type":"Stadt"},"district":{"key":"03358","name":"Heidekreis","type":"Landkreis"},"federalState":{"key":"03","name":"Niedersachsen"}},{"name":"Neuer Hagen","postalCode":"29614","locality":"Soltau","municipality":{"key":"03358021","name":"Soltau, Stadt","type":"Stadt"},"district":{"key":"03358","name":"Heidekreis","type":"Landkreis"},"federalState":{"key":"03","name":"Niedersachsen"}},{"name":"Neues Rottland","postalCode":"29614","locality":"Soltau","municipality":{"key":"03358021","name":"Soltau, Stadt","type":"Stadt"},"district":{"key":"03358","name":"Heidekreis","type":"Landkreis"},"federalState":{"key":"03","name":"Niedersachsen"}},{"name":"Neue Str.","postalCode":"29614","locality":"Soltau","municipality":{"key":"03358021","name":"Soltau, Stadt","type":"Stadt"},"district":{"key":"03358","name":"Heidekreis","type":"Landkreis"},"federalState":{"key":"03","name":"Niedersachsen"}},{"name":"Nickelstr.","postalCode":"29614","locality":"Soltau","municipality":{"key":"03358021","name":"Soltau, Stadt","type":"Stadt"},"district":{"key":"03358","name":"Heidekreis","type":"Landkreis"},"federalState":{"key":"03","name":"Niedersachsen"}},{"name":"Nottorfweg","postalCode":"29614","locality":"Soltau","municipality":{"key":"03358021","name":"Soltau, Stadt","type":"Stadt"},"district":{"key":"03358","name":"Heidekreis","type":"Landkreis"},"federalState":{"key":"03","name":"Niedersachsen"}},{"name":"Oeningen","postalCode":"29614","locality":"Soltau","municipality":{"key":"03358021","name":"Soltau, Stadt","type":"Stadt"},"district":{"key":"03358","name":"Heidekreis","type":"Landkreis"},"federalState":{"key":"03","name":"Niedersachsen"}},{"name":"Oeninger Moorweg","postalCode":"29614","locality":"Soltau","municipality":{"key":"03358021","name":"Soltau, Stadt","type":"Stadt"},"district":{"key":"03358","name":"Heidekreis","type":"Landkreis"},"federalState":{"key":"03","name":"Niedersachsen"}},{"name":"Oeninger Weg","postalCode":"29614","locality":"Soltau","municipality":{"key":"03358021","name":"Soltau, Stadt","type":"Stadt"},"district":{"key":"03358","name":"Heidekreis","type":"Landkreis"},"federalState":{"key":"03","name":"Niedersachsen"}},{"name":"Osterbruch","postalCode":"29614","locality":"Soltau","municipality":{"key":"03358021","name":"Soltau, Stadt","type":"Stadt"},"district":{"key":"03358","name":"Heidekreis","type":"Landkreis"},"federalState":{"key":"03","name":"Niedersachsen"}},{"name":"Osterfeld","postalCode":"29614","locality":"Soltau","municipality":{"key":"03358021","name":"Soltau, Stadt","type":"Stadt"},"district":{"key":"03358","name":"Heidekreis","type":"Landkreis"},"federalState":{"key":"03","name":"Niedersachsen"}},{"name":"Otfried-Preußler-Allee","postalCode":"29614","locality":"Soltau","municipality":{"key":"03358021","name":"Soltau, Stadt","type":"Stadt"},"district":{"key":"03358","name":"Heidekreis","type":"Landkreis"},"federalState":{"key":"03","name":"Niedersachsen"}},{"name":"Otto-Husemann-Str.","postalCode":"29614","locality":"Soltau","municipality":{"key":"03358021","name":"Soltau, Stadt","type":"Stadt"},"district":{"key":"03358","name":"Heidekreis","type":"Landkreis"},"federalState":{"key":"03","name":"Niedersachsen"}},{"name":"Pappelweg","postalCode":"29614","locality":"Soltau","municipality":{"key":"03358021","name":"Soltau, Stadt","type":"Stadt"},"district":{"key":"03358","name":"Heidekreis","type":"Landkreis"},"federalState":{"key":"03","name":"Niedersachsen"}},{"name":"Parkweg","postalCode":"29614","locality":"Soltau","municipality":{"key":"03358021","name":"Soltau, Stadt","type":"Stadt"},"district":{"key":"03358","name":"Heidekreis","type":"Landkreis"},"federalState":{"key":"03","name":"Niedersachsen"}},{"name":"Pastor-Bode-Weg","postalCode":"29614","locality":"Soltau","municipality":{"key":"03358021","name":"Soltau, Stadt","type":"Stadt"},"district":{"key":"03358","name":"Heidekreis","type":"Landkreis"},"federalState":{"key":"03","name":"Niedersachsen"}},{"name":"Pastor-Rudolf-Schmidt-Weg","postalCode":"29614","locality":"Soltau","municipality":{"key":"03358021","name":"Soltau, Stadt","type":"Stadt"},"district":{"key":"03358","name":"Heidekreis","type":"Landkreis"},"federalState":{"key":"03","name":"Niedersachsen"}},{"name":"Pastor-Wolde-Weg","postalCode":"29614","locality":"Soltau","municipality":{"key":"03358021","name":"Soltau, Stadt","type":"Stadt"},"district":{"key":"03358","name":"Heidekreis","type":"Landkreis"},"federalState":{"key":"03","name":"Niedersachsen"}},{"name":"Paul-Gerhardt-Str.","postalCode":"29614","locality":"Soltau","municipality":{"key":"03358021","name":"Soltau, Stadt","type":"Stadt"},"district":{"key":"03358","name":"Heidekreis","type":"Landkreis"},"federalState":{"key":"03","name":"Niedersachsen"}},{"name":"Pestalozzistr.","postalCode":"29614","locality":"Soltau","municipality":{"key":"03358021","name":"Soltau, Stadt","type":"Stadt"},"district":{"key":"03358","name":"Heidekreis","type":"Landkreis"},"federalState":{"key":"03","name":"Niedersachsen"}},{"name":"Poggenbarg","postalCode":"29614","locality":"Soltau","municipality":{"key":"03358021","name":"Soltau, Stadt","type":"Stadt"},"district":{"key":"03358","name":"Heidekreis","type":"Landkreis"},"federalState":{"key":"03","name":"Niedersachsen"}},{"name":"Posener Str.","postalCode":"29614","locality":"Soltau","municipality":{"key":"03358021","name":"Soltau, Stadt","type":"Stadt"},"district":{"key":"03358","name":"Heidekreis","type":"Landkreis"},"federalState":{"key":"03","name":"Niedersachsen"}},{"name":"Postgang","postalCode":"29614","locality":"Soltau","municipality":{"key":"03358021","name":"Soltau, Stadt","type":"Stadt"},"district":{"key":"03358","name":"Heidekreis","type":"Landkreis"},"federalState":{"key":"03","name":"Niedersachsen"}},{"name":"Poststr.","postalCode":"29614","locality":"Soltau","municipality":{"key":"03358021","name":"Soltau, Stadt","type":"Stadt"},"district":{"key":"03358","name":"Heidekreis","type":"Landkreis"},"federalState":{"key":"03","name":"Niedersachsen"}},{"name":"Quergasse","postalCode":"29614","locality":"Soltau","municipality":{"key":"03358021","name":"Soltau, Stadt","type":"Stadt"},"district":{"key":"03358","name":"Heidekreis","type":"Landkreis"},"federalState":{"key":"03","name":"Niedersachsen"}},{"name":"Querland","postalCode":"29614","locality":"Soltau","municipality":{"key":"03358021","name":"Soltau, Stadt","type":"Stadt"},"district":{"key":"03358","name":"Heidekreis","type":"Landkreis"},"federalState":{"key":"03","name":"Niedersachsen"}},{"name":"Rademacherstr.","postalCode":"29614","locality":"Soltau","municipality":{"key":"03358021","name":"Soltau, Stadt","type":"Stadt"},"district":{"key":"03358","name":"Heidekreis","type":"Landkreis"},"federalState":{"key":"03","name":"Niedersachsen"}},{"name":"Rahrsberg","postalCode":"29614","locality":"Soltau","municipality":{"key":"03358021","name":"Soltau, Stadt","type":"Stadt"},"district":{"key":"03358","name":"Heidekreis","type":"Landkreis"},"federalState":{"key":"03","name":"Niedersachsen"}},{"name":"Raiffeisenweg","postalCode":"29614","locality":"Soltau","municipality":{"key":"03358021","name":"Soltau, Stadt","type":"Stadt"},"district":{"key":"03358","name":"Heidekreis","type":"Landkreis"},"federalState":{"key":"03","name":"Niedersachsen"}},{"name":"Reimerdinger Str.","postalCode":"29614","locality":"Soltau","municipality":{"key":"03358021","name":"Soltau, Stadt","type":"Stadt"},"district":{"key":"03358","name":"Heidekreis","type":"Landkreis"},"federalState":{"key":"03","name":"Niedersachsen"}},{"name":"Reinickendorfer Str.","postalCode":"29614","locality":"Soltau","municipality":{"key":"03358021","name":"Soltau, Stadt","type":"Stadt"},"district":{"key":"03358","name":"Heidekreis","type":"Landkreis"},"federalState":{"key":"03","name":"Niedersachsen"}},{"name":"Reitschulweg","postalCode":"29614","locality":"Soltau","municipality":{"key":"03358021","name":"Soltau, Stadt","type":"Stadt"},"district":{"key":"03358","name":"Heidekreis","type":"Landkreis"},"federalState":{"key":"03","name":"Niedersachsen"}},{"name":"Ringstr.","postalCode":"29614","locality":"Soltau","municipality":{"key":"03358021","name":"Soltau, Stadt","type":"Stadt"},"district":{"key":"03358","name":"Heidekreis","type":"Landkreis"},"federalState":{"key":"03","name":"Niedersachsen"}},{"name":"Rodelbahn","postalCode":"29614","locality":"Soltau","municipality":{"key":"03358021","name":"Soltau, Stadt","type":"Stadt"},"district":{"key":"03358","name":"Heidekreis","type":"Landkreis"},"federalState":{"key":"03","name":"Niedersachsen"}},{"name":"Röders Park","postalCode":"29614","locality":"Soltau","municipality":{"key":"03358021","name":"Soltau, Stadt","type":"Stadt"},"district":{"key":"03358","name":"Heidekreis","type":"Landkreis"},"federalState":{"key":"03","name":"Niedersachsen"}},{"name":"Roggenweg","postalCode":"29614","locality":"Soltau","municipality":{"key":"03358021","name":"Soltau, Stadt","type":"Stadt"},"district":{"key":"03358","name":"Heidekreis","type":"Landkreis"},"federalState":{"key":"03","name":"Niedersachsen"}},{"name":"Rosenstr.","postalCode":"29614","locality":"Soltau","municipality":{"key":"03358021","name":"Soltau, Stadt","type":"Stadt"},"district":{"key":"03358","name":"Heidekreis","type":"Landkreis"},"federalState":{"key":"03","name":"Niedersachsen"}},{"name":"Rundweg","postalCode":"29614","locality":"Soltau","municipality":{"key":"03358021","name":"Soltau, Stadt","type":"Stadt"},"district":{"key":"03358","name":"Heidekreis","type":"Landkreis"},"federalState":{"key":"03","name":"Niedersachsen"}},{"name":"Saarlandstr.","postalCode":"29614","locality":"Soltau","municipality":{"key":"03358021","name":"Soltau, Stadt","type":"Stadt"},"district":{"key":"03358","name":"Heidekreis","type":"Landkreis"},"federalState":{"key":"03","name":"Niedersachsen"}},{"name":"Sachsenweg","postalCode":"29614","locality":"Soltau","municipality":{"key":"03358021","name":"Soltau, Stadt","type":"Stadt"},"district":{"key":"03358","name":"Heidekreis","type":"Landkreis"},"federalState":{"key":"03","name":"Niedersachsen"}},{"name":"Sally-Lennhoff-Gang","postalCode":"29614","locality":"Soltau","municipality":{"key":"03358021","name":"Soltau, Stadt","type":"Stadt"},"district":{"key":"03358","name":"Heidekreis","type":"Landkreis"},"federalState":{"key":"03","name":"Niedersachsen"}},{"name":"Schäfersort","postalCode":"29614","locality":"Soltau","municipality":{"key":"03358021","name":"Soltau, Stadt","type":"Stadt"},"district":{"key":"03358","name":"Heidekreis","type":"Landkreis"},"federalState":{"key":"03","name":"Niedersachsen"}},{"name":"Scheibenstr.","postalCode":"29614","locality":"Soltau","municipality":{"key":"03358021","name":"Soltau, Stadt","type":"Stadt"},"district":{"key":"03358","name":"Heidekreis","type":"Landkreis"},"federalState":{"key":"03","name":"Niedersachsen"}},{"name":"Schillerstr.","postalCode":"29614","locality":"Soltau","municipality":{"key":"03358021","name":"Soltau, Stadt","type":"Stadt"},"district":{"key":"03358","name":"Heidekreis","type":"Landkreis"},"federalState":{"key":"03","name":"Niedersachsen"}},{"name":"Schmiedegasse","postalCode":"29614","locality":"Soltau","municipality":{"key":"03358021","name":"Soltau, Stadt","type":"Stadt"},"district":{"key":"03358","name":"Heidekreis","type":"Landkreis"},"federalState":{"key":"03","name":"Niedersachsen"}},{"name":"Schmiedeweg","postalCode":"29614","locality":"Soltau","municipality":{"key":"03358021","name":"Soltau, Stadt","type":"Stadt"},"district":{"key":"03358","name":"Heidekreis","type":"Landkreis"},"federalState":{"key":"03","name":"Niedersachsen"}},{"name":"Schnepfenstrich","postalCode":"29614","locality":"Soltau","municipality":{"key":"03358021","name":"Soltau, Stadt","type":"Stadt"},"district":{"key":"03358","name":"Heidekreis","type":"Landkreis"},"federalState":{"key":"03","name":"Niedersachsen"}},{"name":"Schneverdinger Str.","postalCode":"29614","locality":"Soltau","municipality":{"key":"03358021","name":"Soltau, Stadt","type":"Stadt"},"district":{"key":"03358","name":"Heidekreis","type":"Landkreis"},"federalState":{"key":"03","name":"Niedersachsen"}},{"name":"Schubertstr.","postalCode":"29614","locality":"Soltau","municipality":{"key":"03358021","name":"Soltau, Stadt","type":"Stadt"},"district":{"key":"03358","name":"Heidekreis","type":"Landkreis"},"federalState":{"key":"03","name":"Niedersachsen"}},{"name":"Schuhmacherstr.","postalCode":"29614","locality":"Soltau","municipality":{"key":"03358021","name":"Soltau, Stadt","type":"Stadt"},"district":{"key":"03358","name":"Heidekreis","type":"Landkreis"},"federalState":{"key":"03","name":"Niedersachsen"}},{"name":"Schulze-Delitzsch-Weg","postalCode":"29614","locality":"Soltau","municipality":{"key":"03358021","name":"Soltau, Stadt","type":"Stadt"},"district":{"key":"03358","name":"Heidekreis","type":"Landkreis"},"federalState":{"key":"03","name":"Niedersachsen"}},{"name":"Schüttenweg","postalCode":"29614","locality":"Soltau","municipality":{"key":"03358021","name":"Soltau, Stadt","type":"Stadt"},"district":{"key":"03358","name":"Heidekreis","type":"Landkreis"},"federalState":{"key":"03","name":"Niedersachsen"}},{"name":"Schützenstr.","postalCode":"29614","locality":"Soltau","municipality":{"key":"03358021","name":"Soltau, Stadt","type":"Stadt"},"district":{"key":"03358","name":"Heidekreis","type":"Landkreis"},"federalState":{"key":"03","name":"Niedersachsen"}},{"name":"Schwemmförth","postalCode":"29614","locality":"Soltau","municipality":{"key":"03358021","name":"Soltau, Stadt","type":"Stadt"},"district":{"key":"03358","name":"Heidekreis","type":"Landkreis"},"federalState":{"key":"03","name":"Niedersachsen"}},{"name":"Seeblick","postalCode":"29614","locality":"Soltau","municipality":{"key":"03358021","name":"Soltau, Stadt","type":"Stadt"},"district":{"key":"03358","name":"Heidekreis","type":"Landkreis"},"federalState":{"key":"03","name":"Niedersachsen"}},{"name":"Seerose","postalCode":"29614","locality":"Soltau","municipality":{"key":"03358021","name":"Soltau, Stadt","type":"Stadt"},"district":{"key":"03358","name":"Heidekreis","type":"Landkreis"},"federalState":{"key":"03","name":"Niedersachsen"}},{"name":"Seilerstr.","postalCode":"29614","locality":"Soltau","municipality":{"key":"03358021","name":"Soltau, Stadt","type":"Stadt"},"district":{"key":"03358","name":"Heidekreis","type":"Landkreis"},"federalState":{"key":"03","name":"Niedersachsen"}},{"name":"Simon-Aron-Gang","postalCode":"29614","locality":"Soltau","municipality":{"key":"03358021","name":"Soltau, Stadt","type":"Stadt"},"district":{"key":"03358","name":"Heidekreis","type":"Landkreis"},"federalState":{"key":"03","name":"Niedersachsen"}},{"name":"Soldiner Str.","postalCode":"29614","locality":"Soltau","municipality":{"key":"03358021","name":"Soltau, Stadt","type":"Stadt"},"district":{"key":"03358","name":"Heidekreis","type":"Landkreis"},"federalState":{"key":"03","name":"Niedersachsen"}},{"name":"Soltauer Str.","postalCode":"29614","locality":"Soltau","municipality":{"key":"03358021","name":"Soltau, Stadt","type":"Stadt"},"district":{"key":"03358","name":"Heidekreis","type":"Landkreis"},"federalState":{"key":"03","name":"Niedersachsen"}},{"name":"Sonnenalle","postalCode":"29614","locality":"Soltau","municipality":{"key":"03358021","name":"Soltau, Stadt","type":"Stadt"},"district":{"key":"03358","name":"Heidekreis","type":"Landkreis"},"federalState":{"key":"03","name":"Niedersachsen"}},{"name":"Sonnenberg","postalCode":"29614","locality":"Soltau","municipality":{"key":"03358021","name":"Soltau, Stadt","type":"Stadt"},"district":{"key":"03358","name":"Heidekreis","type":"Landkreis"},"federalState":{"key":"03","name":"Niedersachsen"}},{"name":"Spiekerhof","postalCode":"29614","locality":"Soltau","municipality":{"key":"03358021","name":"Soltau, Stadt","type":"Stadt"},"district":{"key":"03358","name":"Heidekreis","type":"Landkreis"},"federalState":{"key":"03","name":"Niedersachsen"}},{"name":"Spittastr.","postalCode":"29614","locality":"Soltau","municipality":{"key":"03358021","name":"Soltau, Stadt","type":"Stadt"},"district":{"key":"03358","name":"Heidekreis","type":"Landkreis"},"federalState":{"key":"03","name":"Niedersachsen"}},{"name":"Stalmannstr.","postalCode":"29614","locality":"Soltau","municipality":{"key":"03358021","name":"Soltau, Stadt","type":"Stadt"},"district":{"key":"03358","name":"Heidekreis","type":"Landkreis"},"federalState":{"key":"03","name":"Niedersachsen"}},{"name":"Steinkamp","postalCode":"29614","locality":"Soltau","municipality":{"key":"03358021","name":"Soltau, Stadt","type":"Stadt"},"district":{"key":"03358","name":"Heidekreis","type":"Landkreis"},"federalState":{"key":"03","name":"Niedersachsen"}},{"name":"Sternenweg","postalCode":"29614","locality":"Soltau","municipality":{"key":"03358021","name":"Soltau, Stadt","type":"Stadt"},"district":{"key":"03358","name":"Heidekreis","type":"Landkreis"},"federalState":{"key":"03","name":"Niedersachsen"}},{"name":"Stettiner Str.","postalCode":"29614","locality":"Soltau","municipality":{"key":"03358021","name":"Soltau, Stadt","type":"Stadt"},"district":{"key":"03358","name":"Heidekreis","type":"Landkreis"},"federalState":{"key":"03","name":"Niedersachsen"}},{"name":"Strihnbarg","postalCode":"29614","locality":"Soltau","municipality":{"key":"03358021","name":"Soltau, Stadt","type":"Stadt"},"district":{"key":"03358","name":"Heidekreis","type":"Landkreis"},"federalState":{"key":"03","name":"Niedersachsen"}},{"name":"Stubbendorffweg","postalCode":"29614","locality":"Soltau","municipality":{"key":"03358021","name":"Soltau, Stadt","type":"Stadt"},"district":{"key":"03358","name":"Heidekreis","type":"Landkreis"},"federalState":{"key":"03","name":"Niedersachsen"}},{"name":"Tannenweg","postalCode":"29614","locality":"Soltau","municipality":{"key":"03358021","name":"Soltau, Stadt","type":"Stadt"},"district":{"key":"03358","name":"Heidekreis","type":"Landkreis"},"federalState":{"key":"03","name":"Niedersachsen"}},{"name":"Tannenwinkel","postalCode":"29614","locality":"Soltau","municipality":{"key":"03358021","name":"Soltau, Stadt","type":"Stadt"},"district":{"key":"03358","name":"Heidekreis","type":"Landkreis"},"federalState":{"key":"03","name":"Niedersachsen"}},{"name":"Tetendorfer Kirchstieg","postalCode":"29614","locality":"Soltau","municipality":{"key":"03358021","name":"Soltau, Stadt","type":"Stadt"},"district":{"key":"03358","name":"Heidekreis","type":"Landkreis"},"federalState":{"key":"03","name":"Niedersachsen"}},{"name":"Tetendorfer Str.","postalCode":"29614","locality":"Soltau","municipality":{"key":"03358021","name":"Soltau, Stadt","type":"Stadt"},"district":{"key":"03358","name":"Heidekreis","type":"Landkreis"},"federalState":{"key":"03","name":"Niedersachsen"}},{"name":"Teufelsbrücke","postalCode":"29614","locality":"Soltau","municipality":{"key":"03358021","name":"Soltau, Stadt","type":"Stadt"},"district":{"key":"03358","name":"Heidekreis","type":"Landkreis"},"federalState":{"key":"03","name":"Niedersachsen"}},{"name":"Theodor-Storm-Str.","postalCode":"29614","locality":"Soltau","municipality":{"key":"03358021","name":"Soltau, Stadt","type":"Stadt"},"district":{"key":"03358","name":"Heidekreis","type":"Landkreis"},"federalState":{"key":"03","name":"Niedersachsen"}},{"name":"Thiergarten","postalCode":"29614","locality":"Soltau","municipality":{"key":"03358021","name":"Soltau, Stadt","type":"Stadt"},"district":{"key":"03358","name":"Heidekreis","type":"Landkreis"},"federalState":{"key":"03","name":"Niedersachsen"}},{"name":"Thomas-Mann-Str.","postalCode":"29614","locality":"Soltau","municipality":{"key":"03358021","name":"Soltau, Stadt","type":"Stadt"},"district":{"key":"03358","name":"Heidekreis","type":"Landkreis"},"federalState":{"key":"03","name":"Niedersachsen"}},{"name":"Tiegen","postalCode":"29614","locality":"Soltau","municipality":{"key":"03358021","name":"Soltau, Stadt","type":"Stadt"},"district":{"key":"03358","name":"Heidekreis","type":"Landkreis"},"federalState":{"key":"03","name":"Niedersachsen"}},{"name":"Tiegener Busch","postalCode":"29614","locality":"Soltau","municipality":{"key":"03358021","name":"Soltau, Stadt","type":"Stadt"},"district":{"key":"03358","name":"Heidekreis","type":"Landkreis"},"federalState":{"key":"03","name":"Niedersachsen"}},{"name":"Tiegener Str.","postalCode":"29614","locality":"Soltau","municipality":{"key":"03358021","name":"Soltau, Stadt","type":"Stadt"},"district":{"key":"03358","name":"Heidekreis","type":"Landkreis"},"federalState":{"key":"03","name":"Niedersachsen"}},{"name":"Tilsiter Str.","postalCode":"29614","locality":"Soltau","municipality":{"key":"03358021","name":"Soltau, Stadt","type":"Stadt"},"district":{"key":"03358","name":"Heidekreis","type":"Landkreis"},"federalState":{"key":"03","name":"Niedersachsen"}},{"name":"Timmerloh","postalCode":"29614","locality":"Soltau","municipality":{"key":"03358021","name":"Soltau, Stadt","type":"Stadt"},"district":{"key":"03358","name":"Heidekreis","type":"Landkreis"},"federalState":{"key":"03","name":"Niedersachsen"}},{"name":"Timmerloher Weg","postalCode":"29614","locality":"Soltau","municipality":{"key":"03358021","name":"Soltau, Stadt","type":"Stadt"},"district":{"key":"03358","name":"Heidekreis","type":"Landkreis"},"federalState":{"key":"03","name":"Niedersachsen"}},{"name":"Timmermanngang","postalCode":"29614","locality":"Soltau","municipality":{"key":"03358021","name":"Soltau, Stadt","type":"Stadt"},"district":{"key":"03358","name":"Heidekreis","type":"Landkreis"},"federalState":{"key":"03","name":"Niedersachsen"}},{"name":"Töpferstr.","postalCode":"29614","locality":"Soltau","municipality":{"key":"03358021","name":"Soltau, Stadt","type":"Stadt"},"district":{"key":"03358","name":"Heidekreis","type":"Landkreis"},"federalState":{"key":"03","name":"Niedersachsen"}},{"name":"Trift","postalCode":"29614","locality":"Soltau","municipality":{"key":"03358021","name":"Soltau, Stadt","type":"Stadt"},"district":{"key":"03358","name":"Heidekreis","type":"Landkreis"},"federalState":{"key":"03","name":"Niedersachsen"}},{"name":"Uhlandstr.","postalCode":"29614","locality":"Soltau","municipality":{"key":"03358021","name":"Soltau, Stadt","type":"Stadt"},"district":{"key":"03358","name":"Heidekreis","type":"Landkreis"},"federalState":{"key":"03","name":"Niedersachsen"}},{"name":"Uhlenkamp","postalCode":"29614","locality":"Soltau","municipality":{"key":"03358021","name":"Soltau, Stadt","type":"Stadt"},"district":{"key":"03358","name":"Heidekreis","type":"Landkreis"},"federalState":{"key":"03","name":"Niedersachsen"}},{"name":"Ulmenweg","postalCode":"29614","locality":"Soltau","municipality":{"key":"03358021","name":"Soltau, Stadt","type":"Stadt"},"district":{"key":"03358","name":"Heidekreis","type":"Landkreis"},"federalState":{"key":"03","name":"Niedersachsen"}},{"name":"Unter den Linden","postalCode":"29614","locality":"Soltau","municipality":{"key":"03358021","name":"Soltau, Stadt","type":"Stadt"},"district":{"key":"03358","name":"Heidekreis","type":"Landkreis"},"federalState":{"key":"03","name":"Niedersachsen"}},{"name":"Up de Linnen","postalCode":"29614","locality":"Soltau","municipality":{"key":"03358021","name":"Soltau, Stadt","type":"Stadt"},"district":{"key":"03358","name":"Heidekreis","type":"Landkreis"},"federalState":{"key":"03","name":"Niedersachsen"}},{"name":"Up'n Kiesbarg","postalCode":"29614","locality":"Soltau","municipality":{"key":"03358021","name":"Soltau, Stadt","type":"Stadt"},"district":{"key":"03358","name":"Heidekreis","type":"Landkreis"},"federalState":{"key":"03","name":"Niedersachsen"}},{"name":"Viktoria-Luise-Str.","postalCode":"29614","locality":"Soltau","municipality":{"key":"03358021","name":"Soltau, Stadt","type":"Stadt"},"district":{"key":"03358","name":"Heidekreis","type":"Landkreis"},"federalState":{"key":"03","name":"Niedersachsen"}},{"name":"Visselhöveder Str.","postalCode":"29614","locality":"Soltau","municipality":{"key":"03358021","name":"Soltau, Stadt","type":"Stadt"},"district":{"key":"03358","name":"Heidekreis","type":"Landkreis"},"federalState":{"key":"03","name":"Niedersachsen"}},{"name":"Vogelbeerweg","postalCode":"29614","locality":"Soltau","municipality":{"key":"03358021","name":"Soltau, Stadt","type":"Stadt"},"district":{"key":"03358","name":"Heidekreis","type":"Landkreis"},"federalState":{"key":"03","name":"Niedersachsen"}},{"name":"Vogteigang","postalCode":"29614","locality":"Soltau","municipality":{"key":"03358021","name":"Soltau, Stadt","type":"Stadt"},"district":{"key":"03358","name":"Heidekreis","type":"Landkreis"},"federalState":{"key":"03","name":"Niedersachsen"}},{"name":"Von-Bodelschwingh-Str.","postalCode":"29614","locality":"Soltau","municipality":{"key":"03358021","name":"Soltau, Stadt","type":"Stadt"},"district":{"key":"03358","name":"Heidekreis","type":"Landkreis"},"federalState":{"key":"03","name":"Niedersachsen"}},{"name":"Von-der-Wense-Weg","postalCode":"29614","locality":"Soltau","municipality":{"key":"03358021","name":"Soltau, Stadt","type":"Stadt"},"district":{"key":"03358","name":"Heidekreis","type":"Landkreis"},"federalState":{"key":"03","name":"Niedersachsen"}},{"name":"Vor dem Weiherbusch","postalCode":"29614","locality":"Soltau","municipality":{"key":"03358021","name":"Soltau, Stadt","type":"Stadt"},"district":{"key":"03358","name":"Heidekreis","type":"Landkreis"},"federalState":{"key":"03","name":"Niedersachsen"}},{"name":"Vor den Höfen","postalCode":"29614","locality":"Soltau","municipality":{"key":"03358021","name":"Soltau, Stadt","type":"Stadt"},"district":{"key":"03358","name":"Heidekreis","type":"Landkreis"},"federalState":{"key":"03","name":"Niedersachsen"}},{"name":"Vor der Harber Brücke","postalCode":"29614","locality":"Soltau","municipality":{"key":"03358021","name":"Soltau, Stadt","type":"Stadt"},"district":{"key":"03358","name":"Heidekreis","type":"Landkreis"},"federalState":{"key":"03","name":"Niedersachsen"}},{"name":"Wacholdergrund","postalCode":"29614","locality":"Soltau","municipality":{"key":"03358021","name":"Soltau, Stadt","type":"Stadt"},"district":{"key":"03358","name":"Heidekreis","type":"Landkreis"},"federalState":{"key":"03","name":"Niedersachsen"}},{"name":"Wald-Wasser-Lehrpfad Soltau","postalCode":"29614","locality":"Soltau","municipality":{"key":"03358021","name":"Soltau, Stadt","type":"Stadt"},"district":{"key":"03358","name":"Heidekreis","type":"Landkreis"},"federalState":{"key":"03","name":"Niedersachsen"}},{"name":"Walsroder Str.","postalCode":"29614","locality":"Soltau","municipality":{"key":"03358021","name":"Soltau, Stadt","type":"Stadt"},"district":{"key":"03358","name":"Heidekreis","type":"Landkreis"},"federalState":{"key":"03","name":"Niedersachsen"}},{"name":"Waterloostr.","postalCode":"29614","locality":"Soltau","municipality":{"key":"03358021","name":"Soltau, Stadt","type":"Stadt"},"district":{"key":"03358","name":"Heidekreis","type":"Landkreis"},"federalState":{"key":"03","name":"Niedersachsen"}},{"name":"Wehrkamp","postalCode":"29614","locality":"Soltau","municipality":{"key":"03358021","name":"Soltau, Stadt","type":"Stadt"},"district":{"key":"03358","name":"Heidekreis","type":"Landkreis"},"federalState":{"key":"03","name":"Niedersachsen"}},{"name":"Weidedamm","postalCode":"29614","locality":"Soltau","municipality":{"key":"03358021","name":"Soltau, Stadt","type":"Stadt"},"district":{"key":"03358","name":"Heidekreis","type":"Landkreis"},"federalState":{"key":"03","name":"Niedersachsen"}},{"name":"Weidegrund","postalCode":"29614","locality":"Soltau","municipality":{"key":"03358021","name":"Soltau, Stadt","type":"Stadt"},"district":{"key":"03358","name":"Heidekreis","type":"Landkreis"},"federalState":{"key":"03","name":"Niedersachsen"}},{"name":"Weiherweg","postalCode":"29614","locality":"Soltau","municipality":{"key":"03358021","name":"Soltau, Stadt","type":"Stadt"},"district":{"key":"03358","name":"Heidekreis","type":"Landkreis"},"federalState":{"key":"03","name":"Niedersachsen"}},{"name":"Weinberg","postalCode":"29614","locality":"Soltau","municipality":{"key":"03358021","name":"Soltau, Stadt","type":"Stadt"},"district":{"key":"03358","name":"Heidekreis","type":"Landkreis"},"federalState":{"key":"03","name":"Niedersachsen"}},{"name":"Weinligstr.","postalCode":"29614","locality":"Soltau","municipality":{"key":"03358021","name":"Soltau, Stadt","type":"Stadt"},"district":{"key":"03358","name":"Heidekreis","type":"Landkreis"},"federalState":{"key":"03","name":"Niedersachsen"}},{"name":"Widukindstr.","postalCode":"29614","locality":"Soltau","municipality":{"key":"03358021","name":"Soltau, Stadt","type":"Stadt"},"district":{"key":"03358","name":"Heidekreis","type":"Landkreis"},"federalState":{"key":"03","name":"Niedersachsen"}},{"name":"Wiedingen","postalCode":"29614","locality":"Soltau","municipality":{"key":"03358021","name":"Soltau, Stadt","type":"Stadt"},"district":{"key":"03358","name":"Heidekreis","type":"Landkreis"},"federalState":{"key":"03","name":"Niedersachsen"}},{"name":"Wiedinger Weg","postalCode":"29614","locality":"Soltau","municipality":{"key":"03358021","name":"Soltau, Stadt","type":"Stadt"},"district":{"key":"03358","name":"Heidekreis","type":"Landkreis"},"federalState":{"key":"03","name":"Niedersachsen"}},{"name":"Wieheholz","postalCode":"29614","locality":"Soltau","municipality":{"key":"03358021","name":"Soltau, Stadt","type":"Stadt"},"district":{"key":"03358","name":"Heidekreis","type":"Landkreis"},"federalState":{"key":"03","name":"Niedersachsen"}},{"name":"Wieheholzer Str.","postalCode":"29614","locality":"Soltau","municipality":{"key":"03358021","name":"Soltau, Stadt","type":"Stadt"},"district":{"key":"03358","name":"Heidekreis","type":"Landkreis"},"federalState":{"key":"03","name":"Niedersachsen"}},{"name":"Wiesenstr.","postalCode":"29614","locality":"Soltau","municipality":{"key":"03358021","name":"Soltau, Stadt","type":"Stadt"},"district":{"key":"03358","name":"Heidekreis","type":"Landkreis"},"federalState":{"key":"03","name":"Niedersachsen"}},{"name":"Wietzendorfer Str.","postalCode":"29614","locality":"Soltau","municipality":{"key":"03358021","name":"Soltau, Stadt","type":"Stadt"},"district":{"key":"03358","name":"Heidekreis","type":"Landkreis"},"federalState":{"key":"03","name":"Niedersachsen"}},{"name":"Wilhelm-Busch-Str.","postalCode":"29614","locality":"Soltau","municipality":{"key":"03358021","name":"Soltau, Stadt","type":"Stadt"},"district":{"key":"03358","name":"Heidekreis","type":"Landkreis"},"federalState":{"key":"03","name":"Niedersachsen"}},{"name":"Wilhelm-Ehlers-Str.","postalCode":"29614","locality":"Soltau","municipality":{"key":"03358021","name":"Soltau, Stadt","type":"Stadt"},"district":{"key":"03358","name":"Heidekreis","type":"Landkreis"},"federalState":{"key":"03","name":"Niedersachsen"}},{"name":"Wilhelm-Leuschner-Weg","postalCode":"29614","locality":"Soltau","municipality":{"key":"03358021","name":"Soltau, Stadt","type":"Stadt"},"district":{"key":"03358","name":"Heidekreis","type":"Landkreis"},"federalState":{"key":"03","name":"Niedersachsen"}},{"name":"Wilhelm-Raabe-Str.","postalCode":"29614","locality":"Soltau","municipality":{"key":"03358021","name":"Soltau, Stadt","type":"Stadt"},"district":{"key":"03358","name":"Heidekreis","type":"Landkreis"},"federalState":{"key":"03","name":"Niedersachsen"}},{"name":"Wilhelmstr.","postalCode":"29614","locality":"Soltau","municipality":{"key":"03358021","name":"Soltau, Stadt","type":"Stadt"},"district":{"key":"03358","name":"Heidekreis","type":"Landkreis"},"federalState":{"key":"03","name":"Niedersachsen"}},{"name":"Willi-Graf-Str.","postalCode":"29614","locality":"Soltau","municipality":{"key":"03358021","name":"Soltau, Stadt","type":"Stadt"},"district":{"key":"03358","name":"Heidekreis","type":"Landkreis"},"federalState":{"key":"03","name":"Niedersachsen"}},{"name":"Willinger Weg","postalCode":"29614","locality":"Soltau","municipality":{"key":"03358021","name":"Soltau, Stadt","type":"Stadt"},"district":{"key":"03358","name":"Heidekreis","type":"Landkreis"},"federalState":{"key":"03","name":"Niedersachsen"}},{"name":"Wiltengang","postalCode":"29614","locality":"Soltau","municipality":{"key":"03358021","name":"Soltau, Stadt","type":"Stadt"},"district":{"key":"03358","name":"Heidekreis","type":"Landkreis"},"federalState":{"key":"03","name":"Niedersachsen"}},{"name":"Winkelweg","postalCode":"29614","locality":"Soltau","municipality":{"key":"03358021","name":"Soltau, Stadt","type":"Stadt"},"district":{"key":"03358","name":"Heidekreis","type":"Landkreis"},"federalState":{"key":"03","name":"Niedersachsen"}},{"name":"Winsener Str.","postalCode":"29614","locality":"Soltau","municipality":{"key":"03358021","name":"Soltau, Stadt","type":"Stadt"},"district":{"key":"03358","name":"Heidekreis","type":"Landkreis"},"federalState":{"key":"03","name":"Niedersachsen"}},{"name":"Wischengrund","postalCode":"29614","locality":"Soltau","municipality":{"key":"03358021","name":"Soltau, Stadt","type":"Stadt"},"district":{"key":"03358","name":"Heidekreis","type":"Landkreis"},"federalState":{"key":"03","name":"Niedersachsen"}},{"name":"Wolfgang-Borchert-Str.","postalCode":"29614","locality":"Soltau","municipality":{"key":"03358021","name":"Soltau, Stadt","type":"Stadt"},"district":{"key":"03358","name":"Heidekreis","type":"Landkreis"},"federalState":{"key":"03","name":"Niedersachsen"}},{"name":"Woltem","postalCode":"29614","locality":"Soltau","municipality":{"key":"03358021","name":"Soltau, Stadt","type":"Stadt"},"district":{"key":"03358","name":"Heidekreis","type":"Landkreis"},"federalState":{"key":"03","name":"Niedersachsen"}},{"name":"Wolterdinger Dorfstr.","postalCode":"29614","locality":"Soltau","municipality":{"key":"03358021","name":"Soltau, Stadt","type":"Stadt"},"district":{"key":"03358","name":"Heidekreis","type":"Landkreis"},"federalState":{"key":"03","name":"Niedersachsen"}},{"name":"WUMBO Kreisel","postalCode":"29614","locality":"Soltau","municipality":{"key":"03358021","name":"Soltau, Stadt","type":"Stadt"},"district":{"key":"03358","name":"Heidekreis","type":"Landkreis"},"federalState":{"key":"03","name":"Niedersachsen"}},{"name":"Zum Ahlftener Flatt","postalCode":"29614","locality":"Soltau","municipality":{"key":"03358021","name":"Soltau, Stadt","type":"Stadt"},"district":{"key":"03358","name":"Heidekreis","type":"Landkreis"},"federalState":{"key":"03","name":"Niedersachsen"}},{"name":"Zum Ebsbusch","postalCode":"29614","locality":"Soltau","municipality":{"key":"03358021","name":"Soltau, Stadt","type":"Stadt"},"district":{"key":"03358","name":"Heidekreis","type":"Landkreis"},"federalState":{"key":"03","name":"Niedersachsen"}},{"name":"Zu Meyers Föhr","postalCode":"29614","locality":"Soltau","municipality":{"key":"03358021","name":"Soltau, Stadt","type":"Stadt"},"district":{"key":"03358","name":"Heidekreis","type":"Landkreis"},"federalState":{"key":"03","name":"Niedersachsen"}},{"name":"Zum Marrah","postalCode":"29614","locality":"Soltau","municipality":{"key":"03358021","name":"Soltau, Stadt","type":"Stadt"},"district":{"key":"03358","name":"Heidekreis","type":"Landkreis"},"federalState":{"key":"03","name":"Niedersachsen"}},{"name":"Zum Wiesengrund","postalCode":"29614","locality":"Soltau","municipality":{"key":"03358021","name":"Soltau, Stadt","type":"Stadt"},"district":{"key":"03358","name":"Heidekreis","type":"Landkreis"},"federalState":{"key":"03","name":"Niedersachsen"}},{"name":"Zur Fuchsfarm","postalCode":"29614","locality":"Soltau","municipality":{"key":"03358021","name":"Soltau, Stadt","type":"Stadt"},"district":{"key":"03358","name":"Heidekreis","type":"Landkreis"},"federalState":{"key":"03","name":"Niedersachsen"}},]