[{"key":"10139472","name":"Alla Chiesa","postalCode":"6944","locality":"Cureglia","commune":{"key":"5180","name":"Cureglia","shortName":"Cureglia"},"district":{"key":"2105","name":"Distretto di Lugano"},"canton":{"key":"21","code":"TI","name":"Ticino"},"status":"Real"},{"key":"10139473","name":"Bel Bosco","postalCode":"6944","locality":"Cureglia","commune":{"key":"5180","name":"Cureglia","shortName":"Cureglia"},"district":{"key":"2105","name":"Distretto di Lugano"},"canton":{"key":"21","code":"TI","name":"Ticino"},"status":"Real"},{"key":"10139474","name":"Bolino","postalCode":"6944","locality":"Cureglia","commune":{"key":"5180","name":"Cureglia","shortName":"Cureglia"},"district":{"key":"2105","name":"Distretto di Lugano"},"canton":{"key":"21","code":"TI","name":"Ticino"},"status":"Real"},{"key":"10139475","name":"Bolino di Dentro","postalCode":"6944","locality":"Cureglia","commune":{"key":"5180","name":"Cureglia","shortName":"Cureglia"},"district":{"key":"2105","name":"Distretto di Lugano"},"canton":{"key":"21","code":"TI","name":"Ticino"},"status":"Real"},{"key":"10139476","name":"Burgh","postalCode":"6944","locality":"Cureglia","commune":{"key":"5180","name":"Cureglia","shortName":"Cureglia"},"district":{"key":"2105","name":"Distretto di Lugano"},"canton":{"key":"21","code":"TI","name":"Ticino"},"status":"Real"},{"key":"10139477","name":"Ca'd'Fund","postalCode":"6944","locality":"Cureglia","commune":{"key":"5180","name":"Cureglia","shortName":"Cureglia"},"district":{"key":"2105","name":"Distretto di Lugano"},"canton":{"key":"21","code":"TI","name":"Ticino"},"status":"Real"},{"key":"10139478","name":"Campagna","postalCode":"6944","locality":"Cureglia","commune":{"key":"5180","name":"Cureglia","shortName":"Cureglia"},"district":{"key":"2105","name":"Distretto di Lugano"},"canton":{"key":"21","code":"TI","name":"Ticino"},"status":"Real"},{"key":"10139479","name":"Campagnora","postalCode":"6944","locality":"Cureglia","commune":{"key":"5180","name":"Cureglia","shortName":"Cureglia"},"district":{"key":"2105","name":"Distretto di Lugano"},"canton":{"key":"21","code":"TI","name":"Ticino"},"status":"Real"},{"key":"10139480","name":"Canton","postalCode":"6944","locality":"Cureglia","commune":{"key":"5180","name":"Cureglia","shortName":"Cureglia"},"district":{"key":"2105","name":"Distretto di Lugano"},"canton":{"key":"21","code":"TI","name":"Ticino"},"status":"Real"},{"key":"10138884","name":"Cantonale","postalCode":"6944","locality":"Cureglia","commune":{"key":"5180","name":"Cureglia","shortName":"Cureglia"},"district":{"key":"2105","name":"Distretto di Lugano"},"canton":{"key":"21","code":"TI","name":"Ticino"},"status":"Real"},{"key":"10137783","name":"Carivée","postalCode":"6944","locality":"Cureglia","commune":{"key":"5180","name":"Cureglia","shortName":"Cureglia"},"district":{"key":"2105","name":"Distretto di Lugano"},"canton":{"key":"21","code":"TI","name":"Ticino"},"status":"Real"},{"key":"10137784","name":"Cittadella","postalCode":"6944","locality":"Cureglia","commune":{"key":"5180","name":"Cureglia","shortName":"Cureglia"},"district":{"key":"2105","name":"Distretto di Lugano"},"canton":{"key":"21","code":"TI","name":"Ticino"},"status":"Real"},{"key":"10137785","name":"Comanacco","postalCode":"6944","locality":"Cureglia","commune":{"key":"5180","name":"Cureglia","shortName":"Cureglia"},"district":{"key":"2105","name":"Distretto di Lugano"},"canton":{"key":"21","code":"TI","name":"Ticino"},"status":"Real"},{"key":"10137786","name":"Cornonscello","postalCode":"6944","locality":"Cureglia","commune":{"key":"5180","name":"Cureglia","shortName":"Cureglia"},"district":{"key":"2105","name":"Distretto di Lugano"},"canton":{"key":"21","code":"TI","name":"Ticino"},"status":"Real"},{"key":"10137787","name":"Corte dei Brilli","postalCode":"6944","locality":"Cureglia","commune":{"key":"5180","name":"Cureglia","shortName":"Cureglia"},"district":{"key":"2105","name":"Distretto di Lugano"},"canton":{"key":"21","code":"TI","name":"Ticino"},"status":"Real"},{"key":"10137789","name":"Curogna","postalCode":"6944","locality":"Cureglia","commune":{"key":"5180","name":"Cureglia","shortName":"Cureglia"},"district":{"key":"2105","name":"Distretto di Lugano"},"canton":{"key":"21","code":"TI","name":"Ticino"},"status":"Real"},{"key":"10170328","name":"Dolcianno","postalCode":"6944","locality":"Cureglia","commune":{"key":"5180","name":"Cureglia","shortName":"Cureglia"},"district":{"key":"2105","name":"Distretto di Lugano"},"canton":{"key":"21","code":"TI","name":"Ticino"},"status":"Real"},{"key":"10137790","name":"Dorona","postalCode":"6944","locality":"Cureglia","commune":{"key":"5180","name":"Cureglia","shortName":"Cureglia"},"district":{"key":"2105","name":"Distretto di Lugano"},"canton":{"key":"21","code":"TI","name":"Ticino"},"status":"Real"},{"key":"10137791","name":"Gaggio","postalCode":"6944","locality":"Cureglia","commune":{"key":"5180","name":"Cureglia","shortName":"Cureglia"},"district":{"key":"2105","name":"Distretto di Lugano"},"canton":{"key":"21","code":"TI","name":"Ticino"},"status":"Real"},{"key":"10137792","name":"Grotti","postalCode":"6944","locality":"Cureglia","commune":{"key":"5180","name":"Cureglia","shortName":"Cureglia"},"district":{"key":"2105","name":"Distretto di Lugano"},"canton":{"key":"21","code":"TI","name":"Ticino"},"status":"Real"},{"key":"10137793","name":"Mairolo","postalCode":"6944","locality":"Cureglia","commune":{"key":"5180","name":"Cureglia","shortName":"Cureglia"},"district":{"key":"2105","name":"Distretto di Lugano"},"canton":{"key":"21","code":"TI","name":"Ticino"},"status":"Real"},{"key":"10137794","name":"Monda","postalCode":"6944","locality":"Cureglia","commune":{"key":"5180","name":"Cureglia","shortName":"Cureglia"},"district":{"key":"2105","name":"Distretto di Lugano"},"canton":{"key":"21","code":"TI","name":"Ticino"},"status":"Real"},{"key":"10137795","name":"Moretto","postalCode":"6944","locality":"Cureglia","commune":{"key":"5180","name":"Cureglia","shortName":"Cureglia"},"district":{"key":"2105","name":"Distretto di Lugano"},"canton":{"key":"21","code":"TI","name":"Ticino"},"status":"Real"},{"key":"10137796","name":"Mornato","postalCode":"6944","locality":"Cureglia","commune":{"key":"5180","name":"Cureglia","shortName":"Cureglia"},"district":{"key":"2105","name":"Distretto di Lugano"},"canton":{"key":"21","code":"TI","name":"Ticino"},"status":"Real"},{"key":"10137797","name":"Mottarello","postalCode":"6944","locality":"Cureglia","commune":{"key":"5180","name":"Cureglia","shortName":"Cureglia"},"district":{"key":"2105","name":"Distretto di Lugano"},"canton":{"key":"21","code":"TI","name":"Ticino"},"status":"Real"},{"key":"10137798","name":"Motto","postalCode":"6944","locality":"Cureglia","commune":{"key":"5180","name":"Cureglia","shortName":"Cureglia"},"district":{"key":"2105","name":"Distretto di Lugano"},"canton":{"key":"21","code":"TI","name":"Ticino"},"status":"Real"},{"key":"10137799","name":"Nolina","postalCode":"6944","locality":"Cureglia","commune":{"key":"5180","name":"Cureglia","shortName":"Cureglia"},"district":{"key":"2105","name":"Distretto di Lugano"},"canton":{"key":"21","code":"TI","name":"Ticino"},"status":"Real"},{"key":"10137800","name":"Orti","postalCode":"6944","locality":"Cureglia","commune":{"key":"5180","name":"Cureglia","shortName":"Cureglia"},"district":{"key":"2105","name":"Distretto di Lugano"},"canton":{"key":"21","code":"TI","name":"Ticino"},"status":"Real"},{"key":"10137801","name":"Orti di Gaggio","postalCode":"6944","locality":"Cureglia","commune":{"key":"5180","name":"Cureglia","shortName":"Cureglia"},"district":{"key":"2105","name":"Distretto di Lugano"},"canton":{"key":"21","code":"TI","name":"Ticino"},"status":"Real"},{"key":"10137802","name":"Piana","postalCode":"6944","locality":"Cureglia","commune":{"key":"5180","name":"Cureglia","shortName":"Cureglia"},"district":{"key":"2105","name":"Distretto di Lugano"},"canton":{"key":"21","code":"TI","name":"Ticino"},"status":"Real"},{"key":"10137803","name":"Pianello","postalCode":"6944","locality":"Cureglia","commune":{"key":"5180","name":"Cureglia","shortName":"Cureglia"},"district":{"key":"2105","name":"Distretto di Lugano"},"canton":{"key":"21","code":"TI","name":"Ticino"},"status":"Real"},{"key":"10126860","name":"Pianone","postalCode":"6944","locality":"Cureglia","commune":{"key":"5180","name":"Cureglia","shortName":"Cureglia"},"district":{"key":"2105","name":"Distretto di Lugano"},"canton":{"key":"21","code":"TI","name":"Ticino"},"status":"Real"},{"key":"10137804","name":"Piazzetta dei Tarilli","postalCode":"6944","locality":"Cureglia","commune":{"key":"5180","name":"Cureglia","shortName":"Cureglia"},"district":{"key":"2105","name":"Distretto di Lugano"},"canton":{"key":"21","code":"TI","name":"Ticino"},"status":"Real"},{"key":"10137805","name":"Possessione","postalCode":"6944","locality":"Cureglia","commune":{"key":"5180","name":"Cureglia","shortName":"Cureglia"},"district":{"key":"2105","name":"Distretto di Lugano"},"canton":{"key":"21","code":"TI","name":"Ticino"},"status":"Real"},{"key":"10137806","name":"Pozzuolo","postalCode":"6944","locality":"Cureglia","commune":{"key":"5180","name":"Cureglia","shortName":"Cureglia"},"district":{"key":"2105","name":"Distretto di Lugano"},"canton":{"key":"21","code":"TI","name":"Ticino"},"status":"Real"},{"key":"10137807","name":"Prato Grande","postalCode":"6944","locality":"Cureglia","commune":{"key":"5180","name":"Cureglia","shortName":"Cureglia"},"district":{"key":"2105","name":"Distretto di Lugano"},"canton":{"key":"21","code":"TI","name":"Ticino"},"status":"Real"},{"key":"10138872","name":"Prée","postalCode":"6944","locality":"Cureglia","commune":{"key":"5180","name":"Cureglia","shortName":"Cureglia"},"district":{"key":"2105","name":"Distretto di Lugano"},"canton":{"key":"21","code":"TI","name":"Ticino"},"status":"Real"},{"key":"10138873","name":"Quadrèla","postalCode":"6944","locality":"Cureglia","commune":{"key":"5180","name":"Cureglia","shortName":"Cureglia"},"district":{"key":"2105","name":"Distretto di Lugano"},"canton":{"key":"21","code":"TI","name":"Ticino"},"status":"Real"},{"key":"10138874","name":"Ranco","postalCode":"6944","locality":"Cureglia","commune":{"key":"5180","name":"Cureglia","shortName":"Cureglia"},"district":{"key":"2105","name":"Distretto di Lugano"},"canton":{"key":"21","code":"TI","name":"Ticino"},"status":"Real"},{"key":"10138875","name":"Roccolo","postalCode":"6944","locality":"Cureglia","commune":{"key":"5180","name":"Cureglia","shortName":"Cureglia"},"district":{"key":"2105","name":"Distretto di Lugano"},"canton":{"key":"21","code":"TI","name":"Ticino"},"status":"Real"},{"key":"10138876","name":"Ronchetto","postalCode":"6944","locality":"Cureglia","commune":{"key":"5180","name":"Cureglia","shortName":"Cureglia"},"district":{"key":"2105","name":"Distretto di Lugano"},"canton":{"key":"21","code":"TI","name":"Ticino"},"status":"Real"},{"key":"10138877","name":"San Giuseppe","postalCode":"6944","locality":"Cureglia","commune":{"key":"5180","name":"Cureglia","shortName":"Cureglia"},"district":{"key":"2105","name":"Distretto di Lugano"},"canton":{"key":"21","code":"TI","name":"Ticino"},"status":"Real"},{"key":"10138878","name":"Selve Selvatiche","postalCode":"6944","locality":"Cureglia","commune":{"key":"5180","name":"Cureglia","shortName":"Cureglia"},"district":{"key":"2105","name":"Distretto di Lugano"},"canton":{"key":"21","code":"TI","name":"Ticino"},"status":"Real"},{"key":"10138885","name":"Tarì-Cippo","postalCode":"6944","locality":"Cureglia","commune":{"key":"5180","name":"Cureglia","shortName":"Cureglia"},"district":{"key":"2105","name":"Distretto di Lugano"},"canton":{"key":"21","code":"TI","name":"Ticino"},"status":"Real"},{"key":"10138879","name":"Tossello","postalCode":"6944","locality":"Cureglia","commune":{"key":"5180","name":"Cureglia","shortName":"Cureglia"},"district":{"key":"2105","name":"Distretto di Lugano"},"canton":{"key":"21","code":"TI","name":"Ticino"},"status":"Real"},{"key":"10138880","name":"Treversée","postalCode":"6944","locality":"Cureglia","commune":{"key":"5180","name":"Cureglia","shortName":"Cureglia"},"district":{"key":"2105","name":"Distretto di Lugano"},"canton":{"key":"21","code":"TI","name":"Ticino"},"status":"Real"},{"key":"10138881","name":"Valle della Chiesa","postalCode":"6944","locality":"Cureglia","commune":{"key":"5180","name":"Cureglia","shortName":"Cureglia"},"district":{"key":"2105","name":"Distretto di Lugano"},"canton":{"key":"21","code":"TI","name":"Ticino"},"status":"Real"},{"key":"10138882","name":"Vallegella","postalCode":"6944","locality":"Cureglia","commune":{"key":"5180","name":"Cureglia","shortName":"Cureglia"},"district":{"key":"2105","name":"Distretto di Lugano"},"canton":{"key":"21","code":"TI","name":"Ticino"},"status":"Real"},{"key":"10138883","name":"Vestoscia","postalCode":"6944","locality":"Cureglia","commune":{"key":"5180","name":"Cureglia","shortName":"Cureglia"},"district":{"key":"2105","name":"Distretto di Lugano"},"canton":{"key":"21","code":"TI","name":"Ticino"},"status":"Real"},{"key":"10138793","name":"Via Brughi","postalCode":"6944","locality":"Cureglia","commune":{"key":"5180","name":"Cureglia","shortName":"Cureglia"},"district":{"key":"2105","name":"Distretto di Lugano"},"canton":{"key":"21","code":"TI","name":"Ticino"},"status":"Real"},{"key":"10138886","name":"Vicolo dei Saroli","postalCode":"6944","locality":"Cureglia","commune":{"key":"5180","name":"Cureglia","shortName":"Cureglia"},"district":{"key":"2105","name":"Distretto di Lugano"},"canton":{"key":"21","code":"TI","name":"Ticino"},"status":"Real"},{"key":"10138887","name":"Vicolo dei Tarilli","postalCode":"6944","locality":"Cureglia","commune":{"key":"5180","name":"Cureglia","shortName":"Cureglia"},"district":{"key":"2105","name":"Distretto di Lugano"},"canton":{"key":"21","code":"TI","name":"Ticino"},"status":"Real"},]