[{"name":"Albert-Geiger-Str.","postalCode":"82407","locality":"Wielenbach","municipality":{"key":"09190159","name":"Wielenbach","type":"Kreisangehörige_Gemeinde"},"district":{"key":"09190","name":"Weilheim-Schongau","type":"Landkreis"},"federalState":{"key":"09","name":"Bayern"}},{"name":"Alpspitzstr.","postalCode":"82407","locality":"Wielenbach","municipality":{"key":"09190159","name":"Wielenbach","type":"Kreisangehörige_Gemeinde"},"district":{"key":"09190","name":"Weilheim-Schongau","type":"Landkreis"},"federalState":{"key":"09","name":"Bayern"}},{"name":"Alter Schulweg","postalCode":"21723","locality":"Hollern-Twielenfleth","municipality":{"key":"03359026","name":"Hollern-Twielenfleth","type":"Kreisangehörige_Gemeinde"},"district":{"key":"03359","name":"Stade","type":"Landkreis"},"federalState":{"key":"03","name":"Niedersachsen"}},{"name":"Altländer Ring","postalCode":"21723","locality":"Hollern-Twielenfleth","municipality":{"key":"03359026","name":"Hollern-Twielenfleth","type":"Kreisangehörige_Gemeinde"},"district":{"key":"03359","name":"Stade","type":"Landkreis"},"federalState":{"key":"03","name":"Niedersachsen"}},{"name":"Am Anger","postalCode":"82407","locality":"Wielenbach","municipality":{"key":"09190159","name":"Wielenbach","type":"Kreisangehörige_Gemeinde"},"district":{"key":"09190","name":"Weilheim-Schongau","type":"Landkreis"},"federalState":{"key":"09","name":"Bayern"}},{"name":"Am Blagschenberge","postalCode":"49847","locality":"Wielen","municipality":{"key":"03456024","name":"Wielen","type":"Kreisangehörige_Gemeinde"},"district":{"key":"03456","name":"Grafschaft Bentheim","type":"Landkreis"},"federalState":{"key":"03","name":"Niedersachsen"}},{"name":"Am Burgstall","postalCode":"82407","locality":"Wielenbach","municipality":{"key":"09190159","name":"Wielenbach","type":"Kreisangehörige_Gemeinde"},"district":{"key":"09190","name":"Weilheim-Schongau","type":"Landkreis"},"federalState":{"key":"09","name":"Bayern"}},{"name":"Am Hinterfeld","postalCode":"82407","locality":"Wielenbach","municipality":{"key":"09190159","name":"Wielenbach","type":"Kreisangehörige_Gemeinde"},"district":{"key":"09190","name":"Weilheim-Schongau","type":"Landkreis"},"federalState":{"key":"09","name":"Bayern"}},{"name":"Am Landweg","postalCode":"21723","locality":"Hollern-Twielenfleth","municipality":{"key":"03359026","name":"Hollern-Twielenfleth","type":"Kreisangehörige_Gemeinde"},"district":{"key":"03359","name":"Stade","type":"Landkreis"},"federalState":{"key":"03","name":"Niedersachsen"}},{"name":"Am Mitterfeld","postalCode":"82407","locality":"Wielenbach","municipality":{"key":"09190159","name":"Wielenbach","type":"Kreisangehörige_Gemeinde"},"district":{"key":"09190","name":"Weilheim-Schongau","type":"Landkreis"},"federalState":{"key":"09","name":"Bayern"}},{"name":"Am Park","postalCode":"49847","locality":"Wielen","municipality":{"key":"03456024","name":"Wielen","type":"Kreisangehörige_Gemeinde"},"district":{"key":"03456","name":"Grafschaft Bentheim","type":"Landkreis"},"federalState":{"key":"03","name":"Niedersachsen"}},{"name":"Am Rain","postalCode":"82407","locality":"Wielenbach","municipality":{"key":"09190159","name":"Wielenbach","type":"Kreisangehörige_Gemeinde"},"district":{"key":"09190","name":"Weilheim-Schongau","type":"Landkreis"},"federalState":{"key":"09","name":"Bayern"}},{"name":"Am Schießstand","postalCode":"21723","locality":"Hollern-Twielenfleth","municipality":{"key":"03359026","name":"Hollern-Twielenfleth","type":"Kreisangehörige_Gemeinde"},"district":{"key":"03359","name":"Stade","type":"Landkreis"},"federalState":{"key":"03","name":"Niedersachsen"}},{"name":"Am Schlehenring","postalCode":"82407","locality":"Wielenbach","municipality":{"key":"09190159","name":"Wielenbach","type":"Kreisangehörige_Gemeinde"},"district":{"key":"09190","name":"Weilheim-Schongau","type":"Landkreis"},"federalState":{"key":"09","name":"Bayern"}},{"name":"Am Seebichl","postalCode":"82407","locality":"Wielenbach","municipality":{"key":"09190159","name":"Wielenbach","type":"Kreisangehörige_Gemeinde"},"district":{"key":"09190","name":"Weilheim-Schongau","type":"Landkreis"},"federalState":{"key":"09","name":"Bayern"}},{"name":"Amselweg","postalCode":"82407","locality":"Wielenbach","municipality":{"key":"09190159","name":"Wielenbach","type":"Kreisangehörige_Gemeinde"},"district":{"key":"09190","name":"Weilheim-Schongau","type":"Landkreis"},"federalState":{"key":"09","name":"Bayern"}},{"name":"Am Spatzenberg","postalCode":"82407","locality":"Wielenbach","municipality":{"key":"09190159","name":"Wielenbach","type":"Kreisangehörige_Gemeinde"},"district":{"key":"09190","name":"Weilheim-Schongau","type":"Landkreis"},"federalState":{"key":"09","name":"Bayern"}},{"name":"Am Sportplatz","postalCode":"82407","locality":"Wielenbach","municipality":{"key":"09190159","name":"Wielenbach","type":"Kreisangehörige_Gemeinde"},"district":{"key":"09190","name":"Weilheim-Schongau","type":"Landkreis"},"federalState":{"key":"09","name":"Bayern"}},{"name":"Am Waldrand","postalCode":"49847","locality":"Wielen","municipality":{"key":"03456024","name":"Wielen","type":"Kreisangehörige_Gemeinde"},"district":{"key":"03456","name":"Grafschaft Bentheim","type":"Landkreis"},"federalState":{"key":"03","name":"Niedersachsen"}},{"name":"Am Wegen","postalCode":"21723","locality":"Hollern-Twielenfleth","municipality":{"key":"03359026","name":"Hollern-Twielenfleth","type":"Kreisangehörige_Gemeinde"},"district":{"key":"03359","name":"Stade","type":"Landkreis"},"federalState":{"key":"03","name":"Niedersachsen"}},{"name":"Am Westend","postalCode":"82407","locality":"Wielenbach","municipality":{"key":"09190159","name":"Wielenbach","type":"Kreisangehörige_Gemeinde"},"district":{"key":"09190","name":"Weilheim-Schongau","type":"Landkreis"},"federalState":{"key":"09","name":"Bayern"}},{"name":"Am Winkel","postalCode":"82407","locality":"Wielenbach","municipality":{"key":"09190159","name":"Wielenbach","type":"Kreisangehörige_Gemeinde"},"district":{"key":"09190","name":"Weilheim-Schongau","type":"Landkreis"},"federalState":{"key":"09","name":"Bayern"}},{"name":"An der Eilwettern","postalCode":"21723","locality":"Hollern-Twielenfleth","municipality":{"key":"03359026","name":"Hollern-Twielenfleth","type":"Kreisangehörige_Gemeinde"},"district":{"key":"03359","name":"Stade","type":"Landkreis"},"federalState":{"key":"03","name":"Niedersachsen"}},{"name":"An'n Meinkenhoff","postalCode":"21723","locality":"Hollern-Twielenfleth","municipality":{"key":"03359026","name":"Hollern-Twielenfleth","type":"Kreisangehörige_Gemeinde"},"district":{"key":"03359","name":"Stade","type":"Landkreis"},"federalState":{"key":"03","name":"Niedersachsen"}},{"name":"Auenweg","postalCode":"82407","locality":"Wielenbach","municipality":{"key":"09190159","name":"Wielenbach","type":"Kreisangehörige_Gemeinde"},"district":{"key":"09190","name":"Weilheim-Schongau","type":"Landkreis"},"federalState":{"key":"09","name":"Bayern"}},{"name":"Bachstr.","postalCode":"82407","locality":"Wielenbach","municipality":{"key":"09190159","name":"Wielenbach","type":"Kreisangehörige_Gemeinde"},"district":{"key":"09190","name":"Weilheim-Schongau","type":"Landkreis"},"federalState":{"key":"09","name":"Bayern"}},{"name":"Bahnhofsallee","postalCode":"82407","locality":"Wielenbach","municipality":{"key":"09190159","name":"Wielenbach","type":"Kreisangehörige_Gemeinde"},"district":{"key":"09190","name":"Weilheim-Schongau","type":"Landkreis"},"federalState":{"key":"09","name":"Bayern"}},{"name":"Balderhaar","postalCode":"49847","locality":"Wielen","municipality":{"key":"03456024","name":"Wielen","type":"Kreisangehörige_Gemeinde"},"district":{"key":"03456","name":"Grafschaft Bentheim","type":"Landkreis"},"federalState":{"key":"03","name":"Niedersachsen"}},{"name":"Bassenfleth","postalCode":"21723","locality":"Hollern-Twielenfleth","municipality":{"key":"03359026","name":"Hollern-Twielenfleth","type":"Kreisangehörige_Gemeinde"},"district":{"key":"03359","name":"Stade","type":"Landkreis"},"federalState":{"key":"03","name":"Niedersachsen"}},{"name":"Bassenflether Chaussee","postalCode":"21723","locality":"Hollern-Twielenfleth","municipality":{"key":"03359026","name":"Hollern-Twielenfleth","type":"Kreisangehörige_Gemeinde"},"district":{"key":"03359","name":"Stade","type":"Landkreis"},"federalState":{"key":"03","name":"Niedersachsen"}},{"name":"Bergknappstr.","postalCode":"82407","locality":"Wielenbach","municipality":{"key":"09190159","name":"Wielenbach","type":"Kreisangehörige_Gemeinde"},"district":{"key":"09190","name":"Weilheim-Schongau","type":"Landkreis"},"federalState":{"key":"09","name":"Bayern"}},{"name":"Bergweg","postalCode":"82407","locality":"Wielenbach","municipality":{"key":"09190159","name":"Wielenbach","type":"Kreisangehörige_Gemeinde"},"district":{"key":"09190","name":"Weilheim-Schongau","type":"Landkreis"},"federalState":{"key":"09","name":"Bayern"}},{"name":"Bi de School","postalCode":"21723","locality":"Hollern-Twielenfleth","municipality":{"key":"03359026","name":"Hollern-Twielenfleth","type":"Kreisangehörige_Gemeinde"},"district":{"key":"03359","name":"Stade","type":"Landkreis"},"federalState":{"key":"03","name":"Niedersachsen"}},{"name":"Blumenstr.","postalCode":"82407","locality":"Wielenbach","municipality":{"key":"09190159","name":"Wielenbach","type":"Kreisangehörige_Gemeinde"},"district":{"key":"09190","name":"Weilheim-Schongau","type":"Landkreis"},"federalState":{"key":"09","name":"Bayern"}},{"name":"Blütenweg","postalCode":"82407","locality":"Wielenbach","municipality":{"key":"09190159","name":"Wielenbach","type":"Kreisangehörige_Gemeinde"},"district":{"key":"09190","name":"Weilheim-Schongau","type":"Landkreis"},"federalState":{"key":"09","name":"Bayern"}},{"name":"Brunnenbachstr.","postalCode":"82407","locality":"Wielenbach","municipality":{"key":"09190159","name":"Wielenbach","type":"Kreisangehörige_Gemeinde"},"district":{"key":"09190","name":"Weilheim-Schongau","type":"Landkreis"},"federalState":{"key":"09","name":"Bayern"}},{"name":"Buchenweg","postalCode":"82407","locality":"Wielenbach","municipality":{"key":"09190159","name":"Wielenbach","type":"Kreisangehörige_Gemeinde"},"district":{"key":"09190","name":"Weilheim-Schongau","type":"Landkreis"},"federalState":{"key":"09","name":"Bayern"}},{"name":"Demollstr.","postalCode":"82407","locality":"Wielenbach","municipality":{"key":"09190159","name":"Wielenbach","type":"Kreisangehörige_Gemeinde"},"district":{"key":"09190","name":"Weilheim-Schongau","type":"Landkreis"},"federalState":{"key":"09","name":"Bayern"}},{"name":"Doosendiek","postalCode":"49847","locality":"Wielen","municipality":{"key":"03456024","name":"Wielen","type":"Kreisangehörige_Gemeinde"},"district":{"key":"03456","name":"Grafschaft Bentheim","type":"Landkreis"},"federalState":{"key":"03","name":"Niedersachsen"}},{"name":"Dorfstr.","postalCode":"49847","locality":"Wielen","municipality":{"key":"03456024","name":"Wielen","type":"Kreisangehörige_Gemeinde"},"district":{"key":"03456","name":"Grafschaft Bentheim","type":"Landkreis"},"federalState":{"key":"03","name":"Niedersachsen"}},{"name":"Dorfstr.","postalCode":"82407","locality":"Wielenbach","municipality":{"key":"09190159","name":"Wielenbach","type":"Kreisangehörige_Gemeinde"},"district":{"key":"09190","name":"Weilheim-Schongau","type":"Landkreis"},"federalState":{"key":"09","name":"Bayern"}},{"name":"Dr.-Edith-Ebers-Str.","postalCode":"82407","locality":"Wielenbach","municipality":{"key":"09190159","name":"Wielenbach","type":"Kreisangehörige_Gemeinde"},"district":{"key":"09190","name":"Weilheim-Schongau","type":"Landkreis"},"federalState":{"key":"09","name":"Bayern"}},{"name":"Durchweg","postalCode":"21723","locality":"Hollern-Twielenfleth","municipality":{"key":"03359026","name":"Hollern-Twielenfleth","type":"Kreisangehörige_Gemeinde"},"district":{"key":"03359","name":"Stade","type":"Landkreis"},"federalState":{"key":"03","name":"Niedersachsen"}},{"name":"Edelweißstr.","postalCode":"82407","locality":"Wielenbach","municipality":{"key":"09190159","name":"Wielenbach","type":"Kreisangehörige_Gemeinde"},"district":{"key":"09190","name":"Weilheim-Schongau","type":"Landkreis"},"federalState":{"key":"09","name":"Bayern"}},{"name":"Egger Str.","postalCode":"49847","locality":"Wielen","municipality":{"key":"03456024","name":"Wielen","type":"Kreisangehörige_Gemeinde"},"district":{"key":"03456","name":"Grafschaft Bentheim","type":"Landkreis"},"federalState":{"key":"03","name":"Niedersachsen"}},{"name":"Eichenweg","postalCode":"82407","locality":"Wielenbach","municipality":{"key":"09190159","name":"Wielenbach","type":"Kreisangehörige_Gemeinde"},"district":{"key":"09190","name":"Weilheim-Schongau","type":"Landkreis"},"federalState":{"key":"09","name":"Bayern"}},{"name":"Emlichheimer Str.","postalCode":"49847","locality":"Wielen","municipality":{"key":"03456024","name":"Wielen","type":"Kreisangehörige_Gemeinde"},"district":{"key":"03456","name":"Grafschaft Bentheim","type":"Landkreis"},"federalState":{"key":"03","name":"Niedersachsen"}},{"name":"Enzianweg","postalCode":"82407","locality":"Wielenbach","municipality":{"key":"09190159","name":"Wielenbach","type":"Kreisangehörige_Gemeinde"},"district":{"key":"09190","name":"Weilheim-Schongau","type":"Landkreis"},"federalState":{"key":"09","name":"Bayern"}},{"name":"Eschenweg","postalCode":"82407","locality":"Wielenbach","municipality":{"key":"09190159","name":"Wielenbach","type":"Kreisangehörige_Gemeinde"},"district":{"key":"09190","name":"Weilheim-Schongau","type":"Landkreis"},"federalState":{"key":"09","name":"Bayern"}},{"name":"Fasanenweg","postalCode":"82407","locality":"Wielenbach","municipality":{"key":"09190159","name":"Wielenbach","type":"Kreisangehörige_Gemeinde"},"district":{"key":"09190","name":"Weilheim-Schongau","type":"Landkreis"},"federalState":{"key":"09","name":"Bayern"}},{"name":"Feriendorf Altes Land","postalCode":"21723","locality":"Hollern-Twielenfleth","municipality":{"key":"03359026","name":"Hollern-Twielenfleth","type":"Kreisangehörige_Gemeinde"},"district":{"key":"03359","name":"Stade","type":"Landkreis"},"federalState":{"key":"03","name":"Niedersachsen"}},{"name":"Fichtenstr.","postalCode":"82407","locality":"Wielenbach","municipality":{"key":"09190159","name":"Wielenbach","type":"Kreisangehörige_Gemeinde"},"district":{"key":"09190","name":"Weilheim-Schongau","type":"Landkreis"},"federalState":{"key":"09","name":"Bayern"}},{"name":"Fischerweg","postalCode":"82407","locality":"Wielenbach","municipality":{"key":"09190159","name":"Wielenbach","type":"Kreisangehörige_Gemeinde"},"district":{"key":"09190","name":"Weilheim-Schongau","type":"Landkreis"},"federalState":{"key":"09","name":"Bayern"}},{"name":"Fliederweg","postalCode":"82407","locality":"Wielenbach","municipality":{"key":"09190159","name":"Wielenbach","type":"Kreisangehörige_Gemeinde"},"district":{"key":"09190","name":"Weilheim-Schongau","type":"Landkreis"},"federalState":{"key":"09","name":"Bayern"}},{"name":"Föhrenstr.","postalCode":"82407","locality":"Wielenbach","municipality":{"key":"09190159","name":"Wielenbach","type":"Kreisangehörige_Gemeinde"},"district":{"key":"09190","name":"Weilheim-Schongau","type":"Landkreis"},"federalState":{"key":"09","name":"Bayern"}},{"name":"Forellenweg","postalCode":"82407","locality":"Wielenbach","municipality":{"key":"09190159","name":"Wielenbach","type":"Kreisangehörige_Gemeinde"},"district":{"key":"09190","name":"Weilheim-Schongau","type":"Landkreis"},"federalState":{"key":"09","name":"Bayern"}},{"name":"Forster Str.","postalCode":"82407","locality":"Wielenbach","municipality":{"key":"09190159","name":"Wielenbach","type":"Kreisangehörige_Gemeinde"},"district":{"key":"09190","name":"Weilheim-Schongau","type":"Landkreis"},"federalState":{"key":"09","name":"Bayern"}},{"name":"Friedhofsweg","postalCode":"82407","locality":"Wielenbach","municipality":{"key":"09190159","name":"Wielenbach","type":"Kreisangehörige_Gemeinde"},"district":{"key":"09190","name":"Weilheim-Schongau","type":"Landkreis"},"federalState":{"key":"09","name":"Bayern"}},{"name":"Gallusstr.","postalCode":"82407","locality":"Wielenbach","municipality":{"key":"09190159","name":"Wielenbach","type":"Kreisangehörige_Gemeinde"},"district":{"key":"09190","name":"Weilheim-Schongau","type":"Landkreis"},"federalState":{"key":"09","name":"Bayern"}},{"name":"Gartenstr.","postalCode":"82407","locality":"Wielenbach","municipality":{"key":"09190159","name":"Wielenbach","type":"Kreisangehörige_Gemeinde"},"district":{"key":"09190","name":"Weilheim-Schongau","type":"Landkreis"},"federalState":{"key":"09","name":"Bayern"}},{"name":"Goppeltsriederstr.","postalCode":"82407","locality":"Wielenbach","municipality":{"key":"09190159","name":"Wielenbach","type":"Kreisangehörige_Gemeinde"},"district":{"key":"09190","name":"Weilheim-Schongau","type":"Landkreis"},"federalState":{"key":"09","name":"Bayern"}},{"name":"Gorigasse","postalCode":"82407","locality":"Wielenbach","municipality":{"key":"09190159","name":"Wielenbach","type":"Kreisangehörige_Gemeinde"},"district":{"key":"09190","name":"Weilheim-Schongau","type":"Landkreis"},"federalState":{"key":"09","name":"Bayern"}},{"name":"Grünbachstr.","postalCode":"82407","locality":"Wielenbach","municipality":{"key":"09190159","name":"Wielenbach","type":"Kreisangehörige_Gemeinde"},"district":{"key":"09190","name":"Weilheim-Schongau","type":"Landkreis"},"federalState":{"key":"09","name":"Bayern"}},{"name":"Grüner Weg","postalCode":"21723","locality":"Hollern-Twielenfleth","municipality":{"key":"03359026","name":"Hollern-Twielenfleth","type":"Kreisangehörige_Gemeinde"},"district":{"key":"03359","name":"Stade","type":"Landkreis"},"federalState":{"key":"03","name":"Niedersachsen"}},{"name":"Hardtstr.","postalCode":"82407","locality":"Wielenbach","municipality":{"key":"09190159","name":"Wielenbach","type":"Kreisangehörige_Gemeinde"},"district":{"key":"09190","name":"Weilheim-Schongau","type":"Landkreis"},"federalState":{"key":"09","name":"Bayern"}},{"name":"Haunshofer Weg","postalCode":"82407","locality":"Wielenbach","municipality":{"key":"09190159","name":"Wielenbach","type":"Kreisangehörige_Gemeinde"},"district":{"key":"09190","name":"Weilheim-Schongau","type":"Landkreis"},"federalState":{"key":"09","name":"Bayern"}},{"name":"Hauptstr.","postalCode":"49847","locality":"Wielen","municipality":{"key":"03456024","name":"Wielen","type":"Kreisangehörige_Gemeinde"},"district":{"key":"03456","name":"Grafschaft Bentheim","type":"Landkreis"},"federalState":{"key":"03","name":"Niedersachsen"}},{"name":"Hauptstr.","postalCode":"82407","locality":"Wielenbach","municipality":{"key":"09190159","name":"Wielenbach","type":"Kreisangehörige_Gemeinde"},"district":{"key":"09190","name":"Weilheim-Schongau","type":"Landkreis"},"federalState":{"key":"09","name":"Bayern"}},{"name":"Heimgartenstr.","postalCode":"82407","locality":"Wielenbach","municipality":{"key":"09190159","name":"Wielenbach","type":"Kreisangehörige_Gemeinde"},"district":{"key":"09190","name":"Weilheim-Schongau","type":"Landkreis"},"federalState":{"key":"09","name":"Bayern"}},{"name":"Herzogstandstr.","postalCode":"82407","locality":"Wielenbach","municipality":{"key":"09190159","name":"Wielenbach","type":"Kreisangehörige_Gemeinde"},"district":{"key":"09190","name":"Weilheim-Schongau","type":"Landkreis"},"federalState":{"key":"09","name":"Bayern"}},{"name":"Hinterdeich","postalCode":"21723","locality":"Hollern-Twielenfleth","municipality":{"key":"03359026","name":"Hollern-Twielenfleth","type":"Kreisangehörige_Gemeinde"},"district":{"key":"03359","name":"Stade","type":"Landkreis"},"federalState":{"key":"03","name":"Niedersachsen"}},{"name":"Hinterstr.","postalCode":"21723","locality":"Hollern-Twielenfleth","municipality":{"key":"03359026","name":"Hollern-Twielenfleth","type":"Kreisangehörige_Gemeinde"},"district":{"key":"03359","name":"Stade","type":"Landkreis"},"federalState":{"key":"03","name":"Niedersachsen"}},{"name":"Hirschbergstr.","postalCode":"82407","locality":"Wielenbach","municipality":{"key":"09190159","name":"Wielenbach","type":"Kreisangehörige_Gemeinde"},"district":{"key":"09190","name":"Weilheim-Schongau","type":"Landkreis"},"federalState":{"key":"09","name":"Bayern"}},{"name":"Hirtenweg","postalCode":"82407","locality":"Wielenbach","municipality":{"key":"09190159","name":"Wielenbach","type":"Kreisangehörige_Gemeinde"},"district":{"key":"09190","name":"Weilheim-Schongau","type":"Landkreis"},"federalState":{"key":"09","name":"Bayern"}},{"name":"Hoferstr.","postalCode":"82407","locality":"Wielenbach","municipality":{"key":"09190159","name":"Wielenbach","type":"Kreisangehörige_Gemeinde"},"district":{"key":"09190","name":"Weilheim-Schongau","type":"Landkreis"},"federalState":{"key":"09","name":"Bayern"}},{"name":"Hollerbergstr.","postalCode":"82407","locality":"Wielenbach","municipality":{"key":"09190159","name":"Wielenbach","type":"Kreisangehörige_Gemeinde"},"district":{"key":"09190","name":"Weilheim-Schongau","type":"Landkreis"},"federalState":{"key":"09","name":"Bayern"}},{"name":"Hollernstr.","postalCode":"21723","locality":"Hollern-Twielenfleth","municipality":{"key":"03359026","name":"Hollern-Twielenfleth","type":"Kreisangehörige_Gemeinde"},"district":{"key":"03359","name":"Stade","type":"Landkreis"},"federalState":{"key":"03","name":"Niedersachsen"}},{"name":"Hooge Weg","postalCode":"49847","locality":"Wielen","municipality":{"key":"03456024","name":"Wielen","type":"Kreisangehörige_Gemeinde"},"district":{"key":"03456","name":"Grafschaft Bentheim","type":"Landkreis"},"federalState":{"key":"03","name":"Niedersachsen"}},{"name":"Hörne","postalCode":"21723","locality":"Hollern-Twielenfleth","municipality":{"key":"03359026","name":"Hollern-Twielenfleth","type":"Kreisangehörige_Gemeinde"},"district":{"key":"03359","name":"Stade","type":"Landkreis"},"federalState":{"key":"03","name":"Niedersachsen"}},{"name":"Hörnlestr.","postalCode":"82407","locality":"Wielenbach","municipality":{"key":"09190159","name":"Wielenbach","type":"Kreisangehörige_Gemeinde"},"district":{"key":"09190","name":"Weilheim-Schongau","type":"Landkreis"},"federalState":{"key":"09","name":"Bayern"}},{"name":"Im Gögenreis","postalCode":"82407","locality":"Wielenbach","municipality":{"key":"09190159","name":"Wielenbach","type":"Kreisangehörige_Gemeinde"},"district":{"key":"09190","name":"Weilheim-Schongau","type":"Landkreis"},"federalState":{"key":"09","name":"Bayern"}},{"name":"Immenweg","postalCode":"82407","locality":"Wielenbach","municipality":{"key":"09190159","name":"Wielenbach","type":"Kreisangehörige_Gemeinde"},"district":{"key":"09190","name":"Weilheim-Schongau","type":"Landkreis"},"federalState":{"key":"09","name":"Bayern"}},{"name":"Im Taubenkamp","postalCode":"21723","locality":"Hollern-Twielenfleth","municipality":{"key":"03359026","name":"Hollern-Twielenfleth","type":"Kreisangehörige_Gemeinde"},"district":{"key":"03359","name":"Stade","type":"Landkreis"},"federalState":{"key":"03","name":"Niedersachsen"}},{"name":"Industriestr.","postalCode":"49847","locality":"Wielen","municipality":{"key":"03456024","name":"Wielen","type":"Kreisangehörige_Gemeinde"},"district":{"key":"03456","name":"Grafschaft Bentheim","type":"Landkreis"},"federalState":{"key":"03","name":"Niedersachsen"}},{"name":"Josef Schmuzer Str.","postalCode":"82407","locality":"Wielenbach","municipality":{"key":"09190159","name":"Wielenbach","type":"Kreisangehörige_Gemeinde"},"district":{"key":"09190","name":"Weilheim-Schongau","type":"Landkreis"},"federalState":{"key":"09","name":"Bayern"}},{"name":"Karpfenweg","postalCode":"82407","locality":"Wielenbach","municipality":{"key":"09190159","name":"Wielenbach","type":"Kreisangehörige_Gemeinde"},"district":{"key":"09190","name":"Weilheim-Schongau","type":"Landkreis"},"federalState":{"key":"09","name":"Bayern"}},{"name":"Karwendelstr.","postalCode":"82407","locality":"Wielenbach","municipality":{"key":"09190159","name":"Wielenbach","type":"Kreisangehörige_Gemeinde"},"district":{"key":"09190","name":"Weilheim-Schongau","type":"Landkreis"},"federalState":{"key":"09","name":"Bayern"}},{"name":"Kirchenstr.","postalCode":"21723","locality":"Hollern-Twielenfleth","municipality":{"key":"03359026","name":"Hollern-Twielenfleth","type":"Kreisangehörige_Gemeinde"},"district":{"key":"03359","name":"Stade","type":"Landkreis"},"federalState":{"key":"03","name":"Niedersachsen"}},{"name":"Kirchstr.","postalCode":"82407","locality":"Wielenbach","municipality":{"key":"09190159","name":"Wielenbach","type":"Kreisangehörige_Gemeinde"},"district":{"key":"09190","name":"Weilheim-Schongau","type":"Landkreis"},"federalState":{"key":"09","name":"Bayern"}},{"name":"Kirchweg","postalCode":"82407","locality":"Wielenbach","municipality":{"key":"09190159","name":"Wielenbach","type":"Kreisangehörige_Gemeinde"},"district":{"key":"09190","name":"Weilheim-Schongau","type":"Landkreis"},"federalState":{"key":"09","name":"Bayern"}},{"name":"Kirschhoff","postalCode":"21723","locality":"Hollern-Twielenfleth","municipality":{"key":"03359026","name":"Hollern-Twielenfleth","type":"Kreisangehörige_Gemeinde"},"district":{"key":"03359","name":"Stade","type":"Landkreis"},"federalState":{"key":"03","name":"Niedersachsen"}},{"name":"Korbmacherweg","postalCode":"21723","locality":"Hollern-Twielenfleth","municipality":{"key":"03359026","name":"Hollern-Twielenfleth","type":"Kreisangehörige_Gemeinde"},"district":{"key":"03359","name":"Stade","type":"Landkreis"},"federalState":{"key":"03","name":"Niedersachsen"}},{"name":"Kreisstr.","postalCode":"49847","locality":"Wielen","municipality":{"key":"03456024","name":"Wielen","type":"Kreisangehörige_Gemeinde"},"district":{"key":"03456","name":"Grafschaft Bentheim","type":"Landkreis"},"federalState":{"key":"03","name":"Niedersachsen"}},{"name":"Kreuzbergstr.","postalCode":"82407","locality":"Wielenbach","municipality":{"key":"09190159","name":"Wielenbach","type":"Kreisangehörige_Gemeinde"},"district":{"key":"09190","name":"Weilheim-Schongau","type":"Landkreis"},"federalState":{"key":"09","name":"Bayern"}},{"name":"Kreuzeckstr.","postalCode":"82407","locality":"Wielenbach","municipality":{"key":"09190159","name":"Wielenbach","type":"Kreisangehörige_Gemeinde"},"district":{"key":"09190","name":"Weilheim-Schongau","type":"Landkreis"},"federalState":{"key":"09","name":"Bayern"}},{"name":"Kreuzweg","postalCode":"82407","locality":"Wielenbach","municipality":{"key":"09190159","name":"Wielenbach","type":"Kreisangehörige_Gemeinde"},"district":{"key":"09190","name":"Weilheim-Schongau","type":"Landkreis"},"federalState":{"key":"09","name":"Bayern"}},{"name":"Krottenkopfstr.","postalCode":"82407","locality":"Wielenbach","municipality":{"key":"09190159","name":"Wielenbach","type":"Kreisangehörige_Gemeinde"},"district":{"key":"09190","name":"Weilheim-Schongau","type":"Landkreis"},"federalState":{"key":"09","name":"Bayern"}},{"name":"Kurze Str.","postalCode":"21723","locality":"Hollern-Twielenfleth","municipality":{"key":"03359026","name":"Hollern-Twielenfleth","type":"Kreisangehörige_Gemeinde"},"district":{"key":"03359","name":"Stade","type":"Landkreis"},"federalState":{"key":"03","name":"Niedersachsen"}},{"name":"Laberstr.","postalCode":"82407","locality":"Wielenbach","municipality":{"key":"09190159","name":"Wielenbach","type":"Kreisangehörige_Gemeinde"},"district":{"key":"09190","name":"Weilheim-Schongau","type":"Landkreis"},"federalState":{"key":"09","name":"Bayern"}},{"name":"Langenbergstr.","postalCode":"82407","locality":"Wielenbach","municipality":{"key":"09190159","name":"Wielenbach","type":"Kreisangehörige_Gemeinde"},"district":{"key":"09190","name":"Weilheim-Schongau","type":"Landkreis"},"federalState":{"key":"09","name":"Bayern"}},{"name":"Lichtenauer Weg","postalCode":"82407","locality":"Wielenbach","municipality":{"key":"09190159","name":"Wielenbach","type":"Kreisangehörige_Gemeinde"},"district":{"key":"09190","name":"Weilheim-Schongau","type":"Landkreis"},"federalState":{"key":"09","name":"Bayern"}},{"name":"Lilienweg","postalCode":"82407","locality":"Wielenbach","municipality":{"key":"09190159","name":"Wielenbach","type":"Kreisangehörige_Gemeinde"},"district":{"key":"09190","name":"Weilheim-Schongau","type":"Landkreis"},"federalState":{"key":"09","name":"Bayern"}},{"name":"Lühesand","postalCode":"21723","locality":"Hollern-Twielenfleth","municipality":{"key":"03359026","name":"Hollern-Twielenfleth","type":"Kreisangehörige_Gemeinde"},"district":{"key":"03359","name":"Stade","type":"Landkreis"},"federalState":{"key":"03","name":"Niedersachsen"}},{"name":"Melau","postalCode":"21723","locality":"Hollern-Twielenfleth","municipality":{"key":"03359026","name":"Hollern-Twielenfleth","type":"Kreisangehörige_Gemeinde"},"district":{"key":"03359","name":"Stade","type":"Landkreis"},"federalState":{"key":"03","name":"Niedersachsen"}},{"name":"Melkweg","postalCode":"49847","locality":"Wielen","municipality":{"key":"03456024","name":"Wielen","type":"Kreisangehörige_Gemeinde"},"district":{"key":"03456","name":"Grafschaft Bentheim","type":"Landkreis"},"federalState":{"key":"03","name":"Niedersachsen"}},{"name":"Merowingerring","postalCode":"82407","locality":"Wielenbach","municipality":{"key":"09190159","name":"Wielenbach","type":"Kreisangehörige_Gemeinde"},"district":{"key":"09190","name":"Weilheim-Schongau","type":"Landkreis"},"federalState":{"key":"09","name":"Bayern"}},{"name":"Moosgarten","postalCode":"82407","locality":"Wielenbach","municipality":{"key":"09190159","name":"Wielenbach","type":"Kreisangehörige_Gemeinde"},"district":{"key":"09190","name":"Weilheim-Schongau","type":"Landkreis"},"federalState":{"key":"09","name":"Bayern"}},{"name":"Mühlenstr.","postalCode":"21723","locality":"Hollern-Twielenfleth","municipality":{"key":"03359026","name":"Hollern-Twielenfleth","type":"Kreisangehörige_Gemeinde"},"district":{"key":"03359","name":"Stade","type":"Landkreis"},"federalState":{"key":"03","name":"Niedersachsen"}},{"name":"Mühlenstr.","postalCode":"82407","locality":"Wielenbach","municipality":{"key":"09190159","name":"Wielenbach","type":"Kreisangehörige_Gemeinde"},"district":{"key":"09190","name":"Weilheim-Schongau","type":"Landkreis"},"federalState":{"key":"09","name":"Bayern"}},{"name":"Mühlenweg","postalCode":"21723","locality":"Hollern-Twielenfleth","municipality":{"key":"03359026","name":"Hollern-Twielenfleth","type":"Kreisangehörige_Gemeinde"},"district":{"key":"03359","name":"Stade","type":"Landkreis"},"federalState":{"key":"03","name":"Niedersachsen"}},{"name":"Mühlenweg","postalCode":"82407","locality":"Wielenbach","municipality":{"key":"09190159","name":"Wielenbach","type":"Kreisangehörige_Gemeinde"},"district":{"key":"09190","name":"Weilheim-Schongau","type":"Landkreis"},"federalState":{"key":"09","name":"Bayern"}},{"name":"Mühlrainstr.","postalCode":"82407","locality":"Wielenbach","municipality":{"key":"09190159","name":"Wielenbach","type":"Kreisangehörige_Gemeinde"},"district":{"key":"09190","name":"Weilheim-Schongau","type":"Landkreis"},"federalState":{"key":"09","name":"Bayern"}},{"name":"Nelkenstr.","postalCode":"82407","locality":"Wielenbach","municipality":{"key":"09190159","name":"Wielenbach","type":"Kreisangehörige_Gemeinde"},"district":{"key":"09190","name":"Weilheim-Schongau","type":"Landkreis"},"federalState":{"key":"09","name":"Bayern"}},{"name":"Ostendstr.","postalCode":"82407","locality":"Wielenbach","municipality":{"key":"09190159","name":"Wielenbach","type":"Kreisangehörige_Gemeinde"},"district":{"key":"09190","name":"Weilheim-Schongau","type":"Landkreis"},"federalState":{"key":"09","name":"Bayern"}},{"name":"Pähler Str.","postalCode":"82407","locality":"Wielenbach","municipality":{"key":"09190159","name":"Wielenbach","type":"Kreisangehörige_Gemeinde"},"district":{"key":"09190","name":"Weilheim-Schongau","type":"Landkreis"},"federalState":{"key":"09","name":"Bayern"}},{"name":"Peter-Kaufinger-Str.","postalCode":"82407","locality":"Wielenbach","municipality":{"key":"09190159","name":"Wielenbach","type":"Kreisangehörige_Gemeinde"},"district":{"key":"09190","name":"Weilheim-Schongau","type":"Landkreis"},"federalState":{"key":"09","name":"Bayern"}},{"name":"Postweg","postalCode":"49847","locality":"Wielen","municipality":{"key":"03456024","name":"Wielen","type":"Kreisangehörige_Gemeinde"},"district":{"key":"03456","name":"Grafschaft Bentheim","type":"Landkreis"},"federalState":{"key":"03","name":"Niedersachsen"}},{"name":"Primelstr.","postalCode":"82407","locality":"Wielenbach","municipality":{"key":"09190159","name":"Wielenbach","type":"Kreisangehörige_Gemeinde"},"district":{"key":"09190","name":"Weilheim-Schongau","type":"Landkreis"},"federalState":{"key":"09","name":"Bayern"}},{"name":"Rochusgasse","postalCode":"82407","locality":"Wielenbach","municipality":{"key":"09190159","name":"Wielenbach","type":"Kreisangehörige_Gemeinde"},"district":{"key":"09190","name":"Weilheim-Schongau","type":"Landkreis"},"federalState":{"key":"09","name":"Bayern"}},{"name":"Römerweg","postalCode":"82407","locality":"Wielenbach","municipality":{"key":"09190159","name":"Wielenbach","type":"Kreisangehörige_Gemeinde"},"district":{"key":"09190","name":"Weilheim-Schongau","type":"Landkreis"},"federalState":{"key":"09","name":"Bayern"}},{"name":"Rosenstr.","postalCode":"82407","locality":"Wielenbach","municipality":{"key":"09190159","name":"Wielenbach","type":"Kreisangehörige_Gemeinde"},"district":{"key":"09190","name":"Weilheim-Schongau","type":"Landkreis"},"federalState":{"key":"09","name":"Bayern"}},{"name":"Rudolf-Seeberger-Allee","postalCode":"82407","locality":"Wielenbach","municipality":{"key":"09190159","name":"Wielenbach","type":"Kreisangehörige_Gemeinde"},"district":{"key":"09190","name":"Weilheim-Schongau","type":"Landkreis"},"federalState":{"key":"09","name":"Bayern"}},{"name":"Schlottweg","postalCode":"82407","locality":"Wielenbach","municipality":{"key":"09190159","name":"Wielenbach","type":"Kreisangehörige_Gemeinde"},"district":{"key":"09190","name":"Weilheim-Schongau","type":"Landkreis"},"federalState":{"key":"09","name":"Bayern"}},{"name":"Schulgasse","postalCode":"82407","locality":"Wielenbach","municipality":{"key":"09190159","name":"Wielenbach","type":"Kreisangehörige_Gemeinde"},"district":{"key":"09190","name":"Weilheim-Schongau","type":"Landkreis"},"federalState":{"key":"09","name":"Bayern"}},{"name":"Schulstr.","postalCode":"82407","locality":"Wielenbach","municipality":{"key":"09190159","name":"Wielenbach","type":"Kreisangehörige_Gemeinde"},"district":{"key":"09190","name":"Weilheim-Schongau","type":"Landkreis"},"federalState":{"key":"09","name":"Bayern"}},{"name":"Schützstr.","postalCode":"82407","locality":"Wielenbach","municipality":{"key":"09190159","name":"Wielenbach","type":"Kreisangehörige_Gemeinde"},"district":{"key":"09190","name":"Weilheim-Schongau","type":"Landkreis"},"federalState":{"key":"09","name":"Bayern"}},{"name":"Schwalbenweg","postalCode":"82407","locality":"Wielenbach","municipality":{"key":"09190159","name":"Wielenbach","type":"Kreisangehörige_Gemeinde"},"district":{"key":"09190","name":"Weilheim-Schongau","type":"Landkreis"},"federalState":{"key":"09","name":"Bayern"}},{"name":"Siebenhöfen","postalCode":"21723","locality":"Hollern-Twielenfleth","municipality":{"key":"03359026","name":"Hollern-Twielenfleth","type":"Kreisangehörige_Gemeinde"},"district":{"key":"03359","name":"Stade","type":"Landkreis"},"federalState":{"key":"03","name":"Niedersachsen"}},{"name":"Siebenhöfener Feld","postalCode":"21723","locality":"Hollern-Twielenfleth","municipality":{"key":"03359026","name":"Hollern-Twielenfleth","type":"Kreisangehörige_Gemeinde"},"district":{"key":"03359","name":"Stade","type":"Landkreis"},"federalState":{"key":"03","name":"Niedersachsen"}},{"name":"Siedlerplatz","postalCode":"82407","locality":"Wielenbach","municipality":{"key":"09190159","name":"Wielenbach","type":"Kreisangehörige_Gemeinde"},"district":{"key":"09190","name":"Weilheim-Schongau","type":"Landkreis"},"federalState":{"key":"09","name":"Bayern"}},{"name":"Speersort","postalCode":"21723","locality":"Hollern-Twielenfleth","municipality":{"key":"03359026","name":"Hollern-Twielenfleth","type":"Kreisangehörige_Gemeinde"},"district":{"key":"03359","name":"Stade","type":"Landkreis"},"federalState":{"key":"03","name":"Niedersachsen"}},{"name":"Springorumstr.","postalCode":"49847","locality":"Wielen","municipality":{"key":"03456024","name":"Wielen","type":"Kreisangehörige_Gemeinde"},"district":{"key":"03456","name":"Grafschaft Bentheim","type":"Landkreis"},"federalState":{"key":"03","name":"Niedersachsen"}},{"name":"Steinrinne","postalCode":"82407","locality":"Wielenbach","municipality":{"key":"09190159","name":"Wielenbach","type":"Kreisangehörige_Gemeinde"},"district":{"key":"09190","name":"Weilheim-Schongau","type":"Landkreis"},"federalState":{"key":"09","name":"Bayern"}},{"name":"Striepe","postalCode":"49847","locality":"Wielen","municipality":{"key":"03456024","name":"Wielen","type":"Kreisangehörige_Gemeinde"},"district":{"key":"03456","name":"Grafschaft Bentheim","type":"Landkreis"},"federalState":{"key":"03","name":"Niedersachsen"}},{"name":"Tannenstr.","postalCode":"82407","locality":"Wielenbach","municipality":{"key":"09190159","name":"Wielenbach","type":"Kreisangehörige_Gemeinde"},"district":{"key":"09190","name":"Weilheim-Schongau","type":"Landkreis"},"federalState":{"key":"09","name":"Bayern"}},{"name":"Tassilo Str.","postalCode":"82407","locality":"Wielenbach","municipality":{"key":"09190159","name":"Wielenbach","type":"Kreisangehörige_Gemeinde"},"district":{"key":"09190","name":"Weilheim-Schongau","type":"Landkreis"},"federalState":{"key":"09","name":"Bayern"}},{"name":"Teichweg","postalCode":"82407","locality":"Wielenbach","municipality":{"key":"09190159","name":"Wielenbach","type":"Kreisangehörige_Gemeinde"},"district":{"key":"09190","name":"Weilheim-Schongau","type":"Landkreis"},"federalState":{"key":"09","name":"Bayern"}},{"name":"Thalfeldstr.","postalCode":"82407","locality":"Wielenbach","municipality":{"key":"09190159","name":"Wielenbach","type":"Kreisangehörige_Gemeinde"},"district":{"key":"09190","name":"Weilheim-Schongau","type":"Landkreis"},"federalState":{"key":"09","name":"Bayern"}},{"name":"Tulpenstr.","postalCode":"82407","locality":"Wielenbach","municipality":{"key":"09190159","name":"Wielenbach","type":"Kreisangehörige_Gemeinde"},"district":{"key":"09190","name":"Weilheim-Schongau","type":"Landkreis"},"federalState":{"key":"09","name":"Bayern"}},{"name":"Twielenfleth Am Deich","postalCode":"21723","locality":"Hollern-Twielenfleth","municipality":{"key":"03359026","name":"Hollern-Twielenfleth","type":"Kreisangehörige_Gemeinde"},"district":{"key":"03359","name":"Stade","type":"Landkreis"},"federalState":{"key":"03","name":"Niedersachsen"}},{"name":"Twielenflether Chaussee","postalCode":"21723","locality":"Hollern-Twielenfleth","municipality":{"key":"03359026","name":"Hollern-Twielenfleth","type":"Kreisangehörige_Gemeinde"},"district":{"key":"03359","name":"Stade","type":"Landkreis"},"federalState":{"key":"03","name":"Niedersachsen"}},{"name":"Venndiek","postalCode":"49847","locality":"Wielen","municipality":{"key":"03456024","name":"Wielen","type":"Kreisangehörige_Gemeinde"},"district":{"key":"03456","name":"Grafschaft Bentheim","type":"Landkreis"},"federalState":{"key":"03","name":"Niedersachsen"}},{"name":"Vennweg","postalCode":"49847","locality":"Wielen","municipality":{"key":"03456024","name":"Wielen","type":"Kreisangehörige_Gemeinde"},"district":{"key":"03456","name":"Grafschaft Bentheim","type":"Landkreis"},"federalState":{"key":"03","name":"Niedersachsen"}},{"name":"Vorderstr.","postalCode":"21723","locality":"Hollern-Twielenfleth","municipality":{"key":"03359026","name":"Hollern-Twielenfleth","type":"Kreisangehörige_Gemeinde"},"district":{"key":"03359","name":"Stade","type":"Landkreis"},"federalState":{"key":"03","name":"Niedersachsen"}},{"name":"Waldstr.","postalCode":"82407","locality":"Wielenbach","municipality":{"key":"09190159","name":"Wielenbach","type":"Kreisangehörige_Gemeinde"},"district":{"key":"09190","name":"Weilheim-Schongau","type":"Landkreis"},"federalState":{"key":"09","name":"Bayern"}},{"name":"Wankstr.","postalCode":"82407","locality":"Wielenbach","municipality":{"key":"09190159","name":"Wielenbach","type":"Kreisangehörige_Gemeinde"},"district":{"key":"09190","name":"Weilheim-Schongau","type":"Landkreis"},"federalState":{"key":"09","name":"Bayern"}},{"name":"Waxensteinweg","postalCode":"82407","locality":"Wielenbach","municipality":{"key":"09190159","name":"Wielenbach","type":"Kreisangehörige_Gemeinde"},"district":{"key":"09190","name":"Weilheim-Schongau","type":"Landkreis"},"federalState":{"key":"09","name":"Bayern"}},{"name":"Weilheimer Str.","postalCode":"82407","locality":"Wielenbach","municipality":{"key":"09190159","name":"Wielenbach","type":"Kreisangehörige_Gemeinde"},"district":{"key":"09190","name":"Weilheim-Schongau","type":"Landkreis"},"federalState":{"key":"09","name":"Bayern"}},{"name":"Weisser Sandweg","postalCode":"49847","locality":"Wielen","municipality":{"key":"03456024","name":"Wielen","type":"Kreisangehörige_Gemeinde"},"district":{"key":"03456","name":"Grafschaft Bentheim","type":"Landkreis"},"federalState":{"key":"03","name":"Niedersachsen"}},{"name":"Wellebeekweg","postalCode":"49847","locality":"Wielen","municipality":{"key":"03456024","name":"Wielen","type":"Kreisangehörige_Gemeinde"},"district":{"key":"03456","name":"Grafschaft Bentheim","type":"Landkreis"},"federalState":{"key":"03","name":"Niedersachsen"}},{"name":"Wessobrunnerweg","postalCode":"82407","locality":"Wielenbach","municipality":{"key":"09190159","name":"Wielenbach","type":"Kreisangehörige_Gemeinde"},"district":{"key":"09190","name":"Weilheim-Schongau","type":"Landkreis"},"federalState":{"key":"09","name":"Bayern"}},{"name":"Wettersteinstr.","postalCode":"82407","locality":"Wielenbach","municipality":{"key":"09190159","name":"Wielenbach","type":"Kreisangehörige_Gemeinde"},"district":{"key":"09190","name":"Weilheim-Schongau","type":"Landkreis"},"federalState":{"key":"09","name":"Bayern"}},{"name":"Wielenweg","postalCode":"49847","locality":"Wielen","municipality":{"key":"03456024","name":"Wielen","type":"Kreisangehörige_Gemeinde"},"district":{"key":"03456","name":"Grafschaft Bentheim","type":"Landkreis"},"federalState":{"key":"03","name":"Niedersachsen"}},{"name":"Wöhrden","postalCode":"21723","locality":"Hollern-Twielenfleth","municipality":{"key":"03359026","name":"Hollern-Twielenfleth","type":"Kreisangehörige_Gemeinde"},"district":{"key":"03359","name":"Stade","type":"Landkreis"},"federalState":{"key":"03","name":"Niedersachsen"}},{"name":"Wöhrdener Weg","postalCode":"21723","locality":"Hollern-Twielenfleth","municipality":{"key":"03359026","name":"Hollern-Twielenfleth","type":"Kreisangehörige_Gemeinde"},"district":{"key":"03359","name":"Stade","type":"Landkreis"},"federalState":{"key":"03","name":"Niedersachsen"}},{"name":"Zugspitzstr.","postalCode":"82407","locality":"Wielenbach","municipality":{"key":"09190159","name":"Wielenbach","type":"Kreisangehörige_Gemeinde"},"district":{"key":"09190","name":"Weilheim-Schongau","type":"Landkreis"},"federalState":{"key":"09","name":"Bayern"}},{"name":"Zum Friedhof","postalCode":"82407","locality":"Wielenbach","municipality":{"key":"09190159","name":"Wielenbach","type":"Kreisangehörige_Gemeinde"},"district":{"key":"09190","name":"Weilheim-Schongau","type":"Landkreis"},"federalState":{"key":"09","name":"Bayern"}},{"name":"Zum Fußballplatz","postalCode":"82407","locality":"Wielenbach","municipality":{"key":"09190159","name":"Wielenbach","type":"Kreisangehörige_Gemeinde"},"district":{"key":"09190","name":"Weilheim-Schongau","type":"Landkreis"},"federalState":{"key":"09","name":"Bayern"}},{"name":"Zur Peckelbrücke","postalCode":"49847","locality":"Wielen","municipality":{"key":"03456024","name":"Wielen","type":"Kreisangehörige_Gemeinde"},"district":{"key":"03456","name":"Grafschaft Bentheim","type":"Landkreis"},"federalState":{"key":"03","name":"Niedersachsen"}},]