[{"name":"Adalbert-Stifter-Str.","postalCode":"64823","locality":"Groß-Umstadt","municipality":{"key":"06432010","name":"Groß-Umstadt, Stadt","type":"Stadt"},"district":{"key":"06432","name":"Darmstadt-Dieburg","type":"Landkreis"},"federalState":{"key":"06","name":"Hessen"}},{"name":"Adenauerring","postalCode":"64823","locality":"Groß-Umstadt","municipality":{"key":"06432010","name":"Groß-Umstadt, Stadt","type":"Stadt"},"district":{"key":"06432","name":"Darmstadt-Dieburg","type":"Landkreis"},"federalState":{"key":"06","name":"Hessen"}},{"name":"Albert-Einstein-Str.","postalCode":"64823","locality":"Groß-Umstadt","municipality":{"key":"06432010","name":"Groß-Umstadt, Stadt","type":"Stadt"},"district":{"key":"06432","name":"Darmstadt-Dieburg","type":"Landkreis"},"federalState":{"key":"06","name":"Hessen"}},{"name":"Altheimer Str.","postalCode":"64823","locality":"Groß-Umstadt","municipality":{"key":"06432010","name":"Groß-Umstadt, Stadt","type":"Stadt"},"district":{"key":"06432","name":"Darmstadt-Dieburg","type":"Landkreis"},"federalState":{"key":"06","name":"Hessen"}},{"name":"Altheimer Weg","postalCode":"64823","locality":"Groß-Umstadt","municipality":{"key":"06432010","name":"Groß-Umstadt, Stadt","type":"Stadt"},"district":{"key":"06432","name":"Darmstadt-Dieburg","type":"Landkreis"},"federalState":{"key":"06","name":"Hessen"}},{"name":"Am Brüchelsteg","postalCode":"64823","locality":"Groß-Umstadt","municipality":{"key":"06432010","name":"Groß-Umstadt, Stadt","type":"Stadt"},"district":{"key":"06432","name":"Darmstadt-Dieburg","type":"Landkreis"},"federalState":{"key":"06","name":"Hessen"}},{"name":"Am Burggraben","postalCode":"64823","locality":"Groß-Umstadt","municipality":{"key":"06432010","name":"Groß-Umstadt, Stadt","type":"Stadt"},"district":{"key":"06432","name":"Darmstadt-Dieburg","type":"Landkreis"},"federalState":{"key":"06","name":"Hessen"}},{"name":"Am Buschel","postalCode":"64823","locality":"Groß-Umstadt","municipality":{"key":"06432010","name":"Groß-Umstadt, Stadt","type":"Stadt"},"district":{"key":"06432","name":"Darmstadt-Dieburg","type":"Landkreis"},"federalState":{"key":"06","name":"Hessen"}},{"name":"Am Darmstädter Schloß","postalCode":"64823","locality":"Groß-Umstadt","municipality":{"key":"06432010","name":"Groß-Umstadt, Stadt","type":"Stadt"},"district":{"key":"06432","name":"Darmstadt-Dieburg","type":"Landkreis"},"federalState":{"key":"06","name":"Hessen"}},{"name":"Am Dorfbrunnen","postalCode":"64823","locality":"Groß-Umstadt","municipality":{"key":"06432010","name":"Groß-Umstadt, Stadt","type":"Stadt"},"district":{"key":"06432","name":"Darmstadt-Dieburg","type":"Landkreis"},"federalState":{"key":"06","name":"Hessen"}},{"name":"Am Eichbaum","postalCode":"64823","locality":"Groß-Umstadt","municipality":{"key":"06432010","name":"Groß-Umstadt, Stadt","type":"Stadt"},"district":{"key":"06432","name":"Darmstadt-Dieburg","type":"Landkreis"},"federalState":{"key":"06","name":"Hessen"}},{"name":"Am Frauengraben","postalCode":"64823","locality":"Groß-Umstadt","municipality":{"key":"06432010","name":"Groß-Umstadt, Stadt","type":"Stadt"},"district":{"key":"06432","name":"Darmstadt-Dieburg","type":"Landkreis"},"federalState":{"key":"06","name":"Hessen"}},{"name":"Am Geiersberg","postalCode":"64823","locality":"Groß-Umstadt","municipality":{"key":"06432010","name":"Groß-Umstadt, Stadt","type":"Stadt"},"district":{"key":"06432","name":"Darmstadt-Dieburg","type":"Landkreis"},"federalState":{"key":"06","name":"Hessen"}},{"name":"Am Gewerbepark","postalCode":"64823","locality":"Groß-Umstadt","municipality":{"key":"06432010","name":"Groß-Umstadt, Stadt","type":"Stadt"},"district":{"key":"06432","name":"Darmstadt-Dieburg","type":"Landkreis"},"federalState":{"key":"06","name":"Hessen"}},{"name":"Am Haag","postalCode":"64823","locality":"Groß-Umstadt","municipality":{"key":"06432010","name":"Groß-Umstadt, Stadt","type":"Stadt"},"district":{"key":"06432","name":"Darmstadt-Dieburg","type":"Landkreis"},"federalState":{"key":"06","name":"Hessen"}},{"name":"Am Hainrich","postalCode":"64823","locality":"Groß-Umstadt","municipality":{"key":"06432010","name":"Groß-Umstadt, Stadt","type":"Stadt"},"district":{"key":"06432","name":"Darmstadt-Dieburg","type":"Landkreis"},"federalState":{"key":"06","name":"Hessen"}},{"name":"Am Heimgesberg","postalCode":"64823","locality":"Groß-Umstadt","municipality":{"key":"06432010","name":"Groß-Umstadt, Stadt","type":"Stadt"},"district":{"key":"06432","name":"Darmstadt-Dieburg","type":"Landkreis"},"federalState":{"key":"06","name":"Hessen"}},{"name":"Am Herrnberg","postalCode":"64823","locality":"Groß-Umstadt","municipality":{"key":"06432010","name":"Groß-Umstadt, Stadt","type":"Stadt"},"district":{"key":"06432","name":"Darmstadt-Dieburg","type":"Landkreis"},"federalState":{"key":"06","name":"Hessen"}},{"name":"Am Hitzigenrot","postalCode":"64823","locality":"Groß-Umstadt","municipality":{"key":"06432010","name":"Groß-Umstadt, Stadt","type":"Stadt"},"district":{"key":"06432","name":"Darmstadt-Dieburg","type":"Landkreis"},"federalState":{"key":"06","name":"Hessen"}},{"name":"Am Knoß","postalCode":"64823","locality":"Groß-Umstadt","municipality":{"key":"06432010","name":"Groß-Umstadt, Stadt","type":"Stadt"},"district":{"key":"06432","name":"Darmstadt-Dieburg","type":"Landkreis"},"federalState":{"key":"06","name":"Hessen"}},{"name":"Am Köpfchen","postalCode":"64823","locality":"Groß-Umstadt","municipality":{"key":"06432010","name":"Groß-Umstadt, Stadt","type":"Stadt"},"district":{"key":"06432","name":"Darmstadt-Dieburg","type":"Landkreis"},"federalState":{"key":"06","name":"Hessen"}},{"name":"Am Martinsrain","postalCode":"64823","locality":"Groß-Umstadt","municipality":{"key":"06432010","name":"Groß-Umstadt, Stadt","type":"Stadt"},"district":{"key":"06432","name":"Darmstadt-Dieburg","type":"Landkreis"},"federalState":{"key":"06","name":"Hessen"}},{"name":"Am Ohlschen Berg","postalCode":"64823","locality":"Groß-Umstadt","municipality":{"key":"06432010","name":"Groß-Umstadt, Stadt","type":"Stadt"},"district":{"key":"06432","name":"Darmstadt-Dieburg","type":"Landkreis"},"federalState":{"key":"06","name":"Hessen"}},{"name":"Am Rebstock","postalCode":"64823","locality":"Groß-Umstadt","municipality":{"key":"06432010","name":"Groß-Umstadt, Stadt","type":"Stadt"},"district":{"key":"06432","name":"Darmstadt-Dieburg","type":"Landkreis"},"federalState":{"key":"06","name":"Hessen"}},{"name":"Am Roten Rain","postalCode":"64823","locality":"Groß-Umstadt","municipality":{"key":"06432010","name":"Groß-Umstadt, Stadt","type":"Stadt"},"district":{"key":"06432","name":"Darmstadt-Dieburg","type":"Landkreis"},"federalState":{"key":"06","name":"Hessen"}},{"name":"Am Salzwingert","postalCode":"64823","locality":"Groß-Umstadt","municipality":{"key":"06432010","name":"Groß-Umstadt, Stadt","type":"Stadt"},"district":{"key":"06432","name":"Darmstadt-Dieburg","type":"Landkreis"},"federalState":{"key":"06","name":"Hessen"}},{"name":"Am Schafrain","postalCode":"64823","locality":"Groß-Umstadt","municipality":{"key":"06432010","name":"Groß-Umstadt, Stadt","type":"Stadt"},"district":{"key":"06432","name":"Darmstadt-Dieburg","type":"Landkreis"},"federalState":{"key":"06","name":"Hessen"}},{"name":"Am Schützenrain","postalCode":"64823","locality":"Groß-Umstadt","municipality":{"key":"06432010","name":"Groß-Umstadt, Stadt","type":"Stadt"},"district":{"key":"06432","name":"Darmstadt-Dieburg","type":"Landkreis"},"federalState":{"key":"06","name":"Hessen"}},{"name":"Am Schwarzen Berg","postalCode":"64823","locality":"Groß-Umstadt","municipality":{"key":"06432010","name":"Groß-Umstadt, Stadt","type":"Stadt"},"district":{"key":"06432","name":"Darmstadt-Dieburg","type":"Landkreis"},"federalState":{"key":"06","name":"Hessen"}},{"name":"Am Seidenberg","postalCode":"64823","locality":"Groß-Umstadt","municipality":{"key":"06432010","name":"Groß-Umstadt, Stadt","type":"Stadt"},"district":{"key":"06432","name":"Darmstadt-Dieburg","type":"Landkreis"},"federalState":{"key":"06","name":"Hessen"}},{"name":"Amselweg","postalCode":"64823","locality":"Groß-Umstadt","municipality":{"key":"06432010","name":"Groß-Umstadt, Stadt","type":"Stadt"},"district":{"key":"06432","name":"Darmstadt-Dieburg","type":"Landkreis"},"federalState":{"key":"06","name":"Hessen"}},{"name":"Am Sportplatz","postalCode":"64823","locality":"Groß-Umstadt","municipality":{"key":"06432010","name":"Groß-Umstadt, Stadt","type":"Stadt"},"district":{"key":"06432","name":"Darmstadt-Dieburg","type":"Landkreis"},"federalState":{"key":"06","name":"Hessen"}},{"name":"Am Stadtgraben","postalCode":"64823","locality":"Groß-Umstadt","municipality":{"key":"06432010","name":"Groß-Umstadt, Stadt","type":"Stadt"},"district":{"key":"06432","name":"Darmstadt-Dieburg","type":"Landkreis"},"federalState":{"key":"06","name":"Hessen"}},{"name":"Am Steinborn","postalCode":"64823","locality":"Groß-Umstadt","municipality":{"key":"06432010","name":"Groß-Umstadt, Stadt","type":"Stadt"},"district":{"key":"06432","name":"Darmstadt-Dieburg","type":"Landkreis"},"federalState":{"key":"06","name":"Hessen"}},{"name":"Am Stuckertsgraben","postalCode":"64823","locality":"Groß-Umstadt","municipality":{"key":"06432010","name":"Groß-Umstadt, Stadt","type":"Stadt"},"district":{"key":"06432","name":"Darmstadt-Dieburg","type":"Landkreis"},"federalState":{"key":"06","name":"Hessen"}},{"name":"Am Turnplatz","postalCode":"64823","locality":"Groß-Umstadt","municipality":{"key":"06432010","name":"Groß-Umstadt, Stadt","type":"Stadt"},"district":{"key":"06432","name":"Darmstadt-Dieburg","type":"Landkreis"},"federalState":{"key":"06","name":"Hessen"}},{"name":"Am Viehtrieb","postalCode":"64823","locality":"Groß-Umstadt","municipality":{"key":"06432010","name":"Groß-Umstadt, Stadt","type":"Stadt"},"district":{"key":"06432","name":"Darmstadt-Dieburg","type":"Landkreis"},"federalState":{"key":"06","name":"Hessen"}},{"name":"Am Wasserwerk","postalCode":"64823","locality":"Groß-Umstadt","municipality":{"key":"06432010","name":"Groß-Umstadt, Stadt","type":"Stadt"},"district":{"key":"06432","name":"Darmstadt-Dieburg","type":"Landkreis"},"federalState":{"key":"06","name":"Hessen"}},{"name":"Am Wehr","postalCode":"64823","locality":"Groß-Umstadt","municipality":{"key":"06432010","name":"Groß-Umstadt, Stadt","type":"Stadt"},"district":{"key":"06432","name":"Darmstadt-Dieburg","type":"Landkreis"},"federalState":{"key":"06","name":"Hessen"}},{"name":"Am Wingertsberg","postalCode":"64823","locality":"Groß-Umstadt","municipality":{"key":"06432010","name":"Groß-Umstadt, Stadt","type":"Stadt"},"district":{"key":"06432","name":"Darmstadt-Dieburg","type":"Landkreis"},"federalState":{"key":"06","name":"Hessen"}},{"name":"An der Bleiche","postalCode":"64823","locality":"Groß-Umstadt","municipality":{"key":"06432010","name":"Groß-Umstadt, Stadt","type":"Stadt"},"district":{"key":"06432","name":"Darmstadt-Dieburg","type":"Landkreis"},"federalState":{"key":"06","name":"Hessen"}},{"name":"An der Sandkaute","postalCode":"64823","locality":"Groß-Umstadt","municipality":{"key":"06432010","name":"Groß-Umstadt, Stadt","type":"Stadt"},"district":{"key":"06432","name":"Darmstadt-Dieburg","type":"Landkreis"},"federalState":{"key":"06","name":"Hessen"}},{"name":"An der Steinmauer","postalCode":"64823","locality":"Groß-Umstadt","municipality":{"key":"06432010","name":"Groß-Umstadt, Stadt","type":"Stadt"},"district":{"key":"06432","name":"Darmstadt-Dieburg","type":"Landkreis"},"federalState":{"key":"06","name":"Hessen"}},{"name":"An der Wehrkirche","postalCode":"64823","locality":"Groß-Umstadt","municipality":{"key":"06432010","name":"Groß-Umstadt, Stadt","type":"Stadt"},"district":{"key":"06432","name":"Darmstadt-Dieburg","type":"Landkreis"},"federalState":{"key":"06","name":"Hessen"}},{"name":"Anne-Frank-Str.","postalCode":"64823","locality":"Groß-Umstadt","municipality":{"key":"06432010","name":"Groß-Umstadt, Stadt","type":"Stadt"},"district":{"key":"06432","name":"Darmstadt-Dieburg","type":"Landkreis"},"federalState":{"key":"06","name":"Hessen"}},{"name":"Appelseckschneise","postalCode":"64823","locality":"Groß-Umstadt","municipality":{"key":"06432010","name":"Groß-Umstadt, Stadt","type":"Stadt"},"district":{"key":"06432","name":"Darmstadt-Dieburg","type":"Landkreis"},"federalState":{"key":"06","name":"Hessen"}},{"name":"Auf dem Berg","postalCode":"64823","locality":"Groß-Umstadt","municipality":{"key":"06432010","name":"Groß-Umstadt, Stadt","type":"Stadt"},"district":{"key":"06432","name":"Darmstadt-Dieburg","type":"Landkreis"},"federalState":{"key":"06","name":"Hessen"}},{"name":"Auf der Beine","postalCode":"64823","locality":"Groß-Umstadt","municipality":{"key":"06432010","name":"Groß-Umstadt, Stadt","type":"Stadt"},"district":{"key":"06432","name":"Darmstadt-Dieburg","type":"Landkreis"},"federalState":{"key":"06","name":"Hessen"}},{"name":"Auf der Gasse","postalCode":"64823","locality":"Groß-Umstadt","municipality":{"key":"06432010","name":"Groß-Umstadt, Stadt","type":"Stadt"},"district":{"key":"06432","name":"Darmstadt-Dieburg","type":"Landkreis"},"federalState":{"key":"06","name":"Hessen"}},{"name":"Auf der Hölle","postalCode":"64823","locality":"Groß-Umstadt","municipality":{"key":"06432010","name":"Groß-Umstadt, Stadt","type":"Stadt"},"district":{"key":"06432","name":"Darmstadt-Dieburg","type":"Landkreis"},"federalState":{"key":"06","name":"Hessen"}},{"name":"Bachgasse","postalCode":"64823","locality":"Groß-Umstadt","municipality":{"key":"06432010","name":"Groß-Umstadt, Stadt","type":"Stadt"},"district":{"key":"06432","name":"Darmstadt-Dieburg","type":"Landkreis"},"federalState":{"key":"06","name":"Hessen"}},{"name":"Bachtorstr.","postalCode":"64823","locality":"Groß-Umstadt","municipality":{"key":"06432010","name":"Groß-Umstadt, Stadt","type":"Stadt"},"district":{"key":"06432","name":"Darmstadt-Dieburg","type":"Landkreis"},"federalState":{"key":"06","name":"Hessen"}},{"name":"Backhausgasse","postalCode":"64823","locality":"Groß-Umstadt","municipality":{"key":"06432010","name":"Groß-Umstadt, Stadt","type":"Stadt"},"district":{"key":"06432","name":"Darmstadt-Dieburg","type":"Landkreis"},"federalState":{"key":"06","name":"Hessen"}},{"name":"Bahnhofstr.","postalCode":"64823","locality":"Groß-Umstadt","municipality":{"key":"06432010","name":"Groß-Umstadt, Stadt","type":"Stadt"},"district":{"key":"06432","name":"Darmstadt-Dieburg","type":"Landkreis"},"federalState":{"key":"06","name":"Hessen"}},{"name":"Balthasar-Kissner-Str.","postalCode":"64823","locality":"Groß-Umstadt","municipality":{"key":"06432010","name":"Groß-Umstadt, Stadt","type":"Stadt"},"district":{"key":"06432","name":"Darmstadt-Dieburg","type":"Landkreis"},"federalState":{"key":"06","name":"Hessen"}},{"name":"Beethovenweg","postalCode":"64823","locality":"Groß-Umstadt","municipality":{"key":"06432010","name":"Groß-Umstadt, Stadt","type":"Stadt"},"district":{"key":"06432","name":"Darmstadt-Dieburg","type":"Landkreis"},"federalState":{"key":"06","name":"Hessen"}},{"name":"Bei den Stockwiesen","postalCode":"64823","locality":"Groß-Umstadt","municipality":{"key":"06432010","name":"Groß-Umstadt, Stadt","type":"Stadt"},"district":{"key":"06432","name":"Darmstadt-Dieburg","type":"Landkreis"},"federalState":{"key":"06","name":"Hessen"}},{"name":"Bergweg","postalCode":"64823","locality":"Groß-Umstadt","municipality":{"key":"06432010","name":"Groß-Umstadt, Stadt","type":"Stadt"},"district":{"key":"06432","name":"Darmstadt-Dieburg","type":"Landkreis"},"federalState":{"key":"06","name":"Hessen"}},{"name":"Berliner Str.","postalCode":"64823","locality":"Groß-Umstadt","municipality":{"key":"06432010","name":"Groß-Umstadt, Stadt","type":"Stadt"},"district":{"key":"06432","name":"Darmstadt-Dieburg","type":"Landkreis"},"federalState":{"key":"06","name":"Hessen"}},{"name":"Beunestr.","postalCode":"64823","locality":"Groß-Umstadt","municipality":{"key":"06432010","name":"Groß-Umstadt, Stadt","type":"Stadt"},"district":{"key":"06432","name":"Darmstadt-Dieburg","type":"Landkreis"},"federalState":{"key":"06","name":"Hessen"}},{"name":"Birkenweg","postalCode":"64823","locality":"Groß-Umstadt","municipality":{"key":"06432010","name":"Groß-Umstadt, Stadt","type":"Stadt"},"district":{"key":"06432","name":"Darmstadt-Dieburg","type":"Landkreis"},"federalState":{"key":"06","name":"Hessen"}},{"name":"Bleiche","postalCode":"64823","locality":"Groß-Umstadt","municipality":{"key":"06432010","name":"Groß-Umstadt, Stadt","type":"Stadt"},"district":{"key":"06432","name":"Darmstadt-Dieburg","type":"Landkreis"},"federalState":{"key":"06","name":"Hessen"}},{"name":"Blumenweg","postalCode":"64823","locality":"Groß-Umstadt","municipality":{"key":"06432010","name":"Groß-Umstadt, Stadt","type":"Stadt"},"district":{"key":"06432","name":"Darmstadt-Dieburg","type":"Landkreis"},"federalState":{"key":"06","name":"Hessen"}},{"name":"Bodenäcker","postalCode":"64823","locality":"Groß-Umstadt","municipality":{"key":"06432010","name":"Groß-Umstadt, Stadt","type":"Stadt"},"district":{"key":"06432","name":"Darmstadt-Dieburg","type":"Landkreis"},"federalState":{"key":"06","name":"Hessen"}},{"name":"Böhmer Str.","postalCode":"64823","locality":"Groß-Umstadt","municipality":{"key":"06432010","name":"Groß-Umstadt, Stadt","type":"Stadt"},"district":{"key":"06432","name":"Darmstadt-Dieburg","type":"Landkreis"},"federalState":{"key":"06","name":"Hessen"}},{"name":"Brandenburger Str.","postalCode":"64823","locality":"Groß-Umstadt","municipality":{"key":"06432010","name":"Groß-Umstadt, Stadt","type":"Stadt"},"district":{"key":"06432","name":"Darmstadt-Dieburg","type":"Landkreis"},"federalState":{"key":"06","name":"Hessen"}},{"name":"Brauereiweg","postalCode":"64823","locality":"Groß-Umstadt","municipality":{"key":"06432010","name":"Groß-Umstadt, Stadt","type":"Stadt"},"district":{"key":"06432","name":"Darmstadt-Dieburg","type":"Landkreis"},"federalState":{"key":"06","name":"Hessen"}},{"name":"Brauerstr.","postalCode":"64823","locality":"Groß-Umstadt","municipality":{"key":"06432010","name":"Groß-Umstadt, Stadt","type":"Stadt"},"district":{"key":"06432","name":"Darmstadt-Dieburg","type":"Landkreis"},"federalState":{"key":"06","name":"Hessen"}},{"name":"Breite Gasse","postalCode":"64823","locality":"Groß-Umstadt","municipality":{"key":"06432010","name":"Groß-Umstadt, Stadt","type":"Stadt"},"district":{"key":"06432","name":"Darmstadt-Dieburg","type":"Landkreis"},"federalState":{"key":"06","name":"Hessen"}},{"name":"Breslauer Str.","postalCode":"64823","locality":"Groß-Umstadt","municipality":{"key":"06432010","name":"Groß-Umstadt, Stadt","type":"Stadt"},"district":{"key":"06432","name":"Darmstadt-Dieburg","type":"Landkreis"},"federalState":{"key":"06","name":"Hessen"}},{"name":"Breubergstr.","postalCode":"64823","locality":"Groß-Umstadt","municipality":{"key":"06432010","name":"Groß-Umstadt, Stadt","type":"Stadt"},"district":{"key":"06432","name":"Darmstadt-Dieburg","type":"Landkreis"},"federalState":{"key":"06","name":"Hessen"}},{"name":"Bruchweg","postalCode":"64823","locality":"Groß-Umstadt","municipality":{"key":"06432010","name":"Groß-Umstadt, Stadt","type":"Stadt"},"district":{"key":"06432","name":"Darmstadt-Dieburg","type":"Landkreis"},"federalState":{"key":"06","name":"Hessen"}},{"name":"Brunnengasse","postalCode":"64823","locality":"Groß-Umstadt","municipality":{"key":"06432010","name":"Groß-Umstadt, Stadt","type":"Stadt"},"district":{"key":"06432","name":"Darmstadt-Dieburg","type":"Landkreis"},"federalState":{"key":"06","name":"Hessen"}},{"name":"Brunnen Schneise","postalCode":"64823","locality":"Groß-Umstadt","municipality":{"key":"06432010","name":"Groß-Umstadt, Stadt","type":"Stadt"},"district":{"key":"06432","name":"Darmstadt-Dieburg","type":"Landkreis"},"federalState":{"key":"06","name":"Hessen"}},{"name":"Buchenweg","postalCode":"64823","locality":"Groß-Umstadt","municipality":{"key":"06432010","name":"Groß-Umstadt, Stadt","type":"Stadt"},"district":{"key":"06432","name":"Darmstadt-Dieburg","type":"Landkreis"},"federalState":{"key":"06","name":"Hessen"}},{"name":"Buckelgarten","postalCode":"64823","locality":"Groß-Umstadt","municipality":{"key":"06432010","name":"Groß-Umstadt, Stadt","type":"Stadt"},"district":{"key":"06432","name":"Darmstadt-Dieburg","type":"Landkreis"},"federalState":{"key":"06","name":"Hessen"}},{"name":"Buschweg","postalCode":"64823","locality":"Groß-Umstadt","municipality":{"key":"06432010","name":"Groß-Umstadt, Stadt","type":"Stadt"},"district":{"key":"06432","name":"Darmstadt-Dieburg","type":"Landkreis"},"federalState":{"key":"06","name":"Hessen"}},{"name":"Carlo-Mierendorff-Str.","postalCode":"64823","locality":"Groß-Umstadt","municipality":{"key":"06432010","name":"Groß-Umstadt, Stadt","type":"Stadt"},"district":{"key":"06432","name":"Darmstadt-Dieburg","type":"Landkreis"},"federalState":{"key":"06","name":"Hessen"}},{"name":"Christoph-Vogel-Str.","postalCode":"64823","locality":"Groß-Umstadt","municipality":{"key":"06432010","name":"Groß-Umstadt, Stadt","type":"Stadt"},"district":{"key":"06432","name":"Darmstadt-Dieburg","type":"Landkreis"},"federalState":{"key":"06","name":"Hessen"}},{"name":"Claudiusweg","postalCode":"64823","locality":"Groß-Umstadt","municipality":{"key":"06432010","name":"Groß-Umstadt, Stadt","type":"Stadt"},"district":{"key":"06432","name":"Darmstadt-Dieburg","type":"Landkreis"},"federalState":{"key":"06","name":"Hessen"}},{"name":"Curtigasse","postalCode":"64823","locality":"Groß-Umstadt","municipality":{"key":"06432010","name":"Groß-Umstadt, Stadt","type":"Stadt"},"district":{"key":"06432","name":"Darmstadt-Dieburg","type":"Landkreis"},"federalState":{"key":"06","name":"Hessen"}},{"name":"Dammweg","postalCode":"64823","locality":"Groß-Umstadt","municipality":{"key":"06432010","name":"Groß-Umstadt, Stadt","type":"Stadt"},"district":{"key":"06432","name":"Darmstadt-Dieburg","type":"Landkreis"},"federalState":{"key":"06","name":"Hessen"}},{"name":"Danziger Str.","postalCode":"64823","locality":"Groß-Umstadt","municipality":{"key":"06432010","name":"Groß-Umstadt, Stadt","type":"Stadt"},"district":{"key":"06432","name":"Darmstadt-Dieburg","type":"Landkreis"},"federalState":{"key":"06","name":"Hessen"}},{"name":"Der neue Weg","postalCode":"64823","locality":"Groß-Umstadt","municipality":{"key":"06432010","name":"Groß-Umstadt, Stadt","type":"Stadt"},"district":{"key":"06432","name":"Darmstadt-Dieburg","type":"Landkreis"},"federalState":{"key":"06","name":"Hessen"}},{"name":"Dieburger Str.","postalCode":"64823","locality":"Groß-Umstadt","municipality":{"key":"06432010","name":"Groß-Umstadt, Stadt","type":"Stadt"},"district":{"key":"06432","name":"Darmstadt-Dieburg","type":"Landkreis"},"federalState":{"key":"06","name":"Hessen"}},{"name":"Die Ettern","postalCode":"64823","locality":"Groß-Umstadt","municipality":{"key":"06432010","name":"Groß-Umstadt, Stadt","type":"Stadt"},"district":{"key":"06432","name":"Darmstadt-Dieburg","type":"Landkreis"},"federalState":{"key":"06","name":"Hessen"}},{"name":"Dorfstr.","postalCode":"64823","locality":"Groß-Umstadt","municipality":{"key":"06432010","name":"Groß-Umstadt, Stadt","type":"Stadt"},"district":{"key":"06432","name":"Darmstadt-Dieburg","type":"Landkreis"},"federalState":{"key":"06","name":"Hessen"}},{"name":"Dörrwiesenweg","postalCode":"64823","locality":"Groß-Umstadt","municipality":{"key":"06432010","name":"Groß-Umstadt, Stadt","type":"Stadt"},"district":{"key":"06432","name":"Darmstadt-Dieburg","type":"Landkreis"},"federalState":{"key":"06","name":"Hessen"}},{"name":"Dreieichweg","postalCode":"64823","locality":"Groß-Umstadt","municipality":{"key":"06432010","name":"Groß-Umstadt, Stadt","type":"Stadt"},"district":{"key":"06432","name":"Darmstadt-Dieburg","type":"Landkreis"},"federalState":{"key":"06","name":"Hessen"}},{"name":"Dresdener Str.","postalCode":"64823","locality":"Groß-Umstadt","municipality":{"key":"06432010","name":"Groß-Umstadt, Stadt","type":"Stadt"},"district":{"key":"06432","name":"Darmstadt-Dieburg","type":"Landkreis"},"federalState":{"key":"06","name":"Hessen"}},{"name":"Dr.-Föppl-Str.","postalCode":"64823","locality":"Groß-Umstadt","municipality":{"key":"06432010","name":"Groß-Umstadt, Stadt","type":"Stadt"},"district":{"key":"06432","name":"Darmstadt-Dieburg","type":"Landkreis"},"federalState":{"key":"06","name":"Hessen"}},{"name":"Drosselweg","postalCode":"64823","locality":"Groß-Umstadt","municipality":{"key":"06432010","name":"Groß-Umstadt, Stadt","type":"Stadt"},"district":{"key":"06432","name":"Darmstadt-Dieburg","type":"Landkreis"},"federalState":{"key":"06","name":"Hessen"}},{"name":"Egerländer Str.","postalCode":"64823","locality":"Groß-Umstadt","municipality":{"key":"06432010","name":"Groß-Umstadt, Stadt","type":"Stadt"},"district":{"key":"06432","name":"Darmstadt-Dieburg","type":"Landkreis"},"federalState":{"key":"06","name":"Hessen"}},{"name":"Eichendorffweg","postalCode":"64823","locality":"Groß-Umstadt","municipality":{"key":"06432010","name":"Groß-Umstadt, Stadt","type":"Stadt"},"district":{"key":"06432","name":"Darmstadt-Dieburg","type":"Landkreis"},"federalState":{"key":"06","name":"Hessen"}},{"name":"Eilingsgasse","postalCode":"64823","locality":"Groß-Umstadt","municipality":{"key":"06432010","name":"Groß-Umstadt, Stadt","type":"Stadt"},"district":{"key":"06432","name":"Darmstadt-Dieburg","type":"Landkreis"},"federalState":{"key":"06","name":"Hessen"}},{"name":"Eisenacher Str.","postalCode":"64823","locality":"Groß-Umstadt","municipality":{"key":"06432010","name":"Groß-Umstadt, Stadt","type":"Stadt"},"district":{"key":"06432","name":"Darmstadt-Dieburg","type":"Landkreis"},"federalState":{"key":"06","name":"Hessen"}},{"name":"Elterweg","postalCode":"64823","locality":"Groß-Umstadt","municipality":{"key":"06432010","name":"Groß-Umstadt, Stadt","type":"Stadt"},"district":{"key":"06432","name":"Darmstadt-Dieburg","type":"Landkreis"},"federalState":{"key":"06","name":"Hessen"}},{"name":"Entengasse","postalCode":"64823","locality":"Groß-Umstadt","municipality":{"key":"06432010","name":"Groß-Umstadt, Stadt","type":"Stadt"},"district":{"key":"06432","name":"Darmstadt-Dieburg","type":"Landkreis"},"federalState":{"key":"06","name":"Hessen"}},{"name":"Erich-Ollenhauer-Str.","postalCode":"64823","locality":"Groß-Umstadt","municipality":{"key":"06432010","name":"Groß-Umstadt, Stadt","type":"Stadt"},"district":{"key":"06432","name":"Darmstadt-Dieburg","type":"Landkreis"},"federalState":{"key":"06","name":"Hessen"}},{"name":"Erlen Schneise","postalCode":"64823","locality":"Groß-Umstadt","municipality":{"key":"06432010","name":"Groß-Umstadt, Stadt","type":"Stadt"},"district":{"key":"06432","name":"Darmstadt-Dieburg","type":"Landkreis"},"federalState":{"key":"06","name":"Hessen"}},{"name":"Erlenweg","postalCode":"64823","locality":"Groß-Umstadt","municipality":{"key":"06432010","name":"Groß-Umstadt, Stadt","type":"Stadt"},"district":{"key":"06432","name":"Darmstadt-Dieburg","type":"Landkreis"},"federalState":{"key":"06","name":"Hessen"}},{"name":"Ernst-Reuter-Str.","postalCode":"64823","locality":"Groß-Umstadt","municipality":{"key":"06432010","name":"Groß-Umstadt, Stadt","type":"Stadt"},"district":{"key":"06432","name":"Darmstadt-Dieburg","type":"Landkreis"},"federalState":{"key":"06","name":"Hessen"}},{"name":"Erzbergerstr.","postalCode":"64823","locality":"Groß-Umstadt","municipality":{"key":"06432010","name":"Groß-Umstadt, Stadt","type":"Stadt"},"district":{"key":"06432","name":"Darmstadt-Dieburg","type":"Landkreis"},"federalState":{"key":"06","name":"Hessen"}},{"name":"Fasanenring","postalCode":"64823","locality":"Groß-Umstadt","municipality":{"key":"06432010","name":"Groß-Umstadt, Stadt","type":"Stadt"},"district":{"key":"06432","name":"Darmstadt-Dieburg","type":"Landkreis"},"federalState":{"key":"06","name":"Hessen"}},{"name":"Fasanen Schneise","postalCode":"64823","locality":"Groß-Umstadt","municipality":{"key":"06432010","name":"Groß-Umstadt, Stadt","type":"Stadt"},"district":{"key":"06432","name":"Darmstadt-Dieburg","type":"Landkreis"},"federalState":{"key":"06","name":"Hessen"}},{"name":"Feldstr.","postalCode":"64823","locality":"Groß-Umstadt","municipality":{"key":"06432010","name":"Groß-Umstadt, Stadt","type":"Stadt"},"district":{"key":"06432","name":"Darmstadt-Dieburg","type":"Landkreis"},"federalState":{"key":"06","name":"Hessen"}},{"name":"Felsweg","postalCode":"64823","locality":"Groß-Umstadt","municipality":{"key":"06432010","name":"Groß-Umstadt, Stadt","type":"Stadt"},"district":{"key":"06432","name":"Darmstadt-Dieburg","type":"Landkreis"},"federalState":{"key":"06","name":"Hessen"}},{"name":"Finkenweg","postalCode":"64823","locality":"Groß-Umstadt","municipality":{"key":"06432010","name":"Groß-Umstadt, Stadt","type":"Stadt"},"district":{"key":"06432","name":"Darmstadt-Dieburg","type":"Landkreis"},"federalState":{"key":"06","name":"Hessen"}},{"name":"Fischergasse","postalCode":"64823","locality":"Groß-Umstadt","municipality":{"key":"06432010","name":"Groß-Umstadt, Stadt","type":"Stadt"},"district":{"key":"06432","name":"Darmstadt-Dieburg","type":"Landkreis"},"federalState":{"key":"06","name":"Hessen"}},{"name":"Fitzweg","postalCode":"64823","locality":"Groß-Umstadt","municipality":{"key":"06432010","name":"Groß-Umstadt, Stadt","type":"Stadt"},"district":{"key":"06432","name":"Darmstadt-Dieburg","type":"Landkreis"},"federalState":{"key":"06","name":"Hessen"}},{"name":"Fliederweg","postalCode":"64823","locality":"Groß-Umstadt","municipality":{"key":"06432010","name":"Groß-Umstadt, Stadt","type":"Stadt"},"district":{"key":"06432","name":"Darmstadt-Dieburg","type":"Landkreis"},"federalState":{"key":"06","name":"Hessen"}},{"name":"Forsthausstr.","postalCode":"64823","locality":"Groß-Umstadt","municipality":{"key":"06432010","name":"Groß-Umstadt, Stadt","type":"Stadt"},"district":{"key":"06432","name":"Darmstadt-Dieburg","type":"Landkreis"},"federalState":{"key":"06","name":"Hessen"}},{"name":"Frankensteiner Äcker Schneise","postalCode":"64823","locality":"Groß-Umstadt","municipality":{"key":"06432010","name":"Groß-Umstadt, Stadt","type":"Stadt"},"district":{"key":"06432","name":"Darmstadt-Dieburg","type":"Landkreis"},"federalState":{"key":"06","name":"Hessen"}},{"name":"Frankenstr.","postalCode":"64823","locality":"Groß-Umstadt","municipality":{"key":"06432010","name":"Groß-Umstadt, Stadt","type":"Stadt"},"district":{"key":"06432","name":"Darmstadt-Dieburg","type":"Landkreis"},"federalState":{"key":"06","name":"Hessen"}},{"name":"Frankfurter Str.","postalCode":"64823","locality":"Groß-Umstadt","municipality":{"key":"06432010","name":"Groß-Umstadt, Stadt","type":"Stadt"},"district":{"key":"06432","name":"Darmstadt-Dieburg","type":"Landkreis"},"federalState":{"key":"06","name":"Hessen"}},{"name":"Franz-Gruber-Str.","postalCode":"64823","locality":"Groß-Umstadt","municipality":{"key":"06432010","name":"Groß-Umstadt, Stadt","type":"Stadt"},"district":{"key":"06432","name":"Darmstadt-Dieburg","type":"Landkreis"},"federalState":{"key":"06","name":"Hessen"}},{"name":"Frau Nauses","postalCode":"64823","locality":"Groß-Umstadt","municipality":{"key":"06432010","name":"Groß-Umstadt, Stadt","type":"Stadt"},"district":{"key":"06432","name":"Darmstadt-Dieburg","type":"Landkreis"},"federalState":{"key":"06","name":"Hessen"}},{"name":"Freiherr-vom-Stein Str.","postalCode":"64823","locality":"Groß-Umstadt","municipality":{"key":"06432010","name":"Groß-Umstadt, Stadt","type":"Stadt"},"district":{"key":"06432","name":"Darmstadt-Dieburg","type":"Landkreis"},"federalState":{"key":"06","name":"Hessen"}},{"name":"Friedensstr.","postalCode":"64823","locality":"Groß-Umstadt","municipality":{"key":"06432010","name":"Groß-Umstadt, Stadt","type":"Stadt"},"district":{"key":"06432","name":"Darmstadt-Dieburg","type":"Landkreis"},"federalState":{"key":"06","name":"Hessen"}},{"name":"Friedhofstr.","postalCode":"64823","locality":"Groß-Umstadt","municipality":{"key":"06432010","name":"Groß-Umstadt, Stadt","type":"Stadt"},"district":{"key":"06432","name":"Darmstadt-Dieburg","type":"Landkreis"},"federalState":{"key":"06","name":"Hessen"}},{"name":"Friedrich-Ebert-Str.","postalCode":"64823","locality":"Groß-Umstadt","municipality":{"key":"06432010","name":"Groß-Umstadt, Stadt","type":"Stadt"},"district":{"key":"06432","name":"Darmstadt-Dieburg","type":"Landkreis"},"federalState":{"key":"06","name":"Hessen"}},{"name":"Frießenbeuneweg","postalCode":"64823","locality":"Groß-Umstadt","municipality":{"key":"06432010","name":"Groß-Umstadt, Stadt","type":"Stadt"},"district":{"key":"06432","name":"Darmstadt-Dieburg","type":"Landkreis"},"federalState":{"key":"06","name":"Hessen"}},{"name":"Fritz-Vogel-Weg","postalCode":"64823","locality":"Groß-Umstadt","municipality":{"key":"06432010","name":"Groß-Umstadt, Stadt","type":"Stadt"},"district":{"key":"06432","name":"Darmstadt-Dieburg","type":"Landkreis"},"federalState":{"key":"06","name":"Hessen"}},{"name":"Fuchsweg","postalCode":"64823","locality":"Groß-Umstadt","municipality":{"key":"06432010","name":"Groß-Umstadt, Stadt","type":"Stadt"},"district":{"key":"06432","name":"Darmstadt-Dieburg","type":"Landkreis"},"federalState":{"key":"06","name":"Hessen"}},{"name":"Gartenstr.","postalCode":"64823","locality":"Groß-Umstadt","municipality":{"key":"06432010","name":"Groß-Umstadt, Stadt","type":"Stadt"},"district":{"key":"06432","name":"Darmstadt-Dieburg","type":"Landkreis"},"federalState":{"key":"06","name":"Hessen"}},{"name":"Gartenweg","postalCode":"64823","locality":"Groß-Umstadt","municipality":{"key":"06432010","name":"Groß-Umstadt, Stadt","type":"Stadt"},"district":{"key":"06432","name":"Darmstadt-Dieburg","type":"Landkreis"},"federalState":{"key":"06","name":"Hessen"}},{"name":"Gebrüder-Grimm-Str.","postalCode":"64823","locality":"Groß-Umstadt","municipality":{"key":"06432010","name":"Groß-Umstadt, Stadt","type":"Stadt"},"district":{"key":"06432","name":"Darmstadt-Dieburg","type":"Landkreis"},"federalState":{"key":"06","name":"Hessen"}},{"name":"Georg-August-Zinn-Str.","postalCode":"64823","locality":"Groß-Umstadt","municipality":{"key":"06432010","name":"Groß-Umstadt, Stadt","type":"Stadt"},"district":{"key":"06432","name":"Darmstadt-Dieburg","type":"Landkreis"},"federalState":{"key":"06","name":"Hessen"}},{"name":"Georg-Eidmann-Weg","postalCode":"64823","locality":"Groß-Umstadt","municipality":{"key":"06432010","name":"Groß-Umstadt, Stadt","type":"Stadt"},"district":{"key":"06432","name":"Darmstadt-Dieburg","type":"Landkreis"},"federalState":{"key":"06","name":"Hessen"}},{"name":"Ginsterweg","postalCode":"64823","locality":"Groß-Umstadt","municipality":{"key":"06432010","name":"Groß-Umstadt, Stadt","type":"Stadt"},"district":{"key":"06432","name":"Darmstadt-Dieburg","type":"Landkreis"},"federalState":{"key":"06","name":"Hessen"}},{"name":"Glockengasse","postalCode":"64823","locality":"Groß-Umstadt","municipality":{"key":"06432010","name":"Groß-Umstadt, Stadt","type":"Stadt"},"district":{"key":"06432","name":"Darmstadt-Dieburg","type":"Landkreis"},"federalState":{"key":"06","name":"Hessen"}},{"name":"Glockenwiesenweg","postalCode":"64823","locality":"Groß-Umstadt","municipality":{"key":"06432010","name":"Groß-Umstadt, Stadt","type":"Stadt"},"district":{"key":"06432","name":"Darmstadt-Dieburg","type":"Landkreis"},"federalState":{"key":"06","name":"Hessen"}},{"name":"Goethestr.","postalCode":"64823","locality":"Groß-Umstadt","municipality":{"key":"06432010","name":"Groß-Umstadt, Stadt","type":"Stadt"},"district":{"key":"06432","name":"Darmstadt-Dieburg","type":"Landkreis"},"federalState":{"key":"06","name":"Hessen"}},{"name":"Grabenstr.","postalCode":"64823","locality":"Groß-Umstadt","municipality":{"key":"06432010","name":"Groß-Umstadt, Stadt","type":"Stadt"},"district":{"key":"06432","name":"Darmstadt-Dieburg","type":"Landkreis"},"federalState":{"key":"06","name":"Hessen"}},{"name":"Grafenstr.","postalCode":"64823","locality":"Groß-Umstadt","municipality":{"key":"06432010","name":"Groß-Umstadt, Stadt","type":"Stadt"},"district":{"key":"06432","name":"Darmstadt-Dieburg","type":"Landkreis"},"federalState":{"key":"06","name":"Hessen"}},{"name":"Groß-Umstädter Str.","postalCode":"64823","locality":"Groß-Umstadt","municipality":{"key":"06432010","name":"Groß-Umstadt, Stadt","type":"Stadt"},"district":{"key":"06432","name":"Darmstadt-Dieburg","type":"Landkreis"},"federalState":{"key":"06","name":"Hessen"}},{"name":"Gutenbergstr.","postalCode":"64823","locality":"Groß-Umstadt","municipality":{"key":"06432010","name":"Groß-Umstadt, Stadt","type":"Stadt"},"district":{"key":"06432","name":"Darmstadt-Dieburg","type":"Landkreis"},"federalState":{"key":"06","name":"Hessen"}},{"name":"Güterstr.","postalCode":"64823","locality":"Groß-Umstadt","municipality":{"key":"06432010","name":"Groß-Umstadt, Stadt","type":"Stadt"},"district":{"key":"06432","name":"Darmstadt-Dieburg","type":"Landkreis"},"federalState":{"key":"06","name":"Hessen"}},{"name":"Habitzheimer Ruh","postalCode":"64823","locality":"Groß-Umstadt","municipality":{"key":"06432010","name":"Groß-Umstadt, Stadt","type":"Stadt"},"district":{"key":"06432","name":"Darmstadt-Dieburg","type":"Landkreis"},"federalState":{"key":"06","name":"Hessen"}},{"name":"Habitzheimer Str.","postalCode":"64823","locality":"Groß-Umstadt","municipality":{"key":"06432010","name":"Groß-Umstadt, Stadt","type":"Stadt"},"district":{"key":"06432","name":"Darmstadt-Dieburg","type":"Landkreis"},"federalState":{"key":"06","name":"Hessen"}},{"name":"Hanauer Gasse","postalCode":"64823","locality":"Groß-Umstadt","municipality":{"key":"06432010","name":"Groß-Umstadt, Stadt","type":"Stadt"},"district":{"key":"06432","name":"Darmstadt-Dieburg","type":"Landkreis"},"federalState":{"key":"06","name":"Hessen"}},{"name":"Hanna-Kirchner-Str.","postalCode":"64823","locality":"Groß-Umstadt","municipality":{"key":"06432010","name":"Groß-Umstadt, Stadt","type":"Stadt"},"district":{"key":"06432","name":"Darmstadt-Dieburg","type":"Landkreis"},"federalState":{"key":"06","name":"Hessen"}},{"name":"Hans-Böckler-Str.","postalCode":"64823","locality":"Groß-Umstadt","municipality":{"key":"06432010","name":"Groß-Umstadt, Stadt","type":"Stadt"},"district":{"key":"06432","name":"Darmstadt-Dieburg","type":"Landkreis"},"federalState":{"key":"06","name":"Hessen"}},{"name":"Hans-Kudlich-Str.","postalCode":"64823","locality":"Groß-Umstadt","municipality":{"key":"06432010","name":"Groß-Umstadt, Stadt","type":"Stadt"},"district":{"key":"06432","name":"Darmstadt-Dieburg","type":"Landkreis"},"federalState":{"key":"06","name":"Hessen"}},{"name":"Harpertshäuser Weg","postalCode":"64823","locality":"Groß-Umstadt","municipality":{"key":"06432010","name":"Groß-Umstadt, Stadt","type":"Stadt"},"district":{"key":"06432","name":"Darmstadt-Dieburg","type":"Landkreis"},"federalState":{"key":"06","name":"Hessen"}},{"name":"Hasen Schneise","postalCode":"64823","locality":"Groß-Umstadt","municipality":{"key":"06432010","name":"Groß-Umstadt, Stadt","type":"Stadt"},"district":{"key":"06432","name":"Darmstadt-Dieburg","type":"Landkreis"},"federalState":{"key":"06","name":"Hessen"}},{"name":"Hauptmannweg","postalCode":"64823","locality":"Groß-Umstadt","municipality":{"key":"06432010","name":"Groß-Umstadt, Stadt","type":"Stadt"},"district":{"key":"06432","name":"Darmstadt-Dieburg","type":"Landkreis"},"federalState":{"key":"06","name":"Hessen"}},{"name":"Hauptstr.","postalCode":"64823","locality":"Groß-Umstadt","municipality":{"key":"06432010","name":"Groß-Umstadt, Stadt","type":"Stadt"},"district":{"key":"06432","name":"Darmstadt-Dieburg","type":"Landkreis"},"federalState":{"key":"06","name":"Hessen"}},{"name":"Heinrich-Bechstein-Str.","postalCode":"64823","locality":"Groß-Umstadt","municipality":{"key":"06432010","name":"Groß-Umstadt, Stadt","type":"Stadt"},"district":{"key":"06432","name":"Darmstadt-Dieburg","type":"Landkreis"},"federalState":{"key":"06","name":"Hessen"}},{"name":"Heinrich-Heine-Str.","postalCode":"64823","locality":"Groß-Umstadt","municipality":{"key":"06432010","name":"Groß-Umstadt, Stadt","type":"Stadt"},"district":{"key":"06432","name":"Darmstadt-Dieburg","type":"Landkreis"},"federalState":{"key":"06","name":"Hessen"}},{"name":"Heinrich-Möser-Str.","postalCode":"64823","locality":"Groß-Umstadt","municipality":{"key":"06432010","name":"Groß-Umstadt, Stadt","type":"Stadt"},"district":{"key":"06432","name":"Darmstadt-Dieburg","type":"Landkreis"},"federalState":{"key":"06","name":"Hessen"}},{"name":"Heinrich-Ritzel-Str.","postalCode":"64823","locality":"Groß-Umstadt","municipality":{"key":"06432010","name":"Groß-Umstadt, Stadt","type":"Stadt"},"district":{"key":"06432","name":"Darmstadt-Dieburg","type":"Landkreis"},"federalState":{"key":"06","name":"Hessen"}},{"name":"Heinrichstr.","postalCode":"64823","locality":"Groß-Umstadt","municipality":{"key":"06432010","name":"Groß-Umstadt, Stadt","type":"Stadt"},"district":{"key":"06432","name":"Darmstadt-Dieburg","type":"Landkreis"},"federalState":{"key":"06","name":"Hessen"}},{"name":"Herrnwald","postalCode":"64823","locality":"Groß-Umstadt","municipality":{"key":"06432010","name":"Groß-Umstadt, Stadt","type":"Stadt"},"district":{"key":"06432","name":"Darmstadt-Dieburg","type":"Landkreis"},"federalState":{"key":"06","name":"Hessen"}},{"name":"Herrnwiesenweg","postalCode":"64823","locality":"Groß-Umstadt","municipality":{"key":"06432010","name":"Groß-Umstadt, Stadt","type":"Stadt"},"district":{"key":"06432","name":"Darmstadt-Dieburg","type":"Landkreis"},"federalState":{"key":"06","name":"Hessen"}},{"name":"Heubacher Weg","postalCode":"64823","locality":"Groß-Umstadt","municipality":{"key":"06432010","name":"Groß-Umstadt, Stadt","type":"Stadt"},"district":{"key":"06432","name":"Darmstadt-Dieburg","type":"Landkreis"},"federalState":{"key":"06","name":"Hessen"}},{"name":"Hinter dem Hag","postalCode":"64823","locality":"Groß-Umstadt","municipality":{"key":"06432010","name":"Groß-Umstadt, Stadt","type":"Stadt"},"district":{"key":"06432","name":"Darmstadt-Dieburg","type":"Landkreis"},"federalState":{"key":"06","name":"Hessen"}},{"name":"Hinter der Burkhardsmühle","postalCode":"64823","locality":"Groß-Umstadt","municipality":{"key":"06432010","name":"Groß-Umstadt, Stadt","type":"Stadt"},"district":{"key":"06432","name":"Darmstadt-Dieburg","type":"Landkreis"},"federalState":{"key":"06","name":"Hessen"}},{"name":"Hinter der Ziegelhütte","postalCode":"64823","locality":"Groß-Umstadt","municipality":{"key":"06432010","name":"Groß-Umstadt, Stadt","type":"Stadt"},"district":{"key":"06432","name":"Darmstadt-Dieburg","type":"Landkreis"},"federalState":{"key":"06","name":"Hessen"}},{"name":"Hirschbergstr.","postalCode":"64823","locality":"Groß-Umstadt","municipality":{"key":"06432010","name":"Groß-Umstadt, Stadt","type":"Stadt"},"district":{"key":"06432","name":"Darmstadt-Dieburg","type":"Landkreis"},"federalState":{"key":"06","name":"Hessen"}},{"name":"Hochstädter Weg","postalCode":"64823","locality":"Groß-Umstadt","municipality":{"key":"06432010","name":"Groß-Umstadt, Stadt","type":"Stadt"},"district":{"key":"06432","name":"Darmstadt-Dieburg","type":"Landkreis"},"federalState":{"key":"06","name":"Hessen"}},{"name":"Höchster Str.","postalCode":"64823","locality":"Groß-Umstadt","municipality":{"key":"06432010","name":"Groß-Umstadt, Stadt","type":"Stadt"},"district":{"key":"06432","name":"Darmstadt-Dieburg","type":"Landkreis"},"federalState":{"key":"06","name":"Hessen"}},{"name":"Hoffeldweg","postalCode":"64823","locality":"Groß-Umstadt","municipality":{"key":"06432010","name":"Groß-Umstadt, Stadt","type":"Stadt"},"district":{"key":"06432","name":"Darmstadt-Dieburg","type":"Landkreis"},"federalState":{"key":"06","name":"Hessen"}},{"name":"Hofrat-Steiner-Weg","postalCode":"64823","locality":"Groß-Umstadt","municipality":{"key":"06432010","name":"Groß-Umstadt, Stadt","type":"Stadt"},"district":{"key":"06432","name":"Darmstadt-Dieburg","type":"Landkreis"},"federalState":{"key":"06","name":"Hessen"}},{"name":"Hohe Str.","postalCode":"64823","locality":"Groß-Umstadt","municipality":{"key":"06432010","name":"Groß-Umstadt, Stadt","type":"Stadt"},"district":{"key":"06432","name":"Darmstadt-Dieburg","type":"Landkreis"},"federalState":{"key":"06","name":"Hessen"}},{"name":"Holunderweg","postalCode":"64823","locality":"Groß-Umstadt","municipality":{"key":"06432010","name":"Groß-Umstadt, Stadt","type":"Stadt"},"district":{"key":"06432","name":"Darmstadt-Dieburg","type":"Landkreis"},"federalState":{"key":"06","name":"Hessen"}},{"name":"Hügelstr.","postalCode":"64823","locality":"Groß-Umstadt","municipality":{"key":"06432010","name":"Groß-Umstadt, Stadt","type":"Stadt"},"district":{"key":"06432","name":"Darmstadt-Dieburg","type":"Landkreis"},"federalState":{"key":"06","name":"Hessen"}},{"name":"Iglauer Str.","postalCode":"64823","locality":"Groß-Umstadt","municipality":{"key":"06432010","name":"Groß-Umstadt, Stadt","type":"Stadt"},"district":{"key":"06432","name":"Darmstadt-Dieburg","type":"Landkreis"},"federalState":{"key":"06","name":"Hessen"}},{"name":"Im Brenzengarten","postalCode":"64823","locality":"Groß-Umstadt","municipality":{"key":"06432010","name":"Groß-Umstadt, Stadt","type":"Stadt"},"district":{"key":"06432","name":"Darmstadt-Dieburg","type":"Landkreis"},"federalState":{"key":"06","name":"Hessen"}},{"name":"Im Darmbruch","postalCode":"64823","locality":"Groß-Umstadt","municipality":{"key":"06432010","name":"Groß-Umstadt, Stadt","type":"Stadt"},"district":{"key":"06432","name":"Darmstadt-Dieburg","type":"Landkreis"},"federalState":{"key":"06","name":"Hessen"}},{"name":"Im Einsiedel","postalCode":"64823","locality":"Groß-Umstadt","municipality":{"key":"06432010","name":"Groß-Umstadt, Stadt","type":"Stadt"},"district":{"key":"06432","name":"Darmstadt-Dieburg","type":"Landkreis"},"federalState":{"key":"06","name":"Hessen"}},{"name":"Im Gehren","postalCode":"64823","locality":"Groß-Umstadt","municipality":{"key":"06432010","name":"Groß-Umstadt, Stadt","type":"Stadt"},"district":{"key":"06432","name":"Darmstadt-Dieburg","type":"Landkreis"},"federalState":{"key":"06","name":"Hessen"}},{"name":"Im Grund","postalCode":"64823","locality":"Groß-Umstadt","municipality":{"key":"06432010","name":"Groß-Umstadt, Stadt","type":"Stadt"},"district":{"key":"06432","name":"Darmstadt-Dieburg","type":"Landkreis"},"federalState":{"key":"06","name":"Hessen"}},{"name":"Im Hopfengarten","postalCode":"64823","locality":"Groß-Umstadt","municipality":{"key":"06432010","name":"Groß-Umstadt, Stadt","type":"Stadt"},"district":{"key":"06432","name":"Darmstadt-Dieburg","type":"Landkreis"},"federalState":{"key":"06","name":"Hessen"}},{"name":"Im Kirchwinkel","postalCode":"64823","locality":"Groß-Umstadt","municipality":{"key":"06432010","name":"Groß-Umstadt, Stadt","type":"Stadt"},"district":{"key":"06432","name":"Darmstadt-Dieburg","type":"Landkreis"},"federalState":{"key":"06","name":"Hessen"}},{"name":"Im Kühlen Grund","postalCode":"64823","locality":"Groß-Umstadt","municipality":{"key":"06432010","name":"Groß-Umstadt, Stadt","type":"Stadt"},"district":{"key":"06432","name":"Darmstadt-Dieburg","type":"Landkreis"},"federalState":{"key":"06","name":"Hessen"}},{"name":"Im Oberen Rech","postalCode":"64823","locality":"Groß-Umstadt","municipality":{"key":"06432010","name":"Groß-Umstadt, Stadt","type":"Stadt"},"district":{"key":"06432","name":"Darmstadt-Dieburg","type":"Landkreis"},"federalState":{"key":"06","name":"Hessen"}},{"name":"Im Ockert","postalCode":"64823","locality":"Groß-Umstadt","municipality":{"key":"06432010","name":"Groß-Umstadt, Stadt","type":"Stadt"},"district":{"key":"06432","name":"Darmstadt-Dieburg","type":"Landkreis"},"federalState":{"key":"06","name":"Hessen"}},{"name":"Im Pfarrhof","postalCode":"64823","locality":"Groß-Umstadt","municipality":{"key":"06432010","name":"Groß-Umstadt, Stadt","type":"Stadt"},"district":{"key":"06432","name":"Darmstadt-Dieburg","type":"Landkreis"},"federalState":{"key":"06","name":"Hessen"}},{"name":"Im Rech","postalCode":"64823","locality":"Groß-Umstadt","municipality":{"key":"06432010","name":"Groß-Umstadt, Stadt","type":"Stadt"},"district":{"key":"06432","name":"Darmstadt-Dieburg","type":"Landkreis"},"federalState":{"key":"06","name":"Hessen"}},{"name":"Im Steingerück","postalCode":"64823","locality":"Groß-Umstadt","municipality":{"key":"06432010","name":"Groß-Umstadt, Stadt","type":"Stadt"},"district":{"key":"06432","name":"Darmstadt-Dieburg","type":"Landkreis"},"federalState":{"key":"06","name":"Hessen"}},{"name":"Im Stiel","postalCode":"64823","locality":"Groß-Umstadt","municipality":{"key":"06432010","name":"Groß-Umstadt, Stadt","type":"Stadt"},"district":{"key":"06432","name":"Darmstadt-Dieburg","type":"Landkreis"},"federalState":{"key":"06","name":"Hessen"}},{"name":"Im Strutfeld","postalCode":"64823","locality":"Groß-Umstadt","municipality":{"key":"06432010","name":"Groß-Umstadt, Stadt","type":"Stadt"},"district":{"key":"06432","name":"Darmstadt-Dieburg","type":"Landkreis"},"federalState":{"key":"06","name":"Hessen"}},{"name":"Im Winkelfeld","postalCode":"64823","locality":"Groß-Umstadt","municipality":{"key":"06432010","name":"Groß-Umstadt, Stadt","type":"Stadt"},"district":{"key":"06432","name":"Darmstadt-Dieburg","type":"Landkreis"},"federalState":{"key":"06","name":"Hessen"}},{"name":"In der Fahrt","postalCode":"64823","locality":"Groß-Umstadt","municipality":{"key":"06432010","name":"Groß-Umstadt, Stadt","type":"Stadt"},"district":{"key":"06432","name":"Darmstadt-Dieburg","type":"Landkreis"},"federalState":{"key":"06","name":"Hessen"}},{"name":"In der Schliem","postalCode":"64823","locality":"Groß-Umstadt","municipality":{"key":"06432010","name":"Groß-Umstadt, Stadt","type":"Stadt"},"district":{"key":"06432","name":"Darmstadt-Dieburg","type":"Landkreis"},"federalState":{"key":"06","name":"Hessen"}},{"name":"Jahnstr.","postalCode":"64823","locality":"Groß-Umstadt","municipality":{"key":"06432010","name":"Groß-Umstadt, Stadt","type":"Stadt"},"district":{"key":"06432","name":"Darmstadt-Dieburg","type":"Landkreis"},"federalState":{"key":"06","name":"Hessen"}},{"name":"Jakob-Müller-Str.","postalCode":"64823","locality":"Groß-Umstadt","municipality":{"key":"06432010","name":"Groß-Umstadt, Stadt","type":"Stadt"},"district":{"key":"06432","name":"Darmstadt-Dieburg","type":"Landkreis"},"federalState":{"key":"06","name":"Hessen"}},{"name":"Johannes-Lampe-Str.","postalCode":"64823","locality":"Groß-Umstadt","municipality":{"key":"06432010","name":"Groß-Umstadt, Stadt","type":"Stadt"},"district":{"key":"06432","name":"Darmstadt-Dieburg","type":"Landkreis"},"federalState":{"key":"06","name":"Hessen"}},{"name":"Julius-Rapp-Str.","postalCode":"64823","locality":"Groß-Umstadt","municipality":{"key":"06432010","name":"Groß-Umstadt, Stadt","type":"Stadt"},"district":{"key":"06432","name":"Darmstadt-Dieburg","type":"Landkreis"},"federalState":{"key":"06","name":"Hessen"}},{"name":"Jürgen-Schumann-Str.","postalCode":"64823","locality":"Groß-Umstadt","municipality":{"key":"06432010","name":"Groß-Umstadt, Stadt","type":"Stadt"},"district":{"key":"06432","name":"Darmstadt-Dieburg","type":"Landkreis"},"federalState":{"key":"06","name":"Hessen"}},{"name":"Kantstr.","postalCode":"64823","locality":"Groß-Umstadt","municipality":{"key":"06432010","name":"Groß-Umstadt, Stadt","type":"Stadt"},"district":{"key":"06432","name":"Darmstadt-Dieburg","type":"Landkreis"},"federalState":{"key":"06","name":"Hessen"}},{"name":"Kappesgärtenweg","postalCode":"64823","locality":"Groß-Umstadt","municipality":{"key":"06432010","name":"Groß-Umstadt, Stadt","type":"Stadt"},"district":{"key":"06432","name":"Darmstadt-Dieburg","type":"Landkreis"},"federalState":{"key":"06","name":"Hessen"}},{"name":"Kapuzinerschneise","postalCode":"64823","locality":"Groß-Umstadt","municipality":{"key":"06432010","name":"Groß-Umstadt, Stadt","type":"Stadt"},"district":{"key":"06432","name":"Darmstadt-Dieburg","type":"Landkreis"},"federalState":{"key":"06","name":"Hessen"}},{"name":"Kärcherstr.","postalCode":"64823","locality":"Groß-Umstadt","municipality":{"key":"06432010","name":"Groß-Umstadt, Stadt","type":"Stadt"},"district":{"key":"06432","name":"Darmstadt-Dieburg","type":"Landkreis"},"federalState":{"key":"06","name":"Hessen"}},{"name":"Karl-Ritzert-Str.","postalCode":"64823","locality":"Groß-Umstadt","municipality":{"key":"06432010","name":"Groß-Umstadt, Stadt","type":"Stadt"},"district":{"key":"06432","name":"Darmstadt-Dieburg","type":"Landkreis"},"federalState":{"key":"06","name":"Hessen"}},{"name":"Karlsbader Str.","postalCode":"64823","locality":"Groß-Umstadt","municipality":{"key":"06432010","name":"Groß-Umstadt, Stadt","type":"Stadt"},"district":{"key":"06432","name":"Darmstadt-Dieburg","type":"Landkreis"},"federalState":{"key":"06","name":"Hessen"}},{"name":"Karlstr.","postalCode":"64823","locality":"Groß-Umstadt","municipality":{"key":"06432010","name":"Groß-Umstadt, Stadt","type":"Stadt"},"district":{"key":"06432","name":"Darmstadt-Dieburg","type":"Landkreis"},"federalState":{"key":"06","name":"Hessen"}},{"name":"Karl-Ulrich-Str.","postalCode":"64823","locality":"Groß-Umstadt","municipality":{"key":"06432010","name":"Groß-Umstadt, Stadt","type":"Stadt"},"district":{"key":"06432","name":"Darmstadt-Dieburg","type":"Landkreis"},"federalState":{"key":"06","name":"Hessen"}},{"name":"Karolinger Str.","postalCode":"64823","locality":"Groß-Umstadt","municipality":{"key":"06432010","name":"Groß-Umstadt, Stadt","type":"Stadt"},"district":{"key":"06432","name":"Darmstadt-Dieburg","type":"Landkreis"},"federalState":{"key":"06","name":"Hessen"}},{"name":"Kastanienweg","postalCode":"64823","locality":"Groß-Umstadt","municipality":{"key":"06432010","name":"Groß-Umstadt, Stadt","type":"Stadt"},"district":{"key":"06432","name":"Darmstadt-Dieburg","type":"Landkreis"},"federalState":{"key":"06","name":"Hessen"}},{"name":"Katzenschneise","postalCode":"64823","locality":"Groß-Umstadt","municipality":{"key":"06432010","name":"Groß-Umstadt, Stadt","type":"Stadt"},"district":{"key":"06432","name":"Darmstadt-Dieburg","type":"Landkreis"},"federalState":{"key":"06","name":"Hessen"}},{"name":"Kiliansweg","postalCode":"64823","locality":"Groß-Umstadt","municipality":{"key":"06432010","name":"Groß-Umstadt, Stadt","type":"Stadt"},"district":{"key":"06432","name":"Darmstadt-Dieburg","type":"Landkreis"},"federalState":{"key":"06","name":"Hessen"}},{"name":"Kirchberger Str.","postalCode":"64823","locality":"Groß-Umstadt","municipality":{"key":"06432010","name":"Groß-Umstadt, Stadt","type":"Stadt"},"district":{"key":"06432","name":"Darmstadt-Dieburg","type":"Landkreis"},"federalState":{"key":"06","name":"Hessen"}},{"name":"Kirchstr.","postalCode":"64823","locality":"Groß-Umstadt","municipality":{"key":"06432010","name":"Groß-Umstadt, Stadt","type":"Stadt"},"district":{"key":"06432","name":"Darmstadt-Dieburg","type":"Landkreis"},"federalState":{"key":"06","name":"Hessen"}},{"name":"Kleestädter Str.","postalCode":"64823","locality":"Groß-Umstadt","municipality":{"key":"06432010","name":"Groß-Umstadt, Stadt","type":"Stadt"},"district":{"key":"06432","name":"Darmstadt-Dieburg","type":"Landkreis"},"federalState":{"key":"06","name":"Hessen"}},{"name":"Klein-Umstädter-Weg","postalCode":"64823","locality":"Groß-Umstadt","municipality":{"key":"06432010","name":"Groß-Umstadt, Stadt","type":"Stadt"},"district":{"key":"06432","name":"Darmstadt-Dieburg","type":"Landkreis"},"federalState":{"key":"06","name":"Hessen"}},{"name":"Königsberger Str.","postalCode":"64823","locality":"Groß-Umstadt","municipality":{"key":"06432010","name":"Groß-Umstadt, Stadt","type":"Stadt"},"district":{"key":"06432","name":"Darmstadt-Dieburg","type":"Landkreis"},"federalState":{"key":"06","name":"Hessen"}},{"name":"Krankenhausstr.","postalCode":"64823","locality":"Groß-Umstadt","municipality":{"key":"06432010","name":"Groß-Umstadt, Stadt","type":"Stadt"},"district":{"key":"06432","name":"Darmstadt-Dieburg","type":"Landkreis"},"federalState":{"key":"06","name":"Hessen"}},{"name":"Kühler Bornweg","postalCode":"64823","locality":"Groß-Umstadt","municipality":{"key":"06432010","name":"Groß-Umstadt, Stadt","type":"Stadt"},"district":{"key":"06432","name":"Darmstadt-Dieburg","type":"Landkreis"},"federalState":{"key":"06","name":"Hessen"}},{"name":"Kurt-Schumacher-Ring","postalCode":"64823","locality":"Groß-Umstadt","municipality":{"key":"06432010","name":"Groß-Umstadt, Stadt","type":"Stadt"},"district":{"key":"06432","name":"Darmstadt-Dieburg","type":"Landkreis"},"federalState":{"key":"06","name":"Hessen"}},{"name":"Lachenseeschneise","postalCode":"64823","locality":"Groß-Umstadt","municipality":{"key":"06432010","name":"Groß-Umstadt, Stadt","type":"Stadt"},"district":{"key":"06432","name":"Darmstadt-Dieburg","type":"Landkreis"},"federalState":{"key":"06","name":"Hessen"}},{"name":"Landrat-Pfeifer-Str.","postalCode":"64823","locality":"Groß-Umstadt","municipality":{"key":"06432010","name":"Groß-Umstadt, Stadt","type":"Stadt"},"district":{"key":"06432","name":"Darmstadt-Dieburg","type":"Landkreis"},"federalState":{"key":"06","name":"Hessen"}},{"name":"Landwehr","postalCode":"64823","locality":"Groß-Umstadt","municipality":{"key":"06432010","name":"Groß-Umstadt, Stadt","type":"Stadt"},"district":{"key":"06432","name":"Darmstadt-Dieburg","type":"Landkreis"},"federalState":{"key":"06","name":"Hessen"}},{"name":"Langstädter Str.","postalCode":"64823","locality":"Groß-Umstadt","municipality":{"key":"06432010","name":"Groß-Umstadt, Stadt","type":"Stadt"},"district":{"key":"06432","name":"Darmstadt-Dieburg","type":"Landkreis"},"federalState":{"key":"06","name":"Hessen"}},{"name":"Langstädter Weg","postalCode":"64823","locality":"Groß-Umstadt","municipality":{"key":"06432010","name":"Groß-Umstadt, Stadt","type":"Stadt"},"district":{"key":"06432","name":"Darmstadt-Dieburg","type":"Landkreis"},"federalState":{"key":"06","name":"Hessen"}},{"name":"Lerchenstr.","postalCode":"64823","locality":"Groß-Umstadt","municipality":{"key":"06432010","name":"Groß-Umstadt, Stadt","type":"Stadt"},"district":{"key":"06432","name":"Darmstadt-Dieburg","type":"Landkreis"},"federalState":{"key":"06","name":"Hessen"}},{"name":"Lessingstr.","postalCode":"64823","locality":"Groß-Umstadt","municipality":{"key":"06432010","name":"Groß-Umstadt, Stadt","type":"Stadt"},"district":{"key":"06432","name":"Darmstadt-Dieburg","type":"Landkreis"},"federalState":{"key":"06","name":"Hessen"}},{"name":"Lichtenbergstr.","postalCode":"64823","locality":"Groß-Umstadt","municipality":{"key":"06432010","name":"Groß-Umstadt, Stadt","type":"Stadt"},"district":{"key":"06432","name":"Darmstadt-Dieburg","type":"Landkreis"},"federalState":{"key":"06","name":"Hessen"}},{"name":"Lindenweg","postalCode":"64823","locality":"Groß-Umstadt","municipality":{"key":"06432010","name":"Groß-Umstadt, Stadt","type":"Stadt"},"district":{"key":"06432","name":"Darmstadt-Dieburg","type":"Landkreis"},"federalState":{"key":"06","name":"Hessen"}},{"name":"Lise-Meitner-Str.","postalCode":"64823","locality":"Groß-Umstadt","municipality":{"key":"06432010","name":"Groß-Umstadt, Stadt","type":"Stadt"},"district":{"key":"06432","name":"Darmstadt-Dieburg","type":"Landkreis"},"federalState":{"key":"06","name":"Hessen"}},{"name":"Ludwigstr.","postalCode":"64823","locality":"Groß-Umstadt","municipality":{"key":"06432010","name":"Groß-Umstadt, Stadt","type":"Stadt"},"district":{"key":"06432","name":"Darmstadt-Dieburg","type":"Landkreis"},"federalState":{"key":"06","name":"Hessen"}},{"name":"Luise-Büchner-Str.","postalCode":"64823","locality":"Groß-Umstadt","municipality":{"key":"06432010","name":"Groß-Umstadt, Stadt","type":"Stadt"},"district":{"key":"06432","name":"Darmstadt-Dieburg","type":"Landkreis"},"federalState":{"key":"06","name":"Hessen"}},{"name":"Lutz-Krauß-Str.","postalCode":"64823","locality":"Groß-Umstadt","municipality":{"key":"06432010","name":"Groß-Umstadt, Stadt","type":"Stadt"},"district":{"key":"06432","name":"Darmstadt-Dieburg","type":"Landkreis"},"federalState":{"key":"06","name":"Hessen"}},{"name":"Marie-Curie-Str.","postalCode":"64823","locality":"Groß-Umstadt","municipality":{"key":"06432010","name":"Groß-Umstadt, Stadt","type":"Stadt"},"district":{"key":"06432","name":"Darmstadt-Dieburg","type":"Landkreis"},"federalState":{"key":"06","name":"Hessen"}},{"name":"Markt","postalCode":"64823","locality":"Groß-Umstadt","municipality":{"key":"06432010","name":"Groß-Umstadt, Stadt","type":"Stadt"},"district":{"key":"06432","name":"Darmstadt-Dieburg","type":"Landkreis"},"federalState":{"key":"06","name":"Hessen"}},{"name":"Marktplatz","postalCode":"64823","locality":"Groß-Umstadt","municipality":{"key":"06432010","name":"Groß-Umstadt, Stadt","type":"Stadt"},"district":{"key":"06432","name":"Darmstadt-Dieburg","type":"Landkreis"},"federalState":{"key":"06","name":"Hessen"}},{"name":"Max-Eyth-Weg","postalCode":"64823","locality":"Groß-Umstadt","municipality":{"key":"06432010","name":"Groß-Umstadt, Stadt","type":"Stadt"},"district":{"key":"06432","name":"Darmstadt-Dieburg","type":"Landkreis"},"federalState":{"key":"06","name":"Hessen"}},{"name":"Mittelstr.","postalCode":"64823","locality":"Groß-Umstadt","municipality":{"key":"06432010","name":"Groß-Umstadt, Stadt","type":"Stadt"},"district":{"key":"06432","name":"Darmstadt-Dieburg","type":"Landkreis"},"federalState":{"key":"06","name":"Hessen"}},{"name":"Mömlinger Str.","postalCode":"64823","locality":"Groß-Umstadt","municipality":{"key":"06432010","name":"Groß-Umstadt, Stadt","type":"Stadt"},"district":{"key":"06432","name":"Darmstadt-Dieburg","type":"Landkreis"},"federalState":{"key":"06","name":"Hessen"}},{"name":"Mörsweg","postalCode":"64823","locality":"Groß-Umstadt","municipality":{"key":"06432010","name":"Groß-Umstadt, Stadt","type":"Stadt"},"district":{"key":"06432","name":"Darmstadt-Dieburg","type":"Landkreis"},"federalState":{"key":"06","name":"Hessen"}},{"name":"Mozartweg","postalCode":"64823","locality":"Groß-Umstadt","municipality":{"key":"06432010","name":"Groß-Umstadt, Stadt","type":"Stadt"},"district":{"key":"06432","name":"Darmstadt-Dieburg","type":"Landkreis"},"federalState":{"key":"06","name":"Hessen"}},{"name":"Mühlhohl","postalCode":"64823","locality":"Groß-Umstadt","municipality":{"key":"06432010","name":"Groß-Umstadt, Stadt","type":"Stadt"},"district":{"key":"06432","name":"Darmstadt-Dieburg","type":"Landkreis"},"federalState":{"key":"06","name":"Hessen"}},{"name":"Mühlstr.","postalCode":"64823","locality":"Groß-Umstadt","municipality":{"key":"06432010","name":"Groß-Umstadt, Stadt","type":"Stadt"},"district":{"key":"06432","name":"Darmstadt-Dieburg","type":"Landkreis"},"federalState":{"key":"06","name":"Hessen"}},{"name":"Neuberg","postalCode":"64823","locality":"Groß-Umstadt","municipality":{"key":"06432010","name":"Groß-Umstadt, Stadt","type":"Stadt"},"district":{"key":"06432","name":"Darmstadt-Dieburg","type":"Landkreis"},"federalState":{"key":"06","name":"Hessen"}},{"name":"Oberdorf","postalCode":"64823","locality":"Groß-Umstadt","municipality":{"key":"06432010","name":"Groß-Umstadt, Stadt","type":"Stadt"},"district":{"key":"06432","name":"Darmstadt-Dieburg","type":"Landkreis"},"federalState":{"key":"06","name":"Hessen"}},{"name":"Obere Marktstr.","postalCode":"64823","locality":"Groß-Umstadt","municipality":{"key":"06432010","name":"Groß-Umstadt, Stadt","type":"Stadt"},"district":{"key":"06432","name":"Darmstadt-Dieburg","type":"Landkreis"},"federalState":{"key":"06","name":"Hessen"}},{"name":"Oberendstr.","postalCode":"64823","locality":"Groß-Umstadt","municipality":{"key":"06432010","name":"Groß-Umstadt, Stadt","type":"Stadt"},"district":{"key":"06432","name":"Darmstadt-Dieburg","type":"Landkreis"},"federalState":{"key":"06","name":"Hessen"}},{"name":"Obergasse","postalCode":"64823","locality":"Groß-Umstadt","municipality":{"key":"06432010","name":"Groß-Umstadt, Stadt","type":"Stadt"},"district":{"key":"06432","name":"Darmstadt-Dieburg","type":"Landkreis"},"federalState":{"key":"06","name":"Hessen"}},{"name":"Obertorstr.","postalCode":"64823","locality":"Groß-Umstadt","municipality":{"key":"06432010","name":"Groß-Umstadt, Stadt","type":"Stadt"},"district":{"key":"06432","name":"Darmstadt-Dieburg","type":"Landkreis"},"federalState":{"key":"06","name":"Hessen"}},{"name":"Odenwaldstr.","postalCode":"64823","locality":"Groß-Umstadt","municipality":{"key":"06432010","name":"Groß-Umstadt, Stadt","type":"Stadt"},"district":{"key":"06432","name":"Darmstadt-Dieburg","type":"Landkreis"},"federalState":{"key":"06","name":"Hessen"}},{"name":"Ohlbachweg","postalCode":"64823","locality":"Groß-Umstadt","municipality":{"key":"06432010","name":"Groß-Umstadt, Stadt","type":"Stadt"},"district":{"key":"06432","name":"Darmstadt-Dieburg","type":"Landkreis"},"federalState":{"key":"06","name":"Hessen"}},{"name":"Ortsstr.","postalCode":"64823","locality":"Groß-Umstadt","municipality":{"key":"06432010","name":"Groß-Umstadt, Stadt","type":"Stadt"},"district":{"key":"06432","name":"Darmstadt-Dieburg","type":"Landkreis"},"federalState":{"key":"06","name":"Hessen"}},{"name":"Ostring","postalCode":"64823","locality":"Groß-Umstadt","municipality":{"key":"06432010","name":"Groß-Umstadt, Stadt","type":"Stadt"},"district":{"key":"06432","name":"Darmstadt-Dieburg","type":"Landkreis"},"federalState":{"key":"06","name":"Hessen"}},{"name":"Otto-Frank-Str.","postalCode":"64823","locality":"Groß-Umstadt","municipality":{"key":"06432010","name":"Groß-Umstadt, Stadt","type":"Stadt"},"district":{"key":"06432","name":"Darmstadt-Dieburg","type":"Landkreis"},"federalState":{"key":"06","name":"Hessen"}},{"name":"Otto-Hahn-Str.","postalCode":"64823","locality":"Groß-Umstadt","municipality":{"key":"06432010","name":"Groß-Umstadt, Stadt","type":"Stadt"},"district":{"key":"06432","name":"Darmstadt-Dieburg","type":"Landkreis"},"federalState":{"key":"06","name":"Hessen"}},{"name":"Otto-Sturmfels-Str.","postalCode":"64823","locality":"Groß-Umstadt","municipality":{"key":"06432010","name":"Groß-Umstadt, Stadt","type":"Stadt"},"district":{"key":"06432","name":"Darmstadt-Dieburg","type":"Landkreis"},"federalState":{"key":"06","name":"Hessen"}},{"name":"Otzbergstr.","postalCode":"64823","locality":"Groß-Umstadt","municipality":{"key":"06432010","name":"Groß-Umstadt, Stadt","type":"Stadt"},"district":{"key":"06432","name":"Darmstadt-Dieburg","type":"Landkreis"},"federalState":{"key":"06","name":"Hessen"}},{"name":"Palme-und-Walter-Weg","postalCode":"64823","locality":"Groß-Umstadt","municipality":{"key":"06432010","name":"Groß-Umstadt, Stadt","type":"Stadt"},"district":{"key":"06432","name":"Darmstadt-Dieburg","type":"Landkreis"},"federalState":{"key":"06","name":"Hessen"}},{"name":"Pappelweg","postalCode":"64823","locality":"Groß-Umstadt","municipality":{"key":"06432010","name":"Groß-Umstadt, Stadt","type":"Stadt"},"district":{"key":"06432","name":"Darmstadt-Dieburg","type":"Landkreis"},"federalState":{"key":"06","name":"Hessen"}},{"name":"Pestalozzistr.","postalCode":"64823","locality":"Groß-Umstadt","municipality":{"key":"06432010","name":"Groß-Umstadt, Stadt","type":"Stadt"},"district":{"key":"06432","name":"Darmstadt-Dieburg","type":"Landkreis"},"federalState":{"key":"06","name":"Hessen"}},{"name":"Pfaffenzipfenschneise","postalCode":"64823","locality":"Groß-Umstadt","municipality":{"key":"06432010","name":"Groß-Umstadt, Stadt","type":"Stadt"},"district":{"key":"06432","name":"Darmstadt-Dieburg","type":"Landkreis"},"federalState":{"key":"06","name":"Hessen"}},{"name":"Pfälzer Gasse","postalCode":"64823","locality":"Groß-Umstadt","municipality":{"key":"06432010","name":"Groß-Umstadt, Stadt","type":"Stadt"},"district":{"key":"06432","name":"Darmstadt-Dieburg","type":"Landkreis"},"federalState":{"key":"06","name":"Hessen"}},{"name":"Pfarrstr.","postalCode":"64823","locality":"Groß-Umstadt","municipality":{"key":"06432010","name":"Groß-Umstadt, Stadt","type":"Stadt"},"district":{"key":"06432","name":"Darmstadt-Dieburg","type":"Landkreis"},"federalState":{"key":"06","name":"Hessen"}},{"name":"Pilgerpfad","postalCode":"64823","locality":"Groß-Umstadt","municipality":{"key":"06432010","name":"Groß-Umstadt, Stadt","type":"Stadt"},"district":{"key":"06432","name":"Darmstadt-Dieburg","type":"Landkreis"},"federalState":{"key":"06","name":"Hessen"}},{"name":"Plattenweg","postalCode":"64823","locality":"Groß-Umstadt","municipality":{"key":"06432010","name":"Groß-Umstadt, Stadt","type":"Stadt"},"district":{"key":"06432","name":"Darmstadt-Dieburg","type":"Landkreis"},"federalState":{"key":"06","name":"Hessen"}},{"name":"Pommernstr.","postalCode":"64823","locality":"Groß-Umstadt","municipality":{"key":"06432010","name":"Groß-Umstadt, Stadt","type":"Stadt"},"district":{"key":"06432","name":"Darmstadt-Dieburg","type":"Landkreis"},"federalState":{"key":"06","name":"Hessen"}},{"name":"Prof.-Völzing-Ring","postalCode":"64823","locality":"Groß-Umstadt","municipality":{"key":"06432010","name":"Groß-Umstadt, Stadt","type":"Stadt"},"district":{"key":"06432","name":"Darmstadt-Dieburg","type":"Landkreis"},"federalState":{"key":"06","name":"Hessen"}},{"name":"R1","postalCode":"64823","locality":"Groß-Umstadt","municipality":{"key":"06432010","name":"Groß-Umstadt, Stadt","type":"Stadt"},"district":{"key":"06432","name":"Darmstadt-Dieburg","type":"Landkreis"},"federalState":{"key":"06","name":"Hessen"}},{"name":"Radheimer Str.","postalCode":"64823","locality":"Groß-Umstadt","municipality":{"key":"06432010","name":"Groß-Umstadt, Stadt","type":"Stadt"},"district":{"key":"06432","name":"Darmstadt-Dieburg","type":"Landkreis"},"federalState":{"key":"06","name":"Hessen"}},{"name":"Raibacher Tal","postalCode":"64823","locality":"Groß-Umstadt","municipality":{"key":"06432010","name":"Groß-Umstadt, Stadt","type":"Stadt"},"district":{"key":"06432","name":"Darmstadt-Dieburg","type":"Landkreis"},"federalState":{"key":"06","name":"Hessen"}},{"name":"Rathausgasse","postalCode":"64823","locality":"Groß-Umstadt","municipality":{"key":"06432010","name":"Groß-Umstadt, Stadt","type":"Stadt"},"district":{"key":"06432","name":"Darmstadt-Dieburg","type":"Landkreis"},"federalState":{"key":"06","name":"Hessen"}},{"name":"Realschulstr.","postalCode":"64823","locality":"Groß-Umstadt","municipality":{"key":"06432010","name":"Groß-Umstadt, Stadt","type":"Stadt"},"district":{"key":"06432","name":"Darmstadt-Dieburg","type":"Landkreis"},"federalState":{"key":"06","name":"Hessen"}},{"name":"Rebenstr.","postalCode":"64823","locality":"Groß-Umstadt","municipality":{"key":"06432010","name":"Groß-Umstadt, Stadt","type":"Stadt"},"district":{"key":"06432","name":"Darmstadt-Dieburg","type":"Landkreis"},"federalState":{"key":"06","name":"Hessen"}},{"name":"Richer Str.","postalCode":"64823","locality":"Groß-Umstadt","municipality":{"key":"06432010","name":"Groß-Umstadt, Stadt","type":"Stadt"},"district":{"key":"06432","name":"Darmstadt-Dieburg","type":"Landkreis"},"federalState":{"key":"06","name":"Hessen"}},{"name":"Rieslingweg","postalCode":"64823","locality":"Groß-Umstadt","municipality":{"key":"06432010","name":"Groß-Umstadt, Stadt","type":"Stadt"},"district":{"key":"06432","name":"Darmstadt-Dieburg","type":"Landkreis"},"federalState":{"key":"06","name":"Hessen"}},{"name":"Ringstr.","postalCode":"64823","locality":"Groß-Umstadt","municipality":{"key":"06432010","name":"Groß-Umstadt, Stadt","type":"Stadt"},"district":{"key":"06432","name":"Darmstadt-Dieburg","type":"Landkreis"},"federalState":{"key":"06","name":"Hessen"}},{"name":"Robert-Bosch-Str.","postalCode":"64823","locality":"Groß-Umstadt","municipality":{"key":"06432010","name":"Groß-Umstadt, Stadt","type":"Stadt"},"district":{"key":"06432","name":"Darmstadt-Dieburg","type":"Landkreis"},"federalState":{"key":"06","name":"Hessen"}},{"name":"Rodensteiner Str.","postalCode":"64823","locality":"Groß-Umstadt","municipality":{"key":"06432010","name":"Groß-Umstadt, Stadt","type":"Stadt"},"district":{"key":"06432","name":"Darmstadt-Dieburg","type":"Landkreis"},"federalState":{"key":"06","name":"Hessen"}},{"name":"Rohrwiesenweg","postalCode":"64823","locality":"Groß-Umstadt","municipality":{"key":"06432010","name":"Groß-Umstadt, Stadt","type":"Stadt"},"district":{"key":"06432","name":"Darmstadt-Dieburg","type":"Landkreis"},"federalState":{"key":"06","name":"Hessen"}},{"name":"Römerhofstr.","postalCode":"64823","locality":"Groß-Umstadt","municipality":{"key":"06432010","name":"Groß-Umstadt, Stadt","type":"Stadt"},"district":{"key":"06432","name":"Darmstadt-Dieburg","type":"Landkreis"},"federalState":{"key":"06","name":"Hessen"}},{"name":"Röntgenstr.","postalCode":"64823","locality":"Groß-Umstadt","municipality":{"key":"06432010","name":"Groß-Umstadt, Stadt","type":"Stadt"},"district":{"key":"06432","name":"Darmstadt-Dieburg","type":"Landkreis"},"federalState":{"key":"06","name":"Hessen"}},{"name":"Rosa-Heinz-Weg","postalCode":"64823","locality":"Groß-Umstadt","municipality":{"key":"06432010","name":"Groß-Umstadt, Stadt","type":"Stadt"},"district":{"key":"06432","name":"Darmstadt-Dieburg","type":"Landkreis"},"federalState":{"key":"06","name":"Hessen"}},{"name":"Rosenhöhe","postalCode":"64823","locality":"Groß-Umstadt","municipality":{"key":"06432010","name":"Groß-Umstadt, Stadt","type":"Stadt"},"district":{"key":"06432","name":"Darmstadt-Dieburg","type":"Landkreis"},"federalState":{"key":"06","name":"Hessen"}},{"name":"Sachsenstr.","postalCode":"64823","locality":"Groß-Umstadt","municipality":{"key":"06432010","name":"Groß-Umstadt, Stadt","type":"Stadt"},"district":{"key":"06432","name":"Darmstadt-Dieburg","type":"Landkreis"},"federalState":{"key":"06","name":"Hessen"}},{"name":"Sackgasse","postalCode":"64823","locality":"Groß-Umstadt","municipality":{"key":"06432010","name":"Groß-Umstadt, Stadt","type":"Stadt"},"district":{"key":"06432","name":"Darmstadt-Dieburg","type":"Landkreis"},"federalState":{"key":"06","name":"Hessen"}},{"name":"Salzberg","postalCode":"64823","locality":"Groß-Umstadt","municipality":{"key":"06432010","name":"Groß-Umstadt, Stadt","type":"Stadt"},"district":{"key":"06432","name":"Darmstadt-Dieburg","type":"Landkreis"},"federalState":{"key":"06","name":"Hessen"}},{"name":"Sälzerweg","postalCode":"64823","locality":"Groß-Umstadt","municipality":{"key":"06432010","name":"Groß-Umstadt, Stadt","type":"Stadt"},"district":{"key":"06432","name":"Darmstadt-Dieburg","type":"Landkreis"},"federalState":{"key":"06","name":"Hessen"}},{"name":"Sandheckenweg","postalCode":"64823","locality":"Groß-Umstadt","municipality":{"key":"06432010","name":"Groß-Umstadt, Stadt","type":"Stadt"},"district":{"key":"06432","name":"Darmstadt-Dieburg","type":"Landkreis"},"federalState":{"key":"06","name":"Hessen"}},{"name":"Sandweg","postalCode":"64823","locality":"Groß-Umstadt","municipality":{"key":"06432010","name":"Groß-Umstadt, Stadt","type":"Stadt"},"district":{"key":"06432","name":"Darmstadt-Dieburg","type":"Landkreis"},"federalState":{"key":"06","name":"Hessen"}},{"name":"Santo-Tirso-Ring","postalCode":"64823","locality":"Groß-Umstadt","municipality":{"key":"06432010","name":"Groß-Umstadt, Stadt","type":"Stadt"},"district":{"key":"06432","name":"Darmstadt-Dieburg","type":"Landkreis"},"federalState":{"key":"06","name":"Hessen"}},{"name":"Schäfergasse","postalCode":"64823","locality":"Groß-Umstadt","municipality":{"key":"06432010","name":"Groß-Umstadt, Stadt","type":"Stadt"},"district":{"key":"06432","name":"Darmstadt-Dieburg","type":"Landkreis"},"federalState":{"key":"06","name":"Hessen"}},{"name":"Schellengasse","postalCode":"64823","locality":"Groß-Umstadt","municipality":{"key":"06432010","name":"Groß-Umstadt, Stadt","type":"Stadt"},"district":{"key":"06432","name":"Darmstadt-Dieburg","type":"Landkreis"},"federalState":{"key":"06","name":"Hessen"}},{"name":"Scheuerweg","postalCode":"64823","locality":"Groß-Umstadt","municipality":{"key":"06432010","name":"Groß-Umstadt, Stadt","type":"Stadt"},"district":{"key":"06432","name":"Darmstadt-Dieburg","type":"Landkreis"},"federalState":{"key":"06","name":"Hessen"}},{"name":"Schiffweg","postalCode":"64823","locality":"Groß-Umstadt","municipality":{"key":"06432010","name":"Groß-Umstadt, Stadt","type":"Stadt"},"district":{"key":"06432","name":"Darmstadt-Dieburg","type":"Landkreis"},"federalState":{"key":"06","name":"Hessen"}},{"name":"Schillerstr.","postalCode":"64823","locality":"Groß-Umstadt","municipality":{"key":"06432010","name":"Groß-Umstadt, Stadt","type":"Stadt"},"district":{"key":"06432","name":"Darmstadt-Dieburg","type":"Landkreis"},"federalState":{"key":"06","name":"Hessen"}},{"name":"Schlierbacher Str.","postalCode":"64823","locality":"Groß-Umstadt","municipality":{"key":"06432010","name":"Groß-Umstadt, Stadt","type":"Stadt"},"district":{"key":"06432","name":"Darmstadt-Dieburg","type":"Landkreis"},"federalState":{"key":"06","name":"Hessen"}},{"name":"Schmiedestr.","postalCode":"64823","locality":"Groß-Umstadt","municipality":{"key":"06432010","name":"Groß-Umstadt, Stadt","type":"Stadt"},"district":{"key":"06432","name":"Darmstadt-Dieburg","type":"Landkreis"},"federalState":{"key":"06","name":"Hessen"}},{"name":"Schubertweg","postalCode":"64823","locality":"Groß-Umstadt","municipality":{"key":"06432010","name":"Groß-Umstadt, Stadt","type":"Stadt"},"district":{"key":"06432","name":"Darmstadt-Dieburg","type":"Landkreis"},"federalState":{"key":"06","name":"Hessen"}},{"name":"Schulstr.","postalCode":"64823","locality":"Groß-Umstadt","municipality":{"key":"06432010","name":"Groß-Umstadt, Stadt","type":"Stadt"},"district":{"key":"06432","name":"Darmstadt-Dieburg","type":"Landkreis"},"federalState":{"key":"06","name":"Hessen"}},{"name":"Schwanengasse","postalCode":"64823","locality":"Groß-Umstadt","municipality":{"key":"06432010","name":"Groß-Umstadt, Stadt","type":"Stadt"},"district":{"key":"06432","name":"Darmstadt-Dieburg","type":"Landkreis"},"federalState":{"key":"06","name":"Hessen"}},{"name":"Seegrabenweg","postalCode":"64823","locality":"Groß-Umstadt","municipality":{"key":"06432010","name":"Groß-Umstadt, Stadt","type":"Stadt"},"district":{"key":"06432","name":"Darmstadt-Dieburg","type":"Landkreis"},"federalState":{"key":"06","name":"Hessen"}},{"name":"Seewiese","postalCode":"64823","locality":"Groß-Umstadt","municipality":{"key":"06432010","name":"Groß-Umstadt, Stadt","type":"Stadt"},"district":{"key":"06432","name":"Darmstadt-Dieburg","type":"Landkreis"},"federalState":{"key":"06","name":"Hessen"}},{"name":"Seilhängebrücke","postalCode":"64823","locality":"Groß-Umstadt","municipality":{"key":"06432010","name":"Groß-Umstadt, Stadt","type":"Stadt"},"district":{"key":"06432","name":"Darmstadt-Dieburg","type":"Landkreis"},"federalState":{"key":"06","name":"Hessen"}},{"name":"Semder Str.","postalCode":"64823","locality":"Groß-Umstadt","municipality":{"key":"06432010","name":"Groß-Umstadt, Stadt","type":"Stadt"},"district":{"key":"06432","name":"Darmstadt-Dieburg","type":"Landkreis"},"federalState":{"key":"06","name":"Hessen"}},{"name":"Semder Weg","postalCode":"64823","locality":"Groß-Umstadt","municipality":{"key":"06432010","name":"Groß-Umstadt, Stadt","type":"Stadt"},"district":{"key":"06432","name":"Darmstadt-Dieburg","type":"Landkreis"},"federalState":{"key":"06","name":"Hessen"}},{"name":"Siemensstr.","postalCode":"64823","locality":"Groß-Umstadt","municipality":{"key":"06432010","name":"Groß-Umstadt, Stadt","type":"Stadt"},"district":{"key":"06432","name":"Darmstadt-Dieburg","type":"Landkreis"},"federalState":{"key":"06","name":"Hessen"}},{"name":"Sophie-Scholl-Str.","postalCode":"64823","locality":"Groß-Umstadt","municipality":{"key":"06432010","name":"Groß-Umstadt, Stadt","type":"Stadt"},"district":{"key":"06432","name":"Darmstadt-Dieburg","type":"Landkreis"},"federalState":{"key":"06","name":"Hessen"}},{"name":"Spitzengasse","postalCode":"64823","locality":"Groß-Umstadt","municipality":{"key":"06432010","name":"Groß-Umstadt, Stadt","type":"Stadt"},"district":{"key":"06432","name":"Darmstadt-Dieburg","type":"Landkreis"},"federalState":{"key":"06","name":"Hessen"}},{"name":"Steinbornshohl","postalCode":"64823","locality":"Groß-Umstadt","municipality":{"key":"06432010","name":"Groß-Umstadt, Stadt","type":"Stadt"},"district":{"key":"06432","name":"Darmstadt-Dieburg","type":"Landkreis"},"federalState":{"key":"06","name":"Hessen"}},{"name":"Steingerücksweg","postalCode":"64823","locality":"Groß-Umstadt","municipality":{"key":"06432010","name":"Groß-Umstadt, Stadt","type":"Stadt"},"district":{"key":"06432","name":"Darmstadt-Dieburg","type":"Landkreis"},"federalState":{"key":"06","name":"Hessen"}},{"name":"Steinschönauer Str.","postalCode":"64823","locality":"Groß-Umstadt","municipality":{"key":"06432010","name":"Groß-Umstadt, Stadt","type":"Stadt"},"district":{"key":"06432","name":"Darmstadt-Dieburg","type":"Landkreis"},"federalState":{"key":"06","name":"Hessen"}},{"name":"Steinweg","postalCode":"64823","locality":"Groß-Umstadt","municipality":{"key":"06432010","name":"Groß-Umstadt, Stadt","type":"Stadt"},"district":{"key":"06432","name":"Darmstadt-Dieburg","type":"Landkreis"},"federalState":{"key":"06","name":"Hessen"}},{"name":"Stettiner Str.","postalCode":"64823","locality":"Groß-Umstadt","municipality":{"key":"06432010","name":"Groß-Umstadt, Stadt","type":"Stadt"},"district":{"key":"06432","name":"Darmstadt-Dieburg","type":"Landkreis"},"federalState":{"key":"06","name":"Hessen"}},{"name":"Storchwiesen Schneise","postalCode":"64823","locality":"Groß-Umstadt","municipality":{"key":"06432010","name":"Groß-Umstadt, Stadt","type":"Stadt"},"district":{"key":"06432","name":"Darmstadt-Dieburg","type":"Landkreis"},"federalState":{"key":"06","name":"Hessen"}},{"name":"St.-Peray-Str.","postalCode":"64823","locality":"Groß-Umstadt","municipality":{"key":"06432010","name":"Groß-Umstadt, Stadt","type":"Stadt"},"district":{"key":"06432","name":"Darmstadt-Dieburg","type":"Landkreis"},"federalState":{"key":"06","name":"Hessen"}},{"name":"Sudetenstr.","postalCode":"64823","locality":"Groß-Umstadt","municipality":{"key":"06432010","name":"Groß-Umstadt, Stadt","type":"Stadt"},"district":{"key":"06432","name":"Darmstadt-Dieburg","type":"Landkreis"},"federalState":{"key":"06","name":"Hessen"}},{"name":"Tambourgasse","postalCode":"64823","locality":"Groß-Umstadt","municipality":{"key":"06432010","name":"Groß-Umstadt, Stadt","type":"Stadt"},"district":{"key":"06432","name":"Darmstadt-Dieburg","type":"Landkreis"},"federalState":{"key":"06","name":"Hessen"}},{"name":"Tannenweg","postalCode":"64823","locality":"Groß-Umstadt","municipality":{"key":"06432010","name":"Groß-Umstadt, Stadt","type":"Stadt"},"district":{"key":"06432","name":"Darmstadt-Dieburg","type":"Landkreis"},"federalState":{"key":"06","name":"Hessen"}},{"name":"Taubenweg","postalCode":"64823","locality":"Groß-Umstadt","municipality":{"key":"06432010","name":"Groß-Umstadt, Stadt","type":"Stadt"},"district":{"key":"06432","name":"Darmstadt-Dieburg","type":"Landkreis"},"federalState":{"key":"06","name":"Hessen"}},{"name":"Teichgasse","postalCode":"64823","locality":"Groß-Umstadt","municipality":{"key":"06432010","name":"Groß-Umstadt, Stadt","type":"Stadt"},"district":{"key":"06432","name":"Darmstadt-Dieburg","type":"Landkreis"},"federalState":{"key":"06","name":"Hessen"}},{"name":"Theodor-Heuss-Str.","postalCode":"64823","locality":"Groß-Umstadt","municipality":{"key":"06432010","name":"Groß-Umstadt, Stadt","type":"Stadt"},"district":{"key":"06432","name":"Darmstadt-Dieburg","type":"Landkreis"},"federalState":{"key":"06","name":"Hessen"}},{"name":"Thüringer Str.","postalCode":"64823","locality":"Groß-Umstadt","municipality":{"key":"06432010","name":"Groß-Umstadt, Stadt","type":"Stadt"},"district":{"key":"06432","name":"Darmstadt-Dieburg","type":"Landkreis"},"federalState":{"key":"06","name":"Hessen"}},{"name":"Traubenweg","postalCode":"64823","locality":"Groß-Umstadt","municipality":{"key":"06432010","name":"Groß-Umstadt, Stadt","type":"Stadt"},"district":{"key":"06432","name":"Darmstadt-Dieburg","type":"Landkreis"},"federalState":{"key":"06","name":"Hessen"}},{"name":"Triebhohl","postalCode":"64823","locality":"Groß-Umstadt","municipality":{"key":"06432010","name":"Groß-Umstadt, Stadt","type":"Stadt"},"district":{"key":"06432","name":"Darmstadt-Dieburg","type":"Landkreis"},"federalState":{"key":"06","name":"Hessen"}},{"name":"Triebshohl","postalCode":"64823","locality":"Groß-Umstadt","municipality":{"key":"06432010","name":"Groß-Umstadt, Stadt","type":"Stadt"},"district":{"key":"06432","name":"Darmstadt-Dieburg","type":"Landkreis"},"federalState":{"key":"06","name":"Hessen"}},{"name":"Tulpenweg","postalCode":"64823","locality":"Groß-Umstadt","municipality":{"key":"06432010","name":"Groß-Umstadt, Stadt","type":"Stadt"},"district":{"key":"06432","name":"Darmstadt-Dieburg","type":"Landkreis"},"federalState":{"key":"06","name":"Hessen"}},{"name":"Turmgasse","postalCode":"64823","locality":"Groß-Umstadt","municipality":{"key":"06432010","name":"Groß-Umstadt, Stadt","type":"Stadt"},"district":{"key":"06432","name":"Darmstadt-Dieburg","type":"Landkreis"},"federalState":{"key":"06","name":"Hessen"}},{"name":"Uhlandstr.","postalCode":"64823","locality":"Groß-Umstadt","municipality":{"key":"06432010","name":"Groß-Umstadt, Stadt","type":"Stadt"},"district":{"key":"06432","name":"Darmstadt-Dieburg","type":"Landkreis"},"federalState":{"key":"06","name":"Hessen"}},{"name":"Unterdorf","postalCode":"64823","locality":"Groß-Umstadt","municipality":{"key":"06432010","name":"Groß-Umstadt, Stadt","type":"Stadt"},"district":{"key":"06432","name":"Darmstadt-Dieburg","type":"Landkreis"},"federalState":{"key":"06","name":"Hessen"}},{"name":"Untere Marktstr.","postalCode":"64823","locality":"Groß-Umstadt","municipality":{"key":"06432010","name":"Groß-Umstadt, Stadt","type":"Stadt"},"district":{"key":"06432","name":"Darmstadt-Dieburg","type":"Landkreis"},"federalState":{"key":"06","name":"Hessen"}},{"name":"Untergasse","postalCode":"64823","locality":"Groß-Umstadt","municipality":{"key":"06432010","name":"Groß-Umstadt, Stadt","type":"Stadt"},"district":{"key":"06432","name":"Darmstadt-Dieburg","type":"Landkreis"},"federalState":{"key":"06","name":"Hessen"}},{"name":"Unterm Rain","postalCode":"64823","locality":"Groß-Umstadt","municipality":{"key":"06432010","name":"Groß-Umstadt, Stadt","type":"Stadt"},"district":{"key":"06432","name":"Darmstadt-Dieburg","type":"Landkreis"},"federalState":{"key":"06","name":"Hessen"}},{"name":"Verbindungsweg","postalCode":"64823","locality":"Groß-Umstadt","municipality":{"key":"06432010","name":"Groß-Umstadt, Stadt","type":"Stadt"},"district":{"key":"06432","name":"Darmstadt-Dieburg","type":"Landkreis"},"federalState":{"key":"06","name":"Hessen"}},{"name":"Wacholderweg","postalCode":"64823","locality":"Groß-Umstadt","municipality":{"key":"06432010","name":"Groß-Umstadt, Stadt","type":"Stadt"},"district":{"key":"06432","name":"Darmstadt-Dieburg","type":"Landkreis"},"federalState":{"key":"06","name":"Hessen"}},{"name":"Waldstr.","postalCode":"64823","locality":"Groß-Umstadt","municipality":{"key":"06432010","name":"Groß-Umstadt, Stadt","type":"Stadt"},"district":{"key":"06432","name":"Darmstadt-Dieburg","type":"Landkreis"},"federalState":{"key":"06","name":"Hessen"}},{"name":"Wallstr.","postalCode":"64823","locality":"Groß-Umstadt","municipality":{"key":"06432010","name":"Groß-Umstadt, Stadt","type":"Stadt"},"district":{"key":"06432","name":"Darmstadt-Dieburg","type":"Landkreis"},"federalState":{"key":"06","name":"Hessen"}},{"name":"Walter-Rathenau-Platz","postalCode":"64823","locality":"Groß-Umstadt","municipality":{"key":"06432010","name":"Groß-Umstadt, Stadt","type":"Stadt"},"district":{"key":"06432","name":"Darmstadt-Dieburg","type":"Landkreis"},"federalState":{"key":"06","name":"Hessen"}},{"name":"Walter-Trautmann-Weg","postalCode":"64823","locality":"Groß-Umstadt","municipality":{"key":"06432010","name":"Groß-Umstadt, Stadt","type":"Stadt"},"district":{"key":"06432","name":"Darmstadt-Dieburg","type":"Landkreis"},"federalState":{"key":"06","name":"Hessen"}},{"name":"Wambolt’scher Park","postalCode":"64823","locality":"Groß-Umstadt","municipality":{"key":"06432010","name":"Groß-Umstadt, Stadt","type":"Stadt"},"district":{"key":"06432","name":"Darmstadt-Dieburg","type":"Landkreis"},"federalState":{"key":"06","name":"Hessen"}},{"name":"Warthweg","postalCode":"64823","locality":"Groß-Umstadt","municipality":{"key":"06432010","name":"Groß-Umstadt, Stadt","type":"Stadt"},"district":{"key":"06432","name":"Darmstadt-Dieburg","type":"Landkreis"},"federalState":{"key":"06","name":"Hessen"}},{"name":"Wasserfall","postalCode":"64823","locality":"Groß-Umstadt","municipality":{"key":"06432010","name":"Groß-Umstadt, Stadt","type":"Stadt"},"district":{"key":"06432","name":"Darmstadt-Dieburg","type":"Landkreis"},"federalState":{"key":"06","name":"Hessen"}},{"name":"Weidweg","postalCode":"64823","locality":"Groß-Umstadt","municipality":{"key":"06432010","name":"Groß-Umstadt, Stadt","type":"Stadt"},"district":{"key":"06432","name":"Darmstadt-Dieburg","type":"Landkreis"},"federalState":{"key":"06","name":"Hessen"}},{"name":"Weinbergstr.","postalCode":"64823","locality":"Groß-Umstadt","municipality":{"key":"06432010","name":"Groß-Umstadt, Stadt","type":"Stadt"},"district":{"key":"06432","name":"Darmstadt-Dieburg","type":"Landkreis"},"federalState":{"key":"06","name":"Hessen"}},{"name":"Weinlehrpfad","postalCode":"64823","locality":"Groß-Umstadt","municipality":{"key":"06432010","name":"Groß-Umstadt, Stadt","type":"Stadt"},"district":{"key":"06432","name":"Darmstadt-Dieburg","type":"Landkreis"},"federalState":{"key":"06","name":"Hessen"}},{"name":"Weinstr.","postalCode":"64823","locality":"Groß-Umstadt","municipality":{"key":"06432010","name":"Groß-Umstadt, Stadt","type":"Stadt"},"district":{"key":"06432","name":"Darmstadt-Dieburg","type":"Landkreis"},"federalState":{"key":"06","name":"Hessen"}},{"name":"Weißdornweg","postalCode":"64823","locality":"Groß-Umstadt","municipality":{"key":"06432010","name":"Groß-Umstadt, Stadt","type":"Stadt"},"district":{"key":"06432","name":"Darmstadt-Dieburg","type":"Landkreis"},"federalState":{"key":"06","name":"Hessen"}},{"name":"Wendelinuspark","postalCode":"64823","locality":"Groß-Umstadt","municipality":{"key":"06432010","name":"Groß-Umstadt, Stadt","type":"Stadt"},"district":{"key":"06432","name":"Darmstadt-Dieburg","type":"Landkreis"},"federalState":{"key":"06","name":"Hessen"}},{"name":"Wendelsweg","postalCode":"64823","locality":"Groß-Umstadt","municipality":{"key":"06432010","name":"Groß-Umstadt, Stadt","type":"Stadt"},"district":{"key":"06432","name":"Darmstadt-Dieburg","type":"Landkreis"},"federalState":{"key":"06","name":"Hessen"}},{"name":"Werner-Heisenberg-Str.","postalCode":"64823","locality":"Groß-Umstadt","municipality":{"key":"06432010","name":"Groß-Umstadt, Stadt","type":"Stadt"},"district":{"key":"06432","name":"Darmstadt-Dieburg","type":"Landkreis"},"federalState":{"key":"06","name":"Hessen"}},{"name":"Westring","postalCode":"64823","locality":"Groß-Umstadt","municipality":{"key":"06432010","name":"Groß-Umstadt, Stadt","type":"Stadt"},"district":{"key":"06432","name":"Darmstadt-Dieburg","type":"Landkreis"},"federalState":{"key":"06","name":"Hessen"}},{"name":"Wiesenstr.","postalCode":"64823","locality":"Groß-Umstadt","municipality":{"key":"06432010","name":"Groß-Umstadt, Stadt","type":"Stadt"},"district":{"key":"06432","name":"Darmstadt-Dieburg","type":"Landkreis"},"federalState":{"key":"06","name":"Hessen"}},{"name":"Wilhelm-Leuschner-Str.","postalCode":"64823","locality":"Groß-Umstadt","municipality":{"key":"06432010","name":"Groß-Umstadt, Stadt","type":"Stadt"},"district":{"key":"06432","name":"Darmstadt-Dieburg","type":"Landkreis"},"federalState":{"key":"06","name":"Hessen"}},{"name":"Wilhelm-Liebknecht-Str.","postalCode":"64823","locality":"Groß-Umstadt","municipality":{"key":"06432010","name":"Groß-Umstadt, Stadt","type":"Stadt"},"district":{"key":"06432","name":"Darmstadt-Dieburg","type":"Landkreis"},"federalState":{"key":"06","name":"Hessen"}},{"name":"Wilhelm-Voltz-Weg","postalCode":"64823","locality":"Groß-Umstadt","municipality":{"key":"06432010","name":"Groß-Umstadt, Stadt","type":"Stadt"},"district":{"key":"06432","name":"Darmstadt-Dieburg","type":"Landkreis"},"federalState":{"key":"06","name":"Hessen"}},{"name":"Willy-Brandt-Anlage","postalCode":"64823","locality":"Groß-Umstadt","municipality":{"key":"06432010","name":"Groß-Umstadt, Stadt","type":"Stadt"},"district":{"key":"06432","name":"Darmstadt-Dieburg","type":"Landkreis"},"federalState":{"key":"06","name":"Hessen"}},{"name":"Windfangstr.","postalCode":"64823","locality":"Groß-Umstadt","municipality":{"key":"06432010","name":"Groß-Umstadt, Stadt","type":"Stadt"},"district":{"key":"06432","name":"Darmstadt-Dieburg","type":"Landkreis"},"federalState":{"key":"06","name":"Hessen"}},{"name":"Wingertpfädchen","postalCode":"64823","locality":"Groß-Umstadt","municipality":{"key":"06432010","name":"Groß-Umstadt, Stadt","type":"Stadt"},"district":{"key":"06432","name":"Darmstadt-Dieburg","type":"Landkreis"},"federalState":{"key":"06","name":"Hessen"}},{"name":"Wingertsweg","postalCode":"64823","locality":"Groß-Umstadt","municipality":{"key":"06432010","name":"Groß-Umstadt, Stadt","type":"Stadt"},"district":{"key":"06432","name":"Darmstadt-Dieburg","type":"Landkreis"},"federalState":{"key":"06","name":"Hessen"}},{"name":"Winkelfeld Schneise","postalCode":"64823","locality":"Groß-Umstadt","municipality":{"key":"06432010","name":"Groß-Umstadt, Stadt","type":"Stadt"},"district":{"key":"06432","name":"Darmstadt-Dieburg","type":"Landkreis"},"federalState":{"key":"06","name":"Hessen"}},{"name":"Winkelgasse","postalCode":"64823","locality":"Groß-Umstadt","municipality":{"key":"06432010","name":"Groß-Umstadt, Stadt","type":"Stadt"},"district":{"key":"06432","name":"Darmstadt-Dieburg","type":"Landkreis"},"federalState":{"key":"06","name":"Hessen"}},{"name":"Ziegelwaldweg","postalCode":"64823","locality":"Groß-Umstadt","municipality":{"key":"06432010","name":"Groß-Umstadt, Stadt","type":"Stadt"},"district":{"key":"06432","name":"Darmstadt-Dieburg","type":"Landkreis"},"federalState":{"key":"06","name":"Hessen"}},{"name":"Zimmerstr.","postalCode":"64823","locality":"Groß-Umstadt","municipality":{"key":"06432010","name":"Groß-Umstadt, Stadt","type":"Stadt"},"district":{"key":"06432","name":"Darmstadt-Dieburg","type":"Landkreis"},"federalState":{"key":"06","name":"Hessen"}},{"name":"Zollstockweg","postalCode":"64823","locality":"Groß-Umstadt","municipality":{"key":"06432010","name":"Groß-Umstadt, Stadt","type":"Stadt"},"district":{"key":"06432","name":"Darmstadt-Dieburg","type":"Landkreis"},"federalState":{"key":"06","name":"Hessen"}},{"name":"Zum Wiesental","postalCode":"64823","locality":"Groß-Umstadt","municipality":{"key":"06432010","name":"Groß-Umstadt, Stadt","type":"Stadt"},"district":{"key":"06432","name":"Darmstadt-Dieburg","type":"Landkreis"},"federalState":{"key":"06","name":"Hessen"}},{"name":"Über dem Kühweg","postalCode":"64823","locality":"Groß-Umstadt","municipality":{"key":"06432010","name":"Groß-Umstadt, Stadt","type":"Stadt"},"district":{"key":"06432","name":"Darmstadt-Dieburg","type":"Landkreis"},"federalState":{"key":"06","name":"Hessen"}},]