[{"key":"10072466","name":"Alpenweg","postalCode":"3185","locality":"Schmitten FR","commune":{"key":"2305","name":"Schmitten (FR)","shortName":"Schmitten (FR)"},"district":{"key":"1006","name":"Bezirk Sense"},"canton":{"key":"10","code":"FR","name":"Fribourg / Freiburg"},"status":"Real"},{"key":"10180260","name":"Auroraweg","postalCode":"3185","locality":"Schmitten FR","commune":{"key":"2305","name":"Schmitten (FR)","shortName":"Schmitten (FR)"},"district":{"key":"1006","name":"Bezirk Sense"},"canton":{"key":"10","code":"FR","name":"Fribourg / Freiburg"},"status":"Real"},{"key":"10019937","name":"Bagerstrasse","postalCode":"3185","locality":"Schmitten FR","commune":{"key":"2305","name":"Schmitten (FR)","shortName":"Schmitten (FR)"},"district":{"key":"1006","name":"Bezirk Sense"},"canton":{"key":"10","code":"FR","name":"Fribourg / Freiburg"},"status":"Real"},{"key":"10245940","name":"Bahndammstrasse","postalCode":"3185","locality":"Schmitten FR","commune":{"key":"2305","name":"Schmitten (FR)","shortName":"Schmitten (FR)"},"district":{"key":"1006","name":"Bezirk Sense"},"canton":{"key":"10","code":"FR","name":"Fribourg / Freiburg"},"status":"Real"},{"key":"10085016","name":"Bahnhofstrasse","postalCode":"3185","locality":"Schmitten FR","commune":{"key":"2305","name":"Schmitten (FR)","shortName":"Schmitten (FR)"},"district":{"key":"1006","name":"Bezirk Sense"},"canton":{"key":"10","code":"FR","name":"Fribourg / Freiburg"},"status":"Real"},{"key":"10178086","name":"Berg","postalCode":"3185","locality":"Schmitten FR","commune":{"key":"2305","name":"Schmitten (FR)","shortName":"Schmitten (FR)"},"district":{"key":"1006","name":"Bezirk Sense"},"canton":{"key":"10","code":"FR","name":"Fribourg / Freiburg"},"status":"Real"},{"key":"10104410","name":"Bethlehem","postalCode":"3185","locality":"Schmitten FR","commune":{"key":"2305","name":"Schmitten (FR)","shortName":"Schmitten (FR)"},"district":{"key":"1006","name":"Bezirk Sense"},"canton":{"key":"10","code":"FR","name":"Fribourg / Freiburg"},"status":"Real"},{"key":"10019938","name":"Birkenweg","postalCode":"3185","locality":"Schmitten FR","commune":{"key":"2305","name":"Schmitten (FR)","shortName":"Schmitten (FR)"},"district":{"key":"1006","name":"Bezirk Sense"},"canton":{"key":"10","code":"FR","name":"Fribourg / Freiburg"},"status":"Real"},{"key":"10019939","name":"Bodenmattstrasse","postalCode":"3185","locality":"Schmitten FR","commune":{"key":"2305","name":"Schmitten (FR)","shortName":"Schmitten (FR)"},"district":{"key":"1006","name":"Bezirk Sense"},"canton":{"key":"10","code":"FR","name":"Fribourg / Freiburg"},"status":"Real"},{"key":"10085017","name":"Buchenweg","postalCode":"3185","locality":"Schmitten FR","commune":{"key":"2305","name":"Schmitten (FR)","shortName":"Schmitten (FR)"},"district":{"key":"1006","name":"Bezirk Sense"},"canton":{"key":"10","code":"FR","name":"Fribourg / Freiburg"},"status":"Real"},{"key":"10072467","name":"Bunziwil","postalCode":"3185","locality":"Schmitten FR","commune":{"key":"2305","name":"Schmitten (FR)","shortName":"Schmitten (FR)"},"district":{"key":"1006","name":"Bezirk Sense"},"canton":{"key":"10","code":"FR","name":"Fribourg / Freiburg"},"status":"Real"},{"key":"10019940","name":"Burg","postalCode":"3185","locality":"Schmitten FR","commune":{"key":"2305","name":"Schmitten (FR)","shortName":"Schmitten (FR)"},"district":{"key":"1006","name":"Bezirk Sense"},"canton":{"key":"10","code":"FR","name":"Fribourg / Freiburg"},"status":"Real"},{"key":"10084988","name":"Burg","postalCode":"3185","locality":"Schmitten FR","commune":{"key":"2305","name":"Schmitten (FR)","shortName":"Schmitten (FR)"},"district":{"key":"1006","name":"Bezirk Sense"},"canton":{"key":"10","code":"FR","name":"Fribourg / Freiburg"},"status":"Real"},{"key":"10188390","name":"Carolinestrasse","postalCode":"3185","locality":"Schmitten FR","commune":{"key":"2305","name":"Schmitten (FR)","shortName":"Schmitten (FR)"},"district":{"key":"1006","name":"Bezirk Sense"},"canton":{"key":"10","code":"FR","name":"Fribourg / Freiburg"},"status":"Real"},{"key":"10019941","name":"Chasseralweg","postalCode":"3185","locality":"Schmitten FR","commune":{"key":"2305","name":"Schmitten (FR)","shortName":"Schmitten (FR)"},"district":{"key":"1006","name":"Bezirk Sense"},"canton":{"key":"10","code":"FR","name":"Fribourg / Freiburg"},"status":"Real"},{"key":"10050594","name":"Chnael","postalCode":"3185","locality":"Schmitten FR","commune":{"key":"2305","name":"Schmitten (FR)","shortName":"Schmitten (FR)"},"district":{"key":"1006","name":"Bezirk Sense"},"canton":{"key":"10","code":"FR","name":"Fribourg / Freiburg"},"status":"Real"},{"key":"10187911","name":"Eggeli","postalCode":"3185","locality":"Schmitten FR","commune":{"key":"2305","name":"Schmitten (FR)","shortName":"Schmitten (FR)"},"district":{"key":"1006","name":"Bezirk Sense"},"canton":{"key":"10","code":"FR","name":"Fribourg / Freiburg"},"status":"Real"},{"key":"10072468","name":"Eichenweg","postalCode":"3185","locality":"Schmitten FR","commune":{"key":"2305","name":"Schmitten (FR)","shortName":"Schmitten (FR)"},"district":{"key":"1006","name":"Bezirk Sense"},"canton":{"key":"10","code":"FR","name":"Fribourg / Freiburg"},"status":"Real"},{"key":"10019942","name":"Eichmatt","postalCode":"3185","locality":"Schmitten FR","commune":{"key":"2305","name":"Schmitten (FR)","shortName":"Schmitten (FR)"},"district":{"key":"1006","name":"Bezirk Sense"},"canton":{"key":"10","code":"FR","name":"Fribourg / Freiburg"},"status":"Real"},{"key":"10186818","name":"Eigerstrasse","postalCode":"3185","locality":"Schmitten FR","commune":{"key":"2305","name":"Schmitten (FR)","shortName":"Schmitten (FR)"},"district":{"key":"1006","name":"Bezirk Sense"},"canton":{"key":"10","code":"FR","name":"Fribourg / Freiburg"},"status":"Real"},{"key":"10111334","name":"Fillistorf","postalCode":"3185","locality":"Schmitten FR","commune":{"key":"2305","name":"Schmitten (FR)","shortName":"Schmitten (FR)"},"district":{"key":"1006","name":"Bezirk Sense"},"canton":{"key":"10","code":"FR","name":"Fribourg / Freiburg"},"status":"Real"},{"key":"10178087","name":"Friesenstrasse","postalCode":"3185","locality":"Schmitten FR","commune":{"key":"2305","name":"Schmitten (FR)","shortName":"Schmitten (FR)"},"district":{"key":"1006","name":"Bezirk Sense"},"canton":{"key":"10","code":"FR","name":"Fribourg / Freiburg"},"status":"Real"},{"key":"10122264","name":"Friseneit","postalCode":"3185","locality":"Schmitten FR","commune":{"key":"2305","name":"Schmitten (FR)","shortName":"Schmitten (FR)"},"district":{"key":"1006","name":"Bezirk Sense"},"canton":{"key":"10","code":"FR","name":"Fribourg / Freiburg"},"status":"Real"},{"key":"10190524","name":"F. X. Müllerstrasse","postalCode":"3185","locality":"Schmitten FR","commune":{"key":"2305","name":"Schmitten (FR)","shortName":"Schmitten (FR)"},"district":{"key":"1006","name":"Bezirk Sense"},"canton":{"key":"10","code":"FR","name":"Fribourg / Freiburg"},"status":"Real"},{"key":"10185980","name":"Gwattstrasse","postalCode":"3185","locality":"Schmitten FR","commune":{"key":"2305","name":"Schmitten (FR)","shortName":"Schmitten (FR)"},"district":{"key":"1006","name":"Bezirk Sense"},"canton":{"key":"10","code":"FR","name":"Fribourg / Freiburg"},"status":"Real"},{"key":"10085018","name":"Hagnetstrasse","postalCode":"3185","locality":"Schmitten FR","commune":{"key":"2305","name":"Schmitten (FR)","shortName":"Schmitten (FR)"},"district":{"key":"1006","name":"Bezirk Sense"},"canton":{"key":"10","code":"FR","name":"Fribourg / Freiburg"},"status":"Real"},{"key":"10019943","name":"Hohe Zelg","postalCode":"3185","locality":"Schmitten FR","commune":{"key":"2305","name":"Schmitten (FR)","shortName":"Schmitten (FR)"},"district":{"key":"1006","name":"Bezirk Sense"},"canton":{"key":"10","code":"FR","name":"Fribourg / Freiburg"},"status":"Real"},{"key":"10021019","name":"Industriestrasse","postalCode":"3185","locality":"Schmitten FR","commune":{"key":"2305","name":"Schmitten (FR)","shortName":"Schmitten (FR)"},"district":{"key":"1006","name":"Bezirk Sense"},"canton":{"key":"10","code":"FR","name":"Fribourg / Freiburg"},"status":"Real"},{"key":"10021020","name":"Juraweg","postalCode":"3185","locality":"Schmitten FR","commune":{"key":"2305","name":"Schmitten (FR)","shortName":"Schmitten (FR)"},"district":{"key":"1006","name":"Bezirk Sense"},"canton":{"key":"10","code":"FR","name":"Fribourg / Freiburg"},"status":"Real"},{"key":"10085019","name":"Kaisereggstrasse","postalCode":"3185","locality":"Schmitten FR","commune":{"key":"2305","name":"Schmitten (FR)","shortName":"Schmitten (FR)"},"district":{"key":"1006","name":"Bezirk Sense"},"canton":{"key":"10","code":"FR","name":"Fribourg / Freiburg"},"status":"Real"},{"key":"10021021","name":"Kirchweg","postalCode":"3185","locality":"Schmitten FR","commune":{"key":"2305","name":"Schmitten (FR)","shortName":"Schmitten (FR)"},"district":{"key":"1006","name":"Bezirk Sense"},"canton":{"key":"10","code":"FR","name":"Fribourg / Freiburg"},"status":"Real"},{"key":"10021022","name":"Kreuzmattstrasse","postalCode":"3185","locality":"Schmitten FR","commune":{"key":"2305","name":"Schmitten (FR)","shortName":"Schmitten (FR)"},"district":{"key":"1006","name":"Bezirk Sense"},"canton":{"key":"10","code":"FR","name":"Fribourg / Freiburg"},"status":"Real"},{"key":"10021023","name":"Lanthen","postalCode":"3185","locality":"Schmitten FR","commune":{"key":"2305","name":"Schmitten (FR)","shortName":"Schmitten (FR)"},"district":{"key":"1006","name":"Bezirk Sense"},"canton":{"key":"10","code":"FR","name":"Fribourg / Freiburg"},"status":"Real"},{"key":"10158408","name":"Lindenweg","postalCode":"3185","locality":"Schmitten FR","commune":{"key":"2305","name":"Schmitten (FR)","shortName":"Schmitten (FR)"},"district":{"key":"1006","name":"Bezirk Sense"},"canton":{"key":"10","code":"FR","name":"Fribourg / Freiburg"},"status":"Real"},{"key":"10085020","name":"Lochgraben","postalCode":"3185","locality":"Schmitten FR","commune":{"key":"2305","name":"Schmitten (FR)","shortName":"Schmitten (FR)"},"district":{"key":"1006","name":"Bezirk Sense"},"canton":{"key":"10","code":"FR","name":"Fribourg / Freiburg"},"status":"Real"},{"key":"10132773","name":"Mattenweg","postalCode":"3185","locality":"Schmitten FR","commune":{"key":"2305","name":"Schmitten (FR)","shortName":"Schmitten (FR)"},"district":{"key":"1006","name":"Bezirk Sense"},"canton":{"key":"10","code":"FR","name":"Fribourg / Freiburg"},"status":"Real"},{"key":"10104411","name":"Menzishus","postalCode":"3185","locality":"Schmitten FR","commune":{"key":"2305","name":"Schmitten (FR)","shortName":"Schmitten (FR)"},"district":{"key":"1006","name":"Bezirk Sense"},"canton":{"key":"10","code":"FR","name":"Fribourg / Freiburg"},"status":"Real"},{"key":"10158399","name":"Molésonweg","postalCode":"3185","locality":"Schmitten FR","commune":{"key":"2305","name":"Schmitten (FR)","shortName":"Schmitten (FR)"},"district":{"key":"1006","name":"Bezirk Sense"},"canton":{"key":"10","code":"FR","name":"Fribourg / Freiburg"},"status":"Real"},{"key":"10021024","name":"Moosacher","postalCode":"3185","locality":"Schmitten FR","commune":{"key":"2305","name":"Schmitten (FR)","shortName":"Schmitten (FR)"},"district":{"key":"1006","name":"Bezirk Sense"},"canton":{"key":"10","code":"FR","name":"Fribourg / Freiburg"},"status":"Real"},{"key":"10071504","name":"Mühletal","postalCode":"3185","locality":"Schmitten FR","commune":{"key":"2305","name":"Schmitten (FR)","shortName":"Schmitten (FR)"},"district":{"key":"1006","name":"Bezirk Sense"},"canton":{"key":"10","code":"FR","name":"Fribourg / Freiburg"},"status":"Real"},{"key":"10050584","name":"Mülital","postalCode":"3185","locality":"Schmitten FR","commune":{"key":"2305","name":"Schmitten (FR)","shortName":"Schmitten (FR)"},"district":{"key":"1006","name":"Bezirk Sense"},"canton":{"key":"10","code":"FR","name":"Fribourg / Freiburg"},"status":"Real"},{"key":"10072469","name":"Mülitalstrasse","postalCode":"3185","locality":"Schmitten FR","commune":{"key":"2305","name":"Schmitten (FR)","shortName":"Schmitten (FR)"},"district":{"key":"1006","name":"Bezirk Sense"},"canton":{"key":"10","code":"FR","name":"Fribourg / Freiburg"},"status":"Real"},{"key":"10185981","name":"Neuhof","postalCode":"3185","locality":"Schmitten FR","commune":{"key":"2305","name":"Schmitten (FR)","shortName":"Schmitten (FR)"},"district":{"key":"1006","name":"Bezirk Sense"},"canton":{"key":"10","code":"FR","name":"Fribourg / Freiburg"},"status":"Real"},{"key":"10022357","name":"Obermattweg","postalCode":"3185","locality":"Schmitten FR","commune":{"key":"2305","name":"Schmitten (FR)","shortName":"Schmitten (FR)"},"district":{"key":"1006","name":"Bezirk Sense"},"canton":{"key":"10","code":"FR","name":"Fribourg / Freiburg"},"status":"Real"},{"key":"10178088","name":"Oberstockerli","postalCode":"3185","locality":"Schmitten FR","commune":{"key":"2305","name":"Schmitten (FR)","shortName":"Schmitten (FR)"},"district":{"key":"1006","name":"Bezirk Sense"},"canton":{"key":"10","code":"FR","name":"Fribourg / Freiburg"},"status":"Real"},{"key":"10085021","name":"Ober Tützenberg","postalCode":"3185","locality":"Schmitten FR","commune":{"key":"2305","name":"Schmitten (FR)","shortName":"Schmitten (FR)"},"district":{"key":"1006","name":"Bezirk Sense"},"canton":{"key":"10","code":"FR","name":"Fribourg / Freiburg"},"status":"Real"},{"key":"10111335","name":"Ober Zirkels","postalCode":"3185","locality":"Schmitten FR","commune":{"key":"2305","name":"Schmitten (FR)","shortName":"Schmitten (FR)"},"district":{"key":"1006","name":"Bezirk Sense"},"canton":{"key":"10","code":"FR","name":"Fribourg / Freiburg"},"status":"Real"},{"key":"10182218","name":"Ochsenriedstrasse","postalCode":"3185","locality":"Schmitten FR","commune":{"key":"2305","name":"Schmitten (FR)","shortName":"Schmitten (FR)"},"district":{"key":"1006","name":"Bezirk Sense"},"canton":{"key":"10","code":"FR","name":"Fribourg / Freiburg"},"status":"Real"},{"key":"10170359","name":"Panoramaweg","postalCode":"3185","locality":"Schmitten FR","commune":{"key":"2305","name":"Schmitten (FR)","shortName":"Schmitten (FR)"},"district":{"key":"1006","name":"Bezirk Sense"},"canton":{"key":"10","code":"FR","name":"Fribourg / Freiburg"},"status":"Real"},{"key":"10128588","name":"Pergolastrasse","postalCode":"3185","locality":"Schmitten FR","commune":{"key":"2305","name":"Schmitten (FR)","shortName":"Schmitten (FR)"},"district":{"key":"1006","name":"Bezirk Sense"},"canton":{"key":"10","code":"FR","name":"Fribourg / Freiburg"},"status":"Real"},{"key":"10021026","name":"Rainstrasse","postalCode":"3185","locality":"Schmitten FR","commune":{"key":"2305","name":"Schmitten (FR)","shortName":"Schmitten (FR)"},"district":{"key":"1006","name":"Bezirk Sense"},"canton":{"key":"10","code":"FR","name":"Fribourg / Freiburg"},"status":"Real"},{"key":"10021027","name":"Ried","postalCode":"3185","locality":"Schmitten FR","commune":{"key":"2305","name":"Schmitten (FR)","shortName":"Schmitten (FR)"},"district":{"key":"1006","name":"Bezirk Sense"},"canton":{"key":"10","code":"FR","name":"Fribourg / Freiburg"},"status":"Real"},{"key":"10117665","name":"Rüti","postalCode":"3185","locality":"Schmitten FR","commune":{"key":"2305","name":"Schmitten (FR)","shortName":"Schmitten (FR)"},"district":{"key":"1006","name":"Bezirk Sense"},"canton":{"key":"10","code":"FR","name":"Fribourg / Freiburg"},"status":"Real"},{"key":"10254166","name":"Schällenberg","postalCode":"3185","locality":"Schmitten FR","commune":{"key":"2305","name":"Schmitten (FR)","shortName":"Schmitten (FR)"},"district":{"key":"1006","name":"Bezirk Sense"},"canton":{"key":"10","code":"FR","name":"Fribourg / Freiburg"},"status":"Real"},{"key":"10021028","name":"Schlossmatte","postalCode":"3185","locality":"Schmitten FR","commune":{"key":"2305","name":"Schmitten (FR)","shortName":"Schmitten (FR)"},"district":{"key":"1006","name":"Bezirk Sense"},"canton":{"key":"10","code":"FR","name":"Fribourg / Freiburg"},"status":"Real"},{"key":"10104412","name":"Sonneggstrasse","postalCode":"3185","locality":"Schmitten FR","commune":{"key":"2305","name":"Schmitten (FR)","shortName":"Schmitten (FR)"},"district":{"key":"1006","name":"Bezirk Sense"},"canton":{"key":"10","code":"FR","name":"Fribourg / Freiburg"},"status":"Real"},{"key":"10021029","name":"Station","postalCode":"3185","locality":"Schmitten FR","commune":{"key":"2305","name":"Schmitten (FR)","shortName":"Schmitten (FR)"},"district":{"key":"1006","name":"Bezirk Sense"},"canton":{"key":"10","code":"FR","name":"Fribourg / Freiburg"},"status":"Real"},{"key":"10021030","name":"Tann","postalCode":"3185","locality":"Schmitten FR","commune":{"key":"2305","name":"Schmitten (FR)","shortName":"Schmitten (FR)"},"district":{"key":"1006","name":"Bezirk Sense"},"canton":{"key":"10","code":"FR","name":"Fribourg / Freiburg"},"status":"Real"},{"key":"10254170","name":"Tavernatal","postalCode":"3185","locality":"Schmitten FR","commune":{"key":"2305","name":"Schmitten (FR)","shortName":"Schmitten (FR)"},"district":{"key":"1006","name":"Bezirk Sense"},"canton":{"key":"10","code":"FR","name":"Fribourg / Freiburg"},"status":"Real"},{"key":"10085022","name":"Tutzishus","postalCode":"3185","locality":"Schmitten FR","commune":{"key":"2305","name":"Schmitten (FR)","shortName":"Schmitten (FR)"},"district":{"key":"1006","name":"Bezirk Sense"},"canton":{"key":"10","code":"FR","name":"Fribourg / Freiburg"},"status":"Real"},{"key":"10072470","name":"Unterdorfstrasse","postalCode":"3185","locality":"Schmitten FR","commune":{"key":"2305","name":"Schmitten (FR)","shortName":"Schmitten (FR)"},"district":{"key":"1006","name":"Bezirk Sense"},"canton":{"key":"10","code":"FR","name":"Fribourg / Freiburg"},"status":"Real"},{"key":"10021031","name":"Unter Tützenberg","postalCode":"3185","locality":"Schmitten FR","commune":{"key":"2305","name":"Schmitten (FR)","shortName":"Schmitten (FR)"},"district":{"key":"1006","name":"Bezirk Sense"},"canton":{"key":"10","code":"FR","name":"Fribourg / Freiburg"},"status":"Real"},{"key":"10021032","name":"Venusweg","postalCode":"3185","locality":"Schmitten FR","commune":{"key":"2305","name":"Schmitten (FR)","shortName":"Schmitten (FR)"},"district":{"key":"1006","name":"Bezirk Sense"},"canton":{"key":"10","code":"FR","name":"Fribourg / Freiburg"},"status":"Real"},{"key":"10085023","name":"Vetterwil","postalCode":"3185","locality":"Schmitten FR","commune":{"key":"2305","name":"Schmitten (FR)","shortName":"Schmitten (FR)"},"district":{"key":"1006","name":"Bezirk Sense"},"canton":{"key":"10","code":"FR","name":"Fribourg / Freiburg"},"status":"Real"},{"key":"10185982","name":"Waldmeisterweg","postalCode":"3185","locality":"Schmitten FR","commune":{"key":"2305","name":"Schmitten (FR)","shortName":"Schmitten (FR)"},"district":{"key":"1006","name":"Bezirk Sense"},"canton":{"key":"10","code":"FR","name":"Fribourg / Freiburg"},"status":"Real"},{"key":"10143894","name":"Weidenmatte","postalCode":"3185","locality":"Schmitten FR","commune":{"key":"2305","name":"Schmitten (FR)","shortName":"Schmitten (FR)"},"district":{"key":"1006","name":"Bezirk Sense"},"canton":{"key":"10","code":"FR","name":"Fribourg / Freiburg"},"status":"Real"},{"key":"10058620","name":"Wirtshausplatz","postalCode":"3185","locality":"Schmitten FR","commune":{"key":"2305","name":"Schmitten (FR)","shortName":"Schmitten (FR)"},"district":{"key":"1006","name":"Bezirk Sense"},"canton":{"key":"10","code":"FR","name":"Fribourg / Freiburg"},"status":"Real"},{"key":"10085024","name":"Wünnewilstrasse","postalCode":"3185","locality":"Schmitten FR","commune":{"key":"2305","name":"Schmitten (FR)","shortName":"Schmitten (FR)"},"district":{"key":"1006","name":"Bezirk Sense"},"canton":{"key":"10","code":"FR","name":"Fribourg / Freiburg"},"status":"Real"},{"key":"10114971","name":"Wünnewilstrasse","postalCode":"3185","locality":"Schmitten FR","commune":{"key":"2305","name":"Schmitten (FR)","shortName":"Schmitten (FR)"},"district":{"key":"1006","name":"Bezirk Sense"},"canton":{"key":"10","code":"FR","name":"Fribourg / Freiburg"},"status":"Real"},{"key":"10021033","name":"Wyler","postalCode":"3185","locality":"Schmitten FR","commune":{"key":"2305","name":"Schmitten (FR)","shortName":"Schmitten (FR)"},"district":{"key":"1006","name":"Bezirk Sense"},"canton":{"key":"10","code":"FR","name":"Fribourg / Freiburg"},"status":"Real"},{"key":"10188391","name":"Zirkels","postalCode":"3185","locality":"Schmitten FR","commune":{"key":"2305","name":"Schmitten (FR)","shortName":"Schmitten (FR)"},"district":{"key":"1006","name":"Bezirk Sense"},"canton":{"key":"10","code":"FR","name":"Fribourg / Freiburg"},"status":"Real"},]