[{"name":"Am alten Sportplatz","postalCode":"67814","locality":"Dannenfels","municipality":{"key":"07333013","name":"Dannenfels","type":"Kreisangehörige_Gemeinde"},"district":{"key":"07333","name":"Donnersbergkreis","type":"Landkreis"},"federalState":{"key":"07","name":"Rheinland-Pfalz"}},{"name":"Am Dieterswald","postalCode":"67814","locality":"Dannenfels","municipality":{"key":"07333013","name":"Dannenfels","type":"Kreisangehörige_Gemeinde"},"district":{"key":"07333","name":"Donnersbergkreis","type":"Landkreis"},"federalState":{"key":"07","name":"Rheinland-Pfalz"}},{"name":"An den Neuäckern","postalCode":"67814","locality":"Dannenfels","municipality":{"key":"07333013","name":"Dannenfels","type":"Kreisangehörige_Gemeinde"},"district":{"key":"07333","name":"Donnersbergkreis","type":"Landkreis"},"federalState":{"key":"07","name":"Rheinland-Pfalz"}},{"name":"Bastenhauser Str.","postalCode":"67814","locality":"Dannenfels","municipality":{"key":"07333013","name":"Dannenfels","type":"Kreisangehörige_Gemeinde"},"district":{"key":"07333","name":"Donnersbergkreis","type":"Landkreis"},"federalState":{"key":"07","name":"Rheinland-Pfalz"}},{"name":"Bennhauser Str.","postalCode":"67814","locality":"Dannenfels","municipality":{"key":"07333013","name":"Dannenfels","type":"Kreisangehörige_Gemeinde"},"district":{"key":"07333","name":"Donnersbergkreis","type":"Landkreis"},"federalState":{"key":"07","name":"Rheinland-Pfalz"}},{"name":"Bolander Weg","postalCode":"67814","locality":"Dannenfels","municipality":{"key":"07333013","name":"Dannenfels","type":"Kreisangehörige_Gemeinde"},"district":{"key":"07333","name":"Donnersbergkreis","type":"Landkreis"},"federalState":{"key":"07","name":"Rheinland-Pfalz"}},{"name":"Brücker Weg","postalCode":"67814","locality":"Dannenfels","municipality":{"key":"07333013","name":"Dannenfels","type":"Kreisangehörige_Gemeinde"},"district":{"key":"07333","name":"Donnersbergkreis","type":"Landkreis"},"federalState":{"key":"07","name":"Rheinland-Pfalz"}},{"name":"Donnersbergstr.","postalCode":"67814","locality":"Dannenfels","municipality":{"key":"07333013","name":"Dannenfels","type":"Kreisangehörige_Gemeinde"},"district":{"key":"07333","name":"Donnersbergkreis","type":"Landkreis"},"federalState":{"key":"07","name":"Rheinland-Pfalz"}},{"name":"Gartenweg","postalCode":"67814","locality":"Dannenfels","municipality":{"key":"07333013","name":"Dannenfels","type":"Kreisangehörige_Gemeinde"},"district":{"key":"07333","name":"Donnersbergkreis","type":"Landkreis"},"federalState":{"key":"07","name":"Rheinland-Pfalz"}},{"name":"Hohlstr.","postalCode":"67814","locality":"Dannenfels","municipality":{"key":"07333013","name":"Dannenfels","type":"Kreisangehörige_Gemeinde"},"district":{"key":"07333","name":"Donnersbergkreis","type":"Landkreis"},"federalState":{"key":"07","name":"Rheinland-Pfalz"}},{"name":"Kastanienweg","postalCode":"67814","locality":"Dannenfels","municipality":{"key":"07333013","name":"Dannenfels","type":"Kreisangehörige_Gemeinde"},"district":{"key":"07333","name":"Donnersbergkreis","type":"Landkreis"},"federalState":{"key":"07","name":"Rheinland-Pfalz"}},{"name":"Kirchheimbolander Str.","postalCode":"67814","locality":"Dannenfels","municipality":{"key":"07333013","name":"Dannenfels","type":"Kreisangehörige_Gemeinde"},"district":{"key":"07333","name":"Donnersbergkreis","type":"Landkreis"},"federalState":{"key":"07","name":"Rheinland-Pfalz"}},{"name":"Löwenburgstr.","postalCode":"67814","locality":"Dannenfels","municipality":{"key":"07333013","name":"Dannenfels","type":"Kreisangehörige_Gemeinde"},"district":{"key":"07333","name":"Donnersbergkreis","type":"Landkreis"},"federalState":{"key":"07","name":"Rheinland-Pfalz"}},{"name":"Mittelstr.","postalCode":"67814","locality":"Dannenfels","municipality":{"key":"07333013","name":"Dannenfels","type":"Kreisangehörige_Gemeinde"},"district":{"key":"07333","name":"Donnersbergkreis","type":"Landkreis"},"federalState":{"key":"07","name":"Rheinland-Pfalz"}},{"name":"Nordwall","postalCode":"67814","locality":"Dannenfels","municipality":{"key":"07333013","name":"Dannenfels","type":"Kreisangehörige_Gemeinde"},"district":{"key":"07333","name":"Donnersbergkreis","type":"Landkreis"},"federalState":{"key":"07","name":"Rheinland-Pfalz"}},{"name":"Oberstr.","postalCode":"67814","locality":"Dannenfels","municipality":{"key":"07333013","name":"Dannenfels","type":"Kreisangehörige_Gemeinde"},"district":{"key":"07333","name":"Donnersbergkreis","type":"Landkreis"},"federalState":{"key":"07","name":"Rheinland-Pfalz"}},{"name":"Pfad der Sinne","postalCode":"67814","locality":"Dannenfels","municipality":{"key":"07333013","name":"Dannenfels","type":"Kreisangehörige_Gemeinde"},"district":{"key":"07333","name":"Donnersbergkreis","type":"Landkreis"},"federalState":{"key":"07","name":"Rheinland-Pfalz"}},{"name":"Raiffeisenstr.","postalCode":"67814","locality":"Dannenfels","municipality":{"key":"07333013","name":"Dannenfels","type":"Kreisangehörige_Gemeinde"},"district":{"key":"07333","name":"Donnersbergkreis","type":"Landkreis"},"federalState":{"key":"07","name":"Rheinland-Pfalz"}},{"name":"Rotsteigstr.","postalCode":"67814","locality":"Dannenfels","municipality":{"key":"07333013","name":"Dannenfels","type":"Kreisangehörige_Gemeinde"},"district":{"key":"07333","name":"Donnersbergkreis","type":"Landkreis"},"federalState":{"key":"07","name":"Rheinland-Pfalz"}},{"name":"Schlackenwall","postalCode":"67814","locality":"Dannenfels","municipality":{"key":"07333013","name":"Dannenfels","type":"Kreisangehörige_Gemeinde"},"district":{"key":"07333","name":"Donnersbergkreis","type":"Landkreis"},"federalState":{"key":"07","name":"Rheinland-Pfalz"}},{"name":"Steinbacher Str.","postalCode":"67814","locality":"Dannenfels","municipality":{"key":"07333013","name":"Dannenfels","type":"Kreisangehörige_Gemeinde"},"district":{"key":"07333","name":"Donnersbergkreis","type":"Landkreis"},"federalState":{"key":"07","name":"Rheinland-Pfalz"}},{"name":"Wiesenstr.","postalCode":"67814","locality":"Dannenfels","municipality":{"key":"07333013","name":"Dannenfels","type":"Kreisangehörige_Gemeinde"},"district":{"key":"07333","name":"Donnersbergkreis","type":"Landkreis"},"federalState":{"key":"07","name":"Rheinland-Pfalz"}},{"name":"Wildensteinweg","postalCode":"67814","locality":"Dannenfels","municipality":{"key":"07333013","name":"Dannenfels","type":"Kreisangehörige_Gemeinde"},"district":{"key":"07333","name":"Donnersbergkreis","type":"Landkreis"},"federalState":{"key":"07","name":"Rheinland-Pfalz"}},]