[{"name":"Alter Graben","postalCode":"56743","locality":"Thür","municipality":{"key":"07137101","name":"Thür","type":"Kreisangehörige_Gemeinde"},"district":{"key":"07137","name":"Mayen-Koblenz","type":"Landkreis"},"federalState":{"key":"07","name":"Rheinland-Pfalz"}},{"name":"Am Bahnhof","postalCode":"17168","locality":"Thürkow","municipality":{"key":"13072109","name":"Thürkow","type":"Kreisangehörige_Gemeinde"},"district":{"key":"13072","name":"Landkreis Rostock","type":"Landkreis"},"federalState":{"key":"13","name":"Mecklenburg-Vorpommern"}},{"name":"Am Gutshof","postalCode":"17168","locality":"Thürkow","municipality":{"key":"13072109","name":"Thürkow","type":"Kreisangehörige_Gemeinde"},"district":{"key":"13072","name":"Landkreis Rostock","type":"Landkreis"},"federalState":{"key":"13","name":"Mecklenburg-Vorpommern"}},{"name":"Am Speicher","postalCode":"17168","locality":"Thürkow","municipality":{"key":"13072109","name":"Thürkow","type":"Kreisangehörige_Gemeinde"},"district":{"key":"13072","name":"Landkreis Rostock","type":"Landkreis"},"federalState":{"key":"13","name":"Mecklenburg-Vorpommern"}},{"name":"An der Bundesstr.","postalCode":"17168","locality":"Thürkow","municipality":{"key":"13072109","name":"Thürkow","type":"Kreisangehörige_Gemeinde"},"district":{"key":"13072","name":"Landkreis Rostock","type":"Landkreis"},"federalState":{"key":"13","name":"Mecklenburg-Vorpommern"}},{"name":"An der Landstr.","postalCode":"17168","locality":"Thürkow","municipality":{"key":"13072109","name":"Thürkow","type":"Kreisangehörige_Gemeinde"},"district":{"key":"13072","name":"Landkreis Rostock","type":"Landkreis"},"federalState":{"key":"13","name":"Mecklenburg-Vorpommern"}},{"name":"Appelhäger Weg","postalCode":"17168","locality":"Thürkow","municipality":{"key":"13072109","name":"Thürkow","type":"Kreisangehörige_Gemeinde"},"district":{"key":"13072","name":"Landkreis Rostock","type":"Landkreis"},"federalState":{"key":"13","name":"Mecklenburg-Vorpommern"}},{"name":"Auf dem Sportplatz","postalCode":"56743","locality":"Thür","municipality":{"key":"07137101","name":"Thür","type":"Kreisangehörige_Gemeinde"},"district":{"key":"07137","name":"Mayen-Koblenz","type":"Landkreis"},"federalState":{"key":"07","name":"Rheinland-Pfalz"}},{"name":"Bahnhofstr.","postalCode":"56743","locality":"Thür","municipality":{"key":"07137101","name":"Thür","type":"Kreisangehörige_Gemeinde"},"district":{"key":"07137","name":"Mayen-Koblenz","type":"Landkreis"},"federalState":{"key":"07","name":"Rheinland-Pfalz"}},{"name":"Bergstr.","postalCode":"56743","locality":"Thür","municipality":{"key":"07137101","name":"Thür","type":"Kreisangehörige_Gemeinde"},"district":{"key":"07137","name":"Mayen-Koblenz","type":"Landkreis"},"federalState":{"key":"07","name":"Rheinland-Pfalz"}},{"name":"Bergstr.","postalCode":"98673","locality":"Brünn/Thür.","municipality":{"key":"16069006","name":"Brünn/Thür.","type":"Kreisangehörige_Gemeinde"},"district":{"key":"16069","name":"Hildburghausen","type":"Landkreis"},"federalState":{"key":"16","name":"Thüringen"}},{"name":"Birkenweg","postalCode":"17168","locality":"Thürkow","municipality":{"key":"13072109","name":"Thürkow","type":"Kreisangehörige_Gemeinde"},"district":{"key":"13072","name":"Landkreis Rostock","type":"Landkreis"},"federalState":{"key":"13","name":"Mecklenburg-Vorpommern"}},{"name":"Breitsteinstr.","postalCode":"56743","locality":"Thür","municipality":{"key":"07137101","name":"Thür","type":"Kreisangehörige_Gemeinde"},"district":{"key":"07137","name":"Mayen-Koblenz","type":"Landkreis"},"federalState":{"key":"07","name":"Rheinland-Pfalz"}},{"name":"Dorfstr.","postalCode":"17168","locality":"Thürkow","municipality":{"key":"13072109","name":"Thürkow","type":"Kreisangehörige_Gemeinde"},"district":{"key":"13072","name":"Landkreis Rostock","type":"Landkreis"},"federalState":{"key":"13","name":"Mecklenburg-Vorpommern"}},{"name":"Eisfelder Str.","postalCode":"98673","locality":"Brünn/Thür.","municipality":{"key":"16069006","name":"Brünn/Thür.","type":"Kreisangehörige_Gemeinde"},"district":{"key":"16069","name":"Hildburghausen","type":"Landkreis"},"federalState":{"key":"16","name":"Thüringen"}},{"name":"Fallerstr.","postalCode":"56743","locality":"Thür","municipality":{"key":"07137101","name":"Thür","type":"Kreisangehörige_Gemeinde"},"district":{"key":"07137","name":"Mayen-Koblenz","type":"Landkreis"},"federalState":{"key":"07","name":"Rheinland-Pfalz"}},{"name":"Flurweg","postalCode":"98673","locality":"Brünn/Thür.","municipality":{"key":"16069006","name":"Brünn/Thür.","type":"Kreisangehörige_Gemeinde"},"district":{"key":"16069","name":"Hildburghausen","type":"Landkreis"},"federalState":{"key":"16","name":"Thüringen"}},{"name":"Gartenstr.","postalCode":"56743","locality":"Thür","municipality":{"key":"07137101","name":"Thür","type":"Kreisangehörige_Gemeinde"},"district":{"key":"07137","name":"Mayen-Koblenz","type":"Landkreis"},"federalState":{"key":"07","name":"Rheinland-Pfalz"}},{"name":"Hagelstr.","postalCode":"56743","locality":"Thür","municipality":{"key":"07137101","name":"Thür","type":"Kreisangehörige_Gemeinde"},"district":{"key":"07137","name":"Mayen-Koblenz","type":"Landkreis"},"federalState":{"key":"07","name":"Rheinland-Pfalz"}},{"name":"Hildburghäuser Str.","postalCode":"98673","locality":"Brünn/Thür.","municipality":{"key":"16069006","name":"Brünn/Thür.","type":"Kreisangehörige_Gemeinde"},"district":{"key":"16069","name":"Hildburghausen","type":"Landkreis"},"federalState":{"key":"16","name":"Thüringen"}},{"name":"Hochstr.","postalCode":"56743","locality":"Thür","municipality":{"key":"07137101","name":"Thür","type":"Kreisangehörige_Gemeinde"},"district":{"key":"07137","name":"Mayen-Koblenz","type":"Landkreis"},"federalState":{"key":"07","name":"Rheinland-Pfalz"}},{"name":"Im Eulenschrei","postalCode":"56743","locality":"Thür","municipality":{"key":"07137101","name":"Thür","type":"Kreisangehörige_Gemeinde"},"district":{"key":"07137","name":"Mayen-Koblenz","type":"Landkreis"},"federalState":{"key":"07","name":"Rheinland-Pfalz"}},{"name":"Im Vogelsang","postalCode":"56743","locality":"Thür","municipality":{"key":"07137101","name":"Thür","type":"Kreisangehörige_Gemeinde"},"district":{"key":"07137","name":"Mayen-Koblenz","type":"Landkreis"},"federalState":{"key":"07","name":"Rheinland-Pfalz"}},{"name":"Johannisberg","postalCode":"56743","locality":"Thür","municipality":{"key":"07137101","name":"Thür","type":"Kreisangehörige_Gemeinde"},"district":{"key":"07137","name":"Mayen-Koblenz","type":"Landkreis"},"federalState":{"key":"07","name":"Rheinland-Pfalz"}},{"name":"Josefstr.","postalCode":"56743","locality":"Thür","municipality":{"key":"07137101","name":"Thür","type":"Kreisangehörige_Gemeinde"},"district":{"key":"07137","name":"Mayen-Koblenz","type":"Landkreis"},"federalState":{"key":"07","name":"Rheinland-Pfalz"}},{"name":"Kastanienallee","postalCode":"17168","locality":"Thürkow","municipality":{"key":"13072109","name":"Thürkow","type":"Kreisangehörige_Gemeinde"},"district":{"key":"13072","name":"Landkreis Rostock","type":"Landkreis"},"federalState":{"key":"13","name":"Mecklenburg-Vorpommern"}},{"name":"Keltenstr.","postalCode":"56743","locality":"Thür","municipality":{"key":"07137101","name":"Thür","type":"Kreisangehörige_Gemeinde"},"district":{"key":"07137","name":"Mayen-Koblenz","type":"Landkreis"},"federalState":{"key":"07","name":"Rheinland-Pfalz"}},{"name":"Kirchsteig","postalCode":"17168","locality":"Thürkow","municipality":{"key":"13072109","name":"Thürkow","type":"Kreisangehörige_Gemeinde"},"district":{"key":"13072","name":"Landkreis Rostock","type":"Landkreis"},"federalState":{"key":"13","name":"Mecklenburg-Vorpommern"}},{"name":"Kirchstr.","postalCode":"56743","locality":"Thür","municipality":{"key":"07137101","name":"Thür","type":"Kreisangehörige_Gemeinde"},"district":{"key":"07137","name":"Mayen-Koblenz","type":"Landkreis"},"federalState":{"key":"07","name":"Rheinland-Pfalz"}},{"name":"Koppelweg","postalCode":"17168","locality":"Thürkow","municipality":{"key":"13072109","name":"Thürkow","type":"Kreisangehörige_Gemeinde"},"district":{"key":"13072","name":"Landkreis Rostock","type":"Landkreis"},"federalState":{"key":"13","name":"Mecklenburg-Vorpommern"}},{"name":"Kottenheimer Str.","postalCode":"56743","locality":"Thür","municipality":{"key":"07137101","name":"Thür","type":"Kreisangehörige_Gemeinde"},"district":{"key":"07137","name":"Mayen-Koblenz","type":"Landkreis"},"federalState":{"key":"07","name":"Rheinland-Pfalz"}},{"name":"Lindenweg","postalCode":"56743","locality":"Thür","municipality":{"key":"07137101","name":"Thür","type":"Kreisangehörige_Gemeinde"},"district":{"key":"07137","name":"Mayen-Koblenz","type":"Landkreis"},"federalState":{"key":"07","name":"Rheinland-Pfalz"}},{"name":"Mendiger Str.","postalCode":"56743","locality":"Thür","municipality":{"key":"07137101","name":"Thür","type":"Kreisangehörige_Gemeinde"},"district":{"key":"07137","name":"Mayen-Koblenz","type":"Landkreis"},"federalState":{"key":"07","name":"Rheinland-Pfalz"}},{"name":"Neustr.","postalCode":"56743","locality":"Thür","municipality":{"key":"07137101","name":"Thür","type":"Kreisangehörige_Gemeinde"},"district":{"key":"07137","name":"Mayen-Koblenz","type":"Landkreis"},"federalState":{"key":"07","name":"Rheinland-Pfalz"}},{"name":"Parkweg","postalCode":"17168","locality":"Thürkow","municipality":{"key":"13072109","name":"Thürkow","type":"Kreisangehörige_Gemeinde"},"district":{"key":"13072","name":"Landkreis Rostock","type":"Landkreis"},"federalState":{"key":"13","name":"Mecklenburg-Vorpommern"}},{"name":"Poppenwinder Str.","postalCode":"98673","locality":"Brünn/Thür.","municipality":{"key":"16069006","name":"Brünn/Thür.","type":"Kreisangehörige_Gemeinde"},"district":{"key":"16069","name":"Hildburghausen","type":"Landkreis"},"federalState":{"key":"16","name":"Thüringen"}},{"name":"Rabenbergstr.","postalCode":"56743","locality":"Thür","municipality":{"key":"07137101","name":"Thür","type":"Kreisangehörige_Gemeinde"},"district":{"key":"07137","name":"Mayen-Koblenz","type":"Landkreis"},"federalState":{"key":"07","name":"Rheinland-Pfalz"}},{"name":"Rampenstr.","postalCode":"56743","locality":"Thür","municipality":{"key":"07137101","name":"Thür","type":"Kreisangehörige_Gemeinde"},"district":{"key":"07137","name":"Mayen-Koblenz","type":"Landkreis"},"federalState":{"key":"07","name":"Rheinland-Pfalz"}},{"name":"Randsiedlung","postalCode":"17168","locality":"Thürkow","municipality":{"key":"13072109","name":"Thürkow","type":"Kreisangehörige_Gemeinde"},"district":{"key":"13072","name":"Landkreis Rostock","type":"Landkreis"},"federalState":{"key":"13","name":"Mecklenburg-Vorpommern"}},{"name":"Schleusinger Str.","postalCode":"98673","locality":"Brünn/Thür.","municipality":{"key":"16069006","name":"Brünn/Thür.","type":"Kreisangehörige_Gemeinde"},"district":{"key":"16069","name":"Hildburghausen","type":"Landkreis"},"federalState":{"key":"16","name":"Thüringen"}},{"name":"Schmiedegasse","postalCode":"56743","locality":"Thür","municipality":{"key":"07137101","name":"Thür","type":"Kreisangehörige_Gemeinde"},"district":{"key":"07137","name":"Mayen-Koblenz","type":"Landkreis"},"federalState":{"key":"07","name":"Rheinland-Pfalz"}},{"name":"Schulstr.","postalCode":"56743","locality":"Thür","municipality":{"key":"07137101","name":"Thür","type":"Kreisangehörige_Gemeinde"},"district":{"key":"07137","name":"Mayen-Koblenz","type":"Landkreis"},"federalState":{"key":"07","name":"Rheinland-Pfalz"}},{"name":"Schwetziner Weg","postalCode":"17168","locality":"Thürkow","municipality":{"key":"13072109","name":"Thürkow","type":"Kreisangehörige_Gemeinde"},"district":{"key":"13072","name":"Landkreis Rostock","type":"Landkreis"},"federalState":{"key":"13","name":"Mecklenburg-Vorpommern"}},{"name":"Segbachstr.","postalCode":"56743","locality":"Thür","municipality":{"key":"07137101","name":"Thür","type":"Kreisangehörige_Gemeinde"},"district":{"key":"07137","name":"Mayen-Koblenz","type":"Landkreis"},"federalState":{"key":"07","name":"Rheinland-Pfalz"}},{"name":"Sieben Morgen","postalCode":"56743","locality":"Thür","municipality":{"key":"07137101","name":"Thür","type":"Kreisangehörige_Gemeinde"},"district":{"key":"07137","name":"Mayen-Koblenz","type":"Landkreis"},"federalState":{"key":"07","name":"Rheinland-Pfalz"}},{"name":"Str. zur Grünen Wiese","postalCode":"98673","locality":"Brünn/Thür.","municipality":{"key":"16069006","name":"Brünn/Thür.","type":"Kreisangehörige_Gemeinde"},"district":{"key":"16069","name":"Hildburghausen","type":"Landkreis"},"federalState":{"key":"16","name":"Thüringen"}},{"name":"Thürer Mühle","postalCode":"56743","locality":"Thür","municipality":{"key":"07137101","name":"Thür","type":"Kreisangehörige_Gemeinde"},"district":{"key":"07137","name":"Mayen-Koblenz","type":"Landkreis"},"federalState":{"key":"07","name":"Rheinland-Pfalz"}},{"name":"Unterdorfstr.","postalCode":"56743","locality":"Thür","municipality":{"key":"07137101","name":"Thür","type":"Kreisangehörige_Gemeinde"},"district":{"key":"07137","name":"Mayen-Koblenz","type":"Landkreis"},"federalState":{"key":"07","name":"Rheinland-Pfalz"}},{"name":"Wohnsiedlung","postalCode":"17168","locality":"Thürkow","municipality":{"key":"13072109","name":"Thürkow","type":"Kreisangehörige_Gemeinde"},"district":{"key":"13072","name":"Landkreis Rostock","type":"Landkreis"},"federalState":{"key":"13","name":"Mecklenburg-Vorpommern"}},{"name":"Wördeweg","postalCode":"17168","locality":"Thürkow","municipality":{"key":"13072109","name":"Thürkow","type":"Kreisangehörige_Gemeinde"},"district":{"key":"13072","name":"Landkreis Rostock","type":"Landkreis"},"federalState":{"key":"13","name":"Mecklenburg-Vorpommern"}},{"name":"Zum Sportplatz","postalCode":"17168","locality":"Thürkow","municipality":{"key":"13072109","name":"Thürkow","type":"Kreisangehörige_Gemeinde"},"district":{"key":"13072","name":"Landkreis Rostock","type":"Landkreis"},"federalState":{"key":"13","name":"Mecklenburg-Vorpommern"}},{"name":"Zum Wingert","postalCode":"56743","locality":"Thür","municipality":{"key":"07137101","name":"Thür","type":"Kreisangehörige_Gemeinde"},"district":{"key":"07137","name":"Mayen-Koblenz","type":"Landkreis"},"federalState":{"key":"07","name":"Rheinland-Pfalz"}},]