[{"name":"Adalbert-Stifter-Str.","postalCode":"63814","locality":"Mainaschaff","municipality":{"key":"09671140","name":"Mainaschaff","type":"Kreisangehörige_Gemeinde"},"district":{"key":"09671","name":"Aschaffenburg","type":"Landkreis"},"federalState":{"key":"09","name":"Bayern"}},{"name":"Adlerweg","postalCode":"63814","locality":"Mainaschaff","municipality":{"key":"09671140","name":"Mainaschaff","type":"Kreisangehörige_Gemeinde"},"district":{"key":"09671","name":"Aschaffenburg","type":"Landkreis"},"federalState":{"key":"09","name":"Bayern"}},{"name":"Aftholderweg","postalCode":"63814","locality":"Mainaschaff","municipality":{"key":"09671140","name":"Mainaschaff","type":"Kreisangehörige_Gemeinde"},"district":{"key":"09671","name":"Aschaffenburg","type":"Landkreis"},"federalState":{"key":"09","name":"Bayern"}},{"name":"Akazienweg","postalCode":"63814","locality":"Mainaschaff","municipality":{"key":"09671140","name":"Mainaschaff","type":"Kreisangehörige_Gemeinde"},"district":{"key":"09671","name":"Aschaffenburg","type":"Landkreis"},"federalState":{"key":"09","name":"Bayern"}},{"name":"Albert-Einstein-Str.","postalCode":"63814","locality":"Mainaschaff","municipality":{"key":"09671140","name":"Mainaschaff","type":"Kreisangehörige_Gemeinde"},"district":{"key":"09671","name":"Aschaffenburg","type":"Landkreis"},"federalState":{"key":"09","name":"Bayern"}},{"name":"Albert-Schweitzer-Str.","postalCode":"63814","locality":"Mainaschaff","municipality":{"key":"09671140","name":"Mainaschaff","type":"Kreisangehörige_Gemeinde"},"district":{"key":"09671","name":"Aschaffenburg","type":"Landkreis"},"federalState":{"key":"09","name":"Bayern"}},{"name":"Albrecht-Dürer-Str.","postalCode":"63814","locality":"Mainaschaff","municipality":{"key":"09671140","name":"Mainaschaff","type":"Kreisangehörige_Gemeinde"},"district":{"key":"09671","name":"Aschaffenburg","type":"Landkreis"},"federalState":{"key":"09","name":"Bayern"}},{"name":"Am Bitzenloh","postalCode":"63814","locality":"Mainaschaff","municipality":{"key":"09671140","name":"Mainaschaff","type":"Kreisangehörige_Gemeinde"},"district":{"key":"09671","name":"Aschaffenburg","type":"Landkreis"},"federalState":{"key":"09","name":"Bayern"}},{"name":"Am Dreispitz","postalCode":"63814","locality":"Mainaschaff","municipality":{"key":"09671140","name":"Mainaschaff","type":"Kreisangehörige_Gemeinde"},"district":{"key":"09671","name":"Aschaffenburg","type":"Landkreis"},"federalState":{"key":"09","name":"Bayern"}},{"name":"Am Glockenturm","postalCode":"63814","locality":"Mainaschaff","municipality":{"key":"09671140","name":"Mainaschaff","type":"Kreisangehörige_Gemeinde"},"district":{"key":"09671","name":"Aschaffenburg","type":"Landkreis"},"federalState":{"key":"09","name":"Bayern"}},{"name":"Am Heidenstock","postalCode":"63814","locality":"Mainaschaff","municipality":{"key":"09671140","name":"Mainaschaff","type":"Kreisangehörige_Gemeinde"},"district":{"key":"09671","name":"Aschaffenburg","type":"Landkreis"},"federalState":{"key":"09","name":"Bayern"}},{"name":"Ammerweg","postalCode":"63814","locality":"Mainaschaff","municipality":{"key":"09671140","name":"Mainaschaff","type":"Kreisangehörige_Gemeinde"},"district":{"key":"09671","name":"Aschaffenburg","type":"Landkreis"},"federalState":{"key":"09","name":"Bayern"}},{"name":"Am roten Heiligen","postalCode":"63814","locality":"Mainaschaff","municipality":{"key":"09671140","name":"Mainaschaff","type":"Kreisangehörige_Gemeinde"},"district":{"key":"09671","name":"Aschaffenburg","type":"Landkreis"},"federalState":{"key":"09","name":"Bayern"}},{"name":"Amselweg","postalCode":"63814","locality":"Mainaschaff","municipality":{"key":"09671140","name":"Mainaschaff","type":"Kreisangehörige_Gemeinde"},"district":{"key":"09671","name":"Aschaffenburg","type":"Landkreis"},"federalState":{"key":"09","name":"Bayern"}},{"name":"Am Sportplatz","postalCode":"63814","locality":"Mainaschaff","municipality":{"key":"09671140","name":"Mainaschaff","type":"Kreisangehörige_Gemeinde"},"district":{"key":"09671","name":"Aschaffenburg","type":"Landkreis"},"federalState":{"key":"09","name":"Bayern"}},{"name":"Am Stadtweg","postalCode":"63814","locality":"Mainaschaff","municipality":{"key":"09671140","name":"Mainaschaff","type":"Kreisangehörige_Gemeinde"},"district":{"key":"09671","name":"Aschaffenburg","type":"Landkreis"},"federalState":{"key":"09","name":"Bayern"}},{"name":"Am Waldrain","postalCode":"63814","locality":"Mainaschaff","municipality":{"key":"09671140","name":"Mainaschaff","type":"Kreisangehörige_Gemeinde"},"district":{"key":"09671","name":"Aschaffenburg","type":"Landkreis"},"federalState":{"key":"09","name":"Bayern"}},{"name":"Am Westend","postalCode":"63814","locality":"Mainaschaff","municipality":{"key":"09671140","name":"Mainaschaff","type":"Kreisangehörige_Gemeinde"},"district":{"key":"09671","name":"Aschaffenburg","type":"Landkreis"},"federalState":{"key":"09","name":"Bayern"}},{"name":"An der Schanze","postalCode":"63814","locality":"Mainaschaff","municipality":{"key":"09671140","name":"Mainaschaff","type":"Kreisangehörige_Gemeinde"},"district":{"key":"09671","name":"Aschaffenburg","type":"Landkreis"},"federalState":{"key":"09","name":"Bayern"}},{"name":"An der Senne","postalCode":"63814","locality":"Mainaschaff","municipality":{"key":"09671140","name":"Mainaschaff","type":"Kreisangehörige_Gemeinde"},"district":{"key":"09671","name":"Aschaffenburg","type":"Landkreis"},"federalState":{"key":"09","name":"Bayern"}},{"name":"Ankergasse","postalCode":"63814","locality":"Mainaschaff","municipality":{"key":"09671140","name":"Mainaschaff","type":"Kreisangehörige_Gemeinde"},"district":{"key":"09671","name":"Aschaffenburg","type":"Landkreis"},"federalState":{"key":"09","name":"Bayern"}},{"name":"Ankerplatz","postalCode":"63814","locality":"Mainaschaff","municipality":{"key":"09671140","name":"Mainaschaff","type":"Kreisangehörige_Gemeinde"},"district":{"key":"09671","name":"Aschaffenburg","type":"Landkreis"},"federalState":{"key":"09","name":"Bayern"}},{"name":"Aschaffstr.","postalCode":"63814","locality":"Mainaschaff","municipality":{"key":"09671140","name":"Mainaschaff","type":"Kreisangehörige_Gemeinde"},"district":{"key":"09671","name":"Aschaffenburg","type":"Landkreis"},"federalState":{"key":"09","name":"Bayern"}},{"name":"Auerhahnweg","postalCode":"63814","locality":"Mainaschaff","municipality":{"key":"09671140","name":"Mainaschaff","type":"Kreisangehörige_Gemeinde"},"district":{"key":"09671","name":"Aschaffenburg","type":"Landkreis"},"federalState":{"key":"09","name":"Bayern"}},{"name":"Bachstelzenweg","postalCode":"63814","locality":"Mainaschaff","municipality":{"key":"09671140","name":"Mainaschaff","type":"Kreisangehörige_Gemeinde"},"district":{"key":"09671","name":"Aschaffenburg","type":"Landkreis"},"federalState":{"key":"09","name":"Bayern"}},{"name":"Bahnhofstr.","postalCode":"63814","locality":"Mainaschaff","municipality":{"key":"09671140","name":"Mainaschaff","type":"Kreisangehörige_Gemeinde"},"district":{"key":"09671","name":"Aschaffenburg","type":"Landkreis"},"federalState":{"key":"09","name":"Bayern"}},{"name":"Baumläuferweg","postalCode":"63814","locality":"Mainaschaff","municipality":{"key":"09671140","name":"Mainaschaff","type":"Kreisangehörige_Gemeinde"},"district":{"key":"09671","name":"Aschaffenburg","type":"Landkreis"},"federalState":{"key":"09","name":"Bayern"}},{"name":"Behringstr.","postalCode":"63814","locality":"Mainaschaff","municipality":{"key":"09671140","name":"Mainaschaff","type":"Kreisangehörige_Gemeinde"},"district":{"key":"09671","name":"Aschaffenburg","type":"Landkreis"},"federalState":{"key":"09","name":"Bayern"}},{"name":"Bergstr.","postalCode":"63814","locality":"Mainaschaff","municipality":{"key":"09671140","name":"Mainaschaff","type":"Kreisangehörige_Gemeinde"},"district":{"key":"09671","name":"Aschaffenburg","type":"Landkreis"},"federalState":{"key":"09","name":"Bayern"}},{"name":"Bismarckstr.","postalCode":"63814","locality":"Mainaschaff","municipality":{"key":"09671140","name":"Mainaschaff","type":"Kreisangehörige_Gemeinde"},"district":{"key":"09671","name":"Aschaffenburg","type":"Landkreis"},"federalState":{"key":"09","name":"Bayern"}},{"name":"Brentanostr.","postalCode":"63814","locality":"Mainaschaff","municipality":{"key":"09671140","name":"Mainaschaff","type":"Kreisangehörige_Gemeinde"},"district":{"key":"09671","name":"Aschaffenburg","type":"Landkreis"},"federalState":{"key":"09","name":"Bayern"}},{"name":"Bussardweg","postalCode":"63814","locality":"Mainaschaff","municipality":{"key":"09671140","name":"Mainaschaff","type":"Kreisangehörige_Gemeinde"},"district":{"key":"09671","name":"Aschaffenburg","type":"Landkreis"},"federalState":{"key":"09","name":"Bayern"}},{"name":"Carl-Bosch-Str.","postalCode":"63814","locality":"Mainaschaff","municipality":{"key":"09671140","name":"Mainaschaff","type":"Kreisangehörige_Gemeinde"},"district":{"key":"09671","name":"Aschaffenburg","type":"Landkreis"},"federalState":{"key":"09","name":"Bayern"}},{"name":"Dahlienweg","postalCode":"63814","locality":"Mainaschaff","municipality":{"key":"09671140","name":"Mainaschaff","type":"Kreisangehörige_Gemeinde"},"district":{"key":"09671","name":"Aschaffenburg","type":"Landkreis"},"federalState":{"key":"09","name":"Bayern"}},{"name":"Danziger Str.","postalCode":"63814","locality":"Mainaschaff","municipality":{"key":"09671140","name":"Mainaschaff","type":"Kreisangehörige_Gemeinde"},"district":{"key":"09671","name":"Aschaffenburg","type":"Landkreis"},"federalState":{"key":"09","name":"Bayern"}},{"name":"Dohlenweg","postalCode":"63814","locality":"Mainaschaff","municipality":{"key":"09671140","name":"Mainaschaff","type":"Kreisangehörige_Gemeinde"},"district":{"key":"09671","name":"Aschaffenburg","type":"Landkreis"},"federalState":{"key":"09","name":"Bayern"}},{"name":"Drosselweg","postalCode":"63814","locality":"Mainaschaff","municipality":{"key":"09671140","name":"Mainaschaff","type":"Kreisangehörige_Gemeinde"},"district":{"key":"09671","name":"Aschaffenburg","type":"Landkreis"},"federalState":{"key":"09","name":"Bayern"}},{"name":"Egerstr.","postalCode":"63814","locality":"Mainaschaff","municipality":{"key":"09671140","name":"Mainaschaff","type":"Kreisangehörige_Gemeinde"},"district":{"key":"09671","name":"Aschaffenburg","type":"Landkreis"},"federalState":{"key":"09","name":"Bayern"}},{"name":"Eichendoffstr.","postalCode":"63814","locality":"Mainaschaff","municipality":{"key":"09671140","name":"Mainaschaff","type":"Kreisangehörige_Gemeinde"},"district":{"key":"09671","name":"Aschaffenburg","type":"Landkreis"},"federalState":{"key":"09","name":"Bayern"}},{"name":"Eifelstr.","postalCode":"63814","locality":"Mainaschaff","municipality":{"key":"09671140","name":"Mainaschaff","type":"Kreisangehörige_Gemeinde"},"district":{"key":"09671","name":"Aschaffenburg","type":"Landkreis"},"federalState":{"key":"09","name":"Bayern"}},{"name":"Elsterweg","postalCode":"63814","locality":"Mainaschaff","municipality":{"key":"09671140","name":"Mainaschaff","type":"Kreisangehörige_Gemeinde"},"district":{"key":"09671","name":"Aschaffenburg","type":"Landkreis"},"federalState":{"key":"09","name":"Bayern"}},{"name":"Falkenweg","postalCode":"63814","locality":"Mainaschaff","municipality":{"key":"09671140","name":"Mainaschaff","type":"Kreisangehörige_Gemeinde"},"district":{"key":"09671","name":"Aschaffenburg","type":"Landkreis"},"federalState":{"key":"09","name":"Bayern"}},{"name":"Faulmannstr.","postalCode":"63814","locality":"Mainaschaff","municipality":{"key":"09671140","name":"Mainaschaff","type":"Kreisangehörige_Gemeinde"},"district":{"key":"09671","name":"Aschaffenburg","type":"Landkreis"},"federalState":{"key":"09","name":"Bayern"}},{"name":"Finkenweg","postalCode":"63814","locality":"Mainaschaff","municipality":{"key":"09671140","name":"Mainaschaff","type":"Kreisangehörige_Gemeinde"},"district":{"key":"09671","name":"Aschaffenburg","type":"Landkreis"},"federalState":{"key":"09","name":"Bayern"}},{"name":"Fliederweg","postalCode":"63814","locality":"Mainaschaff","municipality":{"key":"09671140","name":"Mainaschaff","type":"Kreisangehörige_Gemeinde"},"district":{"key":"09671","name":"Aschaffenburg","type":"Landkreis"},"federalState":{"key":"09","name":"Bayern"}},{"name":"Frankenstr.","postalCode":"63814","locality":"Mainaschaff","municipality":{"key":"09671140","name":"Mainaschaff","type":"Kreisangehörige_Gemeinde"},"district":{"key":"09671","name":"Aschaffenburg","type":"Landkreis"},"federalState":{"key":"09","name":"Bayern"}},{"name":"Friedenstr.","postalCode":"63814","locality":"Mainaschaff","municipality":{"key":"09671140","name":"Mainaschaff","type":"Kreisangehörige_Gemeinde"},"district":{"key":"09671","name":"Aschaffenburg","type":"Landkreis"},"federalState":{"key":"09","name":"Bayern"}},{"name":"Friedhofstr.","postalCode":"63814","locality":"Mainaschaff","municipality":{"key":"09671140","name":"Mainaschaff","type":"Kreisangehörige_Gemeinde"},"district":{"key":"09671","name":"Aschaffenburg","type":"Landkreis"},"federalState":{"key":"09","name":"Bayern"}},{"name":"Friedrich-Ebert-Str.","postalCode":"63814","locality":"Mainaschaff","municipality":{"key":"09671140","name":"Mainaschaff","type":"Kreisangehörige_Gemeinde"},"district":{"key":"09671","name":"Aschaffenburg","type":"Landkreis"},"federalState":{"key":"09","name":"Bayern"}},{"name":"Fritz-Haber-Str.","postalCode":"63814","locality":"Mainaschaff","municipality":{"key":"09671140","name":"Mainaschaff","type":"Kreisangehörige_Gemeinde"},"district":{"key":"09671","name":"Aschaffenburg","type":"Landkreis"},"federalState":{"key":"09","name":"Bayern"}},{"name":"Froschgraben","postalCode":"63814","locality":"Mainaschaff","municipality":{"key":"09671140","name":"Mainaschaff","type":"Kreisangehörige_Gemeinde"},"district":{"key":"09671","name":"Aschaffenburg","type":"Landkreis"},"federalState":{"key":"09","name":"Bayern"}},{"name":"Frühlingsweg","postalCode":"63814","locality":"Mainaschaff","municipality":{"key":"09671140","name":"Mainaschaff","type":"Kreisangehörige_Gemeinde"},"district":{"key":"09671","name":"Aschaffenburg","type":"Landkreis"},"federalState":{"key":"09","name":"Bayern"}},{"name":"Gabelsbergerstr.","postalCode":"63814","locality":"Mainaschaff","municipality":{"key":"09671140","name":"Mainaschaff","type":"Kreisangehörige_Gemeinde"},"district":{"key":"09671","name":"Aschaffenburg","type":"Landkreis"},"federalState":{"key":"09","name":"Bayern"}},{"name":"Gartenstr.","postalCode":"63814","locality":"Mainaschaff","municipality":{"key":"09671140","name":"Mainaschaff","type":"Kreisangehörige_Gemeinde"},"district":{"key":"09671","name":"Aschaffenburg","type":"Landkreis"},"federalState":{"key":"09","name":"Bayern"}},{"name":"Gebrüder-Grimm-Str.","postalCode":"63814","locality":"Mainaschaff","municipality":{"key":"09671140","name":"Mainaschaff","type":"Kreisangehörige_Gemeinde"},"district":{"key":"09671","name":"Aschaffenburg","type":"Landkreis"},"federalState":{"key":"09","name":"Bayern"}},{"name":"Ginsterweg","postalCode":"63814","locality":"Mainaschaff","municipality":{"key":"09671140","name":"Mainaschaff","type":"Kreisangehörige_Gemeinde"},"district":{"key":"09671","name":"Aschaffenburg","type":"Landkreis"},"federalState":{"key":"09","name":"Bayern"}},{"name":"Glogauer Str.","postalCode":"63814","locality":"Mainaschaff","municipality":{"key":"09671140","name":"Mainaschaff","type":"Kreisangehörige_Gemeinde"},"district":{"key":"09671","name":"Aschaffenburg","type":"Landkreis"},"federalState":{"key":"09","name":"Bayern"}},{"name":"Goethestr.","postalCode":"63814","locality":"Mainaschaff","municipality":{"key":"09671140","name":"Mainaschaff","type":"Kreisangehörige_Gemeinde"},"district":{"key":"09671","name":"Aschaffenburg","type":"Landkreis"},"federalState":{"key":"09","name":"Bayern"}},{"name":"Graslitzer Str.","postalCode":"63814","locality":"Mainaschaff","municipality":{"key":"09671140","name":"Mainaschaff","type":"Kreisangehörige_Gemeinde"},"district":{"key":"09671","name":"Aschaffenburg","type":"Landkreis"},"federalState":{"key":"09","name":"Bayern"}},{"name":"Grünewaldstr.","postalCode":"63814","locality":"Mainaschaff","municipality":{"key":"09671140","name":"Mainaschaff","type":"Kreisangehörige_Gemeinde"},"district":{"key":"09671","name":"Aschaffenburg","type":"Landkreis"},"federalState":{"key":"09","name":"Bayern"}},{"name":"Gustav-Hertz-Str.","postalCode":"63814","locality":"Mainaschaff","municipality":{"key":"09671140","name":"Mainaschaff","type":"Kreisangehörige_Gemeinde"},"district":{"key":"09671","name":"Aschaffenburg","type":"Landkreis"},"federalState":{"key":"09","name":"Bayern"}},{"name":"Gutenbergstr.","postalCode":"63814","locality":"Mainaschaff","municipality":{"key":"09671140","name":"Mainaschaff","type":"Kreisangehörige_Gemeinde"},"district":{"key":"09671","name":"Aschaffenburg","type":"Landkreis"},"federalState":{"key":"09","name":"Bayern"}},{"name":"Hanauer Landstr.","postalCode":"63814","locality":"Mainaschaff","municipality":{"key":"09671140","name":"Mainaschaff","type":"Kreisangehörige_Gemeinde"},"district":{"key":"09671","name":"Aschaffenburg","type":"Landkreis"},"federalState":{"key":"09","name":"Bayern"}},{"name":"Hänflingweg","postalCode":"63814","locality":"Mainaschaff","municipality":{"key":"09671140","name":"Mainaschaff","type":"Kreisangehörige_Gemeinde"},"district":{"key":"09671","name":"Aschaffenburg","type":"Landkreis"},"federalState":{"key":"09","name":"Bayern"}},{"name":"Hauptstr.","postalCode":"63814","locality":"Mainaschaff","municipality":{"key":"09671140","name":"Mainaschaff","type":"Kreisangehörige_Gemeinde"},"district":{"key":"09671","name":"Aschaffenburg","type":"Landkreis"},"federalState":{"key":"09","name":"Bayern"}},{"name":"Hermann-Müller-Str.","postalCode":"63814","locality":"Mainaschaff","municipality":{"key":"09671140","name":"Mainaschaff","type":"Kreisangehörige_Gemeinde"},"district":{"key":"09671","name":"Aschaffenburg","type":"Landkreis"},"federalState":{"key":"09","name":"Bayern"}},{"name":"Herrmann-Hesse-Str.","postalCode":"63814","locality":"Mainaschaff","municipality":{"key":"09671140","name":"Mainaschaff","type":"Kreisangehörige_Gemeinde"},"district":{"key":"09671","name":"Aschaffenburg","type":"Landkreis"},"federalState":{"key":"09","name":"Bayern"}},{"name":"Hirschpfad","postalCode":"63814","locality":"Mainaschaff","municipality":{"key":"09671140","name":"Mainaschaff","type":"Kreisangehörige_Gemeinde"},"district":{"key":"09671","name":"Aschaffenburg","type":"Landkreis"},"federalState":{"key":"09","name":"Bayern"}},{"name":"Hofgartenstr.","postalCode":"63814","locality":"Mainaschaff","municipality":{"key":"09671140","name":"Mainaschaff","type":"Kreisangehörige_Gemeinde"},"district":{"key":"09671","name":"Aschaffenburg","type":"Landkreis"},"federalState":{"key":"09","name":"Bayern"}},{"name":"Im Weichental","postalCode":"63814","locality":"Mainaschaff","municipality":{"key":"09671140","name":"Mainaschaff","type":"Kreisangehörige_Gemeinde"},"district":{"key":"09671","name":"Aschaffenburg","type":"Landkreis"},"federalState":{"key":"09","name":"Bayern"}},{"name":"In den Wickengärten","postalCode":"63814","locality":"Mainaschaff","municipality":{"key":"09671140","name":"Mainaschaff","type":"Kreisangehörige_Gemeinde"},"district":{"key":"09671","name":"Aschaffenburg","type":"Landkreis"},"federalState":{"key":"09","name":"Bayern"}},{"name":"Industriestr.","postalCode":"63814","locality":"Mainaschaff","municipality":{"key":"09671140","name":"Mainaschaff","type":"Kreisangehörige_Gemeinde"},"district":{"key":"09671","name":"Aschaffenburg","type":"Landkreis"},"federalState":{"key":"09","name":"Bayern"}},{"name":"Jahnstr.","postalCode":"63814","locality":"Mainaschaff","municipality":{"key":"09671140","name":"Mainaschaff","type":"Kreisangehörige_Gemeinde"},"district":{"key":"09671","name":"Aschaffenburg","type":"Landkreis"},"federalState":{"key":"09","name":"Bayern"}},{"name":"Johann-Dahlem-Str.","postalCode":"63814","locality":"Mainaschaff","municipality":{"key":"09671140","name":"Mainaschaff","type":"Kreisangehörige_Gemeinde"},"district":{"key":"09671","name":"Aschaffenburg","type":"Landkreis"},"federalState":{"key":"09","name":"Bayern"}},{"name":"Karlsbader Str.","postalCode":"63814","locality":"Mainaschaff","municipality":{"key":"09671140","name":"Mainaschaff","type":"Kreisangehörige_Gemeinde"},"district":{"key":"09671","name":"Aschaffenburg","type":"Landkreis"},"federalState":{"key":"09","name":"Bayern"}},{"name":"Kolpingstr.","postalCode":"63814","locality":"Mainaschaff","municipality":{"key":"09671140","name":"Mainaschaff","type":"Kreisangehörige_Gemeinde"},"district":{"key":"09671","name":"Aschaffenburg","type":"Landkreis"},"federalState":{"key":"09","name":"Bayern"}},{"name":"Königsberger Str.","postalCode":"63814","locality":"Mainaschaff","municipality":{"key":"09671140","name":"Mainaschaff","type":"Kreisangehörige_Gemeinde"},"district":{"key":"09671","name":"Aschaffenburg","type":"Landkreis"},"federalState":{"key":"09","name":"Bayern"}},{"name":"Konrad-Bloch-Str.","postalCode":"63814","locality":"Mainaschaff","municipality":{"key":"09671140","name":"Mainaschaff","type":"Kreisangehörige_Gemeinde"},"district":{"key":"09671","name":"Aschaffenburg","type":"Landkreis"},"federalState":{"key":"09","name":"Bayern"}},{"name":"Krähenweg","postalCode":"63814","locality":"Mainaschaff","municipality":{"key":"09671140","name":"Mainaschaff","type":"Kreisangehörige_Gemeinde"},"district":{"key":"09671","name":"Aschaffenburg","type":"Landkreis"},"federalState":{"key":"09","name":"Bayern"}},{"name":"Kranichweg","postalCode":"63814","locality":"Mainaschaff","municipality":{"key":"09671140","name":"Mainaschaff","type":"Kreisangehörige_Gemeinde"},"district":{"key":"09671","name":"Aschaffenburg","type":"Landkreis"},"federalState":{"key":"09","name":"Bayern"}},{"name":"Kreuzweg","postalCode":"63814","locality":"Mainaschaff","municipality":{"key":"09671140","name":"Mainaschaff","type":"Kreisangehörige_Gemeinde"},"district":{"key":"09671","name":"Aschaffenburg","type":"Landkreis"},"federalState":{"key":"09","name":"Bayern"}},{"name":"Kuckucksweg","postalCode":"63814","locality":"Mainaschaff","municipality":{"key":"09671140","name":"Mainaschaff","type":"Kreisangehörige_Gemeinde"},"district":{"key":"09671","name":"Aschaffenburg","type":"Landkreis"},"federalState":{"key":"09","name":"Bayern"}},{"name":"Kurzes Gewann","postalCode":"63814","locality":"Mainaschaff","municipality":{"key":"09671140","name":"Mainaschaff","type":"Kreisangehörige_Gemeinde"},"district":{"key":"09671","name":"Aschaffenburg","type":"Landkreis"},"federalState":{"key":"09","name":"Bayern"}},{"name":"Lerchenweg","postalCode":"63814","locality":"Mainaschaff","municipality":{"key":"09671140","name":"Mainaschaff","type":"Kreisangehörige_Gemeinde"},"district":{"key":"09671","name":"Aschaffenburg","type":"Landkreis"},"federalState":{"key":"09","name":"Bayern"}},{"name":"Lilienweg","postalCode":"63814","locality":"Mainaschaff","municipality":{"key":"09671140","name":"Mainaschaff","type":"Kreisangehörige_Gemeinde"},"district":{"key":"09671","name":"Aschaffenburg","type":"Landkreis"},"federalState":{"key":"09","name":"Bayern"}},{"name":"Mainparkstr.","postalCode":"63814","locality":"Mainaschaff","municipality":{"key":"09671140","name":"Mainaschaff","type":"Kreisangehörige_Gemeinde"},"district":{"key":"09671","name":"Aschaffenburg","type":"Landkreis"},"federalState":{"key":"09","name":"Bayern"}},{"name":"Malkotscher Str.","postalCode":"63814","locality":"Mainaschaff","municipality":{"key":"09671140","name":"Mainaschaff","type":"Kreisangehörige_Gemeinde"},"district":{"key":"09671","name":"Aschaffenburg","type":"Landkreis"},"federalState":{"key":"09","name":"Bayern"}},{"name":"Max-Born-Str.","postalCode":"63814","locality":"Mainaschaff","municipality":{"key":"09671140","name":"Mainaschaff","type":"Kreisangehörige_Gemeinde"},"district":{"key":"09671","name":"Aschaffenburg","type":"Landkreis"},"federalState":{"key":"09","name":"Bayern"}},{"name":"Meisenweg","postalCode":"63814","locality":"Mainaschaff","municipality":{"key":"09671140","name":"Mainaschaff","type":"Kreisangehörige_Gemeinde"},"district":{"key":"09671","name":"Aschaffenburg","type":"Landkreis"},"federalState":{"key":"09","name":"Bayern"}},{"name":"Mendelstr.","postalCode":"63814","locality":"Mainaschaff","municipality":{"key":"09671140","name":"Mainaschaff","type":"Kreisangehörige_Gemeinde"},"district":{"key":"09671","name":"Aschaffenburg","type":"Landkreis"},"federalState":{"key":"09","name":"Bayern"}},{"name":"Milanstr.","postalCode":"63814","locality":"Mainaschaff","municipality":{"key":"09671140","name":"Mainaschaff","type":"Kreisangehörige_Gemeinde"},"district":{"key":"09671","name":"Aschaffenburg","type":"Landkreis"},"federalState":{"key":"09","name":"Bayern"}},{"name":"Mittelweg","postalCode":"63814","locality":"Mainaschaff","municipality":{"key":"09671140","name":"Mainaschaff","type":"Kreisangehörige_Gemeinde"},"district":{"key":"09671","name":"Aschaffenburg","type":"Landkreis"},"federalState":{"key":"09","name":"Bayern"}},{"name":"Mittlere Maingasse","postalCode":"63814","locality":"Mainaschaff","municipality":{"key":"09671140","name":"Mainaschaff","type":"Kreisangehörige_Gemeinde"},"district":{"key":"09671","name":"Aschaffenburg","type":"Landkreis"},"federalState":{"key":"09","name":"Bayern"}},{"name":"Mörikestr.","postalCode":"63814","locality":"Mainaschaff","municipality":{"key":"09671140","name":"Mainaschaff","type":"Kreisangehörige_Gemeinde"},"district":{"key":"09671","name":"Aschaffenburg","type":"Landkreis"},"federalState":{"key":"09","name":"Bayern"}},{"name":"Möwenweg","postalCode":"63814","locality":"Mainaschaff","municipality":{"key":"09671140","name":"Mainaschaff","type":"Kreisangehörige_Gemeinde"},"district":{"key":"09671","name":"Aschaffenburg","type":"Landkreis"},"federalState":{"key":"09","name":"Bayern"}},{"name":"Mozartstr.","postalCode":"63814","locality":"Mainaschaff","municipality":{"key":"09671140","name":"Mainaschaff","type":"Kreisangehörige_Gemeinde"},"district":{"key":"09671","name":"Aschaffenburg","type":"Landkreis"},"federalState":{"key":"09","name":"Bayern"}},{"name":"Nachtigallenweg","postalCode":"63814","locality":"Mainaschaff","municipality":{"key":"09671140","name":"Mainaschaff","type":"Kreisangehörige_Gemeinde"},"district":{"key":"09671","name":"Aschaffenburg","type":"Landkreis"},"federalState":{"key":"09","name":"Bayern"}},{"name":"Nelkenweg","postalCode":"63814","locality":"Mainaschaff","municipality":{"key":"09671140","name":"Mainaschaff","type":"Kreisangehörige_Gemeinde"},"district":{"key":"09671","name":"Aschaffenburg","type":"Landkreis"},"federalState":{"key":"09","name":"Bayern"}},{"name":"Nelly-Sachs-Str.","postalCode":"63814","locality":"Mainaschaff","municipality":{"key":"09671140","name":"Mainaschaff","type":"Kreisangehörige_Gemeinde"},"district":{"key":"09671","name":"Aschaffenburg","type":"Landkreis"},"federalState":{"key":"09","name":"Bayern"}},{"name":"Neubaustr.","postalCode":"63814","locality":"Mainaschaff","municipality":{"key":"09671140","name":"Mainaschaff","type":"Kreisangehörige_Gemeinde"},"district":{"key":"09671","name":"Aschaffenburg","type":"Landkreis"},"federalState":{"key":"09","name":"Bayern"}},{"name":"Obere Maingasse","postalCode":"63814","locality":"Mainaschaff","municipality":{"key":"09671140","name":"Mainaschaff","type":"Kreisangehörige_Gemeinde"},"district":{"key":"09671","name":"Aschaffenburg","type":"Landkreis"},"federalState":{"key":"09","name":"Bayern"}},{"name":"Odenwaldstr.","postalCode":"63814","locality":"Mainaschaff","municipality":{"key":"09671140","name":"Mainaschaff","type":"Kreisangehörige_Gemeinde"},"district":{"key":"09671","name":"Aschaffenburg","type":"Landkreis"},"federalState":{"key":"09","name":"Bayern"}},{"name":"Ostendstr.","postalCode":"63814","locality":"Mainaschaff","municipality":{"key":"09671140","name":"Mainaschaff","type":"Kreisangehörige_Gemeinde"},"district":{"key":"09671","name":"Aschaffenburg","type":"Landkreis"},"federalState":{"key":"09","name":"Bayern"}},{"name":"Otto-Hahn-Str.","postalCode":"63814","locality":"Mainaschaff","municipality":{"key":"09671140","name":"Mainaschaff","type":"Kreisangehörige_Gemeinde"},"district":{"key":"09671","name":"Aschaffenburg","type":"Landkreis"},"federalState":{"key":"09","name":"Bayern"}},{"name":"Paul-Ehrlich-Str.","postalCode":"63814","locality":"Mainaschaff","municipality":{"key":"09671140","name":"Mainaschaff","type":"Kreisangehörige_Gemeinde"},"district":{"key":"09671","name":"Aschaffenburg","type":"Landkreis"},"federalState":{"key":"09","name":"Bayern"}},{"name":"Pestalozzistr.","postalCode":"63814","locality":"Mainaschaff","municipality":{"key":"09671140","name":"Mainaschaff","type":"Kreisangehörige_Gemeinde"},"district":{"key":"09671","name":"Aschaffenburg","type":"Landkreis"},"federalState":{"key":"09","name":"Bayern"}},{"name":"Pieperweg","postalCode":"63814","locality":"Mainaschaff","municipality":{"key":"09671140","name":"Mainaschaff","type":"Kreisangehörige_Gemeinde"},"district":{"key":"09671","name":"Aschaffenburg","type":"Landkreis"},"federalState":{"key":"09","name":"Bayern"}},{"name":"Pirolweg","postalCode":"63814","locality":"Mainaschaff","municipality":{"key":"09671140","name":"Mainaschaff","type":"Kreisangehörige_Gemeinde"},"district":{"key":"09671","name":"Aschaffenburg","type":"Landkreis"},"federalState":{"key":"09","name":"Bayern"}},{"name":"Planckstr.","postalCode":"63814","locality":"Mainaschaff","municipality":{"key":"09671140","name":"Mainaschaff","type":"Kreisangehörige_Gemeinde"},"district":{"key":"09671","name":"Aschaffenburg","type":"Landkreis"},"federalState":{"key":"09","name":"Bayern"}},{"name":"Posener Str.","postalCode":"63814","locality":"Mainaschaff","municipality":{"key":"09671140","name":"Mainaschaff","type":"Kreisangehörige_Gemeinde"},"district":{"key":"09671","name":"Aschaffenburg","type":"Landkreis"},"federalState":{"key":"09","name":"Bayern"}},{"name":"Preußenweg","postalCode":"63814","locality":"Mainaschaff","municipality":{"key":"09671140","name":"Mainaschaff","type":"Kreisangehörige_Gemeinde"},"district":{"key":"09671","name":"Aschaffenburg","type":"Landkreis"},"federalState":{"key":"09","name":"Bayern"}},{"name":"Quittenweg","postalCode":"63741","locality":"Aschaffenburg","municipality":{"key":"09661000","name":"Aschaffenburg","type":"Kreisfreie_Stadt"},"district":{"key":"09661","name":"Aschaffenburg","type":"Kreisfreie_Stadt"},"federalState":{"key":"09","name":"Bayern"}},{"name":"Radstr.","postalCode":"63814","locality":"Mainaschaff","municipality":{"key":"09671140","name":"Mainaschaff","type":"Kreisangehörige_Gemeinde"},"district":{"key":"09671","name":"Aschaffenburg","type":"Landkreis"},"federalState":{"key":"09","name":"Bayern"}},{"name":"Raiffeisenstr.","postalCode":"63814","locality":"Mainaschaff","municipality":{"key":"09671140","name":"Mainaschaff","type":"Kreisangehörige_Gemeinde"},"district":{"key":"09671","name":"Aschaffenburg","type":"Landkreis"},"federalState":{"key":"09","name":"Bayern"}},{"name":"Rhönstr.","postalCode":"63814","locality":"Mainaschaff","municipality":{"key":"09671140","name":"Mainaschaff","type":"Kreisangehörige_Gemeinde"},"district":{"key":"09671","name":"Aschaffenburg","type":"Landkreis"},"federalState":{"key":"09","name":"Bayern"}},{"name":"Richard-Kuhn-Str.","postalCode":"63814","locality":"Mainaschaff","municipality":{"key":"09671140","name":"Mainaschaff","type":"Kreisangehörige_Gemeinde"},"district":{"key":"09671","name":"Aschaffenburg","type":"Landkreis"},"federalState":{"key":"09","name":"Bayern"}},{"name":"Robert-Koch-Park","postalCode":"63814","locality":"Mainaschaff","municipality":{"key":"09671140","name":"Mainaschaff","type":"Kreisangehörige_Gemeinde"},"district":{"key":"09671","name":"Aschaffenburg","type":"Landkreis"},"federalState":{"key":"09","name":"Bayern"}},{"name":"Robert-Koch-Str.","postalCode":"63814","locality":"Mainaschaff","municipality":{"key":"09671140","name":"Mainaschaff","type":"Kreisangehörige_Gemeinde"},"district":{"key":"09671","name":"Aschaffenburg","type":"Landkreis"},"federalState":{"key":"09","name":"Bayern"}},{"name":"Rohrsängerweg","postalCode":"63814","locality":"Mainaschaff","municipality":{"key":"09671140","name":"Mainaschaff","type":"Kreisangehörige_Gemeinde"},"district":{"key":"09671","name":"Aschaffenburg","type":"Landkreis"},"federalState":{"key":"09","name":"Bayern"}},{"name":"Rosenstr.","postalCode":"63814","locality":"Mainaschaff","municipality":{"key":"09671140","name":"Mainaschaff","type":"Kreisangehörige_Gemeinde"},"district":{"key":"09671","name":"Aschaffenburg","type":"Landkreis"},"federalState":{"key":"09","name":"Bayern"}},{"name":"Salbeiweg","postalCode":"63814","locality":"Mainaschaff","municipality":{"key":"09671140","name":"Mainaschaff","type":"Kreisangehörige_Gemeinde"},"district":{"key":"09671","name":"Aschaffenburg","type":"Landkreis"},"federalState":{"key":"09","name":"Bayern"}},{"name":"Sandweg","postalCode":"63814","locality":"Mainaschaff","municipality":{"key":"09671140","name":"Mainaschaff","type":"Kreisangehörige_Gemeinde"},"district":{"key":"09671","name":"Aschaffenburg","type":"Landkreis"},"federalState":{"key":"09","name":"Bayern"}},{"name":"Schillerstr.","postalCode":"63814","locality":"Mainaschaff","municipality":{"key":"09671140","name":"Mainaschaff","type":"Kreisangehörige_Gemeinde"},"district":{"key":"09671","name":"Aschaffenburg","type":"Landkreis"},"federalState":{"key":"09","name":"Bayern"}},{"name":"Schubertstr.","postalCode":"63814","locality":"Mainaschaff","municipality":{"key":"09671140","name":"Mainaschaff","type":"Kreisangehörige_Gemeinde"},"district":{"key":"09671","name":"Aschaffenburg","type":"Landkreis"},"federalState":{"key":"09","name":"Bayern"}},{"name":"Schulstr.","postalCode":"63814","locality":"Mainaschaff","municipality":{"key":"09671140","name":"Mainaschaff","type":"Kreisangehörige_Gemeinde"},"district":{"key":"09671","name":"Aschaffenburg","type":"Landkreis"},"federalState":{"key":"09","name":"Bayern"}},{"name":"Schwanengasse","postalCode":"63814","locality":"Mainaschaff","municipality":{"key":"09671140","name":"Mainaschaff","type":"Kreisangehörige_Gemeinde"},"district":{"key":"09671","name":"Aschaffenburg","type":"Landkreis"},"federalState":{"key":"09","name":"Bayern"}},{"name":"Schwarzwaldstr.","postalCode":"63814","locality":"Mainaschaff","municipality":{"key":"09671140","name":"Mainaschaff","type":"Kreisangehörige_Gemeinde"},"district":{"key":"09671","name":"Aschaffenburg","type":"Landkreis"},"federalState":{"key":"09","name":"Bayern"}},{"name":"Seestr.","postalCode":"63814","locality":"Mainaschaff","municipality":{"key":"09671140","name":"Mainaschaff","type":"Kreisangehörige_Gemeinde"},"district":{"key":"09671","name":"Aschaffenburg","type":"Landkreis"},"federalState":{"key":"09","name":"Bayern"}},{"name":"Spessartstr.","postalCode":"63814","locality":"Mainaschaff","municipality":{"key":"09671140","name":"Mainaschaff","type":"Kreisangehörige_Gemeinde"},"district":{"key":"09671","name":"Aschaffenburg","type":"Landkreis"},"federalState":{"key":"09","name":"Bayern"}},{"name":"Starenweg","postalCode":"63814","locality":"Mainaschaff","municipality":{"key":"09671140","name":"Mainaschaff","type":"Kreisangehörige_Gemeinde"},"district":{"key":"09671","name":"Aschaffenburg","type":"Landkreis"},"federalState":{"key":"09","name":"Bayern"}},{"name":"St.-Bruno-Str.","postalCode":"63814","locality":"Mainaschaff","municipality":{"key":"09671140","name":"Mainaschaff","type":"Kreisangehörige_Gemeinde"},"district":{"key":"09671","name":"Aschaffenburg","type":"Landkreis"},"federalState":{"key":"09","name":"Bayern"}},{"name":"Stettiner Str.","postalCode":"63814","locality":"Mainaschaff","municipality":{"key":"09671140","name":"Mainaschaff","type":"Kreisangehörige_Gemeinde"},"district":{"key":"09671","name":"Aschaffenburg","type":"Landkreis"},"federalState":{"key":"09","name":"Bayern"}},{"name":"Stockstadter Str.","postalCode":"63814","locality":"Mainaschaff","municipality":{"key":"09671140","name":"Mainaschaff","type":"Kreisangehörige_Gemeinde"},"district":{"key":"09671","name":"Aschaffenburg","type":"Landkreis"},"federalState":{"key":"09","name":"Bayern"}},{"name":"Taunusstr.","postalCode":"63814","locality":"Mainaschaff","municipality":{"key":"09671140","name":"Mainaschaff","type":"Kreisangehörige_Gemeinde"},"district":{"key":"09671","name":"Aschaffenburg","type":"Landkreis"},"federalState":{"key":"09","name":"Bayern"}},{"name":"Tilsiter Str.","postalCode":"63814","locality":"Mainaschaff","municipality":{"key":"09671140","name":"Mainaschaff","type":"Kreisangehörige_Gemeinde"},"district":{"key":"09671","name":"Aschaffenburg","type":"Landkreis"},"federalState":{"key":"09","name":"Bayern"}},{"name":"Tulpenweg","postalCode":"63814","locality":"Mainaschaff","municipality":{"key":"09671140","name":"Mainaschaff","type":"Kreisangehörige_Gemeinde"},"district":{"key":"09671","name":"Aschaffenburg","type":"Landkreis"},"federalState":{"key":"09","name":"Bayern"}},{"name":"Untere Maingasse","postalCode":"63814","locality":"Mainaschaff","municipality":{"key":"09671140","name":"Mainaschaff","type":"Kreisangehörige_Gemeinde"},"district":{"key":"09671","name":"Aschaffenburg","type":"Landkreis"},"federalState":{"key":"09","name":"Bayern"}},{"name":"Vischerstr.","postalCode":"63739","locality":"Aschaffenburg","municipality":{"key":"09661000","name":"Aschaffenburg","type":"Kreisfreie_Stadt"},"district":{"key":"09661","name":"Aschaffenburg","type":"Kreisfreie_Stadt"},"federalState":{"key":"09","name":"Bayern"}},{"name":"Vogelsbergstr.","postalCode":"63743","locality":"Aschaffenburg","municipality":{"key":"09661000","name":"Aschaffenburg","type":"Kreisfreie_Stadt"},"district":{"key":"09661","name":"Aschaffenburg","type":"Kreisfreie_Stadt"},"federalState":{"key":"09","name":"Bayern"}},{"name":"Vor der Au","postalCode":"63743","locality":"Aschaffenburg","municipality":{"key":"09661000","name":"Aschaffenburg","type":"Kreisfreie_Stadt"},"district":{"key":"09661","name":"Aschaffenburg","type":"Kreisfreie_Stadt"},"federalState":{"key":"09","name":"Bayern"}},{"name":"Weinbergweg","postalCode":"63814","locality":"Mainaschaff","municipality":{"key":"09671140","name":"Mainaschaff","type":"Kreisangehörige_Gemeinde"},"district":{"key":"09671","name":"Aschaffenburg","type":"Landkreis"},"federalState":{"key":"09","name":"Bayern"}},{"name":"Westerwaldstr.","postalCode":"63814","locality":"Mainaschaff","municipality":{"key":"09671140","name":"Mainaschaff","type":"Kreisangehörige_Gemeinde"},"district":{"key":"09671","name":"Aschaffenburg","type":"Landkreis"},"federalState":{"key":"09","name":"Bayern"}},{"name":"Wiesenstr.","postalCode":"63814","locality":"Mainaschaff","municipality":{"key":"09671140","name":"Mainaschaff","type":"Kreisangehörige_Gemeinde"},"district":{"key":"09671","name":"Aschaffenburg","type":"Landkreis"},"federalState":{"key":"09","name":"Bayern"}},{"name":"Yorckstr.","postalCode":"63739","locality":"Aschaffenburg","municipality":{"key":"09661000","name":"Aschaffenburg","type":"Kreisfreie_Stadt"},"district":{"key":"09661","name":"Aschaffenburg","type":"Kreisfreie_Stadt"},"federalState":{"key":"09","name":"Bayern"}},{"name":"Zangstr.","postalCode":"63741","locality":"Aschaffenburg","municipality":{"key":"09661000","name":"Aschaffenburg","type":"Kreisfreie_Stadt"},"district":{"key":"09661","name":"Aschaffenburg","type":"Kreisfreie_Stadt"},"federalState":{"key":"09","name":"Bayern"}},{"name":"Zedernweg","postalCode":"63741","locality":"Aschaffenburg","municipality":{"key":"09661000","name":"Aschaffenburg","type":"Kreisfreie_Stadt"},"district":{"key":"09661","name":"Aschaffenburg","type":"Kreisfreie_Stadt"},"federalState":{"key":"09","name":"Bayern"}},{"name":"Ziegelbergstr.","postalCode":"63739","locality":"Aschaffenburg","municipality":{"key":"09661000","name":"Aschaffenburg","type":"Kreisfreie_Stadt"},"district":{"key":"09661","name":"Aschaffenburg","type":"Kreisfreie_Stadt"},"federalState":{"key":"09","name":"Bayern"}},{"name":"Ziegelhüttenweg","postalCode":"63743","locality":"Aschaffenburg","municipality":{"key":"09661000","name":"Aschaffenburg","type":"Kreisfreie_Stadt"},"district":{"key":"09661","name":"Aschaffenburg","type":"Kreisfreie_Stadt"},"federalState":{"key":"09","name":"Bayern"}},{"name":"Zobelstr.","postalCode":"63741","locality":"Aschaffenburg","municipality":{"key":"09661000","name":"Aschaffenburg","type":"Kreisfreie_Stadt"},"district":{"key":"09661","name":"Aschaffenburg","type":"Kreisfreie_Stadt"},"federalState":{"key":"09","name":"Bayern"}},{"name":"Zum Kreuz","postalCode":"63743","locality":"Aschaffenburg","municipality":{"key":"09661000","name":"Aschaffenburg","type":"Kreisfreie_Stadt"},"district":{"key":"09661","name":"Aschaffenburg","type":"Kreisfreie_Stadt"},"federalState":{"key":"09","name":"Bayern"}},{"name":"Zum Schreibersgraben","postalCode":"63743","locality":"Aschaffenburg","municipality":{"key":"09661000","name":"Aschaffenburg","type":"Kreisfreie_Stadt"},"district":{"key":"09661","name":"Aschaffenburg","type":"Kreisfreie_Stadt"},"federalState":{"key":"09","name":"Bayern"}},{"name":"Zypressenweg","postalCode":"63741","locality":"Aschaffenburg","municipality":{"key":"09661000","name":"Aschaffenburg","type":"Kreisfreie_Stadt"},"district":{"key":"09661","name":"Aschaffenburg","type":"Kreisfreie_Stadt"},"federalState":{"key":"09","name":"Bayern"}},{"name":"Ölmühlweg","postalCode":"63743","locality":"Aschaffenburg","municipality":{"key":"09661000","name":"Aschaffenburg","type":"Kreisfreie_Stadt"},"district":{"key":"09661","name":"Aschaffenburg","type":"Kreisfreie_Stadt"},"federalState":{"key":"09","name":"Bayern"}},{"name":"Österreicher Str.","postalCode":"63739","locality":"Aschaffenburg","municipality":{"key":"09661000","name":"Aschaffenburg","type":"Kreisfreie_Stadt"},"district":{"key":"09661","name":"Aschaffenburg","type":"Kreisfreie_Stadt"},"federalState":{"key":"09","name":"Bayern"}},]