[{"key":"10081084","name":"Abschlachtweg","postalCode":"8852","locality":"Altendorf","commune":{"key":"1341","name":"Altendorf","shortName":"Altendorf"},"district":{"key":"505","name":"Bezirk March"},"canton":{"key":"5","code":"SZ","name":"Schwyz"},"status":"Real"},{"key":"10065039","name":"Acherenboden","postalCode":"8852","locality":"Altendorf","commune":{"key":"1341","name":"Altendorf","shortName":"Altendorf"},"district":{"key":"505","name":"Bezirk March"},"canton":{"key":"5","code":"SZ","name":"Schwyz"},"status":"Real"},{"key":"10179156","name":"Acherwies","postalCode":"8852","locality":"Altendorf","commune":{"key":"1341","name":"Altendorf","shortName":"Altendorf"},"district":{"key":"505","name":"Bezirk March"},"canton":{"key":"5","code":"SZ","name":"Schwyz"},"status":"Real"},{"key":"10017527","name":"Aeffenberg","postalCode":"8852","locality":"Altendorf","commune":{"key":"1341","name":"Altendorf","shortName":"Altendorf"},"district":{"key":"505","name":"Bezirk March"},"canton":{"key":"5","code":"SZ","name":"Schwyz"},"status":"Real"},{"key":"10018597","name":"Allmeindstrasse","postalCode":"8852","locality":"Altendorf","commune":{"key":"1341","name":"Altendorf","shortName":"Altendorf"},"district":{"key":"505","name":"Bezirk March"},"canton":{"key":"5","code":"SZ","name":"Schwyz"},"status":"Real"},{"key":"10081085","name":"Autisstrasse","postalCode":"8852","locality":"Altendorf","commune":{"key":"1341","name":"Altendorf","shortName":"Altendorf"},"district":{"key":"505","name":"Bezirk March"},"canton":{"key":"5","code":"SZ","name":"Schwyz"},"status":"Real"},{"key":"10065040","name":"Bahnhofstrasse","postalCode":"8852","locality":"Altendorf","commune":{"key":"1341","name":"Altendorf","shortName":"Altendorf"},"district":{"key":"505","name":"Bezirk March"},"canton":{"key":"5","code":"SZ","name":"Schwyz"},"status":"Real"},{"key":"10018599","name":"Bahnweg","postalCode":"8852","locality":"Altendorf","commune":{"key":"1341","name":"Altendorf","shortName":"Altendorf"},"district":{"key":"505","name":"Bezirk March"},"canton":{"key":"5","code":"SZ","name":"Schwyz"},"status":"Real"},{"key":"10188837","name":"Bilstenstrasse","postalCode":"8852","locality":"Altendorf","commune":{"key":"1341","name":"Altendorf","shortName":"Altendorf"},"district":{"key":"505","name":"Bezirk March"},"canton":{"key":"5","code":"SZ","name":"Schwyz"},"status":"Real"},{"key":"10018600","name":"Bleikenstrasse","postalCode":"8852","locality":"Altendorf","commune":{"key":"1341","name":"Altendorf","shortName":"Altendorf"},"district":{"key":"505","name":"Bezirk March"},"canton":{"key":"5","code":"SZ","name":"Schwyz"},"status":"Real"},{"key":"10081086","name":"Bogenhof","postalCode":"8852","locality":"Altendorf","commune":{"key":"1341","name":"Altendorf","shortName":"Altendorf"},"district":{"key":"505","name":"Bezirk March"},"canton":{"key":"5","code":"SZ","name":"Schwyz"},"status":"Real"},{"key":"10155793","name":"Brandweid","postalCode":"8852","locality":"Altendorf","commune":{"key":"1341","name":"Altendorf","shortName":"Altendorf"},"district":{"key":"505","name":"Bezirk March"},"canton":{"key":"5","code":"SZ","name":"Schwyz"},"status":"Real"},{"key":"10115683","name":"Breitenstrasse","postalCode":"8852","locality":"Altendorf","commune":{"key":"1341","name":"Altendorf","shortName":"Altendorf"},"district":{"key":"505","name":"Bezirk March"},"canton":{"key":"5","code":"SZ","name":"Schwyz"},"status":"Real"},{"key":"10177147","name":"Brügglistrasse","postalCode":"8852","locality":"Altendorf","commune":{"key":"1341","name":"Altendorf","shortName":"Altendorf"},"district":{"key":"505","name":"Bezirk March"},"canton":{"key":"5","code":"SZ","name":"Schwyz"},"status":"Real"},{"key":"10018601","name":"Bubenrain","postalCode":"8852","locality":"Altendorf","commune":{"key":"1341","name":"Altendorf","shortName":"Altendorf"},"district":{"key":"505","name":"Bezirk March"},"canton":{"key":"5","code":"SZ","name":"Schwyz"},"status":"Real"},{"key":"10081087","name":"Bubental","postalCode":"8852","locality":"Altendorf","commune":{"key":"1341","name":"Altendorf","shortName":"Altendorf"},"district":{"key":"505","name":"Bezirk March"},"canton":{"key":"5","code":"SZ","name":"Schwyz"},"status":"Real"},{"key":"10110505","name":"Büelhof","postalCode":"8852","locality":"Altendorf","commune":{"key":"1341","name":"Altendorf","shortName":"Altendorf"},"district":{"key":"505","name":"Bezirk March"},"canton":{"key":"5","code":"SZ","name":"Schwyz"},"status":"Real"},{"key":"10018602","name":"Buobenhofstrasse","postalCode":"8852","locality":"Altendorf","commune":{"key":"1341","name":"Altendorf","shortName":"Altendorf"},"district":{"key":"505","name":"Bezirk March"},"canton":{"key":"5","code":"SZ","name":"Schwyz"},"status":"Real"},{"key":"10065041","name":"Burggasse","postalCode":"8852","locality":"Altendorf","commune":{"key":"1341","name":"Altendorf","shortName":"Altendorf"},"district":{"key":"505","name":"Bezirk March"},"canton":{"key":"5","code":"SZ","name":"Schwyz"},"status":"Real"},{"key":"10018603","name":"Burgrain","postalCode":"8852","locality":"Altendorf","commune":{"key":"1341","name":"Altendorf","shortName":"Altendorf"},"district":{"key":"505","name":"Bezirk March"},"canton":{"key":"5","code":"SZ","name":"Schwyz"},"status":"Real"},{"key":"10081088","name":"Burgweg","postalCode":"8852","locality":"Altendorf","commune":{"key":"1341","name":"Altendorf","shortName":"Altendorf"},"district":{"key":"505","name":"Bezirk March"},"canton":{"key":"5","code":"SZ","name":"Schwyz"},"status":"Real"},{"key":"10018606","name":"Chällenstrasse","postalCode":"8852","locality":"Altendorf","commune":{"key":"1341","name":"Altendorf","shortName":"Altendorf"},"district":{"key":"505","name":"Bezirk March"},"canton":{"key":"5","code":"SZ","name":"Schwyz"},"status":"Real"},{"key":"10104828","name":"Chessibachstrasse","postalCode":"8852","locality":"Altendorf","commune":{"key":"1341","name":"Altendorf","shortName":"Altendorf"},"district":{"key":"505","name":"Bezirk March"},"canton":{"key":"5","code":"SZ","name":"Schwyz"},"status":"Real"},{"key":"10018604","name":"Chlosstrasse","postalCode":"8852","locality":"Altendorf","commune":{"key":"1341","name":"Altendorf","shortName":"Altendorf"},"district":{"key":"505","name":"Bezirk March"},"canton":{"key":"5","code":"SZ","name":"Schwyz"},"status":"Real"},{"key":"10081089","name":"Chrüzwies","postalCode":"8852","locality":"Altendorf","commune":{"key":"1341","name":"Altendorf","shortName":"Altendorf"},"district":{"key":"505","name":"Bezirk March"},"canton":{"key":"5","code":"SZ","name":"Schwyz"},"status":"Real"},{"key":"10018605","name":"Churerstrasse","postalCode":"8852","locality":"Altendorf","commune":{"key":"1341","name":"Altendorf","shortName":"Altendorf"},"district":{"key":"505","name":"Bezirk March"},"canton":{"key":"5","code":"SZ","name":"Schwyz"},"status":"Real"},{"key":"10173407","name":"Dänisriet","postalCode":"8852","locality":"Altendorf","commune":{"key":"1341","name":"Altendorf","shortName":"Altendorf"},"district":{"key":"505","name":"Bezirk March"},"canton":{"key":"5","code":"SZ","name":"Schwyz"},"status":"Real"},{"key":"10062656","name":"Diebishütten","postalCode":"8852","locality":"Altendorf","commune":{"key":"1341","name":"Altendorf","shortName":"Altendorf"},"district":{"key":"505","name":"Bezirk March"},"canton":{"key":"5","code":"SZ","name":"Schwyz"},"status":"Real"},{"key":"10081090","name":"Dorfplatz","postalCode":"8852","locality":"Altendorf","commune":{"key":"1341","name":"Altendorf","shortName":"Altendorf"},"district":{"key":"505","name":"Bezirk March"},"canton":{"key":"5","code":"SZ","name":"Schwyz"},"status":"Real"},{"key":"10065042","name":"Eichenlochweg","postalCode":"8852","locality":"Altendorf","commune":{"key":"1341","name":"Altendorf","shortName":"Altendorf"},"district":{"key":"505","name":"Bezirk March"},"canton":{"key":"5","code":"SZ","name":"Schwyz"},"status":"Real"},{"key":"10018607","name":"Elmerstrasse","postalCode":"8852","locality":"Altendorf","commune":{"key":"1341","name":"Altendorf","shortName":"Altendorf"},"district":{"key":"505","name":"Bezirk March"},"canton":{"key":"5","code":"SZ","name":"Schwyz"},"status":"Real"},{"key":"10177148","name":"Engelhofstrasse","postalCode":"8852","locality":"Altendorf","commune":{"key":"1341","name":"Altendorf","shortName":"Altendorf"},"district":{"key":"505","name":"Bezirk March"},"canton":{"key":"5","code":"SZ","name":"Schwyz"},"status":"Real"},{"key":"10081091","name":"Etzelstrasse","postalCode":"8852","locality":"Altendorf","commune":{"key":"1341","name":"Altendorf","shortName":"Altendorf"},"district":{"key":"505","name":"Bezirk March"},"canton":{"key":"5","code":"SZ","name":"Schwyz"},"status":"Real"},{"key":"10018608","name":"Etzelwerkstrasse","postalCode":"8852","locality":"Altendorf","commune":{"key":"1341","name":"Altendorf","shortName":"Altendorf"},"district":{"key":"505","name":"Bezirk March"},"canton":{"key":"5","code":"SZ","name":"Schwyz"},"status":"Real"},{"key":"10190813","name":"Fazion","postalCode":"8852","locality":"Altendorf","commune":{"key":"1341","name":"Altendorf","shortName":"Altendorf"},"district":{"key":"505","name":"Bezirk March"},"canton":{"key":"5","code":"SZ","name":"Schwyz"},"status":"Real"},{"key":"10018609","name":"Fliegenberg","postalCode":"8852","locality":"Altendorf","commune":{"key":"1341","name":"Altendorf","shortName":"Altendorf"},"district":{"key":"505","name":"Bezirk March"},"canton":{"key":"5","code":"SZ","name":"Schwyz"},"status":"Real"},{"key":"10146766","name":"Goldigerhof","postalCode":"8852","locality":"Altendorf","commune":{"key":"1341","name":"Altendorf","shortName":"Altendorf"},"district":{"key":"505","name":"Bezirk March"},"canton":{"key":"5","code":"SZ","name":"Schwyz"},"status":"Real"},{"key":"10018610","name":"Gutenbrunnen","postalCode":"8852","locality":"Altendorf","commune":{"key":"1341","name":"Altendorf","shortName":"Altendorf"},"district":{"key":"505","name":"Bezirk March"},"canton":{"key":"5","code":"SZ","name":"Schwyz"},"status":"Real"},{"key":"10188838","name":"Hafenweg","postalCode":"8852","locality":"Altendorf","commune":{"key":"1341","name":"Altendorf","shortName":"Altendorf"},"district":{"key":"505","name":"Bezirk March"},"canton":{"key":"5","code":"SZ","name":"Schwyz"},"status":"Real"},{"key":"10129762","name":"Haldenstrasse","postalCode":"8852","locality":"Altendorf","commune":{"key":"1341","name":"Altendorf","shortName":"Altendorf"},"district":{"key":"505","name":"Bezirk March"},"canton":{"key":"5","code":"SZ","name":"Schwyz"},"status":"Real"},{"key":"10081092","name":"Heerstrasse","postalCode":"8852","locality":"Altendorf","commune":{"key":"1341","name":"Altendorf","shortName":"Altendorf"},"district":{"key":"505","name":"Bezirk March"},"canton":{"key":"5","code":"SZ","name":"Schwyz"},"status":"Real"},{"key":"10065044","name":"Hinterfeld","postalCode":"8852","locality":"Altendorf","commune":{"key":"1341","name":"Altendorf","shortName":"Altendorf"},"district":{"key":"505","name":"Bezirk March"},"canton":{"key":"5","code":"SZ","name":"Schwyz"},"status":"Real"},{"key":"10117437","name":"Hinter Miesegg","postalCode":"8852","locality":"Altendorf","commune":{"key":"1341","name":"Altendorf","shortName":"Altendorf"},"district":{"key":"505","name":"Bezirk March"},"canton":{"key":"5","code":"SZ","name":"Schwyz"},"status":"Real"},{"key":"10018611","name":"Höhenstrasse","postalCode":"8852","locality":"Altendorf","commune":{"key":"1341","name":"Altendorf","shortName":"Altendorf"},"district":{"key":"505","name":"Bezirk March"},"canton":{"key":"5","code":"SZ","name":"Schwyz"},"status":"Real"},{"key":"10106762","name":"Höhgadenstrasse","postalCode":"8852","locality":"Altendorf","commune":{"key":"1341","name":"Altendorf","shortName":"Altendorf"},"district":{"key":"505","name":"Bezirk March"},"canton":{"key":"5","code":"SZ","name":"Schwyz"},"status":"Real"},{"key":"10018612","name":"Höhgadenweidstrasse","postalCode":"8852","locality":"Altendorf","commune":{"key":"1341","name":"Altendorf","shortName":"Altendorf"},"district":{"key":"505","name":"Bezirk March"},"canton":{"key":"5","code":"SZ","name":"Schwyz"},"status":"Real"},{"key":"10122240","name":"Im Büel","postalCode":"8852","locality":"Altendorf","commune":{"key":"1341","name":"Altendorf","shortName":"Altendorf"},"district":{"key":"505","name":"Bezirk March"},"canton":{"key":"5","code":"SZ","name":"Schwyz"},"status":"Real"},{"key":"10081093","name":"Im Goldiger","postalCode":"8852","locality":"Altendorf","commune":{"key":"1341","name":"Altendorf","shortName":"Altendorf"},"district":{"key":"505","name":"Bezirk March"},"canton":{"key":"5","code":"SZ","name":"Schwyz"},"status":"Real"},{"key":"10062657","name":"Im Seehof","postalCode":"8852","locality":"Altendorf","commune":{"key":"1341","name":"Altendorf","shortName":"Altendorf"},"district":{"key":"505","name":"Bezirk March"},"canton":{"key":"5","code":"SZ","name":"Schwyz"},"status":"Real"},{"key":"10018613","name":"Im Suter","postalCode":"8852","locality":"Altendorf","commune":{"key":"1341","name":"Altendorf","shortName":"Altendorf"},"district":{"key":"505","name":"Bezirk March"},"canton":{"key":"5","code":"SZ","name":"Schwyz"},"status":"Real"},{"key":"10177149","name":"Katrinenhof","postalCode":"8852","locality":"Altendorf","commune":{"key":"1341","name":"Altendorf","shortName":"Altendorf"},"district":{"key":"505","name":"Bezirk March"},"canton":{"key":"5","code":"SZ","name":"Schwyz"},"status":"Real"},{"key":"10132234","name":"Katrinenhofpark","postalCode":"8852","locality":"Altendorf","commune":{"key":"1341","name":"Altendorf","shortName":"Altendorf"},"district":{"key":"505","name":"Bezirk March"},"canton":{"key":"5","code":"SZ","name":"Schwyz"},"status":"Real"},{"key":"10240239","name":"Kernumfahrung West","postalCode":"8852","locality":"Altendorf","commune":{"key":"1341","name":"Altendorf","shortName":"Altendorf"},"district":{"key":"505","name":"Bezirk March"},"canton":{"key":"5","code":"SZ","name":"Schwyz"},"status":"Real"},{"key":"10114676","name":"Kronenweg","postalCode":"8852","locality":"Altendorf","commune":{"key":"1341","name":"Altendorf","shortName":"Altendorf"},"district":{"key":"505","name":"Bezirk March"},"canton":{"key":"5","code":"SZ","name":"Schwyz"},"status":"Real"},{"key":"10081094","name":"Langacher","postalCode":"8852","locality":"Altendorf","commune":{"key":"1341","name":"Altendorf","shortName":"Altendorf"},"district":{"key":"505","name":"Bezirk March"},"canton":{"key":"5","code":"SZ","name":"Schwyz"},"status":"Real"},{"key":"10065045","name":"Langegg","postalCode":"8852","locality":"Altendorf","commune":{"key":"1341","name":"Altendorf","shortName":"Altendorf"},"district":{"key":"505","name":"Bezirk March"},"canton":{"key":"5","code":"SZ","name":"Schwyz"},"status":"Real"},{"key":"10018614","name":"Letzistrasse","postalCode":"8852","locality":"Altendorf","commune":{"key":"1341","name":"Altendorf","shortName":"Altendorf"},"district":{"key":"505","name":"Bezirk March"},"canton":{"key":"5","code":"SZ","name":"Schwyz"},"status":"Real"},{"key":"10018615","name":"Lidwil","postalCode":"8852","locality":"Altendorf","commune":{"key":"1341","name":"Altendorf","shortName":"Altendorf"},"district":{"key":"505","name":"Bezirk March"},"canton":{"key":"5","code":"SZ","name":"Schwyz"},"status":"Real"},{"key":"10173036","name":"Lidwil-See","postalCode":"8852","locality":"Altendorf","commune":{"key":"1341","name":"Altendorf","shortName":"Altendorf"},"district":{"key":"505","name":"Bezirk March"},"canton":{"key":"5","code":"SZ","name":"Schwyz"},"status":"Real"},{"key":"10116509","name":"Lindenhof","postalCode":"8852","locality":"Altendorf","commune":{"key":"1341","name":"Altendorf","shortName":"Altendorf"},"district":{"key":"505","name":"Bezirk March"},"canton":{"key":"5","code":"SZ","name":"Schwyz"},"status":"Real"},{"key":"10055595","name":"Litschstrasse","postalCode":"8852","locality":"Altendorf","commune":{"key":"1341","name":"Altendorf","shortName":"Altendorf"},"district":{"key":"505","name":"Bezirk March"},"canton":{"key":"5","code":"SZ","name":"Schwyz"},"status":"Real"},{"key":"10018616","name":"Lufenwies","postalCode":"8852","locality":"Altendorf","commune":{"key":"1341","name":"Altendorf","shortName":"Altendorf"},"district":{"key":"505","name":"Bezirk March"},"canton":{"key":"5","code":"SZ","name":"Schwyz"},"status":"Real"},{"key":"10081095","name":"Lufenwies Süd","postalCode":"8852","locality":"Altendorf","commune":{"key":"1341","name":"Altendorf","shortName":"Altendorf"},"district":{"key":"505","name":"Bezirk March"},"canton":{"key":"5","code":"SZ","name":"Schwyz"},"status":"Real"},{"key":"10065046","name":"Maienberg","postalCode":"8852","locality":"Altendorf","commune":{"key":"1341","name":"Altendorf","shortName":"Altendorf"},"district":{"key":"505","name":"Bezirk March"},"canton":{"key":"5","code":"SZ","name":"Schwyz"},"status":"Real"},{"key":"10156547","name":"Maienwies","postalCode":"8852","locality":"Altendorf","commune":{"key":"1341","name":"Altendorf","shortName":"Altendorf"},"district":{"key":"505","name":"Bezirk March"},"canton":{"key":"5","code":"SZ","name":"Schwyz"},"status":"Real"},{"key":"10181622","name":"Mühlebachhof","postalCode":"8852","locality":"Altendorf","commune":{"key":"1341","name":"Altendorf","shortName":"Altendorf"},"district":{"key":"505","name":"Bezirk March"},"canton":{"key":"5","code":"SZ","name":"Schwyz"},"status":"Real"},{"key":"10065047","name":"Mülibach","postalCode":"8852","locality":"Altendorf","commune":{"key":"1341","name":"Altendorf","shortName":"Altendorf"},"district":{"key":"505","name":"Bezirk March"},"canton":{"key":"5","code":"SZ","name":"Schwyz"},"status":"Real"},{"key":"10018617","name":"Mülistrasse","postalCode":"8852","locality":"Altendorf","commune":{"key":"1341","name":"Altendorf","shortName":"Altendorf"},"district":{"key":"505","name":"Bezirk March"},"canton":{"key":"5","code":"SZ","name":"Schwyz"},"status":"Real"},{"key":"10081096","name":"Muschelbergweg","postalCode":"8852","locality":"Altendorf","commune":{"key":"1341","name":"Altendorf","shortName":"Altendorf"},"district":{"key":"505","name":"Bezirk March"},"canton":{"key":"5","code":"SZ","name":"Schwyz"},"status":"Real"},{"key":"10130102","name":"Neuhof","postalCode":"8852","locality":"Altendorf","commune":{"key":"1341","name":"Altendorf","shortName":"Altendorf"},"district":{"key":"505","name":"Bezirk March"},"canton":{"key":"5","code":"SZ","name":"Schwyz"},"status":"Real"},{"key":"10055596","name":"Neutalstrasse","postalCode":"8852","locality":"Altendorf","commune":{"key":"1341","name":"Altendorf","shortName":"Altendorf"},"district":{"key":"505","name":"Bezirk March"},"canton":{"key":"5","code":"SZ","name":"Schwyz"},"status":"Real"},{"key":"10177150","name":"Oberdorfstrasse","postalCode":"8852","locality":"Altendorf","commune":{"key":"1341","name":"Altendorf","shortName":"Altendorf"},"district":{"key":"505","name":"Bezirk March"},"canton":{"key":"5","code":"SZ","name":"Schwyz"},"status":"Real"},{"key":"10188839","name":"Pfarrweid","postalCode":"8852","locality":"Altendorf","commune":{"key":"1341","name":"Altendorf","shortName":"Altendorf"},"district":{"key":"505","name":"Bezirk March"},"canton":{"key":"5","code":"SZ","name":"Schwyz"},"status":"Real"},{"key":"10017515","name":"Rainweg","postalCode":"8852","locality":"Altendorf","commune":{"key":"1341","name":"Altendorf","shortName":"Altendorf"},"district":{"key":"505","name":"Bezirk March"},"canton":{"key":"5","code":"SZ","name":"Schwyz"},"status":"Real"},{"key":"10172568","name":"Rebweg","postalCode":"8852","locality":"Altendorf","commune":{"key":"1341","name":"Altendorf","shortName":"Altendorf"},"district":{"key":"505","name":"Bezirk March"},"canton":{"key":"5","code":"SZ","name":"Schwyz"},"status":"Real"},{"key":"10081097","name":"Reistweg","postalCode":"8852","locality":"Altendorf","commune":{"key":"1341","name":"Altendorf","shortName":"Altendorf"},"district":{"key":"505","name":"Bezirk March"},"canton":{"key":"5","code":"SZ","name":"Schwyz"},"status":"Real"},{"key":"10114391","name":"Rembach","postalCode":"8852","locality":"Altendorf","commune":{"key":"1341","name":"Altendorf","shortName":"Altendorf"},"district":{"key":"505","name":"Bezirk March"},"canton":{"key":"5","code":"SZ","name":"Schwyz"},"status":"Real"},{"key":"10173405","name":"Rinderweidhorn","postalCode":"8852","locality":"Altendorf","commune":{"key":"1341","name":"Altendorf","shortName":"Altendorf"},"district":{"key":"505","name":"Bezirk March"},"canton":{"key":"5","code":"SZ","name":"Schwyz"},"status":"Real"},{"key":"10065048","name":"Rohrwis","postalCode":"8852","locality":"Altendorf","commune":{"key":"1341","name":"Altendorf","shortName":"Altendorf"},"district":{"key":"505","name":"Bezirk March"},"canton":{"key":"5","code":"SZ","name":"Schwyz"},"status":"Real"},{"key":"10110506","name":"Rütiwies","postalCode":"8852","locality":"Altendorf","commune":{"key":"1341","name":"Altendorf","shortName":"Altendorf"},"district":{"key":"505","name":"Bezirk March"},"canton":{"key":"5","code":"SZ","name":"Schwyz"},"status":"Real"},{"key":"10066181","name":"Säge","postalCode":"8852","locality":"Altendorf","commune":{"key":"1341","name":"Altendorf","shortName":"Altendorf"},"district":{"key":"505","name":"Bezirk March"},"canton":{"key":"5","code":"SZ","name":"Schwyz"},"status":"Real"},{"key":"10102787","name":"Schlossweg","postalCode":"8852","locality":"Altendorf","commune":{"key":"1341","name":"Altendorf","shortName":"Altendorf"},"district":{"key":"505","name":"Bezirk March"},"canton":{"key":"5","code":"SZ","name":"Schwyz"},"status":"Real"},{"key":"10066180","name":"Schönenboden","postalCode":"8852","locality":"Altendorf","commune":{"key":"1341","name":"Altendorf","shortName":"Altendorf"},"district":{"key":"505","name":"Bezirk March"},"canton":{"key":"5","code":"SZ","name":"Schwyz"},"status":"Real"},{"key":"10081098","name":"Schweigrütistrasse","postalCode":"8852","locality":"Altendorf","commune":{"key":"1341","name":"Altendorf","shortName":"Altendorf"},"district":{"key":"505","name":"Bezirk March"},"canton":{"key":"5","code":"SZ","name":"Schwyz"},"status":"Real"},{"key":"10017516","name":"Seestattstrasse","postalCode":"8852","locality":"Altendorf","commune":{"key":"1341","name":"Altendorf","shortName":"Altendorf"},"district":{"key":"505","name":"Bezirk March"},"canton":{"key":"5","code":"SZ","name":"Schwyz"},"status":"Real"},{"key":"10055597","name":"Seestrasse","postalCode":"8852","locality":"Altendorf","commune":{"key":"1341","name":"Altendorf","shortName":"Altendorf"},"district":{"key":"505","name":"Bezirk March"},"canton":{"key":"5","code":"SZ","name":"Schwyz"},"status":"Real"},{"key":"10017517","name":"Seeweg","postalCode":"8852","locality":"Altendorf","commune":{"key":"1341","name":"Altendorf","shortName":"Altendorf"},"district":{"key":"505","name":"Bezirk March"},"canton":{"key":"5","code":"SZ","name":"Schwyz"},"status":"Real"},{"key":"10139774","name":"Steinegghof","postalCode":"8852","locality":"Altendorf","commune":{"key":"1341","name":"Altendorf","shortName":"Altendorf"},"district":{"key":"505","name":"Bezirk March"},"canton":{"key":"5","code":"SZ","name":"Schwyz"},"status":"Real"},{"key":"10017518","name":"Steineggstrasse","postalCode":"8852","locality":"Altendorf","commune":{"key":"1341","name":"Altendorf","shortName":"Altendorf"},"district":{"key":"505","name":"Bezirk March"},"canton":{"key":"5","code":"SZ","name":"Schwyz"},"status":"Real"},{"key":"10017519","name":"Stöcklichrüz","postalCode":"8852","locality":"Altendorf","commune":{"key":"1341","name":"Altendorf","shortName":"Altendorf"},"district":{"key":"505","name":"Bezirk March"},"canton":{"key":"5","code":"SZ","name":"Schwyz"},"status":"Real"},{"key":"10018598","name":"Stofel","postalCode":"8852","locality":"Altendorf","commune":{"key":"1341","name":"Altendorf","shortName":"Altendorf"},"district":{"key":"505","name":"Bezirk March"},"canton":{"key":"5","code":"SZ","name":"Schwyz"},"status":"Real"},{"key":"10055598","name":"Streiffenstrasse","postalCode":"8852","locality":"Altendorf","commune":{"key":"1341","name":"Altendorf","shortName":"Altendorf"},"district":{"key":"505","name":"Bezirk March"},"canton":{"key":"5","code":"SZ","name":"Schwyz"},"status":"Real"},{"key":"10081099","name":"Suterweg","postalCode":"8852","locality":"Altendorf","commune":{"key":"1341","name":"Altendorf","shortName":"Altendorf"},"district":{"key":"505","name":"Bezirk March"},"canton":{"key":"5","code":"SZ","name":"Schwyz"},"status":"Real"},{"key":"10177151","name":"Talbachstrasse","postalCode":"8852","locality":"Altendorf","commune":{"key":"1341","name":"Altendorf","shortName":"Altendorf"},"district":{"key":"505","name":"Bezirk March"},"canton":{"key":"5","code":"SZ","name":"Schwyz"},"status":"Real"},{"key":"10156806","name":"Talboden","postalCode":"8852","locality":"Altendorf","commune":{"key":"1341","name":"Altendorf","shortName":"Altendorf"},"district":{"key":"505","name":"Bezirk March"},"canton":{"key":"5","code":"SZ","name":"Schwyz"},"status":"Real"},{"key":"10055599","name":"Talstrasse","postalCode":"8852","locality":"Altendorf","commune":{"key":"1341","name":"Altendorf","shortName":"Altendorf"},"district":{"key":"505","name":"Bezirk March"},"canton":{"key":"5","code":"SZ","name":"Schwyz"},"status":"Real"},{"key":"10017520","name":"Talweid","postalCode":"8852","locality":"Altendorf","commune":{"key":"1341","name":"Altendorf","shortName":"Altendorf"},"district":{"key":"505","name":"Bezirk March"},"canton":{"key":"5","code":"SZ","name":"Schwyz"},"status":"Real"},{"key":"10115684","name":"Tannenheimweg","postalCode":"8852","locality":"Altendorf","commune":{"key":"1341","name":"Altendorf","shortName":"Altendorf"},"district":{"key":"505","name":"Bezirk March"},"canton":{"key":"5","code":"SZ","name":"Schwyz"},"status":"Real"},{"key":"10017521","name":"Taulenweg","postalCode":"8852","locality":"Altendorf","commune":{"key":"1341","name":"Altendorf","shortName":"Altendorf"},"district":{"key":"505","name":"Bezirk March"},"canton":{"key":"5","code":"SZ","name":"Schwyz"},"status":"Real"},{"key":"10173410","name":"Teufruns","postalCode":"8852","locality":"Altendorf","commune":{"key":"1341","name":"Altendorf","shortName":"Altendorf"},"district":{"key":"505","name":"Bezirk March"},"canton":{"key":"5","code":"SZ","name":"Schwyz"},"status":"Real"},{"key":"10102788","name":"Tiergartenstrasse","postalCode":"8852","locality":"Altendorf","commune":{"key":"1341","name":"Altendorf","shortName":"Altendorf"},"district":{"key":"505","name":"Bezirk March"},"canton":{"key":"5","code":"SZ","name":"Schwyz"},"status":"Real"},{"key":"10017522","name":"Trottacher","postalCode":"8852","locality":"Altendorf","commune":{"key":"1341","name":"Altendorf","shortName":"Altendorf"},"district":{"key":"505","name":"Bezirk March"},"canton":{"key":"5","code":"SZ","name":"Schwyz"},"status":"Real"},{"key":"10081100","name":"Tschuopisstrasse","postalCode":"8852","locality":"Altendorf","commune":{"key":"1341","name":"Altendorf","shortName":"Altendorf"},"district":{"key":"505","name":"Bezirk March"},"canton":{"key":"5","code":"SZ","name":"Schwyz"},"status":"Real"},{"key":"10017523","name":"Tüchelweg","postalCode":"8852","locality":"Altendorf","commune":{"key":"1341","name":"Altendorf","shortName":"Altendorf"},"district":{"key":"505","name":"Bezirk March"},"canton":{"key":"5","code":"SZ","name":"Schwyz"},"status":"Real"},{"key":"10017524","name":"Vorderbergstrasse","postalCode":"8852","locality":"Altendorf","commune":{"key":"1341","name":"Altendorf","shortName":"Altendorf"},"district":{"key":"505","name":"Bezirk March"},"canton":{"key":"5","code":"SZ","name":"Schwyz"},"status":"Real"},{"key":"10081101","name":"Vorderer Buobenhof","postalCode":"8852","locality":"Altendorf","commune":{"key":"1341","name":"Altendorf","shortName":"Altendorf"},"district":{"key":"505","name":"Bezirk March"},"canton":{"key":"5","code":"SZ","name":"Schwyz"},"status":"Real"},{"key":"10173406","name":"Vorder Miesegg","postalCode":"8852","locality":"Altendorf","commune":{"key":"1341","name":"Altendorf","shortName":"Altendorf"},"district":{"key":"505","name":"Bezirk March"},"canton":{"key":"5","code":"SZ","name":"Schwyz"},"status":"Real"},{"key":"10062658","name":"Waldeggli","postalCode":"8852","locality":"Altendorf","commune":{"key":"1341","name":"Altendorf","shortName":"Altendorf"},"district":{"key":"505","name":"Bezirk March"},"canton":{"key":"5","code":"SZ","name":"Schwyz"},"status":"Real"},{"key":"10017525","name":"Wiberg","postalCode":"8852","locality":"Altendorf","commune":{"key":"1341","name":"Altendorf","shortName":"Altendorf"},"district":{"key":"505","name":"Bezirk March"},"canton":{"key":"5","code":"SZ","name":"Schwyz"},"status":"Real"},{"key":"10130385","name":"Wigärtli","postalCode":"8852","locality":"Altendorf","commune":{"key":"1341","name":"Altendorf","shortName":"Altendorf"},"district":{"key":"505","name":"Bezirk March"},"canton":{"key":"5","code":"SZ","name":"Schwyz"},"status":"Real"},{"key":"10017526","name":"Windeggli","postalCode":"8852","locality":"Altendorf","commune":{"key":"1341","name":"Altendorf","shortName":"Altendorf"},"district":{"key":"505","name":"Bezirk March"},"canton":{"key":"5","code":"SZ","name":"Schwyz"},"status":"Real"},{"key":"10112686","name":"Wisital","postalCode":"8852","locality":"Altendorf","commune":{"key":"1341","name":"Altendorf","shortName":"Altendorf"},"district":{"key":"505","name":"Bezirk March"},"canton":{"key":"5","code":"SZ","name":"Schwyz"},"status":"Real"},{"key":"10066182","name":"Ziegelwies","postalCode":"8852","locality":"Altendorf","commune":{"key":"1341","name":"Altendorf","shortName":"Altendorf"},"district":{"key":"505","name":"Bezirk March"},"canton":{"key":"5","code":"SZ","name":"Schwyz"},"status":"Real"},{"key":"10177152","name":"Zürcherstrasse","postalCode":"8852","locality":"Altendorf","commune":{"key":"1341","name":"Altendorf","shortName":"Altendorf"},"district":{"key":"505","name":"Bezirk March"},"canton":{"key":"5","code":"SZ","name":"Schwyz"},"status":"Real"},]