[{"name":"Alte Meierei","postalCode":"24860","locality":"Klappholz","municipality":{"key":"01059049","name":"Klappholz","type":"Kreisangehörige_Gemeinde"},"district":{"key":"01059","name":"Schleswig-Flensburg","type":"Kreis"},"federalState":{"key":"01","name":"Schleswig-Holstein"}},{"name":"Am Kratt","postalCode":"24860","locality":"Klappholz","municipality":{"key":"01059049","name":"Klappholz","type":"Kreisangehörige_Gemeinde"},"district":{"key":"01059","name":"Schleswig-Flensburg","type":"Kreis"},"federalState":{"key":"01","name":"Schleswig-Holstein"}},{"name":"Ausselbeeker Weg","postalCode":"24860","locality":"Klappholz","municipality":{"key":"01059049","name":"Klappholz","type":"Kreisangehörige_Gemeinde"},"district":{"key":"01059","name":"Schleswig-Flensburg","type":"Kreis"},"federalState":{"key":"01","name":"Schleswig-Holstein"}},{"name":"Birkenweg","postalCode":"24860","locality":"Klappholz","municipality":{"key":"01059049","name":"Klappholz","type":"Kreisangehörige_Gemeinde"},"district":{"key":"01059","name":"Schleswig-Flensburg","type":"Kreis"},"federalState":{"key":"01","name":"Schleswig-Holstein"}},{"name":"Dorfstr.","postalCode":"24860","locality":"Klappholz","municipality":{"key":"01059049","name":"Klappholz","type":"Kreisangehörige_Gemeinde"},"district":{"key":"01059","name":"Schleswig-Flensburg","type":"Kreis"},"federalState":{"key":"01","name":"Schleswig-Holstein"}},{"name":"Eckernförder Landstr.","postalCode":"24860","locality":"Klappholz","municipality":{"key":"01059049","name":"Klappholz","type":"Kreisangehörige_Gemeinde"},"district":{"key":"01059","name":"Schleswig-Flensburg","type":"Kreis"},"federalState":{"key":"01","name":"Schleswig-Holstein"}},{"name":"Lammerskjer","postalCode":"24860","locality":"Klappholz","municipality":{"key":"01059049","name":"Klappholz","type":"Kreisangehörige_Gemeinde"},"district":{"key":"01059","name":"Schleswig-Flensburg","type":"Kreis"},"federalState":{"key":"01","name":"Schleswig-Holstein"}},{"name":"Moorweg","postalCode":"24860","locality":"Klappholz","municipality":{"key":"01059049","name":"Klappholz","type":"Kreisangehörige_Gemeinde"},"district":{"key":"01059","name":"Schleswig-Flensburg","type":"Kreis"},"federalState":{"key":"01","name":"Schleswig-Holstein"}},{"name":"Roggenberg","postalCode":"24860","locality":"Klappholz","municipality":{"key":"01059049","name":"Klappholz","type":"Kreisangehörige_Gemeinde"},"district":{"key":"01059","name":"Schleswig-Flensburg","type":"Kreis"},"federalState":{"key":"01","name":"Schleswig-Holstein"}},{"name":"Seeblick","postalCode":"24860","locality":"Klappholz","municipality":{"key":"01059049","name":"Klappholz","type":"Kreisangehörige_Gemeinde"},"district":{"key":"01059","name":"Schleswig-Flensburg","type":"Kreis"},"federalState":{"key":"01","name":"Schleswig-Holstein"}},{"name":"Siedlung Vogelsang","postalCode":"24860","locality":"Klappholz","municipality":{"key":"01059049","name":"Klappholz","type":"Kreisangehörige_Gemeinde"},"district":{"key":"01059","name":"Schleswig-Flensburg","type":"Kreis"},"federalState":{"key":"01","name":"Schleswig-Holstein"}},{"name":"Stenderuper Str.","postalCode":"24860","locality":"Klappholz","municipality":{"key":"01059049","name":"Klappholz","type":"Kreisangehörige_Gemeinde"},"district":{"key":"01059","name":"Schleswig-Flensburg","type":"Kreis"},"federalState":{"key":"01","name":"Schleswig-Holstein"}},{"name":"Teichstr.","postalCode":"24860","locality":"Klappholz","municipality":{"key":"01059049","name":"Klappholz","type":"Kreisangehörige_Gemeinde"},"district":{"key":"01059","name":"Schleswig-Flensburg","type":"Kreis"},"federalState":{"key":"01","name":"Schleswig-Holstein"}},{"name":"Zum Hof","postalCode":"24860","locality":"Klappholz","municipality":{"key":"01059049","name":"Klappholz","type":"Kreisangehörige_Gemeinde"},"district":{"key":"01059","name":"Schleswig-Flensburg","type":"Kreis"},"federalState":{"key":"01","name":"Schleswig-Holstein"}},{"name":"Zur Schulkoppel","postalCode":"24860","locality":"Klappholz","municipality":{"key":"01059049","name":"Klappholz","type":"Kreisangehörige_Gemeinde"},"district":{"key":"01059","name":"Schleswig-Flensburg","type":"Kreis"},"federalState":{"key":"01","name":"Schleswig-Holstein"}},]