[{"name":"Am Zollhof","postalCode":"36404","locality":"Oechsen","municipality":{"key":"16063062","name":"Oechsen","type":"Kreisangehörige_Gemeinde"},"district":{"key":"16063","name":"Wartburgkreis","type":"Landkreis"},"federalState":{"key":"16","name":"Thüringen"}},{"name":"Bahnhofstr.","postalCode":"36404","locality":"Oechsen","municipality":{"key":"16063062","name":"Oechsen","type":"Kreisangehörige_Gemeinde"},"district":{"key":"16063","name":"Wartburgkreis","type":"Landkreis"},"federalState":{"key":"16","name":"Thüringen"}},{"name":"Dermbacher Str.","postalCode":"36404","locality":"Oechsen","municipality":{"key":"16063062","name":"Oechsen","type":"Kreisangehörige_Gemeinde"},"district":{"key":"16063","name":"Wartburgkreis","type":"Landkreis"},"federalState":{"key":"16","name":"Thüringen"}},{"name":"Friedensstr.","postalCode":"36404","locality":"Oechsen","municipality":{"key":"16063062","name":"Oechsen","type":"Kreisangehörige_Gemeinde"},"district":{"key":"16063","name":"Wartburgkreis","type":"Landkreis"},"federalState":{"key":"16","name":"Thüringen"}},{"name":"Geisaer Str.","postalCode":"36404","locality":"Oechsen","municipality":{"key":"16063062","name":"Oechsen","type":"Kreisangehörige_Gemeinde"},"district":{"key":"16063","name":"Wartburgkreis","type":"Landkreis"},"federalState":{"key":"16","name":"Thüringen"}},{"name":"Karl-Marx-Platz","postalCode":"36404","locality":"Oechsen","municipality":{"key":"16063062","name":"Oechsen","type":"Kreisangehörige_Gemeinde"},"district":{"key":"16063","name":"Wartburgkreis","type":"Landkreis"},"federalState":{"key":"16","name":"Thüringen"}},{"name":"Kirchauweg","postalCode":"36404","locality":"Oechsen","municipality":{"key":"16063062","name":"Oechsen","type":"Kreisangehörige_Gemeinde"},"district":{"key":"16063","name":"Wartburgkreis","type":"Landkreis"},"federalState":{"key":"16","name":"Thüringen"}},{"name":"Lenders","postalCode":"36404","locality":"Oechsen","municipality":{"key":"16063062","name":"Oechsen","type":"Kreisangehörige_Gemeinde"},"district":{"key":"16063","name":"Wartburgkreis","type":"Landkreis"},"federalState":{"key":"16","name":"Thüringen"}},{"name":"Lindenstr.","postalCode":"36404","locality":"Oechsen","municipality":{"key":"16063062","name":"Oechsen","type":"Kreisangehörige_Gemeinde"},"district":{"key":"16063","name":"Wartburgkreis","type":"Landkreis"},"federalState":{"key":"16","name":"Thüringen"}},{"name":"Mühlauweg","postalCode":"36404","locality":"Oechsen","municipality":{"key":"16063062","name":"Oechsen","type":"Kreisangehörige_Gemeinde"},"district":{"key":"16063","name":"Wartburgkreis","type":"Landkreis"},"federalState":{"key":"16","name":"Thüringen"}},{"name":"Schachtstr.","postalCode":"36404","locality":"Oechsen","municipality":{"key":"16063062","name":"Oechsen","type":"Kreisangehörige_Gemeinde"},"district":{"key":"16063","name":"Wartburgkreis","type":"Landkreis"},"federalState":{"key":"16","name":"Thüringen"}},{"name":"Scharnhorststr.","postalCode":"36404","locality":"Oechsen","municipality":{"key":"16063062","name":"Oechsen","type":"Kreisangehörige_Gemeinde"},"district":{"key":"16063","name":"Wartburgkreis","type":"Landkreis"},"federalState":{"key":"16","name":"Thüringen"}},{"name":"Stadtlengsfelder Str.","postalCode":"36404","locality":"Oechsen","municipality":{"key":"16063062","name":"Oechsen","type":"Kreisangehörige_Gemeinde"},"district":{"key":"16063","name":"Wartburgkreis","type":"Landkreis"},"federalState":{"key":"16","name":"Thüringen"}},{"name":"Str. am Brauhaus","postalCode":"36404","locality":"Oechsen","municipality":{"key":"16063062","name":"Oechsen","type":"Kreisangehörige_Gemeinde"},"district":{"key":"16063","name":"Wartburgkreis","type":"Landkreis"},"federalState":{"key":"16","name":"Thüringen"}},{"name":"Str. der Einheit","postalCode":"36404","locality":"Oechsen","municipality":{"key":"16063062","name":"Oechsen","type":"Kreisangehörige_Gemeinde"},"district":{"key":"16063","name":"Wartburgkreis","type":"Landkreis"},"federalState":{"key":"16","name":"Thüringen"}},]