[{"key":"10236247","name":"Ado","postalCode":"3911","locality":"Ried-Brig","commune":{"key":"6008","name":"Ried-Brig","shortName":"Ried-Brig"},"district":{"key":"2301","name":"Bezirk Brig"},"canton":{"key":"23","code":"VS","name":"Valais / Wallis"},"status":"Real"},{"key":"10196373","name":"Alpji","postalCode":"3911","locality":"Ried-Brig","commune":{"key":"6008","name":"Ried-Brig","shortName":"Ried-Brig"},"district":{"key":"2301","name":"Bezirk Brig"},"canton":{"key":"23","code":"VS","name":"Valais / Wallis"},"status":"Real"},{"key":"10236255","name":"Alte Schiessstand","postalCode":"3911","locality":"Ried-Brig","commune":{"key":"6008","name":"Ried-Brig","shortName":"Ried-Brig"},"district":{"key":"2301","name":"Bezirk Brig"},"canton":{"key":"23","code":"VS","name":"Valais / Wallis"},"status":"Real"},{"key":"10181602","name":"Alti Gassa","postalCode":"3911","locality":"Ried-Brig","commune":{"key":"6008","name":"Ried-Brig","shortName":"Ried-Brig"},"district":{"key":"2301","name":"Bezirk Brig"},"canton":{"key":"23","code":"VS","name":"Valais / Wallis"},"status":"Real"},{"key":"10102977","name":"Bachstrasse","postalCode":"3911","locality":"Ried-Brig","commune":{"key":"6008","name":"Ried-Brig","shortName":"Ried-Brig"},"district":{"key":"2301","name":"Bezirk Brig"},"canton":{"key":"23","code":"VS","name":"Valais / Wallis"},"status":"Real"},{"key":"10082362","name":"Bachtoli","postalCode":"3911","locality":"Ried-Brig","commune":{"key":"6008","name":"Ried-Brig","shortName":"Ried-Brig"},"district":{"key":"2301","name":"Bezirk Brig"},"canton":{"key":"23","code":"VS","name":"Valais / Wallis"},"status":"Real"},{"key":"10236267","name":"Bärisal","postalCode":"3911","locality":"Ried-Brig","commune":{"key":"6008","name":"Ried-Brig","shortName":"Ried-Brig"},"district":{"key":"2301","name":"Bezirk Brig"},"canton":{"key":"23","code":"VS","name":"Valais / Wallis"},"status":"Real"},{"key":"10096784","name":"Basweri","postalCode":"3911","locality":"Ried-Brig","commune":{"key":"6008","name":"Ried-Brig","shortName":"Ried-Brig"},"district":{"key":"2301","name":"Bezirk Brig"},"canton":{"key":"23","code":"VS","name":"Valais / Wallis"},"status":"Real"},{"key":"10189331","name":"Biela","postalCode":"3911","locality":"Ried-Brig","commune":{"key":"6008","name":"Ried-Brig","shortName":"Ried-Brig"},"district":{"key":"2301","name":"Bezirk Brig"},"canton":{"key":"23","code":"VS","name":"Valais / Wallis"},"status":"Real"},{"key":"10041520","name":"Bifig","postalCode":"3911","locality":"Ried-Brig","commune":{"key":"6008","name":"Ried-Brig","shortName":"Ried-Brig"},"district":{"key":"2301","name":"Bezirk Brig"},"canton":{"key":"23","code":"VS","name":"Valais / Wallis"},"status":"Real"},{"key":"10236275","name":"Binna","postalCode":"3911","locality":"Ried-Brig","commune":{"key":"6008","name":"Ried-Brig","shortName":"Ried-Brig"},"district":{"key":"2301","name":"Bezirk Brig"},"canton":{"key":"23","code":"VS","name":"Valais / Wallis"},"status":"Real"},{"key":"10041521","name":"Bleike","postalCode":"3911","locality":"Ried-Brig","commune":{"key":"6008","name":"Ried-Brig","shortName":"Ried-Brig"},"district":{"key":"2301","name":"Bezirk Brig"},"canton":{"key":"23","code":"VS","name":"Valais / Wallis"},"status":"Real"},{"key":"10107354","name":"Bleikustrasse","postalCode":"3911","locality":"Ried-Brig","commune":{"key":"6008","name":"Ried-Brig","shortName":"Ried-Brig"},"district":{"key":"2301","name":"Bezirk Brig"},"canton":{"key":"23","code":"VS","name":"Valais / Wallis"},"status":"Real"},{"key":"10237299","name":"Bodme","postalCode":"3911","locality":"Ried-Brig","commune":{"key":"6008","name":"Ried-Brig","shortName":"Ried-Brig"},"district":{"key":"2301","name":"Bezirk Brig"},"canton":{"key":"23","code":"VS","name":"Valais / Wallis"},"status":"Real"},{"key":"10236834","name":"Bodmerwald","postalCode":"3911","locality":"Ried-Brig","commune":{"key":"6008","name":"Ried-Brig","shortName":"Ried-Brig"},"district":{"key":"2301","name":"Bezirk Brig"},"canton":{"key":"23","code":"VS","name":"Valais / Wallis"},"status":"Real"},{"key":"10237307","name":"Bodo","postalCode":"3911","locality":"Ried-Brig","commune":{"key":"6008","name":"Ried-Brig","shortName":"Ried-Brig"},"district":{"key":"2301","name":"Bezirk Brig"},"canton":{"key":"23","code":"VS","name":"Valais / Wallis"},"status":"Real"},{"key":"10041522","name":"Brei","postalCode":"3911","locality":"Ried-Brig","commune":{"key":"6008","name":"Ried-Brig","shortName":"Ried-Brig"},"district":{"key":"2301","name":"Bezirk Brig"},"canton":{"key":"23","code":"VS","name":"Valais / Wallis"},"status":"Real"},{"key":"10096785","name":"Breistrasse","postalCode":"3911","locality":"Ried-Brig","commune":{"key":"6008","name":"Ried-Brig","shortName":"Ried-Brig"},"district":{"key":"2301","name":"Bezirk Brig"},"canton":{"key":"23","code":"VS","name":"Valais / Wallis"},"status":"Real"},{"key":"10237315","name":"Brend","postalCode":"3911","locality":"Ried-Brig","commune":{"key":"6008","name":"Ried-Brig","shortName":"Ried-Brig"},"district":{"key":"2301","name":"Bezirk Brig"},"canton":{"key":"23","code":"VS","name":"Valais / Wallis"},"status":"Real"},{"key":"10236300","name":"Burgspitz","postalCode":"3911","locality":"Ried-Brig","commune":{"key":"6008","name":"Ried-Brig","shortName":"Ried-Brig"},"district":{"key":"2301","name":"Bezirk Brig"},"canton":{"key":"23","code":"VS","name":"Valais / Wallis"},"status":"Real"},{"key":"10236304","name":"Chännulmatte","postalCode":"3911","locality":"Ried-Brig","commune":{"key":"6008","name":"Ried-Brig","shortName":"Ried-Brig"},"district":{"key":"2301","name":"Bezirk Brig"},"canton":{"key":"23","code":"VS","name":"Valais / Wallis"},"status":"Real"},{"key":"10041523","name":"Chavezweg","postalCode":"3911","locality":"Ried-Brig","commune":{"key":"6008","name":"Ried-Brig","shortName":"Ried-Brig"},"district":{"key":"2301","name":"Bezirk Brig"},"canton":{"key":"23","code":"VS","name":"Valais / Wallis"},"status":"Real"},{"key":"10236316","name":"Chräjubiel","postalCode":"3911","locality":"Ried-Brig","commune":{"key":"6008","name":"Ried-Brig","shortName":"Ried-Brig"},"district":{"key":"2301","name":"Bezirk Brig"},"canton":{"key":"23","code":"VS","name":"Valais / Wallis"},"status":"Real"},{"key":"10181603","name":"Chumma","postalCode":"3911","locality":"Ried-Brig","commune":{"key":"6008","name":"Ried-Brig","shortName":"Ried-Brig"},"district":{"key":"2301","name":"Bezirk Brig"},"canton":{"key":"23","code":"VS","name":"Valais / Wallis"},"status":"Real"},{"key":"10236868","name":"Chüobiela","postalCode":"3911","locality":"Ried-Brig","commune":{"key":"6008","name":"Ried-Brig","shortName":"Ried-Brig"},"district":{"key":"2301","name":"Bezirk Brig"},"canton":{"key":"23","code":"VS","name":"Valais / Wallis"},"status":"Real"},{"key":"10236872","name":"Doornerbodo","postalCode":"3911","locality":"Ried-Brig","commune":{"key":"6008","name":"Ried-Brig","shortName":"Ried-Brig"},"district":{"key":"2301","name":"Bezirk Brig"},"canton":{"key":"23","code":"VS","name":"Valais / Wallis"},"status":"Real"},{"key":"10236876","name":"Dooru","postalCode":"3911","locality":"Ried-Brig","commune":{"key":"6008","name":"Ried-Brig","shortName":"Ried-Brig"},"district":{"key":"2301","name":"Bezirk Brig"},"canton":{"key":"23","code":"VS","name":"Valais / Wallis"},"status":"Real"},{"key":"10041524","name":"Dorfstrasse","postalCode":"3911","locality":"Ried-Brig","commune":{"key":"6008","name":"Ried-Brig","shortName":"Ried-Brig"},"district":{"key":"2301","name":"Bezirk Brig"},"canton":{"key":"23","code":"VS","name":"Valais / Wallis"},"status":"Real"},{"key":"10236884","name":"Eijulti","postalCode":"3911","locality":"Ried-Brig","commune":{"key":"6008","name":"Ried-Brig","shortName":"Ried-Brig"},"district":{"key":"2301","name":"Bezirk Brig"},"canton":{"key":"23","code":"VS","name":"Valais / Wallis"},"status":"Real"},{"key":"10236888","name":"Eischt","postalCode":"3911","locality":"Ried-Brig","commune":{"key":"6008","name":"Ried-Brig","shortName":"Ried-Brig"},"district":{"key":"2301","name":"Bezirk Brig"},"canton":{"key":"23","code":"VS","name":"Valais / Wallis"},"status":"Real"},{"key":"10236892","name":"Fäld","postalCode":"3911","locality":"Ried-Brig","commune":{"key":"6008","name":"Ried-Brig","shortName":"Ried-Brig"},"district":{"key":"2301","name":"Bezirk Brig"},"canton":{"key":"23","code":"VS","name":"Valais / Wallis"},"status":"Real"},{"key":"10236360","name":"Gärschterna","postalCode":"3911","locality":"Ried-Brig","commune":{"key":"6008","name":"Ried-Brig","shortName":"Ried-Brig"},"district":{"key":"2301","name":"Bezirk Brig"},"canton":{"key":"23","code":"VS","name":"Valais / Wallis"},"status":"Real"},{"key":"10136287","name":"Gassa","postalCode":"3911","locality":"Ried-Brig","commune":{"key":"6008","name":"Ried-Brig","shortName":"Ried-Brig"},"district":{"key":"2301","name":"Bezirk Brig"},"canton":{"key":"23","code":"VS","name":"Valais / Wallis"},"status":"Real"},{"key":"10096786","name":"Gewerbestrasse","postalCode":"3911","locality":"Ried-Brig","commune":{"key":"6008","name":"Ried-Brig","shortName":"Ried-Brig"},"district":{"key":"2301","name":"Bezirk Brig"},"canton":{"key":"23","code":"VS","name":"Valais / Wallis"},"status":"Real"},{"key":"10236900","name":"Giwwer","postalCode":"3911","locality":"Ried-Brig","commune":{"key":"6008","name":"Ried-Brig","shortName":"Ried-Brig"},"district":{"key":"2301","name":"Bezirk Brig"},"canton":{"key":"23","code":"VS","name":"Valais / Wallis"},"status":"Real"},{"key":"10236904","name":"Gräächi","postalCode":"3911","locality":"Ried-Brig","commune":{"key":"6008","name":"Ried-Brig","shortName":"Ried-Brig"},"district":{"key":"2301","name":"Bezirk Brig"},"canton":{"key":"23","code":"VS","name":"Valais / Wallis"},"status":"Real"},{"key":"10236372","name":"Gras","postalCode":"3911","locality":"Ried-Brig","commune":{"key":"6008","name":"Ried-Brig","shortName":"Ried-Brig"},"district":{"key":"2301","name":"Bezirk Brig"},"canton":{"key":"23","code":"VS","name":"Valais / Wallis"},"status":"Real"},{"key":"10236376","name":"Gratgassa","postalCode":"3911","locality":"Ried-Brig","commune":{"key":"6008","name":"Ried-Brig","shortName":"Ried-Brig"},"district":{"key":"2301","name":"Bezirk Brig"},"canton":{"key":"23","code":"VS","name":"Valais / Wallis"},"status":"Real"},{"key":"10236380","name":"Grund","postalCode":"3911","locality":"Ried-Brig","commune":{"key":"6008","name":"Ried-Brig","shortName":"Ried-Brig"},"district":{"key":"2301","name":"Bezirk Brig"},"canton":{"key":"23","code":"VS","name":"Valais / Wallis"},"status":"Real"},{"key":"10258402","name":"Gruppinuwäg","postalCode":"3911","locality":"Ried-Brig","commune":{"key":"6008","name":"Ried-Brig","shortName":"Ried-Brig"},"district":{"key":"2301","name":"Bezirk Brig"},"canton":{"key":"23","code":"VS","name":"Valais / Wallis"},"status":"Real"},{"key":"10236392","name":"Hinner der Burg","postalCode":"3911","locality":"Ried-Brig","commune":{"key":"6008","name":"Ried-Brig","shortName":"Ried-Brig"},"district":{"key":"2301","name":"Bezirk Brig"},"canton":{"key":"23","code":"VS","name":"Valais / Wallis"},"status":"Real"},{"key":"10236400","name":"Ledi","postalCode":"3911","locality":"Ried-Brig","commune":{"key":"6008","name":"Ried-Brig","shortName":"Ried-Brig"},"district":{"key":"2301","name":"Bezirk Brig"},"canton":{"key":"23","code":"VS","name":"Valais / Wallis"},"status":"Real"},{"key":"10068507","name":"Liegjie","postalCode":"3911","locality":"Ried-Brig","commune":{"key":"6008","name":"Ried-Brig","shortName":"Ried-Brig"},"district":{"key":"2301","name":"Bezirk Brig"},"canton":{"key":"23","code":"VS","name":"Valais / Wallis"},"status":"Real"},{"key":"10189332","name":"Lingwurm","postalCode":"3911","locality":"Ried-Brig","commune":{"key":"6008","name":"Ried-Brig","shortName":"Ried-Brig"},"district":{"key":"2301","name":"Bezirk Brig"},"canton":{"key":"23","code":"VS","name":"Valais / Wallis"},"status":"Real"},{"key":"10116365","name":"Lingwurmstrasse","postalCode":"3911","locality":"Ried-Brig","commune":{"key":"6008","name":"Ried-Brig","shortName":"Ried-Brig"},"district":{"key":"2301","name":"Bezirk Brig"},"canton":{"key":"23","code":"VS","name":"Valais / Wallis"},"status":"Real"},{"key":"10236408","name":"Lochji","postalCode":"3911","locality":"Ried-Brig","commune":{"key":"6008","name":"Ried-Brig","shortName":"Ried-Brig"},"district":{"key":"2301","name":"Bezirk Brig"},"canton":{"key":"23","code":"VS","name":"Valais / Wallis"},"status":"Real"},{"key":"10236412","name":"Löüb","postalCode":"3911","locality":"Ried-Brig","commune":{"key":"6008","name":"Ried-Brig","shortName":"Ried-Brig"},"district":{"key":"2301","name":"Bezirk Brig"},"canton":{"key":"23","code":"VS","name":"Valais / Wallis"},"status":"Real"},{"key":"10041526","name":"Lowina","postalCode":"3911","locality":"Ried-Brig","commune":{"key":"6008","name":"Ried-Brig","shortName":"Ried-Brig"},"district":{"key":"2301","name":"Bezirk Brig"},"canton":{"key":"23","code":"VS","name":"Valais / Wallis"},"status":"Real"},{"key":"10097054","name":"Lowinerstrasse","postalCode":"3911","locality":"Ried-Brig","commune":{"key":"6008","name":"Ried-Brig","shortName":"Ried-Brig"},"district":{"key":"2301","name":"Bezirk Brig"},"canton":{"key":"23","code":"VS","name":"Valais / Wallis"},"status":"Real"},{"key":"10236420","name":"Moss","postalCode":"3911","locality":"Ried-Brig","commune":{"key":"6008","name":"Ried-Brig","shortName":"Ried-Brig"},"district":{"key":"2301","name":"Bezirk Brig"},"canton":{"key":"23","code":"VS","name":"Valais / Wallis"},"status":"Real"},{"key":"10102978","name":"Mürini","postalCode":"3911","locality":"Ried-Brig","commune":{"key":"6008","name":"Ried-Brig","shortName":"Ried-Brig"},"district":{"key":"2301","name":"Bezirk Brig"},"canton":{"key":"23","code":"VS","name":"Valais / Wallis"},"status":"Real"},{"key":"10082364","name":"Neue Dorfstrasse","postalCode":"3911","locality":"Ried-Brig","commune":{"key":"6008","name":"Ried-Brig","shortName":"Ried-Brig"},"district":{"key":"2301","name":"Bezirk Brig"},"canton":{"key":"23","code":"VS","name":"Valais / Wallis"},"status":"Real"},{"key":"10041527","name":"Obertärmu","postalCode":"3911","locality":"Ried-Brig","commune":{"key":"6008","name":"Ried-Brig","shortName":"Ried-Brig"},"district":{"key":"2301","name":"Bezirk Brig"},"canton":{"key":"23","code":"VS","name":"Valais / Wallis"},"status":"Real"},{"key":"10236424","name":"Obru Egge","postalCode":"3911","locality":"Ried-Brig","commune":{"key":"6008","name":"Ried-Brig","shortName":"Ried-Brig"},"district":{"key":"2301","name":"Bezirk Brig"},"canton":{"key":"23","code":"VS","name":"Valais / Wallis"},"status":"Real"},{"key":"10041528","name":"Polti","postalCode":"3911","locality":"Ried-Brig","commune":{"key":"6008","name":"Ried-Brig","shortName":"Ried-Brig"},"district":{"key":"2301","name":"Bezirk Brig"},"canton":{"key":"23","code":"VS","name":"Valais / Wallis"},"status":"Real"},{"key":"10236428","name":"Reschti","postalCode":"3911","locality":"Ried-Brig","commune":{"key":"6008","name":"Ried-Brig","shortName":"Ried-Brig"},"district":{"key":"2301","name":"Bezirk Brig"},"canton":{"key":"23","code":"VS","name":"Valais / Wallis"},"status":"Real"},{"key":"10041529","name":"Ried","postalCode":"3911","locality":"Ried-Brig","commune":{"key":"6008","name":"Ried-Brig","shortName":"Ried-Brig"},"district":{"key":"2301","name":"Bezirk Brig"},"canton":{"key":"23","code":"VS","name":"Valais / Wallis"},"status":"Real"},{"key":"10236432","name":"Riedalpji","postalCode":"3911","locality":"Ried-Brig","commune":{"key":"6008","name":"Ried-Brig","shortName":"Ried-Brig"},"district":{"key":"2301","name":"Bezirk Brig"},"canton":{"key":"23","code":"VS","name":"Valais / Wallis"},"status":"Real"},{"key":"10107355","name":"Riedgassa","postalCode":"3911","locality":"Ried-Brig","commune":{"key":"6008","name":"Ried-Brig","shortName":"Ried-Brig"},"district":{"key":"2301","name":"Bezirk Brig"},"canton":{"key":"23","code":"VS","name":"Valais / Wallis"},"status":"Real"},{"key":"10236436","name":"Rigi","postalCode":"3911","locality":"Ried-Brig","commune":{"key":"6008","name":"Ried-Brig","shortName":"Ried-Brig"},"district":{"key":"2301","name":"Bezirk Brig"},"canton":{"key":"23","code":"VS","name":"Valais / Wallis"},"status":"Real"},{"key":"10236440","name":"Riti","postalCode":"3911","locality":"Ried-Brig","commune":{"key":"6008","name":"Ried-Brig","shortName":"Ried-Brig"},"district":{"key":"2301","name":"Bezirk Brig"},"canton":{"key":"23","code":"VS","name":"Valais / Wallis"},"status":"Real"},{"key":"10236444","name":"Ritulti","postalCode":"3911","locality":"Ried-Brig","commune":{"key":"6008","name":"Ried-Brig","shortName":"Ried-Brig"},"district":{"key":"2301","name":"Bezirk Brig"},"canton":{"key":"23","code":"VS","name":"Valais / Wallis"},"status":"Real"},{"key":"10042601","name":"Rüssweg","postalCode":"3911","locality":"Ried-Brig","commune":{"key":"6008","name":"Ried-Brig","shortName":"Ried-Brig"},"district":{"key":"2301","name":"Bezirk Brig"},"canton":{"key":"23","code":"VS","name":"Valais / Wallis"},"status":"Real"},{"key":"10236452","name":"Salmina","postalCode":"3911","locality":"Ried-Brig","commune":{"key":"6008","name":"Ried-Brig","shortName":"Ried-Brig"},"district":{"key":"2301","name":"Bezirk Brig"},"canton":{"key":"23","code":"VS","name":"Valais / Wallis"},"status":"Real"},{"key":"10236456","name":"Sander","postalCode":"3911","locality":"Ried-Brig","commune":{"key":"6008","name":"Ried-Brig","shortName":"Ried-Brig"},"district":{"key":"2301","name":"Bezirk Brig"},"canton":{"key":"23","code":"VS","name":"Valais / Wallis"},"status":"Real"},{"key":"10236460","name":"Sattulledi","postalCode":"3911","locality":"Ried-Brig","commune":{"key":"6008","name":"Ried-Brig","shortName":"Ried-Brig"},"district":{"key":"2301","name":"Bezirk Brig"},"canton":{"key":"23","code":"VS","name":"Valais / Wallis"},"status":"Real"},{"key":"10236464","name":"Schallbärg","postalCode":"3911","locality":"Ried-Brig","commune":{"key":"6008","name":"Ried-Brig","shortName":"Ried-Brig"},"district":{"key":"2301","name":"Bezirk Brig"},"canton":{"key":"23","code":"VS","name":"Valais / Wallis"},"status":"Real"},{"key":"10236473","name":"Scheeni","postalCode":"3911","locality":"Ried-Brig","commune":{"key":"6008","name":"Ried-Brig","shortName":"Ried-Brig"},"district":{"key":"2301","name":"Bezirk Brig"},"canton":{"key":"23","code":"VS","name":"Valais / Wallis"},"status":"Real"},{"key":"10185768","name":"Schlüocht","postalCode":"3911","locality":"Ried-Brig","commune":{"key":"6008","name":"Ried-Brig","shortName":"Ried-Brig"},"district":{"key":"2301","name":"Bezirk Brig"},"canton":{"key":"23","code":"VS","name":"Valais / Wallis"},"status":"Real"},{"key":"10236485","name":"Schweggje","postalCode":"3911","locality":"Ried-Brig","commune":{"key":"6008","name":"Ried-Brig","shortName":"Ried-Brig"},"district":{"key":"2301","name":"Bezirk Brig"},"canton":{"key":"23","code":"VS","name":"Valais / Wallis"},"status":"Real"},{"key":"10041519","name":"Simplonstrasse","postalCode":"3911","locality":"Ried-Brig","commune":{"key":"6008","name":"Ried-Brig","shortName":"Ried-Brig"},"district":{"key":"2301","name":"Bezirk Brig"},"canton":{"key":"23","code":"VS","name":"Valais / Wallis"},"status":"Real"},{"key":"10236489","name":"Steinumatte","postalCode":"3911","locality":"Ried-Brig","commune":{"key":"6008","name":"Ried-Brig","shortName":"Ried-Brig"},"district":{"key":"2301","name":"Bezirk Brig"},"canton":{"key":"23","code":"VS","name":"Valais / Wallis"},"status":"Real"},{"key":"10236493","name":"Stockalpji","postalCode":"3911","locality":"Ried-Brig","commune":{"key":"6008","name":"Ried-Brig","shortName":"Ried-Brig"},"district":{"key":"2301","name":"Bezirk Brig"},"canton":{"key":"23","code":"VS","name":"Valais / Wallis"},"status":"Real"},{"key":"10236497","name":"Stückiegga","postalCode":"3911","locality":"Ried-Brig","commune":{"key":"6008","name":"Ried-Brig","shortName":"Ried-Brig"},"district":{"key":"2301","name":"Bezirk Brig"},"canton":{"key":"23","code":"VS","name":"Valais / Wallis"},"status":"Real"},{"key":"10236501","name":"Tamatta","postalCode":"3911","locality":"Ried-Brig","commune":{"key":"6008","name":"Ried-Brig","shortName":"Ried-Brig"},"district":{"key":"2301","name":"Bezirk Brig"},"canton":{"key":"23","code":"VS","name":"Valais / Wallis"},"status":"Real"},{"key":"10097055","name":"Termerstrasse","postalCode":"3911","locality":"Ried-Brig","commune":{"key":"6008","name":"Ried-Brig","shortName":"Ried-Brig"},"district":{"key":"2301","name":"Bezirk Brig"},"canton":{"key":"23","code":"VS","name":"Valais / Wallis"},"status":"Real"},{"key":"10236509","name":"Undru Egge","postalCode":"3911","locality":"Ried-Brig","commune":{"key":"6008","name":"Ried-Brig","shortName":"Ried-Brig"},"district":{"key":"2301","name":"Bezirk Brig"},"canton":{"key":"23","code":"VS","name":"Valais / Wallis"},"status":"Real"},{"key":"10236513","name":"Undru Schmidmatte","postalCode":"3911","locality":"Ried-Brig","commune":{"key":"6008","name":"Ried-Brig","shortName":"Ried-Brig"},"district":{"key":"2301","name":"Bezirk Brig"},"canton":{"key":"23","code":"VS","name":"Valais / Wallis"},"status":"Real"},{"key":"10236521","name":"Wässermatta","postalCode":"3911","locality":"Ried-Brig","commune":{"key":"6008","name":"Ried-Brig","shortName":"Ried-Brig"},"district":{"key":"2301","name":"Bezirk Brig"},"canton":{"key":"23","code":"VS","name":"Valais / Wallis"},"status":"Real"},{"key":"10236525","name":"Widerfäld","postalCode":"3911","locality":"Ried-Brig","commune":{"key":"6008","name":"Ried-Brig","shortName":"Ried-Brig"},"district":{"key":"2301","name":"Bezirk Brig"},"canton":{"key":"23","code":"VS","name":"Valais / Wallis"},"status":"Real"},{"key":"10042602","name":"Wieggischmatta","postalCode":"3911","locality":"Ried-Brig","commune":{"key":"6008","name":"Ried-Brig","shortName":"Ried-Brig"},"district":{"key":"2301","name":"Bezirk Brig"},"canton":{"key":"23","code":"VS","name":"Valais / Wallis"},"status":"Real"},{"key":"10236533","name":"Ze Brunnu","postalCode":"3911","locality":"Ried-Brig","commune":{"key":"6008","name":"Ried-Brig","shortName":"Ried-Brig"},"district":{"key":"2301","name":"Bezirk Brig"},"canton":{"key":"23","code":"VS","name":"Valais / Wallis"},"status":"Real"},{"key":"10236259","name":"Äscha","postalCode":"3911","locality":"Ried-Brig","commune":{"key":"6008","name":"Ried-Brig","shortName":"Ried-Brig"},"district":{"key":"2301","name":"Bezirk Brig"},"canton":{"key":"23","code":"VS","name":"Valais / Wallis"},"status":"Real"},]