[{"key":"10184491","name":"Bildstrasse","postalCode":"9216","locality":"Hohentannen","commune":{"key":"4495","name":"Hohentannen","shortName":"Hohentannen"},"district":{"key":"2015","name":"Bezirk Weinfelden"},"canton":{"key":"20","code":"TG","name":"Thurgau"},"status":"Real"},{"key":"10073419","name":"Birkenhof","postalCode":"9216","locality":"Hohentannen","commune":{"key":"4495","name":"Hohentannen","shortName":"Hohentannen"},"district":{"key":"2015","name":"Bezirk Weinfelden"},"canton":{"key":"20","code":"TG","name":"Thurgau"},"status":"Real"},{"key":"10122809","name":"Foren","postalCode":"9216","locality":"Hohentannen","commune":{"key":"4495","name":"Hohentannen","shortName":"Hohentannen"},"district":{"key":"2015","name":"Bezirk Weinfelden"},"canton":{"key":"20","code":"TG","name":"Thurgau"},"status":"Real"},{"key":"10126010","name":"Freudenberg","postalCode":"9216","locality":"Hohentannen","commune":{"key":"4495","name":"Hohentannen","shortName":"Hohentannen"},"district":{"key":"2015","name":"Bezirk Weinfelden"},"canton":{"key":"20","code":"TG","name":"Thurgau"},"status":"Real"},{"key":"10100339","name":"Gartenstrasse","postalCode":"9216","locality":"Hohentannen","commune":{"key":"4495","name":"Hohentannen","shortName":"Hohentannen"},"district":{"key":"2015","name":"Bezirk Weinfelden"},"canton":{"key":"20","code":"TG","name":"Thurgau"},"status":"Real"},{"key":"10234984","name":"Hauptstrasse","postalCode":"9216","locality":"Hohentannen","commune":{"key":"4495","name":"Hohentannen","shortName":"Hohentannen"},"district":{"key":"2015","name":"Bezirk Weinfelden"},"canton":{"key":"20","code":"TG","name":"Thurgau"},"status":"Real"},{"key":"10124423","name":"Heerenhag","postalCode":"9216","locality":"Hohentannen","commune":{"key":"4495","name":"Hohentannen","shortName":"Hohentannen"},"district":{"key":"2015","name":"Bezirk Weinfelden"},"canton":{"key":"20","code":"TG","name":"Thurgau"},"status":"Real"},{"key":"10041872","name":"Heidelberg","postalCode":"9216","locality":"Hohentannen","commune":{"key":"4495","name":"Hohentannen","shortName":"Hohentannen"},"district":{"key":"2015","name":"Bezirk Weinfelden"},"canton":{"key":"20","code":"TG","name":"Thurgau"},"status":"Real"},{"key":"10100340","name":"Hummelbergstrasse","postalCode":"9216","locality":"Hohentannen","commune":{"key":"4495","name":"Hohentannen","shortName":"Hohentannen"},"district":{"key":"2015","name":"Bezirk Weinfelden"},"canton":{"key":"20","code":"TG","name":"Thurgau"},"status":"Real"},{"key":"10241245","name":"Ibergstrasse","postalCode":"9216","locality":"Hohentannen","commune":{"key":"4495","name":"Hohentannen","shortName":"Hohentannen"},"district":{"key":"2015","name":"Bezirk Weinfelden"},"canton":{"key":"20","code":"TG","name":"Thurgau"},"status":"Real"},{"key":"10124257","name":"Im Pfatt","postalCode":"9216","locality":"Hohentannen","commune":{"key":"4495","name":"Hohentannen","shortName":"Hohentannen"},"district":{"key":"2015","name":"Bezirk Weinfelden"},"canton":{"key":"20","code":"TG","name":"Thurgau"},"status":"Real"},{"key":"10073421","name":"Im Rank","postalCode":"9216","locality":"Hohentannen","commune":{"key":"4495","name":"Hohentannen","shortName":"Hohentannen"},"district":{"key":"2015","name":"Bezirk Weinfelden"},"canton":{"key":"20","code":"TG","name":"Thurgau"},"status":"Real"},{"key":"10042958","name":"Juliusstrasse","postalCode":"9216","locality":"Hohentannen","commune":{"key":"4495","name":"Hohentannen","shortName":"Hohentannen"},"district":{"key":"2015","name":"Bezirk Weinfelden"},"canton":{"key":"20","code":"TG","name":"Thurgau"},"status":"Real"},{"key":"10060737","name":"Kalchofen","postalCode":"9216","locality":"Hohentannen","commune":{"key":"4495","name":"Hohentannen","shortName":"Hohentannen"},"district":{"key":"2015","name":"Bezirk Weinfelden"},"canton":{"key":"20","code":"TG","name":"Thurgau"},"status":"Real"},{"key":"10107119","name":"Kapellestrasse","postalCode":"9216","locality":"Hohentannen","commune":{"key":"4495","name":"Hohentannen","shortName":"Hohentannen"},"district":{"key":"2015","name":"Bezirk Weinfelden"},"canton":{"key":"20","code":"TG","name":"Thurgau"},"status":"Real"},{"key":"10184492","name":"K채sereistrasse","postalCode":"9216","locality":"Hohentannen","commune":{"key":"4495","name":"Hohentannen","shortName":"Hohentannen"},"district":{"key":"2015","name":"Bezirk Weinfelden"},"canton":{"key":"20","code":"TG","name":"Thurgau"},"status":"Real"},{"key":"10241249","name":"Kirchweg","postalCode":"9216","locality":"Hohentannen","commune":{"key":"4495","name":"Hohentannen","shortName":"Hohentannen"},"district":{"key":"2015","name":"Bezirk Weinfelden"},"canton":{"key":"20","code":"TG","name":"Thurgau"},"status":"Real"},{"key":"10100341","name":"Kistenm체hle","postalCode":"9216","locality":"Hohentannen","commune":{"key":"4495","name":"Hohentannen","shortName":"Hohentannen"},"district":{"key":"2015","name":"Bezirk Weinfelden"},"canton":{"key":"20","code":"TG","name":"Thurgau"},"status":"Real"},{"key":"10073422","name":"Merzenkopf","postalCode":"9216","locality":"Hohentannen","commune":{"key":"4495","name":"Hohentannen","shortName":"Hohentannen"},"district":{"key":"2015","name":"Bezirk Weinfelden"},"canton":{"key":"20","code":"TG","name":"Thurgau"},"status":"Real"},{"key":"10102851","name":"Oetlishausenstrasse","postalCode":"9216","locality":"Hohentannen","commune":{"key":"4495","name":"Hohentannen","shortName":"Hohentannen"},"district":{"key":"2015","name":"Bezirk Weinfelden"},"canton":{"key":"20","code":"TG","name":"Thurgau"},"status":"Real"},{"key":"10207774","name":"P체ntlistrasse","postalCode":"9216","locality":"Hohentannen","commune":{"key":"4495","name":"Hohentannen","shortName":"Hohentannen"},"district":{"key":"2015","name":"Bezirk Weinfelden"},"canton":{"key":"20","code":"TG","name":"Thurgau"},"status":"Real"},{"key":"10042959","name":"Schlossweg","postalCode":"9216","locality":"Hohentannen","commune":{"key":"4495","name":"Hohentannen","shortName":"Hohentannen"},"district":{"key":"2015","name":"Bezirk Weinfelden"},"canton":{"key":"20","code":"TG","name":"Thurgau"},"status":"Real"},{"key":"10100342","name":"Schmalzgasse","postalCode":"9216","locality":"Hohentannen","commune":{"key":"4495","name":"Hohentannen","shortName":"Hohentannen"},"district":{"key":"2015","name":"Bezirk Weinfelden"},"canton":{"key":"20","code":"TG","name":"Thurgau"},"status":"Real"},{"key":"10042960","name":"Schulstrasse","postalCode":"9216","locality":"Hohentannen","commune":{"key":"4495","name":"Hohentannen","shortName":"Hohentannen"},"district":{"key":"2015","name":"Bezirk Weinfelden"},"canton":{"key":"20","code":"TG","name":"Thurgau"},"status":"Real"},{"key":"10147502","name":"Sch체tzenhausstrasse","postalCode":"9216","locality":"Hohentannen","commune":{"key":"4495","name":"Hohentannen","shortName":"Hohentannen"},"district":{"key":"2015","name":"Bezirk Weinfelden"},"canton":{"key":"20","code":"TG","name":"Thurgau"},"status":"Real"},{"key":"10190337","name":"Tellen","postalCode":"9216","locality":"Hohentannen","commune":{"key":"4495","name":"Hohentannen","shortName":"Hohentannen"},"district":{"key":"2015","name":"Bezirk Weinfelden"},"canton":{"key":"20","code":"TG","name":"Thurgau"},"status":"Real"},{"key":"10126011","name":"Tellenholz","postalCode":"9216","locality":"Hohentannen","commune":{"key":"4495","name":"Hohentannen","shortName":"Hohentannen"},"district":{"key":"2015","name":"Bezirk Weinfelden"},"canton":{"key":"20","code":"TG","name":"Thurgau"},"status":"Real"},{"key":"10042961","name":"Torkel","postalCode":"9216","locality":"Hohentannen","commune":{"key":"4495","name":"Hohentannen","shortName":"Hohentannen"},"district":{"key":"2015","name":"Bezirk Weinfelden"},"canton":{"key":"20","code":"TG","name":"Thurgau"},"status":"Real"},{"key":"10060738","name":"Waidli","postalCode":"9216","locality":"Hohentannen","commune":{"key":"4495","name":"Hohentannen","shortName":"Hohentannen"},"district":{"key":"2015","name":"Bezirk Weinfelden"},"canton":{"key":"20","code":"TG","name":"Thurgau"},"status":"Real"},{"key":"10234988","name":"Weiherstrasse","postalCode":"9216","locality":"Hohentannen","commune":{"key":"4495","name":"Hohentannen","shortName":"Hohentannen"},"district":{"key":"2015","name":"Bezirk Weinfelden"},"canton":{"key":"20","code":"TG","name":"Thurgau"},"status":"Real"},{"key":"10073423","name":"Wiesengatter","postalCode":"9216","locality":"Hohentannen","commune":{"key":"4495","name":"Hohentannen","shortName":"Hohentannen"},"district":{"key":"2015","name":"Bezirk Weinfelden"},"canton":{"key":"20","code":"TG","name":"Thurgau"},"status":"Real"},{"key":"10100343","name":"Zihlschlachtstrasse","postalCode":"9216","locality":"Hohentannen","commune":{"key":"4495","name":"Hohentannen","shortName":"Hohentannen"},"district":{"key":"2015","name":"Bezirk Weinfelden"},"canton":{"key":"20","code":"TG","name":"Thurgau"},"status":"Real"},]