[{"key":"10077242","name":"Aegertaweg","postalCode":"7050","locality":"Arosa","commune":{"key":"3921","name":"Arosa","shortName":"Arosa"},"district":{"key":"1848","name":"Region Plessur"},"canton":{"key":"18","code":"GR","name":"Graubünden / Grigioni / Grischun"},"status":"Real"},{"key":"10038219","name":"Alteinstrasse","postalCode":"7050","locality":"Arosa","commune":{"key":"3921","name":"Arosa","shortName":"Arosa"},"district":{"key":"1848","name":"Region Plessur"},"canton":{"key":"18","code":"GR","name":"Graubünden / Grigioni / Grischun"},"status":"Real"},{"key":"10216178","name":"Alte Poststrasse","postalCode":"7050","locality":"Arosa","commune":{"key":"3921","name":"Arosa","shortName":"Arosa"},"district":{"key":"1848","name":"Region Plessur"},"canton":{"key":"18","code":"GR","name":"Graubünden / Grigioni / Grischun"},"status":"Real"},{"key":"10130251","name":"Althuusweg","postalCode":"7050","locality":"Arosa","commune":{"key":"3921","name":"Arosa","shortName":"Arosa"},"district":{"key":"1848","name":"Region Plessur"},"canton":{"key":"18","code":"GR","name":"Graubünden / Grigioni / Grischun"},"status":"Real"},{"key":"10038244","name":"Arosastrasse","postalCode":"7050","locality":"Arosa","commune":{"key":"3921","name":"Arosa","shortName":"Arosa"},"district":{"key":"1848","name":"Region Plessur"},"canton":{"key":"18","code":"GR","name":"Graubünden / Grigioni / Grischun"},"status":"Real"},{"key":"10131944","name":"Bahnhofplatz","postalCode":"7050","locality":"Arosa","commune":{"key":"3921","name":"Arosa","shortName":"Arosa"},"district":{"key":"1848","name":"Region Plessur"},"canton":{"key":"18","code":"GR","name":"Graubünden / Grigioni / Grischun"},"status":"Real"},{"key":"10131957","name":"Büdemjiweg","postalCode":"7050","locality":"Arosa","commune":{"key":"3921","name":"Arosa","shortName":"Arosa"},"district":{"key":"1848","name":"Region Plessur"},"canton":{"key":"18","code":"GR","name":"Graubünden / Grigioni / Grischun"},"status":"Real"},{"key":"10210492","name":"Chalchofa-Strasse","postalCode":"7050","locality":"Arosa","commune":{"key":"3921","name":"Arosa","shortName":"Arosa"},"district":{"key":"1848","name":"Region Plessur"},"canton":{"key":"18","code":"GR","name":"Graubünden / Grigioni / Grischun"},"status":"Real"},{"key":"10131939","name":"Chilchweg","postalCode":"7050","locality":"Arosa","commune":{"key":"3921","name":"Arosa","shortName":"Arosa"},"district":{"key":"1848","name":"Region Plessur"},"canton":{"key":"18","code":"GR","name":"Graubünden / Grigioni / Grischun"},"status":"Real"},{"key":"10139540","name":"Cholgruobaweg","postalCode":"7050","locality":"Arosa","commune":{"key":"3921","name":"Arosa","shortName":"Arosa"},"district":{"key":"1848","name":"Region Plessur"},"canton":{"key":"18","code":"GR","name":"Graubünden / Grigioni / Grischun"},"status":"Real"},{"key":"10247410","name":"Eggastrasse","postalCode":"7050","locality":"Arosa","commune":{"key":"3921","name":"Arosa","shortName":"Arosa"},"district":{"key":"1848","name":"Region Plessur"},"canton":{"key":"18","code":"GR","name":"Graubünden / Grigioni / Grischun"},"status":"Real"},{"key":"10211733","name":"Eiaweg","postalCode":"7050","locality":"Arosa","commune":{"key":"3921","name":"Arosa","shortName":"Arosa"},"district":{"key":"1848","name":"Region Plessur"},"canton":{"key":"18","code":"GR","name":"Graubünden / Grigioni / Grischun"},"status":"Real"},{"key":"10111888","name":"Eichhörnliweg","postalCode":"7050","locality":"Arosa","commune":{"key":"3921","name":"Arosa","shortName":"Arosa"},"district":{"key":"1848","name":"Region Plessur"},"canton":{"key":"18","code":"GR","name":"Graubünden / Grigioni / Grischun"},"status":"Real"},{"key":"10131927","name":"Elsastrasse","postalCode":"7050","locality":"Arosa","commune":{"key":"3921","name":"Arosa","shortName":"Arosa"},"district":{"key":"1848","name":"Region Plessur"},"canton":{"key":"18","code":"GR","name":"Graubünden / Grigioni / Grischun"},"status":"Real"},{"key":"10123819","name":"Flökasteig","postalCode":"7050","locality":"Arosa","commune":{"key":"3921","name":"Arosa","shortName":"Arosa"},"district":{"key":"1848","name":"Region Plessur"},"canton":{"key":"18","code":"GR","name":"Graubünden / Grigioni / Grischun"},"status":"Real"},{"key":"10038222","name":"Genderstrasse","postalCode":"7050","locality":"Arosa","commune":{"key":"3921","name":"Arosa","shortName":"Arosa"},"district":{"key":"1848","name":"Region Plessur"},"canton":{"key":"18","code":"GR","name":"Graubünden / Grigioni / Grischun"},"status":"Real"},{"key":"10131926","name":"Grabaweg","postalCode":"7050","locality":"Arosa","commune":{"key":"3921","name":"Arosa","shortName":"Arosa"},"district":{"key":"1848","name":"Region Plessur"},"canton":{"key":"18","code":"GR","name":"Graubünden / Grigioni / Grischun"},"status":"Real"},{"key":"10077243","name":"Gspanstrasse","postalCode":"7050","locality":"Arosa","commune":{"key":"3921","name":"Arosa","shortName":"Arosa"},"district":{"key":"1848","name":"Region Plessur"},"canton":{"key":"18","code":"GR","name":"Graubünden / Grigioni / Grischun"},"status":"Real"},{"key":"10038223","name":"Güetliweg","postalCode":"7050","locality":"Arosa","commune":{"key":"3921","name":"Arosa","shortName":"Arosa"},"district":{"key":"1848","name":"Region Plessur"},"canton":{"key":"18","code":"GR","name":"Graubünden / Grigioni / Grischun"},"status":"Real"},{"key":"10210481","name":"Hermann'sch Hus","postalCode":"7050","locality":"Arosa","commune":{"key":"3921","name":"Arosa","shortName":"Arosa"},"district":{"key":"1848","name":"Region Plessur"},"canton":{"key":"18","code":"GR","name":"Graubünden / Grigioni / Grischun"},"status":"Real"},{"key":"10077244","name":"Hohenfelsstrasse","postalCode":"7050","locality":"Arosa","commune":{"key":"3921","name":"Arosa","shortName":"Arosa"},"district":{"key":"1848","name":"Region Plessur"},"canton":{"key":"18","code":"GR","name":"Graubünden / Grigioni / Grischun"},"status":"Real"},{"key":"10038224","name":"Hohe Promenade","postalCode":"7050","locality":"Arosa","commune":{"key":"3921","name":"Arosa","shortName":"Arosa"},"district":{"key":"1848","name":"Region Plessur"},"canton":{"key":"18","code":"GR","name":"Graubünden / Grigioni / Grischun"},"status":"Real"},{"key":"10094278","name":"Höhwaldweg","postalCode":"7050","locality":"Arosa","commune":{"key":"3921","name":"Arosa","shortName":"Arosa"},"district":{"key":"1848","name":"Region Plessur"},"canton":{"key":"18","code":"GR","name":"Graubünden / Grigioni / Grischun"},"status":"Real"},{"key":"10123994","name":"Holzmeisastrasse","postalCode":"7050","locality":"Arosa","commune":{"key":"3921","name":"Arosa","shortName":"Arosa"},"district":{"key":"1848","name":"Region Plessur"},"canton":{"key":"18","code":"GR","name":"Graubünden / Grigioni / Grischun"},"status":"Real"},{"key":"10038226","name":"Hörnlistrasse","postalCode":"7050","locality":"Arosa","commune":{"key":"3921","name":"Arosa","shortName":"Arosa"},"district":{"key":"1848","name":"Region Plessur"},"canton":{"key":"18","code":"GR","name":"Graubünden / Grigioni / Grischun"},"status":"Real"},{"key":"10124305","name":"Hubelseeweg","postalCode":"7050","locality":"Arosa","commune":{"key":"3921","name":"Arosa","shortName":"Arosa"},"district":{"key":"1848","name":"Region Plessur"},"canton":{"key":"18","code":"GR","name":"Graubünden / Grigioni / Grischun"},"status":"Real"},{"key":"10077245","name":"Hubelstrasse","postalCode":"7050","locality":"Arosa","commune":{"key":"3921","name":"Arosa","shortName":"Arosa"},"district":{"key":"1848","name":"Region Plessur"},"canton":{"key":"18","code":"GR","name":"Graubünden / Grigioni / Grischun"},"status":"Real"},{"key":"10131920","name":"Hüschiweg","postalCode":"7050","locality":"Arosa","commune":{"key":"3921","name":"Arosa","shortName":"Arosa"},"district":{"key":"1848","name":"Region Plessur"},"canton":{"key":"18","code":"GR","name":"Graubünden / Grigioni / Grischun"},"status":"Real"},{"key":"10210488","name":"Ifängiweg","postalCode":"7050","locality":"Arosa","commune":{"key":"3921","name":"Arosa","shortName":"Arosa"},"district":{"key":"1848","name":"Region Plessur"},"canton":{"key":"18","code":"GR","name":"Graubünden / Grigioni / Grischun"},"status":"Real"},{"key":"10122285","name":"Ifangweg","postalCode":"7050","locality":"Arosa","commune":{"key":"3921","name":"Arosa","shortName":"Arosa"},"district":{"key":"1848","name":"Region Plessur"},"canton":{"key":"18","code":"GR","name":"Graubünden / Grigioni / Grischun"},"status":"Real"},{"key":"10124600","name":"In der Gass","postalCode":"7050","locality":"Arosa","commune":{"key":"3921","name":"Arosa","shortName":"Arosa"},"district":{"key":"1848","name":"Region Plessur"},"canton":{"key":"18","code":"GR","name":"Graubünden / Grigioni / Grischun"},"status":"Real"},{"key":"10131940","name":"Iselstrasse","postalCode":"7050","locality":"Arosa","commune":{"key":"3921","name":"Arosa","shortName":"Arosa"},"district":{"key":"1848","name":"Region Plessur"},"canton":{"key":"18","code":"GR","name":"Graubünden / Grigioni / Grischun"},"status":"Real"},{"key":"10210499","name":"Jöri-Jenni-Strasse","postalCode":"7050","locality":"Arosa","commune":{"key":"3921","name":"Arosa","shortName":"Arosa"},"district":{"key":"1848","name":"Region Plessur"},"canton":{"key":"18","code":"GR","name":"Graubünden / Grigioni / Grischun"},"status":"Real"},{"key":"10038227","name":"Juggasteig","postalCode":"7050","locality":"Arosa","commune":{"key":"3921","name":"Arosa","shortName":"Arosa"},"district":{"key":"1848","name":"Region Plessur"},"canton":{"key":"18","code":"GR","name":"Graubünden / Grigioni / Grischun"},"status":"Real"},{"key":"10038228","name":"Maranerstrasse","postalCode":"7050","locality":"Arosa","commune":{"key":"3921","name":"Arosa","shortName":"Arosa"},"district":{"key":"1848","name":"Region Plessur"},"canton":{"key":"18","code":"GR","name":"Graubünden / Grigioni / Grischun"},"status":"Real"},{"key":"10123977","name":"Mülibodastrasse","postalCode":"7050","locality":"Arosa","commune":{"key":"3921","name":"Arosa","shortName":"Arosa"},"district":{"key":"1848","name":"Region Plessur"},"canton":{"key":"18","code":"GR","name":"Graubünden / Grigioni / Grischun"},"status":"Real"},{"key":"10190164","name":"Neubachstrasse","postalCode":"7050","locality":"Arosa","commune":{"key":"3921","name":"Arosa","shortName":"Arosa"},"district":{"key":"1848","name":"Region Plessur"},"canton":{"key":"18","code":"GR","name":"Graubünden / Grigioni / Grischun"},"status":"Real"},{"key":"10211734","name":"Neuwiesstrasse","postalCode":"7050","locality":"Arosa","commune":{"key":"3921","name":"Arosa","shortName":"Arosa"},"district":{"key":"1848","name":"Region Plessur"},"canton":{"key":"18","code":"GR","name":"Graubünden / Grigioni / Grischun"},"status":"Real"},{"key":"10038229","name":"Obere Waldpromenade","postalCode":"7050","locality":"Arosa","commune":{"key":"3921","name":"Arosa","shortName":"Arosa"},"district":{"key":"1848","name":"Region Plessur"},"canton":{"key":"18","code":"GR","name":"Graubünden / Grigioni / Grischun"},"status":"Real"},{"key":"10077247","name":"Oberseepromenade","postalCode":"7050","locality":"Arosa","commune":{"key":"3921","name":"Arosa","shortName":"Arosa"},"district":{"key":"1848","name":"Region Plessur"},"canton":{"key":"18","code":"GR","name":"Graubünden / Grigioni / Grischun"},"status":"Real"},{"key":"10210474","name":"Poststrasse","postalCode":"7050","locality":"Arosa","commune":{"key":"3921","name":"Arosa","shortName":"Arosa"},"district":{"key":"1848","name":"Region Plessur"},"canton":{"key":"18","code":"GR","name":"Graubünden / Grigioni / Grischun"},"status":"Real"},{"key":"10111889","name":"Prätschlistrasse","postalCode":"7050","locality":"Arosa","commune":{"key":"3921","name":"Arosa","shortName":"Arosa"},"district":{"key":"1848","name":"Region Plessur"},"canton":{"key":"18","code":"GR","name":"Graubünden / Grigioni / Grischun"},"status":"Real"},{"key":"10094280","name":"Quellenweg","postalCode":"7050","locality":"Arosa","commune":{"key":"3921","name":"Arosa","shortName":"Arosa"},"district":{"key":"1848","name":"Region Plessur"},"canton":{"key":"18","code":"GR","name":"Graubünden / Grigioni / Grischun"},"status":"Real"},{"key":"10173625","name":"Rainweg","postalCode":"7050","locality":"Arosa","commune":{"key":"3921","name":"Arosa","shortName":"Arosa"},"district":{"key":"1848","name":"Region Plessur"},"canton":{"key":"18","code":"GR","name":"Graubünden / Grigioni / Grischun"},"status":"Real"},{"key":"10038230","name":"Ringstrasse","postalCode":"7050","locality":"Arosa","commune":{"key":"3921","name":"Arosa","shortName":"Arosa"},"district":{"key":"1848","name":"Region Plessur"},"canton":{"key":"18","code":"GR","name":"Graubünden / Grigioni / Grischun"},"status":"Real"},{"key":"10123801","name":"Rütiweg","postalCode":"7050","locality":"Arosa","commune":{"key":"3921","name":"Arosa","shortName":"Arosa"},"district":{"key":"1848","name":"Region Plessur"},"canton":{"key":"18","code":"GR","name":"Graubünden / Grigioni / Grischun"},"status":"Real"},{"key":"10210520","name":"Schmidsch-Hus-Weg","postalCode":"7050","locality":"Arosa","commune":{"key":"3921","name":"Arosa","shortName":"Arosa"},"district":{"key":"1848","name":"Region Plessur"},"canton":{"key":"18","code":"GR","name":"Graubünden / Grigioni / Grischun"},"status":"Real"},{"key":"10094281","name":"Schmittaweg","postalCode":"7050","locality":"Arosa","commune":{"key":"3921","name":"Arosa","shortName":"Arosa"},"district":{"key":"1848","name":"Region Plessur"},"canton":{"key":"18","code":"GR","name":"Graubünden / Grigioni / Grischun"},"status":"Real"},{"key":"10077248","name":"Schulhausstrasse","postalCode":"7050","locality":"Arosa","commune":{"key":"3921","name":"Arosa","shortName":"Arosa"},"district":{"key":"1848","name":"Region Plessur"},"canton":{"key":"18","code":"GR","name":"Graubünden / Grigioni / Grischun"},"status":"Real"},{"key":"10247419","name":"Schulhausweg","postalCode":"7050","locality":"Arosa","commune":{"key":"3921","name":"Arosa","shortName":"Arosa"},"district":{"key":"1848","name":"Region Plessur"},"canton":{"key":"18","code":"GR","name":"Graubünden / Grigioni / Grischun"},"status":"Real"},{"key":"10131934","name":"Schwelliseestrasse","postalCode":"7050","locality":"Arosa","commune":{"key":"3921","name":"Arosa","shortName":"Arosa"},"district":{"key":"1848","name":"Region Plessur"},"canton":{"key":"18","code":"GR","name":"Graubünden / Grigioni / Grischun"},"status":"Real"},{"key":"10094282","name":"Seeblickstrasse","postalCode":"7050","locality":"Arosa","commune":{"key":"3921","name":"Arosa","shortName":"Arosa"},"district":{"key":"1848","name":"Region Plessur"},"canton":{"key":"18","code":"GR","name":"Graubünden / Grigioni / Grischun"},"status":"Real"},{"key":"10210461","name":"Seeblickweg","postalCode":"7050","locality":"Arosa","commune":{"key":"3921","name":"Arosa","shortName":"Arosa"},"district":{"key":"1848","name":"Region Plessur"},"canton":{"key":"18","code":"GR","name":"Graubünden / Grigioni / Grischun"},"status":"Real"},{"key":"10038234","name":"See-Egg-Weg","postalCode":"7050","locality":"Arosa","commune":{"key":"3921","name":"Arosa","shortName":"Arosa"},"district":{"key":"1848","name":"Region Plessur"},"canton":{"key":"18","code":"GR","name":"Graubünden / Grigioni / Grischun"},"status":"Real"},{"key":"10210467","name":"Seegruobaweg","postalCode":"7050","locality":"Arosa","commune":{"key":"3921","name":"Arosa","shortName":"Arosa"},"district":{"key":"1848","name":"Region Plessur"},"canton":{"key":"18","code":"GR","name":"Graubünden / Grigioni / Grischun"},"status":"Real"},{"key":"10038236","name":"Seehaldaweg","postalCode":"7050","locality":"Arosa","commune":{"key":"3921","name":"Arosa","shortName":"Arosa"},"district":{"key":"1848","name":"Region Plessur"},"canton":{"key":"18","code":"GR","name":"Graubünden / Grigioni / Grischun"},"status":"Real"},{"key":"10210471","name":"Seewaldstrasse","postalCode":"7050","locality":"Arosa","commune":{"key":"3921","name":"Arosa","shortName":"Arosa"},"district":{"key":"1848","name":"Region Plessur"},"canton":{"key":"18","code":"GR","name":"Graubünden / Grigioni / Grischun"},"status":"Real"},{"key":"10216212","name":"Seewaldweg","postalCode":"7050","locality":"Arosa","commune":{"key":"3921","name":"Arosa","shortName":"Arosa"},"district":{"key":"1848","name":"Region Plessur"},"canton":{"key":"18","code":"GR","name":"Graubünden / Grigioni / Grischun"},"status":"Real"},{"key":"10077250","name":"Sonnenbergstrasse","postalCode":"7050","locality":"Arosa","commune":{"key":"3921","name":"Arosa","shortName":"Arosa"},"district":{"key":"1848","name":"Region Plessur"},"canton":{"key":"18","code":"GR","name":"Graubünden / Grigioni / Grischun"},"status":"Real"},{"key":"10131947","name":"Tomelistrasse","postalCode":"7050","locality":"Arosa","commune":{"key":"3921","name":"Arosa","shortName":"Arosa"},"district":{"key":"1848","name":"Region Plessur"},"canton":{"key":"18","code":"GR","name":"Graubünden / Grigioni / Grischun"},"status":"Real"},{"key":"10210477","name":"Tschuggentorweg","postalCode":"7050","locality":"Arosa","commune":{"key":"3921","name":"Arosa","shortName":"Arosa"},"district":{"key":"1848","name":"Region Plessur"},"canton":{"key":"18","code":"GR","name":"Graubünden / Grigioni / Grischun"},"status":"Real"},{"key":"10038238","name":"Untere Waldpromenade","postalCode":"7050","locality":"Arosa","commune":{"key":"3921","name":"Arosa","shortName":"Arosa"},"district":{"key":"1848","name":"Region Plessur"},"canton":{"key":"18","code":"GR","name":"Graubünden / Grigioni / Grischun"},"status":"Real"},{"key":"10094284","name":"Unterseestrasse","postalCode":"7050","locality":"Arosa","commune":{"key":"3921","name":"Arosa","shortName":"Arosa"},"district":{"key":"1848","name":"Region Plessur"},"canton":{"key":"18","code":"GR","name":"Graubünden / Grigioni / Grischun"},"status":"Real"},{"key":"10210509","name":"Viktoriastrasse","postalCode":"7050","locality":"Arosa","commune":{"key":"3921","name":"Arosa","shortName":"Arosa"},"district":{"key":"1848","name":"Region Plessur"},"canton":{"key":"18","code":"GR","name":"Graubünden / Grigioni / Grischun"},"status":"Real"},{"key":"10188618","name":"Waldstrasse","postalCode":"7050","locality":"Arosa","commune":{"key":"3921","name":"Arosa","shortName":"Arosa"},"district":{"key":"1848","name":"Region Plessur"},"canton":{"key":"18","code":"GR","name":"Graubünden / Grigioni / Grischun"},"status":"Real"},{"key":"10111890","name":"Waldwinkelweg","postalCode":"7050","locality":"Arosa","commune":{"key":"3921","name":"Arosa","shortName":"Arosa"},"district":{"key":"1848","name":"Region Plessur"},"canton":{"key":"18","code":"GR","name":"Graubünden / Grigioni / Grischun"},"status":"Real"},{"key":"10131937","name":"Wätterlüggastrasse","postalCode":"7050","locality":"Arosa","commune":{"key":"3921","name":"Arosa","shortName":"Arosa"},"district":{"key":"1848","name":"Region Plessur"},"canton":{"key":"18","code":"GR","name":"Graubünden / Grigioni / Grischun"},"status":"Real"},{"key":"10210513","name":"Wätterweid A","postalCode":"7050","locality":"Arosa","commune":{"key":"3921","name":"Arosa","shortName":"Arosa"},"district":{"key":"1848","name":"Region Plessur"},"canton":{"key":"18","code":"GR","name":"Graubünden / Grigioni / Grischun"},"status":"Real"},{"key":"10210516","name":"Wätterweid B","postalCode":"7050","locality":"Arosa","commune":{"key":"3921","name":"Arosa","shortName":"Arosa"},"district":{"key":"1848","name":"Region Plessur"},"canton":{"key":"18","code":"GR","name":"Graubünden / Grigioni / Grischun"},"status":"Real"},{"key":"10144703","name":"Wätterweidweg","postalCode":"7050","locality":"Arosa","commune":{"key":"3921","name":"Arosa","shortName":"Arosa"},"district":{"key":"1848","name":"Region Plessur"},"canton":{"key":"18","code":"GR","name":"Graubünden / Grigioni / Grischun"},"status":"Real"},]