[{"name":"Amselweg","postalCode":"56587","locality":"Oberhonnefeld-Gierend","municipality":{"key":"07138053","name":"Oberhonnefeld-Gierend","type":"Kreisangehörige_Gemeinde"},"district":{"key":"07138","name":"Neuwied","type":"Landkreis"},"federalState":{"key":"07","name":"Rheinland-Pfalz"}},{"name":"Arnikaweg","postalCode":"56587","locality":"Oberhonnefeld-Gierend","municipality":{"key":"07138053","name":"Oberhonnefeld-Gierend","type":"Kreisangehörige_Gemeinde"},"district":{"key":"07138","name":"Neuwied","type":"Landkreis"},"federalState":{"key":"07","name":"Rheinland-Pfalz"}},{"name":"Auf dem Höhchen","postalCode":"56587","locality":"Oberhonnefeld-Gierend","municipality":{"key":"07138053","name":"Oberhonnefeld-Gierend","type":"Kreisangehörige_Gemeinde"},"district":{"key":"07138","name":"Neuwied","type":"Landkreis"},"federalState":{"key":"07","name":"Rheinland-Pfalz"}},{"name":"Bergstr.","postalCode":"56587","locality":"Oberhonnefeld-Gierend","municipality":{"key":"07138053","name":"Oberhonnefeld-Gierend","type":"Kreisangehörige_Gemeinde"},"district":{"key":"07138","name":"Neuwied","type":"Landkreis"},"federalState":{"key":"07","name":"Rheinland-Pfalz"}},{"name":"Calvinstr.","postalCode":"56567","locality":"Neuwied","municipality":{"key":"07138045","name":"Neuwied, Stadt","type":"Stadt"},"district":{"key":"07138","name":"Neuwied","type":"Landkreis"},"federalState":{"key":"07","name":"Rheinland-Pfalz"}},{"name":"Capybaras","postalCode":"56566","locality":"Neuwied","municipality":{"key":"07138045","name":"Neuwied, Stadt","type":"Stadt"},"district":{"key":"07138","name":"Neuwied","type":"Landkreis"},"federalState":{"key":"07","name":"Rheinland-Pfalz"}},{"name":"Carmen-Sylva-Garten","postalCode":"56564","locality":"Neuwied","municipality":{"key":"07138045","name":"Neuwied, Stadt","type":"Stadt"},"district":{"key":"07138","name":"Neuwied","type":"Landkreis"},"federalState":{"key":"07","name":"Rheinland-Pfalz"}},{"name":"Cheruskerstr.","postalCode":"56567","locality":"Neuwied","municipality":{"key":"07138045","name":"Neuwied, Stadt","type":"Stadt"},"district":{"key":"07138","name":"Neuwied","type":"Landkreis"},"federalState":{"key":"07","name":"Rheinland-Pfalz"}},{"name":"Clemensstr.","postalCode":"56566","locality":"Neuwied","municipality":{"key":"07138045","name":"Neuwied, Stadt","type":"Stadt"},"district":{"key":"07138","name":"Neuwied","type":"Landkreis"},"federalState":{"key":"07","name":"Rheinland-Pfalz"}},{"name":"Cranachstr.","postalCode":"56566","locality":"Neuwied","municipality":{"key":"07138045","name":"Neuwied, Stadt","type":"Stadt"},"district":{"key":"07138","name":"Neuwied","type":"Landkreis"},"federalState":{"key":"07","name":"Rheinland-Pfalz"}},{"name":"Dorfstr.","postalCode":"56587","locality":"Oberhonnefeld-Gierend","municipality":{"key":"07138053","name":"Oberhonnefeld-Gierend","type":"Kreisangehörige_Gemeinde"},"district":{"key":"07138","name":"Neuwied","type":"Landkreis"},"federalState":{"key":"07","name":"Rheinland-Pfalz"}},{"name":"Drosselweg","postalCode":"56587","locality":"Oberhonnefeld-Gierend","municipality":{"key":"07138053","name":"Oberhonnefeld-Gierend","type":"Kreisangehörige_Gemeinde"},"district":{"key":"07138","name":"Neuwied","type":"Landkreis"},"federalState":{"key":"07","name":"Rheinland-Pfalz"}},{"name":"Erlenstr.","postalCode":"56587","locality":"Oberhonnefeld-Gierend","municipality":{"key":"07138053","name":"Oberhonnefeld-Gierend","type":"Kreisangehörige_Gemeinde"},"district":{"key":"07138","name":"Neuwied","type":"Landkreis"},"federalState":{"key":"07","name":"Rheinland-Pfalz"}},{"name":"Fenchelweg","postalCode":"56587","locality":"Oberhonnefeld-Gierend","municipality":{"key":"07138053","name":"Oberhonnefeld-Gierend","type":"Kreisangehörige_Gemeinde"},"district":{"key":"07138","name":"Neuwied","type":"Landkreis"},"federalState":{"key":"07","name":"Rheinland-Pfalz"}},{"name":"Finkenweg","postalCode":"56587","locality":"Oberhonnefeld-Gierend","municipality":{"key":"07138053","name":"Oberhonnefeld-Gierend","type":"Kreisangehörige_Gemeinde"},"district":{"key":"07138","name":"Neuwied","type":"Landkreis"},"federalState":{"key":"07","name":"Rheinland-Pfalz"}},{"name":"Gartenstr.","postalCode":"56587","locality":"Oberhonnefeld-Gierend","municipality":{"key":"07138053","name":"Oberhonnefeld-Gierend","type":"Kreisangehörige_Gemeinde"},"district":{"key":"07138","name":"Neuwied","type":"Landkreis"},"federalState":{"key":"07","name":"Rheinland-Pfalz"}},{"name":"Hauptstr.","postalCode":"56587","locality":"Oberhonnefeld-Gierend","municipality":{"key":"07138053","name":"Oberhonnefeld-Gierend","type":"Kreisangehörige_Gemeinde"},"district":{"key":"07138","name":"Neuwied","type":"Landkreis"},"federalState":{"key":"07","name":"Rheinland-Pfalz"}},{"name":"Höhenweg","postalCode":"56587","locality":"Oberhonnefeld-Gierend","municipality":{"key":"07138053","name":"Oberhonnefeld-Gierend","type":"Kreisangehörige_Gemeinde"},"district":{"key":"07138","name":"Neuwied","type":"Landkreis"},"federalState":{"key":"07","name":"Rheinland-Pfalz"}},{"name":"Ignatz-van-Roje-Platz","postalCode":"56587","locality":"Oberhonnefeld-Gierend","municipality":{"key":"07138053","name":"Oberhonnefeld-Gierend","type":"Kreisangehörige_Gemeinde"},"district":{"key":"07138","name":"Neuwied","type":"Landkreis"},"federalState":{"key":"07","name":"Rheinland-Pfalz"}},{"name":"Johanniskrautweg","postalCode":"56587","locality":"Oberhonnefeld-Gierend","municipality":{"key":"07138053","name":"Oberhonnefeld-Gierend","type":"Kreisangehörige_Gemeinde"},"district":{"key":"07138","name":"Neuwied","type":"Landkreis"},"federalState":{"key":"07","name":"Rheinland-Pfalz"}},{"name":"Kirchstr.","postalCode":"56587","locality":"Oberhonnefeld-Gierend","municipality":{"key":"07138053","name":"Oberhonnefeld-Gierend","type":"Kreisangehörige_Gemeinde"},"district":{"key":"07138","name":"Neuwied","type":"Landkreis"},"federalState":{"key":"07","name":"Rheinland-Pfalz"}},{"name":"Lavendelweg","postalCode":"56587","locality":"Oberhonnefeld-Gierend","municipality":{"key":"07138053","name":"Oberhonnefeld-Gierend","type":"Kreisangehörige_Gemeinde"},"district":{"key":"07138","name":"Neuwied","type":"Landkreis"},"federalState":{"key":"07","name":"Rheinland-Pfalz"}},{"name":"Löwenzahnweg","postalCode":"56587","locality":"Oberhonnefeld-Gierend","municipality":{"key":"07138053","name":"Oberhonnefeld-Gierend","type":"Kreisangehörige_Gemeinde"},"district":{"key":"07138","name":"Neuwied","type":"Landkreis"},"federalState":{"key":"07","name":"Rheinland-Pfalz"}},{"name":"Mainzer Str.","postalCode":"56566","locality":"Neuwied","municipality":{"key":"07138045","name":"Neuwied, Stadt","type":"Stadt"},"district":{"key":"07138","name":"Neuwied","type":"Landkreis"},"federalState":{"key":"07","name":"Rheinland-Pfalz"}},{"name":"Manule","postalCode":"56566","locality":"Neuwied","municipality":{"key":"07138045","name":"Neuwied, Stadt","type":"Stadt"},"district":{"key":"07138","name":"Neuwied","type":"Landkreis"},"federalState":{"key":"07","name":"Rheinland-Pfalz"}},{"name":"Marabus","postalCode":"56566","locality":"Neuwied","municipality":{"key":"07138045","name":"Neuwied, Stadt","type":"Stadt"},"district":{"key":"07138","name":"Neuwied","type":"Landkreis"},"federalState":{"key":"07","name":"Rheinland-Pfalz"}},{"name":"Marc-Chagall-Str.","postalCode":"56566","locality":"Neuwied","municipality":{"key":"07138045","name":"Neuwied, Stadt","type":"Stadt"},"district":{"key":"07138","name":"Neuwied","type":"Landkreis"},"federalState":{"key":"07","name":"Rheinland-Pfalz"}},{"name":"Margarethenstr.","postalCode":"56566","locality":"Neuwied","municipality":{"key":"07138045","name":"Neuwied, Stadt","type":"Stadt"},"district":{"key":"07138","name":"Neuwied","type":"Landkreis"},"federalState":{"key":"07","name":"Rheinland-Pfalz"}},{"name":"Marienborn","postalCode":"56567","locality":"Neuwied","municipality":{"key":"07138045","name":"Neuwied, Stadt","type":"Stadt"},"district":{"key":"07138","name":"Neuwied","type":"Landkreis"},"federalState":{"key":"07","name":"Rheinland-Pfalz"}},{"name":"Marienstr.","postalCode":"56567","locality":"Neuwied","municipality":{"key":"07138045","name":"Neuwied, Stadt","type":"Stadt"},"district":{"key":"07138","name":"Neuwied","type":"Landkreis"},"federalState":{"key":"07","name":"Rheinland-Pfalz"}},{"name":"Markenweg","postalCode":"56566","locality":"Neuwied","municipality":{"key":"07138045","name":"Neuwied, Stadt","type":"Stadt"},"district":{"key":"07138","name":"Neuwied","type":"Landkreis"},"federalState":{"key":"07","name":"Rheinland-Pfalz"}},{"name":"Märkerwaldstr.","postalCode":"56566","locality":"Neuwied","municipality":{"key":"07138045","name":"Neuwied, Stadt","type":"Stadt"},"district":{"key":"07138","name":"Neuwied","type":"Landkreis"},"federalState":{"key":"07","name":"Rheinland-Pfalz"}},{"name":"Marktstr.","postalCode":"56564","locality":"Neuwied","municipality":{"key":"07138045","name":"Neuwied, Stadt","type":"Stadt"},"district":{"key":"07138","name":"Neuwied","type":"Landkreis"},"federalState":{"key":"07","name":"Rheinland-Pfalz"}},{"name":"Marsstr.","postalCode":"56566","locality":"Neuwied","municipality":{"key":"07138045","name":"Neuwied, Stadt","type":"Stadt"},"district":{"key":"07138","name":"Neuwied","type":"Landkreis"},"federalState":{"key":"07","name":"Rheinland-Pfalz"}},{"name":"Martin-Luther-Str.","postalCode":"56567","locality":"Neuwied","municipality":{"key":"07138045","name":"Neuwied, Stadt","type":"Stadt"},"district":{"key":"07138","name":"Neuwied","type":"Landkreis"},"federalState":{"key":"07","name":"Rheinland-Pfalz"}},{"name":"Martinskirchstr.","postalCode":"56566","locality":"Neuwied","municipality":{"key":"07138045","name":"Neuwied, Stadt","type":"Stadt"},"district":{"key":"07138","name":"Neuwied","type":"Landkreis"},"federalState":{"key":"07","name":"Rheinland-Pfalz"}},{"name":"Martinstr.","postalCode":"56567","locality":"Neuwied","municipality":{"key":"07138045","name":"Neuwied, Stadt","type":"Stadt"},"district":{"key":"07138","name":"Neuwied","type":"Landkreis"},"federalState":{"key":"07","name":"Rheinland-Pfalz"}},{"name":"Masurenstr.","postalCode":"56567","locality":"Neuwied","municipality":{"key":"07138045","name":"Neuwied, Stadt","type":"Stadt"},"district":{"key":"07138","name":"Neuwied","type":"Landkreis"},"federalState":{"key":"07","name":"Rheinland-Pfalz"}},{"name":"Matthiasberg","postalCode":"56564","locality":"Neuwied","municipality":{"key":"07138045","name":"Neuwied, Stadt","type":"Stadt"},"district":{"key":"07138","name":"Neuwied","type":"Landkreis"},"federalState":{"key":"07","name":"Rheinland-Pfalz"}},{"name":"Matthias-Erzberger-Str.","postalCode":"56564","locality":"Neuwied","municipality":{"key":"07138045","name":"Neuwied, Stadt","type":"Stadt"},"district":{"key":"07138","name":"Neuwied","type":"Landkreis"},"federalState":{"key":"07","name":"Rheinland-Pfalz"}},{"name":"Max-Dünnebier-Str.","postalCode":"56567","locality":"Neuwied","municipality":{"key":"07138045","name":"Neuwied, Stadt","type":"Stadt"},"district":{"key":"07138","name":"Neuwied","type":"Landkreis"},"federalState":{"key":"07","name":"Rheinland-Pfalz"}},{"name":"Max-Ernst-Str.","postalCode":"56566","locality":"Neuwied","municipality":{"key":"07138045","name":"Neuwied, Stadt","type":"Stadt"},"district":{"key":"07138","name":"Neuwied","type":"Landkreis"},"federalState":{"key":"07","name":"Rheinland-Pfalz"}},{"name":"Max-Planck-Str.","postalCode":"56566","locality":"Neuwied","municipality":{"key":"07138045","name":"Neuwied, Stadt","type":"Stadt"},"district":{"key":"07138","name":"Neuwied","type":"Landkreis"},"federalState":{"key":"07","name":"Rheinland-Pfalz"}},{"name":"Mecklenburgstr.","postalCode":"56567","locality":"Neuwied","municipality":{"key":"07138045","name":"Neuwied, Stadt","type":"Stadt"},"district":{"key":"07138","name":"Neuwied","type":"Landkreis"},"federalState":{"key":"07","name":"Rheinland-Pfalz"}},{"name":"Meerheck","postalCode":"56566","locality":"Neuwied","municipality":{"key":"07138045","name":"Neuwied, Stadt","type":"Stadt"},"district":{"key":"07138","name":"Neuwied","type":"Landkreis"},"federalState":{"key":"07","name":"Rheinland-Pfalz"}},{"name":"Meerpfad","postalCode":"56566","locality":"Neuwied","municipality":{"key":"07138045","name":"Neuwied, Stadt","type":"Stadt"},"district":{"key":"07138","name":"Neuwied","type":"Landkreis"},"federalState":{"key":"07","name":"Rheinland-Pfalz"}},{"name":"Meisenweg","postalCode":"56564","locality":"Neuwied","municipality":{"key":"07138045","name":"Neuwied, Stadt","type":"Stadt"},"district":{"key":"07138","name":"Neuwied","type":"Landkreis"},"federalState":{"key":"07","name":"Rheinland-Pfalz"}},{"name":"Melanchthonstr.","postalCode":"56567","locality":"Neuwied","municipality":{"key":"07138045","name":"Neuwied, Stadt","type":"Stadt"},"district":{"key":"07138","name":"Neuwied","type":"Landkreis"},"federalState":{"key":"07","name":"Rheinland-Pfalz"}},{"name":"Melsbacher Str.","postalCode":"56567","locality":"Neuwied","municipality":{"key":"07138045","name":"Neuwied, Stadt","type":"Stadt"},"district":{"key":"07138","name":"Neuwied","type":"Landkreis"},"federalState":{"key":"07","name":"Rheinland-Pfalz"}},{"name":"Memelstr.","postalCode":"56566","locality":"Neuwied","municipality":{"key":"07138045","name":"Neuwied, Stadt","type":"Stadt"},"district":{"key":"07138","name":"Neuwied","type":"Landkreis"},"federalState":{"key":"07","name":"Rheinland-Pfalz"}},{"name":"Mennonitenstr.","postalCode":"56567","locality":"Neuwied","municipality":{"key":"07138045","name":"Neuwied, Stadt","type":"Stadt"},"district":{"key":"07138","name":"Neuwied","type":"Landkreis"},"federalState":{"key":"07","name":"Rheinland-Pfalz"}},{"name":"Menschenaffen","postalCode":"56566","locality":"Neuwied","municipality":{"key":"07138045","name":"Neuwied, Stadt","type":"Stadt"},"district":{"key":"07138","name":"Neuwied","type":"Landkreis"},"federalState":{"key":"07","name":"Rheinland-Pfalz"}},{"name":"Merkurstr.","postalCode":"56566","locality":"Neuwied","municipality":{"key":"07138045","name":"Neuwied, Stadt","type":"Stadt"},"district":{"key":"07138","name":"Neuwied","type":"Landkreis"},"federalState":{"key":"07","name":"Rheinland-Pfalz"}},{"name":"Merowingerstr.","postalCode":"56567","locality":"Neuwied","municipality":{"key":"07138045","name":"Neuwied, Stadt","type":"Stadt"},"district":{"key":"07138","name":"Neuwied","type":"Landkreis"},"federalState":{"key":"07","name":"Rheinland-Pfalz"}},{"name":"Michael-Ende-Str.","postalCode":"56564","locality":"Neuwied","municipality":{"key":"07138045","name":"Neuwied, Stadt","type":"Stadt"},"district":{"key":"07138","name":"Neuwied","type":"Landkreis"},"federalState":{"key":"07","name":"Rheinland-Pfalz"}},{"name":"Michaelstr.","postalCode":"56567","locality":"Neuwied","municipality":{"key":"07138045","name":"Neuwied, Stadt","type":"Stadt"},"district":{"key":"07138","name":"Neuwied","type":"Landkreis"},"federalState":{"key":"07","name":"Rheinland-Pfalz"}},{"name":"Mittelstr.","postalCode":"56564","locality":"Neuwied","municipality":{"key":"07138045","name":"Neuwied, Stadt","type":"Stadt"},"district":{"key":"07138","name":"Neuwied","type":"Landkreis"},"federalState":{"key":"07","name":"Rheinland-Pfalz"}},{"name":"Mittelweg","postalCode":"56566","locality":"Neuwied","municipality":{"key":"07138045","name":"Neuwied, Stadt","type":"Stadt"},"district":{"key":"07138","name":"Neuwied","type":"Landkreis"},"federalState":{"key":"07","name":"Rheinland-Pfalz"}},{"name":"Mohnweg","postalCode":"56566","locality":"Neuwied","municipality":{"key":"07138045","name":"Neuwied, Stadt","type":"Stadt"},"district":{"key":"07138","name":"Neuwied","type":"Landkreis"},"federalState":{"key":"07","name":"Rheinland-Pfalz"}},{"name":"Mondweg","postalCode":"56564","locality":"Neuwied","municipality":{"key":"07138045","name":"Neuwied, Stadt","type":"Stadt"},"district":{"key":"07138","name":"Neuwied","type":"Landkreis"},"federalState":{"key":"07","name":"Rheinland-Pfalz"}},{"name":"Monrepos","postalCode":"56567","locality":"Neuwied","municipality":{"key":"07138045","name":"Neuwied, Stadt","type":"Stadt"},"district":{"key":"07138","name":"Neuwied","type":"Landkreis"},"federalState":{"key":"07","name":"Rheinland-Pfalz"}},{"name":"Monreposstr.","postalCode":"56567","locality":"Neuwied","municipality":{"key":"07138045","name":"Neuwied, Stadt","type":"Stadt"},"district":{"key":"07138","name":"Neuwied","type":"Landkreis"},"federalState":{"key":"07","name":"Rheinland-Pfalz"}},{"name":"Moselstr.","postalCode":"56567","locality":"Neuwied","municipality":{"key":"07138045","name":"Neuwied, Stadt","type":"Stadt"},"district":{"key":"07138","name":"Neuwied","type":"Landkreis"},"federalState":{"key":"07","name":"Rheinland-Pfalz"}},{"name":"Mozartstr.","postalCode":"56566","locality":"Neuwied","municipality":{"key":"07138045","name":"Neuwied, Stadt","type":"Stadt"},"district":{"key":"07138","name":"Neuwied","type":"Landkreis"},"federalState":{"key":"07","name":"Rheinland-Pfalz"}},{"name":"Mühlenweg","postalCode":"56567","locality":"Neuwied","municipality":{"key":"07138045","name":"Neuwied, Stadt","type":"Stadt"},"district":{"key":"07138","name":"Neuwied","type":"Landkreis"},"federalState":{"key":"07","name":"Rheinland-Pfalz"}},{"name":"Mühlwerthstr.","postalCode":"56567","locality":"Neuwied","municipality":{"key":"07138045","name":"Neuwied, Stadt","type":"Stadt"},"district":{"key":"07138","name":"Neuwied","type":"Landkreis"},"federalState":{"key":"07","name":"Rheinland-Pfalz"}},{"name":"Mülhofener Str.","postalCode":"56566","locality":"Neuwied","municipality":{"key":"07138045","name":"Neuwied, Stadt","type":"Stadt"},"district":{"key":"07138","name":"Neuwied","type":"Landkreis"},"federalState":{"key":"07","name":"Rheinland-Pfalz"}},{"name":"Müllergasse","postalCode":"56566","locality":"Neuwied","municipality":{"key":"07138045","name":"Neuwied, Stadt","type":"Stadt"},"district":{"key":"07138","name":"Neuwied","type":"Landkreis"},"federalState":{"key":"07","name":"Rheinland-Pfalz"}},{"name":"Münchenpfad","postalCode":"56566","locality":"Neuwied","municipality":{"key":"07138045","name":"Neuwied, Stadt","type":"Stadt"},"district":{"key":"07138","name":"Neuwied","type":"Landkreis"},"federalState":{"key":"07","name":"Rheinland-Pfalz"}},{"name":"Museumstr.","postalCode":"56564","locality":"Neuwied","municipality":{"key":"07138045","name":"Neuwied, Stadt","type":"Stadt"},"district":{"key":"07138","name":"Neuwied","type":"Landkreis"},"federalState":{"key":"07","name":"Rheinland-Pfalz"}},{"name":"Nachtigallenweg","postalCode":"56564","locality":"Neuwied","municipality":{"key":"07138045","name":"Neuwied, Stadt","type":"Stadt"},"district":{"key":"07138","name":"Neuwied","type":"Landkreis"},"federalState":{"key":"07","name":"Rheinland-Pfalz"}},{"name":"Nagelgasse","postalCode":"56564","locality":"Neuwied","municipality":{"key":"07138045","name":"Neuwied, Stadt","type":"Stadt"},"district":{"key":"07138","name":"Neuwied","type":"Landkreis"},"federalState":{"key":"07","name":"Rheinland-Pfalz"}},{"name":"Nahestr.","postalCode":"56567","locality":"Neuwied","municipality":{"key":"07138045","name":"Neuwied, Stadt","type":"Stadt"},"district":{"key":"07138","name":"Neuwied","type":"Landkreis"},"federalState":{"key":"07","name":"Rheinland-Pfalz"}},{"name":"Narzissenweg","postalCode":"56566","locality":"Neuwied","municipality":{"key":"07138045","name":"Neuwied, Stadt","type":"Stadt"},"district":{"key":"07138","name":"Neuwied","type":"Landkreis"},"federalState":{"key":"07","name":"Rheinland-Pfalz"}},{"name":"Nelkengarten","postalCode":"56564","locality":"Neuwied","municipality":{"key":"07138045","name":"Neuwied, Stadt","type":"Stadt"},"district":{"key":"07138","name":"Neuwied","type":"Landkreis"},"federalState":{"key":"07","name":"Rheinland-Pfalz"}},{"name":"Neptunstr.","postalCode":"56566","locality":"Neuwied","municipality":{"key":"07138045","name":"Neuwied, Stadt","type":"Stadt"},"district":{"key":"07138","name":"Neuwied","type":"Landkreis"},"federalState":{"key":"07","name":"Rheinland-Pfalz"}},{"name":"Neuer Weg","postalCode":"56567","locality":"Neuwied","municipality":{"key":"07138045","name":"Neuwied, Stadt","type":"Stadt"},"district":{"key":"07138","name":"Neuwied","type":"Landkreis"},"federalState":{"key":"07","name":"Rheinland-Pfalz"}},{"name":"Neue Wilhelmstr.","postalCode":"56566","locality":"Neuwied","municipality":{"key":"07138045","name":"Neuwied, Stadt","type":"Stadt"},"district":{"key":"07138","name":"Neuwied","type":"Landkreis"},"federalState":{"key":"07","name":"Rheinland-Pfalz"}},{"name":"Neuwieder Str.","postalCode":"56566","locality":"Neuwied","municipality":{"key":"07138045","name":"Neuwied, Stadt","type":"Stadt"},"district":{"key":"07138","name":"Neuwied","type":"Landkreis"},"federalState":{"key":"07","name":"Rheinland-Pfalz"}},{"name":"Neuwiesenweg","postalCode":"56566","locality":"Neuwied","municipality":{"key":"07138045","name":"Neuwied, Stadt","type":"Stadt"},"district":{"key":"07138","name":"Neuwied","type":"Landkreis"},"federalState":{"key":"07","name":"Rheinland-Pfalz"}},{"name":"Niederbieberer Str.","postalCode":"56567","locality":"Neuwied","municipality":{"key":"07138045","name":"Neuwied, Stadt","type":"Stadt"},"district":{"key":"07138","name":"Neuwied","type":"Landkreis"},"federalState":{"key":"07","name":"Rheinland-Pfalz"}},{"name":"Nikolaus-Ehlen-Str.","postalCode":"56566","locality":"Neuwied","municipality":{"key":"07138045","name":"Neuwied, Stadt","type":"Stadt"},"district":{"key":"07138","name":"Neuwied","type":"Landkreis"},"federalState":{"key":"07","name":"Rheinland-Pfalz"}},{"name":"Nobelstr.","postalCode":"56566","locality":"Neuwied","municipality":{"key":"07138045","name":"Neuwied, Stadt","type":"Stadt"},"district":{"key":"07138","name":"Neuwied","type":"Landkreis"},"federalState":{"key":"07","name":"Rheinland-Pfalz"}},{"name":"Nodhausen","postalCode":"56567","locality":"Neuwied","municipality":{"key":"07138045","name":"Neuwied, Stadt","type":"Stadt"},"district":{"key":"07138","name":"Neuwied","type":"Landkreis"},"federalState":{"key":"07","name":"Rheinland-Pfalz"}},{"name":"Nodhausener Str.","postalCode":"56567","locality":"Neuwied","municipality":{"key":"07138045","name":"Neuwied, Stadt","type":"Stadt"},"district":{"key":"07138","name":"Neuwied","type":"Landkreis"},"federalState":{"key":"07","name":"Rheinland-Pfalz"}},{"name":"Nonnenpfad","postalCode":"56567","locality":"Neuwied","municipality":{"key":"07138045","name":"Neuwied, Stadt","type":"Stadt"},"district":{"key":"07138","name":"Neuwied","type":"Landkreis"},"federalState":{"key":"07","name":"Rheinland-Pfalz"}},{"name":"Nordsteg","postalCode":"56567","locality":"Neuwied","municipality":{"key":"07138045","name":"Neuwied, Stadt","type":"Stadt"},"district":{"key":"07138","name":"Neuwied","type":"Landkreis"},"federalState":{"key":"07","name":"Rheinland-Pfalz"}},{"name":"Oberdorfstr.","postalCode":"56587","locality":"Oberhonnefeld-Gierend","municipality":{"key":"07138053","name":"Oberhonnefeld-Gierend","type":"Kreisangehörige_Gemeinde"},"district":{"key":"07138","name":"Neuwied","type":"Landkreis"},"federalState":{"key":"07","name":"Rheinland-Pfalz"}},{"name":"Pablo-Picasso-Str.","postalCode":"56566","locality":"Neuwied","municipality":{"key":"07138045","name":"Neuwied, Stadt","type":"Stadt"},"district":{"key":"07138","name":"Neuwied","type":"Landkreis"},"federalState":{"key":"07","name":"Rheinland-Pfalz"}},{"name":"Papageien","postalCode":"56566","locality":"Neuwied","municipality":{"key":"07138045","name":"Neuwied, Stadt","type":"Stadt"},"district":{"key":"07138","name":"Neuwied","type":"Landkreis"},"federalState":{"key":"07","name":"Rheinland-Pfalz"}},{"name":"Paradieskraniche","postalCode":"56566","locality":"Neuwied","municipality":{"key":"07138045","name":"Neuwied, Stadt","type":"Stadt"},"district":{"key":"07138","name":"Neuwied","type":"Landkreis"},"federalState":{"key":"07","name":"Rheinland-Pfalz"}},{"name":"Parkstr.","postalCode":"56566","locality":"Neuwied","municipality":{"key":"07138045","name":"Neuwied, Stadt","type":"Stadt"},"district":{"key":"07138","name":"Neuwied","type":"Landkreis"},"federalState":{"key":"07","name":"Rheinland-Pfalz"}},{"name":"Pasteurstr.","postalCode":"56566","locality":"Neuwied","municipality":{"key":"07138045","name":"Neuwied, Stadt","type":"Stadt"},"district":{"key":"07138","name":"Neuwied","type":"Landkreis"},"federalState":{"key":"07","name":"Rheinland-Pfalz"}},{"name":"Pastor-Weber-Str.","postalCode":"56567","locality":"Neuwied","municipality":{"key":"07138045","name":"Neuwied, Stadt","type":"Stadt"},"district":{"key":"07138","name":"Neuwied","type":"Landkreis"},"federalState":{"key":"07","name":"Rheinland-Pfalz"}},{"name":"Paul-Gerhardt-Str.","postalCode":"56567","locality":"Neuwied","municipality":{"key":"07138045","name":"Neuwied, Stadt","type":"Stadt"},"district":{"key":"07138","name":"Neuwied","type":"Landkreis"},"federalState":{"key":"07","name":"Rheinland-Pfalz"}},{"name":"Paul-Klee-Str.","postalCode":"56566","locality":"Neuwied","municipality":{"key":"07138045","name":"Neuwied, Stadt","type":"Stadt"},"district":{"key":"07138","name":"Neuwied","type":"Landkreis"},"federalState":{"key":"07","name":"Rheinland-Pfalz"}},{"name":"Pestalozzistr.","postalCode":"56567","locality":"Neuwied","municipality":{"key":"07138045","name":"Neuwied, Stadt","type":"Stadt"},"district":{"key":"07138","name":"Neuwied","type":"Landkreis"},"federalState":{"key":"07","name":"Rheinland-Pfalz"}},{"name":"Peter-Hauprich-Weg","postalCode":"56564","locality":"Neuwied","municipality":{"key":"07138045","name":"Neuwied, Stadt","type":"Stadt"},"district":{"key":"07138","name":"Neuwied","type":"Landkreis"},"federalState":{"key":"07","name":"Rheinland-Pfalz"}},{"name":"Peter-Rosegger-Str.","postalCode":"56567","locality":"Neuwied","municipality":{"key":"07138045","name":"Neuwied, Stadt","type":"Stadt"},"district":{"key":"07138","name":"Neuwied","type":"Landkreis"},"federalState":{"key":"07","name":"Rheinland-Pfalz"}},{"name":"Peter-Siemeister-Str.","postalCode":"56564","locality":"Neuwied","municipality":{"key":"07138045","name":"Neuwied, Stadt","type":"Stadt"},"district":{"key":"07138","name":"Neuwied","type":"Landkreis"},"federalState":{"key":"07","name":"Rheinland-Pfalz"}},{"name":"Petunienstr.","postalCode":"56566","locality":"Neuwied","municipality":{"key":"07138045","name":"Neuwied, Stadt","type":"Stadt"},"district":{"key":"07138","name":"Neuwied","type":"Landkreis"},"federalState":{"key":"07","name":"Rheinland-Pfalz"}},{"name":"Pfahlwiese","postalCode":"56567","locality":"Neuwied","municipality":{"key":"07138045","name":"Neuwied, Stadt","type":"Stadt"},"district":{"key":"07138","name":"Neuwied","type":"Landkreis"},"federalState":{"key":"07","name":"Rheinland-Pfalz"}},{"name":"Pfarrer-Herbert-Köhler-Str.","postalCode":"56566","locality":"Neuwied","municipality":{"key":"07138045","name":"Neuwied, Stadt","type":"Stadt"},"district":{"key":"07138","name":"Neuwied","type":"Landkreis"},"federalState":{"key":"07","name":"Rheinland-Pfalz"}},{"name":"Pfarrer-Meyer-Str.","postalCode":"56564","locality":"Neuwied","municipality":{"key":"07138045","name":"Neuwied, Stadt","type":"Stadt"},"district":{"key":"07138","name":"Neuwied","type":"Landkreis"},"federalState":{"key":"07","name":"Rheinland-Pfalz"}},{"name":"Pfarrer-Werner-Mörchen-Str.","postalCode":"56564","locality":"Neuwied","municipality":{"key":"07138045","name":"Neuwied, Stadt","type":"Stadt"},"district":{"key":"07138","name":"Neuwied","type":"Landkreis"},"federalState":{"key":"07","name":"Rheinland-Pfalz"}},{"name":"Pfarrstr.","postalCode":"56564","locality":"Neuwied","municipality":{"key":"07138045","name":"Neuwied, Stadt","type":"Stadt"},"district":{"key":"07138","name":"Neuwied","type":"Landkreis"},"federalState":{"key":"07","name":"Rheinland-Pfalz"}},{"name":"Pfeifersweg","postalCode":"56566","locality":"Neuwied","municipality":{"key":"07138045","name":"Neuwied, Stadt","type":"Stadt"},"district":{"key":"07138","name":"Neuwied","type":"Landkreis"},"federalState":{"key":"07","name":"Rheinland-Pfalz"}},{"name":"Pförtchen","postalCode":"56566","locality":"Neuwied","municipality":{"key":"07138045","name":"Neuwied, Stadt","type":"Stadt"},"district":{"key":"07138","name":"Neuwied","type":"Landkreis"},"federalState":{"key":"07","name":"Rheinland-Pfalz"}},{"name":"Pommernstr.","postalCode":"56567","locality":"Neuwied","municipality":{"key":"07138045","name":"Neuwied, Stadt","type":"Stadt"},"district":{"key":"07138","name":"Neuwied","type":"Landkreis"},"federalState":{"key":"07","name":"Rheinland-Pfalz"}},{"name":"Poststr.","postalCode":"56567","locality":"Neuwied","municipality":{"key":"07138045","name":"Neuwied, Stadt","type":"Stadt"},"district":{"key":"07138","name":"Neuwied","type":"Landkreis"},"federalState":{"key":"07","name":"Rheinland-Pfalz"}},{"name":"Preisbergstr.","postalCode":"56567","locality":"Neuwied","municipality":{"key":"07138045","name":"Neuwied, Stadt","type":"Stadt"},"district":{"key":"07138","name":"Neuwied","type":"Landkreis"},"federalState":{"key":"07","name":"Rheinland-Pfalz"}},{"name":"Prinz-Maximilian-zu-Wied-Str.","postalCode":"56564","locality":"Neuwied","municipality":{"key":"07138045","name":"Neuwied, Stadt","type":"Stadt"},"district":{"key":"07138","name":"Neuwied","type":"Landkreis"},"federalState":{"key":"07","name":"Rheinland-Pfalz"}},{"name":"Prinz-Viktor-Str.","postalCode":"56564","locality":"Neuwied","municipality":{"key":"07138045","name":"Neuwied, Stadt","type":"Stadt"},"district":{"key":"07138","name":"Neuwied","type":"Landkreis"},"federalState":{"key":"07","name":"Rheinland-Pfalz"}},{"name":"Püschwiese","postalCode":"56566","locality":"Neuwied","municipality":{"key":"07138045","name":"Neuwied, Stadt","type":"Stadt"},"district":{"key":"07138","name":"Neuwied","type":"Landkreis"},"federalState":{"key":"07","name":"Rheinland-Pfalz"}},{"name":"Pützgasse","postalCode":"56564","locality":"Neuwied","municipality":{"key":"07138045","name":"Neuwied, Stadt","type":"Stadt"},"district":{"key":"07138","name":"Neuwied","type":"Landkreis"},"federalState":{"key":"07","name":"Rheinland-Pfalz"}},{"name":"Ringstr.","postalCode":"56587","locality":"Oberhonnefeld-Gierend","municipality":{"key":"07138053","name":"Oberhonnefeld-Gierend","type":"Kreisangehörige_Gemeinde"},"district":{"key":"07138","name":"Neuwied","type":"Landkreis"},"federalState":{"key":"07","name":"Rheinland-Pfalz"}},{"name":"Rosenweg","postalCode":"56587","locality":"Oberhonnefeld-Gierend","municipality":{"key":"07138053","name":"Oberhonnefeld-Gierend","type":"Kreisangehörige_Gemeinde"},"district":{"key":"07138","name":"Neuwied","type":"Landkreis"},"federalState":{"key":"07","name":"Rheinland-Pfalz"}},{"name":"Salbeiweg","postalCode":"56587","locality":"Oberhonnefeld-Gierend","municipality":{"key":"07138053","name":"Oberhonnefeld-Gierend","type":"Kreisangehörige_Gemeinde"},"district":{"key":"07138","name":"Neuwied","type":"Landkreis"},"federalState":{"key":"07","name":"Rheinland-Pfalz"}},{"name":"Steinstr.","postalCode":"56587","locality":"Oberhonnefeld-Gierend","municipality":{"key":"07138053","name":"Oberhonnefeld-Gierend","type":"Kreisangehörige_Gemeinde"},"district":{"key":"07138","name":"Neuwied","type":"Landkreis"},"federalState":{"key":"07","name":"Rheinland-Pfalz"}},{"name":"Talweg","postalCode":"56587","locality":"Oberhonnefeld-Gierend","municipality":{"key":"07138053","name":"Oberhonnefeld-Gierend","type":"Kreisangehörige_Gemeinde"},"district":{"key":"07138","name":"Neuwied","type":"Landkreis"},"federalState":{"key":"07","name":"Rheinland-Pfalz"}},{"name":"Tannenstr.","postalCode":"56587","locality":"Oberhonnefeld-Gierend","municipality":{"key":"07138053","name":"Oberhonnefeld-Gierend","type":"Kreisangehörige_Gemeinde"},"district":{"key":"07138","name":"Neuwied","type":"Landkreis"},"federalState":{"key":"07","name":"Rheinland-Pfalz"}},{"name":"Ubierstr.","postalCode":"56567","locality":"Neuwied","municipality":{"key":"07138045","name":"Neuwied, Stadt","type":"Stadt"},"district":{"key":"07138","name":"Neuwied","type":"Landkreis"},"federalState":{"key":"07","name":"Rheinland-Pfalz"}},{"name":"Unterbüngstr.","postalCode":"56566","locality":"Neuwied","municipality":{"key":"07138045","name":"Neuwied, Stadt","type":"Stadt"},"district":{"key":"07138","name":"Neuwied","type":"Landkreis"},"federalState":{"key":"07","name":"Rheinland-Pfalz"}},{"name":"Unterdorf","postalCode":"56564","locality":"Neuwied","municipality":{"key":"07138045","name":"Neuwied, Stadt","type":"Stadt"},"district":{"key":"07138","name":"Neuwied","type":"Landkreis"},"federalState":{"key":"07","name":"Rheinland-Pfalz"}},{"name":"Untere Fluraustr.","postalCode":"56567","locality":"Neuwied","municipality":{"key":"07138045","name":"Neuwied, Stadt","type":"Stadt"},"district":{"key":"07138","name":"Neuwied","type":"Landkreis"},"federalState":{"key":"07","name":"Rheinland-Pfalz"}},{"name":"Untere Görgengasse","postalCode":"56566","locality":"Neuwied","municipality":{"key":"07138045","name":"Neuwied, Stadt","type":"Stadt"},"district":{"key":"07138","name":"Neuwied","type":"Landkreis"},"federalState":{"key":"07","name":"Rheinland-Pfalz"}},{"name":"Unterer Grabenring","postalCode":"56566","locality":"Neuwied","municipality":{"key":"07138045","name":"Neuwied, Stadt","type":"Stadt"},"district":{"key":"07138","name":"Neuwied","type":"Landkreis"},"federalState":{"key":"07","name":"Rheinland-Pfalz"}},{"name":"Unterer Kümmelberg","postalCode":"56567","locality":"Neuwied","municipality":{"key":"07138045","name":"Neuwied, Stadt","type":"Stadt"},"district":{"key":"07138","name":"Neuwied","type":"Landkreis"},"federalState":{"key":"07","name":"Rheinland-Pfalz"}},{"name":"Untergasse","postalCode":"56566","locality":"Neuwied","municipality":{"key":"07138045","name":"Neuwied, Stadt","type":"Stadt"},"district":{"key":"07138","name":"Neuwied","type":"Landkreis"},"federalState":{"key":"07","name":"Rheinland-Pfalz"}},{"name":"Untergraben","postalCode":"56567","locality":"Neuwied","municipality":{"key":"07138045","name":"Neuwied, Stadt","type":"Stadt"},"district":{"key":"07138","name":"Neuwied","type":"Landkreis"},"federalState":{"key":"07","name":"Rheinland-Pfalz"}},{"name":"Unterm Flecken","postalCode":"56566","locality":"Neuwied","municipality":{"key":"07138045","name":"Neuwied, Stadt","type":"Stadt"},"district":{"key":"07138","name":"Neuwied","type":"Landkreis"},"federalState":{"key":"07","name":"Rheinland-Pfalz"}},{"name":"Uranusstr.","postalCode":"56566","locality":"Neuwied","municipality":{"key":"07138045","name":"Neuwied, Stadt","type":"Stadt"},"district":{"key":"07138","name":"Neuwied","type":"Landkreis"},"federalState":{"key":"07","name":"Rheinland-Pfalz"}},{"name":"Usedomstr.","postalCode":"56567","locality":"Neuwied","municipality":{"key":"07138045","name":"Neuwied, Stadt","type":"Stadt"},"district":{"key":"07138","name":"Neuwied","type":"Landkreis"},"federalState":{"key":"07","name":"Rheinland-Pfalz"}},{"name":"Veilchenstr.","postalCode":"56566","locality":"Neuwied","municipality":{"key":"07138045","name":"Neuwied, Stadt","type":"Stadt"},"district":{"key":"07138","name":"Neuwied","type":"Landkreis"},"federalState":{"key":"07","name":"Rheinland-Pfalz"}},{"name":"Venusstr.","postalCode":"56566","locality":"Neuwied","municipality":{"key":"07138045","name":"Neuwied, Stadt","type":"Stadt"},"district":{"key":"07138","name":"Neuwied","type":"Landkreis"},"federalState":{"key":"07","name":"Rheinland-Pfalz"}},{"name":"Vikunjas","postalCode":"56566","locality":"Neuwied","municipality":{"key":"07138045","name":"Neuwied, Stadt","type":"Stadt"},"district":{"key":"07138","name":"Neuwied","type":"Landkreis"},"federalState":{"key":"07","name":"Rheinland-Pfalz"}},{"name":"Virchowweg","postalCode":"56566","locality":"Neuwied","municipality":{"key":"07138045","name":"Neuwied, Stadt","type":"Stadt"},"district":{"key":"07138","name":"Neuwied","type":"Landkreis"},"federalState":{"key":"07","name":"Rheinland-Pfalz"}},{"name":"Vogteistr.","postalCode":"56567","locality":"Neuwied","municipality":{"key":"07138045","name":"Neuwied, Stadt","type":"Stadt"},"district":{"key":"07138","name":"Neuwied","type":"Landkreis"},"federalState":{"key":"07","name":"Rheinland-Pfalz"}},{"name":"Volberskroog","postalCode":"56566","locality":"Neuwied","municipality":{"key":"07138045","name":"Neuwied, Stadt","type":"Stadt"},"district":{"key":"07138","name":"Neuwied","type":"Landkreis"},"federalState":{"key":"07","name":"Rheinland-Pfalz"}},{"name":"Von-der-Leyen-Str.","postalCode":"56567","locality":"Neuwied","municipality":{"key":"07138045","name":"Neuwied, Stadt","type":"Stadt"},"district":{"key":"07138","name":"Neuwied","type":"Landkreis"},"federalState":{"key":"07","name":"Rheinland-Pfalz"}},{"name":"Von-Ebner-Eschenbach-Str.","postalCode":"56567","locality":"Neuwied","municipality":{"key":"07138045","name":"Neuwied, Stadt","type":"Stadt"},"district":{"key":"07138","name":"Neuwied","type":"Landkreis"},"federalState":{"key":"07","name":"Rheinland-Pfalz"}},{"name":"Von-Eichendorff-Str.","postalCode":"56567","locality":"Neuwied","municipality":{"key":"07138045","name":"Neuwied, Stadt","type":"Stadt"},"district":{"key":"07138","name":"Neuwied","type":"Landkreis"},"federalState":{"key":"07","name":"Rheinland-Pfalz"}},{"name":"Von-Runkel-Platz","postalCode":"56564","locality":"Neuwied","municipality":{"key":"07138045","name":"Neuwied, Stadt","type":"Stadt"},"district":{"key":"07138","name":"Neuwied","type":"Landkreis"},"federalState":{"key":"07","name":"Rheinland-Pfalz"}},{"name":"Von-Stauffenberg-Str.","postalCode":"56567","locality":"Neuwied","municipality":{"key":"07138045","name":"Neuwied, Stadt","type":"Stadt"},"district":{"key":"07138","name":"Neuwied","type":"Landkreis"},"federalState":{"key":"07","name":"Rheinland-Pfalz"}},{"name":"Vor dem Damm","postalCode":"56564","locality":"Neuwied","municipality":{"key":"07138045","name":"Neuwied, Stadt","type":"Stadt"},"district":{"key":"07138","name":"Neuwied","type":"Landkreis"},"federalState":{"key":"07","name":"Rheinland-Pfalz"}},{"name":"Waldstr.","postalCode":"56587","locality":"Oberhonnefeld-Gierend","municipality":{"key":"07138053","name":"Oberhonnefeld-Gierend","type":"Kreisangehörige_Gemeinde"},"district":{"key":"07138","name":"Neuwied","type":"Landkreis"},"federalState":{"key":"07","name":"Rheinland-Pfalz"}},{"name":"Westerwaldstr.","postalCode":"56587","locality":"Oberhonnefeld-Gierend","municipality":{"key":"07138053","name":"Oberhonnefeld-Gierend","type":"Kreisangehörige_Gemeinde"},"district":{"key":"07138","name":"Neuwied","type":"Landkreis"},"federalState":{"key":"07","name":"Rheinland-Pfalz"}},{"name":"Weyerbuscher Weg","postalCode":"56587","locality":"Oberhonnefeld-Gierend","municipality":{"key":"07138053","name":"Oberhonnefeld-Gierend","type":"Kreisangehörige_Gemeinde"},"district":{"key":"07138","name":"Neuwied","type":"Landkreis"},"federalState":{"key":"07","name":"Rheinland-Pfalz"}},{"name":"Wiesenstr.","postalCode":"56587","locality":"Oberhonnefeld-Gierend","municipality":{"key":"07138053","name":"Oberhonnefeld-Gierend","type":"Kreisangehörige_Gemeinde"},"district":{"key":"07138","name":"Neuwied","type":"Landkreis"},"federalState":{"key":"07","name":"Rheinland-Pfalz"}},{"name":"Zum Weißen Stein","postalCode":"56587","locality":"Oberhonnefeld-Gierend","municipality":{"key":"07138053","name":"Oberhonnefeld-Gierend","type":"Kreisangehörige_Gemeinde"},"district":{"key":"07138","name":"Neuwied","type":"Landkreis"},"federalState":{"key":"07","name":"Rheinland-Pfalz"}},{"name":"Über dem Aubach","postalCode":"56566","locality":"Neuwied","municipality":{"key":"07138045","name":"Neuwied, Stadt","type":"Stadt"},"district":{"key":"07138","name":"Neuwied","type":"Landkreis"},"federalState":{"key":"07","name":"Rheinland-Pfalz"}},]