[{"name":"Am Kohlhasen","postalCode":"76835","locality":"Weyher in der Pfalz","municipality":{"key":"07337084","name":"Weyher in der Pfalz","type":"Kreisangehörige_Gemeinde"},"district":{"key":"07337","name":"Südliche Weinstraße","type":"Landkreis"},"federalState":{"key":"07","name":"Rheinland-Pfalz"}},{"name":"Borngasse","postalCode":"76835","locality":"Weyher in der Pfalz","municipality":{"key":"07337084","name":"Weyher in der Pfalz","type":"Kreisangehörige_Gemeinde"},"district":{"key":"07337","name":"Südliche Weinstraße","type":"Landkreis"},"federalState":{"key":"07","name":"Rheinland-Pfalz"}},{"name":"Edesheimer Weg","postalCode":"76835","locality":"Weyher in der Pfalz","municipality":{"key":"07337084","name":"Weyher in der Pfalz","type":"Kreisangehörige_Gemeinde"},"district":{"key":"07337","name":"Südliche Weinstraße","type":"Landkreis"},"federalState":{"key":"07","name":"Rheinland-Pfalz"}},{"name":"Froelichstr.","postalCode":"76835","locality":"Weyher in der Pfalz","municipality":{"key":"07337084","name":"Weyher in der Pfalz","type":"Kreisangehörige_Gemeinde"},"district":{"key":"07337","name":"Südliche Weinstraße","type":"Landkreis"},"federalState":{"key":"07","name":"Rheinland-Pfalz"}},{"name":"Hochstr.","postalCode":"76835","locality":"Weyher in der Pfalz","municipality":{"key":"07337084","name":"Weyher in der Pfalz","type":"Kreisangehörige_Gemeinde"},"district":{"key":"07337","name":"Südliche Weinstraße","type":"Landkreis"},"federalState":{"key":"07","name":"Rheinland-Pfalz"}},{"name":"Hübühl","postalCode":"76835","locality":"Weyher in der Pfalz","municipality":{"key":"07337084","name":"Weyher in der Pfalz","type":"Kreisangehörige_Gemeinde"},"district":{"key":"07337","name":"Südliche Weinstraße","type":"Landkreis"},"federalState":{"key":"07","name":"Rheinland-Pfalz"}},{"name":"Im Seitenviertel","postalCode":"76835","locality":"Weyher in der Pfalz","municipality":{"key":"07337084","name":"Weyher in der Pfalz","type":"Kreisangehörige_Gemeinde"},"district":{"key":"07337","name":"Südliche Weinstraße","type":"Landkreis"},"federalState":{"key":"07","name":"Rheinland-Pfalz"}},{"name":"Jakob-Ziegler-Str.","postalCode":"76835","locality":"Weyher in der Pfalz","municipality":{"key":"07337084","name":"Weyher in der Pfalz","type":"Kreisangehörige_Gemeinde"},"district":{"key":"07337","name":"Südliche Weinstraße","type":"Landkreis"},"federalState":{"key":"07","name":"Rheinland-Pfalz"}},{"name":"Josef-Meyer-Str.","postalCode":"76835","locality":"Weyher in der Pfalz","municipality":{"key":"07337084","name":"Weyher in der Pfalz","type":"Kreisangehörige_Gemeinde"},"district":{"key":"07337","name":"Südliche Weinstraße","type":"Landkreis"},"federalState":{"key":"07","name":"Rheinland-Pfalz"}},{"name":"Kehrgasse","postalCode":"76835","locality":"Weyher in der Pfalz","municipality":{"key":"07337084","name":"Weyher in der Pfalz","type":"Kreisangehörige_Gemeinde"},"district":{"key":"07337","name":"Südliche Weinstraße","type":"Landkreis"},"federalState":{"key":"07","name":"Rheinland-Pfalz"}},{"name":"Kirchgasse","postalCode":"76835","locality":"Weyher in der Pfalz","municipality":{"key":"07337084","name":"Weyher in der Pfalz","type":"Kreisangehörige_Gemeinde"},"district":{"key":"07337","name":"Südliche Weinstraße","type":"Landkreis"},"federalState":{"key":"07","name":"Rheinland-Pfalz"}},{"name":"Modenbachstr.","postalCode":"76835","locality":"Weyher in der Pfalz","municipality":{"key":"07337084","name":"Weyher in der Pfalz","type":"Kreisangehörige_Gemeinde"},"district":{"key":"07337","name":"Südliche Weinstraße","type":"Landkreis"},"federalState":{"key":"07","name":"Rheinland-Pfalz"}},{"name":"Oberdorf","postalCode":"76835","locality":"Weyher in der Pfalz","municipality":{"key":"07337084","name":"Weyher in der Pfalz","type":"Kreisangehörige_Gemeinde"},"district":{"key":"07337","name":"Südliche Weinstraße","type":"Landkreis"},"federalState":{"key":"07","name":"Rheinland-Pfalz"}},{"name":"Peter-Eberle-Str.","postalCode":"76835","locality":"Weyher in der Pfalz","municipality":{"key":"07337084","name":"Weyher in der Pfalz","type":"Kreisangehörige_Gemeinde"},"district":{"key":"07337","name":"Südliche Weinstraße","type":"Landkreis"},"federalState":{"key":"07","name":"Rheinland-Pfalz"}},{"name":"Rhodter Str.","postalCode":"76835","locality":"Weyher in der Pfalz","municipality":{"key":"07337084","name":"Weyher in der Pfalz","type":"Kreisangehörige_Gemeinde"},"district":{"key":"07337","name":"Südliche Weinstraße","type":"Landkreis"},"federalState":{"key":"07","name":"Rheinland-Pfalz"}},{"name":"Rietburgstr.","postalCode":"76835","locality":"Weyher in der Pfalz","municipality":{"key":"07337084","name":"Weyher in der Pfalz","type":"Kreisangehörige_Gemeinde"},"district":{"key":"07337","name":"Südliche Weinstraße","type":"Landkreis"},"federalState":{"key":"07","name":"Rheinland-Pfalz"}},{"name":"Römerstr.","postalCode":"76835","locality":"Weyher in der Pfalz","municipality":{"key":"07337084","name":"Weyher in der Pfalz","type":"Kreisangehörige_Gemeinde"},"district":{"key":"07337","name":"Südliche Weinstraße","type":"Landkreis"},"federalState":{"key":"07","name":"Rheinland-Pfalz"}},{"name":"Spring","postalCode":"76835","locality":"Weyher in der Pfalz","municipality":{"key":"07337084","name":"Weyher in der Pfalz","type":"Kreisangehörige_Gemeinde"},"district":{"key":"07337","name":"Südliche Weinstraße","type":"Landkreis"},"federalState":{"key":"07","name":"Rheinland-Pfalz"}},{"name":"Vogelsang","postalCode":"76835","locality":"Weyher in der Pfalz","municipality":{"key":"07337084","name":"Weyher in der Pfalz","type":"Kreisangehörige_Gemeinde"},"district":{"key":"07337","name":"Südliche Weinstraße","type":"Landkreis"},"federalState":{"key":"07","name":"Rheinland-Pfalz"}},]