[{"name":"Adolf-Kolping-Weg","postalCode":"29683","locality":"Bad Fallingbostel","municipality":{"key":"03358008","name":"Bad Fallingbostel, Stadt","type":"Stadt"},"district":{"key":"03358","name":"Heidekreis","type":"Landkreis"},"federalState":{"key":"03","name":"Niedersachsen"}},{"name":"Adolphsheider Str.","postalCode":"29683","locality":"Bad Fallingbostel","municipality":{"key":"03358008","name":"Bad Fallingbostel, Stadt","type":"Stadt"},"district":{"key":"03358","name":"Heidekreis","type":"Landkreis"},"federalState":{"key":"03","name":"Niedersachsen"}},{"name":"Agnes-Bernauer-Str.","postalCode":"82239","locality":"Alling","municipality":{"key":"09179113","name":"Alling","type":"Kreisangehörige_Gemeinde"},"district":{"key":"09179","name":"Fürstenfeldbruck","type":"Landkreis"},"federalState":{"key":"09","name":"Bayern"}},{"name":"Ahornweg","postalCode":"29683","locality":"Bad Fallingbostel","municipality":{"key":"03358008","name":"Bad Fallingbostel, Stadt","type":"Stadt"},"district":{"key":"03358","name":"Heidekreis","type":"Landkreis"},"federalState":{"key":"03","name":"Niedersachsen"}},{"name":"Ahornweg","postalCode":"94551","locality":"Lalling","municipality":{"key":"09271130","name":"Lalling","type":"Kreisangehörige_Gemeinde"},"district":{"key":"09271","name":"Deggendorf","type":"Landkreis"},"federalState":{"key":"09","name":"Bayern"}},{"name":"Allermannstr.","postalCode":"29683","locality":"Bad Fallingbostel","municipality":{"key":"03358008","name":"Bad Fallingbostel, Stadt","type":"Stadt"},"district":{"key":"03358","name":"Heidekreis","type":"Landkreis"},"federalState":{"key":"03","name":"Niedersachsen"}},{"name":"Allertinger Feld West","postalCode":"83349","locality":"Palling","municipality":{"key":"09189134","name":"Palling","type":"Kreisangehörige_Gemeinde"},"district":{"key":"09189","name":"Traunstein","type":"Landkreis"},"federalState":{"key":"09","name":"Bayern"}},{"name":"Alte Bitzen","postalCode":"54426","locality":"Talling","municipality":{"key":"07231122","name":"Talling","type":"Kreisangehörige_Gemeinde"},"district":{"key":"07231","name":"Bernkastel-Wittlich","type":"Landkreis"},"federalState":{"key":"07","name":"Rheinland-Pfalz"}},{"name":"Alte Pulvermühle","postalCode":"29683","locality":"Bad Fallingbostel","municipality":{"key":"03358008","name":"Bad Fallingbostel, Stadt","type":"Stadt"},"district":{"key":"03358","name":"Heidekreis","type":"Landkreis"},"federalState":{"key":"03","name":"Niedersachsen"}},{"name":"Alter Flurweg","postalCode":"29683","locality":"Bad Fallingbostel","municipality":{"key":"03358008","name":"Bad Fallingbostel, Stadt","type":"Stadt"},"district":{"key":"03358","name":"Heidekreis","type":"Landkreis"},"federalState":{"key":"03","name":"Niedersachsen"}},{"name":"Alter Torfweg","postalCode":"29683","locality":"Bad Fallingbostel","municipality":{"key":"03358008","name":"Bad Fallingbostel, Stadt","type":"Stadt"},"district":{"key":"03358","name":"Heidekreis","type":"Landkreis"},"federalState":{"key":"03","name":"Niedersachsen"}},{"name":"Alte Str.","postalCode":"94551","locality":"Lalling","municipality":{"key":"09271130","name":"Lalling","type":"Kreisangehörige_Gemeinde"},"district":{"key":"09271","name":"Deggendorf","type":"Landkreis"},"federalState":{"key":"09","name":"Bayern"}},{"name":"Am Amtsgarten","postalCode":"29683","locality":"Bad Fallingbostel","municipality":{"key":"03358008","name":"Bad Fallingbostel, Stadt","type":"Stadt"},"district":{"key":"03358","name":"Heidekreis","type":"Landkreis"},"federalState":{"key":"03","name":"Niedersachsen"}},{"name":"Am Angerl","postalCode":"82239","locality":"Alling","municipality":{"key":"09179113","name":"Alling","type":"Kreisangehörige_Gemeinde"},"district":{"key":"09179","name":"Fürstenfeldbruck","type":"Landkreis"},"federalState":{"key":"09","name":"Bayern"}},{"name":"Am Bach","postalCode":"82239","locality":"Alling","municipality":{"key":"09179113","name":"Alling","type":"Kreisangehörige_Gemeinde"},"district":{"key":"09179","name":"Fürstenfeldbruck","type":"Landkreis"},"federalState":{"key":"09","name":"Bayern"}},{"name":"Am Bachfeld","postalCode":"82239","locality":"Alling","municipality":{"key":"09179113","name":"Alling","type":"Kreisangehörige_Gemeinde"},"district":{"key":"09179","name":"Fürstenfeldbruck","type":"Landkreis"},"federalState":{"key":"09","name":"Bayern"}},{"name":"Am Bahnhof","postalCode":"29683","locality":"Bad Fallingbostel","municipality":{"key":"03358008","name":"Bad Fallingbostel, Stadt","type":"Stadt"},"district":{"key":"03358","name":"Heidekreis","type":"Landkreis"},"federalState":{"key":"03","name":"Niedersachsen"}},{"name":"Am Brambusch","postalCode":"29683","locality":"Bad Fallingbostel","municipality":{"key":"03358008","name":"Bad Fallingbostel, Stadt","type":"Stadt"},"district":{"key":"03358","name":"Heidekreis","type":"Landkreis"},"federalState":{"key":"03","name":"Niedersachsen"}},{"name":"Am Breiten Stein","postalCode":"29683","locality":"Bad Fallingbostel","municipality":{"key":"03358008","name":"Bad Fallingbostel, Stadt","type":"Stadt"},"district":{"key":"03358","name":"Heidekreis","type":"Landkreis"},"federalState":{"key":"03","name":"Niedersachsen"}},{"name":"Am Brink","postalCode":"29683","locality":"Bad Fallingbostel","municipality":{"key":"03358008","name":"Bad Fallingbostel, Stadt","type":"Stadt"},"district":{"key":"03358","name":"Heidekreis","type":"Landkreis"},"federalState":{"key":"03","name":"Niedersachsen"}},{"name":"Am Bröhn","postalCode":"29683","locality":"Bad Fallingbostel","municipality":{"key":"03358008","name":"Bad Fallingbostel, Stadt","type":"Stadt"},"district":{"key":"03358","name":"Heidekreis","type":"Landkreis"},"federalState":{"key":"03","name":"Niedersachsen"}},{"name":"Am Forellenbach","postalCode":"29683","locality":"Bad Fallingbostel","municipality":{"key":"03358008","name":"Bad Fallingbostel, Stadt","type":"Stadt"},"district":{"key":"03358","name":"Heidekreis","type":"Landkreis"},"federalState":{"key":"03","name":"Niedersachsen"}},{"name":"Am Forsthaus","postalCode":"29683","locality":"Bad Fallingbostel","municipality":{"key":"03358008","name":"Bad Fallingbostel, Stadt","type":"Stadt"},"district":{"key":"03358","name":"Heidekreis","type":"Landkreis"},"federalState":{"key":"03","name":"Niedersachsen"}},{"name":"Am Friedhof","postalCode":"29683","locality":"Bad Fallingbostel","municipality":{"key":"03358008","name":"Bad Fallingbostel, Stadt","type":"Stadt"},"district":{"key":"03358","name":"Heidekreis","type":"Landkreis"},"federalState":{"key":"03","name":"Niedersachsen"}},{"name":"Am Gemeindebrunnen","postalCode":"29683","locality":"Bad Fallingbostel","municipality":{"key":"03358008","name":"Bad Fallingbostel, Stadt","type":"Stadt"},"district":{"key":"03358","name":"Heidekreis","type":"Landkreis"},"federalState":{"key":"03","name":"Niedersachsen"}},{"name":"Am Göppenbüchl","postalCode":"82239","locality":"Alling","municipality":{"key":"09179113","name":"Alling","type":"Kreisangehörige_Gemeinde"},"district":{"key":"09179","name":"Fürstenfeldbruck","type":"Landkreis"},"federalState":{"key":"09","name":"Bayern"}},{"name":"Am Griesfeld","postalCode":"82239","locality":"Alling","municipality":{"key":"09179113","name":"Alling","type":"Kreisangehörige_Gemeinde"},"district":{"key":"09179","name":"Fürstenfeldbruck","type":"Landkreis"},"federalState":{"key":"09","name":"Bayern"}},{"name":"Am Hamberg","postalCode":"29683","locality":"Bad Fallingbostel","municipality":{"key":"03358008","name":"Bad Fallingbostel, Stadt","type":"Stadt"},"district":{"key":"03358","name":"Heidekreis","type":"Landkreis"},"federalState":{"key":"03","name":"Niedersachsen"}},{"name":"Am Hang","postalCode":"29683","locality":"Bad Fallingbostel","municipality":{"key":"03358008","name":"Bad Fallingbostel, Stadt","type":"Stadt"},"district":{"key":"03358","name":"Heidekreis","type":"Landkreis"},"federalState":{"key":"03","name":"Niedersachsen"}},{"name":"Am Hartholz","postalCode":"82239","locality":"Alling","municipality":{"key":"09179113","name":"Alling","type":"Kreisangehörige_Gemeinde"},"district":{"key":"09179","name":"Fürstenfeldbruck","type":"Landkreis"},"federalState":{"key":"09","name":"Bayern"}},{"name":"Am hinteren Feld","postalCode":"29683","locality":"Bad Fallingbostel","municipality":{"key":"03358008","name":"Bad Fallingbostel, Stadt","type":"Stadt"},"district":{"key":"03358","name":"Heidekreis","type":"Landkreis"},"federalState":{"key":"03","name":"Niedersachsen"}},{"name":"Am Hirthaus","postalCode":"82239","locality":"Alling","municipality":{"key":"09179113","name":"Alling","type":"Kreisangehörige_Gemeinde"},"district":{"key":"09179","name":"Fürstenfeldbruck","type":"Landkreis"},"federalState":{"key":"09","name":"Bayern"}},{"name":"Am Holzfeld","postalCode":"29683","locality":"Bad Fallingbostel","municipality":{"key":"03358008","name":"Bad Fallingbostel, Stadt","type":"Stadt"},"district":{"key":"03358","name":"Heidekreis","type":"Landkreis"},"federalState":{"key":"03","name":"Niedersachsen"}},{"name":"Am Hopfengarten","postalCode":"29683","locality":"Bad Fallingbostel","municipality":{"key":"03358008","name":"Bad Fallingbostel, Stadt","type":"Stadt"},"district":{"key":"03358","name":"Heidekreis","type":"Landkreis"},"federalState":{"key":"03","name":"Niedersachsen"}},{"name":"Am Hülsenbusch","postalCode":"29683","locality":"Bad Fallingbostel","municipality":{"key":"03358008","name":"Bad Fallingbostel, Stadt","type":"Stadt"},"district":{"key":"03358","name":"Heidekreis","type":"Landkreis"},"federalState":{"key":"03","name":"Niedersachsen"}},{"name":"Am Kirchberg","postalCode":"82239","locality":"Alling","municipality":{"key":"09179113","name":"Alling","type":"Kreisangehörige_Gemeinde"},"district":{"key":"09179","name":"Fürstenfeldbruck","type":"Landkreis"},"federalState":{"key":"09","name":"Bayern"}},{"name":"Am Krautgarten","postalCode":"82239","locality":"Alling","municipality":{"key":"09179113","name":"Alling","type":"Kreisangehörige_Gemeinde"},"district":{"key":"09179","name":"Fürstenfeldbruck","type":"Landkreis"},"federalState":{"key":"09","name":"Bayern"}},{"name":"Am Krempel","postalCode":"29683","locality":"Bad Fallingbostel","municipality":{"key":"03358008","name":"Bad Fallingbostel, Stadt","type":"Stadt"},"district":{"key":"03358","name":"Heidekreis","type":"Landkreis"},"federalState":{"key":"03","name":"Niedersachsen"}},{"name":"Am Kreuzberg","postalCode":"29683","locality":"Bad Fallingbostel","municipality":{"key":"03358008","name":"Bad Fallingbostel, Stadt","type":"Stadt"},"district":{"key":"03358","name":"Heidekreis","type":"Landkreis"},"federalState":{"key":"03","name":"Niedersachsen"}},{"name":"Am Marienberg","postalCode":"82239","locality":"Alling","municipality":{"key":"09179113","name":"Alling","type":"Kreisangehörige_Gemeinde"},"district":{"key":"09179","name":"Fürstenfeldbruck","type":"Landkreis"},"federalState":{"key":"09","name":"Bayern"}},{"name":"Ammerseestr.","postalCode":"82239","locality":"Alling","municipality":{"key":"09179113","name":"Alling","type":"Kreisangehörige_Gemeinde"},"district":{"key":"09179","name":"Fürstenfeldbruck","type":"Landkreis"},"federalState":{"key":"09","name":"Bayern"}},{"name":"Am Risch","postalCode":"29683","locality":"Bad Fallingbostel","municipality":{"key":"03358008","name":"Bad Fallingbostel, Stadt","type":"Stadt"},"district":{"key":"03358","name":"Heidekreis","type":"Landkreis"},"federalState":{"key":"03","name":"Niedersachsen"}},{"name":"Am Rollberg","postalCode":"29683","locality":"Bad Fallingbostel","municipality":{"key":"03358008","name":"Bad Fallingbostel, Stadt","type":"Stadt"},"district":{"key":"03358","name":"Heidekreis","type":"Landkreis"},"federalState":{"key":"03","name":"Niedersachsen"}},{"name":"Am Rooksberg","postalCode":"29683","locality":"Bad Fallingbostel","municipality":{"key":"03358008","name":"Bad Fallingbostel, Stadt","type":"Stadt"},"district":{"key":"03358","name":"Heidekreis","type":"Landkreis"},"federalState":{"key":"03","name":"Niedersachsen"}},{"name":"Am Rötelbach","postalCode":"29683","locality":"Bad Fallingbostel","municipality":{"key":"03358008","name":"Bad Fallingbostel, Stadt","type":"Stadt"},"district":{"key":"03358","name":"Heidekreis","type":"Landkreis"},"federalState":{"key":"03","name":"Niedersachsen"}},{"name":"Am Schulplatz","postalCode":"94551","locality":"Lalling","municipality":{"key":"09271130","name":"Lalling","type":"Kreisangehörige_Gemeinde"},"district":{"key":"09271","name":"Deggendorf","type":"Landkreis"},"federalState":{"key":"09","name":"Bayern"}},{"name":"Am Schützenplatz","postalCode":"29683","locality":"Bad Fallingbostel","municipality":{"key":"03358008","name":"Bad Fallingbostel, Stadt","type":"Stadt"},"district":{"key":"03358","name":"Heidekreis","type":"Landkreis"},"federalState":{"key":"03","name":"Niedersachsen"}},{"name":"Amselgraben","postalCode":"83349","locality":"Palling","municipality":{"key":"09189134","name":"Palling","type":"Kreisangehörige_Gemeinde"},"district":{"key":"09189","name":"Traunstein","type":"Landkreis"},"federalState":{"key":"09","name":"Bayern"}},{"name":"Amselweg","postalCode":"29683","locality":"Bad Fallingbostel","municipality":{"key":"03358008","name":"Bad Fallingbostel, Stadt","type":"Stadt"},"district":{"key":"03358","name":"Heidekreis","type":"Landkreis"},"federalState":{"key":"03","name":"Niedersachsen"}},{"name":"Am Sonnenlicht","postalCode":"82239","locality":"Alling","municipality":{"key":"09179113","name":"Alling","type":"Kreisangehörige_Gemeinde"},"district":{"key":"09179","name":"Fürstenfeldbruck","type":"Landkreis"},"federalState":{"key":"09","name":"Bayern"}},{"name":"Bachstr.","postalCode":"29683","locality":"Bad Fallingbostel","municipality":{"key":"03358008","name":"Bad Fallingbostel, Stadt","type":"Stadt"},"district":{"key":"03358","name":"Heidekreis","type":"Landkreis"},"federalState":{"key":"03","name":"Niedersachsen"}},{"name":"Bahnhofsberg","postalCode":"29683","locality":"Bad Fallingbostel","municipality":{"key":"03358008","name":"Bad Fallingbostel, Stadt","type":"Stadt"},"district":{"key":"03358","name":"Heidekreis","type":"Landkreis"},"federalState":{"key":"03","name":"Niedersachsen"}},{"name":"Bahnhofstr.","postalCode":"29683","locality":"Bad Fallingbostel","municipality":{"key":"03358008","name":"Bad Fallingbostel, Stadt","type":"Stadt"},"district":{"key":"03358","name":"Heidekreis","type":"Landkreis"},"federalState":{"key":"03","name":"Niedersachsen"}},{"name":"Bannzaunstr.","postalCode":"83349","locality":"Palling","municipality":{"key":"09189134","name":"Palling","type":"Kreisangehörige_Gemeinde"},"district":{"key":"09189","name":"Traunstein","type":"Landkreis"},"federalState":{"key":"09","name":"Bayern"}},{"name":"Barbenrieth","postalCode":"29683","locality":"Bad Fallingbostel","municipality":{"key":"03358008","name":"Bad Fallingbostel, Stadt","type":"Stadt"},"district":{"key":"03358","name":"Heidekreis","type":"Landkreis"},"federalState":{"key":"03","name":"Niedersachsen"}},{"name":"Bärenkamp","postalCode":"29683","locality":"Bad Fallingbostel","municipality":{"key":"03358008","name":"Bad Fallingbostel, Stadt","type":"Stadt"},"district":{"key":"03358","name":"Heidekreis","type":"Landkreis"},"federalState":{"key":"03","name":"Niedersachsen"}},{"name":"Bargmannstr.","postalCode":"29683","locality":"Bad Fallingbostel","municipality":{"key":"03358008","name":"Bad Fallingbostel, Stadt","type":"Stadt"},"district":{"key":"03358","name":"Heidekreis","type":"Landkreis"},"federalState":{"key":"03","name":"Niedersachsen"}},{"name":"Baumham","postalCode":"83349","locality":"Palling","municipality":{"key":"09189134","name":"Palling","type":"Kreisangehörige_Gemeinde"},"district":{"key":"09189","name":"Traunstein","type":"Landkreis"},"federalState":{"key":"09","name":"Bayern"}},{"name":"Beckers Feld","postalCode":"29683","locality":"Bad Fallingbostel","municipality":{"key":"03358008","name":"Bad Fallingbostel, Stadt","type":"Stadt"},"district":{"key":"03358","name":"Heidekreis","type":"Landkreis"},"federalState":{"key":"03","name":"Niedersachsen"}},{"name":"Becklinger Str.","postalCode":"29683","locality":"Bad Fallingbostel","municipality":{"key":"03358008","name":"Bad Fallingbostel, Stadt","type":"Stadt"},"district":{"key":"03358","name":"Heidekreis","type":"Landkreis"},"federalState":{"key":"03","name":"Niedersachsen"}},{"name":"Beethovenstr.","postalCode":"29683","locality":"Bad Fallingbostel","municipality":{"key":"03358008","name":"Bad Fallingbostel, Stadt","type":"Stadt"},"district":{"key":"03358","name":"Heidekreis","type":"Landkreis"},"federalState":{"key":"03","name":"Niedersachsen"}},{"name":"Bergstr.","postalCode":"82239","locality":"Alling","municipality":{"key":"09179113","name":"Alling","type":"Kreisangehörige_Gemeinde"},"district":{"key":"09179","name":"Fürstenfeldbruck","type":"Landkreis"},"federalState":{"key":"09","name":"Bayern"}},{"name":"Bergstr.","postalCode":"83349","locality":"Palling","municipality":{"key":"09189134","name":"Palling","type":"Kreisangehörige_Gemeinde"},"district":{"key":"09189","name":"Traunstein","type":"Landkreis"},"federalState":{"key":"09","name":"Bayern"}},{"name":"Bergweg","postalCode":"94551","locality":"Lalling","municipality":{"key":"09271130","name":"Lalling","type":"Kreisangehörige_Gemeinde"},"district":{"key":"09271","name":"Deggendorf","type":"Landkreis"},"federalState":{"key":"09","name":"Bayern"}},{"name":"Berliner Str.","postalCode":"29683","locality":"Bad Fallingbostel","municipality":{"key":"03358008","name":"Bad Fallingbostel, Stadt","type":"Stadt"},"district":{"key":"03358","name":"Heidekreis","type":"Landkreis"},"federalState":{"key":"03","name":"Niedersachsen"}},{"name":"Birkenallee","postalCode":"54426","locality":"Talling","municipality":{"key":"07231122","name":"Talling","type":"Kreisangehörige_Gemeinde"},"district":{"key":"07231","name":"Bernkastel-Wittlich","type":"Landkreis"},"federalState":{"key":"07","name":"Rheinland-Pfalz"}},{"name":"Birkenweg","postalCode":"29683","locality":"Bad Fallingbostel","municipality":{"key":"03358008","name":"Bad Fallingbostel, Stadt","type":"Stadt"},"district":{"key":"03358","name":"Heidekreis","type":"Landkreis"},"federalState":{"key":"03","name":"Niedersachsen"}},{"name":"Birkenweg","postalCode":"94551","locality":"Lalling","municipality":{"key":"09271130","name":"Lalling","type":"Kreisangehörige_Gemeinde"},"district":{"key":"09271","name":"Deggendorf","type":"Landkreis"},"federalState":{"key":"09","name":"Bayern"}},{"name":"Birnbaumfeld","postalCode":"94551","locality":"Lalling","municipality":{"key":"09271130","name":"Lalling","type":"Kreisangehörige_Gemeinde"},"district":{"key":"09271","name":"Deggendorf","type":"Landkreis"},"federalState":{"key":"09","name":"Bayern"}},{"name":"Blumenlage","postalCode":"29683","locality":"Bad Fallingbostel","municipality":{"key":"03358008","name":"Bad Fallingbostel, Stadt","type":"Stadt"},"district":{"key":"03358","name":"Heidekreis","type":"Landkreis"},"federalState":{"key":"03","name":"Niedersachsen"}},{"name":"Blumenstr.","postalCode":"82239","locality":"Alling","municipality":{"key":"09179113","name":"Alling","type":"Kreisangehörige_Gemeinde"},"district":{"key":"09179","name":"Fürstenfeldbruck","type":"Landkreis"},"federalState":{"key":"09","name":"Bayern"}},{"name":"Blumenstr.","postalCode":"83349","locality":"Palling","municipality":{"key":"09189134","name":"Palling","type":"Kreisangehörige_Gemeinde"},"district":{"key":"09189","name":"Traunstein","type":"Landkreis"},"federalState":{"key":"09","name":"Bayern"}},{"name":"Böhmeweg","postalCode":"29683","locality":"Bad Fallingbostel","municipality":{"key":"03358008","name":"Bad Fallingbostel, Stadt","type":"Stadt"},"district":{"key":"03358","name":"Heidekreis","type":"Landkreis"},"federalState":{"key":"03","name":"Niedersachsen"}},{"name":"Bomwiese","postalCode":"29683","locality":"Bad Fallingbostel","municipality":{"key":"03358008","name":"Bad Fallingbostel, Stadt","type":"Stadt"},"district":{"key":"03358","name":"Heidekreis","type":"Landkreis"},"federalState":{"key":"03","name":"Niedersachsen"}},{"name":"Bookhorst","postalCode":"29683","locality":"Bad Fallingbostel","municipality":{"key":"03358008","name":"Bad Fallingbostel, Stadt","type":"Stadt"},"district":{"key":"03358","name":"Heidekreis","type":"Landkreis"},"federalState":{"key":"03","name":"Niedersachsen"}},{"name":"Borwiese","postalCode":"54426","locality":"Talling","municipality":{"key":"07231122","name":"Talling","type":"Kreisangehörige_Gemeinde"},"district":{"key":"07231","name":"Bernkastel-Wittlich","type":"Landkreis"},"federalState":{"key":"07","name":"Rheinland-Pfalz"}},{"name":"Böstlinger Str.","postalCode":"29683","locality":"Bad Fallingbostel","municipality":{"key":"03358008","name":"Bad Fallingbostel, Stadt","type":"Stadt"},"district":{"key":"03358","name":"Heidekreis","type":"Landkreis"},"federalState":{"key":"03","name":"Niedersachsen"}},{"name":"Bräuanger","postalCode":"83349","locality":"Palling","municipality":{"key":"09189134","name":"Palling","type":"Kreisangehörige_Gemeinde"},"district":{"key":"09189","name":"Traunstein","type":"Landkreis"},"federalState":{"key":"09","name":"Bayern"}},{"name":"Bräugasse","postalCode":"83349","locality":"Palling","municipality":{"key":"09189134","name":"Palling","type":"Kreisangehörige_Gemeinde"},"district":{"key":"09189","name":"Traunstein","type":"Landkreis"},"federalState":{"key":"09","name":"Bayern"}},{"name":"Breslauer Str.","postalCode":"29683","locality":"Bad Fallingbostel","municipality":{"key":"03358008","name":"Bad Fallingbostel, Stadt","type":"Stadt"},"district":{"key":"03358","name":"Heidekreis","type":"Landkreis"},"federalState":{"key":"03","name":"Niedersachsen"}},{"name":"Brocker Kirchweg","postalCode":"29683","locality":"Bad Fallingbostel","municipality":{"key":"03358008","name":"Bad Fallingbostel, Stadt","type":"Stadt"},"district":{"key":"03358","name":"Heidekreis","type":"Landkreis"},"federalState":{"key":"03","name":"Niedersachsen"}},{"name":"Brunnenweg","postalCode":"83349","locality":"Palling","municipality":{"key":"09189134","name":"Palling","type":"Kreisangehörige_Gemeinde"},"district":{"key":"09189","name":"Traunstein","type":"Landkreis"},"federalState":{"key":"09","name":"Bayern"}},{"name":"Brünning","postalCode":"83349","locality":"Palling","municipality":{"key":"09189134","name":"Palling","type":"Kreisangehörige_Gemeinde"},"district":{"key":"09189","name":"Traunstein","type":"Landkreis"},"federalState":{"key":"09","name":"Bayern"}},{"name":"Buchenweg","postalCode":"29683","locality":"Bad Fallingbostel","municipality":{"key":"03358008","name":"Bad Fallingbostel, Stadt","type":"Stadt"},"district":{"key":"03358","name":"Heidekreis","type":"Landkreis"},"federalState":{"key":"03","name":"Niedersachsen"}},{"name":"Buchetstr.","postalCode":"83349","locality":"Palling","municipality":{"key":"09189134","name":"Palling","type":"Kreisangehörige_Gemeinde"},"district":{"key":"09189","name":"Traunstein","type":"Landkreis"},"federalState":{"key":"09","name":"Bayern"}},{"name":"Bürgerpark","postalCode":"29683","locality":"Bad Fallingbostel","municipality":{"key":"03358008","name":"Bad Fallingbostel, Stadt","type":"Stadt"},"district":{"key":"03358","name":"Heidekreis","type":"Landkreis"},"federalState":{"key":"03","name":"Niedersachsen"}},{"name":"Chemnitzer Str.","postalCode":"29683","locality":"Bad Fallingbostel","municipality":{"key":"03358008","name":"Bad Fallingbostel, Stadt","type":"Stadt"},"district":{"key":"03358","name":"Heidekreis","type":"Landkreis"},"federalState":{"key":"03","name":"Niedersachsen"}},{"name":"Chiemgaustr.","postalCode":"83349","locality":"Palling","municipality":{"key":"09189134","name":"Palling","type":"Kreisangehörige_Gemeinde"},"district":{"key":"09189","name":"Traunstein","type":"Landkreis"},"federalState":{"key":"09","name":"Bayern"}},{"name":"Dannhorst","postalCode":"29683","locality":"Bad Fallingbostel","municipality":{"key":"03358008","name":"Bad Fallingbostel, Stadt","type":"Stadt"},"district":{"key":"03358","name":"Heidekreis","type":"Landkreis"},"federalState":{"key":"03","name":"Niedersachsen"}},{"name":"Danziger Str.","postalCode":"29683","locality":"Bad Fallingbostel","municipality":{"key":"03358008","name":"Bad Fallingbostel, Stadt","type":"Stadt"},"district":{"key":"03358","name":"Heidekreis","type":"Landkreis"},"federalState":{"key":"03","name":"Niedersachsen"}},{"name":"Deiler Weg","postalCode":"29683","locality":"Bad Fallingbostel","municipality":{"key":"03358008","name":"Bad Fallingbostel, Stadt","type":"Stadt"},"district":{"key":"03358","name":"Heidekreis","type":"Landkreis"},"federalState":{"key":"03","name":"Niedersachsen"}},{"name":"Diestelkamp","postalCode":"29683","locality":"Bad Fallingbostel","municipality":{"key":"03358008","name":"Bad Fallingbostel, Stadt","type":"Stadt"},"district":{"key":"03358","name":"Heidekreis","type":"Landkreis"},"federalState":{"key":"03","name":"Niedersachsen"}},{"name":"Dietrich-Bonhoeffer-Weg","postalCode":"29683","locality":"Bad Fallingbostel","municipality":{"key":"03358008","name":"Bad Fallingbostel, Stadt","type":"Stadt"},"district":{"key":"03358","name":"Heidekreis","type":"Landkreis"},"federalState":{"key":"03","name":"Niedersachsen"}},{"name":"Dittmer Brücke","postalCode":"29683","locality":"Bad Fallingbostel","municipality":{"key":"03358008","name":"Bad Fallingbostel, Stadt","type":"Stadt"},"district":{"key":"03358","name":"Heidekreis","type":"Landkreis"},"federalState":{"key":"03","name":"Niedersachsen"}},{"name":"Doktor-Zippel-Str.","postalCode":"29683","locality":"Bad Fallingbostel","municipality":{"key":"03358008","name":"Bad Fallingbostel, Stadt","type":"Stadt"},"district":{"key":"03358","name":"Heidekreis","type":"Landkreis"},"federalState":{"key":"03","name":"Niedersachsen"}},{"name":"Dorfstr.","postalCode":"82239","locality":"Alling","municipality":{"key":"09179113","name":"Alling","type":"Kreisangehörige_Gemeinde"},"district":{"key":"09179","name":"Fürstenfeldbruck","type":"Landkreis"},"federalState":{"key":"09","name":"Bayern"}},{"name":"Dorfstr.","postalCode":"94551","locality":"Lalling","municipality":{"key":"09271130","name":"Lalling","type":"Kreisangehörige_Gemeinde"},"district":{"key":"09271","name":"Deggendorf","type":"Landkreis"},"federalState":{"key":"09","name":"Bayern"}},{"name":"Dr.-Fricke-Weg","postalCode":"29683","locality":"Bad Fallingbostel","municipality":{"key":"03358008","name":"Bad Fallingbostel, Stadt","type":"Stadt"},"district":{"key":"03358","name":"Heidekreis","type":"Landkreis"},"federalState":{"key":"03","name":"Niedersachsen"}},{"name":"Drosselweg","postalCode":"29683","locality":"Bad Fallingbostel","municipality":{"key":"03358008","name":"Bad Fallingbostel, Stadt","type":"Stadt"},"district":{"key":"03358","name":"Heidekreis","type":"Landkreis"},"federalState":{"key":"03","name":"Niedersachsen"}},{"name":"Drosselweg","postalCode":"83349","locality":"Palling","municipality":{"key":"09189134","name":"Palling","type":"Kreisangehörige_Gemeinde"},"district":{"key":"09189","name":"Traunstein","type":"Landkreis"},"federalState":{"key":"09","name":"Bayern"}},{"name":"Durchfurtherschuß","postalCode":"94551","locality":"Lalling","municipality":{"key":"09271130","name":"Lalling","type":"Kreisangehörige_Gemeinde"},"district":{"key":"09271","name":"Deggendorf","type":"Landkreis"},"federalState":{"key":"09","name":"Bayern"}},{"name":"Düshop","postalCode":"29683","locality":"Bad Fallingbostel","municipality":{"key":"03358008","name":"Bad Fallingbostel, Stadt","type":"Stadt"},"district":{"key":"03358","name":"Heidekreis","type":"Landkreis"},"federalState":{"key":"03","name":"Niedersachsen"}},{"name":"Düshorner Str.","postalCode":"29683","locality":"Bad Fallingbostel","municipality":{"key":"03358008","name":"Bad Fallingbostel, Stadt","type":"Stadt"},"district":{"key":"03358","name":"Heidekreis","type":"Landkreis"},"federalState":{"key":"03","name":"Niedersachsen"}},{"name":"Eckernkamp","postalCode":"29683","locality":"Bad Fallingbostel","municipality":{"key":"03358008","name":"Bad Fallingbostel, Stadt","type":"Stadt"},"district":{"key":"03358","name":"Heidekreis","type":"Landkreis"},"federalState":{"key":"03","name":"Niedersachsen"}},{"name":"Edelfeldweg","postalCode":"82239","locality":"Alling","municipality":{"key":"09179113","name":"Alling","type":"Kreisangehörige_Gemeinde"},"district":{"key":"09179","name":"Fürstenfeldbruck","type":"Landkreis"},"federalState":{"key":"09","name":"Bayern"}},{"name":"Edith-Stein-Weg","postalCode":"29683","locality":"Bad Fallingbostel","municipality":{"key":"03358008","name":"Bad Fallingbostel, Stadt","type":"Stadt"},"district":{"key":"03358","name":"Heidekreis","type":"Landkreis"},"federalState":{"key":"03","name":"Niedersachsen"}},{"name":"Eggersglüßstr.","postalCode":"29683","locality":"Bad Fallingbostel","municipality":{"key":"03358008","name":"Bad Fallingbostel, Stadt","type":"Stadt"},"district":{"key":"03358","name":"Heidekreis","type":"Landkreis"},"federalState":{"key":"03","name":"Niedersachsen"}},{"name":"Eichendorffstr.","postalCode":"29683","locality":"Bad Fallingbostel","municipality":{"key":"03358008","name":"Bad Fallingbostel, Stadt","type":"Stadt"},"district":{"key":"03358","name":"Heidekreis","type":"Landkreis"},"federalState":{"key":"03","name":"Niedersachsen"}},{"name":"Eichenhöhe","postalCode":"29683","locality":"Bad Fallingbostel","municipality":{"key":"03358008","name":"Bad Fallingbostel, Stadt","type":"Stadt"},"district":{"key":"03358","name":"Heidekreis","type":"Landkreis"},"federalState":{"key":"03","name":"Niedersachsen"}},{"name":"Eichenwinkel","postalCode":"29683","locality":"Bad Fallingbostel","municipality":{"key":"03358008","name":"Bad Fallingbostel, Stadt","type":"Stadt"},"district":{"key":"03358","name":"Heidekreis","type":"Landkreis"},"federalState":{"key":"03","name":"Niedersachsen"}},{"name":"Einzinger Str.","postalCode":"29683","locality":"Bad Fallingbostel","municipality":{"key":"03358008","name":"Bad Fallingbostel, Stadt","type":"Stadt"},"district":{"key":"03358","name":"Heidekreis","type":"Landkreis"},"federalState":{"key":"03","name":"Niedersachsen"}},{"name":"Elferdinger Str.","postalCode":"29683","locality":"Bad Fallingbostel","municipality":{"key":"03358008","name":"Bad Fallingbostel, Stadt","type":"Stadt"},"district":{"key":"03358","name":"Heidekreis","type":"Landkreis"},"federalState":{"key":"03","name":"Niedersachsen"}},{"name":"Ellernstr.","postalCode":"29683","locality":"Bad Fallingbostel","municipality":{"key":"03358008","name":"Bad Fallingbostel, Stadt","type":"Stadt"},"district":{"key":"03358","name":"Heidekreis","type":"Landkreis"},"federalState":{"key":"03","name":"Niedersachsen"}},{"name":"Elly-Heuss-Knapp-Weg","postalCode":"29683","locality":"Bad Fallingbostel","municipality":{"key":"03358008","name":"Bad Fallingbostel, Stadt","type":"Stadt"},"district":{"key":"03358","name":"Heidekreis","type":"Landkreis"},"federalState":{"key":"03","name":"Niedersachsen"}},{"name":"Erlenfeldstr.","postalCode":"82239","locality":"Alling","municipality":{"key":"09179113","name":"Alling","type":"Kreisangehörige_Gemeinde"},"district":{"key":"09179","name":"Fürstenfeldbruck","type":"Landkreis"},"federalState":{"key":"09","name":"Bayern"}},{"name":"Ernst-Barlach-Ring","postalCode":"29683","locality":"Bad Fallingbostel","municipality":{"key":"03358008","name":"Bad Fallingbostel, Stadt","type":"Stadt"},"district":{"key":"03358","name":"Heidekreis","type":"Landkreis"},"federalState":{"key":"03","name":"Niedersachsen"}},{"name":"Eschenweg","postalCode":"83349","locality":"Palling","municipality":{"key":"09189134","name":"Palling","type":"Kreisangehörige_Gemeinde"},"district":{"key":"09189","name":"Traunstein","type":"Landkreis"},"federalState":{"key":"09","name":"Bayern"}},{"name":"Euschertsfurth","postalCode":"94551","locality":"Lalling","municipality":{"key":"09271130","name":"Lalling","type":"Kreisangehörige_Gemeinde"},"district":{"key":"09271","name":"Deggendorf","type":"Landkreis"},"federalState":{"key":"09","name":"Bayern"}},{"name":"Fahrenholzer Weg","postalCode":"29683","locality":"Bad Fallingbostel","municipality":{"key":"03358008","name":"Bad Fallingbostel, Stadt","type":"Stadt"},"district":{"key":"03358","name":"Heidekreis","type":"Landkreis"},"federalState":{"key":"03","name":"Niedersachsen"}},{"name":"Feichtner Str.","postalCode":"83349","locality":"Palling","municipality":{"key":"09189134","name":"Palling","type":"Kreisangehörige_Gemeinde"},"district":{"key":"09189","name":"Traunstein","type":"Landkreis"},"federalState":{"key":"09","name":"Bayern"}},{"name":"Feldhüterstr.","postalCode":"82239","locality":"Alling","municipality":{"key":"09179113","name":"Alling","type":"Kreisangehörige_Gemeinde"},"district":{"key":"09179","name":"Fürstenfeldbruck","type":"Landkreis"},"federalState":{"key":"09","name":"Bayern"}},{"name":"Feldstr.","postalCode":"29683","locality":"Bad Fallingbostel","municipality":{"key":"03358008","name":"Bad Fallingbostel, Stadt","type":"Stadt"},"district":{"key":"03358","name":"Heidekreis","type":"Landkreis"},"federalState":{"key":"03","name":"Niedersachsen"}},{"name":"Feng- Shui- Kurpark","postalCode":"94551","locality":"Lalling","municipality":{"key":"09271130","name":"Lalling","type":"Kreisangehörige_Gemeinde"},"district":{"key":"09271","name":"Deggendorf","type":"Landkreis"},"federalState":{"key":"09","name":"Bayern"}},{"name":"Fichtenweg","postalCode":"29683","locality":"Bad Fallingbostel","municipality":{"key":"03358008","name":"Bad Fallingbostel, Stadt","type":"Stadt"},"district":{"key":"03358","name":"Heidekreis","type":"Landkreis"},"federalState":{"key":"03","name":"Niedersachsen"}},{"name":"Finkenweg","postalCode":"29683","locality":"Bad Fallingbostel","municipality":{"key":"03358008","name":"Bad Fallingbostel, Stadt","type":"Stadt"},"district":{"key":"03358","name":"Heidekreis","type":"Landkreis"},"federalState":{"key":"03","name":"Niedersachsen"}},{"name":"Fischendorfer Str.","postalCode":"29683","locality":"Bad Fallingbostel","municipality":{"key":"03358008","name":"Bad Fallingbostel, Stadt","type":"Stadt"},"district":{"key":"03358","name":"Heidekreis","type":"Landkreis"},"federalState":{"key":"03","name":"Niedersachsen"}},{"name":"Flebbe Brücke","postalCode":"29683","locality":"Bad Fallingbostel","municipality":{"key":"03358008","name":"Bad Fallingbostel, Stadt","type":"Stadt"},"district":{"key":"03358","name":"Heidekreis","type":"Landkreis"},"federalState":{"key":"03","name":"Niedersachsen"}},{"name":"Flurstr.","postalCode":"82239","locality":"Alling","municipality":{"key":"09179113","name":"Alling","type":"Kreisangehörige_Gemeinde"},"district":{"key":"09179","name":"Fürstenfeldbruck","type":"Landkreis"},"federalState":{"key":"09","name":"Bayern"}},{"name":"Freudenthalstr.","postalCode":"29683","locality":"Bad Fallingbostel","municipality":{"key":"03358008","name":"Bad Fallingbostel, Stadt","type":"Stadt"},"district":{"key":"03358","name":"Heidekreis","type":"Landkreis"},"federalState":{"key":"03","name":"Niedersachsen"}},{"name":"Friederike-Fricke-Weg","postalCode":"29683","locality":"Bad Fallingbostel","municipality":{"key":"03358008","name":"Bad Fallingbostel, Stadt","type":"Stadt"},"district":{"key":"03358","name":"Heidekreis","type":"Landkreis"},"federalState":{"key":"03","name":"Niedersachsen"}},{"name":"Fritz-Elling-Str.","postalCode":"29683","locality":"Bad Fallingbostel","municipality":{"key":"03358008","name":"Bad Fallingbostel, Stadt","type":"Stadt"},"district":{"key":"03358","name":"Heidekreis","type":"Landkreis"},"federalState":{"key":"03","name":"Niedersachsen"}},{"name":"Fritz-Reuter-Str.","postalCode":"29683","locality":"Bad Fallingbostel","municipality":{"key":"03358008","name":"Bad Fallingbostel, Stadt","type":"Stadt"},"district":{"key":"03358","name":"Heidekreis","type":"Landkreis"},"federalState":{"key":"03","name":"Niedersachsen"}},{"name":"Frohnmühlweg","postalCode":"94551","locality":"Lalling","municipality":{"key":"09271130","name":"Lalling","type":"Kreisangehörige_Gemeinde"},"district":{"key":"09271","name":"Deggendorf","type":"Landkreis"},"federalState":{"key":"09","name":"Bayern"}},{"name":"Fuchskamp","postalCode":"29683","locality":"Bad Fallingbostel","municipality":{"key":"03358008","name":"Bad Fallingbostel, Stadt","type":"Stadt"},"district":{"key":"03358","name":"Heidekreis","type":"Landkreis"},"federalState":{"key":"03","name":"Niedersachsen"}},{"name":"Fuhrenkamp","postalCode":"29683","locality":"Bad Fallingbostel","municipality":{"key":"03358008","name":"Bad Fallingbostel, Stadt","type":"Stadt"},"district":{"key":"03358","name":"Heidekreis","type":"Landkreis"},"federalState":{"key":"03","name":"Niedersachsen"}},{"name":"Ganghoferstr.","postalCode":"83349","locality":"Palling","municipality":{"key":"09189134","name":"Palling","type":"Kreisangehörige_Gemeinde"},"district":{"key":"09189","name":"Traunstein","type":"Landkreis"},"federalState":{"key":"09","name":"Bayern"}},{"name":"Gartenstr.","postalCode":"29683","locality":"Bad Fallingbostel","municipality":{"key":"03358008","name":"Bad Fallingbostel, Stadt","type":"Stadt"},"district":{"key":"03358","name":"Heidekreis","type":"Landkreis"},"federalState":{"key":"03","name":"Niedersachsen"}},{"name":"Gartenstr.","postalCode":"54426","locality":"Talling","municipality":{"key":"07231122","name":"Talling","type":"Kreisangehörige_Gemeinde"},"district":{"key":"07231","name":"Bernkastel-Wittlich","type":"Landkreis"},"federalState":{"key":"07","name":"Rheinland-Pfalz"}},{"name":"Gartenstr.","postalCode":"82239","locality":"Alling","municipality":{"key":"09179113","name":"Alling","type":"Kreisangehörige_Gemeinde"},"district":{"key":"09179","name":"Fürstenfeldbruck","type":"Landkreis"},"federalState":{"key":"09","name":"Bayern"}},{"name":"Geiselfing","postalCode":"83349","locality":"Palling","municipality":{"key":"09189134","name":"Palling","type":"Kreisangehörige_Gemeinde"},"district":{"key":"09189","name":"Traunstein","type":"Landkreis"},"federalState":{"key":"09","name":"Bayern"}},{"name":"Gengham","postalCode":"83349","locality":"Palling","municipality":{"key":"09189134","name":"Palling","type":"Kreisangehörige_Gemeinde"},"district":{"key":"09189","name":"Traunstein","type":"Landkreis"},"federalState":{"key":"09","name":"Bayern"}},{"name":"Gerholling","postalCode":"94551","locality":"Lalling","municipality":{"key":"09271130","name":"Lalling","type":"Kreisangehörige_Gemeinde"},"district":{"key":"09271","name":"Deggendorf","type":"Landkreis"},"federalState":{"key":"09","name":"Bayern"}},{"name":"Germannsberger Str.","postalCode":"82239","locality":"Alling","municipality":{"key":"09179113","name":"Alling","type":"Kreisangehörige_Gemeinde"},"district":{"key":"09179","name":"Fürstenfeldbruck","type":"Landkreis"},"federalState":{"key":"09","name":"Bayern"}},{"name":"Gilchinger Str.","postalCode":"82239","locality":"Alling","municipality":{"key":"09179113","name":"Alling","type":"Kreisangehörige_Gemeinde"},"district":{"key":"09179","name":"Fürstenfeldbruck","type":"Landkreis"},"federalState":{"key":"09","name":"Bayern"}},{"name":"Goethering","postalCode":"29683","locality":"Bad Fallingbostel","municipality":{"key":"03358008","name":"Bad Fallingbostel, Stadt","type":"Stadt"},"district":{"key":"03358","name":"Heidekreis","type":"Landkreis"},"federalState":{"key":"03","name":"Niedersachsen"}},{"name":"Gorch-Fock-Platz","postalCode":"29683","locality":"Bad Fallingbostel","municipality":{"key":"03358008","name":"Bad Fallingbostel, Stadt","type":"Stadt"},"district":{"key":"03358","name":"Heidekreis","type":"Landkreis"},"federalState":{"key":"03","name":"Niedersachsen"}},{"name":"Görlitzer Str.","postalCode":"29683","locality":"Bad Fallingbostel","municipality":{"key":"03358008","name":"Bad Fallingbostel, Stadt","type":"Stadt"},"district":{"key":"03358","name":"Heidekreis","type":"Landkreis"},"federalState":{"key":"03","name":"Niedersachsen"}},{"name":"Grähnsweg","postalCode":"29683","locality":"Bad Fallingbostel","municipality":{"key":"03358008","name":"Bad Fallingbostel, Stadt","type":"Stadt"},"district":{"key":"03358","name":"Heidekreis","type":"Landkreis"},"federalState":{"key":"03","name":"Niedersachsen"}},{"name":"Graudenzer Str.","postalCode":"29683","locality":"Bad Fallingbostel","municipality":{"key":"03358008","name":"Bad Fallingbostel, Stadt","type":"Stadt"},"district":{"key":"03358","name":"Heidekreis","type":"Landkreis"},"federalState":{"key":"03","name":"Niedersachsen"}},{"name":"Greppenstr.","postalCode":"82239","locality":"Alling","municipality":{"key":"09179113","name":"Alling","type":"Kreisangehörige_Gemeinde"},"district":{"key":"09179","name":"Fürstenfeldbruck","type":"Landkreis"},"federalState":{"key":"09","name":"Bayern"}},{"name":"Griesstr.","postalCode":"82239","locality":"Alling","municipality":{"key":"09179113","name":"Alling","type":"Kreisangehörige_Gemeinde"},"district":{"key":"09179","name":"Fürstenfeldbruck","type":"Landkreis"},"federalState":{"key":"09","name":"Bayern"}},{"name":"Große Heide","postalCode":"29683","locality":"Bad Fallingbostel","municipality":{"key":"03358008","name":"Bad Fallingbostel, Stadt","type":"Stadt"},"district":{"key":"03358","name":"Heidekreis","type":"Landkreis"},"federalState":{"key":"03","name":"Niedersachsen"}},{"name":"Großer Hof","postalCode":"29683","locality":"Bad Fallingbostel","municipality":{"key":"03358008","name":"Bad Fallingbostel, Stadt","type":"Stadt"},"district":{"key":"03358","name":"Heidekreis","type":"Landkreis"},"federalState":{"key":"03","name":"Niedersachsen"}},{"name":"Grottenstr.","postalCode":"82239","locality":"Alling","municipality":{"key":"09179113","name":"Alling","type":"Kreisangehörige_Gemeinde"},"district":{"key":"09179","name":"Fürstenfeldbruck","type":"Landkreis"},"federalState":{"key":"09","name":"Bayern"}},{"name":"Haigermooser Str.","postalCode":"83349","locality":"Palling","municipality":{"key":"09189134","name":"Palling","type":"Kreisangehörige_Gemeinde"},"district":{"key":"09189","name":"Traunstein","type":"Landkreis"},"federalState":{"key":"09","name":"Bayern"}},{"name":"Hainbuchenbusch","postalCode":"29683","locality":"Bad Fallingbostel","municipality":{"key":"03358008","name":"Bad Fallingbostel, Stadt","type":"Stadt"},"district":{"key":"03358","name":"Heidekreis","type":"Landkreis"},"federalState":{"key":"03","name":"Niedersachsen"}},{"name":"Händelstr.","postalCode":"29683","locality":"Bad Fallingbostel","municipality":{"key":"03358008","name":"Bad Fallingbostel, Stadt","type":"Stadt"},"district":{"key":"03358","name":"Heidekreis","type":"Landkreis"},"federalState":{"key":"03","name":"Niedersachsen"}},{"name":"Hangstr.","postalCode":"82239","locality":"Alling","municipality":{"key":"09179113","name":"Alling","type":"Kreisangehörige_Gemeinde"},"district":{"key":"09179","name":"Fürstenfeldbruck","type":"Landkreis"},"federalState":{"key":"09","name":"Bayern"}},{"name":"Hans-Böckler-Str.","postalCode":"83349","locality":"Palling","municipality":{"key":"09189134","name":"Palling","type":"Kreisangehörige_Gemeinde"},"district":{"key":"09189","name":"Traunstein","type":"Landkreis"},"federalState":{"key":"09","name":"Bayern"}},{"name":"Hans-Stuhlmacher-Str.","postalCode":"29683","locality":"Bad Fallingbostel","municipality":{"key":"03358008","name":"Bad Fallingbostel, Stadt","type":"Stadt"},"district":{"key":"03358","name":"Heidekreis","type":"Landkreis"},"federalState":{"key":"03","name":"Niedersachsen"}},{"name":"Harpfetsham","postalCode":"83349","locality":"Palling","municipality":{"key":"09189134","name":"Palling","type":"Kreisangehörige_Gemeinde"},"district":{"key":"09189","name":"Traunstein","type":"Landkreis"},"federalState":{"key":"09","name":"Bayern"}},{"name":"Hartemer Weg","postalCode":"29683","locality":"Bad Fallingbostel","municipality":{"key":"03358008","name":"Bad Fallingbostel, Stadt","type":"Stadt"},"district":{"key":"03358","name":"Heidekreis","type":"Landkreis"},"federalState":{"key":"03","name":"Niedersachsen"}},{"name":"Harter Str.","postalCode":"83349","locality":"Palling","municipality":{"key":"09189134","name":"Palling","type":"Kreisangehörige_Gemeinde"},"district":{"key":"09189","name":"Traunstein","type":"Landkreis"},"federalState":{"key":"09","name":"Bayern"}},{"name":"Hartstr.","postalCode":"82239","locality":"Alling","municipality":{"key":"09179113","name":"Alling","type":"Kreisangehörige_Gemeinde"},"district":{"key":"09179","name":"Fürstenfeldbruck","type":"Landkreis"},"federalState":{"key":"09","name":"Bayern"}},{"name":"Haseneck","postalCode":"82239","locality":"Alling","municipality":{"key":"09179113","name":"Alling","type":"Kreisangehörige_Gemeinde"},"district":{"key":"09179","name":"Fürstenfeldbruck","type":"Landkreis"},"federalState":{"key":"09","name":"Bayern"}},{"name":"Haslach","postalCode":"83349","locality":"Palling","municipality":{"key":"09189134","name":"Palling","type":"Kreisangehörige_Gemeinde"},"district":{"key":"09189","name":"Traunstein","type":"Landkreis"},"federalState":{"key":"09","name":"Bayern"}},{"name":"Hauptstr.","postalCode":"29683","locality":"Bad Fallingbostel","municipality":{"key":"03358008","name":"Bad Fallingbostel, Stadt","type":"Stadt"},"district":{"key":"03358","name":"Heidekreis","type":"Landkreis"},"federalState":{"key":"03","name":"Niedersachsen"}},{"name":"Hauptstr.","postalCode":"54426","locality":"Talling","municipality":{"key":"07231122","name":"Talling","type":"Kreisangehörige_Gemeinde"},"district":{"key":"07231","name":"Bernkastel-Wittlich","type":"Landkreis"},"federalState":{"key":"07","name":"Rheinland-Pfalz"}},{"name":"Hauptstr.","postalCode":"83349","locality":"Palling","municipality":{"key":"09189134","name":"Palling","type":"Kreisangehörige_Gemeinde"},"district":{"key":"09189","name":"Traunstein","type":"Landkreis"},"federalState":{"key":"09","name":"Bayern"}},{"name":"Hauptstr.","postalCode":"94551","locality":"Lalling","municipality":{"key":"09271130","name":"Lalling","type":"Kreisangehörige_Gemeinde"},"district":{"key":"09271","name":"Deggendorf","type":"Landkreis"},"federalState":{"key":"09","name":"Bayern"}},{"name":"Heesterhof","postalCode":"29683","locality":"Bad Fallingbostel","municipality":{"key":"03358008","name":"Bad Fallingbostel, Stadt","type":"Stadt"},"district":{"key":"03358","name":"Heidekreis","type":"Landkreis"},"federalState":{"key":"03","name":"Niedersachsen"}},{"name":"Heideweg","postalCode":"29683","locality":"Bad Fallingbostel","municipality":{"key":"03358008","name":"Bad Fallingbostel, Stadt","type":"Stadt"},"district":{"key":"03358","name":"Heidekreis","type":"Landkreis"},"federalState":{"key":"03","name":"Niedersachsen"}},{"name":"Heidloh","postalCode":"29683","locality":"Bad Fallingbostel","municipality":{"key":"03358008","name":"Bad Fallingbostel, Stadt","type":"Stadt"},"district":{"key":"03358","name":"Heidekreis","type":"Landkreis"},"federalState":{"key":"03","name":"Niedersachsen"}},{"name":"Heidmarkstr.","postalCode":"29683","locality":"Bad Fallingbostel","municipality":{"key":"03358008","name":"Bad Fallingbostel, Stadt","type":"Stadt"},"district":{"key":"03358","name":"Heidekreis","type":"Landkreis"},"federalState":{"key":"03","name":"Niedersachsen"}},{"name":"Heinrichsstr.","postalCode":"29683","locality":"Bad Fallingbostel","municipality":{"key":"03358008","name":"Bad Fallingbostel, Stadt","type":"Stadt"},"district":{"key":"03358","name":"Heidekreis","type":"Landkreis"},"federalState":{"key":"03","name":"Niedersachsen"}},{"name":"Hermann-Löns-Str.","postalCode":"29683","locality":"Bad Fallingbostel","municipality":{"key":"03358008","name":"Bad Fallingbostel, Stadt","type":"Stadt"},"district":{"key":"03358","name":"Heidekreis","type":"Landkreis"},"federalState":{"key":"03","name":"Niedersachsen"}},{"name":"Hermann-Wildung-Str.","postalCode":"29683","locality":"Bad Fallingbostel","municipality":{"key":"03358008","name":"Bad Fallingbostel, Stadt","type":"Stadt"},"district":{"key":"03358","name":"Heidekreis","type":"Landkreis"},"federalState":{"key":"03","name":"Niedersachsen"}},{"name":"Herzog-Albrecht-Str.","postalCode":"82239","locality":"Alling","municipality":{"key":"09179113","name":"Alling","type":"Kreisangehörige_Gemeinde"},"district":{"key":"09179","name":"Fürstenfeldbruck","type":"Landkreis"},"federalState":{"key":"09","name":"Bayern"}},{"name":"Herzog-Ernst-Str.","postalCode":"82239","locality":"Alling","municipality":{"key":"09179113","name":"Alling","type":"Kreisangehörige_Gemeinde"},"district":{"key":"09179","name":"Fürstenfeldbruck","type":"Landkreis"},"federalState":{"key":"09","name":"Bayern"}},{"name":"Hindenburgstr.","postalCode":"29683","locality":"Bad Fallingbostel","municipality":{"key":"03358008","name":"Bad Fallingbostel, Stadt","type":"Stadt"},"district":{"key":"03358","name":"Heidekreis","type":"Landkreis"},"federalState":{"key":"03","name":"Niedersachsen"}},{"name":"Hirtenstr.","postalCode":"82239","locality":"Alling","municipality":{"key":"09179113","name":"Alling","type":"Kreisangehörige_Gemeinde"},"district":{"key":"09179","name":"Fürstenfeldbruck","type":"Landkreis"},"federalState":{"key":"09","name":"Bayern"}},{"name":"Höbinger Str.","postalCode":"29683","locality":"Bad Fallingbostel","municipality":{"key":"03358008","name":"Bad Fallingbostel, Stadt","type":"Stadt"},"district":{"key":"03358","name":"Heidekreis","type":"Landkreis"},"federalState":{"key":"03","name":"Niedersachsen"}},{"name":"Hochberg","postalCode":"94551","locality":"Lalling","municipality":{"key":"09271130","name":"Lalling","type":"Kreisangehörige_Gemeinde"},"district":{"key":"09271","name":"Deggendorf","type":"Landkreis"},"federalState":{"key":"09","name":"Bayern"}},{"name":"Hochfellnweg","postalCode":"83349","locality":"Palling","municipality":{"key":"09189134","name":"Palling","type":"Kreisangehörige_Gemeinde"},"district":{"key":"09189","name":"Traunstein","type":"Landkreis"},"federalState":{"key":"09","name":"Bayern"}},{"name":"Hochwaldweg","postalCode":"94551","locality":"Lalling","municipality":{"key":"09271130","name":"Lalling","type":"Kreisangehörige_Gemeinde"},"district":{"key":"09271","name":"Deggendorf","type":"Landkreis"},"federalState":{"key":"09","name":"Bayern"}},{"name":"Hoflacher Str.","postalCode":"82239","locality":"Alling","municipality":{"key":"09179113","name":"Alling","type":"Kreisangehörige_Gemeinde"},"district":{"key":"09179","name":"Fürstenfeldbruck","type":"Landkreis"},"federalState":{"key":"09","name":"Bayern"}},{"name":"Hofstatt","postalCode":"94551","locality":"Lalling","municipality":{"key":"09271130","name":"Lalling","type":"Kreisangehörige_Gemeinde"},"district":{"key":"09271","name":"Deggendorf","type":"Landkreis"},"federalState":{"key":"09","name":"Bayern"}},{"name":"Hofstätt","postalCode":"83349","locality":"Palling","municipality":{"key":"09189134","name":"Palling","type":"Kreisangehörige_Gemeinde"},"district":{"key":"09189","name":"Traunstein","type":"Landkreis"},"federalState":{"key":"09","name":"Bayern"}},{"name":"Höhenstetten","postalCode":"83349","locality":"Palling","municipality":{"key":"09189134","name":"Palling","type":"Kreisangehörige_Gemeinde"},"district":{"key":"09189","name":"Traunstein","type":"Landkreis"},"federalState":{"key":"09","name":"Bayern"}},{"name":"Holunderweg","postalCode":"29683","locality":"Bad Fallingbostel","municipality":{"key":"03358008","name":"Bad Fallingbostel, Stadt","type":"Stadt"},"district":{"key":"03358","name":"Heidekreis","type":"Landkreis"},"federalState":{"key":"03","name":"Niedersachsen"}},{"name":"Holzhausen","postalCode":"82239","locality":"Alling","municipality":{"key":"09179113","name":"Alling","type":"Kreisangehörige_Gemeinde"},"district":{"key":"09179","name":"Fürstenfeldbruck","type":"Landkreis"},"federalState":{"key":"09","name":"Bayern"}},{"name":"Holzkirchner Weg","postalCode":"82239","locality":"Alling","municipality":{"key":"09179113","name":"Alling","type":"Kreisangehörige_Gemeinde"},"district":{"key":"09179","name":"Fürstenfeldbruck","type":"Landkreis"},"federalState":{"key":"09","name":"Bayern"}},{"name":"Hörmetsham","postalCode":"83349","locality":"Palling","municipality":{"key":"09189134","name":"Palling","type":"Kreisangehörige_Gemeinde"},"district":{"key":"09189","name":"Traunstein","type":"Landkreis"},"federalState":{"key":"09","name":"Bayern"}},{"name":"Hühnerworth","postalCode":"29683","locality":"Bad Fallingbostel","municipality":{"key":"03358008","name":"Bad Fallingbostel, Stadt","type":"Stadt"},"district":{"key":"03358","name":"Heidekreis","type":"Landkreis"},"federalState":{"key":"03","name":"Niedersachsen"}},{"name":"Idinger Heide","postalCode":"29683","locality":"Bad Fallingbostel","municipality":{"key":"03358008","name":"Bad Fallingbostel, Stadt","type":"Stadt"},"district":{"key":"03358","name":"Heidekreis","type":"Landkreis"},"federalState":{"key":"03","name":"Niedersachsen"}},{"name":"Im Ecken","postalCode":"54426","locality":"Talling","municipality":{"key":"07231122","name":"Talling","type":"Kreisangehörige_Gemeinde"},"district":{"key":"07231","name":"Bernkastel-Wittlich","type":"Landkreis"},"federalState":{"key":"07","name":"Rheinland-Pfalz"}},{"name":"Im Garten","postalCode":"29683","locality":"Bad Fallingbostel","municipality":{"key":"03358008","name":"Bad Fallingbostel, Stadt","type":"Stadt"},"district":{"key":"03358","name":"Heidekreis","type":"Landkreis"},"federalState":{"key":"03","name":"Niedersachsen"}},{"name":"Immenweg","postalCode":"29683","locality":"Bad Fallingbostel","municipality":{"key":"03358008","name":"Bad Fallingbostel, Stadt","type":"Stadt"},"district":{"key":"03358","name":"Heidekreis","type":"Landkreis"},"federalState":{"key":"03","name":"Niedersachsen"}},{"name":"Im Osterfeld","postalCode":"29683","locality":"Bad Fallingbostel","municipality":{"key":"03358008","name":"Bad Fallingbostel, Stadt","type":"Stadt"},"district":{"key":"03358","name":"Heidekreis","type":"Landkreis"},"federalState":{"key":"03","name":"Niedersachsen"}},{"name":"Im Wedden","postalCode":"29683","locality":"Bad Fallingbostel","municipality":{"key":"03358008","name":"Bad Fallingbostel, Stadt","type":"Stadt"},"district":{"key":"03358","name":"Heidekreis","type":"Landkreis"},"federalState":{"key":"03","name":"Niedersachsen"}},{"name":"Im Wiesengrund","postalCode":"29683","locality":"Bad Fallingbostel","municipality":{"key":"03358008","name":"Bad Fallingbostel, Stadt","type":"Stadt"},"district":{"key":"03358","name":"Heidekreis","type":"Landkreis"},"federalState":{"key":"03","name":"Niedersachsen"}},{"name":"Jägerhölzlstr.","postalCode":"94551","locality":"Lalling","municipality":{"key":"09271130","name":"Lalling","type":"Kreisangehörige_Gemeinde"},"district":{"key":"09271","name":"Deggendorf","type":"Landkreis"},"federalState":{"key":"09","name":"Bayern"}},{"name":"Jahnstr.","postalCode":"83349","locality":"Palling","municipality":{"key":"09189134","name":"Palling","type":"Kreisangehörige_Gemeinde"},"district":{"key":"09189","name":"Traunstein","type":"Landkreis"},"federalState":{"key":"09","name":"Bayern"}},{"name":"Justus-von-Liebig-Str.","postalCode":"29683","locality":"Bad Fallingbostel","municipality":{"key":"03358008","name":"Bad Fallingbostel, Stadt","type":"Stadt"},"district":{"key":"03358","name":"Heidekreis","type":"Landkreis"},"federalState":{"key":"03","name":"Niedersachsen"}},{"name":"Kampgartenstr.","postalCode":"29683","locality":"Bad Fallingbostel","municipality":{"key":"03358008","name":"Bad Fallingbostel, Stadt","type":"Stadt"},"district":{"key":"03358","name":"Heidekreis","type":"Landkreis"},"federalState":{"key":"03","name":"Niedersachsen"}},{"name":"Kantstr.","postalCode":"29683","locality":"Bad Fallingbostel","municipality":{"key":"03358008","name":"Bad Fallingbostel, Stadt","type":"Stadt"},"district":{"key":"03358","name":"Heidekreis","type":"Landkreis"},"federalState":{"key":"03","name":"Niedersachsen"}},{"name":"Kapellenstr.","postalCode":"82239","locality":"Alling","municipality":{"key":"09179113","name":"Alling","type":"Kreisangehörige_Gemeinde"},"district":{"key":"09179","name":"Fürstenfeldbruck","type":"Landkreis"},"federalState":{"key":"09","name":"Bayern"}},{"name":"Kapellenweg","postalCode":"83349","locality":"Palling","municipality":{"key":"09189134","name":"Palling","type":"Kreisangehörige_Gemeinde"},"district":{"key":"09189","name":"Traunstein","type":"Landkreis"},"federalState":{"key":"09","name":"Bayern"}},{"name":"Käthe-Kollwitz-Str.","postalCode":"29683","locality":"Bad Fallingbostel","municipality":{"key":"03358008","name":"Bad Fallingbostel, Stadt","type":"Stadt"},"district":{"key":"03358","name":"Heidekreis","type":"Landkreis"},"federalState":{"key":"03","name":"Niedersachsen"}},{"name":"Katzwalchen","postalCode":"83349","locality":"Palling","municipality":{"key":"09189134","name":"Palling","type":"Kreisangehörige_Gemeinde"},"district":{"key":"09189","name":"Traunstein","type":"Landkreis"},"federalState":{"key":"09","name":"Bayern"}},{"name":"Kaußing","postalCode":"94551","locality":"Lalling","municipality":{"key":"09271130","name":"Lalling","type":"Kreisangehörige_Gemeinde"},"district":{"key":"09271","name":"Deggendorf","type":"Landkreis"},"federalState":{"key":"09","name":"Bayern"}},{"name":"Kiebitzweg","postalCode":"82239","locality":"Alling","municipality":{"key":"09179113","name":"Alling","type":"Kreisangehörige_Gemeinde"},"district":{"key":"09179","name":"Fürstenfeldbruck","type":"Landkreis"},"federalState":{"key":"09","name":"Bayern"}},{"name":"Kiefernweg","postalCode":"29683","locality":"Bad Fallingbostel","municipality":{"key":"03358008","name":"Bad Fallingbostel, Stadt","type":"Stadt"},"district":{"key":"03358","name":"Heidekreis","type":"Landkreis"},"federalState":{"key":"03","name":"Niedersachsen"}},{"name":"Kiesberg","postalCode":"29683","locality":"Bad Fallingbostel","municipality":{"key":"03358008","name":"Bad Fallingbostel, Stadt","type":"Stadt"},"district":{"key":"03358","name":"Heidekreis","type":"Landkreis"},"federalState":{"key":"03","name":"Niedersachsen"}},{"name":"Kindergartenstr.","postalCode":"83349","locality":"Palling","municipality":{"key":"09189134","name":"Palling","type":"Kreisangehörige_Gemeinde"},"district":{"key":"09189","name":"Traunstein","type":"Landkreis"},"federalState":{"key":"09","name":"Bayern"}},{"name":"Kirchberg","postalCode":"83349","locality":"Palling","municipality":{"key":"09189134","name":"Palling","type":"Kreisangehörige_Gemeinde"},"district":{"key":"09189","name":"Traunstein","type":"Landkreis"},"federalState":{"key":"09","name":"Bayern"}},{"name":"Kirchfeldstr.","postalCode":"94551","locality":"Lalling","municipality":{"key":"09271130","name":"Lalling","type":"Kreisangehörige_Gemeinde"},"district":{"key":"09271","name":"Deggendorf","type":"Landkreis"},"federalState":{"key":"09","name":"Bayern"}},{"name":"Kirchgasse","postalCode":"83349","locality":"Palling","municipality":{"key":"09189134","name":"Palling","type":"Kreisangehörige_Gemeinde"},"district":{"key":"09189","name":"Traunstein","type":"Landkreis"},"federalState":{"key":"09","name":"Bayern"}},{"name":"Kirchplatz","postalCode":"29683","locality":"Bad Fallingbostel","municipality":{"key":"03358008","name":"Bad Fallingbostel, Stadt","type":"Stadt"},"district":{"key":"03358","name":"Heidekreis","type":"Landkreis"},"federalState":{"key":"03","name":"Niedersachsen"}},{"name":"Kirchplatz","postalCode":"94551","locality":"Lalling","municipality":{"key":"09271130","name":"Lalling","type":"Kreisangehörige_Gemeinde"},"district":{"key":"09271","name":"Deggendorf","type":"Landkreis"},"federalState":{"key":"09","name":"Bayern"}},{"name":"Kirchstr.","postalCode":"82239","locality":"Alling","municipality":{"key":"09179113","name":"Alling","type":"Kreisangehörige_Gemeinde"},"district":{"key":"09179","name":"Fürstenfeldbruck","type":"Landkreis"},"federalState":{"key":"09","name":"Bayern"}},{"name":"Kirchweg","postalCode":"82239","locality":"Alling","municipality":{"key":"09179113","name":"Alling","type":"Kreisangehörige_Gemeinde"},"district":{"key":"09179","name":"Fürstenfeldbruck","type":"Landkreis"},"federalState":{"key":"09","name":"Bayern"}},{"name":"Kleines Moor","postalCode":"29683","locality":"Bad Fallingbostel","municipality":{"key":"03358008","name":"Bad Fallingbostel, Stadt","type":"Stadt"},"district":{"key":"03358","name":"Heidekreis","type":"Landkreis"},"federalState":{"key":"03","name":"Niedersachsen"}},{"name":"Klint","postalCode":"29683","locality":"Bad Fallingbostel","municipality":{"key":"03358008","name":"Bad Fallingbostel, Stadt","type":"Stadt"},"district":{"key":"03358","name":"Heidekreis","type":"Landkreis"},"federalState":{"key":"03","name":"Niedersachsen"}},{"name":"Klinter Kirchweg","postalCode":"29683","locality":"Bad Fallingbostel","municipality":{"key":"03358008","name":"Bad Fallingbostel, Stadt","type":"Stadt"},"district":{"key":"03358","name":"Heidekreis","type":"Landkreis"},"federalState":{"key":"03","name":"Niedersachsen"}},{"name":"Klosterworth","postalCode":"29683","locality":"Bad Fallingbostel","municipality":{"key":"03358008","name":"Bad Fallingbostel, Stadt","type":"Stadt"},"district":{"key":"03358","name":"Heidekreis","type":"Landkreis"},"federalState":{"key":"03","name":"Niedersachsen"}},{"name":"Kolkweg","postalCode":"29683","locality":"Bad Fallingbostel","municipality":{"key":"03358008","name":"Bad Fallingbostel, Stadt","type":"Stadt"},"district":{"key":"03358","name":"Heidekreis","type":"Landkreis"},"federalState":{"key":"03","name":"Niedersachsen"}},{"name":"Kolpingstr.","postalCode":"82239","locality":"Alling","municipality":{"key":"09179113","name":"Alling","type":"Kreisangehörige_Gemeinde"},"district":{"key":"09179","name":"Fürstenfeldbruck","type":"Landkreis"},"federalState":{"key":"09","name":"Bayern"}},{"name":"Kolpingweg","postalCode":"83349","locality":"Palling","municipality":{"key":"09189134","name":"Palling","type":"Kreisangehörige_Gemeinde"},"district":{"key":"09189","name":"Traunstein","type":"Landkreis"},"federalState":{"key":"09","name":"Bayern"}},{"name":"Königsberger Str.","postalCode":"29683","locality":"Bad Fallingbostel","municipality":{"key":"03358008","name":"Bad Fallingbostel, Stadt","type":"Stadt"},"district":{"key":"03358","name":"Heidekreis","type":"Landkreis"},"federalState":{"key":"03","name":"Niedersachsen"}},{"name":"Konrad-Zuse-Str.","postalCode":"29683","locality":"Bad Fallingbostel","municipality":{"key":"03358008","name":"Bad Fallingbostel, Stadt","type":"Stadt"},"district":{"key":"03358","name":"Heidekreis","type":"Landkreis"},"federalState":{"key":"03","name":"Niedersachsen"}},{"name":"Koppelweg","postalCode":"29683","locality":"Bad Fallingbostel","municipality":{"key":"03358008","name":"Bad Fallingbostel, Stadt","type":"Stadt"},"district":{"key":"03358","name":"Heidekreis","type":"Landkreis"},"federalState":{"key":"03","name":"Niedersachsen"}},{"name":"Krautgartenweg","postalCode":"82239","locality":"Alling","municipality":{"key":"09179113","name":"Alling","type":"Kreisangehörige_Gemeinde"},"district":{"key":"09179","name":"Fürstenfeldbruck","type":"Landkreis"},"federalState":{"key":"09","name":"Bayern"}},{"name":"Kreuzstr.","postalCode":"82239","locality":"Alling","municipality":{"key":"09179113","name":"Alling","type":"Kreisangehörige_Gemeinde"},"district":{"key":"09179","name":"Fürstenfeldbruck","type":"Landkreis"},"federalState":{"key":"09","name":"Bayern"}},{"name":"Kroger Landstr.","postalCode":"29683","locality":"Bad Fallingbostel","municipality":{"key":"03358008","name":"Bad Fallingbostel, Stadt","type":"Stadt"},"district":{"key":"03358","name":"Heidekreis","type":"Landkreis"},"federalState":{"key":"03","name":"Niedersachsen"}},{"name":"Kuckucksberg","postalCode":"29683","locality":"Bad Fallingbostel","municipality":{"key":"03358008","name":"Bad Fallingbostel, Stadt","type":"Stadt"},"district":{"key":"03358","name":"Heidekreis","type":"Landkreis"},"federalState":{"key":"03","name":"Niedersachsen"}},{"name":"Kulmer Str.","postalCode":"29683","locality":"Bad Fallingbostel","municipality":{"key":"03358008","name":"Bad Fallingbostel, Stadt","type":"Stadt"},"district":{"key":"03358","name":"Heidekreis","type":"Landkreis"},"federalState":{"key":"03","name":"Niedersachsen"}},{"name":"Kurpark","postalCode":"29683","locality":"Bad Fallingbostel","municipality":{"key":"03358008","name":"Bad Fallingbostel, Stadt","type":"Stadt"},"district":{"key":"03358","name":"Heidekreis","type":"Landkreis"},"federalState":{"key":"03","name":"Niedersachsen"}},{"name":"Kurparkstr.","postalCode":"94551","locality":"Lalling","municipality":{"key":"09271130","name":"Lalling","type":"Kreisangehörige_Gemeinde"},"district":{"key":"09271","name":"Deggendorf","type":"Landkreis"},"federalState":{"key":"09","name":"Bayern"}},{"name":"Lampertsham","postalCode":"83349","locality":"Palling","municipality":{"key":"09189134","name":"Palling","type":"Kreisangehörige_Gemeinde"},"district":{"key":"09189","name":"Traunstein","type":"Landkreis"},"federalState":{"key":"09","name":"Bayern"}},{"name":"Lärchenfeld","postalCode":"83349","locality":"Palling","municipality":{"key":"09189134","name":"Palling","type":"Kreisangehörige_Gemeinde"},"district":{"key":"09189","name":"Traunstein","type":"Landkreis"},"federalState":{"key":"09","name":"Bayern"}},{"name":"Leerenstr.","postalCode":"29683","locality":"Bad Fallingbostel","municipality":{"key":"03358008","name":"Bad Fallingbostel, Stadt","type":"Stadt"},"district":{"key":"03358","name":"Heidekreis","type":"Landkreis"},"federalState":{"key":"03","name":"Niedersachsen"}},{"name":"Lerchenweg","postalCode":"29683","locality":"Bad Fallingbostel","municipality":{"key":"03358008","name":"Bad Fallingbostel, Stadt","type":"Stadt"},"district":{"key":"03358","name":"Heidekreis","type":"Landkreis"},"federalState":{"key":"03","name":"Niedersachsen"}},{"name":"Lessingstr.","postalCode":"29683","locality":"Bad Fallingbostel","municipality":{"key":"03358008","name":"Bad Fallingbostel, Stadt","type":"Stadt"},"district":{"key":"03358","name":"Heidekreis","type":"Landkreis"},"federalState":{"key":"03","name":"Niedersachsen"}},{"name":"Liethweg","postalCode":"29683","locality":"Bad Fallingbostel","municipality":{"key":"03358008","name":"Bad Fallingbostel, Stadt","type":"Stadt"},"district":{"key":"03358","name":"Heidekreis","type":"Landkreis"},"federalState":{"key":"03","name":"Niedersachsen"}},{"name":"Lindenstr.","postalCode":"83349","locality":"Palling","municipality":{"key":"09189134","name":"Palling","type":"Kreisangehörige_Gemeinde"},"district":{"key":"09189","name":"Traunstein","type":"Landkreis"},"federalState":{"key":"09","name":"Bayern"}},{"name":"Lindenweg","postalCode":"29683","locality":"Bad Fallingbostel","municipality":{"key":"03358008","name":"Bad Fallingbostel, Stadt","type":"Stadt"},"district":{"key":"03358","name":"Heidekreis","type":"Landkreis"},"federalState":{"key":"03","name":"Niedersachsen"}},{"name":"Lindenweg","postalCode":"94551","locality":"Lalling","municipality":{"key":"09271130","name":"Lalling","type":"Kreisangehörige_Gemeinde"},"district":{"key":"09271","name":"Deggendorf","type":"Landkreis"},"federalState":{"key":"09","name":"Bayern"}},{"name":"Ludwig-Miesgang-Allee","postalCode":"83349","locality":"Palling","municipality":{"key":"09189134","name":"Palling","type":"Kreisangehörige_Gemeinde"},"district":{"key":"09189","name":"Traunstein","type":"Landkreis"},"federalState":{"key":"09","name":"Bayern"}},{"name":"Ludwig-Thoma-Str.","postalCode":"83349","locality":"Palling","municipality":{"key":"09189134","name":"Palling","type":"Kreisangehörige_Gemeinde"},"district":{"key":"09189","name":"Traunstein","type":"Landkreis"},"federalState":{"key":"09","name":"Bayern"}},{"name":"Marienburger Str.","postalCode":"29683","locality":"Bad Fallingbostel","municipality":{"key":"03358008","name":"Bad Fallingbostel, Stadt","type":"Stadt"},"district":{"key":"03358","name":"Heidekreis","type":"Landkreis"},"federalState":{"key":"03","name":"Niedersachsen"}},{"name":"Marktstr.","postalCode":"29683","locality":"Bad Fallingbostel","municipality":{"key":"03358008","name":"Bad Fallingbostel, Stadt","type":"Stadt"},"district":{"key":"03358","name":"Heidekreis","type":"Landkreis"},"federalState":{"key":"03","name":"Niedersachsen"}},{"name":"Martin-Luther-Str.","postalCode":"29683","locality":"Bad Fallingbostel","municipality":{"key":"03358008","name":"Bad Fallingbostel, Stadt","type":"Stadt"},"district":{"key":"03358","name":"Heidekreis","type":"Landkreis"},"federalState":{"key":"03","name":"Niedersachsen"}},{"name":"Meisenweg","postalCode":"29683","locality":"Bad Fallingbostel","municipality":{"key":"03358008","name":"Bad Fallingbostel, Stadt","type":"Stadt"},"district":{"key":"03358","name":"Heidekreis","type":"Landkreis"},"federalState":{"key":"03","name":"Niedersachsen"}},{"name":"Memeler Str.","postalCode":"29683","locality":"Bad Fallingbostel","municipality":{"key":"03358008","name":"Bad Fallingbostel, Stadt","type":"Stadt"},"district":{"key":"03358","name":"Heidekreis","type":"Landkreis"},"federalState":{"key":"03","name":"Niedersachsen"}},{"name":"Meyerhopsweg","postalCode":"29683","locality":"Bad Fallingbostel","municipality":{"key":"03358008","name":"Bad Fallingbostel, Stadt","type":"Stadt"},"district":{"key":"03358","name":"Heidekreis","type":"Landkreis"},"federalState":{"key":"03","name":"Niedersachsen"}},{"name":"Miastkoerstr.","postalCode":"29683","locality":"Bad Fallingbostel","municipality":{"key":"03358008","name":"Bad Fallingbostel, Stadt","type":"Stadt"},"district":{"key":"03358","name":"Heidekreis","type":"Landkreis"},"federalState":{"key":"03","name":"Niedersachsen"}},{"name":"Michelsenstr.","postalCode":"29683","locality":"Bad Fallingbostel","municipality":{"key":"03358008","name":"Bad Fallingbostel, Stadt","type":"Stadt"},"district":{"key":"03358","name":"Heidekreis","type":"Landkreis"},"federalState":{"key":"03","name":"Niedersachsen"}},{"name":"Mittelhof","postalCode":"29683","locality":"Bad Fallingbostel","municipality":{"key":"03358008","name":"Bad Fallingbostel, Stadt","type":"Stadt"},"district":{"key":"03358","name":"Heidekreis","type":"Landkreis"},"federalState":{"key":"03","name":"Niedersachsen"}},{"name":"Mittelster Weg","postalCode":"29683","locality":"Bad Fallingbostel","municipality":{"key":"03358008","name":"Bad Fallingbostel, Stadt","type":"Stadt"},"district":{"key":"03358","name":"Heidekreis","type":"Landkreis"},"federalState":{"key":"03","name":"Niedersachsen"}},{"name":"Mitterfeld","postalCode":"82239","locality":"Alling","municipality":{"key":"09179113","name":"Alling","type":"Kreisangehörige_Gemeinde"},"district":{"key":"09179","name":"Fürstenfeldbruck","type":"Landkreis"},"federalState":{"key":"09","name":"Bayern"}},{"name":"Moorhof","postalCode":"29683","locality":"Bad Fallingbostel","municipality":{"key":"03358008","name":"Bad Fallingbostel, Stadt","type":"Stadt"},"district":{"key":"03358","name":"Heidekreis","type":"Landkreis"},"federalState":{"key":"03","name":"Niedersachsen"}},{"name":"Moosweg","postalCode":"82239","locality":"Alling","municipality":{"key":"09179113","name":"Alling","type":"Kreisangehörige_Gemeinde"},"district":{"key":"09179","name":"Fürstenfeldbruck","type":"Landkreis"},"federalState":{"key":"09","name":"Bayern"}},{"name":"Mozartstr.","postalCode":"29683","locality":"Bad Fallingbostel","municipality":{"key":"03358008","name":"Bad Fallingbostel, Stadt","type":"Stadt"},"district":{"key":"03358","name":"Heidekreis","type":"Landkreis"},"federalState":{"key":"03","name":"Niedersachsen"}},{"name":"Mühlenbruchstr.","postalCode":"29683","locality":"Bad Fallingbostel","municipality":{"key":"03358008","name":"Bad Fallingbostel, Stadt","type":"Stadt"},"district":{"key":"03358","name":"Heidekreis","type":"Landkreis"},"federalState":{"key":"03","name":"Niedersachsen"}},{"name":"Mühlweg","postalCode":"94551","locality":"Lalling","municipality":{"key":"09271130","name":"Lalling","type":"Kreisangehörige_Gemeinde"},"district":{"key":"09271","name":"Deggendorf","type":"Landkreis"},"federalState":{"key":"09","name":"Bayern"}},{"name":"Münchgasse","postalCode":"82239","locality":"Alling","municipality":{"key":"09179113","name":"Alling","type":"Kreisangehörige_Gemeinde"},"district":{"key":"09179","name":"Fürstenfeldbruck","type":"Landkreis"},"federalState":{"key":"09","name":"Bayern"}},{"name":"Münchner Str.","postalCode":"82239","locality":"Alling","municipality":{"key":"09179113","name":"Alling","type":"Kreisangehörige_Gemeinde"},"district":{"key":"09179","name":"Fürstenfeldbruck","type":"Landkreis"},"federalState":{"key":"09","name":"Bayern"}},{"name":"Neunkirchener Str.","postalCode":"54426","locality":"Talling","municipality":{"key":"07231122","name":"Talling","type":"Kreisangehörige_Gemeinde"},"district":{"key":"07231","name":"Bernkastel-Wittlich","type":"Landkreis"},"federalState":{"key":"07","name":"Rheinland-Pfalz"}},{"name":"Nordbosteler Str.","postalCode":"29683","locality":"Bad Fallingbostel","municipality":{"key":"03358008","name":"Bad Fallingbostel, Stadt","type":"Stadt"},"district":{"key":"03358","name":"Heidekreis","type":"Landkreis"},"federalState":{"key":"03","name":"Niedersachsen"}},{"name":"Nordring","postalCode":"83349","locality":"Palling","municipality":{"key":"09189134","name":"Palling","type":"Kreisangehörige_Gemeinde"},"district":{"key":"09189","name":"Traunstein","type":"Landkreis"},"federalState":{"key":"09","name":"Bayern"}},{"name":"Normandiering","postalCode":"29683","locality":"Bad Fallingbostel","municipality":{"key":"03358008","name":"Bad Fallingbostel, Stadt","type":"Stadt"},"district":{"key":"03358","name":"Heidekreis","type":"Landkreis"},"federalState":{"key":"03","name":"Niedersachsen"}},{"name":"Nußbaumweg","postalCode":"94551","locality":"Lalling","municipality":{"key":"09271130","name":"Lalling","type":"Kreisangehörige_Gemeinde"},"district":{"key":"09271","name":"Deggendorf","type":"Landkreis"},"federalState":{"key":"09","name":"Bayern"}},{"name":"Oberer Mittelhof","postalCode":"29683","locality":"Bad Fallingbostel","municipality":{"key":"03358008","name":"Bad Fallingbostel, Stadt","type":"Stadt"},"district":{"key":"03358","name":"Heidekreis","type":"Landkreis"},"federalState":{"key":"03","name":"Niedersachsen"}},{"name":"Obere Teichstr.","postalCode":"29683","locality":"Bad Fallingbostel","municipality":{"key":"03358008","name":"Bad Fallingbostel, Stadt","type":"Stadt"},"district":{"key":"03358","name":"Heidekreis","type":"Landkreis"},"federalState":{"key":"03","name":"Niedersachsen"}},{"name":"Oberweißenkirchen","postalCode":"83349","locality":"Palling","municipality":{"key":"09189134","name":"Palling","type":"Kreisangehörige_Gemeinde"},"district":{"key":"09189","name":"Traunstein","type":"Landkreis"},"federalState":{"key":"09","name":"Bayern"}},{"name":"Obstgartenweg","postalCode":"94551","locality":"Lalling","municipality":{"key":"09271130","name":"Lalling","type":"Kreisangehörige_Gemeinde"},"district":{"key":"09271","name":"Deggendorf","type":"Landkreis"},"federalState":{"key":"09","name":"Bayern"}},{"name":"Oelsweg","postalCode":"29683","locality":"Bad Fallingbostel","municipality":{"key":"03358008","name":"Bad Fallingbostel, Stadt","type":"Stadt"},"district":{"key":"03358","name":"Heidekreis","type":"Landkreis"},"federalState":{"key":"03","name":"Niedersachsen"}},{"name":"Oerbker Berg","postalCode":"29683","locality":"Bad Fallingbostel","municipality":{"key":"03358008","name":"Bad Fallingbostel, Stadt","type":"Stadt"},"district":{"key":"03358","name":"Heidekreis","type":"Landkreis"},"federalState":{"key":"03","name":"Niedersachsen"}},{"name":"Ohestr.","postalCode":"94551","locality":"Lalling","municipality":{"key":"09271130","name":"Lalling","type":"Kreisangehörige_Gemeinde"},"district":{"key":"09271","name":"Deggendorf","type":"Landkreis"},"federalState":{"key":"09","name":"Bayern"}},{"name":"Osterberg","postalCode":"29683","locality":"Bad Fallingbostel","municipality":{"key":"03358008","name":"Bad Fallingbostel, Stadt","type":"Stadt"},"district":{"key":"03358","name":"Heidekreis","type":"Landkreis"},"federalState":{"key":"03","name":"Niedersachsen"}},{"name":"Ostring","postalCode":"83349","locality":"Palling","municipality":{"key":"09189134","name":"Palling","type":"Kreisangehörige_Gemeinde"},"district":{"key":"09189","name":"Traunstein","type":"Landkreis"},"federalState":{"key":"09","name":"Bayern"}},{"name":"Pallinger Str.","postalCode":"83349","locality":"Palling","municipality":{"key":"09189134","name":"Palling","type":"Kreisangehörige_Gemeinde"},"district":{"key":"09189","name":"Traunstein","type":"Landkreis"},"federalState":{"key":"09","name":"Bayern"}},{"name":"Parsbergstr.","postalCode":"82239","locality":"Alling","municipality":{"key":"09179113","name":"Alling","type":"Kreisangehörige_Gemeinde"},"district":{"key":"09179","name":"Fürstenfeldbruck","type":"Landkreis"},"federalState":{"key":"09","name":"Bayern"}},{"name":"Pfarrer-Heringer-Weg","postalCode":"83349","locality":"Palling","municipality":{"key":"09189134","name":"Palling","type":"Kreisangehörige_Gemeinde"},"district":{"key":"09189","name":"Traunstein","type":"Landkreis"},"federalState":{"key":"09","name":"Bayern"}},{"name":"Pfarrgasse","postalCode":"82239","locality":"Alling","municipality":{"key":"09179113","name":"Alling","type":"Kreisangehörige_Gemeinde"},"district":{"key":"09179","name":"Fürstenfeldbruck","type":"Landkreis"},"federalState":{"key":"09","name":"Bayern"}},{"name":"Pfarrweg","postalCode":"83349","locality":"Palling","municipality":{"key":"09189134","name":"Palling","type":"Kreisangehörige_Gemeinde"},"district":{"key":"09189","name":"Traunstein","type":"Landkreis"},"federalState":{"key":"09","name":"Bayern"}},{"name":"Pfarrweg","postalCode":"94551","locality":"Lalling","municipality":{"key":"09271130","name":"Lalling","type":"Kreisangehörige_Gemeinde"},"district":{"key":"09271","name":"Deggendorf","type":"Landkreis"},"federalState":{"key":"09","name":"Bayern"}},{"name":"Pommernstr.","postalCode":"29683","locality":"Bad Fallingbostel","municipality":{"key":"03358008","name":"Bad Fallingbostel, Stadt","type":"Stadt"},"district":{"key":"03358","name":"Heidekreis","type":"Landkreis"},"federalState":{"key":"03","name":"Niedersachsen"}},{"name":"Poststr.","postalCode":"29683","locality":"Bad Fallingbostel","municipality":{"key":"03358008","name":"Bad Fallingbostel, Stadt","type":"Stadt"},"district":{"key":"03358","name":"Heidekreis","type":"Landkreis"},"federalState":{"key":"03","name":"Niedersachsen"}},{"name":"Postweg","postalCode":"83349","locality":"Palling","municipality":{"key":"09189134","name":"Palling","type":"Kreisangehörige_Gemeinde"},"district":{"key":"09189","name":"Traunstein","type":"Landkreis"},"federalState":{"key":"09","name":"Bayern"}},{"name":"Professor-Berberich-Str.","postalCode":"82239","locality":"Alling","municipality":{"key":"09179113","name":"Alling","type":"Kreisangehörige_Gemeinde"},"district":{"key":"09179","name":"Fürstenfeldbruck","type":"Landkreis"},"federalState":{"key":"09","name":"Bayern"}},{"name":"Pschorrgasse","postalCode":"82239","locality":"Alling","municipality":{"key":"09179113","name":"Alling","type":"Kreisangehörige_Gemeinde"},"district":{"key":"09179","name":"Fürstenfeldbruck","type":"Landkreis"},"federalState":{"key":"09","name":"Bayern"}},{"name":"Querkamp","postalCode":"29683","locality":"Bad Fallingbostel","municipality":{"key":"03358008","name":"Bad Fallingbostel, Stadt","type":"Stadt"},"district":{"key":"03358","name":"Heidekreis","type":"Landkreis"},"federalState":{"key":"03","name":"Niedersachsen"}},{"name":"Quintusstr.","postalCode":"29683","locality":"Bad Fallingbostel","municipality":{"key":"03358008","name":"Bad Fallingbostel, Stadt","type":"Stadt"},"district":{"key":"03358","name":"Heidekreis","type":"Landkreis"},"federalState":{"key":"03","name":"Niedersachsen"}},{"name":"Raiffeisenstr.","postalCode":"94551","locality":"Lalling","municipality":{"key":"09271130","name":"Lalling","type":"Kreisangehörige_Gemeinde"},"district":{"key":"09271","name":"Deggendorf","type":"Landkreis"},"federalState":{"key":"09","name":"Bayern"}},{"name":"Raiffeisenweg","postalCode":"83349","locality":"Palling","municipality":{"key":"09189134","name":"Palling","type":"Kreisangehörige_Gemeinde"},"district":{"key":"09189","name":"Traunstein","type":"Landkreis"},"federalState":{"key":"09","name":"Bayern"}},{"name":"Ranham","postalCode":"83349","locality":"Palling","municipality":{"key":"09189134","name":"Palling","type":"Kreisangehörige_Gemeinde"},"district":{"key":"09189","name":"Traunstein","type":"Landkreis"},"federalState":{"key":"09","name":"Bayern"}},{"name":"Ranzingerbergstr.","postalCode":"94551","locality":"Lalling","municipality":{"key":"09271130","name":"Lalling","type":"Kreisangehörige_Gemeinde"},"district":{"key":"09271","name":"Deggendorf","type":"Landkreis"},"federalState":{"key":"09","name":"Bayern"}},{"name":"Rauschbergweg","postalCode":"83349","locality":"Palling","municipality":{"key":"09189134","name":"Palling","type":"Kreisangehörige_Gemeinde"},"district":{"key":"09189","name":"Traunstein","type":"Landkreis"},"federalState":{"key":"09","name":"Bayern"}},{"name":"Regener Str.","postalCode":"94551","locality":"Lalling","municipality":{"key":"09271130","name":"Lalling","type":"Kreisangehörige_Gemeinde"},"district":{"key":"09271","name":"Deggendorf","type":"Landkreis"},"federalState":{"key":"09","name":"Bayern"}},{"name":"Reitbahnstr.","postalCode":"29683","locality":"Bad Fallingbostel","municipality":{"key":"03358008","name":"Bad Fallingbostel, Stadt","type":"Stadt"},"district":{"key":"03358","name":"Heidekreis","type":"Landkreis"},"federalState":{"key":"03","name":"Niedersachsen"}},{"name":"Rennbahn","postalCode":"29683","locality":"Bad Fallingbostel","municipality":{"key":"03358008","name":"Bad Fallingbostel, Stadt","type":"Stadt"},"district":{"key":"03358","name":"Heidekreis","type":"Landkreis"},"federalState":{"key":"03","name":"Niedersachsen"}},{"name":"Rieper Str.","postalCode":"29683","locality":"Bad Fallingbostel","municipality":{"key":"03358008","name":"Bad Fallingbostel, Stadt","type":"Stadt"},"district":{"key":"03358","name":"Heidekreis","type":"Landkreis"},"federalState":{"key":"03","name":"Niedersachsen"}},{"name":"Ringstr.","postalCode":"83349","locality":"Palling","municipality":{"key":"09189134","name":"Palling","type":"Kreisangehörige_Gemeinde"},"district":{"key":"09189","name":"Traunstein","type":"Landkreis"},"federalState":{"key":"09","name":"Bayern"}},{"name":"Römerstr.","postalCode":"82239","locality":"Alling","municipality":{"key":"09179113","name":"Alling","type":"Kreisangehörige_Gemeinde"},"district":{"key":"09179","name":"Fürstenfeldbruck","type":"Landkreis"},"federalState":{"key":"09","name":"Bayern"}},{"name":"Rosenweg","postalCode":"83349","locality":"Palling","municipality":{"key":"09189134","name":"Palling","type":"Kreisangehörige_Gemeinde"},"district":{"key":"09189","name":"Traunstein","type":"Landkreis"},"federalState":{"key":"09","name":"Bayern"}},{"name":"Roßfeldstr.","postalCode":"82239","locality":"Alling","municipality":{"key":"09179113","name":"Alling","type":"Kreisangehörige_Gemeinde"},"district":{"key":"09179","name":"Fürstenfeldbruck","type":"Landkreis"},"federalState":{"key":"09","name":"Bayern"}},{"name":"Rue de Periers","postalCode":"29683","locality":"Bad Fallingbostel","municipality":{"key":"03358008","name":"Bad Fallingbostel, Stadt","type":"Stadt"},"district":{"key":"03358","name":"Heidekreis","type":"Landkreis"},"federalState":{"key":"03","name":"Niedersachsen"}},{"name":"Rummelsburger Str.","postalCode":"29683","locality":"Bad Fallingbostel","municipality":{"key":"03358008","name":"Bad Fallingbostel, Stadt","type":"Stadt"},"district":{"key":"03358","name":"Heidekreis","type":"Landkreis"},"federalState":{"key":"03","name":"Niedersachsen"}},{"name":"Rupertistr.","postalCode":"83349","locality":"Palling","municipality":{"key":"09189134","name":"Palling","type":"Kreisangehörige_Gemeinde"},"district":{"key":"09189","name":"Traunstein","type":"Landkreis"},"federalState":{"key":"09","name":"Bayern"}},{"name":"Sankt-Gunther-Str.","postalCode":"94551","locality":"Lalling","municipality":{"key":"09271130","name":"Lalling","type":"Kreisangehörige_Gemeinde"},"district":{"key":"09271","name":"Deggendorf","type":"Landkreis"},"federalState":{"key":"09","name":"Bayern"}},{"name":"Sankt-Marien-Platz","postalCode":"29683","locality":"Bad Fallingbostel","municipality":{"key":"03358008","name":"Bad Fallingbostel, Stadt","type":"Stadt"},"district":{"key":"03358","name":"Heidekreis","type":"Landkreis"},"federalState":{"key":"03","name":"Niedersachsen"}},{"name":"Schabweg","postalCode":"82239","locality":"Alling","municipality":{"key":"09179113","name":"Alling","type":"Kreisangehörige_Gemeinde"},"district":{"key":"09179","name":"Fürstenfeldbruck","type":"Landkreis"},"federalState":{"key":"09","name":"Bayern"}},{"name":"Scharnhorststr.","postalCode":"29683","locality":"Bad Fallingbostel","municipality":{"key":"03358008","name":"Bad Fallingbostel, Stadt","type":"Stadt"},"district":{"key":"03358","name":"Heidekreis","type":"Landkreis"},"federalState":{"key":"03","name":"Niedersachsen"}},{"name":"Schillerstr.","postalCode":"29683","locality":"Bad Fallingbostel","municipality":{"key":"03358008","name":"Bad Fallingbostel, Stadt","type":"Stadt"},"district":{"key":"03358","name":"Heidekreis","type":"Landkreis"},"federalState":{"key":"03","name":"Niedersachsen"}},{"name":"Schlagfeldstr.","postalCode":"82239","locality":"Alling","municipality":{"key":"09179113","name":"Alling","type":"Kreisangehörige_Gemeinde"},"district":{"key":"09179","name":"Fürstenfeldbruck","type":"Landkreis"},"federalState":{"key":"09","name":"Bayern"}},{"name":"Schlehenweg","postalCode":"29683","locality":"Bad Fallingbostel","municipality":{"key":"03358008","name":"Bad Fallingbostel, Stadt","type":"Stadt"},"district":{"key":"03358","name":"Heidekreis","type":"Landkreis"},"federalState":{"key":"03","name":"Niedersachsen"}},{"name":"Schlüterberg","postalCode":"29683","locality":"Bad Fallingbostel","municipality":{"key":"03358008","name":"Bad Fallingbostel, Stadt","type":"Stadt"},"district":{"key":"03358","name":"Heidekreis","type":"Landkreis"},"federalState":{"key":"03","name":"Niedersachsen"}},{"name":"Schroersstr.","postalCode":"29683","locality":"Bad Fallingbostel","municipality":{"key":"03358008","name":"Bad Fallingbostel, Stadt","type":"Stadt"},"district":{"key":"03358","name":"Heidekreis","type":"Landkreis"},"federalState":{"key":"03","name":"Niedersachsen"}},{"name":"Schulstr.","postalCode":"29683","locality":"Bad Fallingbostel","municipality":{"key":"03358008","name":"Bad Fallingbostel, Stadt","type":"Stadt"},"district":{"key":"03358","name":"Heidekreis","type":"Landkreis"},"federalState":{"key":"03","name":"Niedersachsen"}},{"name":"Schulstr.","postalCode":"83349","locality":"Palling","municipality":{"key":"09189134","name":"Palling","type":"Kreisangehörige_Gemeinde"},"district":{"key":"09189","name":"Traunstein","type":"Landkreis"},"federalState":{"key":"09","name":"Bayern"}},{"name":"Schulweg","postalCode":"82239","locality":"Alling","municipality":{"key":"09179113","name":"Alling","type":"Kreisangehörige_Gemeinde"},"district":{"key":"09179","name":"Fürstenfeldbruck","type":"Landkreis"},"federalState":{"key":"09","name":"Bayern"}},{"name":"Seestr.","postalCode":"83349","locality":"Palling","municipality":{"key":"09189134","name":"Palling","type":"Kreisangehörige_Gemeinde"},"district":{"key":"09189","name":"Traunstein","type":"Landkreis"},"federalState":{"key":"09","name":"Bayern"}},{"name":"Sieben-Steinhäuser-Weg","postalCode":"29683","locality":"Bad Fallingbostel","municipality":{"key":"03358008","name":"Bad Fallingbostel, Stadt","type":"Stadt"},"district":{"key":"03358","name":"Heidekreis","type":"Landkreis"},"federalState":{"key":"03","name":"Niedersachsen"}},{"name":"Soltauer Str.","postalCode":"29683","locality":"Bad Fallingbostel","municipality":{"key":"03358008","name":"Bad Fallingbostel, Stadt","type":"Stadt"},"district":{"key":"03358","name":"Heidekreis","type":"Landkreis"},"federalState":{"key":"03","name":"Niedersachsen"}},{"name":"Sonnenfeldstr.","postalCode":"83349","locality":"Palling","municipality":{"key":"09189134","name":"Palling","type":"Kreisangehörige_Gemeinde"},"district":{"key":"09189","name":"Traunstein","type":"Landkreis"},"federalState":{"key":"09","name":"Bayern"}},{"name":"Starenweg","postalCode":"29683","locality":"Bad Fallingbostel","municipality":{"key":"03358008","name":"Bad Fallingbostel, Stadt","type":"Stadt"},"district":{"key":"03358","name":"Heidekreis","type":"Landkreis"},"federalState":{"key":"03","name":"Niedersachsen"}},{"name":"Stargarder Str.","postalCode":"29683","locality":"Bad Fallingbostel","municipality":{"key":"03358008","name":"Bad Fallingbostel, Stadt","type":"Stadt"},"district":{"key":"03358","name":"Heidekreis","type":"Landkreis"},"federalState":{"key":"03","name":"Niedersachsen"}},{"name":"Staufenweg","postalCode":"83349","locality":"Palling","municipality":{"key":"09189134","name":"Palling","type":"Kreisangehörige_Gemeinde"},"district":{"key":"09189","name":"Traunstein","type":"Landkreis"},"federalState":{"key":"09","name":"Bayern"}},{"name":"Steegmannstr.","postalCode":"29683","locality":"Bad Fallingbostel","municipality":{"key":"03358008","name":"Bad Fallingbostel, Stadt","type":"Stadt"},"district":{"key":"03358","name":"Heidekreis","type":"Landkreis"},"federalState":{"key":"03","name":"Niedersachsen"}},{"name":"Steiner Str.","postalCode":"83349","locality":"Palling","municipality":{"key":"09189134","name":"Palling","type":"Kreisangehörige_Gemeinde"},"district":{"key":"09189","name":"Traunstein","type":"Landkreis"},"federalState":{"key":"09","name":"Bayern"}},{"name":"Steinlacher Weg","postalCode":"82239","locality":"Alling","municipality":{"key":"09179113","name":"Alling","type":"Kreisangehörige_Gemeinde"},"district":{"key":"09179","name":"Fürstenfeldbruck","type":"Landkreis"},"federalState":{"key":"09","name":"Bayern"}},{"name":"Stettiner Str.","postalCode":"29683","locality":"Bad Fallingbostel","municipality":{"key":"03358008","name":"Bad Fallingbostel, Stadt","type":"Stadt"},"district":{"key":"03358","name":"Heidekreis","type":"Landkreis"},"federalState":{"key":"03","name":"Niedersachsen"}},{"name":"Studnicastr.","postalCode":"29683","locality":"Bad Fallingbostel","municipality":{"key":"03358008","name":"Bad Fallingbostel, Stadt","type":"Stadt"},"district":{"key":"03358","name":"Heidekreis","type":"Landkreis"},"federalState":{"key":"03","name":"Niedersachsen"}},{"name":"Südring","postalCode":"83349","locality":"Palling","municipality":{"key":"09189134","name":"Palling","type":"Kreisangehörige_Gemeinde"},"district":{"key":"09189","name":"Traunstein","type":"Landkreis"},"federalState":{"key":"09","name":"Bayern"}},{"name":"Teichstr.","postalCode":"29683","locality":"Bad Fallingbostel","municipality":{"key":"03358008","name":"Bad Fallingbostel, Stadt","type":"Stadt"},"district":{"key":"03358","name":"Heidekreis","type":"Landkreis"},"federalState":{"key":"03","name":"Niedersachsen"}},{"name":"Theodor-Storm-Str.","postalCode":"29683","locality":"Bad Fallingbostel","municipality":{"key":"03358008","name":"Bad Fallingbostel, Stadt","type":"Stadt"},"district":{"key":"03358","name":"Heidekreis","type":"Landkreis"},"federalState":{"key":"03","name":"Niedersachsen"}},{"name":"Thorner Str.","postalCode":"29683","locality":"Bad Fallingbostel","municipality":{"key":"03358008","name":"Bad Fallingbostel, Stadt","type":"Stadt"},"district":{"key":"03358","name":"Heidekreis","type":"Landkreis"},"federalState":{"key":"03","name":"Niedersachsen"}},{"name":"Tietlinger Lönsweg","postalCode":"29683","locality":"Bad Fallingbostel","municipality":{"key":"03358008","name":"Bad Fallingbostel, Stadt","type":"Stadt"},"district":{"key":"03358","name":"Heidekreis","type":"Landkreis"},"federalState":{"key":"03","name":"Niedersachsen"}},{"name":"Tittmoninger Str.","postalCode":"83349","locality":"Palling","municipality":{"key":"09189134","name":"Palling","type":"Kreisangehörige_Gemeinde"},"district":{"key":"09189","name":"Traunstein","type":"Landkreis"},"federalState":{"key":"09","name":"Bayern"}},{"name":"Traunreuter Str.","postalCode":"83349","locality":"Palling","municipality":{"key":"09189134","name":"Palling","type":"Kreisangehörige_Gemeinde"},"district":{"key":"09189","name":"Traunstein","type":"Landkreis"},"federalState":{"key":"09","name":"Bayern"}},{"name":"Traunsteiner Str.","postalCode":"83349","locality":"Palling","municipality":{"key":"09189134","name":"Palling","type":"Kreisangehörige_Gemeinde"},"district":{"key":"09189","name":"Traunstein","type":"Landkreis"},"federalState":{"key":"09","name":"Bayern"}},{"name":"Tulpenstr.","postalCode":"83349","locality":"Palling","municipality":{"key":"09189134","name":"Palling","type":"Kreisangehörige_Gemeinde"},"district":{"key":"09189","name":"Traunstein","type":"Landkreis"},"federalState":{"key":"09","name":"Bayern"}},{"name":"Tyrlachinger Str.","postalCode":"83349","locality":"Palling","municipality":{"key":"09189134","name":"Palling","type":"Kreisangehörige_Gemeinde"},"district":{"key":"09189","name":"Traunstein","type":"Landkreis"},"federalState":{"key":"09","name":"Bayern"}},{"name":"Tyrlbrunn","postalCode":"83349","locality":"Palling","municipality":{"key":"09189134","name":"Palling","type":"Kreisangehörige_Gemeinde"},"district":{"key":"09189","name":"Traunstein","type":"Landkreis"},"federalState":{"key":"09","name":"Bayern"}},{"name":"Uhlandstr.","postalCode":"29683","locality":"Bad Fallingbostel","municipality":{"key":"03358008","name":"Bad Fallingbostel, Stadt","type":"Stadt"},"district":{"key":"03358","name":"Heidekreis","type":"Landkreis"},"federalState":{"key":"03","name":"Niedersachsen"}},{"name":"Uhlenweg","postalCode":"29683","locality":"Bad Fallingbostel","municipality":{"key":"03358008","name":"Bad Fallingbostel, Stadt","type":"Stadt"},"district":{"key":"03358","name":"Heidekreis","type":"Landkreis"},"federalState":{"key":"03","name":"Niedersachsen"}},{"name":"Unering","postalCode":"83349","locality":"Palling","municipality":{"key":"09189134","name":"Palling","type":"Kreisangehörige_Gemeinde"},"district":{"key":"09189","name":"Traunstein","type":"Landkreis"},"federalState":{"key":"09","name":"Bayern"}},{"name":"Untere Dorfstr.","postalCode":"94551","locality":"Lalling","municipality":{"key":"09271130","name":"Lalling","type":"Kreisangehörige_Gemeinde"},"district":{"key":"09271","name":"Deggendorf","type":"Landkreis"},"federalState":{"key":"09","name":"Bayern"}},{"name":"Untere Hofstatt","postalCode":"94551","locality":"Lalling","municipality":{"key":"09271130","name":"Lalling","type":"Kreisangehörige_Gemeinde"},"district":{"key":"09271","name":"Deggendorf","type":"Landkreis"},"federalState":{"key":"09","name":"Bayern"}},{"name":"Unterer Mittelhof","postalCode":"29683","locality":"Bad Fallingbostel","municipality":{"key":"03358008","name":"Bad Fallingbostel, Stadt","type":"Stadt"},"district":{"key":"03358","name":"Heidekreis","type":"Landkreis"},"federalState":{"key":"03","name":"Niedersachsen"}},{"name":"Unterschilding","postalCode":"83349","locality":"Palling","municipality":{"key":"09189134","name":"Palling","type":"Kreisangehörige_Gemeinde"},"district":{"key":"09189","name":"Traunstein","type":"Landkreis"},"federalState":{"key":"09","name":"Bayern"}},{"name":"Vierder Weg","postalCode":"29683","locality":"Bad Fallingbostel","municipality":{"key":"03358008","name":"Bad Fallingbostel, Stadt","type":"Stadt"},"district":{"key":"03358","name":"Heidekreis","type":"Landkreis"},"federalState":{"key":"03","name":"Niedersachsen"}},{"name":"Visselhöveder Str.","postalCode":"29683","locality":"Bad Fallingbostel","municipality":{"key":"03358008","name":"Bad Fallingbostel, Stadt","type":"Stadt"},"district":{"key":"03358","name":"Heidekreis","type":"Landkreis"},"federalState":{"key":"03","name":"Niedersachsen"}},{"name":"Vogteistr.","postalCode":"29683","locality":"Bad Fallingbostel","municipality":{"key":"03358008","name":"Bad Fallingbostel, Stadt","type":"Stadt"},"district":{"key":"03358","name":"Heidekreis","type":"Landkreis"},"federalState":{"key":"03","name":"Niedersachsen"}},{"name":"Volkrading","postalCode":"83349","locality":"Palling","municipality":{"key":"09189134","name":"Palling","type":"Kreisangehörige_Gemeinde"},"district":{"key":"09189","name":"Traunstein","type":"Landkreis"},"federalState":{"key":"09","name":"Bayern"}},{"name":"Von-Linsingen-Str.","postalCode":"29683","locality":"Bad Fallingbostel","municipality":{"key":"03358008","name":"Bad Fallingbostel, Stadt","type":"Stadt"},"district":{"key":"03358","name":"Heidekreis","type":"Landkreis"},"federalState":{"key":"03","name":"Niedersachsen"}},{"name":"Von-Notz-Park","postalCode":"29683","locality":"Bad Fallingbostel","municipality":{"key":"03358008","name":"Bad Fallingbostel, Stadt","type":"Stadt"},"district":{"key":"03358","name":"Heidekreis","type":"Landkreis"},"federalState":{"key":"03","name":"Niedersachsen"}},{"name":"Von-Siemens-Str.","postalCode":"29683","locality":"Bad Fallingbostel","municipality":{"key":"03358008","name":"Bad Fallingbostel, Stadt","type":"Stadt"},"district":{"key":"03358","name":"Heidekreis","type":"Landkreis"},"federalState":{"key":"03","name":"Niedersachsen"}},{"name":"Vor dem Badenhop","postalCode":"29683","locality":"Bad Fallingbostel","municipality":{"key":"03358008","name":"Bad Fallingbostel, Stadt","type":"Stadt"},"district":{"key":"03358","name":"Heidekreis","type":"Landkreis"},"federalState":{"key":"03","name":"Niedersachsen"}},{"name":"Vor dem Helmskamp","postalCode":"29683","locality":"Bad Fallingbostel","municipality":{"key":"03358008","name":"Bad Fallingbostel, Stadt","type":"Stadt"},"district":{"key":"03358","name":"Heidekreis","type":"Landkreis"},"federalState":{"key":"03","name":"Niedersachsen"}},{"name":"Vor dem Hofe","postalCode":"29683","locality":"Bad Fallingbostel","municipality":{"key":"03358008","name":"Bad Fallingbostel, Stadt","type":"Stadt"},"district":{"key":"03358","name":"Heidekreis","type":"Landkreis"},"federalState":{"key":"03","name":"Niedersachsen"}},{"name":"Wagnerstr.","postalCode":"29683","locality":"Bad Fallingbostel","municipality":{"key":"03358008","name":"Bad Fallingbostel, Stadt","type":"Stadt"},"district":{"key":"03358","name":"Heidekreis","type":"Landkreis"},"federalState":{"key":"03","name":"Niedersachsen"}},{"name":"Waldstr.","postalCode":"94551","locality":"Lalling","municipality":{"key":"09271130","name":"Lalling","type":"Kreisangehörige_Gemeinde"},"district":{"key":"09271","name":"Deggendorf","type":"Landkreis"},"federalState":{"key":"09","name":"Bayern"}},{"name":"Walsroder Str.","postalCode":"29683","locality":"Bad Fallingbostel","municipality":{"key":"03358008","name":"Bad Fallingbostel, Stadt","type":"Stadt"},"district":{"key":"03358","name":"Heidekreis","type":"Landkreis"},"federalState":{"key":"03","name":"Niedersachsen"}},{"name":"Wegerl","postalCode":"82239","locality":"Alling","municipality":{"key":"09179113","name":"Alling","type":"Kreisangehörige_Gemeinde"},"district":{"key":"09179","name":"Fürstenfeldbruck","type":"Landkreis"},"federalState":{"key":"09","name":"Bayern"}},{"name":"Weidenlohstr.","postalCode":"82239","locality":"Alling","municipality":{"key":"09179113","name":"Alling","type":"Kreisangehörige_Gemeinde"},"district":{"key":"09179","name":"Fürstenfeldbruck","type":"Landkreis"},"federalState":{"key":"09","name":"Bayern"}},{"name":"Weidenweg","postalCode":"29683","locality":"Bad Fallingbostel","municipality":{"key":"03358008","name":"Bad Fallingbostel, Stadt","type":"Stadt"},"district":{"key":"03358","name":"Heidekreis","type":"Landkreis"},"federalState":{"key":"03","name":"Niedersachsen"}},{"name":"Weiherstr.","postalCode":"82239","locality":"Alling","municipality":{"key":"09179113","name":"Alling","type":"Kreisangehörige_Gemeinde"},"district":{"key":"09179","name":"Fürstenfeldbruck","type":"Landkreis"},"federalState":{"key":"09","name":"Bayern"}},{"name":"Weißdornweg","postalCode":"29683","locality":"Bad Fallingbostel","municipality":{"key":"03358008","name":"Bad Fallingbostel, Stadt","type":"Stadt"},"district":{"key":"03358","name":"Heidekreis","type":"Landkreis"},"federalState":{"key":"03","name":"Niedersachsen"}},{"name":"Weißer Kamp","postalCode":"29683","locality":"Bad Fallingbostel","municipality":{"key":"03358008","name":"Bad Fallingbostel, Stadt","type":"Stadt"},"district":{"key":"03358","name":"Heidekreis","type":"Landkreis"},"federalState":{"key":"03","name":"Niedersachsen"}},{"name":"Weißer Sand","postalCode":"29683","locality":"Bad Fallingbostel","municipality":{"key":"03358008","name":"Bad Fallingbostel, Stadt","type":"Stadt"},"district":{"key":"03358","name":"Heidekreis","type":"Landkreis"},"federalState":{"key":"03","name":"Niedersachsen"}},{"name":"Westendorfer Str.","postalCode":"29683","locality":"Bad Fallingbostel","municipality":{"key":"03358008","name":"Bad Fallingbostel, Stadt","type":"Stadt"},"district":{"key":"03358","name":"Heidekreis","type":"Landkreis"},"federalState":{"key":"03","name":"Niedersachsen"}},{"name":"Westerharler Weg","postalCode":"29683","locality":"Bad Fallingbostel","municipality":{"key":"03358008","name":"Bad Fallingbostel, Stadt","type":"Stadt"},"district":{"key":"03358","name":"Heidekreis","type":"Landkreis"},"federalState":{"key":"03","name":"Niedersachsen"}},{"name":"Westring","postalCode":"83349","locality":"Palling","municipality":{"key":"09189134","name":"Palling","type":"Kreisangehörige_Gemeinde"},"district":{"key":"09189","name":"Traunstein","type":"Landkreis"},"federalState":{"key":"09","name":"Bayern"}},{"name":"Wettig-Park","postalCode":"29683","locality":"Bad Fallingbostel","municipality":{"key":"03358008","name":"Bad Fallingbostel, Stadt","type":"Stadt"},"district":{"key":"03358","name":"Heidekreis","type":"Landkreis"},"federalState":{"key":"03","name":"Niedersachsen"}},{"name":"Wiesenstr.","postalCode":"29683","locality":"Bad Fallingbostel","municipality":{"key":"03358008","name":"Bad Fallingbostel, Stadt","type":"Stadt"},"district":{"key":"03358","name":"Heidekreis","type":"Landkreis"},"federalState":{"key":"03","name":"Niedersachsen"}},{"name":"Wiesenstr.","postalCode":"82239","locality":"Alling","municipality":{"key":"09179113","name":"Alling","type":"Kreisangehörige_Gemeinde"},"district":{"key":"09179","name":"Fürstenfeldbruck","type":"Landkreis"},"federalState":{"key":"09","name":"Bayern"}},{"name":"Wiesenzeile","postalCode":"83349","locality":"Palling","municipality":{"key":"09189134","name":"Palling","type":"Kreisangehörige_Gemeinde"},"district":{"key":"09189","name":"Traunstein","type":"Landkreis"},"federalState":{"key":"09","name":"Bayern"}},{"name":"Wilhelm-Asche-Weg","postalCode":"29683","locality":"Bad Fallingbostel","municipality":{"key":"03358008","name":"Bad Fallingbostel, Stadt","type":"Stadt"},"district":{"key":"03358","name":"Heidekreis","type":"Landkreis"},"federalState":{"key":"03","name":"Niedersachsen"}},{"name":"Wilhelm-Raabe-Str.","postalCode":"29683","locality":"Bad Fallingbostel","municipality":{"key":"03358008","name":"Bad Fallingbostel, Stadt","type":"Stadt"},"district":{"key":"03358","name":"Heidekreis","type":"Landkreis"},"federalState":{"key":"03","name":"Niedersachsen"}},{"name":"Winkelhäuser Weg","postalCode":"29683","locality":"Bad Fallingbostel","municipality":{"key":"03358008","name":"Bad Fallingbostel, Stadt","type":"Stadt"},"district":{"key":"03358","name":"Heidekreis","type":"Landkreis"},"federalState":{"key":"03","name":"Niedersachsen"}},{"name":"Wisselshorster Weg","postalCode":"29683","locality":"Bad Fallingbostel","municipality":{"key":"03358008","name":"Bad Fallingbostel, Stadt","type":"Stadt"},"district":{"key":"03358","name":"Heidekreis","type":"Landkreis"},"federalState":{"key":"03","name":"Niedersachsen"}},{"name":"Wittelsbacherweg","postalCode":"82239","locality":"Alling","municipality":{"key":"09179113","name":"Alling","type":"Kreisangehörige_Gemeinde"},"district":{"key":"09179","name":"Fürstenfeldbruck","type":"Landkreis"},"federalState":{"key":"09","name":"Bayern"}},{"name":"Wolfskamp","postalCode":"29683","locality":"Bad Fallingbostel","municipality":{"key":"03358008","name":"Bad Fallingbostel, Stadt","type":"Stadt"},"district":{"key":"03358","name":"Heidekreis","type":"Landkreis"},"federalState":{"key":"03","name":"Niedersachsen"}},{"name":"Zeisigweg","postalCode":"29683","locality":"Bad Fallingbostel","municipality":{"key":"03358008","name":"Bad Fallingbostel, Stadt","type":"Stadt"},"district":{"key":"03358","name":"Heidekreis","type":"Landkreis"},"federalState":{"key":"03","name":"Niedersachsen"}},{"name":"Zum Braunsfeld","postalCode":"54426","locality":"Talling","municipality":{"key":"07231122","name":"Talling","type":"Kreisangehörige_Gemeinde"},"district":{"key":"07231","name":"Bernkastel-Wittlich","type":"Landkreis"},"federalState":{"key":"07","name":"Rheinland-Pfalz"}},{"name":"Zum Bürgerpark","postalCode":"29683","locality":"Bad Fallingbostel","municipality":{"key":"03358008","name":"Bad Fallingbostel, Stadt","type":"Stadt"},"district":{"key":"03358","name":"Heidekreis","type":"Landkreis"},"federalState":{"key":"03","name":"Niedersachsen"}},{"name":"Zum Steinbruch","postalCode":"94551","locality":"Lalling","municipality":{"key":"09271130","name":"Lalling","type":"Kreisangehörige_Gemeinde"},"district":{"key":"09271","name":"Deggendorf","type":"Landkreis"},"federalState":{"key":"09","name":"Bayern"}},{"name":"Zum Wiesental","postalCode":"54426","locality":"Talling","municipality":{"key":"07231122","name":"Talling","type":"Kreisangehörige_Gemeinde"},"district":{"key":"07231","name":"Bernkastel-Wittlich","type":"Landkreis"},"federalState":{"key":"07","name":"Rheinland-Pfalz"}},{"name":"Zur Buch","postalCode":"54426","locality":"Talling","municipality":{"key":"07231122","name":"Talling","type":"Kreisangehörige_Gemeinde"},"district":{"key":"07231","name":"Bernkastel-Wittlich","type":"Landkreis"},"federalState":{"key":"07","name":"Rheinland-Pfalz"}},{"name":"Zur Träf","postalCode":"54426","locality":"Talling","municipality":{"key":"07231122","name":"Talling","type":"Kreisangehörige_Gemeinde"},"district":{"key":"07231","name":"Bernkastel-Wittlich","type":"Landkreis"},"federalState":{"key":"07","name":"Rheinland-Pfalz"}},]