[{"key":"10143351","name":"ARA-Weg","postalCode":"2814","locality":"Roggenburg","commune":{"key":"2790","name":"Roggenburg","shortName":"Roggenburg"},"district":{"key":"1302","name":"Bezirk Laufen"},"canton":{"key":"13","code":"BL","name":"Basel-Landschaft"},"status":"Real"},{"key":"10143337","name":"Baumgartenweg","postalCode":"2814","locality":"Roggenburg","commune":{"key":"2790","name":"Roggenburg","shortName":"Roggenburg"},"district":{"key":"1302","name":"Bezirk Laufen"},"canton":{"key":"13","code":"BL","name":"Basel-Landschaft"},"status":"Real"},{"key":"10143338","name":"Bodenrittweg","postalCode":"2814","locality":"Roggenburg","commune":{"key":"2790","name":"Roggenburg","shortName":"Roggenburg"},"district":{"key":"1302","name":"Bezirk Laufen"},"canton":{"key":"13","code":"BL","name":"Basel-Landschaft"},"status":"Real"},{"key":"10143238","name":"Challweg","postalCode":"2814","locality":"Roggenburg","commune":{"key":"2790","name":"Roggenburg","shortName":"Roggenburg"},"district":{"key":"1302","name":"Bezirk Laufen"},"canton":{"key":"13","code":"BL","name":"Basel-Landschaft"},"status":"Real"},{"key":"10082038","name":"Dorfmattstrasse","postalCode":"2814","locality":"Roggenburg","commune":{"key":"2790","name":"Roggenburg","shortName":"Roggenburg"},"district":{"key":"1302","name":"Bezirk Laufen"},"canton":{"key":"13","code":"BL","name":"Basel-Landschaft"},"status":"Real"},{"key":"10143316","name":"Dorfstrasse","postalCode":"2814","locality":"Roggenburg","commune":{"key":"2790","name":"Roggenburg","shortName":"Roggenburg"},"district":{"key":"1302","name":"Bezirk Laufen"},"canton":{"key":"13","code":"BL","name":"Basel-Landschaft"},"status":"Real"},{"key":"10143219","name":"Ederswilerstrasse","postalCode":"2814","locality":"Roggenburg","commune":{"key":"2790","name":"Roggenburg","shortName":"Roggenburg"},"district":{"key":"1302","name":"Bezirk Laufen"},"canton":{"key":"13","code":"BL","name":"Basel-Landschaft"},"status":"Real"},{"key":"10143345","name":"Gässli","postalCode":"2814","locality":"Roggenburg","commune":{"key":"2790","name":"Roggenburg","shortName":"Roggenburg"},"district":{"key":"1302","name":"Bezirk Laufen"},"canton":{"key":"13","code":"BL","name":"Basel-Landschaft"},"status":"Real"},{"key":"10143320","name":"Geissenrainweg","postalCode":"2814","locality":"Roggenburg","commune":{"key":"2790","name":"Roggenburg","shortName":"Roggenburg"},"district":{"key":"1302","name":"Bezirk Laufen"},"canton":{"key":"13","code":"BL","name":"Basel-Landschaft"},"status":"Real"},{"key":"10143217","name":"Grinlistrasse","postalCode":"2814","locality":"Roggenburg","commune":{"key":"2790","name":"Roggenburg","shortName":"Roggenburg"},"district":{"key":"1302","name":"Bezirk Laufen"},"canton":{"key":"13","code":"BL","name":"Basel-Landschaft"},"status":"Real"},{"key":"10143216","name":"Grinliweg","postalCode":"2814","locality":"Roggenburg","commune":{"key":"2790","name":"Roggenburg","shortName":"Roggenburg"},"district":{"key":"1302","name":"Bezirk Laufen"},"canton":{"key":"13","code":"BL","name":"Basel-Landschaft"},"status":"Real"},{"key":"10143346","name":"Grossackerweg","postalCode":"2814","locality":"Roggenburg","commune":{"key":"2790","name":"Roggenburg","shortName":"Roggenburg"},"district":{"key":"1302","name":"Bezirk Laufen"},"canton":{"key":"13","code":"BL","name":"Basel-Landschaft"},"status":"Real"},{"key":"10143242","name":"Hasenbodenweg","postalCode":"2814","locality":"Roggenburg","commune":{"key":"2790","name":"Roggenburg","shortName":"Roggenburg"},"district":{"key":"1302","name":"Bezirk Laufen"},"canton":{"key":"13","code":"BL","name":"Basel-Landschaft"},"status":"Real"},{"key":"10103065","name":"Hauptstrasse","postalCode":"2814","locality":"Roggenburg","commune":{"key":"2790","name":"Roggenburg","shortName":"Roggenburg"},"district":{"key":"1302","name":"Bezirk Laufen"},"canton":{"key":"13","code":"BL","name":"Basel-Landschaft"},"status":"Real"},{"key":"10143223","name":"Hof Gärtlihübel","postalCode":"2814","locality":"Roggenburg","commune":{"key":"2790","name":"Roggenburg","shortName":"Roggenburg"},"district":{"key":"1302","name":"Bezirk Laufen"},"canton":{"key":"13","code":"BL","name":"Basel-Landschaft"},"status":"Real"},{"key":"10143222","name":"Hof Hasenboden","postalCode":"2814","locality":"Roggenburg","commune":{"key":"2790","name":"Roggenburg","shortName":"Roggenburg"},"district":{"key":"1302","name":"Bezirk Laufen"},"canton":{"key":"13","code":"BL","name":"Basel-Landschaft"},"status":"Real"},{"key":"10143344","name":"Hof Hintere Welschmatt","postalCode":"2814","locality":"Roggenburg","commune":{"key":"2790","name":"Roggenburg","shortName":"Roggenburg"},"district":{"key":"1302","name":"Bezirk Laufen"},"canton":{"key":"13","code":"BL","name":"Basel-Landschaft"},"status":"Real"},{"key":"10215111","name":"Höfli","postalCode":"2814","locality":"Roggenburg","commune":{"key":"2790","name":"Roggenburg","shortName":"Roggenburg"},"district":{"key":"1302","name":"Bezirk Laufen"},"canton":{"key":"13","code":"BL","name":"Basel-Landschaft"},"status":"Real"},{"key":"10143340","name":"Höfliweg","postalCode":"2814","locality":"Roggenburg","commune":{"key":"2790","name":"Roggenburg","shortName":"Roggenburg"},"district":{"key":"1302","name":"Bezirk Laufen"},"canton":{"key":"13","code":"BL","name":"Basel-Landschaft"},"status":"Real"},{"key":"10143215","name":"Hof Neuhaus","postalCode":"2814","locality":"Roggenburg","commune":{"key":"2790","name":"Roggenburg","shortName":"Roggenburg"},"district":{"key":"1302","name":"Bezirk Laufen"},"canton":{"key":"13","code":"BL","name":"Basel-Landschaft"},"status":"Real"},{"key":"10143225","name":"Hof Unterer Ritzigrund","postalCode":"2814","locality":"Roggenburg","commune":{"key":"2790","name":"Roggenburg","shortName":"Roggenburg"},"district":{"key":"1302","name":"Bezirk Laufen"},"canton":{"key":"13","code":"BL","name":"Basel-Landschaft"},"status":"Real"},{"key":"10143224","name":"Hof Vollgrube","postalCode":"2814","locality":"Roggenburg","commune":{"key":"2790","name":"Roggenburg","shortName":"Roggenburg"},"district":{"key":"1302","name":"Bezirk Laufen"},"canton":{"key":"13","code":"BL","name":"Basel-Landschaft"},"status":"Real"},{"key":"10143335","name":"Hof Vordere Welschmatt","postalCode":"2814","locality":"Roggenburg","commune":{"key":"2790","name":"Roggenburg","shortName":"Roggenburg"},"district":{"key":"1302","name":"Bezirk Laufen"},"canton":{"key":"13","code":"BL","name":"Basel-Landschaft"},"status":"Real"},{"key":"10143318","name":"Höhenackerweg","postalCode":"2814","locality":"Roggenburg","commune":{"key":"2790","name":"Roggenburg","shortName":"Roggenburg"},"district":{"key":"1302","name":"Bezirk Laufen"},"canton":{"key":"13","code":"BL","name":"Basel-Landschaft"},"status":"Real"},{"key":"10027078","name":"Kirchgasse","postalCode":"2814","locality":"Roggenburg","commune":{"key":"2790","name":"Roggenburg","shortName":"Roggenburg"},"district":{"key":"1302","name":"Bezirk Laufen"},"canton":{"key":"13","code":"BL","name":"Basel-Landschaft"},"status":"Real"},{"key":"10143218","name":"Kreyenweg","postalCode":"2814","locality":"Roggenburg","commune":{"key":"2790","name":"Roggenburg","shortName":"Roggenburg"},"district":{"key":"1302","name":"Bezirk Laufen"},"canton":{"key":"13","code":"BL","name":"Basel-Landschaft"},"status":"Real"},{"key":"10152418","name":"Langgartenweg","postalCode":"2814","locality":"Roggenburg","commune":{"key":"2790","name":"Roggenburg","shortName":"Roggenburg"},"district":{"key":"1302","name":"Bezirk Laufen"},"canton":{"key":"13","code":"BL","name":"Basel-Landschaft"},"status":"Real"},{"key":"10143231","name":"Löwenburgweg","postalCode":"2814","locality":"Roggenburg","commune":{"key":"2790","name":"Roggenburg","shortName":"Roggenburg"},"district":{"key":"1302","name":"Bezirk Laufen"},"canton":{"key":"13","code":"BL","name":"Basel-Landschaft"},"status":"Real"},{"key":"10143221","name":"Mariabrunnfeldweg","postalCode":"2814","locality":"Roggenburg","commune":{"key":"2790","name":"Roggenburg","shortName":"Roggenburg"},"district":{"key":"1302","name":"Bezirk Laufen"},"canton":{"key":"13","code":"BL","name":"Basel-Landschaft"},"status":"Real"},{"key":"10143232","name":"Milzenriedweg","postalCode":"2814","locality":"Roggenburg","commune":{"key":"2790","name":"Roggenburg","shortName":"Roggenburg"},"district":{"key":"1302","name":"Bezirk Laufen"},"canton":{"key":"13","code":"BL","name":"Basel-Landschaft"},"status":"Real"},{"key":"10143227","name":"Motocrossweg","postalCode":"2814","locality":"Roggenburg","commune":{"key":"2790","name":"Roggenburg","shortName":"Roggenburg"},"district":{"key":"1302","name":"Bezirk Laufen"},"canton":{"key":"13","code":"BL","name":"Basel-Landschaft"},"status":"Real"},{"key":"10178384","name":"Moulin-Neuf","postalCode":"2814","locality":"Roggenburg","commune":{"key":"2790","name":"Roggenburg","shortName":"Roggenburg"},"district":{"key":"1302","name":"Bezirk Laufen"},"canton":{"key":"13","code":"BL","name":"Basel-Landschaft"},"status":"Real"},{"key":"10143240","name":"Neuhaus","postalCode":"2814","locality":"Roggenburg","commune":{"key":"2790","name":"Roggenburg","shortName":"Roggenburg"},"district":{"key":"1302","name":"Bezirk Laufen"},"canton":{"key":"13","code":"BL","name":"Basel-Landschaft"},"status":"Real"},{"key":"10143341","name":"Neumattweg","postalCode":"2814","locality":"Roggenburg","commune":{"key":"2790","name":"Roggenburg","shortName":"Roggenburg"},"district":{"key":"1302","name":"Bezirk Laufen"},"canton":{"key":"13","code":"BL","name":"Basel-Landschaft"},"status":"Real"},{"key":"10143343","name":"Neumühleweg","postalCode":"2814","locality":"Roggenburg","commune":{"key":"2790","name":"Roggenburg","shortName":"Roggenburg"},"district":{"key":"1302","name":"Bezirk Laufen"},"canton":{"key":"13","code":"BL","name":"Basel-Landschaft"},"status":"Real"},{"key":"10143236","name":"Oberer Stupflenackerweg","postalCode":"2814","locality":"Roggenburg","commune":{"key":"2790","name":"Roggenburg","shortName":"Roggenburg"},"district":{"key":"1302","name":"Bezirk Laufen"},"canton":{"key":"13","code":"BL","name":"Basel-Landschaft"},"status":"Real"},{"key":"10143220","name":"Ottiweg","postalCode":"2814","locality":"Roggenburg","commune":{"key":"2790","name":"Roggenburg","shortName":"Roggenburg"},"district":{"key":"1302","name":"Bezirk Laufen"},"canton":{"key":"13","code":"BL","name":"Basel-Landschaft"},"status":"Real"},{"key":"10142387","name":"Rainweg","postalCode":"2814","locality":"Roggenburg","commune":{"key":"2790","name":"Roggenburg","shortName":"Roggenburg"},"district":{"key":"1302","name":"Bezirk Laufen"},"canton":{"key":"13","code":"BL","name":"Basel-Landschaft"},"status":"Real"},{"key":"10143241","name":"Reservoirwegli","postalCode":"2814","locality":"Roggenburg","commune":{"key":"2790","name":"Roggenburg","shortName":"Roggenburg"},"district":{"key":"1302","name":"Bezirk Laufen"},"canton":{"key":"13","code":"BL","name":"Basel-Landschaft"},"status":"Real"},{"key":"10063785","name":"Ritzengrund","postalCode":"2814","locality":"Roggenburg","commune":{"key":"2790","name":"Roggenburg","shortName":"Roggenburg"},"district":{"key":"1302","name":"Bezirk Laufen"},"canton":{"key":"13","code":"BL","name":"Basel-Landschaft"},"status":"Real"},{"key":"10143233","name":"Ritzigrundweg","postalCode":"2814","locality":"Roggenburg","commune":{"key":"2790","name":"Roggenburg","shortName":"Roggenburg"},"district":{"key":"1302","name":"Bezirk Laufen"},"canton":{"key":"13","code":"BL","name":"Basel-Landschaft"},"status":"Real"},{"key":"10143239","name":"Rüheweg","postalCode":"2814","locality":"Roggenburg","commune":{"key":"2790","name":"Roggenburg","shortName":"Roggenburg"},"district":{"key":"1302","name":"Bezirk Laufen"},"canton":{"key":"13","code":"BL","name":"Basel-Landschaft"},"status":"Real"},{"key":"10027079","name":"Sägemühlestrasse","postalCode":"2814","locality":"Roggenburg","commune":{"key":"2790","name":"Roggenburg","shortName":"Roggenburg"},"district":{"key":"1302","name":"Bezirk Laufen"},"canton":{"key":"13","code":"BL","name":"Basel-Landschaft"},"status":"Real"},{"key":"10143244","name":"Schulhausweg","postalCode":"2814","locality":"Roggenburg","commune":{"key":"2790","name":"Roggenburg","shortName":"Roggenburg"},"district":{"key":"1302","name":"Bezirk Laufen"},"canton":{"key":"13","code":"BL","name":"Basel-Landschaft"},"status":"Real"},{"key":"10143226","name":"Schützenhof","postalCode":"2814","locality":"Roggenburg","commune":{"key":"2790","name":"Roggenburg","shortName":"Roggenburg"},"district":{"key":"1302","name":"Bezirk Laufen"},"canton":{"key":"13","code":"BL","name":"Basel-Landschaft"},"status":"Real"},{"key":"10143339","name":"Schützenhofweg","postalCode":"2814","locality":"Roggenburg","commune":{"key":"2790","name":"Roggenburg","shortName":"Roggenburg"},"district":{"key":"1302","name":"Bezirk Laufen"},"canton":{"key":"13","code":"BL","name":"Basel-Landschaft"},"status":"Real"},{"key":"10143234","name":"Stelliweg","postalCode":"2814","locality":"Roggenburg","commune":{"key":"2790","name":"Roggenburg","shortName":"Roggenburg"},"district":{"key":"1302","name":"Bezirk Laufen"},"canton":{"key":"13","code":"BL","name":"Basel-Landschaft"},"status":"Real"},{"key":"10143237","name":"Stupflenackerweg","postalCode":"2814","locality":"Roggenburg","commune":{"key":"2790","name":"Roggenburg","shortName":"Roggenburg"},"district":{"key":"1302","name":"Bezirk Laufen"},"canton":{"key":"13","code":"BL","name":"Basel-Landschaft"},"status":"Real"},{"key":"10143243","name":"Surtelweg","postalCode":"2814","locality":"Roggenburg","commune":{"key":"2790","name":"Roggenburg","shortName":"Roggenburg"},"district":{"key":"1302","name":"Bezirk Laufen"},"canton":{"key":"13","code":"BL","name":"Basel-Landschaft"},"status":"Real"},{"key":"10143235","name":"Unterer Stupflenackerweg","postalCode":"2814","locality":"Roggenburg","commune":{"key":"2790","name":"Roggenburg","shortName":"Roggenburg"},"district":{"key":"1302","name":"Bezirk Laufen"},"canton":{"key":"13","code":"BL","name":"Basel-Landschaft"},"status":"Real"},{"key":"10143228","name":"Vollgrubenweg","postalCode":"2814","locality":"Roggenburg","commune":{"key":"2790","name":"Roggenburg","shortName":"Roggenburg"},"district":{"key":"1302","name":"Bezirk Laufen"},"canton":{"key":"13","code":"BL","name":"Basel-Landschaft"},"status":"Real"},{"key":"10147567","name":"Welschmatt","postalCode":"2814","locality":"Roggenburg","commune":{"key":"2790","name":"Roggenburg","shortName":"Roggenburg"},"district":{"key":"1302","name":"Bezirk Laufen"},"canton":{"key":"13","code":"BL","name":"Basel-Landschaft"},"status":"Real"},{"key":"10143230","name":"Welschmattweg","postalCode":"2814","locality":"Roggenburg","commune":{"key":"2790","name":"Roggenburg","shortName":"Roggenburg"},"district":{"key":"1302","name":"Bezirk Laufen"},"canton":{"key":"13","code":"BL","name":"Basel-Landschaft"},"status":"Real"},]