[{"name":"Abendrothstr.","postalCode":"01619","locality":"Zeithain","municipality":{"key":"14627360","name":"Zeithain","type":"Kreisangehörige_Gemeinde"},"district":{"key":"14627","name":"Meißen","type":"Landkreis"},"federalState":{"key":"14","name":"Sachsen"}},{"name":"Akazienweg","postalCode":"01619","locality":"Zeithain","municipality":{"key":"14627360","name":"Zeithain","type":"Kreisangehörige_Gemeinde"},"district":{"key":"14627","name":"Meißen","type":"Landkreis"},"federalState":{"key":"14","name":"Sachsen"}},{"name":"Alte Hauptstr.","postalCode":"01619","locality":"Zeithain","municipality":{"key":"14627360","name":"Zeithain","type":"Kreisangehörige_Gemeinde"},"district":{"key":"14627","name":"Meißen","type":"Landkreis"},"federalState":{"key":"14","name":"Sachsen"}},{"name":"Alte Salzstr.","postalCode":"01619","locality":"Zeithain","municipality":{"key":"14627360","name":"Zeithain","type":"Kreisangehörige_Gemeinde"},"district":{"key":"14627","name":"Meißen","type":"Landkreis"},"federalState":{"key":"14","name":"Sachsen"}},{"name":"Alte Schulstr.","postalCode":"01619","locality":"Zeithain","municipality":{"key":"14627360","name":"Zeithain","type":"Kreisangehörige_Gemeinde"},"district":{"key":"14627","name":"Meißen","type":"Landkreis"},"federalState":{"key":"14","name":"Sachsen"}},{"name":"Am Bahnhof","postalCode":"01619","locality":"Zeithain","municipality":{"key":"14627360","name":"Zeithain","type":"Kreisangehörige_Gemeinde"},"district":{"key":"14627","name":"Meißen","type":"Landkreis"},"federalState":{"key":"14","name":"Sachsen"}},{"name":"Am Berg","postalCode":"01619","locality":"Zeithain","municipality":{"key":"14627360","name":"Zeithain","type":"Kreisangehörige_Gemeinde"},"district":{"key":"14627","name":"Meißen","type":"Landkreis"},"federalState":{"key":"14","name":"Sachsen"}},{"name":"Am Bogendreieck","postalCode":"01619","locality":"Zeithain","municipality":{"key":"14627360","name":"Zeithain","type":"Kreisangehörige_Gemeinde"},"district":{"key":"14627","name":"Meißen","type":"Landkreis"},"federalState":{"key":"14","name":"Sachsen"}},{"name":"Am Breiten Rain","postalCode":"01619","locality":"Zeithain","municipality":{"key":"14627360","name":"Zeithain","type":"Kreisangehörige_Gemeinde"},"district":{"key":"14627","name":"Meißen","type":"Landkreis"},"federalState":{"key":"14","name":"Sachsen"}},{"name":"Am Elbdamm","postalCode":"01619","locality":"Zeithain","municipality":{"key":"14627360","name":"Zeithain","type":"Kreisangehörige_Gemeinde"},"district":{"key":"14627","name":"Meißen","type":"Landkreis"},"federalState":{"key":"14","name":"Sachsen"}},{"name":"Am Elbufer","postalCode":"01619","locality":"Zeithain","municipality":{"key":"14627360","name":"Zeithain","type":"Kreisangehörige_Gemeinde"},"district":{"key":"14627","name":"Meißen","type":"Landkreis"},"federalState":{"key":"14","name":"Sachsen"}},{"name":"Am Forsthaus","postalCode":"01619","locality":"Zeithain","municipality":{"key":"14627360","name":"Zeithain","type":"Kreisangehörige_Gemeinde"},"district":{"key":"14627","name":"Meißen","type":"Landkreis"},"federalState":{"key":"14","name":"Sachsen"}},{"name":"Am Heidebogen","postalCode":"01619","locality":"Zeithain","municipality":{"key":"14627360","name":"Zeithain","type":"Kreisangehörige_Gemeinde"},"district":{"key":"14627","name":"Meißen","type":"Landkreis"},"federalState":{"key":"14","name":"Sachsen"}},{"name":"Am Pfarrlehn","postalCode":"01619","locality":"Zeithain","municipality":{"key":"14627360","name":"Zeithain","type":"Kreisangehörige_Gemeinde"},"district":{"key":"14627","name":"Meißen","type":"Landkreis"},"federalState":{"key":"14","name":"Sachsen"}},{"name":"Amselweg","postalCode":"01619","locality":"Zeithain","municipality":{"key":"14627360","name":"Zeithain","type":"Kreisangehörige_Gemeinde"},"district":{"key":"14627","name":"Meißen","type":"Landkreis"},"federalState":{"key":"14","name":"Sachsen"}},{"name":"Am Südring","postalCode":"01619","locality":"Zeithain","municipality":{"key":"14627360","name":"Zeithain","type":"Kreisangehörige_Gemeinde"},"district":{"key":"14627","name":"Meißen","type":"Landkreis"},"federalState":{"key":"14","name":"Sachsen"}},{"name":"Am Unteren Teich","postalCode":"01619","locality":"Zeithain","municipality":{"key":"14627360","name":"Zeithain","type":"Kreisangehörige_Gemeinde"},"district":{"key":"14627","name":"Meißen","type":"Landkreis"},"federalState":{"key":"14","name":"Sachsen"}},{"name":"Am Wald","postalCode":"01619","locality":"Zeithain","municipality":{"key":"14627360","name":"Zeithain","type":"Kreisangehörige_Gemeinde"},"district":{"key":"14627","name":"Meißen","type":"Landkreis"},"federalState":{"key":"14","name":"Sachsen"}},{"name":"An den Gärten","postalCode":"01619","locality":"Zeithain","municipality":{"key":"14627360","name":"Zeithain","type":"Kreisangehörige_Gemeinde"},"district":{"key":"14627","name":"Meißen","type":"Landkreis"},"federalState":{"key":"14","name":"Sachsen"}},{"name":"An der Alten Mühle","postalCode":"01619","locality":"Zeithain","municipality":{"key":"14627360","name":"Zeithain","type":"Kreisangehörige_Gemeinde"},"district":{"key":"14627","name":"Meißen","type":"Landkreis"},"federalState":{"key":"14","name":"Sachsen"}},{"name":"An der Borntelle","postalCode":"01619","locality":"Zeithain","municipality":{"key":"14627360","name":"Zeithain","type":"Kreisangehörige_Gemeinde"},"district":{"key":"14627","name":"Meißen","type":"Landkreis"},"federalState":{"key":"14","name":"Sachsen"}},{"name":"Bahnhofstr.","postalCode":"01619","locality":"Zeithain","municipality":{"key":"14627360","name":"Zeithain","type":"Kreisangehörige_Gemeinde"},"district":{"key":"14627","name":"Meißen","type":"Landkreis"},"federalState":{"key":"14","name":"Sachsen"}},{"name":"Birkenweg","postalCode":"01619","locality":"Zeithain","municipality":{"key":"14627360","name":"Zeithain","type":"Kreisangehörige_Gemeinde"},"district":{"key":"14627","name":"Meißen","type":"Landkreis"},"federalState":{"key":"14","name":"Sachsen"}},{"name":"Breitscheidstr.","postalCode":"01619","locality":"Zeithain","municipality":{"key":"14627360","name":"Zeithain","type":"Kreisangehörige_Gemeinde"},"district":{"key":"14627","name":"Meißen","type":"Landkreis"},"federalState":{"key":"14","name":"Sachsen"}},{"name":"Cottewitzer Str.","postalCode":"01619","locality":"Zeithain","municipality":{"key":"14627360","name":"Zeithain","type":"Kreisangehörige_Gemeinde"},"district":{"key":"14627","name":"Meißen","type":"Landkreis"},"federalState":{"key":"14","name":"Sachsen"}},{"name":"Damaschkestr.","postalCode":"01619","locality":"Zeithain","municipality":{"key":"14627360","name":"Zeithain","type":"Kreisangehörige_Gemeinde"},"district":{"key":"14627","name":"Meißen","type":"Landkreis"},"federalState":{"key":"14","name":"Sachsen"}},{"name":"Dorfplatz","postalCode":"01619","locality":"Zeithain","municipality":{"key":"14627360","name":"Zeithain","type":"Kreisangehörige_Gemeinde"},"district":{"key":"14627","name":"Meißen","type":"Landkreis"},"federalState":{"key":"14","name":"Sachsen"}},{"name":"Edwin-Hoernle-Str.","postalCode":"01619","locality":"Zeithain","municipality":{"key":"14627360","name":"Zeithain","type":"Kreisangehörige_Gemeinde"},"district":{"key":"14627","name":"Meißen","type":"Landkreis"},"federalState":{"key":"14","name":"Sachsen"}},{"name":"Ehrenhain Zeithain","postalCode":"01619","locality":"Zeithain","municipality":{"key":"14627360","name":"Zeithain","type":"Kreisangehörige_Gemeinde"},"district":{"key":"14627","name":"Meißen","type":"Landkreis"},"federalState":{"key":"14","name":"Sachsen"}},{"name":"Elbblick","postalCode":"01619","locality":"Zeithain","municipality":{"key":"14627360","name":"Zeithain","type":"Kreisangehörige_Gemeinde"},"district":{"key":"14627","name":"Meißen","type":"Landkreis"},"federalState":{"key":"14","name":"Sachsen"}},{"name":"Elbstr.","postalCode":"01619","locality":"Zeithain","municipality":{"key":"14627360","name":"Zeithain","type":"Kreisangehörige_Gemeinde"},"district":{"key":"14627","name":"Meißen","type":"Landkreis"},"federalState":{"key":"14","name":"Sachsen"}},{"name":"Elbweg","postalCode":"01619","locality":"Zeithain","municipality":{"key":"14627360","name":"Zeithain","type":"Kreisangehörige_Gemeinde"},"district":{"key":"14627","name":"Meißen","type":"Landkreis"},"federalState":{"key":"14","name":"Sachsen"}},{"name":"Elbwiesenstr.","postalCode":"01619","locality":"Zeithain","municipality":{"key":"14627360","name":"Zeithain","type":"Kreisangehörige_Gemeinde"},"district":{"key":"14627","name":"Meißen","type":"Landkreis"},"federalState":{"key":"14","name":"Sachsen"}},{"name":"Ernst-Thälmann-Str.","postalCode":"01619","locality":"Zeithain","municipality":{"key":"14627360","name":"Zeithain","type":"Kreisangehörige_Gemeinde"},"district":{"key":"14627","name":"Meißen","type":"Landkreis"},"federalState":{"key":"14","name":"Sachsen"}},{"name":"Feldstr.","postalCode":"01619","locality":"Zeithain","municipality":{"key":"14627360","name":"Zeithain","type":"Kreisangehörige_Gemeinde"},"district":{"key":"14627","name":"Meißen","type":"Landkreis"},"federalState":{"key":"14","name":"Sachsen"}},{"name":"Gartenstr.","postalCode":"01619","locality":"Zeithain","municipality":{"key":"14627360","name":"Zeithain","type":"Kreisangehörige_Gemeinde"},"district":{"key":"14627","name":"Meißen","type":"Landkreis"},"federalState":{"key":"14","name":"Sachsen"}},{"name":"Gartenweg","postalCode":"01619","locality":"Zeithain","municipality":{"key":"14627360","name":"Zeithain","type":"Kreisangehörige_Gemeinde"},"district":{"key":"14627","name":"Meißen","type":"Landkreis"},"federalState":{"key":"14","name":"Sachsen"}},{"name":"Glaubitzer Str.","postalCode":"01619","locality":"Zeithain","municipality":{"key":"14627360","name":"Zeithain","type":"Kreisangehörige_Gemeinde"},"district":{"key":"14627","name":"Meißen","type":"Landkreis"},"federalState":{"key":"14","name":"Sachsen"}},{"name":"Gohliser Gasse","postalCode":"01619","locality":"Zeithain","municipality":{"key":"14627360","name":"Zeithain","type":"Kreisangehörige_Gemeinde"},"district":{"key":"14627","name":"Meißen","type":"Landkreis"},"federalState":{"key":"14","name":"Sachsen"}},{"name":"Gohliser Str.","postalCode":"01619","locality":"Zeithain","municipality":{"key":"14627360","name":"Zeithain","type":"Kreisangehörige_Gemeinde"},"district":{"key":"14627","name":"Meißen","type":"Landkreis"},"federalState":{"key":"14","name":"Sachsen"}},{"name":"Gohrische Str.","postalCode":"01619","locality":"Zeithain","municipality":{"key":"14627360","name":"Zeithain","type":"Kreisangehörige_Gemeinde"},"district":{"key":"14627","name":"Meißen","type":"Landkreis"},"federalState":{"key":"14","name":"Sachsen"}},{"name":"Gohrischheide Rundweg","postalCode":"01619","locality":"Zeithain","municipality":{"key":"14627360","name":"Zeithain","type":"Kreisangehörige_Gemeinde"},"district":{"key":"14627","name":"Meißen","type":"Landkreis"},"federalState":{"key":"14","name":"Sachsen"}},{"name":"Grenzweg","postalCode":"01619","locality":"Zeithain","municipality":{"key":"14627360","name":"Zeithain","type":"Kreisangehörige_Gemeinde"},"district":{"key":"14627","name":"Meißen","type":"Landkreis"},"federalState":{"key":"14","name":"Sachsen"}},{"name":"Gröditzer Str.","postalCode":"01619","locality":"Zeithain","municipality":{"key":"14627360","name":"Zeithain","type":"Kreisangehörige_Gemeinde"},"district":{"key":"14627","name":"Meißen","type":"Landkreis"},"federalState":{"key":"14","name":"Sachsen"}},{"name":"Grundstr.","postalCode":"01619","locality":"Zeithain","municipality":{"key":"14627360","name":"Zeithain","type":"Kreisangehörige_Gemeinde"},"district":{"key":"14627","name":"Meißen","type":"Landkreis"},"federalState":{"key":"14","name":"Sachsen"}},{"name":"Grüne Aue","postalCode":"01619","locality":"Zeithain","municipality":{"key":"14627360","name":"Zeithain","type":"Kreisangehörige_Gemeinde"},"district":{"key":"14627","name":"Meißen","type":"Landkreis"},"federalState":{"key":"14","name":"Sachsen"}},{"name":"Hauptstr.","postalCode":"01619","locality":"Zeithain","municipality":{"key":"14627360","name":"Zeithain","type":"Kreisangehörige_Gemeinde"},"district":{"key":"14627","name":"Meißen","type":"Landkreis"},"federalState":{"key":"14","name":"Sachsen"}},{"name":"Hausener Str.","postalCode":"01619","locality":"Zeithain","municipality":{"key":"14627360","name":"Zeithain","type":"Kreisangehörige_Gemeinde"},"district":{"key":"14627","name":"Meißen","type":"Landkreis"},"federalState":{"key":"14","name":"Sachsen"}},{"name":"Heidepfad","postalCode":"01619","locality":"Zeithain","municipality":{"key":"14627360","name":"Zeithain","type":"Kreisangehörige_Gemeinde"},"district":{"key":"14627","name":"Meißen","type":"Landkreis"},"federalState":{"key":"14","name":"Sachsen"}},{"name":"Hermann-Löns-Weg","postalCode":"01619","locality":"Zeithain","municipality":{"key":"14627360","name":"Zeithain","type":"Kreisangehörige_Gemeinde"},"district":{"key":"14627","name":"Meißen","type":"Landkreis"},"federalState":{"key":"14","name":"Sachsen"}},{"name":"Ichenheimer Weg","postalCode":"77974","locality":"Meißenheim","municipality":{"key":"08317075","name":"Meißenheim","type":"Kreisangehörige_Gemeinde"},"district":{"key":"08317","name":"Ortenaukreis","type":"Landkreis"},"federalState":{"key":"08","name":"Baden-Württemberg"}},{"name":"Ilschnerstr.","postalCode":"01662","locality":"Meißen","municipality":{"key":"14627140","name":"Meißen, Stadt","type":"Stadt"},"district":{"key":"14627","name":"Meißen","type":"Landkreis"},"federalState":{"key":"14","name":"Sachsen"}},{"name":"Im Älmel","postalCode":"77974","locality":"Meißenheim","municipality":{"key":"08317075","name":"Meißenheim","type":"Kreisangehörige_Gemeinde"},"district":{"key":"08317","name":"Ortenaukreis","type":"Landkreis"},"federalState":{"key":"08","name":"Baden-Württemberg"}},{"name":"Im Grün","postalCode":"77974","locality":"Meißenheim","municipality":{"key":"08317075","name":"Meißenheim","type":"Kreisangehörige_Gemeinde"},"district":{"key":"08317","name":"Ortenaukreis","type":"Landkreis"},"federalState":{"key":"08","name":"Baden-Württemberg"}},{"name":"Im Grund","postalCode":"77974","locality":"Meißenheim","municipality":{"key":"08317075","name":"Meißenheim","type":"Kreisangehörige_Gemeinde"},"district":{"key":"08317","name":"Ortenaukreis","type":"Landkreis"},"federalState":{"key":"08","name":"Baden-Württemberg"}},{"name":"Im Haargarten","postalCode":"77974","locality":"Meißenheim","municipality":{"key":"08317075","name":"Meißenheim","type":"Kreisangehörige_Gemeinde"},"district":{"key":"08317","name":"Ortenaukreis","type":"Landkreis"},"federalState":{"key":"08","name":"Baden-Württemberg"}},{"name":"Im Hellersgrund","postalCode":"77974","locality":"Meißenheim","municipality":{"key":"08317075","name":"Meißenheim","type":"Kreisangehörige_Gemeinde"},"district":{"key":"08317","name":"Ortenaukreis","type":"Landkreis"},"federalState":{"key":"08","name":"Baden-Württemberg"}},{"name":"Im Kleinfeldele","postalCode":"77974","locality":"Meißenheim","municipality":{"key":"08317075","name":"Meißenheim","type":"Kreisangehörige_Gemeinde"},"district":{"key":"08317","name":"Ortenaukreis","type":"Landkreis"},"federalState":{"key":"08","name":"Baden-Württemberg"}},{"name":"Im Luckenloch","postalCode":"77974","locality":"Meißenheim","municipality":{"key":"08317075","name":"Meißenheim","type":"Kreisangehörige_Gemeinde"},"district":{"key":"08317","name":"Ortenaukreis","type":"Landkreis"},"federalState":{"key":"08","name":"Baden-Württemberg"}},{"name":"Im Winkel","postalCode":"77974","locality":"Meißenheim","municipality":{"key":"08317075","name":"Meißenheim","type":"Kreisangehörige_Gemeinde"},"district":{"key":"08317","name":"Ortenaukreis","type":"Landkreis"},"federalState":{"key":"08","name":"Baden-Württemberg"}},{"name":"Jacobsthaler Str.","postalCode":"01619","locality":"Zeithain","municipality":{"key":"14627360","name":"Zeithain","type":"Kreisangehörige_Gemeinde"},"district":{"key":"14627","name":"Meißen","type":"Landkreis"},"federalState":{"key":"14","name":"Sachsen"}},{"name":"Kiefernstr.","postalCode":"01619","locality":"Zeithain","municipality":{"key":"14627360","name":"Zeithain","type":"Kreisangehörige_Gemeinde"},"district":{"key":"14627","name":"Meißen","type":"Landkreis"},"federalState":{"key":"14","name":"Sachsen"}},{"name":"Kirchstr.","postalCode":"01619","locality":"Zeithain","municipality":{"key":"14627360","name":"Zeithain","type":"Kreisangehörige_Gemeinde"},"district":{"key":"14627","name":"Meißen","type":"Landkreis"},"federalState":{"key":"14","name":"Sachsen"}},{"name":"Kleingartenstr.","postalCode":"01619","locality":"Zeithain","municipality":{"key":"14627360","name":"Zeithain","type":"Kreisangehörige_Gemeinde"},"district":{"key":"14627","name":"Meißen","type":"Landkreis"},"federalState":{"key":"14","name":"Sachsen"}},{"name":"Krußtweg","postalCode":"01619","locality":"Zeithain","municipality":{"key":"14627360","name":"Zeithain","type":"Kreisangehörige_Gemeinde"},"district":{"key":"14627","name":"Meißen","type":"Landkreis"},"federalState":{"key":"14","name":"Sachsen"}},{"name":"Lange Gasse","postalCode":"01619","locality":"Zeithain","municipality":{"key":"14627360","name":"Zeithain","type":"Kreisangehörige_Gemeinde"},"district":{"key":"14627","name":"Meißen","type":"Landkreis"},"federalState":{"key":"14","name":"Sachsen"}},{"name":"Langenberger Str.","postalCode":"01619","locality":"Zeithain","municipality":{"key":"14627360","name":"Zeithain","type":"Kreisangehörige_Gemeinde"},"district":{"key":"14627","name":"Meißen","type":"Landkreis"},"federalState":{"key":"14","name":"Sachsen"}},{"name":"Lange Str.","postalCode":"01619","locality":"Zeithain","municipality":{"key":"14627360","name":"Zeithain","type":"Kreisangehörige_Gemeinde"},"district":{"key":"14627","name":"Meißen","type":"Landkreis"},"federalState":{"key":"14","name":"Sachsen"}},{"name":"Lichtenseer Str.","postalCode":"01619","locality":"Zeithain","municipality":{"key":"14627360","name":"Zeithain","type":"Kreisangehörige_Gemeinde"},"district":{"key":"14627","name":"Meißen","type":"Landkreis"},"federalState":{"key":"14","name":"Sachsen"}},{"name":"Lindenallee","postalCode":"01619","locality":"Zeithain","municipality":{"key":"14627360","name":"Zeithain","type":"Kreisangehörige_Gemeinde"},"district":{"key":"14627","name":"Meißen","type":"Landkreis"},"federalState":{"key":"14","name":"Sachsen"}},{"name":"Lindenstr.","postalCode":"01619","locality":"Zeithain","municipality":{"key":"14627360","name":"Zeithain","type":"Kreisangehörige_Gemeinde"},"district":{"key":"14627","name":"Meißen","type":"Landkreis"},"federalState":{"key":"14","name":"Sachsen"}},{"name":"Moritzer Str.","postalCode":"01619","locality":"Zeithain","municipality":{"key":"14627360","name":"Zeithain","type":"Kreisangehörige_Gemeinde"},"district":{"key":"14627","name":"Meißen","type":"Landkreis"},"federalState":{"key":"14","name":"Sachsen"}},{"name":"Mühlberger Str.","postalCode":"01619","locality":"Zeithain","municipality":{"key":"14627360","name":"Zeithain","type":"Kreisangehörige_Gemeinde"},"district":{"key":"14627","name":"Meißen","type":"Landkreis"},"federalState":{"key":"14","name":"Sachsen"}},{"name":"Mühlweg","postalCode":"01619","locality":"Zeithain","municipality":{"key":"14627360","name":"Zeithain","type":"Kreisangehörige_Gemeinde"},"district":{"key":"14627","name":"Meißen","type":"Landkreis"},"federalState":{"key":"14","name":"Sachsen"}},{"name":"Neudorfer Str.","postalCode":"01619","locality":"Zeithain","municipality":{"key":"14627360","name":"Zeithain","type":"Kreisangehörige_Gemeinde"},"district":{"key":"14627","name":"Meißen","type":"Landkreis"},"federalState":{"key":"14","name":"Sachsen"}},{"name":"Neusiedlerstr.","postalCode":"01619","locality":"Zeithain","municipality":{"key":"14627360","name":"Zeithain","type":"Kreisangehörige_Gemeinde"},"district":{"key":"14627","name":"Meißen","type":"Landkreis"},"federalState":{"key":"14","name":"Sachsen"}},{"name":"Nikopoler Str.","postalCode":"01619","locality":"Zeithain","municipality":{"key":"14627360","name":"Zeithain","type":"Kreisangehörige_Gemeinde"},"district":{"key":"14627","name":"Meißen","type":"Landkreis"},"federalState":{"key":"14","name":"Sachsen"}},{"name":"Nordstr.","postalCode":"01619","locality":"Zeithain","municipality":{"key":"14627360","name":"Zeithain","type":"Kreisangehörige_Gemeinde"},"district":{"key":"14627","name":"Meißen","type":"Landkreis"},"federalState":{"key":"14","name":"Sachsen"}},{"name":"Oststr.","postalCode":"01619","locality":"Zeithain","municipality":{"key":"14627360","name":"Zeithain","type":"Kreisangehörige_Gemeinde"},"district":{"key":"14627","name":"Meißen","type":"Landkreis"},"federalState":{"key":"14","name":"Sachsen"}},{"name":"Parkstr.","postalCode":"01619","locality":"Zeithain","municipality":{"key":"14627360","name":"Zeithain","type":"Kreisangehörige_Gemeinde"},"district":{"key":"14627","name":"Meißen","type":"Landkreis"},"federalState":{"key":"14","name":"Sachsen"}},{"name":"Promnitzer Str.","postalCode":"01619","locality":"Zeithain","municipality":{"key":"14627360","name":"Zeithain","type":"Kreisangehörige_Gemeinde"},"district":{"key":"14627","name":"Meißen","type":"Landkreis"},"federalState":{"key":"14","name":"Sachsen"}},{"name":"Querstr.","postalCode":"01619","locality":"Zeithain","municipality":{"key":"14627360","name":"Zeithain","type":"Kreisangehörige_Gemeinde"},"district":{"key":"14627","name":"Meißen","type":"Landkreis"},"federalState":{"key":"14","name":"Sachsen"}},{"name":"Riesaer Str.","postalCode":"01612","locality":"Zeithain","municipality":{"key":"14627360","name":"Zeithain","type":"Kreisangehörige_Gemeinde"},"district":{"key":"14627","name":"Meißen","type":"Landkreis"},"federalState":{"key":"14","name":"Sachsen"}},{"name":"Riesaer Str.","postalCode":"01619","locality":"Zeithain","municipality":{"key":"14627360","name":"Zeithain","type":"Kreisangehörige_Gemeinde"},"district":{"key":"14627","name":"Meißen","type":"Landkreis"},"federalState":{"key":"14","name":"Sachsen"}},{"name":"Ring der Einheit","postalCode":"01619","locality":"Zeithain","municipality":{"key":"14627360","name":"Zeithain","type":"Kreisangehörige_Gemeinde"},"district":{"key":"14627","name":"Meißen","type":"Landkreis"},"federalState":{"key":"14","name":"Sachsen"}},{"name":"Ring der Freundschaft","postalCode":"01619","locality":"Zeithain","municipality":{"key":"14627360","name":"Zeithain","type":"Kreisangehörige_Gemeinde"},"district":{"key":"14627","name":"Meißen","type":"Landkreis"},"federalState":{"key":"14","name":"Sachsen"}},{"name":"Röderauer Str.","postalCode":"01619","locality":"Zeithain","municipality":{"key":"14627360","name":"Zeithain","type":"Kreisangehörige_Gemeinde"},"district":{"key":"14627","name":"Meißen","type":"Landkreis"},"federalState":{"key":"14","name":"Sachsen"}},{"name":"Rosenstr.","postalCode":"01619","locality":"Zeithain","municipality":{"key":"14627360","name":"Zeithain","type":"Kreisangehörige_Gemeinde"},"district":{"key":"14627","name":"Meißen","type":"Landkreis"},"federalState":{"key":"14","name":"Sachsen"}},{"name":"Sandbergstr.","postalCode":"01619","locality":"Zeithain","municipality":{"key":"14627360","name":"Zeithain","type":"Kreisangehörige_Gemeinde"},"district":{"key":"14627","name":"Meißen","type":"Landkreis"},"federalState":{"key":"14","name":"Sachsen"}},{"name":"Sandstr.","postalCode":"01619","locality":"Zeithain","municipality":{"key":"14627360","name":"Zeithain","type":"Kreisangehörige_Gemeinde"},"district":{"key":"14627","name":"Meißen","type":"Landkreis"},"federalState":{"key":"14","name":"Sachsen"}},{"name":"Schachtgasse","postalCode":"01619","locality":"Zeithain","municipality":{"key":"14627360","name":"Zeithain","type":"Kreisangehörige_Gemeinde"},"district":{"key":"14627","name":"Meißen","type":"Landkreis"},"federalState":{"key":"14","name":"Sachsen"}},{"name":"Schäferei","postalCode":"01619","locality":"Zeithain","municipality":{"key":"14627360","name":"Zeithain","type":"Kreisangehörige_Gemeinde"},"district":{"key":"14627","name":"Meißen","type":"Landkreis"},"federalState":{"key":"14","name":"Sachsen"}},{"name":"Schänweg","postalCode":"01619","locality":"Zeithain","municipality":{"key":"14627360","name":"Zeithain","type":"Kreisangehörige_Gemeinde"},"district":{"key":"14627","name":"Meißen","type":"Landkreis"},"federalState":{"key":"14","name":"Sachsen"}},{"name":"Schenkgasse","postalCode":"01619","locality":"Zeithain","municipality":{"key":"14627360","name":"Zeithain","type":"Kreisangehörige_Gemeinde"},"district":{"key":"14627","name":"Meißen","type":"Landkreis"},"federalState":{"key":"14","name":"Sachsen"}},{"name":"Schillerstr.","postalCode":"01619","locality":"Zeithain","municipality":{"key":"14627360","name":"Zeithain","type":"Kreisangehörige_Gemeinde"},"district":{"key":"14627","name":"Meißen","type":"Landkreis"},"federalState":{"key":"14","name":"Sachsen"}},{"name":"Schlößchendamm","postalCode":"01619","locality":"Zeithain","municipality":{"key":"14627360","name":"Zeithain","type":"Kreisangehörige_Gemeinde"},"district":{"key":"14627","name":"Meißen","type":"Landkreis"},"federalState":{"key":"14","name":"Sachsen"}},{"name":"Schmiedeberg","postalCode":"01619","locality":"Zeithain","municipality":{"key":"14627360","name":"Zeithain","type":"Kreisangehörige_Gemeinde"},"district":{"key":"14627","name":"Meißen","type":"Landkreis"},"federalState":{"key":"14","name":"Sachsen"}},{"name":"Schmiedegasse","postalCode":"01619","locality":"Zeithain","municipality":{"key":"14627360","name":"Zeithain","type":"Kreisangehörige_Gemeinde"},"district":{"key":"14627","name":"Meißen","type":"Landkreis"},"federalState":{"key":"14","name":"Sachsen"}},{"name":"Schulgasse","postalCode":"01619","locality":"Zeithain","municipality":{"key":"14627360","name":"Zeithain","type":"Kreisangehörige_Gemeinde"},"district":{"key":"14627","name":"Meißen","type":"Landkreis"},"federalState":{"key":"14","name":"Sachsen"}},{"name":"Schulstr.","postalCode":"01619","locality":"Zeithain","municipality":{"key":"14627360","name":"Zeithain","type":"Kreisangehörige_Gemeinde"},"district":{"key":"14627","name":"Meißen","type":"Landkreis"},"federalState":{"key":"14","name":"Sachsen"}},{"name":"Schulweg","postalCode":"01619","locality":"Zeithain","municipality":{"key":"14627360","name":"Zeithain","type":"Kreisangehörige_Gemeinde"},"district":{"key":"14627","name":"Meißen","type":"Landkreis"},"federalState":{"key":"14","name":"Sachsen"}},{"name":"Schwarzer Weg","postalCode":"01619","locality":"Zeithain","municipality":{"key":"14627360","name":"Zeithain","type":"Kreisangehörige_Gemeinde"},"district":{"key":"14627","name":"Meißen","type":"Landkreis"},"federalState":{"key":"14","name":"Sachsen"}},{"name":"Siedlerweg","postalCode":"01619","locality":"Zeithain","municipality":{"key":"14627360","name":"Zeithain","type":"Kreisangehörige_Gemeinde"},"district":{"key":"14627","name":"Meißen","type":"Landkreis"},"federalState":{"key":"14","name":"Sachsen"}},{"name":"Siedlungsweg","postalCode":"01619","locality":"Zeithain","municipality":{"key":"14627360","name":"Zeithain","type":"Kreisangehörige_Gemeinde"},"district":{"key":"14627","name":"Meißen","type":"Landkreis"},"federalState":{"key":"14","name":"Sachsen"}},{"name":"Steinweg","postalCode":"01619","locality":"Zeithain","municipality":{"key":"14627360","name":"Zeithain","type":"Kreisangehörige_Gemeinde"},"district":{"key":"14627","name":"Meißen","type":"Landkreis"},"federalState":{"key":"14","name":"Sachsen"}},{"name":"Sternplatz","postalCode":"01619","locality":"Zeithain","municipality":{"key":"14627360","name":"Zeithain","type":"Kreisangehörige_Gemeinde"},"district":{"key":"14627","name":"Meißen","type":"Landkreis"},"federalState":{"key":"14","name":"Sachsen"}},{"name":"Stille Gasse","postalCode":"01619","locality":"Zeithain","municipality":{"key":"14627360","name":"Zeithain","type":"Kreisangehörige_Gemeinde"},"district":{"key":"14627","name":"Meißen","type":"Landkreis"},"federalState":{"key":"14","name":"Sachsen"}},{"name":"Stiller Winkel","postalCode":"01619","locality":"Zeithain","municipality":{"key":"14627360","name":"Zeithain","type":"Kreisangehörige_Gemeinde"},"district":{"key":"14627","name":"Meißen","type":"Landkreis"},"federalState":{"key":"14","name":"Sachsen"}},{"name":"Str. der Freundschaft","postalCode":"01619","locality":"Zeithain","municipality":{"key":"14627360","name":"Zeithain","type":"Kreisangehörige_Gemeinde"},"district":{"key":"14627","name":"Meißen","type":"Landkreis"},"federalState":{"key":"14","name":"Sachsen"}},{"name":"Tannenstr.","postalCode":"01619","locality":"Zeithain","municipality":{"key":"14627360","name":"Zeithain","type":"Kreisangehörige_Gemeinde"},"district":{"key":"14627","name":"Meißen","type":"Landkreis"},"federalState":{"key":"14","name":"Sachsen"}},{"name":"Teichstr.","postalCode":"01619","locality":"Zeithain","municipality":{"key":"14627360","name":"Zeithain","type":"Kreisangehörige_Gemeinde"},"district":{"key":"14627","name":"Meißen","type":"Landkreis"},"federalState":{"key":"14","name":"Sachsen"}},{"name":"Teninger Str.","postalCode":"01619","locality":"Zeithain","municipality":{"key":"14627360","name":"Zeithain","type":"Kreisangehörige_Gemeinde"},"district":{"key":"14627","name":"Meißen","type":"Landkreis"},"federalState":{"key":"14","name":"Sachsen"}},{"name":"Uferstr.","postalCode":"01662","locality":"Meißen","municipality":{"key":"14627140","name":"Meißen, Stadt","type":"Stadt"},"district":{"key":"14627","name":"Meißen","type":"Landkreis"},"federalState":{"key":"14","name":"Sachsen"}},{"name":"Unverhofft Glück","postalCode":"01662","locality":"Meißen","municipality":{"key":"14627140","name":"Meißen, Stadt","type":"Stadt"},"district":{"key":"14627","name":"Meißen","type":"Landkreis"},"federalState":{"key":"14","name":"Sachsen"}},{"name":"Vorbrücker Str.","postalCode":"01662","locality":"Meißen","municipality":{"key":"14627140","name":"Meißen, Stadt","type":"Stadt"},"district":{"key":"14627","name":"Meißen","type":"Landkreis"},"federalState":{"key":"14","name":"Sachsen"}},{"name":"Waldschlößchenstr.","postalCode":"01619","locality":"Zeithain","municipality":{"key":"14627360","name":"Zeithain","type":"Kreisangehörige_Gemeinde"},"district":{"key":"14627","name":"Meißen","type":"Landkreis"},"federalState":{"key":"14","name":"Sachsen"}},{"name":"Waldstr.","postalCode":"01609","locality":"Zeithain","municipality":{"key":"14627360","name":"Zeithain","type":"Kreisangehörige_Gemeinde"},"district":{"key":"14627","name":"Meißen","type":"Landkreis"},"federalState":{"key":"14","name":"Sachsen"}},{"name":"Waldstr.","postalCode":"01619","locality":"Zeithain","municipality":{"key":"14627360","name":"Zeithain","type":"Kreisangehörige_Gemeinde"},"district":{"key":"14627","name":"Meißen","type":"Landkreis"},"federalState":{"key":"14","name":"Sachsen"}},{"name":"Wasserturmstr.","postalCode":"01619","locality":"Zeithain","municipality":{"key":"14627360","name":"Zeithain","type":"Kreisangehörige_Gemeinde"},"district":{"key":"14627","name":"Meißen","type":"Landkreis"},"federalState":{"key":"14","name":"Sachsen"}},{"name":"Wasserweg","postalCode":"01619","locality":"Zeithain","municipality":{"key":"14627360","name":"Zeithain","type":"Kreisangehörige_Gemeinde"},"district":{"key":"14627","name":"Meißen","type":"Landkreis"},"federalState":{"key":"14","name":"Sachsen"}},{"name":"Weinbergstr.","postalCode":"01619","locality":"Zeithain","municipality":{"key":"14627360","name":"Zeithain","type":"Kreisangehörige_Gemeinde"},"district":{"key":"14627","name":"Meißen","type":"Landkreis"},"federalState":{"key":"14","name":"Sachsen"}},{"name":"Wiesenstr.","postalCode":"01619","locality":"Zeithain","municipality":{"key":"14627360","name":"Zeithain","type":"Kreisangehörige_Gemeinde"},"district":{"key":"14627","name":"Meißen","type":"Landkreis"},"federalState":{"key":"14","name":"Sachsen"}},{"name":"Wiesenweg","postalCode":"01619","locality":"Zeithain","municipality":{"key":"14627360","name":"Zeithain","type":"Kreisangehörige_Gemeinde"},"district":{"key":"14627","name":"Meißen","type":"Landkreis"},"federalState":{"key":"14","name":"Sachsen"}},{"name":"Windmühlenberg","postalCode":"01619","locality":"Zeithain","municipality":{"key":"14627360","name":"Zeithain","type":"Kreisangehörige_Gemeinde"},"district":{"key":"14627","name":"Meißen","type":"Landkreis"},"federalState":{"key":"14","name":"Sachsen"}},{"name":"Zeithainer Str.","postalCode":"01619","locality":"Zeithain","municipality":{"key":"14627360","name":"Zeithain","type":"Kreisangehörige_Gemeinde"},"district":{"key":"14627","name":"Meißen","type":"Landkreis"},"federalState":{"key":"14","name":"Sachsen"}},{"name":"Ziegelei","postalCode":"01619","locality":"Zeithain","municipality":{"key":"14627360","name":"Zeithain","type":"Kreisangehörige_Gemeinde"},"district":{"key":"14627","name":"Meißen","type":"Landkreis"},"federalState":{"key":"14","name":"Sachsen"}},{"name":"Ziegelweg","postalCode":"01619","locality":"Zeithain","municipality":{"key":"14627360","name":"Zeithain","type":"Kreisangehörige_Gemeinde"},"district":{"key":"14627","name":"Meißen","type":"Landkreis"},"federalState":{"key":"14","name":"Sachsen"}},{"name":"Zum Elbblick","postalCode":"01619","locality":"Zeithain","municipality":{"key":"14627360","name":"Zeithain","type":"Kreisangehörige_Gemeinde"},"district":{"key":"14627","name":"Meißen","type":"Landkreis"},"federalState":{"key":"14","name":"Sachsen"}},{"name":"Zum Mörtelwerk","postalCode":"01619","locality":"Zeithain","municipality":{"key":"14627360","name":"Zeithain","type":"Kreisangehörige_Gemeinde"},"district":{"key":"14627","name":"Meißen","type":"Landkreis"},"federalState":{"key":"14","name":"Sachsen"}},{"name":"Zur Heide","postalCode":"01619","locality":"Zeithain","municipality":{"key":"14627360","name":"Zeithain","type":"Kreisangehörige_Gemeinde"},"district":{"key":"14627","name":"Meißen","type":"Landkreis"},"federalState":{"key":"14","name":"Sachsen"}},{"name":"Zur Kriegsgräberstätte","postalCode":"01619","locality":"Zeithain","municipality":{"key":"14627360","name":"Zeithain","type":"Kreisangehörige_Gemeinde"},"district":{"key":"14627","name":"Meißen","type":"Landkreis"},"federalState":{"key":"14","name":"Sachsen"}},{"name":"Älterstr.","postalCode":"77974","locality":"Meißenheim","municipality":{"key":"08317075","name":"Meißenheim","type":"Kreisangehörige_Gemeinde"},"district":{"key":"08317","name":"Ortenaukreis","type":"Landkreis"},"federalState":{"key":"08","name":"Baden-Württemberg"}},]