[{"name":"Aaseewinkel","postalCode":"49477","locality":"Ibbenbüren","municipality":{"key":"05566028","name":"Ibbenbüren, Stadt","type":"Stadt"},"district":{"key":"05566","name":"Steinfurt","type":"Kreis"},"federalState":{"key":"05","name":"Nordrhein-Westfalen"}},{"name":"Ackerstr.","postalCode":"49477","locality":"Ibbenbüren","municipality":{"key":"05566028","name":"Ibbenbüren, Stadt","type":"Stadt"},"district":{"key":"05566","name":"Steinfurt","type":"Kreis"},"federalState":{"key":"05","name":"Nordrhein-Westfalen"}},{"name":"Ahornstr.","postalCode":"49477","locality":"Ibbenbüren","municipality":{"key":"05566028","name":"Ibbenbüren, Stadt","type":"Stadt"},"district":{"key":"05566","name":"Steinfurt","type":"Kreis"},"federalState":{"key":"05","name":"Nordrhein-Westfalen"}},{"name":"Akazienweg","postalCode":"49477","locality":"Ibbenbüren","municipality":{"key":"05566028","name":"Ibbenbüren, Stadt","type":"Stadt"},"district":{"key":"05566","name":"Steinfurt","type":"Kreis"},"federalState":{"key":"05","name":"Nordrhein-Westfalen"}},{"name":"Alberichweg","postalCode":"49479","locality":"Ibbenbüren","municipality":{"key":"05566028","name":"Ibbenbüren, Stadt","type":"Stadt"},"district":{"key":"05566","name":"Steinfurt","type":"Kreis"},"federalState":{"key":"05","name":"Nordrhein-Westfalen"}},{"name":"Alexanderweg","postalCode":"49477","locality":"Ibbenbüren","municipality":{"key":"05566028","name":"Ibbenbüren, Stadt","type":"Stadt"},"district":{"key":"05566","name":"Steinfurt","type":"Kreis"},"federalState":{"key":"05","name":"Nordrhein-Westfalen"}},{"name":"Alpenstr.","postalCode":"49479","locality":"Ibbenbüren","municipality":{"key":"05566028","name":"Ibbenbüren, Stadt","type":"Stadt"},"district":{"key":"05566","name":"Steinfurt","type":"Kreis"},"federalState":{"key":"05","name":"Nordrhein-Westfalen"}},{"name":"Alstedder Esch","postalCode":"49479","locality":"Ibbenbüren","municipality":{"key":"05566028","name":"Ibbenbüren, Stadt","type":"Stadt"},"district":{"key":"05566","name":"Steinfurt","type":"Kreis"},"federalState":{"key":"05","name":"Nordrhein-Westfalen"}},{"name":"Alstedder Grenze","postalCode":"49477","locality":"Ibbenbüren","municipality":{"key":"05566028","name":"Ibbenbüren, Stadt","type":"Stadt"},"district":{"key":"05566","name":"Steinfurt","type":"Kreis"},"federalState":{"key":"05","name":"Nordrhein-Westfalen"}},{"name":"Alstedder Str.","postalCode":"49479","locality":"Ibbenbüren","municipality":{"key":"05566028","name":"Ibbenbüren, Stadt","type":"Stadt"},"district":{"key":"05566","name":"Steinfurt","type":"Kreis"},"federalState":{"key":"05","name":"Nordrhein-Westfalen"}},{"name":"Alte Bleiche","postalCode":"49477","locality":"Ibbenbüren","municipality":{"key":"05566028","name":"Ibbenbüren, Stadt","type":"Stadt"},"district":{"key":"05566","name":"Steinfurt","type":"Kreis"},"federalState":{"key":"05","name":"Nordrhein-Westfalen"}},{"name":"Alte Bockradener Str.","postalCode":"49477","locality":"Ibbenbüren","municipality":{"key":"05566028","name":"Ibbenbüren, Stadt","type":"Stadt"},"district":{"key":"05566","name":"Steinfurt","type":"Kreis"},"federalState":{"key":"05","name":"Nordrhein-Westfalen"}},{"name":"Alte Bockradener Str.","postalCode":"49479","locality":"Ibbenbüren","municipality":{"key":"05566028","name":"Ibbenbüren, Stadt","type":"Stadt"},"district":{"key":"05566","name":"Steinfurt","type":"Kreis"},"federalState":{"key":"05","name":"Nordrhein-Westfalen"}},{"name":"Alte Münsterstr.","postalCode":"49477","locality":"Ibbenbüren","municipality":{"key":"05566028","name":"Ibbenbüren, Stadt","type":"Stadt"},"district":{"key":"05566","name":"Steinfurt","type":"Kreis"},"federalState":{"key":"05","name":"Nordrhein-Westfalen"}},{"name":"Alte Nordstr.","postalCode":"49477","locality":"Ibbenbüren","municipality":{"key":"05566028","name":"Ibbenbüren, Stadt","type":"Stadt"},"district":{"key":"05566","name":"Steinfurt","type":"Kreis"},"federalState":{"key":"05","name":"Nordrhein-Westfalen"}},{"name":"Alter Bergkamp","postalCode":"49477","locality":"Ibbenbüren","municipality":{"key":"05566028","name":"Ibbenbüren, Stadt","type":"Stadt"},"district":{"key":"05566","name":"Steinfurt","type":"Kreis"},"federalState":{"key":"05","name":"Nordrhein-Westfalen"}},{"name":"Alter Hünhügel","postalCode":"49479","locality":"Ibbenbüren","municipality":{"key":"05566028","name":"Ibbenbüren, Stadt","type":"Stadt"},"district":{"key":"05566","name":"Steinfurt","type":"Kreis"},"federalState":{"key":"05","name":"Nordrhein-Westfalen"}},{"name":"Alter Merschweg","postalCode":"49477","locality":"Ibbenbüren","municipality":{"key":"05566028","name":"Ibbenbüren, Stadt","type":"Stadt"},"district":{"key":"05566","name":"Steinfurt","type":"Kreis"},"federalState":{"key":"05","name":"Nordrhein-Westfalen"}},{"name":"Alter Postdamm","postalCode":"49479","locality":"Ibbenbüren","municipality":{"key":"05566028","name":"Ibbenbüren, Stadt","type":"Stadt"},"district":{"key":"05566","name":"Steinfurt","type":"Kreis"},"federalState":{"key":"05","name":"Nordrhein-Westfalen"}},{"name":"Am Alten Posthof","postalCode":"49477","locality":"Ibbenbüren","municipality":{"key":"05566028","name":"Ibbenbüren, Stadt","type":"Stadt"},"district":{"key":"05566","name":"Steinfurt","type":"Kreis"},"federalState":{"key":"05","name":"Nordrhein-Westfalen"}},{"name":"Am Bergteich","postalCode":"49477","locality":"Ibbenbüren","municipality":{"key":"05566028","name":"Ibbenbüren, Stadt","type":"Stadt"},"district":{"key":"05566","name":"Steinfurt","type":"Kreis"},"federalState":{"key":"05","name":"Nordrhein-Westfalen"}},{"name":"Am Beustschacht","postalCode":"49477","locality":"Ibbenbüren","municipality":{"key":"05566028","name":"Ibbenbüren, Stadt","type":"Stadt"},"district":{"key":"05566","name":"Steinfurt","type":"Kreis"},"federalState":{"key":"05","name":"Nordrhein-Westfalen"}},{"name":"Am Birkenwäldchen","postalCode":"49477","locality":"Ibbenbüren","municipality":{"key":"05566028","name":"Ibbenbüren, Stadt","type":"Stadt"},"district":{"key":"05566","name":"Steinfurt","type":"Kreis"},"federalState":{"key":"05","name":"Nordrhein-Westfalen"}},{"name":"Am Fischteich","postalCode":"49477","locality":"Ibbenbüren","municipality":{"key":"05566028","name":"Ibbenbüren, Stadt","type":"Stadt"},"district":{"key":"05566","name":"Steinfurt","type":"Kreis"},"federalState":{"key":"05","name":"Nordrhein-Westfalen"}},{"name":"Am Flüddert","postalCode":"49479","locality":"Ibbenbüren","municipality":{"key":"05566028","name":"Ibbenbüren, Stadt","type":"Stadt"},"district":{"key":"05566","name":"Steinfurt","type":"Kreis"},"federalState":{"key":"05","name":"Nordrhein-Westfalen"}},{"name":"Am Forsthaus","postalCode":"49477","locality":"Ibbenbüren","municipality":{"key":"05566028","name":"Ibbenbüren, Stadt","type":"Stadt"},"district":{"key":"05566","name":"Steinfurt","type":"Kreis"},"federalState":{"key":"05","name":"Nordrhein-Westfalen"}},{"name":"Am Friedhof","postalCode":"49477","locality":"Ibbenbüren","municipality":{"key":"05566028","name":"Ibbenbüren, Stadt","type":"Stadt"},"district":{"key":"05566","name":"Steinfurt","type":"Kreis"},"federalState":{"key":"05","name":"Nordrhein-Westfalen"}},{"name":"Am Hagenpad","postalCode":"49479","locality":"Ibbenbüren","municipality":{"key":"05566028","name":"Ibbenbüren, Stadt","type":"Stadt"},"district":{"key":"05566","name":"Steinfurt","type":"Kreis"},"federalState":{"key":"05","name":"Nordrhein-Westfalen"}},{"name":"Am Hedwigsheim","postalCode":"49479","locality":"Ibbenbüren","municipality":{"key":"05566028","name":"Ibbenbüren, Stadt","type":"Stadt"},"district":{"key":"05566","name":"Steinfurt","type":"Kreis"},"federalState":{"key":"05","name":"Nordrhein-Westfalen"}},{"name":"Am Heidenturm","postalCode":"49477","locality":"Ibbenbüren","municipality":{"key":"05566028","name":"Ibbenbüren, Stadt","type":"Stadt"},"district":{"key":"05566","name":"Steinfurt","type":"Kreis"},"federalState":{"key":"05","name":"Nordrhein-Westfalen"}},{"name":"Am Karlschacht","postalCode":"49477","locality":"Ibbenbüren","municipality":{"key":"05566028","name":"Ibbenbüren, Stadt","type":"Stadt"},"district":{"key":"05566","name":"Steinfurt","type":"Kreis"},"federalState":{"key":"05","name":"Nordrhein-Westfalen"}},{"name":"Am Klee","postalCode":"49479","locality":"Ibbenbüren","municipality":{"key":"05566028","name":"Ibbenbüren, Stadt","type":"Stadt"},"district":{"key":"05566","name":"Steinfurt","type":"Kreis"},"federalState":{"key":"05","name":"Nordrhein-Westfalen"}},{"name":"Am Klostergarten","postalCode":"49477","locality":"Ibbenbüren","municipality":{"key":"05566028","name":"Ibbenbüren, Stadt","type":"Stadt"},"district":{"key":"05566","name":"Steinfurt","type":"Kreis"},"federalState":{"key":"05","name":"Nordrhein-Westfalen"}},{"name":"Am Lehrsteinbruch","postalCode":"49479","locality":"Ibbenbüren","municipality":{"key":"05566028","name":"Ibbenbüren, Stadt","type":"Stadt"},"district":{"key":"05566","name":"Steinfurt","type":"Kreis"},"federalState":{"key":"05","name":"Nordrhein-Westfalen"}},{"name":"Am Luftschacht","postalCode":"49477","locality":"Ibbenbüren","municipality":{"key":"05566028","name":"Ibbenbüren, Stadt","type":"Stadt"},"district":{"key":"05566","name":"Steinfurt","type":"Kreis"},"federalState":{"key":"05","name":"Nordrhein-Westfalen"}},{"name":"Am Mariannenschacht","postalCode":"49479","locality":"Ibbenbüren","municipality":{"key":"05566028","name":"Ibbenbüren, Stadt","type":"Stadt"},"district":{"key":"05566","name":"Steinfurt","type":"Kreis"},"federalState":{"key":"05","name":"Nordrhein-Westfalen"}},{"name":"Am Mühlenbach","postalCode":"49479","locality":"Ibbenbüren","municipality":{"key":"05566028","name":"Ibbenbüren, Stadt","type":"Stadt"},"district":{"key":"05566","name":"Steinfurt","type":"Kreis"},"federalState":{"key":"05","name":"Nordrhein-Westfalen"}},{"name":"Am Postamt","postalCode":"49479","locality":"Ibbenbüren","municipality":{"key":"05566028","name":"Ibbenbüren, Stadt","type":"Stadt"},"district":{"key":"05566","name":"Steinfurt","type":"Kreis"},"federalState":{"key":"05","name":"Nordrhein-Westfalen"}},{"name":"Am Ring","postalCode":"49479","locality":"Ibbenbüren","municipality":{"key":"05566028","name":"Ibbenbüren, Stadt","type":"Stadt"},"district":{"key":"05566","name":"Steinfurt","type":"Kreis"},"federalState":{"key":"05","name":"Nordrhein-Westfalen"}},{"name":"Am Sonnenhang","postalCode":"49477","locality":"Ibbenbüren","municipality":{"key":"05566028","name":"Ibbenbüren, Stadt","type":"Stadt"},"district":{"key":"05566","name":"Steinfurt","type":"Kreis"},"federalState":{"key":"05","name":"Nordrhein-Westfalen"}},{"name":"Am Sonnenhügel","postalCode":"49477","locality":"Ibbenbüren","municipality":{"key":"05566028","name":"Ibbenbüren, Stadt","type":"Stadt"},"district":{"key":"05566","name":"Steinfurt","type":"Kreis"},"federalState":{"key":"05","name":"Nordrhein-Westfalen"}},{"name":"Am Sportzentrum","postalCode":"49479","locality":"Ibbenbüren","municipality":{"key":"05566028","name":"Ibbenbüren, Stadt","type":"Stadt"},"district":{"key":"05566","name":"Steinfurt","type":"Kreis"},"federalState":{"key":"05","name":"Nordrhein-Westfalen"}},{"name":"Am Tennisplatz","postalCode":"49477","locality":"Ibbenbüren","municipality":{"key":"05566028","name":"Ibbenbüren, Stadt","type":"Stadt"},"district":{"key":"05566","name":"Steinfurt","type":"Kreis"},"federalState":{"key":"05","name":"Nordrhein-Westfalen"}},{"name":"Am Wasserwerk","postalCode":"49479","locality":"Ibbenbüren","municipality":{"key":"05566028","name":"Ibbenbüren, Stadt","type":"Stadt"},"district":{"key":"05566","name":"Steinfurt","type":"Kreis"},"federalState":{"key":"05","name":"Nordrhein-Westfalen"}},{"name":"Am Weinberg","postalCode":"49477","locality":"Ibbenbüren","municipality":{"key":"05566028","name":"Ibbenbüren, Stadt","type":"Stadt"},"district":{"key":"05566","name":"Steinfurt","type":"Kreis"},"federalState":{"key":"05","name":"Nordrhein-Westfalen"}},{"name":"Am Wiesenteich","postalCode":"49479","locality":"Ibbenbüren","municipality":{"key":"05566028","name":"Ibbenbüren, Stadt","type":"Stadt"},"district":{"key":"05566","name":"Steinfurt","type":"Kreis"},"federalState":{"key":"05","name":"Nordrhein-Westfalen"}},{"name":"Am Wilhelmschacht","postalCode":"49479","locality":"Ibbenbüren","municipality":{"key":"05566028","name":"Ibbenbüren, Stadt","type":"Stadt"},"district":{"key":"05566","name":"Steinfurt","type":"Kreis"},"federalState":{"key":"05","name":"Nordrhein-Westfalen"}},{"name":"Am Winterhügel","postalCode":"49477","locality":"Ibbenbüren","municipality":{"key":"05566028","name":"Ibbenbüren, Stadt","type":"Stadt"},"district":{"key":"05566","name":"Steinfurt","type":"Kreis"},"federalState":{"key":"05","name":"Nordrhein-Westfalen"}},{"name":"Am Wittenbrink","postalCode":"49479","locality":"Ibbenbüren","municipality":{"key":"05566028","name":"Ibbenbüren, Stadt","type":"Stadt"},"district":{"key":"05566","name":"Steinfurt","type":"Kreis"},"federalState":{"key":"05","name":"Nordrhein-Westfalen"}},{"name":"An den Klärteichen","postalCode":"49479","locality":"Ibbenbüren","municipality":{"key":"05566028","name":"Ibbenbüren, Stadt","type":"Stadt"},"district":{"key":"05566","name":"Steinfurt","type":"Kreis"},"federalState":{"key":"05","name":"Nordrhein-Westfalen"}},{"name":"Bachstelzenweg","postalCode":"49479","locality":"Ibbenbüren","municipality":{"key":"05566028","name":"Ibbenbüren, Stadt","type":"Stadt"},"district":{"key":"05566","name":"Steinfurt","type":"Kreis"},"federalState":{"key":"05","name":"Nordrhein-Westfalen"}},{"name":"Bachstr.","postalCode":"49477","locality":"Ibbenbüren","municipality":{"key":"05566028","name":"Ibbenbüren, Stadt","type":"Stadt"},"district":{"key":"05566","name":"Steinfurt","type":"Kreis"},"federalState":{"key":"05","name":"Nordrhein-Westfalen"}},{"name":"Bahnhofstr.","postalCode":"49477","locality":"Ibbenbüren","municipality":{"key":"05566028","name":"Ibbenbüren, Stadt","type":"Stadt"},"district":{"key":"05566","name":"Steinfurt","type":"Kreis"},"federalState":{"key":"05","name":"Nordrhein-Westfalen"}},{"name":"Barbarastr.","postalCode":"49477","locality":"Ibbenbüren","municipality":{"key":"05566028","name":"Ibbenbüren, Stadt","type":"Stadt"},"district":{"key":"05566","name":"Steinfurt","type":"Kreis"},"federalState":{"key":"05","name":"Nordrhein-Westfalen"}},{"name":"Barhornweg","postalCode":"49479","locality":"Ibbenbüren","municipality":{"key":"05566028","name":"Ibbenbüren, Stadt","type":"Stadt"},"district":{"key":"05566","name":"Steinfurt","type":"Kreis"},"federalState":{"key":"05","name":"Nordrhein-Westfalen"}},{"name":"Bärlauchweg","postalCode":"49479","locality":"Ibbenbüren","municipality":{"key":"05566028","name":"Ibbenbüren, Stadt","type":"Stadt"},"district":{"key":"05566","name":"Steinfurt","type":"Kreis"},"federalState":{"key":"05","name":"Nordrhein-Westfalen"}},{"name":"Bäumerstr.","postalCode":"49477","locality":"Ibbenbüren","municipality":{"key":"05566028","name":"Ibbenbüren, Stadt","type":"Stadt"},"district":{"key":"05566","name":"Steinfurt","type":"Kreis"},"federalState":{"key":"05","name":"Nordrhein-Westfalen"}},{"name":"Bechsteinstr.","postalCode":"49479","locality":"Ibbenbüren","municipality":{"key":"05566028","name":"Ibbenbüren, Stadt","type":"Stadt"},"district":{"key":"05566","name":"Steinfurt","type":"Kreis"},"federalState":{"key":"05","name":"Nordrhein-Westfalen"}},{"name":"Beethovenstr.","postalCode":"49477","locality":"Ibbenbüren","municipality":{"key":"05566028","name":"Ibbenbüren, Stadt","type":"Stadt"},"district":{"key":"05566","name":"Steinfurt","type":"Kreis"},"federalState":{"key":"05","name":"Nordrhein-Westfalen"}},{"name":"Bekassinenweg","postalCode":"49477","locality":"Ibbenbüren","municipality":{"key":"05566028","name":"Ibbenbüren, Stadt","type":"Stadt"},"district":{"key":"05566","name":"Steinfurt","type":"Kreis"},"federalState":{"key":"05","name":"Nordrhein-Westfalen"}},{"name":"Bentingstr.","postalCode":"49477","locality":"Ibbenbüren","municipality":{"key":"05566028","name":"Ibbenbüren, Stadt","type":"Stadt"},"district":{"key":"05566","name":"Steinfurt","type":"Kreis"},"federalState":{"key":"05","name":"Nordrhein-Westfalen"}},{"name":"Bergesanfang","postalCode":"49477","locality":"Ibbenbüren","municipality":{"key":"05566028","name":"Ibbenbüren, Stadt","type":"Stadt"},"district":{"key":"05566","name":"Steinfurt","type":"Kreis"},"federalState":{"key":"05","name":"Nordrhein-Westfalen"}},{"name":"Bergeshöhe","postalCode":"49477","locality":"Ibbenbüren","municipality":{"key":"05566028","name":"Ibbenbüren, Stadt","type":"Stadt"},"district":{"key":"05566","name":"Steinfurt","type":"Kreis"},"federalState":{"key":"05","name":"Nordrhein-Westfalen"}},{"name":"Bergkamp","postalCode":"49477","locality":"Ibbenbüren","municipality":{"key":"05566028","name":"Ibbenbüren, Stadt","type":"Stadt"},"district":{"key":"05566","name":"Steinfurt","type":"Kreis"},"federalState":{"key":"05","name":"Nordrhein-Westfalen"}},{"name":"Bergmeyerspad","postalCode":"49479","locality":"Ibbenbüren","municipality":{"key":"05566028","name":"Ibbenbüren, Stadt","type":"Stadt"},"district":{"key":"05566","name":"Steinfurt","type":"Kreis"},"federalState":{"key":"05","name":"Nordrhein-Westfalen"}},{"name":"Bergmeyersweg","postalCode":"49479","locality":"Ibbenbüren","municipality":{"key":"05566028","name":"Ibbenbüren, Stadt","type":"Stadt"},"district":{"key":"05566","name":"Steinfurt","type":"Kreis"},"federalState":{"key":"05","name":"Nordrhein-Westfalen"}},{"name":"Bergsiedlung","postalCode":"49479","locality":"Ibbenbüren","municipality":{"key":"05566028","name":"Ibbenbüren, Stadt","type":"Stadt"},"district":{"key":"05566","name":"Steinfurt","type":"Kreis"},"federalState":{"key":"05","name":"Nordrhein-Westfalen"}},{"name":"Bergstr.","postalCode":"49477","locality":"Ibbenbüren","municipality":{"key":"05566028","name":"Ibbenbüren, Stadt","type":"Stadt"},"district":{"key":"05566","name":"Steinfurt","type":"Kreis"},"federalState":{"key":"05","name":"Nordrhein-Westfalen"}},{"name":"Bergstr.","postalCode":"49479","locality":"Ibbenbüren","municipality":{"key":"05566028","name":"Ibbenbüren, Stadt","type":"Stadt"},"district":{"key":"05566","name":"Steinfurt","type":"Kreis"},"federalState":{"key":"05","name":"Nordrhein-Westfalen"}},{"name":"Bergstrang","postalCode":"49477","locality":"Ibbenbüren","municipality":{"key":"05566028","name":"Ibbenbüren, Stadt","type":"Stadt"},"district":{"key":"05566","name":"Steinfurt","type":"Kreis"},"federalState":{"key":"05","name":"Nordrhein-Westfalen"}},{"name":"Bergstrang","postalCode":"49479","locality":"Ibbenbüren","municipality":{"key":"05566028","name":"Ibbenbüren, Stadt","type":"Stadt"},"district":{"key":"05566","name":"Steinfurt","type":"Kreis"},"federalState":{"key":"05","name":"Nordrhein-Westfalen"}},{"name":"Berkenburg","postalCode":"49477","locality":"Ibbenbüren","municipality":{"key":"05566028","name":"Ibbenbüren, Stadt","type":"Stadt"},"district":{"key":"05566","name":"Steinfurt","type":"Kreis"},"federalState":{"key":"05","name":"Nordrhein-Westfalen"}},{"name":"Berliner Str.","postalCode":"49479","locality":"Ibbenbüren","municipality":{"key":"05566028","name":"Ibbenbüren, Stadt","type":"Stadt"},"district":{"key":"05566","name":"Steinfurt","type":"Kreis"},"federalState":{"key":"05","name":"Nordrhein-Westfalen"}},{"name":"Bernburger Str.","postalCode":"49479","locality":"Ibbenbüren","municipality":{"key":"05566028","name":"Ibbenbüren, Stadt","type":"Stadt"},"district":{"key":"05566","name":"Steinfurt","type":"Kreis"},"federalState":{"key":"05","name":"Nordrhein-Westfalen"}},{"name":"Bertastr.","postalCode":"49479","locality":"Ibbenbüren","municipality":{"key":"05566028","name":"Ibbenbüren, Stadt","type":"Stadt"},"district":{"key":"05566","name":"Steinfurt","type":"Kreis"},"federalState":{"key":"05","name":"Nordrhein-Westfalen"}},{"name":"Birkenallee","postalCode":"49479","locality":"Ibbenbüren","municipality":{"key":"05566028","name":"Ibbenbüren, Stadt","type":"Stadt"},"district":{"key":"05566","name":"Steinfurt","type":"Kreis"},"federalState":{"key":"05","name":"Nordrhein-Westfalen"}},{"name":"Birkenweg","postalCode":"49477","locality":"Ibbenbüren","municipality":{"key":"05566028","name":"Ibbenbüren, Stadt","type":"Stadt"},"district":{"key":"05566","name":"Steinfurt","type":"Kreis"},"federalState":{"key":"05","name":"Nordrhein-Westfalen"}},{"name":"Bocketaler Str.","postalCode":"49479","locality":"Ibbenbüren","municipality":{"key":"05566028","name":"Ibbenbüren, Stadt","type":"Stadt"},"district":{"key":"05566","name":"Steinfurt","type":"Kreis"},"federalState":{"key":"05","name":"Nordrhein-Westfalen"}},{"name":"Bockradener Str.","postalCode":"49477","locality":"Ibbenbüren","municipality":{"key":"05566028","name":"Ibbenbüren, Stadt","type":"Stadt"},"district":{"key":"05566","name":"Steinfurt","type":"Kreis"},"federalState":{"key":"05","name":"Nordrhein-Westfalen"}},{"name":"Bogenstr.","postalCode":"49477","locality":"Ibbenbüren","municipality":{"key":"05566028","name":"Ibbenbüren, Stadt","type":"Stadt"},"district":{"key":"05566","name":"Steinfurt","type":"Kreis"},"federalState":{"key":"05","name":"Nordrhein-Westfalen"}},{"name":"Bonhoefferstr.","postalCode":"49477","locality":"Ibbenbüren","municipality":{"key":"05566028","name":"Ibbenbüren, Stadt","type":"Stadt"},"district":{"key":"05566","name":"Steinfurt","type":"Kreis"},"federalState":{"key":"05","name":"Nordrhein-Westfalen"}},{"name":"Brahmsstr.","postalCode":"49477","locality":"Ibbenbüren","municipality":{"key":"05566028","name":"Ibbenbüren, Stadt","type":"Stadt"},"district":{"key":"05566","name":"Steinfurt","type":"Kreis"},"federalState":{"key":"05","name":"Nordrhein-Westfalen"}},{"name":"Bramliet","postalCode":"49479","locality":"Ibbenbüren","municipality":{"key":"05566028","name":"Ibbenbüren, Stadt","type":"Stadt"},"district":{"key":"05566","name":"Steinfurt","type":"Kreis"},"federalState":{"key":"05","name":"Nordrhein-Westfalen"}},{"name":"Brandenburger Str.","postalCode":"49479","locality":"Ibbenbüren","municipality":{"key":"05566028","name":"Ibbenbüren, Stadt","type":"Stadt"},"district":{"key":"05566","name":"Steinfurt","type":"Kreis"},"federalState":{"key":"05","name":"Nordrhein-Westfalen"}},{"name":"Breedenweg","postalCode":"49479","locality":"Ibbenbüren","municipality":{"key":"05566028","name":"Ibbenbüren, Stadt","type":"Stadt"},"district":{"key":"05566","name":"Steinfurt","type":"Kreis"},"federalState":{"key":"05","name":"Nordrhein-Westfalen"}},{"name":"Breite Str.","postalCode":"49477","locality":"Ibbenbüren","municipality":{"key":"05566028","name":"Ibbenbüren, Stadt","type":"Stadt"},"district":{"key":"05566","name":"Steinfurt","type":"Kreis"},"federalState":{"key":"05","name":"Nordrhein-Westfalen"}},{"name":"Breslauer Str.","postalCode":"49477","locality":"Ibbenbüren","municipality":{"key":"05566028","name":"Ibbenbüren, Stadt","type":"Stadt"},"district":{"key":"05566","name":"Steinfurt","type":"Kreis"},"federalState":{"key":"05","name":"Nordrhein-Westfalen"}},{"name":"Brinkmannweg","postalCode":"49479","locality":"Ibbenbüren","municipality":{"key":"05566028","name":"Ibbenbüren, Stadt","type":"Stadt"},"district":{"key":"05566","name":"Steinfurt","type":"Kreis"},"federalState":{"key":"05","name":"Nordrhein-Westfalen"}},{"name":"Brochterbecker Str.","postalCode":"49479","locality":"Ibbenbüren","municipality":{"key":"05566028","name":"Ibbenbüren, Stadt","type":"Stadt"},"district":{"key":"05566","name":"Steinfurt","type":"Kreis"},"federalState":{"key":"05","name":"Nordrhein-Westfalen"}},{"name":"Brockwiesenstr.","postalCode":"49477","locality":"Ibbenbüren","municipality":{"key":"05566028","name":"Ibbenbüren, Stadt","type":"Stadt"},"district":{"key":"05566","name":"Steinfurt","type":"Kreis"},"federalState":{"key":"05","name":"Nordrhein-Westfalen"}},{"name":"Broelmannweg","postalCode":"49479","locality":"Ibbenbüren","municipality":{"key":"05566028","name":"Ibbenbüren, Stadt","type":"Stadt"},"district":{"key":"05566","name":"Steinfurt","type":"Kreis"},"federalState":{"key":"05","name":"Nordrhein-Westfalen"}},{"name":"Brombeerweg","postalCode":"49479","locality":"Ibbenbüren","municipality":{"key":"05566028","name":"Ibbenbüren, Stadt","type":"Stadt"},"district":{"key":"05566","name":"Steinfurt","type":"Kreis"},"federalState":{"key":"05","name":"Nordrhein-Westfalen"}},{"name":"Browerskamp","postalCode":"49477","locality":"Ibbenbüren","municipality":{"key":"05566028","name":"Ibbenbüren, Stadt","type":"Stadt"},"district":{"key":"05566","name":"Steinfurt","type":"Kreis"},"federalState":{"key":"05","name":"Nordrhein-Westfalen"}},{"name":"Brucknerstr.","postalCode":"49477","locality":"Ibbenbüren","municipality":{"key":"05566028","name":"Ibbenbüren, Stadt","type":"Stadt"},"district":{"key":"05566","name":"Steinfurt","type":"Kreis"},"federalState":{"key":"05","name":"Nordrhein-Westfalen"}},{"name":"Brüder-Grimm-Str.","postalCode":"49479","locality":"Ibbenbüren","municipality":{"key":"05566028","name":"Ibbenbüren, Stadt","type":"Stadt"},"district":{"key":"05566","name":"Steinfurt","type":"Kreis"},"federalState":{"key":"05","name":"Nordrhein-Westfalen"}},{"name":"Brunhildstr.","postalCode":"49479","locality":"Ibbenbüren","municipality":{"key":"05566028","name":"Ibbenbüren, Stadt","type":"Stadt"},"district":{"key":"05566","name":"Steinfurt","type":"Kreis"},"federalState":{"key":"05","name":"Nordrhein-Westfalen"}},{"name":"Brunnenstr.","postalCode":"49477","locality":"Ibbenbüren","municipality":{"key":"05566028","name":"Ibbenbüren, Stadt","type":"Stadt"},"district":{"key":"05566","name":"Steinfurt","type":"Kreis"},"federalState":{"key":"05","name":"Nordrhein-Westfalen"}},{"name":"Brunnenweg","postalCode":"49479","locality":"Ibbenbüren","municipality":{"key":"05566028","name":"Ibbenbüren, Stadt","type":"Stadt"},"district":{"key":"05566","name":"Steinfurt","type":"Kreis"},"federalState":{"key":"05","name":"Nordrhein-Westfalen"}},{"name":"Buchholzer Damm","postalCode":"49479","locality":"Ibbenbüren","municipality":{"key":"05566028","name":"Ibbenbüren, Stadt","type":"Stadt"},"district":{"key":"05566","name":"Steinfurt","type":"Kreis"},"federalState":{"key":"05","name":"Nordrhein-Westfalen"}},{"name":"Buchholzstr.","postalCode":"49479","locality":"Ibbenbüren","municipality":{"key":"05566028","name":"Ibbenbüren, Stadt","type":"Stadt"},"district":{"key":"05566","name":"Steinfurt","type":"Kreis"},"federalState":{"key":"05","name":"Nordrhein-Westfalen"}},{"name":"Cäcilienstr.","postalCode":"49479","locality":"Ibbenbüren","municipality":{"key":"05566028","name":"Ibbenbüren, Stadt","type":"Stadt"},"district":{"key":"05566","name":"Steinfurt","type":"Kreis"},"federalState":{"key":"05","name":"Nordrhein-Westfalen"}},{"name":"Carl-Keller-Str.","postalCode":"49479","locality":"Ibbenbüren","municipality":{"key":"05566028","name":"Ibbenbüren, Stadt","type":"Stadt"},"district":{"key":"05566","name":"Steinfurt","type":"Kreis"},"federalState":{"key":"05","name":"Nordrhein-Westfalen"}},{"name":"Clara-Schumann-Str.","postalCode":"49479","locality":"Ibbenbüren","municipality":{"key":"05566028","name":"Ibbenbüren, Stadt","type":"Stadt"},"district":{"key":"05566","name":"Steinfurt","type":"Kreis"},"federalState":{"key":"05","name":"Nordrhein-Westfalen"}},{"name":"Cranachstr.","postalCode":"49477","locality":"Ibbenbüren","municipality":{"key":"05566028","name":"Ibbenbüren, Stadt","type":"Stadt"},"district":{"key":"05566","name":"Steinfurt","type":"Kreis"},"federalState":{"key":"05","name":"Nordrhein-Westfalen"}},{"name":"Crossener Str.","postalCode":"49479","locality":"Ibbenbüren","municipality":{"key":"05566028","name":"Ibbenbüren, Stadt","type":"Stadt"},"district":{"key":"05566","name":"Steinfurt","type":"Kreis"},"federalState":{"key":"05","name":"Nordrhein-Westfalen"}},{"name":"Daßmannweg","postalCode":"49479","locality":"Ibbenbüren","municipality":{"key":"05566028","name":"Ibbenbüren, Stadt","type":"Stadt"},"district":{"key":"05566","name":"Steinfurt","type":"Kreis"},"federalState":{"key":"05","name":"Nordrhein-Westfalen"}},{"name":"Däumlingweg","postalCode":"49479","locality":"Ibbenbüren","municipality":{"key":"05566028","name":"Ibbenbüren, Stadt","type":"Stadt"},"district":{"key":"05566","name":"Steinfurt","type":"Kreis"},"federalState":{"key":"05","name":"Nordrhein-Westfalen"}},{"name":"Dessauer Str.","postalCode":"49479","locality":"Ibbenbüren","municipality":{"key":"05566028","name":"Ibbenbüren, Stadt","type":"Stadt"},"district":{"key":"05566","name":"Steinfurt","type":"Kreis"},"federalState":{"key":"05","name":"Nordrhein-Westfalen"}},{"name":"Dianaweg","postalCode":"49479","locality":"Ibbenbüren","municipality":{"key":"05566028","name":"Ibbenbüren, Stadt","type":"Stadt"},"district":{"key":"05566","name":"Steinfurt","type":"Kreis"},"federalState":{"key":"05","name":"Nordrhein-Westfalen"}},{"name":"Dierksknapp","postalCode":"49477","locality":"Ibbenbüren","municipality":{"key":"05566028","name":"Ibbenbüren, Stadt","type":"Stadt"},"district":{"key":"05566","name":"Steinfurt","type":"Kreis"},"federalState":{"key":"05","name":"Nordrhein-Westfalen"}},{"name":"Dompfaffweg","postalCode":"49479","locality":"Ibbenbüren","municipality":{"key":"05566028","name":"Ibbenbüren, Stadt","type":"Stadt"},"district":{"key":"05566","name":"Steinfurt","type":"Kreis"},"federalState":{"key":"05","name":"Nordrhein-Westfalen"}},{"name":"Dorastr.","postalCode":"49479","locality":"Ibbenbüren","municipality":{"key":"05566028","name":"Ibbenbüren, Stadt","type":"Stadt"},"district":{"key":"05566","name":"Steinfurt","type":"Kreis"},"federalState":{"key":"05","name":"Nordrhein-Westfalen"}},{"name":"Dörenther Berg","postalCode":"49479","locality":"Ibbenbüren","municipality":{"key":"05566028","name":"Ibbenbüren, Stadt","type":"Stadt"},"district":{"key":"05566","name":"Steinfurt","type":"Kreis"},"federalState":{"key":"05","name":"Nordrhein-Westfalen"}},{"name":"Dornröschenweg","postalCode":"49479","locality":"Ibbenbüren","municipality":{"key":"05566028","name":"Ibbenbüren, Stadt","type":"Stadt"},"district":{"key":"05566","name":"Steinfurt","type":"Kreis"},"federalState":{"key":"05","name":"Nordrhein-Westfalen"}},{"name":"Dreesch","postalCode":"49477","locality":"Ibbenbüren","municipality":{"key":"05566028","name":"Ibbenbüren, Stadt","type":"Stadt"},"district":{"key":"05566","name":"Steinfurt","type":"Kreis"},"federalState":{"key":"05","name":"Nordrhein-Westfalen"}},{"name":"Dresdener Str.","postalCode":"49479","locality":"Ibbenbüren","municipality":{"key":"05566028","name":"Ibbenbüren, Stadt","type":"Stadt"},"district":{"key":"05566","name":"Steinfurt","type":"Kreis"},"federalState":{"key":"05","name":"Nordrhein-Westfalen"}},{"name":"Drosselbartweg","postalCode":"49479","locality":"Ibbenbüren","municipality":{"key":"05566028","name":"Ibbenbüren, Stadt","type":"Stadt"},"district":{"key":"05566","name":"Steinfurt","type":"Kreis"},"federalState":{"key":"05","name":"Nordrhein-Westfalen"}},{"name":"Drosselweg","postalCode":"49479","locality":"Ibbenbüren","municipality":{"key":"05566028","name":"Ibbenbüren, Stadt","type":"Stadt"},"district":{"key":"05566","name":"Steinfurt","type":"Kreis"},"federalState":{"key":"05","name":"Nordrhein-Westfalen"}},{"name":"Droste-Hülshoff-Str.","postalCode":"49479","locality":"Ibbenbüren","municipality":{"key":"05566028","name":"Ibbenbüren, Stadt","type":"Stadt"},"district":{"key":"05566","name":"Steinfurt","type":"Kreis"},"federalState":{"key":"05","name":"Nordrhein-Westfalen"}},{"name":"Dünenweg","postalCode":"49479","locality":"Ibbenbüren","municipality":{"key":"05566028","name":"Ibbenbüren, Stadt","type":"Stadt"},"district":{"key":"05566","name":"Steinfurt","type":"Kreis"},"federalState":{"key":"05","name":"Nordrhein-Westfalen"}},{"name":"Dürerstr.","postalCode":"49477","locality":"Ibbenbüren","municipality":{"key":"05566028","name":"Ibbenbüren, Stadt","type":"Stadt"},"district":{"key":"05566","name":"Steinfurt","type":"Kreis"},"federalState":{"key":"05","name":"Nordrhein-Westfalen"}},{"name":"Duskampweg","postalCode":"49477","locality":"Ibbenbüren","municipality":{"key":"05566028","name":"Ibbenbüren, Stadt","type":"Stadt"},"district":{"key":"05566","name":"Steinfurt","type":"Kreis"},"federalState":{"key":"05","name":"Nordrhein-Westfalen"}},{"name":"Eckernkamp","postalCode":"49479","locality":"Ibbenbüren","municipality":{"key":"05566028","name":"Ibbenbüren, Stadt","type":"Stadt"},"district":{"key":"05566","name":"Steinfurt","type":"Kreis"},"federalState":{"key":"05","name":"Nordrhein-Westfalen"}},{"name":"Edith-Stein-Str.","postalCode":"49479","locality":"Ibbenbüren","municipality":{"key":"05566028","name":"Ibbenbüren, Stadt","type":"Stadt"},"district":{"key":"05566","name":"Steinfurt","type":"Kreis"},"federalState":{"key":"05","name":"Nordrhein-Westfalen"}},{"name":"Eibenweg","postalCode":"49477","locality":"Ibbenbüren","municipality":{"key":"05566028","name":"Ibbenbüren, Stadt","type":"Stadt"},"district":{"key":"05566","name":"Steinfurt","type":"Kreis"},"federalState":{"key":"05","name":"Nordrhein-Westfalen"}},{"name":"Eichendorffstr.","postalCode":"49479","locality":"Ibbenbüren","municipality":{"key":"05566028","name":"Ibbenbüren, Stadt","type":"Stadt"},"district":{"key":"05566","name":"Steinfurt","type":"Kreis"},"federalState":{"key":"05","name":"Nordrhein-Westfalen"}},{"name":"Eichengrund","postalCode":"49477","locality":"Ibbenbüren","municipality":{"key":"05566028","name":"Ibbenbüren, Stadt","type":"Stadt"},"district":{"key":"05566","name":"Steinfurt","type":"Kreis"},"federalState":{"key":"05","name":"Nordrhein-Westfalen"}},{"name":"Eichenweg","postalCode":"49479","locality":"Ibbenbüren","municipality":{"key":"05566028","name":"Ibbenbüren, Stadt","type":"Stadt"},"district":{"key":"05566","name":"Steinfurt","type":"Kreis"},"federalState":{"key":"05","name":"Nordrhein-Westfalen"}},{"name":"Eichhörnchenweg","postalCode":"49479","locality":"Ibbenbüren","municipality":{"key":"05566028","name":"Ibbenbüren, Stadt","type":"Stadt"},"district":{"key":"05566","name":"Steinfurt","type":"Kreis"},"federalState":{"key":"05","name":"Nordrhein-Westfalen"}},{"name":"Eisenacher Str.","postalCode":"49479","locality":"Ibbenbüren","municipality":{"key":"05566028","name":"Ibbenbüren, Stadt","type":"Stadt"},"district":{"key":"05566","name":"Steinfurt","type":"Kreis"},"federalState":{"key":"05","name":"Nordrhein-Westfalen"}},{"name":"Eisenbahnweg","postalCode":"49479","locality":"Ibbenbüren","municipality":{"key":"05566028","name":"Ibbenbüren, Stadt","type":"Stadt"},"district":{"key":"05566","name":"Steinfurt","type":"Kreis"},"federalState":{"key":"05","name":"Nordrhein-Westfalen"}},{"name":"Eisenerzweg","postalCode":"49479","locality":"Ibbenbüren","municipality":{"key":"05566028","name":"Ibbenbüren, Stadt","type":"Stadt"},"district":{"key":"05566","name":"Steinfurt","type":"Kreis"},"federalState":{"key":"05","name":"Nordrhein-Westfalen"}},{"name":"Eisenhansweg","postalCode":"49479","locality":"Ibbenbüren","municipality":{"key":"05566028","name":"Ibbenbüren, Stadt","type":"Stadt"},"district":{"key":"05566","name":"Steinfurt","type":"Kreis"},"federalState":{"key":"05","name":"Nordrhein-Westfalen"}},{"name":"Eisenstr.","postalCode":"49477","locality":"Ibbenbüren","municipality":{"key":"05566028","name":"Ibbenbüren, Stadt","type":"Stadt"},"district":{"key":"05566","name":"Steinfurt","type":"Kreis"},"federalState":{"key":"05","name":"Nordrhein-Westfalen"}},{"name":"Elmendorfer Str.","postalCode":"49477","locality":"Ibbenbüren","municipality":{"key":"05566028","name":"Ibbenbüren, Stadt","type":"Stadt"},"district":{"key":"05566","name":"Steinfurt","type":"Kreis"},"federalState":{"key":"05","name":"Nordrhein-Westfalen"}},{"name":"Emil-Frank-Str.","postalCode":"49479","locality":"Ibbenbüren","municipality":{"key":"05566028","name":"Ibbenbüren, Stadt","type":"Stadt"},"district":{"key":"05566","name":"Steinfurt","type":"Kreis"},"federalState":{"key":"05","name":"Nordrhein-Westfalen"}},{"name":"Emslandstr.","postalCode":"49477","locality":"Ibbenbüren","municipality":{"key":"05566028","name":"Ibbenbüren, Stadt","type":"Stadt"},"district":{"key":"05566","name":"Steinfurt","type":"Kreis"},"federalState":{"key":"05","name":"Nordrhein-Westfalen"}},{"name":"Engelhardtstr.","postalCode":"49477","locality":"Ibbenbüren","municipality":{"key":"05566028","name":"Ibbenbüren, Stadt","type":"Stadt"},"district":{"key":"05566","name":"Steinfurt","type":"Kreis"},"federalState":{"key":"05","name":"Nordrhein-Westfalen"}},{"name":"Erfurter Str.","postalCode":"49479","locality":"Ibbenbüren","municipality":{"key":"05566028","name":"Ibbenbüren, Stadt","type":"Stadt"},"district":{"key":"05566","name":"Steinfurt","type":"Kreis"},"federalState":{"key":"05","name":"Nordrhein-Westfalen"}},{"name":"Erikastr.","postalCode":"49479","locality":"Ibbenbüren","municipality":{"key":"05566028","name":"Ibbenbüren, Stadt","type":"Stadt"},"district":{"key":"05566","name":"Steinfurt","type":"Kreis"},"federalState":{"key":"05","name":"Nordrhein-Westfalen"}},{"name":"Erisstr.","postalCode":"49479","locality":"Ibbenbüren","municipality":{"key":"05566028","name":"Ibbenbüren, Stadt","type":"Stadt"},"district":{"key":"05566","name":"Steinfurt","type":"Kreis"},"federalState":{"key":"05","name":"Nordrhein-Westfalen"}},{"name":"Erlengrund","postalCode":"49477","locality":"Ibbenbüren","municipality":{"key":"05566028","name":"Ibbenbüren, Stadt","type":"Stadt"},"district":{"key":"05566","name":"Steinfurt","type":"Kreis"},"federalState":{"key":"05","name":"Nordrhein-Westfalen"}},{"name":"Ernastr.","postalCode":"49479","locality":"Ibbenbüren","municipality":{"key":"05566028","name":"Ibbenbüren, Stadt","type":"Stadt"},"district":{"key":"05566","name":"Steinfurt","type":"Kreis"},"federalState":{"key":"05","name":"Nordrhein-Westfalen"}},{"name":"Eslagestr.","postalCode":"49479","locality":"Ibbenbüren","municipality":{"key":"05566028","name":"Ibbenbüren, Stadt","type":"Stadt"},"district":{"key":"05566","name":"Steinfurt","type":"Kreis"},"federalState":{"key":"05","name":"Nordrhein-Westfalen"}},{"name":"Fahlbachtal","postalCode":"49479","locality":"Ibbenbüren","municipality":{"key":"05566028","name":"Ibbenbüren, Stadt","type":"Stadt"},"district":{"key":"05566","name":"Steinfurt","type":"Kreis"},"federalState":{"key":"05","name":"Nordrhein-Westfalen"}},{"name":"Falkenhorst","postalCode":"49479","locality":"Ibbenbüren","municipality":{"key":"05566028","name":"Ibbenbüren, Stadt","type":"Stadt"},"district":{"key":"05566","name":"Steinfurt","type":"Kreis"},"federalState":{"key":"05","name":"Nordrhein-Westfalen"}},{"name":"Färbergasse","postalCode":"49477","locality":"Ibbenbüren","municipality":{"key":"05566028","name":"Ibbenbüren, Stadt","type":"Stadt"},"district":{"key":"05566","name":"Steinfurt","type":"Kreis"},"federalState":{"key":"05","name":"Nordrhein-Westfalen"}},{"name":"Fasanenhege","postalCode":"49477","locality":"Ibbenbüren","municipality":{"key":"05566028","name":"Ibbenbüren, Stadt","type":"Stadt"},"district":{"key":"05566","name":"Steinfurt","type":"Kreis"},"federalState":{"key":"05","name":"Nordrhein-Westfalen"}},{"name":"Felchenweg","postalCode":"49479","locality":"Ibbenbüren","municipality":{"key":"05566028","name":"Ibbenbüren, Stadt","type":"Stadt"},"district":{"key":"05566","name":"Steinfurt","type":"Kreis"},"federalState":{"key":"05","name":"Nordrhein-Westfalen"}},{"name":"Feldstr.","postalCode":"49477","locality":"Ibbenbüren","municipality":{"key":"05566028","name":"Ibbenbüren, Stadt","type":"Stadt"},"district":{"key":"05566","name":"Steinfurt","type":"Kreis"},"federalState":{"key":"05","name":"Nordrhein-Westfalen"}},{"name":"Felix-Schulz-Str.","postalCode":"49479","locality":"Ibbenbüren","municipality":{"key":"05566028","name":"Ibbenbüren, Stadt","type":"Stadt"},"district":{"key":"05566","name":"Steinfurt","type":"Kreis"},"federalState":{"key":"05","name":"Nordrhein-Westfalen"}},{"name":"Feuerbachstr.","postalCode":"49477","locality":"Ibbenbüren","municipality":{"key":"05566028","name":"Ibbenbüren, Stadt","type":"Stadt"},"district":{"key":"05566","name":"Steinfurt","type":"Kreis"},"federalState":{"key":"05","name":"Nordrhein-Westfalen"}},{"name":"Fichtengrund","postalCode":"49477","locality":"Ibbenbüren","municipality":{"key":"05566028","name":"Ibbenbüren, Stadt","type":"Stadt"},"district":{"key":"05566","name":"Steinfurt","type":"Kreis"},"federalState":{"key":"05","name":"Nordrhein-Westfalen"}},{"name":"Finkenfeldstr.","postalCode":"49477","locality":"Ibbenbüren","municipality":{"key":"05566028","name":"Ibbenbüren, Stadt","type":"Stadt"},"district":{"key":"05566","name":"Steinfurt","type":"Kreis"},"federalState":{"key":"05","name":"Nordrhein-Westfalen"}},{"name":"Finkenweg","postalCode":"49479","locality":"Ibbenbüren","municipality":{"key":"05566028","name":"Ibbenbüren, Stadt","type":"Stadt"},"district":{"key":"05566","name":"Steinfurt","type":"Kreis"},"federalState":{"key":"05","name":"Nordrhein-Westfalen"}},{"name":"Fisbecker Forst","postalCode":"49479","locality":"Ibbenbüren","municipality":{"key":"05566028","name":"Ibbenbüren, Stadt","type":"Stadt"},"district":{"key":"05566","name":"Steinfurt","type":"Kreis"},"federalState":{"key":"05","name":"Nordrhein-Westfalen"}},{"name":"Flachsweg","postalCode":"49479","locality":"Ibbenbüren","municipality":{"key":"05566028","name":"Ibbenbüren, Stadt","type":"Stadt"},"district":{"key":"05566","name":"Steinfurt","type":"Kreis"},"federalState":{"key":"05","name":"Nordrhein-Westfalen"}},{"name":"Flemingstr.","postalCode":"49477","locality":"Ibbenbüren","municipality":{"key":"05566028","name":"Ibbenbüren, Stadt","type":"Stadt"},"district":{"key":"05566","name":"Steinfurt","type":"Kreis"},"federalState":{"key":"05","name":"Nordrhein-Westfalen"}},{"name":"Fliederweg","postalCode":"49477","locality":"Ibbenbüren","municipality":{"key":"05566028","name":"Ibbenbüren, Stadt","type":"Stadt"},"district":{"key":"05566","name":"Steinfurt","type":"Kreis"},"federalState":{"key":"05","name":"Nordrhein-Westfalen"}},{"name":"Flottwellstr.","postalCode":"49479","locality":"Ibbenbüren","municipality":{"key":"05566028","name":"Ibbenbüren, Stadt","type":"Stadt"},"district":{"key":"05566","name":"Steinfurt","type":"Kreis"},"federalState":{"key":"05","name":"Nordrhein-Westfalen"}},{"name":"Flurstr.","postalCode":"49477","locality":"Ibbenbüren","municipality":{"key":"05566028","name":"Ibbenbüren, Stadt","type":"Stadt"},"district":{"key":"05566","name":"Steinfurt","type":"Kreis"},"federalState":{"key":"05","name":"Nordrhein-Westfalen"}},{"name":"Föhrengrund","postalCode":"49477","locality":"Ibbenbüren","municipality":{"key":"05566028","name":"Ibbenbüren, Stadt","type":"Stadt"},"district":{"key":"05566","name":"Steinfurt","type":"Kreis"},"federalState":{"key":"05","name":"Nordrhein-Westfalen"}},{"name":"Forellengrund","postalCode":"49479","locality":"Ibbenbüren","municipality":{"key":"05566028","name":"Ibbenbüren, Stadt","type":"Stadt"},"district":{"key":"05566","name":"Steinfurt","type":"Kreis"},"federalState":{"key":"05","name":"Nordrhein-Westfalen"}},{"name":"Forstweg","postalCode":"49479","locality":"Ibbenbüren","municipality":{"key":"05566028","name":"Ibbenbüren, Stadt","type":"Stadt"},"district":{"key":"05566","name":"Steinfurt","type":"Kreis"},"federalState":{"key":"05","name":"Nordrhein-Westfalen"}},{"name":"Frankenstr.","postalCode":"49477","locality":"Ibbenbüren","municipality":{"key":"05566028","name":"Ibbenbüren, Stadt","type":"Stadt"},"district":{"key":"05566","name":"Steinfurt","type":"Kreis"},"federalState":{"key":"05","name":"Nordrhein-Westfalen"}},{"name":"Frau-Holle-Weg","postalCode":"49479","locality":"Ibbenbüren","municipality":{"key":"05566028","name":"Ibbenbüren, Stadt","type":"Stadt"},"district":{"key":"05566","name":"Steinfurt","type":"Kreis"},"federalState":{"key":"05","name":"Nordrhein-Westfalen"}},{"name":"Freibad Laggenbeck","postalCode":"49479","locality":"Ibbenbüren","municipality":{"key":"05566028","name":"Ibbenbüren, Stadt","type":"Stadt"},"district":{"key":"05566","name":"Steinfurt","type":"Kreis"},"federalState":{"key":"05","name":"Nordrhein-Westfalen"}},{"name":"Freiherr-vom-Stein-Str.","postalCode":"49479","locality":"Ibbenbüren","municipality":{"key":"05566028","name":"Ibbenbüren, Stadt","type":"Stadt"},"district":{"key":"05566","name":"Steinfurt","type":"Kreis"},"federalState":{"key":"05","name":"Nordrhein-Westfalen"}},{"name":"Friedastr.","postalCode":"49479","locality":"Ibbenbüren","municipality":{"key":"05566028","name":"Ibbenbüren, Stadt","type":"Stadt"},"district":{"key":"05566","name":"Steinfurt","type":"Kreis"},"federalState":{"key":"05","name":"Nordrhein-Westfalen"}},{"name":"Friedenstr.","postalCode":"49477","locality":"Ibbenbüren","municipality":{"key":"05566028","name":"Ibbenbüren, Stadt","type":"Stadt"},"district":{"key":"05566","name":"Steinfurt","type":"Kreis"},"federalState":{"key":"05","name":"Nordrhein-Westfalen"}},{"name":"Friedhofsweg","postalCode":"49479","locality":"Ibbenbüren","municipality":{"key":"05566028","name":"Ibbenbüren, Stadt","type":"Stadt"},"district":{"key":"05566","name":"Steinfurt","type":"Kreis"},"federalState":{"key":"05","name":"Nordrhein-Westfalen"}},{"name":"Friedrichstr.","postalCode":"49477","locality":"Ibbenbüren","municipality":{"key":"05566028","name":"Ibbenbüren, Stadt","type":"Stadt"},"district":{"key":"05566","name":"Steinfurt","type":"Kreis"},"federalState":{"key":"05","name":"Nordrhein-Westfalen"}},{"name":"Friedrich-Wilhelm-Str.","postalCode":"49479","locality":"Ibbenbüren","municipality":{"key":"05566028","name":"Ibbenbüren, Stadt","type":"Stadt"},"district":{"key":"05566","name":"Steinfurt","type":"Kreis"},"federalState":{"key":"05","name":"Nordrhein-Westfalen"}},{"name":"Frieslandweg","postalCode":"49477","locality":"Ibbenbüren","municipality":{"key":"05566028","name":"Ibbenbüren, Stadt","type":"Stadt"},"district":{"key":"05566","name":"Steinfurt","type":"Kreis"},"federalState":{"key":"05","name":"Nordrhein-Westfalen"}},{"name":"Fuchsweg","postalCode":"49479","locality":"Ibbenbüren","municipality":{"key":"05566028","name":"Ibbenbüren, Stadt","type":"Stadt"},"district":{"key":"05566","name":"Steinfurt","type":"Kreis"},"federalState":{"key":"05","name":"Nordrhein-Westfalen"}},{"name":"Fürstenberger Str.","postalCode":"49479","locality":"Ibbenbüren","municipality":{"key":"05566028","name":"Ibbenbüren, Stadt","type":"Stadt"},"district":{"key":"05566","name":"Steinfurt","type":"Kreis"},"federalState":{"key":"05","name":"Nordrhein-Westfalen"}},{"name":"Garnaustr.","postalCode":"49477","locality":"Ibbenbüren","municipality":{"key":"05566028","name":"Ibbenbüren, Stadt","type":"Stadt"},"district":{"key":"05566","name":"Steinfurt","type":"Kreis"},"federalState":{"key":"05","name":"Nordrhein-Westfalen"}},{"name":"Gartenstr.","postalCode":"49477","locality":"Ibbenbüren","municipality":{"key":"05566028","name":"Ibbenbüren, Stadt","type":"Stadt"},"district":{"key":"05566","name":"Steinfurt","type":"Kreis"},"federalState":{"key":"05","name":"Nordrhein-Westfalen"}},{"name":"Geranienweg","postalCode":"49479","locality":"Ibbenbüren","municipality":{"key":"05566028","name":"Ibbenbüren, Stadt","type":"Stadt"},"district":{"key":"05566","name":"Steinfurt","type":"Kreis"},"federalState":{"key":"05","name":"Nordrhein-Westfalen"}},{"name":"Gerdastr.","postalCode":"49479","locality":"Ibbenbüren","municipality":{"key":"05566028","name":"Ibbenbüren, Stadt","type":"Stadt"},"district":{"key":"05566","name":"Steinfurt","type":"Kreis"},"federalState":{"key":"05","name":"Nordrhein-Westfalen"}},{"name":"Gerhardstr.","postalCode":"49479","locality":"Ibbenbüren","municipality":{"key":"05566028","name":"Ibbenbüren, Stadt","type":"Stadt"},"district":{"key":"05566","name":"Steinfurt","type":"Kreis"},"federalState":{"key":"05","name":"Nordrhein-Westfalen"}},{"name":"Gerichtsweg","postalCode":"49477","locality":"Ibbenbüren","municipality":{"key":"05566028","name":"Ibbenbüren, Stadt","type":"Stadt"},"district":{"key":"05566","name":"Steinfurt","type":"Kreis"},"federalState":{"key":"05","name":"Nordrhein-Westfalen"}},{"name":"Gerstenweg","postalCode":"49479","locality":"Ibbenbüren","municipality":{"key":"05566028","name":"Ibbenbüren, Stadt","type":"Stadt"},"district":{"key":"05566","name":"Steinfurt","type":"Kreis"},"federalState":{"key":"05","name":"Nordrhein-Westfalen"}},{"name":"Gildestr.","postalCode":"49477","locality":"Ibbenbüren","municipality":{"key":"05566028","name":"Ibbenbüren, Stadt","type":"Stadt"},"district":{"key":"05566","name":"Steinfurt","type":"Kreis"},"federalState":{"key":"05","name":"Nordrhein-Westfalen"}},{"name":"Gildestr.","postalCode":"49479","locality":"Ibbenbüren","municipality":{"key":"05566028","name":"Ibbenbüren, Stadt","type":"Stadt"},"district":{"key":"05566","name":"Steinfurt","type":"Kreis"},"federalState":{"key":"05","name":"Nordrhein-Westfalen"}},{"name":"Gillmannstr.","postalCode":"49477","locality":"Ibbenbüren","municipality":{"key":"05566028","name":"Ibbenbüren, Stadt","type":"Stadt"},"district":{"key":"05566","name":"Steinfurt","type":"Kreis"},"federalState":{"key":"05","name":"Nordrhein-Westfalen"}},{"name":"Ginsterweg","postalCode":"49479","locality":"Ibbenbüren","municipality":{"key":"05566028","name":"Ibbenbüren, Stadt","type":"Stadt"},"district":{"key":"05566","name":"Steinfurt","type":"Kreis"},"federalState":{"key":"05","name":"Nordrhein-Westfalen"}},{"name":"Glogauer Str.","postalCode":"49479","locality":"Ibbenbüren","municipality":{"key":"05566028","name":"Ibbenbüren, Stadt","type":"Stadt"},"district":{"key":"05566","name":"Steinfurt","type":"Kreis"},"federalState":{"key":"05","name":"Nordrhein-Westfalen"}},{"name":"Glosemeyersgasse","postalCode":"49477","locality":"Ibbenbüren","municipality":{"key":"05566028","name":"Ibbenbüren, Stadt","type":"Stadt"},"district":{"key":"05566","name":"Steinfurt","type":"Kreis"},"federalState":{"key":"05","name":"Nordrhein-Westfalen"}},{"name":"Glück-Auf-Str.","postalCode":"49477","locality":"Ibbenbüren","municipality":{"key":"05566028","name":"Ibbenbüren, Stadt","type":"Stadt"},"district":{"key":"05566","name":"Steinfurt","type":"Kreis"},"federalState":{"key":"05","name":"Nordrhein-Westfalen"}},{"name":"Glück-Auf-Str.","postalCode":"49479","locality":"Ibbenbüren","municipality":{"key":"05566028","name":"Ibbenbüren, Stadt","type":"Stadt"},"district":{"key":"05566","name":"Steinfurt","type":"Kreis"},"federalState":{"key":"05","name":"Nordrhein-Westfalen"}},{"name":"Glücksburger Str.","postalCode":"49477","locality":"Ibbenbüren","municipality":{"key":"05566028","name":"Ibbenbüren, Stadt","type":"Stadt"},"district":{"key":"05566","name":"Steinfurt","type":"Kreis"},"federalState":{"key":"05","name":"Nordrhein-Westfalen"}},{"name":"Glückswinkel","postalCode":"49477","locality":"Ibbenbüren","municipality":{"key":"05566028","name":"Ibbenbüren, Stadt","type":"Stadt"},"district":{"key":"05566","name":"Steinfurt","type":"Kreis"},"federalState":{"key":"05","name":"Nordrhein-Westfalen"}},{"name":"Goethestr.","postalCode":"49477","locality":"Ibbenbüren","municipality":{"key":"05566028","name":"Ibbenbüren, Stadt","type":"Stadt"},"district":{"key":"05566","name":"Steinfurt","type":"Kreis"},"federalState":{"key":"05","name":"Nordrhein-Westfalen"}},{"name":"Goldhügelstr.","postalCode":"49479","locality":"Ibbenbüren","municipality":{"key":"05566028","name":"Ibbenbüren, Stadt","type":"Stadt"},"district":{"key":"05566","name":"Steinfurt","type":"Kreis"},"federalState":{"key":"05","name":"Nordrhein-Westfalen"}},{"name":"Gotenstr.","postalCode":"49477","locality":"Ibbenbüren","municipality":{"key":"05566028","name":"Ibbenbüren, Stadt","type":"Stadt"},"district":{"key":"05566","name":"Steinfurt","type":"Kreis"},"federalState":{"key":"05","name":"Nordrhein-Westfalen"}},{"name":"Gottliebweg","postalCode":"49479","locality":"Ibbenbüren","municipality":{"key":"05566028","name":"Ibbenbüren, Stadt","type":"Stadt"},"district":{"key":"05566","name":"Steinfurt","type":"Kreis"},"federalState":{"key":"05","name":"Nordrhein-Westfalen"}},{"name":"Gottschalkstr.","postalCode":"49477","locality":"Ibbenbüren","municipality":{"key":"05566028","name":"Ibbenbüren, Stadt","type":"Stadt"},"district":{"key":"05566","name":"Steinfurt","type":"Kreis"},"federalState":{"key":"05","name":"Nordrhein-Westfalen"}},{"name":"Grafschafter Ring","postalCode":"49477","locality":"Ibbenbüren","municipality":{"key":"05566028","name":"Ibbenbüren, Stadt","type":"Stadt"},"district":{"key":"05566","name":"Steinfurt","type":"Kreis"},"federalState":{"key":"05","name":"Nordrhein-Westfalen"}},{"name":"Gravenhorster Str.","postalCode":"49477","locality":"Ibbenbüren","municipality":{"key":"05566028","name":"Ibbenbüren, Stadt","type":"Stadt"},"district":{"key":"05566","name":"Steinfurt","type":"Kreis"},"federalState":{"key":"05","name":"Nordrhein-Westfalen"}},{"name":"Gravenhorster Str.","postalCode":"49479","locality":"Ibbenbüren","municipality":{"key":"05566028","name":"Ibbenbüren, Stadt","type":"Stadt"},"district":{"key":"05566","name":"Steinfurt","type":"Kreis"},"federalState":{"key":"05","name":"Nordrhein-Westfalen"}},{"name":"Greifenhagener Str.","postalCode":"49479","locality":"Ibbenbüren","municipality":{"key":"05566028","name":"Ibbenbüren, Stadt","type":"Stadt"},"district":{"key":"05566","name":"Steinfurt","type":"Kreis"},"federalState":{"key":"05","name":"Nordrhein-Westfalen"}},{"name":"Grenzacker","postalCode":"49477","locality":"Ibbenbüren","municipality":{"key":"05566028","name":"Ibbenbüren, Stadt","type":"Stadt"},"district":{"key":"05566","name":"Steinfurt","type":"Kreis"},"federalState":{"key":"05","name":"Nordrhein-Westfalen"}},{"name":"Grenzweg","postalCode":"49479","locality":"Ibbenbüren","municipality":{"key":"05566028","name":"Ibbenbüren, Stadt","type":"Stadt"},"district":{"key":"05566","name":"Steinfurt","type":"Kreis"},"federalState":{"key":"05","name":"Nordrhein-Westfalen"}},{"name":"Gretelweg","postalCode":"49479","locality":"Ibbenbüren","municipality":{"key":"05566028","name":"Ibbenbüren, Stadt","type":"Stadt"},"district":{"key":"05566","name":"Steinfurt","type":"Kreis"},"federalState":{"key":"05","name":"Nordrhein-Westfalen"}},{"name":"Groner Allee","postalCode":"49477","locality":"Ibbenbüren","municipality":{"key":"05566028","name":"Ibbenbüren, Stadt","type":"Stadt"},"district":{"key":"05566","name":"Steinfurt","type":"Kreis"},"federalState":{"key":"05","name":"Nordrhein-Westfalen"}},{"name":"Groner Allee","postalCode":"49479","locality":"Ibbenbüren","municipality":{"key":"05566028","name":"Ibbenbüren, Stadt","type":"Stadt"},"district":{"key":"05566","name":"Steinfurt","type":"Kreis"},"federalState":{"key":"05","name":"Nordrhein-Westfalen"}},{"name":"Große Str.","postalCode":"49477","locality":"Ibbenbüren","municipality":{"key":"05566028","name":"Ibbenbüren, Stadt","type":"Stadt"},"district":{"key":"05566","name":"Steinfurt","type":"Kreis"},"federalState":{"key":"05","name":"Nordrhein-Westfalen"}},{"name":"Grothausstr.","postalCode":"49477","locality":"Ibbenbüren","municipality":{"key":"05566028","name":"Ibbenbüren, Stadt","type":"Stadt"},"district":{"key":"05566","name":"Steinfurt","type":"Kreis"},"federalState":{"key":"05","name":"Nordrhein-Westfalen"}},{"name":"Grube Sonnenschein","postalCode":"49479","locality":"Ibbenbüren","municipality":{"key":"05566028","name":"Ibbenbüren, Stadt","type":"Stadt"},"district":{"key":"05566","name":"Steinfurt","type":"Kreis"},"federalState":{"key":"05","name":"Nordrhein-Westfalen"}},{"name":"Gründkenliet","postalCode":"49479","locality":"Ibbenbüren","municipality":{"key":"05566028","name":"Ibbenbüren, Stadt","type":"Stadt"},"district":{"key":"05566","name":"Steinfurt","type":"Kreis"},"federalState":{"key":"05","name":"Nordrhein-Westfalen"}},{"name":"Grüner Brink","postalCode":"49479","locality":"Ibbenbüren","municipality":{"key":"05566028","name":"Ibbenbüren, Stadt","type":"Stadt"},"district":{"key":"05566","name":"Steinfurt","type":"Kreis"},"federalState":{"key":"05","name":"Nordrhein-Westfalen"}},{"name":"Grüner Weg","postalCode":"49477","locality":"Ibbenbüren","municipality":{"key":"05566028","name":"Ibbenbüren, Stadt","type":"Stadt"},"district":{"key":"05566","name":"Steinfurt","type":"Kreis"},"federalState":{"key":"05","name":"Nordrhein-Westfalen"}},{"name":"Grünewaldstr.","postalCode":"49477","locality":"Ibbenbüren","municipality":{"key":"05566028","name":"Ibbenbüren, Stadt","type":"Stadt"},"district":{"key":"05566","name":"Steinfurt","type":"Kreis"},"federalState":{"key":"05","name":"Nordrhein-Westfalen"}},{"name":"Guntherstr.","postalCode":"49479","locality":"Ibbenbüren","municipality":{"key":"05566028","name":"Ibbenbüren, Stadt","type":"Stadt"},"district":{"key":"05566","name":"Steinfurt","type":"Kreis"},"federalState":{"key":"05","name":"Nordrhein-Westfalen"}},{"name":"Gustav-Deiters-Str.","postalCode":"49479","locality":"Ibbenbüren","municipality":{"key":"05566028","name":"Ibbenbüren, Stadt","type":"Stadt"},"district":{"key":"05566","name":"Steinfurt","type":"Kreis"},"federalState":{"key":"05","name":"Nordrhein-Westfalen"}},{"name":"Gustav-Hugo-Str.","postalCode":"49477","locality":"Ibbenbüren","municipality":{"key":"05566028","name":"Ibbenbüren, Stadt","type":"Stadt"},"district":{"key":"05566","name":"Steinfurt","type":"Kreis"},"federalState":{"key":"05","name":"Nordrhein-Westfalen"}},{"name":"Haarweg","postalCode":"49479","locality":"Ibbenbüren","municipality":{"key":"05566028","name":"Ibbenbüren, Stadt","type":"Stadt"},"district":{"key":"05566","name":"Steinfurt","type":"Kreis"},"federalState":{"key":"05","name":"Nordrhein-Westfalen"}},{"name":"Habichtshöhe","postalCode":"49479","locality":"Ibbenbüren","municipality":{"key":"05566028","name":"Ibbenbüren, Stadt","type":"Stadt"},"district":{"key":"05566","name":"Steinfurt","type":"Kreis"},"federalState":{"key":"05","name":"Nordrhein-Westfalen"}},{"name":"Hafenstr.","postalCode":"49479","locality":"Ibbenbüren","municipality":{"key":"05566028","name":"Ibbenbüren, Stadt","type":"Stadt"},"district":{"key":"05566","name":"Steinfurt","type":"Kreis"},"federalState":{"key":"05","name":"Nordrhein-Westfalen"}},{"name":"Haferweg","postalCode":"49479","locality":"Ibbenbüren","municipality":{"key":"05566028","name":"Ibbenbüren, Stadt","type":"Stadt"},"district":{"key":"05566","name":"Steinfurt","type":"Kreis"},"federalState":{"key":"05","name":"Nordrhein-Westfalen"}},{"name":"Hainbuchenweg","postalCode":"49479","locality":"Ibbenbüren","municipality":{"key":"05566028","name":"Ibbenbüren, Stadt","type":"Stadt"},"district":{"key":"05566","name":"Steinfurt","type":"Kreis"},"federalState":{"key":"05","name":"Nordrhein-Westfalen"}},{"name":"Hammerschlag","postalCode":"49477","locality":"Ibbenbüren","municipality":{"key":"05566028","name":"Ibbenbüren, Stadt","type":"Stadt"},"district":{"key":"05566","name":"Steinfurt","type":"Kreis"},"federalState":{"key":"05","name":"Nordrhein-Westfalen"}},{"name":"Händelstr.","postalCode":"49477","locality":"Ibbenbüren","municipality":{"key":"05566028","name":"Ibbenbüren, Stadt","type":"Stadt"},"district":{"key":"05566","name":"Steinfurt","type":"Kreis"},"federalState":{"key":"05","name":"Nordrhein-Westfalen"}},{"name":"Hanfweg","postalCode":"49479","locality":"Ibbenbüren","municipality":{"key":"05566028","name":"Ibbenbüren, Stadt","type":"Stadt"},"district":{"key":"05566","name":"Steinfurt","type":"Kreis"},"federalState":{"key":"05","name":"Nordrhein-Westfalen"}},{"name":"Hansastr.","postalCode":"49477","locality":"Ibbenbüren","municipality":{"key":"05566028","name":"Ibbenbüren, Stadt","type":"Stadt"},"district":{"key":"05566","name":"Steinfurt","type":"Kreis"},"federalState":{"key":"05","name":"Nordrhein-Westfalen"}},{"name":"Hänselweg","postalCode":"49479","locality":"Ibbenbüren","municipality":{"key":"05566028","name":"Ibbenbüren, Stadt","type":"Stadt"},"district":{"key":"05566","name":"Steinfurt","type":"Kreis"},"federalState":{"key":"05","name":"Nordrhein-Westfalen"}},{"name":"Hardenbergstr.","postalCode":"49479","locality":"Ibbenbüren","municipality":{"key":"05566028","name":"Ibbenbüren, Stadt","type":"Stadt"},"district":{"key":"05566","name":"Steinfurt","type":"Kreis"},"federalState":{"key":"05","name":"Nordrhein-Westfalen"}},{"name":"Hardikskamp","postalCode":"49477","locality":"Ibbenbüren","municipality":{"key":"05566028","name":"Ibbenbüren, Stadt","type":"Stadt"},"district":{"key":"05566","name":"Steinfurt","type":"Kreis"},"federalState":{"key":"05","name":"Nordrhein-Westfalen"}},{"name":"Haselnußweg","postalCode":"49479","locality":"Ibbenbüren","municipality":{"key":"05566028","name":"Ibbenbüren, Stadt","type":"Stadt"},"district":{"key":"05566","name":"Steinfurt","type":"Kreis"},"federalState":{"key":"05","name":"Nordrhein-Westfalen"}},{"name":"Hasenkamp","postalCode":"49479","locality":"Ibbenbüren","municipality":{"key":"05566028","name":"Ibbenbüren, Stadt","type":"Stadt"},"district":{"key":"05566","name":"Steinfurt","type":"Kreis"},"federalState":{"key":"05","name":"Nordrhein-Westfalen"}},{"name":"Haspelweg","postalCode":"49479","locality":"Ibbenbüren","municipality":{"key":"05566028","name":"Ibbenbüren, Stadt","type":"Stadt"},"district":{"key":"05566","name":"Steinfurt","type":"Kreis"},"federalState":{"key":"05","name":"Nordrhein-Westfalen"}},{"name":"Hauereck","postalCode":"49479","locality":"Ibbenbüren","municipality":{"key":"05566028","name":"Ibbenbüren, Stadt","type":"Stadt"},"district":{"key":"05566","name":"Steinfurt","type":"Kreis"},"federalState":{"key":"05","name":"Nordrhein-Westfalen"}},{"name":"Hauffstr.","postalCode":"49479","locality":"Ibbenbüren","municipality":{"key":"05566028","name":"Ibbenbüren, Stadt","type":"Stadt"},"district":{"key":"05566","name":"Steinfurt","type":"Kreis"},"federalState":{"key":"05","name":"Nordrhein-Westfalen"}},{"name":"Hauptstr.","postalCode":"49479","locality":"Ibbenbüren","municipality":{"key":"05566028","name":"Ibbenbüren, Stadt","type":"Stadt"},"district":{"key":"05566","name":"Steinfurt","type":"Kreis"},"federalState":{"key":"05","name":"Nordrhein-Westfalen"}},{"name":"Hausstätte","postalCode":"49477","locality":"Ibbenbüren","municipality":{"key":"05566028","name":"Ibbenbüren, Stadt","type":"Stadt"},"district":{"key":"05566","name":"Steinfurt","type":"Kreis"},"federalState":{"key":"05","name":"Nordrhein-Westfalen"}},{"name":"Havelweg","postalCode":"49479","locality":"Ibbenbüren","municipality":{"key":"05566028","name":"Ibbenbüren, Stadt","type":"Stadt"},"district":{"key":"05566","name":"Steinfurt","type":"Kreis"},"federalState":{"key":"05","name":"Nordrhein-Westfalen"}},{"name":"Haydnstr.","postalCode":"49477","locality":"Ibbenbüren","municipality":{"key":"05566028","name":"Ibbenbüren, Stadt","type":"Stadt"},"district":{"key":"05566","name":"Steinfurt","type":"Kreis"},"federalState":{"key":"05","name":"Nordrhein-Westfalen"}},{"name":"Hebbelstr.","postalCode":"49479","locality":"Ibbenbüren","municipality":{"key":"05566028","name":"Ibbenbüren, Stadt","type":"Stadt"},"district":{"key":"05566","name":"Steinfurt","type":"Kreis"},"federalState":{"key":"05","name":"Nordrhein-Westfalen"}},{"name":"Heckelstr.","postalCode":"49477","locality":"Ibbenbüren","municipality":{"key":"05566028","name":"Ibbenbüren, Stadt","type":"Stadt"},"district":{"key":"05566","name":"Steinfurt","type":"Kreis"},"federalState":{"key":"05","name":"Nordrhein-Westfalen"}},{"name":"Hectorstr.","postalCode":"49479","locality":"Ibbenbüren","municipality":{"key":"05566028","name":"Ibbenbüren, Stadt","type":"Stadt"},"district":{"key":"05566","name":"Steinfurt","type":"Kreis"},"federalState":{"key":"05","name":"Nordrhein-Westfalen"}},{"name":"Heidburenweg","postalCode":"49479","locality":"Ibbenbüren","municipality":{"key":"05566028","name":"Ibbenbüren, Stadt","type":"Stadt"},"district":{"key":"05566","name":"Steinfurt","type":"Kreis"},"federalState":{"key":"05","name":"Nordrhein-Westfalen"}},{"name":"Heideweg","postalCode":"49477","locality":"Ibbenbüren","municipality":{"key":"05566028","name":"Ibbenbüren, Stadt","type":"Stadt"},"district":{"key":"05566","name":"Steinfurt","type":"Kreis"},"federalState":{"key":"05","name":"Nordrhein-Westfalen"}},{"name":"Heinrich-Lersch-Str.","postalCode":"49479","locality":"Ibbenbüren","municipality":{"key":"05566028","name":"Ibbenbüren, Stadt","type":"Stadt"},"district":{"key":"05566","name":"Steinfurt","type":"Kreis"},"federalState":{"key":"05","name":"Nordrhein-Westfalen"}},{"name":"Heinrichstr.","postalCode":"49479","locality":"Ibbenbüren","municipality":{"key":"05566028","name":"Ibbenbüren, Stadt","type":"Stadt"},"district":{"key":"05566","name":"Steinfurt","type":"Kreis"},"federalState":{"key":"05","name":"Nordrhein-Westfalen"}},{"name":"Heitkampweg","postalCode":"49479","locality":"Ibbenbüren","municipality":{"key":"05566028","name":"Ibbenbüren, Stadt","type":"Stadt"},"district":{"key":"05566","name":"Steinfurt","type":"Kreis"},"federalState":{"key":"05","name":"Nordrhein-Westfalen"}},{"name":"Heldermann-Park","postalCode":"49477","locality":"Ibbenbüren","municipality":{"key":"05566028","name":"Ibbenbüren, Stadt","type":"Stadt"},"district":{"key":"05566","name":"Steinfurt","type":"Kreis"},"federalState":{"key":"05","name":"Nordrhein-Westfalen"}},{"name":"Heldermannstr.","postalCode":"49477","locality":"Ibbenbüren","municipality":{"key":"05566028","name":"Ibbenbüren, Stadt","type":"Stadt"},"district":{"key":"05566","name":"Steinfurt","type":"Kreis"},"federalState":{"key":"05","name":"Nordrhein-Westfalen"}},{"name":"Helgastr.","postalCode":"49479","locality":"Ibbenbüren","municipality":{"key":"05566028","name":"Ibbenbüren, Stadt","type":"Stadt"},"district":{"key":"05566","name":"Steinfurt","type":"Kreis"},"federalState":{"key":"05","name":"Nordrhein-Westfalen"}},{"name":"Hellendoorner Str.","postalCode":"49479","locality":"Ibbenbüren","municipality":{"key":"05566028","name":"Ibbenbüren, Stadt","type":"Stadt"},"district":{"key":"05566","name":"Steinfurt","type":"Kreis"},"federalState":{"key":"05","name":"Nordrhein-Westfalen"}},{"name":"Herbringskamp","postalCode":"49477","locality":"Ibbenbüren","municipality":{"key":"05566028","name":"Ibbenbüren, Stadt","type":"Stadt"},"district":{"key":"05566","name":"Steinfurt","type":"Kreis"},"federalState":{"key":"05","name":"Nordrhein-Westfalen"}},{"name":"Hermannstr.","postalCode":"49479","locality":"Ibbenbüren","municipality":{"key":"05566028","name":"Ibbenbüren, Stadt","type":"Stadt"},"district":{"key":"05566","name":"Steinfurt","type":"Kreis"},"federalState":{"key":"05","name":"Nordrhein-Westfalen"}},{"name":"Heuwinkel","postalCode":"49477","locality":"Ibbenbüren","municipality":{"key":"05566028","name":"Ibbenbüren, Stadt","type":"Stadt"},"district":{"key":"05566","name":"Steinfurt","type":"Kreis"},"federalState":{"key":"05","name":"Nordrhein-Westfalen"}},{"name":"Himbeerweg","postalCode":"49479","locality":"Ibbenbüren","municipality":{"key":"05566028","name":"Ibbenbüren, Stadt","type":"Stadt"},"district":{"key":"05566","name":"Steinfurt","type":"Kreis"},"federalState":{"key":"05","name":"Nordrhein-Westfalen"}},{"name":"Hofmeierskamp","postalCode":"49479","locality":"Ibbenbüren","municipality":{"key":"05566028","name":"Ibbenbüren, Stadt","type":"Stadt"},"district":{"key":"05566","name":"Steinfurt","type":"Kreis"},"federalState":{"key":"05","name":"Nordrhein-Westfalen"}},{"name":"Höhenstr.","postalCode":"49479","locality":"Ibbenbüren","municipality":{"key":"05566028","name":"Ibbenbüren, Stadt","type":"Stadt"},"district":{"key":"05566","name":"Steinfurt","type":"Kreis"},"federalState":{"key":"05","name":"Nordrhein-Westfalen"}},{"name":"Holbeinstr.","postalCode":"49477","locality":"Ibbenbüren","municipality":{"key":"05566028","name":"Ibbenbüren, Stadt","type":"Stadt"},"district":{"key":"05566","name":"Steinfurt","type":"Kreis"},"federalState":{"key":"05","name":"Nordrhein-Westfalen"}},{"name":"Holsterkampstr.","postalCode":"49477","locality":"Ibbenbüren","municipality":{"key":"05566028","name":"Ibbenbüren, Stadt","type":"Stadt"},"district":{"key":"05566","name":"Steinfurt","type":"Kreis"},"federalState":{"key":"05","name":"Nordrhein-Westfalen"}},{"name":"Holtkamp","postalCode":"49479","locality":"Ibbenbüren","municipality":{"key":"05566028","name":"Ibbenbüren, Stadt","type":"Stadt"},"district":{"key":"05566","name":"Steinfurt","type":"Kreis"},"federalState":{"key":"05","name":"Nordrhein-Westfalen"}},{"name":"Holunderweg","postalCode":"49479","locality":"Ibbenbüren","municipality":{"key":"05566028","name":"Ibbenbüren, Stadt","type":"Stadt"},"district":{"key":"05566","name":"Steinfurt","type":"Kreis"},"federalState":{"key":"05","name":"Nordrhein-Westfalen"}},{"name":"Hoppenweg","postalCode":"49477","locality":"Ibbenbüren","municipality":{"key":"05566028","name":"Ibbenbüren, Stadt","type":"Stadt"},"district":{"key":"05566","name":"Steinfurt","type":"Kreis"},"federalState":{"key":"05","name":"Nordrhein-Westfalen"}},{"name":"Hopstener Str.","postalCode":"49479","locality":"Ibbenbüren","municipality":{"key":"05566028","name":"Ibbenbüren, Stadt","type":"Stadt"},"district":{"key":"05566","name":"Steinfurt","type":"Kreis"},"federalState":{"key":"05","name":"Nordrhein-Westfalen"}},{"name":"Hubertusstr.","postalCode":"49479","locality":"Ibbenbüren","municipality":{"key":"05566028","name":"Ibbenbüren, Stadt","type":"Stadt"},"district":{"key":"05566","name":"Steinfurt","type":"Kreis"},"federalState":{"key":"05","name":"Nordrhein-Westfalen"}},{"name":"Humboldtstr.","postalCode":"49479","locality":"Ibbenbüren","municipality":{"key":"05566028","name":"Ibbenbüren, Stadt","type":"Stadt"},"district":{"key":"05566","name":"Steinfurt","type":"Kreis"},"federalState":{"key":"05","name":"Nordrhein-Westfalen"}},{"name":"Hünefeldskamp","postalCode":"49477","locality":"Ibbenbüren","municipality":{"key":"05566028","name":"Ibbenbüren, Stadt","type":"Stadt"},"district":{"key":"05566","name":"Steinfurt","type":"Kreis"},"federalState":{"key":"05","name":"Nordrhein-Westfalen"}},{"name":"Hünhügel","postalCode":"49479","locality":"Ibbenbüren","municipality":{"key":"05566028","name":"Ibbenbüren, Stadt","type":"Stadt"},"district":{"key":"05566","name":"Steinfurt","type":"Kreis"},"federalState":{"key":"05","name":"Nordrhein-Westfalen"}},{"name":"Hyddenburg","postalCode":"49477","locality":"Ibbenbüren","municipality":{"key":"05566028","name":"Ibbenbüren, Stadt","type":"Stadt"},"district":{"key":"05566","name":"Steinfurt","type":"Kreis"},"federalState":{"key":"05","name":"Nordrhein-Westfalen"}},{"name":"Ibbenbürener Str.","postalCode":"49479","locality":"Ibbenbüren","municipality":{"key":"05566028","name":"Ibbenbüren, Stadt","type":"Stadt"},"district":{"key":"05566","name":"Steinfurt","type":"Kreis"},"federalState":{"key":"05","name":"Nordrhein-Westfalen"}},{"name":"Idastr.","postalCode":"49479","locality":"Ibbenbüren","municipality":{"key":"05566028","name":"Ibbenbüren, Stadt","type":"Stadt"},"district":{"key":"05566","name":"Steinfurt","type":"Kreis"},"federalState":{"key":"05","name":"Nordrhein-Westfalen"}},{"name":"Ignatz-Wiemeler-Str.","postalCode":"49479","locality":"Ibbenbüren","municipality":{"key":"05566028","name":"Ibbenbüren, Stadt","type":"Stadt"},"district":{"key":"05566","name":"Steinfurt","type":"Kreis"},"federalState":{"key":"05","name":"Nordrhein-Westfalen"}},{"name":"Iltisweg","postalCode":"49479","locality":"Ibbenbüren","municipality":{"key":"05566028","name":"Ibbenbüren, Stadt","type":"Stadt"},"district":{"key":"05566","name":"Steinfurt","type":"Kreis"},"federalState":{"key":"05","name":"Nordrhein-Westfalen"}},{"name":"Im Hilgen Feld","postalCode":"49479","locality":"Ibbenbüren","municipality":{"key":"05566028","name":"Ibbenbüren, Stadt","type":"Stadt"},"district":{"key":"05566","name":"Steinfurt","type":"Kreis"},"federalState":{"key":"05","name":"Nordrhein-Westfalen"}},{"name":"Im Langewieser Esch","postalCode":"49477","locality":"Ibbenbüren","municipality":{"key":"05566028","name":"Ibbenbüren, Stadt","type":"Stadt"},"district":{"key":"05566","name":"Steinfurt","type":"Kreis"},"federalState":{"key":"05","name":"Nordrhein-Westfalen"}},{"name":"Im Streb","postalCode":"49477","locality":"Ibbenbüren","municipality":{"key":"05566028","name":"Ibbenbüren, Stadt","type":"Stadt"},"district":{"key":"05566","name":"Steinfurt","type":"Kreis"},"federalState":{"key":"05","name":"Nordrhein-Westfalen"}},{"name":"Im Venn","postalCode":"49479","locality":"Ibbenbüren","municipality":{"key":"05566028","name":"Ibbenbüren, Stadt","type":"Stadt"},"district":{"key":"05566","name":"Steinfurt","type":"Kreis"},"federalState":{"key":"05","name":"Nordrhein-Westfalen"}},{"name":"In der Garte","postalCode":"49479","locality":"Ibbenbüren","municipality":{"key":"05566028","name":"Ibbenbüren, Stadt","type":"Stadt"},"district":{"key":"05566","name":"Steinfurt","type":"Kreis"},"federalState":{"key":"05","name":"Nordrhein-Westfalen"}},{"name":"In der Nordfeldmark","postalCode":"49477","locality":"Ibbenbüren","municipality":{"key":"05566028","name":"Ibbenbüren, Stadt","type":"Stadt"},"district":{"key":"05566","name":"Steinfurt","type":"Kreis"},"federalState":{"key":"05","name":"Nordrhein-Westfalen"}},{"name":"In der Ostfeldmark","postalCode":"49477","locality":"Ibbenbüren","municipality":{"key":"05566028","name":"Ibbenbüren, Stadt","type":"Stadt"},"district":{"key":"05566","name":"Steinfurt","type":"Kreis"},"federalState":{"key":"05","name":"Nordrhein-Westfalen"}},{"name":"In der Südfeldmark","postalCode":"49479","locality":"Ibbenbüren","municipality":{"key":"05566028","name":"Ibbenbüren, Stadt","type":"Stadt"},"district":{"key":"05566","name":"Steinfurt","type":"Kreis"},"federalState":{"key":"05","name":"Nordrhein-Westfalen"}},{"name":"In der Westfeldmark","postalCode":"49477","locality":"Ibbenbüren","municipality":{"key":"05566028","name":"Ibbenbüren, Stadt","type":"Stadt"},"district":{"key":"05566","name":"Steinfurt","type":"Kreis"},"federalState":{"key":"05","name":"Nordrhein-Westfalen"}},{"name":"Isaak-Winkler-Weg","postalCode":"49477","locality":"Ibbenbüren","municipality":{"key":"05566028","name":"Ibbenbüren, Stadt","type":"Stadt"},"district":{"key":"05566","name":"Steinfurt","type":"Kreis"},"federalState":{"key":"05","name":"Nordrhein-Westfalen"}},{"name":"Jagdgrund","postalCode":"49479","locality":"Ibbenbüren","municipality":{"key":"05566028","name":"Ibbenbüren, Stadt","type":"Stadt"},"district":{"key":"05566","name":"Steinfurt","type":"Kreis"},"federalState":{"key":"05","name":"Nordrhein-Westfalen"}},{"name":"Jägerstr.","postalCode":"49479","locality":"Ibbenbüren","municipality":{"key":"05566028","name":"Ibbenbüren, Stadt","type":"Stadt"},"district":{"key":"05566","name":"Steinfurt","type":"Kreis"},"federalState":{"key":"05","name":"Nordrhein-Westfalen"}},{"name":"Jahnstr.","postalCode":"49479","locality":"Ibbenbüren","municipality":{"key":"05566028","name":"Ibbenbüren, Stadt","type":"Stadt"},"district":{"key":"05566","name":"Steinfurt","type":"Kreis"},"federalState":{"key":"05","name":"Nordrhein-Westfalen"}},{"name":"Jenaer Str.","postalCode":"49479","locality":"Ibbenbüren","municipality":{"key":"05566028","name":"Ibbenbüren, Stadt","type":"Stadt"},"district":{"key":"05566","name":"Steinfurt","type":"Kreis"},"federalState":{"key":"05","name":"Nordrhein-Westfalen"}},{"name":"Johannesstr.","postalCode":"49477","locality":"Ibbenbüren","municipality":{"key":"05566028","name":"Ibbenbüren, Stadt","type":"Stadt"},"district":{"key":"05566","name":"Steinfurt","type":"Kreis"},"federalState":{"key":"05","name":"Nordrhein-Westfalen"}},{"name":"Jordanstr.","postalCode":"49479","locality":"Ibbenbüren","municipality":{"key":"05566028","name":"Ibbenbüren, Stadt","type":"Stadt"},"district":{"key":"05566","name":"Steinfurt","type":"Kreis"},"federalState":{"key":"05","name":"Nordrhein-Westfalen"}},{"name":"Jorindeweg","postalCode":"49479","locality":"Ibbenbüren","municipality":{"key":"05566028","name":"Ibbenbüren, Stadt","type":"Stadt"},"district":{"key":"05566","name":"Steinfurt","type":"Kreis"},"federalState":{"key":"05","name":"Nordrhein-Westfalen"}},{"name":"Josefshöhe","postalCode":"49479","locality":"Ibbenbüren","municipality":{"key":"05566028","name":"Ibbenbüren, Stadt","type":"Stadt"},"district":{"key":"05566","name":"Steinfurt","type":"Kreis"},"federalState":{"key":"05","name":"Nordrhein-Westfalen"}},{"name":"Josefstiftgasse","postalCode":"49477","locality":"Ibbenbüren","municipality":{"key":"05566028","name":"Ibbenbüren, Stadt","type":"Stadt"},"district":{"key":"05566","name":"Steinfurt","type":"Kreis"},"federalState":{"key":"05","name":"Nordrhein-Westfalen"}},{"name":"Kampstr.","postalCode":"49477","locality":"Ibbenbüren","municipality":{"key":"05566028","name":"Ibbenbüren, Stadt","type":"Stadt"},"district":{"key":"05566","name":"Steinfurt","type":"Kreis"},"federalState":{"key":"05","name":"Nordrhein-Westfalen"}},{"name":"Kanalstr.","postalCode":"49477","locality":"Ibbenbüren","municipality":{"key":"05566028","name":"Ibbenbüren, Stadt","type":"Stadt"},"district":{"key":"05566","name":"Steinfurt","type":"Kreis"},"federalState":{"key":"05","name":"Nordrhein-Westfalen"}},{"name":"Kantweg","postalCode":"49479","locality":"Ibbenbüren","municipality":{"key":"05566028","name":"Ibbenbüren, Stadt","type":"Stadt"},"district":{"key":"05566","name":"Steinfurt","type":"Kreis"},"federalState":{"key":"05","name":"Nordrhein-Westfalen"}},{"name":"Kastanienweg","postalCode":"49479","locality":"Ibbenbüren","municipality":{"key":"05566028","name":"Ibbenbüren, Stadt","type":"Stadt"},"district":{"key":"05566","name":"Steinfurt","type":"Kreis"},"federalState":{"key":"05","name":"Nordrhein-Westfalen"}},{"name":"Käthe-Kollwitz-Str.","postalCode":"49479","locality":"Ibbenbüren","municipality":{"key":"05566028","name":"Ibbenbüren, Stadt","type":"Stadt"},"district":{"key":"05566","name":"Steinfurt","type":"Kreis"},"federalState":{"key":"05","name":"Nordrhein-Westfalen"}},{"name":"Kattwinkelstr.","postalCode":"49479","locality":"Ibbenbüren","municipality":{"key":"05566028","name":"Ibbenbüren, Stadt","type":"Stadt"},"district":{"key":"05566","name":"Steinfurt","type":"Kreis"},"federalState":{"key":"05","name":"Nordrhein-Westfalen"}},{"name":"Keilhaue","postalCode":"49477","locality":"Ibbenbüren","municipality":{"key":"05566028","name":"Ibbenbüren, Stadt","type":"Stadt"},"district":{"key":"05566","name":"Steinfurt","type":"Kreis"},"federalState":{"key":"05","name":"Nordrhein-Westfalen"}},{"name":"Keplerstr.","postalCode":"49477","locality":"Ibbenbüren","municipality":{"key":"05566028","name":"Ibbenbüren, Stadt","type":"Stadt"},"district":{"key":"05566","name":"Steinfurt","type":"Kreis"},"federalState":{"key":"05","name":"Nordrhein-Westfalen"}},{"name":"Keplerstr.","postalCode":"49479","locality":"Ibbenbüren","municipality":{"key":"05566028","name":"Ibbenbüren, Stadt","type":"Stadt"},"district":{"key":"05566","name":"Steinfurt","type":"Kreis"},"federalState":{"key":"05","name":"Nordrhein-Westfalen"}},{"name":"Kiebitzgrund","postalCode":"49477","locality":"Ibbenbüren","municipality":{"key":"05566028","name":"Ibbenbüren, Stadt","type":"Stadt"},"district":{"key":"05566","name":"Steinfurt","type":"Kreis"},"federalState":{"key":"05","name":"Nordrhein-Westfalen"}},{"name":"Kiefernweg","postalCode":"49477","locality":"Ibbenbüren","municipality":{"key":"05566028","name":"Ibbenbüren, Stadt","type":"Stadt"},"district":{"key":"05566","name":"Steinfurt","type":"Kreis"},"federalState":{"key":"05","name":"Nordrhein-Westfalen"}},{"name":"Kiesweg","postalCode":"49479","locality":"Ibbenbüren","municipality":{"key":"05566028","name":"Ibbenbüren, Stadt","type":"Stadt"},"district":{"key":"05566","name":"Steinfurt","type":"Kreis"},"federalState":{"key":"05","name":"Nordrhein-Westfalen"}},{"name":"Kirchstr.","postalCode":"49479","locality":"Ibbenbüren","municipality":{"key":"05566028","name":"Ibbenbüren, Stadt","type":"Stadt"},"district":{"key":"05566","name":"Steinfurt","type":"Kreis"},"federalState":{"key":"05","name":"Nordrhein-Westfalen"}},{"name":"Kleekamp","postalCode":"49479","locality":"Ibbenbüren","municipality":{"key":"05566028","name":"Ibbenbüren, Stadt","type":"Stadt"},"district":{"key":"05566","name":"Steinfurt","type":"Kreis"},"federalState":{"key":"05","name":"Nordrhein-Westfalen"}},{"name":"Kleimannstr.","postalCode":"49479","locality":"Ibbenbüren","municipality":{"key":"05566028","name":"Ibbenbüren, Stadt","type":"Stadt"},"district":{"key":"05566","name":"Steinfurt","type":"Kreis"},"federalState":{"key":"05","name":"Nordrhein-Westfalen"}},{"name":"Klostergasse","postalCode":"49477","locality":"Ibbenbüren","municipality":{"key":"05566028","name":"Ibbenbüren, Stadt","type":"Stadt"},"district":{"key":"05566","name":"Steinfurt","type":"Kreis"},"federalState":{"key":"05","name":"Nordrhein-Westfalen"}},{"name":"Klosterstr.","postalCode":"49477","locality":"Ibbenbüren","municipality":{"key":"05566028","name":"Ibbenbüren, Stadt","type":"Stadt"},"district":{"key":"05566","name":"Steinfurt","type":"Kreis"},"federalState":{"key":"05","name":"Nordrhein-Westfalen"}},{"name":"Knappenstr.","postalCode":"49479","locality":"Ibbenbüren","municipality":{"key":"05566028","name":"Ibbenbüren, Stadt","type":"Stadt"},"district":{"key":"05566","name":"Steinfurt","type":"Kreis"},"federalState":{"key":"05","name":"Nordrhein-Westfalen"}},{"name":"Köllersweg","postalCode":"49479","locality":"Ibbenbüren","municipality":{"key":"05566028","name":"Ibbenbüren, Stadt","type":"Stadt"},"district":{"key":"05566","name":"Steinfurt","type":"Kreis"},"federalState":{"key":"05","name":"Nordrhein-Westfalen"}},{"name":"Königsberger Str.","postalCode":"49477","locality":"Ibbenbüren","municipality":{"key":"05566028","name":"Ibbenbüren, Stadt","type":"Stadt"},"district":{"key":"05566","name":"Steinfurt","type":"Kreis"},"federalState":{"key":"05","name":"Nordrhein-Westfalen"}},{"name":"Kornstr.","postalCode":"49477","locality":"Ibbenbüren","municipality":{"key":"05566028","name":"Ibbenbüren, Stadt","type":"Stadt"},"district":{"key":"05566","name":"Steinfurt","type":"Kreis"},"federalState":{"key":"05","name":"Nordrhein-Westfalen"}},{"name":"Köthener Str.","postalCode":"49479","locality":"Ibbenbüren","municipality":{"key":"05566028","name":"Ibbenbüren, Stadt","type":"Stadt"},"district":{"key":"05566","name":"Steinfurt","type":"Kreis"},"federalState":{"key":"05","name":"Nordrhein-Westfalen"}},{"name":"Kötterstr.","postalCode":"49479","locality":"Ibbenbüren","municipality":{"key":"05566028","name":"Ibbenbüren, Stadt","type":"Stadt"},"district":{"key":"05566","name":"Steinfurt","type":"Kreis"},"federalState":{"key":"05","name":"Nordrhein-Westfalen"}},{"name":"Kraneburg","postalCode":"49479","locality":"Ibbenbüren","municipality":{"key":"05566028","name":"Ibbenbüren, Stadt","type":"Stadt"},"district":{"key":"05566","name":"Steinfurt","type":"Kreis"},"federalState":{"key":"05","name":"Nordrhein-Westfalen"}},{"name":"Kranichweg","postalCode":"49479","locality":"Ibbenbüren","municipality":{"key":"05566028","name":"Ibbenbüren, Stadt","type":"Stadt"},"district":{"key":"05566","name":"Steinfurt","type":"Kreis"},"federalState":{"key":"05","name":"Nordrhein-Westfalen"}},{"name":"Kriemhildstr.","postalCode":"49479","locality":"Ibbenbüren","municipality":{"key":"05566028","name":"Ibbenbüren, Stadt","type":"Stadt"},"district":{"key":"05566","name":"Steinfurt","type":"Kreis"},"federalState":{"key":"05","name":"Nordrhein-Westfalen"}},{"name":"Krokusweg","postalCode":"49479","locality":"Ibbenbüren","municipality":{"key":"05566028","name":"Ibbenbüren, Stadt","type":"Stadt"},"district":{"key":"05566","name":"Steinfurt","type":"Kreis"},"federalState":{"key":"05","name":"Nordrhein-Westfalen"}},{"name":"Kronenburg","postalCode":"49479","locality":"Ibbenbüren","municipality":{"key":"05566028","name":"Ibbenbüren, Stadt","type":"Stadt"},"district":{"key":"05566","name":"Steinfurt","type":"Kreis"},"federalState":{"key":"05","name":"Nordrhein-Westfalen"}},{"name":"Krummacherstr.","postalCode":"49477","locality":"Ibbenbüren","municipality":{"key":"05566028","name":"Ibbenbüren, Stadt","type":"Stadt"},"district":{"key":"05566","name":"Steinfurt","type":"Kreis"},"federalState":{"key":"05","name":"Nordrhein-Westfalen"}},{"name":"Kuckucksweg","postalCode":"49477","locality":"Ibbenbüren","municipality":{"key":"05566028","name":"Ibbenbüren, Stadt","type":"Stadt"},"district":{"key":"05566","name":"Steinfurt","type":"Kreis"},"federalState":{"key":"05","name":"Nordrhein-Westfalen"}},{"name":"Kurze Str.","postalCode":"49477","locality":"Ibbenbüren","municipality":{"key":"05566028","name":"Ibbenbüren, Stadt","type":"Stadt"},"district":{"key":"05566","name":"Steinfurt","type":"Kreis"},"federalState":{"key":"05","name":"Nordrhein-Westfalen"}},{"name":"Lachsweg","postalCode":"49479","locality":"Ibbenbüren","municipality":{"key":"05566028","name":"Ibbenbüren, Stadt","type":"Stadt"},"district":{"key":"05566","name":"Steinfurt","type":"Kreis"},"federalState":{"key":"05","name":"Nordrhein-Westfalen"}},{"name":"Laggenbecker Str.","postalCode":"49477","locality":"Ibbenbüren","municipality":{"key":"05566028","name":"Ibbenbüren, Stadt","type":"Stadt"},"district":{"key":"05566","name":"Steinfurt","type":"Kreis"},"federalState":{"key":"05","name":"Nordrhein-Westfalen"}},{"name":"Laggenbecker Str.","postalCode":"49479","locality":"Ibbenbüren","municipality":{"key":"05566028","name":"Ibbenbüren, Stadt","type":"Stadt"},"district":{"key":"05566","name":"Steinfurt","type":"Kreis"},"federalState":{"key":"05","name":"Nordrhein-Westfalen"}},{"name":"Langeholz","postalCode":"49479","locality":"Ibbenbüren","municipality":{"key":"05566028","name":"Ibbenbüren, Stadt","type":"Stadt"},"district":{"key":"05566","name":"Steinfurt","type":"Kreis"},"federalState":{"key":"05","name":"Nordrhein-Westfalen"}},{"name":"Lausen-Martin-Gasse","postalCode":"49477","locality":"Ibbenbüren","municipality":{"key":"05566028","name":"Ibbenbüren, Stadt","type":"Stadt"},"district":{"key":"05566","name":"Steinfurt","type":"Kreis"},"federalState":{"key":"05","name":"Nordrhein-Westfalen"}},{"name":"Lausitzweg","postalCode":"49477","locality":"Ibbenbüren","municipality":{"key":"05566028","name":"Ibbenbüren, Stadt","type":"Stadt"},"district":{"key":"05566","name":"Steinfurt","type":"Kreis"},"federalState":{"key":"05","name":"Nordrhein-Westfalen"}},{"name":"Lauweg","postalCode":"49479","locality":"Ibbenbüren","municipality":{"key":"05566028","name":"Ibbenbüren, Stadt","type":"Stadt"},"district":{"key":"05566","name":"Steinfurt","type":"Kreis"},"federalState":{"key":"05","name":"Nordrhein-Westfalen"}},{"name":"Lavendelweg","postalCode":"49477","locality":"Ibbenbüren","municipality":{"key":"05566028","name":"Ibbenbüren, Stadt","type":"Stadt"},"district":{"key":"05566","name":"Steinfurt","type":"Kreis"},"federalState":{"key":"05","name":"Nordrhein-Westfalen"}},{"name":"Ledder Str.","postalCode":"49477","locality":"Ibbenbüren","municipality":{"key":"05566028","name":"Ibbenbüren, Stadt","type":"Stadt"},"district":{"key":"05566","name":"Steinfurt","type":"Kreis"},"federalState":{"key":"05","name":"Nordrhein-Westfalen"}},{"name":"Ledder Str.","postalCode":"49479","locality":"Ibbenbüren","municipality":{"key":"05566028","name":"Ibbenbüren, Stadt","type":"Stadt"},"district":{"key":"05566","name":"Steinfurt","type":"Kreis"},"federalState":{"key":"05","name":"Nordrhein-Westfalen"}},{"name":"Lehener Esch","postalCode":"49479","locality":"Ibbenbüren","municipality":{"key":"05566028","name":"Ibbenbüren, Stadt","type":"Stadt"},"district":{"key":"05566","name":"Steinfurt","type":"Kreis"},"federalState":{"key":"05","name":"Nordrhein-Westfalen"}},{"name":"Lehrer-Lämpel-Weg","postalCode":"49479","locality":"Ibbenbüren","municipality":{"key":"05566028","name":"Ibbenbüren, Stadt","type":"Stadt"},"district":{"key":"05566","name":"Steinfurt","type":"Kreis"},"federalState":{"key":"05","name":"Nordrhein-Westfalen"}},{"name":"Leibnizweg","postalCode":"49479","locality":"Ibbenbüren","municipality":{"key":"05566028","name":"Ibbenbüren, Stadt","type":"Stadt"},"district":{"key":"05566","name":"Steinfurt","type":"Kreis"},"federalState":{"key":"05","name":"Nordrhein-Westfalen"}},{"name":"Leipziger Str.","postalCode":"49479","locality":"Ibbenbüren","municipality":{"key":"05566028","name":"Ibbenbüren, Stadt","type":"Stadt"},"district":{"key":"05566","name":"Steinfurt","type":"Kreis"},"federalState":{"key":"05","name":"Nordrhein-Westfalen"}},{"name":"Leischultenkamp","postalCode":"49477","locality":"Ibbenbüren","municipality":{"key":"05566028","name":"Ibbenbüren, Stadt","type":"Stadt"},"district":{"key":"05566","name":"Steinfurt","type":"Kreis"},"federalState":{"key":"05","name":"Nordrhein-Westfalen"}},{"name":"Lengericher Str.","postalCode":"49479","locality":"Ibbenbüren","municipality":{"key":"05566028","name":"Ibbenbüren, Stadt","type":"Stadt"},"district":{"key":"05566","name":"Steinfurt","type":"Kreis"},"federalState":{"key":"05","name":"Nordrhein-Westfalen"}},{"name":"Lessingstr.","postalCode":"49477","locality":"Ibbenbüren","municipality":{"key":"05566028","name":"Ibbenbüren, Stadt","type":"Stadt"},"district":{"key":"05566","name":"Steinfurt","type":"Kreis"},"federalState":{"key":"05","name":"Nordrhein-Westfalen"}},{"name":"Libellenweg","postalCode":"49479","locality":"Ibbenbüren","municipality":{"key":"05566028","name":"Ibbenbüren, Stadt","type":"Stadt"},"district":{"key":"05566","name":"Steinfurt","type":"Kreis"},"federalState":{"key":"05","name":"Nordrhein-Westfalen"}},{"name":"Liljenhof","postalCode":"49477","locality":"Ibbenbüren","municipality":{"key":"05566028","name":"Ibbenbüren, Stadt","type":"Stadt"},"district":{"key":"05566","name":"Steinfurt","type":"Kreis"},"federalState":{"key":"05","name":"Nordrhein-Westfalen"}},{"name":"Lindenstr.","postalCode":"49479","locality":"Ibbenbüren","municipality":{"key":"05566028","name":"Ibbenbüren, Stadt","type":"Stadt"},"district":{"key":"05566","name":"Steinfurt","type":"Kreis"},"federalState":{"key":"05","name":"Nordrhein-Westfalen"}},{"name":"Löchtweg","postalCode":"49479","locality":"Ibbenbüren","municipality":{"key":"05566028","name":"Ibbenbüren, Stadt","type":"Stadt"},"district":{"key":"05566","name":"Steinfurt","type":"Kreis"},"federalState":{"key":"05","name":"Nordrhein-Westfalen"}},{"name":"Lönsweg","postalCode":"49479","locality":"Ibbenbüren","municipality":{"key":"05566028","name":"Ibbenbüren, Stadt","type":"Stadt"},"district":{"key":"05566","name":"Steinfurt","type":"Kreis"},"federalState":{"key":"05","name":"Nordrhein-Westfalen"}},{"name":"Lorbeerweg","postalCode":"49477","locality":"Ibbenbüren","municipality":{"key":"05566028","name":"Ibbenbüren, Stadt","type":"Stadt"},"district":{"key":"05566","name":"Steinfurt","type":"Kreis"},"federalState":{"key":"05","name":"Nordrhein-Westfalen"}},{"name":"Lorenweg","postalCode":"49479","locality":"Ibbenbüren","municipality":{"key":"05566028","name":"Ibbenbüren, Stadt","type":"Stadt"},"district":{"key":"05566","name":"Steinfurt","type":"Kreis"},"federalState":{"key":"05","name":"Nordrhein-Westfalen"}},{"name":"Lortzingstr.","postalCode":"49477","locality":"Ibbenbüren","municipality":{"key":"05566028","name":"Ibbenbüren, Stadt","type":"Stadt"},"district":{"key":"05566","name":"Steinfurt","type":"Kreis"},"federalState":{"key":"05","name":"Nordrhein-Westfalen"}},{"name":"Lotsenweg","postalCode":"49479","locality":"Ibbenbüren","municipality":{"key":"05566028","name":"Ibbenbüren, Stadt","type":"Stadt"},"district":{"key":"05566","name":"Steinfurt","type":"Kreis"},"federalState":{"key":"05","name":"Nordrhein-Westfalen"}},{"name":"Ludgeriweg","postalCode":"49479","locality":"Ibbenbüren","municipality":{"key":"05566028","name":"Ibbenbüren, Stadt","type":"Stadt"},"district":{"key":"05566","name":"Steinfurt","type":"Kreis"},"federalState":{"key":"05","name":"Nordrhein-Westfalen"}},{"name":"Ludwigstr.","postalCode":"49479","locality":"Ibbenbüren","municipality":{"key":"05566028","name":"Ibbenbüren, Stadt","type":"Stadt"},"district":{"key":"05566","name":"Steinfurt","type":"Kreis"},"federalState":{"key":"05","name":"Nordrhein-Westfalen"}},{"name":"Lutherstr.","postalCode":"49477","locality":"Ibbenbüren","municipality":{"key":"05566028","name":"Ibbenbüren, Stadt","type":"Stadt"},"district":{"key":"05566","name":"Steinfurt","type":"Kreis"},"federalState":{"key":"05","name":"Nordrhein-Westfalen"}},{"name":"Magdeburger Str.","postalCode":"49479","locality":"Ibbenbüren","municipality":{"key":"05566028","name":"Ibbenbüren, Stadt","type":"Stadt"},"district":{"key":"05566","name":"Steinfurt","type":"Kreis"},"federalState":{"key":"05","name":"Nordrhein-Westfalen"}},{"name":"Mahlerstr.","postalCode":"49477","locality":"Ibbenbüren","municipality":{"key":"05566028","name":"Ibbenbüren, Stadt","type":"Stadt"},"district":{"key":"05566","name":"Steinfurt","type":"Kreis"},"federalState":{"key":"05","name":"Nordrhein-Westfalen"}},{"name":"Maisweg","postalCode":"49479","locality":"Ibbenbüren","municipality":{"key":"05566028","name":"Ibbenbüren, Stadt","type":"Stadt"},"district":{"key":"05566","name":"Steinfurt","type":"Kreis"},"federalState":{"key":"05","name":"Nordrhein-Westfalen"}},{"name":"Malvenweg","postalCode":"49477","locality":"Ibbenbüren","municipality":{"key":"05566028","name":"Ibbenbüren, Stadt","type":"Stadt"},"district":{"key":"05566","name":"Steinfurt","type":"Kreis"},"federalState":{"key":"05","name":"Nordrhein-Westfalen"}},{"name":"Maria-Montessori-Str.","postalCode":"49479","locality":"Ibbenbüren","municipality":{"key":"05566028","name":"Ibbenbüren, Stadt","type":"Stadt"},"district":{"key":"05566","name":"Steinfurt","type":"Kreis"},"federalState":{"key":"05","name":"Nordrhein-Westfalen"}},{"name":"Mauritiusstr.","postalCode":"49479","locality":"Ibbenbüren","municipality":{"key":"05566028","name":"Ibbenbüren, Stadt","type":"Stadt"},"district":{"key":"05566","name":"Steinfurt","type":"Kreis"},"federalState":{"key":"05","name":"Nordrhein-Westfalen"}},{"name":"Maybachstr.","postalCode":"49479","locality":"Ibbenbüren","municipality":{"key":"05566028","name":"Ibbenbüren, Stadt","type":"Stadt"},"district":{"key":"05566","name":"Steinfurt","type":"Kreis"},"federalState":{"key":"05","name":"Nordrhein-Westfalen"}},{"name":"Meisenweg","postalCode":"49477","locality":"Ibbenbüren","municipality":{"key":"05566028","name":"Ibbenbüren, Stadt","type":"Stadt"},"district":{"key":"05566","name":"Steinfurt","type":"Kreis"},"federalState":{"key":"05","name":"Nordrhein-Westfalen"}},{"name":"Meißener Str.","postalCode":"49479","locality":"Ibbenbüren","municipality":{"key":"05566028","name":"Ibbenbüren, Stadt","type":"Stadt"},"district":{"key":"05566","name":"Steinfurt","type":"Kreis"},"federalState":{"key":"05","name":"Nordrhein-Westfalen"}},{"name":"Memelweg","postalCode":"49477","locality":"Ibbenbüren","municipality":{"key":"05566028","name":"Ibbenbüren, Stadt","type":"Stadt"},"district":{"key":"05566","name":"Steinfurt","type":"Kreis"},"federalState":{"key":"05","name":"Nordrhein-Westfalen"}},{"name":"Menzelstr.","postalCode":"49477","locality":"Ibbenbüren","municipality":{"key":"05566028","name":"Ibbenbüren, Stadt","type":"Stadt"},"district":{"key":"05566","name":"Steinfurt","type":"Kreis"},"federalState":{"key":"05","name":"Nordrhein-Westfalen"}},{"name":"Merschweg","postalCode":"49477","locality":"Ibbenbüren","municipality":{"key":"05566028","name":"Ibbenbüren, Stadt","type":"Stadt"},"district":{"key":"05566","name":"Steinfurt","type":"Kreis"},"federalState":{"key":"05","name":"Nordrhein-Westfalen"}},{"name":"Merschwiese","postalCode":"49477","locality":"Ibbenbüren","municipality":{"key":"05566028","name":"Ibbenbüren, Stadt","type":"Stadt"},"district":{"key":"05566","name":"Steinfurt","type":"Kreis"},"federalState":{"key":"05","name":"Nordrhein-Westfalen"}},{"name":"Merseburger Str.","postalCode":"49479","locality":"Ibbenbüren","municipality":{"key":"05566028","name":"Ibbenbüren, Stadt","type":"Stadt"},"district":{"key":"05566","name":"Steinfurt","type":"Kreis"},"federalState":{"key":"05","name":"Nordrhein-Westfalen"}},{"name":"Mettebrink","postalCode":"49479","locality":"Ibbenbüren","municipality":{"key":"05566028","name":"Ibbenbüren, Stadt","type":"Stadt"},"district":{"key":"05566","name":"Steinfurt","type":"Kreis"},"federalState":{"key":"05","name":"Nordrhein-Westfalen"}},{"name":"Mettinger Str.","postalCode":"49479","locality":"Ibbenbüren","municipality":{"key":"05566028","name":"Ibbenbüren, Stadt","type":"Stadt"},"district":{"key":"05566","name":"Steinfurt","type":"Kreis"},"federalState":{"key":"05","name":"Nordrhein-Westfalen"}},{"name":"Meyringstr.","postalCode":"49479","locality":"Ibbenbüren","municipality":{"key":"05566028","name":"Ibbenbüren, Stadt","type":"Stadt"},"district":{"key":"05566","name":"Steinfurt","type":"Kreis"},"federalState":{"key":"05","name":"Nordrhein-Westfalen"}},{"name":"Michaelstr.","postalCode":"49477","locality":"Ibbenbüren","municipality":{"key":"05566028","name":"Ibbenbüren, Stadt","type":"Stadt"},"district":{"key":"05566","name":"Steinfurt","type":"Kreis"},"federalState":{"key":"05","name":"Nordrhein-Westfalen"}},{"name":"Michaelstr.","postalCode":"49479","locality":"Ibbenbüren","municipality":{"key":"05566028","name":"Ibbenbüren, Stadt","type":"Stadt"},"district":{"key":"05566","name":"Steinfurt","type":"Kreis"},"federalState":{"key":"05","name":"Nordrhein-Westfalen"}},{"name":"Mittelstr.","postalCode":"49477","locality":"Ibbenbüren","municipality":{"key":"05566028","name":"Ibbenbüren, Stadt","type":"Stadt"},"district":{"key":"05566","name":"Steinfurt","type":"Kreis"},"federalState":{"key":"05","name":"Nordrhein-Westfalen"}},{"name":"Mörikestr.","postalCode":"49479","locality":"Ibbenbüren","municipality":{"key":"05566028","name":"Ibbenbüren, Stadt","type":"Stadt"},"district":{"key":"05566","name":"Steinfurt","type":"Kreis"},"federalState":{"key":"05","name":"Nordrhein-Westfalen"}},{"name":"Mozartstr.","postalCode":"49477","locality":"Ibbenbüren","municipality":{"key":"05566028","name":"Ibbenbüren, Stadt","type":"Stadt"},"district":{"key":"05566","name":"Steinfurt","type":"Kreis"},"federalState":{"key":"05","name":"Nordrhein-Westfalen"}},{"name":"Mühlengrube","postalCode":"49477","locality":"Ibbenbüren","municipality":{"key":"05566028","name":"Ibbenbüren, Stadt","type":"Stadt"},"district":{"key":"05566","name":"Steinfurt","type":"Kreis"},"federalState":{"key":"05","name":"Nordrhein-Westfalen"}},{"name":"Mühlenweg","postalCode":"49477","locality":"Ibbenbüren","municipality":{"key":"05566028","name":"Ibbenbüren, Stadt","type":"Stadt"},"district":{"key":"05566","name":"Steinfurt","type":"Kreis"},"federalState":{"key":"05","name":"Nordrhein-Westfalen"}},{"name":"Mühlenweg","postalCode":"49479","locality":"Ibbenbüren","municipality":{"key":"05566028","name":"Ibbenbüren, Stadt","type":"Stadt"},"district":{"key":"05566","name":"Steinfurt","type":"Kreis"},"federalState":{"key":"05","name":"Nordrhein-Westfalen"}},{"name":"Münsterlandweg","postalCode":"49477","locality":"Ibbenbüren","municipality":{"key":"05566028","name":"Ibbenbüren, Stadt","type":"Stadt"},"district":{"key":"05566","name":"Steinfurt","type":"Kreis"},"federalState":{"key":"05","name":"Nordrhein-Westfalen"}},{"name":"Münsterstr.","postalCode":"49477","locality":"Ibbenbüren","municipality":{"key":"05566028","name":"Ibbenbüren, Stadt","type":"Stadt"},"district":{"key":"05566","name":"Steinfurt","type":"Kreis"},"federalState":{"key":"05","name":"Nordrhein-Westfalen"}},{"name":"Münsterstr.","postalCode":"49479","locality":"Ibbenbüren","municipality":{"key":"05566028","name":"Ibbenbüren, Stadt","type":"Stadt"},"district":{"key":"05566","name":"Steinfurt","type":"Kreis"},"federalState":{"key":"05","name":"Nordrhein-Westfalen"}},{"name":"NaturaGart Landschafts- und Tauchpark","postalCode":"49479","locality":"Ibbenbüren","municipality":{"key":"05566028","name":"Ibbenbüren, Stadt","type":"Stadt"},"district":{"key":"05566","name":"Steinfurt","type":"Kreis"},"federalState":{"key":"05","name":"Nordrhein-Westfalen"}},{"name":"Naumannstr.","postalCode":"49477","locality":"Ibbenbüren","municipality":{"key":"05566028","name":"Ibbenbüren, Stadt","type":"Stadt"},"district":{"key":"05566","name":"Steinfurt","type":"Kreis"},"federalState":{"key":"05","name":"Nordrhein-Westfalen"}},{"name":"Nelkenstr.","postalCode":"49477","locality":"Ibbenbüren","municipality":{"key":"05566028","name":"Ibbenbüren, Stadt","type":"Stadt"},"district":{"key":"05566","name":"Steinfurt","type":"Kreis"},"federalState":{"key":"05","name":"Nordrhein-Westfalen"}},{"name":"Nelly-Sachs-Str.","postalCode":"49479","locality":"Ibbenbüren","municipality":{"key":"05566028","name":"Ibbenbüren, Stadt","type":"Stadt"},"district":{"key":"05566","name":"Steinfurt","type":"Kreis"},"federalState":{"key":"05","name":"Nordrhein-Westfalen"}},{"name":"Neue Bockradener Str.","postalCode":"49477","locality":"Ibbenbüren","municipality":{"key":"05566028","name":"Ibbenbüren, Stadt","type":"Stadt"},"district":{"key":"05566","name":"Steinfurt","type":"Kreis"},"federalState":{"key":"05","name":"Nordrhein-Westfalen"}},{"name":"Neuentheilerstr.","postalCode":"49477","locality":"Ibbenbüren","municipality":{"key":"05566028","name":"Ibbenbüren, Stadt","type":"Stadt"},"district":{"key":"05566","name":"Steinfurt","type":"Kreis"},"federalState":{"key":"05","name":"Nordrhein-Westfalen"}},{"name":"Neumarkt","postalCode":"49477","locality":"Ibbenbüren","municipality":{"key":"05566028","name":"Ibbenbüren, Stadt","type":"Stadt"},"district":{"key":"05566","name":"Steinfurt","type":"Kreis"},"federalState":{"key":"05","name":"Nordrhein-Westfalen"}},{"name":"Neusalzer Str.","postalCode":"49479","locality":"Ibbenbüren","municipality":{"key":"05566028","name":"Ibbenbüren, Stadt","type":"Stadt"},"district":{"key":"05566","name":"Steinfurt","type":"Kreis"},"federalState":{"key":"05","name":"Nordrhein-Westfalen"}},{"name":"Neustr.","postalCode":"49477","locality":"Ibbenbüren","municipality":{"key":"05566028","name":"Ibbenbüren, Stadt","type":"Stadt"},"district":{"key":"05566","name":"Steinfurt","type":"Kreis"},"federalState":{"key":"05","name":"Nordrhein-Westfalen"}},{"name":"Nibelungenberg","postalCode":"49479","locality":"Ibbenbüren","municipality":{"key":"05566028","name":"Ibbenbüren, Stadt","type":"Stadt"},"district":{"key":"05566","name":"Steinfurt","type":"Kreis"},"federalState":{"key":"05","name":"Nordrhein-Westfalen"}},{"name":"Niedersachsenring","postalCode":"49477","locality":"Ibbenbüren","municipality":{"key":"05566028","name":"Ibbenbüren, Stadt","type":"Stadt"},"district":{"key":"05566","name":"Steinfurt","type":"Kreis"},"federalState":{"key":"05","name":"Nordrhein-Westfalen"}},{"name":"Nienkamp","postalCode":"49477","locality":"Ibbenbüren","municipality":{"key":"05566028","name":"Ibbenbüren, Stadt","type":"Stadt"},"district":{"key":"05566","name":"Steinfurt","type":"Kreis"},"federalState":{"key":"05","name":"Nordrhein-Westfalen"}},{"name":"Nikestr.","postalCode":"49477","locality":"Ibbenbüren","municipality":{"key":"05566028","name":"Ibbenbüren, Stadt","type":"Stadt"},"district":{"key":"05566","name":"Steinfurt","type":"Kreis"},"federalState":{"key":"05","name":"Nordrhein-Westfalen"}},{"name":"Noltengängesken","postalCode":"49477","locality":"Ibbenbüren","municipality":{"key":"05566028","name":"Ibbenbüren, Stadt","type":"Stadt"},"district":{"key":"05566","name":"Steinfurt","type":"Kreis"},"federalState":{"key":"05","name":"Nordrhein-Westfalen"}},{"name":"Nordbahnstr.","postalCode":"49479","locality":"Ibbenbüren","municipality":{"key":"05566028","name":"Ibbenbüren, Stadt","type":"Stadt"},"district":{"key":"05566","name":"Steinfurt","type":"Kreis"},"federalState":{"key":"05","name":"Nordrhein-Westfalen"}},{"name":"Nordstr.","postalCode":"49477","locality":"Ibbenbüren","municipality":{"key":"05566028","name":"Ibbenbüren, Stadt","type":"Stadt"},"district":{"key":"05566","name":"Steinfurt","type":"Kreis"},"federalState":{"key":"05","name":"Nordrhein-Westfalen"}},{"name":"Nordwestweg","postalCode":"49477","locality":"Ibbenbüren","municipality":{"key":"05566028","name":"Ibbenbüren, Stadt","type":"Stadt"},"district":{"key":"05566","name":"Steinfurt","type":"Kreis"},"federalState":{"key":"05","name":"Nordrhein-Westfalen"}},{"name":"Nordwestweg","postalCode":"49479","locality":"Ibbenbüren","municipality":{"key":"05566028","name":"Ibbenbüren, Stadt","type":"Stadt"},"district":{"key":"05566","name":"Steinfurt","type":"Kreis"},"federalState":{"key":"05","name":"Nordrhein-Westfalen"}},{"name":"Oberster Esch","postalCode":"49479","locality":"Ibbenbüren","municipality":{"key":"05566028","name":"Ibbenbüren, Stadt","type":"Stadt"},"district":{"key":"05566","name":"Steinfurt","type":"Kreis"},"federalState":{"key":"05","name":"Nordrhein-Westfalen"}},{"name":"Ockerweg","postalCode":"49479","locality":"Ibbenbüren","municipality":{"key":"05566028","name":"Ibbenbüren, Stadt","type":"Stadt"},"district":{"key":"05566","name":"Steinfurt","type":"Kreis"},"federalState":{"key":"05","name":"Nordrhein-Westfalen"}},{"name":"Oderstr.","postalCode":"49479","locality":"Ibbenbüren","municipality":{"key":"05566028","name":"Ibbenbüren, Stadt","type":"Stadt"},"district":{"key":"05566","name":"Steinfurt","type":"Kreis"},"federalState":{"key":"05","name":"Nordrhein-Westfalen"}},{"name":"Oelmühlenstr.","postalCode":"49479","locality":"Ibbenbüren","municipality":{"key":"05566028","name":"Ibbenbüren, Stadt","type":"Stadt"},"district":{"key":"05566","name":"Steinfurt","type":"Kreis"},"federalState":{"key":"05","name":"Nordrhein-Westfalen"}},{"name":"Oeynhausenstr.","postalCode":"49477","locality":"Ibbenbüren","municipality":{"key":"05566028","name":"Ibbenbüren, Stadt","type":"Stadt"},"district":{"key":"05566","name":"Steinfurt","type":"Kreis"},"federalState":{"key":"05","name":"Nordrhein-Westfalen"}},{"name":"Offenbachstr.","postalCode":"49477","locality":"Ibbenbüren","municipality":{"key":"05566028","name":"Ibbenbüren, Stadt","type":"Stadt"},"district":{"key":"05566","name":"Steinfurt","type":"Kreis"},"federalState":{"key":"05","name":"Nordrhein-Westfalen"}},{"name":"Okereistr.","postalCode":"49479","locality":"Ibbenbüren","municipality":{"key":"05566028","name":"Ibbenbüren, Stadt","type":"Stadt"},"district":{"key":"05566","name":"Steinfurt","type":"Kreis"},"federalState":{"key":"05","name":"Nordrhein-Westfalen"}},{"name":"Oranienweg","postalCode":"49479","locality":"Ibbenbüren","municipality":{"key":"05566028","name":"Ibbenbüren, Stadt","type":"Stadt"},"district":{"key":"05566","name":"Steinfurt","type":"Kreis"},"federalState":{"key":"05","name":"Nordrhein-Westfalen"}},{"name":"Osnabrücker Str.","postalCode":"49477","locality":"Ibbenbüren","municipality":{"key":"05566028","name":"Ibbenbüren, Stadt","type":"Stadt"},"district":{"key":"05566","name":"Steinfurt","type":"Kreis"},"federalState":{"key":"05","name":"Nordrhein-Westfalen"}},{"name":"Osnabrücker Str.","postalCode":"49479","locality":"Ibbenbüren","municipality":{"key":"05566028","name":"Ibbenbüren, Stadt","type":"Stadt"},"district":{"key":"05566","name":"Steinfurt","type":"Kreis"},"federalState":{"key":"05","name":"Nordrhein-Westfalen"}},{"name":"Osningstr.","postalCode":"49477","locality":"Ibbenbüren","municipality":{"key":"05566028","name":"Ibbenbüren, Stadt","type":"Stadt"},"district":{"key":"05566","name":"Steinfurt","type":"Kreis"},"federalState":{"key":"05","name":"Nordrhein-Westfalen"}},{"name":"Ostenwalder Str.","postalCode":"49479","locality":"Ibbenbüren","municipality":{"key":"05566028","name":"Ibbenbüren, Stadt","type":"Stadt"},"district":{"key":"05566","name":"Steinfurt","type":"Kreis"},"federalState":{"key":"05","name":"Nordrhein-Westfalen"}},{"name":"Osterberg","postalCode":"49477","locality":"Ibbenbüren","municipality":{"key":"05566028","name":"Ibbenbüren, Stadt","type":"Stadt"},"district":{"key":"05566","name":"Steinfurt","type":"Kreis"},"federalState":{"key":"05","name":"Nordrhein-Westfalen"}},{"name":"Osterberg","postalCode":"49479","locality":"Ibbenbüren","municipality":{"key":"05566028","name":"Ibbenbüren, Stadt","type":"Stadt"},"district":{"key":"05566","name":"Steinfurt","type":"Kreis"},"federalState":{"key":"05","name":"Nordrhein-Westfalen"}},{"name":"Oststr.","postalCode":"49477","locality":"Ibbenbüren","municipality":{"key":"05566028","name":"Ibbenbüren, Stadt","type":"Stadt"},"district":{"key":"05566","name":"Steinfurt","type":"Kreis"},"federalState":{"key":"05","name":"Nordrhein-Westfalen"}},{"name":"Ottenweg","postalCode":"49479","locality":"Ibbenbüren","municipality":{"key":"05566028","name":"Ibbenbüren, Stadt","type":"Stadt"},"district":{"key":"05566","name":"Steinfurt","type":"Kreis"},"federalState":{"key":"05","name":"Nordrhein-Westfalen"}},{"name":"Pappelallee","postalCode":"49479","locality":"Ibbenbüren","municipality":{"key":"05566028","name":"Ibbenbüren, Stadt","type":"Stadt"},"district":{"key":"05566","name":"Steinfurt","type":"Kreis"},"federalState":{"key":"05","name":"Nordrhein-Westfalen"}},{"name":"Permer Stollen","postalCode":"49479","locality":"Ibbenbüren","municipality":{"key":"05566028","name":"Ibbenbüren, Stadt","type":"Stadt"},"district":{"key":"05566","name":"Steinfurt","type":"Kreis"},"federalState":{"key":"05","name":"Nordrhein-Westfalen"}},{"name":"Permer Str.","postalCode":"49479","locality":"Ibbenbüren","municipality":{"key":"05566028","name":"Ibbenbüren, Stadt","type":"Stadt"},"district":{"key":"05566","name":"Steinfurt","type":"Kreis"},"federalState":{"key":"05","name":"Nordrhein-Westfalen"}},{"name":"Petersweg","postalCode":"49479","locality":"Ibbenbüren","municipality":{"key":"05566028","name":"Ibbenbüren, Stadt","type":"Stadt"},"district":{"key":"05566","name":"Steinfurt","type":"Kreis"},"federalState":{"key":"05","name":"Nordrhein-Westfalen"}},{"name":"Planestr.","postalCode":"49477","locality":"Ibbenbüren","municipality":{"key":"05566028","name":"Ibbenbüren, Stadt","type":"Stadt"},"district":{"key":"05566","name":"Steinfurt","type":"Kreis"},"federalState":{"key":"05","name":"Nordrhein-Westfalen"}},{"name":"Poggenkamp","postalCode":"49479","locality":"Ibbenbüren","municipality":{"key":"05566028","name":"Ibbenbüren, Stadt","type":"Stadt"},"district":{"key":"05566","name":"Steinfurt","type":"Kreis"},"federalState":{"key":"05","name":"Nordrhein-Westfalen"}},{"name":"Pommeresch","postalCode":"49479","locality":"Ibbenbüren","municipality":{"key":"05566028","name":"Ibbenbüren, Stadt","type":"Stadt"},"district":{"key":"05566","name":"Steinfurt","type":"Kreis"},"federalState":{"key":"05","name":"Nordrhein-Westfalen"}},{"name":"Pommernweg","postalCode":"49477","locality":"Ibbenbüren","municipality":{"key":"05566028","name":"Ibbenbüren, Stadt","type":"Stadt"},"district":{"key":"05566","name":"Steinfurt","type":"Kreis"},"federalState":{"key":"05","name":"Nordrhein-Westfalen"}},{"name":"Postdamm","postalCode":"49479","locality":"Ibbenbüren","municipality":{"key":"05566028","name":"Ibbenbüren, Stadt","type":"Stadt"},"district":{"key":"05566","name":"Steinfurt","type":"Kreis"},"federalState":{"key":"05","name":"Nordrhein-Westfalen"}},{"name":"Poststr.","postalCode":"49477","locality":"Ibbenbüren","municipality":{"key":"05566028","name":"Ibbenbüren, Stadt","type":"Stadt"},"district":{"key":"05566","name":"Steinfurt","type":"Kreis"},"federalState":{"key":"05","name":"Nordrhein-Westfalen"}},{"name":"Potsdamer Str.","postalCode":"49479","locality":"Ibbenbüren","municipality":{"key":"05566028","name":"Ibbenbüren, Stadt","type":"Stadt"},"district":{"key":"05566","name":"Steinfurt","type":"Kreis"},"federalState":{"key":"05","name":"Nordrhein-Westfalen"}},{"name":"Potthofweg","postalCode":"49479","locality":"Ibbenbüren","municipality":{"key":"05566028","name":"Ibbenbüren, Stadt","type":"Stadt"},"district":{"key":"05566","name":"Steinfurt","type":"Kreis"},"federalState":{"key":"05","name":"Nordrhein-Westfalen"}},{"name":"Preißelbeerweg","postalCode":"49479","locality":"Ibbenbüren","municipality":{"key":"05566028","name":"Ibbenbüren, Stadt","type":"Stadt"},"district":{"key":"05566","name":"Steinfurt","type":"Kreis"},"federalState":{"key":"05","name":"Nordrhein-Westfalen"}},{"name":"Prinzhügel","postalCode":"49479","locality":"Ibbenbüren","municipality":{"key":"05566028","name":"Ibbenbüren, Stadt","type":"Stadt"},"district":{"key":"05566","name":"Steinfurt","type":"Kreis"},"federalState":{"key":"05","name":"Nordrhein-Westfalen"}},{"name":"Püsselbürener Damm","postalCode":"49477","locality":"Ibbenbüren","municipality":{"key":"05566028","name":"Ibbenbüren, Stadt","type":"Stadt"},"district":{"key":"05566","name":"Steinfurt","type":"Kreis"},"federalState":{"key":"05","name":"Nordrhein-Westfalen"}},{"name":"Püsselbürener Damm","postalCode":"49479","locality":"Ibbenbüren","municipality":{"key":"05566028","name":"Ibbenbüren, Stadt","type":"Stadt"},"district":{"key":"05566","name":"Steinfurt","type":"Kreis"},"federalState":{"key":"05","name":"Nordrhein-Westfalen"}},{"name":"Püsselbürener Grenze","postalCode":"49479","locality":"Ibbenbüren","municipality":{"key":"05566028","name":"Ibbenbüren, Stadt","type":"Stadt"},"district":{"key":"05566","name":"Steinfurt","type":"Kreis"},"federalState":{"key":"05","name":"Nordrhein-Westfalen"}},{"name":"Quellengrund","postalCode":"49477","locality":"Ibbenbüren","municipality":{"key":"05566028","name":"Ibbenbüren, Stadt","type":"Stadt"},"district":{"key":"05566","name":"Steinfurt","type":"Kreis"},"federalState":{"key":"05","name":"Nordrhein-Westfalen"}},{"name":"Raabestr.","postalCode":"49477","locality":"Ibbenbüren","municipality":{"key":"05566028","name":"Ibbenbüren, Stadt","type":"Stadt"},"district":{"key":"05566","name":"Steinfurt","type":"Kreis"},"federalState":{"key":"05","name":"Nordrhein-Westfalen"}},{"name":"Raheneschstr.","postalCode":"49477","locality":"Ibbenbüren","municipality":{"key":"05566028","name":"Ibbenbüren, Stadt","type":"Stadt"},"district":{"key":"05566","name":"Steinfurt","type":"Kreis"},"federalState":{"key":"05","name":"Nordrhein-Westfalen"}},{"name":"Rählege","postalCode":"49477","locality":"Ibbenbüren","municipality":{"key":"05566028","name":"Ibbenbüren, Stadt","type":"Stadt"},"district":{"key":"05566","name":"Steinfurt","type":"Kreis"},"federalState":{"key":"05","name":"Nordrhein-Westfalen"}},{"name":"Rapunzelweg","postalCode":"49479","locality":"Ibbenbüren","municipality":{"key":"05566028","name":"Ibbenbüren, Stadt","type":"Stadt"},"district":{"key":"05566","name":"Steinfurt","type":"Kreis"},"federalState":{"key":"05","name":"Nordrhein-Westfalen"}},{"name":"Rebhuhnweg","postalCode":"49477","locality":"Ibbenbüren","municipality":{"key":"05566028","name":"Ibbenbüren, Stadt","type":"Stadt"},"district":{"key":"05566","name":"Steinfurt","type":"Kreis"},"federalState":{"key":"05","name":"Nordrhein-Westfalen"}},{"name":"Recker Str.","postalCode":"49479","locality":"Ibbenbüren","municipality":{"key":"05566028","name":"Ibbenbüren, Stadt","type":"Stadt"},"district":{"key":"05566","name":"Steinfurt","type":"Kreis"},"federalState":{"key":"05","name":"Nordrhein-Westfalen"}},{"name":"Redenweg","postalCode":"49477","locality":"Ibbenbüren","municipality":{"key":"05566028","name":"Ibbenbüren, Stadt","type":"Stadt"},"district":{"key":"05566","name":"Steinfurt","type":"Kreis"},"federalState":{"key":"05","name":"Nordrhein-Westfalen"}},{"name":"Regerstr.","postalCode":"49477","locality":"Ibbenbüren","municipality":{"key":"05566028","name":"Ibbenbüren, Stadt","type":"Stadt"},"district":{"key":"05566","name":"Steinfurt","type":"Kreis"},"federalState":{"key":"05","name":"Nordrhein-Westfalen"}},{"name":"Rehgrund","postalCode":"49479","locality":"Ibbenbüren","municipality":{"key":"05566028","name":"Ibbenbüren, Stadt","type":"Stadt"},"district":{"key":"05566","name":"Steinfurt","type":"Kreis"},"federalState":{"key":"05","name":"Nordrhein-Westfalen"}},{"name":"Rembrandtstr.","postalCode":"49477","locality":"Ibbenbüren","municipality":{"key":"05566028","name":"Ibbenbüren, Stadt","type":"Stadt"},"district":{"key":"05566","name":"Steinfurt","type":"Kreis"},"federalState":{"key":"05","name":"Nordrhein-Westfalen"}},{"name":"Reuterstr.","postalCode":"49477","locality":"Ibbenbüren","municipality":{"key":"05566028","name":"Ibbenbüren, Stadt","type":"Stadt"},"district":{"key":"05566","name":"Steinfurt","type":"Kreis"},"federalState":{"key":"05","name":"Nordrhein-Westfalen"}},{"name":"Rheiner Str.","postalCode":"49477","locality":"Ibbenbüren","municipality":{"key":"05566028","name":"Ibbenbüren, Stadt","type":"Stadt"},"district":{"key":"05566","name":"Steinfurt","type":"Kreis"},"federalState":{"key":"05","name":"Nordrhein-Westfalen"}},{"name":"Rheiner Str.","postalCode":"49479","locality":"Ibbenbüren","municipality":{"key":"05566028","name":"Ibbenbüren, Stadt","type":"Stadt"},"district":{"key":"05566","name":"Steinfurt","type":"Kreis"},"federalState":{"key":"05","name":"Nordrhein-Westfalen"}},{"name":"Rheinlandstr.","postalCode":"49477","locality":"Ibbenbüren","municipality":{"key":"05566028","name":"Ibbenbüren, Stadt","type":"Stadt"},"district":{"key":"05566","name":"Steinfurt","type":"Kreis"},"federalState":{"key":"05","name":"Nordrhein-Westfalen"}},{"name":"Richard-Gerhardi-Str.","postalCode":"49479","locality":"Ibbenbüren","municipality":{"key":"05566028","name":"Ibbenbüren, Stadt","type":"Stadt"},"district":{"key":"05566","name":"Steinfurt","type":"Kreis"},"federalState":{"key":"05","name":"Nordrhein-Westfalen"}},{"name":"Rickelmannstr.","postalCode":"49479","locality":"Ibbenbüren","municipality":{"key":"05566028","name":"Ibbenbüren, Stadt","type":"Stadt"},"district":{"key":"05566","name":"Steinfurt","type":"Kreis"},"federalState":{"key":"05","name":"Nordrhein-Westfalen"}},{"name":"Riehenweg","postalCode":"49477","locality":"Ibbenbüren","municipality":{"key":"05566028","name":"Ibbenbüren, Stadt","type":"Stadt"},"district":{"key":"05566","name":"Steinfurt","type":"Kreis"},"federalState":{"key":"05","name":"Nordrhein-Westfalen"}},{"name":"Riesenbecker Postweg","postalCode":"49477","locality":"Ibbenbüren","municipality":{"key":"05566028","name":"Ibbenbüren, Stadt","type":"Stadt"},"district":{"key":"05566","name":"Steinfurt","type":"Kreis"},"federalState":{"key":"05","name":"Nordrhein-Westfalen"}},{"name":"Riesenbecker Postweg","postalCode":"49479","locality":"Ibbenbüren","municipality":{"key":"05566028","name":"Ibbenbüren, Stadt","type":"Stadt"},"district":{"key":"05566","name":"Steinfurt","type":"Kreis"},"federalState":{"key":"05","name":"Nordrhein-Westfalen"}},{"name":"Riesenbecker Str.","postalCode":"49479","locality":"Ibbenbüren","municipality":{"key":"05566028","name":"Ibbenbüren, Stadt","type":"Stadt"},"district":{"key":"05566","name":"Steinfurt","type":"Kreis"},"federalState":{"key":"05","name":"Nordrhein-Westfalen"}},{"name":"Ringstr.","postalCode":"49477","locality":"Ibbenbüren","municipality":{"key":"05566028","name":"Ibbenbüren, Stadt","type":"Stadt"},"district":{"key":"05566","name":"Steinfurt","type":"Kreis"},"federalState":{"key":"05","name":"Nordrhein-Westfalen"}},{"name":"Robert-Koch-Str.","postalCode":"49477","locality":"Ibbenbüren","municipality":{"key":"05566028","name":"Ibbenbüren, Stadt","type":"Stadt"},"district":{"key":"05566","name":"Steinfurt","type":"Kreis"},"federalState":{"key":"05","name":"Nordrhein-Westfalen"}},{"name":"Rochusstr.","postalCode":"49479","locality":"Ibbenbüren","municipality":{"key":"05566028","name":"Ibbenbüren, Stadt","type":"Stadt"},"district":{"key":"05566","name":"Steinfurt","type":"Kreis"},"federalState":{"key":"05","name":"Nordrhein-Westfalen"}},{"name":"Rodenweg","postalCode":"49479","locality":"Ibbenbüren","municipality":{"key":"05566028","name":"Ibbenbüren, Stadt","type":"Stadt"},"district":{"key":"05566","name":"Steinfurt","type":"Kreis"},"federalState":{"key":"05","name":"Nordrhein-Westfalen"}},{"name":"Roggenkampstr.","postalCode":"49477","locality":"Ibbenbüren","municipality":{"key":"05566028","name":"Ibbenbüren, Stadt","type":"Stadt"},"district":{"key":"05566","name":"Steinfurt","type":"Kreis"},"federalState":{"key":"05","name":"Nordrhein-Westfalen"}},{"name":"Rohe Land","postalCode":"49479","locality":"Ibbenbüren","municipality":{"key":"05566028","name":"Ibbenbüren, Stadt","type":"Stadt"},"district":{"key":"05566","name":"Steinfurt","type":"Kreis"},"federalState":{"key":"05","name":"Nordrhein-Westfalen"}},{"name":"Rohmanns Anlagen","postalCode":"49477","locality":"Ibbenbüren","municipality":{"key":"05566028","name":"Ibbenbüren, Stadt","type":"Stadt"},"district":{"key":"05566","name":"Steinfurt","type":"Kreis"},"federalState":{"key":"05","name":"Nordrhein-Westfalen"}},{"name":"Rohmanns Echo","postalCode":"49477","locality":"Ibbenbüren","municipality":{"key":"05566028","name":"Ibbenbüren, Stadt","type":"Stadt"},"district":{"key":"05566","name":"Steinfurt","type":"Kreis"},"federalState":{"key":"05","name":"Nordrhein-Westfalen"}},{"name":"Rohmannstr.","postalCode":"49477","locality":"Ibbenbüren","municipality":{"key":"05566028","name":"Ibbenbüren, Stadt","type":"Stadt"},"district":{"key":"05566","name":"Steinfurt","type":"Kreis"},"federalState":{"key":"05","name":"Nordrhein-Westfalen"}},{"name":"Röhrichtweg","postalCode":"49479","locality":"Ibbenbüren","municipality":{"key":"05566028","name":"Ibbenbüren, Stadt","type":"Stadt"},"district":{"key":"05566","name":"Steinfurt","type":"Kreis"},"federalState":{"key":"05","name":"Nordrhein-Westfalen"}},{"name":"Römerstr.","postalCode":"49477","locality":"Ibbenbüren","municipality":{"key":"05566028","name":"Ibbenbüren, Stadt","type":"Stadt"},"district":{"key":"05566","name":"Steinfurt","type":"Kreis"},"federalState":{"key":"05","name":"Nordrhein-Westfalen"}},{"name":"Roncallistr.","postalCode":"49477","locality":"Ibbenbüren","municipality":{"key":"05566028","name":"Ibbenbüren, Stadt","type":"Stadt"},"district":{"key":"05566","name":"Steinfurt","type":"Kreis"},"federalState":{"key":"05","name":"Nordrhein-Westfalen"}},{"name":"Röntgenstr.","postalCode":"49477","locality":"Ibbenbüren","municipality":{"key":"05566028","name":"Ibbenbüren, Stadt","type":"Stadt"},"district":{"key":"05566","name":"Steinfurt","type":"Kreis"},"federalState":{"key":"05","name":"Nordrhein-Westfalen"}},{"name":"Rosenstr.","postalCode":"49479","locality":"Ibbenbüren","municipality":{"key":"05566028","name":"Ibbenbüren, Stadt","type":"Stadt"},"district":{"key":"05566","name":"Steinfurt","type":"Kreis"},"federalState":{"key":"05","name":"Nordrhein-Westfalen"}},{"name":"Rosmarinstiege","postalCode":"49477","locality":"Ibbenbüren","municipality":{"key":"05566028","name":"Ibbenbüren, Stadt","type":"Stadt"},"district":{"key":"05566","name":"Steinfurt","type":"Kreis"},"federalState":{"key":"05","name":"Nordrhein-Westfalen"}},{"name":"Roßlauer Str.","postalCode":"49479","locality":"Ibbenbüren","municipality":{"key":"05566028","name":"Ibbenbüren, Stadt","type":"Stadt"},"district":{"key":"05566","name":"Steinfurt","type":"Kreis"},"federalState":{"key":"05","name":"Nordrhein-Westfalen"}},{"name":"Rostocker Str.","postalCode":"49479","locality":"Ibbenbüren","municipality":{"key":"05566028","name":"Ibbenbüren, Stadt","type":"Stadt"},"district":{"key":"05566","name":"Steinfurt","type":"Kreis"},"federalState":{"key":"05","name":"Nordrhein-Westfalen"}},{"name":"Rotdornweg","postalCode":"49479","locality":"Ibbenbüren","municipality":{"key":"05566028","name":"Ibbenbüren, Stadt","type":"Stadt"},"district":{"key":"05566","name":"Steinfurt","type":"Kreis"},"federalState":{"key":"05","name":"Nordrhein-Westfalen"}},{"name":"Rotkäppchenweg","postalCode":"49479","locality":"Ibbenbüren","municipality":{"key":"05566028","name":"Ibbenbüren, Stadt","type":"Stadt"},"district":{"key":"05566","name":"Steinfurt","type":"Kreis"},"federalState":{"key":"05","name":"Nordrhein-Westfalen"}},{"name":"Rubensstr.","postalCode":"49477","locality":"Ibbenbüren","municipality":{"key":"05566028","name":"Ibbenbüren, Stadt","type":"Stadt"},"district":{"key":"05566","name":"Steinfurt","type":"Kreis"},"federalState":{"key":"05","name":"Nordrhein-Westfalen"}},{"name":"Rudolf-Diesel-Str.","postalCode":"49479","locality":"Ibbenbüren","municipality":{"key":"05566028","name":"Ibbenbüren, Stadt","type":"Stadt"},"district":{"key":"05566","name":"Steinfurt","type":"Kreis"},"federalState":{"key":"05","name":"Nordrhein-Westfalen"}},{"name":"Rudolf-Dolle-Str.","postalCode":"49479","locality":"Ibbenbüren","municipality":{"key":"05566028","name":"Ibbenbüren, Stadt","type":"Stadt"},"district":{"key":"05566","name":"Steinfurt","type":"Kreis"},"federalState":{"key":"05","name":"Nordrhein-Westfalen"}},{"name":"Rudolf-Steiner-Str.","postalCode":"49477","locality":"Ibbenbüren","municipality":{"key":"05566028","name":"Ibbenbüren, Stadt","type":"Stadt"},"district":{"key":"05566","name":"Steinfurt","type":"Kreis"},"federalState":{"key":"05","name":"Nordrhein-Westfalen"}},{"name":"Rudolfstr.","postalCode":"49479","locality":"Ibbenbüren","municipality":{"key":"05566028","name":"Ibbenbüren, Stadt","type":"Stadt"},"district":{"key":"05566","name":"Steinfurt","type":"Kreis"},"federalState":{"key":"05","name":"Nordrhein-Westfalen"}},{"name":"Rudolf-Virchow-Str.","postalCode":"49477","locality":"Ibbenbüren","municipality":{"key":"05566028","name":"Ibbenbüren, Stadt","type":"Stadt"},"district":{"key":"05566","name":"Steinfurt","type":"Kreis"},"federalState":{"key":"05","name":"Nordrhein-Westfalen"}},{"name":"Saaleweg","postalCode":"49479","locality":"Ibbenbüren","municipality":{"key":"05566028","name":"Ibbenbüren, Stadt","type":"Stadt"},"district":{"key":"05566","name":"Steinfurt","type":"Kreis"},"federalState":{"key":"05","name":"Nordrhein-Westfalen"}},{"name":"Salmeck","postalCode":"49479","locality":"Ibbenbüren","municipality":{"key":"05566028","name":"Ibbenbüren, Stadt","type":"Stadt"},"district":{"key":"05566","name":"Steinfurt","type":"Kreis"},"federalState":{"key":"05","name":"Nordrhein-Westfalen"}},{"name":"Sandersheide","postalCode":"49479","locality":"Ibbenbüren","municipality":{"key":"05566028","name":"Ibbenbüren, Stadt","type":"Stadt"},"district":{"key":"05566","name":"Steinfurt","type":"Kreis"},"federalState":{"key":"05","name":"Nordrhein-Westfalen"}},{"name":"Sandweg","postalCode":"49477","locality":"Ibbenbüren","municipality":{"key":"05566028","name":"Ibbenbüren, Stadt","type":"Stadt"},"district":{"key":"05566","name":"Steinfurt","type":"Kreis"},"federalState":{"key":"05","name":"Nordrhein-Westfalen"}},{"name":"Sankt-Florian-Str.","postalCode":"49479","locality":"Ibbenbüren","municipality":{"key":"05566028","name":"Ibbenbüren, Stadt","type":"Stadt"},"district":{"key":"05566","name":"Steinfurt","type":"Kreis"},"federalState":{"key":"05","name":"Nordrhein-Westfalen"}},{"name":"Sankt-Josef-Str.","postalCode":"49479","locality":"Ibbenbüren","municipality":{"key":"05566028","name":"Ibbenbüren, Stadt","type":"Stadt"},"district":{"key":"05566","name":"Steinfurt","type":"Kreis"},"federalState":{"key":"05","name":"Nordrhein-Westfalen"}},{"name":"Sauerlandstr.","postalCode":"49477","locality":"Ibbenbüren","municipality":{"key":"05566028","name":"Ibbenbüren, Stadt","type":"Stadt"},"district":{"key":"05566","name":"Steinfurt","type":"Kreis"},"federalState":{"key":"05","name":"Nordrhein-Westfalen"}},{"name":"Schafberger Grenze","postalCode":"49477","locality":"Ibbenbüren","municipality":{"key":"05566028","name":"Ibbenbüren, Stadt","type":"Stadt"},"district":{"key":"05566","name":"Steinfurt","type":"Kreis"},"federalState":{"key":"05","name":"Nordrhein-Westfalen"}},{"name":"Schafberger Postweg","postalCode":"49479","locality":"Ibbenbüren","municipality":{"key":"05566028","name":"Ibbenbüren, Stadt","type":"Stadt"},"district":{"key":"05566","name":"Steinfurt","type":"Kreis"},"federalState":{"key":"05","name":"Nordrhein-Westfalen"}},{"name":"Schelderdiekstr.","postalCode":"49477","locality":"Ibbenbüren","municipality":{"key":"05566028","name":"Ibbenbüren, Stadt","type":"Stadt"},"district":{"key":"05566","name":"Steinfurt","type":"Kreis"},"federalState":{"key":"05","name":"Nordrhein-Westfalen"}},{"name":"Schellingweg","postalCode":"49479","locality":"Ibbenbüren","municipality":{"key":"05566028","name":"Ibbenbüren, Stadt","type":"Stadt"},"district":{"key":"05566","name":"Steinfurt","type":"Kreis"},"federalState":{"key":"05","name":"Nordrhein-Westfalen"}},{"name":"Schierloher Footpättken","postalCode":"49477","locality":"Ibbenbüren","municipality":{"key":"05566028","name":"Ibbenbüren, Stadt","type":"Stadt"},"district":{"key":"05566","name":"Steinfurt","type":"Kreis"},"federalState":{"key":"05","name":"Nordrhein-Westfalen"}},{"name":"Schierloher Mühlenweg","postalCode":"49479","locality":"Ibbenbüren","municipality":{"key":"05566028","name":"Ibbenbüren, Stadt","type":"Stadt"},"district":{"key":"05566","name":"Steinfurt","type":"Kreis"},"federalState":{"key":"05","name":"Nordrhein-Westfalen"}},{"name":"Schillerstr.","postalCode":"49477","locality":"Ibbenbüren","municipality":{"key":"05566028","name":"Ibbenbüren, Stadt","type":"Stadt"},"district":{"key":"05566","name":"Steinfurt","type":"Kreis"},"federalState":{"key":"05","name":"Nordrhein-Westfalen"}},{"name":"Schlangenpättken","postalCode":"49479","locality":"Ibbenbüren","municipality":{"key":"05566028","name":"Ibbenbüren, Stadt","type":"Stadt"},"district":{"key":"05566","name":"Steinfurt","type":"Kreis"},"federalState":{"key":"05","name":"Nordrhein-Westfalen"}},{"name":"Schlegelstr.","postalCode":"49477","locality":"Ibbenbüren","municipality":{"key":"05566028","name":"Ibbenbüren, Stadt","type":"Stadt"},"district":{"key":"05566","name":"Steinfurt","type":"Kreis"},"federalState":{"key":"05","name":"Nordrhein-Westfalen"}},{"name":"Schlehdornweg","postalCode":"49479","locality":"Ibbenbüren","municipality":{"key":"05566028","name":"Ibbenbüren, Stadt","type":"Stadt"},"district":{"key":"05566","name":"Steinfurt","type":"Kreis"},"federalState":{"key":"05","name":"Nordrhein-Westfalen"}},{"name":"Schleiweg","postalCode":"49479","locality":"Ibbenbüren","municipality":{"key":"05566028","name":"Ibbenbüren, Stadt","type":"Stadt"},"district":{"key":"05566","name":"Steinfurt","type":"Kreis"},"federalState":{"key":"05","name":"Nordrhein-Westfalen"}},{"name":"Schleppbahn","postalCode":"49479","locality":"Ibbenbüren","municipality":{"key":"05566028","name":"Ibbenbüren, Stadt","type":"Stadt"},"district":{"key":"05566","name":"Steinfurt","type":"Kreis"},"federalState":{"key":"05","name":"Nordrhein-Westfalen"}},{"name":"Schlesierweg","postalCode":"49477","locality":"Ibbenbüren","municipality":{"key":"05566028","name":"Ibbenbüren, Stadt","type":"Stadt"},"district":{"key":"05566","name":"Steinfurt","type":"Kreis"},"federalState":{"key":"05","name":"Nordrhein-Westfalen"}},{"name":"Schlichterheide","postalCode":"49479","locality":"Ibbenbüren","municipality":{"key":"05566028","name":"Ibbenbüren, Stadt","type":"Stadt"},"district":{"key":"05566","name":"Steinfurt","type":"Kreis"},"federalState":{"key":"05","name":"Nordrhein-Westfalen"}},{"name":"Schlickelder Str.","postalCode":"49477","locality":"Ibbenbüren","municipality":{"key":"05566028","name":"Ibbenbüren, Stadt","type":"Stadt"},"district":{"key":"05566","name":"Steinfurt","type":"Kreis"},"federalState":{"key":"05","name":"Nordrhein-Westfalen"}},{"name":"Schlickelder Str.","postalCode":"49479","locality":"Ibbenbüren","municipality":{"key":"05566028","name":"Ibbenbüren, Stadt","type":"Stadt"},"district":{"key":"05566","name":"Steinfurt","type":"Kreis"},"federalState":{"key":"05","name":"Nordrhein-Westfalen"}},{"name":"Schlüsselstr.","postalCode":"49477","locality":"Ibbenbüren","municipality":{"key":"05566028","name":"Ibbenbüren, Stadt","type":"Stadt"},"district":{"key":"05566","name":"Steinfurt","type":"Kreis"},"federalState":{"key":"05","name":"Nordrhein-Westfalen"}},{"name":"Schneewittchenweg","postalCode":"49479","locality":"Ibbenbüren","municipality":{"key":"05566028","name":"Ibbenbüren, Stadt","type":"Stadt"},"district":{"key":"05566","name":"Steinfurt","type":"Kreis"},"federalState":{"key":"05","name":"Nordrhein-Westfalen"}},{"name":"Schnepfengrund","postalCode":"49477","locality":"Ibbenbüren","municipality":{"key":"05566028","name":"Ibbenbüren, Stadt","type":"Stadt"},"district":{"key":"05566","name":"Steinfurt","type":"Kreis"},"federalState":{"key":"05","name":"Nordrhein-Westfalen"}},{"name":"Schniedersweg","postalCode":"49479","locality":"Ibbenbüren","municipality":{"key":"05566028","name":"Ibbenbüren, Stadt","type":"Stadt"},"district":{"key":"05566","name":"Steinfurt","type":"Kreis"},"federalState":{"key":"05","name":"Nordrhein-Westfalen"}},{"name":"Schopenhauerweg","postalCode":"49479","locality":"Ibbenbüren","municipality":{"key":"05566028","name":"Ibbenbüren, Stadt","type":"Stadt"},"district":{"key":"05566","name":"Steinfurt","type":"Kreis"},"federalState":{"key":"05","name":"Nordrhein-Westfalen"}},{"name":"Schubertstr.","postalCode":"49477","locality":"Ibbenbüren","municipality":{"key":"05566028","name":"Ibbenbüren, Stadt","type":"Stadt"},"district":{"key":"05566","name":"Steinfurt","type":"Kreis"},"federalState":{"key":"05","name":"Nordrhein-Westfalen"}},{"name":"Schulstr.","postalCode":"49477","locality":"Ibbenbüren","municipality":{"key":"05566028","name":"Ibbenbüren, Stadt","type":"Stadt"},"district":{"key":"05566","name":"Steinfurt","type":"Kreis"},"federalState":{"key":"05","name":"Nordrhein-Westfalen"}},{"name":"Schultenwiese","postalCode":"49477","locality":"Ibbenbüren","municipality":{"key":"05566028","name":"Ibbenbüren, Stadt","type":"Stadt"},"district":{"key":"05566","name":"Steinfurt","type":"Kreis"},"federalState":{"key":"05","name":"Nordrhein-Westfalen"}},{"name":"Schürfweg","postalCode":"49477","locality":"Ibbenbüren","municipality":{"key":"05566028","name":"Ibbenbüren, Stadt","type":"Stadt"},"district":{"key":"05566","name":"Steinfurt","type":"Kreis"},"federalState":{"key":"05","name":"Nordrhein-Westfalen"}},{"name":"Schwalbenring","postalCode":"49477","locality":"Ibbenbüren","municipality":{"key":"05566028","name":"Ibbenbüren, Stadt","type":"Stadt"},"district":{"key":"05566","name":"Steinfurt","type":"Kreis"},"federalState":{"key":"05","name":"Nordrhein-Westfalen"}},{"name":"Schwarzer Weg","postalCode":"49479","locality":"Ibbenbüren","municipality":{"key":"05566028","name":"Ibbenbüren, Stadt","type":"Stadt"},"district":{"key":"05566","name":"Steinfurt","type":"Kreis"},"federalState":{"key":"05","name":"Nordrhein-Westfalen"}},{"name":"Schweriner Str.","postalCode":"49479","locality":"Ibbenbüren","municipality":{"key":"05566028","name":"Ibbenbüren, Stadt","type":"Stadt"},"district":{"key":"05566","name":"Steinfurt","type":"Kreis"},"federalState":{"key":"05","name":"Nordrhein-Westfalen"}},{"name":"Seemannstr.","postalCode":"49479","locality":"Ibbenbüren","municipality":{"key":"05566028","name":"Ibbenbüren, Stadt","type":"Stadt"},"district":{"key":"05566","name":"Steinfurt","type":"Kreis"},"federalState":{"key":"05","name":"Nordrhein-Westfalen"}},{"name":"Seeweg","postalCode":"49477","locality":"Ibbenbüren","municipality":{"key":"05566028","name":"Ibbenbüren, Stadt","type":"Stadt"},"district":{"key":"05566","name":"Steinfurt","type":"Kreis"},"federalState":{"key":"05","name":"Nordrhein-Westfalen"}},{"name":"Siegerlandstr.","postalCode":"49477","locality":"Ibbenbüren","municipality":{"key":"05566028","name":"Ibbenbüren, Stadt","type":"Stadt"},"district":{"key":"05566","name":"Steinfurt","type":"Kreis"},"federalState":{"key":"05","name":"Nordrhein-Westfalen"}},{"name":"Siegfriedstr.","postalCode":"49477","locality":"Ibbenbüren","municipality":{"key":"05566028","name":"Ibbenbüren, Stadt","type":"Stadt"},"district":{"key":"05566","name":"Steinfurt","type":"Kreis"},"federalState":{"key":"05","name":"Nordrhein-Westfalen"}},{"name":"Solbachweg","postalCode":"49477","locality":"Ibbenbüren","municipality":{"key":"05566028","name":"Ibbenbüren, Stadt","type":"Stadt"},"district":{"key":"05566","name":"Steinfurt","type":"Kreis"},"federalState":{"key":"05","name":"Nordrhein-Westfalen"}},{"name":"Sommerrodelbahn-Märchenwald","postalCode":"49479","locality":"Ibbenbüren","municipality":{"key":"05566028","name":"Ibbenbüren, Stadt","type":"Stadt"},"district":{"key":"05566","name":"Steinfurt","type":"Kreis"},"federalState":{"key":"05","name":"Nordrhein-Westfalen"}},{"name":"Speicherweg","postalCode":"49479","locality":"Ibbenbüren","municipality":{"key":"05566028","name":"Ibbenbüren, Stadt","type":"Stadt"},"district":{"key":"05566","name":"Steinfurt","type":"Kreis"},"federalState":{"key":"05","name":"Nordrhein-Westfalen"}},{"name":"Sperberweg","postalCode":"49479","locality":"Ibbenbüren","municipality":{"key":"05566028","name":"Ibbenbüren, Stadt","type":"Stadt"},"district":{"key":"05566","name":"Steinfurt","type":"Kreis"},"federalState":{"key":"05","name":"Nordrhein-Westfalen"}},{"name":"Spindelgasse","postalCode":"49477","locality":"Ibbenbüren","municipality":{"key":"05566028","name":"Ibbenbüren, Stadt","type":"Stadt"},"district":{"key":"05566","name":"Steinfurt","type":"Kreis"},"federalState":{"key":"05","name":"Nordrhein-Westfalen"}},{"name":"Spitzwegstr.","postalCode":"49477","locality":"Ibbenbüren","municipality":{"key":"05566028","name":"Ibbenbüren, Stadt","type":"Stadt"},"district":{"key":"05566","name":"Steinfurt","type":"Kreis"},"federalState":{"key":"05","name":"Nordrhein-Westfalen"}},{"name":"Spreeweg","postalCode":"49479","locality":"Ibbenbüren","municipality":{"key":"05566028","name":"Ibbenbüren, Stadt","type":"Stadt"},"district":{"key":"05566","name":"Steinfurt","type":"Kreis"},"federalState":{"key":"05","name":"Nordrhein-Westfalen"}},{"name":"Steigereck","postalCode":"49477","locality":"Ibbenbüren","municipality":{"key":"05566028","name":"Ibbenbüren, Stadt","type":"Stadt"},"district":{"key":"05566","name":"Steinfurt","type":"Kreis"},"federalState":{"key":"05","name":"Nordrhein-Westfalen"}},{"name":"Steinbrinkheide","postalCode":"49479","locality":"Ibbenbüren","municipality":{"key":"05566028","name":"Ibbenbüren, Stadt","type":"Stadt"},"district":{"key":"05566","name":"Steinfurt","type":"Kreis"},"federalState":{"key":"05","name":"Nordrhein-Westfalen"}},{"name":"Steinmarderweg","postalCode":"49479","locality":"Ibbenbüren","municipality":{"key":"05566028","name":"Ibbenbüren, Stadt","type":"Stadt"},"district":{"key":"05566","name":"Steinfurt","type":"Kreis"},"federalState":{"key":"05","name":"Nordrhein-Westfalen"}},{"name":"Sterntalerweg","postalCode":"49479","locality":"Ibbenbüren","municipality":{"key":"05566028","name":"Ibbenbüren, Stadt","type":"Stadt"},"district":{"key":"05566","name":"Steinfurt","type":"Kreis"},"federalState":{"key":"05","name":"Nordrhein-Westfalen"}},{"name":"Talstr.","postalCode":"49479","locality":"Ibbenbüren","municipality":{"key":"05566028","name":"Ibbenbüren, Stadt","type":"Stadt"},"district":{"key":"05566","name":"Steinfurt","type":"Kreis"},"federalState":{"key":"05","name":"Nordrhein-Westfalen"}},{"name":"Tannenkamp","postalCode":"49479","locality":"Ibbenbüren","municipality":{"key":"05566028","name":"Ibbenbüren, Stadt","type":"Stadt"},"district":{"key":"05566","name":"Steinfurt","type":"Kreis"},"federalState":{"key":"05","name":"Nordrhein-Westfalen"}},{"name":"Teckelweg","postalCode":"49479","locality":"Ibbenbüren","municipality":{"key":"05566028","name":"Ibbenbüren, Stadt","type":"Stadt"},"district":{"key":"05566","name":"Steinfurt","type":"Kreis"},"federalState":{"key":"05","name":"Nordrhein-Westfalen"}},{"name":"Tecklenburger Damm","postalCode":"49477","locality":"Ibbenbüren","municipality":{"key":"05566028","name":"Ibbenbüren, Stadt","type":"Stadt"},"district":{"key":"05566","name":"Steinfurt","type":"Kreis"},"federalState":{"key":"05","name":"Nordrhein-Westfalen"}},{"name":"Tecklenburger Damm","postalCode":"49479","locality":"Ibbenbüren","municipality":{"key":"05566028","name":"Ibbenbüren, Stadt","type":"Stadt"},"district":{"key":"05566","name":"Steinfurt","type":"Kreis"},"federalState":{"key":"05","name":"Nordrhein-Westfalen"}},{"name":"Tecklenburger Str.","postalCode":"49479","locality":"Ibbenbüren","municipality":{"key":"05566028","name":"Ibbenbüren, Stadt","type":"Stadt"},"district":{"key":"05566","name":"Steinfurt","type":"Kreis"},"federalState":{"key":"05","name":"Nordrhein-Westfalen"}},{"name":"Tegelmannstr.","postalCode":"49479","locality":"Ibbenbüren","municipality":{"key":"05566028","name":"Ibbenbüren, Stadt","type":"Stadt"},"district":{"key":"05566","name":"Steinfurt","type":"Kreis"},"federalState":{"key":"05","name":"Nordrhein-Westfalen"}},{"name":"Teichweg","postalCode":"49477","locality":"Ibbenbüren","municipality":{"key":"05566028","name":"Ibbenbüren, Stadt","type":"Stadt"},"district":{"key":"05566","name":"Steinfurt","type":"Kreis"},"federalState":{"key":"05","name":"Nordrhein-Westfalen"}},{"name":"Teutoburger Str.","postalCode":"49477","locality":"Ibbenbüren","municipality":{"key":"05566028","name":"Ibbenbüren, Stadt","type":"Stadt"},"district":{"key":"05566","name":"Steinfurt","type":"Kreis"},"federalState":{"key":"05","name":"Nordrhein-Westfalen"}},{"name":"Teutohang","postalCode":"49479","locality":"Ibbenbüren","municipality":{"key":"05566028","name":"Ibbenbüren, Stadt","type":"Stadt"},"district":{"key":"05566","name":"Steinfurt","type":"Kreis"},"federalState":{"key":"05","name":"Nordrhein-Westfalen"}},{"name":"Theodorstr.","postalCode":"49479","locality":"Ibbenbüren","municipality":{"key":"05566028","name":"Ibbenbüren, Stadt","type":"Stadt"},"district":{"key":"05566","name":"Steinfurt","type":"Kreis"},"federalState":{"key":"05","name":"Nordrhein-Westfalen"}},{"name":"Thomastr.","postalCode":"49477","locality":"Ibbenbüren","municipality":{"key":"05566028","name":"Ibbenbüren, Stadt","type":"Stadt"},"district":{"key":"05566","name":"Steinfurt","type":"Kreis"},"federalState":{"key":"05","name":"Nordrhein-Westfalen"}},{"name":"Thunacker","postalCode":"49479","locality":"Ibbenbüren","municipality":{"key":"05566028","name":"Ibbenbüren, Stadt","type":"Stadt"},"district":{"key":"05566","name":"Steinfurt","type":"Kreis"},"federalState":{"key":"05","name":"Nordrhein-Westfalen"}},{"name":"Treppkesberg","postalCode":"49477","locality":"Ibbenbüren","municipality":{"key":"05566028","name":"Ibbenbüren, Stadt","type":"Stadt"},"district":{"key":"05566","name":"Steinfurt","type":"Kreis"},"federalState":{"key":"05","name":"Nordrhein-Westfalen"}},{"name":"Trüsseldiek","postalCode":"49479","locality":"Ibbenbüren","municipality":{"key":"05566028","name":"Ibbenbüren, Stadt","type":"Stadt"},"district":{"key":"05566","name":"Steinfurt","type":"Kreis"},"federalState":{"key":"05","name":"Nordrhein-Westfalen"}},{"name":"Ubostr.","postalCode":"49477","locality":"Ibbenbüren","municipality":{"key":"05566028","name":"Ibbenbüren, Stadt","type":"Stadt"},"district":{"key":"05566","name":"Steinfurt","type":"Kreis"},"federalState":{"key":"05","name":"Nordrhein-Westfalen"}},{"name":"Uffelner Berg","postalCode":"49479","locality":"Ibbenbüren","municipality":{"key":"05566028","name":"Ibbenbüren, Stadt","type":"Stadt"},"district":{"key":"05566","name":"Steinfurt","type":"Kreis"},"federalState":{"key":"05","name":"Nordrhein-Westfalen"}},{"name":"Uffeln Mitte","postalCode":"49479","locality":"Ibbenbüren","municipality":{"key":"05566028","name":"Ibbenbüren, Stadt","type":"Stadt"},"district":{"key":"05566","name":"Steinfurt","type":"Kreis"},"federalState":{"key":"05","name":"Nordrhein-Westfalen"}},{"name":"Uhlandstr.","postalCode":"49477","locality":"Ibbenbüren","municipality":{"key":"05566028","name":"Ibbenbüren, Stadt","type":"Stadt"},"district":{"key":"05566","name":"Steinfurt","type":"Kreis"},"federalState":{"key":"05","name":"Nordrhein-Westfalen"}},{"name":"Ulmenweg","postalCode":"49477","locality":"Ibbenbüren","municipality":{"key":"05566028","name":"Ibbenbüren, Stadt","type":"Stadt"},"district":{"key":"05566","name":"Steinfurt","type":"Kreis"},"federalState":{"key":"05","name":"Nordrhein-Westfalen"}},{"name":"Unterer Markt","postalCode":"49477","locality":"Ibbenbüren","municipality":{"key":"05566028","name":"Ibbenbüren, Stadt","type":"Stadt"},"district":{"key":"05566","name":"Steinfurt","type":"Kreis"},"federalState":{"key":"05","name":"Nordrhein-Westfalen"}},{"name":"Up de Gadde","postalCode":"49479","locality":"Ibbenbüren","municipality":{"key":"05566028","name":"Ibbenbüren, Stadt","type":"Stadt"},"district":{"key":"05566","name":"Steinfurt","type":"Kreis"},"federalState":{"key":"05","name":"Nordrhein-Westfalen"}},{"name":"Uphof","postalCode":"49477","locality":"Ibbenbüren","municipality":{"key":"05566028","name":"Ibbenbüren, Stadt","type":"Stadt"},"district":{"key":"05566","name":"Steinfurt","type":"Kreis"},"federalState":{"key":"05","name":"Nordrhein-Westfalen"}},{"name":"Uppenkamp","postalCode":"49479","locality":"Ibbenbüren","municipality":{"key":"05566028","name":"Ibbenbüren, Stadt","type":"Stadt"},"district":{"key":"05566","name":"Steinfurt","type":"Kreis"},"federalState":{"key":"05","name":"Nordrhein-Westfalen"}},{"name":"Velper Str.","postalCode":"49479","locality":"Ibbenbüren","municipality":{"key":"05566028","name":"Ibbenbüren, Stadt","type":"Stadt"},"district":{"key":"05566","name":"Steinfurt","type":"Kreis"},"federalState":{"key":"05","name":"Nordrhein-Westfalen"}},{"name":"Venesch","postalCode":"49477","locality":"Ibbenbüren","municipality":{"key":"05566028","name":"Ibbenbüren, Stadt","type":"Stadt"},"district":{"key":"05566","name":"Steinfurt","type":"Kreis"},"federalState":{"key":"05","name":"Nordrhein-Westfalen"}},{"name":"Vershofenstr.","postalCode":"49479","locality":"Ibbenbüren","municipality":{"key":"05566028","name":"Ibbenbüren, Stadt","type":"Stadt"},"district":{"key":"05566","name":"Steinfurt","type":"Kreis"},"federalState":{"key":"05","name":"Nordrhein-Westfalen"}},{"name":"Vinkelfeld","postalCode":"49479","locality":"Ibbenbüren","municipality":{"key":"05566028","name":"Ibbenbüren, Stadt","type":"Stadt"},"district":{"key":"05566","name":"Steinfurt","type":"Kreis"},"federalState":{"key":"05","name":"Nordrhein-Westfalen"}},{"name":"Vogtlandstr.","postalCode":"49477","locality":"Ibbenbüren","municipality":{"key":"05566028","name":"Ibbenbüren, Stadt","type":"Stadt"},"district":{"key":"05566","name":"Steinfurt","type":"Kreis"},"federalState":{"key":"05","name":"Nordrhein-Westfalen"}},{"name":"Von der Heydt","postalCode":"49477","locality":"Ibbenbüren","municipality":{"key":"05566028","name":"Ibbenbüren, Stadt","type":"Stadt"},"district":{"key":"05566","name":"Steinfurt","type":"Kreis"},"federalState":{"key":"05","name":"Nordrhein-Westfalen"}},{"name":"Von-Vincke-Str.","postalCode":"49479","locality":"Ibbenbüren","municipality":{"key":"05566028","name":"Ibbenbüren, Stadt","type":"Stadt"},"district":{"key":"05566","name":"Steinfurt","type":"Kreis"},"federalState":{"key":"05","name":"Nordrhein-Westfalen"}},{"name":"Vor Ort","postalCode":"49477","locality":"Ibbenbüren","municipality":{"key":"05566028","name":"Ibbenbüren, Stadt","type":"Stadt"},"district":{"key":"05566","name":"Steinfurt","type":"Kreis"},"federalState":{"key":"05","name":"Nordrhein-Westfalen"}},{"name":"Voßhügel","postalCode":"49477","locality":"Ibbenbüren","municipality":{"key":"05566028","name":"Ibbenbüren, Stadt","type":"Stadt"},"district":{"key":"05566","name":"Steinfurt","type":"Kreis"},"federalState":{"key":"05","name":"Nordrhein-Westfalen"}},{"name":"Wacholderweg","postalCode":"49479","locality":"Ibbenbüren","municipality":{"key":"05566028","name":"Ibbenbüren, Stadt","type":"Stadt"},"district":{"key":"05566","name":"Steinfurt","type":"Kreis"},"federalState":{"key":"05","name":"Nordrhein-Westfalen"}},{"name":"Wagenfeldstr.","postalCode":"49477","locality":"Ibbenbüren","municipality":{"key":"05566028","name":"Ibbenbüren, Stadt","type":"Stadt"},"district":{"key":"05566","name":"Steinfurt","type":"Kreis"},"federalState":{"key":"05","name":"Nordrhein-Westfalen"}},{"name":"Wagnerstr.","postalCode":"49477","locality":"Ibbenbüren","municipality":{"key":"05566028","name":"Ibbenbüren, Stadt","type":"Stadt"},"district":{"key":"05566","name":"Steinfurt","type":"Kreis"},"federalState":{"key":"05","name":"Nordrhein-Westfalen"}},{"name":"Waldenburger Str.","postalCode":"49479","locality":"Ibbenbüren","municipality":{"key":"05566028","name":"Ibbenbüren, Stadt","type":"Stadt"},"district":{"key":"05566","name":"Steinfurt","type":"Kreis"},"federalState":{"key":"05","name":"Nordrhein-Westfalen"}},{"name":"Waldeshöhe","postalCode":"49479","locality":"Ibbenbüren","municipality":{"key":"05566028","name":"Ibbenbüren, Stadt","type":"Stadt"},"district":{"key":"05566","name":"Steinfurt","type":"Kreis"},"federalState":{"key":"05","name":"Nordrhein-Westfalen"}},{"name":"Waldfrieden","postalCode":"49477","locality":"Ibbenbüren","municipality":{"key":"05566028","name":"Ibbenbüren, Stadt","type":"Stadt"},"district":{"key":"05566","name":"Steinfurt","type":"Kreis"},"federalState":{"key":"05","name":"Nordrhein-Westfalen"}},{"name":"Waldweg","postalCode":"49479","locality":"Ibbenbüren","municipality":{"key":"05566028","name":"Ibbenbüren, Stadt","type":"Stadt"},"district":{"key":"05566","name":"Steinfurt","type":"Kreis"},"federalState":{"key":"05","name":"Nordrhein-Westfalen"}},{"name":"Wallgraben","postalCode":"49479","locality":"Ibbenbüren","municipality":{"key":"05566028","name":"Ibbenbüren, Stadt","type":"Stadt"},"district":{"key":"05566","name":"Steinfurt","type":"Kreis"},"federalState":{"key":"05","name":"Nordrhein-Westfalen"}},{"name":"Wallheckenweg","postalCode":"49477","locality":"Ibbenbüren","municipality":{"key":"05566028","name":"Ibbenbüren, Stadt","type":"Stadt"},"district":{"key":"05566","name":"Steinfurt","type":"Kreis"},"federalState":{"key":"05","name":"Nordrhein-Westfalen"}},{"name":"Walnußweg","postalCode":"49479","locality":"Ibbenbüren","municipality":{"key":"05566028","name":"Ibbenbüren, Stadt","type":"Stadt"},"district":{"key":"05566","name":"Steinfurt","type":"Kreis"},"federalState":{"key":"05","name":"Nordrhein-Westfalen"}},{"name":"Weberstr.","postalCode":"49477","locality":"Ibbenbüren","municipality":{"key":"05566028","name":"Ibbenbüren, Stadt","type":"Stadt"},"district":{"key":"05566","name":"Steinfurt","type":"Kreis"},"federalState":{"key":"05","name":"Nordrhein-Westfalen"}},{"name":"Weidenstr.","postalCode":"49477","locality":"Ibbenbüren","municipality":{"key":"05566028","name":"Ibbenbüren, Stadt","type":"Stadt"},"district":{"key":"05566","name":"Steinfurt","type":"Kreis"},"federalState":{"key":"05","name":"Nordrhein-Westfalen"}},{"name":"Weimarer Str.","postalCode":"49479","locality":"Ibbenbüren","municipality":{"key":"05566028","name":"Ibbenbüren, Stadt","type":"Stadt"},"district":{"key":"05566","name":"Steinfurt","type":"Kreis"},"federalState":{"key":"05","name":"Nordrhein-Westfalen"}},{"name":"Weißdornweg","postalCode":"49479","locality":"Ibbenbüren","municipality":{"key":"05566028","name":"Ibbenbüren, Stadt","type":"Stadt"},"district":{"key":"05566","name":"Steinfurt","type":"Kreis"},"federalState":{"key":"05","name":"Nordrhein-Westfalen"}},{"name":"Weizenweg","postalCode":"49479","locality":"Ibbenbüren","municipality":{"key":"05566028","name":"Ibbenbüren, Stadt","type":"Stadt"},"district":{"key":"05566","name":"Steinfurt","type":"Kreis"},"federalState":{"key":"05","name":"Nordrhein-Westfalen"}},{"name":"Wellenwiese","postalCode":"49479","locality":"Ibbenbüren","municipality":{"key":"05566028","name":"Ibbenbüren, Stadt","type":"Stadt"},"district":{"key":"05566","name":"Steinfurt","type":"Kreis"},"federalState":{"key":"05","name":"Nordrhein-Westfalen"}},{"name":"Wersborgweg","postalCode":"49477","locality":"Ibbenbüren","municipality":{"key":"05566028","name":"Ibbenbüren, Stadt","type":"Stadt"},"district":{"key":"05566","name":"Steinfurt","type":"Kreis"},"federalState":{"key":"05","name":"Nordrhein-Westfalen"}},{"name":"Werthmühlenstr.","postalCode":"49477","locality":"Ibbenbüren","municipality":{"key":"05566028","name":"Ibbenbüren, Stadt","type":"Stadt"},"district":{"key":"05566","name":"Steinfurt","type":"Kreis"},"federalState":{"key":"05","name":"Nordrhein-Westfalen"}},{"name":"Westfalenstr.","postalCode":"49477","locality":"Ibbenbüren","municipality":{"key":"05566028","name":"Ibbenbüren, Stadt","type":"Stadt"},"district":{"key":"05566","name":"Steinfurt","type":"Kreis"},"federalState":{"key":"05","name":"Nordrhein-Westfalen"}},{"name":"Weststr.","postalCode":"49477","locality":"Ibbenbüren","municipality":{"key":"05566028","name":"Ibbenbüren, Stadt","type":"Stadt"},"district":{"key":"05566","name":"Steinfurt","type":"Kreis"},"federalState":{"key":"05","name":"Nordrhein-Westfalen"}},{"name":"Wetkampstr.","postalCode":"49479","locality":"Ibbenbüren","municipality":{"key":"05566028","name":"Ibbenbüren, Stadt","type":"Stadt"},"district":{"key":"05566","name":"Steinfurt","type":"Kreis"},"federalState":{"key":"05","name":"Nordrhein-Westfalen"}},{"name":"Wetterstr.","postalCode":"49477","locality":"Ibbenbüren","municipality":{"key":"05566028","name":"Ibbenbüren, Stadt","type":"Stadt"},"district":{"key":"05566","name":"Steinfurt","type":"Kreis"},"federalState":{"key":"05","name":"Nordrhein-Westfalen"}},{"name":"Wibbeltstr.","postalCode":"49477","locality":"Ibbenbüren","municipality":{"key":"05566028","name":"Ibbenbüren, Stadt","type":"Stadt"},"district":{"key":"05566","name":"Steinfurt","type":"Kreis"},"federalState":{"key":"05","name":"Nordrhein-Westfalen"}},{"name":"Wichtelweg","postalCode":"49479","locality":"Ibbenbüren","municipality":{"key":"05566028","name":"Ibbenbüren, Stadt","type":"Stadt"},"district":{"key":"05566","name":"Steinfurt","type":"Kreis"},"federalState":{"key":"05","name":"Nordrhein-Westfalen"}},{"name":"Widukindstr.","postalCode":"49477","locality":"Ibbenbüren","municipality":{"key":"05566028","name":"Ibbenbüren, Stadt","type":"Stadt"},"district":{"key":"05566","name":"Steinfurt","type":"Kreis"},"federalState":{"key":"05","name":"Nordrhein-Westfalen"}},{"name":"Wieker Berg","postalCode":"49479","locality":"Ibbenbüren","municipality":{"key":"05566028","name":"Ibbenbüren, Stadt","type":"Stadt"},"district":{"key":"05566","name":"Steinfurt","type":"Kreis"},"federalState":{"key":"05","name":"Nordrhein-Westfalen"}},{"name":"Wieselpaß","postalCode":"49479","locality":"Ibbenbüren","municipality":{"key":"05566028","name":"Ibbenbüren, Stadt","type":"Stadt"},"district":{"key":"05566","name":"Steinfurt","type":"Kreis"},"federalState":{"key":"05","name":"Nordrhein-Westfalen"}},{"name":"Wiesenerskamp","postalCode":"49477","locality":"Ibbenbüren","municipality":{"key":"05566028","name":"Ibbenbüren, Stadt","type":"Stadt"},"district":{"key":"05566","name":"Steinfurt","type":"Kreis"},"federalState":{"key":"05","name":"Nordrhein-Westfalen"}},{"name":"Wiesengrund","postalCode":"49479","locality":"Ibbenbüren","municipality":{"key":"05566028","name":"Ibbenbüren, Stadt","type":"Stadt"},"district":{"key":"05566","name":"Steinfurt","type":"Kreis"},"federalState":{"key":"05","name":"Nordrhein-Westfalen"}},{"name":"Wiesenweg","postalCode":"49477","locality":"Ibbenbüren","municipality":{"key":"05566028","name":"Ibbenbüren, Stadt","type":"Stadt"},"district":{"key":"05566","name":"Steinfurt","type":"Kreis"},"federalState":{"key":"05","name":"Nordrhein-Westfalen"}},{"name":"Wieskebrook","postalCode":"49479","locality":"Ibbenbüren","municipality":{"key":"05566028","name":"Ibbenbüren, Stadt","type":"Stadt"},"district":{"key":"05566","name":"Steinfurt","type":"Kreis"},"federalState":{"key":"05","name":"Nordrhein-Westfalen"}},{"name":"Wildenesch","postalCode":"49477","locality":"Ibbenbüren","municipality":{"key":"05566028","name":"Ibbenbüren, Stadt","type":"Stadt"},"district":{"key":"05566","name":"Steinfurt","type":"Kreis"},"federalState":{"key":"05","name":"Nordrhein-Westfalen"}},{"name":"Wildkamp","postalCode":"49479","locality":"Ibbenbüren","municipality":{"key":"05566028","name":"Ibbenbüren, Stadt","type":"Stadt"},"district":{"key":"05566","name":"Steinfurt","type":"Kreis"},"federalState":{"key":"05","name":"Nordrhein-Westfalen"}},{"name":"Wilhelm-Busch-Str.","postalCode":"49479","locality":"Ibbenbüren","municipality":{"key":"05566028","name":"Ibbenbüren, Stadt","type":"Stadt"},"district":{"key":"05566","name":"Steinfurt","type":"Kreis"},"federalState":{"key":"05","name":"Nordrhein-Westfalen"}},{"name":"Wilhelmstr.","postalCode":"49477","locality":"Ibbenbüren","municipality":{"key":"05566028","name":"Ibbenbüren, Stadt","type":"Stadt"},"district":{"key":"05566","name":"Steinfurt","type":"Kreis"},"federalState":{"key":"05","name":"Nordrhein-Westfalen"}},{"name":"Wilhelmstr.","postalCode":"49479","locality":"Ibbenbüren","municipality":{"key":"05566028","name":"Ibbenbüren, Stadt","type":"Stadt"},"district":{"key":"05566","name":"Steinfurt","type":"Kreis"},"federalState":{"key":"05","name":"Nordrhein-Westfalen"}},{"name":"Windmühlenweg","postalCode":"49479","locality":"Ibbenbüren","municipality":{"key":"05566028","name":"Ibbenbüren, Stadt","type":"Stadt"},"district":{"key":"05566","name":"Steinfurt","type":"Kreis"},"federalState":{"key":"05","name":"Nordrhein-Westfalen"}},{"name":"Winkelhof","postalCode":"49479","locality":"Ibbenbüren","municipality":{"key":"05566028","name":"Ibbenbüren, Stadt","type":"Stadt"},"district":{"key":"05566","name":"Steinfurt","type":"Kreis"},"federalState":{"key":"05","name":"Nordrhein-Westfalen"}},{"name":"Winkelstr.","postalCode":"49477","locality":"Ibbenbüren","municipality":{"key":"05566028","name":"Ibbenbüren, Stadt","type":"Stadt"},"district":{"key":"05566","name":"Steinfurt","type":"Kreis"},"federalState":{"key":"05","name":"Nordrhein-Westfalen"}},{"name":"Wismarer Weg","postalCode":"49479","locality":"Ibbenbüren","municipality":{"key":"05566028","name":"Ibbenbüren, Stadt","type":"Stadt"},"district":{"key":"05566","name":"Steinfurt","type":"Kreis"},"federalState":{"key":"05","name":"Nordrhein-Westfalen"}},{"name":"Wittenberger Str.","postalCode":"49479","locality":"Ibbenbüren","municipality":{"key":"05566028","name":"Ibbenbüren, Stadt","type":"Stadt"},"district":{"key":"05566","name":"Steinfurt","type":"Kreis"},"federalState":{"key":"05","name":"Nordrhein-Westfalen"}},{"name":"Wurtkampstr.","postalCode":"49479","locality":"Ibbenbüren","municipality":{"key":"05566028","name":"Ibbenbüren, Stadt","type":"Stadt"},"district":{"key":"05566","name":"Steinfurt","type":"Kreis"},"federalState":{"key":"05","name":"Nordrhein-Westfalen"}},{"name":"Zedernweg","postalCode":"49477","locality":"Ibbenbüren","municipality":{"key":"05566028","name":"Ibbenbüren, Stadt","type":"Stadt"},"district":{"key":"05566","name":"Steinfurt","type":"Kreis"},"federalState":{"key":"05","name":"Nordrhein-Westfalen"}},{"name":"Zu den Kämpen","postalCode":"49477","locality":"Ibbenbüren","municipality":{"key":"05566028","name":"Ibbenbüren, Stadt","type":"Stadt"},"district":{"key":"05566","name":"Steinfurt","type":"Kreis"},"federalState":{"key":"05","name":"Nordrhein-Westfalen"}},{"name":"Zumdiekskamp","postalCode":"49477","locality":"Ibbenbüren","municipality":{"key":"05566028","name":"Ibbenbüren, Stadt","type":"Stadt"},"district":{"key":"05566","name":"Steinfurt","type":"Kreis"},"federalState":{"key":"05","name":"Nordrhein-Westfalen"}},{"name":"Zum Esch","postalCode":"49479","locality":"Ibbenbüren","municipality":{"key":"05566028","name":"Ibbenbüren, Stadt","type":"Stadt"},"district":{"key":"05566","name":"Steinfurt","type":"Kreis"},"federalState":{"key":"05","name":"Nordrhein-Westfalen"}},{"name":"Zum Guten Hirten","postalCode":"49477","locality":"Ibbenbüren","municipality":{"key":"05566028","name":"Ibbenbüren, Stadt","type":"Stadt"},"district":{"key":"05566","name":"Steinfurt","type":"Kreis"},"federalState":{"key":"05","name":"Nordrhein-Westfalen"}},{"name":"Zum Mühlsteinbruch","postalCode":"49479","locality":"Ibbenbüren","municipality":{"key":"05566028","name":"Ibbenbüren, Stadt","type":"Stadt"},"district":{"key":"05566","name":"Steinfurt","type":"Kreis"},"federalState":{"key":"05","name":"Nordrhein-Westfalen"}},{"name":"Zum Welleken","postalCode":"49477","locality":"Ibbenbüren","municipality":{"key":"05566028","name":"Ibbenbüren, Stadt","type":"Stadt"},"district":{"key":"05566","name":"Steinfurt","type":"Kreis"},"federalState":{"key":"05","name":"Nordrhein-Westfalen"}},{"name":"Zur Post","postalCode":"49479","locality":"Ibbenbüren","municipality":{"key":"05566028","name":"Ibbenbüren, Stadt","type":"Stadt"},"district":{"key":"05566","name":"Steinfurt","type":"Kreis"},"federalState":{"key":"05","name":"Nordrhein-Westfalen"}},{"name":"Zwirnerweg","postalCode":"49477","locality":"Ibbenbüren","municipality":{"key":"05566028","name":"Ibbenbüren, Stadt","type":"Stadt"},"district":{"key":"05566","name":"Steinfurt","type":"Kreis"},"federalState":{"key":"05","name":"Nordrhein-Westfalen"}},]