[{"name":"1. Richtstatt","postalCode":"76307","locality":"Karlsbad","municipality":{"key":"08215096","name":"Karlsbad","type":"Kreisangehörige_Gemeinde"},"district":{"key":"08215","name":"Karlsruhe","type":"Landkreis"},"federalState":{"key":"08","name":"Baden-Württemberg"}},{"name":"2015","postalCode":"76307","locality":"Karlsbad","municipality":{"key":"08215096","name":"Karlsbad","type":"Kreisangehörige_Gemeinde"},"district":{"key":"08215","name":"Karlsruhe","type":"Landkreis"},"federalState":{"key":"08","name":"Baden-Württemberg"}},{"name":"2. Richtstatt","postalCode":"76307","locality":"Karlsbad","municipality":{"key":"08215096","name":"Karlsbad","type":"Kreisangehörige_Gemeinde"},"district":{"key":"08215","name":"Karlsruhe","type":"Landkreis"},"federalState":{"key":"08","name":"Baden-Württemberg"}},{"name":"Ahornweg","postalCode":"76307","locality":"Karlsbad","municipality":{"key":"08215096","name":"Karlsbad","type":"Kreisangehörige_Gemeinde"},"district":{"key":"08215","name":"Karlsruhe","type":"Landkreis"},"federalState":{"key":"08","name":"Baden-Württemberg"}},{"name":"Albtalstr.","postalCode":"76307","locality":"Karlsbad","municipality":{"key":"08215096","name":"Karlsbad","type":"Kreisangehörige_Gemeinde"},"district":{"key":"08215","name":"Karlsruhe","type":"Landkreis"},"federalState":{"key":"08","name":"Baden-Württemberg"}},{"name":"Alemannenstr.","postalCode":"76307","locality":"Karlsbad","municipality":{"key":"08215096","name":"Karlsbad","type":"Kreisangehörige_Gemeinde"},"district":{"key":"08215","name":"Karlsruhe","type":"Landkreis"},"federalState":{"key":"08","name":"Baden-Württemberg"}},{"name":"Allmendweg","postalCode":"76307","locality":"Karlsbad","municipality":{"key":"08215096","name":"Karlsbad","type":"Kreisangehörige_Gemeinde"},"district":{"key":"08215","name":"Karlsruhe","type":"Landkreis"},"federalState":{"key":"08","name":"Baden-Württemberg"}},{"name":"Alte Albtalbahn","postalCode":"76307","locality":"Karlsbad","municipality":{"key":"08215096","name":"Karlsbad","type":"Kreisangehörige_Gemeinde"},"district":{"key":"08215","name":"Karlsruhe","type":"Landkreis"},"federalState":{"key":"08","name":"Baden-Württemberg"}},{"name":"Alte Ittersbacher Str.","postalCode":"76307","locality":"Karlsbad","municipality":{"key":"08215096","name":"Karlsbad","type":"Kreisangehörige_Gemeinde"},"district":{"key":"08215","name":"Karlsruhe","type":"Landkreis"},"federalState":{"key":"08","name":"Baden-Württemberg"}},{"name":"Alter Katzbachweg","postalCode":"76307","locality":"Karlsbad","municipality":{"key":"08215096","name":"Karlsbad","type":"Kreisangehörige_Gemeinde"},"district":{"key":"08215","name":"Karlsruhe","type":"Landkreis"},"federalState":{"key":"08","name":"Baden-Württemberg"}},{"name":"Alter Langenalber Weg","postalCode":"76307","locality":"Karlsbad","municipality":{"key":"08215096","name":"Karlsbad","type":"Kreisangehörige_Gemeinde"},"district":{"key":"08215","name":"Karlsruhe","type":"Landkreis"},"federalState":{"key":"08","name":"Baden-Württemberg"}},{"name":"alter SWV-Wanderweg","postalCode":"76307","locality":"Karlsbad","municipality":{"key":"08215096","name":"Karlsbad","type":"Kreisangehörige_Gemeinde"},"district":{"key":"08215","name":"Karlsruhe","type":"Landkreis"},"federalState":{"key":"08","name":"Baden-Württemberg"}},{"name":"Alte Spielberger Str.","postalCode":"76307","locality":"Karlsbad","municipality":{"key":"08215096","name":"Karlsbad","type":"Kreisangehörige_Gemeinde"},"district":{"key":"08215","name":"Karlsruhe","type":"Landkreis"},"federalState":{"key":"08","name":"Baden-Württemberg"}},{"name":"Alte Weiler Str.","postalCode":"76307","locality":"Karlsbad","municipality":{"key":"08215096","name":"Karlsbad","type":"Kreisangehörige_Gemeinde"},"district":{"key":"08215","name":"Karlsruhe","type":"Landkreis"},"federalState":{"key":"08","name":"Baden-Württemberg"}},{"name":"Altheuweg","postalCode":"76307","locality":"Karlsbad","municipality":{"key":"08215096","name":"Karlsbad","type":"Kreisangehörige_Gemeinde"},"district":{"key":"08215","name":"Karlsruhe","type":"Landkreis"},"federalState":{"key":"08","name":"Baden-Württemberg"}},{"name":"Am alten Bahndamm","postalCode":"76307","locality":"Karlsbad","municipality":{"key":"08215096","name":"Karlsbad","type":"Kreisangehörige_Gemeinde"},"district":{"key":"08215","name":"Karlsruhe","type":"Landkreis"},"federalState":{"key":"08","name":"Baden-Württemberg"}},{"name":"Am Auerbach","postalCode":"76307","locality":"Karlsbad","municipality":{"key":"08215096","name":"Karlsbad","type":"Kreisangehörige_Gemeinde"},"district":{"key":"08215","name":"Karlsruhe","type":"Landkreis"},"federalState":{"key":"08","name":"Baden-Württemberg"}},{"name":"Am Durlacher Berg","postalCode":"76307","locality":"Karlsbad","municipality":{"key":"08215096","name":"Karlsbad","type":"Kreisangehörige_Gemeinde"},"district":{"key":"08215","name":"Karlsruhe","type":"Landkreis"},"federalState":{"key":"08","name":"Baden-Württemberg"}},{"name":"Am Enlensberg","postalCode":"76307","locality":"Karlsbad","municipality":{"key":"08215096","name":"Karlsbad","type":"Kreisangehörige_Gemeinde"},"district":{"key":"08215","name":"Karlsruhe","type":"Landkreis"},"federalState":{"key":"08","name":"Baden-Württemberg"}},{"name":"Am Erlisrain","postalCode":"76307","locality":"Karlsbad","municipality":{"key":"08215096","name":"Karlsbad","type":"Kreisangehörige_Gemeinde"},"district":{"key":"08215","name":"Karlsruhe","type":"Landkreis"},"federalState":{"key":"08","name":"Baden-Württemberg"}},{"name":"Am Hang","postalCode":"76307","locality":"Karlsbad","municipality":{"key":"08215096","name":"Karlsbad","type":"Kreisangehörige_Gemeinde"},"district":{"key":"08215","name":"Karlsruhe","type":"Landkreis"},"federalState":{"key":"08","name":"Baden-Württemberg"}},{"name":"Am Neubruch","postalCode":"76307","locality":"Karlsbad","municipality":{"key":"08215096","name":"Karlsbad","type":"Kreisangehörige_Gemeinde"},"district":{"key":"08215","name":"Karlsruhe","type":"Landkreis"},"federalState":{"key":"08","name":"Baden-Württemberg"}},{"name":"Am Rain","postalCode":"76307","locality":"Karlsbad","municipality":{"key":"08215096","name":"Karlsbad","type":"Kreisangehörige_Gemeinde"},"district":{"key":"08215","name":"Karlsruhe","type":"Landkreis"},"federalState":{"key":"08","name":"Baden-Württemberg"}},{"name":"Am Schelmenbusch","postalCode":"76307","locality":"Karlsbad","municipality":{"key":"08215096","name":"Karlsbad","type":"Kreisangehörige_Gemeinde"},"district":{"key":"08215","name":"Karlsruhe","type":"Landkreis"},"federalState":{"key":"08","name":"Baden-Württemberg"}},{"name":"Am Sportplatz","postalCode":"76307","locality":"Karlsbad","municipality":{"key":"08215096","name":"Karlsbad","type":"Kreisangehörige_Gemeinde"},"district":{"key":"08215","name":"Karlsruhe","type":"Landkreis"},"federalState":{"key":"08","name":"Baden-Württemberg"}},{"name":"Am Steinbruch","postalCode":"76307","locality":"Karlsbad","municipality":{"key":"08215096","name":"Karlsbad","type":"Kreisangehörige_Gemeinde"},"district":{"key":"08215","name":"Karlsruhe","type":"Landkreis"},"federalState":{"key":"08","name":"Baden-Württemberg"}},{"name":"Am Weingarten","postalCode":"76307","locality":"Karlsbad","municipality":{"key":"08215096","name":"Karlsbad","type":"Kreisangehörige_Gemeinde"},"district":{"key":"08215","name":"Karlsruhe","type":"Landkreis"},"federalState":{"key":"08","name":"Baden-Württemberg"}},{"name":"Auerbacher Weg","postalCode":"76307","locality":"Karlsbad","municipality":{"key":"08215096","name":"Karlsbad","type":"Kreisangehörige_Gemeinde"},"district":{"key":"08215","name":"Karlsruhe","type":"Landkreis"},"federalState":{"key":"08","name":"Baden-Württemberg"}},{"name":"Auf der Hub","postalCode":"76307","locality":"Karlsbad","municipality":{"key":"08215096","name":"Karlsbad","type":"Kreisangehörige_Gemeinde"},"district":{"key":"08215","name":"Karlsruhe","type":"Landkreis"},"federalState":{"key":"08","name":"Baden-Württemberg"}},{"name":"Badhausweg","postalCode":"76307","locality":"Karlsbad","municipality":{"key":"08215096","name":"Karlsbad","type":"Kreisangehörige_Gemeinde"},"district":{"key":"08215","name":"Karlsruhe","type":"Landkreis"},"federalState":{"key":"08","name":"Baden-Württemberg"}},{"name":"Badstr.","postalCode":"76307","locality":"Karlsbad","municipality":{"key":"08215096","name":"Karlsbad","type":"Kreisangehörige_Gemeinde"},"district":{"key":"08215","name":"Karlsruhe","type":"Landkreis"},"federalState":{"key":"08","name":"Baden-Württemberg"}},{"name":"Badweg","postalCode":"76307","locality":"Karlsbad","municipality":{"key":"08215096","name":"Karlsbad","type":"Kreisangehörige_Gemeinde"},"district":{"key":"08215","name":"Karlsruhe","type":"Landkreis"},"federalState":{"key":"08","name":"Baden-Württemberg"}},{"name":"Bahnhofstr.","postalCode":"76307","locality":"Karlsbad","municipality":{"key":"08215096","name":"Karlsbad","type":"Kreisangehörige_Gemeinde"},"district":{"key":"08215","name":"Karlsruhe","type":"Landkreis"},"federalState":{"key":"08","name":"Baden-Württemberg"}},{"name":"Baltlinsweg","postalCode":"76307","locality":"Karlsbad","municipality":{"key":"08215096","name":"Karlsbad","type":"Kreisangehörige_Gemeinde"},"district":{"key":"08215","name":"Karlsruhe","type":"Landkreis"},"federalState":{"key":"08","name":"Baden-Württemberg"}},{"name":"Baumgartenstr.","postalCode":"76307","locality":"Karlsbad","municipality":{"key":"08215096","name":"Karlsbad","type":"Kreisangehörige_Gemeinde"},"district":{"key":"08215","name":"Karlsruhe","type":"Landkreis"},"federalState":{"key":"08","name":"Baden-Württemberg"}},{"name":"Baumschulweg","postalCode":"76307","locality":"Karlsbad","municipality":{"key":"08215096","name":"Karlsbad","type":"Kreisangehörige_Gemeinde"},"district":{"key":"08215","name":"Karlsruhe","type":"Landkreis"},"federalState":{"key":"08","name":"Baden-Württemberg"}},{"name":"Becker-Göring-Str.","postalCode":"76307","locality":"Karlsbad","municipality":{"key":"08215096","name":"Karlsbad","type":"Kreisangehörige_Gemeinde"},"district":{"key":"08215","name":"Karlsruhe","type":"Landkreis"},"federalState":{"key":"08","name":"Baden-Württemberg"}},{"name":"Beethovenstr.","postalCode":"76307","locality":"Karlsbad","municipality":{"key":"08215096","name":"Karlsbad","type":"Kreisangehörige_Gemeinde"},"district":{"key":"08215","name":"Karlsruhe","type":"Landkreis"},"federalState":{"key":"08","name":"Baden-Württemberg"}},{"name":"Belchenstr.","postalCode":"76307","locality":"Karlsbad","municipality":{"key":"08215096","name":"Karlsbad","type":"Kreisangehörige_Gemeinde"},"district":{"key":"08215","name":"Karlsruhe","type":"Landkreis"},"federalState":{"key":"08","name":"Baden-Württemberg"}},{"name":"Bergstr.","postalCode":"76307","locality":"Karlsbad","municipality":{"key":"08215096","name":"Karlsbad","type":"Kreisangehörige_Gemeinde"},"district":{"key":"08215","name":"Karlsruhe","type":"Landkreis"},"federalState":{"key":"08","name":"Baden-Württemberg"}},{"name":"Bienenlehrpfad","postalCode":"76307","locality":"Karlsbad","municipality":{"key":"08215096","name":"Karlsbad","type":"Kreisangehörige_Gemeinde"},"district":{"key":"08215","name":"Karlsruhe","type":"Landkreis"},"federalState":{"key":"08","name":"Baden-Württemberg"}},{"name":"Birkenstr.","postalCode":"76307","locality":"Karlsbad","municipality":{"key":"08215096","name":"Karlsbad","type":"Kreisangehörige_Gemeinde"},"district":{"key":"08215","name":"Karlsruhe","type":"Landkreis"},"federalState":{"key":"08","name":"Baden-Württemberg"}},{"name":"Blumenstr.","postalCode":"76307","locality":"Karlsbad","municipality":{"key":"08215096","name":"Karlsbad","type":"Kreisangehörige_Gemeinde"},"district":{"key":"08215","name":"Karlsruhe","type":"Landkreis"},"federalState":{"key":"08","name":"Baden-Württemberg"}},{"name":"Bockstalstr.","postalCode":"76307","locality":"Karlsbad","municipality":{"key":"08215096","name":"Karlsbad","type":"Kreisangehörige_Gemeinde"},"district":{"key":"08215","name":"Karlsruhe","type":"Landkreis"},"federalState":{"key":"08","name":"Baden-Württemberg"}},{"name":"Bolzbrünneleweg","postalCode":"76307","locality":"Karlsbad","municipality":{"key":"08215096","name":"Karlsbad","type":"Kreisangehörige_Gemeinde"},"district":{"key":"08215","name":"Karlsruhe","type":"Landkreis"},"federalState":{"key":"08","name":"Baden-Württemberg"}},{"name":"Bonreisichweg","postalCode":"76307","locality":"Karlsbad","municipality":{"key":"08215096","name":"Karlsbad","type":"Kreisangehörige_Gemeinde"},"district":{"key":"08215","name":"Karlsruhe","type":"Landkreis"},"federalState":{"key":"08","name":"Baden-Württemberg"}},{"name":"Breitwiesenring","postalCode":"76307","locality":"Karlsbad","municipality":{"key":"08215096","name":"Karlsbad","type":"Kreisangehörige_Gemeinde"},"district":{"key":"08215","name":"Karlsruhe","type":"Landkreis"},"federalState":{"key":"08","name":"Baden-Württemberg"}},{"name":"Breslauer Str.","postalCode":"76307","locality":"Karlsbad","municipality":{"key":"08215096","name":"Karlsbad","type":"Kreisangehörige_Gemeinde"},"district":{"key":"08215","name":"Karlsruhe","type":"Landkreis"},"federalState":{"key":"08","name":"Baden-Württemberg"}},{"name":"Brunnenstr.","postalCode":"76307","locality":"Karlsbad","municipality":{"key":"08215096","name":"Karlsbad","type":"Kreisangehörige_Gemeinde"},"district":{"key":"08215","name":"Karlsruhe","type":"Landkreis"},"federalState":{"key":"08","name":"Baden-Württemberg"}},{"name":"Buchenweg","postalCode":"76307","locality":"Karlsbad","municipality":{"key":"08215096","name":"Karlsbad","type":"Kreisangehörige_Gemeinde"},"district":{"key":"08215","name":"Karlsruhe","type":"Landkreis"},"federalState":{"key":"08","name":"Baden-Württemberg"}},{"name":"Buchwaldstr.","postalCode":"76307","locality":"Karlsbad","municipality":{"key":"08215096","name":"Karlsbad","type":"Kreisangehörige_Gemeinde"},"district":{"key":"08215","name":"Karlsruhe","type":"Landkreis"},"federalState":{"key":"08","name":"Baden-Württemberg"}},{"name":"Buckeberg","postalCode":"76307","locality":"Karlsbad","municipality":{"key":"08215096","name":"Karlsbad","type":"Kreisangehörige_Gemeinde"},"district":{"key":"08215","name":"Karlsruhe","type":"Landkreis"},"federalState":{"key":"08","name":"Baden-Württemberg"}},{"name":"Bürgerstr.","postalCode":"76307","locality":"Karlsbad","municipality":{"key":"08215096","name":"Karlsbad","type":"Kreisangehörige_Gemeinde"},"district":{"key":"08215","name":"Karlsruhe","type":"Landkreis"},"federalState":{"key":"08","name":"Baden-Württemberg"}},{"name":"Calvinstr.","postalCode":"76307","locality":"Karlsbad","municipality":{"key":"08215096","name":"Karlsbad","type":"Kreisangehörige_Gemeinde"},"district":{"key":"08215","name":"Karlsruhe","type":"Landkreis"},"federalState":{"key":"08","name":"Baden-Württemberg"}},{"name":"Dachsbaurichtstatt","postalCode":"76307","locality":"Karlsbad","municipality":{"key":"08215096","name":"Karlsbad","type":"Kreisangehörige_Gemeinde"},"district":{"key":"08215","name":"Karlsruhe","type":"Landkreis"},"federalState":{"key":"08","name":"Baden-Württemberg"}},{"name":"Danziger Str.","postalCode":"76307","locality":"Karlsbad","municipality":{"key":"08215096","name":"Karlsbad","type":"Kreisangehörige_Gemeinde"},"district":{"key":"08215","name":"Karlsruhe","type":"Landkreis"},"federalState":{"key":"08","name":"Baden-Württemberg"}},{"name":"Desco-Str.","postalCode":"76307","locality":"Karlsbad","municipality":{"key":"08215096","name":"Karlsbad","type":"Kreisangehörige_Gemeinde"},"district":{"key":"08215","name":"Karlsruhe","type":"Landkreis"},"federalState":{"key":"08","name":"Baden-Württemberg"}},{"name":"Diebswiesenweg","postalCode":"76307","locality":"Karlsbad","municipality":{"key":"08215096","name":"Karlsbad","type":"Kreisangehörige_Gemeinde"},"district":{"key":"08215","name":"Karlsruhe","type":"Landkreis"},"federalState":{"key":"08","name":"Baden-Württemberg"}},{"name":"Dobelstr.","postalCode":"76307","locality":"Karlsbad","municipality":{"key":"08215096","name":"Karlsbad","type":"Kreisangehörige_Gemeinde"},"district":{"key":"08215","name":"Karlsruhe","type":"Landkreis"},"federalState":{"key":"08","name":"Baden-Württemberg"}},{"name":"Dolrichtstadt","postalCode":"76307","locality":"Karlsbad","municipality":{"key":"08215096","name":"Karlsbad","type":"Kreisangehörige_Gemeinde"},"district":{"key":"08215","name":"Karlsruhe","type":"Landkreis"},"federalState":{"key":"08","name":"Baden-Württemberg"}},{"name":"Dorfwiesenweg","postalCode":"76307","locality":"Karlsbad","municipality":{"key":"08215096","name":"Karlsbad","type":"Kreisangehörige_Gemeinde"},"district":{"key":"08215","name":"Karlsruhe","type":"Landkreis"},"federalState":{"key":"08","name":"Baden-Württemberg"}},{"name":"Douglassstr.","postalCode":"76307","locality":"Karlsbad","municipality":{"key":"08215096","name":"Karlsbad","type":"Kreisangehörige_Gemeinde"},"district":{"key":"08215","name":"Karlsruhe","type":"Landkreis"},"federalState":{"key":"08","name":"Baden-Württemberg"}},{"name":"Drehergasse","postalCode":"76307","locality":"Karlsbad","municipality":{"key":"08215096","name":"Karlsbad","type":"Kreisangehörige_Gemeinde"},"district":{"key":"08215","name":"Karlsruhe","type":"Landkreis"},"federalState":{"key":"08","name":"Baden-Württemberg"}},{"name":"Durlacher Str.","postalCode":"76307","locality":"Karlsbad","municipality":{"key":"08215096","name":"Karlsbad","type":"Kreisangehörige_Gemeinde"},"district":{"key":"08215","name":"Karlsruhe","type":"Landkreis"},"federalState":{"key":"08","name":"Baden-Württemberg"}},{"name":"ehem. Kleinbahn Ittersbach-Pforzheim","postalCode":"76307","locality":"Karlsbad","municipality":{"key":"08215096","name":"Karlsbad","type":"Kreisangehörige_Gemeinde"},"district":{"key":"08215","name":"Karlsruhe","type":"Landkreis"},"federalState":{"key":"08","name":"Baden-Württemberg"}},{"name":"Eichgasse","postalCode":"76307","locality":"Karlsbad","municipality":{"key":"08215096","name":"Karlsbad","type":"Kreisangehörige_Gemeinde"},"district":{"key":"08215","name":"Karlsruhe","type":"Landkreis"},"federalState":{"key":"08","name":"Baden-Württemberg"}},{"name":"Eisenbahnstr.","postalCode":"76307","locality":"Karlsbad","municipality":{"key":"08215096","name":"Karlsbad","type":"Kreisangehörige_Gemeinde"},"district":{"key":"08215","name":"Karlsruhe","type":"Landkreis"},"federalState":{"key":"08","name":"Baden-Württemberg"}},{"name":"Enzstr.","postalCode":"76307","locality":"Karlsbad","municipality":{"key":"08215096","name":"Karlsbad","type":"Kreisangehörige_Gemeinde"},"district":{"key":"08215","name":"Karlsruhe","type":"Landkreis"},"federalState":{"key":"08","name":"Baden-Württemberg"}},{"name":"Erlenweg","postalCode":"76307","locality":"Karlsbad","municipality":{"key":"08215096","name":"Karlsbad","type":"Kreisangehörige_Gemeinde"},"district":{"key":"08215","name":"Karlsruhe","type":"Landkreis"},"federalState":{"key":"08","name":"Baden-Württemberg"}},{"name":"Espichweg","postalCode":"76307","locality":"Karlsbad","municipality":{"key":"08215096","name":"Karlsbad","type":"Kreisangehörige_Gemeinde"},"district":{"key":"08215","name":"Karlsruhe","type":"Landkreis"},"federalState":{"key":"08","name":"Baden-Württemberg"}},{"name":"Ettlinger Str.","postalCode":"76307","locality":"Karlsbad","municipality":{"key":"08215096","name":"Karlsbad","type":"Kreisangehörige_Gemeinde"},"district":{"key":"08215","name":"Karlsruhe","type":"Landkreis"},"federalState":{"key":"08","name":"Baden-Württemberg"}},{"name":"Ettlinger Weg","postalCode":"76307","locality":"Karlsbad","municipality":{"key":"08215096","name":"Karlsbad","type":"Kreisangehörige_Gemeinde"},"district":{"key":"08215","name":"Karlsruhe","type":"Landkreis"},"federalState":{"key":"08","name":"Baden-Württemberg"}},{"name":"Eyachstr.","postalCode":"76307","locality":"Karlsbad","municipality":{"key":"08215096","name":"Karlsbad","type":"Kreisangehörige_Gemeinde"},"district":{"key":"08215","name":"Karlsruhe","type":"Landkreis"},"federalState":{"key":"08","name":"Baden-Württemberg"}},{"name":"Falkensteinstr.","postalCode":"76307","locality":"Karlsbad","municipality":{"key":"08215096","name":"Karlsbad","type":"Kreisangehörige_Gemeinde"},"district":{"key":"08215","name":"Karlsruhe","type":"Landkreis"},"federalState":{"key":"08","name":"Baden-Württemberg"}},{"name":"Feldbergstr.","postalCode":"76307","locality":"Karlsbad","municipality":{"key":"08215096","name":"Karlsbad","type":"Kreisangehörige_Gemeinde"},"district":{"key":"08215","name":"Karlsruhe","type":"Landkreis"},"federalState":{"key":"08","name":"Baden-Württemberg"}},{"name":"Feldblickstr.","postalCode":"76307","locality":"Karlsbad","municipality":{"key":"08215096","name":"Karlsbad","type":"Kreisangehörige_Gemeinde"},"district":{"key":"08215","name":"Karlsruhe","type":"Landkreis"},"federalState":{"key":"08","name":"Baden-Württemberg"}},{"name":"Feldlesweg","postalCode":"76307","locality":"Karlsbad","municipality":{"key":"08215096","name":"Karlsbad","type":"Kreisangehörige_Gemeinde"},"district":{"key":"08215","name":"Karlsruhe","type":"Landkreis"},"federalState":{"key":"08","name":"Baden-Württemberg"}},{"name":"Fichtenstr.","postalCode":"76307","locality":"Karlsbad","municipality":{"key":"08215096","name":"Karlsbad","type":"Kreisangehörige_Gemeinde"},"district":{"key":"08215","name":"Karlsruhe","type":"Landkreis"},"federalState":{"key":"08","name":"Baden-Württemberg"}},{"name":"Finkenweg","postalCode":"76307","locality":"Karlsbad","municipality":{"key":"08215096","name":"Karlsbad","type":"Kreisangehörige_Gemeinde"},"district":{"key":"08215","name":"Karlsruhe","type":"Landkreis"},"federalState":{"key":"08","name":"Baden-Württemberg"}},{"name":"Fischerweg","postalCode":"76307","locality":"Karlsbad","municipality":{"key":"08215096","name":"Karlsbad","type":"Kreisangehörige_Gemeinde"},"district":{"key":"08215","name":"Karlsruhe","type":"Landkreis"},"federalState":{"key":"08","name":"Baden-Württemberg"}},{"name":"Fischweierer Weg","postalCode":"76307","locality":"Karlsbad","municipality":{"key":"08215096","name":"Karlsbad","type":"Kreisangehörige_Gemeinde"},"district":{"key":"08215","name":"Karlsruhe","type":"Landkreis"},"federalState":{"key":"08","name":"Baden-Württemberg"}},{"name":"Fleckwiesenweg","postalCode":"76307","locality":"Karlsbad","municipality":{"key":"08215096","name":"Karlsbad","type":"Kreisangehörige_Gemeinde"},"district":{"key":"08215","name":"Karlsruhe","type":"Landkreis"},"federalState":{"key":"08","name":"Baden-Württemberg"}},{"name":"Fliederstr.","postalCode":"76307","locality":"Karlsbad","municipality":{"key":"08215096","name":"Karlsbad","type":"Kreisangehörige_Gemeinde"},"district":{"key":"08215","name":"Karlsruhe","type":"Landkreis"},"federalState":{"key":"08","name":"Baden-Württemberg"}},{"name":"Forlenstr.","postalCode":"76307","locality":"Karlsbad","municipality":{"key":"08215096","name":"Karlsbad","type":"Kreisangehörige_Gemeinde"},"district":{"key":"08215","name":"Karlsruhe","type":"Landkreis"},"federalState":{"key":"08","name":"Baden-Württemberg"}},{"name":"Forsythienweg","postalCode":"76307","locality":"Karlsbad","municipality":{"key":"08215096","name":"Karlsbad","type":"Kreisangehörige_Gemeinde"},"district":{"key":"08215","name":"Karlsruhe","type":"Landkreis"},"federalState":{"key":"08","name":"Baden-Württemberg"}},{"name":"Frankenstr.","postalCode":"76307","locality":"Karlsbad","municipality":{"key":"08215096","name":"Karlsbad","type":"Kreisangehörige_Gemeinde"},"district":{"key":"08215","name":"Karlsruhe","type":"Landkreis"},"federalState":{"key":"08","name":"Baden-Württemberg"}},{"name":"Freyenweg","postalCode":"76307","locality":"Karlsbad","municipality":{"key":"08215096","name":"Karlsbad","type":"Kreisangehörige_Gemeinde"},"district":{"key":"08215","name":"Karlsruhe","type":"Landkreis"},"federalState":{"key":"08","name":"Baden-Württemberg"}},{"name":"Friedenstr.","postalCode":"76307","locality":"Karlsbad","municipality":{"key":"08215096","name":"Karlsbad","type":"Kreisangehörige_Gemeinde"},"district":{"key":"08215","name":"Karlsruhe","type":"Landkreis"},"federalState":{"key":"08","name":"Baden-Württemberg"}},{"name":"Friedhofstr.","postalCode":"76307","locality":"Karlsbad","municipality":{"key":"08215096","name":"Karlsbad","type":"Kreisangehörige_Gemeinde"},"district":{"key":"08215","name":"Karlsruhe","type":"Landkreis"},"federalState":{"key":"08","name":"Baden-Württemberg"}},{"name":"Friedrich-Dietz-Str.","postalCode":"76307","locality":"Karlsbad","municipality":{"key":"08215096","name":"Karlsbad","type":"Kreisangehörige_Gemeinde"},"district":{"key":"08215","name":"Karlsruhe","type":"Landkreis"},"federalState":{"key":"08","name":"Baden-Württemberg"}},{"name":"Friedrich-Speidel-Str.","postalCode":"76307","locality":"Karlsbad","municipality":{"key":"08215096","name":"Karlsbad","type":"Kreisangehörige_Gemeinde"},"district":{"key":"08215","name":"Karlsruhe","type":"Landkreis"},"federalState":{"key":"08","name":"Baden-Württemberg"}},{"name":"Frühlingstr.","postalCode":"76307","locality":"Karlsbad","municipality":{"key":"08215096","name":"Karlsbad","type":"Kreisangehörige_Gemeinde"},"district":{"key":"08215","name":"Karlsruhe","type":"Landkreis"},"federalState":{"key":"08","name":"Baden-Württemberg"}},{"name":"Gartenstr.","postalCode":"76307","locality":"Karlsbad","municipality":{"key":"08215096","name":"Karlsbad","type":"Kreisangehörige_Gemeinde"},"district":{"key":"08215","name":"Karlsruhe","type":"Landkreis"},"federalState":{"key":"08","name":"Baden-Württemberg"}},{"name":"Ginsterweg","postalCode":"76307","locality":"Karlsbad","municipality":{"key":"08215096","name":"Karlsbad","type":"Kreisangehörige_Gemeinde"},"district":{"key":"08215","name":"Karlsruhe","type":"Landkreis"},"federalState":{"key":"08","name":"Baden-Württemberg"}},{"name":"Goethestr.","postalCode":"76307","locality":"Karlsbad","municipality":{"key":"08215096","name":"Karlsbad","type":"Kreisangehörige_Gemeinde"},"district":{"key":"08215","name":"Karlsruhe","type":"Landkreis"},"federalState":{"key":"08","name":"Baden-Württemberg"}},{"name":"Göringsgasse","postalCode":"76307","locality":"Karlsbad","municipality":{"key":"08215096","name":"Karlsbad","type":"Kreisangehörige_Gemeinde"},"district":{"key":"08215","name":"Karlsruhe","type":"Landkreis"},"federalState":{"key":"08","name":"Baden-Württemberg"}},{"name":"Gotenstr.","postalCode":"76307","locality":"Karlsbad","municipality":{"key":"08215096","name":"Karlsbad","type":"Kreisangehörige_Gemeinde"},"district":{"key":"08215","name":"Karlsruhe","type":"Landkreis"},"federalState":{"key":"08","name":"Baden-Württemberg"}},{"name":"Graf Rhena Weg","postalCode":"76307","locality":"Karlsbad","municipality":{"key":"08215096","name":"Karlsbad","type":"Kreisangehörige_Gemeinde"},"district":{"key":"08215","name":"Karlsruhe","type":"Landkreis"},"federalState":{"key":"08","name":"Baden-Württemberg"}},{"name":"Grenzweg","postalCode":"76307","locality":"Karlsbad","municipality":{"key":"08215096","name":"Karlsbad","type":"Kreisangehörige_Gemeinde"},"district":{"key":"08215","name":"Karlsruhe","type":"Landkreis"},"federalState":{"key":"08","name":"Baden-Württemberg"}},{"name":"Großmüllergasse","postalCode":"76307","locality":"Karlsbad","municipality":{"key":"08215096","name":"Karlsbad","type":"Kreisangehörige_Gemeinde"},"district":{"key":"08215","name":"Karlsruhe","type":"Landkreis"},"federalState":{"key":"08","name":"Baden-Württemberg"}},{"name":"Grundweg","postalCode":"76307","locality":"Karlsbad","municipality":{"key":"08215096","name":"Karlsbad","type":"Kreisangehörige_Gemeinde"},"district":{"key":"08215","name":"Karlsruhe","type":"Landkreis"},"federalState":{"key":"08","name":"Baden-Württemberg"}},{"name":"Gutenbergstr.","postalCode":"76307","locality":"Karlsbad","municipality":{"key":"08215096","name":"Karlsbad","type":"Kreisangehörige_Gemeinde"},"district":{"key":"08215","name":"Karlsruhe","type":"Landkreis"},"federalState":{"key":"08","name":"Baden-Württemberg"}},{"name":"Haflinger Weg","postalCode":"76307","locality":"Karlsbad","municipality":{"key":"08215096","name":"Karlsbad","type":"Kreisangehörige_Gemeinde"},"district":{"key":"08215","name":"Karlsruhe","type":"Landkreis"},"federalState":{"key":"08","name":"Baden-Württemberg"}},{"name":"Hagbüchelweg","postalCode":"76307","locality":"Karlsbad","municipality":{"key":"08215096","name":"Karlsbad","type":"Kreisangehörige_Gemeinde"},"district":{"key":"08215","name":"Karlsruhe","type":"Landkreis"},"federalState":{"key":"08","name":"Baden-Württemberg"}},{"name":"Hailerstr.","postalCode":"76307","locality":"Karlsbad","municipality":{"key":"08215096","name":"Karlsbad","type":"Kreisangehörige_Gemeinde"},"district":{"key":"08215","name":"Karlsruhe","type":"Landkreis"},"federalState":{"key":"08","name":"Baden-Württemberg"}},{"name":"Hambergweg","postalCode":"76307","locality":"Karlsbad","municipality":{"key":"08215096","name":"Karlsbad","type":"Kreisangehörige_Gemeinde"},"district":{"key":"08215","name":"Karlsruhe","type":"Landkreis"},"federalState":{"key":"08","name":"Baden-Württemberg"}},{"name":"Hammelsbergweg","postalCode":"76307","locality":"Karlsbad","municipality":{"key":"08215096","name":"Karlsbad","type":"Kreisangehörige_Gemeinde"},"district":{"key":"08215","name":"Karlsruhe","type":"Landkreis"},"federalState":{"key":"08","name":"Baden-Württemberg"}},{"name":"Hangwegle","postalCode":"76307","locality":"Karlsbad","municipality":{"key":"08215096","name":"Karlsbad","type":"Kreisangehörige_Gemeinde"},"district":{"key":"08215","name":"Karlsruhe","type":"Landkreis"},"federalState":{"key":"08","name":"Baden-Württemberg"}},{"name":"Hans-Thoma-Str.","postalCode":"76307","locality":"Karlsbad","municipality":{"key":"08215096","name":"Karlsbad","type":"Kreisangehörige_Gemeinde"},"district":{"key":"08215","name":"Karlsruhe","type":"Landkreis"},"federalState":{"key":"08","name":"Baden-Württemberg"}},{"name":"Haselweg","postalCode":"76307","locality":"Karlsbad","municipality":{"key":"08215096","name":"Karlsbad","type":"Kreisangehörige_Gemeinde"},"district":{"key":"08215","name":"Karlsruhe","type":"Landkreis"},"federalState":{"key":"08","name":"Baden-Württemberg"}},{"name":"Häßlichweg","postalCode":"76307","locality":"Karlsbad","municipality":{"key":"08215096","name":"Karlsbad","type":"Kreisangehörige_Gemeinde"},"district":{"key":"08215","name":"Karlsruhe","type":"Landkreis"},"federalState":{"key":"08","name":"Baden-Württemberg"}},{"name":"Hauptstr.","postalCode":"76307","locality":"Karlsbad","municipality":{"key":"08215096","name":"Karlsbad","type":"Kreisangehörige_Gemeinde"},"district":{"key":"08215","name":"Karlsruhe","type":"Landkreis"},"federalState":{"key":"08","name":"Baden-Württemberg"}},{"name":"Haydnstr.","postalCode":"76307","locality":"Karlsbad","municipality":{"key":"08215096","name":"Karlsbad","type":"Kreisangehörige_Gemeinde"},"district":{"key":"08215","name":"Karlsruhe","type":"Landkreis"},"federalState":{"key":"08","name":"Baden-Württemberg"}},{"name":"Hebelstr.","postalCode":"76307","locality":"Karlsbad","municipality":{"key":"08215096","name":"Karlsbad","type":"Kreisangehörige_Gemeinde"},"district":{"key":"08215","name":"Karlsruhe","type":"Landkreis"},"federalState":{"key":"08","name":"Baden-Württemberg"}},{"name":"Heerweg","postalCode":"76307","locality":"Karlsbad","municipality":{"key":"08215096","name":"Karlsbad","type":"Kreisangehörige_Gemeinde"},"district":{"key":"08215","name":"Karlsruhe","type":"Landkreis"},"federalState":{"key":"08","name":"Baden-Württemberg"}},{"name":"Heimrichtstatt","postalCode":"76307","locality":"Karlsbad","municipality":{"key":"08215096","name":"Karlsbad","type":"Kreisangehörige_Gemeinde"},"district":{"key":"08215","name":"Karlsruhe","type":"Landkreis"},"federalState":{"key":"08","name":"Baden-Württemberg"}},{"name":"Heldrunger Str.","postalCode":"76307","locality":"Karlsbad","municipality":{"key":"08215096","name":"Karlsbad","type":"Kreisangehörige_Gemeinde"},"district":{"key":"08215","name":"Karlsruhe","type":"Landkreis"},"federalState":{"key":"08","name":"Baden-Württemberg"}},{"name":"Henri-Arnaud-Weg","postalCode":"76307","locality":"Karlsbad","municipality":{"key":"08215096","name":"Karlsbad","type":"Kreisangehörige_Gemeinde"},"district":{"key":"08215","name":"Karlsruhe","type":"Landkreis"},"federalState":{"key":"08","name":"Baden-Württemberg"}},{"name":"Hermann-Löns-Weg","postalCode":"76307","locality":"Karlsbad","municipality":{"key":"08215096","name":"Karlsbad","type":"Kreisangehörige_Gemeinde"},"district":{"key":"08215","name":"Karlsruhe","type":"Landkreis"},"federalState":{"key":"08","name":"Baden-Württemberg"}},{"name":"Herrenalber Str.","postalCode":"76307","locality":"Karlsbad","municipality":{"key":"08215096","name":"Karlsbad","type":"Kreisangehörige_Gemeinde"},"district":{"key":"08215","name":"Karlsruhe","type":"Landkreis"},"federalState":{"key":"08","name":"Baden-Württemberg"}},{"name":"Heuweg","postalCode":"76307","locality":"Karlsbad","municipality":{"key":"08215096","name":"Karlsbad","type":"Kreisangehörige_Gemeinde"},"district":{"key":"08215","name":"Karlsruhe","type":"Landkreis"},"federalState":{"key":"08","name":"Baden-Württemberg"}},{"name":"Hiebsrichtstatt","postalCode":"76307","locality":"Karlsbad","municipality":{"key":"08215096","name":"Karlsbad","type":"Kreisangehörige_Gemeinde"},"district":{"key":"08215","name":"Karlsruhe","type":"Landkreis"},"federalState":{"key":"08","name":"Baden-Württemberg"}},{"name":"Hinter der Kirche","postalCode":"76307","locality":"Karlsbad","municipality":{"key":"08215096","name":"Karlsbad","type":"Kreisangehörige_Gemeinde"},"district":{"key":"08215","name":"Karlsruhe","type":"Landkreis"},"federalState":{"key":"08","name":"Baden-Württemberg"}},{"name":"Hintere-Hell-Weg","postalCode":"76307","locality":"Karlsbad","municipality":{"key":"08215096","name":"Karlsbad","type":"Kreisangehörige_Gemeinde"},"district":{"key":"08215","name":"Karlsruhe","type":"Landkreis"},"federalState":{"key":"08","name":"Baden-Württemberg"}},{"name":"Hintere-Wiesen-Weg","postalCode":"76307","locality":"Karlsbad","municipality":{"key":"08215096","name":"Karlsbad","type":"Kreisangehörige_Gemeinde"},"district":{"key":"08215","name":"Karlsruhe","type":"Landkreis"},"federalState":{"key":"08","name":"Baden-Württemberg"}},{"name":"Hirtenstr.","postalCode":"76307","locality":"Karlsbad","municipality":{"key":"08215096","name":"Karlsbad","type":"Kreisangehörige_Gemeinde"},"district":{"key":"08215","name":"Karlsruhe","type":"Landkreis"},"federalState":{"key":"08","name":"Baden-Württemberg"}},{"name":"Höhenstr.","postalCode":"76307","locality":"Karlsbad","municipality":{"key":"08215096","name":"Karlsbad","type":"Kreisangehörige_Gemeinde"},"district":{"key":"08215","name":"Karlsruhe","type":"Landkreis"},"federalState":{"key":"08","name":"Baden-Württemberg"}},{"name":"Hohlohstr.","postalCode":"76307","locality":"Karlsbad","municipality":{"key":"08215096","name":"Karlsbad","type":"Kreisangehörige_Gemeinde"},"district":{"key":"08215","name":"Karlsruhe","type":"Landkreis"},"federalState":{"key":"08","name":"Baden-Württemberg"}},{"name":"Hohmüllerweg","postalCode":"76307","locality":"Karlsbad","municipality":{"key":"08215096","name":"Karlsbad","type":"Kreisangehörige_Gemeinde"},"district":{"key":"08215","name":"Karlsruhe","type":"Landkreis"},"federalState":{"key":"08","name":"Baden-Württemberg"}},{"name":"Hornisgrindestr.","postalCode":"76307","locality":"Karlsbad","municipality":{"key":"08215096","name":"Karlsbad","type":"Kreisangehörige_Gemeinde"},"district":{"key":"08215","name":"Karlsruhe","type":"Landkreis"},"federalState":{"key":"08","name":"Baden-Württemberg"}},{"name":"Hortensienweg","postalCode":"76307","locality":"Karlsbad","municipality":{"key":"08215096","name":"Karlsbad","type":"Kreisangehörige_Gemeinde"},"district":{"key":"08215","name":"Karlsruhe","type":"Landkreis"},"federalState":{"key":"08","name":"Baden-Württemberg"}},{"name":"Hüttauer Str.","postalCode":"76307","locality":"Karlsbad","municipality":{"key":"08215096","name":"Karlsbad","type":"Kreisangehörige_Gemeinde"},"district":{"key":"08215","name":"Karlsruhe","type":"Landkreis"},"federalState":{"key":"08","name":"Baden-Württemberg"}},{"name":"Im Birke","postalCode":"76307","locality":"Karlsbad","municipality":{"key":"08215096","name":"Karlsbad","type":"Kreisangehörige_Gemeinde"},"district":{"key":"08215","name":"Karlsruhe","type":"Landkreis"},"federalState":{"key":"08","name":"Baden-Württemberg"}},{"name":"Im Buckeberg","postalCode":"76307","locality":"Karlsbad","municipality":{"key":"08215096","name":"Karlsbad","type":"Kreisangehörige_Gemeinde"},"district":{"key":"08215","name":"Karlsruhe","type":"Landkreis"},"federalState":{"key":"08","name":"Baden-Württemberg"}},{"name":"Im Gruppenhof","postalCode":"76307","locality":"Karlsbad","municipality":{"key":"08215096","name":"Karlsbad","type":"Kreisangehörige_Gemeinde"},"district":{"key":"08215","name":"Karlsruhe","type":"Landkreis"},"federalState":{"key":"08","name":"Baden-Württemberg"}},{"name":"Im Hinteracker","postalCode":"76307","locality":"Karlsbad","municipality":{"key":"08215096","name":"Karlsbad","type":"Kreisangehörige_Gemeinde"},"district":{"key":"08215","name":"Karlsruhe","type":"Landkreis"},"federalState":{"key":"08","name":"Baden-Württemberg"}},{"name":"Im Obern Berg","postalCode":"76307","locality":"Karlsbad","municipality":{"key":"08215096","name":"Karlsbad","type":"Kreisangehörige_Gemeinde"},"district":{"key":"08215","name":"Karlsruhe","type":"Landkreis"},"federalState":{"key":"08","name":"Baden-Württemberg"}},{"name":"Im Steinig","postalCode":"76307","locality":"Karlsbad","municipality":{"key":"08215096","name":"Karlsbad","type":"Kreisangehörige_Gemeinde"},"district":{"key":"08215","name":"Karlsruhe","type":"Landkreis"},"federalState":{"key":"08","name":"Baden-Württemberg"}},{"name":"Im Stöckmädle","postalCode":"76307","locality":"Karlsbad","municipality":{"key":"08215096","name":"Karlsbad","type":"Kreisangehörige_Gemeinde"},"district":{"key":"08215","name":"Karlsruhe","type":"Landkreis"},"federalState":{"key":"08","name":"Baden-Württemberg"}},{"name":"Im Thäle","postalCode":"76307","locality":"Karlsbad","municipality":{"key":"08215096","name":"Karlsbad","type":"Kreisangehörige_Gemeinde"},"district":{"key":"08215","name":"Karlsruhe","type":"Landkreis"},"federalState":{"key":"08","name":"Baden-Württemberg"}},{"name":"Im Weidenhof","postalCode":"76307","locality":"Karlsbad","municipality":{"key":"08215096","name":"Karlsbad","type":"Kreisangehörige_Gemeinde"},"district":{"key":"08215","name":"Karlsruhe","type":"Landkreis"},"federalState":{"key":"08","name":"Baden-Württemberg"}},{"name":"In den Falzäckern","postalCode":"76307","locality":"Karlsbad","municipality":{"key":"08215096","name":"Karlsbad","type":"Kreisangehörige_Gemeinde"},"district":{"key":"08215","name":"Karlsruhe","type":"Landkreis"},"federalState":{"key":"08","name":"Baden-Württemberg"}},{"name":"In den Schneidergärten","postalCode":"76307","locality":"Karlsbad","municipality":{"key":"08215096","name":"Karlsbad","type":"Kreisangehörige_Gemeinde"},"district":{"key":"08215","name":"Karlsruhe","type":"Landkreis"},"federalState":{"key":"08","name":"Baden-Württemberg"}},{"name":"In den Tannenäckern","postalCode":"76307","locality":"Karlsbad","municipality":{"key":"08215096","name":"Karlsbad","type":"Kreisangehörige_Gemeinde"},"district":{"key":"08215","name":"Karlsruhe","type":"Landkreis"},"federalState":{"key":"08","name":"Baden-Württemberg"}},{"name":"In der Au","postalCode":"76307","locality":"Karlsbad","municipality":{"key":"08215096","name":"Karlsbad","type":"Kreisangehörige_Gemeinde"},"district":{"key":"08215","name":"Karlsruhe","type":"Landkreis"},"federalState":{"key":"08","name":"Baden-Württemberg"}},{"name":"In der Kail","postalCode":"76307","locality":"Karlsbad","municipality":{"key":"08215096","name":"Karlsbad","type":"Kreisangehörige_Gemeinde"},"district":{"key":"08215","name":"Karlsruhe","type":"Landkreis"},"federalState":{"key":"08","name":"Baden-Württemberg"}},{"name":"In der Striet","postalCode":"76307","locality":"Karlsbad","municipality":{"key":"08215096","name":"Karlsbad","type":"Kreisangehörige_Gemeinde"},"district":{"key":"08215","name":"Karlsruhe","type":"Landkreis"},"federalState":{"key":"08","name":"Baden-Württemberg"}},{"name":"Industriestr.","postalCode":"76307","locality":"Karlsbad","municipality":{"key":"08215096","name":"Karlsbad","type":"Kreisangehörige_Gemeinde"},"district":{"key":"08215","name":"Karlsruhe","type":"Landkreis"},"federalState":{"key":"08","name":"Baden-Württemberg"}},{"name":"Jahnstr.","postalCode":"76307","locality":"Karlsbad","municipality":{"key":"08215096","name":"Karlsbad","type":"Kreisangehörige_Gemeinde"},"district":{"key":"08215","name":"Karlsruhe","type":"Landkreis"},"federalState":{"key":"08","name":"Baden-Württemberg"}},{"name":"Jasminweg","postalCode":"76307","locality":"Karlsbad","municipality":{"key":"08215096","name":"Karlsbad","type":"Kreisangehörige_Gemeinde"},"district":{"key":"08215","name":"Karlsruhe","type":"Landkreis"},"federalState":{"key":"08","name":"Baden-Württemberg"}},{"name":"Johann-Sebastian-Bach-Str.","postalCode":"76307","locality":"Karlsbad","municipality":{"key":"08215096","name":"Karlsbad","type":"Kreisangehörige_Gemeinde"},"district":{"key":"08215","name":"Karlsruhe","type":"Landkreis"},"federalState":{"key":"08","name":"Baden-Württemberg"}},{"name":"Kanada Weg","postalCode":"76307","locality":"Karlsbad","municipality":{"key":"08215096","name":"Karlsbad","type":"Kreisangehörige_Gemeinde"},"district":{"key":"08215","name":"Karlsruhe","type":"Landkreis"},"federalState":{"key":"08","name":"Baden-Württemberg"}},{"name":"Karlsbader Str.","postalCode":"76307","locality":"Karlsbad","municipality":{"key":"08215096","name":"Karlsbad","type":"Kreisangehörige_Gemeinde"},"district":{"key":"08215","name":"Karlsruhe","type":"Landkreis"},"federalState":{"key":"08","name":"Baden-Württemberg"}},{"name":"Karl-Schöpfle-Platz","postalCode":"76307","locality":"Karlsbad","municipality":{"key":"08215096","name":"Karlsbad","type":"Kreisangehörige_Gemeinde"},"district":{"key":"08215","name":"Karlsruhe","type":"Landkreis"},"federalState":{"key":"08","name":"Baden-Württemberg"}},{"name":"Karlsruher Str.","postalCode":"76307","locality":"Karlsbad","municipality":{"key":"08215096","name":"Karlsbad","type":"Kreisangehörige_Gemeinde"},"district":{"key":"08215","name":"Karlsruhe","type":"Landkreis"},"federalState":{"key":"08","name":"Baden-Württemberg"}},{"name":"Keltenstr.","postalCode":"76307","locality":"Karlsbad","municipality":{"key":"08215096","name":"Karlsbad","type":"Kreisangehörige_Gemeinde"},"district":{"key":"08215","name":"Karlsruhe","type":"Landkreis"},"federalState":{"key":"08","name":"Baden-Württemberg"}},{"name":"Kinderschulweg","postalCode":"76307","locality":"Karlsbad","municipality":{"key":"08215096","name":"Karlsbad","type":"Kreisangehörige_Gemeinde"},"district":{"key":"08215","name":"Karlsruhe","type":"Landkreis"},"federalState":{"key":"08","name":"Baden-Württemberg"}},{"name":"Kinzigring","postalCode":"76307","locality":"Karlsbad","municipality":{"key":"08215096","name":"Karlsbad","type":"Kreisangehörige_Gemeinde"},"district":{"key":"08215","name":"Karlsruhe","type":"Landkreis"},"federalState":{"key":"08","name":"Baden-Württemberg"}},{"name":"Kirchenwegle","postalCode":"76307","locality":"Karlsbad","municipality":{"key":"08215096","name":"Karlsbad","type":"Kreisangehörige_Gemeinde"},"district":{"key":"08215","name":"Karlsruhe","type":"Landkreis"},"federalState":{"key":"08","name":"Baden-Württemberg"}},{"name":"Kirschbaumrichtstatt","postalCode":"76307","locality":"Karlsbad","municipality":{"key":"08215096","name":"Karlsbad","type":"Kreisangehörige_Gemeinde"},"district":{"key":"08215","name":"Karlsruhe","type":"Landkreis"},"federalState":{"key":"08","name":"Baden-Württemberg"}},{"name":"Klammweg","postalCode":"76307","locality":"Karlsbad","municipality":{"key":"08215096","name":"Karlsbad","type":"Kreisangehörige_Gemeinde"},"district":{"key":"08215","name":"Karlsruhe","type":"Landkreis"},"federalState":{"key":"08","name":"Baden-Württemberg"}},{"name":"Klembachweg","postalCode":"76307","locality":"Karlsbad","municipality":{"key":"08215096","name":"Karlsbad","type":"Kreisangehörige_Gemeinde"},"district":{"key":"08215","name":"Karlsruhe","type":"Landkreis"},"federalState":{"key":"08","name":"Baden-Württemberg"}},{"name":"Kniebisstr.","postalCode":"76307","locality":"Karlsbad","municipality":{"key":"08215096","name":"Karlsbad","type":"Kreisangehörige_Gemeinde"},"district":{"key":"08215","name":"Karlsruhe","type":"Landkreis"},"federalState":{"key":"08","name":"Baden-Württemberg"}},{"name":"Krähenwiesenweg","postalCode":"76307","locality":"Karlsbad","municipality":{"key":"08215096","name":"Karlsbad","type":"Kreisangehörige_Gemeinde"},"district":{"key":"08215","name":"Karlsruhe","type":"Landkreis"},"federalState":{"key":"08","name":"Baden-Württemberg"}},{"name":"Kreuzrichtstatt","postalCode":"76307","locality":"Karlsbad","municipality":{"key":"08215096","name":"Karlsbad","type":"Kreisangehörige_Gemeinde"},"district":{"key":"08215","name":"Karlsruhe","type":"Landkreis"},"federalState":{"key":"08","name":"Baden-Württemberg"}},{"name":"Kreuzweg","postalCode":"76307","locality":"Karlsbad","municipality":{"key":"08215096","name":"Karlsbad","type":"Kreisangehörige_Gemeinde"},"district":{"key":"08215","name":"Karlsruhe","type":"Landkreis"},"federalState":{"key":"08","name":"Baden-Württemberg"}},{"name":"Kurfürstenbadstr.","postalCode":"76307","locality":"Karlsbad","municipality":{"key":"08215096","name":"Karlsbad","type":"Kreisangehörige_Gemeinde"},"district":{"key":"08215","name":"Karlsruhe","type":"Landkreis"},"federalState":{"key":"08","name":"Baden-Württemberg"}},{"name":"Langenalber Weg","postalCode":"76307","locality":"Karlsbad","municipality":{"key":"08215096","name":"Karlsbad","type":"Kreisangehörige_Gemeinde"},"district":{"key":"08215","name":"Karlsruhe","type":"Landkreis"},"federalState":{"key":"08","name":"Baden-Württemberg"}},{"name":"Langensteinbacher Str.","postalCode":"76307","locality":"Karlsbad","municipality":{"key":"08215096","name":"Karlsbad","type":"Kreisangehörige_Gemeinde"},"district":{"key":"08215","name":"Karlsruhe","type":"Landkreis"},"federalState":{"key":"08","name":"Baden-Württemberg"}},{"name":"Lange Richtstatt","postalCode":"76307","locality":"Karlsbad","municipality":{"key":"08215096","name":"Karlsbad","type":"Kreisangehörige_Gemeinde"},"district":{"key":"08215","name":"Karlsruhe","type":"Landkreis"},"federalState":{"key":"08","name":"Baden-Württemberg"}},{"name":"Langer Weg","postalCode":"76307","locality":"Karlsbad","municipality":{"key":"08215096","name":"Karlsbad","type":"Kreisangehörige_Gemeinde"},"district":{"key":"08215","name":"Karlsruhe","type":"Landkreis"},"federalState":{"key":"08","name":"Baden-Württemberg"}},{"name":"Lange Str.","postalCode":"76307","locality":"Karlsbad","municipality":{"key":"08215096","name":"Karlsbad","type":"Kreisangehörige_Gemeinde"},"district":{"key":"08215","name":"Karlsruhe","type":"Landkreis"},"federalState":{"key":"08","name":"Baden-Württemberg"}},{"name":"Lärchenklammweg","postalCode":"76307","locality":"Karlsbad","municipality":{"key":"08215096","name":"Karlsbad","type":"Kreisangehörige_Gemeinde"},"district":{"key":"08215","name":"Karlsruhe","type":"Landkreis"},"federalState":{"key":"08","name":"Baden-Württemberg"}},{"name":"Lehnenweg","postalCode":"76307","locality":"Karlsbad","municipality":{"key":"08215096","name":"Karlsbad","type":"Kreisangehörige_Gemeinde"},"district":{"key":"08215","name":"Karlsruhe","type":"Landkreis"},"federalState":{"key":"08","name":"Baden-Württemberg"}},{"name":"Lene Weg","postalCode":"76307","locality":"Karlsbad","municipality":{"key":"08215096","name":"Karlsbad","type":"Kreisangehörige_Gemeinde"},"district":{"key":"08215","name":"Karlsruhe","type":"Landkreis"},"federalState":{"key":"08","name":"Baden-Württemberg"}},{"name":"Lerchenweg","postalCode":"76307","locality":"Karlsbad","municipality":{"key":"08215096","name":"Karlsbad","type":"Kreisangehörige_Gemeinde"},"district":{"key":"08215","name":"Karlsruhe","type":"Landkreis"},"federalState":{"key":"08","name":"Baden-Württemberg"}},{"name":"Leylachweg","postalCode":"76307","locality":"Karlsbad","municipality":{"key":"08215096","name":"Karlsbad","type":"Kreisangehörige_Gemeinde"},"district":{"key":"08215","name":"Karlsruhe","type":"Landkreis"},"federalState":{"key":"08","name":"Baden-Württemberg"}},{"name":"Lichte-Eichen-Weg","postalCode":"76307","locality":"Karlsbad","municipality":{"key":"08215096","name":"Karlsbad","type":"Kreisangehörige_Gemeinde"},"district":{"key":"08215","name":"Karlsruhe","type":"Landkreis"},"federalState":{"key":"08","name":"Baden-Württemberg"}},{"name":"Ligusterweg","postalCode":"76307","locality":"Karlsbad","municipality":{"key":"08215096","name":"Karlsbad","type":"Kreisangehörige_Gemeinde"},"district":{"key":"08215","name":"Karlsruhe","type":"Landkreis"},"federalState":{"key":"08","name":"Baden-Württemberg"}},{"name":"Lindenstr.","postalCode":"76307","locality":"Karlsbad","municipality":{"key":"08215096","name":"Karlsbad","type":"Kreisangehörige_Gemeinde"},"district":{"key":"08215","name":"Karlsruhe","type":"Landkreis"},"federalState":{"key":"08","name":"Baden-Württemberg"}},{"name":"Lindenweg","postalCode":"76307","locality":"Karlsbad","municipality":{"key":"08215096","name":"Karlsbad","type":"Kreisangehörige_Gemeinde"},"district":{"key":"08215","name":"Karlsruhe","type":"Landkreis"},"federalState":{"key":"08","name":"Baden-Württemberg"}},{"name":"Lohwäldle","postalCode":"76307","locality":"Karlsbad","municipality":{"key":"08215096","name":"Karlsbad","type":"Kreisangehörige_Gemeinde"},"district":{"key":"08215","name":"Karlsruhe","type":"Landkreis"},"federalState":{"key":"08","name":"Baden-Württemberg"}},{"name":"Magnolienweg","postalCode":"76307","locality":"Karlsbad","municipality":{"key":"08215096","name":"Karlsbad","type":"Kreisangehörige_Gemeinde"},"district":{"key":"08215","name":"Karlsruhe","type":"Landkreis"},"federalState":{"key":"08","name":"Baden-Württemberg"}},{"name":"Mahlbergstr.","postalCode":"76307","locality":"Karlsbad","municipality":{"key":"08215096","name":"Karlsbad","type":"Kreisangehörige_Gemeinde"},"district":{"key":"08215","name":"Karlsruhe","type":"Landkreis"},"federalState":{"key":"08","name":"Baden-Württemberg"}},{"name":"Malteser-Wegle","postalCode":"76307","locality":"Karlsbad","municipality":{"key":"08215096","name":"Karlsbad","type":"Kreisangehörige_Gemeinde"},"district":{"key":"08215","name":"Karlsruhe","type":"Landkreis"},"federalState":{"key":"08","name":"Baden-Württemberg"}},{"name":"Marktstr.","postalCode":"76307","locality":"Karlsbad","municipality":{"key":"08215096","name":"Karlsbad","type":"Kreisangehörige_Gemeinde"},"district":{"key":"08215","name":"Karlsruhe","type":"Landkreis"},"federalState":{"key":"08","name":"Baden-Württemberg"}},{"name":"Martin-Luther-Str.","postalCode":"76307","locality":"Karlsbad","municipality":{"key":"08215096","name":"Karlsbad","type":"Kreisangehörige_Gemeinde"},"district":{"key":"08215","name":"Karlsruhe","type":"Landkreis"},"federalState":{"key":"08","name":"Baden-Württemberg"}},{"name":"Mausäckerweg","postalCode":"76307","locality":"Karlsbad","municipality":{"key":"08215096","name":"Karlsbad","type":"Kreisangehörige_Gemeinde"},"district":{"key":"08215","name":"Karlsruhe","type":"Landkreis"},"federalState":{"key":"08","name":"Baden-Württemberg"}},{"name":"Meisenweg","postalCode":"76307","locality":"Karlsbad","municipality":{"key":"08215096","name":"Karlsbad","type":"Kreisangehörige_Gemeinde"},"district":{"key":"08215","name":"Karlsruhe","type":"Landkreis"},"federalState":{"key":"08","name":"Baden-Württemberg"}},{"name":"Melanchthonstr.","postalCode":"76307","locality":"Karlsbad","municipality":{"key":"08215096","name":"Karlsbad","type":"Kreisangehörige_Gemeinde"},"district":{"key":"08215","name":"Karlsruhe","type":"Landkreis"},"federalState":{"key":"08","name":"Baden-Württemberg"}},{"name":"Millionenweg","postalCode":"76307","locality":"Karlsbad","municipality":{"key":"08215096","name":"Karlsbad","type":"Kreisangehörige_Gemeinde"},"district":{"key":"08215","name":"Karlsruhe","type":"Landkreis"},"federalState":{"key":"08","name":"Baden-Württemberg"}},{"name":"Mittelweg","postalCode":"76307","locality":"Karlsbad","municipality":{"key":"08215096","name":"Karlsbad","type":"Kreisangehörige_Gemeinde"},"district":{"key":"08215","name":"Karlsruhe","type":"Landkreis"},"federalState":{"key":"08","name":"Baden-Württemberg"}},{"name":"Mittlerer Grundweg","postalCode":"76307","locality":"Karlsbad","municipality":{"key":"08215096","name":"Karlsbad","type":"Kreisangehörige_Gemeinde"},"district":{"key":"08215","name":"Karlsruhe","type":"Landkreis"},"federalState":{"key":"08","name":"Baden-Württemberg"}},{"name":"Mittlere Richtstatt","postalCode":"76307","locality":"Karlsbad","municipality":{"key":"08215096","name":"Karlsbad","type":"Kreisangehörige_Gemeinde"},"district":{"key":"08215","name":"Karlsruhe","type":"Landkreis"},"federalState":{"key":"08","name":"Baden-Württemberg"}},{"name":"Moosalbtalstr.","postalCode":"76307","locality":"Karlsbad","municipality":{"key":"08215096","name":"Karlsbad","type":"Kreisangehörige_Gemeinde"},"district":{"key":"08215","name":"Karlsruhe","type":"Landkreis"},"federalState":{"key":"08","name":"Baden-Württemberg"}},{"name":"Mozartstr.","postalCode":"76307","locality":"Karlsbad","municipality":{"key":"08215096","name":"Karlsbad","type":"Kreisangehörige_Gemeinde"},"district":{"key":"08215","name":"Karlsruhe","type":"Landkreis"},"federalState":{"key":"08","name":"Baden-Württemberg"}},{"name":"Mühlenweg","postalCode":"76307","locality":"Karlsbad","municipality":{"key":"08215096","name":"Karlsbad","type":"Kreisangehörige_Gemeinde"},"district":{"key":"08215","name":"Karlsruhe","type":"Landkreis"},"federalState":{"key":"08","name":"Baden-Württemberg"}},{"name":"Murgring","postalCode":"76307","locality":"Karlsbad","municipality":{"key":"08215096","name":"Karlsbad","type":"Kreisangehörige_Gemeinde"},"district":{"key":"08215","name":"Karlsruhe","type":"Landkreis"},"federalState":{"key":"08","name":"Baden-Württemberg"}},{"name":"Mutschelbacher Grenzweg","postalCode":"76307","locality":"Karlsbad","municipality":{"key":"08215096","name":"Karlsbad","type":"Kreisangehörige_Gemeinde"},"district":{"key":"08215","name":"Karlsruhe","type":"Landkreis"},"federalState":{"key":"08","name":"Baden-Württemberg"}},{"name":"Narzissenstr.","postalCode":"76307","locality":"Karlsbad","municipality":{"key":"08215096","name":"Karlsbad","type":"Kreisangehörige_Gemeinde"},"district":{"key":"08215","name":"Karlsruhe","type":"Landkreis"},"federalState":{"key":"08","name":"Baden-Württemberg"}},{"name":"Neuer Heuweg","postalCode":"76307","locality":"Karlsbad","municipality":{"key":"08215096","name":"Karlsbad","type":"Kreisangehörige_Gemeinde"},"district":{"key":"08215","name":"Karlsruhe","type":"Landkreis"},"federalState":{"key":"08","name":"Baden-Württemberg"}},{"name":"Neuer Katzenbachweg","postalCode":"76307","locality":"Karlsbad","municipality":{"key":"08215096","name":"Karlsbad","type":"Kreisangehörige_Gemeinde"},"district":{"key":"08215","name":"Karlsruhe","type":"Landkreis"},"federalState":{"key":"08","name":"Baden-Württemberg"}},{"name":"Neuer Waldweg","postalCode":"76307","locality":"Karlsbad","municipality":{"key":"08215096","name":"Karlsbad","type":"Kreisangehörige_Gemeinde"},"district":{"key":"08215","name":"Karlsruhe","type":"Landkreis"},"federalState":{"key":"08","name":"Baden-Württemberg"}},{"name":"Neuer Weg","postalCode":"76307","locality":"Karlsbad","municipality":{"key":"08215096","name":"Karlsbad","type":"Kreisangehörige_Gemeinde"},"district":{"key":"08215","name":"Karlsruhe","type":"Landkreis"},"federalState":{"key":"08","name":"Baden-Württemberg"}},{"name":"Neue-Stücklen-Weg","postalCode":"76307","locality":"Karlsbad","municipality":{"key":"08215096","name":"Karlsbad","type":"Kreisangehörige_Gemeinde"},"district":{"key":"08215","name":"Karlsruhe","type":"Landkreis"},"federalState":{"key":"08","name":"Baden-Württemberg"}},{"name":"Nöttinger Str.","postalCode":"76307","locality":"Karlsbad","municipality":{"key":"08215096","name":"Karlsbad","type":"Kreisangehörige_Gemeinde"},"district":{"key":"08215","name":"Karlsruhe","type":"Landkreis"},"federalState":{"key":"08","name":"Baden-Württemberg"}},{"name":"Nöttinger Weg","postalCode":"76307","locality":"Karlsbad","municipality":{"key":"08215096","name":"Karlsbad","type":"Kreisangehörige_Gemeinde"},"district":{"key":"08215","name":"Karlsruhe","type":"Landkreis"},"federalState":{"key":"08","name":"Baden-Württemberg"}},{"name":"Ob den Gärten","postalCode":"76307","locality":"Karlsbad","municipality":{"key":"08215096","name":"Karlsbad","type":"Kreisangehörige_Gemeinde"},"district":{"key":"08215","name":"Karlsruhe","type":"Landkreis"},"federalState":{"key":"08","name":"Baden-Württemberg"}},{"name":"Obere Dorfstr.","postalCode":"76307","locality":"Karlsbad","municipality":{"key":"08215096","name":"Karlsbad","type":"Kreisangehörige_Gemeinde"},"district":{"key":"08215","name":"Karlsruhe","type":"Landkreis"},"federalState":{"key":"08","name":"Baden-Württemberg"}},{"name":"Obere Grabenäcker","postalCode":"76307","locality":"Karlsbad","municipality":{"key":"08215096","name":"Karlsbad","type":"Kreisangehörige_Gemeinde"},"district":{"key":"08215","name":"Karlsruhe","type":"Landkreis"},"federalState":{"key":"08","name":"Baden-Württemberg"}},{"name":"Obere Hohlgasse","postalCode":"76307","locality":"Karlsbad","municipality":{"key":"08215096","name":"Karlsbad","type":"Kreisangehörige_Gemeinde"},"district":{"key":"08215","name":"Karlsruhe","type":"Landkreis"},"federalState":{"key":"08","name":"Baden-Württemberg"}},{"name":"Oberer Bocksbrunnenweg","postalCode":"76307","locality":"Karlsbad","municipality":{"key":"08215096","name":"Karlsbad","type":"Kreisangehörige_Gemeinde"},"district":{"key":"08215","name":"Karlsruhe","type":"Landkreis"},"federalState":{"key":"08","name":"Baden-Württemberg"}},{"name":"Oberer Erdweg","postalCode":"76307","locality":"Karlsbad","municipality":{"key":"08215096","name":"Karlsbad","type":"Kreisangehörige_Gemeinde"},"district":{"key":"08215","name":"Karlsruhe","type":"Landkreis"},"federalState":{"key":"08","name":"Baden-Württemberg"}},{"name":"Oberer Köpflesweg","postalCode":"76307","locality":"Karlsbad","municipality":{"key":"08215096","name":"Karlsbad","type":"Kreisangehörige_Gemeinde"},"district":{"key":"08215","name":"Karlsruhe","type":"Landkreis"},"federalState":{"key":"08","name":"Baden-Württemberg"}},{"name":"Oberer Schafbrückenweg","postalCode":"76307","locality":"Karlsbad","municipality":{"key":"08215096","name":"Karlsbad","type":"Kreisangehörige_Gemeinde"},"district":{"key":"08215","name":"Karlsruhe","type":"Landkreis"},"federalState":{"key":"08","name":"Baden-Württemberg"}},{"name":"Oberer Sonnenberg","postalCode":"76307","locality":"Karlsbad","municipality":{"key":"08215096","name":"Karlsbad","type":"Kreisangehörige_Gemeinde"},"district":{"key":"08215","name":"Karlsruhe","type":"Landkreis"},"federalState":{"key":"08","name":"Baden-Württemberg"}},{"name":"Oberer Wasen","postalCode":"76307","locality":"Karlsbad","municipality":{"key":"08215096","name":"Karlsbad","type":"Kreisangehörige_Gemeinde"},"district":{"key":"08215","name":"Karlsruhe","type":"Landkreis"},"federalState":{"key":"08","name":"Baden-Württemberg"}},{"name":"Oberer Wiesenweg","postalCode":"76307","locality":"Karlsbad","municipality":{"key":"08215096","name":"Karlsbad","type":"Kreisangehörige_Gemeinde"},"district":{"key":"08215","name":"Karlsruhe","type":"Landkreis"},"federalState":{"key":"08","name":"Baden-Württemberg"}},{"name":"Obere Schmierofenrichtstatt","postalCode":"76307","locality":"Karlsbad","municipality":{"key":"08215096","name":"Karlsbad","type":"Kreisangehörige_Gemeinde"},"district":{"key":"08215","name":"Karlsruhe","type":"Landkreis"},"federalState":{"key":"08","name":"Baden-Württemberg"}},{"name":"Obere Steinig Richtstatt","postalCode":"76307","locality":"Karlsbad","municipality":{"key":"08215096","name":"Karlsbad","type":"Kreisangehörige_Gemeinde"},"district":{"key":"08215","name":"Karlsruhe","type":"Landkreis"},"federalState":{"key":"08","name":"Baden-Württemberg"}},{"name":"Obere Striet","postalCode":"76307","locality":"Karlsbad","municipality":{"key":"08215096","name":"Karlsbad","type":"Kreisangehörige_Gemeinde"},"district":{"key":"08215","name":"Karlsruhe","type":"Landkreis"},"federalState":{"key":"08","name":"Baden-Württemberg"}},{"name":"Palmbacher Weg","postalCode":"76307","locality":"Karlsbad","municipality":{"key":"08215096","name":"Karlsbad","type":"Kreisangehörige_Gemeinde"},"district":{"key":"08215","name":"Karlsruhe","type":"Landkreis"},"federalState":{"key":"08","name":"Baden-Württemberg"}},{"name":"Palmbachstr.","postalCode":"76307","locality":"Karlsbad","municipality":{"key":"08215096","name":"Karlsbad","type":"Kreisangehörige_Gemeinde"},"district":{"key":"08215","name":"Karlsruhe","type":"Landkreis"},"federalState":{"key":"08","name":"Baden-Württemberg"}},{"name":"Panoramastr.","postalCode":"76307","locality":"Karlsbad","municipality":{"key":"08215096","name":"Karlsbad","type":"Kreisangehörige_Gemeinde"},"district":{"key":"08215","name":"Karlsruhe","type":"Landkreis"},"federalState":{"key":"08","name":"Baden-Württemberg"}},{"name":"Parkring","postalCode":"76307","locality":"Karlsbad","municipality":{"key":"08215096","name":"Karlsbad","type":"Kreisangehörige_Gemeinde"},"district":{"key":"08215","name":"Karlsruhe","type":"Landkreis"},"federalState":{"key":"08","name":"Baden-Württemberg"}},{"name":"Pestalozzistr.","postalCode":"76307","locality":"Karlsbad","municipality":{"key":"08215096","name":"Karlsbad","type":"Kreisangehörige_Gemeinde"},"district":{"key":"08215","name":"Karlsruhe","type":"Landkreis"},"federalState":{"key":"08","name":"Baden-Württemberg"}},{"name":"Pfaffenroter Weg","postalCode":"76307","locality":"Karlsbad","municipality":{"key":"08215096","name":"Karlsbad","type":"Kreisangehörige_Gemeinde"},"district":{"key":"08215","name":"Karlsruhe","type":"Landkreis"},"federalState":{"key":"08","name":"Baden-Württemberg"}},{"name":"Pfinztalstr.","postalCode":"76307","locality":"Karlsbad","municipality":{"key":"08215096","name":"Karlsbad","type":"Kreisangehörige_Gemeinde"},"district":{"key":"08215","name":"Karlsruhe","type":"Landkreis"},"federalState":{"key":"08","name":"Baden-Württemberg"}},{"name":"Pflanzschulrichtstatt","postalCode":"76307","locality":"Karlsbad","municipality":{"key":"08215096","name":"Karlsbad","type":"Kreisangehörige_Gemeinde"},"district":{"key":"08215","name":"Karlsruhe","type":"Landkreis"},"federalState":{"key":"08","name":"Baden-Württemberg"}},{"name":"Pforzheimer Str.","postalCode":"76307","locality":"Karlsbad","municipality":{"key":"08215096","name":"Karlsbad","type":"Kreisangehörige_Gemeinde"},"district":{"key":"08215","name":"Karlsruhe","type":"Landkreis"},"federalState":{"key":"08","name":"Baden-Württemberg"}},{"name":"Poststr.","postalCode":"76307","locality":"Karlsbad","municipality":{"key":"08215096","name":"Karlsbad","type":"Kreisangehörige_Gemeinde"},"district":{"key":"08215","name":"Karlsruhe","type":"Landkreis"},"federalState":{"key":"08","name":"Baden-Württemberg"}},{"name":"Quellenstr.","postalCode":"76228","locality":"Karlsruhe","municipality":{"key":"08212000","name":"Karlsruhe, Stadt","type":"Stadtkreis"},"district":{"key":"08212","name":"Karlsruhe, Stadtkreis","type":"Stadtkreis"},"federalState":{"key":"08","name":"Baden-Württemberg"}},{"name":"Querstr.","postalCode":"76189","locality":"Karlsruhe","municipality":{"key":"08212000","name":"Karlsruhe, Stadt","type":"Stadtkreis"},"district":{"key":"08212","name":"Karlsruhe, Stadtkreis","type":"Stadtkreis"},"federalState":{"key":"08","name":"Baden-Württemberg"}},{"name":"Rappenbuschweg","postalCode":"76307","locality":"Karlsbad","municipality":{"key":"08215096","name":"Karlsbad","type":"Kreisangehörige_Gemeinde"},"district":{"key":"08215","name":"Karlsruhe","type":"Landkreis"},"federalState":{"key":"08","name":"Baden-Württemberg"}},{"name":"Rappengasse","postalCode":"76307","locality":"Karlsbad","municipality":{"key":"08215096","name":"Karlsbad","type":"Kreisangehörige_Gemeinde"},"district":{"key":"08215","name":"Karlsruhe","type":"Landkreis"},"federalState":{"key":"08","name":"Baden-Württemberg"}},{"name":"Rathausplatz","postalCode":"76307","locality":"Karlsbad","municipality":{"key":"08215096","name":"Karlsbad","type":"Kreisangehörige_Gemeinde"},"district":{"key":"08215","name":"Karlsruhe","type":"Landkreis"},"federalState":{"key":"08","name":"Baden-Württemberg"}},{"name":"Reitplatzweg","postalCode":"76307","locality":"Karlsbad","municipality":{"key":"08215096","name":"Karlsbad","type":"Kreisangehörige_Gemeinde"},"district":{"key":"08215","name":"Karlsruhe","type":"Landkreis"},"federalState":{"key":"08","name":"Baden-Württemberg"}},{"name":"Remchinger Str.","postalCode":"76307","locality":"Karlsbad","municipality":{"key":"08215096","name":"Karlsbad","type":"Kreisangehörige_Gemeinde"},"district":{"key":"08215","name":"Karlsruhe","type":"Landkreis"},"federalState":{"key":"08","name":"Baden-Württemberg"}},{"name":"Renchstr.","postalCode":"76307","locality":"Karlsbad","municipality":{"key":"08215096","name":"Karlsbad","type":"Kreisangehörige_Gemeinde"},"district":{"key":"08215","name":"Karlsruhe","type":"Landkreis"},"federalState":{"key":"08","name":"Baden-Württemberg"}},{"name":"Reutäckerstr.","postalCode":"76307","locality":"Karlsbad","municipality":{"key":"08215096","name":"Karlsbad","type":"Kreisangehörige_Gemeinde"},"district":{"key":"08215","name":"Karlsruhe","type":"Landkreis"},"federalState":{"key":"08","name":"Baden-Württemberg"}},{"name":"Reutwiesenweg","postalCode":"76307","locality":"Karlsbad","municipality":{"key":"08215096","name":"Karlsbad","type":"Kreisangehörige_Gemeinde"},"district":{"key":"08215","name":"Karlsruhe","type":"Landkreis"},"federalState":{"key":"08","name":"Baden-Württemberg"}},{"name":"Rhododendronpark Jansen","postalCode":"76307","locality":"Karlsbad","municipality":{"key":"08215096","name":"Karlsbad","type":"Kreisangehörige_Gemeinde"},"district":{"key":"08215","name":"Karlsruhe","type":"Landkreis"},"federalState":{"key":"08","name":"Baden-Württemberg"}},{"name":"Richard-Wagner-Str.","postalCode":"76307","locality":"Karlsbad","municipality":{"key":"08215096","name":"Karlsbad","type":"Kreisangehörige_Gemeinde"},"district":{"key":"08215","name":"Karlsruhe","type":"Landkreis"},"federalState":{"key":"08","name":"Baden-Württemberg"}},{"name":"Richtstattweg","postalCode":"76307","locality":"Karlsbad","municipality":{"key":"08215096","name":"Karlsbad","type":"Kreisangehörige_Gemeinde"},"district":{"key":"08215","name":"Karlsruhe","type":"Landkreis"},"federalState":{"key":"08","name":"Baden-Württemberg"}},{"name":"Robert-Stolz-Str.","postalCode":"76307","locality":"Karlsbad","municipality":{"key":"08215096","name":"Karlsbad","type":"Kreisangehörige_Gemeinde"},"district":{"key":"08215","name":"Karlsruhe","type":"Landkreis"},"federalState":{"key":"08","name":"Baden-Württemberg"}},{"name":"Rohrheckweg","postalCode":"76307","locality":"Karlsbad","municipality":{"key":"08215096","name":"Karlsbad","type":"Kreisangehörige_Gemeinde"},"district":{"key":"08215","name":"Karlsruhe","type":"Landkreis"},"federalState":{"key":"08","name":"Baden-Württemberg"}},{"name":"Römerstr.","postalCode":"76307","locality":"Karlsbad","municipality":{"key":"08215096","name":"Karlsbad","type":"Kreisangehörige_Gemeinde"},"district":{"key":"08215","name":"Karlsruhe","type":"Landkreis"},"federalState":{"key":"08","name":"Baden-Württemberg"}},{"name":"Rosenweg","postalCode":"76307","locality":"Karlsbad","municipality":{"key":"08215096","name":"Karlsbad","type":"Kreisangehörige_Gemeinde"},"district":{"key":"08215","name":"Karlsruhe","type":"Landkreis"},"federalState":{"key":"08","name":"Baden-Württemberg"}},{"name":"Roteichenweg","postalCode":"76307","locality":"Karlsbad","municipality":{"key":"08215096","name":"Karlsbad","type":"Kreisangehörige_Gemeinde"},"district":{"key":"08215","name":"Karlsruhe","type":"Landkreis"},"federalState":{"key":"08","name":"Baden-Württemberg"}},{"name":"Rückweg","postalCode":"76307","locality":"Karlsbad","municipality":{"key":"08215096","name":"Karlsbad","type":"Kreisangehörige_Gemeinde"},"district":{"key":"08215","name":"Karlsruhe","type":"Landkreis"},"federalState":{"key":"08","name":"Baden-Württemberg"}},{"name":"Saatschulweg","postalCode":"76307","locality":"Karlsbad","municipality":{"key":"08215096","name":"Karlsbad","type":"Kreisangehörige_Gemeinde"},"district":{"key":"08215","name":"Karlsruhe","type":"Landkreis"},"federalState":{"key":"08","name":"Baden-Württemberg"}},{"name":"Sallenjagenwegle","postalCode":"76307","locality":"Karlsbad","municipality":{"key":"08215096","name":"Karlsbad","type":"Kreisangehörige_Gemeinde"},"district":{"key":"08215","name":"Karlsruhe","type":"Landkreis"},"federalState":{"key":"08","name":"Baden-Württemberg"}},{"name":"s`Brückle","postalCode":"76307","locality":"Karlsbad","municipality":{"key":"08215096","name":"Karlsbad","type":"Kreisangehörige_Gemeinde"},"district":{"key":"08215","name":"Karlsruhe","type":"Landkreis"},"federalState":{"key":"08","name":"Baden-Württemberg"}},{"name":"Schauinslandstr.","postalCode":"76307","locality":"Karlsbad","municipality":{"key":"08215096","name":"Karlsbad","type":"Kreisangehörige_Gemeinde"},"district":{"key":"08215","name":"Karlsruhe","type":"Landkreis"},"federalState":{"key":"08","name":"Baden-Württemberg"}},{"name":"Scheffelstr.","postalCode":"76307","locality":"Karlsbad","municipality":{"key":"08215096","name":"Karlsbad","type":"Kreisangehörige_Gemeinde"},"district":{"key":"08215","name":"Karlsruhe","type":"Landkreis"},"federalState":{"key":"08","name":"Baden-Württemberg"}},{"name":"Schillerstr.","postalCode":"76307","locality":"Karlsbad","municipality":{"key":"08215096","name":"Karlsbad","type":"Kreisangehörige_Gemeinde"},"district":{"key":"08215","name":"Karlsruhe","type":"Landkreis"},"federalState":{"key":"08","name":"Baden-Württemberg"}},{"name":"Schinderklammweg","postalCode":"76307","locality":"Karlsbad","municipality":{"key":"08215096","name":"Karlsbad","type":"Kreisangehörige_Gemeinde"},"district":{"key":"08215","name":"Karlsruhe","type":"Landkreis"},"federalState":{"key":"08","name":"Baden-Württemberg"}},{"name":"Schlehenweg","postalCode":"76307","locality":"Karlsbad","municipality":{"key":"08215096","name":"Karlsbad","type":"Kreisangehörige_Gemeinde"},"district":{"key":"08215","name":"Karlsruhe","type":"Landkreis"},"federalState":{"key":"08","name":"Baden-Württemberg"}},{"name":"Schleifweg","postalCode":"76307","locality":"Karlsbad","municipality":{"key":"08215096","name":"Karlsbad","type":"Kreisangehörige_Gemeinde"},"district":{"key":"08215","name":"Karlsruhe","type":"Landkreis"},"federalState":{"key":"08","name":"Baden-Württemberg"}},{"name":"Schneckengässle","postalCode":"76307","locality":"Karlsbad","municipality":{"key":"08215096","name":"Karlsbad","type":"Kreisangehörige_Gemeinde"},"district":{"key":"08215","name":"Karlsruhe","type":"Landkreis"},"federalState":{"key":"08","name":"Baden-Württemberg"}},{"name":"Schönblickstr.","postalCode":"76307","locality":"Karlsbad","municipality":{"key":"08215096","name":"Karlsbad","type":"Kreisangehörige_Gemeinde"},"district":{"key":"08215","name":"Karlsruhe","type":"Landkreis"},"federalState":{"key":"08","name":"Baden-Württemberg"}},{"name":"Schräge Richtstatt","postalCode":"76307","locality":"Karlsbad","municipality":{"key":"08215096","name":"Karlsbad","type":"Kreisangehörige_Gemeinde"},"district":{"key":"08215","name":"Karlsruhe","type":"Landkreis"},"federalState":{"key":"08","name":"Baden-Württemberg"}},{"name":"Schubertstr.","postalCode":"76307","locality":"Karlsbad","municipality":{"key":"08215096","name":"Karlsbad","type":"Kreisangehörige_Gemeinde"},"district":{"key":"08215","name":"Karlsruhe","type":"Landkreis"},"federalState":{"key":"08","name":"Baden-Württemberg"}},{"name":"Schulstr.","postalCode":"76307","locality":"Karlsbad","municipality":{"key":"08215096","name":"Karlsbad","type":"Kreisangehörige_Gemeinde"},"district":{"key":"08215","name":"Karlsruhe","type":"Landkreis"},"federalState":{"key":"08","name":"Baden-Württemberg"}},{"name":"Schulzengasse","postalCode":"76307","locality":"Karlsbad","municipality":{"key":"08215096","name":"Karlsbad","type":"Kreisangehörige_Gemeinde"},"district":{"key":"08215","name":"Karlsruhe","type":"Landkreis"},"federalState":{"key":"08","name":"Baden-Württemberg"}},{"name":"Schützenstr.","postalCode":"76307","locality":"Karlsbad","municipality":{"key":"08215096","name":"Karlsbad","type":"Kreisangehörige_Gemeinde"},"district":{"key":"08215","name":"Karlsruhe","type":"Landkreis"},"federalState":{"key":"08","name":"Baden-Württemberg"}},{"name":"Schwarzwaldstr.","postalCode":"76307","locality":"Karlsbad","municipality":{"key":"08215096","name":"Karlsbad","type":"Kreisangehörige_Gemeinde"},"district":{"key":"08215","name":"Karlsruhe","type":"Landkreis"},"federalState":{"key":"08","name":"Baden-Württemberg"}},{"name":"Seufzerallee","postalCode":"76307","locality":"Karlsbad","municipality":{"key":"08215096","name":"Karlsbad","type":"Kreisangehörige_Gemeinde"},"district":{"key":"08215","name":"Karlsruhe","type":"Landkreis"},"federalState":{"key":"08","name":"Baden-Württemberg"}},{"name":"Siemensstr.","postalCode":"76307","locality":"Karlsbad","municipality":{"key":"08215096","name":"Karlsbad","type":"Kreisangehörige_Gemeinde"},"district":{"key":"08215","name":"Karlsruhe","type":"Landkreis"},"federalState":{"key":"08","name":"Baden-Württemberg"}},{"name":"Silcherstr.","postalCode":"76307","locality":"Karlsbad","municipality":{"key":"08215096","name":"Karlsbad","type":"Kreisangehörige_Gemeinde"},"district":{"key":"08215","name":"Karlsruhe","type":"Landkreis"},"federalState":{"key":"08","name":"Baden-Württemberg"}},{"name":"Singener Str.","postalCode":"76307","locality":"Karlsbad","municipality":{"key":"08215096","name":"Karlsbad","type":"Kreisangehörige_Gemeinde"},"district":{"key":"08215","name":"Karlsruhe","type":"Landkreis"},"federalState":{"key":"08","name":"Baden-Württemberg"}},{"name":"Speicherstr.","postalCode":"76307","locality":"Karlsbad","municipality":{"key":"08215096","name":"Karlsbad","type":"Kreisangehörige_Gemeinde"},"district":{"key":"08215","name":"Karlsruhe","type":"Landkreis"},"federalState":{"key":"08","name":"Baden-Württemberg"}},{"name":"Spielberger Rankweg","postalCode":"76307","locality":"Karlsbad","municipality":{"key":"08215096","name":"Karlsbad","type":"Kreisangehörige_Gemeinde"},"district":{"key":"08215","name":"Karlsruhe","type":"Landkreis"},"federalState":{"key":"08","name":"Baden-Württemberg"}},{"name":"Spielberger Str.","postalCode":"76307","locality":"Karlsbad","municipality":{"key":"08215096","name":"Karlsbad","type":"Kreisangehörige_Gemeinde"},"district":{"key":"08215","name":"Karlsruhe","type":"Landkreis"},"federalState":{"key":"08","name":"Baden-Württemberg"}},{"name":"Sportplatzweg","postalCode":"76307","locality":"Karlsbad","municipality":{"key":"08215096","name":"Karlsbad","type":"Kreisangehörige_Gemeinde"},"district":{"key":"08215","name":"Karlsruhe","type":"Landkreis"},"federalState":{"key":"08","name":"Baden-Württemberg"}},{"name":"St.-Barbara-Str.","postalCode":"76307","locality":"Karlsbad","municipality":{"key":"08215096","name":"Karlsbad","type":"Kreisangehörige_Gemeinde"},"district":{"key":"08215","name":"Karlsruhe","type":"Landkreis"},"federalState":{"key":"08","name":"Baden-Württemberg"}},{"name":"Steinmauerweg","postalCode":"76307","locality":"Karlsbad","municipality":{"key":"08215096","name":"Karlsbad","type":"Kreisangehörige_Gemeinde"},"district":{"key":"08215","name":"Karlsruhe","type":"Landkreis"},"federalState":{"key":"08","name":"Baden-Württemberg"}},{"name":"Steinrichtstatt","postalCode":"76307","locality":"Karlsbad","municipality":{"key":"08215096","name":"Karlsbad","type":"Kreisangehörige_Gemeinde"},"district":{"key":"08215","name":"Karlsruhe","type":"Landkreis"},"federalState":{"key":"08","name":"Baden-Württemberg"}},{"name":"Steinstr.","postalCode":"76307","locality":"Karlsbad","municipality":{"key":"08215096","name":"Karlsbad","type":"Kreisangehörige_Gemeinde"},"district":{"key":"08215","name":"Karlsruhe","type":"Landkreis"},"federalState":{"key":"08","name":"Baden-Württemberg"}},{"name":"Stupfericher Richtstatt","postalCode":"76307","locality":"Karlsbad","municipality":{"key":"08215096","name":"Karlsbad","type":"Kreisangehörige_Gemeinde"},"district":{"key":"08215","name":"Karlsruhe","type":"Landkreis"},"federalState":{"key":"08","name":"Baden-Württemberg"}},{"name":"Stupfericher Weg","postalCode":"76307","locality":"Karlsbad","municipality":{"key":"08215096","name":"Karlsbad","type":"Kreisangehörige_Gemeinde"},"district":{"key":"08215","name":"Karlsruhe","type":"Landkreis"},"federalState":{"key":"08","name":"Baden-Württemberg"}},{"name":"Stürmersweg","postalCode":"76307","locality":"Karlsbad","municipality":{"key":"08215096","name":"Karlsbad","type":"Kreisangehörige_Gemeinde"},"district":{"key":"08215","name":"Karlsruhe","type":"Landkreis"},"federalState":{"key":"08","name":"Baden-Württemberg"}},{"name":"Sulzrichtstatt","postalCode":"76307","locality":"Karlsbad","municipality":{"key":"08215096","name":"Karlsbad","type":"Kreisangehörige_Gemeinde"},"district":{"key":"08215","name":"Karlsruhe","type":"Landkreis"},"federalState":{"key":"08","name":"Baden-Württemberg"}},{"name":"Sulzwiesenweg","postalCode":"76307","locality":"Karlsbad","municipality":{"key":"08215096","name":"Karlsbad","type":"Kreisangehörige_Gemeinde"},"district":{"key":"08215","name":"Karlsruhe","type":"Landkreis"},"federalState":{"key":"08","name":"Baden-Württemberg"}},{"name":"Talbergweg","postalCode":"76307","locality":"Karlsbad","municipality":{"key":"08215096","name":"Karlsbad","type":"Kreisangehörige_Gemeinde"},"district":{"key":"08215","name":"Karlsruhe","type":"Landkreis"},"federalState":{"key":"08","name":"Baden-Württemberg"}},{"name":"Talstr.","postalCode":"76307","locality":"Karlsbad","municipality":{"key":"08215096","name":"Karlsbad","type":"Kreisangehörige_Gemeinde"},"district":{"key":"08215","name":"Karlsruhe","type":"Landkreis"},"federalState":{"key":"08","name":"Baden-Württemberg"}},{"name":"Talweg","postalCode":"76307","locality":"Karlsbad","municipality":{"key":"08215096","name":"Karlsbad","type":"Kreisangehörige_Gemeinde"},"district":{"key":"08215","name":"Karlsruhe","type":"Landkreis"},"federalState":{"key":"08","name":"Baden-Württemberg"}},{"name":"Talwiesenweg","postalCode":"76307","locality":"Karlsbad","municipality":{"key":"08215096","name":"Karlsbad","type":"Kreisangehörige_Gemeinde"},"district":{"key":"08215","name":"Karlsruhe","type":"Landkreis"},"federalState":{"key":"08","name":"Baden-Württemberg"}},{"name":"Tornado Str.","postalCode":"76307","locality":"Karlsbad","municipality":{"key":"08215096","name":"Karlsbad","type":"Kreisangehörige_Gemeinde"},"district":{"key":"08215","name":"Karlsruhe","type":"Landkreis"},"federalState":{"key":"08","name":"Baden-Württemberg"}},{"name":"Tulpenstr.","postalCode":"76307","locality":"Karlsbad","municipality":{"key":"08215096","name":"Karlsbad","type":"Kreisangehörige_Gemeinde"},"district":{"key":"08215","name":"Karlsruhe","type":"Landkreis"},"federalState":{"key":"08","name":"Baden-Württemberg"}},{"name":"Turmbergstr.","postalCode":"76307","locality":"Karlsbad","municipality":{"key":"08215096","name":"Karlsbad","type":"Kreisangehörige_Gemeinde"},"district":{"key":"08215","name":"Karlsruhe","type":"Landkreis"},"federalState":{"key":"08","name":"Baden-Württemberg"}},{"name":"Uhlandstr.","postalCode":"76307","locality":"Karlsbad","municipality":{"key":"08215096","name":"Karlsbad","type":"Kreisangehörige_Gemeinde"},"district":{"key":"08215","name":"Karlsruhe","type":"Landkreis"},"federalState":{"key":"08","name":"Baden-Württemberg"}},{"name":"Untere Grabenäcker","postalCode":"76307","locality":"Karlsbad","municipality":{"key":"08215096","name":"Karlsbad","type":"Kreisangehörige_Gemeinde"},"district":{"key":"08215","name":"Karlsruhe","type":"Landkreis"},"federalState":{"key":"08","name":"Baden-Württemberg"}},{"name":"Unterer Erdweg","postalCode":"76307","locality":"Karlsbad","municipality":{"key":"08215096","name":"Karlsbad","type":"Kreisangehörige_Gemeinde"},"district":{"key":"08215","name":"Karlsruhe","type":"Landkreis"},"federalState":{"key":"08","name":"Baden-Württemberg"}},{"name":"Untere Richtstatt","postalCode":"76307","locality":"Karlsbad","municipality":{"key":"08215096","name":"Karlsbad","type":"Kreisangehörige_Gemeinde"},"district":{"key":"08215","name":"Karlsruhe","type":"Landkreis"},"federalState":{"key":"08","name":"Baden-Württemberg"}},{"name":"Unterer Köpflesweg","postalCode":"76307","locality":"Karlsbad","municipality":{"key":"08215096","name":"Karlsbad","type":"Kreisangehörige_Gemeinde"},"district":{"key":"08215","name":"Karlsruhe","type":"Landkreis"},"federalState":{"key":"08","name":"Baden-Württemberg"}},{"name":"Unterer Sonnenberg","postalCode":"76307","locality":"Karlsbad","municipality":{"key":"08215096","name":"Karlsbad","type":"Kreisangehörige_Gemeinde"},"district":{"key":"08215","name":"Karlsruhe","type":"Landkreis"},"federalState":{"key":"08","name":"Baden-Württemberg"}},{"name":"Unterer Wiesenweg","postalCode":"76307","locality":"Karlsbad","municipality":{"key":"08215096","name":"Karlsbad","type":"Kreisangehörige_Gemeinde"},"district":{"key":"08215","name":"Karlsruhe","type":"Landkreis"},"federalState":{"key":"08","name":"Baden-Württemberg"}},{"name":"Untere Steinig Richtstatt","postalCode":"76307","locality":"Karlsbad","municipality":{"key":"08215096","name":"Karlsbad","type":"Kreisangehörige_Gemeinde"},"district":{"key":"08215","name":"Karlsruhe","type":"Landkreis"},"federalState":{"key":"08","name":"Baden-Württemberg"}},{"name":"Veilchenstr.","postalCode":"76307","locality":"Karlsbad","municipality":{"key":"08215096","name":"Karlsbad","type":"Kreisangehörige_Gemeinde"},"district":{"key":"08215","name":"Karlsruhe","type":"Landkreis"},"federalState":{"key":"08","name":"Baden-Württemberg"}},{"name":"Vogelseckweg","postalCode":"76307","locality":"Karlsbad","municipality":{"key":"08215096","name":"Karlsbad","type":"Kreisangehörige_Gemeinde"},"district":{"key":"08215","name":"Karlsruhe","type":"Landkreis"},"federalState":{"key":"08","name":"Baden-Württemberg"}},{"name":"Wachholderweg","postalCode":"76307","locality":"Karlsbad","municipality":{"key":"08215096","name":"Karlsbad","type":"Kreisangehörige_Gemeinde"},"district":{"key":"08215","name":"Karlsruhe","type":"Landkreis"},"federalState":{"key":"08","name":"Baden-Württemberg"}},{"name":"Waldenserstr.","postalCode":"76307","locality":"Karlsbad","municipality":{"key":"08215096","name":"Karlsbad","type":"Kreisangehörige_Gemeinde"},"district":{"key":"08215","name":"Karlsruhe","type":"Landkreis"},"federalState":{"key":"08","name":"Baden-Württemberg"}},{"name":"Waldkulturpfad","postalCode":"76307","locality":"Karlsbad","municipality":{"key":"08215096","name":"Karlsbad","type":"Kreisangehörige_Gemeinde"},"district":{"key":"08215","name":"Karlsruhe","type":"Landkreis"},"federalState":{"key":"08","name":"Baden-Württemberg"}},{"name":"Waldstr.","postalCode":"76307","locality":"Karlsbad","municipality":{"key":"08215096","name":"Karlsbad","type":"Kreisangehörige_Gemeinde"},"district":{"key":"08215","name":"Karlsruhe","type":"Landkreis"},"federalState":{"key":"08","name":"Baden-Württemberg"}},{"name":"Wassersträßle","postalCode":"76307","locality":"Karlsbad","municipality":{"key":"08215096","name":"Karlsbad","type":"Kreisangehörige_Gemeinde"},"district":{"key":"08215","name":"Karlsruhe","type":"Landkreis"},"federalState":{"key":"08","name":"Baden-Württemberg"}},{"name":"Weibertswiesenweg","postalCode":"76307","locality":"Karlsbad","municipality":{"key":"08215096","name":"Karlsbad","type":"Kreisangehörige_Gemeinde"},"district":{"key":"08215","name":"Karlsruhe","type":"Landkreis"},"federalState":{"key":"08","name":"Baden-Württemberg"}},{"name":"Weilermer Str.","postalCode":"76307","locality":"Karlsbad","municipality":{"key":"08215096","name":"Karlsbad","type":"Kreisangehörige_Gemeinde"},"district":{"key":"08215","name":"Karlsruhe","type":"Landkreis"},"federalState":{"key":"08","name":"Baden-Württemberg"}},{"name":"Weinbrennerstr.","postalCode":"76307","locality":"Karlsbad","municipality":{"key":"08215096","name":"Karlsbad","type":"Kreisangehörige_Gemeinde"},"district":{"key":"08215","name":"Karlsruhe","type":"Landkreis"},"federalState":{"key":"08","name":"Baden-Württemberg"}},{"name":"Weißdornweg","postalCode":"76307","locality":"Karlsbad","municipality":{"key":"08215096","name":"Karlsbad","type":"Kreisangehörige_Gemeinde"},"district":{"key":"08215","name":"Karlsruhe","type":"Landkreis"},"federalState":{"key":"08","name":"Baden-Württemberg"}},{"name":"Wiesenstr.","postalCode":"76307","locality":"Karlsbad","municipality":{"key":"08215096","name":"Karlsbad","type":"Kreisangehörige_Gemeinde"},"district":{"key":"08215","name":"Karlsruhe","type":"Landkreis"},"federalState":{"key":"08","name":"Baden-Württemberg"}},{"name":"Wikingerstr.","postalCode":"76307","locality":"Karlsbad","municipality":{"key":"08215096","name":"Karlsbad","type":"Kreisangehörige_Gemeinde"},"district":{"key":"08215","name":"Karlsruhe","type":"Landkreis"},"federalState":{"key":"08","name":"Baden-Württemberg"}},{"name":"Wilferdinger Str.","postalCode":"76307","locality":"Karlsbad","municipality":{"key":"08215096","name":"Karlsbad","type":"Kreisangehörige_Gemeinde"},"district":{"key":"08215","name":"Karlsruhe","type":"Landkreis"},"federalState":{"key":"08","name":"Baden-Württemberg"}},{"name":"Wilhelm-Roether-Str.","postalCode":"76307","locality":"Karlsbad","municipality":{"key":"08215096","name":"Karlsbad","type":"Kreisangehörige_Gemeinde"},"district":{"key":"08215","name":"Karlsruhe","type":"Landkreis"},"federalState":{"key":"08","name":"Baden-Württemberg"}},{"name":"Wilhelmsbrücke","postalCode":"76307","locality":"Karlsbad","municipality":{"key":"08215096","name":"Karlsbad","type":"Kreisangehörige_Gemeinde"},"district":{"key":"08215","name":"Karlsruhe","type":"Landkreis"},"federalState":{"key":"08","name":"Baden-Württemberg"}},{"name":"Yburgweg","postalCode":"76189","locality":"Karlsruhe","municipality":{"key":"08212000","name":"Karlsruhe, Stadt","type":"Stadtkreis"},"district":{"key":"08212","name":"Karlsruhe, Stadtkreis","type":"Stadtkreis"},"federalState":{"key":"08","name":"Baden-Württemberg"}},{"name":"Yorckplatz","postalCode":"76135","locality":"Karlsruhe","municipality":{"key":"08212000","name":"Karlsruhe, Stadt","type":"Stadtkreis"},"district":{"key":"08212","name":"Karlsruhe, Stadtkreis","type":"Stadtkreis"},"federalState":{"key":"08","name":"Baden-Württemberg"}},{"name":"Yorckstr.","postalCode":"76185","locality":"Karlsruhe","municipality":{"key":"08212000","name":"Karlsruhe, Stadt","type":"Stadtkreis"},"district":{"key":"08212","name":"Karlsruhe, Stadtkreis","type":"Stadtkreis"},"federalState":{"key":"08","name":"Baden-Württemberg"}},{"name":"Zehntstr.","postalCode":"76307","locality":"Karlsbad","municipality":{"key":"08215096","name":"Karlsbad","type":"Kreisangehörige_Gemeinde"},"district":{"key":"08215","name":"Karlsruhe","type":"Landkreis"},"federalState":{"key":"08","name":"Baden-Württemberg"}},{"name":"Zeilstr.","postalCode":"76307","locality":"Karlsbad","municipality":{"key":"08215096","name":"Karlsbad","type":"Kreisangehörige_Gemeinde"},"district":{"key":"08215","name":"Karlsruhe","type":"Landkreis"},"federalState":{"key":"08","name":"Baden-Württemberg"}},{"name":"Zeilweg","postalCode":"76307","locality":"Karlsbad","municipality":{"key":"08215096","name":"Karlsbad","type":"Kreisangehörige_Gemeinde"},"district":{"key":"08215","name":"Karlsruhe","type":"Landkreis"},"federalState":{"key":"08","name":"Baden-Württemberg"}},{"name":"Zellweg","postalCode":"76307","locality":"Karlsbad","municipality":{"key":"08215096","name":"Karlsbad","type":"Kreisangehörige_Gemeinde"},"district":{"key":"08215","name":"Karlsruhe","type":"Landkreis"},"federalState":{"key":"08","name":"Baden-Württemberg"}},{"name":"Zum Röhrl","postalCode":"76307","locality":"Karlsbad","municipality":{"key":"08215096","name":"Karlsbad","type":"Kreisangehörige_Gemeinde"},"district":{"key":"08215","name":"Karlsruhe","type":"Landkreis"},"federalState":{"key":"08","name":"Baden-Württemberg"}},{"name":"Zum Wiesengrund","postalCode":"76307","locality":"Karlsbad","municipality":{"key":"08215096","name":"Karlsbad","type":"Kreisangehörige_Gemeinde"},"district":{"key":"08215","name":"Karlsruhe","type":"Landkreis"},"federalState":{"key":"08","name":"Baden-Württemberg"}},{"name":"Ährenweg","postalCode":"76135","locality":"Karlsruhe","municipality":{"key":"08212000","name":"Karlsruhe, Stadt","type":"Stadtkreis"},"district":{"key":"08212","name":"Karlsruhe, Stadtkreis","type":"Stadtkreis"},"federalState":{"key":"08","name":"Baden-Württemberg"}},{"name":"Ölgartenweg","postalCode":"76189","locality":"Karlsruhe","municipality":{"key":"08212000","name":"Karlsruhe, Stadt","type":"Stadtkreis"},"district":{"key":"08212","name":"Karlsruhe, Stadtkreis","type":"Stadtkreis"},"federalState":{"key":"08","name":"Baden-Württemberg"}},{"name":"Östliche Rheinbrückenstr.","postalCode":"76187","locality":"Karlsruhe","municipality":{"key":"08212000","name":"Karlsruhe, Stadt","type":"Stadtkreis"},"district":{"key":"08212","name":"Karlsruhe, Stadtkreis","type":"Stadtkreis"},"federalState":{"key":"08","name":"Baden-Württemberg"}},]