[{"key":"10094991","name":"Ausserdorf","postalCode":"5705","locality":"Hallwil","commune":{"key":"4197","name":"Hallwil","shortName":"Hallwil"},"district":{"key":"1907","name":"Bezirk Lenzburg"},"canton":{"key":"19","code":"AG","name":"Aargau"},"status":"Real"},{"key":"10036785","name":"Bahnhofstrasse","postalCode":"5705","locality":"Hallwil","commune":{"key":"4197","name":"Hallwil","shortName":"Hallwil"},"district":{"key":"1907","name":"Bezirk Lenzburg"},"canton":{"key":"19","code":"AG","name":"Aargau"},"status":"Real"},{"key":"10036786","name":"Breiten","postalCode":"5705","locality":"Hallwil","commune":{"key":"4197","name":"Hallwil","shortName":"Hallwil"},"district":{"key":"1907","name":"Bezirk Lenzburg"},"canton":{"key":"19","code":"AG","name":"Aargau"},"status":"Real"},{"key":"10128321","name":"Delle","postalCode":"5705","locality":"Hallwil","commune":{"key":"4197","name":"Hallwil","shortName":"Hallwil"},"district":{"key":"1907","name":"Bezirk Lenzburg"},"canton":{"key":"19","code":"AG","name":"Aargau"},"status":"Real"},{"key":"10095268","name":"Dürrenäscherstrasse","postalCode":"5705","locality":"Hallwil","commune":{"key":"4197","name":"Hallwil","shortName":"Hallwil"},"district":{"key":"1907","name":"Bezirk Lenzburg"},"canton":{"key":"19","code":"AG","name":"Aargau"},"status":"Real"},{"key":"10101207","name":"Dürrenäscherweg","postalCode":"5705","locality":"Hallwil","commune":{"key":"4197","name":"Hallwil","shortName":"Hallwil"},"district":{"key":"1907","name":"Bezirk Lenzburg"},"canton":{"key":"19","code":"AG","name":"Aargau"},"status":"Real"},{"key":"10185616","name":"Engenbühl","postalCode":"5705","locality":"Hallwil","commune":{"key":"4197","name":"Hallwil","shortName":"Hallwil"},"district":{"key":"1907","name":"Bezirk Lenzburg"},"canton":{"key":"19","code":"AG","name":"Aargau"},"status":"Real"},{"key":"10036787","name":"Friedhofweg","postalCode":"5705","locality":"Hallwil","commune":{"key":"4197","name":"Hallwil","shortName":"Hallwil"},"district":{"key":"1907","name":"Bezirk Lenzburg"},"canton":{"key":"19","code":"AG","name":"Aargau"},"status":"Real"},{"key":"10036797","name":"Grenzweg","postalCode":"5705","locality":"Hallwil","commune":{"key":"4197","name":"Hallwil","shortName":"Hallwil"},"district":{"key":"1907","name":"Bezirk Lenzburg"},"canton":{"key":"19","code":"AG","name":"Aargau"},"status":"Real"},{"key":"10036788","name":"Grossackerstrasse","postalCode":"5705","locality":"Hallwil","commune":{"key":"4197","name":"Hallwil","shortName":"Hallwil"},"district":{"key":"1907","name":"Bezirk Lenzburg"},"canton":{"key":"19","code":"AG","name":"Aargau"},"status":"Real"},{"key":"10095269","name":"Grossackerweg","postalCode":"5705","locality":"Hallwil","commune":{"key":"4197","name":"Hallwil","shortName":"Hallwil"},"district":{"key":"1907","name":"Bezirk Lenzburg"},"canton":{"key":"19","code":"AG","name":"Aargau"},"status":"Real"},{"key":"10075540","name":"Haldenweg","postalCode":"5705","locality":"Hallwil","commune":{"key":"4197","name":"Hallwil","shortName":"Hallwil"},"district":{"key":"1907","name":"Bezirk Lenzburg"},"canton":{"key":"19","code":"AG","name":"Aargau"},"status":"Real"},{"key":"10036789","name":"Hübel","postalCode":"5705","locality":"Hallwil","commune":{"key":"4197","name":"Hallwil","shortName":"Hallwil"},"district":{"key":"1907","name":"Bezirk Lenzburg"},"canton":{"key":"19","code":"AG","name":"Aargau"},"status":"Real"},{"key":"10168640","name":"Hübelweg","postalCode":"5705","locality":"Hallwil","commune":{"key":"4197","name":"Hallwil","shortName":"Hallwil"},"district":{"key":"1907","name":"Bezirk Lenzburg"},"canton":{"key":"19","code":"AG","name":"Aargau"},"status":"Real"},{"key":"10168641","name":"Kappelen","postalCode":"5705","locality":"Hallwil","commune":{"key":"4197","name":"Hallwil","shortName":"Hallwil"},"district":{"key":"1907","name":"Bezirk Lenzburg"},"canton":{"key":"19","code":"AG","name":"Aargau"},"status":"Real"},{"key":"10124720","name":"Käsereistrasse","postalCode":"5705","locality":"Hallwil","commune":{"key":"4197","name":"Hallwil","shortName":"Hallwil"},"district":{"key":"1907","name":"Bezirk Lenzburg"},"canton":{"key":"19","code":"AG","name":"Aargau"},"status":"Real"},{"key":"10036790","name":"Kofer","postalCode":"5705","locality":"Hallwil","commune":{"key":"4197","name":"Hallwil","shortName":"Hallwil"},"district":{"key":"1907","name":"Bezirk Lenzburg"},"canton":{"key":"19","code":"AG","name":"Aargau"},"status":"Real"},{"key":"10075541","name":"Langjucharten","postalCode":"5705","locality":"Hallwil","commune":{"key":"4197","name":"Hallwil","shortName":"Hallwil"},"district":{"key":"1907","name":"Bezirk Lenzburg"},"canton":{"key":"19","code":"AG","name":"Aargau"},"status":"Real"},{"key":"10036791","name":"Loch","postalCode":"5705","locality":"Hallwil","commune":{"key":"4197","name":"Hallwil","shortName":"Hallwil"},"district":{"key":"1907","name":"Bezirk Lenzburg"},"canton":{"key":"19","code":"AG","name":"Aargau"},"status":"Real"},{"key":"10119482","name":"Mauerweg","postalCode":"5705","locality":"Hallwil","commune":{"key":"4197","name":"Hallwil","shortName":"Hallwil"},"district":{"key":"1907","name":"Bezirk Lenzburg"},"canton":{"key":"19","code":"AG","name":"Aargau"},"status":"Real"},{"key":"10097920","name":"Mühlematt","postalCode":"5705","locality":"Hallwil","commune":{"key":"4197","name":"Hallwil","shortName":"Hallwil"},"district":{"key":"1907","name":"Bezirk Lenzburg"},"canton":{"key":"19","code":"AG","name":"Aargau"},"status":"Real"},{"key":"10185617","name":"Mülisacker","postalCode":"5705","locality":"Hallwil","commune":{"key":"4197","name":"Hallwil","shortName":"Hallwil"},"district":{"key":"1907","name":"Bezirk Lenzburg"},"canton":{"key":"19","code":"AG","name":"Aargau"},"status":"Real"},{"key":"10095270","name":"Mürbe","postalCode":"5705","locality":"Hallwil","commune":{"key":"4197","name":"Hallwil","shortName":"Hallwil"},"district":{"key":"1907","name":"Bezirk Lenzburg"},"canton":{"key":"19","code":"AG","name":"Aargau"},"status":"Real"},{"key":"10075542","name":"Oberrüti","postalCode":"5705","locality":"Hallwil","commune":{"key":"4197","name":"Hallwil","shortName":"Hallwil"},"district":{"key":"1907","name":"Bezirk Lenzburg"},"canton":{"key":"19","code":"AG","name":"Aargau"},"status":"Real"},{"key":"10036792","name":"Radweg","postalCode":"5705","locality":"Hallwil","commune":{"key":"4197","name":"Hallwil","shortName":"Hallwil"},"district":{"key":"1907","name":"Bezirk Lenzburg"},"canton":{"key":"19","code":"AG","name":"Aargau"},"status":"Real"},{"key":"10036793","name":"Rebenhübel","postalCode":"5705","locality":"Hallwil","commune":{"key":"4197","name":"Hallwil","shortName":"Hallwil"},"district":{"key":"1907","name":"Bezirk Lenzburg"},"canton":{"key":"19","code":"AG","name":"Aargau"},"status":"Real"},{"key":"10152460","name":"Riedackerweg","postalCode":"5705","locality":"Hallwil","commune":{"key":"4197","name":"Hallwil","shortName":"Hallwil"},"district":{"key":"1907","name":"Bezirk Lenzburg"},"canton":{"key":"19","code":"AG","name":"Aargau"},"status":"Real"},{"key":"10137884","name":"Riedstrasse","postalCode":"5705","locality":"Hallwil","commune":{"key":"4197","name":"Hallwil","shortName":"Hallwil"},"district":{"key":"1907","name":"Bezirk Lenzburg"},"canton":{"key":"19","code":"AG","name":"Aargau"},"status":"Real"},{"key":"10196466","name":"Rüchlig","postalCode":"5705","locality":"Hallwil","commune":{"key":"4197","name":"Hallwil","shortName":"Hallwil"},"district":{"key":"1907","name":"Bezirk Lenzburg"},"canton":{"key":"19","code":"AG","name":"Aargau"},"status":"Real"},{"key":"10095271","name":"Seengerstrasse","postalCode":"5705","locality":"Hallwil","commune":{"key":"4197","name":"Hallwil","shortName":"Hallwil"},"district":{"key":"1907","name":"Bezirk Lenzburg"},"canton":{"key":"19","code":"AG","name":"Aargau"},"status":"Real"},{"key":"10075543","name":"Seetalstrasse","postalCode":"5705","locality":"Hallwil","commune":{"key":"4197","name":"Hallwil","shortName":"Hallwil"},"district":{"key":"1907","name":"Bezirk Lenzburg"},"canton":{"key":"19","code":"AG","name":"Aargau"},"status":"Real"},{"key":"10036794","name":"Sonnhalde","postalCode":"5705","locality":"Hallwil","commune":{"key":"4197","name":"Hallwil","shortName":"Hallwil"},"district":{"key":"1907","name":"Bezirk Lenzburg"},"canton":{"key":"19","code":"AG","name":"Aargau"},"status":"Real"},{"key":"10193544","name":"Steinmattweg","postalCode":"5705","locality":"Hallwil","commune":{"key":"4197","name":"Hallwil","shortName":"Hallwil"},"district":{"key":"1907","name":"Bezirk Lenzburg"},"canton":{"key":"19","code":"AG","name":"Aargau"},"status":"Real"},{"key":"10036795","name":"Tal","postalCode":"5705","locality":"Hallwil","commune":{"key":"4197","name":"Hallwil","shortName":"Hallwil"},"district":{"key":"1907","name":"Bezirk Lenzburg"},"canton":{"key":"19","code":"AG","name":"Aargau"},"status":"Real"},{"key":"10036796","name":"Wannenmoos","postalCode":"5705","locality":"Hallwil","commune":{"key":"4197","name":"Hallwil","shortName":"Hallwil"},"district":{"key":"1907","name":"Bezirk Lenzburg"},"canton":{"key":"19","code":"AG","name":"Aargau"},"status":"Real"},{"key":"10125485","name":"Weid","postalCode":"5705","locality":"Hallwil","commune":{"key":"4197","name":"Hallwil","shortName":"Hallwil"},"district":{"key":"1907","name":"Bezirk Lenzburg"},"canton":{"key":"19","code":"AG","name":"Aargau"},"status":"Real"},{"key":"10130024","name":"Weiheracker","postalCode":"5705","locality":"Hallwil","commune":{"key":"4197","name":"Hallwil","shortName":"Hallwil"},"district":{"key":"1907","name":"Bezirk Lenzburg"},"canton":{"key":"19","code":"AG","name":"Aargau"},"status":"Real"},{"key":"10185618","name":"Weihermatt","postalCode":"5705","locality":"Hallwil","commune":{"key":"4197","name":"Hallwil","shortName":"Hallwil"},"district":{"key":"1907","name":"Bezirk Lenzburg"},"canton":{"key":"19","code":"AG","name":"Aargau"},"status":"Real"},{"key":"10095272","name":"Zelglistrasse","postalCode":"5705","locality":"Hallwil","commune":{"key":"4197","name":"Hallwil","shortName":"Hallwil"},"district":{"key":"1907","name":"Bezirk Lenzburg"},"canton":{"key":"19","code":"AG","name":"Aargau"},"status":"Real"},]