[{"name":"Adlerhorst","postalCode":"49205","locality":"Hasbergen","municipality":{"key":"03459021","name":"Hasbergen","type":"Kreisangehörige_Gemeinde"},"district":{"key":"03459","name":"Osnabrück","type":"Landkreis"},"federalState":{"key":"03","name":"Niedersachsen"}},{"name":"Alte Osnabrücker Str.","postalCode":"49205","locality":"Hasbergen","municipality":{"key":"03459021","name":"Hasbergen","type":"Kreisangehörige_Gemeinde"},"district":{"key":"03459","name":"Osnabrück","type":"Landkreis"},"federalState":{"key":"03","name":"Niedersachsen"}},{"name":"Alte Tecklenburger Str.","postalCode":"49205","locality":"Hasbergen","municipality":{"key":"03459021","name":"Hasbergen","type":"Kreisangehörige_Gemeinde"},"district":{"key":"03459","name":"Osnabrück","type":"Landkreis"},"federalState":{"key":"03","name":"Niedersachsen"}},{"name":"Am Amazonenwerk","postalCode":"49205","locality":"Hasbergen","municipality":{"key":"03459021","name":"Hasbergen","type":"Kreisangehörige_Gemeinde"},"district":{"key":"03459","name":"Osnabrück","type":"Landkreis"},"federalState":{"key":"03","name":"Niedersachsen"}},{"name":"Am Berg","postalCode":"49205","locality":"Hasbergen","municipality":{"key":"03459021","name":"Hasbergen","type":"Kreisangehörige_Gemeinde"},"district":{"key":"03459","name":"Osnabrück","type":"Landkreis"},"federalState":{"key":"03","name":"Niedersachsen"}},{"name":"Am Buddenbach","postalCode":"49205","locality":"Hasbergen","municipality":{"key":"03459021","name":"Hasbergen","type":"Kreisangehörige_Gemeinde"},"district":{"key":"03459","name":"Osnabrück","type":"Landkreis"},"federalState":{"key":"03","name":"Niedersachsen"}},{"name":"Am Ehrenhain","postalCode":"49205","locality":"Hasbergen","municipality":{"key":"03459021","name":"Hasbergen","type":"Kreisangehörige_Gemeinde"},"district":{"key":"03459","name":"Osnabrück","type":"Landkreis"},"federalState":{"key":"03","name":"Niedersachsen"}},{"name":"Am Gaster Berg","postalCode":"49205","locality":"Hasbergen","municipality":{"key":"03459021","name":"Hasbergen","type":"Kreisangehörige_Gemeinde"},"district":{"key":"03459","name":"Osnabrück","type":"Landkreis"},"federalState":{"key":"03","name":"Niedersachsen"}},{"name":"Am Goldbach","postalCode":"49205","locality":"Hasbergen","municipality":{"key":"03459021","name":"Hasbergen","type":"Kreisangehörige_Gemeinde"},"district":{"key":"03459","name":"Osnabrück","type":"Landkreis"},"federalState":{"key":"03","name":"Niedersachsen"}},{"name":"Am Heidhornberg","postalCode":"49205","locality":"Hasbergen","municipality":{"key":"03459021","name":"Hasbergen","type":"Kreisangehörige_Gemeinde"},"district":{"key":"03459","name":"Osnabrück","type":"Landkreis"},"federalState":{"key":"03","name":"Niedersachsen"}},{"name":"Am Höhenholz","postalCode":"49205","locality":"Hasbergen","municipality":{"key":"03459021","name":"Hasbergen","type":"Kreisangehörige_Gemeinde"},"district":{"key":"03459","name":"Osnabrück","type":"Landkreis"},"federalState":{"key":"03","name":"Niedersachsen"}},{"name":"Am Hüvel","postalCode":"49205","locality":"Hasbergen","municipality":{"key":"03459021","name":"Hasbergen","type":"Kreisangehörige_Gemeinde"},"district":{"key":"03459","name":"Osnabrück","type":"Landkreis"},"federalState":{"key":"03","name":"Niedersachsen"}},{"name":"Am Kleinen Berg","postalCode":"49205","locality":"Hasbergen","municipality":{"key":"03459021","name":"Hasbergen","type":"Kreisangehörige_Gemeinde"},"district":{"key":"03459","name":"Osnabrück","type":"Landkreis"},"federalState":{"key":"03","name":"Niedersachsen"}},{"name":"Am Knapp","postalCode":"49205","locality":"Hasbergen","municipality":{"key":"03459021","name":"Hasbergen","type":"Kreisangehörige_Gemeinde"},"district":{"key":"03459","name":"Osnabrück","type":"Landkreis"},"federalState":{"key":"03","name":"Niedersachsen"}},{"name":"Am Knippel","postalCode":"49205","locality":"Hasbergen","municipality":{"key":"03459021","name":"Hasbergen","type":"Kreisangehörige_Gemeinde"},"district":{"key":"03459","name":"Osnabrück","type":"Landkreis"},"federalState":{"key":"03","name":"Niedersachsen"}},{"name":"Am Lohkamp","postalCode":"49205","locality":"Hasbergen","municipality":{"key":"03459021","name":"Hasbergen","type":"Kreisangehörige_Gemeinde"},"district":{"key":"03459","name":"Osnabrück","type":"Landkreis"},"federalState":{"key":"03","name":"Niedersachsen"}},{"name":"Am Permer Damm","postalCode":"49205","locality":"Hasbergen","municipality":{"key":"03459021","name":"Hasbergen","type":"Kreisangehörige_Gemeinde"},"district":{"key":"03459","name":"Osnabrück","type":"Landkreis"},"federalState":{"key":"03","name":"Niedersachsen"}},{"name":"Am Plessen","postalCode":"49205","locality":"Hasbergen","municipality":{"key":"03459021","name":"Hasbergen","type":"Kreisangehörige_Gemeinde"},"district":{"key":"03459","name":"Osnabrück","type":"Landkreis"},"federalState":{"key":"03","name":"Niedersachsen"}},{"name":"Am Pülskewater","postalCode":"49205","locality":"Hasbergen","municipality":{"key":"03459021","name":"Hasbergen","type":"Kreisangehörige_Gemeinde"},"district":{"key":"03459","name":"Osnabrück","type":"Landkreis"},"federalState":{"key":"03","name":"Niedersachsen"}},{"name":"Amselweg","postalCode":"49205","locality":"Hasbergen","municipality":{"key":"03459021","name":"Hasbergen","type":"Kreisangehörige_Gemeinde"},"district":{"key":"03459","name":"Osnabrück","type":"Landkreis"},"federalState":{"key":"03","name":"Niedersachsen"}},{"name":"Am Sportplatz","postalCode":"49205","locality":"Hasbergen","municipality":{"key":"03459021","name":"Hasbergen","type":"Kreisangehörige_Gemeinde"},"district":{"key":"03459","name":"Osnabrück","type":"Landkreis"},"federalState":{"key":"03","name":"Niedersachsen"}},{"name":"Am Steinbrink","postalCode":"49205","locality":"Hasbergen","municipality":{"key":"03459021","name":"Hasbergen","type":"Kreisangehörige_Gemeinde"},"district":{"key":"03459","name":"Osnabrück","type":"Landkreis"},"federalState":{"key":"03","name":"Niedersachsen"}},{"name":"Am Stöhrenberg","postalCode":"49205","locality":"Hasbergen","municipality":{"key":"03459021","name":"Hasbergen","type":"Kreisangehörige_Gemeinde"},"district":{"key":"03459","name":"Osnabrück","type":"Landkreis"},"federalState":{"key":"03","name":"Niedersachsen"}},{"name":"Am Sunderbach","postalCode":"49205","locality":"Hasbergen","municipality":{"key":"03459021","name":"Hasbergen","type":"Kreisangehörige_Gemeinde"},"district":{"key":"03459","name":"Osnabrück","type":"Landkreis"},"federalState":{"key":"03","name":"Niedersachsen"}},{"name":"Am Waterpool","postalCode":"49205","locality":"Hasbergen","municipality":{"key":"03459021","name":"Hasbergen","type":"Kreisangehörige_Gemeinde"},"district":{"key":"03459","name":"Osnabrück","type":"Landkreis"},"federalState":{"key":"03","name":"Niedersachsen"}},{"name":"Am Wilkenbach","postalCode":"49205","locality":"Hasbergen","municipality":{"key":"03459021","name":"Hasbergen","type":"Kreisangehörige_Gemeinde"},"district":{"key":"03459","name":"Osnabrück","type":"Landkreis"},"federalState":{"key":"03","name":"Niedersachsen"}},{"name":"An der Feldriede","postalCode":"49205","locality":"Hasbergen","municipality":{"key":"03459021","name":"Hasbergen","type":"Kreisangehörige_Gemeinde"},"district":{"key":"03459","name":"Osnabrück","type":"Landkreis"},"federalState":{"key":"03","name":"Niedersachsen"}},{"name":"An der Rothenburg","postalCode":"49205","locality":"Hasbergen","municipality":{"key":"03459021","name":"Hasbergen","type":"Kreisangehörige_Gemeinde"},"district":{"key":"03459","name":"Osnabrück","type":"Landkreis"},"federalState":{"key":"03","name":"Niedersachsen"}},{"name":"An der St.-Josefs-Kirche","postalCode":"49205","locality":"Hasbergen","municipality":{"key":"03459021","name":"Hasbergen","type":"Kreisangehörige_Gemeinde"},"district":{"key":"03459","name":"Osnabrück","type":"Landkreis"},"federalState":{"key":"03","name":"Niedersachsen"}},{"name":"An der Stüveeiche","postalCode":"49205","locality":"Hasbergen","municipality":{"key":"03459021","name":"Hasbergen","type":"Kreisangehörige_Gemeinde"},"district":{"key":"03459","name":"Osnabrück","type":"Landkreis"},"federalState":{"key":"03","name":"Niedersachsen"}},{"name":"An der Wache","postalCode":"49205","locality":"Hasbergen","municipality":{"key":"03459021","name":"Hasbergen","type":"Kreisangehörige_Gemeinde"},"district":{"key":"03459","name":"Osnabrück","type":"Landkreis"},"federalState":{"key":"03","name":"Niedersachsen"}},{"name":"An der Wüste","postalCode":"49205","locality":"Hasbergen","municipality":{"key":"03459021","name":"Hasbergen","type":"Kreisangehörige_Gemeinde"},"district":{"key":"03459","name":"Osnabrück","type":"Landkreis"},"federalState":{"key":"03","name":"Niedersachsen"}},{"name":"Asternweg","postalCode":"49205","locality":"Hasbergen","municipality":{"key":"03459021","name":"Hasbergen","type":"Kreisangehörige_Gemeinde"},"district":{"key":"03459","name":"Osnabrück","type":"Landkreis"},"federalState":{"key":"03","name":"Niedersachsen"}},{"name":"Auf dem Grudde","postalCode":"49205","locality":"Hasbergen","municipality":{"key":"03459021","name":"Hasbergen","type":"Kreisangehörige_Gemeinde"},"district":{"key":"03459","name":"Osnabrück","type":"Landkreis"},"federalState":{"key":"03","name":"Niedersachsen"}},{"name":"Auf der Horst","postalCode":"49205","locality":"Hasbergen","municipality":{"key":"03459021","name":"Hasbergen","type":"Kreisangehörige_Gemeinde"},"district":{"key":"03459","name":"Osnabrück","type":"Landkreis"},"federalState":{"key":"03","name":"Niedersachsen"}},{"name":"Bahnhofstr.","postalCode":"49205","locality":"Hasbergen","municipality":{"key":"03459021","name":"Hasbergen","type":"Kreisangehörige_Gemeinde"},"district":{"key":"03459","name":"Osnabrück","type":"Landkreis"},"federalState":{"key":"03","name":"Niedersachsen"}},{"name":"Bergstr.","postalCode":"49205","locality":"Hasbergen","municipality":{"key":"03459021","name":"Hasbergen","type":"Kreisangehörige_Gemeinde"},"district":{"key":"03459","name":"Osnabrück","type":"Landkreis"},"federalState":{"key":"03","name":"Niedersachsen"}},{"name":"Berliner Str.","postalCode":"49205","locality":"Hasbergen","municipality":{"key":"03459021","name":"Hasbergen","type":"Kreisangehörige_Gemeinde"},"district":{"key":"03459","name":"Osnabrück","type":"Landkreis"},"federalState":{"key":"03","name":"Niedersachsen"}},{"name":"Birkenweg","postalCode":"49205","locality":"Hasbergen","municipality":{"key":"03459021","name":"Hasbergen","type":"Kreisangehörige_Gemeinde"},"district":{"key":"03459","name":"Osnabrück","type":"Landkreis"},"federalState":{"key":"03","name":"Niedersachsen"}},{"name":"Breslauer Str.","postalCode":"49205","locality":"Hasbergen","municipality":{"key":"03459021","name":"Hasbergen","type":"Kreisangehörige_Gemeinde"},"district":{"key":"03459","name":"Osnabrück","type":"Landkreis"},"federalState":{"key":"03","name":"Niedersachsen"}},{"name":"Brinkstr.","postalCode":"49205","locality":"Hasbergen","municipality":{"key":"03459021","name":"Hasbergen","type":"Kreisangehörige_Gemeinde"},"district":{"key":"03459","name":"Osnabrück","type":"Landkreis"},"federalState":{"key":"03","name":"Niedersachsen"}},{"name":"Brockmannweg","postalCode":"49205","locality":"Hasbergen","municipality":{"key":"03459021","name":"Hasbergen","type":"Kreisangehörige_Gemeinde"},"district":{"key":"03459","name":"Osnabrück","type":"Landkreis"},"federalState":{"key":"03","name":"Niedersachsen"}},{"name":"Brombeerweg","postalCode":"49205","locality":"Hasbergen","municipality":{"key":"03459021","name":"Hasbergen","type":"Kreisangehörige_Gemeinde"},"district":{"key":"03459","name":"Osnabrück","type":"Landkreis"},"federalState":{"key":"03","name":"Niedersachsen"}},{"name":"Buchenweg","postalCode":"49205","locality":"Hasbergen","municipality":{"key":"03459021","name":"Hasbergen","type":"Kreisangehörige_Gemeinde"},"district":{"key":"03459","name":"Osnabrück","type":"Landkreis"},"federalState":{"key":"03","name":"Niedersachsen"}},{"name":"Bussardhorst","postalCode":"49205","locality":"Hasbergen","municipality":{"key":"03459021","name":"Hasbergen","type":"Kreisangehörige_Gemeinde"},"district":{"key":"03459","name":"Osnabrück","type":"Landkreis"},"federalState":{"key":"03","name":"Niedersachsen"}},{"name":"Cafe am Gertrudenberg","postalCode":"49088","locality":"Osnabrück","municipality":{"key":"03404000","name":"Osnabrück, Stadt","type":"Kreisfreie_Stadt"},"district":{"key":"03404","name":"Osnabrück, Stadt","type":"Kreisfreie_Stadt"},"federalState":{"key":"03","name":"Niedersachsen"}},{"name":"Caprivistr.","postalCode":"49076","locality":"Osnabrück","municipality":{"key":"03404000","name":"Osnabrück, Stadt","type":"Kreisfreie_Stadt"},"district":{"key":"03404","name":"Osnabrück, Stadt","type":"Kreisfreie_Stadt"},"federalState":{"key":"03","name":"Niedersachsen"}},{"name":"Cardiffring","postalCode":"49090","locality":"Osnabrück","municipality":{"key":"03404000","name":"Osnabrück, Stadt","type":"Kreisfreie_Stadt"},"district":{"key":"03404","name":"Osnabrück, Stadt","type":"Kreisfreie_Stadt"},"federalState":{"key":"03","name":"Niedersachsen"}},{"name":"Carla-Woldering-Str.","postalCode":"49088","locality":"Osnabrück","municipality":{"key":"03404000","name":"Osnabrück, Stadt","type":"Kreisfreie_Stadt"},"district":{"key":"03404","name":"Osnabrück, Stadt","type":"Kreisfreie_Stadt"},"federalState":{"key":"03","name":"Niedersachsen"}},{"name":"Carl-Dütting-Str.","postalCode":"49090","locality":"Osnabrück","municipality":{"key":"03404000","name":"Osnabrück, Stadt","type":"Kreisfreie_Stadt"},"district":{"key":"03404","name":"Osnabrück, Stadt","type":"Kreisfreie_Stadt"},"federalState":{"key":"03","name":"Niedersachsen"}},{"name":"Carl-Fischer-Str.","postalCode":"49084","locality":"Osnabrück","municipality":{"key":"03404000","name":"Osnabrück, Stadt","type":"Kreisfreie_Stadt"},"district":{"key":"03404","name":"Osnabrück, Stadt","type":"Kreisfreie_Stadt"},"federalState":{"key":"03","name":"Niedersachsen"}},{"name":"Carl-Hermann-Gosling-Platz","postalCode":"49078","locality":"Osnabrück","municipality":{"key":"03404000","name":"Osnabrück, Stadt","type":"Kreisfreie_Stadt"},"district":{"key":"03404","name":"Osnabrück, Stadt","type":"Kreisfreie_Stadt"},"federalState":{"key":"03","name":"Niedersachsen"}},{"name":"Carl-Legien-Str.","postalCode":"49084","locality":"Osnabrück","municipality":{"key":"03404000","name":"Osnabrück, Stadt","type":"Kreisfreie_Stadt"},"district":{"key":"03404","name":"Osnabrück, Stadt","type":"Kreisfreie_Stadt"},"federalState":{"key":"03","name":"Niedersachsen"}},{"name":"Carl-Lüer-Str.","postalCode":"49084","locality":"Osnabrück","municipality":{"key":"03404000","name":"Osnabrück, Stadt","type":"Kreisfreie_Stadt"},"district":{"key":"03404","name":"Osnabrück, Stadt","type":"Kreisfreie_Stadt"},"federalState":{"key":"03","name":"Niedersachsen"}},{"name":"Carl-Philipson-Weg","postalCode":"49076","locality":"Osnabrück","municipality":{"key":"03404000","name":"Osnabrück, Stadt","type":"Kreisfreie_Stadt"},"district":{"key":"03404","name":"Osnabrück, Stadt","type":"Kreisfreie_Stadt"},"federalState":{"key":"03","name":"Niedersachsen"}},{"name":"Carl-Stolcke-Str.","postalCode":"49090","locality":"Osnabrück","municipality":{"key":"03404000","name":"Osnabrück, Stadt","type":"Kreisfreie_Stadt"},"district":{"key":"03404","name":"Osnabrück, Stadt","type":"Kreisfreie_Stadt"},"federalState":{"key":"03","name":"Niedersachsen"}},{"name":"Carl-von-Ossietzky-Str.","postalCode":"49082","locality":"Osnabrück","municipality":{"key":"03404000","name":"Osnabrück, Stadt","type":"Kreisfreie_Stadt"},"district":{"key":"03404","name":"Osnabrück, Stadt","type":"Kreisfreie_Stadt"},"federalState":{"key":"03","name":"Niedersachsen"}},{"name":"Charlottenburger Str.","postalCode":"49088","locality":"Osnabrück","municipality":{"key":"03404000","name":"Osnabrück, Stadt","type":"Kreisfreie_Stadt"},"district":{"key":"03404","name":"Osnabrück, Stadt","type":"Kreisfreie_Stadt"},"federalState":{"key":"03","name":"Niedersachsen"}},{"name":"Chemnitzer Str.","postalCode":"49078","locality":"Osnabrück","municipality":{"key":"03404000","name":"Osnabrück, Stadt","type":"Kreisfreie_Stadt"},"district":{"key":"03404","name":"Osnabrück, Stadt","type":"Kreisfreie_Stadt"},"federalState":{"key":"03","name":"Niedersachsen"}},{"name":"Cheruskerweg","postalCode":"49086","locality":"Osnabrück","municipality":{"key":"03404000","name":"Osnabrück, Stadt","type":"Kreisfreie_Stadt"},"district":{"key":"03404","name":"Osnabrück, Stadt","type":"Kreisfreie_Stadt"},"federalState":{"key":"03","name":"Niedersachsen"}},{"name":"Claire-Goll-Str.","postalCode":"49086","locality":"Osnabrück","municipality":{"key":"03404000","name":"Osnabrück, Stadt","type":"Kreisfreie_Stadt"},"district":{"key":"03404","name":"Osnabrück, Stadt","type":"Kreisfreie_Stadt"},"federalState":{"key":"03","name":"Niedersachsen"}},{"name":"Clarenbachstr.","postalCode":"49082","locality":"Osnabrück","municipality":{"key":"03404000","name":"Osnabrück, Stadt","type":"Kreisfreie_Stadt"},"district":{"key":"03404","name":"Osnabrück, Stadt","type":"Kreisfreie_Stadt"},"federalState":{"key":"03","name":"Niedersachsen"}},{"name":"Clausewitzweg","postalCode":"49076","locality":"Osnabrück","municipality":{"key":"03404000","name":"Osnabrück, Stadt","type":"Kreisfreie_Stadt"},"district":{"key":"03404","name":"Osnabrück, Stadt","type":"Kreisfreie_Stadt"},"federalState":{"key":"03","name":"Niedersachsen"}},{"name":"Clemensstr.","postalCode":"49090","locality":"Osnabrück","municipality":{"key":"03404000","name":"Osnabrück, Stadt","type":"Kreisfreie_Stadt"},"district":{"key":"03404","name":"Osnabrück, Stadt","type":"Kreisfreie_Stadt"},"federalState":{"key":"03","name":"Niedersachsen"}},{"name":"Cloppenburger Str.","postalCode":"49088","locality":"Osnabrück","municipality":{"key":"03404000","name":"Osnabrück, Stadt","type":"Kreisfreie_Stadt"},"district":{"key":"03404","name":"Osnabrück, Stadt","type":"Kreisfreie_Stadt"},"federalState":{"key":"03","name":"Niedersachsen"}},{"name":"Conrad-Bäumer-Weg","postalCode":"49074","locality":"Osnabrück","municipality":{"key":"03404000","name":"Osnabrück, Stadt","type":"Kreisfreie_Stadt"},"district":{"key":"03404","name":"Osnabrück, Stadt","type":"Kreisfreie_Stadt"},"federalState":{"key":"03","name":"Niedersachsen"}},{"name":"Corneliusweg","postalCode":"49076","locality":"Osnabrück","municipality":{"key":"03404000","name":"Osnabrück, Stadt","type":"Kreisfreie_Stadt"},"district":{"key":"03404","name":"Osnabrück, Stadt","type":"Kreisfreie_Stadt"},"federalState":{"key":"03","name":"Niedersachsen"}},{"name":"Corsicaskamp","postalCode":"49076","locality":"Osnabrück","municipality":{"key":"03404000","name":"Osnabrück, Stadt","type":"Kreisfreie_Stadt"},"district":{"key":"03404","name":"Osnabrück, Stadt","type":"Kreisfreie_Stadt"},"federalState":{"key":"03","name":"Niedersachsen"}},{"name":"Corthausstr.","postalCode":"49084","locality":"Osnabrück","municipality":{"key":"03404000","name":"Osnabrück, Stadt","type":"Kreisfreie_Stadt"},"district":{"key":"03404","name":"Osnabrück, Stadt","type":"Kreisfreie_Stadt"},"federalState":{"key":"03","name":"Niedersachsen"}},{"name":"Crispinsburg","postalCode":"49084","locality":"Osnabrück","municipality":{"key":"03404000","name":"Osnabrück, Stadt","type":"Kreisfreie_Stadt"},"district":{"key":"03404","name":"Osnabrück, Stadt","type":"Kreisfreie_Stadt"},"federalState":{"key":"03","name":"Niedersachsen"}},{"name":"Dahlienstr.","postalCode":"49205","locality":"Hasbergen","municipality":{"key":"03459021","name":"Hasbergen","type":"Kreisangehörige_Gemeinde"},"district":{"key":"03459","name":"Osnabrück","type":"Landkreis"},"federalState":{"key":"03","name":"Niedersachsen"}},{"name":"Danziger Str.","postalCode":"49205","locality":"Hasbergen","municipality":{"key":"03459021","name":"Hasbergen","type":"Kreisangehörige_Gemeinde"},"district":{"key":"03459","name":"Osnabrück","type":"Landkreis"},"federalState":{"key":"03","name":"Niedersachsen"}},{"name":"Drosselweg","postalCode":"49205","locality":"Hasbergen","municipality":{"key":"03459021","name":"Hasbergen","type":"Kreisangehörige_Gemeinde"},"district":{"key":"03459","name":"Osnabrück","type":"Landkreis"},"federalState":{"key":"03","name":"Niedersachsen"}},{"name":"Dütestr.","postalCode":"49205","locality":"Hasbergen","municipality":{"key":"03459021","name":"Hasbergen","type":"Kreisangehörige_Gemeinde"},"district":{"key":"03459","name":"Osnabrück","type":"Landkreis"},"federalState":{"key":"03","name":"Niedersachsen"}},{"name":"Edith-Stein-Weg","postalCode":"49205","locality":"Hasbergen","municipality":{"key":"03459021","name":"Hasbergen","type":"Kreisangehörige_Gemeinde"},"district":{"key":"03459","name":"Osnabrück","type":"Landkreis"},"federalState":{"key":"03","name":"Niedersachsen"}},{"name":"ehem. Perm-Bahn","postalCode":"49205","locality":"Hasbergen","municipality":{"key":"03459021","name":"Hasbergen","type":"Kreisangehörige_Gemeinde"},"district":{"key":"03459","name":"Osnabrück","type":"Landkreis"},"federalState":{"key":"03","name":"Niedersachsen"}},{"name":"Eichendorffstr.","postalCode":"49205","locality":"Hasbergen","municipality":{"key":"03459021","name":"Hasbergen","type":"Kreisangehörige_Gemeinde"},"district":{"key":"03459","name":"Osnabrück","type":"Landkreis"},"federalState":{"key":"03","name":"Niedersachsen"}},{"name":"Eichenkamp","postalCode":"49205","locality":"Hasbergen","municipality":{"key":"03459021","name":"Hasbergen","type":"Kreisangehörige_Gemeinde"},"district":{"key":"03459","name":"Osnabrück","type":"Landkreis"},"federalState":{"key":"03","name":"Niedersachsen"}},{"name":"Eisenbahnweg","postalCode":"49205","locality":"Hasbergen","municipality":{"key":"03459021","name":"Hasbergen","type":"Kreisangehörige_Gemeinde"},"district":{"key":"03459","name":"Osnabrück","type":"Landkreis"},"federalState":{"key":"03","name":"Niedersachsen"}},{"name":"Elfriede-Scholz-Weg","postalCode":"49205","locality":"Hasbergen","municipality":{"key":"03459021","name":"Hasbergen","type":"Kreisangehörige_Gemeinde"},"district":{"key":"03459","name":"Osnabrück","type":"Landkreis"},"federalState":{"key":"03","name":"Niedersachsen"}},{"name":"Erlenweg","postalCode":"49205","locality":"Hasbergen","municipality":{"key":"03459021","name":"Hasbergen","type":"Kreisangehörige_Gemeinde"},"district":{"key":"03459","name":"Osnabrück","type":"Landkreis"},"federalState":{"key":"03","name":"Niedersachsen"}},{"name":"Eulenhorst","postalCode":"49205","locality":"Hasbergen","municipality":{"key":"03459021","name":"Hasbergen","type":"Kreisangehörige_Gemeinde"},"district":{"key":"03459","name":"Osnabrück","type":"Landkreis"},"federalState":{"key":"03","name":"Niedersachsen"}},{"name":"Falkenring","postalCode":"49205","locality":"Hasbergen","municipality":{"key":"03459021","name":"Hasbergen","type":"Kreisangehörige_Gemeinde"},"district":{"key":"03459","name":"Osnabrück","type":"Landkreis"},"federalState":{"key":"03","name":"Niedersachsen"}},{"name":"Fasanenweg","postalCode":"49205","locality":"Hasbergen","municipality":{"key":"03459021","name":"Hasbergen","type":"Kreisangehörige_Gemeinde"},"district":{"key":"03459","name":"Osnabrück","type":"Landkreis"},"federalState":{"key":"03","name":"Niedersachsen"}},{"name":"Feldstr.","postalCode":"49205","locality":"Hasbergen","municipality":{"key":"03459021","name":"Hasbergen","type":"Kreisangehörige_Gemeinde"},"district":{"key":"03459","name":"Osnabrück","type":"Landkreis"},"federalState":{"key":"03","name":"Niedersachsen"}},{"name":"Feuerwache","postalCode":"49205","locality":"Hasbergen","municipality":{"key":"03459021","name":"Hasbergen","type":"Kreisangehörige_Gemeinde"},"district":{"key":"03459","name":"Osnabrück","type":"Landkreis"},"federalState":{"key":"03","name":"Niedersachsen"}},{"name":"Fichtenkamp","postalCode":"49205","locality":"Hasbergen","municipality":{"key":"03459021","name":"Hasbergen","type":"Kreisangehörige_Gemeinde"},"district":{"key":"03459","name":"Osnabrück","type":"Landkreis"},"federalState":{"key":"03","name":"Niedersachsen"}},{"name":"Finkenburg","postalCode":"49205","locality":"Hasbergen","municipality":{"key":"03459021","name":"Hasbergen","type":"Kreisangehörige_Gemeinde"},"district":{"key":"03459","name":"Osnabrück","type":"Landkreis"},"federalState":{"key":"03","name":"Niedersachsen"}},{"name":"Fliederweg","postalCode":"49205","locality":"Hasbergen","municipality":{"key":"03459021","name":"Hasbergen","type":"Kreisangehörige_Gemeinde"},"district":{"key":"03459","name":"Osnabrück","type":"Landkreis"},"federalState":{"key":"03","name":"Niedersachsen"}},{"name":"Frankensteiner Str.","postalCode":"49205","locality":"Hasbergen","municipality":{"key":"03459021","name":"Hasbergen","type":"Kreisangehörige_Gemeinde"},"district":{"key":"03459","name":"Osnabrück","type":"Landkreis"},"federalState":{"key":"03","name":"Niedersachsen"}},{"name":"Friedenshöhe","postalCode":"49205","locality":"Hasbergen","municipality":{"key":"03459021","name":"Hasbergen","type":"Kreisangehörige_Gemeinde"},"district":{"key":"03459","name":"Osnabrück","type":"Landkreis"},"federalState":{"key":"03","name":"Niedersachsen"}},{"name":"Fritz-Reuter-Str.","postalCode":"49205","locality":"Hasbergen","municipality":{"key":"03459021","name":"Hasbergen","type":"Kreisangehörige_Gemeinde"},"district":{"key":"03459","name":"Osnabrück","type":"Landkreis"},"federalState":{"key":"03","name":"Niedersachsen"}},{"name":"Gartenstr.","postalCode":"49205","locality":"Hasbergen","municipality":{"key":"03459021","name":"Hasbergen","type":"Kreisangehörige_Gemeinde"},"district":{"key":"03459","name":"Osnabrück","type":"Landkreis"},"federalState":{"key":"03","name":"Niedersachsen"}},{"name":"Gaster Kirchweg","postalCode":"49205","locality":"Hasbergen","municipality":{"key":"03459021","name":"Hasbergen","type":"Kreisangehörige_Gemeinde"},"district":{"key":"03459","name":"Osnabrück","type":"Landkreis"},"federalState":{"key":"03","name":"Niedersachsen"}},{"name":"Georg-Friedrich-Händel-Weg","postalCode":"49205","locality":"Hasbergen","municipality":{"key":"03459021","name":"Hasbergen","type":"Kreisangehörige_Gemeinde"},"district":{"key":"03459","name":"Osnabrück","type":"Landkreis"},"federalState":{"key":"03","name":"Niedersachsen"}},{"name":"Geschwister-Scholl-Weg","postalCode":"49205","locality":"Hasbergen","municipality":{"key":"03459021","name":"Hasbergen","type":"Kreisangehörige_Gemeinde"},"district":{"key":"03459","name":"Osnabrück","type":"Landkreis"},"federalState":{"key":"03","name":"Niedersachsen"}},{"name":"Ginsterweg","postalCode":"49205","locality":"Hasbergen","municipality":{"key":"03459021","name":"Hasbergen","type":"Kreisangehörige_Gemeinde"},"district":{"key":"03459","name":"Osnabrück","type":"Landkreis"},"federalState":{"key":"03","name":"Niedersachsen"}},{"name":"Gräfin-von-Maltzan-Weg","postalCode":"49205","locality":"Hasbergen","municipality":{"key":"03459021","name":"Hasbergen","type":"Kreisangehörige_Gemeinde"},"district":{"key":"03459","name":"Osnabrück","type":"Landkreis"},"federalState":{"key":"03","name":"Niedersachsen"}},{"name":"Grüner Weg","postalCode":"49205","locality":"Hasbergen","municipality":{"key":"03459021","name":"Hasbergen","type":"Kreisangehörige_Gemeinde"},"district":{"key":"03459","name":"Osnabrück","type":"Landkreis"},"federalState":{"key":"03","name":"Niedersachsen"}},{"name":"Gudenusweg","postalCode":"49205","locality":"Hasbergen","municipality":{"key":"03459021","name":"Hasbergen","type":"Kreisangehörige_Gemeinde"},"district":{"key":"03459","name":"Osnabrück","type":"Landkreis"},"federalState":{"key":"03","name":"Niedersachsen"}},{"name":"Gustav-Adolf-Str.","postalCode":"49205","locality":"Hasbergen","municipality":{"key":"03459021","name":"Hasbergen","type":"Kreisangehörige_Gemeinde"},"district":{"key":"03459","name":"Osnabrück","type":"Landkreis"},"federalState":{"key":"03","name":"Niedersachsen"}},{"name":"Habichthorst","postalCode":"49205","locality":"Hasbergen","municipality":{"key":"03459021","name":"Hasbergen","type":"Kreisangehörige_Gemeinde"},"district":{"key":"03459","name":"Osnabrück","type":"Landkreis"},"federalState":{"key":"03","name":"Niedersachsen"}},{"name":"Habkemeyers Hof","postalCode":"49205","locality":"Hasbergen","municipality":{"key":"03459021","name":"Hasbergen","type":"Kreisangehörige_Gemeinde"},"district":{"key":"03459","name":"Osnabrück","type":"Landkreis"},"federalState":{"key":"03","name":"Niedersachsen"}},{"name":"Hagebuttenweg","postalCode":"49205","locality":"Hasbergen","municipality":{"key":"03459021","name":"Hasbergen","type":"Kreisangehörige_Gemeinde"},"district":{"key":"03459","name":"Osnabrück","type":"Landkreis"},"federalState":{"key":"03","name":"Niedersachsen"}},{"name":"Hansastr.","postalCode":"49205","locality":"Hasbergen","municipality":{"key":"03459021","name":"Hasbergen","type":"Kreisangehörige_Gemeinde"},"district":{"key":"03459","name":"Osnabrück","type":"Landkreis"},"federalState":{"key":"03","name":"Niedersachsen"}},{"name":"Hasenkamp","postalCode":"49205","locality":"Hasbergen","municipality":{"key":"03459021","name":"Hasbergen","type":"Kreisangehörige_Gemeinde"},"district":{"key":"03459","name":"Osnabrück","type":"Landkreis"},"federalState":{"key":"03","name":"Niedersachsen"}},{"name":"Haslage","postalCode":"49205","locality":"Hasbergen","municipality":{"key":"03459021","name":"Hasbergen","type":"Kreisangehörige_Gemeinde"},"district":{"key":"03459","name":"Osnabrück","type":"Landkreis"},"federalState":{"key":"03","name":"Niedersachsen"}},{"name":"Hauptstr.","postalCode":"49205","locality":"Hasbergen","municipality":{"key":"03459021","name":"Hasbergen","type":"Kreisangehörige_Gemeinde"},"district":{"key":"03459","name":"Osnabrück","type":"Landkreis"},"federalState":{"key":"03","name":"Niedersachsen"}},{"name":"Heideweg","postalCode":"49205","locality":"Hasbergen","municipality":{"key":"03459021","name":"Hasbergen","type":"Kreisangehörige_Gemeinde"},"district":{"key":"03459","name":"Osnabrück","type":"Landkreis"},"federalState":{"key":"03","name":"Niedersachsen"}},{"name":"Heimatweg","postalCode":"49205","locality":"Hasbergen","municipality":{"key":"03459021","name":"Hasbergen","type":"Kreisangehörige_Gemeinde"},"district":{"key":"03459","name":"Osnabrück","type":"Landkreis"},"federalState":{"key":"03","name":"Niedersachsen"}},{"name":"Hellerner Weg","postalCode":"49205","locality":"Hasbergen","municipality":{"key":"03459021","name":"Hasbergen","type":"Kreisangehörige_Gemeinde"},"district":{"key":"03459","name":"Osnabrück","type":"Landkreis"},"federalState":{"key":"03","name":"Niedersachsen"}},{"name":"Herderstr.","postalCode":"49205","locality":"Hasbergen","municipality":{"key":"03459021","name":"Hasbergen","type":"Kreisangehörige_Gemeinde"},"district":{"key":"03459","name":"Osnabrück","type":"Landkreis"},"federalState":{"key":"03","name":"Niedersachsen"}},{"name":"Hiärm-Grupe-Str.","postalCode":"49205","locality":"Hasbergen","municipality":{"key":"03459021","name":"Hasbergen","type":"Kreisangehörige_Gemeinde"},"district":{"key":"03459","name":"Osnabrück","type":"Landkreis"},"federalState":{"key":"03","name":"Niedersachsen"}},{"name":"Holunderweg","postalCode":"49205","locality":"Hasbergen","municipality":{"key":"03459021","name":"Hasbergen","type":"Kreisangehörige_Gemeinde"},"district":{"key":"03459","name":"Osnabrück","type":"Landkreis"},"federalState":{"key":"03","name":"Niedersachsen"}},{"name":"Holzhauser Str.","postalCode":"49205","locality":"Hasbergen","municipality":{"key":"03459021","name":"Hasbergen","type":"Kreisangehörige_Gemeinde"},"district":{"key":"03459","name":"Osnabrück","type":"Landkreis"},"federalState":{"key":"03","name":"Niedersachsen"}},{"name":"Holzheider Weg","postalCode":"49205","locality":"Hasbergen","municipality":{"key":"03459021","name":"Hasbergen","type":"Kreisangehörige_Gemeinde"},"district":{"key":"03459","name":"Osnabrück","type":"Landkreis"},"federalState":{"key":"03","name":"Niedersachsen"}},{"name":"Holzlagerplatz","postalCode":"49205","locality":"Hasbergen","municipality":{"key":"03459021","name":"Hasbergen","type":"Kreisangehörige_Gemeinde"},"district":{"key":"03459","name":"Osnabrück","type":"Landkreis"},"federalState":{"key":"03","name":"Niedersachsen"}},{"name":"Hüggelstr.","postalCode":"49205","locality":"Hasbergen","municipality":{"key":"03459021","name":"Hasbergen","type":"Kreisangehörige_Gemeinde"},"district":{"key":"03459","name":"Osnabrück","type":"Landkreis"},"federalState":{"key":"03","name":"Niedersachsen"}},{"name":"Im Esch","postalCode":"49205","locality":"Hasbergen","municipality":{"key":"03459021","name":"Hasbergen","type":"Kreisangehörige_Gemeinde"},"district":{"key":"03459","name":"Osnabrück","type":"Landkreis"},"federalState":{"key":"03","name":"Niedersachsen"}},{"name":"Im Hamme","postalCode":"49205","locality":"Hasbergen","municipality":{"key":"03459021","name":"Hasbergen","type":"Kreisangehörige_Gemeinde"},"district":{"key":"03459","name":"Osnabrück","type":"Landkreis"},"federalState":{"key":"03","name":"Niedersachsen"}},{"name":"Im Heinkengarten","postalCode":"49205","locality":"Hasbergen","municipality":{"key":"03459021","name":"Hasbergen","type":"Kreisangehörige_Gemeinde"},"district":{"key":"03459","name":"Osnabrück","type":"Landkreis"},"federalState":{"key":"03","name":"Niedersachsen"}},{"name":"Im Kamp","postalCode":"49205","locality":"Hasbergen","municipality":{"key":"03459021","name":"Hasbergen","type":"Kreisangehörige_Gemeinde"},"district":{"key":"03459","name":"Osnabrück","type":"Landkreis"},"federalState":{"key":"03","name":"Niedersachsen"}},{"name":"Im Malingskamp","postalCode":"49205","locality":"Hasbergen","municipality":{"key":"03459021","name":"Hasbergen","type":"Kreisangehörige_Gemeinde"},"district":{"key":"03459","name":"Osnabrück","type":"Landkreis"},"federalState":{"key":"03","name":"Niedersachsen"}},{"name":"Im Steerte","postalCode":"49205","locality":"Hasbergen","municipality":{"key":"03459021","name":"Hasbergen","type":"Kreisangehörige_Gemeinde"},"district":{"key":"03459","name":"Osnabrück","type":"Landkreis"},"federalState":{"key":"03","name":"Niedersachsen"}},{"name":"Im Wiesengrund","postalCode":"49205","locality":"Hasbergen","municipality":{"key":"03459021","name":"Hasbergen","type":"Kreisangehörige_Gemeinde"},"district":{"key":"03459","name":"Osnabrück","type":"Landkreis"},"federalState":{"key":"03","name":"Niedersachsen"}},{"name":"Irisweg","postalCode":"49205","locality":"Hasbergen","municipality":{"key":"03459021","name":"Hasbergen","type":"Kreisangehörige_Gemeinde"},"district":{"key":"03459","name":"Osnabrück","type":"Landkreis"},"federalState":{"key":"03","name":"Niedersachsen"}},{"name":"Jahnstr.","postalCode":"49205","locality":"Hasbergen","municipality":{"key":"03459021","name":"Hasbergen","type":"Kreisangehörige_Gemeinde"},"district":{"key":"03459","name":"Osnabrück","type":"Landkreis"},"federalState":{"key":"03","name":"Niedersachsen"}},{"name":"Johanna-Kirchner-Weg","postalCode":"49205","locality":"Hasbergen","municipality":{"key":"03459021","name":"Hasbergen","type":"Kreisangehörige_Gemeinde"},"district":{"key":"03459","name":"Osnabrück","type":"Landkreis"},"federalState":{"key":"03","name":"Niedersachsen"}},{"name":"Johann-Sebastian-Bach-Weg","postalCode":"49205","locality":"Hasbergen","municipality":{"key":"03459021","name":"Hasbergen","type":"Kreisangehörige_Gemeinde"},"district":{"key":"03459","name":"Osnabrück","type":"Landkreis"},"federalState":{"key":"03","name":"Niedersachsen"}},{"name":"Kästnerstr.","postalCode":"49205","locality":"Hasbergen","municipality":{"key":"03459021","name":"Hasbergen","type":"Kreisangehörige_Gemeinde"},"district":{"key":"03459","name":"Osnabrück","type":"Landkreis"},"federalState":{"key":"03","name":"Niedersachsen"}},{"name":"Kiefernweg","postalCode":"49205","locality":"Hasbergen","municipality":{"key":"03459021","name":"Hasbergen","type":"Kreisangehörige_Gemeinde"},"district":{"key":"03459","name":"Osnabrück","type":"Landkreis"},"federalState":{"key":"03","name":"Niedersachsen"}},{"name":"Kirchberg","postalCode":"49205","locality":"Hasbergen","municipality":{"key":"03459021","name":"Hasbergen","type":"Kreisangehörige_Gemeinde"},"district":{"key":"03459","name":"Osnabrück","type":"Landkreis"},"federalState":{"key":"03","name":"Niedersachsen"}},{"name":"Kolpingstr.","postalCode":"49205","locality":"Hasbergen","municipality":{"key":"03459021","name":"Hasbergen","type":"Kreisangehörige_Gemeinde"},"district":{"key":"03459","name":"Osnabrück","type":"Landkreis"},"federalState":{"key":"03","name":"Niedersachsen"}},{"name":"Königsberger Str.","postalCode":"49205","locality":"Hasbergen","municipality":{"key":"03459021","name":"Hasbergen","type":"Kreisangehörige_Gemeinde"},"district":{"key":"03459","name":"Osnabrück","type":"Landkreis"},"federalState":{"key":"03","name":"Niedersachsen"}},{"name":"Krelkauer Weg","postalCode":"49205","locality":"Hasbergen","municipality":{"key":"03459021","name":"Hasbergen","type":"Kreisangehörige_Gemeinde"},"district":{"key":"03459","name":"Osnabrück","type":"Landkreis"},"federalState":{"key":"03","name":"Niedersachsen"}},{"name":"Kreuzbrink","postalCode":"49205","locality":"Hasbergen","municipality":{"key":"03459021","name":"Hasbergen","type":"Kreisangehörige_Gemeinde"},"district":{"key":"03459","name":"Osnabrück","type":"Landkreis"},"federalState":{"key":"03","name":"Niedersachsen"}},{"name":"Langer Weg","postalCode":"49205","locality":"Hasbergen","municipality":{"key":"03459021","name":"Hasbergen","type":"Kreisangehörige_Gemeinde"},"district":{"key":"03459","name":"Osnabrück","type":"Landkreis"},"federalState":{"key":"03","name":"Niedersachsen"}},{"name":"Lärchenweg","postalCode":"49205","locality":"Hasbergen","municipality":{"key":"03459021","name":"Hasbergen","type":"Kreisangehörige_Gemeinde"},"district":{"key":"03459","name":"Osnabrück","type":"Landkreis"},"federalState":{"key":"03","name":"Niedersachsen"}},{"name":"Lauenbrunner Weg","postalCode":"49205","locality":"Hasbergen","municipality":{"key":"03459021","name":"Hasbergen","type":"Kreisangehörige_Gemeinde"},"district":{"key":"03459","name":"Osnabrück","type":"Landkreis"},"federalState":{"key":"03","name":"Niedersachsen"}},{"name":"Lessingstr.","postalCode":"49205","locality":"Hasbergen","municipality":{"key":"03459021","name":"Hasbergen","type":"Kreisangehörige_Gemeinde"},"district":{"key":"03459","name":"Osnabrück","type":"Landkreis"},"federalState":{"key":"03","name":"Niedersachsen"}},{"name":"Lindenstr.","postalCode":"49205","locality":"Hasbergen","municipality":{"key":"03459021","name":"Hasbergen","type":"Kreisangehörige_Gemeinde"},"district":{"key":"03459","name":"Osnabrück","type":"Landkreis"},"federalState":{"key":"03","name":"Niedersachsen"}},{"name":"Lönsweg","postalCode":"49205","locality":"Hasbergen","municipality":{"key":"03459021","name":"Hasbergen","type":"Kreisangehörige_Gemeinde"},"district":{"key":"03459","name":"Osnabrück","type":"Landkreis"},"federalState":{"key":"03","name":"Niedersachsen"}},{"name":"Lortzingstr.","postalCode":"49205","locality":"Hasbergen","municipality":{"key":"03459021","name":"Hasbergen","type":"Kreisangehörige_Gemeinde"},"district":{"key":"03459","name":"Osnabrück","type":"Landkreis"},"federalState":{"key":"03","name":"Niedersachsen"}},{"name":"Lotter Weg","postalCode":"49205","locality":"Hasbergen","municipality":{"key":"03459021","name":"Hasbergen","type":"Kreisangehörige_Gemeinde"},"district":{"key":"03459","name":"Osnabrück","type":"Landkreis"},"federalState":{"key":"03","name":"Niedersachsen"}},{"name":"Lührmannweg","postalCode":"49205","locality":"Hasbergen","municipality":{"key":"03459021","name":"Hasbergen","type":"Kreisangehörige_Gemeinde"},"district":{"key":"03459","name":"Osnabrück","type":"Landkreis"},"federalState":{"key":"03","name":"Niedersachsen"}},{"name":"Lyrastr.","postalCode":"49205","locality":"Hasbergen","municipality":{"key":"03459021","name":"Hasbergen","type":"Kreisangehörige_Gemeinde"},"district":{"key":"03459","name":"Osnabrück","type":"Landkreis"},"federalState":{"key":"03","name":"Niedersachsen"}},{"name":"Martin-Luther-Str.","postalCode":"49205","locality":"Hasbergen","municipality":{"key":"03459021","name":"Hasbergen","type":"Kreisangehörige_Gemeinde"},"district":{"key":"03459","name":"Osnabrück","type":"Landkreis"},"federalState":{"key":"03","name":"Niedersachsen"}},{"name":"Mecklenburger Str.","postalCode":"49205","locality":"Hasbergen","municipality":{"key":"03459021","name":"Hasbergen","type":"Kreisangehörige_Gemeinde"},"district":{"key":"03459","name":"Osnabrück","type":"Landkreis"},"federalState":{"key":"03","name":"Niedersachsen"}},{"name":"Milanhorst","postalCode":"49205","locality":"Hasbergen","municipality":{"key":"03459021","name":"Hasbergen","type":"Kreisangehörige_Gemeinde"},"district":{"key":"03459","name":"Osnabrück","type":"Landkreis"},"federalState":{"key":"03","name":"Niedersachsen"}},{"name":"Mittelweg","postalCode":"49205","locality":"Hasbergen","municipality":{"key":"03459021","name":"Hasbergen","type":"Kreisangehörige_Gemeinde"},"district":{"key":"03459","name":"Osnabrück","type":"Landkreis"},"federalState":{"key":"03","name":"Niedersachsen"}},{"name":"Mörikestr.","postalCode":"49205","locality":"Hasbergen","municipality":{"key":"03459021","name":"Hasbergen","type":"Kreisangehörige_Gemeinde"},"district":{"key":"03459","name":"Osnabrück","type":"Landkreis"},"federalState":{"key":"03","name":"Niedersachsen"}},{"name":"Nelkenstr.","postalCode":"49205","locality":"Hasbergen","municipality":{"key":"03459021","name":"Hasbergen","type":"Kreisangehörige_Gemeinde"},"district":{"key":"03459","name":"Osnabrück","type":"Landkreis"},"federalState":{"key":"03","name":"Niedersachsen"}},{"name":"Niedersachsenstr.","postalCode":"49205","locality":"Hasbergen","municipality":{"key":"03459021","name":"Hasbergen","type":"Kreisangehörige_Gemeinde"},"district":{"key":"03459","name":"Osnabrück","type":"Landkreis"},"federalState":{"key":"03","name":"Niedersachsen"}},{"name":"Nordkamp","postalCode":"49205","locality":"Hasbergen","municipality":{"key":"03459021","name":"Hasbergen","type":"Kreisangehörige_Gemeinde"},"district":{"key":"03459","name":"Osnabrück","type":"Landkreis"},"federalState":{"key":"03","name":"Niedersachsen"}},{"name":"Ohrbecker Str.","postalCode":"49205","locality":"Hasbergen","municipality":{"key":"03459021","name":"Hasbergen","type":"Kreisangehörige_Gemeinde"},"district":{"key":"03459","name":"Osnabrück","type":"Landkreis"},"federalState":{"key":"03","name":"Niedersachsen"}},{"name":"Osnabrücker Str.","postalCode":"49205","locality":"Hasbergen","municipality":{"key":"03459021","name":"Hasbergen","type":"Kreisangehörige_Gemeinde"},"district":{"key":"03459","name":"Osnabrück","type":"Landkreis"},"federalState":{"key":"03","name":"Niedersachsen"}},{"name":"Ostlandweg","postalCode":"49205","locality":"Hasbergen","municipality":{"key":"03459021","name":"Hasbergen","type":"Kreisangehörige_Gemeinde"},"district":{"key":"03459","name":"Osnabrück","type":"Landkreis"},"federalState":{"key":"03","name":"Niedersachsen"}},{"name":"Ostpreußenstr.","postalCode":"49205","locality":"Hasbergen","municipality":{"key":"03459021","name":"Hasbergen","type":"Kreisangehörige_Gemeinde"},"district":{"key":"03459","name":"Osnabrück","type":"Landkreis"},"federalState":{"key":"03","name":"Niedersachsen"}},{"name":"Palmkamp","postalCode":"49205","locality":"Hasbergen","municipality":{"key":"03459021","name":"Hasbergen","type":"Kreisangehörige_Gemeinde"},"district":{"key":"03459","name":"Osnabrück","type":"Landkreis"},"federalState":{"key":"03","name":"Niedersachsen"}},{"name":"Pappelweg","postalCode":"49205","locality":"Hasbergen","municipality":{"key":"03459021","name":"Hasbergen","type":"Kreisangehörige_Gemeinde"},"district":{"key":"03459","name":"Osnabrück","type":"Landkreis"},"federalState":{"key":"03","name":"Niedersachsen"}},{"name":"Permer Damm","postalCode":"49205","locality":"Hasbergen","municipality":{"key":"03459021","name":"Hasbergen","type":"Kreisangehörige_Gemeinde"},"district":{"key":"03459","name":"Osnabrück","type":"Landkreis"},"federalState":{"key":"03","name":"Niedersachsen"}},{"name":"Quakenbrücker Hof","postalCode":"49088","locality":"Osnabrück","municipality":{"key":"03404000","name":"Osnabrück, Stadt","type":"Kreisfreie_Stadt"},"district":{"key":"03404","name":"Osnabrück, Stadt","type":"Kreisfreie_Stadt"},"federalState":{"key":"03","name":"Niedersachsen"}},{"name":"Quebecallee","postalCode":"49090","locality":"Osnabrück","municipality":{"key":"03404000","name":"Osnabrück, Stadt","type":"Kreisfreie_Stadt"},"district":{"key":"03404","name":"Osnabrück, Stadt","type":"Kreisfreie_Stadt"},"federalState":{"key":"03","name":"Niedersachsen"}},{"name":"Quellengrund","postalCode":"49086","locality":"Osnabrück","municipality":{"key":"03404000","name":"Osnabrück, Stadt","type":"Kreisfreie_Stadt"},"district":{"key":"03404","name":"Osnabrück, Stadt","type":"Kreisfreie_Stadt"},"federalState":{"key":"03","name":"Niedersachsen"}},{"name":"Quellental","postalCode":"49086","locality":"Osnabrück","municipality":{"key":"03404000","name":"Osnabrück, Stadt","type":"Kreisfreie_Stadt"},"district":{"key":"03404","name":"Osnabrück, Stadt","type":"Kreisfreie_Stadt"},"federalState":{"key":"03","name":"Niedersachsen"}},{"name":"Quellwiese","postalCode":"49080","locality":"Osnabrück","municipality":{"key":"03404000","name":"Osnabrück, Stadt","type":"Kreisfreie_Stadt"},"district":{"key":"03404","name":"Osnabrück, Stadt","type":"Kreisfreie_Stadt"},"federalState":{"key":"03","name":"Niedersachsen"}},{"name":"Querstr.","postalCode":"49090","locality":"Osnabrück","municipality":{"key":"03404000","name":"Osnabrück, Stadt","type":"Kreisfreie_Stadt"},"district":{"key":"03404","name":"Osnabrück, Stadt","type":"Kreisfreie_Stadt"},"federalState":{"key":"03","name":"Niedersachsen"}},{"name":"Rheiner Landstr.","postalCode":"49205","locality":"Hasbergen","municipality":{"key":"03459021","name":"Hasbergen","type":"Kreisangehörige_Gemeinde"},"district":{"key":"03459","name":"Osnabrück","type":"Landkreis"},"federalState":{"key":"03","name":"Niedersachsen"}},{"name":"Richard-Strauss-Weg","postalCode":"49205","locality":"Hasbergen","municipality":{"key":"03459021","name":"Hasbergen","type":"Kreisangehörige_Gemeinde"},"district":{"key":"03459","name":"Osnabrück","type":"Landkreis"},"federalState":{"key":"03","name":"Niedersachsen"}},{"name":"Riedweg","postalCode":"49205","locality":"Hasbergen","municipality":{"key":"03459021","name":"Hasbergen","type":"Kreisangehörige_Gemeinde"},"district":{"key":"03459","name":"Osnabrück","type":"Landkreis"},"federalState":{"key":"03","name":"Niedersachsen"}},{"name":"Rosenweg","postalCode":"49205","locality":"Hasbergen","municipality":{"key":"03459021","name":"Hasbergen","type":"Kreisangehörige_Gemeinde"},"district":{"key":"03459","name":"Osnabrück","type":"Landkreis"},"federalState":{"key":"03","name":"Niedersachsen"}},{"name":"Roter Berg","postalCode":"49205","locality":"Hasbergen","municipality":{"key":"03459021","name":"Hasbergen","type":"Kreisangehörige_Gemeinde"},"district":{"key":"03459","name":"Osnabrück","type":"Landkreis"},"federalState":{"key":"03","name":"Niedersachsen"}},{"name":"Rötheweg","postalCode":"49205","locality":"Hasbergen","municipality":{"key":"03459021","name":"Hasbergen","type":"Kreisangehörige_Gemeinde"},"district":{"key":"03459","name":"Osnabrück","type":"Landkreis"},"federalState":{"key":"03","name":"Niedersachsen"}},{"name":"Rugoweg","postalCode":"49205","locality":"Hasbergen","municipality":{"key":"03459021","name":"Hasbergen","type":"Kreisangehörige_Gemeinde"},"district":{"key":"03459","name":"Osnabrück","type":"Landkreis"},"federalState":{"key":"03","name":"Niedersachsen"}},{"name":"Sandstr.","postalCode":"49205","locality":"Hasbergen","municipality":{"key":"03459021","name":"Hasbergen","type":"Kreisangehörige_Gemeinde"},"district":{"key":"03459","name":"Osnabrück","type":"Landkreis"},"federalState":{"key":"03","name":"Niedersachsen"}},{"name":"Schlesische Str.","postalCode":"49205","locality":"Hasbergen","municipality":{"key":"03459021","name":"Hasbergen","type":"Kreisangehörige_Gemeinde"},"district":{"key":"03459","name":"Osnabrück","type":"Landkreis"},"federalState":{"key":"03","name":"Niedersachsen"}},{"name":"Schmiedeweg","postalCode":"49205","locality":"Hasbergen","municipality":{"key":"03459021","name":"Hasbergen","type":"Kreisangehörige_Gemeinde"},"district":{"key":"03459","name":"Osnabrück","type":"Landkreis"},"federalState":{"key":"03","name":"Niedersachsen"}},{"name":"Schulstr.","postalCode":"49205","locality":"Hasbergen","municipality":{"key":"03459021","name":"Hasbergen","type":"Kreisangehörige_Gemeinde"},"district":{"key":"03459","name":"Osnabrück","type":"Landkreis"},"federalState":{"key":"03","name":"Niedersachsen"}},{"name":"Schwarze Riede","postalCode":"49205","locality":"Hasbergen","municipality":{"key":"03459021","name":"Hasbergen","type":"Kreisangehörige_Gemeinde"},"district":{"key":"03459","name":"Osnabrück","type":"Landkreis"},"federalState":{"key":"03","name":"Niedersachsen"}},{"name":"Sperberhorst","postalCode":"49205","locality":"Hasbergen","municipality":{"key":"03459021","name":"Hasbergen","type":"Kreisangehörige_Gemeinde"},"district":{"key":"03459","name":"Osnabrück","type":"Landkreis"},"federalState":{"key":"03","name":"Niedersachsen"}},{"name":"Stüvestr.","postalCode":"49205","locality":"Hasbergen","municipality":{"key":"03459021","name":"Hasbergen","type":"Kreisangehörige_Gemeinde"},"district":{"key":"03459","name":"Osnabrück","type":"Landkreis"},"federalState":{"key":"03","name":"Niedersachsen"}},{"name":"Sunderstr.","postalCode":"49205","locality":"Hasbergen","municipality":{"key":"03459021","name":"Hasbergen","type":"Kreisangehörige_Gemeinde"},"district":{"key":"03459","name":"Osnabrück","type":"Landkreis"},"federalState":{"key":"03","name":"Niedersachsen"}},{"name":"Tannenkamp","postalCode":"49205","locality":"Hasbergen","municipality":{"key":"03459021","name":"Hasbergen","type":"Kreisangehörige_Gemeinde"},"district":{"key":"03459","name":"Osnabrück","type":"Landkreis"},"federalState":{"key":"03","name":"Niedersachsen"}},{"name":"Tecklenburger Str.","postalCode":"49205","locality":"Hasbergen","municipality":{"key":"03459021","name":"Hasbergen","type":"Kreisangehörige_Gemeinde"},"district":{"key":"03459","name":"Osnabrück","type":"Landkreis"},"federalState":{"key":"03","name":"Niedersachsen"}},{"name":"Thüringer Str.","postalCode":"49205","locality":"Hasbergen","municipality":{"key":"03459021","name":"Hasbergen","type":"Kreisangehörige_Gemeinde"},"district":{"key":"03459","name":"Osnabrück","type":"Landkreis"},"federalState":{"key":"03","name":"Niedersachsen"}},{"name":"Tomblaineplatz","postalCode":"49205","locality":"Hasbergen","municipality":{"key":"03459021","name":"Hasbergen","type":"Kreisangehörige_Gemeinde"},"district":{"key":"03459","name":"Osnabrück","type":"Landkreis"},"federalState":{"key":"03","name":"Niedersachsen"}},{"name":"Tulpenstr.","postalCode":"49205","locality":"Hasbergen","municipality":{"key":"03459021","name":"Hasbergen","type":"Kreisangehörige_Gemeinde"},"district":{"key":"03459","name":"Osnabrück","type":"Landkreis"},"federalState":{"key":"03","name":"Niedersachsen"}},{"name":"Uhlandstr.","postalCode":"49078","locality":"Osnabrück","municipality":{"key":"03404000","name":"Osnabrück, Stadt","type":"Kreisfreie_Stadt"},"district":{"key":"03404","name":"Osnabrück, Stadt","type":"Kreisfreie_Stadt"},"federalState":{"key":"03","name":"Niedersachsen"}},{"name":"Uhlandstr.","postalCode":"49080","locality":"Osnabrück","municipality":{"key":"03404000","name":"Osnabrück, Stadt","type":"Kreisfreie_Stadt"},"district":{"key":"03404","name":"Osnabrück, Stadt","type":"Kreisfreie_Stadt"},"federalState":{"key":"03","name":"Niedersachsen"}},{"name":"Uhlhornstr.","postalCode":"49080","locality":"Osnabrück","municipality":{"key":"03404000","name":"Osnabrück, Stadt","type":"Kreisfreie_Stadt"},"district":{"key":"03404","name":"Osnabrück, Stadt","type":"Kreisfreie_Stadt"},"federalState":{"key":"03","name":"Niedersachsen"}},{"name":"Uhlmannskamp","postalCode":"49086","locality":"Osnabrück","municipality":{"key":"03404000","name":"Osnabrück, Stadt","type":"Kreisfreie_Stadt"},"district":{"key":"03404","name":"Osnabrück, Stadt","type":"Kreisfreie_Stadt"},"federalState":{"key":"03","name":"Niedersachsen"}},{"name":"Ulmenstr.","postalCode":"49088","locality":"Osnabrück","municipality":{"key":"03404000","name":"Osnabrück, Stadt","type":"Kreisfreie_Stadt"},"district":{"key":"03404","name":"Osnabrück, Stadt","type":"Kreisfreie_Stadt"},"federalState":{"key":"03","name":"Niedersachsen"}},{"name":"Ulrichstr.","postalCode":"49076","locality":"Osnabrück","municipality":{"key":"03404000","name":"Osnabrück, Stadt","type":"Kreisfreie_Stadt"},"district":{"key":"03404","name":"Osnabrück, Stadt","type":"Kreisfreie_Stadt"},"federalState":{"key":"03","name":"Niedersachsen"}},{"name":"Untere Waldstr.","postalCode":"49090","locality":"Osnabrück","municipality":{"key":"03404000","name":"Osnabrück, Stadt","type":"Kreisfreie_Stadt"},"district":{"key":"03404","name":"Osnabrück, Stadt","type":"Kreisfreie_Stadt"},"federalState":{"key":"03","name":"Niedersachsen"}},{"name":"Unterm Berge","postalCode":"49082","locality":"Osnabrück","municipality":{"key":"03404000","name":"Osnabrück, Stadt","type":"Kreisfreie_Stadt"},"district":{"key":"03404","name":"Osnabrück, Stadt","type":"Kreisfreie_Stadt"},"federalState":{"key":"03","name":"Niedersachsen"}},{"name":"Ursula-Flick-Str.","postalCode":"49076","locality":"Osnabrück","municipality":{"key":"03404000","name":"Osnabrück, Stadt","type":"Kreisfreie_Stadt"},"district":{"key":"03404","name":"Osnabrück, Stadt","type":"Kreisfreie_Stadt"},"federalState":{"key":"03","name":"Niedersachsen"}},{"name":"Ursula-Karmann-Weg","postalCode":"49076","locality":"Osnabrück","municipality":{"key":"03404000","name":"Osnabrück, Stadt","type":"Kreisfreie_Stadt"},"district":{"key":"03404","name":"Osnabrück, Stadt","type":"Kreisfreie_Stadt"},"federalState":{"key":"03","name":"Niedersachsen"}},{"name":"Veilchenweg","postalCode":"49205","locality":"Hasbergen","municipality":{"key":"03459021","name":"Hasbergen","type":"Kreisangehörige_Gemeinde"},"district":{"key":"03459","name":"Osnabrück","type":"Landkreis"},"federalState":{"key":"03","name":"Niedersachsen"}},{"name":"Wacholderweg","postalCode":"49205","locality":"Hasbergen","municipality":{"key":"03459021","name":"Hasbergen","type":"Kreisangehörige_Gemeinde"},"district":{"key":"03459","name":"Osnabrück","type":"Landkreis"},"federalState":{"key":"03","name":"Niedersachsen"}},{"name":"Waldbrink","postalCode":"49205","locality":"Hasbergen","municipality":{"key":"03459021","name":"Hasbergen","type":"Kreisangehörige_Gemeinde"},"district":{"key":"03459","name":"Osnabrück","type":"Landkreis"},"federalState":{"key":"03","name":"Niedersachsen"}},{"name":"Weidenstr.","postalCode":"49205","locality":"Hasbergen","municipality":{"key":"03459021","name":"Hasbergen","type":"Kreisangehörige_Gemeinde"},"district":{"key":"03459","name":"Osnabrück","type":"Landkreis"},"federalState":{"key":"03","name":"Niedersachsen"}},{"name":"Wiesenstr.","postalCode":"49205","locality":"Hasbergen","municipality":{"key":"03459021","name":"Hasbergen","type":"Kreisangehörige_Gemeinde"},"district":{"key":"03459","name":"Osnabrück","type":"Landkreis"},"federalState":{"key":"03","name":"Niedersachsen"}},{"name":"Wildrosenweg","postalCode":"49205","locality":"Hasbergen","municipality":{"key":"03459021","name":"Hasbergen","type":"Kreisangehörige_Gemeinde"},"district":{"key":"03459","name":"Osnabrück","type":"Landkreis"},"federalState":{"key":"03","name":"Niedersachsen"}},{"name":"Wilhelm-Busch-Str.","postalCode":"49205","locality":"Hasbergen","municipality":{"key":"03459021","name":"Hasbergen","type":"Kreisangehörige_Gemeinde"},"district":{"key":"03459","name":"Osnabrück","type":"Landkreis"},"federalState":{"key":"03","name":"Niedersachsen"}},{"name":"Winkelgasse","postalCode":"49205","locality":"Hasbergen","municipality":{"key":"03459021","name":"Hasbergen","type":"Kreisangehörige_Gemeinde"},"district":{"key":"03459","name":"Osnabrück","type":"Landkreis"},"federalState":{"key":"03","name":"Niedersachsen"}},{"name":"Wolfgang-Amadeus-Mozart-Str.","postalCode":"49205","locality":"Hasbergen","municipality":{"key":"03459021","name":"Hasbergen","type":"Kreisangehörige_Gemeinde"},"district":{"key":"03459","name":"Osnabrück","type":"Landkreis"},"federalState":{"key":"03","name":"Niedersachsen"}},{"name":"Wulfskotten","postalCode":"49205","locality":"Hasbergen","municipality":{"key":"03459021","name":"Hasbergen","type":"Kreisangehörige_Gemeinde"},"district":{"key":"03459","name":"Osnabrück","type":"Landkreis"},"federalState":{"key":"03","name":"Niedersachsen"}},{"name":"Yorkring","postalCode":"49090","locality":"Osnabrück","municipality":{"key":"03404000","name":"Osnabrück, Stadt","type":"Kreisfreie_Stadt"},"district":{"key":"03404","name":"Osnabrück, Stadt","type":"Kreisfreie_Stadt"},"federalState":{"key":"03","name":"Niedersachsen"}},{"name":"Zum Hüggel","postalCode":"49205","locality":"Hasbergen","municipality":{"key":"03459021","name":"Hasbergen","type":"Kreisangehörige_Gemeinde"},"district":{"key":"03459","name":"Osnabrück","type":"Landkreis"},"federalState":{"key":"03","name":"Niedersachsen"}},{"name":"Zum Ortenbrink","postalCode":"49205","locality":"Hasbergen","municipality":{"key":"03459021","name":"Hasbergen","type":"Kreisangehörige_Gemeinde"},"district":{"key":"03459","name":"Osnabrück","type":"Landkreis"},"federalState":{"key":"03","name":"Niedersachsen"}},{"name":"Zum Waldwinkel","postalCode":"49205","locality":"Hasbergen","municipality":{"key":"03459021","name":"Hasbergen","type":"Kreisangehörige_Gemeinde"},"district":{"key":"03459","name":"Osnabrück","type":"Landkreis"},"federalState":{"key":"03","name":"Niedersachsen"}},{"name":"Ölweg","postalCode":"49084","locality":"Osnabrück","municipality":{"key":"03404000","name":"Osnabrück, Stadt","type":"Kreisfreie_Stadt"},"district":{"key":"03404","name":"Osnabrück, Stadt","type":"Kreisfreie_Stadt"},"federalState":{"key":"03","name":"Niedersachsen"}},{"name":"Östringer Weg","postalCode":"49090","locality":"Osnabrück","municipality":{"key":"03404000","name":"Osnabrück, Stadt","type":"Kreisfreie_Stadt"},"district":{"key":"03404","name":"Osnabrück, Stadt","type":"Kreisfreie_Stadt"},"federalState":{"key":"03","name":"Niedersachsen"}},{"name":"Öwer de Hase","postalCode":"49074","locality":"Osnabrück","municipality":{"key":"03404000","name":"Osnabrück, Stadt","type":"Kreisfreie_Stadt"},"district":{"key":"03404","name":"Osnabrück, Stadt","type":"Kreisfreie_Stadt"},"federalState":{"key":"03","name":"Niedersachsen"}},{"name":"Übergang zum Freibad","postalCode":"49090","locality":"Osnabrück","municipality":{"key":"03404000","name":"Osnabrück, Stadt","type":"Kreisfreie_Stadt"},"district":{"key":"03404","name":"Osnabrück, Stadt","type":"Kreisfreie_Stadt"},"federalState":{"key":"03","name":"Niedersachsen"}},{"name":"Übergang zur Liegewiese","postalCode":"49090","locality":"Osnabrück","municipality":{"key":"03404000","name":"Osnabrück, Stadt","type":"Kreisfreie_Stadt"},"district":{"key":"03404","name":"Osnabrück, Stadt","type":"Kreisfreie_Stadt"},"federalState":{"key":"03","name":"Niedersachsen"}},]