[{"name":"Am Bräuweiher","postalCode":"93499","locality":"Zandt","municipality":{"key":"09372177","name":"Zandt","type":"Kreisangehörige_Gemeinde"},"district":{"key":"09372","name":"Cham","type":"Landkreis"},"federalState":{"key":"09","name":"Bayern"}},{"name":"Am Kellerberg","postalCode":"93499","locality":"Zandt","municipality":{"key":"09372177","name":"Zandt","type":"Kreisangehörige_Gemeinde"},"district":{"key":"09372","name":"Cham","type":"Landkreis"},"federalState":{"key":"09","name":"Bayern"}},{"name":"Am Weißgraben","postalCode":"93499","locality":"Zandt","municipality":{"key":"09372177","name":"Zandt","type":"Kreisangehörige_Gemeinde"},"district":{"key":"09372","name":"Cham","type":"Landkreis"},"federalState":{"key":"09","name":"Bayern"}},{"name":"Bäckerweg","postalCode":"93499","locality":"Zandt","municipality":{"key":"09372177","name":"Zandt","type":"Kreisangehörige_Gemeinde"},"district":{"key":"09372","name":"Cham","type":"Landkreis"},"federalState":{"key":"09","name":"Bayern"}},{"name":"Bergstr.","postalCode":"93499","locality":"Zandt","municipality":{"key":"09372177","name":"Zandt","type":"Kreisangehörige_Gemeinde"},"district":{"key":"09372","name":"Cham","type":"Landkreis"},"federalState":{"key":"09","name":"Bayern"}},{"name":"Birkenweg","postalCode":"93499","locality":"Zandt","municipality":{"key":"09372177","name":"Zandt","type":"Kreisangehörige_Gemeinde"},"district":{"key":"09372","name":"Cham","type":"Landkreis"},"federalState":{"key":"09","name":"Bayern"}},{"name":"Chamer Str.","postalCode":"93499","locality":"Zandt","municipality":{"key":"09372177","name":"Zandt","type":"Kreisangehörige_Gemeinde"},"district":{"key":"09372","name":"Cham","type":"Landkreis"},"federalState":{"key":"09","name":"Bayern"}},{"name":"Dirnitzweg","postalCode":"93499","locality":"Zandt","municipality":{"key":"09372177","name":"Zandt","type":"Kreisangehörige_Gemeinde"},"district":{"key":"09372","name":"Cham","type":"Landkreis"},"federalState":{"key":"09","name":"Bayern"}},{"name":"Dorfstr.","postalCode":"93499","locality":"Zandt","municipality":{"key":"09372177","name":"Zandt","type":"Kreisangehörige_Gemeinde"},"district":{"key":"09372","name":"Cham","type":"Landkreis"},"federalState":{"key":"09","name":"Bayern"}},{"name":"Ehrenhain","postalCode":"93413","locality":"Cham","municipality":{"key":"09372116","name":"Cham, St","type":"Stadt"},"district":{"key":"09372","name":"Cham","type":"Landkreis"},"federalState":{"key":"09","name":"Bayern"}},{"name":"Eichenstr.","postalCode":"93413","locality":"Cham","municipality":{"key":"09372116","name":"Cham, St","type":"Stadt"},"district":{"key":"09372","name":"Cham","type":"Landkreis"},"federalState":{"key":"09","name":"Bayern"}},{"name":"Elsa-Brandström-Str.","postalCode":"93413","locality":"Cham","municipality":{"key":"09372116","name":"Cham, St","type":"Stadt"},"district":{"key":"09372","name":"Cham","type":"Landkreis"},"federalState":{"key":"09","name":"Bayern"}},{"name":"Emanuelweg","postalCode":"93413","locality":"Cham","municipality":{"key":"09372116","name":"Cham, St","type":"Stadt"},"district":{"key":"09372","name":"Cham","type":"Landkreis"},"federalState":{"key":"09","name":"Bayern"}},{"name":"Erikaweg","postalCode":"93413","locality":"Cham","municipality":{"key":"09372116","name":"Cham, St","type":"Stadt"},"district":{"key":"09372","name":"Cham","type":"Landkreis"},"federalState":{"key":"09","name":"Bayern"}},{"name":"Erlenäckerweg","postalCode":"93413","locality":"Cham","municipality":{"key":"09372116","name":"Cham, St","type":"Stadt"},"district":{"key":"09372","name":"Cham","type":"Landkreis"},"federalState":{"key":"09","name":"Bayern"}},{"name":"Erlenstr.","postalCode":"93413","locality":"Cham","municipality":{"key":"09372116","name":"Cham, St","type":"Stadt"},"district":{"key":"09372","name":"Cham","type":"Landkreis"},"federalState":{"key":"09","name":"Bayern"}},{"name":"Erzdekanatstr.","postalCode":"93413","locality":"Cham","municipality":{"key":"09372116","name":"Cham, St","type":"Stadt"},"district":{"key":"09372","name":"Cham","type":"Landkreis"},"federalState":{"key":"09","name":"Bayern"}},{"name":"Eulenweg","postalCode":"93413","locality":"Cham","municipality":{"key":"09372116","name":"Cham, St","type":"Stadt"},"district":{"key":"09372","name":"Cham","type":"Landkreis"},"federalState":{"key":"09","name":"Bayern"}},{"name":"Fichtenweg","postalCode":"93499","locality":"Zandt","municipality":{"key":"09372177","name":"Zandt","type":"Kreisangehörige_Gemeinde"},"district":{"key":"09372","name":"Cham","type":"Landkreis"},"federalState":{"key":"09","name":"Bayern"}},{"name":"Finkenstr.","postalCode":"93499","locality":"Zandt","municipality":{"key":"09372177","name":"Zandt","type":"Kreisangehörige_Gemeinde"},"district":{"key":"09372","name":"Cham","type":"Landkreis"},"federalState":{"key":"09","name":"Bayern"}},{"name":"Flammrieder Str.","postalCode":"93499","locality":"Zandt","municipality":{"key":"09372177","name":"Zandt","type":"Kreisangehörige_Gemeinde"},"district":{"key":"09372","name":"Cham","type":"Landkreis"},"federalState":{"key":"09","name":"Bayern"}},{"name":"Gartenstr.","postalCode":"93499","locality":"Zandt","municipality":{"key":"09372177","name":"Zandt","type":"Kreisangehörige_Gemeinde"},"district":{"key":"09372","name":"Cham","type":"Landkreis"},"federalState":{"key":"09","name":"Bayern"}},{"name":"Hochweg","postalCode":"93499","locality":"Zandt","municipality":{"key":"09372177","name":"Zandt","type":"Kreisangehörige_Gemeinde"},"district":{"key":"09372","name":"Cham","type":"Landkreis"},"federalState":{"key":"09","name":"Bayern"}},{"name":"In der Au","postalCode":"93499","locality":"Zandt","municipality":{"key":"09372177","name":"Zandt","type":"Kreisangehörige_Gemeinde"},"district":{"key":"09372","name":"Cham","type":"Landkreis"},"federalState":{"key":"09","name":"Bayern"}},{"name":"Jägerweg","postalCode":"93413","locality":"Cham","municipality":{"key":"09372116","name":"Cham, St","type":"Stadt"},"district":{"key":"09372","name":"Cham","type":"Landkreis"},"federalState":{"key":"09","name":"Bayern"}},{"name":"Jahnetweg","postalCode":"93413","locality":"Cham","municipality":{"key":"09372116","name":"Cham, St","type":"Stadt"},"district":{"key":"09372","name":"Cham","type":"Landkreis"},"federalState":{"key":"09","name":"Bayern"}},{"name":"Jahnstr.","postalCode":"93413","locality":"Cham","municipality":{"key":"09372116","name":"Cham, St","type":"Stadt"},"district":{"key":"09372","name":"Cham","type":"Landkreis"},"federalState":{"key":"09","name":"Bayern"}},{"name":"Jakobstr.","postalCode":"93413","locality":"Cham","municipality":{"key":"09372116","name":"Cham, St","type":"Stadt"},"district":{"key":"09372","name":"Cham","type":"Landkreis"},"federalState":{"key":"09","name":"Bayern"}},{"name":"Janahof","postalCode":"93413","locality":"Cham","municipality":{"key":"09372116","name":"Cham, St","type":"Stadt"},"district":{"key":"09372","name":"Cham","type":"Landkreis"},"federalState":{"key":"09","name":"Bayern"}},{"name":"Janahofer Str.","postalCode":"93413","locality":"Cham","municipality":{"key":"09372116","name":"Cham, St","type":"Stadt"},"district":{"key":"09372","name":"Cham","type":"Landkreis"},"federalState":{"key":"09","name":"Bayern"}},{"name":"Johann-Brunner-Str.","postalCode":"93413","locality":"Cham","municipality":{"key":"09372116","name":"Cham, St","type":"Stadt"},"district":{"key":"09372","name":"Cham","type":"Landkreis"},"federalState":{"key":"09","name":"Bayern"}},{"name":"Josef-Heilingbrunner-Str.","postalCode":"93413","locality":"Cham","municipality":{"key":"09372116","name":"Cham, St","type":"Stadt"},"district":{"key":"09372","name":"Cham","type":"Landkreis"},"federalState":{"key":"09","name":"Bayern"}},{"name":"Josef-Schlicht Str.","postalCode":"93413","locality":"Cham","municipality":{"key":"09372116","name":"Cham, St","type":"Stadt"},"district":{"key":"09372","name":"Cham","type":"Landkreis"},"federalState":{"key":"09","name":"Bayern"}},{"name":"Judenstr.","postalCode":"93413","locality":"Cham","municipality":{"key":"09372116","name":"Cham, St","type":"Stadt"},"district":{"key":"09372","name":"Cham","type":"Landkreis"},"federalState":{"key":"09","name":"Bayern"}},{"name":"Kellerbergstr.","postalCode":"93499","locality":"Zandt","municipality":{"key":"09372177","name":"Zandt","type":"Kreisangehörige_Gemeinde"},"district":{"key":"09372","name":"Cham","type":"Landkreis"},"federalState":{"key":"09","name":"Bayern"}},{"name":"Kötztinger Str.","postalCode":"93499","locality":"Zandt","municipality":{"key":"09372177","name":"Zandt","type":"Kreisangehörige_Gemeinde"},"district":{"key":"09372","name":"Cham","type":"Landkreis"},"federalState":{"key":"09","name":"Bayern"}},{"name":"Lerchenweg","postalCode":"93499","locality":"Zandt","municipality":{"key":"09372177","name":"Zandt","type":"Kreisangehörige_Gemeinde"},"district":{"key":"09372","name":"Cham","type":"Landkreis"},"federalState":{"key":"09","name":"Bayern"}},{"name":"Lindenweg","postalCode":"93499","locality":"Zandt","municipality":{"key":"09372177","name":"Zandt","type":"Kreisangehörige_Gemeinde"},"district":{"key":"09372","name":"Cham","type":"Landkreis"},"federalState":{"key":"09","name":"Bayern"}},{"name":"Meierberg","postalCode":"93499","locality":"Zandt","municipality":{"key":"09372177","name":"Zandt","type":"Kreisangehörige_Gemeinde"},"district":{"key":"09372","name":"Cham","type":"Landkreis"},"federalState":{"key":"09","name":"Bayern"}},{"name":"Meisenstr.","postalCode":"93499","locality":"Zandt","municipality":{"key":"09372177","name":"Zandt","type":"Kreisangehörige_Gemeinde"},"district":{"key":"09372","name":"Cham","type":"Landkreis"},"federalState":{"key":"09","name":"Bayern"}},{"name":"Nistlbergweg","postalCode":"93499","locality":"Zandt","municipality":{"key":"09372177","name":"Zandt","type":"Kreisangehörige_Gemeinde"},"district":{"key":"09372","name":"Cham","type":"Landkreis"},"federalState":{"key":"09","name":"Bayern"}},{"name":"Obere Regenstr.","postalCode":"93413","locality":"Cham","municipality":{"key":"09372116","name":"Cham, St","type":"Stadt"},"district":{"key":"09372","name":"Cham","type":"Landkreis"},"federalState":{"key":"09","name":"Bayern"}},{"name":"Oberer Holderbühlweg","postalCode":"93413","locality":"Cham","municipality":{"key":"09372116","name":"Cham, St","type":"Stadt"},"district":{"key":"09372","name":"Cham","type":"Landkreis"},"federalState":{"key":"09","name":"Bayern"}},{"name":"Oberer Regenanger","postalCode":"93413","locality":"Cham","municipality":{"key":"09372116","name":"Cham, St","type":"Stadt"},"district":{"key":"09372","name":"Cham","type":"Landkreis"},"federalState":{"key":"09","name":"Bayern"}},{"name":"Obere Schulstr.","postalCode":"93413","locality":"Cham","municipality":{"key":"09372116","name":"Cham, St","type":"Stadt"},"district":{"key":"09372","name":"Cham","type":"Landkreis"},"federalState":{"key":"09","name":"Bayern"}},{"name":"Oberspergerstr.","postalCode":"93413","locality":"Cham","municipality":{"key":"09372116","name":"Cham, St","type":"Stadt"},"district":{"key":"09372","name":"Cham","type":"Landkreis"},"federalState":{"key":"09","name":"Bayern"}},{"name":"Obertraubenbacher Str.","postalCode":"93413","locality":"Cham","municipality":{"key":"09372116","name":"Cham, St","type":"Stadt"},"district":{"key":"09372","name":"Cham","type":"Landkreis"},"federalState":{"key":"09","name":"Bayern"}},{"name":"Odilostr.","postalCode":"93413","locality":"Cham","municipality":{"key":"09372116","name":"Cham, St","type":"Stadt"},"district":{"key":"09372","name":"Cham","type":"Landkreis"},"federalState":{"key":"09","name":"Bayern"}},{"name":"Osserstr.","postalCode":"93413","locality":"Cham","municipality":{"key":"09372116","name":"Cham, St","type":"Stadt"},"district":{"key":"09372","name":"Cham","type":"Landkreis"},"federalState":{"key":"09","name":"Bayern"}},{"name":"Ostmarkstr.","postalCode":"93466","locality":"Chamerau","municipality":{"key":"09372117","name":"Chamerau","type":"Kreisangehörige_Gemeinde"},"district":{"key":"09372","name":"Cham","type":"Landkreis"},"federalState":{"key":"09","name":"Bayern"}},{"name":"Otto-von-Puchberg-Str.","postalCode":"93413","locality":"Cham","municipality":{"key":"09372116","name":"Cham, St","type":"Stadt"},"district":{"key":"09372","name":"Cham","type":"Landkreis"},"federalState":{"key":"09","name":"Bayern"}},{"name":"Pfahlweg","postalCode":"93499","locality":"Zandt","municipality":{"key":"09372177","name":"Zandt","type":"Kreisangehörige_Gemeinde"},"district":{"key":"09372","name":"Cham","type":"Landkreis"},"federalState":{"key":"09","name":"Bayern"}},{"name":"Quadfeldmühle","postalCode":"93413","locality":"Cham","municipality":{"key":"09372116","name":"Cham, St","type":"Stadt"},"district":{"key":"09372","name":"Cham","type":"Landkreis"},"federalState":{"key":"09","name":"Bayern"}},{"name":"Riedhofstr.","postalCode":"93499","locality":"Zandt","municipality":{"key":"09372177","name":"Zandt","type":"Kreisangehörige_Gemeinde"},"district":{"key":"09372","name":"Cham","type":"Landkreis"},"federalState":{"key":"09","name":"Bayern"}},{"name":"Ringstr.","postalCode":"93499","locality":"Zandt","municipality":{"key":"09372177","name":"Zandt","type":"Kreisangehörige_Gemeinde"},"district":{"key":"09372","name":"Cham","type":"Landkreis"},"federalState":{"key":"09","name":"Bayern"}},{"name":"Schatzbergstr.","postalCode":"93499","locality":"Zandt","municipality":{"key":"09372177","name":"Zandt","type":"Kreisangehörige_Gemeinde"},"district":{"key":"09372","name":"Cham","type":"Landkreis"},"federalState":{"key":"09","name":"Bayern"}},{"name":"Schloßergasse","postalCode":"93499","locality":"Zandt","municipality":{"key":"09372177","name":"Zandt","type":"Kreisangehörige_Gemeinde"},"district":{"key":"09372","name":"Cham","type":"Landkreis"},"federalState":{"key":"09","name":"Bayern"}},{"name":"Schloßplatz","postalCode":"93499","locality":"Zandt","municipality":{"key":"09372177","name":"Zandt","type":"Kreisangehörige_Gemeinde"},"district":{"key":"09372","name":"Cham","type":"Landkreis"},"federalState":{"key":"09","name":"Bayern"}},{"name":"Schloßstr.","postalCode":"93499","locality":"Zandt","municipality":{"key":"09372177","name":"Zandt","type":"Kreisangehörige_Gemeinde"},"district":{"key":"09372","name":"Cham","type":"Landkreis"},"federalState":{"key":"09","name":"Bayern"}},{"name":"Schulstr.","postalCode":"93499","locality":"Zandt","municipality":{"key":"09372177","name":"Zandt","type":"Kreisangehörige_Gemeinde"},"district":{"key":"09372","name":"Cham","type":"Landkreis"},"federalState":{"key":"09","name":"Bayern"}},{"name":"Sportplatzstr.","postalCode":"93499","locality":"Zandt","municipality":{"key":"09372177","name":"Zandt","type":"Kreisangehörige_Gemeinde"},"district":{"key":"09372","name":"Cham","type":"Landkreis"},"federalState":{"key":"09","name":"Bayern"}},{"name":"Stegbachstr.","postalCode":"93499","locality":"Zandt","municipality":{"key":"09372177","name":"Zandt","type":"Kreisangehörige_Gemeinde"},"district":{"key":"09372","name":"Cham","type":"Landkreis"},"federalState":{"key":"09","name":"Bayern"}},{"name":"Tannenbergweg","postalCode":"93413","locality":"Cham","municipality":{"key":"09372116","name":"Cham, St","type":"Stadt"},"district":{"key":"09372","name":"Cham","type":"Landkreis"},"federalState":{"key":"09","name":"Bayern"}},{"name":"Tannenweg","postalCode":"93413","locality":"Cham","municipality":{"key":"09372116","name":"Cham, St","type":"Stadt"},"district":{"key":"09372","name":"Cham","type":"Landkreis"},"federalState":{"key":"09","name":"Bayern"}},{"name":"Taubenbühlstr.","postalCode":"93413","locality":"Cham","municipality":{"key":"09372116","name":"Cham, St","type":"Stadt"},"district":{"key":"09372","name":"Cham","type":"Landkreis"},"federalState":{"key":"09","name":"Bayern"}},{"name":"Tiegelgruben","postalCode":"93413","locality":"Cham","municipality":{"key":"09372116","name":"Cham, St","type":"Stadt"},"district":{"key":"09372","name":"Cham","type":"Landkreis"},"federalState":{"key":"09","name":"Bayern"}},{"name":"Tiergartenstr.","postalCode":"93413","locality":"Cham","municipality":{"key":"09372116","name":"Cham, St","type":"Stadt"},"district":{"key":"09372","name":"Cham","type":"Landkreis"},"federalState":{"key":"09","name":"Bayern"}},{"name":"Tilsiter Str.","postalCode":"93413","locality":"Cham","municipality":{"key":"09372116","name":"Cham, St","type":"Stadt"},"district":{"key":"09372","name":"Cham","type":"Landkreis"},"federalState":{"key":"09","name":"Bayern"}},{"name":"Tratweg","postalCode":"93413","locality":"Cham","municipality":{"key":"09372116","name":"Cham, St","type":"Stadt"},"district":{"key":"09372","name":"Cham","type":"Landkreis"},"federalState":{"key":"09","name":"Bayern"}},{"name":"Traubenbergweg","postalCode":"93413","locality":"Cham","municipality":{"key":"09372116","name":"Cham, St","type":"Stadt"},"district":{"key":"09372","name":"Cham","type":"Landkreis"},"federalState":{"key":"09","name":"Bayern"}},{"name":"Triftweg","postalCode":"93413","locality":"Cham","municipality":{"key":"09372116","name":"Cham, St","type":"Stadt"},"district":{"key":"09372","name":"Cham","type":"Landkreis"},"federalState":{"key":"09","name":"Bayern"}},{"name":"Urbühl","postalCode":"93499","locality":"Zandt","municipality":{"key":"09372177","name":"Zandt","type":"Kreisangehörige_Gemeinde"},"district":{"key":"09372","name":"Cham","type":"Landkreis"},"federalState":{"key":"09","name":"Bayern"}},{"name":"Vilzing","postalCode":"93413","locality":"Cham","municipality":{"key":"09372116","name":"Cham, St","type":"Stadt"},"district":{"key":"09372","name":"Cham","type":"Landkreis"},"federalState":{"key":"09","name":"Bayern"}},{"name":"Vilzinger Str.","postalCode":"93413","locality":"Cham","municipality":{"key":"09372116","name":"Cham, St","type":"Stadt"},"district":{"key":"09372","name":"Cham","type":"Landkreis"},"federalState":{"key":"09","name":"Bayern"}},{"name":"Von-Reinhardstöttner-Str.","postalCode":"93413","locality":"Cham","municipality":{"key":"09372116","name":"Cham, St","type":"Stadt"},"district":{"key":"09372","name":"Cham","type":"Landkreis"},"federalState":{"key":"09","name":"Bayern"}},{"name":"Wolfersdorfer Str.","postalCode":"93499","locality":"Zandt","municipality":{"key":"09372177","name":"Zandt","type":"Kreisangehörige_Gemeinde"},"district":{"key":"09372","name":"Cham","type":"Landkreis"},"federalState":{"key":"09","name":"Bayern"}},{"name":"Zandter Str.","postalCode":"93499","locality":"Zandt","municipality":{"key":"09372177","name":"Zandt","type":"Kreisangehörige_Gemeinde"},"district":{"key":"09372","name":"Cham","type":"Landkreis"},"federalState":{"key":"09","name":"Bayern"}},{"name":"Zapfenweg","postalCode":"93499","locality":"Zandt","municipality":{"key":"09372177","name":"Zandt","type":"Kreisangehörige_Gemeinde"},"district":{"key":"09372","name":"Cham","type":"Landkreis"},"federalState":{"key":"09","name":"Bayern"}},]