[{"name":"alte Hochstr.","postalCode":"91085","locality":"Weisendorf","municipality":{"key":"09572164","name":"Weisendorf, M","type":"Markt"},"district":{"key":"09572","name":"Erlangen-Höchstadt","type":"Landkreis"},"federalState":{"key":"09","name":"Bayern"}},{"name":"Am Alten Sportplatz","postalCode":"91085","locality":"Weisendorf","municipality":{"key":"09572164","name":"Weisendorf, M","type":"Markt"},"district":{"key":"09572","name":"Erlangen-Höchstadt","type":"Landkreis"},"federalState":{"key":"09","name":"Bayern"}},{"name":"Am Anger","postalCode":"91085","locality":"Weisendorf","municipality":{"key":"09572164","name":"Weisendorf, M","type":"Markt"},"district":{"key":"09572","name":"Erlangen-Höchstadt","type":"Landkreis"},"federalState":{"key":"09","name":"Bayern"}},{"name":"Am Brunnenhof","postalCode":"91085","locality":"Weisendorf","municipality":{"key":"09572164","name":"Weisendorf, M","type":"Markt"},"district":{"key":"09572","name":"Erlangen-Höchstadt","type":"Landkreis"},"federalState":{"key":"09","name":"Bayern"}},{"name":"Am Distelbock","postalCode":"91085","locality":"Weisendorf","municipality":{"key":"09572164","name":"Weisendorf, M","type":"Markt"},"district":{"key":"09572","name":"Erlangen-Höchstadt","type":"Landkreis"},"federalState":{"key":"09","name":"Bayern"}},{"name":"Am Eichholz","postalCode":"91085","locality":"Weisendorf","municipality":{"key":"09572164","name":"Weisendorf, M","type":"Markt"},"district":{"key":"09572","name":"Erlangen-Höchstadt","type":"Landkreis"},"federalState":{"key":"09","name":"Bayern"}},{"name":"Am Felsenkeller","postalCode":"91085","locality":"Weisendorf","municipality":{"key":"09572164","name":"Weisendorf, M","type":"Markt"},"district":{"key":"09572","name":"Erlangen-Höchstadt","type":"Landkreis"},"federalState":{"key":"09","name":"Bayern"}},{"name":"Am Gilgenberg","postalCode":"91085","locality":"Weisendorf","municipality":{"key":"09572164","name":"Weisendorf, M","type":"Markt"},"district":{"key":"09572","name":"Erlangen-Höchstadt","type":"Landkreis"},"federalState":{"key":"09","name":"Bayern"}},{"name":"Am Herrnweiher","postalCode":"91085","locality":"Weisendorf","municipality":{"key":"09572164","name":"Weisendorf, M","type":"Markt"},"district":{"key":"09572","name":"Erlangen-Höchstadt","type":"Landkreis"},"federalState":{"key":"09","name":"Bayern"}},{"name":"Am Hochstock","postalCode":"91085","locality":"Weisendorf","municipality":{"key":"09572164","name":"Weisendorf, M","type":"Markt"},"district":{"key":"09572","name":"Erlangen-Höchstadt","type":"Landkreis"},"federalState":{"key":"09","name":"Bayern"}},{"name":"Am Holzacker","postalCode":"91085","locality":"Weisendorf","municipality":{"key":"09572164","name":"Weisendorf, M","type":"Markt"},"district":{"key":"09572","name":"Erlangen-Höchstadt","type":"Landkreis"},"federalState":{"key":"09","name":"Bayern"}},{"name":"Am Kirchweiher","postalCode":"91085","locality":"Weisendorf","municipality":{"key":"09572164","name":"Weisendorf, M","type":"Markt"},"district":{"key":"09572","name":"Erlangen-Höchstadt","type":"Landkreis"},"federalState":{"key":"09","name":"Bayern"}},{"name":"Am Langen Weiher","postalCode":"91085","locality":"Weisendorf","municipality":{"key":"09572164","name":"Weisendorf, M","type":"Markt"},"district":{"key":"09572","name":"Erlangen-Höchstadt","type":"Landkreis"},"federalState":{"key":"09","name":"Bayern"}},{"name":"Am Lehmberg","postalCode":"91085","locality":"Weisendorf","municipality":{"key":"09572164","name":"Weisendorf, M","type":"Markt"},"district":{"key":"09572","name":"Erlangen-Höchstadt","type":"Landkreis"},"federalState":{"key":"09","name":"Bayern"}},{"name":"Am Mühlberg","postalCode":"91085","locality":"Weisendorf","municipality":{"key":"09572164","name":"Weisendorf, M","type":"Markt"},"district":{"key":"09572","name":"Erlangen-Höchstadt","type":"Landkreis"},"federalState":{"key":"09","name":"Bayern"}},{"name":"Am Mühlweiher","postalCode":"91085","locality":"Weisendorf","municipality":{"key":"09572164","name":"Weisendorf, M","type":"Markt"},"district":{"key":"09572","name":"Erlangen-Höchstadt","type":"Landkreis"},"federalState":{"key":"09","name":"Bayern"}},{"name":"Am Ochsenweiher","postalCode":"91085","locality":"Weisendorf","municipality":{"key":"09572164","name":"Weisendorf, M","type":"Markt"},"district":{"key":"09572","name":"Erlangen-Höchstadt","type":"Landkreis"},"federalState":{"key":"09","name":"Bayern"}},{"name":"Am Pointgraben","postalCode":"91085","locality":"Weisendorf","municipality":{"key":"09572164","name":"Weisendorf, M","type":"Markt"},"district":{"key":"09572","name":"Erlangen-Höchstadt","type":"Landkreis"},"federalState":{"key":"09","name":"Bayern"}},{"name":"Am Schloßweg","postalCode":"91085","locality":"Weisendorf","municipality":{"key":"09572164","name":"Weisendorf, M","type":"Markt"},"district":{"key":"09572","name":"Erlangen-Höchstadt","type":"Landkreis"},"federalState":{"key":"09","name":"Bayern"}},{"name":"Amselweg","postalCode":"91085","locality":"Weisendorf","municipality":{"key":"09572164","name":"Weisendorf, M","type":"Markt"},"district":{"key":"09572","name":"Erlangen-Höchstadt","type":"Landkreis"},"federalState":{"key":"09","name":"Bayern"}},{"name":"Am Teich","postalCode":"91085","locality":"Weisendorf","municipality":{"key":"09572164","name":"Weisendorf, M","type":"Markt"},"district":{"key":"09572","name":"Erlangen-Höchstadt","type":"Landkreis"},"federalState":{"key":"09","name":"Bayern"}},{"name":"Am Weißen Berg","postalCode":"91085","locality":"Weisendorf","municipality":{"key":"09572164","name":"Weisendorf, M","type":"Markt"},"district":{"key":"09572","name":"Erlangen-Höchstadt","type":"Landkreis"},"federalState":{"key":"09","name":"Bayern"}},{"name":"Am Windflügel","postalCode":"91085","locality":"Weisendorf","municipality":{"key":"09572164","name":"Weisendorf, M","type":"Markt"},"district":{"key":"09572","name":"Erlangen-Höchstadt","type":"Landkreis"},"federalState":{"key":"09","name":"Bayern"}},{"name":"Auracher Bergstr.","postalCode":"91085","locality":"Weisendorf","municipality":{"key":"09572164","name":"Weisendorf, M","type":"Markt"},"district":{"key":"09572","name":"Erlangen-Höchstadt","type":"Landkreis"},"federalState":{"key":"09","name":"Bayern"}},{"name":"Birkenhof","postalCode":"91085","locality":"Weisendorf","municipality":{"key":"09572164","name":"Weisendorf, M","type":"Markt"},"district":{"key":"09572","name":"Erlangen-Höchstadt","type":"Landkreis"},"federalState":{"key":"09","name":"Bayern"}},{"name":"Böhmerwaldstr.","postalCode":"91085","locality":"Weisendorf","municipality":{"key":"09572164","name":"Weisendorf, M","type":"Markt"},"district":{"key":"09572","name":"Erlangen-Höchstadt","type":"Landkreis"},"federalState":{"key":"09","name":"Bayern"}},{"name":"Boxbrunner Str.","postalCode":"91085","locality":"Weisendorf","municipality":{"key":"09572164","name":"Weisendorf, M","type":"Markt"},"district":{"key":"09572","name":"Erlangen-Höchstadt","type":"Landkreis"},"federalState":{"key":"09","name":"Bayern"}},{"name":"Bruckäcker","postalCode":"91085","locality":"Weisendorf","municipality":{"key":"09572164","name":"Weisendorf, M","type":"Markt"},"district":{"key":"09572","name":"Erlangen-Höchstadt","type":"Landkreis"},"federalState":{"key":"09","name":"Bayern"}},{"name":"Brunnenäckerweg","postalCode":"91085","locality":"Weisendorf","municipality":{"key":"09572164","name":"Weisendorf, M","type":"Markt"},"district":{"key":"09572","name":"Erlangen-Höchstadt","type":"Landkreis"},"federalState":{"key":"09","name":"Bayern"}},{"name":"Brunnleite","postalCode":"91085","locality":"Weisendorf","municipality":{"key":"09572164","name":"Weisendorf, M","type":"Markt"},"district":{"key":"09572","name":"Erlangen-Höchstadt","type":"Landkreis"},"federalState":{"key":"09","name":"Bayern"}},{"name":"Dannberger Weg","postalCode":"91085","locality":"Weisendorf","municipality":{"key":"09572164","name":"Weisendorf, M","type":"Markt"},"district":{"key":"09572","name":"Erlangen-Höchstadt","type":"Landkreis"},"federalState":{"key":"09","name":"Bayern"}},{"name":"Denglerweg","postalCode":"91085","locality":"Weisendorf","municipality":{"key":"09572164","name":"Weisendorf, M","type":"Markt"},"district":{"key":"09572","name":"Erlangen-Höchstadt","type":"Landkreis"},"federalState":{"key":"09","name":"Bayern"}},{"name":"Dorfstr.","postalCode":"91085","locality":"Weisendorf","municipality":{"key":"09572164","name":"Weisendorf, M","type":"Markt"},"district":{"key":"09572","name":"Erlangen-Höchstadt","type":"Landkreis"},"federalState":{"key":"09","name":"Bayern"}},{"name":"Dorngasse","postalCode":"91085","locality":"Weisendorf","municipality":{"key":"09572164","name":"Weisendorf, M","type":"Markt"},"district":{"key":"09572","name":"Erlangen-Höchstadt","type":"Landkreis"},"federalState":{"key":"09","name":"Bayern"}},{"name":"Drosselweg","postalCode":"91085","locality":"Weisendorf","municipality":{"key":"09572164","name":"Weisendorf, M","type":"Markt"},"district":{"key":"09572","name":"Erlangen-Höchstadt","type":"Landkreis"},"federalState":{"key":"09","name":"Bayern"}},{"name":"Egerlandstr.","postalCode":"91085","locality":"Weisendorf","municipality":{"key":"09572164","name":"Weisendorf, M","type":"Markt"},"district":{"key":"09572","name":"Erlangen-Höchstadt","type":"Landkreis"},"federalState":{"key":"09","name":"Bayern"}},{"name":"Eichlohäcker","postalCode":"91085","locality":"Weisendorf","municipality":{"key":"09572164","name":"Weisendorf, M","type":"Markt"},"district":{"key":"09572","name":"Erlangen-Höchstadt","type":"Landkreis"},"federalState":{"key":"09","name":"Bayern"}},{"name":"Erlanger Str.","postalCode":"91085","locality":"Weisendorf","municipality":{"key":"09572164","name":"Weisendorf, M","type":"Markt"},"district":{"key":"09572","name":"Erlangen-Höchstadt","type":"Landkreis"},"federalState":{"key":"09","name":"Bayern"}},{"name":"Feldäckerstr.","postalCode":"91085","locality":"Weisendorf","municipality":{"key":"09572164","name":"Weisendorf, M","type":"Markt"},"district":{"key":"09572","name":"Erlangen-Höchstadt","type":"Landkreis"},"federalState":{"key":"09","name":"Bayern"}},{"name":"Feldstr.","postalCode":"91085","locality":"Weisendorf","municipality":{"key":"09572164","name":"Weisendorf, M","type":"Markt"},"district":{"key":"09572","name":"Erlangen-Höchstadt","type":"Landkreis"},"federalState":{"key":"09","name":"Bayern"}},{"name":"Feldweiher","postalCode":"91085","locality":"Weisendorf","municipality":{"key":"09572164","name":"Weisendorf, M","type":"Markt"},"district":{"key":"09572","name":"Erlangen-Höchstadt","type":"Landkreis"},"federalState":{"key":"09","name":"Bayern"}},{"name":"Finkenweg","postalCode":"91085","locality":"Weisendorf","municipality":{"key":"09572164","name":"Weisendorf, M","type":"Markt"},"district":{"key":"09572","name":"Erlangen-Höchstadt","type":"Landkreis"},"federalState":{"key":"09","name":"Bayern"}},{"name":"Flurstr.","postalCode":"91085","locality":"Weisendorf","municipality":{"key":"09572164","name":"Weisendorf, M","type":"Markt"},"district":{"key":"09572","name":"Erlangen-Höchstadt","type":"Landkreis"},"federalState":{"key":"09","name":"Bayern"}},{"name":"Friedhofgasse","postalCode":"91085","locality":"Weisendorf","municipality":{"key":"09572164","name":"Weisendorf, M","type":"Markt"},"district":{"key":"09572","name":"Erlangen-Höchstadt","type":"Landkreis"},"federalState":{"key":"09","name":"Bayern"}},{"name":"Gartenstr.","postalCode":"91085","locality":"Weisendorf","municipality":{"key":"09572164","name":"Weisendorf, M","type":"Markt"},"district":{"key":"09572","name":"Erlangen-Höchstadt","type":"Landkreis"},"federalState":{"key":"09","name":"Bayern"}},{"name":"Geisgrün","postalCode":"91085","locality":"Weisendorf","municipality":{"key":"09572164","name":"Weisendorf, M","type":"Markt"},"district":{"key":"09572","name":"Erlangen-Höchstadt","type":"Landkreis"},"federalState":{"key":"09","name":"Bayern"}},{"name":"Geiwitzenweg","postalCode":"91085","locality":"Weisendorf","municipality":{"key":"09572164","name":"Weisendorf, M","type":"Markt"},"district":{"key":"09572","name":"Erlangen-Höchstadt","type":"Landkreis"},"federalState":{"key":"09","name":"Bayern"}},{"name":"Gerbersknock","postalCode":"91085","locality":"Weisendorf","municipality":{"key":"09572164","name":"Weisendorf, M","type":"Markt"},"district":{"key":"09572","name":"Erlangen-Höchstadt","type":"Landkreis"},"federalState":{"key":"09","name":"Bayern"}},{"name":"Gerbersleite","postalCode":"91085","locality":"Weisendorf","municipality":{"key":"09572164","name":"Weisendorf, M","type":"Markt"},"district":{"key":"09572","name":"Erlangen-Höchstadt","type":"Landkreis"},"federalState":{"key":"09","name":"Bayern"}},{"name":"Goethestr.","postalCode":"91085","locality":"Weisendorf","municipality":{"key":"09572164","name":"Weisendorf, M","type":"Markt"},"district":{"key":"09572","name":"Erlangen-Höchstadt","type":"Landkreis"},"federalState":{"key":"09","name":"Bayern"}},{"name":"Hauptstr.","postalCode":"91085","locality":"Weisendorf","municipality":{"key":"09572164","name":"Weisendorf, M","type":"Markt"},"district":{"key":"09572","name":"Erlangen-Höchstadt","type":"Landkreis"},"federalState":{"key":"09","name":"Bayern"}},{"name":"Heidweihergraben","postalCode":"91085","locality":"Weisendorf","municipality":{"key":"09572164","name":"Weisendorf, M","type":"Markt"},"district":{"key":"09572","name":"Erlangen-Höchstadt","type":"Landkreis"},"federalState":{"key":"09","name":"Bayern"}},{"name":"Hirschleite","postalCode":"91085","locality":"Weisendorf","municipality":{"key":"09572164","name":"Weisendorf, M","type":"Markt"},"district":{"key":"09572","name":"Erlangen-Höchstadt","type":"Landkreis"},"federalState":{"key":"09","name":"Bayern"}},{"name":"Höchstadter Str.","postalCode":"91085","locality":"Weisendorf","municipality":{"key":"09572164","name":"Weisendorf, M","type":"Markt"},"district":{"key":"09572","name":"Erlangen-Höchstadt","type":"Landkreis"},"federalState":{"key":"09","name":"Bayern"}},{"name":"Hochstr.","postalCode":"91085","locality":"Weisendorf","municipality":{"key":"09572164","name":"Weisendorf, M","type":"Markt"},"district":{"key":"09572","name":"Erlangen-Höchstadt","type":"Landkreis"},"federalState":{"key":"09","name":"Bayern"}},{"name":"Hoderweg","postalCode":"91085","locality":"Weisendorf","municipality":{"key":"09572164","name":"Weisendorf, M","type":"Markt"},"district":{"key":"09572","name":"Erlangen-Höchstadt","type":"Landkreis"},"federalState":{"key":"09","name":"Bayern"}},{"name":"Hopfenleithe","postalCode":"91085","locality":"Weisendorf","municipality":{"key":"09572164","name":"Weisendorf, M","type":"Markt"},"district":{"key":"09572","name":"Erlangen-Höchstadt","type":"Landkreis"},"federalState":{"key":"09","name":"Bayern"}},{"name":"Im Gäßla","postalCode":"91085","locality":"Weisendorf","municipality":{"key":"09572164","name":"Weisendorf, M","type":"Markt"},"district":{"key":"09572","name":"Erlangen-Höchstadt","type":"Landkreis"},"federalState":{"key":"09","name":"Bayern"}},{"name":"Im Obstgarten","postalCode":"91085","locality":"Weisendorf","municipality":{"key":"09572164","name":"Weisendorf, M","type":"Markt"},"district":{"key":"09572","name":"Erlangen-Höchstadt","type":"Landkreis"},"federalState":{"key":"09","name":"Bayern"}},{"name":"Im Schafhof","postalCode":"91085","locality":"Weisendorf","municipality":{"key":"09572164","name":"Weisendorf, M","type":"Markt"},"district":{"key":"09572","name":"Erlangen-Höchstadt","type":"Landkreis"},"federalState":{"key":"09","name":"Bayern"}},{"name":"Industriestr.","postalCode":"91085","locality":"Weisendorf","municipality":{"key":"09572164","name":"Weisendorf, M","type":"Markt"},"district":{"key":"09572","name":"Erlangen-Höchstadt","type":"Landkreis"},"federalState":{"key":"09","name":"Bayern"}},{"name":"Kairlindacher Str.","postalCode":"91085","locality":"Weisendorf","municipality":{"key":"09572164","name":"Weisendorf, M","type":"Markt"},"district":{"key":"09572","name":"Erlangen-Höchstadt","type":"Landkreis"},"federalState":{"key":"09","name":"Bayern"}},{"name":"Karlsbader Str.","postalCode":"91085","locality":"Weisendorf","municipality":{"key":"09572164","name":"Weisendorf, M","type":"Markt"},"district":{"key":"09572","name":"Erlangen-Höchstadt","type":"Landkreis"},"federalState":{"key":"09","name":"Bayern"}},{"name":"Karlsweg","postalCode":"91085","locality":"Weisendorf","municipality":{"key":"09572164","name":"Weisendorf, M","type":"Markt"},"district":{"key":"09572","name":"Erlangen-Höchstadt","type":"Landkreis"},"federalState":{"key":"09","name":"Bayern"}},{"name":"Karl-Theodor-von-Guttenberg-Str.","postalCode":"91085","locality":"Weisendorf","municipality":{"key":"09572164","name":"Weisendorf, M","type":"Markt"},"district":{"key":"09572","name":"Erlangen-Höchstadt","type":"Landkreis"},"federalState":{"key":"09","name":"Bayern"}},{"name":"Kellerstr.","postalCode":"91085","locality":"Weisendorf","municipality":{"key":"09572164","name":"Weisendorf, M","type":"Markt"},"district":{"key":"09572","name":"Erlangen-Höchstadt","type":"Landkreis"},"federalState":{"key":"09","name":"Bayern"}},{"name":"Kirchenstr.","postalCode":"91085","locality":"Weisendorf","municipality":{"key":"09572164","name":"Weisendorf, M","type":"Markt"},"district":{"key":"09572","name":"Erlangen-Höchstadt","type":"Landkreis"},"federalState":{"key":"09","name":"Bayern"}},{"name":"Lindenstr.","postalCode":"91085","locality":"Weisendorf","municipality":{"key":"09572164","name":"Weisendorf, M","type":"Markt"},"district":{"key":"09572","name":"Erlangen-Höchstadt","type":"Landkreis"},"federalState":{"key":"09","name":"Bayern"}},{"name":"Marienbader Str.","postalCode":"91085","locality":"Weisendorf","municipality":{"key":"09572164","name":"Weisendorf, M","type":"Markt"},"district":{"key":"09572","name":"Erlangen-Höchstadt","type":"Landkreis"},"federalState":{"key":"09","name":"Bayern"}},{"name":"Mechelwinder Weg","postalCode":"91085","locality":"Weisendorf","municipality":{"key":"09572164","name":"Weisendorf, M","type":"Markt"},"district":{"key":"09572","name":"Erlangen-Höchstadt","type":"Landkreis"},"federalState":{"key":"09","name":"Bayern"}},{"name":"Meisenweg","postalCode":"91085","locality":"Weisendorf","municipality":{"key":"09572164","name":"Weisendorf, M","type":"Markt"},"district":{"key":"09572","name":"Erlangen-Höchstadt","type":"Landkreis"},"federalState":{"key":"09","name":"Bayern"}},{"name":"Meisterweg","postalCode":"91085","locality":"Weisendorf","municipality":{"key":"09572164","name":"Weisendorf, M","type":"Markt"},"district":{"key":"09572","name":"Erlangen-Höchstadt","type":"Landkreis"},"federalState":{"key":"09","name":"Bayern"}},{"name":"Mitteldorfer Weg","postalCode":"91085","locality":"Weisendorf","municipality":{"key":"09572164","name":"Weisendorf, M","type":"Markt"},"district":{"key":"09572","name":"Erlangen-Höchstadt","type":"Landkreis"},"federalState":{"key":"09","name":"Bayern"}},{"name":"Mönchweg","postalCode":"91085","locality":"Weisendorf","municipality":{"key":"09572164","name":"Weisendorf, M","type":"Markt"},"district":{"key":"09572","name":"Erlangen-Höchstadt","type":"Landkreis"},"federalState":{"key":"09","name":"Bayern"}},{"name":"Mühlenweg","postalCode":"91085","locality":"Weisendorf","municipality":{"key":"09572164","name":"Weisendorf, M","type":"Markt"},"district":{"key":"09572","name":"Erlangen-Höchstadt","type":"Landkreis"},"federalState":{"key":"09","name":"Bayern"}},{"name":"Nankendorfer Str.","postalCode":"91085","locality":"Weisendorf","municipality":{"key":"09572164","name":"Weisendorf, M","type":"Markt"},"district":{"key":"09572","name":"Erlangen-Höchstadt","type":"Landkreis"},"federalState":{"key":"09","name":"Bayern"}},{"name":"Neue Bergstr.","postalCode":"91085","locality":"Weisendorf","municipality":{"key":"09572164","name":"Weisendorf, M","type":"Markt"},"district":{"key":"09572","name":"Erlangen-Höchstadt","type":"Landkreis"},"federalState":{"key":"09","name":"Bayern"}},{"name":"Neuenbürger Str.","postalCode":"91085","locality":"Weisendorf","municipality":{"key":"09572164","name":"Weisendorf, M","type":"Markt"},"district":{"key":"09572","name":"Erlangen-Höchstadt","type":"Landkreis"},"federalState":{"key":"09","name":"Bayern"}},{"name":"Neustadter Str.","postalCode":"91085","locality":"Weisendorf","municipality":{"key":"09572164","name":"Weisendorf, M","type":"Markt"},"district":{"key":"09572","name":"Erlangen-Höchstadt","type":"Landkreis"},"federalState":{"key":"09","name":"Bayern"}},{"name":"Obere Gasse","postalCode":"91085","locality":"Weisendorf","municipality":{"key":"09572164","name":"Weisendorf, M","type":"Markt"},"district":{"key":"09572","name":"Erlangen-Höchstadt","type":"Landkreis"},"federalState":{"key":"09","name":"Bayern"}},{"name":"Oberlindacher Str.","postalCode":"91085","locality":"Weisendorf","municipality":{"key":"09572164","name":"Weisendorf, M","type":"Markt"},"district":{"key":"09572","name":"Erlangen-Höchstadt","type":"Landkreis"},"federalState":{"key":"09","name":"Bayern"}},{"name":"Poststr.","postalCode":"91085","locality":"Weisendorf","municipality":{"key":"09572164","name":"Weisendorf, M","type":"Markt"},"district":{"key":"09572","name":"Erlangen-Höchstadt","type":"Landkreis"},"federalState":{"key":"09","name":"Bayern"}},{"name":"Reichenbacher Str.","postalCode":"91085","locality":"Weisendorf","municipality":{"key":"09572164","name":"Weisendorf, M","type":"Markt"},"district":{"key":"09572","name":"Erlangen-Höchstadt","type":"Landkreis"},"federalState":{"key":"09","name":"Bayern"}},{"name":"Reinersdorfer Str.","postalCode":"91085","locality":"Weisendorf","municipality":{"key":"09572164","name":"Weisendorf, M","type":"Markt"},"district":{"key":"09572","name":"Erlangen-Höchstadt","type":"Landkreis"},"federalState":{"key":"09","name":"Bayern"}},{"name":"Reuther Waldstr.","postalCode":"91085","locality":"Weisendorf","municipality":{"key":"09572164","name":"Weisendorf, M","type":"Markt"},"district":{"key":"09572","name":"Erlangen-Höchstadt","type":"Landkreis"},"federalState":{"key":"09","name":"Bayern"}},{"name":"Reuther Weg","postalCode":"91085","locality":"Weisendorf","municipality":{"key":"09572164","name":"Weisendorf, M","type":"Markt"},"district":{"key":"09572","name":"Erlangen-Höchstadt","type":"Landkreis"},"federalState":{"key":"09","name":"Bayern"}},{"name":"Rezelsdorfer Str.","postalCode":"91085","locality":"Weisendorf","municipality":{"key":"09572164","name":"Weisendorf, M","type":"Markt"},"district":{"key":"09572","name":"Erlangen-Höchstadt","type":"Landkreis"},"federalState":{"key":"09","name":"Bayern"}},{"name":"Ringstr.","postalCode":"91085","locality":"Weisendorf","municipality":{"key":"09572164","name":"Weisendorf, M","type":"Markt"},"district":{"key":"09572","name":"Erlangen-Höchstadt","type":"Landkreis"},"federalState":{"key":"09","name":"Bayern"}},{"name":"Rohrwiesenweg","postalCode":"91085","locality":"Weisendorf","municipality":{"key":"09572164","name":"Weisendorf, M","type":"Markt"},"district":{"key":"09572","name":"Erlangen-Höchstadt","type":"Landkreis"},"federalState":{"key":"09","name":"Bayern"}},{"name":"Sandstr.","postalCode":"91085","locality":"Weisendorf","municipality":{"key":"09572164","name":"Weisendorf, M","type":"Markt"},"district":{"key":"09572","name":"Erlangen-Höchstadt","type":"Landkreis"},"federalState":{"key":"09","name":"Bayern"}},{"name":"Sauerheimer Weg","postalCode":"91085","locality":"Weisendorf","municipality":{"key":"09572164","name":"Weisendorf, M","type":"Markt"},"district":{"key":"09572","name":"Erlangen-Höchstadt","type":"Landkreis"},"federalState":{"key":"09","name":"Bayern"}},{"name":"Schillerstr.","postalCode":"91085","locality":"Weisendorf","municipality":{"key":"09572164","name":"Weisendorf, M","type":"Markt"},"district":{"key":"09572","name":"Erlangen-Höchstadt","type":"Landkreis"},"federalState":{"key":"09","name":"Bayern"}},{"name":"Schlegelsbergstr.","postalCode":"91085","locality":"Weisendorf","municipality":{"key":"09572164","name":"Weisendorf, M","type":"Markt"},"district":{"key":"09572","name":"Erlangen-Höchstadt","type":"Landkreis"},"federalState":{"key":"09","name":"Bayern"}},{"name":"Schlehenweg","postalCode":"91085","locality":"Weisendorf","municipality":{"key":"09572164","name":"Weisendorf, M","type":"Markt"},"district":{"key":"09572","name":"Erlangen-Höchstadt","type":"Landkreis"},"federalState":{"key":"09","name":"Bayern"}},{"name":"Schleifweg","postalCode":"91085","locality":"Weisendorf","municipality":{"key":"09572164","name":"Weisendorf, M","type":"Markt"},"district":{"key":"09572","name":"Erlangen-Höchstadt","type":"Landkreis"},"federalState":{"key":"09","name":"Bayern"}},{"name":"Schlesierstr.","postalCode":"91085","locality":"Weisendorf","municipality":{"key":"09572164","name":"Weisendorf, M","type":"Markt"},"district":{"key":"09572","name":"Erlangen-Höchstadt","type":"Landkreis"},"federalState":{"key":"09","name":"Bayern"}},{"name":"Schloßgartenstr.","postalCode":"91085","locality":"Weisendorf","municipality":{"key":"09572164","name":"Weisendorf, M","type":"Markt"},"district":{"key":"09572","name":"Erlangen-Höchstadt","type":"Landkreis"},"federalState":{"key":"09","name":"Bayern"}},{"name":"Schmiedelberger Str.","postalCode":"91085","locality":"Weisendorf","municipality":{"key":"09572164","name":"Weisendorf, M","type":"Markt"},"district":{"key":"09572","name":"Erlangen-Höchstadt","type":"Landkreis"},"federalState":{"key":"09","name":"Bayern"}},{"name":"Schulgasse","postalCode":"91085","locality":"Weisendorf","municipality":{"key":"09572164","name":"Weisendorf, M","type":"Markt"},"district":{"key":"09572","name":"Erlangen-Höchstadt","type":"Landkreis"},"federalState":{"key":"09","name":"Bayern"}},{"name":"Sebald-Rieter-Weg","postalCode":"91085","locality":"Weisendorf","municipality":{"key":"09572164","name":"Weisendorf, M","type":"Markt"},"district":{"key":"09572","name":"Erlangen-Höchstadt","type":"Landkreis"},"federalState":{"key":"09","name":"Bayern"}},{"name":"Sechs-Morgen-Str.","postalCode":"91085","locality":"Weisendorf","municipality":{"key":"09572164","name":"Weisendorf, M","type":"Markt"},"district":{"key":"09572","name":"Erlangen-Höchstadt","type":"Landkreis"},"federalState":{"key":"09","name":"Bayern"}},{"name":"Siedlerstr.","postalCode":"91085","locality":"Weisendorf","municipality":{"key":"09572164","name":"Weisendorf, M","type":"Markt"},"district":{"key":"09572","name":"Erlangen-Höchstadt","type":"Landkreis"},"federalState":{"key":"09","name":"Bayern"}},{"name":"Sintmanner Str.","postalCode":"91085","locality":"Weisendorf","municipality":{"key":"09572164","name":"Weisendorf, M","type":"Markt"},"district":{"key":"09572","name":"Erlangen-Höchstadt","type":"Landkreis"},"federalState":{"key":"09","name":"Bayern"}},{"name":"Streitäckerweg","postalCode":"91085","locality":"Weisendorf","municipality":{"key":"09572164","name":"Weisendorf, M","type":"Markt"},"district":{"key":"09572","name":"Erlangen-Höchstadt","type":"Landkreis"},"federalState":{"key":"09","name":"Bayern"}},{"name":"Sudetenstr.","postalCode":"91085","locality":"Weisendorf","municipality":{"key":"09572164","name":"Weisendorf, M","type":"Markt"},"district":{"key":"09572","name":"Erlangen-Höchstadt","type":"Landkreis"},"federalState":{"key":"09","name":"Bayern"}},{"name":"Uehlfelder Weg","postalCode":"91085","locality":"Weisendorf","municipality":{"key":"09572164","name":"Weisendorf, M","type":"Markt"},"district":{"key":"09572","name":"Erlangen-Höchstadt","type":"Landkreis"},"federalState":{"key":"09","name":"Bayern"}},{"name":"Vorstadtstr.","postalCode":"91085","locality":"Weisendorf","municipality":{"key":"09572164","name":"Weisendorf, M","type":"Markt"},"district":{"key":"09572","name":"Erlangen-Höchstadt","type":"Landkreis"},"federalState":{"key":"09","name":"Bayern"}},{"name":"Weinleite","postalCode":"91085","locality":"Weisendorf","municipality":{"key":"09572164","name":"Weisendorf, M","type":"Markt"},"district":{"key":"09572","name":"Erlangen-Höchstadt","type":"Landkreis"},"federalState":{"key":"09","name":"Bayern"}},{"name":"Wiesenweg","postalCode":"91085","locality":"Weisendorf","municipality":{"key":"09572164","name":"Weisendorf, M","type":"Markt"},"district":{"key":"09572","name":"Erlangen-Höchstadt","type":"Landkreis"},"federalState":{"key":"09","name":"Bayern"}},{"name":"Ziegelhüttenweg","postalCode":"91085","locality":"Weisendorf","municipality":{"key":"09572164","name":"Weisendorf, M","type":"Markt"},"district":{"key":"09572","name":"Erlangen-Höchstadt","type":"Landkreis"},"federalState":{"key":"09","name":"Bayern"}},{"name":"Zirkelwiesenweg","postalCode":"91085","locality":"Weisendorf","municipality":{"key":"09572164","name":"Weisendorf, M","type":"Markt"},"district":{"key":"09572","name":"Erlangen-Höchstadt","type":"Landkreis"},"federalState":{"key":"09","name":"Bayern"}},{"name":"Zum Brandwald","postalCode":"91085","locality":"Weisendorf","municipality":{"key":"09572164","name":"Weisendorf, M","type":"Markt"},"district":{"key":"09572","name":"Erlangen-Höchstadt","type":"Landkreis"},"federalState":{"key":"09","name":"Bayern"}},{"name":"Zum Dachsknock","postalCode":"91085","locality":"Weisendorf","municipality":{"key":"09572164","name":"Weisendorf, M","type":"Markt"},"district":{"key":"09572","name":"Erlangen-Höchstadt","type":"Landkreis"},"federalState":{"key":"09","name":"Bayern"}},{"name":"Zum Lerchenhügel","postalCode":"91085","locality":"Weisendorf","municipality":{"key":"09572164","name":"Weisendorf, M","type":"Markt"},"district":{"key":"09572","name":"Erlangen-Höchstadt","type":"Landkreis"},"federalState":{"key":"09","name":"Bayern"}},{"name":"Zum Lindenholz","postalCode":"91085","locality":"Weisendorf","municipality":{"key":"09572164","name":"Weisendorf, M","type":"Markt"},"district":{"key":"09572","name":"Erlangen-Höchstadt","type":"Landkreis"},"federalState":{"key":"09","name":"Bayern"}},{"name":"Zur Alten Burg","postalCode":"91085","locality":"Weisendorf","municipality":{"key":"09572164","name":"Weisendorf, M","type":"Markt"},"district":{"key":"09572","name":"Erlangen-Höchstadt","type":"Landkreis"},"federalState":{"key":"09","name":"Bayern"}},{"name":"Zur Hohen Wart","postalCode":"91085","locality":"Weisendorf","municipality":{"key":"09572164","name":"Weisendorf, M","type":"Markt"},"district":{"key":"09572","name":"Erlangen-Höchstadt","type":"Landkreis"},"federalState":{"key":"09","name":"Bayern"}},]