[{"name":"Alter Friedhof","postalCode":"36217","locality":"Ronshausen","municipality":{"key":"06632017","name":"Ronshausen","type":"Kreisangehörige_Gemeinde"},"district":{"key":"06632","name":"Hersfeld-Rotenburg","type":"Landkreis"},"federalState":{"key":"06","name":"Hessen"}},{"name":"Am Ahnenberg","postalCode":"36217","locality":"Ronshausen","municipality":{"key":"06632017","name":"Ronshausen","type":"Kreisangehörige_Gemeinde"},"district":{"key":"06632","name":"Hersfeld-Rotenburg","type":"Landkreis"},"federalState":{"key":"06","name":"Hessen"}},{"name":"Am Geldacker","postalCode":"36217","locality":"Ronshausen","municipality":{"key":"06632017","name":"Ronshausen","type":"Kreisangehörige_Gemeinde"},"district":{"key":"06632","name":"Hersfeld-Rotenburg","type":"Landkreis"},"federalState":{"key":"06","name":"Hessen"}},{"name":"Am Heiligen","postalCode":"36217","locality":"Ronshausen","municipality":{"key":"06632017","name":"Ronshausen","type":"Kreisangehörige_Gemeinde"},"district":{"key":"06632","name":"Hersfeld-Rotenburg","type":"Landkreis"},"federalState":{"key":"06","name":"Hessen"}},{"name":"Am Hopfengarten","postalCode":"36217","locality":"Ronshausen","municipality":{"key":"06632017","name":"Ronshausen","type":"Kreisangehörige_Gemeinde"},"district":{"key":"06632","name":"Hersfeld-Rotenburg","type":"Landkreis"},"federalState":{"key":"06","name":"Hessen"}},{"name":"Am Mühlgraben","postalCode":"36217","locality":"Ronshausen","municipality":{"key":"06632017","name":"Ronshausen","type":"Kreisangehörige_Gemeinde"},"district":{"key":"06632","name":"Hersfeld-Rotenburg","type":"Landkreis"},"federalState":{"key":"06","name":"Hessen"}},{"name":"Am Nausisberg","postalCode":"36217","locality":"Ronshausen","municipality":{"key":"06632017","name":"Ronshausen","type":"Kreisangehörige_Gemeinde"},"district":{"key":"06632","name":"Hersfeld-Rotenburg","type":"Landkreis"},"federalState":{"key":"06","name":"Hessen"}},{"name":"Am Nöstenbach","postalCode":"36217","locality":"Ronshausen","municipality":{"key":"06632017","name":"Ronshausen","type":"Kreisangehörige_Gemeinde"},"district":{"key":"06632","name":"Hersfeld-Rotenburg","type":"Landkreis"},"federalState":{"key":"06","name":"Hessen"}},{"name":"Am Rain","postalCode":"36217","locality":"Ronshausen","municipality":{"key":"06632017","name":"Ronshausen","type":"Kreisangehörige_Gemeinde"},"district":{"key":"06632","name":"Hersfeld-Rotenburg","type":"Landkreis"},"federalState":{"key":"06","name":"Hessen"}},{"name":"Am Schüßler","postalCode":"36217","locality":"Ronshausen","municipality":{"key":"06632017","name":"Ronshausen","type":"Kreisangehörige_Gemeinde"},"district":{"key":"06632","name":"Hersfeld-Rotenburg","type":"Landkreis"},"federalState":{"key":"06","name":"Hessen"}},{"name":"Amselstr.","postalCode":"36217","locality":"Ronshausen","municipality":{"key":"06632017","name":"Ronshausen","type":"Kreisangehörige_Gemeinde"},"district":{"key":"06632","name":"Hersfeld-Rotenburg","type":"Landkreis"},"federalState":{"key":"06","name":"Hessen"}},{"name":"Am Sportplatz","postalCode":"36217","locality":"Ronshausen","municipality":{"key":"06632017","name":"Ronshausen","type":"Kreisangehörige_Gemeinde"},"district":{"key":"06632","name":"Hersfeld-Rotenburg","type":"Landkreis"},"federalState":{"key":"06","name":"Hessen"}},{"name":"Am Steinkopf","postalCode":"36217","locality":"Ronshausen","municipality":{"key":"06632017","name":"Ronshausen","type":"Kreisangehörige_Gemeinde"},"district":{"key":"06632","name":"Hersfeld-Rotenburg","type":"Landkreis"},"federalState":{"key":"06","name":"Hessen"}},{"name":"Am Trottenwald","postalCode":"36217","locality":"Ronshausen","municipality":{"key":"06632017","name":"Ronshausen","type":"Kreisangehörige_Gemeinde"},"district":{"key":"06632","name":"Hersfeld-Rotenburg","type":"Landkreis"},"federalState":{"key":"06","name":"Hessen"}},{"name":"Am Waldesrand","postalCode":"36217","locality":"Ronshausen","municipality":{"key":"06632017","name":"Ronshausen","type":"Kreisangehörige_Gemeinde"},"district":{"key":"06632","name":"Hersfeld-Rotenburg","type":"Landkreis"},"federalState":{"key":"06","name":"Hessen"}},{"name":"Am Wässerchen","postalCode":"36217","locality":"Ronshausen","municipality":{"key":"06632017","name":"Ronshausen","type":"Kreisangehörige_Gemeinde"},"district":{"key":"06632","name":"Hersfeld-Rotenburg","type":"Landkreis"},"federalState":{"key":"06","name":"Hessen"}},{"name":"An der Sommerwand","postalCode":"36217","locality":"Ronshausen","municipality":{"key":"06632017","name":"Ronshausen","type":"Kreisangehörige_Gemeinde"},"district":{"key":"06632","name":"Hersfeld-Rotenburg","type":"Landkreis"},"federalState":{"key":"06","name":"Hessen"}},{"name":"An der Spielwiese","postalCode":"36217","locality":"Ronshausen","municipality":{"key":"06632017","name":"Ronshausen","type":"Kreisangehörige_Gemeinde"},"district":{"key":"06632","name":"Hersfeld-Rotenburg","type":"Landkreis"},"federalState":{"key":"06","name":"Hessen"}},{"name":"An der Ulfe","postalCode":"36217","locality":"Ronshausen","municipality":{"key":"06632017","name":"Ronshausen","type":"Kreisangehörige_Gemeinde"},"district":{"key":"06632","name":"Hersfeld-Rotenburg","type":"Landkreis"},"federalState":{"key":"06","name":"Hessen"}},{"name":"Auerhahnring","postalCode":"36217","locality":"Ronshausen","municipality":{"key":"06632017","name":"Ronshausen","type":"Kreisangehörige_Gemeinde"},"district":{"key":"06632","name":"Hersfeld-Rotenburg","type":"Landkreis"},"federalState":{"key":"06","name":"Hessen"}},{"name":"Aueweg","postalCode":"36217","locality":"Ronshausen","municipality":{"key":"06632017","name":"Ronshausen","type":"Kreisangehörige_Gemeinde"},"district":{"key":"06632","name":"Hersfeld-Rotenburg","type":"Landkreis"},"federalState":{"key":"06","name":"Hessen"}},{"name":"Auf der Herbsthöhe","postalCode":"36217","locality":"Ronshausen","municipality":{"key":"06632017","name":"Ronshausen","type":"Kreisangehörige_Gemeinde"},"district":{"key":"06632","name":"Hersfeld-Rotenburg","type":"Landkreis"},"federalState":{"key":"06","name":"Hessen"}},{"name":"Bahnhofstr.","postalCode":"36217","locality":"Ronshausen","municipality":{"key":"06632017","name":"Ronshausen","type":"Kreisangehörige_Gemeinde"},"district":{"key":"06632","name":"Hersfeld-Rotenburg","type":"Landkreis"},"federalState":{"key":"06","name":"Hessen"}},{"name":"Bärenhecke","postalCode":"36217","locality":"Ronshausen","municipality":{"key":"06632017","name":"Ronshausen","type":"Kreisangehörige_Gemeinde"},"district":{"key":"06632","name":"Hersfeld-Rotenburg","type":"Landkreis"},"federalState":{"key":"06","name":"Hessen"}},{"name":"Bellersberg","postalCode":"36217","locality":"Ronshausen","municipality":{"key":"06632017","name":"Ronshausen","type":"Kreisangehörige_Gemeinde"},"district":{"key":"06632","name":"Hersfeld-Rotenburg","type":"Landkreis"},"federalState":{"key":"06","name":"Hessen"}},{"name":"Bergweg","postalCode":"36217","locality":"Ronshausen","municipality":{"key":"06632017","name":"Ronshausen","type":"Kreisangehörige_Gemeinde"},"district":{"key":"06632","name":"Hersfeld-Rotenburg","type":"Landkreis"},"federalState":{"key":"06","name":"Hessen"}},{"name":"Berliner Str.","postalCode":"36217","locality":"Ronshausen","municipality":{"key":"06632017","name":"Ronshausen","type":"Kreisangehörige_Gemeinde"},"district":{"key":"06632","name":"Hersfeld-Rotenburg","type":"Landkreis"},"federalState":{"key":"06","name":"Hessen"}},{"name":"Bodenweg","postalCode":"36217","locality":"Ronshausen","municipality":{"key":"06632017","name":"Ronshausen","type":"Kreisangehörige_Gemeinde"},"district":{"key":"06632","name":"Hersfeld-Rotenburg","type":"Landkreis"},"federalState":{"key":"06","name":"Hessen"}},{"name":"Breiter Pfad","postalCode":"36217","locality":"Ronshausen","municipality":{"key":"06632017","name":"Ronshausen","type":"Kreisangehörige_Gemeinde"},"district":{"key":"06632","name":"Hersfeld-Rotenburg","type":"Landkreis"},"federalState":{"key":"06","name":"Hessen"}},{"name":"Brüder-Grimm-Str.","postalCode":"36217","locality":"Ronshausen","municipality":{"key":"06632017","name":"Ronshausen","type":"Kreisangehörige_Gemeinde"},"district":{"key":"06632","name":"Hersfeld-Rotenburg","type":"Landkreis"},"federalState":{"key":"06","name":"Hessen"}},{"name":"Brunnenweg","postalCode":"36217","locality":"Ronshausen","municipality":{"key":"06632017","name":"Ronshausen","type":"Kreisangehörige_Gemeinde"},"district":{"key":"06632","name":"Hersfeld-Rotenburg","type":"Landkreis"},"federalState":{"key":"06","name":"Hessen"}},{"name":"Burbachgasse","postalCode":"36217","locality":"Ronshausen","municipality":{"key":"06632017","name":"Ronshausen","type":"Kreisangehörige_Gemeinde"},"district":{"key":"06632","name":"Hersfeld-Rotenburg","type":"Landkreis"},"federalState":{"key":"06","name":"Hessen"}},{"name":"Eisenacher Str.","postalCode":"36217","locality":"Ronshausen","municipality":{"key":"06632017","name":"Ronshausen","type":"Kreisangehörige_Gemeinde"},"district":{"key":"06632","name":"Hersfeld-Rotenburg","type":"Landkreis"},"federalState":{"key":"06","name":"Hessen"}},{"name":"Flachsröste","postalCode":"36217","locality":"Ronshausen","municipality":{"key":"06632017","name":"Ronshausen","type":"Kreisangehörige_Gemeinde"},"district":{"key":"06632","name":"Hersfeld-Rotenburg","type":"Landkreis"},"federalState":{"key":"06","name":"Hessen"}},{"name":"Friedhofsweg","postalCode":"36217","locality":"Ronshausen","municipality":{"key":"06632017","name":"Ronshausen","type":"Kreisangehörige_Gemeinde"},"district":{"key":"06632","name":"Hersfeld-Rotenburg","type":"Landkreis"},"federalState":{"key":"06","name":"Hessen"}},{"name":"Gartenstr.","postalCode":"36217","locality":"Ronshausen","municipality":{"key":"06632017","name":"Ronshausen","type":"Kreisangehörige_Gemeinde"},"district":{"key":"06632","name":"Hersfeld-Rotenburg","type":"Landkreis"},"federalState":{"key":"06","name":"Hessen"}},{"name":"Goethestr.","postalCode":"36217","locality":"Ronshausen","municipality":{"key":"06632017","name":"Ronshausen","type":"Kreisangehörige_Gemeinde"},"district":{"key":"06632","name":"Hersfeld-Rotenburg","type":"Landkreis"},"federalState":{"key":"06","name":"Hessen"}},{"name":"Goldbachgasse","postalCode":"36217","locality":"Ronshausen","municipality":{"key":"06632017","name":"Ronshausen","type":"Kreisangehörige_Gemeinde"},"district":{"key":"06632","name":"Hersfeld-Rotenburg","type":"Landkreis"},"federalState":{"key":"06","name":"Hessen"}},{"name":"Große Gasse","postalCode":"36217","locality":"Ronshausen","municipality":{"key":"06632017","name":"Ronshausen","type":"Kreisangehörige_Gemeinde"},"district":{"key":"06632","name":"Hersfeld-Rotenburg","type":"Landkreis"},"federalState":{"key":"06","name":"Hessen"}},{"name":"Grüner Weg","postalCode":"36217","locality":"Ronshausen","municipality":{"key":"06632017","name":"Ronshausen","type":"Kreisangehörige_Gemeinde"},"district":{"key":"06632","name":"Hersfeld-Rotenburg","type":"Landkreis"},"federalState":{"key":"06","name":"Hessen"}},{"name":"Gutenbergstr.","postalCode":"36217","locality":"Ronshausen","municipality":{"key":"06632017","name":"Ronshausen","type":"Kreisangehörige_Gemeinde"},"district":{"key":"06632","name":"Hersfeld-Rotenburg","type":"Landkreis"},"federalState":{"key":"06","name":"Hessen"}},{"name":"Gut Faßdorf","postalCode":"36217","locality":"Ronshausen","municipality":{"key":"06632017","name":"Ronshausen","type":"Kreisangehörige_Gemeinde"},"district":{"key":"06632","name":"Hersfeld-Rotenburg","type":"Landkreis"},"federalState":{"key":"06","name":"Hessen"}},{"name":"Hauptstr.","postalCode":"36217","locality":"Ronshausen","municipality":{"key":"06632017","name":"Ronshausen","type":"Kreisangehörige_Gemeinde"},"district":{"key":"06632","name":"Hersfeld-Rotenburg","type":"Landkreis"},"federalState":{"key":"06","name":"Hessen"}},{"name":"Hermann-Löns-Str.","postalCode":"36217","locality":"Ronshausen","municipality":{"key":"06632017","name":"Ronshausen","type":"Kreisangehörige_Gemeinde"},"district":{"key":"06632","name":"Hersfeld-Rotenburg","type":"Landkreis"},"federalState":{"key":"06","name":"Hessen"}},{"name":"Hersfelder Eckchen","postalCode":"36217","locality":"Ronshausen","municipality":{"key":"06632017","name":"Ronshausen","type":"Kreisangehörige_Gemeinde"},"district":{"key":"06632","name":"Hersfeld-Rotenburg","type":"Landkreis"},"federalState":{"key":"06","name":"Hessen"}},{"name":"Hersfelder Str.","postalCode":"36217","locality":"Ronshausen","municipality":{"key":"06632017","name":"Ronshausen","type":"Kreisangehörige_Gemeinde"},"district":{"key":"06632","name":"Hersfeld-Rotenburg","type":"Landkreis"},"federalState":{"key":"06","name":"Hessen"}},{"name":"Hertener Str.","postalCode":"36217","locality":"Ronshausen","municipality":{"key":"06632017","name":"Ronshausen","type":"Kreisangehörige_Gemeinde"},"district":{"key":"06632","name":"Hersfeld-Rotenburg","type":"Landkreis"},"federalState":{"key":"06","name":"Hessen"}},{"name":"Herzbergstr.","postalCode":"36217","locality":"Ronshausen","municipality":{"key":"06632017","name":"Ronshausen","type":"Kreisangehörige_Gemeinde"},"district":{"key":"06632","name":"Hersfeld-Rotenburg","type":"Landkreis"},"federalState":{"key":"06","name":"Hessen"}},{"name":"Hinter den Erlen","postalCode":"36217","locality":"Ronshausen","municipality":{"key":"06632017","name":"Ronshausen","type":"Kreisangehörige_Gemeinde"},"district":{"key":"06632","name":"Hersfeld-Rotenburg","type":"Landkreis"},"federalState":{"key":"06","name":"Hessen"}},{"name":"Höhenweg","postalCode":"36217","locality":"Ronshausen","municipality":{"key":"06632017","name":"Ronshausen","type":"Kreisangehörige_Gemeinde"},"district":{"key":"06632","name":"Hersfeld-Rotenburg","type":"Landkreis"},"federalState":{"key":"06","name":"Hessen"}},{"name":"Hornsbachweg","postalCode":"36217","locality":"Ronshausen","municipality":{"key":"06632017","name":"Ronshausen","type":"Kreisangehörige_Gemeinde"},"district":{"key":"06632","name":"Hersfeld-Rotenburg","type":"Landkreis"},"federalState":{"key":"06","name":"Hessen"}},{"name":"Hutweide","postalCode":"36217","locality":"Ronshausen","municipality":{"key":"06632017","name":"Ronshausen","type":"Kreisangehörige_Gemeinde"},"district":{"key":"06632","name":"Hersfeld-Rotenburg","type":"Landkreis"},"federalState":{"key":"06","name":"Hessen"}},{"name":"Ibaer Weg","postalCode":"36217","locality":"Ronshausen","municipality":{"key":"06632017","name":"Ronshausen","type":"Kreisangehörige_Gemeinde"},"district":{"key":"06632","name":"Hersfeld-Rotenburg","type":"Landkreis"},"federalState":{"key":"06","name":"Hessen"}},{"name":"Im Graben","postalCode":"36217","locality":"Ronshausen","municipality":{"key":"06632017","name":"Ronshausen","type":"Kreisangehörige_Gemeinde"},"district":{"key":"06632","name":"Hersfeld-Rotenburg","type":"Landkreis"},"federalState":{"key":"06","name":"Hessen"}},{"name":"Im Kirchtal","postalCode":"36217","locality":"Ronshausen","municipality":{"key":"06632017","name":"Ronshausen","type":"Kreisangehörige_Gemeinde"},"district":{"key":"06632","name":"Hersfeld-Rotenburg","type":"Landkreis"},"federalState":{"key":"06","name":"Hessen"}},{"name":"Im Strut","postalCode":"36217","locality":"Ronshausen","municipality":{"key":"06632017","name":"Ronshausen","type":"Kreisangehörige_Gemeinde"},"district":{"key":"06632","name":"Hersfeld-Rotenburg","type":"Landkreis"},"federalState":{"key":"06","name":"Hessen"}},{"name":"Im Vogelsang","postalCode":"36217","locality":"Ronshausen","municipality":{"key":"06632017","name":"Ronshausen","type":"Kreisangehörige_Gemeinde"},"district":{"key":"06632","name":"Hersfeld-Rotenburg","type":"Landkreis"},"federalState":{"key":"06","name":"Hessen"}},{"name":"Im Ziebach","postalCode":"36217","locality":"Ronshausen","municipality":{"key":"06632017","name":"Ronshausen","type":"Kreisangehörige_Gemeinde"},"district":{"key":"06632","name":"Hersfeld-Rotenburg","type":"Landkreis"},"federalState":{"key":"06","name":"Hessen"}},{"name":"In der Spitze","postalCode":"36217","locality":"Ronshausen","municipality":{"key":"06632017","name":"Ronshausen","type":"Kreisangehörige_Gemeinde"},"district":{"key":"06632","name":"Hersfeld-Rotenburg","type":"Landkreis"},"federalState":{"key":"06","name":"Hessen"}},{"name":"Industriestr.","postalCode":"36217","locality":"Ronshausen","municipality":{"key":"06632017","name":"Ronshausen","type":"Kreisangehörige_Gemeinde"},"district":{"key":"06632","name":"Hersfeld-Rotenburg","type":"Landkreis"},"federalState":{"key":"06","name":"Hessen"}},{"name":"Kasseler Str.","postalCode":"36217","locality":"Ronshausen","municipality":{"key":"06632017","name":"Ronshausen","type":"Kreisangehörige_Gemeinde"},"district":{"key":"06632","name":"Hersfeld-Rotenburg","type":"Landkreis"},"federalState":{"key":"06","name":"Hessen"}},{"name":"Kirchweg","postalCode":"36217","locality":"Ronshausen","municipality":{"key":"06632017","name":"Ronshausen","type":"Kreisangehörige_Gemeinde"},"district":{"key":"06632","name":"Hersfeld-Rotenburg","type":"Landkreis"},"federalState":{"key":"06","name":"Hessen"}},{"name":"Kleine Gasse","postalCode":"36217","locality":"Ronshausen","municipality":{"key":"06632017","name":"Ronshausen","type":"Kreisangehörige_Gemeinde"},"district":{"key":"06632","name":"Hersfeld-Rotenburg","type":"Landkreis"},"federalState":{"key":"06","name":"Hessen"}},{"name":"Lessingstr.","postalCode":"36217","locality":"Ronshausen","municipality":{"key":"06632017","name":"Ronshausen","type":"Kreisangehörige_Gemeinde"},"district":{"key":"06632","name":"Hersfeld-Rotenburg","type":"Landkreis"},"federalState":{"key":"06","name":"Hessen"}},{"name":"Lingelkopfweg","postalCode":"36217","locality":"Ronshausen","municipality":{"key":"06632017","name":"Ronshausen","type":"Kreisangehörige_Gemeinde"},"district":{"key":"06632","name":"Hersfeld-Rotenburg","type":"Landkreis"},"federalState":{"key":"06","name":"Hessen"}},{"name":"Luisenweg","postalCode":"36217","locality":"Ronshausen","municipality":{"key":"06632017","name":"Ronshausen","type":"Kreisangehörige_Gemeinde"},"district":{"key":"06632","name":"Hersfeld-Rotenburg","type":"Landkreis"},"federalState":{"key":"06","name":"Hessen"}},{"name":"Meierweg","postalCode":"36217","locality":"Ronshausen","municipality":{"key":"06632017","name":"Ronshausen","type":"Kreisangehörige_Gemeinde"},"district":{"key":"06632","name":"Hersfeld-Rotenburg","type":"Landkreis"},"federalState":{"key":"06","name":"Hessen"}},{"name":"Mühlweg","postalCode":"36217","locality":"Ronshausen","municipality":{"key":"06632017","name":"Ronshausen","type":"Kreisangehörige_Gemeinde"},"district":{"key":"06632","name":"Hersfeld-Rotenburg","type":"Landkreis"},"federalState":{"key":"06","name":"Hessen"}},{"name":"Neue Str.","postalCode":"36217","locality":"Ronshausen","municipality":{"key":"06632017","name":"Ronshausen","type":"Kreisangehörige_Gemeinde"},"district":{"key":"06632","name":"Hersfeld-Rotenburg","type":"Landkreis"},"federalState":{"key":"06","name":"Hessen"}},{"name":"Panoramaweg","postalCode":"36217","locality":"Ronshausen","municipality":{"key":"06632017","name":"Ronshausen","type":"Kreisangehörige_Gemeinde"},"district":{"key":"06632","name":"Hersfeld-Rotenburg","type":"Landkreis"},"federalState":{"key":"06","name":"Hessen"}},{"name":"Pfaffengraben","postalCode":"36217","locality":"Ronshausen","municipality":{"key":"06632017","name":"Ronshausen","type":"Kreisangehörige_Gemeinde"},"district":{"key":"06632","name":"Hersfeld-Rotenburg","type":"Landkreis"},"federalState":{"key":"06","name":"Hessen"}},{"name":"Postweg","postalCode":"36217","locality":"Ronshausen","municipality":{"key":"06632017","name":"Ronshausen","type":"Kreisangehörige_Gemeinde"},"district":{"key":"06632","name":"Hersfeld-Rotenburg","type":"Landkreis"},"federalState":{"key":"06","name":"Hessen"}},{"name":"Querstr.","postalCode":"36217","locality":"Ronshausen","municipality":{"key":"06632017","name":"Ronshausen","type":"Kreisangehörige_Gemeinde"},"district":{"key":"06632","name":"Hersfeld-Rotenburg","type":"Landkreis"},"federalState":{"key":"06","name":"Hessen"}},{"name":"Raiffeisenstr.","postalCode":"36217","locality":"Ronshausen","municipality":{"key":"06632017","name":"Ronshausen","type":"Kreisangehörige_Gemeinde"},"district":{"key":"06632","name":"Hersfeld-Rotenburg","type":"Landkreis"},"federalState":{"key":"06","name":"Hessen"}},{"name":"Recklinghäuser Str.","postalCode":"36217","locality":"Ronshausen","municipality":{"key":"06632017","name":"Ronshausen","type":"Kreisangehörige_Gemeinde"},"district":{"key":"06632","name":"Hersfeld-Rotenburg","type":"Landkreis"},"federalState":{"key":"06","name":"Hessen"}},{"name":"Schillerstr.","postalCode":"36217","locality":"Ronshausen","municipality":{"key":"06632017","name":"Ronshausen","type":"Kreisangehörige_Gemeinde"},"district":{"key":"06632","name":"Hersfeld-Rotenburg","type":"Landkreis"},"federalState":{"key":"06","name":"Hessen"}},{"name":"Schlesierweg","postalCode":"36217","locality":"Ronshausen","municipality":{"key":"06632017","name":"Ronshausen","type":"Kreisangehörige_Gemeinde"},"district":{"key":"06632","name":"Hersfeld-Rotenburg","type":"Landkreis"},"federalState":{"key":"06","name":"Hessen"}},{"name":"Schöne Aussicht","postalCode":"36217","locality":"Ronshausen","municipality":{"key":"06632017","name":"Ronshausen","type":"Kreisangehörige_Gemeinde"},"district":{"key":"06632","name":"Hersfeld-Rotenburg","type":"Landkreis"},"federalState":{"key":"06","name":"Hessen"}},{"name":"Schulstr.","postalCode":"36217","locality":"Ronshausen","municipality":{"key":"06632017","name":"Ronshausen","type":"Kreisangehörige_Gemeinde"},"district":{"key":"06632","name":"Hersfeld-Rotenburg","type":"Landkreis"},"federalState":{"key":"06","name":"Hessen"}},{"name":"Steinbachgasse","postalCode":"36217","locality":"Ronshausen","municipality":{"key":"06632017","name":"Ronshausen","type":"Kreisangehörige_Gemeinde"},"district":{"key":"06632","name":"Hersfeld-Rotenburg","type":"Landkreis"},"federalState":{"key":"06","name":"Hessen"}},{"name":"Steinweg","postalCode":"36217","locality":"Ronshausen","municipality":{"key":"06632017","name":"Ronshausen","type":"Kreisangehörige_Gemeinde"},"district":{"key":"06632","name":"Hersfeld-Rotenburg","type":"Landkreis"},"federalState":{"key":"06","name":"Hessen"}},{"name":"Stettiner Str.","postalCode":"36217","locality":"Ronshausen","municipality":{"key":"06632017","name":"Ronshausen","type":"Kreisangehörige_Gemeinde"},"district":{"key":"06632","name":"Hersfeld-Rotenburg","type":"Landkreis"},"federalState":{"key":"06","name":"Hessen"}},{"name":"Talweg","postalCode":"36217","locality":"Ronshausen","municipality":{"key":"06632017","name":"Ronshausen","type":"Kreisangehörige_Gemeinde"},"district":{"key":"06632","name":"Hersfeld-Rotenburg","type":"Landkreis"},"federalState":{"key":"06","name":"Hessen"}},{"name":"Tanzgarten","postalCode":"36217","locality":"Ronshausen","municipality":{"key":"06632017","name":"Ronshausen","type":"Kreisangehörige_Gemeinde"},"district":{"key":"06632","name":"Hersfeld-Rotenburg","type":"Landkreis"},"federalState":{"key":"06","name":"Hessen"}},{"name":"Trimmelskopf","postalCode":"36217","locality":"Ronshausen","municipality":{"key":"06632017","name":"Ronshausen","type":"Kreisangehörige_Gemeinde"},"district":{"key":"06632","name":"Hersfeld-Rotenburg","type":"Landkreis"},"federalState":{"key":"06","name":"Hessen"}},{"name":"Unter der Linde","postalCode":"36217","locality":"Ronshausen","municipality":{"key":"06632017","name":"Ronshausen","type":"Kreisangehörige_Gemeinde"},"district":{"key":"06632","name":"Hersfeld-Rotenburg","type":"Landkreis"},"federalState":{"key":"06","name":"Hessen"}},{"name":"Untere Ulfe","postalCode":"36217","locality":"Ronshausen","municipality":{"key":"06632017","name":"Ronshausen","type":"Kreisangehörige_Gemeinde"},"district":{"key":"06632","name":"Hersfeld-Rotenburg","type":"Landkreis"},"federalState":{"key":"06","name":"Hessen"}},{"name":"Unterm Berg","postalCode":"36217","locality":"Ronshausen","municipality":{"key":"06632017","name":"Ronshausen","type":"Kreisangehörige_Gemeinde"},"district":{"key":"06632","name":"Hersfeld-Rotenburg","type":"Landkreis"},"federalState":{"key":"06","name":"Hessen"}},{"name":"Vogelgehölz","postalCode":"36217","locality":"Ronshausen","municipality":{"key":"06632017","name":"Ronshausen","type":"Kreisangehörige_Gemeinde"},"district":{"key":"06632","name":"Hersfeld-Rotenburg","type":"Landkreis"},"federalState":{"key":"06","name":"Hessen"}},{"name":"Wiesenweg","postalCode":"36217","locality":"Ronshausen","municipality":{"key":"06632017","name":"Ronshausen","type":"Kreisangehörige_Gemeinde"},"district":{"key":"06632","name":"Hersfeld-Rotenburg","type":"Landkreis"},"federalState":{"key":"06","name":"Hessen"}},{"name":"Wildes Loch","postalCode":"36217","locality":"Ronshausen","municipality":{"key":"06632017","name":"Ronshausen","type":"Kreisangehörige_Gemeinde"},"district":{"key":"06632","name":"Hersfeld-Rotenburg","type":"Landkreis"},"federalState":{"key":"06","name":"Hessen"}},{"name":"Ziegeleistr.","postalCode":"36217","locality":"Ronshausen","municipality":{"key":"06632017","name":"Ronshausen","type":"Kreisangehörige_Gemeinde"},"district":{"key":"06632","name":"Hersfeld-Rotenburg","type":"Landkreis"},"federalState":{"key":"06","name":"Hessen"}},{"name":"Zum Haken","postalCode":"36217","locality":"Ronshausen","municipality":{"key":"06632017","name":"Ronshausen","type":"Kreisangehörige_Gemeinde"},"district":{"key":"06632","name":"Hersfeld-Rotenburg","type":"Landkreis"},"federalState":{"key":"06","name":"Hessen"}},{"name":"Zum Schellenberg","postalCode":"36217","locality":"Ronshausen","municipality":{"key":"06632017","name":"Ronshausen","type":"Kreisangehörige_Gemeinde"},"district":{"key":"06632","name":"Hersfeld-Rotenburg","type":"Landkreis"},"federalState":{"key":"06","name":"Hessen"}},]