[{"name":"Am Brandteichgraben","postalCode":"17498","locality":"Hinrichshagen","municipality":{"key":"13075050","name":"Hinrichshagen","type":"Kreisangehörige_Gemeinde"},"district":{"key":"13075","name":"Vorpommern-Greifswald","type":"Landkreis"},"federalState":{"key":"13","name":"Mecklenburg-Vorpommern"}},{"name":"Am Krenskamp","postalCode":"17498","locality":"Hinrichshagen","municipality":{"key":"13075050","name":"Hinrichshagen","type":"Kreisangehörige_Gemeinde"},"district":{"key":"13075","name":"Vorpommern-Greifswald","type":"Landkreis"},"federalState":{"key":"13","name":"Mecklenburg-Vorpommern"}},{"name":"Apfelweg","postalCode":"17498","locality":"Hinrichshagen","municipality":{"key":"13075050","name":"Hinrichshagen","type":"Kreisangehörige_Gemeinde"},"district":{"key":"13075","name":"Vorpommern-Greifswald","type":"Landkreis"},"federalState":{"key":"13","name":"Mecklenburg-Vorpommern"}},{"name":"Birkenweg","postalCode":"17498","locality":"Hinrichshagen","municipality":{"key":"13075050","name":"Hinrichshagen","type":"Kreisangehörige_Gemeinde"},"district":{"key":"13075","name":"Vorpommern-Greifswald","type":"Landkreis"},"federalState":{"key":"13","name":"Mecklenburg-Vorpommern"}},{"name":"Buchenberg","postalCode":"17498","locality":"Hinrichshagen","municipality":{"key":"13075050","name":"Hinrichshagen","type":"Kreisangehörige_Gemeinde"},"district":{"key":"13075","name":"Vorpommern-Greifswald","type":"Landkreis"},"federalState":{"key":"13","name":"Mecklenburg-Vorpommern"}},{"name":"Chausseestr.","postalCode":"17498","locality":"Hinrichshagen","municipality":{"key":"13075050","name":"Hinrichshagen","type":"Kreisangehörige_Gemeinde"},"district":{"key":"13075","name":"Vorpommern-Greifswald","type":"Landkreis"},"federalState":{"key":"13","name":"Mecklenburg-Vorpommern"}},{"name":"Dorfstr.","postalCode":"17498","locality":"Hinrichshagen","municipality":{"key":"13075050","name":"Hinrichshagen","type":"Kreisangehörige_Gemeinde"},"district":{"key":"13075","name":"Vorpommern-Greifswald","type":"Landkreis"},"federalState":{"key":"13","name":"Mecklenburg-Vorpommern"}},{"name":"Feldstr.","postalCode":"17498","locality":"Hinrichshagen","municipality":{"key":"13075050","name":"Hinrichshagen","type":"Kreisangehörige_Gemeinde"},"district":{"key":"13075","name":"Vorpommern-Greifswald","type":"Landkreis"},"federalState":{"key":"13","name":"Mecklenburg-Vorpommern"}},{"name":"Greifswalder Str.","postalCode":"17498","locality":"Hinrichshagen","municipality":{"key":"13075050","name":"Hinrichshagen","type":"Kreisangehörige_Gemeinde"},"district":{"key":"13075","name":"Vorpommern-Greifswald","type":"Landkreis"},"federalState":{"key":"13","name":"Mecklenburg-Vorpommern"}},{"name":"Kurze Str.","postalCode":"17498","locality":"Hinrichshagen","municipality":{"key":"13075050","name":"Hinrichshagen","type":"Kreisangehörige_Gemeinde"},"district":{"key":"13075","name":"Vorpommern-Greifswald","type":"Landkreis"},"federalState":{"key":"13","name":"Mecklenburg-Vorpommern"}},{"name":"Lange Str.","postalCode":"17498","locality":"Hinrichshagen","municipality":{"key":"13075050","name":"Hinrichshagen","type":"Kreisangehörige_Gemeinde"},"district":{"key":"13075","name":"Vorpommern-Greifswald","type":"Landkreis"},"federalState":{"key":"13","name":"Mecklenburg-Vorpommern"}},{"name":"Ringstr.","postalCode":"17498","locality":"Hinrichshagen","municipality":{"key":"13075050","name":"Hinrichshagen","type":"Kreisangehörige_Gemeinde"},"district":{"key":"13075","name":"Vorpommern-Greifswald","type":"Landkreis"},"federalState":{"key":"13","name":"Mecklenburg-Vorpommern"}},{"name":"Weidenweg","postalCode":"17498","locality":"Hinrichshagen","municipality":{"key":"13075050","name":"Hinrichshagen","type":"Kreisangehörige_Gemeinde"},"district":{"key":"13075","name":"Vorpommern-Greifswald","type":"Landkreis"},"federalState":{"key":"13","name":"Mecklenburg-Vorpommern"}},{"name":"Wiesenweg","postalCode":"17498","locality":"Hinrichshagen","municipality":{"key":"13075050","name":"Hinrichshagen","type":"Kreisangehörige_Gemeinde"},"district":{"key":"13075","name":"Vorpommern-Greifswald","type":"Landkreis"},"federalState":{"key":"13","name":"Mecklenburg-Vorpommern"}},]