[{"name":"Fliederstr.","postalCode":"19300","locality":"Kremmin","municipality":{"key":"13076076","name":"Kremmin","type":"Kreisangehörige_Gemeinde"},"district":{"key":"13076","name":"Ludwigslust-Parchim","type":"Landkreis"},"federalState":{"key":"13","name":"Mecklenburg-Vorpommern"}},{"name":"Gartenstr.","postalCode":"19300","locality":"Kremmin","municipality":{"key":"13076076","name":"Kremmin","type":"Kreisangehörige_Gemeinde"},"district":{"key":"13076","name":"Ludwigslust-Parchim","type":"Landkreis"},"federalState":{"key":"13","name":"Mecklenburg-Vorpommern"}},{"name":"Grabower Str.","postalCode":"19300","locality":"Kremmin","municipality":{"key":"13076076","name":"Kremmin","type":"Kreisangehörige_Gemeinde"},"district":{"key":"13076","name":"Ludwigslust-Parchim","type":"Landkreis"},"federalState":{"key":"13","name":"Mecklenburg-Vorpommern"}},{"name":"Grüner Weg","postalCode":"19300","locality":"Kremmin","municipality":{"key":"13076076","name":"Kremmin","type":"Kreisangehörige_Gemeinde"},"district":{"key":"13076","name":"Ludwigslust-Parchim","type":"Landkreis"},"federalState":{"key":"13","name":"Mecklenburg-Vorpommern"}},{"name":"Lindenstr.","postalCode":"19300","locality":"Kremmin","municipality":{"key":"13076076","name":"Kremmin","type":"Kreisangehörige_Gemeinde"},"district":{"key":"13076","name":"Ludwigslust-Parchim","type":"Landkreis"},"federalState":{"key":"13","name":"Mecklenburg-Vorpommern"}},{"name":"Neuer Weg","postalCode":"19300","locality":"Kremmin","municipality":{"key":"13076076","name":"Kremmin","type":"Kreisangehörige_Gemeinde"},"district":{"key":"13076","name":"Ludwigslust-Parchim","type":"Landkreis"},"federalState":{"key":"13","name":"Mecklenburg-Vorpommern"}},{"name":"Rosenstr.","postalCode":"19300","locality":"Kremmin","municipality":{"key":"13076076","name":"Kremmin","type":"Kreisangehörige_Gemeinde"},"district":{"key":"13076","name":"Ludwigslust-Parchim","type":"Landkreis"},"federalState":{"key":"13","name":"Mecklenburg-Vorpommern"}},{"name":"Sandstr.","postalCode":"19300","locality":"Kremmin","municipality":{"key":"13076076","name":"Kremmin","type":"Kreisangehörige_Gemeinde"},"district":{"key":"13076","name":"Ludwigslust-Parchim","type":"Landkreis"},"federalState":{"key":"13","name":"Mecklenburg-Vorpommern"}},{"name":"Str. der Einheit","postalCode":"19300","locality":"Kremmin","municipality":{"key":"13076076","name":"Kremmin","type":"Kreisangehörige_Gemeinde"},"district":{"key":"13076","name":"Ludwigslust-Parchim","type":"Landkreis"},"federalState":{"key":"13","name":"Mecklenburg-Vorpommern"}},]