[{"name":"Ahrstr.","postalCode":"53520","locality":"Schuld","municipality":{"key":"07131074","name":"Schuld","type":"Kreisangehörige_Gemeinde"},"district":{"key":"07131","name":"Ahrweiler","type":"Landkreis"},"federalState":{"key":"07","name":"Rheinland-Pfalz"}},{"name":"Ahrtalweg","postalCode":"53520","locality":"Schuld","municipality":{"key":"07131074","name":"Schuld","type":"Kreisangehörige_Gemeinde"},"district":{"key":"07131","name":"Ahrweiler","type":"Landkreis"},"federalState":{"key":"07","name":"Rheinland-Pfalz"}},{"name":"Ahrweg","postalCode":"53520","locality":"Schuld","municipality":{"key":"07131074","name":"Schuld","type":"Kreisangehörige_Gemeinde"},"district":{"key":"07131","name":"Ahrweiler","type":"Landkreis"},"federalState":{"key":"07","name":"Rheinland-Pfalz"}},{"name":"An der Lecker","postalCode":"53520","locality":"Schuld","municipality":{"key":"07131074","name":"Schuld","type":"Kreisangehörige_Gemeinde"},"district":{"key":"07131","name":"Ahrweiler","type":"Landkreis"},"federalState":{"key":"07","name":"Rheinland-Pfalz"}},{"name":"Auf dem Stausten","postalCode":"53520","locality":"Schuld","municipality":{"key":"07131074","name":"Schuld","type":"Kreisangehörige_Gemeinde"},"district":{"key":"07131","name":"Ahrweiler","type":"Landkreis"},"federalState":{"key":"07","name":"Rheinland-Pfalz"}},{"name":"Auf Frohnscheid","postalCode":"53520","locality":"Schuld","municipality":{"key":"07131074","name":"Schuld","type":"Kreisangehörige_Gemeinde"},"district":{"key":"07131","name":"Ahrweiler","type":"Landkreis"},"federalState":{"key":"07","name":"Rheinland-Pfalz"}},{"name":"Bahnhofstr.","postalCode":"53520","locality":"Schuld","municipality":{"key":"07131074","name":"Schuld","type":"Kreisangehörige_Gemeinde"},"district":{"key":"07131","name":"Ahrweiler","type":"Landkreis"},"federalState":{"key":"07","name":"Rheinland-Pfalz"}},{"name":"Bergstr.","postalCode":"53520","locality":"Schuld","municipality":{"key":"07131074","name":"Schuld","type":"Kreisangehörige_Gemeinde"},"district":{"key":"07131","name":"Ahrweiler","type":"Landkreis"},"federalState":{"key":"07","name":"Rheinland-Pfalz"}},{"name":"Brückenstr.","postalCode":"53520","locality":"Schuld","municipality":{"key":"07131074","name":"Schuld","type":"Kreisangehörige_Gemeinde"},"district":{"key":"07131","name":"Ahrweiler","type":"Landkreis"},"federalState":{"key":"07","name":"Rheinland-Pfalz"}},{"name":"Carl-von-Ehrenwall-Allee","postalCode":"53474","locality":"Bad Neuenahr-Ahrweiler","municipality":{"key":"07131007","name":"Bad Neuenahr-Ahrweiler, Stadt","type":"Stadt"},"district":{"key":"07131","name":"Ahrweiler","type":"Landkreis"},"federalState":{"key":"07","name":"Rheinland-Pfalz"}},{"name":"Carl-Weisgerber-Weg","postalCode":"53474","locality":"Bad Neuenahr-Ahrweiler","municipality":{"key":"07131007","name":"Bad Neuenahr-Ahrweiler, Stadt","type":"Stadt"},"district":{"key":"07131","name":"Ahrweiler","type":"Landkreis"},"federalState":{"key":"07","name":"Rheinland-Pfalz"}},{"name":"Casinostr.","postalCode":"53474","locality":"Bad Neuenahr-Ahrweiler","municipality":{"key":"07131007","name":"Bad Neuenahr-Ahrweiler, Stadt","type":"Stadt"},"district":{"key":"07131","name":"Ahrweiler","type":"Landkreis"},"federalState":{"key":"07","name":"Rheinland-Pfalz"}},{"name":"Christian-Develich-Str.","postalCode":"53474","locality":"Bad Neuenahr-Ahrweiler","municipality":{"key":"07131007","name":"Bad Neuenahr-Ahrweiler, Stadt","type":"Stadt"},"district":{"key":"07131","name":"Ahrweiler","type":"Landkreis"},"federalState":{"key":"07","name":"Rheinland-Pfalz"}},{"name":"Christian-Ulrich-Str.","postalCode":"53474","locality":"Bad Neuenahr-Ahrweiler","municipality":{"key":"07131007","name":"Bad Neuenahr-Ahrweiler, Stadt","type":"Stadt"},"district":{"key":"07131","name":"Ahrweiler","type":"Landkreis"},"federalState":{"key":"07","name":"Rheinland-Pfalz"}},{"name":"Christine-Demmer-Str.","postalCode":"53474","locality":"Bad Neuenahr-Ahrweiler","municipality":{"key":"07131007","name":"Bad Neuenahr-Ahrweiler, Stadt","type":"Stadt"},"district":{"key":"07131","name":"Ahrweiler","type":"Landkreis"},"federalState":{"key":"07","name":"Rheinland-Pfalz"}},{"name":"Christopherusweg","postalCode":"53474","locality":"Bad Neuenahr-Ahrweiler","municipality":{"key":"07131007","name":"Bad Neuenahr-Ahrweiler, Stadt","type":"Stadt"},"district":{"key":"07131","name":"Ahrweiler","type":"Landkreis"},"federalState":{"key":"07","name":"Rheinland-Pfalz"}},{"name":"Cyrillus-Jarre-Str.","postalCode":"53474","locality":"Bad Neuenahr-Ahrweiler","municipality":{"key":"07131007","name":"Bad Neuenahr-Ahrweiler, Stadt","type":"Stadt"},"district":{"key":"07131","name":"Ahrweiler","type":"Landkreis"},"federalState":{"key":"07","name":"Rheinland-Pfalz"}},{"name":"Domhofstr.","postalCode":"53520","locality":"Schuld","municipality":{"key":"07131074","name":"Schuld","type":"Kreisangehörige_Gemeinde"},"district":{"key":"07131","name":"Ahrweiler","type":"Landkreis"},"federalState":{"key":"07","name":"Rheinland-Pfalz"}},{"name":"Edith-Stein-Str.","postalCode":"53474","locality":"Bad Neuenahr-Ahrweiler","municipality":{"key":"07131007","name":"Bad Neuenahr-Ahrweiler, Stadt","type":"Stadt"},"district":{"key":"07131","name":"Ahrweiler","type":"Landkreis"},"federalState":{"key":"07","name":"Rheinland-Pfalz"}},{"name":"Ehlinger Str.","postalCode":"53474","locality":"Bad Neuenahr-Ahrweiler","municipality":{"key":"07131007","name":"Bad Neuenahr-Ahrweiler, Stadt","type":"Stadt"},"district":{"key":"07131","name":"Ahrweiler","type":"Landkreis"},"federalState":{"key":"07","name":"Rheinland-Pfalz"}},{"name":"Eichendorffstr.","postalCode":"53474","locality":"Bad Neuenahr-Ahrweiler","municipality":{"key":"07131007","name":"Bad Neuenahr-Ahrweiler, Stadt","type":"Stadt"},"district":{"key":"07131","name":"Ahrweiler","type":"Landkreis"},"federalState":{"key":"07","name":"Rheinland-Pfalz"}},{"name":"Eichenweg","postalCode":"53474","locality":"Bad Neuenahr-Ahrweiler","municipality":{"key":"07131007","name":"Bad Neuenahr-Ahrweiler, Stadt","type":"Stadt"},"district":{"key":"07131","name":"Ahrweiler","type":"Landkreis"},"federalState":{"key":"07","name":"Rheinland-Pfalz"}},{"name":"Eifelstr.","postalCode":"53474","locality":"Bad Neuenahr-Ahrweiler","municipality":{"key":"07131007","name":"Bad Neuenahr-Ahrweiler, Stadt","type":"Stadt"},"district":{"key":"07131","name":"Ahrweiler","type":"Landkreis"},"federalState":{"key":"07","name":"Rheinland-Pfalz"}},{"name":"Elinger Buschweg","postalCode":"53474","locality":"Bad Neuenahr-Ahrweiler","municipality":{"key":"07131007","name":"Bad Neuenahr-Ahrweiler, Stadt","type":"Stadt"},"district":{"key":"07131","name":"Ahrweiler","type":"Landkreis"},"federalState":{"key":"07","name":"Rheinland-Pfalz"}},{"name":"Elligstr.","postalCode":"53474","locality":"Bad Neuenahr-Ahrweiler","municipality":{"key":"07131007","name":"Bad Neuenahr-Ahrweiler, Stadt","type":"Stadt"},"district":{"key":"07131","name":"Ahrweiler","type":"Landkreis"},"federalState":{"key":"07","name":"Rheinland-Pfalz"}},{"name":"Erlenweg","postalCode":"53474","locality":"Bad Neuenahr-Ahrweiler","municipality":{"key":"07131007","name":"Bad Neuenahr-Ahrweiler, Stadt","type":"Stadt"},"district":{"key":"07131","name":"Ahrweiler","type":"Landkreis"},"federalState":{"key":"07","name":"Rheinland-Pfalz"}},{"name":"Ernst-Karl-Plachner-Weg","postalCode":"53474","locality":"Bad Neuenahr-Ahrweiler","municipality":{"key":"07131007","name":"Bad Neuenahr-Ahrweiler, Stadt","type":"Stadt"},"district":{"key":"07131","name":"Ahrweiler","type":"Landkreis"},"federalState":{"key":"07","name":"Rheinland-Pfalz"}},{"name":"Ernst-Kley-Str.","postalCode":"53474","locality":"Bad Neuenahr-Ahrweiler","municipality":{"key":"07131007","name":"Bad Neuenahr-Ahrweiler, Stadt","type":"Stadt"},"district":{"key":"07131","name":"Ahrweiler","type":"Landkreis"},"federalState":{"key":"07","name":"Rheinland-Pfalz"}},{"name":"Ernst-Thrasolt-Str.","postalCode":"53474","locality":"Bad Neuenahr-Ahrweiler","municipality":{"key":"07131007","name":"Bad Neuenahr-Ahrweiler, Stadt","type":"Stadt"},"district":{"key":"07131","name":"Ahrweiler","type":"Landkreis"},"federalState":{"key":"07","name":"Rheinland-Pfalz"}},{"name":"Eschenweg","postalCode":"53474","locality":"Bad Neuenahr-Ahrweiler","municipality":{"key":"07131007","name":"Bad Neuenahr-Ahrweiler, Stadt","type":"Stadt"},"district":{"key":"07131","name":"Ahrweiler","type":"Landkreis"},"federalState":{"key":"07","name":"Rheinland-Pfalz"}},{"name":"Eulenstr.","postalCode":"53474","locality":"Bad Neuenahr-Ahrweiler","municipality":{"key":"07131007","name":"Bad Neuenahr-Ahrweiler, Stadt","type":"Stadt"},"district":{"key":"07131","name":"Ahrweiler","type":"Landkreis"},"federalState":{"key":"07","name":"Rheinland-Pfalz"}},{"name":"Felix-Blass-Str.","postalCode":"53474","locality":"Bad Neuenahr-Ahrweiler","municipality":{"key":"07131007","name":"Bad Neuenahr-Ahrweiler, Stadt","type":"Stadt"},"district":{"key":"07131","name":"Ahrweiler","type":"Landkreis"},"federalState":{"key":"07","name":"Rheinland-Pfalz"}},{"name":"Felix-Rütten-Str.","postalCode":"53474","locality":"Bad Neuenahr-Ahrweiler","municipality":{"key":"07131007","name":"Bad Neuenahr-Ahrweiler, Stadt","type":"Stadt"},"district":{"key":"07131","name":"Ahrweiler","type":"Landkreis"},"federalState":{"key":"07","name":"Rheinland-Pfalz"}},{"name":"Ferdinand-Gies-Str.","postalCode":"53474","locality":"Bad Neuenahr-Ahrweiler","municipality":{"key":"07131007","name":"Bad Neuenahr-Ahrweiler, Stadt","type":"Stadt"},"district":{"key":"07131","name":"Ahrweiler","type":"Landkreis"},"federalState":{"key":"07","name":"Rheinland-Pfalz"}},{"name":"Ferdinand-Schroeder-Str.","postalCode":"53474","locality":"Bad Neuenahr-Ahrweiler","municipality":{"key":"07131007","name":"Bad Neuenahr-Ahrweiler, Stadt","type":"Stadt"},"district":{"key":"07131","name":"Ahrweiler","type":"Landkreis"},"federalState":{"key":"07","name":"Rheinland-Pfalz"}},{"name":"Fernblick","postalCode":"53474","locality":"Bad Neuenahr-Ahrweiler","municipality":{"key":"07131007","name":"Bad Neuenahr-Ahrweiler, Stadt","type":"Stadt"},"district":{"key":"07131","name":"Ahrweiler","type":"Landkreis"},"federalState":{"key":"07","name":"Rheinland-Pfalz"}},{"name":"Finkenweg","postalCode":"53474","locality":"Bad Neuenahr-Ahrweiler","municipality":{"key":"07131007","name":"Bad Neuenahr-Ahrweiler, Stadt","type":"Stadt"},"district":{"key":"07131","name":"Ahrweiler","type":"Landkreis"},"federalState":{"key":"07","name":"Rheinland-Pfalz"}},{"name":"Firststr.","postalCode":"53474","locality":"Bad Neuenahr-Ahrweiler","municipality":{"key":"07131007","name":"Bad Neuenahr-Ahrweiler, Stadt","type":"Stadt"},"district":{"key":"07131","name":"Ahrweiler","type":"Landkreis"},"federalState":{"key":"07","name":"Rheinland-Pfalz"}},{"name":"Firstweg","postalCode":"53474","locality":"Bad Neuenahr-Ahrweiler","municipality":{"key":"07131007","name":"Bad Neuenahr-Ahrweiler, Stadt","type":"Stadt"},"district":{"key":"07131","name":"Ahrweiler","type":"Landkreis"},"federalState":{"key":"07","name":"Rheinland-Pfalz"}},{"name":"Florianstr.","postalCode":"53474","locality":"Bad Neuenahr-Ahrweiler","municipality":{"key":"07131007","name":"Bad Neuenahr-Ahrweiler, Stadt","type":"Stadt"},"district":{"key":"07131","name":"Ahrweiler","type":"Landkreis"},"federalState":{"key":"07","name":"Rheinland-Pfalz"}},{"name":"Forststr.","postalCode":"53474","locality":"Bad Neuenahr-Ahrweiler","municipality":{"key":"07131007","name":"Bad Neuenahr-Ahrweiler, Stadt","type":"Stadt"},"district":{"key":"07131","name":"Ahrweiler","type":"Landkreis"},"federalState":{"key":"07","name":"Rheinland-Pfalz"}},{"name":"Frankenstr.","postalCode":"53474","locality":"Bad Neuenahr-Ahrweiler","municipality":{"key":"07131007","name":"Bad Neuenahr-Ahrweiler, Stadt","type":"Stadt"},"district":{"key":"07131","name":"Ahrweiler","type":"Landkreis"},"federalState":{"key":"07","name":"Rheinland-Pfalz"}},{"name":"Franziskusstr.","postalCode":"53474","locality":"Bad Neuenahr-Ahrweiler","municipality":{"key":"07131007","name":"Bad Neuenahr-Ahrweiler, Stadt","type":"Stadt"},"district":{"key":"07131","name":"Ahrweiler","type":"Landkreis"},"federalState":{"key":"07","name":"Rheinland-Pfalz"}},{"name":"Franz-Wenzel-Str.","postalCode":"53474","locality":"Bad Neuenahr-Ahrweiler","municipality":{"key":"07131007","name":"Bad Neuenahr-Ahrweiler, Stadt","type":"Stadt"},"district":{"key":"07131","name":"Ahrweiler","type":"Landkreis"},"federalState":{"key":"07","name":"Rheinland-Pfalz"}},{"name":"Freiherr-vom-Stein-Str.","postalCode":"53474","locality":"Bad Neuenahr-Ahrweiler","municipality":{"key":"07131007","name":"Bad Neuenahr-Ahrweiler, Stadt","type":"Stadt"},"district":{"key":"07131","name":"Ahrweiler","type":"Landkreis"},"federalState":{"key":"07","name":"Rheinland-Pfalz"}},{"name":"Friedenstr.","postalCode":"53474","locality":"Bad Neuenahr-Ahrweiler","municipality":{"key":"07131007","name":"Bad Neuenahr-Ahrweiler, Stadt","type":"Stadt"},"district":{"key":"07131","name":"Ahrweiler","type":"Landkreis"},"federalState":{"key":"07","name":"Rheinland-Pfalz"}},{"name":"Friedrichstr.","postalCode":"53474","locality":"Bad Neuenahr-Ahrweiler","municipality":{"key":"07131007","name":"Bad Neuenahr-Ahrweiler, Stadt","type":"Stadt"},"district":{"key":"07131","name":"Ahrweiler","type":"Landkreis"},"federalState":{"key":"07","name":"Rheinland-Pfalz"}},{"name":"Gartenstr.","postalCode":"53520","locality":"Schuld","municipality":{"key":"07131074","name":"Schuld","type":"Kreisangehörige_Gemeinde"},"district":{"key":"07131","name":"Ahrweiler","type":"Landkreis"},"federalState":{"key":"07","name":"Rheinland-Pfalz"}},{"name":"Hauptstr.","postalCode":"53520","locality":"Schuld","municipality":{"key":"07131074","name":"Schuld","type":"Kreisangehörige_Gemeinde"},"district":{"key":"07131","name":"Ahrweiler","type":"Landkreis"},"federalState":{"key":"07","name":"Rheinland-Pfalz"}},{"name":"Im Domauel","postalCode":"53520","locality":"Schuld","municipality":{"key":"07131074","name":"Schuld","type":"Kreisangehörige_Gemeinde"},"district":{"key":"07131","name":"Ahrweiler","type":"Landkreis"},"federalState":{"key":"07","name":"Rheinland-Pfalz"}},{"name":"Jahnstr.","postalCode":"53474","locality":"Bad Neuenahr-Ahrweiler","municipality":{"key":"07131007","name":"Bad Neuenahr-Ahrweiler, Stadt","type":"Stadt"},"district":{"key":"07131","name":"Ahrweiler","type":"Landkreis"},"federalState":{"key":"07","name":"Rheinland-Pfalz"}},{"name":"Jakob-Rausch-Str.","postalCode":"53474","locality":"Bad Neuenahr-Ahrweiler","municipality":{"key":"07131007","name":"Bad Neuenahr-Ahrweiler, Stadt","type":"Stadt"},"district":{"key":"07131","name":"Ahrweiler","type":"Landkreis"},"federalState":{"key":"07","name":"Rheinland-Pfalz"}},{"name":"Jesuitenstr.","postalCode":"53474","locality":"Bad Neuenahr-Ahrweiler","municipality":{"key":"07131007","name":"Bad Neuenahr-Ahrweiler, Stadt","type":"Stadt"},"district":{"key":"07131","name":"Ahrweiler","type":"Landkreis"},"federalState":{"key":"07","name":"Rheinland-Pfalz"}},{"name":"Joerresstr.","postalCode":"53474","locality":"Bad Neuenahr-Ahrweiler","municipality":{"key":"07131007","name":"Bad Neuenahr-Ahrweiler, Stadt","type":"Stadt"},"district":{"key":"07131","name":"Ahrweiler","type":"Landkreis"},"federalState":{"key":"07","name":"Rheinland-Pfalz"}},{"name":"Johannes-Kirschweng-Str.","postalCode":"53474","locality":"Bad Neuenahr-Ahrweiler","municipality":{"key":"07131007","name":"Bad Neuenahr-Ahrweiler, Stadt","type":"Stadt"},"district":{"key":"07131","name":"Ahrweiler","type":"Landkreis"},"federalState":{"key":"07","name":"Rheinland-Pfalz"}},{"name":"Johannes-Müller-Str.","postalCode":"53474","locality":"Bad Neuenahr-Ahrweiler","municipality":{"key":"07131007","name":"Bad Neuenahr-Ahrweiler, Stadt","type":"Stadt"},"district":{"key":"07131","name":"Ahrweiler","type":"Landkreis"},"federalState":{"key":"07","name":"Rheinland-Pfalz"}},{"name":"Johannisbergweg","postalCode":"53474","locality":"Bad Neuenahr-Ahrweiler","municipality":{"key":"07131007","name":"Bad Neuenahr-Ahrweiler, Stadt","type":"Stadt"},"district":{"key":"07131","name":"Ahrweiler","type":"Landkreis"},"federalState":{"key":"07","name":"Rheinland-Pfalz"}},{"name":"Johannisstr.","postalCode":"53474","locality":"Bad Neuenahr-Ahrweiler","municipality":{"key":"07131007","name":"Bad Neuenahr-Ahrweiler, Stadt","type":"Stadt"},"district":{"key":"07131","name":"Ahrweiler","type":"Landkreis"},"federalState":{"key":"07","name":"Rheinland-Pfalz"}},{"name":"Johanniswall","postalCode":"53474","locality":"Bad Neuenahr-Ahrweiler","municipality":{"key":"07131007","name":"Bad Neuenahr-Ahrweiler, Stadt","type":"Stadt"},"district":{"key":"07131","name":"Ahrweiler","type":"Landkreis"},"federalState":{"key":"07","name":"Rheinland-Pfalz"}},{"name":"Josef-Dickopf-Str.","postalCode":"53474","locality":"Bad Neuenahr-Ahrweiler","municipality":{"key":"07131007","name":"Bad Neuenahr-Ahrweiler, Stadt","type":"Stadt"},"district":{"key":"07131","name":"Ahrweiler","type":"Landkreis"},"federalState":{"key":"07","name":"Rheinland-Pfalz"}},{"name":"Josef-Schäfer-Weg","postalCode":"53474","locality":"Bad Neuenahr-Ahrweiler","municipality":{"key":"07131007","name":"Bad Neuenahr-Ahrweiler, Stadt","type":"Stadt"},"district":{"key":"07131","name":"Ahrweiler","type":"Landkreis"},"federalState":{"key":"07","name":"Rheinland-Pfalz"}},{"name":"Josefstr.","postalCode":"53474","locality":"Bad Neuenahr-Ahrweiler","municipality":{"key":"07131007","name":"Bad Neuenahr-Ahrweiler, Stadt","type":"Stadt"},"district":{"key":"07131","name":"Ahrweiler","type":"Landkreis"},"federalState":{"key":"07","name":"Rheinland-Pfalz"}},{"name":"Jülichstr.","postalCode":"53474","locality":"Bad Neuenahr-Ahrweiler","municipality":{"key":"07131007","name":"Bad Neuenahr-Ahrweiler, Stadt","type":"Stadt"},"district":{"key":"07131","name":"Ahrweiler","type":"Landkreis"},"federalState":{"key":"07","name":"Rheinland-Pfalz"}},{"name":"KiGa-Pfad","postalCode":"53520","locality":"Schuld","municipality":{"key":"07131074","name":"Schuld","type":"Kreisangehörige_Gemeinde"},"district":{"key":"07131","name":"Ahrweiler","type":"Landkreis"},"federalState":{"key":"07","name":"Rheinland-Pfalz"}},{"name":"L73","postalCode":"53520","locality":"Schuld","municipality":{"key":"07131074","name":"Schuld","type":"Kreisangehörige_Gemeinde"},"district":{"key":"07131","name":"Ahrweiler","type":"Landkreis"},"federalState":{"key":"07","name":"Rheinland-Pfalz"}},{"name":"Martinshöhe","postalCode":"53520","locality":"Schuld","municipality":{"key":"07131074","name":"Schuld","type":"Kreisangehörige_Gemeinde"},"district":{"key":"07131","name":"Ahrweiler","type":"Landkreis"},"federalState":{"key":"07","name":"Rheinland-Pfalz"}},{"name":"Martinsstr.","postalCode":"53520","locality":"Schuld","municipality":{"key":"07131074","name":"Schuld","type":"Kreisangehörige_Gemeinde"},"district":{"key":"07131","name":"Ahrweiler","type":"Landkreis"},"federalState":{"key":"07","name":"Rheinland-Pfalz"}},{"name":"Mühlenweg","postalCode":"53520","locality":"Schuld","municipality":{"key":"07131074","name":"Schuld","type":"Kreisangehörige_Gemeinde"},"district":{"key":"07131","name":"Ahrweiler","type":"Landkreis"},"federalState":{"key":"07","name":"Rheinland-Pfalz"}},{"name":"Münstereifeler Str.","postalCode":"53520","locality":"Schuld","municipality":{"key":"07131074","name":"Schuld","type":"Kreisangehörige_Gemeinde"},"district":{"key":"07131","name":"Ahrweiler","type":"Landkreis"},"federalState":{"key":"07","name":"Rheinland-Pfalz"}},{"name":"Nachtigallenschlag","postalCode":"53474","locality":"Bad Neuenahr-Ahrweiler","municipality":{"key":"07131007","name":"Bad Neuenahr-Ahrweiler, Stadt","type":"Stadt"},"district":{"key":"07131","name":"Ahrweiler","type":"Landkreis"},"federalState":{"key":"07","name":"Rheinland-Pfalz"}},{"name":"Nelkenweg","postalCode":"53474","locality":"Bad Neuenahr-Ahrweiler","municipality":{"key":"07131007","name":"Bad Neuenahr-Ahrweiler, Stadt","type":"Stadt"},"district":{"key":"07131","name":"Ahrweiler","type":"Landkreis"},"federalState":{"key":"07","name":"Rheinland-Pfalz"}},{"name":"Neuenahrer Str.","postalCode":"53474","locality":"Bad Neuenahr-Ahrweiler","municipality":{"key":"07131007","name":"Bad Neuenahr-Ahrweiler, Stadt","type":"Stadt"},"district":{"key":"07131","name":"Ahrweiler","type":"Landkreis"},"federalState":{"key":"07","name":"Rheinland-Pfalz"}},{"name":"Neuer Weg","postalCode":"53474","locality":"Bad Neuenahr-Ahrweiler","municipality":{"key":"07131007","name":"Bad Neuenahr-Ahrweiler, Stadt","type":"Stadt"},"district":{"key":"07131","name":"Ahrweiler","type":"Landkreis"},"federalState":{"key":"07","name":"Rheinland-Pfalz"}},{"name":"Niessen Weg","postalCode":"53474","locality":"Bad Neuenahr-Ahrweiler","municipality":{"key":"07131007","name":"Bad Neuenahr-Ahrweiler, Stadt","type":"Stadt"},"district":{"key":"07131","name":"Ahrweiler","type":"Landkreis"},"federalState":{"key":"07","name":"Rheinland-Pfalz"}},{"name":"Nikolaus-Bahles-Str.","postalCode":"53474","locality":"Bad Neuenahr-Ahrweiler","municipality":{"key":"07131007","name":"Bad Neuenahr-Ahrweiler, Stadt","type":"Stadt"},"district":{"key":"07131","name":"Ahrweiler","type":"Landkreis"},"federalState":{"key":"07","name":"Rheinland-Pfalz"}},{"name":"Nikolaus-Molitor-Str.","postalCode":"53474","locality":"Bad Neuenahr-Ahrweiler","municipality":{"key":"07131007","name":"Bad Neuenahr-Ahrweiler, Stadt","type":"Stadt"},"district":{"key":"07131","name":"Ahrweiler","type":"Landkreis"},"federalState":{"key":"07","name":"Rheinland-Pfalz"}},{"name":"Nordstr.","postalCode":"53474","locality":"Bad Neuenahr-Ahrweiler","municipality":{"key":"07131007","name":"Bad Neuenahr-Ahrweiler, Stadt","type":"Stadt"},"district":{"key":"07131","name":"Ahrweiler","type":"Landkreis"},"federalState":{"key":"07","name":"Rheinland-Pfalz"}},{"name":"Ober den Gärten","postalCode":"53474","locality":"Bad Neuenahr-Ahrweiler","municipality":{"key":"07131007","name":"Bad Neuenahr-Ahrweiler, Stadt","type":"Stadt"},"district":{"key":"07131","name":"Ahrweiler","type":"Landkreis"},"federalState":{"key":"07","name":"Rheinland-Pfalz"}},{"name":"Oberhutstr.","postalCode":"53474","locality":"Bad Neuenahr-Ahrweiler","municipality":{"key":"07131007","name":"Bad Neuenahr-Ahrweiler, Stadt","type":"Stadt"},"district":{"key":"07131","name":"Ahrweiler","type":"Landkreis"},"federalState":{"key":"07","name":"Rheinland-Pfalz"}},{"name":"Oberstr.","postalCode":"53474","locality":"Bad Neuenahr-Ahrweiler","municipality":{"key":"07131007","name":"Bad Neuenahr-Ahrweiler, Stadt","type":"Stadt"},"district":{"key":"07131","name":"Ahrweiler","type":"Landkreis"},"federalState":{"key":"07","name":"Rheinland-Pfalz"}},{"name":"Orsbeckstr.","postalCode":"53474","locality":"Bad Neuenahr-Ahrweiler","municipality":{"key":"07131007","name":"Bad Neuenahr-Ahrweiler, Stadt","type":"Stadt"},"district":{"key":"07131","name":"Ahrweiler","type":"Landkreis"},"federalState":{"key":"07","name":"Rheinland-Pfalz"}},{"name":"Oststr.","postalCode":"53474","locality":"Bad Neuenahr-Ahrweiler","municipality":{"key":"07131007","name":"Bad Neuenahr-Ahrweiler, Stadt","type":"Stadt"},"district":{"key":"07131","name":"Ahrweiler","type":"Landkreis"},"federalState":{"key":"07","name":"Rheinland-Pfalz"}},{"name":"Otlerstr.","postalCode":"53474","locality":"Bad Neuenahr-Ahrweiler","municipality":{"key":"07131007","name":"Bad Neuenahr-Ahrweiler, Stadt","type":"Stadt"},"district":{"key":"07131","name":"Ahrweiler","type":"Landkreis"},"federalState":{"key":"07","name":"Rheinland-Pfalz"}},{"name":"Pfad","postalCode":"53520","locality":"Schuld","municipality":{"key":"07131074","name":"Schuld","type":"Kreisangehörige_Gemeinde"},"district":{"key":"07131","name":"Ahrweiler","type":"Landkreis"},"federalState":{"key":"07","name":"Rheinland-Pfalz"}},{"name":"Quellenstr.","postalCode":"53474","locality":"Bad Neuenahr-Ahrweiler","municipality":{"key":"07131007","name":"Bad Neuenahr-Ahrweiler, Stadt","type":"Stadt"},"district":{"key":"07131","name":"Ahrweiler","type":"Landkreis"},"federalState":{"key":"07","name":"Rheinland-Pfalz"}},{"name":"Römerstr.","postalCode":"53520","locality":"Schuld","municipality":{"key":"07131074","name":"Schuld","type":"Kreisangehörige_Gemeinde"},"district":{"key":"07131","name":"Ahrweiler","type":"Landkreis"},"federalState":{"key":"07","name":"Rheinland-Pfalz"}},{"name":"Römerweg","postalCode":"53520","locality":"Schuld","municipality":{"key":"07131074","name":"Schuld","type":"Kreisangehörige_Gemeinde"},"district":{"key":"07131","name":"Ahrweiler","type":"Landkreis"},"federalState":{"key":"07","name":"Rheinland-Pfalz"}},{"name":"Ruppenberg Hangkantenpfad","postalCode":"53520","locality":"Schuld","municipality":{"key":"07131074","name":"Schuld","type":"Kreisangehörige_Gemeinde"},"district":{"key":"07131","name":"Ahrweiler","type":"Landkreis"},"federalState":{"key":"07","name":"Rheinland-Pfalz"}},{"name":"Schulstr.","postalCode":"53520","locality":"Schuld","municipality":{"key":"07131074","name":"Schuld","type":"Kreisangehörige_Gemeinde"},"district":{"key":"07131","name":"Ahrweiler","type":"Landkreis"},"federalState":{"key":"07","name":"Rheinland-Pfalz"}},{"name":"Talweg","postalCode":"53474","locality":"Bad Neuenahr-Ahrweiler","municipality":{"key":"07131007","name":"Bad Neuenahr-Ahrweiler, Stadt","type":"Stadt"},"district":{"key":"07131","name":"Ahrweiler","type":"Landkreis"},"federalState":{"key":"07","name":"Rheinland-Pfalz"}},{"name":"Tannenweg","postalCode":"53474","locality":"Bad Neuenahr-Ahrweiler","municipality":{"key":"07131007","name":"Bad Neuenahr-Ahrweiler, Stadt","type":"Stadt"},"district":{"key":"07131","name":"Ahrweiler","type":"Landkreis"},"federalState":{"key":"07","name":"Rheinland-Pfalz"}},{"name":"Taunusstr.","postalCode":"53474","locality":"Bad Neuenahr-Ahrweiler","municipality":{"key":"07131007","name":"Bad Neuenahr-Ahrweiler, Stadt","type":"Stadt"},"district":{"key":"07131","name":"Ahrweiler","type":"Landkreis"},"federalState":{"key":"07","name":"Rheinland-Pfalz"}},{"name":"Teichstr.","postalCode":"53474","locality":"Bad Neuenahr-Ahrweiler","municipality":{"key":"07131007","name":"Bad Neuenahr-Ahrweiler, Stadt","type":"Stadt"},"district":{"key":"07131","name":"Ahrweiler","type":"Landkreis"},"federalState":{"key":"07","name":"Rheinland-Pfalz"}},{"name":"Telegrafenstr.","postalCode":"53474","locality":"Bad Neuenahr-Ahrweiler","municipality":{"key":"07131007","name":"Bad Neuenahr-Ahrweiler, Stadt","type":"Stadt"},"district":{"key":"07131","name":"Ahrweiler","type":"Landkreis"},"federalState":{"key":"07","name":"Rheinland-Pfalz"}},{"name":"Theodor-Klein-Str.","postalCode":"53474","locality":"Bad Neuenahr-Ahrweiler","municipality":{"key":"07131007","name":"Bad Neuenahr-Ahrweiler, Stadt","type":"Stadt"},"district":{"key":"07131","name":"Ahrweiler","type":"Landkreis"},"federalState":{"key":"07","name":"Rheinland-Pfalz"}},{"name":"Thurgauer Str.","postalCode":"53474","locality":"Bad Neuenahr-Ahrweiler","municipality":{"key":"07131007","name":"Bad Neuenahr-Ahrweiler, Stadt","type":"Stadt"},"district":{"key":"07131","name":"Ahrweiler","type":"Landkreis"},"federalState":{"key":"07","name":"Rheinland-Pfalz"}},{"name":"Thurgauer Str. 10/1 - 10/7","postalCode":"53474","locality":"Bad Neuenahr-Ahrweiler","municipality":{"key":"07131007","name":"Bad Neuenahr-Ahrweiler, Stadt","type":"Stadt"},"district":{"key":"07131","name":"Ahrweiler","type":"Landkreis"},"federalState":{"key":"07","name":"Rheinland-Pfalz"}},{"name":"Thurgauer Str. 2/1 - 2/5","postalCode":"53474","locality":"Bad Neuenahr-Ahrweiler","municipality":{"key":"07131007","name":"Bad Neuenahr-Ahrweiler, Stadt","type":"Stadt"},"district":{"key":"07131","name":"Ahrweiler","type":"Landkreis"},"federalState":{"key":"07","name":"Rheinland-Pfalz"}},{"name":"Thurgauer Str. 8/1 - 8/7","postalCode":"53474","locality":"Bad Neuenahr-Ahrweiler","municipality":{"key":"07131007","name":"Bad Neuenahr-Ahrweiler, Stadt","type":"Stadt"},"district":{"key":"07131","name":"Ahrweiler","type":"Landkreis"},"federalState":{"key":"07","name":"Rheinland-Pfalz"}},{"name":"Tilsiter Str.","postalCode":"53474","locality":"Bad Neuenahr-Ahrweiler","municipality":{"key":"07131007","name":"Bad Neuenahr-Ahrweiler, Stadt","type":"Stadt"},"district":{"key":"07131","name":"Ahrweiler","type":"Landkreis"},"federalState":{"key":"07","name":"Rheinland-Pfalz"}},{"name":"Trümmerstr.","postalCode":"53474","locality":"Bad Neuenahr-Ahrweiler","municipality":{"key":"07131007","name":"Bad Neuenahr-Ahrweiler, Stadt","type":"Stadt"},"district":{"key":"07131","name":"Ahrweiler","type":"Landkreis"},"federalState":{"key":"07","name":"Rheinland-Pfalz"}},{"name":"Tulpenweg","postalCode":"53474","locality":"Bad Neuenahr-Ahrweiler","municipality":{"key":"07131007","name":"Bad Neuenahr-Ahrweiler, Stadt","type":"Stadt"},"district":{"key":"07131","name":"Ahrweiler","type":"Landkreis"},"federalState":{"key":"07","name":"Rheinland-Pfalz"}},{"name":"Uhlandstr.","postalCode":"53474","locality":"Bad Neuenahr-Ahrweiler","municipality":{"key":"07131007","name":"Bad Neuenahr-Ahrweiler, Stadt","type":"Stadt"},"district":{"key":"07131","name":"Ahrweiler","type":"Landkreis"},"federalState":{"key":"07","name":"Rheinland-Pfalz"}},{"name":"Ulmenweg","postalCode":"53474","locality":"Bad Neuenahr-Ahrweiler","municipality":{"key":"07131007","name":"Bad Neuenahr-Ahrweiler, Stadt","type":"Stadt"},"district":{"key":"07131","name":"Ahrweiler","type":"Landkreis"},"federalState":{"key":"07","name":"Rheinland-Pfalz"}},{"name":"Unterstr.","postalCode":"53474","locality":"Bad Neuenahr-Ahrweiler","municipality":{"key":"07131007","name":"Bad Neuenahr-Ahrweiler, Stadt","type":"Stadt"},"district":{"key":"07131","name":"Ahrweiler","type":"Landkreis"},"federalState":{"key":"07","name":"Rheinland-Pfalz"}},{"name":"Ursulinenstr.","postalCode":"53474","locality":"Bad Neuenahr-Ahrweiler","municipality":{"key":"07131007","name":"Bad Neuenahr-Ahrweiler, Stadt","type":"Stadt"},"district":{"key":"07131","name":"Ahrweiler","type":"Landkreis"},"federalState":{"key":"07","name":"Rheinland-Pfalz"}},{"name":"Vehner Weg","postalCode":"53474","locality":"Bad Neuenahr-Ahrweiler","municipality":{"key":"07131007","name":"Bad Neuenahr-Ahrweiler, Stadt","type":"Stadt"},"district":{"key":"07131","name":"Ahrweiler","type":"Landkreis"},"federalState":{"key":"07","name":"Rheinland-Pfalz"}},{"name":"Veltenstr.","postalCode":"53474","locality":"Bad Neuenahr-Ahrweiler","municipality":{"key":"07131007","name":"Bad Neuenahr-Ahrweiler, Stadt","type":"Stadt"},"district":{"key":"07131","name":"Ahrweiler","type":"Landkreis"},"federalState":{"key":"07","name":"Rheinland-Pfalz"}},{"name":"Vinxtweg","postalCode":"53474","locality":"Bad Neuenahr-Ahrweiler","municipality":{"key":"07131007","name":"Bad Neuenahr-Ahrweiler, Stadt","type":"Stadt"},"district":{"key":"07131","name":"Ahrweiler","type":"Landkreis"},"federalState":{"key":"07","name":"Rheinland-Pfalz"}},{"name":"Wadenheimer Platz","postalCode":"53474","locality":"Bad Neuenahr-Ahrweiler","municipality":{"key":"07131007","name":"Bad Neuenahr-Ahrweiler, Stadt","type":"Stadt"},"district":{"key":"07131","name":"Ahrweiler","type":"Landkreis"},"federalState":{"key":"07","name":"Rheinland-Pfalz"}},{"name":"Wadenheimer Str.","postalCode":"53474","locality":"Bad Neuenahr-Ahrweiler","municipality":{"key":"07131007","name":"Bad Neuenahr-Ahrweiler, Stadt","type":"Stadt"},"district":{"key":"07131","name":"Ahrweiler","type":"Landkreis"},"federalState":{"key":"07","name":"Rheinland-Pfalz"}},{"name":"Walburgisstr.","postalCode":"53474","locality":"Bad Neuenahr-Ahrweiler","municipality":{"key":"07131007","name":"Bad Neuenahr-Ahrweiler, Stadt","type":"Stadt"},"district":{"key":"07131","name":"Ahrweiler","type":"Landkreis"},"federalState":{"key":"07","name":"Rheinland-Pfalz"}},{"name":"Waldfestplatz Männerchor Bachem 1904 e.V.","postalCode":"53474","locality":"Bad Neuenahr-Ahrweiler","municipality":{"key":"07131007","name":"Bad Neuenahr-Ahrweiler, Stadt","type":"Stadt"},"district":{"key":"07131","name":"Ahrweiler","type":"Landkreis"},"federalState":{"key":"07","name":"Rheinland-Pfalz"}},{"name":"Waldstr.","postalCode":"53474","locality":"Bad Neuenahr-Ahrweiler","municipality":{"key":"07131007","name":"Bad Neuenahr-Ahrweiler, Stadt","type":"Stadt"},"district":{"key":"07131","name":"Ahrweiler","type":"Landkreis"},"federalState":{"key":"07","name":"Rheinland-Pfalz"}},{"name":"Walporzheimer Str.","postalCode":"53474","locality":"Bad Neuenahr-Ahrweiler","municipality":{"key":"07131007","name":"Bad Neuenahr-Ahrweiler, Stadt","type":"Stadt"},"district":{"key":"07131","name":"Ahrweiler","type":"Landkreis"},"federalState":{"key":"07","name":"Rheinland-Pfalz"}},{"name":"Wehrscheid","postalCode":"53474","locality":"Bad Neuenahr-Ahrweiler","municipality":{"key":"07131007","name":"Bad Neuenahr-Ahrweiler, Stadt","type":"Stadt"},"district":{"key":"07131","name":"Ahrweiler","type":"Landkreis"},"federalState":{"key":"07","name":"Rheinland-Pfalz"}},{"name":"Weinbergstr.","postalCode":"53474","locality":"Bad Neuenahr-Ahrweiler","municipality":{"key":"07131007","name":"Bad Neuenahr-Ahrweiler, Stadt","type":"Stadt"},"district":{"key":"07131","name":"Ahrweiler","type":"Landkreis"},"federalState":{"key":"07","name":"Rheinland-Pfalz"}},{"name":"Wendelstr.","postalCode":"53474","locality":"Bad Neuenahr-Ahrweiler","municipality":{"key":"07131007","name":"Bad Neuenahr-Ahrweiler, Stadt","type":"Stadt"},"district":{"key":"07131","name":"Ahrweiler","type":"Landkreis"},"federalState":{"key":"07","name":"Rheinland-Pfalz"}},{"name":"Werschbroichweg","postalCode":"53474","locality":"Bad Neuenahr-Ahrweiler","municipality":{"key":"07131007","name":"Bad Neuenahr-Ahrweiler, Stadt","type":"Stadt"},"district":{"key":"07131","name":"Ahrweiler","type":"Landkreis"},"federalState":{"key":"07","name":"Rheinland-Pfalz"}},{"name":"Westerwaldstr.","postalCode":"53474","locality":"Bad Neuenahr-Ahrweiler","municipality":{"key":"07131007","name":"Bad Neuenahr-Ahrweiler, Stadt","type":"Stadt"},"district":{"key":"07131","name":"Ahrweiler","type":"Landkreis"},"federalState":{"key":"07","name":"Rheinland-Pfalz"}},{"name":"Weststr.","postalCode":"53474","locality":"Bad Neuenahr-Ahrweiler","municipality":{"key":"07131007","name":"Bad Neuenahr-Ahrweiler, Stadt","type":"Stadt"},"district":{"key":"07131","name":"Ahrweiler","type":"Landkreis"},"federalState":{"key":"07","name":"Rheinland-Pfalz"}},{"name":"Wiesenweg","postalCode":"53474","locality":"Bad Neuenahr-Ahrweiler","municipality":{"key":"07131007","name":"Bad Neuenahr-Ahrweiler, Stadt","type":"Stadt"},"district":{"key":"07131","name":"Ahrweiler","type":"Landkreis"},"federalState":{"key":"07","name":"Rheinland-Pfalz"}},{"name":"Wilhelm-Söller-Str.","postalCode":"53474","locality":"Bad Neuenahr-Ahrweiler","municipality":{"key":"07131007","name":"Bad Neuenahr-Ahrweiler, Stadt","type":"Stadt"},"district":{"key":"07131","name":"Ahrweiler","type":"Landkreis"},"federalState":{"key":"07","name":"Rheinland-Pfalz"}},{"name":"Wilhelmstr.","postalCode":"53474","locality":"Bad Neuenahr-Ahrweiler","municipality":{"key":"07131007","name":"Bad Neuenahr-Ahrweiler, Stadt","type":"Stadt"},"district":{"key":"07131","name":"Ahrweiler","type":"Landkreis"},"federalState":{"key":"07","name":"Rheinland-Pfalz"}},{"name":"Willibrordusstr.","postalCode":"53474","locality":"Bad Neuenahr-Ahrweiler","municipality":{"key":"07131007","name":"Bad Neuenahr-Ahrweiler, Stadt","type":"Stadt"},"district":{"key":"07131","name":"Ahrweiler","type":"Landkreis"},"federalState":{"key":"07","name":"Rheinland-Pfalz"}},{"name":"Winzerplatz","postalCode":"53474","locality":"Bad Neuenahr-Ahrweiler","municipality":{"key":"07131007","name":"Bad Neuenahr-Ahrweiler, Stadt","type":"Stadt"},"district":{"key":"07131","name":"Ahrweiler","type":"Landkreis"},"federalState":{"key":"07","name":"Rheinland-Pfalz"}},{"name":"Winzerstr.","postalCode":"53474","locality":"Bad Neuenahr-Ahrweiler","municipality":{"key":"07131007","name":"Bad Neuenahr-Ahrweiler, Stadt","type":"Stadt"},"district":{"key":"07131","name":"Ahrweiler","type":"Landkreis"},"federalState":{"key":"07","name":"Rheinland-Pfalz"}},{"name":"Wolfgang-Müller-Str.","postalCode":"53474","locality":"Bad Neuenahr-Ahrweiler","municipality":{"key":"07131007","name":"Bad Neuenahr-Ahrweiler, Stadt","type":"Stadt"},"district":{"key":"07131","name":"Ahrweiler","type":"Landkreis"},"federalState":{"key":"07","name":"Rheinland-Pfalz"}},{"name":"Wolfsgäßchen","postalCode":"53474","locality":"Bad Neuenahr-Ahrweiler","municipality":{"key":"07131007","name":"Bad Neuenahr-Ahrweiler, Stadt","type":"Stadt"},"district":{"key":"07131","name":"Ahrweiler","type":"Landkreis"},"federalState":{"key":"07","name":"Rheinland-Pfalz"}},{"name":"Wolfsgasse","postalCode":"53474","locality":"Bad Neuenahr-Ahrweiler","municipality":{"key":"07131007","name":"Bad Neuenahr-Ahrweiler, Stadt","type":"Stadt"},"district":{"key":"07131","name":"Ahrweiler","type":"Landkreis"},"federalState":{"key":"07","name":"Rheinland-Pfalz"}},{"name":"Zum alten Gaswerk","postalCode":"53474","locality":"Bad Neuenahr-Ahrweiler","municipality":{"key":"07131007","name":"Bad Neuenahr-Ahrweiler, Stadt","type":"Stadt"},"district":{"key":"07131","name":"Ahrweiler","type":"Landkreis"},"federalState":{"key":"07","name":"Rheinland-Pfalz"}},{"name":"Zum Furthbrunnen","postalCode":"53474","locality":"Bad Neuenahr-Ahrweiler","municipality":{"key":"07131007","name":"Bad Neuenahr-Ahrweiler, Stadt","type":"Stadt"},"district":{"key":"07131","name":"Ahrweiler","type":"Landkreis"},"federalState":{"key":"07","name":"Rheinland-Pfalz"}},{"name":"Zum Gierschberg","postalCode":"53474","locality":"Bad Neuenahr-Ahrweiler","municipality":{"key":"07131007","name":"Bad Neuenahr-Ahrweiler, Stadt","type":"Stadt"},"district":{"key":"07131","name":"Ahrweiler","type":"Landkreis"},"federalState":{"key":"07","name":"Rheinland-Pfalz"}},]