[{"key":"10123878","name":"Berghof","postalCode":"5426","locality":"Lengnau AG","commune":{"key":"4312","name":"Lengnau (AG)","shortName":"Lengnau (AG)"},"district":{"key":"1911","name":"Bezirk Zurzach"},"canton":{"key":"19","code":"AG","name":"Aargau"},"status":"Real"},{"key":"10037975","name":"Bergstrasse","postalCode":"5426","locality":"Lengnau AG","commune":{"key":"4312","name":"Lengnau (AG)","shortName":"Lengnau (AG)"},"district":{"key":"1911","name":"Bezirk Zurzach"},"canton":{"key":"19","code":"AG","name":"Aargau"},"status":"Real"},{"key":"10072859","name":"Bifighof","postalCode":"5426","locality":"Lengnau AG","commune":{"key":"4312","name":"Lengnau (AG)","shortName":"Lengnau (AG)"},"district":{"key":"1911","name":"Bezirk Zurzach"},"canton":{"key":"19","code":"AG","name":"Aargau"},"status":"Real"},{"key":"10122716","name":"Birkenweg","postalCode":"5426","locality":"Lengnau AG","commune":{"key":"4312","name":"Lengnau (AG)","shortName":"Lengnau (AG)"},"district":{"key":"1911","name":"Bezirk Zurzach"},"canton":{"key":"19","code":"AG","name":"Aargau"},"status":"Real"},{"key":"10037976","name":"Blumenweg","postalCode":"5426","locality":"Lengnau AG","commune":{"key":"4312","name":"Lengnau (AG)","shortName":"Lengnau (AG)"},"district":{"key":"1911","name":"Bezirk Zurzach"},"canton":{"key":"19","code":"AG","name":"Aargau"},"status":"Real"},{"key":"10135507","name":"Bodenbachstrasse","postalCode":"5426","locality":"Lengnau AG","commune":{"key":"4312","name":"Lengnau (AG)","shortName":"Lengnau (AG)"},"district":{"key":"1911","name":"Bezirk Zurzach"},"canton":{"key":"19","code":"AG","name":"Aargau"},"status":"Real"},{"key":"10094826","name":"Bodenstrasse","postalCode":"5426","locality":"Lengnau AG","commune":{"key":"4312","name":"Lengnau (AG)","shortName":"Lengnau (AG)"},"district":{"key":"1911","name":"Bezirk Zurzach"},"canton":{"key":"19","code":"AG","name":"Aargau"},"status":"Real"},{"key":"10107075","name":"Brunnengasse","postalCode":"5426","locality":"Lengnau AG","commune":{"key":"4312","name":"Lengnau (AG)","shortName":"Lengnau (AG)"},"district":{"key":"1911","name":"Bezirk Zurzach"},"canton":{"key":"19","code":"AG","name":"Aargau"},"status":"Real"},{"key":"10072860","name":"Büelstrasse","postalCode":"5426","locality":"Lengnau AG","commune":{"key":"4312","name":"Lengnau (AG)","shortName":"Lengnau (AG)"},"district":{"key":"1911","name":"Bezirk Zurzach"},"canton":{"key":"19","code":"AG","name":"Aargau"},"status":"Real"},{"key":"10037977","name":"Chratzstrasse","postalCode":"5426","locality":"Lengnau AG","commune":{"key":"4312","name":"Lengnau (AG)","shortName":"Lengnau (AG)"},"district":{"key":"1911","name":"Bezirk Zurzach"},"canton":{"key":"19","code":"AG","name":"Aargau"},"status":"Real"},{"key":"10094827","name":"Chürzistrasse","postalCode":"5426","locality":"Lengnau AG","commune":{"key":"4312","name":"Lengnau (AG)","shortName":"Lengnau (AG)"},"district":{"key":"1911","name":"Bezirk Zurzach"},"canton":{"key":"19","code":"AG","name":"Aargau"},"status":"Real"},{"key":"10028082","name":"Dänkelbachweg","postalCode":"5426","locality":"Lengnau AG","commune":{"key":"4312","name":"Lengnau (AG)","shortName":"Lengnau (AG)"},"district":{"key":"1911","name":"Bezirk Zurzach"},"canton":{"key":"19","code":"AG","name":"Aargau"},"status":"Real"},{"key":"10037978","name":"Datteboolweg","postalCode":"5426","locality":"Lengnau AG","commune":{"key":"4312","name":"Lengnau (AG)","shortName":"Lengnau (AG)"},"district":{"key":"1911","name":"Bezirk Zurzach"},"canton":{"key":"19","code":"AG","name":"Aargau"},"status":"Real"},{"key":"10190263","name":"Degermoos","postalCode":"5426","locality":"Lengnau AG","commune":{"key":"4312","name":"Lengnau (AG)","shortName":"Lengnau (AG)"},"district":{"key":"1911","name":"Bezirk Zurzach"},"canton":{"key":"19","code":"AG","name":"Aargau"},"status":"Real"},{"key":"10109232","name":"Degermoosstrasse","postalCode":"5426","locality":"Lengnau AG","commune":{"key":"4312","name":"Lengnau (AG)","shortName":"Lengnau (AG)"},"district":{"key":"1911","name":"Bezirk Zurzach"},"canton":{"key":"19","code":"AG","name":"Aargau"},"status":"Real"},{"key":"10122326","name":"Eichlistrasse","postalCode":"5426","locality":"Lengnau AG","commune":{"key":"4312","name":"Lengnau (AG)","shortName":"Lengnau (AG)"},"district":{"key":"1911","name":"Bezirk Zurzach"},"canton":{"key":"19","code":"AG","name":"Aargau"},"status":"Real"},{"key":"10155530","name":"Euelgrabeweg","postalCode":"5426","locality":"Lengnau AG","commune":{"key":"4312","name":"Lengnau (AG)","shortName":"Lengnau (AG)"},"district":{"key":"1911","name":"Bezirk Zurzach"},"canton":{"key":"19","code":"AG","name":"Aargau"},"status":"Real"},{"key":"10059570","name":"Fluehof","postalCode":"5426","locality":"Lengnau AG","commune":{"key":"4312","name":"Lengnau (AG)","shortName":"Lengnau (AG)"},"district":{"key":"1911","name":"Bezirk Zurzach"},"canton":{"key":"19","code":"AG","name":"Aargau"},"status":"Real"},{"key":"10028083","name":"Flueweg","postalCode":"5426","locality":"Lengnau AG","commune":{"key":"4312","name":"Lengnau (AG)","shortName":"Lengnau (AG)"},"district":{"key":"1911","name":"Bezirk Zurzach"},"canton":{"key":"19","code":"AG","name":"Aargau"},"status":"Real"},{"key":"10028084","name":"Freienwilstrasse","postalCode":"5426","locality":"Lengnau AG","commune":{"key":"4312","name":"Lengnau (AG)","shortName":"Lengnau (AG)"},"district":{"key":"1911","name":"Bezirk Zurzach"},"canton":{"key":"19","code":"AG","name":"Aargau"},"status":"Real"},{"key":"10028085","name":"Friedhofweg","postalCode":"5426","locality":"Lengnau AG","commune":{"key":"4312","name":"Lengnau (AG)","shortName":"Lengnau (AG)"},"district":{"key":"1911","name":"Bezirk Zurzach"},"canton":{"key":"19","code":"AG","name":"Aargau"},"status":"Real"},{"key":"10111922","name":"Gewerbestrasse","postalCode":"5426","locality":"Lengnau AG","commune":{"key":"4312","name":"Lengnau (AG)","shortName":"Lengnau (AG)"},"district":{"key":"1911","name":"Bezirk Zurzach"},"canton":{"key":"19","code":"AG","name":"Aargau"},"status":"Real"},{"key":"10094828","name":"Grabenstrasse","postalCode":"5426","locality":"Lengnau AG","commune":{"key":"4312","name":"Lengnau (AG)","shortName":"Lengnau (AG)"},"district":{"key":"1911","name":"Bezirk Zurzach"},"canton":{"key":"19","code":"AG","name":"Aargau"},"status":"Real"},{"key":"10028086","name":"Hangstrasse","postalCode":"5426","locality":"Lengnau AG","commune":{"key":"4312","name":"Lengnau (AG)","shortName":"Lengnau (AG)"},"district":{"key":"1911","name":"Bezirk Zurzach"},"canton":{"key":"19","code":"AG","name":"Aargau"},"status":"Real"},{"key":"10190264","name":"Hengertstrasse","postalCode":"5426","locality":"Lengnau AG","commune":{"key":"4312","name":"Lengnau (AG)","shortName":"Lengnau (AG)"},"district":{"key":"1911","name":"Bezirk Zurzach"},"canton":{"key":"19","code":"AG","name":"Aargau"},"status":"Real"},{"key":"10124406","name":"Himmelrich","postalCode":"5426","locality":"Lengnau AG","commune":{"key":"4312","name":"Lengnau (AG)","shortName":"Lengnau (AG)"},"district":{"key":"1911","name":"Bezirk Zurzach"},"canton":{"key":"19","code":"AG","name":"Aargau"},"status":"Real"},{"key":"10072861","name":"Hofacherstrasse","postalCode":"5426","locality":"Lengnau AG","commune":{"key":"4312","name":"Lengnau (AG)","shortName":"Lengnau (AG)"},"district":{"key":"1911","name":"Bezirk Zurzach"},"canton":{"key":"19","code":"AG","name":"Aargau"},"status":"Real"},{"key":"10122717","name":"Höhenweg","postalCode":"5426","locality":"Lengnau AG","commune":{"key":"4312","name":"Lengnau (AG)","shortName":"Lengnau (AG)"},"district":{"key":"1911","name":"Bezirk Zurzach"},"canton":{"key":"19","code":"AG","name":"Aargau"},"status":"Real"},{"key":"10094829","name":"Huebweg","postalCode":"5426","locality":"Lengnau AG","commune":{"key":"4312","name":"Lengnau (AG)","shortName":"Lengnau (AG)"},"district":{"key":"1911","name":"Bezirk Zurzach"},"canton":{"key":"19","code":"AG","name":"Aargau"},"status":"Real"},{"key":"10028358","name":"Husen","postalCode":"5426","locality":"Lengnau AG","commune":{"key":"4312","name":"Lengnau (AG)","shortName":"Lengnau (AG)"},"district":{"key":"1911","name":"Bezirk Zurzach"},"canton":{"key":"19","code":"AG","name":"Aargau"},"status":"Real"},{"key":"10028359","name":"Kirchweg","postalCode":"5426","locality":"Lengnau AG","commune":{"key":"4312","name":"Lengnau (AG)","shortName":"Lengnau (AG)"},"district":{"key":"1911","name":"Bezirk Zurzach"},"canton":{"key":"19","code":"AG","name":"Aargau"},"status":"Real"},{"key":"10072862","name":"Landstrasse","postalCode":"5426","locality":"Lengnau AG","commune":{"key":"4312","name":"Lengnau (AG)","shortName":"Lengnau (AG)"},"district":{"key":"1911","name":"Bezirk Zurzach"},"canton":{"key":"19","code":"AG","name":"Aargau"},"status":"Real"},{"key":"10092815","name":"Lettenhof","postalCode":"5426","locality":"Lengnau AG","commune":{"key":"4312","name":"Lengnau (AG)","shortName":"Lengnau (AG)"},"district":{"key":"1911","name":"Bezirk Zurzach"},"canton":{"key":"19","code":"AG","name":"Aargau"},"status":"Real"},{"key":"10107076","name":"Mattenweg","postalCode":"5426","locality":"Lengnau AG","commune":{"key":"4312","name":"Lengnau (AG)","shortName":"Lengnau (AG)"},"district":{"key":"1911","name":"Bezirk Zurzach"},"canton":{"key":"19","code":"AG","name":"Aargau"},"status":"Real"},{"key":"10053274","name":"Meisenweg","postalCode":"5426","locality":"Lengnau AG","commune":{"key":"4312","name":"Lengnau (AG)","shortName":"Lengnau (AG)"},"district":{"key":"1911","name":"Bezirk Zurzach"},"canton":{"key":"19","code":"AG","name":"Aargau"},"status":"Real"},{"key":"10135508","name":"Moritzenstrasse","postalCode":"5426","locality":"Lengnau AG","commune":{"key":"4312","name":"Lengnau (AG)","shortName":"Lengnau (AG)"},"district":{"key":"1911","name":"Bezirk Zurzach"},"canton":{"key":"19","code":"AG","name":"Aargau"},"status":"Real"},{"key":"10028360","name":"Mühleweg","postalCode":"5426","locality":"Lengnau AG","commune":{"key":"4312","name":"Lengnau (AG)","shortName":"Lengnau (AG)"},"district":{"key":"1911","name":"Bezirk Zurzach"},"canton":{"key":"19","code":"AG","name":"Aargau"},"status":"Real"},{"key":"10239819","name":"Ortsverbindung","postalCode":"5426","locality":"Lengnau AG","commune":{"key":"4312","name":"Lengnau (AG)","shortName":"Lengnau (AG)"},"district":{"key":"1911","name":"Bezirk Zurzach"},"canton":{"key":"19","code":"AG","name":"Aargau"},"status":"Real"},{"key":"10028361","name":"Oststrasse","postalCode":"5426","locality":"Lengnau AG","commune":{"key":"4312","name":"Lengnau (AG)","shortName":"Lengnau (AG)"},"district":{"key":"1911","name":"Bezirk Zurzach"},"canton":{"key":"19","code":"AG","name":"Aargau"},"status":"Real"},{"key":"10028362","name":"Plattenhof","postalCode":"5426","locality":"Lengnau AG","commune":{"key":"4312","name":"Lengnau (AG)","shortName":"Lengnau (AG)"},"district":{"key":"1911","name":"Bezirk Zurzach"},"canton":{"key":"19","code":"AG","name":"Aargau"},"status":"Real"},{"key":"10051891","name":"Postweg","postalCode":"5426","locality":"Lengnau AG","commune":{"key":"4312","name":"Lengnau (AG)","shortName":"Lengnau (AG)"},"district":{"key":"1911","name":"Bezirk Zurzach"},"canton":{"key":"19","code":"AG","name":"Aargau"},"status":"Real"},{"key":"10059571","name":"Quellhof","postalCode":"5426","locality":"Lengnau AG","commune":{"key":"4312","name":"Lengnau (AG)","shortName":"Lengnau (AG)"},"district":{"key":"1911","name":"Bezirk Zurzach"},"canton":{"key":"19","code":"AG","name":"Aargau"},"status":"Real"},{"key":"10072863","name":"Rankhof","postalCode":"5426","locality":"Lengnau AG","commune":{"key":"4312","name":"Lengnau (AG)","shortName":"Lengnau (AG)"},"district":{"key":"1911","name":"Bezirk Zurzach"},"canton":{"key":"19","code":"AG","name":"Aargau"},"status":"Real"},{"key":"10117498","name":"Rankstrasse","postalCode":"5426","locality":"Lengnau AG","commune":{"key":"4312","name":"Lengnau (AG)","shortName":"Lengnau (AG)"},"district":{"key":"1911","name":"Bezirk Zurzach"},"canton":{"key":"19","code":"AG","name":"Aargau"},"status":"Real"},{"key":"10051892","name":"Rebenstrasse","postalCode":"5426","locality":"Lengnau AG","commune":{"key":"4312","name":"Lengnau (AG)","shortName":"Lengnau (AG)"},"district":{"key":"1911","name":"Bezirk Zurzach"},"canton":{"key":"19","code":"AG","name":"Aargau"},"status":"Real"},{"key":"10190265","name":"Rietwiesenstrasse","postalCode":"5426","locality":"Lengnau AG","commune":{"key":"4312","name":"Lengnau (AG)","shortName":"Lengnau (AG)"},"district":{"key":"1911","name":"Bezirk Zurzach"},"canton":{"key":"19","code":"AG","name":"Aargau"},"status":"Real"},{"key":"10139760","name":"Rosengärtliweg","postalCode":"5426","locality":"Lengnau AG","commune":{"key":"4312","name":"Lengnau (AG)","shortName":"Lengnau (AG)"},"district":{"key":"1911","name":"Bezirk Zurzach"},"canton":{"key":"19","code":"AG","name":"Aargau"},"status":"Real"},{"key":"10028363","name":"Rosenstrasse","postalCode":"5426","locality":"Lengnau AG","commune":{"key":"4312","name":"Lengnau (AG)","shortName":"Lengnau (AG)"},"district":{"key":"1911","name":"Bezirk Zurzach"},"canton":{"key":"19","code":"AG","name":"Aargau"},"status":"Real"},{"key":"10072864","name":"Schniderbüebliweg","postalCode":"5426","locality":"Lengnau AG","commune":{"key":"4312","name":"Lengnau (AG)","shortName":"Lengnau (AG)"},"district":{"key":"1911","name":"Bezirk Zurzach"},"canton":{"key":"19","code":"AG","name":"Aargau"},"status":"Real"},{"key":"10113699","name":"Schulstrasse","postalCode":"5426","locality":"Lengnau AG","commune":{"key":"4312","name":"Lengnau (AG)","shortName":"Lengnau (AG)"},"district":{"key":"1911","name":"Bezirk Zurzach"},"canton":{"key":"19","code":"AG","name":"Aargau"},"status":"Real"},{"key":"10107601","name":"Schützenhausweg","postalCode":"5426","locality":"Lengnau AG","commune":{"key":"4312","name":"Lengnau (AG)","shortName":"Lengnau (AG)"},"district":{"key":"1911","name":"Bezirk Zurzach"},"canton":{"key":"19","code":"AG","name":"Aargau"},"status":"Real"},{"key":"10092816","name":"Seilerstrasse","postalCode":"5426","locality":"Lengnau AG","commune":{"key":"4312","name":"Lengnau (AG)","shortName":"Lengnau (AG)"},"district":{"key":"1911","name":"Bezirk Zurzach"},"canton":{"key":"19","code":"AG","name":"Aargau"},"status":"Real"},{"key":"10028364","name":"Sonnenbüelweg","postalCode":"5426","locality":"Lengnau AG","commune":{"key":"4312","name":"Lengnau (AG)","shortName":"Lengnau (AG)"},"district":{"key":"1911","name":"Bezirk Zurzach"},"canton":{"key":"19","code":"AG","name":"Aargau"},"status":"Real"},{"key":"10051893","name":"Sonnenrainweg","postalCode":"5426","locality":"Lengnau AG","commune":{"key":"4312","name":"Lengnau (AG)","shortName":"Lengnau (AG)"},"district":{"key":"1911","name":"Bezirk Zurzach"},"canton":{"key":"19","code":"AG","name":"Aargau"},"status":"Real"},{"key":"10028365","name":"Spycherweg","postalCode":"5426","locality":"Lengnau AG","commune":{"key":"4312","name":"Lengnau (AG)","shortName":"Lengnau (AG)"},"district":{"key":"1911","name":"Bezirk Zurzach"},"canton":{"key":"19","code":"AG","name":"Aargau"},"status":"Real"},{"key":"10205092","name":"Steighofweg","postalCode":"5426","locality":"Lengnau AG","commune":{"key":"4312","name":"Lengnau (AG)","shortName":"Lengnau (AG)"},"district":{"key":"1911","name":"Bezirk Zurzach"},"canton":{"key":"19","code":"AG","name":"Aargau"},"status":"Real"},{"key":"10093093","name":"Steigstrasse","postalCode":"5426","locality":"Lengnau AG","commune":{"key":"4312","name":"Lengnau (AG)","shortName":"Lengnau (AG)"},"district":{"key":"1911","name":"Bezirk Zurzach"},"canton":{"key":"19","code":"AG","name":"Aargau"},"status":"Real"},{"key":"10150564","name":"Sternenstrasse","postalCode":"5426","locality":"Lengnau AG","commune":{"key":"4312","name":"Lengnau (AG)","shortName":"Lengnau (AG)"},"district":{"key":"1911","name":"Bezirk Zurzach"},"canton":{"key":"19","code":"AG","name":"Aargau"},"status":"Real"},{"key":"10209911","name":"Surbparkweg","postalCode":"5426","locality":"Lengnau AG","commune":{"key":"4312","name":"Lengnau (AG)","shortName":"Lengnau (AG)"},"district":{"key":"1911","name":"Bezirk Zurzach"},"canton":{"key":"19","code":"AG","name":"Aargau"},"status":"Real"},{"key":"10028366","name":"Surbtalstrasse","postalCode":"5426","locality":"Lengnau AG","commune":{"key":"4312","name":"Lengnau (AG)","shortName":"Lengnau (AG)"},"district":{"key":"1911","name":"Bezirk Zurzach"},"canton":{"key":"19","code":"AG","name":"Aargau"},"status":"Real"},{"key":"10132166","name":"Talacherhof","postalCode":"5426","locality":"Lengnau AG","commune":{"key":"4312","name":"Lengnau (AG)","shortName":"Lengnau (AG)"},"district":{"key":"1911","name":"Bezirk Zurzach"},"canton":{"key":"19","code":"AG","name":"Aargau"},"status":"Real"},{"key":"10028367","name":"Vogelsang","postalCode":"5426","locality":"Lengnau AG","commune":{"key":"4312","name":"Lengnau (AG)","shortName":"Lengnau (AG)"},"district":{"key":"1911","name":"Bezirk Zurzach"},"canton":{"key":"19","code":"AG","name":"Aargau"},"status":"Real"},{"key":"10186556","name":"Vogelsangstrasse","postalCode":"5426","locality":"Lengnau AG","commune":{"key":"4312","name":"Lengnau (AG)","shortName":"Lengnau (AG)"},"district":{"key":"1911","name":"Bezirk Zurzach"},"canton":{"key":"19","code":"AG","name":"Aargau"},"status":"Real"},{"key":"10093094","name":"Wannenhof","postalCode":"5426","locality":"Lengnau AG","commune":{"key":"4312","name":"Lengnau (AG)","shortName":"Lengnau (AG)"},"district":{"key":"1911","name":"Bezirk Zurzach"},"canton":{"key":"19","code":"AG","name":"Aargau"},"status":"Real"},{"key":"10210708","name":"Weidacherweg","postalCode":"5426","locality":"Lengnau AG","commune":{"key":"4312","name":"Lengnau (AG)","shortName":"Lengnau (AG)"},"district":{"key":"1911","name":"Bezirk Zurzach"},"canton":{"key":"19","code":"AG","name":"Aargau"},"status":"Real"},{"key":"10028368","name":"Weidstrasse","postalCode":"5426","locality":"Lengnau AG","commune":{"key":"4312","name":"Lengnau (AG)","shortName":"Lengnau (AG)"},"district":{"key":"1911","name":"Bezirk Zurzach"},"canton":{"key":"19","code":"AG","name":"Aargau"},"status":"Real"},{"key":"10189189","name":"Weststrasse","postalCode":"5426","locality":"Lengnau AG","commune":{"key":"4312","name":"Lengnau (AG)","shortName":"Lengnau (AG)"},"district":{"key":"1911","name":"Bezirk Zurzach"},"canton":{"key":"19","code":"AG","name":"Aargau"},"status":"Real"},{"key":"10051894","name":"Wiesenweg","postalCode":"5426","locality":"Lengnau AG","commune":{"key":"4312","name":"Lengnau (AG)","shortName":"Lengnau (AG)"},"district":{"key":"1911","name":"Bezirk Zurzach"},"canton":{"key":"19","code":"AG","name":"Aargau"},"status":"Real"},{"key":"10028369","name":"Winkelweg","postalCode":"5426","locality":"Lengnau AG","commune":{"key":"4312","name":"Lengnau (AG)","shortName":"Lengnau (AG)"},"district":{"key":"1911","name":"Bezirk Zurzach"},"canton":{"key":"19","code":"AG","name":"Aargau"},"status":"Real"},{"key":"10190266","name":"Wydenstrasse","postalCode":"5426","locality":"Lengnau AG","commune":{"key":"4312","name":"Lengnau (AG)","shortName":"Lengnau (AG)"},"district":{"key":"1911","name":"Bezirk Zurzach"},"canton":{"key":"19","code":"AG","name":"Aargau"},"status":"Real"},{"key":"10175226","name":"Zürichstrasse","postalCode":"5426","locality":"Lengnau AG","commune":{"key":"4312","name":"Lengnau (AG)","shortName":"Lengnau (AG)"},"district":{"key":"1911","name":"Bezirk Zurzach"},"canton":{"key":"19","code":"AG","name":"Aargau"},"status":"Real"},]