[{"name":"Adlerstr.","postalCode":"96149","locality":"Breitengüßbach","municipality":{"key":"09471119","name":"Breitengüßbach","type":"Kreisangehörige_Gemeinde"},"district":{"key":"09471","name":"Bamberg","type":"Landkreis"},"federalState":{"key":"09","name":"Bayern"}},{"name":"Ahornstr.","postalCode":"96149","locality":"Breitengüßbach","municipality":{"key":"09471119","name":"Breitengüßbach","type":"Kreisangehörige_Gemeinde"},"district":{"key":"09471","name":"Bamberg","type":"Landkreis"},"federalState":{"key":"09","name":"Bayern"}},{"name":"Am Birkenteich","postalCode":"96149","locality":"Breitengüßbach","municipality":{"key":"09471119","name":"Breitengüßbach","type":"Kreisangehörige_Gemeinde"},"district":{"key":"09471","name":"Bamberg","type":"Landkreis"},"federalState":{"key":"09","name":"Bayern"}},{"name":"Am Damm","postalCode":"96149","locality":"Breitengüßbach","municipality":{"key":"09471119","name":"Breitengüßbach","type":"Kreisangehörige_Gemeinde"},"district":{"key":"09471","name":"Bamberg","type":"Landkreis"},"federalState":{"key":"09","name":"Bayern"}},{"name":"Am Gehaid","postalCode":"96149","locality":"Breitengüßbach","municipality":{"key":"09471119","name":"Breitengüßbach","type":"Kreisangehörige_Gemeinde"},"district":{"key":"09471","name":"Bamberg","type":"Landkreis"},"federalState":{"key":"09","name":"Bayern"}},{"name":"Am Klingen","postalCode":"96149","locality":"Breitengüßbach","municipality":{"key":"09471119","name":"Breitengüßbach","type":"Kreisangehörige_Gemeinde"},"district":{"key":"09471","name":"Bamberg","type":"Landkreis"},"federalState":{"key":"09","name":"Bayern"}},{"name":"Am Mahd","postalCode":"96149","locality":"Breitengüßbach","municipality":{"key":"09471119","name":"Breitengüßbach","type":"Kreisangehörige_Gemeinde"},"district":{"key":"09471","name":"Bamberg","type":"Landkreis"},"federalState":{"key":"09","name":"Bayern"}},{"name":"Am Pfaffenbrunnen","postalCode":"96149","locality":"Breitengüßbach","municipality":{"key":"09471119","name":"Breitengüßbach","type":"Kreisangehörige_Gemeinde"},"district":{"key":"09471","name":"Bamberg","type":"Landkreis"},"federalState":{"key":"09","name":"Bayern"}},{"name":"Amselweg","postalCode":"96149","locality":"Breitengüßbach","municipality":{"key":"09471119","name":"Breitengüßbach","type":"Kreisangehörige_Gemeinde"},"district":{"key":"09471","name":"Bamberg","type":"Landkreis"},"federalState":{"key":"09","name":"Bayern"}},{"name":"Am Sportplatz","postalCode":"96149","locality":"Breitengüßbach","municipality":{"key":"09471119","name":"Breitengüßbach","type":"Kreisangehörige_Gemeinde"},"district":{"key":"09471","name":"Bamberg","type":"Landkreis"},"federalState":{"key":"09","name":"Bayern"}},{"name":"Auf der Warth","postalCode":"96149","locality":"Breitengüßbach","municipality":{"key":"09471119","name":"Breitengüßbach","type":"Kreisangehörige_Gemeinde"},"district":{"key":"09471","name":"Bamberg","type":"Landkreis"},"federalState":{"key":"09","name":"Bayern"}},{"name":"Austr.","postalCode":"96149","locality":"Breitengüßbach","municipality":{"key":"09471119","name":"Breitengüßbach","type":"Kreisangehörige_Gemeinde"},"district":{"key":"09471","name":"Bamberg","type":"Landkreis"},"federalState":{"key":"09","name":"Bayern"}},{"name":"Bachgasse","postalCode":"96149","locality":"Breitengüßbach","municipality":{"key":"09471119","name":"Breitengüßbach","type":"Kreisangehörige_Gemeinde"},"district":{"key":"09471","name":"Bamberg","type":"Landkreis"},"federalState":{"key":"09","name":"Bayern"}},{"name":"Bahnhofstr.","postalCode":"96149","locality":"Breitengüßbach","municipality":{"key":"09471119","name":"Breitengüßbach","type":"Kreisangehörige_Gemeinde"},"district":{"key":"09471","name":"Bamberg","type":"Landkreis"},"federalState":{"key":"09","name":"Bayern"}},{"name":"Bamberger Str.","postalCode":"96149","locality":"Breitengüßbach","municipality":{"key":"09471119","name":"Breitengüßbach","type":"Kreisangehörige_Gemeinde"},"district":{"key":"09471","name":"Bamberg","type":"Landkreis"},"federalState":{"key":"09","name":"Bayern"}},{"name":"Baunacher Str.","postalCode":"96149","locality":"Breitengüßbach","municipality":{"key":"09471119","name":"Breitengüßbach","type":"Kreisangehörige_Gemeinde"},"district":{"key":"09471","name":"Bamberg","type":"Landkreis"},"federalState":{"key":"09","name":"Bayern"}},{"name":"Bergstr.","postalCode":"96149","locality":"Breitengüßbach","municipality":{"key":"09471119","name":"Breitengüßbach","type":"Kreisangehörige_Gemeinde"},"district":{"key":"09471","name":"Bamberg","type":"Landkreis"},"federalState":{"key":"09","name":"Bayern"}},{"name":"Birkenweg","postalCode":"96149","locality":"Breitengüßbach","municipality":{"key":"09471119","name":"Breitengüßbach","type":"Kreisangehörige_Gemeinde"},"district":{"key":"09471","name":"Bamberg","type":"Landkreis"},"federalState":{"key":"09","name":"Bayern"}},{"name":"Brückenweg","postalCode":"96149","locality":"Breitengüßbach","municipality":{"key":"09471119","name":"Breitengüßbach","type":"Kreisangehörige_Gemeinde"},"district":{"key":"09471","name":"Bamberg","type":"Landkreis"},"federalState":{"key":"09","name":"Bayern"}},{"name":"Brunnenstr.","postalCode":"96149","locality":"Breitengüßbach","municipality":{"key":"09471119","name":"Breitengüßbach","type":"Kreisangehörige_Gemeinde"},"district":{"key":"09471","name":"Bamberg","type":"Landkreis"},"federalState":{"key":"09","name":"Bayern"}},{"name":"Buchenweg","postalCode":"96149","locality":"Breitengüßbach","municipality":{"key":"09471119","name":"Breitengüßbach","type":"Kreisangehörige_Gemeinde"},"district":{"key":"09471","name":"Bamberg","type":"Landkreis"},"federalState":{"key":"09","name":"Bayern"}},{"name":"Bühlstr.","postalCode":"96149","locality":"Breitengüßbach","municipality":{"key":"09471119","name":"Breitengüßbach","type":"Kreisangehörige_Gemeinde"},"district":{"key":"09471","name":"Bamberg","type":"Landkreis"},"federalState":{"key":"09","name":"Bayern"}},{"name":"Buntspechtweg","postalCode":"96149","locality":"Breitengüßbach","municipality":{"key":"09471119","name":"Breitengüßbach","type":"Kreisangehörige_Gemeinde"},"district":{"key":"09471","name":"Bamberg","type":"Landkreis"},"federalState":{"key":"09","name":"Bayern"}},{"name":"Carl-Schmolz-Weg","postalCode":"96049","locality":"Bamberg","municipality":{"key":"09461000","name":"Bamberg","type":"Kreisfreie_Stadt"},"district":{"key":"09461","name":"Bamberg","type":"Kreisfreie_Stadt"},"federalState":{"key":"09","name":"Bayern"}},{"name":"Cherbonhofstr.","postalCode":"96049","locality":"Bamberg","municipality":{"key":"09461000","name":"Bamberg","type":"Kreisfreie_Stadt"},"district":{"key":"09461","name":"Bamberg","type":"Kreisfreie_Stadt"},"federalState":{"key":"09","name":"Bayern"}},{"name":"Claviusstr.","postalCode":"96047","locality":"Bamberg","municipality":{"key":"09461000","name":"Bamberg","type":"Kreisfreie_Stadt"},"district":{"key":"09461","name":"Bamberg","type":"Kreisfreie_Stadt"},"federalState":{"key":"09","name":"Bayern"}},{"name":"Coburger Str.","postalCode":"96052","locality":"Bamberg","municipality":{"key":"09461000","name":"Bamberg","type":"Kreisfreie_Stadt"},"district":{"key":"09461","name":"Bamberg","type":"Kreisfreie_Stadt"},"federalState":{"key":"09","name":"Bayern"}},{"name":"Concordiastr.","postalCode":"96049","locality":"Bamberg","municipality":{"key":"09461000","name":"Bamberg","type":"Kreisfreie_Stadt"},"district":{"key":"09461","name":"Bamberg","type":"Kreisfreie_Stadt"},"federalState":{"key":"09","name":"Bayern"}},{"name":"Distelweg","postalCode":"96149","locality":"Breitengüßbach","municipality":{"key":"09471119","name":"Breitengüßbach","type":"Kreisangehörige_Gemeinde"},"district":{"key":"09471","name":"Bamberg","type":"Landkreis"},"federalState":{"key":"09","name":"Bayern"}},{"name":"Dorfplatz","postalCode":"96149","locality":"Breitengüßbach","municipality":{"key":"09471119","name":"Breitengüßbach","type":"Kreisangehörige_Gemeinde"},"district":{"key":"09471","name":"Bamberg","type":"Landkreis"},"federalState":{"key":"09","name":"Bayern"}},{"name":"Dörnleinsweg","postalCode":"96149","locality":"Breitengüßbach","municipality":{"key":"09471119","name":"Breitengüßbach","type":"Kreisangehörige_Gemeinde"},"district":{"key":"09471","name":"Bamberg","type":"Landkreis"},"federalState":{"key":"09","name":"Bayern"}},{"name":"Efeustr.","postalCode":"96149","locality":"Breitengüßbach","municipality":{"key":"09471119","name":"Breitengüßbach","type":"Kreisangehörige_Gemeinde"},"district":{"key":"09471","name":"Bamberg","type":"Landkreis"},"federalState":{"key":"09","name":"Bayern"}},{"name":"Eichenweg","postalCode":"96149","locality":"Breitengüßbach","municipality":{"key":"09471119","name":"Breitengüßbach","type":"Kreisangehörige_Gemeinde"},"district":{"key":"09471","name":"Bamberg","type":"Landkreis"},"federalState":{"key":"09","name":"Bayern"}},{"name":"Erlein","postalCode":"96149","locality":"Breitengüßbach","municipality":{"key":"09471119","name":"Breitengüßbach","type":"Kreisangehörige_Gemeinde"},"district":{"key":"09471","name":"Bamberg","type":"Landkreis"},"federalState":{"key":"09","name":"Bayern"}},{"name":"Falkenstr.","postalCode":"96149","locality":"Breitengüßbach","municipality":{"key":"09471119","name":"Breitengüßbach","type":"Kreisangehörige_Gemeinde"},"district":{"key":"09471","name":"Bamberg","type":"Landkreis"},"federalState":{"key":"09","name":"Bayern"}},{"name":"Fasanenweg","postalCode":"96149","locality":"Breitengüßbach","municipality":{"key":"09471119","name":"Breitengüßbach","type":"Kreisangehörige_Gemeinde"},"district":{"key":"09471","name":"Bamberg","type":"Landkreis"},"federalState":{"key":"09","name":"Bayern"}},{"name":"Fichtenweg","postalCode":"96149","locality":"Breitengüßbach","municipality":{"key":"09471119","name":"Breitengüßbach","type":"Kreisangehörige_Gemeinde"},"district":{"key":"09471","name":"Bamberg","type":"Landkreis"},"federalState":{"key":"09","name":"Bayern"}},{"name":"Finkenweg","postalCode":"96149","locality":"Breitengüßbach","municipality":{"key":"09471119","name":"Breitengüßbach","type":"Kreisangehörige_Gemeinde"},"district":{"key":"09471","name":"Bamberg","type":"Landkreis"},"federalState":{"key":"09","name":"Bayern"}},{"name":"Fliederweg","postalCode":"96149","locality":"Breitengüßbach","municipality":{"key":"09471119","name":"Breitengüßbach","type":"Kreisangehörige_Gemeinde"},"district":{"key":"09471","name":"Bamberg","type":"Landkreis"},"federalState":{"key":"09","name":"Bayern"}},{"name":"Friedhofweg","postalCode":"96149","locality":"Breitengüßbach","municipality":{"key":"09471119","name":"Breitengüßbach","type":"Kreisangehörige_Gemeinde"},"district":{"key":"09471","name":"Bamberg","type":"Landkreis"},"federalState":{"key":"09","name":"Bayern"}},{"name":"Gartenstr.","postalCode":"96149","locality":"Breitengüßbach","municipality":{"key":"09471119","name":"Breitengüßbach","type":"Kreisangehörige_Gemeinde"},"district":{"key":"09471","name":"Bamberg","type":"Landkreis"},"federalState":{"key":"09","name":"Bayern"}},{"name":"Giechburgblick","postalCode":"96149","locality":"Breitengüßbach","municipality":{"key":"09471119","name":"Breitengüßbach","type":"Kreisangehörige_Gemeinde"},"district":{"key":"09471","name":"Bamberg","type":"Landkreis"},"federalState":{"key":"09","name":"Bayern"}},{"name":"Ginsterweg","postalCode":"96149","locality":"Breitengüßbach","municipality":{"key":"09471119","name":"Breitengüßbach","type":"Kreisangehörige_Gemeinde"},"district":{"key":"09471","name":"Bamberg","type":"Landkreis"},"federalState":{"key":"09","name":"Bayern"}},{"name":"Grabenstr.","postalCode":"96149","locality":"Breitengüßbach","municipality":{"key":"09471119","name":"Breitengüßbach","type":"Kreisangehörige_Gemeinde"},"district":{"key":"09471","name":"Bamberg","type":"Landkreis"},"federalState":{"key":"09","name":"Bayern"}},{"name":"Grünes Tal","postalCode":"96149","locality":"Breitengüßbach","municipality":{"key":"09471119","name":"Breitengüßbach","type":"Kreisangehörige_Gemeinde"},"district":{"key":"09471","name":"Bamberg","type":"Landkreis"},"federalState":{"key":"09","name":"Bayern"}},{"name":"Hahnweg","postalCode":"96149","locality":"Breitengüßbach","municipality":{"key":"09471119","name":"Breitengüßbach","type":"Kreisangehörige_Gemeinde"},"district":{"key":"09471","name":"Bamberg","type":"Landkreis"},"federalState":{"key":"09","name":"Bayern"}},{"name":"Hauptstr.","postalCode":"96149","locality":"Breitengüßbach","municipality":{"key":"09471119","name":"Breitengüßbach","type":"Kreisangehörige_Gemeinde"},"district":{"key":"09471","name":"Bamberg","type":"Landkreis"},"federalState":{"key":"09","name":"Bayern"}},{"name":"Hennigstr.","postalCode":"96149","locality":"Breitengüßbach","municipality":{"key":"09471119","name":"Breitengüßbach","type":"Kreisangehörige_Gemeinde"},"district":{"key":"09471","name":"Bamberg","type":"Landkreis"},"federalState":{"key":"09","name":"Bayern"}},{"name":"Hohengüßbacher Str.","postalCode":"96149","locality":"Breitengüßbach","municipality":{"key":"09471119","name":"Breitengüßbach","type":"Kreisangehörige_Gemeinde"},"district":{"key":"09471","name":"Bamberg","type":"Landkreis"},"federalState":{"key":"09","name":"Bayern"}},{"name":"Höhenweg","postalCode":"96149","locality":"Breitengüßbach","municipality":{"key":"09471119","name":"Breitengüßbach","type":"Kreisangehörige_Gemeinde"},"district":{"key":"09471","name":"Bamberg","type":"Landkreis"},"federalState":{"key":"09","name":"Bayern"}},{"name":"Holunderstr.","postalCode":"96149","locality":"Breitengüßbach","municipality":{"key":"09471119","name":"Breitengüßbach","type":"Kreisangehörige_Gemeinde"},"district":{"key":"09471","name":"Bamberg","type":"Landkreis"},"federalState":{"key":"09","name":"Bayern"}},{"name":"Im Grund","postalCode":"96149","locality":"Breitengüßbach","municipality":{"key":"09471119","name":"Breitengüßbach","type":"Kreisangehörige_Gemeinde"},"district":{"key":"09471","name":"Bamberg","type":"Landkreis"},"federalState":{"key":"09","name":"Bayern"}},{"name":"Im Gründel","postalCode":"96149","locality":"Breitengüßbach","municipality":{"key":"09471119","name":"Breitengüßbach","type":"Kreisangehörige_Gemeinde"},"district":{"key":"09471","name":"Bamberg","type":"Landkreis"},"federalState":{"key":"09","name":"Bayern"}},{"name":"Im Herrengrund","postalCode":"96149","locality":"Breitengüßbach","municipality":{"key":"09471119","name":"Breitengüßbach","type":"Kreisangehörige_Gemeinde"},"district":{"key":"09471","name":"Bamberg","type":"Landkreis"},"federalState":{"key":"09","name":"Bayern"}},{"name":"Jägergasse","postalCode":"96149","locality":"Breitengüßbach","municipality":{"key":"09471119","name":"Breitengüßbach","type":"Kreisangehörige_Gemeinde"},"district":{"key":"09471","name":"Bamberg","type":"Landkreis"},"federalState":{"key":"09","name":"Bayern"}},{"name":"Kapellenstr.","postalCode":"96149","locality":"Breitengüßbach","municipality":{"key":"09471119","name":"Breitengüßbach","type":"Kreisangehörige_Gemeinde"},"district":{"key":"09471","name":"Bamberg","type":"Landkreis"},"federalState":{"key":"09","name":"Bayern"}},{"name":"Kemmerer Weg","postalCode":"96149","locality":"Breitengüßbach","municipality":{"key":"09471119","name":"Breitengüßbach","type":"Kreisangehörige_Gemeinde"},"district":{"key":"09471","name":"Bamberg","type":"Landkreis"},"federalState":{"key":"09","name":"Bayern"}},{"name":"Kirchplatz","postalCode":"96149","locality":"Breitengüßbach","municipality":{"key":"09471119","name":"Breitengüßbach","type":"Kreisangehörige_Gemeinde"},"district":{"key":"09471","name":"Bamberg","type":"Landkreis"},"federalState":{"key":"09","name":"Bayern"}},{"name":"Kirchsteig","postalCode":"96149","locality":"Breitengüßbach","municipality":{"key":"09471119","name":"Breitengüßbach","type":"Kreisangehörige_Gemeinde"},"district":{"key":"09471","name":"Bamberg","type":"Landkreis"},"federalState":{"key":"09","name":"Bayern"}},{"name":"Klingenstr.","postalCode":"96149","locality":"Breitengüßbach","municipality":{"key":"09471119","name":"Breitengüßbach","type":"Kreisangehörige_Gemeinde"},"district":{"key":"09471","name":"Bamberg","type":"Landkreis"},"federalState":{"key":"09","name":"Bayern"}},{"name":"Lavendelweg","postalCode":"96149","locality":"Breitengüßbach","municipality":{"key":"09471119","name":"Breitengüßbach","type":"Kreisangehörige_Gemeinde"},"district":{"key":"09471","name":"Bamberg","type":"Landkreis"},"federalState":{"key":"09","name":"Bayern"}},{"name":"Leite","postalCode":"96149","locality":"Breitengüßbach","municipality":{"key":"09471119","name":"Breitengüßbach","type":"Kreisangehörige_Gemeinde"},"district":{"key":"09471","name":"Bamberg","type":"Landkreis"},"federalState":{"key":"09","name":"Bayern"}},{"name":"Leonhardstr.","postalCode":"96149","locality":"Breitengüßbach","municipality":{"key":"09471119","name":"Breitengüßbach","type":"Kreisangehörige_Gemeinde"},"district":{"key":"09471","name":"Bamberg","type":"Landkreis"},"federalState":{"key":"09","name":"Bayern"}},{"name":"Lerchenweg","postalCode":"96149","locality":"Breitengüßbach","municipality":{"key":"09471119","name":"Breitengüßbach","type":"Kreisangehörige_Gemeinde"},"district":{"key":"09471","name":"Bamberg","type":"Landkreis"},"federalState":{"key":"09","name":"Bayern"}},{"name":"Lichtenfelser Str.","postalCode":"96149","locality":"Breitengüßbach","municipality":{"key":"09471119","name":"Breitengüßbach","type":"Kreisangehörige_Gemeinde"},"district":{"key":"09471","name":"Bamberg","type":"Landkreis"},"federalState":{"key":"09","name":"Bayern"}},{"name":"Ligusterstr.","postalCode":"96149","locality":"Breitengüßbach","municipality":{"key":"09471119","name":"Breitengüßbach","type":"Kreisangehörige_Gemeinde"},"district":{"key":"09471","name":"Bamberg","type":"Landkreis"},"federalState":{"key":"09","name":"Bayern"}},{"name":"Lindenstr.","postalCode":"96149","locality":"Breitengüßbach","municipality":{"key":"09471119","name":"Breitengüßbach","type":"Kreisangehörige_Gemeinde"},"district":{"key":"09471","name":"Bamberg","type":"Landkreis"},"federalState":{"key":"09","name":"Bayern"}},{"name":"Maintalstr.","postalCode":"96149","locality":"Breitengüßbach","municipality":{"key":"09471119","name":"Breitengüßbach","type":"Kreisangehörige_Gemeinde"},"district":{"key":"09471","name":"Bamberg","type":"Landkreis"},"federalState":{"key":"09","name":"Bayern"}},{"name":"Meisenweg","postalCode":"96149","locality":"Breitengüßbach","municipality":{"key":"09471119","name":"Breitengüßbach","type":"Kreisangehörige_Gemeinde"},"district":{"key":"09471","name":"Bamberg","type":"Landkreis"},"federalState":{"key":"09","name":"Bayern"}},{"name":"Mittelweg","postalCode":"96149","locality":"Breitengüßbach","municipality":{"key":"09471119","name":"Breitengüßbach","type":"Kreisangehörige_Gemeinde"},"district":{"key":"09471","name":"Bamberg","type":"Landkreis"},"federalState":{"key":"09","name":"Bayern"}},{"name":"Moosberg","postalCode":"96149","locality":"Breitengüßbach","municipality":{"key":"09471119","name":"Breitengüßbach","type":"Kreisangehörige_Gemeinde"},"district":{"key":"09471","name":"Bamberg","type":"Landkreis"},"federalState":{"key":"09","name":"Bayern"}},{"name":"Mühlanger","postalCode":"96149","locality":"Breitengüßbach","municipality":{"key":"09471119","name":"Breitengüßbach","type":"Kreisangehörige_Gemeinde"},"district":{"key":"09471","name":"Bamberg","type":"Landkreis"},"federalState":{"key":"09","name":"Bayern"}},{"name":"Mühlschutzweg","postalCode":"96149","locality":"Breitengüßbach","municipality":{"key":"09471119","name":"Breitengüßbach","type":"Kreisangehörige_Gemeinde"},"district":{"key":"09471","name":"Bamberg","type":"Landkreis"},"federalState":{"key":"09","name":"Bayern"}},{"name":"Nassachstr.","postalCode":"96149","locality":"Breitengüßbach","municipality":{"key":"09471119","name":"Breitengüßbach","type":"Kreisangehörige_Gemeinde"},"district":{"key":"09471","name":"Bamberg","type":"Landkreis"},"federalState":{"key":"09","name":"Bayern"}},{"name":"Nikolausstr.","postalCode":"96149","locality":"Breitengüßbach","municipality":{"key":"09471119","name":"Breitengüßbach","type":"Kreisangehörige_Gemeinde"},"district":{"key":"09471","name":"Bamberg","type":"Landkreis"},"federalState":{"key":"09","name":"Bayern"}},{"name":"Obere Watt","postalCode":"96149","locality":"Breitengüßbach","municipality":{"key":"09471119","name":"Breitengüßbach","type":"Kreisangehörige_Gemeinde"},"district":{"key":"09471","name":"Bamberg","type":"Landkreis"},"federalState":{"key":"09","name":"Bayern"}},{"name":"Panzerleite","postalCode":"96049","locality":"Bamberg","municipality":{"key":"09461000","name":"Bamberg","type":"Kreisfreie_Stadt"},"district":{"key":"09461","name":"Bamberg","type":"Kreisfreie_Stadt"},"federalState":{"key":"09","name":"Bayern"}},{"name":"Paracelsusstr.","postalCode":"96049","locality":"Bamberg","municipality":{"key":"09461000","name":"Bamberg","type":"Kreisfreie_Stadt"},"district":{"key":"09461","name":"Bamberg","type":"Kreisfreie_Stadt"},"federalState":{"key":"09","name":"Bayern"}},{"name":"Paradiesweg","postalCode":"96049","locality":"Bamberg","municipality":{"key":"09461000","name":"Bamberg","type":"Kreisfreie_Stadt"},"district":{"key":"09461","name":"Bamberg","type":"Kreisfreie_Stadt"},"federalState":{"key":"09","name":"Bayern"}},{"name":"Paul-Keller-Ring","postalCode":"96052","locality":"Bamberg","municipality":{"key":"09461000","name":"Bamberg","type":"Kreisfreie_Stadt"},"district":{"key":"09461","name":"Bamberg","type":"Kreisfreie_Stadt"},"federalState":{"key":"09","name":"Bayern"}},{"name":"Pelzmühlweg","postalCode":"96049","locality":"Bamberg","municipality":{"key":"09461000","name":"Bamberg","type":"Kreisfreie_Stadt"},"district":{"key":"09461","name":"Bamberg","type":"Kreisfreie_Stadt"},"federalState":{"key":"09","name":"Bayern"}},{"name":"Pestalozzistr.","postalCode":"96052","locality":"Bamberg","municipality":{"key":"09461000","name":"Bamberg","type":"Kreisfreie_Stadt"},"district":{"key":"09461","name":"Bamberg","type":"Kreisfreie_Stadt"},"federalState":{"key":"09","name":"Bayern"}},{"name":"Peter-Link-Str.","postalCode":"96049","locality":"Bamberg","municipality":{"key":"09461000","name":"Bamberg","type":"Kreisfreie_Stadt"},"district":{"key":"09461","name":"Bamberg","type":"Kreisfreie_Stadt"},"federalState":{"key":"09","name":"Bayern"}},{"name":"Peter-Schneider-Str.","postalCode":"96049","locality":"Bamberg","municipality":{"key":"09461000","name":"Bamberg","type":"Kreisfreie_Stadt"},"district":{"key":"09461","name":"Bamberg","type":"Kreisfreie_Stadt"},"federalState":{"key":"09","name":"Bayern"}},{"name":"Petrinistr.","postalCode":"96052","locality":"Bamberg","municipality":{"key":"09461000","name":"Bamberg","type":"Kreisfreie_Stadt"},"district":{"key":"09461","name":"Bamberg","type":"Kreisfreie_Stadt"},"federalState":{"key":"09","name":"Bayern"}},{"name":"Peuntstr.","postalCode":"96050","locality":"Bamberg","municipality":{"key":"09461000","name":"Bamberg","type":"Kreisfreie_Stadt"},"district":{"key":"09461","name":"Bamberg","type":"Kreisfreie_Stadt"},"federalState":{"key":"09","name":"Bayern"}},{"name":"Pfahlplätzchen","postalCode":"96049","locality":"Bamberg","municipality":{"key":"09461000","name":"Bamberg","type":"Kreisfreie_Stadt"},"district":{"key":"09461","name":"Bamberg","type":"Kreisfreie_Stadt"},"federalState":{"key":"09","name":"Bayern"}},{"name":"Pfarrfeldstr.","postalCode":"96050","locality":"Bamberg","municipality":{"key":"09461000","name":"Bamberg","type":"Kreisfreie_Stadt"},"district":{"key":"09461","name":"Bamberg","type":"Kreisfreie_Stadt"},"federalState":{"key":"09","name":"Bayern"}},{"name":"Pfarrfeldstr.","postalCode":"96052","locality":"Bamberg","municipality":{"key":"09461000","name":"Bamberg","type":"Kreisfreie_Stadt"},"district":{"key":"09461","name":"Bamberg","type":"Kreisfreie_Stadt"},"federalState":{"key":"09","name":"Bayern"}},{"name":"Pfeuferstr.","postalCode":"96047","locality":"Bamberg","municipality":{"key":"09461000","name":"Bamberg","type":"Kreisfreie_Stadt"},"district":{"key":"09461","name":"Bamberg","type":"Kreisfreie_Stadt"},"federalState":{"key":"09","name":"Bayern"}},{"name":"Pfisterstr.","postalCode":"96050","locality":"Bamberg","municipality":{"key":"09461000","name":"Bamberg","type":"Kreisfreie_Stadt"},"district":{"key":"09461","name":"Bamberg","type":"Kreisfreie_Stadt"},"federalState":{"key":"09","name":"Bayern"}},{"name":"Platanenallee","postalCode":"96050","locality":"Bamberg","municipality":{"key":"09461000","name":"Bamberg","type":"Kreisfreie_Stadt"},"district":{"key":"09461","name":"Bamberg","type":"Kreisfreie_Stadt"},"federalState":{"key":"09","name":"Bayern"}},{"name":"Pleinserhof","postalCode":"96052","locality":"Bamberg","municipality":{"key":"09461000","name":"Bamberg","type":"Kreisfreie_Stadt"},"district":{"key":"09461","name":"Bamberg","type":"Kreisfreie_Stadt"},"federalState":{"key":"09","name":"Bayern"}},{"name":"Pödeldorfer Str.","postalCode":"96050","locality":"Bamberg","municipality":{"key":"09461000","name":"Bamberg","type":"Kreisfreie_Stadt"},"district":{"key":"09461","name":"Bamberg","type":"Kreisfreie_Stadt"},"federalState":{"key":"09","name":"Bayern"}},{"name":"Promenadestr.","postalCode":"96047","locality":"Bamberg","municipality":{"key":"09461000","name":"Bamberg","type":"Kreisfreie_Stadt"},"district":{"key":"09461","name":"Bamberg","type":"Kreisfreie_Stadt"},"federalState":{"key":"09","name":"Bayern"}},{"name":"Rattelsdorfer Str.","postalCode":"96149","locality":"Breitengüßbach","municipality":{"key":"09471119","name":"Breitengüßbach","type":"Kreisangehörige_Gemeinde"},"district":{"key":"09471","name":"Bamberg","type":"Landkreis"},"federalState":{"key":"09","name":"Bayern"}},{"name":"Rosenweg","postalCode":"96149","locality":"Breitengüßbach","municipality":{"key":"09471119","name":"Breitengüßbach","type":"Kreisangehörige_Gemeinde"},"district":{"key":"09471","name":"Bamberg","type":"Landkreis"},"federalState":{"key":"09","name":"Bayern"}},{"name":"Sandstr.","postalCode":"96149","locality":"Breitengüßbach","municipality":{"key":"09471119","name":"Breitengüßbach","type":"Kreisangehörige_Gemeinde"},"district":{"key":"09471","name":"Bamberg","type":"Landkreis"},"federalState":{"key":"09","name":"Bayern"}},{"name":"Schlehenstr.","postalCode":"96149","locality":"Breitengüßbach","municipality":{"key":"09471119","name":"Breitengüßbach","type":"Kreisangehörige_Gemeinde"},"district":{"key":"09471","name":"Bamberg","type":"Landkreis"},"federalState":{"key":"09","name":"Bayern"}},{"name":"Schmiedsgasse","postalCode":"96149","locality":"Breitengüßbach","municipality":{"key":"09471119","name":"Breitengüßbach","type":"Kreisangehörige_Gemeinde"},"district":{"key":"09471","name":"Bamberg","type":"Landkreis"},"federalState":{"key":"09","name":"Bayern"}},{"name":"Schöpferweg","postalCode":"96149","locality":"Breitengüßbach","municipality":{"key":"09471119","name":"Breitengüßbach","type":"Kreisangehörige_Gemeinde"},"district":{"key":"09471","name":"Bamberg","type":"Landkreis"},"federalState":{"key":"09","name":"Bayern"}},{"name":"Schulstr.","postalCode":"96149","locality":"Breitengüßbach","municipality":{"key":"09471119","name":"Breitengüßbach","type":"Kreisangehörige_Gemeinde"},"district":{"key":"09471","name":"Bamberg","type":"Landkreis"},"federalState":{"key":"09","name":"Bayern"}},{"name":"Schützenstr.","postalCode":"96149","locality":"Breitengüßbach","municipality":{"key":"09471119","name":"Breitengüßbach","type":"Kreisangehörige_Gemeinde"},"district":{"key":"09471","name":"Bamberg","type":"Landkreis"},"federalState":{"key":"09","name":"Bayern"}},{"name":"Schwalbenstr.","postalCode":"96149","locality":"Breitengüßbach","municipality":{"key":"09471119","name":"Breitengüßbach","type":"Kreisangehörige_Gemeinde"},"district":{"key":"09471","name":"Bamberg","type":"Landkreis"},"federalState":{"key":"09","name":"Bayern"}},{"name":"Seebaumstr.","postalCode":"96149","locality":"Breitengüßbach","municipality":{"key":"09471119","name":"Breitengüßbach","type":"Kreisangehörige_Gemeinde"},"district":{"key":"09471","name":"Bamberg","type":"Landkreis"},"federalState":{"key":"09","name":"Bayern"}},{"name":"Sieben-Fällen-Hof","postalCode":"96149","locality":"Breitengüßbach","municipality":{"key":"09471119","name":"Breitengüßbach","type":"Kreisangehörige_Gemeinde"},"district":{"key":"09471","name":"Bamberg","type":"Landkreis"},"federalState":{"key":"09","name":"Bayern"}},{"name":"Siedlung","postalCode":"96149","locality":"Breitengüßbach","municipality":{"key":"09471119","name":"Breitengüßbach","type":"Kreisangehörige_Gemeinde"},"district":{"key":"09471","name":"Bamberg","type":"Landkreis"},"federalState":{"key":"09","name":"Bayern"}},{"name":"Steingasse","postalCode":"96149","locality":"Breitengüßbach","municipality":{"key":"09471119","name":"Breitengüßbach","type":"Kreisangehörige_Gemeinde"},"district":{"key":"09471","name":"Bamberg","type":"Landkreis"},"federalState":{"key":"09","name":"Bayern"}},{"name":"Sudetenstr.","postalCode":"96149","locality":"Breitengüßbach","municipality":{"key":"09471119","name":"Breitengüßbach","type":"Kreisangehörige_Gemeinde"},"district":{"key":"09471","name":"Bamberg","type":"Landkreis"},"federalState":{"key":"09","name":"Bayern"}},{"name":"Tannenweg","postalCode":"96149","locality":"Breitengüßbach","municipality":{"key":"09471119","name":"Breitengüßbach","type":"Kreisangehörige_Gemeinde"},"district":{"key":"09471","name":"Bamberg","type":"Landkreis"},"federalState":{"key":"09","name":"Bayern"}},{"name":"Tiergartenstr.","postalCode":"96149","locality":"Breitengüßbach","municipality":{"key":"09471119","name":"Breitengüßbach","type":"Kreisangehörige_Gemeinde"},"district":{"key":"09471","name":"Bamberg","type":"Landkreis"},"federalState":{"key":"09","name":"Bayern"}},{"name":"Tulpenweg","postalCode":"96149","locality":"Breitengüßbach","municipality":{"key":"09471119","name":"Breitengüßbach","type":"Kreisangehörige_Gemeinde"},"district":{"key":"09471","name":"Bamberg","type":"Landkreis"},"federalState":{"key":"09","name":"Bayern"}},{"name":"Ulmenstr.","postalCode":"96149","locality":"Breitengüßbach","municipality":{"key":"09471119","name":"Breitengüßbach","type":"Kreisangehörige_Gemeinde"},"district":{"key":"09471","name":"Bamberg","type":"Landkreis"},"federalState":{"key":"09","name":"Bayern"}},{"name":"Untere Watt","postalCode":"96149","locality":"Breitengüßbach","municipality":{"key":"09471119","name":"Breitengüßbach","type":"Kreisangehörige_Gemeinde"},"district":{"key":"09471","name":"Bamberg","type":"Landkreis"},"federalState":{"key":"09","name":"Bayern"}},{"name":"Unteroberndorfer Str.","postalCode":"96149","locality":"Breitengüßbach","municipality":{"key":"09471119","name":"Breitengüßbach","type":"Kreisangehörige_Gemeinde"},"district":{"key":"09471","name":"Bamberg","type":"Landkreis"},"federalState":{"key":"09","name":"Bayern"}},{"name":"Valentin-Becker-Str.","postalCode":"96049","locality":"Bamberg","municipality":{"key":"09461000","name":"Bamberg","type":"Kreisfreie_Stadt"},"district":{"key":"09461","name":"Bamberg","type":"Kreisfreie_Stadt"},"federalState":{"key":"09","name":"Bayern"}},{"name":"Valentin-Rathgeber-Str.","postalCode":"96049","locality":"Bamberg","municipality":{"key":"09461000","name":"Bamberg","type":"Kreisfreie_Stadt"},"district":{"key":"09461","name":"Bamberg","type":"Kreisfreie_Stadt"},"federalState":{"key":"09","name":"Bayern"}},{"name":"Veit-Stoß-Str.","postalCode":"96052","locality":"Bamberg","municipality":{"key":"09461000","name":"Bamberg","type":"Kreisfreie_Stadt"},"district":{"key":"09461","name":"Bamberg","type":"Kreisfreie_Stadt"},"federalState":{"key":"09","name":"Bayern"}},{"name":"Viktor-von-Scheffel-Str.","postalCode":"96049","locality":"Bamberg","municipality":{"key":"09461000","name":"Bamberg","type":"Kreisfreie_Stadt"},"district":{"key":"09461","name":"Bamberg","type":"Kreisfreie_Stadt"},"federalState":{"key":"09","name":"Bayern"}},{"name":"Villachstr.","postalCode":"96052","locality":"Bamberg","municipality":{"key":"09461000","name":"Bamberg","type":"Kreisfreie_Stadt"},"district":{"key":"09461","name":"Bamberg","type":"Kreisfreie_Stadt"},"federalState":{"key":"09","name":"Bayern"}},{"name":"Vögleinsleite","postalCode":"96049","locality":"Bamberg","municipality":{"key":"09461000","name":"Bamberg","type":"Kreisfreie_Stadt"},"district":{"key":"09461","name":"Bamberg","type":"Kreisfreie_Stadt"},"federalState":{"key":"09","name":"Bayern"}},{"name":"Vogtstr.","postalCode":"96049","locality":"Bamberg","municipality":{"key":"09461000","name":"Bamberg","type":"Kreisfreie_Stadt"},"district":{"key":"09461","name":"Bamberg","type":"Kreisfreie_Stadt"},"federalState":{"key":"09","name":"Bayern"}},{"name":"Volkfeldstr.","postalCode":"96049","locality":"Bamberg","municipality":{"key":"09461000","name":"Bamberg","type":"Kreisfreie_Stadt"},"district":{"key":"09461","name":"Bamberg","type":"Kreisfreie_Stadt"},"federalState":{"key":"09","name":"Bayern"}},{"name":"von-Helmholtz-Str.","postalCode":"96049","locality":"Bamberg","municipality":{"key":"09461000","name":"Bamberg","type":"Kreisfreie_Stadt"},"district":{"key":"09461","name":"Bamberg","type":"Kreisfreie_Stadt"},"federalState":{"key":"09","name":"Bayern"}},{"name":"Von-Ketteler-Str.","postalCode":"96050","locality":"Bamberg","municipality":{"key":"09461000","name":"Bamberg","type":"Kreisfreie_Stadt"},"district":{"key":"09461","name":"Bamberg","type":"Kreisfreie_Stadt"},"federalState":{"key":"09","name":"Bayern"}},{"name":"Von-Reider-Str.","postalCode":"96049","locality":"Bamberg","municipality":{"key":"09461000","name":"Bamberg","type":"Kreisfreie_Stadt"},"district":{"key":"09461","name":"Bamberg","type":"Kreisfreie_Stadt"},"federalState":{"key":"09","name":"Bayern"}},{"name":"Von-Rotenhan-Str.","postalCode":"96049","locality":"Bamberg","municipality":{"key":"09461000","name":"Bamberg","type":"Kreisfreie_Stadt"},"district":{"key":"09461","name":"Bamberg","type":"Kreisfreie_Stadt"},"federalState":{"key":"09","name":"Bayern"}},{"name":"Vorderer Bach","postalCode":"96049","locality":"Bamberg","municipality":{"key":"09461000","name":"Bamberg","type":"Kreisfreie_Stadt"},"district":{"key":"09461","name":"Bamberg","type":"Kreisfreie_Stadt"},"federalState":{"key":"09","name":"Bayern"}},{"name":"Vorderer Graben","postalCode":"96047","locality":"Bamberg","municipality":{"key":"09461000","name":"Bamberg","type":"Kreisfreie_Stadt"},"district":{"key":"09461","name":"Bamberg","type":"Kreisfreie_Stadt"},"federalState":{"key":"09","name":"Bayern"}},{"name":"Wacholderweg","postalCode":"96149","locality":"Breitengüßbach","municipality":{"key":"09471119","name":"Breitengüßbach","type":"Kreisangehörige_Gemeinde"},"district":{"key":"09471","name":"Bamberg","type":"Landkreis"},"federalState":{"key":"09","name":"Bayern"}},{"name":"Waldwiesenstr.","postalCode":"96149","locality":"Breitengüßbach","municipality":{"key":"09471119","name":"Breitengüßbach","type":"Kreisangehörige_Gemeinde"},"district":{"key":"09471","name":"Bamberg","type":"Landkreis"},"federalState":{"key":"09","name":"Bayern"}},{"name":"Weide","postalCode":"96149","locality":"Breitengüßbach","municipality":{"key":"09471119","name":"Breitengüßbach","type":"Kreisangehörige_Gemeinde"},"district":{"key":"09471","name":"Bamberg","type":"Landkreis"},"federalState":{"key":"09","name":"Bayern"}},{"name":"Westring","postalCode":"96149","locality":"Breitengüßbach","municipality":{"key":"09471119","name":"Breitengüßbach","type":"Kreisangehörige_Gemeinde"},"district":{"key":"09471","name":"Bamberg","type":"Landkreis"},"federalState":{"key":"09","name":"Bayern"}},{"name":"Wiesenstr.","postalCode":"96149","locality":"Breitengüßbach","municipality":{"key":"09471119","name":"Breitengüßbach","type":"Kreisangehörige_Gemeinde"},"district":{"key":"09471","name":"Bamberg","type":"Landkreis"},"federalState":{"key":"09","name":"Bayern"}},{"name":"Zentrum","postalCode":"96149","locality":"Breitengüßbach","municipality":{"key":"09471119","name":"Breitengüßbach","type":"Kreisangehörige_Gemeinde"},"district":{"key":"09471","name":"Bamberg","type":"Landkreis"},"federalState":{"key":"09","name":"Bayern"}},{"name":"Zückshuter Str.","postalCode":"96149","locality":"Breitengüßbach","municipality":{"key":"09471119","name":"Breitengüßbach","type":"Kreisangehörige_Gemeinde"},"district":{"key":"09471","name":"Bamberg","type":"Landkreis"},"federalState":{"key":"09","name":"Bayern"}},{"name":"Äußere Löwenstr.","postalCode":"96052","locality":"Bamberg","municipality":{"key":"09461000","name":"Bamberg","type":"Kreisfreie_Stadt"},"district":{"key":"09461","name":"Bamberg","type":"Kreisfreie_Stadt"},"federalState":{"key":"09","name":"Bayern"}},]