[{"name":"Adalbert-Stifter-Str.","postalCode":"35619","locality":"Braunfels","municipality":{"key":"06532003","name":"Braunfels, Stadt","type":"Stadt"},"district":{"key":"06532","name":"Lahn-Dill-Kreis","type":"Landkreis"},"federalState":{"key":"06","name":"Hessen"}},{"name":"Ahornallee","postalCode":"35619","locality":"Braunfels","municipality":{"key":"06532003","name":"Braunfels, Stadt","type":"Stadt"},"district":{"key":"06532","name":"Lahn-Dill-Kreis","type":"Landkreis"},"federalState":{"key":"06","name":"Hessen"}},{"name":"Alemannenstr.","postalCode":"35619","locality":"Braunfels","municipality":{"key":"06532003","name":"Braunfels, Stadt","type":"Stadt"},"district":{"key":"06532","name":"Lahn-Dill-Kreis","type":"Landkreis"},"federalState":{"key":"06","name":"Hessen"}},{"name":"Alte Gasse","postalCode":"35619","locality":"Braunfels","municipality":{"key":"06532003","name":"Braunfels, Stadt","type":"Stadt"},"district":{"key":"06532","name":"Lahn-Dill-Kreis","type":"Landkreis"},"federalState":{"key":"06","name":"Hessen"}},{"name":"Alte Hofstr.","postalCode":"35619","locality":"Braunfels","municipality":{"key":"06532003","name":"Braunfels, Stadt","type":"Stadt"},"district":{"key":"06532","name":"Lahn-Dill-Kreis","type":"Landkreis"},"federalState":{"key":"06","name":"Hessen"}},{"name":"Alte Leuner Str.","postalCode":"35619","locality":"Braunfels","municipality":{"key":"06532003","name":"Braunfels, Stadt","type":"Stadt"},"district":{"key":"06532","name":"Lahn-Dill-Kreis","type":"Landkreis"},"federalState":{"key":"06","name":"Hessen"}},{"name":"Alter Grenzweg","postalCode":"35619","locality":"Braunfels","municipality":{"key":"06532003","name":"Braunfels, Stadt","type":"Stadt"},"district":{"key":"06532","name":"Lahn-Dill-Kreis","type":"Landkreis"},"federalState":{"key":"06","name":"Hessen"}},{"name":"Am Burgberg","postalCode":"35619","locality":"Braunfels","municipality":{"key":"06532003","name":"Braunfels, Stadt","type":"Stadt"},"district":{"key":"06532","name":"Lahn-Dill-Kreis","type":"Landkreis"},"federalState":{"key":"06","name":"Hessen"}},{"name":"Am Burgfrieden","postalCode":"35619","locality":"Braunfels","municipality":{"key":"06532003","name":"Braunfels, Stadt","type":"Stadt"},"district":{"key":"06532","name":"Lahn-Dill-Kreis","type":"Landkreis"},"federalState":{"key":"06","name":"Hessen"}},{"name":"Am Eppstein","postalCode":"35619","locality":"Braunfels","municipality":{"key":"06532003","name":"Braunfels, Stadt","type":"Stadt"},"district":{"key":"06532","name":"Lahn-Dill-Kreis","type":"Landkreis"},"federalState":{"key":"06","name":"Hessen"}},{"name":"Am gelben Baum","postalCode":"35619","locality":"Braunfels","municipality":{"key":"06532003","name":"Braunfels, Stadt","type":"Stadt"},"district":{"key":"06532","name":"Lahn-Dill-Kreis","type":"Landkreis"},"federalState":{"key":"06","name":"Hessen"}},{"name":"Am Hirtenhaus","postalCode":"35619","locality":"Braunfels","municipality":{"key":"06532003","name":"Braunfels, Stadt","type":"Stadt"},"district":{"key":"06532","name":"Lahn-Dill-Kreis","type":"Landkreis"},"federalState":{"key":"06","name":"Hessen"}},{"name":"Am Höllgraben","postalCode":"35619","locality":"Braunfels","municipality":{"key":"06532003","name":"Braunfels, Stadt","type":"Stadt"},"district":{"key":"06532","name":"Lahn-Dill-Kreis","type":"Landkreis"},"federalState":{"key":"06","name":"Hessen"}},{"name":"Am Hühnerberg","postalCode":"35619","locality":"Braunfels","municipality":{"key":"06532003","name":"Braunfels, Stadt","type":"Stadt"},"district":{"key":"06532","name":"Lahn-Dill-Kreis","type":"Landkreis"},"federalState":{"key":"06","name":"Hessen"}},{"name":"Am Hunert","postalCode":"35619","locality":"Braunfels","municipality":{"key":"06532003","name":"Braunfels, Stadt","type":"Stadt"},"district":{"key":"06532","name":"Lahn-Dill-Kreis","type":"Landkreis"},"federalState":{"key":"06","name":"Hessen"}},{"name":"Am Kirchberg","postalCode":"35619","locality":"Braunfels","municipality":{"key":"06532003","name":"Braunfels, Stadt","type":"Stadt"},"district":{"key":"06532","name":"Lahn-Dill-Kreis","type":"Landkreis"},"federalState":{"key":"06","name":"Hessen"}},{"name":"Am Köppel","postalCode":"35619","locality":"Braunfels","municipality":{"key":"06532003","name":"Braunfels, Stadt","type":"Stadt"},"district":{"key":"06532","name":"Lahn-Dill-Kreis","type":"Landkreis"},"federalState":{"key":"06","name":"Hessen"}},{"name":"Am Kreuzberg","postalCode":"35619","locality":"Braunfels","municipality":{"key":"06532003","name":"Braunfels, Stadt","type":"Stadt"},"district":{"key":"06532","name":"Lahn-Dill-Kreis","type":"Landkreis"},"federalState":{"key":"06","name":"Hessen"}},{"name":"Am Kurpark","postalCode":"35619","locality":"Braunfels","municipality":{"key":"06532003","name":"Braunfels, Stadt","type":"Stadt"},"district":{"key":"06532","name":"Lahn-Dill-Kreis","type":"Landkreis"},"federalState":{"key":"06","name":"Hessen"}},{"name":"Am Mühlberg","postalCode":"35619","locality":"Braunfels","municipality":{"key":"06532003","name":"Braunfels, Stadt","type":"Stadt"},"district":{"key":"06532","name":"Lahn-Dill-Kreis","type":"Landkreis"},"federalState":{"key":"06","name":"Hessen"}},{"name":"Am Rabenacker","postalCode":"35619","locality":"Braunfels","municipality":{"key":"06532003","name":"Braunfels, Stadt","type":"Stadt"},"district":{"key":"06532","name":"Lahn-Dill-Kreis","type":"Landkreis"},"federalState":{"key":"06","name":"Hessen"}},{"name":"Am Roßberg","postalCode":"35619","locality":"Braunfels","municipality":{"key":"06532003","name":"Braunfels, Stadt","type":"Stadt"},"district":{"key":"06532","name":"Lahn-Dill-Kreis","type":"Landkreis"},"federalState":{"key":"06","name":"Hessen"}},{"name":"Am Schwalbengraben","postalCode":"35619","locality":"Braunfels","municipality":{"key":"06532003","name":"Braunfels, Stadt","type":"Stadt"},"district":{"key":"06532","name":"Lahn-Dill-Kreis","type":"Landkreis"},"federalState":{"key":"06","name":"Hessen"}},{"name":"Amselweg","postalCode":"35619","locality":"Braunfels","municipality":{"key":"06532003","name":"Braunfels, Stadt","type":"Stadt"},"district":{"key":"06532","name":"Lahn-Dill-Kreis","type":"Landkreis"},"federalState":{"key":"06","name":"Hessen"}},{"name":"Am Wald","postalCode":"35619","locality":"Braunfels","municipality":{"key":"06532003","name":"Braunfels, Stadt","type":"Stadt"},"district":{"key":"06532","name":"Lahn-Dill-Kreis","type":"Landkreis"},"federalState":{"key":"06","name":"Hessen"}},{"name":"Am Weinberg","postalCode":"35619","locality":"Braunfels","municipality":{"key":"06532003","name":"Braunfels, Stadt","type":"Stadt"},"district":{"key":"06532","name":"Lahn-Dill-Kreis","type":"Landkreis"},"federalState":{"key":"06","name":"Hessen"}},{"name":"Am Wilhelmsstollen","postalCode":"35619","locality":"Braunfels","municipality":{"key":"06532003","name":"Braunfels, Stadt","type":"Stadt"},"district":{"key":"06532","name":"Lahn-Dill-Kreis","type":"Landkreis"},"federalState":{"key":"06","name":"Hessen"}},{"name":"Am Wingert","postalCode":"35619","locality":"Braunfels","municipality":{"key":"06532003","name":"Braunfels, Stadt","type":"Stadt"},"district":{"key":"06532","name":"Lahn-Dill-Kreis","type":"Landkreis"},"federalState":{"key":"06","name":"Hessen"}},{"name":"Am Wolfsgraben","postalCode":"35619","locality":"Braunfels","municipality":{"key":"06532003","name":"Braunfels, Stadt","type":"Stadt"},"district":{"key":"06532","name":"Lahn-Dill-Kreis","type":"Landkreis"},"federalState":{"key":"06","name":"Hessen"}},{"name":"An der Warte","postalCode":"35619","locality":"Braunfels","municipality":{"key":"06532003","name":"Braunfels, Stadt","type":"Stadt"},"district":{"key":"06532","name":"Lahn-Dill-Kreis","type":"Landkreis"},"federalState":{"key":"06","name":"Hessen"}},{"name":"An der Wende","postalCode":"35619","locality":"Braunfels","municipality":{"key":"06532003","name":"Braunfels, Stadt","type":"Stadt"},"district":{"key":"06532","name":"Lahn-Dill-Kreis","type":"Landkreis"},"federalState":{"key":"06","name":"Hessen"}},{"name":"Attenbachstr.","postalCode":"35619","locality":"Braunfels","municipality":{"key":"06532003","name":"Braunfels, Stadt","type":"Stadt"},"district":{"key":"06532","name":"Lahn-Dill-Kreis","type":"Landkreis"},"federalState":{"key":"06","name":"Hessen"}},{"name":"Auf dem Mühlmerk","postalCode":"35619","locality":"Braunfels","municipality":{"key":"06532003","name":"Braunfels, Stadt","type":"Stadt"},"district":{"key":"06532","name":"Lahn-Dill-Kreis","type":"Landkreis"},"federalState":{"key":"06","name":"Hessen"}},{"name":"Auf den Kiesäckern","postalCode":"35619","locality":"Braunfels","municipality":{"key":"06532003","name":"Braunfels, Stadt","type":"Stadt"},"district":{"key":"06532","name":"Lahn-Dill-Kreis","type":"Landkreis"},"federalState":{"key":"06","name":"Hessen"}},{"name":"Auf den Zäunen","postalCode":"35619","locality":"Braunfels","municipality":{"key":"06532003","name":"Braunfels, Stadt","type":"Stadt"},"district":{"key":"06532","name":"Lahn-Dill-Kreis","type":"Landkreis"},"federalState":{"key":"06","name":"Hessen"}},{"name":"Auf der Höh","postalCode":"35619","locality":"Braunfels","municipality":{"key":"06532003","name":"Braunfels, Stadt","type":"Stadt"},"district":{"key":"06532","name":"Lahn-Dill-Kreis","type":"Landkreis"},"federalState":{"key":"06","name":"Hessen"}},{"name":"Auffahrt","postalCode":"35619","locality":"Braunfels","municipality":{"key":"06532003","name":"Braunfels, Stadt","type":"Stadt"},"district":{"key":"06532","name":"Lahn-Dill-Kreis","type":"Landkreis"},"federalState":{"key":"06","name":"Hessen"}},{"name":"Bachstelzenweg","postalCode":"35619","locality":"Braunfels","municipality":{"key":"06532003","name":"Braunfels, Stadt","type":"Stadt"},"district":{"key":"06532","name":"Lahn-Dill-Kreis","type":"Landkreis"},"federalState":{"key":"06","name":"Hessen"}},{"name":"Backhausgasse","postalCode":"35619","locality":"Braunfels","municipality":{"key":"06532003","name":"Braunfels, Stadt","type":"Stadt"},"district":{"key":"06532","name":"Lahn-Dill-Kreis","type":"Landkreis"},"federalState":{"key":"06","name":"Hessen"}},{"name":"Bagnolsstr.","postalCode":"35619","locality":"Braunfels","municipality":{"key":"06532003","name":"Braunfels, Stadt","type":"Stadt"},"district":{"key":"06532","name":"Lahn-Dill-Kreis","type":"Landkreis"},"federalState":{"key":"06","name":"Hessen"}},{"name":"Bahnhof","postalCode":"35619","locality":"Braunfels","municipality":{"key":"06532003","name":"Braunfels, Stadt","type":"Stadt"},"district":{"key":"06532","name":"Lahn-Dill-Kreis","type":"Landkreis"},"federalState":{"key":"06","name":"Hessen"}},{"name":"Belzgasse","postalCode":"35619","locality":"Braunfels","municipality":{"key":"06532003","name":"Braunfels, Stadt","type":"Stadt"},"district":{"key":"06532","name":"Lahn-Dill-Kreis","type":"Landkreis"},"federalState":{"key":"06","name":"Hessen"}},{"name":"Bergstr.","postalCode":"35619","locality":"Braunfels","municipality":{"key":"06532003","name":"Braunfels, Stadt","type":"Stadt"},"district":{"key":"06532","name":"Lahn-Dill-Kreis","type":"Landkreis"},"federalState":{"key":"06","name":"Hessen"}},{"name":"Berliner Str.","postalCode":"35619","locality":"Braunfels","municipality":{"key":"06532003","name":"Braunfels, Stadt","type":"Stadt"},"district":{"key":"06532","name":"Lahn-Dill-Kreis","type":"Landkreis"},"federalState":{"key":"06","name":"Hessen"}},{"name":"Bermbacher Str.","postalCode":"35619","locality":"Braunfels","municipality":{"key":"06532003","name":"Braunfels, Stadt","type":"Stadt"},"district":{"key":"06532","name":"Lahn-Dill-Kreis","type":"Landkreis"},"federalState":{"key":"06","name":"Hessen"}},{"name":"Biengartenstr.","postalCode":"35619","locality":"Braunfels","municipality":{"key":"06532003","name":"Braunfels, Stadt","type":"Stadt"},"district":{"key":"06532","name":"Lahn-Dill-Kreis","type":"Landkreis"},"federalState":{"key":"06","name":"Hessen"}},{"name":"Birkenweg","postalCode":"35619","locality":"Braunfels","municipality":{"key":"06532003","name":"Braunfels, Stadt","type":"Stadt"},"district":{"key":"06532","name":"Lahn-Dill-Kreis","type":"Landkreis"},"federalState":{"key":"06","name":"Hessen"}},{"name":"Bonbadener Str.","postalCode":"35619","locality":"Braunfels","municipality":{"key":"06532003","name":"Braunfels, Stadt","type":"Stadt"},"district":{"key":"06532","name":"Lahn-Dill-Kreis","type":"Landkreis"},"federalState":{"key":"06","name":"Hessen"}},{"name":"Borngasse","postalCode":"35619","locality":"Braunfels","municipality":{"key":"06532003","name":"Braunfels, Stadt","type":"Stadt"},"district":{"key":"06532","name":"Lahn-Dill-Kreis","type":"Landkreis"},"federalState":{"key":"06","name":"Hessen"}},{"name":"Braunfelser Str.","postalCode":"35619","locality":"Braunfels","municipality":{"key":"06532003","name":"Braunfels, Stadt","type":"Stadt"},"district":{"key":"06532","name":"Lahn-Dill-Kreis","type":"Landkreis"},"federalState":{"key":"06","name":"Hessen"}},{"name":"Buchwaldstr.","postalCode":"35619","locality":"Braunfels","municipality":{"key":"06532003","name":"Braunfels, Stadt","type":"Stadt"},"district":{"key":"06532","name":"Lahn-Dill-Kreis","type":"Landkreis"},"federalState":{"key":"06","name":"Hessen"}},{"name":"Burgsolmser Weg","postalCode":"35619","locality":"Braunfels","municipality":{"key":"06532003","name":"Braunfels, Stadt","type":"Stadt"},"district":{"key":"06532","name":"Lahn-Dill-Kreis","type":"Landkreis"},"federalState":{"key":"06","name":"Hessen"}},{"name":"Burgweg","postalCode":"35619","locality":"Braunfels","municipality":{"key":"06532003","name":"Braunfels, Stadt","type":"Stadt"},"district":{"key":"06532","name":"Lahn-Dill-Kreis","type":"Landkreis"},"federalState":{"key":"06","name":"Hessen"}},{"name":"Carl-Seiler-Weg","postalCode":"35619","locality":"Braunfels","municipality":{"key":"06532003","name":"Braunfels, Stadt","type":"Stadt"},"district":{"key":"06532","name":"Lahn-Dill-Kreis","type":"Landkreis"},"federalState":{"key":"06","name":"Hessen"}},{"name":"Dammstr.","postalCode":"35619","locality":"Braunfels","municipality":{"key":"06532003","name":"Braunfels, Stadt","type":"Stadt"},"district":{"key":"06532","name":"Lahn-Dill-Kreis","type":"Landkreis"},"federalState":{"key":"06","name":"Hessen"}},{"name":"Deiker Weg","postalCode":"35619","locality":"Braunfels","municipality":{"key":"06532003","name":"Braunfels, Stadt","type":"Stadt"},"district":{"key":"06532","name":"Lahn-Dill-Kreis","type":"Landkreis"},"federalState":{"key":"06","name":"Hessen"}},{"name":"Dreieichenweg","postalCode":"35619","locality":"Braunfels","municipality":{"key":"06532003","name":"Braunfels, Stadt","type":"Stadt"},"district":{"key":"06532","name":"Lahn-Dill-Kreis","type":"Landkreis"},"federalState":{"key":"06","name":"Hessen"}},{"name":"Dr.-Erich-Schneider-Str.","postalCode":"35619","locality":"Braunfels","municipality":{"key":"06532003","name":"Braunfels, Stadt","type":"Stadt"},"district":{"key":"06532","name":"Lahn-Dill-Kreis","type":"Landkreis"},"federalState":{"key":"06","name":"Hessen"}},{"name":"Dr.-Kanngießer-Weg","postalCode":"35619","locality":"Braunfels","municipality":{"key":"06532003","name":"Braunfels, Stadt","type":"Stadt"},"district":{"key":"06532","name":"Lahn-Dill-Kreis","type":"Landkreis"},"federalState":{"key":"06","name":"Hessen"}},{"name":"Drosselweg","postalCode":"35619","locality":"Braunfels","municipality":{"key":"06532003","name":"Braunfels, Stadt","type":"Stadt"},"district":{"key":"06532","name":"Lahn-Dill-Kreis","type":"Landkreis"},"federalState":{"key":"06","name":"Hessen"}},{"name":"Eekloer Str.","postalCode":"35619","locality":"Braunfels","municipality":{"key":"06532003","name":"Braunfels, Stadt","type":"Stadt"},"district":{"key":"06532","name":"Lahn-Dill-Kreis","type":"Landkreis"},"federalState":{"key":"06","name":"Hessen"}},{"name":"Egerländer Str.","postalCode":"35619","locality":"Braunfels","municipality":{"key":"06532003","name":"Braunfels, Stadt","type":"Stadt"},"district":{"key":"06532","name":"Lahn-Dill-Kreis","type":"Landkreis"},"federalState":{"key":"06","name":"Hessen"}},{"name":"Elsterweg","postalCode":"35619","locality":"Braunfels","municipality":{"key":"06532003","name":"Braunfels, Stadt","type":"Stadt"},"district":{"key":"06532","name":"Lahn-Dill-Kreis","type":"Landkreis"},"federalState":{"key":"06","name":"Hessen"}},{"name":"Emanuelenweg","postalCode":"35619","locality":"Braunfels","municipality":{"key":"06532003","name":"Braunfels, Stadt","type":"Stadt"},"district":{"key":"06532","name":"Lahn-Dill-Kreis","type":"Landkreis"},"federalState":{"key":"06","name":"Hessen"}},{"name":"Eselspfad","postalCode":"35619","locality":"Braunfels","municipality":{"key":"06532003","name":"Braunfels, Stadt","type":"Stadt"},"district":{"key":"06532","name":"Lahn-Dill-Kreis","type":"Landkreis"},"federalState":{"key":"06","name":"Hessen"}},{"name":"Europaplatz","postalCode":"35619","locality":"Braunfels","municipality":{"key":"06532003","name":"Braunfels, Stadt","type":"Stadt"},"district":{"key":"06532","name":"Lahn-Dill-Kreis","type":"Landkreis"},"federalState":{"key":"06","name":"Hessen"}},{"name":"Falkenecksweg","postalCode":"35619","locality":"Braunfels","municipality":{"key":"06532003","name":"Braunfels, Stadt","type":"Stadt"},"district":{"key":"06532","name":"Lahn-Dill-Kreis","type":"Landkreis"},"federalState":{"key":"06","name":"Hessen"}},{"name":"Falkenhof","postalCode":"35619","locality":"Braunfels","municipality":{"key":"06532003","name":"Braunfels, Stadt","type":"Stadt"},"district":{"key":"06532","name":"Lahn-Dill-Kreis","type":"Landkreis"},"federalState":{"key":"06","name":"Hessen"}},{"name":"Falltorstr.","postalCode":"35619","locality":"Braunfels","municipality":{"key":"06532003","name":"Braunfels, Stadt","type":"Stadt"},"district":{"key":"06532","name":"Lahn-Dill-Kreis","type":"Landkreis"},"federalState":{"key":"06","name":"Hessen"}},{"name":"Felsenkellerweg","postalCode":"35619","locality":"Braunfels","municipality":{"key":"06532003","name":"Braunfels, Stadt","type":"Stadt"},"district":{"key":"06532","name":"Lahn-Dill-Kreis","type":"Landkreis"},"federalState":{"key":"06","name":"Hessen"}},{"name":"Ferbornstr.","postalCode":"35619","locality":"Braunfels","municipality":{"key":"06532003","name":"Braunfels, Stadt","type":"Stadt"},"district":{"key":"06532","name":"Lahn-Dill-Kreis","type":"Landkreis"},"federalState":{"key":"06","name":"Hessen"}},{"name":"Feuersteinweg","postalCode":"35619","locality":"Braunfels","municipality":{"key":"06532003","name":"Braunfels, Stadt","type":"Stadt"},"district":{"key":"06532","name":"Lahn-Dill-Kreis","type":"Landkreis"},"federalState":{"key":"06","name":"Hessen"}},{"name":"Finkenweg","postalCode":"35619","locality":"Braunfels","municipality":{"key":"06532003","name":"Braunfels, Stadt","type":"Stadt"},"district":{"key":"06532","name":"Lahn-Dill-Kreis","type":"Landkreis"},"federalState":{"key":"06","name":"Hessen"}},{"name":"Fliederweg","postalCode":"35619","locality":"Braunfels","municipality":{"key":"06532003","name":"Braunfels, Stadt","type":"Stadt"},"district":{"key":"06532","name":"Lahn-Dill-Kreis","type":"Landkreis"},"federalState":{"key":"06","name":"Hessen"}},{"name":"Forsthausstr.","postalCode":"35619","locality":"Braunfels","municipality":{"key":"06532003","name":"Braunfels, Stadt","type":"Stadt"},"district":{"key":"06532","name":"Lahn-Dill-Kreis","type":"Landkreis"},"federalState":{"key":"06","name":"Hessen"}},{"name":"Frankenstr.","postalCode":"35619","locality":"Braunfels","municipality":{"key":"06532003","name":"Braunfels, Stadt","type":"Stadt"},"district":{"key":"06532","name":"Lahn-Dill-Kreis","type":"Landkreis"},"federalState":{"key":"06","name":"Hessen"}},{"name":"Frauenreuther Str.","postalCode":"35619","locality":"Braunfels","municipality":{"key":"06532003","name":"Braunfels, Stadt","type":"Stadt"},"district":{"key":"06532","name":"Lahn-Dill-Kreis","type":"Landkreis"},"federalState":{"key":"06","name":"Hessen"}},{"name":"Friederike-Fliedner-Str.","postalCode":"35619","locality":"Braunfels","municipality":{"key":"06532003","name":"Braunfels, Stadt","type":"Stadt"},"district":{"key":"06532","name":"Lahn-Dill-Kreis","type":"Landkreis"},"federalState":{"key":"06","name":"Hessen"}},{"name":"Fuchsheck","postalCode":"35619","locality":"Braunfels","municipality":{"key":"06532003","name":"Braunfels, Stadt","type":"Stadt"},"district":{"key":"06532","name":"Lahn-Dill-Kreis","type":"Landkreis"},"federalState":{"key":"06","name":"Hessen"}},{"name":"Fürst-Ferdinand-Str.","postalCode":"35619","locality":"Braunfels","municipality":{"key":"06532003","name":"Braunfels, Stadt","type":"Stadt"},"district":{"key":"06532","name":"Lahn-Dill-Kreis","type":"Landkreis"},"federalState":{"key":"06","name":"Hessen"}},{"name":"Gartenstr.","postalCode":"35619","locality":"Braunfels","municipality":{"key":"06532003","name":"Braunfels, Stadt","type":"Stadt"},"district":{"key":"06532","name":"Lahn-Dill-Kreis","type":"Landkreis"},"federalState":{"key":"06","name":"Hessen"}},{"name":"Gartenstück","postalCode":"35619","locality":"Braunfels","municipality":{"key":"06532003","name":"Braunfels, Stadt","type":"Stadt"},"district":{"key":"06532","name":"Lahn-Dill-Kreis","type":"Landkreis"},"federalState":{"key":"06","name":"Hessen"}},{"name":"Gebrüder-Wahl-Str.","postalCode":"35619","locality":"Braunfels","municipality":{"key":"06532003","name":"Braunfels, Stadt","type":"Stadt"},"district":{"key":"06532","name":"Lahn-Dill-Kreis","type":"Landkreis"},"federalState":{"key":"06","name":"Hessen"}},{"name":"Geheimrat-Gerster-Str.","postalCode":"35619","locality":"Braunfels","municipality":{"key":"06532003","name":"Braunfels, Stadt","type":"Stadt"},"district":{"key":"06532","name":"Lahn-Dill-Kreis","type":"Landkreis"},"federalState":{"key":"06","name":"Hessen"}},{"name":"Gerichtsstr.","postalCode":"35619","locality":"Braunfels","municipality":{"key":"06532003","name":"Braunfels, Stadt","type":"Stadt"},"district":{"key":"06532","name":"Lahn-Dill-Kreis","type":"Landkreis"},"federalState":{"key":"06","name":"Hessen"}},{"name":"Ginsterbergstr.","postalCode":"35619","locality":"Braunfels","municipality":{"key":"06532003","name":"Braunfels, Stadt","type":"Stadt"},"district":{"key":"06532","name":"Lahn-Dill-Kreis","type":"Landkreis"},"federalState":{"key":"06","name":"Hessen"}},{"name":"Grabenstr.","postalCode":"35619","locality":"Braunfels","municipality":{"key":"06532003","name":"Braunfels, Stadt","type":"Stadt"},"district":{"key":"06532","name":"Lahn-Dill-Kreis","type":"Landkreis"},"federalState":{"key":"06","name":"Hessen"}},{"name":"Gräfin-Elisabeth-Str.","postalCode":"35619","locality":"Braunfels","municipality":{"key":"06532003","name":"Braunfels, Stadt","type":"Stadt"},"district":{"key":"06532","name":"Lahn-Dill-Kreis","type":"Landkreis"},"federalState":{"key":"06","name":"Hessen"}},{"name":"Graf-Trajektin-Str.","postalCode":"35619","locality":"Braunfels","municipality":{"key":"06532003","name":"Braunfels, Stadt","type":"Stadt"},"district":{"key":"06532","name":"Lahn-Dill-Kreis","type":"Landkreis"},"federalState":{"key":"06","name":"Hessen"}},{"name":"Grasgarten","postalCode":"35619","locality":"Braunfels","municipality":{"key":"06532003","name":"Braunfels, Stadt","type":"Stadt"},"district":{"key":"06532","name":"Lahn-Dill-Kreis","type":"Landkreis"},"federalState":{"key":"06","name":"Hessen"}},{"name":"Greilingsbaum","postalCode":"35619","locality":"Braunfels","municipality":{"key":"06532003","name":"Braunfels, Stadt","type":"Stadt"},"district":{"key":"06532","name":"Lahn-Dill-Kreis","type":"Landkreis"},"federalState":{"key":"06","name":"Hessen"}},{"name":"Grenzweg","postalCode":"35619","locality":"Braunfels","municipality":{"key":"06532003","name":"Braunfels, Stadt","type":"Stadt"},"district":{"key":"06532","name":"Lahn-Dill-Kreis","type":"Landkreis"},"federalState":{"key":"06","name":"Hessen"}},{"name":"Häherweg","postalCode":"35619","locality":"Braunfels","municipality":{"key":"06532003","name":"Braunfels, Stadt","type":"Stadt"},"district":{"key":"06532","name":"Lahn-Dill-Kreis","type":"Landkreis"},"federalState":{"key":"06","name":"Hessen"}},{"name":"Haintalstr.","postalCode":"35619","locality":"Braunfels","municipality":{"key":"06532003","name":"Braunfels, Stadt","type":"Stadt"},"district":{"key":"06532","name":"Lahn-Dill-Kreis","type":"Landkreis"},"federalState":{"key":"06","name":"Hessen"}},{"name":"Hans-Kudlich-Str.","postalCode":"35619","locality":"Braunfels","municipality":{"key":"06532003","name":"Braunfels, Stadt","type":"Stadt"},"district":{"key":"06532","name":"Lahn-Dill-Kreis","type":"Landkreis"},"federalState":{"key":"06","name":"Hessen"}},{"name":"Hasselbornring","postalCode":"35619","locality":"Braunfels","municipality":{"key":"06532003","name":"Braunfels, Stadt","type":"Stadt"},"district":{"key":"06532","name":"Lahn-Dill-Kreis","type":"Landkreis"},"federalState":{"key":"06","name":"Hessen"}},{"name":"Hauptstr.","postalCode":"35619","locality":"Braunfels","municipality":{"key":"06532003","name":"Braunfels, Stadt","type":"Stadt"},"district":{"key":"06532","name":"Lahn-Dill-Kreis","type":"Landkreis"},"federalState":{"key":"06","name":"Hessen"}},{"name":"Hecksbergstr.","postalCode":"35619","locality":"Braunfels","municipality":{"key":"06532003","name":"Braunfels, Stadt","type":"Stadt"},"district":{"key":"06532","name":"Lahn-Dill-Kreis","type":"Landkreis"},"federalState":{"key":"06","name":"Hessen"}},{"name":"Hegebachweg","postalCode":"35619","locality":"Braunfels","municipality":{"key":"06532003","name":"Braunfels, Stadt","type":"Stadt"},"district":{"key":"06532","name":"Lahn-Dill-Kreis","type":"Landkreis"},"federalState":{"key":"06","name":"Hessen"}},{"name":"Heimesstr.","postalCode":"35619","locality":"Braunfels","municipality":{"key":"06532003","name":"Braunfels, Stadt","type":"Stadt"},"district":{"key":"06532","name":"Lahn-Dill-Kreis","type":"Landkreis"},"federalState":{"key":"06","name":"Hessen"}},{"name":"Heinrich-Ziegler-Str.","postalCode":"35619","locality":"Braunfels","municipality":{"key":"06532003","name":"Braunfels, Stadt","type":"Stadt"},"district":{"key":"06532","name":"Lahn-Dill-Kreis","type":"Landkreis"},"federalState":{"key":"06","name":"Hessen"}},{"name":"Herrngarten","postalCode":"35619","locality":"Braunfels","municipality":{"key":"06532003","name":"Braunfels, Stadt","type":"Stadt"},"district":{"key":"06532","name":"Lahn-Dill-Kreis","type":"Landkreis"},"federalState":{"key":"06","name":"Hessen"}},{"name":"Hintergasse","postalCode":"35619","locality":"Braunfels","municipality":{"key":"06532003","name":"Braunfels, Stadt","type":"Stadt"},"district":{"key":"06532","name":"Lahn-Dill-Kreis","type":"Landkreis"},"federalState":{"key":"06","name":"Hessen"}},{"name":"Hinterm Hain","postalCode":"35619","locality":"Braunfels","municipality":{"key":"06532003","name":"Braunfels, Stadt","type":"Stadt"},"district":{"key":"06532","name":"Lahn-Dill-Kreis","type":"Landkreis"},"federalState":{"key":"06","name":"Hessen"}},{"name":"Hofstatt","postalCode":"35619","locality":"Braunfels","municipality":{"key":"06532003","name":"Braunfels, Stadt","type":"Stadt"},"district":{"key":"06532","name":"Lahn-Dill-Kreis","type":"Landkreis"},"federalState":{"key":"06","name":"Hessen"}},{"name":"Hofweg","postalCode":"35619","locality":"Braunfels","municipality":{"key":"06532003","name":"Braunfels, Stadt","type":"Stadt"},"district":{"key":"06532","name":"Lahn-Dill-Kreis","type":"Landkreis"},"federalState":{"key":"06","name":"Hessen"}},{"name":"Höhenweg","postalCode":"35619","locality":"Braunfels","municipality":{"key":"06532003","name":"Braunfels, Stadt","type":"Stadt"},"district":{"key":"06532","name":"Lahn-Dill-Kreis","type":"Landkreis"},"federalState":{"key":"06","name":"Hessen"}},{"name":"Hoher Rain","postalCode":"35619","locality":"Braunfels","municipality":{"key":"06532003","name":"Braunfels, Stadt","type":"Stadt"},"district":{"key":"06532","name":"Lahn-Dill-Kreis","type":"Landkreis"},"federalState":{"key":"06","name":"Hessen"}},{"name":"Hohlstr.","postalCode":"35619","locality":"Braunfels","municipality":{"key":"06532003","name":"Braunfels, Stadt","type":"Stadt"},"district":{"key":"06532","name":"Lahn-Dill-Kreis","type":"Landkreis"},"federalState":{"key":"06","name":"Hessen"}},{"name":"Holzapfeldriesch","postalCode":"35619","locality":"Braunfels","municipality":{"key":"06532003","name":"Braunfels, Stadt","type":"Stadt"},"district":{"key":"06532","name":"Lahn-Dill-Kreis","type":"Landkreis"},"federalState":{"key":"06","name":"Hessen"}},{"name":"Homburger Hof","postalCode":"35619","locality":"Braunfels","municipality":{"key":"06532003","name":"Braunfels, Stadt","type":"Stadt"},"district":{"key":"06532","name":"Lahn-Dill-Kreis","type":"Landkreis"},"federalState":{"key":"06","name":"Hessen"}},{"name":"Hopfengarten","postalCode":"35619","locality":"Braunfels","municipality":{"key":"06532003","name":"Braunfels, Stadt","type":"Stadt"},"district":{"key":"06532","name":"Lahn-Dill-Kreis","type":"Landkreis"},"federalState":{"key":"06","name":"Hessen"}},{"name":"Hubertusstr.","postalCode":"35619","locality":"Braunfels","municipality":{"key":"06532003","name":"Braunfels, Stadt","type":"Stadt"},"district":{"key":"06532","name":"Lahn-Dill-Kreis","type":"Landkreis"},"federalState":{"key":"06","name":"Hessen"}},{"name":"Hüttenweg","postalCode":"35619","locality":"Braunfels","municipality":{"key":"06532003","name":"Braunfels, Stadt","type":"Stadt"},"district":{"key":"06532","name":"Lahn-Dill-Kreis","type":"Landkreis"},"federalState":{"key":"06","name":"Hessen"}},{"name":"Im Brühl","postalCode":"35619","locality":"Braunfels","municipality":{"key":"06532003","name":"Braunfels, Stadt","type":"Stadt"},"district":{"key":"06532","name":"Lahn-Dill-Kreis","type":"Landkreis"},"federalState":{"key":"06","name":"Hessen"}},{"name":"Im Espchen","postalCode":"35619","locality":"Braunfels","municipality":{"key":"06532003","name":"Braunfels, Stadt","type":"Stadt"},"district":{"key":"06532","name":"Lahn-Dill-Kreis","type":"Landkreis"},"federalState":{"key":"06","name":"Hessen"}},{"name":"Im Gretchesgarten","postalCode":"35619","locality":"Braunfels","municipality":{"key":"06532003","name":"Braunfels, Stadt","type":"Stadt"},"district":{"key":"06532","name":"Lahn-Dill-Kreis","type":"Landkreis"},"federalState":{"key":"06","name":"Hessen"}},{"name":"Im Langenstrich","postalCode":"35619","locality":"Braunfels","municipality":{"key":"06532003","name":"Braunfels, Stadt","type":"Stadt"},"district":{"key":"06532","name":"Lahn-Dill-Kreis","type":"Landkreis"},"federalState":{"key":"06","name":"Hessen"}},{"name":"Im Lindwig","postalCode":"35619","locality":"Braunfels","municipality":{"key":"06532003","name":"Braunfels, Stadt","type":"Stadt"},"district":{"key":"06532","name":"Lahn-Dill-Kreis","type":"Landkreis"},"federalState":{"key":"06","name":"Hessen"}},{"name":"Im Neßling","postalCode":"35619","locality":"Braunfels","municipality":{"key":"06532003","name":"Braunfels, Stadt","type":"Stadt"},"district":{"key":"06532","name":"Lahn-Dill-Kreis","type":"Landkreis"},"federalState":{"key":"06","name":"Hessen"}},{"name":"Im Valter","postalCode":"35619","locality":"Braunfels","municipality":{"key":"06532003","name":"Braunfels, Stadt","type":"Stadt"},"district":{"key":"06532","name":"Lahn-Dill-Kreis","type":"Landkreis"},"federalState":{"key":"06","name":"Hessen"}},{"name":"Im Weizen","postalCode":"35619","locality":"Braunfels","municipality":{"key":"06532003","name":"Braunfels, Stadt","type":"Stadt"},"district":{"key":"06532","name":"Lahn-Dill-Kreis","type":"Landkreis"},"federalState":{"key":"06","name":"Hessen"}},{"name":"In den Anlagen","postalCode":"35619","locality":"Braunfels","municipality":{"key":"06532003","name":"Braunfels, Stadt","type":"Stadt"},"district":{"key":"06532","name":"Lahn-Dill-Kreis","type":"Landkreis"},"federalState":{"key":"06","name":"Hessen"}},{"name":"Iserbachstr.","postalCode":"35619","locality":"Braunfels","municipality":{"key":"06532003","name":"Braunfels, Stadt","type":"Stadt"},"district":{"key":"06532","name":"Lahn-Dill-Kreis","type":"Landkreis"},"federalState":{"key":"06","name":"Hessen"}},{"name":"Jägerstr.","postalCode":"35619","locality":"Braunfels","municipality":{"key":"06532003","name":"Braunfels, Stadt","type":"Stadt"},"district":{"key":"06532","name":"Lahn-Dill-Kreis","type":"Landkreis"},"federalState":{"key":"06","name":"Hessen"}},{"name":"Jahnstr.","postalCode":"35619","locality":"Braunfels","municipality":{"key":"06532003","name":"Braunfels, Stadt","type":"Stadt"},"district":{"key":"06532","name":"Lahn-Dill-Kreis","type":"Landkreis"},"federalState":{"key":"06","name":"Hessen"}},{"name":"Josef-Lücker-Weg","postalCode":"35619","locality":"Braunfels","municipality":{"key":"06532003","name":"Braunfels, Stadt","type":"Stadt"},"district":{"key":"06532","name":"Lahn-Dill-Kreis","type":"Landkreis"},"federalState":{"key":"06","name":"Hessen"}},{"name":"Kaiser-Friedrich-Str.","postalCode":"35619","locality":"Braunfels","municipality":{"key":"06532003","name":"Braunfels, Stadt","type":"Stadt"},"district":{"key":"06532","name":"Lahn-Dill-Kreis","type":"Landkreis"},"federalState":{"key":"06","name":"Hessen"}},{"name":"Kalksottel","postalCode":"35619","locality":"Braunfels","municipality":{"key":"06532003","name":"Braunfels, Stadt","type":"Stadt"},"district":{"key":"06532","name":"Lahn-Dill-Kreis","type":"Landkreis"},"federalState":{"key":"06","name":"Hessen"}},{"name":"Kammerbergstr.","postalCode":"35619","locality":"Braunfels","municipality":{"key":"06532003","name":"Braunfels, Stadt","type":"Stadt"},"district":{"key":"06532","name":"Lahn-Dill-Kreis","type":"Landkreis"},"federalState":{"key":"06","name":"Hessen"}},{"name":"Kammerwies","postalCode":"35619","locality":"Braunfels","municipality":{"key":"06532003","name":"Braunfels, Stadt","type":"Stadt"},"district":{"key":"06532","name":"Lahn-Dill-Kreis","type":"Landkreis"},"federalState":{"key":"06","name":"Hessen"}},{"name":"Karl-Broll-Str.","postalCode":"35619","locality":"Braunfels","municipality":{"key":"06532003","name":"Braunfels, Stadt","type":"Stadt"},"district":{"key":"06532","name":"Lahn-Dill-Kreis","type":"Landkreis"},"federalState":{"key":"06","name":"Hessen"}},{"name":"Karl-Heinz-Schellenberg-Weg","postalCode":"35619","locality":"Braunfels","municipality":{"key":"06532003","name":"Braunfels, Stadt","type":"Stadt"},"district":{"key":"06532","name":"Lahn-Dill-Kreis","type":"Landkreis"},"federalState":{"key":"06","name":"Hessen"}},{"name":"Kastanienallee","postalCode":"35619","locality":"Braunfels","municipality":{"key":"06532003","name":"Braunfels, Stadt","type":"Stadt"},"district":{"key":"06532","name":"Lahn-Dill-Kreis","type":"Landkreis"},"federalState":{"key":"06","name":"Hessen"}},{"name":"Käutchesweg","postalCode":"35619","locality":"Braunfels","municipality":{"key":"06532003","name":"Braunfels, Stadt","type":"Stadt"},"district":{"key":"06532","name":"Lahn-Dill-Kreis","type":"Landkreis"},"federalState":{"key":"06","name":"Hessen"}},{"name":"Keltenweg","postalCode":"35619","locality":"Braunfels","municipality":{"key":"06532003","name":"Braunfels, Stadt","type":"Stadt"},"district":{"key":"06532","name":"Lahn-Dill-Kreis","type":"Landkreis"},"federalState":{"key":"06","name":"Hessen"}},{"name":"Kesselgasse","postalCode":"35619","locality":"Braunfels","municipality":{"key":"06532003","name":"Braunfels, Stadt","type":"Stadt"},"district":{"key":"06532","name":"Lahn-Dill-Kreis","type":"Landkreis"},"federalState":{"key":"06","name":"Hessen"}},{"name":"Kirchstr.","postalCode":"35619","locality":"Braunfels","municipality":{"key":"06532003","name":"Braunfels, Stadt","type":"Stadt"},"district":{"key":"06532","name":"Lahn-Dill-Kreis","type":"Landkreis"},"federalState":{"key":"06","name":"Hessen"}},{"name":"Kirschenhohl","postalCode":"35619","locality":"Braunfels","municipality":{"key":"06532003","name":"Braunfels, Stadt","type":"Stadt"},"district":{"key":"06532","name":"Lahn-Dill-Kreis","type":"Landkreis"},"federalState":{"key":"06","name":"Hessen"}},{"name":"Kirschgarten","postalCode":"35619","locality":"Braunfels","municipality":{"key":"06532003","name":"Braunfels, Stadt","type":"Stadt"},"district":{"key":"06532","name":"Lahn-Dill-Kreis","type":"Landkreis"},"federalState":{"key":"06","name":"Hessen"}},{"name":"Kleine Weihergärten","postalCode":"35619","locality":"Braunfels","municipality":{"key":"06532003","name":"Braunfels, Stadt","type":"Stadt"},"district":{"key":"06532","name":"Lahn-Dill-Kreis","type":"Landkreis"},"federalState":{"key":"06","name":"Hessen"}},{"name":"Kohlackerweg","postalCode":"35619","locality":"Braunfels","municipality":{"key":"06532003","name":"Braunfels, Stadt","type":"Stadt"},"district":{"key":"06532","name":"Lahn-Dill-Kreis","type":"Landkreis"},"federalState":{"key":"06","name":"Hessen"}},{"name":"Königsberger Str.","postalCode":"35619","locality":"Braunfels","municipality":{"key":"06532003","name":"Braunfels, Stadt","type":"Stadt"},"district":{"key":"06532","name":"Lahn-Dill-Kreis","type":"Landkreis"},"federalState":{"key":"06","name":"Hessen"}},{"name":"Köpperweg","postalCode":"35619","locality":"Braunfels","municipality":{"key":"06532003","name":"Braunfels, Stadt","type":"Stadt"},"district":{"key":"06532","name":"Lahn-Dill-Kreis","type":"Landkreis"},"federalState":{"key":"06","name":"Hessen"}},{"name":"Kreuzbornplatz","postalCode":"35619","locality":"Braunfels","municipality":{"key":"06532003","name":"Braunfels, Stadt","type":"Stadt"},"district":{"key":"06532","name":"Lahn-Dill-Kreis","type":"Landkreis"},"federalState":{"key":"06","name":"Hessen"}},{"name":"Kuckucksweg","postalCode":"35619","locality":"Braunfels","municipality":{"key":"06532003","name":"Braunfels, Stadt","type":"Stadt"},"district":{"key":"06532","name":"Lahn-Dill-Kreis","type":"Landkreis"},"federalState":{"key":"06","name":"Hessen"}},{"name":"Kurpark Herrngarten","postalCode":"35619","locality":"Braunfels","municipality":{"key":"06532003","name":"Braunfels, Stadt","type":"Stadt"},"district":{"key":"06532","name":"Lahn-Dill-Kreis","type":"Landkreis"},"federalState":{"key":"06","name":"Hessen"}},{"name":"Lahnstr.","postalCode":"35619","locality":"Braunfels","municipality":{"key":"06532003","name":"Braunfels, Stadt","type":"Stadt"},"district":{"key":"06532","name":"Lahn-Dill-Kreis","type":"Landkreis"},"federalState":{"key":"06","name":"Hessen"}},{"name":"Landrechtstr.","postalCode":"35619","locality":"Braunfels","municipality":{"key":"06532003","name":"Braunfels, Stadt","type":"Stadt"},"district":{"key":"06532","name":"Lahn-Dill-Kreis","type":"Landkreis"},"federalState":{"key":"06","name":"Hessen"}},{"name":"Lange Str.","postalCode":"35619","locality":"Braunfels","municipality":{"key":"06532003","name":"Braunfels, Stadt","type":"Stadt"},"district":{"key":"06532","name":"Lahn-Dill-Kreis","type":"Landkreis"},"federalState":{"key":"06","name":"Hessen"}},{"name":"Laufdorfer Str.","postalCode":"35619","locality":"Braunfels","municipality":{"key":"06532003","name":"Braunfels, Stadt","type":"Stadt"},"district":{"key":"06532","name":"Lahn-Dill-Kreis","type":"Landkreis"},"federalState":{"key":"06","name":"Hessen"}},{"name":"Lerchenweg","postalCode":"35619","locality":"Braunfels","municipality":{"key":"06532003","name":"Braunfels, Stadt","type":"Stadt"},"district":{"key":"06532","name":"Lahn-Dill-Kreis","type":"Landkreis"},"federalState":{"key":"06","name":"Hessen"}},{"name":"Leuner Str.","postalCode":"35619","locality":"Braunfels","municipality":{"key":"06532003","name":"Braunfels, Stadt","type":"Stadt"},"district":{"key":"06532","name":"Lahn-Dill-Kreis","type":"Landkreis"},"federalState":{"key":"06","name":"Hessen"}},{"name":"Lindelbachstr.","postalCode":"35619","locality":"Braunfels","municipality":{"key":"06532003","name":"Braunfels, Stadt","type":"Stadt"},"district":{"key":"06532","name":"Lahn-Dill-Kreis","type":"Landkreis"},"federalState":{"key":"06","name":"Hessen"}},{"name":"Lindenstr.","postalCode":"35619","locality":"Braunfels","municipality":{"key":"06532003","name":"Braunfels, Stadt","type":"Stadt"},"district":{"key":"06532","name":"Lahn-Dill-Kreis","type":"Landkreis"},"federalState":{"key":"06","name":"Hessen"}},{"name":"Lohrbachstr.","postalCode":"35619","locality":"Braunfels","municipality":{"key":"06532003","name":"Braunfels, Stadt","type":"Stadt"},"district":{"key":"06532","name":"Lahn-Dill-Kreis","type":"Landkreis"},"federalState":{"key":"06","name":"Hessen"}},{"name":"Marktplatz","postalCode":"35619","locality":"Braunfels","municipality":{"key":"06532003","name":"Braunfels, Stadt","type":"Stadt"},"district":{"key":"06532","name":"Lahn-Dill-Kreis","type":"Landkreis"},"federalState":{"key":"06","name":"Hessen"}},{"name":"Meisenweg","postalCode":"35619","locality":"Braunfels","municipality":{"key":"06532003","name":"Braunfels, Stadt","type":"Stadt"},"district":{"key":"06532","name":"Lahn-Dill-Kreis","type":"Landkreis"},"federalState":{"key":"06","name":"Hessen"}},{"name":"Mittelstr.","postalCode":"35619","locality":"Braunfels","municipality":{"key":"06532003","name":"Braunfels, Stadt","type":"Stadt"},"district":{"key":"06532","name":"Lahn-Dill-Kreis","type":"Landkreis"},"federalState":{"key":"06","name":"Hessen"}},{"name":"Möttauer Str.","postalCode":"35619","locality":"Braunfels","municipality":{"key":"06532003","name":"Braunfels, Stadt","type":"Stadt"},"district":{"key":"06532","name":"Lahn-Dill-Kreis","type":"Landkreis"},"federalState":{"key":"06","name":"Hessen"}},{"name":"Mühlengrund","postalCode":"35619","locality":"Braunfels","municipality":{"key":"06532003","name":"Braunfels, Stadt","type":"Stadt"},"district":{"key":"06532","name":"Lahn-Dill-Kreis","type":"Landkreis"},"federalState":{"key":"06","name":"Hessen"}},{"name":"Mühlenkopfstr.","postalCode":"35619","locality":"Braunfels","municipality":{"key":"06532003","name":"Braunfels, Stadt","type":"Stadt"},"district":{"key":"06532","name":"Lahn-Dill-Kreis","type":"Landkreis"},"federalState":{"key":"06","name":"Hessen"}},{"name":"Mühlweg","postalCode":"35619","locality":"Braunfels","municipality":{"key":"06532003","name":"Braunfels, Stadt","type":"Stadt"},"district":{"key":"06532","name":"Lahn-Dill-Kreis","type":"Landkreis"},"federalState":{"key":"06","name":"Hessen"}},{"name":"Nassauer Str.","postalCode":"35619","locality":"Braunfels","municipality":{"key":"06532003","name":"Braunfels, Stadt","type":"Stadt"},"district":{"key":"06532","name":"Lahn-Dill-Kreis","type":"Landkreis"},"federalState":{"key":"06","name":"Hessen"}},{"name":"Nelkenweg","postalCode":"35619","locality":"Braunfels","municipality":{"key":"06532003","name":"Braunfels, Stadt","type":"Stadt"},"district":{"key":"06532","name":"Lahn-Dill-Kreis","type":"Landkreis"},"federalState":{"key":"06","name":"Hessen"}},{"name":"Neu-Braunfelser-Str.","postalCode":"35619","locality":"Braunfels","municipality":{"key":"06532003","name":"Braunfels, Stadt","type":"Stadt"},"district":{"key":"06532","name":"Lahn-Dill-Kreis","type":"Landkreis"},"federalState":{"key":"06","name":"Hessen"}},{"name":"Neue Kreisstr.","postalCode":"35619","locality":"Braunfels","municipality":{"key":"06532003","name":"Braunfels, Stadt","type":"Stadt"},"district":{"key":"06532","name":"Lahn-Dill-Kreis","type":"Landkreis"},"federalState":{"key":"06","name":"Hessen"}},{"name":"Neukirchener Str.","postalCode":"35619","locality":"Braunfels","municipality":{"key":"06532003","name":"Braunfels, Stadt","type":"Stadt"},"district":{"key":"06532","name":"Lahn-Dill-Kreis","type":"Landkreis"},"federalState":{"key":"06","name":"Hessen"}},{"name":"Neuköllner Str.","postalCode":"35619","locality":"Braunfels","municipality":{"key":"06532003","name":"Braunfels, Stadt","type":"Stadt"},"district":{"key":"06532","name":"Lahn-Dill-Kreis","type":"Landkreis"},"federalState":{"key":"06","name":"Hessen"}},{"name":"Neutitscheiner Str.","postalCode":"35619","locality":"Braunfels","municipality":{"key":"06532003","name":"Braunfels, Stadt","type":"Stadt"},"district":{"key":"06532","name":"Lahn-Dill-Kreis","type":"Landkreis"},"federalState":{"key":"06","name":"Hessen"}},{"name":"Newburystr.","postalCode":"35619","locality":"Braunfels","municipality":{"key":"06532003","name":"Braunfels, Stadt","type":"Stadt"},"district":{"key":"06532","name":"Lahn-Dill-Kreis","type":"Landkreis"},"federalState":{"key":"06","name":"Hessen"}},{"name":"Nirnbergstr.","postalCode":"35619","locality":"Braunfels","municipality":{"key":"06532003","name":"Braunfels, Stadt","type":"Stadt"},"district":{"key":"06532","name":"Lahn-Dill-Kreis","type":"Landkreis"},"federalState":{"key":"06","name":"Hessen"}},{"name":"Nordstr.","postalCode":"35619","locality":"Braunfels","municipality":{"key":"06532003","name":"Braunfels, Stadt","type":"Stadt"},"district":{"key":"06532","name":"Lahn-Dill-Kreis","type":"Landkreis"},"federalState":{"key":"06","name":"Hessen"}},{"name":"Ober der Gauch","postalCode":"35619","locality":"Braunfels","municipality":{"key":"06532003","name":"Braunfels, Stadt","type":"Stadt"},"district":{"key":"06532","name":"Lahn-Dill-Kreis","type":"Landkreis"},"federalState":{"key":"06","name":"Hessen"}},{"name":"Oberer Hellweg","postalCode":"35619","locality":"Braunfels","municipality":{"key":"06532003","name":"Braunfels, Stadt","type":"Stadt"},"district":{"key":"06532","name":"Lahn-Dill-Kreis","type":"Landkreis"},"federalState":{"key":"06","name":"Hessen"}},{"name":"Obergasse","postalCode":"35619","locality":"Braunfels","municipality":{"key":"06532003","name":"Braunfels, Stadt","type":"Stadt"},"district":{"key":"06532","name":"Lahn-Dill-Kreis","type":"Landkreis"},"federalState":{"key":"06","name":"Hessen"}},{"name":"Obermühle","postalCode":"35619","locality":"Braunfels","municipality":{"key":"06532003","name":"Braunfels, Stadt","type":"Stadt"},"district":{"key":"06532","name":"Lahn-Dill-Kreis","type":"Landkreis"},"federalState":{"key":"06","name":"Hessen"}},{"name":"Pestalozzistr.","postalCode":"35619","locality":"Braunfels","municipality":{"key":"06532003","name":"Braunfels, Stadt","type":"Stadt"},"district":{"key":"06532","name":"Lahn-Dill-Kreis","type":"Landkreis"},"federalState":{"key":"06","name":"Hessen"}},{"name":"Pfarrgasse","postalCode":"35619","locality":"Braunfels","municipality":{"key":"06532003","name":"Braunfels, Stadt","type":"Stadt"},"district":{"key":"06532","name":"Lahn-Dill-Kreis","type":"Landkreis"},"federalState":{"key":"06","name":"Hessen"}},{"name":"Philippsteiner Hohl","postalCode":"35619","locality":"Braunfels","municipality":{"key":"06532003","name":"Braunfels, Stadt","type":"Stadt"},"district":{"key":"06532","name":"Lahn-Dill-Kreis","type":"Landkreis"},"federalState":{"key":"06","name":"Hessen"}},{"name":"Philippsteiner Weg","postalCode":"35619","locality":"Braunfels","municipality":{"key":"06532003","name":"Braunfels, Stadt","type":"Stadt"},"district":{"key":"06532","name":"Lahn-Dill-Kreis","type":"Landkreis"},"federalState":{"key":"06","name":"Hessen"}},{"name":"Pirolweg","postalCode":"35619","locality":"Braunfels","municipality":{"key":"06532003","name":"Braunfels, Stadt","type":"Stadt"},"district":{"key":"06532","name":"Lahn-Dill-Kreis","type":"Landkreis"},"federalState":{"key":"06","name":"Hessen"}},{"name":"Poststr.","postalCode":"35619","locality":"Braunfels","municipality":{"key":"06532003","name":"Braunfels, Stadt","type":"Stadt"},"district":{"key":"06532","name":"Lahn-Dill-Kreis","type":"Landkreis"},"federalState":{"key":"06","name":"Hessen"}},{"name":"Prinzeß-Amalien-Str.","postalCode":"35619","locality":"Braunfels","municipality":{"key":"06532003","name":"Braunfels, Stadt","type":"Stadt"},"district":{"key":"06532","name":"Lahn-Dill-Kreis","type":"Landkreis"},"federalState":{"key":"06","name":"Hessen"}},{"name":"Richard-Zimmermann-Weg","postalCode":"35619","locality":"Braunfels","municipality":{"key":"06532003","name":"Braunfels, Stadt","type":"Stadt"},"district":{"key":"06532","name":"Lahn-Dill-Kreis","type":"Landkreis"},"federalState":{"key":"06","name":"Hessen"}},{"name":"Rilkestr.","postalCode":"35619","locality":"Braunfels","municipality":{"key":"06532003","name":"Braunfels, Stadt","type":"Stadt"},"district":{"key":"06532","name":"Lahn-Dill-Kreis","type":"Landkreis"},"federalState":{"key":"06","name":"Hessen"}},{"name":"Rinchweg","postalCode":"35619","locality":"Braunfels","municipality":{"key":"06532003","name":"Braunfels, Stadt","type":"Stadt"},"district":{"key":"06532","name":"Lahn-Dill-Kreis","type":"Landkreis"},"federalState":{"key":"06","name":"Hessen"}},{"name":"Rohrmoos-Untertal-Str.","postalCode":"35619","locality":"Braunfels","municipality":{"key":"06532003","name":"Braunfels, Stadt","type":"Stadt"},"district":{"key":"06532","name":"Lahn-Dill-Kreis","type":"Landkreis"},"federalState":{"key":"06","name":"Hessen"}},{"name":"Rosenstr.","postalCode":"35619","locality":"Braunfels","municipality":{"key":"06532003","name":"Braunfels, Stadt","type":"Stadt"},"district":{"key":"06532","name":"Lahn-Dill-Kreis","type":"Landkreis"},"federalState":{"key":"06","name":"Hessen"}},{"name":"Rotkehlchenweg","postalCode":"35619","locality":"Braunfels","municipality":{"key":"06532003","name":"Braunfels, Stadt","type":"Stadt"},"district":{"key":"06532","name":"Lahn-Dill-Kreis","type":"Landkreis"},"federalState":{"key":"06","name":"Hessen"}},{"name":"Sälzerweg","postalCode":"35619","locality":"Braunfels","municipality":{"key":"06532003","name":"Braunfels, Stadt","type":"Stadt"},"district":{"key":"06532","name":"Lahn-Dill-Kreis","type":"Landkreis"},"federalState":{"key":"06","name":"Hessen"}},{"name":"Sangerweg","postalCode":"35619","locality":"Braunfels","municipality":{"key":"06532003","name":"Braunfels, Stadt","type":"Stadt"},"district":{"key":"06532","name":"Lahn-Dill-Kreis","type":"Landkreis"},"federalState":{"key":"06","name":"Hessen"}},{"name":"Schlesierstr.","postalCode":"35619","locality":"Braunfels","municipality":{"key":"06532003","name":"Braunfels, Stadt","type":"Stadt"},"district":{"key":"06532","name":"Lahn-Dill-Kreis","type":"Landkreis"},"federalState":{"key":"06","name":"Hessen"}},{"name":"Schloßstr.","postalCode":"35619","locality":"Braunfels","municipality":{"key":"06532003","name":"Braunfels, Stadt","type":"Stadt"},"district":{"key":"06532","name":"Lahn-Dill-Kreis","type":"Landkreis"},"federalState":{"key":"06","name":"Hessen"}},{"name":"Schmiedgasse","postalCode":"35619","locality":"Braunfels","municipality":{"key":"06532003","name":"Braunfels, Stadt","type":"Stadt"},"district":{"key":"06532","name":"Lahn-Dill-Kreis","type":"Landkreis"},"federalState":{"key":"06","name":"Hessen"}},{"name":"Schöne Aussicht","postalCode":"35619","locality":"Braunfels","municipality":{"key":"06532003","name":"Braunfels, Stadt","type":"Stadt"},"district":{"key":"06532","name":"Lahn-Dill-Kreis","type":"Landkreis"},"federalState":{"key":"06","name":"Hessen"}},{"name":"Schulstr.","postalCode":"35619","locality":"Braunfels","municipality":{"key":"06532003","name":"Braunfels, Stadt","type":"Stadt"},"district":{"key":"06532","name":"Lahn-Dill-Kreis","type":"Landkreis"},"federalState":{"key":"06","name":"Hessen"}},{"name":"Schütt","postalCode":"35619","locality":"Braunfels","municipality":{"key":"06532003","name":"Braunfels, Stadt","type":"Stadt"},"district":{"key":"06532","name":"Lahn-Dill-Kreis","type":"Landkreis"},"federalState":{"key":"06","name":"Hessen"}},{"name":"Schwalbacher Str.","postalCode":"35619","locality":"Braunfels","municipality":{"key":"06532003","name":"Braunfels, Stadt","type":"Stadt"},"district":{"key":"06532","name":"Lahn-Dill-Kreis","type":"Landkreis"},"federalState":{"key":"06","name":"Hessen"}},{"name":"Schwalbenweg","postalCode":"35619","locality":"Braunfels","municipality":{"key":"06532003","name":"Braunfels, Stadt","type":"Stadt"},"district":{"key":"06532","name":"Lahn-Dill-Kreis","type":"Landkreis"},"federalState":{"key":"06","name":"Hessen"}},{"name":"Schwaner Weg","postalCode":"35619","locality":"Braunfels","municipality":{"key":"06532003","name":"Braunfels, Stadt","type":"Stadt"},"district":{"key":"06532","name":"Lahn-Dill-Kreis","type":"Landkreis"},"federalState":{"key":"06","name":"Hessen"}},{"name":"Seitenstr.","postalCode":"35619","locality":"Braunfels","municipality":{"key":"06532003","name":"Braunfels, Stadt","type":"Stadt"},"district":{"key":"06532","name":"Lahn-Dill-Kreis","type":"Landkreis"},"federalState":{"key":"06","name":"Hessen"}},{"name":"Siechweg","postalCode":"35619","locality":"Braunfels","municipality":{"key":"06532003","name":"Braunfels, Stadt","type":"Stadt"},"district":{"key":"06532","name":"Lahn-Dill-Kreis","type":"Landkreis"},"federalState":{"key":"06","name":"Hessen"}},{"name":"Solmsbachstr.","postalCode":"35619","locality":"Braunfels","municipality":{"key":"06532003","name":"Braunfels, Stadt","type":"Stadt"},"district":{"key":"06532","name":"Lahn-Dill-Kreis","type":"Landkreis"},"federalState":{"key":"06","name":"Hessen"}},{"name":"Solmser Str.","postalCode":"35619","locality":"Braunfels","municipality":{"key":"06532003","name":"Braunfels, Stadt","type":"Stadt"},"district":{"key":"06532","name":"Lahn-Dill-Kreis","type":"Landkreis"},"federalState":{"key":"06","name":"Hessen"}},{"name":"Spechtweg","postalCode":"35619","locality":"Braunfels","municipality":{"key":"06532003","name":"Braunfels, Stadt","type":"Stadt"},"district":{"key":"06532","name":"Lahn-Dill-Kreis","type":"Landkreis"},"federalState":{"key":"06","name":"Hessen"}},{"name":"Sportanlage","postalCode":"35619","locality":"Braunfels","municipality":{"key":"06532003","name":"Braunfels, Stadt","type":"Stadt"},"district":{"key":"06532","name":"Lahn-Dill-Kreis","type":"Landkreis"},"federalState":{"key":"06","name":"Hessen"}},{"name":"Starweg","postalCode":"35619","locality":"Braunfels","municipality":{"key":"06532003","name":"Braunfels, Stadt","type":"Stadt"},"district":{"key":"06532","name":"Lahn-Dill-Kreis","type":"Landkreis"},"federalState":{"key":"06","name":"Hessen"}},{"name":"Stettiner Str.","postalCode":"35619","locality":"Braunfels","municipality":{"key":"06532003","name":"Braunfels, Stadt","type":"Stadt"},"district":{"key":"06532","name":"Lahn-Dill-Kreis","type":"Landkreis"},"federalState":{"key":"06","name":"Hessen"}},{"name":"St. Georger Berg","postalCode":"35619","locality":"Braunfels","municipality":{"key":"06532003","name":"Braunfels, Stadt","type":"Stadt"},"district":{"key":"06532","name":"Lahn-Dill-Kreis","type":"Landkreis"},"federalState":{"key":"06","name":"Hessen"}},{"name":"St.-Georg-Str.","postalCode":"35619","locality":"Braunfels","municipality":{"key":"06532003","name":"Braunfels, Stadt","type":"Stadt"},"district":{"key":"06532","name":"Lahn-Dill-Kreis","type":"Landkreis"},"federalState":{"key":"06","name":"Hessen"}},{"name":"Sudetenstr.","postalCode":"35619","locality":"Braunfels","municipality":{"key":"06532003","name":"Braunfels, Stadt","type":"Stadt"},"district":{"key":"06532","name":"Lahn-Dill-Kreis","type":"Landkreis"},"federalState":{"key":"06","name":"Hessen"}},{"name":"Talstr.","postalCode":"35619","locality":"Braunfels","municipality":{"key":"06532003","name":"Braunfels, Stadt","type":"Stadt"},"district":{"key":"06532","name":"Lahn-Dill-Kreis","type":"Landkreis"},"federalState":{"key":"06","name":"Hessen"}},{"name":"Taubenweg","postalCode":"35619","locality":"Braunfels","municipality":{"key":"06532003","name":"Braunfels, Stadt","type":"Stadt"},"district":{"key":"06532","name":"Lahn-Dill-Kreis","type":"Landkreis"},"federalState":{"key":"06","name":"Hessen"}},{"name":"Taunusstr.","postalCode":"35619","locality":"Braunfels","municipality":{"key":"06532003","name":"Braunfels, Stadt","type":"Stadt"},"district":{"key":"06532","name":"Lahn-Dill-Kreis","type":"Landkreis"},"federalState":{"key":"06","name":"Hessen"}},{"name":"Tiefenbacher Str.","postalCode":"35619","locality":"Braunfels","municipality":{"key":"06532003","name":"Braunfels, Stadt","type":"Stadt"},"district":{"key":"06532","name":"Lahn-Dill-Kreis","type":"Landkreis"},"federalState":{"key":"06","name":"Hessen"}},{"name":"Tiergartenstr.","postalCode":"35619","locality":"Braunfels","municipality":{"key":"06532003","name":"Braunfels, Stadt","type":"Stadt"},"district":{"key":"06532","name":"Lahn-Dill-Kreis","type":"Landkreis"},"federalState":{"key":"06","name":"Hessen"}},{"name":"Tulpenweg","postalCode":"35619","locality":"Braunfels","municipality":{"key":"06532003","name":"Braunfels, Stadt","type":"Stadt"},"district":{"key":"06532","name":"Lahn-Dill-Kreis","type":"Landkreis"},"federalState":{"key":"06","name":"Hessen"}},{"name":"Uhuweg","postalCode":"35619","locality":"Braunfels","municipality":{"key":"06532003","name":"Braunfels, Stadt","type":"Stadt"},"district":{"key":"06532","name":"Lahn-Dill-Kreis","type":"Landkreis"},"federalState":{"key":"06","name":"Hessen"}},{"name":"Ulmenweg","postalCode":"35619","locality":"Braunfels","municipality":{"key":"06532003","name":"Braunfels, Stadt","type":"Stadt"},"district":{"key":"06532","name":"Lahn-Dill-Kreis","type":"Landkreis"},"federalState":{"key":"06","name":"Hessen"}},{"name":"Unterer Burgweg","postalCode":"35619","locality":"Braunfels","municipality":{"key":"06532003","name":"Braunfels, Stadt","type":"Stadt"},"district":{"key":"06532","name":"Lahn-Dill-Kreis","type":"Landkreis"},"federalState":{"key":"06","name":"Hessen"}},{"name":"Unterer Hellweg","postalCode":"35619","locality":"Braunfels","municipality":{"key":"06532003","name":"Braunfels, Stadt","type":"Stadt"},"district":{"key":"06532","name":"Lahn-Dill-Kreis","type":"Landkreis"},"federalState":{"key":"06","name":"Hessen"}},{"name":"Untergasse","postalCode":"35619","locality":"Braunfels","municipality":{"key":"06532003","name":"Braunfels, Stadt","type":"Stadt"},"district":{"key":"06532","name":"Lahn-Dill-Kreis","type":"Landkreis"},"federalState":{"key":"06","name":"Hessen"}},{"name":"Vogelsang","postalCode":"35619","locality":"Braunfels","municipality":{"key":"06532003","name":"Braunfels, Stadt","type":"Stadt"},"district":{"key":"06532","name":"Lahn-Dill-Kreis","type":"Landkreis"},"federalState":{"key":"06","name":"Hessen"}},{"name":"Vor der Schanz","postalCode":"35619","locality":"Braunfels","municipality":{"key":"06532003","name":"Braunfels, Stadt","type":"Stadt"},"district":{"key":"06532","name":"Lahn-Dill-Kreis","type":"Landkreis"},"federalState":{"key":"06","name":"Hessen"}},{"name":"Vor der Wintersburg","postalCode":"35619","locality":"Braunfels","municipality":{"key":"06532003","name":"Braunfels, Stadt","type":"Stadt"},"district":{"key":"06532","name":"Lahn-Dill-Kreis","type":"Landkreis"},"federalState":{"key":"06","name":"Hessen"}},{"name":"Wachtelweg","postalCode":"35619","locality":"Braunfels","municipality":{"key":"06532003","name":"Braunfels, Stadt","type":"Stadt"},"district":{"key":"06532","name":"Lahn-Dill-Kreis","type":"Landkreis"},"federalState":{"key":"06","name":"Hessen"}},{"name":"Waldblick","postalCode":"35619","locality":"Braunfels","municipality":{"key":"06532003","name":"Braunfels, Stadt","type":"Stadt"},"district":{"key":"06532","name":"Lahn-Dill-Kreis","type":"Landkreis"},"federalState":{"key":"06","name":"Hessen"}},{"name":"Waldstr.","postalCode":"35619","locality":"Braunfels","municipality":{"key":"06532003","name":"Braunfels, Stadt","type":"Stadt"},"district":{"key":"06532","name":"Lahn-Dill-Kreis","type":"Landkreis"},"federalState":{"key":"06","name":"Hessen"}},{"name":"Weiherstieg","postalCode":"35619","locality":"Braunfels","municipality":{"key":"06532003","name":"Braunfels, Stadt","type":"Stadt"},"district":{"key":"06532","name":"Lahn-Dill-Kreis","type":"Landkreis"},"federalState":{"key":"06","name":"Hessen"}},{"name":"Weilburger Str.","postalCode":"35619","locality":"Braunfels","municipality":{"key":"06532003","name":"Braunfels, Stadt","type":"Stadt"},"district":{"key":"06532","name":"Lahn-Dill-Kreis","type":"Landkreis"},"federalState":{"key":"06","name":"Hessen"}},{"name":"Weingartenstr.","postalCode":"35619","locality":"Braunfels","municipality":{"key":"06532003","name":"Braunfels, Stadt","type":"Stadt"},"district":{"key":"06532","name":"Lahn-Dill-Kreis","type":"Landkreis"},"federalState":{"key":"06","name":"Hessen"}},{"name":"Wetzlarer Str.","postalCode":"35619","locality":"Braunfels","municipality":{"key":"06532003","name":"Braunfels, Stadt","type":"Stadt"},"district":{"key":"06532","name":"Lahn-Dill-Kreis","type":"Landkreis"},"federalState":{"key":"06","name":"Hessen"}},{"name":"Wiesenstr.","postalCode":"35619","locality":"Braunfels","municipality":{"key":"06532003","name":"Braunfels, Stadt","type":"Stadt"},"district":{"key":"06532","name":"Lahn-Dill-Kreis","type":"Landkreis"},"federalState":{"key":"06","name":"Hessen"}},{"name":"Windmühlenweg","postalCode":"35619","locality":"Braunfels","municipality":{"key":"06532003","name":"Braunfels, Stadt","type":"Stadt"},"district":{"key":"06532","name":"Lahn-Dill-Kreis","type":"Landkreis"},"federalState":{"key":"06","name":"Hessen"}},{"name":"Wintersburgstr.","postalCode":"35619","locality":"Braunfels","municipality":{"key":"06532003","name":"Braunfels, Stadt","type":"Stadt"},"district":{"key":"06532","name":"Lahn-Dill-Kreis","type":"Landkreis"},"federalState":{"key":"06","name":"Hessen"}},{"name":"Zeisigweg","postalCode":"35619","locality":"Braunfels","municipality":{"key":"06532003","name":"Braunfels, Stadt","type":"Stadt"},"district":{"key":"06532","name":"Lahn-Dill-Kreis","type":"Landkreis"},"federalState":{"key":"06","name":"Hessen"}},{"name":"Zollstock","postalCode":"35619","locality":"Braunfels","municipality":{"key":"06532003","name":"Braunfels, Stadt","type":"Stadt"},"district":{"key":"06532","name":"Lahn-Dill-Kreis","type":"Landkreis"},"federalState":{"key":"06","name":"Hessen"}},{"name":"Zu den Bettern","postalCode":"35619","locality":"Braunfels","municipality":{"key":"06532003","name":"Braunfels, Stadt","type":"Stadt"},"district":{"key":"06532","name":"Lahn-Dill-Kreis","type":"Landkreis"},"federalState":{"key":"06","name":"Hessen"}},{"name":"Zum Grausen Baum","postalCode":"35619","locality":"Braunfels","municipality":{"key":"06532003","name":"Braunfels, Stadt","type":"Stadt"},"district":{"key":"06532","name":"Lahn-Dill-Kreis","type":"Landkreis"},"federalState":{"key":"06","name":"Hessen"}},{"name":"Zum Rasenberg","postalCode":"35619","locality":"Braunfels","municipality":{"key":"06532003","name":"Braunfels, Stadt","type":"Stadt"},"district":{"key":"06532","name":"Lahn-Dill-Kreis","type":"Landkreis"},"federalState":{"key":"06","name":"Hessen"}},{"name":"Zum Schöffengrund","postalCode":"35619","locality":"Braunfels","municipality":{"key":"06532003","name":"Braunfels, Stadt","type":"Stadt"},"district":{"key":"06532","name":"Lahn-Dill-Kreis","type":"Landkreis"},"federalState":{"key":"06","name":"Hessen"}},{"name":"Zum Wehrholz","postalCode":"35619","locality":"Braunfels","municipality":{"key":"06532003","name":"Braunfels, Stadt","type":"Stadt"},"district":{"key":"06532","name":"Lahn-Dill-Kreis","type":"Landkreis"},"federalState":{"key":"06","name":"Hessen"}},{"name":"Zum Weibersgrund","postalCode":"35619","locality":"Braunfels","municipality":{"key":"06532003","name":"Braunfels, Stadt","type":"Stadt"},"district":{"key":"06532","name":"Lahn-Dill-Kreis","type":"Landkreis"},"federalState":{"key":"06","name":"Hessen"}},{"name":"Zur Hainbachsmühle","postalCode":"35619","locality":"Braunfels","municipality":{"key":"06532003","name":"Braunfels, Stadt","type":"Stadt"},"district":{"key":"06532","name":"Lahn-Dill-Kreis","type":"Landkreis"},"federalState":{"key":"06","name":"Hessen"}},]