[{"key":"10059150","name":"Bois de la Vignette","postalCode":"1054","locality":"Morrens VD","commune":{"key":"5527","name":"Morrens (VD)","shortName":"Morrens (VD)"},"district":{"key":"2223","name":"District du Gros-de-Vaud"},"canton":{"key":"22","code":"VD","name":"Vaud"},"status":"Real"},{"key":"10097611","name":"Chemin de Bretigny","postalCode":"1054","locality":"Morrens VD","commune":{"key":"5527","name":"Morrens (VD)","shortName":"Morrens (VD)"},"district":{"key":"2223","name":"District du Gros-de-Vaud"},"canton":{"key":"22","code":"VD","name":"Vaud"},"status":"Real"},{"key":"10028348","name":"Chemin de la Chatterie","postalCode":"1054","locality":"Morrens VD","commune":{"key":"5527","name":"Morrens (VD)","shortName":"Morrens (VD)"},"district":{"key":"2223","name":"District du Gros-de-Vaud"},"canton":{"key":"22","code":"VD","name":"Vaud"},"status":"Real"},{"key":"10181839","name":"Chemin de la Colombaz","postalCode":"1054","locality":"Morrens VD","commune":{"key":"5527","name":"Morrens (VD)","shortName":"Morrens (VD)"},"district":{"key":"2223","name":"District du Gros-de-Vaud"},"canton":{"key":"22","code":"VD","name":"Vaud"},"status":"Real"},{"key":"10097613","name":"Chemin de la Genevriaz","postalCode":"1054","locality":"Morrens VD","commune":{"key":"5527","name":"Morrens (VD)","shortName":"Morrens (VD)"},"district":{"key":"2223","name":"District du Gros-de-Vaud"},"canton":{"key":"22","code":"VD","name":"Vaud"},"status":"Real"},{"key":"10028349","name":"Chemin de la Marionnaz","postalCode":"1054","locality":"Morrens VD","commune":{"key":"5527","name":"Morrens (VD)","shortName":"Morrens (VD)"},"district":{"key":"2223","name":"District du Gros-de-Vaud"},"canton":{"key":"22","code":"VD","name":"Vaud"},"status":"Real"},{"key":"10028350","name":"Chemin de la Rochette","postalCode":"1054","locality":"Morrens VD","commune":{"key":"5527","name":"Morrens (VD)","shortName":"Morrens (VD)"},"district":{"key":"2223","name":"District du Gros-de-Vaud"},"canton":{"key":"22","code":"VD","name":"Vaud"},"status":"Real"},{"key":"10105784","name":"Chemin de la Sissulaz","postalCode":"1054","locality":"Morrens VD","commune":{"key":"5527","name":"Morrens (VD)","shortName":"Morrens (VD)"},"district":{"key":"2223","name":"District du Gros-de-Vaud"},"canton":{"key":"22","code":"VD","name":"Vaud"},"status":"Real"},{"key":"10097614","name":"Chemin de la Vignettaz","postalCode":"1054","locality":"Morrens VD","commune":{"key":"5527","name":"Morrens (VD)","shortName":"Morrens (VD)"},"district":{"key":"2223","name":"District du Gros-de-Vaud"},"canton":{"key":"22","code":"VD","name":"Vaud"},"status":"Real"},{"key":"10028347","name":"Chemin de l'Eglise","postalCode":"1054","locality":"Morrens VD","commune":{"key":"5527","name":"Morrens (VD)","shortName":"Morrens (VD)"},"district":{"key":"2223","name":"District du Gros-de-Vaud"},"canton":{"key":"22","code":"VD","name":"Vaud"},"status":"Real"},{"key":"10097612","name":"Chemin de l'Epenettaz","postalCode":"1054","locality":"Morrens VD","commune":{"key":"5527","name":"Morrens (VD)","shortName":"Morrens (VD)"},"district":{"key":"2223","name":"District du Gros-de-Vaud"},"canton":{"key":"22","code":"VD","name":"Vaud"},"status":"Real"},{"key":"10074347","name":"Chemin de l'Orme","postalCode":"1054","locality":"Morrens VD","commune":{"key":"5527","name":"Morrens (VD)","shortName":"Morrens (VD)"},"district":{"key":"2223","name":"District du Gros-de-Vaud"},"canton":{"key":"22","code":"VD","name":"Vaud"},"status":"Real"},{"key":"10074346","name":"Chemin de Maupraz","postalCode":"1054","locality":"Morrens VD","commune":{"key":"5527","name":"Morrens (VD)","shortName":"Morrens (VD)"},"district":{"key":"2223","name":"District du Gros-de-Vaud"},"canton":{"key":"22","code":"VD","name":"Vaud"},"status":"Real"},{"key":"10028346","name":"Chemin de Pra Riond","postalCode":"1054","locality":"Morrens VD","commune":{"key":"5527","name":"Morrens (VD)","shortName":"Morrens (VD)"},"district":{"key":"2223","name":"District du Gros-de-Vaud"},"canton":{"key":"22","code":"VD","name":"Vaud"},"status":"Real"},{"key":"10116207","name":"Chemin de Pré-Lébaz","postalCode":"1054","locality":"Morrens VD","commune":{"key":"5527","name":"Morrens (VD)","shortName":"Morrens (VD)"},"district":{"key":"2223","name":"District du Gros-de-Vaud"},"canton":{"key":"22","code":"VD","name":"Vaud"},"status":"Real"},{"key":"10028351","name":"Chemin des Dailles","postalCode":"1054","locality":"Morrens VD","commune":{"key":"5527","name":"Morrens (VD)","shortName":"Morrens (VD)"},"district":{"key":"2223","name":"District du Gros-de-Vaud"},"canton":{"key":"22","code":"VD","name":"Vaud"},"status":"Real"},{"key":"10028352","name":"Chemin du Bugnon","postalCode":"1054","locality":"Morrens VD","commune":{"key":"5527","name":"Morrens (VD)","shortName":"Morrens (VD)"},"district":{"key":"2223","name":"District du Gros-de-Vaud"},"canton":{"key":"22","code":"VD","name":"Vaud"},"status":"Real"},{"key":"10028353","name":"Chemin du Chêne","postalCode":"1054","locality":"Morrens VD","commune":{"key":"5527","name":"Morrens (VD)","shortName":"Morrens (VD)"},"district":{"key":"2223","name":"District du Gros-de-Vaud"},"canton":{"key":"22","code":"VD","name":"Vaud"},"status":"Real"},{"key":"10097615","name":"Chemin du Crochet","postalCode":"1054","locality":"Morrens VD","commune":{"key":"5527","name":"Morrens (VD)","shortName":"Morrens (VD)"},"district":{"key":"2223","name":"District du Gros-de-Vaud"},"canton":{"key":"22","code":"VD","name":"Vaud"},"status":"Real"},{"key":"10028354","name":"Chemin du Deven","postalCode":"1054","locality":"Morrens VD","commune":{"key":"5527","name":"Morrens (VD)","shortName":"Morrens (VD)"},"district":{"key":"2223","name":"District du Gros-de-Vaud"},"canton":{"key":"22","code":"VD","name":"Vaud"},"status":"Real"},{"key":"10107966","name":"Chemin du Laviau","postalCode":"1054","locality":"Morrens VD","commune":{"key":"5527","name":"Morrens (VD)","shortName":"Morrens (VD)"},"district":{"key":"2223","name":"District du Gros-de-Vaud"},"canton":{"key":"22","code":"VD","name":"Vaud"},"status":"Real"},{"key":"10028355","name":"Chemin du Major-Davel","postalCode":"1054","locality":"Morrens VD","commune":{"key":"5527","name":"Morrens (VD)","shortName":"Morrens (VD)"},"district":{"key":"2223","name":"District du Gros-de-Vaud"},"canton":{"key":"22","code":"VD","name":"Vaud"},"status":"Real"},{"key":"10097616","name":"Chemin du Parchet","postalCode":"1054","locality":"Morrens VD","commune":{"key":"5527","name":"Morrens (VD)","shortName":"Morrens (VD)"},"district":{"key":"2223","name":"District du Gros-de-Vaud"},"canton":{"key":"22","code":"VD","name":"Vaud"},"status":"Real"},{"key":"10028357","name":"Chemin du Petit-Montilly","postalCode":"1054","locality":"Morrens VD","commune":{"key":"5527","name":"Morrens (VD)","shortName":"Morrens (VD)"},"district":{"key":"2223","name":"District du Gros-de-Vaud"},"canton":{"key":"22","code":"VD","name":"Vaud"},"status":"Real"},{"key":"10028356","name":"Chemin du Petit-Pré","postalCode":"1054","locality":"Morrens VD","commune":{"key":"5527","name":"Morrens (VD)","shortName":"Morrens (VD)"},"district":{"key":"2223","name":"District du Gros-de-Vaud"},"canton":{"key":"22","code":"VD","name":"Vaud"},"status":"Real"},{"key":"10097617","name":"Chemin du Signal","postalCode":"1054","locality":"Morrens VD","commune":{"key":"5527","name":"Morrens (VD)","shortName":"Morrens (VD)"},"district":{"key":"2223","name":"District du Gros-de-Vaud"},"canton":{"key":"22","code":"VD","name":"Vaud"},"status":"Real"},{"key":"10206578","name":"Chemin du Soleil","postalCode":"1054","locality":"Morrens VD","commune":{"key":"5527","name":"Morrens (VD)","shortName":"Morrens (VD)"},"district":{"key":"2223","name":"District du Gros-de-Vaud"},"canton":{"key":"22","code":"VD","name":"Vaud"},"status":"Real"},{"key":"10074348","name":"Chemin du Vieux-Moulin","postalCode":"1054","locality":"Morrens VD","commune":{"key":"5527","name":"Morrens (VD)","shortName":"Morrens (VD)"},"district":{"key":"2223","name":"District du Gros-de-Vaud"},"canton":{"key":"22","code":"VD","name":"Vaud"},"status":"Real"},{"key":"10028656","name":"Es Mayes","postalCode":"1054","locality":"Morrens VD","commune":{"key":"5527","name":"Morrens (VD)","shortName":"Morrens (VD)"},"district":{"key":"2223","name":"District du Gros-de-Vaud"},"canton":{"key":"22","code":"VD","name":"Vaud"},"status":"Real"},{"key":"10097618","name":"Place du Village","postalCode":"1054","locality":"Morrens VD","commune":{"key":"5527","name":"Morrens (VD)","shortName":"Morrens (VD)"},"district":{"key":"2223","name":"District du Gros-de-Vaud"},"canton":{"key":"22","code":"VD","name":"Vaud"},"status":"Real"},{"key":"10044531","name":"Route d'Echallens","postalCode":"1054","locality":"Morrens VD","commune":{"key":"5527","name":"Morrens (VD)","shortName":"Morrens (VD)"},"district":{"key":"2223","name":"District du Gros-de-Vaud"},"canton":{"key":"22","code":"VD","name":"Vaud"},"status":"Real"},{"key":"10074349","name":"Route de Cheseaux","postalCode":"1054","locality":"Morrens VD","commune":{"key":"5527","name":"Morrens (VD)","shortName":"Morrens (VD)"},"district":{"key":"2223","name":"District du Gros-de-Vaud"},"canton":{"key":"22","code":"VD","name":"Vaud"},"status":"Real"},{"key":"10044532","name":"Route de Cugy","postalCode":"1054","locality":"Morrens VD","commune":{"key":"5527","name":"Morrens (VD)","shortName":"Morrens (VD)"},"district":{"key":"2223","name":"District du Gros-de-Vaud"},"canton":{"key":"22","code":"VD","name":"Vaud"},"status":"Real"},{"key":"10044533","name":"Route de la Mèbre","postalCode":"1054","locality":"Morrens VD","commune":{"key":"5527","name":"Morrens (VD)","shortName":"Morrens (VD)"},"district":{"key":"2223","name":"District du Gros-de-Vaud"},"canton":{"key":"22","code":"VD","name":"Vaud"},"status":"Real"},{"key":"10116031","name":"Route des Biolettes","postalCode":"1054","locality":"Morrens VD","commune":{"key":"5527","name":"Morrens (VD)","shortName":"Morrens (VD)"},"district":{"key":"2223","name":"District du Gros-de-Vaud"},"canton":{"key":"22","code":"VD","name":"Vaud"},"status":"Real"},]