[{"name":"Am Lundberg","postalCode":"24881","locality":"Nübel","municipality":{"key":"01059098","name":"Nübel","type":"Kreisangehörige_Gemeinde"},"district":{"key":"01059","name":"Schleswig-Flensburg","type":"Kreis"},"federalState":{"key":"01","name":"Schleswig-Holstein"}},{"name":"An der Oje","postalCode":"24881","locality":"Nübel","municipality":{"key":"01059098","name":"Nübel","type":"Kreisangehörige_Gemeinde"},"district":{"key":"01059","name":"Schleswig-Flensburg","type":"Kreis"},"federalState":{"key":"01","name":"Schleswig-Holstein"}},{"name":"Bachstr.","postalCode":"24881","locality":"Nübel","municipality":{"key":"01059098","name":"Nübel","type":"Kreisangehörige_Gemeinde"},"district":{"key":"01059","name":"Schleswig-Flensburg","type":"Kreis"},"federalState":{"key":"01","name":"Schleswig-Holstein"}},{"name":"Berendlund","postalCode":"24881","locality":"Nübel","municipality":{"key":"01059098","name":"Nübel","type":"Kreisangehörige_Gemeinde"},"district":{"key":"01059","name":"Schleswig-Flensburg","type":"Kreis"},"federalState":{"key":"01","name":"Schleswig-Holstein"}},{"name":"Berendstamm","postalCode":"24881","locality":"Nübel","municipality":{"key":"01059098","name":"Nübel","type":"Kreisangehörige_Gemeinde"},"district":{"key":"01059","name":"Schleswig-Flensburg","type":"Kreis"},"federalState":{"key":"01","name":"Schleswig-Holstein"}},{"name":"Brekling","postalCode":"24881","locality":"Nübel","municipality":{"key":"01059098","name":"Nübel","type":"Kreisangehörige_Gemeinde"},"district":{"key":"01059","name":"Schleswig-Flensburg","type":"Kreis"},"federalState":{"key":"01","name":"Schleswig-Holstein"}},{"name":"Breklingfünfzehn","postalCode":"24881","locality":"Nübel","municipality":{"key":"01059098","name":"Nübel","type":"Kreisangehörige_Gemeinde"},"district":{"key":"01059","name":"Schleswig-Flensburg","type":"Kreis"},"federalState":{"key":"01","name":"Schleswig-Holstein"}},{"name":"Brekling-Moor","postalCode":"24881","locality":"Nübel","municipality":{"key":"01059098","name":"Nübel","type":"Kreisangehörige_Gemeinde"},"district":{"key":"01059","name":"Schleswig-Flensburg","type":"Kreis"},"federalState":{"key":"01","name":"Schleswig-Holstein"}},{"name":"Dorfstr.","postalCode":"24881","locality":"Nübel","municipality":{"key":"01059098","name":"Nübel","type":"Kreisangehörige_Gemeinde"},"district":{"key":"01059","name":"Schleswig-Flensburg","type":"Kreis"},"federalState":{"key":"01","name":"Schleswig-Holstein"}},{"name":"Feuerwehrstr.","postalCode":"24881","locality":"Nübel","municipality":{"key":"01059098","name":"Nübel","type":"Kreisangehörige_Gemeinde"},"district":{"key":"01059","name":"Schleswig-Flensburg","type":"Kreis"},"federalState":{"key":"01","name":"Schleswig-Holstein"}},{"name":"Gaarlandstr.","postalCode":"24881","locality":"Nübel","municipality":{"key":"01059098","name":"Nübel","type":"Kreisangehörige_Gemeinde"},"district":{"key":"01059","name":"Schleswig-Flensburg","type":"Kreis"},"federalState":{"key":"01","name":"Schleswig-Holstein"}},{"name":"Güldenholmer Weg","postalCode":"24881","locality":"Nübel","municipality":{"key":"01059098","name":"Nübel","type":"Kreisangehörige_Gemeinde"},"district":{"key":"01059","name":"Schleswig-Flensburg","type":"Kreis"},"federalState":{"key":"01","name":"Schleswig-Holstein"}},{"name":"Heidestr.","postalCode":"24881","locality":"Nübel","municipality":{"key":"01059098","name":"Nübel","type":"Kreisangehörige_Gemeinde"},"district":{"key":"01059","name":"Schleswig-Flensburg","type":"Kreis"},"federalState":{"key":"01","name":"Schleswig-Holstein"}},{"name":"Hinkelhöft","postalCode":"24881","locality":"Nübel","municipality":{"key":"01059098","name":"Nübel","type":"Kreisangehörige_Gemeinde"},"district":{"key":"01059","name":"Schleswig-Flensburg","type":"Kreis"},"federalState":{"key":"01","name":"Schleswig-Holstein"}},{"name":"Hochlandstr.","postalCode":"24881","locality":"Nübel","municipality":{"key":"01059098","name":"Nübel","type":"Kreisangehörige_Gemeinde"},"district":{"key":"01059","name":"Schleswig-Flensburg","type":"Kreis"},"federalState":{"key":"01","name":"Schleswig-Holstein"}},{"name":"Hoheluft","postalCode":"24881","locality":"Nübel","municipality":{"key":"01059098","name":"Nübel","type":"Kreisangehörige_Gemeinde"},"district":{"key":"01059","name":"Schleswig-Flensburg","type":"Kreis"},"federalState":{"key":"01","name":"Schleswig-Holstein"}},{"name":"Jordkierweg","postalCode":"24881","locality":"Nübel","municipality":{"key":"01059098","name":"Nübel","type":"Kreisangehörige_Gemeinde"},"district":{"key":"01059","name":"Schleswig-Flensburg","type":"Kreis"},"federalState":{"key":"01","name":"Schleswig-Holstein"}},{"name":"Kohgang","postalCode":"24881","locality":"Nübel","municipality":{"key":"01059098","name":"Nübel","type":"Kreisangehörige_Gemeinde"},"district":{"key":"01059","name":"Schleswig-Flensburg","type":"Kreis"},"federalState":{"key":"01","name":"Schleswig-Holstein"}},{"name":"Kreuzstr.","postalCode":"24881","locality":"Nübel","municipality":{"key":"01059098","name":"Nübel","type":"Kreisangehörige_Gemeinde"},"district":{"key":"01059","name":"Schleswig-Flensburg","type":"Kreis"},"federalState":{"key":"01","name":"Schleswig-Holstein"}},{"name":"Nachtigallenweg","postalCode":"24881","locality":"Nübel","municipality":{"key":"01059098","name":"Nübel","type":"Kreisangehörige_Gemeinde"},"district":{"key":"01059","name":"Schleswig-Flensburg","type":"Kreis"},"federalState":{"key":"01","name":"Schleswig-Holstein"}},{"name":"Peerkoppel","postalCode":"24881","locality":"Nübel","municipality":{"key":"01059098","name":"Nübel","type":"Kreisangehörige_Gemeinde"},"district":{"key":"01059","name":"Schleswig-Flensburg","type":"Kreis"},"federalState":{"key":"01","name":"Schleswig-Holstein"}},{"name":"Schmiedestr.","postalCode":"24881","locality":"Nübel","municipality":{"key":"01059098","name":"Nübel","type":"Kreisangehörige_Gemeinde"},"district":{"key":"01059","name":"Schleswig-Flensburg","type":"Kreis"},"federalState":{"key":"01","name":"Schleswig-Holstein"}},{"name":"Schulstr.","postalCode":"24881","locality":"Nübel","municipality":{"key":"01059098","name":"Nübel","type":"Kreisangehörige_Gemeinde"},"district":{"key":"01059","name":"Schleswig-Flensburg","type":"Kreis"},"federalState":{"key":"01","name":"Schleswig-Holstein"}},{"name":"Süderlund","postalCode":"24881","locality":"Nübel","municipality":{"key":"01059098","name":"Nübel","type":"Kreisangehörige_Gemeinde"},"district":{"key":"01059","name":"Schleswig-Flensburg","type":"Kreis"},"federalState":{"key":"01","name":"Schleswig-Holstein"}},{"name":"Waldlust","postalCode":"24881","locality":"Nübel","municipality":{"key":"01059098","name":"Nübel","type":"Kreisangehörige_Gemeinde"},"district":{"key":"01059","name":"Schleswig-Flensburg","type":"Kreis"},"federalState":{"key":"01","name":"Schleswig-Holstein"}},{"name":"Westerlund","postalCode":"24881","locality":"Nübel","municipality":{"key":"01059098","name":"Nübel","type":"Kreisangehörige_Gemeinde"},"district":{"key":"01059","name":"Schleswig-Flensburg","type":"Kreis"},"federalState":{"key":"01","name":"Schleswig-Holstein"}},]