[{"name":"Abwasserleiten","postalCode":"96524","locality":"Föritztal","municipality":{"key":"16072024","name":"Föritztal","type":"Kreisangehörige_Gemeinde"},"district":{"key":"16072","name":"Sonneberg","type":"Landkreis"},"federalState":{"key":"16","name":"Thüringen"}},{"name":"Ackerstr.","postalCode":"96524","locality":"Föritztal","municipality":{"key":"16072024","name":"Föritztal","type":"Kreisangehörige_Gemeinde"},"district":{"key":"16072","name":"Sonneberg","type":"Landkreis"},"federalState":{"key":"16","name":"Thüringen"}},{"name":"Alte Bahnhofstr.","postalCode":"96524","locality":"Föritztal","municipality":{"key":"16072024","name":"Föritztal","type":"Kreisangehörige_Gemeinde"},"district":{"key":"16072","name":"Sonneberg","type":"Landkreis"},"federalState":{"key":"16","name":"Thüringen"}},{"name":"Alte Handelsstr.","postalCode":"96524","locality":"Föritztal","municipality":{"key":"16072024","name":"Föritztal","type":"Kreisangehörige_Gemeinde"},"district":{"key":"16072","name":"Sonneberg","type":"Landkreis"},"federalState":{"key":"16","name":"Thüringen"}},{"name":"Alte Schulstr.","postalCode":"96524","locality":"Föritztal","municipality":{"key":"16072024","name":"Föritztal","type":"Kreisangehörige_Gemeinde"},"district":{"key":"16072","name":"Sonneberg","type":"Landkreis"},"federalState":{"key":"16","name":"Thüringen"}},{"name":"Am Alten Bahnhof","postalCode":"96524","locality":"Föritztal","municipality":{"key":"16072024","name":"Föritztal","type":"Kreisangehörige_Gemeinde"},"district":{"key":"16072","name":"Sonneberg","type":"Landkreis"},"federalState":{"key":"16","name":"Thüringen"}},{"name":"Am Föritzgrund","postalCode":"96524","locality":"Föritztal","municipality":{"key":"16072024","name":"Föritztal","type":"Kreisangehörige_Gemeinde"},"district":{"key":"16072","name":"Sonneberg","type":"Landkreis"},"federalState":{"key":"16","name":"Thüringen"}},{"name":"Am Hallfeld","postalCode":"96524","locality":"Föritztal","municipality":{"key":"16072024","name":"Föritztal","type":"Kreisangehörige_Gemeinde"},"district":{"key":"16072","name":"Sonneberg","type":"Landkreis"},"federalState":{"key":"16","name":"Thüringen"}},{"name":"Am Krögel","postalCode":"96524","locality":"Föritztal","municipality":{"key":"16072024","name":"Föritztal","type":"Kreisangehörige_Gemeinde"},"district":{"key":"16072","name":"Sonneberg","type":"Landkreis"},"federalState":{"key":"16","name":"Thüringen"}},{"name":"Am Lindenbach","postalCode":"96524","locality":"Föritztal","municipality":{"key":"16072024","name":"Föritztal","type":"Kreisangehörige_Gemeinde"},"district":{"key":"16072","name":"Sonneberg","type":"Landkreis"},"federalState":{"key":"16","name":"Thüringen"}},{"name":"Am Park","postalCode":"96524","locality":"Föritztal","municipality":{"key":"16072024","name":"Föritztal","type":"Kreisangehörige_Gemeinde"},"district":{"key":"16072","name":"Sonneberg","type":"Landkreis"},"federalState":{"key":"16","name":"Thüringen"}},{"name":"Am Sandhügel","postalCode":"96524","locality":"Föritztal","municipality":{"key":"16072024","name":"Föritztal","type":"Kreisangehörige_Gemeinde"},"district":{"key":"16072","name":"Sonneberg","type":"Landkreis"},"federalState":{"key":"16","name":"Thüringen"}},{"name":"Am Schwimmbad","postalCode":"96524","locality":"Föritztal","municipality":{"key":"16072024","name":"Föritztal","type":"Kreisangehörige_Gemeinde"},"district":{"key":"16072","name":"Sonneberg","type":"Landkreis"},"federalState":{"key":"16","name":"Thüringen"}},{"name":"Am Sportplatz","postalCode":"96524","locality":"Föritztal","municipality":{"key":"16072024","name":"Föritztal","type":"Kreisangehörige_Gemeinde"},"district":{"key":"16072","name":"Sonneberg","type":"Landkreis"},"federalState":{"key":"16","name":"Thüringen"}},{"name":"An den Gartenwiesen","postalCode":"96524","locality":"Föritztal","municipality":{"key":"16072024","name":"Föritztal","type":"Kreisangehörige_Gemeinde"},"district":{"key":"16072","name":"Sonneberg","type":"Landkreis"},"federalState":{"key":"16","name":"Thüringen"}},{"name":"An der Föritz","postalCode":"96524","locality":"Föritztal","municipality":{"key":"16072024","name":"Föritztal","type":"Kreisangehörige_Gemeinde"},"district":{"key":"16072","name":"Sonneberg","type":"Landkreis"},"federalState":{"key":"16","name":"Thüringen"}},{"name":"An der Steinach","postalCode":"96524","locality":"Föritztal","municipality":{"key":"16072024","name":"Föritztal","type":"Kreisangehörige_Gemeinde"},"district":{"key":"16072","name":"Sonneberg","type":"Landkreis"},"federalState":{"key":"16","name":"Thüringen"}},{"name":"Auenland","postalCode":"96524","locality":"Föritztal","municipality":{"key":"16072024","name":"Föritztal","type":"Kreisangehörige_Gemeinde"},"district":{"key":"16072","name":"Sonneberg","type":"Landkreis"},"federalState":{"key":"16","name":"Thüringen"}},{"name":"Bahnhofstr.","postalCode":"96524","locality":"Föritztal","municipality":{"key":"16072024","name":"Föritztal","type":"Kreisangehörige_Gemeinde"},"district":{"key":"16072","name":"Sonneberg","type":"Landkreis"},"federalState":{"key":"16","name":"Thüringen"}},{"name":"Bellershöhe","postalCode":"96524","locality":"Föritztal","municipality":{"key":"16072024","name":"Föritztal","type":"Kreisangehörige_Gemeinde"},"district":{"key":"16072","name":"Sonneberg","type":"Landkreis"},"federalState":{"key":"16","name":"Thüringen"}},{"name":"Bergluftstr.","postalCode":"96524","locality":"Föritztal","municipality":{"key":"16072024","name":"Föritztal","type":"Kreisangehörige_Gemeinde"},"district":{"key":"16072","name":"Sonneberg","type":"Landkreis"},"federalState":{"key":"16","name":"Thüringen"}},{"name":"Bergstr.","postalCode":"96524","locality":"Föritztal","municipality":{"key":"16072024","name":"Föritztal","type":"Kreisangehörige_Gemeinde"},"district":{"key":"16072","name":"Sonneberg","type":"Landkreis"},"federalState":{"key":"16","name":"Thüringen"}},{"name":"Bernhardstr.","postalCode":"96524","locality":"Föritztal","municipality":{"key":"16072024","name":"Föritztal","type":"Kreisangehörige_Gemeinde"},"district":{"key":"16072","name":"Sonneberg","type":"Landkreis"},"federalState":{"key":"16","name":"Thüringen"}},{"name":"Bienenstr.","postalCode":"96524","locality":"Föritztal","municipality":{"key":"16072024","name":"Föritztal","type":"Kreisangehörige_Gemeinde"},"district":{"key":"16072","name":"Sonneberg","type":"Landkreis"},"federalState":{"key":"16","name":"Thüringen"}},{"name":"Birkenweg","postalCode":"96524","locality":"Föritztal","municipality":{"key":"16072024","name":"Föritztal","type":"Kreisangehörige_Gemeinde"},"district":{"key":"16072","name":"Sonneberg","type":"Landkreis"},"federalState":{"key":"16","name":"Thüringen"}},{"name":"Blechhammerer Str.","postalCode":"96524","locality":"Föritztal","municipality":{"key":"16072024","name":"Föritztal","type":"Kreisangehörige_Gemeinde"},"district":{"key":"16072","name":"Sonneberg","type":"Landkreis"},"federalState":{"key":"16","name":"Thüringen"}},{"name":"Brunnenweg","postalCode":"96524","locality":"Föritztal","municipality":{"key":"16072024","name":"Föritztal","type":"Kreisangehörige_Gemeinde"},"district":{"key":"16072","name":"Sonneberg","type":"Landkreis"},"federalState":{"key":"16","name":"Thüringen"}},{"name":"Brunnenwiese","postalCode":"96524","locality":"Föritztal","municipality":{"key":"16072024","name":"Föritztal","type":"Kreisangehörige_Gemeinde"},"district":{"key":"16072","name":"Sonneberg","type":"Landkreis"},"federalState":{"key":"16","name":"Thüringen"}},{"name":"Buch","postalCode":"96524","locality":"Föritztal","municipality":{"key":"16072024","name":"Föritztal","type":"Kreisangehörige_Gemeinde"},"district":{"key":"16072","name":"Sonneberg","type":"Landkreis"},"federalState":{"key":"16","name":"Thüringen"}},{"name":"Bucher Str.","postalCode":"96524","locality":"Föritztal","municipality":{"key":"16072024","name":"Föritztal","type":"Kreisangehörige_Gemeinde"},"district":{"key":"16072","name":"Sonneberg","type":"Landkreis"},"federalState":{"key":"16","name":"Thüringen"}},{"name":"Burgweg","postalCode":"96524","locality":"Föritztal","municipality":{"key":"16072024","name":"Föritztal","type":"Kreisangehörige_Gemeinde"},"district":{"key":"16072","name":"Sonneberg","type":"Landkreis"},"federalState":{"key":"16","name":"Thüringen"}},{"name":"Charlottenstr.","postalCode":"96515","locality":"Sonneberg","municipality":{"key":"16072018","name":"Sonneberg, Stadt","type":"Stadt"},"district":{"key":"16072","name":"Sonneberg","type":"Landkreis"},"federalState":{"key":"16","name":"Thüringen"}},{"name":"Clara-Zetkin-Str.","postalCode":"96515","locality":"Sonneberg","municipality":{"key":"16072018","name":"Sonneberg, Stadt","type":"Stadt"},"district":{"key":"16072","name":"Sonneberg","type":"Landkreis"},"federalState":{"key":"16","name":"Thüringen"}},{"name":"Coburger Allee","postalCode":"96515","locality":"Sonneberg","municipality":{"key":"16072018","name":"Sonneberg, Stadt","type":"Stadt"},"district":{"key":"16072","name":"Sonneberg","type":"Landkreis"},"federalState":{"key":"16","name":"Thüringen"}},{"name":"Coburger Str.","postalCode":"96515","locality":"Sonneberg","municipality":{"key":"16072018","name":"Sonneberg, Stadt","type":"Stadt"},"district":{"key":"16072","name":"Sonneberg","type":"Landkreis"},"federalState":{"key":"16","name":"Thüringen"}},{"name":"Cuno-Hoffmeister-Str.","postalCode":"96515","locality":"Sonneberg","municipality":{"key":"16072018","name":"Sonneberg, Stadt","type":"Stadt"},"district":{"key":"16072","name":"Sonneberg","type":"Landkreis"},"federalState":{"key":"16","name":"Thüringen"}},{"name":"Dorfstr.","postalCode":"96524","locality":"Föritztal","municipality":{"key":"16072024","name":"Föritztal","type":"Kreisangehörige_Gemeinde"},"district":{"key":"16072","name":"Sonneberg","type":"Landkreis"},"federalState":{"key":"16","name":"Thüringen"}},{"name":"Ebersdorfer Str.","postalCode":"96524","locality":"Föritztal","municipality":{"key":"16072024","name":"Föritztal","type":"Kreisangehörige_Gemeinde"},"district":{"key":"16072","name":"Sonneberg","type":"Landkreis"},"federalState":{"key":"16","name":"Thüringen"}},{"name":"ehem. Kolonnenweg","postalCode":"96524","locality":"Föritztal","municipality":{"key":"16072024","name":"Föritztal","type":"Kreisangehörige_Gemeinde"},"district":{"key":"16072","name":"Sonneberg","type":"Landkreis"},"federalState":{"key":"16","name":"Thüringen"}},{"name":"Eichbergweg","postalCode":"96524","locality":"Föritztal","municipality":{"key":"16072024","name":"Föritztal","type":"Kreisangehörige_Gemeinde"},"district":{"key":"16072","name":"Sonneberg","type":"Landkreis"},"federalState":{"key":"16","name":"Thüringen"}},{"name":"Eichenweg","postalCode":"96524","locality":"Föritztal","municipality":{"key":"16072024","name":"Föritztal","type":"Kreisangehörige_Gemeinde"},"district":{"key":"16072","name":"Sonneberg","type":"Landkreis"},"federalState":{"key":"16","name":"Thüringen"}},{"name":"Eichitzer Str.","postalCode":"96524","locality":"Föritztal","municipality":{"key":"16072024","name":"Föritztal","type":"Kreisangehörige_Gemeinde"},"district":{"key":"16072","name":"Sonneberg","type":"Landkreis"},"federalState":{"key":"16","name":"Thüringen"}},{"name":"Erbweg","postalCode":"96524","locality":"Föritztal","municipality":{"key":"16072024","name":"Föritztal","type":"Kreisangehörige_Gemeinde"},"district":{"key":"16072","name":"Sonneberg","type":"Landkreis"},"federalState":{"key":"16","name":"Thüringen"}},{"name":"Fliederweg","postalCode":"96524","locality":"Föritztal","municipality":{"key":"16072024","name":"Föritztal","type":"Kreisangehörige_Gemeinde"},"district":{"key":"16072","name":"Sonneberg","type":"Landkreis"},"federalState":{"key":"16","name":"Thüringen"}},{"name":"Flurstr.","postalCode":"96524","locality":"Föritztal","municipality":{"key":"16072024","name":"Föritztal","type":"Kreisangehörige_Gemeinde"},"district":{"key":"16072","name":"Sonneberg","type":"Landkreis"},"federalState":{"key":"16","name":"Thüringen"}},{"name":"Föritzer Str.","postalCode":"96524","locality":"Föritztal","municipality":{"key":"16072024","name":"Föritztal","type":"Kreisangehörige_Gemeinde"},"district":{"key":"16072","name":"Sonneberg","type":"Landkreis"},"federalState":{"key":"16","name":"Thüringen"}},{"name":"Friedhofstr.","postalCode":"96524","locality":"Föritztal","municipality":{"key":"16072024","name":"Föritztal","type":"Kreisangehörige_Gemeinde"},"district":{"key":"16072","name":"Sonneberg","type":"Landkreis"},"federalState":{"key":"16","name":"Thüringen"}},{"name":"Gartenstr.","postalCode":"96524","locality":"Föritztal","municipality":{"key":"16072024","name":"Föritztal","type":"Kreisangehörige_Gemeinde"},"district":{"key":"16072","name":"Sonneberg","type":"Landkreis"},"federalState":{"key":"16","name":"Thüringen"}},{"name":"Gefeller Str.","postalCode":"96524","locality":"Föritztal","municipality":{"key":"16072024","name":"Föritztal","type":"Kreisangehörige_Gemeinde"},"district":{"key":"16072","name":"Sonneberg","type":"Landkreis"},"federalState":{"key":"16","name":"Thüringen"}},{"name":"Georgstr.","postalCode":"96524","locality":"Föritztal","municipality":{"key":"16072024","name":"Föritztal","type":"Kreisangehörige_Gemeinde"},"district":{"key":"16072","name":"Sonneberg","type":"Landkreis"},"federalState":{"key":"16","name":"Thüringen"}},{"name":"Gessendorfer Str.","postalCode":"96524","locality":"Föritztal","municipality":{"key":"16072024","name":"Föritztal","type":"Kreisangehörige_Gemeinde"},"district":{"key":"16072","name":"Sonneberg","type":"Landkreis"},"federalState":{"key":"16","name":"Thüringen"}},{"name":"Gottsmannstr.","postalCode":"96524","locality":"Föritztal","municipality":{"key":"16072024","name":"Föritztal","type":"Kreisangehörige_Gemeinde"},"district":{"key":"16072","name":"Sonneberg","type":"Landkreis"},"federalState":{"key":"16","name":"Thüringen"}},{"name":"Grönland","postalCode":"96524","locality":"Föritztal","municipality":{"key":"16072024","name":"Föritztal","type":"Kreisangehörige_Gemeinde"},"district":{"key":"16072","name":"Sonneberg","type":"Landkreis"},"federalState":{"key":"16","name":"Thüringen"}},{"name":"Großer Garten","postalCode":"96524","locality":"Föritztal","municipality":{"key":"16072024","name":"Föritztal","type":"Kreisangehörige_Gemeinde"},"district":{"key":"16072","name":"Sonneberg","type":"Landkreis"},"federalState":{"key":"16","name":"Thüringen"}},{"name":"Grundstr.","postalCode":"96524","locality":"Föritztal","municipality":{"key":"16072024","name":"Föritztal","type":"Kreisangehörige_Gemeinde"},"district":{"key":"16072","name":"Sonneberg","type":"Landkreis"},"federalState":{"key":"16","name":"Thüringen"}},{"name":"Hauptstr.","postalCode":"96524","locality":"Föritztal","municipality":{"key":"16072024","name":"Föritztal","type":"Kreisangehörige_Gemeinde"},"district":{"key":"16072","name":"Sonneberg","type":"Landkreis"},"federalState":{"key":"16","name":"Thüringen"}},{"name":"Hessenhöhe","postalCode":"96524","locality":"Föritztal","municipality":{"key":"16072024","name":"Föritztal","type":"Kreisangehörige_Gemeinde"},"district":{"key":"16072","name":"Sonneberg","type":"Landkreis"},"federalState":{"key":"16","name":"Thüringen"}},{"name":"Heubischer Ortsstr.","postalCode":"96524","locality":"Föritztal","municipality":{"key":"16072024","name":"Föritztal","type":"Kreisangehörige_Gemeinde"},"district":{"key":"16072","name":"Sonneberg","type":"Landkreis"},"federalState":{"key":"16","name":"Thüringen"}},{"name":"Heubischer Str.","postalCode":"96524","locality":"Föritztal","municipality":{"key":"16072024","name":"Föritztal","type":"Kreisangehörige_Gemeinde"},"district":{"key":"16072","name":"Sonneberg","type":"Landkreis"},"federalState":{"key":"16","name":"Thüringen"}},{"name":"Hofleite","postalCode":"96524","locality":"Föritztal","municipality":{"key":"16072024","name":"Föritztal","type":"Kreisangehörige_Gemeinde"},"district":{"key":"16072","name":"Sonneberg","type":"Landkreis"},"federalState":{"key":"16","name":"Thüringen"}},{"name":"Industriestr.","postalCode":"96524","locality":"Föritztal","municipality":{"key":"16072024","name":"Föritztal","type":"Kreisangehörige_Gemeinde"},"district":{"key":"16072","name":"Sonneberg","type":"Landkreis"},"federalState":{"key":"16","name":"Thüringen"}},{"name":"Jagdshofer Str.","postalCode":"96524","locality":"Föritztal","municipality":{"key":"16072024","name":"Föritztal","type":"Kreisangehörige_Gemeinde"},"district":{"key":"16072","name":"Sonneberg","type":"Landkreis"},"federalState":{"key":"16","name":"Thüringen"}},{"name":"K27","postalCode":"96524","locality":"Föritztal","municipality":{"key":"16072024","name":"Föritztal","type":"Kreisangehörige_Gemeinde"},"district":{"key":"16072","name":"Sonneberg","type":"Landkreis"},"federalState":{"key":"16","name":"Thüringen"}},{"name":"K 30","postalCode":"96524","locality":"Föritztal","municipality":{"key":"16072024","name":"Föritztal","type":"Kreisangehörige_Gemeinde"},"district":{"key":"16072","name":"Sonneberg","type":"Landkreis"},"federalState":{"key":"16","name":"Thüringen"}},{"name":"Karolinenstr.","postalCode":"96524","locality":"Föritztal","municipality":{"key":"16072024","name":"Föritztal","type":"Kreisangehörige_Gemeinde"},"district":{"key":"16072","name":"Sonneberg","type":"Landkreis"},"federalState":{"key":"16","name":"Thüringen"}},{"name":"Kellergasse","postalCode":"96524","locality":"Föritztal","municipality":{"key":"16072024","name":"Föritztal","type":"Kreisangehörige_Gemeinde"},"district":{"key":"16072","name":"Sonneberg","type":"Landkreis"},"federalState":{"key":"16","name":"Thüringen"}},{"name":"Kirchstr.","postalCode":"96524","locality":"Föritztal","municipality":{"key":"16072024","name":"Föritztal","type":"Kreisangehörige_Gemeinde"},"district":{"key":"16072","name":"Sonneberg","type":"Landkreis"},"federalState":{"key":"16","name":"Thüringen"}},{"name":"Kirchweg","postalCode":"96524","locality":"Föritztal","municipality":{"key":"16072024","name":"Föritztal","type":"Kreisangehörige_Gemeinde"},"district":{"key":"16072","name":"Sonneberg","type":"Landkreis"},"federalState":{"key":"16","name":"Thüringen"}},{"name":"Kläsengasse","postalCode":"96524","locality":"Föritztal","municipality":{"key":"16072024","name":"Föritztal","type":"Kreisangehörige_Gemeinde"},"district":{"key":"16072","name":"Sonneberg","type":"Landkreis"},"federalState":{"key":"16","name":"Thüringen"}},{"name":"Klein-Eiche","postalCode":"96524","locality":"Föritztal","municipality":{"key":"16072024","name":"Föritztal","type":"Kreisangehörige_Gemeinde"},"district":{"key":"16072","name":"Sonneberg","type":"Landkreis"},"federalState":{"key":"16","name":"Thüringen"}},{"name":"Kolonnenweg","postalCode":"96524","locality":"Föritztal","municipality":{"key":"16072024","name":"Föritztal","type":"Kreisangehörige_Gemeinde"},"district":{"key":"16072","name":"Sonneberg","type":"Landkreis"},"federalState":{"key":"16","name":"Thüringen"}},{"name":"Kreisstr.","postalCode":"96524","locality":"Föritztal","municipality":{"key":"16072024","name":"Föritztal","type":"Kreisangehörige_Gemeinde"},"district":{"key":"16072","name":"Sonneberg","type":"Landkreis"},"federalState":{"key":"16","name":"Thüringen"}},{"name":"Liebengrund","postalCode":"96524","locality":"Föritztal","municipality":{"key":"16072024","name":"Föritztal","type":"Kreisangehörige_Gemeinde"},"district":{"key":"16072","name":"Sonneberg","type":"Landkreis"},"federalState":{"key":"16","name":"Thüringen"}},{"name":"Lindengasse","postalCode":"96524","locality":"Föritztal","municipality":{"key":"16072024","name":"Föritztal","type":"Kreisangehörige_Gemeinde"},"district":{"key":"16072","name":"Sonneberg","type":"Landkreis"},"federalState":{"key":"16","name":"Thüringen"}},{"name":"Lindenstr.","postalCode":"96524","locality":"Föritztal","municipality":{"key":"16072024","name":"Föritztal","type":"Kreisangehörige_Gemeinde"},"district":{"key":"16072","name":"Sonneberg","type":"Landkreis"},"federalState":{"key":"16","name":"Thüringen"}},{"name":"Lutherweg","postalCode":"96524","locality":"Föritztal","municipality":{"key":"16072024","name":"Föritztal","type":"Kreisangehörige_Gemeinde"},"district":{"key":"16072","name":"Sonneberg","type":"Landkreis"},"federalState":{"key":"16","name":"Thüringen"}},{"name":"Mark","postalCode":"96524","locality":"Föritztal","municipality":{"key":"16072024","name":"Föritztal","type":"Kreisangehörige_Gemeinde"},"district":{"key":"16072","name":"Sonneberg","type":"Landkreis"},"federalState":{"key":"16","name":"Thüringen"}},{"name":"Marker Hang","postalCode":"96524","locality":"Föritztal","municipality":{"key":"16072024","name":"Föritztal","type":"Kreisangehörige_Gemeinde"},"district":{"key":"16072","name":"Sonneberg","type":"Landkreis"},"federalState":{"key":"16","name":"Thüringen"}},{"name":"Marker Höh","postalCode":"96524","locality":"Föritztal","municipality":{"key":"16072024","name":"Föritztal","type":"Kreisangehörige_Gemeinde"},"district":{"key":"16072","name":"Sonneberg","type":"Landkreis"},"federalState":{"key":"16","name":"Thüringen"}},{"name":"Marker Weg","postalCode":"96524","locality":"Föritztal","municipality":{"key":"16072024","name":"Föritztal","type":"Kreisangehörige_Gemeinde"},"district":{"key":"16072","name":"Sonneberg","type":"Landkreis"},"federalState":{"key":"16","name":"Thüringen"}},{"name":"Marktstr.","postalCode":"96524","locality":"Föritztal","municipality":{"key":"16072024","name":"Föritztal","type":"Kreisangehörige_Gemeinde"},"district":{"key":"16072","name":"Sonneberg","type":"Landkreis"},"federalState":{"key":"16","name":"Thüringen"}},{"name":"Märzgasse","postalCode":"96524","locality":"Föritztal","municipality":{"key":"16072024","name":"Föritztal","type":"Kreisangehörige_Gemeinde"},"district":{"key":"16072","name":"Sonneberg","type":"Landkreis"},"federalState":{"key":"16","name":"Thüringen"}},{"name":"Michaelisstr.","postalCode":"96524","locality":"Föritztal","municipality":{"key":"16072024","name":"Föritztal","type":"Kreisangehörige_Gemeinde"},"district":{"key":"16072","name":"Sonneberg","type":"Landkreis"},"federalState":{"key":"16","name":"Thüringen"}},{"name":"Minnastr.","postalCode":"96524","locality":"Föritztal","municipality":{"key":"16072024","name":"Föritztal","type":"Kreisangehörige_Gemeinde"},"district":{"key":"16072","name":"Sonneberg","type":"Landkreis"},"federalState":{"key":"16","name":"Thüringen"}},{"name":"Moggerer Ortsstr.","postalCode":"96524","locality":"Föritztal","municipality":{"key":"16072024","name":"Föritztal","type":"Kreisangehörige_Gemeinde"},"district":{"key":"16072","name":"Sonneberg","type":"Landkreis"},"federalState":{"key":"16","name":"Thüringen"}},{"name":"Moggerer Str.","postalCode":"96524","locality":"Föritztal","municipality":{"key":"16072024","name":"Föritztal","type":"Kreisangehörige_Gemeinde"},"district":{"key":"16072","name":"Sonneberg","type":"Landkreis"},"federalState":{"key":"16","name":"Thüringen"}},{"name":"Mönchsberger Str.","postalCode":"96524","locality":"Föritztal","municipality":{"key":"16072024","name":"Föritztal","type":"Kreisangehörige_Gemeinde"},"district":{"key":"16072","name":"Sonneberg","type":"Landkreis"},"federalState":{"key":"16","name":"Thüringen"}},{"name":"Mühldamm","postalCode":"96524","locality":"Föritztal","municipality":{"key":"16072024","name":"Föritztal","type":"Kreisangehörige_Gemeinde"},"district":{"key":"16072","name":"Sonneberg","type":"Landkreis"},"federalState":{"key":"16","name":"Thüringen"}},{"name":"Mühlgasse","postalCode":"96524","locality":"Föritztal","municipality":{"key":"16072024","name":"Föritztal","type":"Kreisangehörige_Gemeinde"},"district":{"key":"16072","name":"Sonneberg","type":"Landkreis"},"federalState":{"key":"16","name":"Thüringen"}},{"name":"Mupperger Weg","postalCode":"96524","locality":"Föritztal","municipality":{"key":"16072024","name":"Föritztal","type":"Kreisangehörige_Gemeinde"},"district":{"key":"16072","name":"Sonneberg","type":"Landkreis"},"federalState":{"key":"16","name":"Thüringen"}},{"name":"Neuer Weg","postalCode":"96524","locality":"Föritztal","municipality":{"key":"16072024","name":"Föritztal","type":"Kreisangehörige_Gemeinde"},"district":{"key":"16072","name":"Sonneberg","type":"Landkreis"},"federalState":{"key":"16","name":"Thüringen"}},{"name":"Neuhäuser Str.","postalCode":"96524","locality":"Föritztal","municipality":{"key":"16072024","name":"Föritztal","type":"Kreisangehörige_Gemeinde"},"district":{"key":"16072","name":"Sonneberg","type":"Landkreis"},"federalState":{"key":"16","name":"Thüringen"}},{"name":"Obere Dorfstr.","postalCode":"96524","locality":"Föritztal","municipality":{"key":"16072024","name":"Föritztal","type":"Kreisangehörige_Gemeinde"},"district":{"key":"16072","name":"Sonneberg","type":"Landkreis"},"federalState":{"key":"16","name":"Thüringen"}},{"name":"Obere Ecke","postalCode":"96524","locality":"Föritztal","municipality":{"key":"16072024","name":"Föritztal","type":"Kreisangehörige_Gemeinde"},"district":{"key":"16072","name":"Sonneberg","type":"Landkreis"},"federalState":{"key":"16","name":"Thüringen"}},{"name":"Oberlinder Str.","postalCode":"96524","locality":"Föritztal","municipality":{"key":"16072024","name":"Föritztal","type":"Kreisangehörige_Gemeinde"},"district":{"key":"16072","name":"Sonneberg","type":"Landkreis"},"federalState":{"key":"16","name":"Thüringen"}},{"name":"Oerlsdorfer Str.","postalCode":"96524","locality":"Föritztal","municipality":{"key":"16072024","name":"Föritztal","type":"Kreisangehörige_Gemeinde"},"district":{"key":"16072","name":"Sonneberg","type":"Landkreis"},"federalState":{"key":"16","name":"Thüringen"}},{"name":"Ortsstr.","postalCode":"96524","locality":"Föritztal","municipality":{"key":"16072024","name":"Föritztal","type":"Kreisangehörige_Gemeinde"},"district":{"key":"16072","name":"Sonneberg","type":"Landkreis"},"federalState":{"key":"16","name":"Thüringen"}},{"name":"Pfarrgasse","postalCode":"96524","locality":"Föritztal","municipality":{"key":"16072024","name":"Föritztal","type":"Kreisangehörige_Gemeinde"},"district":{"key":"16072","name":"Sonneberg","type":"Landkreis"},"federalState":{"key":"16","name":"Thüringen"}},{"name":"Pfarrgrund","postalCode":"96524","locality":"Föritztal","municipality":{"key":"16072024","name":"Föritztal","type":"Kreisangehörige_Gemeinde"},"district":{"key":"16072","name":"Sonneberg","type":"Landkreis"},"federalState":{"key":"16","name":"Thüringen"}},{"name":"Querstr.","postalCode":"96515","locality":"Sonneberg","municipality":{"key":"16072018","name":"Sonneberg, Stadt","type":"Stadt"},"district":{"key":"16072","name":"Sonneberg","type":"Landkreis"},"federalState":{"key":"16","name":"Thüringen"}},{"name":"Quieraustr.","postalCode":"96515","locality":"Sonneberg","municipality":{"key":"16072018","name":"Sonneberg, Stadt","type":"Stadt"},"district":{"key":"16072","name":"Sonneberg","type":"Landkreis"},"federalState":{"key":"16","name":"Thüringen"}},{"name":"Robertstr.","postalCode":"96524","locality":"Föritztal","municipality":{"key":"16072024","name":"Föritztal","type":"Kreisangehörige_Gemeinde"},"district":{"key":"16072","name":"Sonneberg","type":"Landkreis"},"federalState":{"key":"16","name":"Thüringen"}},{"name":"Rohofer Str.","postalCode":"96524","locality":"Föritztal","municipality":{"key":"16072024","name":"Föritztal","type":"Kreisangehörige_Gemeinde"},"district":{"key":"16072","name":"Sonneberg","type":"Landkreis"},"federalState":{"key":"16","name":"Thüringen"}},{"name":"Rosengasse","postalCode":"96524","locality":"Föritztal","municipality":{"key":"16072024","name":"Föritztal","type":"Kreisangehörige_Gemeinde"},"district":{"key":"16072","name":"Sonneberg","type":"Landkreis"},"federalState":{"key":"16","name":"Thüringen"}},{"name":"Rotheuler Str.","postalCode":"96524","locality":"Föritztal","municipality":{"key":"16072024","name":"Föritztal","type":"Kreisangehörige_Gemeinde"},"district":{"key":"16072","name":"Sonneberg","type":"Landkreis"},"federalState":{"key":"16","name":"Thüringen"}},{"name":"Sandweg","postalCode":"96524","locality":"Föritztal","municipality":{"key":"16072024","name":"Föritztal","type":"Kreisangehörige_Gemeinde"},"district":{"key":"16072","name":"Sonneberg","type":"Landkreis"},"federalState":{"key":"16","name":"Thüringen"}},{"name":"Sattelpaßstr.","postalCode":"96524","locality":"Föritztal","municipality":{"key":"16072024","name":"Föritztal","type":"Kreisangehörige_Gemeinde"},"district":{"key":"16072","name":"Sonneberg","type":"Landkreis"},"federalState":{"key":"16","name":"Thüringen"}},{"name":"Schierschnitzer Str.","postalCode":"96524","locality":"Föritztal","municipality":{"key":"16072024","name":"Föritztal","type":"Kreisangehörige_Gemeinde"},"district":{"key":"16072","name":"Sonneberg","type":"Landkreis"},"federalState":{"key":"16","name":"Thüringen"}},{"name":"Schießhausstr.","postalCode":"96524","locality":"Föritztal","municipality":{"key":"16072024","name":"Föritztal","type":"Kreisangehörige_Gemeinde"},"district":{"key":"16072","name":"Sonneberg","type":"Landkreis"},"federalState":{"key":"16","name":"Thüringen"}},{"name":"Schloßbergring","postalCode":"96524","locality":"Föritztal","municipality":{"key":"16072024","name":"Föritztal","type":"Kreisangehörige_Gemeinde"},"district":{"key":"16072","name":"Sonneberg","type":"Landkreis"},"federalState":{"key":"16","name":"Thüringen"}},{"name":"Schulstr.","postalCode":"96524","locality":"Föritztal","municipality":{"key":"16072024","name":"Föritztal","type":"Kreisangehörige_Gemeinde"},"district":{"key":"16072","name":"Sonneberg","type":"Landkreis"},"federalState":{"key":"16","name":"Thüringen"}},{"name":"Seeleinsweg","postalCode":"96524","locality":"Föritztal","municipality":{"key":"16072024","name":"Föritztal","type":"Kreisangehörige_Gemeinde"},"district":{"key":"16072","name":"Sonneberg","type":"Landkreis"},"federalState":{"key":"16","name":"Thüringen"}},{"name":"Sichelreuther Höhe","postalCode":"96524","locality":"Föritztal","municipality":{"key":"16072024","name":"Föritztal","type":"Kreisangehörige_Gemeinde"},"district":{"key":"16072","name":"Sonneberg","type":"Landkreis"},"federalState":{"key":"16","name":"Thüringen"}},{"name":"Sichelreuther Str.","postalCode":"96524","locality":"Föritztal","municipality":{"key":"16072024","name":"Föritztal","type":"Kreisangehörige_Gemeinde"},"district":{"key":"16072","name":"Sonneberg","type":"Landkreis"},"federalState":{"key":"16","name":"Thüringen"}},{"name":"Siedlung","postalCode":"96524","locality":"Föritztal","municipality":{"key":"16072024","name":"Föritztal","type":"Kreisangehörige_Gemeinde"},"district":{"key":"16072","name":"Sonneberg","type":"Landkreis"},"federalState":{"key":"16","name":"Thüringen"}},{"name":"Siedlungsstr.","postalCode":"96524","locality":"Föritztal","municipality":{"key":"16072024","name":"Föritztal","type":"Kreisangehörige_Gemeinde"},"district":{"key":"16072","name":"Sonneberg","type":"Landkreis"},"federalState":{"key":"16","name":"Thüringen"}},{"name":"Sonneberger Str.","postalCode":"96524","locality":"Föritztal","municipality":{"key":"16072024","name":"Föritztal","type":"Kreisangehörige_Gemeinde"},"district":{"key":"16072","name":"Sonneberg","type":"Landkreis"},"federalState":{"key":"16","name":"Thüringen"}},{"name":"Sophienstr.","postalCode":"96524","locality":"Föritztal","municipality":{"key":"16072024","name":"Föritztal","type":"Kreisangehörige_Gemeinde"},"district":{"key":"16072","name":"Sonneberg","type":"Landkreis"},"federalState":{"key":"16","name":"Thüringen"}},{"name":"Sportplatz","postalCode":"96524","locality":"Föritztal","municipality":{"key":"16072024","name":"Föritztal","type":"Kreisangehörige_Gemeinde"},"district":{"key":"16072","name":"Sonneberg","type":"Landkreis"},"federalState":{"key":"16","name":"Thüringen"}},{"name":"Steinachtalbahn","postalCode":"96524","locality":"Föritztal","municipality":{"key":"16072024","name":"Föritztal","type":"Kreisangehörige_Gemeinde"},"district":{"key":"16072","name":"Sonneberg","type":"Landkreis"},"federalState":{"key":"16","name":"Thüringen"}},{"name":"Straußberg","postalCode":"96524","locality":"Föritztal","municipality":{"key":"16072024","name":"Föritztal","type":"Kreisangehörige_Gemeinde"},"district":{"key":"16072","name":"Sonneberg","type":"Landkreis"},"federalState":{"key":"16","name":"Thüringen"}},{"name":"Str. der Freundschaft","postalCode":"96524","locality":"Föritztal","municipality":{"key":"16072024","name":"Föritztal","type":"Kreisangehörige_Gemeinde"},"district":{"key":"16072","name":"Sonneberg","type":"Landkreis"},"federalState":{"key":"16","name":"Thüringen"}},{"name":"Str. zur Neuen Welt","postalCode":"96524","locality":"Föritztal","municipality":{"key":"16072024","name":"Föritztal","type":"Kreisangehörige_Gemeinde"},"district":{"key":"16072","name":"Sonneberg","type":"Landkreis"},"federalState":{"key":"16","name":"Thüringen"}},{"name":"Talstr.","postalCode":"96524","locality":"Föritztal","municipality":{"key":"16072024","name":"Föritztal","type":"Kreisangehörige_Gemeinde"},"district":{"key":"16072","name":"Sonneberg","type":"Landkreis"},"federalState":{"key":"16","name":"Thüringen"}},{"name":"Tettaustr.","postalCode":"96524","locality":"Föritztal","municipality":{"key":"16072024","name":"Föritztal","type":"Kreisangehörige_Gemeinde"},"district":{"key":"16072","name":"Sonneberg","type":"Landkreis"},"federalState":{"key":"16","name":"Thüringen"}},{"name":"Untere Dorfstr.","postalCode":"96524","locality":"Föritztal","municipality":{"key":"16072024","name":"Föritztal","type":"Kreisangehörige_Gemeinde"},"district":{"key":"16072","name":"Sonneberg","type":"Landkreis"},"federalState":{"key":"16","name":"Thüringen"}},{"name":"Vorstadt","postalCode":"96524","locality":"Föritztal","municipality":{"key":"16072024","name":"Föritztal","type":"Kreisangehörige_Gemeinde"},"district":{"key":"16072","name":"Sonneberg","type":"Landkreis"},"federalState":{"key":"16","name":"Thüringen"}},{"name":"Waldstr.","postalCode":"96524","locality":"Föritztal","municipality":{"key":"16072024","name":"Föritztal","type":"Kreisangehörige_Gemeinde"},"district":{"key":"16072","name":"Sonneberg","type":"Landkreis"},"federalState":{"key":"16","name":"Thüringen"}},{"name":"Waldweg","postalCode":"96524","locality":"Föritztal","municipality":{"key":"16072024","name":"Föritztal","type":"Kreisangehörige_Gemeinde"},"district":{"key":"16072","name":"Sonneberg","type":"Landkreis"},"federalState":{"key":"16","name":"Thüringen"}},{"name":"Walzwerkstr.","postalCode":"96524","locality":"Föritztal","municipality":{"key":"16072024","name":"Föritztal","type":"Kreisangehörige_Gemeinde"},"district":{"key":"16072","name":"Sonneberg","type":"Landkreis"},"federalState":{"key":"16","name":"Thüringen"}},{"name":"Weg zum Flößteich","postalCode":"96524","locality":"Föritztal","municipality":{"key":"16072024","name":"Föritztal","type":"Kreisangehörige_Gemeinde"},"district":{"key":"16072","name":"Sonneberg","type":"Landkreis"},"federalState":{"key":"16","name":"Thüringen"}},{"name":"Weidhäuser Höhe","postalCode":"96524","locality":"Föritztal","municipality":{"key":"16072024","name":"Föritztal","type":"Kreisangehörige_Gemeinde"},"district":{"key":"16072","name":"Sonneberg","type":"Landkreis"},"federalState":{"key":"16","name":"Thüringen"}},{"name":"Weidhäuser Str.","postalCode":"96524","locality":"Föritztal","municipality":{"key":"16072024","name":"Föritztal","type":"Kreisangehörige_Gemeinde"},"district":{"key":"16072","name":"Sonneberg","type":"Landkreis"},"federalState":{"key":"16","name":"Thüringen"}},{"name":"Welitscher Str.","postalCode":"96524","locality":"Föritztal","municipality":{"key":"16072024","name":"Föritztal","type":"Kreisangehörige_Gemeinde"},"district":{"key":"16072","name":"Sonneberg","type":"Landkreis"},"federalState":{"key":"16","name":"Thüringen"}},{"name":"Wiesenstr.","postalCode":"96524","locality":"Föritztal","municipality":{"key":"16072024","name":"Föritztal","type":"Kreisangehörige_Gemeinde"},"district":{"key":"16072","name":"Sonneberg","type":"Landkreis"},"federalState":{"key":"16","name":"Thüringen"}},{"name":"Ziegelhüttenstr.","postalCode":"96524","locality":"Föritztal","municipality":{"key":"16072024","name":"Föritztal","type":"Kreisangehörige_Gemeinde"},"district":{"key":"16072","name":"Sonneberg","type":"Landkreis"},"federalState":{"key":"16","name":"Thüringen"}},{"name":"Zum Altenberg","postalCode":"96524","locality":"Föritztal","municipality":{"key":"16072024","name":"Föritztal","type":"Kreisangehörige_Gemeinde"},"district":{"key":"16072","name":"Sonneberg","type":"Landkreis"},"federalState":{"key":"16","name":"Thüringen"}},{"name":"Zum Kronacher Teich","postalCode":"96524","locality":"Föritztal","municipality":{"key":"16072024","name":"Föritztal","type":"Kreisangehörige_Gemeinde"},"district":{"key":"16072","name":"Sonneberg","type":"Landkreis"},"federalState":{"key":"16","name":"Thüringen"}},{"name":"Zur Biene","postalCode":"96524","locality":"Föritztal","municipality":{"key":"16072024","name":"Föritztal","type":"Kreisangehörige_Gemeinde"},"district":{"key":"16072","name":"Sonneberg","type":"Landkreis"},"federalState":{"key":"16","name":"Thüringen"}},{"name":"Zur Höhe","postalCode":"96524","locality":"Föritztal","municipality":{"key":"16072024","name":"Föritztal","type":"Kreisangehörige_Gemeinde"},"district":{"key":"16072","name":"Sonneberg","type":"Landkreis"},"federalState":{"key":"16","name":"Thüringen"}},{"name":"Zur Quelle","postalCode":"96524","locality":"Föritztal","municipality":{"key":"16072024","name":"Föritztal","type":"Kreisangehörige_Gemeinde"},"district":{"key":"16072","name":"Sonneberg","type":"Landkreis"},"federalState":{"key":"16","name":"Thüringen"}},]