[{"name":"Am Hof","postalCode":"56858","locality":"Sosberg","municipality":{"key":"07135080","name":"Sosberg","type":"Kreisangehörige_Gemeinde"},"district":{"key":"07135","name":"Cochem-Zell","type":"Landkreis"},"federalState":{"key":"07","name":"Rheinland-Pfalz"}},{"name":"Am Pfad","postalCode":"56858","locality":"Sosberg","municipality":{"key":"07135080","name":"Sosberg","type":"Kreisangehörige_Gemeinde"},"district":{"key":"07135","name":"Cochem-Zell","type":"Landkreis"},"federalState":{"key":"07","name":"Rheinland-Pfalz"}},{"name":"An der Kirche","postalCode":"56858","locality":"Sosberg","municipality":{"key":"07135080","name":"Sosberg","type":"Kreisangehörige_Gemeinde"},"district":{"key":"07135","name":"Cochem-Zell","type":"Landkreis"},"federalState":{"key":"07","name":"Rheinland-Pfalz"}},{"name":"Auf dem Winneweg","postalCode":"56858","locality":"Sosberg","municipality":{"key":"07135080","name":"Sosberg","type":"Kreisangehörige_Gemeinde"},"district":{"key":"07135","name":"Cochem-Zell","type":"Landkreis"},"federalState":{"key":"07","name":"Rheinland-Pfalz"}},{"name":"Geierlay-Hängeseilbrücke","postalCode":"56858","locality":"Sosberg","municipality":{"key":"07135080","name":"Sosberg","type":"Kreisangehörige_Gemeinde"},"district":{"key":"07135","name":"Cochem-Zell","type":"Landkreis"},"federalState":{"key":"07","name":"Rheinland-Pfalz"}},{"name":"Hauptstr.","postalCode":"56858","locality":"Sosberg","municipality":{"key":"07135080","name":"Sosberg","type":"Kreisangehörige_Gemeinde"},"district":{"key":"07135","name":"Cochem-Zell","type":"Landkreis"},"federalState":{"key":"07","name":"Rheinland-Pfalz"}},{"name":"Im Acker","postalCode":"56858","locality":"Sosberg","municipality":{"key":"07135080","name":"Sosberg","type":"Kreisangehörige_Gemeinde"},"district":{"key":"07135","name":"Cochem-Zell","type":"Landkreis"},"federalState":{"key":"07","name":"Rheinland-Pfalz"}},{"name":"Im Hassel","postalCode":"56858","locality":"Sosberg","municipality":{"key":"07135080","name":"Sosberg","type":"Kreisangehörige_Gemeinde"},"district":{"key":"07135","name":"Cochem-Zell","type":"Landkreis"},"federalState":{"key":"07","name":"Rheinland-Pfalz"}},{"name":"Kirchweg","postalCode":"56858","locality":"Sosberg","municipality":{"key":"07135080","name":"Sosberg","type":"Kreisangehörige_Gemeinde"},"district":{"key":"07135","name":"Cochem-Zell","type":"Landkreis"},"federalState":{"key":"07","name":"Rheinland-Pfalz"}},{"name":"Mastershausener Weg","postalCode":"56858","locality":"Sosberg","municipality":{"key":"07135080","name":"Sosberg","type":"Kreisangehörige_Gemeinde"},"district":{"key":"07135","name":"Cochem-Zell","type":"Landkreis"},"federalState":{"key":"07","name":"Rheinland-Pfalz"}},{"name":"Steilweg","postalCode":"56858","locality":"Sosberg","municipality":{"key":"07135080","name":"Sosberg","type":"Kreisangehörige_Gemeinde"},"district":{"key":"07135","name":"Cochem-Zell","type":"Landkreis"},"federalState":{"key":"07","name":"Rheinland-Pfalz"}},]