[{"name":"Allee","postalCode":"27249","locality":"Maasen","municipality":{"key":"03251024","name":"Maasen","type":"Kreisangehörige_Gemeinde"},"district":{"key":"03251","name":"Diepholz","type":"Landkreis"},"federalState":{"key":"03","name":"Niedersachsen"}},{"name":"Alte Dorfstr.","postalCode":"27249","locality":"Maasen","municipality":{"key":"03251024","name":"Maasen","type":"Kreisangehörige_Gemeinde"},"district":{"key":"03251","name":"Diepholz","type":"Landkreis"},"federalState":{"key":"03","name":"Niedersachsen"}},{"name":"An der Koppel","postalCode":"27249","locality":"Maasen","municipality":{"key":"03251024","name":"Maasen","type":"Kreisangehörige_Gemeinde"},"district":{"key":"03251","name":"Diepholz","type":"Landkreis"},"federalState":{"key":"03","name":"Niedersachsen"}},{"name":"Bachstr.","postalCode":"49356","locality":"Diepholz","municipality":{"key":"03251012","name":"Diepholz, Stadt","type":"Stadt"},"district":{"key":"03251","name":"Diepholz","type":"Landkreis"},"federalState":{"key":"03","name":"Niedersachsen"}},{"name":"Bahnhofstr.","postalCode":"49356","locality":"Diepholz","municipality":{"key":"03251012","name":"Diepholz, Stadt","type":"Stadt"},"district":{"key":"03251","name":"Diepholz","type":"Landkreis"},"federalState":{"key":"03","name":"Niedersachsen"}},{"name":"Bärentraubeweg","postalCode":"49356","locality":"Diepholz","municipality":{"key":"03251012","name":"Diepholz, Stadt","type":"Stadt"},"district":{"key":"03251","name":"Diepholz","type":"Landkreis"},"federalState":{"key":"03","name":"Niedersachsen"}},{"name":"Barlager Weg","postalCode":"49356","locality":"Diepholz","municipality":{"key":"03251012","name":"Diepholz, Stadt","type":"Stadt"},"district":{"key":"03251","name":"Diepholz","type":"Landkreis"},"federalState":{"key":"03","name":"Niedersachsen"}},{"name":"Beekedamm","postalCode":"49356","locality":"Diepholz","municipality":{"key":"03251012","name":"Diepholz, Stadt","type":"Stadt"},"district":{"key":"03251","name":"Diepholz","type":"Landkreis"},"federalState":{"key":"03","name":"Niedersachsen"}},{"name":"Beethovenstr.","postalCode":"49356","locality":"Diepholz","municipality":{"key":"03251012","name":"Diepholz, Stadt","type":"Stadt"},"district":{"key":"03251","name":"Diepholz","type":"Landkreis"},"federalState":{"key":"03","name":"Niedersachsen"}},{"name":"Beim Gerichte","postalCode":"49356","locality":"Diepholz","municipality":{"key":"03251012","name":"Diepholz, Stadt","type":"Stadt"},"district":{"key":"03251","name":"Diepholz","type":"Landkreis"},"federalState":{"key":"03","name":"Niedersachsen"}},{"name":"Bilager Weg","postalCode":"49356","locality":"Diepholz","municipality":{"key":"03251012","name":"Diepholz, Stadt","type":"Stadt"},"district":{"key":"03251","name":"Diepholz","type":"Landkreis"},"federalState":{"key":"03","name":"Niedersachsen"}},{"name":"Binsenweg","postalCode":"49356","locality":"Diepholz","municipality":{"key":"03251012","name":"Diepholz, Stadt","type":"Stadt"},"district":{"key":"03251","name":"Diepholz","type":"Landkreis"},"federalState":{"key":"03","name":"Niedersachsen"}},{"name":"Birkenweg","postalCode":"49356","locality":"Diepholz","municipality":{"key":"03251012","name":"Diepholz, Stadt","type":"Stadt"},"district":{"key":"03251","name":"Diepholz","type":"Landkreis"},"federalState":{"key":"03","name":"Niedersachsen"}},{"name":"Bismarckstr.","postalCode":"49356","locality":"Diepholz","municipality":{"key":"03251012","name":"Diepholz, Stadt","type":"Stadt"},"district":{"key":"03251","name":"Diepholz","type":"Landkreis"},"federalState":{"key":"03","name":"Niedersachsen"}},{"name":"Blumenfeldstr.","postalCode":"49356","locality":"Diepholz","municipality":{"key":"03251012","name":"Diepholz, Stadt","type":"Stadt"},"district":{"key":"03251","name":"Diepholz","type":"Landkreis"},"federalState":{"key":"03","name":"Niedersachsen"}},{"name":"Blumenstr.","postalCode":"49356","locality":"Diepholz","municipality":{"key":"03251012","name":"Diepholz, Stadt","type":"Stadt"},"district":{"key":"03251","name":"Diepholz","type":"Landkreis"},"federalState":{"key":"03","name":"Niedersachsen"}},{"name":"Bödekerstr.","postalCode":"49356","locality":"Diepholz","municipality":{"key":"03251012","name":"Diepholz, Stadt","type":"Stadt"},"district":{"key":"03251","name":"Diepholz","type":"Landkreis"},"federalState":{"key":"03","name":"Niedersachsen"}},{"name":"Bodeweg","postalCode":"49356","locality":"Diepholz","municipality":{"key":"03251012","name":"Diepholz, Stadt","type":"Stadt"},"district":{"key":"03251","name":"Diepholz","type":"Landkreis"},"federalState":{"key":"03","name":"Niedersachsen"}},{"name":"Boelckestr.","postalCode":"49356","locality":"Diepholz","municipality":{"key":"03251012","name":"Diepholz, Stadt","type":"Stadt"},"district":{"key":"03251","name":"Diepholz","type":"Landkreis"},"federalState":{"key":"03","name":"Niedersachsen"}},{"name":"Bohlenweg","postalCode":"49356","locality":"Diepholz","municipality":{"key":"03251012","name":"Diepholz, Stadt","type":"Stadt"},"district":{"key":"03251","name":"Diepholz","type":"Landkreis"},"federalState":{"key":"03","name":"Niedersachsen"}},{"name":"Boller Moorweg","postalCode":"49356","locality":"Diepholz","municipality":{"key":"03251012","name":"Diepholz, Stadt","type":"Stadt"},"district":{"key":"03251","name":"Diepholz","type":"Landkreis"},"federalState":{"key":"03","name":"Niedersachsen"}},{"name":"Bonhoefferstr.","postalCode":"49356","locality":"Diepholz","municipality":{"key":"03251012","name":"Diepholz, Stadt","type":"Stadt"},"district":{"key":"03251","name":"Diepholz","type":"Landkreis"},"federalState":{"key":"03","name":"Niedersachsen"}},{"name":"Boningskamp","postalCode":"49356","locality":"Diepholz","municipality":{"key":"03251012","name":"Diepholz, Stadt","type":"Stadt"},"district":{"key":"03251","name":"Diepholz","type":"Landkreis"},"federalState":{"key":"03","name":"Niedersachsen"}},{"name":"Brahmsweg","postalCode":"49356","locality":"Diepholz","municipality":{"key":"03251012","name":"Diepholz, Stadt","type":"Stadt"},"district":{"key":"03251","name":"Diepholz","type":"Landkreis"},"federalState":{"key":"03","name":"Niedersachsen"}},{"name":"Brandenburger Str.","postalCode":"49356","locality":"Diepholz","municipality":{"key":"03251012","name":"Diepholz, Stadt","type":"Stadt"},"district":{"key":"03251","name":"Diepholz","type":"Landkreis"},"federalState":{"key":"03","name":"Niedersachsen"}},{"name":"Bremer Eck","postalCode":"49356","locality":"Diepholz","municipality":{"key":"03251012","name":"Diepholz, Stadt","type":"Stadt"},"district":{"key":"03251","name":"Diepholz","type":"Landkreis"},"federalState":{"key":"03","name":"Niedersachsen"}},{"name":"Bremer Str.","postalCode":"49356","locality":"Diepholz","municipality":{"key":"03251012","name":"Diepholz, Stadt","type":"Stadt"},"district":{"key":"03251","name":"Diepholz","type":"Landkreis"},"federalState":{"key":"03","name":"Niedersachsen"}},{"name":"Brinker Ort","postalCode":"49356","locality":"Diepholz","municipality":{"key":"03251012","name":"Diepholz, Stadt","type":"Stadt"},"district":{"key":"03251","name":"Diepholz","type":"Landkreis"},"federalState":{"key":"03","name":"Niedersachsen"}},{"name":"Brüningstr.","postalCode":"49356","locality":"Diepholz","municipality":{"key":"03251012","name":"Diepholz, Stadt","type":"Stadt"},"district":{"key":"03251","name":"Diepholz","type":"Landkreis"},"federalState":{"key":"03","name":"Niedersachsen"}},{"name":"Buchenweg","postalCode":"49356","locality":"Diepholz","municipality":{"key":"03251012","name":"Diepholz, Stadt","type":"Stadt"},"district":{"key":"03251","name":"Diepholz","type":"Landkreis"},"federalState":{"key":"03","name":"Niedersachsen"}},{"name":"Büngenort","postalCode":"49356","locality":"Diepholz","municipality":{"key":"03251012","name":"Diepholz, Stadt","type":"Stadt"},"district":{"key":"03251","name":"Diepholz","type":"Landkreis"},"federalState":{"key":"03","name":"Niedersachsen"}},{"name":"Burgmannsweg","postalCode":"49356","locality":"Diepholz","municipality":{"key":"03251012","name":"Diepholz, Stadt","type":"Stadt"},"district":{"key":"03251","name":"Diepholz","type":"Landkreis"},"federalState":{"key":"03","name":"Niedersachsen"}},{"name":"Burslopp","postalCode":"49356","locality":"Diepholz","municipality":{"key":"03251012","name":"Diepholz, Stadt","type":"Stadt"},"district":{"key":"03251","name":"Diepholz","type":"Landkreis"},"federalState":{"key":"03","name":"Niedersachsen"}},{"name":"Buschgärten","postalCode":"49356","locality":"Diepholz","municipality":{"key":"03251012","name":"Diepholz, Stadt","type":"Stadt"},"district":{"key":"03251","name":"Diepholz","type":"Landkreis"},"federalState":{"key":"03","name":"Niedersachsen"}},{"name":"Carl-Friedrich-Müller-Str.","postalCode":"49356","locality":"Diepholz","municipality":{"key":"03251012","name":"Diepholz, Stadt","type":"Stadt"},"district":{"key":"03251","name":"Diepholz","type":"Landkreis"},"federalState":{"key":"03","name":"Niedersachsen"}},{"name":"Carl-Orff-Weg","postalCode":"49356","locality":"Diepholz","municipality":{"key":"03251012","name":"Diepholz, Stadt","type":"Stadt"},"district":{"key":"03251","name":"Diepholz","type":"Landkreis"},"federalState":{"key":"03","name":"Niedersachsen"}},{"name":"Clara-Schumann-Weg","postalCode":"49356","locality":"Diepholz","municipality":{"key":"03251012","name":"Diepholz, Stadt","type":"Stadt"},"district":{"key":"03251","name":"Diepholz","type":"Landkreis"},"federalState":{"key":"03","name":"Niedersachsen"}},{"name":"Danziger Weg","postalCode":"49356","locality":"Diepholz","municipality":{"key":"03251012","name":"Diepholz, Stadt","type":"Stadt"},"district":{"key":"03251","name":"Diepholz","type":"Landkreis"},"federalState":{"key":"03","name":"Niedersachsen"}},{"name":"Diemastr.","postalCode":"49356","locality":"Diepholz","municipality":{"key":"03251012","name":"Diepholz, Stadt","type":"Stadt"},"district":{"key":"03251","name":"Diepholz","type":"Landkreis"},"federalState":{"key":"03","name":"Niedersachsen"}},{"name":"Diepholzer Bruch","postalCode":"49356","locality":"Diepholz","municipality":{"key":"03251012","name":"Diepholz, Stadt","type":"Stadt"},"district":{"key":"03251","name":"Diepholz","type":"Landkreis"},"federalState":{"key":"03","name":"Niedersachsen"}},{"name":"Dieselstr.","postalCode":"49356","locality":"Diepholz","municipality":{"key":"03251012","name":"Diepholz, Stadt","type":"Stadt"},"district":{"key":"03251","name":"Diepholz","type":"Landkreis"},"federalState":{"key":"03","name":"Niedersachsen"}},{"name":"Dobewand","postalCode":"49356","locality":"Diepholz","municipality":{"key":"03251012","name":"Diepholz, Stadt","type":"Stadt"},"district":{"key":"03251","name":"Diepholz","type":"Landkreis"},"federalState":{"key":"03","name":"Niedersachsen"}},{"name":"Dr.-Eckener-Str.","postalCode":"49356","locality":"Diepholz","municipality":{"key":"03251012","name":"Diepholz, Stadt","type":"Stadt"},"district":{"key":"03251","name":"Diepholz","type":"Landkreis"},"federalState":{"key":"03","name":"Niedersachsen"}},{"name":"Dr.-Frieda-Duensing-Str.","postalCode":"49356","locality":"Diepholz","municipality":{"key":"03251012","name":"Diepholz, Stadt","type":"Stadt"},"district":{"key":"03251","name":"Diepholz","type":"Landkreis"},"federalState":{"key":"03","name":"Niedersachsen"}},{"name":"Dr.-Klatte-Str.","postalCode":"49356","locality":"Diepholz","municipality":{"key":"03251012","name":"Diepholz, Stadt","type":"Stadt"},"district":{"key":"03251","name":"Diepholz","type":"Landkreis"},"federalState":{"key":"03","name":"Niedersachsen"}},{"name":"Dr.-Wilhelm-Kinghorst-Str.","postalCode":"49356","locality":"Diepholz","municipality":{"key":"03251012","name":"Diepholz, Stadt","type":"Stadt"},"district":{"key":"03251","name":"Diepholz","type":"Landkreis"},"federalState":{"key":"03","name":"Niedersachsen"}},{"name":"Düstere Str.","postalCode":"49356","locality":"Diepholz","municipality":{"key":"03251012","name":"Diepholz, Stadt","type":"Stadt"},"district":{"key":"03251","name":"Diepholz","type":"Landkreis"},"federalState":{"key":"03","name":"Niedersachsen"}},{"name":"Dustmühle","postalCode":"49356","locality":"Diepholz","municipality":{"key":"03251012","name":"Diepholz, Stadt","type":"Stadt"},"district":{"key":"03251","name":"Diepholz","type":"Landkreis"},"federalState":{"key":"03","name":"Niedersachsen"}},{"name":"Eichenweg","postalCode":"49356","locality":"Diepholz","municipality":{"key":"03251012","name":"Diepholz, Stadt","type":"Stadt"},"district":{"key":"03251","name":"Diepholz","type":"Landkreis"},"federalState":{"key":"03","name":"Niedersachsen"}},{"name":"Elbeweg","postalCode":"49356","locality":"Diepholz","municipality":{"key":"03251012","name":"Diepholz, Stadt","type":"Stadt"},"district":{"key":"03251","name":"Diepholz","type":"Landkreis"},"federalState":{"key":"03","name":"Niedersachsen"}},{"name":"Enge Str.","postalCode":"49356","locality":"Diepholz","municipality":{"key":"03251012","name":"Diepholz, Stadt","type":"Stadt"},"district":{"key":"03251","name":"Diepholz","type":"Landkreis"},"federalState":{"key":"03","name":"Niedersachsen"}},{"name":"Erlenweg","postalCode":"49356","locality":"Diepholz","municipality":{"key":"03251012","name":"Diepholz, Stadt","type":"Stadt"},"district":{"key":"03251","name":"Diepholz","type":"Landkreis"},"federalState":{"key":"03","name":"Niedersachsen"}},{"name":"Eschenweg","postalCode":"49356","locality":"Diepholz","municipality":{"key":"03251012","name":"Diepholz, Stadt","type":"Stadt"},"district":{"key":"03251","name":"Diepholz","type":"Landkreis"},"federalState":{"key":"03","name":"Niedersachsen"}},{"name":"Eschfeldstr.","postalCode":"49356","locality":"Diepholz","municipality":{"key":"03251012","name":"Diepholz, Stadt","type":"Stadt"},"district":{"key":"03251","name":"Diepholz","type":"Landkreis"},"federalState":{"key":"03","name":"Niedersachsen"}},{"name":"Eschholt","postalCode":"49356","locality":"Diepholz","municipality":{"key":"03251012","name":"Diepholz, Stadt","type":"Stadt"},"district":{"key":"03251","name":"Diepholz","type":"Landkreis"},"federalState":{"key":"03","name":"Niedersachsen"}},{"name":"Eselweg","postalCode":"49356","locality":"Diepholz","municipality":{"key":"03251012","name":"Diepholz, Stadt","type":"Stadt"},"district":{"key":"03251","name":"Diepholz","type":"Landkreis"},"federalState":{"key":"03","name":"Niedersachsen"}},{"name":"Espeloge","postalCode":"49356","locality":"Diepholz","municipality":{"key":"03251012","name":"Diepholz, Stadt","type":"Stadt"},"district":{"key":"03251","name":"Diepholz","type":"Landkreis"},"federalState":{"key":"03","name":"Niedersachsen"}},{"name":"Eßmannskamp","postalCode":"49356","locality":"Diepholz","municipality":{"key":"03251012","name":"Diepholz, Stadt","type":"Stadt"},"district":{"key":"03251","name":"Diepholz","type":"Landkreis"},"federalState":{"key":"03","name":"Niedersachsen"}},{"name":"Eva-Str.","postalCode":"49356","locality":"Diepholz","municipality":{"key":"03251012","name":"Diepholz, Stadt","type":"Stadt"},"district":{"key":"03251","name":"Diepholz","type":"Landkreis"},"federalState":{"key":"03","name":"Niedersachsen"}},{"name":"Feuerwehrweg","postalCode":"27249","locality":"Maasen","municipality":{"key":"03251024","name":"Maasen","type":"Kreisangehörige_Gemeinde"},"district":{"key":"03251","name":"Diepholz","type":"Landkreis"},"federalState":{"key":"03","name":"Niedersachsen"}},{"name":"Friedrich-Steuer-Weg","postalCode":"27249","locality":"Maasen","municipality":{"key":"03251024","name":"Maasen","type":"Kreisangehörige_Gemeinde"},"district":{"key":"03251","name":"Diepholz","type":"Landkreis"},"federalState":{"key":"03","name":"Niedersachsen"}},{"name":"Friesenweg","postalCode":"27249","locality":"Maasen","municipality":{"key":"03251024","name":"Maasen","type":"Kreisangehörige_Gemeinde"},"district":{"key":"03251","name":"Diepholz","type":"Landkreis"},"federalState":{"key":"03","name":"Niedersachsen"}},{"name":"Gagelstr.","postalCode":"49356","locality":"Diepholz","municipality":{"key":"03251012","name":"Diepholz, Stadt","type":"Stadt"},"district":{"key":"03251","name":"Diepholz","type":"Landkreis"},"federalState":{"key":"03","name":"Niedersachsen"}},{"name":"Gänsemarkt","postalCode":"49356","locality":"Diepholz","municipality":{"key":"03251012","name":"Diepholz, Stadt","type":"Stadt"},"district":{"key":"03251","name":"Diepholz","type":"Landkreis"},"federalState":{"key":"03","name":"Niedersachsen"}},{"name":"Gänseweg","postalCode":"49356","locality":"Diepholz","municipality":{"key":"03251012","name":"Diepholz, Stadt","type":"Stadt"},"district":{"key":"03251","name":"Diepholz","type":"Landkreis"},"federalState":{"key":"03","name":"Niedersachsen"}},{"name":"Gartenstr.","postalCode":"49356","locality":"Diepholz","municipality":{"key":"03251012","name":"Diepholz, Stadt","type":"Stadt"},"district":{"key":"03251","name":"Diepholz","type":"Landkreis"},"federalState":{"key":"03","name":"Niedersachsen"}},{"name":"Gerken Gang","postalCode":"49356","locality":"Diepholz","municipality":{"key":"03251012","name":"Diepholz, Stadt","type":"Stadt"},"district":{"key":"03251","name":"Diepholz","type":"Landkreis"},"federalState":{"key":"03","name":"Niedersachsen"}},{"name":"Geschwister-Scholl-Str.","postalCode":"49356","locality":"Diepholz","municipality":{"key":"03251012","name":"Diepholz, Stadt","type":"Stadt"},"district":{"key":"03251","name":"Diepholz","type":"Landkreis"},"federalState":{"key":"03","name":"Niedersachsen"}},{"name":"Ginsterstr.","postalCode":"49356","locality":"Diepholz","municipality":{"key":"03251012","name":"Diepholz, Stadt","type":"Stadt"},"district":{"key":"03251","name":"Diepholz","type":"Landkreis"},"federalState":{"key":"03","name":"Niedersachsen"}},{"name":"Glockenheide","postalCode":"49356","locality":"Diepholz","municipality":{"key":"03251012","name":"Diepholz, Stadt","type":"Stadt"},"district":{"key":"03251","name":"Diepholz","type":"Landkreis"},"federalState":{"key":"03","name":"Niedersachsen"}},{"name":"Goethestr.","postalCode":"49356","locality":"Diepholz","municipality":{"key":"03251012","name":"Diepholz, Stadt","type":"Stadt"},"district":{"key":"03251","name":"Diepholz","type":"Landkreis"},"federalState":{"key":"03","name":"Niedersachsen"}},{"name":"Goseweg","postalCode":"49356","locality":"Diepholz","municipality":{"key":"03251012","name":"Diepholz, Stadt","type":"Stadt"},"district":{"key":"03251","name":"Diepholz","type":"Landkreis"},"federalState":{"key":"03","name":"Niedersachsen"}},{"name":"Grafenstr.","postalCode":"49356","locality":"Diepholz","municipality":{"key":"03251012","name":"Diepholz, Stadt","type":"Stadt"},"district":{"key":"03251","name":"Diepholz","type":"Landkreis"},"federalState":{"key":"03","name":"Niedersachsen"}},{"name":"Graftlage","postalCode":"49356","locality":"Diepholz","municipality":{"key":"03251012","name":"Diepholz, Stadt","type":"Stadt"},"district":{"key":"03251","name":"Diepholz","type":"Landkreis"},"federalState":{"key":"03","name":"Niedersachsen"}},{"name":"Grawiedestr.","postalCode":"49356","locality":"Diepholz","municipality":{"key":"03251012","name":"Diepholz, Stadt","type":"Stadt"},"district":{"key":"03251","name":"Diepholz","type":"Landkreis"},"federalState":{"key":"03","name":"Niedersachsen"}},{"name":"Grawiedeweg","postalCode":"49356","locality":"Diepholz","municipality":{"key":"03251012","name":"Diepholz, Stadt","type":"Stadt"},"district":{"key":"03251","name":"Diepholz","type":"Landkreis"},"federalState":{"key":"03","name":"Niedersachsen"}},{"name":"Grelles Hof","postalCode":"49356","locality":"Diepholz","municipality":{"key":"03251012","name":"Diepholz, Stadt","type":"Stadt"},"district":{"key":"03251","name":"Diepholz","type":"Landkreis"},"federalState":{"key":"03","name":"Niedersachsen"}},{"name":"Grellestr.","postalCode":"49356","locality":"Diepholz","municipality":{"key":"03251012","name":"Diepholz, Stadt","type":"Stadt"},"district":{"key":"03251","name":"Diepholz","type":"Landkreis"},"federalState":{"key":"03","name":"Niedersachsen"}},{"name":"Grimmener Str.","postalCode":"49356","locality":"Diepholz","municipality":{"key":"03251012","name":"Diepholz, Stadt","type":"Stadt"},"district":{"key":"03251","name":"Diepholz","type":"Landkreis"},"federalState":{"key":"03","name":"Niedersachsen"}},{"name":"Groweg","postalCode":"49356","locality":"Diepholz","municipality":{"key":"03251012","name":"Diepholz, Stadt","type":"Stadt"},"district":{"key":"03251","name":"Diepholz","type":"Landkreis"},"federalState":{"key":"03","name":"Niedersachsen"}},{"name":"Guttzeit-Ring","postalCode":"49356","locality":"Diepholz","municipality":{"key":"03251012","name":"Diepholz, Stadt","type":"Stadt"},"district":{"key":"03251","name":"Diepholz","type":"Landkreis"},"federalState":{"key":"03","name":"Niedersachsen"}},{"name":"Hopfengasse","postalCode":"27249","locality":"Maasen","municipality":{"key":"03251024","name":"Maasen","type":"Kreisangehörige_Gemeinde"},"district":{"key":"03251","name":"Diepholz","type":"Landkreis"},"federalState":{"key":"03","name":"Niedersachsen"}},{"name":"Im Flüth","postalCode":"27249","locality":"Maasen","municipality":{"key":"03251024","name":"Maasen","type":"Kreisangehörige_Gemeinde"},"district":{"key":"03251","name":"Diepholz","type":"Landkreis"},"federalState":{"key":"03","name":"Niedersachsen"}},{"name":"Jahnstr.","postalCode":"49356","locality":"Diepholz","municipality":{"key":"03251012","name":"Diepholz, Stadt","type":"Stadt"},"district":{"key":"03251","name":"Diepholz","type":"Landkreis"},"federalState":{"key":"03","name":"Niedersachsen"}},{"name":"Johannstr.","postalCode":"49356","locality":"Diepholz","municipality":{"key":"03251012","name":"Diepholz, Stadt","type":"Stadt"},"district":{"key":"03251","name":"Diepholz","type":"Landkreis"},"federalState":{"key":"03","name":"Niedersachsen"}},{"name":"Julius-Leber-Str.","postalCode":"49356","locality":"Diepholz","municipality":{"key":"03251012","name":"Diepholz, Stadt","type":"Stadt"},"district":{"key":"03251","name":"Diepholz","type":"Landkreis"},"federalState":{"key":"03","name":"Niedersachsen"}},{"name":"Kanalweg","postalCode":"49356","locality":"Diepholz","municipality":{"key":"03251012","name":"Diepholz, Stadt","type":"Stadt"},"district":{"key":"03251","name":"Diepholz","type":"Landkreis"},"federalState":{"key":"03","name":"Niedersachsen"}},{"name":"Kantstr.","postalCode":"49356","locality":"Diepholz","municipality":{"key":"03251012","name":"Diepholz, Stadt","type":"Stadt"},"district":{"key":"03251","name":"Diepholz","type":"Landkreis"},"federalState":{"key":"03","name":"Niedersachsen"}},{"name":"Karkhoff","postalCode":"49356","locality":"Diepholz","municipality":{"key":"03251012","name":"Diepholz, Stadt","type":"Stadt"},"district":{"key":"03251","name":"Diepholz","type":"Landkreis"},"federalState":{"key":"03","name":"Niedersachsen"}},{"name":"Katharina-Staritz-Weg","postalCode":"49356","locality":"Diepholz","municipality":{"key":"03251012","name":"Diepholz, Stadt","type":"Stadt"},"district":{"key":"03251","name":"Diepholz","type":"Landkreis"},"federalState":{"key":"03","name":"Niedersachsen"}},{"name":"Kesselhäuser Ort","postalCode":"49356","locality":"Diepholz","municipality":{"key":"03251012","name":"Diepholz, Stadt","type":"Stadt"},"district":{"key":"03251","name":"Diepholz","type":"Landkreis"},"federalState":{"key":"03","name":"Niedersachsen"}},{"name":"Kiefernweg","postalCode":"49356","locality":"Diepholz","municipality":{"key":"03251012","name":"Diepholz, Stadt","type":"Stadt"},"district":{"key":"03251","name":"Diepholz","type":"Landkreis"},"federalState":{"key":"03","name":"Niedersachsen"}},{"name":"Kielweg","postalCode":"49356","locality":"Diepholz","municipality":{"key":"03251012","name":"Diepholz, Stadt","type":"Stadt"},"district":{"key":"03251","name":"Diepholz","type":"Landkreis"},"federalState":{"key":"03","name":"Niedersachsen"}},{"name":"Kirchweg","postalCode":"49356","locality":"Diepholz","municipality":{"key":"03251012","name":"Diepholz, Stadt","type":"Stadt"},"district":{"key":"03251","name":"Diepholz","type":"Landkreis"},"federalState":{"key":"03","name":"Niedersachsen"}},{"name":"Klattenberg","postalCode":"49356","locality":"Diepholz","municipality":{"key":"03251012","name":"Diepholz, Stadt","type":"Stadt"},"district":{"key":"03251","name":"Diepholz","type":"Landkreis"},"federalState":{"key":"03","name":"Niedersachsen"}},{"name":"Kleine Dorfstr.","postalCode":"49356","locality":"Diepholz","municipality":{"key":"03251012","name":"Diepholz, Stadt","type":"Stadt"},"district":{"key":"03251","name":"Diepholz","type":"Landkreis"},"federalState":{"key":"03","name":"Niedersachsen"}},{"name":"Kleiner Bruchweg","postalCode":"49356","locality":"Diepholz","municipality":{"key":"03251012","name":"Diepholz, Stadt","type":"Stadt"},"district":{"key":"03251","name":"Diepholz","type":"Landkreis"},"federalState":{"key":"03","name":"Niedersachsen"}},{"name":"Kohlhöfen","postalCode":"49356","locality":"Diepholz","municipality":{"key":"03251012","name":"Diepholz, Stadt","type":"Stadt"},"district":{"key":"03251","name":"Diepholz","type":"Landkreis"},"federalState":{"key":"03","name":"Niedersachsen"}},{"name":"Kohlhöfer Maschweg","postalCode":"49356","locality":"Diepholz","municipality":{"key":"03251012","name":"Diepholz, Stadt","type":"Stadt"},"district":{"key":"03251","name":"Diepholz","type":"Landkreis"},"federalState":{"key":"03","name":"Niedersachsen"}},{"name":"Königstr.","postalCode":"49356","locality":"Diepholz","municipality":{"key":"03251012","name":"Diepholz, Stadt","type":"Stadt"},"district":{"key":"03251","name":"Diepholz","type":"Landkreis"},"federalState":{"key":"03","name":"Niedersachsen"}},{"name":"Konradstr.","postalCode":"49356","locality":"Diepholz","municipality":{"key":"03251012","name":"Diepholz, Stadt","type":"Stadt"},"district":{"key":"03251","name":"Diepholz","type":"Landkreis"},"federalState":{"key":"03","name":"Niedersachsen"}},{"name":"Kriesmannsweg","postalCode":"49356","locality":"Diepholz","municipality":{"key":"03251012","name":"Diepholz, Stadt","type":"Stadt"},"district":{"key":"03251","name":"Diepholz","type":"Landkreis"},"federalState":{"key":"03","name":"Niedersachsen"}},{"name":"Kronsbeerenweg","postalCode":"49356","locality":"Diepholz","municipality":{"key":"03251012","name":"Diepholz, Stadt","type":"Stadt"},"district":{"key":"03251","name":"Diepholz","type":"Landkreis"},"federalState":{"key":"03","name":"Niedersachsen"}},{"name":"Kruppstr.","postalCode":"49356","locality":"Diepholz","municipality":{"key":"03251012","name":"Diepholz, Stadt","type":"Stadt"},"district":{"key":"03251","name":"Diepholz","type":"Landkreis"},"federalState":{"key":"03","name":"Niedersachsen"}},{"name":"Kuhbartsweg","postalCode":"49356","locality":"Diepholz","municipality":{"key":"03251012","name":"Diepholz, Stadt","type":"Stadt"},"district":{"key":"03251","name":"Diepholz","type":"Landkreis"},"federalState":{"key":"03","name":"Niedersachsen"}},{"name":"Kurzer Weg","postalCode":"49356","locality":"Diepholz","municipality":{"key":"03251012","name":"Diepholz, Stadt","type":"Stadt"},"district":{"key":"03251","name":"Diepholz","type":"Landkreis"},"federalState":{"key":"03","name":"Niedersachsen"}},{"name":"Kusselkamp","postalCode":"49356","locality":"Diepholz","municipality":{"key":"03251012","name":"Diepholz, Stadt","type":"Stadt"},"district":{"key":"03251","name":"Diepholz","type":"Landkreis"},"federalState":{"key":"03","name":"Niedersachsen"}},{"name":"Landriede","postalCode":"49356","locality":"Diepholz","municipality":{"key":"03251012","name":"Diepholz, Stadt","type":"Stadt"},"district":{"key":"03251","name":"Diepholz","type":"Landkreis"},"federalState":{"key":"03","name":"Niedersachsen"}},{"name":"Landrieder Weg","postalCode":"49356","locality":"Diepholz","municipality":{"key":"03251012","name":"Diepholz, Stadt","type":"Stadt"},"district":{"key":"03251","name":"Diepholz","type":"Landkreis"},"federalState":{"key":"03","name":"Niedersachsen"}},{"name":"Lange Str.","postalCode":"49356","locality":"Diepholz","municipality":{"key":"03251012","name":"Diepholz, Stadt","type":"Stadt"},"district":{"key":"03251","name":"Diepholz","type":"Landkreis"},"federalState":{"key":"03","name":"Niedersachsen"}},{"name":"Lange Wand","postalCode":"49356","locality":"Diepholz","municipality":{"key":"03251012","name":"Diepholz, Stadt","type":"Stadt"},"district":{"key":"03251","name":"Diepholz","type":"Landkreis"},"federalState":{"key":"03","name":"Niedersachsen"}},{"name":"Langhorststr.","postalCode":"49356","locality":"Diepholz","municipality":{"key":"03251012","name":"Diepholz, Stadt","type":"Stadt"},"district":{"key":"03251","name":"Diepholz","type":"Landkreis"},"federalState":{"key":"03","name":"Niedersachsen"}},{"name":"Lappenberg","postalCode":"49356","locality":"Diepholz","municipality":{"key":"03251012","name":"Diepholz, Stadt","type":"Stadt"},"district":{"key":"03251","name":"Diepholz","type":"Landkreis"},"federalState":{"key":"03","name":"Niedersachsen"}},{"name":"Lappenberger Pforte","postalCode":"49356","locality":"Diepholz","municipality":{"key":"03251012","name":"Diepholz, Stadt","type":"Stadt"},"district":{"key":"03251","name":"Diepholz","type":"Landkreis"},"federalState":{"key":"03","name":"Niedersachsen"}},{"name":"Ledebourstr.","postalCode":"49356","locality":"Diepholz","municipality":{"key":"03251012","name":"Diepholz, Stadt","type":"Stadt"},"district":{"key":"03251","name":"Diepholz","type":"Landkreis"},"federalState":{"key":"03","name":"Niedersachsen"}},{"name":"Liethweg","postalCode":"49356","locality":"Diepholz","municipality":{"key":"03251012","name":"Diepholz, Stadt","type":"Stadt"},"district":{"key":"03251","name":"Diepholz","type":"Landkreis"},"federalState":{"key":"03","name":"Niedersachsen"}},{"name":"Lilienthalstr.","postalCode":"49356","locality":"Diepholz","municipality":{"key":"03251012","name":"Diepholz, Stadt","type":"Stadt"},"district":{"key":"03251","name":"Diepholz","type":"Landkreis"},"federalState":{"key":"03","name":"Niedersachsen"}},{"name":"Lina-Morgenstern-Weg","postalCode":"49356","locality":"Diepholz","municipality":{"key":"03251012","name":"Diepholz, Stadt","type":"Stadt"},"district":{"key":"03251","name":"Diepholz","type":"Landkreis"},"federalState":{"key":"03","name":"Niedersachsen"}},{"name":"Lindenweg","postalCode":"49356","locality":"Diepholz","municipality":{"key":"03251012","name":"Diepholz, Stadt","type":"Stadt"},"district":{"key":"03251","name":"Diepholz","type":"Landkreis"},"federalState":{"key":"03","name":"Niedersachsen"}},{"name":"Lindloge","postalCode":"49356","locality":"Diepholz","municipality":{"key":"03251012","name":"Diepholz, Stadt","type":"Stadt"},"district":{"key":"03251","name":"Diepholz","type":"Landkreis"},"federalState":{"key":"03","name":"Niedersachsen"}},{"name":"Lindloger Moorweg","postalCode":"49356","locality":"Diepholz","municipality":{"key":"03251012","name":"Diepholz, Stadt","type":"Stadt"},"district":{"key":"03251","name":"Diepholz","type":"Landkreis"},"federalState":{"key":"03","name":"Niedersachsen"}},{"name":"Lohneaue","postalCode":"49356","locality":"Diepholz","municipality":{"key":"03251012","name":"Diepholz, Stadt","type":"Stadt"},"district":{"key":"03251","name":"Diepholz","type":"Landkreis"},"federalState":{"key":"03","name":"Niedersachsen"}},{"name":"Lohner Str.","postalCode":"49356","locality":"Diepholz","municipality":{"key":"03251012","name":"Diepholz, Stadt","type":"Stadt"},"district":{"key":"03251","name":"Diepholz","type":"Landkreis"},"federalState":{"key":"03","name":"Niedersachsen"}},{"name":"Lohneufer","postalCode":"49356","locality":"Diepholz","municipality":{"key":"03251012","name":"Diepholz, Stadt","type":"Stadt"},"district":{"key":"03251","name":"Diepholz","type":"Landkreis"},"federalState":{"key":"03","name":"Niedersachsen"}},{"name":"Lohnewiesen","postalCode":"49356","locality":"Diepholz","municipality":{"key":"03251012","name":"Diepholz, Stadt","type":"Stadt"},"district":{"key":"03251","name":"Diepholz","type":"Landkreis"},"federalState":{"key":"03","name":"Niedersachsen"}},{"name":"Lohnstr.","postalCode":"49356","locality":"Diepholz","municipality":{"key":"03251012","name":"Diepholz, Stadt","type":"Stadt"},"district":{"key":"03251","name":"Diepholz","type":"Landkreis"},"federalState":{"key":"03","name":"Niedersachsen"}},{"name":"Lönsweg","postalCode":"49356","locality":"Diepholz","municipality":{"key":"03251012","name":"Diepholz, Stadt","type":"Stadt"},"district":{"key":"03251","name":"Diepholz","type":"Landkreis"},"federalState":{"key":"03","name":"Niedersachsen"}},{"name":"Lüderstr.","postalCode":"49356","locality":"Diepholz","municipality":{"key":"03251012","name":"Diepholz, Stadt","type":"Stadt"},"district":{"key":"03251","name":"Diepholz","type":"Landkreis"},"federalState":{"key":"03","name":"Niedersachsen"}},{"name":"Luisenstr.","postalCode":"49356","locality":"Diepholz","municipality":{"key":"03251012","name":"Diepholz, Stadt","type":"Stadt"},"district":{"key":"03251","name":"Diepholz","type":"Landkreis"},"federalState":{"key":"03","name":"Niedersachsen"}},{"name":"Maaser Str.","postalCode":"27249","locality":"Maasen","municipality":{"key":"03251024","name":"Maasen","type":"Kreisangehörige_Gemeinde"},"district":{"key":"03251","name":"Diepholz","type":"Landkreis"},"federalState":{"key":"03","name":"Niedersachsen"}},{"name":"Mellinghäuser Str.","postalCode":"27249","locality":"Maasen","municipality":{"key":"03251024","name":"Maasen","type":"Kreisangehörige_Gemeinde"},"district":{"key":"03251","name":"Diepholz","type":"Landkreis"},"federalState":{"key":"03","name":"Niedersachsen"}},{"name":"Mesloher Weg","postalCode":"27249","locality":"Maasen","municipality":{"key":"03251024","name":"Maasen","type":"Kreisangehörige_Gemeinde"},"district":{"key":"03251","name":"Diepholz","type":"Landkreis"},"federalState":{"key":"03","name":"Niedersachsen"}},{"name":"Nienburger Str.","postalCode":"27249","locality":"Maasen","municipality":{"key":"03251024","name":"Maasen","type":"Kreisangehörige_Gemeinde"},"district":{"key":"03251","name":"Diepholz","type":"Landkreis"},"federalState":{"key":"03","name":"Niedersachsen"}},{"name":"Oderweg","postalCode":"49356","locality":"Diepholz","municipality":{"key":"03251012","name":"Diepholz, Stadt","type":"Stadt"},"district":{"key":"03251","name":"Diepholz","type":"Landkreis"},"federalState":{"key":"03","name":"Niedersachsen"}},{"name":"Oehlener Weg","postalCode":"49356","locality":"Diepholz","municipality":{"key":"03251012","name":"Diepholz, Stadt","type":"Stadt"},"district":{"key":"03251","name":"Diepholz","type":"Landkreis"},"federalState":{"key":"03","name":"Niedersachsen"}},{"name":"Ossenbecker Str.","postalCode":"49356","locality":"Diepholz","municipality":{"key":"03251012","name":"Diepholz, Stadt","type":"Stadt"},"district":{"key":"03251","name":"Diepholz","type":"Landkreis"},"federalState":{"key":"03","name":"Niedersachsen"}},{"name":"Ostpreußenstr.","postalCode":"49356","locality":"Diepholz","municipality":{"key":"03251012","name":"Diepholz, Stadt","type":"Stadt"},"district":{"key":"03251","name":"Diepholz","type":"Landkreis"},"federalState":{"key":"03","name":"Niedersachsen"}},{"name":"Ovelgönne","postalCode":"49356","locality":"Diepholz","municipality":{"key":"03251012","name":"Diepholz, Stadt","type":"Stadt"},"district":{"key":"03251","name":"Diepholz","type":"Landkreis"},"federalState":{"key":"03","name":"Niedersachsen"}},{"name":"Papingsweg","postalCode":"49356","locality":"Diepholz","municipality":{"key":"03251012","name":"Diepholz, Stadt","type":"Stadt"},"district":{"key":"03251","name":"Diepholz","type":"Landkreis"},"federalState":{"key":"03","name":"Niedersachsen"}},{"name":"Pappelweg","postalCode":"49356","locality":"Diepholz","municipality":{"key":"03251012","name":"Diepholz, Stadt","type":"Stadt"},"district":{"key":"03251","name":"Diepholz","type":"Landkreis"},"federalState":{"key":"03","name":"Niedersachsen"}},{"name":"Parkweg","postalCode":"49356","locality":"Diepholz","municipality":{"key":"03251012","name":"Diepholz, Stadt","type":"Stadt"},"district":{"key":"03251","name":"Diepholz","type":"Landkreis"},"federalState":{"key":"03","name":"Niedersachsen"}},{"name":"Pelsters Weg","postalCode":"49356","locality":"Diepholz","municipality":{"key":"03251012","name":"Diepholz, Stadt","type":"Stadt"},"district":{"key":"03251","name":"Diepholz","type":"Landkreis"},"federalState":{"key":"03","name":"Niedersachsen"}},{"name":"Philosophenweg","postalCode":"49356","locality":"Diepholz","municipality":{"key":"03251012","name":"Diepholz, Stadt","type":"Stadt"},"district":{"key":"03251","name":"Diepholz","type":"Landkreis"},"federalState":{"key":"03","name":"Niedersachsen"}},{"name":"Pommernstr.","postalCode":"49356","locality":"Diepholz","municipality":{"key":"03251012","name":"Diepholz, Stadt","type":"Stadt"},"district":{"key":"03251","name":"Diepholz","type":"Landkreis"},"federalState":{"key":"03","name":"Niedersachsen"}},{"name":"Postdamm","postalCode":"49356","locality":"Diepholz","municipality":{"key":"03251012","name":"Diepholz, Stadt","type":"Stadt"},"district":{"key":"03251","name":"Diepholz","type":"Landkreis"},"federalState":{"key":"03","name":"Niedersachsen"}},{"name":"Pregelweg","postalCode":"49356","locality":"Diepholz","municipality":{"key":"03251012","name":"Diepholz, Stadt","type":"Stadt"},"district":{"key":"03251","name":"Diepholz","type":"Landkreis"},"federalState":{"key":"03","name":"Niedersachsen"}},{"name":"Prinzhornstr.","postalCode":"49356","locality":"Diepholz","municipality":{"key":"03251012","name":"Diepholz, Stadt","type":"Stadt"},"district":{"key":"03251","name":"Diepholz","type":"Landkreis"},"federalState":{"key":"03","name":"Niedersachsen"}},{"name":"Quelleweg","postalCode":"49356","locality":"Diepholz","municipality":{"key":"03251012","name":"Diepholz, Stadt","type":"Stadt"},"district":{"key":"03251","name":"Diepholz","type":"Landkreis"},"federalState":{"key":"03","name":"Niedersachsen"}},{"name":"Rabbenweg","postalCode":"49356","locality":"Diepholz","municipality":{"key":"03251012","name":"Diepholz, Stadt","type":"Stadt"},"district":{"key":"03251","name":"Diepholz","type":"Landkreis"},"federalState":{"key":"03","name":"Niedersachsen"}},{"name":"Räbers Weg","postalCode":"49356","locality":"Diepholz","municipality":{"key":"03251012","name":"Diepholz, Stadt","type":"Stadt"},"district":{"key":"03251","name":"Diepholz","type":"Landkreis"},"federalState":{"key":"03","name":"Niedersachsen"}},{"name":"Reessingstr.","postalCode":"49356","locality":"Diepholz","municipality":{"key":"03251012","name":"Diepholz, Stadt","type":"Stadt"},"district":{"key":"03251","name":"Diepholz","type":"Landkreis"},"federalState":{"key":"03","name":"Niedersachsen"}},{"name":"Regerweg","postalCode":"49356","locality":"Diepholz","municipality":{"key":"03251012","name":"Diepholz, Stadt","type":"Stadt"},"district":{"key":"03251","name":"Diepholz","type":"Landkreis"},"federalState":{"key":"03","name":"Niedersachsen"}},{"name":"Richthofenstr.","postalCode":"49356","locality":"Diepholz","municipality":{"key":"03251012","name":"Diepholz, Stadt","type":"Stadt"},"district":{"key":"03251","name":"Diepholz","type":"Landkreis"},"federalState":{"key":"03","name":"Niedersachsen"}},{"name":"Richtweg","postalCode":"49356","locality":"Diepholz","municipality":{"key":"03251012","name":"Diepholz, Stadt","type":"Stadt"},"district":{"key":"03251","name":"Diepholz","type":"Landkreis"},"federalState":{"key":"03","name":"Niedersachsen"}},{"name":"Robergstr.","postalCode":"49356","locality":"Diepholz","municipality":{"key":"03251012","name":"Diepholz, Stadt","type":"Stadt"},"district":{"key":"03251","name":"Diepholz","type":"Landkreis"},"federalState":{"key":"03","name":"Niedersachsen"}},{"name":"Rofladderweg","postalCode":"49356","locality":"Diepholz","municipality":{"key":"03251012","name":"Diepholz, Stadt","type":"Stadt"},"district":{"key":"03251","name":"Diepholz","type":"Landkreis"},"federalState":{"key":"03","name":"Niedersachsen"}},{"name":"Römlingstr.","postalCode":"49356","locality":"Diepholz","municipality":{"key":"03251012","name":"Diepholz, Stadt","type":"Stadt"},"district":{"key":"03251","name":"Diepholz","type":"Landkreis"},"federalState":{"key":"03","name":"Niedersachsen"}},{"name":"Rudolfstr.","postalCode":"49356","locality":"Diepholz","municipality":{"key":"03251012","name":"Diepholz, Stadt","type":"Stadt"},"district":{"key":"03251","name":"Diepholz","type":"Landkreis"},"federalState":{"key":"03","name":"Niedersachsen"}},{"name":"Runder Garten","postalCode":"49356","locality":"Diepholz","municipality":{"key":"03251012","name":"Diepholz, Stadt","type":"Stadt"},"district":{"key":"03251","name":"Diepholz","type":"Landkreis"},"federalState":{"key":"03","name":"Niedersachsen"}},{"name":"Siedlungsweg","postalCode":"27249","locality":"Maasen","municipality":{"key":"03251024","name":"Maasen","type":"Kreisangehörige_Gemeinde"},"district":{"key":"03251","name":"Diepholz","type":"Landkreis"},"federalState":{"key":"03","name":"Niedersachsen"}},{"name":"Tebenstr.","postalCode":"49356","locality":"Diepholz","municipality":{"key":"03251012","name":"Diepholz, Stadt","type":"Stadt"},"district":{"key":"03251","name":"Diepholz","type":"Landkreis"},"federalState":{"key":"03","name":"Niedersachsen"}},{"name":"Thea-Hucke-Str.","postalCode":"49356","locality":"Diepholz","municipality":{"key":"03251012","name":"Diepholz, Stadt","type":"Stadt"},"district":{"key":"03251","name":"Diepholz","type":"Landkreis"},"federalState":{"key":"03","name":"Niedersachsen"}},{"name":"Theanoltestr.","postalCode":"49356","locality":"Diepholz","municipality":{"key":"03251012","name":"Diepholz, Stadt","type":"Stadt"},"district":{"key":"03251","name":"Diepholz","type":"Landkreis"},"federalState":{"key":"03","name":"Niedersachsen"}},{"name":"Thouarsstr.","postalCode":"49356","locality":"Diepholz","municipality":{"key":"03251012","name":"Diepholz, Stadt","type":"Stadt"},"district":{"key":"03251","name":"Diepholz","type":"Landkreis"},"federalState":{"key":"03","name":"Niedersachsen"}},{"name":"Thüringer Str.","postalCode":"49356","locality":"Diepholz","municipality":{"key":"03251012","name":"Diepholz, Stadt","type":"Stadt"},"district":{"key":"03251","name":"Diepholz","type":"Landkreis"},"federalState":{"key":"03","name":"Niedersachsen"}},{"name":"Trift durch die Heide","postalCode":"49356","locality":"Diepholz","municipality":{"key":"03251012","name":"Diepholz, Stadt","type":"Stadt"},"district":{"key":"03251","name":"Diepholz","type":"Landkreis"},"federalState":{"key":"03","name":"Niedersachsen"}},{"name":"Triftweg","postalCode":"49356","locality":"Diepholz","municipality":{"key":"03251012","name":"Diepholz, Stadt","type":"Stadt"},"district":{"key":"03251","name":"Diepholz","type":"Landkreis"},"federalState":{"key":"03","name":"Niedersachsen"}},{"name":"Turmstr.","postalCode":"49356","locality":"Diepholz","municipality":{"key":"03251012","name":"Diepholz, Stadt","type":"Stadt"},"district":{"key":"03251","name":"Diepholz","type":"Landkreis"},"federalState":{"key":"03","name":"Niedersachsen"}},{"name":"Unter den Eichen","postalCode":"27249","locality":"Maasen","municipality":{"key":"03251024","name":"Maasen","type":"Kreisangehörige_Gemeinde"},"district":{"key":"03251","name":"Diepholz","type":"Landkreis"},"federalState":{"key":"03","name":"Niedersachsen"}},{"name":"Vechtaer Str.","postalCode":"49356","locality":"Diepholz","municipality":{"key":"03251012","name":"Diepholz, Stadt","type":"Stadt"},"district":{"key":"03251","name":"Diepholz","type":"Landkreis"},"federalState":{"key":"03","name":"Niedersachsen"}},{"name":"Verlatsweg","postalCode":"49356","locality":"Diepholz","municipality":{"key":"03251012","name":"Diepholz, Stadt","type":"Stadt"},"district":{"key":"03251","name":"Diepholz","type":"Landkreis"},"federalState":{"key":"03","name":"Niedersachsen"}},{"name":"Von-Braun-Str.","postalCode":"49356","locality":"Diepholz","municipality":{"key":"03251012","name":"Diepholz, Stadt","type":"Stadt"},"district":{"key":"03251","name":"Diepholz","type":"Landkreis"},"federalState":{"key":"03","name":"Niedersachsen"}},{"name":"Von-Galen-Str.","postalCode":"49356","locality":"Diepholz","municipality":{"key":"03251012","name":"Diepholz, Stadt","type":"Stadt"},"district":{"key":"03251","name":"Diepholz","type":"Landkreis"},"federalState":{"key":"03","name":"Niedersachsen"}},{"name":"Von-Hünefeld-Str.","postalCode":"49356","locality":"Diepholz","municipality":{"key":"03251012","name":"Diepholz, Stadt","type":"Stadt"},"district":{"key":"03251","name":"Diepholz","type":"Landkreis"},"federalState":{"key":"03","name":"Niedersachsen"}},{"name":"Vor dem Ort","postalCode":"49356","locality":"Diepholz","municipality":{"key":"03251012","name":"Diepholz, Stadt","type":"Stadt"},"district":{"key":"03251","name":"Diepholz","type":"Landkreis"},"federalState":{"key":"03","name":"Niedersachsen"}},{"name":"Vordere Masch","postalCode":"49356","locality":"Diepholz","municipality":{"key":"03251012","name":"Diepholz, Stadt","type":"Stadt"},"district":{"key":"03251","name":"Diepholz","type":"Landkreis"},"federalState":{"key":"03","name":"Niedersachsen"}},{"name":"Vorm Kampe","postalCode":"49356","locality":"Diepholz","municipality":{"key":"03251012","name":"Diepholz, Stadt","type":"Stadt"},"district":{"key":"03251","name":"Diepholz","type":"Landkreis"},"federalState":{"key":"03","name":"Niedersachsen"}},{"name":"Vossen Neufeld","postalCode":"49356","locality":"Diepholz","municipality":{"key":"03251012","name":"Diepholz, Stadt","type":"Stadt"},"district":{"key":"03251","name":"Diepholz","type":"Landkreis"},"federalState":{"key":"03","name":"Niedersachsen"}},{"name":"Vossen Reitweg","postalCode":"49356","locality":"Diepholz","municipality":{"key":"03251012","name":"Diepholz, Stadt","type":"Stadt"},"district":{"key":"03251","name":"Diepholz","type":"Landkreis"},"federalState":{"key":"03","name":"Niedersachsen"}},{"name":"Wankelstr.","postalCode":"49356","locality":"Diepholz","municipality":{"key":"03251012","name":"Diepholz, Stadt","type":"Stadt"},"district":{"key":"03251","name":"Diepholz","type":"Landkreis"},"federalState":{"key":"03","name":"Niedersachsen"}},{"name":"Wehringstr.","postalCode":"49356","locality":"Diepholz","municipality":{"key":"03251012","name":"Diepholz, Stadt","type":"Stadt"},"district":{"key":"03251","name":"Diepholz","type":"Landkreis"},"federalState":{"key":"03","name":"Niedersachsen"}},{"name":"Weichselweg","postalCode":"49356","locality":"Diepholz","municipality":{"key":"03251012","name":"Diepholz, Stadt","type":"Stadt"},"district":{"key":"03251","name":"Diepholz","type":"Landkreis"},"federalState":{"key":"03","name":"Niedersachsen"}},{"name":"Wellestr.","postalCode":"49356","locality":"Diepholz","municipality":{"key":"03251012","name":"Diepholz, Stadt","type":"Stadt"},"district":{"key":"03251","name":"Diepholz","type":"Landkreis"},"federalState":{"key":"03","name":"Niedersachsen"}},{"name":"Werrastr.","postalCode":"49356","locality":"Diepholz","municipality":{"key":"03251012","name":"Diepholz, Stadt","type":"Stadt"},"district":{"key":"03251","name":"Diepholz","type":"Landkreis"},"federalState":{"key":"03","name":"Niedersachsen"}},{"name":"Wetscher Str.","postalCode":"49356","locality":"Diepholz","municipality":{"key":"03251012","name":"Diepholz, Stadt","type":"Stadt"},"district":{"key":"03251","name":"Diepholz","type":"Landkreis"},"federalState":{"key":"03","name":"Niedersachsen"}},{"name":"Wiegmanns Weg","postalCode":"49356","locality":"Diepholz","municipality":{"key":"03251012","name":"Diepholz, Stadt","type":"Stadt"},"district":{"key":"03251","name":"Diepholz","type":"Landkreis"},"federalState":{"key":"03","name":"Niedersachsen"}},{"name":"Wiesengrund","postalCode":"49356","locality":"Diepholz","municipality":{"key":"03251012","name":"Diepholz, Stadt","type":"Stadt"},"district":{"key":"03251","name":"Diepholz","type":"Landkreis"},"federalState":{"key":"03","name":"Niedersachsen"}},{"name":"Wiesenweg","postalCode":"49356","locality":"Diepholz","municipality":{"key":"03251012","name":"Diepholz, Stadt","type":"Stadt"},"district":{"key":"03251","name":"Diepholz","type":"Landkreis"},"federalState":{"key":"03","name":"Niedersachsen"}},{"name":"Wilhelm-Busch-Weg","postalCode":"49356","locality":"Diepholz","municipality":{"key":"03251012","name":"Diepholz, Stadt","type":"Stadt"},"district":{"key":"03251","name":"Diepholz","type":"Landkreis"},"federalState":{"key":"03","name":"Niedersachsen"}},{"name":"Wilhelm Ripking Str.","postalCode":"49356","locality":"Diepholz","municipality":{"key":"03251012","name":"Diepholz, Stadt","type":"Stadt"},"district":{"key":"03251","name":"Diepholz","type":"Landkreis"},"federalState":{"key":"03","name":"Niedersachsen"}},{"name":"Wilhelmstr.","postalCode":"49356","locality":"Diepholz","municipality":{"key":"03251012","name":"Diepholz, Stadt","type":"Stadt"},"district":{"key":"03251","name":"Diepholz","type":"Landkreis"},"federalState":{"key":"03","name":"Niedersachsen"}},{"name":"Wilhelm-Wiechering-Str.","postalCode":"49356","locality":"Diepholz","municipality":{"key":"03251012","name":"Diepholz, Stadt","type":"Stadt"},"district":{"key":"03251","name":"Diepholz","type":"Landkreis"},"federalState":{"key":"03","name":"Niedersachsen"}},{"name":"Willenberg","postalCode":"49356","locality":"Diepholz","municipality":{"key":"03251012","name":"Diepholz, Stadt","type":"Stadt"},"district":{"key":"03251","name":"Diepholz","type":"Landkreis"},"federalState":{"key":"03","name":"Niedersachsen"}},{"name":"Willenberger Masch","postalCode":"49356","locality":"Diepholz","municipality":{"key":"03251012","name":"Diepholz, Stadt","type":"Stadt"},"district":{"key":"03251","name":"Diepholz","type":"Landkreis"},"federalState":{"key":"03","name":"Niedersachsen"}},{"name":"Wollering","postalCode":"49356","locality":"Diepholz","municipality":{"key":"03251012","name":"Diepholz, Stadt","type":"Stadt"},"district":{"key":"03251","name":"Diepholz","type":"Landkreis"},"federalState":{"key":"03","name":"Niedersachsen"}},{"name":"Wollgrasweg","postalCode":"49356","locality":"Diepholz","municipality":{"key":"03251012","name":"Diepholz, Stadt","type":"Stadt"},"district":{"key":"03251","name":"Diepholz","type":"Landkreis"},"federalState":{"key":"03","name":"Niedersachsen"}},{"name":"Wuthenaustr.","postalCode":"49356","locality":"Diepholz","municipality":{"key":"03251012","name":"Diepholz, Stadt","type":"Stadt"},"district":{"key":"03251","name":"Diepholz","type":"Landkreis"},"federalState":{"key":"03","name":"Niedersachsen"}},{"name":"Zeppelinstr.","postalCode":"49356","locality":"Diepholz","municipality":{"key":"03251012","name":"Diepholz, Stadt","type":"Stadt"},"district":{"key":"03251","name":"Diepholz","type":"Landkreis"},"federalState":{"key":"03","name":"Niedersachsen"}},{"name":"Ziegeleiweg","postalCode":"49356","locality":"Diepholz","municipality":{"key":"03251012","name":"Diepholz, Stadt","type":"Stadt"},"district":{"key":"03251","name":"Diepholz","type":"Landkreis"},"federalState":{"key":"03","name":"Niedersachsen"}},{"name":"Zum Lehmstich","postalCode":"49356","locality":"Diepholz","municipality":{"key":"03251012","name":"Diepholz, Stadt","type":"Stadt"},"district":{"key":"03251","name":"Diepholz","type":"Landkreis"},"federalState":{"key":"03","name":"Niedersachsen"}},{"name":"Zur Heide","postalCode":"49356","locality":"Diepholz","municipality":{"key":"03251012","name":"Diepholz, Stadt","type":"Stadt"},"district":{"key":"03251","name":"Diepholz","type":"Landkreis"},"federalState":{"key":"03","name":"Niedersachsen"}},{"name":"Zur Kleinbahn","postalCode":"49356","locality":"Diepholz","municipality":{"key":"03251012","name":"Diepholz, Stadt","type":"Stadt"},"district":{"key":"03251","name":"Diepholz","type":"Landkreis"},"federalState":{"key":"03","name":"Niedersachsen"}},{"name":"Zwickertstr.","postalCode":"49356","locality":"Diepholz","municipality":{"key":"03251012","name":"Diepholz, Stadt","type":"Stadt"},"district":{"key":"03251","name":"Diepholz","type":"Landkreis"},"federalState":{"key":"03","name":"Niedersachsen"}},{"name":"Ölstr.","postalCode":"27249","locality":"Maasen","municipality":{"key":"03251024","name":"Maasen","type":"Kreisangehörige_Gemeinde"},"district":{"key":"03251","name":"Diepholz","type":"Landkreis"},"federalState":{"key":"03","name":"Niedersachsen"}},]