[{"name":"Am Aalbek","postalCode":"24247","locality":"Mielkendorf","municipality":{"key":"01058105","name":"Mielkendorf","type":"Kreisangehörige_Gemeinde"},"district":{"key":"01058","name":"Rendsburg-Eckernförde","type":"Kreis"},"federalState":{"key":"01","name":"Schleswig-Holstein"}},{"name":"Am Hagen","postalCode":"24247","locality":"Mielkendorf","municipality":{"key":"01058105","name":"Mielkendorf","type":"Kreisangehörige_Gemeinde"},"district":{"key":"01058","name":"Rendsburg-Eckernförde","type":"Kreis"},"federalState":{"key":"01","name":"Schleswig-Holstein"}},{"name":"Am Lehmteich","postalCode":"24247","locality":"Mielkendorf","municipality":{"key":"01058105","name":"Mielkendorf","type":"Kreisangehörige_Gemeinde"},"district":{"key":"01058","name":"Rendsburg-Eckernförde","type":"Kreis"},"federalState":{"key":"01","name":"Schleswig-Holstein"}},{"name":"Blockshagener Weg","postalCode":"24247","locality":"Mielkendorf","municipality":{"key":"01058105","name":"Mielkendorf","type":"Kreisangehörige_Gemeinde"},"district":{"key":"01058","name":"Rendsburg-Eckernförde","type":"Kreis"},"federalState":{"key":"01","name":"Schleswig-Holstein"}},{"name":"Dorfstr.","postalCode":"24247","locality":"Mielkendorf","municipality":{"key":"01058105","name":"Mielkendorf","type":"Kreisangehörige_Gemeinde"},"district":{"key":"01058","name":"Rendsburg-Eckernförde","type":"Kreis"},"federalState":{"key":"01","name":"Schleswig-Holstein"}},{"name":"Dweerkamp","postalCode":"24247","locality":"Mielkendorf","municipality":{"key":"01058105","name":"Mielkendorf","type":"Kreisangehörige_Gemeinde"},"district":{"key":"01058","name":"Rendsburg-Eckernförde","type":"Kreis"},"federalState":{"key":"01","name":"Schleswig-Holstein"}},{"name":"Eiderblick","postalCode":"24247","locality":"Mielkendorf","municipality":{"key":"01058105","name":"Mielkendorf","type":"Kreisangehörige_Gemeinde"},"district":{"key":"01058","name":"Rendsburg-Eckernförde","type":"Kreis"},"federalState":{"key":"01","name":"Schleswig-Holstein"}},{"name":"Eiderweg","postalCode":"24247","locality":"Mielkendorf","municipality":{"key":"01058105","name":"Mielkendorf","type":"Kreisangehörige_Gemeinde"},"district":{"key":"01058","name":"Rendsburg-Eckernförde","type":"Kreis"},"federalState":{"key":"01","name":"Schleswig-Holstein"}},{"name":"Großer Hof","postalCode":"24247","locality":"Mielkendorf","municipality":{"key":"01058105","name":"Mielkendorf","type":"Kreisangehörige_Gemeinde"},"district":{"key":"01058","name":"Rendsburg-Eckernförde","type":"Kreis"},"federalState":{"key":"01","name":"Schleswig-Holstein"}},{"name":"Im Stillen Winkel","postalCode":"24247","locality":"Mielkendorf","municipality":{"key":"01058105","name":"Mielkendorf","type":"Kreisangehörige_Gemeinde"},"district":{"key":"01058","name":"Rendsburg-Eckernförde","type":"Kreis"},"federalState":{"key":"01","name":"Schleswig-Holstein"}},{"name":"Kälberkoppel","postalCode":"24247","locality":"Mielkendorf","municipality":{"key":"01058105","name":"Mielkendorf","type":"Kreisangehörige_Gemeinde"},"district":{"key":"01058","name":"Rendsburg-Eckernförde","type":"Kreis"},"federalState":{"key":"01","name":"Schleswig-Holstein"}},{"name":"Karpfenteich","postalCode":"24247","locality":"Mielkendorf","municipality":{"key":"01058105","name":"Mielkendorf","type":"Kreisangehörige_Gemeinde"},"district":{"key":"01058","name":"Rendsburg-Eckernförde","type":"Kreis"},"federalState":{"key":"01","name":"Schleswig-Holstein"}},{"name":"Kieler Str.","postalCode":"24247","locality":"Mielkendorf","municipality":{"key":"01058105","name":"Mielkendorf","type":"Kreisangehörige_Gemeinde"},"district":{"key":"01058","name":"Rendsburg-Eckernförde","type":"Kreis"},"federalState":{"key":"01","name":"Schleswig-Holstein"}},{"name":"Kirchenweg","postalCode":"24247","locality":"Mielkendorf","municipality":{"key":"01058105","name":"Mielkendorf","type":"Kreisangehörige_Gemeinde"},"district":{"key":"01058","name":"Rendsburg-Eckernförde","type":"Kreis"},"federalState":{"key":"01","name":"Schleswig-Holstein"}},{"name":"Kleekoppel","postalCode":"24247","locality":"Mielkendorf","municipality":{"key":"01058105","name":"Mielkendorf","type":"Kreisangehörige_Gemeinde"},"district":{"key":"01058","name":"Rendsburg-Eckernförde","type":"Kreis"},"federalState":{"key":"01","name":"Schleswig-Holstein"}},{"name":"Langstücken","postalCode":"24247","locality":"Mielkendorf","municipality":{"key":"01058105","name":"Mielkendorf","type":"Kreisangehörige_Gemeinde"},"district":{"key":"01058","name":"Rendsburg-Eckernförde","type":"Kreis"},"federalState":{"key":"01","name":"Schleswig-Holstein"}},{"name":"Maaseweg","postalCode":"24247","locality":"Mielkendorf","municipality":{"key":"01058105","name":"Mielkendorf","type":"Kreisangehörige_Gemeinde"},"district":{"key":"01058","name":"Rendsburg-Eckernförde","type":"Kreis"},"federalState":{"key":"01","name":"Schleswig-Holstein"}},{"name":"Moorkamp","postalCode":"24247","locality":"Mielkendorf","municipality":{"key":"01058105","name":"Mielkendorf","type":"Kreisangehörige_Gemeinde"},"district":{"key":"01058","name":"Rendsburg-Eckernförde","type":"Kreis"},"federalState":{"key":"01","name":"Schleswig-Holstein"}},{"name":"Moorteich","postalCode":"24247","locality":"Mielkendorf","municipality":{"key":"01058105","name":"Mielkendorf","type":"Kreisangehörige_Gemeinde"},"district":{"key":"01058","name":"Rendsburg-Eckernförde","type":"Kreis"},"federalState":{"key":"01","name":"Schleswig-Holstein"}},{"name":"Ostlandstr.","postalCode":"24247","locality":"Mielkendorf","municipality":{"key":"01058105","name":"Mielkendorf","type":"Kreisangehörige_Gemeinde"},"district":{"key":"01058","name":"Rendsburg-Eckernförde","type":"Kreis"},"federalState":{"key":"01","name":"Schleswig-Holstein"}},{"name":"Postweg","postalCode":"24247","locality":"Mielkendorf","municipality":{"key":"01058105","name":"Mielkendorf","type":"Kreisangehörige_Gemeinde"},"district":{"key":"01058","name":"Rendsburg-Eckernförde","type":"Kreis"},"federalState":{"key":"01","name":"Schleswig-Holstein"}},{"name":"Roßweide","postalCode":"24247","locality":"Mielkendorf","municipality":{"key":"01058105","name":"Mielkendorf","type":"Kreisangehörige_Gemeinde"},"district":{"key":"01058","name":"Rendsburg-Eckernförde","type":"Kreis"},"federalState":{"key":"01","name":"Schleswig-Holstein"}},{"name":"Ruhm","postalCode":"24247","locality":"Mielkendorf","municipality":{"key":"01058105","name":"Mielkendorf","type":"Kreisangehörige_Gemeinde"},"district":{"key":"01058","name":"Rendsburg-Eckernförde","type":"Kreis"},"federalState":{"key":"01","name":"Schleswig-Holstein"}},{"name":"Schönwohlder Str.","postalCode":"24247","locality":"Mielkendorf","municipality":{"key":"01058105","name":"Mielkendorf","type":"Kreisangehörige_Gemeinde"},"district":{"key":"01058","name":"Rendsburg-Eckernförde","type":"Kreis"},"federalState":{"key":"01","name":"Schleswig-Holstein"}},{"name":"Schulberg","postalCode":"24247","locality":"Mielkendorf","municipality":{"key":"01058105","name":"Mielkendorf","type":"Kreisangehörige_Gemeinde"},"district":{"key":"01058","name":"Rendsburg-Eckernförde","type":"Kreis"},"federalState":{"key":"01","name":"Schleswig-Holstein"}},{"name":"Stiftkamp","postalCode":"24247","locality":"Mielkendorf","municipality":{"key":"01058105","name":"Mielkendorf","type":"Kreisangehörige_Gemeinde"},"district":{"key":"01058","name":"Rendsburg-Eckernförde","type":"Kreis"},"federalState":{"key":"01","name":"Schleswig-Holstein"}},{"name":"Wanderweg Mielkendorf","postalCode":"24247","locality":"Mielkendorf","municipality":{"key":"01058105","name":"Mielkendorf","type":"Kreisangehörige_Gemeinde"},"district":{"key":"01058","name":"Rendsburg-Eckernförde","type":"Kreis"},"federalState":{"key":"01","name":"Schleswig-Holstein"}},{"name":"Weidenrade","postalCode":"24247","locality":"Mielkendorf","municipality":{"key":"01058105","name":"Mielkendorf","type":"Kreisangehörige_Gemeinde"},"district":{"key":"01058","name":"Rendsburg-Eckernförde","type":"Kreis"},"federalState":{"key":"01","name":"Schleswig-Holstein"}},{"name":"Zu Boss","postalCode":"24247","locality":"Mielkendorf","municipality":{"key":"01058105","name":"Mielkendorf","type":"Kreisangehörige_Gemeinde"},"district":{"key":"01058","name":"Rendsburg-Eckernförde","type":"Kreis"},"federalState":{"key":"01","name":"Schleswig-Holstein"}},{"name":"Zum Tamberg","postalCode":"24247","locality":"Mielkendorf","municipality":{"key":"01058105","name":"Mielkendorf","type":"Kreisangehörige_Gemeinde"},"district":{"key":"01058","name":"Rendsburg-Eckernförde","type":"Kreis"},"federalState":{"key":"01","name":"Schleswig-Holstein"}},]