[{"key":"10109871","name":"Birkenweg","postalCode":"2556","locality":"Schwadernau","commune":{"key":"748","name":"Schwadernau","shortName":"Schwadernau"},"district":{"key":"242","name":"Verwaltungskreis Biel/Bienne"},"canton":{"key":"2","code":"BE","name":"Bern / Berne"},"status":"Real"},{"key":"10012023","name":"Blaugiesse","postalCode":"2556","locality":"Schwadernau","commune":{"key":"748","name":"Schwadernau","shortName":"Schwadernau"},"district":{"key":"242","name":"Verwaltungskreis Biel/Bienne"},"canton":{"key":"2","code":"BE","name":"Bern / Berne"},"status":"Real"},{"key":"10217629","name":"Dotzigenstrasse","postalCode":"2556","locality":"Schwadernau","commune":{"key":"748","name":"Schwadernau","shortName":"Schwadernau"},"district":{"key":"242","name":"Verwaltungskreis Biel/Bienne"},"canton":{"key":"2","code":"BE","name":"Bern / Berne"},"status":"Real"},{"key":"10112508","name":"Eichenweg","postalCode":"2556","locality":"Schwadernau","commune":{"key":"748","name":"Schwadernau","shortName":"Schwadernau"},"district":{"key":"242","name":"Verwaltungskreis Biel/Bienne"},"canton":{"key":"2","code":"BE","name":"Bern / Berne"},"status":"Real"},{"key":"10059406","name":"Enselweg","postalCode":"2556","locality":"Schwadernau","commune":{"key":"748","name":"Schwadernau","shortName":"Schwadernau"},"district":{"key":"242","name":"Verwaltungskreis Biel/Bienne"},"canton":{"key":"2","code":"BE","name":"Bern / Berne"},"status":"Real"},{"key":"10086395","name":"Finkenweg","postalCode":"2556","locality":"Schwadernau","commune":{"key":"748","name":"Schwadernau","shortName":"Schwadernau"},"district":{"key":"242","name":"Verwaltungskreis Biel/Bienne"},"canton":{"key":"2","code":"BE","name":"Bern / Berne"},"status":"Real"},{"key":"10012024","name":"Fliederweg","postalCode":"2556","locality":"Schwadernau","commune":{"key":"748","name":"Schwadernau","shortName":"Schwadernau"},"district":{"key":"242","name":"Verwaltungskreis Biel/Bienne"},"canton":{"key":"2","code":"BE","name":"Bern / Berne"},"status":"Real"},{"key":"10086626","name":"Gewerbestrasse","postalCode":"2556","locality":"Schwadernau","commune":{"key":"748","name":"Schwadernau","shortName":"Schwadernau"},"district":{"key":"242","name":"Verwaltungskreis Biel/Bienne"},"canton":{"key":"2","code":"BE","name":"Bern / Berne"},"status":"Real"},{"key":"10012026","name":"Gr체nenbrach","postalCode":"2556","locality":"Schwadernau","commune":{"key":"748","name":"Schwadernau","shortName":"Schwadernau"},"district":{"key":"242","name":"Verwaltungskreis Biel/Bienne"},"canton":{"key":"2","code":"BE","name":"Bern / Berne"},"status":"Real"},{"key":"10062443","name":"Gr체nweg","postalCode":"2556","locality":"Schwadernau","commune":{"key":"748","name":"Schwadernau","shortName":"Schwadernau"},"district":{"key":"242","name":"Verwaltungskreis Biel/Bienne"},"canton":{"key":"2","code":"BE","name":"Bern / Berne"},"status":"Real"},{"key":"10086396","name":"Hauptstrasse","postalCode":"2556","locality":"Schwadernau","commune":{"key":"748","name":"Schwadernau","shortName":"Schwadernau"},"district":{"key":"242","name":"Verwaltungskreis Biel/Bienne"},"canton":{"key":"2","code":"BE","name":"Bern / Berne"},"status":"Real"},{"key":"10121077","name":"Im Grien","postalCode":"2556","locality":"Schwadernau","commune":{"key":"748","name":"Schwadernau","shortName":"Schwadernau"},"district":{"key":"242","name":"Verwaltungskreis Biel/Bienne"},"canton":{"key":"2","code":"BE","name":"Bern / Berne"},"status":"Real"},{"key":"10012027","name":"Kanalweg","postalCode":"2556","locality":"Schwadernau","commune":{"key":"748","name":"Schwadernau","shortName":"Schwadernau"},"district":{"key":"242","name":"Verwaltungskreis Biel/Bienne"},"canton":{"key":"2","code":"BE","name":"Bern / Berne"},"status":"Real"},{"key":"10012028","name":"Lerchenweg","postalCode":"2556","locality":"Schwadernau","commune":{"key":"748","name":"Schwadernau","shortName":"Schwadernau"},"district":{"key":"242","name":"Verwaltungskreis Biel/Bienne"},"canton":{"key":"2","code":"BE","name":"Bern / Berne"},"status":"Real"},{"key":"10012029","name":"Lindenweg","postalCode":"2556","locality":"Schwadernau","commune":{"key":"748","name":"Schwadernau","shortName":"Schwadernau"},"district":{"key":"242","name":"Verwaltungskreis Biel/Bienne"},"canton":{"key":"2","code":"BE","name":"Bern / Berne"},"status":"Real"},{"key":"10119673","name":"Magnolienweg","postalCode":"2556","locality":"Schwadernau","commune":{"key":"748","name":"Schwadernau","shortName":"Schwadernau"},"district":{"key":"242","name":"Verwaltungskreis Biel/Bienne"},"canton":{"key":"2","code":"BE","name":"Bern / Berne"},"status":"Real"},{"key":"10062444","name":"Mattenweg","postalCode":"2556","locality":"Schwadernau","commune":{"key":"748","name":"Schwadernau","shortName":"Schwadernau"},"district":{"key":"242","name":"Verwaltungskreis Biel/Bienne"},"canton":{"key":"2","code":"BE","name":"Bern / Berne"},"status":"Real"},{"key":"10112509","name":"Meisenweg","postalCode":"2556","locality":"Schwadernau","commune":{"key":"748","name":"Schwadernau","shortName":"Schwadernau"},"district":{"key":"242","name":"Verwaltungskreis Biel/Bienne"},"canton":{"key":"2","code":"BE","name":"Bern / Berne"},"status":"Real"},{"key":"10016019","name":"Narzissenweg","postalCode":"2556","locality":"Schwadernau","commune":{"key":"748","name":"Schwadernau","shortName":"Schwadernau"},"district":{"key":"242","name":"Verwaltungskreis Biel/Bienne"},"canton":{"key":"2","code":"BE","name":"Bern / Berne"},"status":"Real"},{"key":"10086397","name":"Neumatt","postalCode":"2556","locality":"Schwadernau","commune":{"key":"748","name":"Schwadernau","shortName":"Schwadernau"},"district":{"key":"242","name":"Verwaltungskreis Biel/Bienne"},"canton":{"key":"2","code":"BE","name":"Bern / Berne"},"status":"Real"},{"key":"10192260","name":"Paradiesli","postalCode":"2556","locality":"Schwadernau","commune":{"key":"748","name":"Schwadernau","shortName":"Schwadernau"},"district":{"key":"242","name":"Verwaltungskreis Biel/Bienne"},"canton":{"key":"2","code":"BE","name":"Bern / Berne"},"status":"Real"},{"key":"10012030","name":"Rebenweg","postalCode":"2556","locality":"Schwadernau","commune":{"key":"748","name":"Schwadernau","shortName":"Schwadernau"},"district":{"key":"242","name":"Verwaltungskreis Biel/Bienne"},"canton":{"key":"2","code":"BE","name":"Bern / Berne"},"status":"Real"},{"key":"10115444","name":"Rosenweg","postalCode":"2556","locality":"Schwadernau","commune":{"key":"748","name":"Schwadernau","shortName":"Schwadernau"},"district":{"key":"242","name":"Verwaltungskreis Biel/Bienne"},"canton":{"key":"2","code":"BE","name":"Bern / Berne"},"status":"Real"},{"key":"10086398","name":"Schulstrasse","postalCode":"2556","locality":"Schwadernau","commune":{"key":"748","name":"Schwadernau","shortName":"Schwadernau"},"district":{"key":"242","name":"Verwaltungskreis Biel/Bienne"},"canton":{"key":"2","code":"BE","name":"Bern / Berne"},"status":"Real"},{"key":"10122509","name":"Schwalbenweg","postalCode":"2556","locality":"Schwadernau","commune":{"key":"748","name":"Schwadernau","shortName":"Schwadernau"},"district":{"key":"242","name":"Verwaltungskreis Biel/Bienne"},"canton":{"key":"2","code":"BE","name":"Bern / Berne"},"status":"Real"},{"key":"10012031","name":"Standweg","postalCode":"2556","locality":"Schwadernau","commune":{"key":"748","name":"Schwadernau","shortName":"Schwadernau"},"district":{"key":"242","name":"Verwaltungskreis Biel/Bienne"},"canton":{"key":"2","code":"BE","name":"Bern / Berne"},"status":"Real"},{"key":"10103813","name":"Stieref채rrich","postalCode":"2556","locality":"Schwadernau","commune":{"key":"748","name":"Schwadernau","shortName":"Schwadernau"},"district":{"key":"242","name":"Verwaltungskreis Biel/Bienne"},"canton":{"key":"2","code":"BE","name":"Bern / Berne"},"status":"Real"},{"key":"10124571","name":"Weid","postalCode":"2556","locality":"Schwadernau","commune":{"key":"748","name":"Schwadernau","shortName":"Schwadernau"},"district":{"key":"242","name":"Verwaltungskreis Biel/Bienne"},"canton":{"key":"2","code":"BE","name":"Bern / Berne"},"status":"Real"},{"key":"10123120","name":"Weidgasse","postalCode":"2556","locality":"Schwadernau","commune":{"key":"748","name":"Schwadernau","shortName":"Schwadernau"},"district":{"key":"242","name":"Verwaltungskreis Biel/Bienne"},"canton":{"key":"2","code":"BE","name":"Bern / Berne"},"status":"Real"},{"key":"10012032","name":"Z채lgliweg","postalCode":"2556","locality":"Schwadernau","commune":{"key":"748","name":"Schwadernau","shortName":"Schwadernau"},"district":{"key":"242","name":"Verwaltungskreis Biel/Bienne"},"canton":{"key":"2","code":"BE","name":"Bern / Berne"},"status":"Real"},]