[{"name":"Am Hochwald","postalCode":"66907","locality":"Glan-Münchweiler","municipality":{"key":"07336031","name":"Glan-Münchweiler","type":"Kreisangehörige_Gemeinde"},"district":{"key":"07336","name":"Kusel","type":"Landkreis"},"federalState":{"key":"07","name":"Rheinland-Pfalz"}},{"name":"Bahnhofstr.","postalCode":"66907","locality":"Glan-Münchweiler","municipality":{"key":"07336031","name":"Glan-Münchweiler","type":"Kreisangehörige_Gemeinde"},"district":{"key":"07336","name":"Kusel","type":"Landkreis"},"federalState":{"key":"07","name":"Rheinland-Pfalz"}},{"name":"Beethovenstr.","postalCode":"66907","locality":"Glan-Münchweiler","municipality":{"key":"07336031","name":"Glan-Münchweiler","type":"Kreisangehörige_Gemeinde"},"district":{"key":"07336","name":"Kusel","type":"Landkreis"},"federalState":{"key":"07","name":"Rheinland-Pfalz"}},{"name":"Bergstr.","postalCode":"66907","locality":"Glan-Münchweiler","municipality":{"key":"07336031","name":"Glan-Münchweiler","type":"Kreisangehörige_Gemeinde"},"district":{"key":"07336","name":"Kusel","type":"Landkreis"},"federalState":{"key":"07","name":"Rheinland-Pfalz"}},{"name":"Bettenhausen","postalCode":"66907","locality":"Glan-Münchweiler","municipality":{"key":"07336031","name":"Glan-Münchweiler","type":"Kreisangehörige_Gemeinde"},"district":{"key":"07336","name":"Kusel","type":"Landkreis"},"federalState":{"key":"07","name":"Rheinland-Pfalz"}},{"name":"Brunnenstr.","postalCode":"66907","locality":"Glan-Münchweiler","municipality":{"key":"07336031","name":"Glan-Münchweiler","type":"Kreisangehörige_Gemeinde"},"district":{"key":"07336","name":"Kusel","type":"Landkreis"},"federalState":{"key":"07","name":"Rheinland-Pfalz"}},{"name":"Buchenweg","postalCode":"66907","locality":"Glan-Münchweiler","municipality":{"key":"07336031","name":"Glan-Münchweiler","type":"Kreisangehörige_Gemeinde"},"district":{"key":"07336","name":"Kusel","type":"Landkreis"},"federalState":{"key":"07","name":"Rheinland-Pfalz"}},{"name":"Christian-Böhmer-Weg","postalCode":"66869","locality":"Kusel","municipality":{"key":"07336055","name":"Kusel, Stadt","type":"Stadt"},"district":{"key":"07336","name":"Kusel","type":"Landkreis"},"federalState":{"key":"07","name":"Rheinland-Pfalz"}},{"name":"Danziger Str.","postalCode":"66869","locality":"Kusel","municipality":{"key":"07336055","name":"Kusel, Stadt","type":"Stadt"},"district":{"key":"07336","name":"Kusel","type":"Landkreis"},"federalState":{"key":"07","name":"Rheinland-Pfalz"}},{"name":"Dr.-Albert-Jung-Str.","postalCode":"66869","locality":"Kusel","municipality":{"key":"07336055","name":"Kusel, Stadt","type":"Stadt"},"district":{"key":"07336","name":"Kusel","type":"Landkreis"},"federalState":{"key":"07","name":"Rheinland-Pfalz"}},{"name":"Eichenweg","postalCode":"66907","locality":"Glan-Münchweiler","municipality":{"key":"07336031","name":"Glan-Münchweiler","type":"Kreisangehörige_Gemeinde"},"district":{"key":"07336","name":"Kusel","type":"Landkreis"},"federalState":{"key":"07","name":"Rheinland-Pfalz"}},{"name":"Embachstr.","postalCode":"66907","locality":"Glan-Münchweiler","municipality":{"key":"07336031","name":"Glan-Münchweiler","type":"Kreisangehörige_Gemeinde"},"district":{"key":"07336","name":"Kusel","type":"Landkreis"},"federalState":{"key":"07","name":"Rheinland-Pfalz"}},{"name":"Friedhofstr.","postalCode":"66907","locality":"Glan-Münchweiler","municipality":{"key":"07336031","name":"Glan-Münchweiler","type":"Kreisangehörige_Gemeinde"},"district":{"key":"07336","name":"Kusel","type":"Landkreis"},"federalState":{"key":"07","name":"Rheinland-Pfalz"}},{"name":"Frohgarten","postalCode":"66907","locality":"Glan-Münchweiler","municipality":{"key":"07336031","name":"Glan-Münchweiler","type":"Kreisangehörige_Gemeinde"},"district":{"key":"07336","name":"Kusel","type":"Landkreis"},"federalState":{"key":"07","name":"Rheinland-Pfalz"}},{"name":"Gartenstr.","postalCode":"66907","locality":"Glan-Münchweiler","municipality":{"key":"07336031","name":"Glan-Münchweiler","type":"Kreisangehörige_Gemeinde"},"district":{"key":"07336","name":"Kusel","type":"Landkreis"},"federalState":{"key":"07","name":"Rheinland-Pfalz"}},{"name":"Glanstr.","postalCode":"66907","locality":"Glan-Münchweiler","municipality":{"key":"07336031","name":"Glan-Münchweiler","type":"Kreisangehörige_Gemeinde"},"district":{"key":"07336","name":"Kusel","type":"Landkreis"},"federalState":{"key":"07","name":"Rheinland-Pfalz"}},{"name":"Glantalbahn","postalCode":"66907","locality":"Glan-Münchweiler","municipality":{"key":"07336031","name":"Glan-Münchweiler","type":"Kreisangehörige_Gemeinde"},"district":{"key":"07336","name":"Kusel","type":"Landkreis"},"federalState":{"key":"07","name":"Rheinland-Pfalz"}},{"name":"Goethestr.","postalCode":"66907","locality":"Glan-Münchweiler","municipality":{"key":"07336031","name":"Glan-Münchweiler","type":"Kreisangehörige_Gemeinde"},"district":{"key":"07336","name":"Kusel","type":"Landkreis"},"federalState":{"key":"07","name":"Rheinland-Pfalz"}},{"name":"Hauptstr.","postalCode":"66907","locality":"Glan-Münchweiler","municipality":{"key":"07336031","name":"Glan-Münchweiler","type":"Kreisangehörige_Gemeinde"},"district":{"key":"07336","name":"Kusel","type":"Landkreis"},"federalState":{"key":"07","name":"Rheinland-Pfalz"}},{"name":"Homburger Str.","postalCode":"66907","locality":"Glan-Münchweiler","municipality":{"key":"07336031","name":"Glan-Münchweiler","type":"Kreisangehörige_Gemeinde"},"district":{"key":"07336","name":"Kusel","type":"Landkreis"},"federalState":{"key":"07","name":"Rheinland-Pfalz"}},{"name":"Im roten Feld","postalCode":"66907","locality":"Glan-Münchweiler","municipality":{"key":"07336031","name":"Glan-Münchweiler","type":"Kreisangehörige_Gemeinde"},"district":{"key":"07336","name":"Kusel","type":"Landkreis"},"federalState":{"key":"07","name":"Rheinland-Pfalz"}},{"name":"Im Steinstück","postalCode":"66907","locality":"Glan-Münchweiler","municipality":{"key":"07336031","name":"Glan-Münchweiler","type":"Kreisangehörige_Gemeinde"},"district":{"key":"07336","name":"Kusel","type":"Landkreis"},"federalState":{"key":"07","name":"Rheinland-Pfalz"}},{"name":"Im Teich","postalCode":"66907","locality":"Glan-Münchweiler","municipality":{"key":"07336031","name":"Glan-Münchweiler","type":"Kreisangehörige_Gemeinde"},"district":{"key":"07336","name":"Kusel","type":"Landkreis"},"federalState":{"key":"07","name":"Rheinland-Pfalz"}},{"name":"In den Neugärten","postalCode":"66907","locality":"Glan-Münchweiler","municipality":{"key":"07336031","name":"Glan-Münchweiler","type":"Kreisangehörige_Gemeinde"},"district":{"key":"07336","name":"Kusel","type":"Landkreis"},"federalState":{"key":"07","name":"Rheinland-Pfalz"}},{"name":"Kirchstr.","postalCode":"66907","locality":"Glan-Münchweiler","municipality":{"key":"07336031","name":"Glan-Münchweiler","type":"Kreisangehörige_Gemeinde"},"district":{"key":"07336","name":"Kusel","type":"Landkreis"},"federalState":{"key":"07","name":"Rheinland-Pfalz"}},{"name":"Landschaftsstr.","postalCode":"66869","locality":"Kusel","municipality":{"key":"07336055","name":"Kusel, Stadt","type":"Stadt"},"district":{"key":"07336","name":"Kusel","type":"Landkreis"},"federalState":{"key":"07","name":"Rheinland-Pfalz"}},{"name":"Lehnstaffel","postalCode":"66869","locality":"Kusel","municipality":{"key":"07336055","name":"Kusel, Stadt","type":"Stadt"},"district":{"key":"07336","name":"Kusel","type":"Landkreis"},"federalState":{"key":"07","name":"Rheinland-Pfalz"}},{"name":"Lehnstr.","postalCode":"66869","locality":"Kusel","municipality":{"key":"07336055","name":"Kusel, Stadt","type":"Stadt"},"district":{"key":"07336","name":"Kusel","type":"Landkreis"},"federalState":{"key":"07","name":"Rheinland-Pfalz"}},{"name":"Luitpoldstr.","postalCode":"66869","locality":"Kusel","municipality":{"key":"07336055","name":"Kusel, Stadt","type":"Stadt"},"district":{"key":"07336","name":"Kusel","type":"Landkreis"},"federalState":{"key":"07","name":"Rheinland-Pfalz"}},{"name":"Marktstr.","postalCode":"66907","locality":"Glan-Münchweiler","municipality":{"key":"07336031","name":"Glan-Münchweiler","type":"Kreisangehörige_Gemeinde"},"district":{"key":"07336","name":"Kusel","type":"Landkreis"},"federalState":{"key":"07","name":"Rheinland-Pfalz"}},{"name":"Mozartweg","postalCode":"66907","locality":"Glan-Münchweiler","municipality":{"key":"07336031","name":"Glan-Münchweiler","type":"Kreisangehörige_Gemeinde"},"district":{"key":"07336","name":"Kusel","type":"Landkreis"},"federalState":{"key":"07","name":"Rheinland-Pfalz"}},{"name":"Mühlstr.","postalCode":"66907","locality":"Glan-Münchweiler","municipality":{"key":"07336031","name":"Glan-Münchweiler","type":"Kreisangehörige_Gemeinde"},"district":{"key":"07336","name":"Kusel","type":"Landkreis"},"federalState":{"key":"07","name":"Rheinland-Pfalz"}},{"name":"Nelkenweg","postalCode":"66907","locality":"Glan-Münchweiler","municipality":{"key":"07336031","name":"Glan-Münchweiler","type":"Kreisangehörige_Gemeinde"},"district":{"key":"07336","name":"Kusel","type":"Landkreis"},"federalState":{"key":"07","name":"Rheinland-Pfalz"}},{"name":"Oberer Holler","postalCode":"66869","locality":"Kusel","municipality":{"key":"07336055","name":"Kusel, Stadt","type":"Stadt"},"district":{"key":"07336","name":"Kusel","type":"Landkreis"},"federalState":{"key":"07","name":"Rheinland-Pfalz"}},{"name":"Pirminiusstr.","postalCode":"66907","locality":"Glan-Münchweiler","municipality":{"key":"07336031","name":"Glan-Münchweiler","type":"Kreisangehörige_Gemeinde"},"district":{"key":"07336","name":"Kusel","type":"Landkreis"},"federalState":{"key":"07","name":"Rheinland-Pfalz"}},{"name":"Ringstr.","postalCode":"66907","locality":"Glan-Münchweiler","municipality":{"key":"07336031","name":"Glan-Münchweiler","type":"Kreisangehörige_Gemeinde"},"district":{"key":"07336","name":"Kusel","type":"Landkreis"},"federalState":{"key":"07","name":"Rheinland-Pfalz"}},{"name":"Rosenweg","postalCode":"66907","locality":"Glan-Münchweiler","municipality":{"key":"07336031","name":"Glan-Münchweiler","type":"Kreisangehörige_Gemeinde"},"district":{"key":"07336","name":"Kusel","type":"Landkreis"},"federalState":{"key":"07","name":"Rheinland-Pfalz"}},{"name":"Schillerstr.","postalCode":"66907","locality":"Glan-Münchweiler","municipality":{"key":"07336031","name":"Glan-Münchweiler","type":"Kreisangehörige_Gemeinde"},"district":{"key":"07336","name":"Kusel","type":"Landkreis"},"federalState":{"key":"07","name":"Rheinland-Pfalz"}},{"name":"Schulstr.","postalCode":"66907","locality":"Glan-Münchweiler","municipality":{"key":"07336031","name":"Glan-Münchweiler","type":"Kreisangehörige_Gemeinde"},"district":{"key":"07336","name":"Kusel","type":"Landkreis"},"federalState":{"key":"07","name":"Rheinland-Pfalz"}},{"name":"Tulpenweg","postalCode":"66907","locality":"Glan-Münchweiler","municipality":{"key":"07336031","name":"Glan-Münchweiler","type":"Kreisangehörige_Gemeinde"},"district":{"key":"07336","name":"Kusel","type":"Landkreis"},"federalState":{"key":"07","name":"Rheinland-Pfalz"}},{"name":"Unterm Feist","postalCode":"66869","locality":"Kusel","municipality":{"key":"07336055","name":"Kusel, Stadt","type":"Stadt"},"district":{"key":"07336","name":"Kusel","type":"Landkreis"},"federalState":{"key":"07","name":"Rheinland-Pfalz"}},{"name":"Von-der-Leyenstr.","postalCode":"66907","locality":"Glan-Münchweiler","municipality":{"key":"07336031","name":"Glan-Münchweiler","type":"Kreisangehörige_Gemeinde"},"district":{"key":"07336","name":"Kusel","type":"Landkreis"},"federalState":{"key":"07","name":"Rheinland-Pfalz"}},{"name":"Walkmühlstr.","postalCode":"66869","locality":"Kusel","municipality":{"key":"07336055","name":"Kusel, Stadt","type":"Stadt"},"district":{"key":"07336","name":"Kusel","type":"Landkreis"},"federalState":{"key":"07","name":"Rheinland-Pfalz"}},{"name":"Weibergraben","postalCode":"66869","locality":"Kusel","municipality":{"key":"07336055","name":"Kusel, Stadt","type":"Stadt"},"district":{"key":"07336","name":"Kusel","type":"Landkreis"},"federalState":{"key":"07","name":"Rheinland-Pfalz"}},{"name":"Weiherhäuschen","postalCode":"66869","locality":"Kusel","municipality":{"key":"07336055","name":"Kusel, Stadt","type":"Stadt"},"district":{"key":"07336","name":"Kusel","type":"Landkreis"},"federalState":{"key":"07","name":"Rheinland-Pfalz"}},{"name":"Weiherplatz","postalCode":"66869","locality":"Kusel","municipality":{"key":"07336055","name":"Kusel, Stadt","type":"Stadt"},"district":{"key":"07336","name":"Kusel","type":"Landkreis"},"federalState":{"key":"07","name":"Rheinland-Pfalz"}},{"name":"Wingertstr.","postalCode":"66869","locality":"Kusel","municipality":{"key":"07336055","name":"Kusel, Stadt","type":"Stadt"},"district":{"key":"07336","name":"Kusel","type":"Landkreis"},"federalState":{"key":"07","name":"Rheinland-Pfalz"}},{"name":"Zalaweg","postalCode":"66869","locality":"Kusel","municipality":{"key":"07336055","name":"Kusel, Stadt","type":"Stadt"},"district":{"key":"07336","name":"Kusel","type":"Landkreis"},"federalState":{"key":"07","name":"Rheinland-Pfalz"}},{"name":"Zieselbach","postalCode":"66869","locality":"Kusel","municipality":{"key":"07336055","name":"Kusel, Stadt","type":"Stadt"},"district":{"key":"07336","name":"Kusel","type":"Landkreis"},"federalState":{"key":"07","name":"Rheinland-Pfalz"}},{"name":"Zum halben Mond","postalCode":"66869","locality":"Kusel","municipality":{"key":"07336055","name":"Kusel, Stadt","type":"Stadt"},"district":{"key":"07336","name":"Kusel","type":"Landkreis"},"federalState":{"key":"07","name":"Rheinland-Pfalz"}},{"name":"Zur Winterhelle","postalCode":"66869","locality":"Kusel","municipality":{"key":"07336055","name":"Kusel, Stadt","type":"Stadt"},"district":{"key":"07336","name":"Kusel","type":"Landkreis"},"federalState":{"key":"07","name":"Rheinland-Pfalz"}},]