[{"key":"10129269","name":"Albinásca","postalCode":"6780","locality":"Airolo","commune":{"key":"5061","name":"Airolo","shortName":"Airolo"},"district":{"key":"2103","name":"Distretto di Leventina"},"canton":{"key":"21","code":"TI","name":"Ticino"},"status":"Real"},{"key":"10246007","name":"Albügn","postalCode":"6780","locality":"Airolo","commune":{"key":"5061","name":"Airolo","shortName":"Airolo"},"district":{"key":"2103","name":"Distretto di Leventina"},"canton":{"key":"21","code":"TI","name":"Ticino"},"status":"Real"},{"key":"10246017","name":"Bedrina","postalCode":"6780","locality":"Airolo","commune":{"key":"5061","name":"Airolo","shortName":"Airolo"},"district":{"key":"2103","name":"Distretto di Leventina"},"canton":{"key":"21","code":"TI","name":"Ticino"},"status":"Real"},{"key":"10129270","name":"Bedrína","postalCode":"6780","locality":"Airolo","commune":{"key":"5061","name":"Airolo","shortName":"Airolo"},"district":{"key":"2103","name":"Distretto di Leventina"},"canton":{"key":"21","code":"TI","name":"Ticino"},"status":"Real"},{"key":"10195778","name":"Bóla","postalCode":"6780","locality":"Airolo","commune":{"key":"5061","name":"Airolo","shortName":"Airolo"},"district":{"key":"2103","name":"Distretto di Leventina"},"canton":{"key":"21","code":"TI","name":"Ticino"},"status":"Real"},{"key":"10129272","name":"Brugnasco","postalCode":"6780","locality":"Airolo","commune":{"key":"5061","name":"Airolo","shortName":"Airolo"},"district":{"key":"2103","name":"Distretto di Leventina"},"canton":{"key":"21","code":"TI","name":"Ticino"},"status":"Real"},{"key":"10237903","name":"Busc'ètt","postalCode":"6780","locality":"Airolo","commune":{"key":"5061","name":"Airolo","shortName":"Airolo"},"district":{"key":"2103","name":"Distretto di Leventina"},"canton":{"key":"21","code":"TI","name":"Ticino"},"status":"Real"},{"key":"10237901","name":"C'ampöi","postalCode":"6780","locality":"Airolo","commune":{"key":"5061","name":"Airolo","shortName":"Airolo"},"district":{"key":"2103","name":"Distretto di Leventina"},"canton":{"key":"21","code":"TI","name":"Ticino"},"status":"Real"},{"key":"10235263","name":"C'anèri","postalCode":"6780","locality":"Airolo","commune":{"key":"5061","name":"Airolo","shortName":"Airolo"},"district":{"key":"2103","name":"Distretto di Leventina"},"canton":{"key":"21","code":"TI","name":"Ticino"},"status":"Real"},{"key":"10210181","name":"Cantina di Rovinò","postalCode":"6780","locality":"Airolo","commune":{"key":"5061","name":"Airolo","shortName":"Airolo"},"district":{"key":"2103","name":"Distretto di Leventina"},"canton":{"key":"21","code":"TI","name":"Ticino"},"status":"Real"},{"key":"10173413","name":"Cascina","postalCode":"6780","locality":"Airolo","commune":{"key":"5061","name":"Airolo","shortName":"Airolo"},"district":{"key":"2103","name":"Distretto di Leventina"},"canton":{"key":"21","code":"TI","name":"Ticino"},"status":"Real"},{"key":"10246025","name":"C'assina nòva","postalCode":"6780","locality":"Airolo","commune":{"key":"5061","name":"Airolo","shortName":"Airolo"},"district":{"key":"2103","name":"Distretto di Leventina"},"canton":{"key":"21","code":"TI","name":"Ticino"},"status":"Real"},{"key":"10246033","name":"C'assinascia","postalCode":"6780","locality":"Airolo","commune":{"key":"5061","name":"Airolo","shortName":"Airolo"},"district":{"key":"2103","name":"Distretto di Leventina"},"canton":{"key":"21","code":"TI","name":"Ticino"},"status":"Real"},{"key":"10210183","name":"Cassin d' Zora","postalCode":"6780","locality":"Airolo","commune":{"key":"5061","name":"Airolo","shortName":"Airolo"},"district":{"key":"2103","name":"Distretto di Leventina"},"canton":{"key":"21","code":"TI","name":"Ticino"},"status":"Real"},{"key":"10127134","name":"Cé","postalCode":"6780","locality":"Airolo","commune":{"key":"5061","name":"Airolo","shortName":"Airolo"},"district":{"key":"2103","name":"Distretto di Leventina"},"canton":{"key":"21","code":"TI","name":"Ticino"},"status":"Real"},{"key":"10173414","name":"Chiassin","postalCode":"6780","locality":"Airolo","commune":{"key":"5061","name":"Airolo","shortName":"Airolo"},"district":{"key":"2103","name":"Distretto di Leventina"},"canton":{"key":"21","code":"TI","name":"Ticino"},"status":"Real"},{"key":"10237858","name":"Ciòss Cecu","postalCode":"6780","locality":"Airolo","commune":{"key":"5061","name":"Airolo","shortName":"Airolo"},"district":{"key":"2103","name":"Distretto di Leventina"},"canton":{"key":"21","code":"TI","name":"Ticino"},"status":"Real"},{"key":"10246037","name":"Ciòss di Gipói","postalCode":"6780","locality":"Airolo","commune":{"key":"5061","name":"Airolo","shortName":"Airolo"},"district":{"key":"2103","name":"Distretto di Leventina"},"canton":{"key":"21","code":"TI","name":"Ticino"},"status":"Real"},{"key":"10237861","name":"Cógn","postalCode":"6780","locality":"Airolo","commune":{"key":"5061","name":"Airolo","shortName":"Airolo"},"district":{"key":"2103","name":"Distretto di Leventina"},"canton":{"key":"21","code":"TI","name":"Ticino"},"status":"Real"},{"key":"10237881","name":"Cucuréi","postalCode":"6780","locality":"Airolo","commune":{"key":"5061","name":"Airolo","shortName":"Airolo"},"district":{"key":"2103","name":"Distretto di Leventina"},"canton":{"key":"21","code":"TI","name":"Ticino"},"status":"Real"},{"key":"10210761","name":"Cugiora","postalCode":"6780","locality":"Airolo","commune":{"key":"5061","name":"Airolo","shortName":"Airolo"},"district":{"key":"2103","name":"Distretto di Leventina"},"canton":{"key":"21","code":"TI","name":"Ticino"},"status":"Real"},{"key":"10210160","name":"Culisc","postalCode":"6780","locality":"Airolo","commune":{"key":"5061","name":"Airolo","shortName":"Airolo"},"district":{"key":"2103","name":"Distretto di Leventina"},"canton":{"key":"21","code":"TI","name":"Ticino"},"status":"Real"},{"key":"10173415","name":"Curècc","postalCode":"6780","locality":"Airolo","commune":{"key":"5061","name":"Airolo","shortName":"Airolo"},"district":{"key":"2103","name":"Distretto di Leventina"},"canton":{"key":"21","code":"TI","name":"Ticino"},"status":"Real"},{"key":"10246257","name":"Ded lè da l'aqua","postalCode":"6780","locality":"Airolo","commune":{"key":"5061","name":"Airolo","shortName":"Airolo"},"district":{"key":"2103","name":"Distretto di Leventina"},"canton":{"key":"21","code":"TI","name":"Ticino"},"status":"Real"},{"key":"10241469","name":"di là dall' Acqua di Dentro","postalCode":"6780","locality":"Airolo","commune":{"key":"5061","name":"Airolo","shortName":"Airolo"},"district":{"key":"2103","name":"Distretto di Leventina"},"canton":{"key":"21","code":"TI","name":"Ticino"},"status":"Real"},{"key":"10212394","name":"Fieudo","postalCode":"6780","locality":"Airolo","commune":{"key":"5061","name":"Airolo","shortName":"Airolo"},"district":{"key":"2103","name":"Distretto di Leventina"},"canton":{"key":"21","code":"TI","name":"Ticino"},"status":"Real"},{"key":"10129584","name":"Fiüra","postalCode":"6780","locality":"Airolo","commune":{"key":"5061","name":"Airolo","shortName":"Airolo"},"district":{"key":"2103","name":"Distretto di Leventina"},"canton":{"key":"21","code":"TI","name":"Ticino"},"status":"Real"},{"key":"10235259","name":"Föisc","postalCode":"6780","locality":"Airolo","commune":{"key":"5061","name":"Airolo","shortName":"Airolo"},"district":{"key":"2103","name":"Distretto di Leventina"},"canton":{"key":"21","code":"TI","name":"Ticino"},"status":"Real"},{"key":"10129585","name":"Fontana","postalCode":"6780","locality":"Airolo","commune":{"key":"5061","name":"Airolo","shortName":"Airolo"},"district":{"key":"2103","name":"Distretto di Leventina"},"canton":{"key":"21","code":"TI","name":"Ticino"},"status":"Real"},{"key":"10246041","name":"Fortünéi","postalCode":"6780","locality":"Airolo","commune":{"key":"5061","name":"Airolo","shortName":"Airolo"},"district":{"key":"2103","name":"Distretto di Leventina"},"canton":{"key":"21","code":"TI","name":"Ticino"},"status":"Real"},{"key":"10210161","name":"Frasné","postalCode":"6780","locality":"Airolo","commune":{"key":"5061","name":"Airolo","shortName":"Airolo"},"district":{"key":"2103","name":"Distretto di Leventina"},"canton":{"key":"21","code":"TI","name":"Ticino"},"status":"Real"},{"key":"10237885","name":"Funtèi","postalCode":"6780","locality":"Airolo","commune":{"key":"5061","name":"Airolo","shortName":"Airolo"},"district":{"key":"2103","name":"Distretto di Leventina"},"canton":{"key":"21","code":"TI","name":"Ticino"},"status":"Real"},{"key":"10135593","name":"G'arégna","postalCode":"6780","locality":"Airolo","commune":{"key":"5061","name":"Airolo","shortName":"Airolo"},"district":{"key":"2103","name":"Distretto di Leventina"},"canton":{"key":"21","code":"TI","name":"Ticino"},"status":"Real"},{"key":"10256403","name":"Gefallen","postalCode":"6780","locality":"Airolo","commune":{"key":"5061","name":"Airolo","shortName":"Airolo"},"district":{"key":"2103","name":"Distretto di Leventina"},"canton":{"key":"21","code":"TI","name":"Ticino"},"status":"Real"},{"key":"10170958","name":"Isra","postalCode":"6780","locality":"Airolo","commune":{"key":"5061","name":"Airolo","shortName":"Airolo"},"district":{"key":"2103","name":"Distretto di Leventina"},"canton":{"key":"21","code":"TI","name":"Ticino"},"status":"Real"},{"key":"10246010","name":"Lèi","postalCode":"6780","locality":"Airolo","commune":{"key":"5061","name":"Airolo","shortName":"Airolo"},"district":{"key":"2103","name":"Distretto di Leventina"},"canton":{"key":"21","code":"TI","name":"Ticino"},"status":"Real"},{"key":"10195318","name":"Lucendro","postalCode":"6780","locality":"Airolo","commune":{"key":"5061","name":"Airolo","shortName":"Airolo"},"district":{"key":"2103","name":"Distretto di Leventina"},"canton":{"key":"21","code":"TI","name":"Ticino"},"status":"Real"},{"key":"10129586","name":"Lüína","postalCode":"6780","locality":"Airolo","commune":{"key":"5061","name":"Airolo","shortName":"Airolo"},"district":{"key":"2103","name":"Distretto di Leventina"},"canton":{"key":"21","code":"TI","name":"Ticino"},"status":"Real"},{"key":"10129589","name":"Madrano","postalCode":"6780","locality":"Airolo","commune":{"key":"5061","name":"Airolo","shortName":"Airolo"},"district":{"key":"2103","name":"Distretto di Leventina"},"canton":{"key":"21","code":"TI","name":"Ticino"},"status":"Real"},{"key":"10139779","name":"Montagna","postalCode":"6780","locality":"Airolo","commune":{"key":"5061","name":"Airolo","shortName":"Airolo"},"district":{"key":"2103","name":"Distretto di Leventina"},"canton":{"key":"21","code":"TI","name":"Ticino"},"status":"Real"},{"key":"10175463","name":"Motto Bartola","postalCode":"6780","locality":"Airolo","commune":{"key":"5061","name":"Airolo","shortName":"Airolo"},"district":{"key":"2103","name":"Distretto di Leventina"},"canton":{"key":"21","code":"TI","name":"Ticino"},"status":"Real"},{"key":"10235260","name":"Munt","postalCode":"6780","locality":"Airolo","commune":{"key":"5061","name":"Airolo","shortName":"Airolo"},"district":{"key":"2103","name":"Distretto di Leventina"},"canton":{"key":"21","code":"TI","name":"Ticino"},"status":"Real"},{"key":"10237889","name":"Munt da vént","postalCode":"6780","locality":"Airolo","commune":{"key":"5061","name":"Airolo","shortName":"Airolo"},"district":{"key":"2103","name":"Distretto di Leventina"},"canton":{"key":"21","code":"TI","name":"Ticino"},"status":"Real"},{"key":"10237888","name":"Munt d'òra","postalCode":"6780","locality":"Airolo","commune":{"key":"5061","name":"Airolo","shortName":"Airolo"},"district":{"key":"2103","name":"Distretto di Leventina"},"canton":{"key":"21","code":"TI","name":"Ticino"},"status":"Real"},{"key":"10129594","name":"Nante","postalCode":"6780","locality":"Airolo","commune":{"key":"5061","name":"Airolo","shortName":"Airolo"},"district":{"key":"2103","name":"Distretto di Leventina"},"canton":{"key":"21","code":"TI","name":"Ticino"},"status":"Real"},{"key":"10246029","name":"Nèlva","postalCode":"6780","locality":"Airolo","commune":{"key":"5061","name":"Airolo","shortName":"Airolo"},"district":{"key":"2103","name":"Distretto di Leventina"},"canton":{"key":"21","code":"TI","name":"Ticino"},"status":"Real"},{"key":"10129596","name":"Odasc","postalCode":"6780","locality":"Airolo","commune":{"key":"5061","name":"Airolo","shortName":"Airolo"},"district":{"key":"2103","name":"Distretto di Leventina"},"canton":{"key":"21","code":"TI","name":"Ticino"},"status":"Real"},{"key":"10246014","name":"Orlasc","postalCode":"6780","locality":"Airolo","commune":{"key":"5061","name":"Airolo","shortName":"Airolo"},"district":{"key":"2103","name":"Distretto di Leventina"},"canton":{"key":"21","code":"TI","name":"Ticino"},"status":"Real"},{"key":"10235262","name":"Paután","postalCode":"6780","locality":"Airolo","commune":{"key":"5061","name":"Airolo","shortName":"Airolo"},"district":{"key":"2103","name":"Distretto di Leventina"},"canton":{"key":"21","code":"TI","name":"Ticino"},"status":"Real"},{"key":"10170960","name":"Pesciüm","postalCode":"6780","locality":"Airolo","commune":{"key":"5061","name":"Airolo","shortName":"Airolo"},"district":{"key":"2103","name":"Distretto di Leventina"},"canton":{"key":"21","code":"TI","name":"Ticino"},"status":"Real"},{"key":"10210176","name":"Piano di Laresc","postalCode":"6780","locality":"Airolo","commune":{"key":"5061","name":"Airolo","shortName":"Airolo"},"district":{"key":"2103","name":"Distretto di Leventina"},"canton":{"key":"21","code":"TI","name":"Ticino"},"status":"Real"},{"key":"10235265","name":"Pian Töi","postalCode":"6780","locality":"Airolo","commune":{"key":"5061","name":"Airolo","shortName":"Airolo"},"district":{"key":"2103","name":"Distretto di Leventina"},"canton":{"key":"21","code":"TI","name":"Ticino"},"status":"Real"},{"key":"10152831","name":"Pian zótt","postalCode":"6780","locality":"Airolo","commune":{"key":"5061","name":"Airolo","shortName":"Airolo"},"district":{"key":"2103","name":"Distretto di Leventina"},"canton":{"key":"21","code":"TI","name":"Ticino"},"status":"Real"},{"key":"10246018","name":"Pradasc","postalCode":"6780","locality":"Airolo","commune":{"key":"5061","name":"Airolo","shortName":"Airolo"},"district":{"key":"2103","name":"Distretto di Leventina"},"canton":{"key":"21","code":"TI","name":"Ticino"},"status":"Real"},{"key":"10237904","name":"Pradirö","postalCode":"6780","locality":"Airolo","commune":{"key":"5061","name":"Airolo","shortName":"Airolo"},"district":{"key":"2103","name":"Distretto di Leventina"},"canton":{"key":"21","code":"TI","name":"Ticino"},"status":"Real"},{"key":"10246022","name":"Pró béll","postalCode":"6780","locality":"Airolo","commune":{"key":"5061","name":"Airolo","shortName":"Airolo"},"district":{"key":"2103","name":"Distretto di Leventina"},"canton":{"key":"21","code":"TI","name":"Ticino"},"status":"Real"},{"key":"10171988","name":"Puntín","postalCode":"6780","locality":"Airolo","commune":{"key":"5061","name":"Airolo","shortName":"Airolo"},"district":{"key":"2103","name":"Distretto di Leventina"},"canton":{"key":"21","code":"TI","name":"Ticino"},"status":"Real"},{"key":"10246026","name":"Pustarengo","postalCode":"6780","locality":"Airolo","commune":{"key":"5061","name":"Airolo","shortName":"Airolo"},"district":{"key":"2103","name":"Distretto di Leventina"},"canton":{"key":"21","code":"TI","name":"Ticino"},"status":"Real"},{"key":"10246030","name":"Ravina","postalCode":"6780","locality":"Airolo","commune":{"key":"5061","name":"Airolo","shortName":"Airolo"},"district":{"key":"2103","name":"Distretto di Leventina"},"canton":{"key":"21","code":"TI","name":"Ticino"},"status":"Real"},{"key":"10237905","name":"Rèssia","postalCode":"6780","locality":"Airolo","commune":{"key":"5061","name":"Airolo","shortName":"Airolo"},"district":{"key":"2103","name":"Distretto di Leventina"},"canton":{"key":"21","code":"TI","name":"Ticino"},"status":"Real"},{"key":"10171989","name":"Riei","postalCode":"6780","locality":"Airolo","commune":{"key":"5061","name":"Airolo","shortName":"Airolo"},"district":{"key":"2103","name":"Distretto di Leventina"},"canton":{"key":"21","code":"TI","name":"Ticino"},"status":"Real"},{"key":"10237906","name":"Riv zóra","postalCode":"6780","locality":"Airolo","commune":{"key":"5061","name":"Airolo","shortName":"Airolo"},"district":{"key":"2103","name":"Distretto di Leventina"},"canton":{"key":"21","code":"TI","name":"Ticino"},"status":"Real"},{"key":"10246038","name":"Ruascia","postalCode":"6780","locality":"Airolo","commune":{"key":"5061","name":"Airolo","shortName":"Airolo"},"district":{"key":"2103","name":"Distretto di Leventina"},"canton":{"key":"21","code":"TI","name":"Ticino"},"status":"Real"},{"key":"10246034","name":"Rudund","postalCode":"6780","locality":"Airolo","commune":{"key":"5061","name":"Airolo","shortName":"Airolo"},"district":{"key":"2103","name":"Distretto di Leventina"},"canton":{"key":"21","code":"TI","name":"Ticino"},"status":"Real"},{"key":"10237908","name":"Ruinó","postalCode":"6780","locality":"Airolo","commune":{"key":"5061","name":"Airolo","shortName":"Airolo"},"district":{"key":"2103","name":"Distretto di Leventina"},"canton":{"key":"21","code":"TI","name":"Ticino"},"status":"Real"},{"key":"10237907","name":"Runcásc d'int","postalCode":"6780","locality":"Airolo","commune":{"key":"5061","name":"Airolo","shortName":"Airolo"},"district":{"key":"2103","name":"Distretto di Leventina"},"canton":{"key":"21","code":"TI","name":"Ticino"},"status":"Real"},{"key":"10235264","name":"Runch","postalCode":"6780","locality":"Airolo","commune":{"key":"5061","name":"Airolo","shortName":"Airolo"},"district":{"key":"2103","name":"Distretto di Leventina"},"canton":{"key":"21","code":"TI","name":"Ticino"},"status":"Real"},{"key":"10210162","name":"Rütan da Ce","postalCode":"6780","locality":"Airolo","commune":{"key":"5061","name":"Airolo","shortName":"Airolo"},"district":{"key":"2103","name":"Distretto di Leventina"},"canton":{"key":"21","code":"TI","name":"Ticino"},"status":"Real"},{"key":"10195779","name":"Rütan dei Sassi","postalCode":"6780","locality":"Airolo","commune":{"key":"5061","name":"Airolo","shortName":"Airolo"},"district":{"key":"2103","name":"Distretto di Leventina"},"canton":{"key":"21","code":"TI","name":"Ticino"},"status":"Real"},{"key":"10246042","name":"Sacch","postalCode":"6780","locality":"Airolo","commune":{"key":"5061","name":"Airolo","shortName":"Airolo"},"district":{"key":"2103","name":"Distretto di Leventina"},"canton":{"key":"21","code":"TI","name":"Ticino"},"status":"Real"},{"key":"10210180","name":"San Gottardo","postalCode":"6780","locality":"Airolo","commune":{"key":"5061","name":"Airolo","shortName":"Airolo"},"district":{"key":"2103","name":"Distretto di Leventina"},"canton":{"key":"21","code":"TI","name":"Ticino"},"status":"Real"},{"key":"10246009","name":"Sass dala Bògia","postalCode":"6780","locality":"Airolo","commune":{"key":"5061","name":"Airolo","shortName":"Airolo"},"district":{"key":"2103","name":"Distretto di Leventina"},"canton":{"key":"21","code":"TI","name":"Ticino"},"status":"Real"},{"key":"10246011","name":"Sc'avéi","postalCode":"6780","locality":"Airolo","commune":{"key":"5061","name":"Airolo","shortName":"Airolo"},"district":{"key":"2103","name":"Distretto di Leventina"},"canton":{"key":"21","code":"TI","name":"Ticino"},"status":"Real"},{"key":"10259108","name":"Scima du Bòsc'","postalCode":"6780","locality":"Airolo","commune":{"key":"5061","name":"Airolo","shortName":"Airolo"},"district":{"key":"2103","name":"Distretto di Leventina"},"canton":{"key":"21","code":"TI","name":"Ticino"},"status":"Real"},{"key":"10237902","name":"Ségna","postalCode":"6780","locality":"Airolo","commune":{"key":"5061","name":"Airolo","shortName":"Airolo"},"district":{"key":"2103","name":"Distretto di Leventina"},"canton":{"key":"21","code":"TI","name":"Ticino"},"status":"Real"},{"key":"10241463","name":"Sèla","postalCode":"6780","locality":"Airolo","commune":{"key":"5061","name":"Airolo","shortName":"Airolo"},"district":{"key":"2103","name":"Distretto di Leventina"},"canton":{"key":"21","code":"TI","name":"Ticino"},"status":"Real"},{"key":"10237909","name":"Sórt","postalCode":"6780","locality":"Airolo","commune":{"key":"5061","name":"Airolo","shortName":"Airolo"},"district":{"key":"2103","name":"Distretto di Leventina"},"canton":{"key":"21","code":"TI","name":"Ticino"},"status":"Real"},{"key":"10246016","name":"Sótt córt","postalCode":"6780","locality":"Airolo","commune":{"key":"5061","name":"Airolo","shortName":"Airolo"},"district":{"key":"2103","name":"Distretto di Leventina"},"canton":{"key":"21","code":"TI","name":"Ticino"},"status":"Real"},{"key":"10195777","name":"Sozz","postalCode":"6780","locality":"Airolo","commune":{"key":"5061","name":"Airolo","shortName":"Airolo"},"district":{"key":"2103","name":"Distretto di Leventina"},"canton":{"key":"21","code":"TI","name":"Ticino"},"status":"Real"},{"key":"10129598","name":"Stalvedro","postalCode":"6780","locality":"Airolo","commune":{"key":"5061","name":"Airolo","shortName":"Airolo"},"district":{"key":"2103","name":"Distretto di Leventina"},"canton":{"key":"21","code":"TI","name":"Ticino"},"status":"Real"},{"key":"10171990","name":"Strada di Valle","postalCode":"6780","locality":"Airolo","commune":{"key":"5061","name":"Airolo","shortName":"Airolo"},"district":{"key":"2103","name":"Distretto di Leventina"},"canton":{"key":"21","code":"TI","name":"Ticino"},"status":"Real"},{"key":"10241464","name":"Stüéi","postalCode":"6780","locality":"Airolo","commune":{"key":"5061","name":"Airolo","shortName":"Airolo"},"district":{"key":"2103","name":"Distretto di Leventina"},"canton":{"key":"21","code":"TI","name":"Ticino"},"status":"Real"},{"key":"10246019","name":"Suréscia","postalCode":"6780","locality":"Airolo","commune":{"key":"5061","name":"Airolo","shortName":"Airolo"},"district":{"key":"2103","name":"Distretto di Leventina"},"canton":{"key":"21","code":"TI","name":"Ticino"},"status":"Real"},{"key":"10129578","name":"Tamblina","postalCode":"6780","locality":"Airolo","commune":{"key":"5061","name":"Airolo","shortName":"Airolo"},"district":{"key":"2103","name":"Distretto di Leventina"},"canton":{"key":"21","code":"TI","name":"Ticino"},"status":"Real"},{"key":"10246023","name":"Tramiòra","postalCode":"6780","locality":"Airolo","commune":{"key":"5061","name":"Airolo","shortName":"Airolo"},"district":{"key":"2103","name":"Distretto di Leventina"},"canton":{"key":"21","code":"TI","name":"Ticino"},"status":"Real"},{"key":"10235261","name":"Uréll","postalCode":"6780","locality":"Airolo","commune":{"key":"5061","name":"Airolo","shortName":"Airolo"},"district":{"key":"2103","name":"Distretto di Leventina"},"canton":{"key":"21","code":"TI","name":"Ticino"},"status":"Real"},{"key":"10129602","name":"Valle","postalCode":"6780","locality":"Airolo","commune":{"key":"5061","name":"Airolo","shortName":"Airolo"},"district":{"key":"2103","name":"Distretto di Leventina"},"canton":{"key":"21","code":"TI","name":"Ticino"},"status":"Real"},{"key":"10145237","name":"Via Campagna di Valle","postalCode":"6780","locality":"Airolo","commune":{"key":"5061","name":"Airolo","shortName":"Airolo"},"district":{"key":"2103","name":"Distretto di Leventina"},"canton":{"key":"21","code":"TI","name":"Ticino"},"status":"Real"},{"key":"10150255","name":"Via della Stazione","postalCode":"6780","locality":"Airolo","commune":{"key":"5061","name":"Airolo","shortName":"Airolo"},"district":{"key":"2103","name":"Distretto di Leventina"},"canton":{"key":"21","code":"TI","name":"Ticino"},"status":"Real"},{"key":"10148479","name":"Via Fontana","postalCode":"6780","locality":"Airolo","commune":{"key":"5061","name":"Airolo","shortName":"Airolo"},"district":{"key":"2103","name":"Distretto di Leventina"},"canton":{"key":"21","code":"TI","name":"Ticino"},"status":"Real"},{"key":"10123497","name":"Via Murón","postalCode":"6780","locality":"Airolo","commune":{"key":"5061","name":"Airolo","shortName":"Airolo"},"district":{"key":"2103","name":"Distretto di Leventina"},"canton":{"key":"21","code":"TI","name":"Ticino"},"status":"Real"},{"key":"10148480","name":"Via Nante","postalCode":"6780","locality":"Airolo","commune":{"key":"5061","name":"Airolo","shortName":"Airolo"},"district":{"key":"2103","name":"Distretto di Leventina"},"canton":{"key":"21","code":"TI","name":"Ticino"},"status":"Real"},{"key":"10127154","name":"Via Olimpia","postalCode":"6780","locality":"Airolo","commune":{"key":"5061","name":"Airolo","shortName":"Airolo"},"district":{"key":"2103","name":"Distretto di Leventina"},"canton":{"key":"21","code":"TI","name":"Ticino"},"status":"Real"},{"key":"10148481","name":"Via Poncione di Vespero","postalCode":"6780","locality":"Airolo","commune":{"key":"5061","name":"Airolo","shortName":"Airolo"},"district":{"key":"2103","name":"Distretto di Leventina"},"canton":{"key":"21","code":"TI","name":"Ticino"},"status":"Real"},{"key":"10129603","name":"Via San Gottardo","postalCode":"6780","locality":"Airolo","commune":{"key":"5061","name":"Airolo","shortName":"Airolo"},"district":{"key":"2103","name":"Distretto di Leventina"},"canton":{"key":"21","code":"TI","name":"Ticino"},"status":"Real"},{"key":"10150249","name":"Via Sasso Rosso","postalCode":"6780","locality":"Airolo","commune":{"key":"5061","name":"Airolo","shortName":"Airolo"},"district":{"key":"2103","name":"Distretto di Leventina"},"canton":{"key":"21","code":"TI","name":"Ticino"},"status":"Real"},{"key":"10195319","name":"Vigna","postalCode":"6780","locality":"Airolo","commune":{"key":"5061","name":"Airolo","shortName":"Airolo"},"district":{"key":"2103","name":"Distretto di Leventina"},"canton":{"key":"21","code":"TI","name":"Ticino"},"status":"Real"},{"key":"10256439","name":"Wildenmatten","postalCode":"6780","locality":"Airolo","commune":{"key":"5061","name":"Airolo","shortName":"Airolo"},"district":{"key":"2103","name":"Distretto di Leventina"},"canton":{"key":"21","code":"TI","name":"Ticino"},"status":"Real"},]