[{"name":"Ahornstr.","postalCode":"04720","locality":"Döbeln","municipality":{"key":"14522080","name":"Döbeln, Stadt","type":"Stadt"},"district":{"key":"14522","name":"Mittelsachsen","type":"Landkreis"},"federalState":{"key":"14","name":"Sachsen"}},{"name":"Akazienweg","postalCode":"04720","locality":"Döbeln","municipality":{"key":"14522080","name":"Döbeln, Stadt","type":"Stadt"},"district":{"key":"14522","name":"Mittelsachsen","type":"Landkreis"},"federalState":{"key":"14","name":"Sachsen"}},{"name":"Albert-Schweitzer-Str.","postalCode":"04720","locality":"Döbeln","municipality":{"key":"14522080","name":"Döbeln, Stadt","type":"Stadt"},"district":{"key":"14522","name":"Mittelsachsen","type":"Landkreis"},"federalState":{"key":"14","name":"Sachsen"}},{"name":"Albertstr.","postalCode":"04720","locality":"Döbeln","municipality":{"key":"14522080","name":"Döbeln, Stadt","type":"Stadt"},"district":{"key":"14522","name":"Mittelsachsen","type":"Landkreis"},"federalState":{"key":"14","name":"Sachsen"}},{"name":"Alexanderstr.","postalCode":"04720","locality":"Döbeln","municipality":{"key":"14522080","name":"Döbeln, Stadt","type":"Stadt"},"district":{"key":"14522","name":"Mittelsachsen","type":"Landkreis"},"federalState":{"key":"14","name":"Sachsen"}},{"name":"Alte Gutsstr.","postalCode":"04720","locality":"Döbeln","municipality":{"key":"14522080","name":"Döbeln, Stadt","type":"Stadt"},"district":{"key":"14522","name":"Mittelsachsen","type":"Landkreis"},"federalState":{"key":"14","name":"Sachsen"}},{"name":"Alte Hauptstr.","postalCode":"04720","locality":"Döbeln","municipality":{"key":"14522080","name":"Döbeln, Stadt","type":"Stadt"},"district":{"key":"14522","name":"Mittelsachsen","type":"Landkreis"},"federalState":{"key":"14","name":"Sachsen"}},{"name":"Am Anger","postalCode":"04720","locality":"Döbeln","municipality":{"key":"14522080","name":"Döbeln, Stadt","type":"Stadt"},"district":{"key":"14522","name":"Mittelsachsen","type":"Landkreis"},"federalState":{"key":"14","name":"Sachsen"}},{"name":"Am Bach","postalCode":"04720","locality":"Döbeln","municipality":{"key":"14522080","name":"Döbeln, Stadt","type":"Stadt"},"district":{"key":"14522","name":"Mittelsachsen","type":"Landkreis"},"federalState":{"key":"14","name":"Sachsen"}},{"name":"Am Bahndamm","postalCode":"04720","locality":"Döbeln","municipality":{"key":"14522080","name":"Döbeln, Stadt","type":"Stadt"},"district":{"key":"14522","name":"Mittelsachsen","type":"Landkreis"},"federalState":{"key":"14","name":"Sachsen"}},{"name":"Am Bahnhof","postalCode":"04720","locality":"Döbeln","municipality":{"key":"14522080","name":"Döbeln, Stadt","type":"Stadt"},"district":{"key":"14522","name":"Mittelsachsen","type":"Landkreis"},"federalState":{"key":"14","name":"Sachsen"}},{"name":"Am Bärental","postalCode":"04720","locality":"Döbeln","municipality":{"key":"14522080","name":"Döbeln, Stadt","type":"Stadt"},"district":{"key":"14522","name":"Mittelsachsen","type":"Landkreis"},"federalState":{"key":"14","name":"Sachsen"}},{"name":"Am Berg","postalCode":"04720","locality":"Döbeln","municipality":{"key":"14522080","name":"Döbeln, Stadt","type":"Stadt"},"district":{"key":"14522","name":"Mittelsachsen","type":"Landkreis"},"federalState":{"key":"14","name":"Sachsen"}},{"name":"Am Bürgergarten","postalCode":"04720","locality":"Döbeln","municipality":{"key":"14522080","name":"Döbeln, Stadt","type":"Stadt"},"district":{"key":"14522","name":"Mittelsachsen","type":"Landkreis"},"federalState":{"key":"14","name":"Sachsen"}},{"name":"Am Burgstadl","postalCode":"04720","locality":"Döbeln","municipality":{"key":"14522080","name":"Döbeln, Stadt","type":"Stadt"},"district":{"key":"14522","name":"Mittelsachsen","type":"Landkreis"},"federalState":{"key":"14","name":"Sachsen"}},{"name":"Am Dreieck","postalCode":"04720","locality":"Döbeln","municipality":{"key":"14522080","name":"Döbeln, Stadt","type":"Stadt"},"district":{"key":"14522","name":"Mittelsachsen","type":"Landkreis"},"federalState":{"key":"14","name":"Sachsen"}},{"name":"Am Fuchsloch","postalCode":"04720","locality":"Döbeln","municipality":{"key":"14522080","name":"Döbeln, Stadt","type":"Stadt"},"district":{"key":"14522","name":"Mittelsachsen","type":"Landkreis"},"federalState":{"key":"14","name":"Sachsen"}},{"name":"Am Gewerbegebiet","postalCode":"04720","locality":"Döbeln","municipality":{"key":"14522080","name":"Döbeln, Stadt","type":"Stadt"},"district":{"key":"14522","name":"Mittelsachsen","type":"Landkreis"},"federalState":{"key":"14","name":"Sachsen"}},{"name":"Am Gut","postalCode":"04720","locality":"Döbeln","municipality":{"key":"14522080","name":"Döbeln, Stadt","type":"Stadt"},"district":{"key":"14522","name":"Mittelsachsen","type":"Landkreis"},"federalState":{"key":"14","name":"Sachsen"}},{"name":"Am Hange","postalCode":"04720","locality":"Döbeln","municipality":{"key":"14522080","name":"Döbeln, Stadt","type":"Stadt"},"district":{"key":"14522","name":"Mittelsachsen","type":"Landkreis"},"federalState":{"key":"14","name":"Sachsen"}},{"name":"Am Hauptbahnhof","postalCode":"04720","locality":"Döbeln","municipality":{"key":"14522080","name":"Döbeln, Stadt","type":"Stadt"},"district":{"key":"14522","name":"Mittelsachsen","type":"Landkreis"},"federalState":{"key":"14","name":"Sachsen"}},{"name":"Am Hegeborn","postalCode":"04720","locality":"Döbeln","municipality":{"key":"14522080","name":"Döbeln, Stadt","type":"Stadt"},"district":{"key":"14522","name":"Mittelsachsen","type":"Landkreis"},"federalState":{"key":"14","name":"Sachsen"}},{"name":"Am Holländer","postalCode":"04720","locality":"Döbeln","municipality":{"key":"14522080","name":"Döbeln, Stadt","type":"Stadt"},"district":{"key":"14522","name":"Mittelsachsen","type":"Landkreis"},"federalState":{"key":"14","name":"Sachsen"}},{"name":"Am Klostergut","postalCode":"04720","locality":"Döbeln","municipality":{"key":"14522080","name":"Döbeln, Stadt","type":"Stadt"},"district":{"key":"14522","name":"Mittelsachsen","type":"Landkreis"},"federalState":{"key":"14","name":"Sachsen"}},{"name":"Am Kreuzweg","postalCode":"04720","locality":"Döbeln","municipality":{"key":"14522080","name":"Döbeln, Stadt","type":"Stadt"},"district":{"key":"14522","name":"Mittelsachsen","type":"Landkreis"},"federalState":{"key":"14","name":"Sachsen"}},{"name":"Am Lindenberg","postalCode":"04720","locality":"Döbeln","municipality":{"key":"14522080","name":"Döbeln, Stadt","type":"Stadt"},"district":{"key":"14522","name":"Mittelsachsen","type":"Landkreis"},"federalState":{"key":"14","name":"Sachsen"}},{"name":"Am Malerwinkel","postalCode":"04720","locality":"Döbeln","municipality":{"key":"14522080","name":"Döbeln, Stadt","type":"Stadt"},"district":{"key":"14522","name":"Mittelsachsen","type":"Landkreis"},"federalState":{"key":"14","name":"Sachsen"}},{"name":"Am Mühlgraben","postalCode":"04720","locality":"Döbeln","municipality":{"key":"14522080","name":"Döbeln, Stadt","type":"Stadt"},"district":{"key":"14522","name":"Mittelsachsen","type":"Landkreis"},"federalState":{"key":"14","name":"Sachsen"}},{"name":"Am Pfarrholz","postalCode":"04720","locality":"Döbeln","municipality":{"key":"14522080","name":"Döbeln, Stadt","type":"Stadt"},"district":{"key":"14522","name":"Mittelsachsen","type":"Landkreis"},"federalState":{"key":"14","name":"Sachsen"}},{"name":"Am Pferdeberg","postalCode":"04720","locality":"Döbeln","municipality":{"key":"14522080","name":"Döbeln, Stadt","type":"Stadt"},"district":{"key":"14522","name":"Mittelsachsen","type":"Landkreis"},"federalState":{"key":"14","name":"Sachsen"}},{"name":"Am Ring","postalCode":"04720","locality":"Döbeln","municipality":{"key":"14522080","name":"Döbeln, Stadt","type":"Stadt"},"district":{"key":"14522","name":"Mittelsachsen","type":"Landkreis"},"federalState":{"key":"14","name":"Sachsen"}},{"name":"Am Rittergut","postalCode":"04720","locality":"Döbeln","municipality":{"key":"14522080","name":"Döbeln, Stadt","type":"Stadt"},"district":{"key":"14522","name":"Mittelsachsen","type":"Landkreis"},"federalState":{"key":"14","name":"Sachsen"}},{"name":"Am Rosenbeet","postalCode":"04720","locality":"Döbeln","municipality":{"key":"14522080","name":"Döbeln, Stadt","type":"Stadt"},"district":{"key":"14522","name":"Mittelsachsen","type":"Landkreis"},"federalState":{"key":"14","name":"Sachsen"}},{"name":"Am Roten Kreuz","postalCode":"04720","locality":"Döbeln","municipality":{"key":"14522080","name":"Döbeln, Stadt","type":"Stadt"},"district":{"key":"14522","name":"Mittelsachsen","type":"Landkreis"},"federalState":{"key":"14","name":"Sachsen"}},{"name":"Am Schlossberg","postalCode":"04720","locality":"Döbeln","municipality":{"key":"14522080","name":"Döbeln, Stadt","type":"Stadt"},"district":{"key":"14522","name":"Mittelsachsen","type":"Landkreis"},"federalState":{"key":"14","name":"Sachsen"}},{"name":"Am Schlosspark","postalCode":"04720","locality":"Döbeln","municipality":{"key":"14522080","name":"Döbeln, Stadt","type":"Stadt"},"district":{"key":"14522","name":"Mittelsachsen","type":"Landkreis"},"federalState":{"key":"14","name":"Sachsen"}},{"name":"Am Schmiedeberg","postalCode":"04720","locality":"Döbeln","municipality":{"key":"14522080","name":"Döbeln, Stadt","type":"Stadt"},"district":{"key":"14522","name":"Mittelsachsen","type":"Landkreis"},"federalState":{"key":"14","name":"Sachsen"}},{"name":"Am Schulberg","postalCode":"04720","locality":"Döbeln","municipality":{"key":"14522080","name":"Döbeln, Stadt","type":"Stadt"},"district":{"key":"14522","name":"Mittelsachsen","type":"Landkreis"},"federalState":{"key":"14","name":"Sachsen"}},{"name":"Am Staupitzsteg","postalCode":"04720","locality":"Döbeln","municipality":{"key":"14522080","name":"Döbeln, Stadt","type":"Stadt"},"district":{"key":"14522","name":"Mittelsachsen","type":"Landkreis"},"federalState":{"key":"14","name":"Sachsen"}},{"name":"Am Steigerhaus","postalCode":"04720","locality":"Döbeln","municipality":{"key":"14522080","name":"Döbeln, Stadt","type":"Stadt"},"district":{"key":"14522","name":"Mittelsachsen","type":"Landkreis"},"federalState":{"key":"14","name":"Sachsen"}},{"name":"Am Viadukt","postalCode":"04720","locality":"Döbeln","municipality":{"key":"14522080","name":"Döbeln, Stadt","type":"Stadt"},"district":{"key":"14522","name":"Mittelsachsen","type":"Landkreis"},"federalState":{"key":"14","name":"Sachsen"}},{"name":"Am Waldberg","postalCode":"04720","locality":"Döbeln","municipality":{"key":"14522080","name":"Döbeln, Stadt","type":"Stadt"},"district":{"key":"14522","name":"Mittelsachsen","type":"Landkreis"},"federalState":{"key":"14","name":"Sachsen"}},{"name":"Am Wasserwerk","postalCode":"04720","locality":"Döbeln","municipality":{"key":"14522080","name":"Döbeln, Stadt","type":"Stadt"},"district":{"key":"14522","name":"Mittelsachsen","type":"Landkreis"},"federalState":{"key":"14","name":"Sachsen"}},{"name":"Am Wiesengrund","postalCode":"04720","locality":"Döbeln","municipality":{"key":"14522080","name":"Döbeln, Stadt","type":"Stadt"},"district":{"key":"14522","name":"Mittelsachsen","type":"Landkreis"},"federalState":{"key":"14","name":"Sachsen"}},{"name":"Am Zollhaus","postalCode":"04720","locality":"Döbeln","municipality":{"key":"14522080","name":"Döbeln, Stadt","type":"Stadt"},"district":{"key":"14522","name":"Mittelsachsen","type":"Landkreis"},"federalState":{"key":"14","name":"Sachsen"}},{"name":"An den Schanzen","postalCode":"04720","locality":"Döbeln","municipality":{"key":"14522080","name":"Döbeln, Stadt","type":"Stadt"},"district":{"key":"14522","name":"Mittelsachsen","type":"Landkreis"},"federalState":{"key":"14","name":"Sachsen"}},{"name":"An der alten Gärtnerei","postalCode":"04720","locality":"Döbeln","municipality":{"key":"14522080","name":"Döbeln, Stadt","type":"Stadt"},"district":{"key":"14522","name":"Mittelsachsen","type":"Landkreis"},"federalState":{"key":"14","name":"Sachsen"}},{"name":"An der Beule","postalCode":"04720","locality":"Döbeln","municipality":{"key":"14522080","name":"Döbeln, Stadt","type":"Stadt"},"district":{"key":"14522","name":"Mittelsachsen","type":"Landkreis"},"federalState":{"key":"14","name":"Sachsen"}},{"name":"An der Brutsche","postalCode":"04720","locality":"Döbeln","municipality":{"key":"14522080","name":"Döbeln, Stadt","type":"Stadt"},"district":{"key":"14522","name":"Mittelsachsen","type":"Landkreis"},"federalState":{"key":"14","name":"Sachsen"}},{"name":"An der Hauptstr.","postalCode":"04720","locality":"Döbeln","municipality":{"key":"14522080","name":"Döbeln, Stadt","type":"Stadt"},"district":{"key":"14522","name":"Mittelsachsen","type":"Landkreis"},"federalState":{"key":"14","name":"Sachsen"}},{"name":"B175","postalCode":"04720","locality":"Döbeln","municipality":{"key":"14522080","name":"Döbeln, Stadt","type":"Stadt"},"district":{"key":"14522","name":"Mittelsachsen","type":"Landkreis"},"federalState":{"key":"14","name":"Sachsen"}},{"name":"Bachmühle","postalCode":"04720","locality":"Döbeln","municipality":{"key":"14522080","name":"Döbeln, Stadt","type":"Stadt"},"district":{"key":"14522","name":"Mittelsachsen","type":"Landkreis"},"federalState":{"key":"14","name":"Sachsen"}},{"name":"Badische Str.","postalCode":"04720","locality":"Döbeln","municipality":{"key":"14522080","name":"Döbeln, Stadt","type":"Stadt"},"district":{"key":"14522","name":"Mittelsachsen","type":"Landkreis"},"federalState":{"key":"14","name":"Sachsen"}},{"name":"Bahnhof Nord","postalCode":"04720","locality":"Döbeln","municipality":{"key":"14522080","name":"Döbeln, Stadt","type":"Stadt"},"district":{"key":"14522","name":"Mittelsachsen","type":"Landkreis"},"federalState":{"key":"14","name":"Sachsen"}},{"name":"Bahnhofstr.","postalCode":"04720","locality":"Döbeln","municipality":{"key":"14522080","name":"Döbeln, Stadt","type":"Stadt"},"district":{"key":"14522","name":"Mittelsachsen","type":"Landkreis"},"federalState":{"key":"14","name":"Sachsen"}},{"name":"Balkonweg","postalCode":"04720","locality":"Döbeln","municipality":{"key":"14522080","name":"Döbeln, Stadt","type":"Stadt"},"district":{"key":"14522","name":"Mittelsachsen","type":"Landkreis"},"federalState":{"key":"14","name":"Sachsen"}},{"name":"Bärentalstr.","postalCode":"04720","locality":"Döbeln","municipality":{"key":"14522080","name":"Döbeln, Stadt","type":"Stadt"},"district":{"key":"14522","name":"Mittelsachsen","type":"Landkreis"},"federalState":{"key":"14","name":"Sachsen"}},{"name":"Bayerische Str.","postalCode":"04720","locality":"Döbeln","municipality":{"key":"14522080","name":"Döbeln, Stadt","type":"Stadt"},"district":{"key":"14522","name":"Mittelsachsen","type":"Landkreis"},"federalState":{"key":"14","name":"Sachsen"}},{"name":"Bergring","postalCode":"04720","locality":"Döbeln","municipality":{"key":"14522080","name":"Döbeln, Stadt","type":"Stadt"},"district":{"key":"14522","name":"Mittelsachsen","type":"Landkreis"},"federalState":{"key":"14","name":"Sachsen"}},{"name":"Bergstr.","postalCode":"04720","locality":"Döbeln","municipality":{"key":"14522080","name":"Döbeln, Stadt","type":"Stadt"},"district":{"key":"14522","name":"Mittelsachsen","type":"Landkreis"},"federalState":{"key":"14","name":"Sachsen"}},{"name":"Bergweg","postalCode":"04720","locality":"Döbeln","municipality":{"key":"14522080","name":"Döbeln, Stadt","type":"Stadt"},"district":{"key":"14522","name":"Mittelsachsen","type":"Landkreis"},"federalState":{"key":"14","name":"Sachsen"}},{"name":"Bernhard-Kretzschmar-Weg","postalCode":"04720","locality":"Döbeln","municipality":{"key":"14522080","name":"Döbeln, Stadt","type":"Stadt"},"district":{"key":"14522","name":"Mittelsachsen","type":"Landkreis"},"federalState":{"key":"14","name":"Sachsen"}},{"name":"Bertholdstr.","postalCode":"04720","locality":"Döbeln","municipality":{"key":"14522080","name":"Döbeln, Stadt","type":"Stadt"},"district":{"key":"14522","name":"Mittelsachsen","type":"Landkreis"},"federalState":{"key":"14","name":"Sachsen"}},{"name":"Bertolt-Brecht-Str.","postalCode":"04720","locality":"Döbeln","municipality":{"key":"14522080","name":"Döbeln, Stadt","type":"Stadt"},"district":{"key":"14522","name":"Mittelsachsen","type":"Landkreis"},"federalState":{"key":"14","name":"Sachsen"}},{"name":"Bilderbahn","postalCode":"04720","locality":"Döbeln","municipality":{"key":"14522080","name":"Döbeln, Stadt","type":"Stadt"},"district":{"key":"14522","name":"Mittelsachsen","type":"Landkreis"},"federalState":{"key":"14","name":"Sachsen"}},{"name":"Birkenweg","postalCode":"04720","locality":"Döbeln","municipality":{"key":"14522080","name":"Döbeln, Stadt","type":"Stadt"},"district":{"key":"14522","name":"Mittelsachsen","type":"Landkreis"},"federalState":{"key":"14","name":"Sachsen"}},{"name":"Birnenallee","postalCode":"04720","locality":"Döbeln","municipality":{"key":"14522080","name":"Döbeln, Stadt","type":"Stadt"},"district":{"key":"14522","name":"Mittelsachsen","type":"Landkreis"},"federalState":{"key":"14","name":"Sachsen"}},{"name":"Blücherstr.","postalCode":"04720","locality":"Döbeln","municipality":{"key":"14522080","name":"Döbeln, Stadt","type":"Stadt"},"district":{"key":"14522","name":"Mittelsachsen","type":"Landkreis"},"federalState":{"key":"14","name":"Sachsen"}},{"name":"Blumenstr.","postalCode":"04720","locality":"Döbeln","municipality":{"key":"14522080","name":"Döbeln, Stadt","type":"Stadt"},"district":{"key":"14522","name":"Mittelsachsen","type":"Landkreis"},"federalState":{"key":"14","name":"Sachsen"}},{"name":"Bodenreformweg","postalCode":"04720","locality":"Döbeln","municipality":{"key":"14522080","name":"Döbeln, Stadt","type":"Stadt"},"district":{"key":"14522","name":"Mittelsachsen","type":"Landkreis"},"federalState":{"key":"14","name":"Sachsen"}},{"name":"Bormitz","postalCode":"04720","locality":"Döbeln","municipality":{"key":"14522080","name":"Döbeln, Stadt","type":"Stadt"},"district":{"key":"14522","name":"Mittelsachsen","type":"Landkreis"},"federalState":{"key":"14","name":"Sachsen"}},{"name":"Böttchergasse","postalCode":"04720","locality":"Döbeln","municipality":{"key":"14522080","name":"Döbeln, Stadt","type":"Stadt"},"district":{"key":"14522","name":"Mittelsachsen","type":"Landkreis"},"federalState":{"key":"14","name":"Sachsen"}},{"name":"Breite Str.","postalCode":"04720","locality":"Döbeln","municipality":{"key":"14522080","name":"Döbeln, Stadt","type":"Stadt"},"district":{"key":"14522","name":"Mittelsachsen","type":"Landkreis"},"federalState":{"key":"14","name":"Sachsen"}},{"name":"Brunnengasse","postalCode":"04720","locality":"Döbeln","municipality":{"key":"14522080","name":"Döbeln, Stadt","type":"Stadt"},"district":{"key":"14522","name":"Mittelsachsen","type":"Landkreis"},"federalState":{"key":"14","name":"Sachsen"}},{"name":"Buchenweg","postalCode":"04720","locality":"Döbeln","municipality":{"key":"14522080","name":"Döbeln, Stadt","type":"Stadt"},"district":{"key":"14522","name":"Mittelsachsen","type":"Landkreis"},"federalState":{"key":"14","name":"Sachsen"}},{"name":"Burgstr.","postalCode":"04720","locality":"Döbeln","municipality":{"key":"14522080","name":"Döbeln, Stadt","type":"Stadt"},"district":{"key":"14522","name":"Mittelsachsen","type":"Landkreis"},"federalState":{"key":"14","name":"Sachsen"}},{"name":"Daniel-Wilhelm-Beck-Str.","postalCode":"04720","locality":"Döbeln","municipality":{"key":"14522080","name":"Döbeln, Stadt","type":"Stadt"},"district":{"key":"14522","name":"Mittelsachsen","type":"Landkreis"},"federalState":{"key":"14","name":"Sachsen"}},{"name":"Döbelner Str.","postalCode":"04720","locality":"Döbeln","municipality":{"key":"14522080","name":"Döbeln, Stadt","type":"Stadt"},"district":{"key":"14522","name":"Mittelsachsen","type":"Landkreis"},"federalState":{"key":"14","name":"Sachsen"}},{"name":"Doblinaweg","postalCode":"04720","locality":"Döbeln","municipality":{"key":"14522080","name":"Döbeln, Stadt","type":"Stadt"},"district":{"key":"14522","name":"Mittelsachsen","type":"Landkreis"},"federalState":{"key":"14","name":"Sachsen"}},{"name":"Dorfstr.","postalCode":"04720","locality":"Döbeln","municipality":{"key":"14522080","name":"Döbeln, Stadt","type":"Stadt"},"district":{"key":"14522","name":"Mittelsachsen","type":"Landkreis"},"federalState":{"key":"14","name":"Sachsen"}},{"name":"Dorfweg","postalCode":"04720","locality":"Döbeln","municipality":{"key":"14522080","name":"Döbeln, Stadt","type":"Stadt"},"district":{"key":"14522","name":"Mittelsachsen","type":"Landkreis"},"federalState":{"key":"14","name":"Sachsen"}},{"name":"Dr.-Christian-Beßler-Str.","postalCode":"04720","locality":"Döbeln","municipality":{"key":"14522080","name":"Döbeln, Stadt","type":"Stadt"},"district":{"key":"14522","name":"Mittelsachsen","type":"Landkreis"},"federalState":{"key":"14","name":"Sachsen"}},{"name":"Dresdner Platz","postalCode":"04720","locality":"Döbeln","municipality":{"key":"14522080","name":"Döbeln, Stadt","type":"Stadt"},"district":{"key":"14522","name":"Mittelsachsen","type":"Landkreis"},"federalState":{"key":"14","name":"Sachsen"}},{"name":"Dresdner Str.","postalCode":"04720","locality":"Döbeln","municipality":{"key":"14522080","name":"Döbeln, Stadt","type":"Stadt"},"district":{"key":"14522","name":"Mittelsachsen","type":"Landkreis"},"federalState":{"key":"14","name":"Sachsen"}},{"name":"Dr.-Fankhänel-Str.","postalCode":"04720","locality":"Döbeln","municipality":{"key":"14522080","name":"Döbeln, Stadt","type":"Stadt"},"district":{"key":"14522","name":"Mittelsachsen","type":"Landkreis"},"federalState":{"key":"14","name":"Sachsen"}},{"name":"Dr.-Zieger-Str.","postalCode":"04720","locality":"Döbeln","municipality":{"key":"14522080","name":"Döbeln, Stadt","type":"Stadt"},"district":{"key":"14522","name":"Mittelsachsen","type":"Landkreis"},"federalState":{"key":"14","name":"Sachsen"}},{"name":"Ebereschenweg","postalCode":"04720","locality":"Döbeln","municipality":{"key":"14522080","name":"Döbeln, Stadt","type":"Stadt"},"district":{"key":"14522","name":"Mittelsachsen","type":"Landkreis"},"federalState":{"key":"14","name":"Sachsen"}},{"name":"Eichbergstr.","postalCode":"04720","locality":"Döbeln","municipality":{"key":"14522080","name":"Döbeln, Stadt","type":"Stadt"},"district":{"key":"14522","name":"Mittelsachsen","type":"Landkreis"},"federalState":{"key":"14","name":"Sachsen"}},{"name":"Eichenweg","postalCode":"04720","locality":"Döbeln","municipality":{"key":"14522080","name":"Döbeln, Stadt","type":"Stadt"},"district":{"key":"14522","name":"Mittelsachsen","type":"Landkreis"},"federalState":{"key":"14","name":"Sachsen"}},{"name":"Eisenbahnstr.","postalCode":"04720","locality":"Döbeln","municipality":{"key":"14522080","name":"Döbeln, Stadt","type":"Stadt"},"district":{"key":"14522","name":"Mittelsachsen","type":"Landkreis"},"federalState":{"key":"14","name":"Sachsen"}},{"name":"Enge Gasse","postalCode":"04720","locality":"Döbeln","municipality":{"key":"14522080","name":"Döbeln, Stadt","type":"Stadt"},"district":{"key":"14522","name":"Mittelsachsen","type":"Landkreis"},"federalState":{"key":"14","name":"Sachsen"}},{"name":"Erich-Heckel-Platz","postalCode":"04720","locality":"Döbeln","municipality":{"key":"14522080","name":"Döbeln, Stadt","type":"Stadt"},"district":{"key":"14522","name":"Mittelsachsen","type":"Landkreis"},"federalState":{"key":"14","name":"Sachsen"}},{"name":"Erich-Kästner-Str.","postalCode":"04720","locality":"Döbeln","municipality":{"key":"14522080","name":"Döbeln, Stadt","type":"Stadt"},"district":{"key":"14522","name":"Mittelsachsen","type":"Landkreis"},"federalState":{"key":"14","name":"Sachsen"}},{"name":"Feldstr.","postalCode":"04720","locality":"Döbeln","municipality":{"key":"14522080","name":"Döbeln, Stadt","type":"Stadt"},"district":{"key":"14522","name":"Mittelsachsen","type":"Landkreis"},"federalState":{"key":"14","name":"Sachsen"}},{"name":"Fichtenhöhe","postalCode":"04720","locality":"Döbeln","municipality":{"key":"14522080","name":"Döbeln, Stadt","type":"Stadt"},"district":{"key":"14522","name":"Mittelsachsen","type":"Landkreis"},"federalState":{"key":"14","name":"Sachsen"}},{"name":"Fichtestr.","postalCode":"04720","locality":"Döbeln","municipality":{"key":"14522080","name":"Döbeln, Stadt","type":"Stadt"},"district":{"key":"14522","name":"Mittelsachsen","type":"Landkreis"},"federalState":{"key":"14","name":"Sachsen"}},{"name":"Finkenweg","postalCode":"04720","locality":"Döbeln","municipality":{"key":"14522080","name":"Döbeln, Stadt","type":"Stadt"},"district":{"key":"14522","name":"Mittelsachsen","type":"Landkreis"},"federalState":{"key":"14","name":"Sachsen"}},{"name":"Franz-Mehring-Str.","postalCode":"04720","locality":"Döbeln","municipality":{"key":"14522080","name":"Döbeln, Stadt","type":"Stadt"},"district":{"key":"14522","name":"Mittelsachsen","type":"Landkreis"},"federalState":{"key":"14","name":"Sachsen"}},{"name":"Friedrich-Engels-Siedlung","postalCode":"04720","locality":"Döbeln","municipality":{"key":"14522080","name":"Döbeln, Stadt","type":"Stadt"},"district":{"key":"14522","name":"Mittelsachsen","type":"Landkreis"},"federalState":{"key":"14","name":"Sachsen"}},{"name":"Friedrich-Engels-Str.","postalCode":"04720","locality":"Döbeln","municipality":{"key":"14522080","name":"Döbeln, Stadt","type":"Stadt"},"district":{"key":"14522","name":"Mittelsachsen","type":"Landkreis"},"federalState":{"key":"14","name":"Sachsen"}},{"name":"Friedrichstr.","postalCode":"04720","locality":"Döbeln","municipality":{"key":"14522080","name":"Döbeln, Stadt","type":"Stadt"},"district":{"key":"14522","name":"Mittelsachsen","type":"Landkreis"},"federalState":{"key":"14","name":"Sachsen"}},{"name":"Fronstr.","postalCode":"04720","locality":"Döbeln","municipality":{"key":"14522080","name":"Döbeln, Stadt","type":"Stadt"},"district":{"key":"14522","name":"Mittelsachsen","type":"Landkreis"},"federalState":{"key":"14","name":"Sachsen"}},{"name":"Gabelsbergerstr.","postalCode":"04720","locality":"Döbeln","municipality":{"key":"14522080","name":"Döbeln, Stadt","type":"Stadt"},"district":{"key":"14522","name":"Mittelsachsen","type":"Landkreis"},"federalState":{"key":"14","name":"Sachsen"}},{"name":"Gabschmühle","postalCode":"04720","locality":"Döbeln","municipality":{"key":"14522080","name":"Döbeln, Stadt","type":"Stadt"},"district":{"key":"14522","name":"Mittelsachsen","type":"Landkreis"},"federalState":{"key":"14","name":"Sachsen"}},{"name":"Gartenstr.","postalCode":"04720","locality":"Döbeln","municipality":{"key":"14522080","name":"Döbeln, Stadt","type":"Stadt"},"district":{"key":"14522","name":"Mittelsachsen","type":"Landkreis"},"federalState":{"key":"14","name":"Sachsen"}},{"name":"Gartenweg","postalCode":"04720","locality":"Döbeln","municipality":{"key":"14522080","name":"Döbeln, Stadt","type":"Stadt"},"district":{"key":"14522","name":"Mittelsachsen","type":"Landkreis"},"federalState":{"key":"14","name":"Sachsen"}},{"name":"Gärtnergasse","postalCode":"04720","locality":"Döbeln","municipality":{"key":"14522080","name":"Döbeln, Stadt","type":"Stadt"},"district":{"key":"14522","name":"Mittelsachsen","type":"Landkreis"},"federalState":{"key":"14","name":"Sachsen"}},{"name":"Gasthofsberg","postalCode":"04720","locality":"Döbeln","municipality":{"key":"14522080","name":"Döbeln, Stadt","type":"Stadt"},"district":{"key":"14522","name":"Mittelsachsen","type":"Landkreis"},"federalState":{"key":"14","name":"Sachsen"}},{"name":"Gebersbacher Str.","postalCode":"04720","locality":"Döbeln","municipality":{"key":"14522080","name":"Döbeln, Stadt","type":"Stadt"},"district":{"key":"14522","name":"Mittelsachsen","type":"Landkreis"},"federalState":{"key":"14","name":"Sachsen"}},{"name":"Geleitshäuser","postalCode":"04720","locality":"Döbeln","municipality":{"key":"14522080","name":"Döbeln, Stadt","type":"Stadt"},"district":{"key":"14522","name":"Mittelsachsen","type":"Landkreis"},"federalState":{"key":"14","name":"Sachsen"}},{"name":"Gertitzscher Str.","postalCode":"04720","locality":"Döbeln","municipality":{"key":"14522080","name":"Döbeln, Stadt","type":"Stadt"},"district":{"key":"14522","name":"Mittelsachsen","type":"Landkreis"},"federalState":{"key":"14","name":"Sachsen"}},{"name":"Geyersbergstr.","postalCode":"04720","locality":"Döbeln","municipality":{"key":"14522080","name":"Döbeln, Stadt","type":"Stadt"},"district":{"key":"14522","name":"Mittelsachsen","type":"Landkreis"},"federalState":{"key":"14","name":"Sachsen"}},{"name":"Givorser Str.","postalCode":"04720","locality":"Döbeln","municipality":{"key":"14522080","name":"Döbeln, Stadt","type":"Stadt"},"district":{"key":"14522","name":"Mittelsachsen","type":"Landkreis"},"federalState":{"key":"14","name":"Sachsen"}},{"name":"Gödelitz","postalCode":"04720","locality":"Döbeln","municipality":{"key":"14522080","name":"Döbeln, Stadt","type":"Stadt"},"district":{"key":"14522","name":"Mittelsachsen","type":"Landkreis"},"federalState":{"key":"14","name":"Sachsen"}},{"name":"Goetheweg","postalCode":"04720","locality":"Döbeln","municipality":{"key":"14522080","name":"Döbeln, Stadt","type":"Stadt"},"district":{"key":"14522","name":"Mittelsachsen","type":"Landkreis"},"federalState":{"key":"14","name":"Sachsen"}},{"name":"Grimmaische Str.","postalCode":"04720","locality":"Döbeln","municipality":{"key":"14522080","name":"Döbeln, Stadt","type":"Stadt"},"district":{"key":"14522","name":"Mittelsachsen","type":"Landkreis"},"federalState":{"key":"14","name":"Sachsen"}},{"name":"Große Kirchgasse","postalCode":"04720","locality":"Döbeln","municipality":{"key":"14522080","name":"Döbeln, Stadt","type":"Stadt"},"district":{"key":"14522","name":"Mittelsachsen","type":"Landkreis"},"federalState":{"key":"14","name":"Sachsen"}},{"name":"Grünes Eck","postalCode":"04720","locality":"Döbeln","municipality":{"key":"14522080","name":"Döbeln, Stadt","type":"Stadt"},"district":{"key":"14522","name":"Mittelsachsen","type":"Landkreis"},"federalState":{"key":"14","name":"Sachsen"}},{"name":"Hainichener Str.","postalCode":"04720","locality":"Döbeln","municipality":{"key":"14522080","name":"Döbeln, Stadt","type":"Stadt"},"district":{"key":"14522","name":"Mittelsachsen","type":"Landkreis"},"federalState":{"key":"14","name":"Sachsen"}},{"name":"Hainstr.","postalCode":"04720","locality":"Döbeln","municipality":{"key":"14522080","name":"Döbeln, Stadt","type":"Stadt"},"district":{"key":"14522","name":"Mittelsachsen","type":"Landkreis"},"federalState":{"key":"14","name":"Sachsen"}},{"name":"Hansens Holz","postalCode":"04720","locality":"Döbeln","municipality":{"key":"14522080","name":"Döbeln, Stadt","type":"Stadt"},"district":{"key":"14522","name":"Mittelsachsen","type":"Landkreis"},"federalState":{"key":"14","name":"Sachsen"}},{"name":"Hans-Sachs-Weg","postalCode":"04720","locality":"Döbeln","municipality":{"key":"14522080","name":"Döbeln, Stadt","type":"Stadt"},"district":{"key":"14522","name":"Mittelsachsen","type":"Landkreis"},"federalState":{"key":"14","name":"Sachsen"}},{"name":"Harthaer Str.","postalCode":"04720","locality":"Döbeln","municipality":{"key":"14522080","name":"Döbeln, Stadt","type":"Stadt"},"district":{"key":"14522","name":"Mittelsachsen","type":"Landkreis"},"federalState":{"key":"14","name":"Sachsen"}},{"name":"Hauptstr.","postalCode":"04720","locality":"Döbeln","municipality":{"key":"14522080","name":"Döbeln, Stadt","type":"Stadt"},"district":{"key":"14522","name":"Mittelsachsen","type":"Landkreis"},"federalState":{"key":"14","name":"Sachsen"}},{"name":"Hauptstr. Bahnhof","postalCode":"04720","locality":"Döbeln","municipality":{"key":"14522080","name":"Döbeln, Stadt","type":"Stadt"},"district":{"key":"14522","name":"Mittelsachsen","type":"Landkreis"},"federalState":{"key":"14","name":"Sachsen"}},{"name":"Heidenheimer Ring","postalCode":"04720","locality":"Döbeln","municipality":{"key":"14522080","name":"Döbeln, Stadt","type":"Stadt"},"district":{"key":"14522","name":"Mittelsachsen","type":"Landkreis"},"federalState":{"key":"14","name":"Sachsen"}},{"name":"Heinrich-Heine-Str.","postalCode":"04720","locality":"Döbeln","municipality":{"key":"14522080","name":"Döbeln, Stadt","type":"Stadt"},"district":{"key":"14522","name":"Mittelsachsen","type":"Landkreis"},"federalState":{"key":"14","name":"Sachsen"}},{"name":"Hermann-Otto-Schmidt-Str.","postalCode":"04720","locality":"Döbeln","municipality":{"key":"14522080","name":"Döbeln, Stadt","type":"Stadt"},"district":{"key":"14522","name":"Mittelsachsen","type":"Landkreis"},"federalState":{"key":"14","name":"Sachsen"}},{"name":"Hermsdorf","postalCode":"04720","locality":"Döbeln","municipality":{"key":"14522080","name":"Döbeln, Stadt","type":"Stadt"},"district":{"key":"14522","name":"Mittelsachsen","type":"Landkreis"},"federalState":{"key":"14","name":"Sachsen"}},{"name":"Hermsdorfer Str.","postalCode":"04720","locality":"Döbeln","municipality":{"key":"14522080","name":"Döbeln, Stadt","type":"Stadt"},"district":{"key":"14522","name":"Mittelsachsen","type":"Landkreis"},"federalState":{"key":"14","name":"Sachsen"}},{"name":"Holländerweg","postalCode":"04720","locality":"Döbeln","municipality":{"key":"14522080","name":"Döbeln, Stadt","type":"Stadt"},"district":{"key":"14522","name":"Mittelsachsen","type":"Landkreis"},"federalState":{"key":"14","name":"Sachsen"}},{"name":"Jahnatalstr.","postalCode":"04720","locality":"Döbeln","municipality":{"key":"14522080","name":"Döbeln, Stadt","type":"Stadt"},"district":{"key":"14522","name":"Mittelsachsen","type":"Landkreis"},"federalState":{"key":"14","name":"Sachsen"}},{"name":"Johannisstr.","postalCode":"04720","locality":"Döbeln","municipality":{"key":"14522080","name":"Döbeln, Stadt","type":"Stadt"},"district":{"key":"14522","name":"Mittelsachsen","type":"Landkreis"},"federalState":{"key":"14","name":"Sachsen"}},{"name":"Juchhöh","postalCode":"04720","locality":"Döbeln","municipality":{"key":"14522080","name":"Döbeln, Stadt","type":"Stadt"},"district":{"key":"14522","name":"Mittelsachsen","type":"Landkreis"},"federalState":{"key":"14","name":"Sachsen"}},{"name":"Kaiserburg","postalCode":"04720","locality":"Döbeln","municipality":{"key":"14522080","name":"Döbeln, Stadt","type":"Stadt"},"district":{"key":"14522","name":"Mittelsachsen","type":"Landkreis"},"federalState":{"key":"14","name":"Sachsen"}},{"name":"Kantstr.","postalCode":"04720","locality":"Döbeln","municipality":{"key":"14522080","name":"Döbeln, Stadt","type":"Stadt"},"district":{"key":"14522","name":"Mittelsachsen","type":"Landkreis"},"federalState":{"key":"14","name":"Sachsen"}},{"name":"Karl-Liebknecht-Str.","postalCode":"04720","locality":"Döbeln","municipality":{"key":"14522080","name":"Döbeln, Stadt","type":"Stadt"},"district":{"key":"14522","name":"Mittelsachsen","type":"Landkreis"},"federalState":{"key":"14","name":"Sachsen"}},{"name":"Käthe-Kollwitz-Str.","postalCode":"04720","locality":"Döbeln","municipality":{"key":"14522080","name":"Döbeln, Stadt","type":"Stadt"},"district":{"key":"14522","name":"Mittelsachsen","type":"Landkreis"},"federalState":{"key":"14","name":"Sachsen"}},{"name":"Kirchstr.","postalCode":"04720","locality":"Döbeln","municipality":{"key":"14522080","name":"Döbeln, Stadt","type":"Stadt"},"district":{"key":"14522","name":"Mittelsachsen","type":"Landkreis"},"federalState":{"key":"14","name":"Sachsen"}},{"name":"Kirschallee","postalCode":"04720","locality":"Döbeln","municipality":{"key":"14522080","name":"Döbeln, Stadt","type":"Stadt"},"district":{"key":"14522","name":"Mittelsachsen","type":"Landkreis"},"federalState":{"key":"14","name":"Sachsen"}},{"name":"Kleine Bergstr.","postalCode":"04720","locality":"Döbeln","municipality":{"key":"14522080","name":"Döbeln, Stadt","type":"Stadt"},"district":{"key":"14522","name":"Mittelsachsen","type":"Landkreis"},"federalState":{"key":"14","name":"Sachsen"}},{"name":"Kleinlimmritz","postalCode":"04720","locality":"Döbeln","municipality":{"key":"14522080","name":"Döbeln, Stadt","type":"Stadt"},"district":{"key":"14522","name":"Mittelsachsen","type":"Landkreis"},"federalState":{"key":"14","name":"Sachsen"}},{"name":"Kleinmockritz","postalCode":"04720","locality":"Döbeln","municipality":{"key":"14522080","name":"Döbeln, Stadt","type":"Stadt"},"district":{"key":"14522","name":"Mittelsachsen","type":"Landkreis"},"federalState":{"key":"14","name":"Sachsen"}},{"name":"Kleinmockritzer Weg","postalCode":"04720","locality":"Döbeln","municipality":{"key":"14522080","name":"Döbeln, Stadt","type":"Stadt"},"district":{"key":"14522","name":"Mittelsachsen","type":"Landkreis"},"federalState":{"key":"14","name":"Sachsen"}},{"name":"Klostergärten","postalCode":"04720","locality":"Döbeln","municipality":{"key":"14522080","name":"Döbeln, Stadt","type":"Stadt"},"district":{"key":"14522","name":"Mittelsachsen","type":"Landkreis"},"federalState":{"key":"14","name":"Sachsen"}},{"name":"Klosterstr.","postalCode":"04720","locality":"Döbeln","municipality":{"key":"14522080","name":"Döbeln, Stadt","type":"Stadt"},"district":{"key":"14522","name":"Mittelsachsen","type":"Landkreis"},"federalState":{"key":"14","name":"Sachsen"}},{"name":"Klosterwiesen","postalCode":"04720","locality":"Döbeln","municipality":{"key":"14522080","name":"Döbeln, Stadt","type":"Stadt"},"district":{"key":"14522","name":"Mittelsachsen","type":"Landkreis"},"federalState":{"key":"14","name":"Sachsen"}},{"name":"Knobelsdorfer Str.","postalCode":"04720","locality":"Döbeln","municipality":{"key":"14522080","name":"Döbeln, Stadt","type":"Stadt"},"district":{"key":"14522","name":"Mittelsachsen","type":"Landkreis"},"federalState":{"key":"14","name":"Sachsen"}},{"name":"Körnerplatz","postalCode":"04720","locality":"Döbeln","municipality":{"key":"14522080","name":"Döbeln, Stadt","type":"Stadt"},"district":{"key":"14522","name":"Mittelsachsen","type":"Landkreis"},"federalState":{"key":"14","name":"Sachsen"}},{"name":"Kreuzstr.","postalCode":"04720","locality":"Döbeln","municipality":{"key":"14522080","name":"Döbeln, Stadt","type":"Stadt"},"district":{"key":"14522","name":"Mittelsachsen","type":"Landkreis"},"federalState":{"key":"14","name":"Sachsen"}},{"name":"Kühnes Berg","postalCode":"04720","locality":"Döbeln","municipality":{"key":"14522080","name":"Döbeln, Stadt","type":"Stadt"},"district":{"key":"14522","name":"Mittelsachsen","type":"Landkreis"},"federalState":{"key":"14","name":"Sachsen"}},{"name":"Külzstr.","postalCode":"04720","locality":"Döbeln","municipality":{"key":"14522080","name":"Döbeln, Stadt","type":"Stadt"},"district":{"key":"14522","name":"Mittelsachsen","type":"Landkreis"},"federalState":{"key":"14","name":"Sachsen"}},{"name":"Leipziger Str.","postalCode":"04720","locality":"Döbeln","municipality":{"key":"14522080","name":"Döbeln, Stadt","type":"Stadt"},"district":{"key":"14522","name":"Mittelsachsen","type":"Landkreis"},"federalState":{"key":"14","name":"Sachsen"}},{"name":"Leisniger Str.","postalCode":"04720","locality":"Döbeln","municipality":{"key":"14522080","name":"Döbeln, Stadt","type":"Stadt"},"district":{"key":"14522","name":"Mittelsachsen","type":"Landkreis"},"federalState":{"key":"14","name":"Sachsen"}},{"name":"Lerchenweg","postalCode":"04720","locality":"Döbeln","municipality":{"key":"14522080","name":"Döbeln, Stadt","type":"Stadt"},"district":{"key":"14522","name":"Mittelsachsen","type":"Landkreis"},"federalState":{"key":"14","name":"Sachsen"}},{"name":"Leschen","postalCode":"04720","locality":"Döbeln","municipality":{"key":"14522080","name":"Döbeln, Stadt","type":"Stadt"},"district":{"key":"14522","name":"Mittelsachsen","type":"Landkreis"},"federalState":{"key":"14","name":"Sachsen"}},{"name":"Lessingweg","postalCode":"04720","locality":"Döbeln","municipality":{"key":"14522080","name":"Döbeln, Stadt","type":"Stadt"},"district":{"key":"14522","name":"Mittelsachsen","type":"Landkreis"},"federalState":{"key":"14","name":"Sachsen"}},{"name":"Limmritzer Furt","postalCode":"04720","locality":"Döbeln","municipality":{"key":"14522080","name":"Döbeln, Stadt","type":"Stadt"},"district":{"key":"14522","name":"Mittelsachsen","type":"Landkreis"},"federalState":{"key":"14","name":"Sachsen"}},{"name":"Limmritzer Hauptstr.","postalCode":"04720","locality":"Döbeln","municipality":{"key":"14522080","name":"Döbeln, Stadt","type":"Stadt"},"district":{"key":"14522","name":"Mittelsachsen","type":"Landkreis"},"federalState":{"key":"14","name":"Sachsen"}},{"name":"Lindenallee","postalCode":"04720","locality":"Döbeln","municipality":{"key":"14522080","name":"Döbeln, Stadt","type":"Stadt"},"district":{"key":"14522","name":"Mittelsachsen","type":"Landkreis"},"federalState":{"key":"14","name":"Sachsen"}},{"name":"Lommatzscher Str.","postalCode":"04720","locality":"Döbeln","municipality":{"key":"14522080","name":"Döbeln, Stadt","type":"Stadt"},"district":{"key":"14522","name":"Mittelsachsen","type":"Landkreis"},"federalState":{"key":"14","name":"Sachsen"}},{"name":"Ludwig-Jahn-Str.","postalCode":"04720","locality":"Döbeln","municipality":{"key":"14522080","name":"Döbeln, Stadt","type":"Stadt"},"district":{"key":"14522","name":"Mittelsachsen","type":"Landkreis"},"federalState":{"key":"14","name":"Sachsen"}},{"name":"Ludwig-Richter-Str.","postalCode":"04720","locality":"Döbeln","municipality":{"key":"14522080","name":"Döbeln, Stadt","type":"Stadt"},"district":{"key":"14522","name":"Mittelsachsen","type":"Landkreis"},"federalState":{"key":"14","name":"Sachsen"}},{"name":"Lutherplatz","postalCode":"04720","locality":"Döbeln","municipality":{"key":"14522080","name":"Döbeln, Stadt","type":"Stadt"},"district":{"key":"14522","name":"Mittelsachsen","type":"Landkreis"},"federalState":{"key":"14","name":"Sachsen"}},{"name":"Lüttewitz","postalCode":"04720","locality":"Döbeln","municipality":{"key":"14522080","name":"Döbeln, Stadt","type":"Stadt"},"district":{"key":"14522","name":"Mittelsachsen","type":"Landkreis"},"federalState":{"key":"14","name":"Sachsen"}},{"name":"Maltitz","postalCode":"04720","locality":"Döbeln","municipality":{"key":"14522080","name":"Döbeln, Stadt","type":"Stadt"},"district":{"key":"14522","name":"Mittelsachsen","type":"Landkreis"},"federalState":{"key":"14","name":"Sachsen"}},{"name":"Maltitzer Weg","postalCode":"04720","locality":"Döbeln","municipality":{"key":"14522080","name":"Döbeln, Stadt","type":"Stadt"},"district":{"key":"14522","name":"Mittelsachsen","type":"Landkreis"},"federalState":{"key":"14","name":"Sachsen"}},{"name":"Mannsdorfer Str.","postalCode":"04720","locality":"Döbeln","municipality":{"key":"14522080","name":"Döbeln, Stadt","type":"Stadt"},"district":{"key":"14522","name":"Mittelsachsen","type":"Landkreis"},"federalState":{"key":"14","name":"Sachsen"}},{"name":"Markritz","postalCode":"04720","locality":"Döbeln","municipality":{"key":"14522080","name":"Döbeln, Stadt","type":"Stadt"},"district":{"key":"14522","name":"Mittelsachsen","type":"Landkreis"},"federalState":{"key":"14","name":"Sachsen"}},{"name":"Marktstr.","postalCode":"04720","locality":"Döbeln","municipality":{"key":"14522080","name":"Döbeln, Stadt","type":"Stadt"},"district":{"key":"14522","name":"Mittelsachsen","type":"Landkreis"},"federalState":{"key":"14","name":"Sachsen"}},{"name":"Mastener Ring","postalCode":"04720","locality":"Döbeln","municipality":{"key":"14522080","name":"Döbeln, Stadt","type":"Stadt"},"district":{"key":"14522","name":"Mittelsachsen","type":"Landkreis"},"federalState":{"key":"14","name":"Sachsen"}},{"name":"Mastener Str.","postalCode":"04720","locality":"Döbeln","municipality":{"key":"14522080","name":"Döbeln, Stadt","type":"Stadt"},"district":{"key":"14522","name":"Mittelsachsen","type":"Landkreis"},"federalState":{"key":"14","name":"Sachsen"}},{"name":"Mastener Weg","postalCode":"04720","locality":"Döbeln","municipality":{"key":"14522080","name":"Döbeln, Stadt","type":"Stadt"},"district":{"key":"14522","name":"Mittelsachsen","type":"Landkreis"},"federalState":{"key":"14","name":"Sachsen"}},{"name":"Max-Planck-Str.","postalCode":"04720","locality":"Döbeln","municipality":{"key":"14522080","name":"Döbeln, Stadt","type":"Stadt"},"district":{"key":"14522","name":"Mittelsachsen","type":"Landkreis"},"federalState":{"key":"14","name":"Sachsen"}},{"name":"Meila","postalCode":"04720","locality":"Döbeln","municipality":{"key":"14522080","name":"Döbeln, Stadt","type":"Stadt"},"district":{"key":"14522","name":"Mittelsachsen","type":"Landkreis"},"federalState":{"key":"14","name":"Sachsen"}},{"name":"Meilaer Str.","postalCode":"04720","locality":"Döbeln","municipality":{"key":"14522080","name":"Döbeln, Stadt","type":"Stadt"},"district":{"key":"14522","name":"Mittelsachsen","type":"Landkreis"},"federalState":{"key":"14","name":"Sachsen"}},{"name":"Meißener Str.","postalCode":"04720","locality":"Döbeln","municipality":{"key":"14522080","name":"Döbeln, Stadt","type":"Stadt"},"district":{"key":"14522","name":"Mittelsachsen","type":"Landkreis"},"federalState":{"key":"14","name":"Sachsen"}},{"name":"Mittelstr.","postalCode":"04720","locality":"Döbeln","municipality":{"key":"14522080","name":"Döbeln, Stadt","type":"Stadt"},"district":{"key":"14522","name":"Mittelsachsen","type":"Landkreis"},"federalState":{"key":"14","name":"Sachsen"}},{"name":"Möckwitzer Weg","postalCode":"04720","locality":"Döbeln","municipality":{"key":"14522080","name":"Döbeln, Stadt","type":"Stadt"},"district":{"key":"14522","name":"Mittelsachsen","type":"Landkreis"},"federalState":{"key":"14","name":"Sachsen"}},{"name":"Mozartstr.","postalCode":"04720","locality":"Döbeln","municipality":{"key":"14522080","name":"Döbeln, Stadt","type":"Stadt"},"district":{"key":"14522","name":"Mittelsachsen","type":"Landkreis"},"federalState":{"key":"14","name":"Sachsen"}},{"name":"Mühlenstr.","postalCode":"04720","locality":"Döbeln","municipality":{"key":"14522080","name":"Döbeln, Stadt","type":"Stadt"},"district":{"key":"14522","name":"Mittelsachsen","type":"Landkreis"},"federalState":{"key":"14","name":"Sachsen"}},{"name":"Mühlgrabenweg","postalCode":"04720","locality":"Döbeln","municipality":{"key":"14522080","name":"Döbeln, Stadt","type":"Stadt"},"district":{"key":"14522","name":"Mittelsachsen","type":"Landkreis"},"federalState":{"key":"14","name":"Sachsen"}},{"name":"Mühlweg","postalCode":"04720","locality":"Döbeln","municipality":{"key":"14522080","name":"Döbeln, Stadt","type":"Stadt"},"district":{"key":"14522","name":"Mittelsachsen","type":"Landkreis"},"federalState":{"key":"14","name":"Sachsen"}},{"name":"Muldenstr.","postalCode":"04720","locality":"Döbeln","municipality":{"key":"14522080","name":"Döbeln, Stadt","type":"Stadt"},"district":{"key":"14522","name":"Mittelsachsen","type":"Landkreis"},"federalState":{"key":"14","name":"Sachsen"}},{"name":"Nelkanitz","postalCode":"04720","locality":"Döbeln","municipality":{"key":"14522080","name":"Döbeln, Stadt","type":"Stadt"},"district":{"key":"14522","name":"Mittelsachsen","type":"Landkreis"},"federalState":{"key":"14","name":"Sachsen"}},{"name":"Neuebersbach","postalCode":"04720","locality":"Döbeln","municipality":{"key":"14522080","name":"Döbeln, Stadt","type":"Stadt"},"district":{"key":"14522","name":"Mittelsachsen","type":"Landkreis"},"federalState":{"key":"14","name":"Sachsen"}},{"name":"Neugreußniger Str.","postalCode":"04720","locality":"Döbeln","municipality":{"key":"14522080","name":"Döbeln, Stadt","type":"Stadt"},"district":{"key":"14522","name":"Mittelsachsen","type":"Landkreis"},"federalState":{"key":"14","name":"Sachsen"}},{"name":"Niedermarkt","postalCode":"04720","locality":"Döbeln","municipality":{"key":"14522080","name":"Döbeln, Stadt","type":"Stadt"},"district":{"key":"14522","name":"Mittelsachsen","type":"Landkreis"},"federalState":{"key":"14","name":"Sachsen"}},{"name":"Niederwerder","postalCode":"04720","locality":"Döbeln","municipality":{"key":"14522080","name":"Döbeln, Stadt","type":"Stadt"},"district":{"key":"14522","name":"Mittelsachsen","type":"Landkreis"},"federalState":{"key":"14","name":"Sachsen"}},{"name":"Nordstr.","postalCode":"04720","locality":"Döbeln","municipality":{"key":"14522080","name":"Döbeln, Stadt","type":"Stadt"},"district":{"key":"14522","name":"Mittelsachsen","type":"Landkreis"},"federalState":{"key":"14","name":"Sachsen"}},{"name":"Nossener Berg","postalCode":"04720","locality":"Döbeln","municipality":{"key":"14522080","name":"Döbeln, Stadt","type":"Stadt"},"district":{"key":"14522","name":"Mittelsachsen","type":"Landkreis"},"federalState":{"key":"14","name":"Sachsen"}},{"name":"Nossener Str.","postalCode":"04720","locality":"Döbeln","municipality":{"key":"14522080","name":"Döbeln, Stadt","type":"Stadt"},"district":{"key":"14522","name":"Mittelsachsen","type":"Landkreis"},"federalState":{"key":"14","name":"Sachsen"}},{"name":"Obermarkt","postalCode":"04720","locality":"Döbeln","municipality":{"key":"14522080","name":"Döbeln, Stadt","type":"Stadt"},"district":{"key":"14522","name":"Mittelsachsen","type":"Landkreis"},"federalState":{"key":"14","name":"Sachsen"}},{"name":"Oberranschütz","postalCode":"04720","locality":"Döbeln","municipality":{"key":"14522080","name":"Döbeln, Stadt","type":"Stadt"},"district":{"key":"14522","name":"Mittelsachsen","type":"Landkreis"},"federalState":{"key":"14","name":"Sachsen"}},{"name":"Oberranschützer Str.","postalCode":"04720","locality":"Döbeln","municipality":{"key":"14522080","name":"Döbeln, Stadt","type":"Stadt"},"district":{"key":"14522","name":"Mittelsachsen","type":"Landkreis"},"federalState":{"key":"14","name":"Sachsen"}},{"name":"Oberranschützer Weg","postalCode":"04720","locality":"Döbeln","municipality":{"key":"14522080","name":"Döbeln, Stadt","type":"Stadt"},"district":{"key":"14522","name":"Mittelsachsen","type":"Landkreis"},"federalState":{"key":"14","name":"Sachsen"}},{"name":"Obersteinbach","postalCode":"04720","locality":"Döbeln","municipality":{"key":"14522080","name":"Döbeln, Stadt","type":"Stadt"},"district":{"key":"14522","name":"Mittelsachsen","type":"Landkreis"},"federalState":{"key":"14","name":"Sachsen"}},{"name":"Oschatzer Str.","postalCode":"04720","locality":"Döbeln","municipality":{"key":"14522080","name":"Döbeln, Stadt","type":"Stadt"},"district":{"key":"14522","name":"Mittelsachsen","type":"Landkreis"},"federalState":{"key":"14","name":"Sachsen"}},{"name":"Oststr.","postalCode":"04720","locality":"Döbeln","municipality":{"key":"14522080","name":"Döbeln, Stadt","type":"Stadt"},"district":{"key":"14522","name":"Mittelsachsen","type":"Landkreis"},"federalState":{"key":"14","name":"Sachsen"}},{"name":"Oswald-Greiner-Str.","postalCode":"04720","locality":"Döbeln","municipality":{"key":"14522080","name":"Döbeln, Stadt","type":"Stadt"},"district":{"key":"14522","name":"Mittelsachsen","type":"Landkreis"},"federalState":{"key":"14","name":"Sachsen"}},{"name":"Otto-Johnsen-Str.","postalCode":"04720","locality":"Döbeln","municipality":{"key":"14522080","name":"Döbeln, Stadt","type":"Stadt"},"district":{"key":"14522","name":"Mittelsachsen","type":"Landkreis"},"federalState":{"key":"14","name":"Sachsen"}},{"name":"Otto-Rost-Str.","postalCode":"04720","locality":"Döbeln","municipality":{"key":"14522080","name":"Döbeln, Stadt","type":"Stadt"},"district":{"key":"14522","name":"Mittelsachsen","type":"Landkreis"},"federalState":{"key":"14","name":"Sachsen"}},{"name":"Pappelweg","postalCode":"04720","locality":"Döbeln","municipality":{"key":"14522080","name":"Döbeln, Stadt","type":"Stadt"},"district":{"key":"14522","name":"Mittelsachsen","type":"Landkreis"},"federalState":{"key":"14","name":"Sachsen"}},{"name":"Parkanlage Wappenhensch","postalCode":"04720","locality":"Döbeln","municipality":{"key":"14522080","name":"Döbeln, Stadt","type":"Stadt"},"district":{"key":"14522","name":"Mittelsachsen","type":"Landkreis"},"federalState":{"key":"14","name":"Sachsen"}},{"name":"Parkstr.","postalCode":"04720","locality":"Döbeln","municipality":{"key":"14522080","name":"Döbeln, Stadt","type":"Stadt"},"district":{"key":"14522","name":"Mittelsachsen","type":"Landkreis"},"federalState":{"key":"14","name":"Sachsen"}},{"name":"Pestalozzistr.","postalCode":"04720","locality":"Döbeln","municipality":{"key":"14522080","name":"Döbeln, Stadt","type":"Stadt"},"district":{"key":"14522","name":"Mittelsachsen","type":"Landkreis"},"federalState":{"key":"14","name":"Sachsen"}},{"name":"Pischwitz","postalCode":"04720","locality":"Döbeln","municipality":{"key":"14522080","name":"Döbeln, Stadt","type":"Stadt"},"district":{"key":"14522","name":"Mittelsachsen","type":"Landkreis"},"federalState":{"key":"14","name":"Sachsen"}},{"name":"Pommlitz","postalCode":"04720","locality":"Döbeln","municipality":{"key":"14522080","name":"Döbeln, Stadt","type":"Stadt"},"district":{"key":"14522","name":"Mittelsachsen","type":"Landkreis"},"federalState":{"key":"14","name":"Sachsen"}},{"name":"Pommlitzer Weg","postalCode":"04720","locality":"Döbeln","municipality":{"key":"14522080","name":"Döbeln, Stadt","type":"Stadt"},"district":{"key":"14522","name":"Mittelsachsen","type":"Landkreis"},"federalState":{"key":"14","name":"Sachsen"}},{"name":"Priesen","postalCode":"04720","locality":"Döbeln","municipality":{"key":"14522080","name":"Döbeln, Stadt","type":"Stadt"},"district":{"key":"14522","name":"Mittelsachsen","type":"Landkreis"},"federalState":{"key":"14","name":"Sachsen"}},{"name":"Prüfern","postalCode":"04720","locality":"Döbeln","municipality":{"key":"14522080","name":"Döbeln, Stadt","type":"Stadt"},"district":{"key":"14522","name":"Mittelsachsen","type":"Landkreis"},"federalState":{"key":"14","name":"Sachsen"}},{"name":"Quergasse","postalCode":"04720","locality":"Döbeln","municipality":{"key":"14522080","name":"Döbeln, Stadt","type":"Stadt"},"district":{"key":"14522","name":"Mittelsachsen","type":"Landkreis"},"federalState":{"key":"14","name":"Sachsen"}},{"name":"Redemitz","postalCode":"04720","locality":"Döbeln","municipality":{"key":"14522080","name":"Döbeln, Stadt","type":"Stadt"},"district":{"key":"14522","name":"Mittelsachsen","type":"Landkreis"},"federalState":{"key":"14","name":"Sachsen"}},{"name":"Reichensteinstr.","postalCode":"04720","locality":"Döbeln","municipality":{"key":"14522080","name":"Döbeln, Stadt","type":"Stadt"},"district":{"key":"14522","name":"Mittelsachsen","type":"Landkreis"},"federalState":{"key":"14","name":"Sachsen"}},{"name":"Richard-Wagner-Str.","postalCode":"04720","locality":"Döbeln","municipality":{"key":"14522080","name":"Döbeln, Stadt","type":"Stadt"},"district":{"key":"14522","name":"Mittelsachsen","type":"Landkreis"},"federalState":{"key":"14","name":"Sachsen"}},{"name":"Riesaer Str.","postalCode":"04720","locality":"Döbeln","municipality":{"key":"14522080","name":"Döbeln, Stadt","type":"Stadt"},"district":{"key":"14522","name":"Mittelsachsen","type":"Landkreis"},"federalState":{"key":"14","name":"Sachsen"}},{"name":"Ringstr.","postalCode":"04720","locality":"Döbeln","municipality":{"key":"14522080","name":"Döbeln, Stadt","type":"Stadt"},"district":{"key":"14522","name":"Mittelsachsen","type":"Landkreis"},"federalState":{"key":"14","name":"Sachsen"}},{"name":"Rittergut","postalCode":"04720","locality":"Döbeln","municipality":{"key":"14522080","name":"Döbeln, Stadt","type":"Stadt"},"district":{"key":"14522","name":"Mittelsachsen","type":"Landkreis"},"federalState":{"key":"14","name":"Sachsen"}},{"name":"Ritterstr.","postalCode":"04720","locality":"Döbeln","municipality":{"key":"14522080","name":"Döbeln, Stadt","type":"Stadt"},"district":{"key":"14522","name":"Mittelsachsen","type":"Landkreis"},"federalState":{"key":"14","name":"Sachsen"}},{"name":"Robert-Koch-Weg","postalCode":"04720","locality":"Döbeln","municipality":{"key":"14522080","name":"Döbeln, Stadt","type":"Stadt"},"district":{"key":"14522","name":"Mittelsachsen","type":"Landkreis"},"federalState":{"key":"14","name":"Sachsen"}},{"name":"Robert-Tümmler-Steg","postalCode":"04720","locality":"Döbeln","municipality":{"key":"14522080","name":"Döbeln, Stadt","type":"Stadt"},"district":{"key":"14522","name":"Mittelsachsen","type":"Landkreis"},"federalState":{"key":"14","name":"Sachsen"}},{"name":"Rosa-Luxemburg-Str.","postalCode":"04720","locality":"Döbeln","municipality":{"key":"14522080","name":"Döbeln, Stadt","type":"Stadt"},"district":{"key":"14522","name":"Mittelsachsen","type":"Landkreis"},"federalState":{"key":"14","name":"Sachsen"}},{"name":"Rößchengrundstr.","postalCode":"04720","locality":"Döbeln","municipality":{"key":"14522080","name":"Döbeln, Stadt","type":"Stadt"},"district":{"key":"14522","name":"Mittelsachsen","type":"Landkreis"},"federalState":{"key":"14","name":"Sachsen"}},{"name":"Roßweiner Str.","postalCode":"04720","locality":"Döbeln","municipality":{"key":"14522080","name":"Döbeln, Stadt","type":"Stadt"},"district":{"key":"14522","name":"Mittelsachsen","type":"Landkreis"},"federalState":{"key":"14","name":"Sachsen"}},{"name":"Rotdornweg","postalCode":"04720","locality":"Döbeln","municipality":{"key":"14522080","name":"Döbeln, Stadt","type":"Stadt"},"district":{"key":"14522","name":"Mittelsachsen","type":"Landkreis"},"federalState":{"key":"14","name":"Sachsen"}},{"name":"Rotkäppchenweg","postalCode":"04720","locality":"Döbeln","municipality":{"key":"14522080","name":"Döbeln, Stadt","type":"Stadt"},"district":{"key":"14522","name":"Mittelsachsen","type":"Landkreis"},"federalState":{"key":"14","name":"Sachsen"}},{"name":"Rudolf-Breitscheid-Str.","postalCode":"04720","locality":"Döbeln","municipality":{"key":"14522080","name":"Döbeln, Stadt","type":"Stadt"},"district":{"key":"14522","name":"Mittelsachsen","type":"Landkreis"},"federalState":{"key":"14","name":"Sachsen"}},{"name":"Rüsseinaer Str.","postalCode":"04720","locality":"Döbeln","municipality":{"key":"14522080","name":"Döbeln, Stadt","type":"Stadt"},"district":{"key":"14522","name":"Mittelsachsen","type":"Landkreis"},"federalState":{"key":"14","name":"Sachsen"}},{"name":"Salzgasse","postalCode":"04720","locality":"Döbeln","municipality":{"key":"14522080","name":"Döbeln, Stadt","type":"Stadt"},"district":{"key":"14522","name":"Mittelsachsen","type":"Landkreis"},"federalState":{"key":"14","name":"Sachsen"}},{"name":"Sandgrubenweg","postalCode":"04720","locality":"Döbeln","municipality":{"key":"14522080","name":"Döbeln, Stadt","type":"Stadt"},"district":{"key":"14522","name":"Mittelsachsen","type":"Landkreis"},"federalState":{"key":"14","name":"Sachsen"}},{"name":"Sandhäuser","postalCode":"04720","locality":"Döbeln","municipality":{"key":"14522080","name":"Döbeln, Stadt","type":"Stadt"},"district":{"key":"14522","name":"Mittelsachsen","type":"Landkreis"},"federalState":{"key":"14","name":"Sachsen"}},{"name":"Sandweg","postalCode":"04720","locality":"Döbeln","municipality":{"key":"14522080","name":"Döbeln, Stadt","type":"Stadt"},"district":{"key":"14522","name":"Mittelsachsen","type":"Landkreis"},"federalState":{"key":"14","name":"Sachsen"}},{"name":"Sattelstr.","postalCode":"04720","locality":"Döbeln","municipality":{"key":"14522080","name":"Döbeln, Stadt","type":"Stadt"},"district":{"key":"14522","name":"Mittelsachsen","type":"Landkreis"},"federalState":{"key":"14","name":"Sachsen"}},{"name":"Schäfereiberg","postalCode":"04720","locality":"Döbeln","municipality":{"key":"14522080","name":"Döbeln, Stadt","type":"Stadt"},"district":{"key":"14522","name":"Mittelsachsen","type":"Landkreis"},"federalState":{"key":"14","name":"Sachsen"}},{"name":"Schillerstr.","postalCode":"04720","locality":"Döbeln","municipality":{"key":"14522080","name":"Döbeln, Stadt","type":"Stadt"},"district":{"key":"14522","name":"Mittelsachsen","type":"Landkreis"},"federalState":{"key":"14","name":"Sachsen"}},{"name":"Schlachthofstr.","postalCode":"04720","locality":"Döbeln","municipality":{"key":"14522080","name":"Döbeln, Stadt","type":"Stadt"},"district":{"key":"14522","name":"Mittelsachsen","type":"Landkreis"},"federalState":{"key":"14","name":"Sachsen"}},{"name":"Schloßberg","postalCode":"04720","locality":"Döbeln","municipality":{"key":"14522080","name":"Döbeln, Stadt","type":"Stadt"},"district":{"key":"14522","name":"Mittelsachsen","type":"Landkreis"},"federalState":{"key":"14","name":"Sachsen"}},{"name":"Schlosspark","postalCode":"04720","locality":"Döbeln","municipality":{"key":"14522080","name":"Döbeln, Stadt","type":"Stadt"},"district":{"key":"14522","name":"Mittelsachsen","type":"Landkreis"},"federalState":{"key":"14","name":"Sachsen"}},{"name":"Schmiedegasse","postalCode":"04720","locality":"Döbeln","municipality":{"key":"14522080","name":"Döbeln, Stadt","type":"Stadt"},"district":{"key":"14522","name":"Mittelsachsen","type":"Landkreis"},"federalState":{"key":"14","name":"Sachsen"}},{"name":"Schmiedeweg","postalCode":"04720","locality":"Döbeln","municipality":{"key":"14522080","name":"Döbeln, Stadt","type":"Stadt"},"district":{"key":"14522","name":"Mittelsachsen","type":"Landkreis"},"federalState":{"key":"14","name":"Sachsen"}},{"name":"Schnitterstr.","postalCode":"04720","locality":"Döbeln","municipality":{"key":"14522080","name":"Döbeln, Stadt","type":"Stadt"},"district":{"key":"14522","name":"Mittelsachsen","type":"Landkreis"},"federalState":{"key":"14","name":"Sachsen"}},{"name":"Schulberg","postalCode":"04720","locality":"Döbeln","municipality":{"key":"14522080","name":"Döbeln, Stadt","type":"Stadt"},"district":{"key":"14522","name":"Mittelsachsen","type":"Landkreis"},"federalState":{"key":"14","name":"Sachsen"}},{"name":"Schulstr.","postalCode":"04720","locality":"Döbeln","municipality":{"key":"14522080","name":"Döbeln, Stadt","type":"Stadt"},"district":{"key":"14522","name":"Mittelsachsen","type":"Landkreis"},"federalState":{"key":"14","name":"Sachsen"}},{"name":"Schulweg","postalCode":"04720","locality":"Döbeln","municipality":{"key":"14522080","name":"Döbeln, Stadt","type":"Stadt"},"district":{"key":"14522","name":"Mittelsachsen","type":"Landkreis"},"federalState":{"key":"14","name":"Sachsen"}},{"name":"Schweimnitz","postalCode":"04720","locality":"Döbeln","municipality":{"key":"14522080","name":"Döbeln, Stadt","type":"Stadt"},"district":{"key":"14522","name":"Mittelsachsen","type":"Landkreis"},"federalState":{"key":"14","name":"Sachsen"}},{"name":"Schweta","postalCode":"04720","locality":"Döbeln","municipality":{"key":"14522080","name":"Döbeln, Stadt","type":"Stadt"},"district":{"key":"14522","name":"Mittelsachsen","type":"Landkreis"},"federalState":{"key":"14","name":"Sachsen"}},{"name":"Siedlerstr.","postalCode":"04720","locality":"Döbeln","municipality":{"key":"14522080","name":"Döbeln, Stadt","type":"Stadt"},"district":{"key":"14522","name":"Mittelsachsen","type":"Landkreis"},"federalState":{"key":"14","name":"Sachsen"}},{"name":"Siedlung Roßweiner Str.","postalCode":"04720","locality":"Döbeln","municipality":{"key":"14522080","name":"Döbeln, Stadt","type":"Stadt"},"district":{"key":"14522","name":"Mittelsachsen","type":"Landkreis"},"federalState":{"key":"14","name":"Sachsen"}},{"name":"Siedlungsstr.","postalCode":"04720","locality":"Döbeln","municipality":{"key":"14522080","name":"Döbeln, Stadt","type":"Stadt"},"district":{"key":"14522","name":"Mittelsachsen","type":"Landkreis"},"federalState":{"key":"14","name":"Sachsen"}},{"name":"Simselwitzer Str.","postalCode":"04720","locality":"Döbeln","municipality":{"key":"14522080","name":"Döbeln, Stadt","type":"Stadt"},"district":{"key":"14522","name":"Mittelsachsen","type":"Landkreis"},"federalState":{"key":"14","name":"Sachsen"}},{"name":"Sonneneck","postalCode":"04720","locality":"Döbeln","municipality":{"key":"14522080","name":"Döbeln, Stadt","type":"Stadt"},"district":{"key":"14522","name":"Mittelsachsen","type":"Landkreis"},"federalState":{"key":"14","name":"Sachsen"}},{"name":"Sonnenhang","postalCode":"04720","locality":"Döbeln","municipality":{"key":"14522080","name":"Döbeln, Stadt","type":"Stadt"},"district":{"key":"14522","name":"Mittelsachsen","type":"Landkreis"},"federalState":{"key":"14","name":"Sachsen"}},{"name":"Sonnenstr.","postalCode":"04720","locality":"Döbeln","municipality":{"key":"14522080","name":"Döbeln, Stadt","type":"Stadt"},"district":{"key":"14522","name":"Mittelsachsen","type":"Landkreis"},"federalState":{"key":"14","name":"Sachsen"}},{"name":"Sonnenweg","postalCode":"04720","locality":"Döbeln","municipality":{"key":"14522080","name":"Döbeln, Stadt","type":"Stadt"},"district":{"key":"14522","name":"Mittelsachsen","type":"Landkreis"},"federalState":{"key":"14","name":"Sachsen"}},{"name":"Sörmitzer Str.","postalCode":"04720","locality":"Döbeln","municipality":{"key":"14522080","name":"Döbeln, Stadt","type":"Stadt"},"district":{"key":"14522","name":"Mittelsachsen","type":"Landkreis"},"federalState":{"key":"14","name":"Sachsen"}},{"name":"Spatzenweg","postalCode":"04720","locality":"Döbeln","municipality":{"key":"14522080","name":"Döbeln, Stadt","type":"Stadt"},"district":{"key":"14522","name":"Mittelsachsen","type":"Landkreis"},"federalState":{"key":"14","name":"Sachsen"}},{"name":"Sperlingsberg","postalCode":"04720","locality":"Döbeln","municipality":{"key":"14522080","name":"Döbeln, Stadt","type":"Stadt"},"district":{"key":"14522","name":"Mittelsachsen","type":"Landkreis"},"federalState":{"key":"14","name":"Sachsen"}},{"name":"Spielstr.","postalCode":"04720","locality":"Döbeln","municipality":{"key":"14522080","name":"Döbeln, Stadt","type":"Stadt"},"district":{"key":"14522","name":"Mittelsachsen","type":"Landkreis"},"federalState":{"key":"14","name":"Sachsen"}},{"name":"Stadtgut Greußnig","postalCode":"04720","locality":"Döbeln","municipality":{"key":"14522080","name":"Döbeln, Stadt","type":"Stadt"},"district":{"key":"14522","name":"Mittelsachsen","type":"Landkreis"},"federalState":{"key":"14","name":"Sachsen"}},{"name":"Stadthausstr.","postalCode":"04720","locality":"Döbeln","municipality":{"key":"14522080","name":"Döbeln, Stadt","type":"Stadt"},"district":{"key":"14522","name":"Mittelsachsen","type":"Landkreis"},"federalState":{"key":"14","name":"Sachsen"}},{"name":"Staupitzstr.","postalCode":"04720","locality":"Döbeln","municipality":{"key":"14522080","name":"Döbeln, Stadt","type":"Stadt"},"district":{"key":"14522","name":"Mittelsachsen","type":"Landkreis"},"federalState":{"key":"14","name":"Sachsen"}},{"name":"Steigerhausplatz","postalCode":"04720","locality":"Döbeln","municipality":{"key":"14522080","name":"Döbeln, Stadt","type":"Stadt"},"district":{"key":"14522","name":"Mittelsachsen","type":"Landkreis"},"federalState":{"key":"14","name":"Sachsen"}},{"name":"Sternplatz","postalCode":"04720","locality":"Döbeln","municipality":{"key":"14522080","name":"Döbeln, Stadt","type":"Stadt"},"district":{"key":"14522","name":"Mittelsachsen","type":"Landkreis"},"federalState":{"key":"14","name":"Sachsen"}},{"name":"St.-Georgen-Str.","postalCode":"04720","locality":"Döbeln","municipality":{"key":"14522080","name":"Döbeln, Stadt","type":"Stadt"},"district":{"key":"14522","name":"Mittelsachsen","type":"Landkreis"},"federalState":{"key":"14","name":"Sachsen"}},{"name":"Stockhausener Str.","postalCode":"04720","locality":"Döbeln","municipality":{"key":"14522080","name":"Döbeln, Stadt","type":"Stadt"},"district":{"key":"14522","name":"Mittelsachsen","type":"Landkreis"},"federalState":{"key":"14","name":"Sachsen"}},{"name":"Stockhausener Weg","postalCode":"04720","locality":"Döbeln","municipality":{"key":"14522080","name":"Döbeln, Stadt","type":"Stadt"},"district":{"key":"14522","name":"Mittelsachsen","type":"Landkreis"},"federalState":{"key":"14","name":"Sachsen"}},{"name":"Str. der Jugend","postalCode":"04720","locality":"Döbeln","municipality":{"key":"14522080","name":"Döbeln, Stadt","type":"Stadt"},"district":{"key":"14522","name":"Mittelsachsen","type":"Landkreis"},"federalState":{"key":"14","name":"Sachsen"}},{"name":"Str. des Friedens","postalCode":"04720","locality":"Döbeln","municipality":{"key":"14522080","name":"Döbeln, Stadt","type":"Stadt"},"district":{"key":"14522","name":"Mittelsachsen","type":"Landkreis"},"federalState":{"key":"14","name":"Sachsen"}},{"name":"Südstr.","postalCode":"04720","locality":"Döbeln","municipality":{"key":"14522080","name":"Döbeln, Stadt","type":"Stadt"},"district":{"key":"14522","name":"Mittelsachsen","type":"Landkreis"},"federalState":{"key":"14","name":"Sachsen"}},{"name":"Talstr.","postalCode":"04720","locality":"Döbeln","municipality":{"key":"14522080","name":"Döbeln, Stadt","type":"Stadt"},"district":{"key":"14522","name":"Mittelsachsen","type":"Landkreis"},"federalState":{"key":"14","name":"Sachsen"}},{"name":"Technitzer Berg","postalCode":"04720","locality":"Döbeln","municipality":{"key":"14522080","name":"Döbeln, Stadt","type":"Stadt"},"district":{"key":"14522","name":"Mittelsachsen","type":"Landkreis"},"federalState":{"key":"14","name":"Sachsen"}},{"name":"Teichstr.","postalCode":"04720","locality":"Döbeln","municipality":{"key":"14522080","name":"Döbeln, Stadt","type":"Stadt"},"district":{"key":"14522","name":"Mittelsachsen","type":"Landkreis"},"federalState":{"key":"14","name":"Sachsen"}},{"name":"Teichweg","postalCode":"04720","locality":"Döbeln","municipality":{"key":"14522080","name":"Döbeln, Stadt","type":"Stadt"},"district":{"key":"14522","name":"Mittelsachsen","type":"Landkreis"},"federalState":{"key":"14","name":"Sachsen"}},{"name":"Terrassenstr.","postalCode":"04720","locality":"Döbeln","municipality":{"key":"14522080","name":"Döbeln, Stadt","type":"Stadt"},"district":{"key":"14522","name":"Mittelsachsen","type":"Landkreis"},"federalState":{"key":"14","name":"Sachsen"}},{"name":"Theaterstr.","postalCode":"04720","locality":"Döbeln","municipality":{"key":"14522080","name":"Döbeln, Stadt","type":"Stadt"},"district":{"key":"14522","name":"Mittelsachsen","type":"Landkreis"},"federalState":{"key":"14","name":"Sachsen"}},{"name":"Theeschütz","postalCode":"04720","locality":"Döbeln","municipality":{"key":"14522080","name":"Döbeln, Stadt","type":"Stadt"},"district":{"key":"14522","name":"Mittelsachsen","type":"Landkreis"},"federalState":{"key":"14","name":"Sachsen"}},{"name":"Theeschützer Str.","postalCode":"04720","locality":"Döbeln","municipality":{"key":"14522080","name":"Döbeln, Stadt","type":"Stadt"},"district":{"key":"14522","name":"Mittelsachsen","type":"Landkreis"},"federalState":{"key":"14","name":"Sachsen"}},{"name":"Theodor-Kunzemann-Str.","postalCode":"04720","locality":"Döbeln","municipality":{"key":"14522080","name":"Döbeln, Stadt","type":"Stadt"},"district":{"key":"14522","name":"Mittelsachsen","type":"Landkreis"},"federalState":{"key":"14","name":"Sachsen"}},{"name":"Thielestr.","postalCode":"04720","locality":"Döbeln","municipality":{"key":"14522080","name":"Döbeln, Stadt","type":"Stadt"},"district":{"key":"14522","name":"Mittelsachsen","type":"Landkreis"},"federalState":{"key":"14","name":"Sachsen"}},{"name":"Thomas-Mann-Str.","postalCode":"04720","locality":"Döbeln","municipality":{"key":"14522080","name":"Döbeln, Stadt","type":"Stadt"},"district":{"key":"14522","name":"Mittelsachsen","type":"Landkreis"},"federalState":{"key":"14","name":"Sachsen"}},{"name":"Thomas-Müntzer-Str.","postalCode":"04720","locality":"Döbeln","municipality":{"key":"14522080","name":"Döbeln, Stadt","type":"Stadt"},"district":{"key":"14522","name":"Mittelsachsen","type":"Landkreis"},"federalState":{"key":"14","name":"Sachsen"}},{"name":"Töpfergasse","postalCode":"04720","locality":"Döbeln","municipality":{"key":"14522080","name":"Döbeln, Stadt","type":"Stadt"},"district":{"key":"14522","name":"Mittelsachsen","type":"Landkreis"},"federalState":{"key":"14","name":"Sachsen"}},{"name":"Uferstr.","postalCode":"04720","locality":"Döbeln","municipality":{"key":"14522080","name":"Döbeln, Stadt","type":"Stadt"},"district":{"key":"14522","name":"Mittelsachsen","type":"Landkreis"},"federalState":{"key":"14","name":"Sachsen"}},{"name":"Ulmenstr.","postalCode":"04720","locality":"Döbeln","municipality":{"key":"14522080","name":"Döbeln, Stadt","type":"Stadt"},"district":{"key":"14522","name":"Mittelsachsen","type":"Landkreis"},"federalState":{"key":"14","name":"Sachsen"}},{"name":"Unnaer Str.","postalCode":"04720","locality":"Döbeln","municipality":{"key":"14522080","name":"Döbeln, Stadt","type":"Stadt"},"district":{"key":"14522","name":"Mittelsachsen","type":"Landkreis"},"federalState":{"key":"14","name":"Sachsen"}},{"name":"Vorwerk","postalCode":"04720","locality":"Döbeln","municipality":{"key":"14522080","name":"Döbeln, Stadt","type":"Stadt"},"district":{"key":"14522","name":"Mittelsachsen","type":"Landkreis"},"federalState":{"key":"14","name":"Sachsen"}},{"name":"Vyskover Str.","postalCode":"04720","locality":"Döbeln","municipality":{"key":"14522080","name":"Döbeln, Stadt","type":"Stadt"},"district":{"key":"14522","name":"Mittelsachsen","type":"Landkreis"},"federalState":{"key":"14","name":"Sachsen"}},{"name":"Waldheimer Str.","postalCode":"04720","locality":"Döbeln","municipality":{"key":"14522080","name":"Döbeln, Stadt","type":"Stadt"},"district":{"key":"14522","name":"Mittelsachsen","type":"Landkreis"},"federalState":{"key":"14","name":"Sachsen"}},{"name":"Waldweg","postalCode":"04720","locality":"Döbeln","municipality":{"key":"14522080","name":"Döbeln, Stadt","type":"Stadt"},"district":{"key":"14522","name":"Mittelsachsen","type":"Landkreis"},"federalState":{"key":"14","name":"Sachsen"}},{"name":"Walter-Eckhard-Str.","postalCode":"04720","locality":"Döbeln","municipality":{"key":"14522080","name":"Döbeln, Stadt","type":"Stadt"},"district":{"key":"14522","name":"Mittelsachsen","type":"Landkreis"},"federalState":{"key":"14","name":"Sachsen"}},{"name":"Wappenhenschstr.","postalCode":"04720","locality":"Döbeln","municipality":{"key":"14522080","name":"Döbeln, Stadt","type":"Stadt"},"district":{"key":"14522","name":"Mittelsachsen","type":"Landkreis"},"federalState":{"key":"14","name":"Sachsen"}},{"name":"Weidengrund","postalCode":"04720","locality":"Döbeln","municipality":{"key":"14522080","name":"Döbeln, Stadt","type":"Stadt"},"district":{"key":"14522","name":"Mittelsachsen","type":"Landkreis"},"federalState":{"key":"14","name":"Sachsen"}},{"name":"Westewitzer Str.","postalCode":"04720","locality":"Döbeln","municipality":{"key":"14522080","name":"Döbeln, Stadt","type":"Stadt"},"district":{"key":"14522","name":"Mittelsachsen","type":"Landkreis"},"federalState":{"key":"14","name":"Sachsen"}},{"name":"Westfälische Str.","postalCode":"04720","locality":"Döbeln","municipality":{"key":"14522080","name":"Döbeln, Stadt","type":"Stadt"},"district":{"key":"14522","name":"Mittelsachsen","type":"Landkreis"},"federalState":{"key":"14","name":"Sachsen"}},{"name":"Weststr.","postalCode":"04720","locality":"Döbeln","municipality":{"key":"14522080","name":"Döbeln, Stadt","type":"Stadt"},"district":{"key":"14522","name":"Mittelsachsen","type":"Landkreis"},"federalState":{"key":"14","name":"Sachsen"}},{"name":"Wetterwitzer Str.","postalCode":"04720","locality":"Döbeln","municipality":{"key":"14522080","name":"Döbeln, Stadt","type":"Stadt"},"district":{"key":"14522","name":"Mittelsachsen","type":"Landkreis"},"federalState":{"key":"14","name":"Sachsen"}},{"name":"Wettinplatz","postalCode":"04720","locality":"Döbeln","municipality":{"key":"14522080","name":"Döbeln, Stadt","type":"Stadt"},"district":{"key":"14522","name":"Mittelsachsen","type":"Landkreis"},"federalState":{"key":"14","name":"Sachsen"}},{"name":"Wiesengrund","postalCode":"04720","locality":"Döbeln","municipality":{"key":"14522080","name":"Döbeln, Stadt","type":"Stadt"},"district":{"key":"14522","name":"Mittelsachsen","type":"Landkreis"},"federalState":{"key":"14","name":"Sachsen"}},{"name":"Wiesenstr.","postalCode":"04720","locality":"Döbeln","municipality":{"key":"14522080","name":"Döbeln, Stadt","type":"Stadt"},"district":{"key":"14522","name":"Mittelsachsen","type":"Landkreis"},"federalState":{"key":"14","name":"Sachsen"}},{"name":"Wilhelm-Busch-Weg","postalCode":"04720","locality":"Döbeln","municipality":{"key":"14522080","name":"Döbeln, Stadt","type":"Stadt"},"district":{"key":"14522","name":"Mittelsachsen","type":"Landkreis"},"federalState":{"key":"14","name":"Sachsen"}},{"name":"Wöllsdorfer Ring","postalCode":"04720","locality":"Döbeln","municipality":{"key":"14522080","name":"Döbeln, Stadt","type":"Stadt"},"district":{"key":"14522","name":"Mittelsachsen","type":"Landkreis"},"federalState":{"key":"14","name":"Sachsen"}},{"name":"Württembergische Str.","postalCode":"04720","locality":"Döbeln","municipality":{"key":"14522080","name":"Döbeln, Stadt","type":"Stadt"},"district":{"key":"14522","name":"Mittelsachsen","type":"Landkreis"},"federalState":{"key":"14","name":"Sachsen"}},{"name":"Ziegelstr.","postalCode":"04720","locality":"Döbeln","municipality":{"key":"14522080","name":"Döbeln, Stadt","type":"Stadt"},"district":{"key":"14522","name":"Mittelsachsen","type":"Landkreis"},"federalState":{"key":"14","name":"Sachsen"}},{"name":"Zschackwitz","postalCode":"04720","locality":"Döbeln","municipality":{"key":"14522080","name":"Döbeln, Stadt","type":"Stadt"},"district":{"key":"14522","name":"Mittelsachsen","type":"Landkreis"},"federalState":{"key":"14","name":"Sachsen"}},{"name":"Zschackwitzer Str.","postalCode":"04720","locality":"Döbeln","municipality":{"key":"14522080","name":"Döbeln, Stadt","type":"Stadt"},"district":{"key":"14522","name":"Mittelsachsen","type":"Landkreis"},"federalState":{"key":"14","name":"Sachsen"}},{"name":"Zschepplitzer Str.","postalCode":"04720","locality":"Döbeln","municipality":{"key":"14522080","name":"Döbeln, Stadt","type":"Stadt"},"district":{"key":"14522","name":"Mittelsachsen","type":"Landkreis"},"federalState":{"key":"14","name":"Sachsen"}},{"name":"Zuckerfabrikstr.","postalCode":"04720","locality":"Döbeln","municipality":{"key":"14522080","name":"Döbeln, Stadt","type":"Stadt"},"district":{"key":"14522","name":"Mittelsachsen","type":"Landkreis"},"federalState":{"key":"14","name":"Sachsen"}},{"name":"Zu den Brunnen","postalCode":"04720","locality":"Döbeln","municipality":{"key":"14522080","name":"Döbeln, Stadt","type":"Stadt"},"district":{"key":"14522","name":"Mittelsachsen","type":"Landkreis"},"federalState":{"key":"14","name":"Sachsen"}},{"name":"Zu den Drei Eichen","postalCode":"04720","locality":"Döbeln","municipality":{"key":"14522080","name":"Döbeln, Stadt","type":"Stadt"},"district":{"key":"14522","name":"Mittelsachsen","type":"Landkreis"},"federalState":{"key":"14","name":"Sachsen"}},{"name":"Zu den Laasen","postalCode":"04720","locality":"Döbeln","municipality":{"key":"14522080","name":"Döbeln, Stadt","type":"Stadt"},"district":{"key":"14522","name":"Mittelsachsen","type":"Landkreis"},"federalState":{"key":"14","name":"Sachsen"}},{"name":"Zum Bach","postalCode":"04720","locality":"Döbeln","municipality":{"key":"14522080","name":"Döbeln, Stadt","type":"Stadt"},"district":{"key":"14522","name":"Mittelsachsen","type":"Landkreis"},"federalState":{"key":"14","name":"Sachsen"}},{"name":"Zum Dachsholz","postalCode":"04720","locality":"Döbeln","municipality":{"key":"14522080","name":"Döbeln, Stadt","type":"Stadt"},"district":{"key":"14522","name":"Mittelsachsen","type":"Landkreis"},"federalState":{"key":"14","name":"Sachsen"}},{"name":"Zum Gut","postalCode":"04720","locality":"Döbeln","municipality":{"key":"14522080","name":"Döbeln, Stadt","type":"Stadt"},"district":{"key":"14522","name":"Mittelsachsen","type":"Landkreis"},"federalState":{"key":"14","name":"Sachsen"}},{"name":"Zum Muldenblick","postalCode":"04720","locality":"Döbeln","municipality":{"key":"14522080","name":"Döbeln, Stadt","type":"Stadt"},"district":{"key":"14522","name":"Mittelsachsen","type":"Landkreis"},"federalState":{"key":"14","name":"Sachsen"}},{"name":"Zum Park","postalCode":"04720","locality":"Döbeln","municipality":{"key":"14522080","name":"Döbeln, Stadt","type":"Stadt"},"district":{"key":"14522","name":"Mittelsachsen","type":"Landkreis"},"federalState":{"key":"14","name":"Sachsen"}},{"name":"Zum Pfaffenberg","postalCode":"04720","locality":"Döbeln","municipality":{"key":"14522080","name":"Döbeln, Stadt","type":"Stadt"},"district":{"key":"14522","name":"Mittelsachsen","type":"Landkreis"},"federalState":{"key":"14","name":"Sachsen"}},{"name":"Zum Stahlberg","postalCode":"04720","locality":"Döbeln","municipality":{"key":"14522080","name":"Döbeln, Stadt","type":"Stadt"},"district":{"key":"14522","name":"Mittelsachsen","type":"Landkreis"},"federalState":{"key":"14","name":"Sachsen"}},{"name":"Zum Steinbruch","postalCode":"04720","locality":"Döbeln","municipality":{"key":"14522080","name":"Döbeln, Stadt","type":"Stadt"},"district":{"key":"14522","name":"Mittelsachsen","type":"Landkreis"},"federalState":{"key":"14","name":"Sachsen"}},{"name":"Zur Beule","postalCode":"04720","locality":"Döbeln","municipality":{"key":"14522080","name":"Döbeln, Stadt","type":"Stadt"},"district":{"key":"14522","name":"Mittelsachsen","type":"Landkreis"},"federalState":{"key":"14","name":"Sachsen"}},{"name":"Zur Butterbüchse","postalCode":"04720","locality":"Döbeln","municipality":{"key":"14522080","name":"Döbeln, Stadt","type":"Stadt"},"district":{"key":"14522","name":"Mittelsachsen","type":"Landkreis"},"federalState":{"key":"14","name":"Sachsen"}},{"name":"Zur Feldscheune","postalCode":"04720","locality":"Döbeln","municipality":{"key":"14522080","name":"Döbeln, Stadt","type":"Stadt"},"district":{"key":"14522","name":"Mittelsachsen","type":"Landkreis"},"federalState":{"key":"14","name":"Sachsen"}},{"name":"Zur Jahnaquelle","postalCode":"04720","locality":"Döbeln","municipality":{"key":"14522080","name":"Döbeln, Stadt","type":"Stadt"},"district":{"key":"14522","name":"Mittelsachsen","type":"Landkreis"},"federalState":{"key":"14","name":"Sachsen"}},{"name":"Zur Muldenterrasse","postalCode":"04720","locality":"Döbeln","municipality":{"key":"14522080","name":"Döbeln, Stadt","type":"Stadt"},"district":{"key":"14522","name":"Mittelsachsen","type":"Landkreis"},"federalState":{"key":"14","name":"Sachsen"}},{"name":"Zur Schäferei","postalCode":"04720","locality":"Döbeln","municipality":{"key":"14522080","name":"Döbeln, Stadt","type":"Stadt"},"district":{"key":"14522","name":"Mittelsachsen","type":"Landkreis"},"federalState":{"key":"14","name":"Sachsen"}},{"name":"Zur Solge","postalCode":"04720","locality":"Döbeln","municipality":{"key":"14522080","name":"Döbeln, Stadt","type":"Stadt"},"district":{"key":"14522","name":"Mittelsachsen","type":"Landkreis"},"federalState":{"key":"14","name":"Sachsen"}},{"name":"Zur Zimmerei","postalCode":"04720","locality":"Döbeln","municipality":{"key":"14522080","name":"Döbeln, Stadt","type":"Stadt"},"district":{"key":"14522","name":"Mittelsachsen","type":"Landkreis"},"federalState":{"key":"14","name":"Sachsen"}},{"name":"Zwingerstr.","postalCode":"04720","locality":"Döbeln","municipality":{"key":"14522080","name":"Döbeln, Stadt","type":"Stadt"},"district":{"key":"14522","name":"Mittelsachsen","type":"Landkreis"},"federalState":{"key":"14","name":"Sachsen"}},]