[{"name":"Adalbert-Stifter-Str.","postalCode":"94330","locality":"Salching","municipality":{"key":"09278182","name":"Salching","type":"Kreisangehörige_Gemeinde"},"district":{"key":"09278","name":"Straubing-Bogen","type":"Landkreis"},"federalState":{"key":"09","name":"Bayern"}},{"name":"Aiterhofener Str.","postalCode":"94330","locality":"Salching","municipality":{"key":"09278182","name":"Salching","type":"Kreisangehörige_Gemeinde"},"district":{"key":"09278","name":"Straubing-Bogen","type":"Landkreis"},"federalState":{"key":"09","name":"Bayern"}},{"name":"Am Kindergarten","postalCode":"94330","locality":"Salching","municipality":{"key":"09278182","name":"Salching","type":"Kreisangehörige_Gemeinde"},"district":{"key":"09278","name":"Straubing-Bogen","type":"Landkreis"},"federalState":{"key":"09","name":"Bayern"}},{"name":"Am Pfingstberg","postalCode":"94330","locality":"Salching","municipality":{"key":"09278182","name":"Salching","type":"Kreisangehörige_Gemeinde"},"district":{"key":"09278","name":"Straubing-Bogen","type":"Landkreis"},"federalState":{"key":"09","name":"Bayern"}},{"name":"Am Reitplatz","postalCode":"94330","locality":"Salching","municipality":{"key":"09278182","name":"Salching","type":"Kreisangehörige_Gemeinde"},"district":{"key":"09278","name":"Straubing-Bogen","type":"Landkreis"},"federalState":{"key":"09","name":"Bayern"}},{"name":"Am Sportplatz","postalCode":"94330","locality":"Salching","municipality":{"key":"09278182","name":"Salching","type":"Kreisangehörige_Gemeinde"},"district":{"key":"09278","name":"Straubing-Bogen","type":"Landkreis"},"federalState":{"key":"09","name":"Bayern"}},{"name":"Anzenthaler Ring","postalCode":"94330","locality":"Salching","municipality":{"key":"09278182","name":"Salching","type":"Kreisangehörige_Gemeinde"},"district":{"key":"09278","name":"Straubing-Bogen","type":"Landkreis"},"federalState":{"key":"09","name":"Bayern"}},{"name":"Arberstr.","postalCode":"94330","locality":"Salching","municipality":{"key":"09278182","name":"Salching","type":"Kreisangehörige_Gemeinde"},"district":{"key":"09278","name":"Straubing-Bogen","type":"Landkreis"},"federalState":{"key":"09","name":"Bayern"}},{"name":"Bachstr.","postalCode":"94330","locality":"Salching","municipality":{"key":"09278182","name":"Salching","type":"Kreisangehörige_Gemeinde"},"district":{"key":"09278","name":"Straubing-Bogen","type":"Landkreis"},"federalState":{"key":"09","name":"Bayern"}},{"name":"Bayerwaldstr.","postalCode":"94330","locality":"Salching","municipality":{"key":"09278182","name":"Salching","type":"Kreisangehörige_Gemeinde"},"district":{"key":"09278","name":"Straubing-Bogen","type":"Landkreis"},"federalState":{"key":"09","name":"Bayern"}},{"name":"Bergäckerweg","postalCode":"94330","locality":"Salching","municipality":{"key":"09278182","name":"Salching","type":"Kreisangehörige_Gemeinde"},"district":{"key":"09278","name":"Straubing-Bogen","type":"Landkreis"},"federalState":{"key":"09","name":"Bayern"}},{"name":"Bergschneider Ring","postalCode":"94330","locality":"Salching","municipality":{"key":"09278182","name":"Salching","type":"Kreisangehörige_Gemeinde"},"district":{"key":"09278","name":"Straubing-Bogen","type":"Landkreis"},"federalState":{"key":"09","name":"Bayern"}},{"name":"Bergschneider Str.","postalCode":"94330","locality":"Salching","municipality":{"key":"09278182","name":"Salching","type":"Kreisangehörige_Gemeinde"},"district":{"key":"09278","name":"Straubing-Bogen","type":"Landkreis"},"federalState":{"key":"09","name":"Bayern"}},{"name":"Bergstr.","postalCode":"94330","locality":"Salching","municipality":{"key":"09278182","name":"Salching","type":"Kreisangehörige_Gemeinde"},"district":{"key":"09278","name":"Straubing-Bogen","type":"Landkreis"},"federalState":{"key":"09","name":"Bayern"}},{"name":"Birkenstr.","postalCode":"94330","locality":"Salching","municipality":{"key":"09278182","name":"Salching","type":"Kreisangehörige_Gemeinde"},"district":{"key":"09278","name":"Straubing-Bogen","type":"Landkreis"},"federalState":{"key":"09","name":"Bayern"}},{"name":"Blumenstr.","postalCode":"94330","locality":"Salching","municipality":{"key":"09278182","name":"Salching","type":"Kreisangehörige_Gemeinde"},"district":{"key":"09278","name":"Straubing-Bogen","type":"Landkreis"},"federalState":{"key":"09","name":"Bayern"}},{"name":"Brückenstr.","postalCode":"94330","locality":"Salching","municipality":{"key":"09278182","name":"Salching","type":"Kreisangehörige_Gemeinde"},"district":{"key":"09278","name":"Straubing-Bogen","type":"Landkreis"},"federalState":{"key":"09","name":"Bayern"}},{"name":"Carl-Laux-Str.","postalCode":"94330","locality":"Salching","municipality":{"key":"09278182","name":"Salching","type":"Kreisangehörige_Gemeinde"},"district":{"key":"09278","name":"Straubing-Bogen","type":"Landkreis"},"federalState":{"key":"09","name":"Bayern"}},{"name":"Dorfstr.","postalCode":"94330","locality":"Salching","municipality":{"key":"09278182","name":"Salching","type":"Kreisangehörige_Gemeinde"},"district":{"key":"09278","name":"Straubing-Bogen","type":"Landkreis"},"federalState":{"key":"09","name":"Bayern"}},{"name":"Eichenweg","postalCode":"94330","locality":"Salching","municipality":{"key":"09278182","name":"Salching","type":"Kreisangehörige_Gemeinde"},"district":{"key":"09278","name":"Straubing-Bogen","type":"Landkreis"},"federalState":{"key":"09","name":"Bayern"}},{"name":"Emmeramweg","postalCode":"94330","locality":"Salching","municipality":{"key":"09278182","name":"Salching","type":"Kreisangehörige_Gemeinde"},"district":{"key":"09278","name":"Straubing-Bogen","type":"Landkreis"},"federalState":{"key":"09","name":"Bayern"}},{"name":"Erlenweg","postalCode":"94330","locality":"Salching","municipality":{"key":"09278182","name":"Salching","type":"Kreisangehörige_Gemeinde"},"district":{"key":"09278","name":"Straubing-Bogen","type":"Landkreis"},"federalState":{"key":"09","name":"Bayern"}},{"name":"Espetstr.","postalCode":"94330","locality":"Salching","municipality":{"key":"09278182","name":"Salching","type":"Kreisangehörige_Gemeinde"},"district":{"key":"09278","name":"Straubing-Bogen","type":"Landkreis"},"federalState":{"key":"09","name":"Bayern"}},{"name":"Fliederweg","postalCode":"94330","locality":"Salching","municipality":{"key":"09278182","name":"Salching","type":"Kreisangehörige_Gemeinde"},"district":{"key":"09278","name":"Straubing-Bogen","type":"Landkreis"},"federalState":{"key":"09","name":"Bayern"}},{"name":"Gallnerweg","postalCode":"94330","locality":"Salching","municipality":{"key":"09278182","name":"Salching","type":"Kreisangehörige_Gemeinde"},"district":{"key":"09278","name":"Straubing-Bogen","type":"Landkreis"},"federalState":{"key":"09","name":"Bayern"}},{"name":"Gottschalkenstr.","postalCode":"94330","locality":"Salching","municipality":{"key":"09278182","name":"Salching","type":"Kreisangehörige_Gemeinde"},"district":{"key":"09278","name":"Straubing-Bogen","type":"Landkreis"},"federalState":{"key":"09","name":"Bayern"}},{"name":"Grundäckerstr.","postalCode":"94330","locality":"Salching","municipality":{"key":"09278182","name":"Salching","type":"Kreisangehörige_Gemeinde"},"district":{"key":"09278","name":"Straubing-Bogen","type":"Landkreis"},"federalState":{"key":"09","name":"Bayern"}},{"name":"Hans-Carossa-Str.","postalCode":"94330","locality":"Salching","municipality":{"key":"09278182","name":"Salching","type":"Kreisangehörige_Gemeinde"},"district":{"key":"09278","name":"Straubing-Bogen","type":"Landkreis"},"federalState":{"key":"09","name":"Bayern"}},{"name":"Hochweg","postalCode":"94330","locality":"Salching","municipality":{"key":"09278182","name":"Salching","type":"Kreisangehörige_Gemeinde"},"district":{"key":"09278","name":"Straubing-Bogen","type":"Landkreis"},"federalState":{"key":"09","name":"Bayern"}},{"name":"Josef-Schlicht-Str.","postalCode":"94330","locality":"Salching","municipality":{"key":"09278182","name":"Salching","type":"Kreisangehörige_Gemeinde"},"district":{"key":"09278","name":"Straubing-Bogen","type":"Landkreis"},"federalState":{"key":"09","name":"Bayern"}},{"name":"Kirchbreite","postalCode":"94330","locality":"Salching","municipality":{"key":"09278182","name":"Salching","type":"Kreisangehörige_Gemeinde"},"district":{"key":"09278","name":"Straubing-Bogen","type":"Landkreis"},"federalState":{"key":"09","name":"Bayern"}},{"name":"Kirchmatting","postalCode":"94330","locality":"Salching","municipality":{"key":"09278182","name":"Salching","type":"Kreisangehörige_Gemeinde"},"district":{"key":"09278","name":"Straubing-Bogen","type":"Landkreis"},"federalState":{"key":"09","name":"Bayern"}},{"name":"Kirchmattinger Str.","postalCode":"94330","locality":"Salching","municipality":{"key":"09278182","name":"Salching","type":"Kreisangehörige_Gemeinde"},"district":{"key":"09278","name":"Straubing-Bogen","type":"Landkreis"},"federalState":{"key":"09","name":"Bayern"}},{"name":"Kirchstr.","postalCode":"94330","locality":"Salching","municipality":{"key":"09278182","name":"Salching","type":"Kreisangehörige_Gemeinde"},"district":{"key":"09278","name":"Straubing-Bogen","type":"Landkreis"},"federalState":{"key":"09","name":"Bayern"}},{"name":"Landshuter Str.","postalCode":"94330","locality":"Salching","municipality":{"key":"09278182","name":"Salching","type":"Kreisangehörige_Gemeinde"},"district":{"key":"09278","name":"Straubing-Bogen","type":"Landkreis"},"federalState":{"key":"09","name":"Bayern"}},{"name":"Lindenstr.","postalCode":"94330","locality":"Salching","municipality":{"key":"09278182","name":"Salching","type":"Kreisangehörige_Gemeinde"},"district":{"key":"09278","name":"Straubing-Bogen","type":"Landkreis"},"federalState":{"key":"09","name":"Bayern"}},{"name":"Lusenweg","postalCode":"94330","locality":"Salching","municipality":{"key":"09278182","name":"Salching","type":"Kreisangehörige_Gemeinde"},"district":{"key":"09278","name":"Straubing-Bogen","type":"Landkreis"},"federalState":{"key":"09","name":"Bayern"}},{"name":"Mattinger Weg","postalCode":"94330","locality":"Salching","municipality":{"key":"09278182","name":"Salching","type":"Kreisangehörige_Gemeinde"},"district":{"key":"09278","name":"Straubing-Bogen","type":"Landkreis"},"federalState":{"key":"09","name":"Bayern"}},{"name":"Max-Peinkofer-Str.","postalCode":"94330","locality":"Salching","municipality":{"key":"09278182","name":"Salching","type":"Kreisangehörige_Gemeinde"},"district":{"key":"09278","name":"Straubing-Bogen","type":"Landkreis"},"federalState":{"key":"09","name":"Bayern"}},{"name":"Mooswiesenweg","postalCode":"94330","locality":"Salching","municipality":{"key":"09278182","name":"Salching","type":"Kreisangehörige_Gemeinde"},"district":{"key":"09278","name":"Straubing-Bogen","type":"Landkreis"},"federalState":{"key":"09","name":"Bayern"}},{"name":"Mühlenweg","postalCode":"94330","locality":"Salching","municipality":{"key":"09278182","name":"Salching","type":"Kreisangehörige_Gemeinde"},"district":{"key":"09278","name":"Straubing-Bogen","type":"Landkreis"},"federalState":{"key":"09","name":"Bayern"}},{"name":"Niederpiebing","postalCode":"94330","locality":"Salching","municipality":{"key":"09278182","name":"Salching","type":"Kreisangehörige_Gemeinde"},"district":{"key":"09278","name":"Straubing-Bogen","type":"Landkreis"},"federalState":{"key":"09","name":"Bayern"}},{"name":"Niederpiebinginger Str.","postalCode":"94330","locality":"Salching","municipality":{"key":"09278182","name":"Salching","type":"Kreisangehörige_Gemeinde"},"district":{"key":"09278","name":"Straubing-Bogen","type":"Landkreis"},"federalState":{"key":"09","name":"Bayern"}},{"name":"Osserweg","postalCode":"94330","locality":"Salching","municipality":{"key":"09278182","name":"Salching","type":"Kreisangehörige_Gemeinde"},"district":{"key":"09278","name":"Straubing-Bogen","type":"Landkreis"},"federalState":{"key":"09","name":"Bayern"}},{"name":"Otmarweg","postalCode":"94330","locality":"Salching","municipality":{"key":"09278182","name":"Salching","type":"Kreisangehörige_Gemeinde"},"district":{"key":"09278","name":"Straubing-Bogen","type":"Landkreis"},"federalState":{"key":"09","name":"Bayern"}},{"name":"Pfaffenpoint","postalCode":"94330","locality":"Salching","municipality":{"key":"09278182","name":"Salching","type":"Kreisangehörige_Gemeinde"},"district":{"key":"09278","name":"Straubing-Bogen","type":"Landkreis"},"federalState":{"key":"09","name":"Bayern"}},{"name":"Pfahlweg","postalCode":"94330","locality":"Salching","municipality":{"key":"09278182","name":"Salching","type":"Kreisangehörige_Gemeinde"},"district":{"key":"09278","name":"Straubing-Bogen","type":"Landkreis"},"federalState":{"key":"09","name":"Bayern"}},{"name":"Pfingstbergstr.","postalCode":"94330","locality":"Salching","municipality":{"key":"09278182","name":"Salching","type":"Kreisangehörige_Gemeinde"},"district":{"key":"09278","name":"Straubing-Bogen","type":"Landkreis"},"federalState":{"key":"09","name":"Bayern"}},{"name":"Pieringer Weg","postalCode":"94330","locality":"Salching","municipality":{"key":"09278182","name":"Salching","type":"Kreisangehörige_Gemeinde"},"district":{"key":"09278","name":"Straubing-Bogen","type":"Landkreis"},"federalState":{"key":"09","name":"Bayern"}},{"name":"Pröllerstr.","postalCode":"94330","locality":"Salching","municipality":{"key":"09278182","name":"Salching","type":"Kreisangehörige_Gemeinde"},"district":{"key":"09278","name":"Straubing-Bogen","type":"Landkreis"},"federalState":{"key":"09","name":"Bayern"}},{"name":"Rachelweg","postalCode":"94330","locality":"Salching","municipality":{"key":"09278182","name":"Salching","type":"Kreisangehörige_Gemeinde"},"district":{"key":"09278","name":"Straubing-Bogen","type":"Landkreis"},"federalState":{"key":"09","name":"Bayern"}},{"name":"Ramwoldweg","postalCode":"94330","locality":"Salching","municipality":{"key":"09278182","name":"Salching","type":"Kreisangehörige_Gemeinde"},"district":{"key":"09278","name":"Straubing-Bogen","type":"Landkreis"},"federalState":{"key":"09","name":"Bayern"}},{"name":"Ringstr.","postalCode":"94330","locality":"Salching","municipality":{"key":"09278182","name":"Salching","type":"Kreisangehörige_Gemeinde"},"district":{"key":"09278","name":"Straubing-Bogen","type":"Landkreis"},"federalState":{"key":"09","name":"Bayern"}},{"name":"Rosengasse","postalCode":"94330","locality":"Salching","municipality":{"key":"09278182","name":"Salching","type":"Kreisangehörige_Gemeinde"},"district":{"key":"09278","name":"Straubing-Bogen","type":"Landkreis"},"federalState":{"key":"09","name":"Bayern"}},{"name":"Ruselweg","postalCode":"94330","locality":"Salching","municipality":{"key":"09278182","name":"Salching","type":"Kreisangehörige_Gemeinde"},"district":{"key":"09278","name":"Straubing-Bogen","type":"Landkreis"},"federalState":{"key":"09","name":"Bayern"}},{"name":"Schlehenweg","postalCode":"94330","locality":"Salching","municipality":{"key":"09278182","name":"Salching","type":"Kreisangehörige_Gemeinde"},"district":{"key":"09278","name":"Straubing-Bogen","type":"Landkreis"},"federalState":{"key":"09","name":"Bayern"}},{"name":"Schulstr.","postalCode":"94330","locality":"Salching","municipality":{"key":"09278182","name":"Salching","type":"Kreisangehörige_Gemeinde"},"district":{"key":"09278","name":"Straubing-Bogen","type":"Landkreis"},"federalState":{"key":"09","name":"Bayern"}},{"name":"Stadtfeldstr.","postalCode":"94330","locality":"Salching","municipality":{"key":"09278182","name":"Salching","type":"Kreisangehörige_Gemeinde"},"district":{"key":"09278","name":"Straubing-Bogen","type":"Landkreis"},"federalState":{"key":"09","name":"Bayern"}},{"name":"St.-Nikolaus-Str.","postalCode":"94330","locality":"Salching","municipality":{"key":"09278182","name":"Salching","type":"Kreisangehörige_Gemeinde"},"district":{"key":"09278","name":"Straubing-Bogen","type":"Landkreis"},"federalState":{"key":"09","name":"Bayern"}},{"name":"Taginoweg","postalCode":"94330","locality":"Salching","municipality":{"key":"09278182","name":"Salching","type":"Kreisangehörige_Gemeinde"},"district":{"key":"09278","name":"Straubing-Bogen","type":"Landkreis"},"federalState":{"key":"09","name":"Bayern"}},{"name":"Ulmenweg","postalCode":"94330","locality":"Salching","municipality":{"key":"09278182","name":"Salching","type":"Kreisangehörige_Gemeinde"},"district":{"key":"09278","name":"Straubing-Bogen","type":"Landkreis"},"federalState":{"key":"09","name":"Bayern"}},{"name":"Waldstr.","postalCode":"94330","locality":"Salching","municipality":{"key":"09278182","name":"Salching","type":"Kreisangehörige_Gemeinde"},"district":{"key":"09278","name":"Straubing-Bogen","type":"Landkreis"},"federalState":{"key":"09","name":"Bayern"}},{"name":"Wolfgangstr.","postalCode":"94330","locality":"Salching","municipality":{"key":"09278182","name":"Salching","type":"Kreisangehörige_Gemeinde"},"district":{"key":"09278","name":"Straubing-Bogen","type":"Landkreis"},"federalState":{"key":"09","name":"Bayern"}},]