[{"name":"Adtring","postalCode":"63607","locality":"Wächtersbach","municipality":{"key":"06435029","name":"Wächtersbach, Stadt","type":"Stadt"},"district":{"key":"06435","name":"Main-Kinzig-Kreis","type":"Landkreis"},"federalState":{"key":"06","name":"Hessen"}},{"name":"Alsfelder Str.","postalCode":"63607","locality":"Wächtersbach","municipality":{"key":"06435029","name":"Wächtersbach, Stadt","type":"Stadt"},"district":{"key":"06435","name":"Main-Kinzig-Kreis","type":"Landkreis"},"federalState":{"key":"06","name":"Hessen"}},{"name":"Am Bahnhof","postalCode":"63607","locality":"Wächtersbach","municipality":{"key":"06435029","name":"Wächtersbach, Stadt","type":"Stadt"},"district":{"key":"06435","name":"Main-Kinzig-Kreis","type":"Landkreis"},"federalState":{"key":"06","name":"Hessen"}},{"name":"Am Holderstrauch","postalCode":"63607","locality":"Wächtersbach","municipality":{"key":"06435029","name":"Wächtersbach, Stadt","type":"Stadt"},"district":{"key":"06435","name":"Main-Kinzig-Kreis","type":"Landkreis"},"federalState":{"key":"06","name":"Hessen"}},{"name":"Am Köhlersgraben","postalCode":"63607","locality":"Wächtersbach","municipality":{"key":"06435029","name":"Wächtersbach, Stadt","type":"Stadt"},"district":{"key":"06435","name":"Main-Kinzig-Kreis","type":"Landkreis"},"federalState":{"key":"06","name":"Hessen"}},{"name":"Am Rosengarten","postalCode":"63607","locality":"Wächtersbach","municipality":{"key":"06435029","name":"Wächtersbach, Stadt","type":"Stadt"},"district":{"key":"06435","name":"Main-Kinzig-Kreis","type":"Landkreis"},"federalState":{"key":"06","name":"Hessen"}},{"name":"Am Roten Berg","postalCode":"63607","locality":"Wächtersbach","municipality":{"key":"06435029","name":"Wächtersbach, Stadt","type":"Stadt"},"district":{"key":"06435","name":"Main-Kinzig-Kreis","type":"Landkreis"},"federalState":{"key":"06","name":"Hessen"}},{"name":"Am Sandacker","postalCode":"63607","locality":"Wächtersbach","municipality":{"key":"06435029","name":"Wächtersbach, Stadt","type":"Stadt"},"district":{"key":"06435","name":"Main-Kinzig-Kreis","type":"Landkreis"},"federalState":{"key":"06","name":"Hessen"}},{"name":"Am Schloßgarten","postalCode":"63607","locality":"Wächtersbach","municipality":{"key":"06435029","name":"Wächtersbach, Stadt","type":"Stadt"},"district":{"key":"06435","name":"Main-Kinzig-Kreis","type":"Landkreis"},"federalState":{"key":"06","name":"Hessen"}},{"name":"Am Schwarzen Stock","postalCode":"63607","locality":"Wächtersbach","municipality":{"key":"06435029","name":"Wächtersbach, Stadt","type":"Stadt"},"district":{"key":"06435","name":"Main-Kinzig-Kreis","type":"Landkreis"},"federalState":{"key":"06","name":"Hessen"}},{"name":"Am Sportplatz","postalCode":"63607","locality":"Wächtersbach","municipality":{"key":"06435029","name":"Wächtersbach, Stadt","type":"Stadt"},"district":{"key":"06435","name":"Main-Kinzig-Kreis","type":"Landkreis"},"federalState":{"key":"06","name":"Hessen"}},{"name":"An der Etzweide","postalCode":"63607","locality":"Wächtersbach","municipality":{"key":"06435029","name":"Wächtersbach, Stadt","type":"Stadt"},"district":{"key":"06435","name":"Main-Kinzig-Kreis","type":"Landkreis"},"federalState":{"key":"06","name":"Hessen"}},{"name":"An der Kirche","postalCode":"63607","locality":"Wächtersbach","municipality":{"key":"06435029","name":"Wächtersbach, Stadt","type":"Stadt"},"district":{"key":"06435","name":"Main-Kinzig-Kreis","type":"Landkreis"},"federalState":{"key":"06","name":"Hessen"}},{"name":"An der Weihertanne","postalCode":"63607","locality":"Wächtersbach","municipality":{"key":"06435029","name":"Wächtersbach, Stadt","type":"Stadt"},"district":{"key":"06435","name":"Main-Kinzig-Kreis","type":"Landkreis"},"federalState":{"key":"06","name":"Hessen"}},{"name":"Arnaudstr.","postalCode":"63607","locality":"Wächtersbach","municipality":{"key":"06435029","name":"Wächtersbach, Stadt","type":"Stadt"},"district":{"key":"06435","name":"Main-Kinzig-Kreis","type":"Landkreis"},"federalState":{"key":"06","name":"Hessen"}},{"name":"Auf der Herrenweide","postalCode":"63607","locality":"Wächtersbach","municipality":{"key":"06435029","name":"Wächtersbach, Stadt","type":"Stadt"},"district":{"key":"06435","name":"Main-Kinzig-Kreis","type":"Landkreis"},"federalState":{"key":"06","name":"Hessen"}},{"name":"Auf der neuen Kohlaue","postalCode":"63607","locality":"Wächtersbach","municipality":{"key":"06435029","name":"Wächtersbach, Stadt","type":"Stadt"},"district":{"key":"06435","name":"Main-Kinzig-Kreis","type":"Landkreis"},"federalState":{"key":"06","name":"Hessen"}},{"name":"Aufenauer Str.","postalCode":"63607","locality":"Wächtersbach","municipality":{"key":"06435029","name":"Wächtersbach, Stadt","type":"Stadt"},"district":{"key":"06435","name":"Main-Kinzig-Kreis","type":"Landkreis"},"federalState":{"key":"06","name":"Hessen"}},{"name":"Augsburger Str.","postalCode":"63607","locality":"Wächtersbach","municipality":{"key":"06435029","name":"Wächtersbach, Stadt","type":"Stadt"},"district":{"key":"06435","name":"Main-Kinzig-Kreis","type":"Landkreis"},"federalState":{"key":"06","name":"Hessen"}},{"name":"August-Genth-Str.","postalCode":"63607","locality":"Wächtersbach","municipality":{"key":"06435029","name":"Wächtersbach, Stadt","type":"Stadt"},"district":{"key":"06435","name":"Main-Kinzig-Kreis","type":"Landkreis"},"federalState":{"key":"06","name":"Hessen"}},{"name":"Auweg","postalCode":"63607","locality":"Wächtersbach","municipality":{"key":"06435029","name":"Wächtersbach, Stadt","type":"Stadt"},"district":{"key":"06435","name":"Main-Kinzig-Kreis","type":"Landkreis"},"federalState":{"key":"06","name":"Hessen"}},{"name":"Bachstr.","postalCode":"63607","locality":"Wächtersbach","municipality":{"key":"06435029","name":"Wächtersbach, Stadt","type":"Stadt"},"district":{"key":"06435","name":"Main-Kinzig-Kreis","type":"Landkreis"},"federalState":{"key":"06","name":"Hessen"}},{"name":"Bad Orber Str.","postalCode":"63607","locality":"Wächtersbach","municipality":{"key":"06435029","name":"Wächtersbach, Stadt","type":"Stadt"},"district":{"key":"06435","name":"Main-Kinzig-Kreis","type":"Landkreis"},"federalState":{"key":"06","name":"Hessen"}},{"name":"Bahnhofstr.","postalCode":"63607","locality":"Wächtersbach","municipality":{"key":"06435029","name":"Wächtersbach, Stadt","type":"Stadt"},"district":{"key":"06435","name":"Main-Kinzig-Kreis","type":"Landkreis"},"federalState":{"key":"06","name":"Hessen"}},{"name":"Bamberger Str.","postalCode":"63607","locality":"Wächtersbach","municipality":{"key":"06435029","name":"Wächtersbach, Stadt","type":"Stadt"},"district":{"key":"06435","name":"Main-Kinzig-Kreis","type":"Landkreis"},"federalState":{"key":"06","name":"Hessen"}},{"name":"Basaltstr.","postalCode":"63607","locality":"Wächtersbach","municipality":{"key":"06435029","name":"Wächtersbach, Stadt","type":"Stadt"},"district":{"key":"06435","name":"Main-Kinzig-Kreis","type":"Landkreis"},"federalState":{"key":"06","name":"Hessen"}},{"name":"Baumgartenweg","postalCode":"63607","locality":"Wächtersbach","municipality":{"key":"06435029","name":"Wächtersbach, Stadt","type":"Stadt"},"district":{"key":"06435","name":"Main-Kinzig-Kreis","type":"Landkreis"},"federalState":{"key":"06","name":"Hessen"}},{"name":"Bergstr.","postalCode":"63607","locality":"Wächtersbach","municipality":{"key":"06435029","name":"Wächtersbach, Stadt","type":"Stadt"},"district":{"key":"06435","name":"Main-Kinzig-Kreis","type":"Landkreis"},"federalState":{"key":"06","name":"Hessen"}},{"name":"Birkenstr.","postalCode":"63607","locality":"Wächtersbach","municipality":{"key":"06435029","name":"Wächtersbach, Stadt","type":"Stadt"},"district":{"key":"06435","name":"Main-Kinzig-Kreis","type":"Landkreis"},"federalState":{"key":"06","name":"Hessen"}},{"name":"Birsteiner Str.","postalCode":"63607","locality":"Wächtersbach","municipality":{"key":"06435029","name":"Wächtersbach, Stadt","type":"Stadt"},"district":{"key":"06435","name":"Main-Kinzig-Kreis","type":"Landkreis"},"federalState":{"key":"06","name":"Hessen"}},{"name":"Bleichgartenstr.","postalCode":"63607","locality":"Wächtersbach","municipality":{"key":"06435029","name":"Wächtersbach, Stadt","type":"Stadt"},"district":{"key":"06435","name":"Main-Kinzig-Kreis","type":"Landkreis"},"federalState":{"key":"06","name":"Hessen"}},{"name":"Blumenweg","postalCode":"63607","locality":"Wächtersbach","municipality":{"key":"06435029","name":"Wächtersbach, Stadt","type":"Stadt"},"district":{"key":"06435","name":"Main-Kinzig-Kreis","type":"Landkreis"},"federalState":{"key":"06","name":"Hessen"}},{"name":"Bonnetstr.","postalCode":"63607","locality":"Wächtersbach","municipality":{"key":"06435029","name":"Wächtersbach, Stadt","type":"Stadt"},"district":{"key":"06435","name":"Main-Kinzig-Kreis","type":"Landkreis"},"federalState":{"key":"06","name":"Hessen"}},{"name":"Bornring","postalCode":"63607","locality":"Wächtersbach","municipality":{"key":"06435029","name":"Wächtersbach, Stadt","type":"Stadt"},"district":{"key":"06435","name":"Main-Kinzig-Kreis","type":"Landkreis"},"federalState":{"key":"06","name":"Hessen"}},{"name":"Bornweg","postalCode":"63607","locality":"Wächtersbach","municipality":{"key":"06435029","name":"Wächtersbach, Stadt","type":"Stadt"},"district":{"key":"06435","name":"Main-Kinzig-Kreis","type":"Landkreis"},"federalState":{"key":"06","name":"Hessen"}},{"name":"Bösweg","postalCode":"63607","locality":"Wächtersbach","municipality":{"key":"06435029","name":"Wächtersbach, Stadt","type":"Stadt"},"district":{"key":"06435","name":"Main-Kinzig-Kreis","type":"Landkreis"},"federalState":{"key":"06","name":"Hessen"}},{"name":"Brachttalstr.","postalCode":"63607","locality":"Wächtersbach","municipality":{"key":"06435029","name":"Wächtersbach, Stadt","type":"Stadt"},"district":{"key":"06435","name":"Main-Kinzig-Kreis","type":"Landkreis"},"federalState":{"key":"06","name":"Hessen"}},{"name":"Breitenborner Str.","postalCode":"63607","locality":"Wächtersbach","municipality":{"key":"06435029","name":"Wächtersbach, Stadt","type":"Stadt"},"district":{"key":"06435","name":"Main-Kinzig-Kreis","type":"Landkreis"},"federalState":{"key":"06","name":"Hessen"}},{"name":"Brückenauer Str.","postalCode":"63607","locality":"Wächtersbach","municipality":{"key":"06435029","name":"Wächtersbach, Stadt","type":"Stadt"},"district":{"key":"06435","name":"Main-Kinzig-Kreis","type":"Landkreis"},"federalState":{"key":"06","name":"Hessen"}},{"name":"Brückenstr.","postalCode":"63607","locality":"Wächtersbach","municipality":{"key":"06435029","name":"Wächtersbach, Stadt","type":"Stadt"},"district":{"key":"06435","name":"Main-Kinzig-Kreis","type":"Landkreis"},"federalState":{"key":"06","name":"Hessen"}},{"name":"Brühlstr.","postalCode":"63607","locality":"Wächtersbach","municipality":{"key":"06435029","name":"Wächtersbach, Stadt","type":"Stadt"},"district":{"key":"06435","name":"Main-Kinzig-Kreis","type":"Landkreis"},"federalState":{"key":"06","name":"Hessen"}},{"name":"Brunnenstr.","postalCode":"63607","locality":"Wächtersbach","municipality":{"key":"06435029","name":"Wächtersbach, Stadt","type":"Stadt"},"district":{"key":"06435","name":"Main-Kinzig-Kreis","type":"Landkreis"},"federalState":{"key":"06","name":"Hessen"}},{"name":"Büdinger Weg","postalCode":"63607","locality":"Wächtersbach","municipality":{"key":"06435029","name":"Wächtersbach, Stadt","type":"Stadt"},"district":{"key":"06435","name":"Main-Kinzig-Kreis","type":"Landkreis"},"federalState":{"key":"06","name":"Hessen"}},{"name":"Burggasse","postalCode":"63607","locality":"Wächtersbach","municipality":{"key":"06435029","name":"Wächtersbach, Stadt","type":"Stadt"},"district":{"key":"06435","name":"Main-Kinzig-Kreis","type":"Landkreis"},"federalState":{"key":"06","name":"Hessen"}},{"name":"Calaminusstr.","postalCode":"63607","locality":"Wächtersbach","municipality":{"key":"06435029","name":"Wächtersbach, Stadt","type":"Stadt"},"district":{"key":"06435","name":"Main-Kinzig-Kreis","type":"Landkreis"},"federalState":{"key":"06","name":"Hessen"}},{"name":"Chatilloner Str.","postalCode":"63607","locality":"Wächtersbach","municipality":{"key":"06435029","name":"Wächtersbach, Stadt","type":"Stadt"},"district":{"key":"06435","name":"Main-Kinzig-Kreis","type":"Landkreis"},"federalState":{"key":"06","name":"Hessen"}},{"name":"Christianweg","postalCode":"63607","locality":"Wächtersbach","municipality":{"key":"06435029","name":"Wächtersbach, Stadt","type":"Stadt"},"district":{"key":"06435","name":"Main-Kinzig-Kreis","type":"Landkreis"},"federalState":{"key":"06","name":"Hessen"}},{"name":"Dammweg","postalCode":"63607","locality":"Wächtersbach","municipality":{"key":"06435029","name":"Wächtersbach, Stadt","type":"Stadt"},"district":{"key":"06435","name":"Main-Kinzig-Kreis","type":"Landkreis"},"federalState":{"key":"06","name":"Hessen"}},{"name":"Dietrichsberg","postalCode":"63607","locality":"Wächtersbach","municipality":{"key":"06435029","name":"Wächtersbach, Stadt","type":"Stadt"},"district":{"key":"06435","name":"Main-Kinzig-Kreis","type":"Landkreis"},"federalState":{"key":"06","name":"Hessen"}},{"name":"Dorfplatzstr.","postalCode":"63607","locality":"Wächtersbach","municipality":{"key":"06435029","name":"Wächtersbach, Stadt","type":"Stadt"},"district":{"key":"06435","name":"Main-Kinzig-Kreis","type":"Landkreis"},"federalState":{"key":"06","name":"Hessen"}},{"name":"Erlenweg","postalCode":"63607","locality":"Wächtersbach","municipality":{"key":"06435029","name":"Wächtersbach, Stadt","type":"Stadt"},"district":{"key":"06435","name":"Main-Kinzig-Kreis","type":"Landkreis"},"federalState":{"key":"06","name":"Hessen"}},{"name":"Eulenofenrain","postalCode":"63607","locality":"Wächtersbach","municipality":{"key":"06435029","name":"Wächtersbach, Stadt","type":"Stadt"},"district":{"key":"06435","name":"Main-Kinzig-Kreis","type":"Landkreis"},"federalState":{"key":"06","name":"Hessen"}},{"name":"Feldbergstr.","postalCode":"63607","locality":"Wächtersbach","municipality":{"key":"06435029","name":"Wächtersbach, Stadt","type":"Stadt"},"district":{"key":"06435","name":"Main-Kinzig-Kreis","type":"Landkreis"},"federalState":{"key":"06","name":"Hessen"}},{"name":"Feldstr.","postalCode":"63607","locality":"Wächtersbach","municipality":{"key":"06435029","name":"Wächtersbach, Stadt","type":"Stadt"},"district":{"key":"06435","name":"Main-Kinzig-Kreis","type":"Landkreis"},"federalState":{"key":"06","name":"Hessen"}},{"name":"Festplatzstr.","postalCode":"63607","locality":"Wächtersbach","municipality":{"key":"06435029","name":"Wächtersbach, Stadt","type":"Stadt"},"district":{"key":"06435","name":"Main-Kinzig-Kreis","type":"Landkreis"},"federalState":{"key":"06","name":"Hessen"}},{"name":"Forsthof","postalCode":"63607","locality":"Wächtersbach","municipality":{"key":"06435029","name":"Wächtersbach, Stadt","type":"Stadt"},"district":{"key":"06435","name":"Main-Kinzig-Kreis","type":"Landkreis"},"federalState":{"key":"06","name":"Hessen"}},{"name":"Frankfurter Str.","postalCode":"63607","locality":"Wächtersbach","municipality":{"key":"06435029","name":"Wächtersbach, Stadt","type":"Stadt"},"district":{"key":"06435","name":"Main-Kinzig-Kreis","type":"Landkreis"},"federalState":{"key":"06","name":"Hessen"}},{"name":"Friedrich-Eckert-Str.","postalCode":"63607","locality":"Wächtersbach","municipality":{"key":"06435029","name":"Wächtersbach, Stadt","type":"Stadt"},"district":{"key":"06435","name":"Main-Kinzig-Kreis","type":"Landkreis"},"federalState":{"key":"06","name":"Hessen"}},{"name":"Friedrich-Wilhelm-Str.","postalCode":"63607","locality":"Wächtersbach","municipality":{"key":"06435029","name":"Wächtersbach, Stadt","type":"Stadt"},"district":{"key":"06435","name":"Main-Kinzig-Kreis","type":"Landkreis"},"federalState":{"key":"06","name":"Hessen"}},{"name":"Fünfkirchener Str.","postalCode":"63607","locality":"Wächtersbach","municipality":{"key":"06435029","name":"Wächtersbach, Stadt","type":"Stadt"},"district":{"key":"06435","name":"Main-Kinzig-Kreis","type":"Landkreis"},"federalState":{"key":"06","name":"Hessen"}},{"name":"Fürstenhofweg","postalCode":"63607","locality":"Wächtersbach","municipality":{"key":"06435029","name":"Wächtersbach, Stadt","type":"Stadt"},"district":{"key":"06435","name":"Main-Kinzig-Kreis","type":"Landkreis"},"federalState":{"key":"06","name":"Hessen"}},{"name":"Fürther Str.","postalCode":"63607","locality":"Wächtersbach","municipality":{"key":"06435029","name":"Wächtersbach, Stadt","type":"Stadt"},"district":{"key":"06435","name":"Main-Kinzig-Kreis","type":"Landkreis"},"federalState":{"key":"06","name":"Hessen"}},{"name":"Gartenstr.","postalCode":"63607","locality":"Wächtersbach","municipality":{"key":"06435029","name":"Wächtersbach, Stadt","type":"Stadt"},"district":{"key":"06435","name":"Main-Kinzig-Kreis","type":"Landkreis"},"federalState":{"key":"06","name":"Hessen"}},{"name":"Gelnhäuser Str.","postalCode":"63607","locality":"Wächtersbach","municipality":{"key":"06435029","name":"Wächtersbach, Stadt","type":"Stadt"},"district":{"key":"06435","name":"Main-Kinzig-Kreis","type":"Landkreis"},"federalState":{"key":"06","name":"Hessen"}},{"name":"Gerhart-Hauptmann-Str.","postalCode":"63607","locality":"Wächtersbach","municipality":{"key":"06435029","name":"Wächtersbach, Stadt","type":"Stadt"},"district":{"key":"06435","name":"Main-Kinzig-Kreis","type":"Landkreis"},"federalState":{"key":"06","name":"Hessen"}},{"name":"Gettenbacher Str.","postalCode":"63607","locality":"Wächtersbach","municipality":{"key":"06435029","name":"Wächtersbach, Stadt","type":"Stadt"},"district":{"key":"06435","name":"Main-Kinzig-Kreis","type":"Landkreis"},"federalState":{"key":"06","name":"Hessen"}},{"name":"Goethestr.","postalCode":"63607","locality":"Wächtersbach","municipality":{"key":"06435029","name":"Wächtersbach, Stadt","type":"Stadt"},"district":{"key":"06435","name":"Main-Kinzig-Kreis","type":"Landkreis"},"federalState":{"key":"06","name":"Hessen"}},{"name":"Grimmstr.","postalCode":"63607","locality":"Wächtersbach","municipality":{"key":"06435029","name":"Wächtersbach, Stadt","type":"Stadt"},"district":{"key":"06435","name":"Main-Kinzig-Kreis","type":"Landkreis"},"federalState":{"key":"06","name":"Hessen"}},{"name":"Hainhofweg","postalCode":"63607","locality":"Wächtersbach","municipality":{"key":"06435029","name":"Wächtersbach, Stadt","type":"Stadt"},"district":{"key":"06435","name":"Main-Kinzig-Kreis","type":"Landkreis"},"federalState":{"key":"06","name":"Hessen"}},{"name":"Haitzer Str.","postalCode":"63607","locality":"Wächtersbach","municipality":{"key":"06435029","name":"Wächtersbach, Stadt","type":"Stadt"},"district":{"key":"06435","name":"Main-Kinzig-Kreis","type":"Landkreis"},"federalState":{"key":"06","name":"Hessen"}},{"name":"Hans Engelfried Brücke","postalCode":"63607","locality":"Wächtersbach","municipality":{"key":"06435029","name":"Wächtersbach, Stadt","type":"Stadt"},"district":{"key":"06435","name":"Main-Kinzig-Kreis","type":"Landkreis"},"federalState":{"key":"06","name":"Hessen"}},{"name":"Heegstr.","postalCode":"63607","locality":"Wächtersbach","municipality":{"key":"06435029","name":"Wächtersbach, Stadt","type":"Stadt"},"district":{"key":"06435","name":"Main-Kinzig-Kreis","type":"Landkreis"},"federalState":{"key":"06","name":"Hessen"}},{"name":"Heinestr.","postalCode":"63607","locality":"Wächtersbach","municipality":{"key":"06435029","name":"Wächtersbach, Stadt","type":"Stadt"},"district":{"key":"06435","name":"Main-Kinzig-Kreis","type":"Landkreis"},"federalState":{"key":"06","name":"Hessen"}},{"name":"Heinrich-Wagner-Weg","postalCode":"63607","locality":"Wächtersbach","municipality":{"key":"06435029","name":"Wächtersbach, Stadt","type":"Stadt"},"district":{"key":"06435","name":"Main-Kinzig-Kreis","type":"Landkreis"},"federalState":{"key":"06","name":"Hessen"}},{"name":"Hellsteiner Str.","postalCode":"63607","locality":"Wächtersbach","municipality":{"key":"06435029","name":"Wächtersbach, Stadt","type":"Stadt"},"district":{"key":"06435","name":"Main-Kinzig-Kreis","type":"Landkreis"},"federalState":{"key":"06","name":"Hessen"}},{"name":"Herbsteiner Weg","postalCode":"63607","locality":"Wächtersbach","municipality":{"key":"06435029","name":"Wächtersbach, Stadt","type":"Stadt"},"district":{"key":"06435","name":"Main-Kinzig-Kreis","type":"Landkreis"},"federalState":{"key":"06","name":"Hessen"}},{"name":"Hermann-Löns-Str.","postalCode":"63607","locality":"Wächtersbach","municipality":{"key":"06435029","name":"Wächtersbach, Stadt","type":"Stadt"},"district":{"key":"06435","name":"Main-Kinzig-Kreis","type":"Landkreis"},"federalState":{"key":"06","name":"Hessen"}},{"name":"Herzgrabenstr.","postalCode":"63607","locality":"Wächtersbach","municipality":{"key":"06435029","name":"Wächtersbach, Stadt","type":"Stadt"},"district":{"key":"06435","name":"Main-Kinzig-Kreis","type":"Landkreis"},"federalState":{"key":"06","name":"Hessen"}},{"name":"Hesseldorfer Str.","postalCode":"63607","locality":"Wächtersbach","municipality":{"key":"06435029","name":"Wächtersbach, Stadt","type":"Stadt"},"district":{"key":"06435","name":"Main-Kinzig-Kreis","type":"Landkreis"},"federalState":{"key":"06","name":"Hessen"}},{"name":"Hessengasse","postalCode":"63607","locality":"Wächtersbach","municipality":{"key":"06435029","name":"Wächtersbach, Stadt","type":"Stadt"},"district":{"key":"06435","name":"Main-Kinzig-Kreis","type":"Landkreis"},"federalState":{"key":"06","name":"Hessen"}},{"name":"Hilgeseichweg","postalCode":"63607","locality":"Wächtersbach","municipality":{"key":"06435029","name":"Wächtersbach, Stadt","type":"Stadt"},"district":{"key":"06435","name":"Main-Kinzig-Kreis","type":"Landkreis"},"federalState":{"key":"06","name":"Hessen"}},{"name":"Hippegasse","postalCode":"63607","locality":"Wächtersbach","municipality":{"key":"06435029","name":"Wächtersbach, Stadt","type":"Stadt"},"district":{"key":"06435","name":"Main-Kinzig-Kreis","type":"Landkreis"},"federalState":{"key":"06","name":"Hessen"}},{"name":"Hirtengasse","postalCode":"63607","locality":"Wächtersbach","municipality":{"key":"06435029","name":"Wächtersbach, Stadt","type":"Stadt"},"district":{"key":"06435","name":"Main-Kinzig-Kreis","type":"Landkreis"},"federalState":{"key":"06","name":"Hessen"}},{"name":"Höchster Weg","postalCode":"63607","locality":"Wächtersbach","municipality":{"key":"06435029","name":"Wächtersbach, Stadt","type":"Stadt"},"district":{"key":"06435","name":"Main-Kinzig-Kreis","type":"Landkreis"},"federalState":{"key":"06","name":"Hessen"}},{"name":"Höhenstr.","postalCode":"63607","locality":"Wächtersbach","municipality":{"key":"06435029","name":"Wächtersbach, Stadt","type":"Stadt"},"district":{"key":"06435","name":"Main-Kinzig-Kreis","type":"Landkreis"},"federalState":{"key":"06","name":"Hessen"}},{"name":"Hohe Wacht","postalCode":"63607","locality":"Wächtersbach","municipality":{"key":"06435029","name":"Wächtersbach, Stadt","type":"Stadt"},"district":{"key":"06435","name":"Main-Kinzig-Kreis","type":"Landkreis"},"federalState":{"key":"06","name":"Hessen"}},{"name":"Hollerstrauchweg","postalCode":"63607","locality":"Wächtersbach","municipality":{"key":"06435029","name":"Wächtersbach, Stadt","type":"Stadt"},"district":{"key":"06435","name":"Main-Kinzig-Kreis","type":"Landkreis"},"federalState":{"key":"06","name":"Hessen"}},{"name":"Hopfengarten","postalCode":"63607","locality":"Wächtersbach","municipality":{"key":"06435029","name":"Wächtersbach, Stadt","type":"Stadt"},"district":{"key":"06435","name":"Main-Kinzig-Kreis","type":"Landkreis"},"federalState":{"key":"06","name":"Hessen"}},{"name":"Im Alten Garten","postalCode":"63607","locality":"Wächtersbach","municipality":{"key":"06435029","name":"Wächtersbach, Stadt","type":"Stadt"},"district":{"key":"06435","name":"Main-Kinzig-Kreis","type":"Landkreis"},"federalState":{"key":"06","name":"Hessen"}},{"name":"Im Alten Weg","postalCode":"63607","locality":"Wächtersbach","municipality":{"key":"06435029","name":"Wächtersbach, Stadt","type":"Stadt"},"district":{"key":"06435","name":"Main-Kinzig-Kreis","type":"Landkreis"},"federalState":{"key":"06","name":"Hessen"}},{"name":"Im Aßmusgarten","postalCode":"63607","locality":"Wächtersbach","municipality":{"key":"06435029","name":"Wächtersbach, Stadt","type":"Stadt"},"district":{"key":"06435","name":"Main-Kinzig-Kreis","type":"Landkreis"},"federalState":{"key":"06","name":"Hessen"}},{"name":"Im Bauersfeld","postalCode":"63607","locality":"Wächtersbach","municipality":{"key":"06435029","name":"Wächtersbach, Stadt","type":"Stadt"},"district":{"key":"06435","name":"Main-Kinzig-Kreis","type":"Landkreis"},"federalState":{"key":"06","name":"Hessen"}},{"name":"Im Gängelchen","postalCode":"63607","locality":"Wächtersbach","municipality":{"key":"06435029","name":"Wächtersbach, Stadt","type":"Stadt"},"district":{"key":"06435","name":"Main-Kinzig-Kreis","type":"Landkreis"},"federalState":{"key":"06","name":"Hessen"}},{"name":"Im Hebelsfeld","postalCode":"63607","locality":"Wächtersbach","municipality":{"key":"06435029","name":"Wächtersbach, Stadt","type":"Stadt"},"district":{"key":"06435","name":"Main-Kinzig-Kreis","type":"Landkreis"},"federalState":{"key":"06","name":"Hessen"}},{"name":"Im Höfchen","postalCode":"63607","locality":"Wächtersbach","municipality":{"key":"06435029","name":"Wächtersbach, Stadt","type":"Stadt"},"district":{"key":"06435","name":"Main-Kinzig-Kreis","type":"Landkreis"},"federalState":{"key":"06","name":"Hessen"}},{"name":"Im Ziegelgarten","postalCode":"63607","locality":"Wächtersbach","municipality":{"key":"06435029","name":"Wächtersbach, Stadt","type":"Stadt"},"district":{"key":"06435","name":"Main-Kinzig-Kreis","type":"Landkreis"},"federalState":{"key":"06","name":"Hessen"}},{"name":"In den Pflanzenländern","postalCode":"63607","locality":"Wächtersbach","municipality":{"key":"06435029","name":"Wächtersbach, Stadt","type":"Stadt"},"district":{"key":"06435","name":"Main-Kinzig-Kreis","type":"Landkreis"},"federalState":{"key":"06","name":"Hessen"}},{"name":"In den Rödern","postalCode":"63607","locality":"Wächtersbach","municipality":{"key":"06435029","name":"Wächtersbach, Stadt","type":"Stadt"},"district":{"key":"06435","name":"Main-Kinzig-Kreis","type":"Landkreis"},"federalState":{"key":"06","name":"Hessen"}},{"name":"In der Aue","postalCode":"63607","locality":"Wächtersbach","municipality":{"key":"06435029","name":"Wächtersbach, Stadt","type":"Stadt"},"district":{"key":"06435","name":"Main-Kinzig-Kreis","type":"Landkreis"},"federalState":{"key":"06","name":"Hessen"}},{"name":"Industriestr.","postalCode":"63607","locality":"Wächtersbach","municipality":{"key":"06435029","name":"Wächtersbach, Stadt","type":"Stadt"},"district":{"key":"06435","name":"Main-Kinzig-Kreis","type":"Landkreis"},"federalState":{"key":"06","name":"Hessen"}},{"name":"Kantstr.","postalCode":"63607","locality":"Wächtersbach","municipality":{"key":"06435029","name":"Wächtersbach, Stadt","type":"Stadt"},"district":{"key":"06435","name":"Main-Kinzig-Kreis","type":"Landkreis"},"federalState":{"key":"06","name":"Hessen"}},{"name":"Kapellenweg","postalCode":"63607","locality":"Wächtersbach","municipality":{"key":"06435029","name":"Wächtersbach, Stadt","type":"Stadt"},"district":{"key":"06435","name":"Main-Kinzig-Kreis","type":"Landkreis"},"federalState":{"key":"06","name":"Hessen"}},{"name":"Karl-Fröb-Str.","postalCode":"63607","locality":"Wächtersbach","municipality":{"key":"06435029","name":"Wächtersbach, Stadt","type":"Stadt"},"district":{"key":"06435","name":"Main-Kinzig-Kreis","type":"Landkreis"},"federalState":{"key":"06","name":"Hessen"}},{"name":"Kautenweg","postalCode":"63607","locality":"Wächtersbach","municipality":{"key":"06435029","name":"Wächtersbach, Stadt","type":"Stadt"},"district":{"key":"06435","name":"Main-Kinzig-Kreis","type":"Landkreis"},"federalState":{"key":"06","name":"Hessen"}},{"name":"Kefenroder Str.","postalCode":"63607","locality":"Wächtersbach","municipality":{"key":"06435029","name":"Wächtersbach, Stadt","type":"Stadt"},"district":{"key":"06435","name":"Main-Kinzig-Kreis","type":"Landkreis"},"federalState":{"key":"06","name":"Hessen"}},{"name":"Kirchgasse","postalCode":"63607","locality":"Wächtersbach","municipality":{"key":"06435029","name":"Wächtersbach, Stadt","type":"Stadt"},"district":{"key":"06435","name":"Main-Kinzig-Kreis","type":"Landkreis"},"federalState":{"key":"06","name":"Hessen"}},{"name":"Kleegartenstr.","postalCode":"63607","locality":"Wächtersbach","municipality":{"key":"06435029","name":"Wächtersbach, Stadt","type":"Stadt"},"district":{"key":"06435","name":"Main-Kinzig-Kreis","type":"Landkreis"},"federalState":{"key":"06","name":"Hessen"}},{"name":"Kuhgasse","postalCode":"63607","locality":"Wächtersbach","municipality":{"key":"06435029","name":"Wächtersbach, Stadt","type":"Stadt"},"district":{"key":"06435","name":"Main-Kinzig-Kreis","type":"Landkreis"},"federalState":{"key":"06","name":"Hessen"}},{"name":"Kulmbacher Str.","postalCode":"63607","locality":"Wächtersbach","municipality":{"key":"06435029","name":"Wächtersbach, Stadt","type":"Stadt"},"district":{"key":"06435","name":"Main-Kinzig-Kreis","type":"Landkreis"},"federalState":{"key":"06","name":"Hessen"}},{"name":"Kutscherweg","postalCode":"63607","locality":"Wächtersbach","municipality":{"key":"06435029","name":"Wächtersbach, Stadt","type":"Stadt"},"district":{"key":"06435","name":"Main-Kinzig-Kreis","type":"Landkreis"},"federalState":{"key":"06","name":"Hessen"}},{"name":"Langenselbolder Weg","postalCode":"63607","locality":"Wächtersbach","municipality":{"key":"06435029","name":"Wächtersbach, Stadt","type":"Stadt"},"district":{"key":"06435","name":"Main-Kinzig-Kreis","type":"Landkreis"},"federalState":{"key":"06","name":"Hessen"}},{"name":"Langgasse","postalCode":"63607","locality":"Wächtersbach","municipality":{"key":"06435029","name":"Wächtersbach, Stadt","type":"Stadt"},"district":{"key":"06435","name":"Main-Kinzig-Kreis","type":"Landkreis"},"federalState":{"key":"06","name":"Hessen"}},{"name":"Längweg","postalCode":"63607","locality":"Wächtersbach","municipality":{"key":"06435029","name":"Wächtersbach, Stadt","type":"Stadt"},"district":{"key":"06435","name":"Main-Kinzig-Kreis","type":"Landkreis"},"federalState":{"key":"06","name":"Hessen"}},{"name":"Lauterbacher Str.","postalCode":"63607","locality":"Wächtersbach","municipality":{"key":"06435029","name":"Wächtersbach, Stadt","type":"Stadt"},"district":{"key":"06435","name":"Main-Kinzig-Kreis","type":"Landkreis"},"federalState":{"key":"06","name":"Hessen"}},{"name":"Leipziger Str.","postalCode":"63607","locality":"Wächtersbach","municipality":{"key":"06435029","name":"Wächtersbach, Stadt","type":"Stadt"},"district":{"key":"06435","name":"Main-Kinzig-Kreis","type":"Landkreis"},"federalState":{"key":"06","name":"Hessen"}},{"name":"Leisenwalder Str.","postalCode":"63607","locality":"Wächtersbach","municipality":{"key":"06435029","name":"Wächtersbach, Stadt","type":"Stadt"},"district":{"key":"06435","name":"Main-Kinzig-Kreis","type":"Landkreis"},"federalState":{"key":"06","name":"Hessen"}},{"name":"Lessingstr.","postalCode":"63607","locality":"Wächtersbach","municipality":{"key":"06435029","name":"Wächtersbach, Stadt","type":"Stadt"},"district":{"key":"06435","name":"Main-Kinzig-Kreis","type":"Landkreis"},"federalState":{"key":"06","name":"Hessen"}},{"name":"Lichteneichweg","postalCode":"63607","locality":"Wächtersbach","municipality":{"key":"06435029","name":"Wächtersbach, Stadt","type":"Stadt"},"district":{"key":"06435","name":"Main-Kinzig-Kreis","type":"Landkreis"},"federalState":{"key":"06","name":"Hessen"}},{"name":"Lindenplatz","postalCode":"63607","locality":"Wächtersbach","municipality":{"key":"06435029","name":"Wächtersbach, Stadt","type":"Stadt"},"district":{"key":"06435","name":"Main-Kinzig-Kreis","type":"Landkreis"},"federalState":{"key":"06","name":"Hessen"}},{"name":"Lohrer Str.","postalCode":"63607","locality":"Wächtersbach","municipality":{"key":"06435029","name":"Wächtersbach, Stadt","type":"Stadt"},"district":{"key":"06435","name":"Main-Kinzig-Kreis","type":"Landkreis"},"federalState":{"key":"06","name":"Hessen"}},{"name":"Loosgasse","postalCode":"63607","locality":"Wächtersbach","municipality":{"key":"06435029","name":"Wächtersbach, Stadt","type":"Stadt"},"district":{"key":"06435","name":"Main-Kinzig-Kreis","type":"Landkreis"},"federalState":{"key":"06","name":"Hessen"}},{"name":"Main-Kinzig-Str.","postalCode":"63607","locality":"Wächtersbach","municipality":{"key":"06435029","name":"Wächtersbach, Stadt","type":"Stadt"},"district":{"key":"06435","name":"Main-Kinzig-Kreis","type":"Landkreis"},"federalState":{"key":"06","name":"Hessen"}},{"name":"Marienstr.","postalCode":"63607","locality":"Wächtersbach","municipality":{"key":"06435029","name":"Wächtersbach, Stadt","type":"Stadt"},"district":{"key":"06435","name":"Main-Kinzig-Kreis","type":"Landkreis"},"federalState":{"key":"06","name":"Hessen"}},{"name":"Marktplatz","postalCode":"63607","locality":"Wächtersbach","municipality":{"key":"06435029","name":"Wächtersbach, Stadt","type":"Stadt"},"district":{"key":"06435","name":"Main-Kinzig-Kreis","type":"Landkreis"},"federalState":{"key":"06","name":"Hessen"}},{"name":"Martin-Luther-Str.","postalCode":"63607","locality":"Wächtersbach","municipality":{"key":"06435029","name":"Wächtersbach, Stadt","type":"Stadt"},"district":{"key":"06435","name":"Main-Kinzig-Kreis","type":"Landkreis"},"federalState":{"key":"06","name":"Hessen"}},{"name":"Meilerstr.","postalCode":"63607","locality":"Wächtersbach","municipality":{"key":"06435029","name":"Wächtersbach, Stadt","type":"Stadt"},"district":{"key":"06435","name":"Main-Kinzig-Kreis","type":"Landkreis"},"federalState":{"key":"06","name":"Hessen"}},{"name":"Mittbacher Hof","postalCode":"63607","locality":"Wächtersbach","municipality":{"key":"06435029","name":"Wächtersbach, Stadt","type":"Stadt"},"district":{"key":"06435","name":"Main-Kinzig-Kreis","type":"Landkreis"},"federalState":{"key":"06","name":"Hessen"}},{"name":"Mittbachweg","postalCode":"63607","locality":"Wächtersbach","municipality":{"key":"06435029","name":"Wächtersbach, Stadt","type":"Stadt"},"district":{"key":"06435","name":"Main-Kinzig-Kreis","type":"Landkreis"},"federalState":{"key":"06","name":"Hessen"}},{"name":"Mittelweg","postalCode":"63607","locality":"Wächtersbach","municipality":{"key":"06435029","name":"Wächtersbach, Stadt","type":"Stadt"},"district":{"key":"06435","name":"Main-Kinzig-Kreis","type":"Landkreis"},"federalState":{"key":"06","name":"Hessen"}},{"name":"Mühlstr.","postalCode":"63607","locality":"Wächtersbach","municipality":{"key":"06435029","name":"Wächtersbach, Stadt","type":"Stadt"},"district":{"key":"06435","name":"Main-Kinzig-Kreis","type":"Landkreis"},"federalState":{"key":"06","name":"Hessen"}},{"name":"Münchener Str.","postalCode":"63607","locality":"Wächtersbach","municipality":{"key":"06435029","name":"Wächtersbach, Stadt","type":"Stadt"},"district":{"key":"06435","name":"Main-Kinzig-Kreis","type":"Landkreis"},"federalState":{"key":"06","name":"Hessen"}},{"name":"Nagelsgäßchen","postalCode":"63607","locality":"Wächtersbach","municipality":{"key":"06435029","name":"Wächtersbach, Stadt","type":"Stadt"},"district":{"key":"06435","name":"Main-Kinzig-Kreis","type":"Landkreis"},"federalState":{"key":"06","name":"Hessen"}},{"name":"Neudorfer Str.","postalCode":"63607","locality":"Wächtersbach","municipality":{"key":"06435029","name":"Wächtersbach, Stadt","type":"Stadt"},"district":{"key":"06435","name":"Main-Kinzig-Kreis","type":"Landkreis"},"federalState":{"key":"06","name":"Hessen"}},{"name":"Neue Str.","postalCode":"63607","locality":"Wächtersbach","municipality":{"key":"06435029","name":"Wächtersbach, Stadt","type":"Stadt"},"district":{"key":"06435","name":"Main-Kinzig-Kreis","type":"Landkreis"},"federalState":{"key":"06","name":"Hessen"}},{"name":"Nüdlingstr.","postalCode":"63607","locality":"Wächtersbach","municipality":{"key":"06435029","name":"Wächtersbach, Stadt","type":"Stadt"},"district":{"key":"06435","name":"Main-Kinzig-Kreis","type":"Landkreis"},"federalState":{"key":"06","name":"Hessen"}},{"name":"Nürnberger Str.","postalCode":"63607","locality":"Wächtersbach","municipality":{"key":"06435029","name":"Wächtersbach, Stadt","type":"Stadt"},"district":{"key":"06435","name":"Main-Kinzig-Kreis","type":"Landkreis"},"federalState":{"key":"06","name":"Hessen"}},{"name":"Obertor","postalCode":"63607","locality":"Wächtersbach","municipality":{"key":"06435029","name":"Wächtersbach, Stadt","type":"Stadt"},"district":{"key":"06435","name":"Main-Kinzig-Kreis","type":"Landkreis"},"federalState":{"key":"06","name":"Hessen"}},{"name":"Ochsenberg","postalCode":"63607","locality":"Wächtersbach","municipality":{"key":"06435029","name":"Wächtersbach, Stadt","type":"Stadt"},"district":{"key":"06435","name":"Main-Kinzig-Kreis","type":"Landkreis"},"federalState":{"key":"06","name":"Hessen"}},{"name":"Ostpreußenstr.","postalCode":"63607","locality":"Wächtersbach","municipality":{"key":"06435029","name":"Wächtersbach, Stadt","type":"Stadt"},"district":{"key":"06435","name":"Main-Kinzig-Kreis","type":"Landkreis"},"federalState":{"key":"06","name":"Hessen"}},{"name":"Pfarrgasse","postalCode":"63607","locality":"Wächtersbach","municipality":{"key":"06435029","name":"Wächtersbach, Stadt","type":"Stadt"},"district":{"key":"06435","name":"Main-Kinzig-Kreis","type":"Landkreis"},"federalState":{"key":"06","name":"Hessen"}},{"name":"Poststr.","postalCode":"63607","locality":"Wächtersbach","municipality":{"key":"06435029","name":"Wächtersbach, Stadt","type":"Stadt"},"district":{"key":"06435","name":"Main-Kinzig-Kreis","type":"Landkreis"},"federalState":{"key":"06","name":"Hessen"}},{"name":"Quellenweg","postalCode":"63607","locality":"Wächtersbach","municipality":{"key":"06435029","name":"Wächtersbach, Stadt","type":"Stadt"},"district":{"key":"06435","name":"Main-Kinzig-Kreis","type":"Landkreis"},"federalState":{"key":"06","name":"Hessen"}},{"name":"Reffestr.","postalCode":"63607","locality":"Wächtersbach","municipality":{"key":"06435029","name":"Wächtersbach, Stadt","type":"Stadt"},"district":{"key":"06435","name":"Main-Kinzig-Kreis","type":"Landkreis"},"federalState":{"key":"06","name":"Hessen"}},{"name":"Regensburger Str.","postalCode":"63607","locality":"Wächtersbach","municipality":{"key":"06435029","name":"Wächtersbach, Stadt","type":"Stadt"},"district":{"key":"06435","name":"Main-Kinzig-Kreis","type":"Landkreis"},"federalState":{"key":"06","name":"Hessen"}},{"name":"Rhönstr.","postalCode":"63607","locality":"Wächtersbach","municipality":{"key":"06435029","name":"Wächtersbach, Stadt","type":"Stadt"},"district":{"key":"06435","name":"Main-Kinzig-Kreis","type":"Landkreis"},"federalState":{"key":"06","name":"Hessen"}},{"name":"Rinderbügener Str.","postalCode":"63607","locality":"Wächtersbach","municipality":{"key":"06435029","name":"Wächtersbach, Stadt","type":"Stadt"},"district":{"key":"06435","name":"Main-Kinzig-Kreis","type":"Landkreis"},"federalState":{"key":"06","name":"Hessen"}},{"name":"Ringstr.","postalCode":"63607","locality":"Wächtersbach","municipality":{"key":"06435029","name":"Wächtersbach, Stadt","type":"Stadt"},"district":{"key":"06435","name":"Main-Kinzig-Kreis","type":"Landkreis"},"federalState":{"key":"06","name":"Hessen"}},{"name":"Robert-Sterl-Weg","postalCode":"63607","locality":"Wächtersbach","municipality":{"key":"06435029","name":"Wächtersbach, Stadt","type":"Stadt"},"district":{"key":"06435","name":"Main-Kinzig-Kreis","type":"Landkreis"},"federalState":{"key":"06","name":"Hessen"}},{"name":"Rosengasse","postalCode":"63607","locality":"Wächtersbach","municipality":{"key":"06435029","name":"Wächtersbach, Stadt","type":"Stadt"},"district":{"key":"06435","name":"Main-Kinzig-Kreis","type":"Landkreis"},"federalState":{"key":"06","name":"Hessen"}},{"name":"Roßlebener Str.","postalCode":"63607","locality":"Wächtersbach","municipality":{"key":"06435029","name":"Wächtersbach, Stadt","type":"Stadt"},"district":{"key":"06435","name":"Main-Kinzig-Kreis","type":"Landkreis"},"federalState":{"key":"06","name":"Hessen"}},{"name":"Rotgartenstr.","postalCode":"63607","locality":"Wächtersbach","municipality":{"key":"06435029","name":"Wächtersbach, Stadt","type":"Stadt"},"district":{"key":"06435","name":"Main-Kinzig-Kreis","type":"Landkreis"},"federalState":{"key":"06","name":"Hessen"}},{"name":"Rougeweg","postalCode":"63607","locality":"Wächtersbach","municipality":{"key":"06435029","name":"Wächtersbach, Stadt","type":"Stadt"},"district":{"key":"06435","name":"Main-Kinzig-Kreis","type":"Landkreis"},"federalState":{"key":"06","name":"Hessen"}},{"name":"Salmünsterer Str.","postalCode":"63607","locality":"Wächtersbach","municipality":{"key":"06435029","name":"Wächtersbach, Stadt","type":"Stadt"},"district":{"key":"06435","name":"Main-Kinzig-Kreis","type":"Landkreis"},"federalState":{"key":"06","name":"Hessen"}},{"name":"Sandweg","postalCode":"63607","locality":"Wächtersbach","municipality":{"key":"06435029","name":"Wächtersbach, Stadt","type":"Stadt"},"district":{"key":"06435","name":"Main-Kinzig-Kreis","type":"Landkreis"},"federalState":{"key":"06","name":"Hessen"}},{"name":"Schillerstr.","postalCode":"63607","locality":"Wächtersbach","municipality":{"key":"06435029","name":"Wächtersbach, Stadt","type":"Stadt"},"district":{"key":"06435","name":"Main-Kinzig-Kreis","type":"Landkreis"},"federalState":{"key":"06","name":"Hessen"}},{"name":"Schlesische Str.","postalCode":"63607","locality":"Wächtersbach","municipality":{"key":"06435029","name":"Wächtersbach, Stadt","type":"Stadt"},"district":{"key":"06435","name":"Main-Kinzig-Kreis","type":"Landkreis"},"federalState":{"key":"06","name":"Hessen"}},{"name":"Schlierbacher Str.","postalCode":"63607","locality":"Wächtersbach","municipality":{"key":"06435029","name":"Wächtersbach, Stadt","type":"Stadt"},"district":{"key":"06435","name":"Main-Kinzig-Kreis","type":"Landkreis"},"federalState":{"key":"06","name":"Hessen"}},{"name":"Schloß","postalCode":"63607","locality":"Wächtersbach","municipality":{"key":"06435029","name":"Wächtersbach, Stadt","type":"Stadt"},"district":{"key":"06435","name":"Main-Kinzig-Kreis","type":"Landkreis"},"federalState":{"key":"06","name":"Hessen"}},{"name":"Schloßpark","postalCode":"63607","locality":"Wächtersbach","municipality":{"key":"06435029","name":"Wächtersbach, Stadt","type":"Stadt"},"district":{"key":"06435","name":"Main-Kinzig-Kreis","type":"Landkreis"},"federalState":{"key":"06","name":"Hessen"}},{"name":"Schloßstr.","postalCode":"63607","locality":"Wächtersbach","municipality":{"key":"06435029","name":"Wächtersbach, Stadt","type":"Stadt"},"district":{"key":"06435","name":"Main-Kinzig-Kreis","type":"Landkreis"},"federalState":{"key":"06","name":"Hessen"}},{"name":"Schöne Aussicht","postalCode":"63607","locality":"Wächtersbach","municipality":{"key":"06435029","name":"Wächtersbach, Stadt","type":"Stadt"},"district":{"key":"06435","name":"Main-Kinzig-Kreis","type":"Landkreis"},"federalState":{"key":"06","name":"Hessen"}},{"name":"Schützenweg","postalCode":"63607","locality":"Wächtersbach","municipality":{"key":"06435029","name":"Wächtersbach, Stadt","type":"Stadt"},"district":{"key":"06435","name":"Main-Kinzig-Kreis","type":"Landkreis"},"federalState":{"key":"06","name":"Hessen"}},{"name":"Schwarzgasse","postalCode":"63607","locality":"Wächtersbach","municipality":{"key":"06435029","name":"Wächtersbach, Stadt","type":"Stadt"},"district":{"key":"06435","name":"Main-Kinzig-Kreis","type":"Landkreis"},"federalState":{"key":"06","name":"Hessen"}},{"name":"Schweinfurter Str.","postalCode":"63607","locality":"Wächtersbach","municipality":{"key":"06435029","name":"Wächtersbach, Stadt","type":"Stadt"},"district":{"key":"06435","name":"Main-Kinzig-Kreis","type":"Landkreis"},"federalState":{"key":"06","name":"Hessen"}},{"name":"Siedlungsstr.","postalCode":"63607","locality":"Wächtersbach","municipality":{"key":"06435029","name":"Wächtersbach, Stadt","type":"Stadt"},"district":{"key":"06435","name":"Main-Kinzig-Kreis","type":"Landkreis"},"federalState":{"key":"06","name":"Hessen"}},{"name":"Sonnenweg","postalCode":"63607","locality":"Wächtersbach","municipality":{"key":"06435029","name":"Wächtersbach, Stadt","type":"Stadt"},"district":{"key":"06435","name":"Main-Kinzig-Kreis","type":"Landkreis"},"federalState":{"key":"06","name":"Hessen"}},{"name":"Sophie-Knoth-Str.","postalCode":"63607","locality":"Wächtersbach","municipality":{"key":"06435029","name":"Wächtersbach, Stadt","type":"Stadt"},"district":{"key":"06435","name":"Main-Kinzig-Kreis","type":"Landkreis"},"federalState":{"key":"06","name":"Hessen"}},{"name":"Spessartstr.","postalCode":"63607","locality":"Wächtersbach","municipality":{"key":"06435029","name":"Wächtersbach, Stadt","type":"Stadt"},"district":{"key":"06435","name":"Main-Kinzig-Kreis","type":"Landkreis"},"federalState":{"key":"06","name":"Hessen"}},{"name":"Spielberger Str.","postalCode":"63607","locality":"Wächtersbach","municipality":{"key":"06435029","name":"Wächtersbach, Stadt","type":"Stadt"},"district":{"key":"06435","name":"Main-Kinzig-Kreis","type":"Landkreis"},"federalState":{"key":"06","name":"Hessen"}},{"name":"Steinackerweg","postalCode":"63607","locality":"Wächtersbach","municipality":{"key":"06435029","name":"Wächtersbach, Stadt","type":"Stadt"},"district":{"key":"06435","name":"Main-Kinzig-Kreis","type":"Landkreis"},"federalState":{"key":"06","name":"Hessen"}},{"name":"Steinbergstr.","postalCode":"63607","locality":"Wächtersbach","municipality":{"key":"06435029","name":"Wächtersbach, Stadt","type":"Stadt"},"district":{"key":"06435","name":"Main-Kinzig-Kreis","type":"Landkreis"},"federalState":{"key":"06","name":"Hessen"}},{"name":"Sterzbergstr.","postalCode":"63607","locality":"Wächtersbach","municipality":{"key":"06435029","name":"Wächtersbach, Stadt","type":"Stadt"},"district":{"key":"06435","name":"Main-Kinzig-Kreis","type":"Landkreis"},"federalState":{"key":"06","name":"Hessen"}},{"name":"Streitberger Str.","postalCode":"63607","locality":"Wächtersbach","municipality":{"key":"06435029","name":"Wächtersbach, Stadt","type":"Stadt"},"district":{"key":"06435","name":"Main-Kinzig-Kreis","type":"Landkreis"},"federalState":{"key":"06","name":"Hessen"}},{"name":"Struthstr.","postalCode":"63607","locality":"Wächtersbach","municipality":{"key":"06435029","name":"Wächtersbach, Stadt","type":"Stadt"},"district":{"key":"06435","name":"Main-Kinzig-Kreis","type":"Landkreis"},"federalState":{"key":"06","name":"Hessen"}},{"name":"Sudetenstr.","postalCode":"63607","locality":"Wächtersbach","municipality":{"key":"06435029","name":"Wächtersbach, Stadt","type":"Stadt"},"district":{"key":"06435","name":"Main-Kinzig-Kreis","type":"Landkreis"},"federalState":{"key":"06","name":"Hessen"}},{"name":"Tannenweg","postalCode":"63607","locality":"Wächtersbach","municipality":{"key":"06435029","name":"Wächtersbach, Stadt","type":"Stadt"},"district":{"key":"06435","name":"Main-Kinzig-Kreis","type":"Landkreis"},"federalState":{"key":"06","name":"Hessen"}},{"name":"Taunusstr.","postalCode":"63607","locality":"Wächtersbach","municipality":{"key":"06435029","name":"Wächtersbach, Stadt","type":"Stadt"},"district":{"key":"06435","name":"Main-Kinzig-Kreis","type":"Landkreis"},"federalState":{"key":"06","name":"Hessen"}},{"name":"Töpferstr.","postalCode":"63607","locality":"Wächtersbach","municipality":{"key":"06435029","name":"Wächtersbach, Stadt","type":"Stadt"},"district":{"key":"06435","name":"Main-Kinzig-Kreis","type":"Landkreis"},"federalState":{"key":"06","name":"Hessen"}},{"name":"Triebstr.","postalCode":"63607","locality":"Wächtersbach","municipality":{"key":"06435029","name":"Wächtersbach, Stadt","type":"Stadt"},"district":{"key":"06435","name":"Main-Kinzig-Kreis","type":"Landkreis"},"federalState":{"key":"06","name":"Hessen"}},{"name":"Turmstr.","postalCode":"63607","locality":"Wächtersbach","municipality":{"key":"06435029","name":"Wächtersbach, Stadt","type":"Stadt"},"district":{"key":"06435","name":"Main-Kinzig-Kreis","type":"Landkreis"},"federalState":{"key":"06","name":"Hessen"}},{"name":"Udenhainer Str.","postalCode":"63607","locality":"Wächtersbach","municipality":{"key":"06435029","name":"Wächtersbach, Stadt","type":"Stadt"},"district":{"key":"06435","name":"Main-Kinzig-Kreis","type":"Landkreis"},"federalState":{"key":"06","name":"Hessen"}},{"name":"Uhlandstr.","postalCode":"63607","locality":"Wächtersbach","municipality":{"key":"06435029","name":"Wächtersbach, Stadt","type":"Stadt"},"district":{"key":"06435","name":"Main-Kinzig-Kreis","type":"Landkreis"},"federalState":{"key":"06","name":"Hessen"}},{"name":"Ulmer Weg","postalCode":"63607","locality":"Wächtersbach","municipality":{"key":"06435029","name":"Wächtersbach, Stadt","type":"Stadt"},"district":{"key":"06435","name":"Main-Kinzig-Kreis","type":"Landkreis"},"federalState":{"key":"06","name":"Hessen"}},{"name":"Untermühle","postalCode":"63607","locality":"Wächtersbach","municipality":{"key":"06435029","name":"Wächtersbach, Stadt","type":"Stadt"},"district":{"key":"06435","name":"Main-Kinzig-Kreis","type":"Landkreis"},"federalState":{"key":"06","name":"Hessen"}},{"name":"Untertor","postalCode":"63607","locality":"Wächtersbach","municipality":{"key":"06435029","name":"Wächtersbach, Stadt","type":"Stadt"},"district":{"key":"06435","name":"Main-Kinzig-Kreis","type":"Landkreis"},"federalState":{"key":"06","name":"Hessen"}},{"name":"Vogelsbergstr.","postalCode":"63607","locality":"Wächtersbach","municipality":{"key":"06435029","name":"Wächtersbach, Stadt","type":"Stadt"},"district":{"key":"06435","name":"Main-Kinzig-Kreis","type":"Landkreis"},"federalState":{"key":"06","name":"Hessen"}},{"name":"Wächtersbacher Str.","postalCode":"63607","locality":"Wächtersbach","municipality":{"key":"06435029","name":"Wächtersbach, Stadt","type":"Stadt"},"district":{"key":"06435","name":"Main-Kinzig-Kreis","type":"Landkreis"},"federalState":{"key":"06","name":"Hessen"}},{"name":"Waldensberger Str.","postalCode":"63607","locality":"Wächtersbach","municipality":{"key":"06435029","name":"Wächtersbach, Stadt","type":"Stadt"},"district":{"key":"06435","name":"Main-Kinzig-Kreis","type":"Landkreis"},"federalState":{"key":"06","name":"Hessen"}},{"name":"Waldstr.","postalCode":"63607","locality":"Wächtersbach","municipality":{"key":"06435029","name":"Wächtersbach, Stadt","type":"Stadt"},"district":{"key":"06435","name":"Main-Kinzig-Kreis","type":"Landkreis"},"federalState":{"key":"06","name":"Hessen"}},{"name":"Weidenstr.","postalCode":"63607","locality":"Wächtersbach","municipality":{"key":"06435029","name":"Wächtersbach, Stadt","type":"Stadt"},"district":{"key":"06435","name":"Main-Kinzig-Kreis","type":"Landkreis"},"federalState":{"key":"06","name":"Hessen"}},{"name":"Weilerser Str.","postalCode":"63607","locality":"Wächtersbach","municipality":{"key":"06435029","name":"Wächtersbach, Stadt","type":"Stadt"},"district":{"key":"06435","name":"Main-Kinzig-Kreis","type":"Landkreis"},"federalState":{"key":"06","name":"Hessen"}},{"name":"Wernerstr.","postalCode":"63607","locality":"Wächtersbach","municipality":{"key":"06435029","name":"Wächtersbach, Stadt","type":"Stadt"},"district":{"key":"06435","name":"Main-Kinzig-Kreis","type":"Landkreis"},"federalState":{"key":"06","name":"Hessen"}},{"name":"Wiesenweg","postalCode":"63607","locality":"Wächtersbach","municipality":{"key":"06435029","name":"Wächtersbach, Stadt","type":"Stadt"},"district":{"key":"06435","name":"Main-Kinzig-Kreis","type":"Landkreis"},"federalState":{"key":"06","name":"Hessen"}},{"name":"Wilhelm-Bettenhäuser-Weg","postalCode":"63607","locality":"Wächtersbach","municipality":{"key":"06435029","name":"Wächtersbach, Stadt","type":"Stadt"},"district":{"key":"06435","name":"Main-Kinzig-Kreis","type":"Landkreis"},"federalState":{"key":"06","name":"Hessen"}},{"name":"Wirtheimer Str.","postalCode":"63607","locality":"Wächtersbach","municipality":{"key":"06435029","name":"Wächtersbach, Stadt","type":"Stadt"},"district":{"key":"06435","name":"Main-Kinzig-Kreis","type":"Landkreis"},"federalState":{"key":"06","name":"Hessen"}},{"name":"Wittgenborner Str.","postalCode":"63607","locality":"Wächtersbach","municipality":{"key":"06435029","name":"Wächtersbach, Stadt","type":"Stadt"},"district":{"key":"06435","name":"Main-Kinzig-Kreis","type":"Landkreis"},"federalState":{"key":"06","name":"Hessen"}},{"name":"Wolferborner Str.","postalCode":"63607","locality":"Wächtersbach","municipality":{"key":"06435029","name":"Wächtersbach, Stadt","type":"Stadt"},"district":{"key":"06435","name":"Main-Kinzig-Kreis","type":"Landkreis"},"federalState":{"key":"06","name":"Hessen"}},{"name":"Wolfsgrabenstr.","postalCode":"63607","locality":"Wächtersbach","municipality":{"key":"06435029","name":"Wächtersbach, Stadt","type":"Stadt"},"district":{"key":"06435","name":"Main-Kinzig-Kreis","type":"Landkreis"},"federalState":{"key":"06","name":"Hessen"}},{"name":"Würzburger Str.","postalCode":"63607","locality":"Wächtersbach","municipality":{"key":"06435029","name":"Wächtersbach, Stadt","type":"Stadt"},"district":{"key":"06435","name":"Main-Kinzig-Kreis","type":"Landkreis"},"federalState":{"key":"06","name":"Hessen"}},{"name":"Ysenburger Str.","postalCode":"63607","locality":"Wächtersbach","municipality":{"key":"06435029","name":"Wächtersbach, Stadt","type":"Stadt"},"district":{"key":"06435","name":"Main-Kinzig-Kreis","type":"Landkreis"},"federalState":{"key":"06","name":"Hessen"}},{"name":"Zugang Steg","postalCode":"63607","locality":"Wächtersbach","municipality":{"key":"06435029","name":"Wächtersbach, Stadt","type":"Stadt"},"district":{"key":"06435","name":"Main-Kinzig-Kreis","type":"Landkreis"},"federalState":{"key":"06","name":"Hessen"}},{"name":"Zum Vogelherd","postalCode":"63607","locality":"Wächtersbach","municipality":{"key":"06435029","name":"Wächtersbach, Stadt","type":"Stadt"},"district":{"key":"06435","name":"Main-Kinzig-Kreis","type":"Landkreis"},"federalState":{"key":"06","name":"Hessen"}},{"name":"Zum Weinberg","postalCode":"63607","locality":"Wächtersbach","municipality":{"key":"06435029","name":"Wächtersbach, Stadt","type":"Stadt"},"district":{"key":"06435","name":"Main-Kinzig-Kreis","type":"Landkreis"},"federalState":{"key":"06","name":"Hessen"}},{"name":"Zur Wolferburg","postalCode":"63607","locality":"Wächtersbach","municipality":{"key":"06435029","name":"Wächtersbach, Stadt","type":"Stadt"},"district":{"key":"06435","name":"Main-Kinzig-Kreis","type":"Landkreis"},"federalState":{"key":"06","name":"Hessen"}},]