[{"key":"10189753","name":"Aarestrasse","postalCode":"5313","locality":"Klingnau","commune":{"key":"4309","name":"Klingnau","shortName":"Klingnau"},"district":{"key":"1911","name":"Bezirk Zurzach"},"canton":{"key":"19","code":"AG","name":"Aargau"},"status":"Real"},{"key":"10094533","name":"Achenbergstrasse","postalCode":"5313","locality":"Klingnau","commune":{"key":"4309","name":"Klingnau","shortName":"Klingnau"},"district":{"key":"1911","name":"Bezirk Zurzach"},"canton":{"key":"19","code":"AG","name":"Aargau"},"status":"Real"},{"key":"10072837","name":"Achenbergweg","postalCode":"5313","locality":"Klingnau","commune":{"key":"4309","name":"Klingnau","shortName":"Klingnau"},"district":{"key":"1911","name":"Bezirk Zurzach"},"canton":{"key":"19","code":"AG","name":"Aargau"},"status":"Real"},{"key":"10239751","name":"Aehrenweg","postalCode":"5313","locality":"Klingnau","commune":{"key":"4309","name":"Klingnau","shortName":"Klingnau"},"district":{"key":"1911","name":"Bezirk Zurzach"},"canton":{"key":"19","code":"AG","name":"Aargau"},"status":"Real"},{"key":"10036509","name":"Aepelöö","postalCode":"5313","locality":"Klingnau","commune":{"key":"4309","name":"Klingnau","shortName":"Klingnau"},"district":{"key":"1911","name":"Bezirk Zurzach"},"canton":{"key":"19","code":"AG","name":"Aargau"},"status":"Real"},{"key":"10239755","name":"Akaziensteig","postalCode":"5313","locality":"Klingnau","commune":{"key":"4309","name":"Klingnau","shortName":"Klingnau"},"district":{"key":"1911","name":"Bezirk Zurzach"},"canton":{"key":"19","code":"AG","name":"Aargau"},"status":"Real"},{"key":"10036510","name":"Ankerweg","postalCode":"5313","locality":"Klingnau","commune":{"key":"4309","name":"Klingnau","shortName":"Klingnau"},"district":{"key":"1911","name":"Bezirk Zurzach"},"canton":{"key":"19","code":"AG","name":"Aargau"},"status":"Real"},{"key":"10094534","name":"Austrasse","postalCode":"5313","locality":"Klingnau","commune":{"key":"4309","name":"Klingnau","shortName":"Klingnau"},"district":{"key":"1911","name":"Bezirk Zurzach"},"canton":{"key":"19","code":"AG","name":"Aargau"},"status":"Real"},{"key":"10036511","name":"Binnenkanalstrasse","postalCode":"5313","locality":"Klingnau","commune":{"key":"4309","name":"Klingnau","shortName":"Klingnau"},"district":{"key":"1911","name":"Bezirk Zurzach"},"canton":{"key":"19","code":"AG","name":"Aargau"},"status":"Real"},{"key":"10072838","name":"Blitzbergweg","postalCode":"5313","locality":"Klingnau","commune":{"key":"4309","name":"Klingnau","shortName":"Klingnau"},"district":{"key":"1911","name":"Bezirk Zurzach"},"canton":{"key":"19","code":"AG","name":"Aargau"},"status":"Real"},{"key":"10036512","name":"Brüggliweg","postalCode":"5313","locality":"Klingnau","commune":{"key":"4309","name":"Klingnau","shortName":"Klingnau"},"district":{"key":"1911","name":"Bezirk Zurzach"},"canton":{"key":"19","code":"AG","name":"Aargau"},"status":"Real"},{"key":"10094535","name":"Brühlstrasse","postalCode":"5313","locality":"Klingnau","commune":{"key":"4309","name":"Klingnau","shortName":"Klingnau"},"district":{"key":"1911","name":"Bezirk Zurzach"},"canton":{"key":"19","code":"AG","name":"Aargau"},"status":"Real"},{"key":"10129924","name":"Brühlweg","postalCode":"5313","locality":"Klingnau","commune":{"key":"4309","name":"Klingnau","shortName":"Klingnau"},"district":{"key":"1911","name":"Bezirk Zurzach"},"canton":{"key":"19","code":"AG","name":"Aargau"},"status":"Real"},{"key":"10036513","name":"Burghaldenweg","postalCode":"5313","locality":"Klingnau","commune":{"key":"4309","name":"Klingnau","shortName":"Klingnau"},"district":{"key":"1911","name":"Bezirk Zurzach"},"canton":{"key":"19","code":"AG","name":"Aargau"},"status":"Real"},{"key":"10146625","name":"Chänzeliweg","postalCode":"5313","locality":"Klingnau","commune":{"key":"4309","name":"Klingnau","shortName":"Klingnau"},"district":{"key":"1911","name":"Bezirk Zurzach"},"canton":{"key":"19","code":"AG","name":"Aargau"},"status":"Real"},{"key":"10036514","name":"Chisweg","postalCode":"5313","locality":"Klingnau","commune":{"key":"4309","name":"Klingnau","shortName":"Klingnau"},"district":{"key":"1911","name":"Bezirk Zurzach"},"canton":{"key":"19","code":"AG","name":"Aargau"},"status":"Real"},{"key":"10072839","name":"Dorfstrasse","postalCode":"5313","locality":"Klingnau","commune":{"key":"4309","name":"Klingnau","shortName":"Klingnau"},"district":{"key":"1911","name":"Bezirk Zurzach"},"canton":{"key":"19","code":"AG","name":"Aargau"},"status":"Real"},{"key":"10239759","name":"Dornestigele","postalCode":"5313","locality":"Klingnau","commune":{"key":"4309","name":"Klingnau","shortName":"Klingnau"},"district":{"key":"1911","name":"Bezirk Zurzach"},"canton":{"key":"19","code":"AG","name":"Aargau"},"status":"Real"},{"key":"10036515","name":"Eichfeld","postalCode":"5313","locality":"Klingnau","commune":{"key":"4309","name":"Klingnau","shortName":"Klingnau"},"district":{"key":"1911","name":"Bezirk Zurzach"},"canton":{"key":"19","code":"AG","name":"Aargau"},"status":"Real"},{"key":"10146627","name":"Erlenweg","postalCode":"5313","locality":"Klingnau","commune":{"key":"4309","name":"Klingnau","shortName":"Klingnau"},"district":{"key":"1911","name":"Bezirk Zurzach"},"canton":{"key":"19","code":"AG","name":"Aargau"},"status":"Real"},{"key":"10146720","name":"Färbergasse","postalCode":"5313","locality":"Klingnau","commune":{"key":"4309","name":"Klingnau","shortName":"Klingnau"},"district":{"key":"1911","name":"Bezirk Zurzach"},"canton":{"key":"19","code":"AG","name":"Aargau"},"status":"Real"},{"key":"10094536","name":"Felsenweg","postalCode":"5313","locality":"Klingnau","commune":{"key":"4309","name":"Klingnau","shortName":"Klingnau"},"district":{"key":"1911","name":"Bezirk Zurzach"},"canton":{"key":"19","code":"AG","name":"Aargau"},"status":"Real"},{"key":"10190253","name":"Fischerweg","postalCode":"5313","locality":"Klingnau","commune":{"key":"4309","name":"Klingnau","shortName":"Klingnau"},"district":{"key":"1911","name":"Bezirk Zurzach"},"canton":{"key":"19","code":"AG","name":"Aargau"},"status":"Real"},{"key":"10036516","name":"Flüestrasse","postalCode":"5313","locality":"Klingnau","commune":{"key":"4309","name":"Klingnau","shortName":"Klingnau"},"district":{"key":"1911","name":"Bezirk Zurzach"},"canton":{"key":"19","code":"AG","name":"Aargau"},"status":"Real"},{"key":"10107070","name":"Föhrensteig","postalCode":"5313","locality":"Klingnau","commune":{"key":"4309","name":"Klingnau","shortName":"Klingnau"},"district":{"key":"1911","name":"Bezirk Zurzach"},"canton":{"key":"19","code":"AG","name":"Aargau"},"status":"Real"},{"key":"10094537","name":"Föhrenweg","postalCode":"5313","locality":"Klingnau","commune":{"key":"4309","name":"Klingnau","shortName":"Klingnau"},"district":{"key":"1911","name":"Bezirk Zurzach"},"canton":{"key":"19","code":"AG","name":"Aargau"},"status":"Real"},{"key":"10072840","name":"Friedhofweg","postalCode":"5313","locality":"Klingnau","commune":{"key":"4309","name":"Klingnau","shortName":"Klingnau"},"district":{"key":"1911","name":"Bezirk Zurzach"},"canton":{"key":"19","code":"AG","name":"Aargau"},"status":"Real"},{"key":"10116172","name":"Gäntertweg","postalCode":"5313","locality":"Klingnau","commune":{"key":"4309","name":"Klingnau","shortName":"Klingnau"},"district":{"key":"1911","name":"Bezirk Zurzach"},"canton":{"key":"19","code":"AG","name":"Aargau"},"status":"Real"},{"key":"10036517","name":"Goldgässli","postalCode":"5313","locality":"Klingnau","commune":{"key":"4309","name":"Klingnau","shortName":"Klingnau"},"district":{"key":"1911","name":"Bezirk Zurzach"},"canton":{"key":"19","code":"AG","name":"Aargau"},"status":"Real"},{"key":"10036518","name":"Grabenstrasse","postalCode":"5313","locality":"Klingnau","commune":{"key":"4309","name":"Klingnau","shortName":"Klingnau"},"district":{"key":"1911","name":"Bezirk Zurzach"},"canton":{"key":"19","code":"AG","name":"Aargau"},"status":"Real"},{"key":"10146721","name":"Grieweg","postalCode":"5313","locality":"Klingnau","commune":{"key":"4309","name":"Klingnau","shortName":"Klingnau"},"district":{"key":"1911","name":"Bezirk Zurzach"},"canton":{"key":"19","code":"AG","name":"Aargau"},"status":"Real"},{"key":"10239763","name":"Haldengässli","postalCode":"5313","locality":"Klingnau","commune":{"key":"4309","name":"Klingnau","shortName":"Klingnau"},"district":{"key":"1911","name":"Bezirk Zurzach"},"canton":{"key":"19","code":"AG","name":"Aargau"},"status":"Real"},{"key":"10094538","name":"Haldenweg","postalCode":"5313","locality":"Klingnau","commune":{"key":"4309","name":"Klingnau","shortName":"Klingnau"},"district":{"key":"1911","name":"Bezirk Zurzach"},"canton":{"key":"19","code":"AG","name":"Aargau"},"status":"Real"},{"key":"10036519","name":"Hardstrasse","postalCode":"5313","locality":"Klingnau","commune":{"key":"4309","name":"Klingnau","shortName":"Klingnau"},"district":{"key":"1911","name":"Bezirk Zurzach"},"canton":{"key":"19","code":"AG","name":"Aargau"},"status":"Real"},{"key":"10036520","name":"Hofweg","postalCode":"5313","locality":"Klingnau","commune":{"key":"4309","name":"Klingnau","shortName":"Klingnau"},"district":{"key":"1911","name":"Bezirk Zurzach"},"canton":{"key":"19","code":"AG","name":"Aargau"},"status":"Real"},{"key":"10036521","name":"Hohlgasse","postalCode":"5313","locality":"Klingnau","commune":{"key":"4309","name":"Klingnau","shortName":"Klingnau"},"district":{"key":"1911","name":"Bezirk Zurzach"},"canton":{"key":"19","code":"AG","name":"Aargau"},"status":"Real"},{"key":"10107595","name":"Höllsteweg","postalCode":"5313","locality":"Klingnau","commune":{"key":"4309","name":"Klingnau","shortName":"Klingnau"},"district":{"key":"1911","name":"Bezirk Zurzach"},"canton":{"key":"19","code":"AG","name":"Aargau"},"status":"Real"},{"key":"10059566","name":"Holzmattensteig","postalCode":"5313","locality":"Klingnau","commune":{"key":"4309","name":"Klingnau","shortName":"Klingnau"},"district":{"key":"1911","name":"Bezirk Zurzach"},"canton":{"key":"19","code":"AG","name":"Aargau"},"status":"Real"},{"key":"10072841","name":"Holzmattenstrasse","postalCode":"5313","locality":"Klingnau","commune":{"key":"4309","name":"Klingnau","shortName":"Klingnau"},"district":{"key":"1911","name":"Bezirk Zurzach"},"canton":{"key":"19","code":"AG","name":"Aargau"},"status":"Real"},{"key":"10190254","name":"Höngerstrasse","postalCode":"5313","locality":"Klingnau","commune":{"key":"4309","name":"Klingnau","shortName":"Klingnau"},"district":{"key":"1911","name":"Bezirk Zurzach"},"canton":{"key":"19","code":"AG","name":"Aargau"},"status":"Real"},{"key":"10239767","name":"Horebstrasse","postalCode":"5313","locality":"Klingnau","commune":{"key":"4309","name":"Klingnau","shortName":"Klingnau"},"district":{"key":"1911","name":"Bezirk Zurzach"},"canton":{"key":"19","code":"AG","name":"Aargau"},"status":"Real"},{"key":"10122712","name":"Industriestrasse","postalCode":"5313","locality":"Klingnau","commune":{"key":"4309","name":"Klingnau","shortName":"Klingnau"},"district":{"key":"1911","name":"Bezirk Zurzach"},"canton":{"key":"19","code":"AG","name":"Aargau"},"status":"Real"},{"key":"10094540","name":"Johannitergasse","postalCode":"5313","locality":"Klingnau","commune":{"key":"4309","name":"Klingnau","shortName":"Klingnau"},"district":{"key":"1911","name":"Bezirk Zurzach"},"canton":{"key":"19","code":"AG","name":"Aargau"},"status":"Real"},{"key":"10239771","name":"Johanniter-Steig","postalCode":"5313","locality":"Klingnau","commune":{"key":"4309","name":"Klingnau","shortName":"Klingnau"},"district":{"key":"1911","name":"Bezirk Zurzach"},"canton":{"key":"19","code":"AG","name":"Aargau"},"status":"Real"},{"key":"10194855","name":"Jonermattenring","postalCode":"5313","locality":"Klingnau","commune":{"key":"4309","name":"Klingnau","shortName":"Klingnau"},"district":{"key":"1911","name":"Bezirk Zurzach"},"canton":{"key":"19","code":"AG","name":"Aargau"},"status":"Real"},{"key":"10146722","name":"Jonermattenweg","postalCode":"5313","locality":"Klingnau","commune":{"key":"4309","name":"Klingnau","shortName":"Klingnau"},"district":{"key":"1911","name":"Bezirk Zurzach"},"canton":{"key":"19","code":"AG","name":"Aargau"},"status":"Real"},{"key":"10246086","name":"Kanalstrasse","postalCode":"5313","locality":"Klingnau","commune":{"key":"4309","name":"Klingnau","shortName":"Klingnau"},"district":{"key":"1911","name":"Bezirk Zurzach"},"canton":{"key":"19","code":"AG","name":"Aargau"},"status":"Real"},{"key":"10239775","name":"Kanalweg","postalCode":"5313","locality":"Klingnau","commune":{"key":"4309","name":"Klingnau","shortName":"Klingnau"},"district":{"key":"1911","name":"Bezirk Zurzach"},"canton":{"key":"19","code":"AG","name":"Aargau"},"status":"Real"},{"key":"10146724","name":"Katharinengasse","postalCode":"5313","locality":"Klingnau","commune":{"key":"4309","name":"Klingnau","shortName":"Klingnau"},"district":{"key":"1911","name":"Bezirk Zurzach"},"canton":{"key":"19","code":"AG","name":"Aargau"},"status":"Real"},{"key":"10036522","name":"Kirchweg","postalCode":"5313","locality":"Klingnau","commune":{"key":"4309","name":"Klingnau","shortName":"Klingnau"},"district":{"key":"1911","name":"Bezirk Zurzach"},"canton":{"key":"19","code":"AG","name":"Aargau"},"status":"Real"},{"key":"10072842","name":"Klosterweg","postalCode":"5313","locality":"Klingnau","commune":{"key":"4309","name":"Klingnau","shortName":"Klingnau"},"district":{"key":"1911","name":"Bezirk Zurzach"},"canton":{"key":"19","code":"AG","name":"Aargau"},"status":"Real"},{"key":"10036523","name":"Koblenzerstrasse","postalCode":"5313","locality":"Klingnau","commune":{"key":"4309","name":"Klingnau","shortName":"Klingnau"},"district":{"key":"1911","name":"Bezirk Zurzach"},"canton":{"key":"19","code":"AG","name":"Aargau"},"status":"Real"},{"key":"10158659","name":"Kraftwerkstrasse","postalCode":"5313","locality":"Klingnau","commune":{"key":"4309","name":"Klingnau","shortName":"Klingnau"},"district":{"key":"1911","name":"Bezirk Zurzach"},"canton":{"key":"19","code":"AG","name":"Aargau"},"status":"Real"},{"key":"10036524","name":"Lagerstrasse","postalCode":"5313","locality":"Klingnau","commune":{"key":"4309","name":"Klingnau","shortName":"Klingnau"},"district":{"key":"1911","name":"Bezirk Zurzach"},"canton":{"key":"19","code":"AG","name":"Aargau"},"status":"Real"},{"key":"10239779","name":"Leisebergsteig","postalCode":"5313","locality":"Klingnau","commune":{"key":"4309","name":"Klingnau","shortName":"Klingnau"},"district":{"key":"1911","name":"Bezirk Zurzach"},"canton":{"key":"19","code":"AG","name":"Aargau"},"status":"Real"},{"key":"10094541","name":"Liebefelsweg","postalCode":"5313","locality":"Klingnau","commune":{"key":"4309","name":"Klingnau","shortName":"Klingnau"},"district":{"key":"1911","name":"Bezirk Zurzach"},"canton":{"key":"19","code":"AG","name":"Aargau"},"status":"Real"},{"key":"10239783","name":"Lorettostrasse","postalCode":"5313","locality":"Klingnau","commune":{"key":"4309","name":"Klingnau","shortName":"Klingnau"},"district":{"key":"1911","name":"Bezirk Zurzach"},"canton":{"key":"19","code":"AG","name":"Aargau"},"status":"Real"},{"key":"10072843","name":"Mattenweg","postalCode":"5313","locality":"Klingnau","commune":{"key":"4309","name":"Klingnau","shortName":"Klingnau"},"district":{"key":"1911","name":"Bezirk Zurzach"},"canton":{"key":"19","code":"AG","name":"Aargau"},"status":"Real"},{"key":"10036525","name":"Mühlegasse","postalCode":"5313","locality":"Klingnau","commune":{"key":"4309","name":"Klingnau","shortName":"Klingnau"},"district":{"key":"1911","name":"Bezirk Zurzach"},"canton":{"key":"19","code":"AG","name":"Aargau"},"status":"Real"},{"key":"10036526","name":"Mülihof","postalCode":"5313","locality":"Klingnau","commune":{"key":"4309","name":"Klingnau","shortName":"Klingnau"},"district":{"key":"1911","name":"Bezirk Zurzach"},"canton":{"key":"19","code":"AG","name":"Aargau"},"status":"Real"},{"key":"10124729","name":"Nägeliweg","postalCode":"5313","locality":"Klingnau","commune":{"key":"4309","name":"Klingnau","shortName":"Klingnau"},"district":{"key":"1911","name":"Bezirk Zurzach"},"canton":{"key":"19","code":"AG","name":"Aargau"},"status":"Real"},{"key":"10196696","name":"Narrengasse","postalCode":"5313","locality":"Klingnau","commune":{"key":"4309","name":"Klingnau","shortName":"Klingnau"},"district":{"key":"1911","name":"Bezirk Zurzach"},"canton":{"key":"19","code":"AG","name":"Aargau"},"status":"Real"},{"key":"10036527","name":"Niklausgasse","postalCode":"5313","locality":"Klingnau","commune":{"key":"4309","name":"Klingnau","shortName":"Klingnau"},"district":{"key":"1911","name":"Bezirk Zurzach"},"canton":{"key":"19","code":"AG","name":"Aargau"},"status":"Real"},{"key":"10146725","name":"Obere Austrasse","postalCode":"5313","locality":"Klingnau","commune":{"key":"4309","name":"Klingnau","shortName":"Klingnau"},"district":{"key":"1911","name":"Bezirk Zurzach"},"canton":{"key":"19","code":"AG","name":"Aargau"},"status":"Real"},{"key":"10072844","name":"Oberes Zelgli","postalCode":"5313","locality":"Klingnau","commune":{"key":"4309","name":"Klingnau","shortName":"Klingnau"},"district":{"key":"1911","name":"Bezirk Zurzach"},"canton":{"key":"19","code":"AG","name":"Aargau"},"status":"Real"},{"key":"10094542","name":"Obermattenring","postalCode":"5313","locality":"Klingnau","commune":{"key":"4309","name":"Klingnau","shortName":"Klingnau"},"district":{"key":"1911","name":"Bezirk Zurzach"},"canton":{"key":"19","code":"AG","name":"Aargau"},"status":"Real"},{"key":"10190255","name":"Obermattenweg","postalCode":"5313","locality":"Klingnau","commune":{"key":"4309","name":"Klingnau","shortName":"Klingnau"},"district":{"key":"1911","name":"Bezirk Zurzach"},"canton":{"key":"19","code":"AG","name":"Aargau"},"status":"Real"},{"key":"10036528","name":"Parkstrasse","postalCode":"5313","locality":"Klingnau","commune":{"key":"4309","name":"Klingnau","shortName":"Klingnau"},"district":{"key":"1911","name":"Bezirk Zurzach"},"canton":{"key":"19","code":"AG","name":"Aargau"},"status":"Real"},{"key":"10114738","name":"Propstberg","postalCode":"5313","locality":"Klingnau","commune":{"key":"4309","name":"Klingnau","shortName":"Klingnau"},"district":{"key":"1911","name":"Bezirk Zurzach"},"canton":{"key":"19","code":"AG","name":"Aargau"},"status":"Real"},{"key":"10094543","name":"Propsteigasse","postalCode":"5313","locality":"Klingnau","commune":{"key":"4309","name":"Klingnau","shortName":"Klingnau"},"district":{"key":"1911","name":"Bezirk Zurzach"},"canton":{"key":"19","code":"AG","name":"Aargau"},"status":"Real"},{"key":"10146727","name":"Propsteistrasse","postalCode":"5313","locality":"Klingnau","commune":{"key":"4309","name":"Klingnau","shortName":"Klingnau"},"district":{"key":"1911","name":"Bezirk Zurzach"},"canton":{"key":"19","code":"AG","name":"Aargau"},"status":"Real"},{"key":"10239787","name":"Propsteiweg","postalCode":"5313","locality":"Klingnau","commune":{"key":"4309","name":"Klingnau","shortName":"Klingnau"},"district":{"key":"1911","name":"Bezirk Zurzach"},"canton":{"key":"19","code":"AG","name":"Aargau"},"status":"Real"},{"key":"10036529","name":"Rebbergweg","postalCode":"5313","locality":"Klingnau","commune":{"key":"4309","name":"Klingnau","shortName":"Klingnau"},"district":{"key":"1911","name":"Bezirk Zurzach"},"canton":{"key":"19","code":"AG","name":"Aargau"},"status":"Real"},{"key":"10036530","name":"Rottrottenweg","postalCode":"5313","locality":"Klingnau","commune":{"key":"4309","name":"Klingnau","shortName":"Klingnau"},"district":{"key":"1911","name":"Bezirk Zurzach"},"canton":{"key":"19","code":"AG","name":"Aargau"},"status":"Real"},{"key":"10051821","name":"Rütihof","postalCode":"5313","locality":"Klingnau","commune":{"key":"4309","name":"Klingnau","shortName":"Klingnau"},"district":{"key":"1911","name":"Bezirk Zurzach"},"canton":{"key":"19","code":"AG","name":"Aargau"},"status":"Real"},{"key":"10146728","name":"Rütistrasse","postalCode":"5313","locality":"Klingnau","commune":{"key":"4309","name":"Klingnau","shortName":"Klingnau"},"district":{"key":"1911","name":"Bezirk Zurzach"},"canton":{"key":"19","code":"AG","name":"Aargau"},"status":"Real"},{"key":"10036535","name":"Sägegasse","postalCode":"5313","locality":"Klingnau","commune":{"key":"4309","name":"Klingnau","shortName":"Klingnau"},"district":{"key":"1911","name":"Bezirk Zurzach"},"canton":{"key":"19","code":"AG","name":"Aargau"},"status":"Real"},{"key":"10036531","name":"Schattengasse","postalCode":"5313","locality":"Klingnau","commune":{"key":"4309","name":"Klingnau","shortName":"Klingnau"},"district":{"key":"1911","name":"Bezirk Zurzach"},"canton":{"key":"19","code":"AG","name":"Aargau"},"status":"Real"},{"key":"10146729","name":"Schlagenstrasse","postalCode":"5313","locality":"Klingnau","commune":{"key":"4309","name":"Klingnau","shortName":"Klingnau"},"district":{"key":"1911","name":"Bezirk Zurzach"},"canton":{"key":"19","code":"AG","name":"Aargau"},"status":"Real"},{"key":"10239791","name":"Schmuckersteig","postalCode":"5313","locality":"Klingnau","commune":{"key":"4309","name":"Klingnau","shortName":"Klingnau"},"district":{"key":"1911","name":"Bezirk Zurzach"},"canton":{"key":"19","code":"AG","name":"Aargau"},"status":"Real"},{"key":"10146730","name":"Schulweg","postalCode":"5313","locality":"Klingnau","commune":{"key":"4309","name":"Klingnau","shortName":"Klingnau"},"district":{"key":"1911","name":"Bezirk Zurzach"},"canton":{"key":"19","code":"AG","name":"Aargau"},"status":"Real"},{"key":"10036532","name":"Schützenmattstrasse","postalCode":"5313","locality":"Klingnau","commune":{"key":"4309","name":"Klingnau","shortName":"Klingnau"},"district":{"key":"1911","name":"Bezirk Zurzach"},"canton":{"key":"19","code":"AG","name":"Aargau"},"status":"Real"},{"key":"10094544","name":"Schützenmattweg","postalCode":"5313","locality":"Klingnau","commune":{"key":"4309","name":"Klingnau","shortName":"Klingnau"},"district":{"key":"1911","name":"Bezirk Zurzach"},"canton":{"key":"19","code":"AG","name":"Aargau"},"status":"Real"},{"key":"10072845","name":"Schwändiweg","postalCode":"5313","locality":"Klingnau","commune":{"key":"4309","name":"Klingnau","shortName":"Klingnau"},"district":{"key":"1911","name":"Bezirk Zurzach"},"canton":{"key":"19","code":"AG","name":"Aargau"},"status":"Real"},{"key":"10239795","name":"Seitenkanalstrasse","postalCode":"5313","locality":"Klingnau","commune":{"key":"4309","name":"Klingnau","shortName":"Klingnau"},"district":{"key":"1911","name":"Bezirk Zurzach"},"canton":{"key":"19","code":"AG","name":"Aargau"},"status":"Real"},{"key":"10239799","name":"Signalstrasse","postalCode":"5313","locality":"Klingnau","commune":{"key":"4309","name":"Klingnau","shortName":"Klingnau"},"district":{"key":"1911","name":"Bezirk Zurzach"},"canton":{"key":"19","code":"AG","name":"Aargau"},"status":"Real"},{"key":"10036533","name":"Sionerweg","postalCode":"5313","locality":"Klingnau","commune":{"key":"4309","name":"Klingnau","shortName":"Klingnau"},"district":{"key":"1911","name":"Bezirk Zurzach"},"canton":{"key":"19","code":"AG","name":"Aargau"},"status":"Real"},{"key":"10122713","name":"Sommerweg","postalCode":"5313","locality":"Klingnau","commune":{"key":"4309","name":"Klingnau","shortName":"Klingnau"},"district":{"key":"1911","name":"Bezirk Zurzach"},"canton":{"key":"19","code":"AG","name":"Aargau"},"status":"Real"},{"key":"10109231","name":"Sonnengasse","postalCode":"5313","locality":"Klingnau","commune":{"key":"4309","name":"Klingnau","shortName":"Klingnau"},"district":{"key":"1911","name":"Bezirk Zurzach"},"canton":{"key":"19","code":"AG","name":"Aargau"},"status":"Real"},{"key":"10094545","name":"Stauseestrasse","postalCode":"5313","locality":"Klingnau","commune":{"key":"4309","name":"Klingnau","shortName":"Klingnau"},"district":{"key":"1911","name":"Bezirk Zurzach"},"canton":{"key":"19","code":"AG","name":"Aargau"},"status":"Real"},{"key":"10190256","name":"Steigbrunneweg","postalCode":"5313","locality":"Klingnau","commune":{"key":"4309","name":"Klingnau","shortName":"Klingnau"},"district":{"key":"1911","name":"Bezirk Zurzach"},"canton":{"key":"19","code":"AG","name":"Aargau"},"status":"Real"},{"key":"10036534","name":"Steigring","postalCode":"5313","locality":"Klingnau","commune":{"key":"4309","name":"Klingnau","shortName":"Klingnau"},"district":{"key":"1911","name":"Bezirk Zurzach"},"canton":{"key":"19","code":"AG","name":"Aargau"},"status":"Real"},{"key":"10094809","name":"Steigstrasse","postalCode":"5313","locality":"Klingnau","commune":{"key":"4309","name":"Klingnau","shortName":"Klingnau"},"district":{"key":"1911","name":"Bezirk Zurzach"},"canton":{"key":"19","code":"AG","name":"Aargau"},"status":"Real"},{"key":"10072846","name":"Steigtrottenweg","postalCode":"5313","locality":"Klingnau","commune":{"key":"4309","name":"Klingnau","shortName":"Klingnau"},"district":{"key":"1911","name":"Bezirk Zurzach"},"canton":{"key":"19","code":"AG","name":"Aargau"},"status":"Real"},{"key":"10146731","name":"Steinmargasse","postalCode":"5313","locality":"Klingnau","commune":{"key":"4309","name":"Klingnau","shortName":"Klingnau"},"district":{"key":"1911","name":"Bezirk Zurzach"},"canton":{"key":"19","code":"AG","name":"Aargau"},"status":"Real"},{"key":"10059567","name":"Tannenhof","postalCode":"5313","locality":"Klingnau","commune":{"key":"4309","name":"Klingnau","shortName":"Klingnau"},"district":{"key":"1911","name":"Bezirk Zurzach"},"canton":{"key":"19","code":"AG","name":"Aargau"},"status":"Real"},{"key":"10036536","name":"Terrassenweg","postalCode":"5313","locality":"Klingnau","commune":{"key":"4309","name":"Klingnau","shortName":"Klingnau"},"district":{"key":"1911","name":"Bezirk Zurzach"},"canton":{"key":"19","code":"AG","name":"Aargau"},"status":"Real"},{"key":"10053264","name":"Traubenweg","postalCode":"5313","locality":"Klingnau","commune":{"key":"4309","name":"Klingnau","shortName":"Klingnau"},"district":{"key":"1911","name":"Bezirk Zurzach"},"canton":{"key":"19","code":"AG","name":"Aargau"},"status":"Real"},{"key":"10107071","name":"Trottensteig","postalCode":"5313","locality":"Klingnau","commune":{"key":"4309","name":"Klingnau","shortName":"Klingnau"},"district":{"key":"1911","name":"Bezirk Zurzach"},"canton":{"key":"19","code":"AG","name":"Aargau"},"status":"Real"},{"key":"10094810","name":"Trottenweg","postalCode":"5313","locality":"Klingnau","commune":{"key":"4309","name":"Klingnau","shortName":"Klingnau"},"district":{"key":"1911","name":"Bezirk Zurzach"},"canton":{"key":"19","code":"AG","name":"Aargau"},"status":"Real"},{"key":"10036537","name":"Unterstadtgasse","postalCode":"5313","locality":"Klingnau","commune":{"key":"4309","name":"Klingnau","shortName":"Klingnau"},"district":{"key":"1911","name":"Bezirk Zurzach"},"canton":{"key":"19","code":"AG","name":"Aargau"},"status":"Real"},{"key":"10053265","name":"Waldweg","postalCode":"5313","locality":"Klingnau","commune":{"key":"4309","name":"Klingnau","shortName":"Klingnau"},"district":{"key":"1911","name":"Bezirk Zurzach"},"canton":{"key":"19","code":"AG","name":"Aargau"},"status":"Real"},{"key":"10072847","name":"Weierstrasse","postalCode":"5313","locality":"Klingnau","commune":{"key":"4309","name":"Klingnau","shortName":"Klingnau"},"district":{"key":"1911","name":"Bezirk Zurzach"},"canton":{"key":"19","code":"AG","name":"Aargau"},"status":"Real"},{"key":"10186555","name":"Widenweg","postalCode":"5313","locality":"Klingnau","commune":{"key":"4309","name":"Klingnau","shortName":"Klingnau"},"district":{"key":"1911","name":"Bezirk Zurzach"},"canton":{"key":"19","code":"AG","name":"Aargau"},"status":"Real"},{"key":"10036538","name":"Wiesenweg","postalCode":"5313","locality":"Klingnau","commune":{"key":"4309","name":"Klingnau","shortName":"Klingnau"},"district":{"key":"1911","name":"Bezirk Zurzach"},"canton":{"key":"19","code":"AG","name":"Aargau"},"status":"Real"},{"key":"10239803","name":"Winzersteig","postalCode":"5313","locality":"Klingnau","commune":{"key":"4309","name":"Klingnau","shortName":"Klingnau"},"district":{"key":"1911","name":"Bezirk Zurzach"},"canton":{"key":"19","code":"AG","name":"Aargau"},"status":"Real"},{"key":"10036539","name":"Wisstrotteweg","postalCode":"5313","locality":"Klingnau","commune":{"key":"4309","name":"Klingnau","shortName":"Klingnau"},"district":{"key":"1911","name":"Bezirk Zurzach"},"canton":{"key":"19","code":"AG","name":"Aargau"},"status":"Real"},{"key":"10094811","name":"Zelgli","postalCode":"5313","locality":"Klingnau","commune":{"key":"4309","name":"Klingnau","shortName":"Klingnau"},"district":{"key":"1911","name":"Bezirk Zurzach"},"canton":{"key":"19","code":"AG","name":"Aargau"},"status":"Real"},{"key":"10132465","name":"Ziblistrasse","postalCode":"5313","locality":"Klingnau","commune":{"key":"4309","name":"Klingnau","shortName":"Klingnau"},"district":{"key":"1911","name":"Bezirk Zurzach"},"canton":{"key":"19","code":"AG","name":"Aargau"},"status":"Real"},{"key":"10124405","name":"Zürigasse","postalCode":"5313","locality":"Klingnau","commune":{"key":"4309","name":"Klingnau","shortName":"Klingnau"},"district":{"key":"1911","name":"Bezirk Zurzach"},"canton":{"key":"19","code":"AG","name":"Aargau"},"status":"Real"},]