[{"name":"Ahornstr.","postalCode":"66509","locality":"Rieschweiler-Mühlbach","municipality":{"key":"07340222","name":"Rieschweiler-Mühlbach","type":"Kreisangehörige_Gemeinde"},"district":{"key":"07340","name":"Südwestpfalz","type":"Landkreis"},"federalState":{"key":"07","name":"Rheinland-Pfalz"}},{"name":"Am Dorfberg","postalCode":"66509","locality":"Rieschweiler-Mühlbach","municipality":{"key":"07340222","name":"Rieschweiler-Mühlbach","type":"Kreisangehörige_Gemeinde"},"district":{"key":"07340","name":"Südwestpfalz","type":"Landkreis"},"federalState":{"key":"07","name":"Rheinland-Pfalz"}},{"name":"Am Markt","postalCode":"66509","locality":"Rieschweiler-Mühlbach","municipality":{"key":"07340222","name":"Rieschweiler-Mühlbach","type":"Kreisangehörige_Gemeinde"},"district":{"key":"07340","name":"Südwestpfalz","type":"Landkreis"},"federalState":{"key":"07","name":"Rheinland-Pfalz"}},{"name":"An der Pottschütt","postalCode":"66509","locality":"Rieschweiler-Mühlbach","municipality":{"key":"07340222","name":"Rieschweiler-Mühlbach","type":"Kreisangehörige_Gemeinde"},"district":{"key":"07340","name":"Südwestpfalz","type":"Landkreis"},"federalState":{"key":"07","name":"Rheinland-Pfalz"}},{"name":"Auf der Höhe","postalCode":"66509","locality":"Rieschweiler-Mühlbach","municipality":{"key":"07340222","name":"Rieschweiler-Mühlbach","type":"Kreisangehörige_Gemeinde"},"district":{"key":"07340","name":"Südwestpfalz","type":"Landkreis"},"federalState":{"key":"07","name":"Rheinland-Pfalz"}},{"name":"Bahnhofstr.","postalCode":"66509","locality":"Rieschweiler-Mühlbach","municipality":{"key":"07340222","name":"Rieschweiler-Mühlbach","type":"Kreisangehörige_Gemeinde"},"district":{"key":"07340","name":"Südwestpfalz","type":"Landkreis"},"federalState":{"key":"07","name":"Rheinland-Pfalz"}},{"name":"Bergstr.","postalCode":"66509","locality":"Rieschweiler-Mühlbach","municipality":{"key":"07340222","name":"Rieschweiler-Mühlbach","type":"Kreisangehörige_Gemeinde"},"district":{"key":"07340","name":"Südwestpfalz","type":"Landkreis"},"federalState":{"key":"07","name":"Rheinland-Pfalz"}},{"name":"Birkenstr.","postalCode":"66509","locality":"Rieschweiler-Mühlbach","municipality":{"key":"07340222","name":"Rieschweiler-Mühlbach","type":"Kreisangehörige_Gemeinde"},"district":{"key":"07340","name":"Südwestpfalz","type":"Landkreis"},"federalState":{"key":"07","name":"Rheinland-Pfalz"}},{"name":"Blumenstr.","postalCode":"66509","locality":"Rieschweiler-Mühlbach","municipality":{"key":"07340222","name":"Rieschweiler-Mühlbach","type":"Kreisangehörige_Gemeinde"},"district":{"key":"07340","name":"Südwestpfalz","type":"Landkreis"},"federalState":{"key":"07","name":"Rheinland-Pfalz"}},{"name":"Bogenstr.","postalCode":"66509","locality":"Rieschweiler-Mühlbach","municipality":{"key":"07340222","name":"Rieschweiler-Mühlbach","type":"Kreisangehörige_Gemeinde"},"district":{"key":"07340","name":"Südwestpfalz","type":"Landkreis"},"federalState":{"key":"07","name":"Rheinland-Pfalz"}},{"name":"Buchenstr.","postalCode":"66509","locality":"Rieschweiler-Mühlbach","municipality":{"key":"07340222","name":"Rieschweiler-Mühlbach","type":"Kreisangehörige_Gemeinde"},"district":{"key":"07340","name":"Südwestpfalz","type":"Landkreis"},"federalState":{"key":"07","name":"Rheinland-Pfalz"}},{"name":"Eichenstr.","postalCode":"66509","locality":"Rieschweiler-Mühlbach","municipality":{"key":"07340222","name":"Rieschweiler-Mühlbach","type":"Kreisangehörige_Gemeinde"},"district":{"key":"07340","name":"Südwestpfalz","type":"Landkreis"},"federalState":{"key":"07","name":"Rheinland-Pfalz"}},{"name":"Fabrikstr.","postalCode":"66509","locality":"Rieschweiler-Mühlbach","municipality":{"key":"07340222","name":"Rieschweiler-Mühlbach","type":"Kreisangehörige_Gemeinde"},"district":{"key":"07340","name":"Südwestpfalz","type":"Landkreis"},"federalState":{"key":"07","name":"Rheinland-Pfalz"}},{"name":"Flurstr.","postalCode":"66509","locality":"Rieschweiler-Mühlbach","municipality":{"key":"07340222","name":"Rieschweiler-Mühlbach","type":"Kreisangehörige_Gemeinde"},"district":{"key":"07340","name":"Südwestpfalz","type":"Landkreis"},"federalState":{"key":"07","name":"Rheinland-Pfalz"}},{"name":"Friedhofstr.","postalCode":"66509","locality":"Rieschweiler-Mühlbach","municipality":{"key":"07340222","name":"Rieschweiler-Mühlbach","type":"Kreisangehörige_Gemeinde"},"district":{"key":"07340","name":"Südwestpfalz","type":"Landkreis"},"federalState":{"key":"07","name":"Rheinland-Pfalz"}},{"name":"Gartenstr.","postalCode":"66509","locality":"Rieschweiler-Mühlbach","municipality":{"key":"07340222","name":"Rieschweiler-Mühlbach","type":"Kreisangehörige_Gemeinde"},"district":{"key":"07340","name":"Südwestpfalz","type":"Landkreis"},"federalState":{"key":"07","name":"Rheinland-Pfalz"}},{"name":"Goethestr.","postalCode":"66509","locality":"Rieschweiler-Mühlbach","municipality":{"key":"07340222","name":"Rieschweiler-Mühlbach","type":"Kreisangehörige_Gemeinde"},"district":{"key":"07340","name":"Südwestpfalz","type":"Landkreis"},"federalState":{"key":"07","name":"Rheinland-Pfalz"}},{"name":"Hauptstr.","postalCode":"66509","locality":"Rieschweiler-Mühlbach","municipality":{"key":"07340222","name":"Rieschweiler-Mühlbach","type":"Kreisangehörige_Gemeinde"},"district":{"key":"07340","name":"Südwestpfalz","type":"Landkreis"},"federalState":{"key":"07","name":"Rheinland-Pfalz"}},{"name":"Hohlstr.","postalCode":"66509","locality":"Rieschweiler-Mühlbach","municipality":{"key":"07340222","name":"Rieschweiler-Mühlbach","type":"Kreisangehörige_Gemeinde"},"district":{"key":"07340","name":"Südwestpfalz","type":"Landkreis"},"federalState":{"key":"07","name":"Rheinland-Pfalz"}},{"name":"Hohlweg","postalCode":"66509","locality":"Rieschweiler-Mühlbach","municipality":{"key":"07340222","name":"Rieschweiler-Mühlbach","type":"Kreisangehörige_Gemeinde"},"district":{"key":"07340","name":"Südwestpfalz","type":"Landkreis"},"federalState":{"key":"07","name":"Rheinland-Pfalz"}},{"name":"Im Hechtloch","postalCode":"66509","locality":"Rieschweiler-Mühlbach","municipality":{"key":"07340222","name":"Rieschweiler-Mühlbach","type":"Kreisangehörige_Gemeinde"},"district":{"key":"07340","name":"Südwestpfalz","type":"Landkreis"},"federalState":{"key":"07","name":"Rheinland-Pfalz"}},{"name":"In der Sperr","postalCode":"66509","locality":"Rieschweiler-Mühlbach","municipality":{"key":"07340222","name":"Rieschweiler-Mühlbach","type":"Kreisangehörige_Gemeinde"},"district":{"key":"07340","name":"Südwestpfalz","type":"Landkreis"},"federalState":{"key":"07","name":"Rheinland-Pfalz"}},{"name":"Kantstr.","postalCode":"66509","locality":"Rieschweiler-Mühlbach","municipality":{"key":"07340222","name":"Rieschweiler-Mühlbach","type":"Kreisangehörige_Gemeinde"},"district":{"key":"07340","name":"Südwestpfalz","type":"Landkreis"},"federalState":{"key":"07","name":"Rheinland-Pfalz"}},{"name":"Kirchenstr.","postalCode":"66509","locality":"Rieschweiler-Mühlbach","municipality":{"key":"07340222","name":"Rieschweiler-Mühlbach","type":"Kreisangehörige_Gemeinde"},"district":{"key":"07340","name":"Südwestpfalz","type":"Landkreis"},"federalState":{"key":"07","name":"Rheinland-Pfalz"}},{"name":"Lessingstr.","postalCode":"66509","locality":"Rieschweiler-Mühlbach","municipality":{"key":"07340222","name":"Rieschweiler-Mühlbach","type":"Kreisangehörige_Gemeinde"},"district":{"key":"07340","name":"Südwestpfalz","type":"Landkreis"},"federalState":{"key":"07","name":"Rheinland-Pfalz"}},{"name":"Lindenstr.","postalCode":"66509","locality":"Rieschweiler-Mühlbach","municipality":{"key":"07340222","name":"Rieschweiler-Mühlbach","type":"Kreisangehörige_Gemeinde"},"district":{"key":"07340","name":"Südwestpfalz","type":"Landkreis"},"federalState":{"key":"07","name":"Rheinland-Pfalz"}},{"name":"Mittelbergstr.","postalCode":"66509","locality":"Rieschweiler-Mühlbach","municipality":{"key":"07340222","name":"Rieschweiler-Mühlbach","type":"Kreisangehörige_Gemeinde"},"district":{"key":"07340","name":"Südwestpfalz","type":"Landkreis"},"federalState":{"key":"07","name":"Rheinland-Pfalz"}},{"name":"Mühltalstr.","postalCode":"66509","locality":"Rieschweiler-Mühlbach","municipality":{"key":"07340222","name":"Rieschweiler-Mühlbach","type":"Kreisangehörige_Gemeinde"},"district":{"key":"07340","name":"Südwestpfalz","type":"Landkreis"},"federalState":{"key":"07","name":"Rheinland-Pfalz"}},{"name":"Ostring","postalCode":"66509","locality":"Rieschweiler-Mühlbach","municipality":{"key":"07340222","name":"Rieschweiler-Mühlbach","type":"Kreisangehörige_Gemeinde"},"district":{"key":"07340","name":"Südwestpfalz","type":"Landkreis"},"federalState":{"key":"07","name":"Rheinland-Pfalz"}},{"name":"Pirmasenserstr.","postalCode":"66509","locality":"Rieschweiler-Mühlbach","municipality":{"key":"07340222","name":"Rieschweiler-Mühlbach","type":"Kreisangehörige_Gemeinde"},"district":{"key":"07340","name":"Südwestpfalz","type":"Landkreis"},"federalState":{"key":"07","name":"Rheinland-Pfalz"}},{"name":"Ringstr.","postalCode":"66509","locality":"Rieschweiler-Mühlbach","municipality":{"key":"07340222","name":"Rieschweiler-Mühlbach","type":"Kreisangehörige_Gemeinde"},"district":{"key":"07340","name":"Südwestpfalz","type":"Landkreis"},"federalState":{"key":"07","name":"Rheinland-Pfalz"}},{"name":"Rosenstr.","postalCode":"66509","locality":"Rieschweiler-Mühlbach","municipality":{"key":"07340222","name":"Rieschweiler-Mühlbach","type":"Kreisangehörige_Gemeinde"},"district":{"key":"07340","name":"Südwestpfalz","type":"Landkreis"},"federalState":{"key":"07","name":"Rheinland-Pfalz"}},{"name":"Schillerstr.","postalCode":"66509","locality":"Rieschweiler-Mühlbach","municipality":{"key":"07340222","name":"Rieschweiler-Mühlbach","type":"Kreisangehörige_Gemeinde"},"district":{"key":"07340","name":"Südwestpfalz","type":"Landkreis"},"federalState":{"key":"07","name":"Rheinland-Pfalz"}},{"name":"Schulstr.","postalCode":"66509","locality":"Rieschweiler-Mühlbach","municipality":{"key":"07340222","name":"Rieschweiler-Mühlbach","type":"Kreisangehörige_Gemeinde"},"district":{"key":"07340","name":"Südwestpfalz","type":"Landkreis"},"federalState":{"key":"07","name":"Rheinland-Pfalz"}},{"name":"Sonnenstr.","postalCode":"66509","locality":"Rieschweiler-Mühlbach","municipality":{"key":"07340222","name":"Rieschweiler-Mühlbach","type":"Kreisangehörige_Gemeinde"},"district":{"key":"07340","name":"Südwestpfalz","type":"Landkreis"},"federalState":{"key":"07","name":"Rheinland-Pfalz"}},{"name":"Steilgasse","postalCode":"66509","locality":"Rieschweiler-Mühlbach","municipality":{"key":"07340222","name":"Rieschweiler-Mühlbach","type":"Kreisangehörige_Gemeinde"},"district":{"key":"07340","name":"Südwestpfalz","type":"Landkreis"},"federalState":{"key":"07","name":"Rheinland-Pfalz"}},{"name":"Stichstr.","postalCode":"66509","locality":"Rieschweiler-Mühlbach","municipality":{"key":"07340222","name":"Rieschweiler-Mühlbach","type":"Kreisangehörige_Gemeinde"},"district":{"key":"07340","name":"Südwestpfalz","type":"Landkreis"},"federalState":{"key":"07","name":"Rheinland-Pfalz"}},{"name":"Talstr.","postalCode":"66509","locality":"Rieschweiler-Mühlbach","municipality":{"key":"07340222","name":"Rieschweiler-Mühlbach","type":"Kreisangehörige_Gemeinde"},"district":{"key":"07340","name":"Südwestpfalz","type":"Landkreis"},"federalState":{"key":"07","name":"Rheinland-Pfalz"}},{"name":"Tulpenstr.","postalCode":"66509","locality":"Rieschweiler-Mühlbach","municipality":{"key":"07340222","name":"Rieschweiler-Mühlbach","type":"Kreisangehörige_Gemeinde"},"district":{"key":"07340","name":"Südwestpfalz","type":"Landkreis"},"federalState":{"key":"07","name":"Rheinland-Pfalz"}},{"name":"Ulmenstr.","postalCode":"66509","locality":"Rieschweiler-Mühlbach","municipality":{"key":"07340222","name":"Rieschweiler-Mühlbach","type":"Kreisangehörige_Gemeinde"},"district":{"key":"07340","name":"Südwestpfalz","type":"Landkreis"},"federalState":{"key":"07","name":"Rheinland-Pfalz"}},{"name":"Waldstr.","postalCode":"66509","locality":"Rieschweiler-Mühlbach","municipality":{"key":"07340222","name":"Rieschweiler-Mühlbach","type":"Kreisangehörige_Gemeinde"},"district":{"key":"07340","name":"Südwestpfalz","type":"Landkreis"},"federalState":{"key":"07","name":"Rheinland-Pfalz"}},{"name":"Wiesenstr.","postalCode":"66509","locality":"Rieschweiler-Mühlbach","municipality":{"key":"07340222","name":"Rieschweiler-Mühlbach","type":"Kreisangehörige_Gemeinde"},"district":{"key":"07340","name":"Südwestpfalz","type":"Landkreis"},"federalState":{"key":"07","name":"Rheinland-Pfalz"}},{"name":"Zum Sportplatz","postalCode":"66509","locality":"Rieschweiler-Mühlbach","municipality":{"key":"07340222","name":"Rieschweiler-Mühlbach","type":"Kreisangehörige_Gemeinde"},"district":{"key":"07340","name":"Südwestpfalz","type":"Landkreis"},"federalState":{"key":"07","name":"Rheinland-Pfalz"}},{"name":"Zur Pottschütt","postalCode":"66509","locality":"Rieschweiler-Mühlbach","municipality":{"key":"07340222","name":"Rieschweiler-Mühlbach","type":"Kreisangehörige_Gemeinde"},"district":{"key":"07340","name":"Südwestpfalz","type":"Landkreis"},"federalState":{"key":"07","name":"Rheinland-Pfalz"}},{"name":"Zweibrückerstr.","postalCode":"66509","locality":"Rieschweiler-Mühlbach","municipality":{"key":"07340222","name":"Rieschweiler-Mühlbach","type":"Kreisangehörige_Gemeinde"},"district":{"key":"07340","name":"Südwestpfalz","type":"Landkreis"},"federalState":{"key":"07","name":"Rheinland-Pfalz"}},]