[{"name":"Altbachgasse","postalCode":"67593","locality":"Westhofen","municipality":{"key":"07331071","name":"Westhofen","type":"Kreisangehörige_Gemeinde"},"district":{"key":"07331","name":"Alzey-Worms","type":"Landkreis"},"federalState":{"key":"07","name":"Rheinland-Pfalz"}},{"name":"Am Alten Backhaus","postalCode":"67593","locality":"Westhofen","municipality":{"key":"07331071","name":"Westhofen","type":"Kreisangehörige_Gemeinde"},"district":{"key":"07331","name":"Alzey-Worms","type":"Landkreis"},"federalState":{"key":"07","name":"Rheinland-Pfalz"}},{"name":"Am Alten Osthofener Weg","postalCode":"67593","locality":"Westhofen","municipality":{"key":"07331071","name":"Westhofen","type":"Kreisangehörige_Gemeinde"},"district":{"key":"07331","name":"Alzey-Worms","type":"Landkreis"},"federalState":{"key":"07","name":"Rheinland-Pfalz"}},{"name":"Am Bergkloster","postalCode":"67593","locality":"Westhofen","municipality":{"key":"07331071","name":"Westhofen","type":"Kreisangehörige_Gemeinde"},"district":{"key":"07331","name":"Alzey-Worms","type":"Landkreis"},"federalState":{"key":"07","name":"Rheinland-Pfalz"}},{"name":"Am Bogen","postalCode":"67593","locality":"Westhofen","municipality":{"key":"07331071","name":"Westhofen","type":"Kreisangehörige_Gemeinde"},"district":{"key":"07331","name":"Alzey-Worms","type":"Landkreis"},"federalState":{"key":"07","name":"Rheinland-Pfalz"}},{"name":"Am Klausenberg","postalCode":"67593","locality":"Westhofen","municipality":{"key":"07331071","name":"Westhofen","type":"Kreisangehörige_Gemeinde"},"district":{"key":"07331","name":"Alzey-Worms","type":"Landkreis"},"federalState":{"key":"07","name":"Rheinland-Pfalz"}},{"name":"Am Markt","postalCode":"67593","locality":"Westhofen","municipality":{"key":"07331071","name":"Westhofen","type":"Kreisangehörige_Gemeinde"},"district":{"key":"07331","name":"Alzey-Worms","type":"Landkreis"},"federalState":{"key":"07","name":"Rheinland-Pfalz"}},{"name":"Am Mühlbach","postalCode":"67593","locality":"Westhofen","municipality":{"key":"07331071","name":"Westhofen","type":"Kreisangehörige_Gemeinde"},"district":{"key":"07331","name":"Alzey-Worms","type":"Landkreis"},"federalState":{"key":"07","name":"Rheinland-Pfalz"}},{"name":"Am Mühlweg","postalCode":"67593","locality":"Westhofen","municipality":{"key":"07331071","name":"Westhofen","type":"Kreisangehörige_Gemeinde"},"district":{"key":"07331","name":"Alzey-Worms","type":"Landkreis"},"federalState":{"key":"07","name":"Rheinland-Pfalz"}},{"name":"Am Neuberg","postalCode":"67593","locality":"Westhofen","municipality":{"key":"07331071","name":"Westhofen","type":"Kreisangehörige_Gemeinde"},"district":{"key":"07331","name":"Alzey-Worms","type":"Landkreis"},"federalState":{"key":"07","name":"Rheinland-Pfalz"}},{"name":"Am Nickelgarten","postalCode":"67593","locality":"Westhofen","municipality":{"key":"07331071","name":"Westhofen","type":"Kreisangehörige_Gemeinde"},"district":{"key":"07331","name":"Alzey-Worms","type":"Landkreis"},"federalState":{"key":"07","name":"Rheinland-Pfalz"}},{"name":"Am Pfaffenweg","postalCode":"67593","locality":"Westhofen","municipality":{"key":"07331071","name":"Westhofen","type":"Kreisangehörige_Gemeinde"},"district":{"key":"07331","name":"Alzey-Worms","type":"Landkreis"},"federalState":{"key":"07","name":"Rheinland-Pfalz"}},{"name":"Am Scheuergarten","postalCode":"67593","locality":"Westhofen","municipality":{"key":"07331071","name":"Westhofen","type":"Kreisangehörige_Gemeinde"},"district":{"key":"07331","name":"Alzey-Worms","type":"Landkreis"},"federalState":{"key":"07","name":"Rheinland-Pfalz"}},{"name":"An dem Seebach","postalCode":"67593","locality":"Westhofen","municipality":{"key":"07331071","name":"Westhofen","type":"Kreisangehörige_Gemeinde"},"district":{"key":"07331","name":"Alzey-Worms","type":"Landkreis"},"federalState":{"key":"07","name":"Rheinland-Pfalz"}},{"name":"An dem unteren Seebach","postalCode":"67593","locality":"Westhofen","municipality":{"key":"07331071","name":"Westhofen","type":"Kreisangehörige_Gemeinde"},"district":{"key":"07331","name":"Alzey-Worms","type":"Landkreis"},"federalState":{"key":"07","name":"Rheinland-Pfalz"}},{"name":"An den Seegärten","postalCode":"67593","locality":"Westhofen","municipality":{"key":"07331071","name":"Westhofen","type":"Kreisangehörige_Gemeinde"},"district":{"key":"07331","name":"Alzey-Worms","type":"Landkreis"},"federalState":{"key":"07","name":"Rheinland-Pfalz"}},{"name":"An der Brennerei","postalCode":"67593","locality":"Westhofen","municipality":{"key":"07331071","name":"Westhofen","type":"Kreisangehörige_Gemeinde"},"district":{"key":"07331","name":"Alzey-Worms","type":"Landkreis"},"federalState":{"key":"07","name":"Rheinland-Pfalz"}},{"name":"An der Gutmannshohl","postalCode":"67593","locality":"Westhofen","municipality":{"key":"07331071","name":"Westhofen","type":"Kreisangehörige_Gemeinde"},"district":{"key":"07331","name":"Alzey-Worms","type":"Landkreis"},"federalState":{"key":"07","name":"Rheinland-Pfalz"}},{"name":"An der Hend","postalCode":"67593","locality":"Westhofen","municipality":{"key":"07331071","name":"Westhofen","type":"Kreisangehörige_Gemeinde"},"district":{"key":"07331","name":"Alzey-Worms","type":"Landkreis"},"federalState":{"key":"07","name":"Rheinland-Pfalz"}},{"name":"An der Letze","postalCode":"67593","locality":"Westhofen","municipality":{"key":"07331071","name":"Westhofen","type":"Kreisangehörige_Gemeinde"},"district":{"key":"07331","name":"Alzey-Worms","type":"Landkreis"},"federalState":{"key":"07","name":"Rheinland-Pfalz"}},{"name":"An der Umgehungsstr.","postalCode":"67593","locality":"Westhofen","municipality":{"key":"07331071","name":"Westhofen","type":"Kreisangehörige_Gemeinde"},"district":{"key":"07331","name":"Alzey-Worms","type":"Landkreis"},"federalState":{"key":"07","name":"Rheinland-Pfalz"}},{"name":"An der Wittgeshohl","postalCode":"67593","locality":"Westhofen","municipality":{"key":"07331071","name":"Westhofen","type":"Kreisangehörige_Gemeinde"},"district":{"key":"07331","name":"Alzey-Worms","type":"Landkreis"},"federalState":{"key":"07","name":"Rheinland-Pfalz"}},{"name":"Bechtheimer Weg","postalCode":"67593","locality":"Westhofen","municipality":{"key":"07331071","name":"Westhofen","type":"Kreisangehörige_Gemeinde"},"district":{"key":"07331","name":"Alzey-Worms","type":"Landkreis"},"federalState":{"key":"07","name":"Rheinland-Pfalz"}},{"name":"Beethovenstr.","postalCode":"67593","locality":"Westhofen","municipality":{"key":"07331071","name":"Westhofen","type":"Kreisangehörige_Gemeinde"},"district":{"key":"07331","name":"Alzey-Worms","type":"Landkreis"},"federalState":{"key":"07","name":"Rheinland-Pfalz"}},{"name":"Bergstr.","postalCode":"67593","locality":"Westhofen","municipality":{"key":"07331071","name":"Westhofen","type":"Kreisangehörige_Gemeinde"},"district":{"key":"07331","name":"Alzey-Worms","type":"Landkreis"},"federalState":{"key":"07","name":"Rheinland-Pfalz"}},{"name":"Berliner Platz","postalCode":"67593","locality":"Westhofen","municipality":{"key":"07331071","name":"Westhofen","type":"Kreisangehörige_Gemeinde"},"district":{"key":"07331","name":"Alzey-Worms","type":"Landkreis"},"federalState":{"key":"07","name":"Rheinland-Pfalz"}},{"name":"Birkenstr.","postalCode":"67593","locality":"Westhofen","municipality":{"key":"07331071","name":"Westhofen","type":"Kreisangehörige_Gemeinde"},"district":{"key":"07331","name":"Alzey-Worms","type":"Landkreis"},"federalState":{"key":"07","name":"Rheinland-Pfalz"}},{"name":"Brückenstr.","postalCode":"67593","locality":"Westhofen","municipality":{"key":"07331071","name":"Westhofen","type":"Kreisangehörige_Gemeinde"},"district":{"key":"07331","name":"Alzey-Worms","type":"Landkreis"},"federalState":{"key":"07","name":"Rheinland-Pfalz"}},{"name":"Burggasse","postalCode":"67593","locality":"Westhofen","municipality":{"key":"07331071","name":"Westhofen","type":"Kreisangehörige_Gemeinde"},"district":{"key":"07331","name":"Alzey-Worms","type":"Landkreis"},"federalState":{"key":"07","name":"Rheinland-Pfalz"}},{"name":"Burgunderstr.","postalCode":"67593","locality":"Westhofen","municipality":{"key":"07331071","name":"Westhofen","type":"Kreisangehörige_Gemeinde"},"district":{"key":"07331","name":"Alzey-Worms","type":"Landkreis"},"federalState":{"key":"07","name":"Rheinland-Pfalz"}},{"name":"Dittelsheimer Weg","postalCode":"67593","locality":"Westhofen","municipality":{"key":"07331071","name":"Westhofen","type":"Kreisangehörige_Gemeinde"},"district":{"key":"07331","name":"Alzey-Worms","type":"Landkreis"},"federalState":{"key":"07","name":"Rheinland-Pfalz"}},{"name":"Frankenstr.","postalCode":"67593","locality":"Westhofen","municipality":{"key":"07331071","name":"Westhofen","type":"Kreisangehörige_Gemeinde"},"district":{"key":"07331","name":"Alzey-Worms","type":"Landkreis"},"federalState":{"key":"07","name":"Rheinland-Pfalz"}},{"name":"Friedrich-Silcher-Str.","postalCode":"67593","locality":"Westhofen","municipality":{"key":"07331071","name":"Westhofen","type":"Kreisangehörige_Gemeinde"},"district":{"key":"07331","name":"Alzey-Worms","type":"Landkreis"},"federalState":{"key":"07","name":"Rheinland-Pfalz"}},{"name":"Fritz-Huxel-Platz","postalCode":"67593","locality":"Westhofen","municipality":{"key":"07331071","name":"Westhofen","type":"Kreisangehörige_Gemeinde"},"district":{"key":"07331","name":"Alzey-Worms","type":"Landkreis"},"federalState":{"key":"07","name":"Rheinland-Pfalz"}},{"name":"Gartenstr.","postalCode":"67593","locality":"Westhofen","municipality":{"key":"07331071","name":"Westhofen","type":"Kreisangehörige_Gemeinde"},"district":{"key":"07331","name":"Alzey-Worms","type":"Landkreis"},"federalState":{"key":"07","name":"Rheinland-Pfalz"}},{"name":"Gartenweg","postalCode":"67593","locality":"Westhofen","municipality":{"key":"07331071","name":"Westhofen","type":"Kreisangehörige_Gemeinde"},"district":{"key":"07331","name":"Alzey-Worms","type":"Landkreis"},"federalState":{"key":"07","name":"Rheinland-Pfalz"}},{"name":"Goethestr.","postalCode":"67593","locality":"Westhofen","municipality":{"key":"07331071","name":"Westhofen","type":"Kreisangehörige_Gemeinde"},"district":{"key":"07331","name":"Alzey-Worms","type":"Landkreis"},"federalState":{"key":"07","name":"Rheinland-Pfalz"}},{"name":"Grabenweg","postalCode":"67593","locality":"Westhofen","municipality":{"key":"07331071","name":"Westhofen","type":"Kreisangehörige_Gemeinde"},"district":{"key":"07331","name":"Alzey-Worms","type":"Landkreis"},"federalState":{"key":"07","name":"Rheinland-Pfalz"}},{"name":"Grüner Ring","postalCode":"67593","locality":"Westhofen","municipality":{"key":"07331071","name":"Westhofen","type":"Kreisangehörige_Gemeinde"},"district":{"key":"07331","name":"Alzey-Worms","type":"Landkreis"},"federalState":{"key":"07","name":"Rheinland-Pfalz"}},{"name":"Gundheimer Str.","postalCode":"67593","locality":"Westhofen","municipality":{"key":"07331071","name":"Westhofen","type":"Kreisangehörige_Gemeinde"},"district":{"key":"07331","name":"Alzey-Worms","type":"Landkreis"},"federalState":{"key":"07","name":"Rheinland-Pfalz"}},{"name":"Heerweg","postalCode":"67593","locality":"Westhofen","municipality":{"key":"07331071","name":"Westhofen","type":"Kreisangehörige_Gemeinde"},"district":{"key":"07331","name":"Alzey-Worms","type":"Landkreis"},"federalState":{"key":"07","name":"Rheinland-Pfalz"}},{"name":"Hessenring","postalCode":"67593","locality":"Westhofen","municipality":{"key":"07331071","name":"Westhofen","type":"Kreisangehörige_Gemeinde"},"district":{"key":"07331","name":"Alzey-Worms","type":"Landkreis"},"federalState":{"key":"07","name":"Rheinland-Pfalz"}},{"name":"Hinter dem Helm","postalCode":"67593","locality":"Westhofen","municipality":{"key":"07331071","name":"Westhofen","type":"Kreisangehörige_Gemeinde"},"district":{"key":"07331","name":"Alzey-Worms","type":"Landkreis"},"federalState":{"key":"07","name":"Rheinland-Pfalz"}},{"name":"Hinter der Kirche","postalCode":"67593","locality":"Westhofen","municipality":{"key":"07331071","name":"Westhofen","type":"Kreisangehörige_Gemeinde"},"district":{"key":"07331","name":"Alzey-Worms","type":"Landkreis"},"federalState":{"key":"07","name":"Rheinland-Pfalz"}},{"name":"Hobelsgasse","postalCode":"67593","locality":"Westhofen","municipality":{"key":"07331071","name":"Westhofen","type":"Kreisangehörige_Gemeinde"},"district":{"key":"07331","name":"Alzey-Worms","type":"Landkreis"},"federalState":{"key":"07","name":"Rheinland-Pfalz"}},{"name":"Hundeplatz Westhofen","postalCode":"67593","locality":"Westhofen","municipality":{"key":"07331071","name":"Westhofen","type":"Kreisangehörige_Gemeinde"},"district":{"key":"07331","name":"Alzey-Worms","type":"Landkreis"},"federalState":{"key":"07","name":"Rheinland-Pfalz"}},{"name":"Huxelstr.","postalCode":"67593","locality":"Westhofen","municipality":{"key":"07331071","name":"Westhofen","type":"Kreisangehörige_Gemeinde"},"district":{"key":"07331","name":"Alzey-Worms","type":"Landkreis"},"federalState":{"key":"07","name":"Rheinland-Pfalz"}},{"name":"Im Falkengarten","postalCode":"67593","locality":"Westhofen","municipality":{"key":"07331071","name":"Westhofen","type":"Kreisangehörige_Gemeinde"},"district":{"key":"07331","name":"Alzey-Worms","type":"Landkreis"},"federalState":{"key":"07","name":"Rheinland-Pfalz"}},{"name":"Im Geckes","postalCode":"67593","locality":"Westhofen","municipality":{"key":"07331071","name":"Westhofen","type":"Kreisangehörige_Gemeinde"},"district":{"key":"07331","name":"Alzey-Worms","type":"Landkreis"},"federalState":{"key":"07","name":"Rheinland-Pfalz"}},{"name":"Im Hauk","postalCode":"67593","locality":"Westhofen","municipality":{"key":"07331071","name":"Westhofen","type":"Kreisangehörige_Gemeinde"},"district":{"key":"07331","name":"Alzey-Worms","type":"Landkreis"},"federalState":{"key":"07","name":"Rheinland-Pfalz"}},{"name":"Im Schweigert","postalCode":"67593","locality":"Westhofen","municipality":{"key":"07331071","name":"Westhofen","type":"Kreisangehörige_Gemeinde"},"district":{"key":"07331","name":"Alzey-Worms","type":"Landkreis"},"federalState":{"key":"07","name":"Rheinland-Pfalz"}},{"name":"Im Winkel","postalCode":"67593","locality":"Westhofen","municipality":{"key":"07331071","name":"Westhofen","type":"Kreisangehörige_Gemeinde"},"district":{"key":"07331","name":"Alzey-Worms","type":"Landkreis"},"federalState":{"key":"07","name":"Rheinland-Pfalz"}},{"name":"Jahnstr.","postalCode":"67593","locality":"Westhofen","municipality":{"key":"07331071","name":"Westhofen","type":"Kreisangehörige_Gemeinde"},"district":{"key":"07331","name":"Alzey-Worms","type":"Landkreis"},"federalState":{"key":"07","name":"Rheinland-Pfalz"}},{"name":"Kellergasse","postalCode":"67593","locality":"Westhofen","municipality":{"key":"07331071","name":"Westhofen","type":"Kreisangehörige_Gemeinde"},"district":{"key":"07331","name":"Alzey-Worms","type":"Landkreis"},"federalState":{"key":"07","name":"Rheinland-Pfalz"}},{"name":"Kurpfälzerstr.","postalCode":"67593","locality":"Westhofen","municipality":{"key":"07331071","name":"Westhofen","type":"Kreisangehörige_Gemeinde"},"district":{"key":"07331","name":"Alzey-Worms","type":"Landkreis"},"federalState":{"key":"07","name":"Rheinland-Pfalz"}},{"name":"Lessingstr.","postalCode":"67593","locality":"Westhofen","municipality":{"key":"07331071","name":"Westhofen","type":"Kreisangehörige_Gemeinde"},"district":{"key":"07331","name":"Alzey-Worms","type":"Landkreis"},"federalState":{"key":"07","name":"Rheinland-Pfalz"}},{"name":"Ligusterweg","postalCode":"67593","locality":"Westhofen","municipality":{"key":"07331071","name":"Westhofen","type":"Kreisangehörige_Gemeinde"},"district":{"key":"07331","name":"Alzey-Worms","type":"Landkreis"},"federalState":{"key":"07","name":"Rheinland-Pfalz"}},{"name":"Lydia-Bootz-Ring","postalCode":"67593","locality":"Westhofen","municipality":{"key":"07331071","name":"Westhofen","type":"Kreisangehörige_Gemeinde"},"district":{"key":"07331","name":"Alzey-Worms","type":"Landkreis"},"federalState":{"key":"07","name":"Rheinland-Pfalz"}},{"name":"Mainzer Str.","postalCode":"67593","locality":"Westhofen","municipality":{"key":"07331071","name":"Westhofen","type":"Kreisangehörige_Gemeinde"},"district":{"key":"07331","name":"Alzey-Worms","type":"Landkreis"},"federalState":{"key":"07","name":"Rheinland-Pfalz"}},{"name":"Mettenheimer Weg","postalCode":"67593","locality":"Westhofen","municipality":{"key":"07331071","name":"Westhofen","type":"Kreisangehörige_Gemeinde"},"district":{"key":"07331","name":"Alzey-Worms","type":"Landkreis"},"federalState":{"key":"07","name":"Rheinland-Pfalz"}},{"name":"Mittlere Blenz","postalCode":"67593","locality":"Westhofen","municipality":{"key":"07331071","name":"Westhofen","type":"Kreisangehörige_Gemeinde"},"district":{"key":"07331","name":"Alzey-Worms","type":"Landkreis"},"federalState":{"key":"07","name":"Rheinland-Pfalz"}},{"name":"Mozartstr.","postalCode":"67593","locality":"Westhofen","municipality":{"key":"07331071","name":"Westhofen","type":"Kreisangehörige_Gemeinde"},"district":{"key":"07331","name":"Alzey-Worms","type":"Landkreis"},"federalState":{"key":"07","name":"Rheinland-Pfalz"}},{"name":"Mühlheimer Pfad","postalCode":"67593","locality":"Westhofen","municipality":{"key":"07331071","name":"Westhofen","type":"Kreisangehörige_Gemeinde"},"district":{"key":"07331","name":"Alzey-Worms","type":"Landkreis"},"federalState":{"key":"07","name":"Rheinland-Pfalz"}},{"name":"Nibelungenstr.","postalCode":"67593","locality":"Westhofen","municipality":{"key":"07331071","name":"Westhofen","type":"Kreisangehörige_Gemeinde"},"district":{"key":"07331","name":"Alzey-Worms","type":"Landkreis"},"federalState":{"key":"07","name":"Rheinland-Pfalz"}},{"name":"Obere Blenz","postalCode":"67593","locality":"Westhofen","municipality":{"key":"07331071","name":"Westhofen","type":"Kreisangehörige_Gemeinde"},"district":{"key":"07331","name":"Alzey-Worms","type":"Landkreis"},"federalState":{"key":"07","name":"Rheinland-Pfalz"}},{"name":"Ohligstr.","postalCode":"67593","locality":"Westhofen","municipality":{"key":"07331071","name":"Westhofen","type":"Kreisangehörige_Gemeinde"},"district":{"key":"07331","name":"Alzey-Worms","type":"Landkreis"},"federalState":{"key":"07","name":"Rheinland-Pfalz"}},{"name":"Ostendstr.","postalCode":"67593","locality":"Westhofen","municipality":{"key":"07331071","name":"Westhofen","type":"Kreisangehörige_Gemeinde"},"district":{"key":"07331","name":"Alzey-Worms","type":"Landkreis"},"federalState":{"key":"07","name":"Rheinland-Pfalz"}},{"name":"Osthofener Landstr.","postalCode":"67593","locality":"Westhofen","municipality":{"key":"07331071","name":"Westhofen","type":"Kreisangehörige_Gemeinde"},"district":{"key":"07331","name":"Alzey-Worms","type":"Landkreis"},"federalState":{"key":"07","name":"Rheinland-Pfalz"}},{"name":"Osthofener Str.","postalCode":"67593","locality":"Westhofen","municipality":{"key":"07331071","name":"Westhofen","type":"Kreisangehörige_Gemeinde"},"district":{"key":"07331","name":"Alzey-Worms","type":"Landkreis"},"federalState":{"key":"07","name":"Rheinland-Pfalz"}},{"name":"Pfeddersheimer Str.","postalCode":"67593","locality":"Westhofen","municipality":{"key":"07331071","name":"Westhofen","type":"Kreisangehörige_Gemeinde"},"district":{"key":"07331","name":"Alzey-Worms","type":"Landkreis"},"federalState":{"key":"07","name":"Rheinland-Pfalz"}},{"name":"Raiffeisenstr.","postalCode":"67593","locality":"Westhofen","municipality":{"key":"07331071","name":"Westhofen","type":"Kreisangehörige_Gemeinde"},"district":{"key":"07331","name":"Alzey-Worms","type":"Landkreis"},"federalState":{"key":"07","name":"Rheinland-Pfalz"}},{"name":"Reipoldskircher Gasse","postalCode":"67593","locality":"Westhofen","municipality":{"key":"07331071","name":"Westhofen","type":"Kreisangehörige_Gemeinde"},"district":{"key":"07331","name":"Alzey-Worms","type":"Landkreis"},"federalState":{"key":"07","name":"Rheinland-Pfalz"}},{"name":"Rheinhessenring","postalCode":"67593","locality":"Westhofen","municipality":{"key":"07331071","name":"Westhofen","type":"Kreisangehörige_Gemeinde"},"district":{"key":"07331","name":"Alzey-Worms","type":"Landkreis"},"federalState":{"key":"07","name":"Rheinland-Pfalz"}},{"name":"Richard-Wagner-Str.","postalCode":"67593","locality":"Westhofen","municipality":{"key":"07331071","name":"Westhofen","type":"Kreisangehörige_Gemeinde"},"district":{"key":"07331","name":"Alzey-Worms","type":"Landkreis"},"federalState":{"key":"07","name":"Rheinland-Pfalz"}},{"name":"Rieslingstr.","postalCode":"67593","locality":"Westhofen","municipality":{"key":"07331071","name":"Westhofen","type":"Kreisangehörige_Gemeinde"},"district":{"key":"07331","name":"Alzey-Worms","type":"Landkreis"},"federalState":{"key":"07","name":"Rheinland-Pfalz"}},{"name":"Scheustr.","postalCode":"67593","locality":"Westhofen","municipality":{"key":"07331071","name":"Westhofen","type":"Kreisangehörige_Gemeinde"},"district":{"key":"07331","name":"Alzey-Worms","type":"Landkreis"},"federalState":{"key":"07","name":"Rheinland-Pfalz"}},{"name":"Schillerstr.","postalCode":"67593","locality":"Westhofen","municipality":{"key":"07331071","name":"Westhofen","type":"Kreisangehörige_Gemeinde"},"district":{"key":"07331","name":"Alzey-Worms","type":"Landkreis"},"federalState":{"key":"07","name":"Rheinland-Pfalz"}},{"name":"Schöne Aussicht","postalCode":"67593","locality":"Westhofen","municipality":{"key":"07331071","name":"Westhofen","type":"Kreisangehörige_Gemeinde"},"district":{"key":"07331","name":"Alzey-Worms","type":"Landkreis"},"federalState":{"key":"07","name":"Rheinland-Pfalz"}},{"name":"Schubertstr.","postalCode":"67593","locality":"Westhofen","municipality":{"key":"07331071","name":"Westhofen","type":"Kreisangehörige_Gemeinde"},"district":{"key":"07331","name":"Alzey-Worms","type":"Landkreis"},"federalState":{"key":"07","name":"Rheinland-Pfalz"}},{"name":"Schwester-Sophie-Str.","postalCode":"67593","locality":"Westhofen","municipality":{"key":"07331071","name":"Westhofen","type":"Kreisangehörige_Gemeinde"},"district":{"key":"07331","name":"Alzey-Worms","type":"Landkreis"},"federalState":{"key":"07","name":"Rheinland-Pfalz"}},{"name":"Seegasse","postalCode":"67593","locality":"Westhofen","municipality":{"key":"07331071","name":"Westhofen","type":"Kreisangehörige_Gemeinde"},"district":{"key":"07331","name":"Alzey-Worms","type":"Landkreis"},"federalState":{"key":"07","name":"Rheinland-Pfalz"}},{"name":"Silvanerstr.","postalCode":"67593","locality":"Westhofen","municipality":{"key":"07331071","name":"Westhofen","type":"Kreisangehörige_Gemeinde"},"district":{"key":"07331","name":"Alzey-Worms","type":"Landkreis"},"federalState":{"key":"07","name":"Rheinland-Pfalz"}},{"name":"Tränkgasse","postalCode":"67593","locality":"Westhofen","municipality":{"key":"07331071","name":"Westhofen","type":"Kreisangehörige_Gemeinde"},"district":{"key":"07331","name":"Alzey-Worms","type":"Landkreis"},"federalState":{"key":"07","name":"Rheinland-Pfalz"}},{"name":"Treppengasse","postalCode":"67593","locality":"Westhofen","municipality":{"key":"07331071","name":"Westhofen","type":"Kreisangehörige_Gemeinde"},"district":{"key":"07331","name":"Alzey-Worms","type":"Landkreis"},"federalState":{"key":"07","name":"Rheinland-Pfalz"}},{"name":"Vogelsangweg","postalCode":"67593","locality":"Westhofen","municipality":{"key":"07331071","name":"Westhofen","type":"Kreisangehörige_Gemeinde"},"district":{"key":"07331","name":"Alzey-Worms","type":"Landkreis"},"federalState":{"key":"07","name":"Rheinland-Pfalz"}},{"name":"Willi-Ostermann-Str.","postalCode":"67593","locality":"Westhofen","municipality":{"key":"07331071","name":"Westhofen","type":"Kreisangehörige_Gemeinde"},"district":{"key":"07331","name":"Alzey-Worms","type":"Landkreis"},"federalState":{"key":"07","name":"Rheinland-Pfalz"}},{"name":"Wormser Str.","postalCode":"67593","locality":"Westhofen","municipality":{"key":"07331071","name":"Westhofen","type":"Kreisangehörige_Gemeinde"},"district":{"key":"07331","name":"Alzey-Worms","type":"Landkreis"},"federalState":{"key":"07","name":"Rheinland-Pfalz"}},{"name":"Ziegeleiweg","postalCode":"67593","locality":"Westhofen","municipality":{"key":"07331071","name":"Westhofen","type":"Kreisangehörige_Gemeinde"},"district":{"key":"07331","name":"Alzey-Worms","type":"Landkreis"},"federalState":{"key":"07","name":"Rheinland-Pfalz"}},]