[{"name":"Dorfstr.","postalCode":"15848","locality":"Ragow-Merz","municipality":{"key":"12067397","name":"Ragow-Merz","type":"Kreisangehörige_Gemeinde"},"district":{"key":"12067","name":"Oder-Spree","type":"Landkreis"},"federalState":{"key":"12","name":"Brandenburg"}},{"name":"Eichenallee","postalCode":"15848","locality":"Ragow-Merz","municipality":{"key":"12067397","name":"Ragow-Merz","type":"Kreisangehörige_Gemeinde"},"district":{"key":"12067","name":"Oder-Spree","type":"Landkreis"},"federalState":{"key":"12","name":"Brandenburg"}},{"name":"Försterei Ragow","postalCode":"15848","locality":"Ragow-Merz","municipality":{"key":"12067397","name":"Ragow-Merz","type":"Kreisangehörige_Gemeinde"},"district":{"key":"12067","name":"Oder-Spree","type":"Landkreis"},"federalState":{"key":"12","name":"Brandenburg"}},{"name":"Försterei Schwarzheide","postalCode":"15848","locality":"Ragow-Merz","municipality":{"key":"12067397","name":"Ragow-Merz","type":"Kreisangehörige_Gemeinde"},"district":{"key":"12067","name":"Oder-Spree","type":"Landkreis"},"federalState":{"key":"12","name":"Brandenburg"}},{"name":"Kirchweg","postalCode":"15848","locality":"Ragow-Merz","municipality":{"key":"12067397","name":"Ragow-Merz","type":"Kreisangehörige_Gemeinde"},"district":{"key":"12067","name":"Oder-Spree","type":"Landkreis"},"federalState":{"key":"12","name":"Brandenburg"}},{"name":"Merzer Chaussee","postalCode":"15848","locality":"Ragow-Merz","municipality":{"key":"12067397","name":"Ragow-Merz","type":"Kreisangehörige_Gemeinde"},"district":{"key":"12067","name":"Oder-Spree","type":"Landkreis"},"federalState":{"key":"12","name":"Brandenburg"}},{"name":"Parkstr.","postalCode":"15848","locality":"Ragow-Merz","municipality":{"key":"12067397","name":"Ragow-Merz","type":"Kreisangehörige_Gemeinde"},"district":{"key":"12067","name":"Oder-Spree","type":"Landkreis"},"federalState":{"key":"12","name":"Brandenburg"}},{"name":"Puschweg","postalCode":"15848","locality":"Ragow-Merz","municipality":{"key":"12067397","name":"Ragow-Merz","type":"Kreisangehörige_Gemeinde"},"district":{"key":"12067","name":"Oder-Spree","type":"Landkreis"},"federalState":{"key":"12","name":"Brandenburg"}},{"name":"Ragower Ablage","postalCode":"15848","locality":"Ragow-Merz","municipality":{"key":"12067397","name":"Ragow-Merz","type":"Kreisangehörige_Gemeinde"},"district":{"key":"12067","name":"Oder-Spree","type":"Landkreis"},"federalState":{"key":"12","name":"Brandenburg"}},{"name":"Ragower Schlosspark","postalCode":"15848","locality":"Ragow-Merz","municipality":{"key":"12067397","name":"Ragow-Merz","type":"Kreisangehörige_Gemeinde"},"district":{"key":"12067","name":"Oder-Spree","type":"Landkreis"},"federalState":{"key":"12","name":"Brandenburg"}},{"name":"Schierling","postalCode":"15848","locality":"Ragow-Merz","municipality":{"key":"12067397","name":"Ragow-Merz","type":"Kreisangehörige_Gemeinde"},"district":{"key":"12067","name":"Oder-Spree","type":"Landkreis"},"federalState":{"key":"12","name":"Brandenburg"}},{"name":"Schneeberger Weg","postalCode":"15848","locality":"Ragow-Merz","municipality":{"key":"12067397","name":"Ragow-Merz","type":"Kreisangehörige_Gemeinde"},"district":{"key":"12067","name":"Oder-Spree","type":"Landkreis"},"federalState":{"key":"12","name":"Brandenburg"}},{"name":"Siedlung","postalCode":"15848","locality":"Ragow-Merz","municipality":{"key":"12067397","name":"Ragow-Merz","type":"Kreisangehörige_Gemeinde"},"district":{"key":"12067","name":"Oder-Spree","type":"Landkreis"},"federalState":{"key":"12","name":"Brandenburg"}},{"name":"Zehnerweg","postalCode":"15848","locality":"Ragow-Merz","municipality":{"key":"12067397","name":"Ragow-Merz","type":"Kreisangehörige_Gemeinde"},"district":{"key":"12067","name":"Oder-Spree","type":"Landkreis"},"federalState":{"key":"12","name":"Brandenburg"}},{"name":"Äppelallee","postalCode":"15848","locality":"Ragow-Merz","municipality":{"key":"12067397","name":"Ragow-Merz","type":"Kreisangehörige_Gemeinde"},"district":{"key":"12067","name":"Oder-Spree","type":"Landkreis"},"federalState":{"key":"12","name":"Brandenburg"}},]