[{"name":"Am Bootsgraben","postalCode":"18211","locality":"Börgerende-Rethwisch","municipality":{"key":"13072017","name":"Börgerende-Rethwisch","type":"Kreisangehörige_Gemeinde"},"district":{"key":"13072","name":"Landkreis Rostock","type":"Landkreis"},"federalState":{"key":"13","name":"Mecklenburg-Vorpommern"}},{"name":"Am Conventer See","postalCode":"18211","locality":"Börgerende-Rethwisch","municipality":{"key":"13072017","name":"Börgerende-Rethwisch","type":"Kreisangehörige_Gemeinde"},"district":{"key":"13072","name":"Landkreis Rostock","type":"Landkreis"},"federalState":{"key":"13","name":"Mecklenburg-Vorpommern"}},{"name":"Am Krug","postalCode":"18211","locality":"Börgerende-Rethwisch","municipality":{"key":"13072017","name":"Börgerende-Rethwisch","type":"Kreisangehörige_Gemeinde"},"district":{"key":"13072","name":"Landkreis Rostock","type":"Landkreis"},"federalState":{"key":"13","name":"Mecklenburg-Vorpommern"}},{"name":"Am Teich","postalCode":"18211","locality":"Börgerende-Rethwisch","municipality":{"key":"13072017","name":"Börgerende-Rethwisch","type":"Kreisangehörige_Gemeinde"},"district":{"key":"13072","name":"Landkreis Rostock","type":"Landkreis"},"federalState":{"key":"13","name":"Mecklenburg-Vorpommern"}},{"name":"An den Dünen","postalCode":"18211","locality":"Börgerende-Rethwisch","municipality":{"key":"13072017","name":"Börgerende-Rethwisch","type":"Kreisangehörige_Gemeinde"},"district":{"key":"13072","name":"Landkreis Rostock","type":"Landkreis"},"federalState":{"key":"13","name":"Mecklenburg-Vorpommern"}},{"name":"An den Weiden","postalCode":"18211","locality":"Börgerende-Rethwisch","municipality":{"key":"13072017","name":"Börgerende-Rethwisch","type":"Kreisangehörige_Gemeinde"},"district":{"key":"13072","name":"Landkreis Rostock","type":"Landkreis"},"federalState":{"key":"13","name":"Mecklenburg-Vorpommern"}},{"name":"An der Waterkant","postalCode":"18211","locality":"Börgerende-Rethwisch","municipality":{"key":"13072017","name":"Börgerende-Rethwisch","type":"Kreisangehörige_Gemeinde"},"district":{"key":"13072","name":"Landkreis Rostock","type":"Landkreis"},"federalState":{"key":"13","name":"Mecklenburg-Vorpommern"}},{"name":"Börgerender Str.","postalCode":"18211","locality":"Börgerende-Rethwisch","municipality":{"key":"13072017","name":"Börgerende-Rethwisch","type":"Kreisangehörige_Gemeinde"},"district":{"key":"13072","name":"Landkreis Rostock","type":"Landkreis"},"federalState":{"key":"13","name":"Mecklenburg-Vorpommern"}},{"name":"Deichstr.","postalCode":"18211","locality":"Börgerende-Rethwisch","municipality":{"key":"13072017","name":"Börgerende-Rethwisch","type":"Kreisangehörige_Gemeinde"},"district":{"key":"13072","name":"Landkreis Rostock","type":"Landkreis"},"federalState":{"key":"13","name":"Mecklenburg-Vorpommern"}},{"name":"Doberaner Str.","postalCode":"18211","locality":"Börgerende-Rethwisch","municipality":{"key":"13072017","name":"Börgerende-Rethwisch","type":"Kreisangehörige_Gemeinde"},"district":{"key":"13072","name":"Landkreis Rostock","type":"Landkreis"},"federalState":{"key":"13","name":"Mecklenburg-Vorpommern"}},{"name":"Driftweg","postalCode":"18211","locality":"Börgerende-Rethwisch","municipality":{"key":"13072017","name":"Börgerende-Rethwisch","type":"Kreisangehörige_Gemeinde"},"district":{"key":"13072","name":"Landkreis Rostock","type":"Landkreis"},"federalState":{"key":"13","name":"Mecklenburg-Vorpommern"}},{"name":"Erlenweg","postalCode":"18211","locality":"Börgerende-Rethwisch","municipality":{"key":"13072017","name":"Börgerende-Rethwisch","type":"Kreisangehörige_Gemeinde"},"district":{"key":"13072","name":"Landkreis Rostock","type":"Landkreis"},"federalState":{"key":"13","name":"Mecklenburg-Vorpommern"}},{"name":"Fasanenweg","postalCode":"18211","locality":"Börgerende-Rethwisch","municipality":{"key":"13072017","name":"Börgerende-Rethwisch","type":"Kreisangehörige_Gemeinde"},"district":{"key":"13072","name":"Landkreis Rostock","type":"Landkreis"},"federalState":{"key":"13","name":"Mecklenburg-Vorpommern"}},{"name":"Fischerweg","postalCode":"18211","locality":"Börgerende-Rethwisch","municipality":{"key":"13072017","name":"Börgerende-Rethwisch","type":"Kreisangehörige_Gemeinde"},"district":{"key":"13072","name":"Landkreis Rostock","type":"Landkreis"},"federalState":{"key":"13","name":"Mecklenburg-Vorpommern"}},{"name":"Grüner Weg","postalCode":"18211","locality":"Börgerende-Rethwisch","municipality":{"key":"13072017","name":"Börgerende-Rethwisch","type":"Kreisangehörige_Gemeinde"},"district":{"key":"13072","name":"Landkreis Rostock","type":"Landkreis"},"federalState":{"key":"13","name":"Mecklenburg-Vorpommern"}},{"name":"Karmingimpelweg","postalCode":"18211","locality":"Börgerende-Rethwisch","municipality":{"key":"13072017","name":"Börgerende-Rethwisch","type":"Kreisangehörige_Gemeinde"},"district":{"key":"13072","name":"Landkreis Rostock","type":"Landkreis"},"federalState":{"key":"13","name":"Mecklenburg-Vorpommern"}},{"name":"Koppelweg","postalCode":"18211","locality":"Börgerende-Rethwisch","municipality":{"key":"13072017","name":"Börgerende-Rethwisch","type":"Kreisangehörige_Gemeinde"},"district":{"key":"13072","name":"Landkreis Rostock","type":"Landkreis"},"federalState":{"key":"13","name":"Mecklenburg-Vorpommern"}},{"name":"Mühlenweg","postalCode":"18211","locality":"Börgerende-Rethwisch","municipality":{"key":"13072017","name":"Börgerende-Rethwisch","type":"Kreisangehörige_Gemeinde"},"district":{"key":"13072","name":"Landkreis Rostock","type":"Landkreis"},"federalState":{"key":"13","name":"Mecklenburg-Vorpommern"}},{"name":"Münsterblick","postalCode":"18211","locality":"Börgerende-Rethwisch","municipality":{"key":"13072017","name":"Börgerende-Rethwisch","type":"Kreisangehörige_Gemeinde"},"district":{"key":"13072","name":"Landkreis Rostock","type":"Landkreis"},"federalState":{"key":"13","name":"Mecklenburg-Vorpommern"}},{"name":"Neuer Weg","postalCode":"18211","locality":"Börgerende-Rethwisch","municipality":{"key":"13072017","name":"Börgerende-Rethwisch","type":"Kreisangehörige_Gemeinde"},"district":{"key":"13072","name":"Landkreis Rostock","type":"Landkreis"},"federalState":{"key":"13","name":"Mecklenburg-Vorpommern"}},{"name":"Nienhäger Str.","postalCode":"18211","locality":"Börgerende-Rethwisch","municipality":{"key":"13072017","name":"Börgerende-Rethwisch","type":"Kreisangehörige_Gemeinde"},"district":{"key":"13072","name":"Landkreis Rostock","type":"Landkreis"},"federalState":{"key":"13","name":"Mecklenburg-Vorpommern"}},{"name":"Pappelhof","postalCode":"18211","locality":"Börgerende-Rethwisch","municipality":{"key":"13072017","name":"Börgerende-Rethwisch","type":"Kreisangehörige_Gemeinde"},"district":{"key":"13072","name":"Landkreis Rostock","type":"Landkreis"},"federalState":{"key":"13","name":"Mecklenburg-Vorpommern"}},{"name":"Parkstr.","postalCode":"18211","locality":"Börgerende-Rethwisch","municipality":{"key":"13072017","name":"Börgerende-Rethwisch","type":"Kreisangehörige_Gemeinde"},"district":{"key":"13072","name":"Landkreis Rostock","type":"Landkreis"},"federalState":{"key":"13","name":"Mecklenburg-Vorpommern"}},{"name":"Pierkoppel","postalCode":"18211","locality":"Börgerende-Rethwisch","municipality":{"key":"13072017","name":"Börgerende-Rethwisch","type":"Kreisangehörige_Gemeinde"},"district":{"key":"13072","name":"Landkreis Rostock","type":"Landkreis"},"federalState":{"key":"13","name":"Mecklenburg-Vorpommern"}},{"name":"Rapsweg","postalCode":"18211","locality":"Börgerende-Rethwisch","municipality":{"key":"13072017","name":"Börgerende-Rethwisch","type":"Kreisangehörige_Gemeinde"},"district":{"key":"13072","name":"Landkreis Rostock","type":"Landkreis"},"federalState":{"key":"13","name":"Mecklenburg-Vorpommern"}},{"name":"Rosenwinkel","postalCode":"18211","locality":"Börgerende-Rethwisch","municipality":{"key":"13072017","name":"Börgerende-Rethwisch","type":"Kreisangehörige_Gemeinde"},"district":{"key":"13072","name":"Landkreis Rostock","type":"Landkreis"},"federalState":{"key":"13","name":"Mecklenburg-Vorpommern"}},{"name":"Schulstr.","postalCode":"18211","locality":"Börgerende-Rethwisch","municipality":{"key":"13072017","name":"Börgerende-Rethwisch","type":"Kreisangehörige_Gemeinde"},"district":{"key":"13072","name":"Landkreis Rostock","type":"Landkreis"},"federalState":{"key":"13","name":"Mecklenburg-Vorpommern"}},{"name":"Sonnensteg","postalCode":"18211","locality":"Börgerende-Rethwisch","municipality":{"key":"13072017","name":"Börgerende-Rethwisch","type":"Kreisangehörige_Gemeinde"},"district":{"key":"13072","name":"Landkreis Rostock","type":"Landkreis"},"federalState":{"key":"13","name":"Mecklenburg-Vorpommern"}},{"name":"Storchenwiese","postalCode":"18211","locality":"Börgerende-Rethwisch","municipality":{"key":"13072017","name":"Börgerende-Rethwisch","type":"Kreisangehörige_Gemeinde"},"district":{"key":"13072","name":"Landkreis Rostock","type":"Landkreis"},"federalState":{"key":"13","name":"Mecklenburg-Vorpommern"}},{"name":"Strandweg","postalCode":"18211","locality":"Börgerende-Rethwisch","municipality":{"key":"13072017","name":"Börgerende-Rethwisch","type":"Kreisangehörige_Gemeinde"},"district":{"key":"13072","name":"Landkreis Rostock","type":"Landkreis"},"federalState":{"key":"13","name":"Mecklenburg-Vorpommern"}},{"name":"Wiesengrund","postalCode":"18211","locality":"Börgerende-Rethwisch","municipality":{"key":"13072017","name":"Börgerende-Rethwisch","type":"Kreisangehörige_Gemeinde"},"district":{"key":"13072","name":"Landkreis Rostock","type":"Landkreis"},"federalState":{"key":"13","name":"Mecklenburg-Vorpommern"}},{"name":"Wischengrund","postalCode":"18211","locality":"Börgerende-Rethwisch","municipality":{"key":"13072017","name":"Börgerende-Rethwisch","type":"Kreisangehörige_Gemeinde"},"district":{"key":"13072","name":"Landkreis Rostock","type":"Landkreis"},"federalState":{"key":"13","name":"Mecklenburg-Vorpommern"}},]