[{"name":"Am Alten Weiher","postalCode":"91054","locality":"Buckenhof","municipality":{"key":"09572120","name":"Buckenhof","type":"Kreisangehörige_Gemeinde"},"district":{"key":"09572","name":"Erlangen-Höchstadt","type":"Landkreis"},"federalState":{"key":"09","name":"Bayern"}},{"name":"Am Eichengarten","postalCode":"91054","locality":"Buckenhof","municipality":{"key":"09572120","name":"Buckenhof","type":"Kreisangehörige_Gemeinde"},"district":{"key":"09572","name":"Erlangen-Höchstadt","type":"Landkreis"},"federalState":{"key":"09","name":"Bayern"}},{"name":"Am Ruhstein","postalCode":"91054","locality":"Buckenhof","municipality":{"key":"09572120","name":"Buckenhof","type":"Kreisangehörige_Gemeinde"},"district":{"key":"09572","name":"Erlangen-Höchstadt","type":"Landkreis"},"federalState":{"key":"09","name":"Bayern"}},{"name":"Am Schwabachgrund","postalCode":"91054","locality":"Buckenhof","municipality":{"key":"09572120","name":"Buckenhof","type":"Kreisangehörige_Gemeinde"},"district":{"key":"09572","name":"Erlangen-Höchstadt","type":"Landkreis"},"federalState":{"key":"09","name":"Bayern"}},{"name":"Am Tennenbach","postalCode":"91054","locality":"Buckenhof","municipality":{"key":"09572120","name":"Buckenhof","type":"Kreisangehörige_Gemeinde"},"district":{"key":"09572","name":"Erlangen-Höchstadt","type":"Landkreis"},"federalState":{"key":"09","name":"Bayern"}},{"name":"An den Hornwiesen","postalCode":"91054","locality":"Buckenhof","municipality":{"key":"09572120","name":"Buckenhof","type":"Kreisangehörige_Gemeinde"},"district":{"key":"09572","name":"Erlangen-Höchstadt","type":"Landkreis"},"federalState":{"key":"09","name":"Bayern"}},{"name":"An der Röth","postalCode":"91054","locality":"Buckenhof","municipality":{"key":"09572120","name":"Buckenhof","type":"Kreisangehörige_Gemeinde"},"district":{"key":"09572","name":"Erlangen-Höchstadt","type":"Landkreis"},"federalState":{"key":"09","name":"Bayern"}},{"name":"Birkenweg","postalCode":"91054","locality":"Buckenhof","municipality":{"key":"09572120","name":"Buckenhof","type":"Kreisangehörige_Gemeinde"},"district":{"key":"09572","name":"Erlangen-Höchstadt","type":"Landkreis"},"federalState":{"key":"09","name":"Bayern"}},{"name":"Brucker Weg","postalCode":"91054","locality":"Buckenhof","municipality":{"key":"09572120","name":"Buckenhof","type":"Kreisangehörige_Gemeinde"},"district":{"key":"09572","name":"Erlangen-Höchstadt","type":"Landkreis"},"federalState":{"key":"09","name":"Bayern"}},{"name":"Buckenhofer Forstweg","postalCode":"90562","locality":"Buckenhofer Forst","municipality":{"key":"09572452","name":"Buckenhofer Forst","type":"Gemeindefreies_Gebiet_Unbewohnt"},"district":{"key":"09572","name":"Erlangen-Höchstadt","type":"Landkreis"},"federalState":{"key":"09","name":"Bayern"}},{"name":"Buckenhofer Forstweg","postalCode":"91054","locality":"Buckenhof","municipality":{"key":"09572120","name":"Buckenhof","type":"Kreisangehörige_Gemeinde"},"district":{"key":"09572","name":"Erlangen-Höchstadt","type":"Landkreis"},"federalState":{"key":"09","name":"Bayern"}},{"name":"Buckenhofer Str.","postalCode":"91054","locality":"Buckenhof","municipality":{"key":"09572120","name":"Buckenhof","type":"Kreisangehörige_Gemeinde"},"district":{"key":"09572","name":"Erlangen-Höchstadt","type":"Landkreis"},"federalState":{"key":"09","name":"Bayern"}},{"name":"Dormitzer Str.","postalCode":"90562","locality":"Buckenhofer Forst","municipality":{"key":"09572452","name":"Buckenhofer Forst","type":"Gemeindefreies_Gebiet_Unbewohnt"},"district":{"key":"09572","name":"Erlangen-Höchstadt","type":"Landkreis"},"federalState":{"key":"09","name":"Bayern"}},{"name":"Eisenstr.","postalCode":"90562","locality":"Buckenhofer Forst","municipality":{"key":"09572452","name":"Buckenhofer Forst","type":"Gemeindefreies_Gebiet_Unbewohnt"},"district":{"key":"09572","name":"Erlangen-Höchstadt","type":"Landkreis"},"federalState":{"key":"09","name":"Bayern"}},{"name":"Eisenstr.","postalCode":"91054","locality":"Buckenhof","municipality":{"key":"09572120","name":"Buckenhof","type":"Kreisangehörige_Gemeinde"},"district":{"key":"09572","name":"Erlangen-Höchstadt","type":"Landkreis"},"federalState":{"key":"09","name":"Bayern"}},{"name":"Forsthube","postalCode":"91054","locality":"Buckenhof","municipality":{"key":"09572120","name":"Buckenhof","type":"Kreisangehörige_Gemeinde"},"district":{"key":"09572","name":"Erlangen-Höchstadt","type":"Landkreis"},"federalState":{"key":"09","name":"Bayern"}},{"name":"Gräfenberger Str.","postalCode":"91054","locality":"Buckenhof","municipality":{"key":"09572120","name":"Buckenhof","type":"Kreisangehörige_Gemeinde"},"district":{"key":"09572","name":"Erlangen-Höchstadt","type":"Landkreis"},"federalState":{"key":"09","name":"Bayern"}},{"name":"Grasweg","postalCode":"90562","locality":"Buckenhofer Forst","municipality":{"key":"09572452","name":"Buckenhofer Forst","type":"Gemeindefreies_Gebiet_Unbewohnt"},"district":{"key":"09572","name":"Erlangen-Höchstadt","type":"Landkreis"},"federalState":{"key":"09","name":"Bayern"}},{"name":"Grasweg","postalCode":"91054","locality":"Buckenhof","municipality":{"key":"09572120","name":"Buckenhof","type":"Kreisangehörige_Gemeinde"},"district":{"key":"09572","name":"Erlangen-Höchstadt","type":"Landkreis"},"federalState":{"key":"09","name":"Bayern"}},{"name":"Hallerstr.","postalCode":"91054","locality":"Buckenhof","municipality":{"key":"09572120","name":"Buckenhof","type":"Kreisangehörige_Gemeinde"},"district":{"key":"09572","name":"Erlangen-Höchstadt","type":"Landkreis"},"federalState":{"key":"09","name":"Bayern"}},{"name":"Hasensteinlinie","postalCode":"90562","locality":"Buckenhofer Forst","municipality":{"key":"09572452","name":"Buckenhofer Forst","type":"Gemeindefreies_Gebiet_Unbewohnt"},"district":{"key":"09572","name":"Erlangen-Höchstadt","type":"Landkreis"},"federalState":{"key":"09","name":"Bayern"}},{"name":"Hasensteinweg","postalCode":"90562","locality":"Buckenhofer Forst","municipality":{"key":"09572452","name":"Buckenhofer Forst","type":"Gemeindefreies_Gebiet_Unbewohnt"},"district":{"key":"09572","name":"Erlangen-Höchstadt","type":"Landkreis"},"federalState":{"key":"09","name":"Bayern"}},{"name":"Heidewinkel","postalCode":"91054","locality":"Buckenhof","municipality":{"key":"09572120","name":"Buckenhof","type":"Kreisangehörige_Gemeinde"},"district":{"key":"09572","name":"Erlangen-Höchstadt","type":"Landkreis"},"federalState":{"key":"09","name":"Bayern"}},{"name":"Hirtenweg","postalCode":"91054","locality":"Buckenhof","municipality":{"key":"09572120","name":"Buckenhof","type":"Kreisangehörige_Gemeinde"},"district":{"key":"09572","name":"Erlangen-Höchstadt","type":"Landkreis"},"federalState":{"key":"09","name":"Bayern"}},{"name":"Holzersteig","postalCode":"90562","locality":"Buckenhofer Forst","municipality":{"key":"09572452","name":"Buckenhofer Forst","type":"Gemeindefreies_Gebiet_Unbewohnt"},"district":{"key":"09572","name":"Erlangen-Höchstadt","type":"Landkreis"},"federalState":{"key":"09","name":"Bayern"}},{"name":"Hutweide","postalCode":"91054","locality":"Buckenhof","municipality":{"key":"09572120","name":"Buckenhof","type":"Kreisangehörige_Gemeinde"},"district":{"key":"09572","name":"Erlangen-Höchstadt","type":"Landkreis"},"federalState":{"key":"09","name":"Bayern"}},{"name":"Im Föhrenwald","postalCode":"91054","locality":"Buckenhof","municipality":{"key":"09572120","name":"Buckenhof","type":"Kreisangehörige_Gemeinde"},"district":{"key":"09572","name":"Erlangen-Höchstadt","type":"Landkreis"},"federalState":{"key":"09","name":"Bayern"}},{"name":"Im Herrengarten","postalCode":"91054","locality":"Buckenhof","municipality":{"key":"09572120","name":"Buckenhof","type":"Kreisangehörige_Gemeinde"},"district":{"key":"09572","name":"Erlangen-Höchstadt","type":"Landkreis"},"federalState":{"key":"09","name":"Bayern"}},{"name":"Im Herrenholz","postalCode":"91054","locality":"Buckenhof","municipality":{"key":"09572120","name":"Buckenhof","type":"Kreisangehörige_Gemeinde"},"district":{"key":"09572","name":"Erlangen-Höchstadt","type":"Landkreis"},"federalState":{"key":"09","name":"Bayern"}},{"name":"Im Herrnloh","postalCode":"91054","locality":"Buckenhof","municipality":{"key":"09572120","name":"Buckenhof","type":"Kreisangehörige_Gemeinde"},"district":{"key":"09572","name":"Erlangen-Höchstadt","type":"Landkreis"},"federalState":{"key":"09","name":"Bayern"}},{"name":"Karlsgarten","postalCode":"91054","locality":"Buckenhof","municipality":{"key":"09572120","name":"Buckenhof","type":"Kreisangehörige_Gemeinde"},"district":{"key":"09572","name":"Erlangen-Höchstadt","type":"Landkreis"},"federalState":{"key":"09","name":"Bayern"}},{"name":"Lange Zeile","postalCode":"91054","locality":"Buckenhof","municipality":{"key":"09572120","name":"Buckenhof","type":"Kreisangehörige_Gemeinde"},"district":{"key":"09572","name":"Erlangen-Höchstadt","type":"Landkreis"},"federalState":{"key":"09","name":"Bayern"}},{"name":"Mühlweg","postalCode":"91054","locality":"Buckenhof","municipality":{"key":"09572120","name":"Buckenhof","type":"Kreisangehörige_Gemeinde"},"district":{"key":"09572","name":"Erlangen-Höchstadt","type":"Landkreis"},"federalState":{"key":"09","name":"Bayern"}},{"name":"Neukreut","postalCode":"91054","locality":"Buckenhof","municipality":{"key":"09572120","name":"Buckenhof","type":"Kreisangehörige_Gemeinde"},"district":{"key":"09572","name":"Erlangen-Höchstadt","type":"Landkreis"},"federalState":{"key":"09","name":"Bayern"}},{"name":"Obere Büch","postalCode":"91054","locality":"Buckenhof","municipality":{"key":"09572120","name":"Buckenhof","type":"Kreisangehörige_Gemeinde"},"district":{"key":"09572","name":"Erlangen-Höchstadt","type":"Landkreis"},"federalState":{"key":"09","name":"Bayern"}},{"name":"Ohrwaschlbrücke","postalCode":"90562","locality":"Buckenhofer Forst","municipality":{"key":"09572452","name":"Buckenhofer Forst","type":"Gemeindefreies_Gebiet_Unbewohnt"},"district":{"key":"09572","name":"Erlangen-Höchstadt","type":"Landkreis"},"federalState":{"key":"09","name":"Bayern"}},{"name":"Sandweg","postalCode":"91054","locality":"Buckenhof","municipality":{"key":"09572120","name":"Buckenhof","type":"Kreisangehörige_Gemeinde"},"district":{"key":"09572","name":"Erlangen-Höchstadt","type":"Landkreis"},"federalState":{"key":"09","name":"Bayern"}},{"name":"Sebalder Forstweg","postalCode":"91054","locality":"Buckenhof","municipality":{"key":"09572120","name":"Buckenhof","type":"Kreisangehörige_Gemeinde"},"district":{"key":"09572","name":"Erlangen-Höchstadt","type":"Landkreis"},"federalState":{"key":"09","name":"Bayern"}},{"name":"Tennenloher Str.","postalCode":"91054","locality":"Buckenhof","municipality":{"key":"09572120","name":"Buckenhof","type":"Kreisangehörige_Gemeinde"},"district":{"key":"09572","name":"Erlangen-Höchstadt","type":"Landkreis"},"federalState":{"key":"09","name":"Bayern"}},{"name":"Waldweg","postalCode":"91054","locality":"Buckenhof","municipality":{"key":"09572120","name":"Buckenhof","type":"Kreisangehörige_Gemeinde"},"district":{"key":"09572","name":"Erlangen-Höchstadt","type":"Landkreis"},"federalState":{"key":"09","name":"Bayern"}},{"name":"Weiselstr.","postalCode":"91054","locality":"Buckenhof","municipality":{"key":"09572120","name":"Buckenhof","type":"Kreisangehörige_Gemeinde"},"district":{"key":"09572","name":"Erlangen-Höchstadt","type":"Landkreis"},"federalState":{"key":"09","name":"Bayern"}},{"name":"Zeidelweide","postalCode":"91054","locality":"Buckenhof","municipality":{"key":"09572120","name":"Buckenhof","type":"Kreisangehörige_Gemeinde"},"district":{"key":"09572","name":"Erlangen-Höchstadt","type":"Landkreis"},"federalState":{"key":"09","name":"Bayern"}},]