[{"name":"Am Anger","postalCode":"86736","locality":"Auhausen","municipality":{"key":"09779117","name":"Auhausen","type":"Kreisangehörige_Gemeinde"},"district":{"key":"09779","name":"Donau-Ries","type":"Landkreis"},"federalState":{"key":"09","name":"Bayern"}},{"name":"Am Kreuz","postalCode":"86736","locality":"Auhausen","municipality":{"key":"09779117","name":"Auhausen","type":"Kreisangehörige_Gemeinde"},"district":{"key":"09779","name":"Donau-Ries","type":"Landkreis"},"federalState":{"key":"09","name":"Bayern"}},{"name":"Amselweg","postalCode":"86736","locality":"Auhausen","municipality":{"key":"09779117","name":"Auhausen","type":"Kreisangehörige_Gemeinde"},"district":{"key":"09779","name":"Donau-Ries","type":"Landkreis"},"federalState":{"key":"09","name":"Bayern"}},{"name":"Am Südhang","postalCode":"86736","locality":"Auhausen","municipality":{"key":"09779117","name":"Auhausen","type":"Kreisangehörige_Gemeinde"},"district":{"key":"09779","name":"Donau-Ries","type":"Landkreis"},"federalState":{"key":"09","name":"Bayern"}},{"name":"Bergstr.","postalCode":"86736","locality":"Auhausen","municipality":{"key":"09779117","name":"Auhausen","type":"Kreisangehörige_Gemeinde"},"district":{"key":"09779","name":"Donau-Ries","type":"Landkreis"},"federalState":{"key":"09","name":"Bayern"}},{"name":"Doktor-Otto-Mayer-Str.","postalCode":"86736","locality":"Auhausen","municipality":{"key":"09779117","name":"Auhausen","type":"Kreisangehörige_Gemeinde"},"district":{"key":"09779","name":"Donau-Ries","type":"Landkreis"},"federalState":{"key":"09","name":"Bayern"}},{"name":"Dorfstr.","postalCode":"86736","locality":"Auhausen","municipality":{"key":"09779117","name":"Auhausen","type":"Kreisangehörige_Gemeinde"},"district":{"key":"09779","name":"Donau-Ries","type":"Landkreis"},"federalState":{"key":"09","name":"Bayern"}},{"name":"Finkenschlag","postalCode":"86736","locality":"Auhausen","municipality":{"key":"09779117","name":"Auhausen","type":"Kreisangehörige_Gemeinde"},"district":{"key":"09779","name":"Donau-Ries","type":"Landkreis"},"federalState":{"key":"09","name":"Bayern"}},{"name":"Fürnheimer Str.","postalCode":"86736","locality":"Auhausen","municipality":{"key":"09779117","name":"Auhausen","type":"Kreisangehörige_Gemeinde"},"district":{"key":"09779","name":"Donau-Ries","type":"Landkreis"},"federalState":{"key":"09","name":"Bayern"}},{"name":"Gartenstr.","postalCode":"86736","locality":"Auhausen","municipality":{"key":"09779117","name":"Auhausen","type":"Kreisangehörige_Gemeinde"},"district":{"key":"09779","name":"Donau-Ries","type":"Landkreis"},"federalState":{"key":"09","name":"Bayern"}},{"name":"Heuhof","postalCode":"86736","locality":"Auhausen","municipality":{"key":"09779117","name":"Auhausen","type":"Kreisangehörige_Gemeinde"},"district":{"key":"09779","name":"Donau-Ries","type":"Landkreis"},"federalState":{"key":"09","name":"Bayern"}},{"name":"Hirschbrunner Str.","postalCode":"86736","locality":"Auhausen","municipality":{"key":"09779117","name":"Auhausen","type":"Kreisangehörige_Gemeinde"},"district":{"key":"09779","name":"Donau-Ries","type":"Landkreis"},"federalState":{"key":"09","name":"Bayern"}},{"name":"Kellerbergstr.","postalCode":"86736","locality":"Auhausen","municipality":{"key":"09779117","name":"Auhausen","type":"Kreisangehörige_Gemeinde"},"district":{"key":"09779","name":"Donau-Ries","type":"Landkreis"},"federalState":{"key":"09","name":"Bayern"}},{"name":"Klosterhof","postalCode":"86736","locality":"Auhausen","municipality":{"key":"09779117","name":"Auhausen","type":"Kreisangehörige_Gemeinde"},"district":{"key":"09779","name":"Donau-Ries","type":"Landkreis"},"federalState":{"key":"09","name":"Bayern"}},{"name":"Klosterstr.","postalCode":"86736","locality":"Auhausen","municipality":{"key":"09779117","name":"Auhausen","type":"Kreisangehörige_Gemeinde"},"district":{"key":"09779","name":"Donau-Ries","type":"Landkreis"},"federalState":{"key":"09","name":"Bayern"}},{"name":"Lerchenweg","postalCode":"86736","locality":"Auhausen","municipality":{"key":"09779117","name":"Auhausen","type":"Kreisangehörige_Gemeinde"},"district":{"key":"09779","name":"Donau-Ries","type":"Landkreis"},"federalState":{"key":"09","name":"Bayern"}},{"name":"Mühlstr.","postalCode":"86736","locality":"Auhausen","municipality":{"key":"09779117","name":"Auhausen","type":"Kreisangehörige_Gemeinde"},"district":{"key":"09779","name":"Donau-Ries","type":"Landkreis"},"federalState":{"key":"09","name":"Bayern"}},{"name":"Oettinger Str.","postalCode":"86736","locality":"Auhausen","municipality":{"key":"09779117","name":"Auhausen","type":"Kreisangehörige_Gemeinde"},"district":{"key":"09779","name":"Donau-Ries","type":"Landkreis"},"federalState":{"key":"09","name":"Bayern"}},{"name":"Pfeifhof","postalCode":"86736","locality":"Auhausen","municipality":{"key":"09779117","name":"Auhausen","type":"Kreisangehörige_Gemeinde"},"district":{"key":"09779","name":"Donau-Ries","type":"Landkreis"},"federalState":{"key":"09","name":"Bayern"}},{"name":"Raiffeisenplatz","postalCode":"86736","locality":"Auhausen","municipality":{"key":"09779117","name":"Auhausen","type":"Kreisangehörige_Gemeinde"},"district":{"key":"09779","name":"Donau-Ries","type":"Landkreis"},"federalState":{"key":"09","name":"Bayern"}},{"name":"Siedlung","postalCode":"86736","locality":"Auhausen","municipality":{"key":"09779117","name":"Auhausen","type":"Kreisangehörige_Gemeinde"},"district":{"key":"09779","name":"Donau-Ries","type":"Landkreis"},"federalState":{"key":"09","name":"Bayern"}},{"name":"St 2221","postalCode":"86736","locality":"Auhausen","municipality":{"key":"09779117","name":"Auhausen","type":"Kreisangehörige_Gemeinde"},"district":{"key":"09779","name":"Donau-Ries","type":"Landkreis"},"federalState":{"key":"09","name":"Bayern"}},{"name":"Weiherstr.","postalCode":"86736","locality":"Auhausen","municipality":{"key":"09779117","name":"Auhausen","type":"Kreisangehörige_Gemeinde"},"district":{"key":"09779","name":"Donau-Ries","type":"Landkreis"},"federalState":{"key":"09","name":"Bayern"}},{"name":"Westheimer Str.","postalCode":"86736","locality":"Auhausen","municipality":{"key":"09779117","name":"Auhausen","type":"Kreisangehörige_Gemeinde"},"district":{"key":"09779","name":"Donau-Ries","type":"Landkreis"},"federalState":{"key":"09","name":"Bayern"}},{"name":"Wiesenstr.","postalCode":"86736","locality":"Auhausen","municipality":{"key":"09779117","name":"Auhausen","type":"Kreisangehörige_Gemeinde"},"district":{"key":"09779","name":"Donau-Ries","type":"Landkreis"},"federalState":{"key":"09","name":"Bayern"}},]