[{"name":"Alte Poststr.","postalCode":"17111","locality":"Nossendorf","municipality":{"key":"13071112","name":"Nossendorf","type":"Kreisangehörige_Gemeinde"},"district":{"key":"13071","name":"Mecklenburgische Seenplatte","type":"Landkreis"},"federalState":{"key":"13","name":"Mecklenburg-Vorpommern"}},{"name":"Am Klingelbaum","postalCode":"17111","locality":"Nossendorf","municipality":{"key":"13071112","name":"Nossendorf","type":"Kreisangehörige_Gemeinde"},"district":{"key":"13071","name":"Mecklenburgische Seenplatte","type":"Landkreis"},"federalState":{"key":"13","name":"Mecklenburg-Vorpommern"}},{"name":"Am Teich","postalCode":"17111","locality":"Nossendorf","municipality":{"key":"13071112","name":"Nossendorf","type":"Kreisangehörige_Gemeinde"},"district":{"key":"13071","name":"Mecklenburgische Seenplatte","type":"Landkreis"},"federalState":{"key":"13","name":"Mecklenburg-Vorpommern"}},{"name":"An der Chaussee","postalCode":"17111","locality":"Nossendorf","municipality":{"key":"13071112","name":"Nossendorf","type":"Kreisangehörige_Gemeinde"},"district":{"key":"13071","name":"Mecklenburgische Seenplatte","type":"Landkreis"},"federalState":{"key":"13","name":"Mecklenburg-Vorpommern"}},{"name":"Annenhof","postalCode":"17111","locality":"Nossendorf","municipality":{"key":"13071112","name":"Nossendorf","type":"Kreisangehörige_Gemeinde"},"district":{"key":"13071","name":"Mecklenburgische Seenplatte","type":"Landkreis"},"federalState":{"key":"13","name":"Mecklenburg-Vorpommern"}},{"name":"Bäckerweg","postalCode":"17111","locality":"Nossendorf","municipality":{"key":"13071112","name":"Nossendorf","type":"Kreisangehörige_Gemeinde"},"district":{"key":"13071","name":"Mecklenburgische Seenplatte","type":"Landkreis"},"federalState":{"key":"13","name":"Mecklenburg-Vorpommern"}},{"name":"Dorfstr.","postalCode":"17111","locality":"Nossendorf","municipality":{"key":"13071112","name":"Nossendorf","type":"Kreisangehörige_Gemeinde"},"district":{"key":"13071","name":"Mecklenburgische Seenplatte","type":"Landkreis"},"federalState":{"key":"13","name":"Mecklenburg-Vorpommern"}},{"name":"Hauptstr.","postalCode":"17111","locality":"Nossendorf","municipality":{"key":"13071112","name":"Nossendorf","type":"Kreisangehörige_Gemeinde"},"district":{"key":"13071","name":"Mecklenburgische Seenplatte","type":"Landkreis"},"federalState":{"key":"13","name":"Mecklenburg-Vorpommern"}},{"name":"Heuweg","postalCode":"17111","locality":"Nossendorf","municipality":{"key":"13071112","name":"Nossendorf","type":"Kreisangehörige_Gemeinde"},"district":{"key":"13071","name":"Mecklenburgische Seenplatte","type":"Landkreis"},"federalState":{"key":"13","name":"Mecklenburg-Vorpommern"}},{"name":"Kirchweg","postalCode":"17111","locality":"Nossendorf","municipality":{"key":"13071112","name":"Nossendorf","type":"Kreisangehörige_Gemeinde"},"district":{"key":"13071","name":"Mecklenburgische Seenplatte","type":"Landkreis"},"federalState":{"key":"13","name":"Mecklenburg-Vorpommern"}},{"name":"Landstr.","postalCode":"17111","locality":"Nossendorf","municipality":{"key":"13071112","name":"Nossendorf","type":"Kreisangehörige_Gemeinde"},"district":{"key":"13071","name":"Mecklenburgische Seenplatte","type":"Landkreis"},"federalState":{"key":"13","name":"Mecklenburg-Vorpommern"}},{"name":"Lindenallee","postalCode":"17111","locality":"Nossendorf","municipality":{"key":"13071112","name":"Nossendorf","type":"Kreisangehörige_Gemeinde"},"district":{"key":"13071","name":"Mecklenburgische Seenplatte","type":"Landkreis"},"federalState":{"key":"13","name":"Mecklenburg-Vorpommern"}},{"name":"Mittelweg","postalCode":"17111","locality":"Nossendorf","municipality":{"key":"13071112","name":"Nossendorf","type":"Kreisangehörige_Gemeinde"},"district":{"key":"13071","name":"Mecklenburgische Seenplatte","type":"Landkreis"},"federalState":{"key":"13","name":"Mecklenburg-Vorpommern"}},{"name":"Pappelallee","postalCode":"17111","locality":"Nossendorf","municipality":{"key":"13071112","name":"Nossendorf","type":"Kreisangehörige_Gemeinde"},"district":{"key":"13071","name":"Mecklenburgische Seenplatte","type":"Landkreis"},"federalState":{"key":"13","name":"Mecklenburg-Vorpommern"}},{"name":"Ringstr.","postalCode":"17111","locality":"Nossendorf","municipality":{"key":"13071112","name":"Nossendorf","type":"Kreisangehörige_Gemeinde"},"district":{"key":"13071","name":"Mecklenburgische Seenplatte","type":"Landkreis"},"federalState":{"key":"13","name":"Mecklenburg-Vorpommern"}},{"name":"Rotdornstr.","postalCode":"17111","locality":"Nossendorf","municipality":{"key":"13071112","name":"Nossendorf","type":"Kreisangehörige_Gemeinde"},"district":{"key":"13071","name":"Mecklenburgische Seenplatte","type":"Landkreis"},"federalState":{"key":"13","name":"Mecklenburg-Vorpommern"}},{"name":"Schulstr.","postalCode":"17111","locality":"Nossendorf","municipality":{"key":"13071112","name":"Nossendorf","type":"Kreisangehörige_Gemeinde"},"district":{"key":"13071","name":"Mecklenburgische Seenplatte","type":"Landkreis"},"federalState":{"key":"13","name":"Mecklenburg-Vorpommern"}},{"name":"Schulweg","postalCode":"17111","locality":"Nossendorf","municipality":{"key":"13071112","name":"Nossendorf","type":"Kreisangehörige_Gemeinde"},"district":{"key":"13071","name":"Mecklenburgische Seenplatte","type":"Landkreis"},"federalState":{"key":"13","name":"Mecklenburg-Vorpommern"}},{"name":"Spitzeck","postalCode":"17111","locality":"Nossendorf","municipality":{"key":"13071112","name":"Nossendorf","type":"Kreisangehörige_Gemeinde"},"district":{"key":"13071","name":"Mecklenburgische Seenplatte","type":"Landkreis"},"federalState":{"key":"13","name":"Mecklenburg-Vorpommern"}},{"name":"Tannenweg","postalCode":"17111","locality":"Nossendorf","municipality":{"key":"13071112","name":"Nossendorf","type":"Kreisangehörige_Gemeinde"},"district":{"key":"13071","name":"Mecklenburgische Seenplatte","type":"Landkreis"},"federalState":{"key":"13","name":"Mecklenburg-Vorpommern"}},{"name":"Toitzer Berg","postalCode":"17111","locality":"Nossendorf","municipality":{"key":"13071112","name":"Nossendorf","type":"Kreisangehörige_Gemeinde"},"district":{"key":"13071","name":"Mecklenburgische Seenplatte","type":"Landkreis"},"federalState":{"key":"13","name":"Mecklenburg-Vorpommern"}},{"name":"Trebelweg","postalCode":"17111","locality":"Nossendorf","municipality":{"key":"13071112","name":"Nossendorf","type":"Kreisangehörige_Gemeinde"},"district":{"key":"13071","name":"Mecklenburgische Seenplatte","type":"Landkreis"},"federalState":{"key":"13","name":"Mecklenburg-Vorpommern"}},{"name":"Zum Kanal","postalCode":"17111","locality":"Nossendorf","municipality":{"key":"13071112","name":"Nossendorf","type":"Kreisangehörige_Gemeinde"},"district":{"key":"13071","name":"Mecklenburgische Seenplatte","type":"Landkreis"},"federalState":{"key":"13","name":"Mecklenburg-Vorpommern"}},]