[{"key":"10035614","name":"Chemin de la Fontaine","postalCode":"1121","locality":"Bremblens","commune":{"key":"5622","name":"Bremblens","shortName":"Bremblens"},"district":{"key":"2227","name":"District de Morges"},"canton":{"key":"22","code":"VD","name":"Vaud"},"status":"Real"},{"key":"10100505","name":"Chemin de la Tâtra","postalCode":"1121","locality":"Bremblens","commune":{"key":"5622","name":"Bremblens","shortName":"Bremblens"},"district":{"key":"2227","name":"District de Morges"},"canton":{"key":"22","code":"VD","name":"Vaud"},"status":"Real"},{"key":"10235979","name":"Chemin de Pâla","postalCode":"1121","locality":"Bremblens","commune":{"key":"5622","name":"Bremblens","shortName":"Bremblens"},"district":{"key":"2227","name":"District de Morges"},"canton":{"key":"22","code":"VD","name":"Vaud"},"status":"Real"},{"key":"10140135","name":"Chemin de Radez","postalCode":"1121","locality":"Bremblens","commune":{"key":"5622","name":"Bremblens","shortName":"Bremblens"},"district":{"key":"2227","name":"District de Morges"},"canton":{"key":"22","code":"VD","name":"Vaud"},"status":"Real"},{"key":"10100504","name":"Chemin de Ravaret","postalCode":"1121","locality":"Bremblens","commune":{"key":"5622","name":"Bremblens","shortName":"Bremblens"},"district":{"key":"2227","name":"District de Morges"},"canton":{"key":"22","code":"VD","name":"Vaud"},"status":"Real"},{"key":"10035613","name":"Chemin de Roffens","postalCode":"1121","locality":"Bremblens","commune":{"key":"5622","name":"Bremblens","shortName":"Bremblens"},"district":{"key":"2227","name":"District de Morges"},"canton":{"key":"22","code":"VD","name":"Vaud"},"status":"Real"},{"key":"10235980","name":"Chemin de Roufin","postalCode":"1121","locality":"Bremblens","commune":{"key":"5622","name":"Bremblens","shortName":"Bremblens"},"district":{"key":"2227","name":"District de Morges"},"canton":{"key":"22","code":"VD","name":"Vaud"},"status":"Real"},{"key":"10073274","name":"Chemin de Séroches","postalCode":"1121","locality":"Bremblens","commune":{"key":"5622","name":"Bremblens","shortName":"Bremblens"},"district":{"key":"2227","name":"District de Morges"},"canton":{"key":"22","code":"VD","name":"Vaud"},"status":"Real"},{"key":"10035615","name":"Chemin des Planches","postalCode":"1121","locality":"Bremblens","commune":{"key":"5622","name":"Bremblens","shortName":"Bremblens"},"district":{"key":"2227","name":"District de Morges"},"canton":{"key":"22","code":"VD","name":"Vaud"},"status":"Real"},{"key":"10106986","name":"Chemin des Vignes","postalCode":"1121","locality":"Bremblens","commune":{"key":"5622","name":"Bremblens","shortName":"Bremblens"},"district":{"key":"2227","name":"District de Morges"},"canton":{"key":"22","code":"VD","name":"Vaud"},"status":"Real"},{"key":"10100506","name":"Chemin du Moulin du Choc","postalCode":"1121","locality":"Bremblens","commune":{"key":"5622","name":"Bremblens","shortName":"Bremblens"},"district":{"key":"2227","name":"District de Morges"},"canton":{"key":"22","code":"VD","name":"Vaud"},"status":"Real"},{"key":"10073275","name":"Les Corbes","postalCode":"1121","locality":"Bremblens","commune":{"key":"5622","name":"Bremblens","shortName":"Bremblens"},"district":{"key":"2227","name":"District de Morges"},"canton":{"key":"22","code":"VD","name":"Vaud"},"status":"Real"},{"key":"10035616","name":"Les Uttins","postalCode":"1121","locality":"Bremblens","commune":{"key":"5622","name":"Bremblens","shortName":"Bremblens"},"district":{"key":"2227","name":"District de Morges"},"canton":{"key":"22","code":"VD","name":"Vaud"},"status":"Real"},{"key":"10176859","name":"Route de Bussigny","postalCode":"1121","locality":"Bremblens","commune":{"key":"5622","name":"Bremblens","shortName":"Bremblens"},"district":{"key":"2227","name":"District de Morges"},"canton":{"key":"22","code":"VD","name":"Vaud"},"status":"Real"},{"key":"10235978","name":"Route de Lonay","postalCode":"1121","locality":"Bremblens","commune":{"key":"5622","name":"Bremblens","shortName":"Bremblens"},"district":{"key":"2227","name":"District de Morges"},"canton":{"key":"22","code":"VD","name":"Vaud"},"status":"Real"},{"key":"10035617","name":"Route de Morges","postalCode":"1121","locality":"Bremblens","commune":{"key":"5622","name":"Bremblens","shortName":"Bremblens"},"district":{"key":"2227","name":"District de Morges"},"canton":{"key":"22","code":"VD","name":"Vaud"},"status":"Real"},{"key":"10048105","name":"Route de Romanel","postalCode":"1121","locality":"Bremblens","commune":{"key":"5622","name":"Bremblens","shortName":"Bremblens"},"district":{"key":"2227","name":"District de Morges"},"canton":{"key":"22","code":"VD","name":"Vaud"},"status":"Real"},{"key":"10035618","name":"Rue de l'Eglise","postalCode":"1121","locality":"Bremblens","commune":{"key":"5622","name":"Bremblens","shortName":"Bremblens"},"district":{"key":"2227","name":"District de Morges"},"canton":{"key":"22","code":"VD","name":"Vaud"},"status":"Real"},{"key":"10073276","name":"Rue du Pressoir","postalCode":"1121","locality":"Bremblens","commune":{"key":"5622","name":"Bremblens","shortName":"Bremblens"},"district":{"key":"2227","name":"District de Morges"},"canton":{"key":"22","code":"VD","name":"Vaud"},"status":"Real"},{"key":"10100507","name":"Rue du Village","postalCode":"1121","locality":"Bremblens","commune":{"key":"5622","name":"Bremblens","shortName":"Bremblens"},"district":{"key":"2227","name":"District de Morges"},"canton":{"key":"22","code":"VD","name":"Vaud"},"status":"Real"},{"key":"10128354","name":"Zone Industrielle Moulin du Choc A","postalCode":"1121","locality":"Bremblens","commune":{"key":"5622","name":"Bremblens","shortName":"Bremblens"},"district":{"key":"2227","name":"District de Morges"},"canton":{"key":"22","code":"VD","name":"Vaud"},"status":"Real"},]