[{"name":"Hammerstoft","postalCode":"24975","locality":"Ausacker","municipality":{"key":"01059103","name":"Ausacker","type":"Kreisangehörige_Gemeinde"},"district":{"key":"01059","name":"Schleswig-Flensburg","type":"Kreis"},"federalState":{"key":"01","name":"Schleswig-Holstein"}},{"name":"Holnisser Landstr.","postalCode":"24975","locality":"Ausacker","municipality":{"key":"01059103","name":"Ausacker","type":"Kreisangehörige_Gemeinde"},"district":{"key":"01059","name":"Schleswig-Flensburg","type":"Kreis"},"federalState":{"key":"01","name":"Schleswig-Holstein"}},{"name":"Lämmerstr.","postalCode":"24975","locality":"Ausacker","municipality":{"key":"01059103","name":"Ausacker","type":"Kreisangehörige_Gemeinde"},"district":{"key":"01059","name":"Schleswig-Flensburg","type":"Kreis"},"federalState":{"key":"01","name":"Schleswig-Holstein"}},{"name":"Mühlenstr.","postalCode":"24975","locality":"Ausacker","municipality":{"key":"01059103","name":"Ausacker","type":"Kreisangehörige_Gemeinde"},"district":{"key":"01059","name":"Schleswig-Flensburg","type":"Kreis"},"federalState":{"key":"01","name":"Schleswig-Holstein"}},{"name":"Norderdorf","postalCode":"24975","locality":"Ausacker","municipality":{"key":"01059103","name":"Ausacker","type":"Kreisangehörige_Gemeinde"},"district":{"key":"01059","name":"Schleswig-Flensburg","type":"Kreis"},"federalState":{"key":"01","name":"Schleswig-Holstein"}},{"name":"Osterdorf","postalCode":"24975","locality":"Ausacker","municipality":{"key":"01059103","name":"Ausacker","type":"Kreisangehörige_Gemeinde"},"district":{"key":"01059","name":"Schleswig-Flensburg","type":"Kreis"},"federalState":{"key":"01","name":"Schleswig-Holstein"}},{"name":"Stockbrückstr.","postalCode":"24975","locality":"Ausacker","municipality":{"key":"01059103","name":"Ausacker","type":"Kreisangehörige_Gemeinde"},"district":{"key":"01059","name":"Schleswig-Flensburg","type":"Kreis"},"federalState":{"key":"01","name":"Schleswig-Holstein"}},{"name":"Süderdorf","postalCode":"24975","locality":"Ausacker","municipality":{"key":"01059103","name":"Ausacker","type":"Kreisangehörige_Gemeinde"},"district":{"key":"01059","name":"Schleswig-Flensburg","type":"Kreis"},"federalState":{"key":"01","name":"Schleswig-Holstein"}},{"name":"Westerdorf","postalCode":"24975","locality":"Ausacker","municipality":{"key":"01059103","name":"Ausacker","type":"Kreisangehörige_Gemeinde"},"district":{"key":"01059","name":"Schleswig-Flensburg","type":"Kreis"},"federalState":{"key":"01","name":"Schleswig-Holstein"}},{"name":"Westerholzer Weg","postalCode":"24975","locality":"Ausacker","municipality":{"key":"01059103","name":"Ausacker","type":"Kreisangehörige_Gemeinde"},"district":{"key":"01059","name":"Schleswig-Flensburg","type":"Kreis"},"federalState":{"key":"01","name":"Schleswig-Holstein"}},{"name":"Winderatter Weg","postalCode":"24975","locality":"Ausacker","municipality":{"key":"01059103","name":"Ausacker","type":"Kreisangehörige_Gemeinde"},"district":{"key":"01059","name":"Schleswig-Flensburg","type":"Kreis"},"federalState":{"key":"01","name":"Schleswig-Holstein"}},{"name":"Winderattheck","postalCode":"24975","locality":"Ausacker","municipality":{"key":"01059103","name":"Ausacker","type":"Kreisangehörige_Gemeinde"},"district":{"key":"01059","name":"Schleswig-Flensburg","type":"Kreis"},"federalState":{"key":"01","name":"Schleswig-Holstein"}},]