[{"name":"Am Dachsberg","postalCode":"97654","locality":"Bastheim","municipality":{"key":"09673116","name":"Bastheim","type":"Kreisangehörige_Gemeinde"},"district":{"key":"09673","name":"Rhön-Grabfeld","type":"Landkreis"},"federalState":{"key":"09","name":"Bayern"}},{"name":"Am Gehäg","postalCode":"97654","locality":"Bastheim","municipality":{"key":"09673116","name":"Bastheim","type":"Kreisangehörige_Gemeinde"},"district":{"key":"09673","name":"Rhön-Grabfeld","type":"Landkreis"},"federalState":{"key":"09","name":"Bayern"}},{"name":"Am Gresselberg","postalCode":"97654","locality":"Bastheim","municipality":{"key":"09673116","name":"Bastheim","type":"Kreisangehörige_Gemeinde"},"district":{"key":"09673","name":"Rhön-Grabfeld","type":"Landkreis"},"federalState":{"key":"09","name":"Bayern"}},{"name":"Am Sethenbach","postalCode":"97654","locality":"Bastheim","municipality":{"key":"09673116","name":"Bastheim","type":"Kreisangehörige_Gemeinde"},"district":{"key":"09673","name":"Rhön-Grabfeld","type":"Landkreis"},"federalState":{"key":"09","name":"Bayern"}},{"name":"Am Streichen","postalCode":"97654","locality":"Bastheim","municipality":{"key":"09673116","name":"Bastheim","type":"Kreisangehörige_Gemeinde"},"district":{"key":"09673","name":"Rhön-Grabfeld","type":"Landkreis"},"federalState":{"key":"09","name":"Bayern"}},{"name":"An der Kirche","postalCode":"97654","locality":"Bastheim","municipality":{"key":"09673116","name":"Bastheim","type":"Kreisangehörige_Gemeinde"},"district":{"key":"09673","name":"Rhön-Grabfeld","type":"Landkreis"},"federalState":{"key":"09","name":"Bayern"}},{"name":"Auszugsäcker","postalCode":"97654","locality":"Bastheim","municipality":{"key":"09673116","name":"Bastheim","type":"Kreisangehörige_Gemeinde"},"district":{"key":"09673","name":"Rhön-Grabfeld","type":"Landkreis"},"federalState":{"key":"09","name":"Bayern"}},{"name":"Auweg","postalCode":"97654","locality":"Bastheim","municipality":{"key":"09673116","name":"Bastheim","type":"Kreisangehörige_Gemeinde"},"district":{"key":"09673","name":"Rhön-Grabfeld","type":"Landkreis"},"federalState":{"key":"09","name":"Bayern"}},{"name":"Balzergasse","postalCode":"97654","locality":"Bastheim","municipality":{"key":"09673116","name":"Bastheim","type":"Kreisangehörige_Gemeinde"},"district":{"key":"09673","name":"Rhön-Grabfeld","type":"Landkreis"},"federalState":{"key":"09","name":"Bayern"}},{"name":"Bastheimer Str.","postalCode":"97654","locality":"Bastheim","municipality":{"key":"09673116","name":"Bastheim","type":"Kreisangehörige_Gemeinde"},"district":{"key":"09673","name":"Rhön-Grabfeld","type":"Landkreis"},"federalState":{"key":"09","name":"Bayern"}},{"name":"Behrunger Str.","postalCode":"97654","locality":"Bastheim","municipality":{"key":"09673116","name":"Bastheim","type":"Kreisangehörige_Gemeinde"},"district":{"key":"09673","name":"Rhön-Grabfeld","type":"Landkreis"},"federalState":{"key":"09","name":"Bayern"}},{"name":"Bergstr.","postalCode":"97654","locality":"Bastheim","municipality":{"key":"09673116","name":"Bastheim","type":"Kreisangehörige_Gemeinde"},"district":{"key":"09673","name":"Rhön-Grabfeld","type":"Landkreis"},"federalState":{"key":"09","name":"Bayern"}},{"name":"Besengaustr.","postalCode":"97654","locality":"Bastheim","municipality":{"key":"09673116","name":"Bastheim","type":"Kreisangehörige_Gemeinde"},"district":{"key":"09673","name":"Rhön-Grabfeld","type":"Landkreis"},"federalState":{"key":"09","name":"Bayern"}},{"name":"Birkenweg","postalCode":"97654","locality":"Bastheim","municipality":{"key":"09673116","name":"Bastheim","type":"Kreisangehörige_Gemeinde"},"district":{"key":"09673","name":"Rhön-Grabfeld","type":"Landkreis"},"federalState":{"key":"09","name":"Bayern"}},{"name":"Blumenstr.","postalCode":"97654","locality":"Bastheim","municipality":{"key":"09673116","name":"Bastheim","type":"Kreisangehörige_Gemeinde"},"district":{"key":"09673","name":"Rhön-Grabfeld","type":"Landkreis"},"federalState":{"key":"09","name":"Bayern"}},{"name":"Breiter Weg","postalCode":"97654","locality":"Bastheim","municipality":{"key":"09673116","name":"Bastheim","type":"Kreisangehörige_Gemeinde"},"district":{"key":"09673","name":"Rhön-Grabfeld","type":"Landkreis"},"federalState":{"key":"09","name":"Bayern"}},{"name":"Brunnengasse","postalCode":"97654","locality":"Bastheim","municipality":{"key":"09673116","name":"Bastheim","type":"Kreisangehörige_Gemeinde"},"district":{"key":"09673","name":"Rhön-Grabfeld","type":"Landkreis"},"federalState":{"key":"09","name":"Bayern"}},{"name":"Bündweg","postalCode":"97654","locality":"Bastheim","municipality":{"key":"09673116","name":"Bastheim","type":"Kreisangehörige_Gemeinde"},"district":{"key":"09673","name":"Rhön-Grabfeld","type":"Landkreis"},"federalState":{"key":"09","name":"Bayern"}},{"name":"Dorfstr.","postalCode":"97654","locality":"Bastheim","municipality":{"key":"09673116","name":"Bastheim","type":"Kreisangehörige_Gemeinde"},"district":{"key":"09673","name":"Rhön-Grabfeld","type":"Landkreis"},"federalState":{"key":"09","name":"Bayern"}},{"name":"Gartenstr.","postalCode":"97654","locality":"Bastheim","municipality":{"key":"09673116","name":"Bastheim","type":"Kreisangehörige_Gemeinde"},"district":{"key":"09673","name":"Rhön-Grabfeld","type":"Landkreis"},"federalState":{"key":"09","name":"Bayern"}},{"name":"Gertenstr.","postalCode":"97654","locality":"Bastheim","municipality":{"key":"09673116","name":"Bastheim","type":"Kreisangehörige_Gemeinde"},"district":{"key":"09673","name":"Rhön-Grabfeld","type":"Landkreis"},"federalState":{"key":"09","name":"Bayern"}},{"name":"Grasweg","postalCode":"97654","locality":"Bastheim","municipality":{"key":"09673116","name":"Bastheim","type":"Kreisangehörige_Gemeinde"},"district":{"key":"09673","name":"Rhön-Grabfeld","type":"Landkreis"},"federalState":{"key":"09","name":"Bayern"}},{"name":"Gustav-Fuchs-Str.","postalCode":"97654","locality":"Bastheim","municipality":{"key":"09673116","name":"Bastheim","type":"Kreisangehörige_Gemeinde"},"district":{"key":"09673","name":"Rhön-Grabfeld","type":"Landkreis"},"federalState":{"key":"09","name":"Bayern"}},{"name":"Hauptstr.","postalCode":"97654","locality":"Bastheim","municipality":{"key":"09673116","name":"Bastheim","type":"Kreisangehörige_Gemeinde"},"district":{"key":"09673","name":"Rhön-Grabfeld","type":"Landkreis"},"federalState":{"key":"09","name":"Bayern"}},{"name":"Heidweg","postalCode":"97654","locality":"Bastheim","municipality":{"key":"09673116","name":"Bastheim","type":"Kreisangehörige_Gemeinde"},"district":{"key":"09673","name":"Rhön-Grabfeld","type":"Landkreis"},"federalState":{"key":"09","name":"Bayern"}},{"name":"Hirtenwiese","postalCode":"97654","locality":"Bastheim","municipality":{"key":"09673116","name":"Bastheim","type":"Kreisangehörige_Gemeinde"},"district":{"key":"09673","name":"Rhön-Grabfeld","type":"Landkreis"},"federalState":{"key":"09","name":"Bayern"}},{"name":"Höhenstr.","postalCode":"97654","locality":"Bastheim","municipality":{"key":"09673116","name":"Bastheim","type":"Kreisangehörige_Gemeinde"},"district":{"key":"09673","name":"Rhön-Grabfeld","type":"Landkreis"},"federalState":{"key":"09","name":"Bayern"}},{"name":"Hohler Weg","postalCode":"97654","locality":"Bastheim","municipality":{"key":"09673116","name":"Bastheim","type":"Kreisangehörige_Gemeinde"},"district":{"key":"09673","name":"Rhön-Grabfeld","type":"Landkreis"},"federalState":{"key":"09","name":"Bayern"}},{"name":"Hubertusweg","postalCode":"97654","locality":"Bastheim","municipality":{"key":"09673116","name":"Bastheim","type":"Kreisangehörige_Gemeinde"},"district":{"key":"09673","name":"Rhön-Grabfeld","type":"Landkreis"},"federalState":{"key":"09","name":"Bayern"}},{"name":"Hundsäcker","postalCode":"97654","locality":"Bastheim","municipality":{"key":"09673116","name":"Bastheim","type":"Kreisangehörige_Gemeinde"},"district":{"key":"09673","name":"Rhön-Grabfeld","type":"Landkreis"},"federalState":{"key":"09","name":"Bayern"}},{"name":"Kirchentor","postalCode":"97654","locality":"Bastheim","municipality":{"key":"09673116","name":"Bastheim","type":"Kreisangehörige_Gemeinde"},"district":{"key":"09673","name":"Rhön-Grabfeld","type":"Landkreis"},"federalState":{"key":"09","name":"Bayern"}},{"name":"Kirchgasse","postalCode":"97654","locality":"Bastheim","municipality":{"key":"09673116","name":"Bastheim","type":"Kreisangehörige_Gemeinde"},"district":{"key":"09673","name":"Rhön-Grabfeld","type":"Landkreis"},"federalState":{"key":"09","name":"Bayern"}},{"name":"Kirschgarten","postalCode":"97654","locality":"Bastheim","municipality":{"key":"09673116","name":"Bastheim","type":"Kreisangehörige_Gemeinde"},"district":{"key":"09673","name":"Rhön-Grabfeld","type":"Landkreis"},"federalState":{"key":"09","name":"Bayern"}},{"name":"Kleinsteinweg","postalCode":"97654","locality":"Bastheim","municipality":{"key":"09673116","name":"Bastheim","type":"Kreisangehörige_Gemeinde"},"district":{"key":"09673","name":"Rhön-Grabfeld","type":"Landkreis"},"federalState":{"key":"09","name":"Bayern"}},{"name":"Klosterstr.","postalCode":"97654","locality":"Bastheim","municipality":{"key":"09673116","name":"Bastheim","type":"Kreisangehörige_Gemeinde"},"district":{"key":"09673","name":"Rhön-Grabfeld","type":"Landkreis"},"federalState":{"key":"09","name":"Bayern"}},{"name":"Krumme Gasse","postalCode":"97654","locality":"Bastheim","municipality":{"key":"09673116","name":"Bastheim","type":"Kreisangehörige_Gemeinde"},"district":{"key":"09673","name":"Rhön-Grabfeld","type":"Landkreis"},"federalState":{"key":"09","name":"Bayern"}},{"name":"Laurenziusstr.","postalCode":"97654","locality":"Bastheim","municipality":{"key":"09673116","name":"Bastheim","type":"Kreisangehörige_Gemeinde"},"district":{"key":"09673","name":"Rhön-Grabfeld","type":"Landkreis"},"federalState":{"key":"09","name":"Bayern"}},{"name":"Leimenstr.","postalCode":"97654","locality":"Bastheim","municipality":{"key":"09673116","name":"Bastheim","type":"Kreisangehörige_Gemeinde"},"district":{"key":"09673","name":"Rhön-Grabfeld","type":"Landkreis"},"federalState":{"key":"09","name":"Bayern"}},{"name":"Lindenweg","postalCode":"97654","locality":"Bastheim","municipality":{"key":"09673116","name":"Bastheim","type":"Kreisangehörige_Gemeinde"},"district":{"key":"09673","name":"Rhön-Grabfeld","type":"Landkreis"},"federalState":{"key":"09","name":"Bayern"}},{"name":"LKW Waage","postalCode":"97654","locality":"Bastheim","municipality":{"key":"09673116","name":"Bastheim","type":"Kreisangehörige_Gemeinde"},"district":{"key":"09673","name":"Rhön-Grabfeld","type":"Landkreis"},"federalState":{"key":"09","name":"Bayern"}},{"name":"Lücke","postalCode":"97654","locality":"Bastheim","municipality":{"key":"09673116","name":"Bastheim","type":"Kreisangehörige_Gemeinde"},"district":{"key":"09673","name":"Rhön-Grabfeld","type":"Landkreis"},"federalState":{"key":"09","name":"Bayern"}},{"name":"Mellrichstädter Str.","postalCode":"97654","locality":"Bastheim","municipality":{"key":"09673116","name":"Bastheim","type":"Kreisangehörige_Gemeinde"},"district":{"key":"09673","name":"Rhön-Grabfeld","type":"Landkreis"},"federalState":{"key":"09","name":"Bayern"}},{"name":"MTB","postalCode":"97654","locality":"Bastheim","municipality":{"key":"09673116","name":"Bastheim","type":"Kreisangehörige_Gemeinde"},"district":{"key":"09673","name":"Rhön-Grabfeld","type":"Landkreis"},"federalState":{"key":"09","name":"Bayern"}},{"name":"Mühltor","postalCode":"97654","locality":"Bastheim","municipality":{"key":"09673116","name":"Bastheim","type":"Kreisangehörige_Gemeinde"},"district":{"key":"09673","name":"Rhön-Grabfeld","type":"Landkreis"},"federalState":{"key":"09","name":"Bayern"}},{"name":"Müllersweg","postalCode":"97654","locality":"Bastheim","municipality":{"key":"09673116","name":"Bastheim","type":"Kreisangehörige_Gemeinde"},"district":{"key":"09673","name":"Rhön-Grabfeld","type":"Landkreis"},"federalState":{"key":"09","name":"Bayern"}},{"name":"Nonnenpfad","postalCode":"97654","locality":"Bastheim","municipality":{"key":"09673116","name":"Bastheim","type":"Kreisangehörige_Gemeinde"},"district":{"key":"09673","name":"Rhön-Grabfeld","type":"Landkreis"},"federalState":{"key":"09","name":"Bayern"}},{"name":"Obergasse","postalCode":"97654","locality":"Bastheim","municipality":{"key":"09673116","name":"Bastheim","type":"Kreisangehörige_Gemeinde"},"district":{"key":"09673","name":"Rhön-Grabfeld","type":"Landkreis"},"federalState":{"key":"09","name":"Bayern"}},{"name":"Rainweg","postalCode":"97654","locality":"Bastheim","municipality":{"key":"09673116","name":"Bastheim","type":"Kreisangehörige_Gemeinde"},"district":{"key":"09673","name":"Rhön-Grabfeld","type":"Landkreis"},"federalState":{"key":"09","name":"Bayern"}},{"name":"Reyersbacher Str.","postalCode":"97654","locality":"Bastheim","municipality":{"key":"09673116","name":"Bastheim","type":"Kreisangehörige_Gemeinde"},"district":{"key":"09673","name":"Rhön-Grabfeld","type":"Landkreis"},"federalState":{"key":"09","name":"Bayern"}},{"name":"Rhön-Rundweg 1 \"Rehbergwanderung\"","postalCode":"97654","locality":"Bastheim","municipality":{"key":"09673116","name":"Bastheim","type":"Kreisangehörige_Gemeinde"},"district":{"key":"09673","name":"Rhön-Grabfeld","type":"Landkreis"},"federalState":{"key":"09","name":"Bayern"}},{"name":"Riedwiesenweg","postalCode":"97654","locality":"Bastheim","municipality":{"key":"09673116","name":"Bastheim","type":"Kreisangehörige_Gemeinde"},"district":{"key":"09673","name":"Rhön-Grabfeld","type":"Landkreis"},"federalState":{"key":"09","name":"Bayern"}},{"name":"Ringstr.","postalCode":"97654","locality":"Bastheim","municipality":{"key":"09673116","name":"Bastheim","type":"Kreisangehörige_Gemeinde"},"district":{"key":"09673","name":"Rhön-Grabfeld","type":"Landkreis"},"federalState":{"key":"09","name":"Bayern"}},{"name":"Rödlesser Str.","postalCode":"97654","locality":"Bastheim","municipality":{"key":"09673116","name":"Bastheim","type":"Kreisangehörige_Gemeinde"},"district":{"key":"09673","name":"Rhön-Grabfeld","type":"Landkreis"},"federalState":{"key":"09","name":"Bayern"}},{"name":"Schluttengasse","postalCode":"97654","locality":"Bastheim","municipality":{"key":"09673116","name":"Bastheim","type":"Kreisangehörige_Gemeinde"},"district":{"key":"09673","name":"Rhön-Grabfeld","type":"Landkreis"},"federalState":{"key":"09","name":"Bayern"}},{"name":"Schönauer Str.","postalCode":"97654","locality":"Bastheim","municipality":{"key":"09673116","name":"Bastheim","type":"Kreisangehörige_Gemeinde"},"district":{"key":"09673","name":"Rhön-Grabfeld","type":"Landkreis"},"federalState":{"key":"09","name":"Bayern"}},{"name":"Schulstr.","postalCode":"97654","locality":"Bastheim","municipality":{"key":"09673116","name":"Bastheim","type":"Kreisangehörige_Gemeinde"},"district":{"key":"09673","name":"Rhön-Grabfeld","type":"Landkreis"},"federalState":{"key":"09","name":"Bayern"}},{"name":"Schweizweg","postalCode":"97654","locality":"Bastheim","municipality":{"key":"09673116","name":"Bastheim","type":"Kreisangehörige_Gemeinde"},"district":{"key":"09673","name":"Rhön-Grabfeld","type":"Landkreis"},"federalState":{"key":"09","name":"Bayern"}},{"name":"Simonshof","postalCode":"97654","locality":"Bastheim","municipality":{"key":"09673116","name":"Bastheim","type":"Kreisangehörige_Gemeinde"},"district":{"key":"09673","name":"Rhön-Grabfeld","type":"Landkreis"},"federalState":{"key":"09","name":"Bayern"}},{"name":"Simonshofer Str.","postalCode":"97654","locality":"Bastheim","municipality":{"key":"09673116","name":"Bastheim","type":"Kreisangehörige_Gemeinde"},"district":{"key":"09673","name":"Rhön-Grabfeld","type":"Landkreis"},"federalState":{"key":"09","name":"Bayern"}},{"name":"Sonnenstr.","postalCode":"97654","locality":"Bastheim","municipality":{"key":"09673116","name":"Bastheim","type":"Kreisangehörige_Gemeinde"},"district":{"key":"09673","name":"Rhön-Grabfeld","type":"Landkreis"},"federalState":{"key":"09","name":"Bayern"}},{"name":"Spielberg","postalCode":"97654","locality":"Bastheim","municipality":{"key":"09673116","name":"Bastheim","type":"Kreisangehörige_Gemeinde"},"district":{"key":"09673","name":"Rhön-Grabfeld","type":"Landkreis"},"federalState":{"key":"09","name":"Bayern"}},{"name":"Spielgasse","postalCode":"97654","locality":"Bastheim","municipality":{"key":"09673116","name":"Bastheim","type":"Kreisangehörige_Gemeinde"},"district":{"key":"09673","name":"Rhön-Grabfeld","type":"Landkreis"},"federalState":{"key":"09","name":"Bayern"}},{"name":"Trülltal","postalCode":"97654","locality":"Bastheim","municipality":{"key":"09673116","name":"Bastheim","type":"Kreisangehörige_Gemeinde"},"district":{"key":"09673","name":"Rhön-Grabfeld","type":"Landkreis"},"federalState":{"key":"09","name":"Bayern"}},{"name":"Um den Bau","postalCode":"97654","locality":"Bastheim","municipality":{"key":"09673116","name":"Bastheim","type":"Kreisangehörige_Gemeinde"},"district":{"key":"09673","name":"Rhön-Grabfeld","type":"Landkreis"},"federalState":{"key":"09","name":"Bayern"}},{"name":"Viergärt","postalCode":"97654","locality":"Bastheim","municipality":{"key":"09673116","name":"Bastheim","type":"Kreisangehörige_Gemeinde"},"district":{"key":"09673","name":"Rhön-Grabfeld","type":"Landkreis"},"federalState":{"key":"09","name":"Bayern"}},{"name":"Waldstr.","postalCode":"97654","locality":"Bastheim","municipality":{"key":"09673116","name":"Bastheim","type":"Kreisangehörige_Gemeinde"},"district":{"key":"09673","name":"Rhön-Grabfeld","type":"Landkreis"},"federalState":{"key":"09","name":"Bayern"}},{"name":"Wanderweg blauer Pfeil","postalCode":"97654","locality":"Bastheim","municipality":{"key":"09673116","name":"Bastheim","type":"Kreisangehörige_Gemeinde"},"district":{"key":"09673","name":"Rhön-Grabfeld","type":"Landkreis"},"federalState":{"key":"09","name":"Bayern"}},{"name":"Wiesenweg","postalCode":"97654","locality":"Bastheim","municipality":{"key":"09673116","name":"Bastheim","type":"Kreisangehörige_Gemeinde"},"district":{"key":"09673","name":"Rhön-Grabfeld","type":"Landkreis"},"federalState":{"key":"09","name":"Bayern"}},{"name":"Wollbacher Str.","postalCode":"97654","locality":"Bastheim","municipality":{"key":"09673116","name":"Bastheim","type":"Kreisangehörige_Gemeinde"},"district":{"key":"09673","name":"Rhön-Grabfeld","type":"Landkreis"},"federalState":{"key":"09","name":"Bayern"}},]