[{"name":"Albblick","postalCode":"88448","locality":"Attenweiler","municipality":{"key":"08426011","name":"Attenweiler","type":"Kreisangehörige_Gemeinde"},"district":{"key":"08426","name":"Biberach","type":"Landkreis"},"federalState":{"key":"08","name":"Baden-Württemberg"}},{"name":"Am Kirchberg","postalCode":"88448","locality":"Attenweiler","municipality":{"key":"08426011","name":"Attenweiler","type":"Kreisangehörige_Gemeinde"},"district":{"key":"08426","name":"Biberach","type":"Landkreis"},"federalState":{"key":"08","name":"Baden-Württemberg"}},{"name":"Am Lindenweg","postalCode":"88448","locality":"Attenweiler","municipality":{"key":"08426011","name":"Attenweiler","type":"Kreisangehörige_Gemeinde"},"district":{"key":"08426","name":"Biberach","type":"Landkreis"},"federalState":{"key":"08","name":"Baden-Württemberg"}},{"name":"Am Römerweg","postalCode":"88448","locality":"Attenweiler","municipality":{"key":"08426011","name":"Attenweiler","type":"Kreisangehörige_Gemeinde"},"district":{"key":"08426","name":"Biberach","type":"Landkreis"},"federalState":{"key":"08","name":"Baden-Württemberg"}},{"name":"Am Weiher","postalCode":"88448","locality":"Attenweiler","municipality":{"key":"08426011","name":"Attenweiler","type":"Kreisangehörige_Gemeinde"},"district":{"key":"08426","name":"Biberach","type":"Landkreis"},"federalState":{"key":"08","name":"Baden-Württemberg"}},{"name":"Aßmannshardter Str.","postalCode":"88448","locality":"Attenweiler","municipality":{"key":"08426011","name":"Attenweiler","type":"Kreisangehörige_Gemeinde"},"district":{"key":"08426","name":"Biberach","type":"Landkreis"},"federalState":{"key":"08","name":"Baden-Württemberg"}},{"name":"Attenweiler Str.","postalCode":"88448","locality":"Attenweiler","municipality":{"key":"08426011","name":"Attenweiler","type":"Kreisangehörige_Gemeinde"},"district":{"key":"08426","name":"Biberach","type":"Landkreis"},"federalState":{"key":"08","name":"Baden-Württemberg"}},{"name":"Bachstr.","postalCode":"88448","locality":"Attenweiler","municipality":{"key":"08426011","name":"Attenweiler","type":"Kreisangehörige_Gemeinde"},"district":{"key":"08426","name":"Biberach","type":"Landkreis"},"federalState":{"key":"08","name":"Baden-Württemberg"}},{"name":"Bahnhofstr.","postalCode":"88448","locality":"Attenweiler","municipality":{"key":"08426011","name":"Attenweiler","type":"Kreisangehörige_Gemeinde"},"district":{"key":"08426","name":"Biberach","type":"Landkreis"},"federalState":{"key":"08","name":"Baden-Württemberg"}},{"name":"Baustatt","postalCode":"88448","locality":"Attenweiler","municipality":{"key":"08426011","name":"Attenweiler","type":"Kreisangehörige_Gemeinde"},"district":{"key":"08426","name":"Biberach","type":"Landkreis"},"federalState":{"key":"08","name":"Baden-Württemberg"}},{"name":"Biberacher Str.","postalCode":"88448","locality":"Attenweiler","municipality":{"key":"08426011","name":"Attenweiler","type":"Kreisangehörige_Gemeinde"},"district":{"key":"08426","name":"Biberach","type":"Landkreis"},"federalState":{"key":"08","name":"Baden-Württemberg"}},{"name":"Bierkellerweg","postalCode":"88448","locality":"Attenweiler","municipality":{"key":"08426011","name":"Attenweiler","type":"Kreisangehörige_Gemeinde"},"district":{"key":"08426","name":"Biberach","type":"Landkreis"},"federalState":{"key":"08","name":"Baden-Württemberg"}},{"name":"Birkenweg","postalCode":"88448","locality":"Attenweiler","municipality":{"key":"08426011","name":"Attenweiler","type":"Kreisangehörige_Gemeinde"},"district":{"key":"08426","name":"Biberach","type":"Landkreis"},"federalState":{"key":"08","name":"Baden-Württemberg"}},{"name":"Brunnenstr.","postalCode":"88448","locality":"Attenweiler","municipality":{"key":"08426011","name":"Attenweiler","type":"Kreisangehörige_Gemeinde"},"district":{"key":"08426","name":"Biberach","type":"Landkreis"},"federalState":{"key":"08","name":"Baden-Württemberg"}},{"name":"Buchauer Str.","postalCode":"88448","locality":"Attenweiler","municipality":{"key":"08426011","name":"Attenweiler","type":"Kreisangehörige_Gemeinde"},"district":{"key":"08426","name":"Biberach","type":"Landkreis"},"federalState":{"key":"08","name":"Baden-Württemberg"}},{"name":"Bussenblick","postalCode":"88448","locality":"Attenweiler","municipality":{"key":"08426011","name":"Attenweiler","type":"Kreisangehörige_Gemeinde"},"district":{"key":"08426","name":"Biberach","type":"Landkreis"},"federalState":{"key":"08","name":"Baden-Württemberg"}},{"name":"Christian-Koehler-Weg","postalCode":"88400","locality":"Biberach an der Riß","municipality":{"key":"08426021","name":"Biberach an der Riß, Stadt","type":"Große_Kreisstadt"},"district":{"key":"08426","name":"Biberach","type":"Landkreis"},"federalState":{"key":"08","name":"Baden-Württemberg"}},{"name":"Christian-Xeller-Weg","postalCode":"88400","locality":"Biberach an der Riß","municipality":{"key":"08426021","name":"Biberach an der Riß, Stadt","type":"Große_Kreisstadt"},"district":{"key":"08426","name":"Biberach","type":"Landkreis"},"federalState":{"key":"08","name":"Baden-Württemberg"}},{"name":"Clara-Schumann-Str.","postalCode":"88400","locality":"Biberach an der Riß","municipality":{"key":"08426021","name":"Biberach an der Riß, Stadt","type":"Große_Kreisstadt"},"district":{"key":"08426","name":"Biberach","type":"Landkreis"},"federalState":{"key":"08","name":"Baden-Württemberg"}},{"name":"Consulentengasse","postalCode":"88400","locality":"Biberach an der Riß","municipality":{"key":"08426021","name":"Biberach an der Riß, Stadt","type":"Große_Kreisstadt"},"district":{"key":"08426","name":"Biberach","type":"Landkreis"},"federalState":{"key":"08","name":"Baden-Württemberg"}},{"name":"Dorfmitte","postalCode":"88448","locality":"Attenweiler","municipality":{"key":"08426011","name":"Attenweiler","type":"Kreisangehörige_Gemeinde"},"district":{"key":"08426","name":"Biberach","type":"Landkreis"},"federalState":{"key":"08","name":"Baden-Württemberg"}},{"name":"Ellighofer Str.","postalCode":"88448","locality":"Attenweiler","municipality":{"key":"08426011","name":"Attenweiler","type":"Kreisangehörige_Gemeinde"},"district":{"key":"08426","name":"Biberach","type":"Landkreis"},"federalState":{"key":"08","name":"Baden-Württemberg"}},{"name":"Friedhofstr.","postalCode":"88448","locality":"Attenweiler","municipality":{"key":"08426011","name":"Attenweiler","type":"Kreisangehörige_Gemeinde"},"district":{"key":"08426","name":"Biberach","type":"Landkreis"},"federalState":{"key":"08","name":"Baden-Württemberg"}},{"name":"Gartenweg","postalCode":"88448","locality":"Attenweiler","municipality":{"key":"08426011","name":"Attenweiler","type":"Kreisangehörige_Gemeinde"},"district":{"key":"08426","name":"Biberach","type":"Landkreis"},"federalState":{"key":"08","name":"Baden-Württemberg"}},{"name":"Grundsheimer Str.","postalCode":"88448","locality":"Attenweiler","municipality":{"key":"08426011","name":"Attenweiler","type":"Kreisangehörige_Gemeinde"},"district":{"key":"08426","name":"Biberach","type":"Landkreis"},"federalState":{"key":"08","name":"Baden-Württemberg"}},{"name":"Gutershofer Weg","postalCode":"88448","locality":"Attenweiler","municipality":{"key":"08426011","name":"Attenweiler","type":"Kreisangehörige_Gemeinde"},"district":{"key":"08426","name":"Biberach","type":"Landkreis"},"federalState":{"key":"08","name":"Baden-Württemberg"}},{"name":"Häldele","postalCode":"88448","locality":"Attenweiler","municipality":{"key":"08426011","name":"Attenweiler","type":"Kreisangehörige_Gemeinde"},"district":{"key":"08426","name":"Biberach","type":"Landkreis"},"federalState":{"key":"08","name":"Baden-Württemberg"}},{"name":"Hartäckerweg","postalCode":"88448","locality":"Attenweiler","municipality":{"key":"08426011","name":"Attenweiler","type":"Kreisangehörige_Gemeinde"},"district":{"key":"08426","name":"Biberach","type":"Landkreis"},"federalState":{"key":"08","name":"Baden-Württemberg"}},{"name":"Hartwiesen","postalCode":"88448","locality":"Attenweiler","municipality":{"key":"08426011","name":"Attenweiler","type":"Kreisangehörige_Gemeinde"},"district":{"key":"08426","name":"Biberach","type":"Landkreis"},"federalState":{"key":"08","name":"Baden-Württemberg"}},{"name":"Hauptstr.","postalCode":"88448","locality":"Attenweiler","municipality":{"key":"08426011","name":"Attenweiler","type":"Kreisangehörige_Gemeinde"},"district":{"key":"08426","name":"Biberach","type":"Landkreis"},"federalState":{"key":"08","name":"Baden-Württemberg"}},{"name":"Himmelreich","postalCode":"88448","locality":"Attenweiler","municipality":{"key":"08426011","name":"Attenweiler","type":"Kreisangehörige_Gemeinde"},"district":{"key":"08426","name":"Biberach","type":"Landkreis"},"federalState":{"key":"08","name":"Baden-Württemberg"}},{"name":"Hinter der Grube","postalCode":"88448","locality":"Attenweiler","municipality":{"key":"08426011","name":"Attenweiler","type":"Kreisangehörige_Gemeinde"},"district":{"key":"08426","name":"Biberach","type":"Landkreis"},"federalState":{"key":"08","name":"Baden-Württemberg"}},{"name":"Hofäckerweg","postalCode":"88448","locality":"Attenweiler","municipality":{"key":"08426011","name":"Attenweiler","type":"Kreisangehörige_Gemeinde"},"district":{"key":"08426","name":"Biberach","type":"Landkreis"},"federalState":{"key":"08","name":"Baden-Württemberg"}},{"name":"Hummelberg","postalCode":"88448","locality":"Attenweiler","municipality":{"key":"08426011","name":"Attenweiler","type":"Kreisangehörige_Gemeinde"},"district":{"key":"08426","name":"Biberach","type":"Landkreis"},"federalState":{"key":"08","name":"Baden-Württemberg"}},{"name":"Im Ort","postalCode":"88448","locality":"Attenweiler","municipality":{"key":"08426011","name":"Attenweiler","type":"Kreisangehörige_Gemeinde"},"district":{"key":"08426","name":"Biberach","type":"Landkreis"},"federalState":{"key":"08","name":"Baden-Württemberg"}},{"name":"Im Reisle","postalCode":"88448","locality":"Attenweiler","municipality":{"key":"08426011","name":"Attenweiler","type":"Kreisangehörige_Gemeinde"},"district":{"key":"08426","name":"Biberach","type":"Landkreis"},"federalState":{"key":"08","name":"Baden-Württemberg"}},{"name":"Jägerpfad","postalCode":"77781","locality":"Biberach","municipality":{"key":"08317011","name":"Biberach","type":"Kreisangehörige_Gemeinde"},"district":{"key":"08317","name":"Ortenaukreis","type":"Landkreis"},"federalState":{"key":"08","name":"Baden-Württemberg"}},{"name":"Jahnstr.","postalCode":"88400","locality":"Biberach an der Riß","municipality":{"key":"08426021","name":"Biberach an der Riß, Stadt","type":"Große_Kreisstadt"},"district":{"key":"08426","name":"Biberach","type":"Landkreis"},"federalState":{"key":"08","name":"Baden-Württemberg"}},{"name":"Jakob-Bräckle-Str.","postalCode":"88400","locality":"Biberach an der Riß","municipality":{"key":"08426021","name":"Biberach an der Riß, Stadt","type":"Große_Kreisstadt"},"district":{"key":"08426","name":"Biberach","type":"Landkreis"},"federalState":{"key":"08","name":"Baden-Württemberg"}},{"name":"Jakob-Emele-Weg","postalCode":"88400","locality":"Biberach an der Riß","municipality":{"key":"08426021","name":"Biberach an der Riß, Stadt","type":"Große_Kreisstadt"},"district":{"key":"08426","name":"Biberach","type":"Landkreis"},"federalState":{"key":"08","name":"Baden-Württemberg"}},{"name":"Jarekstr.","postalCode":"88400","locality":"Biberach an der Riß","municipality":{"key":"08426021","name":"Biberach an der Riß, Stadt","type":"Große_Kreisstadt"},"district":{"key":"08426","name":"Biberach","type":"Landkreis"},"federalState":{"key":"08","name":"Baden-Württemberg"}},{"name":"Jerseyweg","postalCode":"88400","locality":"Biberach an der Riß","municipality":{"key":"08426021","name":"Biberach an der Riß, Stadt","type":"Große_Kreisstadt"},"district":{"key":"08426","name":"Biberach","type":"Landkreis"},"federalState":{"key":"08","name":"Baden-Württemberg"}},{"name":"Johann-Sebastian-Bach-Str.","postalCode":"88400","locality":"Biberach an der Riß","municipality":{"key":"08426021","name":"Biberach an der Riß, Stadt","type":"Große_Kreisstadt"},"district":{"key":"08426","name":"Biberach","type":"Landkreis"},"federalState":{"key":"08","name":"Baden-Württemberg"}},{"name":"Jordanbergweg","postalCode":"88400","locality":"Biberach an der Riß","municipality":{"key":"08426021","name":"Biberach an der Riß, Stadt","type":"Große_Kreisstadt"},"district":{"key":"08426","name":"Biberach","type":"Landkreis"},"federalState":{"key":"08","name":"Baden-Württemberg"}},{"name":"Jordanei","postalCode":"88400","locality":"Biberach an der Riß","municipality":{"key":"08426021","name":"Biberach an der Riß, Stadt","type":"Große_Kreisstadt"},"district":{"key":"08426","name":"Biberach","type":"Landkreis"},"federalState":{"key":"08","name":"Baden-Württemberg"}},{"name":"Josef-Angele-Str.","postalCode":"88400","locality":"Biberach an der Riß","municipality":{"key":"08426021","name":"Biberach an der Riß, Stadt","type":"Große_Kreisstadt"},"district":{"key":"08426","name":"Biberach","type":"Landkreis"},"federalState":{"key":"08","name":"Baden-Württemberg"}},{"name":"Josef-Bühler-Weg","postalCode":"77781","locality":"Biberach","municipality":{"key":"08317011","name":"Biberach","type":"Kreisangehörige_Gemeinde"},"district":{"key":"08317","name":"Ortenaukreis","type":"Landkreis"},"federalState":{"key":"08","name":"Baden-Württemberg"}},{"name":"Josef-Probst-Weg","postalCode":"88400","locality":"Biberach an der Riß","municipality":{"key":"08426021","name":"Biberach an der Riß, Stadt","type":"Große_Kreisstadt"},"district":{"key":"08426","name":"Biberach","type":"Landkreis"},"federalState":{"key":"08","name":"Baden-Württemberg"}},{"name":"Josef-Schenk-Weg","postalCode":"88400","locality":"Biberach an der Riß","municipality":{"key":"08426021","name":"Biberach an der Riß, Stadt","type":"Große_Kreisstadt"},"district":{"key":"08426","name":"Biberach","type":"Landkreis"},"federalState":{"key":"08","name":"Baden-Württemberg"}},{"name":"Jungholzweg","postalCode":"88400","locality":"Biberach an der Riß","municipality":{"key":"08426021","name":"Biberach an der Riß, Stadt","type":"Große_Kreisstadt"},"district":{"key":"08426","name":"Biberach","type":"Landkreis"},"federalState":{"key":"08","name":"Baden-Württemberg"}},{"name":"Juraweg","postalCode":"88400","locality":"Biberach an der Riß","municipality":{"key":"08426021","name":"Biberach an der Riß, Stadt","type":"Große_Kreisstadt"},"district":{"key":"08426","name":"Biberach","type":"Landkreis"},"federalState":{"key":"08","name":"Baden-Württemberg"}},{"name":"Justinus-Heinrich-Knecht-Str.","postalCode":"88400","locality":"Biberach an der Riß","municipality":{"key":"08426021","name":"Biberach an der Riß, Stadt","type":"Große_Kreisstadt"},"district":{"key":"08426","name":"Biberach","type":"Landkreis"},"federalState":{"key":"08","name":"Baden-Württemberg"}},{"name":"Kapellenweg","postalCode":"88448","locality":"Attenweiler","municipality":{"key":"08426011","name":"Attenweiler","type":"Kreisangehörige_Gemeinde"},"district":{"key":"08426","name":"Biberach","type":"Landkreis"},"federalState":{"key":"08","name":"Baden-Württemberg"}},{"name":"Kastanienweg","postalCode":"88448","locality":"Attenweiler","municipality":{"key":"08426011","name":"Attenweiler","type":"Kreisangehörige_Gemeinde"},"district":{"key":"08426","name":"Biberach","type":"Landkreis"},"federalState":{"key":"08","name":"Baden-Württemberg"}},{"name":"Kellerberg","postalCode":"88448","locality":"Attenweiler","municipality":{"key":"08426011","name":"Attenweiler","type":"Kreisangehörige_Gemeinde"},"district":{"key":"08426","name":"Biberach","type":"Landkreis"},"federalState":{"key":"08","name":"Baden-Württemberg"}},{"name":"Kirchstr.","postalCode":"88448","locality":"Attenweiler","municipality":{"key":"08426011","name":"Attenweiler","type":"Kreisangehörige_Gemeinde"},"district":{"key":"08426","name":"Biberach","type":"Landkreis"},"federalState":{"key":"08","name":"Baden-Württemberg"}},{"name":"Kronenstr.","postalCode":"88448","locality":"Attenweiler","municipality":{"key":"08426011","name":"Attenweiler","type":"Kreisangehörige_Gemeinde"},"district":{"key":"08426","name":"Biberach","type":"Landkreis"},"federalState":{"key":"08","name":"Baden-Württemberg"}},{"name":"Krumpfhalde","postalCode":"88448","locality":"Attenweiler","municipality":{"key":"08426011","name":"Attenweiler","type":"Kreisangehörige_Gemeinde"},"district":{"key":"08426","name":"Biberach","type":"Landkreis"},"federalState":{"key":"08","name":"Baden-Württemberg"}},{"name":"Lamparterweg","postalCode":"88400","locality":"Biberach an der Riß","municipality":{"key":"08426021","name":"Biberach an der Riß, Stadt","type":"Große_Kreisstadt"},"district":{"key":"08426","name":"Biberach","type":"Landkreis"},"federalState":{"key":"08","name":"Baden-Württemberg"}},{"name":"Lange Wiesen","postalCode":"88400","locality":"Biberach an der Riß","municipality":{"key":"08426021","name":"Biberach an der Riß, Stadt","type":"Große_Kreisstadt"},"district":{"key":"08426","name":"Biberach","type":"Landkreis"},"federalState":{"key":"08","name":"Baden-Württemberg"}},{"name":"Lärchenstr.","postalCode":"77781","locality":"Biberach","municipality":{"key":"08317011","name":"Biberach","type":"Kreisangehörige_Gemeinde"},"district":{"key":"08317","name":"Ortenaukreis","type":"Landkreis"},"federalState":{"key":"08","name":"Baden-Württemberg"}},{"name":"Laubenweg","postalCode":"77781","locality":"Biberach","municipality":{"key":"08317011","name":"Biberach","type":"Kreisangehörige_Gemeinde"},"district":{"key":"08317","name":"Ortenaukreis","type":"Landkreis"},"federalState":{"key":"08","name":"Baden-Württemberg"}},{"name":"Laupertshauser Str.","postalCode":"88400","locality":"Biberach an der Riß","municipality":{"key":"08426021","name":"Biberach an der Riß, Stadt","type":"Große_Kreisstadt"},"district":{"key":"08426","name":"Biberach","type":"Landkreis"},"federalState":{"key":"08","name":"Baden-Württemberg"}},{"name":"Laurenbühlstr.","postalCode":"88441","locality":"Mittelbiberach","municipality":{"key":"08426074","name":"Mittelbiberach","type":"Kreisangehörige_Gemeinde"},"district":{"key":"08426","name":"Biberach","type":"Landkreis"},"federalState":{"key":"08","name":"Baden-Württemberg"}},{"name":"Laurenbühlweg","postalCode":"88400","locality":"Biberach an der Riß","municipality":{"key":"08426021","name":"Biberach an der Riß, Stadt","type":"Große_Kreisstadt"},"district":{"key":"08426","name":"Biberach","type":"Landkreis"},"federalState":{"key":"08","name":"Baden-Württemberg"}},{"name":"Legerweg","postalCode":"77781","locality":"Biberach","municipality":{"key":"08317011","name":"Biberach","type":"Kreisangehörige_Gemeinde"},"district":{"key":"08317","name":"Ortenaukreis","type":"Landkreis"},"federalState":{"key":"08","name":"Baden-Württemberg"}},{"name":"Leimelerstr.","postalCode":"88400","locality":"Biberach an der Riß","municipality":{"key":"08426021","name":"Biberach an der Riß, Stadt","type":"Große_Kreisstadt"},"district":{"key":"08426","name":"Biberach","type":"Landkreis"},"federalState":{"key":"08","name":"Baden-Württemberg"}},{"name":"Leimenäcker","postalCode":"77781","locality":"Biberach","municipality":{"key":"08317011","name":"Biberach","type":"Kreisangehörige_Gemeinde"},"district":{"key":"08317","name":"Ortenaukreis","type":"Landkreis"},"federalState":{"key":"08","name":"Baden-Württemberg"}},{"name":"Leipzigstr.","postalCode":"88400","locality":"Biberach an der Riß","municipality":{"key":"08426021","name":"Biberach an der Riß, Stadt","type":"Große_Kreisstadt"},"district":{"key":"08426","name":"Biberach","type":"Landkreis"},"federalState":{"key":"08","name":"Baden-Württemberg"}},{"name":"Lerchenweg","postalCode":"88400","locality":"Biberach an der Riß","municipality":{"key":"08426021","name":"Biberach an der Riß, Stadt","type":"Große_Kreisstadt"},"district":{"key":"08426","name":"Biberach","type":"Landkreis"},"federalState":{"key":"08","name":"Baden-Württemberg"}},{"name":"Lilienstr.","postalCode":"88441","locality":"Mittelbiberach","municipality":{"key":"08426074","name":"Mittelbiberach","type":"Kreisangehörige_Gemeinde"},"district":{"key":"08426","name":"Biberach","type":"Landkreis"},"federalState":{"key":"08","name":"Baden-Württemberg"}},{"name":"Lindele","postalCode":"88400","locality":"Biberach an der Riß","municipality":{"key":"08426021","name":"Biberach an der Riß, Stadt","type":"Große_Kreisstadt"},"district":{"key":"08426","name":"Biberach","type":"Landkreis"},"federalState":{"key":"08","name":"Baden-Württemberg"}},{"name":"Lindelestr.","postalCode":"88400","locality":"Biberach an der Riß","municipality":{"key":"08426021","name":"Biberach an der Riß, Stadt","type":"Große_Kreisstadt"},"district":{"key":"08426","name":"Biberach","type":"Landkreis"},"federalState":{"key":"08","name":"Baden-Württemberg"}},{"name":"Lindenstr.","postalCode":"77781","locality":"Biberach","municipality":{"key":"08317011","name":"Biberach","type":"Kreisangehörige_Gemeinde"},"district":{"key":"08317","name":"Ortenaukreis","type":"Landkreis"},"federalState":{"key":"08","name":"Baden-Württemberg"}},{"name":"Lindenstr.","postalCode":"88441","locality":"Mittelbiberach","municipality":{"key":"08426074","name":"Mittelbiberach","type":"Kreisangehörige_Gemeinde"},"district":{"key":"08426","name":"Biberach","type":"Landkreis"},"federalState":{"key":"08","name":"Baden-Württemberg"}},{"name":"Löcherstr.","postalCode":"88400","locality":"Biberach an der Riß","municipality":{"key":"08426021","name":"Biberach an der Riß, Stadt","type":"Große_Kreisstadt"},"district":{"key":"08426","name":"Biberach","type":"Landkreis"},"federalState":{"key":"08","name":"Baden-Württemberg"}},{"name":"Lukas-Seidler-Weg","postalCode":"88400","locality":"Biberach an der Riß","municipality":{"key":"08426021","name":"Biberach an der Riß, Stadt","type":"Große_Kreisstadt"},"district":{"key":"08426","name":"Biberach","type":"Landkreis"},"federalState":{"key":"08","name":"Baden-Württemberg"}},{"name":"Lupinstr.","postalCode":"88400","locality":"Biberach an der Riß","municipality":{"key":"08426021","name":"Biberach an der Riß, Stadt","type":"Große_Kreisstadt"},"district":{"key":"08426","name":"Biberach","type":"Landkreis"},"federalState":{"key":"08","name":"Baden-Württemberg"}},{"name":"Meisenweg","postalCode":"88448","locality":"Attenweiler","municipality":{"key":"08426011","name":"Attenweiler","type":"Kreisangehörige_Gemeinde"},"district":{"key":"08426","name":"Biberach","type":"Landkreis"},"federalState":{"key":"08","name":"Baden-Württemberg"}},{"name":"Mühlweg","postalCode":"88448","locality":"Attenweiler","municipality":{"key":"08426011","name":"Attenweiler","type":"Kreisangehörige_Gemeinde"},"district":{"key":"08426","name":"Biberach","type":"Landkreis"},"federalState":{"key":"08","name":"Baden-Württemberg"}},{"name":"Neherstr.","postalCode":"88400","locality":"Biberach an der Riß","municipality":{"key":"08426021","name":"Biberach an der Riß, Stadt","type":"Große_Kreisstadt"},"district":{"key":"08426","name":"Biberach","type":"Landkreis"},"federalState":{"key":"08","name":"Baden-Württemberg"}},{"name":"Nelkenweg","postalCode":"88441","locality":"Mittelbiberach","municipality":{"key":"08426074","name":"Mittelbiberach","type":"Kreisangehörige_Gemeinde"},"district":{"key":"08426","name":"Biberach","type":"Landkreis"},"federalState":{"key":"08","name":"Baden-Württemberg"}},{"name":"Neue Gasse","postalCode":"88400","locality":"Biberach an der Riß","municipality":{"key":"08426021","name":"Biberach an der Riß, Stadt","type":"Große_Kreisstadt"},"district":{"key":"08426","name":"Biberach","type":"Landkreis"},"federalState":{"key":"08","name":"Baden-Württemberg"}},{"name":"Neue Heimat","postalCode":"88400","locality":"Biberach an der Riß","municipality":{"key":"08426021","name":"Biberach an der Riß, Stadt","type":"Große_Kreisstadt"},"district":{"key":"08426","name":"Biberach","type":"Landkreis"},"federalState":{"key":"08","name":"Baden-Württemberg"}},{"name":"Neusatzweg","postalCode":"88400","locality":"Biberach an der Riß","municipality":{"key":"08426021","name":"Biberach an der Riß, Stadt","type":"Große_Kreisstadt"},"district":{"key":"08426","name":"Biberach","type":"Landkreis"},"federalState":{"key":"08","name":"Baden-Württemberg"}},{"name":"Nickeleshalde","postalCode":"88400","locality":"Biberach an der Riß","municipality":{"key":"08426021","name":"Biberach an der Riß, Stadt","type":"Große_Kreisstadt"},"district":{"key":"08426","name":"Biberach","type":"Landkreis"},"federalState":{"key":"08","name":"Baden-Württemberg"}},{"name":"Oberes Eschle","postalCode":"88448","locality":"Attenweiler","municipality":{"key":"08426011","name":"Attenweiler","type":"Kreisangehörige_Gemeinde"},"district":{"key":"08426","name":"Biberach","type":"Landkreis"},"federalState":{"key":"08","name":"Baden-Württemberg"}},{"name":"Oggelsbeurer Str.","postalCode":"88448","locality":"Attenweiler","municipality":{"key":"08426011","name":"Attenweiler","type":"Kreisangehörige_Gemeinde"},"district":{"key":"08426","name":"Biberach","type":"Landkreis"},"federalState":{"key":"08","name":"Baden-Württemberg"}},{"name":"Panoramastr.","postalCode":"88448","locality":"Attenweiler","municipality":{"key":"08426011","name":"Attenweiler","type":"Kreisangehörige_Gemeinde"},"district":{"key":"08426","name":"Biberach","type":"Landkreis"},"federalState":{"key":"08","name":"Baden-Württemberg"}},{"name":"Ringstr.","postalCode":"88448","locality":"Attenweiler","municipality":{"key":"08426011","name":"Attenweiler","type":"Kreisangehörige_Gemeinde"},"district":{"key":"08426","name":"Biberach","type":"Landkreis"},"federalState":{"key":"08","name":"Baden-Württemberg"}},{"name":"Rupertshofer Str.","postalCode":"88448","locality":"Attenweiler","municipality":{"key":"08426011","name":"Attenweiler","type":"Kreisangehörige_Gemeinde"},"district":{"key":"08426","name":"Biberach","type":"Landkreis"},"federalState":{"key":"08","name":"Baden-Württemberg"}},{"name":"Sauggarter Str.","postalCode":"88448","locality":"Attenweiler","municipality":{"key":"08426011","name":"Attenweiler","type":"Kreisangehörige_Gemeinde"},"district":{"key":"08426","name":"Biberach","type":"Landkreis"},"federalState":{"key":"08","name":"Baden-Württemberg"}},{"name":"Schachenstr.","postalCode":"88448","locality":"Attenweiler","municipality":{"key":"08426011","name":"Attenweiler","type":"Kreisangehörige_Gemeinde"},"district":{"key":"08426","name":"Biberach","type":"Landkreis"},"federalState":{"key":"08","name":"Baden-Württemberg"}},{"name":"Schammacher Weg","postalCode":"88448","locality":"Attenweiler","municipality":{"key":"08426011","name":"Attenweiler","type":"Kreisangehörige_Gemeinde"},"district":{"key":"08426","name":"Biberach","type":"Landkreis"},"federalState":{"key":"08","name":"Baden-Württemberg"}},{"name":"Schelmenweg","postalCode":"88448","locality":"Attenweiler","municipality":{"key":"08426011","name":"Attenweiler","type":"Kreisangehörige_Gemeinde"},"district":{"key":"08426","name":"Biberach","type":"Landkreis"},"federalState":{"key":"08","name":"Baden-Württemberg"}},{"name":"Schleifweg","postalCode":"88448","locality":"Attenweiler","municipality":{"key":"08426011","name":"Attenweiler","type":"Kreisangehörige_Gemeinde"},"district":{"key":"08426","name":"Biberach","type":"Landkreis"},"federalState":{"key":"08","name":"Baden-Württemberg"}},{"name":"Schmiedgasse","postalCode":"88448","locality":"Attenweiler","municipality":{"key":"08426011","name":"Attenweiler","type":"Kreisangehörige_Gemeinde"},"district":{"key":"08426","name":"Biberach","type":"Landkreis"},"federalState":{"key":"08","name":"Baden-Württemberg"}},{"name":"Schönblick","postalCode":"88448","locality":"Attenweiler","municipality":{"key":"08426011","name":"Attenweiler","type":"Kreisangehörige_Gemeinde"},"district":{"key":"08426","name":"Biberach","type":"Landkreis"},"federalState":{"key":"08","name":"Baden-Württemberg"}},{"name":"Schulweg","postalCode":"88448","locality":"Attenweiler","municipality":{"key":"08426011","name":"Attenweiler","type":"Kreisangehörige_Gemeinde"},"district":{"key":"08426","name":"Biberach","type":"Landkreis"},"federalState":{"key":"08","name":"Baden-Württemberg"}},{"name":"Spechtweg","postalCode":"88448","locality":"Attenweiler","municipality":{"key":"08426011","name":"Attenweiler","type":"Kreisangehörige_Gemeinde"},"district":{"key":"08426","name":"Biberach","type":"Landkreis"},"federalState":{"key":"08","name":"Baden-Württemberg"}},{"name":"Sperlingsweg","postalCode":"88448","locality":"Attenweiler","municipality":{"key":"08426011","name":"Attenweiler","type":"Kreisangehörige_Gemeinde"},"district":{"key":"08426","name":"Biberach","type":"Landkreis"},"federalState":{"key":"08","name":"Baden-Württemberg"}},{"name":"Stadioner Str.","postalCode":"88448","locality":"Attenweiler","municipality":{"key":"08426011","name":"Attenweiler","type":"Kreisangehörige_Gemeinde"},"district":{"key":"08426","name":"Biberach","type":"Landkreis"},"federalState":{"key":"08","name":"Baden-Württemberg"}},{"name":"Starenweg","postalCode":"88448","locality":"Attenweiler","municipality":{"key":"08426011","name":"Attenweiler","type":"Kreisangehörige_Gemeinde"},"district":{"key":"08426","name":"Biberach","type":"Landkreis"},"federalState":{"key":"08","name":"Baden-Württemberg"}},{"name":"Tannenrain","postalCode":"88448","locality":"Attenweiler","municipality":{"key":"08426011","name":"Attenweiler","type":"Kreisangehörige_Gemeinde"},"district":{"key":"08426","name":"Biberach","type":"Landkreis"},"federalState":{"key":"08","name":"Baden-Württemberg"}},{"name":"Unteres Eschle","postalCode":"88448","locality":"Attenweiler","municipality":{"key":"08426011","name":"Attenweiler","type":"Kreisangehörige_Gemeinde"},"district":{"key":"08426","name":"Biberach","type":"Landkreis"},"federalState":{"key":"08","name":"Baden-Württemberg"}},{"name":"Valenceallee","postalCode":"88400","locality":"Biberach an der Riß","municipality":{"key":"08426021","name":"Biberach an der Riß, Stadt","type":"Große_Kreisstadt"},"district":{"key":"08426","name":"Biberach","type":"Landkreis"},"federalState":{"key":"08","name":"Baden-Württemberg"}},{"name":"Viehmarktplatz","postalCode":"88400","locality":"Biberach an der Riß","municipality":{"key":"08426021","name":"Biberach an der Riß, Stadt","type":"Große_Kreisstadt"},"district":{"key":"08426","name":"Biberach","type":"Landkreis"},"federalState":{"key":"08","name":"Baden-Württemberg"}},{"name":"Viehmarktstr.","postalCode":"88400","locality":"Biberach an der Riß","municipality":{"key":"08426021","name":"Biberach an der Riß, Stadt","type":"Große_Kreisstadt"},"district":{"key":"08426","name":"Biberach","type":"Landkreis"},"federalState":{"key":"08","name":"Baden-Württemberg"}},{"name":"Vogesenstr.","postalCode":"77781","locality":"Biberach","municipality":{"key":"08317011","name":"Biberach","type":"Kreisangehörige_Gemeinde"},"district":{"key":"08317","name":"Ortenaukreis","type":"Landkreis"},"federalState":{"key":"08","name":"Baden-Württemberg"}},{"name":"Vogteistr.","postalCode":"88441","locality":"Mittelbiberach","municipality":{"key":"08426074","name":"Mittelbiberach","type":"Kreisangehörige_Gemeinde"},"district":{"key":"08426","name":"Biberach","type":"Landkreis"},"federalState":{"key":"08","name":"Baden-Württemberg"}},{"name":"Vollmerstr.","postalCode":"88400","locality":"Biberach an der Riß","municipality":{"key":"08426021","name":"Biberach an der Riß, Stadt","type":"Große_Kreisstadt"},"district":{"key":"08426","name":"Biberach","type":"Landkreis"},"federalState":{"key":"08","name":"Baden-Württemberg"}},{"name":"Volmarweg","postalCode":"88400","locality":"Biberach an der Riß","municipality":{"key":"08426021","name":"Biberach an der Riß, Stadt","type":"Große_Kreisstadt"},"district":{"key":"08426","name":"Biberach","type":"Landkreis"},"federalState":{"key":"08","name":"Baden-Württemberg"}},{"name":"Vonierweg","postalCode":"88400","locality":"Biberach an der Riß","municipality":{"key":"08426021","name":"Biberach an der Riß, Stadt","type":"Große_Kreisstadt"},"district":{"key":"08426","name":"Biberach","type":"Landkreis"},"federalState":{"key":"08","name":"Baden-Württemberg"}},{"name":"Vorarlberger Str.","postalCode":"88400","locality":"Biberach an der Riß","municipality":{"key":"08426021","name":"Biberach an der Riß, Stadt","type":"Große_Kreisstadt"},"district":{"key":"08426","name":"Biberach","type":"Landkreis"},"federalState":{"key":"08","name":"Baden-Württemberg"}},{"name":"Vordere Au","postalCode":"88400","locality":"Biberach an der Riß","municipality":{"key":"08426021","name":"Biberach an der Riß, Stadt","type":"Große_Kreisstadt"},"district":{"key":"08426","name":"Biberach","type":"Landkreis"},"federalState":{"key":"08","name":"Baden-Württemberg"}},{"name":"Webergasse","postalCode":"88448","locality":"Attenweiler","municipality":{"key":"08426011","name":"Attenweiler","type":"Kreisangehörige_Gemeinde"},"district":{"key":"08426","name":"Biberach","type":"Landkreis"},"federalState":{"key":"08","name":"Baden-Württemberg"}},{"name":"Weiherstr.","postalCode":"88448","locality":"Attenweiler","municipality":{"key":"08426011","name":"Attenweiler","type":"Kreisangehörige_Gemeinde"},"district":{"key":"08426","name":"Biberach","type":"Landkreis"},"federalState":{"key":"08","name":"Baden-Württemberg"}},{"name":"Wiesentalweg","postalCode":"88448","locality":"Attenweiler","municipality":{"key":"08426011","name":"Attenweiler","type":"Kreisangehörige_Gemeinde"},"district":{"key":"08426","name":"Biberach","type":"Landkreis"},"federalState":{"key":"08","name":"Baden-Württemberg"}},{"name":"Ziegeläcker","postalCode":"88448","locality":"Attenweiler","municipality":{"key":"08426011","name":"Attenweiler","type":"Kreisangehörige_Gemeinde"},"district":{"key":"08426","name":"Biberach","type":"Landkreis"},"federalState":{"key":"08","name":"Baden-Württemberg"}},{"name":"Ölbachstr.","postalCode":"88448","locality":"Attenweiler","municipality":{"key":"08426011","name":"Attenweiler","type":"Kreisangehörige_Gemeinde"},"district":{"key":"08426","name":"Biberach","type":"Landkreis"},"federalState":{"key":"08","name":"Baden-Württemberg"}},{"name":"Ölgäßle","postalCode":"88448","locality":"Attenweiler","municipality":{"key":"08426011","name":"Attenweiler","type":"Kreisangehörige_Gemeinde"},"district":{"key":"08426","name":"Biberach","type":"Landkreis"},"federalState":{"key":"08","name":"Baden-Württemberg"}},{"name":"Öschweg","postalCode":"88448","locality":"Attenweiler","municipality":{"key":"08426011","name":"Attenweiler","type":"Kreisangehörige_Gemeinde"},"district":{"key":"08426","name":"Biberach","type":"Landkreis"},"federalState":{"key":"08","name":"Baden-Württemberg"}},]