[{"name":"Bergstr.","postalCode":"24361","locality":"Damendorf","municipality":{"key":"01058039","name":"Damendorf","type":"Kreisangehörige_Gemeinde"},"district":{"key":"01058","name":"Rendsburg-Eckernförde","type":"Kreis"},"federalState":{"key":"01","name":"Schleswig-Holstein"}},{"name":"Damendorfer Moor","postalCode":"24361","locality":"Damendorf","municipality":{"key":"01058039","name":"Damendorf","type":"Kreisangehörige_Gemeinde"},"district":{"key":"01058","name":"Rendsburg-Eckernförde","type":"Kreis"},"federalState":{"key":"01","name":"Schleswig-Holstein"}},{"name":"Dörpstraat","postalCode":"24361","locality":"Damendorf","municipality":{"key":"01058039","name":"Damendorf","type":"Kreisangehörige_Gemeinde"},"district":{"key":"01058","name":"Rendsburg-Eckernförde","type":"Kreis"},"federalState":{"key":"01","name":"Schleswig-Holstein"}},{"name":"Grottenhof","postalCode":"24361","locality":"Damendorf","municipality":{"key":"01058039","name":"Damendorf","type":"Kreisangehörige_Gemeinde"},"district":{"key":"01058","name":"Rendsburg-Eckernförde","type":"Kreis"},"federalState":{"key":"01","name":"Schleswig-Holstein"}},{"name":"Kirchenweg","postalCode":"24361","locality":"Damendorf","municipality":{"key":"01058039","name":"Damendorf","type":"Kreisangehörige_Gemeinde"},"district":{"key":"01058","name":"Rendsburg-Eckernförde","type":"Kreis"},"federalState":{"key":"01","name":"Schleswig-Holstein"}},{"name":"Krusenau","postalCode":"24361","locality":"Damendorf","municipality":{"key":"01058039","name":"Damendorf","type":"Kreisangehörige_Gemeinde"},"district":{"key":"01058","name":"Rendsburg-Eckernförde","type":"Kreis"},"federalState":{"key":"01","name":"Schleswig-Holstein"}},{"name":"Meiereistr.","postalCode":"24361","locality":"Damendorf","municipality":{"key":"01058039","name":"Damendorf","type":"Kreisangehörige_Gemeinde"},"district":{"key":"01058","name":"Rendsburg-Eckernförde","type":"Kreis"},"federalState":{"key":"01","name":"Schleswig-Holstein"}},{"name":"Moorwiese","postalCode":"24361","locality":"Damendorf","municipality":{"key":"01058039","name":"Damendorf","type":"Kreisangehörige_Gemeinde"},"district":{"key":"01058","name":"Rendsburg-Eckernförde","type":"Kreis"},"federalState":{"key":"01","name":"Schleswig-Holstein"}},{"name":"Redderbek","postalCode":"24361","locality":"Damendorf","municipality":{"key":"01058039","name":"Damendorf","type":"Kreisangehörige_Gemeinde"},"district":{"key":"01058","name":"Rendsburg-Eckernförde","type":"Kreis"},"federalState":{"key":"01","name":"Schleswig-Holstein"}},{"name":"Schlotendoor","postalCode":"24361","locality":"Damendorf","municipality":{"key":"01058039","name":"Damendorf","type":"Kreisangehörige_Gemeinde"},"district":{"key":"01058","name":"Rendsburg-Eckernförde","type":"Kreis"},"federalState":{"key":"01","name":"Schleswig-Holstein"}},{"name":"Seemoorweg","postalCode":"24361","locality":"Damendorf","municipality":{"key":"01058039","name":"Damendorf","type":"Kreisangehörige_Gemeinde"},"district":{"key":"01058","name":"Rendsburg-Eckernförde","type":"Kreis"},"federalState":{"key":"01","name":"Schleswig-Holstein"}},{"name":"Worthbarg","postalCode":"24361","locality":"Damendorf","municipality":{"key":"01058039","name":"Damendorf","type":"Kreisangehörige_Gemeinde"},"district":{"key":"01058","name":"Rendsburg-Eckernförde","type":"Kreis"},"federalState":{"key":"01","name":"Schleswig-Holstein"}},]