[{"name":"Kixbüll","postalCode":"25924","locality":"Rodenäs","municipality":{"key":"01054110","name":"Rodenäs","type":"Kreisangehörige_Gemeinde"},"district":{"key":"01054","name":"Nordfriesland","type":"Kreis"},"federalState":{"key":"01","name":"Schleswig-Holstein"}},{"name":"Markhäuser","postalCode":"25924","locality":"Rodenäs","municipality":{"key":"01054110","name":"Rodenäs","type":"Kreisangehörige_Gemeinde"},"district":{"key":"01054","name":"Nordfriesland","type":"Kreis"},"federalState":{"key":"01","name":"Schleswig-Holstein"}},{"name":"Neudorf","postalCode":"25924","locality":"Rodenäs","municipality":{"key":"01054110","name":"Rodenäs","type":"Kreisangehörige_Gemeinde"},"district":{"key":"01054","name":"Nordfriesland","type":"Kreis"},"federalState":{"key":"01","name":"Schleswig-Holstein"}},{"name":"Norddeich","postalCode":"25924","locality":"Rodenäs","municipality":{"key":"01054110","name":"Rodenäs","type":"Kreisangehörige_Gemeinde"},"district":{"key":"01054","name":"Nordfriesland","type":"Kreis"},"federalState":{"key":"01","name":"Schleswig-Holstein"}},{"name":"Oldorf","postalCode":"25924","locality":"Rodenäs","municipality":{"key":"01054110","name":"Rodenäs","type":"Kreisangehörige_Gemeinde"},"district":{"key":"01054","name":"Nordfriesland","type":"Kreis"},"federalState":{"key":"01","name":"Schleswig-Holstein"}},{"name":"Ophusum","postalCode":"25924","locality":"Rodenäs","municipality":{"key":"01054110","name":"Rodenäs","type":"Kreisangehörige_Gemeinde"},"district":{"key":"01054","name":"Nordfriesland","type":"Kreis"},"federalState":{"key":"01","name":"Schleswig-Holstein"}},{"name":"Rickelsbüll","postalCode":"25924","locality":"Rodenäs","municipality":{"key":"01054110","name":"Rodenäs","type":"Kreisangehörige_Gemeinde"},"district":{"key":"01054","name":"Nordfriesland","type":"Kreis"},"federalState":{"key":"01","name":"Schleswig-Holstein"}},{"name":"Schneedeich","postalCode":"25924","locality":"Rodenäs","municipality":{"key":"01054110","name":"Rodenäs","type":"Kreisangehörige_Gemeinde"},"district":{"key":"01054","name":"Nordfriesland","type":"Kreis"},"federalState":{"key":"01","name":"Schleswig-Holstein"}},]