[{"name":"Achterstr.","postalCode":"29559","locality":"Wrestedt","municipality":{"key":"03360030","name":"Wrestedt","type":"Kreisangehörige_Gemeinde"},"district":{"key":"03360","name":"Uelzen","type":"Landkreis"},"federalState":{"key":"03","name":"Niedersachsen"}},{"name":"Ahornweg","postalCode":"29559","locality":"Wrestedt","municipality":{"key":"03360030","name":"Wrestedt","type":"Kreisangehörige_Gemeinde"},"district":{"key":"03360","name":"Uelzen","type":"Landkreis"},"federalState":{"key":"03","name":"Niedersachsen"}},{"name":"Alte Dorfstr.","postalCode":"29559","locality":"Wrestedt","municipality":{"key":"03360030","name":"Wrestedt","type":"Kreisangehörige_Gemeinde"},"district":{"key":"03360","name":"Uelzen","type":"Landkreis"},"federalState":{"key":"03","name":"Niedersachsen"}},{"name":"Alter Schulweg","postalCode":"29559","locality":"Wrestedt","municipality":{"key":"03360030","name":"Wrestedt","type":"Kreisangehörige_Gemeinde"},"district":{"key":"03360","name":"Uelzen","type":"Landkreis"},"federalState":{"key":"03","name":"Niedersachsen"}},{"name":"Alte Schulstr.","postalCode":"29559","locality":"Wrestedt","municipality":{"key":"03360030","name":"Wrestedt","type":"Kreisangehörige_Gemeinde"},"district":{"key":"03360","name":"Uelzen","type":"Landkreis"},"federalState":{"key":"03","name":"Niedersachsen"}},{"name":"Altes Dorf","postalCode":"29559","locality":"Wrestedt","municipality":{"key":"03360030","name":"Wrestedt","type":"Kreisangehörige_Gemeinde"},"district":{"key":"03360","name":"Uelzen","type":"Landkreis"},"federalState":{"key":"03","name":"Niedersachsen"}},{"name":"Am alten Schafstall","postalCode":"29559","locality":"Wrestedt","municipality":{"key":"03360030","name":"Wrestedt","type":"Kreisangehörige_Gemeinde"},"district":{"key":"03360","name":"Uelzen","type":"Landkreis"},"federalState":{"key":"03","name":"Niedersachsen"}},{"name":"Am Bahnhof","postalCode":"29559","locality":"Wrestedt","municipality":{"key":"03360030","name":"Wrestedt","type":"Kreisangehörige_Gemeinde"},"district":{"key":"03360","name":"Uelzen","type":"Landkreis"},"federalState":{"key":"03","name":"Niedersachsen"}},{"name":"Am Bodenteicher Steg","postalCode":"29559","locality":"Wrestedt","municipality":{"key":"03360030","name":"Wrestedt","type":"Kreisangehörige_Gemeinde"},"district":{"key":"03360","name":"Uelzen","type":"Landkreis"},"federalState":{"key":"03","name":"Niedersachsen"}},{"name":"Am Brunnen","postalCode":"29559","locality":"Wrestedt","municipality":{"key":"03360030","name":"Wrestedt","type":"Kreisangehörige_Gemeinde"},"district":{"key":"03360","name":"Uelzen","type":"Landkreis"},"federalState":{"key":"03","name":"Niedersachsen"}},{"name":"Am Försterberg","postalCode":"29559","locality":"Wrestedt","municipality":{"key":"03360030","name":"Wrestedt","type":"Kreisangehörige_Gemeinde"},"district":{"key":"03360","name":"Uelzen","type":"Landkreis"},"federalState":{"key":"03","name":"Niedersachsen"}},{"name":"Am Graben","postalCode":"29559","locality":"Wrestedt","municipality":{"key":"03360030","name":"Wrestedt","type":"Kreisangehörige_Gemeinde"},"district":{"key":"03360","name":"Uelzen","type":"Landkreis"},"federalState":{"key":"03","name":"Niedersachsen"}},{"name":"Am Hagen","postalCode":"29559","locality":"Wrestedt","municipality":{"key":"03360030","name":"Wrestedt","type":"Kreisangehörige_Gemeinde"},"district":{"key":"03360","name":"Uelzen","type":"Landkreis"},"federalState":{"key":"03","name":"Niedersachsen"}},{"name":"Am Hang","postalCode":"29559","locality":"Wrestedt","municipality":{"key":"03360030","name":"Wrestedt","type":"Kreisangehörige_Gemeinde"},"district":{"key":"03360","name":"Uelzen","type":"Landkreis"},"federalState":{"key":"03","name":"Niedersachsen"}},{"name":"Am Katerberg","postalCode":"29559","locality":"Wrestedt","municipality":{"key":"03360030","name":"Wrestedt","type":"Kreisangehörige_Gemeinde"},"district":{"key":"03360","name":"Uelzen","type":"Landkreis"},"federalState":{"key":"03","name":"Niedersachsen"}},{"name":"Am Kindergarten","postalCode":"29559","locality":"Wrestedt","municipality":{"key":"03360030","name":"Wrestedt","type":"Kreisangehörige_Gemeinde"},"district":{"key":"03360","name":"Uelzen","type":"Landkreis"},"federalState":{"key":"03","name":"Niedersachsen"}},{"name":"Am Knick","postalCode":"29559","locality":"Wrestedt","municipality":{"key":"03360030","name":"Wrestedt","type":"Kreisangehörige_Gemeinde"},"district":{"key":"03360","name":"Uelzen","type":"Landkreis"},"federalState":{"key":"03","name":"Niedersachsen"}},{"name":"Am Krähenberg","postalCode":"29559","locality":"Wrestedt","municipality":{"key":"03360030","name":"Wrestedt","type":"Kreisangehörige_Gemeinde"},"district":{"key":"03360","name":"Uelzen","type":"Landkreis"},"federalState":{"key":"03","name":"Niedersachsen"}},{"name":"Am Masch","postalCode":"29559","locality":"Wrestedt","municipality":{"key":"03360030","name":"Wrestedt","type":"Kreisangehörige_Gemeinde"},"district":{"key":"03360","name":"Uelzen","type":"Landkreis"},"federalState":{"key":"03","name":"Niedersachsen"}},{"name":"Am Mühlenteich","postalCode":"29559","locality":"Wrestedt","municipality":{"key":"03360030","name":"Wrestedt","type":"Kreisangehörige_Gemeinde"},"district":{"key":"03360","name":"Uelzen","type":"Landkreis"},"federalState":{"key":"03","name":"Niedersachsen"}},{"name":"Am Rennberg","postalCode":"29559","locality":"Wrestedt","municipality":{"key":"03360030","name":"Wrestedt","type":"Kreisangehörige_Gemeinde"},"district":{"key":"03360","name":"Uelzen","type":"Landkreis"},"federalState":{"key":"03","name":"Niedersachsen"}},{"name":"Am Schafenbach","postalCode":"29559","locality":"Wrestedt","municipality":{"key":"03360030","name":"Wrestedt","type":"Kreisangehörige_Gemeinde"},"district":{"key":"03360","name":"Uelzen","type":"Landkreis"},"federalState":{"key":"03","name":"Niedersachsen"}},{"name":"Am Scharfgarben","postalCode":"29559","locality":"Wrestedt","municipality":{"key":"03360030","name":"Wrestedt","type":"Kreisangehörige_Gemeinde"},"district":{"key":"03360","name":"Uelzen","type":"Landkreis"},"federalState":{"key":"03","name":"Niedersachsen"}},{"name":"Am Schulsteig","postalCode":"29559","locality":"Wrestedt","municipality":{"key":"03360030","name":"Wrestedt","type":"Kreisangehörige_Gemeinde"},"district":{"key":"03360","name":"Uelzen","type":"Landkreis"},"federalState":{"key":"03","name":"Niedersachsen"}},{"name":"Amselweg","postalCode":"29559","locality":"Wrestedt","municipality":{"key":"03360030","name":"Wrestedt","type":"Kreisangehörige_Gemeinde"},"district":{"key":"03360","name":"Uelzen","type":"Landkreis"},"federalState":{"key":"03","name":"Niedersachsen"}},{"name":"Am Sieksfeld","postalCode":"29559","locality":"Wrestedt","municipality":{"key":"03360030","name":"Wrestedt","type":"Kreisangehörige_Gemeinde"},"district":{"key":"03360","name":"Uelzen","type":"Landkreis"},"federalState":{"key":"03","name":"Niedersachsen"}},{"name":"Am Spielplatz","postalCode":"29559","locality":"Wrestedt","municipality":{"key":"03360030","name":"Wrestedt","type":"Kreisangehörige_Gemeinde"},"district":{"key":"03360","name":"Uelzen","type":"Landkreis"},"federalState":{"key":"03","name":"Niedersachsen"}},{"name":"Am Sportplatz","postalCode":"29559","locality":"Wrestedt","municipality":{"key":"03360030","name":"Wrestedt","type":"Kreisangehörige_Gemeinde"},"district":{"key":"03360","name":"Uelzen","type":"Landkreis"},"federalState":{"key":"03","name":"Niedersachsen"}},{"name":"Am Sportzentrum","postalCode":"29559","locality":"Wrestedt","municipality":{"key":"03360030","name":"Wrestedt","type":"Kreisangehörige_Gemeinde"},"district":{"key":"03360","name":"Uelzen","type":"Landkreis"},"federalState":{"key":"03","name":"Niedersachsen"}},{"name":"Am Tennisplatz","postalCode":"29559","locality":"Wrestedt","municipality":{"key":"03360030","name":"Wrestedt","type":"Kreisangehörige_Gemeinde"},"district":{"key":"03360","name":"Uelzen","type":"Landkreis"},"federalState":{"key":"03","name":"Niedersachsen"}},{"name":"Am Vorberg","postalCode":"29559","locality":"Wrestedt","municipality":{"key":"03360030","name":"Wrestedt","type":"Kreisangehörige_Gemeinde"},"district":{"key":"03360","name":"Uelzen","type":"Landkreis"},"federalState":{"key":"03","name":"Niedersachsen"}},{"name":"Am Wikfeld","postalCode":"29559","locality":"Wrestedt","municipality":{"key":"03360030","name":"Wrestedt","type":"Kreisangehörige_Gemeinde"},"district":{"key":"03360","name":"Uelzen","type":"Landkreis"},"federalState":{"key":"03","name":"Niedersachsen"}},{"name":"An den Bruchwiesen","postalCode":"29559","locality":"Wrestedt","municipality":{"key":"03360030","name":"Wrestedt","type":"Kreisangehörige_Gemeinde"},"district":{"key":"03360","name":"Uelzen","type":"Landkreis"},"federalState":{"key":"03","name":"Niedersachsen"}},{"name":"An den Eichen","postalCode":"29559","locality":"Wrestedt","municipality":{"key":"03360030","name":"Wrestedt","type":"Kreisangehörige_Gemeinde"},"district":{"key":"03360","name":"Uelzen","type":"Landkreis"},"federalState":{"key":"03","name":"Niedersachsen"}},{"name":"An den Gänsewiesen","postalCode":"29559","locality":"Wrestedt","municipality":{"key":"03360030","name":"Wrestedt","type":"Kreisangehörige_Gemeinde"},"district":{"key":"03360","name":"Uelzen","type":"Landkreis"},"federalState":{"key":"03","name":"Niedersachsen"}},{"name":"An den Kleingärten","postalCode":"29559","locality":"Wrestedt","municipality":{"key":"03360030","name":"Wrestedt","type":"Kreisangehörige_Gemeinde"},"district":{"key":"03360","name":"Uelzen","type":"Landkreis"},"federalState":{"key":"03","name":"Niedersachsen"}},{"name":"An den Teichen","postalCode":"29559","locality":"Wrestedt","municipality":{"key":"03360030","name":"Wrestedt","type":"Kreisangehörige_Gemeinde"},"district":{"key":"03360","name":"Uelzen","type":"Landkreis"},"federalState":{"key":"03","name":"Niedersachsen"}},{"name":"An der Aue","postalCode":"29559","locality":"Wrestedt","municipality":{"key":"03360030","name":"Wrestedt","type":"Kreisangehörige_Gemeinde"},"district":{"key":"03360","name":"Uelzen","type":"Landkreis"},"federalState":{"key":"03","name":"Niedersachsen"}},{"name":"An der Bahn","postalCode":"29559","locality":"Wrestedt","municipality":{"key":"03360030","name":"Wrestedt","type":"Kreisangehörige_Gemeinde"},"district":{"key":"03360","name":"Uelzen","type":"Landkreis"},"federalState":{"key":"03","name":"Niedersachsen"}},{"name":"An der Kirche","postalCode":"29559","locality":"Wrestedt","municipality":{"key":"03360030","name":"Wrestedt","type":"Kreisangehörige_Gemeinde"},"district":{"key":"03360","name":"Uelzen","type":"Landkreis"},"federalState":{"key":"03","name":"Niedersachsen"}},{"name":"Aschopsberg","postalCode":"29559","locality":"Wrestedt","municipality":{"key":"03360030","name":"Wrestedt","type":"Kreisangehörige_Gemeinde"},"district":{"key":"03360","name":"Uelzen","type":"Landkreis"},"federalState":{"key":"03","name":"Niedersachsen"}},{"name":"Auengrund","postalCode":"29559","locality":"Wrestedt","municipality":{"key":"03360030","name":"Wrestedt","type":"Kreisangehörige_Gemeinde"},"district":{"key":"03360","name":"Uelzen","type":"Landkreis"},"federalState":{"key":"03","name":"Niedersachsen"}},{"name":"Auf dem Damm","postalCode":"29559","locality":"Wrestedt","municipality":{"key":"03360030","name":"Wrestedt","type":"Kreisangehörige_Gemeinde"},"district":{"key":"03360","name":"Uelzen","type":"Landkreis"},"federalState":{"key":"03","name":"Niedersachsen"}},{"name":"Auf den Doren","postalCode":"29559","locality":"Wrestedt","municipality":{"key":"03360030","name":"Wrestedt","type":"Kreisangehörige_Gemeinde"},"district":{"key":"03360","name":"Uelzen","type":"Landkreis"},"federalState":{"key":"03","name":"Niedersachsen"}},{"name":"Babenföhrt","postalCode":"29559","locality":"Wrestedt","municipality":{"key":"03360030","name":"Wrestedt","type":"Kreisangehörige_Gemeinde"},"district":{"key":"03360","name":"Uelzen","type":"Landkreis"},"federalState":{"key":"03","name":"Niedersachsen"}},{"name":"Bahnhofstr.","postalCode":"29559","locality":"Wrestedt","municipality":{"key":"03360030","name":"Wrestedt","type":"Kreisangehörige_Gemeinde"},"district":{"key":"03360","name":"Uelzen","type":"Landkreis"},"federalState":{"key":"03","name":"Niedersachsen"}},{"name":"Barnbrucher Weg","postalCode":"29559","locality":"Wrestedt","municipality":{"key":"03360030","name":"Wrestedt","type":"Kreisangehörige_Gemeinde"},"district":{"key":"03360","name":"Uelzen","type":"Landkreis"},"federalState":{"key":"03","name":"Niedersachsen"}},{"name":"Bentweg","postalCode":"29559","locality":"Wrestedt","municipality":{"key":"03360030","name":"Wrestedt","type":"Kreisangehörige_Gemeinde"},"district":{"key":"03360","name":"Uelzen","type":"Landkreis"},"federalState":{"key":"03","name":"Niedersachsen"}},{"name":"Bergstr.","postalCode":"29559","locality":"Wrestedt","municipality":{"key":"03360030","name":"Wrestedt","type":"Kreisangehörige_Gemeinde"},"district":{"key":"03360","name":"Uelzen","type":"Landkreis"},"federalState":{"key":"03","name":"Niedersachsen"}},{"name":"Besucherplattform","postalCode":"29559","locality":"Wrestedt","municipality":{"key":"03360030","name":"Wrestedt","type":"Kreisangehörige_Gemeinde"},"district":{"key":"03360","name":"Uelzen","type":"Landkreis"},"federalState":{"key":"03","name":"Niedersachsen"}},{"name":"Betzkamp","postalCode":"29559","locality":"Wrestedt","municipality":{"key":"03360030","name":"Wrestedt","type":"Kreisangehörige_Gemeinde"},"district":{"key":"03360","name":"Uelzen","type":"Landkreis"},"federalState":{"key":"03","name":"Niedersachsen"}},{"name":"Birkenkamp","postalCode":"29559","locality":"Wrestedt","municipality":{"key":"03360030","name":"Wrestedt","type":"Kreisangehörige_Gemeinde"},"district":{"key":"03360","name":"Uelzen","type":"Landkreis"},"federalState":{"key":"03","name":"Niedersachsen"}},{"name":"Birkenweg","postalCode":"29559","locality":"Wrestedt","municipality":{"key":"03360030","name":"Wrestedt","type":"Kreisangehörige_Gemeinde"},"district":{"key":"03360","name":"Uelzen","type":"Landkreis"},"federalState":{"key":"03","name":"Niedersachsen"}},{"name":"Blocksberg","postalCode":"29559","locality":"Wrestedt","municipality":{"key":"03360030","name":"Wrestedt","type":"Kreisangehörige_Gemeinde"},"district":{"key":"03360","name":"Uelzen","type":"Landkreis"},"federalState":{"key":"03","name":"Niedersachsen"}},{"name":"Bodenteicher Weg","postalCode":"29559","locality":"Wrestedt","municipality":{"key":"03360030","name":"Wrestedt","type":"Kreisangehörige_Gemeinde"},"district":{"key":"03360","name":"Uelzen","type":"Landkreis"},"federalState":{"key":"03","name":"Niedersachsen"}},{"name":"Bollenser Kamp","postalCode":"29559","locality":"Wrestedt","municipality":{"key":"03360030","name":"Wrestedt","type":"Kreisangehörige_Gemeinde"},"district":{"key":"03360","name":"Uelzen","type":"Landkreis"},"federalState":{"key":"03","name":"Niedersachsen"}},{"name":"Bollenser Str.","postalCode":"29559","locality":"Wrestedt","municipality":{"key":"03360030","name":"Wrestedt","type":"Kreisangehörige_Gemeinde"},"district":{"key":"03360","name":"Uelzen","type":"Landkreis"},"federalState":{"key":"03","name":"Niedersachsen"}},{"name":"Bollenser Weg","postalCode":"29559","locality":"Wrestedt","municipality":{"key":"03360030","name":"Wrestedt","type":"Kreisangehörige_Gemeinde"},"district":{"key":"03360","name":"Uelzen","type":"Landkreis"},"federalState":{"key":"03","name":"Niedersachsen"}},{"name":"Borner Weg","postalCode":"29559","locality":"Wrestedt","municipality":{"key":"03360030","name":"Wrestedt","type":"Kreisangehörige_Gemeinde"},"district":{"key":"03360","name":"Uelzen","type":"Landkreis"},"federalState":{"key":"03","name":"Niedersachsen"}},{"name":"Braune Hirsch Str.","postalCode":"29559","locality":"Wrestedt","municipality":{"key":"03360030","name":"Wrestedt","type":"Kreisangehörige_Gemeinde"},"district":{"key":"03360","name":"Uelzen","type":"Landkreis"},"federalState":{"key":"03","name":"Niedersachsen"}},{"name":"Breitenhees","postalCode":"29559","locality":"Wrestedt","municipality":{"key":"03360030","name":"Wrestedt","type":"Kreisangehörige_Gemeinde"},"district":{"key":"03360","name":"Uelzen","type":"Landkreis"},"federalState":{"key":"03","name":"Niedersachsen"}},{"name":"Breitenheeser Weg","postalCode":"29559","locality":"Wrestedt","municipality":{"key":"03360030","name":"Wrestedt","type":"Kreisangehörige_Gemeinde"},"district":{"key":"03360","name":"Uelzen","type":"Landkreis"},"federalState":{"key":"03","name":"Niedersachsen"}},{"name":"Caspar-Lehman-Str.","postalCode":"29525","locality":"Uelzen","municipality":{"key":"03360025","name":"Uelzen, Hansestadt","type":"Stadt"},"district":{"key":"03360","name":"Uelzen","type":"Landkreis"},"federalState":{"key":"03","name":"Niedersachsen"}},{"name":"Celler Str.","postalCode":"29525","locality":"Uelzen","municipality":{"key":"03360025","name":"Uelzen, Hansestadt","type":"Stadt"},"district":{"key":"03360","name":"Uelzen","type":"Landkreis"},"federalState":{"key":"03","name":"Niedersachsen"}},{"name":"Dorfberg","postalCode":"29559","locality":"Wrestedt","municipality":{"key":"03360030","name":"Wrestedt","type":"Kreisangehörige_Gemeinde"},"district":{"key":"03360","name":"Uelzen","type":"Landkreis"},"federalState":{"key":"03","name":"Niedersachsen"}},{"name":"Dorfplatz","postalCode":"29559","locality":"Wrestedt","municipality":{"key":"03360030","name":"Wrestedt","type":"Kreisangehörige_Gemeinde"},"district":{"key":"03360","name":"Uelzen","type":"Landkreis"},"federalState":{"key":"03","name":"Niedersachsen"}},{"name":"Dorfstr.","postalCode":"29559","locality":"Wrestedt","municipality":{"key":"03360030","name":"Wrestedt","type":"Kreisangehörige_Gemeinde"},"district":{"key":"03360","name":"Uelzen","type":"Landkreis"},"federalState":{"key":"03","name":"Niedersachsen"}},{"name":"Dreieichenweg","postalCode":"29559","locality":"Wrestedt","municipality":{"key":"03360030","name":"Wrestedt","type":"Kreisangehörige_Gemeinde"},"district":{"key":"03360","name":"Uelzen","type":"Landkreis"},"federalState":{"key":"03","name":"Niedersachsen"}},{"name":"Drohe","postalCode":"29559","locality":"Wrestedt","municipality":{"key":"03360030","name":"Wrestedt","type":"Kreisangehörige_Gemeinde"},"district":{"key":"03360","name":"Uelzen","type":"Landkreis"},"federalState":{"key":"03","name":"Niedersachsen"}},{"name":"Droher Str.","postalCode":"29559","locality":"Wrestedt","municipality":{"key":"03360030","name":"Wrestedt","type":"Kreisangehörige_Gemeinde"},"district":{"key":"03360","name":"Uelzen","type":"Landkreis"},"federalState":{"key":"03","name":"Niedersachsen"}},{"name":"Drosselweg","postalCode":"29559","locality":"Wrestedt","municipality":{"key":"03360030","name":"Wrestedt","type":"Kreisangehörige_Gemeinde"},"district":{"key":"03360","name":"Uelzen","type":"Landkreis"},"federalState":{"key":"03","name":"Niedersachsen"}},{"name":"Eichenkamp","postalCode":"29559","locality":"Wrestedt","municipality":{"key":"03360030","name":"Wrestedt","type":"Kreisangehörige_Gemeinde"},"district":{"key":"03360","name":"Uelzen","type":"Landkreis"},"federalState":{"key":"03","name":"Niedersachsen"}},{"name":"Eichenweg","postalCode":"29559","locality":"Wrestedt","municipality":{"key":"03360030","name":"Wrestedt","type":"Kreisangehörige_Gemeinde"},"district":{"key":"03360","name":"Uelzen","type":"Landkreis"},"federalState":{"key":"03","name":"Niedersachsen"}},{"name":"Emerner Str.","postalCode":"29559","locality":"Wrestedt","municipality":{"key":"03360030","name":"Wrestedt","type":"Kreisangehörige_Gemeinde"},"district":{"key":"03360","name":"Uelzen","type":"Landkreis"},"federalState":{"key":"03","name":"Niedersachsen"}},{"name":"Ernst-Rust-Str.","postalCode":"29559","locality":"Wrestedt","municipality":{"key":"03360030","name":"Wrestedt","type":"Kreisangehörige_Gemeinde"},"district":{"key":"03360","name":"Uelzen","type":"Landkreis"},"federalState":{"key":"03","name":"Niedersachsen"}},{"name":"Esterholz","postalCode":"29559","locality":"Wrestedt","municipality":{"key":"03360030","name":"Wrestedt","type":"Kreisangehörige_Gemeinde"},"district":{"key":"03360","name":"Uelzen","type":"Landkreis"},"federalState":{"key":"03","name":"Niedersachsen"}},{"name":"Esterholzer Str.","postalCode":"29559","locality":"Wrestedt","municipality":{"key":"03360030","name":"Wrestedt","type":"Kreisangehörige_Gemeinde"},"district":{"key":"03360","name":"Uelzen","type":"Landkreis"},"federalState":{"key":"03","name":"Niedersachsen"}},{"name":"Finkenstieg","postalCode":"29559","locality":"Wrestedt","municipality":{"key":"03360030","name":"Wrestedt","type":"Kreisangehörige_Gemeinde"},"district":{"key":"03360","name":"Uelzen","type":"Landkreis"},"federalState":{"key":"03","name":"Niedersachsen"}},{"name":"Finkenweg","postalCode":"29559","locality":"Wrestedt","municipality":{"key":"03360030","name":"Wrestedt","type":"Kreisangehörige_Gemeinde"},"district":{"key":"03360","name":"Uelzen","type":"Landkreis"},"federalState":{"key":"03","name":"Niedersachsen"}},{"name":"Fischteichsfeld","postalCode":"29559","locality":"Wrestedt","municipality":{"key":"03360030","name":"Wrestedt","type":"Kreisangehörige_Gemeinde"},"district":{"key":"03360","name":"Uelzen","type":"Landkreis"},"federalState":{"key":"03","name":"Niedersachsen"}},{"name":"Flachskamp","postalCode":"29559","locality":"Wrestedt","municipality":{"key":"03360030","name":"Wrestedt","type":"Kreisangehörige_Gemeinde"},"district":{"key":"03360","name":"Uelzen","type":"Landkreis"},"federalState":{"key":"03","name":"Niedersachsen"}},{"name":"Flaskweg","postalCode":"29559","locality":"Wrestedt","municipality":{"key":"03360030","name":"Wrestedt","type":"Kreisangehörige_Gemeinde"},"district":{"key":"03360","name":"Uelzen","type":"Landkreis"},"federalState":{"key":"03","name":"Niedersachsen"}},{"name":"Forstweg","postalCode":"29559","locality":"Wrestedt","municipality":{"key":"03360030","name":"Wrestedt","type":"Kreisangehörige_Gemeinde"},"district":{"key":"03360","name":"Uelzen","type":"Landkreis"},"federalState":{"key":"03","name":"Niedersachsen"}},{"name":"Fuhrenkamp","postalCode":"29559","locality":"Wrestedt","municipality":{"key":"03360030","name":"Wrestedt","type":"Kreisangehörige_Gemeinde"},"district":{"key":"03360","name":"Uelzen","type":"Landkreis"},"federalState":{"key":"03","name":"Niedersachsen"}},{"name":"Gartenstr.","postalCode":"29559","locality":"Wrestedt","municipality":{"key":"03360030","name":"Wrestedt","type":"Kreisangehörige_Gemeinde"},"district":{"key":"03360","name":"Uelzen","type":"Landkreis"},"federalState":{"key":"03","name":"Niedersachsen"}},{"name":"Gartenweg","postalCode":"29559","locality":"Wrestedt","municipality":{"key":"03360030","name":"Wrestedt","type":"Kreisangehörige_Gemeinde"},"district":{"key":"03360","name":"Uelzen","type":"Landkreis"},"federalState":{"key":"03","name":"Niedersachsen"}},{"name":"Gavendorf","postalCode":"29559","locality":"Wrestedt","municipality":{"key":"03360030","name":"Wrestedt","type":"Kreisangehörige_Gemeinde"},"district":{"key":"03360","name":"Uelzen","type":"Landkreis"},"federalState":{"key":"03","name":"Niedersachsen"}},{"name":"Gelber Berg","postalCode":"29559","locality":"Wrestedt","municipality":{"key":"03360030","name":"Wrestedt","type":"Kreisangehörige_Gemeinde"},"district":{"key":"03360","name":"Uelzen","type":"Landkreis"},"federalState":{"key":"03","name":"Niedersachsen"}},{"name":"Graf-Grote-Str.","postalCode":"29559","locality":"Wrestedt","municipality":{"key":"03360030","name":"Wrestedt","type":"Kreisangehörige_Gemeinde"},"district":{"key":"03360","name":"Uelzen","type":"Landkreis"},"federalState":{"key":"03","name":"Niedersachsen"}},{"name":"Groß Liedener Str.","postalCode":"29559","locality":"Wrestedt","municipality":{"key":"03360030","name":"Wrestedt","type":"Kreisangehörige_Gemeinde"},"district":{"key":"03360","name":"Uelzen","type":"Landkreis"},"federalState":{"key":"03","name":"Niedersachsen"}},{"name":"Groß Pretzier","postalCode":"29559","locality":"Wrestedt","municipality":{"key":"03360030","name":"Wrestedt","type":"Kreisangehörige_Gemeinde"},"district":{"key":"03360","name":"Uelzen","type":"Landkreis"},"federalState":{"key":"03","name":"Niedersachsen"}},{"name":"Gr. Pretzier","postalCode":"29559","locality":"Wrestedt","municipality":{"key":"03360030","name":"Wrestedt","type":"Kreisangehörige_Gemeinde"},"district":{"key":"03360","name":"Uelzen","type":"Landkreis"},"federalState":{"key":"03","name":"Niedersachsen"}},{"name":"Hainbuchenweg","postalCode":"29559","locality":"Wrestedt","municipality":{"key":"03360030","name":"Wrestedt","type":"Kreisangehörige_Gemeinde"},"district":{"key":"03360","name":"Uelzen","type":"Landkreis"},"federalState":{"key":"03","name":"Niedersachsen"}},{"name":"Halligdorfer Weg","postalCode":"29559","locality":"Wrestedt","municipality":{"key":"03360030","name":"Wrestedt","type":"Kreisangehörige_Gemeinde"},"district":{"key":"03360","name":"Uelzen","type":"Landkreis"},"federalState":{"key":"03","name":"Niedersachsen"}},{"name":"Hamborg","postalCode":"29559","locality":"Wrestedt","municipality":{"key":"03360030","name":"Wrestedt","type":"Kreisangehörige_Gemeinde"},"district":{"key":"03360","name":"Uelzen","type":"Landkreis"},"federalState":{"key":"03","name":"Niedersachsen"}},{"name":"Hamborger Str.","postalCode":"29559","locality":"Wrestedt","municipality":{"key":"03360030","name":"Wrestedt","type":"Kreisangehörige_Gemeinde"},"district":{"key":"03360","name":"Uelzen","type":"Landkreis"},"federalState":{"key":"03","name":"Niedersachsen"}},{"name":"Hanstedter Str.","postalCode":"29559","locality":"Wrestedt","municipality":{"key":"03360030","name":"Wrestedt","type":"Kreisangehörige_Gemeinde"},"district":{"key":"03360","name":"Uelzen","type":"Landkreis"},"federalState":{"key":"03","name":"Niedersachsen"}},{"name":"Hauptstr.","postalCode":"29559","locality":"Wrestedt","municipality":{"key":"03360030","name":"Wrestedt","type":"Kreisangehörige_Gemeinde"},"district":{"key":"03360","name":"Uelzen","type":"Landkreis"},"federalState":{"key":"03","name":"Niedersachsen"}},{"name":"Hinter den Rothen","postalCode":"29559","locality":"Wrestedt","municipality":{"key":"03360030","name":"Wrestedt","type":"Kreisangehörige_Gemeinde"},"district":{"key":"03360","name":"Uelzen","type":"Landkreis"},"federalState":{"key":"03","name":"Niedersachsen"}},{"name":"Hinterm Wasser","postalCode":"29559","locality":"Wrestedt","municipality":{"key":"03360030","name":"Wrestedt","type":"Kreisangehörige_Gemeinde"},"district":{"key":"03360","name":"Uelzen","type":"Landkreis"},"federalState":{"key":"03","name":"Niedersachsen"}},{"name":"Holdenstedter Weg","postalCode":"29559","locality":"Wrestedt","municipality":{"key":"03360030","name":"Wrestedt","type":"Kreisangehörige_Gemeinde"},"district":{"key":"03360","name":"Uelzen","type":"Landkreis"},"federalState":{"key":"03","name":"Niedersachsen"}},{"name":"Hösseringer Weg","postalCode":"29559","locality":"Wrestedt","municipality":{"key":"03360030","name":"Wrestedt","type":"Kreisangehörige_Gemeinde"},"district":{"key":"03360","name":"Uelzen","type":"Landkreis"},"federalState":{"key":"03","name":"Niedersachsen"}},{"name":"Ilmenauweg","postalCode":"29559","locality":"Wrestedt","municipality":{"key":"03360030","name":"Wrestedt","type":"Kreisangehörige_Gemeinde"},"district":{"key":"03360","name":"Uelzen","type":"Landkreis"},"federalState":{"key":"03","name":"Niedersachsen"}},{"name":"Im Bleitz","postalCode":"29559","locality":"Wrestedt","municipality":{"key":"03360030","name":"Wrestedt","type":"Kreisangehörige_Gemeinde"},"district":{"key":"03360","name":"Uelzen","type":"Landkreis"},"federalState":{"key":"03","name":"Niedersachsen"}},{"name":"Im Dreibel","postalCode":"29559","locality":"Wrestedt","municipality":{"key":"03360030","name":"Wrestedt","type":"Kreisangehörige_Gemeinde"},"district":{"key":"03360","name":"Uelzen","type":"Landkreis"},"federalState":{"key":"03","name":"Niedersachsen"}},{"name":"Im Hagen","postalCode":"29559","locality":"Wrestedt","municipality":{"key":"03360030","name":"Wrestedt","type":"Kreisangehörige_Gemeinde"},"district":{"key":"03360","name":"Uelzen","type":"Landkreis"},"federalState":{"key":"03","name":"Niedersachsen"}},{"name":"Im Heeg","postalCode":"29559","locality":"Wrestedt","municipality":{"key":"03360030","name":"Wrestedt","type":"Kreisangehörige_Gemeinde"},"district":{"key":"03360","name":"Uelzen","type":"Landkreis"},"federalState":{"key":"03","name":"Niedersachsen"}},{"name":"Im Ring","postalCode":"29559","locality":"Wrestedt","municipality":{"key":"03360030","name":"Wrestedt","type":"Kreisangehörige_Gemeinde"},"district":{"key":"03360","name":"Uelzen","type":"Landkreis"},"federalState":{"key":"03","name":"Niedersachsen"}},{"name":"Im Rothen","postalCode":"29559","locality":"Wrestedt","municipality":{"key":"03360030","name":"Wrestedt","type":"Kreisangehörige_Gemeinde"},"district":{"key":"03360","name":"Uelzen","type":"Landkreis"},"federalState":{"key":"03","name":"Niedersachsen"}},{"name":"Industriestr.","postalCode":"29559","locality":"Wrestedt","municipality":{"key":"03360030","name":"Wrestedt","type":"Kreisangehörige_Gemeinde"},"district":{"key":"03360","name":"Uelzen","type":"Landkreis"},"federalState":{"key":"03","name":"Niedersachsen"}},{"name":"Jägerstr.","postalCode":"29525","locality":"Uelzen","municipality":{"key":"03360025","name":"Uelzen, Hansestadt","type":"Stadt"},"district":{"key":"03360","name":"Uelzen","type":"Landkreis"},"federalState":{"key":"03","name":"Niedersachsen"}},{"name":"Johannesstr.","postalCode":"29525","locality":"Uelzen","municipality":{"key":"03360025","name":"Uelzen, Hansestadt","type":"Stadt"},"district":{"key":"03360","name":"Uelzen","type":"Landkreis"},"federalState":{"key":"03","name":"Niedersachsen"}},{"name":"Johnsburg","postalCode":"29525","locality":"Uelzen","municipality":{"key":"03360025","name":"Uelzen, Hansestadt","type":"Stadt"},"district":{"key":"03360","name":"Uelzen","type":"Landkreis"},"federalState":{"key":"03","name":"Niedersachsen"}},{"name":"Johnsburg Kreisel","postalCode":"29525","locality":"Uelzen","municipality":{"key":"03360025","name":"Uelzen, Hansestadt","type":"Stadt"},"district":{"key":"03360","name":"Uelzen","type":"Landkreis"},"federalState":{"key":"03","name":"Niedersachsen"}},{"name":"Kahlstorf","postalCode":"29559","locality":"Wrestedt","municipality":{"key":"03360030","name":"Wrestedt","type":"Kreisangehörige_Gemeinde"},"district":{"key":"03360","name":"Uelzen","type":"Landkreis"},"federalState":{"key":"03","name":"Niedersachsen"}},{"name":"Kahlstorfer Str.","postalCode":"29559","locality":"Wrestedt","municipality":{"key":"03360030","name":"Wrestedt","type":"Kreisangehörige_Gemeinde"},"district":{"key":"03360","name":"Uelzen","type":"Landkreis"},"federalState":{"key":"03","name":"Niedersachsen"}},{"name":"Kallenbrock","postalCode":"29559","locality":"Wrestedt","municipality":{"key":"03360030","name":"Wrestedt","type":"Kreisangehörige_Gemeinde"},"district":{"key":"03360","name":"Uelzen","type":"Landkreis"},"federalState":{"key":"03","name":"Niedersachsen"}},{"name":"Kantor-Krüger-Str.","postalCode":"29559","locality":"Wrestedt","municipality":{"key":"03360030","name":"Wrestedt","type":"Kreisangehörige_Gemeinde"},"district":{"key":"03360","name":"Uelzen","type":"Landkreis"},"federalState":{"key":"03","name":"Niedersachsen"}},{"name":"Kastanienweg","postalCode":"29559","locality":"Wrestedt","municipality":{"key":"03360030","name":"Wrestedt","type":"Kreisangehörige_Gemeinde"},"district":{"key":"03360","name":"Uelzen","type":"Landkreis"},"federalState":{"key":"03","name":"Niedersachsen"}},{"name":"Katerburg","postalCode":"29559","locality":"Wrestedt","municipality":{"key":"03360030","name":"Wrestedt","type":"Kreisangehörige_Gemeinde"},"district":{"key":"03360","name":"Uelzen","type":"Landkreis"},"federalState":{"key":"03","name":"Niedersachsen"}},{"name":"Kirchsteig","postalCode":"29559","locality":"Wrestedt","municipality":{"key":"03360030","name":"Wrestedt","type":"Kreisangehörige_Gemeinde"},"district":{"key":"03360","name":"Uelzen","type":"Landkreis"},"federalState":{"key":"03","name":"Niedersachsen"}},{"name":"Kirchweg","postalCode":"29559","locality":"Wrestedt","municipality":{"key":"03360030","name":"Wrestedt","type":"Kreisangehörige_Gemeinde"},"district":{"key":"03360","name":"Uelzen","type":"Landkreis"},"federalState":{"key":"03","name":"Niedersachsen"}},{"name":"Klein Bollensen","postalCode":"29559","locality":"Wrestedt","municipality":{"key":"03360030","name":"Wrestedt","type":"Kreisangehörige_Gemeinde"},"district":{"key":"03360","name":"Uelzen","type":"Landkreis"},"federalState":{"key":"03","name":"Niedersachsen"}},{"name":"Kleiner Weg","postalCode":"29559","locality":"Wrestedt","municipality":{"key":"03360030","name":"Wrestedt","type":"Kreisangehörige_Gemeinde"},"district":{"key":"03360","name":"Uelzen","type":"Landkreis"},"federalState":{"key":"03","name":"Niedersachsen"}},{"name":"Klein London","postalCode":"29559","locality":"Wrestedt","municipality":{"key":"03360030","name":"Wrestedt","type":"Kreisangehörige_Gemeinde"},"district":{"key":"03360","name":"Uelzen","type":"Landkreis"},"federalState":{"key":"03","name":"Niedersachsen"}},{"name":"Klein Pretzier","postalCode":"29559","locality":"Wrestedt","municipality":{"key":"03360030","name":"Wrestedt","type":"Kreisangehörige_Gemeinde"},"district":{"key":"03360","name":"Uelzen","type":"Landkreis"},"federalState":{"key":"03","name":"Niedersachsen"}},{"name":"Könauer Str.","postalCode":"29559","locality":"Wrestedt","municipality":{"key":"03360030","name":"Wrestedt","type":"Kreisangehörige_Gemeinde"},"district":{"key":"03360","name":"Uelzen","type":"Landkreis"},"federalState":{"key":"03","name":"Niedersachsen"}},{"name":"Koppelweg","postalCode":"29559","locality":"Wrestedt","municipality":{"key":"03360030","name":"Wrestedt","type":"Kreisangehörige_Gemeinde"},"district":{"key":"03360","name":"Uelzen","type":"Landkreis"},"federalState":{"key":"03","name":"Niedersachsen"}},{"name":"Kroetze","postalCode":"29559","locality":"Wrestedt","municipality":{"key":"03360030","name":"Wrestedt","type":"Kreisangehörige_Gemeinde"},"district":{"key":"03360","name":"Uelzen","type":"Landkreis"},"federalState":{"key":"03","name":"Niedersachsen"}},{"name":"Kroetzer Allee","postalCode":"29559","locality":"Wrestedt","municipality":{"key":"03360030","name":"Wrestedt","type":"Kreisangehörige_Gemeinde"},"district":{"key":"03360","name":"Uelzen","type":"Landkreis"},"federalState":{"key":"03","name":"Niedersachsen"}},{"name":"Kroetzmühle","postalCode":"29559","locality":"Wrestedt","municipality":{"key":"03360030","name":"Wrestedt","type":"Kreisangehörige_Gemeinde"},"district":{"key":"03360","name":"Uelzen","type":"Landkreis"},"federalState":{"key":"03","name":"Niedersachsen"}},{"name":"Küsterberg","postalCode":"29559","locality":"Wrestedt","municipality":{"key":"03360030","name":"Wrestedt","type":"Kreisangehörige_Gemeinde"},"district":{"key":"03360","name":"Uelzen","type":"Landkreis"},"federalState":{"key":"03","name":"Niedersachsen"}},{"name":"Lahweg","postalCode":"29559","locality":"Wrestedt","municipality":{"key":"03360030","name":"Wrestedt","type":"Kreisangehörige_Gemeinde"},"district":{"key":"03360","name":"Uelzen","type":"Landkreis"},"federalState":{"key":"03","name":"Niedersachsen"}},{"name":"Landesstr.","postalCode":"29559","locality":"Wrestedt","municipality":{"key":"03360030","name":"Wrestedt","type":"Kreisangehörige_Gemeinde"},"district":{"key":"03360","name":"Uelzen","type":"Landkreis"},"federalState":{"key":"03","name":"Niedersachsen"}},{"name":"Langdoren","postalCode":"29559","locality":"Wrestedt","municipality":{"key":"03360030","name":"Wrestedt","type":"Kreisangehörige_Gemeinde"},"district":{"key":"03360","name":"Uelzen","type":"Landkreis"},"federalState":{"key":"03","name":"Niedersachsen"}},{"name":"Lerchenfeld","postalCode":"29559","locality":"Wrestedt","municipality":{"key":"03360030","name":"Wrestedt","type":"Kreisangehörige_Gemeinde"},"district":{"key":"03360","name":"Uelzen","type":"Landkreis"},"federalState":{"key":"03","name":"Niedersachsen"}},{"name":"Lerchenweg","postalCode":"29559","locality":"Wrestedt","municipality":{"key":"03360030","name":"Wrestedt","type":"Kreisangehörige_Gemeinde"},"district":{"key":"03360","name":"Uelzen","type":"Landkreis"},"federalState":{"key":"03","name":"Niedersachsen"}},{"name":"Lindenallee","postalCode":"29559","locality":"Wrestedt","municipality":{"key":"03360030","name":"Wrestedt","type":"Kreisangehörige_Gemeinde"},"district":{"key":"03360","name":"Uelzen","type":"Landkreis"},"federalState":{"key":"03","name":"Niedersachsen"}},{"name":"Lindenstr.","postalCode":"29559","locality":"Wrestedt","municipality":{"key":"03360030","name":"Wrestedt","type":"Kreisangehörige_Gemeinde"},"district":{"key":"03360","name":"Uelzen","type":"Landkreis"},"federalState":{"key":"03","name":"Niedersachsen"}},{"name":"Markerweg","postalCode":"29559","locality":"Wrestedt","municipality":{"key":"03360030","name":"Wrestedt","type":"Kreisangehörige_Gemeinde"},"district":{"key":"03360","name":"Uelzen","type":"Landkreis"},"federalState":{"key":"03","name":"Niedersachsen"}},{"name":"Merzerfeld","postalCode":"29559","locality":"Wrestedt","municipality":{"key":"03360030","name":"Wrestedt","type":"Kreisangehörige_Gemeinde"},"district":{"key":"03360","name":"Uelzen","type":"Landkreis"},"federalState":{"key":"03","name":"Niedersachsen"}},{"name":"Mittelweg","postalCode":"29559","locality":"Wrestedt","municipality":{"key":"03360030","name":"Wrestedt","type":"Kreisangehörige_Gemeinde"},"district":{"key":"03360","name":"Uelzen","type":"Landkreis"},"federalState":{"key":"03","name":"Niedersachsen"}},{"name":"Moorweg","postalCode":"29559","locality":"Wrestedt","municipality":{"key":"03360030","name":"Wrestedt","type":"Kreisangehörige_Gemeinde"},"district":{"key":"03360","name":"Uelzen","type":"Landkreis"},"federalState":{"key":"03","name":"Niedersachsen"}},{"name":"Mühlenstr.","postalCode":"29559","locality":"Wrestedt","municipality":{"key":"03360030","name":"Wrestedt","type":"Kreisangehörige_Gemeinde"},"district":{"key":"03360","name":"Uelzen","type":"Landkreis"},"federalState":{"key":"03","name":"Niedersachsen"}},{"name":"Nachtigallenweg","postalCode":"29559","locality":"Wrestedt","municipality":{"key":"03360030","name":"Wrestedt","type":"Kreisangehörige_Gemeinde"},"district":{"key":"03360","name":"Uelzen","type":"Landkreis"},"federalState":{"key":"03","name":"Niedersachsen"}},{"name":"Nettelkamper Str.","postalCode":"29559","locality":"Wrestedt","municipality":{"key":"03360030","name":"Wrestedt","type":"Kreisangehörige_Gemeinde"},"district":{"key":"03360","name":"Uelzen","type":"Landkreis"},"federalState":{"key":"03","name":"Niedersachsen"}},{"name":"Neuer Weg","postalCode":"29559","locality":"Wrestedt","municipality":{"key":"03360030","name":"Wrestedt","type":"Kreisangehörige_Gemeinde"},"district":{"key":"03360","name":"Uelzen","type":"Landkreis"},"federalState":{"key":"03","name":"Niedersachsen"}},{"name":"Nienwohllder Str.","postalCode":"29559","locality":"Wrestedt","municipality":{"key":"03360030","name":"Wrestedt","type":"Kreisangehörige_Gemeinde"},"district":{"key":"03360","name":"Uelzen","type":"Landkreis"},"federalState":{"key":"03","name":"Niedersachsen"}},{"name":"Nordkamp","postalCode":"29559","locality":"Wrestedt","municipality":{"key":"03360030","name":"Wrestedt","type":"Kreisangehörige_Gemeinde"},"district":{"key":"03360","name":"Uelzen","type":"Landkreis"},"federalState":{"key":"03","name":"Niedersachsen"}},{"name":"Nordstr.","postalCode":"29559","locality":"Wrestedt","municipality":{"key":"03360030","name":"Wrestedt","type":"Kreisangehörige_Gemeinde"},"district":{"key":"03360","name":"Uelzen","type":"Landkreis"},"federalState":{"key":"03","name":"Niedersachsen"}},{"name":"Oetzener Str.","postalCode":"29525","locality":"Uelzen","municipality":{"key":"03360025","name":"Uelzen, Hansestadt","type":"Stadt"},"district":{"key":"03360","name":"Uelzen","type":"Landkreis"},"federalState":{"key":"03","name":"Niedersachsen"}},{"name":"Oldenstädter Str.","postalCode":"29525","locality":"Uelzen","municipality":{"key":"03360025","name":"Uelzen, Hansestadt","type":"Stadt"},"district":{"key":"03360","name":"Uelzen","type":"Landkreis"},"federalState":{"key":"03","name":"Niedersachsen"}},{"name":"Orchideenweg","postalCode":"29525","locality":"Uelzen","municipality":{"key":"03360025","name":"Uelzen, Hansestadt","type":"Stadt"},"district":{"key":"03360","name":"Uelzen","type":"Landkreis"},"federalState":{"key":"03","name":"Niedersachsen"}},{"name":"Ortsumgehung Kirchweyhe","postalCode":"29525","locality":"Uelzen","municipality":{"key":"03360025","name":"Uelzen, Hansestadt","type":"Stadt"},"district":{"key":"03360","name":"Uelzen","type":"Landkreis"},"federalState":{"key":"03","name":"Niedersachsen"}},{"name":"Oskar-Wachler-Weg","postalCode":"29525","locality":"Uelzen","municipality":{"key":"03360025","name":"Uelzen, Hansestadt","type":"Stadt"},"district":{"key":"03360","name":"Uelzen","type":"Landkreis"},"federalState":{"key":"03","name":"Niedersachsen"}},{"name":"Ostermarsch","postalCode":"29525","locality":"Uelzen","municipality":{"key":"03360025","name":"Uelzen, Hansestadt","type":"Stadt"},"district":{"key":"03360","name":"Uelzen","type":"Landkreis"},"federalState":{"key":"03","name":"Niedersachsen"}},{"name":"Osterstr.","postalCode":"29525","locality":"Uelzen","municipality":{"key":"03360025","name":"Uelzen, Hansestadt","type":"Stadt"},"district":{"key":"03360","name":"Uelzen","type":"Landkreis"},"federalState":{"key":"03","name":"Niedersachsen"}},{"name":"Ostmarkstr.","postalCode":"29525","locality":"Uelzen","municipality":{"key":"03360025","name":"Uelzen, Hansestadt","type":"Stadt"},"district":{"key":"03360","name":"Uelzen","type":"Landkreis"},"federalState":{"key":"03","name":"Niedersachsen"}},{"name":"Ostpreußenring","postalCode":"29525","locality":"Uelzen","municipality":{"key":"03360025","name":"Uelzen, Hansestadt","type":"Stadt"},"district":{"key":"03360","name":"Uelzen","type":"Landkreis"},"federalState":{"key":"03","name":"Niedersachsen"}},{"name":"Papenstieg","postalCode":"29559","locality":"Wrestedt","municipality":{"key":"03360030","name":"Wrestedt","type":"Kreisangehörige_Gemeinde"},"district":{"key":"03360","name":"Uelzen","type":"Landkreis"},"federalState":{"key":"03","name":"Niedersachsen"}},{"name":"Parkring","postalCode":"29559","locality":"Wrestedt","municipality":{"key":"03360030","name":"Wrestedt","type":"Kreisangehörige_Gemeinde"},"district":{"key":"03360","name":"Uelzen","type":"Landkreis"},"federalState":{"key":"03","name":"Niedersachsen"}},{"name":"Parkstr.","postalCode":"29559","locality":"Wrestedt","municipality":{"key":"03360030","name":"Wrestedt","type":"Kreisangehörige_Gemeinde"},"district":{"key":"03360","name":"Uelzen","type":"Landkreis"},"federalState":{"key":"03","name":"Niedersachsen"}},{"name":"Poststr.","postalCode":"29559","locality":"Wrestedt","municipality":{"key":"03360030","name":"Wrestedt","type":"Kreisangehörige_Gemeinde"},"district":{"key":"03360","name":"Uelzen","type":"Landkreis"},"federalState":{"key":"03","name":"Niedersachsen"}},{"name":"Raiffeisenstr.","postalCode":"29559","locality":"Wrestedt","municipality":{"key":"03360030","name":"Wrestedt","type":"Kreisangehörige_Gemeinde"},"district":{"key":"03360","name":"Uelzen","type":"Landkreis"},"federalState":{"key":"03","name":"Niedersachsen"}},{"name":"Ringstr.","postalCode":"29559","locality":"Wrestedt","municipality":{"key":"03360030","name":"Wrestedt","type":"Kreisangehörige_Gemeinde"},"district":{"key":"03360","name":"Uelzen","type":"Landkreis"},"federalState":{"key":"03","name":"Niedersachsen"}},{"name":"Rosenstr.","postalCode":"29559","locality":"Wrestedt","municipality":{"key":"03360030","name":"Wrestedt","type":"Kreisangehörige_Gemeinde"},"district":{"key":"03360","name":"Uelzen","type":"Landkreis"},"federalState":{"key":"03","name":"Niedersachsen"}},{"name":"Rosenweg","postalCode":"29559","locality":"Wrestedt","municipality":{"key":"03360030","name":"Wrestedt","type":"Kreisangehörige_Gemeinde"},"district":{"key":"03360","name":"Uelzen","type":"Landkreis"},"federalState":{"key":"03","name":"Niedersachsen"}},{"name":"Rübenfeld","postalCode":"29559","locality":"Wrestedt","municipality":{"key":"03360030","name":"Wrestedt","type":"Kreisangehörige_Gemeinde"},"district":{"key":"03360","name":"Uelzen","type":"Landkreis"},"federalState":{"key":"03","name":"Niedersachsen"}},{"name":"Sauerbruchsweg","postalCode":"29559","locality":"Wrestedt","municipality":{"key":"03360030","name":"Wrestedt","type":"Kreisangehörige_Gemeinde"},"district":{"key":"03360","name":"Uelzen","type":"Landkreis"},"federalState":{"key":"03","name":"Niedersachsen"}},{"name":"Schapersweg","postalCode":"29559","locality":"Wrestedt","municipality":{"key":"03360030","name":"Wrestedt","type":"Kreisangehörige_Gemeinde"},"district":{"key":"03360","name":"Uelzen","type":"Landkreis"},"federalState":{"key":"03","name":"Niedersachsen"}},{"name":"Schleusenweg","postalCode":"29559","locality":"Wrestedt","municipality":{"key":"03360030","name":"Wrestedt","type":"Kreisangehörige_Gemeinde"},"district":{"key":"03360","name":"Uelzen","type":"Landkreis"},"federalState":{"key":"03","name":"Niedersachsen"}},{"name":"Schuhstr.","postalCode":"29559","locality":"Wrestedt","municipality":{"key":"03360030","name":"Wrestedt","type":"Kreisangehörige_Gemeinde"},"district":{"key":"03360","name":"Uelzen","type":"Landkreis"},"federalState":{"key":"03","name":"Niedersachsen"}},{"name":"Schulberg","postalCode":"29559","locality":"Wrestedt","municipality":{"key":"03360030","name":"Wrestedt","type":"Kreisangehörige_Gemeinde"},"district":{"key":"03360","name":"Uelzen","type":"Landkreis"},"federalState":{"key":"03","name":"Niedersachsen"}},{"name":"Schwarzer Pfuhl","postalCode":"29559","locality":"Wrestedt","municipality":{"key":"03360030","name":"Wrestedt","type":"Kreisangehörige_Gemeinde"},"district":{"key":"03360","name":"Uelzen","type":"Landkreis"},"federalState":{"key":"03","name":"Niedersachsen"}},{"name":"Siedebruch","postalCode":"29559","locality":"Wrestedt","municipality":{"key":"03360030","name":"Wrestedt","type":"Kreisangehörige_Gemeinde"},"district":{"key":"03360","name":"Uelzen","type":"Landkreis"},"federalState":{"key":"03","name":"Niedersachsen"}},{"name":"Sportweg","postalCode":"29559","locality":"Wrestedt","municipality":{"key":"03360030","name":"Wrestedt","type":"Kreisangehörige_Gemeinde"},"district":{"key":"03360","name":"Uelzen","type":"Landkreis"},"federalState":{"key":"03","name":"Niedersachsen"}},{"name":"Stadenser Str.","postalCode":"29559","locality":"Wrestedt","municipality":{"key":"03360030","name":"Wrestedt","type":"Kreisangehörige_Gemeinde"},"district":{"key":"03360","name":"Uelzen","type":"Landkreis"},"federalState":{"key":"03","name":"Niedersachsen"}},{"name":"Stadtweg","postalCode":"29559","locality":"Wrestedt","municipality":{"key":"03360030","name":"Wrestedt","type":"Kreisangehörige_Gemeinde"},"district":{"key":"03360","name":"Uelzen","type":"Landkreis"},"federalState":{"key":"03","name":"Niedersachsen"}},{"name":"Stederaustr.","postalCode":"29559","locality":"Wrestedt","municipality":{"key":"03360030","name":"Wrestedt","type":"Kreisangehörige_Gemeinde"},"district":{"key":"03360","name":"Uelzen","type":"Landkreis"},"federalState":{"key":"03","name":"Niedersachsen"}},{"name":"Stederdorfer Weg","postalCode":"29559","locality":"Wrestedt","municipality":{"key":"03360030","name":"Wrestedt","type":"Kreisangehörige_Gemeinde"},"district":{"key":"03360","name":"Uelzen","type":"Landkreis"},"federalState":{"key":"03","name":"Niedersachsen"}},{"name":"Streuberger Weg","postalCode":"29559","locality":"Wrestedt","municipality":{"key":"03360030","name":"Wrestedt","type":"Kreisangehörige_Gemeinde"},"district":{"key":"03360","name":"Uelzen","type":"Landkreis"},"federalState":{"key":"03","name":"Niedersachsen"}},{"name":"Suderburger Str.","postalCode":"29559","locality":"Wrestedt","municipality":{"key":"03360030","name":"Wrestedt","type":"Kreisangehörige_Gemeinde"},"district":{"key":"03360","name":"Uelzen","type":"Landkreis"},"federalState":{"key":"03","name":"Niedersachsen"}},{"name":"Suhlendorfer Berg","postalCode":"29559","locality":"Wrestedt","municipality":{"key":"03360030","name":"Wrestedt","type":"Kreisangehörige_Gemeinde"},"district":{"key":"03360","name":"Uelzen","type":"Landkreis"},"federalState":{"key":"03","name":"Niedersachsen"}},{"name":"Talweg","postalCode":"29559","locality":"Wrestedt","municipality":{"key":"03360030","name":"Wrestedt","type":"Kreisangehörige_Gemeinde"},"district":{"key":"03360","name":"Uelzen","type":"Landkreis"},"federalState":{"key":"03","name":"Niedersachsen"}},{"name":"Tannenweg","postalCode":"29559","locality":"Wrestedt","municipality":{"key":"03360030","name":"Wrestedt","type":"Kreisangehörige_Gemeinde"},"district":{"key":"03360","name":"Uelzen","type":"Landkreis"},"federalState":{"key":"03","name":"Niedersachsen"}},{"name":"Twiete","postalCode":"29559","locality":"Wrestedt","municipality":{"key":"03360030","name":"Wrestedt","type":"Kreisangehörige_Gemeinde"},"district":{"key":"03360","name":"Uelzen","type":"Landkreis"},"federalState":{"key":"03","name":"Niedersachsen"}},{"name":"Uelzener Str.","postalCode":"29559","locality":"Wrestedt","municipality":{"key":"03360030","name":"Wrestedt","type":"Kreisangehörige_Gemeinde"},"district":{"key":"03360","name":"Uelzen","type":"Landkreis"},"federalState":{"key":"03","name":"Niedersachsen"}},{"name":"Uelzer Feld","postalCode":"29559","locality":"Wrestedt","municipality":{"key":"03360030","name":"Wrestedt","type":"Kreisangehörige_Gemeinde"},"district":{"key":"03360","name":"Uelzen","type":"Landkreis"},"federalState":{"key":"03","name":"Niedersachsen"}},{"name":"Unter den Eichen","postalCode":"29559","locality":"Wrestedt","municipality":{"key":"03360030","name":"Wrestedt","type":"Kreisangehörige_Gemeinde"},"district":{"key":"03360","name":"Uelzen","type":"Landkreis"},"federalState":{"key":"03","name":"Niedersachsen"}},{"name":"Unter den Linden","postalCode":"29559","locality":"Wrestedt","municipality":{"key":"03360030","name":"Wrestedt","type":"Kreisangehörige_Gemeinde"},"district":{"key":"03360","name":"Uelzen","type":"Landkreis"},"federalState":{"key":"03","name":"Niedersachsen"}},{"name":"Vor den Lehmkuhlen","postalCode":"29559","locality":"Wrestedt","municipality":{"key":"03360030","name":"Wrestedt","type":"Kreisangehörige_Gemeinde"},"district":{"key":"03360","name":"Uelzen","type":"Landkreis"},"federalState":{"key":"03","name":"Niedersachsen"}},{"name":"Waldstr.","postalCode":"29559","locality":"Wrestedt","municipality":{"key":"03360030","name":"Wrestedt","type":"Kreisangehörige_Gemeinde"},"district":{"key":"03360","name":"Uelzen","type":"Landkreis"},"federalState":{"key":"03","name":"Niedersachsen"}},{"name":"Waldweg","postalCode":"29559","locality":"Wrestedt","municipality":{"key":"03360030","name":"Wrestedt","type":"Kreisangehörige_Gemeinde"},"district":{"key":"03360","name":"Uelzen","type":"Landkreis"},"federalState":{"key":"03","name":"Niedersachsen"}},{"name":"Wellenkamp","postalCode":"29559","locality":"Wrestedt","municipality":{"key":"03360030","name":"Wrestedt","type":"Kreisangehörige_Gemeinde"},"district":{"key":"03360","name":"Uelzen","type":"Landkreis"},"federalState":{"key":"03","name":"Niedersachsen"}},{"name":"Wiehdweg","postalCode":"29559","locality":"Wrestedt","municipality":{"key":"03360030","name":"Wrestedt","type":"Kreisangehörige_Gemeinde"},"district":{"key":"03360","name":"Uelzen","type":"Landkreis"},"federalState":{"key":"03","name":"Niedersachsen"}},{"name":"Wierener Str.","postalCode":"29559","locality":"Wrestedt","municipality":{"key":"03360030","name":"Wrestedt","type":"Kreisangehörige_Gemeinde"},"district":{"key":"03360","name":"Uelzen","type":"Landkreis"},"federalState":{"key":"03","name":"Niedersachsen"}},{"name":"Wierener Weg","postalCode":"29559","locality":"Wrestedt","municipality":{"key":"03360030","name":"Wrestedt","type":"Kreisangehörige_Gemeinde"},"district":{"key":"03360","name":"Uelzen","type":"Landkreis"},"federalState":{"key":"03","name":"Niedersachsen"}},{"name":"Wiesengrund","postalCode":"29559","locality":"Wrestedt","municipality":{"key":"03360030","name":"Wrestedt","type":"Kreisangehörige_Gemeinde"},"district":{"key":"03360","name":"Uelzen","type":"Landkreis"},"federalState":{"key":"03","name":"Niedersachsen"}},{"name":"Wiesenhöfe","postalCode":"29559","locality":"Wrestedt","municipality":{"key":"03360030","name":"Wrestedt","type":"Kreisangehörige_Gemeinde"},"district":{"key":"03360","name":"Uelzen","type":"Landkreis"},"federalState":{"key":"03","name":"Niedersachsen"}},{"name":"Wiesenstr.","postalCode":"29559","locality":"Wrestedt","municipality":{"key":"03360030","name":"Wrestedt","type":"Kreisangehörige_Gemeinde"},"district":{"key":"03360","name":"Uelzen","type":"Landkreis"},"federalState":{"key":"03","name":"Niedersachsen"}},{"name":"Wiesenweg","postalCode":"29559","locality":"Wrestedt","municipality":{"key":"03360030","name":"Wrestedt","type":"Kreisangehörige_Gemeinde"},"district":{"key":"03360","name":"Uelzen","type":"Landkreis"},"federalState":{"key":"03","name":"Niedersachsen"}},{"name":"Wietsahlsweg","postalCode":"29559","locality":"Wrestedt","municipality":{"key":"03360030","name":"Wrestedt","type":"Kreisangehörige_Gemeinde"},"district":{"key":"03360","name":"Uelzen","type":"Landkreis"},"federalState":{"key":"03","name":"Niedersachsen"}},{"name":"Windmühlenweg","postalCode":"29559","locality":"Wrestedt","municipality":{"key":"03360030","name":"Wrestedt","type":"Kreisangehörige_Gemeinde"},"district":{"key":"03360","name":"Uelzen","type":"Landkreis"},"federalState":{"key":"03","name":"Niedersachsen"}},{"name":"Winkelgasse","postalCode":"29559","locality":"Wrestedt","municipality":{"key":"03360030","name":"Wrestedt","type":"Kreisangehörige_Gemeinde"},"district":{"key":"03360","name":"Uelzen","type":"Landkreis"},"federalState":{"key":"03","name":"Niedersachsen"}},{"name":"Wischhof","postalCode":"29559","locality":"Wrestedt","municipality":{"key":"03360030","name":"Wrestedt","type":"Kreisangehörige_Gemeinde"},"district":{"key":"03360","name":"Uelzen","type":"Landkreis"},"federalState":{"key":"03","name":"Niedersachsen"}},{"name":"Wrestedter Str.","postalCode":"29559","locality":"Wrestedt","municipality":{"key":"03360030","name":"Wrestedt","type":"Kreisangehörige_Gemeinde"},"district":{"key":"03360","name":"Uelzen","type":"Landkreis"},"federalState":{"key":"03","name":"Niedersachsen"}},{"name":"Zum Breek","postalCode":"29559","locality":"Wrestedt","municipality":{"key":"03360030","name":"Wrestedt","type":"Kreisangehörige_Gemeinde"},"district":{"key":"03360","name":"Uelzen","type":"Landkreis"},"federalState":{"key":"03","name":"Niedersachsen"}},{"name":"Zum Bruch","postalCode":"29559","locality":"Wrestedt","municipality":{"key":"03360030","name":"Wrestedt","type":"Kreisangehörige_Gemeinde"},"district":{"key":"03360","name":"Uelzen","type":"Landkreis"},"federalState":{"key":"03","name":"Niedersachsen"}},{"name":"Zum Fahrenbeck","postalCode":"29559","locality":"Wrestedt","municipality":{"key":"03360030","name":"Wrestedt","type":"Kreisangehörige_Gemeinde"},"district":{"key":"03360","name":"Uelzen","type":"Landkreis"},"federalState":{"key":"03","name":"Niedersachsen"}},{"name":"Zum Kalthaus","postalCode":"29559","locality":"Wrestedt","municipality":{"key":"03360030","name":"Wrestedt","type":"Kreisangehörige_Gemeinde"},"district":{"key":"03360","name":"Uelzen","type":"Landkreis"},"federalState":{"key":"03","name":"Niedersachsen"}},{"name":"Zum Loog","postalCode":"29559","locality":"Wrestedt","municipality":{"key":"03360030","name":"Wrestedt","type":"Kreisangehörige_Gemeinde"},"district":{"key":"03360","name":"Uelzen","type":"Landkreis"},"federalState":{"key":"03","name":"Niedersachsen"}},{"name":"Zum Sowelaken","postalCode":"29559","locality":"Wrestedt","municipality":{"key":"03360030","name":"Wrestedt","type":"Kreisangehörige_Gemeinde"},"district":{"key":"03360","name":"Uelzen","type":"Landkreis"},"federalState":{"key":"03","name":"Niedersachsen"}},{"name":"Zur alten Kirche","postalCode":"29559","locality":"Wrestedt","municipality":{"key":"03360030","name":"Wrestedt","type":"Kreisangehörige_Gemeinde"},"district":{"key":"03360","name":"Uelzen","type":"Landkreis"},"federalState":{"key":"03","name":"Niedersachsen"}},{"name":"Zur alten Mühle","postalCode":"29559","locality":"Wrestedt","municipality":{"key":"03360030","name":"Wrestedt","type":"Kreisangehörige_Gemeinde"},"district":{"key":"03360","name":"Uelzen","type":"Landkreis"},"federalState":{"key":"03","name":"Niedersachsen"}},]