[{"name":"alte Brücke","postalCode":"61279","locality":"Grävenwiesbach","municipality":{"key":"06434004","name":"Grävenwiesbach","type":"Kreisangehörige_Gemeinde"},"district":{"key":"06434","name":"Hochtaunuskreis","type":"Landkreis"},"federalState":{"key":"06","name":"Hessen"}},{"name":"Alte Kirchgasse","postalCode":"61279","locality":"Grävenwiesbach","municipality":{"key":"06434004","name":"Grävenwiesbach","type":"Kreisangehörige_Gemeinde"},"district":{"key":"06434","name":"Hochtaunuskreis","type":"Landkreis"},"federalState":{"key":"06","name":"Hessen"}},{"name":"Alter Pfad","postalCode":"61279","locality":"Grävenwiesbach","municipality":{"key":"06434004","name":"Grävenwiesbach","type":"Kreisangehörige_Gemeinde"},"district":{"key":"06434","name":"Hochtaunuskreis","type":"Landkreis"},"federalState":{"key":"06","name":"Hessen"}},{"name":"Am Bahndamm","postalCode":"61279","locality":"Grävenwiesbach","municipality":{"key":"06434004","name":"Grävenwiesbach","type":"Kreisangehörige_Gemeinde"},"district":{"key":"06434","name":"Hochtaunuskreis","type":"Landkreis"},"federalState":{"key":"06","name":"Hessen"}},{"name":"Am Bangert","postalCode":"61279","locality":"Grävenwiesbach","municipality":{"key":"06434004","name":"Grävenwiesbach","type":"Kreisangehörige_Gemeinde"},"district":{"key":"06434","name":"Hochtaunuskreis","type":"Landkreis"},"federalState":{"key":"06","name":"Hessen"}},{"name":"Am Bornrain","postalCode":"61279","locality":"Grävenwiesbach","municipality":{"key":"06434004","name":"Grävenwiesbach","type":"Kreisangehörige_Gemeinde"},"district":{"key":"06434","name":"Hochtaunuskreis","type":"Landkreis"},"federalState":{"key":"06","name":"Hessen"}},{"name":"Am Feldweg","postalCode":"61279","locality":"Grävenwiesbach","municipality":{"key":"06434004","name":"Grävenwiesbach","type":"Kreisangehörige_Gemeinde"},"district":{"key":"06434","name":"Hochtaunuskreis","type":"Landkreis"},"federalState":{"key":"06","name":"Hessen"}},{"name":"Am Geiersberg","postalCode":"61279","locality":"Grävenwiesbach","municipality":{"key":"06434004","name":"Grävenwiesbach","type":"Kreisangehörige_Gemeinde"},"district":{"key":"06434","name":"Hochtaunuskreis","type":"Landkreis"},"federalState":{"key":"06","name":"Hessen"}},{"name":"Am Hardtköppel","postalCode":"61279","locality":"Grävenwiesbach","municipality":{"key":"06434004","name":"Grävenwiesbach","type":"Kreisangehörige_Gemeinde"},"district":{"key":"06434","name":"Hochtaunuskreis","type":"Landkreis"},"federalState":{"key":"06","name":"Hessen"}},{"name":"Am Mühlberg","postalCode":"61279","locality":"Grävenwiesbach","municipality":{"key":"06434004","name":"Grävenwiesbach","type":"Kreisangehörige_Gemeinde"},"district":{"key":"06434","name":"Hochtaunuskreis","type":"Landkreis"},"federalState":{"key":"06","name":"Hessen"}},{"name":"Am Scheidweg","postalCode":"61279","locality":"Grävenwiesbach","municipality":{"key":"06434004","name":"Grävenwiesbach","type":"Kreisangehörige_Gemeinde"},"district":{"key":"06434","name":"Hochtaunuskreis","type":"Landkreis"},"federalState":{"key":"06","name":"Hessen"}},{"name":"Am Schindling","postalCode":"61279","locality":"Grävenwiesbach","municipality":{"key":"06434004","name":"Grävenwiesbach","type":"Kreisangehörige_Gemeinde"},"district":{"key":"06434","name":"Hochtaunuskreis","type":"Landkreis"},"federalState":{"key":"06","name":"Hessen"}},{"name":"Am Schlagbaum","postalCode":"61279","locality":"Grävenwiesbach","municipality":{"key":"06434004","name":"Grävenwiesbach","type":"Kreisangehörige_Gemeinde"},"district":{"key":"06434","name":"Hochtaunuskreis","type":"Landkreis"},"federalState":{"key":"06","name":"Hessen"}},{"name":"Am Schlittenberg","postalCode":"61279","locality":"Grävenwiesbach","municipality":{"key":"06434004","name":"Grävenwiesbach","type":"Kreisangehörige_Gemeinde"},"district":{"key":"06434","name":"Hochtaunuskreis","type":"Landkreis"},"federalState":{"key":"06","name":"Hessen"}},{"name":"Am Sonnenberg","postalCode":"61279","locality":"Grävenwiesbach","municipality":{"key":"06434004","name":"Grävenwiesbach","type":"Kreisangehörige_Gemeinde"},"district":{"key":"06434","name":"Hochtaunuskreis","type":"Landkreis"},"federalState":{"key":"06","name":"Hessen"}},{"name":"Am Tunnel","postalCode":"61279","locality":"Grävenwiesbach","municipality":{"key":"06434004","name":"Grävenwiesbach","type":"Kreisangehörige_Gemeinde"},"district":{"key":"06434","name":"Hochtaunuskreis","type":"Landkreis"},"federalState":{"key":"06","name":"Hessen"}},{"name":"Am Weinberg","postalCode":"61279","locality":"Grävenwiesbach","municipality":{"key":"06434004","name":"Grävenwiesbach","type":"Kreisangehörige_Gemeinde"},"district":{"key":"06434","name":"Hochtaunuskreis","type":"Landkreis"},"federalState":{"key":"06","name":"Hessen"}},{"name":"Am Wenzelflecken","postalCode":"61279","locality":"Grävenwiesbach","municipality":{"key":"06434004","name":"Grävenwiesbach","type":"Kreisangehörige_Gemeinde"},"district":{"key":"06434","name":"Hochtaunuskreis","type":"Landkreis"},"federalState":{"key":"06","name":"Hessen"}},{"name":"Am Wolfsloch","postalCode":"61279","locality":"Grävenwiesbach","municipality":{"key":"06434004","name":"Grävenwiesbach","type":"Kreisangehörige_Gemeinde"},"district":{"key":"06434","name":"Hochtaunuskreis","type":"Landkreis"},"federalState":{"key":"06","name":"Hessen"}},{"name":"Am Zellbaum","postalCode":"61279","locality":"Grävenwiesbach","municipality":{"key":"06434004","name":"Grävenwiesbach","type":"Kreisangehörige_Gemeinde"},"district":{"key":"06434","name":"Hochtaunuskreis","type":"Landkreis"},"federalState":{"key":"06","name":"Hessen"}},{"name":"An der Lehmkauthalle","postalCode":"61279","locality":"Grävenwiesbach","municipality":{"key":"06434004","name":"Grävenwiesbach","type":"Kreisangehörige_Gemeinde"},"district":{"key":"06434","name":"Hochtaunuskreis","type":"Landkreis"},"federalState":{"key":"06","name":"Hessen"}},{"name":"Astrid-Lindgren-Str.","postalCode":"61279","locality":"Grävenwiesbach","municipality":{"key":"06434004","name":"Grävenwiesbach","type":"Kreisangehörige_Gemeinde"},"district":{"key":"06434","name":"Hochtaunuskreis","type":"Landkreis"},"federalState":{"key":"06","name":"Hessen"}},{"name":"Auf den Gräben","postalCode":"61279","locality":"Grävenwiesbach","municipality":{"key":"06434004","name":"Grävenwiesbach","type":"Kreisangehörige_Gemeinde"},"district":{"key":"06434","name":"Hochtaunuskreis","type":"Landkreis"},"federalState":{"key":"06","name":"Hessen"}},{"name":"Auf der Hohl","postalCode":"61279","locality":"Grävenwiesbach","municipality":{"key":"06434004","name":"Grävenwiesbach","type":"Kreisangehörige_Gemeinde"},"district":{"key":"06434","name":"Hochtaunuskreis","type":"Landkreis"},"federalState":{"key":"06","name":"Hessen"}},{"name":"Auf der Wies","postalCode":"61279","locality":"Grävenwiesbach","municipality":{"key":"06434004","name":"Grävenwiesbach","type":"Kreisangehörige_Gemeinde"},"district":{"key":"06434","name":"Hochtaunuskreis","type":"Landkreis"},"federalState":{"key":"06","name":"Hessen"}},{"name":"Bachstr.","postalCode":"61279","locality":"Grävenwiesbach","municipality":{"key":"06434004","name":"Grävenwiesbach","type":"Kreisangehörige_Gemeinde"},"district":{"key":"06434","name":"Hochtaunuskreis","type":"Landkreis"},"federalState":{"key":"06","name":"Hessen"}},{"name":"Bahnhof","postalCode":"61279","locality":"Grävenwiesbach","municipality":{"key":"06434004","name":"Grävenwiesbach","type":"Kreisangehörige_Gemeinde"},"district":{"key":"06434","name":"Hochtaunuskreis","type":"Landkreis"},"federalState":{"key":"06","name":"Hessen"}},{"name":"Bahnhofstr.","postalCode":"61279","locality":"Grävenwiesbach","municipality":{"key":"06434004","name":"Grävenwiesbach","type":"Kreisangehörige_Gemeinde"},"district":{"key":"06434","name":"Hochtaunuskreis","type":"Landkreis"},"federalState":{"key":"06","name":"Hessen"}},{"name":"Bahnhofsweg","postalCode":"61279","locality":"Grävenwiesbach","municipality":{"key":"06434004","name":"Grävenwiesbach","type":"Kreisangehörige_Gemeinde"},"district":{"key":"06434","name":"Hochtaunuskreis","type":"Landkreis"},"federalState":{"key":"06","name":"Hessen"}},{"name":"Bauertstr.","postalCode":"66894","locality":"Wiesbach","municipality":{"key":"07340227","name":"Wiesbach","type":"Kreisangehörige_Gemeinde"},"district":{"key":"07340","name":"Südwestpfalz","type":"Landkreis"},"federalState":{"key":"07","name":"Rheinland-Pfalz"}},{"name":"Berliner Str.","postalCode":"61279","locality":"Grävenwiesbach","municipality":{"key":"06434004","name":"Grävenwiesbach","type":"Kreisangehörige_Gemeinde"},"district":{"key":"06434","name":"Hochtaunuskreis","type":"Landkreis"},"federalState":{"key":"06","name":"Hessen"}},{"name":"Birkenweg","postalCode":"61279","locality":"Grävenwiesbach","municipality":{"key":"06434004","name":"Grävenwiesbach","type":"Kreisangehörige_Gemeinde"},"district":{"key":"06434","name":"Hochtaunuskreis","type":"Landkreis"},"federalState":{"key":"06","name":"Hessen"}},{"name":"Bornweg","postalCode":"61279","locality":"Grävenwiesbach","municipality":{"key":"06434004","name":"Grävenwiesbach","type":"Kreisangehörige_Gemeinde"},"district":{"key":"06434","name":"Hochtaunuskreis","type":"Landkreis"},"federalState":{"key":"06","name":"Hessen"}},{"name":"Bornwiesen","postalCode":"61279","locality":"Grävenwiesbach","municipality":{"key":"06434004","name":"Grävenwiesbach","type":"Kreisangehörige_Gemeinde"},"district":{"key":"06434","name":"Hochtaunuskreis","type":"Landkreis"},"federalState":{"key":"06","name":"Hessen"}},{"name":"Breslauer Str.","postalCode":"61279","locality":"Grävenwiesbach","municipality":{"key":"06434004","name":"Grävenwiesbach","type":"Kreisangehörige_Gemeinde"},"district":{"key":"06434","name":"Hochtaunuskreis","type":"Landkreis"},"federalState":{"key":"06","name":"Hessen"}},{"name":"Buchenweg","postalCode":"61279","locality":"Grävenwiesbach","municipality":{"key":"06434004","name":"Grävenwiesbach","type":"Kreisangehörige_Gemeinde"},"district":{"key":"06434","name":"Hochtaunuskreis","type":"Landkreis"},"federalState":{"key":"06","name":"Hessen"}},{"name":"Danziger Str.","postalCode":"61279","locality":"Grävenwiesbach","municipality":{"key":"06434004","name":"Grävenwiesbach","type":"Kreisangehörige_Gemeinde"},"district":{"key":"06434","name":"Hochtaunuskreis","type":"Landkreis"},"federalState":{"key":"06","name":"Hessen"}},{"name":"Die Pforte","postalCode":"61279","locality":"Grävenwiesbach","municipality":{"key":"06434004","name":"Grävenwiesbach","type":"Kreisangehörige_Gemeinde"},"district":{"key":"06434","name":"Hochtaunuskreis","type":"Landkreis"},"federalState":{"key":"06","name":"Hessen"}},{"name":"Eckgasse","postalCode":"61279","locality":"Grävenwiesbach","municipality":{"key":"06434004","name":"Grävenwiesbach","type":"Kreisangehörige_Gemeinde"},"district":{"key":"06434","name":"Hochtaunuskreis","type":"Landkreis"},"federalState":{"key":"06","name":"Hessen"}},{"name":"Egerländer Str.","postalCode":"61279","locality":"Grävenwiesbach","municipality":{"key":"06434004","name":"Grävenwiesbach","type":"Kreisangehörige_Gemeinde"},"district":{"key":"06434","name":"Hochtaunuskreis","type":"Landkreis"},"federalState":{"key":"06","name":"Hessen"}},{"name":"Erbegasse","postalCode":"61279","locality":"Grävenwiesbach","municipality":{"key":"06434004","name":"Grävenwiesbach","type":"Kreisangehörige_Gemeinde"},"district":{"key":"06434","name":"Hochtaunuskreis","type":"Landkreis"},"federalState":{"key":"06","name":"Hessen"}},{"name":"Erich-Kästner-Str.","postalCode":"61279","locality":"Grävenwiesbach","municipality":{"key":"06434004","name":"Grävenwiesbach","type":"Kreisangehörige_Gemeinde"},"district":{"key":"06434","name":"Hochtaunuskreis","type":"Landkreis"},"federalState":{"key":"06","name":"Hessen"}},{"name":"Erlenstr.","postalCode":"61279","locality":"Grävenwiesbach","municipality":{"key":"06434004","name":"Grävenwiesbach","type":"Kreisangehörige_Gemeinde"},"district":{"key":"06434","name":"Hochtaunuskreis","type":"Landkreis"},"federalState":{"key":"06","name":"Hessen"}},{"name":"Fasanenweg","postalCode":"61279","locality":"Grävenwiesbach","municipality":{"key":"06434004","name":"Grävenwiesbach","type":"Kreisangehörige_Gemeinde"},"district":{"key":"06434","name":"Hochtaunuskreis","type":"Landkreis"},"federalState":{"key":"06","name":"Hessen"}},{"name":"Feldbergstr.","postalCode":"61279","locality":"Grävenwiesbach","municipality":{"key":"06434004","name":"Grävenwiesbach","type":"Kreisangehörige_Gemeinde"},"district":{"key":"06434","name":"Hochtaunuskreis","type":"Landkreis"},"federalState":{"key":"06","name":"Hessen"}},{"name":"Forsthausstr.","postalCode":"61279","locality":"Grävenwiesbach","municipality":{"key":"06434004","name":"Grävenwiesbach","type":"Kreisangehörige_Gemeinde"},"district":{"key":"06434","name":"Hochtaunuskreis","type":"Landkreis"},"federalState":{"key":"06","name":"Hessen"}},{"name":"Forstweg","postalCode":"61279","locality":"Grävenwiesbach","municipality":{"key":"06434004","name":"Grävenwiesbach","type":"Kreisangehörige_Gemeinde"},"district":{"key":"06434","name":"Hochtaunuskreis","type":"Landkreis"},"federalState":{"key":"06","name":"Hessen"}},{"name":"Frankfurter Str.","postalCode":"61279","locality":"Grävenwiesbach","municipality":{"key":"06434004","name":"Grävenwiesbach","type":"Kreisangehörige_Gemeinde"},"district":{"key":"06434","name":"Hochtaunuskreis","type":"Landkreis"},"federalState":{"key":"06","name":"Hessen"}},{"name":"Friedhofstr.","postalCode":"61279","locality":"Grävenwiesbach","municipality":{"key":"06434004","name":"Grävenwiesbach","type":"Kreisangehörige_Gemeinde"},"district":{"key":"06434","name":"Hochtaunuskreis","type":"Landkreis"},"federalState":{"key":"06","name":"Hessen"}},{"name":"Friedhofsweg","postalCode":"61279","locality":"Grävenwiesbach","municipality":{"key":"06434004","name":"Grävenwiesbach","type":"Kreisangehörige_Gemeinde"},"district":{"key":"06434","name":"Hochtaunuskreis","type":"Landkreis"},"federalState":{"key":"06","name":"Hessen"}},{"name":"Gartenstr.","postalCode":"61279","locality":"Grävenwiesbach","municipality":{"key":"06434004","name":"Grävenwiesbach","type":"Kreisangehörige_Gemeinde"},"district":{"key":"06434","name":"Hochtaunuskreis","type":"Landkreis"},"federalState":{"key":"06","name":"Hessen"}},{"name":"Gartenweg","postalCode":"61279","locality":"Grävenwiesbach","municipality":{"key":"06434004","name":"Grävenwiesbach","type":"Kreisangehörige_Gemeinde"},"district":{"key":"06434","name":"Hochtaunuskreis","type":"Landkreis"},"federalState":{"key":"06","name":"Hessen"}},{"name":"Hasselborner Str.","postalCode":"61279","locality":"Grävenwiesbach","municipality":{"key":"06434004","name":"Grävenwiesbach","type":"Kreisangehörige_Gemeinde"},"district":{"key":"06434","name":"Hochtaunuskreis","type":"Landkreis"},"federalState":{"key":"06","name":"Hessen"}},{"name":"Hauptstr.","postalCode":"61279","locality":"Grävenwiesbach","municipality":{"key":"06434004","name":"Grävenwiesbach","type":"Kreisangehörige_Gemeinde"},"district":{"key":"06434","name":"Hochtaunuskreis","type":"Landkreis"},"federalState":{"key":"06","name":"Hessen"}},{"name":"Hauptstr.","postalCode":"66894","locality":"Wiesbach","municipality":{"key":"07340227","name":"Wiesbach","type":"Kreisangehörige_Gemeinde"},"district":{"key":"07340","name":"Südwestpfalz","type":"Landkreis"},"federalState":{"key":"07","name":"Rheinland-Pfalz"}},{"name":"Heuweg","postalCode":"61279","locality":"Grävenwiesbach","municipality":{"key":"06434004","name":"Grävenwiesbach","type":"Kreisangehörige_Gemeinde"},"district":{"key":"06434","name":"Hochtaunuskreis","type":"Landkreis"},"federalState":{"key":"06","name":"Hessen"}},{"name":"Hintergasse","postalCode":"61279","locality":"Grävenwiesbach","municipality":{"key":"06434004","name":"Grävenwiesbach","type":"Kreisangehörige_Gemeinde"},"district":{"key":"06434","name":"Hochtaunuskreis","type":"Landkreis"},"federalState":{"key":"06","name":"Hessen"}},{"name":"In der Hohl","postalCode":"61279","locality":"Grävenwiesbach","municipality":{"key":"06434004","name":"Grävenwiesbach","type":"Kreisangehörige_Gemeinde"},"district":{"key":"06434","name":"Hochtaunuskreis","type":"Landkreis"},"federalState":{"key":"06","name":"Hessen"}},{"name":"Industriestr.","postalCode":"61279","locality":"Grävenwiesbach","municipality":{"key":"06434004","name":"Grävenwiesbach","type":"Kreisangehörige_Gemeinde"},"district":{"key":"06434","name":"Hochtaunuskreis","type":"Landkreis"},"federalState":{"key":"06","name":"Hessen"}},{"name":"Käseweg","postalCode":"61279","locality":"Grävenwiesbach","municipality":{"key":"06434004","name":"Grävenwiesbach","type":"Kreisangehörige_Gemeinde"},"district":{"key":"06434","name":"Hochtaunuskreis","type":"Landkreis"},"federalState":{"key":"06","name":"Hessen"}},{"name":"Kirchenstr.","postalCode":"66894","locality":"Wiesbach","municipality":{"key":"07340227","name":"Wiesbach","type":"Kreisangehörige_Gemeinde"},"district":{"key":"07340","name":"Südwestpfalz","type":"Landkreis"},"federalState":{"key":"07","name":"Rheinland-Pfalz"}},{"name":"Kirchgasse","postalCode":"61279","locality":"Grävenwiesbach","municipality":{"key":"06434004","name":"Grävenwiesbach","type":"Kreisangehörige_Gemeinde"},"district":{"key":"06434","name":"Hochtaunuskreis","type":"Landkreis"},"federalState":{"key":"06","name":"Hessen"}},{"name":"Kirchspieler Seite","postalCode":"61279","locality":"Grävenwiesbach","municipality":{"key":"06434004","name":"Grävenwiesbach","type":"Kreisangehörige_Gemeinde"},"district":{"key":"06434","name":"Hochtaunuskreis","type":"Landkreis"},"federalState":{"key":"06","name":"Hessen"}},{"name":"Königsberger Str.","postalCode":"61279","locality":"Grävenwiesbach","municipality":{"key":"06434004","name":"Grävenwiesbach","type":"Kreisangehörige_Gemeinde"},"district":{"key":"06434","name":"Hochtaunuskreis","type":"Landkreis"},"federalState":{"key":"06","name":"Hessen"}},{"name":"Köppeler Weg","postalCode":"61279","locality":"Grävenwiesbach","municipality":{"key":"06434004","name":"Grävenwiesbach","type":"Kreisangehörige_Gemeinde"},"district":{"key":"06434","name":"Hochtaunuskreis","type":"Landkreis"},"federalState":{"key":"06","name":"Hessen"}},{"name":"Lamachstr.","postalCode":"66894","locality":"Wiesbach","municipality":{"key":"07340227","name":"Wiesbach","type":"Kreisangehörige_Gemeinde"},"district":{"key":"07340","name":"Südwestpfalz","type":"Landkreis"},"federalState":{"key":"07","name":"Rheinland-Pfalz"}},{"name":"Langgasse","postalCode":"61279","locality":"Grävenwiesbach","municipality":{"key":"06434004","name":"Grävenwiesbach","type":"Kreisangehörige_Gemeinde"},"district":{"key":"06434","name":"Hochtaunuskreis","type":"Landkreis"},"federalState":{"key":"06","name":"Hessen"}},{"name":"Lindenstr.","postalCode":"61279","locality":"Grävenwiesbach","municipality":{"key":"06434004","name":"Grävenwiesbach","type":"Kreisangehörige_Gemeinde"},"district":{"key":"06434","name":"Hochtaunuskreis","type":"Landkreis"},"federalState":{"key":"06","name":"Hessen"}},{"name":"Michael-Ende-Str.","postalCode":"61279","locality":"Grävenwiesbach","municipality":{"key":"06434004","name":"Grävenwiesbach","type":"Kreisangehörige_Gemeinde"},"district":{"key":"06434","name":"Hochtaunuskreis","type":"Landkreis"},"federalState":{"key":"06","name":"Hessen"}},{"name":"Mönchweg","postalCode":"61279","locality":"Grävenwiesbach","municipality":{"key":"06434004","name":"Grävenwiesbach","type":"Kreisangehörige_Gemeinde"},"district":{"key":"06434","name":"Hochtaunuskreis","type":"Landkreis"},"federalState":{"key":"06","name":"Hessen"}},{"name":"Mönstädter Str.","postalCode":"61279","locality":"Grävenwiesbach","municipality":{"key":"06434004","name":"Grävenwiesbach","type":"Kreisangehörige_Gemeinde"},"district":{"key":"06434","name":"Hochtaunuskreis","type":"Landkreis"},"federalState":{"key":"06","name":"Hessen"}},{"name":"Mönstadter Weg","postalCode":"61279","locality":"Grävenwiesbach","municipality":{"key":"06434004","name":"Grävenwiesbach","type":"Kreisangehörige_Gemeinde"},"district":{"key":"06434","name":"Hochtaunuskreis","type":"Landkreis"},"federalState":{"key":"06","name":"Hessen"}},{"name":"Mühlweg","postalCode":"61279","locality":"Grävenwiesbach","municipality":{"key":"06434004","name":"Grävenwiesbach","type":"Kreisangehörige_Gemeinde"},"district":{"key":"06434","name":"Hochtaunuskreis","type":"Landkreis"},"federalState":{"key":"06","name":"Hessen"}},{"name":"Naunstädter Str.","postalCode":"61279","locality":"Grävenwiesbach","municipality":{"key":"06434004","name":"Grävenwiesbach","type":"Kreisangehörige_Gemeinde"},"district":{"key":"06434","name":"Hochtaunuskreis","type":"Landkreis"},"federalState":{"key":"06","name":"Hessen"}},{"name":"Naunstädter Weg","postalCode":"61279","locality":"Grävenwiesbach","municipality":{"key":"06434004","name":"Grävenwiesbach","type":"Kreisangehörige_Gemeinde"},"district":{"key":"06434","name":"Hochtaunuskreis","type":"Landkreis"},"federalState":{"key":"06","name":"Hessen"}},{"name":"Neue Kirchgasse","postalCode":"61279","locality":"Grävenwiesbach","municipality":{"key":"06434004","name":"Grävenwiesbach","type":"Kreisangehörige_Gemeinde"},"district":{"key":"06434","name":"Hochtaunuskreis","type":"Landkreis"},"federalState":{"key":"06","name":"Hessen"}},{"name":"Obergasse","postalCode":"61279","locality":"Grävenwiesbach","municipality":{"key":"06434004","name":"Grävenwiesbach","type":"Kreisangehörige_Gemeinde"},"district":{"key":"06434","name":"Hochtaunuskreis","type":"Landkreis"},"federalState":{"key":"06","name":"Hessen"}},{"name":"Otfried-Preußler-Str.","postalCode":"61279","locality":"Grävenwiesbach","municipality":{"key":"06434004","name":"Grävenwiesbach","type":"Kreisangehörige_Gemeinde"},"district":{"key":"06434","name":"Hochtaunuskreis","type":"Landkreis"},"federalState":{"key":"06","name":"Hessen"}},{"name":"Rathausweg","postalCode":"61279","locality":"Grävenwiesbach","municipality":{"key":"06434004","name":"Grävenwiesbach","type":"Kreisangehörige_Gemeinde"},"district":{"key":"06434","name":"Hochtaunuskreis","type":"Landkreis"},"federalState":{"key":"06","name":"Hessen"}},{"name":"Richard-Schirrmann-Str.","postalCode":"61279","locality":"Grävenwiesbach","municipality":{"key":"06434004","name":"Grävenwiesbach","type":"Kreisangehörige_Gemeinde"},"district":{"key":"06434","name":"Hochtaunuskreis","type":"Landkreis"},"federalState":{"key":"06","name":"Hessen"}},{"name":"Schickelsbrücke","postalCode":"61279","locality":"Grävenwiesbach","municipality":{"key":"06434004","name":"Grävenwiesbach","type":"Kreisangehörige_Gemeinde"},"district":{"key":"06434","name":"Hochtaunuskreis","type":"Landkreis"},"federalState":{"key":"06","name":"Hessen"}},{"name":"Schlagweg","postalCode":"61279","locality":"Grävenwiesbach","municipality":{"key":"06434004","name":"Grävenwiesbach","type":"Kreisangehörige_Gemeinde"},"district":{"key":"06434","name":"Hochtaunuskreis","type":"Landkreis"},"federalState":{"key":"06","name":"Hessen"}},{"name":"Schmiedelsweg","postalCode":"61279","locality":"Grävenwiesbach","municipality":{"key":"06434004","name":"Grävenwiesbach","type":"Kreisangehörige_Gemeinde"},"district":{"key":"06434","name":"Hochtaunuskreis","type":"Landkreis"},"federalState":{"key":"06","name":"Hessen"}},{"name":"Schulstr.","postalCode":"61279","locality":"Grävenwiesbach","municipality":{"key":"06434004","name":"Grävenwiesbach","type":"Kreisangehörige_Gemeinde"},"district":{"key":"06434","name":"Hochtaunuskreis","type":"Landkreis"},"federalState":{"key":"06","name":"Hessen"}},{"name":"Schulstr.","postalCode":"66894","locality":"Wiesbach","municipality":{"key":"07340227","name":"Wiesbach","type":"Kreisangehörige_Gemeinde"},"district":{"key":"07340","name":"Südwestpfalz","type":"Landkreis"},"federalState":{"key":"07","name":"Rheinland-Pfalz"}},{"name":"Seßbergstr.","postalCode":"66894","locality":"Wiesbach","municipality":{"key":"07340227","name":"Wiesbach","type":"Kreisangehörige_Gemeinde"},"district":{"key":"07340","name":"Südwestpfalz","type":"Landkreis"},"federalState":{"key":"07","name":"Rheinland-Pfalz"}},{"name":"Sportplatzstr.","postalCode":"61279","locality":"Grävenwiesbach","municipality":{"key":"06434004","name":"Grävenwiesbach","type":"Kreisangehörige_Gemeinde"},"district":{"key":"06434","name":"Hochtaunuskreis","type":"Landkreis"},"federalState":{"key":"06","name":"Hessen"}},{"name":"Steinkertzbachstr.","postalCode":"61279","locality":"Grävenwiesbach","municipality":{"key":"06434004","name":"Grävenwiesbach","type":"Kreisangehörige_Gemeinde"},"district":{"key":"06434","name":"Hochtaunuskreis","type":"Landkreis"},"federalState":{"key":"06","name":"Hessen"}},{"name":"Steinstr.","postalCode":"61279","locality":"Grävenwiesbach","municipality":{"key":"06434004","name":"Grävenwiesbach","type":"Kreisangehörige_Gemeinde"},"district":{"key":"06434","name":"Hochtaunuskreis","type":"Landkreis"},"federalState":{"key":"06","name":"Hessen"}},{"name":"Stockheimer Seite","postalCode":"61279","locality":"Grävenwiesbach","municipality":{"key":"06434004","name":"Grävenwiesbach","type":"Kreisangehörige_Gemeinde"},"district":{"key":"06434","name":"Hochtaunuskreis","type":"Landkreis"},"federalState":{"key":"06","name":"Hessen"}},{"name":"Talstr.","postalCode":"66894","locality":"Wiesbach","municipality":{"key":"07340227","name":"Wiesbach","type":"Kreisangehörige_Gemeinde"},"district":{"key":"07340","name":"Südwestpfalz","type":"Landkreis"},"federalState":{"key":"07","name":"Rheinland-Pfalz"}},{"name":"Taunusstr.","postalCode":"61279","locality":"Grävenwiesbach","municipality":{"key":"06434004","name":"Grävenwiesbach","type":"Kreisangehörige_Gemeinde"},"district":{"key":"06434","name":"Hochtaunuskreis","type":"Landkreis"},"federalState":{"key":"06","name":"Hessen"}},{"name":"Thüringer Str.","postalCode":"61279","locality":"Grävenwiesbach","municipality":{"key":"06434004","name":"Grävenwiesbach","type":"Kreisangehörige_Gemeinde"},"district":{"key":"06434","name":"Hochtaunuskreis","type":"Landkreis"},"federalState":{"key":"06","name":"Hessen"}},{"name":"Untergasse","postalCode":"61279","locality":"Grävenwiesbach","municipality":{"key":"06434004","name":"Grävenwiesbach","type":"Kreisangehörige_Gemeinde"},"district":{"key":"06434","name":"Hochtaunuskreis","type":"Landkreis"},"federalState":{"key":"06","name":"Hessen"}},{"name":"Usinger Str.","postalCode":"61279","locality":"Grävenwiesbach","municipality":{"key":"06434004","name":"Grävenwiesbach","type":"Kreisangehörige_Gemeinde"},"district":{"key":"06434","name":"Hochtaunuskreis","type":"Landkreis"},"federalState":{"key":"06","name":"Hessen"}},{"name":"Vor dem Belsgraben","postalCode":"61279","locality":"Grävenwiesbach","municipality":{"key":"06434004","name":"Grävenwiesbach","type":"Kreisangehörige_Gemeinde"},"district":{"key":"06434","name":"Hochtaunuskreis","type":"Landkreis"},"federalState":{"key":"06","name":"Hessen"}},{"name":"Weilerweg","postalCode":"61279","locality":"Grävenwiesbach","municipality":{"key":"06434004","name":"Grävenwiesbach","type":"Kreisangehörige_Gemeinde"},"district":{"key":"06434","name":"Hochtaunuskreis","type":"Landkreis"},"federalState":{"key":"06","name":"Hessen"}},{"name":"Weiltalweg","postalCode":"61279","locality":"Grävenwiesbach","municipality":{"key":"06434004","name":"Grävenwiesbach","type":"Kreisangehörige_Gemeinde"},"district":{"key":"06434","name":"Hochtaunuskreis","type":"Landkreis"},"federalState":{"key":"06","name":"Hessen"}},{"name":"Weißensteiner Weg","postalCode":"61279","locality":"Grävenwiesbach","municipality":{"key":"06434004","name":"Grävenwiesbach","type":"Kreisangehörige_Gemeinde"},"district":{"key":"06434","name":"Hochtaunuskreis","type":"Landkreis"},"federalState":{"key":"06","name":"Hessen"}},{"name":"Wellerstr.","postalCode":"61279","locality":"Grävenwiesbach","municipality":{"key":"06434004","name":"Grävenwiesbach","type":"Kreisangehörige_Gemeinde"},"district":{"key":"06434","name":"Hochtaunuskreis","type":"Landkreis"},"federalState":{"key":"06","name":"Hessen"}},{"name":"Windener Str.","postalCode":"61279","locality":"Grävenwiesbach","municipality":{"key":"06434004","name":"Grävenwiesbach","type":"Kreisangehörige_Gemeinde"},"district":{"key":"06434","name":"Hochtaunuskreis","type":"Landkreis"},"federalState":{"key":"06","name":"Hessen"}},{"name":"Zeilstr.","postalCode":"61279","locality":"Grävenwiesbach","municipality":{"key":"06434004","name":"Grävenwiesbach","type":"Kreisangehörige_Gemeinde"},"district":{"key":"06434","name":"Hochtaunuskreis","type":"Landkreis"},"federalState":{"key":"06","name":"Hessen"}},{"name":"Zingelstr.","postalCode":"61279","locality":"Grävenwiesbach","municipality":{"key":"06434004","name":"Grävenwiesbach","type":"Kreisangehörige_Gemeinde"},"district":{"key":"06434","name":"Hochtaunuskreis","type":"Landkreis"},"federalState":{"key":"06","name":"Hessen"}},]