[{"name":"Bergstr.","postalCode":"19406","locality":"Hohen Pritz","municipality":{"key":"13076062","name":"Hohen Pritz","type":"Kreisangehörige_Gemeinde"},"district":{"key":"13076","name":"Ludwigslust-Parchim","type":"Landkreis"},"federalState":{"key":"13","name":"Mecklenburg-Vorpommern"}},{"name":"Borkower Weg","postalCode":"19406","locality":"Hohen Pritz","municipality":{"key":"13076062","name":"Hohen Pritz","type":"Kreisangehörige_Gemeinde"},"district":{"key":"13076","name":"Ludwigslust-Parchim","type":"Landkreis"},"federalState":{"key":"13","name":"Mecklenburg-Vorpommern"}},{"name":"Ferienheim Sandsee","postalCode":"19406","locality":"Hohen Pritz","municipality":{"key":"13076062","name":"Hohen Pritz","type":"Kreisangehörige_Gemeinde"},"district":{"key":"13076","name":"Ludwigslust-Parchim","type":"Landkreis"},"federalState":{"key":"13","name":"Mecklenburg-Vorpommern"}},{"name":"Friedensstr.","postalCode":"19406","locality":"Hohen Pritz","municipality":{"key":"13076062","name":"Hohen Pritz","type":"Kreisangehörige_Gemeinde"},"district":{"key":"13076","name":"Ludwigslust-Parchim","type":"Landkreis"},"federalState":{"key":"13","name":"Mecklenburg-Vorpommern"}},{"name":"Fritz-Reuter-Str.","postalCode":"19406","locality":"Hohen Pritz","municipality":{"key":"13076062","name":"Hohen Pritz","type":"Kreisangehörige_Gemeinde"},"district":{"key":"13076","name":"Ludwigslust-Parchim","type":"Landkreis"},"federalState":{"key":"13","name":"Mecklenburg-Vorpommern"}},{"name":"Kastanienallee","postalCode":"19406","locality":"Hohen Pritz","municipality":{"key":"13076062","name":"Hohen Pritz","type":"Kreisangehörige_Gemeinde"},"district":{"key":"13076","name":"Ludwigslust-Parchim","type":"Landkreis"},"federalState":{"key":"13","name":"Mecklenburg-Vorpommern"}},{"name":"Lindenstr.","postalCode":"19406","locality":"Hohen Pritz","municipality":{"key":"13076062","name":"Hohen Pritz","type":"Kreisangehörige_Gemeinde"},"district":{"key":"13076","name":"Ludwigslust-Parchim","type":"Landkreis"},"federalState":{"key":"13","name":"Mecklenburg-Vorpommern"}},{"name":"Neue Str.","postalCode":"19406","locality":"Hohen Pritz","municipality":{"key":"13076062","name":"Hohen Pritz","type":"Kreisangehörige_Gemeinde"},"district":{"key":"13076","name":"Ludwigslust-Parchim","type":"Landkreis"},"federalState":{"key":"13","name":"Mecklenburg-Vorpommern"}},{"name":"Niendorfer Weg","postalCode":"19406","locality":"Hohen Pritz","municipality":{"key":"13076062","name":"Hohen Pritz","type":"Kreisangehörige_Gemeinde"},"district":{"key":"13076","name":"Ludwigslust-Parchim","type":"Landkreis"},"federalState":{"key":"13","name":"Mecklenburg-Vorpommern"}},{"name":"Parchimer Str.","postalCode":"19406","locality":"Hohen Pritz","municipality":{"key":"13076062","name":"Hohen Pritz","type":"Kreisangehörige_Gemeinde"},"district":{"key":"13076","name":"Ludwigslust-Parchim","type":"Landkreis"},"federalState":{"key":"13","name":"Mecklenburg-Vorpommern"}},{"name":"Ruester Weg","postalCode":"19406","locality":"Hohen Pritz","municipality":{"key":"13076062","name":"Hohen Pritz","type":"Kreisangehörige_Gemeinde"},"district":{"key":"13076","name":"Ludwigslust-Parchim","type":"Landkreis"},"federalState":{"key":"13","name":"Mecklenburg-Vorpommern"}},{"name":"Seestr.","postalCode":"19406","locality":"Hohen Pritz","municipality":{"key":"13076062","name":"Hohen Pritz","type":"Kreisangehörige_Gemeinde"},"district":{"key":"13076","name":"Ludwigslust-Parchim","type":"Landkreis"},"federalState":{"key":"13","name":"Mecklenburg-Vorpommern"}},{"name":"Wamckower Str.","postalCode":"19406","locality":"Hohen Pritz","municipality":{"key":"13076062","name":"Hohen Pritz","type":"Kreisangehörige_Gemeinde"},"district":{"key":"13076","name":"Ludwigslust-Parchim","type":"Landkreis"},"federalState":{"key":"13","name":"Mecklenburg-Vorpommern"}},]