[{"key":"10168198","name":"Au Château","postalCode":"1608","locality":"Oron-le-Châtel","commune":{"key":"5805","name":"Oron","shortName":"Oron"},"district":{"key":"2226","name":"District de Lavaux-Oron"},"canton":{"key":"22","code":"VD","name":"Vaud"},"status":"Real"},{"key":"10037189","name":"Au Grassey","postalCode":"1610","locality":"Oron-la-Ville","commune":{"key":"5805","name":"Oron","shortName":"Oron"},"district":{"key":"2226","name":"District de Lavaux-Oron"},"canton":{"key":"22","code":"VD","name":"Vaud"},"status":"Real"},{"key":"10099280","name":"Bas-Crochet","postalCode":"1610","locality":"Oron-la-Ville","commune":{"key":"5805","name":"Oron","shortName":"Oron"},"district":{"key":"2226","name":"District de Lavaux-Oron"},"canton":{"key":"22","code":"VD","name":"Vaud"},"status":"Real"},{"key":"10099240","name":"Chemin Bellevue","postalCode":"1608","locality":"Chesalles-sur-Oron","commune":{"key":"5805","name":"Oron","shortName":"Oron"},"district":{"key":"2226","name":"District de Lavaux-Oron"},"canton":{"key":"22","code":"VD","name":"Vaud"},"status":"Real"},{"key":"10051471","name":"Chemin de l'Abergement","postalCode":"1608","locality":"Oron-le-Châtel","commune":{"key":"5805","name":"Oron","shortName":"Oron"},"district":{"key":"2226","name":"District de Lavaux-Oron"},"canton":{"key":"22","code":"VD","name":"Vaud"},"status":"Real"},{"key":"10099283","name":"Chemin de la Chavanne","postalCode":"1608","locality":"Oron-le-Châtel","commune":{"key":"5805","name":"Oron","shortName":"Oron"},"district":{"key":"2226","name":"District de Lavaux-Oron"},"canton":{"key":"22","code":"VD","name":"Vaud"},"status":"Real"},{"key":"10138956","name":"Chemin de la Compelenaz","postalCode":"1608","locality":"Oron-le-Châtel","commune":{"key":"5805","name":"Oron","shortName":"Oron"},"district":{"key":"2226","name":"District de Lavaux-Oron"},"canton":{"key":"22","code":"VD","name":"Vaud"},"status":"Real"},{"key":"10037107","name":"Chemin de la Corbaz","postalCode":"1608","locality":"Chesalles-sur-Oron","commune":{"key":"5805","name":"Oron","shortName":"Oron"},"district":{"key":"2226","name":"District de Lavaux-Oron"},"canton":{"key":"22","code":"VD","name":"Vaud"},"status":"Real"},{"key":"10037191","name":"Chemin de la Paisible","postalCode":"1610","locality":"Oron-la-Ville","commune":{"key":"5805","name":"Oron","shortName":"Oron"},"district":{"key":"2226","name":"District de Lavaux-Oron"},"canton":{"key":"22","code":"VD","name":"Vaud"},"status":"Real"},{"key":"10099281","name":"Chemin de la Poya","postalCode":"1610","locality":"Oron-la-Ville","commune":{"key":"5805","name":"Oron","shortName":"Oron"},"district":{"key":"2226","name":"District de Lavaux-Oron"},"canton":{"key":"22","code":"VD","name":"Vaud"},"status":"Real"},{"key":"10037092","name":"Chemin de la Resse","postalCode":"1608","locality":"Bussigny-sur-Oron","commune":{"key":"5805","name":"Oron","shortName":"Oron"},"district":{"key":"2226","name":"District de Lavaux-Oron"},"canton":{"key":"22","code":"VD","name":"Vaud"},"status":"Real"},{"key":"10037190","name":"Chemin de l'Arzelier","postalCode":"1610","locality":"Oron-la-Ville","commune":{"key":"5805","name":"Oron","shortName":"Oron"},"district":{"key":"2226","name":"District de Lavaux-Oron"},"canton":{"key":"22","code":"VD","name":"Vaud"},"status":"Real"},{"key":"10018991","name":"Chemin de la Scie","postalCode":"1608","locality":"Chesalles-sur-Oron","commune":{"key":"5805","name":"Oron","shortName":"Oron"},"district":{"key":"2226","name":"District de Lavaux-Oron"},"canton":{"key":"22","code":"VD","name":"Vaud"},"status":"Real"},{"key":"10122895","name":"Chemin de l'Erberey","postalCode":"1608","locality":"Oron-le-Châtel","commune":{"key":"5805","name":"Oron","shortName":"Oron"},"district":{"key":"2226","name":"District de Lavaux-Oron"},"canton":{"key":"22","code":"VD","name":"Vaud"},"status":"Real"},{"key":"10147075","name":"Chemin des Bures","postalCode":"1610","locality":"Oron-la-Ville","commune":{"key":"5805","name":"Oron","shortName":"Oron"},"district":{"key":"2226","name":"District de Lavaux-Oron"},"canton":{"key":"22","code":"VD","name":"Vaud"},"status":"Real"},{"key":"10077584","name":"Chemin des Chênes","postalCode":"1610","locality":"Oron-la-Ville","commune":{"key":"5805","name":"Oron","shortName":"Oron"},"district":{"key":"2226","name":"District de Lavaux-Oron"},"canton":{"key":"22","code":"VD","name":"Vaud"},"status":"Real"},{"key":"10037195","name":"Chemin des Demi-Poses","postalCode":"1608","locality":"Oron-le-Châtel","commune":{"key":"5805","name":"Oron","shortName":"Oron"},"district":{"key":"2226","name":"District de Lavaux-Oron"},"canton":{"key":"22","code":"VD","name":"Vaud"},"status":"Real"},{"key":"10165073","name":"Chemin des Planches","postalCode":"1608","locality":"Chesalles-sur-Oron","commune":{"key":"5805","name":"Oron","shortName":"Oron"},"district":{"key":"2226","name":"District de Lavaux-Oron"},"canton":{"key":"22","code":"VD","name":"Vaud"},"status":"Real"},{"key":"10037192","name":"Chemin du Chaney","postalCode":"1610","locality":"Oron-la-Ville","commune":{"key":"5805","name":"Oron","shortName":"Oron"},"district":{"key":"2226","name":"District de Lavaux-Oron"},"canton":{"key":"22","code":"VD","name":"Vaud"},"status":"Real"},{"key":"10157028","name":"Chemin du Clos","postalCode":"1608","locality":"Chesalles-sur-Oron","commune":{"key":"5805","name":"Oron","shortName":"Oron"},"district":{"key":"2226","name":"District de Lavaux-Oron"},"canton":{"key":"22","code":"VD","name":"Vaud"},"status":"Real"},{"key":"10073571","name":"Chemin du Collège","postalCode":"1608","locality":"Chesalles-sur-Oron","commune":{"key":"5805","name":"Oron","shortName":"Oron"},"district":{"key":"2226","name":"District de Lavaux-Oron"},"canton":{"key":"22","code":"VD","name":"Vaud"},"status":"Real"},{"key":"10037194","name":"Chemin du Hameau du Château","postalCode":"1608","locality":"Oron-le-Châtel","commune":{"key":"5805","name":"Oron","shortName":"Oron"},"district":{"key":"2226","name":"District de Lavaux-Oron"},"canton":{"key":"22","code":"VD","name":"Vaud"},"status":"Real"},{"key":"10153632","name":"Chemin du Marais","postalCode":"1608","locality":"Chesalles-sur-Oron","commune":{"key":"5805","name":"Oron","shortName":"Oron"},"district":{"key":"2226","name":"District de Lavaux-Oron"},"canton":{"key":"22","code":"VD","name":"Vaud"},"status":"Real"},{"key":"10037108","name":"Chemin du Signal","postalCode":"1608","locality":"Chesalles-sur-Oron","commune":{"key":"5805","name":"Oron","shortName":"Oron"},"district":{"key":"2226","name":"District de Lavaux-Oron"},"canton":{"key":"22","code":"VD","name":"Vaud"},"status":"Real"},{"key":"10180764","name":"La Maladaire","postalCode":"1610","locality":"Oron-la-Ville","commune":{"key":"5805","name":"Oron","shortName":"Oron"},"district":{"key":"2226","name":"District de Lavaux-Oron"},"canton":{"key":"22","code":"VD","name":"Vaud"},"status":"Real"},{"key":"10037193","name":"Le Bourg","postalCode":"1610","locality":"Oron-la-Ville","commune":{"key":"5805","name":"Oron","shortName":"Oron"},"district":{"key":"2226","name":"District de Lavaux-Oron"},"canton":{"key":"22","code":"VD","name":"Vaud"},"status":"Real"},{"key":"10164137","name":"Place de la Gare","postalCode":"1608","locality":"Oron-le-Châtel","commune":{"key":"5805","name":"Oron","shortName":"Oron"},"district":{"key":"2226","name":"District de Lavaux-Oron"},"canton":{"key":"22","code":"VD","name":"Vaud"},"status":"Real"},{"key":"10257487","name":"Route de Bulle","postalCode":"1608","locality":"Chesalles-sur-Oron","commune":{"key":"5805","name":"Oron","shortName":"Oron"},"district":{"key":"2226","name":"District de Lavaux-Oron"},"canton":{"key":"22","code":"VD","name":"Vaud"},"status":"Real"},{"key":"10099241","name":"Route de Bulle","postalCode":"1608","locality":"Chesalles-sur-Oron","commune":{"key":"5805","name":"Oron","shortName":"Oron"},"district":{"key":"2226","name":"District de Lavaux-Oron"},"canton":{"key":"22","code":"VD","name":"Vaud"},"status":"Real"},{"key":"10099241","name":"Route de Bulle","postalCode":"1610","locality":"Oron-la-Ville","commune":{"key":"5805","name":"Oron","shortName":"Oron"},"district":{"key":"2226","name":"District de Lavaux-Oron"},"canton":{"key":"22","code":"VD","name":"Vaud"},"status":"Real"},{"key":"10037109","name":"Route de Bussigny","postalCode":"1608","locality":"Chesalles-sur-Oron","commune":{"key":"5805","name":"Oron","shortName":"Oron"},"district":{"key":"2226","name":"District de Lavaux-Oron"},"canton":{"key":"22","code":"VD","name":"Vaud"},"status":"Real"},{"key":"10257488","name":"Route de Bussigny","postalCode":"1608","locality":"Chesalles-sur-Oron","commune":{"key":"5805","name":"Oron","shortName":"Oron"},"district":{"key":"2226","name":"District de Lavaux-Oron"},"canton":{"key":"22","code":"VD","name":"Vaud"},"status":"Real"},{"key":"10164685","name":"Route de Chesalles","postalCode":"1608","locality":"Bussigny-sur-Oron","commune":{"key":"5805","name":"Oron","shortName":"Oron"},"district":{"key":"2226","name":"District de Lavaux-Oron"},"canton":{"key":"22","code":"VD","name":"Vaud"},"status":"Real"},{"key":"10257491","name":"Route d'Ecoteaux","postalCode":"1608","locality":"Bussigny-sur-Oron","commune":{"key":"5805","name":"Oron","shortName":"Oron"},"district":{"key":"2226","name":"District de Lavaux-Oron"},"canton":{"key":"22","code":"VD","name":"Vaud"},"status":"Real"},{"key":"10184628","name":"Route d'Ecoteaux","postalCode":"1608","locality":"Bussigny-sur-Oron","commune":{"key":"5805","name":"Oron","shortName":"Oron"},"district":{"key":"2226","name":"District de Lavaux-Oron"},"canton":{"key":"22","code":"VD","name":"Vaud"},"status":"Real"},{"key":"10164136","name":"Route de Gruyères","postalCode":"1608","locality":"Oron-le-Châtel","commune":{"key":"5805","name":"Oron","shortName":"Oron"},"district":{"key":"2226","name":"District de Lavaux-Oron"},"canton":{"key":"22","code":"VD","name":"Vaud"},"status":"Real"},{"key":"10121708","name":"Route de Lausanne","postalCode":"1610","locality":"Oron-la-Ville","commune":{"key":"5805","name":"Oron","shortName":"Oron"},"district":{"key":"2226","name":"District de Lavaux-Oron"},"canton":{"key":"22","code":"VD","name":"Vaud"},"status":"Real"},{"key":"10037149","name":"Route de Moudon","postalCode":"1610","locality":"Oron-la-Ville","commune":{"key":"5805","name":"Oron","shortName":"Oron"},"district":{"key":"2226","name":"District de Lavaux-Oron"},"canton":{"key":"22","code":"VD","name":"Vaud"},"status":"Real"},{"key":"10102550","name":"Route de Palézieux","postalCode":"1610","locality":"Oron-la-Ville","commune":{"key":"5805","name":"Oron","shortName":"Oron"},"district":{"key":"2226","name":"District de Lavaux-Oron"},"canton":{"key":"22","code":"VD","name":"Vaud"},"status":"Real"},{"key":"10037110","name":"Route de Pont","postalCode":"1608","locality":"Chesalles-sur-Oron","commune":{"key":"5805","name":"Oron","shortName":"Oron"},"district":{"key":"2226","name":"District de Lavaux-Oron"},"canton":{"key":"22","code":"VD","name":"Vaud"},"status":"Real"},{"key":"10164135","name":"Route de Romont","postalCode":"1608","locality":"Oron-le-Châtel","commune":{"key":"5805","name":"Oron","shortName":"Oron"},"district":{"key":"2226","name":"District de Lavaux-Oron"},"canton":{"key":"22","code":"VD","name":"Vaud"},"status":"Real"},{"key":"10037093","name":"Route de Saint-Martin","postalCode":"1608","locality":"Bussigny-sur-Oron","commune":{"key":"5805","name":"Oron","shortName":"Oron"},"district":{"key":"2226","name":"District de Lavaux-Oron"},"canton":{"key":"22","code":"VD","name":"Vaud"},"status":"Real"},{"key":"10121715","name":"Route du Flon","postalCode":"1610","locality":"Oron-la-Ville","commune":{"key":"5805","name":"Oron","shortName":"Oron"},"district":{"key":"2226","name":"District de Lavaux-Oron"},"canton":{"key":"22","code":"VD","name":"Vaud"},"status":"Real"},{"key":"10099242","name":"Route du Village","postalCode":"1608","locality":"Bussigny-sur-Oron","commune":{"key":"5805","name":"Oron","shortName":"Oron"},"district":{"key":"2226","name":"District de Lavaux-Oron"},"canton":{"key":"22","code":"VD","name":"Vaud"},"status":"Real"},{"key":"10257494","name":"Route du Village","postalCode":"1608","locality":"Bussigny-sur-Oron","commune":{"key":"5805","name":"Oron","shortName":"Oron"},"district":{"key":"2226","name":"District de Lavaux-Oron"},"canton":{"key":"22","code":"VD","name":"Vaud"},"status":"Real"},{"key":"10257495","name":"Route du Village","postalCode":"1608","locality":"Chesalles-sur-Oron","commune":{"key":"5805","name":"Oron","shortName":"Oron"},"district":{"key":"2226","name":"District de Lavaux-Oron"},"canton":{"key":"22","code":"VD","name":"Vaud"},"status":"Real"},{"key":"10099242","name":"Route du Village","postalCode":"1608","locality":"Chesalles-sur-Oron","commune":{"key":"5805","name":"Oron","shortName":"Oron"},"district":{"key":"2226","name":"District de Lavaux-Oron"},"canton":{"key":"22","code":"VD","name":"Vaud"},"status":"Real"},{"key":"10077585","name":"Sur l'Etraz","postalCode":"1608","locality":"Oron-le-Châtel","commune":{"key":"5805","name":"Oron","shortName":"Oron"},"district":{"key":"2226","name":"District de Lavaux-Oron"},"canton":{"key":"22","code":"VD","name":"Vaud"},"status":"Real"},]