[{"name":"Adalbert-Stifter-Str.","postalCode":"95126","locality":"Schwarzenbach a.d.Saale","municipality":{"key":"09475168","name":"Schwarzenbach a.d.Saale, St","type":"Stadt"},"district":{"key":"09475","name":"Hof","type":"Landkreis"},"federalState":{"key":"09","name":"Bayern"}},{"name":"Alexander-von-Humboldt-Str.","postalCode":"95126","locality":"Schwarzenbach a.d.Saale","municipality":{"key":"09475168","name":"Schwarzenbach a.d.Saale, St","type":"Stadt"},"district":{"key":"09475","name":"Hof","type":"Landkreis"},"federalState":{"key":"09","name":"Bayern"}},{"name":"Alte Poststr.","postalCode":"95131","locality":"Schwarzenbach a.Wald","municipality":{"key":"09475169","name":"Schwarzenbach a.Wald, St","type":"Stadt"},"district":{"key":"09475","name":"Hof","type":"Landkreis"},"federalState":{"key":"09","name":"Bayern"}},{"name":"Am Alten Gericht","postalCode":"95131","locality":"Schwarzenbach a.Wald","municipality":{"key":"09475169","name":"Schwarzenbach a.Wald, St","type":"Stadt"},"district":{"key":"09475","name":"Hof","type":"Landkreis"},"federalState":{"key":"09","name":"Bayern"}},{"name":"Am Denkmal","postalCode":"95131","locality":"Schwarzenbach a.Wald","municipality":{"key":"09475169","name":"Schwarzenbach a.Wald, St","type":"Stadt"},"district":{"key":"09475","name":"Hof","type":"Landkreis"},"federalState":{"key":"09","name":"Bayern"}},{"name":"Am Döbraberg","postalCode":"95131","locality":"Schwarzenbach a.Wald","municipality":{"key":"09475169","name":"Schwarzenbach a.Wald, St","type":"Stadt"},"district":{"key":"09475","name":"Hof","type":"Landkreis"},"federalState":{"key":"09","name":"Bayern"}},{"name":"Am Dorfplatz","postalCode":"95126","locality":"Schwarzenbach a.d.Saale","municipality":{"key":"09475168","name":"Schwarzenbach a.d.Saale, St","type":"Stadt"},"district":{"key":"09475","name":"Hof","type":"Landkreis"},"federalState":{"key":"09","name":"Bayern"}},{"name":"Am Frischenstein","postalCode":"95126","locality":"Schwarzenbach a.d.Saale","municipality":{"key":"09475168","name":"Schwarzenbach a.d.Saale, St","type":"Stadt"},"district":{"key":"09475","name":"Hof","type":"Landkreis"},"federalState":{"key":"09","name":"Bayern"}},{"name":"Am Goldbach","postalCode":"95126","locality":"Schwarzenbach a.d.Saale","municipality":{"key":"09475168","name":"Schwarzenbach a.d.Saale, St","type":"Stadt"},"district":{"key":"09475","name":"Hof","type":"Landkreis"},"federalState":{"key":"09","name":"Bayern"}},{"name":"Am Hammeranger","postalCode":"95126","locality":"Schwarzenbach a.d.Saale","municipality":{"key":"09475168","name":"Schwarzenbach a.d.Saale, St","type":"Stadt"},"district":{"key":"09475","name":"Hof","type":"Landkreis"},"federalState":{"key":"09","name":"Bayern"}},{"name":"Am Hang","postalCode":"95131","locality":"Schwarzenbach a.Wald","municipality":{"key":"09475169","name":"Schwarzenbach a.Wald, St","type":"Stadt"},"district":{"key":"09475","name":"Hof","type":"Landkreis"},"federalState":{"key":"09","name":"Bayern"}},{"name":"Am Hopfengarten","postalCode":"95126","locality":"Schwarzenbach a.d.Saale","municipality":{"key":"09475168","name":"Schwarzenbach a.d.Saale, St","type":"Stadt"},"district":{"key":"09475","name":"Hof","type":"Landkreis"},"federalState":{"key":"09","name":"Bayern"}},{"name":"Am Lamitzsteig","postalCode":"95126","locality":"Schwarzenbach a.d.Saale","municipality":{"key":"09475168","name":"Schwarzenbach a.d.Saale, St","type":"Stadt"},"district":{"key":"09475","name":"Hof","type":"Landkreis"},"federalState":{"key":"09","name":"Bayern"}},{"name":"Am Mühlengrund","postalCode":"95126","locality":"Schwarzenbach a.d.Saale","municipality":{"key":"09475168","name":"Schwarzenbach a.d.Saale, St","type":"Stadt"},"district":{"key":"09475","name":"Hof","type":"Landkreis"},"federalState":{"key":"09","name":"Bayern"}},{"name":"Am Rosenbach","postalCode":"95131","locality":"Schwarzenbach a.Wald","municipality":{"key":"09475169","name":"Schwarzenbach a.Wald, St","type":"Stadt"},"district":{"key":"09475","name":"Hof","type":"Landkreis"},"federalState":{"key":"09","name":"Bayern"}},{"name":"Amselweg","postalCode":"92720","locality":"Schwarzenbach","municipality":{"key":"09374156","name":"Schwarzenbach","type":"Kreisangehörige_Gemeinde"},"district":{"key":"09374","name":"Neustadt a.d.Waldnaab","type":"Landkreis"},"federalState":{"key":"09","name":"Bayern"}},{"name":"Amselweg","postalCode":"95126","locality":"Schwarzenbach a.d.Saale","municipality":{"key":"09475168","name":"Schwarzenbach a.d.Saale, St","type":"Stadt"},"district":{"key":"09475","name":"Hof","type":"Landkreis"},"federalState":{"key":"09","name":"Bayern"}},{"name":"Amselweg","postalCode":"95131","locality":"Schwarzenbach a.Wald","municipality":{"key":"09475169","name":"Schwarzenbach a.Wald, St","type":"Stadt"},"district":{"key":"09475","name":"Hof","type":"Landkreis"},"federalState":{"key":"09","name":"Bayern"}},{"name":"Am Sportplatz","postalCode":"95126","locality":"Schwarzenbach a.d.Saale","municipality":{"key":"09475168","name":"Schwarzenbach a.d.Saale, St","type":"Stadt"},"district":{"key":"09475","name":"Hof","type":"Landkreis"},"federalState":{"key":"09","name":"Bayern"}},{"name":"Am Sportplatz","postalCode":"95131","locality":"Schwarzenbach a.Wald","municipality":{"key":"09475169","name":"Schwarzenbach a.Wald, St","type":"Stadt"},"district":{"key":"09475","name":"Hof","type":"Landkreis"},"federalState":{"key":"09","name":"Bayern"}},{"name":"Am Steimbach","postalCode":"95126","locality":"Schwarzenbach a.d.Saale","municipality":{"key":"09475168","name":"Schwarzenbach a.d.Saale, St","type":"Stadt"},"district":{"key":"09475","name":"Hof","type":"Landkreis"},"federalState":{"key":"09","name":"Bayern"}},{"name":"Am Steinbühl","postalCode":"95131","locality":"Schwarzenbach a.Wald","municipality":{"key":"09475169","name":"Schwarzenbach a.Wald, St","type":"Stadt"},"district":{"key":"09475","name":"Hof","type":"Landkreis"},"federalState":{"key":"09","name":"Bayern"}},{"name":"Am Wallgarten","postalCode":"95126","locality":"Schwarzenbach a.d.Saale","municipality":{"key":"09475168","name":"Schwarzenbach a.d.Saale, St","type":"Stadt"},"district":{"key":"09475","name":"Hof","type":"Landkreis"},"federalState":{"key":"09","name":"Bayern"}},{"name":"Am Wechselbühl","postalCode":"95126","locality":"Schwarzenbach a.d.Saale","municipality":{"key":"09475168","name":"Schwarzenbach a.d.Saale, St","type":"Stadt"},"district":{"key":"09475","name":"Hof","type":"Landkreis"},"federalState":{"key":"09","name":"Bayern"}},{"name":"An den Steinkreuzen","postalCode":"95126","locality":"Schwarzenbach a.d.Saale","municipality":{"key":"09475168","name":"Schwarzenbach a.d.Saale, St","type":"Stadt"},"district":{"key":"09475","name":"Hof","type":"Landkreis"},"federalState":{"key":"09","name":"Bayern"}},{"name":"An der Heide","postalCode":"95126","locality":"Schwarzenbach a.d.Saale","municipality":{"key":"09475168","name":"Schwarzenbach a.d.Saale, St","type":"Stadt"},"district":{"key":"09475","name":"Hof","type":"Landkreis"},"federalState":{"key":"09","name":"Bayern"}},{"name":"An der Peunthe","postalCode":"95131","locality":"Schwarzenbach a.Wald","municipality":{"key":"09475169","name":"Schwarzenbach a.Wald, St","type":"Stadt"},"district":{"key":"09475","name":"Hof","type":"Landkreis"},"federalState":{"key":"09","name":"Bayern"}},{"name":"An der Saale","postalCode":"95126","locality":"Schwarzenbach a.d.Saale","municipality":{"key":"09475168","name":"Schwarzenbach a.d.Saale, St","type":"Stadt"},"district":{"key":"09475","name":"Hof","type":"Landkreis"},"federalState":{"key":"09","name":"Bayern"}},{"name":"An der Waschwiese","postalCode":"95131","locality":"Schwarzenbach a.Wald","municipality":{"key":"09475169","name":"Schwarzenbach a.Wald, St","type":"Stadt"},"district":{"key":"09475","name":"Hof","type":"Landkreis"},"federalState":{"key":"09","name":"Bayern"}},{"name":"Anton-Richter-Weg","postalCode":"95126","locality":"Schwarzenbach a.d.Saale","municipality":{"key":"09475168","name":"Schwarzenbach a.d.Saale, St","type":"Stadt"},"district":{"key":"09475","name":"Hof","type":"Landkreis"},"federalState":{"key":"09","name":"Bayern"}},{"name":"Arnikaweg","postalCode":"95126","locality":"Schwarzenbach a.d.Saale","municipality":{"key":"09475168","name":"Schwarzenbach a.d.Saale, St","type":"Stadt"},"district":{"key":"09475","name":"Hof","type":"Landkreis"},"federalState":{"key":"09","name":"Bayern"}},{"name":"Ascher Str.","postalCode":"95126","locality":"Schwarzenbach a.d.Saale","municipality":{"key":"09475168","name":"Schwarzenbach a.d.Saale, St","type":"Stadt"},"district":{"key":"09475","name":"Hof","type":"Landkreis"},"federalState":{"key":"09","name":"Bayern"}},{"name":"Aspergäßchen","postalCode":"95126","locality":"Schwarzenbach a.d.Saale","municipality":{"key":"09475168","name":"Schwarzenbach a.d.Saale, St","type":"Stadt"},"district":{"key":"09475","name":"Hof","type":"Landkreis"},"federalState":{"key":"09","name":"Bayern"}},{"name":"Asternweg","postalCode":"95126","locality":"Schwarzenbach a.d.Saale","municipality":{"key":"09475168","name":"Schwarzenbach a.d.Saale, St","type":"Stadt"},"district":{"key":"09475","name":"Hof","type":"Landkreis"},"federalState":{"key":"09","name":"Bayern"}},{"name":"August-Bebel-Str.","postalCode":"95126","locality":"Schwarzenbach a.d.Saale","municipality":{"key":"09475168","name":"Schwarzenbach a.d.Saale, St","type":"Stadt"},"district":{"key":"09475","name":"Hof","type":"Landkreis"},"federalState":{"key":"09","name":"Bayern"}},{"name":"Autengrünweg","postalCode":"95126","locality":"Schwarzenbach a.d.Saale","municipality":{"key":"09475168","name":"Schwarzenbach a.d.Saale, St","type":"Stadt"},"district":{"key":"09475","name":"Hof","type":"Landkreis"},"federalState":{"key":"09","name":"Bayern"}},{"name":"Bachgasse","postalCode":"95126","locality":"Schwarzenbach a.d.Saale","municipality":{"key":"09475168","name":"Schwarzenbach a.d.Saale, St","type":"Stadt"},"district":{"key":"09475","name":"Hof","type":"Landkreis"},"federalState":{"key":"09","name":"Bayern"}},{"name":"Badstr.","postalCode":"95131","locality":"Schwarzenbach a.Wald","municipality":{"key":"09475169","name":"Schwarzenbach a.Wald, St","type":"Stadt"},"district":{"key":"09475","name":"Hof","type":"Landkreis"},"federalState":{"key":"09","name":"Bayern"}},{"name":"Bahnhofsplatz","postalCode":"95126","locality":"Schwarzenbach a.d.Saale","municipality":{"key":"09475168","name":"Schwarzenbach a.d.Saale, St","type":"Stadt"},"district":{"key":"09475","name":"Hof","type":"Landkreis"},"federalState":{"key":"09","name":"Bayern"}},{"name":"Bahnhofstr.","postalCode":"92720","locality":"Schwarzenbach","municipality":{"key":"09374156","name":"Schwarzenbach","type":"Kreisangehörige_Gemeinde"},"district":{"key":"09374","name":"Neustadt a.d.Waldnaab","type":"Landkreis"},"federalState":{"key":"09","name":"Bayern"}},{"name":"Bahnhofstr.","postalCode":"95126","locality":"Schwarzenbach a.d.Saale","municipality":{"key":"09475168","name":"Schwarzenbach a.d.Saale, St","type":"Stadt"},"district":{"key":"09475","name":"Hof","type":"Landkreis"},"federalState":{"key":"09","name":"Bayern"}},{"name":"Baugenossenschaftsstr.","postalCode":"95126","locality":"Schwarzenbach a.d.Saale","municipality":{"key":"09475168","name":"Schwarzenbach a.d.Saale, St","type":"Stadt"},"district":{"key":"09475","name":"Hof","type":"Landkreis"},"federalState":{"key":"09","name":"Bayern"}},{"name":"Baumersreuth","postalCode":"95126","locality":"Schwarzenbach a.d.Saale","municipality":{"key":"09475168","name":"Schwarzenbach a.d.Saale, St","type":"Stadt"},"district":{"key":"09475","name":"Hof","type":"Landkreis"},"federalState":{"key":"09","name":"Bayern"}},{"name":"Beethovenstr.","postalCode":"95126","locality":"Schwarzenbach a.d.Saale","municipality":{"key":"09475168","name":"Schwarzenbach a.d.Saale, St","type":"Stadt"},"district":{"key":"09475","name":"Hof","type":"Landkreis"},"federalState":{"key":"09","name":"Bayern"}},{"name":"Bergstr.","postalCode":"95126","locality":"Schwarzenbach a.d.Saale","municipality":{"key":"09475168","name":"Schwarzenbach a.d.Saale, St","type":"Stadt"},"district":{"key":"09475","name":"Hof","type":"Landkreis"},"federalState":{"key":"09","name":"Bayern"}},{"name":"Bergstr.","postalCode":"95131","locality":"Schwarzenbach a.Wald","municipality":{"key":"09475169","name":"Schwarzenbach a.Wald, St","type":"Stadt"},"district":{"key":"09475","name":"Hof","type":"Landkreis"},"federalState":{"key":"09","name":"Bayern"}},{"name":"Bergwiesenstr.","postalCode":"95131","locality":"Schwarzenbach a.Wald","municipality":{"key":"09475169","name":"Schwarzenbach a.Wald, St","type":"Stadt"},"district":{"key":"09475","name":"Hof","type":"Landkreis"},"federalState":{"key":"09","name":"Bayern"}},{"name":"Bernsteiner Weg","postalCode":"95131","locality":"Schwarzenbach a.Wald","municipality":{"key":"09475169","name":"Schwarzenbach a.Wald, St","type":"Stadt"},"district":{"key":"09475","name":"Hof","type":"Landkreis"},"federalState":{"key":"09","name":"Bayern"}},{"name":"Birken","postalCode":"95126","locality":"Schwarzenbach a.d.Saale","municipality":{"key":"09475168","name":"Schwarzenbach a.d.Saale, St","type":"Stadt"},"district":{"key":"09475","name":"Hof","type":"Landkreis"},"federalState":{"key":"09","name":"Bayern"}},{"name":"Birkenhof","postalCode":"95126","locality":"Schwarzenbach a.d.Saale","municipality":{"key":"09475168","name":"Schwarzenbach a.d.Saale, St","type":"Stadt"},"district":{"key":"09475","name":"Hof","type":"Landkreis"},"federalState":{"key":"09","name":"Bayern"}},{"name":"Birkenstr.","postalCode":"95131","locality":"Schwarzenbach a.Wald","municipality":{"key":"09475169","name":"Schwarzenbach a.Wald, St","type":"Stadt"},"district":{"key":"09475","name":"Hof","type":"Landkreis"},"federalState":{"key":"09","name":"Bayern"}},{"name":"Birkenweg","postalCode":"92720","locality":"Schwarzenbach","municipality":{"key":"09374156","name":"Schwarzenbach","type":"Kreisangehörige_Gemeinde"},"district":{"key":"09374","name":"Neustadt a.d.Waldnaab","type":"Landkreis"},"federalState":{"key":"09","name":"Bayern"}},{"name":"Birkenweg","postalCode":"95126","locality":"Schwarzenbach a.d.Saale","municipality":{"key":"09475168","name":"Schwarzenbach a.d.Saale, St","type":"Stadt"},"district":{"key":"09475","name":"Hof","type":"Landkreis"},"federalState":{"key":"09","name":"Bayern"}},{"name":"Birkenweg","postalCode":"95131","locality":"Schwarzenbach a.Wald","municipality":{"key":"09475169","name":"Schwarzenbach a.Wald, St","type":"Stadt"},"district":{"key":"09475","name":"Hof","type":"Landkreis"},"federalState":{"key":"09","name":"Bayern"}},{"name":"Blumenstr.","postalCode":"95131","locality":"Schwarzenbach a.Wald","municipality":{"key":"09475169","name":"Schwarzenbach a.Wald, St","type":"Stadt"},"district":{"key":"09475","name":"Hof","type":"Landkreis"},"federalState":{"key":"09","name":"Bayern"}},{"name":"Bocksacker","postalCode":"92720","locality":"Schwarzenbach","municipality":{"key":"09374156","name":"Schwarzenbach","type":"Kreisangehörige_Gemeinde"},"district":{"key":"09374","name":"Neustadt a.d.Waldnaab","type":"Landkreis"},"federalState":{"key":"09","name":"Bayern"}},{"name":"Brauhausweg","postalCode":"95131","locality":"Schwarzenbach a.Wald","municipality":{"key":"09475169","name":"Schwarzenbach a.Wald, St","type":"Stadt"},"district":{"key":"09475","name":"Hof","type":"Landkreis"},"federalState":{"key":"09","name":"Bayern"}},{"name":"Breite Wiese","postalCode":"95131","locality":"Schwarzenbach a.Wald","municipality":{"key":"09475169","name":"Schwarzenbach a.Wald, St","type":"Stadt"},"district":{"key":"09475","name":"Hof","type":"Landkreis"},"federalState":{"key":"09","name":"Bayern"}},{"name":"Breslauer Str.","postalCode":"95126","locality":"Schwarzenbach a.d.Saale","municipality":{"key":"09475168","name":"Schwarzenbach a.d.Saale, St","type":"Stadt"},"district":{"key":"09475","name":"Hof","type":"Landkreis"},"federalState":{"key":"09","name":"Bayern"}},{"name":"Brückenstr.","postalCode":"95126","locality":"Schwarzenbach a.d.Saale","municipality":{"key":"09475168","name":"Schwarzenbach a.d.Saale, St","type":"Stadt"},"district":{"key":"09475","name":"Hof","type":"Landkreis"},"federalState":{"key":"09","name":"Bayern"}},{"name":"Brunnengasse","postalCode":"95126","locality":"Schwarzenbach a.d.Saale","municipality":{"key":"09475168","name":"Schwarzenbach a.d.Saale, St","type":"Stadt"},"district":{"key":"09475","name":"Hof","type":"Landkreis"},"federalState":{"key":"09","name":"Bayern"}},{"name":"Brunnenstr.","postalCode":"95131","locality":"Schwarzenbach a.Wald","municipality":{"key":"09475169","name":"Schwarzenbach a.Wald, St","type":"Stadt"},"district":{"key":"09475","name":"Hof","type":"Landkreis"},"federalState":{"key":"09","name":"Bayern"}},{"name":"Brunnenweg","postalCode":"95131","locality":"Schwarzenbach a.Wald","municipality":{"key":"09475169","name":"Schwarzenbach a.Wald, St","type":"Stadt"},"district":{"key":"09475","name":"Hof","type":"Landkreis"},"federalState":{"key":"09","name":"Bayern"}},{"name":"Buchenweg","postalCode":"92720","locality":"Schwarzenbach","municipality":{"key":"09374156","name":"Schwarzenbach","type":"Kreisangehörige_Gemeinde"},"district":{"key":"09374","name":"Neustadt a.d.Waldnaab","type":"Landkreis"},"federalState":{"key":"09","name":"Bayern"}},{"name":"Buchenweg","postalCode":"95126","locality":"Schwarzenbach a.d.Saale","municipality":{"key":"09475168","name":"Schwarzenbach a.d.Saale, St","type":"Stadt"},"district":{"key":"09475","name":"Hof","type":"Landkreis"},"federalState":{"key":"09","name":"Bayern"}},{"name":"Buchenweg","postalCode":"95131","locality":"Schwarzenbach a.Wald","municipality":{"key":"09475169","name":"Schwarzenbach a.Wald, St","type":"Stadt"},"district":{"key":"09475","name":"Hof","type":"Landkreis"},"federalState":{"key":"09","name":"Bayern"}},{"name":"Bürgermeister-Hans-Schemela-Str.","postalCode":"92720","locality":"Schwarzenbach","municipality":{"key":"09374156","name":"Schwarzenbach","type":"Kreisangehörige_Gemeinde"},"district":{"key":"09374","name":"Neustadt a.d.Waldnaab","type":"Landkreis"},"federalState":{"key":"09","name":"Bayern"}},{"name":"Burgstall","postalCode":"95131","locality":"Schwarzenbach a.Wald","municipality":{"key":"09475169","name":"Schwarzenbach a.Wald, St","type":"Stadt"},"district":{"key":"09475","name":"Hof","type":"Landkreis"},"federalState":{"key":"09","name":"Bayern"}},{"name":"Burgstr.","postalCode":"95131","locality":"Schwarzenbach a.Wald","municipality":{"key":"09475169","name":"Schwarzenbach a.Wald, St","type":"Stadt"},"district":{"key":"09475","name":"Hof","type":"Landkreis"},"federalState":{"key":"09","name":"Bayern"}},{"name":"Christian-Heinrich-Sandler-Str.","postalCode":"95126","locality":"Schwarzenbach a.d.Saale","municipality":{"key":"09475168","name":"Schwarzenbach a.d.Saale, St","type":"Stadt"},"district":{"key":"09475","name":"Hof","type":"Landkreis"},"federalState":{"key":"09","name":"Bayern"}},{"name":"Clubheim","postalCode":"95126","locality":"Schwarzenbach a.d.Saale","municipality":{"key":"09475168","name":"Schwarzenbach a.d.Saale, St","type":"Stadt"},"district":{"key":"09475","name":"Hof","type":"Landkreis"},"federalState":{"key":"09","name":"Bayern"}},{"name":"Cranachstr.","postalCode":"95126","locality":"Schwarzenbach a.d.Saale","municipality":{"key":"09475168","name":"Schwarzenbach a.d.Saale, St","type":"Stadt"},"district":{"key":"09475","name":"Hof","type":"Landkreis"},"federalState":{"key":"09","name":"Bayern"}},{"name":"Dahlienweg","postalCode":"95126","locality":"Schwarzenbach a.d.Saale","municipality":{"key":"09475168","name":"Schwarzenbach a.d.Saale, St","type":"Stadt"},"district":{"key":"09475","name":"Hof","type":"Landkreis"},"federalState":{"key":"09","name":"Bayern"}},{"name":"Dahlienweg","postalCode":"95131","locality":"Schwarzenbach a.Wald","municipality":{"key":"09475169","name":"Schwarzenbach a.Wald, St","type":"Stadt"},"district":{"key":"09475","name":"Hof","type":"Landkreis"},"federalState":{"key":"09","name":"Bayern"}},{"name":"Dammstr.","postalCode":"95126","locality":"Schwarzenbach a.d.Saale","municipality":{"key":"09475168","name":"Schwarzenbach a.d.Saale, St","type":"Stadt"},"district":{"key":"09475","name":"Hof","type":"Landkreis"},"federalState":{"key":"09","name":"Bayern"}},{"name":"Danziger Str.","postalCode":"95126","locality":"Schwarzenbach a.d.Saale","municipality":{"key":"09475168","name":"Schwarzenbach a.d.Saale, St","type":"Stadt"},"district":{"key":"09475","name":"Hof","type":"Landkreis"},"federalState":{"key":"09","name":"Bayern"}},{"name":"Dießfurter Str.","postalCode":"92720","locality":"Schwarzenbach","municipality":{"key":"09374156","name":"Schwarzenbach","type":"Kreisangehörige_Gemeinde"},"district":{"key":"09374","name":"Neustadt a.d.Waldnaab","type":"Landkreis"},"federalState":{"key":"09","name":"Bayern"}},{"name":"Döbrabergstr.","postalCode":"95131","locality":"Schwarzenbach a.Wald","municipality":{"key":"09475169","name":"Schwarzenbach a.Wald, St","type":"Stadt"},"district":{"key":"09475","name":"Hof","type":"Landkreis"},"federalState":{"key":"09","name":"Bayern"}},{"name":"Dorfgrund","postalCode":"95131","locality":"Schwarzenbach a.Wald","municipality":{"key":"09475169","name":"Schwarzenbach a.Wald, St","type":"Stadt"},"district":{"key":"09475","name":"Hof","type":"Landkreis"},"federalState":{"key":"09","name":"Bayern"}},{"name":"Dr.-August-Wild-Str.","postalCode":"95126","locality":"Schwarzenbach a.d.Saale","municipality":{"key":"09475168","name":"Schwarzenbach a.d.Saale, St","type":"Stadt"},"district":{"key":"09475","name":"Hof","type":"Landkreis"},"federalState":{"key":"09","name":"Bayern"}},{"name":"Dr.-Georg-Dittmar-Str.","postalCode":"95131","locality":"Schwarzenbach a.Wald","municipality":{"key":"09475169","name":"Schwarzenbach a.Wald, St","type":"Stadt"},"district":{"key":"09475","name":"Hof","type":"Landkreis"},"federalState":{"key":"09","name":"Bayern"}},{"name":"Drosselweg","postalCode":"95126","locality":"Schwarzenbach a.d.Saale","municipality":{"key":"09475168","name":"Schwarzenbach a.d.Saale, St","type":"Stadt"},"district":{"key":"09475","name":"Hof","type":"Landkreis"},"federalState":{"key":"09","name":"Bayern"}},{"name":"Dürerstr.","postalCode":"95126","locality":"Schwarzenbach a.d.Saale","municipality":{"key":"09475168","name":"Schwarzenbach a.d.Saale, St","type":"Stadt"},"district":{"key":"09475","name":"Hof","type":"Landkreis"},"federalState":{"key":"09","name":"Bayern"}},{"name":"Egerstr.","postalCode":"95126","locality":"Schwarzenbach a.d.Saale","municipality":{"key":"09475168","name":"Schwarzenbach a.d.Saale, St","type":"Stadt"},"district":{"key":"09475","name":"Hof","type":"Landkreis"},"federalState":{"key":"09","name":"Bayern"}},{"name":"Eichendorffstr.","postalCode":"95126","locality":"Schwarzenbach a.d.Saale","municipality":{"key":"09475168","name":"Schwarzenbach a.d.Saale, St","type":"Stadt"},"district":{"key":"09475","name":"Hof","type":"Landkreis"},"federalState":{"key":"09","name":"Bayern"}},{"name":"Eichenstr.","postalCode":"92720","locality":"Schwarzenbach","municipality":{"key":"09374156","name":"Schwarzenbach","type":"Kreisangehörige_Gemeinde"},"district":{"key":"09374","name":"Neustadt a.d.Waldnaab","type":"Landkreis"},"federalState":{"key":"09","name":"Bayern"}},{"name":"Emaillierwerk","postalCode":"95126","locality":"Schwarzenbach a.d.Saale","municipality":{"key":"09475168","name":"Schwarzenbach a.d.Saale, St","type":"Stadt"},"district":{"key":"09475","name":"Hof","type":"Landkreis"},"federalState":{"key":"09","name":"Bayern"}},{"name":"Epprechtsteinweg","postalCode":"95126","locality":"Schwarzenbach a.d.Saale","municipality":{"key":"09475168","name":"Schwarzenbach a.d.Saale, St","type":"Stadt"},"district":{"key":"09475","name":"Hof","type":"Landkreis"},"federalState":{"key":"09","name":"Bayern"}},{"name":"Erlenweg","postalCode":"92720","locality":"Schwarzenbach","municipality":{"key":"09374156","name":"Schwarzenbach","type":"Kreisangehörige_Gemeinde"},"district":{"key":"09374","name":"Neustadt a.d.Waldnaab","type":"Landkreis"},"federalState":{"key":"09","name":"Bayern"}},{"name":"Erzgebirgsstr.","postalCode":"95126","locality":"Schwarzenbach a.d.Saale","municipality":{"key":"09475168","name":"Schwarzenbach a.d.Saale, St","type":"Stadt"},"district":{"key":"09475","name":"Hof","type":"Landkreis"},"federalState":{"key":"09","name":"Bayern"}},{"name":"Eschenweg","postalCode":"95126","locality":"Schwarzenbach a.d.Saale","municipality":{"key":"09475168","name":"Schwarzenbach a.d.Saale, St","type":"Stadt"},"district":{"key":"09475","name":"Hof","type":"Landkreis"},"federalState":{"key":"09","name":"Bayern"}},{"name":"Falkenweg","postalCode":"92720","locality":"Schwarzenbach","municipality":{"key":"09374156","name":"Schwarzenbach","type":"Kreisangehörige_Gemeinde"},"district":{"key":"09374","name":"Neustadt a.d.Waldnaab","type":"Landkreis"},"federalState":{"key":"09","name":"Bayern"}},{"name":"Falkenweg","postalCode":"95126","locality":"Schwarzenbach a.d.Saale","municipality":{"key":"09475168","name":"Schwarzenbach a.d.Saale, St","type":"Stadt"},"district":{"key":"09475","name":"Hof","type":"Landkreis"},"federalState":{"key":"09","name":"Bayern"}},{"name":"Färberstr.","postalCode":"95126","locality":"Schwarzenbach a.d.Saale","municipality":{"key":"09475168","name":"Schwarzenbach a.d.Saale, St","type":"Stadt"},"district":{"key":"09475","name":"Hof","type":"Landkreis"},"federalState":{"key":"09","name":"Bayern"}},{"name":"Fasanenweg","postalCode":"92720","locality":"Schwarzenbach","municipality":{"key":"09374156","name":"Schwarzenbach","type":"Kreisangehörige_Gemeinde"},"district":{"key":"09374","name":"Neustadt a.d.Waldnaab","type":"Landkreis"},"federalState":{"key":"09","name":"Bayern"}},{"name":"Fasanenweg","postalCode":"95126","locality":"Schwarzenbach a.d.Saale","municipality":{"key":"09475168","name":"Schwarzenbach a.d.Saale, St","type":"Stadt"},"district":{"key":"09475","name":"Hof","type":"Landkreis"},"federalState":{"key":"09","name":"Bayern"}},{"name":"Fichtelgebirgsstr.","postalCode":"95126","locality":"Schwarzenbach a.d.Saale","municipality":{"key":"09475168","name":"Schwarzenbach a.d.Saale, St","type":"Stadt"},"district":{"key":"09475","name":"Hof","type":"Landkreis"},"federalState":{"key":"09","name":"Bayern"}},{"name":"Fichtenhain","postalCode":"95131","locality":"Schwarzenbach a.Wald","municipality":{"key":"09475169","name":"Schwarzenbach a.Wald, St","type":"Stadt"},"district":{"key":"09475","name":"Hof","type":"Landkreis"},"federalState":{"key":"09","name":"Bayern"}},{"name":"Fichtenweg","postalCode":"92720","locality":"Schwarzenbach","municipality":{"key":"09374156","name":"Schwarzenbach","type":"Kreisangehörige_Gemeinde"},"district":{"key":"09374","name":"Neustadt a.d.Waldnaab","type":"Landkreis"},"federalState":{"key":"09","name":"Bayern"}},{"name":"Fichtenweg","postalCode":"95126","locality":"Schwarzenbach a.d.Saale","municipality":{"key":"09475168","name":"Schwarzenbach a.d.Saale, St","type":"Stadt"},"district":{"key":"09475","name":"Hof","type":"Landkreis"},"federalState":{"key":"09","name":"Bayern"}},{"name":"Finkenflugweg","postalCode":"95126","locality":"Schwarzenbach a.d.Saale","municipality":{"key":"09475168","name":"Schwarzenbach a.d.Saale, St","type":"Stadt"},"district":{"key":"09475","name":"Hof","type":"Landkreis"},"federalState":{"key":"09","name":"Bayern"}},{"name":"Finkenweg","postalCode":"92720","locality":"Schwarzenbach","municipality":{"key":"09374156","name":"Schwarzenbach","type":"Kreisangehörige_Gemeinde"},"district":{"key":"09374","name":"Neustadt a.d.Waldnaab","type":"Landkreis"},"federalState":{"key":"09","name":"Bayern"}},{"name":"Finkenweg","postalCode":"95126","locality":"Schwarzenbach a.d.Saale","municipality":{"key":"09475168","name":"Schwarzenbach a.d.Saale, St","type":"Stadt"},"district":{"key":"09475","name":"Hof","type":"Landkreis"},"federalState":{"key":"09","name":"Bayern"}},{"name":"Finkenweg","postalCode":"95131","locality":"Schwarzenbach a.Wald","municipality":{"key":"09475169","name":"Schwarzenbach a.Wald, St","type":"Stadt"},"district":{"key":"09475","name":"Hof","type":"Landkreis"},"federalState":{"key":"09","name":"Bayern"}},{"name":"Fleischgasse","postalCode":"95126","locality":"Schwarzenbach a.d.Saale","municipality":{"key":"09475168","name":"Schwarzenbach a.d.Saale, St","type":"Stadt"},"district":{"key":"09475","name":"Hof","type":"Landkreis"},"federalState":{"key":"09","name":"Bayern"}},{"name":"Fletschenreuth","postalCode":"95126","locality":"Schwarzenbach a.d.Saale","municipality":{"key":"09475168","name":"Schwarzenbach a.d.Saale, St","type":"Stadt"},"district":{"key":"09475","name":"Hof","type":"Landkreis"},"federalState":{"key":"09","name":"Bayern"}},{"name":"Fletschenreuther Weg","postalCode":"95126","locality":"Schwarzenbach a.d.Saale","municipality":{"key":"09475168","name":"Schwarzenbach a.d.Saale, St","type":"Stadt"},"district":{"key":"09475","name":"Hof","type":"Landkreis"},"federalState":{"key":"09","name":"Bayern"}},{"name":"Flurstr.","postalCode":"95131","locality":"Schwarzenbach a.Wald","municipality":{"key":"09475169","name":"Schwarzenbach a.Wald, St","type":"Stadt"},"district":{"key":"09475","name":"Hof","type":"Landkreis"},"federalState":{"key":"09","name":"Bayern"}},{"name":"Föhrenweg","postalCode":"92720","locality":"Schwarzenbach","municipality":{"key":"09374156","name":"Schwarzenbach","type":"Kreisangehörige_Gemeinde"},"district":{"key":"09374","name":"Neustadt a.d.Waldnaab","type":"Landkreis"},"federalState":{"key":"09","name":"Bayern"}},{"name":"Föhrenweg","postalCode":"95126","locality":"Schwarzenbach a.d.Saale","municipality":{"key":"09475168","name":"Schwarzenbach a.d.Saale, St","type":"Stadt"},"district":{"key":"09475","name":"Hof","type":"Landkreis"},"federalState":{"key":"09","name":"Bayern"}},{"name":"Förbauer Siedlung","postalCode":"95126","locality":"Schwarzenbach a.d.Saale","municipality":{"key":"09475168","name":"Schwarzenbach a.d.Saale, St","type":"Stadt"},"district":{"key":"09475","name":"Hof","type":"Landkreis"},"federalState":{"key":"09","name":"Bayern"}},{"name":"Förmitz","postalCode":"95126","locality":"Schwarzenbach a.d.Saale","municipality":{"key":"09475168","name":"Schwarzenbach a.d.Saale, St","type":"Stadt"},"district":{"key":"09475","name":"Hof","type":"Landkreis"},"federalState":{"key":"09","name":"Bayern"}},{"name":"Forststr.","postalCode":"95131","locality":"Schwarzenbach a.Wald","municipality":{"key":"09475169","name":"Schwarzenbach a.Wald, St","type":"Stadt"},"district":{"key":"09475","name":"Hof","type":"Landkreis"},"federalState":{"key":"09","name":"Bayern"}},{"name":"Frankenstr.","postalCode":"95126","locality":"Schwarzenbach a.d.Saale","municipality":{"key":"09475168","name":"Schwarzenbach a.d.Saale, St","type":"Stadt"},"district":{"key":"09475","name":"Hof","type":"Landkreis"},"federalState":{"key":"09","name":"Bayern"}},{"name":"Frankenwaldstr.","postalCode":"95126","locality":"Schwarzenbach a.d.Saale","municipality":{"key":"09475168","name":"Schwarzenbach a.d.Saale, St","type":"Stadt"},"district":{"key":"09475","name":"Hof","type":"Landkreis"},"federalState":{"key":"09","name":"Bayern"}},{"name":"Frankenwaldstr.","postalCode":"95131","locality":"Schwarzenbach a.Wald","municipality":{"key":"09475169","name":"Schwarzenbach a.Wald, St","type":"Stadt"},"district":{"key":"09475","name":"Hof","type":"Landkreis"},"federalState":{"key":"09","name":"Bayern"}},{"name":"Frankenwaldweg","postalCode":"95131","locality":"Schwarzenbach a.Wald","municipality":{"key":"09475169","name":"Schwarzenbach a.Wald, St","type":"Stadt"},"district":{"key":"09475","name":"Hof","type":"Landkreis"},"federalState":{"key":"09","name":"Bayern"}},{"name":"Friedhof","postalCode":"95131","locality":"Schwarzenbach a.Wald","municipality":{"key":"09475169","name":"Schwarzenbach a.Wald, St","type":"Stadt"},"district":{"key":"09475","name":"Hof","type":"Landkreis"},"federalState":{"key":"09","name":"Bayern"}},{"name":"Friedrich-Ebert-Str.","postalCode":"95126","locality":"Schwarzenbach a.d.Saale","municipality":{"key":"09475168","name":"Schwarzenbach a.d.Saale, St","type":"Stadt"},"district":{"key":"09475","name":"Hof","type":"Landkreis"},"federalState":{"key":"09","name":"Bayern"}},{"name":"Friedrichstr.","postalCode":"95126","locality":"Schwarzenbach a.d.Saale","municipality":{"key":"09475168","name":"Schwarzenbach a.d.Saale, St","type":"Stadt"},"district":{"key":"09475","name":"Hof","type":"Landkreis"},"federalState":{"key":"09","name":"Bayern"}},{"name":"Frühlingsweg","postalCode":"92720","locality":"Schwarzenbach","municipality":{"key":"09374156","name":"Schwarzenbach","type":"Kreisangehörige_Gemeinde"},"district":{"key":"09374","name":"Neustadt a.d.Waldnaab","type":"Landkreis"},"federalState":{"key":"09","name":"Bayern"}},{"name":"Fuchshügel","postalCode":"95126","locality":"Schwarzenbach a.d.Saale","municipality":{"key":"09475168","name":"Schwarzenbach a.d.Saale, St","type":"Stadt"},"district":{"key":"09475","name":"Hof","type":"Landkreis"},"federalState":{"key":"09","name":"Bayern"}},{"name":"Gartenstr.","postalCode":"95131","locality":"Schwarzenbach a.Wald","municipality":{"key":"09475169","name":"Schwarzenbach a.Wald, St","type":"Stadt"},"district":{"key":"09475","name":"Hof","type":"Landkreis"},"federalState":{"key":"09","name":"Bayern"}},{"name":"Gartenweg","postalCode":"95126","locality":"Schwarzenbach a.d.Saale","municipality":{"key":"09475168","name":"Schwarzenbach a.d.Saale, St","type":"Stadt"},"district":{"key":"09475","name":"Hof","type":"Landkreis"},"federalState":{"key":"09","name":"Bayern"}},{"name":"Gassäcker","postalCode":"92720","locality":"Schwarzenbach","municipality":{"key":"09374156","name":"Schwarzenbach","type":"Kreisangehörige_Gemeinde"},"district":{"key":"09374","name":"Neustadt a.d.Waldnaab","type":"Landkreis"},"federalState":{"key":"09","name":"Bayern"}},{"name":"Gemeinreuth","postalCode":"95131","locality":"Schwarzenbach a.Wald","municipality":{"key":"09475169","name":"Schwarzenbach a.Wald, St","type":"Stadt"},"district":{"key":"09475","name":"Hof","type":"Landkreis"},"federalState":{"key":"09","name":"Bayern"}},{"name":"Georg-Hüttner-Platz","postalCode":"95131","locality":"Schwarzenbach a.Wald","municipality":{"key":"09475169","name":"Schwarzenbach a.Wald, St","type":"Stadt"},"district":{"key":"09475","name":"Hof","type":"Landkreis"},"federalState":{"key":"09","name":"Bayern"}},{"name":"Georgstr.","postalCode":"95126","locality":"Schwarzenbach a.d.Saale","municipality":{"key":"09475168","name":"Schwarzenbach a.d.Saale, St","type":"Stadt"},"district":{"key":"09475","name":"Hof","type":"Landkreis"},"federalState":{"key":"09","name":"Bayern"}},{"name":"Geranienweg","postalCode":"95131","locality":"Schwarzenbach a.Wald","municipality":{"key":"09475169","name":"Schwarzenbach a.Wald, St","type":"Stadt"},"district":{"key":"09475","name":"Hof","type":"Landkreis"},"federalState":{"key":"09","name":"Bayern"}},{"name":"Gerhart-Hauptmann-Str.","postalCode":"95126","locality":"Schwarzenbach a.d.Saale","municipality":{"key":"09475168","name":"Schwarzenbach a.d.Saale, St","type":"Stadt"},"district":{"key":"09475","name":"Hof","type":"Landkreis"},"federalState":{"key":"09","name":"Bayern"}},{"name":"Geroldsgrüner Str.","postalCode":"95131","locality":"Schwarzenbach a.Wald","municipality":{"key":"09475169","name":"Schwarzenbach a.Wald, St","type":"Stadt"},"district":{"key":"09475","name":"Hof","type":"Landkreis"},"federalState":{"key":"09","name":"Bayern"}},{"name":"Goethestr.","postalCode":"95126","locality":"Schwarzenbach a.d.Saale","municipality":{"key":"09475168","name":"Schwarzenbach a.d.Saale, St","type":"Stadt"},"district":{"key":"09475","name":"Hof","type":"Landkreis"},"federalState":{"key":"09","name":"Bayern"}},{"name":"Goethestr.","postalCode":"95131","locality":"Schwarzenbach a.Wald","municipality":{"key":"09475169","name":"Schwarzenbach a.Wald, St","type":"Stadt"},"district":{"key":"09475","name":"Hof","type":"Landkreis"},"federalState":{"key":"09","name":"Bayern"}},{"name":"Gollersberg","postalCode":"95126","locality":"Schwarzenbach a.d.Saale","municipality":{"key":"09475168","name":"Schwarzenbach a.d.Saale, St","type":"Stadt"},"district":{"key":"09475","name":"Hof","type":"Landkreis"},"federalState":{"key":"09","name":"Bayern"}},{"name":"Gottsmannsgrüner Weg","postalCode":"95131","locality":"Schwarzenbach a.Wald","municipality":{"key":"09475169","name":"Schwarzenbach a.Wald, St","type":"Stadt"},"district":{"key":"09475","name":"Hof","type":"Landkreis"},"federalState":{"key":"09","name":"Bayern"}},{"name":"Götzmannsgrün","postalCode":"95126","locality":"Schwarzenbach a.d.Saale","municipality":{"key":"09475168","name":"Schwarzenbach a.d.Saale, St","type":"Stadt"},"district":{"key":"09475","name":"Hof","type":"Landkreis"},"federalState":{"key":"09","name":"Bayern"}},{"name":"Götzmannsgrüner Str.","postalCode":"95126","locality":"Schwarzenbach a.d.Saale","municipality":{"key":"09475168","name":"Schwarzenbach a.d.Saale, St","type":"Stadt"},"district":{"key":"09475","name":"Hof","type":"Landkreis"},"federalState":{"key":"09","name":"Bayern"}},{"name":"Grüner Weg","postalCode":"95126","locality":"Schwarzenbach a.d.Saale","municipality":{"key":"09475168","name":"Schwarzenbach a.d.Saale, St","type":"Stadt"},"district":{"key":"09475","name":"Hof","type":"Landkreis"},"federalState":{"key":"09","name":"Bayern"}},{"name":"Habichtweg","postalCode":"92720","locality":"Schwarzenbach","municipality":{"key":"09374156","name":"Schwarzenbach","type":"Kreisangehörige_Gemeinde"},"district":{"key":"09374","name":"Neustadt a.d.Waldnaab","type":"Landkreis"},"federalState":{"key":"09","name":"Bayern"}},{"name":"Haidengrünerweg","postalCode":"95131","locality":"Schwarzenbach a.Wald","municipality":{"key":"09475169","name":"Schwarzenbach a.Wald, St","type":"Stadt"},"district":{"key":"09475","name":"Hof","type":"Landkreis"},"federalState":{"key":"09","name":"Bayern"}},{"name":"Hainbergweg","postalCode":"95126","locality":"Schwarzenbach a.d.Saale","municipality":{"key":"09475168","name":"Schwarzenbach a.d.Saale, St","type":"Stadt"},"district":{"key":"09475","name":"Hof","type":"Landkreis"},"federalState":{"key":"09","name":"Bayern"}},{"name":"Hallerstein","postalCode":"95126","locality":"Schwarzenbach a.d.Saale","municipality":{"key":"09475168","name":"Schwarzenbach a.d.Saale, St","type":"Stadt"},"district":{"key":"09475","name":"Hof","type":"Landkreis"},"federalState":{"key":"09","name":"Bayern"}},{"name":"Hallersteiner Str.","postalCode":"95126","locality":"Schwarzenbach a.d.Saale","municipality":{"key":"09475168","name":"Schwarzenbach a.d.Saale, St","type":"Stadt"},"district":{"key":"09475","name":"Hof","type":"Landkreis"},"federalState":{"key":"09","name":"Bayern"}},{"name":"Hans-Richter-Str.","postalCode":"95131","locality":"Schwarzenbach a.Wald","municipality":{"key":"09475169","name":"Schwarzenbach a.Wald, St","type":"Stadt"},"district":{"key":"09475","name":"Hof","type":"Landkreis"},"federalState":{"key":"09","name":"Bayern"}},{"name":"Hasenweg","postalCode":"95126","locality":"Schwarzenbach a.d.Saale","municipality":{"key":"09475168","name":"Schwarzenbach a.d.Saale, St","type":"Stadt"},"district":{"key":"09475","name":"Hof","type":"Landkreis"},"federalState":{"key":"09","name":"Bayern"}},{"name":"Hauptstr.","postalCode":"92720","locality":"Schwarzenbach","municipality":{"key":"09374156","name":"Schwarzenbach","type":"Kreisangehörige_Gemeinde"},"district":{"key":"09374","name":"Neustadt a.d.Waldnaab","type":"Landkreis"},"federalState":{"key":"09","name":"Bayern"}},{"name":"Hauptstr.","postalCode":"95131","locality":"Schwarzenbach a.Wald","municipality":{"key":"09475169","name":"Schwarzenbach a.Wald, St","type":"Stadt"},"district":{"key":"09475","name":"Hof","type":"Landkreis"},"federalState":{"key":"09","name":"Bayern"}},{"name":"Heideweg","postalCode":"95126","locality":"Schwarzenbach a.d.Saale","municipality":{"key":"09475168","name":"Schwarzenbach a.d.Saale, St","type":"Stadt"},"district":{"key":"09475","name":"Hof","type":"Landkreis"},"federalState":{"key":"09","name":"Bayern"}},{"name":"Heimstättensiedlung","postalCode":"95126","locality":"Schwarzenbach a.d.Saale","municipality":{"key":"09475168","name":"Schwarzenbach a.d.Saale, St","type":"Stadt"},"district":{"key":"09475","name":"Hof","type":"Landkreis"},"federalState":{"key":"09","name":"Bayern"}},{"name":"Hellerinsel","postalCode":"95126","locality":"Schwarzenbach a.d.Saale","municipality":{"key":"09475168","name":"Schwarzenbach a.d.Saale, St","type":"Stadt"},"district":{"key":"09475","name":"Hof","type":"Landkreis"},"federalState":{"key":"09","name":"Bayern"}},{"name":"Hellersinsel","postalCode":"95126","locality":"Schwarzenbach a.d.Saale","municipality":{"key":"09475168","name":"Schwarzenbach a.d.Saale, St","type":"Stadt"},"district":{"key":"09475","name":"Hof","type":"Landkreis"},"federalState":{"key":"09","name":"Bayern"}},{"name":"Helmbrechtser Str.","postalCode":"95131","locality":"Schwarzenbach a.Wald","municipality":{"key":"09475169","name":"Schwarzenbach a.Wald, St","type":"Stadt"},"district":{"key":"09475","name":"Hof","type":"Landkreis"},"federalState":{"key":"09","name":"Bayern"}},{"name":"Hertelsleite","postalCode":"95126","locality":"Schwarzenbach a.d.Saale","municipality":{"key":"09475168","name":"Schwarzenbach a.d.Saale, St","type":"Stadt"},"district":{"key":"09475","name":"Hof","type":"Landkreis"},"federalState":{"key":"09","name":"Bayern"}},{"name":"Hirschsteinweg","postalCode":"95126","locality":"Schwarzenbach a.d.Saale","municipality":{"key":"09475168","name":"Schwarzenbach a.d.Saale, St","type":"Stadt"},"district":{"key":"09475","name":"Hof","type":"Landkreis"},"federalState":{"key":"09","name":"Bayern"}},{"name":"Hochstr.","postalCode":"95131","locality":"Schwarzenbach a.Wald","municipality":{"key":"09475169","name":"Schwarzenbach a.Wald, St","type":"Stadt"},"district":{"key":"09475","name":"Hof","type":"Landkreis"},"federalState":{"key":"09","name":"Bayern"}},{"name":"Hofer Str.","postalCode":"95126","locality":"Schwarzenbach a.d.Saale","municipality":{"key":"09475168","name":"Schwarzenbach a.d.Saale, St","type":"Stadt"},"district":{"key":"09475","name":"Hof","type":"Landkreis"},"federalState":{"key":"09","name":"Bayern"}},{"name":"Hohentanne","postalCode":"95131","locality":"Schwarzenbach a.Wald","municipality":{"key":"09475169","name":"Schwarzenbach a.Wald, St","type":"Stadt"},"district":{"key":"09475","name":"Hof","type":"Landkreis"},"federalState":{"key":"09","name":"Bayern"}},{"name":"Höhenweg","postalCode":"95126","locality":"Schwarzenbach a.d.Saale","municipality":{"key":"09475168","name":"Schwarzenbach a.d.Saale, St","type":"Stadt"},"district":{"key":"09475","name":"Hof","type":"Landkreis"},"federalState":{"key":"09","name":"Bayern"}},{"name":"Hohe Str.","postalCode":"92720","locality":"Schwarzenbach","municipality":{"key":"09374156","name":"Schwarzenbach","type":"Kreisangehörige_Gemeinde"},"district":{"key":"09374","name":"Neustadt a.d.Waldnaab","type":"Landkreis"},"federalState":{"key":"09","name":"Bayern"}},{"name":"Hölderlinstr.","postalCode":"95126","locality":"Schwarzenbach a.d.Saale","municipality":{"key":"09475168","name":"Schwarzenbach a.d.Saale, St","type":"Stadt"},"district":{"key":"09475","name":"Hof","type":"Landkreis"},"federalState":{"key":"09","name":"Bayern"}},{"name":"Holzgartenstr.","postalCode":"95126","locality":"Schwarzenbach a.d.Saale","municipality":{"key":"09475168","name":"Schwarzenbach a.d.Saale, St","type":"Stadt"},"district":{"key":"09475","name":"Hof","type":"Landkreis"},"federalState":{"key":"09","name":"Bayern"}},{"name":"Hopfengarten","postalCode":"95126","locality":"Schwarzenbach a.d.Saale","municipality":{"key":"09475168","name":"Schwarzenbach a.d.Saale, St","type":"Stadt"},"district":{"key":"09475","name":"Hof","type":"Landkreis"},"federalState":{"key":"09","name":"Bayern"}},{"name":"Hühnergäßchen","postalCode":"95126","locality":"Schwarzenbach a.d.Saale","municipality":{"key":"09475168","name":"Schwarzenbach a.d.Saale, St","type":"Stadt"},"district":{"key":"09475","name":"Hof","type":"Landkreis"},"federalState":{"key":"09","name":"Bayern"}},{"name":"Hundsruckweg","postalCode":"95126","locality":"Schwarzenbach a.d.Saale","municipality":{"key":"09475168","name":"Schwarzenbach a.d.Saale, St","type":"Stadt"},"district":{"key":"09475","name":"Hof","type":"Landkreis"},"federalState":{"key":"09","name":"Bayern"}},{"name":"Im Moos","postalCode":"92720","locality":"Schwarzenbach","municipality":{"key":"09374156","name":"Schwarzenbach","type":"Kreisangehörige_Gemeinde"},"district":{"key":"09374","name":"Neustadt a.d.Waldnaab","type":"Landkreis"},"federalState":{"key":"09","name":"Bayern"}},{"name":"Industriestr.","postalCode":"95126","locality":"Schwarzenbach a.d.Saale","municipality":{"key":"09475168","name":"Schwarzenbach a.d.Saale, St","type":"Stadt"},"district":{"key":"09475","name":"Hof","type":"Landkreis"},"federalState":{"key":"09","name":"Bayern"}},{"name":"Itenstr.","postalCode":"95131","locality":"Schwarzenbach a.Wald","municipality":{"key":"09475169","name":"Schwarzenbach a.Wald, St","type":"Stadt"},"district":{"key":"09475","name":"Hof","type":"Landkreis"},"federalState":{"key":"09","name":"Bayern"}},{"name":"Jägerstr.","postalCode":"95131","locality":"Schwarzenbach a.Wald","municipality":{"key":"09475169","name":"Schwarzenbach a.Wald, St","type":"Stadt"},"district":{"key":"09475","name":"Hof","type":"Landkreis"},"federalState":{"key":"09","name":"Bayern"}},{"name":"Jahnstr.","postalCode":"95126","locality":"Schwarzenbach a.d.Saale","municipality":{"key":"09475168","name":"Schwarzenbach a.d.Saale, St","type":"Stadt"},"district":{"key":"09475","name":"Hof","type":"Landkreis"},"federalState":{"key":"09","name":"Bayern"}},{"name":"Jean-Paul-Str.","postalCode":"95126","locality":"Schwarzenbach a.d.Saale","municipality":{"key":"09475168","name":"Schwarzenbach a.d.Saale, St","type":"Stadt"},"district":{"key":"09475","name":"Hof","type":"Landkreis"},"federalState":{"key":"09","name":"Bayern"}},{"name":"Johann-Sebastian-Bach-Str.","postalCode":"95131","locality":"Schwarzenbach a.Wald","municipality":{"key":"09475169","name":"Schwarzenbach a.Wald, St","type":"Stadt"},"district":{"key":"09475","name":"Hof","type":"Landkreis"},"federalState":{"key":"09","name":"Bayern"}},{"name":"Josef-Witt-Str.","postalCode":"95131","locality":"Schwarzenbach a.Wald","municipality":{"key":"09475169","name":"Schwarzenbach a.Wald, St","type":"Stadt"},"district":{"key":"09475","name":"Hof","type":"Landkreis"},"federalState":{"key":"09","name":"Bayern"}},{"name":"Josephstr.","postalCode":"95131","locality":"Schwarzenbach a.Wald","municipality":{"key":"09475169","name":"Schwarzenbach a.Wald, St","type":"Stadt"},"district":{"key":"09475","name":"Hof","type":"Landkreis"},"federalState":{"key":"09","name":"Bayern"}},{"name":"Kantstr.","postalCode":"95126","locality":"Schwarzenbach a.d.Saale","municipality":{"key":"09475168","name":"Schwarzenbach a.d.Saale, St","type":"Stadt"},"district":{"key":"09475","name":"Hof","type":"Landkreis"},"federalState":{"key":"09","name":"Bayern"}},{"name":"Kapellenweg","postalCode":"92720","locality":"Schwarzenbach","municipality":{"key":"09374156","name":"Schwarzenbach","type":"Kreisangehörige_Gemeinde"},"district":{"key":"09374","name":"Neustadt a.d.Waldnaab","type":"Landkreis"},"federalState":{"key":"09","name":"Bayern"}},{"name":"Karlsbader Str.","postalCode":"95126","locality":"Schwarzenbach a.d.Saale","municipality":{"key":"09475168","name":"Schwarzenbach a.d.Saale, St","type":"Stadt"},"district":{"key":"09475","name":"Hof","type":"Landkreis"},"federalState":{"key":"09","name":"Bayern"}},{"name":"Karl-Schmidt-Str.","postalCode":"95131","locality":"Schwarzenbach a.Wald","municipality":{"key":"09475169","name":"Schwarzenbach a.Wald, St","type":"Stadt"},"district":{"key":"09475","name":"Hof","type":"Landkreis"},"federalState":{"key":"09","name":"Bayern"}},{"name":"Karlstr.","postalCode":"95126","locality":"Schwarzenbach a.d.Saale","municipality":{"key":"09475168","name":"Schwarzenbach a.d.Saale, St","type":"Stadt"},"district":{"key":"09475","name":"Hof","type":"Landkreis"},"federalState":{"key":"09","name":"Bayern"}},{"name":"Kiebitzweg","postalCode":"95126","locality":"Schwarzenbach a.d.Saale","municipality":{"key":"09475168","name":"Schwarzenbach a.d.Saale, St","type":"Stadt"},"district":{"key":"09475","name":"Hof","type":"Landkreis"},"federalState":{"key":"09","name":"Bayern"}},{"name":"Kiefernweg","postalCode":"95131","locality":"Schwarzenbach a.Wald","municipality":{"key":"09475169","name":"Schwarzenbach a.Wald, St","type":"Stadt"},"district":{"key":"09475","name":"Hof","type":"Landkreis"},"federalState":{"key":"09","name":"Bayern"}},{"name":"Kirchberg","postalCode":"95126","locality":"Schwarzenbach a.d.Saale","municipality":{"key":"09475168","name":"Schwarzenbach a.d.Saale, St","type":"Stadt"},"district":{"key":"09475","name":"Hof","type":"Landkreis"},"federalState":{"key":"09","name":"Bayern"}},{"name":"Kirchenlamitzer Str.","postalCode":"95126","locality":"Schwarzenbach a.d.Saale","municipality":{"key":"09475168","name":"Schwarzenbach a.d.Saale, St","type":"Stadt"},"district":{"key":"09475","name":"Hof","type":"Landkreis"},"federalState":{"key":"09","name":"Bayern"}},{"name":"Kirchenstr.","postalCode":"92720","locality":"Schwarzenbach","municipality":{"key":"09374156","name":"Schwarzenbach","type":"Kreisangehörige_Gemeinde"},"district":{"key":"09374","name":"Neustadt a.d.Waldnaab","type":"Landkreis"},"federalState":{"key":"09","name":"Bayern"}},{"name":"Kirchsteig","postalCode":"95131","locality":"Schwarzenbach a.Wald","municipality":{"key":"09475169","name":"Schwarzenbach a.Wald, St","type":"Stadt"},"district":{"key":"09475","name":"Hof","type":"Landkreis"},"federalState":{"key":"09","name":"Bayern"}},{"name":"Kirchstr.","postalCode":"95126","locality":"Schwarzenbach a.d.Saale","municipality":{"key":"09475168","name":"Schwarzenbach a.d.Saale, St","type":"Stadt"},"district":{"key":"09475","name":"Hof","type":"Landkreis"},"federalState":{"key":"09","name":"Bayern"}},{"name":"Kirchstr.","postalCode":"95131","locality":"Schwarzenbach a.Wald","municipality":{"key":"09475169","name":"Schwarzenbach a.Wald, St","type":"Stadt"},"district":{"key":"09475","name":"Hof","type":"Landkreis"},"federalState":{"key":"09","name":"Bayern"}},{"name":"Kirchweg","postalCode":"95131","locality":"Schwarzenbach a.Wald","municipality":{"key":"09475169","name":"Schwarzenbach a.Wald, St","type":"Stadt"},"district":{"key":"09475","name":"Hof","type":"Landkreis"},"federalState":{"key":"09","name":"Bayern"}},{"name":"Kleindöbra","postalCode":"95131","locality":"Schwarzenbach a.Wald","municipality":{"key":"09475169","name":"Schwarzenbach a.Wald, St","type":"Stadt"},"district":{"key":"09475","name":"Hof","type":"Landkreis"},"federalState":{"key":"09","name":"Bayern"}},{"name":"Königsberger Str.","postalCode":"95126","locality":"Schwarzenbach a.d.Saale","municipality":{"key":"09475168","name":"Schwarzenbach a.d.Saale, St","type":"Stadt"},"district":{"key":"09475","name":"Hof","type":"Landkreis"},"federalState":{"key":"09","name":"Bayern"}},{"name":"Kornblumenweg","postalCode":"95126","locality":"Schwarzenbach a.d.Saale","municipality":{"key":"09475168","name":"Schwarzenbach a.d.Saale, St","type":"Stadt"},"district":{"key":"09475","name":"Hof","type":"Landkreis"},"federalState":{"key":"09","name":"Bayern"}},{"name":"Kösseineweg","postalCode":"95126","locality":"Schwarzenbach a.d.Saale","municipality":{"key":"09475168","name":"Schwarzenbach a.d.Saale, St","type":"Stadt"},"district":{"key":"09475","name":"Hof","type":"Landkreis"},"federalState":{"key":"09","name":"Bayern"}},{"name":"Kreuzsteinweg","postalCode":"95126","locality":"Schwarzenbach a.d.Saale","municipality":{"key":"09475168","name":"Schwarzenbach a.d.Saale, St","type":"Stadt"},"district":{"key":"09475","name":"Hof","type":"Landkreis"},"federalState":{"key":"09","name":"Bayern"}},{"name":"Kreuzweg","postalCode":"95131","locality":"Schwarzenbach a.Wald","municipality":{"key":"09475169","name":"Schwarzenbach a.Wald, St","type":"Stadt"},"district":{"key":"09475","name":"Hof","type":"Landkreis"},"federalState":{"key":"09","name":"Bayern"}},{"name":"Krokusweg","postalCode":"95126","locality":"Schwarzenbach a.d.Saale","municipality":{"key":"09475168","name":"Schwarzenbach a.d.Saale, St","type":"Stadt"},"district":{"key":"09475","name":"Hof","type":"Landkreis"},"federalState":{"key":"09","name":"Bayern"}},{"name":"Kronacher Str.","postalCode":"95131","locality":"Schwarzenbach a.Wald","municipality":{"key":"09475169","name":"Schwarzenbach a.Wald, St","type":"Stadt"},"district":{"key":"09475","name":"Hof","type":"Landkreis"},"federalState":{"key":"09","name":"Bayern"}},{"name":"Krummer Weg","postalCode":"95126","locality":"Schwarzenbach a.d.Saale","municipality":{"key":"09475168","name":"Schwarzenbach a.d.Saale, St","type":"Stadt"},"district":{"key":"09475","name":"Hof","type":"Landkreis"},"federalState":{"key":"09","name":"Bayern"}},{"name":"Kurze Str.","postalCode":"95131","locality":"Schwarzenbach a.Wald","municipality":{"key":"09475169","name":"Schwarzenbach a.Wald, St","type":"Stadt"},"district":{"key":"09475","name":"Hof","type":"Landkreis"},"federalState":{"key":"09","name":"Bayern"}},{"name":"Lamitzsteig","postalCode":"95126","locality":"Schwarzenbach a.d.Saale","municipality":{"key":"09475168","name":"Schwarzenbach a.d.Saale, St","type":"Stadt"},"district":{"key":"09475","name":"Hof","type":"Landkreis"},"federalState":{"key":"09","name":"Bayern"}},{"name":"Langenbach","postalCode":"95126","locality":"Schwarzenbach a.d.Saale","municipality":{"key":"09475168","name":"Schwarzenbach a.d.Saale, St","type":"Stadt"},"district":{"key":"09475","name":"Hof","type":"Landkreis"},"federalState":{"key":"09","name":"Bayern"}},{"name":"Lärchenweg","postalCode":"95131","locality":"Schwarzenbach a.Wald","municipality":{"key":"09475169","name":"Schwarzenbach a.Wald, St","type":"Stadt"},"district":{"key":"09475","name":"Hof","type":"Landkreis"},"federalState":{"key":"09","name":"Bayern"}},{"name":"Lerchenweg","postalCode":"92720","locality":"Schwarzenbach","municipality":{"key":"09374156","name":"Schwarzenbach","type":"Kreisangehörige_Gemeinde"},"district":{"key":"09374","name":"Neustadt a.d.Waldnaab","type":"Landkreis"},"federalState":{"key":"09","name":"Bayern"}},{"name":"Lerchenweg","postalCode":"95126","locality":"Schwarzenbach a.d.Saale","municipality":{"key":"09475168","name":"Schwarzenbach a.d.Saale, St","type":"Stadt"},"district":{"key":"09475","name":"Hof","type":"Landkreis"},"federalState":{"key":"09","name":"Bayern"}},{"name":"Lessingstr.","postalCode":"95126","locality":"Schwarzenbach a.d.Saale","municipality":{"key":"09475168","name":"Schwarzenbach a.d.Saale, St","type":"Stadt"},"district":{"key":"09475","name":"Hof","type":"Landkreis"},"federalState":{"key":"09","name":"Bayern"}},{"name":"Lessingstr.","postalCode":"95131","locality":"Schwarzenbach a.Wald","municipality":{"key":"09475169","name":"Schwarzenbach a.Wald, St","type":"Stadt"},"district":{"key":"09475","name":"Hof","type":"Landkreis"},"federalState":{"key":"09","name":"Bayern"}},{"name":"Lilienweg","postalCode":"92720","locality":"Schwarzenbach","municipality":{"key":"09374156","name":"Schwarzenbach","type":"Kreisangehörige_Gemeinde"},"district":{"key":"09374","name":"Neustadt a.d.Waldnaab","type":"Landkreis"},"federalState":{"key":"09","name":"Bayern"}},{"name":"Lindenweg","postalCode":"95126","locality":"Schwarzenbach a.d.Saale","municipality":{"key":"09475168","name":"Schwarzenbach a.d.Saale, St","type":"Stadt"},"district":{"key":"09475","name":"Hof","type":"Landkreis"},"federalState":{"key":"09","name":"Bayern"}},{"name":"Lindenweg","postalCode":"95131","locality":"Schwarzenbach a.Wald","municipality":{"key":"09475169","name":"Schwarzenbach a.Wald, St","type":"Stadt"},"district":{"key":"09475","name":"Hof","type":"Landkreis"},"federalState":{"key":"09","name":"Bayern"}},{"name":"Lippertsgrüner Str.","postalCode":"95131","locality":"Schwarzenbach a.Wald","municipality":{"key":"09475169","name":"Schwarzenbach a.Wald, St","type":"Stadt"},"district":{"key":"09475","name":"Hof","type":"Landkreis"},"federalState":{"key":"09","name":"Bayern"}},{"name":"Lohbachstr.","postalCode":"95126","locality":"Schwarzenbach a.d.Saale","municipality":{"key":"09475168","name":"Schwarzenbach a.d.Saale, St","type":"Stadt"},"district":{"key":"09475","name":"Hof","type":"Landkreis"},"federalState":{"key":"09","name":"Bayern"}},{"name":"Löhmarer Weg","postalCode":"95131","locality":"Schwarzenbach a.Wald","municipality":{"key":"09475169","name":"Schwarzenbach a.Wald, St","type":"Stadt"},"district":{"key":"09475","name":"Hof","type":"Landkreis"},"federalState":{"key":"09","name":"Bayern"}},{"name":"Lohstr.","postalCode":"95131","locality":"Schwarzenbach a.Wald","municipality":{"key":"09475169","name":"Schwarzenbach a.Wald, St","type":"Stadt"},"district":{"key":"09475","name":"Hof","type":"Landkreis"},"federalState":{"key":"09","name":"Bayern"}},{"name":"Lorenz-Summa-Str.","postalCode":"95126","locality":"Schwarzenbach a.d.Saale","municipality":{"key":"09475168","name":"Schwarzenbach a.d.Saale, St","type":"Stadt"},"district":{"key":"09475","name":"Hof","type":"Landkreis"},"federalState":{"key":"09","name":"Bayern"}},{"name":"Ludwigstr.","postalCode":"95126","locality":"Schwarzenbach a.d.Saale","municipality":{"key":"09475168","name":"Schwarzenbach a.d.Saale, St","type":"Stadt"},"district":{"key":"09475","name":"Hof","type":"Landkreis"},"federalState":{"key":"09","name":"Bayern"}},{"name":"Luisenburgweg","postalCode":"95126","locality":"Schwarzenbach a.d.Saale","municipality":{"key":"09475168","name":"Schwarzenbach a.d.Saale, St","type":"Stadt"},"district":{"key":"09475","name":"Hof","type":"Landkreis"},"federalState":{"key":"09","name":"Bayern"}},{"name":"Lupinenweg","postalCode":"95126","locality":"Schwarzenbach a.d.Saale","municipality":{"key":"09475168","name":"Schwarzenbach a.d.Saale, St","type":"Stadt"},"district":{"key":"09475","name":"Hof","type":"Landkreis"},"federalState":{"key":"09","name":"Bayern"}},{"name":"Mainstr.","postalCode":"95126","locality":"Schwarzenbach a.d.Saale","municipality":{"key":"09475168","name":"Schwarzenbach a.d.Saale, St","type":"Stadt"},"district":{"key":"09475","name":"Hof","type":"Landkreis"},"federalState":{"key":"09","name":"Bayern"}},{"name":"Marienstr.","postalCode":"95126","locality":"Schwarzenbach a.d.Saale","municipality":{"key":"09475168","name":"Schwarzenbach a.d.Saale, St","type":"Stadt"},"district":{"key":"09475","name":"Hof","type":"Landkreis"},"federalState":{"key":"09","name":"Bayern"}},{"name":"Marienstr.","postalCode":"95131","locality":"Schwarzenbach a.Wald","municipality":{"key":"09475169","name":"Schwarzenbach a.Wald, St","type":"Stadt"},"district":{"key":"09475","name":"Hof","type":"Landkreis"},"federalState":{"key":"09","name":"Bayern"}},{"name":"Marktplatz","postalCode":"95126","locality":"Schwarzenbach a.d.Saale","municipality":{"key":"09475168","name":"Schwarzenbach a.d.Saale, St","type":"Stadt"},"district":{"key":"09475","name":"Hof","type":"Landkreis"},"federalState":{"key":"09","name":"Bayern"}},{"name":"Marktplatz","postalCode":"95131","locality":"Schwarzenbach a.Wald","municipality":{"key":"09475169","name":"Schwarzenbach a.Wald, St","type":"Stadt"},"district":{"key":"09475","name":"Hof","type":"Landkreis"},"federalState":{"key":"09","name":"Bayern"}},{"name":"Martinlamitzer Str.","postalCode":"95126","locality":"Schwarzenbach a.d.Saale","municipality":{"key":"09475168","name":"Schwarzenbach a.d.Saale, St","type":"Stadt"},"district":{"key":"09475","name":"Hof","type":"Landkreis"},"federalState":{"key":"09","name":"Bayern"}},{"name":"Martin-Luther-Platz","postalCode":"95131","locality":"Schwarzenbach a.Wald","municipality":{"key":"09475169","name":"Schwarzenbach a.Wald, St","type":"Stadt"},"district":{"key":"09475","name":"Hof","type":"Landkreis"},"federalState":{"key":"09","name":"Bayern"}},{"name":"Martin-Luther-Str.","postalCode":"95126","locality":"Schwarzenbach a.d.Saale","municipality":{"key":"09475168","name":"Schwarzenbach a.d.Saale, St","type":"Stadt"},"district":{"key":"09475","name":"Hof","type":"Landkreis"},"federalState":{"key":"09","name":"Bayern"}},{"name":"Max-Reger-Str.","postalCode":"95126","locality":"Schwarzenbach a.d.Saale","municipality":{"key":"09475168","name":"Schwarzenbach a.d.Saale, St","type":"Stadt"},"district":{"key":"09475","name":"Hof","type":"Landkreis"},"federalState":{"key":"09","name":"Bayern"}},{"name":"Meilerstatt","postalCode":"95131","locality":"Schwarzenbach a.Wald","municipality":{"key":"09475169","name":"Schwarzenbach a.Wald, St","type":"Stadt"},"district":{"key":"09475","name":"Hof","type":"Landkreis"},"federalState":{"key":"09","name":"Bayern"}},{"name":"Meisenweg","postalCode":"92720","locality":"Schwarzenbach","municipality":{"key":"09374156","name":"Schwarzenbach","type":"Kreisangehörige_Gemeinde"},"district":{"key":"09374","name":"Neustadt a.d.Waldnaab","type":"Landkreis"},"federalState":{"key":"09","name":"Bayern"}},{"name":"Meisenweg","postalCode":"95126","locality":"Schwarzenbach a.d.Saale","municipality":{"key":"09475168","name":"Schwarzenbach a.d.Saale, St","type":"Stadt"},"district":{"key":"09475","name":"Hof","type":"Landkreis"},"federalState":{"key":"09","name":"Bayern"}},{"name":"Moosacker","postalCode":"92720","locality":"Schwarzenbach","municipality":{"key":"09374156","name":"Schwarzenbach","type":"Kreisangehörige_Gemeinde"},"district":{"key":"09374","name":"Neustadt a.d.Waldnaab","type":"Landkreis"},"federalState":{"key":"09","name":"Bayern"}},{"name":"Moosanger","postalCode":"92720","locality":"Schwarzenbach","municipality":{"key":"09374156","name":"Schwarzenbach","type":"Kreisangehörige_Gemeinde"},"district":{"key":"09374","name":"Neustadt a.d.Waldnaab","type":"Landkreis"},"federalState":{"key":"09","name":"Bayern"}},{"name":"Moosgraben","postalCode":"92720","locality":"Schwarzenbach","municipality":{"key":"09374156","name":"Schwarzenbach","type":"Kreisangehörige_Gemeinde"},"district":{"key":"09374","name":"Neustadt a.d.Waldnaab","type":"Landkreis"},"federalState":{"key":"09","name":"Bayern"}},{"name":"Moosweg","postalCode":"92720","locality":"Schwarzenbach","municipality":{"key":"09374156","name":"Schwarzenbach","type":"Kreisangehörige_Gemeinde"},"district":{"key":"09374","name":"Neustadt a.d.Waldnaab","type":"Landkreis"},"federalState":{"key":"09","name":"Bayern"}},{"name":"Moosweiher","postalCode":"92720","locality":"Schwarzenbach","municipality":{"key":"09374156","name":"Schwarzenbach","type":"Kreisangehörige_Gemeinde"},"district":{"key":"09374","name":"Neustadt a.d.Waldnaab","type":"Landkreis"},"federalState":{"key":"09","name":"Bayern"}},{"name":"Mooswiesen","postalCode":"92720","locality":"Schwarzenbach","municipality":{"key":"09374156","name":"Schwarzenbach","type":"Kreisangehörige_Gemeinde"},"district":{"key":"09374","name":"Neustadt a.d.Waldnaab","type":"Landkreis"},"federalState":{"key":"09","name":"Bayern"}},{"name":"Mozartstr.","postalCode":"95126","locality":"Schwarzenbach a.d.Saale","municipality":{"key":"09475168","name":"Schwarzenbach a.d.Saale, St","type":"Stadt"},"district":{"key":"09475","name":"Hof","type":"Landkreis"},"federalState":{"key":"09","name":"Bayern"}},{"name":"Mühlenweg","postalCode":"95131","locality":"Schwarzenbach a.Wald","municipality":{"key":"09475169","name":"Schwarzenbach a.Wald, St","type":"Stadt"},"district":{"key":"09475","name":"Hof","type":"Landkreis"},"federalState":{"key":"09","name":"Bayern"}},{"name":"Mulzhausweg","postalCode":"95131","locality":"Schwarzenbach a.Wald","municipality":{"key":"09475169","name":"Schwarzenbach a.Wald, St","type":"Stadt"},"district":{"key":"09475","name":"Hof","type":"Landkreis"},"federalState":{"key":"09","name":"Bayern"}},{"name":"Münchberger Str.","postalCode":"95126","locality":"Schwarzenbach a.d.Saale","municipality":{"key":"09475168","name":"Schwarzenbach a.d.Saale, St","type":"Stadt"},"district":{"key":"09475","name":"Hof","type":"Landkreis"},"federalState":{"key":"09","name":"Bayern"}},{"name":"Naabstr.","postalCode":"95126","locality":"Schwarzenbach a.d.Saale","municipality":{"key":"09475168","name":"Schwarzenbach a.d.Saale, St","type":"Stadt"},"district":{"key":"09475","name":"Hof","type":"Landkreis"},"federalState":{"key":"09","name":"Bayern"}},{"name":"Nailaer Str.","postalCode":"95131","locality":"Schwarzenbach a.Wald","municipality":{"key":"09475169","name":"Schwarzenbach a.Wald, St","type":"Stadt"},"district":{"key":"09475","name":"Hof","type":"Landkreis"},"federalState":{"key":"09","name":"Bayern"}},{"name":"Nelkenweg","postalCode":"92720","locality":"Schwarzenbach","municipality":{"key":"09374156","name":"Schwarzenbach","type":"Kreisangehörige_Gemeinde"},"district":{"key":"09374","name":"Neustadt a.d.Waldnaab","type":"Landkreis"},"federalState":{"key":"09","name":"Bayern"}},{"name":"Neue Siedlung","postalCode":"95126","locality":"Schwarzenbach a.d.Saale","municipality":{"key":"09475168","name":"Schwarzenbach a.d.Saale, St","type":"Stadt"},"district":{"key":"09475","name":"Hof","type":"Landkreis"},"federalState":{"key":"09","name":"Bayern"}},{"name":"Neue Str.","postalCode":"95126","locality":"Schwarzenbach a.d.Saale","municipality":{"key":"09475168","name":"Schwarzenbach a.d.Saale, St","type":"Stadt"},"district":{"key":"09475","name":"Hof","type":"Landkreis"},"federalState":{"key":"09","name":"Bayern"}},{"name":"Nordstr.","postalCode":"95131","locality":"Schwarzenbach a.Wald","municipality":{"key":"09475169","name":"Schwarzenbach a.Wald, St","type":"Stadt"},"district":{"key":"09475","name":"Hof","type":"Landkreis"},"federalState":{"key":"09","name":"Bayern"}},{"name":"Nußhardtweg","postalCode":"95126","locality":"Schwarzenbach a.d.Saale","municipality":{"key":"09475168","name":"Schwarzenbach a.d.Saale, St","type":"Stadt"},"district":{"key":"09475","name":"Hof","type":"Landkreis"},"federalState":{"key":"09","name":"Bayern"}},{"name":"Obere Angergasse","postalCode":"95126","locality":"Schwarzenbach a.d.Saale","municipality":{"key":"09475168","name":"Schwarzenbach a.d.Saale, St","type":"Stadt"},"district":{"key":"09475","name":"Hof","type":"Landkreis"},"federalState":{"key":"09","name":"Bayern"}},{"name":"Oberleupoldsberg","postalCode":"95131","locality":"Schwarzenbach a.Wald","municipality":{"key":"09475169","name":"Schwarzenbach a.Wald, St","type":"Stadt"},"district":{"key":"09475","name":"Hof","type":"Landkreis"},"federalState":{"key":"09","name":"Bayern"}},{"name":"Ochsenkopfweg","postalCode":"95126","locality":"Schwarzenbach a.d.Saale","municipality":{"key":"09475168","name":"Schwarzenbach a.d.Saale, St","type":"Stadt"},"district":{"key":"09475","name":"Hof","type":"Landkreis"},"federalState":{"key":"09","name":"Bayern"}},{"name":"Parksteiner Str.","postalCode":"92720","locality":"Schwarzenbach","municipality":{"key":"09374156","name":"Schwarzenbach","type":"Kreisangehörige_Gemeinde"},"district":{"key":"09374","name":"Neustadt a.d.Waldnaab","type":"Landkreis"},"federalState":{"key":"09","name":"Bayern"}},{"name":"Parkweg","postalCode":"95131","locality":"Schwarzenbach a.Wald","municipality":{"key":"09475169","name":"Schwarzenbach a.Wald, St","type":"Stadt"},"district":{"key":"09475","name":"Hof","type":"Landkreis"},"federalState":{"key":"09","name":"Bayern"}},{"name":"Pechhofer Str.","postalCode":"92720","locality":"Schwarzenbach","municipality":{"key":"09374156","name":"Schwarzenbach","type":"Kreisangehörige_Gemeinde"},"district":{"key":"09374","name":"Neustadt a.d.Waldnaab","type":"Landkreis"},"federalState":{"key":"09","name":"Bayern"}},{"name":"Pestalozzistr.","postalCode":"95126","locality":"Schwarzenbach a.d.Saale","municipality":{"key":"09475168","name":"Schwarzenbach a.d.Saale, St","type":"Stadt"},"district":{"key":"09475","name":"Hof","type":"Landkreis"},"federalState":{"key":"09","name":"Bayern"}},{"name":"Philipp-Wolfrum-Str.","postalCode":"95131","locality":"Schwarzenbach a.Wald","municipality":{"key":"09475169","name":"Schwarzenbach a.Wald, St","type":"Stadt"},"district":{"key":"09475","name":"Hof","type":"Landkreis"},"federalState":{"key":"09","name":"Bayern"}},{"name":"Pillmersreuth","postalCode":"95131","locality":"Schwarzenbach a.Wald","municipality":{"key":"09475169","name":"Schwarzenbach a.Wald, St","type":"Stadt"},"district":{"key":"09475","name":"Hof","type":"Landkreis"},"federalState":{"key":"09","name":"Bayern"}},{"name":"Postplatz","postalCode":"95131","locality":"Schwarzenbach a.Wald","municipality":{"key":"09475169","name":"Schwarzenbach a.Wald, St","type":"Stadt"},"district":{"key":"09475","name":"Hof","type":"Landkreis"},"federalState":{"key":"09","name":"Bayern"}},{"name":"Pressather Str.","postalCode":"92720","locality":"Schwarzenbach","municipality":{"key":"09374156","name":"Schwarzenbach","type":"Kreisangehörige_Gemeinde"},"district":{"key":"09374","name":"Neustadt a.d.Waldnaab","type":"Landkreis"},"federalState":{"key":"09","name":"Bayern"}},{"name":"Quellenreuth","postalCode":"95126","locality":"Schwarzenbach a.d.Saale","municipality":{"key":"09475168","name":"Schwarzenbach a.d.Saale, St","type":"Stadt"},"district":{"key":"09475","name":"Hof","type":"Landkreis"},"federalState":{"key":"09","name":"Bayern"}},{"name":"Quellenweg","postalCode":"95131","locality":"Schwarzenbach a.Wald","municipality":{"key":"09475169","name":"Schwarzenbach a.Wald, St","type":"Stadt"},"district":{"key":"09475","name":"Hof","type":"Landkreis"},"federalState":{"key":"09","name":"Bayern"}},{"name":"Räumlas","postalCode":"95131","locality":"Schwarzenbach a.Wald","municipality":{"key":"09475169","name":"Schwarzenbach a.Wald, St","type":"Stadt"},"district":{"key":"09475","name":"Hof","type":"Landkreis"},"federalState":{"key":"09","name":"Bayern"}},{"name":"Räumlasweg","postalCode":"95131","locality":"Schwarzenbach a.Wald","municipality":{"key":"09475169","name":"Schwarzenbach a.Wald, St","type":"Stadt"},"district":{"key":"09475","name":"Hof","type":"Landkreis"},"federalState":{"key":"09","name":"Bayern"}},{"name":"Rauschenhammermühle","postalCode":"95131","locality":"Schwarzenbach a.Wald","municipality":{"key":"09475169","name":"Schwarzenbach a.Wald, St","type":"Stadt"},"district":{"key":"09475","name":"Hof","type":"Landkreis"},"federalState":{"key":"09","name":"Bayern"}},{"name":"Rehauer Str.","postalCode":"95126","locality":"Schwarzenbach a.d.Saale","municipality":{"key":"09475168","name":"Schwarzenbach a.d.Saale, St","type":"Stadt"},"district":{"key":"09475","name":"Hof","type":"Landkreis"},"federalState":{"key":"09","name":"Bayern"}},{"name":"Richard-Wagner-Str.","postalCode":"95126","locality":"Schwarzenbach a.d.Saale","municipality":{"key":"09475168","name":"Schwarzenbach a.d.Saale, St","type":"Stadt"},"district":{"key":"09475","name":"Hof","type":"Landkreis"},"federalState":{"key":"09","name":"Bayern"}},{"name":"Ringstr.","postalCode":"95126","locality":"Schwarzenbach a.d.Saale","municipality":{"key":"09475168","name":"Schwarzenbach a.d.Saale, St","type":"Stadt"},"district":{"key":"09475","name":"Hof","type":"Landkreis"},"federalState":{"key":"09","name":"Bayern"}},{"name":"Ringstr.","postalCode":"95131","locality":"Schwarzenbach a.Wald","municipality":{"key":"09475169","name":"Schwarzenbach a.Wald, St","type":"Stadt"},"district":{"key":"09475","name":"Hof","type":"Landkreis"},"federalState":{"key":"09","name":"Bayern"}},{"name":"Robert-Koch-Str.","postalCode":"95126","locality":"Schwarzenbach a.d.Saale","municipality":{"key":"09475168","name":"Schwarzenbach a.d.Saale, St","type":"Stadt"},"district":{"key":"09475","name":"Hof","type":"Landkreis"},"federalState":{"key":"09","name":"Bayern"}},{"name":"Rodeck","postalCode":"95131","locality":"Schwarzenbach a.Wald","municipality":{"key":"09475169","name":"Schwarzenbach a.Wald, St","type":"Stadt"},"district":{"key":"09475","name":"Hof","type":"Landkreis"},"federalState":{"key":"09","name":"Bayern"}},{"name":"Rodecker Str.","postalCode":"95131","locality":"Schwarzenbach a.Wald","municipality":{"key":"09475169","name":"Schwarzenbach a.Wald, St","type":"Stadt"},"district":{"key":"09475","name":"Hof","type":"Landkreis"},"federalState":{"key":"09","name":"Bayern"}},{"name":"Romansfelsenstr.","postalCode":"95131","locality":"Schwarzenbach a.Wald","municipality":{"key":"09475169","name":"Schwarzenbach a.Wald, St","type":"Stadt"},"district":{"key":"09475","name":"Hof","type":"Landkreis"},"federalState":{"key":"09","name":"Bayern"}},{"name":"Röricht","postalCode":"95126","locality":"Schwarzenbach a.d.Saale","municipality":{"key":"09475168","name":"Schwarzenbach a.d.Saale, St","type":"Stadt"},"district":{"key":"09475","name":"Hof","type":"Landkreis"},"federalState":{"key":"09","name":"Bayern"}},{"name":"Roseggerstr.","postalCode":"95126","locality":"Schwarzenbach a.d.Saale","municipality":{"key":"09475168","name":"Schwarzenbach a.d.Saale, St","type":"Stadt"},"district":{"key":"09475","name":"Hof","type":"Landkreis"},"federalState":{"key":"09","name":"Bayern"}},{"name":"Rosenweg","postalCode":"92720","locality":"Schwarzenbach","municipality":{"key":"09374156","name":"Schwarzenbach","type":"Kreisangehörige_Gemeinde"},"district":{"key":"09374","name":"Neustadt a.d.Waldnaab","type":"Landkreis"},"federalState":{"key":"09","name":"Bayern"}},{"name":"Rosenweg","postalCode":"95126","locality":"Schwarzenbach a.d.Saale","municipality":{"key":"09475168","name":"Schwarzenbach a.d.Saale, St","type":"Stadt"},"district":{"key":"09475","name":"Hof","type":"Landkreis"},"federalState":{"key":"09","name":"Bayern"}},{"name":"Rosenweg","postalCode":"95131","locality":"Schwarzenbach a.Wald","municipality":{"key":"09475169","name":"Schwarzenbach a.Wald, St","type":"Stadt"},"district":{"key":"09475","name":"Hof","type":"Landkreis"},"federalState":{"key":"09","name":"Bayern"}},{"name":"Rudolf-Diesel-Str.","postalCode":"95126","locality":"Schwarzenbach a.d.Saale","municipality":{"key":"09475168","name":"Schwarzenbach a.d.Saale, St","type":"Stadt"},"district":{"key":"09475","name":"Hof","type":"Landkreis"},"federalState":{"key":"09","name":"Bayern"}},{"name":"Rudolfsteinweg","postalCode":"95126","locality":"Schwarzenbach a.d.Saale","municipality":{"key":"09475168","name":"Schwarzenbach a.d.Saale, St","type":"Stadt"},"district":{"key":"09475","name":"Hof","type":"Landkreis"},"federalState":{"key":"09","name":"Bayern"}},{"name":"Schäfereiweg","postalCode":"95126","locality":"Schwarzenbach a.d.Saale","municipality":{"key":"09475168","name":"Schwarzenbach a.d.Saale, St","type":"Stadt"},"district":{"key":"09475","name":"Hof","type":"Landkreis"},"federalState":{"key":"09","name":"Bayern"}},{"name":"Schauensteiner Weg","postalCode":"95131","locality":"Schwarzenbach a.Wald","municipality":{"key":"09475169","name":"Schwarzenbach a.Wald, St","type":"Stadt"},"district":{"key":"09475","name":"Hof","type":"Landkreis"},"federalState":{"key":"09","name":"Bayern"}},{"name":"Scheunenweg","postalCode":"95131","locality":"Schwarzenbach a.Wald","municipality":{"key":"09475169","name":"Schwarzenbach a.Wald, St","type":"Stadt"},"district":{"key":"09475","name":"Hof","type":"Landkreis"},"federalState":{"key":"09","name":"Bayern"}},{"name":"Schillerstr.","postalCode":"95126","locality":"Schwarzenbach a.d.Saale","municipality":{"key":"09475168","name":"Schwarzenbach a.d.Saale, St","type":"Stadt"},"district":{"key":"09475","name":"Hof","type":"Landkreis"},"federalState":{"key":"09","name":"Bayern"}},{"name":"Schillerstr.","postalCode":"95131","locality":"Schwarzenbach a.Wald","municipality":{"key":"09475169","name":"Schwarzenbach a.Wald, St","type":"Stadt"},"district":{"key":"09475","name":"Hof","type":"Landkreis"},"federalState":{"key":"09","name":"Bayern"}},{"name":"Schlehenweg","postalCode":"95131","locality":"Schwarzenbach a.Wald","municipality":{"key":"09475169","name":"Schwarzenbach a.Wald, St","type":"Stadt"},"district":{"key":"09475","name":"Hof","type":"Landkreis"},"federalState":{"key":"09","name":"Bayern"}},{"name":"Schloßberg","postalCode":"95126","locality":"Schwarzenbach a.d.Saale","municipality":{"key":"09475168","name":"Schwarzenbach a.d.Saale, St","type":"Stadt"},"district":{"key":"09475","name":"Hof","type":"Landkreis"},"federalState":{"key":"09","name":"Bayern"}},{"name":"Schloßberg","postalCode":"95131","locality":"Schwarzenbach a.Wald","municipality":{"key":"09475169","name":"Schwarzenbach a.Wald, St","type":"Stadt"},"district":{"key":"09475","name":"Hof","type":"Landkreis"},"federalState":{"key":"09","name":"Bayern"}},{"name":"Schloßgasse","postalCode":"95126","locality":"Schwarzenbach a.d.Saale","municipality":{"key":"09475168","name":"Schwarzenbach a.d.Saale, St","type":"Stadt"},"district":{"key":"09475","name":"Hof","type":"Landkreis"},"federalState":{"key":"09","name":"Bayern"}},{"name":"Schlosshof","postalCode":"95126","locality":"Schwarzenbach a.d.Saale","municipality":{"key":"09475168","name":"Schwarzenbach a.d.Saale, St","type":"Stadt"},"district":{"key":"09475","name":"Hof","type":"Landkreis"},"federalState":{"key":"09","name":"Bayern"}},{"name":"Schloßstr.","postalCode":"95131","locality":"Schwarzenbach a.Wald","municipality":{"key":"09475169","name":"Schwarzenbach a.Wald, St","type":"Stadt"},"district":{"key":"09475","name":"Hof","type":"Landkreis"},"federalState":{"key":"09","name":"Bayern"}},{"name":"Schneebergweg","postalCode":"95126","locality":"Schwarzenbach a.d.Saale","municipality":{"key":"09475168","name":"Schwarzenbach a.d.Saale, St","type":"Stadt"},"district":{"key":"09475","name":"Hof","type":"Landkreis"},"federalState":{"key":"09","name":"Bayern"}},{"name":"Schneidersberg","postalCode":"95126","locality":"Schwarzenbach a.d.Saale","municipality":{"key":"09475168","name":"Schwarzenbach a.d.Saale, St","type":"Stadt"},"district":{"key":"09475","name":"Hof","type":"Landkreis"},"federalState":{"key":"09","name":"Bayern"}},{"name":"Schneidmühlstr.","postalCode":"95126","locality":"Schwarzenbach a.d.Saale","municipality":{"key":"09475168","name":"Schwarzenbach a.d.Saale, St","type":"Stadt"},"district":{"key":"09475","name":"Hof","type":"Landkreis"},"federalState":{"key":"09","name":"Bayern"}},{"name":"Schönbrunnerweg","postalCode":"95131","locality":"Schwarzenbach a.Wald","municipality":{"key":"09475169","name":"Schwarzenbach a.Wald, St","type":"Stadt"},"district":{"key":"09475","name":"Hof","type":"Landkreis"},"federalState":{"key":"09","name":"Bayern"}},{"name":"Schübelsgasse","postalCode":"95126","locality":"Schwarzenbach a.d.Saale","municipality":{"key":"09475168","name":"Schwarzenbach a.d.Saale, St","type":"Stadt"},"district":{"key":"09475","name":"Hof","type":"Landkreis"},"federalState":{"key":"09","name":"Bayern"}},{"name":"Schulstr.","postalCode":"95131","locality":"Schwarzenbach a.Wald","municipality":{"key":"09475169","name":"Schwarzenbach a.Wald, St","type":"Stadt"},"district":{"key":"09475","name":"Hof","type":"Landkreis"},"federalState":{"key":"09","name":"Bayern"}},{"name":"Schulweg","postalCode":"92720","locality":"Schwarzenbach","municipality":{"key":"09374156","name":"Schwarzenbach","type":"Kreisangehörige_Gemeinde"},"district":{"key":"09374","name":"Neustadt a.d.Waldnaab","type":"Landkreis"},"federalState":{"key":"09","name":"Bayern"}},{"name":"Schustergasse","postalCode":"95126","locality":"Schwarzenbach a.d.Saale","municipality":{"key":"09475168","name":"Schwarzenbach a.d.Saale, St","type":"Stadt"},"district":{"key":"09475","name":"Hof","type":"Landkreis"},"federalState":{"key":"09","name":"Bayern"}},{"name":"Schützenhaus","postalCode":"95126","locality":"Schwarzenbach a.d.Saale","municipality":{"key":"09475168","name":"Schwarzenbach a.d.Saale, St","type":"Stadt"},"district":{"key":"09475","name":"Hof","type":"Landkreis"},"federalState":{"key":"09","name":"Bayern"}},{"name":"Schützenstr.","postalCode":"95126","locality":"Schwarzenbach a.d.Saale","municipality":{"key":"09475168","name":"Schwarzenbach a.d.Saale, St","type":"Stadt"},"district":{"key":"09475","name":"Hof","type":"Landkreis"},"federalState":{"key":"09","name":"Bayern"}},{"name":"Schützenstr.","postalCode":"95131","locality":"Schwarzenbach a.Wald","municipality":{"key":"09475169","name":"Schwarzenbach a.Wald, St","type":"Stadt"},"district":{"key":"09475","name":"Hof","type":"Landkreis"},"federalState":{"key":"09","name":"Bayern"}},{"name":"Schwalbenweg","postalCode":"92720","locality":"Schwarzenbach","municipality":{"key":"09374156","name":"Schwarzenbach","type":"Kreisangehörige_Gemeinde"},"district":{"key":"09374","name":"Neustadt a.d.Waldnaab","type":"Landkreis"},"federalState":{"key":"09","name":"Bayern"}},{"name":"Schwalbenweg","postalCode":"95126","locality":"Schwarzenbach a.d.Saale","municipality":{"key":"09475168","name":"Schwarzenbach a.d.Saale, St","type":"Stadt"},"district":{"key":"09475","name":"Hof","type":"Landkreis"},"federalState":{"key":"09","name":"Bayern"}},{"name":"Schwarzenbacher Str.","postalCode":"95126","locality":"Schwarzenbach a.d.Saale","municipality":{"key":"09475168","name":"Schwarzenbach a.d.Saale, St","type":"Stadt"},"district":{"key":"09475","name":"Hof","type":"Landkreis"},"federalState":{"key":"09","name":"Bayern"}},{"name":"Schwarzenbacher Str.","postalCode":"95131","locality":"Forst Schwarzenbach am Wald","municipality":{"key":"09475451","name":"Forst Schwarzenbach a.Wald","type":"Gemeindefreies_Gebiet_Unbewohnt"},"district":{"key":"09475","name":"Hof","type":"Landkreis"},"federalState":{"key":"09","name":"Bayern"}},{"name":"Schwarzenbacher Str.","postalCode":"95131","locality":"Schwarzenbach a.Wald","municipality":{"key":"09475169","name":"Schwarzenbach a.Wald, St","type":"Stadt"},"district":{"key":"09475","name":"Hof","type":"Landkreis"},"federalState":{"key":"09","name":"Bayern"}},{"name":"Schwingen","postalCode":"95126","locality":"Schwarzenbach a.d.Saale","municipality":{"key":"09475168","name":"Schwarzenbach a.d.Saale, St","type":"Stadt"},"district":{"key":"09475","name":"Hof","type":"Landkreis"},"federalState":{"key":"09","name":"Bayern"}},{"name":"Schwingener Weg","postalCode":"95126","locality":"Schwarzenbach a.d.Saale","municipality":{"key":"09475168","name":"Schwarzenbach a.d.Saale, St","type":"Stadt"},"district":{"key":"09475","name":"Hof","type":"Landkreis"},"federalState":{"key":"09","name":"Bayern"}},{"name":"Seerosenweg","postalCode":"95126","locality":"Schwarzenbach a.d.Saale","municipality":{"key":"09475168","name":"Schwarzenbach a.d.Saale, St","type":"Stadt"},"district":{"key":"09475","name":"Hof","type":"Landkreis"},"federalState":{"key":"09","name":"Bayern"}},{"name":"Selkenreuther Str.","postalCode":"95126","locality":"Schwarzenbach a.d.Saale","municipality":{"key":"09475168","name":"Schwarzenbach a.d.Saale, St","type":"Stadt"},"district":{"key":"09475","name":"Hof","type":"Landkreis"},"federalState":{"key":"09","name":"Bayern"}},{"name":"Seulbitz","postalCode":"95126","locality":"Schwarzenbach a.d.Saale","municipality":{"key":"09475168","name":"Schwarzenbach a.d.Saale, St","type":"Stadt"},"district":{"key":"09475","name":"Hof","type":"Landkreis"},"federalState":{"key":"09","name":"Bayern"}},{"name":"Seulbitzer Str.","postalCode":"95126","locality":"Schwarzenbach a.d.Saale","municipality":{"key":"09475168","name":"Schwarzenbach a.d.Saale, St","type":"Stadt"},"district":{"key":"09475","name":"Hof","type":"Landkreis"},"federalState":{"key":"09","name":"Bayern"}},{"name":"Siebensternstr.","postalCode":"95126","locality":"Schwarzenbach a.d.Saale","municipality":{"key":"09475168","name":"Schwarzenbach a.d.Saale, St","type":"Stadt"},"district":{"key":"09475","name":"Hof","type":"Landkreis"},"federalState":{"key":"09","name":"Bayern"}},{"name":"Siegfriedstr.","postalCode":"95131","locality":"Schwarzenbach a.Wald","municipality":{"key":"09475169","name":"Schwarzenbach a.Wald, St","type":"Stadt"},"district":{"key":"09475","name":"Hof","type":"Landkreis"},"federalState":{"key":"09","name":"Bayern"}},{"name":"Sorger Panorama Weg","postalCode":"95131","locality":"Schwarzenbach a.Wald","municipality":{"key":"09475169","name":"Schwarzenbach a.Wald, St","type":"Stadt"},"district":{"key":"09475","name":"Hof","type":"Landkreis"},"federalState":{"key":"09","name":"Bayern"}},{"name":"Sperberweg","postalCode":"92720","locality":"Schwarzenbach","municipality":{"key":"09374156","name":"Schwarzenbach","type":"Kreisangehörige_Gemeinde"},"district":{"key":"09374","name":"Neustadt a.d.Waldnaab","type":"Landkreis"},"federalState":{"key":"09","name":"Bayern"}},{"name":"Spielplatz","postalCode":"95131","locality":"Schwarzenbach a.Wald","municipality":{"key":"09475169","name":"Schwarzenbach a.Wald, St","type":"Stadt"},"district":{"key":"09475","name":"Hof","type":"Landkreis"},"federalState":{"key":"09","name":"Bayern"}},{"name":"Spinnereisiedlung","postalCode":"95126","locality":"Schwarzenbach a.d.Saale","municipality":{"key":"09475168","name":"Schwarzenbach a.d.Saale, St","type":"Stadt"},"district":{"key":"09475","name":"Hof","type":"Landkreis"},"federalState":{"key":"09","name":"Bayern"}},{"name":"Spitalstr.","postalCode":"95126","locality":"Schwarzenbach a.d.Saale","municipality":{"key":"09475168","name":"Schwarzenbach a.d.Saale, St","type":"Stadt"},"district":{"key":"09475","name":"Hof","type":"Landkreis"},"federalState":{"key":"09","name":"Bayern"}},{"name":"Sportplatzweg","postalCode":"95131","locality":"Schwarzenbach a.Wald","municipality":{"key":"09475169","name":"Schwarzenbach a.Wald, St","type":"Stadt"},"district":{"key":"09475","name":"Hof","type":"Landkreis"},"federalState":{"key":"09","name":"Bayern"}},{"name":"Stelzenweg","postalCode":"95126","locality":"Schwarzenbach a.d.Saale","municipality":{"key":"09475168","name":"Schwarzenbach a.d.Saale, St","type":"Stadt"},"district":{"key":"09475","name":"Hof","type":"Landkreis"},"federalState":{"key":"09","name":"Bayern"}},{"name":"Stettiner Str.","postalCode":"95126","locality":"Schwarzenbach a.d.Saale","municipality":{"key":"09475168","name":"Schwarzenbach a.d.Saale, St","type":"Stadt"},"district":{"key":"09475","name":"Hof","type":"Landkreis"},"federalState":{"key":"09","name":"Bayern"}},{"name":"Stieglitzenweg","postalCode":"92720","locality":"Schwarzenbach","municipality":{"key":"09374156","name":"Schwarzenbach","type":"Kreisangehörige_Gemeinde"},"district":{"key":"09374","name":"Neustadt a.d.Waldnaab","type":"Landkreis"},"federalState":{"key":"09","name":"Bayern"}},{"name":"Stobersreuth","postalCode":"95126","locality":"Schwarzenbach a.d.Saale","municipality":{"key":"09475168","name":"Schwarzenbach a.d.Saale, St","type":"Stadt"},"district":{"key":"09475","name":"Hof","type":"Landkreis"},"federalState":{"key":"09","name":"Bayern"}},{"name":"Stollen","postalCode":"95126","locality":"Schwarzenbach a.d.Saale","municipality":{"key":"09475168","name":"Schwarzenbach a.d.Saale, St","type":"Stadt"},"district":{"key":"09475","name":"Hof","type":"Landkreis"},"federalState":{"key":"09","name":"Bayern"}},{"name":"Sudetenring","postalCode":"95131","locality":"Schwarzenbach a.Wald","municipality":{"key":"09475169","name":"Schwarzenbach a.Wald, St","type":"Stadt"},"district":{"key":"09475","name":"Hof","type":"Landkreis"},"federalState":{"key":"09","name":"Bayern"}},{"name":"Südgrenzweg","postalCode":"95126","locality":"Schwarzenbach a.d.Saale","municipality":{"key":"09475168","name":"Schwarzenbach a.d.Saale, St","type":"Stadt"},"district":{"key":"09475","name":"Hof","type":"Landkreis"},"federalState":{"key":"09","name":"Bayern"}},{"name":"Tannenrain","postalCode":"95131","locality":"Schwarzenbach a.Wald","municipality":{"key":"09475169","name":"Schwarzenbach a.Wald, St","type":"Stadt"},"district":{"key":"09475","name":"Hof","type":"Landkreis"},"federalState":{"key":"09","name":"Bayern"}},{"name":"Tannenweg","postalCode":"92720","locality":"Schwarzenbach","municipality":{"key":"09374156","name":"Schwarzenbach","type":"Kreisangehörige_Gemeinde"},"district":{"key":"09374","name":"Neustadt a.d.Waldnaab","type":"Landkreis"},"federalState":{"key":"09","name":"Bayern"}},{"name":"Tannenweg","postalCode":"95126","locality":"Schwarzenbach a.d.Saale","municipality":{"key":"09475168","name":"Schwarzenbach a.d.Saale, St","type":"Stadt"},"district":{"key":"09475","name":"Hof","type":"Landkreis"},"federalState":{"key":"09","name":"Bayern"}},{"name":"Tannenweg","postalCode":"95131","locality":"Schwarzenbach a.Wald","municipality":{"key":"09475169","name":"Schwarzenbach a.Wald, St","type":"Stadt"},"district":{"key":"09475","name":"Hof","type":"Landkreis"},"federalState":{"key":"09","name":"Bayern"}},{"name":"Teichstr.","postalCode":"95131","locality":"Schwarzenbach a.Wald","municipality":{"key":"09475169","name":"Schwarzenbach a.Wald, St","type":"Stadt"},"district":{"key":"09475","name":"Hof","type":"Landkreis"},"federalState":{"key":"09","name":"Bayern"}},{"name":"Thiemitztalstr.","postalCode":"95131","locality":"Schwarzenbach a.Wald","municipality":{"key":"09475169","name":"Schwarzenbach a.Wald, St","type":"Stadt"},"district":{"key":"09475","name":"Hof","type":"Landkreis"},"federalState":{"key":"09","name":"Bayern"}},{"name":"Thron","postalCode":"95131","locality":"Schwarzenbach a.Wald","municipality":{"key":"09475169","name":"Schwarzenbach a.Wald, St","type":"Stadt"},"district":{"key":"09475","name":"Hof","type":"Landkreis"},"federalState":{"key":"09","name":"Bayern"}},{"name":"Tulpenweg","postalCode":"92720","locality":"Schwarzenbach","municipality":{"key":"09374156","name":"Schwarzenbach","type":"Kreisangehörige_Gemeinde"},"district":{"key":"09374","name":"Neustadt a.d.Waldnaab","type":"Landkreis"},"federalState":{"key":"09","name":"Bayern"}},{"name":"Tulpenweg","postalCode":"95126","locality":"Schwarzenbach a.d.Saale","municipality":{"key":"09475168","name":"Schwarzenbach a.d.Saale, St","type":"Stadt"},"district":{"key":"09475","name":"Hof","type":"Landkreis"},"federalState":{"key":"09","name":"Bayern"}},{"name":"Tulpenweg","postalCode":"95131","locality":"Schwarzenbach a.Wald","municipality":{"key":"09475169","name":"Schwarzenbach a.Wald, St","type":"Stadt"},"district":{"key":"09475","name":"Hof","type":"Landkreis"},"federalState":{"key":"09","name":"Bayern"}},{"name":"Türkengrundstr.","postalCode":"95131","locality":"Schwarzenbach a.Wald","municipality":{"key":"09475169","name":"Schwarzenbach a.Wald, St","type":"Stadt"},"district":{"key":"09475","name":"Hof","type":"Landkreis"},"federalState":{"key":"09","name":"Bayern"}},{"name":"Uferweg","postalCode":"95126","locality":"Schwarzenbach a.d.Saale","municipality":{"key":"09475168","name":"Schwarzenbach a.d.Saale, St","type":"Stadt"},"district":{"key":"09475","name":"Hof","type":"Landkreis"},"federalState":{"key":"09","name":"Bayern"}},{"name":"Uhlandstr.","postalCode":"95126","locality":"Schwarzenbach a.d.Saale","municipality":{"key":"09475168","name":"Schwarzenbach a.d.Saale, St","type":"Stadt"},"district":{"key":"09475","name":"Hof","type":"Landkreis"},"federalState":{"key":"09","name":"Bayern"}},{"name":"Ulmenweg","postalCode":"92720","locality":"Schwarzenbach","municipality":{"key":"09374156","name":"Schwarzenbach","type":"Kreisangehörige_Gemeinde"},"district":{"key":"09374","name":"Neustadt a.d.Waldnaab","type":"Landkreis"},"federalState":{"key":"09","name":"Bayern"}},{"name":"Untere Angergasse","postalCode":"95126","locality":"Schwarzenbach a.d.Saale","municipality":{"key":"09475168","name":"Schwarzenbach a.d.Saale, St","type":"Stadt"},"district":{"key":"09475","name":"Hof","type":"Landkreis"},"federalState":{"key":"09","name":"Bayern"}},{"name":"Unterer Förbauer Weg","postalCode":"95126","locality":"Schwarzenbach a.d.Saale","municipality":{"key":"09475168","name":"Schwarzenbach a.d.Saale, St","type":"Stadt"},"district":{"key":"09475","name":"Hof","type":"Landkreis"},"federalState":{"key":"09","name":"Bayern"}},{"name":"Unterleupoldsberg","postalCode":"95131","locality":"Schwarzenbach a.Wald","municipality":{"key":"09475169","name":"Schwarzenbach a.Wald, St","type":"Stadt"},"district":{"key":"09475","name":"Hof","type":"Landkreis"},"federalState":{"key":"09","name":"Bayern"}},{"name":"Unterm Schwamma","postalCode":"95131","locality":"Schwarzenbach a.Wald","municipality":{"key":"09475169","name":"Schwarzenbach a.Wald, St","type":"Stadt"},"district":{"key":"09475","name":"Hof","type":"Landkreis"},"federalState":{"key":"09","name":"Bayern"}},{"name":"Veilchenweg","postalCode":"95126","locality":"Schwarzenbach a.d.Saale","municipality":{"key":"09475168","name":"Schwarzenbach a.d.Saale, St","type":"Stadt"},"district":{"key":"09475","name":"Hof","type":"Landkreis"},"federalState":{"key":"09","name":"Bayern"}},{"name":"Veit-Stoß-Str.","postalCode":"95126","locality":"Schwarzenbach a.d.Saale","municipality":{"key":"09475168","name":"Schwarzenbach a.d.Saale, St","type":"Stadt"},"district":{"key":"09475","name":"Hof","type":"Landkreis"},"federalState":{"key":"09","name":"Bayern"}},{"name":"Viceburgweg","postalCode":"95131","locality":"Schwarzenbach a.Wald","municipality":{"key":"09475169","name":"Schwarzenbach a.Wald, St","type":"Stadt"},"district":{"key":"09475","name":"Hof","type":"Landkreis"},"federalState":{"key":"09","name":"Bayern"}},{"name":"Völkenreuth","postalCode":"95126","locality":"Schwarzenbach a.d.Saale","municipality":{"key":"09475168","name":"Schwarzenbach a.d.Saale, St","type":"Stadt"},"district":{"key":"09475","name":"Hof","type":"Landkreis"},"federalState":{"key":"09","name":"Bayern"}},{"name":"Von-Reitzenstein-Str.","postalCode":"95131","locality":"Schwarzenbach a.Wald","municipality":{"key":"09475169","name":"Schwarzenbach a.Wald, St","type":"Stadt"},"district":{"key":"09475","name":"Hof","type":"Landkreis"},"federalState":{"key":"09","name":"Bayern"}},{"name":"Waldsteinweg","postalCode":"95126","locality":"Schwarzenbach a.d.Saale","municipality":{"key":"09475168","name":"Schwarzenbach a.d.Saale, St","type":"Stadt"},"district":{"key":"09475","name":"Hof","type":"Landkreis"},"federalState":{"key":"09","name":"Bayern"}},{"name":"Waldstr.","postalCode":"95131","locality":"Schwarzenbach a.Wald","municipality":{"key":"09475169","name":"Schwarzenbach a.Wald, St","type":"Stadt"},"district":{"key":"09475","name":"Hof","type":"Landkreis"},"federalState":{"key":"09","name":"Bayern"}},{"name":"Walter-Münch-Str.","postalCode":"95131","locality":"Schwarzenbach a.Wald","municipality":{"key":"09475169","name":"Schwarzenbach a.Wald, St","type":"Stadt"},"district":{"key":"09475","name":"Hof","type":"Landkreis"},"federalState":{"key":"09","name":"Bayern"}},{"name":"Wasserhausweg","postalCode":"95131","locality":"Schwarzenbach a.Wald","municipality":{"key":"09475169","name":"Schwarzenbach a.Wald, St","type":"Stadt"},"district":{"key":"09475","name":"Hof","type":"Landkreis"},"federalState":{"key":"09","name":"Bayern"}},{"name":"Webergasse","postalCode":"95131","locality":"Schwarzenbach a.Wald","municipality":{"key":"09475169","name":"Schwarzenbach a.Wald, St","type":"Stadt"},"district":{"key":"09475","name":"Hof","type":"Landkreis"},"federalState":{"key":"09","name":"Bayern"}},{"name":"Weidenweg","postalCode":"92720","locality":"Schwarzenbach","municipality":{"key":"09374156","name":"Schwarzenbach","type":"Kreisangehörige_Gemeinde"},"district":{"key":"09374","name":"Neustadt a.d.Waldnaab","type":"Landkreis"},"federalState":{"key":"09","name":"Bayern"}},{"name":"Werner-von-Siemens-Str.","postalCode":"95126","locality":"Schwarzenbach a.d.Saale","municipality":{"key":"09475168","name":"Schwarzenbach a.d.Saale, St","type":"Stadt"},"district":{"key":"09475","name":"Hof","type":"Landkreis"},"federalState":{"key":"09","name":"Bayern"}},{"name":"Weststr.","postalCode":"95131","locality":"Schwarzenbach a.Wald","municipality":{"key":"09475169","name":"Schwarzenbach a.Wald, St","type":"Stadt"},"district":{"key":"09475","name":"Hof","type":"Landkreis"},"federalState":{"key":"09","name":"Bayern"}},{"name":"Wiesenweg","postalCode":"95131","locality":"Schwarzenbach a.Wald","municipality":{"key":"09475169","name":"Schwarzenbach a.Wald, St","type":"Stadt"},"district":{"key":"09475","name":"Hof","type":"Landkreis"},"federalState":{"key":"09","name":"Bayern"}},{"name":"Wilhelmstr.","postalCode":"95126","locality":"Schwarzenbach a.d.Saale","municipality":{"key":"09475168","name":"Schwarzenbach a.d.Saale, St","type":"Stadt"},"district":{"key":"09475","name":"Hof","type":"Landkreis"},"federalState":{"key":"09","name":"Bayern"}},{"name":"Würschum","postalCode":"95126","locality":"Schwarzenbach a.d.Saale","municipality":{"key":"09475168","name":"Schwarzenbach a.d.Saale, St","type":"Stadt"},"district":{"key":"09475","name":"Hof","type":"Landkreis"},"federalState":{"key":"09","name":"Bayern"}},{"name":"Zegasttalstr.","postalCode":"95131","locality":"Schwarzenbach a.Wald","municipality":{"key":"09475169","name":"Schwarzenbach a.Wald, St","type":"Stadt"},"district":{"key":"09475","name":"Hof","type":"Landkreis"},"federalState":{"key":"09","name":"Bayern"}},{"name":"Zeisigweg","postalCode":"92720","locality":"Schwarzenbach","municipality":{"key":"09374156","name":"Schwarzenbach","type":"Kreisangehörige_Gemeinde"},"district":{"key":"09374","name":"Neustadt a.d.Waldnaab","type":"Landkreis"},"federalState":{"key":"09","name":"Bayern"}},{"name":"Zeppelinstr.","postalCode":"95126","locality":"Schwarzenbach a.d.Saale","municipality":{"key":"09475168","name":"Schwarzenbach a.d.Saale, St","type":"Stadt"},"district":{"key":"09475","name":"Hof","type":"Landkreis"},"federalState":{"key":"09","name":"Bayern"}},{"name":"Zeppellinstr.","postalCode":"95131","locality":"Schwarzenbach a.Wald","municipality":{"key":"09475169","name":"Schwarzenbach a.Wald, St","type":"Stadt"},"district":{"key":"09475","name":"Hof","type":"Landkreis"},"federalState":{"key":"09","name":"Bayern"}},{"name":"Ziegelhüttenweg","postalCode":"95131","locality":"Schwarzenbach a.Wald","municipality":{"key":"09475169","name":"Schwarzenbach a.Wald, St","type":"Stadt"},"district":{"key":"09475","name":"Hof","type":"Landkreis"},"federalState":{"key":"09","name":"Bayern"}},{"name":"Zum Beerberg","postalCode":"95131","locality":"Schwarzenbach a.Wald","municipality":{"key":"09475169","name":"Schwarzenbach a.Wald, St","type":"Stadt"},"district":{"key":"09475","name":"Hof","type":"Landkreis"},"federalState":{"key":"09","name":"Bayern"}},{"name":"Zum Dorfplatz","postalCode":"95126","locality":"Schwarzenbach a.d.Saale","municipality":{"key":"09475168","name":"Schwarzenbach a.d.Saale, St","type":"Stadt"},"district":{"key":"09475","name":"Hof","type":"Landkreis"},"federalState":{"key":"09","name":"Bayern"}},{"name":"Zum Galgenberg","postalCode":"95131","locality":"Schwarzenbach a.Wald","municipality":{"key":"09475169","name":"Schwarzenbach a.Wald, St","type":"Stadt"},"district":{"key":"09475","name":"Hof","type":"Landkreis"},"federalState":{"key":"09","name":"Bayern"}},{"name":"Zum Lamitzgrund","postalCode":"95126","locality":"Schwarzenbach a.d.Saale","municipality":{"key":"09475168","name":"Schwarzenbach a.d.Saale, St","type":"Stadt"},"district":{"key":"09475","name":"Hof","type":"Landkreis"},"federalState":{"key":"09","name":"Bayern"}},{"name":"Zum Rodachtal","postalCode":"95131","locality":"Schwarzenbach a.Wald","municipality":{"key":"09475169","name":"Schwarzenbach a.Wald, St","type":"Stadt"},"district":{"key":"09475","name":"Hof","type":"Landkreis"},"federalState":{"key":"09","name":"Bayern"}},{"name":"Zum Schwarzbach","postalCode":"95126","locality":"Schwarzenbach a.d.Saale","municipality":{"key":"09475168","name":"Schwarzenbach a.d.Saale, St","type":"Stadt"},"district":{"key":"09475","name":"Hof","type":"Landkreis"},"federalState":{"key":"09","name":"Bayern"}},{"name":"Zur Eibe","postalCode":"95131","locality":"Schwarzenbach a.Wald","municipality":{"key":"09475169","name":"Schwarzenbach a.Wald, St","type":"Stadt"},"district":{"key":"09475","name":"Hof","type":"Landkreis"},"federalState":{"key":"09","name":"Bayern"}},]