[{"name":"1. Weg","postalCode":"79650","locality":"Schopfheim","municipality":{"key":"08336081","name":"Schopfheim, Stadt","type":"Stadt"},"district":{"key":"08336","name":"Lörrach","type":"Landkreis"},"federalState":{"key":"08","name":"Baden-Württemberg"}},{"name":"2. Weg","postalCode":"79650","locality":"Schopfheim","municipality":{"key":"08336081","name":"Schopfheim, Stadt","type":"Stadt"},"district":{"key":"08336","name":"Lörrach","type":"Landkreis"},"federalState":{"key":"08","name":"Baden-Württemberg"}},{"name":"3. Weg","postalCode":"79650","locality":"Schopfheim","municipality":{"key":"08336081","name":"Schopfheim, Stadt","type":"Stadt"},"district":{"key":"08336","name":"Lörrach","type":"Landkreis"},"federalState":{"key":"08","name":"Baden-Württemberg"}},{"name":"Achtmüllerweg","postalCode":"79650","locality":"Schopfheim","municipality":{"key":"08336081","name":"Schopfheim, Stadt","type":"Stadt"},"district":{"key":"08336","name":"Lörrach","type":"Landkreis"},"federalState":{"key":"08","name":"Baden-Württemberg"}},{"name":"Adolf-Müller-Str.","postalCode":"79650","locality":"Schopfheim","municipality":{"key":"08336081","name":"Schopfheim, Stadt","type":"Stadt"},"district":{"key":"08336","name":"Lörrach","type":"Landkreis"},"federalState":{"key":"08","name":"Baden-Württemberg"}},{"name":"Ahornweg","postalCode":"79650","locality":"Schopfheim","municipality":{"key":"08336081","name":"Schopfheim, Stadt","type":"Stadt"},"district":{"key":"08336","name":"Lörrach","type":"Landkreis"},"federalState":{"key":"08","name":"Baden-Württemberg"}},{"name":"Alfred-Schneider-Str.","postalCode":"79650","locality":"Schopfheim","municipality":{"key":"08336081","name":"Schopfheim, Stadt","type":"Stadt"},"district":{"key":"08336","name":"Lörrach","type":"Landkreis"},"federalState":{"key":"08","name":"Baden-Württemberg"}},{"name":"Altensteiner-Kreuz-Weg","postalCode":"79650","locality":"Schopfheim","municipality":{"key":"08336081","name":"Schopfheim, Stadt","type":"Stadt"},"district":{"key":"08336","name":"Lörrach","type":"Landkreis"},"federalState":{"key":"08","name":"Baden-Württemberg"}},{"name":"Alter Rütteweg","postalCode":"79650","locality":"Schopfheim","municipality":{"key":"08336081","name":"Schopfheim, Stadt","type":"Stadt"},"district":{"key":"08336","name":"Lörrach","type":"Landkreis"},"federalState":{"key":"08","name":"Baden-Württemberg"}},{"name":"Alte Wehrer Str.","postalCode":"79650","locality":"Schopfheim","municipality":{"key":"08336081","name":"Schopfheim, Stadt","type":"Stadt"},"district":{"key":"08336","name":"Lörrach","type":"Landkreis"},"federalState":{"key":"08","name":"Baden-Württemberg"}},{"name":"Altigweg","postalCode":"79650","locality":"Schopfheim","municipality":{"key":"08336081","name":"Schopfheim, Stadt","type":"Stadt"},"district":{"key":"08336","name":"Lörrach","type":"Landkreis"},"federalState":{"key":"08","name":"Baden-Württemberg"}},{"name":"Altstadt","postalCode":"79650","locality":"Schopfheim","municipality":{"key":"08336081","name":"Schopfheim, Stadt","type":"Stadt"},"district":{"key":"08336","name":"Lörrach","type":"Landkreis"},"federalState":{"key":"08","name":"Baden-Württemberg"}},{"name":"Alzenbühlweg","postalCode":"79650","locality":"Schopfheim","municipality":{"key":"08336081","name":"Schopfheim, Stadt","type":"Stadt"},"district":{"key":"08336","name":"Lörrach","type":"Landkreis"},"federalState":{"key":"08","name":"Baden-Württemberg"}},{"name":"Amalienstr.","postalCode":"79650","locality":"Schopfheim","municipality":{"key":"08336081","name":"Schopfheim, Stadt","type":"Stadt"},"district":{"key":"08336","name":"Lörrach","type":"Landkreis"},"federalState":{"key":"08","name":"Baden-Württemberg"}},{"name":"Am Eichbühl","postalCode":"79650","locality":"Schopfheim","municipality":{"key":"08336081","name":"Schopfheim, Stadt","type":"Stadt"},"district":{"key":"08336","name":"Lörrach","type":"Landkreis"},"federalState":{"key":"08","name":"Baden-Württemberg"}},{"name":"Am Eisweiher","postalCode":"79650","locality":"Schopfheim","municipality":{"key":"08336081","name":"Schopfheim, Stadt","type":"Stadt"},"district":{"key":"08336","name":"Lörrach","type":"Landkreis"},"federalState":{"key":"08","name":"Baden-Württemberg"}},{"name":"Am Floßkanal","postalCode":"79650","locality":"Schopfheim","municipality":{"key":"08336081","name":"Schopfheim, Stadt","type":"Stadt"},"district":{"key":"08336","name":"Lörrach","type":"Landkreis"},"federalState":{"key":"08","name":"Baden-Württemberg"}},{"name":"Am Kindergarten","postalCode":"79650","locality":"Schopfheim","municipality":{"key":"08336081","name":"Schopfheim, Stadt","type":"Stadt"},"district":{"key":"08336","name":"Lörrach","type":"Landkreis"},"federalState":{"key":"08","name":"Baden-Württemberg"}},{"name":"Am Rain","postalCode":"79650","locality":"Schopfheim","municipality":{"key":"08336081","name":"Schopfheim, Stadt","type":"Stadt"},"district":{"key":"08336","name":"Lörrach","type":"Landkreis"},"federalState":{"key":"08","name":"Baden-Württemberg"}},{"name":"Am Schlierbach","postalCode":"79650","locality":"Schopfheim","municipality":{"key":"08336081","name":"Schopfheim, Stadt","type":"Stadt"},"district":{"key":"08336","name":"Lörrach","type":"Landkreis"},"federalState":{"key":"08","name":"Baden-Württemberg"}},{"name":"Amselweg","postalCode":"79650","locality":"Schopfheim","municipality":{"key":"08336081","name":"Schopfheim, Stadt","type":"Stadt"},"district":{"key":"08336","name":"Lörrach","type":"Landkreis"},"federalState":{"key":"08","name":"Baden-Württemberg"}},{"name":"Am Stadtgraben","postalCode":"79650","locality":"Schopfheim","municipality":{"key":"08336081","name":"Schopfheim, Stadt","type":"Stadt"},"district":{"key":"08336","name":"Lörrach","type":"Landkreis"},"federalState":{"key":"08","name":"Baden-Württemberg"}},{"name":"Am Sturmen","postalCode":"79650","locality":"Schopfheim","municipality":{"key":"08336081","name":"Schopfheim, Stadt","type":"Stadt"},"district":{"key":"08336","name":"Lörrach","type":"Landkreis"},"federalState":{"key":"08","name":"Baden-Württemberg"}},{"name":"Am Wuhr","postalCode":"79650","locality":"Schopfheim","municipality":{"key":"08336081","name":"Schopfheim, Stadt","type":"Stadt"},"district":{"key":"08336","name":"Lörrach","type":"Landkreis"},"federalState":{"key":"08","name":"Baden-Württemberg"}},{"name":"An der Halden","postalCode":"79650","locality":"Schopfheim","municipality":{"key":"08336081","name":"Schopfheim, Stadt","type":"Stadt"},"district":{"key":"08336","name":"Lörrach","type":"Landkreis"},"federalState":{"key":"08","name":"Baden-Württemberg"}},{"name":"An der Wiese","postalCode":"79650","locality":"Schopfheim","municipality":{"key":"08336081","name":"Schopfheim, Stadt","type":"Stadt"},"district":{"key":"08336","name":"Lörrach","type":"Landkreis"},"federalState":{"key":"08","name":"Baden-Württemberg"}},{"name":"Anna Kym - Stadtpark","postalCode":"79650","locality":"Schopfheim","municipality":{"key":"08336081","name":"Schopfheim, Stadt","type":"Stadt"},"district":{"key":"08336","name":"Lörrach","type":"Landkreis"},"federalState":{"key":"08","name":"Baden-Württemberg"}},{"name":"Auf der Dürrenweid","postalCode":"79650","locality":"Schopfheim","municipality":{"key":"08336081","name":"Schopfheim, Stadt","type":"Stadt"},"district":{"key":"08336","name":"Lörrach","type":"Landkreis"},"federalState":{"key":"08","name":"Baden-Württemberg"}},{"name":"Auf der Flüh","postalCode":"79650","locality":"Schopfheim","municipality":{"key":"08336081","name":"Schopfheim, Stadt","type":"Stadt"},"district":{"key":"08336","name":"Lörrach","type":"Landkreis"},"federalState":{"key":"08","name":"Baden-Württemberg"}},{"name":"Auf der Gänsmatt","postalCode":"79650","locality":"Schopfheim","municipality":{"key":"08336081","name":"Schopfheim, Stadt","type":"Stadt"},"district":{"key":"08336","name":"Lörrach","type":"Landkreis"},"federalState":{"key":"08","name":"Baden-Württemberg"}},{"name":"Auf der Stockmatt","postalCode":"79650","locality":"Schopfheim","municipality":{"key":"08336081","name":"Schopfheim, Stadt","type":"Stadt"},"district":{"key":"08336","name":"Lörrach","type":"Landkreis"},"federalState":{"key":"08","name":"Baden-Württemberg"}},{"name":"Austr.","postalCode":"79650","locality":"Schopfheim","municipality":{"key":"08336081","name":"Schopfheim, Stadt","type":"Stadt"},"district":{"key":"08336","name":"Lörrach","type":"Landkreis"},"federalState":{"key":"08","name":"Baden-Württemberg"}},{"name":"Bachtalenweg","postalCode":"79650","locality":"Schopfheim","municipality":{"key":"08336081","name":"Schopfheim, Stadt","type":"Stadt"},"district":{"key":"08336","name":"Lörrach","type":"Landkreis"},"federalState":{"key":"08","name":"Baden-Württemberg"}},{"name":"Bachtalstr.","postalCode":"79650","locality":"Schopfheim","municipality":{"key":"08336081","name":"Schopfheim, Stadt","type":"Stadt"},"district":{"key":"08336","name":"Lörrach","type":"Landkreis"},"federalState":{"key":"08","name":"Baden-Württemberg"}},{"name":"Bahnhofstr.","postalCode":"79650","locality":"Schopfheim","municipality":{"key":"08336081","name":"Schopfheim, Stadt","type":"Stadt"},"district":{"key":"08336","name":"Lörrach","type":"Landkreis"},"federalState":{"key":"08","name":"Baden-Württemberg"}},{"name":"Baierhüttenweg","postalCode":"79650","locality":"Schopfheim","municipality":{"key":"08336081","name":"Schopfheim, Stadt","type":"Stadt"},"district":{"key":"08336","name":"Lörrach","type":"Landkreis"},"federalState":{"key":"08","name":"Baden-Württemberg"}},{"name":"Bannmattstr.","postalCode":"79650","locality":"Schopfheim","municipality":{"key":"08336081","name":"Schopfheim, Stadt","type":"Stadt"},"district":{"key":"08336","name":"Lörrach","type":"Landkreis"},"federalState":{"key":"08","name":"Baden-Württemberg"}},{"name":"Baumgartenweg","postalCode":"79650","locality":"Schopfheim","municipality":{"key":"08336081","name":"Schopfheim, Stadt","type":"Stadt"},"district":{"key":"08336","name":"Lörrach","type":"Landkreis"},"federalState":{"key":"08","name":"Baden-Württemberg"}},{"name":"Baumlegeweg","postalCode":"79650","locality":"Schopfheim","municipality":{"key":"08336081","name":"Schopfheim, Stadt","type":"Stadt"},"district":{"key":"08336","name":"Lörrach","type":"Landkreis"},"federalState":{"key":"08","name":"Baden-Württemberg"}},{"name":"Belchenblick","postalCode":"79650","locality":"Schopfheim","municipality":{"key":"08336081","name":"Schopfheim, Stadt","type":"Stadt"},"district":{"key":"08336","name":"Lörrach","type":"Landkreis"},"federalState":{"key":"08","name":"Baden-Württemberg"}},{"name":"Belchenstr.","postalCode":"79650","locality":"Schopfheim","municipality":{"key":"08336081","name":"Schopfheim, Stadt","type":"Stadt"},"district":{"key":"08336","name":"Lörrach","type":"Landkreis"},"federalState":{"key":"08","name":"Baden-Württemberg"}},{"name":"Bellenbrünnleweg","postalCode":"79650","locality":"Schopfheim","municipality":{"key":"08336081","name":"Schopfheim, Stadt","type":"Stadt"},"district":{"key":"08336","name":"Lörrach","type":"Landkreis"},"federalState":{"key":"08","name":"Baden-Württemberg"}},{"name":"Bergkopfstr.","postalCode":"79650","locality":"Schopfheim","municipality":{"key":"08336081","name":"Schopfheim, Stadt","type":"Stadt"},"district":{"key":"08336","name":"Lörrach","type":"Landkreis"},"federalState":{"key":"08","name":"Baden-Württemberg"}},{"name":"Bergkopfweg","postalCode":"79650","locality":"Schopfheim","municipality":{"key":"08336081","name":"Schopfheim, Stadt","type":"Stadt"},"district":{"key":"08336","name":"Lörrach","type":"Landkreis"},"federalState":{"key":"08","name":"Baden-Württemberg"}},{"name":"Bergstr.","postalCode":"79650","locality":"Schopfheim","municipality":{"key":"08336081","name":"Schopfheim, Stadt","type":"Stadt"},"district":{"key":"08336","name":"Lörrach","type":"Landkreis"},"federalState":{"key":"08","name":"Baden-Württemberg"}},{"name":"Bergwerkstr.","postalCode":"79650","locality":"Schopfheim","municipality":{"key":"08336081","name":"Schopfheim, Stadt","type":"Stadt"},"district":{"key":"08336","name":"Lörrach","type":"Landkreis"},"federalState":{"key":"08","name":"Baden-Württemberg"}},{"name":"Birkengertenweg","postalCode":"79650","locality":"Schopfheim","municipality":{"key":"08336081","name":"Schopfheim, Stadt","type":"Stadt"},"district":{"key":"08336","name":"Lörrach","type":"Landkreis"},"federalState":{"key":"08","name":"Baden-Württemberg"}},{"name":"Birkenweg","postalCode":"79650","locality":"Schopfheim","municipality":{"key":"08336081","name":"Schopfheim, Stadt","type":"Stadt"},"district":{"key":"08336","name":"Lörrach","type":"Landkreis"},"federalState":{"key":"08","name":"Baden-Württemberg"}},{"name":"Bismarckstr.","postalCode":"79650","locality":"Schopfheim","municipality":{"key":"08336081","name":"Schopfheim, Stadt","type":"Stadt"},"district":{"key":"08336","name":"Lörrach","type":"Landkreis"},"federalState":{"key":"08","name":"Baden-Württemberg"}},{"name":"Blasistr.","postalCode":"79650","locality":"Schopfheim","municipality":{"key":"08336081","name":"Schopfheim, Stadt","type":"Stadt"},"district":{"key":"08336","name":"Lörrach","type":"Landkreis"},"federalState":{"key":"08","name":"Baden-Württemberg"}},{"name":"Bläsiweg","postalCode":"79650","locality":"Schopfheim","municipality":{"key":"08336081","name":"Schopfheim, Stadt","type":"Stadt"},"district":{"key":"08336","name":"Lörrach","type":"Landkreis"},"federalState":{"key":"08","name":"Baden-Württemberg"}},{"name":"Blauenstr.","postalCode":"79650","locality":"Schopfheim","municipality":{"key":"08336081","name":"Schopfheim, Stadt","type":"Stadt"},"district":{"key":"08336","name":"Lörrach","type":"Landkreis"},"federalState":{"key":"08","name":"Baden-Württemberg"}},{"name":"Blumenweg","postalCode":"79650","locality":"Schopfheim","municipality":{"key":"08336081","name":"Schopfheim, Stadt","type":"Stadt"},"district":{"key":"08336","name":"Lörrach","type":"Landkreis"},"federalState":{"key":"08","name":"Baden-Württemberg"}},{"name":"Blünimattstr.","postalCode":"79650","locality":"Schopfheim","municipality":{"key":"08336081","name":"Schopfheim, Stadt","type":"Stadt"},"district":{"key":"08336","name":"Lörrach","type":"Landkreis"},"federalState":{"key":"08","name":"Baden-Württemberg"}},{"name":"Blütenweg","postalCode":"79650","locality":"Schopfheim","municipality":{"key":"08336081","name":"Schopfheim, Stadt","type":"Stadt"},"district":{"key":"08336","name":"Lörrach","type":"Landkreis"},"federalState":{"key":"08","name":"Baden-Württemberg"}},{"name":"Brandhaldenweg","postalCode":"79650","locality":"Schopfheim","municipality":{"key":"08336081","name":"Schopfheim, Stadt","type":"Stadt"},"district":{"key":"08336","name":"Lörrach","type":"Landkreis"},"federalState":{"key":"08","name":"Baden-Württemberg"}},{"name":"Breite Graben Weg","postalCode":"79650","locality":"Schopfheim","municipality":{"key":"08336081","name":"Schopfheim, Stadt","type":"Stadt"},"district":{"key":"08336","name":"Lörrach","type":"Landkreis"},"federalState":{"key":"08","name":"Baden-Württemberg"}},{"name":"Breite Str.","postalCode":"79650","locality":"Schopfheim","municipality":{"key":"08336081","name":"Schopfheim, Stadt","type":"Stadt"},"district":{"key":"08336","name":"Lörrach","type":"Landkreis"},"federalState":{"key":"08","name":"Baden-Württemberg"}},{"name":"Breslauer Str.","postalCode":"79650","locality":"Schopfheim","municipality":{"key":"08336081","name":"Schopfheim, Stadt","type":"Stadt"},"district":{"key":"08336","name":"Lörrach","type":"Landkreis"},"federalState":{"key":"08","name":"Baden-Württemberg"}},{"name":"Buchenweg","postalCode":"79650","locality":"Schopfheim","municipality":{"key":"08336081","name":"Schopfheim, Stadt","type":"Stadt"},"district":{"key":"08336","name":"Lörrach","type":"Landkreis"},"federalState":{"key":"08","name":"Baden-Württemberg"}},{"name":"Bühlmattstr.","postalCode":"79650","locality":"Schopfheim","municipality":{"key":"08336081","name":"Schopfheim, Stadt","type":"Stadt"},"district":{"key":"08336","name":"Lörrach","type":"Landkreis"},"federalState":{"key":"08","name":"Baden-Württemberg"}},{"name":"Bundesstr.","postalCode":"79650","locality":"Schopfheim","municipality":{"key":"08336081","name":"Schopfheim, Stadt","type":"Stadt"},"district":{"key":"08336","name":"Lörrach","type":"Landkreis"},"federalState":{"key":"08","name":"Baden-Württemberg"}},{"name":"Bürgermeister-Krafft-Weg","postalCode":"79650","locality":"Schopfheim","municipality":{"key":"08336081","name":"Schopfheim, Stadt","type":"Stadt"},"district":{"key":"08336","name":"Lörrach","type":"Landkreis"},"federalState":{"key":"08","name":"Baden-Württemberg"}},{"name":"Chaldi-Chuchi-Weg","postalCode":"79650","locality":"Schopfheim","municipality":{"key":"08336081","name":"Schopfheim, Stadt","type":"Stadt"},"district":{"key":"08336","name":"Lörrach","type":"Landkreis"},"federalState":{"key":"08","name":"Baden-Württemberg"}},{"name":"Danziger Str.","postalCode":"79650","locality":"Schopfheim","municipality":{"key":"08336081","name":"Schopfheim, Stadt","type":"Stadt"},"district":{"key":"08336","name":"Lörrach","type":"Landkreis"},"federalState":{"key":"08","name":"Baden-Württemberg"}},{"name":"Dickichtweg","postalCode":"79650","locality":"Schopfheim","municipality":{"key":"08336081","name":"Schopfheim, Stadt","type":"Stadt"},"district":{"key":"08336","name":"Lörrach","type":"Landkreis"},"federalState":{"key":"08","name":"Baden-Württemberg"}},{"name":"Dinkelbergstr.","postalCode":"79650","locality":"Schopfheim","municipality":{"key":"08336081","name":"Schopfheim, Stadt","type":"Stadt"},"district":{"key":"08336","name":"Lörrach","type":"Landkreis"},"federalState":{"key":"08","name":"Baden-Württemberg"}},{"name":"Dorfstr.","postalCode":"79650","locality":"Schopfheim","municipality":{"key":"08336081","name":"Schopfheim, Stadt","type":"Stadt"},"district":{"key":"08336","name":"Lörrach","type":"Landkreis"},"federalState":{"key":"08","name":"Baden-Württemberg"}},{"name":"Drosselweg","postalCode":"79650","locality":"Schopfheim","municipality":{"key":"08336081","name":"Schopfheim, Stadt","type":"Stadt"},"district":{"key":"08336","name":"Lörrach","type":"Landkreis"},"federalState":{"key":"08","name":"Baden-Württemberg"}},{"name":"Ebnet","postalCode":"79650","locality":"Schopfheim","municipality":{"key":"08336081","name":"Schopfheim, Stadt","type":"Stadt"},"district":{"key":"08336","name":"Lörrach","type":"Landkreis"},"federalState":{"key":"08","name":"Baden-Württemberg"}},{"name":"Ehner-Fahrnau","postalCode":"79650","locality":"Schopfheim","municipality":{"key":"08336081","name":"Schopfheim, Stadt","type":"Stadt"},"district":{"key":"08336","name":"Lörrach","type":"Landkreis"},"federalState":{"key":"08","name":"Baden-Württemberg"}},{"name":"Eichbühlweg","postalCode":"79650","locality":"Schopfheim","municipality":{"key":"08336081","name":"Schopfheim, Stadt","type":"Stadt"},"district":{"key":"08336","name":"Lörrach","type":"Landkreis"},"federalState":{"key":"08","name":"Baden-Württemberg"}},{"name":"Eichener Str.","postalCode":"79650","locality":"Schopfheim","municipality":{"key":"08336081","name":"Schopfheim, Stadt","type":"Stadt"},"district":{"key":"08336","name":"Lörrach","type":"Landkreis"},"federalState":{"key":"08","name":"Baden-Württemberg"}},{"name":"Eichlefelsweg","postalCode":"79650","locality":"Schopfheim","municipality":{"key":"08336081","name":"Schopfheim, Stadt","type":"Stadt"},"district":{"key":"08336","name":"Lörrach","type":"Landkreis"},"federalState":{"key":"08","name":"Baden-Württemberg"}},{"name":"Eisenbahnstr.","postalCode":"79650","locality":"Schopfheim","municipality":{"key":"08336081","name":"Schopfheim, Stadt","type":"Stadt"},"district":{"key":"08336","name":"Lörrach","type":"Landkreis"},"federalState":{"key":"08","name":"Baden-Württemberg"}},{"name":"Eldsbergweg","postalCode":"79650","locality":"Schopfheim","municipality":{"key":"08336081","name":"Schopfheim, Stadt","type":"Stadt"},"district":{"key":"08336","name":"Lörrach","type":"Landkreis"},"federalState":{"key":"08","name":"Baden-Württemberg"}},{"name":"Emil-Faller-Str.","postalCode":"79650","locality":"Schopfheim","municipality":{"key":"08336081","name":"Schopfheim, Stadt","type":"Stadt"},"district":{"key":"08336","name":"Lörrach","type":"Landkreis"},"federalState":{"key":"08","name":"Baden-Württemberg"}},{"name":"Entegaststr.","postalCode":"79650","locality":"Schopfheim","municipality":{"key":"08336081","name":"Schopfheim, Stadt","type":"Stadt"},"district":{"key":"08336","name":"Lörrach","type":"Landkreis"},"federalState":{"key":"08","name":"Baden-Württemberg"}},{"name":"Erlenweg","postalCode":"79650","locality":"Schopfheim","municipality":{"key":"08336081","name":"Schopfheim, Stadt","type":"Stadt"},"district":{"key":"08336","name":"Lörrach","type":"Landkreis"},"federalState":{"key":"08","name":"Baden-Württemberg"}},{"name":"Ernst-Friedrich-Gottschalk-Weg","postalCode":"79650","locality":"Schopfheim","municipality":{"key":"08336081","name":"Schopfheim, Stadt","type":"Stadt"},"district":{"key":"08336","name":"Lörrach","type":"Landkreis"},"federalState":{"key":"08","name":"Baden-Württemberg"}},{"name":"Eschlinshaldenweg","postalCode":"79650","locality":"Schopfheim","municipality":{"key":"08336081","name":"Schopfheim, Stadt","type":"Stadt"},"district":{"key":"08336","name":"Lörrach","type":"Landkreis"},"federalState":{"key":"08","name":"Baden-Württemberg"}},{"name":"Eselwaldweg","postalCode":"79650","locality":"Schopfheim","municipality":{"key":"08336081","name":"Schopfheim, Stadt","type":"Stadt"},"district":{"key":"08336","name":"Lörrach","type":"Landkreis"},"federalState":{"key":"08","name":"Baden-Württemberg"}},{"name":"Fabrikstr.","postalCode":"79650","locality":"Schopfheim","municipality":{"key":"08336081","name":"Schopfheim, Stadt","type":"Stadt"},"district":{"key":"08336","name":"Lörrach","type":"Landkreis"},"federalState":{"key":"08","name":"Baden-Württemberg"}},{"name":"Fahrnauer Str.","postalCode":"79650","locality":"Schopfheim","municipality":{"key":"08336081","name":"Schopfheim, Stadt","type":"Stadt"},"district":{"key":"08336","name":"Lörrach","type":"Landkreis"},"federalState":{"key":"08","name":"Baden-Württemberg"}},{"name":"Fahrnbühlweg","postalCode":"79650","locality":"Schopfheim","municipality":{"key":"08336081","name":"Schopfheim, Stadt","type":"Stadt"},"district":{"key":"08336","name":"Lörrach","type":"Landkreis"},"federalState":{"key":"08","name":"Baden-Württemberg"}},{"name":"Feldbergstr.","postalCode":"79650","locality":"Schopfheim","municipality":{"key":"08336081","name":"Schopfheim, Stadt","type":"Stadt"},"district":{"key":"08336","name":"Lörrach","type":"Landkreis"},"federalState":{"key":"08","name":"Baden-Württemberg"}},{"name":"Fetzenbach","postalCode":"79650","locality":"Schopfheim","municipality":{"key":"08336081","name":"Schopfheim, Stadt","type":"Stadt"},"district":{"key":"08336","name":"Lörrach","type":"Landkreis"},"federalState":{"key":"08","name":"Baden-Württemberg"}},{"name":"Fetzenbergweg","postalCode":"79650","locality":"Schopfheim","municipality":{"key":"08336081","name":"Schopfheim, Stadt","type":"Stadt"},"district":{"key":"08336","name":"Lörrach","type":"Landkreis"},"federalState":{"key":"08","name":"Baden-Württemberg"}},{"name":"Finkenweg","postalCode":"79650","locality":"Schopfheim","municipality":{"key":"08336081","name":"Schopfheim, Stadt","type":"Stadt"},"district":{"key":"08336","name":"Lörrach","type":"Landkreis"},"federalState":{"key":"08","name":"Baden-Württemberg"}},{"name":"Finstergrabenweg","postalCode":"79650","locality":"Schopfheim","municipality":{"key":"08336081","name":"Schopfheim, Stadt","type":"Stadt"},"district":{"key":"08336","name":"Lörrach","type":"Landkreis"},"federalState":{"key":"08","name":"Baden-Württemberg"}},{"name":"Friedenstr.","postalCode":"79650","locality":"Schopfheim","municipality":{"key":"08336081","name":"Schopfheim, Stadt","type":"Stadt"},"district":{"key":"08336","name":"Lörrach","type":"Landkreis"},"federalState":{"key":"08","name":"Baden-Württemberg"}},{"name":"Friedrich-Hecker-Str.","postalCode":"79650","locality":"Schopfheim","municipality":{"key":"08336081","name":"Schopfheim, Stadt","type":"Stadt"},"district":{"key":"08336","name":"Lörrach","type":"Landkreis"},"federalState":{"key":"08","name":"Baden-Württemberg"}},{"name":"Friedrichstr.","postalCode":"79650","locality":"Schopfheim","municipality":{"key":"08336081","name":"Schopfheim, Stadt","type":"Stadt"},"district":{"key":"08336","name":"Lörrach","type":"Landkreis"},"federalState":{"key":"08","name":"Baden-Württemberg"}},{"name":"Frieseneggerweg","postalCode":"79650","locality":"Schopfheim","municipality":{"key":"08336081","name":"Schopfheim, Stadt","type":"Stadt"},"district":{"key":"08336","name":"Lörrach","type":"Landkreis"},"federalState":{"key":"08","name":"Baden-Württemberg"}},{"name":"Fritz-Heeg-Erasmus-Weg","postalCode":"79650","locality":"Schopfheim","municipality":{"key":"08336081","name":"Schopfheim, Stadt","type":"Stadt"},"district":{"key":"08336","name":"Lörrach","type":"Landkreis"},"federalState":{"key":"08","name":"Baden-Württemberg"}},{"name":"Fritz-Reimold-Str.","postalCode":"79650","locality":"Schopfheim","municipality":{"key":"08336081","name":"Schopfheim, Stadt","type":"Stadt"},"district":{"key":"08336","name":"Lörrach","type":"Landkreis"},"federalState":{"key":"08","name":"Baden-Württemberg"}},{"name":"Frohlochweg","postalCode":"79650","locality":"Schopfheim","municipality":{"key":"08336081","name":"Schopfheim, Stadt","type":"Stadt"},"district":{"key":"08336","name":"Lörrach","type":"Landkreis"},"federalState":{"key":"08","name":"Baden-Württemberg"}},{"name":"Fuchsackerweg","postalCode":"79650","locality":"Schopfheim","municipality":{"key":"08336081","name":"Schopfheim, Stadt","type":"Stadt"},"district":{"key":"08336","name":"Lörrach","type":"Landkreis"},"federalState":{"key":"08","name":"Baden-Württemberg"}},{"name":"Gartenstr.","postalCode":"79650","locality":"Schopfheim","municipality":{"key":"08336081","name":"Schopfheim, Stadt","type":"Stadt"},"district":{"key":"08336","name":"Lörrach","type":"Landkreis"},"federalState":{"key":"08","name":"Baden-Württemberg"}},{"name":"Gässle","postalCode":"79650","locality":"Schopfheim","municipality":{"key":"08336081","name":"Schopfheim, Stadt","type":"Stadt"},"district":{"key":"08336","name":"Lörrach","type":"Landkreis"},"federalState":{"key":"08","name":"Baden-Württemberg"}},{"name":"Gatterweg","postalCode":"79650","locality":"Schopfheim","municipality":{"key":"08336081","name":"Schopfheim, Stadt","type":"Stadt"},"district":{"key":"08336","name":"Lörrach","type":"Landkreis"},"federalState":{"key":"08","name":"Baden-Württemberg"}},{"name":"Georg-Ühlin-Str.","postalCode":"79650","locality":"Schopfheim","municipality":{"key":"08336081","name":"Schopfheim, Stadt","type":"Stadt"},"district":{"key":"08336","name":"Lörrach","type":"Landkreis"},"federalState":{"key":"08","name":"Baden-Württemberg"}},{"name":"Gerberstr.","postalCode":"79650","locality":"Schopfheim","municipality":{"key":"08336081","name":"Schopfheim, Stadt","type":"Stadt"},"district":{"key":"08336","name":"Lörrach","type":"Landkreis"},"federalState":{"key":"08","name":"Baden-Württemberg"}},{"name":"Gersbach-Au","postalCode":"79650","locality":"Schopfheim","municipality":{"key":"08336081","name":"Schopfheim, Stadt","type":"Stadt"},"district":{"key":"08336","name":"Lörrach","type":"Landkreis"},"federalState":{"key":"08","name":"Baden-Württemberg"}},{"name":"Glaserbergweg","postalCode":"79650","locality":"Schopfheim","municipality":{"key":"08336081","name":"Schopfheim, Stadt","type":"Stadt"},"district":{"key":"08336","name":"Lörrach","type":"Landkreis"},"federalState":{"key":"08","name":"Baden-Württemberg"}},{"name":"Glasmattweg","postalCode":"79650","locality":"Schopfheim","municipality":{"key":"08336081","name":"Schopfheim, Stadt","type":"Stadt"},"district":{"key":"08336","name":"Lörrach","type":"Landkreis"},"federalState":{"key":"08","name":"Baden-Württemberg"}},{"name":"Goethestr.","postalCode":"79650","locality":"Schopfheim","municipality":{"key":"08336081","name":"Schopfheim, Stadt","type":"Stadt"},"district":{"key":"08336","name":"Lörrach","type":"Landkreis"},"federalState":{"key":"08","name":"Baden-Württemberg"}},{"name":"Golembek-Weg","postalCode":"79650","locality":"Schopfheim","municipality":{"key":"08336081","name":"Schopfheim, Stadt","type":"Stadt"},"district":{"key":"08336","name":"Lörrach","type":"Landkreis"},"federalState":{"key":"08","name":"Baden-Württemberg"}},{"name":"Grenzweg","postalCode":"79650","locality":"Schopfheim","municipality":{"key":"08336081","name":"Schopfheim, Stadt","type":"Stadt"},"district":{"key":"08336","name":"Lörrach","type":"Landkreis"},"federalState":{"key":"08","name":"Baden-Württemberg"}},{"name":"Gresger Weg","postalCode":"79650","locality":"Schopfheim","municipality":{"key":"08336081","name":"Schopfheim, Stadt","type":"Stadt"},"district":{"key":"08336","name":"Lörrach","type":"Landkreis"},"federalState":{"key":"08","name":"Baden-Württemberg"}},{"name":"Grienmatt","postalCode":"79650","locality":"Schopfheim","municipality":{"key":"08336081","name":"Schopfheim, Stadt","type":"Stadt"},"district":{"key":"08336","name":"Lörrach","type":"Landkreis"},"federalState":{"key":"08","name":"Baden-Württemberg"}},{"name":"Grubenweg","postalCode":"79650","locality":"Schopfheim","municipality":{"key":"08336081","name":"Schopfheim, Stadt","type":"Stadt"},"district":{"key":"08336","name":"Lörrach","type":"Landkreis"},"federalState":{"key":"08","name":"Baden-Württemberg"}},{"name":"Grummbachweg","postalCode":"79650","locality":"Schopfheim","municipality":{"key":"08336081","name":"Schopfheim, Stadt","type":"Stadt"},"district":{"key":"08336","name":"Lörrach","type":"Landkreis"},"federalState":{"key":"08","name":"Baden-Württemberg"}},{"name":"Grundweg","postalCode":"79650","locality":"Schopfheim","municipality":{"key":"08336081","name":"Schopfheim, Stadt","type":"Stadt"},"district":{"key":"08336","name":"Lörrach","type":"Landkreis"},"federalState":{"key":"08","name":"Baden-Württemberg"}},{"name":"Gündenhausen","postalCode":"79650","locality":"Schopfheim","municipality":{"key":"08336081","name":"Schopfheim, Stadt","type":"Stadt"},"district":{"key":"08336","name":"Lörrach","type":"Landkreis"},"federalState":{"key":"08","name":"Baden-Württemberg"}},{"name":"Gußelweg","postalCode":"79650","locality":"Schopfheim","municipality":{"key":"08336081","name":"Schopfheim, Stadt","type":"Stadt"},"district":{"key":"08336","name":"Lörrach","type":"Landkreis"},"federalState":{"key":"08","name":"Baden-Württemberg"}},{"name":"Gutjüchertenweg","postalCode":"79650","locality":"Schopfheim","municipality":{"key":"08336081","name":"Schopfheim, Stadt","type":"Stadt"},"district":{"key":"08336","name":"Lörrach","type":"Landkreis"},"federalState":{"key":"08","name":"Baden-Württemberg"}},{"name":"Haargartenweg","postalCode":"79650","locality":"Schopfheim","municipality":{"key":"08336081","name":"Schopfheim, Stadt","type":"Stadt"},"district":{"key":"08336","name":"Lörrach","type":"Landkreis"},"federalState":{"key":"08","name":"Baden-Württemberg"}},{"name":"Hägiweg","postalCode":"79650","locality":"Schopfheim","municipality":{"key":"08336081","name":"Schopfheim, Stadt","type":"Stadt"},"district":{"key":"08336","name":"Lörrach","type":"Landkreis"},"federalState":{"key":"08","name":"Baden-Württemberg"}},{"name":"Haldenweg","postalCode":"79650","locality":"Schopfheim","municipality":{"key":"08336081","name":"Schopfheim, Stadt","type":"Stadt"},"district":{"key":"08336","name":"Lörrach","type":"Landkreis"},"federalState":{"key":"08","name":"Baden-Württemberg"}},{"name":"Hammerschmiedgasse","postalCode":"79650","locality":"Schopfheim","municipality":{"key":"08336081","name":"Schopfheim, Stadt","type":"Stadt"},"district":{"key":"08336","name":"Lörrach","type":"Landkreis"},"federalState":{"key":"08","name":"Baden-Württemberg"}},{"name":"Hans-Vetter-Str.","postalCode":"79650","locality":"Schopfheim","municipality":{"key":"08336081","name":"Schopfheim, Stadt","type":"Stadt"},"district":{"key":"08336","name":"Lörrach","type":"Landkreis"},"federalState":{"key":"08","name":"Baden-Württemberg"}},{"name":"Hasenbühlweg","postalCode":"79650","locality":"Schopfheim","municipality":{"key":"08336081","name":"Schopfheim, Stadt","type":"Stadt"},"district":{"key":"08336","name":"Lörrach","type":"Landkreis"},"federalState":{"key":"08","name":"Baden-Württemberg"}},{"name":"Hasler Grenzweg","postalCode":"79650","locality":"Schopfheim","municipality":{"key":"08336081","name":"Schopfheim, Stadt","type":"Stadt"},"district":{"key":"08336","name":"Lörrach","type":"Landkreis"},"federalState":{"key":"08","name":"Baden-Württemberg"}},{"name":"Hauptstr.","postalCode":"79650","locality":"Schopfheim","municipality":{"key":"08336081","name":"Schopfheim, Stadt","type":"Stadt"},"district":{"key":"08336","name":"Lörrach","type":"Landkreis"},"federalState":{"key":"08","name":"Baden-Württemberg"}},{"name":"Hausener Hauweg","postalCode":"79650","locality":"Schopfheim","municipality":{"key":"08336081","name":"Schopfheim, Stadt","type":"Stadt"},"district":{"key":"08336","name":"Lörrach","type":"Landkreis"},"federalState":{"key":"08","name":"Baden-Württemberg"}},{"name":"Hausmattweg","postalCode":"79650","locality":"Schopfheim","municipality":{"key":"08336081","name":"Schopfheim, Stadt","type":"Stadt"},"district":{"key":"08336","name":"Lörrach","type":"Landkreis"},"federalState":{"key":"08","name":"Baden-Württemberg"}},{"name":"Hebelstr.","postalCode":"79650","locality":"Schopfheim","municipality":{"key":"08336081","name":"Schopfheim, Stadt","type":"Stadt"},"district":{"key":"08336","name":"Lörrach","type":"Landkreis"},"federalState":{"key":"08","name":"Baden-Württemberg"}},{"name":"Hegnestr.","postalCode":"79650","locality":"Schopfheim","municipality":{"key":"08336081","name":"Schopfheim, Stadt","type":"Stadt"},"district":{"key":"08336","name":"Lörrach","type":"Landkreis"},"federalState":{"key":"08","name":"Baden-Württemberg"}},{"name":"Himmelreichstr.","postalCode":"79650","locality":"Schopfheim","municipality":{"key":"08336081","name":"Schopfheim, Stadt","type":"Stadt"},"district":{"key":"08336","name":"Lörrach","type":"Landkreis"},"federalState":{"key":"08","name":"Baden-Württemberg"}},{"name":"Hintermattweg","postalCode":"79650","locality":"Schopfheim","municipality":{"key":"08336081","name":"Schopfheim, Stadt","type":"Stadt"},"district":{"key":"08336","name":"Lörrach","type":"Landkreis"},"federalState":{"key":"08","name":"Baden-Württemberg"}},{"name":"Hofackerweg","postalCode":"79650","locality":"Schopfheim","municipality":{"key":"08336081","name":"Schopfheim, Stadt","type":"Stadt"},"district":{"key":"08336","name":"Lörrach","type":"Landkreis"},"federalState":{"key":"08","name":"Baden-Württemberg"}},{"name":"Hohe-Flum-Str.","postalCode":"79650","locality":"Schopfheim","municipality":{"key":"08336081","name":"Schopfheim, Stadt","type":"Stadt"},"district":{"key":"08336","name":"Lörrach","type":"Landkreis"},"federalState":{"key":"08","name":"Baden-Württemberg"}},{"name":"Hohe-Möhr-Str.","postalCode":"79650","locality":"Schopfheim","municipality":{"key":"08336081","name":"Schopfheim, Stadt","type":"Stadt"},"district":{"key":"08336","name":"Lörrach","type":"Landkreis"},"federalState":{"key":"08","name":"Baden-Württemberg"}},{"name":"Hohle-Tann-Str.","postalCode":"79650","locality":"Schopfheim","municipality":{"key":"08336081","name":"Schopfheim, Stadt","type":"Stadt"},"district":{"key":"08336","name":"Lörrach","type":"Landkreis"},"federalState":{"key":"08","name":"Baden-Württemberg"}},{"name":"Hohrainli","postalCode":"79650","locality":"Schopfheim","municipality":{"key":"08336081","name":"Schopfheim, Stadt","type":"Stadt"},"district":{"key":"08336","name":"Lörrach","type":"Landkreis"},"federalState":{"key":"08","name":"Baden-Württemberg"}},{"name":"Hohstettgasse","postalCode":"79650","locality":"Schopfheim","municipality":{"key":"08336081","name":"Schopfheim, Stadt","type":"Stadt"},"district":{"key":"08336","name":"Lörrach","type":"Landkreis"},"federalState":{"key":"08","name":"Baden-Württemberg"}},{"name":"Hollbergweg","postalCode":"79650","locality":"Schopfheim","municipality":{"key":"08336081","name":"Schopfheim, Stadt","type":"Stadt"},"district":{"key":"08336","name":"Lörrach","type":"Landkreis"},"federalState":{"key":"08","name":"Baden-Württemberg"}},{"name":"Höllweg","postalCode":"79650","locality":"Schopfheim","municipality":{"key":"08336081","name":"Schopfheim, Stadt","type":"Stadt"},"district":{"key":"08336","name":"Lörrach","type":"Landkreis"},"federalState":{"key":"08","name":"Baden-Württemberg"}},{"name":"Hölzle","postalCode":"79650","locality":"Schopfheim","municipality":{"key":"08336081","name":"Schopfheim, Stadt","type":"Stadt"},"district":{"key":"08336","name":"Lörrach","type":"Landkreis"},"federalState":{"key":"08","name":"Baden-Württemberg"}},{"name":"Hörnleweg","postalCode":"79650","locality":"Schopfheim","municipality":{"key":"08336081","name":"Schopfheim, Stadt","type":"Stadt"},"district":{"key":"08336","name":"Lörrach","type":"Landkreis"},"federalState":{"key":"08","name":"Baden-Württemberg"}},{"name":"Im Bifig","postalCode":"79650","locality":"Schopfheim","municipality":{"key":"08336081","name":"Schopfheim, Stadt","type":"Stadt"},"district":{"key":"08336","name":"Lörrach","type":"Landkreis"},"federalState":{"key":"08","name":"Baden-Württemberg"}},{"name":"Im Brehmt","postalCode":"79650","locality":"Schopfheim","municipality":{"key":"08336081","name":"Schopfheim, Stadt","type":"Stadt"},"district":{"key":"08336","name":"Lörrach","type":"Landkreis"},"federalState":{"key":"08","name":"Baden-Württemberg"}},{"name":"Im Dellacker","postalCode":"79650","locality":"Schopfheim","municipality":{"key":"08336081","name":"Schopfheim, Stadt","type":"Stadt"},"district":{"key":"08336","name":"Lörrach","type":"Landkreis"},"federalState":{"key":"08","name":"Baden-Württemberg"}},{"name":"Im Grün","postalCode":"79650","locality":"Schopfheim","municipality":{"key":"08336081","name":"Schopfheim, Stadt","type":"Stadt"},"district":{"key":"08336","name":"Lörrach","type":"Landkreis"},"federalState":{"key":"08","name":"Baden-Württemberg"}},{"name":"Im Loh","postalCode":"79650","locality":"Schopfheim","municipality":{"key":"08336081","name":"Schopfheim, Stadt","type":"Stadt"},"district":{"key":"08336","name":"Lörrach","type":"Landkreis"},"federalState":{"key":"08","name":"Baden-Württemberg"}},{"name":"Im Rosengarten","postalCode":"79650","locality":"Schopfheim","municipality":{"key":"08336081","name":"Schopfheim, Stadt","type":"Stadt"},"district":{"key":"08336","name":"Lörrach","type":"Landkreis"},"federalState":{"key":"08","name":"Baden-Württemberg"}},{"name":"Im Vogelsang","postalCode":"79650","locality":"Schopfheim","municipality":{"key":"08336081","name":"Schopfheim, Stadt","type":"Stadt"},"district":{"key":"08336","name":"Lörrach","type":"Landkreis"},"federalState":{"key":"08","name":"Baden-Württemberg"}},{"name":"Inselstr.","postalCode":"79650","locality":"Schopfheim","municipality":{"key":"08336081","name":"Schopfheim, Stadt","type":"Stadt"},"district":{"key":"08336","name":"Lörrach","type":"Landkreis"},"federalState":{"key":"08","name":"Baden-Württemberg"}},{"name":"Johannishüttenweg","postalCode":"79650","locality":"Schopfheim","municipality":{"key":"08336081","name":"Schopfheim, Stadt","type":"Stadt"},"district":{"key":"08336","name":"Lörrach","type":"Landkreis"},"federalState":{"key":"08","name":"Baden-Württemberg"}},{"name":"Johann-Karl-Grether-Str.","postalCode":"79650","locality":"Schopfheim","municipality":{"key":"08336081","name":"Schopfheim, Stadt","type":"Stadt"},"district":{"key":"08336","name":"Lörrach","type":"Landkreis"},"federalState":{"key":"08","name":"Baden-Württemberg"}},{"name":"Johann-Sutter-Str.","postalCode":"79650","locality":"Schopfheim","municipality":{"key":"08336081","name":"Schopfheim, Stadt","type":"Stadt"},"district":{"key":"08336","name":"Lörrach","type":"Landkreis"},"federalState":{"key":"08","name":"Baden-Württemberg"}},{"name":"Junkersweg","postalCode":"79650","locality":"Schopfheim","municipality":{"key":"08336081","name":"Schopfheim, Stadt","type":"Stadt"},"district":{"key":"08336","name":"Lörrach","type":"Landkreis"},"federalState":{"key":"08","name":"Baden-Württemberg"}},{"name":"Kapellenstr.","postalCode":"79650","locality":"Schopfheim","municipality":{"key":"08336081","name":"Schopfheim, Stadt","type":"Stadt"},"district":{"key":"08336","name":"Lörrach","type":"Landkreis"},"federalState":{"key":"08","name":"Baden-Württemberg"}},{"name":"Käppelemattweg","postalCode":"79650","locality":"Schopfheim","municipality":{"key":"08336081","name":"Schopfheim, Stadt","type":"Stadt"},"district":{"key":"08336","name":"Lörrach","type":"Landkreis"},"federalState":{"key":"08","name":"Baden-Württemberg"}},{"name":"Karlsbader Str.","postalCode":"79650","locality":"Schopfheim","municipality":{"key":"08336081","name":"Schopfheim, Stadt","type":"Stadt"},"district":{"key":"08336","name":"Lörrach","type":"Landkreis"},"federalState":{"key":"08","name":"Baden-Württemberg"}},{"name":"Karlstr.","postalCode":"79650","locality":"Schopfheim","municipality":{"key":"08336081","name":"Schopfheim, Stadt","type":"Stadt"},"district":{"key":"08336","name":"Lörrach","type":"Landkreis"},"federalState":{"key":"08","name":"Baden-Württemberg"}},{"name":"Katzenlohstr.","postalCode":"79650","locality":"Schopfheim","municipality":{"key":"08336081","name":"Schopfheim, Stadt","type":"Stadt"},"district":{"key":"08336","name":"Lörrach","type":"Landkreis"},"federalState":{"key":"08","name":"Baden-Württemberg"}},{"name":"Kirchplatz","postalCode":"79650","locality":"Schopfheim","municipality":{"key":"08336081","name":"Schopfheim, Stadt","type":"Stadt"},"district":{"key":"08336","name":"Lörrach","type":"Landkreis"},"federalState":{"key":"08","name":"Baden-Württemberg"}},{"name":"Kirchrainweg","postalCode":"79650","locality":"Schopfheim","municipality":{"key":"08336081","name":"Schopfheim, Stadt","type":"Stadt"},"district":{"key":"08336","name":"Lörrach","type":"Landkreis"},"federalState":{"key":"08","name":"Baden-Württemberg"}},{"name":"Kirchstr.","postalCode":"79650","locality":"Schopfheim","municipality":{"key":"08336081","name":"Schopfheim, Stadt","type":"Stadt"},"district":{"key":"08336","name":"Lörrach","type":"Landkreis"},"federalState":{"key":"08","name":"Baden-Württemberg"}},{"name":"Kleinmachnower Ring","postalCode":"79650","locality":"Schopfheim","municipality":{"key":"08336081","name":"Schopfheim, Stadt","type":"Stadt"},"district":{"key":"08336","name":"Lörrach","type":"Landkreis"},"federalState":{"key":"08","name":"Baden-Württemberg"}},{"name":"Kohlrütteweg","postalCode":"79650","locality":"Schopfheim","municipality":{"key":"08336081","name":"Schopfheim, Stadt","type":"Stadt"},"district":{"key":"08336","name":"Lörrach","type":"Landkreis"},"federalState":{"key":"08","name":"Baden-Württemberg"}},{"name":"Königsberger Str.","postalCode":"79650","locality":"Schopfheim","municipality":{"key":"08336081","name":"Schopfheim, Stadt","type":"Stadt"},"district":{"key":"08336","name":"Lörrach","type":"Landkreis"},"federalState":{"key":"08","name":"Baden-Württemberg"}},{"name":"Königsbergweg","postalCode":"79650","locality":"Schopfheim","municipality":{"key":"08336081","name":"Schopfheim, Stadt","type":"Stadt"},"district":{"key":"08336","name":"Lörrach","type":"Landkreis"},"federalState":{"key":"08","name":"Baden-Württemberg"}},{"name":"Konrad-von-Rötteln-Str.","postalCode":"79650","locality":"Schopfheim","municipality":{"key":"08336081","name":"Schopfheim, Stadt","type":"Stadt"},"district":{"key":"08336","name":"Lörrach","type":"Landkreis"},"federalState":{"key":"08","name":"Baden-Württemberg"}},{"name":"Krattenweg","postalCode":"79650","locality":"Schopfheim","municipality":{"key":"08336081","name":"Schopfheim, Stadt","type":"Stadt"},"district":{"key":"08336","name":"Lörrach","type":"Landkreis"},"federalState":{"key":"08","name":"Baden-Württemberg"}},{"name":"Kürnberg","postalCode":"79650","locality":"Schopfheim","municipality":{"key":"08336081","name":"Schopfheim, Stadt","type":"Stadt"},"district":{"key":"08336","name":"Lörrach","type":"Landkreis"},"federalState":{"key":"08","name":"Baden-Württemberg"}},{"name":"Kürnberger Str.","postalCode":"79650","locality":"Schopfheim","municipality":{"key":"08336081","name":"Schopfheim, Stadt","type":"Stadt"},"district":{"key":"08336","name":"Lörrach","type":"Landkreis"},"federalState":{"key":"08","name":"Baden-Württemberg"}},{"name":"Kurze Fuhrenstr.","postalCode":"79650","locality":"Schopfheim","municipality":{"key":"08336081","name":"Schopfheim, Stadt","type":"Stadt"},"district":{"key":"08336","name":"Lörrach","type":"Landkreis"},"federalState":{"key":"08","name":"Baden-Württemberg"}},{"name":"Lachsgrabenweg","postalCode":"79650","locality":"Schopfheim","municipality":{"key":"08336081","name":"Schopfheim, Stadt","type":"Stadt"},"district":{"key":"08336","name":"Lörrach","type":"Landkreis"},"federalState":{"key":"08","name":"Baden-Württemberg"}},{"name":"Landstr.","postalCode":"79650","locality":"Schopfheim","municipality":{"key":"08336081","name":"Schopfheim, Stadt","type":"Stadt"},"district":{"key":"08336","name":"Lörrach","type":"Landkreis"},"federalState":{"key":"08","name":"Baden-Württemberg"}},{"name":"Langackerstr.","postalCode":"79650","locality":"Schopfheim","municipality":{"key":"08336081","name":"Schopfheim, Stadt","type":"Stadt"},"district":{"key":"08336","name":"Lörrach","type":"Landkreis"},"federalState":{"key":"08","name":"Baden-Württemberg"}},{"name":"Langenauerweg","postalCode":"79650","locality":"Schopfheim","municipality":{"key":"08336081","name":"Schopfheim, Stadt","type":"Stadt"},"district":{"key":"08336","name":"Lörrach","type":"Landkreis"},"federalState":{"key":"08","name":"Baden-Württemberg"}},{"name":"Langenbühlweg","postalCode":"79650","locality":"Schopfheim","municipality":{"key":"08336081","name":"Schopfheim, Stadt","type":"Stadt"},"district":{"key":"08336","name":"Lörrach","type":"Landkreis"},"federalState":{"key":"08","name":"Baden-Württemberg"}},{"name":"Langenfirstweg","postalCode":"79650","locality":"Schopfheim","municipality":{"key":"08336081","name":"Schopfheim, Stadt","type":"Stadt"},"district":{"key":"08336","name":"Lörrach","type":"Landkreis"},"federalState":{"key":"08","name":"Baden-Württemberg"}},{"name":"Langenschwand","postalCode":"79650","locality":"Schopfheim","municipality":{"key":"08336081","name":"Schopfheim, Stadt","type":"Stadt"},"district":{"key":"08336","name":"Lörrach","type":"Landkreis"},"federalState":{"key":"08","name":"Baden-Württemberg"}},{"name":"Langgasse","postalCode":"79650","locality":"Schopfheim","municipality":{"key":"08336081","name":"Schopfheim, Stadt","type":"Stadt"},"district":{"key":"08336","name":"Lörrach","type":"Landkreis"},"federalState":{"key":"08","name":"Baden-Württemberg"}},{"name":"Lehrpfad","postalCode":"79650","locality":"Schopfheim","municipality":{"key":"08336081","name":"Schopfheim, Stadt","type":"Stadt"},"district":{"key":"08336","name":"Lörrach","type":"Landkreis"},"federalState":{"key":"08","name":"Baden-Württemberg"}},{"name":"Lerchenweg","postalCode":"79650","locality":"Schopfheim","municipality":{"key":"08336081","name":"Schopfheim, Stadt","type":"Stadt"},"district":{"key":"08336","name":"Lörrach","type":"Landkreis"},"federalState":{"key":"08","name":"Baden-Württemberg"}},{"name":"Lettengasse","postalCode":"79650","locality":"Schopfheim","municipality":{"key":"08336081","name":"Schopfheim, Stadt","type":"Stadt"},"district":{"key":"08336","name":"Lörrach","type":"Landkreis"},"federalState":{"key":"08","name":"Baden-Württemberg"}},{"name":"Lindenbühlweg","postalCode":"79650","locality":"Schopfheim","municipality":{"key":"08336081","name":"Schopfheim, Stadt","type":"Stadt"},"district":{"key":"08336","name":"Lörrach","type":"Landkreis"},"federalState":{"key":"08","name":"Baden-Württemberg"}},{"name":"Lindenweg","postalCode":"79650","locality":"Schopfheim","municipality":{"key":"08336081","name":"Schopfheim, Stadt","type":"Stadt"},"district":{"key":"08336","name":"Lörrach","type":"Landkreis"},"federalState":{"key":"08","name":"Baden-Württemberg"}},{"name":"Lochbachweg","postalCode":"79650","locality":"Schopfheim","municipality":{"key":"08336081","name":"Schopfheim, Stadt","type":"Stadt"},"district":{"key":"08336","name":"Lörrach","type":"Landkreis"},"federalState":{"key":"08","name":"Baden-Württemberg"}},{"name":"Lochmühle","postalCode":"79650","locality":"Schopfheim","municipality":{"key":"08336081","name":"Schopfheim, Stadt","type":"Stadt"},"district":{"key":"08336","name":"Lörrach","type":"Landkreis"},"federalState":{"key":"08","name":"Baden-Württemberg"}},{"name":"Loipenweg","postalCode":"79650","locality":"Schopfheim","municipality":{"key":"08336081","name":"Schopfheim, Stadt","type":"Stadt"},"district":{"key":"08336","name":"Lörrach","type":"Landkreis"},"federalState":{"key":"08","name":"Baden-Württemberg"}},{"name":"Luisenstr.","postalCode":"79650","locality":"Schopfheim","municipality":{"key":"08336081","name":"Schopfheim, Stadt","type":"Stadt"},"district":{"key":"08336","name":"Lörrach","type":"Landkreis"},"federalState":{"key":"08","name":"Baden-Württemberg"}},{"name":"Lusring","postalCode":"79650","locality":"Schopfheim","municipality":{"key":"08336081","name":"Schopfheim, Stadt","type":"Stadt"},"district":{"key":"08336","name":"Lörrach","type":"Landkreis"},"federalState":{"key":"08","name":"Baden-Württemberg"}},{"name":"Lusweg","postalCode":"79650","locality":"Schopfheim","municipality":{"key":"08336081","name":"Schopfheim, Stadt","type":"Stadt"},"district":{"key":"08336","name":"Lörrach","type":"Landkreis"},"federalState":{"key":"08","name":"Baden-Württemberg"}},{"name":"Maienbergweg","postalCode":"79650","locality":"Schopfheim","municipality":{"key":"08336081","name":"Schopfheim, Stadt","type":"Stadt"},"district":{"key":"08336","name":"Lörrach","type":"Landkreis"},"federalState":{"key":"08","name":"Baden-Württemberg"}},{"name":"Maiengasse","postalCode":"79650","locality":"Schopfheim","municipality":{"key":"08336081","name":"Schopfheim, Stadt","type":"Stadt"},"district":{"key":"08336","name":"Lörrach","type":"Landkreis"},"federalState":{"key":"08","name":"Baden-Württemberg"}},{"name":"Marderweg","postalCode":"79650","locality":"Schopfheim","municipality":{"key":"08336081","name":"Schopfheim, Stadt","type":"Stadt"},"district":{"key":"08336","name":"Lörrach","type":"Landkreis"},"federalState":{"key":"08","name":"Baden-Württemberg"}},{"name":"Mattenleestr.","postalCode":"79650","locality":"Schopfheim","municipality":{"key":"08336081","name":"Schopfheim, Stadt","type":"Stadt"},"district":{"key":"08336","name":"Lörrach","type":"Landkreis"},"federalState":{"key":"08","name":"Baden-Württemberg"}},{"name":"Mättleweg","postalCode":"79650","locality":"Schopfheim","municipality":{"key":"08336081","name":"Schopfheim, Stadt","type":"Stadt"},"district":{"key":"08336","name":"Lörrach","type":"Landkreis"},"federalState":{"key":"08","name":"Baden-Württemberg"}},{"name":"Meisenweg","postalCode":"79650","locality":"Schopfheim","municipality":{"key":"08336081","name":"Schopfheim, Stadt","type":"Stadt"},"district":{"key":"08336","name":"Lörrach","type":"Landkreis"},"federalState":{"key":"08","name":"Baden-Württemberg"}},{"name":"Mittlerer Hornweg","postalCode":"79650","locality":"Schopfheim","municipality":{"key":"08336081","name":"Schopfheim, Stadt","type":"Stadt"},"district":{"key":"08336","name":"Lörrach","type":"Landkreis"},"federalState":{"key":"08","name":"Baden-Württemberg"}},{"name":"Mittlerer Rohrbergweg","postalCode":"79650","locality":"Schopfheim","municipality":{"key":"08336081","name":"Schopfheim, Stadt","type":"Stadt"},"district":{"key":"08336","name":"Lörrach","type":"Landkreis"},"federalState":{"key":"08","name":"Baden-Württemberg"}},{"name":"Mittlerer Sengelenweg","postalCode":"79650","locality":"Schopfheim","municipality":{"key":"08336081","name":"Schopfheim, Stadt","type":"Stadt"},"district":{"key":"08336","name":"Lörrach","type":"Landkreis"},"federalState":{"key":"08","name":"Baden-Württemberg"}},{"name":"Mittlerer Weg","postalCode":"79650","locality":"Schopfheim","municipality":{"key":"08336081","name":"Schopfheim, Stadt","type":"Stadt"},"district":{"key":"08336","name":"Lörrach","type":"Landkreis"},"federalState":{"key":"08","name":"Baden-Württemberg"}},{"name":"Mittlere Str.","postalCode":"79650","locality":"Schopfheim","municipality":{"key":"08336081","name":"Schopfheim, Stadt","type":"Stadt"},"district":{"key":"08336","name":"Lörrach","type":"Landkreis"},"federalState":{"key":"08","name":"Baden-Württemberg"}},{"name":"Modellflugplatzweg","postalCode":"79650","locality":"Schopfheim","municipality":{"key":"08336081","name":"Schopfheim, Stadt","type":"Stadt"},"district":{"key":"08336","name":"Lörrach","type":"Landkreis"},"federalState":{"key":"08","name":"Baden-Württemberg"}},{"name":"Möhrenblick","postalCode":"79650","locality":"Schopfheim","municipality":{"key":"08336081","name":"Schopfheim, Stadt","type":"Stadt"},"district":{"key":"08336","name":"Lörrach","type":"Landkreis"},"federalState":{"key":"08","name":"Baden-Württemberg"}},{"name":"Moosmattenweg","postalCode":"79650","locality":"Schopfheim","municipality":{"key":"08336081","name":"Schopfheim, Stadt","type":"Stadt"},"district":{"key":"08336","name":"Lörrach","type":"Landkreis"},"federalState":{"key":"08","name":"Baden-Württemberg"}},{"name":"Mühlenweg","postalCode":"79650","locality":"Schopfheim","municipality":{"key":"08336081","name":"Schopfheim, Stadt","type":"Stadt"},"district":{"key":"08336","name":"Lörrach","type":"Landkreis"},"federalState":{"key":"08","name":"Baden-Württemberg"}},{"name":"Müschelenweg","postalCode":"79650","locality":"Schopfheim","municipality":{"key":"08336081","name":"Schopfheim, Stadt","type":"Stadt"},"district":{"key":"08336","name":"Lörrach","type":"Landkreis"},"federalState":{"key":"08","name":"Baden-Württemberg"}},{"name":"Neuer Weg","postalCode":"79650","locality":"Schopfheim","municipality":{"key":"08336081","name":"Schopfheim, Stadt","type":"Stadt"},"district":{"key":"08336","name":"Lörrach","type":"Landkreis"},"federalState":{"key":"08","name":"Baden-Württemberg"}},{"name":"Neue Str.","postalCode":"79650","locality":"Schopfheim","municipality":{"key":"08336081","name":"Schopfheim, Stadt","type":"Stadt"},"district":{"key":"08336","name":"Lörrach","type":"Landkreis"},"federalState":{"key":"08","name":"Baden-Württemberg"}},{"name":"Neusägeweg","postalCode":"79650","locality":"Schopfheim","municipality":{"key":"08336081","name":"Schopfheim, Stadt","type":"Stadt"},"district":{"key":"08336","name":"Lörrach","type":"Landkreis"},"federalState":{"key":"08","name":"Baden-Württemberg"}},{"name":"Niefenthalerstr.","postalCode":"79650","locality":"Schopfheim","municipality":{"key":"08336081","name":"Schopfheim, Stadt","type":"Stadt"},"district":{"key":"08336","name":"Lörrach","type":"Landkreis"},"federalState":{"key":"08","name":"Baden-Württemberg"}},{"name":"Nikolaus-Singeisen-Weg","postalCode":"79650","locality":"Schopfheim","municipality":{"key":"08336081","name":"Schopfheim, Stadt","type":"Stadt"},"district":{"key":"08336","name":"Lörrach","type":"Landkreis"},"federalState":{"key":"08","name":"Baden-Württemberg"}},{"name":"Nührenweg","postalCode":"79650","locality":"Schopfheim","municipality":{"key":"08336081","name":"Schopfheim, Stadt","type":"Stadt"},"district":{"key":"08336","name":"Lörrach","type":"Landkreis"},"federalState":{"key":"08","name":"Baden-Württemberg"}},{"name":"Oberdorfstr.","postalCode":"79650","locality":"Schopfheim","municipality":{"key":"08336081","name":"Schopfheim, Stadt","type":"Stadt"},"district":{"key":"08336","name":"Lörrach","type":"Landkreis"},"federalState":{"key":"08","name":"Baden-Württemberg"}},{"name":"Obere Holzmatt","postalCode":"79650","locality":"Schopfheim","municipality":{"key":"08336081","name":"Schopfheim, Stadt","type":"Stadt"},"district":{"key":"08336","name":"Lörrach","type":"Landkreis"},"federalState":{"key":"08","name":"Baden-Württemberg"}},{"name":"Oberer Eichbühlweg","postalCode":"79650","locality":"Schopfheim","municipality":{"key":"08336081","name":"Schopfheim, Stadt","type":"Stadt"},"district":{"key":"08336","name":"Lörrach","type":"Landkreis"},"federalState":{"key":"08","name":"Baden-Württemberg"}},{"name":"Oberer Gleichenweg","postalCode":"79650","locality":"Schopfheim","municipality":{"key":"08336081","name":"Schopfheim, Stadt","type":"Stadt"},"district":{"key":"08336","name":"Lörrach","type":"Landkreis"},"federalState":{"key":"08","name":"Baden-Württemberg"}},{"name":"Oberer Scheinbergweg","postalCode":"79650","locality":"Schopfheim","municipality":{"key":"08336081","name":"Schopfheim, Stadt","type":"Stadt"},"district":{"key":"08336","name":"Lörrach","type":"Landkreis"},"federalState":{"key":"08","name":"Baden-Württemberg"}},{"name":"Obere Staltenstr.","postalCode":"79650","locality":"Schopfheim","municipality":{"key":"08336081","name":"Schopfheim, Stadt","type":"Stadt"},"district":{"key":"08336","name":"Lörrach","type":"Landkreis"},"federalState":{"key":"08","name":"Baden-Württemberg"}},{"name":"Oberfeldstr.","postalCode":"79650","locality":"Schopfheim","municipality":{"key":"08336081","name":"Schopfheim, Stadt","type":"Stadt"},"district":{"key":"08336","name":"Lörrach","type":"Landkreis"},"federalState":{"key":"08","name":"Baden-Württemberg"}},{"name":"Panoramaweg","postalCode":"79650","locality":"Schopfheim","municipality":{"key":"08336081","name":"Schopfheim, Stadt","type":"Stadt"},"district":{"key":"08336","name":"Lörrach","type":"Landkreis"},"federalState":{"key":"08","name":"Baden-Württemberg"}},{"name":"Park am Haus Columban","postalCode":"79650","locality":"Schopfheim","municipality":{"key":"08336081","name":"Schopfheim, Stadt","type":"Stadt"},"district":{"key":"08336","name":"Lörrach","type":"Landkreis"},"federalState":{"key":"08","name":"Baden-Württemberg"}},{"name":"Park des Wohnquartiers \"Am Eisweiher\"","postalCode":"79650","locality":"Schopfheim","municipality":{"key":"08336081","name":"Schopfheim, Stadt","type":"Stadt"},"district":{"key":"08336","name":"Lörrach","type":"Landkreis"},"federalState":{"key":"08","name":"Baden-Württemberg"}},{"name":"Pflughofpassage","postalCode":"79650","locality":"Schopfheim","municipality":{"key":"08336081","name":"Schopfheim, Stadt","type":"Stadt"},"district":{"key":"08336","name":"Lörrach","type":"Landkreis"},"federalState":{"key":"08","name":"Baden-Württemberg"}},{"name":"Raitbach","postalCode":"79650","locality":"Schopfheim","municipality":{"key":"08336081","name":"Schopfheim, Stadt","type":"Stadt"},"district":{"key":"08336","name":"Lörrach","type":"Landkreis"},"federalState":{"key":"08","name":"Baden-Württemberg"}},{"name":"Raitbach-Am Bahnhof","postalCode":"79650","locality":"Schopfheim","municipality":{"key":"08336081","name":"Schopfheim, Stadt","type":"Stadt"},"district":{"key":"08336","name":"Lörrach","type":"Landkreis"},"federalState":{"key":"08","name":"Baden-Württemberg"}},{"name":"Rathausstr.","postalCode":"79650","locality":"Schopfheim","municipality":{"key":"08336081","name":"Schopfheim, Stadt","type":"Stadt"},"district":{"key":"08336","name":"Lörrach","type":"Landkreis"},"federalState":{"key":"08","name":"Baden-Württemberg"}},{"name":"Rauschbachhaldenweg","postalCode":"79650","locality":"Schopfheim","municipality":{"key":"08336081","name":"Schopfheim, Stadt","type":"Stadt"},"district":{"key":"08336","name":"Lörrach","type":"Landkreis"},"federalState":{"key":"08","name":"Baden-Württemberg"}},{"name":"Rauschbachstr.","postalCode":"79650","locality":"Schopfheim","municipality":{"key":"08336081","name":"Schopfheim, Stadt","type":"Stadt"},"district":{"key":"08336","name":"Lörrach","type":"Landkreis"},"federalState":{"key":"08","name":"Baden-Württemberg"}},{"name":"Rebacker","postalCode":"79650","locality":"Schopfheim","municipality":{"key":"08336081","name":"Schopfheim, Stadt","type":"Stadt"},"district":{"key":"08336","name":"Lörrach","type":"Landkreis"},"federalState":{"key":"08","name":"Baden-Württemberg"}},{"name":"Reckenbuckweg","postalCode":"79650","locality":"Schopfheim","municipality":{"key":"08336081","name":"Schopfheim, Stadt","type":"Stadt"},"district":{"key":"08336","name":"Lörrach","type":"Landkreis"},"federalState":{"key":"08","name":"Baden-Württemberg"}},{"name":"Rheinfelder Str.","postalCode":"79650","locality":"Schopfheim","municipality":{"key":"08336081","name":"Schopfheim, Stadt","type":"Stadt"},"district":{"key":"08336","name":"Lörrach","type":"Landkreis"},"federalState":{"key":"08","name":"Baden-Württemberg"}},{"name":"Riedmattweg","postalCode":"79650","locality":"Schopfheim","municipality":{"key":"08336081","name":"Schopfheim, Stadt","type":"Stadt"},"district":{"key":"08336","name":"Lörrach","type":"Landkreis"},"federalState":{"key":"08","name":"Baden-Württemberg"}},{"name":"Rindelsteinweg","postalCode":"79650","locality":"Schopfheim","municipality":{"key":"08336081","name":"Schopfheim, Stadt","type":"Stadt"},"district":{"key":"08336","name":"Lörrach","type":"Landkreis"},"federalState":{"key":"08","name":"Baden-Württemberg"}},{"name":"Roggenackerweg","postalCode":"79650","locality":"Schopfheim","municipality":{"key":"08336081","name":"Schopfheim, Stadt","type":"Stadt"},"district":{"key":"08336","name":"Lörrach","type":"Landkreis"},"federalState":{"key":"08","name":"Baden-Württemberg"}},{"name":"Roggenbachstr.","postalCode":"79650","locality":"Schopfheim","municipality":{"key":"08336081","name":"Schopfheim, Stadt","type":"Stadt"},"district":{"key":"08336","name":"Lörrach","type":"Landkreis"},"federalState":{"key":"08","name":"Baden-Württemberg"}},{"name":"Roggenbachweg","postalCode":"79650","locality":"Schopfheim","municipality":{"key":"08336081","name":"Schopfheim, Stadt","type":"Stadt"},"district":{"key":"08336","name":"Lörrach","type":"Landkreis"},"federalState":{"key":"08","name":"Baden-Württemberg"}},{"name":"Rohrenmoosweg","postalCode":"79650","locality":"Schopfheim","municipality":{"key":"08336081","name":"Schopfheim, Stadt","type":"Stadt"},"district":{"key":"08336","name":"Lörrach","type":"Landkreis"},"federalState":{"key":"08","name":"Baden-Württemberg"}},{"name":"Rötenbachweg","postalCode":"79650","locality":"Schopfheim","municipality":{"key":"08336081","name":"Schopfheim, Stadt","type":"Stadt"},"district":{"key":"08336","name":"Lörrach","type":"Landkreis"},"federalState":{"key":"08","name":"Baden-Württemberg"}},{"name":"Röthweg","postalCode":"79650","locality":"Schopfheim","municipality":{"key":"08336081","name":"Schopfheim, Stadt","type":"Stadt"},"district":{"key":"08336","name":"Lörrach","type":"Landkreis"},"federalState":{"key":"08","name":"Baden-Württemberg"}},{"name":"Rüttebergstr.","postalCode":"79650","locality":"Schopfheim","municipality":{"key":"08336081","name":"Schopfheim, Stadt","type":"Stadt"},"district":{"key":"08336","name":"Lörrach","type":"Landkreis"},"federalState":{"key":"08","name":"Baden-Württemberg"}},{"name":"Rüttelistr.","postalCode":"79650","locality":"Schopfheim","municipality":{"key":"08336081","name":"Schopfheim, Stadt","type":"Stadt"},"district":{"key":"08336","name":"Lörrach","type":"Landkreis"},"federalState":{"key":"08","name":"Baden-Württemberg"}},{"name":"Rütteweg","postalCode":"79650","locality":"Schopfheim","municipality":{"key":"08336081","name":"Schopfheim, Stadt","type":"Stadt"},"district":{"key":"08336","name":"Lörrach","type":"Landkreis"},"federalState":{"key":"08","name":"Baden-Württemberg"}},{"name":"Säglebühlweg","postalCode":"79650","locality":"Schopfheim","municipality":{"key":"08336081","name":"Schopfheim, Stadt","type":"Stadt"},"district":{"key":"08336","name":"Lörrach","type":"Landkreis"},"federalState":{"key":"08","name":"Baden-Württemberg"}},{"name":"Sägmosweg","postalCode":"79650","locality":"Schopfheim","municipality":{"key":"08336081","name":"Schopfheim, Stadt","type":"Stadt"},"district":{"key":"08336","name":"Lörrach","type":"Landkreis"},"federalState":{"key":"08","name":"Baden-Württemberg"}},{"name":"Sandwürfeweg","postalCode":"79650","locality":"Schopfheim","municipality":{"key":"08336081","name":"Schopfheim, Stadt","type":"Stadt"},"district":{"key":"08336","name":"Lörrach","type":"Landkreis"},"federalState":{"key":"08","name":"Baden-Württemberg"}},{"name":"Saugrabenweg","postalCode":"79650","locality":"Schopfheim","municipality":{"key":"08336081","name":"Schopfheim, Stadt","type":"Stadt"},"district":{"key":"08336","name":"Lörrach","type":"Landkreis"},"federalState":{"key":"08","name":"Baden-Württemberg"}},{"name":"Schanzweg","postalCode":"79650","locality":"Schopfheim","municipality":{"key":"08336081","name":"Schopfheim, Stadt","type":"Stadt"},"district":{"key":"08336","name":"Lörrach","type":"Landkreis"},"federalState":{"key":"08","name":"Baden-Württemberg"}},{"name":"Schärers Au","postalCode":"79650","locality":"Schopfheim","municipality":{"key":"08336081","name":"Schopfheim, Stadt","type":"Stadt"},"district":{"key":"08336","name":"Lörrach","type":"Landkreis"},"federalState":{"key":"08","name":"Baden-Württemberg"}},{"name":"Schattenrainweg","postalCode":"79650","locality":"Schopfheim","municipality":{"key":"08336081","name":"Schopfheim, Stadt","type":"Stadt"},"district":{"key":"08336","name":"Lörrach","type":"Landkreis"},"federalState":{"key":"08","name":"Baden-Württemberg"}},{"name":"Scheinbergring","postalCode":"79650","locality":"Schopfheim","municipality":{"key":"08336081","name":"Schopfheim, Stadt","type":"Stadt"},"district":{"key":"08336","name":"Lörrach","type":"Landkreis"},"federalState":{"key":"08","name":"Baden-Württemberg"}},{"name":"Scherentann","postalCode":"79650","locality":"Schopfheim","municipality":{"key":"08336081","name":"Schopfheim, Stadt","type":"Stadt"},"district":{"key":"08336","name":"Lörrach","type":"Landkreis"},"federalState":{"key":"08","name":"Baden-Württemberg"}},{"name":"Scherwuhrstr.","postalCode":"79650","locality":"Schopfheim","municipality":{"key":"08336081","name":"Schopfheim, Stadt","type":"Stadt"},"district":{"key":"08336","name":"Lörrach","type":"Landkreis"},"federalState":{"key":"08","name":"Baden-Württemberg"}},{"name":"Scheuermatt","postalCode":"79650","locality":"Schopfheim","municipality":{"key":"08336081","name":"Schopfheim, Stadt","type":"Stadt"},"district":{"key":"08336","name":"Lörrach","type":"Landkreis"},"federalState":{"key":"08","name":"Baden-Württemberg"}},{"name":"Schillerstr.","postalCode":"79650","locality":"Schopfheim","municipality":{"key":"08336081","name":"Schopfheim, Stadt","type":"Stadt"},"district":{"key":"08336","name":"Lörrach","type":"Landkreis"},"federalState":{"key":"08","name":"Baden-Württemberg"}},{"name":"Schindersrütteweg","postalCode":"79650","locality":"Schopfheim","municipality":{"key":"08336081","name":"Schopfheim, Stadt","type":"Stadt"},"district":{"key":"08336","name":"Lörrach","type":"Landkreis"},"federalState":{"key":"08","name":"Baden-Württemberg"}},{"name":"Schlattholzstr.","postalCode":"79650","locality":"Schopfheim","municipality":{"key":"08336081","name":"Schopfheim, Stadt","type":"Stadt"},"district":{"key":"08336","name":"Lörrach","type":"Landkreis"},"federalState":{"key":"08","name":"Baden-Württemberg"}},{"name":"Schlechtbach","postalCode":"79650","locality":"Schopfheim","municipality":{"key":"08336081","name":"Schopfheim, Stadt","type":"Stadt"},"district":{"key":"08336","name":"Lörrach","type":"Landkreis"},"federalState":{"key":"08","name":"Baden-Württemberg"}},{"name":"Schlierbachstr.","postalCode":"79650","locality":"Schopfheim","municipality":{"key":"08336081","name":"Schopfheim, Stadt","type":"Stadt"},"district":{"key":"08336","name":"Lörrach","type":"Landkreis"},"federalState":{"key":"08","name":"Baden-Württemberg"}},{"name":"Schopfheimer Str.","postalCode":"79650","locality":"Schopfheim","municipality":{"key":"08336081","name":"Schopfheim, Stadt","type":"Stadt"},"district":{"key":"08336","name":"Lörrach","type":"Landkreis"},"federalState":{"key":"08","name":"Baden-Württemberg"}},{"name":"Schornemattstr.","postalCode":"79650","locality":"Schopfheim","municipality":{"key":"08336081","name":"Schopfheim, Stadt","type":"Stadt"},"district":{"key":"08336","name":"Lörrach","type":"Landkreis"},"federalState":{"key":"08","name":"Baden-Württemberg"}},{"name":"Schulstr.","postalCode":"79650","locality":"Schopfheim","municipality":{"key":"08336081","name":"Schopfheim, Stadt","type":"Stadt"},"district":{"key":"08336","name":"Lörrach","type":"Landkreis"},"federalState":{"key":"08","name":"Baden-Württemberg"}},{"name":"Schulweg","postalCode":"79650","locality":"Schopfheim","municipality":{"key":"08336081","name":"Schopfheim, Stadt","type":"Stadt"},"district":{"key":"08336","name":"Lörrach","type":"Landkreis"},"federalState":{"key":"08","name":"Baden-Württemberg"}},{"name":"Schüsselbächleweg","postalCode":"79650","locality":"Schopfheim","municipality":{"key":"08336081","name":"Schopfheim, Stadt","type":"Stadt"},"district":{"key":"08336","name":"Lörrach","type":"Landkreis"},"federalState":{"key":"08","name":"Baden-Württemberg"}},{"name":"Schustergasse","postalCode":"79650","locality":"Schopfheim","municipality":{"key":"08336081","name":"Schopfheim, Stadt","type":"Stadt"},"district":{"key":"08336","name":"Lörrach","type":"Landkreis"},"federalState":{"key":"08","name":"Baden-Württemberg"}},{"name":"Schützenhausweg","postalCode":"79650","locality":"Schopfheim","municipality":{"key":"08336081","name":"Schopfheim, Stadt","type":"Stadt"},"district":{"key":"08336","name":"Lörrach","type":"Landkreis"},"federalState":{"key":"08","name":"Baden-Württemberg"}},{"name":"Schwarzmattweg","postalCode":"79650","locality":"Schopfheim","municipality":{"key":"08336081","name":"Schopfheim, Stadt","type":"Stadt"},"district":{"key":"08336","name":"Lörrach","type":"Landkreis"},"federalState":{"key":"08","name":"Baden-Württemberg"}},{"name":"Schwarzwaldstr.","postalCode":"79650","locality":"Schopfheim","municipality":{"key":"08336081","name":"Schopfheim, Stadt","type":"Stadt"},"district":{"key":"08336","name":"Lörrach","type":"Landkreis"},"federalState":{"key":"08","name":"Baden-Württemberg"}},{"name":"Schweigmatt","postalCode":"79650","locality":"Schopfheim","municipality":{"key":"08336081","name":"Schopfheim, Stadt","type":"Stadt"},"district":{"key":"08336","name":"Lörrach","type":"Landkreis"},"federalState":{"key":"08","name":"Baden-Württemberg"}},{"name":"Seehölzleweg","postalCode":"79650","locality":"Schopfheim","municipality":{"key":"08336081","name":"Schopfheim, Stadt","type":"Stadt"},"district":{"key":"08336","name":"Lörrach","type":"Landkreis"},"federalState":{"key":"08","name":"Baden-Württemberg"}},{"name":"Seeweg","postalCode":"79650","locality":"Schopfheim","municipality":{"key":"08336081","name":"Schopfheim, Stadt","type":"Stadt"},"district":{"key":"08336","name":"Lörrach","type":"Landkreis"},"federalState":{"key":"08","name":"Baden-Württemberg"}},{"name":"Sengelenweg","postalCode":"79650","locality":"Schopfheim","municipality":{"key":"08336081","name":"Schopfheim, Stadt","type":"Stadt"},"district":{"key":"08336","name":"Lörrach","type":"Landkreis"},"federalState":{"key":"08","name":"Baden-Württemberg"}},{"name":"Silberbrünnle","postalCode":"79650","locality":"Schopfheim","municipality":{"key":"08336081","name":"Schopfheim, Stadt","type":"Stadt"},"district":{"key":"08336","name":"Lörrach","type":"Landkreis"},"federalState":{"key":"08","name":"Baden-Württemberg"}},{"name":"Silbergrabenweg","postalCode":"79650","locality":"Schopfheim","municipality":{"key":"08336081","name":"Schopfheim, Stadt","type":"Stadt"},"district":{"key":"08336","name":"Lörrach","type":"Landkreis"},"federalState":{"key":"08","name":"Baden-Württemberg"}},{"name":"Silberlochweg","postalCode":"79650","locality":"Schopfheim","municipality":{"key":"08336081","name":"Schopfheim, Stadt","type":"Stadt"},"district":{"key":"08336","name":"Lörrach","type":"Landkreis"},"federalState":{"key":"08","name":"Baden-Württemberg"}},{"name":"Silberrankstr.","postalCode":"79650","locality":"Schopfheim","municipality":{"key":"08336081","name":"Schopfheim, Stadt","type":"Stadt"},"district":{"key":"08336","name":"Lörrach","type":"Landkreis"},"federalState":{"key":"08","name":"Baden-Württemberg"}},{"name":"Sprankenweg","postalCode":"79650","locality":"Schopfheim","municipality":{"key":"08336081","name":"Schopfheim, Stadt","type":"Stadt"},"district":{"key":"08336","name":"Lörrach","type":"Landkreis"},"federalState":{"key":"08","name":"Baden-Württemberg"}},{"name":"Stabhalter-Flury-Str.","postalCode":"79650","locality":"Schopfheim","municipality":{"key":"08336081","name":"Schopfheim, Stadt","type":"Stadt"},"district":{"key":"08336","name":"Lörrach","type":"Landkreis"},"federalState":{"key":"08","name":"Baden-Württemberg"}},{"name":"Stadtpark","postalCode":"79650","locality":"Schopfheim","municipality":{"key":"08336081","name":"Schopfheim, Stadt","type":"Stadt"},"district":{"key":"08336","name":"Lörrach","type":"Landkreis"},"federalState":{"key":"08","name":"Baden-Württemberg"}},{"name":"Staltenstr.","postalCode":"79650","locality":"Schopfheim","municipality":{"key":"08336081","name":"Schopfheim, Stadt","type":"Stadt"},"district":{"key":"08336","name":"Lörrach","type":"Landkreis"},"federalState":{"key":"08","name":"Baden-Württemberg"}},{"name":"Starenweg","postalCode":"79650","locality":"Schopfheim","municipality":{"key":"08336081","name":"Schopfheim, Stadt","type":"Stadt"},"district":{"key":"08336","name":"Lörrach","type":"Landkreis"},"federalState":{"key":"08","name":"Baden-Württemberg"}},{"name":"Statthalterstr.","postalCode":"79650","locality":"Schopfheim","municipality":{"key":"08336081","name":"Schopfheim, Stadt","type":"Stadt"},"district":{"key":"08336","name":"Lörrach","type":"Landkreis"},"federalState":{"key":"08","name":"Baden-Württemberg"}},{"name":"Steinackerweg","postalCode":"79650","locality":"Schopfheim","municipality":{"key":"08336081","name":"Schopfheim, Stadt","type":"Stadt"},"district":{"key":"08336","name":"Lörrach","type":"Landkreis"},"federalState":{"key":"08","name":"Baden-Württemberg"}},{"name":"Steinhäußlerstr.","postalCode":"79650","locality":"Schopfheim","municipality":{"key":"08336081","name":"Schopfheim, Stadt","type":"Stadt"},"district":{"key":"08336","name":"Lörrach","type":"Landkreis"},"federalState":{"key":"08","name":"Baden-Württemberg"}},{"name":"Steinigenweg","postalCode":"79650","locality":"Schopfheim","municipality":{"key":"08336081","name":"Schopfheim, Stadt","type":"Stadt"},"district":{"key":"08336","name":"Lörrach","type":"Landkreis"},"federalState":{"key":"08","name":"Baden-Württemberg"}},{"name":"Stettiner Str.","postalCode":"79650","locality":"Schopfheim","municipality":{"key":"08336081","name":"Schopfheim, Stadt","type":"Stadt"},"district":{"key":"08336","name":"Lörrach","type":"Landkreis"},"federalState":{"key":"08","name":"Baden-Württemberg"}},{"name":"Sturmenweg","postalCode":"79650","locality":"Schopfheim","municipality":{"key":"08336081","name":"Schopfheim, Stadt","type":"Stadt"},"district":{"key":"08336","name":"Lörrach","type":"Landkreis"},"federalState":{"key":"08","name":"Baden-Württemberg"}},{"name":"Talstr.","postalCode":"79650","locality":"Schopfheim","municipality":{"key":"08336081","name":"Schopfheim, Stadt","type":"Stadt"},"district":{"key":"08336","name":"Lörrach","type":"Landkreis"},"federalState":{"key":"08","name":"Baden-Württemberg"}},{"name":"Teufzelweg","postalCode":"79650","locality":"Schopfheim","municipality":{"key":"08336081","name":"Schopfheim, Stadt","type":"Stadt"},"district":{"key":"08336","name":"Lörrach","type":"Landkreis"},"federalState":{"key":"08","name":"Baden-Württemberg"}},{"name":"Tiergarten","postalCode":"79650","locality":"Schopfheim","municipality":{"key":"08336081","name":"Schopfheim, Stadt","type":"Stadt"},"district":{"key":"08336","name":"Lörrach","type":"Landkreis"},"federalState":{"key":"08","name":"Baden-Württemberg"}},{"name":"Tilsiter Str.","postalCode":"79650","locality":"Schopfheim","municipality":{"key":"08336081","name":"Schopfheim, Stadt","type":"Stadt"},"district":{"key":"08336","name":"Lörrach","type":"Landkreis"},"federalState":{"key":"08","name":"Baden-Württemberg"}},{"name":"Torstr.","postalCode":"79650","locality":"Schopfheim","municipality":{"key":"08336081","name":"Schopfheim, Stadt","type":"Stadt"},"district":{"key":"08336","name":"Lörrach","type":"Landkreis"},"federalState":{"key":"08","name":"Baden-Württemberg"}},{"name":"TTT","postalCode":"79650","locality":"Schopfheim","municipality":{"key":"08336081","name":"Schopfheim, Stadt","type":"Stadt"},"district":{"key":"08336","name":"Lörrach","type":"Landkreis"},"federalState":{"key":"08","name":"Baden-Württemberg"}},{"name":"Turnstr.","postalCode":"79650","locality":"Schopfheim","municipality":{"key":"08336081","name":"Schopfheim, Stadt","type":"Stadt"},"district":{"key":"08336","name":"Lörrach","type":"Landkreis"},"federalState":{"key":"08","name":"Baden-Württemberg"}},{"name":"Untere Holzmatt","postalCode":"79650","locality":"Schopfheim","municipality":{"key":"08336081","name":"Schopfheim, Stadt","type":"Stadt"},"district":{"key":"08336","name":"Lörrach","type":"Landkreis"},"federalState":{"key":"08","name":"Baden-Württemberg"}},{"name":"Unterer Finstergrabenweg","postalCode":"79650","locality":"Schopfheim","municipality":{"key":"08336081","name":"Schopfheim, Stadt","type":"Stadt"},"district":{"key":"08336","name":"Lörrach","type":"Landkreis"},"federalState":{"key":"08","name":"Baden-Württemberg"}},{"name":"Unterer Gleichenweg","postalCode":"79650","locality":"Schopfheim","municipality":{"key":"08336081","name":"Schopfheim, Stadt","type":"Stadt"},"district":{"key":"08336","name":"Lörrach","type":"Landkreis"},"federalState":{"key":"08","name":"Baden-Württemberg"}},{"name":"Untere Staltenstr.","postalCode":"79650","locality":"Schopfheim","municipality":{"key":"08336081","name":"Schopfheim, Stadt","type":"Stadt"},"district":{"key":"08336","name":"Lörrach","type":"Landkreis"},"federalState":{"key":"08","name":"Baden-Württemberg"}},{"name":"Verbindungsweg","postalCode":"79650","locality":"Schopfheim","municipality":{"key":"08336081","name":"Schopfheim, Stadt","type":"Stadt"},"district":{"key":"08336","name":"Lörrach","type":"Landkreis"},"federalState":{"key":"08","name":"Baden-Württemberg"}},{"name":"Via Farina","postalCode":"79650","locality":"Schopfheim","municipality":{"key":"08336081","name":"Schopfheim, Stadt","type":"Stadt"},"district":{"key":"08336","name":"Lörrach","type":"Landkreis"},"federalState":{"key":"08","name":"Baden-Württemberg"}},{"name":"Wallstr.","postalCode":"79650","locality":"Schopfheim","municipality":{"key":"08336081","name":"Schopfheim, Stadt","type":"Stadt"},"district":{"key":"08336","name":"Lörrach","type":"Landkreis"},"federalState":{"key":"08","name":"Baden-Württemberg"}},{"name":"Walter-Brutschin-Str.","postalCode":"79650","locality":"Schopfheim","municipality":{"key":"08336081","name":"Schopfheim, Stadt","type":"Stadt"},"district":{"key":"08336","name":"Lörrach","type":"Landkreis"},"federalState":{"key":"08","name":"Baden-Württemberg"}},{"name":"Walter-Faller-Weg","postalCode":"79650","locality":"Schopfheim","municipality":{"key":"08336081","name":"Schopfheim, Stadt","type":"Stadt"},"district":{"key":"08336","name":"Lörrach","type":"Landkreis"},"federalState":{"key":"08","name":"Baden-Württemberg"}},{"name":"Wauzeliweg","postalCode":"79650","locality":"Schopfheim","municipality":{"key":"08336081","name":"Schopfheim, Stadt","type":"Stadt"},"district":{"key":"08336","name":"Lörrach","type":"Landkreis"},"federalState":{"key":"08","name":"Baden-Württemberg"}},{"name":"Webergasse","postalCode":"79650","locality":"Schopfheim","municipality":{"key":"08336081","name":"Schopfheim, Stadt","type":"Stadt"},"district":{"key":"08336","name":"Lörrach","type":"Landkreis"},"federalState":{"key":"08","name":"Baden-Württemberg"}},{"name":"Wehratalstr.","postalCode":"79650","locality":"Schopfheim","municipality":{"key":"08336081","name":"Schopfheim, Stadt","type":"Stadt"},"district":{"key":"08336","name":"Lörrach","type":"Landkreis"},"federalState":{"key":"08","name":"Baden-Württemberg"}},{"name":"Wehrer Str.","postalCode":"79650","locality":"Schopfheim","municipality":{"key":"08336081","name":"Schopfheim, Stadt","type":"Stadt"},"district":{"key":"08336","name":"Lörrach","type":"Landkreis"},"federalState":{"key":"08","name":"Baden-Württemberg"}},{"name":"Weiermattstr.","postalCode":"79650","locality":"Schopfheim","municipality":{"key":"08336081","name":"Schopfheim, Stadt","type":"Stadt"},"district":{"key":"08336","name":"Lörrach","type":"Landkreis"},"federalState":{"key":"08","name":"Baden-Württemberg"}},{"name":"Weinhalden","postalCode":"79650","locality":"Schopfheim","municipality":{"key":"08336081","name":"Schopfheim, Stadt","type":"Stadt"},"district":{"key":"08336","name":"Lörrach","type":"Landkreis"},"federalState":{"key":"08","name":"Baden-Württemberg"}},{"name":"Weissmättle","postalCode":"79650","locality":"Schopfheim","municipality":{"key":"08336081","name":"Schopfheim, Stadt","type":"Stadt"},"district":{"key":"08336","name":"Lörrach","type":"Landkreis"},"federalState":{"key":"08","name":"Baden-Württemberg"}},{"name":"Werderstr.","postalCode":"79650","locality":"Schopfheim","municipality":{"key":"08336081","name":"Schopfheim, Stadt","type":"Stadt"},"district":{"key":"08336","name":"Lörrach","type":"Landkreis"},"federalState":{"key":"08","name":"Baden-Württemberg"}},{"name":"Wiechser Str.","postalCode":"79650","locality":"Schopfheim","municipality":{"key":"08336081","name":"Schopfheim, Stadt","type":"Stadt"},"district":{"key":"08336","name":"Lörrach","type":"Landkreis"},"federalState":{"key":"08","name":"Baden-Württemberg"}},{"name":"Wiesentalweg","postalCode":"79650","locality":"Schopfheim","municipality":{"key":"08336081","name":"Schopfheim, Stadt","type":"Stadt"},"district":{"key":"08336","name":"Lörrach","type":"Landkreis"},"federalState":{"key":"08","name":"Baden-Württemberg"}},{"name":"Wiesenweg","postalCode":"79650","locality":"Schopfheim","municipality":{"key":"08336081","name":"Schopfheim, Stadt","type":"Stadt"},"district":{"key":"08336","name":"Lörrach","type":"Landkreis"},"federalState":{"key":"08","name":"Baden-Württemberg"}},{"name":"Wiesleter Str.","postalCode":"79650","locality":"Schopfheim","municipality":{"key":"08336081","name":"Schopfheim, Stadt","type":"Stadt"},"district":{"key":"08336","name":"Lörrach","type":"Landkreis"},"federalState":{"key":"08","name":"Baden-Württemberg"}},{"name":"Zeller-Ebene-Weg","postalCode":"79650","locality":"Schopfheim","municipality":{"key":"08336081","name":"Schopfheim, Stadt","type":"Stadt"},"district":{"key":"08336","name":"Lörrach","type":"Landkreis"},"federalState":{"key":"08","name":"Baden-Württemberg"}},{"name":"Zum Bühl","postalCode":"79650","locality":"Schopfheim","municipality":{"key":"08336081","name":"Schopfheim, Stadt","type":"Stadt"},"district":{"key":"08336","name":"Lörrach","type":"Landkreis"},"federalState":{"key":"08","name":"Baden-Württemberg"}},{"name":"Zum Hörnle","postalCode":"79650","locality":"Schopfheim","municipality":{"key":"08336081","name":"Schopfheim, Stadt","type":"Stadt"},"district":{"key":"08336","name":"Lörrach","type":"Landkreis"},"federalState":{"key":"08","name":"Baden-Württemberg"}},{"name":"Ötlinger Str.","postalCode":"79539","locality":"Lörrach","municipality":{"key":"08336050","name":"Lörrach, Stadt","type":"Große_Kreisstadt"},"district":{"key":"08336","name":"Lörrach","type":"Landkreis"},"federalState":{"key":"08","name":"Baden-Württemberg"}},{"name":"Über der Wiese","postalCode":"79540","locality":"Lörrach","municipality":{"key":"08336050","name":"Lörrach, Stadt","type":"Große_Kreisstadt"},"district":{"key":"08336","name":"Lörrach","type":"Landkreis"},"federalState":{"key":"08","name":"Baden-Württemberg"}},]