[{"key":"10249826","name":"A13","postalCode":"9470","locality":"Buchs SG","commune":{"key":"3271","name":"Buchs (SG)","shortName":"Buchs (SG)"},"district":{"key":"1724","name":"Wahlkreis Werdenberg"},"canton":{"key":"17","code":"SG","name":"St. Gallen"},"status":"Real"},{"key":"10032289","name":"Ackerweg","postalCode":"9470","locality":"Buchs SG","commune":{"key":"3271","name":"Buchs (SG)","shortName":"Buchs (SG)"},"district":{"key":"1724","name":"Wahlkreis Werdenberg"},"canton":{"key":"17","code":"SG","name":"St. Gallen"},"status":"Real"},{"key":"10032290","name":"Aeulistrasse","postalCode":"9470","locality":"Buchs SG","commune":{"key":"3271","name":"Buchs (SG)","shortName":"Buchs (SG)"},"district":{"key":"1724","name":"Wahlkreis Werdenberg"},"canton":{"key":"17","code":"SG","name":"St. Gallen"},"status":"Real"},{"key":"10072103","name":"Ahornweg","postalCode":"9470","locality":"Buchs SG","commune":{"key":"3271","name":"Buchs (SG)","shortName":"Buchs (SG)"},"district":{"key":"1724","name":"Wahlkreis Werdenberg"},"canton":{"key":"17","code":"SG","name":"St. Gallen"},"status":"Real"},{"key":"10032291","name":"Alberweg","postalCode":"9470","locality":"Buchs SG","commune":{"key":"3271","name":"Buchs (SG)","shortName":"Buchs (SG)"},"district":{"key":"1724","name":"Wahlkreis Werdenberg"},"canton":{"key":"17","code":"SG","name":"St. Gallen"},"status":"Real"},{"key":"10093727","name":"Altendorferstrasse","postalCode":"9470","locality":"Buchs SG","commune":{"key":"3271","name":"Buchs (SG)","shortName":"Buchs (SG)"},"district":{"key":"1724","name":"Wahlkreis Werdenberg"},"canton":{"key":"17","code":"SG","name":"St. Gallen"},"status":"Real"},{"key":"10032292","name":"Alvierstrasse","postalCode":"9470","locality":"Buchs SG","commune":{"key":"3271","name":"Buchs (SG)","shortName":"Buchs (SG)"},"district":{"key":"1724","name":"Wahlkreis Werdenberg"},"canton":{"key":"17","code":"SG","name":"St. Gallen"},"status":"Real"},{"key":"10234318","name":"Am Kanal","postalCode":"9470","locality":"Buchs SG","commune":{"key":"3271","name":"Buchs (SG)","shortName":"Buchs (SG)"},"district":{"key":"1724","name":"Wahlkreis Werdenberg"},"canton":{"key":"17","code":"SG","name":"St. Gallen"},"status":"Real"},{"key":"10072104","name":"Am Röllbach","postalCode":"9470","locality":"Buchs SG","commune":{"key":"3271","name":"Buchs (SG)","shortName":"Buchs (SG)"},"district":{"key":"1724","name":"Wahlkreis Werdenberg"},"canton":{"key":"17","code":"SG","name":"St. Gallen"},"status":"Real"},{"key":"10170447","name":"An der Saar","postalCode":"9470","locality":"Buchs SG","commune":{"key":"3271","name":"Buchs (SG)","shortName":"Buchs (SG)"},"district":{"key":"1724","name":"Wahlkreis Werdenberg"},"canton":{"key":"17","code":"SG","name":"St. Gallen"},"status":"Real"},{"key":"10234322","name":"Anschluss Räfiserfeld","postalCode":"9470","locality":"Buchs SG","commune":{"key":"3271","name":"Buchs (SG)","shortName":"Buchs (SG)"},"district":{"key":"1724","name":"Wahlkreis Werdenberg"},"canton":{"key":"17","code":"SG","name":"St. Gallen"},"status":"Real"},{"key":"10032293","name":"Arinweg","postalCode":"9470","locality":"Buchs SG","commune":{"key":"3271","name":"Buchs (SG)","shortName":"Buchs (SG)"},"district":{"key":"1724","name":"Wahlkreis Werdenberg"},"canton":{"key":"17","code":"SG","name":"St. Gallen"},"status":"Real"},{"key":"10032294","name":"Arvenweg","postalCode":"9470","locality":"Buchs SG","commune":{"key":"3271","name":"Buchs (SG)","shortName":"Buchs (SG)"},"district":{"key":"1724","name":"Wahlkreis Werdenberg"},"canton":{"key":"17","code":"SG","name":"St. Gallen"},"status":"Real"},{"key":"10108110","name":"Auweg","postalCode":"9470","locality":"Buchs SG","commune":{"key":"3271","name":"Buchs (SG)","shortName":"Buchs (SG)"},"district":{"key":"1724","name":"Wahlkreis Werdenberg"},"canton":{"key":"17","code":"SG","name":"St. Gallen"},"status":"Real"},{"key":"10183053","name":"Bachstrasse","postalCode":"9470","locality":"Buchs SG","commune":{"key":"3271","name":"Buchs (SG)","shortName":"Buchs (SG)"},"district":{"key":"1724","name":"Wahlkreis Werdenberg"},"canton":{"key":"17","code":"SG","name":"St. Gallen"},"status":"Real"},{"key":"10136265","name":"Bäckereistrasse","postalCode":"9470","locality":"Buchs SG","commune":{"key":"3271","name":"Buchs (SG)","shortName":"Buchs (SG)"},"district":{"key":"1724","name":"Wahlkreis Werdenberg"},"canton":{"key":"17","code":"SG","name":"St. Gallen"},"status":"Real"},{"key":"10147651","name":"Bäckergasse","postalCode":"9470","locality":"Buchs SG","commune":{"key":"3271","name":"Buchs (SG)","shortName":"Buchs (SG)"},"district":{"key":"1724","name":"Wahlkreis Werdenberg"},"canton":{"key":"17","code":"SG","name":"St. Gallen"},"status":"Real"},{"key":"10234326","name":"Bahnhof","postalCode":"9470","locality":"Buchs SG","commune":{"key":"3271","name":"Buchs (SG)","shortName":"Buchs (SG)"},"district":{"key":"1724","name":"Wahlkreis Werdenberg"},"canton":{"key":"17","code":"SG","name":"St. Gallen"},"status":"Real"},{"key":"10060047","name":"Bahnhofplatz","postalCode":"9470","locality":"Buchs SG","commune":{"key":"3271","name":"Buchs (SG)","shortName":"Buchs (SG)"},"district":{"key":"1724","name":"Wahlkreis Werdenberg"},"canton":{"key":"17","code":"SG","name":"St. Gallen"},"status":"Real"},{"key":"10101195","name":"Bahnhofstrasse","postalCode":"9470","locality":"Buchs SG","commune":{"key":"3271","name":"Buchs (SG)","shortName":"Buchs (SG)"},"district":{"key":"1724","name":"Wahlkreis Werdenberg"},"canton":{"key":"17","code":"SG","name":"St. Gallen"},"status":"Real"},{"key":"10029827","name":"Bidenberg","postalCode":"9470","locality":"Buchs SG","commune":{"key":"3271","name":"Buchs (SG)","shortName":"Buchs (SG)"},"district":{"key":"1724","name":"Wahlkreis Werdenberg"},"canton":{"key":"17","code":"SG","name":"St. Gallen"},"status":"Real"},{"key":"10225675","name":"Bidenberg Nord","postalCode":"9470","locality":"Buchs SG","commune":{"key":"3271","name":"Buchs (SG)","shortName":"Buchs (SG)"},"district":{"key":"1724","name":"Wahlkreis Werdenberg"},"canton":{"key":"17","code":"SG","name":"St. Gallen"},"status":"Real"},{"key":"10225679","name":"Bidenberg Süd","postalCode":"9470","locality":"Buchs SG","commune":{"key":"3271","name":"Buchs (SG)","shortName":"Buchs (SG)"},"district":{"key":"1724","name":"Wahlkreis Werdenberg"},"canton":{"key":"17","code":"SG","name":"St. Gallen"},"status":"Real"},{"key":"10046766","name":"Birkenaustrasse","postalCode":"9470","locality":"Buchs SG","commune":{"key":"3271","name":"Buchs (SG)","shortName":"Buchs (SG)"},"district":{"key":"1724","name":"Wahlkreis Werdenberg"},"canton":{"key":"17","code":"SG","name":"St. Gallen"},"status":"Real"},{"key":"10093728","name":"Birkenstrasse","postalCode":"9470","locality":"Buchs SG","commune":{"key":"3271","name":"Buchs (SG)","shortName":"Buchs (SG)"},"district":{"key":"1724","name":"Wahlkreis Werdenberg"},"canton":{"key":"17","code":"SG","name":"St. Gallen"},"status":"Real"},{"key":"10032295","name":"Blumenaustrasse","postalCode":"9470","locality":"Buchs SG","commune":{"key":"3271","name":"Buchs (SG)","shortName":"Buchs (SG)"},"district":{"key":"1724","name":"Wahlkreis Werdenberg"},"canton":{"key":"17","code":"SG","name":"St. Gallen"},"status":"Real"},{"key":"10046767","name":"Blumenweg","postalCode":"9470","locality":"Buchs SG","commune":{"key":"3271","name":"Buchs (SG)","shortName":"Buchs (SG)"},"district":{"key":"1724","name":"Wahlkreis Werdenberg"},"canton":{"key":"17","code":"SG","name":"St. Gallen"},"status":"Real"},{"key":"10032296","name":"Boden","postalCode":"9470","locality":"Buchs SG","commune":{"key":"3271","name":"Buchs (SG)","shortName":"Buchs (SG)"},"district":{"key":"1724","name":"Wahlkreis Werdenberg"},"canton":{"key":"17","code":"SG","name":"St. Gallen"},"status":"Real"},{"key":"10110066","name":"Bofelweg","postalCode":"9470","locality":"Buchs SG","commune":{"key":"3271","name":"Buchs (SG)","shortName":"Buchs (SG)"},"district":{"key":"1724","name":"Wahlkreis Werdenberg"},"canton":{"key":"17","code":"SG","name":"St. Gallen"},"status":"Real"},{"key":"10226945","name":"Bongert","postalCode":"9470","locality":"Buchs SG","commune":{"key":"3271","name":"Buchs (SG)","shortName":"Buchs (SG)"},"district":{"key":"1724","name":"Wahlkreis Werdenberg"},"canton":{"key":"17","code":"SG","name":"St. Gallen"},"status":"Real"},{"key":"10093729","name":"Brunnenhofweg","postalCode":"9470","locality":"Buchs SG","commune":{"key":"3271","name":"Buchs (SG)","shortName":"Buchs (SG)"},"district":{"key":"1724","name":"Wahlkreis Werdenberg"},"canton":{"key":"17","code":"SG","name":"St. Gallen"},"status":"Real"},{"key":"10046768","name":"Brunnenstrasse","postalCode":"9470","locality":"Buchs SG","commune":{"key":"3271","name":"Buchs (SG)","shortName":"Buchs (SG)"},"district":{"key":"1724","name":"Wahlkreis Werdenberg"},"canton":{"key":"17","code":"SG","name":"St. Gallen"},"status":"Real"},{"key":"10234330","name":"Brunnenstrasse-Zuf. Im Park","postalCode":"9470","locality":"Buchs SG","commune":{"key":"3271","name":"Buchs (SG)","shortName":"Buchs (SG)"},"district":{"key":"1724","name":"Wahlkreis Werdenberg"},"canton":{"key":"17","code":"SG","name":"St. Gallen"},"status":"Real"},{"key":"10072105","name":"Brunnenweg","postalCode":"9470","locality":"Buchs SG","commune":{"key":"3271","name":"Buchs (SG)","shortName":"Buchs (SG)"},"district":{"key":"1724","name":"Wahlkreis Werdenberg"},"canton":{"key":"17","code":"SG","name":"St. Gallen"},"status":"Real"},{"key":"10234334","name":"Buchserau","postalCode":"9470","locality":"Buchs SG","commune":{"key":"3271","name":"Buchs (SG)","shortName":"Buchs (SG)"},"district":{"key":"1724","name":"Wahlkreis Werdenberg"},"canton":{"key":"17","code":"SG","name":"St. Gallen"},"status":"Real"},{"key":"10032298","name":"Buchserberg","postalCode":"9470","locality":"Buchs SG","commune":{"key":"3271","name":"Buchs (SG)","shortName":"Buchs (SG)"},"district":{"key":"1724","name":"Wahlkreis Werdenberg"},"canton":{"key":"17","code":"SG","name":"St. Gallen"},"status":"Real"},{"key":"10032299","name":"Buchserbergstrasse","postalCode":"9470","locality":"Buchs SG","commune":{"key":"3271","name":"Buchs (SG)","shortName":"Buchs (SG)"},"district":{"key":"1724","name":"Wahlkreis Werdenberg"},"canton":{"key":"17","code":"SG","name":"St. Gallen"},"status":"Real"},{"key":"10191979","name":"Büel","postalCode":"9470","locality":"Buchs SG","commune":{"key":"3271","name":"Buchs (SG)","shortName":"Buchs (SG)"},"district":{"key":"1724","name":"Wahlkreis Werdenberg"},"canton":{"key":"17","code":"SG","name":"St. Gallen"},"status":"Real"},{"key":"10183054","name":"Bühlstrasse","postalCode":"9470","locality":"Buchs SG","commune":{"key":"3271","name":"Buchs (SG)","shortName":"Buchs (SG)"},"district":{"key":"1724","name":"Wahlkreis Werdenberg"},"canton":{"key":"17","code":"SG","name":"St. Gallen"},"status":"Real"},{"key":"10234342","name":"Bunkerweg","postalCode":"9470","locality":"Buchs SG","commune":{"key":"3271","name":"Buchs (SG)","shortName":"Buchs (SG)"},"district":{"key":"1724","name":"Wahlkreis Werdenberg"},"canton":{"key":"17","code":"SG","name":"St. Gallen"},"status":"Real"},{"key":"10093730","name":"Burgerauerstrasse","postalCode":"9470","locality":"Buchs SG","commune":{"key":"3271","name":"Buchs (SG)","shortName":"Buchs (SG)"},"district":{"key":"1724","name":"Wahlkreis Werdenberg"},"canton":{"key":"17","code":"SG","name":"St. Gallen"},"status":"Real"},{"key":"10234346","name":"Burgeraustr.-Meisenweg","postalCode":"9470","locality":"Buchs SG","commune":{"key":"3271","name":"Buchs (SG)","shortName":"Buchs (SG)"},"district":{"key":"1724","name":"Wahlkreis Werdenberg"},"canton":{"key":"17","code":"SG","name":"St. Gallen"},"status":"Real"},{"key":"10046769","name":"Burgerweg","postalCode":"9470","locality":"Buchs SG","commune":{"key":"3271","name":"Buchs (SG)","shortName":"Buchs (SG)"},"district":{"key":"1724","name":"Wahlkreis Werdenberg"},"canton":{"key":"17","code":"SG","name":"St. Gallen"},"status":"Real"},{"key":"10046770","name":"Carl Hilty Strasse","postalCode":"9470","locality":"Buchs SG","commune":{"key":"3271","name":"Buchs (SG)","shortName":"Buchs (SG)"},"district":{"key":"1724","name":"Wahlkreis Werdenberg"},"canton":{"key":"17","code":"SG","name":"St. Gallen"},"status":"Real"},{"key":"10032301","name":"Chlini Grof","postalCode":"9470","locality":"Buchs SG","commune":{"key":"3271","name":"Buchs (SG)","shortName":"Buchs (SG)"},"district":{"key":"1724","name":"Wahlkreis Werdenberg"},"canton":{"key":"17","code":"SG","name":"St. Gallen"},"status":"Real"},{"key":"10161006","name":"Chriesiweg","postalCode":"9470","locality":"Buchs SG","commune":{"key":"3271","name":"Buchs (SG)","shortName":"Buchs (SG)"},"district":{"key":"1724","name":"Wahlkreis Werdenberg"},"canton":{"key":"17","code":"SG","name":"St. Gallen"},"status":"Real"},{"key":"10093170","name":"Churerstrasse","postalCode":"9470","locality":"Buchs SG","commune":{"key":"3271","name":"Buchs (SG)","shortName":"Buchs (SG)"},"district":{"key":"1724","name":"Wahlkreis Werdenberg"},"canton":{"key":"17","code":"SG","name":"St. Gallen"},"status":"Real"},{"key":"10072106","name":"Churerstrasse","postalCode":"9470","locality":"Buchs SG","commune":{"key":"3271","name":"Buchs (SG)","shortName":"Buchs (SG)"},"district":{"key":"1724","name":"Wahlkreis Werdenberg"},"canton":{"key":"17","code":"SG","name":"St. Gallen"},"status":"Real"},{"key":"10234354","name":"Dämmliweg","postalCode":"9470","locality":"Buchs SG","commune":{"key":"3271","name":"Buchs (SG)","shortName":"Buchs (SG)"},"district":{"key":"1724","name":"Wahlkreis Werdenberg"},"canton":{"key":"17","code":"SG","name":"St. Gallen"},"status":"Real"},{"key":"10032302","name":"Dammweg","postalCode":"9470","locality":"Buchs SG","commune":{"key":"3271","name":"Buchs (SG)","shortName":"Buchs (SG)"},"district":{"key":"1724","name":"Wahlkreis Werdenberg"},"canton":{"key":"17","code":"SG","name":"St. Gallen"},"status":"Real"},{"key":"10093731","name":"Distelweg","postalCode":"9470","locality":"Buchs SG","commune":{"key":"3271","name":"Buchs (SG)","shortName":"Buchs (SG)"},"district":{"key":"1724","name":"Wahlkreis Werdenberg"},"canton":{"key":"17","code":"SG","name":"St. Gallen"},"status":"Real"},{"key":"10029842","name":"Dörnen","postalCode":"9470","locality":"Buchs SG","commune":{"key":"3271","name":"Buchs (SG)","shortName":"Buchs (SG)"},"district":{"key":"1724","name":"Wahlkreis Werdenberg"},"canton":{"key":"17","code":"SG","name":"St. Gallen"},"status":"Real"},{"key":"10225756","name":"Dörnenweg","postalCode":"9470","locality":"Buchs SG","commune":{"key":"3271","name":"Buchs (SG)","shortName":"Buchs (SG)"},"district":{"key":"1724","name":"Wahlkreis Werdenberg"},"canton":{"key":"17","code":"SG","name":"St. Gallen"},"status":"Real"},{"key":"10142580","name":"Dossenstrasse","postalCode":"9470","locality":"Buchs SG","commune":{"key":"3271","name":"Buchs (SG)","shortName":"Buchs (SG)"},"district":{"key":"1724","name":"Wahlkreis Werdenberg"},"canton":{"key":"17","code":"SG","name":"St. Gallen"},"status":"Real"},{"key":"10250765","name":"Dossenweg","postalCode":"9470","locality":"Buchs SG","commune":{"key":"3271","name":"Buchs (SG)","shortName":"Buchs (SG)"},"district":{"key":"1724","name":"Wahlkreis Werdenberg"},"canton":{"key":"17","code":"SG","name":"St. Gallen"},"status":"Real"},{"key":"10096371","name":"Eggweg","postalCode":"9470","locality":"Buchs SG","commune":{"key":"3271","name":"Buchs (SG)","shortName":"Buchs (SG)"},"district":{"key":"1724","name":"Wahlkreis Werdenberg"},"canton":{"key":"17","code":"SG","name":"St. Gallen"},"status":"Real"},{"key":"10032595","name":"Eichenaustrasse","postalCode":"9470","locality":"Buchs SG","commune":{"key":"3271","name":"Buchs (SG)","shortName":"Buchs (SG)"},"district":{"key":"1724","name":"Wahlkreis Werdenberg"},"canton":{"key":"17","code":"SG","name":"St. Gallen"},"status":"Real"},{"key":"10228694","name":"Eichenauweg","postalCode":"9470","locality":"Buchs SG","commune":{"key":"3271","name":"Buchs (SG)","shortName":"Buchs (SG)"},"district":{"key":"1724","name":"Wahlkreis Werdenberg"},"canton":{"key":"17","code":"SG","name":"St. Gallen"},"status":"Real"},{"key":"10046771","name":"Eisenbahnweg","postalCode":"9470","locality":"Buchs SG","commune":{"key":"3271","name":"Buchs (SG)","shortName":"Buchs (SG)"},"district":{"key":"1724","name":"Wahlkreis Werdenberg"},"canton":{"key":"17","code":"SG","name":"St. Gallen"},"status":"Real"},{"key":"10144303","name":"Enzianweg","postalCode":"9470","locality":"Buchs SG","commune":{"key":"3271","name":"Buchs (SG)","shortName":"Buchs (SG)"},"district":{"key":"1724","name":"Wahlkreis Werdenberg"},"canton":{"key":"17","code":"SG","name":"St. Gallen"},"status":"Real"},{"key":"10032596","name":"Erbweg","postalCode":"9470","locality":"Buchs SG","commune":{"key":"3271","name":"Buchs (SG)","shortName":"Buchs (SG)"},"district":{"key":"1724","name":"Wahlkreis Werdenberg"},"canton":{"key":"17","code":"SG","name":"St. Gallen"},"status":"Real"},{"key":"10093732","name":"Erikastrasse","postalCode":"9470","locality":"Buchs SG","commune":{"key":"3271","name":"Buchs (SG)","shortName":"Buchs (SG)"},"district":{"key":"1724","name":"Wahlkreis Werdenberg"},"canton":{"key":"17","code":"SG","name":"St. Gallen"},"status":"Real"},{"key":"10072107","name":"Erlengrund","postalCode":"9470","locality":"Buchs SG","commune":{"key":"3271","name":"Buchs (SG)","shortName":"Buchs (SG)"},"district":{"key":"1724","name":"Wahlkreis Werdenberg"},"canton":{"key":"17","code":"SG","name":"St. Gallen"},"status":"Real"},{"key":"10046772","name":"Erlenweg","postalCode":"9470","locality":"Buchs SG","commune":{"key":"3271","name":"Buchs (SG)","shortName":"Buchs (SG)"},"district":{"key":"1724","name":"Wahlkreis Werdenberg"},"canton":{"key":"17","code":"SG","name":"St. Gallen"},"status":"Real"},{"key":"10032597","name":"Fabrikstrasse","postalCode":"9470","locality":"Buchs SG","commune":{"key":"3271","name":"Buchs (SG)","shortName":"Buchs (SG)"},"district":{"key":"1724","name":"Wahlkreis Werdenberg"},"canton":{"key":"17","code":"SG","name":"St. Gallen"},"status":"Real"},{"key":"10032598","name":"Falknisstrasse","postalCode":"9470","locality":"Buchs SG","commune":{"key":"3271","name":"Buchs (SG)","shortName":"Buchs (SG)"},"district":{"key":"1724","name":"Wahlkreis Werdenberg"},"canton":{"key":"17","code":"SG","name":"St. Gallen"},"status":"Real"},{"key":"10046773","name":"Fallengässli","postalCode":"9470","locality":"Buchs SG","commune":{"key":"3271","name":"Buchs (SG)","shortName":"Buchs (SG)"},"district":{"key":"1724","name":"Wahlkreis Werdenberg"},"canton":{"key":"17","code":"SG","name":"St. Gallen"},"status":"Real"},{"key":"10234358","name":"Fallengässli-Mooshalde","postalCode":"9470","locality":"Buchs SG","commune":{"key":"3271","name":"Buchs (SG)","shortName":"Buchs (SG)"},"district":{"key":"1724","name":"Wahlkreis Werdenberg"},"canton":{"key":"17","code":"SG","name":"St. Gallen"},"status":"Real"},{"key":"10032601","name":"Färberweg","postalCode":"9470","locality":"Buchs SG","commune":{"key":"3271","name":"Buchs (SG)","shortName":"Buchs (SG)"},"district":{"key":"1724","name":"Wahlkreis Werdenberg"},"canton":{"key":"17","code":"SG","name":"St. Gallen"},"status":"Real"},{"key":"10057156","name":"Fegeren","postalCode":"9470","locality":"Buchs SG","commune":{"key":"3271","name":"Buchs (SG)","shortName":"Buchs (SG)"},"district":{"key":"1724","name":"Wahlkreis Werdenberg"},"canton":{"key":"17","code":"SG","name":"St. Gallen"},"status":"Real"},{"key":"10130448","name":"Felbenweg","postalCode":"9470","locality":"Buchs SG","commune":{"key":"3271","name":"Buchs (SG)","shortName":"Buchs (SG)"},"district":{"key":"1724","name":"Wahlkreis Werdenberg"},"canton":{"key":"17","code":"SG","name":"St. Gallen"},"status":"Real"},{"key":"10110067","name":"Feldeggstrasse","postalCode":"9470","locality":"Buchs SG","commune":{"key":"3271","name":"Buchs (SG)","shortName":"Buchs (SG)"},"district":{"key":"1724","name":"Wahlkreis Werdenberg"},"canton":{"key":"17","code":"SG","name":"St. Gallen"},"status":"Real"},{"key":"10101196","name":"Feldstrasse","postalCode":"9470","locality":"Buchs SG","commune":{"key":"3271","name":"Buchs (SG)","shortName":"Buchs (SG)"},"district":{"key":"1724","name":"Wahlkreis Werdenberg"},"canton":{"key":"17","code":"SG","name":"St. Gallen"},"status":"Real"},{"key":"10093733","name":"Fenchrütteli","postalCode":"9470","locality":"Buchs SG","commune":{"key":"3271","name":"Buchs (SG)","shortName":"Buchs (SG)"},"district":{"key":"1724","name":"Wahlkreis Werdenberg"},"canton":{"key":"17","code":"SG","name":"St. Gallen"},"status":"Real"},{"key":"10096372","name":"Fichtenweg","postalCode":"9470","locality":"Buchs SG","commune":{"key":"3271","name":"Buchs (SG)","shortName":"Buchs (SG)"},"district":{"key":"1724","name":"Wahlkreis Werdenberg"},"canton":{"key":"17","code":"SG","name":"St. Gallen"},"status":"Real"},{"key":"10234362","name":"Finegg","postalCode":"9470","locality":"Buchs SG","commune":{"key":"3271","name":"Buchs (SG)","shortName":"Buchs (SG)"},"district":{"key":"1724","name":"Wahlkreis Werdenberg"},"canton":{"key":"17","code":"SG","name":"St. Gallen"},"status":"Real"},{"key":"10234366","name":"Flaggalawegli","postalCode":"9470","locality":"Buchs SG","commune":{"key":"3271","name":"Buchs (SG)","shortName":"Buchs (SG)"},"district":{"key":"1724","name":"Wahlkreis Werdenberg"},"canton":{"key":"17","code":"SG","name":"St. Gallen"},"status":"Real"},{"key":"10234369","name":"Flat","postalCode":"9470","locality":"Buchs SG","commune":{"key":"3271","name":"Buchs (SG)","shortName":"Buchs (SG)"},"district":{"key":"1724","name":"Wahlkreis Werdenberg"},"canton":{"key":"17","code":"SG","name":"St. Gallen"},"status":"Real"},{"key":"10029828","name":"Flat","postalCode":"9470","locality":"Buchs SG","commune":{"key":"3271","name":"Buchs (SG)","shortName":"Buchs (SG)"},"district":{"key":"1724","name":"Wahlkreis Werdenberg"},"canton":{"key":"17","code":"SG","name":"St. Gallen"},"status":"Real"},{"key":"10232454","name":"Flatgass","postalCode":"9470","locality":"Buchs SG","commune":{"key":"3271","name":"Buchs (SG)","shortName":"Buchs (SG)"},"district":{"key":"1724","name":"Wahlkreis Werdenberg"},"canton":{"key":"17","code":"SG","name":"St. Gallen"},"status":"Real"},{"key":"10234373","name":"Flatgass","postalCode":"9470","locality":"Buchs SG","commune":{"key":"3271","name":"Buchs (SG)","shortName":"Buchs (SG)"},"district":{"key":"1724","name":"Wahlkreis Werdenberg"},"canton":{"key":"17","code":"SG","name":"St. Gallen"},"status":"Real"},{"key":"10183055","name":"Fliederweg","postalCode":"9470","locality":"Buchs SG","commune":{"key":"3271","name":"Buchs (SG)","shortName":"Buchs (SG)"},"district":{"key":"1724","name":"Wahlkreis Werdenberg"},"canton":{"key":"17","code":"SG","name":"St. Gallen"},"status":"Real"},{"key":"10032600","name":"Florastrasse","postalCode":"9470","locality":"Buchs SG","commune":{"key":"3271","name":"Buchs (SG)","shortName":"Buchs (SG)"},"district":{"key":"1724","name":"Wahlkreis Werdenberg"},"canton":{"key":"17","code":"SG","name":"St. Gallen"},"status":"Real"},{"key":"10072108","name":"Flösweg","postalCode":"9470","locality":"Buchs SG","commune":{"key":"3271","name":"Buchs (SG)","shortName":"Buchs (SG)"},"district":{"key":"1724","name":"Wahlkreis Werdenberg"},"canton":{"key":"17","code":"SG","name":"St. Gallen"},"status":"Real"},{"key":"10029829","name":"Flurweg","postalCode":"9470","locality":"Buchs SG","commune":{"key":"3271","name":"Buchs (SG)","shortName":"Buchs (SG)"},"district":{"key":"1724","name":"Wahlkreis Werdenberg"},"canton":{"key":"17","code":"SG","name":"St. Gallen"},"status":"Real"},{"key":"10186954","name":"Flurweg","postalCode":"9470","locality":"Buchs SG","commune":{"key":"3271","name":"Buchs (SG)","shortName":"Buchs (SG)"},"district":{"key":"1724","name":"Wahlkreis Werdenberg"},"canton":{"key":"17","code":"SG","name":"St. Gallen"},"status":"Real"},{"key":"10093735","name":"Föhrenweg","postalCode":"9470","locality":"Buchs SG","commune":{"key":"3271","name":"Buchs (SG)","shortName":"Buchs (SG)"},"district":{"key":"1724","name":"Wahlkreis Werdenberg"},"canton":{"key":"17","code":"SG","name":"St. Gallen"},"status":"Real"},{"key":"10093734","name":"Forer","postalCode":"9470","locality":"Buchs SG","commune":{"key":"3271","name":"Buchs (SG)","shortName":"Buchs (SG)"},"district":{"key":"1724","name":"Wahlkreis Werdenberg"},"canton":{"key":"17","code":"SG","name":"St. Gallen"},"status":"Real"},{"key":"10062755","name":"Fösera","postalCode":"9470","locality":"Buchs SG","commune":{"key":"3271","name":"Buchs (SG)","shortName":"Buchs (SG)"},"district":{"key":"1724","name":"Wahlkreis Werdenberg"},"canton":{"key":"17","code":"SG","name":"St. Gallen"},"status":"Real"},{"key":"10191980","name":"Frohlweg","postalCode":"9470","locality":"Buchs SG","commune":{"key":"3271","name":"Buchs (SG)","shortName":"Buchs (SG)"},"district":{"key":"1724","name":"Wahlkreis Werdenberg"},"canton":{"key":"17","code":"SG","name":"St. Gallen"},"status":"Real"},{"key":"10190896","name":"Fuchsbühelstrasse","postalCode":"9470","locality":"Buchs SG","commune":{"key":"3271","name":"Buchs (SG)","shortName":"Buchs (SG)"},"district":{"key":"1724","name":"Wahlkreis Werdenberg"},"canton":{"key":"17","code":"SG","name":"St. Gallen"},"status":"Real"},{"key":"10232478","name":"Galggen","postalCode":"9470","locality":"Buchs SG","commune":{"key":"3271","name":"Buchs (SG)","shortName":"Buchs (SG)"},"district":{"key":"1724","name":"Wahlkreis Werdenberg"},"canton":{"key":"17","code":"SG","name":"St. Gallen"},"status":"Real"},{"key":"10109428","name":"Gantner","postalCode":"9470","locality":"Buchs SG","commune":{"key":"3271","name":"Buchs (SG)","shortName":"Buchs (SG)"},"district":{"key":"1724","name":"Wahlkreis Werdenberg"},"canton":{"key":"17","code":"SG","name":"St. Gallen"},"status":"Real"},{"key":"10032602","name":"Gartenweg","postalCode":"9470","locality":"Buchs SG","commune":{"key":"3271","name":"Buchs (SG)","shortName":"Buchs (SG)"},"district":{"key":"1724","name":"Wahlkreis Werdenberg"},"canton":{"key":"17","code":"SG","name":"St. Gallen"},"status":"Real"},{"key":"10046775","name":"Gärtlistrasse","postalCode":"9470","locality":"Buchs SG","commune":{"key":"3271","name":"Buchs (SG)","shortName":"Buchs (SG)"},"district":{"key":"1724","name":"Wahlkreis Werdenberg"},"canton":{"key":"17","code":"SG","name":"St. Gallen"},"status":"Real"},{"key":"10234377","name":"Gässli","postalCode":"9470","locality":"Buchs SG","commune":{"key":"3271","name":"Buchs (SG)","shortName":"Buchs (SG)"},"district":{"key":"1724","name":"Wahlkreis Werdenberg"},"canton":{"key":"17","code":"SG","name":"St. Gallen"},"status":"Real"},{"key":"10046774","name":"Gewerbestrasse","postalCode":"9470","locality":"Buchs SG","commune":{"key":"3271","name":"Buchs (SG)","shortName":"Buchs (SG)"},"district":{"key":"1724","name":"Wahlkreis Werdenberg"},"canton":{"key":"17","code":"SG","name":"St. Gallen"},"status":"Real"},{"key":"10128956","name":"Giessenweg","postalCode":"9470","locality":"Buchs SG","commune":{"key":"3271","name":"Buchs (SG)","shortName":"Buchs (SG)"},"district":{"key":"1724","name":"Wahlkreis Werdenberg"},"canton":{"key":"17","code":"SG","name":"St. Gallen"},"status":"Real"},{"key":"10234381","name":"Giessenweg Ost","postalCode":"9470","locality":"Buchs SG","commune":{"key":"3271","name":"Buchs (SG)","shortName":"Buchs (SG)"},"district":{"key":"1724","name":"Wahlkreis Werdenberg"},"canton":{"key":"17","code":"SG","name":"St. Gallen"},"status":"Real"},{"key":"10032603","name":"Glannastrasse","postalCode":"9470","locality":"Buchs SG","commune":{"key":"3271","name":"Buchs (SG)","shortName":"Buchs (SG)"},"district":{"key":"1724","name":"Wahlkreis Werdenberg"},"canton":{"key":"17","code":"SG","name":"St. Gallen"},"status":"Real"},{"key":"10121051","name":"Grofbühelstrasse","postalCode":"9470","locality":"Buchs SG","commune":{"key":"3271","name":"Buchs (SG)","shortName":"Buchs (SG)"},"district":{"key":"1724","name":"Wahlkreis Werdenberg"},"canton":{"key":"17","code":"SG","name":"St. Gallen"},"status":"Real"},{"key":"10072109","name":"Groffeldstrasse","postalCode":"9470","locality":"Buchs SG","commune":{"key":"3271","name":"Buchs (SG)","shortName":"Buchs (SG)"},"district":{"key":"1724","name":"Wahlkreis Werdenberg"},"canton":{"key":"17","code":"SG","name":"St. Gallen"},"status":"Real"},{"key":"10117410","name":"Grofstrasse","postalCode":"9470","locality":"Buchs SG","commune":{"key":"3271","name":"Buchs (SG)","shortName":"Buchs (SG)"},"district":{"key":"1724","name":"Wahlkreis Werdenberg"},"canton":{"key":"17","code":"SG","name":"St. Gallen"},"status":"Real"},{"key":"10155228","name":"Grosse Grof","postalCode":"9470","locality":"Buchs SG","commune":{"key":"3271","name":"Buchs (SG)","shortName":"Buchs (SG)"},"district":{"key":"1724","name":"Wahlkreis Werdenberg"},"canton":{"key":"17","code":"SG","name":"St. Gallen"},"status":"Real"},{"key":"10183056","name":"Grünaustrasse","postalCode":"9470","locality":"Buchs SG","commune":{"key":"3271","name":"Buchs (SG)","shortName":"Buchs (SG)"},"district":{"key":"1724","name":"Wahlkreis Werdenberg"},"canton":{"key":"17","code":"SG","name":"St. Gallen"},"status":"Real"},{"key":"10234385","name":"Guggi","postalCode":"9470","locality":"Buchs SG","commune":{"key":"3271","name":"Buchs (SG)","shortName":"Buchs (SG)"},"district":{"key":"1724","name":"Wahlkreis Werdenberg"},"canton":{"key":"17","code":"SG","name":"St. Gallen"},"status":"Real"},{"key":"10234389","name":"Guscha","postalCode":"9470","locality":"Buchs SG","commune":{"key":"3271","name":"Buchs (SG)","shortName":"Buchs (SG)"},"district":{"key":"1724","name":"Wahlkreis Werdenberg"},"canton":{"key":"17","code":"SG","name":"St. Gallen"},"status":"Real"},{"key":"10162330","name":"Güterstrasse","postalCode":"9470","locality":"Buchs SG","commune":{"key":"3271","name":"Buchs (SG)","shortName":"Buchs (SG)"},"district":{"key":"1724","name":"Wahlkreis Werdenberg"},"canton":{"key":"17","code":"SG","name":"St. Gallen"},"status":"Real"},{"key":"10234393","name":"Haagerstrasse","postalCode":"9470","locality":"Buchs SG","commune":{"key":"3271","name":"Buchs (SG)","shortName":"Buchs (SG)"},"district":{"key":"1724","name":"Wahlkreis Werdenberg"},"canton":{"key":"17","code":"SG","name":"St. Gallen"},"status":"Real"},{"key":"10032605","name":"Haldengasse","postalCode":"9470","locality":"Buchs SG","commune":{"key":"3271","name":"Buchs (SG)","shortName":"Buchs (SG)"},"district":{"key":"1724","name":"Wahlkreis Werdenberg"},"canton":{"key":"17","code":"SG","name":"St. Gallen"},"status":"Real"},{"key":"10180338","name":"Haldenweg","postalCode":"9470","locality":"Buchs SG","commune":{"key":"3271","name":"Buchs (SG)","shortName":"Buchs (SG)"},"district":{"key":"1724","name":"Wahlkreis Werdenberg"},"canton":{"key":"17","code":"SG","name":"St. Gallen"},"status":"Real"},{"key":"10093736","name":"Hanflandstrasse","postalCode":"9470","locality":"Buchs SG","commune":{"key":"3271","name":"Buchs (SG)","shortName":"Buchs (SG)"},"district":{"key":"1724","name":"Wahlkreis Werdenberg"},"canton":{"key":"17","code":"SG","name":"St. Gallen"},"status":"Real"},{"key":"10184674","name":"Heimstrasse","postalCode":"9470","locality":"Buchs SG","commune":{"key":"3271","name":"Buchs (SG)","shortName":"Buchs (SG)"},"district":{"key":"1724","name":"Wahlkreis Werdenberg"},"canton":{"key":"17","code":"SG","name":"St. Gallen"},"status":"Real"},{"key":"10234397","name":"Heinrich Rohrer","postalCode":"9470","locality":"Buchs SG","commune":{"key":"3271","name":"Buchs (SG)","shortName":"Buchs (SG)"},"district":{"key":"1724","name":"Wahlkreis Werdenberg"},"canton":{"key":"17","code":"SG","name":"St. Gallen"},"status":"Real"},{"key":"10046776","name":"Heldaustrasse","postalCode":"9470","locality":"Buchs SG","commune":{"key":"3271","name":"Buchs (SG)","shortName":"Buchs (SG)"},"district":{"key":"1724","name":"Wahlkreis Werdenberg"},"canton":{"key":"17","code":"SG","name":"St. Gallen"},"status":"Real"},{"key":"10234401","name":"Heldaustr-Flösweg","postalCode":"9470","locality":"Buchs SG","commune":{"key":"3271","name":"Buchs (SG)","shortName":"Buchs (SG)"},"district":{"key":"1724","name":"Wahlkreis Werdenberg"},"canton":{"key":"17","code":"SG","name":"St. Gallen"},"status":"Real"},{"key":"10032606","name":"Hengertweg","postalCode":"9470","locality":"Buchs SG","commune":{"key":"3271","name":"Buchs (SG)","shortName":"Buchs (SG)"},"district":{"key":"1724","name":"Wahlkreis Werdenberg"},"canton":{"key":"17","code":"SG","name":"St. Gallen"},"status":"Real"},{"key":"10234405","name":"Hinterberg","postalCode":"9470","locality":"Buchs SG","commune":{"key":"3271","name":"Buchs (SG)","shortName":"Buchs (SG)"},"district":{"key":"1724","name":"Wahlkreis Werdenberg"},"canton":{"key":"17","code":"SG","name":"St. Gallen"},"status":"Real"},{"key":"10032607","name":"Hobelweg","postalCode":"9470","locality":"Buchs SG","commune":{"key":"3271","name":"Buchs (SG)","shortName":"Buchs (SG)"},"district":{"key":"1724","name":"Wahlkreis Werdenberg"},"canton":{"key":"17","code":"SG","name":"St. Gallen"},"status":"Real"},{"key":"10125561","name":"Holderweg","postalCode":"9470","locality":"Buchs SG","commune":{"key":"3271","name":"Buchs (SG)","shortName":"Buchs (SG)"},"district":{"key":"1724","name":"Wahlkreis Werdenberg"},"canton":{"key":"17","code":"SG","name":"St. Gallen"},"status":"Real"},{"key":"10029830","name":"Hostetgass","postalCode":"9470","locality":"Buchs SG","commune":{"key":"3271","name":"Buchs (SG)","shortName":"Buchs (SG)"},"district":{"key":"1724","name":"Wahlkreis Werdenberg"},"canton":{"key":"17","code":"SG","name":"St. Gallen"},"status":"Real"},{"key":"10032608","name":"Ilgenweg","postalCode":"9470","locality":"Buchs SG","commune":{"key":"3271","name":"Buchs (SG)","shortName":"Buchs (SG)"},"district":{"key":"1724","name":"Wahlkreis Werdenberg"},"canton":{"key":"17","code":"SG","name":"St. Gallen"},"status":"Real"},{"key":"10191801","name":"Im Gätterli","postalCode":"9470","locality":"Buchs SG","commune":{"key":"3271","name":"Buchs (SG)","shortName":"Buchs (SG)"},"district":{"key":"1724","name":"Wahlkreis Werdenberg"},"canton":{"key":"17","code":"SG","name":"St. Gallen"},"status":"Real"},{"key":"10101197","name":"Im Giessen","postalCode":"9470","locality":"Buchs SG","commune":{"key":"3271","name":"Buchs (SG)","shortName":"Buchs (SG)"},"district":{"key":"1724","name":"Wahlkreis Werdenberg"},"canton":{"key":"17","code":"SG","name":"St. Gallen"},"status":"Real"},{"key":"10234409","name":"Im Ochsensand","postalCode":"9470","locality":"Buchs SG","commune":{"key":"3271","name":"Buchs (SG)","shortName":"Buchs (SG)"},"district":{"key":"1724","name":"Wahlkreis Werdenberg"},"canton":{"key":"17","code":"SG","name":"St. Gallen"},"status":"Real"},{"key":"10032609","name":"Im Steinen","postalCode":"9470","locality":"Buchs SG","commune":{"key":"3271","name":"Buchs (SG)","shortName":"Buchs (SG)"},"district":{"key":"1724","name":"Wahlkreis Werdenberg"},"canton":{"key":"17","code":"SG","name":"St. Gallen"},"status":"Real"},{"key":"10072110","name":"Industriestrasse","postalCode":"9470","locality":"Buchs SG","commune":{"key":"3271","name":"Buchs (SG)","shortName":"Buchs (SG)"},"district":{"key":"1724","name":"Wahlkreis Werdenberg"},"canton":{"key":"17","code":"SG","name":"St. Gallen"},"status":"Real"},{"key":"10032610","name":"Kanalweg","postalCode":"9470","locality":"Buchs SG","commune":{"key":"3271","name":"Buchs (SG)","shortName":"Buchs (SG)"},"district":{"key":"1724","name":"Wahlkreis Werdenberg"},"canton":{"key":"17","code":"SG","name":"St. Gallen"},"status":"Real"},{"key":"10093737","name":"Kappelistrasse","postalCode":"9470","locality":"Buchs SG","commune":{"key":"3271","name":"Buchs (SG)","shortName":"Buchs (SG)"},"district":{"key":"1724","name":"Wahlkreis Werdenberg"},"canton":{"key":"17","code":"SG","name":"St. Gallen"},"status":"Real"},{"key":"10168066","name":"Kerbelstrasse","postalCode":"9470","locality":"Buchs SG","commune":{"key":"3271","name":"Buchs (SG)","shortName":"Buchs (SG)"},"district":{"key":"1724","name":"Wahlkreis Werdenberg"},"canton":{"key":"17","code":"SG","name":"St. Gallen"},"status":"Real"},{"key":"10164973","name":"Kerbelweg","postalCode":"9470","locality":"Buchs SG","commune":{"key":"3271","name":"Buchs (SG)","shortName":"Buchs (SG)"},"district":{"key":"1724","name":"Wahlkreis Werdenberg"},"canton":{"key":"17","code":"SG","name":"St. Gallen"},"status":"Real"},{"key":"10032611","name":"Kirchgasse","postalCode":"9470","locality":"Buchs SG","commune":{"key":"3271","name":"Buchs (SG)","shortName":"Buchs (SG)"},"district":{"key":"1724","name":"Wahlkreis Werdenberg"},"canton":{"key":"17","code":"SG","name":"St. Gallen"},"status":"Real"},{"key":"10032612","name":"Kleestrasse","postalCode":"9470","locality":"Buchs SG","commune":{"key":"3271","name":"Buchs (SG)","shortName":"Buchs (SG)"},"district":{"key":"1724","name":"Wahlkreis Werdenberg"},"canton":{"key":"17","code":"SG","name":"St. Gallen"},"status":"Real"},{"key":"10032613","name":"Kornstrasse","postalCode":"9470","locality":"Buchs SG","commune":{"key":"3271","name":"Buchs (SG)","shortName":"Buchs (SG)"},"district":{"key":"1724","name":"Wahlkreis Werdenberg"},"canton":{"key":"17","code":"SG","name":"St. Gallen"},"status":"Real"},{"key":"10072111","name":"Kreuzgasse","postalCode":"9470","locality":"Buchs SG","commune":{"key":"3271","name":"Buchs (SG)","shortName":"Buchs (SG)"},"district":{"key":"1724","name":"Wahlkreis Werdenberg"},"canton":{"key":"17","code":"SG","name":"St. Gallen"},"status":"Real"},{"key":"10234413","name":"Kreuzgasse-Bachstrasse","postalCode":"9470","locality":"Buchs SG","commune":{"key":"3271","name":"Buchs (SG)","shortName":"Buchs (SG)"},"district":{"key":"1724","name":"Wahlkreis Werdenberg"},"canton":{"key":"17","code":"SG","name":"St. Gallen"},"status":"Real"},{"key":"10093738","name":"Lagerstrasse","postalCode":"9470","locality":"Buchs SG","commune":{"key":"3271","name":"Buchs (SG)","shortName":"Buchs (SG)"},"district":{"key":"1724","name":"Wahlkreis Werdenberg"},"canton":{"key":"17","code":"SG","name":"St. Gallen"},"status":"Real"},{"key":"10183057","name":"Langäulistrasse","postalCode":"9470","locality":"Buchs SG","commune":{"key":"3271","name":"Buchs (SG)","shortName":"Buchs (SG)"},"district":{"key":"1724","name":"Wahlkreis Werdenberg"},"canton":{"key":"17","code":"SG","name":"St. Gallen"},"status":"Real"},{"key":"10110068","name":"Leitersteg","postalCode":"9470","locality":"Buchs SG","commune":{"key":"3271","name":"Buchs (SG)","shortName":"Buchs (SG)"},"district":{"key":"1724","name":"Wahlkreis Werdenberg"},"canton":{"key":"17","code":"SG","name":"St. Gallen"},"status":"Real"},{"key":"10032614","name":"Lerchenweg","postalCode":"9470","locality":"Buchs SG","commune":{"key":"3271","name":"Buchs (SG)","shortName":"Buchs (SG)"},"district":{"key":"1724","name":"Wahlkreis Werdenberg"},"canton":{"key":"17","code":"SG","name":"St. Gallen"},"status":"Real"},{"key":"10257341","name":"Lettgiessli","postalCode":"9470","locality":"Buchs SG","commune":{"key":"3271","name":"Buchs (SG)","shortName":"Buchs (SG)"},"district":{"key":"1724","name":"Wahlkreis Werdenberg"},"canton":{"key":"17","code":"SG","name":"St. Gallen"},"status":"Real"},{"key":"10072112","name":"Lilienweg","postalCode":"9470","locality":"Buchs SG","commune":{"key":"3271","name":"Buchs (SG)","shortName":"Buchs (SG)"},"district":{"key":"1724","name":"Wahlkreis Werdenberg"},"canton":{"key":"17","code":"SG","name":"St. Gallen"},"status":"Real"},{"key":"10093739","name":"Lindenweg","postalCode":"9470","locality":"Buchs SG","commune":{"key":"3271","name":"Buchs (SG)","shortName":"Buchs (SG)"},"district":{"key":"1724","name":"Wahlkreis Werdenberg"},"canton":{"key":"17","code":"SG","name":"St. Gallen"},"status":"Real"},{"key":"10130458","name":"Maienberg","postalCode":"9470","locality":"Buchs SG","commune":{"key":"3271","name":"Buchs (SG)","shortName":"Buchs (SG)"},"district":{"key":"1724","name":"Wahlkreis Werdenberg"},"canton":{"key":"17","code":"SG","name":"St. Gallen"},"status":"Real"},{"key":"10032615","name":"Maienweg","postalCode":"9470","locality":"Buchs SG","commune":{"key":"3271","name":"Buchs (SG)","shortName":"Buchs (SG)"},"district":{"key":"1724","name":"Wahlkreis Werdenberg"},"canton":{"key":"17","code":"SG","name":"St. Gallen"},"status":"Real"},{"key":"10250772","name":"Maladorfer Hanfland","postalCode":"9470","locality":"Buchs SG","commune":{"key":"3271","name":"Buchs (SG)","shortName":"Buchs (SG)"},"district":{"key":"1724","name":"Wahlkreis Werdenberg"},"canton":{"key":"17","code":"SG","name":"St. Gallen"},"status":"Real"},{"key":"10128980","name":"Malbun Untersäss","postalCode":"9470","locality":"Buchs SG","commune":{"key":"3271","name":"Buchs (SG)","shortName":"Buchs (SG)"},"district":{"key":"1724","name":"Wahlkreis Werdenberg"},"canton":{"key":"17","code":"SG","name":"St. Gallen"},"status":"Real"},{"key":"10072113","name":"Marktweg","postalCode":"9470","locality":"Buchs SG","commune":{"key":"3271","name":"Buchs (SG)","shortName":"Buchs (SG)"},"district":{"key":"1724","name":"Wahlkreis Werdenberg"},"canton":{"key":"17","code":"SG","name":"St. Gallen"},"status":"Real"},{"key":"10170449","name":"Marsweg","postalCode":"9470","locality":"Buchs SG","commune":{"key":"3271","name":"Buchs (SG)","shortName":"Buchs (SG)"},"district":{"key":"1724","name":"Wahlkreis Werdenberg"},"canton":{"key":"17","code":"SG","name":"St. Gallen"},"status":"Real"},{"key":"10032616","name":"Meisenweg","postalCode":"9470","locality":"Buchs SG","commune":{"key":"3271","name":"Buchs (SG)","shortName":"Buchs (SG)"},"district":{"key":"1724","name":"Wahlkreis Werdenberg"},"canton":{"key":"17","code":"SG","name":"St. Gallen"},"status":"Real"},{"key":"10129396","name":"Merkurweg","postalCode":"9470","locality":"Buchs SG","commune":{"key":"3271","name":"Buchs (SG)","shortName":"Buchs (SG)"},"district":{"key":"1724","name":"Wahlkreis Werdenberg"},"canton":{"key":"17","code":"SG","name":"St. Gallen"},"status":"Real"},{"key":"10093740","name":"Messmergasse","postalCode":"9470","locality":"Buchs SG","commune":{"key":"3271","name":"Buchs (SG)","shortName":"Buchs (SG)"},"district":{"key":"1724","name":"Wahlkreis Werdenberg"},"canton":{"key":"17","code":"SG","name":"St. Gallen"},"status":"Real"},{"key":"10234421","name":"Metzgergasse","postalCode":"9470","locality":"Buchs SG","commune":{"key":"3271","name":"Buchs (SG)","shortName":"Buchs (SG)"},"district":{"key":"1724","name":"Wahlkreis Werdenberg"},"canton":{"key":"17","code":"SG","name":"St. Gallen"},"status":"Real"},{"key":"10032617","name":"Montfortweg","postalCode":"9470","locality":"Buchs SG","commune":{"key":"3271","name":"Buchs (SG)","shortName":"Buchs (SG)"},"district":{"key":"1724","name":"Wahlkreis Werdenberg"},"canton":{"key":"17","code":"SG","name":"St. Gallen"},"status":"Real"},{"key":"10032618","name":"Moos","postalCode":"9470","locality":"Buchs SG","commune":{"key":"3271","name":"Buchs (SG)","shortName":"Buchs (SG)"},"district":{"key":"1724","name":"Wahlkreis Werdenberg"},"canton":{"key":"17","code":"SG","name":"St. Gallen"},"status":"Real"},{"key":"10072114","name":"Mooshalde","postalCode":"9470","locality":"Buchs SG","commune":{"key":"3271","name":"Buchs (SG)","shortName":"Buchs (SG)"},"district":{"key":"1724","name":"Wahlkreis Werdenberg"},"canton":{"key":"17","code":"SG","name":"St. Gallen"},"status":"Real"},{"key":"10032619","name":"Moosweg","postalCode":"9470","locality":"Buchs SG","commune":{"key":"3271","name":"Buchs (SG)","shortName":"Buchs (SG)"},"district":{"key":"1724","name":"Wahlkreis Werdenberg"},"canton":{"key":"17","code":"SG","name":"St. Gallen"},"status":"Real"},{"key":"10230038","name":"Moosweg-Friedhof","postalCode":"9470","locality":"Buchs SG","commune":{"key":"3271","name":"Buchs (SG)","shortName":"Buchs (SG)"},"district":{"key":"1724","name":"Wahlkreis Werdenberg"},"canton":{"key":"17","code":"SG","name":"St. Gallen"},"status":"Real"},{"key":"10032620","name":"Morgenweidstrasse","postalCode":"9470","locality":"Buchs SG","commune":{"key":"3271","name":"Buchs (SG)","shortName":"Buchs (SG)"},"district":{"key":"1724","name":"Wahlkreis Werdenberg"},"canton":{"key":"17","code":"SG","name":"St. Gallen"},"status":"Real"},{"key":"10072115","name":"Muetterguet","postalCode":"9470","locality":"Buchs SG","commune":{"key":"3271","name":"Buchs (SG)","shortName":"Buchs (SG)"},"district":{"key":"1724","name":"Wahlkreis Werdenberg"},"canton":{"key":"17","code":"SG","name":"St. Gallen"},"status":"Real"},{"key":"10183058","name":"Mühleäulistrasse","postalCode":"9470","locality":"Buchs SG","commune":{"key":"3271","name":"Buchs (SG)","shortName":"Buchs (SG)"},"district":{"key":"1724","name":"Wahlkreis Werdenberg"},"canton":{"key":"17","code":"SG","name":"St. Gallen"},"status":"Real"},{"key":"10093741","name":"Mühlestrasse","postalCode":"9470","locality":"Buchs SG","commune":{"key":"3271","name":"Buchs (SG)","shortName":"Buchs (SG)"},"district":{"key":"1724","name":"Wahlkreis Werdenberg"},"canton":{"key":"17","code":"SG","name":"St. Gallen"},"status":"Real"},{"key":"10191981","name":"Narzissenweg","postalCode":"9470","locality":"Buchs SG","commune":{"key":"3271","name":"Buchs (SG)","shortName":"Buchs (SG)"},"district":{"key":"1724","name":"Wahlkreis Werdenberg"},"canton":{"key":"17","code":"SG","name":"St. Gallen"},"status":"Real"},{"key":"10093742","name":"Nebenbachweg","postalCode":"9470","locality":"Buchs SG","commune":{"key":"3271","name":"Buchs (SG)","shortName":"Buchs (SG)"},"district":{"key":"1724","name":"Wahlkreis Werdenberg"},"canton":{"key":"17","code":"SG","name":"St. Gallen"},"status":"Real"},{"key":"10072116","name":"Nelkenweg","postalCode":"9470","locality":"Buchs SG","commune":{"key":"3271","name":"Buchs (SG)","shortName":"Buchs (SG)"},"district":{"key":"1724","name":"Wahlkreis Werdenberg"},"canton":{"key":"17","code":"SG","name":"St. Gallen"},"status":"Real"},{"key":"10032621","name":"Neugutgrabenstrasse","postalCode":"9470","locality":"Buchs SG","commune":{"key":"3271","name":"Buchs (SG)","shortName":"Buchs (SG)"},"district":{"key":"1724","name":"Wahlkreis Werdenberg"},"canton":{"key":"17","code":"SG","name":"St. Gallen"},"status":"Real"},{"key":"10032622","name":"Nordstrasse","postalCode":"9470","locality":"Buchs SG","commune":{"key":"3271","name":"Buchs (SG)","shortName":"Buchs (SG)"},"district":{"key":"1724","name":"Wahlkreis Werdenberg"},"canton":{"key":"17","code":"SG","name":"St. Gallen"},"status":"Real"},{"key":"10093743","name":"Oberdorfweg","postalCode":"9470","locality":"Buchs SG","commune":{"key":"3271","name":"Buchs (SG)","shortName":"Buchs (SG)"},"district":{"key":"1724","name":"Wahlkreis Werdenberg"},"canton":{"key":"17","code":"SG","name":"St. Gallen"},"status":"Real"},{"key":"10113028","name":"Obere Gasse","postalCode":"9470","locality":"Buchs SG","commune":{"key":"3271","name":"Buchs (SG)","shortName":"Buchs (SG)"},"district":{"key":"1724","name":"Wahlkreis Werdenberg"},"canton":{"key":"17","code":"SG","name":"St. Gallen"},"status":"Real"},{"key":"10072117","name":"Oberstüdtlistrasse","postalCode":"9470","locality":"Buchs SG","commune":{"key":"3271","name":"Buchs (SG)","shortName":"Buchs (SG)"},"district":{"key":"1724","name":"Wahlkreis Werdenberg"},"canton":{"key":"17","code":"SG","name":"St. Gallen"},"status":"Real"},{"key":"10032623","name":"Parkstrasse","postalCode":"9470","locality":"Buchs SG","commune":{"key":"3271","name":"Buchs (SG)","shortName":"Buchs (SG)"},"district":{"key":"1724","name":"Wahlkreis Werdenberg"},"canton":{"key":"17","code":"SG","name":"St. Gallen"},"status":"Real"},{"key":"10230042","name":"Passerelle Langäuli","postalCode":"9470","locality":"Buchs SG","commune":{"key":"3271","name":"Buchs (SG)","shortName":"Buchs (SG)"},"district":{"key":"1724","name":"Wahlkreis Werdenberg"},"canton":{"key":"17","code":"SG","name":"St. Gallen"},"status":"Real"},{"key":"10234613","name":"Petersguet","postalCode":"9470","locality":"Buchs SG","commune":{"key":"3271","name":"Buchs (SG)","shortName":"Buchs (SG)"},"district":{"key":"1724","name":"Wahlkreis Werdenberg"},"canton":{"key":"17","code":"SG","name":"St. Gallen"},"status":"Real"},{"key":"10165982","name":"Pfirsichweg","postalCode":"9470","locality":"Buchs SG","commune":{"key":"3271","name":"Buchs (SG)","shortName":"Buchs (SG)"},"district":{"key":"1724","name":"Wahlkreis Werdenberg"},"canton":{"key":"17","code":"SG","name":"St. Gallen"},"status":"Real"},{"key":"10032624","name":"Pfrundgutstrasse","postalCode":"9470","locality":"Buchs SG","commune":{"key":"3271","name":"Buchs (SG)","shortName":"Buchs (SG)"},"district":{"key":"1724","name":"Wahlkreis Werdenberg"},"canton":{"key":"17","code":"SG","name":"St. Gallen"},"status":"Real"},{"key":"10029859","name":"Pfüfis","postalCode":"9470","locality":"Buchs SG","commune":{"key":"3271","name":"Buchs (SG)","shortName":"Buchs (SG)"},"district":{"key":"1724","name":"Wahlkreis Werdenberg"},"canton":{"key":"17","code":"SG","name":"St. Gallen"},"status":"Real"},{"key":"10093744","name":"Plattnach","postalCode":"9470","locality":"Buchs SG","commune":{"key":"3271","name":"Buchs (SG)","shortName":"Buchs (SG)"},"district":{"key":"1724","name":"Wahlkreis Werdenberg"},"canton":{"key":"17","code":"SG","name":"St. Gallen"},"status":"Real"},{"key":"10032625","name":"Plattnachwingert","postalCode":"9470","locality":"Buchs SG","commune":{"key":"3271","name":"Buchs (SG)","shortName":"Buchs (SG)"},"district":{"key":"1724","name":"Wahlkreis Werdenberg"},"canton":{"key":"17","code":"SG","name":"St. Gallen"},"status":"Real"},{"key":"10191802","name":"Quellenweg","postalCode":"9470","locality":"Buchs SG","commune":{"key":"3271","name":"Buchs (SG)","shortName":"Buchs (SG)"},"district":{"key":"1724","name":"Wahlkreis Werdenberg"},"canton":{"key":"17","code":"SG","name":"St. Gallen"},"status":"Real"},{"key":"10230046","name":"Radweg Fluka","postalCode":"9470","locality":"Buchs SG","commune":{"key":"3271","name":"Buchs (SG)","shortName":"Buchs (SG)"},"district":{"key":"1724","name":"Wahlkreis Werdenberg"},"canton":{"key":"17","code":"SG","name":"St. Gallen"},"status":"Real"},{"key":"10032630","name":"Räfiser Feld","postalCode":"9470","locality":"Buchs SG","commune":{"key":"3271","name":"Buchs (SG)","shortName":"Buchs (SG)"},"district":{"key":"1724","name":"Wahlkreis Werdenberg"},"canton":{"key":"17","code":"SG","name":"St. Gallen"},"status":"Real"},{"key":"10167657","name":"Räfiserhalde","postalCode":"9470","locality":"Buchs SG","commune":{"key":"3271","name":"Buchs (SG)","shortName":"Buchs (SG)"},"district":{"key":"1724","name":"Wahlkreis Werdenberg"},"canton":{"key":"17","code":"SG","name":"St. Gallen"},"status":"Real"},{"key":"10257342","name":"Räfiserholz","postalCode":"9470","locality":"Buchs SG","commune":{"key":"3271","name":"Buchs (SG)","shortName":"Buchs (SG)"},"district":{"key":"1724","name":"Wahlkreis Werdenberg"},"canton":{"key":"17","code":"SG","name":"St. Gallen"},"status":"Real"},{"key":"10072118","name":"Rebenweg","postalCode":"9470","locality":"Buchs SG","commune":{"key":"3271","name":"Buchs (SG)","shortName":"Buchs (SG)"},"district":{"key":"1724","name":"Wahlkreis Werdenberg"},"canton":{"key":"17","code":"SG","name":"St. Gallen"},"status":"Real"},{"key":"10230053","name":"Rheinau","postalCode":"9470","locality":"Buchs SG","commune":{"key":"3271","name":"Buchs (SG)","shortName":"Buchs (SG)"},"district":{"key":"1724","name":"Wahlkreis Werdenberg"},"canton":{"key":"17","code":"SG","name":"St. Gallen"},"status":"Real"},{"key":"10032626","name":"Rheinaustrasse","postalCode":"9470","locality":"Buchs SG","commune":{"key":"3271","name":"Buchs (SG)","shortName":"Buchs (SG)"},"district":{"key":"1724","name":"Wahlkreis Werdenberg"},"canton":{"key":"17","code":"SG","name":"St. Gallen"},"status":"Real"},{"key":"10230058","name":"Rheindammweg","postalCode":"9470","locality":"Buchs SG","commune":{"key":"3271","name":"Buchs (SG)","shortName":"Buchs (SG)"},"district":{"key":"1724","name":"Wahlkreis Werdenberg"},"canton":{"key":"17","code":"SG","name":"St. Gallen"},"status":"Real"},{"key":"10032627","name":"Rheinstrasse","postalCode":"9470","locality":"Buchs SG","commune":{"key":"3271","name":"Buchs (SG)","shortName":"Buchs (SG)"},"district":{"key":"1724","name":"Wahlkreis Werdenberg"},"canton":{"key":"17","code":"SG","name":"St. Gallen"},"status":"Real"},{"key":"10230061","name":"Rheinstr.-Rheindamm","postalCode":"9470","locality":"Buchs SG","commune":{"key":"3271","name":"Buchs (SG)","shortName":"Buchs (SG)"},"district":{"key":"1724","name":"Wahlkreis Werdenberg"},"canton":{"key":"17","code":"SG","name":"St. Gallen"},"status":"Real"},{"key":"10183059","name":"Rhynerhus","postalCode":"9470","locality":"Buchs SG","commune":{"key":"3271","name":"Buchs (SG)","shortName":"Buchs (SG)"},"district":{"key":"1724","name":"Wahlkreis Werdenberg"},"canton":{"key":"17","code":"SG","name":"St. Gallen"},"status":"Real"},{"key":"10250975","name":"Rhynershus","postalCode":"9470","locality":"Buchs SG","commune":{"key":"3271","name":"Buchs (SG)","shortName":"Buchs (SG)"},"district":{"key":"1724","name":"Wahlkreis Werdenberg"},"canton":{"key":"17","code":"SG","name":"St. Gallen"},"status":"Real"},{"key":"10072119","name":"Rietlistrasse","postalCode":"9470","locality":"Buchs SG","commune":{"key":"3271","name":"Buchs (SG)","shortName":"Buchs (SG)"},"district":{"key":"1724","name":"Wahlkreis Werdenberg"},"canton":{"key":"17","code":"SG","name":"St. Gallen"},"status":"Real"},{"key":"10230065","name":"Röllbach","postalCode":"9470","locality":"Buchs SG","commune":{"key":"3271","name":"Buchs (SG)","shortName":"Buchs (SG)"},"district":{"key":"1724","name":"Wahlkreis Werdenberg"},"canton":{"key":"17","code":"SG","name":"St. Gallen"},"status":"Real"},{"key":"10184675","name":"Röllweg","postalCode":"9470","locality":"Buchs SG","commune":{"key":"3271","name":"Buchs (SG)","shortName":"Buchs (SG)"},"district":{"key":"1724","name":"Wahlkreis Werdenberg"},"canton":{"key":"17","code":"SG","name":"St. Gallen"},"status":"Real"},{"key":"10093745","name":"Rosengasse","postalCode":"9470","locality":"Buchs SG","commune":{"key":"3271","name":"Buchs (SG)","shortName":"Buchs (SG)"},"district":{"key":"1724","name":"Wahlkreis Werdenberg"},"canton":{"key":"17","code":"SG","name":"St. Gallen"},"status":"Real"},{"key":"10230069","name":"Rosengasse-Schönfeldstr.","postalCode":"9470","locality":"Buchs SG","commune":{"key":"3271","name":"Buchs (SG)","shortName":"Buchs (SG)"},"district":{"key":"1724","name":"Wahlkreis Werdenberg"},"canton":{"key":"17","code":"SG","name":"St. Gallen"},"status":"Real"},{"key":"10032628","name":"Rosshag","postalCode":"9470","locality":"Buchs SG","commune":{"key":"3271","name":"Buchs (SG)","shortName":"Buchs (SG)"},"district":{"key":"1724","name":"Wahlkreis Werdenberg"},"canton":{"key":"17","code":"SG","name":"St. Gallen"},"status":"Real"},{"key":"10032629","name":"Runggels","postalCode":"9470","locality":"Buchs SG","commune":{"key":"3271","name":"Buchs (SG)","shortName":"Buchs (SG)"},"district":{"key":"1724","name":"Wahlkreis Werdenberg"},"canton":{"key":"17","code":"SG","name":"St. Gallen"},"status":"Real"},{"key":"10093746","name":"Saarstrasse","postalCode":"9470","locality":"Buchs SG","commune":{"key":"3271","name":"Buchs (SG)","shortName":"Buchs (SG)"},"district":{"key":"1724","name":"Wahlkreis Werdenberg"},"canton":{"key":"17","code":"SG","name":"St. Gallen"},"status":"Real"},{"key":"10096373","name":"Sägeweg","postalCode":"9470","locality":"Buchs SG","commune":{"key":"3271","name":"Buchs (SG)","shortName":"Buchs (SG)"},"district":{"key":"1724","name":"Wahlkreis Werdenberg"},"canton":{"key":"17","code":"SG","name":"St. Gallen"},"status":"Real"},{"key":"10032631","name":"Sandweg","postalCode":"9470","locality":"Buchs SG","commune":{"key":"3271","name":"Buchs (SG)","shortName":"Buchs (SG)"},"district":{"key":"1724","name":"Wahlkreis Werdenberg"},"canton":{"key":"17","code":"SG","name":"St. Gallen"},"status":"Real"},{"key":"10031156","name":"Säntisstrasse","postalCode":"9470","locality":"Buchs SG","commune":{"key":"3271","name":"Buchs (SG)","shortName":"Buchs (SG)"},"district":{"key":"1724","name":"Wahlkreis Werdenberg"},"canton":{"key":"17","code":"SG","name":"St. Gallen"},"status":"Real"},{"key":"10191982","name":"Saturnweg","postalCode":"9470","locality":"Buchs SG","commune":{"key":"3271","name":"Buchs (SG)","shortName":"Buchs (SG)"},"district":{"key":"1724","name":"Wahlkreis Werdenberg"},"canton":{"key":"17","code":"SG","name":"St. Gallen"},"status":"Real"},{"key":"10072120","name":"Saxweg","postalCode":"9470","locality":"Buchs SG","commune":{"key":"3271","name":"Buchs (SG)","shortName":"Buchs (SG)"},"district":{"key":"1724","name":"Wahlkreis Werdenberg"},"canton":{"key":"17","code":"SG","name":"St. Gallen"},"status":"Real"},{"key":"10230073","name":"Schäflisteg","postalCode":"9470","locality":"Buchs SG","commune":{"key":"3271","name":"Buchs (SG)","shortName":"Buchs (SG)"},"district":{"key":"1724","name":"Wahlkreis Werdenberg"},"canton":{"key":"17","code":"SG","name":"St. Gallen"},"status":"Real"},{"key":"10230077","name":"Scheibenstandweg","postalCode":"9470","locality":"Buchs SG","commune":{"key":"3271","name":"Buchs (SG)","shortName":"Buchs (SG)"},"district":{"key":"1724","name":"Wahlkreis Werdenberg"},"canton":{"key":"17","code":"SG","name":"St. Gallen"},"status":"Real"},{"key":"10183060","name":"Schenkenalpweg","postalCode":"9470","locality":"Buchs SG","commune":{"key":"3271","name":"Buchs (SG)","shortName":"Buchs (SG)"},"district":{"key":"1724","name":"Wahlkreis Werdenberg"},"canton":{"key":"17","code":"SG","name":"St. Gallen"},"status":"Real"},{"key":"10093747","name":"Schingasse","postalCode":"9470","locality":"Buchs SG","commune":{"key":"3271","name":"Buchs (SG)","shortName":"Buchs (SG)"},"district":{"key":"1724","name":"Wahlkreis Werdenberg"},"canton":{"key":"17","code":"SG","name":"St. Gallen"},"status":"Real"},{"key":"10230081","name":"Schlangenwegli","postalCode":"9470","locality":"Buchs SG","commune":{"key":"3271","name":"Buchs (SG)","shortName":"Buchs (SG)"},"district":{"key":"1724","name":"Wahlkreis Werdenberg"},"canton":{"key":"17","code":"SG","name":"St. Gallen"},"status":"Real"},{"key":"10032632","name":"Schläppliweg","postalCode":"9470","locality":"Buchs SG","commune":{"key":"3271","name":"Buchs (SG)","shortName":"Buchs (SG)"},"district":{"key":"1724","name":"Wahlkreis Werdenberg"},"canton":{"key":"17","code":"SG","name":"St. Gallen"},"status":"Real"},{"key":"10113029","name":"Schlossfeld","postalCode":"9470","locality":"Buchs SG","commune":{"key":"3271","name":"Buchs (SG)","shortName":"Buchs (SG)"},"district":{"key":"1724","name":"Wahlkreis Werdenberg"},"canton":{"key":"17","code":"SG","name":"St. Gallen"},"status":"Real"},{"key":"10072121","name":"Schlossweg","postalCode":"9470","locality":"Buchs SG","commune":{"key":"3271","name":"Buchs (SG)","shortName":"Buchs (SG)"},"district":{"key":"1724","name":"Wahlkreis Werdenberg"},"canton":{"key":"17","code":"SG","name":"St. Gallen"},"status":"Real"},{"key":"10096329","name":"Schmiedgasse","postalCode":"9470","locality":"Buchs SG","commune":{"key":"3271","name":"Buchs (SG)","shortName":"Buchs (SG)"},"district":{"key":"1724","name":"Wahlkreis Werdenberg"},"canton":{"key":"17","code":"SG","name":"St. Gallen"},"status":"Real"},{"key":"10046777","name":"Schönfeldstrasse","postalCode":"9470","locality":"Buchs SG","commune":{"key":"3271","name":"Buchs (SG)","shortName":"Buchs (SG)"},"district":{"key":"1724","name":"Wahlkreis Werdenberg"},"canton":{"key":"17","code":"SG","name":"St. Gallen"},"status":"Real"},{"key":"10032634","name":"Schulhausstrasse","postalCode":"9470","locality":"Buchs SG","commune":{"key":"3271","name":"Buchs (SG)","shortName":"Buchs (SG)"},"district":{"key":"1724","name":"Wahlkreis Werdenberg"},"canton":{"key":"17","code":"SG","name":"St. Gallen"},"status":"Real"},{"key":"10031015","name":"Schulweg","postalCode":"9470","locality":"Buchs SG","commune":{"key":"3271","name":"Buchs (SG)","shortName":"Buchs (SG)"},"district":{"key":"1724","name":"Wahlkreis Werdenberg"},"canton":{"key":"17","code":"SG","name":"St. Gallen"},"status":"Real"},{"key":"10230086","name":"Schützenhausweg","postalCode":"9470","locality":"Buchs SG","commune":{"key":"3271","name":"Buchs (SG)","shortName":"Buchs (SG)"},"district":{"key":"1724","name":"Wahlkreis Werdenberg"},"canton":{"key":"17","code":"SG","name":"St. Gallen"},"status":"Real"},{"key":"10072122","name":"Schützenweg","postalCode":"9470","locality":"Buchs SG","commune":{"key":"3271","name":"Buchs (SG)","shortName":"Buchs (SG)"},"district":{"key":"1724","name":"Wahlkreis Werdenberg"},"canton":{"key":"17","code":"SG","name":"St. Gallen"},"status":"Real"},{"key":"10230089","name":"Seeweg Ost","postalCode":"9470","locality":"Buchs SG","commune":{"key":"3271","name":"Buchs (SG)","shortName":"Buchs (SG)"},"district":{"key":"1724","name":"Wahlkreis Werdenberg"},"canton":{"key":"17","code":"SG","name":"St. Gallen"},"status":"Real"},{"key":"10230093","name":"Seeweg Süd","postalCode":"9470","locality":"Buchs SG","commune":{"key":"3271","name":"Buchs (SG)","shortName":"Buchs (SG)"},"district":{"key":"1724","name":"Wahlkreis Werdenberg"},"canton":{"key":"17","code":"SG","name":"St. Gallen"},"status":"Real"},{"key":"10032635","name":"Sennereigasse","postalCode":"9470","locality":"Buchs SG","commune":{"key":"3271","name":"Buchs (SG)","shortName":"Buchs (SG)"},"district":{"key":"1724","name":"Wahlkreis Werdenberg"},"canton":{"key":"17","code":"SG","name":"St. Gallen"},"status":"Real"},{"key":"10234856","name":"Sennereigasse-Plattnach","postalCode":"9470","locality":"Buchs SG","commune":{"key":"3271","name":"Buchs (SG)","shortName":"Buchs (SG)"},"district":{"key":"1724","name":"Wahlkreis Werdenberg"},"canton":{"key":"17","code":"SG","name":"St. Gallen"},"status":"Real"},{"key":"10257755","name":"Sinda","postalCode":"9470","locality":"Buchs SG","commune":{"key":"3271","name":"Buchs (SG)","shortName":"Buchs (SG)"},"district":{"key":"1724","name":"Wahlkreis Werdenberg"},"canton":{"key":"17","code":"SG","name":"St. Gallen"},"status":"Real"},{"key":"10117411","name":"Sindenweg","postalCode":"9470","locality":"Buchs SG","commune":{"key":"3271","name":"Buchs (SG)","shortName":"Buchs (SG)"},"district":{"key":"1724","name":"Wahlkreis Werdenberg"},"canton":{"key":"17","code":"SG","name":"St. Gallen"},"status":"Real"},{"key":"10234860","name":"Sisizer Voralp","postalCode":"9470","locality":"Buchs SG","commune":{"key":"3271","name":"Buchs (SG)","shortName":"Buchs (SG)"},"district":{"key":"1724","name":"Wahlkreis Werdenberg"},"canton":{"key":"17","code":"SG","name":"St. Gallen"},"status":"Real"},{"key":"10108111","name":"Sonnenweg","postalCode":"9470","locality":"Buchs SG","commune":{"key":"3271","name":"Buchs (SG)","shortName":"Buchs (SG)"},"district":{"key":"1724","name":"Wahlkreis Werdenberg"},"canton":{"key":"17","code":"SG","name":"St. Gallen"},"status":"Real"},{"key":"10031154","name":"Stationsstrasse","postalCode":"9470","locality":"Buchs SG","commune":{"key":"3271","name":"Buchs (SG)","shortName":"Buchs (SG)"},"district":{"key":"1724","name":"Wahlkreis Werdenberg"},"canton":{"key":"17","code":"SG","name":"St. Gallen"},"status":"Real"},{"key":"10257343","name":"Steinbruch","postalCode":"9470","locality":"Buchs SG","commune":{"key":"3271","name":"Buchs (SG)","shortName":"Buchs (SG)"},"district":{"key":"1724","name":"Wahlkreis Werdenberg"},"canton":{"key":"17","code":"SG","name":"St. Gallen"},"status":"Real"},{"key":"10046778","name":"Steinweg","postalCode":"9470","locality":"Buchs SG","commune":{"key":"3271","name":"Buchs (SG)","shortName":"Buchs (SG)"},"district":{"key":"1724","name":"Wahlkreis Werdenberg"},"canton":{"key":"17","code":"SG","name":"St. Gallen"},"status":"Real"},{"key":"10072123","name":"Sternstrasse","postalCode":"9470","locality":"Buchs SG","commune":{"key":"3271","name":"Buchs (SG)","shortName":"Buchs (SG)"},"district":{"key":"1724","name":"Wahlkreis Werdenberg"},"canton":{"key":"17","code":"SG","name":"St. Gallen"},"status":"Real"},{"key":"10175939","name":"St. Gallerstrasse","postalCode":"9470","locality":"Buchs SG","commune":{"key":"3271","name":"Buchs (SG)","shortName":"Buchs (SG)"},"district":{"key":"1724","name":"Wahlkreis Werdenberg"},"canton":{"key":"17","code":"SG","name":"St. Gallen"},"status":"Real"},{"key":"10032376","name":"St. Gallerstrasse","postalCode":"9470","locality":"Buchs SG","commune":{"key":"3271","name":"Buchs (SG)","shortName":"Buchs (SG)"},"district":{"key":"1724","name":"Wahlkreis Werdenberg"},"canton":{"key":"17","code":"SG","name":"St. Gallen"},"status":"Real"},{"key":"10096330","name":"Stiegengässli","postalCode":"9470","locality":"Buchs SG","commune":{"key":"3271","name":"Buchs (SG)","shortName":"Buchs (SG)"},"district":{"key":"1724","name":"Wahlkreis Werdenberg"},"canton":{"key":"17","code":"SG","name":"St. Gallen"},"status":"Real"},{"key":"10234864","name":"Stiegenwegli","postalCode":"9470","locality":"Buchs SG","commune":{"key":"3271","name":"Buchs (SG)","shortName":"Buchs (SG)"},"district":{"key":"1724","name":"Wahlkreis Werdenberg"},"canton":{"key":"17","code":"SG","name":"St. Gallen"},"status":"Real"},{"key":"10031155","name":"Stöck","postalCode":"9470","locality":"Buchs SG","commune":{"key":"3271","name":"Buchs (SG)","shortName":"Buchs (SG)"},"district":{"key":"1724","name":"Wahlkreis Werdenberg"},"canton":{"key":"17","code":"SG","name":"St. Gallen"},"status":"Real"},{"key":"10122081","name":"Tannenstrasse","postalCode":"9470","locality":"Buchs SG","commune":{"key":"3271","name":"Buchs (SG)","shortName":"Buchs (SG)"},"district":{"key":"1724","name":"Wahlkreis Werdenberg"},"canton":{"key":"17","code":"SG","name":"St. Gallen"},"status":"Real"},{"key":"10096331","name":"Technikumsstrasse","postalCode":"9470","locality":"Buchs SG","commune":{"key":"3271","name":"Buchs (SG)","shortName":"Buchs (SG)"},"district":{"key":"1724","name":"Wahlkreis Werdenberg"},"canton":{"key":"17","code":"SG","name":"St. Gallen"},"status":"Real"},{"key":"10093171","name":"Tiergartenweg","postalCode":"9470","locality":"Buchs SG","commune":{"key":"3271","name":"Buchs (SG)","shortName":"Buchs (SG)"},"district":{"key":"1724","name":"Wahlkreis Werdenberg"},"canton":{"key":"17","code":"SG","name":"St. Gallen"},"status":"Real"},{"key":"10072124","name":"Torstrasse","postalCode":"9470","locality":"Buchs SG","commune":{"key":"3271","name":"Buchs (SG)","shortName":"Buchs (SG)"},"district":{"key":"1724","name":"Wahlkreis Werdenberg"},"canton":{"key":"17","code":"SG","name":"St. Gallen"},"status":"Real"},{"key":"10183061","name":"Tulpenweg","postalCode":"9470","locality":"Buchs SG","commune":{"key":"3271","name":"Buchs (SG)","shortName":"Buchs (SG)"},"district":{"key":"1724","name":"Wahlkreis Werdenberg"},"canton":{"key":"17","code":"SG","name":"St. Gallen"},"status":"Real"},{"key":"10186955","name":"Turmweg","postalCode":"9470","locality":"Buchs SG","commune":{"key":"3271","name":"Buchs (SG)","shortName":"Buchs (SG)"},"district":{"key":"1724","name":"Wahlkreis Werdenberg"},"canton":{"key":"17","code":"SG","name":"St. Gallen"},"status":"Real"},{"key":"10031157","name":"Turnhallenstrasse","postalCode":"9470","locality":"Buchs SG","commune":{"key":"3271","name":"Buchs (SG)","shortName":"Buchs (SG)"},"district":{"key":"1724","name":"Wahlkreis Werdenberg"},"canton":{"key":"17","code":"SG","name":"St. Gallen"},"status":"Real"},{"key":"10046779","name":"Ulmenstrasse","postalCode":"9470","locality":"Buchs SG","commune":{"key":"3271","name":"Buchs (SG)","shortName":"Buchs (SG)"},"district":{"key":"1724","name":"Wahlkreis Werdenberg"},"canton":{"key":"17","code":"SG","name":"St. Gallen"},"status":"Real"},{"key":"10031158","name":"Untere Gasse","postalCode":"9470","locality":"Buchs SG","commune":{"key":"3271","name":"Buchs (SG)","shortName":"Buchs (SG)"},"district":{"key":"1724","name":"Wahlkreis Werdenberg"},"canton":{"key":"17","code":"SG","name":"St. Gallen"},"status":"Real"},{"key":"10234876","name":"Untere Gasse-Haldengasse","postalCode":"9470","locality":"Buchs SG","commune":{"key":"3271","name":"Buchs (SG)","shortName":"Buchs (SG)"},"district":{"key":"1724","name":"Wahlkreis Werdenberg"},"canton":{"key":"17","code":"SG","name":"St. Gallen"},"status":"Real"},{"key":"10234872","name":"Unter- Oberstüdtlistrasse","postalCode":"9470","locality":"Buchs SG","commune":{"key":"3271","name":"Buchs (SG)","shortName":"Buchs (SG)"},"district":{"key":"1724","name":"Wahlkreis Werdenberg"},"canton":{"key":"17","code":"SG","name":"St. Gallen"},"status":"Real"},{"key":"10234880","name":"Unterstüdtli-Bahnhofstr.","postalCode":"9470","locality":"Buchs SG","commune":{"key":"3271","name":"Buchs (SG)","shortName":"Buchs (SG)"},"district":{"key":"1724","name":"Wahlkreis Werdenberg"},"canton":{"key":"17","code":"SG","name":"St. Gallen"},"status":"Real"},{"key":"10072125","name":"Unterstüdtlistrasse","postalCode":"9470","locality":"Buchs SG","commune":{"key":"3271","name":"Buchs (SG)","shortName":"Buchs (SG)"},"district":{"key":"1724","name":"Wahlkreis Werdenberg"},"canton":{"key":"17","code":"SG","name":"St. Gallen"},"status":"Real"},{"key":"10096332","name":"Valgurg","postalCode":"9470","locality":"Buchs SG","commune":{"key":"3271","name":"Buchs (SG)","shortName":"Buchs (SG)"},"district":{"key":"1724","name":"Wahlkreis Werdenberg"},"canton":{"key":"17","code":"SG","name":"St. Gallen"},"status":"Real"},{"key":"10096374","name":"Veilchenweg","postalCode":"9470","locality":"Buchs SG","commune":{"key":"3271","name":"Buchs (SG)","shortName":"Buchs (SG)"},"district":{"key":"1724","name":"Wahlkreis Werdenberg"},"canton":{"key":"17","code":"SG","name":"St. Gallen"},"status":"Real"},{"key":"10031159","name":"Volksgartenstrasse","postalCode":"9470","locality":"Buchs SG","commune":{"key":"3271","name":"Buchs (SG)","shortName":"Buchs (SG)"},"district":{"key":"1724","name":"Wahlkreis Werdenberg"},"canton":{"key":"17","code":"SG","name":"St. Gallen"},"status":"Real"},{"key":"10234884","name":"Volksgartenstr.-Giessen","postalCode":"9470","locality":"Buchs SG","commune":{"key":"3271","name":"Buchs (SG)","shortName":"Buchs (SG)"},"district":{"key":"1724","name":"Wahlkreis Werdenberg"},"canton":{"key":"17","code":"SG","name":"St. Gallen"},"status":"Real"},{"key":"10059766","name":"Vorderberg","postalCode":"9470","locality":"Buchs SG","commune":{"key":"3271","name":"Buchs (SG)","shortName":"Buchs (SG)"},"district":{"key":"1724","name":"Wahlkreis Werdenberg"},"canton":{"key":"17","code":"SG","name":"St. Gallen"},"status":"Real"},{"key":"10224486","name":"Vorderberg","postalCode":"9470","locality":"Buchs SG","commune":{"key":"3271","name":"Buchs (SG)","shortName":"Buchs (SG)"},"district":{"key":"1724","name":"Wahlkreis Werdenberg"},"canton":{"key":"17","code":"SG","name":"St. Gallen"},"status":"Real"},{"key":"10191803","name":"Waldrand","postalCode":"9470","locality":"Buchs SG","commune":{"key":"3271","name":"Buchs (SG)","shortName":"Buchs (SG)"},"district":{"key":"1724","name":"Wahlkreis Werdenberg"},"canton":{"key":"17","code":"SG","name":"St. Gallen"},"status":"Real"},{"key":"10113030","name":"Walser","postalCode":"9470","locality":"Buchs SG","commune":{"key":"3271","name":"Buchs (SG)","shortName":"Buchs (SG)"},"district":{"key":"1724","name":"Wahlkreis Werdenberg"},"canton":{"key":"17","code":"SG","name":"St. Gallen"},"status":"Real"},{"key":"10096334","name":"Wäselihalde","postalCode":"9470","locality":"Buchs SG","commune":{"key":"3271","name":"Buchs (SG)","shortName":"Buchs (SG)"},"district":{"key":"1724","name":"Wahlkreis Werdenberg"},"canton":{"key":"17","code":"SG","name":"St. Gallen"},"status":"Real"},{"key":"10031164","name":"Wäseliweg","postalCode":"9470","locality":"Buchs SG","commune":{"key":"3271","name":"Buchs (SG)","shortName":"Buchs (SG)"},"district":{"key":"1724","name":"Wahlkreis Werdenberg"},"canton":{"key":"17","code":"SG","name":"St. Gallen"},"status":"Real"},{"key":"10224490","name":"Wasserweg","postalCode":"9470","locality":"Buchs SG","commune":{"key":"3271","name":"Buchs (SG)","shortName":"Buchs (SG)"},"district":{"key":"1724","name":"Wahlkreis Werdenberg"},"canton":{"key":"17","code":"SG","name":"St. Gallen"},"status":"Real"},{"key":"10234888","name":"WBK-Strasse-Tennisplatz","postalCode":"9470","locality":"Buchs SG","commune":{"key":"3271","name":"Buchs (SG)","shortName":"Buchs (SG)"},"district":{"key":"1724","name":"Wahlkreis Werdenberg"},"canton":{"key":"17","code":"SG","name":"St. Gallen"},"status":"Real"},{"key":"10163055","name":"Weichselweg","postalCode":"9470","locality":"Buchs SG","commune":{"key":"3271","name":"Buchs (SG)","shortName":"Buchs (SG)"},"district":{"key":"1724","name":"Wahlkreis Werdenberg"},"canton":{"key":"17","code":"SG","name":"St. Gallen"},"status":"Real"},{"key":"10031160","name":"Weidweg","postalCode":"9470","locality":"Buchs SG","commune":{"key":"3271","name":"Buchs (SG)","shortName":"Buchs (SG)"},"district":{"key":"1724","name":"Wahlkreis Werdenberg"},"canton":{"key":"17","code":"SG","name":"St. Gallen"},"status":"Real"},{"key":"10184210","name":"Weidweg","postalCode":"9470","locality":"Buchs SG","commune":{"key":"3271","name":"Buchs (SG)","shortName":"Buchs (SG)"},"district":{"key":"1724","name":"Wahlkreis Werdenberg"},"canton":{"key":"17","code":"SG","name":"St. Gallen"},"status":"Real"},{"key":"10072126","name":"Werdenbergstrasse","postalCode":"9470","locality":"Buchs SG","commune":{"key":"3271","name":"Buchs (SG)","shortName":"Buchs (SG)"},"district":{"key":"1724","name":"Wahlkreis Werdenberg"},"canton":{"key":"17","code":"SG","name":"St. Gallen"},"status":"Real"},{"key":"10046780","name":"Werderweg","postalCode":"9470","locality":"Buchs SG","commune":{"key":"3271","name":"Buchs (SG)","shortName":"Buchs (SG)"},"district":{"key":"1724","name":"Wahlkreis Werdenberg"},"canton":{"key":"17","code":"SG","name":"St. Gallen"},"status":"Real"},{"key":"10183062","name":"Wetti","postalCode":"9470","locality":"Buchs SG","commune":{"key":"3271","name":"Buchs (SG)","shortName":"Buchs (SG)"},"district":{"key":"1724","name":"Wahlkreis Werdenberg"},"canton":{"key":"17","code":"SG","name":"St. Gallen"},"status":"Real"},{"key":"10234892","name":"Wettibachweg","postalCode":"9470","locality":"Buchs SG","commune":{"key":"3271","name":"Buchs (SG)","shortName":"Buchs (SG)"},"district":{"key":"1724","name":"Wahlkreis Werdenberg"},"canton":{"key":"17","code":"SG","name":"St. Gallen"},"status":"Real"},{"key":"10031161","name":"Wettistrasse","postalCode":"9470","locality":"Buchs SG","commune":{"key":"3271","name":"Buchs (SG)","shortName":"Buchs (SG)"},"district":{"key":"1724","name":"Wahlkreis Werdenberg"},"canton":{"key":"17","code":"SG","name":"St. Gallen"},"status":"Real"},{"key":"10234896","name":"Wettiweg","postalCode":"9470","locality":"Buchs SG","commune":{"key":"3271","name":"Buchs (SG)","shortName":"Buchs (SG)"},"district":{"key":"1724","name":"Wahlkreis Werdenberg"},"canton":{"key":"17","code":"SG","name":"St. Gallen"},"status":"Real"},{"key":"10046781","name":"Wiedenhofweg","postalCode":"9470","locality":"Buchs SG","commune":{"key":"3271","name":"Buchs (SG)","shortName":"Buchs (SG)"},"district":{"key":"1724","name":"Wahlkreis Werdenberg"},"canton":{"key":"17","code":"SG","name":"St. Gallen"},"status":"Real"},{"key":"10096333","name":"Wiedenstrasse","postalCode":"9470","locality":"Buchs SG","commune":{"key":"3271","name":"Buchs (SG)","shortName":"Buchs (SG)"},"district":{"key":"1724","name":"Wahlkreis Werdenberg"},"canton":{"key":"17","code":"SG","name":"St. Gallen"},"status":"Real"},{"key":"10222846","name":"Wies","postalCode":"9470","locality":"Buchs SG","commune":{"key":"3271","name":"Buchs (SG)","shortName":"Buchs (SG)"},"district":{"key":"1724","name":"Wahlkreis Werdenberg"},"canton":{"key":"17","code":"SG","name":"St. Gallen"},"status":"Real"},{"key":"10031162","name":"Wiesenstrasse","postalCode":"9470","locality":"Buchs SG","commune":{"key":"3271","name":"Buchs (SG)","shortName":"Buchs (SG)"},"district":{"key":"1724","name":"Wahlkreis Werdenberg"},"canton":{"key":"17","code":"SG","name":"St. Gallen"},"status":"Real"},{"key":"10129397","name":"Wingerthalde","postalCode":"9470","locality":"Buchs SG","commune":{"key":"3271","name":"Buchs (SG)","shortName":"Buchs (SG)"},"district":{"key":"1724","name":"Wahlkreis Werdenberg"},"canton":{"key":"17","code":"SG","name":"St. Gallen"},"status":"Real"},{"key":"10031163","name":"Winkelweg","postalCode":"9470","locality":"Buchs SG","commune":{"key":"3271","name":"Buchs (SG)","shortName":"Buchs (SG)"},"district":{"key":"1724","name":"Wahlkreis Werdenberg"},"canton":{"key":"17","code":"SG","name":"St. Gallen"},"status":"Real"},{"key":"10046782","name":"Witiweg","postalCode":"9470","locality":"Buchs SG","commune":{"key":"3271","name":"Buchs (SG)","shortName":"Buchs (SG)"},"district":{"key":"1724","name":"Wahlkreis Werdenberg"},"canton":{"key":"17","code":"SG","name":"St. Gallen"},"status":"Real"},{"key":"10226655","name":"Wohnüberbauung Widen","postalCode":"9470","locality":"Buchs SG","commune":{"key":"3271","name":"Buchs (SG)","shortName":"Buchs (SG)"},"district":{"key":"1724","name":"Wahlkreis Werdenberg"},"canton":{"key":"17","code":"SG","name":"St. Gallen"},"status":"Real"},{"key":"10184676","name":"Wuer","postalCode":"9470","locality":"Buchs SG","commune":{"key":"3271","name":"Buchs (SG)","shortName":"Buchs (SG)"},"district":{"key":"1724","name":"Wahlkreis Werdenberg"},"canton":{"key":"17","code":"SG","name":"St. Gallen"},"status":"Real"},{"key":"10228062","name":"Xanderguet","postalCode":"9470","locality":"Buchs SG","commune":{"key":"3271","name":"Buchs (SG)","shortName":"Buchs (SG)"},"district":{"key":"1724","name":"Wahlkreis Werdenberg"},"canton":{"key":"17","code":"SG","name":"St. Gallen"},"status":"Real"},{"key":"10046783","name":"Zehntenweg","postalCode":"9470","locality":"Buchs SG","commune":{"key":"3271","name":"Buchs (SG)","shortName":"Buchs (SG)"},"district":{"key":"1724","name":"Wahlkreis Werdenberg"},"canton":{"key":"17","code":"SG","name":"St. Gallen"},"status":"Real"},{"key":"10031165","name":"Zinnenweg","postalCode":"9470","locality":"Buchs SG","commune":{"key":"3271","name":"Buchs (SG)","shortName":"Buchs (SG)"},"district":{"key":"1724","name":"Wahlkreis Werdenberg"},"canton":{"key":"17","code":"SG","name":"St. Gallen"},"status":"Real"},]