[{"key":"10194109","name":"Ahornweg","postalCode":"4554","locality":"Etziken","commune":{"key":"2518","name":"Etziken","shortName":"Etziken"},"district":{"key":"1106","name":"Bezirk Wasseramt"},"canton":{"key":"11","code":"SO","name":"Solothurn"},"status":"Real"},{"key":"10051226","name":"Bahnweg","postalCode":"4554","locality":"Etziken","commune":{"key":"2518","name":"Etziken","shortName":"Etziken"},"district":{"key":"1106","name":"Bezirk Wasseramt"},"canton":{"key":"11","code":"SO","name":"Solothurn"},"status":"Real"},{"key":"10116662","name":"Bodenackerweg","postalCode":"4554","locality":"Etziken","commune":{"key":"2518","name":"Etziken","shortName":"Etziken"},"district":{"key":"1106","name":"Bezirk Wasseramt"},"canton":{"key":"11","code":"SO","name":"Solothurn"},"status":"Real"},{"key":"10016511","name":"Bolackerweg","postalCode":"4554","locality":"Etziken","commune":{"key":"2518","name":"Etziken","shortName":"Etziken"},"district":{"key":"1106","name":"Bezirk Wasseramt"},"canton":{"key":"11","code":"SO","name":"Solothurn"},"status":"Real"},{"key":"10051227","name":"Bolkenstrasse","postalCode":"4554","locality":"Etziken","commune":{"key":"2518","name":"Etziken","shortName":"Etziken"},"district":{"key":"1106","name":"Bezirk Wasseramt"},"canton":{"key":"11","code":"SO","name":"Solothurn"},"status":"Real"},{"key":"10109919","name":"Brügglenweg","postalCode":"4554","locality":"Etziken","commune":{"key":"2518","name":"Etziken","shortName":"Etziken"},"district":{"key":"1106","name":"Bezirk Wasseramt"},"canton":{"key":"11","code":"SO","name":"Solothurn"},"status":"Real"},{"key":"10091148","name":"Buchenweg","postalCode":"4554","locality":"Etziken","commune":{"key":"2518","name":"Etziken","shortName":"Etziken"},"district":{"key":"1106","name":"Bezirk Wasseramt"},"canton":{"key":"11","code":"SO","name":"Solothurn"},"status":"Real"},{"key":"10051228","name":"Bünackerweg","postalCode":"4554","locality":"Etziken","commune":{"key":"2518","name":"Etziken","shortName":"Etziken"},"district":{"key":"1106","name":"Bezirk Wasseramt"},"canton":{"key":"11","code":"SO","name":"Solothurn"},"status":"Real"},{"key":"10016512","name":"Dägenmoosweg","postalCode":"4554","locality":"Etziken","commune":{"key":"2518","name":"Etziken","shortName":"Etziken"},"district":{"key":"1106","name":"Bezirk Wasseramt"},"canton":{"key":"11","code":"SO","name":"Solothurn"},"status":"Real"},{"key":"10115297","name":"Dorfstrasse","postalCode":"4554","locality":"Etziken","commune":{"key":"2518","name":"Etziken","shortName":"Etziken"},"district":{"key":"1106","name":"Bezirk Wasseramt"},"canton":{"key":"11","code":"SO","name":"Solothurn"},"status":"Real"},{"key":"10195714","name":"Eichenweg","postalCode":"4554","locality":"Etziken","commune":{"key":"2518","name":"Etziken","shortName":"Etziken"},"district":{"key":"1106","name":"Bezirk Wasseramt"},"canton":{"key":"11","code":"SO","name":"Solothurn"},"status":"Real"},{"key":"10091816","name":"Eichholzweg","postalCode":"4554","locality":"Etziken","commune":{"key":"2518","name":"Etziken","shortName":"Etziken"},"district":{"key":"1106","name":"Bezirk Wasseramt"},"canton":{"key":"11","code":"SO","name":"Solothurn"},"status":"Real"},{"key":"10066390","name":"Fuchsackerweg","postalCode":"4554","locality":"Etziken","commune":{"key":"2518","name":"Etziken","shortName":"Etziken"},"district":{"key":"1106","name":"Bezirk Wasseramt"},"canton":{"key":"11","code":"SO","name":"Solothurn"},"status":"Real"},{"key":"10091149","name":"Heinz-Frei-Weg","postalCode":"4554","locality":"Etziken","commune":{"key":"2518","name":"Etziken","shortName":"Etziken"},"district":{"key":"1106","name":"Bezirk Wasseramt"},"canton":{"key":"11","code":"SO","name":"Solothurn"},"status":"Real"},{"key":"10051503","name":"Hünikenstrasse","postalCode":"4554","locality":"Etziken","commune":{"key":"2518","name":"Etziken","shortName":"Etziken"},"district":{"key":"1106","name":"Bezirk Wasseramt"},"canton":{"key":"11","code":"SO","name":"Solothurn"},"status":"Real"},{"key":"10016513","name":"Industriestrasse","postalCode":"4554","locality":"Etziken","commune":{"key":"2518","name":"Etziken","shortName":"Etziken"},"district":{"key":"1106","name":"Bezirk Wasseramt"},"canton":{"key":"11","code":"SO","name":"Solothurn"},"status":"Real"},{"key":"10163394","name":"Jurastrasse","postalCode":"4554","locality":"Etziken","commune":{"key":"2518","name":"Etziken","shortName":"Etziken"},"district":{"key":"1106","name":"Bezirk Wasseramt"},"canton":{"key":"11","code":"SO","name":"Solothurn"},"status":"Real"},{"key":"10121122","name":"Luzernstrasse","postalCode":"4554","locality":"Etziken","commune":{"key":"2518","name":"Etziken","shortName":"Etziken"},"district":{"key":"1106","name":"Bezirk Wasseramt"},"canton":{"key":"11","code":"SO","name":"Solothurn"},"status":"Real"},{"key":"10016514","name":"Mettlenstrasse","postalCode":"4554","locality":"Etziken","commune":{"key":"2518","name":"Etziken","shortName":"Etziken"},"district":{"key":"1106","name":"Bezirk Wasseramt"},"canton":{"key":"11","code":"SO","name":"Solothurn"},"status":"Real"},{"key":"10051504","name":"Oberdorfstrasse","postalCode":"4554","locality":"Etziken","commune":{"key":"2518","name":"Etziken","shortName":"Etziken"},"district":{"key":"1106","name":"Bezirk Wasseramt"},"canton":{"key":"11","code":"SO","name":"Solothurn"},"status":"Real"},{"key":"10103739","name":"Postmattstrasse","postalCode":"4554","locality":"Etziken","commune":{"key":"2518","name":"Etziken","shortName":"Etziken"},"district":{"key":"1106","name":"Bezirk Wasseramt"},"canton":{"key":"11","code":"SO","name":"Solothurn"},"status":"Real"},{"key":"10197357","name":"Rainweg","postalCode":"4554","locality":"Etziken","commune":{"key":"2518","name":"Etziken","shortName":"Etziken"},"district":{"key":"1106","name":"Bezirk Wasseramt"},"canton":{"key":"11","code":"SO","name":"Solothurn"},"status":"Real"},{"key":"10238251","name":"Schmittenrain","postalCode":"4554","locality":"Etziken","commune":{"key":"2518","name":"Etziken","shortName":"Etziken"},"district":{"key":"1106","name":"Bezirk Wasseramt"},"canton":{"key":"11","code":"SO","name":"Solothurn"},"status":"Real"},{"key":"10091150","name":"Schönmattstrasse","postalCode":"4554","locality":"Etziken","commune":{"key":"2518","name":"Etziken","shortName":"Etziken"},"district":{"key":"1106","name":"Bezirk Wasseramt"},"canton":{"key":"11","code":"SO","name":"Solothurn"},"status":"Real"},{"key":"10051505","name":"Stockmattweg","postalCode":"4554","locality":"Etziken","commune":{"key":"2518","name":"Etziken","shortName":"Etziken"},"district":{"key":"1106","name":"Bezirk Wasseramt"},"canton":{"key":"11","code":"SO","name":"Solothurn"},"status":"Real"},{"key":"10016515","name":"Studackerweg","postalCode":"4554","locality":"Etziken","commune":{"key":"2518","name":"Etziken","shortName":"Etziken"},"district":{"key":"1106","name":"Bezirk Wasseramt"},"canton":{"key":"11","code":"SO","name":"Solothurn"},"status":"Real"},{"key":"10202460","name":"Subingenweg","postalCode":"4554","locality":"Etziken","commune":{"key":"2518","name":"Etziken","shortName":"Etziken"},"district":{"key":"1106","name":"Bezirk Wasseramt"},"canton":{"key":"11","code":"SO","name":"Solothurn"},"status":"Real"},{"key":"10186226","name":"Sumpfstrasse","postalCode":"4554","locality":"Etziken","commune":{"key":"2518","name":"Etziken","shortName":"Etziken"},"district":{"key":"1106","name":"Bezirk Wasseramt"},"canton":{"key":"11","code":"SO","name":"Solothurn"},"status":"Real"},{"key":"10016516","name":"Zelglistrasse","postalCode":"4554","locality":"Etziken","commune":{"key":"2518","name":"Etziken","shortName":"Etziken"},"district":{"key":"1106","name":"Bezirk Wasseramt"},"canton":{"key":"11","code":"SO","name":"Solothurn"},"status":"Real"},]