[{"key":"10101684","name":"Aettigüpfstrasse","postalCode":"5621","locality":"Zufikon","commune":{"key":"4083","name":"Zufikon","shortName":"Zufikon"},"district":{"key":"1903","name":"Bezirk Bremgarten"},"canton":{"key":"19","code":"AG","name":"Aargau"},"status":"Real"},{"key":"10045907","name":"Algierstrasse","postalCode":"5621","locality":"Zufikon","commune":{"key":"4083","name":"Zufikon","shortName":"Zufikon"},"district":{"key":"1903","name":"Bezirk Bremgarten"},"canton":{"key":"19","code":"AG","name":"Aargau"},"status":"Real"},{"key":"10031474","name":"Allmendstrasse","postalCode":"5621","locality":"Zufikon","commune":{"key":"4083","name":"Zufikon","shortName":"Zufikon"},"district":{"key":"1903","name":"Bezirk Bremgarten"},"canton":{"key":"19","code":"AG","name":"Aargau"},"status":"Real"},{"key":"10031475","name":"Allmendweg","postalCode":"5621","locality":"Zufikon","commune":{"key":"4083","name":"Zufikon","shortName":"Zufikon"},"district":{"key":"1903","name":"Bezirk Bremgarten"},"canton":{"key":"19","code":"AG","name":"Aargau"},"status":"Real"},{"key":"10198373","name":"Alter Züriweg","postalCode":"5621","locality":"Zufikon","commune":{"key":"4083","name":"Zufikon","shortName":"Zufikon"},"district":{"key":"1903","name":"Bezirk Bremgarten"},"canton":{"key":"19","code":"AG","name":"Aargau"},"status":"Real"},{"key":"10031476","name":"Bachhaldenstrasse","postalCode":"5621","locality":"Zufikon","commune":{"key":"4083","name":"Zufikon","shortName":"Zufikon"},"district":{"key":"1903","name":"Bezirk Bremgarten"},"canton":{"key":"19","code":"AG","name":"Aargau"},"status":"Real"},{"key":"10101685","name":"Bachstrasse","postalCode":"5621","locality":"Zufikon","commune":{"key":"4083","name":"Zufikon","shortName":"Zufikon"},"district":{"key":"1903","name":"Bezirk Bremgarten"},"canton":{"key":"19","code":"AG","name":"Aargau"},"status":"Real"},{"key":"10162804","name":"Belle Vue","postalCode":"5621","locality":"Zufikon","commune":{"key":"4083","name":"Zufikon","shortName":"Zufikon"},"district":{"key":"1903","name":"Bezirk Bremgarten"},"canton":{"key":"19","code":"AG","name":"Aargau"},"status":"Real"},{"key":"10063663","name":"Belvédèrestrasse","postalCode":"5621","locality":"Zufikon","commune":{"key":"4083","name":"Zufikon","shortName":"Zufikon"},"district":{"key":"1903","name":"Bezirk Bremgarten"},"canton":{"key":"19","code":"AG","name":"Aargau"},"status":"Real"},{"key":"10045909","name":"Blumenweg","postalCode":"5621","locality":"Zufikon","commune":{"key":"4083","name":"Zufikon","shortName":"Zufikon"},"district":{"key":"1903","name":"Bezirk Bremgarten"},"canton":{"key":"19","code":"AG","name":"Aargau"},"status":"Real"},{"key":"10032640","name":"Breitenstrasse","postalCode":"5621","locality":"Zufikon","commune":{"key":"4083","name":"Zufikon","shortName":"Zufikon"},"district":{"key":"1903","name":"Bezirk Bremgarten"},"canton":{"key":"19","code":"AG","name":"Aargau"},"status":"Real"},{"key":"10032641","name":"Breitenzelgstrasse","postalCode":"5621","locality":"Zufikon","commune":{"key":"4083","name":"Zufikon","shortName":"Zufikon"},"district":{"key":"1903","name":"Bezirk Bremgarten"},"canton":{"key":"19","code":"AG","name":"Aargau"},"status":"Real"},{"key":"10100694","name":"Chräenbachstrasse","postalCode":"5621","locality":"Zufikon","commune":{"key":"4083","name":"Zufikon","shortName":"Zufikon"},"district":{"key":"1903","name":"Bezirk Bremgarten"},"canton":{"key":"19","code":"AG","name":"Aargau"},"status":"Real"},{"key":"10101686","name":"Emausstrasse","postalCode":"5621","locality":"Zufikon","commune":{"key":"4083","name":"Zufikon","shortName":"Zufikon"},"district":{"key":"1903","name":"Bezirk Bremgarten"},"canton":{"key":"19","code":"AG","name":"Aargau"},"status":"Real"},{"key":"10185024","name":"Engeloostrasse","postalCode":"5621","locality":"Zufikon","commune":{"key":"4083","name":"Zufikon","shortName":"Zufikon"},"district":{"key":"1903","name":"Bezirk Bremgarten"},"canton":{"key":"19","code":"AG","name":"Aargau"},"status":"Real"},{"key":"10063664","name":"Haldenmätteli","postalCode":"5621","locality":"Zufikon","commune":{"key":"4083","name":"Zufikon","shortName":"Zufikon"},"district":{"key":"1903","name":"Bezirk Bremgarten"},"canton":{"key":"19","code":"AG","name":"Aargau"},"status":"Real"},{"key":"10032642","name":"Haldenstrasse","postalCode":"5621","locality":"Zufikon","commune":{"key":"4083","name":"Zufikon","shortName":"Zufikon"},"district":{"key":"1903","name":"Bezirk Bremgarten"},"canton":{"key":"19","code":"AG","name":"Aargau"},"status":"Real"},{"key":"10045910","name":"Hammergutstrasse","postalCode":"5621","locality":"Zufikon","commune":{"key":"4083","name":"Zufikon","shortName":"Zufikon"},"district":{"key":"1903","name":"Bezirk Bremgarten"},"canton":{"key":"19","code":"AG","name":"Aargau"},"status":"Real"},{"key":"10032643","name":"Heinrüti","postalCode":"5621","locality":"Zufikon","commune":{"key":"4083","name":"Zufikon","shortName":"Zufikon"},"district":{"key":"1903","name":"Bezirk Bremgarten"},"canton":{"key":"19","code":"AG","name":"Aargau"},"status":"Real"},{"key":"10139395","name":"Herrengasse","postalCode":"5621","locality":"Zufikon","commune":{"key":"4083","name":"Zufikon","shortName":"Zufikon"},"district":{"key":"1903","name":"Bezirk Bremgarten"},"canton":{"key":"19","code":"AG","name":"Aargau"},"status":"Real"},{"key":"10101687","name":"Hirzenmattstrasse","postalCode":"5621","locality":"Zufikon","commune":{"key":"4083","name":"Zufikon","shortName":"Zufikon"},"district":{"key":"1903","name":"Bezirk Bremgarten"},"canton":{"key":"19","code":"AG","name":"Aargau"},"status":"Real"},{"key":"10189995","name":"Hirzenweidstrasse","postalCode":"5621","locality":"Zufikon","commune":{"key":"4083","name":"Zufikon","shortName":"Zufikon"},"district":{"key":"1903","name":"Bezirk Bremgarten"},"canton":{"key":"19","code":"AG","name":"Aargau"},"status":"Real"},{"key":"10063665","name":"Ibisgutstrasse","postalCode":"5621","locality":"Zufikon","commune":{"key":"4083","name":"Zufikon","shortName":"Zufikon"},"district":{"key":"1903","name":"Bezirk Bremgarten"},"canton":{"key":"19","code":"AG","name":"Aargau"},"status":"Real"},{"key":"10045911","name":"Ifangstrasse","postalCode":"5621","locality":"Zufikon","commune":{"key":"4083","name":"Zufikon","shortName":"Zufikon"},"district":{"key":"1903","name":"Bezirk Bremgarten"},"canton":{"key":"19","code":"AG","name":"Aargau"},"status":"Real"},{"key":"10032644","name":"Im Baumgarten","postalCode":"5621","locality":"Zufikon","commune":{"key":"4083","name":"Zufikon","shortName":"Zufikon"},"district":{"key":"1903","name":"Bezirk Bremgarten"},"canton":{"key":"19","code":"AG","name":"Aargau"},"status":"Real"},{"key":"10102214","name":"Imbis","postalCode":"5621","locality":"Zufikon","commune":{"key":"4083","name":"Zufikon","shortName":"Zufikon"},"district":{"key":"1903","name":"Bezirk Bremgarten"},"canton":{"key":"19","code":"AG","name":"Aargau"},"status":"Real"},{"key":"10163318","name":"Im Güpf","postalCode":"5621","locality":"Zufikon","commune":{"key":"4083","name":"Zufikon","shortName":"Zufikon"},"district":{"key":"1903","name":"Bezirk Bremgarten"},"canton":{"key":"19","code":"AG","name":"Aargau"},"status":"Real"},{"key":"10032645","name":"Im Lee","postalCode":"5621","locality":"Zufikon","commune":{"key":"4083","name":"Zufikon","shortName":"Zufikon"},"district":{"key":"1903","name":"Bezirk Bremgarten"},"canton":{"key":"19","code":"AG","name":"Aargau"},"status":"Real"},{"key":"10101688","name":"Im Winkel","postalCode":"5621","locality":"Zufikon","commune":{"key":"4083","name":"Zufikon","shortName":"Zufikon"},"district":{"key":"1903","name":"Bezirk Bremgarten"},"canton":{"key":"19","code":"AG","name":"Aargau"},"status":"Real"},{"key":"10132164","name":"Kirchweg","postalCode":"5621","locality":"Zufikon","commune":{"key":"4083","name":"Zufikon","shortName":"Zufikon"},"district":{"key":"1903","name":"Bezirk Bremgarten"},"canton":{"key":"19","code":"AG","name":"Aargau"},"status":"Real"},{"key":"10174321","name":"Lindenpark","postalCode":"5621","locality":"Zufikon","commune":{"key":"4083","name":"Zufikon","shortName":"Zufikon"},"district":{"key":"1903","name":"Bezirk Bremgarten"},"canton":{"key":"19","code":"AG","name":"Aargau"},"status":"Real"},{"key":"10032646","name":"Maihölzlistrasse","postalCode":"5621","locality":"Zufikon","commune":{"key":"4083","name":"Zufikon","shortName":"Zufikon"},"district":{"key":"1903","name":"Bezirk Bremgarten"},"canton":{"key":"19","code":"AG","name":"Aargau"},"status":"Real"},{"key":"10192016","name":"Mutschellenstrasse","postalCode":"5621","locality":"Zufikon","commune":{"key":"4083","name":"Zufikon","shortName":"Zufikon"},"district":{"key":"1903","name":"Bezirk Bremgarten"},"canton":{"key":"19","code":"AG","name":"Aargau"},"status":"Real"},{"key":"10166407","name":"Nüescheberg","postalCode":"5621","locality":"Zufikon","commune":{"key":"4083","name":"Zufikon","shortName":"Zufikon"},"district":{"key":"1903","name":"Bezirk Bremgarten"},"canton":{"key":"19","code":"AG","name":"Aargau"},"status":"Real"},{"key":"10198225","name":"Nüeschwald","postalCode":"5621","locality":"Zufikon","commune":{"key":"4083","name":"Zufikon","shortName":"Zufikon"},"district":{"key":"1903","name":"Bezirk Bremgarten"},"canton":{"key":"19","code":"AG","name":"Aargau"},"status":"Real"},{"key":"10101689","name":"Oberdorfstrasse","postalCode":"5621","locality":"Zufikon","commune":{"key":"4083","name":"Zufikon","shortName":"Zufikon"},"district":{"key":"1903","name":"Bezirk Bremgarten"},"canton":{"key":"19","code":"AG","name":"Aargau"},"status":"Real"},{"key":"10114300","name":"Pilatusweg","postalCode":"5621","locality":"Zufikon","commune":{"key":"4083","name":"Zufikon","shortName":"Zufikon"},"district":{"key":"1903","name":"Bezirk Bremgarten"},"canton":{"key":"19","code":"AG","name":"Aargau"},"status":"Real"},{"key":"10032647","name":"Raamattenstrasse","postalCode":"5621","locality":"Zufikon","commune":{"key":"4083","name":"Zufikon","shortName":"Zufikon"},"district":{"key":"1903","name":"Bezirk Bremgarten"},"canton":{"key":"19","code":"AG","name":"Aargau"},"status":"Real"},{"key":"10045912","name":"Rebbergstrasse","postalCode":"5621","locality":"Zufikon","commune":{"key":"4083","name":"Zufikon","shortName":"Zufikon"},"district":{"key":"1903","name":"Bezirk Bremgarten"},"canton":{"key":"19","code":"AG","name":"Aargau"},"status":"Real"},{"key":"10139396","name":"Rebenweg","postalCode":"5621","locality":"Zufikon","commune":{"key":"4083","name":"Zufikon","shortName":"Zufikon"},"district":{"key":"1903","name":"Bezirk Bremgarten"},"canton":{"key":"19","code":"AG","name":"Aargau"},"status":"Real"},{"key":"10063666","name":"Reussblickstrasse","postalCode":"5621","locality":"Zufikon","commune":{"key":"4083","name":"Zufikon","shortName":"Zufikon"},"district":{"key":"1903","name":"Bezirk Bremgarten"},"canton":{"key":"19","code":"AG","name":"Aargau"},"status":"Real"},{"key":"10236152","name":"Rigiblick","postalCode":"5621","locality":"Zufikon","commune":{"key":"4083","name":"Zufikon","shortName":"Zufikon"},"district":{"key":"1903","name":"Bezirk Bremgarten"},"canton":{"key":"19","code":"AG","name":"Aargau"},"status":"Real"},{"key":"10185025","name":"Rigistrasse","postalCode":"5621","locality":"Zufikon","commune":{"key":"4083","name":"Zufikon","shortName":"Zufikon"},"district":{"key":"1903","name":"Bezirk Bremgarten"},"canton":{"key":"19","code":"AG","name":"Aargau"},"status":"Real"},{"key":"10100695","name":"Rosenweg","postalCode":"5621","locality":"Zufikon","commune":{"key":"4083","name":"Zufikon","shortName":"Zufikon"},"district":{"key":"1903","name":"Bezirk Bremgarten"},"canton":{"key":"19","code":"AG","name":"Aargau"},"status":"Real"},{"key":"10101690","name":"Rosmattstrasse","postalCode":"5621","locality":"Zufikon","commune":{"key":"4083","name":"Zufikon","shortName":"Zufikon"},"district":{"key":"1903","name":"Bezirk Bremgarten"},"canton":{"key":"19","code":"AG","name":"Aargau"},"status":"Real"},{"key":"10045913","name":"Rossägertenweg","postalCode":"5621","locality":"Zufikon","commune":{"key":"4083","name":"Zufikon","shortName":"Zufikon"},"district":{"key":"1903","name":"Bezirk Bremgarten"},"canton":{"key":"19","code":"AG","name":"Aargau"},"status":"Real"},{"key":"10124751","name":"Rossweidstrasse","postalCode":"5621","locality":"Zufikon","commune":{"key":"4083","name":"Zufikon","shortName":"Zufikon"},"district":{"key":"1903","name":"Bezirk Bremgarten"},"canton":{"key":"19","code":"AG","name":"Aargau"},"status":"Real"},{"key":"10139397","name":"Sädelstrasse","postalCode":"5621","locality":"Zufikon","commune":{"key":"4083","name":"Zufikon","shortName":"Zufikon"},"district":{"key":"1903","name":"Bezirk Bremgarten"},"canton":{"key":"19","code":"AG","name":"Aargau"},"status":"Real"},{"key":"10032648","name":"Schlossbergstrasse","postalCode":"5621","locality":"Zufikon","commune":{"key":"4083","name":"Zufikon","shortName":"Zufikon"},"district":{"key":"1903","name":"Bezirk Bremgarten"},"canton":{"key":"19","code":"AG","name":"Aargau"},"status":"Real"},{"key":"10101691","name":"Schlossmatt","postalCode":"5621","locality":"Zufikon","commune":{"key":"4083","name":"Zufikon","shortName":"Zufikon"},"district":{"key":"1903","name":"Bezirk Bremgarten"},"canton":{"key":"19","code":"AG","name":"Aargau"},"status":"Real"},{"key":"10063667","name":"Schulstrasse","postalCode":"5621","locality":"Zufikon","commune":{"key":"4083","name":"Zufikon","shortName":"Zufikon"},"district":{"key":"1903","name":"Bezirk Bremgarten"},"canton":{"key":"19","code":"AG","name":"Aargau"},"status":"Real"},{"key":"10032649","name":"Schürmattstrasse","postalCode":"5621","locality":"Zufikon","commune":{"key":"4083","name":"Zufikon","shortName":"Zufikon"},"district":{"key":"1903","name":"Bezirk Bremgarten"},"canton":{"key":"19","code":"AG","name":"Aargau"},"status":"Real"},{"key":"10186855","name":"Sentenstrasse","postalCode":"5621","locality":"Zufikon","commune":{"key":"4083","name":"Zufikon","shortName":"Zufikon"},"district":{"key":"1903","name":"Bezirk Bremgarten"},"canton":{"key":"19","code":"AG","name":"Aargau"},"status":"Real"},{"key":"10032650","name":"Sonnenbergstrasse","postalCode":"5621","locality":"Zufikon","commune":{"key":"4083","name":"Zufikon","shortName":"Zufikon"},"district":{"key":"1903","name":"Bezirk Bremgarten"},"canton":{"key":"19","code":"AG","name":"Aargau"},"status":"Real"},{"key":"10157626","name":"Sonnenhofstrasse","postalCode":"5621","locality":"Zufikon","commune":{"key":"4083","name":"Zufikon","shortName":"Zufikon"},"district":{"key":"1903","name":"Bezirk Bremgarten"},"canton":{"key":"19","code":"AG","name":"Aargau"},"status":"Real"},{"key":"10157633","name":"Sonnenstrasse","postalCode":"5621","locality":"Zufikon","commune":{"key":"4083","name":"Zufikon","shortName":"Zufikon"},"district":{"key":"1903","name":"Bezirk Bremgarten"},"canton":{"key":"19","code":"AG","name":"Aargau"},"status":"Real"},{"key":"10101692","name":"Spilweg","postalCode":"5621","locality":"Zufikon","commune":{"key":"4083","name":"Zufikon","shortName":"Zufikon"},"district":{"key":"1903","name":"Bezirk Bremgarten"},"canton":{"key":"19","code":"AG","name":"Aargau"},"status":"Real"},{"key":"10045914","name":"Stegenmättliweg","postalCode":"5621","locality":"Zufikon","commune":{"key":"4083","name":"Zufikon","shortName":"Zufikon"},"district":{"key":"1903","name":"Bezirk Bremgarten"},"canton":{"key":"19","code":"AG","name":"Aargau"},"status":"Real"},{"key":"10032651","name":"Stiefelstrasse","postalCode":"5621","locality":"Zufikon","commune":{"key":"4083","name":"Zufikon","shortName":"Zufikon"},"district":{"key":"1903","name":"Bezirk Bremgarten"},"canton":{"key":"19","code":"AG","name":"Aargau"},"status":"Real"},{"key":"10063668","name":"Stiegelen","postalCode":"5621","locality":"Zufikon","commune":{"key":"4083","name":"Zufikon","shortName":"Zufikon"},"district":{"key":"1903","name":"Bezirk Bremgarten"},"canton":{"key":"19","code":"AG","name":"Aargau"},"status":"Real"},{"key":"10158942","name":"Storenächer","postalCode":"5621","locality":"Zufikon","commune":{"key":"4083","name":"Zufikon","shortName":"Zufikon"},"district":{"key":"1903","name":"Bezirk Bremgarten"},"canton":{"key":"19","code":"AG","name":"Aargau"},"status":"Real"},{"key":"10032652","name":"Unterdorfstrasse","postalCode":"5621","locality":"Zufikon","commune":{"key":"4083","name":"Zufikon","shortName":"Zufikon"},"district":{"key":"1903","name":"Bezirk Bremgarten"},"canton":{"key":"19","code":"AG","name":"Aargau"},"status":"Real"},{"key":"10101693","name":"Waldmeisterweg","postalCode":"5621","locality":"Zufikon","commune":{"key":"4083","name":"Zufikon","shortName":"Zufikon"},"district":{"key":"1903","name":"Bezirk Bremgarten"},"canton":{"key":"19","code":"AG","name":"Aargau"},"status":"Real"},{"key":"10188164","name":"Weidstrasse","postalCode":"5621","locality":"Zufikon","commune":{"key":"4083","name":"Zufikon","shortName":"Zufikon"},"district":{"key":"1903","name":"Bezirk Bremgarten"},"canton":{"key":"19","code":"AG","name":"Aargau"},"status":"Real"},{"key":"10105018","name":"Wygarten","postalCode":"5621","locality":"Zufikon","commune":{"key":"4083","name":"Zufikon","shortName":"Zufikon"},"district":{"key":"1903","name":"Bezirk Bremgarten"},"canton":{"key":"19","code":"AG","name":"Aargau"},"status":"Real"},{"key":"10185026","name":"Zugerstrasse","postalCode":"5621","locality":"Zufikon","commune":{"key":"4083","name":"Zufikon","shortName":"Zufikon"},"district":{"key":"1903","name":"Bezirk Bremgarten"},"canton":{"key":"19","code":"AG","name":"Aargau"},"status":"Real"},]