[{"name":"Aberzhausen","postalCode":"91180","locality":"Heideck","municipality":{"key":"09576126","name":"Heideck, St","type":"Stadt"},"district":{"key":"09576","name":"Roth","type":"Landkreis"},"federalState":{"key":"09","name":"Bayern"}},{"name":"Alleestr.","postalCode":"91180","locality":"Heideck","municipality":{"key":"09576126","name":"Heideck, St","type":"Stadt"},"district":{"key":"09576","name":"Roth","type":"Landkreis"},"federalState":{"key":"09","name":"Bayern"}},{"name":"Altenheideck","postalCode":"91180","locality":"Heideck","municipality":{"key":"09576126","name":"Heideck, St","type":"Stadt"},"district":{"key":"09576","name":"Roth","type":"Landkreis"},"federalState":{"key":"09","name":"Bayern"}},{"name":"Am Berg","postalCode":"91180","locality":"Heideck","municipality":{"key":"09576126","name":"Heideck, St","type":"Stadt"},"district":{"key":"09576","name":"Roth","type":"Landkreis"},"federalState":{"key":"09","name":"Bayern"}},{"name":"Am Herrenwald","postalCode":"91180","locality":"Heideck","municipality":{"key":"09576126","name":"Heideck, St","type":"Stadt"},"district":{"key":"09576","name":"Roth","type":"Landkreis"},"federalState":{"key":"09","name":"Bayern"}},{"name":"Am Herrenweiher","postalCode":"91180","locality":"Heideck","municipality":{"key":"09576126","name":"Heideck, St","type":"Stadt"},"district":{"key":"09576","name":"Roth","type":"Landkreis"},"federalState":{"key":"09","name":"Bayern"}},{"name":"Am Höfener Weiher","postalCode":"91180","locality":"Heideck","municipality":{"key":"09576126","name":"Heideck, St","type":"Stadt"},"district":{"key":"09576","name":"Roth","type":"Landkreis"},"federalState":{"key":"09","name":"Bayern"}},{"name":"Am Langen Hardt","postalCode":"91180","locality":"Heideck","municipality":{"key":"09576126","name":"Heideck, St","type":"Stadt"},"district":{"key":"09576","name":"Roth","type":"Landkreis"},"federalState":{"key":"09","name":"Bayern"}},{"name":"Am Offenbrunn","postalCode":"91180","locality":"Heideck","municipality":{"key":"09576126","name":"Heideck, St","type":"Stadt"},"district":{"key":"09576","name":"Roth","type":"Landkreis"},"federalState":{"key":"09","name":"Bayern"}},{"name":"Am Siechenbach","postalCode":"91180","locality":"Heideck","municipality":{"key":"09576126","name":"Heideck, St","type":"Stadt"},"district":{"key":"09576","name":"Roth","type":"Landkreis"},"federalState":{"key":"09","name":"Bayern"}},{"name":"Am Stadtgraben","postalCode":"91180","locality":"Heideck","municipality":{"key":"09576126","name":"Heideck, St","type":"Stadt"},"district":{"key":"09576","name":"Roth","type":"Landkreis"},"federalState":{"key":"09","name":"Bayern"}},{"name":"Am Weinberg","postalCode":"91180","locality":"Heideck","municipality":{"key":"09576126","name":"Heideck, St","type":"Stadt"},"district":{"key":"09576","name":"Roth","type":"Landkreis"},"federalState":{"key":"09","name":"Bayern"}},{"name":"An der Gredl","postalCode":"91180","locality":"Heideck","municipality":{"key":"09576126","name":"Heideck, St","type":"Stadt"},"district":{"key":"09576","name":"Roth","type":"Landkreis"},"federalState":{"key":"09","name":"Bayern"}},{"name":"An der Kapell","postalCode":"91180","locality":"Heideck","municipality":{"key":"09576126","name":"Heideck, St","type":"Stadt"},"district":{"key":"09576","name":"Roth","type":"Landkreis"},"federalState":{"key":"09","name":"Bayern"}},{"name":"Bachiweg","postalCode":"91180","locality":"Heideck","municipality":{"key":"09576126","name":"Heideck, St","type":"Stadt"},"district":{"key":"09576","name":"Roth","type":"Landkreis"},"federalState":{"key":"09","name":"Bayern"}},{"name":"Bahnhofstr.","postalCode":"91180","locality":"Heideck","municipality":{"key":"09576126","name":"Heideck, St","type":"Stadt"},"district":{"key":"09576","name":"Roth","type":"Landkreis"},"federalState":{"key":"09","name":"Bayern"}},{"name":"Bierweg","postalCode":"91180","locality":"Heideck","municipality":{"key":"09576126","name":"Heideck, St","type":"Stadt"},"district":{"key":"09576","name":"Roth","type":"Landkreis"},"federalState":{"key":"09","name":"Bayern"}},{"name":"Birkenstr.","postalCode":"91180","locality":"Heideck","municipality":{"key":"09576126","name":"Heideck, St","type":"Stadt"},"district":{"key":"09576","name":"Roth","type":"Landkreis"},"federalState":{"key":"09","name":"Bayern"}},{"name":"Bogenstr.","postalCode":"91180","locality":"Heideck","municipality":{"key":"09576126","name":"Heideck, St","type":"Stadt"},"district":{"key":"09576","name":"Roth","type":"Landkreis"},"federalState":{"key":"09","name":"Bayern"}},{"name":"Brauhausgasse","postalCode":"91180","locality":"Heideck","municipality":{"key":"09576126","name":"Heideck, St","type":"Stadt"},"district":{"key":"09576","name":"Roth","type":"Landkreis"},"federalState":{"key":"09","name":"Bayern"}},{"name":"Buchenstr.","postalCode":"91180","locality":"Heideck","municipality":{"key":"09576126","name":"Heideck, St","type":"Stadt"},"district":{"key":"09576","name":"Roth","type":"Landkreis"},"federalState":{"key":"09","name":"Bayern"}},{"name":"Carl-Benz-Str.","postalCode":"89284","locality":"Pfaffenhofen an der Roth","municipality":{"key":"09775143","name":"Pfaffenhofen a.d.Roth, M","type":"Markt"},"district":{"key":"09775","name":"Neu-Ulm","type":"Landkreis"},"federalState":{"key":"09","name":"Bayern"}},{"name":"Clausenburgstr.","postalCode":"57578","locality":"Elkenroth","municipality":{"key":"07132025","name":"Elkenroth","type":"Kreisangehörige_Gemeinde"},"district":{"key":"07132","name":"Altenkirchen (Westerwald)","type":"Landkreis"},"federalState":{"key":"07","name":"Rheinland-Pfalz"}},{"name":"Conrad-Eberhard-Str.","postalCode":"91541","locality":"Rothenburg ob der Tauber","municipality":{"key":"09571193","name":"Rothenburg ob der Tauber, GKSt","type":"Große_Kreisstadt"},"district":{"key":"09571","name":"Ansbach","type":"Landkreis"},"federalState":{"key":"09","name":"Bayern"}},{"name":"Creglinger Str.","postalCode":"91541","locality":"Rothenburg ob der Tauber","municipality":{"key":"09571193","name":"Rothenburg ob der Tauber, GKSt","type":"Große_Kreisstadt"},"district":{"key":"09571","name":"Ansbach","type":"Landkreis"},"federalState":{"key":"09","name":"Bayern"}},{"name":"Cristalstr.","postalCode":"97705","locality":"Burkardroth","municipality":{"key":"09672117","name":"Burkardroth, M","type":"Markt"},"district":{"key":"09672","name":"Bad Kissingen","type":"Landkreis"},"federalState":{"key":"09","name":"Bayern"}},{"name":"Dachsweg","postalCode":"91154","locality":"Roth","municipality":{"key":"09576143","name":"Roth, St","type":"Stadt"},"district":{"key":"09576","name":"Roth","type":"Landkreis"},"federalState":{"key":"09","name":"Bayern"}},{"name":"Dahlienstr.","postalCode":"91154","locality":"Roth","municipality":{"key":"09576143","name":"Roth, St","type":"Stadt"},"district":{"key":"09576","name":"Roth","type":"Landkreis"},"federalState":{"key":"09","name":"Bayern"}},{"name":"Dammstr.","postalCode":"57539","locality":"Roth","municipality":{"key":"07132096","name":"Roth","type":"Kreisangehörige_Gemeinde"},"district":{"key":"07132","name":"Altenkirchen (Westerwald)","type":"Landkreis"},"federalState":{"key":"07","name":"Rheinland-Pfalz"}},{"name":"Dammstr.","postalCode":"57583","locality":"Nauroth","municipality":{"key":"07132073","name":"Nauroth","type":"Kreisangehörige_Gemeinde"},"district":{"key":"07132","name":"Altenkirchen (Westerwald)","type":"Landkreis"},"federalState":{"key":"07","name":"Rheinland-Pfalz"}},{"name":"Danziger Str.","postalCode":"56412","locality":"Heiligenroth","municipality":{"key":"07143027","name":"Heiligenroth","type":"Kreisangehörige_Gemeinde"},"district":{"key":"07143","name":"Westerwaldkreis","type":"Landkreis"},"federalState":{"key":"07","name":"Rheinland-Pfalz"}},{"name":"Danziger Str.","postalCode":"89284","locality":"Pfaffenhofen an der Roth","municipality":{"key":"09775143","name":"Pfaffenhofen a.d.Roth, M","type":"Markt"},"district":{"key":"09775","name":"Neu-Ulm","type":"Landkreis"},"federalState":{"key":"09","name":"Bayern"}},{"name":"Dasbergstr.","postalCode":"57584","locality":"Wallmenroth","municipality":{"key":"07132111","name":"Wallmenroth","type":"Kreisangehörige_Gemeinde"},"district":{"key":"07132","name":"Altenkirchen (Westerwald)","type":"Landkreis"},"federalState":{"key":"07","name":"Rheinland-Pfalz"}},{"name":"Daßdorfweg","postalCode":"91541","locality":"Rothenburg ob der Tauber","municipality":{"key":"09571193","name":"Rothenburg ob der Tauber, GKSt","type":"Große_Kreisstadt"},"district":{"key":"09571","name":"Ansbach","type":"Landkreis"},"federalState":{"key":"09","name":"Bayern"}},{"name":"Dauersberger Str.","postalCode":"57518","locality":"Steineroth","municipality":{"key":"07132108","name":"Steineroth","type":"Kreisangehörige_Gemeinde"},"district":{"key":"07132","name":"Altenkirchen (Westerwald)","type":"Landkreis"},"federalState":{"key":"07","name":"Rheinland-Pfalz"}},{"name":"Daxweilerweg","postalCode":"55442","locality":"Warmsroth","municipality":{"key":"07133110","name":"Warmsroth","type":"Kreisangehörige_Gemeinde"},"district":{"key":"07133","name":"Bad Kreuznach","type":"Landkreis"},"federalState":{"key":"07","name":"Rheinland-Pfalz"}},{"name":"Dekan-Keck-Str.","postalCode":"94356","locality":"Kirchroth","municipality":{"key":"09278141","name":"Kirchroth","type":"Kreisangehörige_Gemeinde"},"district":{"key":"09278","name":"Straubing-Bogen","type":"Landkreis"},"federalState":{"key":"09","name":"Bayern"}},{"name":"Dekan-Seitz-Str.","postalCode":"94356","locality":"Kirchroth","municipality":{"key":"09278141","name":"Kirchroth","type":"Kreisangehörige_Gemeinde"},"district":{"key":"09278","name":"Straubing-Bogen","type":"Landkreis"},"federalState":{"key":"09","name":"Bayern"}},{"name":"Delsbüscher Weg","postalCode":"54675","locality":"Roth an der Our","municipality":{"key":"07232112","name":"Roth an der Our","type":"Kreisangehörige_Gemeinde"},"district":{"key":"07232","name":"Eifelkreis Bitburg-Prüm","type":"Landkreis"},"federalState":{"key":"07","name":"Rheinland-Pfalz"}},{"name":"Derenbach","postalCode":"53809","locality":"Ruppichteroth","municipality":{"key":"05382052","name":"Ruppichteroth","type":"Kreisangehörige_Gemeinde"},"district":{"key":"05382","name":"Rhein-Sieg-Kreis","type":"Kreis"},"federalState":{"key":"05","name":"Nordrhein-Westfalen"}},{"name":"Deutschherrngasse","postalCode":"91541","locality":"Rothenburg ob der Tauber","municipality":{"key":"09571193","name":"Rothenburg ob der Tauber, GKSt","type":"Große_Kreisstadt"},"district":{"key":"09571","name":"Ansbach","type":"Landkreis"},"federalState":{"key":"09","name":"Bayern"}},{"name":"Diebacher Str.","postalCode":"97797","locality":"Wartmannsroth","municipality":{"key":"09672161","name":"Wartmannsroth","type":"Kreisangehörige_Gemeinde"},"district":{"key":"09672","name":"Bad Kissingen","type":"Landkreis"},"federalState":{"key":"09","name":"Bayern"}},{"name":"Diepertshofener Str.","postalCode":"89284","locality":"Pfaffenhofen an der Roth","municipality":{"key":"09775143","name":"Pfaffenhofen a.d.Roth, M","type":"Markt"},"district":{"key":"09775","name":"Neu-Ulm","type":"Landkreis"},"federalState":{"key":"09","name":"Bayern"}},{"name":"Dieselstr.","postalCode":"91154","locality":"Roth","municipality":{"key":"09576143","name":"Roth, St","type":"Stadt"},"district":{"key":"09576","name":"Roth","type":"Landkreis"},"federalState":{"key":"09","name":"Bayern"}},{"name":"Dieselstr.","postalCode":"91541","locality":"Rothenburg ob der Tauber","municipality":{"key":"09571193","name":"Rothenburg ob der Tauber, GKSt","type":"Große_Kreisstadt"},"district":{"key":"09571","name":"Ansbach","type":"Landkreis"},"federalState":{"key":"09","name":"Bayern"}},{"name":"Diezer Str.","postalCode":"56414","locality":"Weroth","municipality":{"key":"07143080","name":"Weroth","type":"Kreisangehörige_Gemeinde"},"district":{"key":"07143","name":"Westerwaldkreis","type":"Landkreis"},"federalState":{"key":"07","name":"Rheinland-Pfalz"}},{"name":"Dillenburger Str.","postalCode":"56459","locality":"Rothenbach","municipality":{"key":"07143289","name":"Rothenbach","type":"Kreisangehörige_Gemeinde"},"district":{"key":"07143","name":"Westerwaldkreis","type":"Landkreis"},"federalState":{"key":"07","name":"Rheinland-Pfalz"}},{"name":"Dinkelsbühler Str.","postalCode":"91541","locality":"Rothenburg ob der Tauber","municipality":{"key":"09571193","name":"Rothenburg ob der Tauber, GKSt","type":"Große_Kreisstadt"},"district":{"key":"09571","name":"Ansbach","type":"Landkreis"},"federalState":{"key":"09","name":"Bayern"}},{"name":"Doktor-Carl-Brand-Str.","postalCode":"63860","locality":"Rothenbuch","municipality":{"key":"09671148","name":"Rothenbuch","type":"Kreisangehörige_Gemeinde"},"district":{"key":"09671","name":"Aschaffenburg","type":"Landkreis"},"federalState":{"key":"09","name":"Bayern"}},{"name":"Donaugasse","postalCode":"94356","locality":"Kirchroth","municipality":{"key":"09278141","name":"Kirchroth","type":"Kreisangehörige_Gemeinde"},"district":{"key":"09278","name":"Straubing-Bogen","type":"Landkreis"},"federalState":{"key":"09","name":"Bayern"}},{"name":"Donnergarten","postalCode":"53809","locality":"Ruppichteroth","municipality":{"key":"05382052","name":"Ruppichteroth","type":"Kreisangehörige_Gemeinde"},"district":{"key":"05382","name":"Rhein-Sieg-Kreis","type":"Kreis"},"federalState":{"key":"05","name":"Nordrhein-Westfalen"}},{"name":"Dorfkessel","postalCode":"91154","locality":"Roth","municipality":{"key":"09576143","name":"Roth, St","type":"Stadt"},"district":{"key":"09576","name":"Roth","type":"Landkreis"},"federalState":{"key":"09","name":"Bayern"}},{"name":"Dorfplatz","postalCode":"67753","locality":"Rothselberg","municipality":{"key":"07336087","name":"Rothselberg","type":"Kreisangehörige_Gemeinde"},"district":{"key":"07336","name":"Kusel","type":"Landkreis"},"federalState":{"key":"07","name":"Rheinland-Pfalz"}},{"name":"Dorfstr.","postalCode":"02929","locality":"Rothenburg/O.L.","municipality":{"key":"14626480","name":"Rothenburg/O.L., Stadt","type":"Stadt"},"district":{"key":"14626","name":"Görlitz","type":"Landkreis"},"federalState":{"key":"14","name":"Sachsen"}},{"name":"Dorfstr.","postalCode":"17321","locality":"Rothenklempenow","municipality":{"key":"13075119","name":"Rothenklempenow","type":"Kreisangehörige_Gemeinde"},"district":{"key":"13075","name":"Vorpommern-Greifswald","type":"Landkreis"},"federalState":{"key":"13","name":"Mecklenburg-Vorpommern"}},{"name":"Dorfstr.","postalCode":"17379","locality":"Rothemühl","municipality":{"key":"13075118","name":"Rothemühl","type":"Kreisangehörige_Gemeinde"},"district":{"key":"13075","name":"Vorpommern-Greifswald","type":"Landkreis"},"federalState":{"key":"13","name":"Mecklenburg-Vorpommern"}},{"name":"Dorfstr.","postalCode":"53809","locality":"Ruppichteroth","municipality":{"key":"05382052","name":"Ruppichteroth","type":"Kreisangehörige_Gemeinde"},"district":{"key":"05382","name":"Rhein-Sieg-Kreis","type":"Kreis"},"federalState":{"key":"05","name":"Nordrhein-Westfalen"}},{"name":"Dorfstr.","postalCode":"54597","locality":"Roth bei Prüm","municipality":{"key":"07232302","name":"Roth bei Prüm","type":"Kreisangehörige_Gemeinde"},"district":{"key":"07232","name":"Eifelkreis Bitburg-Prüm","type":"Landkreis"},"federalState":{"key":"07","name":"Rheinland-Pfalz"}},{"name":"Dorfstr.","postalCode":"56288","locality":"Roth","municipality":{"key":"07140131","name":"Roth","type":"Kreisangehörige_Gemeinde"},"district":{"key":"07140","name":"Rhein-Hunsrück-Kreis","type":"Landkreis"},"federalState":{"key":"07","name":"Rheinland-Pfalz"}},{"name":"Dorfstr.","postalCode":"56589","locality":"Datzeroth","municipality":{"key":"07138010","name":"Datzeroth","type":"Kreisangehörige_Gemeinde"},"district":{"key":"07138","name":"Neuwied","type":"Landkreis"},"federalState":{"key":"07","name":"Rheinland-Pfalz"}},{"name":"Dorfstr.","postalCode":"56594","locality":"Willroth","municipality":{"key":"07132116","name":"Willroth","type":"Kreisangehörige_Gemeinde"},"district":{"key":"07132","name":"Altenkirchen (Westerwald)","type":"Landkreis"},"federalState":{"key":"07","name":"Rheinland-Pfalz"}},{"name":"Dorfstr.","postalCode":"57584","locality":"Wallmenroth","municipality":{"key":"07132111","name":"Wallmenroth","type":"Kreisangehörige_Gemeinde"},"district":{"key":"07132","name":"Altenkirchen (Westerwald)","type":"Landkreis"},"federalState":{"key":"07","name":"Rheinland-Pfalz"}},{"name":"Dörgen","postalCode":"53809","locality":"Ruppichteroth","municipality":{"key":"05382052","name":"Ruppichteroth","type":"Kreisangehörige_Gemeinde"},"district":{"key":"05382","name":"Rhein-Sieg-Kreis","type":"Kreis"},"federalState":{"key":"05","name":"Nordrhein-Westfalen"}},{"name":"Dorotheenwalde","postalCode":"17321","locality":"Rothenklempenow","municipality":{"key":"13075119","name":"Rothenklempenow","type":"Kreisangehörige_Gemeinde"},"district":{"key":"13075","name":"Vorpommern-Greifswald","type":"Landkreis"},"federalState":{"key":"13","name":"Mecklenburg-Vorpommern"}},{"name":"Dransfelder Str.","postalCode":"02929","locality":"Rothenburg/O.L.","municipality":{"key":"14626480","name":"Rothenburg/O.L., Stadt","type":"Stadt"},"district":{"key":"14626","name":"Görlitz","type":"Landkreis"},"federalState":{"key":"14","name":"Sachsen"}},{"name":"Dr.-Bühler-Str.","postalCode":"91541","locality":"Rothenburg ob der Tauber","municipality":{"key":"09571193","name":"Rothenburg ob der Tauber, GKSt","type":"Große_Kreisstadt"},"district":{"key":"09571","name":"Ansbach","type":"Landkreis"},"federalState":{"key":"09","name":"Bayern"}},{"name":"Dresdener Str.","postalCode":"56412","locality":"Heiligenroth","municipality":{"key":"07143027","name":"Heiligenroth","type":"Kreisangehörige_Gemeinde"},"district":{"key":"07143","name":"Westerwaldkreis","type":"Landkreis"},"federalState":{"key":"07","name":"Rheinland-Pfalz"}},{"name":"Dr.-Herzfeld-Str.","postalCode":"53809","locality":"Ruppichteroth","municipality":{"key":"05382052","name":"Ruppichteroth","type":"Kreisangehörige_Gemeinde"},"district":{"key":"05382","name":"Rhein-Sieg-Kreis","type":"Kreis"},"federalState":{"key":"05","name":"Nordrhein-Westfalen"}},{"name":"Dr.-Matzke-Str.","postalCode":"89284","locality":"Pfaffenhofen an der Roth","municipality":{"key":"09775143","name":"Pfaffenhofen a.d.Roth, M","type":"Markt"},"district":{"key":"09775","name":"Neu-Ulm","type":"Landkreis"},"federalState":{"key":"09","name":"Bayern"}},{"name":"Drosselweg","postalCode":"49214","locality":"Bad Rothenfelde","municipality":{"key":"03459006","name":"Bad Rothenfelde","type":"Kreisangehörige_Gemeinde"},"district":{"key":"03459","name":"Osnabrück","type":"Landkreis"},"federalState":{"key":"03","name":"Niedersachsen"}},{"name":"Drosselweg","postalCode":"57539","locality":"Roth","municipality":{"key":"07132096","name":"Roth","type":"Kreisangehörige_Gemeinde"},"district":{"key":"07132","name":"Altenkirchen (Westerwald)","type":"Landkreis"},"federalState":{"key":"07","name":"Rheinland-Pfalz"}},{"name":"Drosselweg","postalCode":"57578","locality":"Elkenroth","municipality":{"key":"07132025","name":"Elkenroth","type":"Kreisangehörige_Gemeinde"},"district":{"key":"07132","name":"Altenkirchen (Westerwald)","type":"Landkreis"},"federalState":{"key":"07","name":"Rheinland-Pfalz"}},{"name":"Drosselweg","postalCode":"89299","locality":"Unterroth","municipality":{"key":"09775161","name":"Unterroth","type":"Kreisangehörige_Gemeinde"},"district":{"key":"09775","name":"Neu-Ulm","type":"Landkreis"},"federalState":{"key":"09","name":"Bayern"}},{"name":"Dr.-Pfotel-Str.","postalCode":"91154","locality":"Roth","municipality":{"key":"09576143","name":"Roth, St","type":"Stadt"},"district":{"key":"09576","name":"Roth","type":"Landkreis"},"federalState":{"key":"09","name":"Bayern"}},{"name":"Dr.-Striegler-Str.","postalCode":"07751","locality":"Rothenstein","municipality":{"key":"16074079","name":"Rothenstein","type":"Kreisangehörige_Gemeinde"},"district":{"key":"16074","name":"Saale-Holzland-Kreis","type":"Landkreis"},"federalState":{"key":"16","name":"Thüringen"}},{"name":"Dunkelhäuser","postalCode":"02929","locality":"Rothenburg/O.L.","municipality":{"key":"14626480","name":"Rothenburg/O.L., Stadt","type":"Stadt"},"district":{"key":"14626","name":"Görlitz","type":"Landkreis"},"federalState":{"key":"14","name":"Sachsen"}},{"name":"Eichenstr.","postalCode":"91180","locality":"Heideck","municipality":{"key":"09576126","name":"Heideck, St","type":"Stadt"},"district":{"key":"09576","name":"Roth","type":"Landkreis"},"federalState":{"key":"09","name":"Bayern"}},{"name":"Erlenstr.","postalCode":"91180","locality":"Heideck","municipality":{"key":"09576126","name":"Heideck, St","type":"Stadt"},"district":{"key":"09576","name":"Roth","type":"Landkreis"},"federalState":{"key":"09","name":"Bayern"}},{"name":"Ernst-Riemer-Str.","postalCode":"91180","locality":"Heideck","municipality":{"key":"09576126","name":"Heideck, St","type":"Stadt"},"district":{"key":"09576","name":"Roth","type":"Landkreis"},"federalState":{"key":"09","name":"Bayern"}},{"name":"Fichtenmühler Str.","postalCode":"91180","locality":"Heideck","municipality":{"key":"09576126","name":"Heideck, St","type":"Stadt"},"district":{"key":"09576","name":"Roth","type":"Landkreis"},"federalState":{"key":"09","name":"Bayern"}},{"name":"Fichtenstr.","postalCode":"91180","locality":"Heideck","municipality":{"key":"09576126","name":"Heideck, St","type":"Stadt"},"district":{"key":"09576","name":"Roth","type":"Landkreis"},"federalState":{"key":"09","name":"Bayern"}},{"name":"Frankenstr.","postalCode":"91180","locality":"Heideck","municipality":{"key":"09576126","name":"Heideck, St","type":"Stadt"},"district":{"key":"09576","name":"Roth","type":"Landkreis"},"federalState":{"key":"09","name":"Bayern"}},{"name":"Fuchsmühlenweg","postalCode":"91180","locality":"Heideck","municipality":{"key":"09576126","name":"Heideck, St","type":"Stadt"},"district":{"key":"09576","name":"Roth","type":"Landkreis"},"federalState":{"key":"09","name":"Bayern"}},{"name":"Fürst-Otto-Str.","postalCode":"91180","locality":"Heideck","municipality":{"key":"09576126","name":"Heideck, St","type":"Stadt"},"district":{"key":"09576","name":"Roth","type":"Landkreis"},"federalState":{"key":"09","name":"Bayern"}},{"name":"Galgengasse","postalCode":"91541","locality":"Rothenburg ob der Tauber","municipality":{"key":"09571193","name":"Rothenburg ob der Tauber, GKSt","type":"Große_Kreisstadt"},"district":{"key":"09571","name":"Ansbach","type":"Landkreis"},"federalState":{"key":"09","name":"Bayern"}},{"name":"Gangelsbergblick","postalCode":"55585","locality":"Duchroth","municipality":{"key":"07133027","name":"Duchroth","type":"Kreisangehörige_Gemeinde"},"district":{"key":"07133","name":"Bad Kreuznach","type":"Landkreis"},"federalState":{"key":"07","name":"Rheinland-Pfalz"}},{"name":"Gardestr.","postalCode":"91614","locality":"Mönchsroth","municipality":{"key":"09571179","name":"Mönchsroth","type":"Kreisangehörige_Gemeinde"},"district":{"key":"09571","name":"Ansbach","type":"Landkreis"},"federalState":{"key":"09","name":"Bayern"}},{"name":"Gartenfeldstr.","postalCode":"56370","locality":"Reckenroth","municipality":{"key":"07141113","name":"Reckenroth","type":"Kreisangehörige_Gemeinde"},"district":{"key":"07141","name":"Rhein-Lahn-Kreis","type":"Landkreis"},"federalState":{"key":"07","name":"Rheinland-Pfalz"}},{"name":"Gartenstr.","postalCode":"07751","locality":"Rothenstein","municipality":{"key":"16074079","name":"Rothenstein","type":"Kreisangehörige_Gemeinde"},"district":{"key":"16074","name":"Saale-Holzland-Kreis","type":"Landkreis"},"federalState":{"key":"16","name":"Thüringen"}},{"name":"Gartenstr.","postalCode":"49214","locality":"Bad Rothenfelde","municipality":{"key":"03459006","name":"Bad Rothenfelde","type":"Kreisangehörige_Gemeinde"},"district":{"key":"03459","name":"Osnabrück","type":"Landkreis"},"federalState":{"key":"03","name":"Niedersachsen"}},{"name":"Gartenstr.","postalCode":"53809","locality":"Ruppichteroth","municipality":{"key":"05382052","name":"Ruppichteroth","type":"Kreisangehörige_Gemeinde"},"district":{"key":"05382","name":"Rhein-Sieg-Kreis","type":"Kreis"},"federalState":{"key":"05","name":"Nordrhein-Westfalen"}},{"name":"Gartenstr.","postalCode":"55442","locality":"Warmsroth","municipality":{"key":"07133110","name":"Warmsroth","type":"Kreisangehörige_Gemeinde"},"district":{"key":"07133","name":"Bad Kreuznach","type":"Landkreis"},"federalState":{"key":"07","name":"Rheinland-Pfalz"}},{"name":"Gartenstr.","postalCode":"55566","locality":"Kirschroth","municipality":{"key":"07133053","name":"Kirschroth","type":"Kreisangehörige_Gemeinde"},"district":{"key":"07133","name":"Bad Kreuznach","type":"Landkreis"},"federalState":{"key":"07","name":"Rheinland-Pfalz"}},{"name":"Gartenstr.","postalCode":"55624","locality":"Gösenroth","municipality":{"key":"07134030","name":"Gösenroth","type":"Kreisangehörige_Gemeinde"},"district":{"key":"07134","name":"Birkenfeld","type":"Landkreis"},"federalState":{"key":"07","name":"Rheinland-Pfalz"}},{"name":"Gartenstr.","postalCode":"56244","locality":"Rückeroth","municipality":{"key":"07143064","name":"Rückeroth","type":"Kreisangehörige_Gemeinde"},"district":{"key":"07143","name":"Westerwaldkreis","type":"Landkreis"},"federalState":{"key":"07","name":"Rheinland-Pfalz"}},{"name":"Gartenstr.","postalCode":"56290","locality":"Gödenroth","municipality":{"key":"07140042","name":"Gödenroth","type":"Kreisangehörige_Gemeinde"},"district":{"key":"07140","name":"Rhein-Hunsrück-Kreis","type":"Landkreis"},"federalState":{"key":"07","name":"Rheinland-Pfalz"}},{"name":"Gartenstr.","postalCode":"56368","locality":"Roth","municipality":{"key":"07141118","name":"Roth","type":"Kreisangehörige_Gemeinde"},"district":{"key":"07141","name":"Rhein-Lahn-Kreis","type":"Landkreis"},"federalState":{"key":"07","name":"Rheinland-Pfalz"}},{"name":"Gartenstr.","postalCode":"56370","locality":"Berndroth","municipality":{"key":"07141011","name":"Berndroth","type":"Kreisangehörige_Gemeinde"},"district":{"key":"07141","name":"Rhein-Lahn-Kreis","type":"Landkreis"},"federalState":{"key":"07","name":"Rheinland-Pfalz"}},{"name":"Gartenstr.","postalCode":"56459","locality":"Rothenbach","municipality":{"key":"07143289","name":"Rothenbach","type":"Kreisangehörige_Gemeinde"},"district":{"key":"07143","name":"Westerwaldkreis","type":"Landkreis"},"federalState":{"key":"07","name":"Rheinland-Pfalz"}},{"name":"Gartenstr.","postalCode":"56594","locality":"Willroth","municipality":{"key":"07132116","name":"Willroth","type":"Kreisangehörige_Gemeinde"},"district":{"key":"07132","name":"Altenkirchen (Westerwald)","type":"Landkreis"},"federalState":{"key":"07","name":"Rheinland-Pfalz"}},{"name":"Gartenstr.","postalCode":"57539","locality":"Roth","municipality":{"key":"07132096","name":"Roth","type":"Kreisangehörige_Gemeinde"},"district":{"key":"07132","name":"Altenkirchen (Westerwald)","type":"Landkreis"},"federalState":{"key":"07","name":"Rheinland-Pfalz"}},{"name":"Gartenstr.","postalCode":"57578","locality":"Elkenroth","municipality":{"key":"07132025","name":"Elkenroth","type":"Kreisangehörige_Gemeinde"},"district":{"key":"07132","name":"Altenkirchen (Westerwald)","type":"Landkreis"},"federalState":{"key":"07","name":"Rheinland-Pfalz"}},{"name":"Gartenstr.","postalCode":"57583","locality":"Nauroth","municipality":{"key":"07132073","name":"Nauroth","type":"Kreisangehörige_Gemeinde"},"district":{"key":"07132","name":"Altenkirchen (Westerwald)","type":"Landkreis"},"federalState":{"key":"07","name":"Rheinland-Pfalz"}},{"name":"Gartenstr.","postalCode":"57584","locality":"Wallmenroth","municipality":{"key":"07132111","name":"Wallmenroth","type":"Kreisangehörige_Gemeinde"},"district":{"key":"07132","name":"Altenkirchen (Westerwald)","type":"Landkreis"},"federalState":{"key":"07","name":"Rheinland-Pfalz"}},{"name":"Gartenstr.","postalCode":"57610","locality":"Gieleroth","municipality":{"key":"07132040","name":"Gieleroth","type":"Kreisangehörige_Gemeinde"},"district":{"key":"07132","name":"Altenkirchen (Westerwald)","type":"Landkreis"},"federalState":{"key":"07","name":"Rheinland-Pfalz"}},{"name":"Gartenstr.","postalCode":"63594","locality":"Hasselroth","municipality":{"key":"06435015","name":"Hasselroth","type":"Kreisangehörige_Gemeinde"},"district":{"key":"06435","name":"Main-Kinzig-Kreis","type":"Landkreis"},"federalState":{"key":"06","name":"Hessen"}},{"name":"Gartenstr.","postalCode":"63860","locality":"Rothenbuch","municipality":{"key":"09671148","name":"Rothenbuch","type":"Kreisangehörige_Gemeinde"},"district":{"key":"09671","name":"Aschaffenburg","type":"Landkreis"},"federalState":{"key":"09","name":"Bayern"}},{"name":"Gartenstr.","postalCode":"76889","locality":"Barbelroth","municipality":{"key":"07337006","name":"Barbelroth","type":"Kreisangehörige_Gemeinde"},"district":{"key":"07337","name":"Südliche Weinstraße","type":"Landkreis"},"federalState":{"key":"07","name":"Rheinland-Pfalz"}},{"name":"Gartenstr.","postalCode":"89294","locality":"Oberroth","municipality":{"key":"09775141","name":"Oberroth","type":"Kreisangehörige_Gemeinde"},"district":{"key":"09775","name":"Neu-Ulm","type":"Landkreis"},"federalState":{"key":"09","name":"Bayern"}},{"name":"Gartenstr.","postalCode":"91154","locality":"Roth","municipality":{"key":"09576143","name":"Roth, St","type":"Stadt"},"district":{"key":"09576","name":"Roth","type":"Landkreis"},"federalState":{"key":"09","name":"Bayern"}},{"name":"Gartenstr.","postalCode":"91541","locality":"Rothenburg ob der Tauber","municipality":{"key":"09571193","name":"Rothenburg ob der Tauber, GKSt","type":"Große_Kreisstadt"},"district":{"key":"09571","name":"Ansbach","type":"Landkreis"},"federalState":{"key":"09","name":"Bayern"}},{"name":"Gartenstr.","postalCode":"94356","locality":"Kirchroth","municipality":{"key":"09278141","name":"Kirchroth","type":"Kreisangehörige_Gemeinde"},"district":{"key":"09278","name":"Straubing-Bogen","type":"Landkreis"},"federalState":{"key":"09","name":"Bayern"}},{"name":"Gartenstr.","postalCode":"96193","locality":"Wachenroth","municipality":{"key":"09572160","name":"Wachenroth, M","type":"Markt"},"district":{"key":"09572","name":"Erlangen-Höchstadt","type":"Landkreis"},"federalState":{"key":"09","name":"Bayern"}},{"name":"Gartenstr.","postalCode":"97705","locality":"Burkardroth","municipality":{"key":"09672117","name":"Burkardroth, M","type":"Markt"},"district":{"key":"09672","name":"Bad Kissingen","type":"Landkreis"},"federalState":{"key":"09","name":"Bayern"}},{"name":"Gartenstr.","postalCode":"97797","locality":"Wartmannsroth","municipality":{"key":"09672161","name":"Wartmannsroth","type":"Kreisangehörige_Gemeinde"},"district":{"key":"09672","name":"Bad Kissingen","type":"Landkreis"},"federalState":{"key":"09","name":"Bayern"}},{"name":"Gartenweg","postalCode":"02929","locality":"Rothenburg/O.L.","municipality":{"key":"14626480","name":"Rothenburg/O.L., Stadt","type":"Stadt"},"district":{"key":"14626","name":"Görlitz","type":"Landkreis"},"federalState":{"key":"14","name":"Sachsen"}},{"name":"Gartenweg","postalCode":"56316","locality":"Hanroth","municipality":{"key":"07138025","name":"Hanroth","type":"Kreisangehörige_Gemeinde"},"district":{"key":"07138","name":"Neuwied","type":"Landkreis"},"federalState":{"key":"07","name":"Rheinland-Pfalz"}},{"name":"Gartenweg","postalCode":"57518","locality":"Steineroth","municipality":{"key":"07132108","name":"Steineroth","type":"Kreisangehörige_Gemeinde"},"district":{"key":"07132","name":"Altenkirchen (Westerwald)","type":"Landkreis"},"federalState":{"key":"07","name":"Rheinland-Pfalz"}},{"name":"Gartenweg","postalCode":"57612","locality":"Hilgenroth","municipality":{"key":"07132052","name":"Hilgenroth","type":"Kreisangehörige_Gemeinde"},"district":{"key":"07132","name":"Altenkirchen (Westerwald)","type":"Landkreis"},"federalState":{"key":"07","name":"Rheinland-Pfalz"}},{"name":"Gartenweg","postalCode":"89284","locality":"Pfaffenhofen an der Roth","municipality":{"key":"09775143","name":"Pfaffenhofen a.d.Roth, M","type":"Markt"},"district":{"key":"09775","name":"Neu-Ulm","type":"Landkreis"},"federalState":{"key":"09","name":"Bayern"}},{"name":"Gartenweg","postalCode":"91154","locality":"Roth","municipality":{"key":"09576143","name":"Roth, St","type":"Stadt"},"district":{"key":"09576","name":"Roth","type":"Landkreis"},"federalState":{"key":"09","name":"Bayern"}},{"name":"Gartenweg","postalCode":"96193","locality":"Wachenroth","municipality":{"key":"09572160","name":"Wachenroth, M","type":"Markt"},"district":{"key":"09572","name":"Erlangen-Höchstadt","type":"Landkreis"},"federalState":{"key":"09","name":"Bayern"}},{"name":"Gassenäckerstr.","postalCode":"91154","locality":"Roth","municipality":{"key":"09576143","name":"Roth, St","type":"Stadt"},"district":{"key":"09576","name":"Roth","type":"Landkreis"},"federalState":{"key":"09","name":"Bayern"}},{"name":"Gassenweg","postalCode":"55471","locality":"Sargenroth","municipality":{"key":"07140134","name":"Sargenroth","type":"Kreisangehörige_Gemeinde"},"district":{"key":"07140","name":"Rhein-Hunsrück-Kreis","type":"Landkreis"},"federalState":{"key":"07","name":"Rheinland-Pfalz"}},{"name":"Gattenhofer Weg","postalCode":"91541","locality":"Rothenburg ob der Tauber","municipality":{"key":"09571193","name":"Rothenburg ob der Tauber, GKSt","type":"Große_Kreisstadt"},"district":{"key":"09571","name":"Ansbach","type":"Landkreis"},"federalState":{"key":"09","name":"Bayern"}},{"name":"Gebrüder-Grimm-Str.","postalCode":"91154","locality":"Roth","municipality":{"key":"09576143","name":"Roth, St","type":"Stadt"},"district":{"key":"09576","name":"Roth","type":"Landkreis"},"federalState":{"key":"09","name":"Bayern"}},{"name":"Gebsattler Str.","postalCode":"91541","locality":"Rothenburg ob der Tauber","municipality":{"key":"09571193","name":"Rothenburg ob der Tauber, GKSt","type":"Große_Kreisstadt"},"district":{"key":"09571","name":"Ansbach","type":"Landkreis"},"federalState":{"key":"09","name":"Bayern"}},{"name":"Geheeger Weg","postalCode":"02929","locality":"Rothenburg/O.L.","municipality":{"key":"14626480","name":"Rothenburg/O.L., Stadt","type":"Stadt"},"district":{"key":"14626","name":"Görlitz","type":"Landkreis"},"federalState":{"key":"14","name":"Sachsen"}},{"name":"Geheimrat-Seitz-Weg","postalCode":"89284","locality":"Pfaffenhofen an der Roth","municipality":{"key":"09775143","name":"Pfaffenhofen a.d.Roth, M","type":"Markt"},"district":{"key":"09775","name":"Neu-Ulm","type":"Landkreis"},"federalState":{"key":"09","name":"Bayern"}},{"name":"Gehrenstr.","postalCode":"91614","locality":"Mönchsroth","municipality":{"key":"09571179","name":"Mönchsroth","type":"Kreisangehörige_Gemeinde"},"district":{"key":"09571","name":"Ansbach","type":"Landkreis"},"federalState":{"key":"09","name":"Bayern"}},{"name":"Gemeindewiese","postalCode":"55442","locality":"Warmsroth","municipality":{"key":"07133110","name":"Warmsroth","type":"Kreisangehörige_Gemeinde"},"district":{"key":"07133","name":"Bad Kreuznach","type":"Landkreis"},"federalState":{"key":"07","name":"Rheinland-Pfalz"}},{"name":"Genheimer Weg","postalCode":"55442","locality":"Roth","municipality":{"key":"07133085","name":"Roth","type":"Kreisangehörige_Gemeinde"},"district":{"key":"07133","name":"Bad Kreuznach","type":"Landkreis"},"federalState":{"key":"07","name":"Rheinland-Pfalz"}},{"name":"Georg-Bermeter-Str.","postalCode":"91541","locality":"Rothenburg ob der Tauber","municipality":{"key":"09571193","name":"Rothenburg ob der Tauber, GKSt","type":"Große_Kreisstadt"},"district":{"key":"09571","name":"Ansbach","type":"Landkreis"},"federalState":{"key":"09","name":"Bayern"}},{"name":"Georg-Bickel-Str.","postalCode":"91614","locality":"Mönchsroth","municipality":{"key":"09571179","name":"Mönchsroth","type":"Kreisangehörige_Gemeinde"},"district":{"key":"09571","name":"Ansbach","type":"Landkreis"},"federalState":{"key":"09","name":"Bayern"}},{"name":"Hauptstr.","postalCode":"91180","locality":"Heideck","municipality":{"key":"09576126","name":"Heideck, St","type":"Stadt"},"district":{"key":"09576","name":"Roth","type":"Landkreis"},"federalState":{"key":"09","name":"Bayern"}},{"name":"Heideweg","postalCode":"91180","locality":"Heideck","municipality":{"key":"09576126","name":"Heideck, St","type":"Stadt"},"district":{"key":"09576","name":"Roth","type":"Landkreis"},"federalState":{"key":"09","name":"Bayern"}},{"name":"Höfener Weg","postalCode":"91180","locality":"Heideck","municipality":{"key":"09576126","name":"Heideck, St","type":"Stadt"},"district":{"key":"09576","name":"Roth","type":"Landkreis"},"federalState":{"key":"09","name":"Bayern"}},{"name":"Hopfenstr.","postalCode":"91180","locality":"Heideck","municipality":{"key":"09576126","name":"Heideck, St","type":"Stadt"},"district":{"key":"09576","name":"Roth","type":"Landkreis"},"federalState":{"key":"09","name":"Bayern"}},{"name":"Industriepark","postalCode":"91180","locality":"Heideck","municipality":{"key":"09576126","name":"Heideck, St","type":"Stadt"},"district":{"key":"09576","name":"Roth","type":"Landkreis"},"federalState":{"key":"09","name":"Bayern"}},{"name":"Industriestr.","postalCode":"91180","locality":"Heideck","municipality":{"key":"09576126","name":"Heideck, St","type":"Stadt"},"district":{"key":"09576","name":"Roth","type":"Landkreis"},"federalState":{"key":"09","name":"Bayern"}},{"name":"Jahnstr.","postalCode":"91180","locality":"Heideck","municipality":{"key":"09576126","name":"Heideck, St","type":"Stadt"},"district":{"key":"09576","name":"Roth","type":"Landkreis"},"federalState":{"key":"09","name":"Bayern"}},{"name":"Josef-Rösch-Str.","postalCode":"91180","locality":"Heideck","municipality":{"key":"09576126","name":"Heideck, St","type":"Stadt"},"district":{"key":"09576","name":"Roth","type":"Landkreis"},"federalState":{"key":"09","name":"Bayern"}},{"name":"Kippenwang","postalCode":"91180","locality":"Heideck","municipality":{"key":"09576126","name":"Heideck, St","type":"Stadt"},"district":{"key":"09576","name":"Roth","type":"Landkreis"},"federalState":{"key":"09","name":"Bayern"}},{"name":"Kirschenstr.","postalCode":"91180","locality":"Heideck","municipality":{"key":"09576126","name":"Heideck, St","type":"Stadt"},"district":{"key":"09576","name":"Roth","type":"Landkreis"},"federalState":{"key":"09","name":"Bayern"}},{"name":"Klosterfeldstr.","postalCode":"91180","locality":"Heideck","municipality":{"key":"09576126","name":"Heideck, St","type":"Stadt"},"district":{"key":"09576","name":"Roth","type":"Landkreis"},"federalState":{"key":"09","name":"Bayern"}},{"name":"Kreuther Str.","postalCode":"91180","locality":"Heideck","municipality":{"key":"09576126","name":"Heideck, St","type":"Stadt"},"district":{"key":"09576","name":"Roth","type":"Landkreis"},"federalState":{"key":"09","name":"Bayern"}},{"name":"Laffenau","postalCode":"91180","locality":"Heideck","municipality":{"key":"09576126","name":"Heideck, St","type":"Stadt"},"district":{"key":"09576","name":"Roth","type":"Landkreis"},"federalState":{"key":"09","name":"Bayern"}},{"name":"Laffenauer Str.","postalCode":"91180","locality":"Heideck","municipality":{"key":"09576126","name":"Heideck, St","type":"Stadt"},"district":{"key":"09576","name":"Roth","type":"Landkreis"},"federalState":{"key":"09","name":"Bayern"}},{"name":"Laibstadt","postalCode":"91180","locality":"Heideck","municipality":{"key":"09576126","name":"Heideck, St","type":"Stadt"},"district":{"key":"09576","name":"Roth","type":"Landkreis"},"federalState":{"key":"09","name":"Bayern"}},{"name":"Lärchenweg","postalCode":"91180","locality":"Heideck","municipality":{"key":"09576126","name":"Heideck, St","type":"Stadt"},"district":{"key":"09576","name":"Roth","type":"Landkreis"},"federalState":{"key":"09","name":"Bayern"}},{"name":"Liebenstadt","postalCode":"91180","locality":"Heideck","municipality":{"key":"09576126","name":"Heideck, St","type":"Stadt"},"district":{"key":"09576","name":"Roth","type":"Landkreis"},"federalState":{"key":"09","name":"Bayern"}},{"name":"Liebenstädter Str.","postalCode":"91180","locality":"Heideck","municipality":{"key":"09576126","name":"Heideck, St","type":"Stadt"},"district":{"key":"09576","name":"Roth","type":"Landkreis"},"federalState":{"key":"09","name":"Bayern"}},{"name":"Lindenstr.","postalCode":"91180","locality":"Heideck","municipality":{"key":"09576126","name":"Heideck, St","type":"Stadt"},"district":{"key":"09576","name":"Roth","type":"Landkreis"},"federalState":{"key":"09","name":"Bayern"}},{"name":"Marktplatz","postalCode":"91180","locality":"Heideck","municipality":{"key":"09576126","name":"Heideck, St","type":"Stadt"},"district":{"key":"09576","name":"Roth","type":"Landkreis"},"federalState":{"key":"09","name":"Bayern"}},{"name":"Mühlfeldstr.","postalCode":"91180","locality":"Heideck","municipality":{"key":"09576126","name":"Heideck, St","type":"Stadt"},"district":{"key":"09576","name":"Roth","type":"Landkreis"},"federalState":{"key":"09","name":"Bayern"}},{"name":"Nördlicher Stadtgraben","postalCode":"91180","locality":"Heideck","municipality":{"key":"09576126","name":"Heideck, St","type":"Stadt"},"district":{"key":"09576","name":"Roth","type":"Landkreis"},"federalState":{"key":"09","name":"Bayern"}},{"name":"Obere Weinstr.","postalCode":"91180","locality":"Heideck","municipality":{"key":"09576126","name":"Heideck, St","type":"Stadt"},"district":{"key":"09576","name":"Roth","type":"Landkreis"},"federalState":{"key":"09","name":"Bayern"}},{"name":"Oberrödeler Str.","postalCode":"91180","locality":"Heideck","municipality":{"key":"09576126","name":"Heideck, St","type":"Stadt"},"district":{"key":"09576","name":"Roth","type":"Landkreis"},"federalState":{"key":"09","name":"Bayern"}},{"name":"Ostenstr.","postalCode":"91180","locality":"Heideck","municipality":{"key":"09576126","name":"Heideck, St","type":"Stadt"},"district":{"key":"09576","name":"Roth","type":"Landkreis"},"federalState":{"key":"09","name":"Bayern"}},{"name":"Pestalozzistr.","postalCode":"91180","locality":"Heideck","municipality":{"key":"09576126","name":"Heideck, St","type":"Stadt"},"district":{"key":"09576","name":"Roth","type":"Landkreis"},"federalState":{"key":"09","name":"Bayern"}},{"name":"Pfälzer Str.","postalCode":"91180","locality":"Heideck","municipality":{"key":"09576126","name":"Heideck, St","type":"Stadt"},"district":{"key":"09576","name":"Roth","type":"Landkreis"},"federalState":{"key":"09","name":"Bayern"}},{"name":"Quellengasse","postalCode":"97797","locality":"Wartmannsroth","municipality":{"key":"09672161","name":"Wartmannsroth","type":"Kreisangehörige_Gemeinde"},"district":{"key":"09672","name":"Bad Kissingen","type":"Landkreis"},"federalState":{"key":"09","name":"Bayern"}},{"name":"Quellenweg","postalCode":"49214","locality":"Bad Rothenfelde","municipality":{"key":"03459006","name":"Bad Rothenfelde","type":"Kreisangehörige_Gemeinde"},"district":{"key":"03459","name":"Osnabrück","type":"Landkreis"},"federalState":{"key":"03","name":"Niedersachsen"}},{"name":"Quellenweg","postalCode":"53809","locality":"Ruppichteroth","municipality":{"key":"05382052","name":"Ruppichteroth","type":"Kreisangehörige_Gemeinde"},"district":{"key":"05382","name":"Rhein-Sieg-Kreis","type":"Kreis"},"federalState":{"key":"05","name":"Nordrhein-Westfalen"}},{"name":"Quellgrund","postalCode":"49214","locality":"Bad Rothenfelde","municipality":{"key":"03459006","name":"Bad Rothenfelde","type":"Kreisangehörige_Gemeinde"},"district":{"key":"03459","name":"Osnabrück","type":"Landkreis"},"federalState":{"key":"03","name":"Niedersachsen"}},{"name":"Querbachshof","postalCode":"97618","locality":"Hohenroth","municipality":{"key":"09673135","name":"Hohenroth","type":"Kreisangehörige_Gemeinde"},"district":{"key":"09673","name":"Rhön-Grabfeld","type":"Landkreis"},"federalState":{"key":"09","name":"Bayern"}},{"name":"Querbachshofer Str.","postalCode":"97618","locality":"Hohenroth","municipality":{"key":"09673135","name":"Hohenroth","type":"Kreisangehörige_Gemeinde"},"district":{"key":"09673","name":"Rhön-Grabfeld","type":"Landkreis"},"federalState":{"key":"09","name":"Bayern"}},{"name":"querfeldein","postalCode":"53809","locality":"Ruppichteroth","municipality":{"key":"05382052","name":"Ruppichteroth","type":"Kreisangehörige_Gemeinde"},"district":{"key":"05382","name":"Rhein-Sieg-Kreis","type":"Kreis"},"federalState":{"key":"05","name":"Nordrhein-Westfalen"}},{"name":"Raiffeisenstr.","postalCode":"91180","locality":"Heideck","municipality":{"key":"09576126","name":"Heideck, St","type":"Stadt"},"district":{"key":"09576","name":"Roth","type":"Landkreis"},"federalState":{"key":"09","name":"Bayern"}},{"name":"Rambach","postalCode":"91180","locality":"Heideck","municipality":{"key":"09576126","name":"Heideck, St","type":"Stadt"},"district":{"key":"09576","name":"Roth","type":"Landkreis"},"federalState":{"key":"09","name":"Bayern"}},{"name":"Rudletzholz","postalCode":"91180","locality":"Heideck","municipality":{"key":"09576126","name":"Heideck, St","type":"Stadt"},"district":{"key":"09576","name":"Roth","type":"Landkreis"},"federalState":{"key":"09","name":"Bayern"}},{"name":"Rudletzholzer Str.","postalCode":"91180","locality":"Heideck","municipality":{"key":"09576126","name":"Heideck, St","type":"Stadt"},"district":{"key":"09576","name":"Roth","type":"Landkreis"},"federalState":{"key":"09","name":"Bayern"}},{"name":"Schlesierstr.","postalCode":"91180","locality":"Heideck","municipality":{"key":"09576126","name":"Heideck, St","type":"Stadt"},"district":{"key":"09576","name":"Roth","type":"Landkreis"},"federalState":{"key":"09","name":"Bayern"}},{"name":"Schloßberg","postalCode":"91180","locality":"Heideck","municipality":{"key":"09576126","name":"Heideck, St","type":"Stadt"},"district":{"key":"09576","name":"Roth","type":"Landkreis"},"federalState":{"key":"09","name":"Bayern"}},{"name":"Schloßberger Str.","postalCode":"91180","locality":"Heideck","municipality":{"key":"09576126","name":"Heideck, St","type":"Stadt"},"district":{"key":"09576","name":"Roth","type":"Landkreis"},"federalState":{"key":"09","name":"Bayern"}},{"name":"Schulstr.","postalCode":"91180","locality":"Heideck","municipality":{"key":"09576126","name":"Heideck, St","type":"Stadt"},"district":{"key":"09576","name":"Roth","type":"Landkreis"},"federalState":{"key":"09","name":"Bayern"}},{"name":"Seiboldsmühler Str.","postalCode":"91180","locality":"Heideck","municipality":{"key":"09576126","name":"Heideck, St","type":"Stadt"},"district":{"key":"09576","name":"Roth","type":"Landkreis"},"federalState":{"key":"09","name":"Bayern"}},{"name":"Selingstadt","postalCode":"91180","locality":"Heideck","municipality":{"key":"09576126","name":"Heideck, St","type":"Stadt"},"district":{"key":"09576","name":"Roth","type":"Landkreis"},"federalState":{"key":"09","name":"Bayern"}},{"name":"Selingstädter Str.","postalCode":"91180","locality":"Heideck","municipality":{"key":"09576126","name":"Heideck, St","type":"Stadt"},"district":{"key":"09576","name":"Roth","type":"Landkreis"},"federalState":{"key":"09","name":"Bayern"}},{"name":"Siebenloher Weg","postalCode":"91180","locality":"Heideck","municipality":{"key":"09576126","name":"Heideck, St","type":"Stadt"},"district":{"key":"09576","name":"Roth","type":"Landkreis"},"federalState":{"key":"09","name":"Bayern"}},{"name":"Steinreisachweg","postalCode":"91180","locality":"Heideck","municipality":{"key":"09576126","name":"Heideck, St","type":"Stadt"},"district":{"key":"09576","name":"Roth","type":"Landkreis"},"federalState":{"key":"09","name":"Bayern"}},{"name":"Südlicher Stadtgraben","postalCode":"91180","locality":"Heideck","municipality":{"key":"09576126","name":"Heideck, St","type":"Stadt"},"district":{"key":"09576","name":"Roth","type":"Landkreis"},"federalState":{"key":"09","name":"Bayern"}},{"name":"Tannenstr.","postalCode":"91180","locality":"Heideck","municipality":{"key":"09576126","name":"Heideck, St","type":"Stadt"},"district":{"key":"09576","name":"Roth","type":"Landkreis"},"federalState":{"key":"09","name":"Bayern"}},{"name":"Tautenwind","postalCode":"91180","locality":"Heideck","municipality":{"key":"09576126","name":"Heideck, St","type":"Stadt"},"district":{"key":"09576","name":"Roth","type":"Landkreis"},"federalState":{"key":"09","name":"Bayern"}},{"name":"Uferstr.","postalCode":"57539","locality":"Roth","municipality":{"key":"07132096","name":"Roth","type":"Kreisangehörige_Gemeinde"},"district":{"key":"07132","name":"Altenkirchen (Westerwald)","type":"Landkreis"},"federalState":{"key":"07","name":"Rheinland-Pfalz"}},{"name":"Uferweg","postalCode":"89284","locality":"Pfaffenhofen an der Roth","municipality":{"key":"09775143","name":"Pfaffenhofen a.d.Roth, M","type":"Markt"},"district":{"key":"09775","name":"Neu-Ulm","type":"Landkreis"},"federalState":{"key":"09","name":"Bayern"}},{"name":"Uhlandstr.","postalCode":"91154","locality":"Roth","municipality":{"key":"09576143","name":"Roth, St","type":"Stadt"},"district":{"key":"09576","name":"Roth","type":"Landkreis"},"federalState":{"key":"09","name":"Bayern"}},{"name":"Uhlandstr.","postalCode":"91541","locality":"Rothenburg ob der Tauber","municipality":{"key":"09571193","name":"Rothenburg ob der Tauber, GKSt","type":"Große_Kreisstadt"},"district":{"key":"09571","name":"Ansbach","type":"Landkreis"},"federalState":{"key":"09","name":"Bayern"}},{"name":"Uhsmannsdorfer Str.","postalCode":"02929","locality":"Rothenburg/O.L.","municipality":{"key":"14626480","name":"Rothenburg/O.L., Stadt","type":"Stadt"},"district":{"key":"14626","name":"Görlitz","type":"Landkreis"},"federalState":{"key":"14","name":"Sachsen"}},{"name":"Ulmenallee","postalCode":"49214","locality":"Bad Rothenfelde","municipality":{"key":"03459006","name":"Bad Rothenfelde","type":"Kreisangehörige_Gemeinde"},"district":{"key":"03459","name":"Osnabrück","type":"Landkreis"},"federalState":{"key":"03","name":"Niedersachsen"}},{"name":"Ulmenstr.","postalCode":"63594","locality":"Hasselroth","municipality":{"key":"06435015","name":"Hasselroth","type":"Kreisangehörige_Gemeinde"},"district":{"key":"06435","name":"Main-Kinzig-Kreis","type":"Landkreis"},"federalState":{"key":"06","name":"Hessen"}},{"name":"Ulmenweg","postalCode":"53809","locality":"Ruppichteroth","municipality":{"key":"05382052","name":"Ruppichteroth","type":"Kreisangehörige_Gemeinde"},"district":{"key":"05382","name":"Rhein-Sieg-Kreis","type":"Kreis"},"federalState":{"key":"05","name":"Nordrhein-Westfalen"}},{"name":"Ulmenweg","postalCode":"91541","locality":"Rothenburg ob der Tauber","municipality":{"key":"09571193","name":"Rothenburg ob der Tauber, GKSt","type":"Große_Kreisstadt"},"district":{"key":"09571","name":"Ansbach","type":"Landkreis"},"federalState":{"key":"09","name":"Bayern"}},{"name":"Ulmenweg","postalCode":"94356","locality":"Kirchroth","municipality":{"key":"09278141","name":"Kirchroth","type":"Kreisangehörige_Gemeinde"},"district":{"key":"09278","name":"Straubing-Bogen","type":"Landkreis"},"federalState":{"key":"09","name":"Bayern"}},{"name":"Ulmer Str.","postalCode":"89284","locality":"Pfaffenhofen an der Roth","municipality":{"key":"09775143","name":"Pfaffenhofen a.d.Roth, M","type":"Markt"},"district":{"key":"09775","name":"Neu-Ulm","type":"Landkreis"},"federalState":{"key":"09","name":"Bayern"}},{"name":"Unter der Lay","postalCode":"56459","locality":"Rothenbach","municipality":{"key":"07143289","name":"Rothenbach","type":"Kreisangehörige_Gemeinde"},"district":{"key":"07143","name":"Westerwaldkreis","type":"Landkreis"},"federalState":{"key":"07","name":"Rheinland-Pfalz"}},{"name":"Unterdorf","postalCode":"55624","locality":"Gösenroth","municipality":{"key":"07134030","name":"Gösenroth","type":"Kreisangehörige_Gemeinde"},"district":{"key":"07134","name":"Birkenfeld","type":"Landkreis"},"federalState":{"key":"07","name":"Rheinland-Pfalz"}},{"name":"Untere Bahnhofstr.","postalCode":"91154","locality":"Roth","municipality":{"key":"09576143","name":"Roth, St","type":"Stadt"},"district":{"key":"09576","name":"Roth","type":"Landkreis"},"federalState":{"key":"09","name":"Bayern"}},{"name":"Untere Dorfstr.","postalCode":"94356","locality":"Kirchroth","municipality":{"key":"09278141","name":"Kirchroth","type":"Kreisangehörige_Gemeinde"},"district":{"key":"09278","name":"Straubing-Bogen","type":"Landkreis"},"federalState":{"key":"09","name":"Bayern"}},{"name":"Untere Dorfstr.","postalCode":"97797","locality":"Wartmannsroth","municipality":{"key":"09672161","name":"Wartmannsroth","type":"Kreisangehörige_Gemeinde"},"district":{"key":"09672","name":"Bad Kissingen","type":"Landkreis"},"federalState":{"key":"09","name":"Bayern"}},{"name":"Untere Föhr","postalCode":"54570","locality":"Neroth","municipality":{"key":"07233050","name":"Neroth","type":"Kreisangehörige_Gemeinde"},"district":{"key":"07233","name":"Vulkaneifel","type":"Landkreis"},"federalState":{"key":"07","name":"Rheinland-Pfalz"}},{"name":"Untere Gartenstr.","postalCode":"56457","locality":"Hergenroth","municipality":{"key":"07143238","name":"Hergenroth","type":"Kreisangehörige_Gemeinde"},"district":{"key":"07143","name":"Westerwaldkreis","type":"Landkreis"},"federalState":{"key":"07","name":"Rheinland-Pfalz"}},{"name":"Untere Glasschleife","postalCode":"91154","locality":"Roth","municipality":{"key":"09576143","name":"Roth, St","type":"Stadt"},"district":{"key":"09576","name":"Roth","type":"Landkreis"},"federalState":{"key":"09","name":"Bayern"}},{"name":"Untere Heidecker Str.","postalCode":"91154","locality":"Roth","municipality":{"key":"09576143","name":"Roth, St","type":"Stadt"},"district":{"key":"09576","name":"Roth","type":"Landkreis"},"federalState":{"key":"09","name":"Bayern"}},{"name":"Untere Hirschbitze","postalCode":"53809","locality":"Ruppichteroth","municipality":{"key":"05382052","name":"Ruppichteroth","type":"Kreisangehörige_Gemeinde"},"district":{"key":"05382","name":"Rhein-Sieg-Kreis","type":"Kreis"},"federalState":{"key":"05","name":"Nordrhein-Westfalen"}},{"name":"Untere Layenstr.","postalCode":"54570","locality":"Neroth","municipality":{"key":"07233050","name":"Neroth","type":"Kreisangehörige_Gemeinde"},"district":{"key":"07233","name":"Vulkaneifel","type":"Landkreis"},"federalState":{"key":"07","name":"Rheinland-Pfalz"}},{"name":"Untere Marktstr.","postalCode":"97705","locality":"Burkardroth","municipality":{"key":"09672117","name":"Burkardroth, M","type":"Markt"},"district":{"key":"09672","name":"Bad Kissingen","type":"Landkreis"},"federalState":{"key":"09","name":"Bayern"}},{"name":"Unterer Eschachweg","postalCode":"89284","locality":"Pfaffenhofen an der Roth","municipality":{"key":"09775143","name":"Pfaffenhofen a.d.Roth, M","type":"Markt"},"district":{"key":"09775","name":"Neu-Ulm","type":"Landkreis"},"federalState":{"key":"09","name":"Bayern"}},{"name":"Unterer Stockweg","postalCode":"91154","locality":"Roth","municipality":{"key":"09576143","name":"Roth, St","type":"Stadt"},"district":{"key":"09576","name":"Roth","type":"Landkreis"},"federalState":{"key":"09","name":"Bayern"}},{"name":"Unterer Weinbergweg","postalCode":"91154","locality":"Roth","municipality":{"key":"09576143","name":"Roth, St","type":"Stadt"},"district":{"key":"09576","name":"Roth","type":"Landkreis"},"federalState":{"key":"09","name":"Bayern"}},{"name":"Untere Schmiedgasse","postalCode":"91541","locality":"Rothenburg ob der Tauber","municipality":{"key":"09571193","name":"Rothenburg ob der Tauber, GKSt","type":"Große_Kreisstadt"},"district":{"key":"09571","name":"Ansbach","type":"Landkreis"},"federalState":{"key":"09","name":"Bayern"}},{"name":"Untere Steinbach","postalCode":"63594","locality":"Hasselroth","municipality":{"key":"06435015","name":"Hasselroth","type":"Kreisangehörige_Gemeinde"},"district":{"key":"06435","name":"Main-Kinzig-Kreis","type":"Landkreis"},"federalState":{"key":"06","name":"Hessen"}},{"name":"Unterm Berg","postalCode":"02929","locality":"Rothenburg/O.L.","municipality":{"key":"14626480","name":"Rothenburg/O.L., Stadt","type":"Stadt"},"district":{"key":"14626","name":"Görlitz","type":"Landkreis"},"federalState":{"key":"14","name":"Sachsen"}},{"name":"Untermiethnach","postalCode":"94356","locality":"Kirchroth","municipality":{"key":"09278141","name":"Kirchroth","type":"Kreisangehörige_Gemeinde"},"district":{"key":"09278","name":"Straubing-Bogen","type":"Landkreis"},"federalState":{"key":"09","name":"Bayern"}},{"name":"Unterrother Str.","postalCode":"89294","locality":"Oberroth","municipality":{"key":"09775141","name":"Oberroth","type":"Kreisangehörige_Gemeinde"},"district":{"key":"09775","name":"Neu-Ulm","type":"Landkreis"},"federalState":{"key":"09","name":"Bayern"}},{"name":"Unterrother Str.","postalCode":"89299","locality":"Unterroth","municipality":{"key":"09775161","name":"Unterroth","type":"Kreisangehörige_Gemeinde"},"district":{"key":"09775","name":"Neu-Ulm","type":"Landkreis"},"federalState":{"key":"09","name":"Bayern"}},{"name":"Unterstr.","postalCode":"56414","locality":"Weroth","municipality":{"key":"07143080","name":"Weroth","type":"Kreisangehörige_Gemeinde"},"district":{"key":"07143","name":"Westerwaldkreis","type":"Landkreis"},"federalState":{"key":"07","name":"Rheinland-Pfalz"}},{"name":"Veilchenstr.","postalCode":"91614","locality":"Mönchsroth","municipality":{"key":"09571179","name":"Mönchsroth","type":"Kreisangehörige_Gemeinde"},"district":{"key":"09571","name":"Ansbach","type":"Landkreis"},"federalState":{"key":"09","name":"Bayern"}},{"name":"Veilchenweg","postalCode":"91154","locality":"Roth","municipality":{"key":"09576143","name":"Roth, St","type":"Stadt"},"district":{"key":"09576","name":"Roth","type":"Landkreis"},"federalState":{"key":"09","name":"Bayern"}},{"name":"Veitsberg","postalCode":"97618","locality":"Hohenroth","municipality":{"key":"09673135","name":"Hohenroth","type":"Kreisangehörige_Gemeinde"},"district":{"key":"09673","name":"Rhön-Grabfeld","type":"Landkreis"},"federalState":{"key":"09","name":"Bayern"}},{"name":"Veit-Stoß-Str.","postalCode":"91154","locality":"Roth","municipality":{"key":"09576143","name":"Roth, St","type":"Stadt"},"district":{"key":"09576","name":"Roth","type":"Landkreis"},"federalState":{"key":"09","name":"Bayern"}},{"name":"Velken","postalCode":"53809","locality":"Ruppichteroth","municipality":{"key":"05382052","name":"Ruppichteroth","type":"Kreisangehörige_Gemeinde"},"district":{"key":"05382","name":"Rhein-Sieg-Kreis","type":"Kreis"},"federalState":{"key":"05","name":"Nordrhein-Westfalen"}},{"name":"Vennstr.","postalCode":"97705","locality":"Burkardroth","municipality":{"key":"09672117","name":"Burkardroth, M","type":"Markt"},"district":{"key":"09672","name":"Bad Kissingen","type":"Landkreis"},"federalState":{"key":"09","name":"Bayern"}},{"name":"Versmolder Str.","postalCode":"49214","locality":"Bad Rothenfelde","municipality":{"key":"03459006","name":"Bad Rothenfelde","type":"Kreisangehörige_Gemeinde"},"district":{"key":"03459","name":"Osnabrück","type":"Landkreis"},"federalState":{"key":"03","name":"Niedersachsen"}},{"name":"Viandener Str.","postalCode":"54675","locality":"Roth an der Our","municipality":{"key":"07232112","name":"Roth an der Our","type":"Kreisangehörige_Gemeinde"},"district":{"key":"07232","name":"Eifelkreis Bitburg-Prüm","type":"Landkreis"},"federalState":{"key":"07","name":"Rheinland-Pfalz"}},{"name":"Viebicht","postalCode":"02929","locality":"Rothenburg/O.L.","municipality":{"key":"14626480","name":"Rothenburg/O.L., Stadt","type":"Stadt"},"district":{"key":"14626","name":"Görlitz","type":"Landkreis"},"federalState":{"key":"14","name":"Sachsen"}},{"name":"Viktoriaweg","postalCode":"63594","locality":"Hasselroth","municipality":{"key":"06435015","name":"Hasselroth","type":"Kreisangehörige_Gemeinde"},"district":{"key":"06435","name":"Main-Kinzig-Kreis","type":"Landkreis"},"federalState":{"key":"06","name":"Hessen"}},{"name":"Viktoriaweg","postalCode":"89284","locality":"Pfaffenhofen an der Roth","municipality":{"key":"09775143","name":"Pfaffenhofen a.d.Roth, M","type":"Markt"},"district":{"key":"09775","name":"Neu-Ulm","type":"Landkreis"},"federalState":{"key":"09","name":"Bayern"}},{"name":"Virchowstr.","postalCode":"91154","locality":"Roth","municipality":{"key":"09576143","name":"Roth, St","type":"Stadt"},"district":{"key":"09576","name":"Roth","type":"Landkreis"},"federalState":{"key":"09","name":"Bayern"}},{"name":"Vogelsbergstr.","postalCode":"63594","locality":"Hasselroth","municipality":{"key":"06435015","name":"Hasselroth","type":"Kreisangehörige_Gemeinde"},"district":{"key":"06435","name":"Main-Kinzig-Kreis","type":"Landkreis"},"federalState":{"key":"06","name":"Hessen"}},{"name":"Völkersleier Str.","postalCode":"97797","locality":"Wartmannsroth","municipality":{"key":"09672161","name":"Wartmannsroth","type":"Kreisangehörige_Gemeinde"},"district":{"key":"09672","name":"Bad Kissingen","type":"Landkreis"},"federalState":{"key":"09","name":"Bayern"}},{"name":"Völkerstr.","postalCode":"91541","locality":"Rothenburg ob der Tauber","municipality":{"key":"09571193","name":"Rothenburg ob der Tauber, GKSt","type":"Große_Kreisstadt"},"district":{"key":"09571","name":"Ansbach","type":"Landkreis"},"federalState":{"key":"09","name":"Bayern"}},{"name":"Volkertshofener Str.","postalCode":"89284","locality":"Pfaffenhofen an der Roth","municipality":{"key":"09775143","name":"Pfaffenhofen a.d.Roth, M","type":"Markt"},"district":{"key":"09775","name":"Neu-Ulm","type":"Landkreis"},"federalState":{"key":"09","name":"Bayern"}},{"name":"Volkhardstr.","postalCode":"49214","locality":"Bad Rothenfelde","municipality":{"key":"03459006","name":"Bad Rothenfelde","type":"Kreisangehörige_Gemeinde"},"district":{"key":"03459","name":"Osnabrück","type":"Landkreis"},"federalState":{"key":"03","name":"Niedersachsen"}},{"name":"Voltastr.","postalCode":"91154","locality":"Roth","municipality":{"key":"09576143","name":"Roth, St","type":"Stadt"},"district":{"key":"09576","name":"Roth","type":"Landkreis"},"federalState":{"key":"09","name":"Bayern"}},{"name":"Von-Braun-Str.","postalCode":"91154","locality":"Roth","municipality":{"key":"09576143","name":"Roth, St","type":"Stadt"},"district":{"key":"09576","name":"Roth","type":"Landkreis"},"federalState":{"key":"09","name":"Bayern"}},{"name":"Von-Fechenbach-Str.","postalCode":"97705","locality":"Burkardroth","municipality":{"key":"09672117","name":"Burkardroth, M","type":"Markt"},"district":{"key":"09672","name":"Bad Kissingen","type":"Landkreis"},"federalState":{"key":"09","name":"Bayern"}},{"name":"Von-Henneberg-Str.","postalCode":"97705","locality":"Burkardroth","municipality":{"key":"09672117","name":"Burkardroth, M","type":"Markt"},"district":{"key":"09672","name":"Bad Kissingen","type":"Landkreis"},"federalState":{"key":"09","name":"Bayern"}},{"name":"Von-Hühnefeld-Str.","postalCode":"89284","locality":"Pfaffenhofen an der Roth","municipality":{"key":"09775143","name":"Pfaffenhofen a.d.Roth, M","type":"Markt"},"district":{"key":"09775","name":"Neu-Ulm","type":"Landkreis"},"federalState":{"key":"09","name":"Bayern"}},{"name":"Von-Reisach-Str.","postalCode":"91154","locality":"Roth","municipality":{"key":"09576143","name":"Roth, St","type":"Stadt"},"district":{"key":"09576","name":"Roth","type":"Landkreis"},"federalState":{"key":"09","name":"Bayern"}},{"name":"Von-Scheid-Weg","postalCode":"53809","locality":"Ruppichteroth","municipality":{"key":"05382052","name":"Ruppichteroth","type":"Kreisangehörige_Gemeinde"},"district":{"key":"05382","name":"Rhein-Sieg-Kreis","type":"Kreis"},"federalState":{"key":"05","name":"Nordrhein-Westfalen"}},{"name":"Von-Vollmar-Str.","postalCode":"91154","locality":"Roth","municipality":{"key":"09576143","name":"Roth, St","type":"Stadt"},"district":{"key":"09576","name":"Roth","type":"Landkreis"},"federalState":{"key":"09","name":"Bayern"}},{"name":"Vorbachstr.","postalCode":"91541","locality":"Rothenburg ob der Tauber","municipality":{"key":"09571193","name":"Rothenburg ob der Tauber, GKSt","type":"Große_Kreisstadt"},"district":{"key":"09571","name":"Ansbach","type":"Landkreis"},"federalState":{"key":"09","name":"Bayern"}},{"name":"Vor dem Forst","postalCode":"57612","locality":"Helmeroth","municipality":{"key":"07132048","name":"Helmeroth","type":"Kreisangehörige_Gemeinde"},"district":{"key":"07132","name":"Altenkirchen (Westerwald)","type":"Landkreis"},"federalState":{"key":"07","name":"Rheinland-Pfalz"}},{"name":"Vorderer Eschachweg","postalCode":"89284","locality":"Pfaffenhofen an der Roth","municipality":{"key":"09775143","name":"Pfaffenhofen a.d.Roth, M","type":"Markt"},"district":{"key":"09775","name":"Neu-Ulm","type":"Landkreis"},"federalState":{"key":"09","name":"Bayern"}},{"name":"Vorderhaimpfarrich","postalCode":"91154","locality":"Roth","municipality":{"key":"09576143","name":"Roth, St","type":"Stadt"},"district":{"key":"09576","name":"Roth","type":"Landkreis"},"federalState":{"key":"09","name":"Bayern"}},{"name":"Vor der Steinert","postalCode":"57518","locality":"Steineroth","municipality":{"key":"07132108","name":"Steineroth","type":"Kreisangehörige_Gemeinde"},"district":{"key":"07132","name":"Altenkirchen (Westerwald)","type":"Landkreis"},"federalState":{"key":"07","name":"Rheinland-Pfalz"}},{"name":"Vorm Würzburger Tor","postalCode":"91541","locality":"Rothenburg ob der Tauber","municipality":{"key":"09571193","name":"Rothenburg ob der Tauber, GKSt","type":"Große_Kreisstadt"},"district":{"key":"09571","name":"Ansbach","type":"Landkreis"},"federalState":{"key":"09","name":"Bayern"}},{"name":"Vorspessartstr.","postalCode":"63594","locality":"Hasselroth","municipality":{"key":"06435015","name":"Hasselroth","type":"Kreisangehörige_Gemeinde"},"district":{"key":"06435","name":"Main-Kinzig-Kreis","type":"Landkreis"},"federalState":{"key":"06","name":"Hessen"}},{"name":"Vorwerkweg","postalCode":"17321","locality":"Rothenklempenow","municipality":{"key":"13075119","name":"Rothenklempenow","type":"Kreisangehörige_Gemeinde"},"district":{"key":"13075","name":"Vorpommern-Greifswald","type":"Landkreis"},"federalState":{"key":"13","name":"Mecklenburg-Vorpommern"}},{"name":"Waldhausstr.","postalCode":"91180","locality":"Heideck","municipality":{"key":"09576126","name":"Heideck, St","type":"Stadt"},"district":{"key":"09576","name":"Roth","type":"Landkreis"},"federalState":{"key":"09","name":"Bayern"}},{"name":"Westenstr.","postalCode":"91180","locality":"Heideck","municipality":{"key":"09576126","name":"Heideck, St","type":"Stadt"},"district":{"key":"09576","name":"Roth","type":"Landkreis"},"federalState":{"key":"09","name":"Bayern"}},{"name":"Xaver-Meisinger-Str.","postalCode":"91154","locality":"Roth","municipality":{"key":"09576143","name":"Roth, St","type":"Stadt"},"district":{"key":"09576","name":"Roth","type":"Landkreis"},"federalState":{"key":"09","name":"Bayern"}},{"name":"Zeller Str.","postalCode":"91180","locality":"Heideck","municipality":{"key":"09576126","name":"Heideck, St","type":"Stadt"},"district":{"key":"09576","name":"Roth","type":"Landkreis"},"federalState":{"key":"09","name":"Bayern"}},{"name":"Ziegelmoos","postalCode":"91180","locality":"Heideck","municipality":{"key":"09576126","name":"Heideck, St","type":"Stadt"},"district":{"key":"09576","name":"Roth","type":"Landkreis"},"federalState":{"key":"09","name":"Bayern"}},{"name":"Äckerleinsweg","postalCode":"97705","locality":"Burkardroth","municipality":{"key":"09672117","name":"Burkardroth, M","type":"Markt"},"district":{"key":"09672","name":"Bad Kissingen","type":"Landkreis"},"federalState":{"key":"09","name":"Bayern"}},{"name":"Äußere Abenberger Str.","postalCode":"91154","locality":"Roth","municipality":{"key":"09576143","name":"Roth, St","type":"Stadt"},"district":{"key":"09576","name":"Roth","type":"Landkreis"},"federalState":{"key":"09","name":"Bayern"}},{"name":"Äußere Belmbracher Str.","postalCode":"91154","locality":"Roth","municipality":{"key":"09576143","name":"Roth, St","type":"Stadt"},"district":{"key":"09576","name":"Roth","type":"Landkreis"},"federalState":{"key":"09","name":"Bayern"}},{"name":"Äußere Nürnberger Str.","postalCode":"91154","locality":"Roth","municipality":{"key":"09576143","name":"Roth, St","type":"Stadt"},"district":{"key":"09576","name":"Roth","type":"Landkreis"},"federalState":{"key":"09","name":"Bayern"}},{"name":"Ölberg","postalCode":"63860","locality":"Rothenbuch","municipality":{"key":"09671148","name":"Rothenbuch","type":"Kreisangehörige_Gemeinde"},"district":{"key":"09671","name":"Aschaffenburg","type":"Landkreis"},"federalState":{"key":"09","name":"Bayern"}},]