[{"name":"Alter Sundweg","postalCode":"23758","locality":"Gremersdorf","municipality":{"key":"01055015","name":"Gremersdorf","type":"Kreisangehörige_Gemeinde"},"district":{"key":"01055","name":"Ostholstein","type":"Kreis"},"federalState":{"key":"01","name":"Schleswig-Holstein"}},{"name":"Am Anger","postalCode":"18461","locality":"Gremersdorf-Buchholz","municipality":{"key":"13073034","name":"Gremersdorf-Buchholz","type":"Kreisangehörige_Gemeinde"},"district":{"key":"13073","name":"Vorpommern-Rügen","type":"Landkreis"},"federalState":{"key":"13","name":"Mecklenburg-Vorpommern"}},{"name":"Am Bahndamm","postalCode":"18461","locality":"Gremersdorf-Buchholz","municipality":{"key":"13073034","name":"Gremersdorf-Buchholz","type":"Kreisangehörige_Gemeinde"},"district":{"key":"13073","name":"Vorpommern-Rügen","type":"Landkreis"},"federalState":{"key":"13","name":"Mecklenburg-Vorpommern"}},{"name":"Am Dorfbrunnen","postalCode":"23758","locality":"Gremersdorf","municipality":{"key":"01055015","name":"Gremersdorf","type":"Kreisangehörige_Gemeinde"},"district":{"key":"01055","name":"Ostholstein","type":"Kreis"},"federalState":{"key":"01","name":"Schleswig-Holstein"}},{"name":"Am Hotel Gremersdorf","postalCode":"23758","locality":"Gremersdorf","municipality":{"key":"01055015","name":"Gremersdorf","type":"Kreisangehörige_Gemeinde"},"district":{"key":"01055","name":"Ostholstein","type":"Kreis"},"federalState":{"key":"01","name":"Schleswig-Holstein"}},{"name":"Am Lindenplatz","postalCode":"23758","locality":"Gremersdorf","municipality":{"key":"01055015","name":"Gremersdorf","type":"Kreisangehörige_Gemeinde"},"district":{"key":"01055","name":"Ostholstein","type":"Kreis"},"federalState":{"key":"01","name":"Schleswig-Holstein"}},{"name":"Am Moor","postalCode":"23758","locality":"Gremersdorf","municipality":{"key":"01055015","name":"Gremersdorf","type":"Kreisangehörige_Gemeinde"},"district":{"key":"01055","name":"Ostholstein","type":"Kreis"},"federalState":{"key":"01","name":"Schleswig-Holstein"}},{"name":"Am Schmiedeberg","postalCode":"23758","locality":"Gremersdorf","municipality":{"key":"01055015","name":"Gremersdorf","type":"Kreisangehörige_Gemeinde"},"district":{"key":"01055","name":"Ostholstein","type":"Kreis"},"federalState":{"key":"01","name":"Schleswig-Holstein"}},{"name":"Am See","postalCode":"18461","locality":"Gremersdorf-Buchholz","municipality":{"key":"13073034","name":"Gremersdorf-Buchholz","type":"Kreisangehörige_Gemeinde"},"district":{"key":"13073","name":"Vorpommern-Rügen","type":"Landkreis"},"federalState":{"key":"13","name":"Mecklenburg-Vorpommern"}},{"name":"Am Teich","postalCode":"18461","locality":"Gremersdorf-Buchholz","municipality":{"key":"13073034","name":"Gremersdorf-Buchholz","type":"Kreisangehörige_Gemeinde"},"district":{"key":"13073","name":"Vorpommern-Rügen","type":"Landkreis"},"federalState":{"key":"13","name":"Mecklenburg-Vorpommern"}},{"name":"Am Windberg","postalCode":"23758","locality":"Gremersdorf","municipality":{"key":"01055015","name":"Gremersdorf","type":"Kreisangehörige_Gemeinde"},"district":{"key":"01055","name":"Ostholstein","type":"Kreis"},"federalState":{"key":"01","name":"Schleswig-Holstein"}},{"name":"An der Kreisstr.","postalCode":"23758","locality":"Gremersdorf","municipality":{"key":"01055015","name":"Gremersdorf","type":"Kreisangehörige_Gemeinde"},"district":{"key":"01055","name":"Ostholstein","type":"Kreis"},"federalState":{"key":"01","name":"Schleswig-Holstein"}},{"name":"An der Wasch","postalCode":"23758","locality":"Gremersdorf","municipality":{"key":"01055015","name":"Gremersdorf","type":"Kreisangehörige_Gemeinde"},"district":{"key":"01055","name":"Ostholstein","type":"Kreis"},"federalState":{"key":"01","name":"Schleswig-Holstein"}},{"name":"Bankendorfer Weg","postalCode":"23758","locality":"Gremersdorf","municipality":{"key":"01055015","name":"Gremersdorf","type":"Kreisangehörige_Gemeinde"},"district":{"key":"01055","name":"Ostholstein","type":"Kreis"},"federalState":{"key":"01","name":"Schleswig-Holstein"}},{"name":"Dazendorf","postalCode":"23758","locality":"Gremersdorf","municipality":{"key":"01055015","name":"Gremersdorf","type":"Kreisangehörige_Gemeinde"},"district":{"key":"01055","name":"Ostholstein","type":"Kreis"},"federalState":{"key":"01","name":"Schleswig-Holstein"}},{"name":"Dörferstr.","postalCode":"23758","locality":"Gremersdorf","municipality":{"key":"01055015","name":"Gremersdorf","type":"Kreisangehörige_Gemeinde"},"district":{"key":"01055","name":"Ostholstein","type":"Kreis"},"federalState":{"key":"01","name":"Schleswig-Holstein"}},{"name":"Dorfstr.","postalCode":"18461","locality":"Gremersdorf-Buchholz","municipality":{"key":"13073034","name":"Gremersdorf-Buchholz","type":"Kreisangehörige_Gemeinde"},"district":{"key":"13073","name":"Vorpommern-Rügen","type":"Landkreis"},"federalState":{"key":"13","name":"Mecklenburg-Vorpommern"}},{"name":"Dorfstr.","postalCode":"23758","locality":"Gremersdorf","municipality":{"key":"01055015","name":"Gremersdorf","type":"Kreisangehörige_Gemeinde"},"district":{"key":"01055","name":"Ostholstein","type":"Kreis"},"federalState":{"key":"01","name":"Schleswig-Holstein"}},{"name":"Dörpstraat","postalCode":"23758","locality":"Gremersdorf","municipality":{"key":"01055015","name":"Gremersdorf","type":"Kreisangehörige_Gemeinde"},"district":{"key":"01055","name":"Ostholstein","type":"Kreis"},"federalState":{"key":"01","name":"Schleswig-Holstein"}},{"name":"Eichenallee","postalCode":"18461","locality":"Gremersdorf-Buchholz","municipality":{"key":"13073034","name":"Gremersdorf-Buchholz","type":"Kreisangehörige_Gemeinde"},"district":{"key":"13073","name":"Vorpommern-Rügen","type":"Landkreis"},"federalState":{"key":"13","name":"Mecklenburg-Vorpommern"}},{"name":"Fasanenweg","postalCode":"23758","locality":"Gremersdorf","municipality":{"key":"01055015","name":"Gremersdorf","type":"Kreisangehörige_Gemeinde"},"district":{"key":"01055","name":"Ostholstein","type":"Kreis"},"federalState":{"key":"01","name":"Schleswig-Holstein"}},{"name":"Franzburger Str.","postalCode":"18461","locality":"Gremersdorf-Buchholz","municipality":{"key":"13073034","name":"Gremersdorf-Buchholz","type":"Kreisangehörige_Gemeinde"},"district":{"key":"13073","name":"Vorpommern-Rügen","type":"Landkreis"},"federalState":{"key":"13","name":"Mecklenburg-Vorpommern"}},{"name":"Friedrichstal","postalCode":"23758","locality":"Gremersdorf","municipality":{"key":"01055015","name":"Gremersdorf","type":"Kreisangehörige_Gemeinde"},"district":{"key":"01055","name":"Ostholstein","type":"Kreis"},"federalState":{"key":"01","name":"Schleswig-Holstein"}},{"name":"Gremersdorfer Str.","postalCode":"18461","locality":"Gremersdorf-Buchholz","municipality":{"key":"13073034","name":"Gremersdorf-Buchholz","type":"Kreisangehörige_Gemeinde"},"district":{"key":"13073","name":"Vorpommern-Rügen","type":"Landkreis"},"federalState":{"key":"13","name":"Mecklenburg-Vorpommern"}},{"name":"Gustav-Frank-Weg","postalCode":"23758","locality":"Gremersdorf","municipality":{"key":"01055015","name":"Gremersdorf","type":"Kreisangehörige_Gemeinde"},"district":{"key":"01055","name":"Ostholstein","type":"Kreis"},"federalState":{"key":"01","name":"Schleswig-Holstein"}},{"name":"Hauptstr.","postalCode":"18461","locality":"Gremersdorf-Buchholz","municipality":{"key":"13073034","name":"Gremersdorf-Buchholz","type":"Kreisangehörige_Gemeinde"},"district":{"key":"13073","name":"Vorpommern-Rügen","type":"Landkreis"},"federalState":{"key":"13","name":"Mecklenburg-Vorpommern"}},{"name":"Hinter der Reihe","postalCode":"23758","locality":"Gremersdorf","municipality":{"key":"01055015","name":"Gremersdorf","type":"Kreisangehörige_Gemeinde"},"district":{"key":"01055","name":"Ostholstein","type":"Kreis"},"federalState":{"key":"01","name":"Schleswig-Holstein"}},{"name":"Im Dorfe","postalCode":"23758","locality":"Gremersdorf","municipality":{"key":"01055015","name":"Gremersdorf","type":"Kreisangehörige_Gemeinde"},"district":{"key":"01055","name":"Ostholstein","type":"Kreis"},"federalState":{"key":"01","name":"Schleswig-Holstein"}},{"name":"Jahnshofer Weg","postalCode":"23758","locality":"Gremersdorf","municipality":{"key":"01055015","name":"Gremersdorf","type":"Kreisangehörige_Gemeinde"},"district":{"key":"01055","name":"Ostholstein","type":"Kreis"},"federalState":{"key":"01","name":"Schleswig-Holstein"}},{"name":"Kastanienallee","postalCode":"18461","locality":"Gremersdorf-Buchholz","municipality":{"key":"13073034","name":"Gremersdorf-Buchholz","type":"Kreisangehörige_Gemeinde"},"district":{"key":"13073","name":"Vorpommern-Rügen","type":"Landkreis"},"federalState":{"key":"13","name":"Mecklenburg-Vorpommern"}},{"name":"Klaustorf","postalCode":"23758","locality":"Gremersdorf","municipality":{"key":"01055015","name":"Gremersdorf","type":"Kreisangehörige_Gemeinde"},"district":{"key":"01055","name":"Ostholstein","type":"Kreis"},"federalState":{"key":"01","name":"Schleswig-Holstein"}},{"name":"Langereihe","postalCode":"23758","locality":"Gremersdorf","municipality":{"key":"01055015","name":"Gremersdorf","type":"Kreisangehörige_Gemeinde"},"district":{"key":"01055","name":"Ostholstein","type":"Kreis"},"federalState":{"key":"01","name":"Schleswig-Holstein"}},{"name":"Markwitzerkamp","postalCode":"23758","locality":"Gremersdorf","municipality":{"key":"01055015","name":"Gremersdorf","type":"Kreisangehörige_Gemeinde"},"district":{"key":"01055","name":"Ostholstein","type":"Kreis"},"federalState":{"key":"01","name":"Schleswig-Holstein"}},{"name":"Meiereikoppel","postalCode":"23758","locality":"Gremersdorf","municipality":{"key":"01055015","name":"Gremersdorf","type":"Kreisangehörige_Gemeinde"},"district":{"key":"01055","name":"Ostholstein","type":"Kreis"},"federalState":{"key":"01","name":"Schleswig-Holstein"}},{"name":"Moorweg","postalCode":"23758","locality":"Gremersdorf","municipality":{"key":"01055015","name":"Gremersdorf","type":"Kreisangehörige_Gemeinde"},"district":{"key":"01055","name":"Ostholstein","type":"Kreis"},"federalState":{"key":"01","name":"Schleswig-Holstein"}},{"name":"Mühlenbergshufe","postalCode":"23758","locality":"Gremersdorf","municipality":{"key":"01055015","name":"Gremersdorf","type":"Kreisangehörige_Gemeinde"},"district":{"key":"01055","name":"Ostholstein","type":"Kreis"},"federalState":{"key":"01","name":"Schleswig-Holstein"}},{"name":"Neubauhof-Oberhof","postalCode":"18461","locality":"Gremersdorf-Buchholz","municipality":{"key":"13073034","name":"Gremersdorf-Buchholz","type":"Kreisangehörige_Gemeinde"},"district":{"key":"13073","name":"Vorpommern-Rügen","type":"Landkreis"},"federalState":{"key":"13","name":"Mecklenburg-Vorpommern"}},{"name":"Neubaustr.","postalCode":"18461","locality":"Gremersdorf-Buchholz","municipality":{"key":"13073034","name":"Gremersdorf-Buchholz","type":"Kreisangehörige_Gemeinde"},"district":{"key":"13073","name":"Vorpommern-Rügen","type":"Landkreis"},"federalState":{"key":"13","name":"Mecklenburg-Vorpommern"}},{"name":"Neue Str.","postalCode":"18461","locality":"Gremersdorf-Buchholz","municipality":{"key":"13073034","name":"Gremersdorf-Buchholz","type":"Kreisangehörige_Gemeinde"},"district":{"key":"13073","name":"Vorpommern-Rügen","type":"Landkreis"},"federalState":{"key":"13","name":"Mecklenburg-Vorpommern"}},{"name":"Neuseegalendorf","postalCode":"23758","locality":"Gremersdorf","municipality":{"key":"01055015","name":"Gremersdorf","type":"Kreisangehörige_Gemeinde"},"district":{"key":"01055","name":"Ostholstein","type":"Kreis"},"federalState":{"key":"01","name":"Schleswig-Holstein"}},{"name":"Papenhäger Str.","postalCode":"18461","locality":"Gremersdorf-Buchholz","municipality":{"key":"13073034","name":"Gremersdorf-Buchholz","type":"Kreisangehörige_Gemeinde"},"district":{"key":"13073","name":"Vorpommern-Rügen","type":"Landkreis"},"federalState":{"key":"13","name":"Mecklenburg-Vorpommern"}},{"name":"Pöglitzer Str.","postalCode":"18461","locality":"Gremersdorf-Buchholz","municipality":{"key":"13073034","name":"Gremersdorf-Buchholz","type":"Kreisangehörige_Gemeinde"},"district":{"key":"13073","name":"Vorpommern-Rügen","type":"Landkreis"},"federalState":{"key":"13","name":"Mecklenburg-Vorpommern"}},{"name":"Schiffshören-Ausbau","postalCode":"18461","locality":"Gremersdorf-Buchholz","municipality":{"key":"13073034","name":"Gremersdorf-Buchholz","type":"Kreisangehörige_Gemeinde"},"district":{"key":"13073","name":"Vorpommern-Rügen","type":"Landkreis"},"federalState":{"key":"13","name":"Mecklenburg-Vorpommern"}},{"name":"Schulweg","postalCode":"18461","locality":"Gremersdorf-Buchholz","municipality":{"key":"13073034","name":"Gremersdorf-Buchholz","type":"Kreisangehörige_Gemeinde"},"district":{"key":"13073","name":"Vorpommern-Rügen","type":"Landkreis"},"federalState":{"key":"13","name":"Mecklenburg-Vorpommern"}},{"name":"Siedlerweg","postalCode":"18461","locality":"Gremersdorf-Buchholz","municipality":{"key":"13073034","name":"Gremersdorf-Buchholz","type":"Kreisangehörige_Gemeinde"},"district":{"key":"13073","name":"Vorpommern-Rügen","type":"Landkreis"},"federalState":{"key":"13","name":"Mecklenburg-Vorpommern"}},{"name":"Waldstr.","postalCode":"18461","locality":"Gremersdorf-Buchholz","municipality":{"key":"13073034","name":"Gremersdorf-Buchholz","type":"Kreisangehörige_Gemeinde"},"district":{"key":"13073","name":"Vorpommern-Rügen","type":"Landkreis"},"federalState":{"key":"13","name":"Mecklenburg-Vorpommern"}},{"name":"Waldstr.","postalCode":"23758","locality":"Gremersdorf","municipality":{"key":"01055015","name":"Gremersdorf","type":"Kreisangehörige_Gemeinde"},"district":{"key":"01055","name":"Ostholstein","type":"Kreis"},"federalState":{"key":"01","name":"Schleswig-Holstein"}},{"name":"Weidenweg","postalCode":"23758","locality":"Gremersdorf","municipality":{"key":"01055015","name":"Gremersdorf","type":"Kreisangehörige_Gemeinde"},"district":{"key":"01055","name":"Ostholstein","type":"Kreis"},"federalState":{"key":"01","name":"Schleswig-Holstein"}},{"name":"Wiesenweg","postalCode":"18461","locality":"Gremersdorf-Buchholz","municipality":{"key":"13073034","name":"Gremersdorf-Buchholz","type":"Kreisangehörige_Gemeinde"},"district":{"key":"13073","name":"Vorpommern-Rügen","type":"Landkreis"},"federalState":{"key":"13","name":"Mecklenburg-Vorpommern"}},{"name":"Zum Bruch","postalCode":"18461","locality":"Gremersdorf-Buchholz","municipality":{"key":"13073034","name":"Gremersdorf-Buchholz","type":"Kreisangehörige_Gemeinde"},"district":{"key":"13073","name":"Vorpommern-Rügen","type":"Landkreis"},"federalState":{"key":"13","name":"Mecklenburg-Vorpommern"}},{"name":"Zum Redder","postalCode":"23758","locality":"Gremersdorf","municipality":{"key":"01055015","name":"Gremersdorf","type":"Kreisangehörige_Gemeinde"},"district":{"key":"01055","name":"Ostholstein","type":"Kreis"},"federalState":{"key":"01","name":"Schleswig-Holstein"}},{"name":"Zum Torhaus","postalCode":"23758","locality":"Gremersdorf","municipality":{"key":"01055015","name":"Gremersdorf","type":"Kreisangehörige_Gemeinde"},"district":{"key":"01055","name":"Ostholstein","type":"Kreis"},"federalState":{"key":"01","name":"Schleswig-Holstein"}},{"name":"Zum Werder","postalCode":"18461","locality":"Gremersdorf-Buchholz","municipality":{"key":"13073034","name":"Gremersdorf-Buchholz","type":"Kreisangehörige_Gemeinde"},"district":{"key":"13073","name":"Vorpommern-Rügen","type":"Landkreis"},"federalState":{"key":"13","name":"Mecklenburg-Vorpommern"}},]