[{"name":"Akazienweg","postalCode":"39326","locality":"Wolmirstedt","municipality":{"key":"15083565","name":"Wolmirstedt, Stadt","type":"Stadt"},"district":{"key":"15083","name":"Börde","type":"Landkreis"},"federalState":{"key":"15","name":"Sachsen-Anhalt"}},{"name":"Albert-Brohme-Str.","postalCode":"39326","locality":"Wolmirstedt","municipality":{"key":"15083565","name":"Wolmirstedt, Stadt","type":"Stadt"},"district":{"key":"15083","name":"Börde","type":"Landkreis"},"federalState":{"key":"15","name":"Sachsen-Anhalt"}},{"name":"Am Birkenwäldchen","postalCode":"39126","locality":"Wolmirstedt","municipality":{"key":"15083565","name":"Wolmirstedt, Stadt","type":"Stadt"},"district":{"key":"15083","name":"Börde","type":"Landkreis"},"federalState":{"key":"15","name":"Sachsen-Anhalt"}},{"name":"Am Birkenwäldchen","postalCode":"39326","locality":"Wolmirstedt","municipality":{"key":"15083565","name":"Wolmirstedt, Stadt","type":"Stadt"},"district":{"key":"15083","name":"Börde","type":"Landkreis"},"federalState":{"key":"15","name":"Sachsen-Anhalt"}},{"name":"Am Darrweg","postalCode":"39326","locality":"Wolmirstedt","municipality":{"key":"15083565","name":"Wolmirstedt, Stadt","type":"Stadt"},"district":{"key":"15083","name":"Börde","type":"Landkreis"},"federalState":{"key":"15","name":"Sachsen-Anhalt"}},{"name":"Am großen Tonloch","postalCode":"39326","locality":"Wolmirstedt","municipality":{"key":"15083565","name":"Wolmirstedt, Stadt","type":"Stadt"},"district":{"key":"15083","name":"Börde","type":"Landkreis"},"federalState":{"key":"15","name":"Sachsen-Anhalt"}},{"name":"Am Habichtshorst","postalCode":"39326","locality":"Wolmirstedt","municipality":{"key":"15083565","name":"Wolmirstedt, Stadt","type":"Stadt"},"district":{"key":"15083","name":"Börde","type":"Landkreis"},"federalState":{"key":"15","name":"Sachsen-Anhalt"}},{"name":"Am Kiefernweg","postalCode":"39326","locality":"Wolmirstedt","municipality":{"key":"15083565","name":"Wolmirstedt, Stadt","type":"Stadt"},"district":{"key":"15083","name":"Börde","type":"Landkreis"},"federalState":{"key":"15","name":"Sachsen-Anhalt"}},{"name":"Am Küchenhorn","postalCode":"39326","locality":"Wolmirstedt","municipality":{"key":"15083565","name":"Wolmirstedt, Stadt","type":"Stadt"},"district":{"key":"15083","name":"Börde","type":"Landkreis"},"federalState":{"key":"15","name":"Sachsen-Anhalt"}},{"name":"Am Obstgarten","postalCode":"39326","locality":"Wolmirstedt","municipality":{"key":"15083565","name":"Wolmirstedt, Stadt","type":"Stadt"},"district":{"key":"15083","name":"Börde","type":"Landkreis"},"federalState":{"key":"15","name":"Sachsen-Anhalt"}},{"name":"Amselberg","postalCode":"39326","locality":"Wolmirstedt","municipality":{"key":"15083565","name":"Wolmirstedt, Stadt","type":"Stadt"},"district":{"key":"15083","name":"Börde","type":"Landkreis"},"federalState":{"key":"15","name":"Sachsen-Anhalt"}},{"name":"Am Sportplatz","postalCode":"39326","locality":"Wolmirstedt","municipality":{"key":"15083565","name":"Wolmirstedt, Stadt","type":"Stadt"},"district":{"key":"15083","name":"Börde","type":"Landkreis"},"federalState":{"key":"15","name":"Sachsen-Anhalt"}},{"name":"Am Teich","postalCode":"39326","locality":"Wolmirstedt","municipality":{"key":"15083565","name":"Wolmirstedt, Stadt","type":"Stadt"},"district":{"key":"15083","name":"Börde","type":"Landkreis"},"federalState":{"key":"15","name":"Sachsen-Anhalt"}},{"name":"Amtsbrücke","postalCode":"39326","locality":"Wolmirstedt","municipality":{"key":"15083565","name":"Wolmirstedt, Stadt","type":"Stadt"},"district":{"key":"15083","name":"Börde","type":"Landkreis"},"federalState":{"key":"15","name":"Sachsen-Anhalt"}},{"name":"Amtstor","postalCode":"39326","locality":"Wolmirstedt","municipality":{"key":"15083565","name":"Wolmirstedt, Stadt","type":"Stadt"},"district":{"key":"15083","name":"Börde","type":"Landkreis"},"federalState":{"key":"15","name":"Sachsen-Anhalt"}},{"name":"Am Viererblock","postalCode":"39326","locality":"Wolmirstedt","municipality":{"key":"15083565","name":"Wolmirstedt, Stadt","type":"Stadt"},"district":{"key":"15083","name":"Börde","type":"Landkreis"},"federalState":{"key":"15","name":"Sachsen-Anhalt"}},{"name":"Am Wald","postalCode":"39326","locality":"Wolmirstedt","municipality":{"key":"15083565","name":"Wolmirstedt, Stadt","type":"Stadt"},"district":{"key":"15083","name":"Börde","type":"Landkreis"},"federalState":{"key":"15","name":"Sachsen-Anhalt"}},{"name":"Am Weinberg","postalCode":"39326","locality":"Wolmirstedt","municipality":{"key":"15083565","name":"Wolmirstedt, Stadt","type":"Stadt"},"district":{"key":"15083","name":"Börde","type":"Landkreis"},"federalState":{"key":"15","name":"Sachsen-Anhalt"}},{"name":"An den Morgen","postalCode":"39326","locality":"Wolmirstedt","municipality":{"key":"15083565","name":"Wolmirstedt, Stadt","type":"Stadt"},"district":{"key":"15083","name":"Börde","type":"Landkreis"},"federalState":{"key":"15","name":"Sachsen-Anhalt"}},{"name":"An der Industriebahn","postalCode":"39326","locality":"Wolmirstedt","municipality":{"key":"15083565","name":"Wolmirstedt, Stadt","type":"Stadt"},"district":{"key":"15083","name":"Börde","type":"Landkreis"},"federalState":{"key":"15","name":"Sachsen-Anhalt"}},{"name":"An der Kippe","postalCode":"39326","locality":"Wolmirstedt","municipality":{"key":"15083565","name":"Wolmirstedt, Stadt","type":"Stadt"},"district":{"key":"15083","name":"Börde","type":"Landkreis"},"federalState":{"key":"15","name":"Sachsen-Anhalt"}},{"name":"An der Mühle","postalCode":"39326","locality":"Wolmirstedt","municipality":{"key":"15083565","name":"Wolmirstedt, Stadt","type":"Stadt"},"district":{"key":"15083","name":"Börde","type":"Landkreis"},"federalState":{"key":"15","name":"Sachsen-Anhalt"}},{"name":"Angerstr.","postalCode":"39326","locality":"Wolmirstedt","municipality":{"key":"15083565","name":"Wolmirstedt, Stadt","type":"Stadt"},"district":{"key":"15083","name":"Börde","type":"Landkreis"},"federalState":{"key":"15","name":"Sachsen-Anhalt"}},{"name":"August-Bebel-Str.","postalCode":"39326","locality":"Wolmirstedt","municipality":{"key":"15083565","name":"Wolmirstedt, Stadt","type":"Stadt"},"district":{"key":"15083","name":"Börde","type":"Landkreis"},"federalState":{"key":"15","name":"Sachsen-Anhalt"}},{"name":"Bäckerstr.","postalCode":"39326","locality":"Wolmirstedt","municipality":{"key":"15083565","name":"Wolmirstedt, Stadt","type":"Stadt"},"district":{"key":"15083","name":"Börde","type":"Landkreis"},"federalState":{"key":"15","name":"Sachsen-Anhalt"}},{"name":"Backofenbreite","postalCode":"39326","locality":"Wolmirstedt","municipality":{"key":"15083565","name":"Wolmirstedt, Stadt","type":"Stadt"},"district":{"key":"15083","name":"Börde","type":"Landkreis"},"federalState":{"key":"15","name":"Sachsen-Anhalt"}},{"name":"Badewitzstr.","postalCode":"39326","locality":"Wolmirstedt","municipality":{"key":"15083565","name":"Wolmirstedt, Stadt","type":"Stadt"},"district":{"key":"15083","name":"Börde","type":"Landkreis"},"federalState":{"key":"15","name":"Sachsen-Anhalt"}},{"name":"Bahnhofstr.","postalCode":"39326","locality":"Wolmirstedt","municipality":{"key":"15083565","name":"Wolmirstedt, Stadt","type":"Stadt"},"district":{"key":"15083","name":"Börde","type":"Landkreis"},"federalState":{"key":"15","name":"Sachsen-Anhalt"}},{"name":"Bandaustr.","postalCode":"39326","locality":"Wolmirstedt","municipality":{"key":"15083565","name":"Wolmirstedt, Stadt","type":"Stadt"},"district":{"key":"15083","name":"Börde","type":"Landkreis"},"federalState":{"key":"15","name":"Sachsen-Anhalt"}},{"name":"Bauernweg","postalCode":"39326","locality":"Wolmirstedt","municipality":{"key":"15083565","name":"Wolmirstedt, Stadt","type":"Stadt"},"district":{"key":"15083","name":"Börde","type":"Landkreis"},"federalState":{"key":"15","name":"Sachsen-Anhalt"}},{"name":"Baumschulenweg","postalCode":"39326","locality":"Wolmirstedt","municipality":{"key":"15083565","name":"Wolmirstedt, Stadt","type":"Stadt"},"district":{"key":"15083","name":"Börde","type":"Landkreis"},"federalState":{"key":"15","name":"Sachsen-Anhalt"}},{"name":"Bei den Tannen","postalCode":"39326","locality":"Wolmirstedt","municipality":{"key":"15083565","name":"Wolmirstedt, Stadt","type":"Stadt"},"district":{"key":"15083","name":"Börde","type":"Landkreis"},"federalState":{"key":"15","name":"Sachsen-Anhalt"}},{"name":"Bergbreite","postalCode":"39326","locality":"Wolmirstedt","municipality":{"key":"15083565","name":"Wolmirstedt, Stadt","type":"Stadt"},"district":{"key":"15083","name":"Börde","type":"Landkreis"},"federalState":{"key":"15","name":"Sachsen-Anhalt"}},{"name":"Bergstr.","postalCode":"39326","locality":"Wolmirstedt","municipality":{"key":"15083565","name":"Wolmirstedt, Stadt","type":"Stadt"},"district":{"key":"15083","name":"Börde","type":"Landkreis"},"federalState":{"key":"15","name":"Sachsen-Anhalt"}},{"name":"Birkenweg","postalCode":"39326","locality":"Wolmirstedt","municipality":{"key":"15083565","name":"Wolmirstedt, Stadt","type":"Stadt"},"district":{"key":"15083","name":"Börde","type":"Landkreis"},"federalState":{"key":"15","name":"Sachsen-Anhalt"}},{"name":"Bleicher Weg","postalCode":"39326","locality":"Wolmirstedt","municipality":{"key":"15083565","name":"Wolmirstedt, Stadt","type":"Stadt"},"district":{"key":"15083","name":"Börde","type":"Landkreis"},"federalState":{"key":"15","name":"Sachsen-Anhalt"}},{"name":"Breite Str.","postalCode":"39326","locality":"Wolmirstedt","municipality":{"key":"15083565","name":"Wolmirstedt, Stadt","type":"Stadt"},"district":{"key":"15083","name":"Börde","type":"Landkreis"},"federalState":{"key":"15","name":"Sachsen-Anhalt"}},{"name":"Bungalowsiedlung Jersleber See","postalCode":"39326","locality":"Wolmirstedt","municipality":{"key":"15083565","name":"Wolmirstedt, Stadt","type":"Stadt"},"district":{"key":"15083","name":"Börde","type":"Landkreis"},"federalState":{"key":"15","name":"Sachsen-Anhalt"}},{"name":"Burgstr.","postalCode":"39326","locality":"Wolmirstedt","municipality":{"key":"15083565","name":"Wolmirstedt, Stadt","type":"Stadt"},"district":{"key":"15083","name":"Börde","type":"Landkreis"},"federalState":{"key":"15","name":"Sachsen-Anhalt"}},{"name":"Buschweg","postalCode":"39326","locality":"Wolmirstedt","municipality":{"key":"15083565","name":"Wolmirstedt, Stadt","type":"Stadt"},"district":{"key":"15083","name":"Börde","type":"Landkreis"},"federalState":{"key":"15","name":"Sachsen-Anhalt"}},{"name":"Colbitzer Str.","postalCode":"39326","locality":"Wolmirstedt","municipality":{"key":"15083565","name":"Wolmirstedt, Stadt","type":"Stadt"},"district":{"key":"15083","name":"Börde","type":"Landkreis"},"federalState":{"key":"15","name":"Sachsen-Anhalt"}},{"name":"Damaschkestr.","postalCode":"39326","locality":"Wolmirstedt","municipality":{"key":"15083565","name":"Wolmirstedt, Stadt","type":"Stadt"},"district":{"key":"15083","name":"Börde","type":"Landkreis"},"federalState":{"key":"15","name":"Sachsen-Anhalt"}},{"name":"Deichtorweg","postalCode":"39326","locality":"Wolmirstedt","municipality":{"key":"15083565","name":"Wolmirstedt, Stadt","type":"Stadt"},"district":{"key":"15083","name":"Börde","type":"Landkreis"},"federalState":{"key":"15","name":"Sachsen-Anhalt"}},{"name":"Dorfstr.","postalCode":"39326","locality":"Wolmirstedt","municipality":{"key":"15083565","name":"Wolmirstedt, Stadt","type":"Stadt"},"district":{"key":"15083","name":"Börde","type":"Landkreis"},"federalState":{"key":"15","name":"Sachsen-Anhalt"}},{"name":"Elbeuer Str.","postalCode":"39326","locality":"Wolmirstedt","municipality":{"key":"15083565","name":"Wolmirstedt, Stadt","type":"Stadt"},"district":{"key":"15083","name":"Börde","type":"Landkreis"},"federalState":{"key":"15","name":"Sachsen-Anhalt"}},{"name":"Elbstr.","postalCode":"39326","locality":"Wolmirstedt","municipality":{"key":"15083565","name":"Wolmirstedt, Stadt","type":"Stadt"},"district":{"key":"15083","name":"Börde","type":"Landkreis"},"federalState":{"key":"15","name":"Sachsen-Anhalt"}},{"name":"Eschenweg","postalCode":"39326","locality":"Wolmirstedt","municipality":{"key":"15083565","name":"Wolmirstedt, Stadt","type":"Stadt"},"district":{"key":"15083","name":"Börde","type":"Landkreis"},"federalState":{"key":"15","name":"Sachsen-Anhalt"}},{"name":"Eulengrund","postalCode":"39326","locality":"Wolmirstedt","municipality":{"key":"15083565","name":"Wolmirstedt, Stadt","type":"Stadt"},"district":{"key":"15083","name":"Börde","type":"Landkreis"},"federalState":{"key":"15","name":"Sachsen-Anhalt"}},{"name":"Fabrikstr.","postalCode":"39326","locality":"Wolmirstedt","municipality":{"key":"15083565","name":"Wolmirstedt, Stadt","type":"Stadt"},"district":{"key":"15083","name":"Börde","type":"Landkreis"},"federalState":{"key":"15","name":"Sachsen-Anhalt"}},{"name":"Falkenstr.","postalCode":"39326","locality":"Wolmirstedt","municipality":{"key":"15083565","name":"Wolmirstedt, Stadt","type":"Stadt"},"district":{"key":"15083","name":"Börde","type":"Landkreis"},"federalState":{"key":"15","name":"Sachsen-Anhalt"}},{"name":"Farsleber Str.","postalCode":"39326","locality":"Wolmirstedt","municipality":{"key":"15083565","name":"Wolmirstedt, Stadt","type":"Stadt"},"district":{"key":"15083","name":"Börde","type":"Landkreis"},"federalState":{"key":"15","name":"Sachsen-Anhalt"}},{"name":"Feldstr.","postalCode":"39326","locality":"Wolmirstedt","municipality":{"key":"15083565","name":"Wolmirstedt, Stadt","type":"Stadt"},"district":{"key":"15083","name":"Börde","type":"Landkreis"},"federalState":{"key":"15","name":"Sachsen-Anhalt"}},{"name":"Fischerufer","postalCode":"39326","locality":"Wolmirstedt","municipality":{"key":"15083565","name":"Wolmirstedt, Stadt","type":"Stadt"},"district":{"key":"15083","name":"Börde","type":"Landkreis"},"federalState":{"key":"15","name":"Sachsen-Anhalt"}},{"name":"Fischerufer-Str.","postalCode":"39326","locality":"Wolmirstedt","municipality":{"key":"15083565","name":"Wolmirstedt, Stadt","type":"Stadt"},"district":{"key":"15083","name":"Börde","type":"Landkreis"},"federalState":{"key":"15","name":"Sachsen-Anhalt"}},{"name":"Fliederweg","postalCode":"39326","locality":"Wolmirstedt","municipality":{"key":"15083565","name":"Wolmirstedt, Stadt","type":"Stadt"},"district":{"key":"15083","name":"Börde","type":"Landkreis"},"federalState":{"key":"15","name":"Sachsen-Anhalt"}},{"name":"Föhrenweg","postalCode":"39326","locality":"Wolmirstedt","municipality":{"key":"15083565","name":"Wolmirstedt, Stadt","type":"Stadt"},"district":{"key":"15083","name":"Börde","type":"Landkreis"},"federalState":{"key":"15","name":"Sachsen-Anhalt"}},{"name":"Friedensstr.","postalCode":"39326","locality":"Wolmirstedt","municipality":{"key":"15083565","name":"Wolmirstedt, Stadt","type":"Stadt"},"district":{"key":"15083","name":"Börde","type":"Landkreis"},"federalState":{"key":"15","name":"Sachsen-Anhalt"}},{"name":"Friedrich-Ebert-Str.","postalCode":"39326","locality":"Wolmirstedt","municipality":{"key":"15083565","name":"Wolmirstedt, Stadt","type":"Stadt"},"district":{"key":"15083","name":"Börde","type":"Landkreis"},"federalState":{"key":"15","name":"Sachsen-Anhalt"}},{"name":"Gänsebreite","postalCode":"39326","locality":"Wolmirstedt","municipality":{"key":"15083565","name":"Wolmirstedt, Stadt","type":"Stadt"},"district":{"key":"15083","name":"Börde","type":"Landkreis"},"federalState":{"key":"15","name":"Sachsen-Anhalt"}},{"name":"Gartenstr.","postalCode":"39326","locality":"Wolmirstedt","municipality":{"key":"15083565","name":"Wolmirstedt, Stadt","type":"Stadt"},"district":{"key":"15083","name":"Börde","type":"Landkreis"},"federalState":{"key":"15","name":"Sachsen-Anhalt"}},{"name":"Genossenschaftsweg","postalCode":"39326","locality":"Wolmirstedt","municipality":{"key":"15083565","name":"Wolmirstedt, Stadt","type":"Stadt"},"district":{"key":"15083","name":"Börde","type":"Landkreis"},"federalState":{"key":"15","name":"Sachsen-Anhalt"}},{"name":"Geschwister-Scholl-Str.","postalCode":"39326","locality":"Wolmirstedt","municipality":{"key":"15083565","name":"Wolmirstedt, Stadt","type":"Stadt"},"district":{"key":"15083","name":"Börde","type":"Landkreis"},"federalState":{"key":"15","name":"Sachsen-Anhalt"}},{"name":"Ginsterweg","postalCode":"39326","locality":"Wolmirstedt","municipality":{"key":"15083565","name":"Wolmirstedt, Stadt","type":"Stadt"},"district":{"key":"15083","name":"Börde","type":"Landkreis"},"federalState":{"key":"15","name":"Sachsen-Anhalt"}},{"name":"Gipfelstr.","postalCode":"39326","locality":"Wolmirstedt","municipality":{"key":"15083565","name":"Wolmirstedt, Stadt","type":"Stadt"},"district":{"key":"15083","name":"Börde","type":"Landkreis"},"federalState":{"key":"15","name":"Sachsen-Anhalt"}},{"name":"Glindenberger Chaussee","postalCode":"39326","locality":"Wolmirstedt","municipality":{"key":"15083565","name":"Wolmirstedt, Stadt","type":"Stadt"},"district":{"key":"15083","name":"Börde","type":"Landkreis"},"federalState":{"key":"15","name":"Sachsen-Anhalt"}},{"name":"Glindenberger Str.","postalCode":"39326","locality":"Wolmirstedt","municipality":{"key":"15083565","name":"Wolmirstedt, Stadt","type":"Stadt"},"district":{"key":"15083","name":"Börde","type":"Landkreis"},"federalState":{"key":"15","name":"Sachsen-Anhalt"}},{"name":"Goldregenweg","postalCode":"39326","locality":"Wolmirstedt","municipality":{"key":"15083565","name":"Wolmirstedt, Stadt","type":"Stadt"},"district":{"key":"15083","name":"Börde","type":"Landkreis"},"federalState":{"key":"15","name":"Sachsen-Anhalt"}},{"name":"Grüner Weg","postalCode":"39326","locality":"Wolmirstedt","municipality":{"key":"15083565","name":"Wolmirstedt, Stadt","type":"Stadt"},"district":{"key":"15083","name":"Börde","type":"Landkreis"},"federalState":{"key":"15","name":"Sachsen-Anhalt"}},{"name":"Handwerkerring","postalCode":"39326","locality":"Wolmirstedt","municipality":{"key":"15083565","name":"Wolmirstedt, Stadt","type":"Stadt"},"district":{"key":"15083","name":"Börde","type":"Landkreis"},"federalState":{"key":"15","name":"Sachsen-Anhalt"}},{"name":"Hauptstr.","postalCode":"39326","locality":"Wolmirstedt","municipality":{"key":"15083565","name":"Wolmirstedt, Stadt","type":"Stadt"},"district":{"key":"15083","name":"Börde","type":"Landkreis"},"federalState":{"key":"15","name":"Sachsen-Anhalt"}},{"name":"Heidbergstr.","postalCode":"39326","locality":"Wolmirstedt","municipality":{"key":"15083565","name":"Wolmirstedt, Stadt","type":"Stadt"},"district":{"key":"15083","name":"Börde","type":"Landkreis"},"federalState":{"key":"15","name":"Sachsen-Anhalt"}},{"name":"Heideweg","postalCode":"39326","locality":"Wolmirstedt","municipality":{"key":"15083565","name":"Wolmirstedt, Stadt","type":"Stadt"},"district":{"key":"15083","name":"Börde","type":"Landkreis"},"federalState":{"key":"15","name":"Sachsen-Anhalt"}},{"name":"Heinrich-Heine-Str.","postalCode":"39326","locality":"Wolmirstedt","municipality":{"key":"15083565","name":"Wolmirstedt, Stadt","type":"Stadt"},"district":{"key":"15083","name":"Börde","type":"Landkreis"},"federalState":{"key":"15","name":"Sachsen-Anhalt"}},{"name":"Heinrichsberger Str.","postalCode":"39326","locality":"Wolmirstedt","municipality":{"key":"15083565","name":"Wolmirstedt, Stadt","type":"Stadt"},"district":{"key":"15083","name":"Börde","type":"Landkreis"},"federalState":{"key":"15","name":"Sachsen-Anhalt"}},{"name":"Hohe Stein Str.","postalCode":"39326","locality":"Wolmirstedt","municipality":{"key":"15083565","name":"Wolmirstedt, Stadt","type":"Stadt"},"district":{"key":"15083","name":"Börde","type":"Landkreis"},"federalState":{"key":"15","name":"Sachsen-Anhalt"}},{"name":"Im Kreis","postalCode":"39326","locality":"Wolmirstedt","municipality":{"key":"15083565","name":"Wolmirstedt, Stadt","type":"Stadt"},"district":{"key":"15083","name":"Börde","type":"Landkreis"},"federalState":{"key":"15","name":"Sachsen-Anhalt"}},{"name":"Im Winkel","postalCode":"39326","locality":"Wolmirstedt","municipality":{"key":"15083565","name":"Wolmirstedt, Stadt","type":"Stadt"},"district":{"key":"15083","name":"Börde","type":"Landkreis"},"federalState":{"key":"15","name":"Sachsen-Anhalt"}},{"name":"Jersleber Str.","postalCode":"39326","locality":"Wolmirstedt","municipality":{"key":"15083565","name":"Wolmirstedt, Stadt","type":"Stadt"},"district":{"key":"15083","name":"Börde","type":"Landkreis"},"federalState":{"key":"15","name":"Sachsen-Anhalt"}},{"name":"Julius-Bremer-Str.","postalCode":"39326","locality":"Wolmirstedt","municipality":{"key":"15083565","name":"Wolmirstedt, Stadt","type":"Stadt"},"district":{"key":"15083","name":"Börde","type":"Landkreis"},"federalState":{"key":"15","name":"Sachsen-Anhalt"}},{"name":"Jungfernstieg","postalCode":"39326","locality":"Wolmirstedt","municipality":{"key":"15083565","name":"Wolmirstedt, Stadt","type":"Stadt"},"district":{"key":"15083","name":"Börde","type":"Landkreis"},"federalState":{"key":"15","name":"Sachsen-Anhalt"}},{"name":"Kastanienweg","postalCode":"39326","locality":"Wolmirstedt","municipality":{"key":"15083565","name":"Wolmirstedt, Stadt","type":"Stadt"},"district":{"key":"15083","name":"Börde","type":"Landkreis"},"federalState":{"key":"15","name":"Sachsen-Anhalt"}},{"name":"Kiefernweg","postalCode":"39326","locality":"Wolmirstedt","municipality":{"key":"15083565","name":"Wolmirstedt, Stadt","type":"Stadt"},"district":{"key":"15083","name":"Börde","type":"Landkreis"},"federalState":{"key":"15","name":"Sachsen-Anhalt"}},{"name":"Kirchblick","postalCode":"39326","locality":"Wolmirstedt","municipality":{"key":"15083565","name":"Wolmirstedt, Stadt","type":"Stadt"},"district":{"key":"15083","name":"Börde","type":"Landkreis"},"federalState":{"key":"15","name":"Sachsen-Anhalt"}},{"name":"Kleine Sandkuhle","postalCode":"39326","locality":"Wolmirstedt","municipality":{"key":"15083565","name":"Wolmirstedt, Stadt","type":"Stadt"},"district":{"key":"15083","name":"Börde","type":"Landkreis"},"federalState":{"key":"15","name":"Sachsen-Anhalt"}},{"name":"Konsumstr.","postalCode":"39326","locality":"Wolmirstedt","municipality":{"key":"15083565","name":"Wolmirstedt, Stadt","type":"Stadt"},"district":{"key":"15083","name":"Börde","type":"Landkreis"},"federalState":{"key":"15","name":"Sachsen-Anhalt"}},{"name":"Kornblumenring","postalCode":"39326","locality":"Wolmirstedt","municipality":{"key":"15083565","name":"Wolmirstedt, Stadt","type":"Stadt"},"district":{"key":"15083","name":"Börde","type":"Landkreis"},"federalState":{"key":"15","name":"Sachsen-Anhalt"}},{"name":"Krokusweg","postalCode":"39326","locality":"Wolmirstedt","municipality":{"key":"15083565","name":"Wolmirstedt, Stadt","type":"Stadt"},"district":{"key":"15083","name":"Börde","type":"Landkreis"},"federalState":{"key":"15","name":"Sachsen-Anhalt"}},{"name":"Kronsberg","postalCode":"39326","locality":"Wolmirstedt","municipality":{"key":"15083565","name":"Wolmirstedt, Stadt","type":"Stadt"},"district":{"key":"15083","name":"Börde","type":"Landkreis"},"federalState":{"key":"15","name":"Sachsen-Anhalt"}},{"name":"Krugberg","postalCode":"39326","locality":"Wolmirstedt","municipality":{"key":"15083565","name":"Wolmirstedt, Stadt","type":"Stadt"},"district":{"key":"15083","name":"Börde","type":"Landkreis"},"federalState":{"key":"15","name":"Sachsen-Anhalt"}},{"name":"Kuckucksweg","postalCode":"39326","locality":"Wolmirstedt","municipality":{"key":"15083565","name":"Wolmirstedt, Stadt","type":"Stadt"},"district":{"key":"15083","name":"Börde","type":"Landkreis"},"federalState":{"key":"15","name":"Sachsen-Anhalt"}},{"name":"Kuhbusch","postalCode":"39326","locality":"Wolmirstedt","municipality":{"key":"15083565","name":"Wolmirstedt, Stadt","type":"Stadt"},"district":{"key":"15083","name":"Börde","type":"Landkreis"},"federalState":{"key":"15","name":"Sachsen-Anhalt"}},{"name":"Kurze Str.","postalCode":"39326","locality":"Wolmirstedt","municipality":{"key":"15083565","name":"Wolmirstedt, Stadt","type":"Stadt"},"district":{"key":"15083","name":"Börde","type":"Landkreis"},"federalState":{"key":"15","name":"Sachsen-Anhalt"}},{"name":"Lindenbreite","postalCode":"39326","locality":"Wolmirstedt","municipality":{"key":"15083565","name":"Wolmirstedt, Stadt","type":"Stadt"},"district":{"key":"15083","name":"Börde","type":"Landkreis"},"federalState":{"key":"15","name":"Sachsen-Anhalt"}},{"name":"Lindhorster Weg","postalCode":"39326","locality":"Wolmirstedt","municipality":{"key":"15083565","name":"Wolmirstedt, Stadt","type":"Stadt"},"district":{"key":"15083","name":"Börde","type":"Landkreis"},"federalState":{"key":"15","name":"Sachsen-Anhalt"}},{"name":"Lupinenweg","postalCode":"39326","locality":"Wolmirstedt","municipality":{"key":"15083565","name":"Wolmirstedt, Stadt","type":"Stadt"},"district":{"key":"15083","name":"Börde","type":"Landkreis"},"federalState":{"key":"15","name":"Sachsen-Anhalt"}},{"name":"Magdeburger Str.","postalCode":"39326","locality":"Wolmirstedt","municipality":{"key":"15083565","name":"Wolmirstedt, Stadt","type":"Stadt"},"district":{"key":"15083","name":"Börde","type":"Landkreis"},"federalState":{"key":"15","name":"Sachsen-Anhalt"}},{"name":"Maschenplatz","postalCode":"39326","locality":"Wolmirstedt","municipality":{"key":"15083565","name":"Wolmirstedt, Stadt","type":"Stadt"},"district":{"key":"15083","name":"Börde","type":"Landkreis"},"federalState":{"key":"15","name":"Sachsen-Anhalt"}},{"name":"Maschenstr.","postalCode":"39326","locality":"Wolmirstedt","municipality":{"key":"15083565","name":"Wolmirstedt, Stadt","type":"Stadt"},"district":{"key":"15083","name":"Börde","type":"Landkreis"},"federalState":{"key":"15","name":"Sachsen-Anhalt"}},{"name":"Meseberger Str.","postalCode":"39326","locality":"Wolmirstedt","municipality":{"key":"15083565","name":"Wolmirstedt, Stadt","type":"Stadt"},"district":{"key":"15083","name":"Börde","type":"Landkreis"},"federalState":{"key":"15","name":"Sachsen-Anhalt"}},{"name":"Moortalstr.","postalCode":"39326","locality":"Wolmirstedt","municipality":{"key":"15083565","name":"Wolmirstedt, Stadt","type":"Stadt"},"district":{"key":"15083","name":"Börde","type":"Landkreis"},"federalState":{"key":"15","name":"Sachsen-Anhalt"}},{"name":"Mühlenweg","postalCode":"39326","locality":"Wolmirstedt","municipality":{"key":"15083565","name":"Wolmirstedt, Stadt","type":"Stadt"},"district":{"key":"15083","name":"Börde","type":"Landkreis"},"federalState":{"key":"15","name":"Sachsen-Anhalt"}},{"name":"Nachtweide","postalCode":"39326","locality":"Wolmirstedt","municipality":{"key":"15083565","name":"Wolmirstedt, Stadt","type":"Stadt"},"district":{"key":"15083","name":"Börde","type":"Landkreis"},"federalState":{"key":"15","name":"Sachsen-Anhalt"}},{"name":"Narzissenweg","postalCode":"39326","locality":"Wolmirstedt","municipality":{"key":"15083565","name":"Wolmirstedt, Stadt","type":"Stadt"},"district":{"key":"15083","name":"Börde","type":"Landkreis"},"federalState":{"key":"15","name":"Sachsen-Anhalt"}},{"name":"Neubauernsiedlung","postalCode":"39326","locality":"Wolmirstedt","municipality":{"key":"15083565","name":"Wolmirstedt, Stadt","type":"Stadt"},"district":{"key":"15083","name":"Börde","type":"Landkreis"},"federalState":{"key":"15","name":"Sachsen-Anhalt"}},{"name":"Neue Str.","postalCode":"39326","locality":"Wolmirstedt","municipality":{"key":"15083565","name":"Wolmirstedt, Stadt","type":"Stadt"},"district":{"key":"15083","name":"Börde","type":"Landkreis"},"federalState":{"key":"15","name":"Sachsen-Anhalt"}},{"name":"Nordbreite","postalCode":"39326","locality":"Wolmirstedt","municipality":{"key":"15083565","name":"Wolmirstedt, Stadt","type":"Stadt"},"district":{"key":"15083","name":"Börde","type":"Landkreis"},"federalState":{"key":"15","name":"Sachsen-Anhalt"}},{"name":"Ohrestr.","postalCode":"39326","locality":"Wolmirstedt","municipality":{"key":"15083565","name":"Wolmirstedt, Stadt","type":"Stadt"},"district":{"key":"15083","name":"Börde","type":"Landkreis"},"federalState":{"key":"15","name":"Sachsen-Anhalt"}},{"name":"Parkstr.","postalCode":"39326","locality":"Wolmirstedt","municipality":{"key":"15083565","name":"Wolmirstedt, Stadt","type":"Stadt"},"district":{"key":"15083","name":"Börde","type":"Landkreis"},"federalState":{"key":"15","name":"Sachsen-Anhalt"}},{"name":"Quergasse","postalCode":"39326","locality":"Wolmirstedt","municipality":{"key":"15083565","name":"Wolmirstedt, Stadt","type":"Stadt"},"district":{"key":"15083","name":"Börde","type":"Landkreis"},"federalState":{"key":"15","name":"Sachsen-Anhalt"}},{"name":"Quetchen","postalCode":"39326","locality":"Wolmirstedt","municipality":{"key":"15083565","name":"Wolmirstedt, Stadt","type":"Stadt"},"district":{"key":"15083","name":"Börde","type":"Landkreis"},"federalState":{"key":"15","name":"Sachsen-Anhalt"}},{"name":"Robinienweg","postalCode":"39326","locality":"Wolmirstedt","municipality":{"key":"15083565","name":"Wolmirstedt, Stadt","type":"Stadt"},"district":{"key":"15083","name":"Börde","type":"Landkreis"},"federalState":{"key":"15","name":"Sachsen-Anhalt"}},{"name":"Rogätzer Str.","postalCode":"39326","locality":"Wolmirstedt","municipality":{"key":"15083565","name":"Wolmirstedt, Stadt","type":"Stadt"},"district":{"key":"15083","name":"Börde","type":"Landkreis"},"federalState":{"key":"15","name":"Sachsen-Anhalt"}},{"name":"Rosa-Luxemburg-Str.","postalCode":"39326","locality":"Wolmirstedt","municipality":{"key":"15083565","name":"Wolmirstedt, Stadt","type":"Stadt"},"district":{"key":"15083","name":"Börde","type":"Landkreis"},"federalState":{"key":"15","name":"Sachsen-Anhalt"}},{"name":"Rothenseer Str.","postalCode":"39326","locality":"Wolmirstedt","municipality":{"key":"15083565","name":"Wolmirstedt, Stadt","type":"Stadt"},"district":{"key":"15083","name":"Börde","type":"Landkreis"},"federalState":{"key":"15","name":"Sachsen-Anhalt"}},{"name":"Samsweger Str.","postalCode":"39326","locality":"Wolmirstedt","municipality":{"key":"15083565","name":"Wolmirstedt, Stadt","type":"Stadt"},"district":{"key":"15083","name":"Börde","type":"Landkreis"},"federalState":{"key":"15","name":"Sachsen-Anhalt"}},{"name":"Sandbreite","postalCode":"39326","locality":"Wolmirstedt","municipality":{"key":"15083565","name":"Wolmirstedt, Stadt","type":"Stadt"},"district":{"key":"15083","name":"Börde","type":"Landkreis"},"federalState":{"key":"15","name":"Sachsen-Anhalt"}},{"name":"Schachtstr.","postalCode":"39326","locality":"Wolmirstedt","municipality":{"key":"15083565","name":"Wolmirstedt, Stadt","type":"Stadt"},"district":{"key":"15083","name":"Börde","type":"Landkreis"},"federalState":{"key":"15","name":"Sachsen-Anhalt"}},{"name":"Schäferbreite","postalCode":"39326","locality":"Wolmirstedt","municipality":{"key":"15083565","name":"Wolmirstedt, Stadt","type":"Stadt"},"district":{"key":"15083","name":"Börde","type":"Landkreis"},"federalState":{"key":"15","name":"Sachsen-Anhalt"}},{"name":"Schlehenweg","postalCode":"39326","locality":"Wolmirstedt","municipality":{"key":"15083565","name":"Wolmirstedt, Stadt","type":"Stadt"},"district":{"key":"15083","name":"Börde","type":"Landkreis"},"federalState":{"key":"15","name":"Sachsen-Anhalt"}},{"name":"Schloßdomäne","postalCode":"39326","locality":"Wolmirstedt","municipality":{"key":"15083565","name":"Wolmirstedt, Stadt","type":"Stadt"},"district":{"key":"15083","name":"Börde","type":"Landkreis"},"federalState":{"key":"15","name":"Sachsen-Anhalt"}},{"name":"Schricker Weg","postalCode":"39326","locality":"Wolmirstedt","municipality":{"key":"15083565","name":"Wolmirstedt, Stadt","type":"Stadt"},"district":{"key":"15083","name":"Börde","type":"Landkreis"},"federalState":{"key":"15","name":"Sachsen-Anhalt"}},{"name":"Schwimmbadstr.","postalCode":"39326","locality":"Wolmirstedt","municipality":{"key":"15083565","name":"Wolmirstedt, Stadt","type":"Stadt"},"district":{"key":"15083","name":"Börde","type":"Landkreis"},"federalState":{"key":"15","name":"Sachsen-Anhalt"}},{"name":"Seegrabenstr.","postalCode":"39326","locality":"Wolmirstedt","municipality":{"key":"15083565","name":"Wolmirstedt, Stadt","type":"Stadt"},"district":{"key":"15083","name":"Börde","type":"Landkreis"},"federalState":{"key":"15","name":"Sachsen-Anhalt"}},{"name":"Seeweg","postalCode":"39326","locality":"Wolmirstedt","municipality":{"key":"15083565","name":"Wolmirstedt, Stadt","type":"Stadt"},"district":{"key":"15083","name":"Börde","type":"Landkreis"},"federalState":{"key":"15","name":"Sachsen-Anhalt"}},{"name":"Siedlung","postalCode":"39326","locality":"Wolmirstedt","municipality":{"key":"15083565","name":"Wolmirstedt, Stadt","type":"Stadt"},"district":{"key":"15083","name":"Börde","type":"Landkreis"},"federalState":{"key":"15","name":"Sachsen-Anhalt"}},{"name":"Stollenweg","postalCode":"39326","locality":"Wolmirstedt","municipality":{"key":"15083565","name":"Wolmirstedt, Stadt","type":"Stadt"},"district":{"key":"15083","name":"Börde","type":"Landkreis"},"federalState":{"key":"15","name":"Sachsen-Anhalt"}},{"name":"Str. der Deutschen Einheit","postalCode":"39326","locality":"Wolmirstedt","municipality":{"key":"15083565","name":"Wolmirstedt, Stadt","type":"Stadt"},"district":{"key":"15083","name":"Börde","type":"Landkreis"},"federalState":{"key":"15","name":"Sachsen-Anhalt"}},{"name":"Thronstr.","postalCode":"39326","locality":"Wolmirstedt","municipality":{"key":"15083565","name":"Wolmirstedt, Stadt","type":"Stadt"},"district":{"key":"15083","name":"Börde","type":"Landkreis"},"federalState":{"key":"15","name":"Sachsen-Anhalt"}},{"name":"Triftstr.","postalCode":"39326","locality":"Wolmirstedt","municipality":{"key":"15083565","name":"Wolmirstedt, Stadt","type":"Stadt"},"district":{"key":"15083","name":"Börde","type":"Landkreis"},"federalState":{"key":"15","name":"Sachsen-Anhalt"}},{"name":"Uhlenhoch","postalCode":"39167","locality":"Hohe Börde","municipality":{"key":"15083298","name":"Hohe Börde","type":"Kreisangehörige_Gemeinde"},"district":{"key":"15083","name":"Börde","type":"Landkreis"},"federalState":{"key":"15","name":"Sachsen-Anhalt"}},{"name":"Ulmenweg","postalCode":"39167","locality":"Hohe Börde","municipality":{"key":"15083298","name":"Hohe Börde","type":"Kreisangehörige_Gemeinde"},"district":{"key":"15083","name":"Börde","type":"Landkreis"},"federalState":{"key":"15","name":"Sachsen-Anhalt"}},{"name":"Ulrichstr.","postalCode":"39221","locality":"Bördeland","municipality":{"key":"15089042","name":"Bördeland","type":"Kreisangehörige_Gemeinde"},"district":{"key":"15089","name":"Salzlandkreis","type":"Landkreis"},"federalState":{"key":"15","name":"Sachsen-Anhalt"}},{"name":"Umgehungsstr.","postalCode":"39164","locality":"Wanzleben-Börde","municipality":{"key":"15083531","name":"Wanzleben-Börde, Stadt","type":"Stadt"},"district":{"key":"15083","name":"Börde","type":"Landkreis"},"federalState":{"key":"15","name":"Sachsen-Anhalt"}},{"name":"Umgehungsstr.","postalCode":"39326","locality":"Hohe Börde","municipality":{"key":"15083298","name":"Hohe Börde","type":"Kreisangehörige_Gemeinde"},"district":{"key":"15083","name":"Börde","type":"Landkreis"},"federalState":{"key":"15","name":"Sachsen-Anhalt"}},{"name":"Unseburger Str.","postalCode":"39435","locality":"Bördeaue","municipality":{"key":"15089041","name":"Bördeaue","type":"Kreisangehörige_Gemeinde"},"district":{"key":"15089","name":"Salzlandkreis","type":"Landkreis"},"federalState":{"key":"15","name":"Sachsen-Anhalt"}},{"name":"Unter den Linden","postalCode":"39164","locality":"Wanzleben-Börde","municipality":{"key":"15083531","name":"Wanzleben-Börde, Stadt","type":"Stadt"},"district":{"key":"15083","name":"Börde","type":"Landkreis"},"federalState":{"key":"15","name":"Sachsen-Anhalt"}},{"name":"Unter den Linden","postalCode":"39221","locality":"Bördeland","municipality":{"key":"15089042","name":"Bördeland","type":"Kreisangehörige_Gemeinde"},"district":{"key":"15089","name":"Salzlandkreis","type":"Landkreis"},"federalState":{"key":"15","name":"Sachsen-Anhalt"}},{"name":"Untere Gehrecken","postalCode":"39167","locality":"Hohe Börde","municipality":{"key":"15083298","name":"Hohe Börde","type":"Kreisangehörige_Gemeinde"},"district":{"key":"15083","name":"Börde","type":"Landkreis"},"federalState":{"key":"15","name":"Sachsen-Anhalt"}},{"name":"Unterer Hohenwarsleber Weg","postalCode":"39167","locality":"Hohe Börde","municipality":{"key":"15083298","name":"Hohe Börde","type":"Kreisangehörige_Gemeinde"},"district":{"key":"15083","name":"Börde","type":"Landkreis"},"federalState":{"key":"15","name":"Sachsen-Anhalt"}},{"name":"Veilchenweg","postalCode":"39326","locality":"Wolmirstedt","municipality":{"key":"15083565","name":"Wolmirstedt, Stadt","type":"Stadt"},"district":{"key":"15083","name":"Börde","type":"Landkreis"},"federalState":{"key":"15","name":"Sachsen-Anhalt"}},{"name":"Viererblock","postalCode":"39326","locality":"Wolmirstedt","municipality":{"key":"15083565","name":"Wolmirstedt, Stadt","type":"Stadt"},"district":{"key":"15083","name":"Börde","type":"Landkreis"},"federalState":{"key":"15","name":"Sachsen-Anhalt"}},{"name":"Vogelstange","postalCode":"39326","locality":"Wolmirstedt","municipality":{"key":"15083565","name":"Wolmirstedt, Stadt","type":"Stadt"},"district":{"key":"15083","name":"Börde","type":"Landkreis"},"federalState":{"key":"15","name":"Sachsen-Anhalt"}},{"name":"Wacholderweg","postalCode":"39326","locality":"Wolmirstedt","municipality":{"key":"15083565","name":"Wolmirstedt, Stadt","type":"Stadt"},"district":{"key":"15083","name":"Börde","type":"Landkreis"},"federalState":{"key":"15","name":"Sachsen-Anhalt"}},{"name":"Waldweg","postalCode":"39326","locality":"Wolmirstedt","municipality":{"key":"15083565","name":"Wolmirstedt, Stadt","type":"Stadt"},"district":{"key":"15083","name":"Börde","type":"Landkreis"},"federalState":{"key":"15","name":"Sachsen-Anhalt"}},{"name":"Weinbergstr.","postalCode":"39326","locality":"Wolmirstedt","municipality":{"key":"15083565","name":"Wolmirstedt, Stadt","type":"Stadt"},"district":{"key":"15083","name":"Börde","type":"Landkreis"},"federalState":{"key":"15","name":"Sachsen-Anhalt"}},{"name":"Wiesengrund","postalCode":"39326","locality":"Wolmirstedt","municipality":{"key":"15083565","name":"Wolmirstedt, Stadt","type":"Stadt"},"district":{"key":"15083","name":"Börde","type":"Landkreis"},"federalState":{"key":"15","name":"Sachsen-Anhalt"}},{"name":"Wilhelm-Demker-Str.","postalCode":"39326","locality":"Wolmirstedt","municipality":{"key":"15083565","name":"Wolmirstedt, Stadt","type":"Stadt"},"district":{"key":"15083","name":"Börde","type":"Landkreis"},"federalState":{"key":"15","name":"Sachsen-Anhalt"}},{"name":"Wolmirstedter Landstr.","postalCode":"39326","locality":"Wolmirstedt","municipality":{"key":"15083565","name":"Wolmirstedt, Stadt","type":"Stadt"},"district":{"key":"15083","name":"Börde","type":"Landkreis"},"federalState":{"key":"15","name":"Sachsen-Anhalt"}},{"name":"Wolmirstedter Str.","postalCode":"39326","locality":"Wolmirstedt","municipality":{"key":"15083565","name":"Wolmirstedt, Stadt","type":"Stadt"},"district":{"key":"15083","name":"Börde","type":"Landkreis"},"federalState":{"key":"15","name":"Sachsen-Anhalt"}},{"name":"Ziegeleistr.","postalCode":"39326","locality":"Wolmirstedt","municipality":{"key":"15083565","name":"Wolmirstedt, Stadt","type":"Stadt"},"district":{"key":"15083","name":"Börde","type":"Landkreis"},"federalState":{"key":"15","name":"Sachsen-Anhalt"}},{"name":"Zielitzer Str.","postalCode":"39326","locality":"Wolmirstedt","municipality":{"key":"15083565","name":"Wolmirstedt, Stadt","type":"Stadt"},"district":{"key":"15083","name":"Börde","type":"Landkreis"},"federalState":{"key":"15","name":"Sachsen-Anhalt"}},{"name":"Zur Grube","postalCode":"39326","locality":"Wolmirstedt","municipality":{"key":"15083565","name":"Wolmirstedt, Stadt","type":"Stadt"},"district":{"key":"15083","name":"Börde","type":"Landkreis"},"federalState":{"key":"15","name":"Sachsen-Anhalt"}},{"name":"Österling","postalCode":"39164","locality":"Wanzleben-Börde","municipality":{"key":"15083531","name":"Wanzleben-Börde, Stadt","type":"Stadt"},"district":{"key":"15083","name":"Börde","type":"Landkreis"},"federalState":{"key":"15","name":"Sachsen-Anhalt"}},]