[{"name":"Abtei Schneise","postalCode":"64832","locality":"Babenhausen","municipality":{"key":"06432002","name":"Babenhausen, Stadt","type":"Stadt"},"district":{"key":"06432","name":"Darmstadt-Dieburg","type":"Landkreis"},"federalState":{"key":"06","name":"Hessen"}},{"name":"Adalbert-Stifter-Str.","postalCode":"87727","locality":"Babenhausen","municipality":{"key":"09778115","name":"Babenhausen, M","type":"Markt"},"district":{"key":"09778","name":"Unterallgäu","type":"Landkreis"},"federalState":{"key":"09","name":"Bayern"}},{"name":"Ahornstr.","postalCode":"64832","locality":"Babenhausen","municipality":{"key":"06432002","name":"Babenhausen, Stadt","type":"Stadt"},"district":{"key":"06432","name":"Darmstadt-Dieburg","type":"Landkreis"},"federalState":{"key":"06","name":"Hessen"}},{"name":"Ahornstr.","postalCode":"87727","locality":"Babenhausen","municipality":{"key":"09778115","name":"Babenhausen, M","type":"Markt"},"district":{"key":"09778","name":"Unterallgäu","type":"Landkreis"},"federalState":{"key":"09","name":"Bayern"}},{"name":"Akazienweg","postalCode":"87727","locality":"Babenhausen","municipality":{"key":"09778115","name":"Babenhausen, M","type":"Markt"},"district":{"key":"09778","name":"Unterallgäu","type":"Landkreis"},"federalState":{"key":"09","name":"Bayern"}},{"name":"Albergstr.","postalCode":"64832","locality":"Babenhausen","municipality":{"key":"06432002","name":"Babenhausen, Stadt","type":"Stadt"},"district":{"key":"06432","name":"Darmstadt-Dieburg","type":"Landkreis"},"federalState":{"key":"06","name":"Hessen"}},{"name":"Albrecht-Dürer-Str.","postalCode":"87727","locality":"Babenhausen","municipality":{"key":"09778115","name":"Babenhausen, M","type":"Markt"},"district":{"key":"09778","name":"Unterallgäu","type":"Landkreis"},"federalState":{"key":"09","name":"Bayern"}},{"name":"Alicestr.","postalCode":"64832","locality":"Babenhausen","municipality":{"key":"06432002","name":"Babenhausen, Stadt","type":"Stadt"},"district":{"key":"06432","name":"Darmstadt-Dieburg","type":"Landkreis"},"federalState":{"key":"06","name":"Hessen"}},{"name":"Allmannshornweg","postalCode":"87727","locality":"Babenhausen","municipality":{"key":"09778115","name":"Babenhausen, M","type":"Markt"},"district":{"key":"09778","name":"Unterallgäu","type":"Landkreis"},"federalState":{"key":"09","name":"Bayern"}},{"name":"Alpenstr.","postalCode":"87727","locality":"Babenhausen","municipality":{"key":"09778115","name":"Babenhausen, M","type":"Markt"},"district":{"key":"09778","name":"Unterallgäu","type":"Landkreis"},"federalState":{"key":"09","name":"Bayern"}},{"name":"Altdörfer Str.","postalCode":"64832","locality":"Babenhausen","municipality":{"key":"06432002","name":"Babenhausen, Stadt","type":"Stadt"},"district":{"key":"06432","name":"Darmstadt-Dieburg","type":"Landkreis"},"federalState":{"key":"06","name":"Hessen"}},{"name":"Alter Breuberger Weg","postalCode":"64832","locality":"Babenhausen","municipality":{"key":"06432002","name":"Babenhausen, Stadt","type":"Stadt"},"district":{"key":"06432","name":"Darmstadt-Dieburg","type":"Landkreis"},"federalState":{"key":"06","name":"Hessen"}},{"name":"Alter Harreshäuser Weg","postalCode":"64832","locality":"Babenhausen","municipality":{"key":"06432002","name":"Babenhausen, Stadt","type":"Stadt"},"district":{"key":"06432","name":"Darmstadt-Dieburg","type":"Landkreis"},"federalState":{"key":"06","name":"Hessen"}},{"name":"Alte Schneise","postalCode":"64832","locality":"Babenhausen","municipality":{"key":"06432002","name":"Babenhausen, Stadt","type":"Stadt"},"district":{"key":"06432","name":"Darmstadt-Dieburg","type":"Landkreis"},"federalState":{"key":"06","name":"Hessen"}},{"name":"Altheimer Str.","postalCode":"64832","locality":"Babenhausen","municipality":{"key":"06432002","name":"Babenhausen, Stadt","type":"Stadt"},"district":{"key":"06432","name":"Darmstadt-Dieburg","type":"Landkreis"},"federalState":{"key":"06","name":"Hessen"}},{"name":"Altmühlweg","postalCode":"64832","locality":"Babenhausen","municipality":{"key":"06432002","name":"Babenhausen, Stadt","type":"Stadt"},"district":{"key":"06432","name":"Darmstadt-Dieburg","type":"Landkreis"},"federalState":{"key":"06","name":"Hessen"}},{"name":"Am Allmai","postalCode":"64832","locality":"Babenhausen","municipality":{"key":"06432002","name":"Babenhausen, Stadt","type":"Stadt"},"district":{"key":"06432","name":"Darmstadt-Dieburg","type":"Landkreis"},"federalState":{"key":"06","name":"Hessen"}},{"name":"Am Anfall","postalCode":"87727","locality":"Babenhausen","municipality":{"key":"09778115","name":"Babenhausen, M","type":"Markt"},"district":{"key":"09778","name":"Unterallgäu","type":"Landkreis"},"federalState":{"key":"09","name":"Bayern"}},{"name":"Am Anger","postalCode":"87727","locality":"Babenhausen","municipality":{"key":"09778115","name":"Babenhausen, M","type":"Markt"},"district":{"key":"09778","name":"Unterallgäu","type":"Landkreis"},"federalState":{"key":"09","name":"Bayern"}},{"name":"Am Bahnhof","postalCode":"64832","locality":"Babenhausen","municipality":{"key":"06432002","name":"Babenhausen, Stadt","type":"Stadt"},"district":{"key":"06432","name":"Darmstadt-Dieburg","type":"Landkreis"},"federalState":{"key":"06","name":"Hessen"}},{"name":"Am Breschturm","postalCode":"64832","locality":"Babenhausen","municipality":{"key":"06432002","name":"Babenhausen, Stadt","type":"Stadt"},"district":{"key":"06432","name":"Darmstadt-Dieburg","type":"Landkreis"},"federalState":{"key":"06","name":"Hessen"}},{"name":"Am Espach","postalCode":"87727","locality":"Babenhausen","municipality":{"key":"09778115","name":"Babenhausen, M","type":"Markt"},"district":{"key":"09778","name":"Unterallgäu","type":"Landkreis"},"federalState":{"key":"09","name":"Bayern"}},{"name":"Am Felsenkeller","postalCode":"64832","locality":"Babenhausen","municipality":{"key":"06432002","name":"Babenhausen, Stadt","type":"Stadt"},"district":{"key":"06432","name":"Darmstadt-Dieburg","type":"Landkreis"},"federalState":{"key":"06","name":"Hessen"}},{"name":"Am Flurgraben","postalCode":"64832","locality":"Babenhausen","municipality":{"key":"06432002","name":"Babenhausen, Stadt","type":"Stadt"},"district":{"key":"06432","name":"Darmstadt-Dieburg","type":"Landkreis"},"federalState":{"key":"06","name":"Hessen"}},{"name":"Am Fuchsberg","postalCode":"64832","locality":"Babenhausen","municipality":{"key":"06432002","name":"Babenhausen, Stadt","type":"Stadt"},"district":{"key":"06432","name":"Darmstadt-Dieburg","type":"Landkreis"},"federalState":{"key":"06","name":"Hessen"}},{"name":"Am Hanauer Weg","postalCode":"64832","locality":"Babenhausen","municipality":{"key":"06432002","name":"Babenhausen, Stadt","type":"Stadt"},"district":{"key":"06432","name":"Darmstadt-Dieburg","type":"Landkreis"},"federalState":{"key":"06","name":"Hessen"}},{"name":"Am Hasenpfad","postalCode":"64832","locality":"Babenhausen","municipality":{"key":"06432002","name":"Babenhausen, Stadt","type":"Stadt"},"district":{"key":"06432","name":"Darmstadt-Dieburg","type":"Landkreis"},"federalState":{"key":"06","name":"Hessen"}},{"name":"Am Hexenturm","postalCode":"64832","locality":"Babenhausen","municipality":{"key":"06432002","name":"Babenhausen, Stadt","type":"Stadt"},"district":{"key":"06432","name":"Darmstadt-Dieburg","type":"Landkreis"},"federalState":{"key":"06","name":"Hessen"}},{"name":"Am Kirchweg","postalCode":"64832","locality":"Babenhausen","municipality":{"key":"06432002","name":"Babenhausen, Stadt","type":"Stadt"},"district":{"key":"06432","name":"Darmstadt-Dieburg","type":"Landkreis"},"federalState":{"key":"06","name":"Hessen"}},{"name":"Am Krautgarten","postalCode":"87727","locality":"Babenhausen","municipality":{"key":"09778115","name":"Babenhausen, M","type":"Markt"},"district":{"key":"09778","name":"Unterallgäu","type":"Landkreis"},"federalState":{"key":"09","name":"Bayern"}},{"name":"Am Kreuzelsberg","postalCode":"87727","locality":"Babenhausen","municipality":{"key":"09778115","name":"Babenhausen, M","type":"Markt"},"district":{"key":"09778","name":"Unterallgäu","type":"Landkreis"},"federalState":{"key":"09","name":"Bayern"}},{"name":"Am Mühlgraben","postalCode":"64832","locality":"Babenhausen","municipality":{"key":"06432002","name":"Babenhausen, Stadt","type":"Stadt"},"district":{"key":"06432","name":"Darmstadt-Dieburg","type":"Landkreis"},"federalState":{"key":"06","name":"Hessen"}},{"name":"Am Mühlrad","postalCode":"64832","locality":"Babenhausen","municipality":{"key":"06432002","name":"Babenhausen, Stadt","type":"Stadt"},"district":{"key":"06432","name":"Darmstadt-Dieburg","type":"Landkreis"},"federalState":{"key":"06","name":"Hessen"}},{"name":"Am Mühlstein","postalCode":"64832","locality":"Babenhausen","municipality":{"key":"06432002","name":"Babenhausen, Stadt","type":"Stadt"},"district":{"key":"06432","name":"Darmstadt-Dieburg","type":"Landkreis"},"federalState":{"key":"06","name":"Hessen"}},{"name":"Am Obereichen","postalCode":"64832","locality":"Babenhausen","municipality":{"key":"06432002","name":"Babenhausen, Stadt","type":"Stadt"},"district":{"key":"06432","name":"Darmstadt-Dieburg","type":"Landkreis"},"federalState":{"key":"06","name":"Hessen"}},{"name":"Am Obertor","postalCode":"64832","locality":"Babenhausen","municipality":{"key":"06432002","name":"Babenhausen, Stadt","type":"Stadt"},"district":{"key":"06432","name":"Darmstadt-Dieburg","type":"Landkreis"},"federalState":{"key":"06","name":"Hessen"}},{"name":"Am Pfarrgarten","postalCode":"64832","locality":"Babenhausen","municipality":{"key":"06432002","name":"Babenhausen, Stadt","type":"Stadt"},"district":{"key":"06432","name":"Darmstadt-Dieburg","type":"Landkreis"},"federalState":{"key":"06","name":"Hessen"}},{"name":"Am Rehsprung","postalCode":"64832","locality":"Babenhausen","municipality":{"key":"06432002","name":"Babenhausen, Stadt","type":"Stadt"},"district":{"key":"06432","name":"Darmstadt-Dieburg","type":"Landkreis"},"federalState":{"key":"06","name":"Hessen"}},{"name":"Am Schloßberg","postalCode":"87727","locality":"Babenhausen","municipality":{"key":"09778115","name":"Babenhausen, M","type":"Markt"},"district":{"key":"09778","name":"Unterallgäu","type":"Landkreis"},"federalState":{"key":"09","name":"Bayern"}},{"name":"Am Schwimmbad","postalCode":"64832","locality":"Babenhausen","municipality":{"key":"06432002","name":"Babenhausen, Stadt","type":"Stadt"},"district":{"key":"06432","name":"Darmstadt-Dieburg","type":"Landkreis"},"federalState":{"key":"06","name":"Hessen"}},{"name":"Amselweg","postalCode":"64832","locality":"Babenhausen","municipality":{"key":"06432002","name":"Babenhausen, Stadt","type":"Stadt"},"district":{"key":"06432","name":"Darmstadt-Dieburg","type":"Landkreis"},"federalState":{"key":"06","name":"Hessen"}},{"name":"Am Trieb","postalCode":"64832","locality":"Babenhausen","municipality":{"key":"06432002","name":"Babenhausen, Stadt","type":"Stadt"},"district":{"key":"06432","name":"Darmstadt-Dieburg","type":"Landkreis"},"federalState":{"key":"06","name":"Hessen"}},{"name":"Amtsgasse","postalCode":"64832","locality":"Babenhausen","municipality":{"key":"06432002","name":"Babenhausen, Stadt","type":"Stadt"},"district":{"key":"06432","name":"Darmstadt-Dieburg","type":"Landkreis"},"federalState":{"key":"06","name":"Hessen"}},{"name":"Am Weidenhain","postalCode":"64832","locality":"Babenhausen","municipality":{"key":"06432002","name":"Babenhausen, Stadt","type":"Stadt"},"district":{"key":"06432","name":"Darmstadt-Dieburg","type":"Landkreis"},"federalState":{"key":"06","name":"Hessen"}},{"name":"An den Linden","postalCode":"87727","locality":"Babenhausen","municipality":{"key":"09778115","name":"Babenhausen, M","type":"Markt"},"district":{"key":"09778","name":"Unterallgäu","type":"Landkreis"},"federalState":{"key":"09","name":"Bayern"}},{"name":"An der Allee","postalCode":"64832","locality":"Babenhausen","municipality":{"key":"06432002","name":"Babenhausen, Stadt","type":"Stadt"},"district":{"key":"06432","name":"Darmstadt-Dieburg","type":"Landkreis"},"federalState":{"key":"06","name":"Hessen"}},{"name":"An der Lache","postalCode":"64832","locality":"Babenhausen","municipality":{"key":"06432002","name":"Babenhausen, Stadt","type":"Stadt"},"district":{"key":"06432","name":"Darmstadt-Dieburg","type":"Landkreis"},"federalState":{"key":"06","name":"Hessen"}},{"name":"An der Stadtmauer","postalCode":"64832","locality":"Babenhausen","municipality":{"key":"06432002","name":"Babenhausen, Stadt","type":"Stadt"},"district":{"key":"06432","name":"Darmstadt-Dieburg","type":"Landkreis"},"federalState":{"key":"06","name":"Hessen"}},{"name":"Anne-Frank-Str.","postalCode":"64832","locality":"Babenhausen","municipality":{"key":"06432002","name":"Babenhausen, Stadt","type":"Stadt"},"district":{"key":"06432","name":"Darmstadt-Dieburg","type":"Landkreis"},"federalState":{"key":"06","name":"Hessen"}},{"name":"Anzengruberstr.","postalCode":"87727","locality":"Babenhausen","municipality":{"key":"09778115","name":"Babenhausen, M","type":"Markt"},"district":{"key":"09778","name":"Unterallgäu","type":"Landkreis"},"federalState":{"key":"09","name":"Bayern"}},{"name":"Babenhäuser Feld Schneise","postalCode":"64832","locality":"Babenhausen","municipality":{"key":"06432002","name":"Babenhausen, Stadt","type":"Stadt"},"district":{"key":"06432","name":"Darmstadt-Dieburg","type":"Landkreis"},"federalState":{"key":"06","name":"Hessen"}},{"name":"Babenhäuser Str.","postalCode":"64832","locality":"Babenhausen","municipality":{"key":"06432002","name":"Babenhausen, Stadt","type":"Stadt"},"district":{"key":"06432","name":"Darmstadt-Dieburg","type":"Landkreis"},"federalState":{"key":"06","name":"Hessen"}},{"name":"Babenhäuser Weg","postalCode":"64832","locality":"Babenhausen","municipality":{"key":"06432002","name":"Babenhausen, Stadt","type":"Stadt"},"district":{"key":"06432","name":"Darmstadt-Dieburg","type":"Landkreis"},"federalState":{"key":"06","name":"Hessen"}},{"name":"Bachstr.","postalCode":"64832","locality":"Babenhausen","municipality":{"key":"06432002","name":"Babenhausen, Stadt","type":"Stadt"},"district":{"key":"06432","name":"Darmstadt-Dieburg","type":"Landkreis"},"federalState":{"key":"06","name":"Hessen"}},{"name":"Backhausgasse","postalCode":"64832","locality":"Babenhausen","municipality":{"key":"06432002","name":"Babenhausen, Stadt","type":"Stadt"},"district":{"key":"06432","name":"Darmstadt-Dieburg","type":"Landkreis"},"federalState":{"key":"06","name":"Hessen"}},{"name":"Badegasse","postalCode":"64832","locality":"Babenhausen","municipality":{"key":"06432002","name":"Babenhausen, Stadt","type":"Stadt"},"district":{"key":"06432","name":"Darmstadt-Dieburg","type":"Landkreis"},"federalState":{"key":"06","name":"Hessen"}},{"name":"Bahnhofstr.","postalCode":"64832","locality":"Babenhausen","municipality":{"key":"06432002","name":"Babenhausen, Stadt","type":"Stadt"},"district":{"key":"06432","name":"Darmstadt-Dieburg","type":"Landkreis"},"federalState":{"key":"06","name":"Hessen"}},{"name":"Bahnhofstr.","postalCode":"87727","locality":"Babenhausen","municipality":{"key":"09778115","name":"Babenhausen, M","type":"Markt"},"district":{"key":"09778","name":"Unterallgäu","type":"Landkreis"},"federalState":{"key":"09","name":"Bayern"}},{"name":"Bauernstr.","postalCode":"87727","locality":"Babenhausen","municipality":{"key":"09778115","name":"Babenhausen, M","type":"Markt"},"district":{"key":"09778","name":"Unterallgäu","type":"Landkreis"},"federalState":{"key":"09","name":"Bayern"}},{"name":"Baumgarten","postalCode":"87727","locality":"Babenhausen","municipality":{"key":"09778115","name":"Babenhausen, M","type":"Markt"},"district":{"key":"09778","name":"Unterallgäu","type":"Landkreis"},"federalState":{"key":"09","name":"Bayern"}},{"name":"Beethovenstr.","postalCode":"87727","locality":"Babenhausen","municipality":{"key":"09778115","name":"Babenhausen, M","type":"Markt"},"district":{"key":"09778","name":"Unterallgäu","type":"Landkreis"},"federalState":{"key":"09","name":"Bayern"}},{"name":"Beim Hohen Kreuz","postalCode":"87727","locality":"Babenhausen","municipality":{"key":"09778115","name":"Babenhausen, M","type":"Markt"},"district":{"key":"09778","name":"Unterallgäu","type":"Landkreis"},"federalState":{"key":"09","name":"Bayern"}},{"name":"Berggasse","postalCode":"87727","locality":"Babenhausen","municipality":{"key":"09778115","name":"Babenhausen, M","type":"Markt"},"district":{"key":"09778","name":"Unterallgäu","type":"Landkreis"},"federalState":{"key":"09","name":"Bayern"}},{"name":"Berliner Str.","postalCode":"64832","locality":"Babenhausen","municipality":{"key":"06432002","name":"Babenhausen, Stadt","type":"Stadt"},"district":{"key":"06432","name":"Darmstadt-Dieburg","type":"Landkreis"},"federalState":{"key":"06","name":"Hessen"}},{"name":"Bertha-von Suttner-Str.","postalCode":"64832","locality":"Babenhausen","municipality":{"key":"06432002","name":"Babenhausen, Stadt","type":"Stadt"},"district":{"key":"06432","name":"Darmstadt-Dieburg","type":"Landkreis"},"federalState":{"key":"06","name":"Hessen"}},{"name":"Birkenheg Schneise","postalCode":"64832","locality":"Babenhausen","municipality":{"key":"06432002","name":"Babenhausen, Stadt","type":"Stadt"},"district":{"key":"06432","name":"Darmstadt-Dieburg","type":"Landkreis"},"federalState":{"key":"06","name":"Hessen"}},{"name":"Birkenweg","postalCode":"64832","locality":"Babenhausen","municipality":{"key":"06432002","name":"Babenhausen, Stadt","type":"Stadt"},"district":{"key":"06432","name":"Darmstadt-Dieburg","type":"Landkreis"},"federalState":{"key":"06","name":"Hessen"}},{"name":"Birkenweg","postalCode":"87727","locality":"Babenhausen","municipality":{"key":"09778115","name":"Babenhausen, M","type":"Markt"},"district":{"key":"09778","name":"Unterallgäu","type":"Landkreis"},"federalState":{"key":"09","name":"Bayern"}},{"name":"Bismarckplatz","postalCode":"64832","locality":"Babenhausen","municipality":{"key":"06432002","name":"Babenhausen, Stadt","type":"Stadt"},"district":{"key":"06432","name":"Darmstadt-Dieburg","type":"Landkreis"},"federalState":{"key":"06","name":"Hessen"}},{"name":"Blaugasse","postalCode":"64832","locality":"Babenhausen","municipality":{"key":"06432002","name":"Babenhausen, Stadt","type":"Stadt"},"district":{"key":"06432","name":"Darmstadt-Dieburg","type":"Landkreis"},"federalState":{"key":"06","name":"Hessen"}},{"name":"Blumenstr.","postalCode":"64832","locality":"Babenhausen","municipality":{"key":"06432002","name":"Babenhausen, Stadt","type":"Stadt"},"district":{"key":"06432","name":"Darmstadt-Dieburg","type":"Landkreis"},"federalState":{"key":"06","name":"Hessen"}},{"name":"Blumenweg","postalCode":"87727","locality":"Babenhausen","municipality":{"key":"09778115","name":"Babenhausen, M","type":"Markt"},"district":{"key":"09778","name":"Unterallgäu","type":"Landkreis"},"federalState":{"key":"09","name":"Bayern"}},{"name":"Bouxwillerstr.","postalCode":"64832","locality":"Babenhausen","municipality":{"key":"06432002","name":"Babenhausen, Stadt","type":"Stadt"},"district":{"key":"06432","name":"Darmstadt-Dieburg","type":"Landkreis"},"federalState":{"key":"06","name":"Hessen"}},{"name":"Brandgasse","postalCode":"64832","locality":"Babenhausen","municipality":{"key":"06432002","name":"Babenhausen, Stadt","type":"Stadt"},"district":{"key":"06432","name":"Darmstadt-Dieburg","type":"Landkreis"},"federalState":{"key":"06","name":"Hessen"}},{"name":"Breite Str.","postalCode":"64832","locality":"Babenhausen","municipality":{"key":"06432002","name":"Babenhausen, Stadt","type":"Stadt"},"district":{"key":"06432","name":"Darmstadt-Dieburg","type":"Landkreis"},"federalState":{"key":"06","name":"Hessen"}},{"name":"Breslauer Str.","postalCode":"64832","locality":"Babenhausen","municipality":{"key":"06432002","name":"Babenhausen, Stadt","type":"Stadt"},"district":{"key":"06432","name":"Darmstadt-Dieburg","type":"Landkreis"},"federalState":{"key":"06","name":"Hessen"}},{"name":"Breuberger Weg","postalCode":"64832","locality":"Babenhausen","municipality":{"key":"06432002","name":"Babenhausen, Stadt","type":"Stadt"},"district":{"key":"06432","name":"Darmstadt-Dieburg","type":"Landkreis"},"federalState":{"key":"06","name":"Hessen"}},{"name":"Bruchweg","postalCode":"64832","locality":"Babenhausen","municipality":{"key":"06432002","name":"Babenhausen, Stadt","type":"Stadt"},"district":{"key":"06432","name":"Darmstadt-Dieburg","type":"Landkreis"},"federalState":{"key":"06","name":"Hessen"}},{"name":"Brunnen Schneise","postalCode":"64832","locality":"Babenhausen","municipality":{"key":"06432002","name":"Babenhausen, Stadt","type":"Stadt"},"district":{"key":"06432","name":"Darmstadt-Dieburg","type":"Landkreis"},"federalState":{"key":"06","name":"Hessen"}},{"name":"Brunnenstr.","postalCode":"64832","locality":"Babenhausen","municipality":{"key":"06432002","name":"Babenhausen, Stadt","type":"Stadt"},"district":{"key":"06432","name":"Darmstadt-Dieburg","type":"Landkreis"},"federalState":{"key":"06","name":"Hessen"}},{"name":"Buchenweg","postalCode":"64832","locality":"Babenhausen","municipality":{"key":"06432002","name":"Babenhausen, Stadt","type":"Stadt"},"district":{"key":"06432","name":"Darmstadt-Dieburg","type":"Landkreis"},"federalState":{"key":"06","name":"Hessen"}},{"name":"Buchenweg","postalCode":"87727","locality":"Babenhausen","municipality":{"key":"09778115","name":"Babenhausen, M","type":"Markt"},"district":{"key":"09778","name":"Unterallgäu","type":"Landkreis"},"federalState":{"key":"09","name":"Bayern"}},{"name":"Buchgeschirr Schneise","postalCode":"64832","locality":"Babenhausen","municipality":{"key":"06432002","name":"Babenhausen, Stadt","type":"Stadt"},"district":{"key":"06432","name":"Darmstadt-Dieburg","type":"Landkreis"},"federalState":{"key":"06","name":"Hessen"}},{"name":"Buchhügelweg","postalCode":"64832","locality":"Babenhausen","municipality":{"key":"06432002","name":"Babenhausen, Stadt","type":"Stadt"},"district":{"key":"06432","name":"Darmstadt-Dieburg","type":"Landkreis"},"federalState":{"key":"06","name":"Hessen"}},{"name":"Bürgerhausstr.","postalCode":"64832","locality":"Babenhausen","municipality":{"key":"06432002","name":"Babenhausen, Stadt","type":"Stadt"},"district":{"key":"06432","name":"Darmstadt-Dieburg","type":"Landkreis"},"federalState":{"key":"06","name":"Hessen"}},{"name":"Bürgermeister-Hartmann-Str.","postalCode":"64832","locality":"Babenhausen","municipality":{"key":"06432002","name":"Babenhausen, Stadt","type":"Stadt"},"district":{"key":"06432","name":"Darmstadt-Dieburg","type":"Landkreis"},"federalState":{"key":"06","name":"Hessen"}},{"name":"Bürgermeister-Rühl-Str.","postalCode":"64832","locality":"Babenhausen","municipality":{"key":"06432002","name":"Babenhausen, Stadt","type":"Stadt"},"district":{"key":"06432","name":"Darmstadt-Dieburg","type":"Landkreis"},"federalState":{"key":"06","name":"Hessen"}},{"name":"Bürgermeister-Schrodt-Str.","postalCode":"64832","locality":"Babenhausen","municipality":{"key":"06432002","name":"Babenhausen, Stadt","type":"Stadt"},"district":{"key":"06432","name":"Darmstadt-Dieburg","type":"Landkreis"},"federalState":{"key":"06","name":"Hessen"}},{"name":"Bürgermeisterstr.","postalCode":"64832","locality":"Babenhausen","municipality":{"key":"06432002","name":"Babenhausen, Stadt","type":"Stadt"},"district":{"key":"06432","name":"Darmstadt-Dieburg","type":"Landkreis"},"federalState":{"key":"06","name":"Hessen"}},{"name":"Bürgermeister-Tempel-Str.","postalCode":"64832","locality":"Babenhausen","municipality":{"key":"06432002","name":"Babenhausen, Stadt","type":"Stadt"},"district":{"key":"06432","name":"Darmstadt-Dieburg","type":"Landkreis"},"federalState":{"key":"06","name":"Hessen"}},{"name":"Bürgermeister-Willand-Str.","postalCode":"64832","locality":"Babenhausen","municipality":{"key":"06432002","name":"Babenhausen, Stadt","type":"Stadt"},"district":{"key":"06432","name":"Darmstadt-Dieburg","type":"Landkreis"},"federalState":{"key":"06","name":"Hessen"}},{"name":"Cichorien Schneise","postalCode":"64832","locality":"Babenhausen","municipality":{"key":"06432002","name":"Babenhausen, Stadt","type":"Stadt"},"district":{"key":"06432","name":"Darmstadt-Dieburg","type":"Landkreis"},"federalState":{"key":"06","name":"Hessen"}},{"name":"Clemens-Hofbauer-Str.","postalCode":"87727","locality":"Babenhausen","municipality":{"key":"09778115","name":"Babenhausen, M","type":"Markt"},"district":{"key":"09778","name":"Unterallgäu","type":"Landkreis"},"federalState":{"key":"09","name":"Bayern"}},{"name":"Danziger Str.","postalCode":"64832","locality":"Babenhausen","municipality":{"key":"06432002","name":"Babenhausen, Stadt","type":"Stadt"},"district":{"key":"06432","name":"Darmstadt-Dieburg","type":"Landkreis"},"federalState":{"key":"06","name":"Hessen"}},{"name":"Darmstädter Str.","postalCode":"64832","locality":"Babenhausen","municipality":{"key":"06432002","name":"Babenhausen, Stadt","type":"Stadt"},"district":{"key":"06432","name":"Darmstadt-Dieburg","type":"Landkreis"},"federalState":{"key":"06","name":"Hessen"}},{"name":"Der Brenner","postalCode":"64832","locality":"Babenhausen","municipality":{"key":"06432002","name":"Babenhausen, Stadt","type":"Stadt"},"district":{"key":"06432","name":"Darmstadt-Dieburg","type":"Landkreis"},"federalState":{"key":"06","name":"Hessen"}},{"name":"Der Lacheweg","postalCode":"64832","locality":"Babenhausen","municipality":{"key":"06432002","name":"Babenhausen, Stadt","type":"Stadt"},"district":{"key":"06432","name":"Darmstadt-Dieburg","type":"Landkreis"},"federalState":{"key":"06","name":"Hessen"}},{"name":"Dicke Eiche Schneise","postalCode":"64832","locality":"Babenhausen","municipality":{"key":"06432002","name":"Babenhausen, Stadt","type":"Stadt"},"district":{"key":"06432","name":"Darmstadt-Dieburg","type":"Landkreis"},"federalState":{"key":"06","name":"Hessen"}},{"name":"Dieburger Str.","postalCode":"64832","locality":"Babenhausen","municipality":{"key":"06432002","name":"Babenhausen, Stadt","type":"Stadt"},"district":{"key":"06432","name":"Darmstadt-Dieburg","type":"Landkreis"},"federalState":{"key":"06","name":"Hessen"}},{"name":"Dieburger Weg","postalCode":"64832","locality":"Babenhausen","municipality":{"key":"06432002","name":"Babenhausen, Stadt","type":"Stadt"},"district":{"key":"06432","name":"Darmstadt-Dieburg","type":"Landkreis"},"federalState":{"key":"06","name":"Hessen"}},{"name":"Dinkelweg","postalCode":"64832","locality":"Babenhausen","municipality":{"key":"06432002","name":"Babenhausen, Stadt","type":"Stadt"},"district":{"key":"06432","name":"Darmstadt-Dieburg","type":"Landkreis"},"federalState":{"key":"06","name":"Hessen"}},{"name":"Dorfstr.","postalCode":"64832","locality":"Babenhausen","municipality":{"key":"06432002","name":"Babenhausen, Stadt","type":"Stadt"},"district":{"key":"06432","name":"Darmstadt-Dieburg","type":"Landkreis"},"federalState":{"key":"06","name":"Hessen"}},{"name":"Dr.-Diehl-Str.","postalCode":"64832","locality":"Babenhausen","municipality":{"key":"06432002","name":"Babenhausen, Stadt","type":"Stadt"},"district":{"key":"06432","name":"Darmstadt-Dieburg","type":"Landkreis"},"federalState":{"key":"06","name":"Hessen"}},{"name":"Dudenhöfer Str.","postalCode":"64832","locality":"Babenhausen","municipality":{"key":"06432002","name":"Babenhausen, Stadt","type":"Stadt"},"district":{"key":"06432","name":"Darmstadt-Dieburg","type":"Landkreis"},"federalState":{"key":"06","name":"Hessen"}},{"name":"Dudenhöfer Weg","postalCode":"64832","locality":"Babenhausen","municipality":{"key":"06432002","name":"Babenhausen, Stadt","type":"Stadt"},"district":{"key":"06432","name":"Darmstadt-Dieburg","type":"Landkreis"},"federalState":{"key":"06","name":"Hessen"}},{"name":"Durchgang","postalCode":"64832","locality":"Babenhausen","municipality":{"key":"06432002","name":"Babenhausen, Stadt","type":"Stadt"},"district":{"key":"06432","name":"Darmstadt-Dieburg","type":"Landkreis"},"federalState":{"key":"06","name":"Hessen"}},{"name":"Eckstr.","postalCode":"64832","locality":"Babenhausen","municipality":{"key":"06432002","name":"Babenhausen, Stadt","type":"Stadt"},"district":{"key":"06432","name":"Darmstadt-Dieburg","type":"Landkreis"},"federalState":{"key":"06","name":"Hessen"}},{"name":"Edmund-Lang-Str.","postalCode":"64832","locality":"Babenhausen","municipality":{"key":"06432002","name":"Babenhausen, Stadt","type":"Stadt"},"district":{"key":"06432","name":"Darmstadt-Dieburg","type":"Landkreis"},"federalState":{"key":"06","name":"Hessen"}},{"name":"Egerländer Str.","postalCode":"64832","locality":"Babenhausen","municipality":{"key":"06432002","name":"Babenhausen, Stadt","type":"Stadt"},"district":{"key":"06432","name":"Darmstadt-Dieburg","type":"Landkreis"},"federalState":{"key":"06","name":"Hessen"}},{"name":"Eichelgarten Schneise","postalCode":"64832","locality":"Babenhausen","municipality":{"key":"06432002","name":"Babenhausen, Stadt","type":"Stadt"},"district":{"key":"06432","name":"Darmstadt-Dieburg","type":"Landkreis"},"federalState":{"key":"06","name":"Hessen"}},{"name":"Eichenhecken Schneise","postalCode":"64832","locality":"Babenhausen","municipality":{"key":"06432002","name":"Babenhausen, Stadt","type":"Stadt"},"district":{"key":"06432","name":"Darmstadt-Dieburg","type":"Landkreis"},"federalState":{"key":"06","name":"Hessen"}},{"name":"Eichenweg","postalCode":"87727","locality":"Babenhausen","municipality":{"key":"09778115","name":"Babenhausen, M","type":"Markt"},"district":{"key":"09778","name":"Unterallgäu","type":"Landkreis"},"federalState":{"key":"09","name":"Bayern"}},{"name":"Elisabethenstr.","postalCode":"64832","locality":"Babenhausen","municipality":{"key":"06432002","name":"Babenhausen, Stadt","type":"Stadt"},"district":{"key":"06432","name":"Darmstadt-Dieburg","type":"Landkreis"},"federalState":{"key":"06","name":"Hessen"}},{"name":"Elise-Richter-Str.","postalCode":"64832","locality":"Babenhausen","municipality":{"key":"06432002","name":"Babenhausen, Stadt","type":"Stadt"},"district":{"key":"06432","name":"Darmstadt-Dieburg","type":"Landkreis"},"federalState":{"key":"06","name":"Hessen"}},{"name":"Elsässer Str.","postalCode":"64832","locality":"Babenhausen","municipality":{"key":"06432002","name":"Babenhausen, Stadt","type":"Stadt"},"district":{"key":"06432","name":"Darmstadt-Dieburg","type":"Landkreis"},"federalState":{"key":"06","name":"Hessen"}},{"name":"Eppertshäuser Weg","postalCode":"64832","locality":"Babenhausen","municipality":{"key":"06432002","name":"Babenhausen, Stadt","type":"Stadt"},"district":{"key":"06432","name":"Darmstadt-Dieburg","type":"Landkreis"},"federalState":{"key":"06","name":"Hessen"}},{"name":"Erlenweg","postalCode":"64832","locality":"Babenhausen","municipality":{"key":"06432002","name":"Babenhausen, Stadt","type":"Stadt"},"district":{"key":"06432","name":"Darmstadt-Dieburg","type":"Landkreis"},"federalState":{"key":"06","name":"Hessen"}},{"name":"Erlochweg","postalCode":"64832","locality":"Babenhausen","municipality":{"key":"06432002","name":"Babenhausen, Stadt","type":"Stadt"},"district":{"key":"06432","name":"Darmstadt-Dieburg","type":"Landkreis"},"federalState":{"key":"06","name":"Hessen"}},{"name":"Ernst-Ludwig-Str.","postalCode":"64832","locality":"Babenhausen","municipality":{"key":"06432002","name":"Babenhausen, Stadt","type":"Stadt"},"district":{"key":"06432","name":"Darmstadt-Dieburg","type":"Landkreis"},"federalState":{"key":"06","name":"Hessen"}},{"name":"Evangelikreuz","postalCode":"87727","locality":"Babenhausen","municipality":{"key":"09778115","name":"Babenhausen, M","type":"Markt"},"district":{"key":"09778","name":"Unterallgäu","type":"Landkreis"},"federalState":{"key":"09","name":"Bayern"}},{"name":"Fabrikstr.","postalCode":"64832","locality":"Babenhausen","municipality":{"key":"06432002","name":"Babenhausen, Stadt","type":"Stadt"},"district":{"key":"06432","name":"Darmstadt-Dieburg","type":"Landkreis"},"federalState":{"key":"06","name":"Hessen"}},{"name":"Fabrikstr.","postalCode":"87727","locality":"Babenhausen","municipality":{"key":"09778115","name":"Babenhausen, M","type":"Markt"},"district":{"key":"09778","name":"Unterallgäu","type":"Landkreis"},"federalState":{"key":"09","name":"Bayern"}},{"name":"Fahrstr.","postalCode":"64832","locality":"Babenhausen","municipality":{"key":"06432002","name":"Babenhausen, Stadt","type":"Stadt"},"district":{"key":"06432","name":"Darmstadt-Dieburg","type":"Landkreis"},"federalState":{"key":"06","name":"Hessen"}},{"name":"Fasanenweg","postalCode":"64832","locality":"Babenhausen","municipality":{"key":"06432002","name":"Babenhausen, Stadt","type":"Stadt"},"district":{"key":"06432","name":"Darmstadt-Dieburg","type":"Landkreis"},"federalState":{"key":"06","name":"Hessen"}},{"name":"Feldbergstr.","postalCode":"64832","locality":"Babenhausen","municipality":{"key":"06432002","name":"Babenhausen, Stadt","type":"Stadt"},"district":{"key":"06432","name":"Darmstadt-Dieburg","type":"Landkreis"},"federalState":{"key":"06","name":"Hessen"}},{"name":"Feldstr.","postalCode":"64832","locality":"Babenhausen","municipality":{"key":"06432002","name":"Babenhausen, Stadt","type":"Stadt"},"district":{"key":"06432","name":"Darmstadt-Dieburg","type":"Landkreis"},"federalState":{"key":"06","name":"Hessen"}},{"name":"Ferry-Steibli-Str.","postalCode":"87727","locality":"Babenhausen","municipality":{"key":"09778115","name":"Babenhausen, M","type":"Markt"},"district":{"key":"09778","name":"Unterallgäu","type":"Landkreis"},"federalState":{"key":"09","name":"Bayern"}},{"name":"Finkenweg","postalCode":"64832","locality":"Babenhausen","municipality":{"key":"06432002","name":"Babenhausen, Stadt","type":"Stadt"},"district":{"key":"06432","name":"Darmstadt-Dieburg","type":"Landkreis"},"federalState":{"key":"06","name":"Hessen"}},{"name":"Fischergasse","postalCode":"64832","locality":"Babenhausen","municipality":{"key":"06432002","name":"Babenhausen, Stadt","type":"Stadt"},"district":{"key":"06432","name":"Darmstadt-Dieburg","type":"Landkreis"},"federalState":{"key":"06","name":"Hessen"}},{"name":"Fischerweg","postalCode":"64832","locality":"Babenhausen","municipality":{"key":"06432002","name":"Babenhausen, Stadt","type":"Stadt"},"district":{"key":"06432","name":"Darmstadt-Dieburg","type":"Landkreis"},"federalState":{"key":"06","name":"Hessen"}},{"name":"Fliederstr.","postalCode":"64832","locality":"Babenhausen","municipality":{"key":"06432002","name":"Babenhausen, Stadt","type":"Stadt"},"district":{"key":"06432","name":"Darmstadt-Dieburg","type":"Landkreis"},"federalState":{"key":"06","name":"Hessen"}},{"name":"Fliederweg","postalCode":"87727","locality":"Babenhausen","municipality":{"key":"09778115","name":"Babenhausen, M","type":"Markt"},"district":{"key":"09778","name":"Unterallgäu","type":"Landkreis"},"federalState":{"key":"09","name":"Bayern"}},{"name":"Föhrenweg","postalCode":"87727","locality":"Babenhausen","municipality":{"key":"09778115","name":"Babenhausen, M","type":"Markt"},"district":{"key":"09778","name":"Unterallgäu","type":"Landkreis"},"federalState":{"key":"09","name":"Bayern"}},{"name":"Forsthausstr.","postalCode":"64832","locality":"Babenhausen","municipality":{"key":"06432002","name":"Babenhausen, Stadt","type":"Stadt"},"district":{"key":"06432","name":"Darmstadt-Dieburg","type":"Landkreis"},"federalState":{"key":"06","name":"Hessen"}},{"name":"Forstmeister Schneise","postalCode":"64832","locality":"Babenhausen","municipality":{"key":"06432002","name":"Babenhausen, Stadt","type":"Stadt"},"district":{"key":"06432","name":"Darmstadt-Dieburg","type":"Landkreis"},"federalState":{"key":"06","name":"Hessen"}},{"name":"Forstschützenweg","postalCode":"64832","locality":"Babenhausen","municipality":{"key":"06432002","name":"Babenhausen, Stadt","type":"Stadt"},"district":{"key":"06432","name":"Darmstadt-Dieburg","type":"Landkreis"},"federalState":{"key":"06","name":"Hessen"}},{"name":"Frankenweg","postalCode":"64832","locality":"Babenhausen","municipality":{"key":"06432002","name":"Babenhausen, Stadt","type":"Stadt"},"district":{"key":"06432","name":"Darmstadt-Dieburg","type":"Landkreis"},"federalState":{"key":"06","name":"Hessen"}},{"name":"Frankfurter Str.","postalCode":"64832","locality":"Babenhausen","municipality":{"key":"06432002","name":"Babenhausen, Stadt","type":"Stadt"},"district":{"key":"06432","name":"Darmstadt-Dieburg","type":"Landkreis"},"federalState":{"key":"06","name":"Hessen"}},{"name":"Frankfurter Weg","postalCode":"64832","locality":"Babenhausen","municipality":{"key":"06432002","name":"Babenhausen, Stadt","type":"Stadt"},"district":{"key":"06432","name":"Darmstadt-Dieburg","type":"Landkreis"},"federalState":{"key":"06","name":"Hessen"}},{"name":"Frauenstr.","postalCode":"87727","locality":"Babenhausen","municipality":{"key":"09778115","name":"Babenhausen, M","type":"Markt"},"district":{"key":"09778","name":"Unterallgäu","type":"Landkreis"},"federalState":{"key":"09","name":"Bayern"}},{"name":"Friedenstr.","postalCode":"64832","locality":"Babenhausen","municipality":{"key":"06432002","name":"Babenhausen, Stadt","type":"Stadt"},"district":{"key":"06432","name":"Darmstadt-Dieburg","type":"Landkreis"},"federalState":{"key":"06","name":"Hessen"}},{"name":"Friedhofspark","postalCode":"64832","locality":"Babenhausen","municipality":{"key":"06432002","name":"Babenhausen, Stadt","type":"Stadt"},"district":{"key":"06432","name":"Darmstadt-Dieburg","type":"Landkreis"},"federalState":{"key":"06","name":"Hessen"}},{"name":"Friedhofstr.","postalCode":"64832","locality":"Babenhausen","municipality":{"key":"06432002","name":"Babenhausen, Stadt","type":"Stadt"},"district":{"key":"06432","name":"Darmstadt-Dieburg","type":"Landkreis"},"federalState":{"key":"06","name":"Hessen"}},{"name":"Friedhofweg","postalCode":"87727","locality":"Babenhausen","municipality":{"key":"09778115","name":"Babenhausen, M","type":"Markt"},"district":{"key":"09778","name":"Unterallgäu","type":"Landkreis"},"federalState":{"key":"09","name":"Bayern"}},{"name":"Friedrich-Ebert-Str.","postalCode":"64832","locality":"Babenhausen","municipality":{"key":"06432002","name":"Babenhausen, Stadt","type":"Stadt"},"district":{"key":"06432","name":"Darmstadt-Dieburg","type":"Landkreis"},"federalState":{"key":"06","name":"Hessen"}},{"name":"Frundsbergstr.","postalCode":"87727","locality":"Babenhausen","municipality":{"key":"09778115","name":"Babenhausen, M","type":"Markt"},"district":{"key":"09778","name":"Unterallgäu","type":"Landkreis"},"federalState":{"key":"09","name":"Bayern"}},{"name":"Fuchs Schneise","postalCode":"64832","locality":"Babenhausen","municipality":{"key":"06432002","name":"Babenhausen, Stadt","type":"Stadt"},"district":{"key":"06432","name":"Darmstadt-Dieburg","type":"Landkreis"},"federalState":{"key":"06","name":"Hessen"}},{"name":"Fürst-Fugger-Str.","postalCode":"87727","locality":"Babenhausen","municipality":{"key":"09778115","name":"Babenhausen, M","type":"Markt"},"district":{"key":"09778","name":"Unterallgäu","type":"Landkreis"},"federalState":{"key":"09","name":"Bayern"}},{"name":"Gänsberg","postalCode":"87727","locality":"Babenhausen","municipality":{"key":"09778115","name":"Babenhausen, M","type":"Markt"},"district":{"key":"09778","name":"Unterallgäu","type":"Landkreis"},"federalState":{"key":"09","name":"Bayern"}},{"name":"Gänstränkschneise","postalCode":"64832","locality":"Babenhausen","municipality":{"key":"06432002","name":"Babenhausen, Stadt","type":"Stadt"},"district":{"key":"06432","name":"Darmstadt-Dieburg","type":"Landkreis"},"federalState":{"key":"06","name":"Hessen"}},{"name":"Gartenstr.","postalCode":"64832","locality":"Babenhausen","municipality":{"key":"06432002","name":"Babenhausen, Stadt","type":"Stadt"},"district":{"key":"06432","name":"Darmstadt-Dieburg","type":"Landkreis"},"federalState":{"key":"06","name":"Hessen"}},{"name":"Gartenweg","postalCode":"87727","locality":"Babenhausen","municipality":{"key":"09778115","name":"Babenhausen, M","type":"Markt"},"district":{"key":"09778","name":"Unterallgäu","type":"Landkreis"},"federalState":{"key":"09","name":"Bayern"}},{"name":"Gaylingsgasse","postalCode":"64832","locality":"Babenhausen","municipality":{"key":"06432002","name":"Babenhausen, Stadt","type":"Stadt"},"district":{"key":"06432","name":"Darmstadt-Dieburg","type":"Landkreis"},"federalState":{"key":"06","name":"Hessen"}},{"name":"Georg-Fischer-Weg","postalCode":"87727","locality":"Babenhausen","municipality":{"key":"09778115","name":"Babenhausen, M","type":"Markt"},"district":{"key":"09778","name":"Unterallgäu","type":"Landkreis"},"federalState":{"key":"09","name":"Bayern"}},{"name":"Gerhart-Hauptmann-Str.","postalCode":"87727","locality":"Babenhausen","municipality":{"key":"09778115","name":"Babenhausen, M","type":"Markt"},"district":{"key":"09778","name":"Unterallgäu","type":"Landkreis"},"federalState":{"key":"09","name":"Bayern"}},{"name":"Gersprenzstr.","postalCode":"64832","locality":"Babenhausen","municipality":{"key":"06432002","name":"Babenhausen, Stadt","type":"Stadt"},"district":{"key":"06432","name":"Darmstadt-Dieburg","type":"Landkreis"},"federalState":{"key":"06","name":"Hessen"}},{"name":"Gewerbering","postalCode":"87727","locality":"Babenhausen","municipality":{"key":"09778115","name":"Babenhausen, M","type":"Markt"},"district":{"key":"09778","name":"Unterallgäu","type":"Landkreis"},"federalState":{"key":"09","name":"Bayern"}},{"name":"Ginsterstr.","postalCode":"64832","locality":"Babenhausen","municipality":{"key":"06432002","name":"Babenhausen, Stadt","type":"Stadt"},"district":{"key":"06432","name":"Darmstadt-Dieburg","type":"Landkreis"},"federalState":{"key":"06","name":"Hessen"}},{"name":"Goethestr.","postalCode":"64832","locality":"Babenhausen","municipality":{"key":"06432002","name":"Babenhausen, Stadt","type":"Stadt"},"district":{"key":"06432","name":"Darmstadt-Dieburg","type":"Landkreis"},"federalState":{"key":"06","name":"Hessen"}},{"name":"Goldberg Schneise","postalCode":"64832","locality":"Babenhausen","municipality":{"key":"06432002","name":"Babenhausen, Stadt","type":"Stadt"},"district":{"key":"06432","name":"Darmstadt-Dieburg","type":"Landkreis"},"federalState":{"key":"06","name":"Hessen"}},{"name":"Grenzweg","postalCode":"64832","locality":"Babenhausen","municipality":{"key":"06432002","name":"Babenhausen, Stadt","type":"Stadt"},"district":{"key":"06432","name":"Darmstadt-Dieburg","type":"Landkreis"},"federalState":{"key":"06","name":"Hessen"}},{"name":"Griesbachstr.","postalCode":"87727","locality":"Babenhausen","municipality":{"key":"09778115","name":"Babenhausen, M","type":"Markt"},"district":{"key":"09778","name":"Unterallgäu","type":"Landkreis"},"federalState":{"key":"09","name":"Bayern"}},{"name":"Große Pfarrgasse","postalCode":"64832","locality":"Babenhausen","municipality":{"key":"06432002","name":"Babenhausen, Stadt","type":"Stadt"},"district":{"key":"06432","name":"Darmstadt-Dieburg","type":"Landkreis"},"federalState":{"key":"06","name":"Hessen"}},{"name":"Grundseeschneise","postalCode":"64832","locality":"Babenhausen","municipality":{"key":"06432002","name":"Babenhausen, Stadt","type":"Stadt"},"district":{"key":"06432","name":"Darmstadt-Dieburg","type":"Landkreis"},"federalState":{"key":"06","name":"Hessen"}},{"name":"Grüntenstr.","postalCode":"87727","locality":"Babenhausen","municipality":{"key":"09778115","name":"Babenhausen, M","type":"Markt"},"district":{"key":"09778","name":"Unterallgäu","type":"Landkreis"},"federalState":{"key":"09","name":"Bayern"}},{"name":"Guntermannsborn Schneise","postalCode":"64832","locality":"Babenhausen","municipality":{"key":"06432002","name":"Babenhausen, Stadt","type":"Stadt"},"district":{"key":"06432","name":"Darmstadt-Dieburg","type":"Landkreis"},"federalState":{"key":"06","name":"Hessen"}},{"name":"Haferweg","postalCode":"64832","locality":"Babenhausen","municipality":{"key":"06432002","name":"Babenhausen, Stadt","type":"Stadt"},"district":{"key":"06432","name":"Darmstadt-Dieburg","type":"Landkreis"},"federalState":{"key":"06","name":"Hessen"}},{"name":"Hainweg","postalCode":"64832","locality":"Babenhausen","municipality":{"key":"06432002","name":"Babenhausen, Stadt","type":"Stadt"},"district":{"key":"06432","name":"Darmstadt-Dieburg","type":"Landkreis"},"federalState":{"key":"06","name":"Hessen"}},{"name":"Hainweg","postalCode":"87727","locality":"Babenhausen","municipality":{"key":"09778115","name":"Babenhausen, M","type":"Markt"},"district":{"key":"09778","name":"Unterallgäu","type":"Landkreis"},"federalState":{"key":"09","name":"Bayern"}},{"name":"Hanauer Str.","postalCode":"64832","locality":"Babenhausen","municipality":{"key":"06432002","name":"Babenhausen, Stadt","type":"Stadt"},"district":{"key":"06432","name":"Darmstadt-Dieburg","type":"Landkreis"},"federalState":{"key":"06","name":"Hessen"}},{"name":"Hanauer Weg","postalCode":"64832","locality":"Babenhausen","municipality":{"key":"06432002","name":"Babenhausen, Stadt","type":"Stadt"},"district":{"key":"06432","name":"Darmstadt-Dieburg","type":"Landkreis"},"federalState":{"key":"06","name":"Hessen"}},{"name":"Hans-Sachs-Str.","postalCode":"87727","locality":"Babenhausen","municipality":{"key":"09778115","name":"Babenhausen, M","type":"Markt"},"district":{"key":"09778","name":"Unterallgäu","type":"Landkreis"},"federalState":{"key":"09","name":"Bayern"}},{"name":"Hans-Watzlik-Str.","postalCode":"87727","locality":"Babenhausen","municipality":{"key":"09778115","name":"Babenhausen, M","type":"Markt"},"district":{"key":"09778","name":"Unterallgäu","type":"Landkreis"},"federalState":{"key":"09","name":"Bayern"}},{"name":"Hardtweg","postalCode":"64832","locality":"Babenhausen","municipality":{"key":"06432002","name":"Babenhausen, Stadt","type":"Stadt"},"district":{"key":"06432","name":"Darmstadt-Dieburg","type":"Landkreis"},"federalState":{"key":"06","name":"Hessen"}},{"name":"Harpertshäuser Str.","postalCode":"64832","locality":"Babenhausen","municipality":{"key":"06432002","name":"Babenhausen, Stadt","type":"Stadt"},"district":{"key":"06432","name":"Darmstadt-Dieburg","type":"Landkreis"},"federalState":{"key":"06","name":"Hessen"}},{"name":"Harpertshäuser Weg","postalCode":"64832","locality":"Babenhausen","municipality":{"key":"06432002","name":"Babenhausen, Stadt","type":"Stadt"},"district":{"key":"06432","name":"Darmstadt-Dieburg","type":"Landkreis"},"federalState":{"key":"06","name":"Hessen"}},{"name":"Harreshäuser Allee","postalCode":"64832","locality":"Babenhausen","municipality":{"key":"06432002","name":"Babenhausen, Stadt","type":"Stadt"},"district":{"key":"06432","name":"Darmstadt-Dieburg","type":"Landkreis"},"federalState":{"key":"06","name":"Hessen"}},{"name":"Hauptstr.","postalCode":"64832","locality":"Babenhausen","municipality":{"key":"06432002","name":"Babenhausen, Stadt","type":"Stadt"},"district":{"key":"06432","name":"Darmstadt-Dieburg","type":"Landkreis"},"federalState":{"key":"06","name":"Hessen"}},{"name":"Hauptstr.","postalCode":"87727","locality":"Babenhausen","municipality":{"key":"09778115","name":"Babenhausen, M","type":"Markt"},"district":{"key":"09778","name":"Unterallgäu","type":"Landkreis"},"federalState":{"key":"09","name":"Bayern"}},{"name":"Haydnstr.","postalCode":"87727","locality":"Babenhausen","municipality":{"key":"09778115","name":"Babenhausen, M","type":"Markt"},"district":{"key":"09778","name":"Unterallgäu","type":"Landkreis"},"federalState":{"key":"09","name":"Bayern"}},{"name":"Hegerstr.","postalCode":"64832","locality":"Babenhausen","municipality":{"key":"06432002","name":"Babenhausen, Stadt","type":"Stadt"},"district":{"key":"06432","name":"Darmstadt-Dieburg","type":"Landkreis"},"federalState":{"key":"06","name":"Hessen"}},{"name":"Heg-Schneise","postalCode":"64832","locality":"Babenhausen","municipality":{"key":"06432002","name":"Babenhausen, Stadt","type":"Stadt"},"district":{"key":"06432","name":"Darmstadt-Dieburg","type":"Landkreis"},"federalState":{"key":"06","name":"Hessen"}},{"name":"Hehnstr.","postalCode":"64832","locality":"Babenhausen","municipality":{"key":"06432002","name":"Babenhausen, Stadt","type":"Stadt"},"district":{"key":"06432","name":"Darmstadt-Dieburg","type":"Landkreis"},"federalState":{"key":"06","name":"Hessen"}},{"name":"Heideschneise","postalCode":"64832","locality":"Babenhausen","municipality":{"key":"06432002","name":"Babenhausen, Stadt","type":"Stadt"},"district":{"key":"06432","name":"Darmstadt-Dieburg","type":"Landkreis"},"federalState":{"key":"06","name":"Hessen"}},{"name":"Heideweg","postalCode":"87727","locality":"Babenhausen","municipality":{"key":"09778115","name":"Babenhausen, M","type":"Markt"},"district":{"key":"09778","name":"Unterallgäu","type":"Landkreis"},"federalState":{"key":"09","name":"Bayern"}},{"name":"Heid-Wiesen-Schneise","postalCode":"64832","locality":"Babenhausen","municipality":{"key":"06432002","name":"Babenhausen, Stadt","type":"Stadt"},"district":{"key":"06432","name":"Darmstadt-Dieburg","type":"Landkreis"},"federalState":{"key":"06","name":"Hessen"}},{"name":"Heinrich-Engel-Anlage","postalCode":"64832","locality":"Babenhausen","municipality":{"key":"06432002","name":"Babenhausen, Stadt","type":"Stadt"},"district":{"key":"06432","name":"Darmstadt-Dieburg","type":"Landkreis"},"federalState":{"key":"06","name":"Hessen"}},{"name":"Heinrich-Engel-Str.","postalCode":"87727","locality":"Babenhausen","municipality":{"key":"09778115","name":"Babenhausen, M","type":"Markt"},"district":{"key":"09778","name":"Unterallgäu","type":"Landkreis"},"federalState":{"key":"09","name":"Bayern"}},{"name":"Heinrich-Heine-Str.","postalCode":"64832","locality":"Babenhausen","municipality":{"key":"06432002","name":"Babenhausen, Stadt","type":"Stadt"},"district":{"key":"06432","name":"Darmstadt-Dieburg","type":"Landkreis"},"federalState":{"key":"06","name":"Hessen"}},{"name":"Heinrich-Hertz-Str.","postalCode":"64832","locality":"Babenhausen","municipality":{"key":"06432002","name":"Babenhausen, Stadt","type":"Stadt"},"district":{"key":"06432","name":"Darmstadt-Dieburg","type":"Landkreis"},"federalState":{"key":"06","name":"Hessen"}},{"name":"Heinrich-Klein-Platz","postalCode":"64832","locality":"Babenhausen","municipality":{"key":"06432002","name":"Babenhausen, Stadt","type":"Stadt"},"district":{"key":"06432","name":"Darmstadt-Dieburg","type":"Landkreis"},"federalState":{"key":"06","name":"Hessen"}},{"name":"Heinrichstr.","postalCode":"64832","locality":"Babenhausen","municipality":{"key":"06432002","name":"Babenhausen, Stadt","type":"Stadt"},"district":{"key":"06432","name":"Darmstadt-Dieburg","type":"Landkreis"},"federalState":{"key":"06","name":"Hessen"}},{"name":"Hergershäuser Grenzschneise","postalCode":"64832","locality":"Babenhausen","municipality":{"key":"06432002","name":"Babenhausen, Stadt","type":"Stadt"},"district":{"key":"06432","name":"Darmstadt-Dieburg","type":"Landkreis"},"federalState":{"key":"06","name":"Hessen"}},{"name":"Hergershäuser-Sickenhöfer Grenzschneise","postalCode":"64832","locality":"Babenhausen","municipality":{"key":"06432002","name":"Babenhausen, Stadt","type":"Stadt"},"district":{"key":"06432","name":"Darmstadt-Dieburg","type":"Landkreis"},"federalState":{"key":"06","name":"Hessen"}},{"name":"Hergershäuser Str.","postalCode":"64832","locality":"Babenhausen","municipality":{"key":"06432002","name":"Babenhausen, Stadt","type":"Stadt"},"district":{"key":"06432","name":"Darmstadt-Dieburg","type":"Landkreis"},"federalState":{"key":"06","name":"Hessen"}},{"name":"Hergershäuser Weg","postalCode":"64832","locality":"Babenhausen","municipality":{"key":"06432002","name":"Babenhausen, Stadt","type":"Stadt"},"district":{"key":"06432","name":"Darmstadt-Dieburg","type":"Landkreis"},"federalState":{"key":"06","name":"Hessen"}},{"name":"Hermann-Löns-Str.","postalCode":"87727","locality":"Babenhausen","municipality":{"key":"09778115","name":"Babenhausen, M","type":"Markt"},"district":{"key":"09778","name":"Unterallgäu","type":"Landkreis"},"federalState":{"key":"09","name":"Bayern"}},{"name":"Hermann-Stotz-Str.","postalCode":"64832","locality":"Babenhausen","municipality":{"key":"06432002","name":"Babenhausen, Stadt","type":"Stadt"},"district":{"key":"06432","name":"Darmstadt-Dieburg","type":"Landkreis"},"federalState":{"key":"06","name":"Hessen"}},{"name":"Herrneigenweg","postalCode":"64832","locality":"Babenhausen","municipality":{"key":"06432002","name":"Babenhausen, Stadt","type":"Stadt"},"district":{"key":"06432","name":"Darmstadt-Dieburg","type":"Landkreis"},"federalState":{"key":"06","name":"Hessen"}},{"name":"Hessenring","postalCode":"64832","locality":"Babenhausen","municipality":{"key":"06432002","name":"Babenhausen, Stadt","type":"Stadt"},"district":{"key":"06432","name":"Darmstadt-Dieburg","type":"Landkreis"},"federalState":{"key":"06","name":"Hessen"}},{"name":"Heuweg","postalCode":"64832","locality":"Babenhausen","municipality":{"key":"06432002","name":"Babenhausen, Stadt","type":"Stadt"},"district":{"key":"06432","name":"Darmstadt-Dieburg","type":"Landkreis"},"federalState":{"key":"06","name":"Hessen"}},{"name":"Hilfs Schneise","postalCode":"64832","locality":"Babenhausen","municipality":{"key":"06432002","name":"Babenhausen, Stadt","type":"Stadt"},"district":{"key":"06432","name":"Darmstadt-Dieburg","type":"Landkreis"},"federalState":{"key":"06","name":"Hessen"}},{"name":"Hindenburgstr.","postalCode":"64832","locality":"Babenhausen","municipality":{"key":"06432002","name":"Babenhausen, Stadt","type":"Stadt"},"district":{"key":"06432","name":"Darmstadt-Dieburg","type":"Landkreis"},"federalState":{"key":"06","name":"Hessen"}},{"name":"Hinter der Altdörfer Kirche","postalCode":"64832","locality":"Babenhausen","municipality":{"key":"06432002","name":"Babenhausen, Stadt","type":"Stadt"},"district":{"key":"06432","name":"Darmstadt-Dieburg","type":"Landkreis"},"federalState":{"key":"06","name":"Hessen"}},{"name":"Hintergasse","postalCode":"64832","locality":"Babenhausen","municipality":{"key":"06432002","name":"Babenhausen, Stadt","type":"Stadt"},"district":{"key":"06432","name":"Darmstadt-Dieburg","type":"Landkreis"},"federalState":{"key":"06","name":"Hessen"}},{"name":"Hinterm See","postalCode":"64832","locality":"Babenhausen","municipality":{"key":"06432002","name":"Babenhausen, Stadt","type":"Stadt"},"district":{"key":"06432","name":"Darmstadt-Dieburg","type":"Landkreis"},"federalState":{"key":"06","name":"Hessen"}},{"name":"Hinterm Stiegel","postalCode":"64832","locality":"Babenhausen","municipality":{"key":"06432002","name":"Babenhausen, Stadt","type":"Stadt"},"district":{"key":"06432","name":"Darmstadt-Dieburg","type":"Landkreis"},"federalState":{"key":"06","name":"Hessen"}},{"name":"Hirtengasse","postalCode":"87727","locality":"Babenhausen","municipality":{"key":"09778115","name":"Babenhausen, M","type":"Markt"},"district":{"key":"09778","name":"Unterallgäu","type":"Landkreis"},"federalState":{"key":"09","name":"Bayern"}},{"name":"Hißlachestr.","postalCode":"64832","locality":"Babenhausen","municipality":{"key":"06432002","name":"Babenhausen, Stadt","type":"Stadt"},"district":{"key":"06432","name":"Darmstadt-Dieburg","type":"Landkreis"},"federalState":{"key":"06","name":"Hessen"}},{"name":"Hofbrühl","postalCode":"87727","locality":"Babenhausen","municipality":{"key":"09778115","name":"Babenhausen, M","type":"Markt"},"district":{"key":"09778","name":"Unterallgäu","type":"Landkreis"},"federalState":{"key":"09","name":"Bayern"}},{"name":"Hofstr.","postalCode":"64832","locality":"Babenhausen","municipality":{"key":"06432002","name":"Babenhausen, Stadt","type":"Stadt"},"district":{"key":"06432","name":"Darmstadt-Dieburg","type":"Landkreis"},"federalState":{"key":"06","name":"Hessen"}},{"name":"Hohestand Schneise","postalCode":"64832","locality":"Babenhausen","municipality":{"key":"06432002","name":"Babenhausen, Stadt","type":"Stadt"},"district":{"key":"06432","name":"Darmstadt-Dieburg","type":"Landkreis"},"federalState":{"key":"06","name":"Hessen"}},{"name":"Hohe Str.","postalCode":"64832","locality":"Babenhausen","municipality":{"key":"06432002","name":"Babenhausen, Stadt","type":"Stadt"},"district":{"key":"06432","name":"Darmstadt-Dieburg","type":"Landkreis"},"federalState":{"key":"06","name":"Hessen"}},{"name":"Hölderlinstr.","postalCode":"87727","locality":"Babenhausen","municipality":{"key":"09778115","name":"Babenhausen, M","type":"Markt"},"district":{"key":"09778","name":"Unterallgäu","type":"Landkreis"},"federalState":{"key":"09","name":"Bayern"}},{"name":"Holländerschneise","postalCode":"64832","locality":"Babenhausen","municipality":{"key":"06432002","name":"Babenhausen, Stadt","type":"Stadt"},"district":{"key":"06432","name":"Darmstadt-Dieburg","type":"Landkreis"},"federalState":{"key":"06","name":"Hessen"}},{"name":"Höllberg","postalCode":"87727","locality":"Babenhausen","municipality":{"key":"09778115","name":"Babenhausen, M","type":"Markt"},"district":{"key":"09778","name":"Unterallgäu","type":"Landkreis"},"federalState":{"key":"09","name":"Bayern"}},{"name":"Iglauer Str.","postalCode":"64832","locality":"Babenhausen","municipality":{"key":"06432002","name":"Babenhausen, Stadt","type":"Stadt"},"district":{"key":"06432","name":"Darmstadt-Dieburg","type":"Landkreis"},"federalState":{"key":"06","name":"Hessen"}},{"name":"Im Bangert","postalCode":"64832","locality":"Babenhausen","municipality":{"key":"06432002","name":"Babenhausen, Stadt","type":"Stadt"},"district":{"key":"06432","name":"Darmstadt-Dieburg","type":"Landkreis"},"federalState":{"key":"06","name":"Hessen"}},{"name":"Im Erloch","postalCode":"64832","locality":"Babenhausen","municipality":{"key":"06432002","name":"Babenhausen, Stadt","type":"Stadt"},"district":{"key":"06432","name":"Darmstadt-Dieburg","type":"Landkreis"},"federalState":{"key":"06","name":"Hessen"}},{"name":"Im Frauenborn","postalCode":"64832","locality":"Babenhausen","municipality":{"key":"06432002","name":"Babenhausen, Stadt","type":"Stadt"},"district":{"key":"06432","name":"Darmstadt-Dieburg","type":"Landkreis"},"federalState":{"key":"06","name":"Hessen"}},{"name":"Im Fronhof","postalCode":"64832","locality":"Babenhausen","municipality":{"key":"06432002","name":"Babenhausen, Stadt","type":"Stadt"},"district":{"key":"06432","name":"Darmstadt-Dieburg","type":"Landkreis"},"federalState":{"key":"06","name":"Hessen"}},{"name":"Im Grund","postalCode":"64832","locality":"Babenhausen","municipality":{"key":"06432002","name":"Babenhausen, Stadt","type":"Stadt"},"district":{"key":"06432","name":"Darmstadt-Dieburg","type":"Landkreis"},"federalState":{"key":"06","name":"Hessen"}},{"name":"Im Kirchgarten","postalCode":"64832","locality":"Babenhausen","municipality":{"key":"06432002","name":"Babenhausen, Stadt","type":"Stadt"},"district":{"key":"06432","name":"Darmstadt-Dieburg","type":"Landkreis"},"federalState":{"key":"06","name":"Hessen"}},{"name":"Im Mathildenweg","postalCode":"64832","locality":"Babenhausen","municipality":{"key":"06432002","name":"Babenhausen, Stadt","type":"Stadt"},"district":{"key":"06432","name":"Darmstadt-Dieburg","type":"Landkreis"},"federalState":{"key":"06","name":"Hessen"}},{"name":"Im Mühlmahd","postalCode":"87727","locality":"Babenhausen","municipality":{"key":"09778115","name":"Babenhausen, M","type":"Markt"},"district":{"key":"09778","name":"Unterallgäu","type":"Landkreis"},"federalState":{"key":"09","name":"Bayern"}},{"name":"Im Reihergrund","postalCode":"64832","locality":"Babenhausen","municipality":{"key":"06432002","name":"Babenhausen, Stadt","type":"Stadt"},"district":{"key":"06432","name":"Darmstadt-Dieburg","type":"Landkreis"},"federalState":{"key":"06","name":"Hessen"}},{"name":"Im Riemen","postalCode":"64832","locality":"Babenhausen","municipality":{"key":"06432002","name":"Babenhausen, Stadt","type":"Stadt"},"district":{"key":"06432","name":"Darmstadt-Dieburg","type":"Landkreis"},"federalState":{"key":"06","name":"Hessen"}},{"name":"Im Seegarten","postalCode":"64832","locality":"Babenhausen","municipality":{"key":"06432002","name":"Babenhausen, Stadt","type":"Stadt"},"district":{"key":"06432","name":"Darmstadt-Dieburg","type":"Landkreis"},"federalState":{"key":"06","name":"Hessen"}},{"name":"Im Tafelmahd","postalCode":"87727","locality":"Babenhausen","municipality":{"key":"09778115","name":"Babenhausen, M","type":"Markt"},"district":{"key":"09778","name":"Unterallgäu","type":"Landkreis"},"federalState":{"key":"09","name":"Bayern"}},{"name":"Im Untereichen","postalCode":"64832","locality":"Babenhausen","municipality":{"key":"06432002","name":"Babenhausen, Stadt","type":"Stadt"},"district":{"key":"06432","name":"Darmstadt-Dieburg","type":"Landkreis"},"federalState":{"key":"06","name":"Hessen"}},{"name":"In den Steinäckern","postalCode":"64832","locality":"Babenhausen","municipality":{"key":"06432002","name":"Babenhausen, Stadt","type":"Stadt"},"district":{"key":"06432","name":"Darmstadt-Dieburg","type":"Landkreis"},"federalState":{"key":"06","name":"Hessen"}},{"name":"Industriestr.","postalCode":"64832","locality":"Babenhausen","municipality":{"key":"06432002","name":"Babenhausen, Stadt","type":"Stadt"},"district":{"key":"06432","name":"Darmstadt-Dieburg","type":"Landkreis"},"federalState":{"key":"06","name":"Hessen"}},{"name":"Ingwiller Str.","postalCode":"64832","locality":"Babenhausen","municipality":{"key":"06432002","name":"Babenhausen, Stadt","type":"Stadt"},"district":{"key":"06432","name":"Darmstadt-Dieburg","type":"Landkreis"},"federalState":{"key":"06","name":"Hessen"}},{"name":"Jahnstr.","postalCode":"64832","locality":"Babenhausen","municipality":{"key":"06432002","name":"Babenhausen, Stadt","type":"Stadt"},"district":{"key":"06432","name":"Darmstadt-Dieburg","type":"Landkreis"},"federalState":{"key":"06","name":"Hessen"}},{"name":"Jahnstr.","postalCode":"87727","locality":"Babenhausen","municipality":{"key":"09778115","name":"Babenhausen, M","type":"Markt"},"district":{"key":"09778","name":"Unterallgäu","type":"Landkreis"},"federalState":{"key":"09","name":"Bayern"}},{"name":"Jakob-Winter-Gasse","postalCode":"87727","locality":"Babenhausen","municipality":{"key":"09778115","name":"Babenhausen, M","type":"Markt"},"district":{"key":"09778","name":"Unterallgäu","type":"Landkreis"},"federalState":{"key":"09","name":"Bayern"}},{"name":"Jochumstr.","postalCode":"87727","locality":"Babenhausen","municipality":{"key":"09778115","name":"Babenhausen, M","type":"Markt"},"district":{"key":"09778","name":"Unterallgäu","type":"Landkreis"},"federalState":{"key":"09","name":"Bayern"}},{"name":"Johann-Strauß-Str.","postalCode":"87727","locality":"Babenhausen","municipality":{"key":"09778115","name":"Babenhausen, M","type":"Markt"},"district":{"key":"09778","name":"Unterallgäu","type":"Landkreis"},"federalState":{"key":"09","name":"Bayern"}},{"name":"Judengasse","postalCode":"87727","locality":"Babenhausen","municipality":{"key":"09778115","name":"Babenhausen, M","type":"Markt"},"district":{"key":"09778","name":"Unterallgäu","type":"Landkreis"},"federalState":{"key":"09","name":"Bayern"}},{"name":"Julius-Lichtenstein-Str.","postalCode":"64832","locality":"Babenhausen","municipality":{"key":"06432002","name":"Babenhausen, Stadt","type":"Stadt"},"district":{"key":"06432","name":"Darmstadt-Dieburg","type":"Landkreis"},"federalState":{"key":"06","name":"Hessen"}},{"name":"Jürgen-Schumann-Str.","postalCode":"64832","locality":"Babenhausen","municipality":{"key":"06432002","name":"Babenhausen, Stadt","type":"Stadt"},"district":{"key":"06432","name":"Darmstadt-Dieburg","type":"Landkreis"},"federalState":{"key":"06","name":"Hessen"}},{"name":"Justus-Arnold-Str.","postalCode":"64832","locality":"Babenhausen","municipality":{"key":"06432002","name":"Babenhausen, Stadt","type":"Stadt"},"district":{"key":"06432","name":"Darmstadt-Dieburg","type":"Landkreis"},"federalState":{"key":"06","name":"Hessen"}},{"name":"Kantstr.","postalCode":"87727","locality":"Babenhausen","municipality":{"key":"09778115","name":"Babenhausen, M","type":"Markt"},"district":{"key":"09778","name":"Unterallgäu","type":"Landkreis"},"federalState":{"key":"09","name":"Bayern"}},{"name":"Karlstr.","postalCode":"64832","locality":"Babenhausen","municipality":{"key":"06432002","name":"Babenhausen, Stadt","type":"Stadt"},"district":{"key":"06432","name":"Darmstadt-Dieburg","type":"Landkreis"},"federalState":{"key":"06","name":"Hessen"}},{"name":"Kastanienweg","postalCode":"64832","locality":"Babenhausen","municipality":{"key":"06432002","name":"Babenhausen, Stadt","type":"Stadt"},"district":{"key":"06432","name":"Darmstadt-Dieburg","type":"Landkreis"},"federalState":{"key":"06","name":"Hessen"}},{"name":"Kastanienweg","postalCode":"87727","locality":"Babenhausen","municipality":{"key":"09778115","name":"Babenhausen, M","type":"Markt"},"district":{"key":"09778","name":"Unterallgäu","type":"Landkreis"},"federalState":{"key":"09","name":"Bayern"}},{"name":"Kirchhaslacher Str.","postalCode":"87727","locality":"Babenhausen","municipality":{"key":"09778115","name":"Babenhausen, M","type":"Markt"},"district":{"key":"09778","name":"Unterallgäu","type":"Landkreis"},"federalState":{"key":"09","name":"Bayern"}},{"name":"Kirchstr.","postalCode":"64832","locality":"Babenhausen","municipality":{"key":"06432002","name":"Babenhausen, Stadt","type":"Stadt"},"district":{"key":"06432","name":"Darmstadt-Dieburg","type":"Landkreis"},"federalState":{"key":"06","name":"Hessen"}},{"name":"Kirchstr.","postalCode":"87727","locality":"Babenhausen","municipality":{"key":"09778115","name":"Babenhausen, M","type":"Markt"},"district":{"key":"09778","name":"Unterallgäu","type":"Landkreis"},"federalState":{"key":"09","name":"Bayern"}},{"name":"Kirrwiller Str.","postalCode":"64832","locality":"Babenhausen","municipality":{"key":"06432002","name":"Babenhausen, Stadt","type":"Stadt"},"district":{"key":"06432","name":"Darmstadt-Dieburg","type":"Landkreis"},"federalState":{"key":"06","name":"Hessen"}},{"name":"Kleestädter Str.","postalCode":"64832","locality":"Babenhausen","municipality":{"key":"06432002","name":"Babenhausen, Stadt","type":"Stadt"},"district":{"key":"06432","name":"Darmstadt-Dieburg","type":"Landkreis"},"federalState":{"key":"06","name":"Hessen"}},{"name":"Kleine Pfarrgasse","postalCode":"64832","locality":"Babenhausen","municipality":{"key":"06432002","name":"Babenhausen, Stadt","type":"Stadt"},"district":{"key":"06432","name":"Darmstadt-Dieburg","type":"Landkreis"},"federalState":{"key":"06","name":"Hessen"}},{"name":"Kleiststr.","postalCode":"87727","locality":"Babenhausen","municipality":{"key":"09778115","name":"Babenhausen, M","type":"Markt"},"district":{"key":"09778","name":"Unterallgäu","type":"Landkreis"},"federalState":{"key":"09","name":"Bayern"}},{"name":"Kolpingstr.","postalCode":"87727","locality":"Babenhausen","municipality":{"key":"09778115","name":"Babenhausen, M","type":"Markt"},"district":{"key":"09778","name":"Unterallgäu","type":"Landkreis"},"federalState":{"key":"09","name":"Bayern"}},{"name":"Konfurter Müller Weg","postalCode":"64832","locality":"Babenhausen","municipality":{"key":"06432002","name":"Babenhausen, Stadt","type":"Stadt"},"district":{"key":"06432","name":"Darmstadt-Dieburg","type":"Landkreis"},"federalState":{"key":"06","name":"Hessen"}},{"name":"Königsberger Str.","postalCode":"64832","locality":"Babenhausen","municipality":{"key":"06432002","name":"Babenhausen, Stadt","type":"Stadt"},"district":{"key":"06432","name":"Darmstadt-Dieburg","type":"Landkreis"},"federalState":{"key":"06","name":"Hessen"}},{"name":"Kreuzkirch Schneise","postalCode":"64832","locality":"Babenhausen","municipality":{"key":"06432002","name":"Babenhausen, Stadt","type":"Stadt"},"district":{"key":"06432","name":"Darmstadt-Dieburg","type":"Landkreis"},"federalState":{"key":"06","name":"Hessen"}},{"name":"Kreuzlachschneise","postalCode":"64832","locality":"Babenhausen","municipality":{"key":"06432002","name":"Babenhausen, Stadt","type":"Stadt"},"district":{"key":"06432","name":"Darmstadt-Dieburg","type":"Landkreis"},"federalState":{"key":"06","name":"Hessen"}},{"name":"Krumbacher Str.","postalCode":"87727","locality":"Babenhausen","municipality":{"key":"09778115","name":"Babenhausen, M","type":"Markt"},"district":{"key":"09778","name":"Unterallgäu","type":"Landkreis"},"federalState":{"key":"09","name":"Bayern"}},{"name":"Kuhzell Schneise","postalCode":"64832","locality":"Babenhausen","municipality":{"key":"06432002","name":"Babenhausen, Stadt","type":"Stadt"},"district":{"key":"06432","name":"Darmstadt-Dieburg","type":"Landkreis"},"federalState":{"key":"06","name":"Hessen"}},{"name":"Landrat-Pfeifer-Str.","postalCode":"64832","locality":"Babenhausen","municipality":{"key":"06432002","name":"Babenhausen, Stadt","type":"Stadt"},"district":{"key":"06432","name":"Darmstadt-Dieburg","type":"Landkreis"},"federalState":{"key":"06","name":"Hessen"}},{"name":"Landrat-Pfeiffer-Str.","postalCode":"64832","locality":"Babenhausen","municipality":{"key":"06432002","name":"Babenhausen, Stadt","type":"Stadt"},"district":{"key":"06432","name":"Darmstadt-Dieburg","type":"Landkreis"},"federalState":{"key":"06","name":"Hessen"}},{"name":"Langestein Schneise","postalCode":"64832","locality":"Babenhausen","municipality":{"key":"06432002","name":"Babenhausen, Stadt","type":"Stadt"},"district":{"key":"06432","name":"Darmstadt-Dieburg","type":"Landkreis"},"federalState":{"key":"06","name":"Hessen"}},{"name":"Langstädter Schneise","postalCode":"64832","locality":"Babenhausen","municipality":{"key":"06432002","name":"Babenhausen, Stadt","type":"Stadt"},"district":{"key":"06432","name":"Darmstadt-Dieburg","type":"Landkreis"},"federalState":{"key":"06","name":"Hessen"}},{"name":"Langstädter Str.","postalCode":"64832","locality":"Babenhausen","municipality":{"key":"06432002","name":"Babenhausen, Stadt","type":"Stadt"},"district":{"key":"06432","name":"Darmstadt-Dieburg","type":"Landkreis"},"federalState":{"key":"06","name":"Hessen"}},{"name":"Langstädter Weg","postalCode":"64832","locality":"Babenhausen","municipality":{"key":"06432002","name":"Babenhausen, Stadt","type":"Stadt"},"district":{"key":"06432","name":"Darmstadt-Dieburg","type":"Landkreis"},"federalState":{"key":"06","name":"Hessen"}},{"name":"Lärchenweg","postalCode":"64832","locality":"Babenhausen","municipality":{"key":"06432002","name":"Babenhausen, Stadt","type":"Stadt"},"district":{"key":"06432","name":"Darmstadt-Dieburg","type":"Landkreis"},"federalState":{"key":"06","name":"Hessen"}},{"name":"Lärchenweg","postalCode":"87727","locality":"Babenhausen","municipality":{"key":"09778115","name":"Babenhausen, M","type":"Markt"},"district":{"key":"09778","name":"Unterallgäu","type":"Landkreis"},"federalState":{"key":"09","name":"Bayern"}},{"name":"Leharstr.","postalCode":"87727","locality":"Babenhausen","municipality":{"key":"09778115","name":"Babenhausen, M","type":"Markt"},"district":{"key":"09778","name":"Unterallgäu","type":"Landkreis"},"federalState":{"key":"09","name":"Bayern"}},{"name":"Lessingstr.","postalCode":"87727","locality":"Babenhausen","municipality":{"key":"09778115","name":"Babenhausen, M","type":"Markt"},"district":{"key":"09778","name":"Unterallgäu","type":"Landkreis"},"federalState":{"key":"09","name":"Bayern"}},{"name":"Lettbusch Schneise","postalCode":"64832","locality":"Babenhausen","municipality":{"key":"06432002","name":"Babenhausen, Stadt","type":"Stadt"},"district":{"key":"06432","name":"Darmstadt-Dieburg","type":"Landkreis"},"federalState":{"key":"06","name":"Hessen"}},{"name":"Lichtenberger Str.","postalCode":"64832","locality":"Babenhausen","municipality":{"key":"06432002","name":"Babenhausen, Stadt","type":"Stadt"},"district":{"key":"06432","name":"Darmstadt-Dieburg","type":"Landkreis"},"federalState":{"key":"06","name":"Hessen"}},{"name":"Limesstr.","postalCode":"64832","locality":"Babenhausen","municipality":{"key":"06432002","name":"Babenhausen, Stadt","type":"Stadt"},"district":{"key":"06432","name":"Darmstadt-Dieburg","type":"Landkreis"},"federalState":{"key":"06","name":"Hessen"}},{"name":"Lindenberg","postalCode":"87727","locality":"Babenhausen","municipality":{"key":"09778115","name":"Babenhausen, M","type":"Markt"},"district":{"key":"09778","name":"Unterallgäu","type":"Landkreis"},"federalState":{"key":"09","name":"Bayern"}},{"name":"Lindenbuckel Schneise","postalCode":"64832","locality":"Babenhausen","municipality":{"key":"06432002","name":"Babenhausen, Stadt","type":"Stadt"},"district":{"key":"06432","name":"Darmstadt-Dieburg","type":"Landkreis"},"federalState":{"key":"06","name":"Hessen"}},{"name":"Lindenstr.","postalCode":"87727","locality":"Babenhausen","municipality":{"key":"09778115","name":"Babenhausen, M","type":"Markt"},"district":{"key":"09778","name":"Unterallgäu","type":"Landkreis"},"federalState":{"key":"09","name":"Bayern"}},{"name":"Lindenweg","postalCode":"64832","locality":"Babenhausen","municipality":{"key":"06432002","name":"Babenhausen, Stadt","type":"Stadt"},"district":{"key":"06432","name":"Darmstadt-Dieburg","type":"Landkreis"},"federalState":{"key":"06","name":"Hessen"}},{"name":"Louvignéweg","postalCode":"87727","locality":"Babenhausen","municipality":{"key":"09778115","name":"Babenhausen, M","type":"Markt"},"district":{"key":"09778","name":"Unterallgäu","type":"Landkreis"},"federalState":{"key":"09","name":"Bayern"}},{"name":"Ludwig-Ganghofer-Str.","postalCode":"87727","locality":"Babenhausen","municipality":{"key":"09778115","name":"Babenhausen, M","type":"Markt"},"district":{"key":"09778","name":"Unterallgäu","type":"Landkreis"},"federalState":{"key":"09","name":"Bayern"}},{"name":"Ludwig-Leinsing-Str.","postalCode":"87727","locality":"Babenhausen","municipality":{"key":"09778115","name":"Babenhausen, M","type":"Markt"},"district":{"key":"09778","name":"Unterallgäu","type":"Landkreis"},"federalState":{"key":"09","name":"Bayern"}},{"name":"Ludwig Schneise","postalCode":"64832","locality":"Babenhausen","municipality":{"key":"06432002","name":"Babenhausen, Stadt","type":"Stadt"},"district":{"key":"06432","name":"Darmstadt-Dieburg","type":"Landkreis"},"federalState":{"key":"06","name":"Hessen"}},{"name":"Ludwigstr.","postalCode":"64832","locality":"Babenhausen","municipality":{"key":"06432002","name":"Babenhausen, Stadt","type":"Stadt"},"district":{"key":"06432","name":"Darmstadt-Dieburg","type":"Landkreis"},"federalState":{"key":"06","name":"Hessen"}},{"name":"Ludwig-Thoma-Str.","postalCode":"87727","locality":"Babenhausen","municipality":{"key":"09778115","name":"Babenhausen, M","type":"Markt"},"district":{"key":"09778","name":"Unterallgäu","type":"Landkreis"},"federalState":{"key":"09","name":"Bayern"}},{"name":"Luginsland","postalCode":"87727","locality":"Babenhausen","municipality":{"key":"09778115","name":"Babenhausen, M","type":"Markt"},"district":{"key":"09778","name":"Unterallgäu","type":"Landkreis"},"federalState":{"key":"09","name":"Bayern"}},{"name":"Luise-Büchner-Str.","postalCode":"64832","locality":"Babenhausen","municipality":{"key":"06432002","name":"Babenhausen, Stadt","type":"Stadt"},"district":{"key":"06432","name":"Darmstadt-Dieburg","type":"Landkreis"},"federalState":{"key":"06","name":"Hessen"}},{"name":"Luisenstr.","postalCode":"64832","locality":"Babenhausen","municipality":{"key":"06432002","name":"Babenhausen, Stadt","type":"Stadt"},"district":{"key":"06432","name":"Darmstadt-Dieburg","type":"Landkreis"},"federalState":{"key":"06","name":"Hessen"}},{"name":"Magnusweg","postalCode":"87727","locality":"Babenhausen","municipality":{"key":"09778115","name":"Babenhausen, M","type":"Markt"},"district":{"key":"09778","name":"Unterallgäu","type":"Landkreis"},"federalState":{"key":"09","name":"Bayern"}},{"name":"Mainstr.","postalCode":"64832","locality":"Babenhausen","municipality":{"key":"06432002","name":"Babenhausen, Stadt","type":"Stadt"},"district":{"key":"06432","name":"Darmstadt-Dieburg","type":"Landkreis"},"federalState":{"key":"06","name":"Hessen"}},{"name":"Marie-Curie-Ring","postalCode":"64832","locality":"Babenhausen","municipality":{"key":"06432002","name":"Babenhausen, Stadt","type":"Stadt"},"district":{"key":"06432","name":"Darmstadt-Dieburg","type":"Landkreis"},"federalState":{"key":"06","name":"Hessen"}},{"name":"Marienstr.","postalCode":"64832","locality":"Babenhausen","municipality":{"key":"06432002","name":"Babenhausen, Stadt","type":"Stadt"},"district":{"key":"06432","name":"Darmstadt-Dieburg","type":"Landkreis"},"federalState":{"key":"06","name":"Hessen"}},{"name":"Markstr.","postalCode":"64832","locality":"Babenhausen","municipality":{"key":"06432002","name":"Babenhausen, Stadt","type":"Stadt"},"district":{"key":"06432","name":"Darmstadt-Dieburg","type":"Landkreis"},"federalState":{"key":"06","name":"Hessen"}},{"name":"Marktplatz","postalCode":"64832","locality":"Babenhausen","municipality":{"key":"06432002","name":"Babenhausen, Stadt","type":"Stadt"},"district":{"key":"06432","name":"Darmstadt-Dieburg","type":"Landkreis"},"federalState":{"key":"06","name":"Hessen"}},{"name":"Marktplatz","postalCode":"87727","locality":"Babenhausen","municipality":{"key":"09778115","name":"Babenhausen, M","type":"Markt"},"district":{"key":"09778","name":"Unterallgäu","type":"Landkreis"},"federalState":{"key":"09","name":"Bayern"}},{"name":"Martin-Luther-Str.","postalCode":"64832","locality":"Babenhausen","municipality":{"key":"06432002","name":"Babenhausen, Stadt","type":"Stadt"},"district":{"key":"06432","name":"Darmstadt-Dieburg","type":"Landkreis"},"federalState":{"key":"06","name":"Hessen"}},{"name":"Mathildenstr.","postalCode":"64832","locality":"Babenhausen","municipality":{"key":"06432002","name":"Babenhausen, Stadt","type":"Stadt"},"district":{"key":"06432","name":"Darmstadt-Dieburg","type":"Landkreis"},"federalState":{"key":"06","name":"Hessen"}},{"name":"Mauerweg","postalCode":"64832","locality":"Babenhausen","municipality":{"key":"06432002","name":"Babenhausen, Stadt","type":"Stadt"},"district":{"key":"06432","name":"Darmstadt-Dieburg","type":"Landkreis"},"federalState":{"key":"06","name":"Hessen"}},{"name":"Memminger Str.","postalCode":"87727","locality":"Babenhausen","municipality":{"key":"09778115","name":"Babenhausen, M","type":"Markt"},"district":{"key":"09778","name":"Unterallgäu","type":"Landkreis"},"federalState":{"key":"09","name":"Bayern"}},{"name":"Molkenborn Schneise","postalCode":"64832","locality":"Babenhausen","municipality":{"key":"06432002","name":"Babenhausen, Stadt","type":"Stadt"},"district":{"key":"06432","name":"Darmstadt-Dieburg","type":"Landkreis"},"federalState":{"key":"06","name":"Hessen"}},{"name":"Molkenborn-Schneise","postalCode":"64832","locality":"Babenhausen","municipality":{"key":"06432002","name":"Babenhausen, Stadt","type":"Stadt"},"district":{"key":"06432","name":"Darmstadt-Dieburg","type":"Landkreis"},"federalState":{"key":"06","name":"Hessen"}},{"name":"Mörikestr.","postalCode":"87727","locality":"Babenhausen","municipality":{"key":"09778115","name":"Babenhausen, M","type":"Markt"},"district":{"key":"09778","name":"Unterallgäu","type":"Landkreis"},"federalState":{"key":"09","name":"Bayern"}},{"name":"Mozartstr.","postalCode":"87727","locality":"Babenhausen","municipality":{"key":"09778115","name":"Babenhausen, M","type":"Markt"},"district":{"key":"09778","name":"Unterallgäu","type":"Landkreis"},"federalState":{"key":"09","name":"Bayern"}},{"name":"Mühlstr.","postalCode":"64832","locality":"Babenhausen","municipality":{"key":"06432002","name":"Babenhausen, Stadt","type":"Stadt"},"district":{"key":"06432","name":"Darmstadt-Dieburg","type":"Landkreis"},"federalState":{"key":"06","name":"Hessen"}},{"name":"Müllergäßchen","postalCode":"64832","locality":"Babenhausen","municipality":{"key":"06432002","name":"Babenhausen, Stadt","type":"Stadt"},"district":{"key":"06432","name":"Darmstadt-Dieburg","type":"Landkreis"},"federalState":{"key":"06","name":"Hessen"}},{"name":"Nelkenstr.","postalCode":"64832","locality":"Babenhausen","municipality":{"key":"06432002","name":"Babenhausen, Stadt","type":"Stadt"},"district":{"key":"06432","name":"Darmstadt-Dieburg","type":"Landkreis"},"federalState":{"key":"06","name":"Hessen"}},{"name":"Neubrücker Weg","postalCode":"64832","locality":"Babenhausen","municipality":{"key":"06432002","name":"Babenhausen, Stadt","type":"Stadt"},"district":{"key":"06432","name":"Darmstadt-Dieburg","type":"Landkreis"},"federalState":{"key":"06","name":"Hessen"}},{"name":"Neuer Weg","postalCode":"64832","locality":"Babenhausen","municipality":{"key":"06432002","name":"Babenhausen, Stadt","type":"Stadt"},"district":{"key":"06432","name":"Darmstadt-Dieburg","type":"Landkreis"},"federalState":{"key":"06","name":"Hessen"}},{"name":"Neue Schneise","postalCode":"64832","locality":"Babenhausen","municipality":{"key":"06432002","name":"Babenhausen, Stadt","type":"Stadt"},"district":{"key":"06432","name":"Darmstadt-Dieburg","type":"Landkreis"},"federalState":{"key":"06","name":"Hessen"}},{"name":"Neugasse","postalCode":"64832","locality":"Babenhausen","municipality":{"key":"06432002","name":"Babenhausen, Stadt","type":"Stadt"},"district":{"key":"06432","name":"Darmstadt-Dieburg","type":"Landkreis"},"federalState":{"key":"06","name":"Hessen"}},{"name":"Neuwiller Str.","postalCode":"64832","locality":"Babenhausen","municipality":{"key":"06432002","name":"Babenhausen, Stadt","type":"Stadt"},"district":{"key":"06432","name":"Darmstadt-Dieburg","type":"Landkreis"},"federalState":{"key":"06","name":"Hessen"}},{"name":"Nieder-Röder Str.","postalCode":"64832","locality":"Babenhausen","municipality":{"key":"06432002","name":"Babenhausen, Stadt","type":"Stadt"},"district":{"key":"06432","name":"Darmstadt-Dieburg","type":"Landkreis"},"federalState":{"key":"06","name":"Hessen"}},{"name":"Nordring","postalCode":"64832","locality":"Babenhausen","municipality":{"key":"06432002","name":"Babenhausen, Stadt","type":"Stadt"},"district":{"key":"06432","name":"Darmstadt-Dieburg","type":"Landkreis"},"federalState":{"key":"06","name":"Hessen"}},{"name":"Obere Haaggasse","postalCode":"64832","locality":"Babenhausen","municipality":{"key":"06432002","name":"Babenhausen, Stadt","type":"Stadt"},"district":{"key":"06432","name":"Darmstadt-Dieburg","type":"Landkreis"},"federalState":{"key":"06","name":"Hessen"}},{"name":"Obere Suhl Schneise","postalCode":"64832","locality":"Babenhausen","municipality":{"key":"06432002","name":"Babenhausen, Stadt","type":"Stadt"},"district":{"key":"06432","name":"Darmstadt-Dieburg","type":"Landkreis"},"federalState":{"key":"06","name":"Hessen"}},{"name":"Oberforstmeister Schneise","postalCode":"64832","locality":"Babenhausen","municipality":{"key":"06432002","name":"Babenhausen, Stadt","type":"Stadt"},"district":{"key":"06432","name":"Darmstadt-Dieburg","type":"Landkreis"},"federalState":{"key":"06","name":"Hessen"}},{"name":"Oberhaard Schneise","postalCode":"64832","locality":"Babenhausen","municipality":{"key":"06432002","name":"Babenhausen, Stadt","type":"Stadt"},"district":{"key":"06432","name":"Darmstadt-Dieburg","type":"Landkreis"},"federalState":{"key":"06","name":"Hessen"}},{"name":"Ober-Röder Weg","postalCode":"64832","locality":"Babenhausen","municipality":{"key":"06432002","name":"Babenhausen, Stadt","type":"Stadt"},"district":{"key":"06432","name":"Darmstadt-Dieburg","type":"Landkreis"},"federalState":{"key":"06","name":"Hessen"}},{"name":"Odenwaldstr.","postalCode":"64832","locality":"Babenhausen","municipality":{"key":"06432002","name":"Babenhausen, Stadt","type":"Stadt"},"district":{"key":"06432","name":"Darmstadt-Dieburg","type":"Landkreis"},"federalState":{"key":"06","name":"Hessen"}},{"name":"Ortsberingweg","postalCode":"64832","locality":"Babenhausen","municipality":{"key":"06432002","name":"Babenhausen, Stadt","type":"Stadt"},"district":{"key":"06432","name":"Darmstadt-Dieburg","type":"Landkreis"},"federalState":{"key":"06","name":"Hessen"}},{"name":"Ostheimer Allee","postalCode":"64832","locality":"Babenhausen","municipality":{"key":"06432002","name":"Babenhausen, Stadt","type":"Stadt"},"district":{"key":"06432","name":"Darmstadt-Dieburg","type":"Landkreis"},"federalState":{"key":"06","name":"Hessen"}},{"name":"Ostheimer Weg","postalCode":"64832","locality":"Babenhausen","municipality":{"key":"06432002","name":"Babenhausen, Stadt","type":"Stadt"},"district":{"key":"06432","name":"Darmstadt-Dieburg","type":"Landkreis"},"federalState":{"key":"06","name":"Hessen"}},{"name":"Ostring","postalCode":"64832","locality":"Babenhausen","municipality":{"key":"06432002","name":"Babenhausen, Stadt","type":"Stadt"},"district":{"key":"06432","name":"Darmstadt-Dieburg","type":"Landkreis"},"federalState":{"key":"06","name":"Hessen"}},{"name":"Otzbergstr.","postalCode":"64832","locality":"Babenhausen","municipality":{"key":"06432002","name":"Babenhausen, Stadt","type":"Stadt"},"district":{"key":"06432","name":"Darmstadt-Dieburg","type":"Landkreis"},"federalState":{"key":"06","name":"Hessen"}},{"name":"Paradiesstr.","postalCode":"87727","locality":"Babenhausen","municipality":{"key":"09778115","name":"Babenhausen, M","type":"Markt"},"district":{"key":"09778","name":"Unterallgäu","type":"Landkreis"},"federalState":{"key":"09","name":"Bayern"}},{"name":"Park im Schwanengraben/Platanenallee","postalCode":"64832","locality":"Babenhausen","municipality":{"key":"06432002","name":"Babenhausen, Stadt","type":"Stadt"},"district":{"key":"06432","name":"Darmstadt-Dieburg","type":"Landkreis"},"federalState":{"key":"06","name":"Hessen"}},{"name":"Paul-Keller-Str.","postalCode":"87727","locality":"Babenhausen","municipality":{"key":"09778115","name":"Babenhausen, M","type":"Markt"},"district":{"key":"09778","name":"Unterallgäu","type":"Landkreis"},"federalState":{"key":"09","name":"Bayern"}},{"name":"Pestalozzistr.","postalCode":"87727","locality":"Babenhausen","municipality":{"key":"09778115","name":"Babenhausen, M","type":"Markt"},"district":{"key":"09778","name":"Unterallgäu","type":"Landkreis"},"federalState":{"key":"09","name":"Bayern"}},{"name":"Peter-Dörfler-Str.","postalCode":"87727","locality":"Babenhausen","municipality":{"key":"09778115","name":"Babenhausen, M","type":"Markt"},"district":{"key":"09778","name":"Unterallgäu","type":"Landkreis"},"federalState":{"key":"09","name":"Bayern"}},{"name":"Pfaffenhofener Str.","postalCode":"64832","locality":"Babenhausen","municipality":{"key":"06432002","name":"Babenhausen, Stadt","type":"Stadt"},"district":{"key":"06432","name":"Darmstadt-Dieburg","type":"Landkreis"},"federalState":{"key":"06","name":"Hessen"}},{"name":"Pfingstweide Schneise","postalCode":"64832","locality":"Babenhausen","municipality":{"key":"06432002","name":"Babenhausen, Stadt","type":"Stadt"},"district":{"key":"06432","name":"Darmstadt-Dieburg","type":"Landkreis"},"federalState":{"key":"06","name":"Hessen"}},{"name":"Pfortestr.","postalCode":"64832","locality":"Babenhausen","municipality":{"key":"06432002","name":"Babenhausen, Stadt","type":"Stadt"},"district":{"key":"06432","name":"Darmstadt-Dieburg","type":"Landkreis"},"federalState":{"key":"06","name":"Hessen"}},{"name":"Philipp-Reis-Str.","postalCode":"64832","locality":"Babenhausen","municipality":{"key":"06432002","name":"Babenhausen, Stadt","type":"Stadt"},"district":{"key":"06432","name":"Darmstadt-Dieburg","type":"Landkreis"},"federalState":{"key":"06","name":"Hessen"}},{"name":"Platanenallee","postalCode":"64832","locality":"Babenhausen","municipality":{"key":"06432002","name":"Babenhausen, Stadt","type":"Stadt"},"district":{"key":"06432","name":"Darmstadt-Dieburg","type":"Landkreis"},"federalState":{"key":"06","name":"Hessen"}},{"name":"Pospen Schneise","postalCode":"64832","locality":"Babenhausen","municipality":{"key":"06432002","name":"Babenhausen, Stadt","type":"Stadt"},"district":{"key":"06432","name":"Darmstadt-Dieburg","type":"Landkreis"},"federalState":{"key":"06","name":"Hessen"}},{"name":"Potsdamer Str.","postalCode":"64832","locality":"Babenhausen","municipality":{"key":"06432002","name":"Babenhausen, Stadt","type":"Stadt"},"district":{"key":"06432","name":"Darmstadt-Dieburg","type":"Landkreis"},"federalState":{"key":"06","name":"Hessen"}},{"name":"Promenade","postalCode":"87727","locality":"Babenhausen","municipality":{"key":"09778115","name":"Babenhausen, M","type":"Markt"},"district":{"key":"09778","name":"Unterallgäu","type":"Landkreis"},"federalState":{"key":"09","name":"Bayern"}},{"name":"Rabenauschneise","postalCode":"64832","locality":"Babenhausen","municipality":{"key":"06432002","name":"Babenhausen, Stadt","type":"Stadt"},"district":{"key":"06432","name":"Darmstadt-Dieburg","type":"Landkreis"},"federalState":{"key":"06","name":"Hessen"}},{"name":"Raiffeisenstr.","postalCode":"64832","locality":"Babenhausen","municipality":{"key":"06432002","name":"Babenhausen, Stadt","type":"Stadt"},"district":{"key":"06432","name":"Darmstadt-Dieburg","type":"Landkreis"},"federalState":{"key":"06","name":"Hessen"}},{"name":"Rathausstr.","postalCode":"64832","locality":"Babenhausen","municipality":{"key":"06432002","name":"Babenhausen, Stadt","type":"Stadt"},"district":{"key":"06432","name":"Darmstadt-Dieburg","type":"Landkreis"},"federalState":{"key":"06","name":"Hessen"}},{"name":"Ratseck Schneise","postalCode":"64832","locality":"Babenhausen","municipality":{"key":"06432002","name":"Babenhausen, Stadt","type":"Stadt"},"district":{"key":"06432","name":"Darmstadt-Dieburg","type":"Landkreis"},"federalState":{"key":"06","name":"Hessen"}},{"name":"Rechbergstr.","postalCode":"87727","locality":"Babenhausen","municipality":{"key":"09778115","name":"Babenhausen, M","type":"Markt"},"district":{"key":"09778","name":"Unterallgäu","type":"Landkreis"},"federalState":{"key":"09","name":"Bayern"}},{"name":"Reichauer Str.","postalCode":"87727","locality":"Babenhausen","municipality":{"key":"09778115","name":"Babenhausen, M","type":"Markt"},"district":{"key":"09778","name":"Unterallgäu","type":"Landkreis"},"federalState":{"key":"09","name":"Bayern"}},{"name":"Reitbahnstr.","postalCode":"64832","locality":"Babenhausen","municipality":{"key":"06432002","name":"Babenhausen, Stadt","type":"Stadt"},"district":{"key":"06432","name":"Darmstadt-Dieburg","type":"Landkreis"},"federalState":{"key":"06","name":"Hessen"}},{"name":"Rennstr.","postalCode":"64832","locality":"Babenhausen","municipality":{"key":"06432002","name":"Babenhausen, Stadt","type":"Stadt"},"district":{"key":"06432","name":"Darmstadt-Dieburg","type":"Landkreis"},"federalState":{"key":"06","name":"Hessen"}},{"name":"Rennweg","postalCode":"64832","locality":"Babenhausen","municipality":{"key":"06432002","name":"Babenhausen, Stadt","type":"Stadt"},"district":{"key":"06432","name":"Darmstadt-Dieburg","type":"Landkreis"},"federalState":{"key":"06","name":"Hessen"}},{"name":"Revierförster Schneise","postalCode":"64832","locality":"Babenhausen","municipality":{"key":"06432002","name":"Babenhausen, Stadt","type":"Stadt"},"district":{"key":"06432","name":"Darmstadt-Dieburg","type":"Landkreis"},"federalState":{"key":"06","name":"Hessen"}},{"name":"Rhönstr.","postalCode":"64832","locality":"Babenhausen","municipality":{"key":"06432002","name":"Babenhausen, Stadt","type":"Stadt"},"district":{"key":"06432","name":"Darmstadt-Dieburg","type":"Landkreis"},"federalState":{"key":"06","name":"Hessen"}},{"name":"Richard-Wagner-Str.","postalCode":"87727","locality":"Babenhausen","municipality":{"key":"09778115","name":"Babenhausen, M","type":"Markt"},"district":{"key":"09778","name":"Unterallgäu","type":"Landkreis"},"federalState":{"key":"09","name":"Bayern"}},{"name":"Richer Weg","postalCode":"64832","locality":"Babenhausen","municipality":{"key":"06432002","name":"Babenhausen, Stadt","type":"Stadt"},"district":{"key":"06432","name":"Darmstadt-Dieburg","type":"Landkreis"},"federalState":{"key":"06","name":"Hessen"}},{"name":"Riedheimer Weg","postalCode":"64832","locality":"Babenhausen","municipality":{"key":"06432002","name":"Babenhausen, Stadt","type":"Stadt"},"district":{"key":"06432","name":"Darmstadt-Dieburg","type":"Landkreis"},"federalState":{"key":"06","name":"Hessen"}},{"name":"Ringstr.","postalCode":"64832","locality":"Babenhausen","municipality":{"key":"06432002","name":"Babenhausen, Stadt","type":"Stadt"},"district":{"key":"06432","name":"Darmstadt-Dieburg","type":"Landkreis"},"federalState":{"key":"06","name":"Hessen"}},{"name":"Ritter-von-Raffler-Str.","postalCode":"87727","locality":"Babenhausen","municipality":{"key":"09778115","name":"Babenhausen, M","type":"Markt"},"district":{"key":"09778","name":"Unterallgäu","type":"Landkreis"},"federalState":{"key":"09","name":"Bayern"}},{"name":"Rodgaustr.","postalCode":"64832","locality":"Babenhausen","municipality":{"key":"06432002","name":"Babenhausen, Stadt","type":"Stadt"},"district":{"key":"06432","name":"Darmstadt-Dieburg","type":"Landkreis"},"federalState":{"key":"06","name":"Hessen"}},{"name":"Rodlachenweg","postalCode":"64832","locality":"Babenhausen","municipality":{"key":"06432002","name":"Babenhausen, Stadt","type":"Stadt"},"district":{"key":"06432","name":"Darmstadt-Dieburg","type":"Landkreis"},"federalState":{"key":"06","name":"Hessen"}},{"name":"Roggenweg","postalCode":"64832","locality":"Babenhausen","municipality":{"key":"06432002","name":"Babenhausen, Stadt","type":"Stadt"},"district":{"key":"06432","name":"Darmstadt-Dieburg","type":"Landkreis"},"federalState":{"key":"06","name":"Hessen"}},{"name":"Römerweg","postalCode":"64832","locality":"Babenhausen","municipality":{"key":"06432002","name":"Babenhausen, Stadt","type":"Stadt"},"district":{"key":"06432","name":"Darmstadt-Dieburg","type":"Landkreis"},"federalState":{"key":"06","name":"Hessen"}},{"name":"Rosee Schneise","postalCode":"64832","locality":"Babenhausen","municipality":{"key":"06432002","name":"Babenhausen, Stadt","type":"Stadt"},"district":{"key":"06432","name":"Darmstadt-Dieburg","type":"Landkreis"},"federalState":{"key":"06","name":"Hessen"}},{"name":"Roseggerstr.","postalCode":"87727","locality":"Babenhausen","municipality":{"key":"09778115","name":"Babenhausen, M","type":"Markt"},"district":{"key":"09778","name":"Unterallgäu","type":"Landkreis"},"federalState":{"key":"09","name":"Bayern"}},{"name":"Rosenstr.","postalCode":"64832","locality":"Babenhausen","municipality":{"key":"06432002","name":"Babenhausen, Stadt","type":"Stadt"},"district":{"key":"06432","name":"Darmstadt-Dieburg","type":"Landkreis"},"federalState":{"key":"06","name":"Hessen"}},{"name":"Rosenweg","postalCode":"87727","locality":"Babenhausen","municipality":{"key":"09778115","name":"Babenhausen, M","type":"Markt"},"district":{"key":"09778","name":"Unterallgäu","type":"Landkreis"},"federalState":{"key":"09","name":"Bayern"}},{"name":"Rottensteinerweg","postalCode":"87727","locality":"Babenhausen","municipality":{"key":"09778115","name":"Babenhausen, M","type":"Markt"},"district":{"key":"09778","name":"Unterallgäu","type":"Landkreis"},"federalState":{"key":"09","name":"Bayern"}},{"name":"Royal Rangers","postalCode":"64832","locality":"Babenhausen","municipality":{"key":"06432002","name":"Babenhausen, Stadt","type":"Stadt"},"district":{"key":"06432","name":"Darmstadt-Dieburg","type":"Landkreis"},"federalState":{"key":"06","name":"Hessen"}},{"name":"Ruchtiberg","postalCode":"87727","locality":"Babenhausen","municipality":{"key":"09778115","name":"Babenhausen, M","type":"Markt"},"district":{"key":"09778","name":"Unterallgäu","type":"Landkreis"},"federalState":{"key":"09","name":"Bayern"}},{"name":"Sachsenhäuser Str.","postalCode":"64832","locality":"Babenhausen","municipality":{"key":"06432002","name":"Babenhausen, Stadt","type":"Stadt"},"district":{"key":"06432","name":"Darmstadt-Dieburg","type":"Landkreis"},"federalState":{"key":"06","name":"Hessen"}},{"name":"Sackgasse","postalCode":"64832","locality":"Babenhausen","municipality":{"key":"06432002","name":"Babenhausen, Stadt","type":"Stadt"},"district":{"key":"06432","name":"Darmstadt-Dieburg","type":"Landkreis"},"federalState":{"key":"06","name":"Hessen"}},{"name":"Sandbergring","postalCode":"64832","locality":"Babenhausen","municipality":{"key":"06432002","name":"Babenhausen, Stadt","type":"Stadt"},"district":{"key":"06432","name":"Darmstadt-Dieburg","type":"Landkreis"},"federalState":{"key":"06","name":"Hessen"}},{"name":"Sandstr.","postalCode":"64832","locality":"Babenhausen","municipality":{"key":"06432002","name":"Babenhausen, Stadt","type":"Stadt"},"district":{"key":"06432","name":"Darmstadt-Dieburg","type":"Landkreis"},"federalState":{"key":"06","name":"Hessen"}},{"name":"Schaafheimer Str.","postalCode":"64832","locality":"Babenhausen","municipality":{"key":"06432002","name":"Babenhausen, Stadt","type":"Stadt"},"district":{"key":"06432","name":"Darmstadt-Dieburg","type":"Landkreis"},"federalState":{"key":"06","name":"Hessen"}},{"name":"Schaafheimer Weg","postalCode":"64832","locality":"Babenhausen","municipality":{"key":"06432002","name":"Babenhausen, Stadt","type":"Stadt"},"district":{"key":"06432","name":"Darmstadt-Dieburg","type":"Landkreis"},"federalState":{"key":"06","name":"Hessen"}},{"name":"Schafsee Schneise","postalCode":"64832","locality":"Babenhausen","municipality":{"key":"06432002","name":"Babenhausen, Stadt","type":"Stadt"},"district":{"key":"06432","name":"Darmstadt-Dieburg","type":"Landkreis"},"federalState":{"key":"06","name":"Hessen"}},{"name":"Schiemesgasse","postalCode":"64832","locality":"Babenhausen","municipality":{"key":"06432002","name":"Babenhausen, Stadt","type":"Stadt"},"district":{"key":"06432","name":"Darmstadt-Dieburg","type":"Landkreis"},"federalState":{"key":"06","name":"Hessen"}},{"name":"Schillerstr.","postalCode":"64832","locality":"Babenhausen","municipality":{"key":"06432002","name":"Babenhausen, Stadt","type":"Stadt"},"district":{"key":"06432","name":"Darmstadt-Dieburg","type":"Landkreis"},"federalState":{"key":"06","name":"Hessen"}},{"name":"Schillerstr.","postalCode":"87727","locality":"Babenhausen","municipality":{"key":"09778115","name":"Babenhausen, M","type":"Markt"},"district":{"key":"09778","name":"Unterallgäu","type":"Landkreis"},"federalState":{"key":"09","name":"Bayern"}},{"name":"Schlierbacher Str.","postalCode":"64832","locality":"Babenhausen","municipality":{"key":"06432002","name":"Babenhausen, Stadt","type":"Stadt"},"district":{"key":"06432","name":"Darmstadt-Dieburg","type":"Landkreis"},"federalState":{"key":"06","name":"Hessen"}},{"name":"Schloßgasse","postalCode":"64832","locality":"Babenhausen","municipality":{"key":"06432002","name":"Babenhausen, Stadt","type":"Stadt"},"district":{"key":"06432","name":"Darmstadt-Dieburg","type":"Landkreis"},"federalState":{"key":"06","name":"Hessen"}},{"name":"Schlosspark","postalCode":"87727","locality":"Babenhausen","municipality":{"key":"09778115","name":"Babenhausen, M","type":"Markt"},"district":{"key":"09778","name":"Unterallgäu","type":"Landkreis"},"federalState":{"key":"09","name":"Bayern"}},{"name":"Schloßweg","postalCode":"64832","locality":"Babenhausen","municipality":{"key":"06432002","name":"Babenhausen, Stadt","type":"Stadt"},"district":{"key":"06432","name":"Darmstadt-Dieburg","type":"Landkreis"},"federalState":{"key":"06","name":"Hessen"}},{"name":"Schmale Str.","postalCode":"64832","locality":"Babenhausen","municipality":{"key":"06432002","name":"Babenhausen, Stadt","type":"Stadt"},"district":{"key":"06432","name":"Darmstadt-Dieburg","type":"Landkreis"},"federalState":{"key":"06","name":"Hessen"}},{"name":"Schmiedestr.","postalCode":"64832","locality":"Babenhausen","municipality":{"key":"06432002","name":"Babenhausen, Stadt","type":"Stadt"},"district":{"key":"06432","name":"Darmstadt-Dieburg","type":"Landkreis"},"federalState":{"key":"06","name":"Hessen"}},{"name":"Schönblick","postalCode":"87727","locality":"Babenhausen","municipality":{"key":"09778115","name":"Babenhausen, M","type":"Markt"},"district":{"key":"09778","name":"Unterallgäu","type":"Landkreis"},"federalState":{"key":"09","name":"Bayern"}},{"name":"Schöneggweg","postalCode":"87727","locality":"Babenhausen","municipality":{"key":"09778115","name":"Babenhausen, M","type":"Markt"},"district":{"key":"09778","name":"Unterallgäu","type":"Landkreis"},"federalState":{"key":"09","name":"Bayern"}},{"name":"Schrannenstr.","postalCode":"87727","locality":"Babenhausen","municipality":{"key":"09778115","name":"Babenhausen, M","type":"Markt"},"district":{"key":"09778","name":"Unterallgäu","type":"Landkreis"},"federalState":{"key":"09","name":"Bayern"}},{"name":"Schubertstr.","postalCode":"64832","locality":"Babenhausen","municipality":{"key":"06432002","name":"Babenhausen, Stadt","type":"Stadt"},"district":{"key":"06432","name":"Darmstadt-Dieburg","type":"Landkreis"},"federalState":{"key":"06","name":"Hessen"}},{"name":"Schubertstr.","postalCode":"87727","locality":"Babenhausen","municipality":{"key":"09778115","name":"Babenhausen, M","type":"Markt"},"district":{"key":"09778","name":"Unterallgäu","type":"Landkreis"},"federalState":{"key":"09","name":"Bayern"}},{"name":"Schulstr.","postalCode":"64832","locality":"Babenhausen","municipality":{"key":"06432002","name":"Babenhausen, Stadt","type":"Stadt"},"district":{"key":"06432","name":"Darmstadt-Dieburg","type":"Landkreis"},"federalState":{"key":"06","name":"Hessen"}},{"name":"Schulstr.","postalCode":"87727","locality":"Babenhausen","municipality":{"key":"09778115","name":"Babenhausen, M","type":"Markt"},"district":{"key":"09778","name":"Unterallgäu","type":"Landkreis"},"federalState":{"key":"09","name":"Bayern"}},{"name":"Schwabenweg","postalCode":"64832","locality":"Babenhausen","municipality":{"key":"06432002","name":"Babenhausen, Stadt","type":"Stadt"},"district":{"key":"06432","name":"Darmstadt-Dieburg","type":"Landkreis"},"federalState":{"key":"06","name":"Hessen"}},{"name":"Schwalbeneck","postalCode":"64832","locality":"Babenhausen","municipality":{"key":"06432002","name":"Babenhausen, Stadt","type":"Stadt"},"district":{"key":"06432","name":"Darmstadt-Dieburg","type":"Landkreis"},"federalState":{"key":"06","name":"Hessen"}},{"name":"Schwanenweg","postalCode":"64832","locality":"Babenhausen","municipality":{"key":"06432002","name":"Babenhausen, Stadt","type":"Stadt"},"district":{"key":"06432","name":"Darmstadt-Dieburg","type":"Landkreis"},"federalState":{"key":"06","name":"Hessen"}},{"name":"Seegartenweg","postalCode":"64832","locality":"Babenhausen","municipality":{"key":"06432002","name":"Babenhausen, Stadt","type":"Stadt"},"district":{"key":"06432","name":"Darmstadt-Dieburg","type":"Landkreis"},"federalState":{"key":"06","name":"Hessen"}},{"name":"Seligenstädter Schneise","postalCode":"64832","locality":"Babenhausen","municipality":{"key":"06432002","name":"Babenhausen, Stadt","type":"Stadt"},"district":{"key":"06432","name":"Darmstadt-Dieburg","type":"Landkreis"},"federalState":{"key":"06","name":"Hessen"}},{"name":"Seligenstädter Str.","postalCode":"64832","locality":"Babenhausen","municipality":{"key":"06432002","name":"Babenhausen, Stadt","type":"Stadt"},"district":{"key":"06432","name":"Darmstadt-Dieburg","type":"Landkreis"},"federalState":{"key":"06","name":"Hessen"}},{"name":"Seligenstädter Weg","postalCode":"64832","locality":"Babenhausen","municipality":{"key":"06432002","name":"Babenhausen, Stadt","type":"Stadt"},"district":{"key":"06432","name":"Darmstadt-Dieburg","type":"Landkreis"},"federalState":{"key":"06","name":"Hessen"}},{"name":"Sickenhöfer-Babenhäuser Grenzschneise","postalCode":"64832","locality":"Babenhausen","municipality":{"key":"06432002","name":"Babenhausen, Stadt","type":"Stadt"},"district":{"key":"06432","name":"Darmstadt-Dieburg","type":"Landkreis"},"federalState":{"key":"06","name":"Hessen"}},{"name":"Sickenhöfer-Nieder-Röder Weg","postalCode":"64832","locality":"Babenhausen","municipality":{"key":"06432002","name":"Babenhausen, Stadt","type":"Stadt"},"district":{"key":"06432","name":"Darmstadt-Dieburg","type":"Landkreis"},"federalState":{"key":"06","name":"Hessen"}},{"name":"Sickenhöfer Str.","postalCode":"64832","locality":"Babenhausen","municipality":{"key":"06432002","name":"Babenhausen, Stadt","type":"Stadt"},"district":{"key":"06432","name":"Darmstadt-Dieburg","type":"Landkreis"},"federalState":{"key":"06","name":"Hessen"}},{"name":"Sickenhöfer Weg","postalCode":"64832","locality":"Babenhausen","municipality":{"key":"06432002","name":"Babenhausen, Stadt","type":"Stadt"},"district":{"key":"06432","name":"Darmstadt-Dieburg","type":"Landkreis"},"federalState":{"key":"06","name":"Hessen"}},{"name":"Siedlerweg","postalCode":"87727","locality":"Babenhausen","municipality":{"key":"09778115","name":"Babenhausen, M","type":"Markt"},"district":{"key":"09778","name":"Unterallgäu","type":"Landkreis"},"federalState":{"key":"09","name":"Bayern"}},{"name":"Siemensstr.","postalCode":"64832","locality":"Babenhausen","municipality":{"key":"06432002","name":"Babenhausen, Stadt","type":"Stadt"},"district":{"key":"06432","name":"Darmstadt-Dieburg","type":"Landkreis"},"federalState":{"key":"06","name":"Hessen"}},{"name":"Silcherweg","postalCode":"87727","locality":"Babenhausen","municipality":{"key":"09778115","name":"Babenhausen, M","type":"Markt"},"district":{"key":"09778","name":"Unterallgäu","type":"Landkreis"},"federalState":{"key":"09","name":"Bayern"}},{"name":"Sonnenweg","postalCode":"64832","locality":"Babenhausen","municipality":{"key":"06432002","name":"Babenhausen, Stadt","type":"Stadt"},"district":{"key":"06432","name":"Darmstadt-Dieburg","type":"Landkreis"},"federalState":{"key":"06","name":"Hessen"}},{"name":"Sophie-Kehl-Weg","postalCode":"64832","locality":"Babenhausen","municipality":{"key":"06432002","name":"Babenhausen, Stadt","type":"Stadt"},"district":{"key":"06432","name":"Darmstadt-Dieburg","type":"Landkreis"},"federalState":{"key":"06","name":"Hessen"}},{"name":"Spessartplatz","postalCode":"64832","locality":"Babenhausen","municipality":{"key":"06432002","name":"Babenhausen, Stadt","type":"Stadt"},"district":{"key":"06432","name":"Darmstadt-Dieburg","type":"Landkreis"},"federalState":{"key":"06","name":"Hessen"}},{"name":"Spessartstr.","postalCode":"64832","locality":"Babenhausen","municipality":{"key":"06432002","name":"Babenhausen, Stadt","type":"Stadt"},"district":{"key":"06432","name":"Darmstadt-Dieburg","type":"Landkreis"},"federalState":{"key":"06","name":"Hessen"}},{"name":"Sportplatz","postalCode":"87727","locality":"Babenhausen","municipality":{"key":"09778115","name":"Babenhausen, M","type":"Markt"},"district":{"key":"09778","name":"Unterallgäu","type":"Landkreis"},"federalState":{"key":"09","name":"Bayern"}},{"name":"Stadtgasse","postalCode":"87727","locality":"Babenhausen","municipality":{"key":"09778115","name":"Babenhausen, M","type":"Markt"},"district":{"key":"09778","name":"Unterallgäu","type":"Landkreis"},"federalState":{"key":"09","name":"Bayern"}},{"name":"Steinweg","postalCode":"64832","locality":"Babenhausen","municipality":{"key":"06432002","name":"Babenhausen, Stadt","type":"Stadt"},"district":{"key":"06432","name":"Darmstadt-Dieburg","type":"Landkreis"},"federalState":{"key":"06","name":"Hessen"}},{"name":"Stockstädter Eckschneise","postalCode":"64832","locality":"Babenhausen","municipality":{"key":"06432002","name":"Babenhausen, Stadt","type":"Stadt"},"district":{"key":"06432","name":"Darmstadt-Dieburg","type":"Landkreis"},"federalState":{"key":"06","name":"Hessen"}},{"name":"Stockstädter Weg","postalCode":"64832","locality":"Babenhausen","municipality":{"key":"06432002","name":"Babenhausen, Stadt","type":"Stadt"},"district":{"key":"06432","name":"Darmstadt-Dieburg","type":"Landkreis"},"federalState":{"key":"06","name":"Hessen"}},{"name":"Storchenweg","postalCode":"64832","locality":"Babenhausen","municipality":{"key":"06432002","name":"Babenhausen, Stadt","type":"Stadt"},"district":{"key":"06432","name":"Darmstadt-Dieburg","type":"Landkreis"},"federalState":{"key":"06","name":"Hessen"}},{"name":"Storchsbaum Schneise","postalCode":"64832","locality":"Babenhausen","municipality":{"key":"06432002","name":"Babenhausen, Stadt","type":"Stadt"},"district":{"key":"06432","name":"Darmstadt-Dieburg","type":"Landkreis"},"federalState":{"key":"06","name":"Hessen"}},{"name":"Straßburger Str.","postalCode":"64832","locality":"Babenhausen","municipality":{"key":"06432002","name":"Babenhausen, Stadt","type":"Stadt"},"district":{"key":"06432","name":"Darmstadt-Dieburg","type":"Landkreis"},"federalState":{"key":"06","name":"Hessen"}},{"name":"Sudetenstr.","postalCode":"64832","locality":"Babenhausen","municipality":{"key":"06432002","name":"Babenhausen, Stadt","type":"Stadt"},"district":{"key":"06432","name":"Darmstadt-Dieburg","type":"Landkreis"},"federalState":{"key":"06","name":"Hessen"}},{"name":"Tannenschneise","postalCode":"64832","locality":"Babenhausen","municipality":{"key":"06432002","name":"Babenhausen, Stadt","type":"Stadt"},"district":{"key":"06432","name":"Darmstadt-Dieburg","type":"Landkreis"},"federalState":{"key":"06","name":"Hessen"}},{"name":"Tannenweg","postalCode":"64832","locality":"Babenhausen","municipality":{"key":"06432002","name":"Babenhausen, Stadt","type":"Stadt"},"district":{"key":"06432","name":"Darmstadt-Dieburg","type":"Landkreis"},"federalState":{"key":"06","name":"Hessen"}},{"name":"Tannenweg","postalCode":"87727","locality":"Babenhausen","municipality":{"key":"09778115","name":"Babenhausen, M","type":"Markt"},"district":{"key":"09778","name":"Unterallgäu","type":"Landkreis"},"federalState":{"key":"09","name":"Bayern"}},{"name":"Taunusstr.","postalCode":"64832","locality":"Babenhausen","municipality":{"key":"06432002","name":"Babenhausen, Stadt","type":"Stadt"},"district":{"key":"06432","name":"Darmstadt-Dieburg","type":"Landkreis"},"federalState":{"key":"06","name":"Hessen"}},{"name":"Theodor-Storm-Str.","postalCode":"87727","locality":"Babenhausen","municipality":{"key":"09778115","name":"Babenhausen, M","type":"Markt"},"district":{"key":"09778","name":"Unterallgäu","type":"Landkreis"},"federalState":{"key":"09","name":"Bayern"}},{"name":"Tirolerstr.","postalCode":"87727","locality":"Babenhausen","municipality":{"key":"09778115","name":"Babenhausen, M","type":"Markt"},"district":{"key":"09778","name":"Unterallgäu","type":"Landkreis"},"federalState":{"key":"09","name":"Bayern"}},{"name":"Tränkgasse","postalCode":"64832","locality":"Babenhausen","municipality":{"key":"06432002","name":"Babenhausen, Stadt","type":"Stadt"},"district":{"key":"06432","name":"Darmstadt-Dieburg","type":"Landkreis"},"federalState":{"key":"06","name":"Hessen"}},{"name":"Tulpenstr.","postalCode":"64832","locality":"Babenhausen","municipality":{"key":"06432002","name":"Babenhausen, Stadt","type":"Stadt"},"district":{"key":"06432","name":"Darmstadt-Dieburg","type":"Landkreis"},"federalState":{"key":"06","name":"Hessen"}},{"name":"Uferstr.","postalCode":"64832","locality":"Babenhausen","municipality":{"key":"06432002","name":"Babenhausen, Stadt","type":"Stadt"},"district":{"key":"06432","name":"Darmstadt-Dieburg","type":"Landkreis"},"federalState":{"key":"06","name":"Hessen"}},{"name":"Uhlandstr.","postalCode":"87727","locality":"Babenhausen","municipality":{"key":"09778115","name":"Babenhausen, M","type":"Markt"},"district":{"key":"09778","name":"Unterallgäu","type":"Landkreis"},"federalState":{"key":"09","name":"Bayern"}},{"name":"Ulmenweg","postalCode":"64832","locality":"Babenhausen","municipality":{"key":"06432002","name":"Babenhausen, Stadt","type":"Stadt"},"district":{"key":"06432","name":"Darmstadt-Dieburg","type":"Landkreis"},"federalState":{"key":"06","name":"Hessen"}},{"name":"Ulmer Str.","postalCode":"87727","locality":"Babenhausen","municipality":{"key":"09778115","name":"Babenhausen, M","type":"Markt"},"district":{"key":"09778","name":"Unterallgäu","type":"Landkreis"},"federalState":{"key":"09","name":"Bayern"}},{"name":"Untere Haaggasse","postalCode":"64832","locality":"Babenhausen","municipality":{"key":"06432002","name":"Babenhausen, Stadt","type":"Stadt"},"district":{"key":"06432","name":"Darmstadt-Dieburg","type":"Landkreis"},"federalState":{"key":"06","name":"Hessen"}},{"name":"Vater-Reichenberger-Str.","postalCode":"87727","locality":"Babenhausen","municipality":{"key":"09778115","name":"Babenhausen, M","type":"Markt"},"district":{"key":"09778","name":"Unterallgäu","type":"Landkreis"},"federalState":{"key":"09","name":"Bayern"}},{"name":"VDO-Str.","postalCode":"64832","locality":"Babenhausen","municipality":{"key":"06432002","name":"Babenhausen, Stadt","type":"Stadt"},"district":{"key":"06432","name":"Darmstadt-Dieburg","type":"Landkreis"},"federalState":{"key":"06","name":"Hessen"}},{"name":"Veit-Stoß-Str.","postalCode":"87727","locality":"Babenhausen","municipality":{"key":"09778115","name":"Babenhausen, M","type":"Markt"},"district":{"key":"09778","name":"Unterallgäu","type":"Landkreis"},"federalState":{"key":"09","name":"Bayern"}},{"name":"Viehtrieb","postalCode":"64832","locality":"Babenhausen","municipality":{"key":"06432002","name":"Babenhausen, Stadt","type":"Stadt"},"district":{"key":"06432","name":"Darmstadt-Dieburg","type":"Landkreis"},"federalState":{"key":"06","name":"Hessen"}},{"name":"Von-Stephan-Str.","postalCode":"64832","locality":"Babenhausen","municipality":{"key":"06432002","name":"Babenhausen, Stadt","type":"Stadt"},"district":{"key":"06432","name":"Darmstadt-Dieburg","type":"Landkreis"},"federalState":{"key":"06","name":"Hessen"}},{"name":"Wacholdergasse","postalCode":"64832","locality":"Babenhausen","municipality":{"key":"06432002","name":"Babenhausen, Stadt","type":"Stadt"},"district":{"key":"06432","name":"Darmstadt-Dieburg","type":"Landkreis"},"federalState":{"key":"06","name":"Hessen"}},{"name":"Waldstr.","postalCode":"64832","locality":"Babenhausen","municipality":{"key":"06432002","name":"Babenhausen, Stadt","type":"Stadt"},"district":{"key":"06432","name":"Darmstadt-Dieburg","type":"Landkreis"},"federalState":{"key":"06","name":"Hessen"}},{"name":"Watzmannstr.","postalCode":"87727","locality":"Babenhausen","municipality":{"key":"09778115","name":"Babenhausen, M","type":"Markt"},"district":{"key":"09778","name":"Unterallgäu","type":"Landkreis"},"federalState":{"key":"09","name":"Bayern"}},{"name":"Webergasse","postalCode":"87727","locality":"Babenhausen","municipality":{"key":"09778115","name":"Babenhausen, M","type":"Markt"},"district":{"key":"09778","name":"Unterallgäu","type":"Landkreis"},"federalState":{"key":"09","name":"Bayern"}},{"name":"Weiherweg","postalCode":"87727","locality":"Babenhausen","municipality":{"key":"09778115","name":"Babenhausen, M","type":"Markt"},"district":{"key":"09778","name":"Unterallgäu","type":"Landkreis"},"federalState":{"key":"09","name":"Bayern"}},{"name":"Weinrieder Str.","postalCode":"87727","locality":"Babenhausen","municipality":{"key":"09778115","name":"Babenhausen, M","type":"Markt"},"district":{"key":"09778","name":"Unterallgäu","type":"Landkreis"},"federalState":{"key":"09","name":"Bayern"}},{"name":"Welserstr.","postalCode":"87727","locality":"Babenhausen","municipality":{"key":"09778115","name":"Babenhausen, M","type":"Markt"},"district":{"key":"09778","name":"Unterallgäu","type":"Landkreis"},"federalState":{"key":"09","name":"Bayern"}},{"name":"Wendelsteinstr.","postalCode":"87727","locality":"Babenhausen","municipality":{"key":"09778115","name":"Babenhausen, M","type":"Markt"},"district":{"key":"09778","name":"Unterallgäu","type":"Landkreis"},"federalState":{"key":"09","name":"Bayern"}},{"name":"Westend","postalCode":"64832","locality":"Babenhausen","municipality":{"key":"06432002","name":"Babenhausen, Stadt","type":"Stadt"},"district":{"key":"06432","name":"Darmstadt-Dieburg","type":"Landkreis"},"federalState":{"key":"06","name":"Hessen"}},{"name":"Westring","postalCode":"64832","locality":"Babenhausen","municipality":{"key":"06432002","name":"Babenhausen, Stadt","type":"Stadt"},"district":{"key":"06432","name":"Darmstadt-Dieburg","type":"Landkreis"},"federalState":{"key":"06","name":"Hessen"}},{"name":"Wiesen Schneise","postalCode":"64832","locality":"Babenhausen","municipality":{"key":"06432002","name":"Babenhausen, Stadt","type":"Stadt"},"district":{"key":"06432","name":"Darmstadt-Dieburg","type":"Landkreis"},"federalState":{"key":"06","name":"Hessen"}},{"name":"Wiesenstr.","postalCode":"64832","locality":"Babenhausen","municipality":{"key":"06432002","name":"Babenhausen, Stadt","type":"Stadt"},"district":{"key":"06432","name":"Darmstadt-Dieburg","type":"Landkreis"},"federalState":{"key":"06","name":"Hessen"}},{"name":"Wiesenweg","postalCode":"87727","locality":"Babenhausen","municipality":{"key":"09778115","name":"Babenhausen, M","type":"Markt"},"district":{"key":"09778","name":"Unterallgäu","type":"Landkreis"},"federalState":{"key":"09","name":"Bayern"}},{"name":"Wiesmühlweg","postalCode":"87727","locality":"Babenhausen","municipality":{"key":"09778115","name":"Babenhausen, M","type":"Markt"},"district":{"key":"09778","name":"Unterallgäu","type":"Landkreis"},"federalState":{"key":"09","name":"Bayern"}},{"name":"Wilhelm-Busch-Str.","postalCode":"87727","locality":"Babenhausen","municipality":{"key":"09778115","name":"Babenhausen, M","type":"Markt"},"district":{"key":"09778","name":"Unterallgäu","type":"Landkreis"},"federalState":{"key":"09","name":"Bayern"}},{"name":"Wilhelm-Hauff-Str.","postalCode":"87727","locality":"Babenhausen","municipality":{"key":"09778115","name":"Babenhausen, M","type":"Markt"},"district":{"key":"09778","name":"Unterallgäu","type":"Landkreis"},"federalState":{"key":"09","name":"Bayern"}},{"name":"Wilhelm-Leuschner-Str.","postalCode":"64832","locality":"Babenhausen","municipality":{"key":"06432002","name":"Babenhausen, Stadt","type":"Stadt"},"district":{"key":"06432","name":"Darmstadt-Dieburg","type":"Landkreis"},"federalState":{"key":"06","name":"Hessen"}},{"name":"Wilhelmstr.","postalCode":"64832","locality":"Babenhausen","municipality":{"key":"06432002","name":"Babenhausen, Stadt","type":"Stadt"},"district":{"key":"06432","name":"Darmstadt-Dieburg","type":"Landkreis"},"federalState":{"key":"06","name":"Hessen"}},{"name":"Wingertstr.","postalCode":"64832","locality":"Babenhausen","municipality":{"key":"06432002","name":"Babenhausen, Stadt","type":"Stadt"},"district":{"key":"06432","name":"Darmstadt-Dieburg","type":"Landkreis"},"federalState":{"key":"06","name":"Hessen"}},{"name":"Wittmunder Platz","postalCode":"64832","locality":"Babenhausen","municipality":{"key":"06432002","name":"Babenhausen, Stadt","type":"Stadt"},"district":{"key":"06432","name":"Darmstadt-Dieburg","type":"Landkreis"},"federalState":{"key":"06","name":"Hessen"}},{"name":"Wolf Schneise","postalCode":"64832","locality":"Babenhausen","municipality":{"key":"06432002","name":"Babenhausen, Stadt","type":"Stadt"},"district":{"key":"06432","name":"Darmstadt-Dieburg","type":"Landkreis"},"federalState":{"key":"06","name":"Hessen"}},{"name":"Ziegeleistr.","postalCode":"87727","locality":"Babenhausen","municipality":{"key":"09778115","name":"Babenhausen, M","type":"Markt"},"district":{"key":"09778","name":"Unterallgäu","type":"Landkreis"},"federalState":{"key":"09","name":"Bayern"}},{"name":"Ziegelhüttenstr.","postalCode":"64832","locality":"Babenhausen","municipality":{"key":"06432002","name":"Babenhausen, Stadt","type":"Stadt"},"district":{"key":"06432","name":"Darmstadt-Dieburg","type":"Landkreis"},"federalState":{"key":"06","name":"Hessen"}},{"name":"Ziegelruh","postalCode":"64832","locality":"Babenhausen","municipality":{"key":"06432002","name":"Babenhausen, Stadt","type":"Stadt"},"district":{"key":"06432","name":"Darmstadt-Dieburg","type":"Landkreis"},"federalState":{"key":"06","name":"Hessen"}},{"name":"Ziegelweg","postalCode":"64832","locality":"Babenhausen","municipality":{"key":"06432002","name":"Babenhausen, Stadt","type":"Stadt"},"district":{"key":"06432","name":"Darmstadt-Dieburg","type":"Landkreis"},"federalState":{"key":"06","name":"Hessen"}},{"name":"Zugspitzstr.","postalCode":"87727","locality":"Babenhausen","municipality":{"key":"09778115","name":"Babenhausen, M","type":"Markt"},"district":{"key":"09778","name":"Unterallgäu","type":"Landkreis"},"federalState":{"key":"09","name":"Bayern"}},{"name":"Zum Sickenhöfer See","postalCode":"64832","locality":"Babenhausen","municipality":{"key":"06432002","name":"Babenhausen, Stadt","type":"Stadt"},"district":{"key":"06432","name":"Darmstadt-Dieburg","type":"Landkreis"},"federalState":{"key":"06","name":"Hessen"}},{"name":"Zur Herrenwiese","postalCode":"64832","locality":"Babenhausen","municipality":{"key":"06432002","name":"Babenhausen, Stadt","type":"Stadt"},"district":{"key":"06432","name":"Darmstadt-Dieburg","type":"Landkreis"},"federalState":{"key":"06","name":"Hessen"}},{"name":"Zur Rosselmühle","postalCode":"64832","locality":"Babenhausen","municipality":{"key":"06432002","name":"Babenhausen, Stadt","type":"Stadt"},"district":{"key":"06432","name":"Darmstadt-Dieburg","type":"Landkreis"},"federalState":{"key":"06","name":"Hessen"}},{"name":"Zwingergasse","postalCode":"64832","locality":"Babenhausen","municipality":{"key":"06432002","name":"Babenhausen, Stadt","type":"Stadt"},"district":{"key":"06432","name":"Darmstadt-Dieburg","type":"Landkreis"},"federalState":{"key":"06","name":"Hessen"}},]