[{"name":"Alter Sportplatz","postalCode":"67271","locality":"Obersülzen","municipality":{"key":"07332040","name":"Obersülzen","type":"Kreisangehörige_Gemeinde"},"district":{"key":"07332","name":"Bad Dürkheim","type":"Landkreis"},"federalState":{"key":"07","name":"Rheinland-Pfalz"}},{"name":"Am Kirschbaum","postalCode":"67271","locality":"Obersülzen","municipality":{"key":"07332040","name":"Obersülzen","type":"Kreisangehörige_Gemeinde"},"district":{"key":"07332","name":"Bad Dürkheim","type":"Landkreis"},"federalState":{"key":"07","name":"Rheinland-Pfalz"}},{"name":"Am Zollstock","postalCode":"67271","locality":"Obersülzen","municipality":{"key":"07332040","name":"Obersülzen","type":"Kreisangehörige_Gemeinde"},"district":{"key":"07332","name":"Bad Dürkheim","type":"Landkreis"},"federalState":{"key":"07","name":"Rheinland-Pfalz"}},{"name":"An der Kirche","postalCode":"67271","locality":"Obersülzen","municipality":{"key":"07332040","name":"Obersülzen","type":"Kreisangehörige_Gemeinde"},"district":{"key":"07332","name":"Bad Dürkheim","type":"Landkreis"},"federalState":{"key":"07","name":"Rheinland-Pfalz"}},{"name":"An der Platzmauer","postalCode":"67271","locality":"Obersülzen","municipality":{"key":"07332040","name":"Obersülzen","type":"Kreisangehörige_Gemeinde"},"district":{"key":"07332","name":"Bad Dürkheim","type":"Landkreis"},"federalState":{"key":"07","name":"Rheinland-Pfalz"}},{"name":"Bacchusweg","postalCode":"67098","locality":"Bad Dürkheim","municipality":{"key":"07332002","name":"Bad Dürkheim, Stadt","type":"Stadt"},"district":{"key":"07332","name":"Bad Dürkheim","type":"Landkreis"},"federalState":{"key":"07","name":"Rheinland-Pfalz"}},{"name":"Bad Dürkheim, Bahnhof","postalCode":"67098","locality":"Bad Dürkheim","municipality":{"key":"07332002","name":"Bad Dürkheim, Stadt","type":"Stadt"},"district":{"key":"07332","name":"Bad Dürkheim","type":"Landkreis"},"federalState":{"key":"07","name":"Rheinland-Pfalz"}},{"name":"Bahnhofsplatz","postalCode":"67098","locality":"Bad Dürkheim","municipality":{"key":"07332002","name":"Bad Dürkheim, Stadt","type":"Stadt"},"district":{"key":"07332","name":"Bad Dürkheim","type":"Landkreis"},"federalState":{"key":"07","name":"Rheinland-Pfalz"}},{"name":"Becher-Brücke","postalCode":"67098","locality":"Bad Dürkheim","municipality":{"key":"07332002","name":"Bad Dürkheim, Stadt","type":"Stadt"},"district":{"key":"07332","name":"Bad Dürkheim","type":"Landkreis"},"federalState":{"key":"07","name":"Rheinland-Pfalz"}},{"name":"Beethovenstr.","postalCode":"67098","locality":"Bad Dürkheim","municipality":{"key":"07332002","name":"Bad Dürkheim, Stadt","type":"Stadt"},"district":{"key":"07332","name":"Bad Dürkheim","type":"Landkreis"},"federalState":{"key":"07","name":"Rheinland-Pfalz"}},{"name":"Berliner Str.","postalCode":"67098","locality":"Bad Dürkheim","municipality":{"key":"07332002","name":"Bad Dürkheim, Stadt","type":"Stadt"},"district":{"key":"07332","name":"Bad Dürkheim","type":"Landkreis"},"federalState":{"key":"07","name":"Rheinland-Pfalz"}},{"name":"Berntal","postalCode":"67098","locality":"Bad Dürkheim","municipality":{"key":"07332002","name":"Bad Dürkheim, Stadt","type":"Stadt"},"district":{"key":"07332","name":"Bad Dürkheim","type":"Landkreis"},"federalState":{"key":"07","name":"Rheinland-Pfalz"}},{"name":"Birkental","postalCode":"67098","locality":"Bad Dürkheim","municipality":{"key":"07332002","name":"Bad Dürkheim, Stadt","type":"Stadt"},"district":{"key":"07332","name":"Bad Dürkheim","type":"Landkreis"},"federalState":{"key":"07","name":"Rheinland-Pfalz"}},{"name":"Bleicheweg","postalCode":"67098","locality":"Bad Dürkheim","municipality":{"key":"07332002","name":"Bad Dürkheim, Stadt","type":"Stadt"},"district":{"key":"07332","name":"Bad Dürkheim","type":"Landkreis"},"federalState":{"key":"07","name":"Rheinland-Pfalz"}},{"name":"Blumenbrücke","postalCode":"67098","locality":"Bad Dürkheim","municipality":{"key":"07332002","name":"Bad Dürkheim, Stadt","type":"Stadt"},"district":{"key":"07332","name":"Bad Dürkheim","type":"Landkreis"},"federalState":{"key":"07","name":"Rheinland-Pfalz"}},{"name":"Breslauer Str.","postalCode":"67098","locality":"Bad Dürkheim","municipality":{"key":"07332002","name":"Bad Dürkheim, Stadt","type":"Stadt"},"district":{"key":"07332","name":"Bad Dürkheim","type":"Landkreis"},"federalState":{"key":"07","name":"Rheinland-Pfalz"}},{"name":"Bruchstr.","postalCode":"67098","locality":"Bad Dürkheim","municipality":{"key":"07332002","name":"Bad Dürkheim, Stadt","type":"Stadt"},"district":{"key":"07332","name":"Bad Dürkheim","type":"Landkreis"},"federalState":{"key":"07","name":"Rheinland-Pfalz"}},{"name":"Brunnengasse","postalCode":"67098","locality":"Bad Dürkheim","municipality":{"key":"07332002","name":"Bad Dürkheim, Stadt","type":"Stadt"},"district":{"key":"07332","name":"Bad Dürkheim","type":"Landkreis"},"federalState":{"key":"07","name":"Rheinland-Pfalz"}},{"name":"Buchenweg","postalCode":"67098","locality":"Bad Dürkheim","municipality":{"key":"07332002","name":"Bad Dürkheim, Stadt","type":"Stadt"},"district":{"key":"07332","name":"Bad Dürkheim","type":"Landkreis"},"federalState":{"key":"07","name":"Rheinland-Pfalz"}},{"name":"Bürgermeister-Doktor-Dahlem-Str.","postalCode":"67098","locality":"Bad Dürkheim","municipality":{"key":"07332002","name":"Bad Dürkheim, Stadt","type":"Stadt"},"district":{"key":"07332","name":"Bad Dürkheim","type":"Landkreis"},"federalState":{"key":"07","name":"Rheinland-Pfalz"}},{"name":"Bürgermeister-Gropp-Str.","postalCode":"67098","locality":"Bad Dürkheim","municipality":{"key":"07332002","name":"Bad Dürkheim, Stadt","type":"Stadt"},"district":{"key":"07332","name":"Bad Dürkheim","type":"Landkreis"},"federalState":{"key":"07","name":"Rheinland-Pfalz"}},{"name":"Burgstr.","postalCode":"67098","locality":"Bad Dürkheim","municipality":{"key":"07332002","name":"Bad Dürkheim, Stadt","type":"Stadt"},"district":{"key":"07332","name":"Bad Dürkheim","type":"Landkreis"},"federalState":{"key":"07","name":"Rheinland-Pfalz"}},{"name":"Burgunderweg","postalCode":"67098","locality":"Bad Dürkheim","municipality":{"key":"07332002","name":"Bad Dürkheim, Stadt","type":"Stadt"},"district":{"key":"07332","name":"Bad Dürkheim","type":"Landkreis"},"federalState":{"key":"07","name":"Rheinland-Pfalz"}},{"name":"Carl-Korbmann-Str.","postalCode":"67098","locality":"Bad Dürkheim","municipality":{"key":"07332002","name":"Bad Dürkheim, Stadt","type":"Stadt"},"district":{"key":"07332","name":"Bad Dürkheim","type":"Landkreis"},"federalState":{"key":"07","name":"Rheinland-Pfalz"}},{"name":"Chemnitzer Str.","postalCode":"67098","locality":"Bad Dürkheim","municipality":{"key":"07332002","name":"Bad Dürkheim, Stadt","type":"Stadt"},"district":{"key":"07332","name":"Bad Dürkheim","type":"Landkreis"},"federalState":{"key":"07","name":"Rheinland-Pfalz"}},{"name":"Dirmsteiner Str.","postalCode":"67271","locality":"Obersülzen","municipality":{"key":"07332040","name":"Obersülzen","type":"Kreisangehörige_Gemeinde"},"district":{"key":"07332","name":"Bad Dürkheim","type":"Landkreis"},"federalState":{"key":"07","name":"Rheinland-Pfalz"}},{"name":"Eduard-Jost-Str.","postalCode":"67098","locality":"Bad Dürkheim","municipality":{"key":"07332002","name":"Bad Dürkheim, Stadt","type":"Stadt"},"district":{"key":"07332","name":"Bad Dürkheim","type":"Landkreis"},"federalState":{"key":"07","name":"Rheinland-Pfalz"}},{"name":"Eichenplatz","postalCode":"67098","locality":"Bad Dürkheim","municipality":{"key":"07332002","name":"Bad Dürkheim, Stadt","type":"Stadt"},"district":{"key":"07332","name":"Bad Dürkheim","type":"Landkreis"},"federalState":{"key":"07","name":"Rheinland-Pfalz"}},{"name":"Eichstr.","postalCode":"67098","locality":"Bad Dürkheim","municipality":{"key":"07332002","name":"Bad Dürkheim, Stadt","type":"Stadt"},"district":{"key":"07332","name":"Bad Dürkheim","type":"Landkreis"},"federalState":{"key":"07","name":"Rheinland-Pfalz"}},{"name":"Entengasse","postalCode":"67098","locality":"Bad Dürkheim","municipality":{"key":"07332002","name":"Bad Dürkheim, Stadt","type":"Stadt"},"district":{"key":"07332","name":"Bad Dürkheim","type":"Landkreis"},"federalState":{"key":"07","name":"Rheinland-Pfalz"}},{"name":"Erlenweg","postalCode":"67098","locality":"Bad Dürkheim","municipality":{"key":"07332002","name":"Bad Dürkheim, Stadt","type":"Stadt"},"district":{"key":"07332","name":"Bad Dürkheim","type":"Landkreis"},"federalState":{"key":"07","name":"Rheinland-Pfalz"}},{"name":"Erpolzheimer Str.","postalCode":"67098","locality":"Bad Dürkheim","municipality":{"key":"07332002","name":"Bad Dürkheim, Stadt","type":"Stadt"},"district":{"key":"07332","name":"Bad Dürkheim","type":"Landkreis"},"federalState":{"key":"07","name":"Rheinland-Pfalz"}},{"name":"Eschenweg","postalCode":"67098","locality":"Bad Dürkheim","municipality":{"key":"07332002","name":"Bad Dürkheim, Stadt","type":"Stadt"},"district":{"key":"07332","name":"Bad Dürkheim","type":"Landkreis"},"federalState":{"key":"07","name":"Rheinland-Pfalz"}},{"name":"Fasanerie","postalCode":"67098","locality":"Bad Dürkheim","municipality":{"key":"07332002","name":"Bad Dürkheim, Stadt","type":"Stadt"},"district":{"key":"07332","name":"Bad Dürkheim","type":"Landkreis"},"federalState":{"key":"07","name":"Rheinland-Pfalz"}},{"name":"Feigenweg","postalCode":"67098","locality":"Bad Dürkheim","municipality":{"key":"07332002","name":"Bad Dürkheim, Stadt","type":"Stadt"},"district":{"key":"07332","name":"Bad Dürkheim","type":"Landkreis"},"federalState":{"key":"07","name":"Rheinland-Pfalz"}},{"name":"Felsenbergweg","postalCode":"67098","locality":"Bad Dürkheim","municipality":{"key":"07332002","name":"Bad Dürkheim, Stadt","type":"Stadt"},"district":{"key":"07332","name":"Bad Dürkheim","type":"Landkreis"},"federalState":{"key":"07","name":"Rheinland-Pfalz"}},{"name":"Finkenpfad I","postalCode":"67098","locality":"Bad Dürkheim","municipality":{"key":"07332002","name":"Bad Dürkheim, Stadt","type":"Stadt"},"district":{"key":"07332","name":"Bad Dürkheim","type":"Landkreis"},"federalState":{"key":"07","name":"Rheinland-Pfalz"}},{"name":"Finkenpfad II","postalCode":"67098","locality":"Bad Dürkheim","municipality":{"key":"07332002","name":"Bad Dürkheim, Stadt","type":"Stadt"},"district":{"key":"07332","name":"Bad Dürkheim","type":"Landkreis"},"federalState":{"key":"07","name":"Rheinland-Pfalz"}},{"name":"Finkenpfad III","postalCode":"67098","locality":"Bad Dürkheim","municipality":{"key":"07332002","name":"Bad Dürkheim, Stadt","type":"Stadt"},"district":{"key":"07332","name":"Bad Dürkheim","type":"Landkreis"},"federalState":{"key":"07","name":"Rheinland-Pfalz"}},{"name":"Finkenpfad IV","postalCode":"67098","locality":"Bad Dürkheim","municipality":{"key":"07332002","name":"Bad Dürkheim, Stadt","type":"Stadt"},"district":{"key":"07332","name":"Bad Dürkheim","type":"Landkreis"},"federalState":{"key":"07","name":"Rheinland-Pfalz"}},{"name":"Finkenpfad V","postalCode":"67098","locality":"Bad Dürkheim","municipality":{"key":"07332002","name":"Bad Dürkheim, Stadt","type":"Stadt"},"district":{"key":"07332","name":"Bad Dürkheim","type":"Landkreis"},"federalState":{"key":"07","name":"Rheinland-Pfalz"}},{"name":"Finkenpfad VI","postalCode":"67098","locality":"Bad Dürkheim","municipality":{"key":"07332002","name":"Bad Dürkheim, Stadt","type":"Stadt"},"district":{"key":"07332","name":"Bad Dürkheim","type":"Landkreis"},"federalState":{"key":"07","name":"Rheinland-Pfalz"}},{"name":"Forstberg","postalCode":"67098","locality":"Bad Dürkheim","municipality":{"key":"07332002","name":"Bad Dürkheim, Stadt","type":"Stadt"},"district":{"key":"07332","name":"Bad Dürkheim","type":"Landkreis"},"federalState":{"key":"07","name":"Rheinland-Pfalz"}},{"name":"Freinsheimer Str.","postalCode":"67098","locality":"Bad Dürkheim","municipality":{"key":"07332002","name":"Bad Dürkheim, Stadt","type":"Stadt"},"district":{"key":"07332","name":"Bad Dürkheim","type":"Landkreis"},"federalState":{"key":"07","name":"Rheinland-Pfalz"}},{"name":"Friedelsheimer Str.","postalCode":"67098","locality":"Bad Dürkheim","municipality":{"key":"07332002","name":"Bad Dürkheim, Stadt","type":"Stadt"},"district":{"key":"07332","name":"Bad Dürkheim","type":"Landkreis"},"federalState":{"key":"07","name":"Rheinland-Pfalz"}},{"name":"Friedhofstr.","postalCode":"67098","locality":"Bad Dürkheim","municipality":{"key":"07332002","name":"Bad Dürkheim, Stadt","type":"Stadt"},"district":{"key":"07332","name":"Bad Dürkheim","type":"Landkreis"},"federalState":{"key":"07","name":"Rheinland-Pfalz"}},{"name":"Friedrich-Ebert-Str.","postalCode":"67098","locality":"Bad Dürkheim","municipality":{"key":"07332002","name":"Bad Dürkheim, Stadt","type":"Stadt"},"district":{"key":"07332","name":"Bad Dürkheim","type":"Landkreis"},"federalState":{"key":"07","name":"Rheinland-Pfalz"}},{"name":"Fronhofallee","postalCode":"67098","locality":"Bad Dürkheim","municipality":{"key":"07332002","name":"Bad Dürkheim, Stadt","type":"Stadt"},"district":{"key":"07332","name":"Bad Dürkheim","type":"Landkreis"},"federalState":{"key":"07","name":"Rheinland-Pfalz"}},{"name":"Fuchsweg","postalCode":"67098","locality":"Bad Dürkheim","municipality":{"key":"07332002","name":"Bad Dürkheim, Stadt","type":"Stadt"},"district":{"key":"07332","name":"Bad Dürkheim","type":"Landkreis"},"federalState":{"key":"07","name":"Rheinland-Pfalz"}},{"name":"Fünfguldenberg","postalCode":"67098","locality":"Bad Dürkheim","municipality":{"key":"07332002","name":"Bad Dürkheim, Stadt","type":"Stadt"},"district":{"key":"07332","name":"Bad Dürkheim","type":"Landkreis"},"federalState":{"key":"07","name":"Rheinland-Pfalz"}},{"name":"Grünstadter Str.","postalCode":"67271","locality":"Obersülzen","municipality":{"key":"07332040","name":"Obersülzen","type":"Kreisangehörige_Gemeinde"},"district":{"key":"07332","name":"Bad Dürkheim","type":"Landkreis"},"federalState":{"key":"07","name":"Rheinland-Pfalz"}},{"name":"Hauptstr.","postalCode":"67271","locality":"Obersülzen","municipality":{"key":"07332040","name":"Obersülzen","type":"Kreisangehörige_Gemeinde"},"district":{"key":"07332","name":"Bad Dürkheim","type":"Landkreis"},"federalState":{"key":"07","name":"Rheinland-Pfalz"}},{"name":"Heidesheimer Str.","postalCode":"67271","locality":"Obersülzen","municipality":{"key":"07332040","name":"Obersülzen","type":"Kreisangehörige_Gemeinde"},"district":{"key":"07332","name":"Bad Dürkheim","type":"Landkreis"},"federalState":{"key":"07","name":"Rheinland-Pfalz"}},{"name":"Hinter den Gärten","postalCode":"67271","locality":"Obersülzen","municipality":{"key":"07332040","name":"Obersülzen","type":"Kreisangehörige_Gemeinde"},"district":{"key":"07332","name":"Bad Dürkheim","type":"Landkreis"},"federalState":{"key":"07","name":"Rheinland-Pfalz"}},{"name":"Im Burgfrieden","postalCode":"67098","locality":"Bad Dürkheim","municipality":{"key":"07332002","name":"Bad Dürkheim, Stadt","type":"Stadt"},"district":{"key":"07332","name":"Bad Dürkheim","type":"Landkreis"},"federalState":{"key":"07","name":"Rheinland-Pfalz"}},{"name":"Im Haseneck","postalCode":"67098","locality":"Bad Dürkheim","municipality":{"key":"07332002","name":"Bad Dürkheim, Stadt","type":"Stadt"},"district":{"key":"07332","name":"Bad Dürkheim","type":"Landkreis"},"federalState":{"key":"07","name":"Rheinland-Pfalz"}},{"name":"Im Letten","postalCode":"67098","locality":"Bad Dürkheim","municipality":{"key":"07332002","name":"Bad Dürkheim, Stadt","type":"Stadt"},"district":{"key":"07332","name":"Bad Dürkheim","type":"Landkreis"},"federalState":{"key":"07","name":"Rheinland-Pfalz"}},{"name":"Im Meisterwasental","postalCode":"67098","locality":"Bad Dürkheim","municipality":{"key":"07332002","name":"Bad Dürkheim, Stadt","type":"Stadt"},"district":{"key":"07332","name":"Bad Dürkheim","type":"Landkreis"},"federalState":{"key":"07","name":"Rheinland-Pfalz"}},{"name":"Im Nonnengarten","postalCode":"67098","locality":"Bad Dürkheim","municipality":{"key":"07332002","name":"Bad Dürkheim, Stadt","type":"Stadt"},"district":{"key":"07332","name":"Bad Dürkheim","type":"Landkreis"},"federalState":{"key":"07","name":"Rheinland-Pfalz"}},{"name":"Im Nußriegel","postalCode":"67098","locality":"Bad Dürkheim","municipality":{"key":"07332002","name":"Bad Dürkheim, Stadt","type":"Stadt"},"district":{"key":"07332","name":"Bad Dürkheim","type":"Landkreis"},"federalState":{"key":"07","name":"Rheinland-Pfalz"}},{"name":"Im Obergarten","postalCode":"67098","locality":"Bad Dürkheim","municipality":{"key":"07332002","name":"Bad Dürkheim, Stadt","type":"Stadt"},"district":{"key":"07332","name":"Bad Dürkheim","type":"Landkreis"},"federalState":{"key":"07","name":"Rheinland-Pfalz"}},{"name":"Im Riedwingert","postalCode":"67098","locality":"Bad Dürkheim","municipality":{"key":"07332002","name":"Bad Dürkheim, Stadt","type":"Stadt"},"district":{"key":"07332","name":"Bad Dürkheim","type":"Landkreis"},"federalState":{"key":"07","name":"Rheinland-Pfalz"}},{"name":"Im Röhrich","postalCode":"67098","locality":"Bad Dürkheim","municipality":{"key":"07332002","name":"Bad Dürkheim, Stadt","type":"Stadt"},"district":{"key":"07332","name":"Bad Dürkheim","type":"Landkreis"},"federalState":{"key":"07","name":"Rheinland-Pfalz"}},{"name":"Im Rustengut","postalCode":"67098","locality":"Bad Dürkheim","municipality":{"key":"07332002","name":"Bad Dürkheim, Stadt","type":"Stadt"},"district":{"key":"07332","name":"Bad Dürkheim","type":"Landkreis"},"federalState":{"key":"07","name":"Rheinland-Pfalz"}},{"name":"Im Salzbrunnen","postalCode":"67098","locality":"Bad Dürkheim","municipality":{"key":"07332002","name":"Bad Dürkheim, Stadt","type":"Stadt"},"district":{"key":"07332","name":"Bad Dürkheim","type":"Landkreis"},"federalState":{"key":"07","name":"Rheinland-Pfalz"}},{"name":"Im Schreck","postalCode":"67098","locality":"Bad Dürkheim","municipality":{"key":"07332002","name":"Bad Dürkheim, Stadt","type":"Stadt"},"district":{"key":"07332","name":"Bad Dürkheim","type":"Landkreis"},"federalState":{"key":"07","name":"Rheinland-Pfalz"}},{"name":"Im Stephansstück","postalCode":"67098","locality":"Bad Dürkheim","municipality":{"key":"07332002","name":"Bad Dürkheim, Stadt","type":"Stadt"},"district":{"key":"07332","name":"Bad Dürkheim","type":"Landkreis"},"federalState":{"key":"07","name":"Rheinland-Pfalz"}},{"name":"In den Almen","postalCode":"67098","locality":"Bad Dürkheim","municipality":{"key":"07332002","name":"Bad Dürkheim, Stadt","type":"Stadt"},"district":{"key":"07332","name":"Bad Dürkheim","type":"Landkreis"},"federalState":{"key":"07","name":"Rheinland-Pfalz"}},{"name":"In den Hammerwiesen","postalCode":"67098","locality":"Bad Dürkheim","municipality":{"key":"07332002","name":"Bad Dürkheim, Stadt","type":"Stadt"},"district":{"key":"07332","name":"Bad Dürkheim","type":"Landkreis"},"federalState":{"key":"07","name":"Rheinland-Pfalz"}},{"name":"In den Kappesgärten","postalCode":"67098","locality":"Bad Dürkheim","municipality":{"key":"07332002","name":"Bad Dürkheim, Stadt","type":"Stadt"},"district":{"key":"07332","name":"Bad Dürkheim","type":"Landkreis"},"federalState":{"key":"07","name":"Rheinland-Pfalz"}},{"name":"In den Kastaniengärten","postalCode":"67098","locality":"Bad Dürkheim","municipality":{"key":"07332002","name":"Bad Dürkheim, Stadt","type":"Stadt"},"district":{"key":"07332","name":"Bad Dürkheim","type":"Landkreis"},"federalState":{"key":"07","name":"Rheinland-Pfalz"}},{"name":"In den Langwiesen","postalCode":"67098","locality":"Bad Dürkheim","municipality":{"key":"07332002","name":"Bad Dürkheim, Stadt","type":"Stadt"},"district":{"key":"07332","name":"Bad Dürkheim","type":"Landkreis"},"federalState":{"key":"07","name":"Rheinland-Pfalz"}},{"name":"In den Weiden","postalCode":"67098","locality":"Bad Dürkheim","municipality":{"key":"07332002","name":"Bad Dürkheim, Stadt","type":"Stadt"},"district":{"key":"07332","name":"Bad Dürkheim","type":"Landkreis"},"federalState":{"key":"07","name":"Rheinland-Pfalz"}},{"name":"In der Fürth","postalCode":"67098","locality":"Bad Dürkheim","municipality":{"key":"07332002","name":"Bad Dürkheim, Stadt","type":"Stadt"},"district":{"key":"07332","name":"Bad Dürkheim","type":"Landkreis"},"federalState":{"key":"07","name":"Rheinland-Pfalz"}},{"name":"In der Nonnenhecke","postalCode":"67098","locality":"Bad Dürkheim","municipality":{"key":"07332002","name":"Bad Dürkheim, Stadt","type":"Stadt"},"district":{"key":"07332","name":"Bad Dürkheim","type":"Landkreis"},"federalState":{"key":"07","name":"Rheinland-Pfalz"}},{"name":"In der Silz","postalCode":"67098","locality":"Bad Dürkheim","municipality":{"key":"07332002","name":"Bad Dürkheim, Stadt","type":"Stadt"},"district":{"key":"07332","name":"Bad Dürkheim","type":"Landkreis"},"federalState":{"key":"07","name":"Rheinland-Pfalz"}},{"name":"Jahnstr.","postalCode":"67098","locality":"Bad Dürkheim","municipality":{"key":"07332002","name":"Bad Dürkheim, Stadt","type":"Stadt"},"district":{"key":"07332","name":"Bad Dürkheim","type":"Landkreis"},"federalState":{"key":"07","name":"Rheinland-Pfalz"}},{"name":"Jan-Daniel-Georgens-Str.","postalCode":"67098","locality":"Bad Dürkheim","municipality":{"key":"07332002","name":"Bad Dürkheim, Stadt","type":"Stadt"},"district":{"key":"07332","name":"Bad Dürkheim","type":"Landkreis"},"federalState":{"key":"07","name":"Rheinland-Pfalz"}},{"name":"Jasminring","postalCode":"67098","locality":"Bad Dürkheim","municipality":{"key":"07332002","name":"Bad Dürkheim, Stadt","type":"Stadt"},"district":{"key":"07332","name":"Bad Dürkheim","type":"Landkreis"},"federalState":{"key":"07","name":"Rheinland-Pfalz"}},{"name":"Karlbacher Weg","postalCode":"67271","locality":"Obersülzen","municipality":{"key":"07332040","name":"Obersülzen","type":"Kreisangehörige_Gemeinde"},"district":{"key":"07332","name":"Bad Dürkheim","type":"Landkreis"},"federalState":{"key":"07","name":"Rheinland-Pfalz"}},{"name":"Kirchgasse","postalCode":"67271","locality":"Obersülzen","municipality":{"key":"07332040","name":"Obersülzen","type":"Kreisangehörige_Gemeinde"},"district":{"key":"07332","name":"Bad Dürkheim","type":"Landkreis"},"federalState":{"key":"07","name":"Rheinland-Pfalz"}},{"name":"Klappersteig","postalCode":"67271","locality":"Obersülzen","municipality":{"key":"07332040","name":"Obersülzen","type":"Kreisangehörige_Gemeinde"},"district":{"key":"07332","name":"Bad Dürkheim","type":"Landkreis"},"federalState":{"key":"07","name":"Rheinland-Pfalz"}},{"name":"Laumersheimer Str.","postalCode":"67271","locality":"Obersülzen","municipality":{"key":"07332040","name":"Obersülzen","type":"Kreisangehörige_Gemeinde"},"district":{"key":"07332","name":"Bad Dürkheim","type":"Landkreis"},"federalState":{"key":"07","name":"Rheinland-Pfalz"}},{"name":"Magnolienring","postalCode":"67098","locality":"Bad Dürkheim","municipality":{"key":"07332002","name":"Bad Dürkheim, Stadt","type":"Stadt"},"district":{"key":"07332","name":"Bad Dürkheim","type":"Landkreis"},"federalState":{"key":"07","name":"Rheinland-Pfalz"}},{"name":"Maler-Ernst-Str.","postalCode":"67098","locality":"Bad Dürkheim","municipality":{"key":"07332002","name":"Bad Dürkheim, Stadt","type":"Stadt"},"district":{"key":"07332","name":"Bad Dürkheim","type":"Landkreis"},"federalState":{"key":"07","name":"Rheinland-Pfalz"}},{"name":"Mandelweg","postalCode":"67098","locality":"Bad Dürkheim","municipality":{"key":"07332002","name":"Bad Dürkheim, Stadt","type":"Stadt"},"district":{"key":"07332","name":"Bad Dürkheim","type":"Landkreis"},"federalState":{"key":"07","name":"Rheinland-Pfalz"}},{"name":"Mannheimer Str.","postalCode":"67098","locality":"Bad Dürkheim","municipality":{"key":"07332002","name":"Bad Dürkheim, Stadt","type":"Stadt"},"district":{"key":"07332","name":"Bad Dürkheim","type":"Landkreis"},"federalState":{"key":"07","name":"Rheinland-Pfalz"}},{"name":"Marktgasse","postalCode":"67098","locality":"Bad Dürkheim","municipality":{"key":"07332002","name":"Bad Dürkheim, Stadt","type":"Stadt"},"district":{"key":"07332","name":"Bad Dürkheim","type":"Landkreis"},"federalState":{"key":"07","name":"Rheinland-Pfalz"}},{"name":"Martin-Butzer-Str.","postalCode":"67098","locality":"Bad Dürkheim","municipality":{"key":"07332002","name":"Bad Dürkheim, Stadt","type":"Stadt"},"district":{"key":"07332","name":"Bad Dürkheim","type":"Landkreis"},"federalState":{"key":"07","name":"Rheinland-Pfalz"}},{"name":"Maxbrunnenstr.","postalCode":"67098","locality":"Bad Dürkheim","municipality":{"key":"07332002","name":"Bad Dürkheim, Stadt","type":"Stadt"},"district":{"key":"07332","name":"Bad Dürkheim","type":"Landkreis"},"federalState":{"key":"07","name":"Rheinland-Pfalz"}},{"name":"Michelsbergstr.","postalCode":"67098","locality":"Bad Dürkheim","municipality":{"key":"07332002","name":"Bad Dürkheim, Stadt","type":"Stadt"},"district":{"key":"07332","name":"Bad Dürkheim","type":"Landkreis"},"federalState":{"key":"07","name":"Rheinland-Pfalz"}},{"name":"Mittelberg","postalCode":"67098","locality":"Bad Dürkheim","municipality":{"key":"07332002","name":"Bad Dürkheim, Stadt","type":"Stadt"},"district":{"key":"07332","name":"Bad Dürkheim","type":"Landkreis"},"federalState":{"key":"07","name":"Rheinland-Pfalz"}},{"name":"Mozartstr.","postalCode":"67098","locality":"Bad Dürkheim","municipality":{"key":"07332002","name":"Bad Dürkheim, Stadt","type":"Stadt"},"district":{"key":"07332","name":"Bad Dürkheim","type":"Landkreis"},"federalState":{"key":"07","name":"Rheinland-Pfalz"}},{"name":"Mühlbergweg","postalCode":"67098","locality":"Bad Dürkheim","municipality":{"key":"07332002","name":"Bad Dürkheim, Stadt","type":"Stadt"},"district":{"key":"07332","name":"Bad Dürkheim","type":"Landkreis"},"federalState":{"key":"07","name":"Rheinland-Pfalz"}},{"name":"Mühlgasse","postalCode":"67098","locality":"Bad Dürkheim","municipality":{"key":"07332002","name":"Bad Dürkheim, Stadt","type":"Stadt"},"district":{"key":"07332","name":"Bad Dürkheim","type":"Landkreis"},"federalState":{"key":"07","name":"Rheinland-Pfalz"}},{"name":"Muskatellerweg","postalCode":"67098","locality":"Bad Dürkheim","municipality":{"key":"07332002","name":"Bad Dürkheim, Stadt","type":"Stadt"},"district":{"key":"07332","name":"Bad Dürkheim","type":"Landkreis"},"federalState":{"key":"07","name":"Rheinland-Pfalz"}},{"name":"Neumärkerei","postalCode":"67271","locality":"Obersülzen","municipality":{"key":"07332040","name":"Obersülzen","type":"Kreisangehörige_Gemeinde"},"district":{"key":"07332","name":"Bad Dürkheim","type":"Landkreis"},"federalState":{"key":"07","name":"Rheinland-Pfalz"}},{"name":"Neuweg","postalCode":"67271","locality":"Obersülzen","municipality":{"key":"07332040","name":"Obersülzen","type":"Kreisangehörige_Gemeinde"},"district":{"key":"07332","name":"Bad Dürkheim","type":"Landkreis"},"federalState":{"key":"07","name":"Rheinland-Pfalz"}},{"name":"Oberer Finkenpfad","postalCode":"67098","locality":"Bad Dürkheim","municipality":{"key":"07332002","name":"Bad Dürkheim, Stadt","type":"Stadt"},"district":{"key":"07332","name":"Bad Dürkheim","type":"Landkreis"},"federalState":{"key":"07","name":"Rheinland-Pfalz"}},{"name":"Oberes Gaistal","postalCode":"67098","locality":"Bad Dürkheim","municipality":{"key":"07332002","name":"Bad Dürkheim, Stadt","type":"Stadt"},"district":{"key":"07332","name":"Bad Dürkheim","type":"Landkreis"},"federalState":{"key":"07","name":"Rheinland-Pfalz"}},{"name":"Obergasse","postalCode":"67098","locality":"Bad Dürkheim","municipality":{"key":"07332002","name":"Bad Dürkheim, Stadt","type":"Stadt"},"district":{"key":"07332","name":"Bad Dürkheim","type":"Landkreis"},"federalState":{"key":"07","name":"Rheinland-Pfalz"}},{"name":"Oleanderweg","postalCode":"67098","locality":"Bad Dürkheim","municipality":{"key":"07332002","name":"Bad Dürkheim, Stadt","type":"Stadt"},"district":{"key":"07332","name":"Bad Dürkheim","type":"Landkreis"},"federalState":{"key":"07","name":"Rheinland-Pfalz"}},{"name":"Otto-Schmitt-Groß-Str.","postalCode":"67098","locality":"Bad Dürkheim","municipality":{"key":"07332002","name":"Bad Dürkheim, Stadt","type":"Stadt"},"district":{"key":"07332","name":"Bad Dürkheim","type":"Landkreis"},"federalState":{"key":"07","name":"Rheinland-Pfalz"}},{"name":"Paray-le-Monial-Str.","postalCode":"67098","locality":"Bad Dürkheim","municipality":{"key":"07332002","name":"Bad Dürkheim, Stadt","type":"Stadt"},"district":{"key":"07332","name":"Bad Dürkheim","type":"Landkreis"},"federalState":{"key":"07","name":"Rheinland-Pfalz"}},{"name":"Pfarrer-Maurer-Str.","postalCode":"67098","locality":"Bad Dürkheim","municipality":{"key":"07332002","name":"Bad Dürkheim, Stadt","type":"Stadt"},"district":{"key":"07332","name":"Bad Dürkheim","type":"Landkreis"},"federalState":{"key":"07","name":"Rheinland-Pfalz"}},{"name":"Pfarrgässchen","postalCode":"67098","locality":"Bad Dürkheim","municipality":{"key":"07332002","name":"Bad Dürkheim, Stadt","type":"Stadt"},"district":{"key":"07332","name":"Bad Dürkheim","type":"Landkreis"},"federalState":{"key":"07","name":"Rheinland-Pfalz"}},{"name":"Pfeffingen","postalCode":"67098","locality":"Bad Dürkheim","municipality":{"key":"07332002","name":"Bad Dürkheim, Stadt","type":"Stadt"},"district":{"key":"07332","name":"Bad Dürkheim","type":"Landkreis"},"federalState":{"key":"07","name":"Rheinland-Pfalz"}},{"name":"Philipp-Fauth-Str.","postalCode":"67098","locality":"Bad Dürkheim","municipality":{"key":"07332002","name":"Bad Dürkheim, Stadt","type":"Stadt"},"district":{"key":"07332","name":"Bad Dürkheim","type":"Landkreis"},"federalState":{"key":"07","name":"Rheinland-Pfalz"}},{"name":"Philipp-Heinrich-Messer-Str.","postalCode":"67098","locality":"Bad Dürkheim","municipality":{"key":"07332002","name":"Bad Dürkheim, Stadt","type":"Stadt"},"district":{"key":"07332","name":"Bad Dürkheim","type":"Landkreis"},"federalState":{"key":"07","name":"Rheinland-Pfalz"}},{"name":"Philipp-Krämer-Ring","postalCode":"67098","locality":"Bad Dürkheim","municipality":{"key":"07332002","name":"Bad Dürkheim, Stadt","type":"Stadt"},"district":{"key":"07332","name":"Bad Dürkheim","type":"Landkreis"},"federalState":{"key":"07","name":"Rheinland-Pfalz"}},{"name":"Pinienweg","postalCode":"67098","locality":"Bad Dürkheim","municipality":{"key":"07332002","name":"Bad Dürkheim, Stadt","type":"Stadt"},"district":{"key":"07332","name":"Bad Dürkheim","type":"Landkreis"},"federalState":{"key":"07","name":"Rheinland-Pfalz"}},{"name":"Platanenring","postalCode":"67098","locality":"Bad Dürkheim","municipality":{"key":"07332002","name":"Bad Dürkheim, Stadt","type":"Stadt"},"district":{"key":"07332","name":"Bad Dürkheim","type":"Landkreis"},"federalState":{"key":"07","name":"Rheinland-Pfalz"}},{"name":"Pochelstr.","postalCode":"67098","locality":"Bad Dürkheim","municipality":{"key":"07332002","name":"Bad Dürkheim, Stadt","type":"Stadt"},"district":{"key":"07332","name":"Bad Dürkheim","type":"Landkreis"},"federalState":{"key":"07","name":"Rheinland-Pfalz"}},{"name":"Portugieserstr.","postalCode":"67098","locality":"Bad Dürkheim","municipality":{"key":"07332002","name":"Bad Dürkheim, Stadt","type":"Stadt"},"district":{"key":"07332","name":"Bad Dürkheim","type":"Landkreis"},"federalState":{"key":"07","name":"Rheinland-Pfalz"}},{"name":"Professor-Dillinger-Weg","postalCode":"67098","locality":"Bad Dürkheim","municipality":{"key":"07332002","name":"Bad Dürkheim, Stadt","type":"Stadt"},"district":{"key":"07332","name":"Bad Dürkheim","type":"Landkreis"},"federalState":{"key":"07","name":"Rheinland-Pfalz"}},{"name":"Prof.-Otto-Dill-Str.","postalCode":"67098","locality":"Bad Dürkheim","municipality":{"key":"07332002","name":"Bad Dürkheim, Stadt","type":"Stadt"},"district":{"key":"07332","name":"Bad Dürkheim","type":"Landkreis"},"federalState":{"key":"07","name":"Rheinland-Pfalz"}},{"name":"Richard-Wagner-Str.","postalCode":"67098","locality":"Bad Dürkheim","municipality":{"key":"07332002","name":"Bad Dürkheim, Stadt","type":"Stadt"},"district":{"key":"07332","name":"Bad Dürkheim","type":"Landkreis"},"federalState":{"key":"07","name":"Rheinland-Pfalz"}},{"name":"Rieslingstr.","postalCode":"67098","locality":"Bad Dürkheim","municipality":{"key":"07332002","name":"Bad Dürkheim, Stadt","type":"Stadt"},"district":{"key":"07332","name":"Bad Dürkheim","type":"Landkreis"},"federalState":{"key":"07","name":"Rheinland-Pfalz"}},{"name":"Ringstr.","postalCode":"67098","locality":"Bad Dürkheim","municipality":{"key":"07332002","name":"Bad Dürkheim, Stadt","type":"Stadt"},"district":{"key":"07332","name":"Bad Dürkheim","type":"Landkreis"},"federalState":{"key":"07","name":"Rheinland-Pfalz"}},{"name":"Robert-Bunsen-Str.","postalCode":"67098","locality":"Bad Dürkheim","municipality":{"key":"07332002","name":"Bad Dürkheim, Stadt","type":"Stadt"},"district":{"key":"07332","name":"Bad Dürkheim","type":"Landkreis"},"federalState":{"key":"07","name":"Rheinland-Pfalz"}},{"name":"Robert-Stolz-Str.","postalCode":"67098","locality":"Bad Dürkheim","municipality":{"key":"07332002","name":"Bad Dürkheim, Stadt","type":"Stadt"},"district":{"key":"07332","name":"Bad Dürkheim","type":"Landkreis"},"federalState":{"key":"07","name":"Rheinland-Pfalz"}},{"name":"Robinienweg","postalCode":"67098","locality":"Bad Dürkheim","municipality":{"key":"07332002","name":"Bad Dürkheim, Stadt","type":"Stadt"},"district":{"key":"07332","name":"Bad Dürkheim","type":"Landkreis"},"federalState":{"key":"07","name":"Rheinland-Pfalz"}},{"name":"Römerstr.","postalCode":"67098","locality":"Bad Dürkheim","municipality":{"key":"07332002","name":"Bad Dürkheim, Stadt","type":"Stadt"},"district":{"key":"07332","name":"Bad Dürkheim","type":"Landkreis"},"federalState":{"key":"07","name":"Rheinland-Pfalz"}},{"name":"Rosmarinweg","postalCode":"67098","locality":"Bad Dürkheim","municipality":{"key":"07332002","name":"Bad Dürkheim, Stadt","type":"Stadt"},"district":{"key":"07332","name":"Bad Dürkheim","type":"Landkreis"},"federalState":{"key":"07","name":"Rheinland-Pfalz"}},{"name":"Rotsteiger Weg","postalCode":"67098","locality":"Bad Dürkheim","municipality":{"key":"07332002","name":"Bad Dürkheim, Stadt","type":"Stadt"},"district":{"key":"07332","name":"Bad Dürkheim","type":"Landkreis"},"federalState":{"key":"07","name":"Rheinland-Pfalz"}},{"name":"Rübental","postalCode":"67098","locality":"Bad Dürkheim","municipality":{"key":"07332002","name":"Bad Dürkheim, Stadt","type":"Stadt"},"district":{"key":"07332","name":"Bad Dürkheim","type":"Landkreis"},"federalState":{"key":"07","name":"Rheinland-Pfalz"}},{"name":"Rudolf-Bart-Siedlung","postalCode":"67098","locality":"Bad Dürkheim","municipality":{"key":"07332002","name":"Bad Dürkheim, Stadt","type":"Stadt"},"district":{"key":"07332","name":"Bad Dürkheim","type":"Landkreis"},"federalState":{"key":"07","name":"Rheinland-Pfalz"}},{"name":"Stumpfwaldstr.","postalCode":"67271","locality":"Obersülzen","municipality":{"key":"07332040","name":"Obersülzen","type":"Kreisangehörige_Gemeinde"},"district":{"key":"07332","name":"Bad Dürkheim","type":"Landkreis"},"federalState":{"key":"07","name":"Rheinland-Pfalz"}},{"name":"Tannenweg","postalCode":"67098","locality":"Bad Dürkheim","municipality":{"key":"07332002","name":"Bad Dürkheim, Stadt","type":"Stadt"},"district":{"key":"07332","name":"Bad Dürkheim","type":"Landkreis"},"federalState":{"key":"07","name":"Rheinland-Pfalz"}},{"name":"Thymianweg","postalCode":"67098","locality":"Bad Dürkheim","municipality":{"key":"07332002","name":"Bad Dürkheim, Stadt","type":"Stadt"},"district":{"key":"07332","name":"Bad Dürkheim","type":"Landkreis"},"federalState":{"key":"07","name":"Rheinland-Pfalz"}},{"name":"Traminerweg","postalCode":"67098","locality":"Bad Dürkheim","municipality":{"key":"07332002","name":"Bad Dürkheim, Stadt","type":"Stadt"},"district":{"key":"07332","name":"Bad Dürkheim","type":"Landkreis"},"federalState":{"key":"07","name":"Rheinland-Pfalz"}},{"name":"Trifenpfad","postalCode":"67098","locality":"Bad Dürkheim","municipality":{"key":"07332002","name":"Bad Dürkheim, Stadt","type":"Stadt"},"district":{"key":"07332","name":"Bad Dürkheim","type":"Landkreis"},"federalState":{"key":"07","name":"Rheinland-Pfalz"}},{"name":"Triftweg","postalCode":"67098","locality":"Bad Dürkheim","municipality":{"key":"07332002","name":"Bad Dürkheim, Stadt","type":"Stadt"},"district":{"key":"07332","name":"Bad Dürkheim","type":"Landkreis"},"federalState":{"key":"07","name":"Rheinland-Pfalz"}},{"name":"Unter der Hardenburg","postalCode":"67098","locality":"Bad Dürkheim","municipality":{"key":"07332002","name":"Bad Dürkheim, Stadt","type":"Stadt"},"district":{"key":"07332","name":"Bad Dürkheim","type":"Landkreis"},"federalState":{"key":"07","name":"Rheinland-Pfalz"}},{"name":"Unteres Gaistal","postalCode":"67098","locality":"Bad Dürkheim","municipality":{"key":"07332002","name":"Bad Dürkheim, Stadt","type":"Stadt"},"district":{"key":"07332","name":"Bad Dürkheim","type":"Landkreis"},"federalState":{"key":"07","name":"Rheinland-Pfalz"}},{"name":"Valentin-Ostertag-Str.","postalCode":"67098","locality":"Bad Dürkheim","municipality":{"key":"07332002","name":"Bad Dürkheim, Stadt","type":"Stadt"},"district":{"key":"07332","name":"Bad Dürkheim","type":"Landkreis"},"federalState":{"key":"07","name":"Rheinland-Pfalz"}},{"name":"Vigilienstr.","postalCode":"67098","locality":"Bad Dürkheim","municipality":{"key":"07332002","name":"Bad Dürkheim, Stadt","type":"Stadt"},"district":{"key":"07332","name":"Bad Dürkheim","type":"Landkreis"},"federalState":{"key":"07","name":"Rheinland-Pfalz"}},{"name":"Wormser Weg","postalCode":"67271","locality":"Obersülzen","municipality":{"key":"07332040","name":"Obersülzen","type":"Kreisangehörige_Gemeinde"},"district":{"key":"07332","name":"Bad Dürkheim","type":"Landkreis"},"federalState":{"key":"07","name":"Rheinland-Pfalz"}},{"name":"Zeppelinstr.","postalCode":"67098","locality":"Bad Dürkheim","municipality":{"key":"07332002","name":"Bad Dürkheim, Stadt","type":"Stadt"},"district":{"key":"07332","name":"Bad Dürkheim","type":"Landkreis"},"federalState":{"key":"07","name":"Rheinland-Pfalz"}},{"name":"Zum Röhrig","postalCode":"67098","locality":"Bad Dürkheim","municipality":{"key":"07332002","name":"Bad Dürkheim, Stadt","type":"Stadt"},"district":{"key":"07332","name":"Bad Dürkheim","type":"Landkreis"},"federalState":{"key":"07","name":"Rheinland-Pfalz"}},{"name":"Östlicher Kurpark","postalCode":"67098","locality":"Bad Dürkheim","municipality":{"key":"07332002","name":"Bad Dürkheim, Stadt","type":"Stadt"},"district":{"key":"07332","name":"Bad Dürkheim","type":"Landkreis"},"federalState":{"key":"07","name":"Rheinland-Pfalz"}},]