[{"key":"10002758","name":"Aebletenweg","postalCode":"8706","locality":"Meilen","commune":{"key":"156","name":"Meilen","shortName":"Meilen"},"district":{"key":"107","name":"Bezirk Meilen"},"canton":{"key":"1","code":"ZH","name":"Zürich"},"status":"Real"},{"key":"10248519","name":"Allmendrainweg","postalCode":"8706","locality":"Meilen","commune":{"key":"156","name":"Meilen","shortName":"Meilen"},"district":{"key":"107","name":"Bezirk Meilen"},"canton":{"key":"1","code":"ZH","name":"Zürich"},"status":"Real"},{"key":"10159138","name":"Alte Bergstrasse","postalCode":"8706","locality":"Meilen","commune":{"key":"156","name":"Meilen","shortName":"Meilen"},"district":{"key":"107","name":"Bezirk Meilen"},"canton":{"key":"1","code":"ZH","name":"Zürich"},"status":"Real"},{"key":"10196430","name":"Alte Erlenstrasse","postalCode":"8706","locality":"Meilen","commune":{"key":"156","name":"Meilen","shortName":"Meilen"},"district":{"key":"107","name":"Bezirk Meilen"},"canton":{"key":"1","code":"ZH","name":"Zürich"},"status":"Real"},{"key":"10002759","name":"Alte Landstrasse","postalCode":"8706","locality":"Meilen","commune":{"key":"156","name":"Meilen","shortName":"Meilen"},"district":{"key":"107","name":"Bezirk Meilen"},"canton":{"key":"1","code":"ZH","name":"Zürich"},"status":"Real"},{"key":"10142451","name":"Alter Herrenweg","postalCode":"8706","locality":"Meilen","commune":{"key":"156","name":"Meilen","shortName":"Meilen"},"district":{"key":"107","name":"Bezirk Meilen"},"canton":{"key":"1","code":"ZH","name":"Zürich"},"status":"Real"},{"key":"10142452","name":"Althaugasse","postalCode":"8706","locality":"Meilen","commune":{"key":"156","name":"Meilen","shortName":"Meilen"},"district":{"key":"107","name":"Bezirk Meilen"},"canton":{"key":"1","code":"ZH","name":"Zürich"},"status":"Real"},{"key":"10152659","name":"Althaustrasse","postalCode":"8706","locality":"Meilen","commune":{"key":"156","name":"Meilen","shortName":"Meilen"},"district":{"key":"107","name":"Bezirk Meilen"},"canton":{"key":"1","code":"ZH","name":"Zürich"},"status":"Real"},{"key":"10166005","name":"Althauweg","postalCode":"8706","locality":"Meilen","commune":{"key":"156","name":"Meilen","shortName":"Meilen"},"district":{"key":"107","name":"Bezirk Meilen"},"canton":{"key":"1","code":"ZH","name":"Zürich"},"status":"Real"},{"key":"10170576","name":"Altschürstrasse","postalCode":"8706","locality":"Meilen","commune":{"key":"156","name":"Meilen","shortName":"Meilen"},"district":{"key":"107","name":"Bezirk Meilen"},"canton":{"key":"1","code":"ZH","name":"Zürich"},"status":"Real"},{"key":"10142453","name":"Altweg","postalCode":"8706","locality":"Meilen","commune":{"key":"156","name":"Meilen","shortName":"Meilen"},"district":{"key":"107","name":"Bezirk Meilen"},"canton":{"key":"1","code":"ZH","name":"Zürich"},"status":"Real"},{"key":"10160576","name":"Auf der Burg","postalCode":"8706","locality":"Meilen","commune":{"key":"156","name":"Meilen","shortName":"Meilen"},"district":{"key":"107","name":"Bezirk Meilen"},"canton":{"key":"1","code":"ZH","name":"Zürich"},"status":"Real"},{"key":"10002760","name":"Auf der Grueb","postalCode":"8706","locality":"Meilen","commune":{"key":"156","name":"Meilen","shortName":"Meilen"},"district":{"key":"107","name":"Bezirk Meilen"},"canton":{"key":"1","code":"ZH","name":"Zürich"},"status":"Real"},{"key":"10076363","name":"Auf der Halten","postalCode":"8706","locality":"Meilen","commune":{"key":"156","name":"Meilen","shortName":"Meilen"},"district":{"key":"107","name":"Bezirk Meilen"},"canton":{"key":"1","code":"ZH","name":"Zürich"},"status":"Real"},{"key":"10065681","name":"Auf der Hürnen","postalCode":"8706","locality":"Meilen","commune":{"key":"156","name":"Meilen","shortName":"Meilen"},"district":{"key":"107","name":"Bezirk Meilen"},"canton":{"key":"1","code":"ZH","name":"Zürich"},"status":"Real"},{"key":"10111464","name":"Auf der Platte","postalCode":"8706","locality":"Meilen","commune":{"key":"156","name":"Meilen","shortName":"Meilen"},"district":{"key":"107","name":"Bezirk Meilen"},"canton":{"key":"1","code":"ZH","name":"Zürich"},"status":"Real"},{"key":"10248834","name":"Aufussweg","postalCode":"8706","locality":"Meilen","commune":{"key":"156","name":"Meilen","shortName":"Meilen"},"district":{"key":"107","name":"Bezirk Meilen"},"canton":{"key":"1","code":"ZH","name":"Zürich"},"status":"Real"},{"key":"10054251","name":"Austrasse","postalCode":"8706","locality":"Meilen","commune":{"key":"156","name":"Meilen","shortName":"Meilen"},"district":{"key":"107","name":"Bezirk Meilen"},"canton":{"key":"1","code":"ZH","name":"Zürich"},"status":"Real"},{"key":"10142454","name":"Awandelweg","postalCode":"8706","locality":"Meilen","commune":{"key":"156","name":"Meilen","shortName":"Meilen"},"district":{"key":"107","name":"Bezirk Meilen"},"canton":{"key":"1","code":"ZH","name":"Zürich"},"status":"Real"},{"key":"10142455","name":"Badholzweg","postalCode":"8706","locality":"Meilen","commune":{"key":"156","name":"Meilen","shortName":"Meilen"},"district":{"key":"107","name":"Bezirk Meilen"},"canton":{"key":"1","code":"ZH","name":"Zürich"},"status":"Real"},{"key":"10120278","name":"Bahnhofstrasse","postalCode":"8706","locality":"Meilen","commune":{"key":"156","name":"Meilen","shortName":"Meilen"},"district":{"key":"107","name":"Bezirk Meilen"},"canton":{"key":"1","code":"ZH","name":"Zürich"},"status":"Real"},{"key":"10002761","name":"Bahnweg","postalCode":"8706","locality":"Meilen","commune":{"key":"156","name":"Meilen","shortName":"Meilen"},"district":{"key":"107","name":"Bezirk Meilen"},"canton":{"key":"1","code":"ZH","name":"Zürich"},"status":"Real"},{"key":"10245755","name":"Bannholzweg","postalCode":"8706","locality":"Meilen","commune":{"key":"156","name":"Meilen","shortName":"Meilen"},"district":{"key":"107","name":"Bezirk Meilen"},"canton":{"key":"1","code":"ZH","name":"Zürich"},"status":"Real"},{"key":"10099463","name":"Bergstrasse","postalCode":"8706","locality":"Meilen","commune":{"key":"156","name":"Meilen","shortName":"Meilen"},"district":{"key":"107","name":"Bezirk Meilen"},"canton":{"key":"1","code":"ZH","name":"Zürich"},"status":"Real"},{"key":"10248749","name":"Beugenbachfussweg","postalCode":"8706","locality":"Meilen","commune":{"key":"156","name":"Meilen","shortName":"Meilen"},"district":{"key":"107","name":"Bezirk Meilen"},"canton":{"key":"1","code":"ZH","name":"Zürich"},"status":"Real"},{"key":"10166775","name":"Bezibüelweg","postalCode":"8706","locality":"Meilen","commune":{"key":"156","name":"Meilen","shortName":"Meilen"},"district":{"key":"107","name":"Bezirk Meilen"},"canton":{"key":"1","code":"ZH","name":"Zürich"},"status":"Real"},{"key":"10002762","name":"Bodmerweg","postalCode":"8706","locality":"Meilen","commune":{"key":"156","name":"Meilen","shortName":"Meilen"},"district":{"key":"107","name":"Bezirk Meilen"},"canton":{"key":"1","code":"ZH","name":"Zürich"},"status":"Real"},{"key":"10142456","name":"Bolweg","postalCode":"8706","locality":"Meilen","commune":{"key":"156","name":"Meilen","shortName":"Meilen"},"district":{"key":"107","name":"Bezirk Meilen"},"canton":{"key":"1","code":"ZH","name":"Zürich"},"status":"Real"},{"key":"10169341","name":"Breitifussweg","postalCode":"8706","locality":"Meilen","commune":{"key":"156","name":"Meilen","shortName":"Meilen"},"district":{"key":"107","name":"Bezirk Meilen"},"canton":{"key":"1","code":"ZH","name":"Zürich"},"status":"Real"},{"key":"10248426","name":"Bruechfussweg","postalCode":"8706","locality":"Meilen","commune":{"key":"156","name":"Meilen","shortName":"Meilen"},"district":{"key":"107","name":"Bezirk Meilen"},"canton":{"key":"1","code":"ZH","name":"Zürich"},"status":"Real"},{"key":"10002763","name":"Bruechstrasse","postalCode":"8706","locality":"Meilen","commune":{"key":"156","name":"Meilen","shortName":"Meilen"},"district":{"key":"107","name":"Bezirk Meilen"},"canton":{"key":"1","code":"ZH","name":"Zürich"},"status":"Real"},{"key":"10127324","name":"Bruederhalweg","postalCode":"8706","locality":"Meilen","commune":{"key":"156","name":"Meilen","shortName":"Meilen"},"district":{"key":"107","name":"Bezirk Meilen"},"canton":{"key":"1","code":"ZH","name":"Zürich"},"status":"Real"},{"key":"10245753","name":"Büelweg","postalCode":"8706","locality":"Meilen","commune":{"key":"156","name":"Meilen","shortName":"Meilen"},"district":{"key":"107","name":"Bezirk Meilen"},"canton":{"key":"1","code":"ZH","name":"Zürich"},"status":"Real"},{"key":"10245752","name":"Bühlenstrasse","postalCode":"8706","locality":"Meilen","commune":{"key":"156","name":"Meilen","shortName":"Meilen"},"district":{"key":"107","name":"Bezirk Meilen"},"canton":{"key":"1","code":"ZH","name":"Zürich"},"status":"Real"},{"key":"10142459","name":"Bundiweg","postalCode":"8706","locality":"Meilen","commune":{"key":"156","name":"Meilen","shortName":"Meilen"},"district":{"key":"107","name":"Bezirk Meilen"},"canton":{"key":"1","code":"ZH","name":"Zürich"},"status":"Real"},{"key":"10076365","name":"Bünishoferstrasse","postalCode":"8706","locality":"Meilen","commune":{"key":"156","name":"Meilen","shortName":"Meilen"},"district":{"key":"107","name":"Bezirk Meilen"},"canton":{"key":"1","code":"ZH","name":"Zürich"},"status":"Real"},{"key":"10076364","name":"Burgrain","postalCode":"8706","locality":"Meilen","commune":{"key":"156","name":"Meilen","shortName":"Meilen"},"district":{"key":"107","name":"Bezirk Meilen"},"canton":{"key":"1","code":"ZH","name":"Zürich"},"status":"Real"},{"key":"10002764","name":"Burgstrasse","postalCode":"8706","locality":"Meilen","commune":{"key":"156","name":"Meilen","shortName":"Meilen"},"district":{"key":"107","name":"Bezirk Meilen"},"canton":{"key":"1","code":"ZH","name":"Zürich"},"status":"Real"},{"key":"10002765","name":"Charrhaltenstrasse","postalCode":"8706","locality":"Meilen","commune":{"key":"156","name":"Meilen","shortName":"Meilen"},"district":{"key":"107","name":"Bezirk Meilen"},"canton":{"key":"1","code":"ZH","name":"Zürich"},"status":"Real"},{"key":"10142460","name":"Cholrütiweg","postalCode":"8706","locality":"Meilen","commune":{"key":"156","name":"Meilen","shortName":"Meilen"},"district":{"key":"107","name":"Bezirk Meilen"},"canton":{"key":"1","code":"ZH","name":"Zürich"},"status":"Real"},{"key":"10127325","name":"Chorherrenweg","postalCode":"8706","locality":"Meilen","commune":{"key":"156","name":"Meilen","shortName":"Meilen"},"district":{"key":"107","name":"Bezirk Meilen"},"canton":{"key":"1","code":"ZH","name":"Zürich"},"status":"Real"},{"key":"10248574","name":"Chriesitharenfussweg","postalCode":"8706","locality":"Meilen","commune":{"key":"156","name":"Meilen","shortName":"Meilen"},"district":{"key":"107","name":"Bezirk Meilen"},"canton":{"key":"1","code":"ZH","name":"Zürich"},"status":"Real"},{"key":"10002766","name":"Dollikerstrasse","postalCode":"8706","locality":"Meilen","commune":{"key":"156","name":"Meilen","shortName":"Meilen"},"district":{"key":"107","name":"Bezirk Meilen"},"canton":{"key":"1","code":"ZH","name":"Zürich"},"status":"Real"},{"key":"10002767","name":"Dollikerweg","postalCode":"8706","locality":"Meilen","commune":{"key":"156","name":"Meilen","shortName":"Meilen"},"district":{"key":"107","name":"Bezirk Meilen"},"canton":{"key":"1","code":"ZH","name":"Zürich"},"status":"Real"},{"key":"10195348","name":"Dorfplatz","postalCode":"8706","locality":"Meilen","commune":{"key":"156","name":"Meilen","shortName":"Meilen"},"district":{"key":"107","name":"Bezirk Meilen"},"canton":{"key":"1","code":"ZH","name":"Zürich"},"status":"Real"},{"key":"10076366","name":"Dorfstrasse","postalCode":"8706","locality":"Meilen","commune":{"key":"156","name":"Meilen","shortName":"Meilen"},"district":{"key":"107","name":"Bezirk Meilen"},"canton":{"key":"1","code":"ZH","name":"Zürich"},"status":"Real"},{"key":"10002768","name":"Durststrasse","postalCode":"8706","locality":"Meilen","commune":{"key":"156","name":"Meilen","shortName":"Meilen"},"district":{"key":"107","name":"Bezirk Meilen"},"canton":{"key":"1","code":"ZH","name":"Zürich"},"status":"Real"},{"key":"10142461","name":"Durstweg","postalCode":"8706","locality":"Meilen","commune":{"key":"156","name":"Meilen","shortName":"Meilen"},"district":{"key":"107","name":"Bezirk Meilen"},"canton":{"key":"1","code":"ZH","name":"Zürich"},"status":"Real"},{"key":"10152657","name":"Eichhaldenstrasse","postalCode":"8706","locality":"Meilen","commune":{"key":"156","name":"Meilen","shortName":"Meilen"},"district":{"key":"107","name":"Bezirk Meilen"},"canton":{"key":"1","code":"ZH","name":"Zürich"},"status":"Real"},{"key":"10152658","name":"Eichhaldenweg","postalCode":"8706","locality":"Meilen","commune":{"key":"156","name":"Meilen","shortName":"Meilen"},"district":{"key":"107","name":"Bezirk Meilen"},"canton":{"key":"1","code":"ZH","name":"Zürich"},"status":"Real"},{"key":"10182640","name":"Eichholzstrasse","postalCode":"8706","locality":"Meilen","commune":{"key":"156","name":"Meilen","shortName":"Meilen"},"district":{"key":"107","name":"Bezirk Meilen"},"canton":{"key":"1","code":"ZH","name":"Zürich"},"status":"Real"},{"key":"10111465","name":"Eichholzweg","postalCode":"8706","locality":"Meilen","commune":{"key":"156","name":"Meilen","shortName":"Meilen"},"district":{"key":"107","name":"Bezirk Meilen"},"canton":{"key":"1","code":"ZH","name":"Zürich"},"status":"Real"},{"key":"10164115","name":"Erlenstrasse","postalCode":"8706","locality":"Meilen","commune":{"key":"156","name":"Meilen","shortName":"Meilen"},"district":{"key":"107","name":"Bezirk Meilen"},"canton":{"key":"1","code":"ZH","name":"Zürich"},"status":"Real"},{"key":"10117575","name":"Feldgüetliweg","postalCode":"8706","locality":"Meilen","commune":{"key":"156","name":"Meilen","shortName":"Meilen"},"district":{"key":"107","name":"Bezirk Meilen"},"canton":{"key":"1","code":"ZH","name":"Zürich"},"status":"Real"},{"key":"10002769","name":"Feldhofstrasse","postalCode":"8706","locality":"Meilen","commune":{"key":"156","name":"Meilen","shortName":"Meilen"},"district":{"key":"107","name":"Bezirk Meilen"},"canton":{"key":"1","code":"ZH","name":"Zürich"},"status":"Real"},{"key":"10248732","name":"Felsengrundstrasse","postalCode":"8706","locality":"Meilen","commune":{"key":"156","name":"Meilen","shortName":"Meilen"},"district":{"key":"107","name":"Bezirk Meilen"},"canton":{"key":"1","code":"ZH","name":"Zürich"},"status":"Real"},{"key":"10127326","name":"Forchstrasse","postalCode":"8706","locality":"Meilen","commune":{"key":"156","name":"Meilen","shortName":"Meilen"},"district":{"key":"107","name":"Bezirk Meilen"},"canton":{"key":"1","code":"ZH","name":"Zürich"},"status":"Real"},{"key":"10176912","name":"Frauenchammerweg","postalCode":"8706","locality":"Meilen","commune":{"key":"156","name":"Meilen","shortName":"Meilen"},"district":{"key":"107","name":"Bezirk Meilen"},"canton":{"key":"1","code":"ZH","name":"Zürich"},"status":"Real"},{"key":"10169342","name":"Geisshaldenweg","postalCode":"8706","locality":"Meilen","commune":{"key":"156","name":"Meilen","shortName":"Meilen"},"district":{"key":"107","name":"Bezirk Meilen"},"canton":{"key":"1","code":"ZH","name":"Zürich"},"status":"Real"},{"key":"10065682","name":"General-Wille-Strasse","postalCode":"8706","locality":"Meilen","commune":{"key":"156","name":"Meilen","shortName":"Meilen"},"district":{"key":"107","name":"Bezirk Meilen"},"canton":{"key":"1","code":"ZH","name":"Zürich"},"status":"Real"},{"key":"10127327","name":"Glarnerweg","postalCode":"8706","locality":"Meilen","commune":{"key":"156","name":"Meilen","shortName":"Meilen"},"district":{"key":"107","name":"Bezirk Meilen"},"canton":{"key":"1","code":"ZH","name":"Zürich"},"status":"Real"},{"key":"10076367","name":"Glärnischstrasse","postalCode":"8706","locality":"Meilen","commune":{"key":"156","name":"Meilen","shortName":"Meilen"},"district":{"key":"107","name":"Bezirk Meilen"},"canton":{"key":"1","code":"ZH","name":"Zürich"},"status":"Real"},{"key":"10002770","name":"Gruebstrasse","postalCode":"8706","locality":"Meilen","commune":{"key":"156","name":"Meilen","shortName":"Meilen"},"district":{"key":"107","name":"Bezirk Meilen"},"canton":{"key":"1","code":"ZH","name":"Zürich"},"status":"Real"},{"key":"10203928","name":"Gruebweg","postalCode":"8706","locality":"Meilen","commune":{"key":"156","name":"Meilen","shortName":"Meilen"},"district":{"key":"107","name":"Bezirk Meilen"},"canton":{"key":"1","code":"ZH","name":"Zürich"},"status":"Real"},{"key":"10248263","name":"Grütweg","postalCode":"8706","locality":"Meilen","commune":{"key":"156","name":"Meilen","shortName":"Meilen"},"district":{"key":"107","name":"Bezirk Meilen"},"canton":{"key":"1","code":"ZH","name":"Zürich"},"status":"Real"},{"key":"10052254","name":"Gubelsteig","postalCode":"8706","locality":"Meilen","commune":{"key":"156","name":"Meilen","shortName":"Meilen"},"district":{"key":"107","name":"Bezirk Meilen"},"canton":{"key":"1","code":"ZH","name":"Zürich"},"status":"Real"},{"key":"10154684","name":"Guldenerstrasse","postalCode":"8706","locality":"Meilen","commune":{"key":"156","name":"Meilen","shortName":"Meilen"},"district":{"key":"107","name":"Bezirk Meilen"},"canton":{"key":"1","code":"ZH","name":"Zürich"},"status":"Real"},{"key":"10245117","name":"Guldenerweg","postalCode":"8706","locality":"Meilen","commune":{"key":"156","name":"Meilen","shortName":"Meilen"},"district":{"key":"107","name":"Bezirk Meilen"},"canton":{"key":"1","code":"ZH","name":"Zürich"},"status":"Real"},{"key":"10002771","name":"Haldengässli","postalCode":"8706","locality":"Meilen","commune":{"key":"156","name":"Meilen","shortName":"Meilen"},"district":{"key":"107","name":"Bezirk Meilen"},"canton":{"key":"1","code":"ZH","name":"Zürich"},"status":"Real"},{"key":"10002772","name":"Haltenstrasse","postalCode":"8706","locality":"Meilen","commune":{"key":"156","name":"Meilen","shortName":"Meilen"},"district":{"key":"107","name":"Bezirk Meilen"},"canton":{"key":"1","code":"ZH","name":"Zürich"},"status":"Real"},{"key":"10128408","name":"Haltenweg","postalCode":"8706","locality":"Meilen","commune":{"key":"156","name":"Meilen","shortName":"Meilen"},"district":{"key":"107","name":"Bezirk Meilen"},"canton":{"key":"1","code":"ZH","name":"Zürich"},"status":"Real"},{"key":"10142462","name":"Harbisweg","postalCode":"8706","locality":"Meilen","commune":{"key":"156","name":"Meilen","shortName":"Meilen"},"district":{"key":"107","name":"Bezirk Meilen"},"canton":{"key":"1","code":"ZH","name":"Zürich"},"status":"Real"},{"key":"10120279","name":"Hasenlöchlistrasse","postalCode":"8706","locality":"Meilen","commune":{"key":"156","name":"Meilen","shortName":"Meilen"},"district":{"key":"107","name":"Bezirk Meilen"},"canton":{"key":"1","code":"ZH","name":"Zürich"},"status":"Real"},{"key":"10065683","name":"Heerenstrasse","postalCode":"8706","locality":"Meilen","commune":{"key":"156","name":"Meilen","shortName":"Meilen"},"district":{"key":"107","name":"Bezirk Meilen"},"canton":{"key":"1","code":"ZH","name":"Zürich"},"status":"Real"},{"key":"10002773","name":"Herrenweg","postalCode":"8706","locality":"Meilen","commune":{"key":"156","name":"Meilen","shortName":"Meilen"},"district":{"key":"107","name":"Bezirk Meilen"},"canton":{"key":"1","code":"ZH","name":"Zürich"},"status":"Real"},{"key":"10166754","name":"Hinterburgweg","postalCode":"8706","locality":"Meilen","commune":{"key":"156","name":"Meilen","shortName":"Meilen"},"district":{"key":"107","name":"Bezirk Meilen"},"canton":{"key":"1","code":"ZH","name":"Zürich"},"status":"Real"},{"key":"10248325","name":"Hinterer Hürnenfussweg","postalCode":"8706","locality":"Meilen","commune":{"key":"156","name":"Meilen","shortName":"Meilen"},"district":{"key":"107","name":"Bezirk Meilen"},"canton":{"key":"1","code":"ZH","name":"Zürich"},"status":"Real"},{"key":"10248328","name":"Hinterer Pfannenstiel","postalCode":"8706","locality":"Meilen","commune":{"key":"156","name":"Meilen","shortName":"Meilen"},"district":{"key":"107","name":"Bezirk Meilen"},"canton":{"key":"1","code":"ZH","name":"Zürich"},"status":"Real"},{"key":"10142463","name":"Hintere Runsstrasse","postalCode":"8706","locality":"Meilen","commune":{"key":"156","name":"Meilen","shortName":"Meilen"},"district":{"key":"107","name":"Bezirk Meilen"},"canton":{"key":"1","code":"ZH","name":"Zürich"},"status":"Real"},{"key":"10142464","name":"Hirzenbergstrasse","postalCode":"8706","locality":"Meilen","commune":{"key":"156","name":"Meilen","shortName":"Meilen"},"district":{"key":"107","name":"Bezirk Meilen"},"canton":{"key":"1","code":"ZH","name":"Zürich"},"status":"Real"},{"key":"10248356","name":"Hofstetterweg","postalCode":"8706","locality":"Meilen","commune":{"key":"156","name":"Meilen","shortName":"Meilen"},"district":{"key":"107","name":"Bezirk Meilen"},"canton":{"key":"1","code":"ZH","name":"Zürich"},"status":"Real"},{"key":"10248364","name":"Hohbrunnenweg","postalCode":"8706","locality":"Meilen","commune":{"key":"156","name":"Meilen","shortName":"Meilen"},"district":{"key":"107","name":"Bezirk Meilen"},"canton":{"key":"1","code":"ZH","name":"Zürich"},"status":"Real"},{"key":"10065684","name":"Hohenegg","postalCode":"8706","locality":"Meilen","commune":{"key":"156","name":"Meilen","shortName":"Meilen"},"district":{"key":"107","name":"Bezirk Meilen"},"canton":{"key":"1","code":"ZH","name":"Zürich"},"status":"Real"},{"key":"10142465","name":"Hohrütiweg","postalCode":"8706","locality":"Meilen","commune":{"key":"156","name":"Meilen","shortName":"Meilen"},"district":{"key":"107","name":"Bezirk Meilen"},"canton":{"key":"1","code":"ZH","name":"Zürich"},"status":"Real"},{"key":"10142466","name":"Holenweg","postalCode":"8706","locality":"Meilen","commune":{"key":"156","name":"Meilen","shortName":"Meilen"},"district":{"key":"107","name":"Bezirk Meilen"},"canton":{"key":"1","code":"ZH","name":"Zürich"},"status":"Real"},{"key":"10248396","name":"Holländerfussweg","postalCode":"8706","locality":"Meilen","commune":{"key":"156","name":"Meilen","shortName":"Meilen"},"district":{"key":"107","name":"Bezirk Meilen"},"canton":{"key":"1","code":"ZH","name":"Zürich"},"status":"Real"},{"key":"10002775","name":"Höschstrasse","postalCode":"8706","locality":"Meilen","commune":{"key":"156","name":"Meilen","shortName":"Meilen"},"district":{"key":"107","name":"Bezirk Meilen"},"canton":{"key":"1","code":"ZH","name":"Zürich"},"status":"Real"},{"key":"10002774","name":"Huderstweg","postalCode":"8706","locality":"Meilen","commune":{"key":"156","name":"Meilen","shortName":"Meilen"},"district":{"key":"107","name":"Bezirk Meilen"},"canton":{"key":"1","code":"ZH","name":"Zürich"},"status":"Real"},{"key":"10176913","name":"Humrigenstrasse","postalCode":"8706","locality":"Meilen","commune":{"key":"156","name":"Meilen","shortName":"Meilen"},"district":{"key":"107","name":"Bezirk Meilen"},"canton":{"key":"1","code":"ZH","name":"Zürich"},"status":"Real"},{"key":"10065685","name":"Hüniweg","postalCode":"8706","locality":"Meilen","commune":{"key":"156","name":"Meilen","shortName":"Meilen"},"district":{"key":"107","name":"Bezirk Meilen"},"canton":{"key":"1","code":"ZH","name":"Zürich"},"status":"Real"},{"key":"10248456","name":"Hürnenfussweg","postalCode":"8706","locality":"Meilen","commune":{"key":"156","name":"Meilen","shortName":"Meilen"},"district":{"key":"107","name":"Bezirk Meilen"},"canton":{"key":"1","code":"ZH","name":"Zürich"},"status":"Real"},{"key":"10142467","name":"Hüttenfussweg","postalCode":"8706","locality":"Meilen","commune":{"key":"156","name":"Meilen","shortName":"Meilen"},"district":{"key":"107","name":"Bezirk Meilen"},"canton":{"key":"1","code":"ZH","name":"Zürich"},"status":"Real"},{"key":"10076368","name":"Im Chrummacher","postalCode":"8706","locality":"Meilen","commune":{"key":"156","name":"Meilen","shortName":"Meilen"},"district":{"key":"107","name":"Bezirk Meilen"},"canton":{"key":"1","code":"ZH","name":"Zürich"},"status":"Real"},{"key":"10002776","name":"Im Dörfli","postalCode":"8706","locality":"Meilen","commune":{"key":"156","name":"Meilen","shortName":"Meilen"},"district":{"key":"107","name":"Bezirk Meilen"},"canton":{"key":"1","code":"ZH","name":"Zürich"},"status":"Real"},{"key":"10111466","name":"Im Grüt","postalCode":"8706","locality":"Meilen","commune":{"key":"156","name":"Meilen","shortName":"Meilen"},"district":{"key":"107","name":"Bezirk Meilen"},"canton":{"key":"1","code":"ZH","name":"Zürich"},"status":"Real"},{"key":"10065686","name":"Im Gubel","postalCode":"8706","locality":"Meilen","commune":{"key":"156","name":"Meilen","shortName":"Meilen"},"district":{"key":"107","name":"Bezirk Meilen"},"canton":{"key":"1","code":"ZH","name":"Zürich"},"status":"Real"},{"key":"10076636","name":"Im Hausacher","postalCode":"8706","locality":"Meilen","commune":{"key":"156","name":"Meilen","shortName":"Meilen"},"district":{"key":"107","name":"Bezirk Meilen"},"canton":{"key":"1","code":"ZH","name":"Zürich"},"status":"Real"},{"key":"10002777","name":"Im Höchlig","postalCode":"8706","locality":"Meilen","commune":{"key":"156","name":"Meilen","shortName":"Meilen"},"district":{"key":"107","name":"Bezirk Meilen"},"canton":{"key":"1","code":"ZH","name":"Zürich"},"status":"Real"},{"key":"10065687","name":"Im Holländer","postalCode":"8706","locality":"Meilen","commune":{"key":"156","name":"Meilen","shortName":"Meilen"},"district":{"key":"107","name":"Bezirk Meilen"},"canton":{"key":"1","code":"ZH","name":"Zürich"},"status":"Real"},{"key":"10002778","name":"Im Hölzli","postalCode":"8706","locality":"Meilen","commune":{"key":"156","name":"Meilen","shortName":"Meilen"},"district":{"key":"107","name":"Bezirk Meilen"},"canton":{"key":"1","code":"ZH","name":"Zürich"},"status":"Real"},{"key":"10002779","name":"Im Koller","postalCode":"8706","locality":"Meilen","commune":{"key":"156","name":"Meilen","shortName":"Meilen"},"district":{"key":"107","name":"Bezirk Meilen"},"canton":{"key":"1","code":"ZH","name":"Zürich"},"status":"Real"},{"key":"10076637","name":"Im Rotholz","postalCode":"8706","locality":"Meilen","commune":{"key":"156","name":"Meilen","shortName":"Meilen"},"district":{"key":"107","name":"Bezirk Meilen"},"canton":{"key":"1","code":"ZH","name":"Zürich"},"status":"Real"},{"key":"10002780","name":"Im Schönacher","postalCode":"8706","locality":"Meilen","commune":{"key":"156","name":"Meilen","shortName":"Meilen"},"district":{"key":"107","name":"Bezirk Meilen"},"canton":{"key":"1","code":"ZH","name":"Zürich"},"status":"Real"},{"key":"10002781","name":"Im Tobel","postalCode":"8706","locality":"Meilen","commune":{"key":"156","name":"Meilen","shortName":"Meilen"},"district":{"key":"107","name":"Bezirk Meilen"},"canton":{"key":"1","code":"ZH","name":"Zürich"},"status":"Real"},{"key":"10076638","name":"Im Veltlin","postalCode":"8706","locality":"Meilen","commune":{"key":"156","name":"Meilen","shortName":"Meilen"},"district":{"key":"107","name":"Bezirk Meilen"},"canton":{"key":"1","code":"ZH","name":"Zürich"},"status":"Real"},{"key":"10176914","name":"In der Appenhalten","postalCode":"8706","locality":"Meilen","commune":{"key":"156","name":"Meilen","shortName":"Meilen"},"district":{"key":"107","name":"Bezirk Meilen"},"canton":{"key":"1","code":"ZH","name":"Zürich"},"status":"Real"},{"key":"10002782","name":"In der Au","postalCode":"8706","locality":"Meilen","commune":{"key":"156","name":"Meilen","shortName":"Meilen"},"district":{"key":"107","name":"Bezirk Meilen"},"canton":{"key":"1","code":"ZH","name":"Zürich"},"status":"Real"},{"key":"10180237","name":"In der Bettenen","postalCode":"8706","locality":"Meilen","commune":{"key":"156","name":"Meilen","shortName":"Meilen"},"district":{"key":"107","name":"Bezirk Meilen"},"canton":{"key":"1","code":"ZH","name":"Zürich"},"status":"Real"},{"key":"10142468","name":"Jakob-Ess-Weg","postalCode":"8706","locality":"Meilen","commune":{"key":"156","name":"Meilen","shortName":"Meilen"},"district":{"key":"107","name":"Bezirk Meilen"},"canton":{"key":"1","code":"ZH","name":"Zürich"},"status":"Real"},{"key":"10169193","name":"Johannes-Aeppli-Strasse","postalCode":"8706","locality":"Meilen","commune":{"key":"156","name":"Meilen","shortName":"Meilen"},"district":{"key":"107","name":"Bezirk Meilen"},"canton":{"key":"1","code":"ZH","name":"Zürich"},"status":"Real"},{"key":"10076639","name":"Justrain","postalCode":"8706","locality":"Meilen","commune":{"key":"156","name":"Meilen","shortName":"Meilen"},"district":{"key":"107","name":"Bezirk Meilen"},"canton":{"key":"1","code":"ZH","name":"Zürich"},"status":"Real"},{"key":"10120280","name":"Juststrasse","postalCode":"8706","locality":"Meilen","commune":{"key":"156","name":"Meilen","shortName":"Meilen"},"district":{"key":"107","name":"Bezirk Meilen"},"canton":{"key":"1","code":"ZH","name":"Zürich"},"status":"Real"},{"key":"10111467","name":"Kirchgasse","postalCode":"8706","locality":"Meilen","commune":{"key":"156","name":"Meilen","shortName":"Meilen"},"district":{"key":"107","name":"Bezirk Meilen"},"canton":{"key":"1","code":"ZH","name":"Zürich"},"status":"Real"},{"key":"10142469","name":"Kirchweg","postalCode":"8706","locality":"Meilen","commune":{"key":"156","name":"Meilen","shortName":"Meilen"},"district":{"key":"107","name":"Bezirk Meilen"},"canton":{"key":"1","code":"ZH","name":"Zürich"},"status":"Real"},{"key":"10248568","name":"Klösterlifussweg","postalCode":"8706","locality":"Meilen","commune":{"key":"156","name":"Meilen","shortName":"Meilen"},"district":{"key":"107","name":"Bezirk Meilen"},"canton":{"key":"1","code":"ZH","name":"Zürich"},"status":"Real"},{"key":"10182641","name":"Kluserweg","postalCode":"8706","locality":"Meilen","commune":{"key":"156","name":"Meilen","shortName":"Meilen"},"district":{"key":"107","name":"Bezirk Meilen"},"canton":{"key":"1","code":"ZH","name":"Zürich"},"status":"Real"},{"key":"10189228","name":"Knabenhansweg","postalCode":"8706","locality":"Meilen","commune":{"key":"156","name":"Meilen","shortName":"Meilen"},"district":{"key":"107","name":"Bezirk Meilen"},"canton":{"key":"1","code":"ZH","name":"Zürich"},"status":"Real"},{"key":"10149891","name":"Kolhopperstrasse","postalCode":"8706","locality":"Meilen","commune":{"key":"156","name":"Meilen","shortName":"Meilen"},"district":{"key":"107","name":"Bezirk Meilen"},"canton":{"key":"1","code":"ZH","name":"Zürich"},"status":"Real"},{"key":"10149892","name":"Korporationsweg","postalCode":"8706","locality":"Meilen","commune":{"key":"156","name":"Meilen","shortName":"Meilen"},"district":{"key":"107","name":"Bezirk Meilen"},"canton":{"key":"1","code":"ZH","name":"Zürich"},"status":"Real"},{"key":"10149893","name":"Kübler-Ross-Strasse","postalCode":"8706","locality":"Meilen","commune":{"key":"156","name":"Meilen","shortName":"Meilen"},"district":{"key":"107","name":"Bezirk Meilen"},"canton":{"key":"1","code":"ZH","name":"Zürich"},"status":"Real"},{"key":"10141076","name":"Kühgasse","postalCode":"8706","locality":"Meilen","commune":{"key":"156","name":"Meilen","shortName":"Meilen"},"district":{"key":"107","name":"Bezirk Meilen"},"canton":{"key":"1","code":"ZH","name":"Zürich"},"status":"Real"},{"key":"10002783","name":"Lämmliweg","postalCode":"8706","locality":"Meilen","commune":{"key":"156","name":"Meilen","shortName":"Meilen"},"district":{"key":"107","name":"Bezirk Meilen"},"canton":{"key":"1","code":"ZH","name":"Zürich"},"status":"Real"},{"key":"10002784","name":"Ländischstrasse","postalCode":"8706","locality":"Meilen","commune":{"key":"156","name":"Meilen","shortName":"Meilen"},"district":{"key":"107","name":"Bezirk Meilen"},"canton":{"key":"1","code":"ZH","name":"Zürich"},"status":"Real"},{"key":"10150424","name":"Lölistrasse","postalCode":"8706","locality":"Meilen","commune":{"key":"156","name":"Meilen","shortName":"Meilen"},"district":{"key":"107","name":"Bezirk Meilen"},"canton":{"key":"1","code":"ZH","name":"Zürich"},"status":"Real"},{"key":"10172257","name":"Luftstrasse","postalCode":"8706","locality":"Meilen","commune":{"key":"156","name":"Meilen","shortName":"Meilen"},"district":{"key":"107","name":"Bezirk Meilen"},"canton":{"key":"1","code":"ZH","name":"Zürich"},"status":"Real"},{"key":"10065688","name":"Lütisämetstrasse","postalCode":"8706","locality":"Meilen","commune":{"key":"156","name":"Meilen","shortName":"Meilen"},"district":{"key":"107","name":"Bezirk Meilen"},"canton":{"key":"1","code":"ZH","name":"Zürich"},"status":"Real"},{"key":"10141078","name":"Lütisämetweg","postalCode":"8706","locality":"Meilen","commune":{"key":"156","name":"Meilen","shortName":"Meilen"},"district":{"key":"107","name":"Bezirk Meilen"},"canton":{"key":"1","code":"ZH","name":"Zürich"},"status":"Real"},{"key":"10252540","name":"Marktgasse","postalCode":"8706","locality":"Meilen","commune":{"key":"156","name":"Meilen","shortName":"Meilen"},"district":{"key":"107","name":"Bezirk Meilen"},"canton":{"key":"1","code":"ZH","name":"Zürich"},"status":"Real"},{"key":"10160290","name":"Mittelbergstrasse","postalCode":"8706","locality":"Meilen","commune":{"key":"156","name":"Meilen","shortName":"Meilen"},"district":{"key":"107","name":"Bezirk Meilen"},"canton":{"key":"1","code":"ZH","name":"Zürich"},"status":"Real"},{"key":"10076640","name":"Mühlerain","postalCode":"8706","locality":"Meilen","commune":{"key":"156","name":"Meilen","shortName":"Meilen"},"district":{"key":"107","name":"Bezirk Meilen"},"canton":{"key":"1","code":"ZH","name":"Zürich"},"status":"Real"},{"key":"10248762","name":"Müliholzweg","postalCode":"8706","locality":"Meilen","commune":{"key":"156","name":"Meilen","shortName":"Meilen"},"district":{"key":"107","name":"Bezirk Meilen"},"canton":{"key":"1","code":"ZH","name":"Zürich"},"status":"Real"},{"key":"10141079","name":"Münzhofweg","postalCode":"8706","locality":"Meilen","commune":{"key":"156","name":"Meilen","shortName":"Meilen"},"district":{"key":"107","name":"Bezirk Meilen"},"canton":{"key":"1","code":"ZH","name":"Zürich"},"status":"Real"},{"key":"10002785","name":"Nadelstrasse","postalCode":"8706","locality":"Meilen","commune":{"key":"156","name":"Meilen","shortName":"Meilen"},"district":{"key":"107","name":"Bezirk Meilen"},"canton":{"key":"1","code":"ZH","name":"Zürich"},"status":"Real"},{"key":"10141080","name":"Neue Korporationsstrasse","postalCode":"8706","locality":"Meilen","commune":{"key":"156","name":"Meilen","shortName":"Meilen"},"district":{"key":"107","name":"Bezirk Meilen"},"canton":{"key":"1","code":"ZH","name":"Zürich"},"status":"Real"},{"key":"10076641","name":"Neuwiesenstrasse","postalCode":"8706","locality":"Meilen","commune":{"key":"156","name":"Meilen","shortName":"Meilen"},"district":{"key":"107","name":"Bezirk Meilen"},"canton":{"key":"1","code":"ZH","name":"Zürich"},"status":"Real"},{"key":"10245750","name":"Oberdorffussweg","postalCode":"8706","locality":"Meilen","commune":{"key":"156","name":"Meilen","shortName":"Meilen"},"district":{"key":"107","name":"Bezirk Meilen"},"canton":{"key":"1","code":"ZH","name":"Zürich"},"status":"Real"},{"key":"10002786","name":"Obere Kirchgasse","postalCode":"8706","locality":"Meilen","commune":{"key":"156","name":"Meilen","shortName":"Meilen"},"district":{"key":"107","name":"Bezirk Meilen"},"canton":{"key":"1","code":"ZH","name":"Zürich"},"status":"Real"},{"key":"10141081","name":"Oberer Bergweidweg","postalCode":"8706","locality":"Meilen","commune":{"key":"156","name":"Meilen","shortName":"Meilen"},"district":{"key":"107","name":"Bezirk Meilen"},"canton":{"key":"1","code":"ZH","name":"Zürich"},"status":"Real"},{"key":"10002787","name":"Ormisrain","postalCode":"8706","locality":"Meilen","commune":{"key":"156","name":"Meilen","shortName":"Meilen"},"district":{"key":"107","name":"Bezirk Meilen"},"canton":{"key":"1","code":"ZH","name":"Zürich"},"status":"Real"},{"key":"10105424","name":"Ormissteig","postalCode":"8706","locality":"Meilen","commune":{"key":"156","name":"Meilen","shortName":"Meilen"},"district":{"key":"107","name":"Bezirk Meilen"},"canton":{"key":"1","code":"ZH","name":"Zürich"},"status":"Real"},{"key":"10002788","name":"Ormisstrasse","postalCode":"8706","locality":"Meilen","commune":{"key":"156","name":"Meilen","shortName":"Meilen"},"district":{"key":"107","name":"Bezirk Meilen"},"canton":{"key":"1","code":"ZH","name":"Zürich"},"status":"Real"},{"key":"10076642","name":"Pestalozziweg","postalCode":"8706","locality":"Meilen","commune":{"key":"156","name":"Meilen","shortName":"Meilen"},"district":{"key":"107","name":"Bezirk Meilen"},"canton":{"key":"1","code":"ZH","name":"Zürich"},"status":"Real"},{"key":"10117637","name":"Pfannenstielstrasse","postalCode":"8706","locality":"Meilen","commune":{"key":"156","name":"Meilen","shortName":"Meilen"},"district":{"key":"107","name":"Bezirk Meilen"},"canton":{"key":"1","code":"ZH","name":"Zürich"},"status":"Real"},{"key":"10176915","name":"Pfarrhausgasse","postalCode":"8706","locality":"Meilen","commune":{"key":"156","name":"Meilen","shortName":"Meilen"},"district":{"key":"107","name":"Bezirk Meilen"},"canton":{"key":"1","code":"ZH","name":"Zürich"},"status":"Real"},{"key":"10002789","name":"Plattenstrasse","postalCode":"8706","locality":"Meilen","commune":{"key":"156","name":"Meilen","shortName":"Meilen"},"district":{"key":"107","name":"Bezirk Meilen"},"canton":{"key":"1","code":"ZH","name":"Zürich"},"status":"Real"},{"key":"10166320","name":"Püntenstrasse","postalCode":"8706","locality":"Meilen","commune":{"key":"156","name":"Meilen","shortName":"Meilen"},"district":{"key":"107","name":"Bezirk Meilen"},"canton":{"key":"1","code":"ZH","name":"Zürich"},"status":"Real"},{"key":"10248881","name":"Rainfussweg","postalCode":"8706","locality":"Meilen","commune":{"key":"156","name":"Meilen","shortName":"Meilen"},"district":{"key":"107","name":"Bezirk Meilen"},"canton":{"key":"1","code":"ZH","name":"Zürich"},"status":"Real"},{"key":"10181938","name":"Raingässli","postalCode":"8706","locality":"Meilen","commune":{"key":"156","name":"Meilen","shortName":"Meilen"},"district":{"key":"107","name":"Bezirk Meilen"},"canton":{"key":"1","code":"ZH","name":"Zürich"},"status":"Real"},{"key":"10002790","name":"Rainstrasse","postalCode":"8706","locality":"Meilen","commune":{"key":"156","name":"Meilen","shortName":"Meilen"},"district":{"key":"107","name":"Bezirk Meilen"},"canton":{"key":"1","code":"ZH","name":"Zürich"},"status":"Real"},{"key":"10141082","name":"Rappentobelweg","postalCode":"8706","locality":"Meilen","commune":{"key":"156","name":"Meilen","shortName":"Meilen"},"district":{"key":"107","name":"Bezirk Meilen"},"canton":{"key":"1","code":"ZH","name":"Zürich"},"status":"Real"},{"key":"10002791","name":"Rauchgässli","postalCode":"8706","locality":"Meilen","commune":{"key":"156","name":"Meilen","shortName":"Meilen"},"district":{"key":"107","name":"Bezirk Meilen"},"canton":{"key":"1","code":"ZH","name":"Zürich"},"status":"Real"},{"key":"10065689","name":"Rebbergstrasse","postalCode":"8706","locality":"Meilen","commune":{"key":"156","name":"Meilen","shortName":"Meilen"},"district":{"key":"107","name":"Bezirk Meilen"},"canton":{"key":"1","code":"ZH","name":"Zürich"},"status":"Real"},{"key":"10120281","name":"Rebweg","postalCode":"8706","locality":"Meilen","commune":{"key":"156","name":"Meilen","shortName":"Meilen"},"district":{"key":"107","name":"Bezirk Meilen"},"canton":{"key":"1","code":"ZH","name":"Zürich"},"status":"Real"},{"key":"10141083","name":"Reservoirweg","postalCode":"8706","locality":"Meilen","commune":{"key":"156","name":"Meilen","shortName":"Meilen"},"district":{"key":"107","name":"Bezirk Meilen"},"canton":{"key":"1","code":"ZH","name":"Zürich"},"status":"Real"},{"key":"10168684","name":"Rietliweg","postalCode":"8706","locality":"Meilen","commune":{"key":"156","name":"Meilen","shortName":"Meilen"},"district":{"key":"107","name":"Bezirk Meilen"},"canton":{"key":"1","code":"ZH","name":"Zürich"},"status":"Real"},{"key":"10002792","name":"Risiweg","postalCode":"8706","locality":"Meilen","commune":{"key":"156","name":"Meilen","shortName":"Meilen"},"district":{"key":"107","name":"Bezirk Meilen"},"canton":{"key":"1","code":"ZH","name":"Zürich"},"status":"Real"},{"key":"10141084","name":"Rorenstrasse","postalCode":"8706","locality":"Meilen","commune":{"key":"156","name":"Meilen","shortName":"Meilen"},"district":{"key":"107","name":"Bezirk Meilen"},"canton":{"key":"1","code":"ZH","name":"Zürich"},"status":"Real"},{"key":"10076643","name":"Rosengartenstrasse","postalCode":"8706","locality":"Meilen","commune":{"key":"156","name":"Meilen","shortName":"Meilen"},"district":{"key":"107","name":"Bezirk Meilen"},"canton":{"key":"1","code":"ZH","name":"Zürich"},"status":"Real"},{"key":"10141085","name":"Rossbrunnenweg","postalCode":"8706","locality":"Meilen","commune":{"key":"156","name":"Meilen","shortName":"Meilen"},"district":{"key":"107","name":"Bezirk Meilen"},"canton":{"key":"1","code":"ZH","name":"Zürich"},"status":"Real"},{"key":"10248327","name":"Rossweidweg","postalCode":"8706","locality":"Meilen","commune":{"key":"156","name":"Meilen","shortName":"Meilen"},"district":{"key":"107","name":"Bezirk Meilen"},"canton":{"key":"1","code":"ZH","name":"Zürich"},"status":"Real"},{"key":"10111468","name":"Ruebsteinstrasse","postalCode":"8706","locality":"Meilen","commune":{"key":"156","name":"Meilen","shortName":"Meilen"},"district":{"key":"107","name":"Bezirk Meilen"},"canton":{"key":"1","code":"ZH","name":"Zürich"},"status":"Real"},{"key":"10248342","name":"Ruebsteinweg","postalCode":"8706","locality":"Meilen","commune":{"key":"156","name":"Meilen","shortName":"Meilen"},"district":{"key":"107","name":"Bezirk Meilen"},"canton":{"key":"1","code":"ZH","name":"Zürich"},"status":"Real"},{"key":"10197180","name":"Säglenweg","postalCode":"8706","locality":"Meilen","commune":{"key":"156","name":"Meilen","shortName":"Meilen"},"district":{"key":"107","name":"Bezirk Meilen"},"canton":{"key":"1","code":"ZH","name":"Zürich"},"status":"Real"},{"key":"10105425","name":"Schiltrain","postalCode":"8706","locality":"Meilen","commune":{"key":"156","name":"Meilen","shortName":"Meilen"},"district":{"key":"107","name":"Bezirk Meilen"},"canton":{"key":"1","code":"ZH","name":"Zürich"},"status":"Real"},{"key":"10248577","name":"Schlagweg","postalCode":"8706","locality":"Meilen","commune":{"key":"156","name":"Meilen","shortName":"Meilen"},"district":{"key":"107","name":"Bezirk Meilen"},"canton":{"key":"1","code":"ZH","name":"Zürich"},"status":"Real"},{"key":"10141086","name":"Schmitteneichstrasse","postalCode":"8706","locality":"Meilen","commune":{"key":"156","name":"Meilen","shortName":"Meilen"},"district":{"key":"107","name":"Bezirk Meilen"},"canton":{"key":"1","code":"ZH","name":"Zürich"},"status":"Real"},{"key":"10153150","name":"Schönacherfussweg","postalCode":"8706","locality":"Meilen","commune":{"key":"156","name":"Meilen","shortName":"Meilen"},"district":{"key":"107","name":"Bezirk Meilen"},"canton":{"key":"1","code":"ZH","name":"Zürich"},"status":"Real"},{"key":"10171516","name":"Schönacherstrasse","postalCode":"8706","locality":"Meilen","commune":{"key":"156","name":"Meilen","shortName":"Meilen"},"district":{"key":"107","name":"Bezirk Meilen"},"canton":{"key":"1","code":"ZH","name":"Zürich"},"status":"Real"},{"key":"10176916","name":"Schulhausstrasse","postalCode":"8706","locality":"Meilen","commune":{"key":"156","name":"Meilen","shortName":"Meilen"},"district":{"key":"107","name":"Bezirk Meilen"},"canton":{"key":"1","code":"ZH","name":"Zürich"},"status":"Real"},{"key":"10076644","name":"Schulweg","postalCode":"8706","locality":"Meilen","commune":{"key":"156","name":"Meilen","shortName":"Meilen"},"district":{"key":"107","name":"Bezirk Meilen"},"canton":{"key":"1","code":"ZH","name":"Zürich"},"status":"Real"},{"key":"10065690","name":"Schumbelstrasse","postalCode":"8706","locality":"Meilen","commune":{"key":"156","name":"Meilen","shortName":"Meilen"},"district":{"key":"107","name":"Bezirk Meilen"},"canton":{"key":"1","code":"ZH","name":"Zürich"},"status":"Real"},{"key":"10149894","name":"Schützenhausstrasse","postalCode":"8706","locality":"Meilen","commune":{"key":"156","name":"Meilen","shortName":"Meilen"},"district":{"key":"107","name":"Bezirk Meilen"},"canton":{"key":"1","code":"ZH","name":"Zürich"},"status":"Real"},{"key":"10002793","name":"Schwabachstrasse","postalCode":"8706","locality":"Meilen","commune":{"key":"156","name":"Meilen","shortName":"Meilen"},"district":{"key":"107","name":"Bezirk Meilen"},"canton":{"key":"1","code":"ZH","name":"Zürich"},"status":"Real"},{"key":"10248645","name":"Seefussweg","postalCode":"8706","locality":"Meilen","commune":{"key":"156","name":"Meilen","shortName":"Meilen"},"district":{"key":"107","name":"Bezirk Meilen"},"canton":{"key":"1","code":"ZH","name":"Zürich"},"status":"Real"},{"key":"10186721","name":"Seehaldenweg","postalCode":"8706","locality":"Meilen","commune":{"key":"156","name":"Meilen","shortName":"Meilen"},"district":{"key":"107","name":"Bezirk Meilen"},"canton":{"key":"1","code":"ZH","name":"Zürich"},"status":"Real"},{"key":"10002794","name":"Seestrasse","postalCode":"8706","locality":"Meilen","commune":{"key":"156","name":"Meilen","shortName":"Meilen"},"district":{"key":"107","name":"Bezirk Meilen"},"canton":{"key":"1","code":"ZH","name":"Zürich"},"status":"Real"},{"key":"10076645","name":"Seidengasse","postalCode":"8706","locality":"Meilen","commune":{"key":"156","name":"Meilen","shortName":"Meilen"},"district":{"key":"107","name":"Bezirk Meilen"},"canton":{"key":"1","code":"ZH","name":"Zürich"},"status":"Real"},{"key":"10245754","name":"Sonnenfussweg","postalCode":"8706","locality":"Meilen","commune":{"key":"156","name":"Meilen","shortName":"Meilen"},"district":{"key":"107","name":"Bezirk Meilen"},"canton":{"key":"1","code":"ZH","name":"Zürich"},"status":"Real"},{"key":"10144961","name":"Stämpfiweg","postalCode":"8706","locality":"Meilen","commune":{"key":"156","name":"Meilen","shortName":"Meilen"},"district":{"key":"107","name":"Bezirk Meilen"},"canton":{"key":"1","code":"ZH","name":"Zürich"},"status":"Real"},{"key":"10134539","name":"Steinacherstrasse","postalCode":"8706","locality":"Meilen","commune":{"key":"156","name":"Meilen","shortName":"Meilen"},"district":{"key":"107","name":"Bezirk Meilen"},"canton":{"key":"1","code":"ZH","name":"Zürich"},"status":"Real"},{"key":"10134255","name":"Steinbrüchelstrasse","postalCode":"8706","locality":"Meilen","commune":{"key":"156","name":"Meilen","shortName":"Meilen"},"district":{"key":"107","name":"Bezirk Meilen"},"canton":{"key":"1","code":"ZH","name":"Zürich"},"status":"Real"},{"key":"10149895","name":"Stelliweg","postalCode":"8706","locality":"Meilen","commune":{"key":"156","name":"Meilen","shortName":"Meilen"},"district":{"key":"107","name":"Bezirk Meilen"},"canton":{"key":"1","code":"ZH","name":"Zürich"},"status":"Real"},{"key":"10121808","name":"Stelzenstrasse","postalCode":"8706","locality":"Meilen","commune":{"key":"156","name":"Meilen","shortName":"Meilen"},"district":{"key":"107","name":"Bezirk Meilen"},"canton":{"key":"1","code":"ZH","name":"Zürich"},"status":"Real"},{"key":"10148706","name":"Stelzenweg","postalCode":"8706","locality":"Meilen","commune":{"key":"156","name":"Meilen","shortName":"Meilen"},"district":{"key":"107","name":"Bezirk Meilen"},"canton":{"key":"1","code":"ZH","name":"Zürich"},"status":"Real"},{"key":"10054529","name":"Sterneggweg","postalCode":"8706","locality":"Meilen","commune":{"key":"156","name":"Meilen","shortName":"Meilen"},"district":{"key":"107","name":"Bezirk Meilen"},"canton":{"key":"1","code":"ZH","name":"Zürich"},"status":"Real"},{"key":"10149896","name":"Stierengasse","postalCode":"8706","locality":"Meilen","commune":{"key":"156","name":"Meilen","shortName":"Meilen"},"district":{"key":"107","name":"Bezirk Meilen"},"canton":{"key":"1","code":"ZH","name":"Zürich"},"status":"Real"},{"key":"10248701","name":"Stocklenfussweg","postalCode":"8706","locality":"Meilen","commune":{"key":"156","name":"Meilen","shortName":"Meilen"},"district":{"key":"107","name":"Bezirk Meilen"},"canton":{"key":"1","code":"ZH","name":"Zürich"},"status":"Real"},{"key":"10002795","name":"Stocklenweg","postalCode":"8706","locality":"Meilen","commune":{"key":"156","name":"Meilen","shortName":"Meilen"},"district":{"key":"107","name":"Bezirk Meilen"},"canton":{"key":"1","code":"ZH","name":"Zürich"},"status":"Real"},{"key":"10149897","name":"Stollenstrasse","postalCode":"8706","locality":"Meilen","commune":{"key":"156","name":"Meilen","shortName":"Meilen"},"district":{"key":"107","name":"Bezirk Meilen"},"canton":{"key":"1","code":"ZH","name":"Zürich"},"status":"Real"},{"key":"10248750","name":"Stollenweg","postalCode":"8706","locality":"Meilen","commune":{"key":"156","name":"Meilen","shortName":"Meilen"},"district":{"key":"107","name":"Bezirk Meilen"},"canton":{"key":"1","code":"ZH","name":"Zürich"},"status":"Real"},{"key":"10149898","name":"Stollenwisweg","postalCode":"8706","locality":"Meilen","commune":{"key":"156","name":"Meilen","shortName":"Meilen"},"district":{"key":"107","name":"Bezirk Meilen"},"canton":{"key":"1","code":"ZH","name":"Zürich"},"status":"Real"},{"key":"10141087","name":"Stuckistrasse","postalCode":"8706","locality":"Meilen","commune":{"key":"156","name":"Meilen","shortName":"Meilen"},"district":{"key":"107","name":"Bezirk Meilen"},"canton":{"key":"1","code":"ZH","name":"Zürich"},"status":"Real"},{"key":"10149899","name":"Stuckiweg","postalCode":"8706","locality":"Meilen","commune":{"key":"156","name":"Meilen","shortName":"Meilen"},"district":{"key":"107","name":"Bezirk Meilen"},"canton":{"key":"1","code":"ZH","name":"Zürich"},"status":"Real"},{"key":"10248247","name":"Teienfussweg","postalCode":"8706","locality":"Meilen","commune":{"key":"156","name":"Meilen","shortName":"Meilen"},"district":{"key":"107","name":"Bezirk Meilen"},"canton":{"key":"1","code":"ZH","name":"Zürich"},"status":"Real"},{"key":"10117576","name":"Teienstrasse","postalCode":"8706","locality":"Meilen","commune":{"key":"156","name":"Meilen","shortName":"Meilen"},"district":{"key":"107","name":"Bezirk Meilen"},"canton":{"key":"1","code":"ZH","name":"Zürich"},"status":"Real"},{"key":"10054530","name":"Teienweg","postalCode":"8706","locality":"Meilen","commune":{"key":"156","name":"Meilen","shortName":"Meilen"},"district":{"key":"107","name":"Bezirk Meilen"},"canton":{"key":"1","code":"ZH","name":"Zürich"},"status":"Real"},{"key":"10248300","name":"Tobelfussweg","postalCode":"8706","locality":"Meilen","commune":{"key":"156","name":"Meilen","shortName":"Meilen"},"district":{"key":"107","name":"Bezirk Meilen"},"canton":{"key":"1","code":"ZH","name":"Zürich"},"status":"Real"},{"key":"10002796","name":"Tobelweg","postalCode":"8706","locality":"Meilen","commune":{"key":"156","name":"Meilen","shortName":"Meilen"},"district":{"key":"107","name":"Bezirk Meilen"},"canton":{"key":"1","code":"ZH","name":"Zürich"},"status":"Real"},{"key":"10002797","name":"Toggwil","postalCode":"8706","locality":"Meilen","commune":{"key":"156","name":"Meilen","shortName":"Meilen"},"district":{"key":"107","name":"Bezirk Meilen"},"canton":{"key":"1","code":"ZH","name":"Zürich"},"status":"Real"},{"key":"10054531","name":"Toggwilerstrasse","postalCode":"8706","locality":"Meilen","commune":{"key":"156","name":"Meilen","shortName":"Meilen"},"district":{"key":"107","name":"Bezirk Meilen"},"canton":{"key":"1","code":"ZH","name":"Zürich"},"status":"Real"},{"key":"10170489","name":"Toggwilerweg","postalCode":"8706","locality":"Meilen","commune":{"key":"156","name":"Meilen","shortName":"Meilen"},"district":{"key":"107","name":"Bezirk Meilen"},"canton":{"key":"1","code":"ZH","name":"Zürich"},"status":"Real"},{"key":"10248851","name":"Tränkeweg","postalCode":"8706","locality":"Meilen","commune":{"key":"156","name":"Meilen","shortName":"Meilen"},"district":{"key":"107","name":"Bezirk Meilen"},"canton":{"key":"1","code":"ZH","name":"Zürich"},"status":"Real"},{"key":"10245756","name":"Trünggelerfussweg","postalCode":"8706","locality":"Meilen","commune":{"key":"156","name":"Meilen","shortName":"Meilen"},"district":{"key":"107","name":"Bezirk Meilen"},"canton":{"key":"1","code":"ZH","name":"Zürich"},"status":"Real"},{"key":"10149900","name":"Tuntelenfussweg","postalCode":"8706","locality":"Meilen","commune":{"key":"156","name":"Meilen","shortName":"Meilen"},"district":{"key":"107","name":"Bezirk Meilen"},"canton":{"key":"1","code":"ZH","name":"Zürich"},"status":"Real"},{"key":"10065691","name":"Unot","postalCode":"8706","locality":"Meilen","commune":{"key":"156","name":"Meilen","shortName":"Meilen"},"district":{"key":"107","name":"Bezirk Meilen"},"canton":{"key":"1","code":"ZH","name":"Zürich"},"status":"Real"},{"key":"10120282","name":"Untere Bruech","postalCode":"8706","locality":"Meilen","commune":{"key":"156","name":"Meilen","shortName":"Meilen"},"district":{"key":"107","name":"Bezirk Meilen"},"canton":{"key":"1","code":"ZH","name":"Zürich"},"status":"Real"},{"key":"10147862","name":"Unterer Bergweidweg","postalCode":"8706","locality":"Meilen","commune":{"key":"156","name":"Meilen","shortName":"Meilen"},"district":{"key":"107","name":"Bezirk Meilen"},"canton":{"key":"1","code":"ZH","name":"Zürich"},"status":"Real"},{"key":"10248256","name":"Unterer Höchligweg","postalCode":"8706","locality":"Meilen","commune":{"key":"156","name":"Meilen","shortName":"Meilen"},"district":{"key":"107","name":"Bezirk Meilen"},"canton":{"key":"1","code":"ZH","name":"Zürich"},"status":"Real"},{"key":"10148709","name":"Ussichtsweg","postalCode":"8706","locality":"Meilen","commune":{"key":"156","name":"Meilen","shortName":"Meilen"},"district":{"key":"107","name":"Bezirk Meilen"},"canton":{"key":"1","code":"ZH","name":"Zürich"},"status":"Real"},{"key":"10147863","name":"Vogtacherweg","postalCode":"8706","locality":"Meilen","commune":{"key":"156","name":"Meilen","shortName":"Meilen"},"district":{"key":"107","name":"Bezirk Meilen"},"canton":{"key":"1","code":"ZH","name":"Zürich"},"status":"Real"},{"key":"10147864","name":"Vordere Püntenstrasse","postalCode":"8706","locality":"Meilen","commune":{"key":"156","name":"Meilen","shortName":"Meilen"},"district":{"key":"107","name":"Bezirk Meilen"},"canton":{"key":"1","code":"ZH","name":"Zürich"},"status":"Real"},{"key":"10248333","name":"Vorderer Hürnenfussweg","postalCode":"8706","locality":"Meilen","commune":{"key":"156","name":"Meilen","shortName":"Meilen"},"district":{"key":"107","name":"Bezirk Meilen"},"canton":{"key":"1","code":"ZH","name":"Zürich"},"status":"Real"},{"key":"10148710","name":"Vordere Runsstrasse","postalCode":"8706","locality":"Meilen","commune":{"key":"156","name":"Meilen","shortName":"Meilen"},"district":{"key":"107","name":"Bezirk Meilen"},"canton":{"key":"1","code":"ZH","name":"Zürich"},"status":"Real"},{"key":"10076646","name":"Vorderfeldstrasse","postalCode":"8706","locality":"Meilen","commune":{"key":"156","name":"Meilen","shortName":"Meilen"},"district":{"key":"107","name":"Bezirk Meilen"},"canton":{"key":"1","code":"ZH","name":"Zürich"},"status":"Real"},{"key":"10248345","name":"Vorderrainstrasse","postalCode":"8706","locality":"Meilen","commune":{"key":"156","name":"Meilen","shortName":"Meilen"},"district":{"key":"107","name":"Bezirk Meilen"},"canton":{"key":"1","code":"ZH","name":"Zürich"},"status":"Real"},{"key":"10176917","name":"Wampflenstrasse","postalCode":"8706","locality":"Meilen","commune":{"key":"156","name":"Meilen","shortName":"Meilen"},"district":{"key":"107","name":"Bezirk Meilen"},"canton":{"key":"1","code":"ZH","name":"Zürich"},"status":"Real"},{"key":"10147865","name":"Warzhaldenweg","postalCode":"8706","locality":"Meilen","commune":{"key":"156","name":"Meilen","shortName":"Meilen"},"district":{"key":"107","name":"Bezirk Meilen"},"canton":{"key":"1","code":"ZH","name":"Zürich"},"status":"Real"},{"key":"10248403","name":"Weid","postalCode":"8706","locality":"Meilen","commune":{"key":"156","name":"Meilen","shortName":"Meilen"},"district":{"key":"107","name":"Bezirk Meilen"},"canton":{"key":"1","code":"ZH","name":"Zürich"},"status":"Real"},{"key":"10183729","name":"Weidächerstrasse","postalCode":"8706","locality":"Meilen","commune":{"key":"156","name":"Meilen","shortName":"Meilen"},"district":{"key":"107","name":"Bezirk Meilen"},"canton":{"key":"1","code":"ZH","name":"Zürich"},"status":"Real"},{"key":"10201563","name":"Weidächerweg","postalCode":"8706","locality":"Meilen","commune":{"key":"156","name":"Meilen","shortName":"Meilen"},"district":{"key":"107","name":"Bezirk Meilen"},"canton":{"key":"1","code":"ZH","name":"Zürich"},"status":"Real"},{"key":"10002798","name":"Weidstrasse","postalCode":"8706","locality":"Meilen","commune":{"key":"156","name":"Meilen","shortName":"Meilen"},"district":{"key":"107","name":"Bezirk Meilen"},"canton":{"key":"1","code":"ZH","name":"Zürich"},"status":"Real"},{"key":"10147866","name":"Wetzwilerweg","postalCode":"8706","locality":"Meilen","commune":{"key":"156","name":"Meilen","shortName":"Meilen"},"district":{"key":"107","name":"Bezirk Meilen"},"canton":{"key":"1","code":"ZH","name":"Zürich"},"status":"Real"},{"key":"10147867","name":"Widentobelweg","postalCode":"8706","locality":"Meilen","commune":{"key":"156","name":"Meilen","shortName":"Meilen"},"district":{"key":"107","name":"Bezirk Meilen"},"canton":{"key":"1","code":"ZH","name":"Zürich"},"status":"Real"},{"key":"10248455","name":"Wiesentalstrasse","postalCode":"8706","locality":"Meilen","commune":{"key":"156","name":"Meilen","shortName":"Meilen"},"district":{"key":"107","name":"Bezirk Meilen"},"canton":{"key":"1","code":"ZH","name":"Zürich"},"status":"Real"},{"key":"10248463","name":"Wildholzweg","postalCode":"8706","locality":"Meilen","commune":{"key":"156","name":"Meilen","shortName":"Meilen"},"district":{"key":"107","name":"Bezirk Meilen"},"canton":{"key":"1","code":"ZH","name":"Zürich"},"status":"Real"},{"key":"10248484","name":"Winkelfussweg","postalCode":"8706","locality":"Meilen","commune":{"key":"156","name":"Meilen","shortName":"Meilen"},"district":{"key":"107","name":"Bezirk Meilen"},"canton":{"key":"1","code":"ZH","name":"Zürich"},"status":"Real"},{"key":"10105426","name":"Winkelstrasse","postalCode":"8706","locality":"Meilen","commune":{"key":"156","name":"Meilen","shortName":"Meilen"},"district":{"key":"107","name":"Bezirk Meilen"},"canton":{"key":"1","code":"ZH","name":"Zürich"},"status":"Real"},{"key":"10248491","name":"Winkelweg","postalCode":"8706","locality":"Meilen","commune":{"key":"156","name":"Meilen","shortName":"Meilen"},"district":{"key":"107","name":"Bezirk Meilen"},"canton":{"key":"1","code":"ZH","name":"Zürich"},"status":"Real"},{"key":"10166278","name":"Zelgstrasse","postalCode":"8706","locality":"Meilen","commune":{"key":"156","name":"Meilen","shortName":"Meilen"},"district":{"key":"107","name":"Bezirk Meilen"},"canton":{"key":"1","code":"ZH","name":"Zürich"},"status":"Real"},{"key":"10248389","name":"Zum Seehof","postalCode":"8706","locality":"Meilen","commune":{"key":"156","name":"Meilen","shortName":"Meilen"},"district":{"key":"107","name":"Bezirk Meilen"},"canton":{"key":"1","code":"ZH","name":"Zürich"},"status":"Real"},{"key":"10120053","name":"Zwetschgenweg","postalCode":"8706","locality":"Meilen","commune":{"key":"156","name":"Meilen","shortName":"Meilen"},"district":{"key":"107","name":"Bezirk Meilen"},"canton":{"key":"1","code":"ZH","name":"Zürich"},"status":"Real"},{"key":"10245751","name":"Zwüschetbächweg","postalCode":"8706","locality":"Meilen","commune":{"key":"156","name":"Meilen","shortName":"Meilen"},"district":{"key":"107","name":"Bezirk Meilen"},"canton":{"key":"1","code":"ZH","name":"Zürich"},"status":"Real"},]