[{"name":"Ahornweg","postalCode":"19075","locality":"Holthusen","municipality":{"key":"13076063","name":"Holthusen","type":"Kreisangehörige_Gemeinde"},"district":{"key":"13076","name":"Ludwigslust-Parchim","type":"Landkreis"},"federalState":{"key":"13","name":"Mecklenburg-Vorpommern"}},{"name":"Am Damm","postalCode":"19075","locality":"Holthusen","municipality":{"key":"13076063","name":"Holthusen","type":"Kreisangehörige_Gemeinde"},"district":{"key":"13076","name":"Ludwigslust-Parchim","type":"Landkreis"},"federalState":{"key":"13","name":"Mecklenburg-Vorpommern"}},{"name":"Am Dorfplatz","postalCode":"19075","locality":"Holthusen","municipality":{"key":"13076063","name":"Holthusen","type":"Kreisangehörige_Gemeinde"},"district":{"key":"13076","name":"Ludwigslust-Parchim","type":"Landkreis"},"federalState":{"key":"13","name":"Mecklenburg-Vorpommern"}},{"name":"Am Dorfteich","postalCode":"19075","locality":"Holthusen","municipality":{"key":"13076063","name":"Holthusen","type":"Kreisangehörige_Gemeinde"},"district":{"key":"13076","name":"Ludwigslust-Parchim","type":"Landkreis"},"federalState":{"key":"13","name":"Mecklenburg-Vorpommern"}},{"name":"Bahnhofstr.","postalCode":"19075","locality":"Holthusen","municipality":{"key":"13076063","name":"Holthusen","type":"Kreisangehörige_Gemeinde"},"district":{"key":"13076","name":"Ludwigslust-Parchim","type":"Landkreis"},"federalState":{"key":"13","name":"Mecklenburg-Vorpommern"}},{"name":"Birkenhof","postalCode":"19075","locality":"Holthusen","municipality":{"key":"13076063","name":"Holthusen","type":"Kreisangehörige_Gemeinde"},"district":{"key":"13076","name":"Ludwigslust-Parchim","type":"Landkreis"},"federalState":{"key":"13","name":"Mecklenburg-Vorpommern"}},{"name":"Buchholzer Str.","postalCode":"19075","locality":"Holthusen","municipality":{"key":"13076063","name":"Holthusen","type":"Kreisangehörige_Gemeinde"},"district":{"key":"13076","name":"Ludwigslust-Parchim","type":"Landkreis"},"federalState":{"key":"13","name":"Mecklenburg-Vorpommern"}},{"name":"Buchholzer Weg","postalCode":"19075","locality":"Holthusen","municipality":{"key":"13076063","name":"Holthusen","type":"Kreisangehörige_Gemeinde"},"district":{"key":"13076","name":"Ludwigslust-Parchim","type":"Landkreis"},"federalState":{"key":"13","name":"Mecklenburg-Vorpommern"}},{"name":"Büdnerweg","postalCode":"19075","locality":"Holthusen","municipality":{"key":"13076063","name":"Holthusen","type":"Kreisangehörige_Gemeinde"},"district":{"key":"13076","name":"Ludwigslust-Parchim","type":"Landkreis"},"federalState":{"key":"13","name":"Mecklenburg-Vorpommern"}},{"name":"Dorfstr.","postalCode":"19075","locality":"Holthusen","municipality":{"key":"13076063","name":"Holthusen","type":"Kreisangehörige_Gemeinde"},"district":{"key":"13076","name":"Ludwigslust-Parchim","type":"Landkreis"},"federalState":{"key":"13","name":"Mecklenburg-Vorpommern"}},{"name":"Lindeneck","postalCode":"19075","locality":"Holthusen","municipality":{"key":"13076063","name":"Holthusen","type":"Kreisangehörige_Gemeinde"},"district":{"key":"13076","name":"Ludwigslust-Parchim","type":"Landkreis"},"federalState":{"key":"13","name":"Mecklenburg-Vorpommern"}},{"name":"Mittelweg","postalCode":"19075","locality":"Holthusen","municipality":{"key":"13076063","name":"Holthusen","type":"Kreisangehörige_Gemeinde"},"district":{"key":"13076","name":"Ludwigslust-Parchim","type":"Landkreis"},"federalState":{"key":"13","name":"Mecklenburg-Vorpommern"}},{"name":"Pampower Str.","postalCode":"19075","locality":"Holthusen","municipality":{"key":"13076063","name":"Holthusen","type":"Kreisangehörige_Gemeinde"},"district":{"key":"13076","name":"Ludwigslust-Parchim","type":"Landkreis"},"federalState":{"key":"13","name":"Mecklenburg-Vorpommern"}},{"name":"Querweg","postalCode":"19075","locality":"Holthusen","municipality":{"key":"13076063","name":"Holthusen","type":"Kreisangehörige_Gemeinde"},"district":{"key":"13076","name":"Ludwigslust-Parchim","type":"Landkreis"},"federalState":{"key":"13","name":"Mecklenburg-Vorpommern"}},{"name":"Schmiedestr.","postalCode":"19075","locality":"Holthusen","municipality":{"key":"13076063","name":"Holthusen","type":"Kreisangehörige_Gemeinde"},"district":{"key":"13076","name":"Ludwigslust-Parchim","type":"Landkreis"},"federalState":{"key":"13","name":"Mecklenburg-Vorpommern"}},{"name":"Str. der Jugend","postalCode":"19075","locality":"Holthusen","municipality":{"key":"13076063","name":"Holthusen","type":"Kreisangehörige_Gemeinde"},"district":{"key":"13076","name":"Ludwigslust-Parchim","type":"Landkreis"},"federalState":{"key":"13","name":"Mecklenburg-Vorpommern"}},{"name":"Sülstorfer Weg","postalCode":"19075","locality":"Holthusen","municipality":{"key":"13076063","name":"Holthusen","type":"Kreisangehörige_Gemeinde"},"district":{"key":"13076","name":"Ludwigslust-Parchim","type":"Landkreis"},"federalState":{"key":"13","name":"Mecklenburg-Vorpommern"}},{"name":"Trafoweg","postalCode":"19075","locality":"Holthusen","municipality":{"key":"13076063","name":"Holthusen","type":"Kreisangehörige_Gemeinde"},"district":{"key":"13076","name":"Ludwigslust-Parchim","type":"Landkreis"},"federalState":{"key":"13","name":"Mecklenburg-Vorpommern"}},{"name":"Waldstr.","postalCode":"19075","locality":"Holthusen","municipality":{"key":"13076063","name":"Holthusen","type":"Kreisangehörige_Gemeinde"},"district":{"key":"13076","name":"Ludwigslust-Parchim","type":"Landkreis"},"federalState":{"key":"13","name":"Mecklenburg-Vorpommern"}},{"name":"Warsower Str.","postalCode":"19075","locality":"Holthusen","municipality":{"key":"13076063","name":"Holthusen","type":"Kreisangehörige_Gemeinde"},"district":{"key":"13076","name":"Ludwigslust-Parchim","type":"Landkreis"},"federalState":{"key":"13","name":"Mecklenburg-Vorpommern"}},{"name":"Wiesenweg","postalCode":"19075","locality":"Holthusen","municipality":{"key":"13076063","name":"Holthusen","type":"Kreisangehörige_Gemeinde"},"district":{"key":"13076","name":"Ludwigslust-Parchim","type":"Landkreis"},"federalState":{"key":"13","name":"Mecklenburg-Vorpommern"}},{"name":"Zum Triemoor","postalCode":"19075","locality":"Holthusen","municipality":{"key":"13076063","name":"Holthusen","type":"Kreisangehörige_Gemeinde"},"district":{"key":"13076","name":"Ludwigslust-Parchim","type":"Landkreis"},"federalState":{"key":"13","name":"Mecklenburg-Vorpommern"}},]