[{"name":"Adlerstr.","postalCode":"75236","locality":"Kämpfelbach","municipality":{"key":"08236074","name":"Kämpfelbach","type":"Kreisangehörige_Gemeinde"},"district":{"key":"08236","name":"Enzkreis","type":"Landkreis"},"federalState":{"key":"08","name":"Baden-Württemberg"}},{"name":"Ahornweg","postalCode":"75236","locality":"Kämpfelbach","municipality":{"key":"08236074","name":"Kämpfelbach","type":"Kreisangehörige_Gemeinde"},"district":{"key":"08236","name":"Enzkreis","type":"Landkreis"},"federalState":{"key":"08","name":"Baden-Württemberg"}},{"name":"Altenbergweg","postalCode":"75236","locality":"Kämpfelbach","municipality":{"key":"08236074","name":"Kämpfelbach","type":"Kreisangehörige_Gemeinde"},"district":{"key":"08236","name":"Enzkreis","type":"Landkreis"},"federalState":{"key":"08","name":"Baden-Württemberg"}},{"name":"Alte Str.","postalCode":"75236","locality":"Kämpfelbach","municipality":{"key":"08236074","name":"Kämpfelbach","type":"Kreisangehörige_Gemeinde"},"district":{"key":"08236","name":"Enzkreis","type":"Landkreis"},"federalState":{"key":"08","name":"Baden-Württemberg"}},{"name":"Am Mühlrain","postalCode":"75236","locality":"Kämpfelbach","municipality":{"key":"08236074","name":"Kämpfelbach","type":"Kreisangehörige_Gemeinde"},"district":{"key":"08236","name":"Enzkreis","type":"Landkreis"},"federalState":{"key":"08","name":"Baden-Württemberg"}},{"name":"Am Schulgarten","postalCode":"75236","locality":"Kämpfelbach","municipality":{"key":"08236074","name":"Kämpfelbach","type":"Kreisangehörige_Gemeinde"},"district":{"key":"08236","name":"Enzkreis","type":"Landkreis"},"federalState":{"key":"08","name":"Baden-Württemberg"}},{"name":"Am Sträßle","postalCode":"75236","locality":"Kämpfelbach","municipality":{"key":"08236074","name":"Kämpfelbach","type":"Kreisangehörige_Gemeinde"},"district":{"key":"08236","name":"Enzkreis","type":"Landkreis"},"federalState":{"key":"08","name":"Baden-Württemberg"}},{"name":"Arbeitslosenweg","postalCode":"75236","locality":"Kämpfelbach","municipality":{"key":"08236074","name":"Kämpfelbach","type":"Kreisangehörige_Gemeinde"},"district":{"key":"08236","name":"Enzkreis","type":"Landkreis"},"federalState":{"key":"08","name":"Baden-Württemberg"}},{"name":"Auf dem Kirchberg","postalCode":"75236","locality":"Kämpfelbach","municipality":{"key":"08236074","name":"Kämpfelbach","type":"Kreisangehörige_Gemeinde"},"district":{"key":"08236","name":"Enzkreis","type":"Landkreis"},"federalState":{"key":"08","name":"Baden-Württemberg"}},{"name":"Bachstr.","postalCode":"75236","locality":"Kämpfelbach","municipality":{"key":"08236074","name":"Kämpfelbach","type":"Kreisangehörige_Gemeinde"},"district":{"key":"08236","name":"Enzkreis","type":"Landkreis"},"federalState":{"key":"08","name":"Baden-Württemberg"}},{"name":"Bahndurchlass Kies","postalCode":"75236","locality":"Kämpfelbach","municipality":{"key":"08236074","name":"Kämpfelbach","type":"Kreisangehörige_Gemeinde"},"district":{"key":"08236","name":"Enzkreis","type":"Landkreis"},"federalState":{"key":"08","name":"Baden-Württemberg"}},{"name":"Bahnhofstr.","postalCode":"75236","locality":"Kämpfelbach","municipality":{"key":"08236074","name":"Kämpfelbach","type":"Kreisangehörige_Gemeinde"},"district":{"key":"08236","name":"Enzkreis","type":"Landkreis"},"federalState":{"key":"08","name":"Baden-Württemberg"}},{"name":"Bahnhofswegle","postalCode":"75236","locality":"Kämpfelbach","municipality":{"key":"08236074","name":"Kämpfelbach","type":"Kreisangehörige_Gemeinde"},"district":{"key":"08236","name":"Enzkreis","type":"Landkreis"},"federalState":{"key":"08","name":"Baden-Württemberg"}},{"name":"Benzstr.","postalCode":"75236","locality":"Kämpfelbach","municipality":{"key":"08236074","name":"Kämpfelbach","type":"Kreisangehörige_Gemeinde"},"district":{"key":"08236","name":"Enzkreis","type":"Landkreis"},"federalState":{"key":"08","name":"Baden-Württemberg"}},{"name":"Bergfeldweg","postalCode":"75236","locality":"Kämpfelbach","municipality":{"key":"08236074","name":"Kämpfelbach","type":"Kreisangehörige_Gemeinde"},"district":{"key":"08236","name":"Enzkreis","type":"Landkreis"},"federalState":{"key":"08","name":"Baden-Württemberg"}},{"name":"Bergstr.","postalCode":"75236","locality":"Kämpfelbach","municipality":{"key":"08236074","name":"Kämpfelbach","type":"Kreisangehörige_Gemeinde"},"district":{"key":"08236","name":"Enzkreis","type":"Landkreis"},"federalState":{"key":"08","name":"Baden-Württemberg"}},{"name":"Bernhardstr.","postalCode":"75236","locality":"Kämpfelbach","municipality":{"key":"08236074","name":"Kämpfelbach","type":"Kreisangehörige_Gemeinde"},"district":{"key":"08236","name":"Enzkreis","type":"Landkreis"},"federalState":{"key":"08","name":"Baden-Württemberg"}},{"name":"Biegelweg","postalCode":"75236","locality":"Kämpfelbach","municipality":{"key":"08236074","name":"Kämpfelbach","type":"Kreisangehörige_Gemeinde"},"district":{"key":"08236","name":"Enzkreis","type":"Landkreis"},"federalState":{"key":"08","name":"Baden-Württemberg"}},{"name":"Bilfinger Str.","postalCode":"75236","locality":"Kämpfelbach","municipality":{"key":"08236074","name":"Kämpfelbach","type":"Kreisangehörige_Gemeinde"},"district":{"key":"08236","name":"Enzkreis","type":"Landkreis"},"federalState":{"key":"08","name":"Baden-Württemberg"}},{"name":"Birkenweg","postalCode":"75236","locality":"Kämpfelbach","municipality":{"key":"08236074","name":"Kämpfelbach","type":"Kreisangehörige_Gemeinde"},"district":{"key":"08236","name":"Enzkreis","type":"Landkreis"},"federalState":{"key":"08","name":"Baden-Württemberg"}},{"name":"Bismarckstr.","postalCode":"75236","locality":"Kämpfelbach","municipality":{"key":"08236074","name":"Kämpfelbach","type":"Kreisangehörige_Gemeinde"},"district":{"key":"08236","name":"Enzkreis","type":"Landkreis"},"federalState":{"key":"08","name":"Baden-Württemberg"}},{"name":"Bohninger Weg","postalCode":"75236","locality":"Kämpfelbach","municipality":{"key":"08236074","name":"Kämpfelbach","type":"Kreisangehörige_Gemeinde"},"district":{"key":"08236","name":"Enzkreis","type":"Landkreis"},"federalState":{"key":"08","name":"Baden-Württemberg"}},{"name":"Boschstr.","postalCode":"75236","locality":"Kämpfelbach","municipality":{"key":"08236074","name":"Kämpfelbach","type":"Kreisangehörige_Gemeinde"},"district":{"key":"08236","name":"Enzkreis","type":"Landkreis"},"federalState":{"key":"08","name":"Baden-Württemberg"}},{"name":"Brennhäldenweg","postalCode":"75236","locality":"Kämpfelbach","municipality":{"key":"08236074","name":"Kämpfelbach","type":"Kreisangehörige_Gemeinde"},"district":{"key":"08236","name":"Enzkreis","type":"Landkreis"},"federalState":{"key":"08","name":"Baden-Württemberg"}},{"name":"Brötzinger Str.","postalCode":"75236","locality":"Kämpfelbach","municipality":{"key":"08236074","name":"Kämpfelbach","type":"Kreisangehörige_Gemeinde"},"district":{"key":"08236","name":"Enzkreis","type":"Landkreis"},"federalState":{"key":"08","name":"Baden-Württemberg"}},{"name":"Brückenstr.","postalCode":"75236","locality":"Kämpfelbach","municipality":{"key":"08236074","name":"Kämpfelbach","type":"Kreisangehörige_Gemeinde"},"district":{"key":"08236","name":"Enzkreis","type":"Landkreis"},"federalState":{"key":"08","name":"Baden-Württemberg"}},{"name":"Brühlstr.","postalCode":"75236","locality":"Kämpfelbach","municipality":{"key":"08236074","name":"Kämpfelbach","type":"Kreisangehörige_Gemeinde"},"district":{"key":"08236","name":"Enzkreis","type":"Landkreis"},"federalState":{"key":"08","name":"Baden-Württemberg"}},{"name":"Buchenweg","postalCode":"75236","locality":"Kämpfelbach","municipality":{"key":"08236074","name":"Kämpfelbach","type":"Kreisangehörige_Gemeinde"},"district":{"key":"08236","name":"Enzkreis","type":"Landkreis"},"federalState":{"key":"08","name":"Baden-Württemberg"}},{"name":"Buchhäldenstr.","postalCode":"75236","locality":"Kämpfelbach","municipality":{"key":"08236074","name":"Kämpfelbach","type":"Kreisangehörige_Gemeinde"},"district":{"key":"08236","name":"Enzkreis","type":"Landkreis"},"federalState":{"key":"08","name":"Baden-Württemberg"}},{"name":"Dammstr.","postalCode":"75236","locality":"Kämpfelbach","municipality":{"key":"08236074","name":"Kämpfelbach","type":"Kreisangehörige_Gemeinde"},"district":{"key":"08236","name":"Enzkreis","type":"Landkreis"},"federalState":{"key":"08","name":"Baden-Württemberg"}},{"name":"Dieselstr.","postalCode":"75236","locality":"Kämpfelbach","municipality":{"key":"08236074","name":"Kämpfelbach","type":"Kreisangehörige_Gemeinde"},"district":{"key":"08236","name":"Enzkreis","type":"Landkreis"},"federalState":{"key":"08","name":"Baden-Württemberg"}},{"name":"Dietlinger Str.","postalCode":"75236","locality":"Kämpfelbach","municipality":{"key":"08236074","name":"Kämpfelbach","type":"Kreisangehörige_Gemeinde"},"district":{"key":"08236","name":"Enzkreis","type":"Landkreis"},"federalState":{"key":"08","name":"Baden-Württemberg"}},{"name":"Ebbstr.","postalCode":"75236","locality":"Kämpfelbach","municipality":{"key":"08236074","name":"Kämpfelbach","type":"Kreisangehörige_Gemeinde"},"district":{"key":"08236","name":"Enzkreis","type":"Landkreis"},"federalState":{"key":"08","name":"Baden-Württemberg"}},{"name":"Eichenweg","postalCode":"75236","locality":"Kämpfelbach","municipality":{"key":"08236074","name":"Kämpfelbach","type":"Kreisangehörige_Gemeinde"},"district":{"key":"08236","name":"Enzkreis","type":"Landkreis"},"federalState":{"key":"08","name":"Baden-Württemberg"}},{"name":"Eisinger Str.","postalCode":"75236","locality":"Kämpfelbach","municipality":{"key":"08236074","name":"Kämpfelbach","type":"Kreisangehörige_Gemeinde"},"district":{"key":"08236","name":"Enzkreis","type":"Landkreis"},"federalState":{"key":"08","name":"Baden-Württemberg"}},{"name":"Elsternweg","postalCode":"75236","locality":"Kämpfelbach","municipality":{"key":"08236074","name":"Kämpfelbach","type":"Kreisangehörige_Gemeinde"},"district":{"key":"08236","name":"Enzkreis","type":"Landkreis"},"federalState":{"key":"08","name":"Baden-Württemberg"}},{"name":"Ernstenfeldweg","postalCode":"75236","locality":"Kämpfelbach","municipality":{"key":"08236074","name":"Kämpfelbach","type":"Kreisangehörige_Gemeinde"},"district":{"key":"08236","name":"Enzkreis","type":"Landkreis"},"federalState":{"key":"08","name":"Baden-Württemberg"}},{"name":"Ernstenwaldweg","postalCode":"75236","locality":"Kämpfelbach","municipality":{"key":"08236074","name":"Kämpfelbach","type":"Kreisangehörige_Gemeinde"},"district":{"key":"08236","name":"Enzkreis","type":"Landkreis"},"federalState":{"key":"08","name":"Baden-Württemberg"}},{"name":"Ersinger Str.","postalCode":"75236","locality":"Kämpfelbach","municipality":{"key":"08236074","name":"Kämpfelbach","type":"Kreisangehörige_Gemeinde"},"district":{"key":"08236","name":"Enzkreis","type":"Landkreis"},"federalState":{"key":"08","name":"Baden-Württemberg"}},{"name":"Eselsweg","postalCode":"75236","locality":"Kämpfelbach","municipality":{"key":"08236074","name":"Kämpfelbach","type":"Kreisangehörige_Gemeinde"},"district":{"key":"08236","name":"Enzkreis","type":"Landkreis"},"federalState":{"key":"08","name":"Baden-Württemberg"}},{"name":"Falkenstr.","postalCode":"75236","locality":"Kämpfelbach","municipality":{"key":"08236074","name":"Kämpfelbach","type":"Kreisangehörige_Gemeinde"},"district":{"key":"08236","name":"Enzkreis","type":"Landkreis"},"federalState":{"key":"08","name":"Baden-Württemberg"}},{"name":"Färbergasse","postalCode":"75236","locality":"Kämpfelbach","municipality":{"key":"08236074","name":"Kämpfelbach","type":"Kreisangehörige_Gemeinde"},"district":{"key":"08236","name":"Enzkreis","type":"Landkreis"},"federalState":{"key":"08","name":"Baden-Württemberg"}},{"name":"Feldbergstr.","postalCode":"75236","locality":"Kämpfelbach","municipality":{"key":"08236074","name":"Kämpfelbach","type":"Kreisangehörige_Gemeinde"},"district":{"key":"08236","name":"Enzkreis","type":"Landkreis"},"federalState":{"key":"08","name":"Baden-Württemberg"}},{"name":"Feuerstr.","postalCode":"75236","locality":"Kämpfelbach","municipality":{"key":"08236074","name":"Kämpfelbach","type":"Kreisangehörige_Gemeinde"},"district":{"key":"08236","name":"Enzkreis","type":"Landkreis"},"federalState":{"key":"08","name":"Baden-Württemberg"}},{"name":"Fichtenweg","postalCode":"75236","locality":"Kämpfelbach","municipality":{"key":"08236074","name":"Kämpfelbach","type":"Kreisangehörige_Gemeinde"},"district":{"key":"08236","name":"Enzkreis","type":"Landkreis"},"federalState":{"key":"08","name":"Baden-Württemberg"}},{"name":"Finkenstr.","postalCode":"75236","locality":"Kämpfelbach","municipality":{"key":"08236074","name":"Kämpfelbach","type":"Kreisangehörige_Gemeinde"},"district":{"key":"08236","name":"Enzkreis","type":"Landkreis"},"federalState":{"key":"08","name":"Baden-Württemberg"}},{"name":"Forlenweg","postalCode":"75236","locality":"Kämpfelbach","municipality":{"key":"08236074","name":"Kämpfelbach","type":"Kreisangehörige_Gemeinde"},"district":{"key":"08236","name":"Enzkreis","type":"Landkreis"},"federalState":{"key":"08","name":"Baden-Württemberg"}},{"name":"Frauenlochweg","postalCode":"75236","locality":"Kämpfelbach","municipality":{"key":"08236074","name":"Kämpfelbach","type":"Kreisangehörige_Gemeinde"},"district":{"key":"08236","name":"Enzkreis","type":"Landkreis"},"federalState":{"key":"08","name":"Baden-Württemberg"}},{"name":"Friedenstr.","postalCode":"75236","locality":"Kämpfelbach","municipality":{"key":"08236074","name":"Kämpfelbach","type":"Kreisangehörige_Gemeinde"},"district":{"key":"08236","name":"Enzkreis","type":"Landkreis"},"federalState":{"key":"08","name":"Baden-Württemberg"}},{"name":"Friedrichstr.","postalCode":"75236","locality":"Kämpfelbach","municipality":{"key":"08236074","name":"Kämpfelbach","type":"Kreisangehörige_Gemeinde"},"district":{"key":"08236","name":"Enzkreis","type":"Landkreis"},"federalState":{"key":"08","name":"Baden-Württemberg"}},{"name":"Fröbelstr.","postalCode":"75236","locality":"Kämpfelbach","municipality":{"key":"08236074","name":"Kämpfelbach","type":"Kreisangehörige_Gemeinde"},"district":{"key":"08236","name":"Enzkreis","type":"Landkreis"},"federalState":{"key":"08","name":"Baden-Württemberg"}},{"name":"Gaisweg","postalCode":"75236","locality":"Kämpfelbach","municipality":{"key":"08236074","name":"Kämpfelbach","type":"Kreisangehörige_Gemeinde"},"district":{"key":"08236","name":"Enzkreis","type":"Landkreis"},"federalState":{"key":"08","name":"Baden-Württemberg"}},{"name":"Gartenstr.","postalCode":"75236","locality":"Kämpfelbach","municipality":{"key":"08236074","name":"Kämpfelbach","type":"Kreisangehörige_Gemeinde"},"district":{"key":"08236","name":"Enzkreis","type":"Landkreis"},"federalState":{"key":"08","name":"Baden-Württemberg"}},{"name":"Goethestr.","postalCode":"75236","locality":"Kämpfelbach","municipality":{"key":"08236074","name":"Kämpfelbach","type":"Kreisangehörige_Gemeinde"},"district":{"key":"08236","name":"Enzkreis","type":"Landkreis"},"federalState":{"key":"08","name":"Baden-Württemberg"}},{"name":"Granstahlweg","postalCode":"75236","locality":"Kämpfelbach","municipality":{"key":"08236074","name":"Kämpfelbach","type":"Kreisangehörige_Gemeinde"},"district":{"key":"08236","name":"Enzkreis","type":"Landkreis"},"federalState":{"key":"08","name":"Baden-Württemberg"}},{"name":"Grenzweg","postalCode":"75236","locality":"Kämpfelbach","municipality":{"key":"08236074","name":"Kämpfelbach","type":"Kreisangehörige_Gemeinde"},"district":{"key":"08236","name":"Enzkreis","type":"Landkreis"},"federalState":{"key":"08","name":"Baden-Württemberg"}},{"name":"Große Brunnenstr.","postalCode":"75236","locality":"Kämpfelbach","municipality":{"key":"08236074","name":"Kämpfelbach","type":"Kreisangehörige_Gemeinde"},"district":{"key":"08236","name":"Enzkreis","type":"Landkreis"},"federalState":{"key":"08","name":"Baden-Württemberg"}},{"name":"Gründeltorstr.","postalCode":"75236","locality":"Kämpfelbach","municipality":{"key":"08236074","name":"Kämpfelbach","type":"Kreisangehörige_Gemeinde"},"district":{"key":"08236","name":"Enzkreis","type":"Landkreis"},"federalState":{"key":"08","name":"Baden-Württemberg"}},{"name":"Gründlestr.","postalCode":"75236","locality":"Kämpfelbach","municipality":{"key":"08236074","name":"Kämpfelbach","type":"Kreisangehörige_Gemeinde"},"district":{"key":"08236","name":"Enzkreis","type":"Landkreis"},"federalState":{"key":"08","name":"Baden-Württemberg"}},{"name":"Gutenteichweg","postalCode":"75236","locality":"Kämpfelbach","municipality":{"key":"08236074","name":"Kämpfelbach","type":"Kreisangehörige_Gemeinde"},"district":{"key":"08236","name":"Enzkreis","type":"Landkreis"},"federalState":{"key":"08","name":"Baden-Württemberg"}},{"name":"Häldenstr.","postalCode":"75236","locality":"Kämpfelbach","municipality":{"key":"08236074","name":"Kämpfelbach","type":"Kreisangehörige_Gemeinde"},"district":{"key":"08236","name":"Enzkreis","type":"Landkreis"},"federalState":{"key":"08","name":"Baden-Württemberg"}},{"name":"Hangstr.","postalCode":"75236","locality":"Kämpfelbach","municipality":{"key":"08236074","name":"Kämpfelbach","type":"Kreisangehörige_Gemeinde"},"district":{"key":"08236","name":"Enzkreis","type":"Landkreis"},"federalState":{"key":"08","name":"Baden-Württemberg"}},{"name":"Hans-Thoma-Str.","postalCode":"75236","locality":"Kämpfelbach","municipality":{"key":"08236074","name":"Kämpfelbach","type":"Kreisangehörige_Gemeinde"},"district":{"key":"08236","name":"Enzkreis","type":"Landkreis"},"federalState":{"key":"08","name":"Baden-Württemberg"}},{"name":"Hauptstr.","postalCode":"75236","locality":"Kämpfelbach","municipality":{"key":"08236074","name":"Kämpfelbach","type":"Kreisangehörige_Gemeinde"},"district":{"key":"08236","name":"Enzkreis","type":"Landkreis"},"federalState":{"key":"08","name":"Baden-Württemberg"}},{"name":"Hebelstr.","postalCode":"75236","locality":"Kämpfelbach","municipality":{"key":"08236074","name":"Kämpfelbach","type":"Kreisangehörige_Gemeinde"},"district":{"key":"08236","name":"Enzkreis","type":"Landkreis"},"federalState":{"key":"08","name":"Baden-Württemberg"}},{"name":"Heinestr.","postalCode":"75236","locality":"Kämpfelbach","municipality":{"key":"08236074","name":"Kämpfelbach","type":"Kreisangehörige_Gemeinde"},"district":{"key":"08236","name":"Enzkreis","type":"Landkreis"},"federalState":{"key":"08","name":"Baden-Württemberg"}},{"name":"Hellbergstr.","postalCode":"75236","locality":"Kämpfelbach","municipality":{"key":"08236074","name":"Kämpfelbach","type":"Kreisangehörige_Gemeinde"},"district":{"key":"08236","name":"Enzkreis","type":"Landkreis"},"federalState":{"key":"08","name":"Baden-Württemberg"}},{"name":"Heuweg","postalCode":"75236","locality":"Kämpfelbach","municipality":{"key":"08236074","name":"Kämpfelbach","type":"Kreisangehörige_Gemeinde"},"district":{"key":"08236","name":"Enzkreis","type":"Landkreis"},"federalState":{"key":"08","name":"Baden-Württemberg"}},{"name":"Hochgerichtstr.","postalCode":"75236","locality":"Kämpfelbach","municipality":{"key":"08236074","name":"Kämpfelbach","type":"Kreisangehörige_Gemeinde"},"district":{"key":"08236","name":"Enzkreis","type":"Landkreis"},"federalState":{"key":"08","name":"Baden-Württemberg"}},{"name":"Im Nüssle","postalCode":"75236","locality":"Kämpfelbach","municipality":{"key":"08236074","name":"Kämpfelbach","type":"Kreisangehörige_Gemeinde"},"district":{"key":"08236","name":"Enzkreis","type":"Landkreis"},"federalState":{"key":"08","name":"Baden-Württemberg"}},{"name":"Im Winkel","postalCode":"75236","locality":"Kämpfelbach","municipality":{"key":"08236074","name":"Kämpfelbach","type":"Kreisangehörige_Gemeinde"},"district":{"key":"08236","name":"Enzkreis","type":"Landkreis"},"federalState":{"key":"08","name":"Baden-Württemberg"}},{"name":"Ispringer Str.","postalCode":"75236","locality":"Kämpfelbach","municipality":{"key":"08236074","name":"Kämpfelbach","type":"Kreisangehörige_Gemeinde"},"district":{"key":"08236","name":"Enzkreis","type":"Landkreis"},"federalState":{"key":"08","name":"Baden-Württemberg"}},{"name":"Jägerstr.","postalCode":"75236","locality":"Kämpfelbach","municipality":{"key":"08236074","name":"Kämpfelbach","type":"Kreisangehörige_Gemeinde"},"district":{"key":"08236","name":"Enzkreis","type":"Landkreis"},"federalState":{"key":"08","name":"Baden-Württemberg"}},{"name":"Jahnstr.","postalCode":"75236","locality":"Kämpfelbach","municipality":{"key":"08236074","name":"Kämpfelbach","type":"Kreisangehörige_Gemeinde"},"district":{"key":"08236","name":"Enzkreis","type":"Landkreis"},"federalState":{"key":"08","name":"Baden-Württemberg"}},{"name":"Kämpfelbachstr.","postalCode":"75236","locality":"Kämpfelbach","municipality":{"key":"08236074","name":"Kämpfelbach","type":"Kreisangehörige_Gemeinde"},"district":{"key":"08236","name":"Enzkreis","type":"Landkreis"},"federalState":{"key":"08","name":"Baden-Württemberg"}},{"name":"Kapellenstr.","postalCode":"75236","locality":"Kämpfelbach","municipality":{"key":"08236074","name":"Kämpfelbach","type":"Kreisangehörige_Gemeinde"},"district":{"key":"08236","name":"Enzkreis","type":"Landkreis"},"federalState":{"key":"08","name":"Baden-Württemberg"}},{"name":"Kelterstr.","postalCode":"75236","locality":"Kämpfelbach","municipality":{"key":"08236074","name":"Kämpfelbach","type":"Kreisangehörige_Gemeinde"},"district":{"key":"08236","name":"Enzkreis","type":"Landkreis"},"federalState":{"key":"08","name":"Baden-Württemberg"}},{"name":"Kirchbergsiedlung","postalCode":"75236","locality":"Kämpfelbach","municipality":{"key":"08236074","name":"Kämpfelbach","type":"Kreisangehörige_Gemeinde"},"district":{"key":"08236","name":"Enzkreis","type":"Landkreis"},"federalState":{"key":"08","name":"Baden-Württemberg"}},{"name":"Kirchbergweg","postalCode":"75236","locality":"Kämpfelbach","municipality":{"key":"08236074","name":"Kämpfelbach","type":"Kreisangehörige_Gemeinde"},"district":{"key":"08236","name":"Enzkreis","type":"Landkreis"},"federalState":{"key":"08","name":"Baden-Württemberg"}},{"name":"Kirchgrundstr.","postalCode":"75236","locality":"Kämpfelbach","municipality":{"key":"08236074","name":"Kämpfelbach","type":"Kreisangehörige_Gemeinde"},"district":{"key":"08236","name":"Enzkreis","type":"Landkreis"},"federalState":{"key":"08","name":"Baden-Württemberg"}},{"name":"Kirchstr.","postalCode":"75236","locality":"Kämpfelbach","municipality":{"key":"08236074","name":"Kämpfelbach","type":"Kreisangehörige_Gemeinde"},"district":{"key":"08236","name":"Enzkreis","type":"Landkreis"},"federalState":{"key":"08","name":"Baden-Württemberg"}},{"name":"Klammweg","postalCode":"75236","locality":"Kämpfelbach","municipality":{"key":"08236074","name":"Kämpfelbach","type":"Kreisangehörige_Gemeinde"},"district":{"key":"08236","name":"Enzkreis","type":"Landkreis"},"federalState":{"key":"08","name":"Baden-Württemberg"}},{"name":"Kleine Brunnenstr.","postalCode":"75236","locality":"Kämpfelbach","municipality":{"key":"08236074","name":"Kämpfelbach","type":"Kreisangehörige_Gemeinde"},"district":{"key":"08236","name":"Enzkreis","type":"Landkreis"},"federalState":{"key":"08","name":"Baden-Württemberg"}},{"name":"Kniebisstr.","postalCode":"75236","locality":"Kämpfelbach","municipality":{"key":"08236074","name":"Kämpfelbach","type":"Kreisangehörige_Gemeinde"},"district":{"key":"08236","name":"Enzkreis","type":"Landkreis"},"federalState":{"key":"08","name":"Baden-Württemberg"}},{"name":"Königsbacher Weg","postalCode":"75236","locality":"Kämpfelbach","municipality":{"key":"08236074","name":"Kämpfelbach","type":"Kreisangehörige_Gemeinde"},"district":{"key":"08236","name":"Enzkreis","type":"Landkreis"},"federalState":{"key":"08","name":"Baden-Württemberg"}},{"name":"Kopflesweg","postalCode":"75236","locality":"Kämpfelbach","municipality":{"key":"08236074","name":"Kämpfelbach","type":"Kreisangehörige_Gemeinde"},"district":{"key":"08236","name":"Enzkreis","type":"Landkreis"},"federalState":{"key":"08","name":"Baden-Württemberg"}},{"name":"Kühllochweg","postalCode":"75236","locality":"Kämpfelbach","municipality":{"key":"08236074","name":"Kämpfelbach","type":"Kreisangehörige_Gemeinde"},"district":{"key":"08236","name":"Enzkreis","type":"Landkreis"},"federalState":{"key":"08","name":"Baden-Württemberg"}},{"name":"Laierbergstr.","postalCode":"75236","locality":"Kämpfelbach","municipality":{"key":"08236074","name":"Kämpfelbach","type":"Kreisangehörige_Gemeinde"},"district":{"key":"08236","name":"Enzkreis","type":"Landkreis"},"federalState":{"key":"08","name":"Baden-Württemberg"}},{"name":"Lammgasse","postalCode":"75236","locality":"Kämpfelbach","municipality":{"key":"08236074","name":"Kämpfelbach","type":"Kreisangehörige_Gemeinde"},"district":{"key":"08236","name":"Enzkreis","type":"Landkreis"},"federalState":{"key":"08","name":"Baden-Württemberg"}},{"name":"Lange Str.","postalCode":"75236","locality":"Kämpfelbach","municipality":{"key":"08236074","name":"Kämpfelbach","type":"Kreisangehörige_Gemeinde"},"district":{"key":"08236","name":"Enzkreis","type":"Landkreis"},"federalState":{"key":"08","name":"Baden-Württemberg"}},{"name":"Laubigstr.","postalCode":"75236","locality":"Kämpfelbach","municipality":{"key":"08236074","name":"Kämpfelbach","type":"Kreisangehörige_Gemeinde"},"district":{"key":"08236","name":"Enzkreis","type":"Landkreis"},"federalState":{"key":"08","name":"Baden-Württemberg"}},{"name":"Laubigswaldweg","postalCode":"75236","locality":"Kämpfelbach","municipality":{"key":"08236074","name":"Kämpfelbach","type":"Kreisangehörige_Gemeinde"},"district":{"key":"08236","name":"Enzkreis","type":"Landkreis"},"federalState":{"key":"08","name":"Baden-Württemberg"}},{"name":"Leigstenhälde","postalCode":"75236","locality":"Kämpfelbach","municipality":{"key":"08236074","name":"Kämpfelbach","type":"Kreisangehörige_Gemeinde"},"district":{"key":"08236","name":"Enzkreis","type":"Landkreis"},"federalState":{"key":"08","name":"Baden-Württemberg"}},{"name":"Lindenstr.","postalCode":"75236","locality":"Kämpfelbach","municipality":{"key":"08236074","name":"Kämpfelbach","type":"Kreisangehörige_Gemeinde"},"district":{"key":"08236","name":"Enzkreis","type":"Landkreis"},"federalState":{"key":"08","name":"Baden-Württemberg"}},{"name":"Lußstr.","postalCode":"75236","locality":"Kämpfelbach","municipality":{"key":"08236074","name":"Kämpfelbach","type":"Kreisangehörige_Gemeinde"},"district":{"key":"08236","name":"Enzkreis","type":"Landkreis"},"federalState":{"key":"08","name":"Baden-Württemberg"}},{"name":"Lutherstr.","postalCode":"75236","locality":"Kämpfelbach","municipality":{"key":"08236074","name":"Kämpfelbach","type":"Kreisangehörige_Gemeinde"},"district":{"key":"08236","name":"Enzkreis","type":"Landkreis"},"federalState":{"key":"08","name":"Baden-Württemberg"}},{"name":"Metzgerstr.","postalCode":"75236","locality":"Kämpfelbach","municipality":{"key":"08236074","name":"Kämpfelbach","type":"Kreisangehörige_Gemeinde"},"district":{"key":"08236","name":"Enzkreis","type":"Landkreis"},"federalState":{"key":"08","name":"Baden-Württemberg"}},{"name":"Mühlstr.","postalCode":"75236","locality":"Kämpfelbach","municipality":{"key":"08236074","name":"Kämpfelbach","type":"Kreisangehörige_Gemeinde"},"district":{"key":"08236","name":"Enzkreis","type":"Landkreis"},"federalState":{"key":"08","name":"Baden-Württemberg"}},{"name":"Oberer Heiligenrainweg","postalCode":"75236","locality":"Kämpfelbach","municipality":{"key":"08236074","name":"Kämpfelbach","type":"Kreisangehörige_Gemeinde"},"district":{"key":"08236","name":"Enzkreis","type":"Landkreis"},"federalState":{"key":"08","name":"Baden-Württemberg"}},{"name":"Obere Weinsteig","postalCode":"75236","locality":"Kämpfelbach","municipality":{"key":"08236074","name":"Kämpfelbach","type":"Kreisangehörige_Gemeinde"},"district":{"key":"08236","name":"Enzkreis","type":"Landkreis"},"federalState":{"key":"08","name":"Baden-Württemberg"}},{"name":"Pforzheimer Str.","postalCode":"75236","locality":"Kämpfelbach","municipality":{"key":"08236074","name":"Kämpfelbach","type":"Kreisangehörige_Gemeinde"},"district":{"key":"08236","name":"Enzkreis","type":"Landkreis"},"federalState":{"key":"08","name":"Baden-Württemberg"}},{"name":"Promenadenweg","postalCode":"75236","locality":"Kämpfelbach","municipality":{"key":"08236074","name":"Kämpfelbach","type":"Kreisangehörige_Gemeinde"},"district":{"key":"08236","name":"Enzkreis","type":"Landkreis"},"federalState":{"key":"08","name":"Baden-Württemberg"}},{"name":"Raiffeisenstr.","postalCode":"75236","locality":"Kämpfelbach","municipality":{"key":"08236074","name":"Kämpfelbach","type":"Kreisangehörige_Gemeinde"},"district":{"key":"08236","name":"Enzkreis","type":"Landkreis"},"federalState":{"key":"08","name":"Baden-Württemberg"}},{"name":"Rainwaldweg","postalCode":"75236","locality":"Kämpfelbach","municipality":{"key":"08236074","name":"Kämpfelbach","type":"Kreisangehörige_Gemeinde"},"district":{"key":"08236","name":"Enzkreis","type":"Landkreis"},"federalState":{"key":"08","name":"Baden-Württemberg"}},{"name":"Regelbaumstr.","postalCode":"75236","locality":"Kämpfelbach","municipality":{"key":"08236074","name":"Kämpfelbach","type":"Kreisangehörige_Gemeinde"},"district":{"key":"08236","name":"Enzkreis","type":"Landkreis"},"federalState":{"key":"08","name":"Baden-Württemberg"}},{"name":"Remchinger Str.","postalCode":"75236","locality":"Kämpfelbach","municipality":{"key":"08236074","name":"Kämpfelbach","type":"Kreisangehörige_Gemeinde"},"district":{"key":"08236","name":"Enzkreis","type":"Landkreis"},"federalState":{"key":"08","name":"Baden-Württemberg"}},{"name":"Reuchlinstr.","postalCode":"75236","locality":"Kämpfelbach","municipality":{"key":"08236074","name":"Kämpfelbach","type":"Kreisangehörige_Gemeinde"},"district":{"key":"08236","name":"Enzkreis","type":"Landkreis"},"federalState":{"key":"08","name":"Baden-Württemberg"}},{"name":"Rosenstr.","postalCode":"75236","locality":"Kämpfelbach","municipality":{"key":"08236074","name":"Kämpfelbach","type":"Kreisangehörige_Gemeinde"},"district":{"key":"08236","name":"Enzkreis","type":"Landkreis"},"federalState":{"key":"08","name":"Baden-Württemberg"}},{"name":"Rothenbergweg","postalCode":"75236","locality":"Kämpfelbach","municipality":{"key":"08236074","name":"Kämpfelbach","type":"Kreisangehörige_Gemeinde"},"district":{"key":"08236","name":"Enzkreis","type":"Landkreis"},"federalState":{"key":"08","name":"Baden-Württemberg"}},{"name":"Rumpelbergle","postalCode":"75236","locality":"Kämpfelbach","municipality":{"key":"08236074","name":"Kämpfelbach","type":"Kreisangehörige_Gemeinde"},"district":{"key":"08236","name":"Enzkreis","type":"Landkreis"},"federalState":{"key":"08","name":"Baden-Württemberg"}},{"name":"Scheffelstr.","postalCode":"75236","locality":"Kämpfelbach","municipality":{"key":"08236074","name":"Kämpfelbach","type":"Kreisangehörige_Gemeinde"},"district":{"key":"08236","name":"Enzkreis","type":"Landkreis"},"federalState":{"key":"08","name":"Baden-Württemberg"}},{"name":"Schelmenäcker","postalCode":"75236","locality":"Kämpfelbach","municipality":{"key":"08236074","name":"Kämpfelbach","type":"Kreisangehörige_Gemeinde"},"district":{"key":"08236","name":"Enzkreis","type":"Landkreis"},"federalState":{"key":"08","name":"Baden-Württemberg"}},{"name":"Schillerstr.","postalCode":"75236","locality":"Kämpfelbach","municipality":{"key":"08236074","name":"Kämpfelbach","type":"Kreisangehörige_Gemeinde"},"district":{"key":"08236","name":"Enzkreis","type":"Landkreis"},"federalState":{"key":"08","name":"Baden-Württemberg"}},{"name":"Schloßgasse","postalCode":"75236","locality":"Kämpfelbach","municipality":{"key":"08236074","name":"Kämpfelbach","type":"Kreisangehörige_Gemeinde"},"district":{"key":"08236","name":"Enzkreis","type":"Landkreis"},"federalState":{"key":"08","name":"Baden-Württemberg"}},{"name":"Schönblickstr.","postalCode":"75236","locality":"Kämpfelbach","municipality":{"key":"08236074","name":"Kämpfelbach","type":"Kreisangehörige_Gemeinde"},"district":{"key":"08236","name":"Enzkreis","type":"Landkreis"},"federalState":{"key":"08","name":"Baden-Württemberg"}},{"name":"Schopfwiesenstr.","postalCode":"75236","locality":"Kämpfelbach","municipality":{"key":"08236074","name":"Kämpfelbach","type":"Kreisangehörige_Gemeinde"},"district":{"key":"08236","name":"Enzkreis","type":"Landkreis"},"federalState":{"key":"08","name":"Baden-Württemberg"}},{"name":"Schulstr.","postalCode":"75236","locality":"Kämpfelbach","municipality":{"key":"08236074","name":"Kämpfelbach","type":"Kreisangehörige_Gemeinde"},"district":{"key":"08236","name":"Enzkreis","type":"Landkreis"},"federalState":{"key":"08","name":"Baden-Württemberg"}},{"name":"Schustergasse","postalCode":"75236","locality":"Kämpfelbach","municipality":{"key":"08236074","name":"Kämpfelbach","type":"Kreisangehörige_Gemeinde"},"district":{"key":"08236","name":"Enzkreis","type":"Landkreis"},"federalState":{"key":"08","name":"Baden-Württemberg"}},{"name":"Schwarzwaldstr.","postalCode":"75236","locality":"Kämpfelbach","municipality":{"key":"08236074","name":"Kämpfelbach","type":"Kreisangehörige_Gemeinde"},"district":{"key":"08236","name":"Enzkreis","type":"Landkreis"},"federalState":{"key":"08","name":"Baden-Württemberg"}},{"name":"Staig","postalCode":"75236","locality":"Kämpfelbach","municipality":{"key":"08236074","name":"Kämpfelbach","type":"Kreisangehörige_Gemeinde"},"district":{"key":"08236","name":"Enzkreis","type":"Landkreis"},"federalState":{"key":"08","name":"Baden-Württemberg"}},{"name":"Steiner Str.","postalCode":"75236","locality":"Kämpfelbach","municipality":{"key":"08236074","name":"Kämpfelbach","type":"Kreisangehörige_Gemeinde"},"district":{"key":"08236","name":"Enzkreis","type":"Landkreis"},"federalState":{"key":"08","name":"Baden-Württemberg"}},{"name":"St.-Josef-Str.","postalCode":"75236","locality":"Kämpfelbach","municipality":{"key":"08236074","name":"Kämpfelbach","type":"Kreisangehörige_Gemeinde"},"district":{"key":"08236","name":"Enzkreis","type":"Landkreis"},"federalState":{"key":"08","name":"Baden-Württemberg"}},{"name":"Talstr.","postalCode":"75236","locality":"Kämpfelbach","municipality":{"key":"08236074","name":"Kämpfelbach","type":"Kreisangehörige_Gemeinde"},"district":{"key":"08236","name":"Enzkreis","type":"Landkreis"},"federalState":{"key":"08","name":"Baden-Württemberg"}},{"name":"Teichweg","postalCode":"75236","locality":"Kämpfelbach","municipality":{"key":"08236074","name":"Kämpfelbach","type":"Kreisangehörige_Gemeinde"},"district":{"key":"08236","name":"Enzkreis","type":"Landkreis"},"federalState":{"key":"08","name":"Baden-Württemberg"}},{"name":"Thanweg","postalCode":"75236","locality":"Kämpfelbach","municipality":{"key":"08236074","name":"Kämpfelbach","type":"Kreisangehörige_Gemeinde"},"district":{"key":"08236","name":"Enzkreis","type":"Landkreis"},"federalState":{"key":"08","name":"Baden-Württemberg"}},{"name":"Thomasbrunnenstr.","postalCode":"75236","locality":"Kämpfelbach","municipality":{"key":"08236074","name":"Kämpfelbach","type":"Kreisangehörige_Gemeinde"},"district":{"key":"08236","name":"Enzkreis","type":"Landkreis"},"federalState":{"key":"08","name":"Baden-Württemberg"}},{"name":"Turnstr.","postalCode":"75236","locality":"Kämpfelbach","municipality":{"key":"08236074","name":"Kämpfelbach","type":"Kreisangehörige_Gemeinde"},"district":{"key":"08236","name":"Enzkreis","type":"Landkreis"},"federalState":{"key":"08","name":"Baden-Württemberg"}},{"name":"Uferstr.","postalCode":"75236","locality":"Kämpfelbach","municipality":{"key":"08236074","name":"Kämpfelbach","type":"Kreisangehörige_Gemeinde"},"district":{"key":"08236","name":"Enzkreis","type":"Landkreis"},"federalState":{"key":"08","name":"Baden-Württemberg"}},{"name":"Untere Eisinger Str.","postalCode":"75236","locality":"Kämpfelbach","municipality":{"key":"08236074","name":"Kämpfelbach","type":"Kreisangehörige_Gemeinde"},"district":{"key":"08236","name":"Enzkreis","type":"Landkreis"},"federalState":{"key":"08","name":"Baden-Württemberg"}},{"name":"Unterer Heiligenrainweg","postalCode":"75236","locality":"Kämpfelbach","municipality":{"key":"08236074","name":"Kämpfelbach","type":"Kreisangehörige_Gemeinde"},"district":{"key":"08236","name":"Enzkreis","type":"Landkreis"},"federalState":{"key":"08","name":"Baden-Württemberg"}},{"name":"Vaihenwiesenstr.","postalCode":"75236","locality":"Kämpfelbach","municipality":{"key":"08236074","name":"Kämpfelbach","type":"Kreisangehörige_Gemeinde"},"district":{"key":"08236","name":"Enzkreis","type":"Landkreis"},"federalState":{"key":"08","name":"Baden-Württemberg"}},{"name":"Viehfahrtweg","postalCode":"75236","locality":"Kämpfelbach","municipality":{"key":"08236074","name":"Kämpfelbach","type":"Kreisangehörige_Gemeinde"},"district":{"key":"08236","name":"Enzkreis","type":"Landkreis"},"federalState":{"key":"08","name":"Baden-Württemberg"}},{"name":"Walchenstr.","postalCode":"75236","locality":"Kämpfelbach","municipality":{"key":"08236074","name":"Kämpfelbach","type":"Kreisangehörige_Gemeinde"},"district":{"key":"08236","name":"Enzkreis","type":"Landkreis"},"federalState":{"key":"08","name":"Baden-Württemberg"}},{"name":"Waldstr.","postalCode":"75236","locality":"Kämpfelbach","municipality":{"key":"08236074","name":"Kämpfelbach","type":"Kreisangehörige_Gemeinde"},"district":{"key":"08236","name":"Enzkreis","type":"Landkreis"},"federalState":{"key":"08","name":"Baden-Württemberg"}},{"name":"Wasserleitungsweg","postalCode":"75236","locality":"Kämpfelbach","municipality":{"key":"08236074","name":"Kämpfelbach","type":"Kreisangehörige_Gemeinde"},"district":{"key":"08236","name":"Enzkreis","type":"Landkreis"},"federalState":{"key":"08","name":"Baden-Württemberg"}},{"name":"Weinbrennerstr.","postalCode":"75236","locality":"Kämpfelbach","municipality":{"key":"08236074","name":"Kämpfelbach","type":"Kreisangehörige_Gemeinde"},"district":{"key":"08236","name":"Enzkreis","type":"Landkreis"},"federalState":{"key":"08","name":"Baden-Württemberg"}},{"name":"Weinsteigstr.","postalCode":"75236","locality":"Kämpfelbach","municipality":{"key":"08236074","name":"Kämpfelbach","type":"Kreisangehörige_Gemeinde"},"district":{"key":"08236","name":"Enzkreis","type":"Landkreis"},"federalState":{"key":"08","name":"Baden-Württemberg"}},{"name":"Wieselesweg","postalCode":"75236","locality":"Kämpfelbach","municipality":{"key":"08236074","name":"Kämpfelbach","type":"Kreisangehörige_Gemeinde"},"district":{"key":"08236","name":"Enzkreis","type":"Landkreis"},"federalState":{"key":"08","name":"Baden-Württemberg"}},{"name":"Wilferdinger Str.","postalCode":"75236","locality":"Kämpfelbach","municipality":{"key":"08236074","name":"Kämpfelbach","type":"Kreisangehörige_Gemeinde"},"district":{"key":"08236","name":"Enzkreis","type":"Landkreis"},"federalState":{"key":"08","name":"Baden-Württemberg"}},{"name":"Zum Viehfartweg","postalCode":"75236","locality":"Kämpfelbach","municipality":{"key":"08236074","name":"Kämpfelbach","type":"Kreisangehörige_Gemeinde"},"district":{"key":"08236","name":"Enzkreis","type":"Landkreis"},"federalState":{"key":"08","name":"Baden-Württemberg"}},{"name":"Zunftgasse","postalCode":"75236","locality":"Kämpfelbach","municipality":{"key":"08236074","name":"Kämpfelbach","type":"Kreisangehörige_Gemeinde"},"district":{"key":"08236","name":"Enzkreis","type":"Landkreis"},"federalState":{"key":"08","name":"Baden-Württemberg"}},]