[{"name":"Ahornweg","postalCode":"91278","locality":"Pottenstein","municipality":{"key":"09472179","name":"Pottenstein, St","type":"Stadt"},"district":{"key":"09472","name":"Bayreuth","type":"Landkreis"},"federalState":{"key":"09","name":"Bayern"}},{"name":"Alter Burgweg","postalCode":"91278","locality":"Pottenstein","municipality":{"key":"09472179","name":"Pottenstein, St","type":"Stadt"},"district":{"key":"09472","name":"Bayreuth","type":"Landkreis"},"federalState":{"key":"09","name":"Bayern"}},{"name":"Alte Rodelbahn","postalCode":"31868","locality":"Ottenstein","municipality":{"key":"03255031","name":"Ottenstein, Flecken","type":"Kreisangehörige_Gemeinde"},"district":{"key":"03255","name":"Holzminden","type":"Landkreis"},"federalState":{"key":"03","name":"Niedersachsen"}},{"name":"Am Anger","postalCode":"91278","locality":"Pottenstein","municipality":{"key":"09472179","name":"Pottenstein, St","type":"Stadt"},"district":{"key":"09472","name":"Bayreuth","type":"Landkreis"},"federalState":{"key":"09","name":"Bayern"}},{"name":"Am Breitenstein","postalCode":"91278","locality":"Pottenstein","municipality":{"key":"09472179","name":"Pottenstein, St","type":"Stadt"},"district":{"key":"09472","name":"Bayreuth","type":"Landkreis"},"federalState":{"key":"09","name":"Bayern"}},{"name":"Am Festplatz","postalCode":"91278","locality":"Pottenstein","municipality":{"key":"09472179","name":"Pottenstein, St","type":"Stadt"},"district":{"key":"09472","name":"Bayreuth","type":"Landkreis"},"federalState":{"key":"09","name":"Bayern"}},{"name":"Am Gnock","postalCode":"91278","locality":"Pottenstein","municipality":{"key":"09472179","name":"Pottenstein, St","type":"Stadt"},"district":{"key":"09472","name":"Bayreuth","type":"Landkreis"},"federalState":{"key":"09","name":"Bayern"}},{"name":"Am Gweis","postalCode":"91278","locality":"Pottenstein","municipality":{"key":"09472179","name":"Pottenstein, St","type":"Stadt"},"district":{"key":"09472","name":"Bayreuth","type":"Landkreis"},"federalState":{"key":"09","name":"Bayern"}},{"name":"Am Haag","postalCode":"91278","locality":"Pottenstein","municipality":{"key":"09472179","name":"Pottenstein, St","type":"Stadt"},"district":{"key":"09472","name":"Bayreuth","type":"Landkreis"},"federalState":{"key":"09","name":"Bayern"}},{"name":"Am Hauengrund","postalCode":"91278","locality":"Pottenstein","municipality":{"key":"09472179","name":"Pottenstein, St","type":"Stadt"},"district":{"key":"09472","name":"Bayreuth","type":"Landkreis"},"federalState":{"key":"09","name":"Bayern"}},{"name":"Am Köppelplatz","postalCode":"91278","locality":"Pottenstein","municipality":{"key":"09472179","name":"Pottenstein, St","type":"Stadt"},"district":{"key":"09472","name":"Bayreuth","type":"Landkreis"},"federalState":{"key":"09","name":"Bayern"}},{"name":"Am Kurzentrum","postalCode":"91278","locality":"Pottenstein","municipality":{"key":"09472179","name":"Pottenstein, St","type":"Stadt"},"district":{"key":"09472","name":"Bayreuth","type":"Landkreis"},"federalState":{"key":"09","name":"Bayern"}},{"name":"Am Langen Berg","postalCode":"91278","locality":"Pottenstein","municipality":{"key":"09472179","name":"Pottenstein, St","type":"Stadt"},"district":{"key":"09472","name":"Bayreuth","type":"Landkreis"},"federalState":{"key":"09","name":"Bayern"}},{"name":"Am Lindsbach","postalCode":"91278","locality":"Pottenstein","municipality":{"key":"09472179","name":"Pottenstein, St","type":"Stadt"},"district":{"key":"09472","name":"Bayreuth","type":"Landkreis"},"federalState":{"key":"09","name":"Bayern"}},{"name":"Am Meiernberge","postalCode":"31868","locality":"Ottenstein","municipality":{"key":"03255031","name":"Ottenstein, Flecken","type":"Kreisangehörige_Gemeinde"},"district":{"key":"03255","name":"Holzminden","type":"Landkreis"},"federalState":{"key":"03","name":"Niedersachsen"}},{"name":"Am Museum","postalCode":"91278","locality":"Pottenstein","municipality":{"key":"09472179","name":"Pottenstein, St","type":"Stadt"},"district":{"key":"09472","name":"Bayreuth","type":"Landkreis"},"federalState":{"key":"09","name":"Bayern"}},{"name":"Am Neuen See","postalCode":"91278","locality":"Pottenstein","municipality":{"key":"09472179","name":"Pottenstein, St","type":"Stadt"},"district":{"key":"09472","name":"Bayreuth","type":"Landkreis"},"federalState":{"key":"09","name":"Bayern"}},{"name":"Am Schützenplatz","postalCode":"31868","locality":"Ottenstein","municipality":{"key":"03255031","name":"Ottenstein, Flecken","type":"Kreisangehörige_Gemeinde"},"district":{"key":"03255","name":"Holzminden","type":"Landkreis"},"federalState":{"key":"03","name":"Niedersachsen"}},{"name":"Am Siegenberg","postalCode":"91278","locality":"Pottenstein","municipality":{"key":"09472179","name":"Pottenstein, St","type":"Stadt"},"district":{"key":"09472","name":"Bayreuth","type":"Landkreis"},"federalState":{"key":"09","name":"Bayern"}},{"name":"Am Sonnenhang","postalCode":"31868","locality":"Ottenstein","municipality":{"key":"03255031","name":"Ottenstein, Flecken","type":"Kreisangehörige_Gemeinde"},"district":{"key":"03255","name":"Holzminden","type":"Landkreis"},"federalState":{"key":"03","name":"Niedersachsen"}},{"name":"Am Sportzentrum","postalCode":"91278","locality":"Pottenstein","municipality":{"key":"09472179","name":"Pottenstein, St","type":"Stadt"},"district":{"key":"09472","name":"Bayreuth","type":"Landkreis"},"federalState":{"key":"09","name":"Bayern"}},{"name":"Am Stadtgraben","postalCode":"91278","locality":"Pottenstein","municipality":{"key":"09472179","name":"Pottenstein, St","type":"Stadt"},"district":{"key":"09472","name":"Bayreuth","type":"Landkreis"},"federalState":{"key":"09","name":"Bayern"}},{"name":"Am Steigacker","postalCode":"91278","locality":"Pottenstein","municipality":{"key":"09472179","name":"Pottenstein, St","type":"Stadt"},"district":{"key":"09472","name":"Bayreuth","type":"Landkreis"},"federalState":{"key":"09","name":"Bayern"}},{"name":"Am Steinbruchweg","postalCode":"91278","locality":"Pottenstein","municipality":{"key":"09472179","name":"Pottenstein, St","type":"Stadt"},"district":{"key":"09472","name":"Bayreuth","type":"Landkreis"},"federalState":{"key":"09","name":"Bayern"}},{"name":"Amtstr.","postalCode":"31868","locality":"Ottenstein","municipality":{"key":"03255031","name":"Ottenstein, Flecken","type":"Kreisangehörige_Gemeinde"},"district":{"key":"03255","name":"Holzminden","type":"Landkreis"},"federalState":{"key":"03","name":"Niedersachsen"}},{"name":"Am Winkel","postalCode":"31868","locality":"Ottenstein","municipality":{"key":"03255031","name":"Ottenstein, Flecken","type":"Kreisangehörige_Gemeinde"},"district":{"key":"03255","name":"Holzminden","type":"Landkreis"},"federalState":{"key":"03","name":"Niedersachsen"}},{"name":"Am Wolfssteig","postalCode":"91278","locality":"Pottenstein","municipality":{"key":"09472179","name":"Pottenstein, St","type":"Stadt"},"district":{"key":"09472","name":"Bayreuth","type":"Landkreis"},"federalState":{"key":"09","name":"Bayern"}},{"name":"An Betzenwegl","postalCode":"91278","locality":"Pottenstein","municipality":{"key":"09472179","name":"Pottenstein, St","type":"Stadt"},"district":{"key":"09472","name":"Bayreuth","type":"Landkreis"},"federalState":{"key":"09","name":"Bayern"}},{"name":"An der Kirche","postalCode":"31868","locality":"Ottenstein","municipality":{"key":"03255031","name":"Ottenstein, Flecken","type":"Kreisangehörige_Gemeinde"},"district":{"key":"03255","name":"Holzminden","type":"Landkreis"},"federalState":{"key":"03","name":"Niedersachsen"}},{"name":"An der Stressenleite","postalCode":"91278","locality":"Pottenstein","municipality":{"key":"09472179","name":"Pottenstein, St","type":"Stadt"},"district":{"key":"09472","name":"Bayreuth","type":"Landkreis"},"federalState":{"key":"09","name":"Bayern"}},{"name":"Bärenschlucht","postalCode":"91278","locality":"Pottenstein","municipality":{"key":"09472179","name":"Pottenstein, St","type":"Stadt"},"district":{"key":"09472","name":"Bayreuth","type":"Landkreis"},"federalState":{"key":"09","name":"Bayern"}},{"name":"Baumgarten","postalCode":"31868","locality":"Ottenstein","municipality":{"key":"03255031","name":"Ottenstein, Flecken","type":"Kreisangehörige_Gemeinde"},"district":{"key":"03255","name":"Holzminden","type":"Landkreis"},"federalState":{"key":"03","name":"Niedersachsen"}},{"name":"Bayreuther Berg","postalCode":"91278","locality":"Pottenstein","municipality":{"key":"09472179","name":"Pottenstein, St","type":"Stadt"},"district":{"key":"09472","name":"Bayreuth","type":"Landkreis"},"federalState":{"key":"09","name":"Bayern"}},{"name":"Birkenstr.","postalCode":"91278","locality":"Pottenstein","municipality":{"key":"09472179","name":"Pottenstein, St","type":"Stadt"},"district":{"key":"09472","name":"Bayreuth","type":"Landkreis"},"federalState":{"key":"09","name":"Bayern"}},{"name":"Bornbrink","postalCode":"31868","locality":"Ottenstein","municipality":{"key":"03255031","name":"Ottenstein, Flecken","type":"Kreisangehörige_Gemeinde"},"district":{"key":"03255","name":"Holzminden","type":"Landkreis"},"federalState":{"key":"03","name":"Niedersachsen"}},{"name":"Bösseberg","postalCode":"31868","locality":"Ottenstein","municipality":{"key":"03255031","name":"Ottenstein, Flecken","type":"Kreisangehörige_Gemeinde"},"district":{"key":"03255","name":"Holzminden","type":"Landkreis"},"federalState":{"key":"03","name":"Niedersachsen"}},{"name":"Breitäcker","postalCode":"91278","locality":"Pottenstein","municipality":{"key":"09472179","name":"Pottenstein, St","type":"Stadt"},"district":{"key":"09472","name":"Bayreuth","type":"Landkreis"},"federalState":{"key":"09","name":"Bayern"}},{"name":"Breite Str.","postalCode":"31868","locality":"Ottenstein","municipality":{"key":"03255031","name":"Ottenstein, Flecken","type":"Kreisangehörige_Gemeinde"},"district":{"key":"03255","name":"Holzminden","type":"Landkreis"},"federalState":{"key":"03","name":"Niedersachsen"}},{"name":"Bruchstr.","postalCode":"31868","locality":"Ottenstein","municipality":{"key":"03255031","name":"Ottenstein, Flecken","type":"Kreisangehörige_Gemeinde"},"district":{"key":"03255","name":"Holzminden","type":"Landkreis"},"federalState":{"key":"03","name":"Niedersachsen"}},{"name":"Buchenweg","postalCode":"91278","locality":"Pottenstein","municipality":{"key":"09472179","name":"Pottenstein, St","type":"Stadt"},"district":{"key":"09472","name":"Bayreuth","type":"Landkreis"},"federalState":{"key":"09","name":"Bayern"}},{"name":"Burgstr.","postalCode":"91278","locality":"Pottenstein","municipality":{"key":"09472179","name":"Pottenstein, St","type":"Stadt"},"district":{"key":"09472","name":"Bayreuth","type":"Landkreis"},"federalState":{"key":"09","name":"Bayern"}},{"name":"Claus-Petri-Str.","postalCode":"31868","locality":"Ottenstein","municipality":{"key":"03255031","name":"Ottenstein, Flecken","type":"Kreisangehörige_Gemeinde"},"district":{"key":"03255","name":"Holzminden","type":"Landkreis"},"federalState":{"key":"03","name":"Niedersachsen"}},{"name":"Dr.-Brunner-Str.","postalCode":"91278","locality":"Pottenstein","municipality":{"key":"09472179","name":"Pottenstein, St","type":"Stadt"},"district":{"key":"09472","name":"Bayreuth","type":"Landkreis"},"federalState":{"key":"09","name":"Bayern"}},{"name":"Dunkle Str.","postalCode":"31868","locality":"Ottenstein","municipality":{"key":"03255031","name":"Ottenstein, Flecken","type":"Kreisangehörige_Gemeinde"},"district":{"key":"03255","name":"Holzminden","type":"Landkreis"},"federalState":{"key":"03","name":"Niedersachsen"}},{"name":"Eckenbrecherstr.","postalCode":"37603","locality":"Holzminden","municipality":{"key":"03255023","name":"Holzminden, Stadt","type":"Stadt"},"district":{"key":"03255","name":"Holzminden","type":"Landkreis"},"federalState":{"key":"03","name":"Niedersachsen"}},{"name":"Eichenallee","postalCode":"37603","locality":"Holzminden","municipality":{"key":"03255023","name":"Holzminden, Stadt","type":"Stadt"},"district":{"key":"03255","name":"Holzminden","type":"Landkreis"},"federalState":{"key":"03","name":"Niedersachsen"}},{"name":"Eichendorffstr.","postalCode":"37603","locality":"Holzminden","municipality":{"key":"03255023","name":"Holzminden, Stadt","type":"Stadt"},"district":{"key":"03255","name":"Holzminden","type":"Landkreis"},"federalState":{"key":"03","name":"Niedersachsen"}},{"name":"Einbecker Str.","postalCode":"37603","locality":"Holzminden","municipality":{"key":"03255023","name":"Holzminden, Stadt","type":"Stadt"},"district":{"key":"03255","name":"Holzminden","type":"Landkreis"},"federalState":{"key":"03","name":"Niedersachsen"}},{"name":"Elchweg","postalCode":"37603","locality":"Holzminden","municipality":{"key":"03255023","name":"Holzminden, Stadt","type":"Stadt"},"district":{"key":"03255","name":"Holzminden","type":"Landkreis"},"federalState":{"key":"03","name":"Niedersachsen"}},{"name":"Elsa-Brändström-Weg","postalCode":"37603","locality":"Holzminden","municipality":{"key":"03255023","name":"Holzminden, Stadt","type":"Stadt"},"district":{"key":"03255","name":"Holzminden","type":"Landkreis"},"federalState":{"key":"03","name":"Niedersachsen"}},{"name":"Enge Str.","postalCode":"37603","locality":"Holzminden","municipality":{"key":"03255023","name":"Holzminden, Stadt","type":"Stadt"},"district":{"key":"03255","name":"Holzminden","type":"Landkreis"},"federalState":{"key":"03","name":"Niedersachsen"}},{"name":"Ernst-Abbe-Str.","postalCode":"37603","locality":"Holzminden","municipality":{"key":"03255023","name":"Holzminden, Stadt","type":"Stadt"},"district":{"key":"03255","name":"Holzminden","type":"Landkreis"},"federalState":{"key":"03","name":"Niedersachsen"}},{"name":"Ernst-August-Str.","postalCode":"37603","locality":"Holzminden","municipality":{"key":"03255023","name":"Holzminden, Stadt","type":"Stadt"},"district":{"key":"03255","name":"Holzminden","type":"Landkreis"},"federalState":{"key":"03","name":"Niedersachsen"}},{"name":"Erwin-Böhme-Str.","postalCode":"37603","locality":"Holzminden","municipality":{"key":"03255023","name":"Holzminden, Stadt","type":"Stadt"},"district":{"key":"03255","name":"Holzminden","type":"Landkreis"},"federalState":{"key":"03","name":"Niedersachsen"}},{"name":"Eulenweg","postalCode":"37603","locality":"Holzminden","municipality":{"key":"03255505","name":"Holzminden, gemfr. Gebiet","type":"Gemeindefreies_Gebiet_Unbewohnt"},"district":{"key":"03255","name":"Holzminden","type":"Landkreis"},"federalState":{"key":"03","name":"Niedersachsen"}},{"name":"Everstein","postalCode":"37603","locality":"Holzminden","municipality":{"key":"03255023","name":"Holzminden, Stadt","type":"Stadt"},"district":{"key":"03255","name":"Holzminden","type":"Landkreis"},"federalState":{"key":"03","name":"Niedersachsen"}},{"name":"Fahrenbreite","postalCode":"31868","locality":"Ottenstein","municipality":{"key":"03255031","name":"Ottenstein, Flecken","type":"Kreisangehörige_Gemeinde"},"district":{"key":"03255","name":"Holzminden","type":"Landkreis"},"federalState":{"key":"03","name":"Niedersachsen"}},{"name":"Fischergasse","postalCode":"91278","locality":"Pottenstein","municipality":{"key":"09472179","name":"Pottenstein, St","type":"Stadt"},"district":{"key":"09472","name":"Bayreuth","type":"Landkreis"},"federalState":{"key":"09","name":"Bayern"}},{"name":"Forchheimer Str.","postalCode":"91278","locality":"Pottenstein","municipality":{"key":"09472179","name":"Pottenstein, St","type":"Stadt"},"district":{"key":"09472","name":"Bayreuth","type":"Landkreis"},"federalState":{"key":"09","name":"Bayern"}},{"name":"Forstackerstr.","postalCode":"91278","locality":"Pottenstein","municipality":{"key":"09472179","name":"Pottenstein, St","type":"Stadt"},"district":{"key":"09472","name":"Bayreuth","type":"Landkreis"},"federalState":{"key":"09","name":"Bayern"}},{"name":"Franz-Wittmann-Gasse","postalCode":"91278","locality":"Pottenstein","municipality":{"key":"09472179","name":"Pottenstein, St","type":"Stadt"},"district":{"key":"09472","name":"Bayreuth","type":"Landkreis"},"federalState":{"key":"09","name":"Bayern"}},{"name":"Freiherr-von-Redwitz-Gasse","postalCode":"91278","locality":"Pottenstein","municipality":{"key":"09472179","name":"Pottenstein, St","type":"Stadt"},"district":{"key":"09472","name":"Bayreuth","type":"Landkreis"},"federalState":{"key":"09","name":"Bayern"}},{"name":"Friedrich-Wachter-Str.","postalCode":"91278","locality":"Pottenstein","municipality":{"key":"09472179","name":"Pottenstein, St","type":"Stadt"},"district":{"key":"09472","name":"Bayreuth","type":"Landkreis"},"federalState":{"key":"09","name":"Bayern"}},{"name":"Fronfeste","postalCode":"91278","locality":"Pottenstein","municipality":{"key":"09472179","name":"Pottenstein, St","type":"Stadt"},"district":{"key":"09472","name":"Bayreuth","type":"Landkreis"},"federalState":{"key":"09","name":"Bayern"}},{"name":"Gartenstr.","postalCode":"91278","locality":"Pottenstein","municipality":{"key":"09472179","name":"Pottenstein, St","type":"Stadt"},"district":{"key":"09472","name":"Bayreuth","type":"Landkreis"},"federalState":{"key":"09","name":"Bayern"}},{"name":"Geißenweg","postalCode":"91278","locality":"Pottenstein","municipality":{"key":"09472179","name":"Pottenstein, St","type":"Stadt"},"district":{"key":"09472","name":"Bayreuth","type":"Landkreis"},"federalState":{"key":"09","name":"Bayern"}},{"name":"Geusmanns","postalCode":"91278","locality":"Pottenstein","municipality":{"key":"09472179","name":"Pottenstein, St","type":"Stadt"},"district":{"key":"09472","name":"Bayreuth","type":"Landkreis"},"federalState":{"key":"09","name":"Bayern"}},{"name":"Glesse","postalCode":"31868","locality":"Ottenstein","municipality":{"key":"03255031","name":"Ottenstein, Flecken","type":"Kreisangehörige_Gemeinde"},"district":{"key":"03255","name":"Holzminden","type":"Landkreis"},"federalState":{"key":"03","name":"Niedersachsen"}},{"name":"Glesser Str.","postalCode":"31868","locality":"Ottenstein","municipality":{"key":"03255031","name":"Ottenstein, Flecken","type":"Kreisangehörige_Gemeinde"},"district":{"key":"03255","name":"Holzminden","type":"Landkreis"},"federalState":{"key":"03","name":"Niedersachsen"}},{"name":"Graisch","postalCode":"91278","locality":"Pottenstein","municipality":{"key":"09472179","name":"Pottenstein, St","type":"Stadt"},"district":{"key":"09472","name":"Bayreuth","type":"Landkreis"},"federalState":{"key":"09","name":"Bayern"}},{"name":"Haselbrunn","postalCode":"91278","locality":"Pottenstein","municipality":{"key":"09472179","name":"Pottenstein, St","type":"Stadt"},"district":{"key":"09472","name":"Bayreuth","type":"Landkreis"},"federalState":{"key":"09","name":"Bayern"}},{"name":"Hasengraben","postalCode":"91278","locality":"Pottenstein","municipality":{"key":"09472179","name":"Pottenstein, St","type":"Stadt"},"district":{"key":"09472","name":"Bayreuth","type":"Landkreis"},"federalState":{"key":"09","name":"Bayern"}},{"name":"Haßlach","postalCode":"91278","locality":"Pottenstein","municipality":{"key":"09472179","name":"Pottenstein, St","type":"Stadt"},"district":{"key":"09472","name":"Bayreuth","type":"Landkreis"},"federalState":{"key":"09","name":"Bayern"}},{"name":"Hauptstr.","postalCode":"31868","locality":"Ottenstein","municipality":{"key":"03255031","name":"Ottenstein, Flecken","type":"Kreisangehörige_Gemeinde"},"district":{"key":"03255","name":"Holzminden","type":"Landkreis"},"federalState":{"key":"03","name":"Niedersachsen"}},{"name":"Hauptstr.","postalCode":"91278","locality":"Pottenstein","municipality":{"key":"09472179","name":"Pottenstein, St","type":"Stadt"},"district":{"key":"09472","name":"Bayreuth","type":"Landkreis"},"federalState":{"key":"09","name":"Bayern"}},{"name":"Hehlener Str.","postalCode":"31868","locality":"Ottenstein","municipality":{"key":"03255031","name":"Ottenstein, Flecken","type":"Kreisangehörige_Gemeinde"},"district":{"key":"03255","name":"Holzminden","type":"Landkreis"},"federalState":{"key":"03","name":"Niedersachsen"}},{"name":"Hinter dem Hagen","postalCode":"31868","locality":"Ottenstein","municipality":{"key":"03255031","name":"Ottenstein, Flecken","type":"Kreisangehörige_Gemeinde"},"district":{"key":"03255","name":"Holzminden","type":"Landkreis"},"federalState":{"key":"03","name":"Niedersachsen"}},{"name":"Hintere Str.","postalCode":"31868","locality":"Ottenstein","municipality":{"key":"03255031","name":"Ottenstein, Flecken","type":"Kreisangehörige_Gemeinde"},"district":{"key":"03255","name":"Holzminden","type":"Landkreis"},"federalState":{"key":"03","name":"Niedersachsen"}},{"name":"Hollergasse","postalCode":"91278","locality":"Pottenstein","municipality":{"key":"09472179","name":"Pottenstein, St","type":"Stadt"},"district":{"key":"09472","name":"Bayreuth","type":"Landkreis"},"federalState":{"key":"09","name":"Bayern"}},{"name":"Im Amtgarten","postalCode":"31868","locality":"Ottenstein","municipality":{"key":"03255031","name":"Ottenstein, Flecken","type":"Kreisangehörige_Gemeinde"},"district":{"key":"03255","name":"Holzminden","type":"Landkreis"},"federalState":{"key":"03","name":"Niedersachsen"}},{"name":"Im Eichenbusch","postalCode":"31868","locality":"Ottenstein","municipality":{"key":"03255031","name":"Ottenstein, Flecken","type":"Kreisangehörige_Gemeinde"},"district":{"key":"03255","name":"Holzminden","type":"Landkreis"},"federalState":{"key":"03","name":"Niedersachsen"}},{"name":"Im Kohlgarten","postalCode":"31868","locality":"Ottenstein","municipality":{"key":"03255031","name":"Ottenstein, Flecken","type":"Kreisangehörige_Gemeinde"},"district":{"key":"03255","name":"Holzminden","type":"Landkreis"},"federalState":{"key":"03","name":"Niedersachsen"}},{"name":"Im Küchengarten","postalCode":"31868","locality":"Ottenstein","municipality":{"key":"03255031","name":"Ottenstein, Flecken","type":"Kreisangehörige_Gemeinde"},"district":{"key":"03255","name":"Holzminden","type":"Landkreis"},"federalState":{"key":"03","name":"Niedersachsen"}},{"name":"Im Tal","postalCode":"91278","locality":"Pottenstein","municipality":{"key":"09472179","name":"Pottenstein, St","type":"Stadt"},"district":{"key":"09472","name":"Bayreuth","type":"Landkreis"},"federalState":{"key":"09","name":"Bayern"}},{"name":"Im Winkel","postalCode":"31868","locality":"Ottenstein","municipality":{"key":"03255031","name":"Ottenstein, Flecken","type":"Kreisangehörige_Gemeinde"},"district":{"key":"03255","name":"Holzminden","type":"Landkreis"},"federalState":{"key":"03","name":"Niedersachsen"}},{"name":"Jägersteig I","postalCode":"91278","locality":"Pottenstein","municipality":{"key":"09472179","name":"Pottenstein, St","type":"Stadt"},"district":{"key":"09472","name":"Bayreuth","type":"Landkreis"},"federalState":{"key":"09","name":"Bayern"}},{"name":"Jägerstr.","postalCode":"91278","locality":"Pottenstein","municipality":{"key":"09472179","name":"Pottenstein, St","type":"Stadt"},"district":{"key":"09472","name":"Bayreuth","type":"Landkreis"},"federalState":{"key":"09","name":"Bayern"}},{"name":"Jakobusstr.","postalCode":"91278","locality":"Pottenstein","municipality":{"key":"09472179","name":"Pottenstein, St","type":"Stadt"},"district":{"key":"09472","name":"Bayreuth","type":"Landkreis"},"federalState":{"key":"09","name":"Bayern"}},{"name":"Jugendherbergsstr.","postalCode":"91278","locality":"Pottenstein","municipality":{"key":"09472179","name":"Pottenstein, St","type":"Stadt"},"district":{"key":"09472","name":"Bayreuth","type":"Landkreis"},"federalState":{"key":"09","name":"Bayern"}},{"name":"Kantor-Rose-Str.","postalCode":"31868","locality":"Ottenstein","municipality":{"key":"03255031","name":"Ottenstein, Flecken","type":"Kreisangehörige_Gemeinde"},"district":{"key":"03255","name":"Holzminden","type":"Landkreis"},"federalState":{"key":"03","name":"Niedersachsen"}},{"name":"Kapellenweg","postalCode":"91278","locality":"Pottenstein","municipality":{"key":"09472179","name":"Pottenstein, St","type":"Stadt"},"district":{"key":"09472","name":"Bayreuth","type":"Landkreis"},"federalState":{"key":"09","name":"Bayern"}},{"name":"Kiefernweg","postalCode":"91278","locality":"Pottenstein","municipality":{"key":"09472179","name":"Pottenstein, St","type":"Stadt"},"district":{"key":"09472","name":"Bayreuth","type":"Landkreis"},"federalState":{"key":"09","name":"Bayern"}},{"name":"Kirchplatz","postalCode":"91278","locality":"Pottenstein","municipality":{"key":"09472179","name":"Pottenstein, St","type":"Stadt"},"district":{"key":"09472","name":"Bayreuth","type":"Landkreis"},"federalState":{"key":"09","name":"Bayern"}},{"name":"Kirchstr.","postalCode":"31868","locality":"Ottenstein","municipality":{"key":"03255031","name":"Ottenstein, Flecken","type":"Kreisangehörige_Gemeinde"},"district":{"key":"03255","name":"Holzminden","type":"Landkreis"},"federalState":{"key":"03","name":"Niedersachsen"}},{"name":"Kleinkirchenbirkig","postalCode":"91278","locality":"Pottenstein","municipality":{"key":"09472179","name":"Pottenstein, St","type":"Stadt"},"district":{"key":"09472","name":"Bayreuth","type":"Landkreis"},"federalState":{"key":"09","name":"Bayern"}},{"name":"Kleinlesau","postalCode":"91278","locality":"Pottenstein","municipality":{"key":"09472179","name":"Pottenstein, St","type":"Stadt"},"district":{"key":"09472","name":"Bayreuth","type":"Landkreis"},"federalState":{"key":"09","name":"Bayern"}},{"name":"Klumpertal","postalCode":"91278","locality":"Pottenstein","municipality":{"key":"09472179","name":"Pottenstein, St","type":"Stadt"},"district":{"key":"09472","name":"Bayreuth","type":"Landkreis"},"federalState":{"key":"09","name":"Bayern"}},{"name":"Knickstr.","postalCode":"31868","locality":"Ottenstein","municipality":{"key":"03255031","name":"Ottenstein, Flecken","type":"Kreisangehörige_Gemeinde"},"district":{"key":"03255","name":"Holzminden","type":"Landkreis"},"federalState":{"key":"03","name":"Niedersachsen"}},{"name":"Kohlsteiner Str.","postalCode":"91278","locality":"Pottenstein","municipality":{"key":"09472179","name":"Pottenstein, St","type":"Stadt"},"district":{"key":"09472","name":"Bayreuth","type":"Landkreis"},"federalState":{"key":"09","name":"Bayern"}},{"name":"Kolleys Gosse","postalCode":"31868","locality":"Ottenstein","municipality":{"key":"03255031","name":"Ottenstein, Flecken","type":"Kreisangehörige_Gemeinde"},"district":{"key":"03255","name":"Holzminden","type":"Landkreis"},"federalState":{"key":"03","name":"Niedersachsen"}},{"name":"Korfesstr.","postalCode":"31868","locality":"Ottenstein","municipality":{"key":"03255031","name":"Ottenstein, Flecken","type":"Kreisangehörige_Gemeinde"},"district":{"key":"03255","name":"Holzminden","type":"Landkreis"},"federalState":{"key":"03","name":"Niedersachsen"}},{"name":"Kreuzweg","postalCode":"31868","locality":"Ottenstein","municipality":{"key":"03255031","name":"Ottenstein, Flecken","type":"Kreisangehörige_Gemeinde"},"district":{"key":"03255","name":"Holzminden","type":"Landkreis"},"federalState":{"key":"03","name":"Niedersachsen"}},{"name":"Kühlenfelser Str.","postalCode":"91278","locality":"Pottenstein","municipality":{"key":"09472179","name":"Pottenstein, St","type":"Stadt"},"district":{"key":"09472","name":"Bayreuth","type":"Landkreis"},"federalState":{"key":"09","name":"Bayern"}},{"name":"Kurpark","postalCode":"91278","locality":"Pottenstein","municipality":{"key":"09472179","name":"Pottenstein, St","type":"Stadt"},"district":{"key":"09472","name":"Bayreuth","type":"Landkreis"},"federalState":{"key":"09","name":"Bayern"}},{"name":"Leienfels","postalCode":"91278","locality":"Pottenstein","municipality":{"key":"09472179","name":"Pottenstein, St","type":"Stadt"},"district":{"key":"09472","name":"Bayreuth","type":"Landkreis"},"federalState":{"key":"09","name":"Bayern"}},{"name":"Lerchenweg","postalCode":"31868","locality":"Ottenstein","municipality":{"key":"03255031","name":"Ottenstein, Flecken","type":"Kreisangehörige_Gemeinde"},"district":{"key":"03255","name":"Holzminden","type":"Landkreis"},"federalState":{"key":"03","name":"Niedersachsen"}},{"name":"Lindenhöfe","postalCode":"91278","locality":"Pottenstein","municipality":{"key":"09472179","name":"Pottenstein, St","type":"Stadt"},"district":{"key":"09472","name":"Bayreuth","type":"Landkreis"},"federalState":{"key":"09","name":"Bayern"}},{"name":"Lindenstock","postalCode":"91278","locality":"Pottenstein","municipality":{"key":"09472179","name":"Pottenstein, St","type":"Stadt"},"district":{"key":"09472","name":"Bayreuth","type":"Landkreis"},"federalState":{"key":"09","name":"Bayern"}},{"name":"Lindenstr.","postalCode":"91278","locality":"Pottenstein","municipality":{"key":"09472179","name":"Pottenstein, St","type":"Stadt"},"district":{"key":"09472","name":"Bayreuth","type":"Landkreis"},"federalState":{"key":"09","name":"Bayern"}},{"name":"Lohweg","postalCode":"91278","locality":"Pottenstein","municipality":{"key":"09472179","name":"Pottenstein, St","type":"Stadt"},"district":{"key":"09472","name":"Bayreuth","type":"Landkreis"},"federalState":{"key":"09","name":"Bayern"}},{"name":"Lüntorfer Str.","postalCode":"31868","locality":"Ottenstein","municipality":{"key":"03255031","name":"Ottenstein, Flecken","type":"Kreisangehörige_Gemeinde"},"district":{"key":"03255","name":"Holzminden","type":"Landkreis"},"federalState":{"key":"03","name":"Niedersachsen"}},{"name":"Malerwinkel","postalCode":"91278","locality":"Pottenstein","municipality":{"key":"09472179","name":"Pottenstein, St","type":"Stadt"},"district":{"key":"09472","name":"Bayreuth","type":"Landkreis"},"federalState":{"key":"09","name":"Bayern"}},{"name":"Mandlau","postalCode":"91278","locality":"Pottenstein","municipality":{"key":"09472179","name":"Pottenstein, St","type":"Stadt"},"district":{"key":"09472","name":"Bayreuth","type":"Landkreis"},"federalState":{"key":"09","name":"Bayern"}},{"name":"Mariental","postalCode":"91278","locality":"Pottenstein","municipality":{"key":"09472179","name":"Pottenstein, St","type":"Stadt"},"district":{"key":"09472","name":"Bayreuth","type":"Landkreis"},"federalState":{"key":"09","name":"Bayern"}},{"name":"Michelsberg","postalCode":"91278","locality":"Pottenstein","municipality":{"key":"09472179","name":"Pottenstein, St","type":"Stadt"},"district":{"key":"09472","name":"Bayreuth","type":"Landkreis"},"federalState":{"key":"09","name":"Bayern"}},{"name":"Mittelstr.","postalCode":"31868","locality":"Ottenstein","municipality":{"key":"03255031","name":"Ottenstein, Flecken","type":"Kreisangehörige_Gemeinde"},"district":{"key":"03255","name":"Holzminden","type":"Landkreis"},"federalState":{"key":"03","name":"Niedersachsen"}},{"name":"Neue Str.","postalCode":"31868","locality":"Ottenstein","municipality":{"key":"03255031","name":"Ottenstein, Flecken","type":"Kreisangehörige_Gemeinde"},"district":{"key":"03255","name":"Holzminden","type":"Landkreis"},"federalState":{"key":"03","name":"Niedersachsen"}},{"name":"Neu-Geusmanns","postalCode":"91278","locality":"Pottenstein","municipality":{"key":"09472179","name":"Pottenstein, St","type":"Stadt"},"district":{"key":"09472","name":"Bayreuth","type":"Landkreis"},"federalState":{"key":"09","name":"Bayern"}},{"name":"Nürnberger Str.","postalCode":"91278","locality":"Pottenstein","municipality":{"key":"09472179","name":"Pottenstein, St","type":"Stadt"},"district":{"key":"09472","name":"Bayreuth","type":"Landkreis"},"federalState":{"key":"09","name":"Bayern"}},{"name":"Obere Dorfstr.","postalCode":"91278","locality":"Pottenstein","municipality":{"key":"09472179","name":"Pottenstein, St","type":"Stadt"},"district":{"key":"09472","name":"Bayreuth","type":"Landkreis"},"federalState":{"key":"09","name":"Bayern"}},{"name":"Oberes Püttlachtal","postalCode":"91278","locality":"Pottenstein","municipality":{"key":"09472179","name":"Pottenstein, St","type":"Stadt"},"district":{"key":"09472","name":"Bayreuth","type":"Landkreis"},"federalState":{"key":"09","name":"Bayern"}},{"name":"Pater-Reus-Str.","postalCode":"91278","locality":"Pottenstein","municipality":{"key":"09472179","name":"Pottenstein, St","type":"Stadt"},"district":{"key":"09472","name":"Bayreuth","type":"Landkreis"},"federalState":{"key":"09","name":"Bayern"}},{"name":"Pegnitzer Str.","postalCode":"91278","locality":"Pottenstein","municipality":{"key":"09472179","name":"Pottenstein, St","type":"Stadt"},"district":{"key":"09472","name":"Bayreuth","type":"Landkreis"},"federalState":{"key":"09","name":"Bayern"}},{"name":"Pfaffenwiese","postalCode":"91278","locality":"Pottenstein","municipality":{"key":"09472179","name":"Pottenstein, St","type":"Stadt"},"district":{"key":"09472","name":"Bayreuth","type":"Landkreis"},"federalState":{"key":"09","name":"Bayern"}},{"name":"Pottensteiner Str.","postalCode":"91278","locality":"Pottenstein","municipality":{"key":"09472179","name":"Pottenstein, St","type":"Stadt"},"district":{"key":"09472","name":"Bayreuth","type":"Landkreis"},"federalState":{"key":"09","name":"Bayern"}},{"name":"Prüllsbirkig","postalCode":"91278","locality":"Pottenstein","municipality":{"key":"09472179","name":"Pottenstein, St","type":"Stadt"},"district":{"key":"09472","name":"Bayreuth","type":"Landkreis"},"federalState":{"key":"09","name":"Bayern"}},{"name":"Püttlach","postalCode":"91278","locality":"Pottenstein","municipality":{"key":"09472179","name":"Pottenstein, St","type":"Stadt"},"district":{"key":"09472","name":"Bayreuth","type":"Landkreis"},"federalState":{"key":"09","name":"Bayern"}},{"name":"Quittenweg","postalCode":"37603","locality":"Holzminden","municipality":{"key":"03255023","name":"Holzminden, Stadt","type":"Stadt"},"district":{"key":"03255","name":"Holzminden","type":"Landkreis"},"federalState":{"key":"03","name":"Niedersachsen"}},{"name":"Rabertshof","postalCode":"91278","locality":"Pottenstein","municipality":{"key":"09472179","name":"Pottenstein, St","type":"Stadt"},"district":{"key":"09472","name":"Bayreuth","type":"Landkreis"},"federalState":{"key":"09","name":"Bayern"}},{"name":"Rackersberg","postalCode":"91278","locality":"Pottenstein","municipality":{"key":"09472179","name":"Pottenstein, St","type":"Stadt"},"district":{"key":"09472","name":"Bayreuth","type":"Landkreis"},"federalState":{"key":"09","name":"Bayern"}},{"name":"Sandäcker","postalCode":"91278","locality":"Pottenstein","municipality":{"key":"09472179","name":"Pottenstein, St","type":"Stadt"},"district":{"key":"09472","name":"Bayreuth","type":"Landkreis"},"federalState":{"key":"09","name":"Bayern"}},{"name":"Schlehenweg","postalCode":"91278","locality":"Pottenstein","municipality":{"key":"09472179","name":"Pottenstein, St","type":"Stadt"},"district":{"key":"09472","name":"Bayreuth","type":"Landkreis"},"federalState":{"key":"09","name":"Bayern"}},{"name":"Schneidertrift","postalCode":"31868","locality":"Ottenstein","municipality":{"key":"03255031","name":"Ottenstein, Flecken","type":"Kreisangehörige_Gemeinde"},"district":{"key":"03255","name":"Holzminden","type":"Landkreis"},"federalState":{"key":"03","name":"Niedersachsen"}},{"name":"Schulweg","postalCode":"31868","locality":"Ottenstein","municipality":{"key":"03255031","name":"Ottenstein, Flecken","type":"Kreisangehörige_Gemeinde"},"district":{"key":"03255","name":"Holzminden","type":"Landkreis"},"federalState":{"key":"03","name":"Niedersachsen"}},{"name":"Schüttersmühle","postalCode":"91278","locality":"Pottenstein","municipality":{"key":"09472179","name":"Pottenstein, St","type":"Stadt"},"district":{"key":"09472","name":"Bayreuth","type":"Landkreis"},"federalState":{"key":"09","name":"Bayern"}},{"name":"Siegmannsbrunn","postalCode":"91278","locality":"Pottenstein","municipality":{"key":"09472179","name":"Pottenstein, St","type":"Stadt"},"district":{"key":"09472","name":"Bayreuth","type":"Landkreis"},"federalState":{"key":"09","name":"Bayern"}},{"name":"Skywalk","postalCode":"91278","locality":"Pottenstein","municipality":{"key":"09472179","name":"Pottenstein, St","type":"Stadt"},"district":{"key":"09472","name":"Bayreuth","type":"Landkreis"},"federalState":{"key":"09","name":"Bayern"}},{"name":"Soranger","postalCode":"91278","locality":"Pottenstein","municipality":{"key":"09472179","name":"Pottenstein, St","type":"Stadt"},"district":{"key":"09472","name":"Bayreuth","type":"Landkreis"},"federalState":{"key":"09","name":"Bayern"}},{"name":"Spitalstr.","postalCode":"91278","locality":"Pottenstein","municipality":{"key":"09472179","name":"Pottenstein, St","type":"Stadt"},"district":{"key":"09472","name":"Bayreuth","type":"Landkreis"},"federalState":{"key":"09","name":"Bayern"}},{"name":"Steifling","postalCode":"91278","locality":"Pottenstein","municipality":{"key":"09472179","name":"Pottenstein, St","type":"Stadt"},"district":{"key":"09472","name":"Bayreuth","type":"Landkreis"},"federalState":{"key":"09","name":"Bayern"}},{"name":"Stieglitzenhöhe","postalCode":"91278","locality":"Pottenstein","municipality":{"key":"09472179","name":"Pottenstein, St","type":"Stadt"},"district":{"key":"09472","name":"Bayreuth","type":"Landkreis"},"federalState":{"key":"09","name":"Bayern"}},{"name":"St.-Johannes-Str.","postalCode":"91278","locality":"Pottenstein","municipality":{"key":"09472179","name":"Pottenstein, St","type":"Stadt"},"district":{"key":"09472","name":"Bayreuth","type":"Landkreis"},"federalState":{"key":"09","name":"Bayern"}},{"name":"Streitanger","postalCode":"31868","locality":"Ottenstein","municipality":{"key":"03255031","name":"Ottenstein, Flecken","type":"Kreisangehörige_Gemeinde"},"district":{"key":"03255","name":"Holzminden","type":"Landkreis"},"federalState":{"key":"03","name":"Niedersachsen"}},{"name":"Teubnerstr.","postalCode":"91278","locality":"Pottenstein","municipality":{"key":"09472179","name":"Pottenstein, St","type":"Stadt"},"district":{"key":"09472","name":"Bayreuth","type":"Landkreis"},"federalState":{"key":"09","name":"Bayern"}},{"name":"Untere Dorfstr.","postalCode":"91278","locality":"Pottenstein","municipality":{"key":"09472179","name":"Pottenstein, St","type":"Stadt"},"district":{"key":"09472","name":"Bayreuth","type":"Landkreis"},"federalState":{"key":"09","name":"Bayern"}},{"name":"Vockensteinweg","postalCode":"91278","locality":"Pottenstein","municipality":{"key":"09472179","name":"Pottenstein, St","type":"Stadt"},"district":{"key":"09472","name":"Bayreuth","type":"Landkreis"},"federalState":{"key":"09","name":"Bayern"}},{"name":"Voglerblick","postalCode":"31868","locality":"Ottenstein","municipality":{"key":"03255031","name":"Ottenstein, Flecken","type":"Kreisangehörige_Gemeinde"},"district":{"key":"03255","name":"Holzminden","type":"Landkreis"},"federalState":{"key":"03","name":"Niedersachsen"}},{"name":"Wacholderweg","postalCode":"91278","locality":"Pottenstein","municipality":{"key":"09472179","name":"Pottenstein, St","type":"Stadt"},"district":{"key":"09472","name":"Bayreuth","type":"Landkreis"},"federalState":{"key":"09","name":"Bayern"}},{"name":"Waidacher Dorfstr.","postalCode":"91278","locality":"Pottenstein","municipality":{"key":"09472179","name":"Pottenstein, St","type":"Stadt"},"district":{"key":"09472","name":"Bayreuth","type":"Landkreis"},"federalState":{"key":"09","name":"Bayern"}},{"name":"Waldmannsäcker","postalCode":"91278","locality":"Pottenstein","municipality":{"key":"09472179","name":"Pottenstein, St","type":"Stadt"},"district":{"key":"09472","name":"Bayreuth","type":"Landkreis"},"federalState":{"key":"09","name":"Bayern"}},{"name":"Weidenhüll bei Elbersberg","postalCode":"91278","locality":"Pottenstein","municipality":{"key":"09472179","name":"Pottenstein, St","type":"Stadt"},"district":{"key":"09472","name":"Bayreuth","type":"Landkreis"},"federalState":{"key":"09","name":"Bayern"}},{"name":"Weidenseeser Weg","postalCode":"91278","locality":"Pottenstein","municipality":{"key":"09472179","name":"Pottenstein, St","type":"Stadt"},"district":{"key":"09472","name":"Bayreuth","type":"Landkreis"},"federalState":{"key":"09","name":"Bayern"}},{"name":"Weidmannsgesees","postalCode":"91278","locality":"Pottenstein","municipality":{"key":"09472179","name":"Pottenstein, St","type":"Stadt"},"district":{"key":"09472","name":"Bayreuth","type":"Landkreis"},"federalState":{"key":"09","name":"Bayern"}},{"name":"Weinstr.","postalCode":"91278","locality":"Pottenstein","municipality":{"key":"09472179","name":"Pottenstein, St","type":"Stadt"},"district":{"key":"09472","name":"Bayreuth","type":"Landkreis"},"federalState":{"key":"09","name":"Bayern"}},{"name":"Weinweg","postalCode":"91278","locality":"Pottenstein","municipality":{"key":"09472179","name":"Pottenstein, St","type":"Stadt"},"district":{"key":"09472","name":"Bayreuth","type":"Landkreis"},"federalState":{"key":"09","name":"Bayern"}},{"name":"Wiesenanger","postalCode":"31868","locality":"Ottenstein","municipality":{"key":"03255031","name":"Ottenstein, Flecken","type":"Kreisangehörige_Gemeinde"},"district":{"key":"03255","name":"Holzminden","type":"Landkreis"},"federalState":{"key":"03","name":"Niedersachsen"}},{"name":"Wolfslohe","postalCode":"91278","locality":"Pottenstein","municipality":{"key":"09472179","name":"Pottenstein, St","type":"Stadt"},"district":{"key":"09472","name":"Bayreuth","type":"Landkreis"},"federalState":{"key":"09","name":"Bayern"}},{"name":"Ziegeleistr.","postalCode":"91278","locality":"Pottenstein","municipality":{"key":"09472179","name":"Pottenstein, St","type":"Stadt"},"district":{"key":"09472","name":"Bayreuth","type":"Landkreis"},"federalState":{"key":"09","name":"Bayern"}},{"name":"Ziersmühlsteg","postalCode":"91278","locality":"Pottenstein","municipality":{"key":"09472179","name":"Pottenstein, St","type":"Stadt"},"district":{"key":"09472","name":"Bayreuth","type":"Landkreis"},"federalState":{"key":"09","name":"Bayern"}},{"name":"Zum Echternberg","postalCode":"31868","locality":"Ottenstein","municipality":{"key":"03255031","name":"Ottenstein, Flecken","type":"Kreisangehörige_Gemeinde"},"district":{"key":"03255","name":"Holzminden","type":"Landkreis"},"federalState":{"key":"03","name":"Niedersachsen"}},{"name":"Zum Rödebusch","postalCode":"31868","locality":"Ottenstein","municipality":{"key":"03255031","name":"Ottenstein, Flecken","type":"Kreisangehörige_Gemeinde"},"district":{"key":"03255","name":"Holzminden","type":"Landkreis"},"federalState":{"key":"03","name":"Niedersachsen"}},{"name":"Zum Schloss","postalCode":"91278","locality":"Pottenstein","municipality":{"key":"09472179","name":"Pottenstein, St","type":"Stadt"},"district":{"key":"09472","name":"Bayreuth","type":"Landkreis"},"federalState":{"key":"09","name":"Bayern"}},{"name":"Zum Strang","postalCode":"31868","locality":"Ottenstein","municipality":{"key":"03255031","name":"Ottenstein, Flecken","type":"Kreisangehörige_Gemeinde"},"district":{"key":"03255","name":"Holzminden","type":"Landkreis"},"federalState":{"key":"03","name":"Niedersachsen"}},{"name":"Zum Zeckenstein","postalCode":"91278","locality":"Pottenstein","municipality":{"key":"09472179","name":"Pottenstein, St","type":"Stadt"},"district":{"key":"09472","name":"Bayreuth","type":"Landkreis"},"federalState":{"key":"09","name":"Bayern"}},{"name":"Zur Allee","postalCode":"91278","locality":"Pottenstein","municipality":{"key":"09472179","name":"Pottenstein, St","type":"Stadt"},"district":{"key":"09472","name":"Bayreuth","type":"Landkreis"},"federalState":{"key":"09","name":"Bayern"}},{"name":"Zur Hinterecke","postalCode":"91278","locality":"Pottenstein","municipality":{"key":"09472179","name":"Pottenstein, St","type":"Stadt"},"district":{"key":"09472","name":"Bayreuth","type":"Landkreis"},"federalState":{"key":"09","name":"Bayern"}},{"name":"Zur Linde","postalCode":"31868","locality":"Ottenstein","municipality":{"key":"03255031","name":"Ottenstein, Flecken","type":"Kreisangehörige_Gemeinde"},"district":{"key":"03255","name":"Holzminden","type":"Landkreis"},"federalState":{"key":"03","name":"Niedersachsen"}},{"name":"Über dem Gerichte","postalCode":"37603","locality":"Holzminden","municipality":{"key":"03255023","name":"Holzminden, Stadt","type":"Stadt"},"district":{"key":"03255","name":"Holzminden","type":"Landkreis"},"federalState":{"key":"03","name":"Niedersachsen"}},]