[{"name":"Alfred-Lang-Str.","postalCode":"08141","locality":"Reinsdorf","municipality":{"key":"14524250","name":"Reinsdorf","type":"Kreisangehörige_Gemeinde"},"district":{"key":"14524","name":"Zwickau","type":"Landkreis"},"federalState":{"key":"14","name":"Sachsen"}},{"name":"Alfred-Neef-Str.","postalCode":"08141","locality":"Reinsdorf","municipality":{"key":"14524250","name":"Reinsdorf","type":"Kreisangehörige_Gemeinde"},"district":{"key":"14524","name":"Zwickau","type":"Landkreis"},"federalState":{"key":"14","name":"Sachsen"}},{"name":"Alter Marktsteig","postalCode":"08141","locality":"Reinsdorf","municipality":{"key":"14524250","name":"Reinsdorf","type":"Kreisangehörige_Gemeinde"},"district":{"key":"14524","name":"Zwickau","type":"Landkreis"},"federalState":{"key":"14","name":"Sachsen"}},{"name":"Am alten Sportplatz","postalCode":"08141","locality":"Reinsdorf","municipality":{"key":"14524250","name":"Reinsdorf","type":"Kreisangehörige_Gemeinde"},"district":{"key":"14524","name":"Zwickau","type":"Landkreis"},"federalState":{"key":"14","name":"Sachsen"}},{"name":"Am Anger","postalCode":"08141","locality":"Reinsdorf","municipality":{"key":"14524250","name":"Reinsdorf","type":"Kreisangehörige_Gemeinde"},"district":{"key":"14524","name":"Zwickau","type":"Landkreis"},"federalState":{"key":"14","name":"Sachsen"}},{"name":"Am Angerberg","postalCode":"06556","locality":"Reinsdorf","municipality":{"key":"16065056","name":"Reinsdorf","type":"Kreisangehörige_Gemeinde"},"district":{"key":"16065","name":"Kyffhäuserkreis","type":"Landkreis"},"federalState":{"key":"16","name":"Thüringen"}},{"name":"Am Feldschlösschen","postalCode":"08141","locality":"Reinsdorf","municipality":{"key":"14524250","name":"Reinsdorf","type":"Kreisangehörige_Gemeinde"},"district":{"key":"14524","name":"Zwickau","type":"Landkreis"},"federalState":{"key":"14","name":"Sachsen"}},{"name":"Am Mühlteich","postalCode":"06556","locality":"Reinsdorf","municipality":{"key":"16065056","name":"Reinsdorf","type":"Kreisangehörige_Gemeinde"},"district":{"key":"16065","name":"Kyffhäuserkreis","type":"Landkreis"},"federalState":{"key":"16","name":"Thüringen"}},{"name":"Am Waldstadion","postalCode":"08141","locality":"Reinsdorf","municipality":{"key":"14524250","name":"Reinsdorf","type":"Kreisangehörige_Gemeinde"},"district":{"key":"14524","name":"Zwickau","type":"Landkreis"},"federalState":{"key":"14","name":"Sachsen"}},{"name":"An der Kohlenbahn","postalCode":"08141","locality":"Reinsdorf","municipality":{"key":"14524250","name":"Reinsdorf","type":"Kreisangehörige_Gemeinde"},"district":{"key":"14524","name":"Zwickau","type":"Landkreis"},"federalState":{"key":"14","name":"Sachsen"}},{"name":"Arno-Schüller-Str.","postalCode":"08141","locality":"Reinsdorf","municipality":{"key":"14524250","name":"Reinsdorf","type":"Kreisangehörige_Gemeinde"},"district":{"key":"14524","name":"Zwickau","type":"Landkreis"},"federalState":{"key":"14","name":"Sachsen"}},{"name":"August-Horch-Str.","postalCode":"08141","locality":"Reinsdorf","municipality":{"key":"14524250","name":"Reinsdorf","type":"Kreisangehörige_Gemeinde"},"district":{"key":"14524","name":"Zwickau","type":"Landkreis"},"federalState":{"key":"14","name":"Sachsen"}},{"name":"Bärentalsweg","postalCode":"06556","locality":"Reinsdorf","municipality":{"key":"16065056","name":"Reinsdorf","type":"Kreisangehörige_Gemeinde"},"district":{"key":"16065","name":"Kyffhäuserkreis","type":"Landkreis"},"federalState":{"key":"16","name":"Thüringen"}},{"name":"Beierweg","postalCode":"08141","locality":"Reinsdorf","municipality":{"key":"14524250","name":"Reinsdorf","type":"Kreisangehörige_Gemeinde"},"district":{"key":"14524","name":"Zwickau","type":"Landkreis"},"federalState":{"key":"14","name":"Sachsen"}},{"name":"Bergmannsweg","postalCode":"08141","locality":"Reinsdorf","municipality":{"key":"14524250","name":"Reinsdorf","type":"Kreisangehörige_Gemeinde"},"district":{"key":"14524","name":"Zwickau","type":"Landkreis"},"federalState":{"key":"14","name":"Sachsen"}},{"name":"Bergstr.","postalCode":"06556","locality":"Reinsdorf","municipality":{"key":"16065056","name":"Reinsdorf","type":"Kreisangehörige_Gemeinde"},"district":{"key":"16065","name":"Kyffhäuserkreis","type":"Landkreis"},"federalState":{"key":"16","name":"Thüringen"}},{"name":"Bergstr.","postalCode":"08141","locality":"Reinsdorf","municipality":{"key":"14524250","name":"Reinsdorf","type":"Kreisangehörige_Gemeinde"},"district":{"key":"14524","name":"Zwickau","type":"Landkreis"},"federalState":{"key":"14","name":"Sachsen"}},{"name":"Bergweg","postalCode":"08141","locality":"Reinsdorf","municipality":{"key":"14524250","name":"Reinsdorf","type":"Kreisangehörige_Gemeinde"},"district":{"key":"14524","name":"Zwickau","type":"Landkreis"},"federalState":{"key":"14","name":"Sachsen"}},{"name":"Birkenweg","postalCode":"08141","locality":"Reinsdorf","municipality":{"key":"14524250","name":"Reinsdorf","type":"Kreisangehörige_Gemeinde"},"district":{"key":"14524","name":"Zwickau","type":"Landkreis"},"federalState":{"key":"14","name":"Sachsen"}},{"name":"Blauer Stein","postalCode":"06556","locality":"Reinsdorf","municipality":{"key":"16065056","name":"Reinsdorf","type":"Kreisangehörige_Gemeinde"},"district":{"key":"16065","name":"Kyffhäuserkreis","type":"Landkreis"},"federalState":{"key":"16","name":"Thüringen"}},{"name":"Brauereistr.","postalCode":"08141","locality":"Reinsdorf","municipality":{"key":"14524250","name":"Reinsdorf","type":"Kreisangehörige_Gemeinde"},"district":{"key":"14524","name":"Zwickau","type":"Landkreis"},"federalState":{"key":"14","name":"Sachsen"}},{"name":"Bretlebener Weg","postalCode":"06556","locality":"Reinsdorf","municipality":{"key":"16065056","name":"Reinsdorf","type":"Kreisangehörige_Gemeinde"},"district":{"key":"16065","name":"Kyffhäuserkreis","type":"Landkreis"},"federalState":{"key":"16","name":"Thüringen"}},{"name":"Daniels Japanischer Garten Reinsdorf","postalCode":"08141","locality":"Reinsdorf","municipality":{"key":"14524250","name":"Reinsdorf","type":"Kreisangehörige_Gemeinde"},"district":{"key":"14524","name":"Zwickau","type":"Landkreis"},"federalState":{"key":"14","name":"Sachsen"}},{"name":"Dieburger Str.","postalCode":"08141","locality":"Reinsdorf","municipality":{"key":"14524250","name":"Reinsdorf","type":"Kreisangehörige_Gemeinde"},"district":{"key":"14524","name":"Zwickau","type":"Landkreis"},"federalState":{"key":"14","name":"Sachsen"}},{"name":"Doktorweg","postalCode":"08141","locality":"Reinsdorf","municipality":{"key":"14524250","name":"Reinsdorf","type":"Kreisangehörige_Gemeinde"},"district":{"key":"14524","name":"Zwickau","type":"Landkreis"},"federalState":{"key":"14","name":"Sachsen"}},{"name":"Dorfstr.","postalCode":"08141","locality":"Reinsdorf","municipality":{"key":"14524250","name":"Reinsdorf","type":"Kreisangehörige_Gemeinde"},"district":{"key":"14524","name":"Zwickau","type":"Landkreis"},"federalState":{"key":"14","name":"Sachsen"}},{"name":"Dr.-Rudolf-Friedrichs-Str.","postalCode":"08141","locality":"Reinsdorf","municipality":{"key":"14524250","name":"Reinsdorf","type":"Kreisangehörige_Gemeinde"},"district":{"key":"14524","name":"Zwickau","type":"Landkreis"},"federalState":{"key":"14","name":"Sachsen"}},{"name":"Endgasse","postalCode":"08141","locality":"Reinsdorf","municipality":{"key":"14524250","name":"Reinsdorf","type":"Kreisangehörige_Gemeinde"},"district":{"key":"14524","name":"Zwickau","type":"Landkreis"},"federalState":{"key":"14","name":"Sachsen"}},{"name":"Ernst-Beyer-Str.","postalCode":"08141","locality":"Reinsdorf","municipality":{"key":"14524250","name":"Reinsdorf","type":"Kreisangehörige_Gemeinde"},"district":{"key":"14524","name":"Zwickau","type":"Landkreis"},"federalState":{"key":"14","name":"Sachsen"}},{"name":"Eschenweg","postalCode":"08141","locality":"Reinsdorf","municipality":{"key":"14524250","name":"Reinsdorf","type":"Kreisangehörige_Gemeinde"},"district":{"key":"14524","name":"Zwickau","type":"Landkreis"},"federalState":{"key":"14","name":"Sachsen"}},{"name":"Feldweg","postalCode":"08141","locality":"Reinsdorf","municipality":{"key":"14524250","name":"Reinsdorf","type":"Kreisangehörige_Gemeinde"},"district":{"key":"14524","name":"Zwickau","type":"Landkreis"},"federalState":{"key":"14","name":"Sachsen"}},{"name":"Ferdinand-Schumann-Str.","postalCode":"08141","locality":"Reinsdorf","municipality":{"key":"14524250","name":"Reinsdorf","type":"Kreisangehörige_Gemeinde"},"district":{"key":"14524","name":"Zwickau","type":"Landkreis"},"federalState":{"key":"14","name":"Sachsen"}},{"name":"Florentin-Kästner-Weg","postalCode":"08141","locality":"Reinsdorf","municipality":{"key":"14524250","name":"Reinsdorf","type":"Kreisangehörige_Gemeinde"},"district":{"key":"14524","name":"Zwickau","type":"Landkreis"},"federalState":{"key":"14","name":"Sachsen"}},{"name":"Freiheitsplatz","postalCode":"08141","locality":"Reinsdorf","municipality":{"key":"14524250","name":"Reinsdorf","type":"Kreisangehörige_Gemeinde"},"district":{"key":"14524","name":"Zwickau","type":"Landkreis"},"federalState":{"key":"14","name":"Sachsen"}},{"name":"Freitagstr.","postalCode":"08141","locality":"Reinsdorf","municipality":{"key":"14524250","name":"Reinsdorf","type":"Kreisangehörige_Gemeinde"},"district":{"key":"14524","name":"Zwickau","type":"Landkreis"},"federalState":{"key":"14","name":"Sachsen"}},{"name":"Friedrichsgrüner Park","postalCode":"08141","locality":"Reinsdorf","municipality":{"key":"14524250","name":"Reinsdorf","type":"Kreisangehörige_Gemeinde"},"district":{"key":"14524","name":"Zwickau","type":"Landkreis"},"federalState":{"key":"14","name":"Sachsen"}},{"name":"Fröhlichweg","postalCode":"08141","locality":"Reinsdorf","municipality":{"key":"14524250","name":"Reinsdorf","type":"Kreisangehörige_Gemeinde"},"district":{"key":"14524","name":"Zwickau","type":"Landkreis"},"federalState":{"key":"14","name":"Sachsen"}},{"name":"Gabelsbergerstr.","postalCode":"08141","locality":"Reinsdorf","municipality":{"key":"14524250","name":"Reinsdorf","type":"Kreisangehörige_Gemeinde"},"district":{"key":"14524","name":"Zwickau","type":"Landkreis"},"federalState":{"key":"14","name":"Sachsen"}},{"name":"Gartenstr.","postalCode":"06556","locality":"Reinsdorf","municipality":{"key":"16065056","name":"Reinsdorf","type":"Kreisangehörige_Gemeinde"},"district":{"key":"16065","name":"Kyffhäuserkreis","type":"Landkreis"},"federalState":{"key":"16","name":"Thüringen"}},{"name":"Gartenstr.","postalCode":"08141","locality":"Reinsdorf","municipality":{"key":"14524250","name":"Reinsdorf","type":"Kreisangehörige_Gemeinde"},"district":{"key":"14524","name":"Zwickau","type":"Landkreis"},"federalState":{"key":"14","name":"Sachsen"}},{"name":"Georg-Pohl-Str.","postalCode":"08141","locality":"Reinsdorf","municipality":{"key":"14524250","name":"Reinsdorf","type":"Kreisangehörige_Gemeinde"},"district":{"key":"14524","name":"Zwickau","type":"Landkreis"},"federalState":{"key":"14","name":"Sachsen"}},{"name":"Gewerbestr.","postalCode":"08141","locality":"Reinsdorf","municipality":{"key":"14524250","name":"Reinsdorf","type":"Kreisangehörige_Gemeinde"},"district":{"key":"14524","name":"Zwickau","type":"Landkreis"},"federalState":{"key":"14","name":"Sachsen"}},{"name":"Glück-Auf-Str.","postalCode":"08141","locality":"Reinsdorf","municipality":{"key":"14524250","name":"Reinsdorf","type":"Kreisangehörige_Gemeinde"},"district":{"key":"14524","name":"Zwickau","type":"Landkreis"},"federalState":{"key":"14","name":"Sachsen"}},{"name":"Goethestr.","postalCode":"08141","locality":"Reinsdorf","municipality":{"key":"14524250","name":"Reinsdorf","type":"Kreisangehörige_Gemeinde"},"district":{"key":"14524","name":"Zwickau","type":"Landkreis"},"federalState":{"key":"14","name":"Sachsen"}},{"name":"Grubenweg","postalCode":"08141","locality":"Reinsdorf","municipality":{"key":"14524250","name":"Reinsdorf","type":"Kreisangehörige_Gemeinde"},"district":{"key":"14524","name":"Zwickau","type":"Landkreis"},"federalState":{"key":"14","name":"Sachsen"}},{"name":"Hans-E.-Fochtmann-Str.","postalCode":"08141","locality":"Reinsdorf","municipality":{"key":"14524250","name":"Reinsdorf","type":"Kreisangehörige_Gemeinde"},"district":{"key":"14524","name":"Zwickau","type":"Landkreis"},"federalState":{"key":"14","name":"Sachsen"}},{"name":"Härtensdorfer Weg","postalCode":"08141","locality":"Reinsdorf","municipality":{"key":"14524250","name":"Reinsdorf","type":"Kreisangehörige_Gemeinde"},"district":{"key":"14524","name":"Zwickau","type":"Landkreis"},"federalState":{"key":"14","name":"Sachsen"}},{"name":"Hauptstr.","postalCode":"06556","locality":"Reinsdorf","municipality":{"key":"16065056","name":"Reinsdorf","type":"Kreisangehörige_Gemeinde"},"district":{"key":"16065","name":"Kyffhäuserkreis","type":"Landkreis"},"federalState":{"key":"16","name":"Thüringen"}},{"name":"Hauptstr.","postalCode":"08141","locality":"Reinsdorf","municipality":{"key":"14524250","name":"Reinsdorf","type":"Kreisangehörige_Gemeinde"},"district":{"key":"14524","name":"Zwickau","type":"Landkreis"},"federalState":{"key":"14","name":"Sachsen"}},{"name":"Heinestr.","postalCode":"08141","locality":"Reinsdorf","municipality":{"key":"14524250","name":"Reinsdorf","type":"Kreisangehörige_Gemeinde"},"district":{"key":"14524","name":"Zwickau","type":"Landkreis"},"federalState":{"key":"14","name":"Sachsen"}},{"name":"Höchstädter Str.","postalCode":"08141","locality":"Reinsdorf","municipality":{"key":"14524250","name":"Reinsdorf","type":"Kreisangehörige_Gemeinde"},"district":{"key":"14524","name":"Zwickau","type":"Landkreis"},"federalState":{"key":"14","name":"Sachsen"}},{"name":"Hof","postalCode":"08141","locality":"Reinsdorf","municipality":{"key":"14524250","name":"Reinsdorf","type":"Kreisangehörige_Gemeinde"},"district":{"key":"14524","name":"Zwickau","type":"Landkreis"},"federalState":{"key":"14","name":"Sachsen"}},{"name":"Hohe Str.","postalCode":"08141","locality":"Reinsdorf","municipality":{"key":"14524250","name":"Reinsdorf","type":"Kreisangehörige_Gemeinde"},"district":{"key":"14524","name":"Zwickau","type":"Landkreis"},"federalState":{"key":"14","name":"Sachsen"}},{"name":"Hüttenstr.","postalCode":"08141","locality":"Reinsdorf","municipality":{"key":"14524250","name":"Reinsdorf","type":"Kreisangehörige_Gemeinde"},"district":{"key":"14524","name":"Zwickau","type":"Landkreis"},"federalState":{"key":"14","name":"Sachsen"}},{"name":"Karl-Marx-Str.","postalCode":"08141","locality":"Reinsdorf","municipality":{"key":"14524250","name":"Reinsdorf","type":"Kreisangehörige_Gemeinde"},"district":{"key":"14524","name":"Zwickau","type":"Landkreis"},"federalState":{"key":"14","name":"Sachsen"}},{"name":"Ketscher Str.","postalCode":"08141","locality":"Reinsdorf","municipality":{"key":"14524250","name":"Reinsdorf","type":"Kreisangehörige_Gemeinde"},"district":{"key":"14524","name":"Zwickau","type":"Landkreis"},"federalState":{"key":"14","name":"Sachsen"}},{"name":"Kirchplatz","postalCode":"08141","locality":"Reinsdorf","municipality":{"key":"14524250","name":"Reinsdorf","type":"Kreisangehörige_Gemeinde"},"district":{"key":"14524","name":"Zwickau","type":"Landkreis"},"federalState":{"key":"14","name":"Sachsen"}},{"name":"Kirchstr.","postalCode":"08141","locality":"Reinsdorf","municipality":{"key":"14524250","name":"Reinsdorf","type":"Kreisangehörige_Gemeinde"},"district":{"key":"14524","name":"Zwickau","type":"Landkreis"},"federalState":{"key":"14","name":"Sachsen"}},{"name":"Körnerstr.","postalCode":"08141","locality":"Reinsdorf","municipality":{"key":"14524250","name":"Reinsdorf","type":"Kreisangehörige_Gemeinde"},"district":{"key":"14524","name":"Zwickau","type":"Landkreis"},"federalState":{"key":"14","name":"Sachsen"}},{"name":"Krumme Str.","postalCode":"06556","locality":"Reinsdorf","municipality":{"key":"16065056","name":"Reinsdorf","type":"Kreisangehörige_Gemeinde"},"district":{"key":"16065","name":"Kyffhäuserkreis","type":"Landkreis"},"federalState":{"key":"16","name":"Thüringen"}},{"name":"Kurze Str.","postalCode":"08141","locality":"Reinsdorf","municipality":{"key":"14524250","name":"Reinsdorf","type":"Kreisangehörige_Gemeinde"},"district":{"key":"14524","name":"Zwickau","type":"Landkreis"},"federalState":{"key":"14","name":"Sachsen"}},{"name":"Langesberg","postalCode":"08141","locality":"Reinsdorf","municipality":{"key":"14524250","name":"Reinsdorf","type":"Kreisangehörige_Gemeinde"},"district":{"key":"14524","name":"Zwickau","type":"Landkreis"},"federalState":{"key":"14","name":"Sachsen"}},{"name":"Linamarstr.","postalCode":"08141","locality":"Reinsdorf","municipality":{"key":"14524250","name":"Reinsdorf","type":"Kreisangehörige_Gemeinde"},"district":{"key":"14524","name":"Zwickau","type":"Landkreis"},"federalState":{"key":"14","name":"Sachsen"}},{"name":"Lindental","postalCode":"06556","locality":"Reinsdorf","municipality":{"key":"16065056","name":"Reinsdorf","type":"Kreisangehörige_Gemeinde"},"district":{"key":"16065","name":"Kyffhäuserkreis","type":"Landkreis"},"federalState":{"key":"16","name":"Thüringen"}},{"name":"Lößnitzer Str.","postalCode":"08141","locality":"Reinsdorf","municipality":{"key":"14524250","name":"Reinsdorf","type":"Kreisangehörige_Gemeinde"},"district":{"key":"14524","name":"Zwickau","type":"Landkreis"},"federalState":{"key":"14","name":"Sachsen"}},{"name":"Ludwig-Jahn-Str.","postalCode":"08141","locality":"Reinsdorf","municipality":{"key":"14524250","name":"Reinsdorf","type":"Kreisangehörige_Gemeinde"},"district":{"key":"14524","name":"Zwickau","type":"Landkreis"},"federalState":{"key":"14","name":"Sachsen"}},{"name":"Mittelstr.","postalCode":"08141","locality":"Reinsdorf","municipality":{"key":"14524250","name":"Reinsdorf","type":"Kreisangehörige_Gemeinde"},"district":{"key":"14524","name":"Zwickau","type":"Landkreis"},"federalState":{"key":"14","name":"Sachsen"}},{"name":"Mühlteich","postalCode":"06556","locality":"Reinsdorf","municipality":{"key":"16065056","name":"Reinsdorf","type":"Kreisangehörige_Gemeinde"},"district":{"key":"16065","name":"Kyffhäuserkreis","type":"Landkreis"},"federalState":{"key":"16","name":"Thüringen"}},{"name":"Mühlweg","postalCode":"08141","locality":"Reinsdorf","municipality":{"key":"14524250","name":"Reinsdorf","type":"Kreisangehörige_Gemeinde"},"district":{"key":"14524","name":"Zwickau","type":"Landkreis"},"federalState":{"key":"14","name":"Sachsen"}},{"name":"Mülsener Str.","postalCode":"08141","locality":"Reinsdorf","municipality":{"key":"14524250","name":"Reinsdorf","type":"Kreisangehörige_Gemeinde"},"district":{"key":"14524","name":"Zwickau","type":"Landkreis"},"federalState":{"key":"14","name":"Sachsen"}},{"name":"Münsterer Str.","postalCode":"08141","locality":"Reinsdorf","municipality":{"key":"14524250","name":"Reinsdorf","type":"Kreisangehörige_Gemeinde"},"district":{"key":"14524","name":"Zwickau","type":"Landkreis"},"federalState":{"key":"14","name":"Sachsen"}},{"name":"Neue Sorge","postalCode":"06556","locality":"Reinsdorf","municipality":{"key":"16065056","name":"Reinsdorf","type":"Kreisangehörige_Gemeinde"},"district":{"key":"16065","name":"Kyffhäuserkreis","type":"Landkreis"},"federalState":{"key":"16","name":"Thüringen"}},{"name":"Neue Str.","postalCode":"06556","locality":"Reinsdorf","municipality":{"key":"16065056","name":"Reinsdorf","type":"Kreisangehörige_Gemeinde"},"district":{"key":"16065","name":"Kyffhäuserkreis","type":"Landkreis"},"federalState":{"key":"16","name":"Thüringen"}},{"name":"Neue Str.","postalCode":"08141","locality":"Reinsdorf","municipality":{"key":"14524250","name":"Reinsdorf","type":"Kreisangehörige_Gemeinde"},"district":{"key":"14524","name":"Zwickau","type":"Landkreis"},"federalState":{"key":"14","name":"Sachsen"}},{"name":"Nordstr.","postalCode":"08141","locality":"Reinsdorf","municipality":{"key":"14524250","name":"Reinsdorf","type":"Kreisangehörige_Gemeinde"},"district":{"key":"14524","name":"Zwickau","type":"Landkreis"},"federalState":{"key":"14","name":"Sachsen"}},{"name":"Parkstr.","postalCode":"08141","locality":"Reinsdorf","municipality":{"key":"14524250","name":"Reinsdorf","type":"Kreisangehörige_Gemeinde"},"district":{"key":"14524","name":"Zwickau","type":"Landkreis"},"federalState":{"key":"14","name":"Sachsen"}},{"name":"Pliezhausener Str.","postalCode":"08141","locality":"Reinsdorf","municipality":{"key":"14524250","name":"Reinsdorf","type":"Kreisangehörige_Gemeinde"},"district":{"key":"14524","name":"Zwickau","type":"Landkreis"},"federalState":{"key":"14","name":"Sachsen"}},{"name":"Pöhlauer Ring","postalCode":"08141","locality":"Reinsdorf","municipality":{"key":"14524250","name":"Reinsdorf","type":"Kreisangehörige_Gemeinde"},"district":{"key":"14524","name":"Zwickau","type":"Landkreis"},"federalState":{"key":"14","name":"Sachsen"}},{"name":"Pöhlauer Str.","postalCode":"08141","locality":"Reinsdorf","municipality":{"key":"14524250","name":"Reinsdorf","type":"Kreisangehörige_Gemeinde"},"district":{"key":"14524","name":"Zwickau","type":"Landkreis"},"federalState":{"key":"14","name":"Sachsen"}},{"name":"Poststr.","postalCode":"08141","locality":"Reinsdorf","municipality":{"key":"14524250","name":"Reinsdorf","type":"Kreisangehörige_Gemeinde"},"district":{"key":"14524","name":"Zwickau","type":"Landkreis"},"federalState":{"key":"14","name":"Sachsen"}},{"name":"Rathausstr.","postalCode":"08141","locality":"Reinsdorf","municipality":{"key":"14524250","name":"Reinsdorf","type":"Kreisangehörige_Gemeinde"},"district":{"key":"14524","name":"Zwickau","type":"Landkreis"},"federalState":{"key":"14","name":"Sachsen"}},{"name":"Reihe","postalCode":"06556","locality":"Reinsdorf","municipality":{"key":"16065056","name":"Reinsdorf","type":"Kreisangehörige_Gemeinde"},"district":{"key":"16065","name":"Kyffhäuserkreis","type":"Landkreis"},"federalState":{"key":"16","name":"Thüringen"}},{"name":"Reinhardtsweg","postalCode":"08141","locality":"Reinsdorf","municipality":{"key":"14524250","name":"Reinsdorf","type":"Kreisangehörige_Gemeinde"},"district":{"key":"14524","name":"Zwickau","type":"Landkreis"},"federalState":{"key":"14","name":"Sachsen"}},{"name":"Reinsdorfer Str.","postalCode":"08141","locality":"Reinsdorf","municipality":{"key":"14524250","name":"Reinsdorf","type":"Kreisangehörige_Gemeinde"},"district":{"key":"14524","name":"Zwickau","type":"Landkreis"},"federalState":{"key":"14","name":"Sachsen"}},{"name":"Richard-Graßmann-Str.","postalCode":"08141","locality":"Reinsdorf","municipality":{"key":"14524250","name":"Reinsdorf","type":"Kreisangehörige_Gemeinde"},"district":{"key":"14524","name":"Zwickau","type":"Landkreis"},"federalState":{"key":"14","name":"Sachsen"}},{"name":"Riedgasse","postalCode":"06556","locality":"Reinsdorf","municipality":{"key":"16065056","name":"Reinsdorf","type":"Kreisangehörige_Gemeinde"},"district":{"key":"16065","name":"Kyffhäuserkreis","type":"Landkreis"},"federalState":{"key":"16","name":"Thüringen"}},{"name":"Ringstr.","postalCode":"08141","locality":"Reinsdorf","municipality":{"key":"14524250","name":"Reinsdorf","type":"Kreisangehörige_Gemeinde"},"district":{"key":"14524","name":"Zwickau","type":"Landkreis"},"federalState":{"key":"14","name":"Sachsen"}},{"name":"Rosenthaler Weg","postalCode":"08141","locality":"Reinsdorf","municipality":{"key":"14524250","name":"Reinsdorf","type":"Kreisangehörige_Gemeinde"},"district":{"key":"14524","name":"Zwickau","type":"Landkreis"},"federalState":{"key":"14","name":"Sachsen"}},{"name":"Rudolf-Breitscheid-Str.","postalCode":"08141","locality":"Reinsdorf","municipality":{"key":"14524250","name":"Reinsdorf","type":"Kreisangehörige_Gemeinde"},"district":{"key":"14524","name":"Zwickau","type":"Landkreis"},"federalState":{"key":"14","name":"Sachsen"}},{"name":"Rudolphberg","postalCode":"08141","locality":"Reinsdorf","municipality":{"key":"14524250","name":"Reinsdorf","type":"Kreisangehörige_Gemeinde"},"district":{"key":"14524","name":"Zwickau","type":"Landkreis"},"federalState":{"key":"14","name":"Sachsen"}},{"name":"Schachtstr.","postalCode":"08141","locality":"Reinsdorf","municipality":{"key":"14524250","name":"Reinsdorf","type":"Kreisangehörige_Gemeinde"},"district":{"key":"14524","name":"Zwickau","type":"Landkreis"},"federalState":{"key":"14","name":"Sachsen"}},{"name":"Schillerstr.","postalCode":"08141","locality":"Reinsdorf","municipality":{"key":"14524250","name":"Reinsdorf","type":"Kreisangehörige_Gemeinde"},"district":{"key":"14524","name":"Zwickau","type":"Landkreis"},"federalState":{"key":"14","name":"Sachsen"}},{"name":"Schönfelder Weg","postalCode":"06556","locality":"Reinsdorf","municipality":{"key":"16065056","name":"Reinsdorf","type":"Kreisangehörige_Gemeinde"},"district":{"key":"16065","name":"Kyffhäuserkreis","type":"Landkreis"},"federalState":{"key":"16","name":"Thüringen"}},{"name":"Schulstr.","postalCode":"08141","locality":"Reinsdorf","municipality":{"key":"14524250","name":"Reinsdorf","type":"Kreisangehörige_Gemeinde"},"district":{"key":"14524","name":"Zwickau","type":"Landkreis"},"federalState":{"key":"14","name":"Sachsen"}},{"name":"Schusterweg","postalCode":"08141","locality":"Reinsdorf","municipality":{"key":"14524250","name":"Reinsdorf","type":"Kreisangehörige_Gemeinde"},"district":{"key":"14524","name":"Zwickau","type":"Landkreis"},"federalState":{"key":"14","name":"Sachsen"}},{"name":"Siedlerstr.","postalCode":"08141","locality":"Reinsdorf","municipality":{"key":"14524250","name":"Reinsdorf","type":"Kreisangehörige_Gemeinde"},"district":{"key":"14524","name":"Zwickau","type":"Landkreis"},"federalState":{"key":"14","name":"Sachsen"}},{"name":"Steigerstr.","postalCode":"08141","locality":"Reinsdorf","municipality":{"key":"14524250","name":"Reinsdorf","type":"Kreisangehörige_Gemeinde"},"district":{"key":"14524","name":"Zwickau","type":"Landkreis"},"federalState":{"key":"14","name":"Sachsen"}},{"name":"Steinberg","postalCode":"08141","locality":"Reinsdorf","municipality":{"key":"14524250","name":"Reinsdorf","type":"Kreisangehörige_Gemeinde"},"district":{"key":"14524","name":"Zwickau","type":"Landkreis"},"federalState":{"key":"14","name":"Sachsen"}},{"name":"Str. der Befreiung","postalCode":"08141","locality":"Reinsdorf","municipality":{"key":"14524250","name":"Reinsdorf","type":"Kreisangehörige_Gemeinde"},"district":{"key":"14524","name":"Zwickau","type":"Landkreis"},"federalState":{"key":"14","name":"Sachsen"}},{"name":"Südstr.","postalCode":"08141","locality":"Reinsdorf","municipality":{"key":"14524250","name":"Reinsdorf","type":"Kreisangehörige_Gemeinde"},"district":{"key":"14524","name":"Zwickau","type":"Landkreis"},"federalState":{"key":"14","name":"Sachsen"}},{"name":"Teichstr.","postalCode":"08141","locality":"Reinsdorf","municipality":{"key":"14524250","name":"Reinsdorf","type":"Kreisangehörige_Gemeinde"},"district":{"key":"14524","name":"Zwickau","type":"Landkreis"},"federalState":{"key":"14","name":"Sachsen"}},{"name":"Thomas-Mann-Str.","postalCode":"08141","locality":"Reinsdorf","municipality":{"key":"14524250","name":"Reinsdorf","type":"Kreisangehörige_Gemeinde"},"district":{"key":"14524","name":"Zwickau","type":"Landkreis"},"federalState":{"key":"14","name":"Sachsen"}},{"name":"Vielauer Str.","postalCode":"08141","locality":"Reinsdorf","municipality":{"key":"14524250","name":"Reinsdorf","type":"Kreisangehörige_Gemeinde"},"district":{"key":"14524","name":"Zwickau","type":"Landkreis"},"federalState":{"key":"14","name":"Sachsen"}},{"name":"Waldstr.","postalCode":"08141","locality":"Reinsdorf","municipality":{"key":"14524250","name":"Reinsdorf","type":"Kreisangehörige_Gemeinde"},"district":{"key":"14524","name":"Zwickau","type":"Landkreis"},"federalState":{"key":"14","name":"Sachsen"}},{"name":"Waldweg","postalCode":"08141","locality":"Reinsdorf","municipality":{"key":"14524250","name":"Reinsdorf","type":"Kreisangehörige_Gemeinde"},"district":{"key":"14524","name":"Zwickau","type":"Landkreis"},"federalState":{"key":"14","name":"Sachsen"}},{"name":"Weberstr.","postalCode":"08141","locality":"Reinsdorf","municipality":{"key":"14524250","name":"Reinsdorf","type":"Kreisangehörige_Gemeinde"},"district":{"key":"14524","name":"Zwickau","type":"Landkreis"},"federalState":{"key":"14","name":"Sachsen"}},{"name":"Westsiedlung","postalCode":"06556","locality":"Reinsdorf","municipality":{"key":"16065056","name":"Reinsdorf","type":"Kreisangehörige_Gemeinde"},"district":{"key":"16065","name":"Kyffhäuserkreis","type":"Landkreis"},"federalState":{"key":"16","name":"Thüringen"}},{"name":"Wiesenaue","postalCode":"08141","locality":"Reinsdorf","municipality":{"key":"14524250","name":"Reinsdorf","type":"Kreisangehörige_Gemeinde"},"district":{"key":"14524","name":"Zwickau","type":"Landkreis"},"federalState":{"key":"14","name":"Sachsen"}},{"name":"Wiesenweg","postalCode":"08141","locality":"Reinsdorf","municipality":{"key":"14524250","name":"Reinsdorf","type":"Kreisangehörige_Gemeinde"},"district":{"key":"14524","name":"Zwickau","type":"Landkreis"},"federalState":{"key":"14","name":"Sachsen"}},{"name":"Windischweg","postalCode":"08141","locality":"Reinsdorf","municipality":{"key":"14524250","name":"Reinsdorf","type":"Kreisangehörige_Gemeinde"},"district":{"key":"14524","name":"Zwickau","type":"Landkreis"},"federalState":{"key":"14","name":"Sachsen"}},{"name":"Zwickauer Str.","postalCode":"08141","locality":"Reinsdorf","municipality":{"key":"14524250","name":"Reinsdorf","type":"Kreisangehörige_Gemeinde"},"district":{"key":"14524","name":"Zwickau","type":"Landkreis"},"federalState":{"key":"14","name":"Sachsen"}},]