[{"name":"Ackerstr.","postalCode":"03238","locality":"Finsterwalde","municipality":{"key":"12062140","name":"Finsterwalde, Stadt","type":"Stadt"},"district":{"key":"12062","name":"Elbe-Elster","type":"Landkreis"},"federalState":{"key":"12","name":"Brandenburg"}},{"name":"Ahornstr.","postalCode":"03238","locality":"Finsterwalde","municipality":{"key":"12062140","name":"Finsterwalde, Stadt","type":"Stadt"},"district":{"key":"12062","name":"Elbe-Elster","type":"Landkreis"},"federalState":{"key":"12","name":"Brandenburg"}},{"name":"Akazienstr.","postalCode":"03238","locality":"Finsterwalde","municipality":{"key":"12062140","name":"Finsterwalde, Stadt","type":"Stadt"},"district":{"key":"12062","name":"Elbe-Elster","type":"Landkreis"},"federalState":{"key":"12","name":"Brandenburg"}},{"name":"Albert-Prochnow-Str.","postalCode":"03238","locality":"Finsterwalde","municipality":{"key":"12062140","name":"Finsterwalde, Stadt","type":"Stadt"},"district":{"key":"12062","name":"Elbe-Elster","type":"Landkreis"},"federalState":{"key":"12","name":"Brandenburg"}},{"name":"Alemannenstr.","postalCode":"03238","locality":"Finsterwalde","municipality":{"key":"12062140","name":"Finsterwalde, Stadt","type":"Stadt"},"district":{"key":"12062","name":"Elbe-Elster","type":"Landkreis"},"federalState":{"key":"12","name":"Brandenburg"}},{"name":"Alexanderplatz","postalCode":"03238","locality":"Finsterwalde","municipality":{"key":"12062140","name":"Finsterwalde, Stadt","type":"Stadt"},"district":{"key":"12062","name":"Elbe-Elster","type":"Landkreis"},"federalState":{"key":"12","name":"Brandenburg"}},{"name":"Am Berggarten","postalCode":"03238","locality":"Finsterwalde","municipality":{"key":"12062140","name":"Finsterwalde, Stadt","type":"Stadt"},"district":{"key":"12062","name":"Elbe-Elster","type":"Landkreis"},"federalState":{"key":"12","name":"Brandenburg"}},{"name":"Am Goldberg","postalCode":"03238","locality":"Finsterwalde","municipality":{"key":"12062140","name":"Finsterwalde, Stadt","type":"Stadt"},"district":{"key":"12062","name":"Elbe-Elster","type":"Landkreis"},"federalState":{"key":"12","name":"Brandenburg"}},{"name":"Am Holländer","postalCode":"03238","locality":"Finsterwalde","municipality":{"key":"12062140","name":"Finsterwalde, Stadt","type":"Stadt"},"district":{"key":"12062","name":"Elbe-Elster","type":"Landkreis"},"federalState":{"key":"12","name":"Brandenburg"}},{"name":"Am Kirchplatz","postalCode":"03238","locality":"Finsterwalde","municipality":{"key":"12062140","name":"Finsterwalde, Stadt","type":"Stadt"},"district":{"key":"12062","name":"Elbe-Elster","type":"Landkreis"},"federalState":{"key":"12","name":"Brandenburg"}},{"name":"Am Langen Hacken","postalCode":"03238","locality":"Finsterwalde","municipality":{"key":"12062140","name":"Finsterwalde, Stadt","type":"Stadt"},"district":{"key":"12062","name":"Elbe-Elster","type":"Landkreis"},"federalState":{"key":"12","name":"Brandenburg"}},{"name":"Am Lindenhof","postalCode":"03238","locality":"Finsterwalde","municipality":{"key":"12062140","name":"Finsterwalde, Stadt","type":"Stadt"},"district":{"key":"12062","name":"Elbe-Elster","type":"Landkreis"},"federalState":{"key":"12","name":"Brandenburg"}},{"name":"Am Mühlberg","postalCode":"03238","locality":"Finsterwalde","municipality":{"key":"12062140","name":"Finsterwalde, Stadt","type":"Stadt"},"district":{"key":"12062","name":"Elbe-Elster","type":"Landkreis"},"federalState":{"key":"12","name":"Brandenburg"}},{"name":"Am Mühlweg","postalCode":"03238","locality":"Finsterwalde","municipality":{"key":"12062140","name":"Finsterwalde, Stadt","type":"Stadt"},"district":{"key":"12062","name":"Elbe-Elster","type":"Landkreis"},"federalState":{"key":"12","name":"Brandenburg"}},{"name":"Am Ponnsdorfer Berg","postalCode":"03238","locality":"Finsterwalde","municipality":{"key":"12062140","name":"Finsterwalde, Stadt","type":"Stadt"},"district":{"key":"12062","name":"Elbe-Elster","type":"Landkreis"},"federalState":{"key":"12","name":"Brandenburg"}},{"name":"Am Schackeplatz","postalCode":"03238","locality":"Finsterwalde","municipality":{"key":"12062140","name":"Finsterwalde, Stadt","type":"Stadt"},"district":{"key":"12062","name":"Elbe-Elster","type":"Landkreis"},"federalState":{"key":"12","name":"Brandenburg"}},{"name":"Am Schloßpark","postalCode":"03238","locality":"Finsterwalde","municipality":{"key":"12062140","name":"Finsterwalde, Stadt","type":"Stadt"},"district":{"key":"12062","name":"Elbe-Elster","type":"Landkreis"},"federalState":{"key":"12","name":"Brandenburg"}},{"name":"Am Schwimmstadion","postalCode":"03238","locality":"Finsterwalde","municipality":{"key":"12062140","name":"Finsterwalde, Stadt","type":"Stadt"},"district":{"key":"12062","name":"Elbe-Elster","type":"Landkreis"},"federalState":{"key":"12","name":"Brandenburg"}},{"name":"Amselweg","postalCode":"03238","locality":"Finsterwalde","municipality":{"key":"12062140","name":"Finsterwalde, Stadt","type":"Stadt"},"district":{"key":"12062","name":"Elbe-Elster","type":"Landkreis"},"federalState":{"key":"12","name":"Brandenburg"}},{"name":"Am Vogelherd","postalCode":"03238","locality":"Finsterwalde","municipality":{"key":"12062140","name":"Finsterwalde, Stadt","type":"Stadt"},"district":{"key":"12062","name":"Elbe-Elster","type":"Landkreis"},"federalState":{"key":"12","name":"Brandenburg"}},{"name":"Am Wasserturm","postalCode":"03238","locality":"Finsterwalde","municipality":{"key":"12062140","name":"Finsterwalde, Stadt","type":"Stadt"},"district":{"key":"12062","name":"Elbe-Elster","type":"Landkreis"},"federalState":{"key":"12","name":"Brandenburg"}},{"name":"An der Bürgerheide","postalCode":"03238","locality":"Finsterwalde","municipality":{"key":"12062140","name":"Finsterwalde, Stadt","type":"Stadt"},"district":{"key":"12062","name":"Elbe-Elster","type":"Landkreis"},"federalState":{"key":"12","name":"Brandenburg"}},{"name":"An der Schraube","postalCode":"03238","locality":"Finsterwalde","municipality":{"key":"12062140","name":"Finsterwalde, Stadt","type":"Stadt"},"district":{"key":"12062","name":"Elbe-Elster","type":"Landkreis"},"federalState":{"key":"12","name":"Brandenburg"}},{"name":"Anhalter Str.","postalCode":"03238","locality":"Finsterwalde","municipality":{"key":"12062140","name":"Finsterwalde, Stadt","type":"Stadt"},"district":{"key":"12062","name":"Elbe-Elster","type":"Landkreis"},"federalState":{"key":"12","name":"Brandenburg"}},{"name":"Annenstr.","postalCode":"03238","locality":"Finsterwalde","municipality":{"key":"12062140","name":"Finsterwalde, Stadt","type":"Stadt"},"district":{"key":"12062","name":"Elbe-Elster","type":"Landkreis"},"federalState":{"key":"12","name":"Brandenburg"}},{"name":"August-Bebel-Str.","postalCode":"03238","locality":"Finsterwalde","municipality":{"key":"12062140","name":"Finsterwalde, Stadt","type":"Stadt"},"district":{"key":"12062","name":"Elbe-Elster","type":"Landkreis"},"federalState":{"key":"12","name":"Brandenburg"}},{"name":"Badergasse","postalCode":"03238","locality":"Finsterwalde","municipality":{"key":"12062140","name":"Finsterwalde, Stadt","type":"Stadt"},"district":{"key":"12062","name":"Elbe-Elster","type":"Landkreis"},"federalState":{"key":"12","name":"Brandenburg"}},{"name":"Bahnhofstr.","postalCode":"03238","locality":"Finsterwalde","municipality":{"key":"12062140","name":"Finsterwalde, Stadt","type":"Stadt"},"district":{"key":"12062","name":"Elbe-Elster","type":"Landkreis"},"federalState":{"key":"12","name":"Brandenburg"}},{"name":"Bayernstr.","postalCode":"03238","locality":"Finsterwalde","municipality":{"key":"12062140","name":"Finsterwalde, Stadt","type":"Stadt"},"district":{"key":"12062","name":"Elbe-Elster","type":"Landkreis"},"federalState":{"key":"12","name":"Brandenburg"}},{"name":"Becherstr.","postalCode":"03238","locality":"Finsterwalde","municipality":{"key":"12062140","name":"Finsterwalde, Stadt","type":"Stadt"},"district":{"key":"12062","name":"Elbe-Elster","type":"Landkreis"},"federalState":{"key":"12","name":"Brandenburg"}},{"name":"Beethovenstr.","postalCode":"03238","locality":"Finsterwalde","municipality":{"key":"12062140","name":"Finsterwalde, Stadt","type":"Stadt"},"district":{"key":"12062","name":"Elbe-Elster","type":"Landkreis"},"federalState":{"key":"12","name":"Brandenburg"}},{"name":"Bergheider Str.","postalCode":"03238","locality":"Finsterwalde","municipality":{"key":"12062140","name":"Finsterwalde, Stadt","type":"Stadt"},"district":{"key":"12062","name":"Elbe-Elster","type":"Landkreis"},"federalState":{"key":"12","name":"Brandenburg"}},{"name":"Bergmühle","postalCode":"03238","locality":"Finsterwalde","municipality":{"key":"12062140","name":"Finsterwalde, Stadt","type":"Stadt"},"district":{"key":"12062","name":"Elbe-Elster","type":"Landkreis"},"federalState":{"key":"12","name":"Brandenburg"}},{"name":"Berliner Str.","postalCode":"03238","locality":"Finsterwalde","municipality":{"key":"12062140","name":"Finsterwalde, Stadt","type":"Stadt"},"district":{"key":"12062","name":"Elbe-Elster","type":"Landkreis"},"federalState":{"key":"12","name":"Brandenburg"}},{"name":"Bertastr.","postalCode":"03238","locality":"Finsterwalde","municipality":{"key":"12062140","name":"Finsterwalde, Stadt","type":"Stadt"},"district":{"key":"12062","name":"Elbe-Elster","type":"Landkreis"},"federalState":{"key":"12","name":"Brandenburg"}},{"name":"Bertolt-Brecht-Str.","postalCode":"03238","locality":"Finsterwalde","municipality":{"key":"12062140","name":"Finsterwalde, Stadt","type":"Stadt"},"district":{"key":"12062","name":"Elbe-Elster","type":"Landkreis"},"federalState":{"key":"12","name":"Brandenburg"}},{"name":"Birkenstr.","postalCode":"03238","locality":"Finsterwalde","municipality":{"key":"12062140","name":"Finsterwalde, Stadt","type":"Stadt"},"district":{"key":"12062","name":"Elbe-Elster","type":"Landkreis"},"federalState":{"key":"12","name":"Brandenburg"}},{"name":"Brandenburger Str.","postalCode":"03238","locality":"Finsterwalde","municipality":{"key":"12062140","name":"Finsterwalde, Stadt","type":"Stadt"},"district":{"key":"12062","name":"Elbe-Elster","type":"Landkreis"},"federalState":{"key":"12","name":"Brandenburg"}},{"name":"Brauhausweg","postalCode":"03238","locality":"Finsterwalde","municipality":{"key":"12062140","name":"Finsterwalde, Stadt","type":"Stadt"},"district":{"key":"12062","name":"Elbe-Elster","type":"Landkreis"},"federalState":{"key":"12","name":"Brandenburg"}},{"name":"Brunnenstr.","postalCode":"03238","locality":"Finsterwalde","municipality":{"key":"12062140","name":"Finsterwalde, Stadt","type":"Stadt"},"district":{"key":"12062","name":"Elbe-Elster","type":"Landkreis"},"federalState":{"key":"12","name":"Brandenburg"}},{"name":"Buchenstr.","postalCode":"03238","locality":"Finsterwalde","municipality":{"key":"12062140","name":"Finsterwalde, Stadt","type":"Stadt"},"district":{"key":"12062","name":"Elbe-Elster","type":"Landkreis"},"federalState":{"key":"12","name":"Brandenburg"}},{"name":"Buchenweg","postalCode":"03238","locality":"Finsterwalde","municipality":{"key":"12062140","name":"Finsterwalde, Stadt","type":"Stadt"},"district":{"key":"12062","name":"Elbe-Elster","type":"Landkreis"},"federalState":{"key":"12","name":"Brandenburg"}},{"name":"Calauer Str.","postalCode":"03238","locality":"Finsterwalde","municipality":{"key":"12062140","name":"Finsterwalde, Stadt","type":"Stadt"},"district":{"key":"12062","name":"Elbe-Elster","type":"Landkreis"},"federalState":{"key":"12","name":"Brandenburg"}},{"name":"Carl-Schäfer-Str.","postalCode":"03238","locality":"Finsterwalde","municipality":{"key":"12062140","name":"Finsterwalde, Stadt","type":"Stadt"},"district":{"key":"12062","name":"Elbe-Elster","type":"Landkreis"},"federalState":{"key":"12","name":"Brandenburg"}},{"name":"Cottbuser Str.","postalCode":"03238","locality":"Finsterwalde","municipality":{"key":"12062140","name":"Finsterwalde, Stadt","type":"Stadt"},"district":{"key":"12062","name":"Elbe-Elster","type":"Landkreis"},"federalState":{"key":"12","name":"Brandenburg"}},{"name":"Dorotheenstr.","postalCode":"03238","locality":"Finsterwalde","municipality":{"key":"12062140","name":"Finsterwalde, Stadt","type":"Stadt"},"district":{"key":"12062","name":"Elbe-Elster","type":"Landkreis"},"federalState":{"key":"12","name":"Brandenburg"}},{"name":"Dresdener Landstr.","postalCode":"03238","locality":"Finsterwalde","municipality":{"key":"12062140","name":"Finsterwalde, Stadt","type":"Stadt"},"district":{"key":"12062","name":"Elbe-Elster","type":"Landkreis"},"federalState":{"key":"12","name":"Brandenburg"}},{"name":"Dresdener Str.","postalCode":"03238","locality":"Finsterwalde","municipality":{"key":"12062140","name":"Finsterwalde, Stadt","type":"Stadt"},"district":{"key":"12062","name":"Elbe-Elster","type":"Landkreis"},"federalState":{"key":"12","name":"Brandenburg"}},{"name":"Drosselweg","postalCode":"03238","locality":"Finsterwalde","municipality":{"key":"12062140","name":"Finsterwalde, Stadt","type":"Stadt"},"district":{"key":"12062","name":"Elbe-Elster","type":"Landkreis"},"federalState":{"key":"12","name":"Brandenburg"}},{"name":"Drößiger Str.","postalCode":"03238","locality":"Finsterwalde","municipality":{"key":"12062140","name":"Finsterwalde, Stadt","type":"Stadt"},"district":{"key":"12062","name":"Elbe-Elster","type":"Landkreis"},"federalState":{"key":"12","name":"Brandenburg"}},{"name":"Drößiger Weg","postalCode":"03238","locality":"Finsterwalde","municipality":{"key":"12062140","name":"Finsterwalde, Stadt","type":"Stadt"},"district":{"key":"12062","name":"Elbe-Elster","type":"Landkreis"},"federalState":{"key":"12","name":"Brandenburg"}},{"name":"Eichenstr.","postalCode":"03238","locality":"Finsterwalde","municipality":{"key":"12062140","name":"Finsterwalde, Stadt","type":"Stadt"},"district":{"key":"12062","name":"Elbe-Elster","type":"Landkreis"},"federalState":{"key":"12","name":"Brandenburg"}},{"name":"Eichholzer Str.","postalCode":"03238","locality":"Finsterwalde","municipality":{"key":"12062140","name":"Finsterwalde, Stadt","type":"Stadt"},"district":{"key":"12062","name":"Elbe-Elster","type":"Landkreis"},"federalState":{"key":"12","name":"Brandenburg"}},{"name":"Elsastr.","postalCode":"03238","locality":"Finsterwalde","municipality":{"key":"12062140","name":"Finsterwalde, Stadt","type":"Stadt"},"district":{"key":"12062","name":"Elbe-Elster","type":"Landkreis"},"federalState":{"key":"12","name":"Brandenburg"}},{"name":"Eppelborner Ecke","postalCode":"03238","locality":"Finsterwalde","municipality":{"key":"12062140","name":"Finsterwalde, Stadt","type":"Stadt"},"district":{"key":"12062","name":"Elbe-Elster","type":"Landkreis"},"federalState":{"key":"12","name":"Brandenburg"}},{"name":"Erlenstr.","postalCode":"03238","locality":"Finsterwalde","municipality":{"key":"12062140","name":"Finsterwalde, Stadt","type":"Stadt"},"district":{"key":"12062","name":"Elbe-Elster","type":"Landkreis"},"federalState":{"key":"12","name":"Brandenburg"}},{"name":"Erlenweg","postalCode":"03238","locality":"Finsterwalde","municipality":{"key":"12062140","name":"Finsterwalde, Stadt","type":"Stadt"},"district":{"key":"12062","name":"Elbe-Elster","type":"Landkreis"},"federalState":{"key":"12","name":"Brandenburg"}},{"name":"Ernastr.","postalCode":"03238","locality":"Finsterwalde","municipality":{"key":"12062140","name":"Finsterwalde, Stadt","type":"Stadt"},"district":{"key":"12062","name":"Elbe-Elster","type":"Landkreis"},"federalState":{"key":"12","name":"Brandenburg"}},{"name":"Ernst-Moritz-Arndt-Str.","postalCode":"03238","locality":"Finsterwalde","municipality":{"key":"12062140","name":"Finsterwalde, Stadt","type":"Stadt"},"district":{"key":"12062","name":"Elbe-Elster","type":"Landkreis"},"federalState":{"key":"12","name":"Brandenburg"}},{"name":"Ernst-Toller-Str.","postalCode":"03238","locality":"Finsterwalde","municipality":{"key":"12062140","name":"Finsterwalde, Stadt","type":"Stadt"},"district":{"key":"12062","name":"Elbe-Elster","type":"Landkreis"},"federalState":{"key":"12","name":"Brandenburg"}},{"name":"Feldstr.","postalCode":"03238","locality":"Finsterwalde","municipality":{"key":"12062140","name":"Finsterwalde, Stadt","type":"Stadt"},"district":{"key":"12062","name":"Elbe-Elster","type":"Landkreis"},"federalState":{"key":"12","name":"Brandenburg"}},{"name":"Festwiese","postalCode":"03238","locality":"Finsterwalde","municipality":{"key":"12062140","name":"Finsterwalde, Stadt","type":"Stadt"},"district":{"key":"12062","name":"Elbe-Elster","type":"Landkreis"},"federalState":{"key":"12","name":"Brandenburg"}},{"name":"Finkenweg","postalCode":"03238","locality":"Finsterwalde","municipality":{"key":"12062140","name":"Finsterwalde, Stadt","type":"Stadt"},"district":{"key":"12062","name":"Elbe-Elster","type":"Landkreis"},"federalState":{"key":"12","name":"Brandenburg"}},{"name":"Finspångsgatan","postalCode":"03238","locality":"Finsterwalde","municipality":{"key":"12062140","name":"Finsterwalde, Stadt","type":"Stadt"},"district":{"key":"12062","name":"Elbe-Elster","type":"Landkreis"},"federalState":{"key":"12","name":"Brandenburg"}},{"name":"Finsterwalder Str.","postalCode":"03238","locality":"Finsterwalde","municipality":{"key":"12062140","name":"Finsterwalde, Stadt","type":"Stadt"},"district":{"key":"12062","name":"Elbe-Elster","type":"Landkreis"},"federalState":{"key":"12","name":"Brandenburg"}},{"name":"Fliegerallee","postalCode":"03238","locality":"Finsterwalde","municipality":{"key":"12062140","name":"Finsterwalde, Stadt","type":"Stadt"},"district":{"key":"12062","name":"Elbe-Elster","type":"Landkreis"},"federalState":{"key":"12","name":"Brandenburg"}},{"name":"Fliegerstr.","postalCode":"03238","locality":"Finsterwalde","municipality":{"key":"12062140","name":"Finsterwalde, Stadt","type":"Stadt"},"district":{"key":"12062","name":"Elbe-Elster","type":"Landkreis"},"federalState":{"key":"12","name":"Brandenburg"}},{"name":"Florian-Geyer-Str.","postalCode":"03238","locality":"Finsterwalde","municipality":{"key":"12062140","name":"Finsterwalde, Stadt","type":"Stadt"},"district":{"key":"12062","name":"Elbe-Elster","type":"Landkreis"},"federalState":{"key":"12","name":"Brandenburg"}},{"name":"Forststr.","postalCode":"03238","locality":"Finsterwalde","municipality":{"key":"12062140","name":"Finsterwalde, Stadt","type":"Stadt"},"district":{"key":"12062","name":"Elbe-Elster","type":"Landkreis"},"federalState":{"key":"12","name":"Brandenburg"}},{"name":"Forstweg","postalCode":"03238","locality":"Finsterwalde","municipality":{"key":"12062140","name":"Finsterwalde, Stadt","type":"Stadt"},"district":{"key":"12062","name":"Elbe-Elster","type":"Landkreis"},"federalState":{"key":"12","name":"Brandenburg"}},{"name":"Frankenaer Weg","postalCode":"03238","locality":"Finsterwalde","municipality":{"key":"12062140","name":"Finsterwalde, Stadt","type":"Stadt"},"district":{"key":"12062","name":"Elbe-Elster","type":"Landkreis"},"federalState":{"key":"12","name":"Brandenburg"}},{"name":"Franz-Mehring-Str.","postalCode":"03238","locality":"Finsterwalde","municipality":{"key":"12062140","name":"Finsterwalde, Stadt","type":"Stadt"},"district":{"key":"12062","name":"Elbe-Elster","type":"Landkreis"},"federalState":{"key":"12","name":"Brandenburg"}},{"name":"Friedastr.","postalCode":"03238","locality":"Finsterwalde","municipality":{"key":"12062140","name":"Finsterwalde, Stadt","type":"Stadt"},"district":{"key":"12062","name":"Elbe-Elster","type":"Landkreis"},"federalState":{"key":"12","name":"Brandenburg"}},{"name":"Friedenstr.","postalCode":"03238","locality":"Finsterwalde","municipality":{"key":"12062140","name":"Finsterwalde, Stadt","type":"Stadt"},"district":{"key":"12062","name":"Elbe-Elster","type":"Landkreis"},"federalState":{"key":"12","name":"Brandenburg"}},{"name":"Friedrich-Engels-Str.","postalCode":"03238","locality":"Finsterwalde","municipality":{"key":"12062140","name":"Finsterwalde, Stadt","type":"Stadt"},"district":{"key":"12062","name":"Elbe-Elster","type":"Landkreis"},"federalState":{"key":"12","name":"Brandenburg"}},{"name":"Friedrich-Hebbel-Str.","postalCode":"03238","locality":"Finsterwalde","municipality":{"key":"12062140","name":"Finsterwalde, Stadt","type":"Stadt"},"district":{"key":"12062","name":"Elbe-Elster","type":"Landkreis"},"federalState":{"key":"12","name":"Brandenburg"}},{"name":"Friedrich-Rückert-Str.","postalCode":"03238","locality":"Finsterwalde","municipality":{"key":"12062140","name":"Finsterwalde, Stadt","type":"Stadt"},"district":{"key":"12062","name":"Elbe-Elster","type":"Landkreis"},"federalState":{"key":"12","name":"Brandenburg"}},{"name":"Fritz-Reuter-Str.","postalCode":"03238","locality":"Finsterwalde","municipality":{"key":"12062140","name":"Finsterwalde, Stadt","type":"Stadt"},"district":{"key":"12062","name":"Elbe-Elster","type":"Landkreis"},"federalState":{"key":"12","name":"Brandenburg"}},{"name":"Gartenstr.","postalCode":"03238","locality":"Finsterwalde","municipality":{"key":"12062140","name":"Finsterwalde, Stadt","type":"Stadt"},"district":{"key":"12062","name":"Elbe-Elster","type":"Landkreis"},"federalState":{"key":"12","name":"Brandenburg"}},{"name":"Gartenweg am Westplatz","postalCode":"03238","locality":"Finsterwalde","municipality":{"key":"12062140","name":"Finsterwalde, Stadt","type":"Stadt"},"district":{"key":"12062","name":"Elbe-Elster","type":"Landkreis"},"federalState":{"key":"12","name":"Brandenburg"}},{"name":"Genossenschaftsstr.","postalCode":"03238","locality":"Finsterwalde","municipality":{"key":"12062140","name":"Finsterwalde, Stadt","type":"Stadt"},"district":{"key":"12062","name":"Elbe-Elster","type":"Landkreis"},"federalState":{"key":"12","name":"Brandenburg"}},{"name":"Gerhart-Hauptmann-Str.","postalCode":"03238","locality":"Finsterwalde","municipality":{"key":"12062140","name":"Finsterwalde, Stadt","type":"Stadt"},"district":{"key":"12062","name":"Elbe-Elster","type":"Landkreis"},"federalState":{"key":"12","name":"Brandenburg"}},{"name":"Geschwister-Scholl-Str.","postalCode":"03238","locality":"Finsterwalde","municipality":{"key":"12062140","name":"Finsterwalde, Stadt","type":"Stadt"},"district":{"key":"12062","name":"Elbe-Elster","type":"Landkreis"},"federalState":{"key":"12","name":"Brandenburg"}},{"name":"Glasmacherstr.","postalCode":"03238","locality":"Finsterwalde","municipality":{"key":"12062140","name":"Finsterwalde, Stadt","type":"Stadt"},"district":{"key":"12062","name":"Elbe-Elster","type":"Landkreis"},"federalState":{"key":"12","name":"Brandenburg"}},{"name":"Goethestr.","postalCode":"03238","locality":"Finsterwalde","municipality":{"key":"12062140","name":"Finsterwalde, Stadt","type":"Stadt"},"district":{"key":"12062","name":"Elbe-Elster","type":"Landkreis"},"federalState":{"key":"12","name":"Brandenburg"}},{"name":"Gotenstr.","postalCode":"03238","locality":"Finsterwalde","municipality":{"key":"12062140","name":"Finsterwalde, Stadt","type":"Stadt"},"district":{"key":"12062","name":"Elbe-Elster","type":"Landkreis"},"federalState":{"key":"12","name":"Brandenburg"}},{"name":"Grabenstr.","postalCode":"03238","locality":"Finsterwalde","municipality":{"key":"12062140","name":"Finsterwalde, Stadt","type":"Stadt"},"district":{"key":"12062","name":"Elbe-Elster","type":"Landkreis"},"federalState":{"key":"12","name":"Brandenburg"}},{"name":"Grenzstr.","postalCode":"03238","locality":"Finsterwalde","municipality":{"key":"12062140","name":"Finsterwalde, Stadt","type":"Stadt"},"district":{"key":"12062","name":"Elbe-Elster","type":"Landkreis"},"federalState":{"key":"12","name":"Brandenburg"}},{"name":"Grenzweg","postalCode":"03238","locality":"Finsterwalde","municipality":{"key":"12062140","name":"Finsterwalde, Stadt","type":"Stadt"},"district":{"key":"12062","name":"Elbe-Elster","type":"Landkreis"},"federalState":{"key":"12","name":"Brandenburg"}},{"name":"Gröbitzer Weg","postalCode":"03238","locality":"Finsterwalde","municipality":{"key":"12062140","name":"Finsterwalde, Stadt","type":"Stadt"},"district":{"key":"12062","name":"Elbe-Elster","type":"Landkreis"},"federalState":{"key":"12","name":"Brandenburg"}},{"name":"Große Ringstr.","postalCode":"03238","locality":"Finsterwalde","municipality":{"key":"12062140","name":"Finsterwalde, Stadt","type":"Stadt"},"district":{"key":"12062","name":"Elbe-Elster","type":"Landkreis"},"federalState":{"key":"12","name":"Brandenburg"}},{"name":"Grünhauser Str.","postalCode":"03238","locality":"Finsterwalde","municipality":{"key":"12062140","name":"Finsterwalde, Stadt","type":"Stadt"},"district":{"key":"12062","name":"Elbe-Elster","type":"Landkreis"},"federalState":{"key":"12","name":"Brandenburg"}},{"name":"Haeckelstr.","postalCode":"03238","locality":"Finsterwalde","municipality":{"key":"12062140","name":"Finsterwalde, Stadt","type":"Stadt"},"district":{"key":"12062","name":"Elbe-Elster","type":"Landkreis"},"federalState":{"key":"12","name":"Brandenburg"}},{"name":"Hagenstr.","postalCode":"03238","locality":"Finsterwalde","municipality":{"key":"12062140","name":"Finsterwalde, Stadt","type":"Stadt"},"district":{"key":"12062","name":"Elbe-Elster","type":"Landkreis"},"federalState":{"key":"12","name":"Brandenburg"}},{"name":"Hainstr.","postalCode":"03238","locality":"Finsterwalde","municipality":{"key":"12062140","name":"Finsterwalde, Stadt","type":"Stadt"},"district":{"key":"12062","name":"Elbe-Elster","type":"Landkreis"},"federalState":{"key":"12","name":"Brandenburg"}},{"name":"Hauptstr.","postalCode":"03238","locality":"Finsterwalde","municipality":{"key":"12062140","name":"Finsterwalde, Stadt","type":"Stadt"},"district":{"key":"12062","name":"Elbe-Elster","type":"Landkreis"},"federalState":{"key":"12","name":"Brandenburg"}},{"name":"Heideweg","postalCode":"03238","locality":"Finsterwalde","municipality":{"key":"12062140","name":"Finsterwalde, Stadt","type":"Stadt"},"district":{"key":"12062","name":"Elbe-Elster","type":"Landkreis"},"federalState":{"key":"12","name":"Brandenburg"}},{"name":"Heimstättensiedlung","postalCode":"03238","locality":"Finsterwalde","municipality":{"key":"12062140","name":"Finsterwalde, Stadt","type":"Stadt"},"district":{"key":"12062","name":"Elbe-Elster","type":"Landkreis"},"federalState":{"key":"12","name":"Brandenburg"}},{"name":"Heimstättenweg","postalCode":"03238","locality":"Finsterwalde","municipality":{"key":"12062140","name":"Finsterwalde, Stadt","type":"Stadt"},"district":{"key":"12062","name":"Elbe-Elster","type":"Landkreis"},"federalState":{"key":"12","name":"Brandenburg"}},{"name":"Heinrich-Böll-Str.","postalCode":"03238","locality":"Finsterwalde","municipality":{"key":"12062140","name":"Finsterwalde, Stadt","type":"Stadt"},"district":{"key":"12062","name":"Elbe-Elster","type":"Landkreis"},"federalState":{"key":"12","name":"Brandenburg"}},{"name":"Heinrich-Heine-Str.","postalCode":"03238","locality":"Finsterwalde","municipality":{"key":"12062140","name":"Finsterwalde, Stadt","type":"Stadt"},"district":{"key":"12062","name":"Elbe-Elster","type":"Landkreis"},"federalState":{"key":"12","name":"Brandenburg"}},{"name":"Heinrich-Hertwig-Str.","postalCode":"03238","locality":"Finsterwalde","municipality":{"key":"12062140","name":"Finsterwalde, Stadt","type":"Stadt"},"district":{"key":"12062","name":"Elbe-Elster","type":"Landkreis"},"federalState":{"key":"12","name":"Brandenburg"}},{"name":"Heinrichsruh","postalCode":"03238","locality":"Finsterwalde","municipality":{"key":"12062140","name":"Finsterwalde, Stadt","type":"Stadt"},"district":{"key":"12062","name":"Elbe-Elster","type":"Landkreis"},"federalState":{"key":"12","name":"Brandenburg"}},{"name":"Heinrichsruher Weg","postalCode":"03238","locality":"Finsterwalde","municipality":{"key":"12062140","name":"Finsterwalde, Stadt","type":"Stadt"},"district":{"key":"12062","name":"Elbe-Elster","type":"Landkreis"},"federalState":{"key":"12","name":"Brandenburg"}},{"name":"Helenenstr.","postalCode":"03238","locality":"Finsterwalde","municipality":{"key":"12062140","name":"Finsterwalde, Stadt","type":"Stadt"},"district":{"key":"12062","name":"Elbe-Elster","type":"Landkreis"},"federalState":{"key":"12","name":"Brandenburg"}},{"name":"Helgastr.","postalCode":"03238","locality":"Finsterwalde","municipality":{"key":"12062140","name":"Finsterwalde, Stadt","type":"Stadt"},"district":{"key":"12062","name":"Elbe-Elster","type":"Landkreis"},"federalState":{"key":"12","name":"Brandenburg"}},{"name":"Hertastr.","postalCode":"03238","locality":"Finsterwalde","municipality":{"key":"12062140","name":"Finsterwalde, Stadt","type":"Stadt"},"district":{"key":"12062","name":"Elbe-Elster","type":"Landkreis"},"federalState":{"key":"12","name":"Brandenburg"}},{"name":"Hessenstr.","postalCode":"03238","locality":"Finsterwalde","municipality":{"key":"12062140","name":"Finsterwalde, Stadt","type":"Stadt"},"district":{"key":"12062","name":"Elbe-Elster","type":"Landkreis"},"federalState":{"key":"12","name":"Brandenburg"}},{"name":"Hildegardstr.","postalCode":"03238","locality":"Finsterwalde","municipality":{"key":"12062140","name":"Finsterwalde, Stadt","type":"Stadt"},"district":{"key":"12062","name":"Elbe-Elster","type":"Landkreis"},"federalState":{"key":"12","name":"Brandenburg"}},{"name":"Hohe Str.","postalCode":"03238","locality":"Finsterwalde","municipality":{"key":"12062140","name":"Finsterwalde, Stadt","type":"Stadt"},"district":{"key":"12062","name":"Elbe-Elster","type":"Landkreis"},"federalState":{"key":"12","name":"Brandenburg"}},{"name":"Holsteiner Str.","postalCode":"03238","locality":"Finsterwalde","municipality":{"key":"12062140","name":"Finsterwalde, Stadt","type":"Stadt"},"district":{"key":"12062","name":"Elbe-Elster","type":"Landkreis"},"federalState":{"key":"12","name":"Brandenburg"}},{"name":"Jägerstr.","postalCode":"03238","locality":"Finsterwalde","municipality":{"key":"12062140","name":"Finsterwalde, Stadt","type":"Stadt"},"district":{"key":"12062","name":"Elbe-Elster","type":"Landkreis"},"federalState":{"key":"12","name":"Brandenburg"}},{"name":"Johannes-Knoche-Str.","postalCode":"03238","locality":"Finsterwalde","municipality":{"key":"12062140","name":"Finsterwalde, Stadt","type":"Stadt"},"district":{"key":"12062","name":"Elbe-Elster","type":"Landkreis"},"federalState":{"key":"12","name":"Brandenburg"}},{"name":"Kantstr.","postalCode":"03238","locality":"Finsterwalde","municipality":{"key":"12062140","name":"Finsterwalde, Stadt","type":"Stadt"},"district":{"key":"12062","name":"Elbe-Elster","type":"Landkreis"},"federalState":{"key":"12","name":"Brandenburg"}},{"name":"Karl-Marx-Str.","postalCode":"03238","locality":"Finsterwalde","municipality":{"key":"12062140","name":"Finsterwalde, Stadt","type":"Stadt"},"district":{"key":"12062","name":"Elbe-Elster","type":"Landkreis"},"federalState":{"key":"12","name":"Brandenburg"}},{"name":"Käthe-Kollwitz-Str.","postalCode":"03238","locality":"Finsterwalde","municipality":{"key":"12062140","name":"Finsterwalde, Stadt","type":"Stadt"},"district":{"key":"12062","name":"Elbe-Elster","type":"Landkreis"},"federalState":{"key":"12","name":"Brandenburg"}},{"name":"Kiefernstr.","postalCode":"03238","locality":"Finsterwalde","municipality":{"key":"12062140","name":"Finsterwalde, Stadt","type":"Stadt"},"district":{"key":"12062","name":"Elbe-Elster","type":"Landkreis"},"federalState":{"key":"12","name":"Brandenburg"}},{"name":"Kirchhainer Str.","postalCode":"03238","locality":"Finsterwalde","municipality":{"key":"12062140","name":"Finsterwalde, Stadt","type":"Stadt"},"district":{"key":"12062","name":"Elbe-Elster","type":"Landkreis"},"federalState":{"key":"12","name":"Brandenburg"}},{"name":"Klarastr.","postalCode":"03238","locality":"Finsterwalde","municipality":{"key":"12062140","name":"Finsterwalde, Stadt","type":"Stadt"},"district":{"key":"12062","name":"Elbe-Elster","type":"Landkreis"},"federalState":{"key":"12","name":"Brandenburg"}},{"name":"Kleine Calauer Str.","postalCode":"03238","locality":"Finsterwalde","municipality":{"key":"12062140","name":"Finsterwalde, Stadt","type":"Stadt"},"district":{"key":"12062","name":"Elbe-Elster","type":"Landkreis"},"federalState":{"key":"12","name":"Brandenburg"}},{"name":"Kleine Hintergasse","postalCode":"03238","locality":"Finsterwalde","municipality":{"key":"12062140","name":"Finsterwalde, Stadt","type":"Stadt"},"district":{"key":"12062","name":"Elbe-Elster","type":"Landkreis"},"federalState":{"key":"12","name":"Brandenburg"}},{"name":"Kleine Ringstr.","postalCode":"03238","locality":"Finsterwalde","municipality":{"key":"12062140","name":"Finsterwalde, Stadt","type":"Stadt"},"district":{"key":"12062","name":"Elbe-Elster","type":"Landkreis"},"federalState":{"key":"12","name":"Brandenburg"}},{"name":"Kleine Schacksdorfer Str.","postalCode":"03238","locality":"Finsterwalde","municipality":{"key":"12062140","name":"Finsterwalde, Stadt","type":"Stadt"},"district":{"key":"12062","name":"Elbe-Elster","type":"Landkreis"},"federalState":{"key":"12","name":"Brandenburg"}},{"name":"Kleine Str.","postalCode":"03238","locality":"Finsterwalde","municipality":{"key":"12062140","name":"Finsterwalde, Stadt","type":"Stadt"},"district":{"key":"12062","name":"Elbe-Elster","type":"Landkreis"},"federalState":{"key":"12","name":"Brandenburg"}},{"name":"Kriemhildstr.","postalCode":"03238","locality":"Finsterwalde","municipality":{"key":"12062140","name":"Finsterwalde, Stadt","type":"Stadt"},"district":{"key":"12062","name":"Elbe-Elster","type":"Landkreis"},"federalState":{"key":"12","name":"Brandenburg"}},{"name":"Langer Damm","postalCode":"03238","locality":"Finsterwalde","municipality":{"key":"12062140","name":"Finsterwalde, Stadt","type":"Stadt"},"district":{"key":"12062","name":"Elbe-Elster","type":"Landkreis"},"federalState":{"key":"12","name":"Brandenburg"}},{"name":"Lange Str.","postalCode":"03238","locality":"Finsterwalde","municipality":{"key":"12062140","name":"Finsterwalde, Stadt","type":"Stadt"},"district":{"key":"12062","name":"Elbe-Elster","type":"Landkreis"},"federalState":{"key":"12","name":"Brandenburg"}},{"name":"Langobardenstr.","postalCode":"03238","locality":"Finsterwalde","municipality":{"key":"12062140","name":"Finsterwalde, Stadt","type":"Stadt"},"district":{"key":"12062","name":"Elbe-Elster","type":"Landkreis"},"federalState":{"key":"12","name":"Brandenburg"}},{"name":"Leipziger Str.","postalCode":"03238","locality":"Finsterwalde","municipality":{"key":"12062140","name":"Finsterwalde, Stadt","type":"Stadt"},"district":{"key":"12062","name":"Elbe-Elster","type":"Landkreis"},"federalState":{"key":"12","name":"Brandenburg"}},{"name":"Lerchenweg","postalCode":"03238","locality":"Finsterwalde","municipality":{"key":"12062140","name":"Finsterwalde, Stadt","type":"Stadt"},"district":{"key":"12062","name":"Elbe-Elster","type":"Landkreis"},"federalState":{"key":"12","name":"Brandenburg"}},{"name":"Lessingstr.","postalCode":"03238","locality":"Finsterwalde","municipality":{"key":"12062140","name":"Finsterwalde, Stadt","type":"Stadt"},"district":{"key":"12062","name":"Elbe-Elster","type":"Landkreis"},"federalState":{"key":"12","name":"Brandenburg"}},{"name":"Lichterfelder Str.","postalCode":"03238","locality":"Finsterwalde","municipality":{"key":"12062140","name":"Finsterwalde, Stadt","type":"Stadt"},"district":{"key":"12062","name":"Elbe-Elster","type":"Landkreis"},"federalState":{"key":"12","name":"Brandenburg"}},{"name":"Lindenstr.","postalCode":"03238","locality":"Finsterwalde","municipality":{"key":"12062140","name":"Finsterwalde, Stadt","type":"Stadt"},"district":{"key":"12062","name":"Elbe-Elster","type":"Landkreis"},"federalState":{"key":"12","name":"Brandenburg"}},{"name":"Linienstr.","postalCode":"03238","locality":"Finsterwalde","municipality":{"key":"12062140","name":"Finsterwalde, Stadt","type":"Stadt"},"district":{"key":"12062","name":"Elbe-Elster","type":"Landkreis"},"federalState":{"key":"12","name":"Brandenburg"}},{"name":"Lugkweg","postalCode":"03238","locality":"Finsterwalde","municipality":{"key":"12062140","name":"Finsterwalde, Stadt","type":"Stadt"},"district":{"key":"12062","name":"Elbe-Elster","type":"Landkreis"},"federalState":{"key":"12","name":"Brandenburg"}},{"name":"Luisenstr.","postalCode":"03238","locality":"Finsterwalde","municipality":{"key":"12062140","name":"Finsterwalde, Stadt","type":"Stadt"},"district":{"key":"12062","name":"Elbe-Elster","type":"Landkreis"},"federalState":{"key":"12","name":"Brandenburg"}},{"name":"Magdalenenstr.","postalCode":"03238","locality":"Finsterwalde","municipality":{"key":"12062140","name":"Finsterwalde, Stadt","type":"Stadt"},"district":{"key":"12062","name":"Elbe-Elster","type":"Landkreis"},"federalState":{"key":"12","name":"Brandenburg"}},{"name":"Margarethenstr.","postalCode":"03238","locality":"Finsterwalde","municipality":{"key":"12062140","name":"Finsterwalde, Stadt","type":"Stadt"},"district":{"key":"12062","name":"Elbe-Elster","type":"Landkreis"},"federalState":{"key":"12","name":"Brandenburg"}},{"name":"Marienstr.","postalCode":"03238","locality":"Finsterwalde","municipality":{"key":"12062140","name":"Finsterwalde, Stadt","type":"Stadt"},"district":{"key":"12062","name":"Elbe-Elster","type":"Landkreis"},"federalState":{"key":"12","name":"Brandenburg"}},{"name":"Markt","postalCode":"03238","locality":"Finsterwalde","municipality":{"key":"12062140","name":"Finsterwalde, Stadt","type":"Stadt"},"district":{"key":"12062","name":"Elbe-Elster","type":"Landkreis"},"federalState":{"key":"12","name":"Brandenburg"}},{"name":"Marktgasse","postalCode":"03238","locality":"Finsterwalde","municipality":{"key":"12062140","name":"Finsterwalde, Stadt","type":"Stadt"},"district":{"key":"12062","name":"Elbe-Elster","type":"Landkreis"},"federalState":{"key":"12","name":"Brandenburg"}},{"name":"Marthastr.","postalCode":"03238","locality":"Finsterwalde","municipality":{"key":"12062140","name":"Finsterwalde, Stadt","type":"Stadt"},"district":{"key":"12062","name":"Elbe-Elster","type":"Landkreis"},"federalState":{"key":"12","name":"Brandenburg"}},{"name":"Massener Str.","postalCode":"03238","locality":"Finsterwalde","municipality":{"key":"12062140","name":"Finsterwalde, Stadt","type":"Stadt"},"district":{"key":"12062","name":"Elbe-Elster","type":"Landkreis"},"federalState":{"key":"12","name":"Brandenburg"}},{"name":"Max-Koswig-Str.","postalCode":"03238","locality":"Finsterwalde","municipality":{"key":"12062140","name":"Finsterwalde, Stadt","type":"Stadt"},"district":{"key":"12062","name":"Elbe-Elster","type":"Landkreis"},"federalState":{"key":"12","name":"Brandenburg"}},{"name":"Max-Schmidt-Str.","postalCode":"03238","locality":"Finsterwalde","municipality":{"key":"12062140","name":"Finsterwalde, Stadt","type":"Stadt"},"district":{"key":"12062","name":"Elbe-Elster","type":"Landkreis"},"federalState":{"key":"12","name":"Brandenburg"}},{"name":"Max-Taut-Str.","postalCode":"03238","locality":"Finsterwalde","municipality":{"key":"12062140","name":"Finsterwalde, Stadt","type":"Stadt"},"district":{"key":"12062","name":"Elbe-Elster","type":"Landkreis"},"federalState":{"key":"12","name":"Brandenburg"}},{"name":"Mecklenburger Str.","postalCode":"03238","locality":"Finsterwalde","municipality":{"key":"12062140","name":"Finsterwalde, Stadt","type":"Stadt"},"district":{"key":"12062","name":"Elbe-Elster","type":"Landkreis"},"federalState":{"key":"12","name":"Brandenburg"}},{"name":"Meisenweg","postalCode":"03238","locality":"Finsterwalde","municipality":{"key":"12062140","name":"Finsterwalde, Stadt","type":"Stadt"},"district":{"key":"12062","name":"Elbe-Elster","type":"Landkreis"},"federalState":{"key":"12","name":"Brandenburg"}},{"name":"Moritzplatz","postalCode":"03238","locality":"Finsterwalde","municipality":{"key":"12062140","name":"Finsterwalde, Stadt","type":"Stadt"},"district":{"key":"12062","name":"Elbe-Elster","type":"Landkreis"},"federalState":{"key":"12","name":"Brandenburg"}},{"name":"Moritzstr.","postalCode":"03238","locality":"Finsterwalde","municipality":{"key":"12062140","name":"Finsterwalde, Stadt","type":"Stadt"},"district":{"key":"12062","name":"Elbe-Elster","type":"Landkreis"},"federalState":{"key":"12","name":"Brandenburg"}},{"name":"Mühlbergstr.","postalCode":"03238","locality":"Finsterwalde","municipality":{"key":"12062140","name":"Finsterwalde, Stadt","type":"Stadt"},"district":{"key":"12062","name":"Elbe-Elster","type":"Landkreis"},"federalState":{"key":"12","name":"Brandenburg"}},{"name":"Mühlenweg","postalCode":"03238","locality":"Finsterwalde","municipality":{"key":"12062140","name":"Finsterwalde, Stadt","type":"Stadt"},"district":{"key":"12062","name":"Elbe-Elster","type":"Landkreis"},"federalState":{"key":"12","name":"Brandenburg"}},{"name":"Müllerstr.","postalCode":"03238","locality":"Finsterwalde","municipality":{"key":"12062140","name":"Finsterwalde, Stadt","type":"Stadt"},"district":{"key":"12062","name":"Elbe-Elster","type":"Landkreis"},"federalState":{"key":"12","name":"Brandenburg"}},{"name":"Nach dem Horst","postalCode":"03238","locality":"Finsterwalde","municipality":{"key":"12062140","name":"Finsterwalde, Stadt","type":"Stadt"},"district":{"key":"12062","name":"Elbe-Elster","type":"Landkreis"},"federalState":{"key":"12","name":"Brandenburg"}},{"name":"Naundorfer Str.","postalCode":"03238","locality":"Finsterwalde","municipality":{"key":"12062140","name":"Finsterwalde, Stadt","type":"Stadt"},"district":{"key":"12062","name":"Elbe-Elster","type":"Landkreis"},"federalState":{"key":"12","name":"Brandenburg"}},{"name":"Neu-Hellas-Str.","postalCode":"03238","locality":"Finsterwalde","municipality":{"key":"12062140","name":"Finsterwalde, Stadt","type":"Stadt"},"district":{"key":"12062","name":"Elbe-Elster","type":"Landkreis"},"federalState":{"key":"12","name":"Brandenburg"}},{"name":"Oscar-Kjelberg-Str.","postalCode":"03238","locality":"Finsterwalde","municipality":{"key":"12062140","name":"Finsterwalde, Stadt","type":"Stadt"},"district":{"key":"12062","name":"Elbe-Elster","type":"Landkreis"},"federalState":{"key":"12","name":"Brandenburg"}},{"name":"Oscar-Kjellberg-Str.","postalCode":"03238","locality":"Finsterwalde","municipality":{"key":"12062140","name":"Finsterwalde, Stadt","type":"Stadt"},"district":{"key":"12062","name":"Elbe-Elster","type":"Landkreis"},"federalState":{"key":"12","name":"Brandenburg"}},{"name":"Otto-Lilienthal-Str.","postalCode":"03238","locality":"Finsterwalde","municipality":{"key":"12062140","name":"Finsterwalde, Stadt","type":"Stadt"},"district":{"key":"12062","name":"Elbe-Elster","type":"Landkreis"},"federalState":{"key":"12","name":"Brandenburg"}},{"name":"Paul-Beylich-Str.","postalCode":"03238","locality":"Finsterwalde","municipality":{"key":"12062140","name":"Finsterwalde, Stadt","type":"Stadt"},"district":{"key":"12062","name":"Elbe-Elster","type":"Landkreis"},"federalState":{"key":"12","name":"Brandenburg"}},{"name":"Pestalozzistr.","postalCode":"03238","locality":"Finsterwalde","municipality":{"key":"12062140","name":"Finsterwalde, Stadt","type":"Stadt"},"district":{"key":"12062","name":"Elbe-Elster","type":"Landkreis"},"federalState":{"key":"12","name":"Brandenburg"}},{"name":"Pflaumenallee","postalCode":"03238","locality":"Finsterwalde","municipality":{"key":"12062140","name":"Finsterwalde, Stadt","type":"Stadt"},"district":{"key":"12062","name":"Elbe-Elster","type":"Landkreis"},"federalState":{"key":"12","name":"Brandenburg"}},{"name":"Platz der Solidarität","postalCode":"03238","locality":"Finsterwalde","municipality":{"key":"12062140","name":"Finsterwalde, Stadt","type":"Stadt"},"district":{"key":"12062","name":"Elbe-Elster","type":"Landkreis"},"federalState":{"key":"12","name":"Brandenburg"}},{"name":"Ponnsdorfer Weg","postalCode":"03238","locality":"Finsterwalde","municipality":{"key":"12062140","name":"Finsterwalde, Stadt","type":"Stadt"},"district":{"key":"12062","name":"Elbe-Elster","type":"Landkreis"},"federalState":{"key":"12","name":"Brandenburg"}},{"name":"Rathenaustr.","postalCode":"03238","locality":"Finsterwalde","municipality":{"key":"12062140","name":"Finsterwalde, Stadt","type":"Stadt"},"district":{"key":"12062","name":"Elbe-Elster","type":"Landkreis"},"federalState":{"key":"12","name":"Brandenburg"}},{"name":"Reicheltstr.","postalCode":"03238","locality":"Finsterwalde","municipality":{"key":"12062140","name":"Finsterwalde, Stadt","type":"Stadt"},"district":{"key":"12062","name":"Elbe-Elster","type":"Landkreis"},"federalState":{"key":"12","name":"Brandenburg"}},{"name":"Robert-Koch-Str.","postalCode":"03238","locality":"Finsterwalde","municipality":{"key":"12062140","name":"Finsterwalde, Stadt","type":"Stadt"},"district":{"key":"12062","name":"Elbe-Elster","type":"Landkreis"},"federalState":{"key":"12","name":"Brandenburg"}},{"name":"Rosa-Luxemburg-Str.","postalCode":"03238","locality":"Finsterwalde","municipality":{"key":"12062140","name":"Finsterwalde, Stadt","type":"Stadt"},"district":{"key":"12062","name":"Elbe-Elster","type":"Landkreis"},"federalState":{"key":"12","name":"Brandenburg"}},{"name":"Rue de Montataire","postalCode":"03238","locality":"Finsterwalde","municipality":{"key":"12062140","name":"Finsterwalde, Stadt","type":"Stadt"},"district":{"key":"12062","name":"Elbe-Elster","type":"Landkreis"},"federalState":{"key":"12","name":"Brandenburg"}},{"name":"Saarlandstr.","postalCode":"03238","locality":"Finsterwalde","municipality":{"key":"12062140","name":"Finsterwalde, Stadt","type":"Stadt"},"district":{"key":"12062","name":"Elbe-Elster","type":"Landkreis"},"federalState":{"key":"12","name":"Brandenburg"}},{"name":"Sachsenring","postalCode":"03238","locality":"Finsterwalde","municipality":{"key":"12062140","name":"Finsterwalde, Stadt","type":"Stadt"},"district":{"key":"12062","name":"Elbe-Elster","type":"Landkreis"},"federalState":{"key":"12","name":"Brandenburg"}},{"name":"Salaspils iela","postalCode":"03238","locality":"Finsterwalde","municipality":{"key":"12062140","name":"Finsterwalde, Stadt","type":"Stadt"},"district":{"key":"12062","name":"Elbe-Elster","type":"Landkreis"},"federalState":{"key":"12","name":"Brandenburg"}},{"name":"Schacksdorfer Str.","postalCode":"03238","locality":"Finsterwalde","municipality":{"key":"12062140","name":"Finsterwalde, Stadt","type":"Stadt"},"district":{"key":"12062","name":"Elbe-Elster","type":"Landkreis"},"federalState":{"key":"12","name":"Brandenburg"}},{"name":"Scharnhorststr.","postalCode":"03238","locality":"Finsterwalde","municipality":{"key":"12062140","name":"Finsterwalde, Stadt","type":"Stadt"},"district":{"key":"12062","name":"Elbe-Elster","type":"Landkreis"},"federalState":{"key":"12","name":"Brandenburg"}},{"name":"Schellingstr.","postalCode":"03238","locality":"Finsterwalde","municipality":{"key":"12062140","name":"Finsterwalde, Stadt","type":"Stadt"},"district":{"key":"12062","name":"Elbe-Elster","type":"Landkreis"},"federalState":{"key":"12","name":"Brandenburg"}},{"name":"Schillerplatz","postalCode":"03238","locality":"Finsterwalde","municipality":{"key":"12062140","name":"Finsterwalde, Stadt","type":"Stadt"},"district":{"key":"12062","name":"Elbe-Elster","type":"Landkreis"},"federalState":{"key":"12","name":"Brandenburg"}},{"name":"Schillerstr.","postalCode":"03238","locality":"Finsterwalde","municipality":{"key":"12062140","name":"Finsterwalde, Stadt","type":"Stadt"},"district":{"key":"12062","name":"Elbe-Elster","type":"Landkreis"},"federalState":{"key":"12","name":"Brandenburg"}},{"name":"Schlosspark","postalCode":"03238","locality":"Finsterwalde","municipality":{"key":"12062140","name":"Finsterwalde, Stadt","type":"Stadt"},"district":{"key":"12062","name":"Elbe-Elster","type":"Landkreis"},"federalState":{"key":"12","name":"Brandenburg"}},{"name":"Schloßstr.","postalCode":"03238","locality":"Finsterwalde","municipality":{"key":"12062140","name":"Finsterwalde, Stadt","type":"Stadt"},"district":{"key":"12062","name":"Elbe-Elster","type":"Landkreis"},"federalState":{"key":"12","name":"Brandenburg"}},{"name":"Schulstr.","postalCode":"03238","locality":"Finsterwalde","municipality":{"key":"12062140","name":"Finsterwalde, Stadt","type":"Stadt"},"district":{"key":"12062","name":"Elbe-Elster","type":"Landkreis"},"federalState":{"key":"12","name":"Brandenburg"}},{"name":"Schützenstr.","postalCode":"03238","locality":"Finsterwalde","municipality":{"key":"12062140","name":"Finsterwalde, Stadt","type":"Stadt"},"district":{"key":"12062","name":"Elbe-Elster","type":"Landkreis"},"federalState":{"key":"12","name":"Brandenburg"}},{"name":"Schwalbenweg","postalCode":"03238","locality":"Finsterwalde","municipality":{"key":"12062140","name":"Finsterwalde, Stadt","type":"Stadt"},"district":{"key":"12062","name":"Elbe-Elster","type":"Landkreis"},"federalState":{"key":"12","name":"Brandenburg"}},{"name":"Semmelweisstr.","postalCode":"03238","locality":"Finsterwalde","municipality":{"key":"12062140","name":"Finsterwalde, Stadt","type":"Stadt"},"district":{"key":"12062","name":"Elbe-Elster","type":"Landkreis"},"federalState":{"key":"12","name":"Brandenburg"}},{"name":"Siedlerstr.","postalCode":"03238","locality":"Finsterwalde","municipality":{"key":"12062140","name":"Finsterwalde, Stadt","type":"Stadt"},"district":{"key":"12062","name":"Elbe-Elster","type":"Landkreis"},"federalState":{"key":"12","name":"Brandenburg"}},{"name":"Siegfriedstr.","postalCode":"03238","locality":"Finsterwalde","municipality":{"key":"12062140","name":"Finsterwalde, Stadt","type":"Stadt"},"district":{"key":"12062","name":"Elbe-Elster","type":"Landkreis"},"federalState":{"key":"12","name":"Brandenburg"}},{"name":"Sonnewalder Str.","postalCode":"03238","locality":"Finsterwalde","municipality":{"key":"12062140","name":"Finsterwalde, Stadt","type":"Stadt"},"district":{"key":"12062","name":"Elbe-Elster","type":"Landkreis"},"federalState":{"key":"12","name":"Brandenburg"}},{"name":"Sorgengärten","postalCode":"03238","locality":"Finsterwalde","municipality":{"key":"12062140","name":"Finsterwalde, Stadt","type":"Stadt"},"district":{"key":"12062","name":"Elbe-Elster","type":"Landkreis"},"federalState":{"key":"12","name":"Brandenburg"}},{"name":"Sornoer Grabenstr.","postalCode":"03238","locality":"Finsterwalde","municipality":{"key":"12062140","name":"Finsterwalde, Stadt","type":"Stadt"},"district":{"key":"12062","name":"Elbe-Elster","type":"Landkreis"},"federalState":{"key":"12","name":"Brandenburg"}},{"name":"Sornoer Hauptstr.","postalCode":"03238","locality":"Finsterwalde","municipality":{"key":"12062140","name":"Finsterwalde, Stadt","type":"Stadt"},"district":{"key":"12062","name":"Elbe-Elster","type":"Landkreis"},"federalState":{"key":"12","name":"Brandenburg"}},{"name":"Sportplatzstr.","postalCode":"03238","locality":"Finsterwalde","municipality":{"key":"12062140","name":"Finsterwalde, Stadt","type":"Stadt"},"district":{"key":"12062","name":"Elbe-Elster","type":"Landkreis"},"federalState":{"key":"12","name":"Brandenburg"}},{"name":"Stadtpark","postalCode":"03238","locality":"Finsterwalde","municipality":{"key":"12062140","name":"Finsterwalde, Stadt","type":"Stadt"},"district":{"key":"12062","name":"Elbe-Elster","type":"Landkreis"},"federalState":{"key":"12","name":"Brandenburg"}},{"name":"Str. an der Erholung","postalCode":"03238","locality":"Finsterwalde","municipality":{"key":"12062140","name":"Finsterwalde, Stadt","type":"Stadt"},"district":{"key":"12062","name":"Elbe-Elster","type":"Landkreis"},"federalState":{"key":"12","name":"Brandenburg"}},{"name":"Str. der Jugend","postalCode":"03238","locality":"Finsterwalde","municipality":{"key":"12062140","name":"Finsterwalde, Stadt","type":"Stadt"},"district":{"key":"12062","name":"Elbe-Elster","type":"Landkreis"},"federalState":{"key":"12","name":"Brandenburg"}},{"name":"Theodor-Körner-Str.","postalCode":"03238","locality":"Finsterwalde","municipality":{"key":"12062140","name":"Finsterwalde, Stadt","type":"Stadt"},"district":{"key":"12062","name":"Elbe-Elster","type":"Landkreis"},"federalState":{"key":"12","name":"Brandenburg"}},{"name":"Thomas-Mann-Str.","postalCode":"03238","locality":"Finsterwalde","municipality":{"key":"12062140","name":"Finsterwalde, Stadt","type":"Stadt"},"district":{"key":"12062","name":"Elbe-Elster","type":"Landkreis"},"federalState":{"key":"12","name":"Brandenburg"}},{"name":"Thomas-Müntzer-Str.","postalCode":"03238","locality":"Finsterwalde","municipality":{"key":"12062140","name":"Finsterwalde, Stadt","type":"Stadt"},"district":{"key":"12062","name":"Elbe-Elster","type":"Landkreis"},"federalState":{"key":"12","name":"Brandenburg"}},{"name":"Thüringer Str.","postalCode":"03238","locality":"Finsterwalde","municipality":{"key":"12062140","name":"Finsterwalde, Stadt","type":"Stadt"},"district":{"key":"12062","name":"Elbe-Elster","type":"Landkreis"},"federalState":{"key":"12","name":"Brandenburg"}},{"name":"Trift","postalCode":"03238","locality":"Finsterwalde","municipality":{"key":"12062140","name":"Finsterwalde, Stadt","type":"Stadt"},"district":{"key":"12062","name":"Elbe-Elster","type":"Landkreis"},"federalState":{"key":"12","name":"Brandenburg"}},{"name":"Tuchmacherstr.","postalCode":"03238","locality":"Finsterwalde","municipality":{"key":"12062140","name":"Finsterwalde, Stadt","type":"Stadt"},"district":{"key":"12062","name":"Elbe-Elster","type":"Landkreis"},"federalState":{"key":"12","name":"Brandenburg"}},{"name":"Turnhallenstr.","postalCode":"03238","locality":"Finsterwalde","municipality":{"key":"12062140","name":"Finsterwalde, Stadt","type":"Stadt"},"district":{"key":"12062","name":"Elbe-Elster","type":"Landkreis"},"federalState":{"key":"12","name":"Brandenburg"}},{"name":"Uhlandstr.","postalCode":"03238","locality":"Finsterwalde","municipality":{"key":"12062140","name":"Finsterwalde, Stadt","type":"Stadt"},"district":{"key":"12062","name":"Elbe-Elster","type":"Landkreis"},"federalState":{"key":"12","name":"Brandenburg"}},{"name":"Unterführung Förderband","postalCode":"03238","locality":"Finsterwalde","municipality":{"key":"12062140","name":"Finsterwalde, Stadt","type":"Stadt"},"district":{"key":"12062","name":"Elbe-Elster","type":"Landkreis"},"federalState":{"key":"12","name":"Brandenburg"}},{"name":"Ursulastr.","postalCode":"03238","locality":"Finsterwalde","municipality":{"key":"12062140","name":"Finsterwalde, Stadt","type":"Stadt"},"district":{"key":"12062","name":"Elbe-Elster","type":"Landkreis"},"federalState":{"key":"12","name":"Brandenburg"}},{"name":"Vandalenstr.","postalCode":"03238","locality":"Finsterwalde","municipality":{"key":"12062140","name":"Finsterwalde, Stadt","type":"Stadt"},"district":{"key":"12062","name":"Elbe-Elster","type":"Landkreis"},"federalState":{"key":"12","name":"Brandenburg"}},{"name":"Virchowstr.","postalCode":"03238","locality":"Finsterwalde","municipality":{"key":"12062140","name":"Finsterwalde, Stadt","type":"Stadt"},"district":{"key":"12062","name":"Elbe-Elster","type":"Landkreis"},"federalState":{"key":"12","name":"Brandenburg"}},{"name":"Waldweg","postalCode":"03238","locality":"Finsterwalde","municipality":{"key":"12062140","name":"Finsterwalde, Stadt","type":"Stadt"},"district":{"key":"12062","name":"Elbe-Elster","type":"Landkreis"},"federalState":{"key":"12","name":"Brandenburg"}},{"name":"Weg zum Jungfernbusch","postalCode":"03238","locality":"Finsterwalde","municipality":{"key":"12062140","name":"Finsterwalde, Stadt","type":"Stadt"},"district":{"key":"12062","name":"Elbe-Elster","type":"Landkreis"},"federalState":{"key":"12","name":"Brandenburg"}},{"name":"Westfalenstr.","postalCode":"03238","locality":"Finsterwalde","municipality":{"key":"12062140","name":"Finsterwalde, Stadt","type":"Stadt"},"district":{"key":"12062","name":"Elbe-Elster","type":"Landkreis"},"federalState":{"key":"12","name":"Brandenburg"}},{"name":"Westplatz","postalCode":"03238","locality":"Finsterwalde","municipality":{"key":"12062140","name":"Finsterwalde, Stadt","type":"Stadt"},"district":{"key":"12062","name":"Elbe-Elster","type":"Landkreis"},"federalState":{"key":"12","name":"Brandenburg"}},{"name":"Westring","postalCode":"03238","locality":"Finsterwalde","municipality":{"key":"12062140","name":"Finsterwalde, Stadt","type":"Stadt"},"district":{"key":"12062","name":"Elbe-Elster","type":"Landkreis"},"federalState":{"key":"12","name":"Brandenburg"}},{"name":"Weststr.","postalCode":"03238","locality":"Finsterwalde","municipality":{"key":"12062140","name":"Finsterwalde, Stadt","type":"Stadt"},"district":{"key":"12062","name":"Elbe-Elster","type":"Landkreis"},"federalState":{"key":"12","name":"Brandenburg"}},{"name":"Wiesenstr.","postalCode":"03238","locality":"Finsterwalde","municipality":{"key":"12062140","name":"Finsterwalde, Stadt","type":"Stadt"},"district":{"key":"12062","name":"Elbe-Elster","type":"Landkreis"},"federalState":{"key":"12","name":"Brandenburg"}},{"name":"Wilhelm-Liebknecht-Str.","postalCode":"03238","locality":"Finsterwalde","municipality":{"key":"12062140","name":"Finsterwalde, Stadt","type":"Stadt"},"district":{"key":"12062","name":"Elbe-Elster","type":"Landkreis"},"federalState":{"key":"12","name":"Brandenburg"}},{"name":"Zum Fichteplatz","postalCode":"03238","locality":"Finsterwalde","municipality":{"key":"12062140","name":"Finsterwalde, Stadt","type":"Stadt"},"district":{"key":"12062","name":"Elbe-Elster","type":"Landkreis"},"federalState":{"key":"12","name":"Brandenburg"}},]