[{"key":"10055373","name":"Allmendstrasse","postalCode":"4703","locality":"Kestenholz","commune":{"key":"2403","name":"Kestenholz","shortName":"Kestenholz"},"district":{"key":"1101","name":"Bezirk Gäu"},"canton":{"key":"11","code":"SO","name":"Solothurn"},"status":"Real"},{"key":"10213194","name":"Alpenblickweg","postalCode":"4703","locality":"Kestenholz","commune":{"key":"2403","name":"Kestenholz","shortName":"Kestenholz"},"district":{"key":"1101","name":"Bezirk Gäu"},"canton":{"key":"11","code":"SO","name":"Solothurn"},"status":"Real"},{"key":"10213199","name":"Altarmenfondweg","postalCode":"4703","locality":"Kestenholz","commune":{"key":"2403","name":"Kestenholz","shortName":"Kestenholz"},"district":{"key":"1101","name":"Bezirk Gäu"},"canton":{"key":"11","code":"SO","name":"Solothurn"},"status":"Real"},{"key":"10114186","name":"Alte Strasse","postalCode":"4703","locality":"Kestenholz","commune":{"key":"2403","name":"Kestenholz","shortName":"Kestenholz"},"district":{"key":"1101","name":"Bezirk Gäu"},"canton":{"key":"11","code":"SO","name":"Solothurn"},"status":"Real"},{"key":"10213203","name":"Anderthalbviertelweg","postalCode":"4703","locality":"Kestenholz","commune":{"key":"2403","name":"Kestenholz","shortName":"Kestenholz"},"district":{"key":"1101","name":"Bezirk Gäu"},"canton":{"key":"11","code":"SO","name":"Solothurn"},"status":"Real"},{"key":"10213206","name":"Aussenweg","postalCode":"4703","locality":"Kestenholz","commune":{"key":"2403","name":"Kestenholz","shortName":"Kestenholz"},"district":{"key":"1101","name":"Bezirk Gäu"},"canton":{"key":"11","code":"SO","name":"Solothurn"},"status":"Real"},{"key":"10022929","name":"Ausserrainstrasse","postalCode":"4703","locality":"Kestenholz","commune":{"key":"2403","name":"Kestenholz","shortName":"Kestenholz"},"district":{"key":"1101","name":"Bezirk Gäu"},"canton":{"key":"11","code":"SO","name":"Solothurn"},"status":"Real"},{"key":"10242654","name":"Autobahn A1","postalCode":"4703","locality":"Kestenholz","commune":{"key":"2403","name":"Kestenholz","shortName":"Kestenholz"},"district":{"key":"1101","name":"Bezirk Gäu"},"canton":{"key":"11","code":"SO","name":"Solothurn"},"status":"Real"},{"key":"10091957","name":"Bachmattstrasse","postalCode":"4703","locality":"Kestenholz","commune":{"key":"2403","name":"Kestenholz","shortName":"Kestenholz"},"district":{"key":"1101","name":"Bezirk Gäu"},"canton":{"key":"11","code":"SO","name":"Solothurn"},"status":"Real"},{"key":"10213209","name":"Bachweg","postalCode":"4703","locality":"Kestenholz","commune":{"key":"2403","name":"Kestenholz","shortName":"Kestenholz"},"district":{"key":"1101","name":"Bezirk Gäu"},"canton":{"key":"11","code":"SO","name":"Solothurn"},"status":"Real"},{"key":"10190041","name":"Bifangstrasse","postalCode":"4703","locality":"Kestenholz","commune":{"key":"2403","name":"Kestenholz","shortName":"Kestenholz"},"district":{"key":"1101","name":"Bezirk Gäu"},"canton":{"key":"11","code":"SO","name":"Solothurn"},"status":"Real"},{"key":"10071549","name":"Birkenweg","postalCode":"4703","locality":"Kestenholz","commune":{"key":"2403","name":"Kestenholz","shortName":"Kestenholz"},"district":{"key":"1101","name":"Bezirk Gäu"},"canton":{"key":"11","code":"SO","name":"Solothurn"},"status":"Real"},{"key":"10174463","name":"Bitzmattstrasse","postalCode":"4703","locality":"Kestenholz","commune":{"key":"2403","name":"Kestenholz","shortName":"Kestenholz"},"district":{"key":"1101","name":"Bezirk Gäu"},"canton":{"key":"11","code":"SO","name":"Solothurn"},"status":"Real"},{"key":"10022930","name":"Blumenmatt","postalCode":"4703","locality":"Kestenholz","commune":{"key":"2403","name":"Kestenholz","shortName":"Kestenholz"},"district":{"key":"1101","name":"Bezirk Gäu"},"canton":{"key":"11","code":"SO","name":"Solothurn"},"status":"Real"},{"key":"10213213","name":"Bogenweg","postalCode":"4703","locality":"Kestenholz","commune":{"key":"2403","name":"Kestenholz","shortName":"Kestenholz"},"district":{"key":"1101","name":"Bezirk Gäu"},"canton":{"key":"11","code":"SO","name":"Solothurn"},"status":"Real"},{"key":"10137519","name":"Bruggweg","postalCode":"4703","locality":"Kestenholz","commune":{"key":"2403","name":"Kestenholz","shortName":"Kestenholz"},"district":{"key":"1101","name":"Bezirk Gäu"},"canton":{"key":"11","code":"SO","name":"Solothurn"},"status":"Real"},{"key":"10186285","name":"Brunnmattweg","postalCode":"4703","locality":"Kestenholz","commune":{"key":"2403","name":"Kestenholz","shortName":"Kestenholz"},"district":{"key":"1101","name":"Bezirk Gäu"},"canton":{"key":"11","code":"SO","name":"Solothurn"},"status":"Real"},{"key":"10213220","name":"Buechbannweg","postalCode":"4703","locality":"Kestenholz","commune":{"key":"2403","name":"Kestenholz","shortName":"Kestenholz"},"district":{"key":"1101","name":"Bezirk Gäu"},"canton":{"key":"11","code":"SO","name":"Solothurn"},"status":"Real"},{"key":"10121098","name":"Bündtenstrasse","postalCode":"4703","locality":"Kestenholz","commune":{"key":"2403","name":"Kestenholz","shortName":"Kestenholz"},"district":{"key":"1101","name":"Bezirk Gäu"},"canton":{"key":"11","code":"SO","name":"Solothurn"},"status":"Real"},{"key":"10213224","name":"Bürgerwäldliweg","postalCode":"4703","locality":"Kestenholz","commune":{"key":"2403","name":"Kestenholz","shortName":"Kestenholz"},"district":{"key":"1101","name":"Bezirk Gäu"},"canton":{"key":"11","code":"SO","name":"Solothurn"},"status":"Real"},{"key":"10123622","name":"Chäppelihof","postalCode":"4703","locality":"Kestenholz","commune":{"key":"2403","name":"Kestenholz","shortName":"Kestenholz"},"district":{"key":"1101","name":"Bezirk Gäu"},"canton":{"key":"11","code":"SO","name":"Solothurn"},"status":"Real"},{"key":"10213225","name":"Chäppelistrasse","postalCode":"4703","locality":"Kestenholz","commune":{"key":"2403","name":"Kestenholz","shortName":"Kestenholz"},"district":{"key":"1101","name":"Bezirk Gäu"},"canton":{"key":"11","code":"SO","name":"Solothurn"},"status":"Real"},{"key":"10071550","name":"Dahlienweg","postalCode":"4703","locality":"Kestenholz","commune":{"key":"2403","name":"Kestenholz","shortName":"Kestenholz"},"district":{"key":"1101","name":"Bezirk Gäu"},"canton":{"key":"11","code":"SO","name":"Solothurn"},"status":"Real"},{"key":"10213229","name":"Dickbannweg","postalCode":"4703","locality":"Kestenholz","commune":{"key":"2403","name":"Kestenholz","shortName":"Kestenholz"},"district":{"key":"1101","name":"Bezirk Gäu"},"canton":{"key":"11","code":"SO","name":"Solothurn"},"status":"Real"},{"key":"10091958","name":"Erlenweg","postalCode":"4703","locality":"Kestenholz","commune":{"key":"2403","name":"Kestenholz","shortName":"Kestenholz"},"district":{"key":"1101","name":"Bezirk Gäu"},"canton":{"key":"11","code":"SO","name":"Solothurn"},"status":"Real"},{"key":"10213233","name":"Erlenweg Staatswald","postalCode":"4703","locality":"Kestenholz","commune":{"key":"2403","name":"Kestenholz","shortName":"Kestenholz"},"district":{"key":"1101","name":"Bezirk Gäu"},"canton":{"key":"11","code":"SO","name":"Solothurn"},"status":"Real"},{"key":"10022931","name":"Feldstrasse","postalCode":"4703","locality":"Kestenholz","commune":{"key":"2403","name":"Kestenholz","shortName":"Kestenholz"},"district":{"key":"1101","name":"Bezirk Gäu"},"canton":{"key":"11","code":"SO","name":"Solothurn"},"status":"Real"},{"key":"10213237","name":"Fichtenweg","postalCode":"4703","locality":"Kestenholz","commune":{"key":"2403","name":"Kestenholz","shortName":"Kestenholz"},"district":{"key":"1101","name":"Bezirk Gäu"},"canton":{"key":"11","code":"SO","name":"Solothurn"},"status":"Real"},{"key":"10213241","name":"Fichtenweg Staatswald","postalCode":"4703","locality":"Kestenholz","commune":{"key":"2403","name":"Kestenholz","shortName":"Kestenholz"},"district":{"key":"1101","name":"Bezirk Gäu"},"canton":{"key":"11","code":"SO","name":"Solothurn"},"status":"Real"},{"key":"10022932","name":"Fliederweg","postalCode":"4703","locality":"Kestenholz","commune":{"key":"2403","name":"Kestenholz","shortName":"Kestenholz"},"district":{"key":"1101","name":"Bezirk Gäu"},"canton":{"key":"11","code":"SO","name":"Solothurn"},"status":"Real"},{"key":"10071551","name":"Föhrenweg","postalCode":"4703","locality":"Kestenholz","commune":{"key":"2403","name":"Kestenholz","shortName":"Kestenholz"},"district":{"key":"1101","name":"Bezirk Gäu"},"canton":{"key":"11","code":"SO","name":"Solothurn"},"status":"Real"},{"key":"10213245","name":"Fuchsbodenweg","postalCode":"4703","locality":"Kestenholz","commune":{"key":"2403","name":"Kestenholz","shortName":"Kestenholz"},"district":{"key":"1101","name":"Bezirk Gäu"},"canton":{"key":"11","code":"SO","name":"Solothurn"},"status":"Real"},{"key":"10022933","name":"Gäustrasse","postalCode":"4703","locality":"Kestenholz","commune":{"key":"2403","name":"Kestenholz","shortName":"Kestenholz"},"district":{"key":"1101","name":"Bezirk Gäu"},"canton":{"key":"11","code":"SO","name":"Solothurn"},"status":"Real"},{"key":"10213249","name":"Geissweierweg","postalCode":"4703","locality":"Kestenholz","commune":{"key":"2403","name":"Kestenholz","shortName":"Kestenholz"},"district":{"key":"1101","name":"Bezirk Gäu"},"canton":{"key":"11","code":"SO","name":"Solothurn"},"status":"Real"},{"key":"10123619","name":"Geranienweg","postalCode":"4703","locality":"Kestenholz","commune":{"key":"2403","name":"Kestenholz","shortName":"Kestenholz"},"district":{"key":"1101","name":"Bezirk Gäu"},"canton":{"key":"11","code":"SO","name":"Solothurn"},"status":"Real"},{"key":"10123630","name":"Giessereistrasse","postalCode":"4703","locality":"Kestenholz","commune":{"key":"2403","name":"Kestenholz","shortName":"Kestenholz"},"district":{"key":"1101","name":"Bezirk Gäu"},"canton":{"key":"11","code":"SO","name":"Solothurn"},"status":"Real"},{"key":"10213253","name":"Grenzweg","postalCode":"4703","locality":"Kestenholz","commune":{"key":"2403","name":"Kestenholz","shortName":"Kestenholz"},"district":{"key":"1101","name":"Bezirk Gäu"},"canton":{"key":"11","code":"SO","name":"Solothurn"},"status":"Real"},{"key":"10213257","name":"Grubenweg","postalCode":"4703","locality":"Kestenholz","commune":{"key":"2403","name":"Kestenholz","shortName":"Kestenholz"},"district":{"key":"1101","name":"Bezirk Gäu"},"canton":{"key":"11","code":"SO","name":"Solothurn"},"status":"Real"},{"key":"10022934","name":"Hangweg","postalCode":"4703","locality":"Kestenholz","commune":{"key":"2403","name":"Kestenholz","shortName":"Kestenholz"},"district":{"key":"1101","name":"Bezirk Gäu"},"canton":{"key":"11","code":"SO","name":"Solothurn"},"status":"Real"},{"key":"10213261","name":"Hangweg Wald","postalCode":"4703","locality":"Kestenholz","commune":{"key":"2403","name":"Kestenholz","shortName":"Kestenholz"},"district":{"key":"1101","name":"Bezirk Gäu"},"canton":{"key":"11","code":"SO","name":"Solothurn"},"status":"Real"},{"key":"10022935","name":"Heckenweg","postalCode":"4703","locality":"Kestenholz","commune":{"key":"2403","name":"Kestenholz","shortName":"Kestenholz"},"district":{"key":"1101","name":"Bezirk Gäu"},"canton":{"key":"11","code":"SO","name":"Solothurn"},"status":"Real"},{"key":"10213265","name":"Höhenweg","postalCode":"4703","locality":"Kestenholz","commune":{"key":"2403","name":"Kestenholz","shortName":"Kestenholz"},"district":{"key":"1101","name":"Bezirk Gäu"},"canton":{"key":"11","code":"SO","name":"Solothurn"},"status":"Real"},{"key":"10114187","name":"Höhle","postalCode":"4703","locality":"Kestenholz","commune":{"key":"2403","name":"Kestenholz","shortName":"Kestenholz"},"district":{"key":"1101","name":"Bezirk Gäu"},"canton":{"key":"11","code":"SO","name":"Solothurn"},"status":"Real"},{"key":"10213270","name":"Holackerweg","postalCode":"4703","locality":"Kestenholz","commune":{"key":"2403","name":"Kestenholz","shortName":"Kestenholz"},"district":{"key":"1101","name":"Bezirk Gäu"},"canton":{"key":"11","code":"SO","name":"Solothurn"},"status":"Real"},{"key":"10091959","name":"Hölzliweg","postalCode":"4703","locality":"Kestenholz","commune":{"key":"2403","name":"Kestenholz","shortName":"Kestenholz"},"district":{"key":"1101","name":"Bezirk Gäu"},"canton":{"key":"11","code":"SO","name":"Solothurn"},"status":"Real"},{"key":"10213131","name":"Holzrüttiweg","postalCode":"4703","locality":"Kestenholz","commune":{"key":"2403","name":"Kestenholz","shortName":"Kestenholz"},"district":{"key":"1101","name":"Bezirk Gäu"},"canton":{"key":"11","code":"SO","name":"Solothurn"},"status":"Real"},{"key":"10022936","name":"Hubelweg","postalCode":"4703","locality":"Kestenholz","commune":{"key":"2403","name":"Kestenholz","shortName":"Kestenholz"},"district":{"key":"1101","name":"Bezirk Gäu"},"canton":{"key":"11","code":"SO","name":"Solothurn"},"status":"Real"},{"key":"10124062","name":"Hundsackerstrasse","postalCode":"4703","locality":"Kestenholz","commune":{"key":"2403","name":"Kestenholz","shortName":"Kestenholz"},"district":{"key":"1101","name":"Bezirk Gäu"},"canton":{"key":"11","code":"SO","name":"Solothurn"},"status":"Real"},{"key":"10213136","name":"Hüttenweg","postalCode":"4703","locality":"Kestenholz","commune":{"key":"2403","name":"Kestenholz","shortName":"Kestenholz"},"district":{"key":"1101","name":"Bezirk Gäu"},"canton":{"key":"11","code":"SO","name":"Solothurn"},"status":"Real"},{"key":"10022937","name":"Im Holz","postalCode":"4703","locality":"Kestenholz","commune":{"key":"2403","name":"Kestenholz","shortName":"Kestenholz"},"district":{"key":"1101","name":"Bezirk Gäu"},"canton":{"key":"11","code":"SO","name":"Solothurn"},"status":"Real"},{"key":"10022938","name":"Industriestrasse","postalCode":"4703","locality":"Kestenholz","commune":{"key":"2403","name":"Kestenholz","shortName":"Kestenholz"},"district":{"key":"1101","name":"Bezirk Gäu"},"canton":{"key":"11","code":"SO","name":"Solothurn"},"status":"Real"},{"key":"10213282","name":"Jägerweg","postalCode":"4703","locality":"Kestenholz","commune":{"key":"2403","name":"Kestenholz","shortName":"Kestenholz"},"district":{"key":"1101","name":"Bezirk Gäu"},"canton":{"key":"11","code":"SO","name":"Solothurn"},"status":"Real"},{"key":"10213285","name":"Joseph-Joachim-Strasse","postalCode":"4703","locality":"Kestenholz","commune":{"key":"2403","name":"Kestenholz","shortName":"Kestenholz"},"district":{"key":"1101","name":"Bezirk Gäu"},"canton":{"key":"11","code":"SO","name":"Solothurn"},"status":"Real"},{"key":"10104427","name":"Jurastrasse","postalCode":"4703","locality":"Kestenholz","commune":{"key":"2403","name":"Kestenholz","shortName":"Kestenholz"},"district":{"key":"1101","name":"Bezirk Gäu"},"canton":{"key":"11","code":"SO","name":"Solothurn"},"status":"Real"},{"key":"10161297","name":"Kanalweg","postalCode":"4703","locality":"Kestenholz","commune":{"key":"2403","name":"Kestenholz","shortName":"Kestenholz"},"district":{"key":"1101","name":"Bezirk Gäu"},"canton":{"key":"11","code":"SO","name":"Solothurn"},"status":"Real"},{"key":"10213148","name":"Kienisackerweg","postalCode":"4703","locality":"Kestenholz","commune":{"key":"2403","name":"Kestenholz","shortName":"Kestenholz"},"district":{"key":"1101","name":"Bezirk Gäu"},"canton":{"key":"11","code":"SO","name":"Solothurn"},"status":"Real"},{"key":"10136183","name":"Kindergartenweg","postalCode":"4703","locality":"Kestenholz","commune":{"key":"2403","name":"Kestenholz","shortName":"Kestenholz"},"district":{"key":"1101","name":"Bezirk Gäu"},"canton":{"key":"11","code":"SO","name":"Solothurn"},"status":"Real"},{"key":"10091960","name":"Kirchbannstrasse","postalCode":"4703","locality":"Kestenholz","commune":{"key":"2403","name":"Kestenholz","shortName":"Kestenholz"},"district":{"key":"1101","name":"Bezirk Gäu"},"canton":{"key":"11","code":"SO","name":"Solothurn"},"status":"Real"},{"key":"10123625","name":"Kirchweg","postalCode":"4703","locality":"Kestenholz","commune":{"key":"2403","name":"Kestenholz","shortName":"Kestenholz"},"district":{"key":"1101","name":"Bezirk Gäu"},"canton":{"key":"11","code":"SO","name":"Solothurn"},"status":"Real"},{"key":"10213295","name":"Köpfli","postalCode":"4703","locality":"Kestenholz","commune":{"key":"2403","name":"Kestenholz","shortName":"Kestenholz"},"district":{"key":"1101","name":"Bezirk Gäu"},"canton":{"key":"11","code":"SO","name":"Solothurn"},"status":"Real"},{"key":"10022939","name":"Köpfliweg","postalCode":"4703","locality":"Kestenholz","commune":{"key":"2403","name":"Kestenholz","shortName":"Kestenholz"},"district":{"key":"1101","name":"Bezirk Gäu"},"canton":{"key":"11","code":"SO","name":"Solothurn"},"status":"Real"},{"key":"10213299","name":"Langenthalerweg","postalCode":"4703","locality":"Kestenholz","commune":{"key":"2403","name":"Kestenholz","shortName":"Kestenholz"},"district":{"key":"1101","name":"Bezirk Gäu"},"canton":{"key":"11","code":"SO","name":"Solothurn"},"status":"Real"},{"key":"10213303","name":"Länggass","postalCode":"4703","locality":"Kestenholz","commune":{"key":"2403","name":"Kestenholz","shortName":"Kestenholz"},"district":{"key":"1101","name":"Bezirk Gäu"},"canton":{"key":"11","code":"SO","name":"Solothurn"},"status":"Real"},{"key":"10213307","name":"Legiring","postalCode":"4703","locality":"Kestenholz","commune":{"key":"2403","name":"Kestenholz","shortName":"Kestenholz"},"district":{"key":"1101","name":"Bezirk Gäu"},"canton":{"key":"11","code":"SO","name":"Solothurn"},"status":"Real"},{"key":"10071552","name":"Matte","postalCode":"4703","locality":"Kestenholz","commune":{"key":"2403","name":"Kestenholz","shortName":"Kestenholz"},"district":{"key":"1101","name":"Bezirk Gäu"},"canton":{"key":"11","code":"SO","name":"Solothurn"},"status":"Real"},{"key":"10022941","name":"Mätteliweg","postalCode":"4703","locality":"Kestenholz","commune":{"key":"2403","name":"Kestenholz","shortName":"Kestenholz"},"district":{"key":"1101","name":"Bezirk Gäu"},"canton":{"key":"11","code":"SO","name":"Solothurn"},"status":"Real"},{"key":"10214972","name":"Mattenweg","postalCode":"4703","locality":"Kestenholz","commune":{"key":"2403","name":"Kestenholz","shortName":"Kestenholz"},"district":{"key":"1101","name":"Bezirk Gäu"},"canton":{"key":"11","code":"SO","name":"Solothurn"},"status":"Real"},{"key":"10022940","name":"Mitteldorfstrasse","postalCode":"4703","locality":"Kestenholz","commune":{"key":"2403","name":"Kestenholz","shortName":"Kestenholz"},"district":{"key":"1101","name":"Bezirk Gäu"},"canton":{"key":"11","code":"SO","name":"Solothurn"},"status":"Real"},{"key":"10123620","name":"Mohnweg","postalCode":"4703","locality":"Kestenholz","commune":{"key":"2403","name":"Kestenholz","shortName":"Kestenholz"},"district":{"key":"1101","name":"Bezirk Gäu"},"canton":{"key":"11","code":"SO","name":"Solothurn"},"status":"Real"},{"key":"10237930","name":"Möösliweg","postalCode":"4703","locality":"Kestenholz","commune":{"key":"2403","name":"Kestenholz","shortName":"Kestenholz"},"district":{"key":"1101","name":"Bezirk Gäu"},"canton":{"key":"11","code":"SO","name":"Solothurn"},"status":"Real"},{"key":"10071553","name":"Neue Strasse","postalCode":"4703","locality":"Kestenholz","commune":{"key":"2403","name":"Kestenholz","shortName":"Kestenholz"},"district":{"key":"1101","name":"Bezirk Gäu"},"canton":{"key":"11","code":"SO","name":"Solothurn"},"status":"Real"},{"key":"10214973","name":"Neufeldweg","postalCode":"4703","locality":"Kestenholz","commune":{"key":"2403","name":"Kestenholz","shortName":"Kestenholz"},"district":{"key":"1101","name":"Bezirk Gäu"},"canton":{"key":"11","code":"SO","name":"Solothurn"},"status":"Real"},{"key":"10214974","name":"Neustelliweg","postalCode":"4703","locality":"Kestenholz","commune":{"key":"2403","name":"Kestenholz","shortName":"Kestenholz"},"district":{"key":"1101","name":"Bezirk Gäu"},"canton":{"key":"11","code":"SO","name":"Solothurn"},"status":"Real"},{"key":"10214975","name":"Neuweg","postalCode":"4703","locality":"Kestenholz","commune":{"key":"2403","name":"Kestenholz","shortName":"Kestenholz"},"district":{"key":"1101","name":"Bezirk Gäu"},"canton":{"key":"11","code":"SO","name":"Solothurn"},"status":"Real"},{"key":"10214976","name":"Neuweg Staatswald","postalCode":"4703","locality":"Kestenholz","commune":{"key":"2403","name":"Kestenholz","shortName":"Kestenholz"},"district":{"key":"1101","name":"Bezirk Gäu"},"canton":{"key":"11","code":"SO","name":"Solothurn"},"status":"Real"},{"key":"10214977","name":"Oberer Schulfondweg","postalCode":"4703","locality":"Kestenholz","commune":{"key":"2403","name":"Kestenholz","shortName":"Kestenholz"},"district":{"key":"1101","name":"Bezirk Gäu"},"canton":{"key":"11","code":"SO","name":"Solothurn"},"status":"Real"},{"key":"10213398","name":"Obermöösliweg","postalCode":"4703","locality":"Kestenholz","commune":{"key":"2403","name":"Kestenholz","shortName":"Kestenholz"},"district":{"key":"1101","name":"Bezirk Gäu"},"canton":{"key":"11","code":"SO","name":"Solothurn"},"status":"Real"},{"key":"10022942","name":"Oberringweg","postalCode":"4703","locality":"Kestenholz","commune":{"key":"2403","name":"Kestenholz","shortName":"Kestenholz"},"district":{"key":"1101","name":"Bezirk Gäu"},"canton":{"key":"11","code":"SO","name":"Solothurn"},"status":"Real"},{"key":"10186286","name":"Oensingerstrasse","postalCode":"4703","locality":"Kestenholz","commune":{"key":"2403","name":"Kestenholz","shortName":"Kestenholz"},"district":{"key":"1101","name":"Bezirk Gäu"},"canton":{"key":"11","code":"SO","name":"Solothurn"},"status":"Real"},{"key":"10161548","name":"Quellenweg","postalCode":"4703","locality":"Kestenholz","commune":{"key":"2403","name":"Kestenholz","shortName":"Kestenholz"},"district":{"key":"1101","name":"Bezirk Gäu"},"canton":{"key":"11","code":"SO","name":"Solothurn"},"status":"Real"},{"key":"10091961","name":"Rainbündtenweg","postalCode":"4703","locality":"Kestenholz","commune":{"key":"2403","name":"Kestenholz","shortName":"Kestenholz"},"district":{"key":"1101","name":"Bezirk Gäu"},"canton":{"key":"11","code":"SO","name":"Solothurn"},"status":"Real"},{"key":"10189128","name":"Rainstrasse","postalCode":"4703","locality":"Kestenholz","commune":{"key":"2403","name":"Kestenholz","shortName":"Kestenholz"},"district":{"key":"1101","name":"Bezirk Gäu"},"canton":{"key":"11","code":"SO","name":"Solothurn"},"status":"Real"},{"key":"10114188","name":"Rosenweg","postalCode":"4703","locality":"Kestenholz","commune":{"key":"2403","name":"Kestenholz","shortName":"Kestenholz"},"district":{"key":"1101","name":"Bezirk Gäu"},"canton":{"key":"11","code":"SO","name":"Solothurn"},"status":"Real"},{"key":"10213402","name":"Rütteliweg","postalCode":"4703","locality":"Kestenholz","commune":{"key":"2403","name":"Kestenholz","shortName":"Kestenholz"},"district":{"key":"1101","name":"Bezirk Gäu"},"canton":{"key":"11","code":"SO","name":"Solothurn"},"status":"Real"},{"key":"10025531","name":"Rüttistrasse","postalCode":"4703","locality":"Kestenholz","commune":{"key":"2403","name":"Kestenholz","shortName":"Kestenholz"},"district":{"key":"1101","name":"Bezirk Gäu"},"canton":{"key":"11","code":"SO","name":"Solothurn"},"status":"Real"},{"key":"10025532","name":"Schlegelweg","postalCode":"4703","locality":"Kestenholz","commune":{"key":"2403","name":"Kestenholz","shortName":"Kestenholz"},"district":{"key":"1101","name":"Bezirk Gäu"},"canton":{"key":"11","code":"SO","name":"Solothurn"},"status":"Real"},{"key":"10213405","name":"Schulfondweg","postalCode":"4703","locality":"Kestenholz","commune":{"key":"2403","name":"Kestenholz","shortName":"Kestenholz"},"district":{"key":"1101","name":"Bezirk Gäu"},"canton":{"key":"11","code":"SO","name":"Solothurn"},"status":"Real"},{"key":"10025533","name":"Sonnenweg","postalCode":"4703","locality":"Kestenholz","commune":{"key":"2403","name":"Kestenholz","shortName":"Kestenholz"},"district":{"key":"1101","name":"Bezirk Gäu"},"canton":{"key":"11","code":"SO","name":"Solothurn"},"status":"Real"},{"key":"10213409","name":"Sonnenweg Wald","postalCode":"4703","locality":"Kestenholz","commune":{"key":"2403","name":"Kestenholz","shortName":"Kestenholz"},"district":{"key":"1101","name":"Bezirk Gäu"},"canton":{"key":"11","code":"SO","name":"Solothurn"},"status":"Real"},{"key":"10213413","name":"Stierenbannweg","postalCode":"4703","locality":"Kestenholz","commune":{"key":"2403","name":"Kestenholz","shortName":"Kestenholz"},"district":{"key":"1101","name":"Bezirk Gäu"},"canton":{"key":"11","code":"SO","name":"Solothurn"},"status":"Real"},{"key":"10071554","name":"Stockackerstrasse","postalCode":"4703","locality":"Kestenholz","commune":{"key":"2403","name":"Kestenholz","shortName":"Kestenholz"},"district":{"key":"1101","name":"Bezirk Gäu"},"canton":{"key":"11","code":"SO","name":"Solothurn"},"status":"Real"},{"key":"10153415","name":"St. Peterhof","postalCode":"4703","locality":"Kestenholz","commune":{"key":"2403","name":"Kestenholz","shortName":"Kestenholz"},"district":{"key":"1101","name":"Bezirk Gäu"},"canton":{"key":"11","code":"SO","name":"Solothurn"},"status":"Real"},{"key":"10091962","name":"St. Peterstrasse","postalCode":"4703","locality":"Kestenholz","commune":{"key":"2403","name":"Kestenholz","shortName":"Kestenholz"},"district":{"key":"1101","name":"Bezirk Gäu"},"canton":{"key":"11","code":"SO","name":"Solothurn"},"status":"Real"},{"key":"10025534","name":"Tannenweg","postalCode":"4703","locality":"Kestenholz","commune":{"key":"2403","name":"Kestenholz","shortName":"Kestenholz"},"district":{"key":"1101","name":"Bezirk Gäu"},"canton":{"key":"11","code":"SO","name":"Solothurn"},"status":"Real"},{"key":"10213417","name":"Tannenweg Staatswald","postalCode":"4703","locality":"Kestenholz","commune":{"key":"2403","name":"Kestenholz","shortName":"Kestenholz"},"district":{"key":"1101","name":"Bezirk Gäu"},"canton":{"key":"11","code":"SO","name":"Solothurn"},"status":"Real"},{"key":"10160272","name":"Trübbrunnen","postalCode":"4703","locality":"Kestenholz","commune":{"key":"2403","name":"Kestenholz","shortName":"Kestenholz"},"district":{"key":"1101","name":"Bezirk Gäu"},"canton":{"key":"11","code":"SO","name":"Solothurn"},"status":"Real"},{"key":"10213421","name":"Trüebbrunnenweg","postalCode":"4703","locality":"Kestenholz","commune":{"key":"2403","name":"Kestenholz","shortName":"Kestenholz"},"district":{"key":"1101","name":"Bezirk Gäu"},"canton":{"key":"11","code":"SO","name":"Solothurn"},"status":"Real"},{"key":"10091963","name":"Unterdorfstrasse","postalCode":"4703","locality":"Kestenholz","commune":{"key":"2403","name":"Kestenholz","shortName":"Kestenholz"},"district":{"key":"1101","name":"Bezirk Gäu"},"canton":{"key":"11","code":"SO","name":"Solothurn"},"status":"Real"},{"key":"10213425","name":"Unterringweg","postalCode":"4703","locality":"Kestenholz","commune":{"key":"2403","name":"Kestenholz","shortName":"Kestenholz"},"district":{"key":"1101","name":"Bezirk Gäu"},"canton":{"key":"11","code":"SO","name":"Solothurn"},"status":"Real"},{"key":"10213429","name":"Waldheimweg","postalCode":"4703","locality":"Kestenholz","commune":{"key":"2403","name":"Kestenholz","shortName":"Kestenholz"},"district":{"key":"1101","name":"Bezirk Gäu"},"canton":{"key":"11","code":"SO","name":"Solothurn"},"status":"Real"},{"key":"10025536","name":"Weidstrasse","postalCode":"4703","locality":"Kestenholz","commune":{"key":"2403","name":"Kestenholz","shortName":"Kestenholz"},"district":{"key":"1101","name":"Bezirk Gäu"},"canton":{"key":"11","code":"SO","name":"Solothurn"},"status":"Real"},{"key":"10213433","name":"Weierrainweg","postalCode":"4703","locality":"Kestenholz","commune":{"key":"2403","name":"Kestenholz","shortName":"Kestenholz"},"district":{"key":"1101","name":"Bezirk Gäu"},"canton":{"key":"11","code":"SO","name":"Solothurn"},"status":"Real"},{"key":"10115801","name":"Winkelstrasse","postalCode":"4703","locality":"Kestenholz","commune":{"key":"2403","name":"Kestenholz","shortName":"Kestenholz"},"district":{"key":"1101","name":"Bezirk Gäu"},"canton":{"key":"11","code":"SO","name":"Solothurn"},"status":"Real"},{"key":"10104428","name":"Wolfwilerstrasse","postalCode":"4703","locality":"Kestenholz","commune":{"key":"2403","name":"Kestenholz","shortName":"Kestenholz"},"district":{"key":"1101","name":"Bezirk Gäu"},"canton":{"key":"11","code":"SO","name":"Solothurn"},"status":"Real"},{"key":"10123632","name":"Zelglihof","postalCode":"4703","locality":"Kestenholz","commune":{"key":"2403","name":"Kestenholz","shortName":"Kestenholz"},"district":{"key":"1101","name":"Bezirk Gäu"},"canton":{"key":"11","code":"SO","name":"Solothurn"},"status":"Real"},{"key":"10025537","name":"Zelglistrasse","postalCode":"4703","locality":"Kestenholz","commune":{"key":"2403","name":"Kestenholz","shortName":"Kestenholz"},"district":{"key":"1101","name":"Bezirk Gäu"},"canton":{"key":"11","code":"SO","name":"Solothurn"},"status":"Real"},{"key":"10213437","name":"Zelgliweg","postalCode":"4703","locality":"Kestenholz","commune":{"key":"2403","name":"Kestenholz","shortName":"Kestenholz"},"district":{"key":"1101","name":"Bezirk Gäu"},"canton":{"key":"11","code":"SO","name":"Solothurn"},"status":"Real"},{"key":"10213442","name":"Zwölfjuchartenweg","postalCode":"4703","locality":"Kestenholz","commune":{"key":"2403","name":"Kestenholz","shortName":"Kestenholz"},"district":{"key":"1101","name":"Bezirk Gäu"},"canton":{"key":"11","code":"SO","name":"Solothurn"},"status":"Real"},]