[{"name":"Alter Schulweg","postalCode":"21493","locality":"Grabau","municipality":{"key":"01053036","name":"Grabau","type":"Kreisangehörige_Gemeinde"},"district":{"key":"01053","name":"Herzogtum Lauenburg","type":"Kreis"},"federalState":{"key":"01","name":"Schleswig-Holstein"}},{"name":"Am Bahnhof","postalCode":"23845","locality":"Grabau","municipality":{"key":"01062019","name":"Grabau","type":"Kreisangehörige_Gemeinde"},"district":{"key":"01062","name":"Stormarn","type":"Kreis"},"federalState":{"key":"01","name":"Schleswig-Holstein"}},{"name":"An der Buche","postalCode":"23845","locality":"Grabau","municipality":{"key":"01062019","name":"Grabau","type":"Kreisangehörige_Gemeinde"},"district":{"key":"01062","name":"Stormarn","type":"Kreis"},"federalState":{"key":"01","name":"Schleswig-Holstein"}},{"name":"Auf der Bullenkoppel","postalCode":"21493","locality":"Grabau","municipality":{"key":"01053036","name":"Grabau","type":"Kreisangehörige_Gemeinde"},"district":{"key":"01053","name":"Herzogtum Lauenburg","type":"Kreis"},"federalState":{"key":"01","name":"Schleswig-Holstein"}},{"name":"Außenschlagweg","postalCode":"23845","locality":"Grabau","municipality":{"key":"01062019","name":"Grabau","type":"Kreisangehörige_Gemeinde"},"district":{"key":"01062","name":"Stormarn","type":"Kreis"},"federalState":{"key":"01","name":"Schleswig-Holstein"}},{"name":"Bruchweg","postalCode":"23845","locality":"Grabau","municipality":{"key":"01062019","name":"Grabau","type":"Kreisangehörige_Gemeinde"},"district":{"key":"01062","name":"Stormarn","type":"Kreis"},"federalState":{"key":"01","name":"Schleswig-Holstein"}},{"name":"Dorfstr.","postalCode":"21493","locality":"Grabau","municipality":{"key":"01053036","name":"Grabau","type":"Kreisangehörige_Gemeinde"},"district":{"key":"01053","name":"Herzogtum Lauenburg","type":"Kreis"},"federalState":{"key":"01","name":"Schleswig-Holstein"}},{"name":"Dorfstr.","postalCode":"23845","locality":"Grabau","municipality":{"key":"01062019","name":"Grabau","type":"Kreisangehörige_Gemeinde"},"district":{"key":"01062","name":"Stormarn","type":"Kreis"},"federalState":{"key":"01","name":"Schleswig-Holstein"}},{"name":"Eichhörnchenweg","postalCode":"23845","locality":"Grabau","municipality":{"key":"01062019","name":"Grabau","type":"Kreisangehörige_Gemeinde"},"district":{"key":"01062","name":"Stormarn","type":"Kreis"},"federalState":{"key":"01","name":"Schleswig-Holstein"}},{"name":"Fledermausweg","postalCode":"23845","locality":"Grabau","municipality":{"key":"01062019","name":"Grabau","type":"Kreisangehörige_Gemeinde"},"district":{"key":"01062","name":"Stormarn","type":"Kreis"},"federalState":{"key":"01","name":"Schleswig-Holstein"}},{"name":"Gartenstr.","postalCode":"23845","locality":"Grabau","municipality":{"key":"01062019","name":"Grabau","type":"Kreisangehörige_Gemeinde"},"district":{"key":"01062","name":"Stormarn","type":"Kreis"},"federalState":{"key":"01","name":"Schleswig-Holstein"}},{"name":"Grover Weg","postalCode":"21493","locality":"Grabau","municipality":{"key":"01053036","name":"Grabau","type":"Kreisangehörige_Gemeinde"},"district":{"key":"01053","name":"Herzogtum Lauenburg","type":"Kreis"},"federalState":{"key":"01","name":"Schleswig-Holstein"}},{"name":"Grüner Weg","postalCode":"23845","locality":"Grabau","municipality":{"key":"01062019","name":"Grabau","type":"Kreisangehörige_Gemeinde"},"district":{"key":"01062","name":"Stormarn","type":"Kreis"},"federalState":{"key":"01","name":"Schleswig-Holstein"}},{"name":"Hauptstr.","postalCode":"23845","locality":"Grabau","municipality":{"key":"01062019","name":"Grabau","type":"Kreisangehörige_Gemeinde"},"district":{"key":"01062","name":"Stormarn","type":"Kreis"},"federalState":{"key":"01","name":"Schleswig-Holstein"}},{"name":"Hermannesweg","postalCode":"23845","locality":"Grabau","municipality":{"key":"01062019","name":"Grabau","type":"Kreisangehörige_Gemeinde"},"district":{"key":"01062","name":"Stormarn","type":"Kreis"},"federalState":{"key":"01","name":"Schleswig-Holstein"}},{"name":"Hetraweg","postalCode":"21493","locality":"Grabau","municipality":{"key":"01053036","name":"Grabau","type":"Kreisangehörige_Gemeinde"},"district":{"key":"01053","name":"Herzogtum Lauenburg","type":"Kreis"},"federalState":{"key":"01","name":"Schleswig-Holstein"}},{"name":"Hof Rülau","postalCode":"21493","locality":"Grabau","municipality":{"key":"01053036","name":"Grabau","type":"Kreisangehörige_Gemeinde"},"district":{"key":"01053","name":"Herzogtum Lauenburg","type":"Kreis"},"federalState":{"key":"01","name":"Schleswig-Holstein"}},{"name":"Käferweg","postalCode":"23845","locality":"Grabau","municipality":{"key":"01062019","name":"Grabau","type":"Kreisangehörige_Gemeinde"},"district":{"key":"01062","name":"Stormarn","type":"Kreis"},"federalState":{"key":"01","name":"Schleswig-Holstein"}},{"name":"Klingenbrook","postalCode":"23845","locality":"Grabau","municipality":{"key":"01062019","name":"Grabau","type":"Kreisangehörige_Gemeinde"},"district":{"key":"01062","name":"Stormarn","type":"Kreis"},"federalState":{"key":"01","name":"Schleswig-Holstein"}},{"name":"Langstücken","postalCode":"23845","locality":"Grabau","municipality":{"key":"01062019","name":"Grabau","type":"Kreisangehörige_Gemeinde"},"district":{"key":"01062","name":"Stormarn","type":"Kreis"},"federalState":{"key":"01","name":"Schleswig-Holstein"}},{"name":"Lindenallee","postalCode":"23845","locality":"Grabau","municipality":{"key":"01062019","name":"Grabau","type":"Kreisangehörige_Gemeinde"},"district":{"key":"01062","name":"Stormarn","type":"Kreis"},"federalState":{"key":"01","name":"Schleswig-Holstein"}},{"name":"Lindenweg","postalCode":"23845","locality":"Grabau","municipality":{"key":"01062019","name":"Grabau","type":"Kreisangehörige_Gemeinde"},"district":{"key":"01062","name":"Stormarn","type":"Kreis"},"federalState":{"key":"01","name":"Schleswig-Holstein"}},{"name":"Neritzer Weg","postalCode":"23845","locality":"Grabau","municipality":{"key":"01062019","name":"Grabau","type":"Kreisangehörige_Gemeinde"},"district":{"key":"01062","name":"Stormarn","type":"Kreis"},"federalState":{"key":"01","name":"Schleswig-Holstein"}},{"name":"Nordumgehung Abschnitt 2","postalCode":"21493","locality":"Grabau","municipality":{"key":"01053036","name":"Grabau","type":"Kreisangehörige_Gemeinde"},"district":{"key":"01053","name":"Herzogtum Lauenburg","type":"Kreis"},"federalState":{"key":"01","name":"Schleswig-Holstein"}},{"name":"Prinzeninselweg","postalCode":"23845","locality":"Grabau","municipality":{"key":"01062019","name":"Grabau","type":"Kreisangehörige_Gemeinde"},"district":{"key":"01062","name":"Stormarn","type":"Kreis"},"federalState":{"key":"01","name":"Schleswig-Holstein"}},{"name":"Riedenkampsweg","postalCode":"21493","locality":"Grabau","municipality":{"key":"01053036","name":"Grabau","type":"Kreisangehörige_Gemeinde"},"district":{"key":"01053","name":"Herzogtum Lauenburg","type":"Kreis"},"federalState":{"key":"01","name":"Schleswig-Holstein"}},{"name":"Ringstr.","postalCode":"23845","locality":"Grabau","municipality":{"key":"01062019","name":"Grabau","type":"Kreisangehörige_Gemeinde"},"district":{"key":"01062","name":"Stormarn","type":"Kreis"},"federalState":{"key":"01","name":"Schleswig-Holstein"}},{"name":"Rosenstr.","postalCode":"23845","locality":"Grabau","municipality":{"key":"01062019","name":"Grabau","type":"Kreisangehörige_Gemeinde"},"district":{"key":"01062","name":"Stormarn","type":"Kreis"},"federalState":{"key":"01","name":"Schleswig-Holstein"}},{"name":"Rotdornweg","postalCode":"23845","locality":"Grabau","municipality":{"key":"01062019","name":"Grabau","type":"Kreisangehörige_Gemeinde"},"district":{"key":"01062","name":"Stormarn","type":"Kreis"},"federalState":{"key":"01","name":"Schleswig-Holstein"}},{"name":"Rülau Bahnhaus","postalCode":"21493","locality":"Grabau","municipality":{"key":"01053036","name":"Grabau","type":"Kreisangehörige_Gemeinde"},"district":{"key":"01053","name":"Herzogtum Lauenburg","type":"Kreis"},"federalState":{"key":"01","name":"Schleswig-Holstein"}},{"name":"Rülauer Weg","postalCode":"21493","locality":"Grabau","municipality":{"key":"01053036","name":"Grabau","type":"Kreisangehörige_Gemeinde"},"district":{"key":"01053","name":"Herzogtum Lauenburg","type":"Kreis"},"federalState":{"key":"01","name":"Schleswig-Holstein"}},{"name":"Steinkamp","postalCode":"23845","locality":"Grabau","municipality":{"key":"01062019","name":"Grabau","type":"Kreisangehörige_Gemeinde"},"district":{"key":"01062","name":"Stormarn","type":"Kreis"},"federalState":{"key":"01","name":"Schleswig-Holstein"}},{"name":"Stiller Winkel","postalCode":"23845","locality":"Grabau","municipality":{"key":"01062019","name":"Grabau","type":"Kreisangehörige_Gemeinde"},"district":{"key":"01062","name":"Stormarn","type":"Kreis"},"federalState":{"key":"01","name":"Schleswig-Holstein"}},{"name":"Wanderweg","postalCode":"23845","locality":"Grabau","municipality":{"key":"01062019","name":"Grabau","type":"Kreisangehörige_Gemeinde"},"district":{"key":"01062","name":"Stormarn","type":"Kreis"},"federalState":{"key":"01","name":"Schleswig-Holstein"}},{"name":"Wildschweinweg","postalCode":"23845","locality":"Grabau","municipality":{"key":"01062019","name":"Grabau","type":"Kreisangehörige_Gemeinde"},"district":{"key":"01062","name":"Stormarn","type":"Kreis"},"federalState":{"key":"01","name":"Schleswig-Holstein"}},]