[{"key":"10051200","name":"Chemin de Bessinge","postalCode":"1253","locality":"Vandoeuvres","commune":{"key":"6642","name":"Vandoeuvres","shortName":"Vandoeuvres"},"district":{"key":"2500","name":"Canton de Genève"},"canton":{"key":"25","code":"GE","name":"Genève"},"status":"Real"},{"key":"10053794","name":"Chemin de la Blanche","postalCode":"1253","locality":"Vandoeuvres","commune":{"key":"6642","name":"Vandoeuvres","shortName":"Vandoeuvres"},"district":{"key":"2500","name":"Canton de Genève"},"canton":{"key":"25","code":"GE","name":"Genève"},"status":"Real"},{"key":"10083550","name":"Chemin de la Blonde","postalCode":"1253","locality":"Vandoeuvres","commune":{"key":"6642","name":"Vandoeuvres","shortName":"Vandoeuvres"},"district":{"key":"2500","name":"Canton de Genève"},"canton":{"key":"25","code":"GE","name":"Genève"},"status":"Real"},{"key":"10107516","name":"Chemin de l'Abri","postalCode":"1253","locality":"Vandoeuvres","commune":{"key":"6642","name":"Vandoeuvres","shortName":"Vandoeuvres"},"district":{"key":"2500","name":"Canton de Genève"},"canton":{"key":"25","code":"GE","name":"Genève"},"status":"Real"},{"key":"10053795","name":"Chemin de la Cocuaz","postalCode":"1253","locality":"Vandoeuvres","commune":{"key":"6642","name":"Vandoeuvres","shortName":"Vandoeuvres"},"district":{"key":"2500","name":"Canton de Genève"},"canton":{"key":"25","code":"GE","name":"Genève"},"status":"Real"},{"key":"10163398","name":"Chemin de la Houblonnière","postalCode":"1253","locality":"Vandoeuvres","commune":{"key":"6642","name":"Vandoeuvres","shortName":"Vandoeuvres"},"district":{"key":"2500","name":"Canton de Genève"},"canton":{"key":"25","code":"GE","name":"Genève"},"status":"Real"},{"key":"10120689","name":"Chemin de la Manche","postalCode":"1253","locality":"Vandoeuvres","commune":{"key":"6642","name":"Vandoeuvres","shortName":"Vandoeuvres"},"district":{"key":"2500","name":"Canton de Genève"},"canton":{"key":"25","code":"GE","name":"Genève"},"status":"Real"},{"key":"10051201","name":"Chemin de la Rippaz","postalCode":"1253","locality":"Vandoeuvres","commune":{"key":"6642","name":"Vandoeuvres","shortName":"Vandoeuvres"},"district":{"key":"2500","name":"Canton de Genève"},"canton":{"key":"25","code":"GE","name":"Genève"},"status":"Real"},{"key":"10113422","name":"Chemin de la Roselière","postalCode":"1253","locality":"Vandoeuvres","commune":{"key":"6642","name":"Vandoeuvres","shortName":"Vandoeuvres"},"district":{"key":"2500","name":"Canton de Genève"},"canton":{"key":"25","code":"GE","name":"Genève"},"status":"Real"},{"key":"10083551","name":"Chemin de la Sapinière","postalCode":"1253","locality":"Vandoeuvres","commune":{"key":"6642","name":"Vandoeuvres","shortName":"Vandoeuvres"},"district":{"key":"2500","name":"Canton de Genève"},"canton":{"key":"25","code":"GE","name":"Genève"},"status":"Real"},{"key":"10179457","name":"Chemin de la Seymaz","postalCode":"1253","locality":"Vandoeuvres","commune":{"key":"6642","name":"Vandoeuvres","shortName":"Vandoeuvres"},"district":{"key":"2500","name":"Canton de Genève"},"canton":{"key":"25","code":"GE","name":"Genève"},"status":"Real"},{"key":"10107517","name":"Chemin de la Troupe","postalCode":"1253","locality":"Vandoeuvres","commune":{"key":"6642","name":"Vandoeuvres","shortName":"Vandoeuvres"},"district":{"key":"2500","name":"Canton de Genève"},"canton":{"key":"25","code":"GE","name":"Genève"},"status":"Real"},{"key":"10053793","name":"Chemin de l'Ecorcherie","postalCode":"1253","locality":"Vandoeuvres","commune":{"key":"6642","name":"Vandoeuvres","shortName":"Vandoeuvres"},"district":{"key":"2500","name":"Canton de Genève"},"canton":{"key":"25","code":"GE","name":"Genève"},"status":"Real"},{"key":"10051207","name":"Chemin de Loveré","postalCode":"1253","locality":"Vandoeuvres","commune":{"key":"6642","name":"Vandoeuvres","shortName":"Vandoeuvres"},"district":{"key":"2500","name":"Canton de Genève"},"canton":{"key":"25","code":"GE","name":"Genève"},"status":"Real"},{"key":"10107515","name":"Chemin de Lulasse","postalCode":"1253","locality":"Vandoeuvres","commune":{"key":"6642","name":"Vandoeuvres","shortName":"Vandoeuvres"},"district":{"key":"2500","name":"Canton de Genève"},"canton":{"key":"25","code":"GE","name":"Genève"},"status":"Real"},{"key":"10051208","name":"Chemin de Marchepied","postalCode":"1253","locality":"Vandoeuvres","commune":{"key":"6642","name":"Vandoeuvres","shortName":"Vandoeuvres"},"district":{"key":"2500","name":"Canton de Genève"},"canton":{"key":"25","code":"GE","name":"Genève"},"status":"Real"},{"key":"10083549","name":"Chemin de Marclay","postalCode":"1253","locality":"Vandoeuvres","commune":{"key":"6642","name":"Vandoeuvres","shortName":"Vandoeuvres"},"district":{"key":"2500","name":"Canton de Genève"},"canton":{"key":"25","code":"GE","name":"Genève"},"status":"Real"},{"key":"10051209","name":"Chemin de Planta","postalCode":"1253","locality":"Vandoeuvres","commune":{"key":"6642","name":"Vandoeuvres","shortName":"Vandoeuvres"},"district":{"key":"2500","name":"Canton de Genève"},"canton":{"key":"25","code":"GE","name":"Genève"},"status":"Real"},{"key":"10053796","name":"Chemin des Buclines","postalCode":"1253","locality":"Vandoeuvres","commune":{"key":"6642","name":"Vandoeuvres","shortName":"Vandoeuvres"},"district":{"key":"2500","name":"Canton de Genève"},"canton":{"key":"25","code":"GE","name":"Genève"},"status":"Real"},{"key":"10053797","name":"Chemin des Entremoilles","postalCode":"1253","locality":"Vandoeuvres","commune":{"key":"6642","name":"Vandoeuvres","shortName":"Vandoeuvres"},"district":{"key":"2500","name":"Canton de Genève"},"canton":{"key":"25","code":"GE","name":"Genève"},"status":"Real"},{"key":"10051202","name":"Chemin des Hauts-Crêts","postalCode":"1253","locality":"Vandoeuvres","commune":{"key":"6642","name":"Vandoeuvres","shortName":"Vandoeuvres"},"district":{"key":"2500","name":"Canton de Genève"},"canton":{"key":"25","code":"GE","name":"Genève"},"status":"Real"},{"key":"10104944","name":"Chemin des Peutets","postalCode":"1253","locality":"Vandoeuvres","commune":{"key":"6642","name":"Vandoeuvres","shortName":"Vandoeuvres"},"district":{"key":"2500","name":"Canton de Genève"},"canton":{"key":"25","code":"GE","name":"Genève"},"status":"Real"},{"key":"10101296","name":"Chemin des Princes","postalCode":"1253","locality":"Vandoeuvres","commune":{"key":"6642","name":"Vandoeuvres","shortName":"Vandoeuvres"},"district":{"key":"2500","name":"Canton de Genève"},"canton":{"key":"25","code":"GE","name":"Genève"},"status":"Real"},{"key":"10053792","name":"Chemin de Tattes-Fontaine","postalCode":"1253","locality":"Vandoeuvres","commune":{"key":"6642","name":"Vandoeuvres","shortName":"Vandoeuvres"},"district":{"key":"2500","name":"Canton de Genève"},"canton":{"key":"25","code":"GE","name":"Genève"},"status":"Real"},{"key":"10107514","name":"Chemin De-WESTERWELLER","postalCode":"1253","locality":"Vandoeuvres","commune":{"key":"6642","name":"Vandoeuvres","shortName":"Vandoeuvres"},"district":{"key":"2500","name":"Canton de Genève"},"canton":{"key":"25","code":"GE","name":"Genève"},"status":"Real"},{"key":"10053798","name":"Chemin du Bois-de-Seyme","postalCode":"1253","locality":"Vandoeuvres","commune":{"key":"6642","name":"Vandoeuvres","shortName":"Vandoeuvres"},"district":{"key":"2500","name":"Canton de Genève"},"canton":{"key":"25","code":"GE","name":"Genève"},"status":"Real"},{"key":"10107518","name":"Chemin du Dori","postalCode":"1253","locality":"Vandoeuvres","commune":{"key":"6642","name":"Vandoeuvres","shortName":"Vandoeuvres"},"district":{"key":"2500","name":"Canton de Genève"},"canton":{"key":"25","code":"GE","name":"Genève"},"status":"Real"},{"key":"10181558","name":"Chemin du Manoret","postalCode":"1253","locality":"Vandoeuvres","commune":{"key":"6642","name":"Vandoeuvres","shortName":"Vandoeuvres"},"district":{"key":"2500","name":"Canton de Genève"},"canton":{"key":"25","code":"GE","name":"Genève"},"status":"Real"},{"key":"10053799","name":"Chemin du Moulanais","postalCode":"1253","locality":"Vandoeuvres","commune":{"key":"6642","name":"Vandoeuvres","shortName":"Vandoeuvres"},"district":{"key":"2500","name":"Canton de Genève"},"canton":{"key":"25","code":"GE","name":"Genève"},"status":"Real"},{"key":"10053800","name":"Chemin du Paradis","postalCode":"1253","locality":"Vandoeuvres","commune":{"key":"6642","name":"Vandoeuvres","shortName":"Vandoeuvres"},"district":{"key":"2500","name":"Canton de Genève"},"canton":{"key":"25","code":"GE","name":"Genève"},"status":"Real"},{"key":"10105855","name":"Chemin du Petit-Pont","postalCode":"1253","locality":"Vandoeuvres","commune":{"key":"6642","name":"Vandoeuvres","shortName":"Vandoeuvres"},"district":{"key":"2500","name":"Canton de Genève"},"canton":{"key":"25","code":"GE","name":"Genève"},"status":"Real"},{"key":"10156285","name":"Chemin du Pré-de-la-Blonde","postalCode":"1253","locality":"Vandoeuvres","commune":{"key":"6642","name":"Vandoeuvres","shortName":"Vandoeuvres"},"district":{"key":"2500","name":"Canton de Genève"},"canton":{"key":"25","code":"GE","name":"Genève"},"status":"Real"},{"key":"10132764","name":"Chemin du Pré-des-Cardons","postalCode":"1253","locality":"Vandoeuvres","commune":{"key":"6642","name":"Vandoeuvres","shortName":"Vandoeuvres"},"district":{"key":"2500","name":"Canton de Genève"},"canton":{"key":"25","code":"GE","name":"Genève"},"status":"Real"},{"key":"10053801","name":"Chemin du Pré-Moineau","postalCode":"1253","locality":"Vandoeuvres","commune":{"key":"6642","name":"Vandoeuvres","shortName":"Vandoeuvres"},"district":{"key":"2500","name":"Canton de Genève"},"canton":{"key":"25","code":"GE","name":"Genève"},"status":"Real"},{"key":"10105856","name":"Chemin du Pré-Poiset","postalCode":"1253","locality":"Vandoeuvres","commune":{"key":"6642","name":"Vandoeuvres","shortName":"Vandoeuvres"},"district":{"key":"2500","name":"Canton de Genève"},"canton":{"key":"25","code":"GE","name":"Genève"},"status":"Real"},{"key":"10083552","name":"Chemin du Rossignol","postalCode":"1253","locality":"Vandoeuvres","commune":{"key":"6642","name":"Vandoeuvres","shortName":"Vandoeuvres"},"district":{"key":"2500","name":"Canton de Genève"},"canton":{"key":"25","code":"GE","name":"Genève"},"status":"Real"},{"key":"10051204","name":"Chemin Emilia-CUCHET-ALBARET","postalCode":"1253","locality":"Vandoeuvres","commune":{"key":"6642","name":"Vandoeuvres","shortName":"Vandoeuvres"},"district":{"key":"2500","name":"Canton de Genève"},"canton":{"key":"25","code":"GE","name":"Genève"},"status":"Real"},{"key":"10197166","name":"Chemin FOL","postalCode":"1253","locality":"Vandoeuvres","commune":{"key":"6642","name":"Vandoeuvres","shortName":"Vandoeuvres"},"district":{"key":"2500","name":"Canton de Genève"},"canton":{"key":"25","code":"GE","name":"Genève"},"status":"Real"},{"key":"10221855","name":"Chemin Germaine-TOURNIER","postalCode":"1253","locality":"Vandoeuvres","commune":{"key":"6642","name":"Vandoeuvres","shortName":"Vandoeuvres"},"district":{"key":"2500","name":"Canton de Genève"},"canton":{"key":"25","code":"GE","name":"Genève"},"status":"Real"},{"key":"10051205","name":"Chemin Jaques-RUTTY","postalCode":"1253","locality":"Vandoeuvres","commune":{"key":"6642","name":"Vandoeuvres","shortName":"Vandoeuvres"},"district":{"key":"2500","name":"Canton de Genève"},"canton":{"key":"25","code":"GE","name":"Genève"},"status":"Real"},{"key":"10051206","name":"Chemin MORIN","postalCode":"1253","locality":"Vandoeuvres","commune":{"key":"6642","name":"Vandoeuvres","shortName":"Vandoeuvres"},"district":{"key":"2500","name":"Canton de Genève"},"canton":{"key":"25","code":"GE","name":"Genève"},"status":"Real"},{"key":"10075185","name":"Chemin Sébastien-CASTELLION","postalCode":"1253","locality":"Vandoeuvres","commune":{"key":"6642","name":"Vandoeuvres","shortName":"Vandoeuvres"},"district":{"key":"2500","name":"Canton de Genève"},"canton":{"key":"25","code":"GE","name":"Genève"},"status":"Real"},{"key":"10083548","name":"Chemin Théodore-BRET","postalCode":"1253","locality":"Vandoeuvres","commune":{"key":"6642","name":"Vandoeuvres","shortName":"Vandoeuvres"},"district":{"key":"2500","name":"Canton de Genève"},"canton":{"key":"25","code":"GE","name":"Genève"},"status":"Real"},{"key":"10175643","name":"Chemin Vert","postalCode":"1253","locality":"Vandoeuvres","commune":{"key":"6642","name":"Vandoeuvres","shortName":"Vandoeuvres"},"district":{"key":"2500","name":"Canton de Genève"},"canton":{"key":"25","code":"GE","name":"Genève"},"status":"Real"},{"key":"10221859","name":"La Vy-Borgne","postalCode":"1253","locality":"Vandoeuvres","commune":{"key":"6642","name":"Vandoeuvres","shortName":"Vandoeuvres"},"district":{"key":"2500","name":"Canton de Genève"},"canton":{"key":"25","code":"GE","name":"Genève"},"status":"Real"},{"key":"10118780","name":"La Vy-des-Sarvans","postalCode":"1253","locality":"Vandoeuvres","commune":{"key":"6642","name":"Vandoeuvres","shortName":"Vandoeuvres"},"district":{"key":"2500","name":"Canton de Genève"},"canton":{"key":"25","code":"GE","name":"Genève"},"status":"Real"},{"key":"10053802","name":"Place de Vandoeuvres","postalCode":"1253","locality":"Vandoeuvres","commune":{"key":"6642","name":"Vandoeuvres","shortName":"Vandoeuvres"},"district":{"key":"2500","name":"Canton de Genève"},"canton":{"key":"25","code":"GE","name":"Genève"},"status":"Real"},{"key":"10053803","name":"Route de Choulex","postalCode":"1253","locality":"Vandoeuvres","commune":{"key":"6642","name":"Vandoeuvres","shortName":"Vandoeuvres"},"district":{"key":"2500","name":"Canton de Genève"},"canton":{"key":"25","code":"GE","name":"Genève"},"status":"Real"},{"key":"10083781","name":"Route de La-Capite","postalCode":"1253","locality":"Vandoeuvres","commune":{"key":"6642","name":"Vandoeuvres","shortName":"Vandoeuvres"},"district":{"key":"2500","name":"Canton de Genève"},"canton":{"key":"25","code":"GE","name":"Genève"},"status":"Real"},{"key":"10053804","name":"Route de Meinier","postalCode":"1253","locality":"Vandoeuvres","commune":{"key":"6642","name":"Vandoeuvres","shortName":"Vandoeuvres"},"district":{"key":"2500","name":"Canton de Genève"},"canton":{"key":"25","code":"GE","name":"Genève"},"status":"Real"},{"key":"10105857","name":"Route de Mon-Idée","postalCode":"1253","locality":"Vandoeuvres","commune":{"key":"6642","name":"Vandoeuvres","shortName":"Vandoeuvres"},"district":{"key":"2500","name":"Canton de Genève"},"canton":{"key":"25","code":"GE","name":"Genève"},"status":"Real"},{"key":"10053805","name":"Route de Pressy","postalCode":"1253","locality":"Vandoeuvres","commune":{"key":"6642","name":"Vandoeuvres","shortName":"Vandoeuvres"},"district":{"key":"2500","name":"Canton de Genève"},"canton":{"key":"25","code":"GE","name":"Genève"},"status":"Real"},{"key":"10083553","name":"Route de Vandoeuvres","postalCode":"1253","locality":"Vandoeuvres","commune":{"key":"6642","name":"Vandoeuvres","shortName":"Vandoeuvres"},"district":{"key":"2500","name":"Canton de Genève"},"canton":{"key":"25","code":"GE","name":"Genève"},"status":"Real"},]