[{"name":"Ahornweg","postalCode":"21465","locality":"Reinbek","municipality":{"key":"01062060","name":"Reinbek, Stadt","type":"Stadt"},"district":{"key":"01062","name":"Stormarn","type":"Kreis"},"federalState":{"key":"01","name":"Schleswig-Holstein"}},{"name":"Allensteiner Weg","postalCode":"21465","locality":"Reinbek","municipality":{"key":"01062060","name":"Reinbek, Stadt","type":"Stadt"},"district":{"key":"01062","name":"Stormarn","type":"Kreis"},"federalState":{"key":"01","name":"Schleswig-Holstein"}},{"name":"Alter Kamp","postalCode":"21465","locality":"Reinbek","municipality":{"key":"01062060","name":"Reinbek, Stadt","type":"Stadt"},"district":{"key":"01062","name":"Stormarn","type":"Kreis"},"federalState":{"key":"01","name":"Schleswig-Holstein"}},{"name":"Alte Steinbrücke / Dänenbrücke","postalCode":"21465","locality":"Reinbek","municipality":{"key":"01062060","name":"Reinbek, Stadt","type":"Stadt"},"district":{"key":"01062","name":"Stormarn","type":"Kreis"},"federalState":{"key":"01","name":"Schleswig-Holstein"}},{"name":"Am Forstplatz","postalCode":"21465","locality":"Reinbek","municipality":{"key":"01062060","name":"Reinbek, Stadt","type":"Stadt"},"district":{"key":"01062","name":"Stormarn","type":"Kreis"},"federalState":{"key":"01","name":"Schleswig-Holstein"}},{"name":"Am Haidkrug","postalCode":"21465","locality":"Reinbek","municipality":{"key":"01062060","name":"Reinbek, Stadt","type":"Stadt"},"district":{"key":"01062","name":"Stormarn","type":"Kreis"},"federalState":{"key":"01","name":"Schleswig-Holstein"}},{"name":"Am Holländerberg","postalCode":"21465","locality":"Reinbek","municipality":{"key":"01062060","name":"Reinbek, Stadt","type":"Stadt"},"district":{"key":"01062","name":"Stormarn","type":"Kreis"},"federalState":{"key":"01","name":"Schleswig-Holstein"}},{"name":"Am Hünengrab","postalCode":"21465","locality":"Reinbek","municipality":{"key":"01062060","name":"Reinbek, Stadt","type":"Stadt"},"district":{"key":"01062","name":"Stormarn","type":"Kreis"},"federalState":{"key":"01","name":"Schleswig-Holstein"}},{"name":"Am Kolk","postalCode":"21465","locality":"Reinbek","municipality":{"key":"01062060","name":"Reinbek, Stadt","type":"Stadt"},"district":{"key":"01062","name":"Stormarn","type":"Kreis"},"federalState":{"key":"01","name":"Schleswig-Holstein"}},{"name":"Am Krähenwald","postalCode":"21465","locality":"Reinbek","municipality":{"key":"01062060","name":"Reinbek, Stadt","type":"Stadt"},"district":{"key":"01062","name":"Stormarn","type":"Kreis"},"federalState":{"key":"01","name":"Schleswig-Holstein"}},{"name":"Am Ladenzentrum","postalCode":"21465","locality":"Reinbek","municipality":{"key":"01062060","name":"Reinbek, Stadt","type":"Stadt"},"district":{"key":"01062","name":"Stormarn","type":"Kreis"},"federalState":{"key":"01","name":"Schleswig-Holstein"}},{"name":"Am Lindenhof","postalCode":"21465","locality":"Reinbek","municipality":{"key":"01062060","name":"Reinbek, Stadt","type":"Stadt"},"district":{"key":"01062","name":"Stormarn","type":"Kreis"},"federalState":{"key":"01","name":"Schleswig-Holstein"}},{"name":"Am Moor","postalCode":"21465","locality":"Reinbek","municipality":{"key":"01062060","name":"Reinbek, Stadt","type":"Stadt"},"district":{"key":"01062","name":"Stormarn","type":"Kreis"},"federalState":{"key":"01","name":"Schleswig-Holstein"}},{"name":"Am Mühlenteich","postalCode":"21465","locality":"Reinbek","municipality":{"key":"01062060","name":"Reinbek, Stadt","type":"Stadt"},"district":{"key":"01062","name":"Stormarn","type":"Kreis"},"federalState":{"key":"01","name":"Schleswig-Holstein"}},{"name":"Am Röhbrook","postalCode":"21465","locality":"Reinbek","municipality":{"key":"01062060","name":"Reinbek, Stadt","type":"Stadt"},"district":{"key":"01062","name":"Stormarn","type":"Kreis"},"federalState":{"key":"01","name":"Schleswig-Holstein"}},{"name":"Am Rosenplatz","postalCode":"21465","locality":"Reinbek","municipality":{"key":"01062060","name":"Reinbek, Stadt","type":"Stadt"},"district":{"key":"01062","name":"Stormarn","type":"Kreis"},"federalState":{"key":"01","name":"Schleswig-Holstein"}},{"name":"Am Salteich","postalCode":"21465","locality":"Reinbek","municipality":{"key":"01062060","name":"Reinbek, Stadt","type":"Stadt"},"district":{"key":"01062","name":"Stormarn","type":"Kreis"},"federalState":{"key":"01","name":"Schleswig-Holstein"}},{"name":"Amselstieg","postalCode":"21465","locality":"Reinbek","municipality":{"key":"01062060","name":"Reinbek, Stadt","type":"Stadt"},"district":{"key":"01062","name":"Stormarn","type":"Kreis"},"federalState":{"key":"01","name":"Schleswig-Holstein"}},{"name":"Am Sportplatz","postalCode":"21465","locality":"Reinbek","municipality":{"key":"01062060","name":"Reinbek, Stadt","type":"Stadt"},"district":{"key":"01062","name":"Stormarn","type":"Kreis"},"federalState":{"key":"01","name":"Schleswig-Holstein"}},{"name":"Am Stüb","postalCode":"21465","locality":"Reinbek","municipality":{"key":"01062060","name":"Reinbek, Stadt","type":"Stadt"},"district":{"key":"01062","name":"Stormarn","type":"Kreis"},"federalState":{"key":"01","name":"Schleswig-Holstein"}},{"name":"Am Vorwerksbusch","postalCode":"21465","locality":"Reinbek","municipality":{"key":"01062060","name":"Reinbek, Stadt","type":"Stadt"},"district":{"key":"01062","name":"Stormarn","type":"Kreis"},"federalState":{"key":"01","name":"Schleswig-Holstein"}},{"name":"An der Wildkoppel","postalCode":"21465","locality":"Reinbek","municipality":{"key":"01062060","name":"Reinbek, Stadt","type":"Stadt"},"district":{"key":"01062","name":"Stormarn","type":"Kreis"},"federalState":{"key":"01","name":"Schleswig-Holstein"}},{"name":"Angeliter Weg","postalCode":"21465","locality":"Reinbek","municipality":{"key":"01062060","name":"Reinbek, Stadt","type":"Stadt"},"district":{"key":"01062","name":"Stormarn","type":"Kreis"},"federalState":{"key":"01","name":"Schleswig-Holstein"}},{"name":"Arthur-Goldschmidt-Weg","postalCode":"21465","locality":"Reinbek","municipality":{"key":"01062060","name":"Reinbek, Stadt","type":"Stadt"},"district":{"key":"01062","name":"Stormarn","type":"Kreis"},"federalState":{"key":"01","name":"Schleswig-Holstein"}},{"name":"Auf dem Großen Ruhm","postalCode":"21465","locality":"Reinbek","municipality":{"key":"01062060","name":"Reinbek, Stadt","type":"Stadt"},"district":{"key":"01062","name":"Stormarn","type":"Kreis"},"federalState":{"key":"01","name":"Schleswig-Holstein"}},{"name":"Bahnhofstr.","postalCode":"21465","locality":"Reinbek","municipality":{"key":"01062060","name":"Reinbek, Stadt","type":"Stadt"},"district":{"key":"01062","name":"Stormarn","type":"Kreis"},"federalState":{"key":"01","name":"Schleswig-Holstein"}},{"name":"Bahnsenallee","postalCode":"21465","locality":"Reinbek","municipality":{"key":"01062060","name":"Reinbek, Stadt","type":"Stadt"},"district":{"key":"01062","name":"Stormarn","type":"Kreis"},"federalState":{"key":"01","name":"Schleswig-Holstein"}},{"name":"Bauerbrücke","postalCode":"21465","locality":"Reinbek","municipality":{"key":"01062060","name":"Reinbek, Stadt","type":"Stadt"},"district":{"key":"01062","name":"Stormarn","type":"Kreis"},"federalState":{"key":"01","name":"Schleswig-Holstein"}},{"name":"Bauernvogtei","postalCode":"21465","locality":"Reinbek","municipality":{"key":"01062060","name":"Reinbek, Stadt","type":"Stadt"},"district":{"key":"01062","name":"Stormarn","type":"Kreis"},"federalState":{"key":"01","name":"Schleswig-Holstein"}},{"name":"Baumschulenweg","postalCode":"21465","locality":"Reinbek","municipality":{"key":"01062060","name":"Reinbek, Stadt","type":"Stadt"},"district":{"key":"01062","name":"Stormarn","type":"Kreis"},"federalState":{"key":"01","name":"Schleswig-Holstein"}},{"name":"Bergstr.","postalCode":"21465","locality":"Reinbek","municipality":{"key":"01062060","name":"Reinbek, Stadt","type":"Stadt"},"district":{"key":"01062","name":"Stormarn","type":"Kreis"},"federalState":{"key":"01","name":"Schleswig-Holstein"}},{"name":"Berliner Str.","postalCode":"21465","locality":"Reinbek","municipality":{"key":"01062060","name":"Reinbek, Stadt","type":"Stadt"},"district":{"key":"01062","name":"Stormarn","type":"Kreis"},"federalState":{"key":"01","name":"Schleswig-Holstein"}},{"name":"Bernhard-Ihnen-Str.","postalCode":"21465","locality":"Reinbek","municipality":{"key":"01062060","name":"Reinbek, Stadt","type":"Stadt"},"district":{"key":"01062","name":"Stormarn","type":"Kreis"},"federalState":{"key":"01","name":"Schleswig-Holstein"}},{"name":"Billewanderweg","postalCode":"21465","locality":"Reinbek","municipality":{"key":"01062060","name":"Reinbek, Stadt","type":"Stadt"},"district":{"key":"01062","name":"Stormarn","type":"Kreis"},"federalState":{"key":"01","name":"Schleswig-Holstein"}},{"name":"Birkenkamp","postalCode":"21465","locality":"Reinbek","municipality":{"key":"01062060","name":"Reinbek, Stadt","type":"Stadt"},"district":{"key":"01062","name":"Stormarn","type":"Kreis"},"federalState":{"key":"01","name":"Schleswig-Holstein"}},{"name":"Birkenredder","postalCode":"21465","locality":"Reinbek","municipality":{"key":"01062060","name":"Reinbek, Stadt","type":"Stadt"},"district":{"key":"01062","name":"Stormarn","type":"Kreis"},"federalState":{"key":"01","name":"Schleswig-Holstein"}},{"name":"Birkenring","postalCode":"21465","locality":"Reinbek","municipality":{"key":"01062060","name":"Reinbek, Stadt","type":"Stadt"},"district":{"key":"01062","name":"Stormarn","type":"Kreis"},"federalState":{"key":"01","name":"Schleswig-Holstein"}},{"name":"Birkentwiete","postalCode":"21465","locality":"Reinbek","municipality":{"key":"01062060","name":"Reinbek, Stadt","type":"Stadt"},"district":{"key":"01062","name":"Stormarn","type":"Kreis"},"federalState":{"key":"01","name":"Schleswig-Holstein"}},{"name":"Birkenweg","postalCode":"21465","locality":"Reinbek","municipality":{"key":"01062060","name":"Reinbek, Stadt","type":"Stadt"},"district":{"key":"01062","name":"Stormarn","type":"Kreis"},"federalState":{"key":"01","name":"Schleswig-Holstein"}},{"name":"Bismarckstr.","postalCode":"21465","locality":"Reinbek","municipality":{"key":"01062060","name":"Reinbek, Stadt","type":"Stadt"},"district":{"key":"01062","name":"Stormarn","type":"Kreis"},"federalState":{"key":"01","name":"Schleswig-Holstein"}},{"name":"Blocksberg","postalCode":"21465","locality":"Reinbek","municipality":{"key":"01062060","name":"Reinbek, Stadt","type":"Stadt"},"district":{"key":"01062","name":"Stormarn","type":"Kreis"},"federalState":{"key":"01","name":"Schleswig-Holstein"}},{"name":"Böge","postalCode":"21465","locality":"Reinbek","municipality":{"key":"01062060","name":"Reinbek, Stadt","type":"Stadt"},"district":{"key":"01062","name":"Stormarn","type":"Kreis"},"federalState":{"key":"01","name":"Schleswig-Holstein"}},{"name":"Bogenstr.","postalCode":"21465","locality":"Reinbek","municipality":{"key":"01062060","name":"Reinbek, Stadt","type":"Stadt"},"district":{"key":"01062","name":"Stormarn","type":"Kreis"},"federalState":{"key":"01","name":"Schleswig-Holstein"}},{"name":"Bögesteg","postalCode":"21465","locality":"Reinbek","municipality":{"key":"01062060","name":"Reinbek, Stadt","type":"Stadt"},"district":{"key":"01062","name":"Stormarn","type":"Kreis"},"federalState":{"key":"01","name":"Schleswig-Holstein"}},{"name":"Borsigstr.","postalCode":"21465","locality":"Reinbek","municipality":{"key":"01062060","name":"Reinbek, Stadt","type":"Stadt"},"district":{"key":"01062","name":"Stormarn","type":"Kreis"},"federalState":{"key":"01","name":"Schleswig-Holstein"}},{"name":"Bredenhorn","postalCode":"21465","locality":"Reinbek","municipality":{"key":"01062060","name":"Reinbek, Stadt","type":"Stadt"},"district":{"key":"01062","name":"Stormarn","type":"Kreis"},"federalState":{"key":"01","name":"Schleswig-Holstein"}},{"name":"Brunsbusch","postalCode":"21465","locality":"Reinbek","municipality":{"key":"01062060","name":"Reinbek, Stadt","type":"Stadt"},"district":{"key":"01062","name":"Stormarn","type":"Kreis"},"federalState":{"key":"01","name":"Schleswig-Holstein"}},{"name":"Buchenweg","postalCode":"21465","locality":"Reinbek","municipality":{"key":"01062060","name":"Reinbek, Stadt","type":"Stadt"},"district":{"key":"01062","name":"Stormarn","type":"Kreis"},"federalState":{"key":"01","name":"Schleswig-Holstein"}},{"name":"Buchtallee","postalCode":"21465","locality":"Reinbek","municipality":{"key":"01062060","name":"Reinbek, Stadt","type":"Stadt"},"district":{"key":"01062","name":"Stormarn","type":"Kreis"},"federalState":{"key":"01","name":"Schleswig-Holstein"}},{"name":"Bummerei","postalCode":"21465","locality":"Reinbek","municipality":{"key":"01062060","name":"Reinbek, Stadt","type":"Stadt"},"district":{"key":"01062","name":"Stormarn","type":"Kreis"},"federalState":{"key":"01","name":"Schleswig-Holstein"}},{"name":"Bummerei Brücke","postalCode":"21465","locality":"Reinbek","municipality":{"key":"01062060","name":"Reinbek, Stadt","type":"Stadt"},"district":{"key":"01062","name":"Stormarn","type":"Kreis"},"federalState":{"key":"01","name":"Schleswig-Holstein"}},{"name":"Bunzlauer Weg","postalCode":"21465","locality":"Reinbek","municipality":{"key":"01062060","name":"Reinbek, Stadt","type":"Stadt"},"district":{"key":"01062","name":"Stormarn","type":"Kreis"},"federalState":{"key":"01","name":"Schleswig-Holstein"}},{"name":"Carl-Herrmann-Str.","postalCode":"21465","locality":"Reinbek","municipality":{"key":"01062060","name":"Reinbek, Stadt","type":"Stadt"},"district":{"key":"01062","name":"Stormarn","type":"Kreis"},"federalState":{"key":"01","name":"Schleswig-Holstein"}},{"name":"Carl-Zeiss-Str.","postalCode":"21465","locality":"Reinbek","municipality":{"key":"01062060","name":"Reinbek, Stadt","type":"Stadt"},"district":{"key":"01062","name":"Stormarn","type":"Kreis"},"federalState":{"key":"01","name":"Schleswig-Holstein"}},{"name":"Charlottenburger Weg","postalCode":"21465","locality":"Reinbek","municipality":{"key":"01062060","name":"Reinbek, Stadt","type":"Stadt"},"district":{"key":"01062","name":"Stormarn","type":"Kreis"},"federalState":{"key":"01","name":"Schleswig-Holstein"}},{"name":"Cronsberg","postalCode":"21465","locality":"Reinbek","municipality":{"key":"01062060","name":"Reinbek, Stadt","type":"Stadt"},"district":{"key":"01062","name":"Stormarn","type":"Kreis"},"federalState":{"key":"01","name":"Schleswig-Holstein"}},{"name":"Danziger Str.","postalCode":"21465","locality":"Reinbek","municipality":{"key":"01062060","name":"Reinbek, Stadt","type":"Stadt"},"district":{"key":"01062","name":"Stormarn","type":"Kreis"},"federalState":{"key":"01","name":"Schleswig-Holstein"}},{"name":"Dieselstr.","postalCode":"21465","locality":"Reinbek","municipality":{"key":"01062060","name":"Reinbek, Stadt","type":"Stadt"},"district":{"key":"01062","name":"Stormarn","type":"Kreis"},"federalState":{"key":"01","name":"Schleswig-Holstein"}},{"name":"Dithmarscher Weg","postalCode":"21465","locality":"Reinbek","municipality":{"key":"01062060","name":"Reinbek, Stadt","type":"Stadt"},"district":{"key":"01062","name":"Stormarn","type":"Kreis"},"federalState":{"key":"01","name":"Schleswig-Holstein"}},{"name":"Dohlenstieg","postalCode":"21465","locality":"Reinbek","municipality":{"key":"01062060","name":"Reinbek, Stadt","type":"Stadt"},"district":{"key":"01062","name":"Stormarn","type":"Kreis"},"federalState":{"key":"01","name":"Schleswig-Holstein"}},{"name":"Doktorbrücke","postalCode":"21465","locality":"Reinbek","municipality":{"key":"01062060","name":"Reinbek, Stadt","type":"Stadt"},"district":{"key":"01062","name":"Stormarn","type":"Kreis"},"federalState":{"key":"01","name":"Schleswig-Holstein"}},{"name":"Dorfstr.","postalCode":"21465","locality":"Reinbek","municipality":{"key":"01062060","name":"Reinbek, Stadt","type":"Stadt"},"district":{"key":"01062","name":"Stormarn","type":"Kreis"},"federalState":{"key":"01","name":"Schleswig-Holstein"}},{"name":"Dornröschenweg","postalCode":"21465","locality":"Reinbek","municipality":{"key":"01062060","name":"Reinbek, Stadt","type":"Stadt"},"district":{"key":"01062","name":"Stormarn","type":"Kreis"},"federalState":{"key":"01","name":"Schleswig-Holstein"}},{"name":"Ebereschenweg","postalCode":"21465","locality":"Reinbek","municipality":{"key":"01062060","name":"Reinbek, Stadt","type":"Stadt"},"district":{"key":"01062","name":"Stormarn","type":"Kreis"},"federalState":{"key":"01","name":"Schleswig-Holstein"}},{"name":"Eggerskoppel","postalCode":"21465","locality":"Reinbek","municipality":{"key":"01062060","name":"Reinbek, Stadt","type":"Stadt"},"district":{"key":"01062","name":"Stormarn","type":"Kreis"},"federalState":{"key":"01","name":"Schleswig-Holstein"}},{"name":"Eichenallee","postalCode":"21465","locality":"Reinbek","municipality":{"key":"01062060","name":"Reinbek, Stadt","type":"Stadt"},"district":{"key":"01062","name":"Stormarn","type":"Kreis"},"federalState":{"key":"01","name":"Schleswig-Holstein"}},{"name":"Eichenbusch","postalCode":"21465","locality":"Reinbek","municipality":{"key":"01062060","name":"Reinbek, Stadt","type":"Stadt"},"district":{"key":"01062","name":"Stormarn","type":"Kreis"},"federalState":{"key":"01","name":"Schleswig-Holstein"}},{"name":"Elbinger Weg","postalCode":"21465","locality":"Reinbek","municipality":{"key":"01062060","name":"Reinbek, Stadt","type":"Stadt"},"district":{"key":"01062","name":"Stormarn","type":"Kreis"},"federalState":{"key":"01","name":"Schleswig-Holstein"}},{"name":"Ellerholde","postalCode":"21465","locality":"Reinbek","municipality":{"key":"01062060","name":"Reinbek, Stadt","type":"Stadt"},"district":{"key":"01062","name":"Stormarn","type":"Kreis"},"federalState":{"key":"01","name":"Schleswig-Holstein"}},{"name":"Ellerholdesteg","postalCode":"21465","locality":"Reinbek","municipality":{"key":"01062060","name":"Reinbek, Stadt","type":"Stadt"},"district":{"key":"01062","name":"Stormarn","type":"Kreis"},"federalState":{"key":"01","name":"Schleswig-Holstein"}},{"name":"Emil-Nolde-Str.","postalCode":"21465","locality":"Reinbek","municipality":{"key":"01062060","name":"Reinbek, Stadt","type":"Stadt"},"district":{"key":"01062","name":"Stormarn","type":"Kreis"},"federalState":{"key":"01","name":"Schleswig-Holstein"}},{"name":"Erlengrund","postalCode":"21465","locality":"Reinbek","municipality":{"key":"01062060","name":"Reinbek, Stadt","type":"Stadt"},"district":{"key":"01062","name":"Stormarn","type":"Kreis"},"federalState":{"key":"01","name":"Schleswig-Holstein"}},{"name":"Ernst-Sperling-Weg","postalCode":"21465","locality":"Reinbek","municipality":{"key":"01062060","name":"Reinbek, Stadt","type":"Stadt"},"district":{"key":"01062","name":"Stormarn","type":"Kreis"},"federalState":{"key":"01","name":"Schleswig-Holstein"}},{"name":"Eschenweg","postalCode":"21465","locality":"Reinbek","municipality":{"key":"01062060","name":"Reinbek, Stadt","type":"Stadt"},"district":{"key":"01062","name":"Stormarn","type":"Kreis"},"federalState":{"key":"01","name":"Schleswig-Holstein"}},{"name":"Feldstr.","postalCode":"21465","locality":"Reinbek","municipality":{"key":"01062060","name":"Reinbek, Stadt","type":"Stadt"},"district":{"key":"01062","name":"Stormarn","type":"Kreis"},"federalState":{"key":"01","name":"Schleswig-Holstein"}},{"name":"Fernandinenweg","postalCode":"21465","locality":"Reinbek","municipality":{"key":"01062060","name":"Reinbek, Stadt","type":"Stadt"},"district":{"key":"01062","name":"Stormarn","type":"Kreis"},"federalState":{"key":"01","name":"Schleswig-Holstein"}},{"name":"Festplatz Reinbek","postalCode":"21465","locality":"Reinbek","municipality":{"key":"01062060","name":"Reinbek, Stadt","type":"Stadt"},"district":{"key":"01062","name":"Stormarn","type":"Kreis"},"federalState":{"key":"01","name":"Schleswig-Holstein"}},{"name":"Finkenkoppel","postalCode":"21465","locality":"Reinbek","municipality":{"key":"01062060","name":"Reinbek, Stadt","type":"Stadt"},"district":{"key":"01062","name":"Stormarn","type":"Kreis"},"federalState":{"key":"01","name":"Schleswig-Holstein"}},{"name":"Fontanestr.","postalCode":"21465","locality":"Reinbek","municipality":{"key":"01062060","name":"Reinbek, Stadt","type":"Stadt"},"district":{"key":"01062","name":"Stormarn","type":"Kreis"},"federalState":{"key":"01","name":"Schleswig-Holstein"}},{"name":"Friedrichshainer Weg","postalCode":"21465","locality":"Reinbek","municipality":{"key":"01062060","name":"Reinbek, Stadt","type":"Stadt"},"district":{"key":"01062","name":"Stormarn","type":"Kreis"},"federalState":{"key":"01","name":"Schleswig-Holstein"}},{"name":"Friesenweg","postalCode":"21465","locality":"Reinbek","municipality":{"key":"01062060","name":"Reinbek, Stadt","type":"Stadt"},"district":{"key":"01062","name":"Stormarn","type":"Kreis"},"federalState":{"key":"01","name":"Schleswig-Holstein"}},{"name":"Fritz-Behn-Str.","postalCode":"21465","locality":"Reinbek","municipality":{"key":"01062060","name":"Reinbek, Stadt","type":"Stadt"},"district":{"key":"01062","name":"Stormarn","type":"Kreis"},"federalState":{"key":"01","name":"Schleswig-Holstein"}},{"name":"Fürstenbrücke","postalCode":"21465","locality":"Reinbek","municipality":{"key":"01062060","name":"Reinbek, Stadt","type":"Stadt"},"district":{"key":"01062","name":"Stormarn","type":"Kreis"},"federalState":{"key":"01","name":"Schleswig-Holstein"}},{"name":"Gartenstr.","postalCode":"21465","locality":"Reinbek","municipality":{"key":"01062060","name":"Reinbek, Stadt","type":"Stadt"},"district":{"key":"01062","name":"Stormarn","type":"Kreis"},"federalState":{"key":"01","name":"Schleswig-Holstein"}},{"name":"Gartenweg","postalCode":"21465","locality":"Reinbek","municipality":{"key":"01062060","name":"Reinbek, Stadt","type":"Stadt"},"district":{"key":"01062","name":"Stormarn","type":"Kreis"},"federalState":{"key":"01","name":"Schleswig-Holstein"}},{"name":"Gärtnerstr.","postalCode":"21465","locality":"Reinbek","municipality":{"key":"01062060","name":"Reinbek, Stadt","type":"Stadt"},"district":{"key":"01062","name":"Stormarn","type":"Kreis"},"federalState":{"key":"01","name":"Schleswig-Holstein"}},{"name":"Gergenbusch","postalCode":"21465","locality":"Reinbek","municipality":{"key":"01062060","name":"Reinbek, Stadt","type":"Stadt"},"district":{"key":"01062","name":"Stormarn","type":"Kreis"},"federalState":{"key":"01","name":"Schleswig-Holstein"}},{"name":"Gerstenkamp","postalCode":"21465","locality":"Reinbek","municipality":{"key":"01062060","name":"Reinbek, Stadt","type":"Stadt"},"district":{"key":"01062","name":"Stormarn","type":"Kreis"},"federalState":{"key":"01","name":"Schleswig-Holstein"}},{"name":"Gleisners Park","postalCode":"21465","locality":"Reinbek","municipality":{"key":"01062060","name":"Reinbek, Stadt","type":"Stadt"},"district":{"key":"01062","name":"Stormarn","type":"Kreis"},"federalState":{"key":"01","name":"Schleswig-Holstein"}},{"name":"Glinder Brücke","postalCode":"21465","locality":"Reinbek","municipality":{"key":"01062060","name":"Reinbek, Stadt","type":"Stadt"},"district":{"key":"01062","name":"Stormarn","type":"Kreis"},"federalState":{"key":"01","name":"Schleswig-Holstein"}},{"name":"Glinder Str.","postalCode":"21465","locality":"Reinbek","municipality":{"key":"01062060","name":"Reinbek, Stadt","type":"Stadt"},"district":{"key":"01062","name":"Stormarn","type":"Kreis"},"federalState":{"key":"01","name":"Schleswig-Holstein"}},{"name":"Glinder Weg","postalCode":"21465","locality":"Reinbek","municipality":{"key":"01062060","name":"Reinbek, Stadt","type":"Stadt"},"district":{"key":"01062","name":"Stormarn","type":"Kreis"},"federalState":{"key":"01","name":"Schleswig-Holstein"}},{"name":"Goetheallee","postalCode":"21465","locality":"Reinbek","municipality":{"key":"01062060","name":"Reinbek, Stadt","type":"Stadt"},"district":{"key":"01062","name":"Stormarn","type":"Kreis"},"federalState":{"key":"01","name":"Schleswig-Holstein"}},{"name":"Gorch-Fock-Str.","postalCode":"21465","locality":"Reinbek","municipality":{"key":"01062060","name":"Reinbek, Stadt","type":"Stadt"},"district":{"key":"01062","name":"Stormarn","type":"Kreis"},"federalState":{"key":"01","name":"Schleswig-Holstein"}},{"name":"Görlitzer Weg","postalCode":"21465","locality":"Reinbek","municipality":{"key":"01062060","name":"Reinbek, Stadt","type":"Stadt"},"district":{"key":"01062","name":"Stormarn","type":"Kreis"},"federalState":{"key":"01","name":"Schleswig-Holstein"}},{"name":"Grenzbrücke","postalCode":"21465","locality":"Reinbek","municipality":{"key":"01062060","name":"Reinbek, Stadt","type":"Stadt"},"district":{"key":"01062","name":"Stormarn","type":"Kreis"},"federalState":{"key":"01","name":"Schleswig-Holstein"}},{"name":"Grenzweg","postalCode":"21465","locality":"Reinbek","municipality":{"key":"01062060","name":"Reinbek, Stadt","type":"Stadt"},"district":{"key":"01062","name":"Stormarn","type":"Kreis"},"federalState":{"key":"01","name":"Schleswig-Holstein"}},{"name":"Großer Scharnhorst","postalCode":"21465","locality":"Reinbek","municipality":{"key":"01062060","name":"Reinbek, Stadt","type":"Stadt"},"district":{"key":"01062","name":"Stormarn","type":"Kreis"},"federalState":{"key":"01","name":"Schleswig-Holstein"}},{"name":"Große Str.","postalCode":"21465","locality":"Reinbek","municipality":{"key":"01062060","name":"Reinbek, Stadt","type":"Stadt"},"district":{"key":"01062","name":"Stormarn","type":"Kreis"},"federalState":{"key":"01","name":"Schleswig-Holstein"}},{"name":"Günter-Kock-Allee","postalCode":"21465","locality":"Reinbek","municipality":{"key":"01062060","name":"Reinbek, Stadt","type":"Stadt"},"district":{"key":"01062","name":"Stormarn","type":"Kreis"},"federalState":{"key":"01","name":"Schleswig-Holstein"}},{"name":"Gutenbergstr.","postalCode":"21465","locality":"Reinbek","municipality":{"key":"01062060","name":"Reinbek, Stadt","type":"Stadt"},"district":{"key":"01062","name":"Stormarn","type":"Kreis"},"federalState":{"key":"01","name":"Schleswig-Holstein"}},{"name":"Haferkamp","postalCode":"21465","locality":"Reinbek","municipality":{"key":"01062060","name":"Reinbek, Stadt","type":"Stadt"},"district":{"key":"01062","name":"Stormarn","type":"Kreis"},"federalState":{"key":"01","name":"Schleswig-Holstein"}},{"name":"Hagebuttenweg","postalCode":"21465","locality":"Reinbek","municipality":{"key":"01062060","name":"Reinbek, Stadt","type":"Stadt"},"district":{"key":"01062","name":"Stormarn","type":"Kreis"},"federalState":{"key":"01","name":"Schleswig-Holstein"}},{"name":"Haidkrugchaussee","postalCode":"21465","locality":"Reinbek","municipality":{"key":"01062060","name":"Reinbek, Stadt","type":"Stadt"},"district":{"key":"01062","name":"Stormarn","type":"Kreis"},"federalState":{"key":"01","name":"Schleswig-Holstein"}},{"name":"Halskestr.","postalCode":"21465","locality":"Reinbek","municipality":{"key":"01062060","name":"Reinbek, Stadt","type":"Stadt"},"district":{"key":"01062","name":"Stormarn","type":"Kreis"},"federalState":{"key":"01","name":"Schleswig-Holstein"}},{"name":"Hamburger Str.","postalCode":"21465","locality":"Reinbek","municipality":{"key":"01062060","name":"Reinbek, Stadt","type":"Stadt"},"district":{"key":"01062","name":"Stormarn","type":"Kreis"},"federalState":{"key":"01","name":"Schleswig-Holstein"}},{"name":"Hamelskamp","postalCode":"21465","locality":"Reinbek","municipality":{"key":"01062060","name":"Reinbek, Stadt","type":"Stadt"},"district":{"key":"01062","name":"Stormarn","type":"Kreis"},"federalState":{"key":"01","name":"Schleswig-Holstein"}},{"name":"Hans-Geiger-Str.","postalCode":"21465","locality":"Reinbek","municipality":{"key":"01062060","name":"Reinbek, Stadt","type":"Stadt"},"district":{"key":"01062","name":"Stormarn","type":"Kreis"},"federalState":{"key":"01","name":"Schleswig-Holstein"}},{"name":"Hasenstieg","postalCode":"21465","locality":"Reinbek","municipality":{"key":"01062060","name":"Reinbek, Stadt","type":"Stadt"},"district":{"key":"01062","name":"Stormarn","type":"Kreis"},"federalState":{"key":"01","name":"Schleswig-Holstein"}},{"name":"Hebbelstr.","postalCode":"21465","locality":"Reinbek","municipality":{"key":"01062060","name":"Reinbek, Stadt","type":"Stadt"},"district":{"key":"01062","name":"Stormarn","type":"Kreis"},"federalState":{"key":"01","name":"Schleswig-Holstein"}},{"name":"Heckenweg","postalCode":"21465","locality":"Reinbek","municipality":{"key":"01062060","name":"Reinbek, Stadt","type":"Stadt"},"district":{"key":"01062","name":"Stormarn","type":"Kreis"},"federalState":{"key":"01","name":"Schleswig-Holstein"}},{"name":"Heideweg","postalCode":"21465","locality":"Reinbek","municipality":{"key":"01062060","name":"Reinbek, Stadt","type":"Stadt"},"district":{"key":"01062","name":"Stormarn","type":"Kreis"},"federalState":{"key":"01","name":"Schleswig-Holstein"}},{"name":"Hermann-Körner-Str.","postalCode":"21465","locality":"Reinbek","municipality":{"key":"01062060","name":"Reinbek, Stadt","type":"Stadt"},"district":{"key":"01062","name":"Stormarn","type":"Kreis"},"federalState":{"key":"01","name":"Schleswig-Holstein"}},{"name":"Hermann-Löns-Str.","postalCode":"21465","locality":"Reinbek","municipality":{"key":"01062060","name":"Reinbek, Stadt","type":"Stadt"},"district":{"key":"01062","name":"Stormarn","type":"Kreis"},"federalState":{"key":"01","name":"Schleswig-Holstein"}},{"name":"Herrengraben","postalCode":"21465","locality":"Reinbek","municipality":{"key":"01062060","name":"Reinbek, Stadt","type":"Stadt"},"district":{"key":"01062","name":"Stormarn","type":"Kreis"},"federalState":{"key":"01","name":"Schleswig-Holstein"}},{"name":"Herzog-Adolf-Brücke","postalCode":"21465","locality":"Reinbek","municipality":{"key":"01062060","name":"Reinbek, Stadt","type":"Stadt"},"district":{"key":"01062","name":"Stormarn","type":"Kreis"},"federalState":{"key":"01","name":"Schleswig-Holstein"}},{"name":"Herzog-Adolf Str.","postalCode":"21465","locality":"Reinbek","municipality":{"key":"01062060","name":"Reinbek, Stadt","type":"Stadt"},"district":{"key":"01062","name":"Stormarn","type":"Kreis"},"federalState":{"key":"01","name":"Schleswig-Holstein"}},{"name":"Hinter den Höfen","postalCode":"21465","locality":"Reinbek","municipality":{"key":"01062060","name":"Reinbek, Stadt","type":"Stadt"},"district":{"key":"01062","name":"Stormarn","type":"Kreis"},"federalState":{"key":"01","name":"Schleswig-Holstein"}},{"name":"Hirschberger Weg","postalCode":"21465","locality":"Reinbek","municipality":{"key":"01062060","name":"Reinbek, Stadt","type":"Stadt"},"district":{"key":"01062","name":"Stormarn","type":"Kreis"},"federalState":{"key":"01","name":"Schleswig-Holstein"}},{"name":"Hoibeken","postalCode":"21465","locality":"Reinbek","municipality":{"key":"01062060","name":"Reinbek, Stadt","type":"Stadt"},"district":{"key":"01062","name":"Stormarn","type":"Kreis"},"federalState":{"key":"01","name":"Schleswig-Holstein"}},{"name":"Holsteiner Str.","postalCode":"21465","locality":"Reinbek","municipality":{"key":"01062060","name":"Reinbek, Stadt","type":"Stadt"},"district":{"key":"01062","name":"Stormarn","type":"Kreis"},"federalState":{"key":"01","name":"Schleswig-Holstein"}},{"name":"Hufnerweg","postalCode":"21465","locality":"Reinbek","municipality":{"key":"01062060","name":"Reinbek, Stadt","type":"Stadt"},"district":{"key":"01062","name":"Stormarn","type":"Kreis"},"federalState":{"key":"01","name":"Schleswig-Holstein"}},{"name":"Husumer Str.","postalCode":"21465","locality":"Reinbek","municipality":{"key":"01062060","name":"Reinbek, Stadt","type":"Stadt"},"district":{"key":"01062","name":"Stormarn","type":"Kreis"},"federalState":{"key":"01","name":"Schleswig-Holstein"}},{"name":"Huuskoppel","postalCode":"21465","locality":"Reinbek","municipality":{"key":"01062060","name":"Reinbek, Stadt","type":"Stadt"},"district":{"key":"01062","name":"Stormarn","type":"Kreis"},"federalState":{"key":"01","name":"Schleswig-Holstein"}},{"name":"Jahnckeweg","postalCode":"21465","locality":"Reinbek","municipality":{"key":"01062060","name":"Reinbek, Stadt","type":"Stadt"},"district":{"key":"01062","name":"Stormarn","type":"Kreis"},"federalState":{"key":"01","name":"Schleswig-Holstein"}},{"name":"Jahnstr.","postalCode":"21465","locality":"Reinbek","municipality":{"key":"01062060","name":"Reinbek, Stadt","type":"Stadt"},"district":{"key":"01062","name":"Stormarn","type":"Kreis"},"federalState":{"key":"01","name":"Schleswig-Holstein"}},{"name":"Johannes-Kröger-Weg","postalCode":"21465","locality":"Reinbek","municipality":{"key":"01062060","name":"Reinbek, Stadt","type":"Stadt"},"district":{"key":"01062","name":"Stormarn","type":"Kreis"},"federalState":{"key":"01","name":"Schleswig-Holstein"}},{"name":"Kampsredder","postalCode":"21465","locality":"Reinbek","municipality":{"key":"01062060","name":"Reinbek, Stadt","type":"Stadt"},"district":{"key":"01062","name":"Stormarn","type":"Kreis"},"federalState":{"key":"01","name":"Schleswig-Holstein"}},{"name":"Kampstr.","postalCode":"21465","locality":"Reinbek","municipality":{"key":"01062060","name":"Reinbek, Stadt","type":"Stadt"},"district":{"key":"01062","name":"Stormarn","type":"Kreis"},"federalState":{"key":"01","name":"Schleswig-Holstein"}},{"name":"Kätnerweg","postalCode":"21465","locality":"Reinbek","municipality":{"key":"01062060","name":"Reinbek, Stadt","type":"Stadt"},"district":{"key":"01062","name":"Stormarn","type":"Kreis"},"federalState":{"key":"01","name":"Schleswig-Holstein"}},{"name":"Kiefernweg","postalCode":"21465","locality":"Reinbek","municipality":{"key":"01062060","name":"Reinbek, Stadt","type":"Stadt"},"district":{"key":"01062","name":"Stormarn","type":"Kreis"},"federalState":{"key":"01","name":"Schleswig-Holstein"}},{"name":"Kieler Str.","postalCode":"21465","locality":"Reinbek","municipality":{"key":"01062060","name":"Reinbek, Stadt","type":"Stadt"},"district":{"key":"01062","name":"Stormarn","type":"Kreis"},"federalState":{"key":"01","name":"Schleswig-Holstein"}},{"name":"Kieskuhle","postalCode":"21465","locality":"Reinbek","municipality":{"key":"01062060","name":"Reinbek, Stadt","type":"Stadt"},"district":{"key":"01062","name":"Stormarn","type":"Kreis"},"federalState":{"key":"01","name":"Schleswig-Holstein"}},{"name":"Kinauweg","postalCode":"21465","locality":"Reinbek","municipality":{"key":"01062060","name":"Reinbek, Stadt","type":"Stadt"},"district":{"key":"01062","name":"Stormarn","type":"Kreis"},"federalState":{"key":"01","name":"Schleswig-Holstein"}},{"name":"Kirchenallee","postalCode":"21465","locality":"Reinbek","municipality":{"key":"01062060","name":"Reinbek, Stadt","type":"Stadt"},"district":{"key":"01062","name":"Stormarn","type":"Kreis"},"federalState":{"key":"01","name":"Schleswig-Holstein"}},{"name":"Klaus-Groth-Str.","postalCode":"21465","locality":"Reinbek","municipality":{"key":"01062060","name":"Reinbek, Stadt","type":"Stadt"},"district":{"key":"01062","name":"Stormarn","type":"Kreis"},"federalState":{"key":"01","name":"Schleswig-Holstein"}},{"name":"Kleistweg","postalCode":"21465","locality":"Reinbek","municipality":{"key":"01062060","name":"Reinbek, Stadt","type":"Stadt"},"district":{"key":"01062","name":"Stormarn","type":"Kreis"},"federalState":{"key":"01","name":"Schleswig-Holstein"}},{"name":"Klosterbergenstr.","postalCode":"21465","locality":"Reinbek","municipality":{"key":"01062060","name":"Reinbek, Stadt","type":"Stadt"},"district":{"key":"01062","name":"Stormarn","type":"Kreis"},"federalState":{"key":"01","name":"Schleswig-Holstein"}},{"name":"Kolberger Str.","postalCode":"21465","locality":"Reinbek","municipality":{"key":"01062060","name":"Reinbek, Stadt","type":"Stadt"},"district":{"key":"01062","name":"Stormarn","type":"Kreis"},"federalState":{"key":"01","name":"Schleswig-Holstein"}},{"name":"Kolberger Weg","postalCode":"21465","locality":"Reinbek","municipality":{"key":"01062060","name":"Reinbek, Stadt","type":"Stadt"},"district":{"key":"01062","name":"Stormarn","type":"Kreis"},"federalState":{"key":"01","name":"Schleswig-Holstein"}},{"name":"Königsberger Str.","postalCode":"21465","locality":"Reinbek","municipality":{"key":"01062060","name":"Reinbek, Stadt","type":"Stadt"},"district":{"key":"01062","name":"Stormarn","type":"Kreis"},"federalState":{"key":"01","name":"Schleswig-Holstein"}},{"name":"Königstr.","postalCode":"21465","locality":"Reinbek","municipality":{"key":"01062060","name":"Reinbek, Stadt","type":"Stadt"},"district":{"key":"01062","name":"Stormarn","type":"Kreis"},"federalState":{"key":"01","name":"Schleswig-Holstein"}},{"name":"Köpenicker Weg","postalCode":"21465","locality":"Reinbek","municipality":{"key":"01062060","name":"Reinbek, Stadt","type":"Stadt"},"district":{"key":"01062","name":"Stormarn","type":"Kreis"},"federalState":{"key":"01","name":"Schleswig-Holstein"}},{"name":"Kornblumenring","postalCode":"21465","locality":"Reinbek","municipality":{"key":"01062060","name":"Reinbek, Stadt","type":"Stadt"},"district":{"key":"01062","name":"Stormarn","type":"Kreis"},"federalState":{"key":"01","name":"Schleswig-Holstein"}},{"name":"Kösliner Weg","postalCode":"21465","locality":"Reinbek","municipality":{"key":"01062060","name":"Reinbek, Stadt","type":"Stadt"},"district":{"key":"01062","name":"Stormarn","type":"Kreis"},"federalState":{"key":"01","name":"Schleswig-Holstein"}},{"name":"Krabbenhöhe","postalCode":"21465","locality":"Reinbek","municipality":{"key":"01062060","name":"Reinbek, Stadt","type":"Stadt"},"district":{"key":"01062","name":"Stormarn","type":"Kreis"},"federalState":{"key":"01","name":"Schleswig-Holstein"}},{"name":"Krabbenkamp","postalCode":"21465","locality":"Reinbek","municipality":{"key":"01062060","name":"Reinbek, Stadt","type":"Stadt"},"district":{"key":"01062","name":"Stormarn","type":"Kreis"},"federalState":{"key":"01","name":"Schleswig-Holstein"}},{"name":"Krabbensteg","postalCode":"21465","locality":"Reinbek","municipality":{"key":"01062060","name":"Reinbek, Stadt","type":"Stadt"},"district":{"key":"01062","name":"Stormarn","type":"Kreis"},"federalState":{"key":"01","name":"Schleswig-Holstein"}},{"name":"Kreutzkamp","postalCode":"21465","locality":"Reinbek","municipality":{"key":"01062060","name":"Reinbek, Stadt","type":"Stadt"},"district":{"key":"01062","name":"Stormarn","type":"Kreis"},"federalState":{"key":"01","name":"Schleswig-Holstein"}},{"name":"Kronshorster Brücke","postalCode":"21465","locality":"Reinbek","municipality":{"key":"01062060","name":"Reinbek, Stadt","type":"Stadt"},"district":{"key":"01062","name":"Stormarn","type":"Kreis"},"federalState":{"key":"01","name":"Schleswig-Holstein"}},{"name":"Kronshorster Weg","postalCode":"21465","locality":"Reinbek","municipality":{"key":"01062060","name":"Reinbek, Stadt","type":"Stadt"},"district":{"key":"01062","name":"Stormarn","type":"Kreis"},"federalState":{"key":"01","name":"Schleswig-Holstein"}},{"name":"Krummbögen","postalCode":"21465","locality":"Reinbek","municipality":{"key":"01062060","name":"Reinbek, Stadt","type":"Stadt"},"district":{"key":"01062","name":"Stormarn","type":"Kreis"},"federalState":{"key":"01","name":"Schleswig-Holstein"}},{"name":"Krummwisch","postalCode":"21465","locality":"Reinbek","municipality":{"key":"01062060","name":"Reinbek, Stadt","type":"Stadt"},"district":{"key":"01062","name":"Stormarn","type":"Kreis"},"federalState":{"key":"01","name":"Schleswig-Holstein"}},{"name":"Kückallee","postalCode":"21465","locality":"Reinbek","municipality":{"key":"01062060","name":"Reinbek, Stadt","type":"Stadt"},"district":{"key":"01062","name":"Stormarn","type":"Kreis"},"federalState":{"key":"01","name":"Schleswig-Holstein"}},{"name":"Küpergang","postalCode":"21465","locality":"Reinbek","municipality":{"key":"01062060","name":"Reinbek, Stadt","type":"Stadt"},"district":{"key":"01062","name":"Stormarn","type":"Kreis"},"federalState":{"key":"01","name":"Schleswig-Holstein"}},{"name":"Kurze Rade","postalCode":"21465","locality":"Reinbek","municipality":{"key":"01062060","name":"Reinbek, Stadt","type":"Stadt"},"district":{"key":"01062","name":"Stormarn","type":"Kreis"},"federalState":{"key":"01","name":"Schleswig-Holstein"}},{"name":"Kurzer Rehm","postalCode":"21465","locality":"Reinbek","municipality":{"key":"01062060","name":"Reinbek, Stadt","type":"Stadt"},"district":{"key":"01062","name":"Stormarn","type":"Kreis"},"federalState":{"key":"01","name":"Schleswig-Holstein"}},{"name":"Küstriner Weg","postalCode":"21465","locality":"Reinbek","municipality":{"key":"01062060","name":"Reinbek, Stadt","type":"Stadt"},"district":{"key":"01062","name":"Stormarn","type":"Kreis"},"federalState":{"key":"01","name":"Schleswig-Holstein"}},{"name":"Ladestr.","postalCode":"21465","locality":"Reinbek","municipality":{"key":"01062060","name":"Reinbek, Stadt","type":"Stadt"},"district":{"key":"01062","name":"Stormarn","type":"Kreis"},"federalState":{"key":"01","name":"Schleswig-Holstein"}},{"name":"Langeloher Weg","postalCode":"21465","locality":"Reinbek","municipality":{"key":"01062060","name":"Reinbek, Stadt","type":"Stadt"},"district":{"key":"01062","name":"Stormarn","type":"Kreis"},"federalState":{"key":"01","name":"Schleswig-Holstein"}},{"name":"Langenhege","postalCode":"21465","locality":"Reinbek","municipality":{"key":"01062060","name":"Reinbek, Stadt","type":"Stadt"},"district":{"key":"01062","name":"Stormarn","type":"Kreis"},"federalState":{"key":"01","name":"Schleswig-Holstein"}},{"name":"Lauenburger Str.","postalCode":"21465","locality":"Reinbek","municipality":{"key":"01062060","name":"Reinbek, Stadt","type":"Stadt"},"district":{"key":"01062","name":"Stormarn","type":"Kreis"},"federalState":{"key":"01","name":"Schleswig-Holstein"}},{"name":"Lausitzer Weg","postalCode":"21465","locality":"Reinbek","municipality":{"key":"01062060","name":"Reinbek, Stadt","type":"Stadt"},"district":{"key":"01062","name":"Stormarn","type":"Kreis"},"federalState":{"key":"01","name":"Schleswig-Holstein"}},{"name":"Lerchenweg","postalCode":"21465","locality":"Reinbek","municipality":{"key":"01062060","name":"Reinbek, Stadt","type":"Stadt"},"district":{"key":"01062","name":"Stormarn","type":"Kreis"},"federalState":{"key":"01","name":"Schleswig-Holstein"}},{"name":"Lessingstr.","postalCode":"21465","locality":"Reinbek","municipality":{"key":"01062060","name":"Reinbek, Stadt","type":"Stadt"},"district":{"key":"01062","name":"Stormarn","type":"Kreis"},"federalState":{"key":"01","name":"Schleswig-Holstein"}},{"name":"Lichtenberger Weg","postalCode":"21465","locality":"Reinbek","municipality":{"key":"01062060","name":"Reinbek, Stadt","type":"Stadt"},"district":{"key":"01062","name":"Stormarn","type":"Kreis"},"federalState":{"key":"01","name":"Schleswig-Holstein"}},{"name":"Liebigstr.","postalCode":"21465","locality":"Reinbek","municipality":{"key":"01062060","name":"Reinbek, Stadt","type":"Stadt"},"district":{"key":"01062","name":"Stormarn","type":"Kreis"},"federalState":{"key":"01","name":"Schleswig-Holstein"}},{"name":"Lindenallee","postalCode":"21465","locality":"Reinbek","municipality":{"key":"01062060","name":"Reinbek, Stadt","type":"Stadt"},"district":{"key":"01062","name":"Stormarn","type":"Kreis"},"federalState":{"key":"01","name":"Schleswig-Holstein"}},{"name":"Lindensteg","postalCode":"21465","locality":"Reinbek","municipality":{"key":"01062060","name":"Reinbek, Stadt","type":"Stadt"},"district":{"key":"01062","name":"Stormarn","type":"Kreis"},"federalState":{"key":"01","name":"Schleswig-Holstein"}},{"name":"Lindenstr.","postalCode":"21465","locality":"Reinbek","municipality":{"key":"01062060","name":"Reinbek, Stadt","type":"Stadt"},"district":{"key":"01062","name":"Stormarn","type":"Kreis"},"federalState":{"key":"01","name":"Schleswig-Holstein"}},{"name":"Loddenallee","postalCode":"21465","locality":"Reinbek","municipality":{"key":"01062060","name":"Reinbek, Stadt","type":"Stadt"},"district":{"key":"01062","name":"Stormarn","type":"Kreis"},"federalState":{"key":"01","name":"Schleswig-Holstein"}},{"name":"Lohbrügger Str.","postalCode":"21465","locality":"Reinbek","municipality":{"key":"01062060","name":"Reinbek, Stadt","type":"Stadt"},"district":{"key":"01062","name":"Stormarn","type":"Kreis"},"federalState":{"key":"01","name":"Schleswig-Holstein"}},{"name":"Lönsberg","postalCode":"21465","locality":"Reinbek","municipality":{"key":"01062060","name":"Reinbek, Stadt","type":"Stadt"},"district":{"key":"01062","name":"Stormarn","type":"Kreis"},"federalState":{"key":"01","name":"Schleswig-Holstein"}},{"name":"Lübecker Str.","postalCode":"21465","locality":"Reinbek","municipality":{"key":"01062060","name":"Reinbek, Stadt","type":"Stadt"},"district":{"key":"01062","name":"Stormarn","type":"Kreis"},"federalState":{"key":"01","name":"Schleswig-Holstein"}},{"name":"Maria-Merkert-Str.","postalCode":"21465","locality":"Reinbek","municipality":{"key":"01062060","name":"Reinbek, Stadt","type":"Stadt"},"district":{"key":"01062","name":"Stormarn","type":"Kreis"},"federalState":{"key":"01","name":"Schleswig-Holstein"}},{"name":"Masurenweg","postalCode":"21465","locality":"Reinbek","municipality":{"key":"01062060","name":"Reinbek, Stadt","type":"Stadt"},"district":{"key":"01062","name":"Stormarn","type":"Kreis"},"federalState":{"key":"01","name":"Schleswig-Holstein"}},{"name":"Matthias-Claudius-Str.","postalCode":"21465","locality":"Reinbek","municipality":{"key":"01062060","name":"Reinbek, Stadt","type":"Stadt"},"district":{"key":"01062","name":"Stormarn","type":"Kreis"},"federalState":{"key":"01","name":"Schleswig-Holstein"}},{"name":"Memeler Weg","postalCode":"21465","locality":"Reinbek","municipality":{"key":"01062060","name":"Reinbek, Stadt","type":"Stadt"},"district":{"key":"01062","name":"Stormarn","type":"Kreis"},"federalState":{"key":"01","name":"Schleswig-Holstein"}},{"name":"Mittelweg","postalCode":"21465","locality":"Reinbek","municipality":{"key":"01062060","name":"Reinbek, Stadt","type":"Stadt"},"district":{"key":"01062","name":"Stormarn","type":"Kreis"},"federalState":{"key":"01","name":"Schleswig-Holstein"}},{"name":"Möllner Landstr.","postalCode":"21465","locality":"Reinbek","municipality":{"key":"01062060","name":"Reinbek, Stadt","type":"Stadt"},"district":{"key":"01062","name":"Stormarn","type":"Kreis"},"federalState":{"key":"01","name":"Schleswig-Holstein"}},{"name":"Mühlenbek","postalCode":"21465","locality":"Reinbek","municipality":{"key":"01062060","name":"Reinbek, Stadt","type":"Stadt"},"district":{"key":"01062","name":"Stormarn","type":"Kreis"},"federalState":{"key":"01","name":"Schleswig-Holstein"}},{"name":"Mühlenredder","postalCode":"21465","locality":"Reinbek","municipality":{"key":"01062060","name":"Reinbek, Stadt","type":"Stadt"},"district":{"key":"01062","name":"Stormarn","type":"Kreis"},"federalState":{"key":"01","name":"Schleswig-Holstein"}},{"name":"Mühlenweg","postalCode":"21465","locality":"Reinbek","municipality":{"key":"01062060","name":"Reinbek, Stadt","type":"Stadt"},"district":{"key":"01062","name":"Stormarn","type":"Kreis"},"federalState":{"key":"01","name":"Schleswig-Holstein"}},{"name":"Müssenredder","postalCode":"21465","locality":"Reinbek","municipality":{"key":"01062060","name":"Reinbek, Stadt","type":"Stadt"},"district":{"key":"01062","name":"Stormarn","type":"Kreis"},"federalState":{"key":"01","name":"Schleswig-Holstein"}},{"name":"Nachtigallenweg","postalCode":"21465","locality":"Reinbek","municipality":{"key":"01062060","name":"Reinbek, Stadt","type":"Stadt"},"district":{"key":"01062","name":"Stormarn","type":"Kreis"},"federalState":{"key":"01","name":"Schleswig-Holstein"}},{"name":"Nelkenstr.","postalCode":"21465","locality":"Reinbek","municipality":{"key":"01062060","name":"Reinbek, Stadt","type":"Stadt"},"district":{"key":"01062","name":"Stormarn","type":"Kreis"},"federalState":{"key":"01","name":"Schleswig-Holstein"}},{"name":"Neuköllner Weg","postalCode":"21465","locality":"Reinbek","municipality":{"key":"01062060","name":"Reinbek, Stadt","type":"Stadt"},"district":{"key":"01062","name":"Stormarn","type":"Kreis"},"federalState":{"key":"01","name":"Schleswig-Holstein"}},{"name":"Niels-Stensen-Weg","postalCode":"21465","locality":"Reinbek","municipality":{"key":"01062060","name":"Reinbek, Stadt","type":"Stadt"},"district":{"key":"01062","name":"Stormarn","type":"Kreis"},"federalState":{"key":"01","name":"Schleswig-Holstein"}},{"name":"Obere Bahnstr.","postalCode":"21465","locality":"Reinbek","municipality":{"key":"01062060","name":"Reinbek, Stadt","type":"Stadt"},"district":{"key":"01062","name":"Stormarn","type":"Kreis"},"federalState":{"key":"01","name":"Schleswig-Holstein"}},{"name":"Oher Str.","postalCode":"21465","locality":"Reinbek","municipality":{"key":"01062060","name":"Reinbek, Stadt","type":"Stadt"},"district":{"key":"01062","name":"Stormarn","type":"Kreis"},"federalState":{"key":"01","name":"Schleswig-Holstein"}},{"name":"Oher Tannen","postalCode":"21465","locality":"Reinbek","municipality":{"key":"01062060","name":"Reinbek, Stadt","type":"Stadt"},"district":{"key":"01062","name":"Stormarn","type":"Kreis"},"federalState":{"key":"01","name":"Schleswig-Holstein"}},{"name":"Oher Weg","postalCode":"21465","locality":"Reinbek","municipality":{"key":"01062060","name":"Reinbek, Stadt","type":"Stadt"},"district":{"key":"01062","name":"Stormarn","type":"Kreis"},"federalState":{"key":"01","name":"Schleswig-Holstein"}},{"name":"Oher-Weg-Brücke","postalCode":"21465","locality":"Reinbek","municipality":{"key":"01062060","name":"Reinbek, Stadt","type":"Stadt"},"district":{"key":"01062","name":"Stormarn","type":"Kreis"},"federalState":{"key":"01","name":"Schleswig-Holstein"}},{"name":"Op den Stüben","postalCode":"21465","locality":"Reinbek","municipality":{"key":"01062060","name":"Reinbek, Stadt","type":"Stadt"},"district":{"key":"01062","name":"Stormarn","type":"Kreis"},"federalState":{"key":"01","name":"Schleswig-Holstein"}},{"name":"Op de Rüm","postalCode":"21465","locality":"Reinbek","municipality":{"key":"01062060","name":"Reinbek, Stadt","type":"Stadt"},"district":{"key":"01062","name":"Stormarn","type":"Kreis"},"federalState":{"key":"01","name":"Schleswig-Holstein"}},{"name":"Ostlandring","postalCode":"21465","locality":"Reinbek","municipality":{"key":"01062060","name":"Reinbek, Stadt","type":"Stadt"},"district":{"key":"01062","name":"Stormarn","type":"Kreis"},"federalState":{"key":"01","name":"Schleswig-Holstein"}},{"name":"Padasjoki Platz","postalCode":"21465","locality":"Reinbek","municipality":{"key":"01062060","name":"Reinbek, Stadt","type":"Stadt"},"district":{"key":"01062","name":"Stormarn","type":"Kreis"},"federalState":{"key":"01","name":"Schleswig-Holstein"}},{"name":"Parkallee","postalCode":"21465","locality":"Reinbek","municipality":{"key":"01062060","name":"Reinbek, Stadt","type":"Stadt"},"district":{"key":"01062","name":"Stormarn","type":"Kreis"},"federalState":{"key":"01","name":"Schleswig-Holstein"}},{"name":"Park Ebereschenweg","postalCode":"21465","locality":"Reinbek","municipality":{"key":"01062060","name":"Reinbek, Stadt","type":"Stadt"},"district":{"key":"01062","name":"Stormarn","type":"Kreis"},"federalState":{"key":"01","name":"Schleswig-Holstein"}},{"name":"Park Gartenstr.","postalCode":"21465","locality":"Reinbek","municipality":{"key":"01062060","name":"Reinbek, Stadt","type":"Stadt"},"district":{"key":"01062","name":"Stormarn","type":"Kreis"},"federalState":{"key":"01","name":"Schleswig-Holstein"}},{"name":"Pillauer Weg","postalCode":"21465","locality":"Reinbek","municipality":{"key":"01062060","name":"Reinbek, Stadt","type":"Stadt"},"district":{"key":"01062","name":"Stormarn","type":"Kreis"},"federalState":{"key":"01","name":"Schleswig-Holstein"}},{"name":"Platanenweg","postalCode":"21465","locality":"Reinbek","municipality":{"key":"01062060","name":"Reinbek, Stadt","type":"Stadt"},"district":{"key":"01062","name":"Stormarn","type":"Kreis"},"federalState":{"key":"01","name":"Schleswig-Holstein"}},{"name":"Prahlsdorfer Weg","postalCode":"21465","locality":"Reinbek","municipality":{"key":"01062060","name":"Reinbek, Stadt","type":"Stadt"},"district":{"key":"01062","name":"Stormarn","type":"Kreis"},"federalState":{"key":"01","name":"Schleswig-Holstein"}},{"name":"Querweg","postalCode":"21465","locality":"Reinbek","municipality":{"key":"01062060","name":"Reinbek, Stadt","type":"Stadt"},"district":{"key":"01062","name":"Stormarn","type":"Kreis"},"federalState":{"key":"01","name":"Schleswig-Holstein"}},{"name":"Rade","postalCode":"21465","locality":"Reinbek","municipality":{"key":"01062060","name":"Reinbek, Stadt","type":"Stadt"},"district":{"key":"01062","name":"Stormarn","type":"Kreis"},"federalState":{"key":"01","name":"Schleswig-Holstein"}},{"name":"Rehwinkel","postalCode":"21465","locality":"Reinbek","municipality":{"key":"01062060","name":"Reinbek, Stadt","type":"Stadt"},"district":{"key":"01062","name":"Stormarn","type":"Kreis"},"federalState":{"key":"01","name":"Schleswig-Holstein"}},{"name":"Reinbeker Weg","postalCode":"21465","locality":"Reinbek","municipality":{"key":"01062060","name":"Reinbek, Stadt","type":"Stadt"},"district":{"key":"01062","name":"Stormarn","type":"Kreis"},"federalState":{"key":"01","name":"Schleswig-Holstein"}},{"name":"Reinickendorfer Weg","postalCode":"21465","locality":"Reinbek","municipality":{"key":"01062060","name":"Reinbek, Stadt","type":"Stadt"},"district":{"key":"01062","name":"Stormarn","type":"Kreis"},"federalState":{"key":"01","name":"Schleswig-Holstein"}},{"name":"Reuterweg","postalCode":"21465","locality":"Reinbek","municipality":{"key":"01062060","name":"Reinbek, Stadt","type":"Stadt"},"district":{"key":"01062","name":"Stormarn","type":"Kreis"},"federalState":{"key":"01","name":"Schleswig-Holstein"}},{"name":"Robinienweg","postalCode":"21465","locality":"Reinbek","municipality":{"key":"01062060","name":"Reinbek, Stadt","type":"Stadt"},"district":{"key":"01062","name":"Stormarn","type":"Kreis"},"federalState":{"key":"01","name":"Schleswig-Holstein"}},{"name":"Roggenkamp","postalCode":"21465","locality":"Reinbek","municipality":{"key":"01062060","name":"Reinbek, Stadt","type":"Stadt"},"district":{"key":"01062","name":"Stormarn","type":"Kreis"},"federalState":{"key":"01","name":"Schleswig-Holstein"}},{"name":"Röhbrookring","postalCode":"21465","locality":"Reinbek","municipality":{"key":"01062060","name":"Reinbek, Stadt","type":"Stadt"},"district":{"key":"01062","name":"Stormarn","type":"Kreis"},"federalState":{"key":"01","name":"Schleswig-Holstein"}},{"name":"Röntgenstr.","postalCode":"21465","locality":"Reinbek","municipality":{"key":"01062060","name":"Reinbek, Stadt","type":"Stadt"},"district":{"key":"01062","name":"Stormarn","type":"Kreis"},"federalState":{"key":"01","name":"Schleswig-Holstein"}},{"name":"Rosenstr.","postalCode":"21465","locality":"Reinbek","municipality":{"key":"01062060","name":"Reinbek, Stadt","type":"Stadt"},"district":{"key":"01062","name":"Stormarn","type":"Kreis"},"federalState":{"key":"01","name":"Schleswig-Holstein"}},{"name":"Rosenweg","postalCode":"21465","locality":"Reinbek","municipality":{"key":"01062060","name":"Reinbek, Stadt","type":"Stadt"},"district":{"key":"01062","name":"Stormarn","type":"Kreis"},"federalState":{"key":"01","name":"Schleswig-Holstein"}},{"name":"Rübezahlweg","postalCode":"21465","locality":"Reinbek","municipality":{"key":"01062060","name":"Reinbek, Stadt","type":"Stadt"},"district":{"key":"01062","name":"Stormarn","type":"Kreis"},"federalState":{"key":"01","name":"Schleswig-Holstein"}},{"name":"Sachsenwaldau","postalCode":"21465","locality":"Reinbek","municipality":{"key":"01062060","name":"Reinbek, Stadt","type":"Stadt"},"district":{"key":"01062","name":"Stormarn","type":"Kreis"},"federalState":{"key":"01","name":"Schleswig-Holstein"}},{"name":"Sachsenwaldstr.","postalCode":"21465","locality":"Reinbek","municipality":{"key":"01062060","name":"Reinbek, Stadt","type":"Stadt"},"district":{"key":"01062","name":"Stormarn","type":"Kreis"},"federalState":{"key":"01","name":"Schleswig-Holstein"}},{"name":"Salkoppel","postalCode":"21465","locality":"Reinbek","municipality":{"key":"01062060","name":"Reinbek, Stadt","type":"Stadt"},"district":{"key":"01062","name":"Stormarn","type":"Kreis"},"federalState":{"key":"01","name":"Schleswig-Holstein"}},{"name":"Samlandweg","postalCode":"21465","locality":"Reinbek","municipality":{"key":"01062060","name":"Reinbek, Stadt","type":"Stadt"},"district":{"key":"01062","name":"Stormarn","type":"Kreis"},"federalState":{"key":"01","name":"Schleswig-Holstein"}},{"name":"Sandhöhe","postalCode":"21465","locality":"Reinbek","municipality":{"key":"01062060","name":"Reinbek, Stadt","type":"Stadt"},"district":{"key":"01062","name":"Stormarn","type":"Kreis"},"federalState":{"key":"01","name":"Schleswig-Holstein"}},{"name":"Sandkamp","postalCode":"21465","locality":"Reinbek","municipality":{"key":"01062060","name":"Reinbek, Stadt","type":"Stadt"},"district":{"key":"01062","name":"Stormarn","type":"Kreis"},"federalState":{"key":"01","name":"Schleswig-Holstein"}},{"name":"Sandweg","postalCode":"21465","locality":"Reinbek","municipality":{"key":"01062060","name":"Reinbek, Stadt","type":"Stadt"},"district":{"key":"01062","name":"Stormarn","type":"Kreis"},"federalState":{"key":"01","name":"Schleswig-Holstein"}},{"name":"Schäfers Kamp","postalCode":"21465","locality":"Reinbek","municipality":{"key":"01062060","name":"Reinbek, Stadt","type":"Stadt"},"district":{"key":"01062","name":"Stormarn","type":"Kreis"},"federalState":{"key":"01","name":"Schleswig-Holstein"}},{"name":"Schanze","postalCode":"21465","locality":"Reinbek","municipality":{"key":"01062060","name":"Reinbek, Stadt","type":"Stadt"},"district":{"key":"01062","name":"Stormarn","type":"Kreis"},"federalState":{"key":"01","name":"Schleswig-Holstein"}},{"name":"Schatzkammer","postalCode":"21465","locality":"Reinbek","municipality":{"key":"01062060","name":"Reinbek, Stadt","type":"Stadt"},"district":{"key":"01062","name":"Stormarn","type":"Kreis"},"federalState":{"key":"01","name":"Schleswig-Holstein"}},{"name":"Schaumanns Kamp","postalCode":"21465","locality":"Reinbek","municipality":{"key":"01062060","name":"Reinbek, Stadt","type":"Stadt"},"district":{"key":"01062","name":"Stormarn","type":"Kreis"},"federalState":{"key":"01","name":"Schleswig-Holstein"}},{"name":"Schillerstr.","postalCode":"21465","locality":"Reinbek","municipality":{"key":"01062060","name":"Reinbek, Stadt","type":"Stadt"},"district":{"key":"01062","name":"Stormarn","type":"Kreis"},"federalState":{"key":"01","name":"Schleswig-Holstein"}},{"name":"Schlesierweg","postalCode":"21465","locality":"Reinbek","municipality":{"key":"01062060","name":"Reinbek, Stadt","type":"Stadt"},"district":{"key":"01062","name":"Stormarn","type":"Kreis"},"federalState":{"key":"01","name":"Schleswig-Holstein"}},{"name":"Schleswiger Str.","postalCode":"21465","locality":"Reinbek","municipality":{"key":"01062060","name":"Reinbek, Stadt","type":"Stadt"},"district":{"key":"01062","name":"Stormarn","type":"Kreis"},"federalState":{"key":"01","name":"Schleswig-Holstein"}},{"name":"Schlosspark","postalCode":"21465","locality":"Reinbek","municipality":{"key":"01062060","name":"Reinbek, Stadt","type":"Stadt"},"district":{"key":"01062","name":"Stormarn","type":"Kreis"},"federalState":{"key":"01","name":"Schleswig-Holstein"}},{"name":"Schloßstr.","postalCode":"21465","locality":"Reinbek","municipality":{"key":"01062060","name":"Reinbek, Stadt","type":"Stadt"},"district":{"key":"01062","name":"Stormarn","type":"Kreis"},"federalState":{"key":"01","name":"Schleswig-Holstein"}},{"name":"Schmiedesberg","postalCode":"21465","locality":"Reinbek","municipality":{"key":"01062060","name":"Reinbek, Stadt","type":"Stadt"},"district":{"key":"01062","name":"Stormarn","type":"Kreis"},"federalState":{"key":"01","name":"Schleswig-Holstein"}},{"name":"Schneewittchenweg","postalCode":"21465","locality":"Reinbek","municipality":{"key":"01062060","name":"Reinbek, Stadt","type":"Stadt"},"district":{"key":"01062","name":"Stormarn","type":"Kreis"},"federalState":{"key":"01","name":"Schleswig-Holstein"}},{"name":"Scholtzstr.","postalCode":"21465","locality":"Reinbek","municipality":{"key":"01062060","name":"Reinbek, Stadt","type":"Stadt"},"district":{"key":"01062","name":"Stormarn","type":"Kreis"},"federalState":{"key":"01","name":"Schleswig-Holstein"}},{"name":"Schönauer Weg","postalCode":"21465","locality":"Reinbek","municipality":{"key":"01062060","name":"Reinbek, Stadt","type":"Stadt"},"district":{"key":"01062","name":"Stormarn","type":"Kreis"},"federalState":{"key":"01","name":"Schleswig-Holstein"}},{"name":"Schöneberger Weg","postalCode":"21465","locality":"Reinbek","municipality":{"key":"01062060","name":"Reinbek, Stadt","type":"Stadt"},"district":{"key":"01062","name":"Stormarn","type":"Kreis"},"federalState":{"key":"01","name":"Schleswig-Holstein"}},{"name":"Schönningstedter Str.","postalCode":"21465","locality":"Reinbek","municipality":{"key":"01062060","name":"Reinbek, Stadt","type":"Stadt"},"district":{"key":"01062","name":"Stormarn","type":"Kreis"},"federalState":{"key":"01","name":"Schleswig-Holstein"}},{"name":"Schröders Koppel","postalCode":"21465","locality":"Reinbek","municipality":{"key":"01062060","name":"Reinbek, Stadt","type":"Stadt"},"district":{"key":"01062","name":"Stormarn","type":"Kreis"},"federalState":{"key":"01","name":"Schleswig-Holstein"}},{"name":"Schröders Stieg","postalCode":"21465","locality":"Reinbek","municipality":{"key":"01062060","name":"Reinbek, Stadt","type":"Stadt"},"district":{"key":"01062","name":"Stormarn","type":"Kreis"},"federalState":{"key":"01","name":"Schleswig-Holstein"}},{"name":"Schulstr.","postalCode":"21465","locality":"Reinbek","municipality":{"key":"01062060","name":"Reinbek, Stadt","type":"Stadt"},"district":{"key":"01062","name":"Stormarn","type":"Kreis"},"federalState":{"key":"01","name":"Schleswig-Holstein"}},{"name":"Schützenstr.","postalCode":"21465","locality":"Reinbek","municipality":{"key":"01062060","name":"Reinbek, Stadt","type":"Stadt"},"district":{"key":"01062","name":"Stormarn","type":"Kreis"},"federalState":{"key":"01","name":"Schleswig-Holstein"}},{"name":"Schweriner Weg","postalCode":"21465","locality":"Reinbek","municipality":{"key":"01062060","name":"Reinbek, Stadt","type":"Stadt"},"district":{"key":"01062","name":"Stormarn","type":"Kreis"},"federalState":{"key":"01","name":"Schleswig-Holstein"}},{"name":"Segeberger Str.","postalCode":"21465","locality":"Reinbek","municipality":{"key":"01062060","name":"Reinbek, Stadt","type":"Stadt"},"district":{"key":"01062","name":"Stormarn","type":"Kreis"},"federalState":{"key":"01","name":"Schleswig-Holstein"}},{"name":"Senefelder-Ring","postalCode":"21465","locality":"Reinbek","municipality":{"key":"01062060","name":"Reinbek, Stadt","type":"Stadt"},"district":{"key":"01062","name":"Stormarn","type":"Kreis"},"federalState":{"key":"01","name":"Schleswig-Holstein"}},{"name":"Silker Weg","postalCode":"21465","locality":"Reinbek","municipality":{"key":"01062060","name":"Reinbek, Stadt","type":"Stadt"},"district":{"key":"01062","name":"Stormarn","type":"Kreis"},"federalState":{"key":"01","name":"Schleswig-Holstein"}},{"name":"Silker Weiche","postalCode":"21465","locality":"Reinbek","municipality":{"key":"01062060","name":"Reinbek, Stadt","type":"Stadt"},"district":{"key":"01062","name":"Stormarn","type":"Kreis"},"federalState":{"key":"01","name":"Schleswig-Holstein"}},{"name":"Soltaus Koppel","postalCode":"21465","locality":"Reinbek","municipality":{"key":"01062060","name":"Reinbek, Stadt","type":"Stadt"},"district":{"key":"01062","name":"Stormarn","type":"Kreis"},"federalState":{"key":"01","name":"Schleswig-Holstein"}},{"name":"Sonstkoppel","postalCode":"21465","locality":"Reinbek","municipality":{"key":"01062060","name":"Reinbek, Stadt","type":"Stadt"},"district":{"key":"01062","name":"Stormarn","type":"Kreis"},"federalState":{"key":"01","name":"Schleswig-Holstein"}},{"name":"Sophienstr.","postalCode":"21465","locality":"Reinbek","municipality":{"key":"01062060","name":"Reinbek, Stadt","type":"Stadt"},"district":{"key":"01062","name":"Stormarn","type":"Kreis"},"federalState":{"key":"01","name":"Schleswig-Holstein"}},{"name":"Spandauer Weg","postalCode":"21465","locality":"Reinbek","municipality":{"key":"01062060","name":"Reinbek, Stadt","type":"Stadt"},"district":{"key":"01062","name":"Stormarn","type":"Kreis"},"federalState":{"key":"01","name":"Schleswig-Holstein"}},{"name":"Stargarder Weg","postalCode":"21465","locality":"Reinbek","municipality":{"key":"01062060","name":"Reinbek, Stadt","type":"Stadt"},"district":{"key":"01062","name":"Stormarn","type":"Kreis"},"federalState":{"key":"01","name":"Schleswig-Holstein"}},{"name":"Steglitzer Weg","postalCode":"21465","locality":"Reinbek","municipality":{"key":"01062060","name":"Reinbek, Stadt","type":"Stadt"},"district":{"key":"01062","name":"Stormarn","type":"Kreis"},"federalState":{"key":"01","name":"Schleswig-Holstein"}},{"name":"Steinburger Str.","postalCode":"21465","locality":"Reinbek","municipality":{"key":"01062060","name":"Reinbek, Stadt","type":"Stadt"},"district":{"key":"01062","name":"Stormarn","type":"Kreis"},"federalState":{"key":"01","name":"Schleswig-Holstein"}},{"name":"Steinerei","postalCode":"21465","locality":"Reinbek","municipality":{"key":"01062060","name":"Reinbek, Stadt","type":"Stadt"},"district":{"key":"01062","name":"Stormarn","type":"Kreis"},"federalState":{"key":"01","name":"Schleswig-Holstein"}},{"name":"Stemwarder Str.","postalCode":"21465","locality":"Reinbek","municipality":{"key":"01062060","name":"Reinbek, Stadt","type":"Stadt"},"district":{"key":"01062","name":"Stormarn","type":"Kreis"},"federalState":{"key":"01","name":"Schleswig-Holstein"}},{"name":"Stettiner Str.","postalCode":"21465","locality":"Reinbek","municipality":{"key":"01062060","name":"Reinbek, Stadt","type":"Stadt"},"district":{"key":"01062","name":"Stormarn","type":"Kreis"},"federalState":{"key":"01","name":"Schleswig-Holstein"}},{"name":"Stormarnstr.","postalCode":"21465","locality":"Reinbek","municipality":{"key":"01062060","name":"Reinbek, Stadt","type":"Stadt"},"district":{"key":"01062","name":"Stormarn","type":"Kreis"},"federalState":{"key":"01","name":"Schleswig-Holstein"}},{"name":"Störmerweg","postalCode":"21465","locality":"Reinbek","municipality":{"key":"01062060","name":"Reinbek, Stadt","type":"Stadt"},"district":{"key":"01062","name":"Stormarn","type":"Kreis"},"federalState":{"key":"01","name":"Schleswig-Holstein"}},{"name":"Streuobswiese Apfelweg","postalCode":"21465","locality":"Reinbek","municipality":{"key":"01062060","name":"Reinbek, Stadt","type":"Stadt"},"district":{"key":"01062","name":"Stormarn","type":"Kreis"},"federalState":{"key":"01","name":"Schleswig-Holstein"}},{"name":"Tannenallee","postalCode":"21465","locality":"Reinbek","municipality":{"key":"01062060","name":"Reinbek, Stadt","type":"Stadt"},"district":{"key":"01062","name":"Stormarn","type":"Kreis"},"federalState":{"key":"01","name":"Schleswig-Holstein"}},{"name":"Tannenweg","postalCode":"21465","locality":"Reinbek","municipality":{"key":"01062060","name":"Reinbek, Stadt","type":"Stadt"},"district":{"key":"01062","name":"Stormarn","type":"Kreis"},"federalState":{"key":"01","name":"Schleswig-Holstein"}},{"name":"Tempelhofer Weg","postalCode":"21465","locality":"Reinbek","municipality":{"key":"01062060","name":"Reinbek, Stadt","type":"Stadt"},"district":{"key":"01062","name":"Stormarn","type":"Kreis"},"federalState":{"key":"01","name":"Schleswig-Holstein"}},{"name":"Theodor-Storm-Str.","postalCode":"21465","locality":"Reinbek","municipality":{"key":"01062060","name":"Reinbek, Stadt","type":"Stadt"},"district":{"key":"01062","name":"Stormarn","type":"Kreis"},"federalState":{"key":"01","name":"Schleswig-Holstein"}},{"name":"Tiergartenweg","postalCode":"21465","locality":"Reinbek","municipality":{"key":"01062060","name":"Reinbek, Stadt","type":"Stadt"},"district":{"key":"01062","name":"Stormarn","type":"Kreis"},"federalState":{"key":"01","name":"Schleswig-Holstein"}},{"name":"Tilsiter Weg","postalCode":"21465","locality":"Reinbek","municipality":{"key":"01062060","name":"Reinbek, Stadt","type":"Stadt"},"district":{"key":"01062","name":"Stormarn","type":"Kreis"},"federalState":{"key":"01","name":"Schleswig-Holstein"}},{"name":"Tonteichsteg","postalCode":"21465","locality":"Reinbek","municipality":{"key":"01062060","name":"Reinbek, Stadt","type":"Stadt"},"district":{"key":"01062","name":"Stormarn","type":"Kreis"},"federalState":{"key":"01","name":"Schleswig-Holstein"}},{"name":"Treptower Weg","postalCode":"21465","locality":"Reinbek","municipality":{"key":"01062060","name":"Reinbek, Stadt","type":"Stadt"},"district":{"key":"01062","name":"Stormarn","type":"Kreis"},"federalState":{"key":"01","name":"Schleswig-Holstein"}},{"name":"Uhlenbusch","postalCode":"21465","locality":"Reinbek","municipality":{"key":"01062060","name":"Reinbek, Stadt","type":"Stadt"},"district":{"key":"01062","name":"Stormarn","type":"Kreis"},"federalState":{"key":"01","name":"Schleswig-Holstein"}},{"name":"Unter den Eichen","postalCode":"21465","locality":"Reinbek","municipality":{"key":"01062060","name":"Reinbek, Stadt","type":"Stadt"},"district":{"key":"01062","name":"Stormarn","type":"Kreis"},"federalState":{"key":"01","name":"Schleswig-Holstein"}},{"name":"Unter den Linden","postalCode":"21465","locality":"Reinbek","municipality":{"key":"01062060","name":"Reinbek, Stadt","type":"Stadt"},"district":{"key":"01062","name":"Stormarn","type":"Kreis"},"federalState":{"key":"01","name":"Schleswig-Holstein"}},{"name":"Völckers Park","postalCode":"21465","locality":"Reinbek","municipality":{"key":"01062060","name":"Reinbek, Stadt","type":"Stadt"},"district":{"key":"01062","name":"Stormarn","type":"Kreis"},"federalState":{"key":"01","name":"Schleswig-Holstein"}},{"name":"Waldenburger Weg","postalCode":"21465","locality":"Reinbek","municipality":{"key":"01062060","name":"Reinbek, Stadt","type":"Stadt"},"district":{"key":"01062","name":"Stormarn","type":"Kreis"},"federalState":{"key":"01","name":"Schleswig-Holstein"}},{"name":"Waldstr.","postalCode":"21465","locality":"Reinbek","municipality":{"key":"01062060","name":"Reinbek, Stadt","type":"Stadt"},"district":{"key":"01062","name":"Stormarn","type":"Kreis"},"federalState":{"key":"01","name":"Schleswig-Holstein"}},{"name":"Weißenseer Weg","postalCode":"21465","locality":"Reinbek","municipality":{"key":"01062060","name":"Reinbek, Stadt","type":"Stadt"},"district":{"key":"01062","name":"Stormarn","type":"Kreis"},"federalState":{"key":"01","name":"Schleswig-Holstein"}},{"name":"Wildenhofeck","postalCode":"21465","locality":"Reinbek","municipality":{"key":"01062060","name":"Reinbek, Stadt","type":"Stadt"},"district":{"key":"01062","name":"Stormarn","type":"Kreis"},"federalState":{"key":"01","name":"Schleswig-Holstein"}},{"name":"Wilmersdorfer Weg","postalCode":"21465","locality":"Reinbek","municipality":{"key":"01062060","name":"Reinbek, Stadt","type":"Stadt"},"district":{"key":"01062","name":"Stormarn","type":"Kreis"},"federalState":{"key":"01","name":"Schleswig-Holstein"}},{"name":"Wittenkamp","postalCode":"21465","locality":"Reinbek","municipality":{"key":"01062060","name":"Reinbek, Stadt","type":"Stadt"},"district":{"key":"01062","name":"Stormarn","type":"Kreis"},"federalState":{"key":"01","name":"Schleswig-Holstein"}},{"name":"Wohltorfer Brücke","postalCode":"21465","locality":"Reinbek","municipality":{"key":"01062060","name":"Reinbek, Stadt","type":"Stadt"},"district":{"key":"01062","name":"Stormarn","type":"Kreis"},"federalState":{"key":"01","name":"Schleswig-Holstein"}},{"name":"Wohltorfer Str.","postalCode":"21465","locality":"Reinbek","municipality":{"key":"01062060","name":"Reinbek, Stadt","type":"Stadt"},"district":{"key":"01062","name":"Stormarn","type":"Kreis"},"federalState":{"key":"01","name":"Schleswig-Holstein"}},{"name":"Zur Hahnenkoppel","postalCode":"21465","locality":"Reinbek","municipality":{"key":"01062060","name":"Reinbek, Stadt","type":"Stadt"},"district":{"key":"01062","name":"Stormarn","type":"Kreis"},"federalState":{"key":"01","name":"Schleswig-Holstein"}},{"name":"Zur Wolfsschlucht","postalCode":"21465","locality":"Reinbek","municipality":{"key":"01062060","name":"Reinbek, Stadt","type":"Stadt"},"district":{"key":"01062","name":"Stormarn","type":"Kreis"},"federalState":{"key":"01","name":"Schleswig-Holstein"}},]