[{"name":"Albert-Blau-Str.","postalCode":"02827","locality":"Görlitz","municipality":{"key":"14626110","name":"Görlitz, Stadt","type":"Stadt"},"district":{"key":"14626","name":"Görlitz","type":"Landkreis"},"federalState":{"key":"14","name":"Sachsen"}},{"name":"Albrecht-Thaer-Str.","postalCode":"02827","locality":"Görlitz","municipality":{"key":"14626110","name":"Görlitz, Stadt","type":"Stadt"},"district":{"key":"14626","name":"Görlitz","type":"Landkreis"},"federalState":{"key":"14","name":"Sachsen"}},{"name":"Alexander-Bolze-Hof","postalCode":"02828","locality":"Görlitz","municipality":{"key":"14626110","name":"Görlitz, Stadt","type":"Stadt"},"district":{"key":"14626","name":"Görlitz","type":"Landkreis"},"federalState":{"key":"14","name":"Sachsen"}},{"name":"Alex-Horstmann-Str.","postalCode":"02826","locality":"Görlitz","municipality":{"key":"14626110","name":"Görlitz, Stadt","type":"Stadt"},"district":{"key":"14626","name":"Görlitz","type":"Landkreis"},"federalState":{"key":"14","name":"Sachsen"}},{"name":"Alfred-Fehler-Str.","postalCode":"02827","locality":"Görlitz","municipality":{"key":"14626110","name":"Görlitz, Stadt","type":"Stadt"},"district":{"key":"14626","name":"Görlitz","type":"Landkreis"},"federalState":{"key":"14","name":"Sachsen"}},{"name":"Alte Nieskyer Str.","postalCode":"02828","locality":"Görlitz","municipality":{"key":"14626110","name":"Görlitz, Stadt","type":"Stadt"},"district":{"key":"14626","name":"Görlitz","type":"Landkreis"},"federalState":{"key":"14","name":"Sachsen"}},{"name":"Am Bahnhof Weinhübel","postalCode":"02827","locality":"Görlitz","municipality":{"key":"14626110","name":"Görlitz, Stadt","type":"Stadt"},"district":{"key":"14626","name":"Görlitz","type":"Landkreis"},"federalState":{"key":"14","name":"Sachsen"}},{"name":"Am Berge","postalCode":"02827","locality":"Görlitz","municipality":{"key":"14626110","name":"Görlitz, Stadt","type":"Stadt"},"district":{"key":"14626","name":"Görlitz","type":"Landkreis"},"federalState":{"key":"14","name":"Sachsen"}},{"name":"Am Birkenwäldchen","postalCode":"02827","locality":"Görlitz","municipality":{"key":"14626110","name":"Görlitz, Stadt","type":"Stadt"},"district":{"key":"14626","name":"Görlitz","type":"Landkreis"},"federalState":{"key":"14","name":"Sachsen"}},{"name":"Am Feierabendheim","postalCode":"02828","locality":"Görlitz","municipality":{"key":"14626110","name":"Görlitz, Stadt","type":"Stadt"},"district":{"key":"14626","name":"Görlitz","type":"Landkreis"},"federalState":{"key":"14","name":"Sachsen"}},{"name":"Am Flugplatz","postalCode":"02828","locality":"Görlitz","municipality":{"key":"14626110","name":"Görlitz, Stadt","type":"Stadt"},"district":{"key":"14626","name":"Görlitz","type":"Landkreis"},"federalState":{"key":"14","name":"Sachsen"}},{"name":"Am Hang","postalCode":"02828","locality":"Görlitz","municipality":{"key":"14626110","name":"Görlitz, Stadt","type":"Stadt"},"district":{"key":"14626","name":"Görlitz","type":"Landkreis"},"federalState":{"key":"14","name":"Sachsen"}},{"name":"Am Hirschwinkel","postalCode":"02826","locality":"Görlitz","municipality":{"key":"14626110","name":"Görlitz, Stadt","type":"Stadt"},"district":{"key":"14626","name":"Görlitz","type":"Landkreis"},"federalState":{"key":"14","name":"Sachsen"}},{"name":"Am Hopfenberg","postalCode":"02828","locality":"Görlitz","municipality":{"key":"14626110","name":"Görlitz, Stadt","type":"Stadt"},"district":{"key":"14626","name":"Görlitz","type":"Landkreis"},"federalState":{"key":"14","name":"Sachsen"}},{"name":"Am Jugendborn","postalCode":"02828","locality":"Görlitz","municipality":{"key":"14626110","name":"Görlitz, Stadt","type":"Stadt"},"district":{"key":"14626","name":"Görlitz","type":"Landkreis"},"federalState":{"key":"14","name":"Sachsen"}},{"name":"Am Klinikum","postalCode":"02828","locality":"Görlitz","municipality":{"key":"14626110","name":"Görlitz, Stadt","type":"Stadt"},"district":{"key":"14626","name":"Görlitz","type":"Landkreis"},"federalState":{"key":"14","name":"Sachsen"}},{"name":"Am Museum","postalCode":"02826","locality":"Görlitz","municipality":{"key":"14626110","name":"Görlitz, Stadt","type":"Stadt"},"district":{"key":"14626","name":"Görlitz","type":"Landkreis"},"federalState":{"key":"14","name":"Sachsen"}},{"name":"Am Sande","postalCode":"02827","locality":"Görlitz","municipality":{"key":"14626110","name":"Görlitz, Stadt","type":"Stadt"},"district":{"key":"14626","name":"Görlitz","type":"Landkreis"},"federalState":{"key":"14","name":"Sachsen"}},{"name":"Am Schafberg","postalCode":"02827","locality":"Görlitz","municipality":{"key":"14626110","name":"Görlitz, Stadt","type":"Stadt"},"district":{"key":"14626","name":"Görlitz","type":"Landkreis"},"federalState":{"key":"14","name":"Sachsen"}},{"name":"Am Schützenhaus","postalCode":"02826","locality":"Görlitz","municipality":{"key":"14626110","name":"Görlitz, Stadt","type":"Stadt"},"district":{"key":"14626","name":"Görlitz","type":"Landkreis"},"federalState":{"key":"14","name":"Sachsen"}},{"name":"Amselgrund","postalCode":"02826","locality":"Görlitz","municipality":{"key":"14626110","name":"Görlitz, Stadt","type":"Stadt"},"district":{"key":"14626","name":"Görlitz","type":"Landkreis"},"federalState":{"key":"14","name":"Sachsen"}},{"name":"Amselweg","postalCode":"02828","locality":"Görlitz","municipality":{"key":"14626110","name":"Görlitz, Stadt","type":"Stadt"},"district":{"key":"14626","name":"Görlitz","type":"Landkreis"},"federalState":{"key":"14","name":"Sachsen"}},{"name":"Am Stadtgarten","postalCode":"02828","locality":"Görlitz","municipality":{"key":"14626110","name":"Görlitz, Stadt","type":"Stadt"},"district":{"key":"14626","name":"Görlitz","type":"Landkreis"},"federalState":{"key":"14","name":"Sachsen"}},{"name":"Am Stadtpark","postalCode":"02826","locality":"Görlitz","municipality":{"key":"14626110","name":"Görlitz, Stadt","type":"Stadt"},"district":{"key":"14626","name":"Görlitz","type":"Landkreis"},"federalState":{"key":"14","name":"Sachsen"}},{"name":"Am Stockborn","postalCode":"02828","locality":"Görlitz","municipality":{"key":"14626110","name":"Görlitz, Stadt","type":"Stadt"},"district":{"key":"14626","name":"Görlitz","type":"Landkreis"},"federalState":{"key":"14","name":"Sachsen"}},{"name":"Am Wasserwerk","postalCode":"02827","locality":"Görlitz","municipality":{"key":"14626110","name":"Görlitz, Stadt","type":"Stadt"},"district":{"key":"14626","name":"Görlitz","type":"Landkreis"},"federalState":{"key":"14","name":"Sachsen"}},{"name":"Am Wiesengrund","postalCode":"02828","locality":"Görlitz","municipality":{"key":"14626110","name":"Görlitz, Stadt","type":"Stadt"},"district":{"key":"14626","name":"Görlitz","type":"Landkreis"},"federalState":{"key":"14","name":"Sachsen"}},{"name":"Am Windmühlenberg","postalCode":"02828","locality":"Görlitz","municipality":{"key":"14626110","name":"Görlitz, Stadt","type":"Stadt"},"district":{"key":"14626","name":"Görlitz","type":"Landkreis"},"federalState":{"key":"14","name":"Sachsen"}},{"name":"An den Birken","postalCode":"02827","locality":"Görlitz","municipality":{"key":"14626110","name":"Görlitz, Stadt","type":"Stadt"},"district":{"key":"14626","name":"Görlitz","type":"Landkreis"},"federalState":{"key":"14","name":"Sachsen"}},{"name":"An der Alten Ziegelei","postalCode":"02828","locality":"Görlitz","municipality":{"key":"14626110","name":"Görlitz, Stadt","type":"Stadt"},"district":{"key":"14626","name":"Görlitz","type":"Landkreis"},"federalState":{"key":"14","name":"Sachsen"}},{"name":"An der B 99","postalCode":"02827","locality":"Görlitz","municipality":{"key":"14626110","name":"Görlitz, Stadt","type":"Stadt"},"district":{"key":"14626","name":"Görlitz","type":"Landkreis"},"federalState":{"key":"14","name":"Sachsen"}},{"name":"An der Frauenkirche","postalCode":"02826","locality":"Görlitz","municipality":{"key":"14626110","name":"Görlitz, Stadt","type":"Stadt"},"district":{"key":"14626","name":"Görlitz","type":"Landkreis"},"federalState":{"key":"14","name":"Sachsen"}},{"name":"An der Jakobuskirche","postalCode":"02826","locality":"Görlitz","municipality":{"key":"14626110","name":"Görlitz, Stadt","type":"Stadt"},"district":{"key":"14626","name":"Görlitz","type":"Landkreis"},"federalState":{"key":"14","name":"Sachsen"}},{"name":"An der Landeskrone","postalCode":"02827","locality":"Görlitz","municipality":{"key":"14626110","name":"Görlitz, Stadt","type":"Stadt"},"district":{"key":"14626","name":"Görlitz","type":"Landkreis"},"federalState":{"key":"14","name":"Sachsen"}},{"name":"An der Landskronbrauerei","postalCode":"02826","locality":"Görlitz","municipality":{"key":"14626110","name":"Görlitz, Stadt","type":"Stadt"},"district":{"key":"14626","name":"Görlitz","type":"Landkreis"},"federalState":{"key":"14","name":"Sachsen"}},{"name":"An der Obermühle","postalCode":"02826","locality":"Görlitz","municipality":{"key":"14626110","name":"Görlitz, Stadt","type":"Stadt"},"district":{"key":"14626","name":"Görlitz","type":"Landkreis"},"federalState":{"key":"14","name":"Sachsen"}},{"name":"An der Pließnitz","postalCode":"02827","locality":"Görlitz","municipality":{"key":"14626110","name":"Görlitz, Stadt","type":"Stadt"},"district":{"key":"14626","name":"Görlitz","type":"Landkreis"},"federalState":{"key":"14","name":"Sachsen"}},{"name":"An der Sternwarte","postalCode":"02827","locality":"Görlitz","municipality":{"key":"14626110","name":"Görlitz, Stadt","type":"Stadt"},"district":{"key":"14626","name":"Görlitz","type":"Landkreis"},"federalState":{"key":"14","name":"Sachsen"}},{"name":"An der Terrasse","postalCode":"02828","locality":"Görlitz","municipality":{"key":"14626110","name":"Görlitz, Stadt","type":"Stadt"},"district":{"key":"14626","name":"Görlitz","type":"Landkreis"},"federalState":{"key":"14","name":"Sachsen"}},{"name":"An der Weißen Mauer","postalCode":"02826","locality":"Görlitz","municipality":{"key":"14626110","name":"Görlitz, Stadt","type":"Stadt"},"district":{"key":"14626","name":"Görlitz","type":"Landkreis"},"federalState":{"key":"14","name":"Sachsen"}},{"name":"Anker-Garten","postalCode":"02827","locality":"Görlitz","municipality":{"key":"14626110","name":"Görlitz, Stadt","type":"Stadt"},"district":{"key":"14626","name":"Görlitz","type":"Landkreis"},"federalState":{"key":"14","name":"Sachsen"}},{"name":"Anton-Saefkow-Str.","postalCode":"02827","locality":"Görlitz","municipality":{"key":"14626110","name":"Görlitz, Stadt","type":"Stadt"},"district":{"key":"14626","name":"Görlitz","type":"Landkreis"},"federalState":{"key":"14","name":"Sachsen"}},{"name":"Antonstr.","postalCode":"02828","locality":"Görlitz","municipality":{"key":"14626110","name":"Görlitz, Stadt","type":"Stadt"},"district":{"key":"14626","name":"Görlitz","type":"Landkreis"},"federalState":{"key":"14","name":"Sachsen"}},{"name":"Apothekergasse","postalCode":"02826","locality":"Görlitz","municipality":{"key":"14626110","name":"Görlitz, Stadt","type":"Stadt"},"district":{"key":"14626","name":"Görlitz","type":"Landkreis"},"federalState":{"key":"14","name":"Sachsen"}},{"name":"Arndtstr.","postalCode":"02826","locality":"Görlitz","municipality":{"key":"14626110","name":"Görlitz, Stadt","type":"Stadt"},"district":{"key":"14626","name":"Görlitz","type":"Landkreis"},"federalState":{"key":"14","name":"Sachsen"}},{"name":"Arthur-Ullrich-Str.","postalCode":"02827","locality":"Görlitz","municipality":{"key":"14626110","name":"Görlitz, Stadt","type":"Stadt"},"district":{"key":"14626","name":"Görlitz","type":"Landkreis"},"federalState":{"key":"14","name":"Sachsen"}},{"name":"Asternweg","postalCode":"02827","locality":"Görlitz","municipality":{"key":"14626110","name":"Görlitz, Stadt","type":"Stadt"},"district":{"key":"14626","name":"Görlitz","type":"Landkreis"},"federalState":{"key":"14","name":"Sachsen"}},{"name":"Auenblick","postalCode":"02828","locality":"Görlitz","municipality":{"key":"14626110","name":"Görlitz, Stadt","type":"Stadt"},"district":{"key":"14626","name":"Görlitz","type":"Landkreis"},"federalState":{"key":"14","name":"Sachsen"}},{"name":"Auenweg","postalCode":"02827","locality":"Görlitz","municipality":{"key":"14626110","name":"Görlitz, Stadt","type":"Stadt"},"district":{"key":"14626","name":"Görlitz","type":"Landkreis"},"federalState":{"key":"14","name":"Sachsen"}},{"name":"Aufgangsstr.","postalCode":"02827","locality":"Görlitz","municipality":{"key":"14626110","name":"Görlitz, Stadt","type":"Stadt"},"district":{"key":"14626","name":"Görlitz","type":"Landkreis"},"federalState":{"key":"14","name":"Sachsen"}},{"name":"Bäckerstr.","postalCode":"02826","locality":"Görlitz","municipality":{"key":"14626110","name":"Görlitz, Stadt","type":"Stadt"},"district":{"key":"14626","name":"Görlitz","type":"Landkreis"},"federalState":{"key":"14","name":"Sachsen"}},{"name":"Bahnhofstr.","postalCode":"02826","locality":"Görlitz","municipality":{"key":"14626110","name":"Görlitz, Stadt","type":"Stadt"},"district":{"key":"14626","name":"Görlitz","type":"Landkreis"},"federalState":{"key":"14","name":"Sachsen"}},{"name":"Bautzener Str.","postalCode":"02826","locality":"Görlitz","municipality":{"key":"14626110","name":"Görlitz, Stadt","type":"Stadt"},"district":{"key":"14626","name":"Görlitz","type":"Landkreis"},"federalState":{"key":"14","name":"Sachsen"}},{"name":"Beethovenstr.","postalCode":"02827","locality":"Görlitz","municipality":{"key":"14626110","name":"Görlitz, Stadt","type":"Stadt"},"district":{"key":"14626","name":"Görlitz","type":"Landkreis"},"federalState":{"key":"14","name":"Sachsen"}},{"name":"Bei der Peterskirche","postalCode":"02826","locality":"Görlitz","municipality":{"key":"14626110","name":"Görlitz, Stadt","type":"Stadt"},"district":{"key":"14626","name":"Görlitz","type":"Landkreis"},"federalState":{"key":"14","name":"Sachsen"}},{"name":"Bergstr.","postalCode":"02826","locality":"Görlitz","municipality":{"key":"14626110","name":"Görlitz, Stadt","type":"Stadt"},"district":{"key":"14626","name":"Görlitz","type":"Landkreis"},"federalState":{"key":"14","name":"Sachsen"}},{"name":"Berliner Str.","postalCode":"02826","locality":"Görlitz","municipality":{"key":"14626110","name":"Görlitz, Stadt","type":"Stadt"},"district":{"key":"14626","name":"Görlitz","type":"Landkreis"},"federalState":{"key":"14","name":"Sachsen"}},{"name":"Berzdorfer Str.","postalCode":"02827","locality":"Görlitz","municipality":{"key":"14626110","name":"Görlitz, Stadt","type":"Stadt"},"district":{"key":"14626","name":"Görlitz","type":"Landkreis"},"federalState":{"key":"14","name":"Sachsen"}},{"name":"Biesnitzer Fußweg","postalCode":"02826","locality":"Görlitz","municipality":{"key":"14626110","name":"Görlitz, Stadt","type":"Stadt"},"district":{"key":"14626","name":"Görlitz","type":"Landkreis"},"federalState":{"key":"14","name":"Sachsen"}},{"name":"Biesnitzer Str.","postalCode":"02826","locality":"Görlitz","municipality":{"key":"14626110","name":"Görlitz, Stadt","type":"Stadt"},"district":{"key":"14626","name":"Görlitz","type":"Landkreis"},"federalState":{"key":"14","name":"Sachsen"}},{"name":"Biotop","postalCode":"02827","locality":"Görlitz","municipality":{"key":"14626110","name":"Görlitz, Stadt","type":"Stadt"},"district":{"key":"14626","name":"Görlitz","type":"Landkreis"},"federalState":{"key":"14","name":"Sachsen"}},{"name":"Birkenallee","postalCode":"02828","locality":"Görlitz","municipality":{"key":"14626110","name":"Görlitz, Stadt","type":"Stadt"},"district":{"key":"14626","name":"Görlitz","type":"Landkreis"},"federalState":{"key":"14","name":"Sachsen"}},{"name":"Birkenwald","postalCode":"02827","locality":"Görlitz","municipality":{"key":"14626110","name":"Görlitz, Stadt","type":"Stadt"},"district":{"key":"14626","name":"Görlitz","type":"Landkreis"},"federalState":{"key":"14","name":"Sachsen"}},{"name":"Birkenwäldchen","postalCode":"02827","locality":"Görlitz","municipality":{"key":"14626110","name":"Görlitz, Stadt","type":"Stadt"},"district":{"key":"14626","name":"Görlitz","type":"Landkreis"},"federalState":{"key":"14","name":"Sachsen"}},{"name":"Bismarckstr.","postalCode":"02826","locality":"Görlitz","municipality":{"key":"14626110","name":"Görlitz, Stadt","type":"Stadt"},"district":{"key":"14626","name":"Görlitz","type":"Landkreis"},"federalState":{"key":"14","name":"Sachsen"}},{"name":"Blockhausstr.","postalCode":"02826","locality":"Görlitz","municipality":{"key":"14626110","name":"Görlitz, Stadt","type":"Stadt"},"district":{"key":"14626","name":"Görlitz","type":"Landkreis"},"federalState":{"key":"14","name":"Sachsen"}},{"name":"Blumenstr.","postalCode":"02826","locality":"Görlitz","municipality":{"key":"14626110","name":"Görlitz, Stadt","type":"Stadt"},"district":{"key":"14626","name":"Görlitz","type":"Landkreis"},"federalState":{"key":"14","name":"Sachsen"}},{"name":"Bogstr.","postalCode":"02826","locality":"Görlitz","municipality":{"key":"14626110","name":"Görlitz, Stadt","type":"Stadt"},"district":{"key":"14626","name":"Görlitz","type":"Landkreis"},"federalState":{"key":"14","name":"Sachsen"}},{"name":"Bolko-von-Hochberg-Str.","postalCode":"02826","locality":"Görlitz","municipality":{"key":"14626110","name":"Görlitz, Stadt","type":"Stadt"},"district":{"key":"14626","name":"Görlitz","type":"Landkreis"},"federalState":{"key":"14","name":"Sachsen"}},{"name":"Brautwiesenpark","postalCode":"02826","locality":"Görlitz","municipality":{"key":"14626110","name":"Görlitz, Stadt","type":"Stadt"},"district":{"key":"14626","name":"Görlitz","type":"Landkreis"},"federalState":{"key":"14","name":"Sachsen"}},{"name":"Brautwiesenplatz","postalCode":"02826","locality":"Görlitz","municipality":{"key":"14626110","name":"Görlitz, Stadt","type":"Stadt"},"district":{"key":"14626","name":"Görlitz","type":"Landkreis"},"federalState":{"key":"14","name":"Sachsen"}},{"name":"Brautwiesenstr.","postalCode":"02826","locality":"Görlitz","municipality":{"key":"14626110","name":"Görlitz, Stadt","type":"Stadt"},"district":{"key":"14626","name":"Görlitz","type":"Landkreis"},"federalState":{"key":"14","name":"Sachsen"}},{"name":"Brautwiesentunnel","postalCode":"02826","locality":"Görlitz","municipality":{"key":"14626110","name":"Görlitz, Stadt","type":"Stadt"},"district":{"key":"14626","name":"Görlitz","type":"Landkreis"},"federalState":{"key":"14","name":"Sachsen"}},{"name":"Brechtstr.","postalCode":"02827","locality":"Görlitz","municipality":{"key":"14626110","name":"Görlitz, Stadt","type":"Stadt"},"district":{"key":"14626","name":"Görlitz","type":"Landkreis"},"federalState":{"key":"14","name":"Sachsen"}},{"name":"Breite Str.","postalCode":"02826","locality":"Görlitz","municipality":{"key":"14626110","name":"Görlitz, Stadt","type":"Stadt"},"district":{"key":"14626","name":"Görlitz","type":"Landkreis"},"federalState":{"key":"14","name":"Sachsen"}},{"name":"Brücke der Freundschaft","postalCode":"02826","locality":"Görlitz","municipality":{"key":"14626110","name":"Görlitz, Stadt","type":"Stadt"},"district":{"key":"14626","name":"Görlitz","type":"Landkreis"},"federalState":{"key":"14","name":"Sachsen"}},{"name":"Brückenstr.","postalCode":"02826","locality":"Görlitz","municipality":{"key":"14626110","name":"Görlitz, Stadt","type":"Stadt"},"district":{"key":"14626","name":"Görlitz","type":"Landkreis"},"federalState":{"key":"14","name":"Sachsen"}},{"name":"Brücke Papst Johannes Paul II.","postalCode":"02826","locality":"Görlitz","municipality":{"key":"14626110","name":"Görlitz, Stadt","type":"Stadt"},"district":{"key":"14626","name":"Görlitz","type":"Landkreis"},"federalState":{"key":"14","name":"Sachsen"}},{"name":"Brunnenstr.","postalCode":"02826","locality":"Görlitz","municipality":{"key":"14626110","name":"Görlitz, Stadt","type":"Stadt"},"district":{"key":"14626","name":"Görlitz","type":"Landkreis"},"federalState":{"key":"14","name":"Sachsen"}},{"name":"Büchtemannstr.","postalCode":"02826","locality":"Görlitz","municipality":{"key":"14626110","name":"Görlitz, Stadt","type":"Stadt"},"district":{"key":"14626","name":"Görlitz","type":"Landkreis"},"federalState":{"key":"14","name":"Sachsen"}},{"name":"Büttnerstr.","postalCode":"02826","locality":"Görlitz","municipality":{"key":"14626110","name":"Görlitz, Stadt","type":"Stadt"},"district":{"key":"14626","name":"Görlitz","type":"Landkreis"},"federalState":{"key":"14","name":"Sachsen"}},{"name":"Carl-Friedrich-Gauß-Str.","postalCode":"02826","locality":"Görlitz","municipality":{"key":"14626110","name":"Görlitz, Stadt","type":"Stadt"},"district":{"key":"14626","name":"Görlitz","type":"Landkreis"},"federalState":{"key":"14","name":"Sachsen"}},{"name":"Carl-von-Ossietzky-Str.","postalCode":"02826","locality":"Görlitz","municipality":{"key":"14626110","name":"Görlitz, Stadt","type":"Stadt"},"district":{"key":"14626","name":"Görlitz","type":"Landkreis"},"federalState":{"key":"14","name":"Sachsen"}},{"name":"Carolusstr.","postalCode":"02827","locality":"Görlitz","municipality":{"key":"14626110","name":"Görlitz, Stadt","type":"Stadt"},"district":{"key":"14626","name":"Görlitz","type":"Landkreis"},"federalState":{"key":"14","name":"Sachsen"}},{"name":"Christian-Heuck-Str.","postalCode":"02827","locality":"Görlitz","municipality":{"key":"14626110","name":"Görlitz, Stadt","type":"Stadt"},"district":{"key":"14626","name":"Görlitz","type":"Landkreis"},"federalState":{"key":"14","name":"Sachsen"}},{"name":"Christoph-Lüders-Str.","postalCode":"02826","locality":"Görlitz","municipality":{"key":"14626110","name":"Görlitz, Stadt","type":"Stadt"},"district":{"key":"14626","name":"Görlitz","type":"Landkreis"},"federalState":{"key":"14","name":"Sachsen"}},{"name":"Chrysanthemenweg","postalCode":"02827","locality":"Görlitz","municipality":{"key":"14626110","name":"Görlitz, Stadt","type":"Stadt"},"district":{"key":"14626","name":"Görlitz","type":"Landkreis"},"federalState":{"key":"14","name":"Sachsen"}},{"name":"Clara-Zetkin-Str.","postalCode":"02827","locality":"Görlitz","municipality":{"key":"14626110","name":"Görlitz, Stadt","type":"Stadt"},"district":{"key":"14626","name":"Görlitz","type":"Landkreis"},"federalState":{"key":"14","name":"Sachsen"}},{"name":"Conrad-Schiedt-Str.","postalCode":"02826","locality":"Görlitz","municipality":{"key":"14626110","name":"Görlitz, Stadt","type":"Stadt"},"district":{"key":"14626","name":"Görlitz","type":"Landkreis"},"federalState":{"key":"14","name":"Sachsen"}},{"name":"Cottbuser Str.","postalCode":"02826","locality":"Görlitz","municipality":{"key":"14626110","name":"Görlitz, Stadt","type":"Stadt"},"district":{"key":"14626","name":"Görlitz","type":"Landkreis"},"federalState":{"key":"14","name":"Sachsen"}},{"name":"Dahlienweg","postalCode":"02827","locality":"Görlitz","municipality":{"key":"14626110","name":"Görlitz, Stadt","type":"Stadt"},"district":{"key":"14626","name":"Görlitz","type":"Landkreis"},"federalState":{"key":"14","name":"Sachsen"}},{"name":"Daniel-Riech-Str.","postalCode":"02826","locality":"Görlitz","municipality":{"key":"14626110","name":"Görlitz, Stadt","type":"Stadt"},"district":{"key":"14626","name":"Görlitz","type":"Landkreis"},"federalState":{"key":"14","name":"Sachsen"}},{"name":"Demianiplatz","postalCode":"02826","locality":"Görlitz","municipality":{"key":"14626110","name":"Görlitz, Stadt","type":"Stadt"},"district":{"key":"14626","name":"Görlitz","type":"Landkreis"},"federalState":{"key":"14","name":"Sachsen"}},{"name":"Deutsch-Ossiger-Weg","postalCode":"02827","locality":"Görlitz","municipality":{"key":"14626110","name":"Görlitz, Stadt","type":"Stadt"},"district":{"key":"14626","name":"Görlitz","type":"Landkreis"},"federalState":{"key":"14","name":"Sachsen"}},{"name":"Deutsch-Ossig-Ring","postalCode":"02827","locality":"Görlitz","municipality":{"key":"14626110","name":"Görlitz, Stadt","type":"Stadt"},"district":{"key":"14626","name":"Görlitz","type":"Landkreis"},"federalState":{"key":"14","name":"Sachsen"}},{"name":"Diesterwegplatz","postalCode":"02827","locality":"Görlitz","municipality":{"key":"14626110","name":"Görlitz, Stadt","type":"Stadt"},"district":{"key":"14626","name":"Görlitz","type":"Landkreis"},"federalState":{"key":"14","name":"Sachsen"}},{"name":"Diesterwegstr.","postalCode":"02826","locality":"Görlitz","municipality":{"key":"14626110","name":"Görlitz, Stadt","type":"Stadt"},"district":{"key":"14626","name":"Görlitz","type":"Landkreis"},"federalState":{"key":"14","name":"Sachsen"}},{"name":"Diesterwegstr.","postalCode":"02827","locality":"Görlitz","municipality":{"key":"14626110","name":"Görlitz, Stadt","type":"Stadt"},"district":{"key":"14626","name":"Görlitz","type":"Landkreis"},"federalState":{"key":"14","name":"Sachsen"}},{"name":"Doktor-Kahlbaum-Allee","postalCode":"02826","locality":"Görlitz","municipality":{"key":"14626110","name":"Görlitz, Stadt","type":"Stadt"},"district":{"key":"14626","name":"Görlitz","type":"Landkreis"},"federalState":{"key":"14","name":"Sachsen"}},{"name":"Dorfstr.","postalCode":"02827","locality":"Görlitz","municipality":{"key":"14626110","name":"Görlitz, Stadt","type":"Stadt"},"district":{"key":"14626","name":"Görlitz","type":"Landkreis"},"federalState":{"key":"14","name":"Sachsen"}},{"name":"Dr.-Alfons-Maria-Wachsmann-Siedlung","postalCode":"02827","locality":"Görlitz","municipality":{"key":"14626110","name":"Görlitz, Stadt","type":"Stadt"},"district":{"key":"14626","name":"Görlitz","type":"Landkreis"},"federalState":{"key":"14","name":"Sachsen"}},{"name":"Dresdener Str.","postalCode":"02826","locality":"Görlitz","municipality":{"key":"14626110","name":"Görlitz, Stadt","type":"Stadt"},"district":{"key":"14626","name":"Görlitz","type":"Landkreis"},"federalState":{"key":"14","name":"Sachsen"}},{"name":"Dr.-Friedrichs-Str.","postalCode":"02826","locality":"Görlitz","municipality":{"key":"14626110","name":"Görlitz, Stadt","type":"Stadt"},"district":{"key":"14626","name":"Görlitz","type":"Landkreis"},"federalState":{"key":"14","name":"Sachsen"}},{"name":"Dr.-Kahlbaum-Allee","postalCode":"02826","locality":"Görlitz","municipality":{"key":"14626110","name":"Görlitz, Stadt","type":"Stadt"},"district":{"key":"14626","name":"Görlitz","type":"Landkreis"},"federalState":{"key":"14","name":"Sachsen"}},{"name":"Drosselstr.","postalCode":"02827","locality":"Görlitz","municipality":{"key":"14626110","name":"Görlitz, Stadt","type":"Stadt"},"district":{"key":"14626","name":"Görlitz","type":"Landkreis"},"federalState":{"key":"14","name":"Sachsen"}},{"name":"Eibenweg","postalCode":"02827","locality":"Görlitz","municipality":{"key":"14626110","name":"Görlitz, Stadt","type":"Stadt"},"district":{"key":"14626","name":"Görlitz","type":"Landkreis"},"federalState":{"key":"14","name":"Sachsen"}},{"name":"Eichendorffstr.","postalCode":"02826","locality":"Görlitz","municipality":{"key":"14626110","name":"Görlitz, Stadt","type":"Stadt"},"district":{"key":"14626","name":"Görlitz","type":"Landkreis"},"federalState":{"key":"14","name":"Sachsen"}},{"name":"Einsteinstr.","postalCode":"02827","locality":"Görlitz","municipality":{"key":"14626110","name":"Görlitz, Stadt","type":"Stadt"},"district":{"key":"14626","name":"Görlitz","type":"Landkreis"},"federalState":{"key":"14","name":"Sachsen"}},{"name":"Elisabethstr.","postalCode":"02826","locality":"Görlitz","municipality":{"key":"14626110","name":"Görlitz, Stadt","type":"Stadt"},"district":{"key":"14626","name":"Görlitz","type":"Landkreis"},"federalState":{"key":"14","name":"Sachsen"}},{"name":"Elsternweg","postalCode":"02827","locality":"Görlitz","municipality":{"key":"14626110","name":"Görlitz, Stadt","type":"Stadt"},"district":{"key":"14626","name":"Görlitz","type":"Landkreis"},"federalState":{"key":"14","name":"Sachsen"}},{"name":"Emmerichstr.","postalCode":"02826","locality":"Görlitz","municipality":{"key":"14626110","name":"Görlitz, Stadt","type":"Stadt"},"district":{"key":"14626","name":"Görlitz","type":"Landkreis"},"federalState":{"key":"14","name":"Sachsen"}},{"name":"Erich-Mühsam-Str.","postalCode":"02826","locality":"Görlitz","municipality":{"key":"14626110","name":"Görlitz, Stadt","type":"Stadt"},"district":{"key":"14626","name":"Görlitz","type":"Landkreis"},"federalState":{"key":"14","name":"Sachsen"}},{"name":"Erich-Oppenheimer-Str.","postalCode":"02827","locality":"Görlitz","municipality":{"key":"14626110","name":"Görlitz, Stadt","type":"Stadt"},"district":{"key":"14626","name":"Görlitz","type":"Landkreis"},"federalState":{"key":"14","name":"Sachsen"}},{"name":"Erich-Weinert-Str.","postalCode":"02827","locality":"Görlitz","municipality":{"key":"14626110","name":"Görlitz, Stadt","type":"Stadt"},"district":{"key":"14626","name":"Görlitz","type":"Landkreis"},"federalState":{"key":"14","name":"Sachsen"}},{"name":"Ernst-Thälmann-Platz","postalCode":"02827","locality":"Görlitz","municipality":{"key":"14626110","name":"Görlitz, Stadt","type":"Stadt"},"district":{"key":"14626","name":"Görlitz","type":"Landkreis"},"federalState":{"key":"14","name":"Sachsen"}},{"name":"E-Weinert-Str.","postalCode":"02827","locality":"Görlitz","municipality":{"key":"14626110","name":"Görlitz, Stadt","type":"Stadt"},"district":{"key":"14626","name":"Görlitz","type":"Landkreis"},"federalState":{"key":"14","name":"Sachsen"}},{"name":"Fahrstr.","postalCode":"02827","locality":"Görlitz","municipality":{"key":"14626110","name":"Görlitz, Stadt","type":"Stadt"},"district":{"key":"14626","name":"Görlitz","type":"Landkreis"},"federalState":{"key":"14","name":"Sachsen"}},{"name":"Feuerbachstr.","postalCode":"02827","locality":"Görlitz","municipality":{"key":"14626110","name":"Görlitz, Stadt","type":"Stadt"},"district":{"key":"14626","name":"Görlitz","type":"Landkreis"},"federalState":{"key":"14","name":"Sachsen"}},{"name":"Fichtestr.","postalCode":"02826","locality":"Görlitz","municipality":{"key":"14626110","name":"Görlitz, Stadt","type":"Stadt"},"district":{"key":"14626","name":"Görlitz","type":"Landkreis"},"federalState":{"key":"14","name":"Sachsen"}},{"name":"Finkenweg","postalCode":"02827","locality":"Görlitz","municipality":{"key":"14626110","name":"Görlitz, Stadt","type":"Stadt"},"district":{"key":"14626","name":"Görlitz","type":"Landkreis"},"federalState":{"key":"14","name":"Sachsen"}},{"name":"Finstertorstr.","postalCode":"02828","locality":"Görlitz","municipality":{"key":"14626110","name":"Görlitz, Stadt","type":"Stadt"},"district":{"key":"14626","name":"Görlitz","type":"Landkreis"},"federalState":{"key":"14","name":"Sachsen"}},{"name":"Fischerstr.","postalCode":"02826","locality":"Görlitz","municipality":{"key":"14626110","name":"Görlitz, Stadt","type":"Stadt"},"district":{"key":"14626","name":"Görlitz","type":"Landkreis"},"federalState":{"key":"14","name":"Sachsen"}},{"name":"Fischmarkt","postalCode":"02826","locality":"Görlitz","municipality":{"key":"14626110","name":"Görlitz, Stadt","type":"Stadt"},"district":{"key":"14626","name":"Görlitz","type":"Landkreis"},"federalState":{"key":"14","name":"Sachsen"}},{"name":"Fischmarktstr.","postalCode":"02826","locality":"Görlitz","municipality":{"key":"14626110","name":"Görlitz, Stadt","type":"Stadt"},"district":{"key":"14626","name":"Görlitz","type":"Landkreis"},"federalState":{"key":"14","name":"Sachsen"}},{"name":"Fleischerstr.","postalCode":"02826","locality":"Görlitz","municipality":{"key":"14626110","name":"Görlitz, Stadt","type":"Stadt"},"district":{"key":"14626","name":"Görlitz","type":"Landkreis"},"federalState":{"key":"14","name":"Sachsen"}},{"name":"Fliederweg","postalCode":"02827","locality":"Görlitz","municipality":{"key":"14626110","name":"Görlitz, Stadt","type":"Stadt"},"district":{"key":"14626","name":"Görlitz","type":"Landkreis"},"federalState":{"key":"14","name":"Sachsen"}},{"name":"Florinusweg","postalCode":"02828","locality":"Görlitz","municipality":{"key":"14626110","name":"Görlitz, Stadt","type":"Stadt"},"district":{"key":"14626","name":"Görlitz","type":"Landkreis"},"federalState":{"key":"14","name":"Sachsen"}},{"name":"Franz-Künzer-Str.","postalCode":"02827","locality":"Görlitz","municipality":{"key":"14626110","name":"Görlitz, Stadt","type":"Stadt"},"district":{"key":"14626","name":"Görlitz","type":"Landkreis"},"federalState":{"key":"14","name":"Sachsen"}},{"name":"Frauenburgstr.","postalCode":"02826","locality":"Görlitz","municipality":{"key":"14626110","name":"Görlitz, Stadt","type":"Stadt"},"district":{"key":"14626","name":"Görlitz","type":"Landkreis"},"federalState":{"key":"14","name":"Sachsen"}},{"name":"Friedensstr.","postalCode":"02827","locality":"Görlitz","municipality":{"key":"14626110","name":"Görlitz, Stadt","type":"Stadt"},"district":{"key":"14626","name":"Görlitz","type":"Landkreis"},"federalState":{"key":"14","name":"Sachsen"}},{"name":"Friedersdorfer Str.","postalCode":"02827","locality":"Görlitz","municipality":{"key":"14626110","name":"Görlitz, Stadt","type":"Stadt"},"district":{"key":"14626","name":"Görlitz","type":"Landkreis"},"federalState":{"key":"14","name":"Sachsen"}},{"name":"Friedhofstr.","postalCode":"02828","locality":"Görlitz","municipality":{"key":"14626110","name":"Görlitz, Stadt","type":"Stadt"},"district":{"key":"14626","name":"Görlitz","type":"Landkreis"},"federalState":{"key":"14","name":"Sachsen"}},{"name":"Friedrich-Engels-Str.","postalCode":"02827","locality":"Görlitz","municipality":{"key":"14626110","name":"Görlitz, Stadt","type":"Stadt"},"district":{"key":"14626","name":"Görlitz","type":"Landkreis"},"federalState":{"key":"14","name":"Sachsen"}},{"name":"Friedrich-List-Str.","postalCode":"02827","locality":"Görlitz","municipality":{"key":"14626110","name":"Görlitz, Stadt","type":"Stadt"},"district":{"key":"14626","name":"Görlitz","type":"Landkreis"},"federalState":{"key":"14","name":"Sachsen"}},{"name":"Friedrich-Naumann-Str.","postalCode":"02827","locality":"Görlitz","municipality":{"key":"14626110","name":"Görlitz, Stadt","type":"Stadt"},"district":{"key":"14626","name":"Görlitz","type":"Landkreis"},"federalState":{"key":"14","name":"Sachsen"}},{"name":"Friesenstr.","postalCode":"02827","locality":"Görlitz","municipality":{"key":"14626110","name":"Görlitz, Stadt","type":"Stadt"},"district":{"key":"14626","name":"Görlitz","type":"Landkreis"},"federalState":{"key":"14","name":"Sachsen"}},{"name":"Fritz-Heckert-Str.","postalCode":"02827","locality":"Görlitz","municipality":{"key":"14626110","name":"Görlitz, Stadt","type":"Stadt"},"district":{"key":"14626","name":"Görlitz","type":"Landkreis"},"federalState":{"key":"14","name":"Sachsen"}},{"name":"Fröbelstr.","postalCode":"02826","locality":"Görlitz","municipality":{"key":"14626110","name":"Görlitz, Stadt","type":"Stadt"},"district":{"key":"14626","name":"Görlitz","type":"Landkreis"},"federalState":{"key":"14","name":"Sachsen"}},{"name":"Furtstr.","postalCode":"02826","locality":"Görlitz","municipality":{"key":"14626110","name":"Görlitz, Stadt","type":"Stadt"},"district":{"key":"14626","name":"Görlitz","type":"Landkreis"},"federalState":{"key":"14","name":"Sachsen"}},{"name":"Fußweg im Kidrontal","postalCode":"02828","locality":"Görlitz","municipality":{"key":"14626110","name":"Görlitz, Stadt","type":"Stadt"},"district":{"key":"14626","name":"Görlitz","type":"Landkreis"},"federalState":{"key":"14","name":"Sachsen"}},{"name":"Gartenstr.","postalCode":"02826","locality":"Görlitz","municipality":{"key":"14626110","name":"Görlitz, Stadt","type":"Stadt"},"district":{"key":"14626","name":"Görlitz","type":"Landkreis"},"federalState":{"key":"14","name":"Sachsen"}},{"name":"Gartenweg","postalCode":"02827","locality":"Görlitz","municipality":{"key":"14626110","name":"Görlitz, Stadt","type":"Stadt"},"district":{"key":"14626","name":"Görlitz","type":"Landkreis"},"federalState":{"key":"14","name":"Sachsen"}},{"name":"Georg-Ledebour-Str.","postalCode":"02827","locality":"Görlitz","municipality":{"key":"14626110","name":"Görlitz, Stadt","type":"Stadt"},"district":{"key":"14626","name":"Görlitz","type":"Landkreis"},"federalState":{"key":"14","name":"Sachsen"}},{"name":"Gerberaweg","postalCode":"02827","locality":"Görlitz","municipality":{"key":"14626110","name":"Görlitz, Stadt","type":"Stadt"},"district":{"key":"14626","name":"Görlitz","type":"Landkreis"},"federalState":{"key":"14","name":"Sachsen"}},{"name":"Gerda-Boenke-Str.","postalCode":"02827","locality":"Görlitz","municipality":{"key":"14626110","name":"Görlitz, Stadt","type":"Stadt"},"district":{"key":"14626","name":"Görlitz","type":"Landkreis"},"federalState":{"key":"14","name":"Sachsen"}},{"name":"Gerhart-Hauptmann-Str.","postalCode":"02826","locality":"Görlitz","municipality":{"key":"14626110","name":"Görlitz, Stadt","type":"Stadt"},"district":{"key":"14626","name":"Görlitz","type":"Landkreis"},"federalState":{"key":"14","name":"Sachsen"}},{"name":"Gersdorfstr.","postalCode":"02828","locality":"Görlitz","municipality":{"key":"14626110","name":"Görlitz, Stadt","type":"Stadt"},"district":{"key":"14626","name":"Görlitz","type":"Landkreis"},"federalState":{"key":"14","name":"Sachsen"}},{"name":"Geschwister-Scholl-Str.","postalCode":"02827","locality":"Görlitz","municipality":{"key":"14626110","name":"Görlitz, Stadt","type":"Stadt"},"district":{"key":"14626","name":"Görlitz","type":"Landkreis"},"federalState":{"key":"14","name":"Sachsen"}},{"name":"Girbigsdorfer Str.","postalCode":"02828","locality":"Görlitz","municipality":{"key":"14626110","name":"Görlitz, Stadt","type":"Stadt"},"district":{"key":"14626","name":"Görlitz","type":"Landkreis"},"federalState":{"key":"14","name":"Sachsen"}},{"name":"Girbigsdorfer Weg","postalCode":"02828","locality":"Görlitz","municipality":{"key":"14626110","name":"Görlitz, Stadt","type":"Stadt"},"district":{"key":"14626","name":"Görlitz","type":"Landkreis"},"federalState":{"key":"14","name":"Sachsen"}},{"name":"Gladiolenweg","postalCode":"02827","locality":"Görlitz","municipality":{"key":"14626110","name":"Görlitz, Stadt","type":"Stadt"},"district":{"key":"14626","name":"Görlitz","type":"Landkreis"},"federalState":{"key":"14","name":"Sachsen"}},{"name":"Gobbinstr.","postalCode":"02826","locality":"Görlitz","municipality":{"key":"14626110","name":"Görlitz, Stadt","type":"Stadt"},"district":{"key":"14626","name":"Görlitz","type":"Landkreis"},"federalState":{"key":"14","name":"Sachsen"}},{"name":"Goethestr.","postalCode":"02826","locality":"Görlitz","municipality":{"key":"14626110","name":"Görlitz, Stadt","type":"Stadt"},"district":{"key":"14626","name":"Görlitz","type":"Landkreis"},"federalState":{"key":"14","name":"Sachsen"}},{"name":"Goldregenweg","postalCode":"02827","locality":"Görlitz","municipality":{"key":"14626110","name":"Görlitz, Stadt","type":"Stadt"},"district":{"key":"14626","name":"Görlitz","type":"Landkreis"},"federalState":{"key":"14","name":"Sachsen"}},{"name":"Görlitzer Str.","postalCode":"02827","locality":"Görlitz","municipality":{"key":"14626110","name":"Görlitz, Stadt","type":"Stadt"},"district":{"key":"14626","name":"Görlitz","type":"Landkreis"},"federalState":{"key":"14","name":"Sachsen"}},{"name":"Gottfried-Kiesow-Platz","postalCode":"02826","locality":"Görlitz","municipality":{"key":"14626110","name":"Görlitz, Stadt","type":"Stadt"},"district":{"key":"14626","name":"Görlitz","type":"Landkreis"},"federalState":{"key":"14","name":"Sachsen"}},{"name":"Gottlieb-Daimler-Str.","postalCode":"02828","locality":"Görlitz","municipality":{"key":"14626110","name":"Görlitz, Stadt","type":"Stadt"},"district":{"key":"14626","name":"Görlitz","type":"Landkreis"},"federalState":{"key":"14","name":"Sachsen"}},{"name":"Grenzweg","postalCode":"02827","locality":"Görlitz","municipality":{"key":"14626110","name":"Görlitz, Stadt","type":"Stadt"},"district":{"key":"14626","name":"Görlitz","type":"Landkreis"},"federalState":{"key":"14","name":"Sachsen"}},{"name":"Große Wallstr.","postalCode":"02826","locality":"Görlitz","municipality":{"key":"14626110","name":"Görlitz, Stadt","type":"Stadt"},"district":{"key":"14626","name":"Görlitz","type":"Landkreis"},"federalState":{"key":"14","name":"Sachsen"}},{"name":"Grundstr.","postalCode":"02827","locality":"Görlitz","municipality":{"key":"14626110","name":"Görlitz, Stadt","type":"Stadt"},"district":{"key":"14626","name":"Görlitz","type":"Landkreis"},"federalState":{"key":"14","name":"Sachsen"}},{"name":"Grüner Graben","postalCode":"02826","locality":"Görlitz","municipality":{"key":"14626110","name":"Görlitz, Stadt","type":"Stadt"},"district":{"key":"14626","name":"Görlitz","type":"Landkreis"},"federalState":{"key":"14","name":"Sachsen"}},{"name":"Grünstr.","postalCode":"02827","locality":"Görlitz","municipality":{"key":"14626110","name":"Görlitz, Stadt","type":"Stadt"},"district":{"key":"14626","name":"Görlitz","type":"Landkreis"},"federalState":{"key":"14","name":"Sachsen"}},{"name":"Gutenbergstr.","postalCode":"02826","locality":"Görlitz","municipality":{"key":"14626110","name":"Görlitz, Stadt","type":"Stadt"},"district":{"key":"14626","name":"Görlitz","type":"Landkreis"},"federalState":{"key":"14","name":"Sachsen"}},{"name":"Hafenstr.","postalCode":"02827","locality":"Görlitz","municipality":{"key":"14626110","name":"Görlitz, Stadt","type":"Stadt"},"district":{"key":"14626","name":"Görlitz","type":"Landkreis"},"federalState":{"key":"14","name":"Sachsen"}},{"name":"Hafenstr. - Seerundweg","postalCode":"02827","locality":"Görlitz","municipality":{"key":"14626110","name":"Görlitz, Stadt","type":"Stadt"},"district":{"key":"14626","name":"Görlitz","type":"Landkreis"},"federalState":{"key":"14","name":"Sachsen"}},{"name":"Hainwald","postalCode":"02826","locality":"Görlitz","municipality":{"key":"14626110","name":"Görlitz, Stadt","type":"Stadt"},"district":{"key":"14626","name":"Görlitz","type":"Landkreis"},"federalState":{"key":"14","name":"Sachsen"}},{"name":"Handwerk","postalCode":"02826","locality":"Görlitz","municipality":{"key":"14626110","name":"Görlitz, Stadt","type":"Stadt"},"district":{"key":"14626","name":"Görlitz","type":"Landkreis"},"federalState":{"key":"14","name":"Sachsen"}},{"name":"Hans-Beimler-Str.","postalCode":"02827","locality":"Görlitz","municipality":{"key":"14626110","name":"Görlitz, Stadt","type":"Stadt"},"district":{"key":"14626","name":"Görlitz","type":"Landkreis"},"federalState":{"key":"14","name":"Sachsen"}},{"name":"Hans-Nathan-Str.","postalCode":"02827","locality":"Görlitz","municipality":{"key":"14626110","name":"Görlitz, Stadt","type":"Stadt"},"district":{"key":"14626","name":"Görlitz","type":"Landkreis"},"federalState":{"key":"14","name":"Sachsen"}},{"name":"Hartmannstr.","postalCode":"02826","locality":"Görlitz","municipality":{"key":"14626110","name":"Görlitz, Stadt","type":"Stadt"},"district":{"key":"14626","name":"Görlitz","type":"Landkreis"},"federalState":{"key":"14","name":"Sachsen"}},{"name":"Hegelstr.","postalCode":"02827","locality":"Görlitz","municipality":{"key":"14626110","name":"Görlitz, Stadt","type":"Stadt"},"district":{"key":"14626","name":"Görlitz","type":"Landkreis"},"federalState":{"key":"14","name":"Sachsen"}},{"name":"Heilige-Grab-Str.","postalCode":"02826","locality":"Görlitz","municipality":{"key":"14626110","name":"Görlitz, Stadt","type":"Stadt"},"district":{"key":"14626","name":"Görlitz","type":"Landkreis"},"federalState":{"key":"14","name":"Sachsen"}},{"name":"Heilige-Grab-Str.","postalCode":"02828","locality":"Görlitz","municipality":{"key":"14626110","name":"Görlitz, Stadt","type":"Stadt"},"district":{"key":"14626","name":"Görlitz","type":"Landkreis"},"federalState":{"key":"14","name":"Sachsen"}},{"name":"Heinrich-Heine-Str.","postalCode":"02826","locality":"Görlitz","municipality":{"key":"14626110","name":"Görlitz, Stadt","type":"Stadt"},"district":{"key":"14626","name":"Görlitz","type":"Landkreis"},"federalState":{"key":"14","name":"Sachsen"}},{"name":"Heinrich-Heine-Str.","postalCode":"02827","locality":"Görlitz","municipality":{"key":"14626110","name":"Görlitz, Stadt","type":"Stadt"},"district":{"key":"14626","name":"Görlitz","type":"Landkreis"},"federalState":{"key":"14","name":"Sachsen"}},{"name":"Heinzelstr.","postalCode":"02826","locality":"Görlitz","municipality":{"key":"14626110","name":"Görlitz, Stadt","type":"Stadt"},"district":{"key":"14626","name":"Görlitz","type":"Landkreis"},"federalState":{"key":"14","name":"Sachsen"}},{"name":"Helenenbad","postalCode":"02828","locality":"Görlitz","municipality":{"key":"14626110","name":"Görlitz, Stadt","type":"Stadt"},"district":{"key":"14626","name":"Görlitz","type":"Landkreis"},"federalState":{"key":"14","name":"Sachsen"}},{"name":"Helle Gasse","postalCode":"02826","locality":"Görlitz","municipality":{"key":"14626110","name":"Görlitz, Stadt","type":"Stadt"},"district":{"key":"14626","name":"Görlitz","type":"Landkreis"},"federalState":{"key":"14","name":"Sachsen"}},{"name":"Helmut-von-Gerlach-Str.","postalCode":"02827","locality":"Görlitz","municipality":{"key":"14626110","name":"Görlitz, Stadt","type":"Stadt"},"district":{"key":"14626","name":"Görlitz","type":"Landkreis"},"federalState":{"key":"14","name":"Sachsen"}},{"name":"Hermann-Löns-Str.","postalCode":"02827","locality":"Görlitz","municipality":{"key":"14626110","name":"Görlitz, Stadt","type":"Stadt"},"district":{"key":"14626","name":"Görlitz","type":"Landkreis"},"federalState":{"key":"14","name":"Sachsen"}},{"name":"Heynestr.","postalCode":"02826","locality":"Görlitz","municipality":{"key":"14626110","name":"Görlitz, Stadt","type":"Stadt"},"district":{"key":"14626","name":"Görlitz","type":"Landkreis"},"federalState":{"key":"14","name":"Sachsen"}},{"name":"Hilde-Coppi-Str.","postalCode":"02827","locality":"Görlitz","municipality":{"key":"14626110","name":"Görlitz, Stadt","type":"Stadt"},"district":{"key":"14626","name":"Görlitz","type":"Landkreis"},"federalState":{"key":"14","name":"Sachsen"}},{"name":"Hildegard-Burjan-Platz","postalCode":"02826","locality":"Görlitz","municipality":{"key":"14626110","name":"Görlitz, Stadt","type":"Stadt"},"district":{"key":"14626","name":"Görlitz","type":"Landkreis"},"federalState":{"key":"14","name":"Sachsen"}},{"name":"Hilgerstr.","postalCode":"02826","locality":"Görlitz","municipality":{"key":"14626110","name":"Görlitz, Stadt","type":"Stadt"},"district":{"key":"14626","name":"Görlitz","type":"Landkreis"},"federalState":{"key":"14","name":"Sachsen"}},{"name":"Hofeweg","postalCode":"02828","locality":"Görlitz","municipality":{"key":"14626110","name":"Görlitz, Stadt","type":"Stadt"},"district":{"key":"14626","name":"Görlitz","type":"Landkreis"},"federalState":{"key":"14","name":"Sachsen"}},{"name":"Hohe Str.","postalCode":"02828","locality":"Görlitz","municipality":{"key":"14626110","name":"Görlitz, Stadt","type":"Stadt"},"district":{"key":"14626","name":"Görlitz","type":"Landkreis"},"federalState":{"key":"14","name":"Sachsen"}},{"name":"Holteistr.","postalCode":"02826","locality":"Görlitz","municipality":{"key":"14626110","name":"Görlitz, Stadt","type":"Stadt"},"district":{"key":"14626","name":"Görlitz","type":"Landkreis"},"federalState":{"key":"14","name":"Sachsen"}},{"name":"Holunderweg","postalCode":"02827","locality":"Görlitz","municipality":{"key":"14626110","name":"Görlitz, Stadt","type":"Stadt"},"district":{"key":"14626","name":"Görlitz","type":"Landkreis"},"federalState":{"key":"14","name":"Sachsen"}},{"name":"Hospitalstr.","postalCode":"02826","locality":"Görlitz","municipality":{"key":"14626110","name":"Görlitz, Stadt","type":"Stadt"},"district":{"key":"14626","name":"Görlitz","type":"Landkreis"},"federalState":{"key":"14","name":"Sachsen"}},{"name":"Hotherstr.","postalCode":"02826","locality":"Görlitz","municipality":{"key":"14626110","name":"Görlitz, Stadt","type":"Stadt"},"district":{"key":"14626","name":"Görlitz","type":"Landkreis"},"federalState":{"key":"14","name":"Sachsen"}},{"name":"Hugo-Eberle-Str.","postalCode":"02827","locality":"Görlitz","municipality":{"key":"14626110","name":"Görlitz, Stadt","type":"Stadt"},"district":{"key":"14626","name":"Görlitz","type":"Landkreis"},"federalState":{"key":"14","name":"Sachsen"}},{"name":"Hugo-Keller-Str.","postalCode":"02826","locality":"Görlitz","municipality":{"key":"14626110","name":"Görlitz, Stadt","type":"Stadt"},"district":{"key":"14626","name":"Görlitz","type":"Landkreis"},"federalState":{"key":"14","name":"Sachsen"}},{"name":"Humboldtstr.","postalCode":"02827","locality":"Görlitz","municipality":{"key":"14626110","name":"Görlitz, Stadt","type":"Stadt"},"district":{"key":"14626","name":"Görlitz","type":"Landkreis"},"federalState":{"key":"14","name":"Sachsen"}},{"name":"Hussitenstr.","postalCode":"02828","locality":"Görlitz","municipality":{"key":"14626110","name":"Görlitz, Stadt","type":"Stadt"},"district":{"key":"14626","name":"Görlitz","type":"Landkreis"},"federalState":{"key":"14","name":"Sachsen"}},{"name":"Im Bogen","postalCode":"02826","locality":"Görlitz","municipality":{"key":"14626110","name":"Görlitz, Stadt","type":"Stadt"},"district":{"key":"14626","name":"Görlitz","type":"Landkreis"},"federalState":{"key":"14","name":"Sachsen"}},{"name":"Immanuel-Kant-Str.","postalCode":"02827","locality":"Görlitz","municipality":{"key":"14626110","name":"Görlitz, Stadt","type":"Stadt"},"district":{"key":"14626","name":"Görlitz","type":"Landkreis"},"federalState":{"key":"14","name":"Sachsen"}},{"name":"In der Aue","postalCode":"02827","locality":"Görlitz","municipality":{"key":"14626110","name":"Görlitz, Stadt","type":"Stadt"},"district":{"key":"14626","name":"Görlitz","type":"Landkreis"},"federalState":{"key":"14","name":"Sachsen"}},{"name":"Jahnstr.","postalCode":"02828","locality":"Görlitz","municipality":{"key":"14626110","name":"Görlitz, Stadt","type":"Stadt"},"district":{"key":"14626","name":"Görlitz","type":"Landkreis"},"federalState":{"key":"14","name":"Sachsen"}},{"name":"Jakob-Böhme-Str.","postalCode":"02826","locality":"Görlitz","municipality":{"key":"14626110","name":"Görlitz, Stadt","type":"Stadt"},"district":{"key":"14626","name":"Görlitz","type":"Landkreis"},"federalState":{"key":"14","name":"Sachsen"}},{"name":"Jakobstr.","postalCode":"02826","locality":"Görlitz","municipality":{"key":"14626110","name":"Görlitz, Stadt","type":"Stadt"},"district":{"key":"14626","name":"Görlitz","type":"Landkreis"},"federalState":{"key":"14","name":"Sachsen"}},{"name":"Jakobstunnel","postalCode":"02826","locality":"Görlitz","municipality":{"key":"14626110","name":"Görlitz, Stadt","type":"Stadt"},"district":{"key":"14626","name":"Görlitz","type":"Landkreis"},"federalState":{"key":"14","name":"Sachsen"}},{"name":"James-von-Moltke-Str.","postalCode":"02826","locality":"Görlitz","municipality":{"key":"14626110","name":"Görlitz, Stadt","type":"Stadt"},"district":{"key":"14626","name":"Görlitz","type":"Landkreis"},"federalState":{"key":"14","name":"Sachsen"}},{"name":"Jauernicker Str.","postalCode":"02826","locality":"Görlitz","municipality":{"key":"14626110","name":"Görlitz, Stadt","type":"Stadt"},"district":{"key":"14626","name":"Görlitz","type":"Landkreis"},"federalState":{"key":"14","name":"Sachsen"}},{"name":"Jeschkenstr.","postalCode":"02826","locality":"Görlitz","municipality":{"key":"14626110","name":"Görlitz, Stadt","type":"Stadt"},"district":{"key":"14626","name":"Görlitz","type":"Landkreis"},"federalState":{"key":"14","name":"Sachsen"}},{"name":"Jochmannstr.","postalCode":"02826","locality":"Görlitz","municipality":{"key":"14626110","name":"Görlitz, Stadt","type":"Stadt"},"district":{"key":"14626","name":"Görlitz","type":"Landkreis"},"federalState":{"key":"14","name":"Sachsen"}},{"name":"Johanna-Dreyer-Str.","postalCode":"02826","locality":"Görlitz","municipality":{"key":"14626110","name":"Görlitz, Stadt","type":"Stadt"},"district":{"key":"14626","name":"Görlitz","type":"Landkreis"},"federalState":{"key":"14","name":"Sachsen"}},{"name":"Johannes-R.-Becher-Str.","postalCode":"02827","locality":"Görlitz","municipality":{"key":"14626110","name":"Görlitz, Stadt","type":"Stadt"},"district":{"key":"14626","name":"Görlitz","type":"Landkreis"},"federalState":{"key":"14","name":"Sachsen"}},{"name":"Johannes-Wüsten-Str.","postalCode":"02826","locality":"Görlitz","municipality":{"key":"14626110","name":"Görlitz, Stadt","type":"Stadt"},"district":{"key":"14626","name":"Görlitz","type":"Landkreis"},"federalState":{"key":"14","name":"Sachsen"}},{"name":"Johann-Haß-Str.","postalCode":"02826","locality":"Görlitz","municipality":{"key":"14626110","name":"Görlitz, Stadt","type":"Stadt"},"district":{"key":"14626","name":"Görlitz","type":"Landkreis"},"federalState":{"key":"14","name":"Sachsen"}},{"name":"Johann-Sebastian-Bach-Str.","postalCode":"02827","locality":"Görlitz","municipality":{"key":"14626110","name":"Görlitz, Stadt","type":"Stadt"},"district":{"key":"14626","name":"Görlitz","type":"Landkreis"},"federalState":{"key":"14","name":"Sachsen"}},{"name":"Joliot-Curie-Str.","postalCode":"02826","locality":"Görlitz","municipality":{"key":"14626110","name":"Görlitz, Stadt","type":"Stadt"},"district":{"key":"14626","name":"Görlitz","type":"Landkreis"},"federalState":{"key":"14","name":"Sachsen"}},{"name":"Jonas-Cohn-Str.","postalCode":"02827","locality":"Görlitz","municipality":{"key":"14626110","name":"Görlitz, Stadt","type":"Stadt"},"district":{"key":"14626","name":"Görlitz","type":"Landkreis"},"federalState":{"key":"14","name":"Sachsen"}},{"name":"Jüdenstr.","postalCode":"02826","locality":"Görlitz","municipality":{"key":"14626110","name":"Görlitz, Stadt","type":"Stadt"},"district":{"key":"14626","name":"Görlitz","type":"Landkreis"},"federalState":{"key":"14","name":"Sachsen"}},{"name":"Julius-Motteler-Str.","postalCode":"02827","locality":"Görlitz","municipality":{"key":"14626110","name":"Görlitz, Stadt","type":"Stadt"},"district":{"key":"14626","name":"Görlitz","type":"Landkreis"},"federalState":{"key":"14","name":"Sachsen"}},{"name":"Kamenzer Str.","postalCode":"02826","locality":"Görlitz","municipality":{"key":"14626110","name":"Görlitz, Stadt","type":"Stadt"},"district":{"key":"14626","name":"Görlitz","type":"Landkreis"},"federalState":{"key":"14","name":"Sachsen"}},{"name":"Karl-Eichler-Str.","postalCode":"02827","locality":"Görlitz","municipality":{"key":"14626110","name":"Görlitz, Stadt","type":"Stadt"},"district":{"key":"14626","name":"Görlitz","type":"Landkreis"},"federalState":{"key":"14","name":"Sachsen"}},{"name":"Karl-Liebknecht-Str.","postalCode":"02827","locality":"Görlitz","municipality":{"key":"14626110","name":"Görlitz, Stadt","type":"Stadt"},"district":{"key":"14626","name":"Görlitz","type":"Landkreis"},"federalState":{"key":"14","name":"Sachsen"}},{"name":"Karl-Marx-Str.","postalCode":"02827","locality":"Görlitz","municipality":{"key":"14626110","name":"Görlitz, Stadt","type":"Stadt"},"district":{"key":"14626","name":"Görlitz","type":"Landkreis"},"federalState":{"key":"14","name":"Sachsen"}},{"name":"Karpfengrund","postalCode":"02826","locality":"Görlitz","municipality":{"key":"14626110","name":"Görlitz, Stadt","type":"Stadt"},"district":{"key":"14626","name":"Görlitz","type":"Landkreis"},"federalState":{"key":"14","name":"Sachsen"}},{"name":"Kastanienallee","postalCode":"02827","locality":"Görlitz","municipality":{"key":"14626110","name":"Görlitz, Stadt","type":"Stadt"},"district":{"key":"14626","name":"Görlitz","type":"Landkreis"},"federalState":{"key":"14","name":"Sachsen"}},{"name":"Kästnerweg","postalCode":"02828","locality":"Görlitz","municipality":{"key":"14626110","name":"Görlitz, Stadt","type":"Stadt"},"district":{"key":"14626","name":"Görlitz","type":"Landkreis"},"federalState":{"key":"14","name":"Sachsen"}},{"name":"Käthe-Kollwitz-Str.","postalCode":"02827","locality":"Görlitz","municipality":{"key":"14626110","name":"Görlitz, Stadt","type":"Stadt"},"district":{"key":"14626","name":"Görlitz","type":"Landkreis"},"federalState":{"key":"14","name":"Sachsen"}},{"name":"Kidrontal","postalCode":"02828","locality":"Görlitz","municipality":{"key":"14626110","name":"Görlitz, Stadt","type":"Stadt"},"district":{"key":"14626","name":"Görlitz","type":"Landkreis"},"federalState":{"key":"14","name":"Sachsen"}},{"name":"Kidrontal-Brücke","postalCode":"02828","locality":"Görlitz","municipality":{"key":"14626110","name":"Görlitz, Stadt","type":"Stadt"},"district":{"key":"14626","name":"Görlitz","type":"Landkreis"},"federalState":{"key":"14","name":"Sachsen"}},{"name":"Kirchgasse","postalCode":"02826","locality":"Görlitz","municipality":{"key":"14626110","name":"Görlitz, Stadt","type":"Stadt"},"district":{"key":"14626","name":"Görlitz","type":"Landkreis"},"federalState":{"key":"14","name":"Sachsen"}},{"name":"Kirchplatz","postalCode":"02827","locality":"Görlitz","municipality":{"key":"14626110","name":"Görlitz, Stadt","type":"Stadt"},"district":{"key":"14626","name":"Görlitz","type":"Landkreis"},"federalState":{"key":"14","name":"Sachsen"}},{"name":"Kirchsteg","postalCode":"02828","locality":"Görlitz","municipality":{"key":"14626110","name":"Görlitz, Stadt","type":"Stadt"},"district":{"key":"14626","name":"Görlitz","type":"Landkreis"},"federalState":{"key":"14","name":"Sachsen"}},{"name":"Kirchstr.","postalCode":"02827","locality":"Görlitz","municipality":{"key":"14626110","name":"Görlitz, Stadt","type":"Stadt"},"district":{"key":"14626","name":"Görlitz","type":"Landkreis"},"federalState":{"key":"14","name":"Sachsen"}},{"name":"Kleine Grundstr.","postalCode":"02827","locality":"Görlitz","municipality":{"key":"14626110","name":"Görlitz, Stadt","type":"Stadt"},"district":{"key":"14626","name":"Görlitz","type":"Landkreis"},"federalState":{"key":"14","name":"Sachsen"}},{"name":"Kleine Seidenberger Str.","postalCode":"02827","locality":"Görlitz","municipality":{"key":"14626110","name":"Görlitz, Stadt","type":"Stadt"},"district":{"key":"14626","name":"Görlitz","type":"Landkreis"},"federalState":{"key":"14","name":"Sachsen"}},{"name":"Kleine Seite","postalCode":"02827","locality":"Görlitz","municipality":{"key":"14626110","name":"Görlitz, Stadt","type":"Stadt"},"district":{"key":"14626","name":"Görlitz","type":"Landkreis"},"federalState":{"key":"14","name":"Sachsen"}},{"name":"Kleine Wallstr.","postalCode":"02826","locality":"Görlitz","municipality":{"key":"14626110","name":"Görlitz, Stadt","type":"Stadt"},"district":{"key":"14626","name":"Görlitz","type":"Landkreis"},"federalState":{"key":"14","name":"Sachsen"}},{"name":"Klingewalde","postalCode":"02828","locality":"Görlitz","municipality":{"key":"14626110","name":"Görlitz, Stadt","type":"Stadt"},"district":{"key":"14626","name":"Görlitz","type":"Landkreis"},"federalState":{"key":"14","name":"Sachsen"}},{"name":"Klingewalder Höhe","postalCode":"02828","locality":"Görlitz","municipality":{"key":"14626110","name":"Görlitz, Stadt","type":"Stadt"},"district":{"key":"14626","name":"Görlitz","type":"Landkreis"},"federalState":{"key":"14","name":"Sachsen"}},{"name":"Klosterplatz","postalCode":"02826","locality":"Görlitz","municipality":{"key":"14626110","name":"Görlitz, Stadt","type":"Stadt"},"district":{"key":"14626","name":"Görlitz","type":"Landkreis"},"federalState":{"key":"14","name":"Sachsen"}},{"name":"Klosterstr.","postalCode":"02826","locality":"Görlitz","municipality":{"key":"14626110","name":"Görlitz, Stadt","type":"Stadt"},"district":{"key":"14626","name":"Görlitz","type":"Landkreis"},"federalState":{"key":"14","name":"Sachsen"}},{"name":"Königshainer Str.","postalCode":"02827","locality":"Görlitz","municipality":{"key":"14626110","name":"Görlitz, Stadt","type":"Stadt"},"district":{"key":"14626","name":"Görlitz","type":"Landkreis"},"federalState":{"key":"14","name":"Sachsen"}},{"name":"Königshufen - Am Wiesengrund","postalCode":"02828","locality":"Görlitz","municipality":{"key":"14626110","name":"Görlitz, Stadt","type":"Stadt"},"district":{"key":"14626","name":"Görlitz","type":"Landkreis"},"federalState":{"key":"14","name":"Sachsen"}},{"name":"Konsulplatz","postalCode":"02826","locality":"Görlitz","municipality":{"key":"14626110","name":"Görlitz, Stadt","type":"Stadt"},"district":{"key":"14626","name":"Görlitz","type":"Landkreis"},"federalState":{"key":"14","name":"Sachsen"}},{"name":"Konsulstr.","postalCode":"02826","locality":"Görlitz","municipality":{"key":"14626110","name":"Görlitz, Stadt","type":"Stadt"},"district":{"key":"14626","name":"Görlitz","type":"Landkreis"},"federalState":{"key":"14","name":"Sachsen"}},{"name":"Kopernikusstr.","postalCode":"02827","locality":"Görlitz","municipality":{"key":"14626110","name":"Görlitz, Stadt","type":"Stadt"},"district":{"key":"14626","name":"Görlitz","type":"Landkreis"},"federalState":{"key":"14","name":"Sachsen"}},{"name":"Kränzelstr.","postalCode":"02826","locality":"Görlitz","municipality":{"key":"14626110","name":"Görlitz, Stadt","type":"Stadt"},"district":{"key":"14626","name":"Görlitz","type":"Landkreis"},"federalState":{"key":"14","name":"Sachsen"}},{"name":"Krauschaer Str.","postalCode":"02828","locality":"Görlitz","municipality":{"key":"14626110","name":"Görlitz, Stadt","type":"Stadt"},"district":{"key":"14626","name":"Görlitz","type":"Landkreis"},"federalState":{"key":"14","name":"Sachsen"}},{"name":"Krebsgasse","postalCode":"02826","locality":"Görlitz","municipality":{"key":"14626110","name":"Görlitz, Stadt","type":"Stadt"},"district":{"key":"14626","name":"Görlitz","type":"Landkreis"},"federalState":{"key":"14","name":"Sachsen"}},{"name":"Kreuzkirchenpark","postalCode":"02826","locality":"Görlitz","municipality":{"key":"14626110","name":"Görlitz, Stadt","type":"Stadt"},"district":{"key":"14626","name":"Görlitz","type":"Landkreis"},"federalState":{"key":"14","name":"Sachsen"}},{"name":"Krischelstr.","postalCode":"02826","locality":"Görlitz","municipality":{"key":"14626110","name":"Görlitz, Stadt","type":"Stadt"},"district":{"key":"14626","name":"Görlitz","type":"Landkreis"},"federalState":{"key":"14","name":"Sachsen"}},{"name":"Krölstr.","postalCode":"02826","locality":"Görlitz","municipality":{"key":"14626110","name":"Görlitz, Stadt","type":"Stadt"},"district":{"key":"14626","name":"Görlitz","type":"Landkreis"},"federalState":{"key":"14","name":"Sachsen"}},{"name":"Kummerau","postalCode":"02828","locality":"Görlitz","municipality":{"key":"14626110","name":"Görlitz, Stadt","type":"Stadt"},"district":{"key":"14626","name":"Görlitz","type":"Landkreis"},"federalState":{"key":"14","name":"Sachsen"}},{"name":"Kunnerwitzer Str.","postalCode":"02826","locality":"Görlitz","municipality":{"key":"14626110","name":"Görlitz, Stadt","type":"Stadt"},"district":{"key":"14626","name":"Görlitz","type":"Landkreis"},"federalState":{"key":"14","name":"Sachsen"}},{"name":"Landeskronstr.","postalCode":"02826","locality":"Görlitz","municipality":{"key":"14626110","name":"Görlitz, Stadt","type":"Stadt"},"district":{"key":"14626","name":"Görlitz","type":"Landkreis"},"federalState":{"key":"14","name":"Sachsen"}},{"name":"Landgutweg","postalCode":"02827","locality":"Görlitz","municipality":{"key":"14626110","name":"Görlitz, Stadt","type":"Stadt"},"district":{"key":"14626","name":"Görlitz","type":"Landkreis"},"federalState":{"key":"14","name":"Sachsen"}},{"name":"Landhausstr.","postalCode":"02827","locality":"Görlitz","municipality":{"key":"14626110","name":"Görlitz, Stadt","type":"Stadt"},"district":{"key":"14626","name":"Görlitz","type":"Landkreis"},"federalState":{"key":"14","name":"Sachsen"}},{"name":"Landheimstr.","postalCode":"02827","locality":"Görlitz","municipality":{"key":"14626110","name":"Görlitz, Stadt","type":"Stadt"},"district":{"key":"14626","name":"Görlitz","type":"Landkreis"},"federalState":{"key":"14","name":"Sachsen"}},{"name":"Langenstr.","postalCode":"02826","locality":"Görlitz","municipality":{"key":"14626110","name":"Görlitz, Stadt","type":"Stadt"},"district":{"key":"14626","name":"Görlitz","type":"Landkreis"},"federalState":{"key":"14","name":"Sachsen"}},{"name":"Laubaner Str.","postalCode":"02828","locality":"Görlitz","municipality":{"key":"14626110","name":"Görlitz, Stadt","type":"Stadt"},"district":{"key":"14626","name":"Görlitz","type":"Landkreis"},"federalState":{"key":"14","name":"Sachsen"}},{"name":"Lausitzer Str.","postalCode":"02828","locality":"Görlitz","municipality":{"key":"14626110","name":"Görlitz, Stadt","type":"Stadt"},"district":{"key":"14626","name":"Görlitz","type":"Landkreis"},"federalState":{"key":"14","name":"Sachsen"}},{"name":"Leipziger Str.","postalCode":"02826","locality":"Görlitz","municipality":{"key":"14626110","name":"Görlitz, Stadt","type":"Stadt"},"district":{"key":"14626","name":"Görlitz","type":"Landkreis"},"federalState":{"key":"14","name":"Sachsen"}},{"name":"Lerchenstr.","postalCode":"02827","locality":"Görlitz","municipality":{"key":"14626110","name":"Görlitz, Stadt","type":"Stadt"},"district":{"key":"14626","name":"Görlitz","type":"Landkreis"},"federalState":{"key":"14","name":"Sachsen"}},{"name":"Leschwitzer Str.","postalCode":"02827","locality":"Görlitz","municipality":{"key":"14626110","name":"Görlitz, Stadt","type":"Stadt"},"district":{"key":"14626","name":"Görlitz","type":"Landkreis"},"federalState":{"key":"14","name":"Sachsen"}},{"name":"Lessingstr.","postalCode":"02826","locality":"Görlitz","municipality":{"key":"14626110","name":"Görlitz, Stadt","type":"Stadt"},"district":{"key":"14626","name":"Görlitz","type":"Landkreis"},"federalState":{"key":"14","name":"Sachsen"}},{"name":"Liebigstr.","postalCode":"02828","locality":"Görlitz","municipality":{"key":"14626110","name":"Görlitz, Stadt","type":"Stadt"},"district":{"key":"14626","name":"Görlitz","type":"Landkreis"},"federalState":{"key":"14","name":"Sachsen"}},{"name":"Lilienthalstr.","postalCode":"02828","locality":"Görlitz","municipality":{"key":"14626110","name":"Görlitz, Stadt","type":"Stadt"},"district":{"key":"14626","name":"Görlitz","type":"Landkreis"},"federalState":{"key":"14","name":"Sachsen"}},{"name":"Lilienweg","postalCode":"02827","locality":"Görlitz","municipality":{"key":"14626110","name":"Görlitz, Stadt","type":"Stadt"},"district":{"key":"14626","name":"Görlitz","type":"Landkreis"},"federalState":{"key":"14","name":"Sachsen"}},{"name":"Lindenstr.","postalCode":"02827","locality":"Görlitz","municipality":{"key":"14626110","name":"Görlitz, Stadt","type":"Stadt"},"district":{"key":"14626","name":"Görlitz","type":"Landkreis"},"federalState":{"key":"14","name":"Sachsen"}},{"name":"Lindenweg","postalCode":"02826","locality":"Görlitz","municipality":{"key":"14626110","name":"Görlitz, Stadt","type":"Stadt"},"district":{"key":"14626","name":"Görlitz","type":"Landkreis"},"federalState":{"key":"14","name":"Sachsen"}},{"name":"Löbauer Str.","postalCode":"02826","locality":"Görlitz","municipality":{"key":"14626110","name":"Görlitz, Stadt","type":"Stadt"},"district":{"key":"14626","name":"Görlitz","type":"Landkreis"},"federalState":{"key":"14","name":"Sachsen"}},{"name":"Lorenzstr.","postalCode":"02827","locality":"Görlitz","municipality":{"key":"14626110","name":"Görlitz, Stadt","type":"Stadt"},"district":{"key":"14626","name":"Görlitz","type":"Landkreis"},"federalState":{"key":"14","name":"Sachsen"}},{"name":"Louis-Braille-Str.","postalCode":"02826","locality":"Görlitz","municipality":{"key":"14626110","name":"Görlitz, Stadt","type":"Stadt"},"district":{"key":"14626","name":"Görlitz","type":"Landkreis"},"federalState":{"key":"14","name":"Sachsen"}},{"name":"Luisenaue","postalCode":"02827","locality":"Görlitz","municipality":{"key":"14626110","name":"Görlitz, Stadt","type":"Stadt"},"district":{"key":"14626","name":"Görlitz","type":"Landkreis"},"federalState":{"key":"14","name":"Sachsen"}},{"name":"Luisenstr.","postalCode":"02826","locality":"Görlitz","municipality":{"key":"14626110","name":"Görlitz, Stadt","type":"Stadt"},"district":{"key":"14626","name":"Görlitz","type":"Landkreis"},"federalState":{"key":"14","name":"Sachsen"}},{"name":"Lunitz","postalCode":"02826","locality":"Görlitz","municipality":{"key":"14626110","name":"Görlitz, Stadt","type":"Stadt"},"district":{"key":"14626","name":"Görlitz","type":"Landkreis"},"federalState":{"key":"14","name":"Sachsen"}},{"name":"Lupinenweg","postalCode":"02827","locality":"Görlitz","municipality":{"key":"14626110","name":"Görlitz, Stadt","type":"Stadt"},"district":{"key":"14626","name":"Görlitz","type":"Landkreis"},"federalState":{"key":"14","name":"Sachsen"}},{"name":"Lutherplatz","postalCode":"02826","locality":"Görlitz","municipality":{"key":"14626110","name":"Görlitz, Stadt","type":"Stadt"},"district":{"key":"14626","name":"Görlitz","type":"Landkreis"},"federalState":{"key":"14","name":"Sachsen"}},{"name":"Luthersteig","postalCode":"02828","locality":"Görlitz","municipality":{"key":"14626110","name":"Görlitz, Stadt","type":"Stadt"},"district":{"key":"14626","name":"Görlitz","type":"Landkreis"},"federalState":{"key":"14","name":"Sachsen"}},{"name":"Lutherstr.","postalCode":"02826","locality":"Görlitz","municipality":{"key":"14626110","name":"Görlitz, Stadt","type":"Stadt"},"district":{"key":"14626","name":"Görlitz","type":"Landkreis"},"federalState":{"key":"14","name":"Sachsen"}},{"name":"Maiglöckchenweg","postalCode":"02827","locality":"Görlitz","municipality":{"key":"14626110","name":"Görlitz, Stadt","type":"Stadt"},"district":{"key":"14626","name":"Görlitz","type":"Landkreis"},"federalState":{"key":"14","name":"Sachsen"}},{"name":"Marienaue","postalCode":"02828","locality":"Görlitz","municipality":{"key":"14626110","name":"Görlitz, Stadt","type":"Stadt"},"district":{"key":"14626","name":"Görlitz","type":"Landkreis"},"federalState":{"key":"14","name":"Sachsen"}},{"name":"Marienauer Weg","postalCode":"02828","locality":"Görlitz","municipality":{"key":"14626110","name":"Görlitz, Stadt","type":"Stadt"},"district":{"key":"14626","name":"Görlitz","type":"Landkreis"},"federalState":{"key":"14","name":"Sachsen"}},{"name":"Mariengasse","postalCode":"02828","locality":"Görlitz","municipality":{"key":"14626110","name":"Görlitz, Stadt","type":"Stadt"},"district":{"key":"14626","name":"Görlitz","type":"Landkreis"},"federalState":{"key":"14","name":"Sachsen"}},{"name":"Marienplatz","postalCode":"02826","locality":"Görlitz","municipality":{"key":"14626110","name":"Görlitz, Stadt","type":"Stadt"},"district":{"key":"14626","name":"Görlitz","type":"Landkreis"},"federalState":{"key":"14","name":"Sachsen"}},{"name":"Martin-Ephraim-Str.","postalCode":"02827","locality":"Görlitz","municipality":{"key":"14626110","name":"Görlitz, Stadt","type":"Stadt"},"district":{"key":"14626","name":"Görlitz","type":"Landkreis"},"federalState":{"key":"14","name":"Sachsen"}},{"name":"Martin-Opitz-Str.","postalCode":"02826","locality":"Görlitz","municipality":{"key":"14626110","name":"Görlitz, Stadt","type":"Stadt"},"district":{"key":"14626","name":"Görlitz","type":"Landkreis"},"federalState":{"key":"14","name":"Sachsen"}},{"name":"Maxim-Gorki-Str.","postalCode":"02827","locality":"Görlitz","municipality":{"key":"14626110","name":"Görlitz, Stadt","type":"Stadt"},"district":{"key":"14626","name":"Görlitz","type":"Landkreis"},"federalState":{"key":"14","name":"Sachsen"}},{"name":"Max-Planck-Str.","postalCode":"02827","locality":"Görlitz","municipality":{"key":"14626110","name":"Görlitz, Stadt","type":"Stadt"},"district":{"key":"14626","name":"Görlitz","type":"Landkreis"},"federalState":{"key":"14","name":"Sachsen"}},{"name":"Melanchthonstr.","postalCode":"02826","locality":"Görlitz","municipality":{"key":"14626110","name":"Görlitz, Stadt","type":"Stadt"},"district":{"key":"14626","name":"Görlitz","type":"Landkreis"},"federalState":{"key":"14","name":"Sachsen"}},{"name":"Minna-Herzlieb-Str.","postalCode":"02828","locality":"Görlitz","municipality":{"key":"14626110","name":"Görlitz, Stadt","type":"Stadt"},"district":{"key":"14626","name":"Görlitz","type":"Landkreis"},"federalState":{"key":"14","name":"Sachsen"}},{"name":"Mittelstr.","postalCode":"02826","locality":"Görlitz","municipality":{"key":"14626110","name":"Görlitz, Stadt","type":"Stadt"},"district":{"key":"14626","name":"Görlitz","type":"Landkreis"},"federalState":{"key":"14","name":"Sachsen"}},{"name":"Mozartstr.","postalCode":"02827","locality":"Görlitz","municipality":{"key":"14626110","name":"Görlitz, Stadt","type":"Stadt"},"district":{"key":"14626","name":"Görlitz","type":"Landkreis"},"federalState":{"key":"14","name":"Sachsen"}},{"name":"Mühlgasse","postalCode":"02827","locality":"Görlitz","municipality":{"key":"14626110","name":"Görlitz, Stadt","type":"Stadt"},"district":{"key":"14626","name":"Görlitz","type":"Landkreis"},"federalState":{"key":"14","name":"Sachsen"}},{"name":"Mühlweg","postalCode":"02826","locality":"Görlitz","municipality":{"key":"14626110","name":"Görlitz, Stadt","type":"Stadt"},"district":{"key":"14626","name":"Görlitz","type":"Landkreis"},"federalState":{"key":"14","name":"Sachsen"}},{"name":"Narzissenweg","postalCode":"02827","locality":"Görlitz","municipality":{"key":"14626110","name":"Görlitz, Stadt","type":"Stadt"},"district":{"key":"14626","name":"Görlitz","type":"Landkreis"},"federalState":{"key":"14","name":"Sachsen"}},{"name":"Neißering","postalCode":"02828","locality":"Görlitz","municipality":{"key":"14626110","name":"Görlitz, Stadt","type":"Stadt"},"district":{"key":"14626","name":"Görlitz","type":"Landkreis"},"federalState":{"key":"14","name":"Sachsen"}},{"name":"Neißetalstr.","postalCode":"02828","locality":"Görlitz","municipality":{"key":"14626110","name":"Görlitz, Stadt","type":"Stadt"},"district":{"key":"14626","name":"Görlitz","type":"Landkreis"},"federalState":{"key":"14","name":"Sachsen"}},{"name":"Neißstr.","postalCode":"02826","locality":"Görlitz","municipality":{"key":"14626110","name":"Görlitz, Stadt","type":"Stadt"},"district":{"key":"14626","name":"Görlitz","type":"Landkreis"},"federalState":{"key":"14","name":"Sachsen"}},{"name":"Nelkenweg","postalCode":"02827","locality":"Görlitz","municipality":{"key":"14626110","name":"Görlitz, Stadt","type":"Stadt"},"district":{"key":"14626","name":"Görlitz","type":"Landkreis"},"federalState":{"key":"14","name":"Sachsen"}},{"name":"Neuer Weg","postalCode":"02827","locality":"Görlitz","municipality":{"key":"14626110","name":"Görlitz, Stadt","type":"Stadt"},"district":{"key":"14626","name":"Görlitz","type":"Landkreis"},"federalState":{"key":"14","name":"Sachsen"}},{"name":"Neue Str.","postalCode":"02827","locality":"Görlitz","municipality":{"key":"14626110","name":"Görlitz, Stadt","type":"Stadt"},"district":{"key":"14626","name":"Görlitz","type":"Landkreis"},"federalState":{"key":"14","name":"Sachsen"}},{"name":"Neugasse","postalCode":"02828","locality":"Görlitz","municipality":{"key":"14626110","name":"Görlitz, Stadt","type":"Stadt"},"district":{"key":"14626","name":"Görlitz","type":"Landkreis"},"federalState":{"key":"14","name":"Sachsen"}},{"name":"Neundorfer Str.","postalCode":"02827","locality":"Görlitz","municipality":{"key":"14626110","name":"Görlitz, Stadt","type":"Stadt"},"district":{"key":"14626","name":"Görlitz","type":"Landkreis"},"federalState":{"key":"14","name":"Sachsen"}},{"name":"Nickrischer Str.","postalCode":"02827","locality":"Görlitz","municipality":{"key":"14626110","name":"Görlitz, Stadt","type":"Stadt"},"district":{"key":"14626","name":"Görlitz","type":"Landkreis"},"federalState":{"key":"14","name":"Sachsen"}},{"name":"Nieskyer Str.","postalCode":"02828","locality":"Görlitz","municipality":{"key":"14626110","name":"Görlitz, Stadt","type":"Stadt"},"district":{"key":"14626","name":"Görlitz","type":"Landkreis"},"federalState":{"key":"14","name":"Sachsen"}},{"name":"Nikolaigraben","postalCode":"02826","locality":"Görlitz","municipality":{"key":"14626110","name":"Görlitz, Stadt","type":"Stadt"},"district":{"key":"14626","name":"Görlitz","type":"Landkreis"},"federalState":{"key":"14","name":"Sachsen"}},{"name":"Nikolaistr.","postalCode":"02826","locality":"Görlitz","municipality":{"key":"14626110","name":"Görlitz, Stadt","type":"Stadt"},"district":{"key":"14626","name":"Görlitz","type":"Landkreis"},"federalState":{"key":"14","name":"Sachsen"}},{"name":"Nikolaizwinger","postalCode":"02826","locality":"Görlitz","municipality":{"key":"14626110","name":"Görlitz, Stadt","type":"Stadt"},"district":{"key":"14626","name":"Görlitz","type":"Landkreis"},"federalState":{"key":"14","name":"Sachsen"}},{"name":"Nonnenstr.","postalCode":"02826","locality":"Görlitz","municipality":{"key":"14626110","name":"Görlitz, Stadt","type":"Stadt"},"district":{"key":"14626","name":"Görlitz","type":"Landkreis"},"federalState":{"key":"14","name":"Sachsen"}},{"name":"Nordring","postalCode":"02828","locality":"Görlitz","municipality":{"key":"14626110","name":"Görlitz, Stadt","type":"Stadt"},"district":{"key":"14626","name":"Görlitz","type":"Landkreis"},"federalState":{"key":"14","name":"Sachsen"}},{"name":"Nordstr.","postalCode":"02827","locality":"Görlitz","municipality":{"key":"14626110","name":"Görlitz, Stadt","type":"Stadt"},"district":{"key":"14626","name":"Görlitz","type":"Landkreis"},"federalState":{"key":"14","name":"Sachsen"}},{"name":"Ober-Auenweg","postalCode":"02827","locality":"Görlitz","municipality":{"key":"14626110","name":"Görlitz, Stadt","type":"Stadt"},"district":{"key":"14626","name":"Görlitz","type":"Landkreis"},"federalState":{"key":"14","name":"Sachsen"}},{"name":"Oberer Ringweg - Trimmpfad","postalCode":"02827","locality":"Görlitz","municipality":{"key":"14626110","name":"Görlitz, Stadt","type":"Stadt"},"district":{"key":"14626","name":"Görlitz","type":"Landkreis"},"federalState":{"key":"14","name":"Sachsen"}},{"name":"Obermarkt","postalCode":"02826","locality":"Görlitz","municipality":{"key":"14626110","name":"Görlitz, Stadt","type":"Stadt"},"district":{"key":"14626","name":"Görlitz","type":"Landkreis"},"federalState":{"key":"14","name":"Sachsen"}},{"name":"Obersteinweg","postalCode":"02826","locality":"Görlitz","municipality":{"key":"14626110","name":"Görlitz, Stadt","type":"Stadt"},"district":{"key":"14626","name":"Görlitz","type":"Landkreis"},"federalState":{"key":"14","name":"Sachsen"}},{"name":"Ochsenbastei","postalCode":"02826","locality":"Görlitz","municipality":{"key":"14626110","name":"Görlitz, Stadt","type":"Stadt"},"district":{"key":"14626","name":"Görlitz","type":"Landkreis"},"federalState":{"key":"14","name":"Sachsen"}},{"name":"Ostring","postalCode":"02828","locality":"Görlitz","municipality":{"key":"14626110","name":"Görlitz, Stadt","type":"Stadt"},"district":{"key":"14626","name":"Görlitz","type":"Landkreis"},"federalState":{"key":"14","name":"Sachsen"}},{"name":"Otto-Buchwitz-Platz","postalCode":"02826","locality":"Görlitz","municipality":{"key":"14626110","name":"Görlitz, Stadt","type":"Stadt"},"district":{"key":"14626","name":"Görlitz","type":"Landkreis"},"federalState":{"key":"14","name":"Sachsen"}},{"name":"Otto-Müller-Str.","postalCode":"02826","locality":"Görlitz","municipality":{"key":"14626110","name":"Görlitz, Stadt","type":"Stadt"},"district":{"key":"14626","name":"Görlitz","type":"Landkreis"},"federalState":{"key":"14","name":"Sachsen"}},{"name":"Park des Friedens","postalCode":"02826","locality":"Görlitz","municipality":{"key":"14626110","name":"Görlitz, Stadt","type":"Stadt"},"district":{"key":"14626","name":"Görlitz","type":"Landkreis"},"federalState":{"key":"14","name":"Sachsen"}},{"name":"Parkstr.","postalCode":"02826","locality":"Görlitz","municipality":{"key":"14626110","name":"Görlitz, Stadt","type":"Stadt"},"district":{"key":"14626","name":"Görlitz","type":"Landkreis"},"federalState":{"key":"14","name":"Sachsen"}},{"name":"Parsevalstr.","postalCode":"02828","locality":"Görlitz","municipality":{"key":"14626110","name":"Görlitz, Stadt","type":"Stadt"},"district":{"key":"14626","name":"Görlitz","type":"Landkreis"},"federalState":{"key":"14","name":"Sachsen"}},{"name":"Paul-Keller-Str.","postalCode":"02826","locality":"Görlitz","municipality":{"key":"14626110","name":"Görlitz, Stadt","type":"Stadt"},"district":{"key":"14626","name":"Görlitz","type":"Landkreis"},"federalState":{"key":"14","name":"Sachsen"}},{"name":"Paul-Linke-Str.","postalCode":"02827","locality":"Görlitz","municipality":{"key":"14626110","name":"Görlitz, Stadt","type":"Stadt"},"district":{"key":"14626","name":"Görlitz","type":"Landkreis"},"federalState":{"key":"14","name":"Sachsen"}},{"name":"Paul-Mühsam-Str.","postalCode":"02827","locality":"Görlitz","municipality":{"key":"14626110","name":"Görlitz, Stadt","type":"Stadt"},"district":{"key":"14626","name":"Görlitz","type":"Landkreis"},"federalState":{"key":"14","name":"Sachsen"}},{"name":"Paul-Taubadel-Str.","postalCode":"02827","locality":"Görlitz","municipality":{"key":"14626110","name":"Görlitz, Stadt","type":"Stadt"},"district":{"key":"14626","name":"Görlitz","type":"Landkreis"},"federalState":{"key":"14","name":"Sachsen"}},{"name":"Pestalozzistr.","postalCode":"02826","locality":"Görlitz","municipality":{"key":"14626110","name":"Görlitz, Stadt","type":"Stadt"},"district":{"key":"14626","name":"Görlitz","type":"Landkreis"},"federalState":{"key":"14","name":"Sachsen"}},{"name":"Peter-Liebig-Hof","postalCode":"02828","locality":"Görlitz","municipality":{"key":"14626110","name":"Görlitz, Stadt","type":"Stadt"},"district":{"key":"14626","name":"Görlitz","type":"Landkreis"},"federalState":{"key":"14","name":"Sachsen"}},{"name":"Peterstr.","postalCode":"02826","locality":"Görlitz","municipality":{"key":"14626110","name":"Görlitz, Stadt","type":"Stadt"},"district":{"key":"14626","name":"Görlitz","type":"Landkreis"},"federalState":{"key":"14","name":"Sachsen"}},{"name":"Pfaffendorfer Weg","postalCode":"02827","locality":"Görlitz","municipality":{"key":"14626110","name":"Görlitz, Stadt","type":"Stadt"},"district":{"key":"14626","name":"Görlitz","type":"Landkreis"},"federalState":{"key":"14","name":"Sachsen"}},{"name":"Pfeiffergasse","postalCode":"02828","locality":"Görlitz","municipality":{"key":"14626110","name":"Görlitz, Stadt","type":"Stadt"},"district":{"key":"14626","name":"Görlitz","type":"Landkreis"},"federalState":{"key":"14","name":"Sachsen"}},{"name":"Plantagenweg","postalCode":"02827","locality":"Görlitz","municipality":{"key":"14626110","name":"Görlitz, Stadt","type":"Stadt"},"district":{"key":"14626","name":"Görlitz","type":"Landkreis"},"federalState":{"key":"14","name":"Sachsen"}},{"name":"Plattnerstr.","postalCode":"02826","locality":"Görlitz","municipality":{"key":"14626110","name":"Görlitz, Stadt","type":"Stadt"},"district":{"key":"14626","name":"Görlitz","type":"Landkreis"},"federalState":{"key":"14","name":"Sachsen"}},{"name":"Platz der Einheit","postalCode":"02828","locality":"Görlitz","municipality":{"key":"14626110","name":"Görlitz, Stadt","type":"Stadt"},"district":{"key":"14626","name":"Görlitz","type":"Landkreis"},"federalState":{"key":"14","name":"Sachsen"}},{"name":"Platz der Friedlichen Revolution","postalCode":"02826","locality":"Görlitz","municipality":{"key":"14626110","name":"Görlitz, Stadt","type":"Stadt"},"district":{"key":"14626","name":"Görlitz","type":"Landkreis"},"federalState":{"key":"14","name":"Sachsen"}},{"name":"Pließnitztalweg","postalCode":"02827","locality":"Görlitz","municipality":{"key":"14626110","name":"Görlitz, Stadt","type":"Stadt"},"district":{"key":"14626","name":"Görlitz","type":"Landkreis"},"federalState":{"key":"14","name":"Sachsen"}},{"name":"Pomologische Gartenstr.","postalCode":"02826","locality":"Görlitz","municipality":{"key":"14626110","name":"Görlitz, Stadt","type":"Stadt"},"district":{"key":"14626","name":"Görlitz","type":"Landkreis"},"federalState":{"key":"14","name":"Sachsen"}},{"name":"Pontepark","postalCode":"02828","locality":"Görlitz","municipality":{"key":"14626110","name":"Görlitz, Stadt","type":"Stadt"},"district":{"key":"14626","name":"Görlitz","type":"Landkreis"},"federalState":{"key":"14","name":"Sachsen"}},{"name":"Pontestr.","postalCode":"02826","locality":"Görlitz","municipality":{"key":"14626110","name":"Görlitz, Stadt","type":"Stadt"},"district":{"key":"14626","name":"Görlitz","type":"Landkreis"},"federalState":{"key":"14","name":"Sachsen"}},{"name":"Posottendorfer Str.","postalCode":"02827","locality":"Görlitz","municipality":{"key":"14626110","name":"Görlitz, Stadt","type":"Stadt"},"district":{"key":"14626","name":"Görlitz","type":"Landkreis"},"federalState":{"key":"14","name":"Sachsen"}},{"name":"Postplatz","postalCode":"02826","locality":"Görlitz","municipality":{"key":"14626110","name":"Görlitz, Stadt","type":"Stadt"},"district":{"key":"14626","name":"Görlitz","type":"Landkreis"},"federalState":{"key":"14","name":"Sachsen"}},{"name":"Promenadenstr.","postalCode":"02827","locality":"Görlitz","municipality":{"key":"14626110","name":"Görlitz, Stadt","type":"Stadt"},"district":{"key":"14626","name":"Görlitz","type":"Landkreis"},"federalState":{"key":"14","name":"Sachsen"}},{"name":"Quellweg","postalCode":"02827","locality":"Görlitz","municipality":{"key":"14626110","name":"Görlitz, Stadt","type":"Stadt"},"district":{"key":"14626","name":"Görlitz","type":"Landkreis"},"federalState":{"key":"14","name":"Sachsen"}},{"name":"Querstr.","postalCode":"02826","locality":"Görlitz","municipality":{"key":"14626110","name":"Görlitz, Stadt","type":"Stadt"},"district":{"key":"14626","name":"Görlitz","type":"Landkreis"},"federalState":{"key":"14","name":"Sachsen"}},{"name":"Radmeritzer Str.","postalCode":"02827","locality":"Görlitz","municipality":{"key":"14626110","name":"Görlitz, Stadt","type":"Stadt"},"district":{"key":"14626","name":"Görlitz","type":"Landkreis"},"federalState":{"key":"14","name":"Sachsen"}},{"name":"Rauschwalder Str.","postalCode":"02826","locality":"Görlitz","municipality":{"key":"14626110","name":"Görlitz, Stadt","type":"Stadt"},"district":{"key":"14626","name":"Görlitz","type":"Landkreis"},"federalState":{"key":"14","name":"Sachsen"}},{"name":"Reichenbacher Str.","postalCode":"02827","locality":"Görlitz","municipality":{"key":"14626110","name":"Görlitz, Stadt","type":"Stadt"},"district":{"key":"14626","name":"Görlitz","type":"Landkreis"},"federalState":{"key":"14","name":"Sachsen"}},{"name":"Reichertstr.","postalCode":"02826","locality":"Görlitz","municipality":{"key":"14626110","name":"Görlitz, Stadt","type":"Stadt"},"district":{"key":"14626","name":"Görlitz","type":"Landkreis"},"federalState":{"key":"14","name":"Sachsen"}},{"name":"Reuterstr.","postalCode":"02826","locality":"Görlitz","municipality":{"key":"14626110","name":"Görlitz, Stadt","type":"Stadt"},"district":{"key":"14626","name":"Görlitz","type":"Landkreis"},"federalState":{"key":"14","name":"Sachsen"}},{"name":"Richard-Jecht-Str.","postalCode":"02826","locality":"Görlitz","municipality":{"key":"14626110","name":"Görlitz, Stadt","type":"Stadt"},"district":{"key":"14626","name":"Görlitz","type":"Landkreis"},"federalState":{"key":"14","name":"Sachsen"}},{"name":"Richard-Struhl-Str.","postalCode":"02827","locality":"Görlitz","municipality":{"key":"14626110","name":"Görlitz, Stadt","type":"Stadt"},"district":{"key":"14626","name":"Görlitz","type":"Landkreis"},"federalState":{"key":"14","name":"Sachsen"}},{"name":"Ringweg","postalCode":"02827","locality":"Görlitz","municipality":{"key":"14626110","name":"Görlitz, Stadt","type":"Stadt"},"district":{"key":"14626","name":"Görlitz","type":"Landkreis"},"federalState":{"key":"14","name":"Sachsen"}},{"name":"Robert-Bosch-Str.","postalCode":"02828","locality":"Görlitz","municipality":{"key":"14626110","name":"Görlitz, Stadt","type":"Stadt"},"district":{"key":"14626","name":"Görlitz","type":"Landkreis"},"federalState":{"key":"14","name":"Sachsen"}},{"name":"Robert-Koch-Str.","postalCode":"02827","locality":"Görlitz","municipality":{"key":"14626110","name":"Görlitz, Stadt","type":"Stadt"},"district":{"key":"14626","name":"Görlitz","type":"Landkreis"},"federalState":{"key":"14","name":"Sachsen"}},{"name":"Robert-Schumann-Str.","postalCode":"02827","locality":"Görlitz","municipality":{"key":"14626110","name":"Görlitz, Stadt","type":"Stadt"},"district":{"key":"14626","name":"Görlitz","type":"Landkreis"},"federalState":{"key":"14","name":"Sachsen"}},{"name":"Robinienallee","postalCode":"02827","locality":"Görlitz","municipality":{"key":"14626110","name":"Görlitz, Stadt","type":"Stadt"},"district":{"key":"14626","name":"Görlitz","type":"Landkreis"},"federalState":{"key":"14","name":"Sachsen"}},{"name":"Röntgenstr.","postalCode":"02828","locality":"Görlitz","municipality":{"key":"14626110","name":"Görlitz, Stadt","type":"Stadt"},"district":{"key":"14626","name":"Görlitz","type":"Landkreis"},"federalState":{"key":"14","name":"Sachsen"}},{"name":"Rosa-Luxemburg-Str.","postalCode":"02827","locality":"Görlitz","municipality":{"key":"14626110","name":"Görlitz, Stadt","type":"Stadt"},"district":{"key":"14626","name":"Görlitz","type":"Landkreis"},"federalState":{"key":"14","name":"Sachsen"}},{"name":"Rosenstr.","postalCode":"02826","locality":"Görlitz","municipality":{"key":"14626110","name":"Görlitz, Stadt","type":"Stadt"},"district":{"key":"14626","name":"Görlitz","type":"Landkreis"},"federalState":{"key":"14","name":"Sachsen"}},{"name":"Rotdornweg","postalCode":"02827","locality":"Görlitz","municipality":{"key":"14626110","name":"Görlitz, Stadt","type":"Stadt"},"district":{"key":"14626","name":"Görlitz","type":"Landkreis"},"federalState":{"key":"14","name":"Sachsen"}},{"name":"Rothenburger Landstr.","postalCode":"02828","locality":"Görlitz","municipality":{"key":"14626110","name":"Görlitz, Stadt","type":"Stadt"},"district":{"key":"14626","name":"Görlitz","type":"Landkreis"},"federalState":{"key":"14","name":"Sachsen"}},{"name":"Rothenburger Str.","postalCode":"02826","locality":"Görlitz","municipality":{"key":"14626110","name":"Görlitz, Stadt","type":"Stadt"},"district":{"key":"14626","name":"Görlitz","type":"Landkreis"},"federalState":{"key":"14","name":"Sachsen"}},{"name":"Rothenburger Str.","postalCode":"02828","locality":"Görlitz","municipality":{"key":"14626110","name":"Görlitz, Stadt","type":"Stadt"},"district":{"key":"14626","name":"Görlitz","type":"Landkreis"},"federalState":{"key":"14","name":"Sachsen"}},{"name":"Sachsenweg","postalCode":"02827","locality":"Görlitz","municipality":{"key":"14626110","name":"Görlitz, Stadt","type":"Stadt"},"district":{"key":"14626","name":"Görlitz","type":"Landkreis"},"federalState":{"key":"14","name":"Sachsen"}},{"name":"Salomonstr.","postalCode":"02826","locality":"Görlitz","municipality":{"key":"14626110","name":"Görlitz, Stadt","type":"Stadt"},"district":{"key":"14626","name":"Görlitz","type":"Landkreis"},"federalState":{"key":"14","name":"Sachsen"}},{"name":"Sandweg","postalCode":"02827","locality":"Görlitz","municipality":{"key":"14626110","name":"Görlitz, Stadt","type":"Stadt"},"district":{"key":"14626","name":"Görlitz","type":"Landkreis"},"federalState":{"key":"14","name":"Sachsen"}},{"name":"Sattigplatz","postalCode":"02826","locality":"Görlitz","municipality":{"key":"14626110","name":"Görlitz, Stadt","type":"Stadt"},"district":{"key":"14626","name":"Görlitz","type":"Landkreis"},"federalState":{"key":"14","name":"Sachsen"}},{"name":"Sattigstr.","postalCode":"02826","locality":"Görlitz","municipality":{"key":"14626110","name":"Görlitz, Stadt","type":"Stadt"},"district":{"key":"14626","name":"Görlitz","type":"Landkreis"},"federalState":{"key":"14","name":"Sachsen"}},{"name":"Schäfereiweg","postalCode":"02828","locality":"Görlitz","municipality":{"key":"14626110","name":"Görlitz, Stadt","type":"Stadt"},"district":{"key":"14626","name":"Görlitz","type":"Landkreis"},"federalState":{"key":"14","name":"Sachsen"}},{"name":"Schanze","postalCode":"02826","locality":"Görlitz","municipality":{"key":"14626110","name":"Görlitz, Stadt","type":"Stadt"},"district":{"key":"14626","name":"Görlitz","type":"Landkreis"},"federalState":{"key":"14","name":"Sachsen"}},{"name":"Schillerstr.","postalCode":"02826","locality":"Görlitz","municipality":{"key":"14626110","name":"Görlitz, Stadt","type":"Stadt"},"district":{"key":"14626","name":"Görlitz","type":"Landkreis"},"federalState":{"key":"14","name":"Sachsen"}},{"name":"Schlaurother Str.","postalCode":"02827","locality":"Görlitz","municipality":{"key":"14626110","name":"Görlitz, Stadt","type":"Stadt"},"district":{"key":"14626","name":"Görlitz","type":"Landkreis"},"federalState":{"key":"14","name":"Sachsen"}},{"name":"Schlaurother Weg","postalCode":"02827","locality":"Görlitz","municipality":{"key":"14626110","name":"Görlitz, Stadt","type":"Stadt"},"district":{"key":"14626","name":"Görlitz","type":"Landkreis"},"federalState":{"key":"14","name":"Sachsen"}},{"name":"Schlesische Str.","postalCode":"02828","locality":"Görlitz","municipality":{"key":"14626110","name":"Görlitz, Stadt","type":"Stadt"},"district":{"key":"14626","name":"Görlitz","type":"Landkreis"},"federalState":{"key":"14","name":"Sachsen"}},{"name":"Schönbergerstr.","postalCode":"02827","locality":"Görlitz","municipality":{"key":"14626110","name":"Görlitz, Stadt","type":"Stadt"},"district":{"key":"14626","name":"Görlitz","type":"Landkreis"},"federalState":{"key":"14","name":"Sachsen"}},{"name":"Schöpstaler Weg","postalCode":"02828","locality":"Görlitz","municipality":{"key":"14626110","name":"Görlitz, Stadt","type":"Stadt"},"district":{"key":"14626","name":"Görlitz","type":"Landkreis"},"federalState":{"key":"14","name":"Sachsen"}},{"name":"Schulgasse","postalCode":"02828","locality":"Görlitz","municipality":{"key":"14626110","name":"Görlitz, Stadt","type":"Stadt"},"district":{"key":"14626","name":"Görlitz","type":"Landkreis"},"federalState":{"key":"14","name":"Sachsen"}},{"name":"Schulstr.","postalCode":"02826","locality":"Görlitz","municipality":{"key":"14626110","name":"Görlitz, Stadt","type":"Stadt"},"district":{"key":"14626","name":"Görlitz","type":"Landkreis"},"federalState":{"key":"14","name":"Sachsen"}},{"name":"Schulweg","postalCode":"02827","locality":"Görlitz","municipality":{"key":"14626110","name":"Görlitz, Stadt","type":"Stadt"},"district":{"key":"14626","name":"Görlitz","type":"Landkreis"},"federalState":{"key":"14","name":"Sachsen"}},{"name":"Schützenstr.","postalCode":"02826","locality":"Görlitz","municipality":{"key":"14626110","name":"Görlitz, Stadt","type":"Stadt"},"district":{"key":"14626","name":"Görlitz","type":"Landkreis"},"federalState":{"key":"14","name":"Sachsen"}},{"name":"Schützenweg","postalCode":"02826","locality":"Görlitz","municipality":{"key":"14626110","name":"Görlitz, Stadt","type":"Stadt"},"district":{"key":"14626","name":"Görlitz","type":"Landkreis"},"federalState":{"key":"14","name":"Sachsen"}},{"name":"Schwarzer Weg","postalCode":"02826","locality":"Görlitz","municipality":{"key":"14626110","name":"Görlitz, Stadt","type":"Stadt"},"district":{"key":"14626","name":"Görlitz","type":"Landkreis"},"federalState":{"key":"14","name":"Sachsen"}},{"name":"Schwarzer Weg","postalCode":"02827","locality":"Görlitz","municipality":{"key":"14626110","name":"Görlitz, Stadt","type":"Stadt"},"district":{"key":"14626","name":"Görlitz","type":"Landkreis"},"federalState":{"key":"14","name":"Sachsen"}},{"name":"Schwarze Str.","postalCode":"02826","locality":"Görlitz","municipality":{"key":"14626110","name":"Görlitz, Stadt","type":"Stadt"},"district":{"key":"14626","name":"Görlitz","type":"Landkreis"},"federalState":{"key":"14","name":"Sachsen"}},{"name":"Scultetusstr.","postalCode":"02828","locality":"Görlitz","municipality":{"key":"14626110","name":"Görlitz, Stadt","type":"Stadt"},"district":{"key":"14626","name":"Görlitz","type":"Landkreis"},"federalState":{"key":"14","name":"Sachsen"}},{"name":"Sechsstädteplatz","postalCode":"02826","locality":"Görlitz","municipality":{"key":"14626110","name":"Görlitz, Stadt","type":"Stadt"},"district":{"key":"14626","name":"Görlitz","type":"Landkreis"},"federalState":{"key":"14","name":"Sachsen"}},{"name":"Seerundweg","postalCode":"02827","locality":"Görlitz","municipality":{"key":"14626110","name":"Görlitz, Stadt","type":"Stadt"},"district":{"key":"14626","name":"Görlitz","type":"Landkreis"},"federalState":{"key":"14","name":"Sachsen"}},{"name":"Seestr.","postalCode":"02827","locality":"Görlitz","municipality":{"key":"14626110","name":"Görlitz, Stadt","type":"Stadt"},"district":{"key":"14626","name":"Görlitz","type":"Landkreis"},"federalState":{"key":"14","name":"Sachsen"}},{"name":"Seidenberger Str.","postalCode":"02827","locality":"Görlitz","municipality":{"key":"14626110","name":"Görlitz, Stadt","type":"Stadt"},"district":{"key":"14626","name":"Görlitz","type":"Landkreis"},"federalState":{"key":"14","name":"Sachsen"}},{"name":"Siebenbörner","postalCode":"02827","locality":"Görlitz","municipality":{"key":"14626110","name":"Görlitz, Stadt","type":"Stadt"},"district":{"key":"14626","name":"Görlitz","type":"Landkreis"},"federalState":{"key":"14","name":"Sachsen"}},{"name":"Siebenbörner","postalCode":"02828","locality":"Görlitz","municipality":{"key":"14626110","name":"Görlitz, Stadt","type":"Stadt"},"district":{"key":"14626","name":"Görlitz","type":"Landkreis"},"federalState":{"key":"14","name":"Sachsen"}},{"name":"Siedlung","postalCode":"02827","locality":"Görlitz","municipality":{"key":"14626110","name":"Görlitz, Stadt","type":"Stadt"},"district":{"key":"14626","name":"Görlitz","type":"Landkreis"},"federalState":{"key":"14","name":"Sachsen"}},{"name":"Siedlung Königshufen","postalCode":"02828","locality":"Görlitz","municipality":{"key":"14626110","name":"Görlitz, Stadt","type":"Stadt"},"district":{"key":"14626","name":"Görlitz","type":"Landkreis"},"federalState":{"key":"14","name":"Sachsen"}},{"name":"Sohrstr.","postalCode":"02826","locality":"Görlitz","municipality":{"key":"14626110","name":"Görlitz, Stadt","type":"Stadt"},"district":{"key":"14626","name":"Görlitz","type":"Landkreis"},"federalState":{"key":"14","name":"Sachsen"}},{"name":"Sonnenland","postalCode":"02826","locality":"Görlitz","municipality":{"key":"14626110","name":"Görlitz, Stadt","type":"Stadt"},"district":{"key":"14626","name":"Görlitz","type":"Landkreis"},"federalState":{"key":"14","name":"Sachsen"}},{"name":"Sonnenstr.","postalCode":"02826","locality":"Görlitz","municipality":{"key":"14626110","name":"Görlitz, Stadt","type":"Stadt"},"district":{"key":"14626","name":"Görlitz","type":"Landkreis"},"federalState":{"key":"14","name":"Sachsen"}},{"name":"Sporergasse","postalCode":"02826","locality":"Görlitz","municipality":{"key":"14626110","name":"Görlitz, Stadt","type":"Stadt"},"district":{"key":"14626","name":"Görlitz","type":"Landkreis"},"federalState":{"key":"14","name":"Sachsen"}},{"name":"Spremberger Str.","postalCode":"02826","locality":"Görlitz","municipality":{"key":"14626110","name":"Görlitz, Stadt","type":"Stadt"},"district":{"key":"14626","name":"Görlitz","type":"Landkreis"},"federalState":{"key":"14","name":"Sachsen"}},{"name":"Stadtgraben","postalCode":"02827","locality":"Görlitz","municipality":{"key":"14626110","name":"Görlitz, Stadt","type":"Stadt"},"district":{"key":"14626","name":"Görlitz","type":"Landkreis"},"federalState":{"key":"14","name":"Sachsen"}},{"name":"Stadtgrabensiedlung","postalCode":"02827","locality":"Görlitz","municipality":{"key":"14626110","name":"Görlitz, Stadt","type":"Stadt"},"district":{"key":"14626","name":"Görlitz","type":"Landkreis"},"federalState":{"key":"14","name":"Sachsen"}},{"name":"Stadtgrenze","postalCode":"02828","locality":"Görlitz","municipality":{"key":"14626110","name":"Görlitz, Stadt","type":"Stadt"},"district":{"key":"14626","name":"Görlitz","type":"Landkreis"},"federalState":{"key":"14","name":"Sachsen"}},{"name":"Stadtpark","postalCode":"02826","locality":"Görlitz","municipality":{"key":"14626110","name":"Görlitz, Stadt","type":"Stadt"},"district":{"key":"14626","name":"Görlitz","type":"Landkreis"},"federalState":{"key":"14","name":"Sachsen"}},{"name":"Stauffenbergstr.","postalCode":"02827","locality":"Görlitz","municipality":{"key":"14626110","name":"Görlitz, Stadt","type":"Stadt"},"district":{"key":"14626","name":"Görlitz","type":"Landkreis"},"federalState":{"key":"14","name":"Sachsen"}},{"name":"Steinstr.","postalCode":"02826","locality":"Görlitz","municipality":{"key":"14626110","name":"Görlitz, Stadt","type":"Stadt"},"district":{"key":"14626","name":"Görlitz","type":"Landkreis"},"federalState":{"key":"14","name":"Sachsen"}},{"name":"Steinweg","postalCode":"02826","locality":"Görlitz","municipality":{"key":"14626110","name":"Görlitz, Stadt","type":"Stadt"},"district":{"key":"14626","name":"Görlitz","type":"Landkreis"},"federalState":{"key":"14","name":"Sachsen"}},{"name":"Str. der Freundschaft","postalCode":"02827","locality":"Görlitz","municipality":{"key":"14626110","name":"Görlitz, Stadt","type":"Stadt"},"district":{"key":"14626","name":"Görlitz","type":"Landkreis"},"federalState":{"key":"14","name":"Sachsen"}},{"name":"Struvestr.","postalCode":"02826","locality":"Görlitz","municipality":{"key":"14626110","name":"Görlitz, Stadt","type":"Stadt"},"district":{"key":"14626","name":"Görlitz","type":"Landkreis"},"federalState":{"key":"14","name":"Sachsen"}},{"name":"Südoststr.","postalCode":"02827","locality":"Görlitz","municipality":{"key":"14626110","name":"Görlitz, Stadt","type":"Stadt"},"district":{"key":"14626","name":"Görlitz","type":"Landkreis"},"federalState":{"key":"14","name":"Sachsen"}},{"name":"Talstr.","postalCode":"02827","locality":"Görlitz","municipality":{"key":"14626110","name":"Görlitz, Stadt","type":"Stadt"},"district":{"key":"14626","name":"Görlitz","type":"Landkreis"},"federalState":{"key":"14","name":"Sachsen"}},{"name":"Teichstr.","postalCode":"02826","locality":"Görlitz","municipality":{"key":"14626110","name":"Görlitz, Stadt","type":"Stadt"},"district":{"key":"14626","name":"Görlitz","type":"Landkreis"},"federalState":{"key":"14","name":"Sachsen"}},{"name":"Theodor-Körner-Str.","postalCode":"02826","locality":"Görlitz","municipality":{"key":"14626110","name":"Görlitz, Stadt","type":"Stadt"},"district":{"key":"14626","name":"Görlitz","type":"Landkreis"},"federalState":{"key":"14","name":"Sachsen"}},{"name":"Thomas-Müntzer-Ring","postalCode":"02827","locality":"Görlitz","municipality":{"key":"14626110","name":"Görlitz, Stadt","type":"Stadt"},"district":{"key":"14626","name":"Görlitz","type":"Landkreis"},"federalState":{"key":"14","name":"Sachsen"}},{"name":"Thomas-Müntzer-Str.","postalCode":"02827","locality":"Görlitz","municipality":{"key":"14626110","name":"Görlitz, Stadt","type":"Stadt"},"district":{"key":"14626","name":"Görlitz","type":"Landkreis"},"federalState":{"key":"14","name":"Sachsen"}},{"name":"Tierpark Görlitz","postalCode":"02826","locality":"Görlitz","municipality":{"key":"14626110","name":"Görlitz, Stadt","type":"Stadt"},"district":{"key":"14626","name":"Görlitz","type":"Landkreis"},"federalState":{"key":"14","name":"Sachsen"}},{"name":"Trimmpfad","postalCode":"02827","locality":"Görlitz","municipality":{"key":"14626110","name":"Görlitz, Stadt","type":"Stadt"},"district":{"key":"14626","name":"Görlitz","type":"Landkreis"},"federalState":{"key":"14","name":"Sachsen"}},{"name":"Trotzendorfstr.","postalCode":"02827","locality":"Görlitz","municipality":{"key":"14626110","name":"Görlitz, Stadt","type":"Stadt"},"district":{"key":"14626","name":"Görlitz","type":"Landkreis"},"federalState":{"key":"14","name":"Sachsen"}},{"name":"Tulpenweg","postalCode":"02827","locality":"Görlitz","municipality":{"key":"14626110","name":"Görlitz, Stadt","type":"Stadt"},"district":{"key":"14626","name":"Görlitz","type":"Landkreis"},"federalState":{"key":"14","name":"Sachsen"}},{"name":"Uferpark","postalCode":"02826","locality":"Görlitz","municipality":{"key":"14626110","name":"Görlitz, Stadt","type":"Stadt"},"district":{"key":"14626","name":"Görlitz","type":"Landkreis"},"federalState":{"key":"14","name":"Sachsen"}},{"name":"Uferstr.","postalCode":"02826","locality":"Görlitz","municipality":{"key":"14626110","name":"Görlitz, Stadt","type":"Stadt"},"district":{"key":"14626","name":"Görlitz","type":"Landkreis"},"federalState":{"key":"14","name":"Sachsen"}},{"name":"Unterer Ringweg","postalCode":"02827","locality":"Görlitz","municipality":{"key":"14626110","name":"Görlitz, Stadt","type":"Stadt"},"district":{"key":"14626","name":"Görlitz","type":"Landkreis"},"federalState":{"key":"14","name":"Sachsen"}},{"name":"Unterer Rundweg","postalCode":"02827","locality":"Görlitz","municipality":{"key":"14626110","name":"Görlitz, Stadt","type":"Stadt"},"district":{"key":"14626","name":"Görlitz","type":"Landkreis"},"federalState":{"key":"14","name":"Sachsen"}},{"name":"Untermarkt","postalCode":"02826","locality":"Görlitz","municipality":{"key":"14626110","name":"Görlitz, Stadt","type":"Stadt"},"district":{"key":"14626","name":"Görlitz","type":"Landkreis"},"federalState":{"key":"14","name":"Sachsen"}},{"name":"Veilchenweg","postalCode":"02827","locality":"Görlitz","municipality":{"key":"14626110","name":"Görlitz, Stadt","type":"Stadt"},"district":{"key":"14626","name":"Görlitz","type":"Landkreis"},"federalState":{"key":"14","name":"Sachsen"}},{"name":"Verrätergasse","postalCode":"02826","locality":"Görlitz","municipality":{"key":"14626110","name":"Görlitz, Stadt","type":"Stadt"},"district":{"key":"14626","name":"Görlitz","type":"Landkreis"},"federalState":{"key":"14","name":"Sachsen"}},{"name":"Viehweg","postalCode":"02827","locality":"Görlitz","municipality":{"key":"14626110","name":"Görlitz, Stadt","type":"Stadt"},"district":{"key":"14626","name":"Görlitz","type":"Landkreis"},"federalState":{"key":"14","name":"Sachsen"}},{"name":"Virchowstr.","postalCode":"02828","locality":"Görlitz","municipality":{"key":"14626110","name":"Görlitz, Stadt","type":"Stadt"},"district":{"key":"14626","name":"Görlitz","type":"Landkreis"},"federalState":{"key":"14","name":"Sachsen"}},{"name":"Von-Rodewitz-Weg","postalCode":"02828","locality":"Görlitz","municipality":{"key":"14626110","name":"Görlitz, Stadt","type":"Stadt"},"district":{"key":"14626","name":"Görlitz","type":"Landkreis"},"federalState":{"key":"14","name":"Sachsen"}},{"name":"Walther-Rathenau-Str.","postalCode":"02826","locality":"Görlitz","municipality":{"key":"14626110","name":"Görlitz, Stadt","type":"Stadt"},"district":{"key":"14626","name":"Görlitz","type":"Landkreis"},"federalState":{"key":"14","name":"Sachsen"}},{"name":"Walther-Rathenau-Str.","postalCode":"02827","locality":"Görlitz","municipality":{"key":"14626110","name":"Görlitz, Stadt","type":"Stadt"},"district":{"key":"14626","name":"Görlitz","type":"Landkreis"},"federalState":{"key":"14","name":"Sachsen"}},{"name":"Weberstr.","postalCode":"02826","locality":"Görlitz","municipality":{"key":"14626110","name":"Görlitz, Stadt","type":"Stadt"},"district":{"key":"14626","name":"Görlitz","type":"Landkreis"},"federalState":{"key":"14","name":"Sachsen"}},{"name":"Weinhübel-Mitte","postalCode":"02827","locality":"Görlitz","municipality":{"key":"14626110","name":"Görlitz, Stadt","type":"Stadt"},"district":{"key":"14626","name":"Görlitz","type":"Landkreis"},"federalState":{"key":"14","name":"Sachsen"}},{"name":"Weinhübler Seeweg","postalCode":"02827","locality":"Görlitz","municipality":{"key":"14626110","name":"Görlitz, Stadt","type":"Stadt"},"district":{"key":"14626","name":"Görlitz","type":"Landkreis"},"federalState":{"key":"14","name":"Sachsen"}},{"name":"Weinhübler Str.","postalCode":"02827","locality":"Görlitz","municipality":{"key":"14626110","name":"Görlitz, Stadt","type":"Stadt"},"district":{"key":"14626","name":"Görlitz","type":"Landkreis"},"federalState":{"key":"14","name":"Sachsen"}},{"name":"Wendel-Roskopf-Str.","postalCode":"02828","locality":"Görlitz","municipality":{"key":"14626110","name":"Görlitz, Stadt","type":"Stadt"},"district":{"key":"14626","name":"Görlitz","type":"Landkreis"},"federalState":{"key":"14","name":"Sachsen"}},{"name":"Wielandstr.","postalCode":"02826","locality":"Görlitz","municipality":{"key":"14626110","name":"Görlitz, Stadt","type":"Stadt"},"district":{"key":"14626","name":"Görlitz","type":"Landkreis"},"federalState":{"key":"14","name":"Sachsen"}},{"name":"Wiesbadener Str.","postalCode":"02827","locality":"Görlitz","municipality":{"key":"14626110","name":"Görlitz, Stadt","type":"Stadt"},"district":{"key":"14626","name":"Görlitz","type":"Landkreis"},"federalState":{"key":"14","name":"Sachsen"}},{"name":"Wiesenstr.","postalCode":"02827","locality":"Görlitz","municipality":{"key":"14626110","name":"Görlitz, Stadt","type":"Stadt"},"district":{"key":"14626","name":"Görlitz","type":"Landkreis"},"federalState":{"key":"14","name":"Sachsen"}},{"name":"Wiesenweg","postalCode":"02827","locality":"Görlitz","municipality":{"key":"14626110","name":"Görlitz, Stadt","type":"Stadt"},"district":{"key":"14626","name":"Görlitz","type":"Landkreis"},"federalState":{"key":"14","name":"Sachsen"}},{"name":"Wilhelmsplatz","postalCode":"02826","locality":"Görlitz","municipality":{"key":"14626110","name":"Görlitz, Stadt","type":"Stadt"},"district":{"key":"14626","name":"Görlitz","type":"Landkreis"},"federalState":{"key":"14","name":"Sachsen"}},{"name":"Windmühlenweg","postalCode":"02828","locality":"Görlitz","municipality":{"key":"14626110","name":"Görlitz, Stadt","type":"Stadt"},"district":{"key":"14626","name":"Görlitz","type":"Landkreis"},"federalState":{"key":"14","name":"Sachsen"}},{"name":"Zeppelinstr.","postalCode":"02828","locality":"Görlitz","municipality":{"key":"14626110","name":"Görlitz, Stadt","type":"Stadt"},"district":{"key":"14626","name":"Görlitz","type":"Landkreis"},"federalState":{"key":"14","name":"Sachsen"}},{"name":"Ziegeleiweg","postalCode":"02828","locality":"Görlitz","municipality":{"key":"14626110","name":"Görlitz, Stadt","type":"Stadt"},"district":{"key":"14626","name":"Görlitz","type":"Landkreis"},"federalState":{"key":"14","name":"Sachsen"}},{"name":"Zittauer Str.","postalCode":"02826","locality":"Görlitz","municipality":{"key":"14626110","name":"Görlitz, Stadt","type":"Stadt"},"district":{"key":"14626","name":"Görlitz","type":"Landkreis"},"federalState":{"key":"14","name":"Sachsen"}},{"name":"Zittauer Str.","postalCode":"02827","locality":"Görlitz","municipality":{"key":"14626110","name":"Görlitz, Stadt","type":"Stadt"},"district":{"key":"14626","name":"Görlitz","type":"Landkreis"},"federalState":{"key":"14","name":"Sachsen"}},{"name":"Zum Kalkwerk","postalCode":"02828","locality":"Görlitz","municipality":{"key":"14626110","name":"Görlitz, Stadt","type":"Stadt"},"district":{"key":"14626","name":"Görlitz","type":"Landkreis"},"federalState":{"key":"14","name":"Sachsen"}},{"name":"Zur Tischbrücke","postalCode":"02828","locality":"Görlitz","municipality":{"key":"14626110","name":"Görlitz, Stadt","type":"Stadt"},"district":{"key":"14626","name":"Görlitz","type":"Landkreis"},"federalState":{"key":"14","name":"Sachsen"}},]