[{"name":"Ahornstr.","postalCode":"97506","locality":"Grafenrheinfeld","municipality":{"key":"09678136","name":"Grafenrheinfeld","type":"Kreisangehörige_Gemeinde"},"district":{"key":"09678","name":"Schweinfurt","type":"Landkreis"},"federalState":{"key":"09","name":"Bayern"}},{"name":"Alte Mainstr.","postalCode":"97506","locality":"Grafenrheinfeld","municipality":{"key":"09678136","name":"Grafenrheinfeld","type":"Kreisangehörige_Gemeinde"},"district":{"key":"09678","name":"Schweinfurt","type":"Landkreis"},"federalState":{"key":"09","name":"Bayern"}},{"name":"Am Bauernwehr","postalCode":"97506","locality":"Grafenrheinfeld","municipality":{"key":"09678136","name":"Grafenrheinfeld","type":"Kreisangehörige_Gemeinde"},"district":{"key":"09678","name":"Schweinfurt","type":"Landkreis"},"federalState":{"key":"09","name":"Bayern"}},{"name":"Am Erlein","postalCode":"97506","locality":"Grafenrheinfeld","municipality":{"key":"09678136","name":"Grafenrheinfeld","type":"Kreisangehörige_Gemeinde"},"district":{"key":"09678","name":"Schweinfurt","type":"Landkreis"},"federalState":{"key":"09","name":"Bayern"}},{"name":"Am Fröschloch","postalCode":"97506","locality":"Grafenrheinfeld","municipality":{"key":"09678136","name":"Grafenrheinfeld","type":"Kreisangehörige_Gemeinde"},"district":{"key":"09678","name":"Schweinfurt","type":"Landkreis"},"federalState":{"key":"09","name":"Bayern"}},{"name":"Am Heubühl","postalCode":"97506","locality":"Grafenrheinfeld","municipality":{"key":"09678136","name":"Grafenrheinfeld","type":"Kreisangehörige_Gemeinde"},"district":{"key":"09678","name":"Schweinfurt","type":"Landkreis"},"federalState":{"key":"09","name":"Bayern"}},{"name":"Am Wehrbusch","postalCode":"97506","locality":"Grafenrheinfeld","municipality":{"key":"09678136","name":"Grafenrheinfeld","type":"Kreisangehörige_Gemeinde"},"district":{"key":"09678","name":"Schweinfurt","type":"Landkreis"},"federalState":{"key":"09","name":"Bayern"}},{"name":"Am Werr","postalCode":"97506","locality":"Grafenrheinfeld","municipality":{"key":"09678136","name":"Grafenrheinfeld","type":"Kreisangehörige_Gemeinde"},"district":{"key":"09678","name":"Schweinfurt","type":"Landkreis"},"federalState":{"key":"09","name":"Bayern"}},{"name":"An der Haak","postalCode":"97506","locality":"Grafenrheinfeld","municipality":{"key":"09678136","name":"Grafenrheinfeld","type":"Kreisangehörige_Gemeinde"},"district":{"key":"09678","name":"Schweinfurt","type":"Landkreis"},"federalState":{"key":"09","name":"Bayern"}},{"name":"An der Lehmgrube","postalCode":"97506","locality":"Grafenrheinfeld","municipality":{"key":"09678136","name":"Grafenrheinfeld","type":"Kreisangehörige_Gemeinde"},"district":{"key":"09678","name":"Schweinfurt","type":"Landkreis"},"federalState":{"key":"09","name":"Bayern"}},{"name":"Bartholomäusstr.","postalCode":"97506","locality":"Grafenrheinfeld","municipality":{"key":"09678136","name":"Grafenrheinfeld","type":"Kreisangehörige_Gemeinde"},"district":{"key":"09678","name":"Schweinfurt","type":"Landkreis"},"federalState":{"key":"09","name":"Bayern"}},{"name":"Basillastr.","postalCode":"97506","locality":"Grafenrheinfeld","municipality":{"key":"09678136","name":"Grafenrheinfeld","type":"Kreisangehörige_Gemeinde"},"district":{"key":"09678","name":"Schweinfurt","type":"Landkreis"},"federalState":{"key":"09","name":"Bayern"}},{"name":"Birkenstr.","postalCode":"97506","locality":"Grafenrheinfeld","municipality":{"key":"09678136","name":"Grafenrheinfeld","type":"Kreisangehörige_Gemeinde"},"district":{"key":"09678","name":"Schweinfurt","type":"Landkreis"},"federalState":{"key":"09","name":"Bayern"}},{"name":"Blumenweg","postalCode":"97506","locality":"Grafenrheinfeld","municipality":{"key":"09678136","name":"Grafenrheinfeld","type":"Kreisangehörige_Gemeinde"},"district":{"key":"09678","name":"Schweinfurt","type":"Landkreis"},"federalState":{"key":"09","name":"Bayern"}},{"name":"Brückenstr.","postalCode":"97506","locality":"Grafenrheinfeld","municipality":{"key":"09678136","name":"Grafenrheinfeld","type":"Kreisangehörige_Gemeinde"},"district":{"key":"09678","name":"Schweinfurt","type":"Landkreis"},"federalState":{"key":"09","name":"Bayern"}},{"name":"Bühlstr.","postalCode":"97506","locality":"Grafenrheinfeld","municipality":{"key":"09678136","name":"Grafenrheinfeld","type":"Kreisangehörige_Gemeinde"},"district":{"key":"09678","name":"Schweinfurt","type":"Landkreis"},"federalState":{"key":"09","name":"Bayern"}},{"name":"Carl-Orff-Str.","postalCode":"97421","locality":"Schweinfurt","municipality":{"key":"09662000","name":"Schweinfurt","type":"Kreisfreie_Stadt"},"district":{"key":"09662","name":"Schweinfurt","type":"Kreisfreie_Stadt"},"federalState":{"key":"09","name":"Bayern"}},{"name":"Carl-Spitzweg-Str.","postalCode":"97422","locality":"Schweinfurt","municipality":{"key":"09662000","name":"Schweinfurt","type":"Kreisfreie_Stadt"},"district":{"key":"09662","name":"Schweinfurt","type":"Kreisfreie_Stadt"},"federalState":{"key":"09","name":"Bayern"}},{"name":"Celtesstr.","postalCode":"97422","locality":"Schweinfurt","municipality":{"key":"09662000","name":"Schweinfurt","type":"Kreisfreie_Stadt"},"district":{"key":"09662","name":"Schweinfurt","type":"Kreisfreie_Stadt"},"federalState":{"key":"09","name":"Bayern"}},{"name":"Châteaudun-Park","postalCode":"97421","locality":"Schweinfurt","municipality":{"key":"09662000","name":"Schweinfurt","type":"Kreisfreie_Stadt"},"district":{"key":"09662","name":"Schweinfurt","type":"Kreisfreie_Stadt"},"federalState":{"key":"09","name":"Bayern"}},{"name":"Christoph-Krebs-Str.","postalCode":"97422","locality":"Schweinfurt","municipality":{"key":"09662000","name":"Schweinfurt","type":"Kreisfreie_Stadt"},"district":{"key":"09662","name":"Schweinfurt","type":"Kreisfreie_Stadt"},"federalState":{"key":"09","name":"Bayern"}},{"name":"Coloradostr.","postalCode":"97424","locality":"Schweinfurt","municipality":{"key":"09662000","name":"Schweinfurt","type":"Kreisfreie_Stadt"},"district":{"key":"09662","name":"Schweinfurt","type":"Kreisfreie_Stadt"},"federalState":{"key":"09","name":"Bayern"}},{"name":"Cramerstr.","postalCode":"97421","locality":"Schweinfurt","municipality":{"key":"09662000","name":"Schweinfurt","type":"Kreisfreie_Stadt"},"district":{"key":"09662","name":"Schweinfurt","type":"Kreisfreie_Stadt"},"federalState":{"key":"09","name":"Bayern"}},{"name":"Cuspinianstr.","postalCode":"97422","locality":"Schweinfurt","municipality":{"key":"09662000","name":"Schweinfurt","type":"Kreisfreie_Stadt"},"district":{"key":"09662","name":"Schweinfurt","type":"Kreisfreie_Stadt"},"federalState":{"key":"09","name":"Bayern"}},{"name":"Dammweg","postalCode":"97506","locality":"Grafenrheinfeld","municipality":{"key":"09678136","name":"Grafenrheinfeld","type":"Kreisangehörige_Gemeinde"},"district":{"key":"09678","name":"Schweinfurt","type":"Landkreis"},"federalState":{"key":"09","name":"Bayern"}},{"name":"Doktor-Blank-Str.","postalCode":"97506","locality":"Grafenrheinfeld","municipality":{"key":"09678136","name":"Grafenrheinfeld","type":"Kreisangehörige_Gemeinde"},"district":{"key":"09678","name":"Schweinfurt","type":"Landkreis"},"federalState":{"key":"09","name":"Bayern"}},{"name":"Dr.-Blank-Str.","postalCode":"97506","locality":"Grafenrheinfeld","municipality":{"key":"09678136","name":"Grafenrheinfeld","type":"Kreisangehörige_Gemeinde"},"district":{"key":"09678","name":"Schweinfurt","type":"Landkreis"},"federalState":{"key":"09","name":"Bayern"}},{"name":"Dr.-Schwindt-Str.","postalCode":"97506","locality":"Grafenrheinfeld","municipality":{"key":"09678136","name":"Grafenrheinfeld","type":"Kreisangehörige_Gemeinde"},"district":{"key":"09678","name":"Schweinfurt","type":"Landkreis"},"federalState":{"key":"09","name":"Bayern"}},{"name":"Dr.-Urlage-Str.","postalCode":"97506","locality":"Grafenrheinfeld","municipality":{"key":"09678136","name":"Grafenrheinfeld","type":"Kreisangehörige_Gemeinde"},"district":{"key":"09678","name":"Schweinfurt","type":"Landkreis"},"federalState":{"key":"09","name":"Bayern"}},{"name":"Eichenstr.","postalCode":"97506","locality":"Grafenrheinfeld","municipality":{"key":"09678136","name":"Grafenrheinfeld","type":"Kreisangehörige_Gemeinde"},"district":{"key":"09678","name":"Schweinfurt","type":"Landkreis"},"federalState":{"key":"09","name":"Bayern"}},{"name":"Einsteinstr.","postalCode":"97506","locality":"Grafenrheinfeld","municipality":{"key":"09678136","name":"Grafenrheinfeld","type":"Kreisangehörige_Gemeinde"},"district":{"key":"09678","name":"Schweinfurt","type":"Landkreis"},"federalState":{"key":"09","name":"Bayern"}},{"name":"Erleinsweg","postalCode":"97506","locality":"Grafenrheinfeld","municipality":{"key":"09678136","name":"Grafenrheinfeld","type":"Kreisangehörige_Gemeinde"},"district":{"key":"09678","name":"Schweinfurt","type":"Landkreis"},"federalState":{"key":"09","name":"Bayern"}},{"name":"Europa-Allee","postalCode":"97506","locality":"Grafenrheinfeld","municipality":{"key":"09678136","name":"Grafenrheinfeld","type":"Kreisangehörige_Gemeinde"},"district":{"key":"09678","name":"Schweinfurt","type":"Landkreis"},"federalState":{"key":"09","name":"Bayern"}},{"name":"Fährdammstr.","postalCode":"97506","locality":"Grafenrheinfeld","municipality":{"key":"09678136","name":"Grafenrheinfeld","type":"Kreisangehörige_Gemeinde"},"district":{"key":"09678","name":"Schweinfurt","type":"Landkreis"},"federalState":{"key":"09","name":"Bayern"}},{"name":"Feldgasse","postalCode":"97506","locality":"Grafenrheinfeld","municipality":{"key":"09678136","name":"Grafenrheinfeld","type":"Kreisangehörige_Gemeinde"},"district":{"key":"09678","name":"Schweinfurt","type":"Landkreis"},"federalState":{"key":"09","name":"Bayern"}},{"name":"Finkenweg","postalCode":"97506","locality":"Grafenrheinfeld","municipality":{"key":"09678136","name":"Grafenrheinfeld","type":"Kreisangehörige_Gemeinde"},"district":{"key":"09678","name":"Schweinfurt","type":"Landkreis"},"federalState":{"key":"09","name":"Bayern"}},{"name":"Fischerweg","postalCode":"97506","locality":"Grafenrheinfeld","municipality":{"key":"09678136","name":"Grafenrheinfeld","type":"Kreisangehörige_Gemeinde"},"district":{"key":"09678","name":"Schweinfurt","type":"Landkreis"},"federalState":{"key":"09","name":"Bayern"}},{"name":"Fischrain","postalCode":"97506","locality":"Grafenrheinfeld","municipality":{"key":"09678136","name":"Grafenrheinfeld","type":"Kreisangehörige_Gemeinde"},"district":{"key":"09678","name":"Schweinfurt","type":"Landkreis"},"federalState":{"key":"09","name":"Bayern"}},{"name":"Flößerweg","postalCode":"97506","locality":"Grafenrheinfeld","municipality":{"key":"09678136","name":"Grafenrheinfeld","type":"Kreisangehörige_Gemeinde"},"district":{"key":"09678","name":"Schweinfurt","type":"Landkreis"},"federalState":{"key":"09","name":"Bayern"}},{"name":"Friedenstr.","postalCode":"97506","locality":"Grafenrheinfeld","municipality":{"key":"09678136","name":"Grafenrheinfeld","type":"Kreisangehörige_Gemeinde"},"district":{"key":"09678","name":"Schweinfurt","type":"Landkreis"},"federalState":{"key":"09","name":"Bayern"}},{"name":"Friedrich-Rückert-Str.","postalCode":"97506","locality":"Grafenrheinfeld","municipality":{"key":"09678136","name":"Grafenrheinfeld","type":"Kreisangehörige_Gemeinde"},"district":{"key":"09678","name":"Schweinfurt","type":"Landkreis"},"federalState":{"key":"09","name":"Bayern"}},{"name":"Fronseeweg","postalCode":"97506","locality":"Grafenrheinfeld","municipality":{"key":"09678136","name":"Grafenrheinfeld","type":"Kreisangehörige_Gemeinde"},"district":{"key":"09678","name":"Schweinfurt","type":"Landkreis"},"federalState":{"key":"09","name":"Bayern"}},{"name":"Frühlingstr.","postalCode":"97506","locality":"Grafenrheinfeld","municipality":{"key":"09678136","name":"Grafenrheinfeld","type":"Kreisangehörige_Gemeinde"},"district":{"key":"09678","name":"Schweinfurt","type":"Landkreis"},"federalState":{"key":"09","name":"Bayern"}},{"name":"Gartenweg","postalCode":"97506","locality":"Grafenrheinfeld","municipality":{"key":"09678136","name":"Grafenrheinfeld","type":"Kreisangehörige_Gemeinde"},"district":{"key":"09678","name":"Schweinfurt","type":"Landkreis"},"federalState":{"key":"09","name":"Bayern"}},{"name":"Gochsheimer Str.","postalCode":"97506","locality":"Grafenrheinfeld","municipality":{"key":"09678136","name":"Grafenrheinfeld","type":"Kreisangehörige_Gemeinde"},"district":{"key":"09678","name":"Schweinfurt","type":"Landkreis"},"federalState":{"key":"09","name":"Bayern"}},{"name":"Goethestr.","postalCode":"97506","locality":"Grafenrheinfeld","municipality":{"key":"09678136","name":"Grafenrheinfeld","type":"Kreisangehörige_Gemeinde"},"district":{"key":"09678","name":"Schweinfurt","type":"Landkreis"},"federalState":{"key":"09","name":"Bayern"}},{"name":"Grüner Winkel","postalCode":"97506","locality":"Grafenrheinfeld","municipality":{"key":"09678136","name":"Grafenrheinfeld","type":"Kreisangehörige_Gemeinde"},"district":{"key":"09678","name":"Schweinfurt","type":"Landkreis"},"federalState":{"key":"09","name":"Bayern"}},{"name":"Hauptstr.","postalCode":"97506","locality":"Grafenrheinfeld","municipality":{"key":"09678136","name":"Grafenrheinfeld","type":"Kreisangehörige_Gemeinde"},"district":{"key":"09678","name":"Schweinfurt","type":"Landkreis"},"federalState":{"key":"09","name":"Bayern"}},{"name":"Hermasweg","postalCode":"97506","locality":"Grafenrheinfeld","municipality":{"key":"09678136","name":"Grafenrheinfeld","type":"Kreisangehörige_Gemeinde"},"district":{"key":"09678","name":"Schweinfurt","type":"Landkreis"},"federalState":{"key":"09","name":"Bayern"}},{"name":"Herrngasse","postalCode":"97506","locality":"Grafenrheinfeld","municipality":{"key":"09678136","name":"Grafenrheinfeld","type":"Kreisangehörige_Gemeinde"},"district":{"key":"09678","name":"Schweinfurt","type":"Landkreis"},"federalState":{"key":"09","name":"Bayern"}},{"name":"Hopfengarten","postalCode":"97506","locality":"Grafenrheinfeld","municipality":{"key":"09678136","name":"Grafenrheinfeld","type":"Kreisangehörige_Gemeinde"},"district":{"key":"09678","name":"Schweinfurt","type":"Landkreis"},"federalState":{"key":"09","name":"Bayern"}},{"name":"Ignaz-Schön-Str.","postalCode":"97421","locality":"Schweinfurt","municipality":{"key":"09662000","name":"Schweinfurt","type":"Kreisfreie_Stadt"},"district":{"key":"09662","name":"Schweinfurt","type":"Kreisfreie_Stadt"},"federalState":{"key":"09","name":"Bayern"}},{"name":"Ilmenbergstr.","postalCode":"97422","locality":"Schweinfurt","municipality":{"key":"09662000","name":"Schweinfurt","type":"Kreisfreie_Stadt"},"district":{"key":"09662","name":"Schweinfurt","type":"Kreisfreie_Stadt"},"federalState":{"key":"09","name":"Bayern"}},{"name":"Im Grund","postalCode":"97422","locality":"Schweinfurt","municipality":{"key":"09662000","name":"Schweinfurt","type":"Kreisfreie_Stadt"},"district":{"key":"09662","name":"Schweinfurt","type":"Kreisfreie_Stadt"},"federalState":{"key":"09","name":"Bayern"}},{"name":"Im II. Wehr","postalCode":"97424","locality":"Schweinfurt","municipality":{"key":"09662000","name":"Schweinfurt","type":"Kreisfreie_Stadt"},"district":{"key":"09662","name":"Schweinfurt","type":"Kreisfreie_Stadt"},"federalState":{"key":"09","name":"Bayern"}},{"name":"Im I. Wehr","postalCode":"97424","locality":"Schweinfurt","municipality":{"key":"09662000","name":"Schweinfurt","type":"Kreisfreie_Stadt"},"district":{"key":"09662","name":"Schweinfurt","type":"Kreisfreie_Stadt"},"federalState":{"key":"09","name":"Bayern"}},{"name":"Im Steinach","postalCode":"97424","locality":"Schweinfurt","municipality":{"key":"09662000","name":"Schweinfurt","type":"Kreisfreie_Stadt"},"district":{"key":"09662","name":"Schweinfurt","type":"Kreisfreie_Stadt"},"federalState":{"key":"09","name":"Bayern"}},{"name":"Ina-Seidel-Str.","postalCode":"97422","locality":"Schweinfurt","municipality":{"key":"09662000","name":"Schweinfurt","type":"Kreisfreie_Stadt"},"district":{"key":"09662","name":"Schweinfurt","type":"Kreisfreie_Stadt"},"federalState":{"key":"09","name":"Bayern"}},{"name":"In den Maingärten","postalCode":"97422","locality":"Schweinfurt","municipality":{"key":"09662000","name":"Schweinfurt","type":"Kreisfreie_Stadt"},"district":{"key":"09662","name":"Schweinfurt","type":"Kreisfreie_Stadt"},"federalState":{"key":"09","name":"Bayern"}},{"name":"Isi-Huber-Str.","postalCode":"97424","locality":"Schweinfurt","municipality":{"key":"09662000","name":"Schweinfurt","type":"Kreisfreie_Stadt"},"district":{"key":"09662","name":"Schweinfurt","type":"Kreisfreie_Stadt"},"federalState":{"key":"09","name":"Bayern"}},{"name":"Jahnstr.","postalCode":"97506","locality":"Grafenrheinfeld","municipality":{"key":"09678136","name":"Grafenrheinfeld","type":"Kreisangehörige_Gemeinde"},"district":{"key":"09678","name":"Schweinfurt","type":"Landkreis"},"federalState":{"key":"09","name":"Bayern"}},{"name":"Johann-Köhler-Str.","postalCode":"97506","locality":"Grafenrheinfeld","municipality":{"key":"09678136","name":"Grafenrheinfeld","type":"Kreisangehörige_Gemeinde"},"district":{"key":"09678","name":"Schweinfurt","type":"Landkreis"},"federalState":{"key":"09","name":"Bayern"}},{"name":"Kantstr.","postalCode":"97506","locality":"Grafenrheinfeld","municipality":{"key":"09678136","name":"Grafenrheinfeld","type":"Kreisangehörige_Gemeinde"},"district":{"key":"09678","name":"Schweinfurt","type":"Landkreis"},"federalState":{"key":"09","name":"Bayern"}},{"name":"Kapellenweg","postalCode":"97506","locality":"Grafenrheinfeld","municipality":{"key":"09678136","name":"Grafenrheinfeld","type":"Kreisangehörige_Gemeinde"},"district":{"key":"09678","name":"Schweinfurt","type":"Landkreis"},"federalState":{"key":"09","name":"Bayern"}},{"name":"Kirchplatz","postalCode":"97506","locality":"Grafenrheinfeld","municipality":{"key":"09678136","name":"Grafenrheinfeld","type":"Kreisangehörige_Gemeinde"},"district":{"key":"09678","name":"Schweinfurt","type":"Landkreis"},"federalState":{"key":"09","name":"Bayern"}},{"name":"Krautgasse","postalCode":"97506","locality":"Grafenrheinfeld","municipality":{"key":"09678136","name":"Grafenrheinfeld","type":"Kreisangehörige_Gemeinde"},"district":{"key":"09678","name":"Schweinfurt","type":"Landkreis"},"federalState":{"key":"09","name":"Bayern"}},{"name":"Kreuzstr.","postalCode":"97506","locality":"Grafenrheinfeld","municipality":{"key":"09678136","name":"Grafenrheinfeld","type":"Kreisangehörige_Gemeinde"},"district":{"key":"09678","name":"Schweinfurt","type":"Landkreis"},"federalState":{"key":"09","name":"Bayern"}},{"name":"Lindenstr.","postalCode":"97506","locality":"Grafenrheinfeld","municipality":{"key":"09678136","name":"Grafenrheinfeld","type":"Kreisangehörige_Gemeinde"},"district":{"key":"09678","name":"Schweinfurt","type":"Landkreis"},"federalState":{"key":"09","name":"Bayern"}},{"name":"Linsengasse","postalCode":"97506","locality":"Grafenrheinfeld","municipality":{"key":"09678136","name":"Grafenrheinfeld","type":"Kreisangehörige_Gemeinde"},"district":{"key":"09678","name":"Schweinfurt","type":"Landkreis"},"federalState":{"key":"09","name":"Bayern"}},{"name":"Maingasse","postalCode":"97506","locality":"Grafenrheinfeld","municipality":{"key":"09678136","name":"Grafenrheinfeld","type":"Kreisangehörige_Gemeinde"},"district":{"key":"09678","name":"Schweinfurt","type":"Landkreis"},"federalState":{"key":"09","name":"Bayern"}},{"name":"Margarethe-Schreiber-Str.","postalCode":"97506","locality":"Grafenrheinfeld","municipality":{"key":"09678136","name":"Grafenrheinfeld","type":"Kreisangehörige_Gemeinde"},"district":{"key":"09678","name":"Schweinfurt","type":"Landkreis"},"federalState":{"key":"09","name":"Bayern"}},{"name":"Marktplatz","postalCode":"97506","locality":"Grafenrheinfeld","municipality":{"key":"09678136","name":"Grafenrheinfeld","type":"Kreisangehörige_Gemeinde"},"district":{"key":"09678","name":"Schweinfurt","type":"Landkreis"},"federalState":{"key":"09","name":"Bayern"}},{"name":"Mozartstr.","postalCode":"97506","locality":"Grafenrheinfeld","municipality":{"key":"09678136","name":"Grafenrheinfeld","type":"Kreisangehörige_Gemeinde"},"district":{"key":"09678","name":"Schweinfurt","type":"Landkreis"},"federalState":{"key":"09","name":"Bayern"}},{"name":"Nikolaus-Fey-Str.","postalCode":"97506","locality":"Grafenrheinfeld","municipality":{"key":"09678136","name":"Grafenrheinfeld","type":"Kreisangehörige_Gemeinde"},"district":{"key":"09678","name":"Schweinfurt","type":"Landkreis"},"federalState":{"key":"09","name":"Bayern"}},{"name":"Oberer Dorfgraben","postalCode":"97506","locality":"Grafenrheinfeld","municipality":{"key":"09678136","name":"Grafenrheinfeld","type":"Kreisangehörige_Gemeinde"},"district":{"key":"09678","name":"Schweinfurt","type":"Landkreis"},"federalState":{"key":"09","name":"Bayern"}},{"name":"Paul-Gerhardt-Str.","postalCode":"97421","locality":"Schweinfurt","municipality":{"key":"09662000","name":"Schweinfurt","type":"Kreisfreie_Stadt"},"district":{"key":"09662","name":"Schweinfurt","type":"Kreisfreie_Stadt"},"federalState":{"key":"09","name":"Bayern"}},{"name":"Paul-Gerhardt-Str.","postalCode":"97424","locality":"Schweinfurt","municipality":{"key":"09662000","name":"Schweinfurt","type":"Kreisfreie_Stadt"},"district":{"key":"09662","name":"Schweinfurt","type":"Kreisfreie_Stadt"},"federalState":{"key":"09","name":"Bayern"}},{"name":"Paul-Klee-Str.","postalCode":"97422","locality":"Schweinfurt","municipality":{"key":"09662000","name":"Schweinfurt","type":"Kreisfreie_Stadt"},"district":{"key":"09662","name":"Schweinfurt","type":"Kreisfreie_Stadt"},"federalState":{"key":"09","name":"Bayern"}},{"name":"Paul-Rosa-Str.","postalCode":"97422","locality":"Schweinfurt","municipality":{"key":"09662000","name":"Schweinfurt","type":"Kreisfreie_Stadt"},"district":{"key":"09662","name":"Schweinfurt","type":"Kreisfreie_Stadt"},"federalState":{"key":"09","name":"Bayern"}},{"name":"Paul-Rummert-Ring","postalCode":"97421","locality":"Schweinfurt","municipality":{"key":"09662000","name":"Schweinfurt","type":"Kreisfreie_Stadt"},"district":{"key":"09662","name":"Schweinfurt","type":"Kreisfreie_Stadt"},"federalState":{"key":"09","name":"Bayern"}},{"name":"Pestalozzistr.","postalCode":"97421","locality":"Schweinfurt","municipality":{"key":"09662000","name":"Schweinfurt","type":"Kreisfreie_Stadt"},"district":{"key":"09662","name":"Schweinfurt","type":"Kreisfreie_Stadt"},"federalState":{"key":"09","name":"Bayern"}},{"name":"Peter-Krammer-Str.","postalCode":"97424","locality":"Schweinfurt","municipality":{"key":"09662000","name":"Schweinfurt","type":"Kreisfreie_Stadt"},"district":{"key":"09662","name":"Schweinfurt","type":"Kreisfreie_Stadt"},"federalState":{"key":"09","name":"Bayern"}},{"name":"Pfarrgasse","postalCode":"97424","locality":"Schweinfurt","municipality":{"key":"09662000","name":"Schweinfurt","type":"Kreisfreie_Stadt"},"district":{"key":"09662","name":"Schweinfurt","type":"Kreisfreie_Stadt"},"federalState":{"key":"09","name":"Bayern"}},{"name":"Pfarrgraben","postalCode":"97424","locality":"Schweinfurt","municipality":{"key":"09662000","name":"Schweinfurt","type":"Kreisfreie_Stadt"},"district":{"key":"09662","name":"Schweinfurt","type":"Kreisfreie_Stadt"},"federalState":{"key":"09","name":"Bayern"}},{"name":"Pfister-Park","postalCode":"97424","locality":"Schweinfurt","municipality":{"key":"09662000","name":"Schweinfurt","type":"Kreisfreie_Stadt"},"district":{"key":"09662","name":"Schweinfurt","type":"Kreisfreie_Stadt"},"federalState":{"key":"09","name":"Bayern"}},{"name":"Pfisterplatz","postalCode":"97424","locality":"Schweinfurt","municipality":{"key":"09662000","name":"Schweinfurt","type":"Kreisfreie_Stadt"},"district":{"key":"09662","name":"Schweinfurt","type":"Kreisfreie_Stadt"},"federalState":{"key":"09","name":"Bayern"}},{"name":"Philosophengang","postalCode":"97421","locality":"Schweinfurt","municipality":{"key":"09662000","name":"Schweinfurt","type":"Kreisfreie_Stadt"},"district":{"key":"09662","name":"Schweinfurt","type":"Kreisfreie_Stadt"},"federalState":{"key":"09","name":"Bayern"}},{"name":"Pirolweg","postalCode":"97422","locality":"Schweinfurt","municipality":{"key":"09662000","name":"Schweinfurt","type":"Kreisfreie_Stadt"},"district":{"key":"09662","name":"Schweinfurt","type":"Kreisfreie_Stadt"},"federalState":{"key":"09","name":"Bayern"}},{"name":"Quellenweg","postalCode":"97422","locality":"Schweinfurt","municipality":{"key":"09662000","name":"Schweinfurt","type":"Kreisfreie_Stadt"},"district":{"key":"09662","name":"Schweinfurt","type":"Kreisfreie_Stadt"},"federalState":{"key":"09","name":"Bayern"}},{"name":"Raiffeisenstr.","postalCode":"97506","locality":"Grafenrheinfeld","municipality":{"key":"09678136","name":"Grafenrheinfeld","type":"Kreisangehörige_Gemeinde"},"district":{"key":"09678","name":"Schweinfurt","type":"Landkreis"},"federalState":{"key":"09","name":"Bayern"}},{"name":"Schillerstr.","postalCode":"97506","locality":"Grafenrheinfeld","municipality":{"key":"09678136","name":"Grafenrheinfeld","type":"Kreisangehörige_Gemeinde"},"district":{"key":"09678","name":"Schweinfurt","type":"Landkreis"},"federalState":{"key":"09","name":"Bayern"}},{"name":"Schmiedgasse","postalCode":"97506","locality":"Grafenrheinfeld","municipality":{"key":"09678136","name":"Grafenrheinfeld","type":"Kreisangehörige_Gemeinde"},"district":{"key":"09678","name":"Schweinfurt","type":"Landkreis"},"federalState":{"key":"09","name":"Bayern"}},{"name":"Schulgasse","postalCode":"97506","locality":"Grafenrheinfeld","municipality":{"key":"09678136","name":"Grafenrheinfeld","type":"Kreisangehörige_Gemeinde"},"district":{"key":"09678","name":"Schweinfurt","type":"Landkreis"},"federalState":{"key":"09","name":"Bayern"}},{"name":"Schweinfurter Str.","postalCode":"97506","locality":"Grafenrheinfeld","municipality":{"key":"09678136","name":"Grafenrheinfeld","type":"Kreisangehörige_Gemeinde"},"district":{"key":"09678","name":"Schweinfurt","type":"Landkreis"},"federalState":{"key":"09","name":"Bayern"}},{"name":"Schwester-Linolda-Weg","postalCode":"97506","locality":"Grafenrheinfeld","municipality":{"key":"09678136","name":"Grafenrheinfeld","type":"Kreisangehörige_Gemeinde"},"district":{"key":"09678","name":"Schweinfurt","type":"Landkreis"},"federalState":{"key":"09","name":"Bayern"}},{"name":"Siedlung","postalCode":"97506","locality":"Grafenrheinfeld","municipality":{"key":"09678136","name":"Grafenrheinfeld","type":"Kreisangehörige_Gemeinde"},"district":{"key":"09678","name":"Schweinfurt","type":"Landkreis"},"federalState":{"key":"09","name":"Bayern"}},{"name":"Spitalgasse","postalCode":"97506","locality":"Grafenrheinfeld","municipality":{"key":"09678136","name":"Grafenrheinfeld","type":"Kreisangehörige_Gemeinde"},"district":{"key":"09678","name":"Schweinfurt","type":"Landkreis"},"federalState":{"key":"09","name":"Bayern"}},{"name":"Tannenweg","postalCode":"97422","locality":"Schweinfurt","municipality":{"key":"09662000","name":"Schweinfurt","type":"Kreisfreie_Stadt"},"district":{"key":"09662","name":"Schweinfurt","type":"Kreisfreie_Stadt"},"federalState":{"key":"09","name":"Bayern"}},{"name":"Tauberweg","postalCode":"97422","locality":"Schweinfurt","municipality":{"key":"09662000","name":"Schweinfurt","type":"Kreisfreie_Stadt"},"district":{"key":"09662","name":"Schweinfurt","type":"Kreisfreie_Stadt"},"federalState":{"key":"09","name":"Bayern"}},{"name":"Teilberg","postalCode":"97422","locality":"Schweinfurt","municipality":{"key":"09662000","name":"Schweinfurt","type":"Kreisfreie_Stadt"},"district":{"key":"09662","name":"Schweinfurt","type":"Kreisfreie_Stadt"},"federalState":{"key":"09","name":"Bayern"}},{"name":"Texasstr.","postalCode":"97424","locality":"Schweinfurt","municipality":{"key":"09662000","name":"Schweinfurt","type":"Kreisfreie_Stadt"},"district":{"key":"09662","name":"Schweinfurt","type":"Kreisfreie_Stadt"},"federalState":{"key":"09","name":"Bayern"}},{"name":"Theodor-Fischer-Platz","postalCode":"97421","locality":"Schweinfurt","municipality":{"key":"09662000","name":"Schweinfurt","type":"Kreisfreie_Stadt"},"district":{"key":"09662","name":"Schweinfurt","type":"Kreisfreie_Stadt"},"federalState":{"key":"09","name":"Bayern"}},{"name":"Theodor-Heuss-Str.","postalCode":"97422","locality":"Schweinfurt","municipality":{"key":"09662000","name":"Schweinfurt","type":"Kreisfreie_Stadt"},"district":{"key":"09662","name":"Schweinfurt","type":"Kreisfreie_Stadt"},"federalState":{"key":"09","name":"Bayern"}},{"name":"Theresienstr.","postalCode":"97421","locality":"Schweinfurt","municipality":{"key":"09662000","name":"Schweinfurt","type":"Kreisfreie_Stadt"},"district":{"key":"09662","name":"Schweinfurt","type":"Kreisfreie_Stadt"},"federalState":{"key":"09","name":"Bayern"}},{"name":"Theuerbrünnleinsweg","postalCode":"97422","locality":"Schweinfurt","municipality":{"key":"09662000","name":"Schweinfurt","type":"Kreisfreie_Stadt"},"district":{"key":"09662","name":"Schweinfurt","type":"Kreisfreie_Stadt"},"federalState":{"key":"09","name":"Bayern"}},{"name":"Thomas-Mann-Str.","postalCode":"97422","locality":"Schweinfurt","municipality":{"key":"09662000","name":"Schweinfurt","type":"Kreisfreie_Stadt"},"district":{"key":"09662","name":"Schweinfurt","type":"Kreisfreie_Stadt"},"federalState":{"key":"09","name":"Bayern"}},{"name":"Thomas-Mann-Str.","postalCode":"97424","locality":"Schweinfurt","municipality":{"key":"09662000","name":"Schweinfurt","type":"Kreisfreie_Stadt"},"district":{"key":"09662","name":"Schweinfurt","type":"Kreisfreie_Stadt"},"federalState":{"key":"09","name":"Bayern"}},{"name":"Thulbaweg","postalCode":"97422","locality":"Schweinfurt","municipality":{"key":"09662000","name":"Schweinfurt","type":"Kreisfreie_Stadt"},"district":{"key":"09662","name":"Schweinfurt","type":"Kreisfreie_Stadt"},"federalState":{"key":"09","name":"Bayern"}},{"name":"Tilman-Riemenschneider-Str.","postalCode":"97422","locality":"Schweinfurt","municipality":{"key":"09662000","name":"Schweinfurt","type":"Kreisfreie_Stadt"},"district":{"key":"09662","name":"Schweinfurt","type":"Kreisfreie_Stadt"},"federalState":{"key":"09","name":"Bayern"}},{"name":"Tilsitstr.","postalCode":"97424","locality":"Schweinfurt","municipality":{"key":"09662000","name":"Schweinfurt","type":"Kreisfreie_Stadt"},"district":{"key":"09662","name":"Schweinfurt","type":"Kreisfreie_Stadt"},"federalState":{"key":"09","name":"Bayern"}},{"name":"Turnierweg","postalCode":"97422","locality":"Schweinfurt","municipality":{"key":"09662000","name":"Schweinfurt","type":"Kreisfreie_Stadt"},"district":{"key":"09662","name":"Schweinfurt","type":"Kreisfreie_Stadt"},"federalState":{"key":"09","name":"Bayern"}},{"name":"Unterer Dorfgraben","postalCode":"97506","locality":"Grafenrheinfeld","municipality":{"key":"09678136","name":"Grafenrheinfeld","type":"Kreisangehörige_Gemeinde"},"district":{"key":"09678","name":"Schweinfurt","type":"Landkreis"},"federalState":{"key":"09","name":"Bayern"}},{"name":"Veit-Stoß-Str.","postalCode":"97422","locality":"Schweinfurt","municipality":{"key":"09662000","name":"Schweinfurt","type":"Kreisfreie_Stadt"},"district":{"key":"09662","name":"Schweinfurt","type":"Kreisfreie_Stadt"},"federalState":{"key":"09","name":"Bayern"}},{"name":"Voitstr.","postalCode":"97422","locality":"Schweinfurt","municipality":{"key":"09662000","name":"Schweinfurt","type":"Kreisfreie_Stadt"},"district":{"key":"09662","name":"Schweinfurt","type":"Kreisfreie_Stadt"},"federalState":{"key":"09","name":"Bayern"}},{"name":"Vorderer Kindleinsweg","postalCode":"97424","locality":"Schweinfurt","municipality":{"key":"09662000","name":"Schweinfurt","type":"Kreisfreie_Stadt"},"district":{"key":"09662","name":"Schweinfurt","type":"Kreisfreie_Stadt"},"federalState":{"key":"09","name":"Bayern"}},{"name":"Wehrspitzweg","postalCode":"97506","locality":"Grafenrheinfeld","municipality":{"key":"09678136","name":"Grafenrheinfeld","type":"Kreisangehörige_Gemeinde"},"district":{"key":"09678","name":"Schweinfurt","type":"Landkreis"},"federalState":{"key":"09","name":"Bayern"}},{"name":"Zabelsteinstr.","postalCode":"97422","locality":"Schweinfurt","municipality":{"key":"09662000","name":"Schweinfurt","type":"Kreisfreie_Stadt"},"district":{"key":"09662","name":"Schweinfurt","type":"Kreisfreie_Stadt"},"federalState":{"key":"09","name":"Bayern"}},{"name":"Zehntstr.","postalCode":"97421","locality":"Schweinfurt","municipality":{"key":"09662000","name":"Schweinfurt","type":"Kreisfreie_Stadt"},"district":{"key":"09662","name":"Schweinfurt","type":"Kreisfreie_Stadt"},"federalState":{"key":"09","name":"Bayern"}},{"name":"Zeisigstr.","postalCode":"97422","locality":"Schweinfurt","municipality":{"key":"09662000","name":"Schweinfurt","type":"Kreisfreie_Stadt"},"district":{"key":"09662","name":"Schweinfurt","type":"Kreisfreie_Stadt"},"federalState":{"key":"09","name":"Bayern"}},{"name":"Zeller Str.","postalCode":"97422","locality":"Schweinfurt","municipality":{"key":"09662000","name":"Schweinfurt","type":"Kreisfreie_Stadt"},"district":{"key":"09662","name":"Schweinfurt","type":"Kreisfreie_Stadt"},"federalState":{"key":"09","name":"Bayern"}},{"name":"Zeppelinstr.","postalCode":"97424","locality":"Schweinfurt","municipality":{"key":"09662000","name":"Schweinfurt","type":"Kreisfreie_Stadt"},"district":{"key":"09662","name":"Schweinfurt","type":"Kreisfreie_Stadt"},"federalState":{"key":"09","name":"Bayern"}},{"name":"Zigeunerlandwehr","postalCode":"97424","locality":"Schweinfurt","municipality":{"key":"09662000","name":"Schweinfurt","type":"Kreisfreie_Stadt"},"district":{"key":"09662","name":"Schweinfurt","type":"Kreisfreie_Stadt"},"federalState":{"key":"09","name":"Bayern"}},{"name":"Zürch","postalCode":"97421","locality":"Schweinfurt","municipality":{"key":"09662000","name":"Schweinfurt","type":"Kreisfreie_Stadt"},"district":{"key":"09662","name":"Schweinfurt","type":"Kreisfreie_Stadt"},"federalState":{"key":"09","name":"Bayern"}},{"name":"Zur Hölle","postalCode":"97422","locality":"Schweinfurt","municipality":{"key":"09662000","name":"Schweinfurt","type":"Kreisfreie_Stadt"},"district":{"key":"09662","name":"Schweinfurt","type":"Kreisfreie_Stadt"},"federalState":{"key":"09","name":"Bayern"}},{"name":"Zur Wasserleitung","postalCode":"97422","locality":"Schweinfurt","municipality":{"key":"09662000","name":"Schweinfurt","type":"Kreisfreie_Stadt"},"district":{"key":"09662","name":"Schweinfurt","type":"Kreisfreie_Stadt"},"federalState":{"key":"09","name":"Bayern"}},{"name":"Zwinger","postalCode":"97421","locality":"Schweinfurt","municipality":{"key":"09662000","name":"Schweinfurt","type":"Kreisfreie_Stadt"},"district":{"key":"09662","name":"Schweinfurt","type":"Kreisfreie_Stadt"},"federalState":{"key":"09","name":"Bayern"}},]