[{"name":"Achterworth","postalCode":"24360","locality":"Barkelsby","municipality":{"key":"01058012","name":"Barkelsby","type":"Kreisangehörige_Gemeinde"},"district":{"key":"01058","name":"Rendsburg-Eckernförde","type":"Kreis"},"federalState":{"key":"01","name":"Schleswig-Holstein"}},{"name":"Am Redder","postalCode":"24360","locality":"Barkelsby","municipality":{"key":"01058012","name":"Barkelsby","type":"Kreisangehörige_Gemeinde"},"district":{"key":"01058","name":"Rendsburg-Eckernförde","type":"Kreis"},"federalState":{"key":"01","name":"Schleswig-Holstein"}},{"name":"Am Sportplatz","postalCode":"24360","locality":"Barkelsby","municipality":{"key":"01058012","name":"Barkelsby","type":"Kreisangehörige_Gemeinde"},"district":{"key":"01058","name":"Rendsburg-Eckernförde","type":"Kreis"},"federalState":{"key":"01","name":"Schleswig-Holstein"}},{"name":"An der Aue","postalCode":"24360","locality":"Barkelsby","municipality":{"key":"01058012","name":"Barkelsby","type":"Kreisangehörige_Gemeinde"},"district":{"key":"01058","name":"Rendsburg-Eckernförde","type":"Kreis"},"federalState":{"key":"01","name":"Schleswig-Holstein"}},{"name":"An der Schmiede","postalCode":"24360","locality":"Barkelsby","municipality":{"key":"01058012","name":"Barkelsby","type":"Kreisangehörige_Gemeinde"},"district":{"key":"01058","name":"Rendsburg-Eckernförde","type":"Kreis"},"federalState":{"key":"01","name":"Schleswig-Holstein"}},{"name":"Aukamp","postalCode":"24360","locality":"Barkelsby","municipality":{"key":"01058012","name":"Barkelsby","type":"Kreisangehörige_Gemeinde"},"district":{"key":"01058","name":"Rendsburg-Eckernförde","type":"Kreis"},"federalState":{"key":"01","name":"Schleswig-Holstein"}},{"name":"Böhnrüher Weg","postalCode":"24360","locality":"Barkelsby","municipality":{"key":"01058012","name":"Barkelsby","type":"Kreisangehörige_Gemeinde"},"district":{"key":"01058","name":"Rendsburg-Eckernförde","type":"Kreis"},"federalState":{"key":"01","name":"Schleswig-Holstein"}},{"name":"Diekstöken","postalCode":"24360","locality":"Barkelsby","municipality":{"key":"01058012","name":"Barkelsby","type":"Kreisangehörige_Gemeinde"},"district":{"key":"01058","name":"Rendsburg-Eckernförde","type":"Kreis"},"federalState":{"key":"01","name":"Schleswig-Holstein"}},{"name":"Dorfstr.","postalCode":"24360","locality":"Barkelsby","municipality":{"key":"01058012","name":"Barkelsby","type":"Kreisangehörige_Gemeinde"},"district":{"key":"01058","name":"Rendsburg-Eckernförde","type":"Kreis"},"federalState":{"key":"01","name":"Schleswig-Holstein"}},{"name":"Drosselweg","postalCode":"24360","locality":"Barkelsby","municipality":{"key":"01058012","name":"Barkelsby","type":"Kreisangehörige_Gemeinde"},"district":{"key":"01058","name":"Rendsburg-Eckernförde","type":"Kreis"},"federalState":{"key":"01","name":"Schleswig-Holstein"}},{"name":"Eckernförder Str.","postalCode":"24360","locality":"Barkelsby","municipality":{"key":"01058012","name":"Barkelsby","type":"Kreisangehörige_Gemeinde"},"district":{"key":"01058","name":"Rendsburg-Eckernförde","type":"Kreis"},"federalState":{"key":"01","name":"Schleswig-Holstein"}},{"name":"Finkenweg","postalCode":"24360","locality":"Barkelsby","municipality":{"key":"01058012","name":"Barkelsby","type":"Kreisangehörige_Gemeinde"},"district":{"key":"01058","name":"Rendsburg-Eckernförde","type":"Kreis"},"federalState":{"key":"01","name":"Schleswig-Holstein"}},{"name":"Forsthaus","postalCode":"24360","locality":"Barkelsby","municipality":{"key":"01058012","name":"Barkelsby","type":"Kreisangehörige_Gemeinde"},"district":{"key":"01058","name":"Rendsburg-Eckernförde","type":"Kreis"},"federalState":{"key":"01","name":"Schleswig-Holstein"}},{"name":"Gildeweg","postalCode":"24360","locality":"Barkelsby","municipality":{"key":"01058012","name":"Barkelsby","type":"Kreisangehörige_Gemeinde"},"district":{"key":"01058","name":"Rendsburg-Eckernförde","type":"Kreis"},"federalState":{"key":"01","name":"Schleswig-Holstein"}},{"name":"Hemmelmark","postalCode":"24360","locality":"Barkelsby","municipality":{"key":"01058012","name":"Barkelsby","type":"Kreisangehörige_Gemeinde"},"district":{"key":"01058","name":"Rendsburg-Eckernförde","type":"Kreis"},"federalState":{"key":"01","name":"Schleswig-Holstein"}},{"name":"Kasmarker Weg","postalCode":"24360","locality":"Barkelsby","municipality":{"key":"01058012","name":"Barkelsby","type":"Kreisangehörige_Gemeinde"},"district":{"key":"01058","name":"Rendsburg-Eckernförde","type":"Kreis"},"federalState":{"key":"01","name":"Schleswig-Holstein"}},{"name":"Kirchenweg","postalCode":"24360","locality":"Barkelsby","municipality":{"key":"01058012","name":"Barkelsby","type":"Kreisangehörige_Gemeinde"},"district":{"key":"01058","name":"Rendsburg-Eckernförde","type":"Kreis"},"federalState":{"key":"01","name":"Schleswig-Holstein"}},{"name":"Louisenberger Weg","postalCode":"24360","locality":"Barkelsby","municipality":{"key":"01058012","name":"Barkelsby","type":"Kreisangehörige_Gemeinde"},"district":{"key":"01058","name":"Rendsburg-Eckernförde","type":"Kreis"},"federalState":{"key":"01","name":"Schleswig-Holstein"}},{"name":"Mohrberger Weg","postalCode":"24360","locality":"Barkelsby","municipality":{"key":"01058012","name":"Barkelsby","type":"Kreisangehörige_Gemeinde"},"district":{"key":"01058","name":"Rendsburg-Eckernförde","type":"Kreis"},"federalState":{"key":"01","name":"Schleswig-Holstein"}},{"name":"Riesebyer Str.","postalCode":"24360","locality":"Barkelsby","municipality":{"key":"01058012","name":"Barkelsby","type":"Kreisangehörige_Gemeinde"},"district":{"key":"01058","name":"Rendsburg-Eckernförde","type":"Kreis"},"federalState":{"key":"01","name":"Schleswig-Holstein"}},{"name":"Ringstr.","postalCode":"24360","locality":"Barkelsby","municipality":{"key":"01058012","name":"Barkelsby","type":"Kreisangehörige_Gemeinde"},"district":{"key":"01058","name":"Rendsburg-Eckernförde","type":"Kreis"},"federalState":{"key":"01","name":"Schleswig-Holstein"}},{"name":"Rommelsworth","postalCode":"24360","locality":"Barkelsby","municipality":{"key":"01058012","name":"Barkelsby","type":"Kreisangehörige_Gemeinde"},"district":{"key":"01058","name":"Rendsburg-Eckernförde","type":"Kreis"},"federalState":{"key":"01","name":"Schleswig-Holstein"}},{"name":"Rossee","postalCode":"24360","locality":"Barkelsby","municipality":{"key":"01058012","name":"Barkelsby","type":"Kreisangehörige_Gemeinde"},"district":{"key":"01058","name":"Rendsburg-Eckernförde","type":"Kreis"},"federalState":{"key":"01","name":"Schleswig-Holstein"}},{"name":"Schmiede","postalCode":"24360","locality":"Barkelsby","municipality":{"key":"01058012","name":"Barkelsby","type":"Kreisangehörige_Gemeinde"},"district":{"key":"01058","name":"Rendsburg-Eckernförde","type":"Kreis"},"federalState":{"key":"01","name":"Schleswig-Holstein"}},{"name":"Schmiedekoppel","postalCode":"24360","locality":"Barkelsby","municipality":{"key":"01058012","name":"Barkelsby","type":"Kreisangehörige_Gemeinde"},"district":{"key":"01058","name":"Rendsburg-Eckernförde","type":"Kreis"},"federalState":{"key":"01","name":"Schleswig-Holstein"}},{"name":"Schusterredder","postalCode":"24360","locality":"Barkelsby","municipality":{"key":"01058012","name":"Barkelsby","type":"Kreisangehörige_Gemeinde"},"district":{"key":"01058","name":"Rendsburg-Eckernförde","type":"Kreis"},"federalState":{"key":"01","name":"Schleswig-Holstein"}},{"name":"Schwansenstr.","postalCode":"24360","locality":"Barkelsby","municipality":{"key":"01058012","name":"Barkelsby","type":"Kreisangehörige_Gemeinde"},"district":{"key":"01058","name":"Rendsburg-Eckernförde","type":"Kreis"},"federalState":{"key":"01","name":"Schleswig-Holstein"}},{"name":"Selbarg","postalCode":"24360","locality":"Barkelsby","municipality":{"key":"01058012","name":"Barkelsby","type":"Kreisangehörige_Gemeinde"},"district":{"key":"01058","name":"Rendsburg-Eckernförde","type":"Kreis"},"federalState":{"key":"01","name":"Schleswig-Holstein"}},{"name":"Waabser Chaussee","postalCode":"24360","locality":"Barkelsby","municipality":{"key":"01058012","name":"Barkelsby","type":"Kreisangehörige_Gemeinde"},"district":{"key":"01058","name":"Rendsburg-Eckernförde","type":"Kreis"},"federalState":{"key":"01","name":"Schleswig-Holstein"}},{"name":"Weidenkamp","postalCode":"24360","locality":"Barkelsby","municipality":{"key":"01058012","name":"Barkelsby","type":"Kreisangehörige_Gemeinde"},"district":{"key":"01058","name":"Rendsburg-Eckernförde","type":"Kreis"},"federalState":{"key":"01","name":"Schleswig-Holstein"}},{"name":"Westerschauer Weg","postalCode":"24360","locality":"Barkelsby","municipality":{"key":"01058012","name":"Barkelsby","type":"Kreisangehörige_Gemeinde"},"district":{"key":"01058","name":"Rendsburg-Eckernförde","type":"Kreis"},"federalState":{"key":"01","name":"Schleswig-Holstein"}},]