[{"name":"Am Borngraben","postalCode":"63826","locality":"Geiselbach","municipality":{"key":"09671119","name":"Geiselbach","type":"Kreisangehörige_Gemeinde"},"district":{"key":"09671","name":"Aschaffenburg","type":"Landkreis"},"federalState":{"key":"09","name":"Bayern"}},{"name":"Am Frohnbügel","postalCode":"63826","locality":"Geiselbach","municipality":{"key":"09671119","name":"Geiselbach","type":"Kreisangehörige_Gemeinde"},"district":{"key":"09671","name":"Aschaffenburg","type":"Landkreis"},"federalState":{"key":"09","name":"Bayern"}},{"name":"Am Heiligengarten","postalCode":"63826","locality":"Geiselbach","municipality":{"key":"09671119","name":"Geiselbach","type":"Kreisangehörige_Gemeinde"},"district":{"key":"09671","name":"Aschaffenburg","type":"Landkreis"},"federalState":{"key":"09","name":"Bayern"}},{"name":"Am Hirtenberg","postalCode":"63826","locality":"Geiselbach","municipality":{"key":"09671119","name":"Geiselbach","type":"Kreisangehörige_Gemeinde"},"district":{"key":"09671","name":"Aschaffenburg","type":"Landkreis"},"federalState":{"key":"09","name":"Bayern"}},{"name":"Am Hirtengraben","postalCode":"63826","locality":"Geiselbach","municipality":{"key":"09671119","name":"Geiselbach","type":"Kreisangehörige_Gemeinde"},"district":{"key":"09671","name":"Aschaffenburg","type":"Landkreis"},"federalState":{"key":"09","name":"Bayern"}},{"name":"Am Rainchen","postalCode":"63826","locality":"Geiselbach","municipality":{"key":"09671119","name":"Geiselbach","type":"Kreisangehörige_Gemeinde"},"district":{"key":"09671","name":"Aschaffenburg","type":"Landkreis"},"federalState":{"key":"09","name":"Bayern"}},{"name":"Am Sportplatz","postalCode":"63826","locality":"Geiselbach","municipality":{"key":"09671119","name":"Geiselbach","type":"Kreisangehörige_Gemeinde"},"district":{"key":"09671","name":"Aschaffenburg","type":"Landkreis"},"federalState":{"key":"09","name":"Bayern"}},{"name":"Am Steinbruch","postalCode":"63826","locality":"Geiselbach","municipality":{"key":"09671119","name":"Geiselbach","type":"Kreisangehörige_Gemeinde"},"district":{"key":"09671","name":"Aschaffenburg","type":"Landkreis"},"federalState":{"key":"09","name":"Bayern"}},{"name":"Am Steinchen","postalCode":"63826","locality":"Geiselbach","municipality":{"key":"09671119","name":"Geiselbach","type":"Kreisangehörige_Gemeinde"},"district":{"key":"09671","name":"Aschaffenburg","type":"Landkreis"},"federalState":{"key":"09","name":"Bayern"}},{"name":"Am Trieb","postalCode":"63826","locality":"Geiselbach","municipality":{"key":"09671119","name":"Geiselbach","type":"Kreisangehörige_Gemeinde"},"district":{"key":"09671","name":"Aschaffenburg","type":"Landkreis"},"federalState":{"key":"09","name":"Bayern"}},{"name":"Am Weiher","postalCode":"63826","locality":"Geiselbach","municipality":{"key":"09671119","name":"Geiselbach","type":"Kreisangehörige_Gemeinde"},"district":{"key":"09671","name":"Aschaffenburg","type":"Landkreis"},"federalState":{"key":"09","name":"Bayern"}},{"name":"Am Wickengarten","postalCode":"63826","locality":"Geiselbach","municipality":{"key":"09671119","name":"Geiselbach","type":"Kreisangehörige_Gemeinde"},"district":{"key":"09671","name":"Aschaffenburg","type":"Landkreis"},"federalState":{"key":"09","name":"Bayern"}},{"name":"Am Wiesenrain","postalCode":"63826","locality":"Geiselbach","municipality":{"key":"09671119","name":"Geiselbach","type":"Kreisangehörige_Gemeinde"},"district":{"key":"09671","name":"Aschaffenburg","type":"Landkreis"},"federalState":{"key":"09","name":"Bayern"}},{"name":"Bergstr.","postalCode":"63826","locality":"Geiselbach","municipality":{"key":"09671119","name":"Geiselbach","type":"Kreisangehörige_Gemeinde"},"district":{"key":"09671","name":"Aschaffenburg","type":"Landkreis"},"federalState":{"key":"09","name":"Bayern"}},{"name":"Birkenhainer Str.","postalCode":"63826","locality":"Geiselbach","municipality":{"key":"09671119","name":"Geiselbach","type":"Kreisangehörige_Gemeinde"},"district":{"key":"09671","name":"Aschaffenburg","type":"Landkreis"},"federalState":{"key":"09","name":"Bayern"}},{"name":"Breiter Weg","postalCode":"63826","locality":"Geiselbach","municipality":{"key":"09671119","name":"Geiselbach","type":"Kreisangehörige_Gemeinde"},"district":{"key":"09671","name":"Aschaffenburg","type":"Landkreis"},"federalState":{"key":"09","name":"Bayern"}},{"name":"Brunnenstr.","postalCode":"63826","locality":"Geiselbach","municipality":{"key":"09671119","name":"Geiselbach","type":"Kreisangehörige_Gemeinde"},"district":{"key":"09671","name":"Aschaffenburg","type":"Landkreis"},"federalState":{"key":"09","name":"Bayern"}},{"name":"Campus","postalCode":"63743","locality":"Aschaffenburg","municipality":{"key":"09661000","name":"Aschaffenburg","type":"Kreisfreie_Stadt"},"district":{"key":"09661","name":"Aschaffenburg","type":"Kreisfreie_Stadt"},"federalState":{"key":"09","name":"Bayern"}},{"name":"Carl-Joseph-Will-Str.","postalCode":"63743","locality":"Aschaffenburg","municipality":{"key":"09661000","name":"Aschaffenburg","type":"Kreisfreie_Stadt"},"district":{"key":"09661","name":"Aschaffenburg","type":"Kreisfreie_Stadt"},"federalState":{"key":"09","name":"Bayern"}},{"name":"Charlottenweg","postalCode":"63743","locality":"Aschaffenburg","municipality":{"key":"09661000","name":"Aschaffenburg","type":"Kreisfreie_Stadt"},"district":{"key":"09661","name":"Aschaffenburg","type":"Kreisfreie_Stadt"},"federalState":{"key":"09","name":"Bayern"}},{"name":"Christian-Schad-Str.","postalCode":"63743","locality":"Aschaffenburg","municipality":{"key":"09661000","name":"Aschaffenburg","type":"Kreisfreie_Stadt"},"district":{"key":"09661","name":"Aschaffenburg","type":"Kreisfreie_Stadt"},"federalState":{"key":"09","name":"Bayern"}},{"name":"City-Tunnel","postalCode":"63739","locality":"Aschaffenburg","municipality":{"key":"09661000","name":"Aschaffenburg","type":"Kreisfreie_Stadt"},"district":{"key":"09661","name":"Aschaffenburg","type":"Kreisfreie_Stadt"},"federalState":{"key":"09","name":"Bayern"}},{"name":"Clemensstr.","postalCode":"63743","locality":"Aschaffenburg","municipality":{"key":"09661000","name":"Aschaffenburg","type":"Kreisfreie_Stadt"},"district":{"key":"09661","name":"Aschaffenburg","type":"Kreisfreie_Stadt"},"federalState":{"key":"09","name":"Bayern"}},{"name":"Cornelienstr.","postalCode":"63739","locality":"Aschaffenburg","municipality":{"key":"09661000","name":"Aschaffenburg","type":"Kreisfreie_Stadt"},"district":{"key":"09661","name":"Aschaffenburg","type":"Kreisfreie_Stadt"},"federalState":{"key":"09","name":"Bayern"}},{"name":"Cranachstr.","postalCode":"63739","locality":"Aschaffenburg","municipality":{"key":"09661000","name":"Aschaffenburg","type":"Kreisfreie_Stadt"},"district":{"key":"09661","name":"Aschaffenburg","type":"Kreisfreie_Stadt"},"federalState":{"key":"09","name":"Bayern"}},{"name":"Cunibertstr.","postalCode":"63739","locality":"Aschaffenburg","municipality":{"key":"09661000","name":"Aschaffenburg","type":"Kreisfreie_Stadt"},"district":{"key":"09661","name":"Aschaffenburg","type":"Kreisfreie_Stadt"},"federalState":{"key":"09","name":"Bayern"}},{"name":"Dahlemstr.","postalCode":"63741","locality":"Aschaffenburg","municipality":{"key":"09661000","name":"Aschaffenburg","type":"Kreisfreie_Stadt"},"district":{"key":"09661","name":"Aschaffenburg","type":"Kreisfreie_Stadt"},"federalState":{"key":"09","name":"Bayern"}},{"name":"Dalbergstr.","postalCode":"63739","locality":"Aschaffenburg","municipality":{"key":"09661000","name":"Aschaffenburg","type":"Kreisfreie_Stadt"},"district":{"key":"09661","name":"Aschaffenburg","type":"Kreisfreie_Stadt"},"federalState":{"key":"09","name":"Bayern"}},{"name":"Dämmer Steg","postalCode":"63739","locality":"Aschaffenburg","municipality":{"key":"09661000","name":"Aschaffenburg","type":"Kreisfreie_Stadt"},"district":{"key":"09661","name":"Aschaffenburg","type":"Kreisfreie_Stadt"},"federalState":{"key":"09","name":"Bayern"}},{"name":"Dammer Str.","postalCode":"63741","locality":"Aschaffenburg","municipality":{"key":"09661000","name":"Aschaffenburg","type":"Kreisfreie_Stadt"},"district":{"key":"09661","name":"Aschaffenburg","type":"Kreisfreie_Stadt"},"federalState":{"key":"09","name":"Bayern"}},{"name":"Dankwartstr.","postalCode":"63743","locality":"Aschaffenburg","municipality":{"key":"09661000","name":"Aschaffenburg","type":"Kreisfreie_Stadt"},"district":{"key":"09661","name":"Aschaffenburg","type":"Kreisfreie_Stadt"},"federalState":{"key":"09","name":"Bayern"}},{"name":"Danziger Str.","postalCode":"63739","locality":"Aschaffenburg","municipality":{"key":"09661000","name":"Aschaffenburg","type":"Kreisfreie_Stadt"},"district":{"key":"09661","name":"Aschaffenburg","type":"Kreisfreie_Stadt"},"federalState":{"key":"09","name":"Bayern"}},{"name":"Darmstädter Str.","postalCode":"63741","locality":"Aschaffenburg","municipality":{"key":"09661000","name":"Aschaffenburg","type":"Kreisfreie_Stadt"},"district":{"key":"09661","name":"Aschaffenburg","type":"Kreisfreie_Stadt"},"federalState":{"key":"09","name":"Bayern"}},{"name":"Denkmalstr.","postalCode":"63739","locality":"Aschaffenburg","municipality":{"key":"09661000","name":"Aschaffenburg","type":"Kreisfreie_Stadt"},"district":{"key":"09661","name":"Aschaffenburg","type":"Kreisfreie_Stadt"},"federalState":{"key":"09","name":"Bayern"}},{"name":"Deschstr.","postalCode":"63739","locality":"Aschaffenburg","municipality":{"key":"09661000","name":"Aschaffenburg","type":"Kreisfreie_Stadt"},"district":{"key":"09661","name":"Aschaffenburg","type":"Kreisfreie_Stadt"},"federalState":{"key":"09","name":"Bayern"}},{"name":"Deutsche Str.","postalCode":"63739","locality":"Aschaffenburg","municipality":{"key":"09661000","name":"Aschaffenburg","type":"Kreisfreie_Stadt"},"district":{"key":"09661","name":"Aschaffenburg","type":"Kreisfreie_Stadt"},"federalState":{"key":"09","name":"Bayern"}},{"name":"Dietrich-Bonhoeffer-Str.","postalCode":"63741","locality":"Aschaffenburg","municipality":{"key":"09661000","name":"Aschaffenburg","type":"Kreisfreie_Stadt"},"district":{"key":"09661","name":"Aschaffenburg","type":"Kreisfreie_Stadt"},"federalState":{"key":"09","name":"Bayern"}},{"name":"Dilsheimerstr.","postalCode":"63739","locality":"Aschaffenburg","municipality":{"key":"09661000","name":"Aschaffenburg","type":"Kreisfreie_Stadt"},"district":{"key":"09661","name":"Aschaffenburg","type":"Kreisfreie_Stadt"},"federalState":{"key":"09","name":"Bayern"}},{"name":"Dinglerstr.","postalCode":"63739","locality":"Aschaffenburg","municipality":{"key":"09661000","name":"Aschaffenburg","type":"Kreisfreie_Stadt"},"district":{"key":"09661","name":"Aschaffenburg","type":"Kreisfreie_Stadt"},"federalState":{"key":"09","name":"Bayern"}},{"name":"Döllingerstr.","postalCode":"63743","locality":"Aschaffenburg","municipality":{"key":"09661000","name":"Aschaffenburg","type":"Kreisfreie_Stadt"},"district":{"key":"09661","name":"Aschaffenburg","type":"Kreisfreie_Stadt"},"federalState":{"key":"09","name":"Bayern"}},{"name":"Dorfgasse","postalCode":"63743","locality":"Aschaffenburg","municipality":{"key":"09661000","name":"Aschaffenburg","type":"Kreisfreie_Stadt"},"district":{"key":"09661","name":"Aschaffenburg","type":"Kreisfreie_Stadt"},"federalState":{"key":"09","name":"Bayern"}},{"name":"Dorfstr.","postalCode":"63741","locality":"Aschaffenburg","municipality":{"key":"09661000","name":"Aschaffenburg","type":"Kreisfreie_Stadt"},"district":{"key":"09661","name":"Aschaffenburg","type":"Kreisfreie_Stadt"},"federalState":{"key":"09","name":"Bayern"}},{"name":"Dörrmorsbacher Str.","postalCode":"63743","locality":"Aschaffenburg","municipality":{"key":"09661000","name":"Aschaffenburg","type":"Kreisfreie_Stadt"},"district":{"key":"09661","name":"Aschaffenburg","type":"Kreisfreie_Stadt"},"federalState":{"key":"09","name":"Bayern"}},{"name":"Drehbrücke","postalCode":"63741","locality":"Aschaffenburg","municipality":{"key":"09661000","name":"Aschaffenburg","type":"Kreisfreie_Stadt"},"district":{"key":"09661","name":"Aschaffenburg","type":"Kreisfreie_Stadt"},"federalState":{"key":"09","name":"Bayern"}},{"name":"Drosselweg","postalCode":"63741","locality":"Aschaffenburg","municipality":{"key":"09661000","name":"Aschaffenburg","type":"Kreisfreie_Stadt"},"district":{"key":"09661","name":"Aschaffenburg","type":"Kreisfreie_Stadt"},"federalState":{"key":"09","name":"Bayern"}},{"name":"Dr.-Willi-Reiland-Ring","postalCode":"63739","locality":"Aschaffenburg","municipality":{"key":"09661000","name":"Aschaffenburg","type":"Kreisfreie_Stadt"},"district":{"key":"09661","name":"Aschaffenburg","type":"Kreisfreie_Stadt"},"federalState":{"key":"09","name":"Bayern"}},{"name":"Dr.-Willi-Reiland-Ring","postalCode":"63741","locality":"Aschaffenburg","municipality":{"key":"09661000","name":"Aschaffenburg","type":"Kreisfreie_Stadt"},"district":{"key":"09661","name":"Aschaffenburg","type":"Kreisfreie_Stadt"},"federalState":{"key":"09","name":"Bayern"}},{"name":"Duccastr.","postalCode":"63739","locality":"Aschaffenburg","municipality":{"key":"09661000","name":"Aschaffenburg","type":"Kreisfreie_Stadt"},"district":{"key":"09661","name":"Aschaffenburg","type":"Kreisfreie_Stadt"},"federalState":{"key":"09","name":"Bayern"}},{"name":"Dümpelsmühlstr.","postalCode":"63743","locality":"Aschaffenburg","municipality":{"key":"09661000","name":"Aschaffenburg","type":"Kreisfreie_Stadt"},"district":{"key":"09661","name":"Aschaffenburg","type":"Kreisfreie_Stadt"},"federalState":{"key":"09","name":"Bayern"}},{"name":"Dunzerstr.","postalCode":"63739","locality":"Aschaffenburg","municipality":{"key":"09661000","name":"Aschaffenburg","type":"Kreisfreie_Stadt"},"district":{"key":"09661","name":"Aschaffenburg","type":"Kreisfreie_Stadt"},"federalState":{"key":"09","name":"Bayern"}},{"name":"Dürerstr.","postalCode":"63739","locality":"Aschaffenburg","municipality":{"key":"09661000","name":"Aschaffenburg","type":"Kreisfreie_Stadt"},"district":{"key":"09661","name":"Aschaffenburg","type":"Kreisfreie_Stadt"},"federalState":{"key":"09","name":"Bayern"}},{"name":"Dyroffstr.","postalCode":"63741","locality":"Aschaffenburg","municipality":{"key":"09661000","name":"Aschaffenburg","type":"Kreisfreie_Stadt"},"district":{"key":"09661","name":"Aschaffenburg","type":"Kreisfreie_Stadt"},"federalState":{"key":"09","name":"Bayern"}},{"name":"Eisenbergstr.","postalCode":"63826","locality":"Geiselbach","municipality":{"key":"09671119","name":"Geiselbach","type":"Kreisangehörige_Gemeinde"},"district":{"key":"09671","name":"Aschaffenburg","type":"Landkreis"},"federalState":{"key":"09","name":"Bayern"}},{"name":"Florianstr.","postalCode":"63826","locality":"Geiselbach","municipality":{"key":"09671119","name":"Geiselbach","type":"Kreisangehörige_Gemeinde"},"district":{"key":"09671","name":"Aschaffenburg","type":"Landkreis"},"federalState":{"key":"09","name":"Bayern"}},{"name":"Flurstr.","postalCode":"63826","locality":"Geiselbach","municipality":{"key":"09671119","name":"Geiselbach","type":"Kreisangehörige_Gemeinde"},"district":{"key":"09671","name":"Aschaffenburg","type":"Landkreis"},"federalState":{"key":"09","name":"Bayern"}},{"name":"Frohmollenstr.","postalCode":"63826","locality":"Geiselbach","municipality":{"key":"09671119","name":"Geiselbach","type":"Kreisangehörige_Gemeinde"},"district":{"key":"09671","name":"Aschaffenburg","type":"Landkreis"},"federalState":{"key":"09","name":"Bayern"}},{"name":"Gartenstr.","postalCode":"63826","locality":"Geiselbach","municipality":{"key":"09671119","name":"Geiselbach","type":"Kreisangehörige_Gemeinde"},"district":{"key":"09671","name":"Aschaffenburg","type":"Landkreis"},"federalState":{"key":"09","name":"Bayern"}},{"name":"Grubenweg","postalCode":"63826","locality":"Geiselbach","municipality":{"key":"09671119","name":"Geiselbach","type":"Kreisangehörige_Gemeinde"},"district":{"key":"09671","name":"Aschaffenburg","type":"Landkreis"},"federalState":{"key":"09","name":"Bayern"}},{"name":"Hauptstr.","postalCode":"63826","locality":"Geiselbach","municipality":{"key":"09671119","name":"Geiselbach","type":"Kreisangehörige_Gemeinde"},"district":{"key":"09671","name":"Aschaffenburg","type":"Landkreis"},"federalState":{"key":"09","name":"Bayern"}},{"name":"Hochstr.","postalCode":"63826","locality":"Geiselbach","municipality":{"key":"09671119","name":"Geiselbach","type":"Kreisangehörige_Gemeinde"},"district":{"key":"09671","name":"Aschaffenburg","type":"Landkreis"},"federalState":{"key":"09","name":"Bayern"}},{"name":"Höhenstr.","postalCode":"63826","locality":"Geiselbach","municipality":{"key":"09671119","name":"Geiselbach","type":"Kreisangehörige_Gemeinde"},"district":{"key":"09671","name":"Aschaffenburg","type":"Landkreis"},"federalState":{"key":"09","name":"Bayern"}},{"name":"Horbacher Str.","postalCode":"63826","locality":"Geiselbach","municipality":{"key":"09671119","name":"Geiselbach","type":"Kreisangehörige_Gemeinde"},"district":{"key":"09671","name":"Aschaffenburg","type":"Landkreis"},"federalState":{"key":"09","name":"Bayern"}},{"name":"Im Jägersacker","postalCode":"63826","locality":"Geiselbach","municipality":{"key":"09671119","name":"Geiselbach","type":"Kreisangehörige_Gemeinde"},"district":{"key":"09671","name":"Aschaffenburg","type":"Landkreis"},"federalState":{"key":"09","name":"Bayern"}},{"name":"Im Soder","postalCode":"63826","locality":"Geiselbach","municipality":{"key":"09671119","name":"Geiselbach","type":"Kreisangehörige_Gemeinde"},"district":{"key":"09671","name":"Aschaffenburg","type":"Landkreis"},"federalState":{"key":"09","name":"Bayern"}},{"name":"Im Unterdorf","postalCode":"63826","locality":"Geiselbach","municipality":{"key":"09671119","name":"Geiselbach","type":"Kreisangehörige_Gemeinde"},"district":{"key":"09671","name":"Aschaffenburg","type":"Landkreis"},"federalState":{"key":"09","name":"Bayern"}},{"name":"Jahnstr.","postalCode":"63743","locality":"Aschaffenburg","municipality":{"key":"09661000","name":"Aschaffenburg","type":"Kreisfreie_Stadt"},"district":{"key":"09661","name":"Aschaffenburg","type":"Kreisfreie_Stadt"},"federalState":{"key":"09","name":"Bayern"}},{"name":"Jaspersstr.","postalCode":"63741","locality":"Aschaffenburg","municipality":{"key":"09661000","name":"Aschaffenburg","type":"Kreisfreie_Stadt"},"district":{"key":"09661","name":"Aschaffenburg","type":"Kreisfreie_Stadt"},"federalState":{"key":"09","name":"Bayern"}},{"name":"Jasperstr.","postalCode":"63741","locality":"Aschaffenburg","municipality":{"key":"09661000","name":"Aschaffenburg","type":"Kreisfreie_Stadt"},"district":{"key":"09661","name":"Aschaffenburg","type":"Kreisfreie_Stadt"},"federalState":{"key":"09","name":"Bayern"}},{"name":"Jean-Stock-Str.","postalCode":"63741","locality":"Aschaffenburg","municipality":{"key":"09661000","name":"Aschaffenburg","type":"Kreisfreie_Stadt"},"district":{"key":"09661","name":"Aschaffenburg","type":"Kreisfreie_Stadt"},"federalState":{"key":"09","name":"Bayern"}},{"name":"Jochen-Klepper-Str.","postalCode":"63741","locality":"Aschaffenburg","municipality":{"key":"09661000","name":"Aschaffenburg","type":"Kreisfreie_Stadt"},"district":{"key":"09661","name":"Aschaffenburg","type":"Kreisfreie_Stadt"},"federalState":{"key":"09","name":"Bayern"}},{"name":"Johannesberger Str.","postalCode":"63741","locality":"Aschaffenburg","municipality":{"key":"09661000","name":"Aschaffenburg","type":"Kreisfreie_Stadt"},"district":{"key":"09661","name":"Aschaffenburg","type":"Kreisfreie_Stadt"},"federalState":{"key":"09","name":"Bayern"}},{"name":"Josef-Dinges-Str.","postalCode":"63743","locality":"Aschaffenburg","municipality":{"key":"09661000","name":"Aschaffenburg","type":"Kreisfreie_Stadt"},"district":{"key":"09661","name":"Aschaffenburg","type":"Kreisfreie_Stadt"},"federalState":{"key":"09","name":"Bayern"}},{"name":"Josef-Zeller-Anlage","postalCode":"63743","locality":"Aschaffenburg","municipality":{"key":"09661000","name":"Aschaffenburg","type":"Kreisfreie_Stadt"},"district":{"key":"09661","name":"Aschaffenburg","type":"Kreisfreie_Stadt"},"federalState":{"key":"09","name":"Bayern"}},{"name":"Jossaweg","postalCode":"63741","locality":"Aschaffenburg","municipality":{"key":"09661000","name":"Aschaffenburg","type":"Kreisfreie_Stadt"},"district":{"key":"09661","name":"Aschaffenburg","type":"Kreisfreie_Stadt"},"federalState":{"key":"09","name":"Bayern"}},{"name":"Judenpfad","postalCode":"63743","locality":"Aschaffenburg","municipality":{"key":"09661000","name":"Aschaffenburg","type":"Kreisfreie_Stadt"},"district":{"key":"09661","name":"Aschaffenburg","type":"Kreisfreie_Stadt"},"federalState":{"key":"09","name":"Bayern"}},{"name":"Julius-Leber-Str.","postalCode":"63741","locality":"Aschaffenburg","municipality":{"key":"09661000","name":"Aschaffenburg","type":"Kreisfreie_Stadt"},"district":{"key":"09661","name":"Aschaffenburg","type":"Kreisfreie_Stadt"},"federalState":{"key":"09","name":"Bayern"}},{"name":"Junckerstr.","postalCode":"63739","locality":"Aschaffenburg","municipality":{"key":"09661000","name":"Aschaffenburg","type":"Kreisfreie_Stadt"},"district":{"key":"09661","name":"Aschaffenburg","type":"Kreisfreie_Stadt"},"federalState":{"key":"09","name":"Bayern"}},{"name":"Kirchstr.","postalCode":"63826","locality":"Geiselbach","municipality":{"key":"09671119","name":"Geiselbach","type":"Kreisangehörige_Gemeinde"},"district":{"key":"09671","name":"Aschaffenburg","type":"Landkreis"},"federalState":{"key":"09","name":"Bayern"}},{"name":"Lamprechtstr.","postalCode":"63739","locality":"Aschaffenburg","municipality":{"key":"09661000","name":"Aschaffenburg","type":"Kreisfreie_Stadt"},"district":{"key":"09661","name":"Aschaffenburg","type":"Kreisfreie_Stadt"},"federalState":{"key":"09","name":"Bayern"}},{"name":"Landingstr.","postalCode":"63739","locality":"Aschaffenburg","municipality":{"key":"09661000","name":"Aschaffenburg","type":"Kreisfreie_Stadt"},"district":{"key":"09661","name":"Aschaffenburg","type":"Kreisfreie_Stadt"},"federalState":{"key":"09","name":"Bayern"}},{"name":"Langer Weg","postalCode":"63743","locality":"Aschaffenburg","municipality":{"key":"09661000","name":"Aschaffenburg","type":"Kreisfreie_Stadt"},"district":{"key":"09661","name":"Aschaffenburg","type":"Kreisfreie_Stadt"},"federalState":{"key":"09","name":"Bayern"}},{"name":"Lange Str.","postalCode":"63741","locality":"Aschaffenburg","municipality":{"key":"09661000","name":"Aschaffenburg","type":"Kreisfreie_Stadt"},"district":{"key":"09661","name":"Aschaffenburg","type":"Kreisfreie_Stadt"},"federalState":{"key":"09","name":"Bayern"}},{"name":"Lange Sträucher","postalCode":"63743","locality":"Aschaffenburg","municipality":{"key":"09661000","name":"Aschaffenburg","type":"Kreisfreie_Stadt"},"district":{"key":"09661","name":"Aschaffenburg","type":"Kreisfreie_Stadt"},"federalState":{"key":"09","name":"Bayern"}},{"name":"Lärchenweg","postalCode":"63741","locality":"Aschaffenburg","municipality":{"key":"09661000","name":"Aschaffenburg","type":"Kreisfreie_Stadt"},"district":{"key":"09661","name":"Aschaffenburg","type":"Kreisfreie_Stadt"},"federalState":{"key":"09","name":"Bayern"}},{"name":"Lauestr.","postalCode":"63741","locality":"Aschaffenburg","municipality":{"key":"09661000","name":"Aschaffenburg","type":"Kreisfreie_Stadt"},"district":{"key":"09661","name":"Aschaffenburg","type":"Kreisfreie_Stadt"},"federalState":{"key":"09","name":"Bayern"}},{"name":"Laurentiusstr.","postalCode":"63741","locality":"Aschaffenburg","municipality":{"key":"09661000","name":"Aschaffenburg","type":"Kreisfreie_Stadt"},"district":{"key":"09661","name":"Aschaffenburg","type":"Kreisfreie_Stadt"},"federalState":{"key":"09","name":"Bayern"}},{"name":"Lautenschlägerstr.","postalCode":"63743","locality":"Aschaffenburg","municipality":{"key":"09661000","name":"Aschaffenburg","type":"Kreisfreie_Stadt"},"district":{"key":"09661","name":"Aschaffenburg","type":"Kreisfreie_Stadt"},"federalState":{"key":"09","name":"Bayern"}},{"name":"Legatplatz","postalCode":"63743","locality":"Aschaffenburg","municipality":{"key":"09661000","name":"Aschaffenburg","type":"Kreisfreie_Stadt"},"district":{"key":"09661","name":"Aschaffenburg","type":"Kreisfreie_Stadt"},"federalState":{"key":"09","name":"Bayern"}},{"name":"Leibnizstr.","postalCode":"63741","locality":"Aschaffenburg","municipality":{"key":"09661000","name":"Aschaffenburg","type":"Kreisfreie_Stadt"},"district":{"key":"09661","name":"Aschaffenburg","type":"Kreisfreie_Stadt"},"federalState":{"key":"09","name":"Bayern"}},{"name":"Leiderer Stadtweg","postalCode":"63741","locality":"Aschaffenburg","municipality":{"key":"09661000","name":"Aschaffenburg","type":"Kreisfreie_Stadt"},"district":{"key":"09661","name":"Aschaffenburg","type":"Kreisfreie_Stadt"},"federalState":{"key":"09","name":"Bayern"}},{"name":"Leidersbacher Gäßchen","postalCode":"63743","locality":"Aschaffenburg","municipality":{"key":"09661000","name":"Aschaffenburg","type":"Kreisfreie_Stadt"},"district":{"key":"09661","name":"Aschaffenburg","type":"Kreisfreie_Stadt"},"federalState":{"key":"09","name":"Bayern"}},{"name":"Leimeisterweg","postalCode":"63739","locality":"Aschaffenburg","municipality":{"key":"09661000","name":"Aschaffenburg","type":"Kreisfreie_Stadt"},"district":{"key":"09661","name":"Aschaffenburg","type":"Kreisfreie_Stadt"},"federalState":{"key":"09","name":"Bayern"}},{"name":"Leinreiterstr.","postalCode":"63741","locality":"Aschaffenburg","municipality":{"key":"09661000","name":"Aschaffenburg","type":"Kreisfreie_Stadt"},"district":{"key":"09661","name":"Aschaffenburg","type":"Kreisfreie_Stadt"},"federalState":{"key":"09","name":"Bayern"}},{"name":"Leinwanderstr.","postalCode":"63739","locality":"Aschaffenburg","municipality":{"key":"09661000","name":"Aschaffenburg","type":"Kreisfreie_Stadt"},"district":{"key":"09661","name":"Aschaffenburg","type":"Kreisfreie_Stadt"},"federalState":{"key":"09","name":"Bayern"}},{"name":"Libellenweg","postalCode":"63741","locality":"Aschaffenburg","municipality":{"key":"09661000","name":"Aschaffenburg","type":"Kreisfreie_Stadt"},"district":{"key":"09661","name":"Aschaffenburg","type":"Kreisfreie_Stadt"},"federalState":{"key":"09","name":"Bayern"}},{"name":"Liebezeitstr.","postalCode":"63743","locality":"Aschaffenburg","municipality":{"key":"09661000","name":"Aschaffenburg","type":"Kreisfreie_Stadt"},"district":{"key":"09661","name":"Aschaffenburg","type":"Kreisfreie_Stadt"},"federalState":{"key":"09","name":"Bayern"}},{"name":"Liebigplatz","postalCode":"63743","locality":"Aschaffenburg","municipality":{"key":"09661000","name":"Aschaffenburg","type":"Kreisfreie_Stadt"},"district":{"key":"09661","name":"Aschaffenburg","type":"Kreisfreie_Stadt"},"federalState":{"key":"09","name":"Bayern"}},{"name":"Liebigstr.","postalCode":"63743","locality":"Aschaffenburg","municipality":{"key":"09661000","name":"Aschaffenburg","type":"Kreisfreie_Stadt"},"district":{"key":"09661","name":"Aschaffenburg","type":"Kreisfreie_Stadt"},"federalState":{"key":"09","name":"Bayern"}},{"name":"Liegestelle 10","postalCode":"63739","locality":"Aschaffenburg","municipality":{"key":"09661000","name":"Aschaffenburg","type":"Kreisfreie_Stadt"},"district":{"key":"09661","name":"Aschaffenburg","type":"Kreisfreie_Stadt"},"federalState":{"key":"09","name":"Bayern"}},{"name":"Liegestelle 11","postalCode":"63743","locality":"Aschaffenburg","municipality":{"key":"09661000","name":"Aschaffenburg","type":"Kreisfreie_Stadt"},"district":{"key":"09661","name":"Aschaffenburg","type":"Kreisfreie_Stadt"},"federalState":{"key":"09","name":"Bayern"}},{"name":"Liegestelle 12","postalCode":"63743","locality":"Aschaffenburg","municipality":{"key":"09661000","name":"Aschaffenburg","type":"Kreisfreie_Stadt"},"district":{"key":"09661","name":"Aschaffenburg","type":"Kreisfreie_Stadt"},"federalState":{"key":"09","name":"Bayern"}},{"name":"Liegestelle 13","postalCode":"63743","locality":"Aschaffenburg","municipality":{"key":"09661000","name":"Aschaffenburg","type":"Kreisfreie_Stadt"},"district":{"key":"09661","name":"Aschaffenburg","type":"Kreisfreie_Stadt"},"federalState":{"key":"09","name":"Bayern"}},{"name":"Liegestelle 6","postalCode":"63739","locality":"Aschaffenburg","municipality":{"key":"09661000","name":"Aschaffenburg","type":"Kreisfreie_Stadt"},"district":{"key":"09661","name":"Aschaffenburg","type":"Kreisfreie_Stadt"},"federalState":{"key":"09","name":"Bayern"}},{"name":"Liegestelle 7","postalCode":"63739","locality":"Aschaffenburg","municipality":{"key":"09661000","name":"Aschaffenburg","type":"Kreisfreie_Stadt"},"district":{"key":"09661","name":"Aschaffenburg","type":"Kreisfreie_Stadt"},"federalState":{"key":"09","name":"Bayern"}},{"name":"Liegestelle 8","postalCode":"63739","locality":"Aschaffenburg","municipality":{"key":"09661000","name":"Aschaffenburg","type":"Kreisfreie_Stadt"},"district":{"key":"09661","name":"Aschaffenburg","type":"Kreisfreie_Stadt"},"federalState":{"key":"09","name":"Bayern"}},{"name":"Liegestelle 9","postalCode":"63739","locality":"Aschaffenburg","municipality":{"key":"09661000","name":"Aschaffenburg","type":"Kreisfreie_Stadt"},"district":{"key":"09661","name":"Aschaffenburg","type":"Kreisfreie_Stadt"},"federalState":{"key":"09","name":"Bayern"}},{"name":"Ligusterweg","postalCode":"63741","locality":"Aschaffenburg","municipality":{"key":"09661000","name":"Aschaffenburg","type":"Kreisfreie_Stadt"},"district":{"key":"09661","name":"Aschaffenburg","type":"Kreisfreie_Stadt"},"federalState":{"key":"09","name":"Bayern"}},{"name":"Limesstr.","postalCode":"63741","locality":"Aschaffenburg","municipality":{"key":"09661000","name":"Aschaffenburg","type":"Kreisfreie_Stadt"},"district":{"key":"09661","name":"Aschaffenburg","type":"Kreisfreie_Stadt"},"federalState":{"key":"09","name":"Bayern"}},{"name":"Lindenallee","postalCode":"63739","locality":"Aschaffenburg","municipality":{"key":"09661000","name":"Aschaffenburg","type":"Kreisfreie_Stadt"},"district":{"key":"09661","name":"Aschaffenburg","type":"Kreisfreie_Stadt"},"federalState":{"key":"09","name":"Bayern"}},{"name":"Lindenweg","postalCode":"63741","locality":"Aschaffenburg","municipality":{"key":"09661000","name":"Aschaffenburg","type":"Kreisfreie_Stadt"},"district":{"key":"09661","name":"Aschaffenburg","type":"Kreisfreie_Stadt"},"federalState":{"key":"09","name":"Bayern"}},{"name":"Lindestr.","postalCode":"63743","locality":"Aschaffenburg","municipality":{"key":"09661000","name":"Aschaffenburg","type":"Kreisfreie_Stadt"},"district":{"key":"09661","name":"Aschaffenburg","type":"Kreisfreie_Stadt"},"federalState":{"key":"09","name":"Bayern"}},{"name":"Linkstr.","postalCode":"63741","locality":"Aschaffenburg","municipality":{"key":"09661000","name":"Aschaffenburg","type":"Kreisfreie_Stadt"},"district":{"key":"09661","name":"Aschaffenburg","type":"Kreisfreie_Stadt"},"federalState":{"key":"09","name":"Bayern"}},{"name":"Löherstr.","postalCode":"63739","locality":"Aschaffenburg","municipality":{"key":"09661000","name":"Aschaffenburg","type":"Kreisfreie_Stadt"},"district":{"key":"09661","name":"Aschaffenburg","type":"Kreisfreie_Stadt"},"federalState":{"key":"09","name":"Bayern"}},{"name":"Lohmühlstr.","postalCode":"63741","locality":"Aschaffenburg","municipality":{"key":"09661000","name":"Aschaffenburg","type":"Kreisfreie_Stadt"},"district":{"key":"09661","name":"Aschaffenburg","type":"Kreisfreie_Stadt"},"federalState":{"key":"09","name":"Bayern"}},{"name":"Lohrweg","postalCode":"63741","locality":"Aschaffenburg","municipality":{"key":"09661000","name":"Aschaffenburg","type":"Kreisfreie_Stadt"},"district":{"key":"09661","name":"Aschaffenburg","type":"Kreisfreie_Stadt"},"federalState":{"key":"09","name":"Bayern"}},{"name":"Lorbeerweg","postalCode":"63741","locality":"Aschaffenburg","municipality":{"key":"09661000","name":"Aschaffenburg","type":"Kreisfreie_Stadt"},"district":{"key":"09661","name":"Aschaffenburg","type":"Kreisfreie_Stadt"},"federalState":{"key":"09","name":"Bayern"}},{"name":"Lorenzstr.","postalCode":"63739","locality":"Aschaffenburg","municipality":{"key":"09661000","name":"Aschaffenburg","type":"Kreisfreie_Stadt"},"district":{"key":"09661","name":"Aschaffenburg","type":"Kreisfreie_Stadt"},"federalState":{"key":"09","name":"Bayern"}},{"name":"Lortzingweg","postalCode":"63743","locality":"Aschaffenburg","municipality":{"key":"09661000","name":"Aschaffenburg","type":"Kreisfreie_Stadt"},"district":{"key":"09661","name":"Aschaffenburg","type":"Kreisfreie_Stadt"},"federalState":{"key":"09","name":"Bayern"}},{"name":"Lothringer Str.","postalCode":"63739","locality":"Aschaffenburg","municipality":{"key":"09661000","name":"Aschaffenburg","type":"Kreisfreie_Stadt"},"district":{"key":"09661","name":"Aschaffenburg","type":"Kreisfreie_Stadt"},"federalState":{"key":"09","name":"Bayern"}},{"name":"Ludwig-Roth-Str.","postalCode":"63743","locality":"Aschaffenburg","municipality":{"key":"09661000","name":"Aschaffenburg","type":"Kreisfreie_Stadt"},"district":{"key":"09661","name":"Aschaffenburg","type":"Kreisfreie_Stadt"},"federalState":{"key":"09","name":"Bayern"}},{"name":"Ludwigsallee","postalCode":"63739","locality":"Aschaffenburg","municipality":{"key":"09661000","name":"Aschaffenburg","type":"Kreisfreie_Stadt"},"district":{"key":"09661","name":"Aschaffenburg","type":"Kreisfreie_Stadt"},"federalState":{"key":"09","name":"Bayern"}},{"name":"Ludwigshof","postalCode":"63739","locality":"Aschaffenburg","municipality":{"key":"09661000","name":"Aschaffenburg","type":"Kreisfreie_Stadt"},"district":{"key":"09661","name":"Aschaffenburg","type":"Kreisfreie_Stadt"},"federalState":{"key":"09","name":"Bayern"}},{"name":"Ludwigstr.","postalCode":"63739","locality":"Aschaffenburg","municipality":{"key":"09661000","name":"Aschaffenburg","type":"Kreisfreie_Stadt"},"district":{"key":"09661","name":"Aschaffenburg","type":"Kreisfreie_Stadt"},"federalState":{"key":"09","name":"Bayern"}},{"name":"Lug ins Land","postalCode":"63739","locality":"Aschaffenburg","municipality":{"key":"09661000","name":"Aschaffenburg","type":"Kreisfreie_Stadt"},"district":{"key":"09661","name":"Aschaffenburg","type":"Kreisfreie_Stadt"},"federalState":{"key":"09","name":"Bayern"}},{"name":"Luitpoldstr.","postalCode":"63739","locality":"Aschaffenburg","municipality":{"key":"09661000","name":"Aschaffenburg","type":"Kreisfreie_Stadt"},"district":{"key":"09661","name":"Aschaffenburg","type":"Kreisfreie_Stadt"},"federalState":{"key":"09","name":"Bayern"}},{"name":"Martinstr.","postalCode":"63826","locality":"Geiselbach","municipality":{"key":"09671119","name":"Geiselbach","type":"Kreisangehörige_Gemeinde"},"district":{"key":"09671","name":"Aschaffenburg","type":"Landkreis"},"federalState":{"key":"09","name":"Bayern"}},{"name":"Neben der Großen Metzgergasse","postalCode":"63739","locality":"Aschaffenburg","municipality":{"key":"09661000","name":"Aschaffenburg","type":"Kreisfreie_Stadt"},"district":{"key":"09661","name":"Aschaffenburg","type":"Kreisfreie_Stadt"},"federalState":{"key":"09","name":"Bayern"}},{"name":"Nebensteingasse","postalCode":"63739","locality":"Aschaffenburg","municipality":{"key":"09661000","name":"Aschaffenburg","type":"Kreisfreie_Stadt"},"district":{"key":"09661","name":"Aschaffenburg","type":"Kreisfreie_Stadt"},"federalState":{"key":"09","name":"Bayern"}},{"name":"Nelseestr.","postalCode":"63739","locality":"Aschaffenburg","municipality":{"key":"09661000","name":"Aschaffenburg","type":"Kreisfreie_Stadt"},"district":{"key":"09661","name":"Aschaffenburg","type":"Kreisfreie_Stadt"},"federalState":{"key":"09","name":"Bayern"}},{"name":"Neue Glattbacher Str.","postalCode":"63741","locality":"Aschaffenburg","municipality":{"key":"09661000","name":"Aschaffenburg","type":"Kreisfreie_Stadt"},"district":{"key":"09661","name":"Aschaffenburg","type":"Kreisfreie_Stadt"},"federalState":{"key":"09","name":"Bayern"}},{"name":"Neugasse","postalCode":"63743","locality":"Aschaffenburg","municipality":{"key":"09661000","name":"Aschaffenburg","type":"Kreisfreie_Stadt"},"district":{"key":"09661","name":"Aschaffenburg","type":"Kreisfreie_Stadt"},"federalState":{"key":"09","name":"Bayern"}},{"name":"Neuhofstr.","postalCode":"63743","locality":"Aschaffenburg","municipality":{"key":"09661000","name":"Aschaffenburg","type":"Kreisfreie_Stadt"},"district":{"key":"09661","name":"Aschaffenburg","type":"Kreisfreie_Stadt"},"federalState":{"key":"09","name":"Bayern"}},{"name":"Neureutweg","postalCode":"63743","locality":"Aschaffenburg","municipality":{"key":"09661000","name":"Aschaffenburg","type":"Kreisfreie_Stadt"},"district":{"key":"09661","name":"Aschaffenburg","type":"Kreisfreie_Stadt"},"federalState":{"key":"09","name":"Bayern"}},{"name":"Niddaweg","postalCode":"63741","locality":"Aschaffenburg","municipality":{"key":"09661000","name":"Aschaffenburg","type":"Kreisfreie_Stadt"},"district":{"key":"09661","name":"Aschaffenburg","type":"Kreisfreie_Stadt"},"federalState":{"key":"09","name":"Bayern"}},{"name":"Nilkheimer Bahnhofstr.","postalCode":"63741","locality":"Aschaffenburg","municipality":{"key":"09661000","name":"Aschaffenburg","type":"Kreisfreie_Stadt"},"district":{"key":"09661","name":"Aschaffenburg","type":"Kreisfreie_Stadt"},"federalState":{"key":"09","name":"Bayern"}},{"name":"Nilkheimer Park","postalCode":"63741","locality":"Aschaffenburg","municipality":{"key":"09661000","name":"Aschaffenburg","type":"Kreisfreie_Stadt"},"district":{"key":"09661","name":"Aschaffenburg","type":"Kreisfreie_Stadt"},"federalState":{"key":"09","name":"Bayern"}},{"name":"Nordring","postalCode":"63739","locality":"Aschaffenburg","municipality":{"key":"09661000","name":"Aschaffenburg","type":"Kreisfreie_Stadt"},"district":{"key":"09661","name":"Aschaffenburg","type":"Kreisfreie_Stadt"},"federalState":{"key":"09","name":"Bayern"}},{"name":"Nordring","postalCode":"63741","locality":"Aschaffenburg","municipality":{"key":"09661000","name":"Aschaffenburg","type":"Kreisfreie_Stadt"},"district":{"key":"09661","name":"Aschaffenburg","type":"Kreisfreie_Stadt"},"federalState":{"key":"09","name":"Bayern"}},{"name":"Nürnberger Str.","postalCode":"63743","locality":"Aschaffenburg","municipality":{"key":"09661000","name":"Aschaffenburg","type":"Kreisfreie_Stadt"},"district":{"key":"09661","name":"Aschaffenburg","type":"Kreisfreie_Stadt"},"federalState":{"key":"09","name":"Bayern"}},{"name":"Nußbaumweg","postalCode":"63741","locality":"Aschaffenburg","municipality":{"key":"09661000","name":"Aschaffenburg","type":"Kreisfreie_Stadt"},"district":{"key":"09661","name":"Aschaffenburg","type":"Kreisfreie_Stadt"},"federalState":{"key":"09","name":"Bayern"}},{"name":"Ober dem Pfarracker","postalCode":"63826","locality":"Geiselbach","municipality":{"key":"09671119","name":"Geiselbach","type":"Kreisangehörige_Gemeinde"},"district":{"key":"09671","name":"Aschaffenburg","type":"Landkreis"},"federalState":{"key":"09","name":"Bayern"}},{"name":"Pfarrgarten","postalCode":"63826","locality":"Geiselbach","municipality":{"key":"09671119","name":"Geiselbach","type":"Kreisangehörige_Gemeinde"},"district":{"key":"09671","name":"Aschaffenburg","type":"Landkreis"},"federalState":{"key":"09","name":"Bayern"}},{"name":"Quittenweg","postalCode":"63741","locality":"Aschaffenburg","municipality":{"key":"09661000","name":"Aschaffenburg","type":"Kreisfreie_Stadt"},"district":{"key":"09661","name":"Aschaffenburg","type":"Kreisfreie_Stadt"},"federalState":{"key":"09","name":"Bayern"}},{"name":"Riesenberg","postalCode":"63826","locality":"Geiselbach","municipality":{"key":"09671119","name":"Geiselbach","type":"Kreisangehörige_Gemeinde"},"district":{"key":"09671","name":"Aschaffenburg","type":"Landkreis"},"federalState":{"key":"09","name":"Bayern"}},{"name":"Rohbachstr.","postalCode":"63826","locality":"Geiselbach","municipality":{"key":"09671119","name":"Geiselbach","type":"Kreisangehörige_Gemeinde"},"district":{"key":"09671","name":"Aschaffenburg","type":"Landkreis"},"federalState":{"key":"09","name":"Bayern"}},{"name":"Rohrbachstr.","postalCode":"63826","locality":"Geiselbach","municipality":{"key":"09671119","name":"Geiselbach","type":"Kreisangehörige_Gemeinde"},"district":{"key":"09671","name":"Aschaffenburg","type":"Landkreis"},"federalState":{"key":"09","name":"Bayern"}},{"name":"Schulstr.","postalCode":"63826","locality":"Geiselbach","municipality":{"key":"09671119","name":"Geiselbach","type":"Kreisangehörige_Gemeinde"},"district":{"key":"09671","name":"Aschaffenburg","type":"Landkreis"},"federalState":{"key":"09","name":"Bayern"}},{"name":"Spessartstr.","postalCode":"63826","locality":"Geiselbach","municipality":{"key":"09671119","name":"Geiselbach","type":"Kreisangehörige_Gemeinde"},"district":{"key":"09671","name":"Aschaffenburg","type":"Landkreis"},"federalState":{"key":"09","name":"Bayern"}},{"name":"Tannenweg","postalCode":"63741","locality":"Aschaffenburg","municipality":{"key":"09661000","name":"Aschaffenburg","type":"Kreisfreie_Stadt"},"district":{"key":"09661","name":"Aschaffenburg","type":"Kreisfreie_Stadt"},"federalState":{"key":"09","name":"Bayern"}},{"name":"Tannstr.","postalCode":"63739","locality":"Aschaffenburg","municipality":{"key":"09661000","name":"Aschaffenburg","type":"Kreisfreie_Stadt"},"district":{"key":"09661","name":"Aschaffenburg","type":"Kreisfreie_Stadt"},"federalState":{"key":"09","name":"Bayern"}},{"name":"Tauberstr.","postalCode":"63741","locality":"Aschaffenburg","municipality":{"key":"09661000","name":"Aschaffenburg","type":"Kreisfreie_Stadt"},"district":{"key":"09661","name":"Aschaffenburg","type":"Kreisfreie_Stadt"},"federalState":{"key":"09","name":"Bayern"}},{"name":"Taunusstr.","postalCode":"63743","locality":"Aschaffenburg","municipality":{"key":"09661000","name":"Aschaffenburg","type":"Kreisfreie_Stadt"},"district":{"key":"09661","name":"Aschaffenburg","type":"Kreisfreie_Stadt"},"federalState":{"key":"09","name":"Bayern"}},{"name":"Telemannweg","postalCode":"63743","locality":"Aschaffenburg","municipality":{"key":"09661000","name":"Aschaffenburg","type":"Kreisfreie_Stadt"},"district":{"key":"09661","name":"Aschaffenburg","type":"Kreisfreie_Stadt"},"federalState":{"key":"09","name":"Bayern"}},{"name":"Theatergasse","postalCode":"63739","locality":"Aschaffenburg","municipality":{"key":"09661000","name":"Aschaffenburg","type":"Kreisfreie_Stadt"},"district":{"key":"09661","name":"Aschaffenburg","type":"Kreisfreie_Stadt"},"federalState":{"key":"09","name":"Bayern"}},{"name":"Theodor-Heuss-Str.","postalCode":"63741","locality":"Aschaffenburg","municipality":{"key":"09661000","name":"Aschaffenburg","type":"Kreisfreie_Stadt"},"district":{"key":"09661","name":"Aschaffenburg","type":"Kreisfreie_Stadt"},"federalState":{"key":"09","name":"Bayern"}},{"name":"Theresienstr.","postalCode":"63741","locality":"Aschaffenburg","municipality":{"key":"09661000","name":"Aschaffenburg","type":"Kreisfreie_Stadt"},"district":{"key":"09661","name":"Aschaffenburg","type":"Kreisfreie_Stadt"},"federalState":{"key":"09","name":"Bayern"}},{"name":"Thüringer Str.","postalCode":"63739","locality":"Aschaffenburg","municipality":{"key":"09661000","name":"Aschaffenburg","type":"Kreisfreie_Stadt"},"district":{"key":"09661","name":"Aschaffenburg","type":"Kreisfreie_Stadt"},"federalState":{"key":"09","name":"Bayern"}},{"name":"Tiroler Str.","postalCode":"63739","locality":"Aschaffenburg","municipality":{"key":"09661000","name":"Aschaffenburg","type":"Kreisfreie_Stadt"},"district":{"key":"09661","name":"Aschaffenburg","type":"Kreisfreie_Stadt"},"federalState":{"key":"09","name":"Bayern"}},{"name":"Tränkgasse","postalCode":"63741","locality":"Aschaffenburg","municipality":{"key":"09661000","name":"Aschaffenburg","type":"Kreisfreie_Stadt"},"district":{"key":"09661","name":"Aschaffenburg","type":"Kreisfreie_Stadt"},"federalState":{"key":"09","name":"Bayern"}},{"name":"Treibgasse","postalCode":"63739","locality":"Aschaffenburg","municipality":{"key":"09661000","name":"Aschaffenburg","type":"Kreisfreie_Stadt"},"district":{"key":"09661","name":"Aschaffenburg","type":"Kreisfreie_Stadt"},"federalState":{"key":"09","name":"Bayern"}},{"name":"Triebshohle","postalCode":"63743","locality":"Aschaffenburg","municipality":{"key":"09661000","name":"Aschaffenburg","type":"Kreisfreie_Stadt"},"district":{"key":"09661","name":"Aschaffenburg","type":"Kreisfreie_Stadt"},"federalState":{"key":"09","name":"Bayern"}},{"name":"Trockenbrodtstr.","postalCode":"63739","locality":"Aschaffenburg","municipality":{"key":"09661000","name":"Aschaffenburg","type":"Kreisfreie_Stadt"},"district":{"key":"09661","name":"Aschaffenburg","type":"Kreisfreie_Stadt"},"federalState":{"key":"09","name":"Bayern"}},{"name":"Tschoepestr.","postalCode":"63743","locality":"Aschaffenburg","municipality":{"key":"09661000","name":"Aschaffenburg","type":"Kreisfreie_Stadt"},"district":{"key":"09661","name":"Aschaffenburg","type":"Kreisfreie_Stadt"},"federalState":{"key":"09","name":"Bayern"}},{"name":"Tuchbleiche","postalCode":"63743","locality":"Aschaffenburg","municipality":{"key":"09661000","name":"Aschaffenburg","type":"Kreisfreie_Stadt"},"district":{"key":"09661","name":"Aschaffenburg","type":"Kreisfreie_Stadt"},"federalState":{"key":"09","name":"Bayern"}},{"name":"Tulpenstr.","postalCode":"63743","locality":"Aschaffenburg","municipality":{"key":"09661000","name":"Aschaffenburg","type":"Kreisfreie_Stadt"},"district":{"key":"09661","name":"Aschaffenburg","type":"Kreisfreie_Stadt"},"federalState":{"key":"09","name":"Bayern"}},{"name":"Ungenbachstr.","postalCode":"63826","locality":"Geiselbach","municipality":{"key":"09671119","name":"Geiselbach","type":"Kreisangehörige_Gemeinde"},"district":{"key":"09671","name":"Aschaffenburg","type":"Landkreis"},"federalState":{"key":"09","name":"Bayern"}},{"name":"Vischerstr.","postalCode":"63739","locality":"Aschaffenburg","municipality":{"key":"09661000","name":"Aschaffenburg","type":"Kreisfreie_Stadt"},"district":{"key":"09661","name":"Aschaffenburg","type":"Kreisfreie_Stadt"},"federalState":{"key":"09","name":"Bayern"}},{"name":"Vogelsbergstr.","postalCode":"63743","locality":"Aschaffenburg","municipality":{"key":"09661000","name":"Aschaffenburg","type":"Kreisfreie_Stadt"},"district":{"key":"09661","name":"Aschaffenburg","type":"Kreisfreie_Stadt"},"federalState":{"key":"09","name":"Bayern"}},{"name":"Vor der Au","postalCode":"63743","locality":"Aschaffenburg","municipality":{"key":"09661000","name":"Aschaffenburg","type":"Kreisfreie_Stadt"},"district":{"key":"09661","name":"Aschaffenburg","type":"Kreisfreie_Stadt"},"federalState":{"key":"09","name":"Bayern"}},{"name":"Waldstr.","postalCode":"63826","locality":"Geiselbach","municipality":{"key":"09671119","name":"Geiselbach","type":"Kreisangehörige_Gemeinde"},"district":{"key":"09671","name":"Aschaffenburg","type":"Landkreis"},"federalState":{"key":"09","name":"Bayern"}},{"name":"Warnbachstr.","postalCode":"63826","locality":"Geiselbach","municipality":{"key":"09671119","name":"Geiselbach","type":"Kreisangehörige_Gemeinde"},"district":{"key":"09671","name":"Aschaffenburg","type":"Landkreis"},"federalState":{"key":"09","name":"Bayern"}},{"name":"Weißteichstr.","postalCode":"63826","locality":"Geiselbach","municipality":{"key":"09671119","name":"Geiselbach","type":"Kreisangehörige_Gemeinde"},"district":{"key":"09671","name":"Aschaffenburg","type":"Landkreis"},"federalState":{"key":"09","name":"Bayern"}},{"name":"Yorckstr.","postalCode":"63739","locality":"Aschaffenburg","municipality":{"key":"09661000","name":"Aschaffenburg","type":"Kreisfreie_Stadt"},"district":{"key":"09661","name":"Aschaffenburg","type":"Kreisfreie_Stadt"},"federalState":{"key":"09","name":"Bayern"}},{"name":"Ziegelbergstr.","postalCode":"63826","locality":"Geiselbach","municipality":{"key":"09671119","name":"Geiselbach","type":"Kreisangehörige_Gemeinde"},"district":{"key":"09671","name":"Aschaffenburg","type":"Landkreis"},"federalState":{"key":"09","name":"Bayern"}},{"name":"Ölmühlweg","postalCode":"63743","locality":"Aschaffenburg","municipality":{"key":"09661000","name":"Aschaffenburg","type":"Kreisfreie_Stadt"},"district":{"key":"09661","name":"Aschaffenburg","type":"Kreisfreie_Stadt"},"federalState":{"key":"09","name":"Bayern"}},{"name":"Österreicher Str.","postalCode":"63739","locality":"Aschaffenburg","municipality":{"key":"09661000","name":"Aschaffenburg","type":"Kreisfreie_Stadt"},"district":{"key":"09661","name":"Aschaffenburg","type":"Kreisfreie_Stadt"},"federalState":{"key":"09","name":"Bayern"}},]