[{"name":"Am Aichen","postalCode":"95361","locality":"Ködnitz","municipality":{"key":"09477127","name":"Ködnitz","type":"Kreisangehörige_Gemeinde"},"district":{"key":"09477","name":"Kulmbach","type":"Landkreis"},"federalState":{"key":"09","name":"Bayern"}},{"name":"Am Bühl","postalCode":"95361","locality":"Ködnitz","municipality":{"key":"09477127","name":"Ködnitz","type":"Kreisangehörige_Gemeinde"},"district":{"key":"09477","name":"Kulmbach","type":"Landkreis"},"federalState":{"key":"09","name":"Bayern"}},{"name":"Am Hopfgäßla","postalCode":"95361","locality":"Ködnitz","municipality":{"key":"09477127","name":"Ködnitz","type":"Kreisangehörige_Gemeinde"},"district":{"key":"09477","name":"Kulmbach","type":"Landkreis"},"federalState":{"key":"09","name":"Bayern"}},{"name":"Am Künzacker","postalCode":"95361","locality":"Ködnitz","municipality":{"key":"09477127","name":"Ködnitz","type":"Kreisangehörige_Gemeinde"},"district":{"key":"09477","name":"Kulmbach","type":"Landkreis"},"federalState":{"key":"09","name":"Bayern"}},{"name":"Am Röslein","postalCode":"95361","locality":"Ködnitz","municipality":{"key":"09477127","name":"Ködnitz","type":"Kreisangehörige_Gemeinde"},"district":{"key":"09477","name":"Kulmbach","type":"Landkreis"},"federalState":{"key":"09","name":"Bayern"}},{"name":"Am Schroth","postalCode":"95361","locality":"Ködnitz","municipality":{"key":"09477127","name":"Ködnitz","type":"Kreisangehörige_Gemeinde"},"district":{"key":"09477","name":"Kulmbach","type":"Landkreis"},"federalState":{"key":"09","name":"Bayern"}},{"name":"An der Schorgast","postalCode":"95361","locality":"Ködnitz","municipality":{"key":"09477127","name":"Ködnitz","type":"Kreisangehörige_Gemeinde"},"district":{"key":"09477","name":"Kulmbach","type":"Landkreis"},"federalState":{"key":"09","name":"Bayern"}},{"name":"Bergweg","postalCode":"95361","locality":"Ködnitz","municipality":{"key":"09477127","name":"Ködnitz","type":"Kreisangehörige_Gemeinde"},"district":{"key":"09477","name":"Kulmbach","type":"Landkreis"},"federalState":{"key":"09","name":"Bayern"}},{"name":"Birkenweg","postalCode":"95361","locality":"Ködnitz","municipality":{"key":"09477127","name":"Ködnitz","type":"Kreisangehörige_Gemeinde"},"district":{"key":"09477","name":"Kulmbach","type":"Landkreis"},"federalState":{"key":"09","name":"Bayern"}},{"name":"Burgstallweg","postalCode":"95361","locality":"Ködnitz","municipality":{"key":"09477127","name":"Ködnitz","type":"Kreisangehörige_Gemeinde"},"district":{"key":"09477","name":"Kulmbach","type":"Landkreis"},"federalState":{"key":"09","name":"Bayern"}},{"name":"Caspar-Fischer-Str.","postalCode":"95326","locality":"Kulmbach","municipality":{"key":"09477128","name":"Kulmbach, GKSt","type":"Große_Kreisstadt"},"district":{"key":"09477","name":"Kulmbach","type":"Landkreis"},"federalState":{"key":"09","name":"Bayern"}},{"name":"Christian-Pertsch-Str.","postalCode":"95326","locality":"Kulmbach","municipality":{"key":"09477128","name":"Kulmbach, GKSt","type":"Große_Kreisstadt"},"district":{"key":"09477","name":"Kulmbach","type":"Landkreis"},"federalState":{"key":"09","name":"Bayern"}},{"name":"Dorfstr.","postalCode":"95361","locality":"Ködnitz","municipality":{"key":"09477127","name":"Ködnitz","type":"Kreisangehörige_Gemeinde"},"district":{"key":"09477","name":"Kulmbach","type":"Landkreis"},"federalState":{"key":"09","name":"Bayern"}},{"name":"E.-C.-Baumann-Str.","postalCode":"95326","locality":"Kulmbach","municipality":{"key":"09477128","name":"Kulmbach, GKSt","type":"Große_Kreisstadt"},"district":{"key":"09477","name":"Kulmbach","type":"Landkreis"},"federalState":{"key":"09","name":"Bayern"}},{"name":"Egerer Weg","postalCode":"95326","locality":"Kulmbach","municipality":{"key":"09477128","name":"Kulmbach, GKSt","type":"Große_Kreisstadt"},"district":{"key":"09477","name":"Kulmbach","type":"Landkreis"},"federalState":{"key":"09","name":"Bayern"}},{"name":"Eichenstr.","postalCode":"95326","locality":"Kulmbach","municipality":{"key":"09477128","name":"Kulmbach, GKSt","type":"Große_Kreisstadt"},"district":{"key":"09477","name":"Kulmbach","type":"Landkreis"},"federalState":{"key":"09","name":"Bayern"}},{"name":"EKU-Str.","postalCode":"95326","locality":"Kulmbach","municipality":{"key":"09477128","name":"Kulmbach, GKSt","type":"Große_Kreisstadt"},"district":{"key":"09477","name":"Kulmbach","type":"Landkreis"},"federalState":{"key":"09","name":"Bayern"}},{"name":"Erlenweg","postalCode":"95326","locality":"Kulmbach","municipality":{"key":"09477128","name":"Kulmbach, GKSt","type":"Große_Kreisstadt"},"district":{"key":"09477","name":"Kulmbach","type":"Landkreis"},"federalState":{"key":"09","name":"Bayern"}},{"name":"Ernteweg","postalCode":"95326","locality":"Kulmbach","municipality":{"key":"09477128","name":"Kulmbach, GKSt","type":"Große_Kreisstadt"},"district":{"key":"09477","name":"Kulmbach","type":"Landkreis"},"federalState":{"key":"09","name":"Bayern"}},{"name":"Eschenweg","postalCode":"95326","locality":"Kulmbach","municipality":{"key":"09477128","name":"Kulmbach, GKSt","type":"Große_Kreisstadt"},"district":{"key":"09477","name":"Kulmbach","type":"Landkreis"},"federalState":{"key":"09","name":"Bayern"}},{"name":"Fölschnitz","postalCode":"95361","locality":"Ködnitz","municipality":{"key":"09477127","name":"Ködnitz","type":"Kreisangehörige_Gemeinde"},"district":{"key":"09477","name":"Kulmbach","type":"Landkreis"},"federalState":{"key":"09","name":"Bayern"}},{"name":"Gartenstr.","postalCode":"95361","locality":"Ködnitz","municipality":{"key":"09477127","name":"Ködnitz","type":"Kreisangehörige_Gemeinde"},"district":{"key":"09477","name":"Kulmbach","type":"Landkreis"},"federalState":{"key":"09","name":"Bayern"}},{"name":"Georg-Nützel-Str.","postalCode":"95361","locality":"Ködnitz","municipality":{"key":"09477127","name":"Ködnitz","type":"Kreisangehörige_Gemeinde"},"district":{"key":"09477","name":"Kulmbach","type":"Landkreis"},"federalState":{"key":"09","name":"Bayern"}},{"name":"Hainbühl","postalCode":"95361","locality":"Ködnitz","municipality":{"key":"09477127","name":"Ködnitz","type":"Kreisangehörige_Gemeinde"},"district":{"key":"09477","name":"Kulmbach","type":"Landkreis"},"federalState":{"key":"09","name":"Bayern"}},{"name":"Hauenreuth","postalCode":"95361","locality":"Ködnitz","municipality":{"key":"09477127","name":"Ködnitz","type":"Kreisangehörige_Gemeinde"},"district":{"key":"09477","name":"Kulmbach","type":"Landkreis"},"federalState":{"key":"09","name":"Bayern"}},{"name":"Hauptstr.","postalCode":"95361","locality":"Ködnitz","municipality":{"key":"09477127","name":"Ködnitz","type":"Kreisangehörige_Gemeinde"},"district":{"key":"09477","name":"Kulmbach","type":"Landkreis"},"federalState":{"key":"09","name":"Bayern"}},{"name":"Heinrich-Taubenreuther-Str.","postalCode":"95361","locality":"Ködnitz","municipality":{"key":"09477127","name":"Ködnitz","type":"Kreisangehörige_Gemeinde"},"district":{"key":"09477","name":"Kulmbach","type":"Landkreis"},"federalState":{"key":"09","name":"Bayern"}},{"name":"Hoher Weg","postalCode":"95361","locality":"Ködnitz","municipality":{"key":"09477127","name":"Ködnitz","type":"Kreisangehörige_Gemeinde"},"district":{"key":"09477","name":"Kulmbach","type":"Landkreis"},"federalState":{"key":"09","name":"Bayern"}},{"name":"Hopfgartenweg","postalCode":"95361","locality":"Ködnitz","municipality":{"key":"09477127","name":"Ködnitz","type":"Kreisangehörige_Gemeinde"},"district":{"key":"09477","name":"Kulmbach","type":"Landkreis"},"federalState":{"key":"09","name":"Bayern"}},{"name":"Hößelweg","postalCode":"95361","locality":"Ködnitz","municipality":{"key":"09477127","name":"Ködnitz","type":"Kreisangehörige_Gemeinde"},"district":{"key":"09477","name":"Kulmbach","type":"Landkreis"},"federalState":{"key":"09","name":"Bayern"}},{"name":"Iglauer Weg","postalCode":"95326","locality":"Kulmbach","municipality":{"key":"09477128","name":"Kulmbach, GKSt","type":"Große_Kreisstadt"},"district":{"key":"09477","name":"Kulmbach","type":"Landkreis"},"federalState":{"key":"09","name":"Bayern"}},{"name":"Im Haag","postalCode":"95326","locality":"Kulmbach","municipality":{"key":"09477128","name":"Kulmbach, GKSt","type":"Große_Kreisstadt"},"district":{"key":"09477","name":"Kulmbach","type":"Landkreis"},"federalState":{"key":"09","name":"Bayern"}},{"name":"Im Winkel","postalCode":"95326","locality":"Kulmbach","municipality":{"key":"09477128","name":"Kulmbach, GKSt","type":"Große_Kreisstadt"},"district":{"key":"09477","name":"Kulmbach","type":"Landkreis"},"federalState":{"key":"09","name":"Bayern"}},{"name":"Jägerndorfer Str.","postalCode":"95326","locality":"Kulmbach","municipality":{"key":"09477128","name":"Kulmbach, GKSt","type":"Große_Kreisstadt"},"district":{"key":"09477","name":"Kulmbach","type":"Landkreis"},"federalState":{"key":"09","name":"Bayern"}},{"name":"Jean-Paul-Str.","postalCode":"95326","locality":"Kulmbach","municipality":{"key":"09477128","name":"Kulmbach, GKSt","type":"Große_Kreisstadt"},"district":{"key":"09477","name":"Kulmbach","type":"Landkreis"},"federalState":{"key":"09","name":"Bayern"}},{"name":"Joachimsthaler Weg","postalCode":"95326","locality":"Kulmbach","municipality":{"key":"09477128","name":"Kulmbach, GKSt","type":"Große_Kreisstadt"},"district":{"key":"09477","name":"Kulmbach","type":"Landkreis"},"federalState":{"key":"09","name":"Bayern"}},{"name":"Johann-Brenk-Str.","postalCode":"95326","locality":"Kulmbach","municipality":{"key":"09477128","name":"Kulmbach, GKSt","type":"Große_Kreisstadt"},"district":{"key":"09477","name":"Kulmbach","type":"Landkreis"},"federalState":{"key":"09","name":"Bayern"}},{"name":"Johann-Eck-Str.","postalCode":"95326","locality":"Kulmbach","municipality":{"key":"09477128","name":"Kulmbach, GKSt","type":"Große_Kreisstadt"},"district":{"key":"09477","name":"Kulmbach","type":"Landkreis"},"federalState":{"key":"09","name":"Bayern"}},{"name":"Johannesweg","postalCode":"95326","locality":"Kulmbach","municipality":{"key":"09477128","name":"Kulmbach, GKSt","type":"Große_Kreisstadt"},"district":{"key":"09477","name":"Kulmbach","type":"Landkreis"},"federalState":{"key":"09","name":"Bayern"}},{"name":"Johann-Völker-Str.","postalCode":"95326","locality":"Kulmbach","municipality":{"key":"09477128","name":"Kulmbach, GKSt","type":"Große_Kreisstadt"},"district":{"key":"09477","name":"Kulmbach","type":"Landkreis"},"federalState":{"key":"09","name":"Bayern"}},{"name":"Kalkofen","postalCode":"95361","locality":"Ködnitz","municipality":{"key":"09477127","name":"Ködnitz","type":"Kreisangehörige_Gemeinde"},"district":{"key":"09477","name":"Kulmbach","type":"Landkreis"},"federalState":{"key":"09","name":"Bayern"}},{"name":"Kauerndorf","postalCode":"95361","locality":"Ködnitz","municipality":{"key":"09477127","name":"Ködnitz","type":"Kreisangehörige_Gemeinde"},"district":{"key":"09477","name":"Kulmbach","type":"Landkreis"},"federalState":{"key":"09","name":"Bayern"}},{"name":"Kauerndorfer Panoramaweg","postalCode":"95361","locality":"Ködnitz","municipality":{"key":"09477127","name":"Ködnitz","type":"Kreisangehörige_Gemeinde"},"district":{"key":"09477","name":"Kulmbach","type":"Landkreis"},"federalState":{"key":"09","name":"Bayern"}},{"name":"Ködnitz","postalCode":"95361","locality":"Ködnitz","municipality":{"key":"09477127","name":"Ködnitz","type":"Kreisangehörige_Gemeinde"},"district":{"key":"09477","name":"Kulmbach","type":"Landkreis"},"federalState":{"key":"09","name":"Bayern"}},{"name":"KU 21","postalCode":"95361","locality":"Ködnitz","municipality":{"key":"09477127","name":"Ködnitz","type":"Kreisangehörige_Gemeinde"},"district":{"key":"09477","name":"Kulmbach","type":"Landkreis"},"federalState":{"key":"09","name":"Bayern"}},{"name":"Langacker","postalCode":"95361","locality":"Ködnitz","municipality":{"key":"09477127","name":"Ködnitz","type":"Kreisangehörige_Gemeinde"},"district":{"key":"09477","name":"Kulmbach","type":"Landkreis"},"federalState":{"key":"09","name":"Bayern"}},{"name":"Lindenstr.","postalCode":"95361","locality":"Ködnitz","municipality":{"key":"09477127","name":"Ködnitz","type":"Kreisangehörige_Gemeinde"},"district":{"key":"09477","name":"Kulmbach","type":"Landkreis"},"federalState":{"key":"09","name":"Bayern"}},{"name":"Mehltauer","postalCode":"95361","locality":"Ködnitz","municipality":{"key":"09477127","name":"Ködnitz","type":"Kreisangehörige_Gemeinde"},"district":{"key":"09477","name":"Kulmbach","type":"Landkreis"},"federalState":{"key":"09","name":"Bayern"}},{"name":"Mühlacker","postalCode":"95361","locality":"Ködnitz","municipality":{"key":"09477127","name":"Ködnitz","type":"Kreisangehörige_Gemeinde"},"district":{"key":"09477","name":"Kulmbach","type":"Landkreis"},"federalState":{"key":"09","name":"Bayern"}},{"name":"Mühlbach","postalCode":"95361","locality":"Ködnitz","municipality":{"key":"09477127","name":"Ködnitz","type":"Kreisangehörige_Gemeinde"},"district":{"key":"09477","name":"Kulmbach","type":"Landkreis"},"federalState":{"key":"09","name":"Bayern"}},{"name":"Mühlberg","postalCode":"95361","locality":"Ködnitz","municipality":{"key":"09477127","name":"Ködnitz","type":"Kreisangehörige_Gemeinde"},"district":{"key":"09477","name":"Kulmbach","type":"Landkreis"},"federalState":{"key":"09","name":"Bayern"}},{"name":"Mühlgraben","postalCode":"95361","locality":"Ködnitz","municipality":{"key":"09477127","name":"Ködnitz","type":"Kreisangehörige_Gemeinde"},"district":{"key":"09477","name":"Kulmbach","type":"Landkreis"},"federalState":{"key":"09","name":"Bayern"}},{"name":"Negeleinstr.","postalCode":"95326","locality":"Kulmbach","municipality":{"key":"09477128","name":"Kulmbach, GKSt","type":"Große_Kreisstadt"},"district":{"key":"09477","name":"Kulmbach","type":"Landkreis"},"federalState":{"key":"09","name":"Bayern"}},{"name":"Nelkenweg","postalCode":"95326","locality":"Kulmbach","municipality":{"key":"09477128","name":"Kulmbach, GKSt","type":"Große_Kreisstadt"},"district":{"key":"09477","name":"Kulmbach","type":"Landkreis"},"federalState":{"key":"09","name":"Bayern"}},{"name":"Niederndobrach","postalCode":"95326","locality":"Kulmbach","municipality":{"key":"09477128","name":"Kulmbach, GKSt","type":"Große_Kreisstadt"},"district":{"key":"09477","name":"Kulmbach","type":"Landkreis"},"federalState":{"key":"09","name":"Bayern"}},{"name":"Nordhangstr.","postalCode":"95326","locality":"Kulmbach","municipality":{"key":"09477128","name":"Kulmbach, GKSt","type":"Große_Kreisstadt"},"district":{"key":"09477","name":"Kulmbach","type":"Landkreis"},"federalState":{"key":"09","name":"Bayern"}},{"name":"Obere Buchgasse","postalCode":"95326","locality":"Kulmbach","municipality":{"key":"09477128","name":"Kulmbach, GKSt","type":"Große_Kreisstadt"},"district":{"key":"09477","name":"Kulmbach","type":"Landkreis"},"federalState":{"key":"09","name":"Bayern"}},{"name":"Oberes Dorf","postalCode":"95326","locality":"Kulmbach","municipality":{"key":"09477128","name":"Kulmbach, GKSt","type":"Große_Kreisstadt"},"district":{"key":"09477","name":"Kulmbach","type":"Landkreis"},"federalState":{"key":"09","name":"Bayern"}},{"name":"Oberes Stadtgäßchen","postalCode":"95326","locality":"Kulmbach","municipality":{"key":"09477128","name":"Kulmbach, GKSt","type":"Große_Kreisstadt"},"district":{"key":"09477","name":"Kulmbach","type":"Landkreis"},"federalState":{"key":"09","name":"Bayern"}},{"name":"Obere Stadt","postalCode":"95326","locality":"Kulmbach","municipality":{"key":"09477128","name":"Kulmbach, GKSt","type":"Große_Kreisstadt"},"district":{"key":"09477","name":"Kulmbach","type":"Landkreis"},"federalState":{"key":"09","name":"Bayern"}},{"name":"Obere Weinberggasse","postalCode":"95326","locality":"Kulmbach","municipality":{"key":"09477128","name":"Kulmbach, GKSt","type":"Große_Kreisstadt"},"district":{"key":"09477","name":"Kulmbach","type":"Landkreis"},"federalState":{"key":"09","name":"Bayern"}},{"name":"Oberhacken","postalCode":"95326","locality":"Kulmbach","municipality":{"key":"09477128","name":"Kulmbach, GKSt","type":"Große_Kreisstadt"},"district":{"key":"09477","name":"Kulmbach","type":"Landkreis"},"federalState":{"key":"09","name":"Bayern"}},{"name":"Oberzettlitz","postalCode":"95326","locality":"Kulmbach","municipality":{"key":"09477128","name":"Kulmbach, GKSt","type":"Große_Kreisstadt"},"district":{"key":"09477","name":"Kulmbach","type":"Landkreis"},"federalState":{"key":"09","name":"Bayern"}},{"name":"Orlamünderstr.","postalCode":"95326","locality":"Kulmbach","municipality":{"key":"09477128","name":"Kulmbach, GKSt","type":"Große_Kreisstadt"},"district":{"key":"09477","name":"Kulmbach","type":"Landkreis"},"federalState":{"key":"09","name":"Bayern"}},{"name":"Paul-Gerhardt-Str.","postalCode":"95326","locality":"Kulmbach","municipality":{"key":"09477128","name":"Kulmbach, GKSt","type":"Große_Kreisstadt"},"district":{"key":"09477","name":"Kulmbach","type":"Landkreis"},"federalState":{"key":"09","name":"Bayern"}},{"name":"Penselstr.","postalCode":"95326","locality":"Kulmbach","municipality":{"key":"09477128","name":"Kulmbach, GKSt","type":"Große_Kreisstadt"},"district":{"key":"09477","name":"Kulmbach","type":"Landkreis"},"federalState":{"key":"09","name":"Bayern"}},{"name":"Pestalozzistr.","postalCode":"95326","locality":"Kulmbach","municipality":{"key":"09477128","name":"Kulmbach, GKSt","type":"Große_Kreisstadt"},"district":{"key":"09477","name":"Kulmbach","type":"Landkreis"},"federalState":{"key":"09","name":"Bayern"}},{"name":"Petzmannsberg","postalCode":"95326","locality":"Kulmbach","municipality":{"key":"09477128","name":"Kulmbach, GKSt","type":"Große_Kreisstadt"},"district":{"key":"09477","name":"Kulmbach","type":"Landkreis"},"federalState":{"key":"09","name":"Bayern"}},{"name":"Petzmannsberger Str.","postalCode":"95326","locality":"Kulmbach","municipality":{"key":"09477128","name":"Kulmbach, GKSt","type":"Große_Kreisstadt"},"district":{"key":"09477","name":"Kulmbach","type":"Landkreis"},"federalState":{"key":"09","name":"Bayern"}},{"name":"Philosphenweg","postalCode":"95326","locality":"Kulmbach","municipality":{"key":"09477128","name":"Kulmbach, GKSt","type":"Große_Kreisstadt"},"district":{"key":"09477","name":"Kulmbach","type":"Landkreis"},"federalState":{"key":"09","name":"Bayern"}},{"name":"Pillauer Str.","postalCode":"95326","locality":"Kulmbach","municipality":{"key":"09477128","name":"Kulmbach, GKSt","type":"Große_Kreisstadt"},"district":{"key":"09477","name":"Kulmbach","type":"Landkreis"},"federalState":{"key":"09","name":"Bayern"}},{"name":"Pörbitscher Hang","postalCode":"95326","locality":"Kulmbach","municipality":{"key":"09477128","name":"Kulmbach, GKSt","type":"Große_Kreisstadt"},"district":{"key":"09477","name":"Kulmbach","type":"Landkreis"},"federalState":{"key":"09","name":"Bayern"}},{"name":"Pörbitscher Platz","postalCode":"95326","locality":"Kulmbach","municipality":{"key":"09477128","name":"Kulmbach, GKSt","type":"Große_Kreisstadt"},"district":{"key":"09477","name":"Kulmbach","type":"Landkreis"},"federalState":{"key":"09","name":"Bayern"}},{"name":"Pörbitscher Weg","postalCode":"95326","locality":"Kulmbach","municipality":{"key":"09477128","name":"Kulmbach, GKSt","type":"Große_Kreisstadt"},"district":{"key":"09477","name":"Kulmbach","type":"Landkreis"},"federalState":{"key":"09","name":"Bayern"}},{"name":"Priemershof","postalCode":"95326","locality":"Kulmbach","municipality":{"key":"09477128","name":"Kulmbach, GKSt","type":"Große_Kreisstadt"},"district":{"key":"09477","name":"Kulmbach","type":"Landkreis"},"federalState":{"key":"09","name":"Bayern"}},{"name":"Priemershofer Weg","postalCode":"95326","locality":"Kulmbach","municipality":{"key":"09477128","name":"Kulmbach, GKSt","type":"Große_Kreisstadt"},"district":{"key":"09477","name":"Kulmbach","type":"Landkreis"},"federalState":{"key":"09","name":"Bayern"}},{"name":"Reisighofweg","postalCode":"95361","locality":"Ködnitz","municipality":{"key":"09477127","name":"Ködnitz","type":"Kreisangehörige_Gemeinde"},"district":{"key":"09477","name":"Kulmbach","type":"Landkreis"},"federalState":{"key":"09","name":"Bayern"}},{"name":"Steinweg","postalCode":"95361","locality":"Ködnitz","municipality":{"key":"09477127","name":"Ködnitz","type":"Kreisangehörige_Gemeinde"},"district":{"key":"09477","name":"Kulmbach","type":"Landkreis"},"federalState":{"key":"09","name":"Bayern"}},{"name":"Taubmannstr.","postalCode":"95326","locality":"Kulmbach","municipality":{"key":"09477128","name":"Kulmbach, GKSt","type":"Große_Kreisstadt"},"district":{"key":"09477","name":"Kulmbach","type":"Landkreis"},"federalState":{"key":"09","name":"Bayern"}},{"name":"Teichweg","postalCode":"95326","locality":"Kulmbach","municipality":{"key":"09477128","name":"Kulmbach, GKSt","type":"Große_Kreisstadt"},"district":{"key":"09477","name":"Kulmbach","type":"Landkreis"},"federalState":{"key":"09","name":"Bayern"}},{"name":"Theodor-Heublein-Str.","postalCode":"95326","locality":"Kulmbach","municipality":{"key":"09477128","name":"Kulmbach, GKSt","type":"Große_Kreisstadt"},"district":{"key":"09477","name":"Kulmbach","type":"Landkreis"},"federalState":{"key":"09","name":"Bayern"}},{"name":"Theodor-Heuss-Allee","postalCode":"95326","locality":"Kulmbach","municipality":{"key":"09477128","name":"Kulmbach, GKSt","type":"Große_Kreisstadt"},"district":{"key":"09477","name":"Kulmbach","type":"Landkreis"},"federalState":{"key":"09","name":"Bayern"}},{"name":"Thurnauer Str.","postalCode":"95326","locality":"Kulmbach","municipality":{"key":"09477128","name":"Kulmbach, GKSt","type":"Große_Kreisstadt"},"district":{"key":"09477","name":"Kulmbach","type":"Landkreis"},"federalState":{"key":"09","name":"Bayern"}},{"name":"Tiefenbacher Weg","postalCode":"95326","locality":"Kulmbach","municipality":{"key":"09477128","name":"Kulmbach, GKSt","type":"Große_Kreisstadt"},"district":{"key":"09477","name":"Kulmbach","type":"Landkreis"},"federalState":{"key":"09","name":"Bayern"}},{"name":"Tilsiter Str.","postalCode":"95326","locality":"Kulmbach","municipality":{"key":"09477128","name":"Kulmbach, GKSt","type":"Große_Kreisstadt"},"district":{"key":"09477","name":"Kulmbach","type":"Landkreis"},"federalState":{"key":"09","name":"Bayern"}},{"name":"Tonwiesenweg","postalCode":"95326","locality":"Kulmbach","municipality":{"key":"09477128","name":"Kulmbach, GKSt","type":"Große_Kreisstadt"},"district":{"key":"09477","name":"Kulmbach","type":"Landkreis"},"federalState":{"key":"09","name":"Bayern"}},{"name":"Trendelstr.","postalCode":"95326","locality":"Kulmbach","municipality":{"key":"09477128","name":"Kulmbach, GKSt","type":"Große_Kreisstadt"},"district":{"key":"09477","name":"Kulmbach","type":"Landkreis"},"federalState":{"key":"09","name":"Bayern"}},{"name":"Trimm-Dich-Pfad Kulmbach","postalCode":"95326","locality":"Kulmbach","municipality":{"key":"09477128","name":"Kulmbach, GKSt","type":"Große_Kreisstadt"},"district":{"key":"09477","name":"Kulmbach","type":"Landkreis"},"federalState":{"key":"09","name":"Bayern"}},{"name":"Tulpenweg","postalCode":"95326","locality":"Kulmbach","municipality":{"key":"09477128","name":"Kulmbach, GKSt","type":"Große_Kreisstadt"},"district":{"key":"09477","name":"Kulmbach","type":"Landkreis"},"federalState":{"key":"09","name":"Bayern"}},{"name":"Untere Buchgasse","postalCode":"95326","locality":"Kulmbach","municipality":{"key":"09477128","name":"Kulmbach, GKSt","type":"Große_Kreisstadt"},"district":{"key":"09477","name":"Kulmbach","type":"Landkreis"},"federalState":{"key":"09","name":"Bayern"}},{"name":"Unteres Stadtgäßchen","postalCode":"95326","locality":"Kulmbach","municipality":{"key":"09477128","name":"Kulmbach, GKSt","type":"Große_Kreisstadt"},"district":{"key":"09477","name":"Kulmbach","type":"Landkreis"},"federalState":{"key":"09","name":"Bayern"}},{"name":"Untere Weinberggasse","postalCode":"95326","locality":"Kulmbach","municipality":{"key":"09477128","name":"Kulmbach, GKSt","type":"Große_Kreisstadt"},"district":{"key":"09477","name":"Kulmbach","type":"Landkreis"},"federalState":{"key":"09","name":"Bayern"}},{"name":"Unterkodach","postalCode":"95326","locality":"Kulmbach","municipality":{"key":"09477128","name":"Kulmbach, GKSt","type":"Große_Kreisstadt"},"district":{"key":"09477","name":"Kulmbach","type":"Landkreis"},"federalState":{"key":"09","name":"Bayern"}},{"name":"Unterpurbach","postalCode":"95326","locality":"Kulmbach","municipality":{"key":"09477128","name":"Kulmbach, GKSt","type":"Große_Kreisstadt"},"district":{"key":"09477","name":"Kulmbach","type":"Landkreis"},"federalState":{"key":"09","name":"Bayern"}},{"name":"Unterzettlitz","postalCode":"95326","locality":"Kulmbach","municipality":{"key":"09477128","name":"Kulmbach, GKSt","type":"Große_Kreisstadt"},"district":{"key":"09477","name":"Kulmbach","type":"Landkreis"},"federalState":{"key":"09","name":"Bayern"}},{"name":"Veitsgrabenweg","postalCode":"95361","locality":"Ködnitz","municipality":{"key":"09477127","name":"Ködnitz","type":"Kreisangehörige_Gemeinde"},"district":{"key":"09477","name":"Kulmbach","type":"Landkreis"},"federalState":{"key":"09","name":"Bayern"}},{"name":"Weinbergstr.","postalCode":"95361","locality":"Ködnitz","municipality":{"key":"09477127","name":"Ködnitz","type":"Kreisangehörige_Gemeinde"},"district":{"key":"09477","name":"Kulmbach","type":"Landkreis"},"federalState":{"key":"09","name":"Bayern"}},{"name":"Weinleiten","postalCode":"95361","locality":"Ködnitz","municipality":{"key":"09477127","name":"Ködnitz","type":"Kreisangehörige_Gemeinde"},"district":{"key":"09477","name":"Kulmbach","type":"Landkreis"},"federalState":{"key":"09","name":"Bayern"}},{"name":"Zettlitzer Str.","postalCode":"95326","locality":"Kulmbach","municipality":{"key":"09477128","name":"Kulmbach, GKSt","type":"Große_Kreisstadt"},"district":{"key":"09477","name":"Kulmbach","type":"Landkreis"},"federalState":{"key":"09","name":"Bayern"}},{"name":"Ziegeleiweg","postalCode":"95326","locality":"Kulmbach","municipality":{"key":"09477128","name":"Kulmbach, GKSt","type":"Große_Kreisstadt"},"district":{"key":"09477","name":"Kulmbach","type":"Landkreis"},"federalState":{"key":"09","name":"Bayern"}},{"name":"Ziegelhüttener Hang","postalCode":"95326","locality":"Kulmbach","municipality":{"key":"09477128","name":"Kulmbach, GKSt","type":"Große_Kreisstadt"},"district":{"key":"09477","name":"Kulmbach","type":"Landkreis"},"federalState":{"key":"09","name":"Bayern"}},{"name":"Ziegelhüttener Str.","postalCode":"95326","locality":"Kulmbach","municipality":{"key":"09477128","name":"Kulmbach, GKSt","type":"Große_Kreisstadt"},"district":{"key":"09477","name":"Kulmbach","type":"Landkreis"},"federalState":{"key":"09","name":"Bayern"}},{"name":"Zieglerweg","postalCode":"95326","locality":"Kulmbach","municipality":{"key":"09477128","name":"Kulmbach, GKSt","type":"Große_Kreisstadt"},"district":{"key":"09477","name":"Kulmbach","type":"Landkreis"},"federalState":{"key":"09","name":"Bayern"}},{"name":"Zinsfelderstr.","postalCode":"95326","locality":"Kulmbach","municipality":{"key":"09477128","name":"Kulmbach, GKSt","type":"Große_Kreisstadt"},"district":{"key":"09477","name":"Kulmbach","type":"Landkreis"},"federalState":{"key":"09","name":"Bayern"}},{"name":"Zu den Gärten","postalCode":"95326","locality":"Kulmbach","municipality":{"key":"09477128","name":"Kulmbach, GKSt","type":"Große_Kreisstadt"},"district":{"key":"09477","name":"Kulmbach","type":"Landkreis"},"federalState":{"key":"09","name":"Bayern"}},{"name":"Zum Aubühl","postalCode":"95326","locality":"Kulmbach","municipality":{"key":"09477128","name":"Kulmbach, GKSt","type":"Große_Kreisstadt"},"district":{"key":"09477","name":"Kulmbach","type":"Landkreis"},"federalState":{"key":"09","name":"Bayern"}},{"name":"Zum Weiherbach","postalCode":"95326","locality":"Kulmbach","municipality":{"key":"09477128","name":"Kulmbach, GKSt","type":"Große_Kreisstadt"},"district":{"key":"09477","name":"Kulmbach","type":"Landkreis"},"federalState":{"key":"09","name":"Bayern"}},{"name":"zwischerfeller","postalCode":"95326","locality":"Kulmbach","municipality":{"key":"09477128","name":"Kulmbach, GKSt","type":"Große_Kreisstadt"},"district":{"key":"09477","name":"Kulmbach","type":"Landkreis"},"federalState":{"key":"09","name":"Bayern"}},{"name":"Ängerlein","postalCode":"95326","locality":"Kulmbach","municipality":{"key":"09477128","name":"Kulmbach, GKSt","type":"Große_Kreisstadt"},"district":{"key":"09477","name":"Kulmbach","type":"Landkreis"},"federalState":{"key":"09","name":"Bayern"}},]