[{"name":"Am Bach","postalCode":"01561","locality":"Schönfeld","municipality":{"key":"14627250","name":"Schönfeld","type":"Kreisangehörige_Gemeinde"},"district":{"key":"14627","name":"Meißen","type":"Landkreis"},"federalState":{"key":"14","name":"Sachsen"}},{"name":"Am Hang","postalCode":"01561","locality":"Schönfeld","municipality":{"key":"14627250","name":"Schönfeld","type":"Kreisangehörige_Gemeinde"},"district":{"key":"14627","name":"Meißen","type":"Landkreis"},"federalState":{"key":"14","name":"Sachsen"}},{"name":"Am Schäferteich","postalCode":"01561","locality":"Schönfeld","municipality":{"key":"14627250","name":"Schönfeld","type":"Kreisangehörige_Gemeinde"},"district":{"key":"14627","name":"Meißen","type":"Landkreis"},"federalState":{"key":"14","name":"Sachsen"}},{"name":"Am Wald","postalCode":"01561","locality":"Schönfeld","municipality":{"key":"14627250","name":"Schönfeld","type":"Kreisangehörige_Gemeinde"},"district":{"key":"14627","name":"Meißen","type":"Landkreis"},"federalState":{"key":"14","name":"Sachsen"}},{"name":"An der Autobahn","postalCode":"01561","locality":"Schönfeld","municipality":{"key":"14627250","name":"Schönfeld","type":"Kreisangehörige_Gemeinde"},"district":{"key":"14627","name":"Meißen","type":"Landkreis"},"federalState":{"key":"14","name":"Sachsen"}},{"name":"An der Schmiede","postalCode":"01561","locality":"Schönfeld","municipality":{"key":"14627250","name":"Schönfeld","type":"Kreisangehörige_Gemeinde"},"district":{"key":"14627","name":"Meißen","type":"Landkreis"},"federalState":{"key":"14","name":"Sachsen"}},{"name":"Bergweg","postalCode":"01561","locality":"Schönfeld","municipality":{"key":"14627250","name":"Schönfeld","type":"Kreisangehörige_Gemeinde"},"district":{"key":"14627","name":"Meißen","type":"Landkreis"},"federalState":{"key":"14","name":"Sachsen"}},{"name":"Blochwitzer Weg","postalCode":"01561","locality":"Schönfeld","municipality":{"key":"14627250","name":"Schönfeld","type":"Kreisangehörige_Gemeinde"},"district":{"key":"14627","name":"Meißen","type":"Landkreis"},"federalState":{"key":"14","name":"Sachsen"}},{"name":"Demminer Landweg","postalCode":"17111","locality":"Schönfeld","municipality":{"key":"13071131","name":"Schönfeld","type":"Kreisangehörige_Gemeinde"},"district":{"key":"13071","name":"Mecklenburgische Seenplatte","type":"Landkreis"},"federalState":{"key":"13","name":"Mecklenburg-Vorpommern"}},{"name":"Dorfstr.","postalCode":"01561","locality":"Schönfeld","municipality":{"key":"14627250","name":"Schönfeld","type":"Kreisangehörige_Gemeinde"},"district":{"key":"14627","name":"Meißen","type":"Landkreis"},"federalState":{"key":"14","name":"Sachsen"}},{"name":"Dorfstr.","postalCode":"17111","locality":"Schönfeld","municipality":{"key":"13071131","name":"Schönfeld","type":"Kreisangehörige_Gemeinde"},"district":{"key":"13071","name":"Mecklenburgische Seenplatte","type":"Landkreis"},"federalState":{"key":"13","name":"Mecklenburg-Vorpommern"}},{"name":"Dorfstr.","postalCode":"17291","locality":"Schönfeld","municipality":{"key":"12073520","name":"Schönfeld","type":"Kreisangehörige_Gemeinde"},"district":{"key":"12073","name":"Uckermark","type":"Landkreis"},"federalState":{"key":"12","name":"Brandenburg"}},{"name":"Fasanerie","postalCode":"01561","locality":"Schönfeld","municipality":{"key":"14627250","name":"Schönfeld","type":"Kreisangehörige_Gemeinde"},"district":{"key":"14627","name":"Meißen","type":"Landkreis"},"federalState":{"key":"14","name":"Sachsen"}},{"name":"Fasanerieweg","postalCode":"01561","locality":"Schönfeld","municipality":{"key":"14627250","name":"Schönfeld","type":"Kreisangehörige_Gemeinde"},"district":{"key":"14627","name":"Meißen","type":"Landkreis"},"federalState":{"key":"14","name":"Sachsen"}},{"name":"Freie Scholle","postalCode":"01561","locality":"Schönfeld","municipality":{"key":"14627250","name":"Schönfeld","type":"Kreisangehörige_Gemeinde"},"district":{"key":"14627","name":"Meißen","type":"Landkreis"},"federalState":{"key":"14","name":"Sachsen"}},{"name":"Gartenweg","postalCode":"01561","locality":"Schönfeld","municipality":{"key":"14627250","name":"Schönfeld","type":"Kreisangehörige_Gemeinde"},"district":{"key":"14627","name":"Meißen","type":"Landkreis"},"federalState":{"key":"14","name":"Sachsen"}},{"name":"Grenzweg","postalCode":"01561","locality":"Schönfeld","municipality":{"key":"14627250","name":"Schönfeld","type":"Kreisangehörige_Gemeinde"},"district":{"key":"14627","name":"Meißen","type":"Landkreis"},"federalState":{"key":"14","name":"Sachsen"}},{"name":"Großenhainer Str.","postalCode":"01561","locality":"Schönfeld","municipality":{"key":"14627250","name":"Schönfeld","type":"Kreisangehörige_Gemeinde"},"district":{"key":"14627","name":"Meißen","type":"Landkreis"},"federalState":{"key":"14","name":"Sachsen"}},{"name":"Hauptstr.","postalCode":"01561","locality":"Schönfeld","municipality":{"key":"14627250","name":"Schönfeld","type":"Kreisangehörige_Gemeinde"},"district":{"key":"14627","name":"Meißen","type":"Landkreis"},"federalState":{"key":"14","name":"Sachsen"}},{"name":"Hinten Draußen","postalCode":"01561","locality":"Schönfeld","municipality":{"key":"14627250","name":"Schönfeld","type":"Kreisangehörige_Gemeinde"},"district":{"key":"14627","name":"Meißen","type":"Landkreis"},"federalState":{"key":"14","name":"Sachsen"}},{"name":"Hofeweg","postalCode":"01561","locality":"Schönfeld","municipality":{"key":"14627250","name":"Schönfeld","type":"Kreisangehörige_Gemeinde"},"district":{"key":"14627","name":"Meißen","type":"Landkreis"},"federalState":{"key":"14","name":"Sachsen"}},{"name":"Im Rittergut","postalCode":"01561","locality":"Schönfeld","municipality":{"key":"14627250","name":"Schönfeld","type":"Kreisangehörige_Gemeinde"},"district":{"key":"14627","name":"Meißen","type":"Landkreis"},"federalState":{"key":"14","name":"Sachsen"}},{"name":"Im Schlosspark","postalCode":"01561","locality":"Schönfeld","municipality":{"key":"14627250","name":"Schönfeld","type":"Kreisangehörige_Gemeinde"},"district":{"key":"14627","name":"Meißen","type":"Landkreis"},"federalState":{"key":"14","name":"Sachsen"}},{"name":"Kamenzer Str.","postalCode":"01561","locality":"Schönfeld","municipality":{"key":"14627250","name":"Schönfeld","type":"Kreisangehörige_Gemeinde"},"district":{"key":"14627","name":"Meißen","type":"Landkreis"},"federalState":{"key":"14","name":"Sachsen"}},{"name":"Karlshof","postalCode":"17291","locality":"Schönfeld","municipality":{"key":"12073520","name":"Schönfeld","type":"Kreisangehörige_Gemeinde"},"district":{"key":"12073","name":"Uckermark","type":"Landkreis"},"federalState":{"key":"12","name":"Brandenburg"}},{"name":"Klenz","postalCode":"17111","locality":"Schönfeld","municipality":{"key":"13071131","name":"Schönfeld","type":"Kreisangehörige_Gemeinde"},"district":{"key":"13071","name":"Mecklenburgische Seenplatte","type":"Landkreis"},"federalState":{"key":"13","name":"Mecklenburg-Vorpommern"}},{"name":"Klenzer Weg","postalCode":"17111","locality":"Schönfeld","municipality":{"key":"13071131","name":"Schönfeld","type":"Kreisangehörige_Gemeinde"},"district":{"key":"13071","name":"Mecklenburgische Seenplatte","type":"Landkreis"},"federalState":{"key":"13","name":"Mecklenburg-Vorpommern"}},{"name":"Klockow","postalCode":"17291","locality":"Schönfeld","municipality":{"key":"12073520","name":"Schönfeld","type":"Kreisangehörige_Gemeinde"},"district":{"key":"12073","name":"Uckermark","type":"Landkreis"},"federalState":{"key":"12","name":"Brandenburg"}},{"name":"Königsbrücker Str.","postalCode":"01561","locality":"Schönfeld","municipality":{"key":"14627250","name":"Schönfeld","type":"Kreisangehörige_Gemeinde"},"district":{"key":"14627","name":"Meißen","type":"Landkreis"},"federalState":{"key":"14","name":"Sachsen"}},{"name":"Krutschweg","postalCode":"01561","locality":"Schönfeld","municipality":{"key":"14627250","name":"Schönfeld","type":"Kreisangehörige_Gemeinde"},"district":{"key":"14627","name":"Meißen","type":"Landkreis"},"federalState":{"key":"14","name":"Sachsen"}},{"name":"Liegaer Str.","postalCode":"01561","locality":"Schönfeld","municipality":{"key":"14627250","name":"Schönfeld","type":"Kreisangehörige_Gemeinde"},"district":{"key":"14627","name":"Meißen","type":"Landkreis"},"federalState":{"key":"14","name":"Sachsen"}},{"name":"Linzer Hauptstr.","postalCode":"01561","locality":"Schönfeld","municipality":{"key":"14627250","name":"Schönfeld","type":"Kreisangehörige_Gemeinde"},"district":{"key":"14627","name":"Meißen","type":"Landkreis"},"federalState":{"key":"14","name":"Sachsen"}},{"name":"Mühlenstr.","postalCode":"01561","locality":"Schönfeld","municipality":{"key":"14627250","name":"Schönfeld","type":"Kreisangehörige_Gemeinde"},"district":{"key":"14627","name":"Meißen","type":"Landkreis"},"federalState":{"key":"14","name":"Sachsen"}},{"name":"Neuenfeld","postalCode":"17291","locality":"Schönfeld","municipality":{"key":"12073520","name":"Schönfeld","type":"Kreisangehörige_Gemeinde"},"district":{"key":"12073","name":"Uckermark","type":"Landkreis"},"federalState":{"key":"12","name":"Brandenburg"}},{"name":"Neuer Weg","postalCode":"01561","locality":"Schönfeld","municipality":{"key":"14627250","name":"Schönfeld","type":"Kreisangehörige_Gemeinde"},"district":{"key":"14627","name":"Meißen","type":"Landkreis"},"federalState":{"key":"14","name":"Sachsen"}},{"name":"Oberweg","postalCode":"01561","locality":"Schönfeld","municipality":{"key":"14627250","name":"Schönfeld","type":"Kreisangehörige_Gemeinde"},"district":{"key":"14627","name":"Meißen","type":"Landkreis"},"federalState":{"key":"14","name":"Sachsen"}},{"name":"Ortrander Str.","postalCode":"01561","locality":"Schönfeld","municipality":{"key":"14627250","name":"Schönfeld","type":"Kreisangehörige_Gemeinde"},"district":{"key":"14627","name":"Meißen","type":"Landkreis"},"federalState":{"key":"14","name":"Sachsen"}},{"name":"Parkweg","postalCode":"01561","locality":"Schönfeld","municipality":{"key":"14627250","name":"Schönfeld","type":"Kreisangehörige_Gemeinde"},"district":{"key":"14627","name":"Meißen","type":"Landkreis"},"federalState":{"key":"14","name":"Sachsen"}},{"name":"Ponickauer Str.","postalCode":"01561","locality":"Schönfeld","municipality":{"key":"14627250","name":"Schönfeld","type":"Kreisangehörige_Gemeinde"},"district":{"key":"14627","name":"Meißen","type":"Landkreis"},"federalState":{"key":"14","name":"Sachsen"}},{"name":"Salzstr.","postalCode":"01561","locality":"Schönfeld","municipality":{"key":"14627250","name":"Schönfeld","type":"Kreisangehörige_Gemeinde"},"district":{"key":"14627","name":"Meißen","type":"Landkreis"},"federalState":{"key":"14","name":"Sachsen"}},{"name":"Schafgasse","postalCode":"01561","locality":"Schönfeld","municipality":{"key":"14627250","name":"Schönfeld","type":"Kreisangehörige_Gemeinde"},"district":{"key":"14627","name":"Meißen","type":"Landkreis"},"federalState":{"key":"14","name":"Sachsen"}},{"name":"Schönfelder Str.","postalCode":"01561","locality":"Schönfeld","municipality":{"key":"14627250","name":"Schönfeld","type":"Kreisangehörige_Gemeinde"},"district":{"key":"14627","name":"Meißen","type":"Landkreis"},"federalState":{"key":"14","name":"Sachsen"}},{"name":"Schulweg","postalCode":"01561","locality":"Schönfeld","municipality":{"key":"14627250","name":"Schönfeld","type":"Kreisangehörige_Gemeinde"},"district":{"key":"14627","name":"Meißen","type":"Landkreis"},"federalState":{"key":"14","name":"Sachsen"}},{"name":"Schwarzer Weg","postalCode":"01561","locality":"Schönfeld","municipality":{"key":"14627250","name":"Schönfeld","type":"Kreisangehörige_Gemeinde"},"district":{"key":"14627","name":"Meißen","type":"Landkreis"},"federalState":{"key":"14","name":"Sachsen"}},{"name":"Seniorenresidenz \"Haus Sonne am Schlosspark\"","postalCode":"01561","locality":"Schönfeld","municipality":{"key":"14627250","name":"Schönfeld","type":"Kreisangehörige_Gemeinde"},"district":{"key":"14627","name":"Meißen","type":"Landkreis"},"federalState":{"key":"14","name":"Sachsen"}},{"name":"Siedlungsweg","postalCode":"01561","locality":"Schönfeld","municipality":{"key":"14627250","name":"Schönfeld","type":"Kreisangehörige_Gemeinde"},"district":{"key":"14627","name":"Meißen","type":"Landkreis"},"federalState":{"key":"14","name":"Sachsen"}},{"name":"Str. der Jugend","postalCode":"01561","locality":"Schönfeld","municipality":{"key":"14627250","name":"Schönfeld","type":"Kreisangehörige_Gemeinde"},"district":{"key":"14627","name":"Meißen","type":"Landkreis"},"federalState":{"key":"14","name":"Sachsen"}},{"name":"Teichweg","postalCode":"01561","locality":"Schönfeld","municipality":{"key":"14627250","name":"Schönfeld","type":"Kreisangehörige_Gemeinde"},"district":{"key":"14627","name":"Meißen","type":"Landkreis"},"federalState":{"key":"14","name":"Sachsen"}},{"name":"Trittelwitz","postalCode":"17111","locality":"Schönfeld","municipality":{"key":"13071131","name":"Schönfeld","type":"Kreisangehörige_Gemeinde"},"district":{"key":"13071","name":"Mecklenburgische Seenplatte","type":"Landkreis"},"federalState":{"key":"13","name":"Mecklenburg-Vorpommern"}},{"name":"Weinberg","postalCode":"01561","locality":"Schönfeld","municipality":{"key":"14627250","name":"Schönfeld","type":"Kreisangehörige_Gemeinde"},"district":{"key":"14627","name":"Meißen","type":"Landkreis"},"federalState":{"key":"14","name":"Sachsen"}},{"name":"Weinbergsweg","postalCode":"01561","locality":"Schönfeld","municipality":{"key":"14627250","name":"Schönfeld","type":"Kreisangehörige_Gemeinde"},"district":{"key":"14627","name":"Meißen","type":"Landkreis"},"federalState":{"key":"14","name":"Sachsen"}},{"name":"Zum Wachberg","postalCode":"01561","locality":"Schönfeld","municipality":{"key":"14627250","name":"Schönfeld","type":"Kreisangehörige_Gemeinde"},"district":{"key":"14627","name":"Meißen","type":"Landkreis"},"federalState":{"key":"14","name":"Sachsen"}},]