[{"name":"Alfons-Legner-Str.","postalCode":"66919","locality":"Obernheim-Kirchenarnbach","municipality":{"key":"07340219","name":"Obernheim-Kirchenarnbach","type":"Kreisangehörige_Gemeinde"},"district":{"key":"07340","name":"Südwestpfalz","type":"Landkreis"},"federalState":{"key":"07","name":"Rheinland-Pfalz"}},{"name":"Am Königstälchen","postalCode":"66919","locality":"Obernheim-Kirchenarnbach","municipality":{"key":"07340219","name":"Obernheim-Kirchenarnbach","type":"Kreisangehörige_Gemeinde"},"district":{"key":"07340","name":"Südwestpfalz","type":"Landkreis"},"federalState":{"key":"07","name":"Rheinland-Pfalz"}},{"name":"Am Pfarrbrunnen","postalCode":"66919","locality":"Obernheim-Kirchenarnbach","municipality":{"key":"07340219","name":"Obernheim-Kirchenarnbach","type":"Kreisangehörige_Gemeinde"},"district":{"key":"07340","name":"Südwestpfalz","type":"Landkreis"},"federalState":{"key":"07","name":"Rheinland-Pfalz"}},{"name":"Auf dem Sessel","postalCode":"66919","locality":"Obernheim-Kirchenarnbach","municipality":{"key":"07340219","name":"Obernheim-Kirchenarnbach","type":"Kreisangehörige_Gemeinde"},"district":{"key":"07340","name":"Südwestpfalz","type":"Landkreis"},"federalState":{"key":"07","name":"Rheinland-Pfalz"}},{"name":"Auf der Linde","postalCode":"66919","locality":"Obernheim-Kirchenarnbach","municipality":{"key":"07340219","name":"Obernheim-Kirchenarnbach","type":"Kreisangehörige_Gemeinde"},"district":{"key":"07340","name":"Südwestpfalz","type":"Landkreis"},"federalState":{"key":"07","name":"Rheinland-Pfalz"}},{"name":"Bergstr.","postalCode":"66919","locality":"Obernheim-Kirchenarnbach","municipality":{"key":"07340219","name":"Obernheim-Kirchenarnbach","type":"Kreisangehörige_Gemeinde"},"district":{"key":"07340","name":"Südwestpfalz","type":"Landkreis"},"federalState":{"key":"07","name":"Rheinland-Pfalz"}},{"name":"Bildeichstr.","postalCode":"66919","locality":"Obernheim-Kirchenarnbach","municipality":{"key":"07340219","name":"Obernheim-Kirchenarnbach","type":"Kreisangehörige_Gemeinde"},"district":{"key":"07340","name":"Südwestpfalz","type":"Landkreis"},"federalState":{"key":"07","name":"Rheinland-Pfalz"}},{"name":"Goldbergstr.","postalCode":"66919","locality":"Obernheim-Kirchenarnbach","municipality":{"key":"07340219","name":"Obernheim-Kirchenarnbach","type":"Kreisangehörige_Gemeinde"},"district":{"key":"07340","name":"Südwestpfalz","type":"Landkreis"},"federalState":{"key":"07","name":"Rheinland-Pfalz"}},{"name":"Hauptstr.","postalCode":"66919","locality":"Obernheim-Kirchenarnbach","municipality":{"key":"07340219","name":"Obernheim-Kirchenarnbach","type":"Kreisangehörige_Gemeinde"},"district":{"key":"07340","name":"Südwestpfalz","type":"Landkreis"},"federalState":{"key":"07","name":"Rheinland-Pfalz"}},{"name":"Im Eck","postalCode":"66919","locality":"Obernheim-Kirchenarnbach","municipality":{"key":"07340219","name":"Obernheim-Kirchenarnbach","type":"Kreisangehörige_Gemeinde"},"district":{"key":"07340","name":"Südwestpfalz","type":"Landkreis"},"federalState":{"key":"07","name":"Rheinland-Pfalz"}},{"name":"Kirchenstr.","postalCode":"66919","locality":"Obernheim-Kirchenarnbach","municipality":{"key":"07340219","name":"Obernheim-Kirchenarnbach","type":"Kreisangehörige_Gemeinde"},"district":{"key":"07340","name":"Südwestpfalz","type":"Landkreis"},"federalState":{"key":"07","name":"Rheinland-Pfalz"}},{"name":"Kolpingstr.","postalCode":"66919","locality":"Obernheim-Kirchenarnbach","municipality":{"key":"07340219","name":"Obernheim-Kirchenarnbach","type":"Kreisangehörige_Gemeinde"},"district":{"key":"07340","name":"Südwestpfalz","type":"Landkreis"},"federalState":{"key":"07","name":"Rheinland-Pfalz"}},{"name":"Landstuhler Str.","postalCode":"66919","locality":"Obernheim-Kirchenarnbach","municipality":{"key":"07340219","name":"Obernheim-Kirchenarnbach","type":"Kreisangehörige_Gemeinde"},"district":{"key":"07340","name":"Südwestpfalz","type":"Landkreis"},"federalState":{"key":"07","name":"Rheinland-Pfalz"}},{"name":"Leininger Str.","postalCode":"66919","locality":"Obernheim-Kirchenarnbach","municipality":{"key":"07340219","name":"Obernheim-Kirchenarnbach","type":"Kreisangehörige_Gemeinde"},"district":{"key":"07340","name":"Südwestpfalz","type":"Landkreis"},"federalState":{"key":"07","name":"Rheinland-Pfalz"}},{"name":"Pirmasenser Str.","postalCode":"66919","locality":"Obernheim-Kirchenarnbach","municipality":{"key":"07340219","name":"Obernheim-Kirchenarnbach","type":"Kreisangehörige_Gemeinde"},"district":{"key":"07340","name":"Südwestpfalz","type":"Landkreis"},"federalState":{"key":"07","name":"Rheinland-Pfalz"}},{"name":"Platterweg","postalCode":"66919","locality":"Obernheim-Kirchenarnbach","municipality":{"key":"07340219","name":"Obernheim-Kirchenarnbach","type":"Kreisangehörige_Gemeinde"},"district":{"key":"07340","name":"Südwestpfalz","type":"Landkreis"},"federalState":{"key":"07","name":"Rheinland-Pfalz"}},{"name":"Queidersbacher Str.","postalCode":"66919","locality":"Obernheim-Kirchenarnbach","municipality":{"key":"07340219","name":"Obernheim-Kirchenarnbach","type":"Kreisangehörige_Gemeinde"},"district":{"key":"07340","name":"Südwestpfalz","type":"Landkreis"},"federalState":{"key":"07","name":"Rheinland-Pfalz"}},{"name":"Rosenstr.","postalCode":"66919","locality":"Obernheim-Kirchenarnbach","municipality":{"key":"07340219","name":"Obernheim-Kirchenarnbach","type":"Kreisangehörige_Gemeinde"},"district":{"key":"07340","name":"Südwestpfalz","type":"Landkreis"},"federalState":{"key":"07","name":"Rheinland-Pfalz"}},{"name":"Schlangenbrückerstr.","postalCode":"66919","locality":"Obernheim-Kirchenarnbach","municipality":{"key":"07340219","name":"Obernheim-Kirchenarnbach","type":"Kreisangehörige_Gemeinde"},"district":{"key":"07340","name":"Südwestpfalz","type":"Landkreis"},"federalState":{"key":"07","name":"Rheinland-Pfalz"}},{"name":"Schulstr.","postalCode":"66919","locality":"Obernheim-Kirchenarnbach","municipality":{"key":"07340219","name":"Obernheim-Kirchenarnbach","type":"Kreisangehörige_Gemeinde"},"district":{"key":"07340","name":"Südwestpfalz","type":"Landkreis"},"federalState":{"key":"07","name":"Rheinland-Pfalz"}},{"name":"Sickinger Str.","postalCode":"66919","locality":"Obernheim-Kirchenarnbach","municipality":{"key":"07340219","name":"Obernheim-Kirchenarnbach","type":"Kreisangehörige_Gemeinde"},"district":{"key":"07340","name":"Südwestpfalz","type":"Landkreis"},"federalState":{"key":"07","name":"Rheinland-Pfalz"}},{"name":"Waldstr.","postalCode":"66919","locality":"Obernheim-Kirchenarnbach","municipality":{"key":"07340219","name":"Obernheim-Kirchenarnbach","type":"Kreisangehörige_Gemeinde"},"district":{"key":"07340","name":"Südwestpfalz","type":"Landkreis"},"federalState":{"key":"07","name":"Rheinland-Pfalz"}},]