[{"name":"Alte Dorfstr.","postalCode":"17506","locality":"Gützkow","municipality":{"key":"13075044","name":"Gützkow, Stadt","type":"Stadt"},"district":{"key":"13075","name":"Vorpommern-Greifswald","type":"Landkreis"},"federalState":{"key":"13","name":"Mecklenburg-Vorpommern"}},{"name":"Am Bahnhof","postalCode":"17506","locality":"Gützkow","municipality":{"key":"13075044","name":"Gützkow, Stadt","type":"Stadt"},"district":{"key":"13075","name":"Vorpommern-Greifswald","type":"Landkreis"},"federalState":{"key":"13","name":"Mecklenburg-Vorpommern"}},{"name":"Am Fährsteig","postalCode":"17506","locality":"Gützkow","municipality":{"key":"13075044","name":"Gützkow, Stadt","type":"Stadt"},"district":{"key":"13075","name":"Vorpommern-Greifswald","type":"Landkreis"},"federalState":{"key":"13","name":"Mecklenburg-Vorpommern"}},{"name":"Am Felde","postalCode":"17506","locality":"Gützkow","municipality":{"key":"13075044","name":"Gützkow, Stadt","type":"Stadt"},"district":{"key":"13075","name":"Vorpommern-Greifswald","type":"Landkreis"},"federalState":{"key":"13","name":"Mecklenburg-Vorpommern"}},{"name":"Am Mühlenberg","postalCode":"17506","locality":"Gützkow","municipality":{"key":"13075044","name":"Gützkow, Stadt","type":"Stadt"},"district":{"key":"13075","name":"Vorpommern-Greifswald","type":"Landkreis"},"federalState":{"key":"13","name":"Mecklenburg-Vorpommern"}},{"name":"Anklamer Str.","postalCode":"17506","locality":"Gützkow","municipality":{"key":"13075044","name":"Gützkow, Stadt","type":"Stadt"},"district":{"key":"13075","name":"Vorpommern-Greifswald","type":"Landkreis"},"federalState":{"key":"13","name":"Mecklenburg-Vorpommern"}},{"name":"August-Bebel-Str.","postalCode":"17506","locality":"Gützkow","municipality":{"key":"13075044","name":"Gützkow, Stadt","type":"Stadt"},"district":{"key":"13075","name":"Vorpommern-Greifswald","type":"Landkreis"},"federalState":{"key":"13","name":"Mecklenburg-Vorpommern"}},{"name":"Baron-von-Lepel-Platz","postalCode":"17506","locality":"Gützkow","municipality":{"key":"13075044","name":"Gützkow, Stadt","type":"Stadt"},"district":{"key":"13075","name":"Vorpommern-Greifswald","type":"Landkreis"},"federalState":{"key":"13","name":"Mecklenburg-Vorpommern"}},{"name":"Brauerhof","postalCode":"17506","locality":"Gützkow","municipality":{"key":"13075044","name":"Gützkow, Stadt","type":"Stadt"},"district":{"key":"13075","name":"Vorpommern-Greifswald","type":"Landkreis"},"federalState":{"key":"13","name":"Mecklenburg-Vorpommern"}},{"name":"Chausseestr.","postalCode":"17506","locality":"Gützkow","municipality":{"key":"13075044","name":"Gützkow, Stadt","type":"Stadt"},"district":{"key":"13075","name":"Vorpommern-Greifswald","type":"Landkreis"},"federalState":{"key":"13","name":"Mecklenburg-Vorpommern"}},{"name":"Dänholm","postalCode":"17506","locality":"Gützkow","municipality":{"key":"13075044","name":"Gützkow, Stadt","type":"Stadt"},"district":{"key":"13075","name":"Vorpommern-Greifswald","type":"Landkreis"},"federalState":{"key":"13","name":"Mecklenburg-Vorpommern"}},{"name":"Dargezin","postalCode":"17506","locality":"Gützkow","municipality":{"key":"13075044","name":"Gützkow, Stadt","type":"Stadt"},"district":{"key":"13075","name":"Vorpommern-Greifswald","type":"Landkreis"},"federalState":{"key":"13","name":"Mecklenburg-Vorpommern"}},{"name":"Dorfstr.","postalCode":"17506","locality":"Gützkow","municipality":{"key":"13075044","name":"Gützkow, Stadt","type":"Stadt"},"district":{"key":"13075","name":"Vorpommern-Greifswald","type":"Landkreis"},"federalState":{"key":"13","name":"Mecklenburg-Vorpommern"}},{"name":"Feldstr.","postalCode":"17506","locality":"Gützkow","municipality":{"key":"13075044","name":"Gützkow, Stadt","type":"Stadt"},"district":{"key":"13075","name":"Vorpommern-Greifswald","type":"Landkreis"},"federalState":{"key":"13","name":"Mecklenburg-Vorpommern"}},{"name":"Friedrich-Ludwig-Jahn-Str.","postalCode":"17506","locality":"Gützkow","municipality":{"key":"13075044","name":"Gützkow, Stadt","type":"Stadt"},"district":{"key":"13075","name":"Vorpommern-Greifswald","type":"Landkreis"},"federalState":{"key":"13","name":"Mecklenburg-Vorpommern"}},{"name":"Fritzow","postalCode":"17506","locality":"Gützkow","municipality":{"key":"13075044","name":"Gützkow, Stadt","type":"Stadt"},"district":{"key":"13075","name":"Vorpommern-Greifswald","type":"Landkreis"},"federalState":{"key":"13","name":"Mecklenburg-Vorpommern"}},{"name":"Fritzower Damm","postalCode":"17506","locality":"Gützkow","municipality":{"key":"13075044","name":"Gützkow, Stadt","type":"Stadt"},"district":{"key":"13075","name":"Vorpommern-Greifswald","type":"Landkreis"},"federalState":{"key":"13","name":"Mecklenburg-Vorpommern"}},{"name":"Fritz-Reuter-Str.","postalCode":"17506","locality":"Gützkow","municipality":{"key":"13075044","name":"Gützkow, Stadt","type":"Stadt"},"district":{"key":"13075","name":"Vorpommern-Greifswald","type":"Landkreis"},"federalState":{"key":"13","name":"Mecklenburg-Vorpommern"}},{"name":"Gartenstr.","postalCode":"17506","locality":"Gützkow","municipality":{"key":"13075044","name":"Gützkow, Stadt","type":"Stadt"},"district":{"key":"13075","name":"Vorpommern-Greifswald","type":"Landkreis"},"federalState":{"key":"13","name":"Mecklenburg-Vorpommern"}},{"name":"Gebrüder-Kreßmann-Str.","postalCode":"17506","locality":"Gützkow","municipality":{"key":"13075044","name":"Gützkow, Stadt","type":"Stadt"},"district":{"key":"13075","name":"Vorpommern-Greifswald","type":"Landkreis"},"federalState":{"key":"13","name":"Mecklenburg-Vorpommern"}},{"name":"Glödenhofer Weg","postalCode":"17506","locality":"Gützkow","municipality":{"key":"13075044","name":"Gützkow, Stadt","type":"Stadt"},"district":{"key":"13075","name":"Vorpommern-Greifswald","type":"Landkreis"},"federalState":{"key":"13","name":"Mecklenburg-Vorpommern"}},{"name":"Greifswalder Str.","postalCode":"17506","locality":"Gützkow","municipality":{"key":"13075044","name":"Gützkow, Stadt","type":"Stadt"},"district":{"key":"13075","name":"Vorpommern-Greifswald","type":"Landkreis"},"federalState":{"key":"13","name":"Mecklenburg-Vorpommern"}},{"name":"Große Wallstr.","postalCode":"17506","locality":"Gützkow","municipality":{"key":"13075044","name":"Gützkow, Stadt","type":"Stadt"},"district":{"key":"13075","name":"Vorpommern-Greifswald","type":"Landkreis"},"federalState":{"key":"13","name":"Mecklenburg-Vorpommern"}},{"name":"Hof","postalCode":"17506","locality":"Gützkow","municipality":{"key":"13075044","name":"Gützkow, Stadt","type":"Stadt"},"district":{"key":"13075","name":"Vorpommern-Greifswald","type":"Landkreis"},"federalState":{"key":"13","name":"Mecklenburg-Vorpommern"}},{"name":"Karlstr.","postalCode":"17506","locality":"Gützkow","municipality":{"key":"13075044","name":"Gützkow, Stadt","type":"Stadt"},"district":{"key":"13075","name":"Vorpommern-Greifswald","type":"Landkreis"},"federalState":{"key":"13","name":"Mecklenburg-Vorpommern"}},{"name":"Kirchstr.","postalCode":"17506","locality":"Gützkow","municipality":{"key":"13075044","name":"Gützkow, Stadt","type":"Stadt"},"district":{"key":"13075","name":"Vorpommern-Greifswald","type":"Landkreis"},"federalState":{"key":"13","name":"Mecklenburg-Vorpommern"}},{"name":"Kleine Wallstr.","postalCode":"17506","locality":"Gützkow","municipality":{"key":"13075044","name":"Gützkow, Stadt","type":"Stadt"},"district":{"key":"13075","name":"Vorpommern-Greifswald","type":"Landkreis"},"federalState":{"key":"13","name":"Mecklenburg-Vorpommern"}},{"name":"Kölzin","postalCode":"17506","locality":"Gützkow","municipality":{"key":"13075044","name":"Gützkow, Stadt","type":"Stadt"},"district":{"key":"13075","name":"Vorpommern-Greifswald","type":"Landkreis"},"federalState":{"key":"13","name":"Mecklenburg-Vorpommern"}},{"name":"Kurzer Weg","postalCode":"17506","locality":"Gützkow","municipality":{"key":"13075044","name":"Gützkow, Stadt","type":"Stadt"},"district":{"key":"13075","name":"Vorpommern-Greifswald","type":"Landkreis"},"federalState":{"key":"13","name":"Mecklenburg-Vorpommern"}},{"name":"Liebenthal","postalCode":"17506","locality":"Gützkow","municipality":{"key":"13075044","name":"Gützkow, Stadt","type":"Stadt"},"district":{"key":"13075","name":"Vorpommern-Greifswald","type":"Landkreis"},"federalState":{"key":"13","name":"Mecklenburg-Vorpommern"}},{"name":"Lindenweg","postalCode":"17506","locality":"Gützkow","municipality":{"key":"13075044","name":"Gützkow, Stadt","type":"Stadt"},"district":{"key":"13075","name":"Vorpommern-Greifswald","type":"Landkreis"},"federalState":{"key":"13","name":"Mecklenburg-Vorpommern"}},{"name":"Mascowstr.","postalCode":"17506","locality":"Gützkow","municipality":{"key":"13075044","name":"Gützkow, Stadt","type":"Stadt"},"district":{"key":"13075","name":"Vorpommern-Greifswald","type":"Landkreis"},"federalState":{"key":"13","name":"Mecklenburg-Vorpommern"}},{"name":"Meierei","postalCode":"17506","locality":"Gützkow","municipality":{"key":"13075044","name":"Gützkow, Stadt","type":"Stadt"},"district":{"key":"13075","name":"Vorpommern-Greifswald","type":"Landkreis"},"federalState":{"key":"13","name":"Mecklenburg-Vorpommern"}},{"name":"Müllerwall","postalCode":"17506","locality":"Gützkow","municipality":{"key":"13075044","name":"Gützkow, Stadt","type":"Stadt"},"district":{"key":"13075","name":"Vorpommern-Greifswald","type":"Landkreis"},"federalState":{"key":"13","name":"Mecklenburg-Vorpommern"}},{"name":"Parkstr.","postalCode":"17506","locality":"Gützkow","municipality":{"key":"13075044","name":"Gützkow, Stadt","type":"Stadt"},"district":{"key":"13075","name":"Vorpommern-Greifswald","type":"Landkreis"},"federalState":{"key":"13","name":"Mecklenburg-Vorpommern"}},{"name":"Peeneblick","postalCode":"17506","locality":"Gützkow","municipality":{"key":"13075044","name":"Gützkow, Stadt","type":"Stadt"},"district":{"key":"13075","name":"Vorpommern-Greifswald","type":"Landkreis"},"federalState":{"key":"13","name":"Mecklenburg-Vorpommern"}},{"name":"Peenestr.","postalCode":"17506","locality":"Gützkow","municipality":{"key":"13075044","name":"Gützkow, Stadt","type":"Stadt"},"district":{"key":"13075","name":"Vorpommern-Greifswald","type":"Landkreis"},"federalState":{"key":"13","name":"Mecklenburg-Vorpommern"}},{"name":"Pommersche Str.","postalCode":"17506","locality":"Gützkow","municipality":{"key":"13075044","name":"Gützkow, Stadt","type":"Stadt"},"district":{"key":"13075","name":"Vorpommern-Greifswald","type":"Landkreis"},"federalState":{"key":"13","name":"Mecklenburg-Vorpommern"}},{"name":"Ranziner Weg","postalCode":"17506","locality":"Gützkow","municipality":{"key":"13075044","name":"Gützkow, Stadt","type":"Stadt"},"district":{"key":"13075","name":"Vorpommern-Greifswald","type":"Landkreis"},"federalState":{"key":"13","name":"Mecklenburg-Vorpommern"}},{"name":"Schmatziner Weg","postalCode":"17506","locality":"Gützkow","municipality":{"key":"13075044","name":"Gützkow, Stadt","type":"Stadt"},"district":{"key":"13075","name":"Vorpommern-Greifswald","type":"Landkreis"},"federalState":{"key":"13","name":"Mecklenburg-Vorpommern"}},{"name":"Schulstr.","postalCode":"17506","locality":"Gützkow","municipality":{"key":"13075044","name":"Gützkow, Stadt","type":"Stadt"},"district":{"key":"13075","name":"Vorpommern-Greifswald","type":"Landkreis"},"federalState":{"key":"13","name":"Mecklenburg-Vorpommern"}},{"name":"Seilergang","postalCode":"17506","locality":"Gützkow","municipality":{"key":"13075044","name":"Gützkow, Stadt","type":"Stadt"},"district":{"key":"13075","name":"Vorpommern-Greifswald","type":"Landkreis"},"federalState":{"key":"13","name":"Mecklenburg-Vorpommern"}},{"name":"Sternbergstr.","postalCode":"17506","locality":"Gützkow","municipality":{"key":"13075044","name":"Gützkow, Stadt","type":"Stadt"},"district":{"key":"13075","name":"Vorpommern-Greifswald","type":"Landkreis"},"federalState":{"key":"13","name":"Mecklenburg-Vorpommern"}},{"name":"Teichstr.","postalCode":"17506","locality":"Gützkow","municipality":{"key":"13075044","name":"Gützkow, Stadt","type":"Stadt"},"district":{"key":"13075","name":"Vorpommern-Greifswald","type":"Landkreis"},"federalState":{"key":"13","name":"Mecklenburg-Vorpommern"}},{"name":"Töpferstr.","postalCode":"17506","locality":"Gützkow","municipality":{"key":"13075044","name":"Gützkow, Stadt","type":"Stadt"},"district":{"key":"13075","name":"Vorpommern-Greifswald","type":"Landkreis"},"federalState":{"key":"13","name":"Mecklenburg-Vorpommern"}},{"name":"Triftstr.","postalCode":"17506","locality":"Gützkow","municipality":{"key":"13075044","name":"Gützkow, Stadt","type":"Stadt"},"district":{"key":"13075","name":"Vorpommern-Greifswald","type":"Landkreis"},"federalState":{"key":"13","name":"Mecklenburg-Vorpommern"}},{"name":"Upatel","postalCode":"17506","locality":"Gützkow","municipality":{"key":"13075044","name":"Gützkow, Stadt","type":"Stadt"},"district":{"key":"13075","name":"Vorpommern-Greifswald","type":"Landkreis"},"federalState":{"key":"13","name":"Mecklenburg-Vorpommern"}},{"name":"Vargatzer Weg","postalCode":"17506","locality":"Gützkow","municipality":{"key":"13075044","name":"Gützkow, Stadt","type":"Stadt"},"district":{"key":"13075","name":"Vorpommern-Greifswald","type":"Landkreis"},"federalState":{"key":"13","name":"Mecklenburg-Vorpommern"}},{"name":"Vom Hofstr.","postalCode":"17506","locality":"Gützkow","municipality":{"key":"13075044","name":"Gützkow, Stadt","type":"Stadt"},"district":{"key":"13075","name":"Vorpommern-Greifswald","type":"Landkreis"},"federalState":{"key":"13","name":"Mecklenburg-Vorpommern"}},{"name":"Waldstr.","postalCode":"17506","locality":"Gützkow","municipality":{"key":"13075044","name":"Gützkow, Stadt","type":"Stadt"},"district":{"key":"13075","name":"Vorpommern-Greifswald","type":"Landkreis"},"federalState":{"key":"13","name":"Mecklenburg-Vorpommern"}},{"name":"Zum Bollwerk","postalCode":"17506","locality":"Gützkow","municipality":{"key":"13075044","name":"Gützkow, Stadt","type":"Stadt"},"district":{"key":"13075","name":"Vorpommern-Greifswald","type":"Landkreis"},"federalState":{"key":"13","name":"Mecklenburg-Vorpommern"}},{"name":"Zum Hasenberg","postalCode":"17506","locality":"Gützkow","municipality":{"key":"13075044","name":"Gützkow, Stadt","type":"Stadt"},"district":{"key":"13075","name":"Vorpommern-Greifswald","type":"Landkreis"},"federalState":{"key":"13","name":"Mecklenburg-Vorpommern"}},{"name":"Zum Kosenowsee","postalCode":"17506","locality":"Gützkow","municipality":{"key":"13075044","name":"Gützkow, Stadt","type":"Stadt"},"district":{"key":"13075","name":"Vorpommern-Greifswald","type":"Landkreis"},"federalState":{"key":"13","name":"Mecklenburg-Vorpommern"}},]