[{"name":"Ackerstr.","postalCode":"46499","locality":"Hamminkeln","municipality":{"key":"05170012","name":"Hamminkeln, Stadt","type":"Stadt"},"district":{"key":"05170","name":"Wesel","type":"Kreis"},"federalState":{"key":"05","name":"Nordrhein-Westfalen"}},{"name":"Ahornweg","postalCode":"46499","locality":"Hamminkeln","municipality":{"key":"05170012","name":"Hamminkeln, Stadt","type":"Stadt"},"district":{"key":"05170","name":"Wesel","type":"Kreis"},"federalState":{"key":"05","name":"Nordrhein-Westfalen"}},{"name":"Akazienweg","postalCode":"46499","locality":"Hamminkeln","municipality":{"key":"05170012","name":"Hamminkeln, Stadt","type":"Stadt"},"district":{"key":"05170","name":"Wesel","type":"Kreis"},"federalState":{"key":"05","name":"Nordrhein-Westfalen"}},{"name":"Alte Furt","postalCode":"46499","locality":"Hamminkeln","municipality":{"key":"05170012","name":"Hamminkeln, Stadt","type":"Stadt"},"district":{"key":"05170","name":"Wesel","type":"Kreis"},"federalState":{"key":"05","name":"Nordrhein-Westfalen"}},{"name":"Alte Kornbrennerei","postalCode":"46499","locality":"Hamminkeln","municipality":{"key":"05170012","name":"Hamminkeln, Stadt","type":"Stadt"},"district":{"key":"05170","name":"Wesel","type":"Kreis"},"federalState":{"key":"05","name":"Nordrhein-Westfalen"}},{"name":"Alte Poststr.","postalCode":"46499","locality":"Hamminkeln","municipality":{"key":"05170012","name":"Hamminkeln, Stadt","type":"Stadt"},"district":{"key":"05170","name":"Wesel","type":"Kreis"},"federalState":{"key":"05","name":"Nordrhein-Westfalen"}},{"name":"Alte Reeser Str.","postalCode":"46499","locality":"Hamminkeln","municipality":{"key":"05170012","name":"Hamminkeln, Stadt","type":"Stadt"},"district":{"key":"05170","name":"Wesel","type":"Kreis"},"federalState":{"key":"05","name":"Nordrhein-Westfalen"}},{"name":"Alter Kirchweg","postalCode":"46499","locality":"Hamminkeln","municipality":{"key":"05170012","name":"Hamminkeln, Stadt","type":"Stadt"},"district":{"key":"05170","name":"Wesel","type":"Kreis"},"federalState":{"key":"05","name":"Nordrhein-Westfalen"}},{"name":"Alter Rheder Weg","postalCode":"46499","locality":"Hamminkeln","municipality":{"key":"05170012","name":"Hamminkeln, Stadt","type":"Stadt"},"district":{"key":"05170","name":"Wesel","type":"Kreis"},"federalState":{"key":"05","name":"Nordrhein-Westfalen"}},{"name":"Am Bahnhof","postalCode":"46499","locality":"Hamminkeln","municipality":{"key":"05170012","name":"Hamminkeln, Stadt","type":"Stadt"},"district":{"key":"05170","name":"Wesel","type":"Kreis"},"federalState":{"key":"05","name":"Nordrhein-Westfalen"}},{"name":"Am Bongert","postalCode":"46499","locality":"Hamminkeln","municipality":{"key":"05170012","name":"Hamminkeln, Stadt","type":"Stadt"},"district":{"key":"05170","name":"Wesel","type":"Kreis"},"federalState":{"key":"05","name":"Nordrhein-Westfalen"}},{"name":"Am Busch","postalCode":"46499","locality":"Hamminkeln","municipality":{"key":"05170012","name":"Hamminkeln, Stadt","type":"Stadt"},"district":{"key":"05170","name":"Wesel","type":"Kreis"},"federalState":{"key":"05","name":"Nordrhein-Westfalen"}},{"name":"Am Büscherhof","postalCode":"46499","locality":"Hamminkeln","municipality":{"key":"05170012","name":"Hamminkeln, Stadt","type":"Stadt"},"district":{"key":"05170","name":"Wesel","type":"Kreis"},"federalState":{"key":"05","name":"Nordrhein-Westfalen"}},{"name":"Am Butengarten","postalCode":"46499","locality":"Hamminkeln","municipality":{"key":"05170012","name":"Hamminkeln, Stadt","type":"Stadt"},"district":{"key":"05170","name":"Wesel","type":"Kreis"},"federalState":{"key":"05","name":"Nordrhein-Westfalen"}},{"name":"Am Depot","postalCode":"46499","locality":"Hamminkeln","municipality":{"key":"05170012","name":"Hamminkeln, Stadt","type":"Stadt"},"district":{"key":"05170","name":"Wesel","type":"Kreis"},"federalState":{"key":"05","name":"Nordrhein-Westfalen"}},{"name":"Am Dorffeld","postalCode":"46499","locality":"Hamminkeln","municipality":{"key":"05170012","name":"Hamminkeln, Stadt","type":"Stadt"},"district":{"key":"05170","name":"Wesel","type":"Kreis"},"federalState":{"key":"05","name":"Nordrhein-Westfalen"}},{"name":"Am Ehrenmal","postalCode":"46499","locality":"Hamminkeln","municipality":{"key":"05170012","name":"Hamminkeln, Stadt","type":"Stadt"},"district":{"key":"05170","name":"Wesel","type":"Kreis"},"federalState":{"key":"05","name":"Nordrhein-Westfalen"}},{"name":"Am Feldrain","postalCode":"46499","locality":"Hamminkeln","municipality":{"key":"05170012","name":"Hamminkeln, Stadt","type":"Stadt"},"district":{"key":"05170","name":"Wesel","type":"Kreis"},"federalState":{"key":"05","name":"Nordrhein-Westfalen"}},{"name":"Am Freibad","postalCode":"46499","locality":"Hamminkeln","municipality":{"key":"05170012","name":"Hamminkeln, Stadt","type":"Stadt"},"district":{"key":"05170","name":"Wesel","type":"Kreis"},"federalState":{"key":"05","name":"Nordrhein-Westfalen"}},{"name":"Am Glockenkamp","postalCode":"46499","locality":"Hamminkeln","municipality":{"key":"05170012","name":"Hamminkeln, Stadt","type":"Stadt"},"district":{"key":"05170","name":"Wesel","type":"Kreis"},"federalState":{"key":"05","name":"Nordrhein-Westfalen"}},{"name":"Am Hallenbad","postalCode":"46499","locality":"Hamminkeln","municipality":{"key":"05170012","name":"Hamminkeln, Stadt","type":"Stadt"},"district":{"key":"05170","name":"Wesel","type":"Kreis"},"federalState":{"key":"05","name":"Nordrhein-Westfalen"}},{"name":"Am Hang","postalCode":"46499","locality":"Hamminkeln","municipality":{"key":"05170012","name":"Hamminkeln, Stadt","type":"Stadt"},"district":{"key":"05170","name":"Wesel","type":"Kreis"},"federalState":{"key":"05","name":"Nordrhein-Westfalen"}},{"name":"Am Hasenhügel","postalCode":"46499","locality":"Hamminkeln","municipality":{"key":"05170012","name":"Hamminkeln, Stadt","type":"Stadt"},"district":{"key":"05170","name":"Wesel","type":"Kreis"},"federalState":{"key":"05","name":"Nordrhein-Westfalen"}},{"name":"Am Honigacker","postalCode":"46499","locality":"Hamminkeln","municipality":{"key":"05170012","name":"Hamminkeln, Stadt","type":"Stadt"},"district":{"key":"05170","name":"Wesel","type":"Kreis"},"federalState":{"key":"05","name":"Nordrhein-Westfalen"}},{"name":"Am Hövel","postalCode":"46499","locality":"Hamminkeln","municipality":{"key":"05170012","name":"Hamminkeln, Stadt","type":"Stadt"},"district":{"key":"05170","name":"Wesel","type":"Kreis"},"federalState":{"key":"05","name":"Nordrhein-Westfalen"}},{"name":"Am Kappertsberg","postalCode":"46499","locality":"Hamminkeln","municipality":{"key":"05170012","name":"Hamminkeln, Stadt","type":"Stadt"},"district":{"key":"05170","name":"Wesel","type":"Kreis"},"federalState":{"key":"05","name":"Nordrhein-Westfalen"}},{"name":"Am Kirchplatz","postalCode":"46499","locality":"Hamminkeln","municipality":{"key":"05170012","name":"Hamminkeln, Stadt","type":"Stadt"},"district":{"key":"05170","name":"Wesel","type":"Kreis"},"federalState":{"key":"05","name":"Nordrhein-Westfalen"}},{"name":"Am Klausenhof","postalCode":"46499","locality":"Hamminkeln","municipality":{"key":"05170012","name":"Hamminkeln, Stadt","type":"Stadt"},"district":{"key":"05170","name":"Wesel","type":"Kreis"},"federalState":{"key":"05","name":"Nordrhein-Westfalen"}},{"name":"Am Kleeacker","postalCode":"46499","locality":"Hamminkeln","municipality":{"key":"05170012","name":"Hamminkeln, Stadt","type":"Stadt"},"district":{"key":"05170","name":"Wesel","type":"Kreis"},"federalState":{"key":"05","name":"Nordrhein-Westfalen"}},{"name":"Am Kolk","postalCode":"46499","locality":"Hamminkeln","municipality":{"key":"05170012","name":"Hamminkeln, Stadt","type":"Stadt"},"district":{"key":"05170","name":"Wesel","type":"Kreis"},"federalState":{"key":"05","name":"Nordrhein-Westfalen"}},{"name":"Am Königsbach","postalCode":"46499","locality":"Hamminkeln","municipality":{"key":"05170012","name":"Hamminkeln, Stadt","type":"Stadt"},"district":{"key":"05170","name":"Wesel","type":"Kreis"},"federalState":{"key":"05","name":"Nordrhein-Westfalen"}},{"name":"Am Koppelgarten","postalCode":"46499","locality":"Hamminkeln","municipality":{"key":"05170012","name":"Hamminkeln, Stadt","type":"Stadt"},"district":{"key":"05170","name":"Wesel","type":"Kreis"},"federalState":{"key":"05","name":"Nordrhein-Westfalen"}},{"name":"Am Kreuzweg","postalCode":"46499","locality":"Hamminkeln","municipality":{"key":"05170012","name":"Hamminkeln, Stadt","type":"Stadt"},"district":{"key":"05170","name":"Wesel","type":"Kreis"},"federalState":{"key":"05","name":"Nordrhein-Westfalen"}},{"name":"Am Küning","postalCode":"46499","locality":"Hamminkeln","municipality":{"key":"05170012","name":"Hamminkeln, Stadt","type":"Stadt"},"district":{"key":"05170","name":"Wesel","type":"Kreis"},"federalState":{"key":"05","name":"Nordrhein-Westfalen"}},{"name":"Am Mühlenteich","postalCode":"46499","locality":"Hamminkeln","municipality":{"key":"05170012","name":"Hamminkeln, Stadt","type":"Stadt"},"district":{"key":"05170","name":"Wesel","type":"Kreis"},"federalState":{"key":"05","name":"Nordrhein-Westfalen"}},{"name":"Am Pastorsberg","postalCode":"46499","locality":"Hamminkeln","municipality":{"key":"05170012","name":"Hamminkeln, Stadt","type":"Stadt"},"district":{"key":"05170","name":"Wesel","type":"Kreis"},"federalState":{"key":"05","name":"Nordrhein-Westfalen"}},{"name":"Am Reitplatz","postalCode":"46499","locality":"Hamminkeln","municipality":{"key":"05170012","name":"Hamminkeln, Stadt","type":"Stadt"},"district":{"key":"05170","name":"Wesel","type":"Kreis"},"federalState":{"key":"05","name":"Nordrhein-Westfalen"}},{"name":"Am Rott","postalCode":"46499","locality":"Hamminkeln","municipality":{"key":"05170012","name":"Hamminkeln, Stadt","type":"Stadt"},"district":{"key":"05170","name":"Wesel","type":"Kreis"},"federalState":{"key":"05","name":"Nordrhein-Westfalen"}},{"name":"Am Schienenberg","postalCode":"46499","locality":"Hamminkeln","municipality":{"key":"05170012","name":"Hamminkeln, Stadt","type":"Stadt"},"district":{"key":"05170","name":"Wesel","type":"Kreis"},"federalState":{"key":"05","name":"Nordrhein-Westfalen"}},{"name":"Amselstr.","postalCode":"46499","locality":"Hamminkeln","municipality":{"key":"05170012","name":"Hamminkeln, Stadt","type":"Stadt"},"district":{"key":"05170","name":"Wesel","type":"Kreis"},"federalState":{"key":"05","name":"Nordrhein-Westfalen"}},{"name":"Am Spiegelkamp","postalCode":"46499","locality":"Hamminkeln","municipality":{"key":"05170012","name":"Hamminkeln, Stadt","type":"Stadt"},"district":{"key":"05170","name":"Wesel","type":"Kreis"},"federalState":{"key":"05","name":"Nordrhein-Westfalen"}},{"name":"Am Sportplatz","postalCode":"46499","locality":"Hamminkeln","municipality":{"key":"05170012","name":"Hamminkeln, Stadt","type":"Stadt"},"district":{"key":"05170","name":"Wesel","type":"Kreis"},"federalState":{"key":"05","name":"Nordrhein-Westfalen"}},{"name":"Am Teich","postalCode":"46499","locality":"Hamminkeln","municipality":{"key":"05170012","name":"Hamminkeln, Stadt","type":"Stadt"},"district":{"key":"05170","name":"Wesel","type":"Kreis"},"federalState":{"key":"05","name":"Nordrhein-Westfalen"}},{"name":"Am Wedem Hoven","postalCode":"46499","locality":"Hamminkeln","municipality":{"key":"05170012","name":"Hamminkeln, Stadt","type":"Stadt"},"district":{"key":"05170","name":"Wesel","type":"Kreis"},"federalState":{"key":"05","name":"Nordrhein-Westfalen"}},{"name":"Am Wegehaspel","postalCode":"46499","locality":"Hamminkeln","municipality":{"key":"05170012","name":"Hamminkeln, Stadt","type":"Stadt"},"district":{"key":"05170","name":"Wesel","type":"Kreis"},"federalState":{"key":"05","name":"Nordrhein-Westfalen"}},{"name":"An de Beek","postalCode":"46499","locality":"Hamminkeln","municipality":{"key":"05170012","name":"Hamminkeln, Stadt","type":"Stadt"},"district":{"key":"05170","name":"Wesel","type":"Kreis"},"federalState":{"key":"05","name":"Nordrhein-Westfalen"}},{"name":"An der alten Molkerei","postalCode":"46499","locality":"Hamminkeln","municipality":{"key":"05170012","name":"Hamminkeln, Stadt","type":"Stadt"},"district":{"key":"05170","name":"Wesel","type":"Kreis"},"federalState":{"key":"05","name":"Nordrhein-Westfalen"}},{"name":"An der Feuerwehr","postalCode":"46499","locality":"Hamminkeln","municipality":{"key":"05170012","name":"Hamminkeln, Stadt","type":"Stadt"},"district":{"key":"05170","name":"Wesel","type":"Kreis"},"federalState":{"key":"05","name":"Nordrhein-Westfalen"}},{"name":"An der Flande","postalCode":"46499","locality":"Hamminkeln","municipality":{"key":"05170012","name":"Hamminkeln, Stadt","type":"Stadt"},"district":{"key":"05170","name":"Wesel","type":"Kreis"},"federalState":{"key":"05","name":"Nordrhein-Westfalen"}},{"name":"An der Klosterkirche","postalCode":"46499","locality":"Hamminkeln","municipality":{"key":"05170012","name":"Hamminkeln, Stadt","type":"Stadt"},"district":{"key":"05170","name":"Wesel","type":"Kreis"},"federalState":{"key":"05","name":"Nordrhein-Westfalen"}},{"name":"Bachaue","postalCode":"46499","locality":"Hamminkeln","municipality":{"key":"05170012","name":"Hamminkeln, Stadt","type":"Stadt"},"district":{"key":"05170","name":"Wesel","type":"Kreis"},"federalState":{"key":"05","name":"Nordrhein-Westfalen"}},{"name":"Bachstr.","postalCode":"46499","locality":"Hamminkeln","municipality":{"key":"05170012","name":"Hamminkeln, Stadt","type":"Stadt"},"district":{"key":"05170","name":"Wesel","type":"Kreis"},"federalState":{"key":"05","name":"Nordrhein-Westfalen"}},{"name":"Bahnhofstr.","postalCode":"46499","locality":"Hamminkeln","municipality":{"key":"05170012","name":"Hamminkeln, Stadt","type":"Stadt"},"district":{"key":"05170","name":"Wesel","type":"Kreis"},"federalState":{"key":"05","name":"Nordrhein-Westfalen"}},{"name":"Belenhorst","postalCode":"46499","locality":"Hamminkeln","municipality":{"key":"05170012","name":"Hamminkeln, Stadt","type":"Stadt"},"district":{"key":"05170","name":"Wesel","type":"Kreis"},"federalState":{"key":"05","name":"Nordrhein-Westfalen"}},{"name":"Bergerfurther Str.","postalCode":"46499","locality":"Hamminkeln","municipality":{"key":"05170012","name":"Hamminkeln, Stadt","type":"Stadt"},"district":{"key":"05170","name":"Wesel","type":"Kreis"},"federalState":{"key":"05","name":"Nordrhein-Westfalen"}},{"name":"Bergfrede","postalCode":"46499","locality":"Hamminkeln","municipality":{"key":"05170012","name":"Hamminkeln, Stadt","type":"Stadt"},"district":{"key":"05170","name":"Wesel","type":"Kreis"},"federalState":{"key":"05","name":"Nordrhein-Westfalen"}},{"name":"Bergstr.","postalCode":"46499","locality":"Hamminkeln","municipality":{"key":"05170012","name":"Hamminkeln, Stadt","type":"Stadt"},"district":{"key":"05170","name":"Wesel","type":"Kreis"},"federalState":{"key":"05","name":"Nordrhein-Westfalen"}},{"name":"Berkenhegge","postalCode":"46499","locality":"Hamminkeln","municipality":{"key":"05170012","name":"Hamminkeln, Stadt","type":"Stadt"},"district":{"key":"05170","name":"Wesel","type":"Kreis"},"federalState":{"key":"05","name":"Nordrhein-Westfalen"}},{"name":"Berliner Str.","postalCode":"46499","locality":"Hamminkeln","municipality":{"key":"05170012","name":"Hamminkeln, Stadt","type":"Stadt"},"district":{"key":"05170","name":"Wesel","type":"Kreis"},"federalState":{"key":"05","name":"Nordrhein-Westfalen"}},{"name":"Binnenfeld","postalCode":"46499","locality":"Hamminkeln","municipality":{"key":"05170012","name":"Hamminkeln, Stadt","type":"Stadt"},"district":{"key":"05170","name":"Wesel","type":"Kreis"},"federalState":{"key":"05","name":"Nordrhein-Westfalen"}},{"name":"Birkenweg","postalCode":"46499","locality":"Hamminkeln","municipality":{"key":"05170012","name":"Hamminkeln, Stadt","type":"Stadt"},"district":{"key":"05170","name":"Wesel","type":"Kreis"},"federalState":{"key":"05","name":"Nordrhein-Westfalen"}},{"name":"Bislicher Str.","postalCode":"46499","locality":"Hamminkeln","municipality":{"key":"05170012","name":"Hamminkeln, Stadt","type":"Stadt"},"district":{"key":"05170","name":"Wesel","type":"Kreis"},"federalState":{"key":"05","name":"Nordrhein-Westfalen"}},{"name":"Blumenkamper Str.","postalCode":"46499","locality":"Hamminkeln","municipality":{"key":"05170012","name":"Hamminkeln, Stadt","type":"Stadt"},"district":{"key":"05170","name":"Wesel","type":"Kreis"},"federalState":{"key":"05","name":"Nordrhein-Westfalen"}},{"name":"Blumenstr.","postalCode":"46499","locality":"Hamminkeln","municipality":{"key":"05170012","name":"Hamminkeln, Stadt","type":"Stadt"},"district":{"key":"05170","name":"Wesel","type":"Kreis"},"federalState":{"key":"05","name":"Nordrhein-Westfalen"}},{"name":"Bocholter Str.","postalCode":"46499","locality":"Hamminkeln","municipality":{"key":"05170012","name":"Hamminkeln, Stadt","type":"Stadt"},"district":{"key":"05170","name":"Wesel","type":"Kreis"},"federalState":{"key":"05","name":"Nordrhein-Westfalen"}},{"name":"Bögerskamp","postalCode":"46499","locality":"Hamminkeln","municipality":{"key":"05170012","name":"Hamminkeln, Stadt","type":"Stadt"},"district":{"key":"05170","name":"Wesel","type":"Kreis"},"federalState":{"key":"05","name":"Nordrhein-Westfalen"}},{"name":"Bonhoefferstr.","postalCode":"46499","locality":"Hamminkeln","municipality":{"key":"05170012","name":"Hamminkeln, Stadt","type":"Stadt"},"district":{"key":"05170","name":"Wesel","type":"Kreis"},"federalState":{"key":"05","name":"Nordrhein-Westfalen"}},{"name":"Borggraf","postalCode":"46499","locality":"Hamminkeln","municipality":{"key":"05170012","name":"Hamminkeln, Stadt","type":"Stadt"},"district":{"key":"05170","name":"Wesel","type":"Kreis"},"federalState":{"key":"05","name":"Nordrhein-Westfalen"}},{"name":"Borkener Str.","postalCode":"46499","locality":"Hamminkeln","municipality":{"key":"05170012","name":"Hamminkeln, Stadt","type":"Stadt"},"district":{"key":"05170","name":"Wesel","type":"Kreis"},"federalState":{"key":"05","name":"Nordrhein-Westfalen"}},{"name":"Bransberg","postalCode":"46499","locality":"Hamminkeln","municipality":{"key":"05170012","name":"Hamminkeln, Stadt","type":"Stadt"},"district":{"key":"05170","name":"Wesel","type":"Kreis"},"federalState":{"key":"05","name":"Nordrhein-Westfalen"}},{"name":"Brauereistr.","postalCode":"46499","locality":"Hamminkeln","municipality":{"key":"05170012","name":"Hamminkeln, Stadt","type":"Stadt"},"district":{"key":"05170","name":"Wesel","type":"Kreis"},"federalState":{"key":"05","name":"Nordrhein-Westfalen"}},{"name":"Breslauer Str.","postalCode":"46499","locality":"Hamminkeln","municipality":{"key":"05170012","name":"Hamminkeln, Stadt","type":"Stadt"},"district":{"key":"05170","name":"Wesel","type":"Kreis"},"federalState":{"key":"05","name":"Nordrhein-Westfalen"}},{"name":"Brömmlingshof","postalCode":"46499","locality":"Hamminkeln","municipality":{"key":"05170012","name":"Hamminkeln, Stadt","type":"Stadt"},"district":{"key":"05170","name":"Wesel","type":"Kreis"},"federalState":{"key":"05","name":"Nordrhein-Westfalen"}},{"name":"Brüner Str.","postalCode":"46499","locality":"Hamminkeln","municipality":{"key":"05170012","name":"Hamminkeln, Stadt","type":"Stadt"},"district":{"key":"05170","name":"Wesel","type":"Kreis"},"federalState":{"key":"05","name":"Nordrhein-Westfalen"}},{"name":"Bucheneck","postalCode":"46499","locality":"Hamminkeln","municipality":{"key":"05170012","name":"Hamminkeln, Stadt","type":"Stadt"},"district":{"key":"05170","name":"Wesel","type":"Kreis"},"federalState":{"key":"05","name":"Nordrhein-Westfalen"}},{"name":"Buchenweg","postalCode":"46499","locality":"Hamminkeln","municipality":{"key":"05170012","name":"Hamminkeln, Stadt","type":"Stadt"},"district":{"key":"05170","name":"Wesel","type":"Kreis"},"federalState":{"key":"05","name":"Nordrhein-Westfalen"}},{"name":"Buchholtweg","postalCode":"46499","locality":"Hamminkeln","municipality":{"key":"05170012","name":"Hamminkeln, Stadt","type":"Stadt"},"district":{"key":"05170","name":"Wesel","type":"Kreis"},"federalState":{"key":"05","name":"Nordrhein-Westfalen"}},{"name":"Buschfeld","postalCode":"46499","locality":"Hamminkeln","municipality":{"key":"05170012","name":"Hamminkeln, Stadt","type":"Stadt"},"district":{"key":"05170","name":"Wesel","type":"Kreis"},"federalState":{"key":"05","name":"Nordrhein-Westfalen"}},{"name":"Buschmannsweg","postalCode":"46499","locality":"Hamminkeln","municipality":{"key":"05170012","name":"Hamminkeln, Stadt","type":"Stadt"},"district":{"key":"05170","name":"Wesel","type":"Kreis"},"federalState":{"key":"05","name":"Nordrhein-Westfalen"}},{"name":"Carl-Goerdeler-Str.","postalCode":"46485","locality":"Wesel","municipality":{"key":"05170048","name":"Wesel, Stadt","type":"Stadt"},"district":{"key":"05170","name":"Wesel","type":"Kreis"},"federalState":{"key":"05","name":"Nordrhein-Westfalen"}},{"name":"Caspar-Baur-Str.","postalCode":"46483","locality":"Wesel","municipality":{"key":"05170048","name":"Wesel, Stadt","type":"Stadt"},"district":{"key":"05170","name":"Wesel","type":"Kreis"},"federalState":{"key":"05","name":"Nordrhein-Westfalen"}},{"name":"Chablis-Str.","postalCode":"55430","locality":"Oberwesel","municipality":{"key":"07140112","name":"Oberwesel, Stadt","type":"Stadt"},"district":{"key":"07140","name":"Rhein-Hunsrück-Kreis","type":"Landkreis"},"federalState":{"key":"07","name":"Rheinland-Pfalz"}},{"name":"Clarenbachstr.","postalCode":"46485","locality":"Wesel","municipality":{"key":"05170048","name":"Wesel, Stadt","type":"Stadt"},"district":{"key":"05170","name":"Wesel","type":"Kreis"},"federalState":{"key":"05","name":"Nordrhein-Westfalen"}},{"name":"Dahlienweg","postalCode":"46499","locality":"Hamminkeln","municipality":{"key":"05170012","name":"Hamminkeln, Stadt","type":"Stadt"},"district":{"key":"05170","name":"Wesel","type":"Kreis"},"federalState":{"key":"05","name":"Nordrhein-Westfalen"}},{"name":"Danziger Str.","postalCode":"46499","locality":"Hamminkeln","municipality":{"key":"05170012","name":"Hamminkeln, Stadt","type":"Stadt"},"district":{"key":"05170","name":"Wesel","type":"Kreis"},"federalState":{"key":"05","name":"Nordrhein-Westfalen"}},{"name":"Daßhorst","postalCode":"46499","locality":"Hamminkeln","municipality":{"key":"05170012","name":"Hamminkeln, Stadt","type":"Stadt"},"district":{"key":"05170","name":"Wesel","type":"Kreis"},"federalState":{"key":"05","name":"Nordrhein-Westfalen"}},{"name":"Deckersweg","postalCode":"46499","locality":"Hamminkeln","municipality":{"key":"05170012","name":"Hamminkeln, Stadt","type":"Stadt"},"district":{"key":"05170","name":"Wesel","type":"Kreis"},"federalState":{"key":"05","name":"Nordrhein-Westfalen"}},{"name":"Deichweg","postalCode":"46499","locality":"Hamminkeln","municipality":{"key":"05170012","name":"Hamminkeln, Stadt","type":"Stadt"},"district":{"key":"05170","name":"Wesel","type":"Kreis"},"federalState":{"key":"05","name":"Nordrhein-Westfalen"}},{"name":"Depotstr.","postalCode":"46499","locality":"Hamminkeln","municipality":{"key":"05170012","name":"Hamminkeln, Stadt","type":"Stadt"},"district":{"key":"05170","name":"Wesel","type":"Kreis"},"federalState":{"key":"05","name":"Nordrhein-Westfalen"}},{"name":"Diersfordter Str.","postalCode":"46499","locality":"Hamminkeln","municipality":{"key":"05170012","name":"Hamminkeln, Stadt","type":"Stadt"},"district":{"key":"05170","name":"Wesel","type":"Kreis"},"federalState":{"key":"05","name":"Nordrhein-Westfalen"}},{"name":"Dingdener Str.","postalCode":"46499","locality":"Hamminkeln","municipality":{"key":"05170012","name":"Hamminkeln, Stadt","type":"Stadt"},"district":{"key":"05170","name":"Wesel","type":"Kreis"},"federalState":{"key":"05","name":"Nordrhein-Westfalen"}},{"name":"Dohlenstr.","postalCode":"46499","locality":"Hamminkeln","municipality":{"key":"05170012","name":"Hamminkeln, Stadt","type":"Stadt"},"district":{"key":"05170","name":"Wesel","type":"Kreis"},"federalState":{"key":"05","name":"Nordrhein-Westfalen"}},{"name":"Dorfbruch","postalCode":"46499","locality":"Hamminkeln","municipality":{"key":"05170012","name":"Hamminkeln, Stadt","type":"Stadt"},"district":{"key":"05170","name":"Wesel","type":"Kreis"},"federalState":{"key":"05","name":"Nordrhein-Westfalen"}},{"name":"Drei Steine","postalCode":"46499","locality":"Hamminkeln","municipality":{"key":"05170012","name":"Hamminkeln, Stadt","type":"Stadt"},"district":{"key":"05170","name":"Wesel","type":"Kreis"},"federalState":{"key":"05","name":"Nordrhein-Westfalen"}},{"name":"Drosselweg","postalCode":"46499","locality":"Hamminkeln","municipality":{"key":"05170012","name":"Hamminkeln, Stadt","type":"Stadt"},"district":{"key":"05170","name":"Wesel","type":"Kreis"},"federalState":{"key":"05","name":"Nordrhein-Westfalen"}},{"name":"Drostenhorst","postalCode":"46499","locality":"Hamminkeln","municipality":{"key":"05170012","name":"Hamminkeln, Stadt","type":"Stadt"},"district":{"key":"05170","name":"Wesel","type":"Kreis"},"federalState":{"key":"05","name":"Nordrhein-Westfalen"}},{"name":"Duisburger Str.","postalCode":"46499","locality":"Hamminkeln","municipality":{"key":"05170012","name":"Hamminkeln, Stadt","type":"Stadt"},"district":{"key":"05170","name":"Wesel","type":"Kreis"},"federalState":{"key":"05","name":"Nordrhein-Westfalen"}},{"name":"Eichenstr.","postalCode":"46499","locality":"Hamminkeln","municipality":{"key":"05170012","name":"Hamminkeln, Stadt","type":"Stadt"},"district":{"key":"05170","name":"Wesel","type":"Kreis"},"federalState":{"key":"05","name":"Nordrhein-Westfalen"}},{"name":"Elbestr.","postalCode":"46499","locality":"Hamminkeln","municipality":{"key":"05170012","name":"Hamminkeln, Stadt","type":"Stadt"},"district":{"key":"05170","name":"Wesel","type":"Kreis"},"federalState":{"key":"05","name":"Nordrhein-Westfalen"}},{"name":"Elbinger Str.","postalCode":"46499","locality":"Hamminkeln","municipality":{"key":"05170012","name":"Hamminkeln, Stadt","type":"Stadt"},"district":{"key":"05170","name":"Wesel","type":"Kreis"},"federalState":{"key":"05","name":"Nordrhein-Westfalen"}},{"name":"Ellenweg","postalCode":"46499","locality":"Hamminkeln","municipality":{"key":"05170012","name":"Hamminkeln, Stadt","type":"Stadt"},"district":{"key":"05170","name":"Wesel","type":"Kreis"},"federalState":{"key":"05","name":"Nordrhein-Westfalen"}},{"name":"Elleringdeich","postalCode":"46499","locality":"Hamminkeln","municipality":{"key":"05170012","name":"Hamminkeln, Stadt","type":"Stadt"},"district":{"key":"05170","name":"Wesel","type":"Kreis"},"federalState":{"key":"05","name":"Nordrhein-Westfalen"}},{"name":"Elsholtweg","postalCode":"46499","locality":"Hamminkeln","municipality":{"key":"05170012","name":"Hamminkeln, Stadt","type":"Stadt"},"district":{"key":"05170","name":"Wesel","type":"Kreis"},"federalState":{"key":"05","name":"Nordrhein-Westfalen"}},{"name":"Erlenhorst","postalCode":"46499","locality":"Hamminkeln","municipality":{"key":"05170012","name":"Hamminkeln, Stadt","type":"Stadt"},"district":{"key":"05170","name":"Wesel","type":"Kreis"},"federalState":{"key":"05","name":"Nordrhein-Westfalen"}},{"name":"Erlenweg","postalCode":"46499","locality":"Hamminkeln","municipality":{"key":"05170012","name":"Hamminkeln, Stadt","type":"Stadt"},"district":{"key":"05170","name":"Wesel","type":"Kreis"},"federalState":{"key":"05","name":"Nordrhein-Westfalen"}},{"name":"Erna-Schmidthals-Weg","postalCode":"46499","locality":"Hamminkeln","municipality":{"key":"05170012","name":"Hamminkeln, Stadt","type":"Stadt"},"district":{"key":"05170","name":"Wesel","type":"Kreis"},"federalState":{"key":"05","name":"Nordrhein-Westfalen"}},{"name":"Eulenweg","postalCode":"46499","locality":"Hamminkeln","municipality":{"key":"05170012","name":"Hamminkeln, Stadt","type":"Stadt"},"district":{"key":"05170","name":"Wesel","type":"Kreis"},"federalState":{"key":"05","name":"Nordrhein-Westfalen"}},{"name":"Everskamp","postalCode":"46499","locality":"Hamminkeln","municipality":{"key":"05170012","name":"Hamminkeln, Stadt","type":"Stadt"},"district":{"key":"05170","name":"Wesel","type":"Kreis"},"federalState":{"key":"05","name":"Nordrhein-Westfalen"}},{"name":"Feldblumenstr.","postalCode":"46499","locality":"Hamminkeln","municipality":{"key":"05170012","name":"Hamminkeln, Stadt","type":"Stadt"},"district":{"key":"05170","name":"Wesel","type":"Kreis"},"federalState":{"key":"05","name":"Nordrhein-Westfalen"}},{"name":"Feldstr.","postalCode":"46499","locality":"Hamminkeln","municipality":{"key":"05170012","name":"Hamminkeln, Stadt","type":"Stadt"},"district":{"key":"05170","name":"Wesel","type":"Kreis"},"federalState":{"key":"05","name":"Nordrhein-Westfalen"}},{"name":"Ferdinandstr.","postalCode":"46499","locality":"Hamminkeln","municipality":{"key":"05170012","name":"Hamminkeln, Stadt","type":"Stadt"},"district":{"key":"05170","name":"Wesel","type":"Kreis"},"federalState":{"key":"05","name":"Nordrhein-Westfalen"}},{"name":"Feuerdornweg","postalCode":"46499","locality":"Hamminkeln","municipality":{"key":"05170012","name":"Hamminkeln, Stadt","type":"Stadt"},"district":{"key":"05170","name":"Wesel","type":"Kreis"},"federalState":{"key":"05","name":"Nordrhein-Westfalen"}},{"name":"Fichtenweg","postalCode":"46499","locality":"Hamminkeln","municipality":{"key":"05170012","name":"Hamminkeln, Stadt","type":"Stadt"},"district":{"key":"05170","name":"Wesel","type":"Kreis"},"federalState":{"key":"05","name":"Nordrhein-Westfalen"}},{"name":"Finkenweg","postalCode":"46499","locality":"Hamminkeln","municipality":{"key":"05170012","name":"Hamminkeln, Stadt","type":"Stadt"},"district":{"key":"05170","name":"Wesel","type":"Kreis"},"federalState":{"key":"05","name":"Nordrhein-Westfalen"}},{"name":"Fliederweg","postalCode":"46499","locality":"Hamminkeln","municipality":{"key":"05170012","name":"Hamminkeln, Stadt","type":"Stadt"},"district":{"key":"05170","name":"Wesel","type":"Kreis"},"federalState":{"key":"05","name":"Nordrhein-Westfalen"}},{"name":"Flurstr.","postalCode":"46499","locality":"Hamminkeln","municipality":{"key":"05170012","name":"Hamminkeln, Stadt","type":"Stadt"},"district":{"key":"05170","name":"Wesel","type":"Kreis"},"federalState":{"key":"05","name":"Nordrhein-Westfalen"}},{"name":"Frankenstr.","postalCode":"46499","locality":"Hamminkeln","municipality":{"key":"05170012","name":"Hamminkeln, Stadt","type":"Stadt"},"district":{"key":"05170","name":"Wesel","type":"Kreis"},"federalState":{"key":"05","name":"Nordrhein-Westfalen"}},{"name":"Freyhaushof","postalCode":"46499","locality":"Hamminkeln","municipality":{"key":"05170012","name":"Hamminkeln, Stadt","type":"Stadt"},"district":{"key":"05170","name":"Wesel","type":"Kreis"},"federalState":{"key":"05","name":"Nordrhein-Westfalen"}},{"name":"Friedhofstr.","postalCode":"46499","locality":"Hamminkeln","municipality":{"key":"05170012","name":"Hamminkeln, Stadt","type":"Stadt"},"district":{"key":"05170","name":"Wesel","type":"Kreis"},"federalState":{"key":"05","name":"Nordrhein-Westfalen"}},{"name":"Frietenweg","postalCode":"46499","locality":"Hamminkeln","municipality":{"key":"05170012","name":"Hamminkeln, Stadt","type":"Stadt"},"district":{"key":"05170","name":"Wesel","type":"Kreis"},"federalState":{"key":"05","name":"Nordrhein-Westfalen"}},{"name":"Fuderweg","postalCode":"46499","locality":"Hamminkeln","municipality":{"key":"05170012","name":"Hamminkeln, Stadt","type":"Stadt"},"district":{"key":"05170","name":"Wesel","type":"Kreis"},"federalState":{"key":"05","name":"Nordrhein-Westfalen"}},{"name":"Gartenstr.","postalCode":"46499","locality":"Hamminkeln","municipality":{"key":"05170012","name":"Hamminkeln, Stadt","type":"Stadt"},"district":{"key":"05170","name":"Wesel","type":"Kreis"},"federalState":{"key":"05","name":"Nordrhein-Westfalen"}},{"name":"Gerwersweg","postalCode":"46499","locality":"Hamminkeln","municipality":{"key":"05170012","name":"Hamminkeln, Stadt","type":"Stadt"},"district":{"key":"05170","name":"Wesel","type":"Kreis"},"federalState":{"key":"05","name":"Nordrhein-Westfalen"}},{"name":"Ginsterweg","postalCode":"46499","locality":"Hamminkeln","municipality":{"key":"05170012","name":"Hamminkeln, Stadt","type":"Stadt"},"district":{"key":"05170","name":"Wesel","type":"Kreis"},"federalState":{"key":"05","name":"Nordrhein-Westfalen"}},{"name":"Goethestr.","postalCode":"46499","locality":"Hamminkeln","municipality":{"key":"05170012","name":"Hamminkeln, Stadt","type":"Stadt"},"district":{"key":"05170","name":"Wesel","type":"Kreis"},"federalState":{"key":"05","name":"Nordrhein-Westfalen"}},{"name":"Grabenstr.","postalCode":"46499","locality":"Hamminkeln","municipality":{"key":"05170012","name":"Hamminkeln, Stadt","type":"Stadt"},"district":{"key":"05170","name":"Wesel","type":"Kreis"},"federalState":{"key":"05","name":"Nordrhein-Westfalen"}},{"name":"Graf-von-Hardenberg-Str.","postalCode":"46499","locality":"Hamminkeln","municipality":{"key":"05170012","name":"Hamminkeln, Stadt","type":"Stadt"},"district":{"key":"05170","name":"Wesel","type":"Kreis"},"federalState":{"key":"05","name":"Nordrhein-Westfalen"}},{"name":"Grenzweg","postalCode":"46499","locality":"Hamminkeln","municipality":{"key":"05170012","name":"Hamminkeln, Stadt","type":"Stadt"},"district":{"key":"05170","name":"Wesel","type":"Kreis"},"federalState":{"key":"05","name":"Nordrhein-Westfalen"}},{"name":"Gustav-Schippers-Weg","postalCode":"46499","locality":"Hamminkeln","municipality":{"key":"05170012","name":"Hamminkeln, Stadt","type":"Stadt"},"district":{"key":"05170","name":"Wesel","type":"Kreis"},"federalState":{"key":"05","name":"Nordrhein-Westfalen"}},{"name":"Güterstr.","postalCode":"46499","locality":"Hamminkeln","municipality":{"key":"05170012","name":"Hamminkeln, Stadt","type":"Stadt"},"district":{"key":"05170","name":"Wesel","type":"Kreis"},"federalState":{"key":"05","name":"Nordrhein-Westfalen"}},{"name":"Haferkamp","postalCode":"46499","locality":"Hamminkeln","municipality":{"key":"05170012","name":"Hamminkeln, Stadt","type":"Stadt"},"district":{"key":"05170","name":"Wesel","type":"Kreis"},"federalState":{"key":"05","name":"Nordrhein-Westfalen"}},{"name":"Hagelweg","postalCode":"46499","locality":"Hamminkeln","municipality":{"key":"05170012","name":"Hamminkeln, Stadt","type":"Stadt"},"district":{"key":"05170","name":"Wesel","type":"Kreis"},"federalState":{"key":"05","name":"Nordrhein-Westfalen"}},{"name":"Halderner Str.","postalCode":"46499","locality":"Hamminkeln","municipality":{"key":"05170012","name":"Hamminkeln, Stadt","type":"Stadt"},"district":{"key":"05170","name":"Wesel","type":"Kreis"},"federalState":{"key":"05","name":"Nordrhein-Westfalen"}},{"name":"Halfmannsfeld","postalCode":"46499","locality":"Hamminkeln","municipality":{"key":"05170012","name":"Hamminkeln, Stadt","type":"Stadt"},"district":{"key":"05170","name":"Wesel","type":"Kreis"},"federalState":{"key":"05","name":"Nordrhein-Westfalen"}},{"name":"Hamminkelner Str.","postalCode":"46499","locality":"Hamminkeln","municipality":{"key":"05170012","name":"Hamminkeln, Stadt","type":"Stadt"},"district":{"key":"05170","name":"Wesel","type":"Kreis"},"federalState":{"key":"05","name":"Nordrhein-Westfalen"}},{"name":"Handwerkerstr.","postalCode":"46499","locality":"Hamminkeln","municipality":{"key":"05170012","name":"Hamminkeln, Stadt","type":"Stadt"},"district":{"key":"05170","name":"Wesel","type":"Kreis"},"federalState":{"key":"05","name":"Nordrhein-Westfalen"}},{"name":"Harderwycker Weg","postalCode":"46499","locality":"Hamminkeln","municipality":{"key":"05170012","name":"Hamminkeln, Stadt","type":"Stadt"},"district":{"key":"05170","name":"Wesel","type":"Kreis"},"federalState":{"key":"05","name":"Nordrhein-Westfalen"}},{"name":"Hasseler Paß","postalCode":"46499","locality":"Hamminkeln","municipality":{"key":"05170012","name":"Hamminkeln, Stadt","type":"Stadt"},"district":{"key":"05170","name":"Wesel","type":"Kreis"},"federalState":{"key":"05","name":"Nordrhein-Westfalen"}},{"name":"Hasselmannsfeld","postalCode":"46499","locality":"Hamminkeln","municipality":{"key":"05170012","name":"Hamminkeln, Stadt","type":"Stadt"},"district":{"key":"05170","name":"Wesel","type":"Kreis"},"federalState":{"key":"05","name":"Nordrhein-Westfalen"}},{"name":"Hauptstr.","postalCode":"46499","locality":"Hamminkeln","municipality":{"key":"05170012","name":"Hamminkeln, Stadt","type":"Stadt"},"district":{"key":"05170","name":"Wesel","type":"Kreis"},"federalState":{"key":"05","name":"Nordrhein-Westfalen"}},{"name":"Hecheltjensweg","postalCode":"46499","locality":"Hamminkeln","municipality":{"key":"05170012","name":"Hamminkeln, Stadt","type":"Stadt"},"district":{"key":"05170","name":"Wesel","type":"Kreis"},"federalState":{"key":"05","name":"Nordrhein-Westfalen"}},{"name":"Heidkampweg","postalCode":"46499","locality":"Hamminkeln","municipality":{"key":"05170012","name":"Hamminkeln, Stadt","type":"Stadt"},"district":{"key":"05170","name":"Wesel","type":"Kreis"},"federalState":{"key":"05","name":"Nordrhein-Westfalen"}},{"name":"Heiligenbergweg","postalCode":"46499","locality":"Hamminkeln","municipality":{"key":"05170012","name":"Hamminkeln, Stadt","type":"Stadt"},"district":{"key":"05170","name":"Wesel","type":"Kreis"},"federalState":{"key":"05","name":"Nordrhein-Westfalen"}},{"name":"Heinrich-Heine-Str.","postalCode":"46499","locality":"Hamminkeln","municipality":{"key":"05170012","name":"Hamminkeln, Stadt","type":"Stadt"},"district":{"key":"05170","name":"Wesel","type":"Kreis"},"federalState":{"key":"05","name":"Nordrhein-Westfalen"}},{"name":"Heisterweg","postalCode":"46499","locality":"Hamminkeln","municipality":{"key":"05170012","name":"Hamminkeln, Stadt","type":"Stadt"},"district":{"key":"05170","name":"Wesel","type":"Kreis"},"federalState":{"key":"05","name":"Nordrhein-Westfalen"}},{"name":"Heistück","postalCode":"46499","locality":"Hamminkeln","municipality":{"key":"05170012","name":"Hamminkeln, Stadt","type":"Stadt"},"district":{"key":"05170","name":"Wesel","type":"Kreis"},"federalState":{"key":"05","name":"Nordrhein-Westfalen"}},{"name":"Hellefisch","postalCode":"46499","locality":"Hamminkeln","municipality":{"key":"05170012","name":"Hamminkeln, Stadt","type":"Stadt"},"district":{"key":"05170","name":"Wesel","type":"Kreis"},"federalState":{"key":"05","name":"Nordrhein-Westfalen"}},{"name":"Hellmannsweg","postalCode":"46499","locality":"Hamminkeln","municipality":{"key":"05170012","name":"Hamminkeln, Stadt","type":"Stadt"},"district":{"key":"05170","name":"Wesel","type":"Kreis"},"federalState":{"key":"05","name":"Nordrhein-Westfalen"}},{"name":"Hellweg","postalCode":"46499","locality":"Hamminkeln","municipality":{"key":"05170012","name":"Hamminkeln, Stadt","type":"Stadt"},"district":{"key":"05170","name":"Wesel","type":"Kreis"},"federalState":{"key":"05","name":"Nordrhein-Westfalen"}},{"name":"Heymannsweg","postalCode":"46499","locality":"Hamminkeln","municipality":{"key":"05170012","name":"Hamminkeln, Stadt","type":"Stadt"},"district":{"key":"05170","name":"Wesel","type":"Kreis"},"federalState":{"key":"05","name":"Nordrhein-Westfalen"}},{"name":"Hirschweide","postalCode":"46499","locality":"Hamminkeln","municipality":{"key":"05170012","name":"Hamminkeln, Stadt","type":"Stadt"},"district":{"key":"05170","name":"Wesel","type":"Kreis"},"federalState":{"key":"05","name":"Nordrhein-Westfalen"}},{"name":"Hirtenweg","postalCode":"46499","locality":"Hamminkeln","municipality":{"key":"05170012","name":"Hamminkeln, Stadt","type":"Stadt"},"district":{"key":"05170","name":"Wesel","type":"Kreis"},"federalState":{"key":"05","name":"Nordrhein-Westfalen"}},{"name":"Höhenweg","postalCode":"46499","locality":"Hamminkeln","municipality":{"key":"05170012","name":"Hamminkeln, Stadt","type":"Stadt"},"district":{"key":"05170","name":"Wesel","type":"Kreis"},"federalState":{"key":"05","name":"Nordrhein-Westfalen"}},{"name":"Hohe Str.","postalCode":"46499","locality":"Hamminkeln","municipality":{"key":"05170012","name":"Hamminkeln, Stadt","type":"Stadt"},"district":{"key":"05170","name":"Wesel","type":"Kreis"},"federalState":{"key":"05","name":"Nordrhein-Westfalen"}},{"name":"Hohlweg","postalCode":"46499","locality":"Hamminkeln","municipality":{"key":"05170012","name":"Hamminkeln, Stadt","type":"Stadt"},"district":{"key":"05170","name":"Wesel","type":"Kreis"},"federalState":{"key":"05","name":"Nordrhein-Westfalen"}},{"name":"Hoogefeldstr.","postalCode":"46499","locality":"Hamminkeln","municipality":{"key":"05170012","name":"Hamminkeln, Stadt","type":"Stadt"},"district":{"key":"05170","name":"Wesel","type":"Kreis"},"federalState":{"key":"05","name":"Nordrhein-Westfalen"}},{"name":"Hooge Heide","postalCode":"46499","locality":"Hamminkeln","municipality":{"key":"05170012","name":"Hamminkeln, Stadt","type":"Stadt"},"district":{"key":"05170","name":"Wesel","type":"Kreis"},"federalState":{"key":"05","name":"Nordrhein-Westfalen"}},{"name":"Horst","postalCode":"46499","locality":"Hamminkeln","municipality":{"key":"05170012","name":"Hamminkeln, Stadt","type":"Stadt"},"district":{"key":"05170","name":"Wesel","type":"Kreis"},"federalState":{"key":"05","name":"Nordrhein-Westfalen"}},{"name":"Hüttemannstr.","postalCode":"46499","locality":"Hamminkeln","municipality":{"key":"05170012","name":"Hamminkeln, Stadt","type":"Stadt"},"district":{"key":"05170","name":"Wesel","type":"Kreis"},"federalState":{"key":"05","name":"Nordrhein-Westfalen"}},{"name":"Im Bruch","postalCode":"46499","locality":"Hamminkeln","municipality":{"key":"05170012","name":"Hamminkeln, Stadt","type":"Stadt"},"district":{"key":"05170","name":"Wesel","type":"Kreis"},"federalState":{"key":"05","name":"Nordrhein-Westfalen"}},{"name":"Im Driesch","postalCode":"46499","locality":"Hamminkeln","municipality":{"key":"05170012","name":"Hamminkeln, Stadt","type":"Stadt"},"district":{"key":"05170","name":"Wesel","type":"Kreis"},"federalState":{"key":"05","name":"Nordrhein-Westfalen"}},{"name":"Imhoffweg","postalCode":"46499","locality":"Hamminkeln","municipality":{"key":"05170012","name":"Hamminkeln, Stadt","type":"Stadt"},"district":{"key":"05170","name":"Wesel","type":"Kreis"},"federalState":{"key":"05","name":"Nordrhein-Westfalen"}},{"name":"Im Hogenbusch","postalCode":"46499","locality":"Hamminkeln","municipality":{"key":"05170012","name":"Hamminkeln, Stadt","type":"Stadt"},"district":{"key":"05170","name":"Wesel","type":"Kreis"},"federalState":{"key":"05","name":"Nordrhein-Westfalen"}},{"name":"Im Huck","postalCode":"46499","locality":"Hamminkeln","municipality":{"key":"05170012","name":"Hamminkeln, Stadt","type":"Stadt"},"district":{"key":"05170","name":"Wesel","type":"Kreis"},"federalState":{"key":"05","name":"Nordrhein-Westfalen"}},{"name":"Im Isselgrund","postalCode":"46499","locality":"Hamminkeln","municipality":{"key":"05170012","name":"Hamminkeln, Stadt","type":"Stadt"},"district":{"key":"05170","name":"Wesel","type":"Kreis"},"federalState":{"key":"05","name":"Nordrhein-Westfalen"}},{"name":"Im Klee","postalCode":"46499","locality":"Hamminkeln","municipality":{"key":"05170012","name":"Hamminkeln, Stadt","type":"Stadt"},"district":{"key":"05170","name":"Wesel","type":"Kreis"},"federalState":{"key":"05","name":"Nordrhein-Westfalen"}},{"name":"Im Kuckuck","postalCode":"46499","locality":"Hamminkeln","municipality":{"key":"05170012","name":"Hamminkeln, Stadt","type":"Stadt"},"district":{"key":"05170","name":"Wesel","type":"Kreis"},"federalState":{"key":"05","name":"Nordrhein-Westfalen"}},{"name":"Im Mühlenbusch","postalCode":"46499","locality":"Hamminkeln","municipality":{"key":"05170012","name":"Hamminkeln, Stadt","type":"Stadt"},"district":{"key":"05170","name":"Wesel","type":"Kreis"},"federalState":{"key":"05","name":"Nordrhein-Westfalen"}},{"name":"Im Paß","postalCode":"46499","locality":"Hamminkeln","municipality":{"key":"05170012","name":"Hamminkeln, Stadt","type":"Stadt"},"district":{"key":"05170","name":"Wesel","type":"Kreis"},"federalState":{"key":"05","name":"Nordrhein-Westfalen"}},{"name":"Im Rehagen","postalCode":"46499","locality":"Hamminkeln","municipality":{"key":"05170012","name":"Hamminkeln, Stadt","type":"Stadt"},"district":{"key":"05170","name":"Wesel","type":"Kreis"},"federalState":{"key":"05","name":"Nordrhein-Westfalen"}},{"name":"Im Ried","postalCode":"46499","locality":"Hamminkeln","municipality":{"key":"05170012","name":"Hamminkeln, Stadt","type":"Stadt"},"district":{"key":"05170","name":"Wesel","type":"Kreis"},"federalState":{"key":"05","name":"Nordrhein-Westfalen"}},{"name":"Im Schönen Winkel","postalCode":"46499","locality":"Hamminkeln","municipality":{"key":"05170012","name":"Hamminkeln, Stadt","type":"Stadt"},"district":{"key":"05170","name":"Wesel","type":"Kreis"},"federalState":{"key":"05","name":"Nordrhein-Westfalen"}},{"name":"Im Sonnentau","postalCode":"46499","locality":"Hamminkeln","municipality":{"key":"05170012","name":"Hamminkeln, Stadt","type":"Stadt"},"district":{"key":"05170","name":"Wesel","type":"Kreis"},"federalState":{"key":"05","name":"Nordrhein-Westfalen"}},{"name":"In der Brinke","postalCode":"46499","locality":"Hamminkeln","municipality":{"key":"05170012","name":"Hamminkeln, Stadt","type":"Stadt"},"district":{"key":"05170","name":"Wesel","type":"Kreis"},"federalState":{"key":"05","name":"Nordrhein-Westfalen"}},{"name":"Industriestr.","postalCode":"46499","locality":"Hamminkeln","municipality":{"key":"05170012","name":"Hamminkeln, Stadt","type":"Stadt"},"district":{"key":"05170","name":"Wesel","type":"Kreis"},"federalState":{"key":"05","name":"Nordrhein-Westfalen"}},{"name":"Isselburger Str.","postalCode":"46499","locality":"Hamminkeln","municipality":{"key":"05170012","name":"Hamminkeln, Stadt","type":"Stadt"},"district":{"key":"05170","name":"Wesel","type":"Kreis"},"federalState":{"key":"05","name":"Nordrhein-Westfalen"}},{"name":"Isseldeich","postalCode":"46499","locality":"Hamminkeln","municipality":{"key":"05170012","name":"Hamminkeln, Stadt","type":"Stadt"},"district":{"key":"05170","name":"Wesel","type":"Kreis"},"federalState":{"key":"05","name":"Nordrhein-Westfalen"}},{"name":"Isselsiedlung","postalCode":"46499","locality":"Hamminkeln","municipality":{"key":"05170012","name":"Hamminkeln, Stadt","type":"Stadt"},"district":{"key":"05170","name":"Wesel","type":"Kreis"},"federalState":{"key":"05","name":"Nordrhein-Westfalen"}},{"name":"Isselstr.","postalCode":"46499","locality":"Hamminkeln","municipality":{"key":"05170012","name":"Hamminkeln, Stadt","type":"Stadt"},"district":{"key":"05170","name":"Wesel","type":"Kreis"},"federalState":{"key":"05","name":"Nordrhein-Westfalen"}},{"name":"Isseltalweg","postalCode":"46499","locality":"Hamminkeln","municipality":{"key":"05170012","name":"Hamminkeln, Stadt","type":"Stadt"},"district":{"key":"05170","name":"Wesel","type":"Kreis"},"federalState":{"key":"05","name":"Nordrhein-Westfalen"}},{"name":"Jägerstr.","postalCode":"46499","locality":"Hamminkeln","municipality":{"key":"05170012","name":"Hamminkeln, Stadt","type":"Stadt"},"district":{"key":"05170","name":"Wesel","type":"Kreis"},"federalState":{"key":"05","name":"Nordrhein-Westfalen"}},{"name":"Jahnstr.","postalCode":"46499","locality":"Hamminkeln","municipality":{"key":"05170012","name":"Hamminkeln, Stadt","type":"Stadt"},"district":{"key":"05170","name":"Wesel","type":"Kreis"},"federalState":{"key":"05","name":"Nordrhein-Westfalen"}},{"name":"Jonas-Elkan-Weg","postalCode":"46499","locality":"Hamminkeln","municipality":{"key":"05170012","name":"Hamminkeln, Stadt","type":"Stadt"},"district":{"key":"05170","name":"Wesel","type":"Kreis"},"federalState":{"key":"05","name":"Nordrhein-Westfalen"}},{"name":"Kalthofsfeld","postalCode":"46499","locality":"Hamminkeln","municipality":{"key":"05170012","name":"Hamminkeln, Stadt","type":"Stadt"},"district":{"key":"05170","name":"Wesel","type":"Kreis"},"federalState":{"key":"05","name":"Nordrhein-Westfalen"}},{"name":"Kampstr.","postalCode":"46499","locality":"Hamminkeln","municipality":{"key":"05170012","name":"Hamminkeln, Stadt","type":"Stadt"},"district":{"key":"05170","name":"Wesel","type":"Kreis"},"federalState":{"key":"05","name":"Nordrhein-Westfalen"}},{"name":"Kaninenkamp","postalCode":"46499","locality":"Hamminkeln","municipality":{"key":"05170012","name":"Hamminkeln, Stadt","type":"Stadt"},"district":{"key":"05170","name":"Wesel","type":"Kreis"},"federalState":{"key":"05","name":"Nordrhein-Westfalen"}},{"name":"Karlstr.","postalCode":"46499","locality":"Hamminkeln","municipality":{"key":"05170012","name":"Hamminkeln, Stadt","type":"Stadt"},"district":{"key":"05170","name":"Wesel","type":"Kreis"},"federalState":{"key":"05","name":"Nordrhein-Westfalen"}},{"name":"Karolingerstr.","postalCode":"46499","locality":"Hamminkeln","municipality":{"key":"05170012","name":"Hamminkeln, Stadt","type":"Stadt"},"district":{"key":"05170","name":"Wesel","type":"Kreis"},"federalState":{"key":"05","name":"Nordrhein-Westfalen"}},{"name":"Kerkenpatt","postalCode":"46499","locality":"Hamminkeln","municipality":{"key":"05170012","name":"Hamminkeln, Stadt","type":"Stadt"},"district":{"key":"05170","name":"Wesel","type":"Kreis"},"federalState":{"key":"05","name":"Nordrhein-Westfalen"}},{"name":"Kerschenkamp","postalCode":"46499","locality":"Hamminkeln","municipality":{"key":"05170012","name":"Hamminkeln, Stadt","type":"Stadt"},"district":{"key":"05170","name":"Wesel","type":"Kreis"},"federalState":{"key":"05","name":"Nordrhein-Westfalen"}},{"name":"Kesseldorfer Rott","postalCode":"46499","locality":"Hamminkeln","municipality":{"key":"05170012","name":"Hamminkeln, Stadt","type":"Stadt"},"district":{"key":"05170","name":"Wesel","type":"Kreis"},"federalState":{"key":"05","name":"Nordrhein-Westfalen"}},{"name":"Kettelerstr.","postalCode":"46499","locality":"Hamminkeln","municipality":{"key":"05170012","name":"Hamminkeln, Stadt","type":"Stadt"},"district":{"key":"05170","name":"Wesel","type":"Kreis"},"federalState":{"key":"05","name":"Nordrhein-Westfalen"}},{"name":"Kiefernweg","postalCode":"46499","locality":"Hamminkeln","municipality":{"key":"05170012","name":"Hamminkeln, Stadt","type":"Stadt"},"district":{"key":"05170","name":"Wesel","type":"Kreis"},"federalState":{"key":"05","name":"Nordrhein-Westfalen"}},{"name":"Kiepenkerlstr.","postalCode":"46499","locality":"Hamminkeln","municipality":{"key":"05170012","name":"Hamminkeln, Stadt","type":"Stadt"},"district":{"key":"05170","name":"Wesel","type":"Kreis"},"federalState":{"key":"05","name":"Nordrhein-Westfalen"}},{"name":"Kirchhofstr.","postalCode":"46499","locality":"Hamminkeln","municipality":{"key":"05170012","name":"Hamminkeln, Stadt","type":"Stadt"},"district":{"key":"05170","name":"Wesel","type":"Kreis"},"federalState":{"key":"05","name":"Nordrhein-Westfalen"}},{"name":"Kirchplatz","postalCode":"46499","locality":"Hamminkeln","municipality":{"key":"05170012","name":"Hamminkeln, Stadt","type":"Stadt"},"district":{"key":"05170","name":"Wesel","type":"Kreis"},"federalState":{"key":"05","name":"Nordrhein-Westfalen"}},{"name":"Kirchstr.","postalCode":"46499","locality":"Hamminkeln","municipality":{"key":"05170012","name":"Hamminkeln, Stadt","type":"Stadt"},"district":{"key":"05170","name":"Wesel","type":"Kreis"},"federalState":{"key":"05","name":"Nordrhein-Westfalen"}},{"name":"Kirchweg","postalCode":"46499","locality":"Hamminkeln","municipality":{"key":"05170012","name":"Hamminkeln, Stadt","type":"Stadt"},"district":{"key":"05170","name":"Wesel","type":"Kreis"},"federalState":{"key":"05","name":"Nordrhein-Westfalen"}},{"name":"Klafterweg","postalCode":"46499","locality":"Hamminkeln","municipality":{"key":"05170012","name":"Hamminkeln, Stadt","type":"Stadt"},"district":{"key":"05170","name":"Wesel","type":"Kreis"},"federalState":{"key":"05","name":"Nordrhein-Westfalen"}},{"name":"Klärweg","postalCode":"46499","locality":"Hamminkeln","municipality":{"key":"05170012","name":"Hamminkeln, Stadt","type":"Stadt"},"district":{"key":"05170","name":"Wesel","type":"Kreis"},"federalState":{"key":"05","name":"Nordrhein-Westfalen"}},{"name":"Klausenhofstr.","postalCode":"46499","locality":"Hamminkeln","municipality":{"key":"05170012","name":"Hamminkeln, Stadt","type":"Stadt"},"district":{"key":"05170","name":"Wesel","type":"Kreis"},"federalState":{"key":"05","name":"Nordrhein-Westfalen"}},{"name":"Klostermühle","postalCode":"46499","locality":"Hamminkeln","municipality":{"key":"05170012","name":"Hamminkeln, Stadt","type":"Stadt"},"district":{"key":"05170","name":"Wesel","type":"Kreis"},"federalState":{"key":"05","name":"Nordrhein-Westfalen"}},{"name":"Klosterweg","postalCode":"46499","locality":"Hamminkeln","municipality":{"key":"05170012","name":"Hamminkeln, Stadt","type":"Stadt"},"district":{"key":"05170","name":"Wesel","type":"Kreis"},"federalState":{"key":"05","name":"Nordrhein-Westfalen"}},{"name":"Kniebingweg","postalCode":"46499","locality":"Hamminkeln","municipality":{"key":"05170012","name":"Hamminkeln, Stadt","type":"Stadt"},"district":{"key":"05170","name":"Wesel","type":"Kreis"},"federalState":{"key":"05","name":"Nordrhein-Westfalen"}},{"name":"Koepenweg","postalCode":"46499","locality":"Hamminkeln","municipality":{"key":"05170012","name":"Hamminkeln, Stadt","type":"Stadt"},"district":{"key":"05170","name":"Wesel","type":"Kreis"},"federalState":{"key":"05","name":"Nordrhein-Westfalen"}},{"name":"Kolpingstr.","postalCode":"46499","locality":"Hamminkeln","municipality":{"key":"05170012","name":"Hamminkeln, Stadt","type":"Stadt"},"district":{"key":"05170","name":"Wesel","type":"Kreis"},"federalState":{"key":"05","name":"Nordrhein-Westfalen"}},{"name":"Kondringstr.","postalCode":"46499","locality":"Hamminkeln","municipality":{"key":"05170012","name":"Hamminkeln, Stadt","type":"Stadt"},"district":{"key":"05170","name":"Wesel","type":"Kreis"},"federalState":{"key":"05","name":"Nordrhein-Westfalen"}},{"name":"Königsberger Str.","postalCode":"46499","locality":"Hamminkeln","municipality":{"key":"05170012","name":"Hamminkeln, Stadt","type":"Stadt"},"district":{"key":"05170","name":"Wesel","type":"Kreis"},"federalState":{"key":"05","name":"Nordrhein-Westfalen"}},{"name":"Konstantinforst","postalCode":"46499","locality":"Hamminkeln","municipality":{"key":"05170012","name":"Hamminkeln, Stadt","type":"Stadt"},"district":{"key":"05170","name":"Wesel","type":"Kreis"},"federalState":{"key":"05","name":"Nordrhein-Westfalen"}},{"name":"Koppeldeich","postalCode":"46499","locality":"Hamminkeln","municipality":{"key":"05170012","name":"Hamminkeln, Stadt","type":"Stadt"},"district":{"key":"05170","name":"Wesel","type":"Kreis"},"federalState":{"key":"05","name":"Nordrhein-Westfalen"}},{"name":"Kranendeich","postalCode":"46499","locality":"Hamminkeln","municipality":{"key":"05170012","name":"Hamminkeln, Stadt","type":"Stadt"},"district":{"key":"05170","name":"Wesel","type":"Kreis"},"federalState":{"key":"05","name":"Nordrhein-Westfalen"}},{"name":"Krechtinger Str.","postalCode":"46499","locality":"Hamminkeln","municipality":{"key":"05170012","name":"Hamminkeln, Stadt","type":"Stadt"},"district":{"key":"05170","name":"Wesel","type":"Kreis"},"federalState":{"key":"05","name":"Nordrhein-Westfalen"}},{"name":"Kreutzstr.","postalCode":"46499","locality":"Hamminkeln","municipality":{"key":"05170012","name":"Hamminkeln, Stadt","type":"Stadt"},"district":{"key":"05170","name":"Wesel","type":"Kreis"},"federalState":{"key":"05","name":"Nordrhein-Westfalen"}},{"name":"Krokusweg","postalCode":"46499","locality":"Hamminkeln","municipality":{"key":"05170012","name":"Hamminkeln, Stadt","type":"Stadt"},"district":{"key":"05170","name":"Wesel","type":"Kreis"},"federalState":{"key":"05","name":"Nordrhein-Westfalen"}},{"name":"Krummer Weg","postalCode":"46499","locality":"Hamminkeln","municipality":{"key":"05170012","name":"Hamminkeln, Stadt","type":"Stadt"},"district":{"key":"05170","name":"Wesel","type":"Kreis"},"federalState":{"key":"05","name":"Nordrhein-Westfalen"}},{"name":"Lamboiweg","postalCode":"46499","locality":"Hamminkeln","municipality":{"key":"05170012","name":"Hamminkeln, Stadt","type":"Stadt"},"district":{"key":"05170","name":"Wesel","type":"Kreis"},"federalState":{"key":"05","name":"Nordrhein-Westfalen"}},{"name":"Landwehr","postalCode":"46499","locality":"Hamminkeln","municipality":{"key":"05170012","name":"Hamminkeln, Stadt","type":"Stadt"},"district":{"key":"05170","name":"Wesel","type":"Kreis"},"federalState":{"key":"05","name":"Nordrhein-Westfalen"}},{"name":"Lankernbrok","postalCode":"46499","locality":"Hamminkeln","municipality":{"key":"05170012","name":"Hamminkeln, Stadt","type":"Stadt"},"district":{"key":"05170","name":"Wesel","type":"Kreis"},"federalState":{"key":"05","name":"Nordrhein-Westfalen"}},{"name":"Lärchenweg","postalCode":"46499","locality":"Hamminkeln","municipality":{"key":"05170012","name":"Hamminkeln, Stadt","type":"Stadt"},"district":{"key":"05170","name":"Wesel","type":"Kreis"},"federalState":{"key":"05","name":"Nordrhein-Westfalen"}},{"name":"Leege Heide","postalCode":"46499","locality":"Hamminkeln","municipality":{"key":"05170012","name":"Hamminkeln, Stadt","type":"Stadt"},"district":{"key":"05170","name":"Wesel","type":"Kreis"},"federalState":{"key":"05","name":"Nordrhein-Westfalen"}},{"name":"Lehmberg","postalCode":"46499","locality":"Hamminkeln","municipality":{"key":"05170012","name":"Hamminkeln, Stadt","type":"Stadt"},"district":{"key":"05170","name":"Wesel","type":"Kreis"},"federalState":{"key":"05","name":"Nordrhein-Westfalen"}},{"name":"Leopoldskamp","postalCode":"46499","locality":"Hamminkeln","municipality":{"key":"05170012","name":"Hamminkeln, Stadt","type":"Stadt"},"district":{"key":"05170","name":"Wesel","type":"Kreis"},"federalState":{"key":"05","name":"Nordrhein-Westfalen"}},{"name":"Lerchenweg","postalCode":"46499","locality":"Hamminkeln","municipality":{"key":"05170012","name":"Hamminkeln, Stadt","type":"Stadt"},"district":{"key":"05170","name":"Wesel","type":"Kreis"},"federalState":{"key":"05","name":"Nordrhein-Westfalen"}},{"name":"Lessingstr.","postalCode":"46499","locality":"Hamminkeln","municipality":{"key":"05170012","name":"Hamminkeln, Stadt","type":"Stadt"},"district":{"key":"05170","name":"Wesel","type":"Kreis"},"federalState":{"key":"05","name":"Nordrhein-Westfalen"}},{"name":"Liederner Str.","postalCode":"46499","locality":"Hamminkeln","municipality":{"key":"05170012","name":"Hamminkeln, Stadt","type":"Stadt"},"district":{"key":"05170","name":"Wesel","type":"Kreis"},"federalState":{"key":"05","name":"Nordrhein-Westfalen"}},{"name":"Lilienweg","postalCode":"46499","locality":"Hamminkeln","municipality":{"key":"05170012","name":"Hamminkeln, Stadt","type":"Stadt"},"district":{"key":"05170","name":"Wesel","type":"Kreis"},"federalState":{"key":"05","name":"Nordrhein-Westfalen"}},{"name":"Lindenstr.","postalCode":"46499","locality":"Hamminkeln","municipality":{"key":"05170012","name":"Hamminkeln, Stadt","type":"Stadt"},"district":{"key":"05170","name":"Wesel","type":"Kreis"},"federalState":{"key":"05","name":"Nordrhein-Westfalen"}},{"name":"Loikumer Rott","postalCode":"46499","locality":"Hamminkeln","municipality":{"key":"05170012","name":"Hamminkeln, Stadt","type":"Stadt"},"district":{"key":"05170","name":"Wesel","type":"Kreis"},"federalState":{"key":"05","name":"Nordrhein-Westfalen"}},{"name":"Loikumer Str.","postalCode":"46499","locality":"Hamminkeln","municipality":{"key":"05170012","name":"Hamminkeln, Stadt","type":"Stadt"},"district":{"key":"05170","name":"Wesel","type":"Kreis"},"federalState":{"key":"05","name":"Nordrhein-Westfalen"}},{"name":"Lüdgenfelder Weg","postalCode":"46499","locality":"Hamminkeln","municipality":{"key":"05170012","name":"Hamminkeln, Stadt","type":"Stadt"},"district":{"key":"05170","name":"Wesel","type":"Kreis"},"federalState":{"key":"05","name":"Nordrhein-Westfalen"}},{"name":"Lupinenstege","postalCode":"46499","locality":"Hamminkeln","municipality":{"key":"05170012","name":"Hamminkeln, Stadt","type":"Stadt"},"district":{"key":"05170","name":"Wesel","type":"Kreis"},"federalState":{"key":"05","name":"Nordrhein-Westfalen"}},{"name":"Margaretenweg","postalCode":"46499","locality":"Hamminkeln","municipality":{"key":"05170012","name":"Hamminkeln, Stadt","type":"Stadt"},"district":{"key":"05170","name":"Wesel","type":"Kreis"},"federalState":{"key":"05","name":"Nordrhein-Westfalen"}},{"name":"Marienplatz","postalCode":"46499","locality":"Hamminkeln","municipality":{"key":"05170012","name":"Hamminkeln, Stadt","type":"Stadt"},"district":{"key":"05170","name":"Wesel","type":"Kreis"},"federalState":{"key":"05","name":"Nordrhein-Westfalen"}},{"name":"Marienvreder Str.","postalCode":"46499","locality":"Hamminkeln","municipality":{"key":"05170012","name":"Hamminkeln, Stadt","type":"Stadt"},"district":{"key":"05170","name":"Wesel","type":"Kreis"},"federalState":{"key":"05","name":"Nordrhein-Westfalen"}},{"name":"Märkische Str.","postalCode":"46499","locality":"Hamminkeln","municipality":{"key":"05170012","name":"Hamminkeln, Stadt","type":"Stadt"},"district":{"key":"05170","name":"Wesel","type":"Kreis"},"federalState":{"key":"05","name":"Nordrhein-Westfalen"}},{"name":"Markt","postalCode":"46499","locality":"Hamminkeln","municipality":{"key":"05170012","name":"Hamminkeln, Stadt","type":"Stadt"},"district":{"key":"05170","name":"Wesel","type":"Kreis"},"federalState":{"key":"05","name":"Nordrhein-Westfalen"}},{"name":"Marktstr.","postalCode":"46499","locality":"Hamminkeln","municipality":{"key":"05170012","name":"Hamminkeln, Stadt","type":"Stadt"},"district":{"key":"05170","name":"Wesel","type":"Kreis"},"federalState":{"key":"05","name":"Nordrhein-Westfalen"}},{"name":"Martin-Luther-Str.","postalCode":"46499","locality":"Hamminkeln","municipality":{"key":"05170012","name":"Hamminkeln, Stadt","type":"Stadt"},"district":{"key":"05170","name":"Wesel","type":"Kreis"},"federalState":{"key":"05","name":"Nordrhein-Westfalen"}},{"name":"Mattenkamp","postalCode":"46499","locality":"Hamminkeln","municipality":{"key":"05170012","name":"Hamminkeln, Stadt","type":"Stadt"},"district":{"key":"05170","name":"Wesel","type":"Kreis"},"federalState":{"key":"05","name":"Nordrhein-Westfalen"}},{"name":"Mehrhooger Str.","postalCode":"46499","locality":"Hamminkeln","municipality":{"key":"05170012","name":"Hamminkeln, Stadt","type":"Stadt"},"district":{"key":"05170","name":"Wesel","type":"Kreis"},"federalState":{"key":"05","name":"Nordrhein-Westfalen"}},{"name":"Meisenstr.","postalCode":"46499","locality":"Hamminkeln","municipality":{"key":"05170012","name":"Hamminkeln, Stadt","type":"Stadt"},"district":{"key":"05170","name":"Wesel","type":"Kreis"},"federalState":{"key":"05","name":"Nordrhein-Westfalen"}},{"name":"Messingsfeld","postalCode":"46499","locality":"Hamminkeln","municipality":{"key":"05170012","name":"Hamminkeln, Stadt","type":"Stadt"},"district":{"key":"05170","name":"Wesel","type":"Kreis"},"federalState":{"key":"05","name":"Nordrhein-Westfalen"}},{"name":"Minkelsches Feld","postalCode":"46499","locality":"Hamminkeln","municipality":{"key":"05170012","name":"Hamminkeln, Stadt","type":"Stadt"},"district":{"key":"05170","name":"Wesel","type":"Kreis"},"federalState":{"key":"05","name":"Nordrhein-Westfalen"}},{"name":"Mispelkamp","postalCode":"46499","locality":"Hamminkeln","municipality":{"key":"05170012","name":"Hamminkeln, Stadt","type":"Stadt"},"district":{"key":"05170","name":"Wesel","type":"Kreis"},"federalState":{"key":"05","name":"Nordrhein-Westfalen"}},{"name":"Molkereistr.","postalCode":"46499","locality":"Hamminkeln","municipality":{"key":"05170012","name":"Hamminkeln, Stadt","type":"Stadt"},"district":{"key":"05170","name":"Wesel","type":"Kreis"},"federalState":{"key":"05","name":"Nordrhein-Westfalen"}},{"name":"Möllenkampweg","postalCode":"46499","locality":"Hamminkeln","municipality":{"key":"05170012","name":"Hamminkeln, Stadt","type":"Stadt"},"district":{"key":"05170","name":"Wesel","type":"Kreis"},"federalState":{"key":"05","name":"Nordrhein-Westfalen"}},{"name":"Möllenweg","postalCode":"46499","locality":"Hamminkeln","municipality":{"key":"05170012","name":"Hamminkeln, Stadt","type":"Stadt"},"district":{"key":"05170","name":"Wesel","type":"Kreis"},"federalState":{"key":"05","name":"Nordrhein-Westfalen"}},{"name":"Moorweg","postalCode":"46499","locality":"Hamminkeln","municipality":{"key":"05170012","name":"Hamminkeln, Stadt","type":"Stadt"},"district":{"key":"05170","name":"Wesel","type":"Kreis"},"federalState":{"key":"05","name":"Nordrhein-Westfalen"}},{"name":"Mühlenbergweg","postalCode":"46499","locality":"Hamminkeln","municipality":{"key":"05170012","name":"Hamminkeln, Stadt","type":"Stadt"},"district":{"key":"05170","name":"Wesel","type":"Kreis"},"federalState":{"key":"05","name":"Nordrhein-Westfalen"}},{"name":"Mühlenesch","postalCode":"46499","locality":"Hamminkeln","municipality":{"key":"05170012","name":"Hamminkeln, Stadt","type":"Stadt"},"district":{"key":"05170","name":"Wesel","type":"Kreis"},"federalState":{"key":"05","name":"Nordrhein-Westfalen"}},{"name":"Mühlenrott","postalCode":"46499","locality":"Hamminkeln","municipality":{"key":"05170012","name":"Hamminkeln, Stadt","type":"Stadt"},"district":{"key":"05170","name":"Wesel","type":"Kreis"},"federalState":{"key":"05","name":"Nordrhein-Westfalen"}},{"name":"Münsterlandtor","postalCode":"46499","locality":"Hamminkeln","municipality":{"key":"05170012","name":"Hamminkeln, Stadt","type":"Stadt"},"district":{"key":"05170","name":"Wesel","type":"Kreis"},"federalState":{"key":"05","name":"Nordrhein-Westfalen"}},{"name":"Münsters Feld","postalCode":"46499","locality":"Hamminkeln","municipality":{"key":"05170012","name":"Hamminkeln, Stadt","type":"Stadt"},"district":{"key":"05170","name":"Wesel","type":"Kreis"},"federalState":{"key":"05","name":"Nordrhein-Westfalen"}},{"name":"Mussumer Str.","postalCode":"46499","locality":"Hamminkeln","municipality":{"key":"05170012","name":"Hamminkeln, Stadt","type":"Stadt"},"district":{"key":"05170","name":"Wesel","type":"Kreis"},"federalState":{"key":"05","name":"Nordrhein-Westfalen"}},{"name":"Nachtigallenweg","postalCode":"46499","locality":"Hamminkeln","municipality":{"key":"05170012","name":"Hamminkeln, Stadt","type":"Stadt"},"district":{"key":"05170","name":"Wesel","type":"Kreis"},"federalState":{"key":"05","name":"Nordrhein-Westfalen"}},{"name":"Nelkenweg","postalCode":"46499","locality":"Hamminkeln","municipality":{"key":"05170012","name":"Hamminkeln, Stadt","type":"Stadt"},"district":{"key":"05170","name":"Wesel","type":"Kreis"},"federalState":{"key":"05","name":"Nordrhein-Westfalen"}},{"name":"Neufeld","postalCode":"46499","locality":"Hamminkeln","municipality":{"key":"05170012","name":"Hamminkeln, Stadt","type":"Stadt"},"district":{"key":"05170","name":"Wesel","type":"Kreis"},"federalState":{"key":"05","name":"Nordrhein-Westfalen"}},{"name":"Neuhardenbergstr.","postalCode":"46499","locality":"Hamminkeln","municipality":{"key":"05170012","name":"Hamminkeln, Stadt","type":"Stadt"},"district":{"key":"05170","name":"Wesel","type":"Kreis"},"federalState":{"key":"05","name":"Nordrhein-Westfalen"}},{"name":"Neustr.","postalCode":"46499","locality":"Hamminkeln","municipality":{"key":"05170012","name":"Hamminkeln, Stadt","type":"Stadt"},"district":{"key":"05170","name":"Wesel","type":"Kreis"},"federalState":{"key":"05","name":"Nordrhein-Westfalen"}},{"name":"Nikolaus-Groß-Str.","postalCode":"46499","locality":"Hamminkeln","municipality":{"key":"05170012","name":"Hamminkeln, Stadt","type":"Stadt"},"district":{"key":"05170","name":"Wesel","type":"Kreis"},"federalState":{"key":"05","name":"Nordrhein-Westfalen"}},{"name":"Nordbrocker Str.","postalCode":"46499","locality":"Hamminkeln","municipality":{"key":"05170012","name":"Hamminkeln, Stadt","type":"Stadt"},"district":{"key":"05170","name":"Wesel","type":"Kreis"},"federalState":{"key":"05","name":"Nordrhein-Westfalen"}},{"name":"Obbergshof","postalCode":"46499","locality":"Hamminkeln","municipality":{"key":"05170012","name":"Hamminkeln, Stadt","type":"Stadt"},"district":{"key":"05170","name":"Wesel","type":"Kreis"},"federalState":{"key":"05","name":"Nordrhein-Westfalen"}},{"name":"Oderstr.","postalCode":"46499","locality":"Hamminkeln","municipality":{"key":"05170012","name":"Hamminkeln, Stadt","type":"Stadt"},"district":{"key":"05170","name":"Wesel","type":"Kreis"},"federalState":{"key":"05","name":"Nordrhein-Westfalen"}},{"name":"Ottenstr.","postalCode":"46499","locality":"Hamminkeln","municipality":{"key":"05170012","name":"Hamminkeln, Stadt","type":"Stadt"},"district":{"key":"05170","name":"Wesel","type":"Kreis"},"federalState":{"key":"05","name":"Nordrhein-Westfalen"}},{"name":"Overdickshof","postalCode":"46499","locality":"Hamminkeln","municipality":{"key":"05170012","name":"Hamminkeln, Stadt","type":"Stadt"},"district":{"key":"05170","name":"Wesel","type":"Kreis"},"federalState":{"key":"05","name":"Nordrhein-Westfalen"}},{"name":"Pappelweg","postalCode":"46499","locality":"Hamminkeln","municipality":{"key":"05170012","name":"Hamminkeln, Stadt","type":"Stadt"},"district":{"key":"05170","name":"Wesel","type":"Kreis"},"federalState":{"key":"05","name":"Nordrhein-Westfalen"}},{"name":"Paßter Weg","postalCode":"46499","locality":"Hamminkeln","municipality":{"key":"05170012","name":"Hamminkeln, Stadt","type":"Stadt"},"district":{"key":"05170","name":"Wesel","type":"Kreis"},"federalState":{"key":"05","name":"Nordrhein-Westfalen"}},{"name":"Pastor-Winkelmann-Str.","postalCode":"46499","locality":"Hamminkeln","municipality":{"key":"05170012","name":"Hamminkeln, Stadt","type":"Stadt"},"district":{"key":"05170","name":"Wesel","type":"Kreis"},"federalState":{"key":"05","name":"Nordrhein-Westfalen"}},{"name":"Pater-Terörde-Weg","postalCode":"46499","locality":"Hamminkeln","municipality":{"key":"05170012","name":"Hamminkeln, Stadt","type":"Stadt"},"district":{"key":"05170","name":"Wesel","type":"Kreis"},"federalState":{"key":"05","name":"Nordrhein-Westfalen"}},{"name":"Perdeweg","postalCode":"46499","locality":"Hamminkeln","municipality":{"key":"05170012","name":"Hamminkeln, Stadt","type":"Stadt"},"district":{"key":"05170","name":"Wesel","type":"Kreis"},"federalState":{"key":"05","name":"Nordrhein-Westfalen"}},{"name":"Pfarrer-Seither-Weg","postalCode":"46499","locality":"Hamminkeln","municipality":{"key":"05170012","name":"Hamminkeln, Stadt","type":"Stadt"},"district":{"key":"05170","name":"Wesel","type":"Kreis"},"federalState":{"key":"05","name":"Nordrhein-Westfalen"}},{"name":"Pfarrer-Steinbach-Siedlung","postalCode":"46499","locality":"Hamminkeln","municipality":{"key":"05170012","name":"Hamminkeln, Stadt","type":"Stadt"},"district":{"key":"05170","name":"Wesel","type":"Kreis"},"federalState":{"key":"05","name":"Nordrhein-Westfalen"}},{"name":"Pferdsweide","postalCode":"46499","locality":"Hamminkeln","municipality":{"key":"05170012","name":"Hamminkeln, Stadt","type":"Stadt"},"district":{"key":"05170","name":"Wesel","type":"Kreis"},"federalState":{"key":"05","name":"Nordrhein-Westfalen"}},{"name":"Pollsche Heide","postalCode":"46499","locality":"Hamminkeln","municipality":{"key":"05170012","name":"Hamminkeln, Stadt","type":"Stadt"},"district":{"key":"05170","name":"Wesel","type":"Kreis"},"federalState":{"key":"05","name":"Nordrhein-Westfalen"}},{"name":"Postweg","postalCode":"46499","locality":"Hamminkeln","municipality":{"key":"05170012","name":"Hamminkeln, Stadt","type":"Stadt"},"district":{"key":"05170","name":"Wesel","type":"Kreis"},"federalState":{"key":"05","name":"Nordrhein-Westfalen"}},{"name":"Poterey","postalCode":"46499","locality":"Hamminkeln","municipality":{"key":"05170012","name":"Hamminkeln, Stadt","type":"Stadt"},"district":{"key":"05170","name":"Wesel","type":"Kreis"},"federalState":{"key":"05","name":"Nordrhein-Westfalen"}},{"name":"Provinzialstr.","postalCode":"46499","locality":"Hamminkeln","municipality":{"key":"05170012","name":"Hamminkeln, Stadt","type":"Stadt"},"district":{"key":"05170","name":"Wesel","type":"Kreis"},"federalState":{"key":"05","name":"Nordrhein-Westfalen"}},{"name":"Quadenweg","postalCode":"46485","locality":"Wesel","municipality":{"key":"05170048","name":"Wesel, Stadt","type":"Stadt"},"district":{"key":"05170","name":"Wesel","type":"Kreis"},"federalState":{"key":"05","name":"Nordrhein-Westfalen"}},{"name":"Querstr.","postalCode":"46487","locality":"Wesel","municipality":{"key":"05170048","name":"Wesel, Stadt","type":"Stadt"},"district":{"key":"05170","name":"Wesel","type":"Kreis"},"federalState":{"key":"05","name":"Nordrhein-Westfalen"}},{"name":"Raesfelder Str.","postalCode":"46499","locality":"Hamminkeln","municipality":{"key":"05170012","name":"Hamminkeln, Stadt","type":"Stadt"},"district":{"key":"05170","name":"Wesel","type":"Kreis"},"federalState":{"key":"05","name":"Nordrhein-Westfalen"}},{"name":"Raiffeisenstr.","postalCode":"46499","locality":"Hamminkeln","municipality":{"key":"05170012","name":"Hamminkeln, Stadt","type":"Stadt"},"district":{"key":"05170","name":"Wesel","type":"Kreis"},"federalState":{"key":"05","name":"Nordrhein-Westfalen"}},{"name":"Rathausstr.","postalCode":"46499","locality":"Hamminkeln","municipality":{"key":"05170012","name":"Hamminkeln, Stadt","type":"Stadt"},"district":{"key":"05170","name":"Wesel","type":"Kreis"},"federalState":{"key":"05","name":"Nordrhein-Westfalen"}},{"name":"Reeser Str.","postalCode":"46499","locality":"Hamminkeln","municipality":{"key":"05170012","name":"Hamminkeln, Stadt","type":"Stadt"},"district":{"key":"05170","name":"Wesel","type":"Kreis"},"federalState":{"key":"05","name":"Nordrhein-Westfalen"}},{"name":"Reindersweg","postalCode":"46499","locality":"Hamminkeln","municipality":{"key":"05170012","name":"Hamminkeln, Stadt","type":"Stadt"},"district":{"key":"05170","name":"Wesel","type":"Kreis"},"federalState":{"key":"05","name":"Nordrhein-Westfalen"}},{"name":"Ressings Feld","postalCode":"46499","locality":"Hamminkeln","municipality":{"key":"05170012","name":"Hamminkeln, Stadt","type":"Stadt"},"district":{"key":"05170","name":"Wesel","type":"Kreis"},"federalState":{"key":"05","name":"Nordrhein-Westfalen"}},{"name":"Rheder Str.","postalCode":"46499","locality":"Hamminkeln","municipality":{"key":"05170012","name":"Hamminkeln, Stadt","type":"Stadt"},"district":{"key":"05170","name":"Wesel","type":"Kreis"},"federalState":{"key":"05","name":"Nordrhein-Westfalen"}},{"name":"Rheinstr.","postalCode":"46499","locality":"Hamminkeln","municipality":{"key":"05170012","name":"Hamminkeln, Stadt","type":"Stadt"},"district":{"key":"05170","name":"Wesel","type":"Kreis"},"federalState":{"key":"05","name":"Nordrhein-Westfalen"}},{"name":"Rickelsweg","postalCode":"46499","locality":"Hamminkeln","municipality":{"key":"05170012","name":"Hamminkeln, Stadt","type":"Stadt"},"district":{"key":"05170","name":"Wesel","type":"Kreis"},"federalState":{"key":"05","name":"Nordrhein-Westfalen"}},{"name":"Rigauds Busch","postalCode":"46499","locality":"Hamminkeln","municipality":{"key":"05170012","name":"Hamminkeln, Stadt","type":"Stadt"},"district":{"key":"05170","name":"Wesel","type":"Kreis"},"federalState":{"key":"05","name":"Nordrhein-Westfalen"}},{"name":"Ringenberger Str.","postalCode":"46499","locality":"Hamminkeln","municipality":{"key":"05170012","name":"Hamminkeln, Stadt","type":"Stadt"},"district":{"key":"05170","name":"Wesel","type":"Kreis"},"federalState":{"key":"05","name":"Nordrhein-Westfalen"}},{"name":"Ringstr.","postalCode":"46499","locality":"Hamminkeln","municipality":{"key":"05170012","name":"Hamminkeln, Stadt","type":"Stadt"},"district":{"key":"05170","name":"Wesel","type":"Kreis"},"federalState":{"key":"05","name":"Nordrhein-Westfalen"}},{"name":"Rispenweg","postalCode":"46499","locality":"Hamminkeln","municipality":{"key":"05170012","name":"Hamminkeln, Stadt","type":"Stadt"},"district":{"key":"05170","name":"Wesel","type":"Kreis"},"federalState":{"key":"05","name":"Nordrhein-Westfalen"}},{"name":"Rodehorster Allee","postalCode":"46499","locality":"Hamminkeln","municipality":{"key":"05170012","name":"Hamminkeln, Stadt","type":"Stadt"},"district":{"key":"05170","name":"Wesel","type":"Kreis"},"federalState":{"key":"05","name":"Nordrhein-Westfalen"}},{"name":"Roggenkamp","postalCode":"46499","locality":"Hamminkeln","municipality":{"key":"05170012","name":"Hamminkeln, Stadt","type":"Stadt"},"district":{"key":"05170","name":"Wesel","type":"Kreis"},"federalState":{"key":"05","name":"Nordrhein-Westfalen"}},{"name":"Rohstr.","postalCode":"46499","locality":"Hamminkeln","municipality":{"key":"05170012","name":"Hamminkeln, Stadt","type":"Stadt"},"district":{"key":"05170","name":"Wesel","type":"Kreis"},"federalState":{"key":"05","name":"Nordrhein-Westfalen"}},{"name":"Römerrast","postalCode":"46499","locality":"Hamminkeln","municipality":{"key":"05170012","name":"Hamminkeln, Stadt","type":"Stadt"},"district":{"key":"05170","name":"Wesel","type":"Kreis"},"federalState":{"key":"05","name":"Nordrhein-Westfalen"}},{"name":"Römerstr.","postalCode":"46499","locality":"Hamminkeln","municipality":{"key":"05170012","name":"Hamminkeln, Stadt","type":"Stadt"},"district":{"key":"05170","name":"Wesel","type":"Kreis"},"federalState":{"key":"05","name":"Nordrhein-Westfalen"}},{"name":"Rosenstr.","postalCode":"46499","locality":"Hamminkeln","municipality":{"key":"05170012","name":"Hamminkeln, Stadt","type":"Stadt"},"district":{"key":"05170","name":"Wesel","type":"Kreis"},"federalState":{"key":"05","name":"Nordrhein-Westfalen"}},{"name":"Roßmühle","postalCode":"46499","locality":"Hamminkeln","municipality":{"key":"05170012","name":"Hamminkeln, Stadt","type":"Stadt"},"district":{"key":"05170","name":"Wesel","type":"Kreis"},"federalState":{"key":"05","name":"Nordrhein-Westfalen"}},{"name":"Rottweg","postalCode":"46499","locality":"Hamminkeln","municipality":{"key":"05170012","name":"Hamminkeln, Stadt","type":"Stadt"},"district":{"key":"05170","name":"Wesel","type":"Kreis"},"federalState":{"key":"05","name":"Nordrhein-Westfalen"}},{"name":"Saalestr.","postalCode":"46499","locality":"Hamminkeln","municipality":{"key":"05170012","name":"Hamminkeln, Stadt","type":"Stadt"},"district":{"key":"05170","name":"Wesel","type":"Kreis"},"federalState":{"key":"05","name":"Nordrhein-Westfalen"}},{"name":"Saatweide","postalCode":"46499","locality":"Hamminkeln","municipality":{"key":"05170012","name":"Hamminkeln, Stadt","type":"Stadt"},"district":{"key":"05170","name":"Wesel","type":"Kreis"},"federalState":{"key":"05","name":"Nordrhein-Westfalen"}},{"name":"Sachsenstr.","postalCode":"46499","locality":"Hamminkeln","municipality":{"key":"05170012","name":"Hamminkeln, Stadt","type":"Stadt"},"district":{"key":"05170","name":"Wesel","type":"Kreis"},"federalState":{"key":"05","name":"Nordrhein-Westfalen"}},{"name":"Sandberg","postalCode":"46499","locality":"Hamminkeln","municipality":{"key":"05170012","name":"Hamminkeln, Stadt","type":"Stadt"},"district":{"key":"05170","name":"Wesel","type":"Kreis"},"federalState":{"key":"05","name":"Nordrhein-Westfalen"}},{"name":"Sandstr.","postalCode":"46499","locality":"Hamminkeln","municipality":{"key":"05170012","name":"Hamminkeln, Stadt","type":"Stadt"},"district":{"key":"05170","name":"Wesel","type":"Kreis"},"federalState":{"key":"05","name":"Nordrhein-Westfalen"}},{"name":"Schaddenbrook","postalCode":"46499","locality":"Hamminkeln","municipality":{"key":"05170012","name":"Hamminkeln, Stadt","type":"Stadt"},"district":{"key":"05170","name":"Wesel","type":"Kreis"},"federalState":{"key":"05","name":"Nordrhein-Westfalen"}},{"name":"Schäfersweg","postalCode":"46499","locality":"Hamminkeln","municipality":{"key":"05170012","name":"Hamminkeln, Stadt","type":"Stadt"},"district":{"key":"05170","name":"Wesel","type":"Kreis"},"federalState":{"key":"05","name":"Nordrhein-Westfalen"}},{"name":"Scheffelweg","postalCode":"46499","locality":"Hamminkeln","municipality":{"key":"05170012","name":"Hamminkeln, Stadt","type":"Stadt"},"district":{"key":"05170","name":"Wesel","type":"Kreis"},"federalState":{"key":"05","name":"Nordrhein-Westfalen"}},{"name":"Schilfstr.","postalCode":"46499","locality":"Hamminkeln","municipality":{"key":"05170012","name":"Hamminkeln, Stadt","type":"Stadt"},"district":{"key":"05170","name":"Wesel","type":"Kreis"},"federalState":{"key":"05","name":"Nordrhein-Westfalen"}},{"name":"Schillerstr.","postalCode":"46499","locality":"Hamminkeln","municipality":{"key":"05170012","name":"Hamminkeln, Stadt","type":"Stadt"},"district":{"key":"05170","name":"Wesel","type":"Kreis"},"federalState":{"key":"05","name":"Nordrhein-Westfalen"}},{"name":"Schledenhorster Str.","postalCode":"46499","locality":"Hamminkeln","municipality":{"key":"05170012","name":"Hamminkeln, Stadt","type":"Stadt"},"district":{"key":"05170","name":"Wesel","type":"Kreis"},"federalState":{"key":"05","name":"Nordrhein-Westfalen"}},{"name":"Schlootweg","postalCode":"46499","locality":"Hamminkeln","municipality":{"key":"05170012","name":"Hamminkeln, Stadt","type":"Stadt"},"district":{"key":"05170","name":"Wesel","type":"Kreis"},"federalState":{"key":"05","name":"Nordrhein-Westfalen"}},{"name":"Schloßpark Ringenberg","postalCode":"46499","locality":"Hamminkeln","municipality":{"key":"05170012","name":"Hamminkeln, Stadt","type":"Stadt"},"district":{"key":"05170","name":"Wesel","type":"Kreis"},"federalState":{"key":"05","name":"Nordrhein-Westfalen"}},{"name":"Schloßstr.","postalCode":"46499","locality":"Hamminkeln","municipality":{"key":"05170012","name":"Hamminkeln, Stadt","type":"Stadt"},"district":{"key":"05170","name":"Wesel","type":"Kreis"},"federalState":{"key":"05","name":"Nordrhein-Westfalen"}},{"name":"Schlümersweg","postalCode":"46499","locality":"Hamminkeln","municipality":{"key":"05170012","name":"Hamminkeln, Stadt","type":"Stadt"},"district":{"key":"05170","name":"Wesel","type":"Kreis"},"federalState":{"key":"05","name":"Nordrhein-Westfalen"}},{"name":"Schmermannsweg","postalCode":"46499","locality":"Hamminkeln","municipality":{"key":"05170012","name":"Hamminkeln, Stadt","type":"Stadt"},"district":{"key":"05170","name":"Wesel","type":"Kreis"},"federalState":{"key":"05","name":"Nordrhein-Westfalen"}},{"name":"Schmidtskamp","postalCode":"46499","locality":"Hamminkeln","municipality":{"key":"05170012","name":"Hamminkeln, Stadt","type":"Stadt"},"district":{"key":"05170","name":"Wesel","type":"Kreis"},"federalState":{"key":"05","name":"Nordrhein-Westfalen"}},{"name":"Schöne Flur","postalCode":"46499","locality":"Hamminkeln","municipality":{"key":"05170012","name":"Hamminkeln, Stadt","type":"Stadt"},"district":{"key":"05170","name":"Wesel","type":"Kreis"},"federalState":{"key":"05","name":"Nordrhein-Westfalen"}},{"name":"Schroverbecksweg","postalCode":"46499","locality":"Hamminkeln","municipality":{"key":"05170012","name":"Hamminkeln, Stadt","type":"Stadt"},"district":{"key":"05170","name":"Wesel","type":"Kreis"},"federalState":{"key":"05","name":"Nordrhein-Westfalen"}},{"name":"Schulstr.","postalCode":"46499","locality":"Hamminkeln","municipality":{"key":"05170012","name":"Hamminkeln, Stadt","type":"Stadt"},"district":{"key":"05170","name":"Wesel","type":"Kreis"},"federalState":{"key":"05","name":"Nordrhein-Westfalen"}},{"name":"Schultenstegge","postalCode":"46499","locality":"Hamminkeln","municipality":{"key":"05170012","name":"Hamminkeln, Stadt","type":"Stadt"},"district":{"key":"05170","name":"Wesel","type":"Kreis"},"federalState":{"key":"05","name":"Nordrhein-Westfalen"}},{"name":"Schwalbenweg","postalCode":"46499","locality":"Hamminkeln","municipality":{"key":"05170012","name":"Hamminkeln, Stadt","type":"Stadt"},"district":{"key":"05170","name":"Wesel","type":"Kreis"},"federalState":{"key":"05","name":"Nordrhein-Westfalen"}},{"name":"Schwanenschlatt","postalCode":"46499","locality":"Hamminkeln","municipality":{"key":"05170012","name":"Hamminkeln, Stadt","type":"Stadt"},"district":{"key":"05170","name":"Wesel","type":"Kreis"},"federalState":{"key":"05","name":"Nordrhein-Westfalen"}},{"name":"Sedgefieldstr.","postalCode":"46499","locality":"Hamminkeln","municipality":{"key":"05170012","name":"Hamminkeln, Stadt","type":"Stadt"},"district":{"key":"05170","name":"Wesel","type":"Kreis"},"federalState":{"key":"05","name":"Nordrhein-Westfalen"}},{"name":"Siedlerweg","postalCode":"46499","locality":"Hamminkeln","municipality":{"key":"05170012","name":"Hamminkeln, Stadt","type":"Stadt"},"district":{"key":"05170","name":"Wesel","type":"Kreis"},"federalState":{"key":"05","name":"Nordrhein-Westfalen"}},{"name":"Spechtstr.","postalCode":"46499","locality":"Hamminkeln","municipality":{"key":"05170012","name":"Hamminkeln, Stadt","type":"Stadt"},"district":{"key":"05170","name":"Wesel","type":"Kreis"},"federalState":{"key":"05","name":"Nordrhein-Westfalen"}},{"name":"Sperlingstr.","postalCode":"46499","locality":"Hamminkeln","municipality":{"key":"05170012","name":"Hamminkeln, Stadt","type":"Stadt"},"district":{"key":"05170","name":"Wesel","type":"Kreis"},"federalState":{"key":"05","name":"Nordrhein-Westfalen"}},{"name":"Spreeweg","postalCode":"46499","locality":"Hamminkeln","municipality":{"key":"05170012","name":"Hamminkeln, Stadt","type":"Stadt"},"district":{"key":"05170","name":"Wesel","type":"Kreis"},"federalState":{"key":"05","name":"Nordrhein-Westfalen"}},{"name":"Stapelsweg","postalCode":"46499","locality":"Hamminkeln","municipality":{"key":"05170012","name":"Hamminkeln, Stadt","type":"Stadt"},"district":{"key":"05170","name":"Wesel","type":"Kreis"},"federalState":{"key":"05","name":"Nordrhein-Westfalen"}},{"name":"Starenweg","postalCode":"46499","locality":"Hamminkeln","municipality":{"key":"05170012","name":"Hamminkeln, Stadt","type":"Stadt"},"district":{"key":"05170","name":"Wesel","type":"Kreis"},"federalState":{"key":"05","name":"Nordrhein-Westfalen"}},{"name":"Steinstr.","postalCode":"46499","locality":"Hamminkeln","municipality":{"key":"05170012","name":"Hamminkeln, Stadt","type":"Stadt"},"district":{"key":"05170","name":"Wesel","type":"Kreis"},"federalState":{"key":"05","name":"Nordrhein-Westfalen"}},{"name":"Stockkamp","postalCode":"46499","locality":"Hamminkeln","municipality":{"key":"05170012","name":"Hamminkeln, Stadt","type":"Stadt"},"district":{"key":"05170","name":"Wesel","type":"Kreis"},"federalState":{"key":"05","name":"Nordrhein-Westfalen"}},{"name":"Stockum","postalCode":"46499","locality":"Hamminkeln","municipality":{"key":"05170012","name":"Hamminkeln, Stadt","type":"Stadt"},"district":{"key":"05170","name":"Wesel","type":"Kreis"},"federalState":{"key":"05","name":"Nordrhein-Westfalen"}},{"name":"Storchenweg","postalCode":"46499","locality":"Hamminkeln","municipality":{"key":"05170012","name":"Hamminkeln, Stadt","type":"Stadt"},"district":{"key":"05170","name":"Wesel","type":"Kreis"},"federalState":{"key":"05","name":"Nordrhein-Westfalen"}},{"name":"Strauchheide","postalCode":"46499","locality":"Hamminkeln","municipality":{"key":"05170012","name":"Hamminkeln, Stadt","type":"Stadt"},"district":{"key":"05170","name":"Wesel","type":"Kreis"},"federalState":{"key":"05","name":"Nordrhein-Westfalen"}},{"name":"Stricksbrink","postalCode":"46499","locality":"Hamminkeln","municipality":{"key":"05170012","name":"Hamminkeln, Stadt","type":"Stadt"},"district":{"key":"05170","name":"Wesel","type":"Kreis"},"federalState":{"key":"05","name":"Nordrhein-Westfalen"}},{"name":"Suederweg","postalCode":"46499","locality":"Hamminkeln","municipality":{"key":"05170012","name":"Hamminkeln, Stadt","type":"Stadt"},"district":{"key":"05170","name":"Wesel","type":"Kreis"},"federalState":{"key":"05","name":"Nordrhein-Westfalen"}},{"name":"Tannenweg","postalCode":"46499","locality":"Hamminkeln","municipality":{"key":"05170012","name":"Hamminkeln, Stadt","type":"Stadt"},"district":{"key":"05170","name":"Wesel","type":"Kreis"},"federalState":{"key":"05","name":"Nordrhein-Westfalen"}},{"name":"Taubenstr.","postalCode":"46499","locality":"Hamminkeln","municipality":{"key":"05170012","name":"Hamminkeln, Stadt","type":"Stadt"},"district":{"key":"05170","name":"Wesel","type":"Kreis"},"federalState":{"key":"05","name":"Nordrhein-Westfalen"}},{"name":"Tebbenhof","postalCode":"46499","locality":"Hamminkeln","municipality":{"key":"05170012","name":"Hamminkeln, Stadt","type":"Stadt"},"district":{"key":"05170","name":"Wesel","type":"Kreis"},"federalState":{"key":"05","name":"Nordrhein-Westfalen"}},{"name":"Telgerhuck","postalCode":"46499","locality":"Hamminkeln","municipality":{"key":"05170012","name":"Hamminkeln, Stadt","type":"Stadt"},"district":{"key":"05170","name":"Wesel","type":"Kreis"},"federalState":{"key":"05","name":"Nordrhein-Westfalen"}},{"name":"Thingstr.","postalCode":"46499","locality":"Hamminkeln","municipality":{"key":"05170012","name":"Hamminkeln, Stadt","type":"Stadt"},"district":{"key":"05170","name":"Wesel","type":"Kreis"},"federalState":{"key":"05","name":"Nordrhein-Westfalen"}},{"name":"Torfweg","postalCode":"46499","locality":"Hamminkeln","municipality":{"key":"05170012","name":"Hamminkeln, Stadt","type":"Stadt"},"district":{"key":"05170","name":"Wesel","type":"Kreis"},"federalState":{"key":"05","name":"Nordrhein-Westfalen"}},{"name":"Tövener Str.","postalCode":"46499","locality":"Hamminkeln","municipality":{"key":"05170012","name":"Hamminkeln, Stadt","type":"Stadt"},"district":{"key":"05170","name":"Wesel","type":"Kreis"},"federalState":{"key":"05","name":"Nordrhein-Westfalen"}},{"name":"Tulpenstr.","postalCode":"46499","locality":"Hamminkeln","municipality":{"key":"05170012","name":"Hamminkeln, Stadt","type":"Stadt"},"district":{"key":"05170","name":"Wesel","type":"Kreis"},"federalState":{"key":"05","name":"Nordrhein-Westfalen"}},{"name":"Uhlandsweg","postalCode":"46499","locality":"Hamminkeln","municipality":{"key":"05170012","name":"Hamminkeln, Stadt","type":"Stadt"},"district":{"key":"05170","name":"Wesel","type":"Kreis"},"federalState":{"key":"05","name":"Nordrhein-Westfalen"}},{"name":"Ulmenweg","postalCode":"46499","locality":"Hamminkeln","municipality":{"key":"05170012","name":"Hamminkeln, Stadt","type":"Stadt"},"district":{"key":"05170","name":"Wesel","type":"Kreis"},"federalState":{"key":"05","name":"Nordrhein-Westfalen"}},{"name":"Underhook","postalCode":"46499","locality":"Hamminkeln","municipality":{"key":"05170012","name":"Hamminkeln, Stadt","type":"Stadt"},"district":{"key":"05170","name":"Wesel","type":"Kreis"},"federalState":{"key":"05","name":"Nordrhein-Westfalen"}},{"name":"Up de Woort","postalCode":"46499","locality":"Hamminkeln","municipality":{"key":"05170012","name":"Hamminkeln, Stadt","type":"Stadt"},"district":{"key":"05170","name":"Wesel","type":"Kreis"},"federalState":{"key":"05","name":"Nordrhein-Westfalen"}},{"name":"Van-de-Wall-Str.","postalCode":"46499","locality":"Hamminkeln","municipality":{"key":"05170012","name":"Hamminkeln, Stadt","type":"Stadt"},"district":{"key":"05170","name":"Wesel","type":"Kreis"},"federalState":{"key":"05","name":"Nordrhein-Westfalen"}},{"name":"Veenackerweg","postalCode":"46499","locality":"Hamminkeln","municipality":{"key":"05170012","name":"Hamminkeln, Stadt","type":"Stadt"},"district":{"key":"05170","name":"Wesel","type":"Kreis"},"federalState":{"key":"05","name":"Nordrhein-Westfalen"}},{"name":"Veilchenweg","postalCode":"46499","locality":"Hamminkeln","municipality":{"key":"05170012","name":"Hamminkeln, Stadt","type":"Stadt"},"district":{"key":"05170","name":"Wesel","type":"Kreis"},"federalState":{"key":"05","name":"Nordrhein-Westfalen"}},{"name":"Venninghauser Str.","postalCode":"46499","locality":"Hamminkeln","municipality":{"key":"05170012","name":"Hamminkeln, Stadt","type":"Stadt"},"district":{"key":"05170","name":"Wesel","type":"Kreis"},"federalState":{"key":"05","name":"Nordrhein-Westfalen"}},{"name":"Vennstr.","postalCode":"46499","locality":"Hamminkeln","municipality":{"key":"05170012","name":"Hamminkeln, Stadt","type":"Stadt"},"district":{"key":"05170","name":"Wesel","type":"Kreis"},"federalState":{"key":"05","name":"Nordrhein-Westfalen"}},{"name":"Via Salza Irpina","postalCode":"46499","locality":"Hamminkeln","municipality":{"key":"05170012","name":"Hamminkeln, Stadt","type":"Stadt"},"district":{"key":"05170","name":"Wesel","type":"Kreis"},"federalState":{"key":"05","name":"Nordrhein-Westfalen"}},{"name":"Vogelroute","postalCode":"46499","locality":"Hamminkeln","municipality":{"key":"05170012","name":"Hamminkeln, Stadt","type":"Stadt"},"district":{"key":"05170","name":"Wesel","type":"Kreis"},"federalState":{"key":"05","name":"Nordrhein-Westfalen"}},{"name":"Von-Galen-Str.","postalCode":"46499","locality":"Hamminkeln","municipality":{"key":"05170012","name":"Hamminkeln, Stadt","type":"Stadt"},"district":{"key":"05170","name":"Wesel","type":"Kreis"},"federalState":{"key":"05","name":"Nordrhein-Westfalen"}},{"name":"Von-Lans-Platz","postalCode":"46499","locality":"Hamminkeln","municipality":{"key":"05170012","name":"Hamminkeln, Stadt","type":"Stadt"},"district":{"key":"05170","name":"Wesel","type":"Kreis"},"federalState":{"key":"05","name":"Nordrhein-Westfalen"}},{"name":"Von-Plettenberg-Str.","postalCode":"46499","locality":"Hamminkeln","municipality":{"key":"05170012","name":"Hamminkeln, Stadt","type":"Stadt"},"district":{"key":"05170","name":"Wesel","type":"Kreis"},"federalState":{"key":"05","name":"Nordrhein-Westfalen"}},{"name":"Von-Spaen-Str.","postalCode":"46499","locality":"Hamminkeln","municipality":{"key":"05170012","name":"Hamminkeln, Stadt","type":"Stadt"},"district":{"key":"05170","name":"Wesel","type":"Kreis"},"federalState":{"key":"05","name":"Nordrhein-Westfalen"}},{"name":"Vorthuiyser Weg","postalCode":"46499","locality":"Hamminkeln","municipality":{"key":"05170012","name":"Hamminkeln, Stadt","type":"Stadt"},"district":{"key":"05170","name":"Wesel","type":"Kreis"},"federalState":{"key":"05","name":"Nordrhein-Westfalen"}},{"name":"Vossekuhle","postalCode":"46499","locality":"Hamminkeln","municipality":{"key":"05170012","name":"Hamminkeln, Stadt","type":"Stadt"},"district":{"key":"05170","name":"Wesel","type":"Kreis"},"federalState":{"key":"05","name":"Nordrhein-Westfalen"}},{"name":"Waldstr.","postalCode":"46499","locality":"Hamminkeln","municipality":{"key":"05170012","name":"Hamminkeln, Stadt","type":"Stadt"},"district":{"key":"05170","name":"Wesel","type":"Kreis"},"federalState":{"key":"05","name":"Nordrhein-Westfalen"}},{"name":"Weberstr.","postalCode":"46499","locality":"Hamminkeln","municipality":{"key":"05170012","name":"Hamminkeln, Stadt","type":"Stadt"},"district":{"key":"05170","name":"Wesel","type":"Kreis"},"federalState":{"key":"05","name":"Nordrhein-Westfalen"}},{"name":"Weidenstr.","postalCode":"46499","locality":"Hamminkeln","municipality":{"key":"05170012","name":"Hamminkeln, Stadt","type":"Stadt"},"district":{"key":"05170","name":"Wesel","type":"Kreis"},"federalState":{"key":"05","name":"Nordrhein-Westfalen"}},{"name":"Weikenrott","postalCode":"46499","locality":"Hamminkeln","municipality":{"key":"05170012","name":"Hamminkeln, Stadt","type":"Stadt"},"district":{"key":"05170","name":"Wesel","type":"Kreis"},"federalState":{"key":"05","name":"Nordrhein-Westfalen"}},{"name":"Weißdornweg","postalCode":"46499","locality":"Hamminkeln","municipality":{"key":"05170012","name":"Hamminkeln, Stadt","type":"Stadt"},"district":{"key":"05170","name":"Wesel","type":"Kreis"},"federalState":{"key":"05","name":"Nordrhein-Westfalen"}},{"name":"Wertherbrucher Str.","postalCode":"46499","locality":"Hamminkeln","municipality":{"key":"05170012","name":"Hamminkeln, Stadt","type":"Stadt"},"district":{"key":"05170","name":"Wesel","type":"Kreis"},"federalState":{"key":"05","name":"Nordrhein-Westfalen"}},{"name":"Weseler Str.","postalCode":"46499","locality":"Hamminkeln","municipality":{"key":"05170012","name":"Hamminkeln, Stadt","type":"Stadt"},"district":{"key":"05170","name":"Wesel","type":"Kreis"},"federalState":{"key":"05","name":"Nordrhein-Westfalen"}},{"name":"Weststr.","postalCode":"46499","locality":"Hamminkeln","municipality":{"key":"05170012","name":"Hamminkeln, Stadt","type":"Stadt"},"district":{"key":"05170","name":"Wesel","type":"Kreis"},"federalState":{"key":"05","name":"Nordrhein-Westfalen"}},{"name":"Wiesenstr.","postalCode":"46499","locality":"Hamminkeln","municipality":{"key":"05170012","name":"Hamminkeln, Stadt","type":"Stadt"},"district":{"key":"05170","name":"Wesel","type":"Kreis"},"federalState":{"key":"05","name":"Nordrhein-Westfalen"}},{"name":"Windmühlenweg","postalCode":"46499","locality":"Hamminkeln","municipality":{"key":"05170012","name":"Hamminkeln, Stadt","type":"Stadt"},"district":{"key":"05170","name":"Wesel","type":"Kreis"},"federalState":{"key":"05","name":"Nordrhein-Westfalen"}},{"name":"Wittenhorster Weg","postalCode":"46499","locality":"Hamminkeln","municipality":{"key":"05170012","name":"Hamminkeln, Stadt","type":"Stadt"},"district":{"key":"05170","name":"Wesel","type":"Kreis"},"federalState":{"key":"05","name":"Nordrhein-Westfalen"}},{"name":"Wolfsdeich","postalCode":"46499","locality":"Hamminkeln","municipality":{"key":"05170012","name":"Hamminkeln, Stadt","type":"Stadt"},"district":{"key":"05170","name":"Wesel","type":"Kreis"},"federalState":{"key":"05","name":"Nordrhein-Westfalen"}},{"name":"Wüsterweg","postalCode":"46499","locality":"Hamminkeln","municipality":{"key":"05170012","name":"Hamminkeln, Stadt","type":"Stadt"},"district":{"key":"05170","name":"Wesel","type":"Kreis"},"federalState":{"key":"05","name":"Nordrhein-Westfalen"}},{"name":"Xantener Str.","postalCode":"46487","locality":"Wesel","municipality":{"key":"05170048","name":"Wesel, Stadt","type":"Stadt"},"district":{"key":"05170","name":"Wesel","type":"Kreis"},"federalState":{"key":"05","name":"Nordrhein-Westfalen"}},{"name":"Yorckstr.","postalCode":"46485","locality":"Wesel","municipality":{"key":"05170048","name":"Wesel, Stadt","type":"Stadt"},"district":{"key":"05170","name":"Wesel","type":"Kreis"},"federalState":{"key":"05","name":"Nordrhein-Westfalen"}},{"name":"Zingelstr.","postalCode":"46499","locality":"Hamminkeln","municipality":{"key":"05170012","name":"Hamminkeln, Stadt","type":"Stadt"},"district":{"key":"05170","name":"Wesel","type":"Kreis"},"federalState":{"key":"05","name":"Nordrhein-Westfalen"}},{"name":"Zum Schießstand","postalCode":"46499","locality":"Hamminkeln","municipality":{"key":"05170012","name":"Hamminkeln, Stadt","type":"Stadt"},"district":{"key":"05170","name":"Wesel","type":"Kreis"},"federalState":{"key":"05","name":"Nordrhein-Westfalen"}},{"name":"Zum Schnellenhof","postalCode":"46499","locality":"Hamminkeln","municipality":{"key":"05170012","name":"Hamminkeln, Stadt","type":"Stadt"},"district":{"key":"05170","name":"Wesel","type":"Kreis"},"federalState":{"key":"05","name":"Nordrhein-Westfalen"}},{"name":"Zum Tollberg","postalCode":"46499","locality":"Hamminkeln","municipality":{"key":"05170012","name":"Hamminkeln, Stadt","type":"Stadt"},"district":{"key":"05170","name":"Wesel","type":"Kreis"},"federalState":{"key":"05","name":"Nordrhein-Westfalen"}},{"name":"Zum Uhlenberg","postalCode":"46499","locality":"Hamminkeln","municipality":{"key":"05170012","name":"Hamminkeln, Stadt","type":"Stadt"},"district":{"key":"05170","name":"Wesel","type":"Kreis"},"federalState":{"key":"05","name":"Nordrhein-Westfalen"}},{"name":"Zum Venn","postalCode":"46499","locality":"Hamminkeln","municipality":{"key":"05170012","name":"Hamminkeln, Stadt","type":"Stadt"},"district":{"key":"05170","name":"Wesel","type":"Kreis"},"federalState":{"key":"05","name":"Nordrhein-Westfalen"}},{"name":"Zum Voshövel","postalCode":"46499","locality":"Hamminkeln","municipality":{"key":"05170012","name":"Hamminkeln, Stadt","type":"Stadt"},"district":{"key":"05170","name":"Wesel","type":"Kreis"},"federalState":{"key":"05","name":"Nordrhein-Westfalen"}},{"name":"Zum Weißenstein","postalCode":"46499","locality":"Hamminkeln","municipality":{"key":"05170012","name":"Hamminkeln, Stadt","type":"Stadt"},"district":{"key":"05170","name":"Wesel","type":"Kreis"},"federalState":{"key":"05","name":"Nordrhein-Westfalen"}},{"name":"Zur Alten Schule","postalCode":"46499","locality":"Hamminkeln","municipality":{"key":"05170012","name":"Hamminkeln, Stadt","type":"Stadt"},"district":{"key":"05170","name":"Wesel","type":"Kreis"},"federalState":{"key":"05","name":"Nordrhein-Westfalen"}},{"name":"Zur Hohen Heide","postalCode":"46499","locality":"Hamminkeln","municipality":{"key":"05170012","name":"Hamminkeln, Stadt","type":"Stadt"},"district":{"key":"05170","name":"Wesel","type":"Kreis"},"federalState":{"key":"05","name":"Nordrhein-Westfalen"}},]