[{"key":"10076831","name":"Allée du Château","postalCode":"1436","locality":"Chamblon","commune":{"key":"5904","name":"Chamblon","shortName":"Chamblon"},"district":{"key":"2224","name":"District du Jura-Nord vaudois"},"canton":{"key":"22","code":"VD","name":"Vaud"},"status":"Real"},{"key":"10138965","name":"Chemin de la Meunière","postalCode":"1436","locality":"Chamblon","commune":{"key":"5904","name":"Chamblon","shortName":"Chamblon"},"district":{"key":"2224","name":"District du Jura-Nord vaudois"},"canton":{"key":"22","code":"VD","name":"Vaud"},"status":"Real"},{"key":"10071855","name":"Chemin Derrière la Ville","postalCode":"1436","locality":"Chamblon","commune":{"key":"5904","name":"Chamblon","shortName":"Chamblon"},"district":{"key":"2224","name":"District du Jura-Nord vaudois"},"canton":{"key":"22","code":"VD","name":"Vaud"},"status":"Real"},{"key":"10145804","name":"Chemin du Pérou","postalCode":"1436","locality":"Chamblon","commune":{"key":"5904","name":"Chamblon","shortName":"Chamblon"},"district":{"key":"2224","name":"District du Jura-Nord vaudois"},"canton":{"key":"22","code":"VD","name":"Vaud"},"status":"Real"},{"key":"10139773","name":"Chemin du Ruz","postalCode":"1436","locality":"Chamblon","commune":{"key":"5904","name":"Chamblon","shortName":"Chamblon"},"district":{"key":"2224","name":"District du Jura-Nord vaudois"},"canton":{"key":"22","code":"VD","name":"Vaud"},"status":"Real"},{"key":"10049125","name":"Route des Casernes","postalCode":"1436","locality":"Chamblon","commune":{"key":"5904","name":"Chamblon","shortName":"Chamblon"},"district":{"key":"2224","name":"District du Jura-Nord vaudois"},"canton":{"key":"22","code":"VD","name":"Vaud"},"status":"Real"},{"key":"10145803","name":"Rue de l'Hôpital","postalCode":"1436","locality":"Chamblon","commune":{"key":"5904","name":"Chamblon","shortName":"Chamblon"},"district":{"key":"2224","name":"District du Jura-Nord vaudois"},"canton":{"key":"22","code":"VD","name":"Vaud"},"status":"Real"},{"key":"10132482","name":"Rue des Chandelènes","postalCode":"1436","locality":"Chamblon","commune":{"key":"5904","name":"Chamblon","shortName":"Chamblon"},"district":{"key":"2224","name":"District du Jura-Nord vaudois"},"canton":{"key":"22","code":"VD","name":"Vaud"},"status":"Real"},{"key":"10076832","name":"Rue des Grandes Vignes","postalCode":"1436","locality":"Chamblon","commune":{"key":"5904","name":"Chamblon","shortName":"Chamblon"},"district":{"key":"2224","name":"District du Jura-Nord vaudois"},"canton":{"key":"22","code":"VD","name":"Vaud"},"status":"Real"},{"key":"10098022","name":"Rue des Uttins","postalCode":"1436","locality":"Chamblon","commune":{"key":"5904","name":"Chamblon","shortName":"Chamblon"},"district":{"key":"2224","name":"District du Jura-Nord vaudois"},"canton":{"key":"22","code":"VD","name":"Vaud"},"status":"Real"},{"key":"10049124","name":"Rue du Cossaux","postalCode":"1436","locality":"Chamblon","commune":{"key":"5904","name":"Chamblon","shortName":"Chamblon"},"district":{"key":"2224","name":"District du Jura-Nord vaudois"},"canton":{"key":"22","code":"VD","name":"Vaud"},"status":"Real"},{"key":"10106290","name":"Rue du Village","postalCode":"1436","locality":"Chamblon","commune":{"key":"5904","name":"Chamblon","shortName":"Chamblon"},"district":{"key":"2224","name":"District du Jura-Nord vaudois"},"canton":{"key":"22","code":"VD","name":"Vaud"},"status":"Real"},{"key":"10049123","name":"Rue En Chemon","postalCode":"1436","locality":"Chamblon","commune":{"key":"5904","name":"Chamblon","shortName":"Chamblon"},"district":{"key":"2224","name":"District du Jura-Nord vaudois"},"canton":{"key":"22","code":"VD","name":"Vaud"},"status":"Real"},{"key":"10215078","name":"Rue En Cherin","postalCode":"1436","locality":"Chamblon","commune":{"key":"5904","name":"Chamblon","shortName":"Chamblon"},"district":{"key":"2224","name":"District du Jura-Nord vaudois"},"canton":{"key":"22","code":"VD","name":"Vaud"},"status":"Real"},{"key":"10189304","name":"Rue En Fouet","postalCode":"1436","locality":"Chamblon","commune":{"key":"5904","name":"Chamblon","shortName":"Chamblon"},"district":{"key":"2224","name":"District du Jura-Nord vaudois"},"canton":{"key":"22","code":"VD","name":"Vaud"},"status":"Real"},{"key":"10185760","name":"Rue Es Perreyres","postalCode":"1436","locality":"Chamblon","commune":{"key":"5904","name":"Chamblon","shortName":"Chamblon"},"district":{"key":"2224","name":"District du Jura-Nord vaudois"},"canton":{"key":"22","code":"VD","name":"Vaud"},"status":"Real"},{"key":"10098023","name":"Rue Sous le Pavillon","postalCode":"1436","locality":"Chamblon","commune":{"key":"5904","name":"Chamblon","shortName":"Chamblon"},"district":{"key":"2224","name":"District du Jura-Nord vaudois"},"canton":{"key":"22","code":"VD","name":"Vaud"},"status":"Real"},]