[{"key":"10012033","name":"Aareweg","postalCode":"2557","locality":"Studen BE","commune":{"key":"749","name":"Studen (BE)","shortName":"Studen (BE)"},"district":{"key":"243","name":"Verwaltungskreis Seeland"},"canton":{"key":"2","code":"BE","name":"Bern / Berne"},"status":"Real"},{"key":"10128987","name":"Aegertenstrasse","postalCode":"2557","locality":"Studen BE","commune":{"key":"749","name":"Studen (BE)","shortName":"Studen (BE)"},"district":{"key":"243","name":"Verwaltungskreis Seeland"},"canton":{"key":"2","code":"BE","name":"Bern / Berne"},"status":"Real"},{"key":"10217633","name":"Ahornplatz","postalCode":"2557","locality":"Studen BE","commune":{"key":"749","name":"Studen (BE)","shortName":"Studen (BE)"},"district":{"key":"243","name":"Verwaltungskreis Seeland"},"canton":{"key":"2","code":"BE","name":"Bern / Berne"},"status":"Real"},{"key":"10120439","name":"Amselweg","postalCode":"2557","locality":"Studen BE","commune":{"key":"749","name":"Studen (BE)","shortName":"Studen (BE)"},"district":{"key":"243","name":"Verwaltungskreis Seeland"},"canton":{"key":"2","code":"BE","name":"Bern / Berne"},"status":"Real"},{"key":"10217637","name":"Bachweg","postalCode":"2557","locality":"Studen BE","commune":{"key":"749","name":"Studen (BE)","shortName":"Studen (BE)"},"district":{"key":"243","name":"Verwaltungskreis Seeland"},"canton":{"key":"2","code":"BE","name":"Bern / Berne"},"status":"Real"},{"key":"10112510","name":"Bahnweg","postalCode":"2557","locality":"Studen BE","commune":{"key":"749","name":"Studen (BE)","shortName":"Studen (BE)"},"district":{"key":"243","name":"Verwaltungskreis Seeland"},"canton":{"key":"2","code":"BE","name":"Bern / Berne"},"status":"Real"},{"key":"10104756","name":"Birkenweg","postalCode":"2557","locality":"Studen BE","commune":{"key":"749","name":"Studen (BE)","shortName":"Studen (BE)"},"district":{"key":"243","name":"Verwaltungskreis Seeland"},"canton":{"key":"2","code":"BE","name":"Bern / Berne"},"status":"Real"},{"key":"10217641","name":"Brüggliweg","postalCode":"2557","locality":"Studen BE","commune":{"key":"749","name":"Studen (BE)","shortName":"Studen (BE)"},"district":{"key":"243","name":"Verwaltungskreis Seeland"},"canton":{"key":"2","code":"BE","name":"Bern / Berne"},"status":"Real"},{"key":"10251467","name":"Büetigenstrasse","postalCode":"2557","locality":"Studen BE","commune":{"key":"749","name":"Studen (BE)","shortName":"Studen (BE)"},"district":{"key":"243","name":"Verwaltungskreis Seeland"},"canton":{"key":"2","code":"BE","name":"Bern / Berne"},"status":"Real"},{"key":"10012035","name":"Büetigenstrasse","postalCode":"2557","locality":"Studen BE","commune":{"key":"749","name":"Studen (BE)","shortName":"Studen (BE)"},"district":{"key":"243","name":"Verwaltungskreis Seeland"},"canton":{"key":"2","code":"BE","name":"Bern / Berne"},"status":"Real"},{"key":"10012034","name":"Burgerweg","postalCode":"2557","locality":"Studen BE","commune":{"key":"749","name":"Studen (BE)","shortName":"Studen (BE)"},"district":{"key":"243","name":"Verwaltungskreis Seeland"},"canton":{"key":"2","code":"BE","name":"Bern / Berne"},"status":"Real"},{"key":"10218617","name":"Dählenweg","postalCode":"2557","locality":"Studen BE","commune":{"key":"749","name":"Studen (BE)","shortName":"Studen (BE)"},"district":{"key":"243","name":"Verwaltungskreis Seeland"},"canton":{"key":"2","code":"BE","name":"Bern / Berne"},"status":"Real"},{"key":"10086399","name":"Dammweg","postalCode":"2557","locality":"Studen BE","commune":{"key":"749","name":"Studen (BE)","shortName":"Studen (BE)"},"district":{"key":"243","name":"Verwaltungskreis Seeland"},"canton":{"key":"2","code":"BE","name":"Bern / Berne"},"status":"Real"},{"key":"10217649","name":"Dorfplatz","postalCode":"2557","locality":"Studen BE","commune":{"key":"749","name":"Studen (BE)","shortName":"Studen (BE)"},"district":{"key":"243","name":"Verwaltungskreis Seeland"},"canton":{"key":"2","code":"BE","name":"Bern / Berne"},"status":"Real"},{"key":"10219400","name":"Erlenplatz","postalCode":"2557","locality":"Studen BE","commune":{"key":"749","name":"Studen (BE)","shortName":"Studen (BE)"},"district":{"key":"243","name":"Verwaltungskreis Seeland"},"canton":{"key":"2","code":"BE","name":"Bern / Berne"},"status":"Real"},{"key":"10062445","name":"Finkenweg","postalCode":"2557","locality":"Studen BE","commune":{"key":"749","name":"Studen (BE)","shortName":"Studen (BE)"},"district":{"key":"243","name":"Verwaltungskreis Seeland"},"canton":{"key":"2","code":"BE","name":"Bern / Berne"},"status":"Real"},{"key":"10012036","name":"Fliederweg","postalCode":"2557","locality":"Studen BE","commune":{"key":"749","name":"Studen (BE)","shortName":"Studen (BE)"},"district":{"key":"243","name":"Verwaltungskreis Seeland"},"canton":{"key":"2","code":"BE","name":"Bern / Berne"},"status":"Real"},{"key":"10219403","name":"Flurweg","postalCode":"2557","locality":"Studen BE","commune":{"key":"749","name":"Studen (BE)","shortName":"Studen (BE)"},"district":{"key":"243","name":"Verwaltungskreis Seeland"},"canton":{"key":"2","code":"BE","name":"Bern / Berne"},"status":"Real"},{"key":"10219409","name":"Forellenweg","postalCode":"2557","locality":"Studen BE","commune":{"key":"749","name":"Studen (BE)","shortName":"Studen (BE)"},"district":{"key":"243","name":"Verwaltungskreis Seeland"},"canton":{"key":"2","code":"BE","name":"Bern / Berne"},"status":"Real"},{"key":"10012037","name":"Gassackerweg","postalCode":"2557","locality":"Studen BE","commune":{"key":"749","name":"Studen (BE)","shortName":"Studen (BE)"},"district":{"key":"243","name":"Verwaltungskreis Seeland"},"canton":{"key":"2","code":"BE","name":"Bern / Berne"},"status":"Real"},{"key":"10147360","name":"Gewerbestrasse","postalCode":"2557","locality":"Studen BE","commune":{"key":"749","name":"Studen (BE)","shortName":"Studen (BE)"},"district":{"key":"243","name":"Verwaltungskreis Seeland"},"canton":{"key":"2","code":"BE","name":"Bern / Berne"},"status":"Real"},{"key":"10086400","name":"Giessenweg","postalCode":"2557","locality":"Studen BE","commune":{"key":"749","name":"Studen (BE)","shortName":"Studen (BE)"},"district":{"key":"243","name":"Verwaltungskreis Seeland"},"canton":{"key":"2","code":"BE","name":"Bern / Berne"},"status":"Real"},{"key":"10012038","name":"Gouchertweg","postalCode":"2557","locality":"Studen BE","commune":{"key":"749","name":"Studen (BE)","shortName":"Studen (BE)"},"district":{"key":"243","name":"Verwaltungskreis Seeland"},"canton":{"key":"2","code":"BE","name":"Bern / Berne"},"status":"Real"},{"key":"10062446","name":"Grabenstrasse","postalCode":"2557","locality":"Studen BE","commune":{"key":"749","name":"Studen (BE)","shortName":"Studen (BE)"},"district":{"key":"243","name":"Verwaltungskreis Seeland"},"canton":{"key":"2","code":"BE","name":"Bern / Berne"},"status":"Real"},{"key":"10112511","name":"Grienweg","postalCode":"2557","locality":"Studen BE","commune":{"key":"749","name":"Studen (BE)","shortName":"Studen (BE)"},"district":{"key":"243","name":"Verwaltungskreis Seeland"},"canton":{"key":"2","code":"BE","name":"Bern / Berne"},"status":"Real"},{"key":"10012039","name":"Grünweg","postalCode":"2557","locality":"Studen BE","commune":{"key":"749","name":"Studen (BE)","shortName":"Studen (BE)"},"district":{"key":"243","name":"Verwaltungskreis Seeland"},"canton":{"key":"2","code":"BE","name":"Bern / Berne"},"status":"Real"},{"key":"10086401","name":"Hauptstrasse","postalCode":"2557","locality":"Studen BE","commune":{"key":"749","name":"Studen (BE)","shortName":"Studen (BE)"},"district":{"key":"243","name":"Verwaltungskreis Seeland"},"canton":{"key":"2","code":"BE","name":"Bern / Berne"},"status":"Real"},{"key":"10219411","name":"Herrenacher","postalCode":"2557","locality":"Studen BE","commune":{"key":"749","name":"Studen (BE)","shortName":"Studen (BE)"},"district":{"key":"243","name":"Verwaltungskreis Seeland"},"canton":{"key":"2","code":"BE","name":"Bern / Berne"},"status":"Real"},{"key":"10192261","name":"Heuiweg","postalCode":"2557","locality":"Studen BE","commune":{"key":"749","name":"Studen (BE)","shortName":"Studen (BE)"},"district":{"key":"243","name":"Verwaltungskreis Seeland"},"canton":{"key":"2","code":"BE","name":"Bern / Berne"},"status":"Real"},{"key":"10012040","name":"Hornusserweg","postalCode":"2557","locality":"Studen BE","commune":{"key":"749","name":"Studen (BE)","shortName":"Studen (BE)"},"district":{"key":"243","name":"Verwaltungskreis Seeland"},"canton":{"key":"2","code":"BE","name":"Bern / Berne"},"status":"Real"},{"key":"10180449","name":"Hurnimattweg","postalCode":"2557","locality":"Studen BE","commune":{"key":"749","name":"Studen (BE)","shortName":"Studen (BE)"},"district":{"key":"243","name":"Verwaltungskreis Seeland"},"canton":{"key":"2","code":"BE","name":"Bern / Berne"},"status":"Real"},{"key":"10010310","name":"Industriestrasse","postalCode":"2557","locality":"Studen BE","commune":{"key":"749","name":"Studen (BE)","shortName":"Studen (BE)"},"district":{"key":"243","name":"Verwaltungskreis Seeland"},"canton":{"key":"2","code":"BE","name":"Bern / Berne"},"status":"Real"},{"key":"10219417","name":"Jägerweg","postalCode":"2557","locality":"Studen BE","commune":{"key":"749","name":"Studen (BE)","shortName":"Studen (BE)"},"district":{"key":"243","name":"Verwaltungskreis Seeland"},"canton":{"key":"2","code":"BE","name":"Bern / Berne"},"status":"Real"},{"key":"10086402","name":"Jensstrasse","postalCode":"2557","locality":"Studen BE","commune":{"key":"749","name":"Studen (BE)","shortName":"Studen (BE)"},"district":{"key":"243","name":"Verwaltungskreis Seeland"},"canton":{"key":"2","code":"BE","name":"Bern / Berne"},"status":"Real"},{"key":"10109872","name":"Kanarienweg","postalCode":"2557","locality":"Studen BE","commune":{"key":"749","name":"Studen (BE)","shortName":"Studen (BE)"},"district":{"key":"243","name":"Verwaltungskreis Seeland"},"canton":{"key":"2","code":"BE","name":"Bern / Berne"},"status":"Real"},{"key":"10217673","name":"Keltenplatz","postalCode":"2557","locality":"Studen BE","commune":{"key":"749","name":"Studen (BE)","shortName":"Studen (BE)"},"district":{"key":"243","name":"Verwaltungskreis Seeland"},"canton":{"key":"2","code":"BE","name":"Bern / Berne"},"status":"Real"},{"key":"10010311","name":"Keltenweg","postalCode":"2557","locality":"Studen BE","commune":{"key":"749","name":"Studen (BE)","shortName":"Studen (BE)"},"district":{"key":"243","name":"Verwaltungskreis Seeland"},"canton":{"key":"2","code":"BE","name":"Bern / Berne"},"status":"Real"},{"key":"10062447","name":"Kirchweg","postalCode":"2557","locality":"Studen BE","commune":{"key":"749","name":"Studen (BE)","shortName":"Studen (BE)"},"district":{"key":"243","name":"Verwaltungskreis Seeland"},"canton":{"key":"2","code":"BE","name":"Bern / Berne"},"status":"Real"},{"key":"10112512","name":"Längackerweg","postalCode":"2557","locality":"Studen BE","commune":{"key":"749","name":"Studen (BE)","shortName":"Studen (BE)"},"district":{"key":"243","name":"Verwaltungskreis Seeland"},"canton":{"key":"2","code":"BE","name":"Bern / Berne"},"status":"Real"},{"key":"10010312","name":"Lerchenweg","postalCode":"2557","locality":"Studen BE","commune":{"key":"749","name":"Studen (BE)","shortName":"Studen (BE)"},"district":{"key":"243","name":"Verwaltungskreis Seeland"},"canton":{"key":"2","code":"BE","name":"Bern / Berne"},"status":"Real"},{"key":"10086678","name":"Lindenweg","postalCode":"2557","locality":"Studen BE","commune":{"key":"749","name":"Studen (BE)","shortName":"Studen (BE)"},"district":{"key":"243","name":"Verwaltungskreis Seeland"},"canton":{"key":"2","code":"BE","name":"Bern / Berne"},"status":"Real"},{"key":"10217677","name":"Lischenweg","postalCode":"2557","locality":"Studen BE","commune":{"key":"749","name":"Studen (BE)","shortName":"Studen (BE)"},"district":{"key":"243","name":"Verwaltungskreis Seeland"},"canton":{"key":"2","code":"BE","name":"Bern / Berne"},"status":"Real"},{"key":"10010313","name":"Mattenweg","postalCode":"2557","locality":"Studen BE","commune":{"key":"749","name":"Studen (BE)","shortName":"Studen (BE)"},"district":{"key":"243","name":"Verwaltungskreis Seeland"},"canton":{"key":"2","code":"BE","name":"Bern / Berne"},"status":"Real"},{"key":"10217681","name":"Meienriedwäldliweg","postalCode":"2557","locality":"Studen BE","commune":{"key":"749","name":"Studen (BE)","shortName":"Studen (BE)"},"district":{"key":"243","name":"Verwaltungskreis Seeland"},"canton":{"key":"2","code":"BE","name":"Bern / Berne"},"status":"Real"},{"key":"10104757","name":"Meisenweg","postalCode":"2557","locality":"Studen BE","commune":{"key":"749","name":"Studen (BE)","shortName":"Studen (BE)"},"district":{"key":"243","name":"Verwaltungskreis Seeland"},"canton":{"key":"2","code":"BE","name":"Bern / Berne"},"status":"Real"},{"key":"10010314","name":"Parkfeldweg","postalCode":"2557","locality":"Studen BE","commune":{"key":"749","name":"Studen (BE)","shortName":"Studen (BE)"},"district":{"key":"243","name":"Verwaltungskreis Seeland"},"canton":{"key":"2","code":"BE","name":"Bern / Berne"},"status":"Real"},{"key":"10217685","name":"Petinescaplatz","postalCode":"2557","locality":"Studen BE","commune":{"key":"749","name":"Studen (BE)","shortName":"Studen (BE)"},"district":{"key":"243","name":"Verwaltungskreis Seeland"},"canton":{"key":"2","code":"BE","name":"Bern / Berne"},"status":"Real"},{"key":"10086679","name":"Petinescastrasse","postalCode":"2557","locality":"Studen BE","commune":{"key":"749","name":"Studen (BE)","shortName":"Studen (BE)"},"district":{"key":"243","name":"Verwaltungskreis Seeland"},"canton":{"key":"2","code":"BE","name":"Bern / Berne"},"status":"Real"},{"key":"10010315","name":"Querweg","postalCode":"2557","locality":"Studen BE","commune":{"key":"749","name":"Studen (BE)","shortName":"Studen (BE)"},"district":{"key":"243","name":"Verwaltungskreis Seeland"},"canton":{"key":"2","code":"BE","name":"Bern / Berne"},"status":"Real"},{"key":"10010316","name":"Rebenweg","postalCode":"2557","locality":"Studen BE","commune":{"key":"749","name":"Studen (BE)","shortName":"Studen (BE)"},"district":{"key":"243","name":"Verwaltungskreis Seeland"},"canton":{"key":"2","code":"BE","name":"Bern / Berne"},"status":"Real"},{"key":"10217689","name":"Riedweg","postalCode":"2557","locality":"Studen BE","commune":{"key":"749","name":"Studen (BE)","shortName":"Studen (BE)"},"district":{"key":"243","name":"Verwaltungskreis Seeland"},"canton":{"key":"2","code":"BE","name":"Bern / Berne"},"status":"Real"},{"key":"10217693","name":"Ringstrasse","postalCode":"2557","locality":"Studen BE","commune":{"key":"749","name":"Studen (BE)","shortName":"Studen (BE)"},"district":{"key":"243","name":"Verwaltungskreis Seeland"},"canton":{"key":"2","code":"BE","name":"Bern / Berne"},"status":"Real"},{"key":"10102737","name":"Römerweg","postalCode":"2557","locality":"Studen BE","commune":{"key":"749","name":"Studen (BE)","shortName":"Studen (BE)"},"district":{"key":"243","name":"Verwaltungskreis Seeland"},"canton":{"key":"2","code":"BE","name":"Bern / Berne"},"status":"Real"},{"key":"10187139","name":"Sägeweg","postalCode":"2557","locality":"Studen BE","commune":{"key":"749","name":"Studen (BE)","shortName":"Studen (BE)"},"district":{"key":"243","name":"Verwaltungskreis Seeland"},"canton":{"key":"2","code":"BE","name":"Bern / Berne"},"status":"Real"},{"key":"10062448","name":"Schaftenholzweg","postalCode":"2557","locality":"Studen BE","commune":{"key":"749","name":"Studen (BE)","shortName":"Studen (BE)"},"district":{"key":"243","name":"Verwaltungskreis Seeland"},"canton":{"key":"2","code":"BE","name":"Bern / Berne"},"status":"Real"},{"key":"10217697","name":"Schulstrasse","postalCode":"2557","locality":"Studen BE","commune":{"key":"749","name":"Studen (BE)","shortName":"Studen (BE)"},"district":{"key":"243","name":"Verwaltungskreis Seeland"},"canton":{"key":"2","code":"BE","name":"Bern / Berne"},"status":"Real"},{"key":"10192262","name":"Schwadernaustrasse","postalCode":"2557","locality":"Studen BE","commune":{"key":"749","name":"Studen (BE)","shortName":"Studen (BE)"},"district":{"key":"243","name":"Verwaltungskreis Seeland"},"canton":{"key":"2","code":"BE","name":"Bern / Berne"},"status":"Real"},{"key":"10219516","name":"Schwalbenweg","postalCode":"2557","locality":"Studen BE","commune":{"key":"749","name":"Studen (BE)","shortName":"Studen (BE)"},"district":{"key":"243","name":"Verwaltungskreis Seeland"},"canton":{"key":"2","code":"BE","name":"Bern / Berne"},"status":"Real"},{"key":"10178356","name":"Seilerweg","postalCode":"2557","locality":"Studen BE","commune":{"key":"749","name":"Studen (BE)","shortName":"Studen (BE)"},"district":{"key":"243","name":"Verwaltungskreis Seeland"},"canton":{"key":"2","code":"BE","name":"Bern / Berne"},"status":"Real"},{"key":"10086680","name":"Sportfeldweg","postalCode":"2557","locality":"Studen BE","commune":{"key":"749","name":"Studen (BE)","shortName":"Studen (BE)"},"district":{"key":"243","name":"Verwaltungskreis Seeland"},"canton":{"key":"2","code":"BE","name":"Bern / Berne"},"status":"Real"},{"key":"10010317","name":"Stockweg","postalCode":"2557","locality":"Studen BE","commune":{"key":"749","name":"Studen (BE)","shortName":"Studen (BE)"},"district":{"key":"243","name":"Verwaltungskreis Seeland"},"canton":{"key":"2","code":"BE","name":"Bern / Berne"},"status":"Real"},{"key":"10112513","name":"Tannenweg","postalCode":"2557","locality":"Studen BE","commune":{"key":"749","name":"Studen (BE)","shortName":"Studen (BE)"},"district":{"key":"243","name":"Verwaltungskreis Seeland"},"canton":{"key":"2","code":"BE","name":"Bern / Berne"},"status":"Real"},{"key":"10050867","name":"Tulpenweg","postalCode":"2557","locality":"Studen BE","commune":{"key":"749","name":"Studen (BE)","shortName":"Studen (BE)"},"district":{"key":"243","name":"Verwaltungskreis Seeland"},"canton":{"key":"2","code":"BE","name":"Bern / Berne"},"status":"Real"},{"key":"10010318","name":"Worbenstrasse","postalCode":"2557","locality":"Studen BE","commune":{"key":"749","name":"Studen (BE)","shortName":"Studen (BE)"},"district":{"key":"243","name":"Verwaltungskreis Seeland"},"canton":{"key":"2","code":"BE","name":"Bern / Berne"},"status":"Real"},{"key":"10062449","name":"Wydengasse","postalCode":"2557","locality":"Studen BE","commune":{"key":"749","name":"Studen (BE)","shortName":"Studen (BE)"},"district":{"key":"243","name":"Verwaltungskreis Seeland"},"canton":{"key":"2","code":"BE","name":"Bern / Berne"},"status":"Real"},{"key":"10147600","name":"Wydenpark","postalCode":"2557","locality":"Studen BE","commune":{"key":"749","name":"Studen (BE)","shortName":"Studen (BE)"},"district":{"key":"243","name":"Verwaltungskreis Seeland"},"canton":{"key":"2","code":"BE","name":"Bern / Berne"},"status":"Real"},{"key":"10217705","name":"Wydenplatz","postalCode":"2557","locality":"Studen BE","commune":{"key":"749","name":"Studen (BE)","shortName":"Studen (BE)"},"district":{"key":"243","name":"Verwaltungskreis Seeland"},"canton":{"key":"2","code":"BE","name":"Bern / Berne"},"status":"Real"},{"key":"10219527","name":"Zihlplatz","postalCode":"2557","locality":"Studen BE","commune":{"key":"749","name":"Studen (BE)","shortName":"Studen (BE)"},"district":{"key":"243","name":"Verwaltungskreis Seeland"},"canton":{"key":"2","code":"BE","name":"Bern / Berne"},"status":"Real"},{"key":"10050868","name":"Zihlweg","postalCode":"2557","locality":"Studen BE","commune":{"key":"749","name":"Studen (BE)","shortName":"Studen (BE)"},"district":{"key":"243","name":"Verwaltungskreis Seeland"},"canton":{"key":"2","code":"BE","name":"Bern / Berne"},"status":"Real"},]