[{"key":"10239264","name":"A1","postalCode":"5430","locality":"Wettingen","commune":{"key":"4045","name":"Wettingen","shortName":"Wettingen"},"district":{"key":"1902","name":"Bezirk Baden"},"canton":{"key":"19","code":"AG","name":"Aargau"},"status":"Real"},{"key":"10239508","name":"A1","postalCode":"5430","locality":"Wettingen","commune":{"key":"4045","name":"Wettingen","shortName":"Wettingen"},"district":{"key":"1902","name":"Bezirk Baden"},"canton":{"key":"19","code":"AG","name":"Aargau"},"status":"Real"},{"key":"10035128","name":"Ackerstrasse","postalCode":"5430","locality":"Wettingen","commune":{"key":"4045","name":"Wettingen","shortName":"Wettingen"},"district":{"key":"1902","name":"Bezirk Baden"},"canton":{"key":"19","code":"AG","name":"Aargau"},"status":"Real"},{"key":"10101599","name":"Aehrenweg","postalCode":"5430","locality":"Wettingen","commune":{"key":"4045","name":"Wettingen","shortName":"Wettingen"},"district":{"key":"1902","name":"Bezirk Baden"},"canton":{"key":"19","code":"AG","name":"Aargau"},"status":"Real"},{"key":"10143514","name":"Aeschbrünneliweg","postalCode":"4107","locality":"Ettingen","commune":{"key":"2768","name":"Ettingen","shortName":"Ettingen"},"district":{"key":"1301","name":"Bezirk Arlesheim"},"canton":{"key":"13","code":"BL","name":"Basel-Landschaft"},"status":"Real"},{"key":"10121043","name":"Aeschstrasse","postalCode":"4107","locality":"Ettingen","commune":{"key":"2768","name":"Ettingen","shortName":"Ettingen"},"district":{"key":"1301","name":"Bezirk Arlesheim"},"canton":{"key":"13","code":"BL","name":"Basel-Landschaft"},"status":"Real"},{"key":"10091669","name":"Aeschstrasse","postalCode":"5430","locality":"Wettingen","commune":{"key":"4045","name":"Wettingen","shortName":"Wettingen"},"district":{"key":"1902","name":"Bezirk Baden"},"canton":{"key":"19","code":"AG","name":"Aargau"},"status":"Real"},{"key":"10239268","name":"Affenbrünneliweg","postalCode":"5430","locality":"Wettingen","commune":{"key":"4045","name":"Wettingen","shortName":"Wettingen"},"district":{"key":"1902","name":"Bezirk Baden"},"canton":{"key":"19","code":"AG","name":"Aargau"},"status":"Real"},{"key":"10035129","name":"Ahornweg","postalCode":"5430","locality":"Wettingen","commune":{"key":"4045","name":"Wettingen","shortName":"Wettingen"},"district":{"key":"1902","name":"Bezirk Baden"},"canton":{"key":"19","code":"AG","name":"Aargau"},"status":"Real"},{"key":"10111422","name":"Albertstrasse","postalCode":"5430","locality":"Wettingen","commune":{"key":"4045","name":"Wettingen","shortName":"Wettingen"},"district":{"key":"1902","name":"Bezirk Baden"},"canton":{"key":"19","code":"AG","name":"Aargau"},"status":"Real"},{"key":"10070841","name":"Albisstrasse","postalCode":"5430","locality":"Wettingen","commune":{"key":"4045","name":"Wettingen","shortName":"Wettingen"},"district":{"key":"1902","name":"Bezirk Baden"},"canton":{"key":"19","code":"AG","name":"Aargau"},"status":"Real"},{"key":"10052455","name":"Alb. Zwyssigstrasse","postalCode":"5430","locality":"Wettingen","commune":{"key":"4045","name":"Wettingen","shortName":"Wettingen"},"district":{"key":"1902","name":"Bezirk Baden"},"canton":{"key":"19","code":"AG","name":"Aargau"},"status":"Real"},{"key":"10035130","name":"Alpenstrasse","postalCode":"5430","locality":"Wettingen","commune":{"key":"4045","name":"Wettingen","shortName":"Wettingen"},"district":{"key":"1902","name":"Bezirk Baden"},"canton":{"key":"19","code":"AG","name":"Aargau"},"status":"Real"},{"key":"10091670","name":"Altenburgstrasse","postalCode":"5430","locality":"Wettingen","commune":{"key":"4045","name":"Wettingen","shortName":"Wettingen"},"district":{"key":"1902","name":"Bezirk Baden"},"canton":{"key":"19","code":"AG","name":"Aargau"},"status":"Real"},{"key":"10143540","name":"Alter Plattenweg","postalCode":"4107","locality":"Ettingen","commune":{"key":"2768","name":"Ettingen","shortName":"Ettingen"},"district":{"key":"1301","name":"Bezirk Arlesheim"},"canton":{"key":"13","code":"BL","name":"Basel-Landschaft"},"status":"Real"},{"key":"10239272","name":"Alte Waldpartieweg","postalCode":"5430","locality":"Wettingen","commune":{"key":"4045","name":"Wettingen","shortName":"Wettingen"},"district":{"key":"1902","name":"Bezirk Baden"},"canton":{"key":"19","code":"AG","name":"Aargau"},"status":"Real"},{"key":"10035131","name":"Am Gottesgraben","postalCode":"5430","locality":"Wettingen","commune":{"key":"4045","name":"Wettingen","shortName":"Wettingen"},"district":{"key":"1902","name":"Bezirk Baden"},"canton":{"key":"19","code":"AG","name":"Aargau"},"status":"Real"},{"key":"10174835","name":"Amselfelsweg","postalCode":"4107","locality":"Ettingen","commune":{"key":"2768","name":"Ettingen","shortName":"Ettingen"},"district":{"key":"1301","name":"Bezirk Arlesheim"},"canton":{"key":"13","code":"BL","name":"Basel-Landschaft"},"status":"Real"},{"key":"10016394","name":"Amselhof","postalCode":"4107","locality":"Ettingen","commune":{"key":"2768","name":"Ettingen","shortName":"Ettingen"},"district":{"key":"1301","name":"Bezirk Arlesheim"},"canton":{"key":"13","code":"BL","name":"Basel-Landschaft"},"status":"Real"},{"key":"10222791","name":"An der Hand","postalCode":"4126","locality":"Bettingen","commune":{"key":"2702","name":"Bettingen","shortName":"Bettingen"},"district":{"key":"1200","name":"Kanton Basel-Stadt"},"canton":{"key":"12","code":"BS","name":"Basel-Stadt"},"status":"Real"},{"key":"10222794","name":"Anstaltsweg","postalCode":"4126","locality":"Bettingen","commune":{"key":"2702","name":"Bettingen","shortName":"Bettingen"},"district":{"key":"1200","name":"Kanton Basel-Stadt"},"canton":{"key":"12","code":"BS","name":"Basel-Stadt"},"status":"Real"},{"key":"10052456","name":"Antoniusstrasse","postalCode":"5430","locality":"Wettingen","commune":{"key":"4045","name":"Wettingen","shortName":"Wettingen"},"district":{"key":"1902","name":"Bezirk Baden"},"canton":{"key":"19","code":"AG","name":"Aargau"},"status":"Real"},{"key":"10035132","name":"Attenhoferstrasse","postalCode":"5430","locality":"Wettingen","commune":{"key":"4045","name":"Wettingen","shortName":"Wettingen"},"district":{"key":"1902","name":"Bezirk Baden"},"canton":{"key":"19","code":"AG","name":"Aargau"},"status":"Real"},{"key":"10239276","name":"Auffahrtsweg","postalCode":"5430","locality":"Wettingen","commune":{"key":"4045","name":"Wettingen","shortName":"Wettingen"},"district":{"key":"1902","name":"Bezirk Baden"},"canton":{"key":"19","code":"AG","name":"Aargau"},"status":"Real"},{"key":"10222798","name":"Ausserbergweg","postalCode":"4126","locality":"Bettingen","commune":{"key":"2702","name":"Bettingen","shortName":"Bettingen"},"district":{"key":"1200","name":"Kanton Basel-Stadt"},"canton":{"key":"12","code":"BS","name":"Basel-Stadt"},"status":"Real"},{"key":"10070842","name":"Austrasse","postalCode":"5430","locality":"Wettingen","commune":{"key":"4045","name":"Wettingen","shortName":"Wettingen"},"district":{"key":"1902","name":"Bezirk Baden"},"canton":{"key":"19","code":"AG","name":"Aargau"},"status":"Real"},{"key":"10215123","name":"Bacchusweg","postalCode":"4107","locality":"Ettingen","commune":{"key":"2768","name":"Ettingen","shortName":"Ettingen"},"district":{"key":"1301","name":"Bezirk Arlesheim"},"canton":{"key":"13","code":"BL","name":"Basel-Landschaft"},"status":"Real"},{"key":"10101600","name":"Bachstrasse","postalCode":"5430","locality":"Wettingen","commune":{"key":"4045","name":"Wettingen","shortName":"Wettingen"},"district":{"key":"1902","name":"Bezirk Baden"},"canton":{"key":"19","code":"AG","name":"Aargau"},"status":"Real"},{"key":"10091671","name":"Bachtelstrasse","postalCode":"5430","locality":"Wettingen","commune":{"key":"4045","name":"Wettingen","shortName":"Wettingen"},"district":{"key":"1902","name":"Bezirk Baden"},"canton":{"key":"19","code":"AG","name":"Aargau"},"status":"Real"},{"key":"10035137","name":"Bäckerstrasse","postalCode":"5430","locality":"Wettingen","commune":{"key":"4045","name":"Wettingen","shortName":"Wettingen"},"district":{"key":"1902","name":"Bezirk Baden"},"canton":{"key":"19","code":"AG","name":"Aargau"},"status":"Real"},{"key":"10035133","name":"Bahnhofstrasse","postalCode":"5430","locality":"Wettingen","commune":{"key":"4045","name":"Wettingen","shortName":"Wettingen"},"district":{"key":"1902","name":"Bezirk Baden"},"canton":{"key":"19","code":"AG","name":"Aargau"},"status":"Real"},{"key":"10062473","name":"Bahnweg","postalCode":"4107","locality":"Ettingen","commune":{"key":"2768","name":"Ettingen","shortName":"Ettingen"},"district":{"key":"1301","name":"Bezirk Arlesheim"},"canton":{"key":"13","code":"BL","name":"Basel-Landschaft"},"status":"Real"},{"key":"10239255","name":"Bahnwegli","postalCode":"5430","locality":"Wettingen","commune":{"key":"4045","name":"Wettingen","shortName":"Wettingen"},"district":{"key":"1902","name":"Bezirk Baden"},"canton":{"key":"19","code":"AG","name":"Aargau"},"status":"Real"},{"key":"10188091","name":"Baiergasse","postalCode":"4126","locality":"Bettingen","commune":{"key":"2702","name":"Bettingen","shortName":"Bettingen"},"district":{"key":"1200","name":"Kanton Basel-Stadt"},"canton":{"key":"12","code":"BS","name":"Basel-Stadt"},"status":"Real"},{"key":"10222802","name":"Bannwegli","postalCode":"4126","locality":"Bettingen","commune":{"key":"2702","name":"Bettingen","shortName":"Bettingen"},"district":{"key":"1200","name":"Kanton Basel-Stadt"},"canton":{"key":"12","code":"BS","name":"Basel-Stadt"},"status":"Real"},{"key":"10016395","name":"Baselstrasse","postalCode":"4107","locality":"Ettingen","commune":{"key":"2768","name":"Ettingen","shortName":"Ettingen"},"district":{"key":"1301","name":"Bezirk Arlesheim"},"canton":{"key":"13","code":"BL","name":"Basel-Landschaft"},"status":"Real"},{"key":"10035134","name":"Bellevuestrasse","postalCode":"5430","locality":"Wettingen","commune":{"key":"4045","name":"Wettingen","shortName":"Wettingen"},"district":{"key":"1902","name":"Bezirk Baden"},"canton":{"key":"19","code":"AG","name":"Aargau"},"status":"Real"},{"key":"10115170","name":"Benkenstrasse","postalCode":"4107","locality":"Ettingen","commune":{"key":"2768","name":"Ettingen","shortName":"Ettingen"},"district":{"key":"1301","name":"Bezirk Arlesheim"},"canton":{"key":"13","code":"BL","name":"Basel-Landschaft"},"status":"Real"},{"key":"10052457","name":"Bergstrasse","postalCode":"5430","locality":"Wettingen","commune":{"key":"4045","name":"Wettingen","shortName":"Wettingen"},"district":{"key":"1902","name":"Bezirk Baden"},"canton":{"key":"19","code":"AG","name":"Aargau"},"status":"Real"},{"key":"10188288","name":"Bernaustrasse","postalCode":"5430","locality":"Wettingen","commune":{"key":"4045","name":"Wettingen","shortName":"Wettingen"},"district":{"key":"1902","name":"Bezirk Baden"},"canton":{"key":"19","code":"AG","name":"Aargau"},"status":"Real"},{"key":"10091672","name":"Berninastrasse","postalCode":"5430","locality":"Wettingen","commune":{"key":"4045","name":"Wettingen","shortName":"Wettingen"},"district":{"key":"1902","name":"Bezirk Baden"},"canton":{"key":"19","code":"AG","name":"Aargau"},"status":"Real"},{"key":"10052458","name":"Bifangstrasse","postalCode":"5430","locality":"Wettingen","commune":{"key":"4045","name":"Wettingen","shortName":"Wettingen"},"district":{"key":"1902","name":"Bezirk Baden"},"canton":{"key":"19","code":"AG","name":"Aargau"},"status":"Real"},{"key":"10089310","name":"Biräckerweg","postalCode":"4126","locality":"Bettingen","commune":{"key":"2702","name":"Bettingen","shortName":"Bettingen"},"district":{"key":"1200","name":"Kanton Basel-Stadt"},"canton":{"key":"12","code":"BS","name":"Basel-Stadt"},"status":"Real"},{"key":"10016396","name":"Birkenweg","postalCode":"4107","locality":"Ettingen","commune":{"key":"2768","name":"Ettingen","shortName":"Ettingen"},"district":{"key":"1301","name":"Bezirk Arlesheim"},"canton":{"key":"13","code":"BL","name":"Basel-Landschaft"},"status":"Real"},{"key":"10087470","name":"Blauenweg","postalCode":"4107","locality":"Ettingen","commune":{"key":"2768","name":"Ettingen","shortName":"Ettingen"},"district":{"key":"1301","name":"Bezirk Arlesheim"},"canton":{"key":"13","code":"BL","name":"Basel-Landschaft"},"status":"Real"},{"key":"10035135","name":"Blumenstrasse","postalCode":"5430","locality":"Wettingen","commune":{"key":"4045","name":"Wettingen","shortName":"Wettingen"},"district":{"key":"1902","name":"Bezirk Baden"},"canton":{"key":"19","code":"AG","name":"Aargau"},"status":"Real"},{"key":"10143375","name":"Bogenweg","postalCode":"4107","locality":"Ettingen","commune":{"key":"2768","name":"Ettingen","shortName":"Ettingen"},"district":{"key":"1301","name":"Bezirk Arlesheim"},"canton":{"key":"13","code":"BL","name":"Basel-Landschaft"},"status":"Real"},{"key":"10056246","name":"Bottmingerstrasse","postalCode":"4107","locality":"Ettingen","commune":{"key":"2768","name":"Ettingen","shortName":"Ettingen"},"district":{"key":"1301","name":"Bezirk Arlesheim"},"canton":{"key":"13","code":"BL","name":"Basel-Landschaft"},"status":"Real"},{"key":"10239280","name":"Brandweg","postalCode":"5430","locality":"Wettingen","commune":{"key":"4045","name":"Wettingen","shortName":"Wettingen"},"district":{"key":"1902","name":"Bezirk Baden"},"canton":{"key":"19","code":"AG","name":"Aargau"},"status":"Real"},{"key":"10222808","name":"Britzigerweg","postalCode":"4126","locality":"Bettingen","commune":{"key":"2702","name":"Bettingen","shortName":"Bettingen"},"district":{"key":"1200","name":"Kanton Basel-Stadt"},"canton":{"key":"12","code":"BS","name":"Basel-Stadt"},"status":"Real"},{"key":"10025136","name":"Brohegasse","postalCode":"4126","locality":"Bettingen","commune":{"key":"2702","name":"Bettingen","shortName":"Bettingen"},"district":{"key":"1200","name":"Kanton Basel-Stadt"},"canton":{"key":"12","code":"BS","name":"Basel-Stadt"},"status":"Real"},{"key":"10143520","name":"Brombertshollenweg","postalCode":"4107","locality":"Ettingen","commune":{"key":"2768","name":"Ettingen","shortName":"Ettingen"},"district":{"key":"1301","name":"Bezirk Arlesheim"},"canton":{"key":"13","code":"BL","name":"Basel-Landschaft"},"status":"Real"},{"key":"10035136","name":"Brückenstrasse","postalCode":"5430","locality":"Wettingen","commune":{"key":"4045","name":"Wettingen","shortName":"Wettingen"},"district":{"key":"1902","name":"Bezirk Baden"},"canton":{"key":"19","code":"AG","name":"Aargau"},"status":"Real"},{"key":"10062474","name":"Brücklismattstrasse","postalCode":"4107","locality":"Ettingen","commune":{"key":"2768","name":"Ettingen","shortName":"Ettingen"},"district":{"key":"1301","name":"Bezirk Arlesheim"},"canton":{"key":"13","code":"BL","name":"Basel-Landschaft"},"status":"Real"},{"key":"10120338","name":"Bruderholzstrasse","postalCode":"4107","locality":"Ettingen","commune":{"key":"2768","name":"Ettingen","shortName":"Ettingen"},"district":{"key":"1301","name":"Bezirk Arlesheim"},"canton":{"key":"13","code":"BL","name":"Basel-Landschaft"},"status":"Real"},{"key":"10154101","name":"Brügglisgass","postalCode":"4107","locality":"Ettingen","commune":{"key":"2768","name":"Ettingen","shortName":"Ettingen"},"district":{"key":"1301","name":"Bezirk Arlesheim"},"canton":{"key":"13","code":"BL","name":"Basel-Landschaft"},"status":"Real"},{"key":"10016397","name":"Brühlmattweg","postalCode":"4107","locality":"Ettingen","commune":{"key":"2768","name":"Ettingen","shortName":"Ettingen"},"district":{"key":"1301","name":"Bezirk Arlesheim"},"canton":{"key":"13","code":"BL","name":"Basel-Landschaft"},"status":"Real"},{"key":"10103526","name":"Brühlstrasse","postalCode":"4107","locality":"Ettingen","commune":{"key":"2768","name":"Ettingen","shortName":"Ettingen"},"district":{"key":"1301","name":"Bezirk Arlesheim"},"canton":{"key":"13","code":"BL","name":"Basel-Landschaft"},"status":"Real"},{"key":"10052459","name":"Brühlstrasse","postalCode":"5430","locality":"Wettingen","commune":{"key":"4045","name":"Wettingen","shortName":"Wettingen"},"district":{"key":"1902","name":"Bezirk Baden"},"canton":{"key":"19","code":"AG","name":"Aargau"},"status":"Real"},{"key":"10025137","name":"Brunnengasse","postalCode":"4126","locality":"Bettingen","commune":{"key":"2702","name":"Bettingen","shortName":"Bettingen"},"district":{"key":"1200","name":"Kanton Basel-Stadt"},"canton":{"key":"12","code":"BS","name":"Basel-Stadt"},"status":"Real"},{"key":"10087471","name":"Buchenweg","postalCode":"4107","locality":"Ettingen","commune":{"key":"2768","name":"Ettingen","shortName":"Ettingen"},"district":{"key":"1301","name":"Bezirk Arlesheim"},"canton":{"key":"13","code":"BL","name":"Basel-Landschaft"},"status":"Real"},{"key":"10179484","name":"Buchgasse","postalCode":"4126","locality":"Bettingen","commune":{"key":"2702","name":"Bettingen","shortName":"Bettingen"},"district":{"key":"1200","name":"Kanton Basel-Stadt"},"canton":{"key":"12","code":"BS","name":"Basel-Stadt"},"status":"Real"},{"key":"10222811","name":"Buchholzweg","postalCode":"4126","locality":"Bettingen","commune":{"key":"2702","name":"Bettingen","shortName":"Bettingen"},"district":{"key":"1200","name":"Kanton Basel-Stadt"},"canton":{"key":"12","code":"BS","name":"Basel-Stadt"},"status":"Real"},{"key":"10222814","name":"Buchweg","postalCode":"4126","locality":"Bettingen","commune":{"key":"2702","name":"Bettingen","shortName":"Bettingen"},"district":{"key":"1200","name":"Kanton Basel-Stadt"},"canton":{"key":"12","code":"BS","name":"Basel-Stadt"},"status":"Real"},{"key":"10063852","name":"Bückenweg","postalCode":"4126","locality":"Bettingen","commune":{"key":"2702","name":"Bettingen","shortName":"Bettingen"},"district":{"key":"1200","name":"Kanton Basel-Stadt"},"canton":{"key":"12","code":"BS","name":"Basel-Stadt"},"status":"Real"},{"key":"10238188","name":"Bückenwegli","postalCode":"4126","locality":"Bettingen","commune":{"key":"2702","name":"Bettingen","shortName":"Bettingen"},"district":{"key":"1200","name":"Kanton Basel-Stadt"},"canton":{"key":"12","code":"BS","name":"Basel-Stadt"},"status":"Real"},{"key":"10055768","name":"Büntenweg","postalCode":"4126","locality":"Bettingen","commune":{"key":"2702","name":"Bettingen","shortName":"Bettingen"},"district":{"key":"1200","name":"Kanton Basel-Stadt"},"canton":{"key":"12","code":"BS","name":"Basel-Stadt"},"status":"Real"},{"key":"10052460","name":"Büntstrasse","postalCode":"5430","locality":"Wettingen","commune":{"key":"4045","name":"Wettingen","shortName":"Wettingen"},"district":{"key":"1902","name":"Bezirk Baden"},"canton":{"key":"19","code":"AG","name":"Aargau"},"status":"Real"},{"key":"10091673","name":"Burghornstrasse","postalCode":"5430","locality":"Wettingen","commune":{"key":"4045","name":"Wettingen","shortName":"Wettingen"},"district":{"key":"1902","name":"Bezirk Baden"},"canton":{"key":"19","code":"AG","name":"Aargau"},"status":"Real"},{"key":"10016398","name":"Burgstrasse","postalCode":"4107","locality":"Ettingen","commune":{"key":"2768","name":"Ettingen","shortName":"Ettingen"},"district":{"key":"1301","name":"Bezirk Arlesheim"},"canton":{"key":"13","code":"BL","name":"Basel-Landschaft"},"status":"Real"},{"key":"10192784","name":"Burgunderstrasse","postalCode":"4107","locality":"Ettingen","commune":{"key":"2768","name":"Ettingen","shortName":"Ettingen"},"district":{"key":"1301","name":"Bezirk Arlesheim"},"canton":{"key":"13","code":"BL","name":"Basel-Landschaft"},"status":"Real"},{"key":"10215127","name":"Cabernetweg","postalCode":"4107","locality":"Ettingen","commune":{"key":"2768","name":"Ettingen","shortName":"Ettingen"},"district":{"key":"1301","name":"Bezirk Arlesheim"},"canton":{"key":"13","code":"BL","name":"Basel-Landschaft"},"status":"Real"},{"key":"10070843","name":"Casinoweg","postalCode":"5430","locality":"Wettingen","commune":{"key":"4045","name":"Wettingen","shortName":"Wettingen"},"district":{"key":"1902","name":"Bezirk Baden"},"canton":{"key":"19","code":"AG","name":"Aargau"},"status":"Real"},{"key":"10154102","name":"Chänelbodenhütte","postalCode":"4107","locality":"Ettingen","commune":{"key":"2768","name":"Ettingen","shortName":"Ettingen"},"district":{"key":"1301","name":"Bezirk Arlesheim"},"canton":{"key":"13","code":"BL","name":"Basel-Landschaft"},"status":"Real"},{"key":"10143531","name":"Chänelbodenweg","postalCode":"4107","locality":"Ettingen","commune":{"key":"2768","name":"Ettingen","shortName":"Ettingen"},"district":{"key":"1301","name":"Bezirk Arlesheim"},"canton":{"key":"13","code":"BL","name":"Basel-Landschaft"},"status":"Real"},{"key":"10215130","name":"Chardonnayweg","postalCode":"4107","locality":"Ettingen","commune":{"key":"2768","name":"Ettingen","shortName":"Ettingen"},"district":{"key":"1301","name":"Bezirk Arlesheim"},"canton":{"key":"13","code":"BL","name":"Basel-Landschaft"},"status":"Real"},{"key":"10118020","name":"Chlosterbrüel","postalCode":"5430","locality":"Wettingen","commune":{"key":"4045","name":"Wettingen","shortName":"Wettingen"},"district":{"key":"1902","name":"Bezirk Baden"},"canton":{"key":"19","code":"AG","name":"Aargau"},"status":"Real"},{"key":"10035138","name":"Chlosterschür","postalCode":"5430","locality":"Wettingen","commune":{"key":"4045","name":"Wettingen","shortName":"Wettingen"},"district":{"key":"1902","name":"Bezirk Baden"},"canton":{"key":"19","code":"AG","name":"Aargau"},"status":"Real"},{"key":"10135159","name":"Chlosterschürstrasse","postalCode":"5430","locality":"Wettingen","commune":{"key":"4045","name":"Wettingen","shortName":"Wettingen"},"district":{"key":"1902","name":"Bezirk Baden"},"canton":{"key":"19","code":"AG","name":"Aargau"},"status":"Real"},{"key":"10143536","name":"Cholholzweg","postalCode":"4107","locality":"Ettingen","commune":{"key":"2768","name":"Ettingen","shortName":"Ettingen"},"district":{"key":"1301","name":"Bezirk Arlesheim"},"canton":{"key":"13","code":"BL","name":"Basel-Landschaft"},"status":"Real"},{"key":"10143537","name":"Chreemerweg","postalCode":"4107","locality":"Ettingen","commune":{"key":"2768","name":"Ettingen","shortName":"Ettingen"},"district":{"key":"1301","name":"Bezirk Arlesheim"},"canton":{"key":"13","code":"BL","name":"Basel-Landschaft"},"status":"Real"},{"key":"10010174","name":"Chrischonabodenweg","postalCode":"4126","locality":"Bettingen","commune":{"key":"2702","name":"Bettingen","shortName":"Bettingen"},"district":{"key":"1200","name":"Kanton Basel-Stadt"},"canton":{"key":"12","code":"BS","name":"Basel-Stadt"},"status":"Real"},{"key":"10089311","name":"Chrischonarain","postalCode":"4126","locality":"Bettingen","commune":{"key":"2702","name":"Bettingen","shortName":"Bettingen"},"district":{"key":"1200","name":"Kanton Basel-Stadt"},"canton":{"key":"12","code":"BS","name":"Basel-Stadt"},"status":"Real"},{"key":"10222818","name":"Chrischonatalweg","postalCode":"4126","locality":"Bettingen","commune":{"key":"2702","name":"Bettingen","shortName":"Bettingen"},"district":{"key":"1200","name":"Kanton Basel-Stadt"},"canton":{"key":"12","code":"BS","name":"Basel-Stadt"},"status":"Real"},{"key":"10204909","name":"Chütt","postalCode":"5430","locality":"Wettingen","commune":{"key":"4045","name":"Wettingen","shortName":"Wettingen"},"district":{"key":"1902","name":"Bezirk Baden"},"canton":{"key":"19","code":"AG","name":"Aargau"},"status":"Real"},{"key":"10091674","name":"Damianstrasse","postalCode":"5430","locality":"Wettingen","commune":{"key":"4045","name":"Wettingen","shortName":"Wettingen"},"district":{"key":"1902","name":"Bezirk Baden"},"canton":{"key":"19","code":"AG","name":"Aargau"},"status":"Real"},{"key":"10056247","name":"Dammweg","postalCode":"4107","locality":"Ettingen","commune":{"key":"2768","name":"Ettingen","shortName":"Ettingen"},"district":{"key":"1301","name":"Bezirk Arlesheim"},"canton":{"key":"13","code":"BL","name":"Basel-Landschaft"},"status":"Real"},{"key":"10143517","name":"Denkmalweg","postalCode":"4107","locality":"Ettingen","commune":{"key":"2768","name":"Ettingen","shortName":"Ettingen"},"district":{"key":"1301","name":"Bezirk Arlesheim"},"canton":{"key":"13","code":"BL","name":"Basel-Landschaft"},"status":"Real"},{"key":"10222481","name":"Der krumme Weg","postalCode":"4126","locality":"Bettingen","commune":{"key":"2702","name":"Bettingen","shortName":"Bettingen"},"district":{"key":"1200","name":"Kanton Basel-Stadt"},"canton":{"key":"12","code":"BS","name":"Basel-Stadt"},"status":"Real"},{"key":"10101601","name":"Dianastrasse","postalCode":"5430","locality":"Wettingen","commune":{"key":"4045","name":"Wettingen","shortName":"Wettingen"},"district":{"key":"1902","name":"Bezirk Baden"},"canton":{"key":"19","code":"AG","name":"Aargau"},"status":"Real"},{"key":"10239284","name":"Dickerenweg","postalCode":"5430","locality":"Wettingen","commune":{"key":"4045","name":"Wettingen","shortName":"Wettingen"},"district":{"key":"1902","name":"Bezirk Baden"},"canton":{"key":"19","code":"AG","name":"Aargau"},"status":"Real"},{"key":"10106657","name":"Dorfstrasse","postalCode":"5430","locality":"Wettingen","commune":{"key":"4045","name":"Wettingen","shortName":"Wettingen"},"district":{"key":"1902","name":"Bezirk Baden"},"canton":{"key":"19","code":"AG","name":"Aargau"},"status":"Real"},{"key":"10110497","name":"Dornacherstrasse","postalCode":"4107","locality":"Ettingen","commune":{"key":"2768","name":"Ettingen","shortName":"Ettingen"},"district":{"key":"1301","name":"Bezirk Arlesheim"},"canton":{"key":"13","code":"BL","name":"Basel-Landschaft"},"status":"Real"},{"key":"10087472","name":"Dorneckstrasse","postalCode":"4107","locality":"Ettingen","commune":{"key":"2768","name":"Ettingen","shortName":"Ettingen"},"district":{"key":"1301","name":"Bezirk Arlesheim"},"canton":{"key":"13","code":"BL","name":"Basel-Landschaft"},"status":"Real"},{"key":"10215131","name":"Dornfeldweg","postalCode":"4107","locality":"Ettingen","commune":{"key":"2768","name":"Ettingen","shortName":"Ettingen"},"district":{"key":"1301","name":"Bezirk Arlesheim"},"canton":{"key":"13","code":"BL","name":"Basel-Landschaft"},"status":"Real"},{"key":"10181263","name":"Dufourstrasse","postalCode":"5430","locality":"Wettingen","commune":{"key":"4045","name":"Wettingen","shortName":"Wettingen"},"district":{"key":"1902","name":"Bezirk Baden"},"canton":{"key":"19","code":"AG","name":"Aargau"},"status":"Real"},{"key":"10035139","name":"Edelweissstrasse","postalCode":"5430","locality":"Wettingen","commune":{"key":"4045","name":"Wettingen","shortName":"Wettingen"},"district":{"key":"1902","name":"Bezirk Baden"},"canton":{"key":"19","code":"AG","name":"Aargau"},"status":"Real"},{"key":"10052461","name":"Eichweg","postalCode":"5430","locality":"Wettingen","commune":{"key":"4045","name":"Wettingen","shortName":"Wettingen"},"district":{"key":"1902","name":"Bezirk Baden"},"canton":{"key":"19","code":"AG","name":"Aargau"},"status":"Real"},{"key":"10116688","name":"Eigenrain","postalCode":"4107","locality":"Ettingen","commune":{"key":"2768","name":"Ettingen","shortName":"Ettingen"},"district":{"key":"1301","name":"Bezirk Arlesheim"},"canton":{"key":"13","code":"BL","name":"Basel-Landschaft"},"status":"Real"},{"key":"10056248","name":"Eigenweg","postalCode":"4107","locality":"Ettingen","commune":{"key":"2768","name":"Ettingen","shortName":"Ettingen"},"district":{"key":"1301","name":"Bezirk Arlesheim"},"canton":{"key":"13","code":"BL","name":"Basel-Landschaft"},"status":"Real"},{"key":"10035140","name":"Eigerstrasse","postalCode":"5430","locality":"Wettingen","commune":{"key":"4045","name":"Wettingen","shortName":"Wettingen"},"district":{"key":"1902","name":"Bezirk Baden"},"canton":{"key":"19","code":"AG","name":"Aargau"},"status":"Real"},{"key":"10239288","name":"Eigiringweg","postalCode":"5430","locality":"Wettingen","commune":{"key":"4045","name":"Wettingen","shortName":"Wettingen"},"district":{"key":"1902","name":"Bezirk Baden"},"canton":{"key":"19","code":"AG","name":"Aargau"},"status":"Real"},{"key":"10052462","name":"Eigistrasse","postalCode":"5430","locality":"Wettingen","commune":{"key":"4045","name":"Wettingen","shortName":"Wettingen"},"district":{"key":"1902","name":"Bezirk Baden"},"canton":{"key":"19","code":"AG","name":"Aargau"},"status":"Real"},{"key":"10239292","name":"Eigiweg","postalCode":"5430","locality":"Wettingen","commune":{"key":"4045","name":"Wettingen","shortName":"Wettingen"},"district":{"key":"1902","name":"Bezirk Baden"},"canton":{"key":"19","code":"AG","name":"Aargau"},"status":"Real"},{"key":"10196763","name":"Elblingstrasse","postalCode":"4107","locality":"Ettingen","commune":{"key":"2768","name":"Ettingen","shortName":"Ettingen"},"district":{"key":"1301","name":"Bezirk Arlesheim"},"canton":{"key":"13","code":"BL","name":"Basel-Landschaft"},"status":"Real"},{"key":"10124553","name":"Empertstrasse","postalCode":"5430","locality":"Wettingen","commune":{"key":"4045","name":"Wettingen","shortName":"Wettingen"},"district":{"key":"1902","name":"Bezirk Baden"},"canton":{"key":"19","code":"AG","name":"Aargau"},"status":"Real"},{"key":"10122159","name":"Erlenstrasse","postalCode":"5430","locality":"Wettingen","commune":{"key":"4045","name":"Wettingen","shortName":"Wettingen"},"district":{"key":"1902","name":"Bezirk Baden"},"canton":{"key":"19","code":"AG","name":"Aargau"},"status":"Real"},{"key":"10143510","name":"Eschbach","postalCode":"4107","locality":"Ettingen","commune":{"key":"2768","name":"Ettingen","shortName":"Ettingen"},"district":{"key":"1301","name":"Bezirk Arlesheim"},"canton":{"key":"13","code":"BL","name":"Basel-Landschaft"},"status":"Real"},{"key":"10154103","name":"Eschenagger","postalCode":"4107","locality":"Ettingen","commune":{"key":"2768","name":"Ettingen","shortName":"Ettingen"},"district":{"key":"1301","name":"Bezirk Arlesheim"},"canton":{"key":"13","code":"BL","name":"Basel-Landschaft"},"status":"Real"},{"key":"10143525","name":"Eselgrabenweg","postalCode":"4107","locality":"Ettingen","commune":{"key":"2768","name":"Ettingen","shortName":"Ettingen"},"district":{"key":"1301","name":"Bezirk Arlesheim"},"canton":{"key":"13","code":"BL","name":"Basel-Landschaft"},"status":"Real"},{"key":"10111423","name":"Etzelmatt","postalCode":"5430","locality":"Wettingen","commune":{"key":"4045","name":"Wettingen","shortName":"Wettingen"},"district":{"key":"1902","name":"Bezirk Baden"},"canton":{"key":"19","code":"AG","name":"Aargau"},"status":"Real"},{"key":"10052463","name":"Etzelstrasse","postalCode":"5430","locality":"Wettingen","commune":{"key":"4045","name":"Wettingen","shortName":"Wettingen"},"district":{"key":"1902","name":"Bezirk Baden"},"canton":{"key":"19","code":"AG","name":"Aargau"},"status":"Real"},{"key":"10239296","name":"Eulenburg","postalCode":"5430","locality":"Wettingen","commune":{"key":"4045","name":"Wettingen","shortName":"Wettingen"},"district":{"key":"1902","name":"Bezirk Baden"},"canton":{"key":"19","code":"AG","name":"Aargau"},"status":"Real"},{"key":"10035141","name":"Feldeggstrasse","postalCode":"5430","locality":"Wettingen","commune":{"key":"4045","name":"Wettingen","shortName":"Wettingen"},"district":{"key":"1902","name":"Bezirk Baden"},"canton":{"key":"19","code":"AG","name":"Aargau"},"status":"Real"},{"key":"10122303","name":"Feldstrasse","postalCode":"5430","locality":"Wettingen","commune":{"key":"4045","name":"Wettingen","shortName":"Wettingen"},"district":{"key":"1902","name":"Bezirk Baden"},"canton":{"key":"19","code":"AG","name":"Aargau"},"status":"Real"},{"key":"10143538","name":"Felsentorweg","postalCode":"4107","locality":"Ettingen","commune":{"key":"2768","name":"Ettingen","shortName":"Ettingen"},"district":{"key":"1301","name":"Bezirk Arlesheim"},"canton":{"key":"13","code":"BL","name":"Basel-Landschaft"},"status":"Real"},{"key":"10035142","name":"Fischerweg","postalCode":"5430","locality":"Wettingen","commune":{"key":"4045","name":"Wettingen","shortName":"Wettingen"},"district":{"key":"1902","name":"Bezirk Baden"},"canton":{"key":"19","code":"AG","name":"Aargau"},"status":"Real"},{"key":"10186843","name":"Fliederstrasse","postalCode":"5430","locality":"Wettingen","commune":{"key":"4045","name":"Wettingen","shortName":"Wettingen"},"district":{"key":"1902","name":"Bezirk Baden"},"canton":{"key":"19","code":"AG","name":"Aargau"},"status":"Real"},{"key":"10070844","name":"Florastrasse","postalCode":"5430","locality":"Wettingen","commune":{"key":"4045","name":"Wettingen","shortName":"Wettingen"},"district":{"key":"1902","name":"Bezirk Baden"},"canton":{"key":"19","code":"AG","name":"Aargau"},"status":"Real"},{"key":"10168447","name":"Flühbergring","postalCode":"4107","locality":"Ettingen","commune":{"key":"2768","name":"Ettingen","shortName":"Ettingen"},"district":{"key":"1301","name":"Bezirk Arlesheim"},"canton":{"key":"13","code":"BL","name":"Basel-Landschaft"},"status":"Real"},{"key":"10016399","name":"Flühbergweg","postalCode":"4107","locality":"Ettingen","commune":{"key":"2768","name":"Ettingen","shortName":"Ettingen"},"district":{"key":"1301","name":"Bezirk Arlesheim"},"canton":{"key":"13","code":"BL","name":"Basel-Landschaft"},"status":"Real"},{"key":"10035143","name":"Flurweg","postalCode":"5430","locality":"Wettingen","commune":{"key":"4045","name":"Wettingen","shortName":"Wettingen"},"district":{"key":"1902","name":"Bezirk Baden"},"canton":{"key":"19","code":"AG","name":"Aargau"},"status":"Real"},{"key":"10103040","name":"Föhrenweg","postalCode":"4107","locality":"Ettingen","commune":{"key":"2768","name":"Ettingen","shortName":"Ettingen"},"district":{"key":"1301","name":"Bezirk Arlesheim"},"canton":{"key":"13","code":"BL","name":"Basel-Landschaft"},"status":"Real"},{"key":"10190201","name":"Fohrhölzlistrasse","postalCode":"5430","locality":"Wettingen","commune":{"key":"4045","name":"Wettingen","shortName":"Wettingen"},"district":{"key":"1902","name":"Bezirk Baden"},"canton":{"key":"19","code":"AG","name":"Aargau"},"status":"Real"},{"key":"10239300","name":"Forsthausweg","postalCode":"5430","locality":"Wettingen","commune":{"key":"4045","name":"Wettingen","shortName":"Wettingen"},"district":{"key":"1902","name":"Bezirk Baden"},"canton":{"key":"19","code":"AG","name":"Aargau"},"status":"Real"},{"key":"10111424","name":"Fortunastrasse","postalCode":"5430","locality":"Wettingen","commune":{"key":"4045","name":"Wettingen","shortName":"Wettingen"},"district":{"key":"1902","name":"Bezirk Baden"},"canton":{"key":"19","code":"AG","name":"Aargau"},"status":"Real"},{"key":"10035144","name":"Freistrasse","postalCode":"5430","locality":"Wettingen","commune":{"key":"4045","name":"Wettingen","shortName":"Wettingen"},"district":{"key":"1902","name":"Bezirk Baden"},"canton":{"key":"19","code":"AG","name":"Aargau"},"status":"Real"},{"key":"10035145","name":"Friedenstrasse","postalCode":"5430","locality":"Wettingen","commune":{"key":"4045","name":"Wettingen","shortName":"Wettingen"},"district":{"key":"1902","name":"Bezirk Baden"},"canton":{"key":"19","code":"AG","name":"Aargau"},"status":"Real"},{"key":"10113979","name":"Frohsinnstrasse","postalCode":"5430","locality":"Wettingen","commune":{"key":"4045","name":"Wettingen","shortName":"Wettingen"},"district":{"key":"1902","name":"Bezirk Baden"},"canton":{"key":"19","code":"AG","name":"Aargau"},"status":"Real"},{"key":"10154104","name":"Fronagger","postalCode":"4107","locality":"Ettingen","commune":{"key":"2768","name":"Ettingen","shortName":"Ettingen"},"district":{"key":"1301","name":"Bezirk Arlesheim"},"canton":{"key":"13","code":"BL","name":"Basel-Landschaft"},"status":"Real"},{"key":"10016400","name":"Fuchsmattstrasse","postalCode":"4107","locality":"Ettingen","commune":{"key":"2768","name":"Ettingen","shortName":"Ettingen"},"district":{"key":"1301","name":"Bezirk Arlesheim"},"canton":{"key":"13","code":"BL","name":"Basel-Landschaft"},"status":"Real"},{"key":"10181201","name":"Fünfeichenweg","postalCode":"4126","locality":"Bettingen","commune":{"key":"2702","name":"Bettingen","shortName":"Bettingen"},"district":{"key":"1200","name":"Kanton Basel-Stadt"},"canton":{"key":"12","code":"BS","name":"Basel-Stadt"},"status":"Real"},{"key":"10143539","name":"Fünftausiger","postalCode":"4107","locality":"Ettingen","commune":{"key":"2768","name":"Ettingen","shortName":"Ettingen"},"district":{"key":"1301","name":"Bezirk Arlesheim"},"canton":{"key":"13","code":"BL","name":"Basel-Landschaft"},"status":"Real"},{"key":"10062475","name":"Fürstensteinhof","postalCode":"4107","locality":"Ettingen","commune":{"key":"2768","name":"Ettingen","shortName":"Ettingen"},"district":{"key":"1301","name":"Bezirk Arlesheim"},"canton":{"key":"13","code":"BL","name":"Basel-Landschaft"},"status":"Real"},{"key":"10087473","name":"Fürstensteinstrasse","postalCode":"4107","locality":"Ettingen","commune":{"key":"2768","name":"Ettingen","shortName":"Ettingen"},"district":{"key":"1301","name":"Bezirk Arlesheim"},"canton":{"key":"13","code":"BL","name":"Basel-Landschaft"},"status":"Real"},{"key":"10143373","name":"Fürstensteinweg","postalCode":"4107","locality":"Ettingen","commune":{"key":"2768","name":"Ettingen","shortName":"Ettingen"},"district":{"key":"1301","name":"Bezirk Arlesheim"},"canton":{"key":"13","code":"BL","name":"Basel-Landschaft"},"status":"Real"},{"key":"10215132","name":"Gamaretweg","postalCode":"4107","locality":"Ettingen","commune":{"key":"2768","name":"Ettingen","shortName":"Ettingen"},"district":{"key":"1301","name":"Bezirk Arlesheim"},"canton":{"key":"13","code":"BL","name":"Basel-Landschaft"},"status":"Real"},{"key":"10215133","name":"Gamayweg","postalCode":"4107","locality":"Ettingen","commune":{"key":"2768","name":"Ettingen","shortName":"Ettingen"},"district":{"key":"1301","name":"Bezirk Arlesheim"},"canton":{"key":"13","code":"BL","name":"Basel-Landschaft"},"status":"Real"},{"key":"10056249","name":"Gartenstrasse","postalCode":"4107","locality":"Ettingen","commune":{"key":"2768","name":"Ettingen","shortName":"Ettingen"},"district":{"key":"1301","name":"Bezirk Arlesheim"},"canton":{"key":"13","code":"BL","name":"Basel-Landschaft"},"status":"Real"},{"key":"10091675","name":"Gartenstrasse","postalCode":"5430","locality":"Wettingen","commune":{"key":"4045","name":"Wettingen","shortName":"Wettingen"},"district":{"key":"1902","name":"Bezirk Baden"},"canton":{"key":"19","code":"AG","name":"Aargau"},"status":"Real"},{"key":"10092742","name":"Gärtnerstrasse","postalCode":"5430","locality":"Wettingen","commune":{"key":"4045","name":"Wettingen","shortName":"Wettingen"},"district":{"key":"1902","name":"Bezirk Baden"},"canton":{"key":"19","code":"AG","name":"Aargau"},"status":"Real"},{"key":"10174836","name":"Gempenweg","postalCode":"4107","locality":"Ettingen","commune":{"key":"2768","name":"Ettingen","shortName":"Ettingen"},"district":{"key":"1301","name":"Bezirk Arlesheim"},"canton":{"key":"13","code":"BL","name":"Basel-Landschaft"},"status":"Real"},{"key":"10035146","name":"Gerstenstrasse","postalCode":"5430","locality":"Wettingen","commune":{"key":"4045","name":"Wettingen","shortName":"Wettingen"},"district":{"key":"1902","name":"Bezirk Baden"},"canton":{"key":"19","code":"AG","name":"Aargau"},"status":"Real"},{"key":"10143529","name":"Gewerbestrasse","postalCode":"4107","locality":"Ettingen","commune":{"key":"2768","name":"Ettingen","shortName":"Ettingen"},"district":{"key":"1301","name":"Bezirk Arlesheim"},"canton":{"key":"13","code":"BL","name":"Basel-Landschaft"},"status":"Real"},{"key":"10025138","name":"Girenhaldenweg","postalCode":"4126","locality":"Bettingen","commune":{"key":"2702","name":"Bettingen","shortName":"Bettingen"},"district":{"key":"1200","name":"Kanton Basel-Stadt"},"canton":{"key":"12","code":"BS","name":"Basel-Stadt"},"status":"Real"},{"key":"10181264","name":"Glärnischstrasse","postalCode":"5430","locality":"Wettingen","commune":{"key":"4045","name":"Wettingen","shortName":"Wettingen"},"district":{"key":"1902","name":"Bezirk Baden"},"canton":{"key":"19","code":"AG","name":"Aargau"},"status":"Real"},{"key":"10091676","name":"Gottesgrabenweg","postalCode":"5430","locality":"Wettingen","commune":{"key":"4045","name":"Wettingen","shortName":"Wettingen"},"district":{"key":"1902","name":"Bezirk Baden"},"canton":{"key":"19","code":"AG","name":"Aargau"},"status":"Real"},{"key":"10177183","name":"Grellingerstrasse","postalCode":"4107","locality":"Ettingen","commune":{"key":"2768","name":"Ettingen","shortName":"Ettingen"},"district":{"key":"1301","name":"Bezirk Arlesheim"},"canton":{"key":"13","code":"BL","name":"Basel-Landschaft"},"status":"Real"},{"key":"10035147","name":"Grenzstrasse","postalCode":"5430","locality":"Wettingen","commune":{"key":"4045","name":"Wettingen","shortName":"Wettingen"},"district":{"key":"1902","name":"Bezirk Baden"},"canton":{"key":"19","code":"AG","name":"Aargau"},"status":"Real"},{"key":"10016401","name":"Grenzweg","postalCode":"4107","locality":"Ettingen","commune":{"key":"2768","name":"Ettingen","shortName":"Ettingen"},"district":{"key":"1301","name":"Bezirk Arlesheim"},"canton":{"key":"13","code":"BL","name":"Basel-Landschaft"},"status":"Real"},{"key":"10239307","name":"Grenzweg","postalCode":"5430","locality":"Wettingen","commune":{"key":"4045","name":"Wettingen","shortName":"Wettingen"},"district":{"key":"1902","name":"Bezirk Baden"},"canton":{"key":"19","code":"AG","name":"Aargau"},"status":"Real"},{"key":"10106658","name":"Greubstelstrasse","postalCode":"5430","locality":"Wettingen","commune":{"key":"4045","name":"Wettingen","shortName":"Wettingen"},"district":{"key":"1902","name":"Bezirk Baden"},"canton":{"key":"19","code":"AG","name":"Aargau"},"status":"Real"},{"key":"10035148","name":"Grubenstrasse","postalCode":"5430","locality":"Wettingen","commune":{"key":"4045","name":"Wettingen","shortName":"Wettingen"},"district":{"key":"1902","name":"Bezirk Baden"},"canton":{"key":"19","code":"AG","name":"Aargau"},"status":"Real"},{"key":"10035149","name":"Grünstrasse","postalCode":"5430","locality":"Wettingen","commune":{"key":"4045","name":"Wettingen","shortName":"Wettingen"},"district":{"key":"1902","name":"Bezirk Baden"},"canton":{"key":"19","code":"AG","name":"Aargau"},"status":"Real"},{"key":"10056250","name":"Guntenstrasse","postalCode":"4107","locality":"Ettingen","commune":{"key":"2768","name":"Ettingen","shortName":"Ettingen"},"district":{"key":"1301","name":"Bezirk Arlesheim"},"canton":{"key":"13","code":"BL","name":"Basel-Landschaft"},"status":"Real"},{"key":"10215134","name":"Gutedelstrasse","postalCode":"4107","locality":"Ettingen","commune":{"key":"2768","name":"Ettingen","shortName":"Ettingen"},"district":{"key":"1301","name":"Bezirk Arlesheim"},"canton":{"key":"13","code":"BL","name":"Basel-Landschaft"},"status":"Real"},{"key":"10139970","name":"Güterstrasse","postalCode":"5430","locality":"Wettingen","commune":{"key":"4045","name":"Wettingen","shortName":"Wettingen"},"district":{"key":"1902","name":"Bezirk Baden"},"canton":{"key":"19","code":"AG","name":"Aargau"},"status":"Real"},{"key":"10055769","name":"Habermarkweg","postalCode":"4126","locality":"Bettingen","commune":{"key":"2702","name":"Bettingen","shortName":"Bettingen"},"district":{"key":"1200","name":"Kanton Basel-Stadt"},"canton":{"key":"12","code":"BS","name":"Basel-Stadt"},"status":"Real"},{"key":"10238189","name":"Habermarkwegli","postalCode":"4126","locality":"Bettingen","commune":{"key":"2702","name":"Bettingen","shortName":"Bettingen"},"district":{"key":"1200","name":"Kanton Basel-Stadt"},"canton":{"key":"12","code":"BS","name":"Basel-Stadt"},"status":"Real"},{"key":"10035150","name":"Halbartenstrasse","postalCode":"5430","locality":"Wettingen","commune":{"key":"4045","name":"Wettingen","shortName":"Wettingen"},"district":{"key":"1902","name":"Bezirk Baden"},"canton":{"key":"19","code":"AG","name":"Aargau"},"status":"Real"},{"key":"10070845","name":"Hardmatt","postalCode":"5430","locality":"Wettingen","commune":{"key":"4045","name":"Wettingen","shortName":"Wettingen"},"district":{"key":"1902","name":"Bezirk Baden"},"canton":{"key":"19","code":"AG","name":"Aargau"},"status":"Real"},{"key":"10035151","name":"Hardstrasse","postalCode":"5430","locality":"Wettingen","commune":{"key":"4045","name":"Wettingen","shortName":"Wettingen"},"district":{"key":"1902","name":"Bezirk Baden"},"canton":{"key":"19","code":"AG","name":"Aargau"},"status":"Real"},{"key":"10016402","name":"Hauptstrasse","postalCode":"4107","locality":"Ettingen","commune":{"key":"2768","name":"Ettingen","shortName":"Ettingen"},"district":{"key":"1301","name":"Bezirk Arlesheim"},"canton":{"key":"13","code":"BL","name":"Basel-Landschaft"},"status":"Real"},{"key":"10063853","name":"Hauptstrasse","postalCode":"4126","locality":"Bettingen","commune":{"key":"2702","name":"Bettingen","shortName":"Bettingen"},"district":{"key":"1200","name":"Kanton Basel-Stadt"},"canton":{"key":"12","code":"BS","name":"Basel-Stadt"},"status":"Real"},{"key":"10035152","name":"Heckenweg","postalCode":"5430","locality":"Wettingen","commune":{"key":"4045","name":"Wettingen","shortName":"Wettingen"},"district":{"key":"1902","name":"Bezirk Baden"},"canton":{"key":"19","code":"AG","name":"Aargau"},"status":"Real"},{"key":"10239304","name":"Heerebüngertweg","postalCode":"5430","locality":"Wettingen","commune":{"key":"4045","name":"Wettingen","shortName":"Wettingen"},"district":{"key":"1902","name":"Bezirk Baden"},"canton":{"key":"19","code":"AG","name":"Aargau"},"status":"Real"},{"key":"10154105","name":"Heerenweg","postalCode":"4107","locality":"Ettingen","commune":{"key":"2768","name":"Ettingen","shortName":"Ettingen"},"district":{"key":"1301","name":"Bezirk Arlesheim"},"canton":{"key":"13","code":"BL","name":"Basel-Landschaft"},"status":"Real"},{"key":"10143516","name":"Heidenfelsweg","postalCode":"4107","locality":"Ettingen","commune":{"key":"2768","name":"Ettingen","shortName":"Ettingen"},"district":{"key":"1301","name":"Bezirk Arlesheim"},"canton":{"key":"13","code":"BL","name":"Basel-Landschaft"},"status":"Real"},{"key":"10092743","name":"Heimentalstrasse","postalCode":"5430","locality":"Wettingen","commune":{"key":"4045","name":"Wettingen","shortName":"Wettingen"},"district":{"key":"1902","name":"Bezirk Baden"},"canton":{"key":"19","code":"AG","name":"Aargau"},"status":"Real"},{"key":"10070846","name":"Heimstrasse","postalCode":"5430","locality":"Wettingen","commune":{"key":"4045","name":"Wettingen","shortName":"Wettingen"},"district":{"key":"1902","name":"Bezirk Baden"},"canton":{"key":"19","code":"AG","name":"Aargau"},"status":"Real"},{"key":"10035153","name":"Herrenbergweg","postalCode":"5430","locality":"Wettingen","commune":{"key":"4045","name":"Wettingen","shortName":"Wettingen"},"district":{"key":"1902","name":"Bezirk Baden"},"canton":{"key":"19","code":"AG","name":"Aargau"},"status":"Real"},{"key":"10222486","name":"Herrenhagweg","postalCode":"4126","locality":"Bettingen","commune":{"key":"2702","name":"Bettingen","shortName":"Bettingen"},"district":{"key":"1200","name":"Kanton Basel-Stadt"},"canton":{"key":"12","code":"BS","name":"Basel-Stadt"},"status":"Real"},{"key":"10239308","name":"Hertere","postalCode":"5430","locality":"Wettingen","commune":{"key":"4045","name":"Wettingen","shortName":"Wettingen"},"district":{"key":"1902","name":"Bezirk Baden"},"canton":{"key":"19","code":"AG","name":"Aargau"},"status":"Real"},{"key":"10035154","name":"Herterenhof","postalCode":"5430","locality":"Wettingen","commune":{"key":"4045","name":"Wettingen","shortName":"Wettingen"},"district":{"key":"1902","name":"Bezirk Baden"},"canton":{"key":"19","code":"AG","name":"Aargau"},"status":"Real"},{"key":"10181265","name":"Herternstrasse","postalCode":"5430","locality":"Wettingen","commune":{"key":"4045","name":"Wettingen","shortName":"Wettingen"},"district":{"key":"1902","name":"Bezirk Baden"},"canton":{"key":"19","code":"AG","name":"Aargau"},"status":"Real"},{"key":"10092744","name":"Hintere Höhenstrasse","postalCode":"5430","locality":"Wettingen","commune":{"key":"4045","name":"Wettingen","shortName":"Wettingen"},"district":{"key":"1902","name":"Bezirk Baden"},"canton":{"key":"19","code":"AG","name":"Aargau"},"status":"Real"},{"key":"10222489","name":"Hirzengrabenweg","postalCode":"4126","locality":"Bettingen","commune":{"key":"2702","name":"Bettingen","shortName":"Bettingen"},"district":{"key":"1200","name":"Kanton Basel-Stadt"},"canton":{"key":"12","code":"BS","name":"Basel-Stadt"},"status":"Real"},{"key":"10087474","name":"Hochfeldweg","postalCode":"4107","locality":"Ettingen","commune":{"key":"2768","name":"Ettingen","shortName":"Ettingen"},"district":{"key":"1301","name":"Bezirk Arlesheim"},"canton":{"key":"13","code":"BL","name":"Basel-Landschaft"},"status":"Real"},{"key":"10056251","name":"Hofstettenstrasse","postalCode":"4107","locality":"Ettingen","commune":{"key":"2768","name":"Ettingen","shortName":"Ettingen"},"district":{"key":"1301","name":"Bezirk Arlesheim"},"canton":{"key":"13","code":"BL","name":"Basel-Landschaft"},"status":"Real"},{"key":"10154106","name":"Hofstetterkreuz","postalCode":"4107","locality":"Ettingen","commune":{"key":"2768","name":"Ettingen","shortName":"Ettingen"},"district":{"key":"1301","name":"Bezirk Arlesheim"},"canton":{"key":"13","code":"BL","name":"Basel-Landschaft"},"status":"Real"},{"key":"10139971","name":"Hofweg","postalCode":"5430","locality":"Wettingen","commune":{"key":"4045","name":"Wettingen","shortName":"Wettingen"},"district":{"key":"1902","name":"Bezirk Baden"},"canton":{"key":"19","code":"AG","name":"Aargau"},"status":"Real"},{"key":"10089312","name":"Hohe Strasse","postalCode":"4126","locality":"Bettingen","commune":{"key":"2702","name":"Bettingen","shortName":"Bettingen"},"district":{"key":"1200","name":"Kanton Basel-Stadt"},"canton":{"key":"12","code":"BS","name":"Basel-Stadt"},"status":"Real"},{"key":"10062476","name":"Hollenrain","postalCode":"4107","locality":"Ettingen","commune":{"key":"2768","name":"Ettingen","shortName":"Ettingen"},"district":{"key":"1301","name":"Bezirk Arlesheim"},"canton":{"key":"13","code":"BL","name":"Basel-Landschaft"},"status":"Real"},{"key":"10016403","name":"Hollenweg","postalCode":"4107","locality":"Ettingen","commune":{"key":"2768","name":"Ettingen","shortName":"Ettingen"},"district":{"key":"1301","name":"Bezirk Arlesheim"},"canton":{"key":"13","code":"BL","name":"Basel-Landschaft"},"status":"Real"},{"key":"10208672","name":"Holleren","postalCode":"4107","locality":"Ettingen","commune":{"key":"2768","name":"Ettingen","shortName":"Ettingen"},"district":{"key":"1301","name":"Bezirk Arlesheim"},"canton":{"key":"13","code":"BL","name":"Basel-Landschaft"},"status":"Real"},{"key":"10238197","name":"Horngrabenweg","postalCode":"4126","locality":"Bettingen","commune":{"key":"2702","name":"Bettingen","shortName":"Bettingen"},"district":{"key":"1200","name":"Kanton Basel-Stadt"},"canton":{"key":"12","code":"BS","name":"Basel-Stadt"},"status":"Real"},{"key":"10070847","name":"Im Binz","postalCode":"5430","locality":"Wettingen","commune":{"key":"4045","name":"Wettingen","shortName":"Wettingen"},"district":{"key":"1902","name":"Bezirk Baden"},"canton":{"key":"19","code":"AG","name":"Aargau"},"status":"Real"},{"key":"10016404","name":"Im Bohnacker","postalCode":"4107","locality":"Ettingen","commune":{"key":"2768","name":"Ettingen","shortName":"Ettingen"},"district":{"key":"1301","name":"Bezirk Arlesheim"},"canton":{"key":"13","code":"BL","name":"Basel-Landschaft"},"status":"Real"},{"key":"10035155","name":"Im Bungert","postalCode":"5430","locality":"Wettingen","commune":{"key":"4045","name":"Wettingen","shortName":"Wettingen"},"district":{"key":"1902","name":"Bezirk Baden"},"canton":{"key":"19","code":"AG","name":"Aargau"},"status":"Real"},{"key":"10016405","name":"Im Eigen","postalCode":"4107","locality":"Ettingen","commune":{"key":"2768","name":"Ettingen","shortName":"Ettingen"},"district":{"key":"1301","name":"Bezirk Arlesheim"},"canton":{"key":"13","code":"BL","name":"Basel-Landschaft"},"status":"Real"},{"key":"10035156","name":"Imfeldstrasse","postalCode":"5430","locality":"Wettingen","commune":{"key":"4045","name":"Wettingen","shortName":"Wettingen"},"district":{"key":"1902","name":"Bezirk Baden"},"canton":{"key":"19","code":"AG","name":"Aargau"},"status":"Real"},{"key":"10154107","name":"Im Güggelbach","postalCode":"4107","locality":"Ettingen","commune":{"key":"2768","name":"Ettingen","shortName":"Ettingen"},"district":{"key":"1301","name":"Bezirk Arlesheim"},"canton":{"key":"13","code":"BL","name":"Basel-Landschaft"},"status":"Real"},{"key":"10103527","name":"Im Guntengarten","postalCode":"4107","locality":"Ettingen","commune":{"key":"2768","name":"Ettingen","shortName":"Ettingen"},"district":{"key":"1301","name":"Bezirk Arlesheim"},"canton":{"key":"13","code":"BL","name":"Basel-Landschaft"},"status":"Real"},{"key":"10087475","name":"Im Hinterstück","postalCode":"4107","locality":"Ettingen","commune":{"key":"2768","name":"Ettingen","shortName":"Ettingen"},"district":{"key":"1301","name":"Bezirk Arlesheim"},"canton":{"key":"13","code":"BL","name":"Basel-Landschaft"},"status":"Real"},{"key":"10154108","name":"Im Leberngarten","postalCode":"4107","locality":"Ettingen","commune":{"key":"2768","name":"Ettingen","shortName":"Ettingen"},"district":{"key":"1301","name":"Bezirk Arlesheim"},"canton":{"key":"13","code":"BL","name":"Basel-Landschaft"},"status":"Real"},{"key":"10016406","name":"Im Mühlegarten","postalCode":"4107","locality":"Ettingen","commune":{"key":"2768","name":"Ettingen","shortName":"Ettingen"},"district":{"key":"1301","name":"Bezirk Arlesheim"},"canton":{"key":"13","code":"BL","name":"Basel-Landschaft"},"status":"Real"},{"key":"10222493","name":"Im nassen Grund","postalCode":"4126","locality":"Bettingen","commune":{"key":"2702","name":"Bettingen","shortName":"Bettingen"},"district":{"key":"1200","name":"Kanton Basel-Stadt"},"canton":{"key":"12","code":"BS","name":"Basel-Stadt"},"status":"Real"},{"key":"10016407","name":"Im Nebengraben","postalCode":"4107","locality":"Ettingen","commune":{"key":"2768","name":"Ettingen","shortName":"Ettingen"},"district":{"key":"1301","name":"Bezirk Arlesheim"},"canton":{"key":"13","code":"BL","name":"Basel-Landschaft"},"status":"Real"},{"key":"10062477","name":"Im Niederhof","postalCode":"4107","locality":"Ettingen","commune":{"key":"2768","name":"Ettingen","shortName":"Ettingen"},"district":{"key":"1301","name":"Bezirk Arlesheim"},"canton":{"key":"13","code":"BL","name":"Basel-Landschaft"},"status":"Real"},{"key":"10215135","name":"Im Rosengarten","postalCode":"4107","locality":"Ettingen","commune":{"key":"2768","name":"Ettingen","shortName":"Ettingen"},"district":{"key":"1301","name":"Bezirk Arlesheim"},"canton":{"key":"13","code":"BL","name":"Basel-Landschaft"},"status":"Real"},{"key":"10025139","name":"Im Speckler","postalCode":"4126","locality":"Bettingen","commune":{"key":"2702","name":"Bettingen","shortName":"Bettingen"},"district":{"key":"1200","name":"Kanton Basel-Stadt"},"canton":{"key":"12","code":"BS","name":"Basel-Stadt"},"status":"Real"},{"key":"10016408","name":"Im Stückgarten","postalCode":"4107","locality":"Ettingen","commune":{"key":"2768","name":"Ettingen","shortName":"Ettingen"},"district":{"key":"1301","name":"Bezirk Arlesheim"},"canton":{"key":"13","code":"BL","name":"Basel-Landschaft"},"status":"Real"},{"key":"10025140","name":"Im Wenkenberg","postalCode":"4126","locality":"Bettingen","commune":{"key":"2702","name":"Bettingen","shortName":"Bettingen"},"district":{"key":"1200","name":"Kanton Basel-Stadt"},"canton":{"key":"12","code":"BS","name":"Basel-Stadt"},"status":"Real"},{"key":"10222683","name":"Im Wildwechsel","postalCode":"4126","locality":"Bettingen","commune":{"key":"2702","name":"Bettingen","shortName":"Bettingen"},"district":{"key":"1200","name":"Kanton Basel-Stadt"},"canton":{"key":"12","code":"BS","name":"Basel-Stadt"},"status":"Real"},{"key":"10062478","name":"Im Winkel","postalCode":"4107","locality":"Ettingen","commune":{"key":"2768","name":"Ettingen","shortName":"Ettingen"},"district":{"key":"1301","name":"Bezirk Arlesheim"},"canton":{"key":"13","code":"BL","name":"Basel-Landschaft"},"status":"Real"},{"key":"10087738","name":"In den Flühbergreben","postalCode":"4107","locality":"Ettingen","commune":{"key":"2768","name":"Ettingen","shortName":"Ettingen"},"district":{"key":"1301","name":"Bezirk Arlesheim"},"canton":{"key":"13","code":"BL","name":"Basel-Landschaft"},"status":"Real"},{"key":"10180310","name":"In der Leimgrube","postalCode":"4126","locality":"Bettingen","commune":{"key":"2702","name":"Bettingen","shortName":"Bettingen"},"district":{"key":"1200","name":"Kanton Basel-Stadt"},"canton":{"key":"12","code":"BS","name":"Basel-Stadt"},"status":"Real"},{"key":"10222685","name":"Inzlingerweg","postalCode":"4126","locality":"Bettingen","commune":{"key":"2702","name":"Bettingen","shortName":"Bettingen"},"district":{"key":"1200","name":"Kanton Basel-Stadt"},"canton":{"key":"12","code":"BS","name":"Basel-Stadt"},"status":"Real"},{"key":"10071985","name":"Isatzweg","postalCode":"5430","locality":"Wettingen","commune":{"key":"4045","name":"Wettingen","shortName":"Wettingen"},"district":{"key":"1902","name":"Bezirk Baden"},"canton":{"key":"19","code":"AG","name":"Aargau"},"status":"Real"},{"key":"10211249","name":"Jagdhüttenweg","postalCode":"5430","locality":"Wettingen","commune":{"key":"4045","name":"Wettingen","shortName":"Wettingen"},"district":{"key":"1902","name":"Bezirk Baden"},"canton":{"key":"19","code":"AG","name":"Aargau"},"status":"Real"},{"key":"10110188","name":"Jägerweg","postalCode":"4126","locality":"Bettingen","commune":{"key":"2702","name":"Bettingen","shortName":"Bettingen"},"district":{"key":"1200","name":"Kanton Basel-Stadt"},"canton":{"key":"12","code":"BS","name":"Basel-Stadt"},"status":"Real"},{"key":"10111425","name":"Jakobstrasse","postalCode":"5430","locality":"Wettingen","commune":{"key":"4045","name":"Wettingen","shortName":"Wettingen"},"district":{"key":"1902","name":"Bezirk Baden"},"canton":{"key":"19","code":"AG","name":"Aargau"},"status":"Real"},{"key":"10035157","name":"J.-J.-Ryffel-Strasse","postalCode":"5430","locality":"Wettingen","commune":{"key":"4045","name":"Wettingen","shortName":"Wettingen"},"district":{"key":"1902","name":"Bezirk Baden"},"canton":{"key":"19","code":"AG","name":"Aargau"},"status":"Real"},{"key":"10092745","name":"Jurastrasse","postalCode":"5430","locality":"Wettingen","commune":{"key":"4045","name":"Wettingen","shortName":"Wettingen"},"district":{"key":"1902","name":"Bezirk Baden"},"canton":{"key":"19","code":"AG","name":"Aargau"},"status":"Real"},{"key":"10174837","name":"Juraweg","postalCode":"4107","locality":"Ettingen","commune":{"key":"2768","name":"Ettingen","shortName":"Ettingen"},"district":{"key":"1301","name":"Bezirk Arlesheim"},"canton":{"key":"13","code":"BL","name":"Basel-Landschaft"},"status":"Real"},{"key":"10222691","name":"Kaiserweg","postalCode":"4126","locality":"Bettingen","commune":{"key":"2702","name":"Bettingen","shortName":"Bettingen"},"district":{"key":"1200","name":"Kanton Basel-Stadt"},"canton":{"key":"12","code":"BS","name":"Basel-Stadt"},"status":"Real"},{"key":"10110498","name":"Kammermattweg","postalCode":"4107","locality":"Ettingen","commune":{"key":"2768","name":"Ettingen","shortName":"Ettingen"},"district":{"key":"1301","name":"Bezirk Arlesheim"},"canton":{"key":"13","code":"BL","name":"Basel-Landschaft"},"status":"Real"},{"key":"10035158","name":"Kanzlerrainstrasse","postalCode":"5430","locality":"Wettingen","commune":{"key":"4045","name":"Wettingen","shortName":"Wettingen"},"district":{"key":"1902","name":"Bezirk Baden"},"canton":{"key":"19","code":"AG","name":"Aargau"},"status":"Real"},{"key":"10071986","name":"Kapellenweg","postalCode":"5430","locality":"Wettingen","commune":{"key":"4045","name":"Wettingen","shortName":"Wettingen"},"district":{"key":"1902","name":"Bezirk Baden"},"canton":{"key":"19","code":"AG","name":"Aargau"},"status":"Real"},{"key":"10194273","name":"Kernerstrasse","postalCode":"4107","locality":"Ettingen","commune":{"key":"2768","name":"Ettingen","shortName":"Ettingen"},"district":{"key":"1301","name":"Bezirk Arlesheim"},"canton":{"key":"13","code":"BL","name":"Basel-Landschaft"},"status":"Real"},{"key":"10239312","name":"Kiesgrübliweg","postalCode":"5430","locality":"Wettingen","commune":{"key":"4045","name":"Wettingen","shortName":"Wettingen"},"district":{"key":"1902","name":"Bezirk Baden"},"canton":{"key":"19","code":"AG","name":"Aargau"},"status":"Real"},{"key":"10016409","name":"Kirchbündtenstrasse","postalCode":"4107","locality":"Ettingen","commune":{"key":"2768","name":"Ettingen","shortName":"Ettingen"},"district":{"key":"1301","name":"Bezirk Arlesheim"},"canton":{"key":"13","code":"BL","name":"Basel-Landschaft"},"status":"Real"},{"key":"10124078","name":"Kirchgasse","postalCode":"4107","locality":"Ettingen","commune":{"key":"2768","name":"Ettingen","shortName":"Ettingen"},"district":{"key":"1301","name":"Bezirk Arlesheim"},"canton":{"key":"13","code":"BL","name":"Basel-Landschaft"},"status":"Real"},{"key":"10118304","name":"Kirchrain","postalCode":"4107","locality":"Ettingen","commune":{"key":"2768","name":"Ettingen","shortName":"Ettingen"},"district":{"key":"1301","name":"Bezirk Arlesheim"},"canton":{"key":"13","code":"BL","name":"Basel-Landschaft"},"status":"Real"},{"key":"10035159","name":"Kirchstrasse","postalCode":"5430","locality":"Wettingen","commune":{"key":"4045","name":"Wettingen","shortName":"Wettingen"},"district":{"key":"1902","name":"Bezirk Baden"},"canton":{"key":"19","code":"AG","name":"Aargau"},"status":"Real"},{"key":"10092746","name":"Klarastrasse","postalCode":"5430","locality":"Wettingen","commune":{"key":"4045","name":"Wettingen","shortName":"Wettingen"},"district":{"key":"1902","name":"Bezirk Baden"},"canton":{"key":"19","code":"AG","name":"Aargau"},"status":"Real"},{"key":"10035160","name":"Klosterparkgässli","postalCode":"5430","locality":"Wettingen","commune":{"key":"4045","name":"Wettingen","shortName":"Wettingen"},"district":{"key":"1902","name":"Bezirk Baden"},"canton":{"key":"19","code":"AG","name":"Aargau"},"status":"Real"},{"key":"10035161","name":"Klosterstrasse","postalCode":"5430","locality":"Wettingen","commune":{"key":"4045","name":"Wettingen","shortName":"Wettingen"},"district":{"key":"1902","name":"Bezirk Baden"},"canton":{"key":"19","code":"AG","name":"Aargau"},"status":"Real"},{"key":"10143535","name":"Klusweg","postalCode":"4107","locality":"Ettingen","commune":{"key":"2768","name":"Ettingen","shortName":"Ettingen"},"district":{"key":"1301","name":"Bezirk Arlesheim"},"canton":{"key":"13","code":"BL","name":"Basel-Landschaft"},"status":"Real"},{"key":"10106659","name":"Kollerstrasse","postalCode":"5430","locality":"Wettingen","commune":{"key":"4045","name":"Wettingen","shortName":"Wettingen"},"district":{"key":"1902","name":"Bezirk Baden"},"canton":{"key":"19","code":"AG","name":"Aargau"},"status":"Real"},{"key":"10092747","name":"Konradstrasse","postalCode":"5430","locality":"Wettingen","commune":{"key":"4045","name":"Wettingen","shortName":"Wettingen"},"district":{"key":"1902","name":"Bezirk Baden"},"canton":{"key":"19","code":"AG","name":"Aargau"},"status":"Real"},{"key":"10143542","name":"Köpfliweg","postalCode":"4107","locality":"Ettingen","commune":{"key":"2768","name":"Ettingen","shortName":"Ettingen"},"district":{"key":"1301","name":"Bezirk Arlesheim"},"canton":{"key":"13","code":"BL","name":"Basel-Landschaft"},"status":"Real"},{"key":"10181266","name":"Kornstrasse","postalCode":"5430","locality":"Wettingen","commune":{"key":"4045","name":"Wettingen","shortName":"Wettingen"},"district":{"key":"1902","name":"Bezirk Baden"},"canton":{"key":"19","code":"AG","name":"Aargau"},"status":"Real"},{"key":"10035162","name":"Kraftwerkstrasse","postalCode":"5430","locality":"Wettingen","commune":{"key":"4045","name":"Wettingen","shortName":"Wettingen"},"district":{"key":"1902","name":"Bezirk Baden"},"canton":{"key":"19","code":"AG","name":"Aargau"},"status":"Real"},{"key":"10092748","name":"Kreuzkapellenweg","postalCode":"5430","locality":"Wettingen","commune":{"key":"4045","name":"Wettingen","shortName":"Wettingen"},"district":{"key":"1902","name":"Bezirk Baden"},"canton":{"key":"19","code":"AG","name":"Aargau"},"status":"Real"},{"key":"10143533","name":"Kriegsweg","postalCode":"4107","locality":"Ettingen","commune":{"key":"2768","name":"Ettingen","shortName":"Ettingen"},"district":{"key":"1301","name":"Bezirk Arlesheim"},"canton":{"key":"13","code":"BL","name":"Basel-Landschaft"},"status":"Real"},{"key":"10016410","name":"Kuntmattring","postalCode":"4107","locality":"Ettingen","commune":{"key":"2768","name":"Ettingen","shortName":"Ettingen"},"district":{"key":"1301","name":"Bezirk Arlesheim"},"canton":{"key":"13","code":"BL","name":"Basel-Landschaft"},"status":"Real"},{"key":"10035166","name":"Lägernstrasse","postalCode":"5430","locality":"Wettingen","commune":{"key":"4045","name":"Wettingen","shortName":"Wettingen"},"district":{"key":"1902","name":"Bezirk Baden"},"canton":{"key":"19","code":"AG","name":"Aargau"},"status":"Real"},{"key":"10045928","name":"Landhausweg","postalCode":"4126","locality":"Bettingen","commune":{"key":"2702","name":"Bettingen","shortName":"Bettingen"},"district":{"key":"1200","name":"Kanton Basel-Stadt"},"canton":{"key":"12","code":"BS","name":"Basel-Stadt"},"status":"Real"},{"key":"10121435","name":"Landskronweg","postalCode":"4107","locality":"Ettingen","commune":{"key":"2768","name":"Ettingen","shortName":"Ettingen"},"district":{"key":"1301","name":"Bezirk Arlesheim"},"canton":{"key":"13","code":"BL","name":"Basel-Landschaft"},"status":"Real"},{"key":"10188289","name":"Landstrasse","postalCode":"5430","locality":"Wettingen","commune":{"key":"4045","name":"Wettingen","shortName":"Wettingen"},"district":{"key":"1902","name":"Bezirk Baden"},"canton":{"key":"19","code":"AG","name":"Aargau"},"status":"Real"},{"key":"10035163","name":"Langäcker","postalCode":"5430","locality":"Wettingen","commune":{"key":"4045","name":"Wettingen","shortName":"Wettingen"},"district":{"key":"1902","name":"Bezirk Baden"},"canton":{"key":"19","code":"AG","name":"Aargau"},"status":"Real"},{"key":"10143371","name":"Langackerweg","postalCode":"4107","locality":"Ettingen","commune":{"key":"2768","name":"Ettingen","shortName":"Ettingen"},"district":{"key":"1301","name":"Bezirk Arlesheim"},"canton":{"key":"13","code":"BL","name":"Basel-Landschaft"},"status":"Real"},{"key":"10239316","name":"Lättegässli","postalCode":"5430","locality":"Wettingen","commune":{"key":"4045","name":"Wettingen","shortName":"Wettingen"},"district":{"key":"1902","name":"Bezirk Baden"},"canton":{"key":"19","code":"AG","name":"Aargau"},"status":"Real"},{"key":"10239320","name":"Lättenweg","postalCode":"5430","locality":"Wettingen","commune":{"key":"4045","name":"Wettingen","shortName":"Wettingen"},"district":{"key":"1902","name":"Bezirk Baden"},"canton":{"key":"19","code":"AG","name":"Aargau"},"status":"Real"},{"key":"10222695","name":"Lauberweg","postalCode":"4126","locality":"Bettingen","commune":{"key":"2702","name":"Bettingen","shortName":"Bettingen"},"district":{"key":"1200","name":"Kanton Basel-Stadt"},"canton":{"key":"12","code":"BS","name":"Basel-Stadt"},"status":"Real"},{"key":"10087739","name":"Lebernring","postalCode":"4107","locality":"Ettingen","commune":{"key":"2768","name":"Ettingen","shortName":"Ettingen"},"district":{"key":"1301","name":"Bezirk Arlesheim"},"canton":{"key":"13","code":"BL","name":"Basel-Landschaft"},"status":"Real"},{"key":"10016411","name":"Lebernweg","postalCode":"4107","locality":"Ettingen","commune":{"key":"2768","name":"Ettingen","shortName":"Ettingen"},"district":{"key":"1301","name":"Bezirk Arlesheim"},"canton":{"key":"13","code":"BL","name":"Basel-Landschaft"},"status":"Real"},{"key":"10239324","name":"Lehweg","postalCode":"5430","locality":"Wettingen","commune":{"key":"4045","name":"Wettingen","shortName":"Wettingen"},"district":{"key":"1902","name":"Bezirk Baden"},"canton":{"key":"19","code":"AG","name":"Aargau"},"status":"Real"},{"key":"10089313","name":"Lenzenweg","postalCode":"4126","locality":"Bettingen","commune":{"key":"2702","name":"Bettingen","shortName":"Bettingen"},"district":{"key":"1200","name":"Kanton Basel-Stadt"},"canton":{"key":"12","code":"BS","name":"Basel-Stadt"},"status":"Real"},{"key":"10152918","name":"Lerchenflug","postalCode":"4107","locality":"Ettingen","commune":{"key":"2768","name":"Ettingen","shortName":"Ettingen"},"district":{"key":"1301","name":"Bezirk Arlesheim"},"canton":{"key":"13","code":"BL","name":"Basel-Landschaft"},"status":"Real"},{"key":"10035164","name":"Lerchenstrasse","postalCode":"5430","locality":"Wettingen","commune":{"key":"4045","name":"Wettingen","shortName":"Wettingen"},"district":{"key":"1902","name":"Bezirk Baden"},"canton":{"key":"19","code":"AG","name":"Aargau"},"status":"Real"},{"key":"10016412","name":"Leymenstrasse","postalCode":"4107","locality":"Ettingen","commune":{"key":"2768","name":"Ettingen","shortName":"Ettingen"},"district":{"key":"1301","name":"Bezirk Arlesheim"},"canton":{"key":"13","code":"BL","name":"Basel-Landschaft"},"status":"Real"},{"key":"10092749","name":"Ligusterweg","postalCode":"5430","locality":"Wettingen","commune":{"key":"4045","name":"Wettingen","shortName":"Wettingen"},"district":{"key":"1902","name":"Bezirk Baden"},"canton":{"key":"19","code":"AG","name":"Aargau"},"status":"Real"},{"key":"10025141","name":"Lindengasse","postalCode":"4126","locality":"Bettingen","commune":{"key":"2702","name":"Bettingen","shortName":"Bettingen"},"district":{"key":"1200","name":"Kanton Basel-Stadt"},"canton":{"key":"12","code":"BS","name":"Basel-Stadt"},"status":"Real"},{"key":"10071987","name":"Lindenhof","postalCode":"5430","locality":"Wettingen","commune":{"key":"4045","name":"Wettingen","shortName":"Wettingen"},"district":{"key":"1902","name":"Bezirk Baden"},"canton":{"key":"19","code":"AG","name":"Aargau"},"status":"Real"},{"key":"10120310","name":"Lindenplatz","postalCode":"4126","locality":"Bettingen","commune":{"key":"2702","name":"Bettingen","shortName":"Bettingen"},"district":{"key":"1200","name":"Kanton Basel-Stadt"},"canton":{"key":"12","code":"BS","name":"Basel-Stadt"},"status":"Real"},{"key":"10060057","name":"Lindenplatz","postalCode":"5430","locality":"Wettingen","commune":{"key":"4045","name":"Wettingen","shortName":"Wettingen"},"district":{"key":"1902","name":"Bezirk Baden"},"canton":{"key":"19","code":"AG","name":"Aargau"},"status":"Real"},{"key":"10035165","name":"Lindenstrasse","postalCode":"5430","locality":"Wettingen","commune":{"key":"4045","name":"Wettingen","shortName":"Wettingen"},"district":{"key":"1902","name":"Bezirk Baden"},"canton":{"key":"19","code":"AG","name":"Aargau"},"status":"Real"},{"key":"10103019","name":"Linsbergweg","postalCode":"4126","locality":"Bettingen","commune":{"key":"2702","name":"Bettingen","shortName":"Bettingen"},"district":{"key":"1200","name":"Kanton Basel-Stadt"},"canton":{"key":"12","code":"BS","name":"Basel-Stadt"},"status":"Real"},{"key":"10143519","name":"Lochmattenweg","postalCode":"4107","locality":"Ettingen","commune":{"key":"2768","name":"Ettingen","shortName":"Ettingen"},"district":{"key":"1301","name":"Bezirk Arlesheim"},"canton":{"key":"13","code":"BL","name":"Basel-Landschaft"},"status":"Real"},{"key":"10103528","name":"Lohweg","postalCode":"4107","locality":"Ettingen","commune":{"key":"2768","name":"Ettingen","shortName":"Ettingen"},"district":{"key":"1301","name":"Bezirk Arlesheim"},"canton":{"key":"13","code":"BL","name":"Basel-Landschaft"},"status":"Real"},{"key":"10139972","name":"Lugibachstrasse","postalCode":"5430","locality":"Wettingen","commune":{"key":"4045","name":"Wettingen","shortName":"Wettingen"},"district":{"key":"1902","name":"Bezirk Baden"},"canton":{"key":"19","code":"AG","name":"Aargau"},"status":"Real"},{"key":"10239328","name":"Maiächerstrasse","postalCode":"5430","locality":"Wettingen","commune":{"key":"4045","name":"Wettingen","shortName":"Wettingen"},"district":{"key":"1902","name":"Bezirk Baden"},"canton":{"key":"19","code":"AG","name":"Aargau"},"status":"Real"},{"key":"10185351","name":"Maistrasse","postalCode":"5430","locality":"Wettingen","commune":{"key":"4045","name":"Wettingen","shortName":"Wettingen"},"district":{"key":"1902","name":"Bezirk Baden"},"canton":{"key":"19","code":"AG","name":"Aargau"},"status":"Real"},{"key":"10087740","name":"Marchbachstrasse","postalCode":"4107","locality":"Ettingen","commune":{"key":"2768","name":"Ettingen","shortName":"Ettingen"},"district":{"key":"1301","name":"Bezirk Arlesheim"},"canton":{"key":"13","code":"BL","name":"Basel-Landschaft"},"status":"Real"},{"key":"10071988","name":"Margelstrasse","postalCode":"5430","locality":"Wettingen","commune":{"key":"4045","name":"Wettingen","shortName":"Wettingen"},"district":{"key":"1902","name":"Bezirk Baden"},"canton":{"key":"19","code":"AG","name":"Aargau"},"status":"Real"},{"key":"10124738","name":"Märzengasse","postalCode":"5430","locality":"Wettingen","commune":{"key":"4045","name":"Wettingen","shortName":"Wettingen"},"district":{"key":"1902","name":"Bezirk Baden"},"canton":{"key":"19","code":"AG","name":"Aargau"},"status":"Real"},{"key":"10154109","name":"Mässjucharten","postalCode":"4107","locality":"Ettingen","commune":{"key":"2768","name":"Ettingen","shortName":"Ettingen"},"district":{"key":"1301","name":"Bezirk Arlesheim"},"canton":{"key":"13","code":"BL","name":"Basel-Landschaft"},"status":"Real"},{"key":"10092750","name":"Mattenstrasse","postalCode":"5430","locality":"Wettingen","commune":{"key":"4045","name":"Wettingen","shortName":"Wettingen"},"district":{"key":"1902","name":"Bezirk Baden"},"canton":{"key":"19","code":"AG","name":"Aargau"},"status":"Real"},{"key":"10222766","name":"Mattenwegli","postalCode":"4126","locality":"Bettingen","commune":{"key":"2702","name":"Bettingen","shortName":"Bettingen"},"district":{"key":"1200","name":"Kanton Basel-Stadt"},"canton":{"key":"12","code":"BS","name":"Basel-Stadt"},"status":"Real"},{"key":"10154110","name":"Matztal","postalCode":"4107","locality":"Ettingen","commune":{"key":"2768","name":"Ettingen","shortName":"Ettingen"},"district":{"key":"1301","name":"Bezirk Arlesheim"},"canton":{"key":"13","code":"BL","name":"Basel-Landschaft"},"status":"Real"},{"key":"10035167","name":"Meisenweg","postalCode":"5430","locality":"Wettingen","commune":{"key":"4045","name":"Wettingen","shortName":"Wettingen"},"district":{"key":"1902","name":"Bezirk Baden"},"canton":{"key":"19","code":"AG","name":"Aargau"},"status":"Real"},{"key":"10222769","name":"Mennweg","postalCode":"4126","locality":"Bettingen","commune":{"key":"2702","name":"Bettingen","shortName":"Bettingen"},"district":{"key":"1200","name":"Kanton Basel-Stadt"},"canton":{"key":"12","code":"BS","name":"Basel-Stadt"},"status":"Real"},{"key":"10143370","name":"Mettliweg","postalCode":"4107","locality":"Ettingen","commune":{"key":"2768","name":"Ettingen","shortName":"Ettingen"},"district":{"key":"1301","name":"Bezirk Arlesheim"},"canton":{"key":"13","code":"BL","name":"Basel-Landschaft"},"status":"Real"},{"key":"10035168","name":"Mittelstrasse","postalCode":"5430","locality":"Wettingen","commune":{"key":"4045","name":"Wettingen","shortName":"Wettingen"},"district":{"key":"1902","name":"Bezirk Baden"},"canton":{"key":"19","code":"AG","name":"Aargau"},"status":"Real"},{"key":"10092751","name":"Mooshaldenstrasse","postalCode":"5430","locality":"Wettingen","commune":{"key":"4045","name":"Wettingen","shortName":"Wettingen"},"district":{"key":"1902","name":"Bezirk Baden"},"canton":{"key":"19","code":"AG","name":"Aargau"},"status":"Real"},{"key":"10071989","name":"Mooshof","postalCode":"5430","locality":"Wettingen","commune":{"key":"4045","name":"Wettingen","shortName":"Wettingen"},"district":{"key":"1902","name":"Bezirk Baden"},"canton":{"key":"19","code":"AG","name":"Aargau"},"status":"Real"},{"key":"10143524","name":"Möslibachweg","postalCode":"4107","locality":"Ettingen","commune":{"key":"2768","name":"Ettingen","shortName":"Ettingen"},"district":{"key":"1301","name":"Bezirk Arlesheim"},"canton":{"key":"13","code":"BL","name":"Basel-Landschaft"},"status":"Real"},{"key":"10016413","name":"Mühlehalde","postalCode":"4107","locality":"Ettingen","commune":{"key":"2768","name":"Ettingen","shortName":"Ettingen"},"district":{"key":"1301","name":"Bezirk Arlesheim"},"canton":{"key":"13","code":"BL","name":"Basel-Landschaft"},"status":"Real"},{"key":"10143372","name":"Mühleholzweg","postalCode":"4107","locality":"Ettingen","commune":{"key":"2768","name":"Ettingen","shortName":"Ettingen"},"district":{"key":"1301","name":"Bezirk Arlesheim"},"canton":{"key":"13","code":"BL","name":"Basel-Landschaft"},"status":"Real"},{"key":"10016414","name":"Mühlerain","postalCode":"4107","locality":"Ettingen","commune":{"key":"2768","name":"Ettingen","shortName":"Ettingen"},"district":{"key":"1301","name":"Bezirk Arlesheim"},"canton":{"key":"13","code":"BL","name":"Basel-Landschaft"},"status":"Real"},{"key":"10035169","name":"Müllernstrasse","postalCode":"5430","locality":"Wettingen","commune":{"key":"4045","name":"Wettingen","shortName":"Wettingen"},"district":{"key":"1902","name":"Bezirk Baden"},"canton":{"key":"19","code":"AG","name":"Aargau"},"status":"Real"},{"key":"10154111","name":"Munimatten","postalCode":"4107","locality":"Ettingen","commune":{"key":"2768","name":"Ettingen","shortName":"Ettingen"},"district":{"key":"1301","name":"Bezirk Arlesheim"},"canton":{"key":"13","code":"BL","name":"Basel-Landschaft"},"status":"Real"},{"key":"10101602","name":"Muristrasse","postalCode":"5430","locality":"Wettingen","commune":{"key":"4045","name":"Wettingen","shortName":"Wettingen"},"district":{"key":"1902","name":"Bezirk Baden"},"canton":{"key":"19","code":"AG","name":"Aargau"},"status":"Real"},{"key":"10111426","name":"Mythenstrasse","postalCode":"5430","locality":"Wettingen","commune":{"key":"4045","name":"Wettingen","shortName":"Wettingen"},"district":{"key":"1902","name":"Bezirk Baden"},"canton":{"key":"19","code":"AG","name":"Aargau"},"status":"Real"},{"key":"10092752","name":"Nägelistrasse","postalCode":"5430","locality":"Wettingen","commune":{"key":"4045","name":"Wettingen","shortName":"Wettingen"},"district":{"key":"1902","name":"Bezirk Baden"},"canton":{"key":"19","code":"AG","name":"Aargau"},"status":"Real"},{"key":"10052466","name":"Nägeliweg","postalCode":"5430","locality":"Wettingen","commune":{"key":"4045","name":"Wettingen","shortName":"Wettingen"},"district":{"key":"1902","name":"Bezirk Baden"},"canton":{"key":"19","code":"AG","name":"Aargau"},"status":"Real"},{"key":"10052464","name":"Nelkenweg","postalCode":"5430","locality":"Wettingen","commune":{"key":"4045","name":"Wettingen","shortName":"Wettingen"},"district":{"key":"1902","name":"Bezirk Baden"},"canton":{"key":"19","code":"AG","name":"Aargau"},"status":"Real"},{"key":"10062479","name":"Nenzlingerstrasse","postalCode":"4107","locality":"Ettingen","commune":{"key":"2768","name":"Ettingen","shortName":"Ettingen"},"district":{"key":"1301","name":"Bezirk Arlesheim"},"canton":{"key":"13","code":"BL","name":"Basel-Landschaft"},"status":"Real"},{"key":"10177184","name":"Neubergliweg","postalCode":"4107","locality":"Ettingen","commune":{"key":"2768","name":"Ettingen","shortName":"Ettingen"},"district":{"key":"1301","name":"Bezirk Arlesheim"},"canton":{"key":"13","code":"BL","name":"Basel-Landschaft"},"status":"Real"},{"key":"10118021","name":"Neufeldstrasse","postalCode":"5430","locality":"Wettingen","commune":{"key":"4045","name":"Wettingen","shortName":"Wettingen"},"district":{"key":"1902","name":"Bezirk Baden"},"canton":{"key":"19","code":"AG","name":"Aargau"},"status":"Real"},{"key":"10154112","name":"Neupfadbrünnli","postalCode":"4107","locality":"Ettingen","commune":{"key":"2768","name":"Ettingen","shortName":"Ettingen"},"district":{"key":"1301","name":"Bezirk Arlesheim"},"canton":{"key":"13","code":"BL","name":"Basel-Landschaft"},"status":"Real"},{"key":"10052465","name":"Neustrasse","postalCode":"5430","locality":"Wettingen","commune":{"key":"4045","name":"Wettingen","shortName":"Wettingen"},"district":{"key":"1902","name":"Bezirk Baden"},"canton":{"key":"19","code":"AG","name":"Aargau"},"status":"Real"},{"key":"10087741","name":"Nonnenmattstrasse","postalCode":"4107","locality":"Ettingen","commune":{"key":"2768","name":"Ettingen","shortName":"Ettingen"},"district":{"key":"1301","name":"Bezirk Arlesheim"},"canton":{"key":"13","code":"BL","name":"Basel-Landschaft"},"status":"Real"},{"key":"10215136","name":"Nonnenmattweglein","postalCode":"4107","locality":"Ettingen","commune":{"key":"2768","name":"Ettingen","shortName":"Ettingen"},"district":{"key":"1301","name":"Bezirk Arlesheim"},"canton":{"key":"13","code":"BL","name":"Basel-Landschaft"},"status":"Real"},{"key":"10071990","name":"Nordstrasse","postalCode":"5430","locality":"Wettingen","commune":{"key":"4045","name":"Wettingen","shortName":"Wettingen"},"district":{"key":"1902","name":"Bezirk Baden"},"canton":{"key":"19","code":"AG","name":"Aargau"},"status":"Real"},{"key":"10016415","name":"Oberdorfgasse","postalCode":"4107","locality":"Ettingen","commune":{"key":"2768","name":"Ettingen","shortName":"Ettingen"},"district":{"key":"1301","name":"Bezirk Arlesheim"},"canton":{"key":"13","code":"BL","name":"Basel-Landschaft"},"status":"Real"},{"key":"10063854","name":"Obere Dorfstrasse","postalCode":"4126","locality":"Bettingen","commune":{"key":"2702","name":"Bettingen","shortName":"Bettingen"},"district":{"key":"1200","name":"Kanton Basel-Stadt"},"canton":{"key":"12","code":"BS","name":"Basel-Stadt"},"status":"Real"},{"key":"10016416","name":"Obere Kirchgasse","postalCode":"4107","locality":"Ettingen","commune":{"key":"2768","name":"Ettingen","shortName":"Ettingen"},"district":{"key":"1301","name":"Bezirk Arlesheim"},"canton":{"key":"13","code":"BL","name":"Basel-Landschaft"},"status":"Real"},{"key":"10035170","name":"Obere Kirchzelg","postalCode":"5430","locality":"Wettingen","commune":{"key":"4045","name":"Wettingen","shortName":"Wettingen"},"district":{"key":"1902","name":"Bezirk Baden"},"canton":{"key":"19","code":"AG","name":"Aargau"},"status":"Real"},{"key":"10185352","name":"Obergrundstrasse","postalCode":"5430","locality":"Wettingen","commune":{"key":"4045","name":"Wettingen","shortName":"Wettingen"},"district":{"key":"1902","name":"Bezirk Baden"},"canton":{"key":"19","code":"AG","name":"Aargau"},"status":"Real"},{"key":"10016417","name":"Oberwilerstrasse","postalCode":"4107","locality":"Ettingen","commune":{"key":"2768","name":"Ettingen","shortName":"Ettingen"},"district":{"key":"1301","name":"Bezirk Arlesheim"},"canton":{"key":"13","code":"BL","name":"Basel-Landschaft"},"status":"Real"},{"key":"10092753","name":"Obstgartenstrasse","postalCode":"5430","locality":"Wettingen","commune":{"key":"4045","name":"Wettingen","shortName":"Wettingen"},"district":{"key":"1902","name":"Bezirk Baden"},"canton":{"key":"19","code":"AG","name":"Aargau"},"status":"Real"},{"key":"10239332","name":"Ofenweg","postalCode":"5430","locality":"Wettingen","commune":{"key":"4045","name":"Wettingen","shortName":"Wettingen"},"district":{"key":"1902","name":"Bezirk Baden"},"canton":{"key":"19","code":"AG","name":"Aargau"},"status":"Real"},{"key":"10052467","name":"Otelfingerstrasse","postalCode":"5430","locality":"Wettingen","commune":{"key":"4045","name":"Wettingen","shortName":"Wettingen"},"district":{"key":"1902","name":"Bezirk Baden"},"canton":{"key":"19","code":"AG","name":"Aargau"},"status":"Real"},{"key":"10106660","name":"Pelikanstrasse","postalCode":"5430","locality":"Wettingen","commune":{"key":"4045","name":"Wettingen","shortName":"Wettingen"},"district":{"key":"1902","name":"Bezirk Baden"},"canton":{"key":"19","code":"AG","name":"Aargau"},"status":"Real"},{"key":"10025142","name":"Petersgasse","postalCode":"4126","locality":"Bettingen","commune":{"key":"2702","name":"Bettingen","shortName":"Bettingen"},"district":{"key":"1200","name":"Kanton Basel-Stadt"},"canton":{"key":"12","code":"BS","name":"Basel-Stadt"},"status":"Real"},{"key":"10143507","name":"Pfaffenholz","postalCode":"4107","locality":"Ettingen","commune":{"key":"2768","name":"Ettingen","shortName":"Ettingen"},"district":{"key":"1301","name":"Bezirk Arlesheim"},"canton":{"key":"13","code":"BL","name":"Basel-Landschaft"},"status":"Real"},{"key":"10154113","name":"Pfaffenholzweg","postalCode":"4107","locality":"Ettingen","commune":{"key":"2768","name":"Ettingen","shortName":"Ettingen"},"district":{"key":"1301","name":"Bezirk Arlesheim"},"canton":{"key":"13","code":"BL","name":"Basel-Landschaft"},"status":"Real"},{"key":"10062480","name":"Pfeffingerstrasse","postalCode":"4107","locality":"Ettingen","commune":{"key":"2768","name":"Ettingen","shortName":"Ettingen"},"district":{"key":"1301","name":"Bezirk Arlesheim"},"canton":{"key":"13","code":"BL","name":"Basel-Landschaft"},"status":"Real"},{"key":"10239371","name":"Pflanzgartenweg","postalCode":"5430","locality":"Wettingen","commune":{"key":"4045","name":"Wettingen","shortName":"Wettingen"},"district":{"key":"1902","name":"Bezirk Baden"},"canton":{"key":"19","code":"AG","name":"Aargau"},"status":"Real"},{"key":"10035171","name":"Pilatusstrasse","postalCode":"5430","locality":"Wettingen","commune":{"key":"4045","name":"Wettingen","shortName":"Wettingen"},"district":{"key":"1902","name":"Bezirk Baden"},"canton":{"key":"19","code":"AG","name":"Aargau"},"status":"Real"},{"key":"10035172","name":"Platanenstrasse","postalCode":"5430","locality":"Wettingen","commune":{"key":"4045","name":"Wettingen","shortName":"Wettingen"},"district":{"key":"1902","name":"Bezirk Baden"},"canton":{"key":"19","code":"AG","name":"Aargau"},"status":"Real"},{"key":"10143515","name":"Plattenweg","postalCode":"4107","locality":"Ettingen","commune":{"key":"2768","name":"Ettingen","shortName":"Ettingen"},"district":{"key":"1301","name":"Bezirk Arlesheim"},"canton":{"key":"13","code":"BL","name":"Basel-Landschaft"},"status":"Real"},{"key":"10143506","name":"Plittenenweg","postalCode":"4107","locality":"Ettingen","commune":{"key":"2768","name":"Ettingen","shortName":"Ettingen"},"district":{"key":"1301","name":"Bezirk Arlesheim"},"canton":{"key":"13","code":"BL","name":"Basel-Landschaft"},"status":"Real"},{"key":"10101603","name":"Quartierstrasse","postalCode":"5430","locality":"Wettingen","commune":{"key":"4045","name":"Wettingen","shortName":"Wettingen"},"district":{"key":"1902","name":"Bezirk Baden"},"canton":{"key":"19","code":"AG","name":"Aargau"},"status":"Real"},{"key":"10154114","name":"Rainackerweg","postalCode":"4107","locality":"Ettingen","commune":{"key":"2768","name":"Ettingen","shortName":"Ettingen"},"district":{"key":"1301","name":"Bezirk Arlesheim"},"canton":{"key":"13","code":"BL","name":"Basel-Landschaft"},"status":"Real"},{"key":"10154115","name":"Rainagger","postalCode":"4107","locality":"Ettingen","commune":{"key":"2768","name":"Ettingen","shortName":"Ettingen"},"district":{"key":"1301","name":"Bezirk Arlesheim"},"canton":{"key":"13","code":"BL","name":"Basel-Landschaft"},"status":"Real"},{"key":"10175696","name":"Rainweg","postalCode":"4126","locality":"Bettingen","commune":{"key":"2702","name":"Bettingen","shortName":"Bettingen"},"district":{"key":"1200","name":"Kanton Basel-Stadt"},"canton":{"key":"12","code":"BS","name":"Basel-Stadt"},"status":"Real"},{"key":"10092754","name":"Rankstrasse","postalCode":"5430","locality":"Wettingen","commune":{"key":"4045","name":"Wettingen","shortName":"Wettingen"},"district":{"key":"1902","name":"Bezirk Baden"},"canton":{"key":"19","code":"AG","name":"Aargau"},"status":"Real"},{"key":"10215137","name":"Räuschlingweg","postalCode":"4107","locality":"Ettingen","commune":{"key":"2768","name":"Ettingen","shortName":"Ettingen"},"district":{"key":"1301","name":"Bezirk Arlesheim"},"canton":{"key":"13","code":"BL","name":"Basel-Landschaft"},"status":"Real"},{"key":"10035173","name":"Rebbergstrasse","postalCode":"5430","locality":"Wettingen","commune":{"key":"4045","name":"Wettingen","shortName":"Wettingen"},"district":{"key":"1902","name":"Bezirk Baden"},"canton":{"key":"19","code":"AG","name":"Aargau"},"status":"Real"},{"key":"10071991","name":"Rebhaldenstrasse","postalCode":"5430","locality":"Wettingen","commune":{"key":"4045","name":"Wettingen","shortName":"Wettingen"},"district":{"key":"1902","name":"Bezirk Baden"},"canton":{"key":"19","code":"AG","name":"Aargau"},"status":"Real"},{"key":"10052468","name":"Rebstrasse","postalCode":"5430","locality":"Wettingen","commune":{"key":"4045","name":"Wettingen","shortName":"Wettingen"},"district":{"key":"1902","name":"Bezirk Baden"},"canton":{"key":"19","code":"AG","name":"Aargau"},"status":"Real"},{"key":"10196764","name":"Regentstrasse","postalCode":"4107","locality":"Ettingen","commune":{"key":"2768","name":"Ettingen","shortName":"Ettingen"},"district":{"key":"1301","name":"Bezirk Arlesheim"},"canton":{"key":"13","code":"BL","name":"Basel-Landschaft"},"status":"Real"},{"key":"10087742","name":"Reichensteinerweg","postalCode":"4107","locality":"Ettingen","commune":{"key":"2768","name":"Ettingen","shortName":"Ettingen"},"district":{"key":"1301","name":"Bezirk Arlesheim"},"canton":{"key":"13","code":"BL","name":"Basel-Landschaft"},"status":"Real"},{"key":"10035174","name":"Reinhardstrasse","postalCode":"5430","locality":"Wettingen","commune":{"key":"4045","name":"Wettingen","shortName":"Wettingen"},"district":{"key":"1902","name":"Bezirk Baden"},"canton":{"key":"19","code":"AG","name":"Aargau"},"status":"Real"},{"key":"10035175","name":"Rennweg","postalCode":"5430","locality":"Wettingen","commune":{"key":"4045","name":"Wettingen","shortName":"Wettingen"},"district":{"key":"1902","name":"Bezirk Baden"},"canton":{"key":"19","code":"AG","name":"Aargau"},"status":"Real"},{"key":"10143523","name":"Reservoirweg","postalCode":"4107","locality":"Ettingen","commune":{"key":"2768","name":"Ettingen","shortName":"Ettingen"},"district":{"key":"1301","name":"Bezirk Arlesheim"},"canton":{"key":"13","code":"BL","name":"Basel-Landschaft"},"status":"Real"},{"key":"10222773","name":"Reubergweg","postalCode":"4126","locality":"Bettingen","commune":{"key":"2702","name":"Bettingen","shortName":"Bettingen"},"district":{"key":"1200","name":"Kanton Basel-Stadt"},"canton":{"key":"12","code":"BS","name":"Basel-Stadt"},"status":"Real"},{"key":"10016418","name":"Richenmattweg","postalCode":"4107","locality":"Ettingen","commune":{"key":"2768","name":"Ettingen","shortName":"Ettingen"},"district":{"key":"1301","name":"Bezirk Arlesheim"},"canton":{"key":"13","code":"BL","name":"Basel-Landschaft"},"status":"Real"},{"key":"10222777","name":"Riesiweg","postalCode":"4126","locality":"Bettingen","commune":{"key":"2702","name":"Bettingen","shortName":"Bettingen"},"district":{"key":"1200","name":"Kanton Basel-Stadt"},"canton":{"key":"12","code":"BS","name":"Basel-Stadt"},"status":"Real"},{"key":"10222718","name":"Riesiwegli","postalCode":"4126","locality":"Bettingen","commune":{"key":"2702","name":"Bettingen","shortName":"Bettingen"},"district":{"key":"1200","name":"Kanton Basel-Stadt"},"canton":{"key":"12","code":"BS","name":"Basel-Stadt"},"status":"Real"},{"key":"10203214","name":"Rieslingstrasse","postalCode":"4107","locality":"Ettingen","commune":{"key":"2768","name":"Ettingen","shortName":"Ettingen"},"district":{"key":"1301","name":"Bezirk Arlesheim"},"canton":{"key":"13","code":"BL","name":"Basel-Landschaft"},"status":"Real"},{"key":"10052469","name":"Rigistrasse","postalCode":"5430","locality":"Wettingen","commune":{"key":"4045","name":"Wettingen","shortName":"Wettingen"},"district":{"key":"1902","name":"Bezirk Baden"},"canton":{"key":"19","code":"AG","name":"Aargau"},"status":"Real"},{"key":"10215080","name":"Rivanerweg","postalCode":"4107","locality":"Ettingen","commune":{"key":"2768","name":"Ettingen","shortName":"Ettingen"},"district":{"key":"1301","name":"Bezirk Arlesheim"},"canton":{"key":"13","code":"BL","name":"Basel-Landschaft"},"status":"Real"},{"key":"10092755","name":"Roggenstrasse","postalCode":"5430","locality":"Wettingen","commune":{"key":"4045","name":"Wettingen","shortName":"Wettingen"},"district":{"key":"1902","name":"Bezirk Baden"},"canton":{"key":"19","code":"AG","name":"Aargau"},"status":"Real"},{"key":"10035176","name":"Rosenauweg","postalCode":"5430","locality":"Wettingen","commune":{"key":"4045","name":"Wettingen","shortName":"Wettingen"},"district":{"key":"1902","name":"Bezirk Baden"},"canton":{"key":"19","code":"AG","name":"Aargau"},"status":"Real"},{"key":"10192011","name":"Rosengartenstrasse","postalCode":"5430","locality":"Wettingen","commune":{"key":"4045","name":"Wettingen","shortName":"Wettingen"},"district":{"key":"1902","name":"Bezirk Baden"},"canton":{"key":"19","code":"AG","name":"Aargau"},"status":"Real"},{"key":"10239336","name":"Rötelweg","postalCode":"5430","locality":"Wettingen","commune":{"key":"4045","name":"Wettingen","shortName":"Wettingen"},"district":{"key":"1902","name":"Bezirk Baden"},"canton":{"key":"19","code":"AG","name":"Aargau"},"status":"Real"},{"key":"10035177","name":"Rudolf-Funk-Strasse","postalCode":"5430","locality":"Wettingen","commune":{"key":"4045","name":"Wettingen","shortName":"Wettingen"},"district":{"key":"1902","name":"Bezirk Baden"},"canton":{"key":"19","code":"AG","name":"Aargau"},"status":"Real"},{"key":"10143472","name":"Rumpelweg","postalCode":"4107","locality":"Ettingen","commune":{"key":"2768","name":"Ettingen","shortName":"Ettingen"},"district":{"key":"1301","name":"Bezirk Arlesheim"},"canton":{"key":"13","code":"BL","name":"Basel-Landschaft"},"status":"Real"},{"key":"10154116","name":"Rütenen","postalCode":"4107","locality":"Ettingen","commune":{"key":"2768","name":"Ettingen","shortName":"Ettingen"},"district":{"key":"1301","name":"Bezirk Arlesheim"},"canton":{"key":"13","code":"BL","name":"Basel-Landschaft"},"status":"Real"},{"key":"10222723","name":"Rütenenweg","postalCode":"4126","locality":"Bettingen","commune":{"key":"2702","name":"Bettingen","shortName":"Bettingen"},"district":{"key":"1200","name":"Kanton Basel-Stadt"},"canton":{"key":"12","code":"BS","name":"Basel-Stadt"},"status":"Real"},{"key":"10071992","name":"Rütlistrasse","postalCode":"5430","locality":"Wettingen","commune":{"key":"4045","name":"Wettingen","shortName":"Wettingen"},"district":{"key":"1902","name":"Bezirk Baden"},"canton":{"key":"19","code":"AG","name":"Aargau"},"status":"Real"},{"key":"10143530","name":"Rüttenenköpfliweg","postalCode":"4107","locality":"Ettingen","commune":{"key":"2768","name":"Ettingen","shortName":"Ettingen"},"district":{"key":"1301","name":"Bezirk Arlesheim"},"canton":{"key":"13","code":"BL","name":"Basel-Landschaft"},"status":"Real"},{"key":"10143521","name":"Rütteneweg","postalCode":"4107","locality":"Ettingen","commune":{"key":"2768","name":"Ettingen","shortName":"Ettingen"},"district":{"key":"1301","name":"Bezirk Arlesheim"},"canton":{"key":"13","code":"BL","name":"Basel-Landschaft"},"status":"Real"},{"key":"10143465","name":"Saalbodenweg","postalCode":"4107","locality":"Ettingen","commune":{"key":"2768","name":"Ettingen","shortName":"Ettingen"},"district":{"key":"1301","name":"Bezirk Arlesheim"},"canton":{"key":"13","code":"BL","name":"Basel-Landschaft"},"status":"Real"},{"key":"10108135","name":"Säntisstrasse","postalCode":"5430","locality":"Wettingen","commune":{"key":"4045","name":"Wettingen","shortName":"Wettingen"},"district":{"key":"1902","name":"Bezirk Baden"},"canton":{"key":"19","code":"AG","name":"Aargau"},"status":"Real"},{"key":"10222725","name":"Schafrainweg","postalCode":"4126","locality":"Bettingen","commune":{"key":"2702","name":"Bettingen","shortName":"Bettingen"},"district":{"key":"1200","name":"Kanton Basel-Stadt"},"canton":{"key":"12","code":"BS","name":"Basel-Stadt"},"status":"Real"},{"key":"10154057","name":"Schaiengarten","postalCode":"4107","locality":"Ettingen","commune":{"key":"2768","name":"Ettingen","shortName":"Ettingen"},"district":{"key":"1301","name":"Bezirk Arlesheim"},"canton":{"key":"13","code":"BL","name":"Basel-Landschaft"},"status":"Real"},{"key":"10174838","name":"Schaiengässli","postalCode":"4107","locality":"Ettingen","commune":{"key":"2768","name":"Ettingen","shortName":"Ettingen"},"district":{"key":"1301","name":"Bezirk Arlesheim"},"canton":{"key":"13","code":"BL","name":"Basel-Landschaft"},"status":"Real"},{"key":"10016419","name":"Schaienrain","postalCode":"4107","locality":"Ettingen","commune":{"key":"2768","name":"Ettingen","shortName":"Ettingen"},"district":{"key":"1301","name":"Bezirk Arlesheim"},"canton":{"key":"13","code":"BL","name":"Basel-Landschaft"},"status":"Real"},{"key":"10087743","name":"Schaienweg","postalCode":"4107","locality":"Ettingen","commune":{"key":"2768","name":"Ettingen","shortName":"Ettingen"},"district":{"key":"1301","name":"Bezirk Arlesheim"},"canton":{"key":"13","code":"BL","name":"Basel-Landschaft"},"status":"Real"},{"key":"10103529","name":"Schanzgasse","postalCode":"4107","locality":"Ettingen","commune":{"key":"2768","name":"Ettingen","shortName":"Ettingen"},"district":{"key":"1301","name":"Bezirk Arlesheim"},"canton":{"key":"13","code":"BL","name":"Basel-Landschaft"},"status":"Real"},{"key":"10092756","name":"Schartenfelsstrasse","postalCode":"5430","locality":"Wettingen","commune":{"key":"4045","name":"Wettingen","shortName":"Wettingen"},"district":{"key":"1902","name":"Bezirk Baden"},"canton":{"key":"19","code":"AG","name":"Aargau"},"status":"Real"},{"key":"10101604","name":"Schartenrainstrasse","postalCode":"5430","locality":"Wettingen","commune":{"key":"4045","name":"Wettingen","shortName":"Wettingen"},"district":{"key":"1902","name":"Bezirk Baden"},"canton":{"key":"19","code":"AG","name":"Aargau"},"status":"Real"},{"key":"10035178","name":"Schartenstrasse","postalCode":"5430","locality":"Wettingen","commune":{"key":"4045","name":"Wettingen","shortName":"Wettingen"},"district":{"key":"1902","name":"Bezirk Baden"},"canton":{"key":"19","code":"AG","name":"Aargau"},"status":"Real"},{"key":"10143528","name":"Scherenschliferweg","postalCode":"4107","locality":"Ettingen","commune":{"key":"2768","name":"Ettingen","shortName":"Ettingen"},"district":{"key":"1301","name":"Bezirk Arlesheim"},"canton":{"key":"13","code":"BL","name":"Basel-Landschaft"},"status":"Real"},{"key":"10111639","name":"Schiblismattstrasse","postalCode":"4107","locality":"Ettingen","commune":{"key":"2768","name":"Ettingen","shortName":"Ettingen"},"district":{"key":"1301","name":"Bezirk Arlesheim"},"canton":{"key":"13","code":"BL","name":"Basel-Landschaft"},"status":"Real"},{"key":"10143518","name":"Schiessplatzweg","postalCode":"4107","locality":"Ettingen","commune":{"key":"2768","name":"Ettingen","shortName":"Ettingen"},"district":{"key":"1301","name":"Bezirk Arlesheim"},"canton":{"key":"13","code":"BL","name":"Basel-Landschaft"},"status":"Real"},{"key":"10122160","name":"Schönaustrasse","postalCode":"5430","locality":"Wettingen","commune":{"key":"4045","name":"Wettingen","shortName":"Wettingen"},"district":{"key":"1902","name":"Bezirk Baden"},"canton":{"key":"19","code":"AG","name":"Aargau"},"status":"Real"},{"key":"10052471","name":"Schönenbühlstrasse","postalCode":"5430","locality":"Wettingen","commune":{"key":"4045","name":"Wettingen","shortName":"Wettingen"},"district":{"key":"1902","name":"Bezirk Baden"},"canton":{"key":"19","code":"AG","name":"Aargau"},"status":"Real"},{"key":"10154117","name":"Schönort","postalCode":"4107","locality":"Ettingen","commune":{"key":"2768","name":"Ettingen","shortName":"Ettingen"},"district":{"key":"1301","name":"Bezirk Arlesheim"},"canton":{"key":"13","code":"BL","name":"Basel-Landschaft"},"status":"Real"},{"key":"10185628","name":"Schulgartenstrasse","postalCode":"5430","locality":"Wettingen","commune":{"key":"4045","name":"Wettingen","shortName":"Wettingen"},"district":{"key":"1902","name":"Bezirk Baden"},"canton":{"key":"19","code":"AG","name":"Aargau"},"status":"Real"},{"key":"10152919","name":"Schulgässli","postalCode":"4107","locality":"Ettingen","commune":{"key":"2768","name":"Ettingen","shortName":"Ettingen"},"district":{"key":"1301","name":"Bezirk Arlesheim"},"canton":{"key":"13","code":"BL","name":"Basel-Landschaft"},"status":"Real"},{"key":"10035179","name":"Schulstrasse","postalCode":"5430","locality":"Wettingen","commune":{"key":"4045","name":"Wettingen","shortName":"Wettingen"},"district":{"key":"1902","name":"Bezirk Baden"},"canton":{"key":"19","code":"AG","name":"Aargau"},"status":"Real"},{"key":"10052470","name":"Schwimmbadstrasse","postalCode":"5430","locality":"Wettingen","commune":{"key":"4045","name":"Wettingen","shortName":"Wettingen"},"district":{"key":"1902","name":"Bezirk Baden"},"canton":{"key":"19","code":"AG","name":"Aargau"},"status":"Real"},{"key":"10092757","name":"Schwyzerstrasse","postalCode":"5430","locality":"Wettingen","commune":{"key":"4045","name":"Wettingen","shortName":"Wettingen"},"district":{"key":"1902","name":"Bezirk Baden"},"canton":{"key":"19","code":"AG","name":"Aargau"},"status":"Real"},{"key":"10035180","name":"Seminarstrasse","postalCode":"5430","locality":"Wettingen","commune":{"key":"4045","name":"Wettingen","shortName":"Wettingen"},"district":{"key":"1902","name":"Bezirk Baden"},"canton":{"key":"19","code":"AG","name":"Aargau"},"status":"Real"},{"key":"10215086","name":"Seyvalweg","postalCode":"4107","locality":"Ettingen","commune":{"key":"2768","name":"Ettingen","shortName":"Ettingen"},"district":{"key":"1301","name":"Bezirk Arlesheim"},"canton":{"key":"13","code":"BL","name":"Basel-Landschaft"},"status":"Real"},{"key":"10092758","name":"Siedlungsweg","postalCode":"5430","locality":"Wettingen","commune":{"key":"4045","name":"Wettingen","shortName":"Wettingen"},"district":{"key":"1902","name":"Bezirk Baden"},"canton":{"key":"19","code":"AG","name":"Aargau"},"status":"Real"},{"key":"10222538","name":"Silberbergweg","postalCode":"4126","locality":"Bettingen","commune":{"key":"2702","name":"Bettingen","shortName":"Bettingen"},"district":{"key":"1200","name":"Kanton Basel-Stadt"},"canton":{"key":"12","code":"BS","name":"Basel-Stadt"},"status":"Real"},{"key":"10118022","name":"Sonneggstrasse","postalCode":"5430","locality":"Wettingen","commune":{"key":"4045","name":"Wettingen","shortName":"Wettingen"},"district":{"key":"1902","name":"Bezirk Baden"},"canton":{"key":"19","code":"AG","name":"Aargau"},"status":"Real"},{"key":"10143374","name":"Sonnenrainliweg","postalCode":"4107","locality":"Ettingen","commune":{"key":"2768","name":"Ettingen","shortName":"Ettingen"},"district":{"key":"1301","name":"Bezirk Arlesheim"},"canton":{"key":"13","code":"BL","name":"Basel-Landschaft"},"status":"Real"},{"key":"10106661","name":"Sonnrainweg","postalCode":"5430","locality":"Wettingen","commune":{"key":"4045","name":"Wettingen","shortName":"Wettingen"},"district":{"key":"1902","name":"Bezirk Baden"},"canton":{"key":"19","code":"AG","name":"Aargau"},"status":"Real"},{"key":"10222544","name":"Specklerwegli","postalCode":"4126","locality":"Bettingen","commune":{"key":"2702","name":"Bettingen","shortName":"Bettingen"},"district":{"key":"1200","name":"Kanton Basel-Stadt"},"canton":{"key":"12","code":"BS","name":"Basel-Stadt"},"status":"Real"},{"key":"10239340","name":"Spitelmattweg","postalCode":"5430","locality":"Wettingen","commune":{"key":"4045","name":"Wettingen","shortName":"Wettingen"},"district":{"key":"1902","name":"Bezirk Baden"},"canton":{"key":"19","code":"AG","name":"Aargau"},"status":"Real"},{"key":"10035181","name":"Sportstrasse","postalCode":"5430","locality":"Wettingen","commune":{"key":"4045","name":"Wettingen","shortName":"Wettingen"},"district":{"key":"1902","name":"Bezirk Baden"},"canton":{"key":"19","code":"AG","name":"Aargau"},"status":"Real"},{"key":"10092759","name":"Staffelstrasse","postalCode":"5430","locality":"Wettingen","commune":{"key":"4045","name":"Wettingen","shortName":"Wettingen"},"district":{"key":"1902","name":"Bezirk Baden"},"canton":{"key":"19","code":"AG","name":"Aargau"},"status":"Real"},{"key":"10239670","name":"Staldenrainweg","postalCode":"5430","locality":"Wettingen","commune":{"key":"4045","name":"Wettingen","shortName":"Wettingen"},"district":{"key":"1902","name":"Bezirk Baden"},"canton":{"key":"19","code":"AG","name":"Aargau"},"status":"Real"},{"key":"10143534","name":"Stapfelrebenweg","postalCode":"4107","locality":"Ettingen","commune":{"key":"2768","name":"Ettingen","shortName":"Ettingen"},"district":{"key":"1301","name":"Bezirk Arlesheim"},"canton":{"key":"13","code":"BL","name":"Basel-Landschaft"},"status":"Real"},{"key":"10101605","name":"St. Bernhardstrasse","postalCode":"5430","locality":"Wettingen","commune":{"key":"4045","name":"Wettingen","shortName":"Wettingen"},"district":{"key":"1902","name":"Bezirk Baden"},"canton":{"key":"19","code":"AG","name":"Aargau"},"status":"Real"},{"key":"10089314","name":"Steinengasse","postalCode":"4126","locality":"Bettingen","commune":{"key":"2702","name":"Bettingen","shortName":"Bettingen"},"district":{"key":"1200","name":"Kanton Basel-Stadt"},"canton":{"key":"12","code":"BS","name":"Basel-Stadt"},"status":"Real"},{"key":"10087744","name":"Steinweg","postalCode":"4107","locality":"Ettingen","commune":{"key":"2768","name":"Ettingen","shortName":"Ettingen"},"district":{"key":"1301","name":"Bezirk Arlesheim"},"canton":{"key":"13","code":"BL","name":"Basel-Landschaft"},"status":"Real"},{"key":"10222548","name":"Stelliweg","postalCode":"4126","locality":"Bettingen","commune":{"key":"2702","name":"Bettingen","shortName":"Bettingen"},"district":{"key":"1200","name":"Kanton Basel-Stadt"},"canton":{"key":"12","code":"BS","name":"Basel-Stadt"},"status":"Real"},{"key":"10035182","name":"Stiegelenstrasse","postalCode":"5430","locality":"Wettingen","commune":{"key":"4045","name":"Wettingen","shortName":"Wettingen"},"district":{"key":"1902","name":"Bezirk Baden"},"canton":{"key":"19","code":"AG","name":"Aargau"},"status":"Real"},{"key":"10016421","name":"Stutzrain","postalCode":"4107","locality":"Ettingen","commune":{"key":"2768","name":"Ettingen","shortName":"Ettingen"},"district":{"key":"1301","name":"Bezirk Arlesheim"},"canton":{"key":"13","code":"BL","name":"Basel-Landschaft"},"status":"Real"},{"key":"10109662","name":"Stutzring","postalCode":"4107","locality":"Ettingen","commune":{"key":"2768","name":"Ettingen","shortName":"Ettingen"},"district":{"key":"1301","name":"Bezirk Arlesheim"},"canton":{"key":"13","code":"BL","name":"Basel-Landschaft"},"status":"Real"},{"key":"10035183","name":"Sulpergäcker","postalCode":"5430","locality":"Wettingen","commune":{"key":"4045","name":"Wettingen","shortName":"Wettingen"},"district":{"key":"1902","name":"Bezirk Baden"},"canton":{"key":"19","code":"AG","name":"Aargau"},"status":"Real"},{"key":"10071993","name":"Sulzbergstrasse","postalCode":"5430","locality":"Wettingen","commune":{"key":"4045","name":"Wettingen","shortName":"Wettingen"},"district":{"key":"1902","name":"Bezirk Baden"},"canton":{"key":"19","code":"AG","name":"Aargau"},"status":"Real"},{"key":"10203215","name":"Sylvanerring","postalCode":"4107","locality":"Ettingen","commune":{"key":"2768","name":"Ettingen","shortName":"Ettingen"},"district":{"key":"1301","name":"Bezirk Arlesheim"},"canton":{"key":"13","code":"BL","name":"Basel-Landschaft"},"status":"Real"},{"key":"10215089","name":"Syrahweg","postalCode":"4107","locality":"Ettingen","commune":{"key":"2768","name":"Ettingen","shortName":"Ettingen"},"district":{"key":"1301","name":"Bezirk Arlesheim"},"canton":{"key":"13","code":"BL","name":"Basel-Landschaft"},"status":"Real"},{"key":"10254824","name":"Tägerhardmatte","postalCode":"5430","locality":"Wettingen","commune":{"key":"4045","name":"Wettingen","shortName":"Wettingen"},"district":{"key":"1902","name":"Bezirk Baden"},"canton":{"key":"19","code":"AG","name":"Aargau"},"status":"Real"},{"key":"10092760","name":"Tägerhardstrasse","postalCode":"5430","locality":"Wettingen","commune":{"key":"4045","name":"Wettingen","shortName":"Wettingen"},"district":{"key":"1902","name":"Bezirk Baden"},"canton":{"key":"19","code":"AG","name":"Aargau"},"status":"Real"},{"key":"10186623","name":"Talmattstrasse","postalCode":"4126","locality":"Bettingen","commune":{"key":"2702","name":"Bettingen","shortName":"Bettingen"},"district":{"key":"1200","name":"Kanton Basel-Stadt"},"canton":{"key":"12","code":"BS","name":"Basel-Stadt"},"status":"Real"},{"key":"10025143","name":"Talweg","postalCode":"4126","locality":"Bettingen","commune":{"key":"2702","name":"Bettingen","shortName":"Bettingen"},"district":{"key":"1200","name":"Kanton Basel-Stadt"},"canton":{"key":"12","code":"BS","name":"Basel-Stadt"},"status":"Real"},{"key":"10016422","name":"Therwilerstrasse","postalCode":"4107","locality":"Ettingen","commune":{"key":"2768","name":"Ettingen","shortName":"Ettingen"},"district":{"key":"1301","name":"Bezirk Arlesheim"},"canton":{"key":"13","code":"BL","name":"Basel-Landschaft"},"status":"Real"},{"key":"10239040","name":"Tigelmoosweg","postalCode":"5430","locality":"Wettingen","commune":{"key":"4045","name":"Wettingen","shortName":"Wettingen"},"district":{"key":"1902","name":"Bezirk Baden"},"canton":{"key":"19","code":"AG","name":"Aargau"},"status":"Real"},{"key":"10035184","name":"Titlisstrasse","postalCode":"5430","locality":"Wettingen","commune":{"key":"4045","name":"Wettingen","shortName":"Wettingen"},"district":{"key":"1902","name":"Bezirk Baden"},"canton":{"key":"19","code":"AG","name":"Aargau"},"status":"Real"},{"key":"10035185","name":"Tödistrasse","postalCode":"5430","locality":"Wettingen","commune":{"key":"4045","name":"Wettingen","shortName":"Wettingen"},"district":{"key":"1902","name":"Bezirk Baden"},"canton":{"key":"19","code":"AG","name":"Aargau"},"status":"Real"},{"key":"10222552","name":"Totenweg","postalCode":"4126","locality":"Bettingen","commune":{"key":"2702","name":"Bettingen","shortName":"Bettingen"},"district":{"key":"1200","name":"Kanton Basel-Stadt"},"canton":{"key":"12","code":"BS","name":"Basel-Stadt"},"status":"Real"},{"key":"10052472","name":"Untere Geisswiesstrasse","postalCode":"5430","locality":"Wettingen","commune":{"key":"4045","name":"Wettingen","shortName":"Wettingen"},"district":{"key":"1902","name":"Bezirk Baden"},"canton":{"key":"19","code":"AG","name":"Aargau"},"status":"Real"},{"key":"10143508","name":"Unterholl","postalCode":"4107","locality":"Ettingen","commune":{"key":"2768","name":"Ettingen","shortName":"Ettingen"},"district":{"key":"1301","name":"Bezirk Arlesheim"},"canton":{"key":"13","code":"BL","name":"Basel-Landschaft"},"status":"Real"},{"key":"10087745","name":"Unterhollstrasse","postalCode":"4107","locality":"Ettingen","commune":{"key":"2768","name":"Ettingen","shortName":"Ettingen"},"district":{"key":"1301","name":"Bezirk Arlesheim"},"canton":{"key":"13","code":"BL","name":"Basel-Landschaft"},"status":"Real"},{"key":"10062481","name":"Unterschaien","postalCode":"4107","locality":"Ettingen","commune":{"key":"2768","name":"Ettingen","shortName":"Ettingen"},"district":{"key":"1301","name":"Bezirk Arlesheim"},"canton":{"key":"13","code":"BL","name":"Basel-Landschaft"},"status":"Real"},{"key":"10185629","name":"Utostrasse","postalCode":"5430","locality":"Wettingen","commune":{"key":"4045","name":"Wettingen","shortName":"Wettingen"},"district":{"key":"1902","name":"Bezirk Baden"},"canton":{"key":"19","code":"AG","name":"Aargau"},"status":"Real"},{"key":"10155189","name":"Vierjuchartenweg","postalCode":"4126","locality":"Bettingen","commune":{"key":"2702","name":"Bettingen","shortName":"Bettingen"},"district":{"key":"1200","name":"Kanton Basel-Stadt"},"canton":{"key":"12","code":"BS","name":"Basel-Stadt"},"status":"Real"},{"key":"10035186","name":"Vordere Höhenstrasse","postalCode":"5430","locality":"Wettingen","commune":{"key":"4045","name":"Wettingen","shortName":"Wettingen"},"district":{"key":"1902","name":"Bezirk Baden"},"canton":{"key":"19","code":"AG","name":"Aargau"},"status":"Real"},{"key":"10025144","name":"Vormbergweg","postalCode":"4126","locality":"Bettingen","commune":{"key":"2702","name":"Bettingen","shortName":"Bettingen"},"district":{"key":"1200","name":"Kanton Basel-Stadt"},"canton":{"key":"12","code":"BS","name":"Basel-Stadt"},"status":"Real"},{"key":"10016423","name":"Waldstrasse","postalCode":"4107","locality":"Ettingen","commune":{"key":"2768","name":"Ettingen","shortName":"Ettingen"},"district":{"key":"1301","name":"Bezirk Arlesheim"},"canton":{"key":"13","code":"BL","name":"Basel-Landschaft"},"status":"Real"},{"key":"10188290","name":"Weberstrasse","postalCode":"5430","locality":"Wettingen","commune":{"key":"4045","name":"Wettingen","shortName":"Wettingen"},"district":{"key":"1902","name":"Bezirk Baden"},"canton":{"key":"19","code":"AG","name":"Aargau"},"status":"Real"},{"key":"10071994","name":"Weidweg","postalCode":"5430","locality":"Wettingen","commune":{"key":"4045","name":"Wettingen","shortName":"Wettingen"},"district":{"key":"1902","name":"Bezirk Baden"},"canton":{"key":"19","code":"AG","name":"Aargau"},"status":"Real"},{"key":"10035187","name":"Weiherstrasse","postalCode":"5430","locality":"Wettingen","commune":{"key":"4045","name":"Wettingen","shortName":"Wettingen"},"district":{"key":"1902","name":"Bezirk Baden"},"canton":{"key":"19","code":"AG","name":"Aargau"},"status":"Real"},{"key":"10092761","name":"Weinbergstrasse","postalCode":"5430","locality":"Wettingen","commune":{"key":"4045","name":"Wettingen","shortName":"Wettingen"},"district":{"key":"1902","name":"Bezirk Baden"},"canton":{"key":"19","code":"AG","name":"Aargau"},"status":"Real"},{"key":"10155190","name":"Weingärtenweg","postalCode":"4126","locality":"Bettingen","commune":{"key":"2702","name":"Bettingen","shortName":"Bettingen"},"district":{"key":"1200","name":"Kanton Basel-Stadt"},"canton":{"key":"12","code":"BS","name":"Basel-Stadt"},"status":"Real"},{"key":"10035188","name":"Weizenstrasse","postalCode":"5430","locality":"Wettingen","commune":{"key":"4045","name":"Wettingen","shortName":"Wettingen"},"district":{"key":"1902","name":"Bezirk Baden"},"canton":{"key":"19","code":"AG","name":"Aargau"},"status":"Real"},{"key":"10239044","name":"Weymouthweg","postalCode":"5430","locality":"Wettingen","commune":{"key":"4045","name":"Wettingen","shortName":"Wettingen"},"district":{"key":"1902","name":"Bezirk Baden"},"canton":{"key":"19","code":"AG","name":"Aargau"},"status":"Real"},{"key":"10071995","name":"Wiesenstrasse","postalCode":"5430","locality":"Wettingen","commune":{"key":"4045","name":"Wettingen","shortName":"Wettingen"},"district":{"key":"1902","name":"Bezirk Baden"},"canton":{"key":"19","code":"AG","name":"Aargau"},"status":"Real"},{"key":"10185630","name":"Winernstrasse","postalCode":"5430","locality":"Wettingen","commune":{"key":"4045","name":"Wettingen","shortName":"Wettingen"},"district":{"key":"1902","name":"Bezirk Baden"},"canton":{"key":"19","code":"AG","name":"Aargau"},"status":"Real"},{"key":"10035189","name":"Winkelriedstrasse","postalCode":"5430","locality":"Wettingen","commune":{"key":"4045","name":"Wettingen","shortName":"Wettingen"},"district":{"key":"1902","name":"Bezirk Baden"},"canton":{"key":"19","code":"AG","name":"Aargau"},"status":"Real"},{"key":"10222730","name":"Winkelweg","postalCode":"4126","locality":"Bettingen","commune":{"key":"2702","name":"Bettingen","shortName":"Bettingen"},"district":{"key":"1200","name":"Kanton Basel-Stadt"},"canton":{"key":"12","code":"BS","name":"Basel-Stadt"},"status":"Real"},{"key":"10092762","name":"Winzerstrasse","postalCode":"5430","locality":"Wettingen","commune":{"key":"4045","name":"Wettingen","shortName":"Wettingen"},"district":{"key":"1902","name":"Bezirk Baden"},"canton":{"key":"19","code":"AG","name":"Aargau"},"status":"Real"},{"key":"10016424","name":"Witterswilerstrasse","postalCode":"4107","locality":"Ettingen","commune":{"key":"2768","name":"Ettingen","shortName":"Ettingen"},"district":{"key":"1301","name":"Bezirk Arlesheim"},"canton":{"key":"13","code":"BL","name":"Basel-Landschaft"},"status":"Real"},{"key":"10239048","name":"Wolfackerweg","postalCode":"5430","locality":"Wettingen","commune":{"key":"4045","name":"Wettingen","shortName":"Wettingen"},"district":{"key":"1902","name":"Bezirk Baden"},"canton":{"key":"19","code":"AG","name":"Aargau"},"status":"Real"},{"key":"10222735","name":"Wyhlengrabenweg","postalCode":"4126","locality":"Bettingen","commune":{"key":"2702","name":"Bettingen","shortName":"Bettingen"},"district":{"key":"1200","name":"Kanton Basel-Stadt"},"canton":{"key":"12","code":"BS","name":"Basel-Stadt"},"status":"Real"},{"key":"10179485","name":"Wyhlenweg","postalCode":"4126","locality":"Bettingen","commune":{"key":"2702","name":"Bettingen","shortName":"Bettingen"},"district":{"key":"1200","name":"Kanton Basel-Stadt"},"canton":{"key":"12","code":"BS","name":"Basel-Stadt"},"status":"Real"},{"key":"10035190","name":"Zederstrasse","postalCode":"5430","locality":"Wettingen","commune":{"key":"4045","name":"Wettingen","shortName":"Wettingen"},"district":{"key":"1902","name":"Bezirk Baden"},"canton":{"key":"19","code":"AG","name":"Aargau"},"status":"Real"},{"key":"10039652","name":"Zehntenhofstrasse","postalCode":"5430","locality":"Wettingen","commune":{"key":"4045","name":"Wettingen","shortName":"Wettingen"},"district":{"key":"1902","name":"Bezirk Baden"},"canton":{"key":"19","code":"AG","name":"Aargau"},"status":"Real"},{"key":"10106662","name":"Zelgstrasse","postalCode":"5430","locality":"Wettingen","commune":{"key":"4045","name":"Wettingen","shortName":"Wettingen"},"district":{"key":"1902","name":"Bezirk Baden"},"canton":{"key":"19","code":"AG","name":"Aargau"},"status":"Real"},{"key":"10092763","name":"Zentralstrasse","postalCode":"5430","locality":"Wettingen","commune":{"key":"4045","name":"Wettingen","shortName":"Wettingen"},"district":{"key":"1902","name":"Bezirk Baden"},"canton":{"key":"19","code":"AG","name":"Aargau"},"status":"Real"},{"key":"10239052","name":"Zindelenweg","postalCode":"5430","locality":"Wettingen","commune":{"key":"4045","name":"Wettingen","shortName":"Wettingen"},"district":{"key":"1902","name":"Bezirk Baden"},"canton":{"key":"19","code":"AG","name":"Aargau"},"status":"Real"},{"key":"10239056","name":"Zivilweg","postalCode":"5430","locality":"Wettingen","commune":{"key":"4045","name":"Wettingen","shortName":"Wettingen"},"district":{"key":"1902","name":"Bezirk Baden"},"canton":{"key":"19","code":"AG","name":"Aargau"},"status":"Real"},{"key":"10039653","name":"Zollhausweg","postalCode":"5430","locality":"Wettingen","commune":{"key":"4045","name":"Wettingen","shortName":"Wettingen"},"district":{"key":"1902","name":"Bezirk Baden"},"canton":{"key":"19","code":"AG","name":"Aargau"},"status":"Real"},]