[{"name":"Ackerstr.","postalCode":"91186","locality":"Büchenbach","municipality":{"key":"09576117","name":"Büchenbach","type":"Kreisangehörige_Gemeinde"},"district":{"key":"09576","name":"Roth","type":"Landkreis"},"federalState":{"key":"09","name":"Bayern"}},{"name":"Ahornweg","postalCode":"91186","locality":"Büchenbach","municipality":{"key":"09576117","name":"Büchenbach","type":"Kreisangehörige_Gemeinde"},"district":{"key":"09576","name":"Roth","type":"Landkreis"},"federalState":{"key":"09","name":"Bayern"}},{"name":"Alte Brennerei","postalCode":"91186","locality":"Büchenbach","municipality":{"key":"09576117","name":"Büchenbach","type":"Kreisangehörige_Gemeinde"},"district":{"key":"09576","name":"Roth","type":"Landkreis"},"federalState":{"key":"09","name":"Bayern"}},{"name":"Am Bahnposten","postalCode":"91186","locality":"Büchenbach","municipality":{"key":"09576117","name":"Büchenbach","type":"Kreisangehörige_Gemeinde"},"district":{"key":"09576","name":"Roth","type":"Landkreis"},"federalState":{"key":"09","name":"Bayern"}},{"name":"Am Espan","postalCode":"91186","locality":"Büchenbach","municipality":{"key":"09576117","name":"Büchenbach","type":"Kreisangehörige_Gemeinde"},"district":{"key":"09576","name":"Roth","type":"Landkreis"},"federalState":{"key":"09","name":"Bayern"}},{"name":"Am Hohlweg","postalCode":"91186","locality":"Büchenbach","municipality":{"key":"09576117","name":"Büchenbach","type":"Kreisangehörige_Gemeinde"},"district":{"key":"09576","name":"Roth","type":"Landkreis"},"federalState":{"key":"09","name":"Bayern"}},{"name":"Am Jordan","postalCode":"91186","locality":"Büchenbach","municipality":{"key":"09576117","name":"Büchenbach","type":"Kreisangehörige_Gemeinde"},"district":{"key":"09576","name":"Roth","type":"Landkreis"},"federalState":{"key":"09","name":"Bayern"}},{"name":"Am Kartoffelfeld","postalCode":"91186","locality":"Büchenbach","municipality":{"key":"09576117","name":"Büchenbach","type":"Kreisangehörige_Gemeinde"},"district":{"key":"09576","name":"Roth","type":"Landkreis"},"federalState":{"key":"09","name":"Bayern"}},{"name":"Am Kirchenespan","postalCode":"91186","locality":"Büchenbach","municipality":{"key":"09576117","name":"Büchenbach","type":"Kreisangehörige_Gemeinde"},"district":{"key":"09576","name":"Roth","type":"Landkreis"},"federalState":{"key":"09","name":"Bayern"}},{"name":"Am Kornfeld","postalCode":"91186","locality":"Büchenbach","municipality":{"key":"09576117","name":"Büchenbach","type":"Kreisangehörige_Gemeinde"},"district":{"key":"09576","name":"Roth","type":"Landkreis"},"federalState":{"key":"09","name":"Bayern"}},{"name":"Am Langenmoos","postalCode":"91186","locality":"Büchenbach","municipality":{"key":"09576117","name":"Büchenbach","type":"Kreisangehörige_Gemeinde"},"district":{"key":"09576","name":"Roth","type":"Landkreis"},"federalState":{"key":"09","name":"Bayern"}},{"name":"Am Moosgarten","postalCode":"91186","locality":"Büchenbach","municipality":{"key":"09576117","name":"Büchenbach","type":"Kreisangehörige_Gemeinde"},"district":{"key":"09576","name":"Roth","type":"Landkreis"},"federalState":{"key":"09","name":"Bayern"}},{"name":"Am Neubruch","postalCode":"91186","locality":"Büchenbach","municipality":{"key":"09576117","name":"Büchenbach","type":"Kreisangehörige_Gemeinde"},"district":{"key":"09576","name":"Roth","type":"Landkreis"},"federalState":{"key":"09","name":"Bayern"}},{"name":"Am Schmellenbuckel","postalCode":"91186","locality":"Büchenbach","municipality":{"key":"09576117","name":"Büchenbach","type":"Kreisangehörige_Gemeinde"},"district":{"key":"09576","name":"Roth","type":"Landkreis"},"federalState":{"key":"09","name":"Bayern"}},{"name":"Am Steigacker","postalCode":"91186","locality":"Büchenbach","municipality":{"key":"09576117","name":"Büchenbach","type":"Kreisangehörige_Gemeinde"},"district":{"key":"09576","name":"Roth","type":"Landkreis"},"federalState":{"key":"09","name":"Bayern"}},{"name":"Am Stiergraben","postalCode":"91186","locality":"Büchenbach","municipality":{"key":"09576117","name":"Büchenbach","type":"Kreisangehörige_Gemeinde"},"district":{"key":"09576","name":"Roth","type":"Landkreis"},"federalState":{"key":"09","name":"Bayern"}},{"name":"Am Weiherespan","postalCode":"91186","locality":"Büchenbach","municipality":{"key":"09576117","name":"Büchenbach","type":"Kreisangehörige_Gemeinde"},"district":{"key":"09576","name":"Roth","type":"Landkreis"},"federalState":{"key":"09","name":"Bayern"}},{"name":"Asbach","postalCode":"91186","locality":"Büchenbach","municipality":{"key":"09576117","name":"Büchenbach","type":"Kreisangehörige_Gemeinde"},"district":{"key":"09576","name":"Roth","type":"Landkreis"},"federalState":{"key":"09","name":"Bayern"}},{"name":"Aurauer Hauptstr.","postalCode":"91186","locality":"Büchenbach","municipality":{"key":"09576117","name":"Büchenbach","type":"Kreisangehörige_Gemeinde"},"district":{"key":"09576","name":"Roth","type":"Landkreis"},"federalState":{"key":"09","name":"Bayern"}},{"name":"Aurauer Ring","postalCode":"91186","locality":"Büchenbach","municipality":{"key":"09576117","name":"Büchenbach","type":"Kreisangehörige_Gemeinde"},"district":{"key":"09576","name":"Roth","type":"Landkreis"},"federalState":{"key":"09","name":"Bayern"}},{"name":"Berggasse","postalCode":"91186","locality":"Büchenbach","municipality":{"key":"09576117","name":"Büchenbach","type":"Kreisangehörige_Gemeinde"},"district":{"key":"09576","name":"Roth","type":"Landkreis"},"federalState":{"key":"09","name":"Bayern"}},{"name":"Birkenweg","postalCode":"91186","locality":"Büchenbach","municipality":{"key":"09576117","name":"Büchenbach","type":"Kreisangehörige_Gemeinde"},"district":{"key":"09576","name":"Roth","type":"Landkreis"},"federalState":{"key":"09","name":"Bayern"}},{"name":"Breitenlohe","postalCode":"91186","locality":"Büchenbach","municipality":{"key":"09576117","name":"Büchenbach","type":"Kreisangehörige_Gemeinde"},"district":{"key":"09576","name":"Roth","type":"Landkreis"},"federalState":{"key":"09","name":"Bayern"}},{"name":"Breitenloher Str.","postalCode":"91186","locality":"Büchenbach","municipality":{"key":"09576117","name":"Büchenbach","type":"Kreisangehörige_Gemeinde"},"district":{"key":"09576","name":"Roth","type":"Landkreis"},"federalState":{"key":"09","name":"Bayern"}},{"name":"Brennmeisterweg","postalCode":"91186","locality":"Büchenbach","municipality":{"key":"09576117","name":"Büchenbach","type":"Kreisangehörige_Gemeinde"},"district":{"key":"09576","name":"Roth","type":"Landkreis"},"federalState":{"key":"09","name":"Bayern"}},{"name":"Breslauer Str.","postalCode":"91186","locality":"Büchenbach","municipality":{"key":"09576117","name":"Büchenbach","type":"Kreisangehörige_Gemeinde"},"district":{"key":"09576","name":"Roth","type":"Landkreis"},"federalState":{"key":"09","name":"Bayern"}},{"name":"Buchenstr.","postalCode":"91186","locality":"Büchenbach","municipality":{"key":"09576117","name":"Büchenbach","type":"Kreisangehörige_Gemeinde"},"district":{"key":"09576","name":"Roth","type":"Landkreis"},"federalState":{"key":"09","name":"Bayern"}},{"name":"Bühlgasse","postalCode":"91186","locality":"Büchenbach","municipality":{"key":"09576117","name":"Büchenbach","type":"Kreisangehörige_Gemeinde"},"district":{"key":"09576","name":"Roth","type":"Landkreis"},"federalState":{"key":"09","name":"Bayern"}},{"name":"Carl-Benz-Str.","postalCode":"89284","locality":"Pfaffenhofen an der Roth","municipality":{"key":"09775143","name":"Pfaffenhofen a.d.Roth, M","type":"Markt"},"district":{"key":"09775","name":"Neu-Ulm","type":"Landkreis"},"federalState":{"key":"09","name":"Bayern"}},{"name":"Clausenburgstr.","postalCode":"57578","locality":"Elkenroth","municipality":{"key":"07132025","name":"Elkenroth","type":"Kreisangehörige_Gemeinde"},"district":{"key":"07132","name":"Altenkirchen (Westerwald)","type":"Landkreis"},"federalState":{"key":"07","name":"Rheinland-Pfalz"}},{"name":"Conrad-Eberhard-Str.","postalCode":"91541","locality":"Rothenburg ob der Tauber","municipality":{"key":"09571193","name":"Rothenburg ob der Tauber, GKSt","type":"Große_Kreisstadt"},"district":{"key":"09571","name":"Ansbach","type":"Landkreis"},"federalState":{"key":"09","name":"Bayern"}},{"name":"Creglinger Str.","postalCode":"91541","locality":"Rothenburg ob der Tauber","municipality":{"key":"09571193","name":"Rothenburg ob der Tauber, GKSt","type":"Große_Kreisstadt"},"district":{"key":"09571","name":"Ansbach","type":"Landkreis"},"federalState":{"key":"09","name":"Bayern"}},{"name":"Cristalstr.","postalCode":"97705","locality":"Burkardroth","municipality":{"key":"09672117","name":"Burkardroth, M","type":"Markt"},"district":{"key":"09672","name":"Bad Kissingen","type":"Landkreis"},"federalState":{"key":"09","name":"Bayern"}},{"name":"Danziger Str.","postalCode":"91186","locality":"Büchenbach","municipality":{"key":"09576117","name":"Büchenbach","type":"Kreisangehörige_Gemeinde"},"district":{"key":"09576","name":"Roth","type":"Landkreis"},"federalState":{"key":"09","name":"Bayern"}},{"name":"Dr.-Rudolf-Faulhaber-Str.","postalCode":"91186","locality":"Büchenbach","municipality":{"key":"09576117","name":"Büchenbach","type":"Kreisangehörige_Gemeinde"},"district":{"key":"09576","name":"Roth","type":"Landkreis"},"federalState":{"key":"09","name":"Bayern"}},{"name":"Eichelbergstr.","postalCode":"91186","locality":"Büchenbach","municipality":{"key":"09576117","name":"Büchenbach","type":"Kreisangehörige_Gemeinde"},"district":{"key":"09576","name":"Roth","type":"Landkreis"},"federalState":{"key":"09","name":"Bayern"}},{"name":"Erlenweg","postalCode":"91186","locality":"Büchenbach","municipality":{"key":"09576117","name":"Büchenbach","type":"Kreisangehörige_Gemeinde"},"district":{"key":"09576","name":"Roth","type":"Landkreis"},"federalState":{"key":"09","name":"Bayern"}},{"name":"Feldstr.","postalCode":"91186","locality":"Büchenbach","municipality":{"key":"09576117","name":"Büchenbach","type":"Kreisangehörige_Gemeinde"},"district":{"key":"09576","name":"Roth","type":"Landkreis"},"federalState":{"key":"09","name":"Bayern"}},{"name":"Fichtenstr.","postalCode":"91186","locality":"Büchenbach","municipality":{"key":"09576117","name":"Büchenbach","type":"Kreisangehörige_Gemeinde"},"district":{"key":"09576","name":"Roth","type":"Landkreis"},"federalState":{"key":"09","name":"Bayern"}},{"name":"Flugplatzstr.","postalCode":"91186","locality":"Büchenbach","municipality":{"key":"09576117","name":"Büchenbach","type":"Kreisangehörige_Gemeinde"},"district":{"key":"09576","name":"Roth","type":"Landkreis"},"federalState":{"key":"09","name":"Bayern"}},{"name":"Flurstr.","postalCode":"91186","locality":"Büchenbach","municipality":{"key":"09576117","name":"Büchenbach","type":"Kreisangehörige_Gemeinde"},"district":{"key":"09576","name":"Roth","type":"Landkreis"},"federalState":{"key":"09","name":"Bayern"}},{"name":"Frankenstr.","postalCode":"91186","locality":"Büchenbach","municipality":{"key":"09576117","name":"Büchenbach","type":"Kreisangehörige_Gemeinde"},"district":{"key":"09576","name":"Roth","type":"Landkreis"},"federalState":{"key":"09","name":"Bayern"}},{"name":"Frühlingstr.","postalCode":"91186","locality":"Büchenbach","municipality":{"key":"09576117","name":"Büchenbach","type":"Kreisangehörige_Gemeinde"},"district":{"key":"09576","name":"Roth","type":"Landkreis"},"federalState":{"key":"09","name":"Bayern"}},{"name":"Gauchsdorfer Hauptstr.","postalCode":"91186","locality":"Büchenbach","municipality":{"key":"09576117","name":"Büchenbach","type":"Kreisangehörige_Gemeinde"},"district":{"key":"09576","name":"Roth","type":"Landkreis"},"federalState":{"key":"09","name":"Bayern"}},{"name":"Ginsterweg","postalCode":"91186","locality":"Büchenbach","municipality":{"key":"09576117","name":"Büchenbach","type":"Kreisangehörige_Gemeinde"},"district":{"key":"09576","name":"Roth","type":"Landkreis"},"federalState":{"key":"09","name":"Bayern"}},{"name":"Hans-Lederer-Weg","postalCode":"91186","locality":"Büchenbach","municipality":{"key":"09576117","name":"Büchenbach","type":"Kreisangehörige_Gemeinde"},"district":{"key":"09576","name":"Roth","type":"Landkreis"},"federalState":{"key":"09","name":"Bayern"}},{"name":"Heidenbergstr.","postalCode":"91186","locality":"Büchenbach","municipality":{"key":"09576117","name":"Büchenbach","type":"Kreisangehörige_Gemeinde"},"district":{"key":"09576","name":"Roth","type":"Landkreis"},"federalState":{"key":"09","name":"Bayern"}},{"name":"Heideweg","postalCode":"91186","locality":"Büchenbach","municipality":{"key":"09576117","name":"Büchenbach","type":"Kreisangehörige_Gemeinde"},"district":{"key":"09576","name":"Roth","type":"Landkreis"},"federalState":{"key":"09","name":"Bayern"}},{"name":"Heuweg","postalCode":"91186","locality":"Büchenbach","municipality":{"key":"09576117","name":"Büchenbach","type":"Kreisangehörige_Gemeinde"},"district":{"key":"09576","name":"Roth","type":"Landkreis"},"federalState":{"key":"09","name":"Bayern"}},{"name":"Holunderweg","postalCode":"91186","locality":"Büchenbach","municipality":{"key":"09576117","name":"Büchenbach","type":"Kreisangehörige_Gemeinde"},"district":{"key":"09576","name":"Roth","type":"Landkreis"},"federalState":{"key":"09","name":"Bayern"}},{"name":"Industriestr.","postalCode":"91186","locality":"Büchenbach","municipality":{"key":"09576117","name":"Büchenbach","type":"Kreisangehörige_Gemeinde"},"district":{"key":"09576","name":"Roth","type":"Landkreis"},"federalState":{"key":"09","name":"Bayern"}},{"name":"Jägergasse","postalCode":"91186","locality":"Büchenbach","municipality":{"key":"09576117","name":"Büchenbach","type":"Kreisangehörige_Gemeinde"},"district":{"key":"09576","name":"Roth","type":"Landkreis"},"federalState":{"key":"09","name":"Bayern"}},{"name":"Jerkinger Str.","postalCode":"91186","locality":"Büchenbach","municipality":{"key":"09576117","name":"Büchenbach","type":"Kreisangehörige_Gemeinde"},"district":{"key":"09576","name":"Roth","type":"Landkreis"},"federalState":{"key":"09","name":"Bayern"}},{"name":"Karlsbader Str.","postalCode":"91186","locality":"Büchenbach","municipality":{"key":"09576117","name":"Büchenbach","type":"Kreisangehörige_Gemeinde"},"district":{"key":"09576","name":"Roth","type":"Landkreis"},"federalState":{"key":"09","name":"Bayern"}},{"name":"Kiefernweg","postalCode":"91186","locality":"Büchenbach","municipality":{"key":"09576117","name":"Büchenbach","type":"Kreisangehörige_Gemeinde"},"district":{"key":"09576","name":"Roth","type":"Landkreis"},"federalState":{"key":"09","name":"Bayern"}},{"name":"Kirchensteig","postalCode":"91186","locality":"Büchenbach","municipality":{"key":"09576117","name":"Büchenbach","type":"Kreisangehörige_Gemeinde"},"district":{"key":"09576","name":"Roth","type":"Landkreis"},"federalState":{"key":"09","name":"Bayern"}},{"name":"Kirchenstr.","postalCode":"91186","locality":"Büchenbach","municipality":{"key":"09576117","name":"Büchenbach","type":"Kreisangehörige_Gemeinde"},"district":{"key":"09576","name":"Roth","type":"Landkreis"},"federalState":{"key":"09","name":"Bayern"}},{"name":"Klosterweg","postalCode":"91186","locality":"Büchenbach","municipality":{"key":"09576117","name":"Büchenbach","type":"Kreisangehörige_Gemeinde"},"district":{"key":"09576","name":"Roth","type":"Landkreis"},"federalState":{"key":"09","name":"Bayern"}},{"name":"Königsberger Str.","postalCode":"91186","locality":"Büchenbach","municipality":{"key":"09576117","name":"Büchenbach","type":"Kreisangehörige_Gemeinde"},"district":{"key":"09576","name":"Roth","type":"Landkreis"},"federalState":{"key":"09","name":"Bayern"}},{"name":"Kühedorfer Weg","postalCode":"91186","locality":"Büchenbach","municipality":{"key":"09576117","name":"Büchenbach","type":"Kreisangehörige_Gemeinde"},"district":{"key":"09576","name":"Roth","type":"Landkreis"},"federalState":{"key":"09","name":"Bayern"}},{"name":"Lärchenstr.","postalCode":"91186","locality":"Büchenbach","municipality":{"key":"09576117","name":"Büchenbach","type":"Kreisangehörige_Gemeinde"},"district":{"key":"09576","name":"Roth","type":"Landkreis"},"federalState":{"key":"09","name":"Bayern"}},{"name":"Lindenstr.","postalCode":"91186","locality":"Büchenbach","municipality":{"key":"09576117","name":"Büchenbach","type":"Kreisangehörige_Gemeinde"},"district":{"key":"09576","name":"Roth","type":"Landkreis"},"federalState":{"key":"09","name":"Bayern"}},{"name":"Listenbachstr.","postalCode":"91186","locality":"Büchenbach","municipality":{"key":"09576117","name":"Büchenbach","type":"Kreisangehörige_Gemeinde"},"district":{"key":"09576","name":"Roth","type":"Landkreis"},"federalState":{"key":"09","name":"Bayern"}},{"name":"Ludergasse","postalCode":"91186","locality":"Büchenbach","municipality":{"key":"09576117","name":"Büchenbach","type":"Kreisangehörige_Gemeinde"},"district":{"key":"09576","name":"Roth","type":"Landkreis"},"federalState":{"key":"09","name":"Bayern"}},{"name":"Marsstr.","postalCode":"91186","locality":"Büchenbach","municipality":{"key":"09576117","name":"Büchenbach","type":"Kreisangehörige_Gemeinde"},"district":{"key":"09576","name":"Roth","type":"Landkreis"},"federalState":{"key":"09","name":"Bayern"}},{"name":"Mondstr.","postalCode":"91186","locality":"Büchenbach","municipality":{"key":"09576117","name":"Büchenbach","type":"Kreisangehörige_Gemeinde"},"district":{"key":"09576","name":"Roth","type":"Landkreis"},"federalState":{"key":"09","name":"Bayern"}},{"name":"Mühlenstr.","postalCode":"91186","locality":"Büchenbach","municipality":{"key":"09576117","name":"Büchenbach","type":"Kreisangehörige_Gemeinde"},"district":{"key":"09576","name":"Roth","type":"Landkreis"},"federalState":{"key":"09","name":"Bayern"}},{"name":"Németkérstr.","postalCode":"91186","locality":"Büchenbach","municipality":{"key":"09576117","name":"Büchenbach","type":"Kreisangehörige_Gemeinde"},"district":{"key":"09576","name":"Roth","type":"Landkreis"},"federalState":{"key":"09","name":"Bayern"}},{"name":"Obere Bahnhofstr.","postalCode":"91186","locality":"Büchenbach","municipality":{"key":"09576117","name":"Büchenbach","type":"Kreisangehörige_Gemeinde"},"district":{"key":"09576","name":"Roth","type":"Landkreis"},"federalState":{"key":"09","name":"Bayern"}},{"name":"Oberer Stockweg","postalCode":"91186","locality":"Büchenbach","municipality":{"key":"09576117","name":"Büchenbach","type":"Kreisangehörige_Gemeinde"},"district":{"key":"09576","name":"Roth","type":"Landkreis"},"federalState":{"key":"09","name":"Bayern"}},{"name":"Ostpreußenweg","postalCode":"91186","locality":"Büchenbach","municipality":{"key":"09576117","name":"Büchenbach","type":"Kreisangehörige_Gemeinde"},"district":{"key":"09576","name":"Roth","type":"Landkreis"},"federalState":{"key":"09","name":"Bayern"}},{"name":"Ottersdorfer Hauptstr.","postalCode":"91186","locality":"Büchenbach","municipality":{"key":"09576117","name":"Büchenbach","type":"Kreisangehörige_Gemeinde"},"district":{"key":"09576","name":"Roth","type":"Landkreis"},"federalState":{"key":"09","name":"Bayern"}},{"name":"Pommernstr.","postalCode":"91186","locality":"Büchenbach","municipality":{"key":"09576117","name":"Büchenbach","type":"Kreisangehörige_Gemeinde"},"district":{"key":"09576","name":"Roth","type":"Landkreis"},"federalState":{"key":"09","name":"Bayern"}},{"name":"Quellengasse","postalCode":"97797","locality":"Wartmannsroth","municipality":{"key":"09672161","name":"Wartmannsroth","type":"Kreisangehörige_Gemeinde"},"district":{"key":"09672","name":"Bad Kissingen","type":"Landkreis"},"federalState":{"key":"09","name":"Bayern"}},{"name":"Quellenweg","postalCode":"49214","locality":"Bad Rothenfelde","municipality":{"key":"03459006","name":"Bad Rothenfelde","type":"Kreisangehörige_Gemeinde"},"district":{"key":"03459","name":"Osnabrück","type":"Landkreis"},"federalState":{"key":"03","name":"Niedersachsen"}},{"name":"Quellenweg","postalCode":"53809","locality":"Ruppichteroth","municipality":{"key":"05382052","name":"Ruppichteroth","type":"Kreisangehörige_Gemeinde"},"district":{"key":"05382","name":"Rhein-Sieg-Kreis","type":"Kreis"},"federalState":{"key":"05","name":"Nordrhein-Westfalen"}},{"name":"Quellgrund","postalCode":"49214","locality":"Bad Rothenfelde","municipality":{"key":"03459006","name":"Bad Rothenfelde","type":"Kreisangehörige_Gemeinde"},"district":{"key":"03459","name":"Osnabrück","type":"Landkreis"},"federalState":{"key":"03","name":"Niedersachsen"}},{"name":"Querbachshof","postalCode":"97618","locality":"Hohenroth","municipality":{"key":"09673135","name":"Hohenroth","type":"Kreisangehörige_Gemeinde"},"district":{"key":"09673","name":"Rhön-Grabfeld","type":"Landkreis"},"federalState":{"key":"09","name":"Bayern"}},{"name":"Querbachshofer Str.","postalCode":"97618","locality":"Hohenroth","municipality":{"key":"09673135","name":"Hohenroth","type":"Kreisangehörige_Gemeinde"},"district":{"key":"09673","name":"Rhön-Grabfeld","type":"Landkreis"},"federalState":{"key":"09","name":"Bayern"}},{"name":"querfeldein","postalCode":"53809","locality":"Ruppichteroth","municipality":{"key":"05382052","name":"Ruppichteroth","type":"Kreisangehörige_Gemeinde"},"district":{"key":"05382","name":"Rhein-Sieg-Kreis","type":"Kreis"},"federalState":{"key":"05","name":"Nordrhein-Westfalen"}},{"name":"Ringstr.","postalCode":"91186","locality":"Büchenbach","municipality":{"key":"09576117","name":"Büchenbach","type":"Kreisangehörige_Gemeinde"},"district":{"key":"09576","name":"Roth","type":"Landkreis"},"federalState":{"key":"09","name":"Bayern"}},{"name":"Ritterstr.","postalCode":"91186","locality":"Büchenbach","municipality":{"key":"09576117","name":"Büchenbach","type":"Kreisangehörige_Gemeinde"},"district":{"key":"09576","name":"Roth","type":"Landkreis"},"federalState":{"key":"09","name":"Bayern"}},{"name":"Röthenweg","postalCode":"91186","locality":"Büchenbach","municipality":{"key":"09576117","name":"Büchenbach","type":"Kreisangehörige_Gemeinde"},"district":{"key":"09576","name":"Roth","type":"Landkreis"},"federalState":{"key":"09","name":"Bayern"}},{"name":"Rother Str.","postalCode":"91186","locality":"Büchenbach","municipality":{"key":"09576117","name":"Büchenbach","type":"Kreisangehörige_Gemeinde"},"district":{"key":"09576","name":"Roth","type":"Landkreis"},"federalState":{"key":"09","name":"Bayern"}},{"name":"Sandstr.","postalCode":"91186","locality":"Büchenbach","municipality":{"key":"09576117","name":"Büchenbach","type":"Kreisangehörige_Gemeinde"},"district":{"key":"09576","name":"Roth","type":"Landkreis"},"federalState":{"key":"09","name":"Bayern"}},{"name":"Schlehenweg","postalCode":"91186","locality":"Büchenbach","municipality":{"key":"09576117","name":"Büchenbach","type":"Kreisangehörige_Gemeinde"},"district":{"key":"09576","name":"Roth","type":"Landkreis"},"federalState":{"key":"09","name":"Bayern"}},{"name":"Schlesierstr.","postalCode":"91186","locality":"Büchenbach","municipality":{"key":"09576117","name":"Büchenbach","type":"Kreisangehörige_Gemeinde"},"district":{"key":"09576","name":"Roth","type":"Landkreis"},"federalState":{"key":"09","name":"Bayern"}},{"name":"Schloßstr.","postalCode":"91186","locality":"Büchenbach","municipality":{"key":"09576117","name":"Büchenbach","type":"Kreisangehörige_Gemeinde"},"district":{"key":"09576","name":"Roth","type":"Landkreis"},"federalState":{"key":"09","name":"Bayern"}},{"name":"Schopfhofer Str.","postalCode":"91186","locality":"Büchenbach","municipality":{"key":"09576117","name":"Büchenbach","type":"Kreisangehörige_Gemeinde"},"district":{"key":"09576","name":"Roth","type":"Landkreis"},"federalState":{"key":"09","name":"Bayern"}},{"name":"Schulgasse","postalCode":"91186","locality":"Büchenbach","municipality":{"key":"09576117","name":"Büchenbach","type":"Kreisangehörige_Gemeinde"},"district":{"key":"09576","name":"Roth","type":"Landkreis"},"federalState":{"key":"09","name":"Bayern"}},{"name":"Schulstr.","postalCode":"91186","locality":"Büchenbach","municipality":{"key":"09576117","name":"Büchenbach","type":"Kreisangehörige_Gemeinde"},"district":{"key":"09576","name":"Roth","type":"Landkreis"},"federalState":{"key":"09","name":"Bayern"}},{"name":"Schwabacher Str.","postalCode":"91186","locality":"Büchenbach","municipality":{"key":"09576117","name":"Büchenbach","type":"Kreisangehörige_Gemeinde"},"district":{"key":"09576","name":"Roth","type":"Landkreis"},"federalState":{"key":"09","name":"Bayern"}},{"name":"Siedlerplatz","postalCode":"91186","locality":"Büchenbach","municipality":{"key":"09576117","name":"Büchenbach","type":"Kreisangehörige_Gemeinde"},"district":{"key":"09576","name":"Roth","type":"Landkreis"},"federalState":{"key":"09","name":"Bayern"}},{"name":"Sonnenstr.","postalCode":"91186","locality":"Büchenbach","municipality":{"key":"09576117","name":"Büchenbach","type":"Kreisangehörige_Gemeinde"},"district":{"key":"09576","name":"Roth","type":"Landkreis"},"federalState":{"key":"09","name":"Bayern"}},{"name":"Sudetenstr.","postalCode":"91186","locality":"Büchenbach","municipality":{"key":"09576117","name":"Büchenbach","type":"Kreisangehörige_Gemeinde"},"district":{"key":"09576","name":"Roth","type":"Landkreis"},"federalState":{"key":"09","name":"Bayern"}},{"name":"Tannenstr.","postalCode":"91186","locality":"Büchenbach","municipality":{"key":"09576117","name":"Büchenbach","type":"Kreisangehörige_Gemeinde"},"district":{"key":"09576","name":"Roth","type":"Landkreis"},"federalState":{"key":"09","name":"Bayern"}},{"name":"Tennenloher Hauptstr.","postalCode":"91186","locality":"Büchenbach","municipality":{"key":"09576117","name":"Büchenbach","type":"Kreisangehörige_Gemeinde"},"district":{"key":"09576","name":"Roth","type":"Landkreis"},"federalState":{"key":"09","name":"Bayern"}},{"name":"Ungarnstr.","postalCode":"91186","locality":"Büchenbach","municipality":{"key":"09576117","name":"Büchenbach","type":"Kreisangehörige_Gemeinde"},"district":{"key":"09576","name":"Roth","type":"Landkreis"},"federalState":{"key":"09","name":"Bayern"}},{"name":"Ungerthal","postalCode":"91186","locality":"Büchenbach","municipality":{"key":"09576117","name":"Büchenbach","type":"Kreisangehörige_Gemeinde"},"district":{"key":"09576","name":"Roth","type":"Landkreis"},"federalState":{"key":"09","name":"Bayern"}},{"name":"Untere Bahnhofstr.","postalCode":"91186","locality":"Büchenbach","municipality":{"key":"09576117","name":"Büchenbach","type":"Kreisangehörige_Gemeinde"},"district":{"key":"09576","name":"Roth","type":"Landkreis"},"federalState":{"key":"09","name":"Bayern"}},{"name":"Unterer Stockweg","postalCode":"91186","locality":"Büchenbach","municipality":{"key":"09576117","name":"Büchenbach","type":"Kreisangehörige_Gemeinde"},"district":{"key":"09576","name":"Roth","type":"Landkreis"},"federalState":{"key":"09","name":"Bayern"}},{"name":"Untermainbacher Weg","postalCode":"91186","locality":"Büchenbach","municipality":{"key":"09576117","name":"Büchenbach","type":"Kreisangehörige_Gemeinde"},"district":{"key":"09576","name":"Roth","type":"Landkreis"},"federalState":{"key":"09","name":"Bayern"}},{"name":"Venusstr.","postalCode":"91186","locality":"Büchenbach","municipality":{"key":"09576117","name":"Büchenbach","type":"Kreisangehörige_Gemeinde"},"district":{"key":"09576","name":"Roth","type":"Landkreis"},"federalState":{"key":"09","name":"Bayern"}},{"name":"Waldstr.","postalCode":"91186","locality":"Büchenbach","municipality":{"key":"09576117","name":"Büchenbach","type":"Kreisangehörige_Gemeinde"},"district":{"key":"09576","name":"Roth","type":"Landkreis"},"federalState":{"key":"09","name":"Bayern"}},{"name":"Walpersdorfer Str.","postalCode":"91186","locality":"Büchenbach","municipality":{"key":"09576117","name":"Büchenbach","type":"Kreisangehörige_Gemeinde"},"district":{"key":"09576","name":"Roth","type":"Landkreis"},"federalState":{"key":"09","name":"Bayern"}},{"name":"Weideweg","postalCode":"91186","locality":"Büchenbach","municipality":{"key":"09576117","name":"Büchenbach","type":"Kreisangehörige_Gemeinde"},"district":{"key":"09576","name":"Roth","type":"Landkreis"},"federalState":{"key":"09","name":"Bayern"}},{"name":"Wiesenstr.","postalCode":"91186","locality":"Büchenbach","municipality":{"key":"09576117","name":"Büchenbach","type":"Kreisangehörige_Gemeinde"},"district":{"key":"09576","name":"Roth","type":"Landkreis"},"federalState":{"key":"09","name":"Bayern"}},{"name":"Willi-Memmert-Str.","postalCode":"91186","locality":"Büchenbach","municipality":{"key":"09576117","name":"Büchenbach","type":"Kreisangehörige_Gemeinde"},"district":{"key":"09576","name":"Roth","type":"Landkreis"},"federalState":{"key":"09","name":"Bayern"}},{"name":"Xaver-Meisinger-Str.","postalCode":"91154","locality":"Roth","municipality":{"key":"09576143","name":"Roth, St","type":"Stadt"},"district":{"key":"09576","name":"Roth","type":"Landkreis"},"federalState":{"key":"09","name":"Bayern"}},{"name":"Zu den Gründen","postalCode":"91186","locality":"Büchenbach","municipality":{"key":"09576117","name":"Büchenbach","type":"Kreisangehörige_Gemeinde"},"district":{"key":"09576","name":"Roth","type":"Landkreis"},"federalState":{"key":"09","name":"Bayern"}},{"name":"Zum Gauchsbach","postalCode":"91186","locality":"Büchenbach","municipality":{"key":"09576117","name":"Büchenbach","type":"Kreisangehörige_Gemeinde"},"district":{"key":"09576","name":"Roth","type":"Landkreis"},"federalState":{"key":"09","name":"Bayern"}},{"name":"Zum Hirschenbuck","postalCode":"91186","locality":"Büchenbach","municipality":{"key":"09576117","name":"Büchenbach","type":"Kreisangehörige_Gemeinde"},"district":{"key":"09576","name":"Roth","type":"Landkreis"},"federalState":{"key":"09","name":"Bayern"}},{"name":"Zur Alten Schmiede","postalCode":"91186","locality":"Büchenbach","municipality":{"key":"09576117","name":"Büchenbach","type":"Kreisangehörige_Gemeinde"},"district":{"key":"09576","name":"Roth","type":"Landkreis"},"federalState":{"key":"09","name":"Bayern"}},{"name":"Zur Brunnleite","postalCode":"91186","locality":"Büchenbach","municipality":{"key":"09576117","name":"Büchenbach","type":"Kreisangehörige_Gemeinde"},"district":{"key":"09576","name":"Roth","type":"Landkreis"},"federalState":{"key":"09","name":"Bayern"}},{"name":"Zur Unteren Leite","postalCode":"91186","locality":"Büchenbach","municipality":{"key":"09576117","name":"Büchenbach","type":"Kreisangehörige_Gemeinde"},"district":{"key":"09576","name":"Roth","type":"Landkreis"},"federalState":{"key":"09","name":"Bayern"}},{"name":"Äckerleinsweg","postalCode":"97705","locality":"Burkardroth","municipality":{"key":"09672117","name":"Burkardroth, M","type":"Markt"},"district":{"key":"09672","name":"Bad Kissingen","type":"Landkreis"},"federalState":{"key":"09","name":"Bayern"}},{"name":"Äußere Abenberger Str.","postalCode":"91154","locality":"Roth","municipality":{"key":"09576143","name":"Roth, St","type":"Stadt"},"district":{"key":"09576","name":"Roth","type":"Landkreis"},"federalState":{"key":"09","name":"Bayern"}},{"name":"Äußere Belmbracher Str.","postalCode":"91154","locality":"Roth","municipality":{"key":"09576143","name":"Roth, St","type":"Stadt"},"district":{"key":"09576","name":"Roth","type":"Landkreis"},"federalState":{"key":"09","name":"Bayern"}},{"name":"Äußere Nürnberger Str.","postalCode":"91154","locality":"Roth","municipality":{"key":"09576143","name":"Roth, St","type":"Stadt"},"district":{"key":"09576","name":"Roth","type":"Landkreis"},"federalState":{"key":"09","name":"Bayern"}},{"name":"Ölberg","postalCode":"63860","locality":"Rothenbuch","municipality":{"key":"09671148","name":"Rothenbuch","type":"Kreisangehörige_Gemeinde"},"district":{"key":"09671","name":"Aschaffenburg","type":"Landkreis"},"federalState":{"key":"09","name":"Bayern"}},]