[{"name":"18.-März-Str.","postalCode":"99867","locality":"Gotha","municipality":{"key":"16067029","name":"Gotha, Stadt","type":"Stadt"},"district":{"key":"16067","name":"Gotha","type":"Landkreis"},"federalState":{"key":"16","name":"Thüringen"}},{"name":"Am Bahnhof","postalCode":"99192","locality":"Nottleben","municipality":{"key":"16067052","name":"Nottleben","type":"Kreisangehörige_Gemeinde"},"district":{"key":"16067","name":"Gotha","type":"Landkreis"},"federalState":{"key":"16","name":"Thüringen"}},{"name":"Bahnhofstr.","postalCode":"99192","locality":"Nottleben","municipality":{"key":"16067052","name":"Nottleben","type":"Kreisangehörige_Gemeinde"},"district":{"key":"16067","name":"Gotha","type":"Landkreis"},"federalState":{"key":"16","name":"Thüringen"}},{"name":"Carl-Vogel-Weg","postalCode":"99867","locality":"Gotha","municipality":{"key":"16067029","name":"Gotha, Stadt","type":"Stadt"},"district":{"key":"16067","name":"Gotha","type":"Landkreis"},"federalState":{"key":"16","name":"Thüringen"}},{"name":"Carl-von-Ossietzky-Str.","postalCode":"99867","locality":"Gotha","municipality":{"key":"16067029","name":"Gotha, Stadt","type":"Stadt"},"district":{"key":"16067","name":"Gotha","type":"Landkreis"},"federalState":{"key":"16","name":"Thüringen"}},{"name":"Clara-Zetkin-Str.","postalCode":"99867","locality":"Gotha","municipality":{"key":"16067029","name":"Gotha, Stadt","type":"Stadt"},"district":{"key":"16067","name":"Gotha","type":"Landkreis"},"federalState":{"key":"16","name":"Thüringen"}},{"name":"Cobstädter Weg","postalCode":"99867","locality":"Gotha","municipality":{"key":"16067029","name":"Gotha, Stadt","type":"Stadt"},"district":{"key":"16067","name":"Gotha","type":"Landkreis"},"federalState":{"key":"16","name":"Thüringen"}},{"name":"Cosmarstr.","postalCode":"99867","locality":"Gotha","municipality":{"key":"16067029","name":"Gotha, Stadt","type":"Stadt"},"district":{"key":"16067","name":"Gotha","type":"Landkreis"},"federalState":{"key":"16","name":"Thüringen"}},{"name":"Damaschkestr.","postalCode":"99867","locality":"Gotha","municipality":{"key":"16067029","name":"Gotha, Stadt","type":"Stadt"},"district":{"key":"16067","name":"Gotha","type":"Landkreis"},"federalState":{"key":"16","name":"Thüringen"}},{"name":"Diebessteig","postalCode":"99867","locality":"Gotha","municipality":{"key":"16067029","name":"Gotha, Stadt","type":"Stadt"},"district":{"key":"16067","name":"Gotha","type":"Landkreis"},"federalState":{"key":"16","name":"Thüringen"}},{"name":"Dirk-Kollmar-Str.","postalCode":"99867","locality":"Gotha","municipality":{"key":"16067029","name":"Gotha, Stadt","type":"Stadt"},"district":{"key":"16067","name":"Gotha","type":"Landkreis"},"federalState":{"key":"16","name":"Thüringen"}},{"name":"Dittesstr.","postalCode":"99867","locality":"Gotha","municipality":{"key":"16067029","name":"Gotha, Stadt","type":"Stadt"},"district":{"key":"16067","name":"Gotha","type":"Landkreis"},"federalState":{"key":"16","name":"Thüringen"}},{"name":"Doebelstr.","postalCode":"99867","locality":"Gotha","municipality":{"key":"16067029","name":"Gotha, Stadt","type":"Stadt"},"district":{"key":"16067","name":"Gotha","type":"Landkreis"},"federalState":{"key":"16","name":"Thüringen"}},{"name":"Dorfstr.","postalCode":"99867","locality":"Gotha","municipality":{"key":"16067029","name":"Gotha, Stadt","type":"Stadt"},"district":{"key":"16067","name":"Gotha","type":"Landkreis"},"federalState":{"key":"16","name":"Thüringen"}},{"name":"Dorotheenstr.","postalCode":"99867","locality":"Gotha","municipality":{"key":"16067029","name":"Gotha, Stadt","type":"Stadt"},"district":{"key":"16067","name":"Gotha","type":"Landkreis"},"federalState":{"key":"16","name":"Thüringen"}},{"name":"Dreikronengasse","postalCode":"99867","locality":"Gotha","municipality":{"key":"16067029","name":"Gotha, Stadt","type":"Stadt"},"district":{"key":"16067","name":"Gotha","type":"Landkreis"},"federalState":{"key":"16","name":"Thüringen"}},{"name":"Dr.-Hans-Loch-Str.","postalCode":"99867","locality":"Gotha","municipality":{"key":"16067029","name":"Gotha, Stadt","type":"Stadt"},"district":{"key":"16067","name":"Gotha","type":"Landkreis"},"federalState":{"key":"16","name":"Thüringen"}},{"name":"Dr.-Troch-Str.","postalCode":"99867","locality":"Gotha","municipality":{"key":"16067029","name":"Gotha, Stadt","type":"Stadt"},"district":{"key":"16067","name":"Gotha","type":"Landkreis"},"federalState":{"key":"16","name":"Thüringen"}},{"name":"Dr.-Wilhelm-Külz-Str.","postalCode":"99867","locality":"Gotha","municipality":{"key":"16067029","name":"Gotha, Stadt","type":"Stadt"},"district":{"key":"16067","name":"Gotha","type":"Landkreis"},"federalState":{"key":"16","name":"Thüringen"}},{"name":"Ermstedter Str.","postalCode":"99192","locality":"Nottleben","municipality":{"key":"16067052","name":"Nottleben","type":"Kreisangehörige_Gemeinde"},"district":{"key":"16067","name":"Gotha","type":"Landkreis"},"federalState":{"key":"16","name":"Thüringen"}},{"name":"Fabrikstr.","postalCode":"99867","locality":"Gotha","municipality":{"key":"16067029","name":"Gotha, Stadt","type":"Stadt"},"district":{"key":"16067","name":"Gotha","type":"Landkreis"},"federalState":{"key":"16","name":"Thüringen"}},{"name":"Feldstr.","postalCode":"99867","locality":"Gotha","municipality":{"key":"16067029","name":"Gotha, Stadt","type":"Stadt"},"district":{"key":"16067","name":"Gotha","type":"Landkreis"},"federalState":{"key":"16","name":"Thüringen"}},{"name":"Feuerbachstr.","postalCode":"99867","locality":"Gotha","municipality":{"key":"16067029","name":"Gotha, Stadt","type":"Stadt"},"district":{"key":"16067","name":"Gotha","type":"Landkreis"},"federalState":{"key":"16","name":"Thüringen"}},{"name":"Fichtestr.","postalCode":"99867","locality":"Gotha","municipality":{"key":"16067029","name":"Gotha, Stadt","type":"Stadt"},"district":{"key":"16067","name":"Gotha","type":"Landkreis"},"federalState":{"key":"16","name":"Thüringen"}},{"name":"Finkenweg","postalCode":"99867","locality":"Gotha","municipality":{"key":"16067029","name":"Gotha, Stadt","type":"Stadt"},"district":{"key":"16067","name":"Gotha","type":"Landkreis"},"federalState":{"key":"16","name":"Thüringen"}},{"name":"Finsterberger Str.","postalCode":"99867","locality":"Gotha","municipality":{"key":"16067029","name":"Gotha, Stadt","type":"Stadt"},"district":{"key":"16067","name":"Gotha","type":"Landkreis"},"federalState":{"key":"16","name":"Thüringen"}},{"name":"Fischgasse","postalCode":"99867","locality":"Gotha","municipality":{"key":"16067029","name":"Gotha, Stadt","type":"Stadt"},"district":{"key":"16067","name":"Gotha","type":"Landkreis"},"federalState":{"key":"16","name":"Thüringen"}},{"name":"Florschützstr.","postalCode":"99867","locality":"Gotha","municipality":{"key":"16067029","name":"Gotha, Stadt","type":"Stadt"},"district":{"key":"16067","name":"Gotha","type":"Landkreis"},"federalState":{"key":"16","name":"Thüringen"}},{"name":"Franckestr.","postalCode":"99867","locality":"Gotha","municipality":{"key":"16067029","name":"Gotha, Stadt","type":"Stadt"},"district":{"key":"16067","name":"Gotha","type":"Landkreis"},"federalState":{"key":"16","name":"Thüringen"}},{"name":"Frankenbergstr.","postalCode":"99867","locality":"Gotha","municipality":{"key":"16067029","name":"Gotha, Stadt","type":"Stadt"},"district":{"key":"16067","name":"Gotha","type":"Landkreis"},"federalState":{"key":"16","name":"Thüringen"}},{"name":"Freiligrathstr.","postalCode":"99867","locality":"Gotha","municipality":{"key":"16067029","name":"Gotha, Stadt","type":"Stadt"},"district":{"key":"16067","name":"Gotha","type":"Landkreis"},"federalState":{"key":"16","name":"Thüringen"}},{"name":"Freundstr.","postalCode":"99867","locality":"Gotha","municipality":{"key":"16067029","name":"Gotha, Stadt","type":"Stadt"},"district":{"key":"16067","name":"Gotha","type":"Landkreis"},"federalState":{"key":"16","name":"Thüringen"}},{"name":"Friedensplatz","postalCode":"99867","locality":"Gotha","municipality":{"key":"16067029","name":"Gotha, Stadt","type":"Stadt"},"district":{"key":"16067","name":"Gotha","type":"Landkreis"},"federalState":{"key":"16","name":"Thüringen"}},{"name":"Friedensstr.","postalCode":"99867","locality":"Gotha","municipality":{"key":"16067029","name":"Gotha, Stadt","type":"Stadt"},"district":{"key":"16067","name":"Gotha","type":"Landkreis"},"federalState":{"key":"16","name":"Thüringen"}},{"name":"Friedhofstr.","postalCode":"99867","locality":"Gotha","municipality":{"key":"16067029","name":"Gotha, Stadt","type":"Stadt"},"district":{"key":"16067","name":"Gotha","type":"Landkreis"},"federalState":{"key":"16","name":"Thüringen"}},{"name":"Friedhofsweg","postalCode":"99867","locality":"Gotha","municipality":{"key":"16067029","name":"Gotha, Stadt","type":"Stadt"},"district":{"key":"16067","name":"Gotha","type":"Landkreis"},"federalState":{"key":"16","name":"Thüringen"}},{"name":"Friedrich-Ebert-Str.","postalCode":"99867","locality":"Gotha","municipality":{"key":"16067029","name":"Gotha, Stadt","type":"Stadt"},"district":{"key":"16067","name":"Gotha","type":"Landkreis"},"federalState":{"key":"16","name":"Thüringen"}},{"name":"Friedrich-Fröbel-Str.","postalCode":"99867","locality":"Gotha","municipality":{"key":"16067029","name":"Gotha, Stadt","type":"Stadt"},"district":{"key":"16067","name":"Gotha","type":"Landkreis"},"federalState":{"key":"16","name":"Thüringen"}},{"name":"Friedrich-Jacobs-Str.","postalCode":"99867","locality":"Gotha","municipality":{"key":"16067029","name":"Gotha, Stadt","type":"Stadt"},"district":{"key":"16067","name":"Gotha","type":"Landkreis"},"federalState":{"key":"16","name":"Thüringen"}},{"name":"Friedrich-List-Str.","postalCode":"99867","locality":"Gotha","municipality":{"key":"16067029","name":"Gotha, Stadt","type":"Stadt"},"district":{"key":"16067","name":"Gotha","type":"Landkreis"},"federalState":{"key":"16","name":"Thüringen"}},{"name":"Friedrich-Perthes-Str.","postalCode":"99867","locality":"Gotha","municipality":{"key":"16067029","name":"Gotha, Stadt","type":"Stadt"},"district":{"key":"16067","name":"Gotha","type":"Landkreis"},"federalState":{"key":"16","name":"Thüringen"}},{"name":"Friedrichrodaer Str.","postalCode":"99867","locality":"Gotha","municipality":{"key":"16067029","name":"Gotha, Stadt","type":"Stadt"},"district":{"key":"16067","name":"Gotha","type":"Landkreis"},"federalState":{"key":"16","name":"Thüringen"}},{"name":"Friedrichstr.","postalCode":"99867","locality":"Gotha","municipality":{"key":"16067029","name":"Gotha, Stadt","type":"Stadt"},"district":{"key":"16067","name":"Gotha","type":"Landkreis"},"federalState":{"key":"16","name":"Thüringen"}},{"name":"Friedrichswerther Weg","postalCode":"99867","locality":"Gotha","municipality":{"key":"16067029","name":"Gotha, Stadt","type":"Stadt"},"district":{"key":"16067","name":"Gotha","type":"Landkreis"},"federalState":{"key":"16","name":"Thüringen"}},{"name":"Friemarer Str.","postalCode":"99867","locality":"Gotha","municipality":{"key":"16067029","name":"Gotha, Stadt","type":"Stadt"},"district":{"key":"16067","name":"Gotha","type":"Landkreis"},"federalState":{"key":"16","name":"Thüringen"}},{"name":"Friesenstr.","postalCode":"99867","locality":"Gotha","municipality":{"key":"16067029","name":"Gotha, Stadt","type":"Stadt"},"district":{"key":"16067","name":"Gotha","type":"Landkreis"},"federalState":{"key":"16","name":"Thüringen"}},{"name":"Fritzelsgasse","postalCode":"99867","locality":"Gotha","municipality":{"key":"16067029","name":"Gotha, Stadt","type":"Stadt"},"district":{"key":"16067","name":"Gotha","type":"Landkreis"},"federalState":{"key":"16","name":"Thüringen"}},{"name":"Grüne Aue","postalCode":"99192","locality":"Nottleben","municipality":{"key":"16067052","name":"Nottleben","type":"Kreisangehörige_Gemeinde"},"district":{"key":"16067","name":"Gotha","type":"Landkreis"},"federalState":{"key":"16","name":"Thüringen"}},{"name":"Hauptstr.","postalCode":"99192","locality":"Nottleben","municipality":{"key":"16067052","name":"Nottleben","type":"Kreisangehörige_Gemeinde"},"district":{"key":"16067","name":"Gotha","type":"Landkreis"},"federalState":{"key":"16","name":"Thüringen"}},{"name":"Herzogsgasse","postalCode":"99192","locality":"Nottleben","municipality":{"key":"16067052","name":"Nottleben","type":"Kreisangehörige_Gemeinde"},"district":{"key":"16067","name":"Gotha","type":"Landkreis"},"federalState":{"key":"16","name":"Thüringen"}},{"name":"Im Flattich","postalCode":"99192","locality":"Nottleben","municipality":{"key":"16067052","name":"Nottleben","type":"Kreisangehörige_Gemeinde"},"district":{"key":"16067","name":"Gotha","type":"Landkreis"},"federalState":{"key":"16","name":"Thüringen"}},{"name":"Jägergasse","postalCode":"99867","locality":"Gotha","municipality":{"key":"16067029","name":"Gotha, Stadt","type":"Stadt"},"district":{"key":"16067","name":"Gotha","type":"Landkreis"},"federalState":{"key":"16","name":"Thüringen"}},{"name":"Jägerstr.","postalCode":"99867","locality":"Gotha","municipality":{"key":"16067029","name":"Gotha, Stadt","type":"Stadt"},"district":{"key":"16067","name":"Gotha","type":"Landkreis"},"federalState":{"key":"16","name":"Thüringen"}},{"name":"Jenzschstr.","postalCode":"99867","locality":"Gotha","municipality":{"key":"16067029","name":"Gotha, Stadt","type":"Stadt"},"district":{"key":"16067","name":"Gotha","type":"Landkreis"},"federalState":{"key":"16","name":"Thüringen"}},{"name":"Johannesgasse","postalCode":"99867","locality":"Gotha","municipality":{"key":"16067029","name":"Gotha, Stadt","type":"Stadt"},"district":{"key":"16067","name":"Gotha","type":"Landkreis"},"federalState":{"key":"16","name":"Thüringen"}},{"name":"Johannesstr.","postalCode":"99867","locality":"Gotha","municipality":{"key":"16067029","name":"Gotha, Stadt","type":"Stadt"},"district":{"key":"16067","name":"Gotha","type":"Landkreis"},"federalState":{"key":"16","name":"Thüringen"}},{"name":"Joseph-Meyer-Str.","postalCode":"99867","locality":"Gotha","municipality":{"key":"16067029","name":"Gotha, Stadt","type":"Stadt"},"district":{"key":"16067","name":"Gotha","type":"Landkreis"},"federalState":{"key":"16","name":"Thüringen"}},{"name":"Jüdenstr.","postalCode":"99867","locality":"Gotha","municipality":{"key":"16067029","name":"Gotha, Stadt","type":"Stadt"},"district":{"key":"16067","name":"Gotha","type":"Landkreis"},"federalState":{"key":"16","name":"Thüringen"}},{"name":"Julius-Bertuch-Str.","postalCode":"99867","locality":"Gotha","municipality":{"key":"16067029","name":"Gotha, Stadt","type":"Stadt"},"district":{"key":"16067","name":"Gotha","type":"Landkreis"},"federalState":{"key":"16","name":"Thüringen"}},{"name":"Juri-Gagarin-Str.","postalCode":"99867","locality":"Gotha","municipality":{"key":"16067029","name":"Gotha, Stadt","type":"Stadt"},"district":{"key":"16067","name":"Gotha","type":"Landkreis"},"federalState":{"key":"16","name":"Thüringen"}},{"name":"Justus-Perthes-Str.","postalCode":"99867","locality":"Gotha","municipality":{"key":"16067029","name":"Gotha, Stadt","type":"Stadt"},"district":{"key":"16067","name":"Gotha","type":"Landkreis"},"federalState":{"key":"16","name":"Thüringen"}},{"name":"Karl-Marx-Platz","postalCode":"99192","locality":"Nottleben","municipality":{"key":"16067052","name":"Nottleben","type":"Kreisangehörige_Gemeinde"},"district":{"key":"16067","name":"Gotha","type":"Landkreis"},"federalState":{"key":"16","name":"Thüringen"}},{"name":"Kirchgasse","postalCode":"99192","locality":"Nottleben","municipality":{"key":"16067052","name":"Nottleben","type":"Kreisangehörige_Gemeinde"},"district":{"key":"16067","name":"Gotha","type":"Landkreis"},"federalState":{"key":"16","name":"Thüringen"}},{"name":"Lange Str.","postalCode":"99192","locality":"Nottleben","municipality":{"key":"16067052","name":"Nottleben","type":"Kreisangehörige_Gemeinde"},"district":{"key":"16067","name":"Gotha","type":"Landkreis"},"federalState":{"key":"16","name":"Thüringen"}},{"name":"Lindenstr.","postalCode":"99192","locality":"Nottleben","municipality":{"key":"16067052","name":"Nottleben","type":"Kreisangehörige_Gemeinde"},"district":{"key":"16067","name":"Gotha","type":"Landkreis"},"federalState":{"key":"16","name":"Thüringen"}},{"name":"Mairichstr.","postalCode":"99867","locality":"Gotha","municipality":{"key":"16067029","name":"Gotha, Stadt","type":"Stadt"},"district":{"key":"16067","name":"Gotha","type":"Landkreis"},"federalState":{"key":"16","name":"Thüringen"}},{"name":"Margarethenstr.","postalCode":"99867","locality":"Gotha","municipality":{"key":"16067029","name":"Gotha, Stadt","type":"Stadt"},"district":{"key":"16067","name":"Gotha","type":"Landkreis"},"federalState":{"key":"16","name":"Thüringen"}},{"name":"Marianne-Brandt-Str.","postalCode":"99867","locality":"Gotha","municipality":{"key":"16067029","name":"Gotha, Stadt","type":"Stadt"},"district":{"key":"16067","name":"Gotha","type":"Landkreis"},"federalState":{"key":"16","name":"Thüringen"}},{"name":"Maria-Uhden-Weg","postalCode":"99867","locality":"Gotha","municipality":{"key":"16067029","name":"Gotha, Stadt","type":"Stadt"},"district":{"key":"16067","name":"Gotha","type":"Landkreis"},"federalState":{"key":"16","name":"Thüringen"}},{"name":"Martinstr.","postalCode":"99867","locality":"Gotha","municipality":{"key":"16067029","name":"Gotha, Stadt","type":"Stadt"},"district":{"key":"16067","name":"Gotha","type":"Landkreis"},"federalState":{"key":"16","name":"Thüringen"}},{"name":"Mauerstr.","postalCode":"99867","locality":"Gotha","municipality":{"key":"16067029","name":"Gotha, Stadt","type":"Stadt"},"district":{"key":"16067","name":"Gotha","type":"Landkreis"},"federalState":{"key":"16","name":"Thüringen"}},{"name":"Maybachstr.","postalCode":"99867","locality":"Gotha","municipality":{"key":"16067029","name":"Gotha, Stadt","type":"Stadt"},"district":{"key":"16067","name":"Gotha","type":"Landkreis"},"federalState":{"key":"16","name":"Thüringen"}},{"name":"Mendelssohnweg","postalCode":"99867","locality":"Gotha","municipality":{"key":"16067029","name":"Gotha, Stadt","type":"Stadt"},"district":{"key":"16067","name":"Gotha","type":"Landkreis"},"federalState":{"key":"16","name":"Thüringen"}},{"name":"Mittelhäuser Weg","postalCode":"99867","locality":"Gotha","municipality":{"key":"16067029","name":"Gotha, Stadt","type":"Stadt"},"district":{"key":"16067","name":"Gotha","type":"Landkreis"},"federalState":{"key":"16","name":"Thüringen"}},{"name":"Mittelstr.","postalCode":"99867","locality":"Gotha","municipality":{"key":"16067029","name":"Gotha, Stadt","type":"Stadt"},"district":{"key":"16067","name":"Gotha","type":"Landkreis"},"federalState":{"key":"16","name":"Thüringen"}},{"name":"Mohrenberg","postalCode":"99867","locality":"Gotha","municipality":{"key":"16067029","name":"Gotha, Stadt","type":"Stadt"},"district":{"key":"16067","name":"Gotha","type":"Landkreis"},"federalState":{"key":"16","name":"Thüringen"}},{"name":"Mohrenstr.","postalCode":"99867","locality":"Gotha","municipality":{"key":"16067029","name":"Gotha, Stadt","type":"Stadt"},"district":{"key":"16067","name":"Gotha","type":"Landkreis"},"federalState":{"key":"16","name":"Thüringen"}},{"name":"Molschleber Str.","postalCode":"99867","locality":"Gotha","municipality":{"key":"16067029","name":"Gotha, Stadt","type":"Stadt"},"district":{"key":"16067","name":"Gotha","type":"Landkreis"},"federalState":{"key":"16","name":"Thüringen"}},{"name":"Mönchallee","postalCode":"99867","locality":"Gotha","municipality":{"key":"16067029","name":"Gotha, Stadt","type":"Stadt"},"district":{"key":"16067","name":"Gotha","type":"Landkreis"},"federalState":{"key":"16","name":"Thüringen"}},{"name":"Mönchelsstr.","postalCode":"99867","locality":"Gotha","municipality":{"key":"16067029","name":"Gotha, Stadt","type":"Stadt"},"district":{"key":"16067","name":"Gotha","type":"Landkreis"},"federalState":{"key":"16","name":"Thüringen"}},{"name":"Mönchpark","postalCode":"99867","locality":"Gotha","municipality":{"key":"16067029","name":"Gotha, Stadt","type":"Stadt"},"district":{"key":"16067","name":"Gotha","type":"Landkreis"},"federalState":{"key":"16","name":"Thüringen"}},{"name":"Mönchstr.","postalCode":"99867","locality":"Gotha","municipality":{"key":"16067029","name":"Gotha, Stadt","type":"Stadt"},"district":{"key":"16067","name":"Gotha","type":"Landkreis"},"federalState":{"key":"16","name":"Thüringen"}},{"name":"Moßlerstr.","postalCode":"99867","locality":"Gotha","municipality":{"key":"16067029","name":"Gotha, Stadt","type":"Stadt"},"district":{"key":"16067","name":"Gotha","type":"Landkreis"},"federalState":{"key":"16","name":"Thüringen"}},{"name":"Mozartstr.","postalCode":"99867","locality":"Gotha","municipality":{"key":"16067029","name":"Gotha, Stadt","type":"Stadt"},"district":{"key":"16067","name":"Gotha","type":"Landkreis"},"federalState":{"key":"16","name":"Thüringen"}},{"name":"Mühlenstr.","postalCode":"99867","locality":"Gotha","municipality":{"key":"16067029","name":"Gotha, Stadt","type":"Stadt"},"district":{"key":"16067","name":"Gotha","type":"Landkreis"},"federalState":{"key":"16","name":"Thüringen"}},{"name":"Mühlgrabenweg","postalCode":"99867","locality":"Gotha","municipality":{"key":"16067029","name":"Gotha, Stadt","type":"Stadt"},"district":{"key":"16067","name":"Gotha","type":"Landkreis"},"federalState":{"key":"16","name":"Thüringen"}},{"name":"Müllersweg","postalCode":"99867","locality":"Gotha","municipality":{"key":"16067029","name":"Gotha, Stadt","type":"Stadt"},"district":{"key":"16067","name":"Gotha","type":"Landkreis"},"federalState":{"key":"16","name":"Thüringen"}},{"name":"Münzweg","postalCode":"99867","locality":"Gotha","municipality":{"key":"16067029","name":"Gotha, Stadt","type":"Stadt"},"district":{"key":"16067","name":"Gotha","type":"Landkreis"},"federalState":{"key":"16","name":"Thüringen"}},{"name":"Myconiusplatz","postalCode":"99867","locality":"Gotha","municipality":{"key":"16067029","name":"Gotha, Stadt","type":"Stadt"},"district":{"key":"16067","name":"Gotha","type":"Landkreis"},"federalState":{"key":"16","name":"Thüringen"}},{"name":"Neue Str.","postalCode":"99192","locality":"Nottleben","municipality":{"key":"16067052","name":"Nottleben","type":"Kreisangehörige_Gemeinde"},"district":{"key":"16067","name":"Gotha","type":"Landkreis"},"federalState":{"key":"16","name":"Thüringen"}},{"name":"Obere Marktstr.","postalCode":"99867","locality":"Gotha","municipality":{"key":"16067029","name":"Gotha, Stadt","type":"Stadt"},"district":{"key":"16067","name":"Gotha","type":"Landkreis"},"federalState":{"key":"16","name":"Thüringen"}},{"name":"Oberhofer Str.","postalCode":"99867","locality":"Gotha","municipality":{"key":"16067029","name":"Gotha, Stadt","type":"Stadt"},"district":{"key":"16067","name":"Gotha","type":"Landkreis"},"federalState":{"key":"16","name":"Thüringen"}},{"name":"Oberstr.","postalCode":"99867","locality":"Gotha","municipality":{"key":"16067029","name":"Gotha, Stadt","type":"Stadt"},"district":{"key":"16067","name":"Gotha","type":"Landkreis"},"federalState":{"key":"16","name":"Thüringen"}},{"name":"Obertor","postalCode":"99867","locality":"Gotha","municipality":{"key":"16067029","name":"Gotha, Stadt","type":"Stadt"},"district":{"key":"16067","name":"Gotha","type":"Landkreis"},"federalState":{"key":"16","name":"Thüringen"}},{"name":"Ohrdrufer Str.","postalCode":"99867","locality":"Gotha","municipality":{"key":"16067029","name":"Gotha, Stadt","type":"Stadt"},"district":{"key":"16067","name":"Gotha","type":"Landkreis"},"federalState":{"key":"16","name":"Thüringen"}},{"name":"Orangerie","postalCode":"99867","locality":"Gotha","municipality":{"key":"16067029","name":"Gotha, Stadt","type":"Stadt"},"district":{"key":"16067","name":"Gotha","type":"Landkreis"},"federalState":{"key":"16","name":"Thüringen"}},{"name":"Oskar-Blödner-Str.","postalCode":"99867","locality":"Gotha","municipality":{"key":"16067029","name":"Gotha, Stadt","type":"Stadt"},"district":{"key":"16067","name":"Gotha","type":"Landkreis"},"federalState":{"key":"16","name":"Thüringen"}},{"name":"Oskar-Gründler-Str.","postalCode":"99867","locality":"Gotha","municipality":{"key":"16067029","name":"Gotha, Stadt","type":"Stadt"},"district":{"key":"16067","name":"Gotha","type":"Landkreis"},"federalState":{"key":"16","name":"Thüringen"}},{"name":"Ostheimer Weg","postalCode":"99867","locality":"Gotha","municipality":{"key":"16067029","name":"Gotha, Stadt","type":"Stadt"},"district":{"key":"16067","name":"Gotha","type":"Landkreis"},"federalState":{"key":"16","name":"Thüringen"}},{"name":"Oststr.","postalCode":"99867","locality":"Gotha","municipality":{"key":"16067029","name":"Gotha, Stadt","type":"Stadt"},"district":{"key":"16067","name":"Gotha","type":"Landkreis"},"federalState":{"key":"16","name":"Thüringen"}},{"name":"Otto-Dreyer-Str.","postalCode":"99867","locality":"Gotha","municipality":{"key":"16067029","name":"Gotha, Stadt","type":"Stadt"},"district":{"key":"16067","name":"Gotha","type":"Landkreis"},"federalState":{"key":"16","name":"Thüringen"}},{"name":"Otto-Geithner-Str.","postalCode":"99867","locality":"Gotha","municipality":{"key":"16067029","name":"Gotha, Stadt","type":"Stadt"},"district":{"key":"16067","name":"Gotha","type":"Landkreis"},"federalState":{"key":"16","name":"Thüringen"}},{"name":"Platz des Friedens","postalCode":"99192","locality":"Nottleben","municipality":{"key":"16067052","name":"Nottleben","type":"Kreisangehörige_Gemeinde"},"district":{"key":"16067","name":"Gotha","type":"Landkreis"},"federalState":{"key":"16","name":"Thüringen"}},{"name":"Querstr.","postalCode":"99192","locality":"Nottleben","municipality":{"key":"16067052","name":"Nottleben","type":"Kreisangehörige_Gemeinde"},"district":{"key":"16067","name":"Gotha","type":"Landkreis"},"federalState":{"key":"16","name":"Thüringen"}},{"name":"Reinhardsbrunner Str.","postalCode":"99867","locality":"Gotha","municipality":{"key":"16067029","name":"Gotha, Stadt","type":"Stadt"},"district":{"key":"16067","name":"Gotha","type":"Landkreis"},"federalState":{"key":"16","name":"Thüringen"}},{"name":"Remstädter Str.","postalCode":"99867","locality":"Gotha","municipality":{"key":"16067029","name":"Gotha, Stadt","type":"Stadt"},"district":{"key":"16067","name":"Gotha","type":"Landkreis"},"federalState":{"key":"16","name":"Thüringen"}},{"name":"Remstädter Weg","postalCode":"99867","locality":"Gotha","municipality":{"key":"16067029","name":"Gotha, Stadt","type":"Stadt"},"district":{"key":"16067","name":"Gotha","type":"Landkreis"},"federalState":{"key":"16","name":"Thüringen"}},{"name":"Reuterstr.","postalCode":"99867","locality":"Gotha","municipality":{"key":"16067029","name":"Gotha, Stadt","type":"Stadt"},"district":{"key":"16067","name":"Gotha","type":"Landkreis"},"federalState":{"key":"16","name":"Thüringen"}},{"name":"Reyherstr.","postalCode":"99867","locality":"Gotha","municipality":{"key":"16067029","name":"Gotha, Stadt","type":"Stadt"},"district":{"key":"16067","name":"Gotha","type":"Landkreis"},"federalState":{"key":"16","name":"Thüringen"}},{"name":"Riedgasse","postalCode":"99867","locality":"Gotha","municipality":{"key":"16067029","name":"Gotha, Stadt","type":"Stadt"},"district":{"key":"16067","name":"Gotha","type":"Landkreis"},"federalState":{"key":"16","name":"Thüringen"}},{"name":"Riedweg","postalCode":"99867","locality":"Gotha","municipality":{"key":"16067029","name":"Gotha, Stadt","type":"Stadt"},"district":{"key":"16067","name":"Gotha","type":"Landkreis"},"federalState":{"key":"16","name":"Thüringen"}},{"name":"Robert-Blum-Str.","postalCode":"99867","locality":"Gotha","municipality":{"key":"16067029","name":"Gotha, Stadt","type":"Stadt"},"district":{"key":"16067","name":"Gotha","type":"Landkreis"},"federalState":{"key":"16","name":"Thüringen"}},{"name":"Robert-Koch-Str.","postalCode":"99867","locality":"Gotha","municipality":{"key":"16067029","name":"Gotha, Stadt","type":"Stadt"},"district":{"key":"16067","name":"Gotha","type":"Landkreis"},"federalState":{"key":"16","name":"Thüringen"}},{"name":"Rombergstr.","postalCode":"99867","locality":"Gotha","municipality":{"key":"16067029","name":"Gotha, Stadt","type":"Stadt"},"district":{"key":"16067","name":"Gotha","type":"Landkreis"},"federalState":{"key":"16","name":"Thüringen"}},{"name":"Romillystr.","postalCode":"99867","locality":"Gotha","municipality":{"key":"16067029","name":"Gotha, Stadt","type":"Stadt"},"district":{"key":"16067","name":"Gotha","type":"Landkreis"},"federalState":{"key":"16","name":"Thüringen"}},{"name":"Rosa-Luxemburg-Str.","postalCode":"99867","locality":"Gotha","municipality":{"key":"16067029","name":"Gotha, Stadt","type":"Stadt"},"district":{"key":"16067","name":"Gotha","type":"Landkreis"},"federalState":{"key":"16","name":"Thüringen"}},{"name":"Roseggerstr.","postalCode":"99867","locality":"Gotha","municipality":{"key":"16067029","name":"Gotha, Stadt","type":"Stadt"},"district":{"key":"16067","name":"Gotha","type":"Landkreis"},"federalState":{"key":"16","name":"Thüringen"}},{"name":"Schenksgasse","postalCode":"99192","locality":"Nottleben","municipality":{"key":"16067052","name":"Nottleben","type":"Kreisangehörige_Gemeinde"},"district":{"key":"16067","name":"Gotha","type":"Landkreis"},"federalState":{"key":"16","name":"Thüringen"}},{"name":"Schulwinkel","postalCode":"99192","locality":"Nottleben","municipality":{"key":"16067052","name":"Nottleben","type":"Kreisangehörige_Gemeinde"},"district":{"key":"16067","name":"Gotha","type":"Landkreis"},"federalState":{"key":"16","name":"Thüringen"}},{"name":"Tabarzer Str.","postalCode":"99867","locality":"Gotha","municipality":{"key":"16067029","name":"Gotha, Stadt","type":"Stadt"},"district":{"key":"16067","name":"Gotha","type":"Landkreis"},"federalState":{"key":"16","name":"Thüringen"}},{"name":"Tambacher Str.","postalCode":"99867","locality":"Gotha","municipality":{"key":"16067029","name":"Gotha, Stadt","type":"Stadt"},"district":{"key":"16067","name":"Gotha","type":"Landkreis"},"federalState":{"key":"16","name":"Thüringen"}},{"name":"Tonnaer Str.","postalCode":"99867","locality":"Gotha","municipality":{"key":"16067029","name":"Gotha, Stadt","type":"Stadt"},"district":{"key":"16067","name":"Gotha","type":"Landkreis"},"federalState":{"key":"16","name":"Thüringen"}},{"name":"Töpferweg","postalCode":"99867","locality":"Gotha","municipality":{"key":"16067029","name":"Gotha, Stadt","type":"Stadt"},"district":{"key":"16067","name":"Gotha","type":"Landkreis"},"federalState":{"key":"16","name":"Thüringen"}},{"name":"Töpfleber Weg","postalCode":"99867","locality":"Gotha","municipality":{"key":"16067029","name":"Gotha, Stadt","type":"Stadt"},"district":{"key":"16067","name":"Gotha","type":"Landkreis"},"federalState":{"key":"16","name":"Thüringen"}},{"name":"Treppengasse","postalCode":"99867","locality":"Gotha","municipality":{"key":"16067029","name":"Gotha, Stadt","type":"Stadt"},"district":{"key":"16067","name":"Gotha","type":"Landkreis"},"federalState":{"key":"16","name":"Thüringen"}},{"name":"Trügleber Str.","postalCode":"99867","locality":"Gotha","municipality":{"key":"16067029","name":"Gotha, Stadt","type":"Stadt"},"district":{"key":"16067","name":"Gotha","type":"Landkreis"},"federalState":{"key":"16","name":"Thüringen"}},{"name":"Trützschlerplatz","postalCode":"99867","locality":"Gotha","municipality":{"key":"16067029","name":"Gotha, Stadt","type":"Stadt"},"district":{"key":"16067","name":"Gotha","type":"Landkreis"},"federalState":{"key":"16","name":"Thüringen"}},{"name":"Tulpenweg","postalCode":"99867","locality":"Gotha","municipality":{"key":"16067029","name":"Gotha, Stadt","type":"Stadt"},"district":{"key":"16067","name":"Gotha","type":"Landkreis"},"federalState":{"key":"16","name":"Thüringen"}},{"name":"Tüttleber Weg","postalCode":"99867","locality":"Gotha","municipality":{"key":"16067029","name":"Gotha, Stadt","type":"Stadt"},"district":{"key":"16067","name":"Gotha","type":"Landkreis"},"federalState":{"key":"16","name":"Thüringen"}},{"name":"Uelleber Str.","postalCode":"99867","locality":"Gotha","municipality":{"key":"16067029","name":"Gotha, Stadt","type":"Stadt"},"district":{"key":"16067","name":"Gotha","type":"Landkreis"},"federalState":{"key":"16","name":"Thüringen"}},{"name":"Uhlandstr.","postalCode":"99867","locality":"Gotha","municipality":{"key":"16067029","name":"Gotha, Stadt","type":"Stadt"},"district":{"key":"16067","name":"Gotha","type":"Landkreis"},"federalState":{"key":"16","name":"Thüringen"}},{"name":"Ulmenweg","postalCode":"99867","locality":"Gotha","municipality":{"key":"16067029","name":"Gotha, Stadt","type":"Stadt"},"district":{"key":"16067","name":"Gotha","type":"Landkreis"},"federalState":{"key":"16","name":"Thüringen"}},{"name":"Unterstr.","postalCode":"99867","locality":"Gotha","municipality":{"key":"16067029","name":"Gotha, Stadt","type":"Stadt"},"district":{"key":"16067","name":"Gotha","type":"Landkreis"},"federalState":{"key":"16","name":"Thüringen"}},{"name":"Uthmannstr.","postalCode":"99867","locality":"Gotha","municipality":{"key":"16067029","name":"Gotha, Stadt","type":"Stadt"},"district":{"key":"16067","name":"Gotha","type":"Landkreis"},"federalState":{"key":"16","name":"Thüringen"}},{"name":"Vorstadt","postalCode":"99192","locality":"Nottleben","municipality":{"key":"16067052","name":"Nottleben","type":"Kreisangehörige_Gemeinde"},"district":{"key":"16067","name":"Gotha","type":"Landkreis"},"federalState":{"key":"16","name":"Thüringen"}},{"name":"Waltershäuser Str.","postalCode":"99867","locality":"Gotha","municipality":{"key":"16067029","name":"Gotha, Stadt","type":"Stadt"},"district":{"key":"16067","name":"Gotha","type":"Landkreis"},"federalState":{"key":"16","name":"Thüringen"}},{"name":"Waltershäuser Weg","postalCode":"99867","locality":"Gotha","municipality":{"key":"16067029","name":"Gotha, Stadt","type":"Stadt"},"district":{"key":"16067","name":"Gotha","type":"Landkreis"},"federalState":{"key":"16","name":"Thüringen"}},{"name":"Wandersleber Weg","postalCode":"99867","locality":"Gotha","municipality":{"key":"16067029","name":"Gotha, Stadt","type":"Stadt"},"district":{"key":"16067","name":"Gotha","type":"Landkreis"},"federalState":{"key":"16","name":"Thüringen"}},{"name":"Wangenheimer Weg","postalCode":"99867","locality":"Gotha","municipality":{"key":"16067029","name":"Gotha, Stadt","type":"Stadt"},"district":{"key":"16067","name":"Gotha","type":"Landkreis"},"federalState":{"key":"16","name":"Thüringen"}},{"name":"Warzaer Str.","postalCode":"99867","locality":"Gotha","municipality":{"key":"16067029","name":"Gotha, Stadt","type":"Stadt"},"district":{"key":"16067","name":"Gotha","type":"Landkreis"},"federalState":{"key":"16","name":"Thüringen"}},{"name":"Waschgasse","postalCode":"99867","locality":"Gotha","municipality":{"key":"16067029","name":"Gotha, Stadt","type":"Stadt"},"district":{"key":"16067","name":"Gotha","type":"Landkreis"},"federalState":{"key":"16","name":"Thüringen"}},{"name":"Weg am Berlach","postalCode":"99867","locality":"Gotha","municipality":{"key":"16067029","name":"Gotha, Stadt","type":"Stadt"},"district":{"key":"16067","name":"Gotha","type":"Landkreis"},"federalState":{"key":"16","name":"Thüringen"}},{"name":"Weimarer Str.","postalCode":"99867","locality":"Gotha","municipality":{"key":"16067029","name":"Gotha, Stadt","type":"Stadt"},"district":{"key":"16067","name":"Gotha","type":"Landkreis"},"federalState":{"key":"16","name":"Thüringen"}},{"name":"Weinbergweg","postalCode":"99867","locality":"Gotha","municipality":{"key":"16067029","name":"Gotha, Stadt","type":"Stadt"},"district":{"key":"16067","name":"Gotha","type":"Landkreis"},"federalState":{"key":"16","name":"Thüringen"}},{"name":"Weißdornweg","postalCode":"99867","locality":"Gotha","municipality":{"key":"16067029","name":"Gotha, Stadt","type":"Stadt"},"district":{"key":"16067","name":"Gotha","type":"Landkreis"},"federalState":{"key":"16","name":"Thüringen"}},{"name":"Werner-Sylten-Str.","postalCode":"99867","locality":"Gotha","municipality":{"key":"16067029","name":"Gotha, Stadt","type":"Stadt"},"district":{"key":"16067","name":"Gotha","type":"Landkreis"},"federalState":{"key":"16","name":"Thüringen"}},{"name":"Westhäuser Str.","postalCode":"99867","locality":"Gotha","municipality":{"key":"16067029","name":"Gotha, Stadt","type":"Stadt"},"district":{"key":"16067","name":"Gotha","type":"Landkreis"},"federalState":{"key":"16","name":"Thüringen"}},{"name":"Wiesengasse","postalCode":"99867","locality":"Gotha","municipality":{"key":"16067029","name":"Gotha, Stadt","type":"Stadt"},"district":{"key":"16067","name":"Gotha","type":"Landkreis"},"federalState":{"key":"16","name":"Thüringen"}},{"name":"Wiesengrund","postalCode":"99867","locality":"Gotha","municipality":{"key":"16067029","name":"Gotha, Stadt","type":"Stadt"},"district":{"key":"16067","name":"Gotha","type":"Landkreis"},"federalState":{"key":"16","name":"Thüringen"}},{"name":"Wilhelm-Bock-Str.","postalCode":"99867","locality":"Gotha","municipality":{"key":"16067029","name":"Gotha, Stadt","type":"Stadt"},"district":{"key":"16067","name":"Gotha","type":"Landkreis"},"federalState":{"key":"16","name":"Thüringen"}},{"name":"Wilhelm-Umbreit-Str.","postalCode":"99867","locality":"Gotha","municipality":{"key":"16067029","name":"Gotha, Stadt","type":"Stadt"},"district":{"key":"16067","name":"Gotha","type":"Landkreis"},"federalState":{"key":"16","name":"Thüringen"}},{"name":"Zacharias-Becker-Str.","postalCode":"99867","locality":"Gotha","municipality":{"key":"16067029","name":"Gotha, Stadt","type":"Stadt"},"district":{"key":"16067","name":"Gotha","type":"Landkreis"},"federalState":{"key":"16","name":"Thüringen"}},{"name":"Zeisigweg","postalCode":"99867","locality":"Gotha","municipality":{"key":"16067029","name":"Gotha, Stadt","type":"Stadt"},"district":{"key":"16067","name":"Gotha","type":"Landkreis"},"federalState":{"key":"16","name":"Thüringen"}},{"name":"Zeppelinstr.","postalCode":"99867","locality":"Gotha","municipality":{"key":"16067029","name":"Gotha, Stadt","type":"Stadt"},"district":{"key":"16067","name":"Gotha","type":"Landkreis"},"federalState":{"key":"16","name":"Thüringen"}},{"name":"Ziegeleigasse","postalCode":"99867","locality":"Gotha","municipality":{"key":"16067029","name":"Gotha, Stadt","type":"Stadt"},"district":{"key":"16067","name":"Gotha","type":"Landkreis"},"federalState":{"key":"16","name":"Thüringen"}},{"name":"Zum Boxberg","postalCode":"99867","locality":"Gotha","municipality":{"key":"16067029","name":"Gotha, Stadt","type":"Stadt"},"district":{"key":"16067","name":"Gotha","type":"Landkreis"},"federalState":{"key":"16","name":"Thüringen"}},]