[{"name":"Auf den Benden","postalCode":"54589","locality":"Kerschenbach","municipality":{"key":"07233219","name":"Kerschenbach","type":"Kreisangehörige_Gemeinde"},"district":{"key":"07233","name":"Vulkaneifel","type":"Landkreis"},"federalState":{"key":"07","name":"Rheinland-Pfalz"}},{"name":"Befestigter Waldweg","postalCode":"54589","locality":"Kerschenbach","municipality":{"key":"07233219","name":"Kerschenbach","type":"Kreisangehörige_Gemeinde"},"district":{"key":"07233","name":"Vulkaneifel","type":"Landkreis"},"federalState":{"key":"07","name":"Rheinland-Pfalz"}},{"name":"Dorfstr.","postalCode":"54589","locality":"Kerschenbach","municipality":{"key":"07233219","name":"Kerschenbach","type":"Kreisangehörige_Gemeinde"},"district":{"key":"07233","name":"Vulkaneifel","type":"Landkreis"},"federalState":{"key":"07","name":"Rheinland-Pfalz"}},{"name":"Gartenstr.","postalCode":"54589","locality":"Kerschenbach","municipality":{"key":"07233219","name":"Kerschenbach","type":"Kreisangehörige_Gemeinde"},"district":{"key":"07233","name":"Vulkaneifel","type":"Landkreis"},"federalState":{"key":"07","name":"Rheinland-Pfalz"}},{"name":"Killerberg","postalCode":"54589","locality":"Kerschenbach","municipality":{"key":"07233219","name":"Kerschenbach","type":"Kreisangehörige_Gemeinde"},"district":{"key":"07233","name":"Vulkaneifel","type":"Landkreis"},"federalState":{"key":"07","name":"Rheinland-Pfalz"}},{"name":"Mühlenweg","postalCode":"54589","locality":"Kerschenbach","municipality":{"key":"07233219","name":"Kerschenbach","type":"Kreisangehörige_Gemeinde"},"district":{"key":"07233","name":"Vulkaneifel","type":"Landkreis"},"federalState":{"key":"07","name":"Rheinland-Pfalz"}},{"name":"Ormonter Str.","postalCode":"54589","locality":"Kerschenbach","municipality":{"key":"07233219","name":"Kerschenbach","type":"Kreisangehörige_Gemeinde"},"district":{"key":"07233","name":"Vulkaneifel","type":"Landkreis"},"federalState":{"key":"07","name":"Rheinland-Pfalz"}},{"name":"Stadtkyller Str.","postalCode":"54589","locality":"Kerschenbach","municipality":{"key":"07233219","name":"Kerschenbach","type":"Kreisangehörige_Gemeinde"},"district":{"key":"07233","name":"Vulkaneifel","type":"Landkreis"},"federalState":{"key":"07","name":"Rheinland-Pfalz"}},{"name":"Waldweg","postalCode":"54589","locality":"Kerschenbach","municipality":{"key":"07233219","name":"Kerschenbach","type":"Kreisangehörige_Gemeinde"},"district":{"key":"07233","name":"Vulkaneifel","type":"Landkreis"},"federalState":{"key":"07","name":"Rheinland-Pfalz"}},]