[{"name":"Adalbert-Stifter-Str.","postalCode":"86825","locality":"Bad Wörishofen","municipality":{"key":"09778116","name":"Bad Wörishofen, St","type":"Stadt"},"district":{"key":"09778","name":"Unterallgäu","type":"Landkreis"},"federalState":{"key":"09","name":"Bayern"}},{"name":"Adolf-Scholz-Allee","postalCode":"86825","locality":"Bad Wörishofen","municipality":{"key":"09778116","name":"Bad Wörishofen, St","type":"Stadt"},"district":{"key":"09778","name":"Unterallgäu","type":"Landkreis"},"federalState":{"key":"09","name":"Bayern"}},{"name":"Aggensteinstr.","postalCode":"86825","locality":"Bad Wörishofen","municipality":{"key":"09778116","name":"Bad Wörishofen, St","type":"Stadt"},"district":{"key":"09778","name":"Unterallgäu","type":"Landkreis"},"federalState":{"key":"09","name":"Bayern"}},{"name":"Ahornweg","postalCode":"86825","locality":"Bad Wörishofen","municipality":{"key":"09778116","name":"Bad Wörishofen, St","type":"Stadt"},"district":{"key":"09778","name":"Unterallgäu","type":"Landkreis"},"federalState":{"key":"09","name":"Bayern"}},{"name":"Albert-Schalle-Weg","postalCode":"86825","locality":"Bad Wörishofen","municipality":{"key":"09778116","name":"Bad Wörishofen, St","type":"Stadt"},"district":{"key":"09778","name":"Unterallgäu","type":"Landkreis"},"federalState":{"key":"09","name":"Bayern"}},{"name":"Alemannenweg","postalCode":"86825","locality":"Bad Wörishofen","municipality":{"key":"09778116","name":"Bad Wörishofen, St","type":"Stadt"},"district":{"key":"09778","name":"Unterallgäu","type":"Landkreis"},"federalState":{"key":"09","name":"Bayern"}},{"name":"Allgäuer Str.","postalCode":"86825","locality":"Bad Wörishofen","municipality":{"key":"09778116","name":"Bad Wörishofen, St","type":"Stadt"},"district":{"key":"09778","name":"Unterallgäu","type":"Landkreis"},"federalState":{"key":"09","name":"Bayern"}},{"name":"Alpenblick","postalCode":"86825","locality":"Bad Wörishofen","municipality":{"key":"09778116","name":"Bad Wörishofen, St","type":"Stadt"},"district":{"key":"09778","name":"Unterallgäu","type":"Landkreis"},"federalState":{"key":"09","name":"Bayern"}},{"name":"Alpenrosenweg","postalCode":"86825","locality":"Bad Wörishofen","municipality":{"key":"09778116","name":"Bad Wörishofen, St","type":"Stadt"},"district":{"key":"09778","name":"Unterallgäu","type":"Landkreis"},"federalState":{"key":"09","name":"Bayern"}},{"name":"Alpspitzweg","postalCode":"86825","locality":"Bad Wörishofen","municipality":{"key":"09778116","name":"Bad Wörishofen, St","type":"Stadt"},"district":{"key":"09778","name":"Unterallgäu","type":"Landkreis"},"federalState":{"key":"09","name":"Bayern"}},{"name":"Altensteiger Str.","postalCode":"86825","locality":"Bad Wörishofen","municipality":{"key":"09778116","name":"Bad Wörishofen, St","type":"Stadt"},"district":{"key":"09778","name":"Unterallgäu","type":"Landkreis"},"federalState":{"key":"09","name":"Bayern"}},{"name":"Alte Str.","postalCode":"86825","locality":"Bad Wörishofen","municipality":{"key":"09778116","name":"Bad Wörishofen, St","type":"Stadt"},"district":{"key":"09778","name":"Unterallgäu","type":"Landkreis"},"federalState":{"key":"09","name":"Bayern"}},{"name":"Altvaterstr.","postalCode":"86825","locality":"Bad Wörishofen","municipality":{"key":"09778116","name":"Bad Wörishofen, St","type":"Stadt"},"district":{"key":"09778","name":"Unterallgäu","type":"Landkreis"},"federalState":{"key":"09","name":"Bayern"}},{"name":"Am Anger","postalCode":"86825","locality":"Bad Wörishofen","municipality":{"key":"09778116","name":"Bad Wörishofen, St","type":"Stadt"},"district":{"key":"09778","name":"Unterallgäu","type":"Landkreis"},"federalState":{"key":"09","name":"Bayern"}},{"name":"Am Anwander","postalCode":"86825","locality":"Bad Wörishofen","municipality":{"key":"09778116","name":"Bad Wörishofen, St","type":"Stadt"},"district":{"key":"09778","name":"Unterallgäu","type":"Landkreis"},"federalState":{"key":"09","name":"Bayern"}},{"name":"Am Birkmahd","postalCode":"86825","locality":"Bad Wörishofen","municipality":{"key":"09778116","name":"Bad Wörishofen, St","type":"Stadt"},"district":{"key":"09778","name":"Unterallgäu","type":"Landkreis"},"federalState":{"key":"09","name":"Bayern"}},{"name":"Am Eichet","postalCode":"86825","locality":"Bad Wörishofen","municipality":{"key":"09778116","name":"Bad Wörishofen, St","type":"Stadt"},"district":{"key":"09778","name":"Unterallgäu","type":"Landkreis"},"federalState":{"key":"09","name":"Bayern"}},{"name":"Am Geiselstein","postalCode":"86825","locality":"Bad Wörishofen","municipality":{"key":"09778116","name":"Bad Wörishofen, St","type":"Stadt"},"district":{"key":"09778","name":"Unterallgäu","type":"Landkreis"},"federalState":{"key":"09","name":"Bayern"}},{"name":"Am Haldenbach","postalCode":"86825","locality":"Bad Wörishofen","municipality":{"key":"09778116","name":"Bad Wörishofen, St","type":"Stadt"},"district":{"key":"09778","name":"Unterallgäu","type":"Landkreis"},"federalState":{"key":"09","name":"Bayern"}},{"name":"Am Hang","postalCode":"86825","locality":"Bad Wörishofen","municipality":{"key":"09778116","name":"Bad Wörishofen, St","type":"Stadt"},"district":{"key":"09778","name":"Unterallgäu","type":"Landkreis"},"federalState":{"key":"09","name":"Bayern"}},{"name":"Am Kirchanger","postalCode":"86825","locality":"Bad Wörishofen","municipality":{"key":"09778116","name":"Bad Wörishofen, St","type":"Stadt"},"district":{"key":"09778","name":"Unterallgäu","type":"Landkreis"},"federalState":{"key":"09","name":"Bayern"}},{"name":"Am Kremelbach","postalCode":"86825","locality":"Bad Wörishofen","municipality":{"key":"09778116","name":"Bad Wörishofen, St","type":"Stadt"},"district":{"key":"09778","name":"Unterallgäu","type":"Landkreis"},"federalState":{"key":"09","name":"Bayern"}},{"name":"Am Kreuzacker","postalCode":"86825","locality":"Bad Wörishofen","municipality":{"key":"09778116","name":"Bad Wörishofen, St","type":"Stadt"},"district":{"key":"09778","name":"Unterallgäu","type":"Landkreis"},"federalState":{"key":"09","name":"Bayern"}},{"name":"Am Krumbach","postalCode":"86825","locality":"Bad Wörishofen","municipality":{"key":"09778116","name":"Bad Wörishofen, St","type":"Stadt"},"district":{"key":"09778","name":"Unterallgäu","type":"Landkreis"},"federalState":{"key":"09","name":"Bayern"}},{"name":"Am Lindenteil","postalCode":"86825","locality":"Bad Wörishofen","municipality":{"key":"09778116","name":"Bad Wörishofen, St","type":"Stadt"},"district":{"key":"09778","name":"Unterallgäu","type":"Landkreis"},"federalState":{"key":"09","name":"Bayern"}},{"name":"Am Lindenteil-Süd","postalCode":"86825","locality":"Bad Wörishofen","municipality":{"key":"09778116","name":"Bad Wörishofen, St","type":"Stadt"},"district":{"key":"09778","name":"Unterallgäu","type":"Landkreis"},"federalState":{"key":"09","name":"Bayern"}},{"name":"Am Mühlbach","postalCode":"86825","locality":"Bad Wörishofen","municipality":{"key":"09778116","name":"Bad Wörishofen, St","type":"Stadt"},"district":{"key":"09778","name":"Unterallgäu","type":"Landkreis"},"federalState":{"key":"09","name":"Bayern"}},{"name":"Am Rain","postalCode":"86825","locality":"Bad Wörishofen","municipality":{"key":"09778116","name":"Bad Wörishofen, St","type":"Stadt"},"district":{"key":"09778","name":"Unterallgäu","type":"Landkreis"},"federalState":{"key":"09","name":"Bayern"}},{"name":"Am Schlößle","postalCode":"86825","locality":"Bad Wörishofen","municipality":{"key":"09778116","name":"Bad Wörishofen, St","type":"Stadt"},"district":{"key":"09778","name":"Unterallgäu","type":"Landkreis"},"federalState":{"key":"09","name":"Bayern"}},{"name":"Am Sommerfeld","postalCode":"86825","locality":"Bad Wörishofen","municipality":{"key":"09778116","name":"Bad Wörishofen, St","type":"Stadt"},"district":{"key":"09778","name":"Unterallgäu","type":"Landkreis"},"federalState":{"key":"09","name":"Bayern"}},{"name":"Am Sorgschrofen","postalCode":"86825","locality":"Bad Wörishofen","municipality":{"key":"09778116","name":"Bad Wörishofen, St","type":"Stadt"},"district":{"key":"09778","name":"Unterallgäu","type":"Landkreis"},"federalState":{"key":"09","name":"Bayern"}},{"name":"Am Sportplatz","postalCode":"86825","locality":"Bad Wörishofen","municipality":{"key":"09778116","name":"Bad Wörishofen, St","type":"Stadt"},"district":{"key":"09778","name":"Unterallgäu","type":"Landkreis"},"federalState":{"key":"09","name":"Bayern"}},{"name":"Am Trieb","postalCode":"86825","locality":"Bad Wörishofen","municipality":{"key":"09778116","name":"Bad Wörishofen, St","type":"Stadt"},"district":{"key":"09778","name":"Unterallgäu","type":"Landkreis"},"federalState":{"key":"09","name":"Bayern"}},{"name":"Am Versunkenen Schloß","postalCode":"86825","locality":"Bad Wörishofen","municipality":{"key":"09778116","name":"Bad Wörishofen, St","type":"Stadt"},"district":{"key":"09778","name":"Unterallgäu","type":"Landkreis"},"federalState":{"key":"09","name":"Bayern"}},{"name":"Am Wörthbach","postalCode":"86825","locality":"Bad Wörishofen","municipality":{"key":"09778116","name":"Bad Wörishofen, St","type":"Stadt"},"district":{"key":"09778","name":"Unterallgäu","type":"Landkreis"},"federalState":{"key":"09","name":"Bayern"}},{"name":"Am Zwiernet","postalCode":"86825","locality":"Bad Wörishofen","municipality":{"key":"09778116","name":"Bad Wörishofen, St","type":"Stadt"},"district":{"key":"09778","name":"Unterallgäu","type":"Landkreis"},"federalState":{"key":"09","name":"Bayern"}},{"name":"An der Mühle","postalCode":"86825","locality":"Bad Wörishofen","municipality":{"key":"09778116","name":"Bad Wörishofen, St","type":"Stadt"},"district":{"key":"09778","name":"Unterallgäu","type":"Landkreis"},"federalState":{"key":"09","name":"Bayern"}},{"name":"Auenstr.","postalCode":"86825","locality":"Bad Wörishofen","municipality":{"key":"09778116","name":"Bad Wörishofen, St","type":"Stadt"},"district":{"key":"09778","name":"Unterallgäu","type":"Landkreis"},"federalState":{"key":"09","name":"Bayern"}},{"name":"Auerbergweg","postalCode":"86825","locality":"Bad Wörishofen","municipality":{"key":"09778116","name":"Bad Wörishofen, St","type":"Stadt"},"district":{"key":"09778","name":"Unterallgäu","type":"Landkreis"},"federalState":{"key":"09","name":"Bayern"}},{"name":"Bachstr.","postalCode":"86825","locality":"Bad Wörishofen","municipality":{"key":"09778116","name":"Bad Wörishofen, St","type":"Stadt"},"district":{"key":"09778","name":"Unterallgäu","type":"Landkreis"},"federalState":{"key":"09","name":"Bayern"}},{"name":"Bad Wörishofener Str.","postalCode":"86825","locality":"Bad Wörishofen","municipality":{"key":"09778116","name":"Bad Wörishofen, St","type":"Stadt"},"district":{"key":"09778","name":"Unterallgäu","type":"Landkreis"},"federalState":{"key":"09","name":"Bayern"}},{"name":"Bahnhofplatz","postalCode":"86825","locality":"Bad Wörishofen","municipality":{"key":"09778116","name":"Bad Wörishofen, St","type":"Stadt"},"district":{"key":"09778","name":"Unterallgäu","type":"Landkreis"},"federalState":{"key":"09","name":"Bayern"}},{"name":"Bahnhofstr.","postalCode":"86825","locality":"Bad Wörishofen","municipality":{"key":"09778116","name":"Bad Wörishofen, St","type":"Stadt"},"district":{"key":"09778","name":"Unterallgäu","type":"Landkreis"},"federalState":{"key":"09","name":"Bayern"}},{"name":"Bayernstr.","postalCode":"86825","locality":"Bad Wörishofen","municipality":{"key":"09778116","name":"Bad Wörishofen, St","type":"Stadt"},"district":{"key":"09778","name":"Unterallgäu","type":"Landkreis"},"federalState":{"key":"09","name":"Bayern"}},{"name":"Beethovenweg","postalCode":"86825","locality":"Bad Wörishofen","municipality":{"key":"09778116","name":"Bad Wörishofen, St","type":"Stadt"},"district":{"key":"09778","name":"Unterallgäu","type":"Landkreis"},"federalState":{"key":"09","name":"Bayern"}},{"name":"Bergäckerweg","postalCode":"86825","locality":"Bad Wörishofen","municipality":{"key":"09778116","name":"Bad Wörishofen, St","type":"Stadt"},"district":{"key":"09778","name":"Unterallgäu","type":"Landkreis"},"federalState":{"key":"09","name":"Bayern"}},{"name":"Bergblick","postalCode":"86825","locality":"Bad Wörishofen","municipality":{"key":"09778116","name":"Bad Wörishofen, St","type":"Stadt"},"district":{"key":"09778","name":"Unterallgäu","type":"Landkreis"},"federalState":{"key":"09","name":"Bayern"}},{"name":"Bergfeldstr.","postalCode":"86825","locality":"Bad Wörishofen","municipality":{"key":"09778116","name":"Bad Wörishofen, St","type":"Stadt"},"district":{"key":"09778","name":"Unterallgäu","type":"Landkreis"},"federalState":{"key":"09","name":"Bayern"}},{"name":"Bergstr.","postalCode":"86825","locality":"Bad Wörishofen","municipality":{"key":"09778116","name":"Bad Wörishofen, St","type":"Stadt"},"district":{"key":"09778","name":"Unterallgäu","type":"Landkreis"},"federalState":{"key":"09","name":"Bayern"}},{"name":"Berliner Str.","postalCode":"86825","locality":"Bad Wörishofen","municipality":{"key":"09778116","name":"Bad Wörishofen, St","type":"Stadt"},"district":{"key":"09778","name":"Unterallgäu","type":"Landkreis"},"federalState":{"key":"09","name":"Bayern"}},{"name":"Bernaustr.","postalCode":"86825","locality":"Bad Wörishofen","municipality":{"key":"09778116","name":"Bad Wörishofen, St","type":"Stadt"},"district":{"key":"09778","name":"Unterallgäu","type":"Landkreis"},"federalState":{"key":"09","name":"Bayern"}},{"name":"Brauerstr.","postalCode":"86825","locality":"Bad Wörishofen","municipality":{"key":"09778116","name":"Bad Wörishofen, St","type":"Stadt"},"district":{"key":"09778","name":"Unterallgäu","type":"Landkreis"},"federalState":{"key":"09","name":"Bayern"}},{"name":"Breitenstr.","postalCode":"86825","locality":"Bad Wörishofen","municipality":{"key":"09778116","name":"Bad Wörishofen, St","type":"Stadt"},"district":{"key":"09778","name":"Unterallgäu","type":"Landkreis"},"federalState":{"key":"09","name":"Bayern"}},{"name":"Brucknerstr.","postalCode":"86825","locality":"Bad Wörishofen","municipality":{"key":"09778116","name":"Bad Wörishofen, St","type":"Stadt"},"district":{"key":"09778","name":"Unterallgäu","type":"Landkreis"},"federalState":{"key":"09","name":"Bayern"}},{"name":"Brunnenweg","postalCode":"86825","locality":"Bad Wörishofen","municipality":{"key":"09778116","name":"Bad Wörishofen, St","type":"Stadt"},"district":{"key":"09778","name":"Unterallgäu","type":"Landkreis"},"federalState":{"key":"09","name":"Bayern"}},{"name":"Buchenweg","postalCode":"86825","locality":"Bad Wörishofen","municipality":{"key":"09778116","name":"Bad Wörishofen, St","type":"Stadt"},"district":{"key":"09778","name":"Unterallgäu","type":"Landkreis"},"federalState":{"key":"09","name":"Bayern"}},{"name":"Buchloer Str.","postalCode":"86825","locality":"Bad Wörishofen","municipality":{"key":"09778116","name":"Bad Wörishofen, St","type":"Stadt"},"district":{"key":"09778","name":"Unterallgäu","type":"Landkreis"},"federalState":{"key":"09","name":"Bayern"}},{"name":"Bürgermeister-Ledermann-Str.","postalCode":"86825","locality":"Bad Wörishofen","municipality":{"key":"09778116","name":"Bad Wörishofen, St","type":"Stadt"},"district":{"key":"09778","name":"Unterallgäu","type":"Landkreis"},"federalState":{"key":"09","name":"Bayern"}},{"name":"Bürgermeister-Mayr-Weg","postalCode":"86825","locality":"Bad Wörishofen","municipality":{"key":"09778116","name":"Bad Wörishofen, St","type":"Stadt"},"district":{"key":"09778","name":"Unterallgäu","type":"Landkreis"},"federalState":{"key":"09","name":"Bayern"}},{"name":"Bürgermeister-Möckel-Str.","postalCode":"86825","locality":"Bad Wörishofen","municipality":{"key":"09778116","name":"Bad Wörishofen, St","type":"Stadt"},"district":{"key":"09778","name":"Unterallgäu","type":"Landkreis"},"federalState":{"key":"09","name":"Bayern"}},{"name":"Bürgermeister-Singer-Str.","postalCode":"86825","locality":"Bad Wörishofen","municipality":{"key":"09778116","name":"Bad Wörishofen, St","type":"Stadt"},"district":{"key":"09778","name":"Unterallgäu","type":"Landkreis"},"federalState":{"key":"09","name":"Bayern"}},{"name":"Bürgermeister-Trautwein-Str.","postalCode":"86825","locality":"Bad Wörishofen","municipality":{"key":"09778116","name":"Bad Wörishofen, St","type":"Stadt"},"district":{"key":"09778","name":"Unterallgäu","type":"Landkreis"},"federalState":{"key":"09","name":"Bayern"}},{"name":"Christian-Fey-Weg","postalCode":"86825","locality":"Bad Wörishofen","municipality":{"key":"09778116","name":"Bad Wörishofen, St","type":"Stadt"},"district":{"key":"09778","name":"Unterallgäu","type":"Landkreis"},"federalState":{"key":"09","name":"Bayern"}},{"name":"Demelerweg","postalCode":"86825","locality":"Bad Wörishofen","municipality":{"key":"09778116","name":"Bad Wörishofen, St","type":"Stadt"},"district":{"key":"09778","name":"Unterallgäu","type":"Landkreis"},"federalState":{"key":"09","name":"Bayern"}},{"name":"Denkmalplatz","postalCode":"86825","locality":"Bad Wörishofen","municipality":{"key":"09778116","name":"Bad Wörishofen, St","type":"Stadt"},"district":{"key":"09778","name":"Unterallgäu","type":"Landkreis"},"federalState":{"key":"09","name":"Bayern"}},{"name":"Dietrich-Bonhoeffer-Weg","postalCode":"86825","locality":"Bad Wörishofen","municipality":{"key":"09778116","name":"Bad Wörishofen, St","type":"Stadt"},"district":{"key":"09778","name":"Unterallgäu","type":"Landkreis"},"federalState":{"key":"09","name":"Bayern"}},{"name":"Dominikusstr.","postalCode":"86825","locality":"Bad Wörishofen","municipality":{"key":"09778116","name":"Bad Wörishofen, St","type":"Stadt"},"district":{"key":"09778","name":"Unterallgäu","type":"Landkreis"},"federalState":{"key":"09","name":"Bayern"}},{"name":"Dorfstr.","postalCode":"86825","locality":"Bad Wörishofen","municipality":{"key":"09778116","name":"Bad Wörishofen, St","type":"Stadt"},"district":{"key":"09778","name":"Unterallgäu","type":"Landkreis"},"federalState":{"key":"09","name":"Bayern"}},{"name":"Dorschhauser Weg","postalCode":"86825","locality":"Bad Wörishofen","municipality":{"key":"09778116","name":"Bad Wörishofen, St","type":"Stadt"},"district":{"key":"09778","name":"Unterallgäu","type":"Landkreis"},"federalState":{"key":"09","name":"Bayern"}},{"name":"Edelsbergweg","postalCode":"86825","locality":"Bad Wörishofen","municipality":{"key":"09778116","name":"Bad Wörishofen, St","type":"Stadt"},"district":{"key":"09778","name":"Unterallgäu","type":"Landkreis"},"federalState":{"key":"09","name":"Bayern"}},{"name":"Edelweißstr.","postalCode":"86825","locality":"Bad Wörishofen","municipality":{"key":"09778116","name":"Bad Wörishofen, St","type":"Stadt"},"district":{"key":"09778","name":"Unterallgäu","type":"Landkreis"},"federalState":{"key":"09","name":"Bayern"}},{"name":"Egerländerweg","postalCode":"86825","locality":"Bad Wörishofen","municipality":{"key":"09778116","name":"Bad Wörishofen, St","type":"Stadt"},"district":{"key":"09778","name":"Unterallgäu","type":"Landkreis"},"federalState":{"key":"09","name":"Bayern"}},{"name":"Eichetweg","postalCode":"86825","locality":"Bad Wörishofen","municipality":{"key":"09778116","name":"Bad Wörishofen, St","type":"Stadt"},"district":{"key":"09778","name":"Unterallgäu","type":"Landkreis"},"federalState":{"key":"09","name":"Bayern"}},{"name":"Eichwaldstr.","postalCode":"86825","locality":"Bad Wörishofen","municipality":{"key":"09778116","name":"Bad Wörishofen, St","type":"Stadt"},"district":{"key":"09778","name":"Unterallgäu","type":"Landkreis"},"federalState":{"key":"09","name":"Bayern"}},{"name":"Eldernweg","postalCode":"86825","locality":"Bad Wörishofen","municipality":{"key":"09778116","name":"Bad Wörishofen, St","type":"Stadt"},"district":{"key":"09778","name":"Unterallgäu","type":"Landkreis"},"federalState":{"key":"09","name":"Bayern"}},{"name":"Elsterweg","postalCode":"86825","locality":"Bad Wörishofen","municipality":{"key":"09778116","name":"Bad Wörishofen, St","type":"Stadt"},"district":{"key":"09778","name":"Unterallgäu","type":"Landkreis"},"federalState":{"key":"09","name":"Bayern"}},{"name":"Enzianweg","postalCode":"86825","locality":"Bad Wörishofen","municipality":{"key":"09778116","name":"Bad Wörishofen, St","type":"Stadt"},"district":{"key":"09778","name":"Unterallgäu","type":"Landkreis"},"federalState":{"key":"09","name":"Bayern"}},{"name":"Erlenweg","postalCode":"86825","locality":"Bad Wörishofen","municipality":{"key":"09778116","name":"Bad Wörishofen, St","type":"Stadt"},"district":{"key":"09778","name":"Unterallgäu","type":"Landkreis"},"federalState":{"key":"09","name":"Bayern"}},{"name":"Eschleweg","postalCode":"86825","locality":"Bad Wörishofen","municipality":{"key":"09778116","name":"Bad Wörishofen, St","type":"Stadt"},"district":{"key":"09778","name":"Unterallgäu","type":"Landkreis"},"federalState":{"key":"09","name":"Bayern"}},{"name":"Falkensteinweg","postalCode":"86825","locality":"Bad Wörishofen","municipality":{"key":"09778116","name":"Bad Wörishofen, St","type":"Stadt"},"district":{"key":"09778","name":"Unterallgäu","type":"Landkreis"},"federalState":{"key":"09","name":"Bayern"}},{"name":"Falkenweg","postalCode":"86825","locality":"Bad Wörishofen","municipality":{"key":"09778116","name":"Bad Wörishofen, St","type":"Stadt"},"district":{"key":"09778","name":"Unterallgäu","type":"Landkreis"},"federalState":{"key":"09","name":"Bayern"}},{"name":"Farnweg","postalCode":"86825","locality":"Bad Wörishofen","municipality":{"key":"09778116","name":"Bad Wörishofen, St","type":"Stadt"},"district":{"key":"09778","name":"Unterallgäu","type":"Landkreis"},"federalState":{"key":"09","name":"Bayern"}},{"name":"Fasanenweg","postalCode":"86825","locality":"Bad Wörishofen","municipality":{"key":"09778116","name":"Bad Wörishofen, St","type":"Stadt"},"district":{"key":"09778","name":"Unterallgäu","type":"Landkreis"},"federalState":{"key":"09","name":"Bayern"}},{"name":"Feldstr.","postalCode":"86825","locality":"Bad Wörishofen","municipality":{"key":"09778116","name":"Bad Wörishofen, St","type":"Stadt"},"district":{"key":"09778","name":"Unterallgäu","type":"Landkreis"},"federalState":{"key":"09","name":"Bayern"}},{"name":"Felix-Wankel-Str.","postalCode":"86825","locality":"Bad Wörishofen","municipality":{"key":"09778116","name":"Bad Wörishofen, St","type":"Stadt"},"district":{"key":"09778","name":"Unterallgäu","type":"Landkreis"},"federalState":{"key":"09","name":"Bayern"}},{"name":"Fellhornweg","postalCode":"86825","locality":"Bad Wörishofen","municipality":{"key":"09778116","name":"Bad Wörishofen, St","type":"Stadt"},"district":{"key":"09778","name":"Unterallgäu","type":"Landkreis"},"federalState":{"key":"09","name":"Bayern"}},{"name":"Ferdinand-Porsche-Str.","postalCode":"86825","locality":"Bad Wörishofen","municipality":{"key":"09778116","name":"Bad Wörishofen, St","type":"Stadt"},"district":{"key":"09778","name":"Unterallgäu","type":"Landkreis"},"federalState":{"key":"09","name":"Bayern"}},{"name":"Fichtenstr.","postalCode":"86825","locality":"Bad Wörishofen","municipality":{"key":"09778116","name":"Bad Wörishofen, St","type":"Stadt"},"district":{"key":"09778","name":"Unterallgäu","type":"Landkreis"},"federalState":{"key":"09","name":"Bayern"}},{"name":"Fidel-Kreuzer-Str.","postalCode":"86825","locality":"Bad Wörishofen","municipality":{"key":"09778116","name":"Bad Wörishofen, St","type":"Stadt"},"district":{"key":"09778","name":"Unterallgäu","type":"Landkreis"},"federalState":{"key":"09","name":"Bayern"}},{"name":"Finkenweg","postalCode":"86825","locality":"Bad Wörishofen","municipality":{"key":"09778116","name":"Bad Wörishofen, St","type":"Stadt"},"district":{"key":"09778","name":"Unterallgäu","type":"Landkreis"},"federalState":{"key":"09","name":"Bayern"}},{"name":"Fischersteig","postalCode":"86825","locality":"Bad Wörishofen","municipality":{"key":"09778116","name":"Bad Wörishofen, St","type":"Stadt"},"district":{"key":"09778","name":"Unterallgäu","type":"Landkreis"},"federalState":{"key":"09","name":"Bayern"}},{"name":"Fischerweg","postalCode":"86825","locality":"Bad Wörishofen","municipality":{"key":"09778116","name":"Bad Wörishofen, St","type":"Stadt"},"district":{"key":"09778","name":"Unterallgäu","type":"Landkreis"},"federalState":{"key":"09","name":"Bayern"}},{"name":"Fliederweg","postalCode":"86825","locality":"Bad Wörishofen","municipality":{"key":"09778116","name":"Bad Wörishofen, St","type":"Stadt"},"district":{"key":"09778","name":"Unterallgäu","type":"Landkreis"},"federalState":{"key":"09","name":"Bayern"}},{"name":"Flößerweg","postalCode":"86825","locality":"Bad Wörishofen","municipality":{"key":"09778116","name":"Bad Wörishofen, St","type":"Stadt"},"district":{"key":"09778","name":"Unterallgäu","type":"Landkreis"},"federalState":{"key":"09","name":"Bayern"}},{"name":"Flurstr.","postalCode":"86825","locality":"Bad Wörishofen","municipality":{"key":"09778116","name":"Bad Wörishofen, St","type":"Stadt"},"district":{"key":"09778","name":"Unterallgäu","type":"Landkreis"},"federalState":{"key":"09","name":"Bayern"}},{"name":"Frankenhofener Str.","postalCode":"86825","locality":"Bad Wörishofen","municipality":{"key":"09778116","name":"Bad Wörishofen, St","type":"Stadt"},"district":{"key":"09778","name":"Unterallgäu","type":"Landkreis"},"federalState":{"key":"09","name":"Bayern"}},{"name":"Franzensbader Str.","postalCode":"86825","locality":"Bad Wörishofen","municipality":{"key":"09778116","name":"Bad Wörishofen, St","type":"Stadt"},"district":{"key":"09778","name":"Unterallgäu","type":"Landkreis"},"federalState":{"key":"09","name":"Bayern"}},{"name":"Franz-Kleinschrod-Weg","postalCode":"86825","locality":"Bad Wörishofen","municipality":{"key":"09778116","name":"Bad Wörishofen, St","type":"Stadt"},"district":{"key":"09778","name":"Unterallgäu","type":"Landkreis"},"federalState":{"key":"09","name":"Bayern"}},{"name":"Friedhofstr.","postalCode":"86825","locality":"Bad Wörishofen","municipality":{"key":"09778116","name":"Bad Wörishofen, St","type":"Stadt"},"district":{"key":"09778","name":"Unterallgäu","type":"Landkreis"},"federalState":{"key":"09","name":"Bayern"}},{"name":"Frühlingsstr.","postalCode":"86825","locality":"Bad Wörishofen","municipality":{"key":"09778116","name":"Bad Wörishofen, St","type":"Stadt"},"district":{"key":"09778","name":"Unterallgäu","type":"Landkreis"},"federalState":{"key":"09","name":"Bayern"}},{"name":"Füssener Str.","postalCode":"86825","locality":"Bad Wörishofen","municipality":{"key":"09778116","name":"Bad Wörishofen, St","type":"Stadt"},"district":{"key":"09778","name":"Unterallgäu","type":"Landkreis"},"federalState":{"key":"09","name":"Bayern"}},{"name":"Gabelsbergerstr.","postalCode":"86825","locality":"Bad Wörishofen","municipality":{"key":"09778116","name":"Bad Wörishofen, St","type":"Stadt"},"district":{"key":"09778","name":"Unterallgäu","type":"Landkreis"},"federalState":{"key":"09","name":"Bayern"}},{"name":"Gambrinus","postalCode":"86825","locality":"Bad Wörishofen","municipality":{"key":"09778116","name":"Bad Wörishofen, St","type":"Stadt"},"district":{"key":"09778","name":"Unterallgäu","type":"Landkreis"},"federalState":{"key":"09","name":"Bayern"}},{"name":"Ganghoferstr.","postalCode":"86825","locality":"Bad Wörishofen","municipality":{"key":"09778116","name":"Bad Wörishofen, St","type":"Stadt"},"district":{"key":"09778","name":"Unterallgäu","type":"Landkreis"},"federalState":{"key":"09","name":"Bayern"}},{"name":"Gartenäckerstr.","postalCode":"86825","locality":"Bad Wörishofen","municipality":{"key":"09778116","name":"Bad Wörishofen, St","type":"Stadt"},"district":{"key":"09778","name":"Unterallgäu","type":"Landkreis"},"federalState":{"key":"09","name":"Bayern"}},{"name":"Gartenstr.","postalCode":"86825","locality":"Bad Wörishofen","municipality":{"key":"09778116","name":"Bad Wörishofen, St","type":"Stadt"},"district":{"key":"09778","name":"Unterallgäu","type":"Landkreis"},"federalState":{"key":"09","name":"Bayern"}},{"name":"Gärtnerweg","postalCode":"86825","locality":"Bad Wörishofen","municipality":{"key":"09778116","name":"Bad Wörishofen, St","type":"Stadt"},"district":{"key":"09778","name":"Unterallgäu","type":"Landkreis"},"federalState":{"key":"09","name":"Bayern"}},{"name":"Gewerbestr.","postalCode":"86825","locality":"Bad Wörishofen","municipality":{"key":"09778116","name":"Bad Wörishofen, St","type":"Stadt"},"district":{"key":"09778","name":"Unterallgäu","type":"Landkreis"},"federalState":{"key":"09","name":"Bayern"}},{"name":"Glückstr.","postalCode":"86825","locality":"Bad Wörishofen","municipality":{"key":"09778116","name":"Bad Wörishofen, St","type":"Stadt"},"district":{"key":"09778","name":"Unterallgäu","type":"Landkreis"},"federalState":{"key":"09","name":"Bayern"}},{"name":"Gottlieb-Daimler-Str.","postalCode":"86825","locality":"Bad Wörishofen","municipality":{"key":"09778116","name":"Bad Wörishofen, St","type":"Stadt"},"district":{"key":"09778","name":"Unterallgäu","type":"Landkreis"},"federalState":{"key":"09","name":"Bayern"}},{"name":"Grasbergweg","postalCode":"86825","locality":"Bad Wörishofen","municipality":{"key":"09778116","name":"Bad Wörishofen, St","type":"Stadt"},"district":{"key":"09778","name":"Unterallgäu","type":"Landkreis"},"federalState":{"key":"09","name":"Bayern"}},{"name":"Griesweg","postalCode":"86825","locality":"Bad Wörishofen","municipality":{"key":"09778116","name":"Bad Wörishofen, St","type":"Stadt"},"district":{"key":"09778","name":"Unterallgäu","type":"Landkreis"},"federalState":{"key":"09","name":"Bayern"}},{"name":"Grünaustr.","postalCode":"86825","locality":"Bad Wörishofen","municipality":{"key":"09778116","name":"Bad Wörishofen, St","type":"Stadt"},"district":{"key":"09778","name":"Unterallgäu","type":"Landkreis"},"federalState":{"key":"09","name":"Bayern"}},{"name":"Grüntenweg","postalCode":"86825","locality":"Bad Wörishofen","municipality":{"key":"09778116","name":"Bad Wörishofen, St","type":"Stadt"},"district":{"key":"09778","name":"Unterallgäu","type":"Landkreis"},"federalState":{"key":"09","name":"Bayern"}},{"name":"Gutenbergweg","postalCode":"86825","locality":"Bad Wörishofen","municipality":{"key":"09778116","name":"Bad Wörishofen, St","type":"Stadt"},"district":{"key":"09778","name":"Unterallgäu","type":"Landkreis"},"federalState":{"key":"09","name":"Bayern"}},{"name":"Hahnenfeldstr.","postalCode":"86825","locality":"Bad Wörishofen","municipality":{"key":"09778116","name":"Bad Wörishofen, St","type":"Stadt"},"district":{"key":"09778","name":"Unterallgäu","type":"Landkreis"},"federalState":{"key":"09","name":"Bayern"}},{"name":"Hallstattweg","postalCode":"86825","locality":"Bad Wörishofen","municipality":{"key":"09778116","name":"Bad Wörishofen, St","type":"Stadt"},"district":{"key":"09778","name":"Unterallgäu","type":"Landkreis"},"federalState":{"key":"09","name":"Bayern"}},{"name":"Hartenthal","postalCode":"86825","locality":"Bad Wörishofen","municipality":{"key":"09778116","name":"Bad Wörishofen, St","type":"Stadt"},"district":{"key":"09778","name":"Unterallgäu","type":"Landkreis"},"federalState":{"key":"09","name":"Bayern"}},{"name":"Hartenthaler Str.","postalCode":"86825","locality":"Bad Wörishofen","municipality":{"key":"09778116","name":"Bad Wörishofen, St","type":"Stadt"},"district":{"key":"09778","name":"Unterallgäu","type":"Landkreis"},"federalState":{"key":"09","name":"Bayern"}},{"name":"Hartweg","postalCode":"86825","locality":"Bad Wörishofen","municipality":{"key":"09778116","name":"Bad Wörishofen, St","type":"Stadt"},"district":{"key":"09778","name":"Unterallgäu","type":"Landkreis"},"federalState":{"key":"09","name":"Bayern"}},{"name":"Hauptstr.","postalCode":"86825","locality":"Bad Wörishofen","municipality":{"key":"09778116","name":"Bad Wörishofen, St","type":"Stadt"},"district":{"key":"09778","name":"Unterallgäu","type":"Landkreis"},"federalState":{"key":"09","name":"Bayern"}},{"name":"Haydnweg","postalCode":"86825","locality":"Bad Wörishofen","municipality":{"key":"09778116","name":"Bad Wörishofen, St","type":"Stadt"},"district":{"key":"09778","name":"Unterallgäu","type":"Landkreis"},"federalState":{"key":"09","name":"Bayern"}},{"name":"Heimstr.","postalCode":"86825","locality":"Bad Wörishofen","municipality":{"key":"09778116","name":"Bad Wörishofen, St","type":"Stadt"},"district":{"key":"09778","name":"Unterallgäu","type":"Landkreis"},"federalState":{"key":"09","name":"Bayern"}},{"name":"Herbststr.","postalCode":"86825","locality":"Bad Wörishofen","municipality":{"key":"09778116","name":"Bad Wörishofen, St","type":"Stadt"},"district":{"key":"09778","name":"Unterallgäu","type":"Landkreis"},"federalState":{"key":"09","name":"Bayern"}},{"name":"Hermann-Aust-Str.","postalCode":"86825","locality":"Bad Wörishofen","municipality":{"key":"09778116","name":"Bad Wörishofen, St","type":"Stadt"},"district":{"key":"09778","name":"Unterallgäu","type":"Landkreis"},"federalState":{"key":"09","name":"Bayern"}},{"name":"Heuweg","postalCode":"86825","locality":"Bad Wörishofen","municipality":{"key":"09778116","name":"Bad Wörishofen, St","type":"Stadt"},"district":{"key":"09778","name":"Unterallgäu","type":"Landkreis"},"federalState":{"key":"09","name":"Bayern"}},{"name":"Hildegardstr.","postalCode":"86825","locality":"Bad Wörishofen","municipality":{"key":"09778116","name":"Bad Wörishofen, St","type":"Stadt"},"district":{"key":"09778","name":"Unterallgäu","type":"Landkreis"},"federalState":{"key":"09","name":"Bayern"}},{"name":"Hochgratstr.","postalCode":"86825","locality":"Bad Wörishofen","municipality":{"key":"09778116","name":"Bad Wörishofen, St","type":"Stadt"},"district":{"key":"09778","name":"Unterallgäu","type":"Landkreis"},"federalState":{"key":"09","name":"Bayern"}},{"name":"Hochvogelstr.","postalCode":"86825","locality":"Bad Wörishofen","municipality":{"key":"09778116","name":"Bad Wörishofen, St","type":"Stadt"},"district":{"key":"09778","name":"Unterallgäu","type":"Landkreis"},"federalState":{"key":"09","name":"Bayern"}},{"name":"Hochweg","postalCode":"86825","locality":"Bad Wörishofen","municipality":{"key":"09778116","name":"Bad Wörishofen, St","type":"Stadt"},"district":{"key":"09778","name":"Unterallgäu","type":"Landkreis"},"federalState":{"key":"09","name":"Bayern"}},{"name":"Höfatsstr.","postalCode":"86825","locality":"Bad Wörishofen","municipality":{"key":"09778116","name":"Bad Wörishofen, St","type":"Stadt"},"district":{"key":"09778","name":"Unterallgäu","type":"Landkreis"},"federalState":{"key":"09","name":"Bayern"}},{"name":"Höhenweg","postalCode":"86825","locality":"Bad Wörishofen","municipality":{"key":"09778116","name":"Bad Wörishofen, St","type":"Stadt"},"district":{"key":"09778","name":"Unterallgäu","type":"Landkreis"},"federalState":{"key":"09","name":"Bayern"}},{"name":"Hufweg","postalCode":"86825","locality":"Bad Wörishofen","municipality":{"key":"09778116","name":"Bad Wörishofen, St","type":"Stadt"},"district":{"key":"09778","name":"Unterallgäu","type":"Landkreis"},"federalState":{"key":"09","name":"Bayern"}},{"name":"Ifenweg","postalCode":"86825","locality":"Bad Wörishofen","municipality":{"key":"09778116","name":"Bad Wörishofen, St","type":"Stadt"},"district":{"key":"09778","name":"Unterallgäu","type":"Landkreis"},"federalState":{"key":"09","name":"Bayern"}},{"name":"Imbergstr.","postalCode":"86825","locality":"Bad Wörishofen","municipality":{"key":"09778116","name":"Bad Wörishofen, St","type":"Stadt"},"district":{"key":"09778","name":"Unterallgäu","type":"Landkreis"},"federalState":{"key":"09","name":"Bayern"}},{"name":"Im Hagenmahd","postalCode":"86825","locality":"Bad Wörishofen","municipality":{"key":"09778116","name":"Bad Wörishofen, St","type":"Stadt"},"district":{"key":"09778","name":"Unterallgäu","type":"Landkreis"},"federalState":{"key":"09","name":"Bayern"}},{"name":"Im Hartfeld","postalCode":"86825","locality":"Bad Wörishofen","municipality":{"key":"09778116","name":"Bad Wörishofen, St","type":"Stadt"},"district":{"key":"09778","name":"Unterallgäu","type":"Landkreis"},"federalState":{"key":"09","name":"Bayern"}},{"name":"Im Oberfeld","postalCode":"86825","locality":"Bad Wörishofen","municipality":{"key":"09778116","name":"Bad Wörishofen, St","type":"Stadt"},"district":{"key":"09778","name":"Unterallgäu","type":"Landkreis"},"federalState":{"key":"09","name":"Bayern"}},{"name":"Im Tal","postalCode":"86825","locality":"Bad Wörishofen","municipality":{"key":"09778116","name":"Bad Wörishofen, St","type":"Stadt"},"district":{"key":"09778","name":"Unterallgäu","type":"Landkreis"},"federalState":{"key":"09","name":"Bayern"}},{"name":"In der Bernau","postalCode":"86825","locality":"Bad Wörishofen","municipality":{"key":"09778116","name":"Bad Wörishofen, St","type":"Stadt"},"district":{"key":"09778","name":"Unterallgäu","type":"Landkreis"},"federalState":{"key":"09","name":"Bayern"}},{"name":"Ingenrieder Str.","postalCode":"86825","locality":"Bad Wörishofen","municipality":{"key":"09778116","name":"Bad Wörishofen, St","type":"Stadt"},"district":{"key":"09778","name":"Unterallgäu","type":"Landkreis"},"federalState":{"key":"09","name":"Bayern"}},{"name":"Irsinger Str.","postalCode":"86825","locality":"Bad Wörishofen","municipality":{"key":"09778116","name":"Bad Wörishofen, St","type":"Stadt"},"district":{"key":"09778","name":"Unterallgäu","type":"Landkreis"},"federalState":{"key":"09","name":"Bayern"}},{"name":"Jahnstr.","postalCode":"86825","locality":"Bad Wörishofen","municipality":{"key":"09778116","name":"Bad Wörishofen, St","type":"Stadt"},"district":{"key":"09778","name":"Unterallgäu","type":"Landkreis"},"federalState":{"key":"09","name":"Bayern"}},{"name":"Jaudesring","postalCode":"86825","locality":"Bad Wörishofen","municipality":{"key":"09778116","name":"Bad Wörishofen, St","type":"Stadt"},"district":{"key":"09778","name":"Unterallgäu","type":"Landkreis"},"federalState":{"key":"09","name":"Bayern"}},{"name":"Jennerweg","postalCode":"86825","locality":"Bad Wörishofen","municipality":{"key":"09778116","name":"Bad Wörishofen, St","type":"Stadt"},"district":{"key":"09778","name":"Unterallgäu","type":"Landkreis"},"federalState":{"key":"09","name":"Bayern"}},{"name":"Josefweg","postalCode":"86825","locality":"Bad Wörishofen","municipality":{"key":"09778116","name":"Bad Wörishofen, St","type":"Stadt"},"district":{"key":"09778","name":"Unterallgäu","type":"Landkreis"},"federalState":{"key":"09","name":"Bayern"}},{"name":"Kanzelwandstr.","postalCode":"86825","locality":"Bad Wörishofen","municipality":{"key":"09778116","name":"Bad Wörishofen, St","type":"Stadt"},"district":{"key":"09778","name":"Unterallgäu","type":"Landkreis"},"federalState":{"key":"09","name":"Bayern"}},{"name":"Kapellenstr.","postalCode":"86825","locality":"Bad Wörishofen","municipality":{"key":"09778116","name":"Bad Wörishofen, St","type":"Stadt"},"district":{"key":"09778","name":"Unterallgäu","type":"Landkreis"},"federalState":{"key":"09","name":"Bayern"}},{"name":"Karl-Benz-Str.","postalCode":"86825","locality":"Bad Wörishofen","municipality":{"key":"09778116","name":"Bad Wörishofen, St","type":"Stadt"},"district":{"key":"09778","name":"Unterallgäu","type":"Landkreis"},"federalState":{"key":"09","name":"Bayern"}},{"name":"Karlsbader Weg","postalCode":"86825","locality":"Bad Wörishofen","municipality":{"key":"09778116","name":"Bad Wörishofen, St","type":"Stadt"},"district":{"key":"09778","name":"Unterallgäu","type":"Landkreis"},"federalState":{"key":"09","name":"Bayern"}},{"name":"Karwendelweg","postalCode":"86825","locality":"Bad Wörishofen","municipality":{"key":"09778116","name":"Bad Wörishofen, St","type":"Stadt"},"district":{"key":"09778","name":"Unterallgäu","type":"Landkreis"},"federalState":{"key":"09","name":"Bayern"}},{"name":"Katherine-Mansfield-Platz","postalCode":"86825","locality":"Bad Wörishofen","municipality":{"key":"09778116","name":"Bad Wörishofen, St","type":"Stadt"},"district":{"key":"09778","name":"Unterallgäu","type":"Landkreis"},"federalState":{"key":"09","name":"Bayern"}},{"name":"Kathreinerstr.","postalCode":"86825","locality":"Bad Wörishofen","municipality":{"key":"09778116","name":"Bad Wörishofen, St","type":"Stadt"},"district":{"key":"09778","name":"Unterallgäu","type":"Landkreis"},"federalState":{"key":"09","name":"Bayern"}},{"name":"Kaufbeurer Str.","postalCode":"86825","locality":"Bad Wörishofen","municipality":{"key":"09778116","name":"Bad Wörishofen, St","type":"Stadt"},"district":{"key":"09778","name":"Unterallgäu","type":"Landkreis"},"federalState":{"key":"09","name":"Bayern"}},{"name":"Kegelkopfweg","postalCode":"86825","locality":"Bad Wörishofen","municipality":{"key":"09778116","name":"Bad Wörishofen, St","type":"Stadt"},"district":{"key":"09778","name":"Unterallgäu","type":"Landkreis"},"federalState":{"key":"09","name":"Bayern"}},{"name":"Kellerweg","postalCode":"86825","locality":"Bad Wörishofen","municipality":{"key":"09778116","name":"Bad Wörishofen, St","type":"Stadt"},"district":{"key":"09778","name":"Unterallgäu","type":"Landkreis"},"federalState":{"key":"09","name":"Bayern"}},{"name":"Keltenstr.","postalCode":"86825","locality":"Bad Wörishofen","municipality":{"key":"09778116","name":"Bad Wörishofen, St","type":"Stadt"},"district":{"key":"09778","name":"Unterallgäu","type":"Landkreis"},"federalState":{"key":"09","name":"Bayern"}},{"name":"Kemptener Str.","postalCode":"86825","locality":"Bad Wörishofen","municipality":{"key":"09778116","name":"Bad Wörishofen, St","type":"Stadt"},"district":{"key":"09778","name":"Unterallgäu","type":"Landkreis"},"federalState":{"key":"09","name":"Bayern"}},{"name":"Kirchdorfer Str.","postalCode":"86825","locality":"Bad Wörishofen","municipality":{"key":"09778116","name":"Bad Wörishofen, St","type":"Stadt"},"district":{"key":"09778","name":"Unterallgäu","type":"Landkreis"},"federalState":{"key":"09","name":"Bayern"}},{"name":"Kirchenstr.","postalCode":"86825","locality":"Bad Wörishofen","municipality":{"key":"09778116","name":"Bad Wörishofen, St","type":"Stadt"},"district":{"key":"09778","name":"Unterallgäu","type":"Landkreis"},"federalState":{"key":"09","name":"Bayern"}},{"name":"Klosterhof","postalCode":"86825","locality":"Bad Wörishofen","municipality":{"key":"09778116","name":"Bad Wörishofen, St","type":"Stadt"},"district":{"key":"09778","name":"Unterallgäu","type":"Landkreis"},"federalState":{"key":"09","name":"Bayern"}},{"name":"Kneippanlage bei Schlingen (14°)","postalCode":"86825","locality":"Bad Wörishofen","municipality":{"key":"09778116","name":"Bad Wörishofen, St","type":"Stadt"},"district":{"key":"09778","name":"Unterallgäu","type":"Landkreis"},"federalState":{"key":"09","name":"Bayern"}},{"name":"Kneippanlage Kalte Quelle (9°)","postalCode":"86825","locality":"Bad Wörishofen","municipality":{"key":"09778116","name":"Bad Wörishofen, St","type":"Stadt"},"district":{"key":"09778","name":"Unterallgäu","type":"Landkreis"},"federalState":{"key":"09","name":"Bayern"}},{"name":"Kneippanlage Mühlbuch","postalCode":"86825","locality":"Bad Wörishofen","municipality":{"key":"09778116","name":"Bad Wörishofen, St","type":"Stadt"},"district":{"key":"09778","name":"Unterallgäu","type":"Landkreis"},"federalState":{"key":"09","name":"Bayern"}},{"name":"Kneippanlage Ostpark (16°)","postalCode":"86825","locality":"Bad Wörishofen","municipality":{"key":"09778116","name":"Bad Wörishofen, St","type":"Stadt"},"district":{"key":"09778","name":"Unterallgäu","type":"Landkreis"},"federalState":{"key":"09","name":"Bayern"}},{"name":"Kneippanlage Schöneschacher Str. (14°)","postalCode":"86825","locality":"Bad Wörishofen","municipality":{"key":"09778116","name":"Bad Wörishofen, St","type":"Stadt"},"district":{"key":"09778","name":"Unterallgäu","type":"Landkreis"},"federalState":{"key":"09","name":"Bayern"}},{"name":"Kneippanlage Stockheimer Gesundheitsschwert","postalCode":"86825","locality":"Bad Wörishofen","municipality":{"key":"09778116","name":"Bad Wörishofen, St","type":"Stadt"},"district":{"key":"09778","name":"Unterallgäu","type":"Landkreis"},"federalState":{"key":"09","name":"Bayern"}},{"name":"Kneippstr.","postalCode":"86825","locality":"Bad Wörishofen","municipality":{"key":"09778116","name":"Bad Wörishofen, St","type":"Stadt"},"district":{"key":"09778","name":"Unterallgäu","type":"Landkreis"},"federalState":{"key":"09","name":"Bayern"}},{"name":"Kohlstattweg","postalCode":"86825","locality":"Bad Wörishofen","municipality":{"key":"09778116","name":"Bad Wörishofen, St","type":"Stadt"},"district":{"key":"09778","name":"Unterallgäu","type":"Landkreis"},"federalState":{"key":"09","name":"Bayern"}},{"name":"Kolpingstr.","postalCode":"86825","locality":"Bad Wörishofen","municipality":{"key":"09778116","name":"Bad Wörishofen, St","type":"Stadt"},"district":{"key":"09778","name":"Unterallgäu","type":"Landkreis"},"federalState":{"key":"09","name":"Bayern"}},{"name":"Kreuzbreiten","postalCode":"86825","locality":"Bad Wörishofen","municipality":{"key":"09778116","name":"Bad Wörishofen, St","type":"Stadt"},"district":{"key":"09778","name":"Unterallgäu","type":"Landkreis"},"federalState":{"key":"09","name":"Bayern"}},{"name":"Kreuzjochstr.","postalCode":"86825","locality":"Bad Wörishofen","municipality":{"key":"09778116","name":"Bad Wörishofen, St","type":"Stadt"},"district":{"key":"09778","name":"Unterallgäu","type":"Landkreis"},"federalState":{"key":"09","name":"Bayern"}},{"name":"Kreuzweg","postalCode":"86825","locality":"Bad Wörishofen","municipality":{"key":"09778116","name":"Bad Wörishofen, St","type":"Stadt"},"district":{"key":"09778","name":"Unterallgäu","type":"Landkreis"},"federalState":{"key":"09","name":"Bayern"}},{"name":"Krokusweg","postalCode":"86825","locality":"Bad Wörishofen","municipality":{"key":"09778116","name":"Bad Wörishofen, St","type":"Stadt"},"district":{"key":"09778","name":"Unterallgäu","type":"Landkreis"},"federalState":{"key":"09","name":"Bayern"}},{"name":"Kulmweg","postalCode":"86825","locality":"Bad Wörishofen","municipality":{"key":"09778116","name":"Bad Wörishofen, St","type":"Stadt"},"district":{"key":"09778","name":"Unterallgäu","type":"Landkreis"},"federalState":{"key":"09","name":"Bayern"}},{"name":"Kurhausplatz","postalCode":"86825","locality":"Bad Wörishofen","municipality":{"key":"09778116","name":"Bad Wörishofen, St","type":"Stadt"},"district":{"key":"09778","name":"Unterallgäu","type":"Landkreis"},"federalState":{"key":"09","name":"Bayern"}},{"name":"Kurpark","postalCode":"86825","locality":"Bad Wörishofen","municipality":{"key":"09778116","name":"Bad Wörishofen, St","type":"Stadt"},"district":{"key":"09778","name":"Unterallgäu","type":"Landkreis"},"federalState":{"key":"09","name":"Bayern"}},{"name":"Landsberger Str.","postalCode":"86825","locality":"Bad Wörishofen","municipality":{"key":"09778116","name":"Bad Wörishofen, St","type":"Stadt"},"district":{"key":"09778","name":"Unterallgäu","type":"Landkreis"},"federalState":{"key":"09","name":"Bayern"}},{"name":"Leonhard-Oberhäußer-Str.","postalCode":"86825","locality":"Bad Wörishofen","municipality":{"key":"09778116","name":"Bad Wörishofen, St","type":"Stadt"},"district":{"key":"09778","name":"Unterallgäu","type":"Landkreis"},"federalState":{"key":"09","name":"Bayern"}},{"name":"Lerchenstr.","postalCode":"86825","locality":"Bad Wörishofen","municipality":{"key":"09778116","name":"Bad Wörishofen, St","type":"Stadt"},"district":{"key":"09778","name":"Unterallgäu","type":"Landkreis"},"federalState":{"key":"09","name":"Bayern"}},{"name":"Lilienstr.","postalCode":"86825","locality":"Bad Wörishofen","municipality":{"key":"09778116","name":"Bad Wörishofen, St","type":"Stadt"},"district":{"key":"09778","name":"Unterallgäu","type":"Landkreis"},"federalState":{"key":"09","name":"Bayern"}},{"name":"Lindenweg","postalCode":"86825","locality":"Bad Wörishofen","municipality":{"key":"09778116","name":"Bad Wörishofen, St","type":"Stadt"},"district":{"key":"09778","name":"Unterallgäu","type":"Landkreis"},"federalState":{"key":"09","name":"Bayern"}},{"name":"Ludwigstr.","postalCode":"86825","locality":"Bad Wörishofen","municipality":{"key":"09778116","name":"Bad Wörishofen, St","type":"Stadt"},"district":{"key":"09778","name":"Unterallgäu","type":"Landkreis"},"federalState":{"key":"09","name":"Bayern"}},{"name":"Luitpold-Leusser-Platz","postalCode":"86825","locality":"Bad Wörishofen","municipality":{"key":"09778116","name":"Bad Wörishofen, St","type":"Stadt"},"district":{"key":"09778","name":"Unterallgäu","type":"Landkreis"},"federalState":{"key":"09","name":"Bayern"}},{"name":"Margaretenstr.","postalCode":"86825","locality":"Bad Wörishofen","municipality":{"key":"09778116","name":"Bad Wörishofen, St","type":"Stadt"},"district":{"key":"09778","name":"Unterallgäu","type":"Landkreis"},"federalState":{"key":"09","name":"Bayern"}},{"name":"Marienbader Weg","postalCode":"86825","locality":"Bad Wörishofen","municipality":{"key":"09778116","name":"Bad Wörishofen, St","type":"Stadt"},"district":{"key":"09778","name":"Unterallgäu","type":"Landkreis"},"federalState":{"key":"09","name":"Bayern"}},{"name":"Max-Planck-Str.","postalCode":"86825","locality":"Bad Wörishofen","municipality":{"key":"09778116","name":"Bad Wörishofen, St","type":"Stadt"},"district":{"key":"09778","name":"Unterallgäu","type":"Landkreis"},"federalState":{"key":"09","name":"Bayern"}},{"name":"Meisterstr.","postalCode":"86825","locality":"Bad Wörishofen","municipality":{"key":"09778116","name":"Bad Wörishofen, St","type":"Stadt"},"district":{"key":"09778","name":"Unterallgäu","type":"Landkreis"},"federalState":{"key":"09","name":"Bayern"}},{"name":"Messerschmittstr.","postalCode":"86825","locality":"Bad Wörishofen","municipality":{"key":"09778116","name":"Bad Wörishofen, St","type":"Stadt"},"district":{"key":"09778","name":"Unterallgäu","type":"Landkreis"},"federalState":{"key":"09","name":"Bayern"}},{"name":"Mindelauer Str.","postalCode":"86825","locality":"Bad Wörishofen","municipality":{"key":"09778116","name":"Bad Wörishofen, St","type":"Stadt"},"district":{"key":"09778","name":"Unterallgäu","type":"Landkreis"},"federalState":{"key":"09","name":"Bayern"}},{"name":"Mindelheimer Str.","postalCode":"86825","locality":"Bad Wörishofen","municipality":{"key":"09778116","name":"Bad Wörishofen, St","type":"Stadt"},"district":{"key":"09778","name":"Unterallgäu","type":"Landkreis"},"federalState":{"key":"09","name":"Bayern"}},{"name":"Moosbergweg","postalCode":"86825","locality":"Bad Wörishofen","municipality":{"key":"09778116","name":"Bad Wörishofen, St","type":"Stadt"},"district":{"key":"09778","name":"Unterallgäu","type":"Landkreis"},"federalState":{"key":"09","name":"Bayern"}},{"name":"Mozartweg","postalCode":"86825","locality":"Bad Wörishofen","municipality":{"key":"09778116","name":"Bad Wörishofen, St","type":"Stadt"},"district":{"key":"09778","name":"Unterallgäu","type":"Landkreis"},"federalState":{"key":"09","name":"Bayern"}},{"name":"Nebelhornstr.","postalCode":"86825","locality":"Bad Wörishofen","municipality":{"key":"09778116","name":"Bad Wörishofen, St","type":"Stadt"},"district":{"key":"09778","name":"Unterallgäu","type":"Landkreis"},"federalState":{"key":"09","name":"Bayern"}},{"name":"Nikolaus-Otto-Str.","postalCode":"86825","locality":"Bad Wörishofen","municipality":{"key":"09778116","name":"Bad Wörishofen, St","type":"Stadt"},"district":{"key":"09778","name":"Unterallgäu","type":"Landkreis"},"federalState":{"key":"09","name":"Bayern"}},{"name":"Nordendstr.","postalCode":"86825","locality":"Bad Wörishofen","municipality":{"key":"09778116","name":"Bad Wörishofen, St","type":"Stadt"},"district":{"key":"09778","name":"Unterallgäu","type":"Landkreis"},"federalState":{"key":"09","name":"Bayern"}},{"name":"Obere Mühlstr.","postalCode":"86825","locality":"Bad Wörishofen","municipality":{"key":"09778116","name":"Bad Wörishofen, St","type":"Stadt"},"district":{"key":"09778","name":"Unterallgäu","type":"Landkreis"},"federalState":{"key":"09","name":"Bayern"}},{"name":"Oberer Krautgartenweg","postalCode":"86825","locality":"Bad Wörishofen","municipality":{"key":"09778116","name":"Bad Wörishofen, St","type":"Stadt"},"district":{"key":"09778","name":"Unterallgäu","type":"Landkreis"},"federalState":{"key":"09","name":"Bayern"}},{"name":"Obergammenried","postalCode":"86825","locality":"Bad Wörishofen","municipality":{"key":"09778116","name":"Bad Wörishofen, St","type":"Stadt"},"district":{"key":"09778","name":"Unterallgäu","type":"Landkreis"},"federalState":{"key":"09","name":"Bayern"}},{"name":"Ostpark","postalCode":"86825","locality":"Bad Wörishofen","municipality":{"key":"09778116","name":"Bad Wörishofen, St","type":"Stadt"},"district":{"key":"09778","name":"Unterallgäu","type":"Landkreis"},"federalState":{"key":"09","name":"Bayern"}},{"name":"Oststr.","postalCode":"86825","locality":"Bad Wörishofen","municipality":{"key":"09778116","name":"Bad Wörishofen, St","type":"Stadt"},"district":{"key":"09778","name":"Unterallgäu","type":"Landkreis"},"federalState":{"key":"09","name":"Bayern"}},{"name":"Peter-Dörfler-Str.","postalCode":"86825","locality":"Bad Wörishofen","municipality":{"key":"09778116","name":"Bad Wörishofen, St","type":"Stadt"},"district":{"key":"09778","name":"Unterallgäu","type":"Landkreis"},"federalState":{"key":"09","name":"Bayern"}},{"name":"Peter-Holzmann-Allee","postalCode":"86825","locality":"Bad Wörishofen","municipality":{"key":"09778116","name":"Bad Wörishofen, St","type":"Stadt"},"district":{"key":"09778","name":"Unterallgäu","type":"Landkreis"},"federalState":{"key":"09","name":"Bayern"}},{"name":"Pfarrer-Schilcher-Weg","postalCode":"86825","locality":"Bad Wörishofen","municipality":{"key":"09778116","name":"Bad Wörishofen, St","type":"Stadt"},"district":{"key":"09778","name":"Unterallgäu","type":"Landkreis"},"federalState":{"key":"09","name":"Bayern"}},{"name":"Pointstr.","postalCode":"86825","locality":"Bad Wörishofen","municipality":{"key":"09778116","name":"Bad Wörishofen, St","type":"Stadt"},"district":{"key":"09778","name":"Unterallgäu","type":"Landkreis"},"federalState":{"key":"09","name":"Bayern"}},{"name":"Promenadestr.","postalCode":"86825","locality":"Bad Wörishofen","municipality":{"key":"09778116","name":"Bad Wörishofen, St","type":"Stadt"},"district":{"key":"09778","name":"Unterallgäu","type":"Landkreis"},"federalState":{"key":"09","name":"Bayern"}},{"name":"Quellenweg","postalCode":"86825","locality":"Bad Wörishofen","municipality":{"key":"09778116","name":"Bad Wörishofen, St","type":"Stadt"},"district":{"key":"09778","name":"Unterallgäu","type":"Landkreis"},"federalState":{"key":"09","name":"Bayern"}},{"name":"Raiffeisenstr.","postalCode":"86825","locality":"Bad Wörishofen","municipality":{"key":"09778116","name":"Bad Wörishofen, St","type":"Stadt"},"district":{"key":"09778","name":"Unterallgäu","type":"Landkreis"},"federalState":{"key":"09","name":"Bayern"}},{"name":"Riedener Str.","postalCode":"86825","locality":"Bad Wörishofen","municipality":{"key":"09778116","name":"Bad Wörishofen, St","type":"Stadt"},"district":{"key":"09778","name":"Unterallgäu","type":"Landkreis"},"federalState":{"key":"09","name":"Bayern"}},{"name":"Riedweg","postalCode":"86825","locality":"Bad Wörishofen","municipality":{"key":"09778116","name":"Bad Wörishofen, St","type":"Stadt"},"district":{"key":"09778","name":"Unterallgäu","type":"Landkreis"},"federalState":{"key":"09","name":"Bayern"}},{"name":"Robert-Bosch-Str.","postalCode":"86825","locality":"Bad Wörishofen","municipality":{"key":"09778116","name":"Bad Wörishofen, St","type":"Stadt"},"district":{"key":"09778","name":"Unterallgäu","type":"Landkreis"},"federalState":{"key":"09","name":"Bayern"}},{"name":"Rochusweg","postalCode":"86825","locality":"Bad Wörishofen","municipality":{"key":"09778116","name":"Bad Wörishofen, St","type":"Stadt"},"district":{"key":"09778","name":"Unterallgäu","type":"Landkreis"},"federalState":{"key":"09","name":"Bayern"}},{"name":"Römerstr.","postalCode":"86825","locality":"Bad Wörishofen","municipality":{"key":"09778116","name":"Bad Wörishofen, St","type":"Stadt"},"district":{"key":"09778","name":"Unterallgäu","type":"Landkreis"},"federalState":{"key":"09","name":"Bayern"}},{"name":"Röntgenweg","postalCode":"86825","locality":"Bad Wörishofen","municipality":{"key":"09778116","name":"Bad Wörishofen, St","type":"Stadt"},"district":{"key":"09778","name":"Unterallgäu","type":"Landkreis"},"federalState":{"key":"09","name":"Bayern"}},{"name":"Rosenstr.","postalCode":"86825","locality":"Bad Wörishofen","municipality":{"key":"09778116","name":"Bad Wörishofen, St","type":"Stadt"},"district":{"key":"09778","name":"Unterallgäu","type":"Landkreis"},"federalState":{"key":"09","name":"Bayern"}},{"name":"Rubihornstr.","postalCode":"86825","locality":"Bad Wörishofen","municipality":{"key":"09778116","name":"Bad Wörishofen, St","type":"Stadt"},"district":{"key":"09778","name":"Unterallgäu","type":"Landkreis"},"federalState":{"key":"09","name":"Bayern"}},{"name":"Rudolf-Diesel-Str.","postalCode":"86825","locality":"Bad Wörishofen","municipality":{"key":"09778116","name":"Bad Wörishofen, St","type":"Stadt"},"district":{"key":"09778","name":"Unterallgäu","type":"Landkreis"},"federalState":{"key":"09","name":"Bayern"}},{"name":"Saloberweg","postalCode":"86825","locality":"Bad Wörishofen","municipality":{"key":"09778116","name":"Bad Wörishofen, St","type":"Stadt"},"district":{"key":"09778","name":"Unterallgäu","type":"Landkreis"},"federalState":{"key":"09","name":"Bayern"}},{"name":"Sanitätsrat-Dr.-Kaiser-Weg","postalCode":"86825","locality":"Bad Wörishofen","municipality":{"key":"09778116","name":"Bad Wörishofen, St","type":"Stadt"},"district":{"key":"09778","name":"Unterallgäu","type":"Landkreis"},"federalState":{"key":"09","name":"Bayern"}},{"name":"Sankt-Ulrich-Str.","postalCode":"86825","locality":"Bad Wörishofen","municipality":{"key":"09778116","name":"Bad Wörishofen, St","type":"Stadt"},"district":{"key":"09778","name":"Unterallgäu","type":"Landkreis"},"federalState":{"key":"09","name":"Bayern"}},{"name":"Sankt-Wolfgang-Str.","postalCode":"86825","locality":"Bad Wörishofen","municipality":{"key":"09778116","name":"Bad Wörishofen, St","type":"Stadt"},"district":{"key":"09778","name":"Unterallgäu","type":"Landkreis"},"federalState":{"key":"09","name":"Bayern"}},{"name":"Säulingstr.","postalCode":"86825","locality":"Bad Wörishofen","municipality":{"key":"09778116","name":"Bad Wörishofen, St","type":"Stadt"},"district":{"key":"09778","name":"Unterallgäu","type":"Landkreis"},"federalState":{"key":"09","name":"Bayern"}},{"name":"Schäfflerstr.","postalCode":"86825","locality":"Bad Wörishofen","municipality":{"key":"09778116","name":"Bad Wörishofen, St","type":"Stadt"},"district":{"key":"09778","name":"Unterallgäu","type":"Landkreis"},"federalState":{"key":"09","name":"Bayern"}},{"name":"Schattenbergstr.","postalCode":"86825","locality":"Bad Wörishofen","municipality":{"key":"09778116","name":"Bad Wörishofen, St","type":"Stadt"},"district":{"key":"09778","name":"Unterallgäu","type":"Landkreis"},"federalState":{"key":"09","name":"Bayern"}},{"name":"Schlesierweg","postalCode":"86825","locality":"Bad Wörishofen","municipality":{"key":"09778116","name":"Bad Wörishofen, St","type":"Stadt"},"district":{"key":"09778","name":"Unterallgäu","type":"Landkreis"},"federalState":{"key":"09","name":"Bayern"}},{"name":"Schlingener Str.","postalCode":"86825","locality":"Bad Wörishofen","municipality":{"key":"09778116","name":"Bad Wörishofen, St","type":"Stadt"},"district":{"key":"09778","name":"Unterallgäu","type":"Landkreis"},"federalState":{"key":"09","name":"Bayern"}},{"name":"Schmalstr.","postalCode":"86825","locality":"Bad Wörishofen","municipality":{"key":"09778116","name":"Bad Wörishofen, St","type":"Stadt"},"district":{"key":"09778","name":"Unterallgäu","type":"Landkreis"},"federalState":{"key":"09","name":"Bayern"}},{"name":"Schmihenweg","postalCode":"86825","locality":"Bad Wörishofen","municipality":{"key":"09778116","name":"Bad Wörishofen, St","type":"Stadt"},"district":{"key":"09778","name":"Unterallgäu","type":"Landkreis"},"federalState":{"key":"09","name":"Bayern"}},{"name":"Schöneschacher Weg","postalCode":"86825","locality":"Bad Wörishofen","municipality":{"key":"09778116","name":"Bad Wörishofen, St","type":"Stadt"},"district":{"key":"09778","name":"Unterallgäu","type":"Landkreis"},"federalState":{"key":"09","name":"Bayern"}},{"name":"Schulhofstr.","postalCode":"86825","locality":"Bad Wörishofen","municipality":{"key":"09778116","name":"Bad Wörishofen, St","type":"Stadt"},"district":{"key":"09778","name":"Unterallgäu","type":"Landkreis"},"federalState":{"key":"09","name":"Bayern"}},{"name":"Schulstr.","postalCode":"86825","locality":"Bad Wörishofen","municipality":{"key":"09778116","name":"Bad Wörishofen, St","type":"Stadt"},"district":{"key":"09778","name":"Unterallgäu","type":"Landkreis"},"federalState":{"key":"09","name":"Bayern"}},{"name":"Schwabenstr.","postalCode":"86825","locality":"Bad Wörishofen","municipality":{"key":"09778116","name":"Bad Wörishofen, St","type":"Stadt"},"district":{"key":"09778","name":"Unterallgäu","type":"Landkreis"},"federalState":{"key":"09","name":"Bayern"}},{"name":"Schwalbenweg","postalCode":"86825","locality":"Bad Wörishofen","municipality":{"key":"09778116","name":"Bad Wörishofen, St","type":"Stadt"},"district":{"key":"09778","name":"Unterallgäu","type":"Landkreis"},"federalState":{"key":"09","name":"Bayern"}},{"name":"Schwedenstr.","postalCode":"86825","locality":"Bad Wörishofen","municipality":{"key":"09778116","name":"Bad Wörishofen, St","type":"Stadt"},"district":{"key":"09778","name":"Unterallgäu","type":"Landkreis"},"federalState":{"key":"09","name":"Bayern"}},{"name":"Seeweg","postalCode":"86825","locality":"Bad Wörishofen","municipality":{"key":"09778116","name":"Bad Wörishofen, St","type":"Stadt"},"district":{"key":"09778","name":"Unterallgäu","type":"Landkreis"},"federalState":{"key":"09","name":"Bayern"}},{"name":"Siemensstr.","postalCode":"86825","locality":"Bad Wörishofen","municipality":{"key":"09778116","name":"Bad Wörishofen, St","type":"Stadt"},"district":{"key":"09778","name":"Unterallgäu","type":"Landkreis"},"federalState":{"key":"09","name":"Bayern"}},{"name":"Skyline-Park-Str.","postalCode":"86825","locality":"Bad Wörishofen","municipality":{"key":"09778116","name":"Bad Wörishofen, St","type":"Stadt"},"district":{"key":"09778","name":"Unterallgäu","type":"Landkreis"},"federalState":{"key":"09","name":"Bayern"}},{"name":"Söllereckweg","postalCode":"86825","locality":"Bad Wörishofen","municipality":{"key":"09778116","name":"Bad Wörishofen, St","type":"Stadt"},"district":{"key":"09778","name":"Unterallgäu","type":"Landkreis"},"federalState":{"key":"09","name":"Bayern"}},{"name":"Sonnenbüchl","postalCode":"86825","locality":"Bad Wörishofen","municipality":{"key":"09778116","name":"Bad Wörishofen, St","type":"Stadt"},"district":{"key":"09778","name":"Unterallgäu","type":"Landkreis"},"federalState":{"key":"09","name":"Bayern"}},{"name":"Sonnenhalde","postalCode":"86825","locality":"Bad Wörishofen","municipality":{"key":"09778116","name":"Bad Wörishofen, St","type":"Stadt"},"district":{"key":"09778","name":"Unterallgäu","type":"Landkreis"},"federalState":{"key":"09","name":"Bayern"}},{"name":"Sonnenstr.","postalCode":"86825","locality":"Bad Wörishofen","municipality":{"key":"09778116","name":"Bad Wörishofen, St","type":"Stadt"},"district":{"key":"09778","name":"Unterallgäu","type":"Landkreis"},"federalState":{"key":"09","name":"Bayern"}},{"name":"Sonnenweg","postalCode":"86825","locality":"Bad Wörishofen","municipality":{"key":"09778116","name":"Bad Wörishofen, St","type":"Stadt"},"district":{"key":"09778","name":"Unterallgäu","type":"Landkreis"},"federalState":{"key":"09","name":"Bayern"}},{"name":"Stadionring","postalCode":"86825","locality":"Bad Wörishofen","municipality":{"key":"09778116","name":"Bad Wörishofen, St","type":"Stadt"},"district":{"key":"09778","name":"Unterallgäu","type":"Landkreis"},"federalState":{"key":"09","name":"Bayern"}},{"name":"Stadtgarten","postalCode":"86825","locality":"Bad Wörishofen","municipality":{"key":"09778116","name":"Bad Wörishofen, St","type":"Stadt"},"district":{"key":"09778","name":"Unterallgäu","type":"Landkreis"},"federalState":{"key":"09","name":"Bayern"}},{"name":"Steinstr.","postalCode":"86825","locality":"Bad Wörishofen","municipality":{"key":"09778116","name":"Bad Wörishofen, St","type":"Stadt"},"district":{"key":"09778","name":"Unterallgäu","type":"Landkreis"},"federalState":{"key":"09","name":"Bayern"}},{"name":"Stockheimer Str.","postalCode":"86825","locality":"Bad Wörishofen","municipality":{"key":"09778116","name":"Bad Wörishofen, St","type":"Stadt"},"district":{"key":"09778","name":"Unterallgäu","type":"Landkreis"},"federalState":{"key":"09","name":"Bayern"}},{"name":"Stuibenweg","postalCode":"86825","locality":"Bad Wörishofen","municipality":{"key":"09778116","name":"Bad Wörishofen, St","type":"Stadt"},"district":{"key":"09778","name":"Unterallgäu","type":"Landkreis"},"federalState":{"key":"09","name":"Bayern"}},{"name":"Stuttgarter Str.","postalCode":"86825","locality":"Bad Wörishofen","municipality":{"key":"09778116","name":"Bad Wörishofen, St","type":"Stadt"},"district":{"key":"09778","name":"Unterallgäu","type":"Landkreis"},"federalState":{"key":"09","name":"Bayern"}},{"name":"Sudetenstr.","postalCode":"86825","locality":"Bad Wörishofen","municipality":{"key":"09778116","name":"Bad Wörishofen, St","type":"Stadt"},"district":{"key":"09778","name":"Unterallgäu","type":"Landkreis"},"federalState":{"key":"09","name":"Bayern"}},{"name":"Südweg","postalCode":"86825","locality":"Bad Wörishofen","municipality":{"key":"09778116","name":"Bad Wörishofen, St","type":"Stadt"},"district":{"key":"09778","name":"Unterallgäu","type":"Landkreis"},"federalState":{"key":"09","name":"Bayern"}},{"name":"Tannenbichl","postalCode":"86825","locality":"Bad Wörishofen","municipality":{"key":"09778116","name":"Bad Wörishofen, St","type":"Stadt"},"district":{"key":"09778","name":"Unterallgäu","type":"Landkreis"},"federalState":{"key":"09","name":"Bayern"}},{"name":"Tannenstr.","postalCode":"86825","locality":"Bad Wörishofen","municipality":{"key":"09778116","name":"Bad Wörishofen, St","type":"Stadt"},"district":{"key":"09778","name":"Unterallgäu","type":"Landkreis"},"federalState":{"key":"09","name":"Bayern"}},{"name":"Tegelbergstr.","postalCode":"86825","locality":"Bad Wörishofen","municipality":{"key":"09778116","name":"Bad Wörishofen, St","type":"Stadt"},"district":{"key":"09778","name":"Unterallgäu","type":"Landkreis"},"federalState":{"key":"09","name":"Bayern"}},{"name":"Theodor-Bergqvist-Weg","postalCode":"86825","locality":"Bad Wörishofen","municipality":{"key":"09778116","name":"Bad Wörishofen, St","type":"Stadt"},"district":{"key":"09778","name":"Unterallgäu","type":"Landkreis"},"federalState":{"key":"09","name":"Bayern"}},{"name":"Tiroler Str.","postalCode":"86825","locality":"Bad Wörishofen","municipality":{"key":"09778116","name":"Bad Wörishofen, St","type":"Stadt"},"district":{"key":"09778","name":"Unterallgäu","type":"Landkreis"},"federalState":{"key":"09","name":"Bayern"}},{"name":"Trauchbergweg","postalCode":"86825","locality":"Bad Wörishofen","municipality":{"key":"09778116","name":"Bad Wörishofen, St","type":"Stadt"},"district":{"key":"09778","name":"Unterallgäu","type":"Landkreis"},"federalState":{"key":"09","name":"Bayern"}},{"name":"Trettachstr.","postalCode":"86825","locality":"Bad Wörishofen","municipality":{"key":"09778116","name":"Bad Wörishofen, St","type":"Stadt"},"district":{"key":"09778","name":"Unterallgäu","type":"Landkreis"},"federalState":{"key":"09","name":"Bayern"}},{"name":"Troppauer Str.","postalCode":"86825","locality":"Bad Wörishofen","municipality":{"key":"09778116","name":"Bad Wörishofen, St","type":"Stadt"},"district":{"key":"09778","name":"Unterallgäu","type":"Landkreis"},"federalState":{"key":"09","name":"Bayern"}},{"name":"Tulpenweg","postalCode":"86825","locality":"Bad Wörishofen","municipality":{"key":"09778116","name":"Bad Wörishofen, St","type":"Stadt"},"district":{"key":"09778","name":"Unterallgäu","type":"Landkreis"},"federalState":{"key":"09","name":"Bayern"}},{"name":"Ulmenweg","postalCode":"86825","locality":"Bad Wörishofen","municipality":{"key":"09778116","name":"Bad Wörishofen, St","type":"Stadt"},"district":{"key":"09778","name":"Unterallgäu","type":"Landkreis"},"federalState":{"key":"09","name":"Bayern"}},{"name":"Ulrichsbrunnenweg","postalCode":"86825","locality":"Bad Wörishofen","municipality":{"key":"09778116","name":"Bad Wörishofen, St","type":"Stadt"},"district":{"key":"09778","name":"Unterallgäu","type":"Landkreis"},"federalState":{"key":"09","name":"Bayern"}},{"name":"Untere Mühlstr.","postalCode":"86825","locality":"Bad Wörishofen","municipality":{"key":"09778116","name":"Bad Wörishofen, St","type":"Stadt"},"district":{"key":"09778","name":"Unterallgäu","type":"Landkreis"},"federalState":{"key":"09","name":"Bayern"}},{"name":"Unteres Hart","postalCode":"86825","locality":"Bad Wörishofen","municipality":{"key":"09778116","name":"Bad Wörishofen, St","type":"Stadt"},"district":{"key":"09778","name":"Unterallgäu","type":"Landkreis"},"federalState":{"key":"09","name":"Bayern"}},{"name":"Viehweidweg","postalCode":"86825","locality":"Bad Wörishofen","municipality":{"key":"09778116","name":"Bad Wörishofen, St","type":"Stadt"},"district":{"key":"09778","name":"Unterallgäu","type":"Landkreis"},"federalState":{"key":"09","name":"Bayern"}},{"name":"Viktoriastr.","postalCode":"86825","locality":"Bad Wörishofen","municipality":{"key":"09778116","name":"Bad Wörishofen, St","type":"Stadt"},"district":{"key":"09778","name":"Unterallgäu","type":"Landkreis"},"federalState":{"key":"09","name":"Bayern"}},{"name":"Villacher Str.","postalCode":"86825","locality":"Bad Wörishofen","municipality":{"key":"09778116","name":"Bad Wörishofen, St","type":"Stadt"},"district":{"key":"09778","name":"Unterallgäu","type":"Landkreis"},"federalState":{"key":"09","name":"Bayern"}},{"name":"Waldsee","postalCode":"86825","locality":"Bad Wörishofen","municipality":{"key":"09778116","name":"Bad Wörishofen, St","type":"Stadt"},"district":{"key":"09778","name":"Unterallgäu","type":"Landkreis"},"federalState":{"key":"09","name":"Bayern"}},{"name":"Waldseeweg","postalCode":"86825","locality":"Bad Wörishofen","municipality":{"key":"09778116","name":"Bad Wörishofen, St","type":"Stadt"},"district":{"key":"09778","name":"Unterallgäu","type":"Landkreis"},"federalState":{"key":"09","name":"Bayern"}},{"name":"Waldstr.","postalCode":"86825","locality":"Bad Wörishofen","municipality":{"key":"09778116","name":"Bad Wörishofen, St","type":"Stadt"},"district":{"key":"09778","name":"Unterallgäu","type":"Landkreis"},"federalState":{"key":"09","name":"Bayern"}},{"name":"Wallbergstr.","postalCode":"86825","locality":"Bad Wörishofen","municipality":{"key":"09778116","name":"Bad Wörishofen, St","type":"Stadt"},"district":{"key":"09778","name":"Unterallgäu","type":"Landkreis"},"federalState":{"key":"09","name":"Bayern"}},{"name":"Walter-Schulz-Str.","postalCode":"86825","locality":"Bad Wörishofen","municipality":{"key":"09778116","name":"Bad Wörishofen, St","type":"Stadt"},"district":{"key":"09778","name":"Unterallgäu","type":"Landkreis"},"federalState":{"key":"09","name":"Bayern"}},{"name":"Wangenweg","postalCode":"86825","locality":"Bad Wörishofen","municipality":{"key":"09778116","name":"Bad Wörishofen, St","type":"Stadt"},"district":{"key":"09778","name":"Unterallgäu","type":"Landkreis"},"federalState":{"key":"09","name":"Bayern"}},{"name":"Wankstr.","postalCode":"86825","locality":"Bad Wörishofen","municipality":{"key":"09778116","name":"Bad Wörishofen, St","type":"Stadt"},"district":{"key":"09778","name":"Unterallgäu","type":"Landkreis"},"federalState":{"key":"09","name":"Bayern"}},{"name":"Watzmannweg","postalCode":"86825","locality":"Bad Wörishofen","municipality":{"key":"09778116","name":"Bad Wörishofen, St","type":"Stadt"},"district":{"key":"09778","name":"Unterallgäu","type":"Landkreis"},"federalState":{"key":"09","name":"Bayern"}},{"name":"Waxensteinweg","postalCode":"86825","locality":"Bad Wörishofen","municipality":{"key":"09778116","name":"Bad Wörishofen, St","type":"Stadt"},"district":{"key":"09778","name":"Unterallgäu","type":"Landkreis"},"federalState":{"key":"09","name":"Bayern"}},{"name":"Weiherweg","postalCode":"86825","locality":"Bad Wörishofen","municipality":{"key":"09778116","name":"Bad Wörishofen, St","type":"Stadt"},"district":{"key":"09778","name":"Unterallgäu","type":"Landkreis"},"federalState":{"key":"09","name":"Bayern"}},{"name":"Welfenstr.","postalCode":"86825","locality":"Bad Wörishofen","municipality":{"key":"09778116","name":"Bad Wörishofen, St","type":"Stadt"},"district":{"key":"09778","name":"Unterallgäu","type":"Landkreis"},"federalState":{"key":"09","name":"Bayern"}},{"name":"Wendelsteinweg","postalCode":"86825","locality":"Bad Wörishofen","municipality":{"key":"09778116","name":"Bad Wörishofen, St","type":"Stadt"},"district":{"key":"09778","name":"Unterallgäu","type":"Landkreis"},"federalState":{"key":"09","name":"Bayern"}},{"name":"Wertachweg","postalCode":"86825","locality":"Bad Wörishofen","municipality":{"key":"09778116","name":"Bad Wörishofen, St","type":"Stadt"},"district":{"key":"09778","name":"Unterallgäu","type":"Landkreis"},"federalState":{"key":"09","name":"Bayern"}},{"name":"Wettersteinweg","postalCode":"86825","locality":"Bad Wörishofen","municipality":{"key":"09778116","name":"Bad Wörishofen, St","type":"Stadt"},"district":{"key":"09778","name":"Unterallgäu","type":"Landkreis"},"federalState":{"key":"09","name":"Bayern"}},{"name":"Wiener Str.","postalCode":"86825","locality":"Bad Wörishofen","municipality":{"key":"09778116","name":"Bad Wörishofen, St","type":"Stadt"},"district":{"key":"09778","name":"Unterallgäu","type":"Landkreis"},"federalState":{"key":"09","name":"Bayern"}},{"name":"Wiesenweg","postalCode":"86825","locality":"Bad Wörishofen","municipality":{"key":"09778116","name":"Bad Wörishofen, St","type":"Stadt"},"district":{"key":"09778","name":"Unterallgäu","type":"Landkreis"},"federalState":{"key":"09","name":"Bayern"}},{"name":"Zeppelinstr.","postalCode":"86825","locality":"Bad Wörishofen","municipality":{"key":"09778116","name":"Bad Wörishofen, St","type":"Stadt"},"district":{"key":"09778","name":"Unterallgäu","type":"Landkreis"},"federalState":{"key":"09","name":"Bayern"}},{"name":"Zillertal","postalCode":"86825","locality":"Bad Wörishofen","municipality":{"key":"09778116","name":"Bad Wörishofen, St","type":"Stadt"},"district":{"key":"09778","name":"Unterallgäu","type":"Landkreis"},"federalState":{"key":"09","name":"Bayern"}},{"name":"Zugspitzstr.","postalCode":"86825","locality":"Bad Wörishofen","municipality":{"key":"09778116","name":"Bad Wörishofen, St","type":"Stadt"},"district":{"key":"09778","name":"Unterallgäu","type":"Landkreis"},"federalState":{"key":"09","name":"Bayern"}},]