[{"name":"Ahornweg","postalCode":"97514","locality":"Oberaurach","municipality":{"key":"09674159","name":"Oberaurach","type":"Kreisangehörige_Gemeinde"},"district":{"key":"09674","name":"Haßberge","type":"Landkreis"},"federalState":{"key":"09","name":"Bayern"}},{"name":"Alte Hochstr.","postalCode":"97514","locality":"Oberaurach","municipality":{"key":"09674159","name":"Oberaurach","type":"Kreisangehörige_Gemeinde"},"district":{"key":"09674","name":"Haßberge","type":"Landkreis"},"federalState":{"key":"09","name":"Bayern"}},{"name":"Alter Kirchweg","postalCode":"97514","locality":"Oberaurach","municipality":{"key":"09674159","name":"Oberaurach","type":"Kreisangehörige_Gemeinde"},"district":{"key":"09674","name":"Haßberge","type":"Landkreis"},"federalState":{"key":"09","name":"Bayern"}},{"name":"Alter Weg","postalCode":"97514","locality":"Oberaurach","municipality":{"key":"09674159","name":"Oberaurach","type":"Kreisangehörige_Gemeinde"},"district":{"key":"09674","name":"Haßberge","type":"Landkreis"},"federalState":{"key":"09","name":"Bayern"}},{"name":"Althütter Str.","postalCode":"97514","locality":"Oberaurach","municipality":{"key":"09674159","name":"Oberaurach","type":"Kreisangehörige_Gemeinde"},"district":{"key":"09674","name":"Haßberge","type":"Landkreis"},"federalState":{"key":"09","name":"Bayern"}},{"name":"Am Beerberg","postalCode":"97514","locality":"Oberaurach","municipality":{"key":"09674159","name":"Oberaurach","type":"Kreisangehörige_Gemeinde"},"district":{"key":"09674","name":"Haßberge","type":"Landkreis"},"federalState":{"key":"09","name":"Bayern"}},{"name":"Am Brunnen","postalCode":"97514","locality":"Oberaurach","municipality":{"key":"09674159","name":"Oberaurach","type":"Kreisangehörige_Gemeinde"},"district":{"key":"09674","name":"Haßberge","type":"Landkreis"},"federalState":{"key":"09","name":"Bayern"}},{"name":"Am Campingplatz","postalCode":"97514","locality":"Oberaurach","municipality":{"key":"09674159","name":"Oberaurach","type":"Kreisangehörige_Gemeinde"},"district":{"key":"09674","name":"Haßberge","type":"Landkreis"},"federalState":{"key":"09","name":"Bayern"}},{"name":"Am Käppela","postalCode":"97514","locality":"Oberaurach","municipality":{"key":"09674159","name":"Oberaurach","type":"Kreisangehörige_Gemeinde"},"district":{"key":"09674","name":"Haßberge","type":"Landkreis"},"federalState":{"key":"09","name":"Bayern"}},{"name":"Am Krainberg","postalCode":"97514","locality":"Oberaurach","municipality":{"key":"09674159","name":"Oberaurach","type":"Kreisangehörige_Gemeinde"},"district":{"key":"09674","name":"Haßberge","type":"Landkreis"},"federalState":{"key":"09","name":"Bayern"}},{"name":"Am Maienschlag","postalCode":"97514","locality":"Oberaurach","municipality":{"key":"09674159","name":"Oberaurach","type":"Kreisangehörige_Gemeinde"},"district":{"key":"09674","name":"Haßberge","type":"Landkreis"},"federalState":{"key":"09","name":"Bayern"}},{"name":"Am Ried","postalCode":"97514","locality":"Oberaurach","municipality":{"key":"09674159","name":"Oberaurach","type":"Kreisangehörige_Gemeinde"},"district":{"key":"09674","name":"Haßberge","type":"Landkreis"},"federalState":{"key":"09","name":"Bayern"}},{"name":"Am Röthenhang","postalCode":"97514","locality":"Oberaurach","municipality":{"key":"09674159","name":"Oberaurach","type":"Kreisangehörige_Gemeinde"},"district":{"key":"09674","name":"Haßberge","type":"Landkreis"},"federalState":{"key":"09","name":"Bayern"}},{"name":"Am Schind","postalCode":"97514","locality":"Oberaurach","municipality":{"key":"09674159","name":"Oberaurach","type":"Kreisangehörige_Gemeinde"},"district":{"key":"09674","name":"Haßberge","type":"Landkreis"},"federalState":{"key":"09","name":"Bayern"}},{"name":"Am Schullerbach","postalCode":"97514","locality":"Oberaurach","municipality":{"key":"09674159","name":"Oberaurach","type":"Kreisangehörige_Gemeinde"},"district":{"key":"09674","name":"Haßberge","type":"Landkreis"},"federalState":{"key":"09","name":"Bayern"}},{"name":"Am Schützenhaus","postalCode":"97514","locality":"Oberaurach","municipality":{"key":"09674159","name":"Oberaurach","type":"Kreisangehörige_Gemeinde"},"district":{"key":"09674","name":"Haßberge","type":"Landkreis"},"federalState":{"key":"09","name":"Bayern"}},{"name":"Am Seesbühl","postalCode":"97514","locality":"Oberaurach","municipality":{"key":"09674159","name":"Oberaurach","type":"Kreisangehörige_Gemeinde"},"district":{"key":"09674","name":"Haßberge","type":"Landkreis"},"federalState":{"key":"09","name":"Bayern"}},{"name":"Am Sportplatz","postalCode":"97514","locality":"Oberaurach","municipality":{"key":"09674159","name":"Oberaurach","type":"Kreisangehörige_Gemeinde"},"district":{"key":"09674","name":"Haßberge","type":"Landkreis"},"federalState":{"key":"09","name":"Bayern"}},{"name":"Am Sportzentrum","postalCode":"97514","locality":"Oberaurach","municipality":{"key":"09674159","name":"Oberaurach","type":"Kreisangehörige_Gemeinde"},"district":{"key":"09674","name":"Haßberge","type":"Landkreis"},"federalState":{"key":"09","name":"Bayern"}},{"name":"Am Steinernen Kreuz","postalCode":"97514","locality":"Oberaurach","municipality":{"key":"09674159","name":"Oberaurach","type":"Kreisangehörige_Gemeinde"},"district":{"key":"09674","name":"Haßberge","type":"Landkreis"},"federalState":{"key":"09","name":"Bayern"}},{"name":"Am Wald","postalCode":"97514","locality":"Oberaurach","municipality":{"key":"09674159","name":"Oberaurach","type":"Kreisangehörige_Gemeinde"},"district":{"key":"09674","name":"Haßberge","type":"Landkreis"},"federalState":{"key":"09","name":"Bayern"}},{"name":"Am Wiesenholz","postalCode":"97514","locality":"Oberaurach","municipality":{"key":"09674159","name":"Oberaurach","type":"Kreisangehörige_Gemeinde"},"district":{"key":"09674","name":"Haßberge","type":"Landkreis"},"federalState":{"key":"09","name":"Bayern"}},{"name":"An der Aurach","postalCode":"97514","locality":"Oberaurach","municipality":{"key":"09674159","name":"Oberaurach","type":"Kreisangehörige_Gemeinde"},"district":{"key":"09674","name":"Haßberge","type":"Landkreis"},"federalState":{"key":"09","name":"Bayern"}},{"name":"An der Glashütte","postalCode":"97514","locality":"Oberaurach","municipality":{"key":"09674159","name":"Oberaurach","type":"Kreisangehörige_Gemeinde"},"district":{"key":"09674","name":"Haßberge","type":"Landkreis"},"federalState":{"key":"09","name":"Bayern"}},{"name":"An der Linde","postalCode":"97514","locality":"Oberaurach","municipality":{"key":"09674159","name":"Oberaurach","type":"Kreisangehörige_Gemeinde"},"district":{"key":"09674","name":"Haßberge","type":"Landkreis"},"federalState":{"key":"09","name":"Bayern"}},{"name":"An der Steige","postalCode":"97514","locality":"Oberaurach","municipality":{"key":"09674159","name":"Oberaurach","type":"Kreisangehörige_Gemeinde"},"district":{"key":"09674","name":"Haßberge","type":"Landkreis"},"federalState":{"key":"09","name":"Bayern"}},{"name":"Armin-Knab-Str.","postalCode":"97514","locality":"Oberaurach","municipality":{"key":"09674159","name":"Oberaurach","type":"Kreisangehörige_Gemeinde"},"district":{"key":"09674","name":"Haßberge","type":"Landkreis"},"federalState":{"key":"09","name":"Bayern"}},{"name":"Bachstr.","postalCode":"97514","locality":"Oberaurach","municipality":{"key":"09674159","name":"Oberaurach","type":"Kreisangehörige_Gemeinde"},"district":{"key":"09674","name":"Haßberge","type":"Landkreis"},"federalState":{"key":"09","name":"Bayern"}},{"name":"Ballsieperstr.","postalCode":"97514","locality":"Oberaurach","municipality":{"key":"09674159","name":"Oberaurach","type":"Kreisangehörige_Gemeinde"},"district":{"key":"09674","name":"Haßberge","type":"Landkreis"},"federalState":{"key":"09","name":"Bayern"}},{"name":"Bamberger Str.","postalCode":"97514","locality":"Oberaurach","municipality":{"key":"09674159","name":"Oberaurach","type":"Kreisangehörige_Gemeinde"},"district":{"key":"09674","name":"Haßberge","type":"Landkreis"},"federalState":{"key":"09","name":"Bayern"}},{"name":"Bergweg","postalCode":"97514","locality":"Oberaurach","municipality":{"key":"09674159","name":"Oberaurach","type":"Kreisangehörige_Gemeinde"},"district":{"key":"09674","name":"Haßberge","type":"Landkreis"},"federalState":{"key":"09","name":"Bayern"}},{"name":"Birkenhof","postalCode":"97514","locality":"Oberaurach","municipality":{"key":"09674159","name":"Oberaurach","type":"Kreisangehörige_Gemeinde"},"district":{"key":"09674","name":"Haßberge","type":"Landkreis"},"federalState":{"key":"09","name":"Bayern"}},{"name":"Birkenweg","postalCode":"97514","locality":"Oberaurach","municipality":{"key":"09674159","name":"Oberaurach","type":"Kreisangehörige_Gemeinde"},"district":{"key":"09674","name":"Haßberge","type":"Landkreis"},"federalState":{"key":"09","name":"Bayern"}},{"name":"Brunnenstr.","postalCode":"97514","locality":"Oberaurach","municipality":{"key":"09674159","name":"Oberaurach","type":"Kreisangehörige_Gemeinde"},"district":{"key":"09674","name":"Haßberge","type":"Landkreis"},"federalState":{"key":"09","name":"Bayern"}},{"name":"Conrad-Vetter-Str.","postalCode":"97514","locality":"Oberaurach","municipality":{"key":"09674159","name":"Oberaurach","type":"Kreisangehörige_Gemeinde"},"district":{"key":"09674","name":"Haßberge","type":"Landkreis"},"federalState":{"key":"09","name":"Bayern"}},{"name":"Doktor-Jäger-Str.","postalCode":"97514","locality":"Oberaurach","municipality":{"key":"09674159","name":"Oberaurach","type":"Kreisangehörige_Gemeinde"},"district":{"key":"09674","name":"Haßberge","type":"Landkreis"},"federalState":{"key":"09","name":"Bayern"}},{"name":"Echterstr.","postalCode":"97514","locality":"Oberaurach","municipality":{"key":"09674159","name":"Oberaurach","type":"Kreisangehörige_Gemeinde"},"district":{"key":"09674","name":"Haßberge","type":"Landkreis"},"federalState":{"key":"09","name":"Bayern"}},{"name":"Eichenweg","postalCode":"97514","locality":"Oberaurach","municipality":{"key":"09674159","name":"Oberaurach","type":"Kreisangehörige_Gemeinde"},"district":{"key":"09674","name":"Haßberge","type":"Landkreis"},"federalState":{"key":"09","name":"Bayern"}},{"name":"Erlenweg","postalCode":"97514","locality":"Oberaurach","municipality":{"key":"09674159","name":"Oberaurach","type":"Kreisangehörige_Gemeinde"},"district":{"key":"09674","name":"Haßberge","type":"Landkreis"},"federalState":{"key":"09","name":"Bayern"}},{"name":"Fichtenweg","postalCode":"97514","locality":"Oberaurach","municipality":{"key":"09674159","name":"Oberaurach","type":"Kreisangehörige_Gemeinde"},"district":{"key":"09674","name":"Haßberge","type":"Landkreis"},"federalState":{"key":"09","name":"Bayern"}},{"name":"Forellenweg","postalCode":"97514","locality":"Oberaurach","municipality":{"key":"09674159","name":"Oberaurach","type":"Kreisangehörige_Gemeinde"},"district":{"key":"09674","name":"Haßberge","type":"Landkreis"},"federalState":{"key":"09","name":"Bayern"}},{"name":"Frankenstr.","postalCode":"97514","locality":"Oberaurach","municipality":{"key":"09674159","name":"Oberaurach","type":"Kreisangehörige_Gemeinde"},"district":{"key":"09674","name":"Haßberge","type":"Landkreis"},"federalState":{"key":"09","name":"Bayern"}},{"name":"Friedhofstr.","postalCode":"97514","locality":"Oberaurach","municipality":{"key":"09674159","name":"Oberaurach","type":"Kreisangehörige_Gemeinde"},"district":{"key":"09674","name":"Haßberge","type":"Landkreis"},"federalState":{"key":"09","name":"Bayern"}},{"name":"Friedhofweg","postalCode":"97514","locality":"Oberaurach","municipality":{"key":"09674159","name":"Oberaurach","type":"Kreisangehörige_Gemeinde"},"district":{"key":"09674","name":"Haßberge","type":"Landkreis"},"federalState":{"key":"09","name":"Bayern"}},{"name":"Fürstenhof","postalCode":"97514","locality":"Oberaurach","municipality":{"key":"09674159","name":"Oberaurach","type":"Kreisangehörige_Gemeinde"},"district":{"key":"09674","name":"Haßberge","type":"Landkreis"},"federalState":{"key":"09","name":"Bayern"}},{"name":"Geißberg","postalCode":"97514","locality":"Oberaurach","municipality":{"key":"09674159","name":"Oberaurach","type":"Kreisangehörige_Gemeinde"},"district":{"key":"09674","name":"Haßberge","type":"Landkreis"},"federalState":{"key":"09","name":"Bayern"}},{"name":"Glashüttenweg","postalCode":"97514","locality":"Oberaurach","municipality":{"key":"09674159","name":"Oberaurach","type":"Kreisangehörige_Gemeinde"},"district":{"key":"09674","name":"Haßberge","type":"Landkreis"},"federalState":{"key":"09","name":"Bayern"}},{"name":"Goethestr.","postalCode":"97514","locality":"Oberaurach","municipality":{"key":"09674159","name":"Oberaurach","type":"Kreisangehörige_Gemeinde"},"district":{"key":"09674","name":"Haßberge","type":"Landkreis"},"federalState":{"key":"09","name":"Bayern"}},{"name":"Großer Damm","postalCode":"97514","locality":"Oberaurach","municipality":{"key":"09674159","name":"Oberaurach","type":"Kreisangehörige_Gemeinde"},"district":{"key":"09674","name":"Haßberge","type":"Landkreis"},"federalState":{"key":"09","name":"Bayern"}},{"name":"Grundweg","postalCode":"97514","locality":"Oberaurach","municipality":{"key":"09674159","name":"Oberaurach","type":"Kreisangehörige_Gemeinde"},"district":{"key":"09674","name":"Haßberge","type":"Landkreis"},"federalState":{"key":"09","name":"Bayern"}},{"name":"Hadergasse","postalCode":"97514","locality":"Oberaurach","municipality":{"key":"09674159","name":"Oberaurach","type":"Kreisangehörige_Gemeinde"},"district":{"key":"09674","name":"Haßberge","type":"Landkreis"},"federalState":{"key":"09","name":"Bayern"}},{"name":"Hoffeldäckerweg","postalCode":"97514","locality":"Oberaurach","municipality":{"key":"09674159","name":"Oberaurach","type":"Kreisangehörige_Gemeinde"},"district":{"key":"09674","name":"Haßberge","type":"Landkreis"},"federalState":{"key":"09","name":"Bayern"}},{"name":"Hoffeldstr.","postalCode":"97514","locality":"Oberaurach","municipality":{"key":"09674159","name":"Oberaurach","type":"Kreisangehörige_Gemeinde"},"district":{"key":"09674","name":"Haßberge","type":"Landkreis"},"federalState":{"key":"09","name":"Bayern"}},{"name":"Hohe Wart","postalCode":"97514","locality":"Oberaurach","municipality":{"key":"09674159","name":"Oberaurach","type":"Kreisangehörige_Gemeinde"},"district":{"key":"09674","name":"Haßberge","type":"Landkreis"},"federalState":{"key":"09","name":"Bayern"}},{"name":"Hollerweg","postalCode":"97514","locality":"Oberaurach","municipality":{"key":"09674159","name":"Oberaurach","type":"Kreisangehörige_Gemeinde"},"district":{"key":"09674","name":"Haßberge","type":"Landkreis"},"federalState":{"key":"09","name":"Bayern"}},{"name":"Holundergasse","postalCode":"97514","locality":"Oberaurach","municipality":{"key":"09674159","name":"Oberaurach","type":"Kreisangehörige_Gemeinde"},"district":{"key":"09674","name":"Haßberge","type":"Landkreis"},"federalState":{"key":"09","name":"Bayern"}},{"name":"Hopfengarten","postalCode":"97514","locality":"Oberaurach","municipality":{"key":"09674159","name":"Oberaurach","type":"Kreisangehörige_Gemeinde"},"district":{"key":"09674","name":"Haßberge","type":"Landkreis"},"federalState":{"key":"09","name":"Bayern"}},{"name":"Hutweg","postalCode":"97514","locality":"Oberaurach","municipality":{"key":"09674159","name":"Oberaurach","type":"Kreisangehörige_Gemeinde"},"district":{"key":"09674","name":"Haßberge","type":"Landkreis"},"federalState":{"key":"09","name":"Bayern"}},{"name":"Im Tal","postalCode":"97514","locality":"Oberaurach","municipality":{"key":"09674159","name":"Oberaurach","type":"Kreisangehörige_Gemeinde"},"district":{"key":"09674","name":"Haßberge","type":"Landkreis"},"federalState":{"key":"09","name":"Bayern"}},{"name":"In der Au","postalCode":"97514","locality":"Oberaurach","municipality":{"key":"09674159","name":"Oberaurach","type":"Kreisangehörige_Gemeinde"},"district":{"key":"09674","name":"Haßberge","type":"Landkreis"},"federalState":{"key":"09","name":"Bayern"}},{"name":"Kammerstr.","postalCode":"97514","locality":"Oberaurach","municipality":{"key":"09674159","name":"Oberaurach","type":"Kreisangehörige_Gemeinde"},"district":{"key":"09674","name":"Haßberge","type":"Landkreis"},"federalState":{"key":"09","name":"Bayern"}},{"name":"Kapellenweg","postalCode":"97514","locality":"Oberaurach","municipality":{"key":"09674159","name":"Oberaurach","type":"Kreisangehörige_Gemeinde"},"district":{"key":"09674","name":"Haßberge","type":"Landkreis"},"federalState":{"key":"09","name":"Bayern"}},{"name":"Kaulberg","postalCode":"97514","locality":"Oberaurach","municipality":{"key":"09674159","name":"Oberaurach","type":"Kreisangehörige_Gemeinde"},"district":{"key":"09674","name":"Haßberge","type":"Landkreis"},"federalState":{"key":"09","name":"Bayern"}},{"name":"Kellerhaus","postalCode":"97514","locality":"Oberaurach","municipality":{"key":"09674159","name":"Oberaurach","type":"Kreisangehörige_Gemeinde"},"district":{"key":"09674","name":"Haßberge","type":"Landkreis"},"federalState":{"key":"09","name":"Bayern"}},{"name":"Kirchberg","postalCode":"97514","locality":"Oberaurach","municipality":{"key":"09674159","name":"Oberaurach","type":"Kreisangehörige_Gemeinde"},"district":{"key":"09674","name":"Haßberge","type":"Landkreis"},"federalState":{"key":"09","name":"Bayern"}},{"name":"Kirchweg","postalCode":"97514","locality":"Oberaurach","municipality":{"key":"09674159","name":"Oberaurach","type":"Kreisangehörige_Gemeinde"},"district":{"key":"09674","name":"Haßberge","type":"Landkreis"},"federalState":{"key":"09","name":"Bayern"}},{"name":"Kleiner Damm","postalCode":"97514","locality":"Oberaurach","municipality":{"key":"09674159","name":"Oberaurach","type":"Kreisangehörige_Gemeinde"},"district":{"key":"09674","name":"Haßberge","type":"Landkreis"},"federalState":{"key":"09","name":"Bayern"}},{"name":"Klingengrund","postalCode":"97514","locality":"Oberaurach","municipality":{"key":"09674159","name":"Oberaurach","type":"Kreisangehörige_Gemeinde"},"district":{"key":"09674","name":"Haßberge","type":"Landkreis"},"federalState":{"key":"09","name":"Bayern"}},{"name":"Klingenhöhe","postalCode":"97514","locality":"Oberaurach","municipality":{"key":"09674159","name":"Oberaurach","type":"Kreisangehörige_Gemeinde"},"district":{"key":"09674","name":"Haßberge","type":"Landkreis"},"federalState":{"key":"09","name":"Bayern"}},{"name":"Klingenstr.","postalCode":"97514","locality":"Oberaurach","municipality":{"key":"09674159","name":"Oberaurach","type":"Kreisangehörige_Gemeinde"},"district":{"key":"09674","name":"Haßberge","type":"Landkreis"},"federalState":{"key":"09","name":"Bayern"}},{"name":"Kohlbergstr.","postalCode":"97514","locality":"Oberaurach","municipality":{"key":"09674159","name":"Oberaurach","type":"Kreisangehörige_Gemeinde"},"district":{"key":"09674","name":"Haßberge","type":"Landkreis"},"federalState":{"key":"09","name":"Bayern"}},{"name":"Lärchenweg","postalCode":"97514","locality":"Oberaurach","municipality":{"key":"09674159","name":"Oberaurach","type":"Kreisangehörige_Gemeinde"},"district":{"key":"09674","name":"Haßberge","type":"Landkreis"},"federalState":{"key":"09","name":"Bayern"}},{"name":"Lembacher Str.","postalCode":"97514","locality":"Oberaurach","municipality":{"key":"09674159","name":"Oberaurach","type":"Kreisangehörige_Gemeinde"},"district":{"key":"09674","name":"Haßberge","type":"Landkreis"},"federalState":{"key":"09","name":"Bayern"}},{"name":"Lindenstr.","postalCode":"97514","locality":"Oberaurach","municipality":{"key":"09674159","name":"Oberaurach","type":"Kreisangehörige_Gemeinde"},"district":{"key":"09674","name":"Haßberge","type":"Landkreis"},"federalState":{"key":"09","name":"Bayern"}},{"name":"Lindigweg","postalCode":"97514","locality":"Oberaurach","municipality":{"key":"09674159","name":"Oberaurach","type":"Kreisangehörige_Gemeinde"},"district":{"key":"09674","name":"Haßberge","type":"Landkreis"},"federalState":{"key":"09","name":"Bayern"}},{"name":"Lisbergla","postalCode":"97514","locality":"Oberaurach","municipality":{"key":"09674159","name":"Oberaurach","type":"Kreisangehörige_Gemeinde"},"district":{"key":"09674","name":"Haßberge","type":"Landkreis"},"federalState":{"key":"09","name":"Bayern"}},{"name":"Löhleinring","postalCode":"97514","locality":"Oberaurach","municipality":{"key":"09674159","name":"Oberaurach","type":"Kreisangehörige_Gemeinde"},"district":{"key":"09674","name":"Haßberge","type":"Landkreis"},"federalState":{"key":"09","name":"Bayern"}},{"name":"Markertsgrüner Weg","postalCode":"97514","locality":"Oberaurach","municipality":{"key":"09674159","name":"Oberaurach","type":"Kreisangehörige_Gemeinde"},"district":{"key":"09674","name":"Haßberge","type":"Landkreis"},"federalState":{"key":"09","name":"Bayern"}},{"name":"Märzenstr.","postalCode":"97514","locality":"Oberaurach","municipality":{"key":"09674159","name":"Oberaurach","type":"Kreisangehörige_Gemeinde"},"district":{"key":"09674","name":"Haßberge","type":"Landkreis"},"federalState":{"key":"09","name":"Bayern"}},{"name":"Michelsberg","postalCode":"97514","locality":"Oberaurach","municipality":{"key":"09674159","name":"Oberaurach","type":"Kreisangehörige_Gemeinde"},"district":{"key":"09674","name":"Haßberge","type":"Landkreis"},"federalState":{"key":"09","name":"Bayern"}},{"name":"Mühlgasse","postalCode":"97514","locality":"Oberaurach","municipality":{"key":"09674159","name":"Oberaurach","type":"Kreisangehörige_Gemeinde"},"district":{"key":"09674","name":"Haßberge","type":"Landkreis"},"federalState":{"key":"09","name":"Bayern"}},{"name":"Mühlweg","postalCode":"97514","locality":"Oberaurach","municipality":{"key":"09674159","name":"Oberaurach","type":"Kreisangehörige_Gemeinde"},"district":{"key":"09674","name":"Haßberge","type":"Landkreis"},"federalState":{"key":"09","name":"Bayern"}},{"name":"Nikolaus-Fey-Str.","postalCode":"97514","locality":"Oberaurach","municipality":{"key":"09674159","name":"Oberaurach","type":"Kreisangehörige_Gemeinde"},"district":{"key":"09674","name":"Haßberge","type":"Landkreis"},"federalState":{"key":"09","name":"Bayern"}},{"name":"Nützelbach","postalCode":"97514","locality":"Oberaurach","municipality":{"key":"09674159","name":"Oberaurach","type":"Kreisangehörige_Gemeinde"},"district":{"key":"09674","name":"Haßberge","type":"Landkreis"},"federalState":{"key":"09","name":"Bayern"}},{"name":"Obere Au","postalCode":"97514","locality":"Oberaurach","municipality":{"key":"09674159","name":"Oberaurach","type":"Kreisangehörige_Gemeinde"},"district":{"key":"09674","name":"Haßberge","type":"Landkreis"},"federalState":{"key":"09","name":"Bayern"}},{"name":"Oberst-Klarmann-Str.","postalCode":"97514","locality":"Oberaurach","municipality":{"key":"09674159","name":"Oberaurach","type":"Kreisangehörige_Gemeinde"},"district":{"key":"09674","name":"Haßberge","type":"Landkreis"},"federalState":{"key":"09","name":"Bayern"}},{"name":"Paradiesweg","postalCode":"97514","locality":"Oberaurach","municipality":{"key":"09674159","name":"Oberaurach","type":"Kreisangehörige_Gemeinde"},"district":{"key":"09674","name":"Haßberge","type":"Landkreis"},"federalState":{"key":"09","name":"Bayern"}},{"name":"Parkweg","postalCode":"97514","locality":"Oberaurach","municipality":{"key":"09674159","name":"Oberaurach","type":"Kreisangehörige_Gemeinde"},"district":{"key":"09674","name":"Haßberge","type":"Landkreis"},"federalState":{"key":"09","name":"Bayern"}},{"name":"Pfarrer-Baumann-Str.","postalCode":"97514","locality":"Oberaurach","municipality":{"key":"09674159","name":"Oberaurach","type":"Kreisangehörige_Gemeinde"},"district":{"key":"09674","name":"Haßberge","type":"Landkreis"},"federalState":{"key":"09","name":"Bayern"}},{"name":"Pfarrer-Vogler-Str.","postalCode":"97514","locality":"Oberaurach","municipality":{"key":"09674159","name":"Oberaurach","type":"Kreisangehörige_Gemeinde"},"district":{"key":"09674","name":"Haßberge","type":"Landkreis"},"federalState":{"key":"09","name":"Bayern"}},{"name":"Pfarrgasse","postalCode":"97514","locality":"Oberaurach","municipality":{"key":"09674159","name":"Oberaurach","type":"Kreisangehörige_Gemeinde"},"district":{"key":"09674","name":"Haßberge","type":"Landkreis"},"federalState":{"key":"09","name":"Bayern"}},{"name":"Quellengrund","postalCode":"97514","locality":"Oberaurach","municipality":{"key":"09674159","name":"Oberaurach","type":"Kreisangehörige_Gemeinde"},"district":{"key":"09674","name":"Haßberge","type":"Landkreis"},"federalState":{"key":"09","name":"Bayern"}},{"name":"Quellweg","postalCode":"97514","locality":"Oberaurach","municipality":{"key":"09674159","name":"Oberaurach","type":"Kreisangehörige_Gemeinde"},"district":{"key":"09674","name":"Haßberge","type":"Landkreis"},"federalState":{"key":"09","name":"Bayern"}},{"name":"Raiffeisenstr.","postalCode":"97514","locality":"Oberaurach","municipality":{"key":"09674159","name":"Oberaurach","type":"Kreisangehörige_Gemeinde"},"district":{"key":"09674","name":"Haßberge","type":"Landkreis"},"federalState":{"key":"09","name":"Bayern"}},{"name":"Rathausstr.","postalCode":"97514","locality":"Oberaurach","municipality":{"key":"09674159","name":"Oberaurach","type":"Kreisangehörige_Gemeinde"},"district":{"key":"09674","name":"Haßberge","type":"Landkreis"},"federalState":{"key":"09","name":"Bayern"}},{"name":"Rennerkreuzstr.","postalCode":"97514","locality":"Oberaurach","municipality":{"key":"09674159","name":"Oberaurach","type":"Kreisangehörige_Gemeinde"},"district":{"key":"09674","name":"Haßberge","type":"Landkreis"},"federalState":{"key":"09","name":"Bayern"}},{"name":"Rieneckstr.","postalCode":"97514","locality":"Oberaurach","municipality":{"key":"09674159","name":"Oberaurach","type":"Kreisangehörige_Gemeinde"},"district":{"key":"09674","name":"Haßberge","type":"Landkreis"},"federalState":{"key":"09","name":"Bayern"}},{"name":"Rosenweg","postalCode":"97514","locality":"Oberaurach","municipality":{"key":"09674159","name":"Oberaurach","type":"Kreisangehörige_Gemeinde"},"district":{"key":"09674","name":"Haßberge","type":"Landkreis"},"federalState":{"key":"09","name":"Bayern"}},{"name":"Röthweg","postalCode":"97514","locality":"Oberaurach","municipality":{"key":"09674159","name":"Oberaurach","type":"Kreisangehörige_Gemeinde"},"district":{"key":"09674","name":"Haßberge","type":"Landkreis"},"federalState":{"key":"09","name":"Bayern"}},{"name":"Rückertstr.","postalCode":"97514","locality":"Oberaurach","municipality":{"key":"09674159","name":"Oberaurach","type":"Kreisangehörige_Gemeinde"},"district":{"key":"09674","name":"Haßberge","type":"Landkreis"},"federalState":{"key":"09","name":"Bayern"}},{"name":"Sandersgrund","postalCode":"97514","locality":"Oberaurach","municipality":{"key":"09674159","name":"Oberaurach","type":"Kreisangehörige_Gemeinde"},"district":{"key":"09674","name":"Haßberge","type":"Landkreis"},"federalState":{"key":"09","name":"Bayern"}},{"name":"Schafberg","postalCode":"97514","locality":"Oberaurach","municipality":{"key":"09674159","name":"Oberaurach","type":"Kreisangehörige_Gemeinde"},"district":{"key":"09674","name":"Haßberge","type":"Landkreis"},"federalState":{"key":"09","name":"Bayern"}},{"name":"Schäßbach","postalCode":"97514","locality":"Oberaurach","municipality":{"key":"09674159","name":"Oberaurach","type":"Kreisangehörige_Gemeinde"},"district":{"key":"09674","name":"Haßberge","type":"Landkreis"},"federalState":{"key":"09","name":"Bayern"}},{"name":"Scheidbergstr.","postalCode":"97514","locality":"Oberaurach","municipality":{"key":"09674159","name":"Oberaurach","type":"Kreisangehörige_Gemeinde"},"district":{"key":"09674","name":"Haßberge","type":"Landkreis"},"federalState":{"key":"09","name":"Bayern"}},{"name":"Schillerstr.","postalCode":"97514","locality":"Oberaurach","municipality":{"key":"09674159","name":"Oberaurach","type":"Kreisangehörige_Gemeinde"},"district":{"key":"09674","name":"Haßberge","type":"Landkreis"},"federalState":{"key":"09","name":"Bayern"}},{"name":"Schloßhof","postalCode":"97514","locality":"Oberaurach","municipality":{"key":"09674159","name":"Oberaurach","type":"Kreisangehörige_Gemeinde"},"district":{"key":"09674","name":"Haßberge","type":"Landkreis"},"federalState":{"key":"09","name":"Bayern"}},{"name":"Schmale Gasse","postalCode":"97514","locality":"Oberaurach","municipality":{"key":"09674159","name":"Oberaurach","type":"Kreisangehörige_Gemeinde"},"district":{"key":"09674","name":"Haßberge","type":"Landkreis"},"federalState":{"key":"09","name":"Bayern"}},{"name":"Schulgraben","postalCode":"97514","locality":"Oberaurach","municipality":{"key":"09674159","name":"Oberaurach","type":"Kreisangehörige_Gemeinde"},"district":{"key":"09674","name":"Haßberge","type":"Landkreis"},"federalState":{"key":"09","name":"Bayern"}},{"name":"Schulzenhügel","postalCode":"97514","locality":"Oberaurach","municipality":{"key":"09674159","name":"Oberaurach","type":"Kreisangehörige_Gemeinde"},"district":{"key":"09674","name":"Haßberge","type":"Landkreis"},"federalState":{"key":"09","name":"Bayern"}},{"name":"Seerangen","postalCode":"97514","locality":"Oberaurach","municipality":{"key":"09674159","name":"Oberaurach","type":"Kreisangehörige_Gemeinde"},"district":{"key":"09674","name":"Haßberge","type":"Landkreis"},"federalState":{"key":"09","name":"Bayern"}},{"name":"Seestr.","postalCode":"97514","locality":"Oberaurach","municipality":{"key":"09674159","name":"Oberaurach","type":"Kreisangehörige_Gemeinde"},"district":{"key":"09674","name":"Haßberge","type":"Landkreis"},"federalState":{"key":"09","name":"Bayern"}},{"name":"Siebengüter","postalCode":"97514","locality":"Oberaurach","municipality":{"key":"09674159","name":"Oberaurach","type":"Kreisangehörige_Gemeinde"},"district":{"key":"09674","name":"Haßberge","type":"Landkreis"},"federalState":{"key":"09","name":"Bayern"}},{"name":"Sonnenstr.","postalCode":"97514","locality":"Oberaurach","municipality":{"key":"09674159","name":"Oberaurach","type":"Kreisangehörige_Gemeinde"},"district":{"key":"09674","name":"Haßberge","type":"Landkreis"},"federalState":{"key":"09","name":"Bayern"}},{"name":"Sonnenwiese","postalCode":"97514","locality":"Oberaurach","municipality":{"key":"09674159","name":"Oberaurach","type":"Kreisangehörige_Gemeinde"},"district":{"key":"09674","name":"Haßberge","type":"Landkreis"},"federalState":{"key":"09","name":"Bayern"}},{"name":"Spitalstr.","postalCode":"97514","locality":"Oberaurach","municipality":{"key":"09674159","name":"Oberaurach","type":"Kreisangehörige_Gemeinde"},"district":{"key":"09674","name":"Haßberge","type":"Landkreis"},"federalState":{"key":"09","name":"Bayern"}},{"name":"Steigerwaldstr.","postalCode":"97514","locality":"Oberaurach","municipality":{"key":"09674159","name":"Oberaurach","type":"Kreisangehörige_Gemeinde"},"district":{"key":"09674","name":"Haßberge","type":"Landkreis"},"federalState":{"key":"09","name":"Bayern"}},{"name":"Steinig","postalCode":"97514","locality":"Oberaurach","municipality":{"key":"09674159","name":"Oberaurach","type":"Kreisangehörige_Gemeinde"},"district":{"key":"09674","name":"Haßberge","type":"Landkreis"},"federalState":{"key":"09","name":"Bayern"}},{"name":"Tannenweg","postalCode":"97514","locality":"Oberaurach","municipality":{"key":"09674159","name":"Oberaurach","type":"Kreisangehörige_Gemeinde"},"district":{"key":"09674","name":"Haßberge","type":"Landkreis"},"federalState":{"key":"09","name":"Bayern"}},{"name":"Trunstadter Weg","postalCode":"97514","locality":"Oberaurach","municipality":{"key":"09674159","name":"Oberaurach","type":"Kreisangehörige_Gemeinde"},"district":{"key":"09674","name":"Haßberge","type":"Landkreis"},"federalState":{"key":"09","name":"Bayern"}},{"name":"Untere Au","postalCode":"97514","locality":"Oberaurach","municipality":{"key":"09674159","name":"Oberaurach","type":"Kreisangehörige_Gemeinde"},"district":{"key":"09674","name":"Haßberge","type":"Landkreis"},"federalState":{"key":"09","name":"Bayern"}},{"name":"Unterer Kirchberg","postalCode":"97514","locality":"Oberaurach","municipality":{"key":"09674159","name":"Oberaurach","type":"Kreisangehörige_Gemeinde"},"district":{"key":"09674","name":"Haßberge","type":"Landkreis"},"federalState":{"key":"09","name":"Bayern"}},{"name":"Von-Kalb-Ring","postalCode":"97514","locality":"Oberaurach","municipality":{"key":"09674159","name":"Oberaurach","type":"Kreisangehörige_Gemeinde"},"district":{"key":"09674","name":"Haßberge","type":"Landkreis"},"federalState":{"key":"09","name":"Bayern"}},{"name":"Von-Ostheim-Str.","postalCode":"97514","locality":"Oberaurach","municipality":{"key":"09674159","name":"Oberaurach","type":"Kreisangehörige_Gemeinde"},"district":{"key":"09674","name":"Haßberge","type":"Landkreis"},"federalState":{"key":"09","name":"Bayern"}},{"name":"Von-Pünzendorf-Str.","postalCode":"97514","locality":"Oberaurach","municipality":{"key":"09674159","name":"Oberaurach","type":"Kreisangehörige_Gemeinde"},"district":{"key":"09674","name":"Haßberge","type":"Landkreis"},"federalState":{"key":"09","name":"Bayern"}},{"name":"Vorstadtweg","postalCode":"97514","locality":"Oberaurach","municipality":{"key":"09674159","name":"Oberaurach","type":"Kreisangehörige_Gemeinde"},"district":{"key":"09674","name":"Haßberge","type":"Landkreis"},"federalState":{"key":"09","name":"Bayern"}},{"name":"Wachhügel","postalCode":"97514","locality":"Oberaurach","municipality":{"key":"09674159","name":"Oberaurach","type":"Kreisangehörige_Gemeinde"},"district":{"key":"09674","name":"Haßberge","type":"Landkreis"},"federalState":{"key":"09","name":"Bayern"}},{"name":"Waldstr.","postalCode":"97514","locality":"Oberaurach","municipality":{"key":"09674159","name":"Oberaurach","type":"Kreisangehörige_Gemeinde"},"district":{"key":"09674","name":"Haßberge","type":"Landkreis"},"federalState":{"key":"09","name":"Bayern"}},{"name":"Weidenstr.","postalCode":"97514","locality":"Oberaurach","municipality":{"key":"09674159","name":"Oberaurach","type":"Kreisangehörige_Gemeinde"},"district":{"key":"09674","name":"Haßberge","type":"Landkreis"},"federalState":{"key":"09","name":"Bayern"}},{"name":"Weinberge","postalCode":"97514","locality":"Oberaurach","municipality":{"key":"09674159","name":"Oberaurach","type":"Kreisangehörige_Gemeinde"},"district":{"key":"09674","name":"Haßberge","type":"Landkreis"},"federalState":{"key":"09","name":"Bayern"}},{"name":"Weisbrunner Weg","postalCode":"97514","locality":"Oberaurach","municipality":{"key":"09674159","name":"Oberaurach","type":"Kreisangehörige_Gemeinde"},"district":{"key":"09674","name":"Haßberge","type":"Landkreis"},"federalState":{"key":"09","name":"Bayern"}},{"name":"Wiesenstr.","postalCode":"97514","locality":"Oberaurach","municipality":{"key":"09674159","name":"Oberaurach","type":"Kreisangehörige_Gemeinde"},"district":{"key":"09674","name":"Haßberge","type":"Landkreis"},"federalState":{"key":"09","name":"Bayern"}},{"name":"Zum Lindig","postalCode":"97514","locality":"Oberaurach","municipality":{"key":"09674159","name":"Oberaurach","type":"Kreisangehörige_Gemeinde"},"district":{"key":"09674","name":"Haßberge","type":"Landkreis"},"federalState":{"key":"09","name":"Bayern"}},{"name":"Zum Rennerkreuz","postalCode":"97514","locality":"Oberaurach","municipality":{"key":"09674159","name":"Oberaurach","type":"Kreisangehörige_Gemeinde"},"district":{"key":"09674","name":"Haßberge","type":"Landkreis"},"federalState":{"key":"09","name":"Bayern"}},{"name":"Zum Trieb","postalCode":"97514","locality":"Oberaurach","municipality":{"key":"09674159","name":"Oberaurach","type":"Kreisangehörige_Gemeinde"},"district":{"key":"09674","name":"Haßberge","type":"Landkreis"},"federalState":{"key":"09","name":"Bayern"}},{"name":"Zur Hofstatt","postalCode":"97514","locality":"Oberaurach","municipality":{"key":"09674159","name":"Oberaurach","type":"Kreisangehörige_Gemeinde"},"district":{"key":"09674","name":"Haßberge","type":"Landkreis"},"federalState":{"key":"09","name":"Bayern"}},]