[{"key":"10192724","name":"al Pòrtich dala Campìna","postalCode":"6574","locality":"Vira (Gambarogno)","commune":{"key":"5398","name":"Gambarogno","shortName":"Gambarogno"},"district":{"key":"2104","name":"Distretto di Locarno"},"canton":{"key":"21","code":"TI","name":"Ticino"},"status":"Real"},{"key":"10132365","name":"Al Ronchetto","postalCode":"6574","locality":"Vira (Gambarogno)","commune":{"key":"5398","name":"Gambarogno","shortName":"Gambarogno"},"district":{"key":"2104","name":"Distretto di Locarno"},"canton":{"key":"21","code":"TI","name":"Ticino"},"status":"Real"},{"key":"10166421","name":"Al Sentée da Campágna","postalCode":"6574","locality":"Vira (Gambarogno)","commune":{"key":"5398","name":"Gambarogno","shortName":"Gambarogno"},"district":{"key":"2104","name":"Distretto di Locarno"},"canton":{"key":"21","code":"TI","name":"Ticino"},"status":"Real"},{"key":"10165195","name":"Al Sentée dal Mött","postalCode":"6574","locality":"Vira (Gambarogno)","commune":{"key":"5398","name":"Gambarogno","shortName":"Gambarogno"},"district":{"key":"2104","name":"Distretto di Locarno"},"canton":{"key":"21","code":"TI","name":"Ticino"},"status":"Real"},{"key":"10167884","name":"al Sentée dal Murin","postalCode":"6574","locality":"Vira (Gambarogno)","commune":{"key":"5398","name":"Gambarogno","shortName":"Gambarogno"},"district":{"key":"2104","name":"Distretto di Locarno"},"canton":{"key":"21","code":"TI","name":"Ticino"},"status":"Real"},{"key":"10167850","name":"al Sentée dal Ragn","postalCode":"6574","locality":"Vira (Gambarogno)","commune":{"key":"5398","name":"Gambarogno","shortName":"Gambarogno"},"district":{"key":"2104","name":"Distretto di Locarno"},"canton":{"key":"21","code":"TI","name":"Ticino"},"status":"Real"},{"key":"10165194","name":"al Sentée da Scesána","postalCode":"6574","locality":"Vira (Gambarogno)","commune":{"key":"5398","name":"Gambarogno","shortName":"Gambarogno"},"district":{"key":"2104","name":"Distretto di Locarno"},"canton":{"key":"21","code":"TI","name":"Ticino"},"status":"Real"},{"key":"10166413","name":"al Sentée di Munt","postalCode":"6574","locality":"Vira (Gambarogno)","commune":{"key":"5398","name":"Gambarogno","shortName":"Gambarogno"},"district":{"key":"2104","name":"Distretto di Locarno"},"canton":{"key":"21","code":"TI","name":"Ticino"},"status":"Real"},{"key":"10166425","name":"al Séntée di Vazzágn","postalCode":"6574","locality":"Vira (Gambarogno)","commune":{"key":"5398","name":"Gambarogno","shortName":"Gambarogno"},"district":{"key":"2104","name":"Distretto di Locarno"},"canton":{"key":"21","code":"TI","name":"Ticino"},"status":"Real"},{"key":"10165087","name":"Al Sentée Morinèe","postalCode":"6574","locality":"Vira (Gambarogno)","commune":{"key":"5398","name":"Gambarogno","shortName":"Gambarogno"},"district":{"key":"2104","name":"Distretto di Locarno"},"canton":{"key":"21","code":"TI","name":"Ticino"},"status":"Real"},{"key":"10165187","name":"Al Sentée Val da Crána","postalCode":"6574","locality":"Vira (Gambarogno)","commune":{"key":"5398","name":"Gambarogno","shortName":"Gambarogno"},"district":{"key":"2104","name":"Distretto di Locarno"},"canton":{"key":"21","code":"TI","name":"Ticino"},"status":"Real"},{"key":"10166430","name":"al Strecin","postalCode":"6574","locality":"Vira (Gambarogno)","commune":{"key":"5398","name":"Gambarogno","shortName":"Gambarogno"},"district":{"key":"2104","name":"Distretto di Locarno"},"canton":{"key":"21","code":"TI","name":"Ticino"},"status":"Real"},{"key":"10194504","name":"al Streción","postalCode":"6574","locality":"Vira (Gambarogno)","commune":{"key":"5398","name":"Gambarogno","shortName":"Gambarogno"},"district":{"key":"2104","name":"Distretto di Locarno"},"canton":{"key":"21","code":"TI","name":"Ticino"},"status":"Real"},{"key":"10089725","name":"Calfarée","postalCode":"6822","locality":"Arogno","commune":{"key":"5144","name":"Arogno","shortName":"Arogno"},"district":{"key":"2105","name":"Distretto di Lugano"},"canton":{"key":"21","code":"TI","name":"Ticino"},"status":"Real"},{"key":"10137755","name":"Canöva","postalCode":"6822","locality":"Arogno","commune":{"key":"5144","name":"Arogno","shortName":"Arogno"},"district":{"key":"2105","name":"Distretto di Lugano"},"canton":{"key":"21","code":"TI","name":"Ticino"},"status":"Real"},{"key":"10166411","name":"Casárich","postalCode":"6574","locality":"Vira (Gambarogno)","commune":{"key":"5398","name":"Gambarogno","shortName":"Gambarogno"},"district":{"key":"2104","name":"Distretto di Locarno"},"canton":{"key":"21","code":"TI","name":"Ticino"},"status":"Real"},{"key":"10089726","name":"Devógg","postalCode":"6822","locality":"Arogno","commune":{"key":"5144","name":"Arogno","shortName":"Arogno"},"district":{"key":"2105","name":"Distretto di Lugano"},"canton":{"key":"21","code":"TI","name":"Ticino"},"status":"Real"},{"key":"10194482","name":"i Treciuréi","postalCode":"6574","locality":"Vira (Gambarogno)","commune":{"key":"5398","name":"Gambarogno","shortName":"Gambarogno"},"district":{"key":"2104","name":"Distretto di Locarno"},"canton":{"key":"21","code":"TI","name":"Ticino"},"status":"Real"},{"key":"10013665","name":"La Caraa","postalCode":"6574","locality":"Vira (Gambarogno)","commune":{"key":"5398","name":"Gambarogno","shortName":"Gambarogno"},"district":{"key":"2104","name":"Distretto di Locarno"},"canton":{"key":"21","code":"TI","name":"Ticino"},"status":"Real"},{"key":"10165191","name":"la Caraa da Fosán","postalCode":"6574","locality":"Vira (Gambarogno)","commune":{"key":"5398","name":"Gambarogno","shortName":"Gambarogno"},"district":{"key":"2104","name":"Distretto di Locarno"},"canton":{"key":"21","code":"TI","name":"Ticino"},"status":"Real"},{"key":"10166423","name":"La Férada","postalCode":"6574","locality":"Vira (Gambarogno)","commune":{"key":"5398","name":"Gambarogno","shortName":"Gambarogno"},"district":{"key":"2104","name":"Distretto di Locarno"},"canton":{"key":"21","code":"TI","name":"Ticino"},"status":"Real"},{"key":"10166424","name":"La Mònda","postalCode":"6574","locality":"Vira (Gambarogno)","commune":{"key":"5398","name":"Gambarogno","shortName":"Gambarogno"},"district":{"key":"2104","name":"Distretto di Locarno"},"canton":{"key":"21","code":"TI","name":"Ticino"},"status":"Real"},{"key":"10241288","name":"La Mondéta","postalCode":"6574","locality":"Vira (Gambarogno)","commune":{"key":"5398","name":"Gambarogno","shortName":"Gambarogno"},"district":{"key":"2104","name":"Distretto di Locarno"},"canton":{"key":"21","code":"TI","name":"Ticino"},"status":"Real"},{"key":"10166412","name":"la Piázza da Corgnòra","postalCode":"6574","locality":"Vira (Gambarogno)","commune":{"key":"5398","name":"Gambarogno","shortName":"Gambarogno"},"district":{"key":"2104","name":"Distretto di Locarno"},"canton":{"key":"21","code":"TI","name":"Ticino"},"status":"Real"},{"key":"10167882","name":"la Piázza dala Funtána","postalCode":"6574","locality":"Vira (Gambarogno)","commune":{"key":"5398","name":"Gambarogno","shortName":"Gambarogno"},"district":{"key":"2104","name":"Distretto di Locarno"},"canton":{"key":"21","code":"TI","name":"Ticino"},"status":"Real"},{"key":"10167887","name":"la Piazza Furlítt","postalCode":"6574","locality":"Vira (Gambarogno)","commune":{"key":"5398","name":"Gambarogno","shortName":"Gambarogno"},"district":{"key":"2104","name":"Distretto di Locarno"},"canton":{"key":"21","code":"TI","name":"Ticino"},"status":"Real"},{"key":"10166418","name":"La Salida di Ciòmm","postalCode":"6574","locality":"Vira (Gambarogno)","commune":{"key":"5398","name":"Gambarogno","shortName":"Gambarogno"},"district":{"key":"2104","name":"Distretto di Locarno"},"canton":{"key":"21","code":"TI","name":"Ticino"},"status":"Real"},{"key":"10167834","name":"la Stazzión","postalCode":"6574","locality":"Vira (Gambarogno)","commune":{"key":"5398","name":"Gambarogno","shortName":"Gambarogno"},"district":{"key":"2104","name":"Distretto di Locarno"},"canton":{"key":"21","code":"TI","name":"Ticino"},"status":"Real"},{"key":"10166408","name":"la Stráda da Corgnòra","postalCode":"6574","locality":"Vira (Gambarogno)","commune":{"key":"5398","name":"Gambarogno","shortName":"Gambarogno"},"district":{"key":"2104","name":"Distretto di Locarno"},"canton":{"key":"21","code":"TI","name":"Ticino"},"status":"Real"},{"key":"10165189","name":"la Stráda dal Castèl","postalCode":"6574","locality":"Vira (Gambarogno)","commune":{"key":"5398","name":"Gambarogno","shortName":"Gambarogno"},"district":{"key":"2104","name":"Distretto di Locarno"},"canton":{"key":"21","code":"TI","name":"Ticino"},"status":"Real"},{"key":"10165190","name":"la Stráda dal Grópp","postalCode":"6574","locality":"Vira (Gambarogno)","commune":{"key":"5398","name":"Gambarogno","shortName":"Gambarogno"},"district":{"key":"2104","name":"Distretto di Locarno"},"canton":{"key":"21","code":"TI","name":"Ticino"},"status":"Real"},{"key":"10166415","name":"la Stráda da Pizzögna","postalCode":"6574","locality":"Vira (Gambarogno)","commune":{"key":"5398","name":"Gambarogno","shortName":"Gambarogno"},"district":{"key":"2104","name":"Distretto di Locarno"},"canton":{"key":"21","code":"TI","name":"Ticino"},"status":"Real"},{"key":"10165085","name":"la Stráda d'Indéman","postalCode":"6574","locality":"Vira (Gambarogno)","commune":{"key":"5398","name":"Gambarogno","shortName":"Gambarogno"},"district":{"key":"2104","name":"Distretto di Locarno"},"canton":{"key":"21","code":"TI","name":"Ticino"},"status":"Real"},{"key":"10167848","name":"la Strécia da l'Asilo","postalCode":"6574","locality":"Vira (Gambarogno)","commune":{"key":"5398","name":"Gambarogno","shortName":"Gambarogno"},"district":{"key":"2104","name":"Distretto di Locarno"},"canton":{"key":"21","code":"TI","name":"Ticino"},"status":"Real"},{"key":"10166431","name":"la Strécia dal Oratòri","postalCode":"6574","locality":"Vira (Gambarogno)","commune":{"key":"5398","name":"Gambarogno","shortName":"Gambarogno"},"district":{"key":"2104","name":"Distretto di Locarno"},"canton":{"key":"21","code":"TI","name":"Ticino"},"status":"Real"},{"key":"10165455","name":"la Strécia dal Vin","postalCode":"6574","locality":"Vira (Gambarogno)","commune":{"key":"5398","name":"Gambarogno","shortName":"Gambarogno"},"district":{"key":"2104","name":"Distretto di Locarno"},"canton":{"key":"21","code":"TI","name":"Ticino"},"status":"Real"},{"key":"10167849","name":"la Strécia da Recavölt","postalCode":"6574","locality":"Vira (Gambarogno)","commune":{"key":"5398","name":"Gambarogno","shortName":"Gambarogno"},"district":{"key":"2104","name":"Distretto di Locarno"},"canton":{"key":"21","code":"TI","name":"Ticino"},"status":"Real"},{"key":"10166428","name":"la Strécia da Santa Maria Madaléna","postalCode":"6574","locality":"Vira (Gambarogno)","commune":{"key":"5398","name":"Gambarogno","shortName":"Gambarogno"},"district":{"key":"2104","name":"Distretto di Locarno"},"canton":{"key":"21","code":"TI","name":"Ticino"},"status":"Real"},{"key":"10192726","name":"la Strécia di Barbícia","postalCode":"6574","locality":"Vira (Gambarogno)","commune":{"key":"5398","name":"Gambarogno","shortName":"Gambarogno"},"district":{"key":"2104","name":"Distretto di Locarno"},"canton":{"key":"21","code":"TI","name":"Ticino"},"status":"Real"},{"key":"10192728","name":"La Strécia di Pedrinóla","postalCode":"6574","locality":"Vira (Gambarogno)","commune":{"key":"5398","name":"Gambarogno","shortName":"Gambarogno"},"district":{"key":"2104","name":"Distretto di Locarno"},"canton":{"key":"21","code":"TI","name":"Ticino"},"status":"Real"},{"key":"10167847","name":"la Strécia di Regazzítt","postalCode":"6574","locality":"Vira (Gambarogno)","commune":{"key":"5398","name":"Gambarogno","shortName":"Gambarogno"},"district":{"key":"2104","name":"Distretto di Locarno"},"canton":{"key":"21","code":"TI","name":"Ticino"},"status":"Real"},{"key":"10192727","name":"la Strécia di Técch","postalCode":"6574","locality":"Vira (Gambarogno)","commune":{"key":"5398","name":"Gambarogno","shortName":"Gambarogno"},"district":{"key":"2104","name":"Distretto di Locarno"},"canton":{"key":"21","code":"TI","name":"Ticino"},"status":"Real"},{"key":"10167846","name":"la Via di Cavédan","postalCode":"6574","locality":"Vira (Gambarogno)","commune":{"key":"5398","name":"Gambarogno","shortName":"Gambarogno"},"district":{"key":"2104","name":"Distretto di Locarno"},"canton":{"key":"21","code":"TI","name":"Ticino"},"status":"Real"},{"key":"10130263","name":"Monti di Gerra","postalCode":"6576","locality":"Gerra (Gambarogno)","commune":{"key":"5398","name":"Gambarogno","shortName":"Gambarogno"},"district":{"key":"2104","name":"Distretto di Locarno"},"canton":{"key":"21","code":"TI","name":"Ticino"},"status":"Real"},{"key":"10167831","name":"Pianásc","postalCode":"6574","locality":"Vira (Gambarogno)","commune":{"key":"5398","name":"Gambarogno","shortName":"Gambarogno"},"district":{"key":"2104","name":"Distretto di Locarno"},"canton":{"key":"21","code":"TI","name":"Ticino"},"status":"Real"},{"key":"10138410","name":"Piázza dala Fróo","postalCode":"6822","locality":"Arogno","commune":{"key":"5144","name":"Arogno","shortName":"Arogno"},"district":{"key":"2105","name":"Distretto di Lugano"},"canton":{"key":"21","code":"TI","name":"Ticino"},"status":"Real"},{"key":"10192723","name":"Piazza di Forn","postalCode":"6574","locality":"Vira (Gambarogno)","commune":{"key":"5398","name":"Gambarogno","shortName":"Gambarogno"},"district":{"key":"2104","name":"Distretto di Locarno"},"canton":{"key":"21","code":"TI","name":"Ticino"},"status":"Real"},{"key":"10192725","name":"Piazza di Sganzitt","postalCode":"6574","locality":"Vira (Gambarogno)","commune":{"key":"5398","name":"Gambarogno","shortName":"Gambarogno"},"district":{"key":"2104","name":"Distretto di Locarno"},"canton":{"key":"21","code":"TI","name":"Ticino"},"status":"Real"},{"key":"10126072","name":"Piazza Don G. Canevascini","postalCode":"6576","locality":"Gerra (Gambarogno)","commune":{"key":"5398","name":"Gambarogno","shortName":"Gambarogno"},"district":{"key":"2104","name":"Distretto di Locarno"},"canton":{"key":"21","code":"TI","name":"Ticino"},"status":"Real"},{"key":"10138413","name":"Piázza Gránda","postalCode":"6822","locality":"Arogno","commune":{"key":"5144","name":"Arogno","shortName":"Arogno"},"district":{"key":"2105","name":"Distretto di Lugano"},"canton":{"key":"21","code":"TI","name":"Ticino"},"status":"Real"},{"key":"10103478","name":"Piazza On. Giuseppe Galli","postalCode":"6576","locality":"Gerra (Gambarogno)","commune":{"key":"5398","name":"Gambarogno","shortName":"Gambarogno"},"district":{"key":"2104","name":"Distretto di Locarno"},"canton":{"key":"21","code":"TI","name":"Ticino"},"status":"Real"},{"key":"10089727","name":"Piázza San Ròcch","postalCode":"6822","locality":"Arogno","commune":{"key":"5144","name":"Arogno","shortName":"Arogno"},"district":{"key":"2105","name":"Distretto di Lugano"},"canton":{"key":"21","code":"TI","name":"Ticino"},"status":"Real"},{"key":"10138415","name":"Piázza Valécc","postalCode":"6822","locality":"Arogno","commune":{"key":"5144","name":"Arogno","shortName":"Arogno"},"district":{"key":"2105","name":"Distretto di Lugano"},"canton":{"key":"21","code":"TI","name":"Ticino"},"status":"Real"},{"key":"10089736","name":"Piázzeta di Medéia","postalCode":"6822","locality":"Arogno","commune":{"key":"5144","name":"Arogno","shortName":"Arogno"},"district":{"key":"2105","name":"Distretto di Lugano"},"canton":{"key":"21","code":"TI","name":"Ticino"},"status":"Real"},{"key":"10089737","name":"Piázzeta Sant'Antòni","postalCode":"6822","locality":"Arogno","commune":{"key":"5144","name":"Arogno","shortName":"Arogno"},"district":{"key":"2105","name":"Distretto di Lugano"},"canton":{"key":"21","code":"TI","name":"Ticino"},"status":"Real"},{"key":"10089738","name":"Pós al Tòrc","postalCode":"6822","locality":"Arogno","commune":{"key":"5144","name":"Arogno","shortName":"Arogno"},"district":{"key":"2105","name":"Distretto di Lugano"},"canton":{"key":"21","code":"TI","name":"Ticino"},"status":"Real"},{"key":"10195347","name":"Sentiero delle Cappelle","postalCode":"6576","locality":"Gerra (Gambarogno)","commune":{"key":"5398","name":"Gambarogno","shortName":"Gambarogno"},"district":{"key":"2104","name":"Distretto di Locarno"},"canton":{"key":"21","code":"TI","name":"Ticino"},"status":"Real"},{"key":"10137752","name":"Stráda da Calmarèla","postalCode":"6822","locality":"Arogno","commune":{"key":"5144","name":"Arogno","shortName":"Arogno"},"district":{"key":"2105","name":"Distretto di Lugano"},"canton":{"key":"21","code":"TI","name":"Ticino"},"status":"Real"},{"key":"10137753","name":"Stráda da Campánn","postalCode":"6822","locality":"Arogno","commune":{"key":"5144","name":"Arogno","shortName":"Arogno"},"district":{"key":"2105","name":"Distretto di Lugano"},"canton":{"key":"21","code":"TI","name":"Ticino"},"status":"Real"},{"key":"10137756","name":"Stráda da Cariròra","postalCode":"6822","locality":"Arogno","commune":{"key":"5144","name":"Arogno","shortName":"Arogno"},"district":{"key":"2105","name":"Distretto di Lugano"},"canton":{"key":"21","code":"TI","name":"Ticino"},"status":"Real"},{"key":"10138395","name":"Stráda da Devógg","postalCode":"6822","locality":"Arogno","commune":{"key":"5144","name":"Arogno","shortName":"Arogno"},"district":{"key":"2105","name":"Distretto di Lugano"},"canton":{"key":"21","code":"TI","name":"Ticino"},"status":"Real"},{"key":"10030748","name":"Stráda dala Baréta","postalCode":"6822","locality":"Arogno","commune":{"key":"5144","name":"Arogno","shortName":"Arogno"},"district":{"key":"2105","name":"Distretto di Lugano"},"canton":{"key":"21","code":"TI","name":"Ticino"},"status":"Real"},{"key":"10137745","name":"Stráda dala Bèrta","postalCode":"6822","locality":"Arogno","commune":{"key":"5144","name":"Arogno","shortName":"Arogno"},"district":{"key":"2105","name":"Distretto di Lugano"},"canton":{"key":"21","code":"TI","name":"Ticino"},"status":"Real"},{"key":"10138426","name":"Stráda dala Cruséta","postalCode":"6822","locality":"Arogno","commune":{"key":"5144","name":"Arogno","shortName":"Arogno"},"district":{"key":"2105","name":"Distretto di Lugano"},"canton":{"key":"21","code":"TI","name":"Ticino"},"status":"Real"},{"key":"10030757","name":"Stráda dala Fróo","postalCode":"6822","locality":"Arogno","commune":{"key":"5144","name":"Arogno","shortName":"Arogno"},"district":{"key":"2105","name":"Distretto di Lugano"},"canton":{"key":"21","code":"TI","name":"Ticino"},"status":"Real"},{"key":"10138394","name":"Stráda dala Funtána","postalCode":"6822","locality":"Arogno","commune":{"key":"5144","name":"Arogno","shortName":"Arogno"},"district":{"key":"2105","name":"Distretto di Lugano"},"canton":{"key":"21","code":"TI","name":"Ticino"},"status":"Real"},{"key":"10031053","name":"Stráda dala Gésa","postalCode":"6822","locality":"Arogno","commune":{"key":"5144","name":"Arogno","shortName":"Arogno"},"district":{"key":"2105","name":"Distretto di Lugano"},"canton":{"key":"21","code":"TI","name":"Ticino"},"status":"Real"},{"key":"10170182","name":"Stráda dala Vigna","postalCode":"6822","locality":"Arogno","commune":{"key":"5144","name":"Arogno","shortName":"Arogno"},"district":{"key":"2105","name":"Distretto di Lugano"},"canton":{"key":"21","code":"TI","name":"Ticino"},"status":"Real"},{"key":"10138406","name":"Stráda dal Pasquée","postalCode":"6822","locality":"Arogno","commune":{"key":"5144","name":"Arogno","shortName":"Arogno"},"district":{"key":"2105","name":"Distretto di Lugano"},"canton":{"key":"21","code":"TI","name":"Ticino"},"status":"Real"},{"key":"10138424","name":"Stráda dal Sass Gróss","postalCode":"6822","locality":"Arogno","commune":{"key":"5144","name":"Arogno","shortName":"Arogno"},"district":{"key":"2105","name":"Distretto di Lugano"},"canton":{"key":"21","code":"TI","name":"Ticino"},"status":"Real"},{"key":"10031052","name":"Stráda dal Valécc","postalCode":"6822","locality":"Arogno","commune":{"key":"5144","name":"Arogno","shortName":"Arogno"},"district":{"key":"2105","name":"Distretto di Lugano"},"canton":{"key":"21","code":"TI","name":"Ticino"},"status":"Real"},{"key":"10089747","name":"Stráda da Marògia","postalCode":"6822","locality":"Arogno","commune":{"key":"5144","name":"Arogno","shortName":"Arogno"},"district":{"key":"2105","name":"Distretto di Lugano"},"canton":{"key":"21","code":"TI","name":"Ticino"},"status":"Real"},{"key":"10181722","name":"Stráda da Pügèrna","postalCode":"6822","locality":"Arogno","commune":{"key":"5144","name":"Arogno","shortName":"Arogno"},"district":{"key":"2105","name":"Distretto di Lugano"},"canton":{"key":"21","code":"TI","name":"Ticino"},"status":"Real"},{"key":"10030743","name":"Stráda da Röv","postalCode":"6822","locality":"Arogno","commune":{"key":"5144","name":"Arogno","shortName":"Arogno"},"district":{"key":"2105","name":"Distretto di Lugano"},"canton":{"key":"21","code":"TI","name":"Ticino"},"status":"Real"},{"key":"10030758","name":"Stráda da Ruvèrs","postalCode":"6822","locality":"Arogno","commune":{"key":"5144","name":"Arogno","shortName":"Arogno"},"district":{"key":"2105","name":"Distretto di Lugano"},"canton":{"key":"21","code":"TI","name":"Ticino"},"status":"Real"},{"key":"10138429","name":"Stráda da Valmára","postalCode":"6822","locality":"Arogno","commune":{"key":"5144","name":"Arogno","shortName":"Arogno"},"district":{"key":"2105","name":"Distretto di Lugano"},"canton":{"key":"21","code":"TI","name":"Ticino"},"status":"Real"},{"key":"10138425","name":"Stráda da Vissín","postalCode":"6822","locality":"Arogno","commune":{"key":"5144","name":"Arogno","shortName":"Arogno"},"district":{"key":"2105","name":"Distretto di Lugano"},"canton":{"key":"21","code":"TI","name":"Ticino"},"status":"Real"},{"key":"10031054","name":"Stráda di Pian","postalCode":"6822","locality":"Arogno","commune":{"key":"5144","name":"Arogno","shortName":"Arogno"},"district":{"key":"2105","name":"Distretto di Lugano"},"canton":{"key":"21","code":"TI","name":"Ticino"},"status":"Real"},{"key":"10031055","name":"Stráda di Scöll","postalCode":"6822","locality":"Arogno","commune":{"key":"5144","name":"Arogno","shortName":"Arogno"},"district":{"key":"2105","name":"Distretto di Lugano"},"canton":{"key":"21","code":"TI","name":"Ticino"},"status":"Real"},{"key":"10031056","name":"Stráda Növa","postalCode":"6822","locality":"Arogno","commune":{"key":"5144","name":"Arogno","shortName":"Arogno"},"district":{"key":"2105","name":"Distretto di Lugano"},"canton":{"key":"21","code":"TI","name":"Ticino"},"status":"Real"},{"key":"10162587","name":"Stráda Végia","postalCode":"6822","locality":"Arogno","commune":{"key":"5144","name":"Arogno","shortName":"Arogno"},"district":{"key":"2105","name":"Distretto di Lugano"},"canton":{"key":"21","code":"TI","name":"Ticino"},"status":"Real"},{"key":"10138427","name":"Strécia da Bissún","postalCode":"6822","locality":"Arogno","commune":{"key":"5144","name":"Arogno","shortName":"Arogno"},"district":{"key":"2105","name":"Distretto di Lugano"},"canton":{"key":"21","code":"TI","name":"Ticino"},"status":"Real"},{"key":"10138428","name":"Strécia dala Pòsta","postalCode":"6822","locality":"Arogno","commune":{"key":"5144","name":"Arogno","shortName":"Arogno"},"district":{"key":"2105","name":"Distretto di Lugano"},"canton":{"key":"21","code":"TI","name":"Ticino"},"status":"Real"},{"key":"10031057","name":"Strécia dal Cassinún","postalCode":"6822","locality":"Arogno","commune":{"key":"5144","name":"Arogno","shortName":"Arogno"},"district":{"key":"2105","name":"Distretto di Lugano"},"canton":{"key":"21","code":"TI","name":"Ticino"},"status":"Real"},{"key":"10030813","name":"Strécia dal Ciòs","postalCode":"6822","locality":"Arogno","commune":{"key":"5144","name":"Arogno","shortName":"Arogno"},"district":{"key":"2105","name":"Distretto di Lugano"},"canton":{"key":"21","code":"TI","name":"Ticino"},"status":"Real"},{"key":"10182807","name":"Strécia dal Cópp","postalCode":"6822","locality":"Arogno","commune":{"key":"5144","name":"Arogno","shortName":"Arogno"},"district":{"key":"2105","name":"Distretto di Lugano"},"canton":{"key":"21","code":"TI","name":"Ticino"},"status":"Real"},{"key":"10182809","name":"Strécia dal Ghétt","postalCode":"6822","locality":"Arogno","commune":{"key":"5144","name":"Arogno","shortName":"Arogno"},"district":{"key":"2105","name":"Distretto di Lugano"},"canton":{"key":"21","code":"TI","name":"Ticino"},"status":"Real"},{"key":"10182826","name":"Strécia dal Grópp","postalCode":"6822","locality":"Arogno","commune":{"key":"5144","name":"Arogno","shortName":"Arogno"},"district":{"key":"2105","name":"Distretto di Lugano"},"canton":{"key":"21","code":"TI","name":"Ticino"},"status":"Real"},{"key":"10109973","name":"Via ai Monti","postalCode":"6576","locality":"Gerra (Gambarogno)","commune":{"key":"5398","name":"Gambarogno","shortName":"Gambarogno"},"district":{"key":"2104","name":"Distretto di Locarno"},"canton":{"key":"21","code":"TI","name":"Ticino"},"status":"Real"},{"key":"10244625","name":"Via alla Chiesa","postalCode":"6576","locality":"Gerra (Gambarogno)","commune":{"key":"5398","name":"Gambarogno","shortName":"Gambarogno"},"district":{"key":"2104","name":"Distretto di Locarno"},"canton":{"key":"21","code":"TI","name":"Ticino"},"status":"Real"},{"key":"10103479","name":"Via alla Riva","postalCode":"6576","locality":"Gerra (Gambarogno)","commune":{"key":"5398","name":"Gambarogno","shortName":"Gambarogno"},"district":{"key":"2104","name":"Distretto di Locarno"},"canton":{"key":"21","code":"TI","name":"Ticino"},"status":"Real"},{"key":"10145664","name":"Via al Ronco","postalCode":"6574","locality":"Vira (Gambarogno)","commune":{"key":"5398","name":"Gambarogno","shortName":"Gambarogno"},"district":{"key":"2104","name":"Distretto di Locarno"},"canton":{"key":"21","code":"TI","name":"Ticino"},"status":"Real"},{"key":"10130269","name":"Via Cantonale","postalCode":"6574","locality":"Vira (Gambarogno)","commune":{"key":"5398","name":"Gambarogno","shortName":"Gambarogno"},"district":{"key":"2104","name":"Distretto di Locarno"},"canton":{"key":"21","code":"TI","name":"Ticino"},"status":"Real"},{"key":"10130269","name":"Via Cantonale","postalCode":"6576","locality":"Gerra (Gambarogno)","commune":{"key":"5398","name":"Gambarogno","shortName":"Gambarogno"},"district":{"key":"2104","name":"Distretto di Locarno"},"canton":{"key":"21","code":"TI","name":"Ticino"},"status":"Real"},{"key":"10126067","name":"Via Cheventino","postalCode":"6576","locality":"Gerra (Gambarogno)","commune":{"key":"5398","name":"Gambarogno","shortName":"Gambarogno"},"district":{"key":"2104","name":"Distretto di Locarno"},"canton":{"key":"21","code":"TI","name":"Ticino"},"status":"Real"},{"key":"10130268","name":"Via Grüm","postalCode":"6576","locality":"Gerra (Gambarogno)","commune":{"key":"5398","name":"Gambarogno","shortName":"Gambarogno"},"district":{"key":"2104","name":"Distretto di Locarno"},"canton":{"key":"21","code":"TI","name":"Ticino"},"status":"Real"},{"key":"10125755","name":"Via Maggiolo","postalCode":"6576","locality":"Gerra (Gambarogno)","commune":{"key":"5398","name":"Gambarogno","shortName":"Gambarogno"},"district":{"key":"2104","name":"Distretto di Locarno"},"canton":{"key":"21","code":"TI","name":"Ticino"},"status":"Real"},{"key":"10103476","name":"Via On. Massimo Pini","postalCode":"6576","locality":"Gerra (Gambarogno)","commune":{"key":"5398","name":"Gambarogno","shortName":"Gambarogno"},"district":{"key":"2104","name":"Distretto di Locarno"},"canton":{"key":"21","code":"TI","name":"Ticino"},"status":"Real"},{"key":"10138405","name":"Via Parone","postalCode":"6822","locality":"Arogno","commune":{"key":"5144","name":"Arogno","shortName":"Arogno"},"district":{"key":"2105","name":"Distretto di Lugano"},"canton":{"key":"21","code":"TI","name":"Ticino"},"status":"Real"},{"key":"10159500","name":"Via Ronco","postalCode":"6576","locality":"Gerra (Gambarogno)","commune":{"key":"5398","name":"Gambarogno","shortName":"Gambarogno"},"district":{"key":"2104","name":"Distretto di Locarno"},"canton":{"key":"21","code":"TI","name":"Ticino"},"status":"Real"},{"key":"10103474","name":"Via Scimiana di Sopra","postalCode":"6576","locality":"Gerra (Gambarogno)","commune":{"key":"5398","name":"Gambarogno","shortName":"Gambarogno"},"district":{"key":"2104","name":"Distretto di Locarno"},"canton":{"key":"21","code":"TI","name":"Ticino"},"status":"Real"},{"key":"10103475","name":"Via Scimiana Lago","postalCode":"6576","locality":"Gerra (Gambarogno)","commune":{"key":"5398","name":"Gambarogno","shortName":"Gambarogno"},"district":{"key":"2104","name":"Distretto di Locarno"},"canton":{"key":"21","code":"TI","name":"Ticino"},"status":"Real"},{"key":"10103497","name":"Via Serafino Balestra","postalCode":"6576","locality":"Gerra (Gambarogno)","commune":{"key":"5398","name":"Gambarogno","shortName":"Gambarogno"},"district":{"key":"2104","name":"Distretto di Locarno"},"canton":{"key":"21","code":"TI","name":"Ticino"},"status":"Real"},]