[{"key":"10018385","name":"Ausser-Birchbühl","postalCode":"6156","locality":"Luthern","commune":{"key":"1135","name":"Luthern","shortName":"Luthern"},"district":{"key":"315","name":"Wahlkreis Willisau"},"canton":{"key":"3","code":"LU","name":"Luzern"},"status":"Real"},{"key":"10053227","name":"Ausser-Sagen","postalCode":"6156","locality":"Luthern","commune":{"key":"1135","name":"Luthern","shortName":"Luthern"},"district":{"key":"315","name":"Wahlkreis Willisau"},"canton":{"key":"3","code":"LU","name":"Luzern"},"status":"Real"},{"key":"10247068","name":"Badbrünnli","postalCode":"6156","locality":"Luthern Bad","commune":{"key":"1135","name":"Luthern","shortName":"Luthern"},"district":{"key":"315","name":"Wahlkreis Willisau"},"canton":{"key":"3","code":"LU","name":"Luzern"},"status":"Real"},{"key":"10052538","name":"Badhübeli","postalCode":"6156","locality":"Luthern Bad","commune":{"key":"1135","name":"Luthern","shortName":"Luthern"},"district":{"key":"315","name":"Wahlkreis Willisau"},"canton":{"key":"3","code":"LU","name":"Luzern"},"status":"Real"},{"key":"10082286","name":"Badneuhaus","postalCode":"6156","locality":"Luthern Bad","commune":{"key":"1135","name":"Luthern","shortName":"Luthern"},"district":{"key":"315","name":"Wahlkreis Willisau"},"canton":{"key":"3","code":"LU","name":"Luzern"},"status":"Real"},{"key":"10209227","name":"Badrain","postalCode":"6156","locality":"Luthern Bad","commune":{"key":"1135","name":"Luthern","shortName":"Luthern"},"district":{"key":"315","name":"Wahlkreis Willisau"},"canton":{"key":"3","code":"LU","name":"Luzern"},"status":"Real"},{"key":"10114879","name":"Baumgärtli","postalCode":"6156","locality":"Luthern","commune":{"key":"1135","name":"Luthern","shortName":"Luthern"},"district":{"key":"315","name":"Wahlkreis Willisau"},"canton":{"key":"3","code":"LU","name":"Luzern"},"status":"Real"},{"key":"10063495","name":"Birbaum","postalCode":"6156","locality":"Luthern","commune":{"key":"1135","name":"Luthern","shortName":"Luthern"},"district":{"key":"315","name":"Wahlkreis Willisau"},"canton":{"key":"3","code":"LU","name":"Luzern"},"status":"Real"},{"key":"10208702","name":"Birke","postalCode":"6156","locality":"Luthern Bad","commune":{"key":"1135","name":"Luthern","shortName":"Luthern"},"district":{"key":"315","name":"Wahlkreis Willisau"},"canton":{"key":"3","code":"LU","name":"Luzern"},"status":"Real"},{"key":"10181228","name":"Bodenenzi","postalCode":"6156","locality":"Luthern Bad","commune":{"key":"1135","name":"Luthern","shortName":"Luthern"},"district":{"key":"315","name":"Wahlkreis Willisau"},"canton":{"key":"3","code":"LU","name":"Luzern"},"status":"Real"},{"key":"10052539","name":"Brüschknubel","postalCode":"6156","locality":"Luthern Bad","commune":{"key":"1135","name":"Luthern","shortName":"Luthern"},"district":{"key":"315","name":"Wahlkreis Willisau"},"canton":{"key":"3","code":"LU","name":"Luzern"},"status":"Real"},{"key":"10063496","name":"Buchwald","postalCode":"6156","locality":"Luthern","commune":{"key":"1135","name":"Luthern","shortName":"Luthern"},"district":{"key":"315","name":"Wahlkreis Willisau"},"canton":{"key":"3","code":"LU","name":"Luzern"},"status":"Real"},{"key":"10147356","name":"Buchwald","postalCode":"6156","locality":"Luthern","commune":{"key":"1135","name":"Luthern","shortName":"Luthern"},"district":{"key":"315","name":"Wahlkreis Willisau"},"canton":{"key":"3","code":"LU","name":"Luzern"},"status":"Real"},{"key":"10208999","name":"Chrutzi","postalCode":"6156","locality":"Luthern Bad","commune":{"key":"1135","name":"Luthern","shortName":"Luthern"},"district":{"key":"315","name":"Wahlkreis Willisau"},"canton":{"key":"3","code":"LU","name":"Luzern"},"status":"Real"},{"key":"10209000","name":"Dreilindenplatz","postalCode":"6156","locality":"Luthern","commune":{"key":"1135","name":"Luthern","shortName":"Luthern"},"district":{"key":"315","name":"Wahlkreis Willisau"},"canton":{"key":"3","code":"LU","name":"Luzern"},"status":"Real"},{"key":"10209000","name":"Dreilindenplatz","postalCode":"6156","locality":"Luthern Bad","commune":{"key":"1135","name":"Luthern","shortName":"Luthern"},"district":{"key":"315","name":"Wahlkreis Willisau"},"canton":{"key":"3","code":"LU","name":"Luzern"},"status":"Real"},{"key":"10171140","name":"Enziblick","postalCode":"6156","locality":"Luthern Bad","commune":{"key":"1135","name":"Luthern","shortName":"Luthern"},"district":{"key":"315","name":"Wahlkreis Willisau"},"canton":{"key":"3","code":"LU","name":"Luzern"},"status":"Real"},{"key":"10116566","name":"Enzischür","postalCode":"6156","locality":"Luthern Bad","commune":{"key":"1135","name":"Luthern","shortName":"Luthern"},"district":{"key":"315","name":"Wahlkreis Willisau"},"canton":{"key":"3","code":"LU","name":"Luzern"},"status":"Real"},{"key":"10016545","name":"Farnegg","postalCode":"6156","locality":"Luthern","commune":{"key":"1135","name":"Luthern","shortName":"Luthern"},"district":{"key":"315","name":"Wahlkreis Willisau"},"canton":{"key":"3","code":"LU","name":"Luzern"},"status":"Real"},{"key":"10020919","name":"Ferchhüsli","postalCode":"6156","locality":"Luthern Bad","commune":{"key":"1135","name":"Luthern","shortName":"Luthern"},"district":{"key":"315","name":"Wahlkreis Willisau"},"canton":{"key":"3","code":"LU","name":"Luzern"},"status":"Real"},{"key":"10167723","name":"Fluehüsli","postalCode":"6156","locality":"Luthern","commune":{"key":"1135","name":"Luthern","shortName":"Luthern"},"district":{"key":"315","name":"Wahlkreis Willisau"},"canton":{"key":"3","code":"LU","name":"Luzern"},"status":"Real"},{"key":"10241920","name":"Fluh","postalCode":"6156","locality":"Luthern","commune":{"key":"1135","name":"Luthern","shortName":"Luthern"},"district":{"key":"315","name":"Wahlkreis Willisau"},"canton":{"key":"3","code":"LU","name":"Luzern"},"status":"Real"},{"key":"10206386","name":"Föhre","postalCode":"6156","locality":"Luthern Bad","commune":{"key":"1135","name":"Luthern","shortName":"Luthern"},"district":{"key":"315","name":"Wahlkreis Willisau"},"canton":{"key":"3","code":"LU","name":"Luzern"},"status":"Real"},{"key":"10016546","name":"Gass","postalCode":"6156","locality":"Luthern","commune":{"key":"1135","name":"Luthern","shortName":"Luthern"},"district":{"key":"315","name":"Wahlkreis Willisau"},"canton":{"key":"3","code":"LU","name":"Luzern"},"status":"Real"},{"key":"10083202","name":"Geissgraben","postalCode":"6156","locality":"Luthern","commune":{"key":"1135","name":"Luthern","shortName":"Luthern"},"district":{"key":"315","name":"Wahlkreis Willisau"},"canton":{"key":"3","code":"LU","name":"Luzern"},"status":"Real"},{"key":"10016547","name":"Gerbe","postalCode":"6156","locality":"Luthern","commune":{"key":"1135","name":"Luthern","shortName":"Luthern"},"district":{"key":"315","name":"Wahlkreis Willisau"},"canton":{"key":"3","code":"LU","name":"Luzern"},"status":"Real"},{"key":"10082274","name":"Gernetalp","postalCode":"6156","locality":"Luthern","commune":{"key":"1135","name":"Luthern","shortName":"Luthern"},"district":{"key":"315","name":"Wahlkreis Willisau"},"canton":{"key":"3","code":"LU","name":"Luzern"},"status":"Real"},{"key":"10053231","name":"Gishubel","postalCode":"6156","locality":"Luthern","commune":{"key":"1135","name":"Luthern","shortName":"Luthern"},"district":{"key":"315","name":"Wahlkreis Willisau"},"canton":{"key":"3","code":"LU","name":"Luzern"},"status":"Real"},{"key":"10117957","name":"Grien","postalCode":"6156","locality":"Luthern Bad","commune":{"key":"1135","name":"Luthern","shortName":"Luthern"},"district":{"key":"315","name":"Wahlkreis Willisau"},"canton":{"key":"3","code":"LU","name":"Luzern"},"status":"Real"},{"key":"10186691","name":"Gross-Scheidegg","postalCode":"6156","locality":"Luthern Bad","commune":{"key":"1135","name":"Luthern","shortName":"Luthern"},"district":{"key":"315","name":"Wahlkreis Willisau"},"canton":{"key":"3","code":"LU","name":"Luzern"},"status":"Real"},{"key":"10103300","name":"Grund","postalCode":"6156","locality":"Luthern","commune":{"key":"1135","name":"Luthern","shortName":"Luthern"},"district":{"key":"315","name":"Wahlkreis Willisau"},"canton":{"key":"3","code":"LU","name":"Luzern"},"status":"Real"},{"key":"10117956","name":"Gschwader","postalCode":"6156","locality":"Luthern","commune":{"key":"1135","name":"Luthern","shortName":"Luthern"},"district":{"key":"315","name":"Wahlkreis Willisau"},"canton":{"key":"3","code":"LU","name":"Luzern"},"status":"Real"},{"key":"10016548","name":"Guggi","postalCode":"6156","locality":"Luthern","commune":{"key":"1135","name":"Luthern","shortName":"Luthern"},"district":{"key":"315","name":"Wahlkreis Willisau"},"canton":{"key":"3","code":"LU","name":"Luzern"},"status":"Real"},{"key":"10209022","name":"Härlihaus","postalCode":"6156","locality":"Luthern","commune":{"key":"1135","name":"Luthern","shortName":"Luthern"},"district":{"key":"315","name":"Wahlkreis Willisau"},"canton":{"key":"3","code":"LU","name":"Luzern"},"status":"Real"},{"key":"10247074","name":"Herenschürli","postalCode":"6156","locality":"Luthern","commune":{"key":"1135","name":"Luthern","shortName":"Luthern"},"district":{"key":"315","name":"Wahlkreis Willisau"},"canton":{"key":"3","code":"LU","name":"Luzern"},"status":"Real"},{"key":"10113816","name":"Heuberg","postalCode":"6156","locality":"Luthern","commune":{"key":"1135","name":"Luthern","shortName":"Luthern"},"district":{"key":"315","name":"Wahlkreis Willisau"},"canton":{"key":"3","code":"LU","name":"Luzern"},"status":"Real"},{"key":"10052540","name":"Hinter-Auern","postalCode":"6156","locality":"Luthern Bad","commune":{"key":"1135","name":"Luthern","shortName":"Luthern"},"district":{"key":"315","name":"Wahlkreis Willisau"},"canton":{"key":"3","code":"LU","name":"Luzern"},"status":"Real"},{"key":"10020920","name":"Hinter-Enzi","postalCode":"6156","locality":"Luthern Bad","commune":{"key":"1135","name":"Luthern","shortName":"Luthern"},"district":{"key":"315","name":"Wahlkreis Willisau"},"canton":{"key":"3","code":"LU","name":"Luzern"},"status":"Real"},{"key":"10020921","name":"Hinter-Ey","postalCode":"6156","locality":"Luthern Bad","commune":{"key":"1135","name":"Luthern","shortName":"Luthern"},"district":{"key":"315","name":"Wahlkreis Willisau"},"canton":{"key":"3","code":"LU","name":"Luzern"},"status":"Real"},{"key":"10016550","name":"Hinter-Gernet","postalCode":"6156","locality":"Luthern","commune":{"key":"1135","name":"Luthern","shortName":"Luthern"},"district":{"key":"315","name":"Wahlkreis Willisau"},"canton":{"key":"3","code":"LU","name":"Luzern"},"status":"Real"},{"key":"10186524","name":"Hinter-Hurtgraben","postalCode":"6156","locality":"Luthern Bad","commune":{"key":"1135","name":"Luthern","shortName":"Luthern"},"district":{"key":"315","name":"Wahlkreis Willisau"},"canton":{"key":"3","code":"LU","name":"Luzern"},"status":"Real"},{"key":"10247071","name":"Hinter-Scheidegg","postalCode":"6156","locality":"Luthern Bad","commune":{"key":"1135","name":"Luthern","shortName":"Luthern"},"district":{"key":"315","name":"Wahlkreis Willisau"},"canton":{"key":"3","code":"LU","name":"Luzern"},"status":"Real"},{"key":"10016552","name":"Hinter-Wallenbach","postalCode":"6156","locality":"Luthern","commune":{"key":"1135","name":"Luthern","shortName":"Luthern"},"district":{"key":"315","name":"Wahlkreis Willisau"},"canton":{"key":"3","code":"LU","name":"Luzern"},"status":"Real"},{"key":"10113812","name":"Hinter-Wieden","postalCode":"6156","locality":"Luthern","commune":{"key":"1135","name":"Luthern","shortName":"Luthern"},"district":{"key":"315","name":"Wahlkreis Willisau"},"canton":{"key":"3","code":"LU","name":"Luzern"},"status":"Real"},{"key":"10170116","name":"Hinter-Wilmisbach","postalCode":"6156","locality":"Luthern","commune":{"key":"1135","name":"Luthern","shortName":"Luthern"},"district":{"key":"315","name":"Wahlkreis Willisau"},"canton":{"key":"3","code":"LU","name":"Luzern"},"status":"Real"},{"key":"10209003","name":"Hirsenegg","postalCode":"6156","locality":"Luthern","commune":{"key":"1135","name":"Luthern","shortName":"Luthern"},"district":{"key":"315","name":"Wahlkreis Willisau"},"canton":{"key":"3","code":"LU","name":"Luzern"},"status":"Real"},{"key":"10209003","name":"Hirsenegg","postalCode":"6156","locality":"Luthern Bad","commune":{"key":"1135","name":"Luthern","shortName":"Luthern"},"district":{"key":"315","name":"Wahlkreis Willisau"},"canton":{"key":"3","code":"LU","name":"Luzern"},"status":"Real"},{"key":"10209228","name":"Hochbrügg","postalCode":"6156","locality":"Luthern","commune":{"key":"1135","name":"Luthern","shortName":"Luthern"},"district":{"key":"315","name":"Wahlkreis Willisau"},"canton":{"key":"3","code":"LU","name":"Luzern"},"status":"Real"},{"key":"10209012","name":"Hofmatt","postalCode":"6156","locality":"Luthern","commune":{"key":"1135","name":"Luthern","shortName":"Luthern"},"district":{"key":"315","name":"Wahlkreis Willisau"},"canton":{"key":"3","code":"LU","name":"Luzern"},"status":"Real"},{"key":"10116708","name":"Humbelweidli","postalCode":"6156","locality":"Luthern Bad","commune":{"key":"1135","name":"Luthern","shortName":"Luthern"},"district":{"key":"315","name":"Wahlkreis Willisau"},"canton":{"key":"3","code":"LU","name":"Luzern"},"status":"Real"},{"key":"10170118","name":"Inner-Birchbühl","postalCode":"6156","locality":"Luthern","commune":{"key":"1135","name":"Luthern","shortName":"Luthern"},"district":{"key":"315","name":"Wahlkreis Willisau"},"canton":{"key":"3","code":"LU","name":"Luzern"},"status":"Real"},{"key":"10113813","name":"Innermoos","postalCode":"6156","locality":"Luthern","commune":{"key":"1135","name":"Luthern","shortName":"Luthern"},"district":{"key":"315","name":"Wahlkreis Willisau"},"canton":{"key":"3","code":"LU","name":"Luzern"},"status":"Real"},{"key":"10016557","name":"Inner-Sagen","postalCode":"6156","locality":"Luthern","commune":{"key":"1135","name":"Luthern","shortName":"Luthern"},"district":{"key":"315","name":"Wahlkreis Willisau"},"canton":{"key":"3","code":"LU","name":"Luzern"},"status":"Real"},{"key":"10016558","name":"Karrberg","postalCode":"6156","locality":"Luthern","commune":{"key":"1135","name":"Luthern","shortName":"Luthern"},"district":{"key":"315","name":"Wahlkreis Willisau"},"canton":{"key":"3","code":"LU","name":"Luzern"},"status":"Real"},{"key":"10131667","name":"Karrberg","postalCode":"6156","locality":"Luthern","commune":{"key":"1135","name":"Luthern","shortName":"Luthern"},"district":{"key":"315","name":"Wahlkreis Willisau"},"canton":{"key":"3","code":"LU","name":"Luzern"},"status":"Real"},{"key":"10020922","name":"Klostermatte","postalCode":"6156","locality":"Luthern Bad","commune":{"key":"1135","name":"Luthern","shortName":"Luthern"},"district":{"key":"315","name":"Wahlkreis Willisau"},"canton":{"key":"3","code":"LU","name":"Luzern"},"status":"Real"},{"key":"10063468","name":"Kreuzstiegen","postalCode":"6156","locality":"Luthern","commune":{"key":"1135","name":"Luthern","shortName":"Luthern"},"district":{"key":"315","name":"Wahlkreis Willisau"},"canton":{"key":"3","code":"LU","name":"Luzern"},"status":"Real"},{"key":"10209023","name":"Kreuzstiegenstrasse","postalCode":"6156","locality":"Luthern","commune":{"key":"1135","name":"Luthern","shortName":"Luthern"},"district":{"key":"315","name":"Wahlkreis Willisau"},"canton":{"key":"3","code":"LU","name":"Luzern"},"status":"Real"},{"key":"10187339","name":"Längegg","postalCode":"6156","locality":"Luthern Bad","commune":{"key":"1135","name":"Luthern","shortName":"Luthern"},"district":{"key":"315","name":"Wahlkreis Willisau"},"canton":{"key":"3","code":"LU","name":"Luzern"},"status":"Real"},{"key":"10209004","name":"Längenbach","postalCode":"6156","locality":"Luthern Bad","commune":{"key":"1135","name":"Luthern","shortName":"Luthern"},"district":{"key":"315","name":"Wahlkreis Willisau"},"canton":{"key":"3","code":"LU","name":"Luzern"},"status":"Real"},{"key":"10052542","name":"Längenbachhüsli","postalCode":"6156","locality":"Luthern Bad","commune":{"key":"1135","name":"Luthern","shortName":"Luthern"},"district":{"key":"315","name":"Wahlkreis Willisau"},"canton":{"key":"3","code":"LU","name":"Luzern"},"status":"Real"},{"key":"10209024","name":"Längmatt","postalCode":"6156","locality":"Luthern","commune":{"key":"1135","name":"Luthern","shortName":"Luthern"},"district":{"key":"315","name":"Wahlkreis Willisau"},"canton":{"key":"3","code":"LU","name":"Luzern"},"status":"Real"},{"key":"10149300","name":"Lindenstöckli","postalCode":"6156","locality":"Luthern Bad","commune":{"key":"1135","name":"Luthern","shortName":"Luthern"},"district":{"key":"315","name":"Wahlkreis Willisau"},"canton":{"key":"3","code":"LU","name":"Luzern"},"status":"Real"},{"key":"10116565","name":"Luegisdorf","postalCode":"6156","locality":"Luthern","commune":{"key":"1135","name":"Luthern","shortName":"Luthern"},"district":{"key":"315","name":"Wahlkreis Willisau"},"canton":{"key":"3","code":"LU","name":"Luzern"},"status":"Real"},{"key":"10131910","name":"Luthermatt","postalCode":"6156","locality":"Luthern","commune":{"key":"1135","name":"Luthern","shortName":"Luthern"},"district":{"key":"315","name":"Wahlkreis Willisau"},"canton":{"key":"3","code":"LU","name":"Luzern"},"status":"Real"},{"key":"10247058","name":"Luthermattegg","postalCode":"6156","locality":"Luthern","commune":{"key":"1135","name":"Luthern","shortName":"Luthern"},"district":{"key":"315","name":"Wahlkreis Willisau"},"canton":{"key":"3","code":"LU","name":"Luzern"},"status":"Real"},{"key":"10209229","name":"Luthermattrain","postalCode":"6156","locality":"Luthern","commune":{"key":"1135","name":"Luthern","shortName":"Luthern"},"district":{"key":"315","name":"Wahlkreis Willisau"},"canton":{"key":"3","code":"LU","name":"Luzern"},"status":"Real"},{"key":"10209005","name":"Luthermattstrasse","postalCode":"6156","locality":"Luthern","commune":{"key":"1135","name":"Luthern","shortName":"Luthern"},"district":{"key":"315","name":"Wahlkreis Willisau"},"canton":{"key":"3","code":"LU","name":"Luzern"},"status":"Real"},{"key":"10209013","name":"Mittler-Birchbühl","postalCode":"6156","locality":"Luthern","commune":{"key":"1135","name":"Luthern","shortName":"Luthern"},"district":{"key":"315","name":"Wahlkreis Willisau"},"canton":{"key":"3","code":"LU","name":"Luzern"},"status":"Real"},{"key":"10113817","name":"Mittler-Ey","postalCode":"6156","locality":"Luthern Bad","commune":{"key":"1135","name":"Luthern","shortName":"Luthern"},"district":{"key":"315","name":"Wahlkreis Willisau"},"canton":{"key":"3","code":"LU","name":"Luzern"},"status":"Real"},{"key":"10063508","name":"Mittler-Gernet","postalCode":"6156","locality":"Luthern","commune":{"key":"1135","name":"Luthern","shortName":"Luthern"},"district":{"key":"315","name":"Wahlkreis Willisau"},"canton":{"key":"3","code":"LU","name":"Luzern"},"status":"Real"},{"key":"10020923","name":"Mittler-Humbel","postalCode":"6156","locality":"Luthern Bad","commune":{"key":"1135","name":"Luthern","shortName":"Luthern"},"district":{"key":"315","name":"Wahlkreis Willisau"},"canton":{"key":"3","code":"LU","name":"Luzern"},"status":"Real"},{"key":"10082287","name":"Mittler-Hurtgraben","postalCode":"6156","locality":"Luthern Bad","commune":{"key":"1135","name":"Luthern","shortName":"Luthern"},"district":{"key":"315","name":"Wahlkreis Willisau"},"canton":{"key":"3","code":"LU","name":"Luzern"},"status":"Real"},{"key":"10016562","name":"Mittler-Wallenbach","postalCode":"6156","locality":"Luthern","commune":{"key":"1135","name":"Luthern","shortName":"Luthern"},"district":{"key":"315","name":"Wahlkreis Willisau"},"canton":{"key":"3","code":"LU","name":"Luzern"},"status":"Real"},{"key":"10063509","name":"Moosmatt","postalCode":"6156","locality":"Luthern","commune":{"key":"1135","name":"Luthern","shortName":"Luthern"},"district":{"key":"315","name":"Wahlkreis Willisau"},"canton":{"key":"3","code":"LU","name":"Luzern"},"status":"Real"},{"key":"10016565","name":"Mühle","postalCode":"6156","locality":"Luthern","commune":{"key":"1135","name":"Luthern","shortName":"Luthern"},"district":{"key":"315","name":"Wahlkreis Willisau"},"canton":{"key":"3","code":"LU","name":"Luzern"},"status":"Real"},{"key":"10258982","name":"Mühlebühlblick","postalCode":"6156","locality":"Luthern Bad","commune":{"key":"1135","name":"Luthern","shortName":"Luthern"},"district":{"key":"315","name":"Wahlkreis Willisau"},"canton":{"key":"3","code":"LU","name":"Luzern"},"status":"Real"},{"key":"10114378","name":"Mühlebühlhüsli","postalCode":"6156","locality":"Luthern Bad","commune":{"key":"1135","name":"Luthern","shortName":"Luthern"},"district":{"key":"315","name":"Wahlkreis Willisau"},"canton":{"key":"3","code":"LU","name":"Luzern"},"status":"Real"},{"key":"10247073","name":"Müttenbühl","postalCode":"6156","locality":"Luthern","commune":{"key":"1135","name":"Luthern","shortName":"Luthern"},"district":{"key":"315","name":"Wahlkreis Willisau"},"canton":{"key":"3","code":"LU","name":"Luzern"},"status":"Real"},{"key":"10171139","name":"Napfblick","postalCode":"6156","locality":"Luthern Bad","commune":{"key":"1135","name":"Luthern","shortName":"Luthern"},"district":{"key":"315","name":"Wahlkreis Willisau"},"canton":{"key":"3","code":"LU","name":"Luzern"},"status":"Real"},{"key":"10082279","name":"Nebikerweidli","postalCode":"6156","locality":"Luthern","commune":{"key":"1135","name":"Luthern","shortName":"Luthern"},"district":{"key":"315","name":"Wahlkreis Willisau"},"canton":{"key":"3","code":"LU","name":"Luzern"},"status":"Real"},{"key":"10120500","name":"Nesslisboden","postalCode":"6156","locality":"Luthern","commune":{"key":"1135","name":"Luthern","shortName":"Luthern"},"district":{"key":"315","name":"Wahlkreis Willisau"},"canton":{"key":"3","code":"LU","name":"Luzern"},"status":"Real"},{"key":"10169723","name":"Ober-Alpetli","postalCode":"6156","locality":"Luthern Bad","commune":{"key":"1135","name":"Luthern","shortName":"Luthern"},"district":{"key":"315","name":"Wahlkreis Willisau"},"canton":{"key":"3","code":"LU","name":"Luzern"},"status":"Real"},{"key":"10168274","name":"Ober-Badegg","postalCode":"6156","locality":"Luthern Bad","commune":{"key":"1135","name":"Luthern","shortName":"Luthern"},"district":{"key":"315","name":"Wahlkreis Willisau"},"canton":{"key":"3","code":"LU","name":"Luzern"},"status":"Real"},{"key":"10209025","name":"Oberdorf","postalCode":"6156","locality":"Luthern","commune":{"key":"1135","name":"Luthern","shortName":"Luthern"},"district":{"key":"315","name":"Wahlkreis Willisau"},"canton":{"key":"3","code":"LU","name":"Luzern"},"status":"Real"},{"key":"10063511","name":"Ober-Humbel","postalCode":"6156","locality":"Luthern Bad","commune":{"key":"1135","name":"Luthern","shortName":"Luthern"},"district":{"key":"315","name":"Wahlkreis Willisau"},"canton":{"key":"3","code":"LU","name":"Luzern"},"status":"Real"},{"key":"10209230","name":"Ober-Hurtgraben","postalCode":"6156","locality":"Luthern Bad","commune":{"key":"1135","name":"Luthern","shortName":"Luthern"},"district":{"key":"315","name":"Wahlkreis Willisau"},"canton":{"key":"3","code":"LU","name":"Luzern"},"status":"Real"},{"key":"10020924","name":"Ober-Niespel","postalCode":"6156","locality":"Luthern Bad","commune":{"key":"1135","name":"Luthern","shortName":"Luthern"},"district":{"key":"315","name":"Wahlkreis Willisau"},"canton":{"key":"3","code":"LU","name":"Luzern"},"status":"Real"},{"key":"10103302","name":"Ober-Risi","postalCode":"6156","locality":"Luthern","commune":{"key":"1135","name":"Luthern","shortName":"Luthern"},"district":{"key":"315","name":"Wahlkreis Willisau"},"canton":{"key":"3","code":"LU","name":"Luzern"},"status":"Real"},{"key":"10020925","name":"Ober-Scheidegg","postalCode":"6156","locality":"Luthern Bad","commune":{"key":"1135","name":"Luthern","shortName":"Luthern"},"district":{"key":"315","name":"Wahlkreis Willisau"},"canton":{"key":"3","code":"LU","name":"Luzern"},"status":"Real"},{"key":"10017654","name":"Ober-Wallenbach","postalCode":"6156","locality":"Luthern","commune":{"key":"1135","name":"Luthern","shortName":"Luthern"},"district":{"key":"315","name":"Wahlkreis Willisau"},"canton":{"key":"3","code":"LU","name":"Luzern"},"status":"Real"},{"key":"10063512","name":"Ober-Wernisegg","postalCode":"6156","locality":"Luthern","commune":{"key":"1135","name":"Luthern","shortName":"Luthern"},"district":{"key":"315","name":"Wahlkreis Willisau"},"canton":{"key":"3","code":"LU","name":"Luzern"},"status":"Real"},{"key":"10082280","name":"Ober-Wieden","postalCode":"6156","locality":"Luthern","commune":{"key":"1135","name":"Luthern","shortName":"Luthern"},"district":{"key":"315","name":"Wahlkreis Willisau"},"canton":{"key":"3","code":"LU","name":"Luzern"},"status":"Real"},{"key":"10082288","name":"Ober-Wisshubel","postalCode":"6156","locality":"Luthern Bad","commune":{"key":"1135","name":"Luthern","shortName":"Luthern"},"district":{"key":"315","name":"Wahlkreis Willisau"},"canton":{"key":"3","code":"LU","name":"Luzern"},"status":"Real"},{"key":"10053232","name":"Palmegg","postalCode":"6156","locality":"Luthern","commune":{"key":"1135","name":"Luthern","shortName":"Luthern"},"district":{"key":"315","name":"Wahlkreis Willisau"},"canton":{"key":"3","code":"LU","name":"Luzern"},"status":"Real"},{"key":"10209026","name":"Pfrundmatte","postalCode":"6156","locality":"Luthern","commune":{"key":"1135","name":"Luthern","shortName":"Luthern"},"district":{"key":"315","name":"Wahlkreis Willisau"},"canton":{"key":"3","code":"LU","name":"Luzern"},"status":"Real"},{"key":"10017656","name":"Rank","postalCode":"6156","locality":"Luthern","commune":{"key":"1135","name":"Luthern","shortName":"Luthern"},"district":{"key":"315","name":"Wahlkreis Willisau"},"canton":{"key":"3","code":"LU","name":"Luzern"},"status":"Real"},{"key":"10209231","name":"Rossweidli","postalCode":"6156","locality":"Luthern","commune":{"key":"1135","name":"Luthern","shortName":"Luthern"},"district":{"key":"315","name":"Wahlkreis Willisau"},"canton":{"key":"3","code":"LU","name":"Luzern"},"status":"Real"},{"key":"10209007","name":"Sagirain","postalCode":"6156","locality":"Luthern","commune":{"key":"1135","name":"Luthern","shortName":"Luthern"},"district":{"key":"315","name":"Wahlkreis Willisau"},"canton":{"key":"3","code":"LU","name":"Luzern"},"status":"Real"},{"key":"10053234","name":"Sandacher","postalCode":"6156","locality":"Luthern","commune":{"key":"1135","name":"Luthern","shortName":"Luthern"},"district":{"key":"315","name":"Wahlkreis Willisau"},"canton":{"key":"3","code":"LU","name":"Luzern"},"status":"Real"},{"key":"10247070","name":"Schwand","postalCode":"6156","locality":"Luthern Bad","commune":{"key":"1135","name":"Luthern","shortName":"Luthern"},"district":{"key":"315","name":"Wahlkreis Willisau"},"canton":{"key":"3","code":"LU","name":"Luzern"},"status":"Real"},{"key":"10209015","name":"Schwarzenbach","postalCode":"6156","locality":"Luthern","commune":{"key":"1135","name":"Luthern","shortName":"Luthern"},"district":{"key":"315","name":"Wahlkreis Willisau"},"canton":{"key":"3","code":"LU","name":"Luzern"},"status":"Real"},{"key":"10247059","name":"Sigristhubel","postalCode":"6156","locality":"Luthern","commune":{"key":"1135","name":"Luthern","shortName":"Luthern"},"district":{"key":"315","name":"Wahlkreis Willisau"},"canton":{"key":"3","code":"LU","name":"Luzern"},"status":"Real"},{"key":"10020926","name":"Sonnheim","postalCode":"6156","locality":"Luthern Bad","commune":{"key":"1135","name":"Luthern","shortName":"Luthern"},"district":{"key":"315","name":"Wahlkreis Willisau"},"canton":{"key":"3","code":"LU","name":"Luzern"},"status":"Real"},{"key":"10020927","name":"Sonnsite","postalCode":"6156","locality":"Luthern Bad","commune":{"key":"1135","name":"Luthern","shortName":"Luthern"},"district":{"key":"315","name":"Wahlkreis Willisau"},"canton":{"key":"3","code":"LU","name":"Luzern"},"status":"Real"},{"key":"10209232","name":"Sonnweg","postalCode":"6156","locality":"Luthern","commune":{"key":"1135","name":"Luthern","shortName":"Luthern"},"district":{"key":"315","name":"Wahlkreis Willisau"},"canton":{"key":"3","code":"LU","name":"Luzern"},"status":"Real"},{"key":"10020928","name":"Spitzweid","postalCode":"6156","locality":"Luthern Bad","commune":{"key":"1135","name":"Luthern","shortName":"Luthern"},"district":{"key":"315","name":"Wahlkreis Willisau"},"canton":{"key":"3","code":"LU","name":"Luzern"},"status":"Real"},{"key":"10053236","name":"Stalden","postalCode":"6156","locality":"Luthern","commune":{"key":"1135","name":"Luthern","shortName":"Luthern"},"district":{"key":"315","name":"Wahlkreis Willisau"},"canton":{"key":"3","code":"LU","name":"Luzern"},"status":"Real"},{"key":"10247069","name":"Trachselegg","postalCode":"6156","locality":"Luthern Bad","commune":{"key":"1135","name":"Luthern","shortName":"Luthern"},"district":{"key":"315","name":"Wahlkreis Willisau"},"canton":{"key":"3","code":"LU","name":"Luzern"},"status":"Real"},{"key":"10174050","name":"Unter-Alpetli","postalCode":"6156","locality":"Luthern Bad","commune":{"key":"1135","name":"Luthern","shortName":"Luthern"},"district":{"key":"315","name":"Wahlkreis Willisau"},"canton":{"key":"3","code":"LU","name":"Luzern"},"status":"Real"},{"key":"10166634","name":"Unter-Badegg","postalCode":"6156","locality":"Luthern Bad","commune":{"key":"1135","name":"Luthern","shortName":"Luthern"},"district":{"key":"315","name":"Wahlkreis Willisau"},"canton":{"key":"3","code":"LU","name":"Luzern"},"status":"Real"},{"key":"10209028","name":"Unterdorf","postalCode":"6156","locality":"Luthern","commune":{"key":"1135","name":"Luthern","shortName":"Luthern"},"district":{"key":"315","name":"Wahlkreis Willisau"},"canton":{"key":"3","code":"LU","name":"Luzern"},"status":"Real"},{"key":"10053237","name":"Unter-Gernet","postalCode":"6156","locality":"Luthern","commune":{"key":"1135","name":"Luthern","shortName":"Luthern"},"district":{"key":"315","name":"Wahlkreis Willisau"},"canton":{"key":"3","code":"LU","name":"Luzern"},"status":"Real"},{"key":"10020929","name":"Unter-Humbel","postalCode":"6156","locality":"Luthern Bad","commune":{"key":"1135","name":"Luthern","shortName":"Luthern"},"district":{"key":"315","name":"Wahlkreis Willisau"},"canton":{"key":"3","code":"LU","name":"Luzern"},"status":"Real"},{"key":"10209233","name":"Unter-Hurtgraben","postalCode":"6156","locality":"Luthern Bad","commune":{"key":"1135","name":"Luthern","shortName":"Luthern"},"district":{"key":"315","name":"Wahlkreis Willisau"},"canton":{"key":"3","code":"LU","name":"Luzern"},"status":"Real"},{"key":"10082289","name":"Unter-Niespel","postalCode":"6156","locality":"Luthern Bad","commune":{"key":"1135","name":"Luthern","shortName":"Luthern"},"district":{"key":"315","name":"Wahlkreis Willisau"},"canton":{"key":"3","code":"LU","name":"Luzern"},"status":"Real"},{"key":"10122532","name":"Unter-Risi","postalCode":"6156","locality":"Luthern","commune":{"key":"1135","name":"Luthern","shortName":"Luthern"},"district":{"key":"315","name":"Wahlkreis Willisau"},"canton":{"key":"3","code":"LU","name":"Luzern"},"status":"Real"},{"key":"10097552","name":"Unter-Scheidegg","postalCode":"6156","locality":"Luthern","commune":{"key":"1135","name":"Luthern","shortName":"Luthern"},"district":{"key":"315","name":"Wahlkreis Willisau"},"canton":{"key":"3","code":"LU","name":"Luzern"},"status":"Real"},{"key":"10116707","name":"Unter-Wernisegg","postalCode":"6156","locality":"Luthern","commune":{"key":"1135","name":"Luthern","shortName":"Luthern"},"district":{"key":"315","name":"Wahlkreis Willisau"},"canton":{"key":"3","code":"LU","name":"Luzern"},"status":"Real"},{"key":"10020913","name":"Unter-Wieden","postalCode":"6156","locality":"Luthern","commune":{"key":"1135","name":"Luthern","shortName":"Luthern"},"district":{"key":"315","name":"Wahlkreis Willisau"},"canton":{"key":"3","code":"LU","name":"Luzern"},"status":"Real"},{"key":"10020930","name":"Unter-Wisshubel","postalCode":"6156","locality":"Luthern Bad","commune":{"key":"1135","name":"Luthern","shortName":"Luthern"},"district":{"key":"315","name":"Wahlkreis Willisau"},"canton":{"key":"3","code":"LU","name":"Luzern"},"status":"Real"},{"key":"10082284","name":"Urseli","postalCode":"6156","locality":"Luthern","commune":{"key":"1135","name":"Luthern","shortName":"Luthern"},"district":{"key":"315","name":"Wahlkreis Willisau"},"canton":{"key":"3","code":"LU","name":"Luzern"},"status":"Real"},{"key":"10064597","name":"Vogelgraben","postalCode":"6156","locality":"Luthern","commune":{"key":"1135","name":"Luthern","shortName":"Luthern"},"district":{"key":"315","name":"Wahlkreis Willisau"},"canton":{"key":"3","code":"LU","name":"Luzern"},"status":"Real"},{"key":"10020931","name":"Vor-Bad","postalCode":"6156","locality":"Luthern Bad","commune":{"key":"1135","name":"Luthern","shortName":"Luthern"},"district":{"key":"315","name":"Wahlkreis Willisau"},"canton":{"key":"3","code":"LU","name":"Luzern"},"status":"Real"},{"key":"10209009","name":"Vorder-Auern","postalCode":"6156","locality":"Luthern Bad","commune":{"key":"1135","name":"Luthern","shortName":"Luthern"},"district":{"key":"315","name":"Wahlkreis Willisau"},"canton":{"key":"3","code":"LU","name":"Luzern"},"status":"Real"},{"key":"10209016","name":"Vorder-Enzi","postalCode":"6156","locality":"Luthern Bad","commune":{"key":"1135","name":"Luthern","shortName":"Luthern"},"district":{"key":"315","name":"Wahlkreis Willisau"},"canton":{"key":"3","code":"LU","name":"Luzern"},"status":"Real"},{"key":"10209226","name":"Vorder-Ey","postalCode":"6156","locality":"Luthern Bad","commune":{"key":"1135","name":"Luthern","shortName":"Luthern"},"district":{"key":"315","name":"Wahlkreis Willisau"},"canton":{"key":"3","code":"LU","name":"Luzern"},"status":"Real"},{"key":"10082290","name":"Vorder-Hurtgraben","postalCode":"6156","locality":"Luthern Bad","commune":{"key":"1135","name":"Luthern","shortName":"Luthern"},"district":{"key":"315","name":"Wahlkreis Willisau"},"canton":{"key":"3","code":"LU","name":"Luzern"},"status":"Real"},{"key":"10209010","name":"Vorder-Wallenbach","postalCode":"6156","locality":"Luthern","commune":{"key":"1135","name":"Luthern","shortName":"Luthern"},"district":{"key":"315","name":"Wahlkreis Willisau"},"canton":{"key":"3","code":"LU","name":"Luzern"},"status":"Real"},{"key":"10209234","name":"Vorder-Wilmisbach","postalCode":"6156","locality":"Luthern","commune":{"key":"1135","name":"Luthern","shortName":"Luthern"},"district":{"key":"315","name":"Wahlkreis Willisau"},"canton":{"key":"3","code":"LU","name":"Luzern"},"status":"Real"},{"key":"10120221","name":"Vorhüsli","postalCode":"6156","locality":"Luthern","commune":{"key":"1135","name":"Luthern","shortName":"Luthern"},"district":{"key":"315","name":"Wahlkreis Willisau"},"canton":{"key":"3","code":"LU","name":"Luzern"},"status":"Real"},{"key":"10172572","name":"Wiedenhüsli","postalCode":"6156","locality":"Luthern","commune":{"key":"1135","name":"Luthern","shortName":"Luthern"},"district":{"key":"315","name":"Wahlkreis Willisau"},"canton":{"key":"3","code":"LU","name":"Luzern"},"status":"Real"},{"key":"10172573","name":"Wissenbachweidli","postalCode":"6156","locality":"Luthern Bad","commune":{"key":"1135","name":"Luthern","shortName":"Luthern"},"district":{"key":"315","name":"Wahlkreis Willisau"},"canton":{"key":"3","code":"LU","name":"Luzern"},"status":"Real"},{"key":"10131217","name":"Wisshubelhütten","postalCode":"6156","locality":"Luthern Bad","commune":{"key":"1135","name":"Luthern","shortName":"Luthern"},"district":{"key":"315","name":"Wahlkreis Willisau"},"canton":{"key":"3","code":"LU","name":"Luzern"},"status":"Real"},{"key":"10082285","name":"Wursthof","postalCode":"6156","locality":"Luthern","commune":{"key":"1135","name":"Luthern","shortName":"Luthern"},"district":{"key":"315","name":"Wahlkreis Willisau"},"canton":{"key":"3","code":"LU","name":"Luzern"},"status":"Real"},{"key":"10052537","name":"Wursthüsli","postalCode":"6156","locality":"Luthern","commune":{"key":"1135","name":"Luthern","shortName":"Luthern"},"district":{"key":"315","name":"Wahlkreis Willisau"},"canton":{"key":"3","code":"LU","name":"Luzern"},"status":"Real"},]