[{"name":"Altdöberner Str.","postalCode":"03205","locality":"Bronkow","municipality":{"key":"12066041","name":"Bronkow","type":"Kreisangehörige_Gemeinde"},"district":{"key":"12066","name":"Oberspreewald-Lausitz","type":"Landkreis"},"federalState":{"key":"12","name":"Brandenburg"}},{"name":"Amandusdorfer Weg","postalCode":"03205","locality":"Bronkow","municipality":{"key":"12066041","name":"Bronkow","type":"Kreisangehörige_Gemeinde"},"district":{"key":"12066","name":"Oberspreewald-Lausitz","type":"Landkreis"},"federalState":{"key":"12","name":"Brandenburg"}},{"name":"Damensteg","postalCode":"03205","locality":"Bronkow","municipality":{"key":"12066041","name":"Bronkow","type":"Kreisangehörige_Gemeinde"},"district":{"key":"12066","name":"Oberspreewald-Lausitz","type":"Landkreis"},"federalState":{"key":"12","name":"Brandenburg"}},{"name":"Dorfanger","postalCode":"03205","locality":"Bronkow","municipality":{"key":"12066041","name":"Bronkow","type":"Kreisangehörige_Gemeinde"},"district":{"key":"12066","name":"Oberspreewald-Lausitz","type":"Landkreis"},"federalState":{"key":"12","name":"Brandenburg"}},{"name":"Dorfstr.","postalCode":"03205","locality":"Bronkow","municipality":{"key":"12066041","name":"Bronkow","type":"Kreisangehörige_Gemeinde"},"district":{"key":"12066","name":"Oberspreewald-Lausitz","type":"Landkreis"},"federalState":{"key":"12","name":"Brandenburg"}},{"name":"Förstereiweg","postalCode":"03205","locality":"Bronkow","municipality":{"key":"12066041","name":"Bronkow","type":"Kreisangehörige_Gemeinde"},"district":{"key":"12066","name":"Oberspreewald-Lausitz","type":"Landkreis"},"federalState":{"key":"12","name":"Brandenburg"}},{"name":"Franz-Wittig-Weg","postalCode":"03205","locality":"Bronkow","municipality":{"key":"12066041","name":"Bronkow","type":"Kreisangehörige_Gemeinde"},"district":{"key":"12066","name":"Oberspreewald-Lausitz","type":"Landkreis"},"federalState":{"key":"12","name":"Brandenburg"}},{"name":"Gollmitzer Str.","postalCode":"03205","locality":"Bronkow","municipality":{"key":"12066041","name":"Bronkow","type":"Kreisangehörige_Gemeinde"},"district":{"key":"12066","name":"Oberspreewald-Lausitz","type":"Landkreis"},"federalState":{"key":"12","name":"Brandenburg"}},{"name":"Hauptstr.","postalCode":"03205","locality":"Bronkow","municipality":{"key":"12066041","name":"Bronkow","type":"Kreisangehörige_Gemeinde"},"district":{"key":"12066","name":"Oberspreewald-Lausitz","type":"Landkreis"},"federalState":{"key":"12","name":"Brandenburg"}},{"name":"Liptener Str.","postalCode":"03205","locality":"Bronkow","municipality":{"key":"12066041","name":"Bronkow","type":"Kreisangehörige_Gemeinde"},"district":{"key":"12066","name":"Oberspreewald-Lausitz","type":"Landkreis"},"federalState":{"key":"12","name":"Brandenburg"}},{"name":"Luger Dorfstr.","postalCode":"03205","locality":"Bronkow","municipality":{"key":"12066041","name":"Bronkow","type":"Kreisangehörige_Gemeinde"},"district":{"key":"12066","name":"Oberspreewald-Lausitz","type":"Landkreis"},"federalState":{"key":"12","name":"Brandenburg"}},{"name":"Ortsstr.","postalCode":"03205","locality":"Bronkow","municipality":{"key":"12066041","name":"Bronkow","type":"Kreisangehörige_Gemeinde"},"district":{"key":"12066","name":"Oberspreewald-Lausitz","type":"Landkreis"},"federalState":{"key":"12","name":"Brandenburg"}},{"name":"Rettchensdorfer Weg","postalCode":"03205","locality":"Bronkow","municipality":{"key":"12066041","name":"Bronkow","type":"Kreisangehörige_Gemeinde"},"district":{"key":"12066","name":"Oberspreewald-Lausitz","type":"Landkreis"},"federalState":{"key":"12","name":"Brandenburg"}},{"name":"Rutzkauer Str.","postalCode":"03205","locality":"Bronkow","municipality":{"key":"12066041","name":"Bronkow","type":"Kreisangehörige_Gemeinde"},"district":{"key":"12066","name":"Oberspreewald-Lausitz","type":"Landkreis"},"federalState":{"key":"12","name":"Brandenburg"}},{"name":"Saadower Hauptstr.","postalCode":"03205","locality":"Bronkow","municipality":{"key":"12066041","name":"Bronkow","type":"Kreisangehörige_Gemeinde"},"district":{"key":"12066","name":"Oberspreewald-Lausitz","type":"Landkreis"},"federalState":{"key":"12","name":"Brandenburg"}},{"name":"Saadower Str.","postalCode":"03205","locality":"Bronkow","municipality":{"key":"12066041","name":"Bronkow","type":"Kreisangehörige_Gemeinde"},"district":{"key":"12066","name":"Oberspreewald-Lausitz","type":"Landkreis"},"federalState":{"key":"12","name":"Brandenburg"}},{"name":"Schulberg","postalCode":"03205","locality":"Bronkow","municipality":{"key":"12066041","name":"Bronkow","type":"Kreisangehörige_Gemeinde"},"district":{"key":"12066","name":"Oberspreewald-Lausitz","type":"Landkreis"},"federalState":{"key":"12","name":"Brandenburg"}},{"name":"Schulweg","postalCode":"03205","locality":"Bronkow","municipality":{"key":"12066041","name":"Bronkow","type":"Kreisangehörige_Gemeinde"},"district":{"key":"12066","name":"Oberspreewald-Lausitz","type":"Landkreis"},"federalState":{"key":"12","name":"Brandenburg"}},{"name":"Stützpunktweg","postalCode":"03205","locality":"Bronkow","municipality":{"key":"12066041","name":"Bronkow","type":"Kreisangehörige_Gemeinde"},"district":{"key":"12066","name":"Oberspreewald-Lausitz","type":"Landkreis"},"federalState":{"key":"12","name":"Brandenburg"}},{"name":"Waldfrieden","postalCode":"03205","locality":"Bronkow","municipality":{"key":"12066041","name":"Bronkow","type":"Kreisangehörige_Gemeinde"},"district":{"key":"12066","name":"Oberspreewald-Lausitz","type":"Landkreis"},"federalState":{"key":"12","name":"Brandenburg"}},]