[{"name":"Alte Untersambacher Str.","postalCode":"97355","locality":"Abtswind","municipality":{"key":"09675111","name":"Abtswind, M","type":"Markt"},"district":{"key":"09675","name":"Kitzingen","type":"Landkreis"},"federalState":{"key":"09","name":"Bayern"}},{"name":"Am Altenberg","postalCode":"97355","locality":"Abtswind","municipality":{"key":"09675111","name":"Abtswind, M","type":"Markt"},"district":{"key":"09675","name":"Kitzingen","type":"Landkreis"},"federalState":{"key":"09","name":"Bayern"}},{"name":"Am Brünnlein","postalCode":"97355","locality":"Abtswind","municipality":{"key":"09675111","name":"Abtswind, M","type":"Markt"},"district":{"key":"09675","name":"Kitzingen","type":"Landkreis"},"federalState":{"key":"09","name":"Bayern"}},{"name":"Apothekergasse","postalCode":"97355","locality":"Abtswind","municipality":{"key":"09675111","name":"Abtswind, M","type":"Markt"},"district":{"key":"09675","name":"Kitzingen","type":"Landkreis"},"federalState":{"key":"09","name":"Bayern"}},{"name":"Bahnhofsplatz","postalCode":"97318","locality":"Kitzingen","municipality":{"key":"09675141","name":"Kitzingen, GKSt","type":"Große_Kreisstadt"},"district":{"key":"09675","name":"Kitzingen","type":"Landkreis"},"federalState":{"key":"09","name":"Bayern"}},{"name":"Balthasar-Neumann-Str.","postalCode":"97318","locality":"Kitzingen","municipality":{"key":"09675141","name":"Kitzingen, GKSt","type":"Große_Kreisstadt"},"district":{"key":"09675","name":"Kitzingen","type":"Landkreis"},"federalState":{"key":"09","name":"Bayern"}},{"name":"Beethovenstr.","postalCode":"97318","locality":"Kitzingen","municipality":{"key":"09675141","name":"Kitzingen, GKSt","type":"Große_Kreisstadt"},"district":{"key":"09675","name":"Kitzingen","type":"Landkreis"},"federalState":{"key":"09","name":"Bayern"}},{"name":"Berlingsgasse","postalCode":"97318","locality":"Kitzingen","municipality":{"key":"09675141","name":"Kitzingen, GKSt","type":"Große_Kreisstadt"},"district":{"key":"09675","name":"Kitzingen","type":"Landkreis"},"federalState":{"key":"09","name":"Bayern"}},{"name":"Bernbeckplatz","postalCode":"97318","locality":"Kitzingen","municipality":{"key":"09675141","name":"Kitzingen, GKSt","type":"Große_Kreisstadt"},"district":{"key":"09675","name":"Kitzingen","type":"Landkreis"},"federalState":{"key":"09","name":"Bayern"}},{"name":"Birkenstr.","postalCode":"97318","locality":"Kitzingen","municipality":{"key":"09675141","name":"Kitzingen, GKSt","type":"Große_Kreisstadt"},"district":{"key":"09675","name":"Kitzingen","type":"Landkreis"},"federalState":{"key":"09","name":"Bayern"}},{"name":"Bismarckstr.","postalCode":"97318","locality":"Kitzingen","municipality":{"key":"09675141","name":"Kitzingen, GKSt","type":"Große_Kreisstadt"},"district":{"key":"09675","name":"Kitzingen","type":"Landkreis"},"federalState":{"key":"09","name":"Bayern"}},{"name":"Bleichwasen","postalCode":"97318","locality":"Kitzingen","municipality":{"key":"09675141","name":"Kitzingen, GKSt","type":"Große_Kreisstadt"},"district":{"key":"09675","name":"Kitzingen","type":"Landkreis"},"federalState":{"key":"09","name":"Bayern"}},{"name":"Boehmerwaldstr.","postalCode":"97318","locality":"Kitzingen","municipality":{"key":"09675141","name":"Kitzingen, GKSt","type":"Große_Kreisstadt"},"district":{"key":"09675","name":"Kitzingen","type":"Landkreis"},"federalState":{"key":"09","name":"Bayern"}},{"name":"Böhmerwaldstr.","postalCode":"97318","locality":"Kitzingen","municipality":{"key":"09675141","name":"Kitzingen, GKSt","type":"Große_Kreisstadt"},"district":{"key":"09675","name":"Kitzingen","type":"Landkreis"},"federalState":{"key":"09","name":"Bayern"}},{"name":"Breslauer Str.","postalCode":"97318","locality":"Kitzingen","municipality":{"key":"09675141","name":"Kitzingen, GKSt","type":"Große_Kreisstadt"},"district":{"key":"09675","name":"Kitzingen","type":"Landkreis"},"federalState":{"key":"09","name":"Bayern"}},{"name":"Brunnensteige","postalCode":"97318","locality":"Kitzingen","municipality":{"key":"09675141","name":"Kitzingen, GKSt","type":"Große_Kreisstadt"},"district":{"key":"09675","name":"Kitzingen","type":"Landkreis"},"federalState":{"key":"09","name":"Bayern"}},{"name":"Buchbrunner Str.","postalCode":"97318","locality":"Kitzingen","municipality":{"key":"09675141","name":"Kitzingen, GKSt","type":"Große_Kreisstadt"},"district":{"key":"09675","name":"Kitzingen","type":"Landkreis"},"federalState":{"key":"09","name":"Bayern"}},{"name":"conneKT","postalCode":"97318","locality":"Kitzingen","municipality":{"key":"09675141","name":"Kitzingen, GKSt","type":"Große_Kreisstadt"},"district":{"key":"09675","name":"Kitzingen","type":"Landkreis"},"federalState":{"key":"09","name":"Bayern"}},{"name":"Dagmar-Voßkühler-Str.","postalCode":"97318","locality":"Kitzingen","municipality":{"key":"09675141","name":"Kitzingen, GKSt","type":"Große_Kreisstadt"},"district":{"key":"09675","name":"Kitzingen","type":"Landkreis"},"federalState":{"key":"09","name":"Bayern"}},{"name":"Dietwarstr.","postalCode":"97318","locality":"Kitzingen","municipality":{"key":"09675141","name":"Kitzingen, GKSt","type":"Große_Kreisstadt"},"district":{"key":"09675","name":"Kitzingen","type":"Landkreis"},"federalState":{"key":"09","name":"Bayern"}},{"name":"Distelweg","postalCode":"97318","locality":"Kitzingen","municipality":{"key":"09675141","name":"Kitzingen, GKSt","type":"Große_Kreisstadt"},"district":{"key":"09675","name":"Kitzingen","type":"Landkreis"},"federalState":{"key":"09","name":"Bayern"}},{"name":"Drosselweg","postalCode":"97318","locality":"Kitzingen","municipality":{"key":"09675141","name":"Kitzingen, GKSt","type":"Große_Kreisstadt"},"district":{"key":"09675","name":"Kitzingen","type":"Landkreis"},"federalState":{"key":"09","name":"Bayern"}},{"name":"Ebracher Gasse","postalCode":"97355","locality":"Abtswind","municipality":{"key":"09675111","name":"Abtswind, M","type":"Markt"},"district":{"key":"09675","name":"Kitzingen","type":"Landkreis"},"federalState":{"key":"09","name":"Bayern"}},{"name":"Falterstr.","postalCode":"97318","locality":"Kitzingen","municipality":{"key":"09675141","name":"Kitzingen, GKSt","type":"Große_Kreisstadt"},"district":{"key":"09675","name":"Kitzingen","type":"Landkreis"},"federalState":{"key":"09","name":"Bayern"}},{"name":"Feldrain","postalCode":"97318","locality":"Kitzingen","municipality":{"key":"09675141","name":"Kitzingen, GKSt","type":"Große_Kreisstadt"},"district":{"key":"09675","name":"Kitzingen","type":"Landkreis"},"federalState":{"key":"09","name":"Bayern"}},{"name":"Feldstr.","postalCode":"97318","locality":"Kitzingen","municipality":{"key":"09675141","name":"Kitzingen, GKSt","type":"Große_Kreisstadt"},"district":{"key":"09675","name":"Kitzingen","type":"Landkreis"},"federalState":{"key":"09","name":"Bayern"}},{"name":"Fischergasse","postalCode":"97318","locality":"Kitzingen","municipality":{"key":"09675141","name":"Kitzingen, GKSt","type":"Große_Kreisstadt"},"district":{"key":"09675","name":"Kitzingen","type":"Landkreis"},"federalState":{"key":"09","name":"Bayern"}},{"name":"Florian-Geyer-Weg","postalCode":"97318","locality":"Kitzingen","municipality":{"key":"09675141","name":"Kitzingen, GKSt","type":"Große_Kreisstadt"},"district":{"key":"09675","name":"Kitzingen","type":"Landkreis"},"federalState":{"key":"09","name":"Bayern"}},{"name":"Floßhafenstr.","postalCode":"97318","locality":"Kitzingen","municipality":{"key":"09675141","name":"Kitzingen, GKSt","type":"Große_Kreisstadt"},"district":{"key":"09675","name":"Kitzingen","type":"Landkreis"},"federalState":{"key":"09","name":"Bayern"}},{"name":"Flugplatzstr.","postalCode":"97318","locality":"Kitzingen","municipality":{"key":"09675141","name":"Kitzingen, GKSt","type":"Große_Kreisstadt"},"district":{"key":"09675","name":"Kitzingen","type":"Landkreis"},"federalState":{"key":"09","name":"Bayern"}},{"name":"Frankenstr.","postalCode":"97318","locality":"Kitzingen","municipality":{"key":"09675141","name":"Kitzingen, GKSt","type":"Große_Kreisstadt"},"district":{"key":"09675","name":"Kitzingen","type":"Landkreis"},"federalState":{"key":"09","name":"Bayern"}},{"name":"Frankenweg","postalCode":"97318","locality":"Kitzingen","municipality":{"key":"09675141","name":"Kitzingen, GKSt","type":"Große_Kreisstadt"},"district":{"key":"09675","name":"Kitzingen","type":"Landkreis"},"federalState":{"key":"09","name":"Bayern"}},{"name":"Frida-von-Soden-Str.","postalCode":"97318","locality":"Kitzingen","municipality":{"key":"09675141","name":"Kitzingen, GKSt","type":"Große_Kreisstadt"},"district":{"key":"09675","name":"Kitzingen","type":"Landkreis"},"federalState":{"key":"09","name":"Bayern"}},{"name":"Friedenstr.","postalCode":"97318","locality":"Kitzingen","municipality":{"key":"09675141","name":"Kitzingen, GKSt","type":"Große_Kreisstadt"},"district":{"key":"09675","name":"Kitzingen","type":"Landkreis"},"federalState":{"key":"09","name":"Bayern"}},{"name":"Friedrich-Ebert-Str.","postalCode":"97318","locality":"Kitzingen","municipality":{"key":"09675141","name":"Kitzingen, GKSt","type":"Große_Kreisstadt"},"district":{"key":"09675","name":"Kitzingen","type":"Landkreis"},"federalState":{"key":"09","name":"Bayern"}},{"name":"Friedrichsbergweg","postalCode":"97318","locality":"Kitzingen","municipality":{"key":"09675141","name":"Kitzingen, GKSt","type":"Große_Kreisstadt"},"district":{"key":"09675","name":"Kitzingen","type":"Landkreis"},"federalState":{"key":"09","name":"Bayern"}},{"name":"Fröhstockheimer Str.","postalCode":"97318","locality":"Kitzingen","municipality":{"key":"09675141","name":"Kitzingen, GKSt","type":"Große_Kreisstadt"},"district":{"key":"09675","name":"Kitzingen","type":"Landkreis"},"federalState":{"key":"09","name":"Bayern"}},{"name":"Fröhstockheimer Weg","postalCode":"97318","locality":"Kitzingen","municipality":{"key":"09675141","name":"Kitzingen, GKSt","type":"Große_Kreisstadt"},"district":{"key":"09675","name":"Kitzingen","type":"Landkreis"},"federalState":{"key":"09","name":"Bayern"}},{"name":"Gewürzstr.","postalCode":"97355","locality":"Abtswind","municipality":{"key":"09675111","name":"Abtswind, M","type":"Markt"},"district":{"key":"09675","name":"Kitzingen","type":"Landkreis"},"federalState":{"key":"09","name":"Bayern"}},{"name":"Greuther Str.","postalCode":"97355","locality":"Abtswind","municipality":{"key":"09675111","name":"Abtswind, M","type":"Markt"},"district":{"key":"09675","name":"Kitzingen","type":"Landkreis"},"federalState":{"key":"09","name":"Bayern"}},{"name":"Hauptstr.","postalCode":"97355","locality":"Abtswind","municipality":{"key":"09675111","name":"Abtswind, M","type":"Markt"},"district":{"key":"09675","name":"Kitzingen","type":"Landkreis"},"federalState":{"key":"09","name":"Bayern"}},{"name":"Im Eigen","postalCode":"97318","locality":"Kitzingen","municipality":{"key":"09675141","name":"Kitzingen, GKSt","type":"Große_Kreisstadt"},"district":{"key":"09675","name":"Kitzingen","type":"Landkreis"},"federalState":{"key":"09","name":"Bayern"}},{"name":"Im Gartenland","postalCode":"97318","locality":"Kitzingen","municipality":{"key":"09675141","name":"Kitzingen, GKSt","type":"Große_Kreisstadt"},"district":{"key":"09675","name":"Kitzingen","type":"Landkreis"},"federalState":{"key":"09","name":"Bayern"}},{"name":"Im Hasenlauf","postalCode":"97318","locality":"Kitzingen","municipality":{"key":"09675141","name":"Kitzingen, GKSt","type":"Große_Kreisstadt"},"district":{"key":"09675","name":"Kitzingen","type":"Landkreis"},"federalState":{"key":"09","name":"Bayern"}},{"name":"Innere Sulzfelder Str.","postalCode":"97318","locality":"Kitzingen","municipality":{"key":"09675141","name":"Kitzingen, GKSt","type":"Große_Kreisstadt"},"district":{"key":"09675","name":"Kitzingen","type":"Landkreis"},"federalState":{"key":"09","name":"Bayern"}},{"name":"Jahnstr.","postalCode":"97318","locality":"Kitzingen","municipality":{"key":"09675141","name":"Kitzingen, GKSt","type":"Große_Kreisstadt"},"district":{"key":"09675","name":"Kitzingen","type":"Landkreis"},"federalState":{"key":"09","name":"Bayern"}},{"name":"Johann-Adam-Kleinschroth-Str.","postalCode":"97318","locality":"Kitzingen","municipality":{"key":"09675141","name":"Kitzingen, GKSt","type":"Große_Kreisstadt"},"district":{"key":"09675","name":"Kitzingen","type":"Landkreis"},"federalState":{"key":"09","name":"Bayern"}},{"name":"Kaiserstr.","postalCode":"97318","locality":"Kitzingen","municipality":{"key":"09675141","name":"Kitzingen, GKSt","type":"Große_Kreisstadt"},"district":{"key":"09675","name":"Kitzingen","type":"Landkreis"},"federalState":{"key":"09","name":"Bayern"}},{"name":"Kaltensondheimer Str.","postalCode":"97318","locality":"Kitzingen","municipality":{"key":"09675141","name":"Kitzingen, GKSt","type":"Große_Kreisstadt"},"district":{"key":"09675","name":"Kitzingen","type":"Landkreis"},"federalState":{"key":"09","name":"Bayern"}},{"name":"Kanzler-Stürtzel-Str.","postalCode":"97318","locality":"Kitzingen","municipality":{"key":"09675141","name":"Kitzingen, GKSt","type":"Große_Kreisstadt"},"district":{"key":"09675","name":"Kitzingen","type":"Landkreis"},"federalState":{"key":"09","name":"Bayern"}},{"name":"Kapuzinerstr.","postalCode":"97318","locality":"Kitzingen","municipality":{"key":"09675141","name":"Kitzingen, GKSt","type":"Große_Kreisstadt"},"district":{"key":"09675","name":"Kitzingen","type":"Landkreis"},"federalState":{"key":"09","name":"Bayern"}},{"name":"Karlsbader Str.","postalCode":"97318","locality":"Kitzingen","municipality":{"key":"09675141","name":"Kitzingen, GKSt","type":"Große_Kreisstadt"},"district":{"key":"09675","name":"Kitzingen","type":"Landkreis"},"federalState":{"key":"09","name":"Bayern"}},{"name":"Keltenstr.","postalCode":"97318","locality":"Kitzingen","municipality":{"key":"09675141","name":"Kitzingen, GKSt","type":"Große_Kreisstadt"},"district":{"key":"09675","name":"Kitzingen","type":"Landkreis"},"federalState":{"key":"09","name":"Bayern"}},{"name":"Kirchplatz","postalCode":"97318","locality":"Kitzingen","municipality":{"key":"09675141","name":"Kitzingen, GKSt","type":"Große_Kreisstadt"},"district":{"key":"09675","name":"Kitzingen","type":"Landkreis"},"federalState":{"key":"09","name":"Bayern"}},{"name":"Kitzinger Weg","postalCode":"97318","locality":"Kitzingen","municipality":{"key":"09675141","name":"Kitzingen, GKSt","type":"Große_Kreisstadt"},"district":{"key":"09675","name":"Kitzingen","type":"Landkreis"},"federalState":{"key":"09","name":"Bayern"}},{"name":"Klaus-Rother-Str.","postalCode":"97318","locality":"Kitzingen","municipality":{"key":"09675141","name":"Kitzingen, GKSt","type":"Große_Kreisstadt"},"district":{"key":"09675","name":"Kitzingen","type":"Landkreis"},"federalState":{"key":"09","name":"Bayern"}},{"name":"Kleistplatz","postalCode":"97318","locality":"Kitzingen","municipality":{"key":"09675141","name":"Kitzingen, GKSt","type":"Große_Kreisstadt"},"district":{"key":"09675","name":"Kitzingen","type":"Landkreis"},"federalState":{"key":"09","name":"Bayern"}},{"name":"Klettenberg","postalCode":"97318","locality":"Kitzingen","municipality":{"key":"09675141","name":"Kitzingen, GKSt","type":"Große_Kreisstadt"},"district":{"key":"09675","name":"Kitzingen","type":"Landkreis"},"federalState":{"key":"09","name":"Bayern"}},{"name":"Königsberger Str.","postalCode":"97318","locality":"Kitzingen","municipality":{"key":"09675141","name":"Kitzingen, GKSt","type":"Große_Kreisstadt"},"district":{"key":"09675","name":"Kitzingen","type":"Landkreis"},"federalState":{"key":"09","name":"Bayern"}},{"name":"Königsplatz","postalCode":"97318","locality":"Kitzingen","municipality":{"key":"09675141","name":"Kitzingen, GKSt","type":"Große_Kreisstadt"},"district":{"key":"09675","name":"Kitzingen","type":"Landkreis"},"federalState":{"key":"09","name":"Bayern"}},{"name":"Konrad-Adenauer-Brücke","postalCode":"97318","locality":"Kitzingen","municipality":{"key":"09675141","name":"Kitzingen, GKSt","type":"Große_Kreisstadt"},"district":{"key":"09675","name":"Kitzingen","type":"Landkreis"},"federalState":{"key":"09","name":"Bayern"}},{"name":"Krainberg","postalCode":"97318","locality":"Kitzingen","municipality":{"key":"09675141","name":"Kitzingen, GKSt","type":"Große_Kreisstadt"},"district":{"key":"09675","name":"Kitzingen","type":"Landkreis"},"federalState":{"key":"09","name":"Bayern"}},{"name":"Kraußstr.","postalCode":"97318","locality":"Kitzingen","municipality":{"key":"09675141","name":"Kitzingen, GKSt","type":"Große_Kreisstadt"},"district":{"key":"09675","name":"Kitzingen","type":"Landkreis"},"federalState":{"key":"09","name":"Bayern"}},{"name":"Kreuzleinstr.","postalCode":"97318","locality":"Kitzingen","municipality":{"key":"09675141","name":"Kitzingen, GKSt","type":"Große_Kreisstadt"},"district":{"key":"09675","name":"Kitzingen","type":"Landkreis"},"federalState":{"key":"09","name":"Bayern"}},{"name":"Kugelspielweg","postalCode":"97318","locality":"Kitzingen","municipality":{"key":"09675141","name":"Kitzingen, GKSt","type":"Große_Kreisstadt"},"district":{"key":"09675","name":"Kitzingen","type":"Landkreis"},"federalState":{"key":"09","name":"Bayern"}},{"name":"Landwehrstr.","postalCode":"97318","locality":"Kitzingen","municipality":{"key":"09675141","name":"Kitzingen, GKSt","type":"Große_Kreisstadt"},"district":{"key":"09675","name":"Kitzingen","type":"Landkreis"},"federalState":{"key":"09","name":"Bayern"}},{"name":"Langemarckstr.","postalCode":"97318","locality":"Kitzingen","municipality":{"key":"09675141","name":"Kitzingen, GKSt","type":"Große_Kreisstadt"},"district":{"key":"09675","name":"Kitzingen","type":"Landkreis"},"federalState":{"key":"09","name":"Bayern"}},{"name":"Lerchenbühl","postalCode":"97318","locality":"Kitzingen","municipality":{"key":"09675141","name":"Kitzingen, GKSt","type":"Große_Kreisstadt"},"district":{"key":"09675","name":"Kitzingen","type":"Landkreis"},"federalState":{"key":"09","name":"Bayern"}},{"name":"Levi-Strauss-Str.","postalCode":"97318","locality":"Kitzingen","municipality":{"key":"09675141","name":"Kitzingen, GKSt","type":"Große_Kreisstadt"},"district":{"key":"09675","name":"Kitzingen","type":"Landkreis"},"federalState":{"key":"09","name":"Bayern"}},{"name":"Liegnitzer Str.","postalCode":"97318","locality":"Kitzingen","municipality":{"key":"09675141","name":"Kitzingen, GKSt","type":"Große_Kreisstadt"},"district":{"key":"09675","name":"Kitzingen","type":"Landkreis"},"federalState":{"key":"09","name":"Bayern"}},{"name":"Lindenstr.","postalCode":"97318","locality":"Kitzingen","municipality":{"key":"09675141","name":"Kitzingen, GKSt","type":"Große_Kreisstadt"},"district":{"key":"09675","name":"Kitzingen","type":"Landkreis"},"federalState":{"key":"09","name":"Bayern"}},{"name":"Lochweg","postalCode":"97318","locality":"Kitzingen","municipality":{"key":"09675141","name":"Kitzingen, GKSt","type":"Große_Kreisstadt"},"district":{"key":"09675","name":"Kitzingen","type":"Landkreis"},"federalState":{"key":"09","name":"Bayern"}},{"name":"Luitpoldstr.","postalCode":"97318","locality":"Kitzingen","municipality":{"key":"09675141","name":"Kitzingen, GKSt","type":"Große_Kreisstadt"},"district":{"key":"09675","name":"Kitzingen","type":"Landkreis"},"federalState":{"key":"09","name":"Bayern"}},{"name":"Mainbernheimer Str.","postalCode":"97318","locality":"Kitzingen","municipality":{"key":"09675141","name":"Kitzingen, GKSt","type":"Große_Kreisstadt"},"district":{"key":"09675","name":"Kitzingen","type":"Landkreis"},"federalState":{"key":"09","name":"Bayern"}},{"name":"Mainkai","postalCode":"97318","locality":"Kitzingen","municipality":{"key":"09675141","name":"Kitzingen, GKSt","type":"Große_Kreisstadt"},"district":{"key":"09675","name":"Kitzingen","type":"Landkreis"},"federalState":{"key":"09","name":"Bayern"}},{"name":"Mainstockheimer Str.","postalCode":"97318","locality":"Kitzingen","municipality":{"key":"09675141","name":"Kitzingen, GKSt","type":"Große_Kreisstadt"},"district":{"key":"09675","name":"Kitzingen","type":"Landkreis"},"federalState":{"key":"09","name":"Bayern"}},{"name":"Mainstr.","postalCode":"97318","locality":"Kitzingen","municipality":{"key":"09675141","name":"Kitzingen, GKSt","type":"Große_Kreisstadt"},"district":{"key":"09675","name":"Kitzingen","type":"Landkreis"},"federalState":{"key":"09","name":"Bayern"}},{"name":"Markgrafenstr.","postalCode":"97318","locality":"Kitzingen","municipality":{"key":"09675141","name":"Kitzingen, GKSt","type":"Große_Kreisstadt"},"district":{"key":"09675","name":"Kitzingen","type":"Landkreis"},"federalState":{"key":"09","name":"Bayern"}},{"name":"Marktbreiter Str.","postalCode":"97318","locality":"Kitzingen","municipality":{"key":"09675141","name":"Kitzingen, GKSt","type":"Große_Kreisstadt"},"district":{"key":"09675","name":"Kitzingen","type":"Landkreis"},"federalState":{"key":"09","name":"Bayern"}},{"name":"Marktbreiter Weg","postalCode":"97318","locality":"Kitzingen","municipality":{"key":"09675141","name":"Kitzingen, GKSt","type":"Große_Kreisstadt"},"district":{"key":"09675","name":"Kitzingen","type":"Landkreis"},"federalState":{"key":"09","name":"Bayern"}},{"name":"Marktstefter Str.","postalCode":"97318","locality":"Kitzingen","municipality":{"key":"09675141","name":"Kitzingen, GKSt","type":"Große_Kreisstadt"},"district":{"key":"09675","name":"Kitzingen","type":"Landkreis"},"federalState":{"key":"09","name":"Bayern"}},{"name":"Marktstefter Weg","postalCode":"97318","locality":"Kitzingen","municipality":{"key":"09675141","name":"Kitzingen, GKSt","type":"Große_Kreisstadt"},"district":{"key":"09675","name":"Kitzingen","type":"Landkreis"},"federalState":{"key":"09","name":"Bayern"}},{"name":"Marshall-Heights-Ring","postalCode":"97318","locality":"Kitzingen","municipality":{"key":"09675141","name":"Kitzingen, GKSt","type":"Große_Kreisstadt"},"district":{"key":"09675","name":"Kitzingen","type":"Landkreis"},"federalState":{"key":"09","name":"Bayern"}},{"name":"Martin-Luther-Str.","postalCode":"97318","locality":"Kitzingen","municipality":{"key":"09675141","name":"Kitzingen, GKSt","type":"Große_Kreisstadt"},"district":{"key":"09675","name":"Kitzingen","type":"Landkreis"},"federalState":{"key":"09","name":"Bayern"}},{"name":"Max-Fromm-Str.","postalCode":"97318","locality":"Kitzingen","municipality":{"key":"09675141","name":"Kitzingen, GKSt","type":"Große_Kreisstadt"},"district":{"key":"09675","name":"Kitzingen","type":"Landkreis"},"federalState":{"key":"09","name":"Bayern"}},{"name":"Memellandstr.","postalCode":"97318","locality":"Kitzingen","municipality":{"key":"09675141","name":"Kitzingen, GKSt","type":"Große_Kreisstadt"},"district":{"key":"09675","name":"Kitzingen","type":"Landkreis"},"federalState":{"key":"09","name":"Bayern"}},{"name":"Michelfelder Str.","postalCode":"97318","locality":"Kitzingen","municipality":{"key":"09675141","name":"Kitzingen, GKSt","type":"Große_Kreisstadt"},"district":{"key":"09675","name":"Kitzingen","type":"Landkreis"},"federalState":{"key":"09","name":"Bayern"}},{"name":"Michelfelder Weg","postalCode":"97318","locality":"Kitzingen","municipality":{"key":"09675141","name":"Kitzingen, GKSt","type":"Große_Kreisstadt"},"district":{"key":"09675","name":"Kitzingen","type":"Landkreis"},"federalState":{"key":"09","name":"Bayern"}},{"name":"Michelsgasse","postalCode":"97318","locality":"Kitzingen","municipality":{"key":"09675141","name":"Kitzingen, GKSt","type":"Große_Kreisstadt"},"district":{"key":"09675","name":"Kitzingen","type":"Landkreis"},"federalState":{"key":"09","name":"Bayern"}},{"name":"Mohnweg","postalCode":"97318","locality":"Kitzingen","municipality":{"key":"09675141","name":"Kitzingen, GKSt","type":"Große_Kreisstadt"},"district":{"key":"09675","name":"Kitzingen","type":"Landkreis"},"federalState":{"key":"09","name":"Bayern"}},{"name":"Moltkestr.","postalCode":"97318","locality":"Kitzingen","municipality":{"key":"09675141","name":"Kitzingen, GKSt","type":"Große_Kreisstadt"},"district":{"key":"09675","name":"Kitzingen","type":"Landkreis"},"federalState":{"key":"09","name":"Bayern"}},{"name":"Mozartstr.","postalCode":"97318","locality":"Kitzingen","municipality":{"key":"09675141","name":"Kitzingen, GKSt","type":"Große_Kreisstadt"},"district":{"key":"09675","name":"Kitzingen","type":"Landkreis"},"federalState":{"key":"09","name":"Bayern"}},{"name":"Mühlbachstr.","postalCode":"97318","locality":"Kitzingen","municipality":{"key":"09675141","name":"Kitzingen, GKSt","type":"Große_Kreisstadt"},"district":{"key":"09675","name":"Kitzingen","type":"Landkreis"},"federalState":{"key":"09","name":"Bayern"}},{"name":"Mühlbergstr.","postalCode":"97318","locality":"Kitzingen","municipality":{"key":"09675141","name":"Kitzingen, GKSt","type":"Große_Kreisstadt"},"district":{"key":"09675","name":"Kitzingen","type":"Landkreis"},"federalState":{"key":"09","name":"Bayern"}},{"name":"Muldenweg","postalCode":"97318","locality":"Kitzingen","municipality":{"key":"09675141","name":"Kitzingen, GKSt","type":"Große_Kreisstadt"},"district":{"key":"09675","name":"Kitzingen","type":"Landkreis"},"federalState":{"key":"09","name":"Bayern"}},{"name":"Nachtigallenweg","postalCode":"97318","locality":"Kitzingen","municipality":{"key":"09675141","name":"Kitzingen, GKSt","type":"Große_Kreisstadt"},"district":{"key":"09675","name":"Kitzingen","type":"Landkreis"},"federalState":{"key":"09","name":"Bayern"}},{"name":"Neue Mainlände","postalCode":"97318","locality":"Kitzingen","municipality":{"key":"09675141","name":"Kitzingen, GKSt","type":"Große_Kreisstadt"},"district":{"key":"09675","name":"Kitzingen","type":"Landkreis"},"federalState":{"key":"09","name":"Bayern"}},{"name":"Neuer Weg","postalCode":"97318","locality":"Kitzingen","municipality":{"key":"09675141","name":"Kitzingen, GKSt","type":"Große_Kreisstadt"},"district":{"key":"09675","name":"Kitzingen","type":"Landkreis"},"federalState":{"key":"09","name":"Bayern"}},{"name":"Nordbrücke","postalCode":"97318","locality":"Kitzingen","municipality":{"key":"09675141","name":"Kitzingen, GKSt","type":"Große_Kreisstadt"},"district":{"key":"09675","name":"Kitzingen","type":"Landkreis"},"federalState":{"key":"09","name":"Bayern"}},{"name":"Nordtangente","postalCode":"97318","locality":"Kitzingen","municipality":{"key":"09675141","name":"Kitzingen, GKSt","type":"Große_Kreisstadt"},"district":{"key":"09675","name":"Kitzingen","type":"Landkreis"},"federalState":{"key":"09","name":"Bayern"}},{"name":"Nordwest-Tangente","postalCode":"97318","locality":"Kitzingen","municipality":{"key":"09675141","name":"Kitzingen, GKSt","type":"Große_Kreisstadt"},"district":{"key":"09675","name":"Kitzingen","type":"Landkreis"},"federalState":{"key":"09","name":"Bayern"}},{"name":"Obere Bachgasse","postalCode":"97318","locality":"Kitzingen","municipality":{"key":"09675141","name":"Kitzingen, GKSt","type":"Große_Kreisstadt"},"district":{"key":"09675","name":"Kitzingen","type":"Landkreis"},"federalState":{"key":"09","name":"Bayern"}},{"name":"Obere Neue Gasse","postalCode":"97318","locality":"Kitzingen","municipality":{"key":"09675141","name":"Kitzingen, GKSt","type":"Große_Kreisstadt"},"district":{"key":"09675","name":"Kitzingen","type":"Landkreis"},"federalState":{"key":"09","name":"Bayern"}},{"name":"Oberer Fuchsgraben","postalCode":"97318","locality":"Kitzingen","municipality":{"key":"09675141","name":"Kitzingen, GKSt","type":"Große_Kreisstadt"},"district":{"key":"09675","name":"Kitzingen","type":"Landkreis"},"federalState":{"key":"09","name":"Bayern"}},{"name":"Oberer Mainkai","postalCode":"97318","locality":"Kitzingen","municipality":{"key":"09675141","name":"Kitzingen, GKSt","type":"Große_Kreisstadt"},"district":{"key":"09675","name":"Kitzingen","type":"Landkreis"},"federalState":{"key":"09","name":"Bayern"}},{"name":"Olga-Pöhlmann-Str.","postalCode":"97318","locality":"Kitzingen","municipality":{"key":"09675141","name":"Kitzingen, GKSt","type":"Große_Kreisstadt"},"district":{"key":"09675","name":"Kitzingen","type":"Landkreis"},"federalState":{"key":"09","name":"Bayern"}},{"name":"Pfarrgasse","postalCode":"97355","locality":"Abtswind","municipality":{"key":"09675111","name":"Abtswind, M","type":"Markt"},"district":{"key":"09675","name":"Kitzingen","type":"Landkreis"},"federalState":{"key":"09","name":"Bayern"}},{"name":"Rehweiler Str.","postalCode":"97355","locality":"Abtswind","municipality":{"key":"09675111","name":"Abtswind, M","type":"Markt"},"district":{"key":"09675","name":"Kitzingen","type":"Landkreis"},"federalState":{"key":"09","name":"Bayern"}},{"name":"Ringstr.","postalCode":"97355","locality":"Abtswind","municipality":{"key":"09675111","name":"Abtswind, M","type":"Markt"},"district":{"key":"09675","name":"Kitzingen","type":"Landkreis"},"federalState":{"key":"09","name":"Bayern"}},{"name":"Röthleinsweg","postalCode":"97355","locality":"Abtswind","municipality":{"key":"09675111","name":"Abtswind, M","type":"Markt"},"district":{"key":"09675","name":"Kitzingen","type":"Landkreis"},"federalState":{"key":"09","name":"Bayern"}},{"name":"Rüdenhauser Str.","postalCode":"97355","locality":"Abtswind","municipality":{"key":"09675111","name":"Abtswind, M","type":"Markt"},"district":{"key":"09675","name":"Kitzingen","type":"Landkreis"},"federalState":{"key":"09","name":"Bayern"}},{"name":"Sambachstr.","postalCode":"97355","locality":"Abtswind","municipality":{"key":"09675111","name":"Abtswind, M","type":"Markt"},"district":{"key":"09675","name":"Kitzingen","type":"Landkreis"},"federalState":{"key":"09","name":"Bayern"}},{"name":"Schwimmbadstr.","postalCode":"97355","locality":"Abtswind","municipality":{"key":"09675111","name":"Abtswind, M","type":"Markt"},"district":{"key":"09675","name":"Kitzingen","type":"Landkreis"},"federalState":{"key":"09","name":"Bayern"}},{"name":"Stämmbauersweg","postalCode":"97355","locality":"Abtswind","municipality":{"key":"09675111","name":"Abtswind, M","type":"Markt"},"district":{"key":"09675","name":"Kitzingen","type":"Landkreis"},"federalState":{"key":"09","name":"Bayern"}},{"name":"Steigerwaldstr.","postalCode":"97355","locality":"Abtswind","municipality":{"key":"09675111","name":"Abtswind, M","type":"Markt"},"district":{"key":"09675","name":"Kitzingen","type":"Landkreis"},"federalState":{"key":"09","name":"Bayern"}},{"name":"Steinbruchweg","postalCode":"97355","locality":"Abtswind","municipality":{"key":"09675111","name":"Abtswind, M","type":"Markt"},"district":{"key":"09675","name":"Kitzingen","type":"Landkreis"},"federalState":{"key":"09","name":"Bayern"}},{"name":"Sternstr.","postalCode":"97355","locality":"Abtswind","municipality":{"key":"09675111","name":"Abtswind, M","type":"Markt"},"district":{"key":"09675","name":"Kitzingen","type":"Landkreis"},"federalState":{"key":"09","name":"Bayern"}},{"name":"Talstr.","postalCode":"97318","locality":"Kitzingen","municipality":{"key":"09675141","name":"Kitzingen, GKSt","type":"Große_Kreisstadt"},"district":{"key":"09675","name":"Kitzingen","type":"Landkreis"},"federalState":{"key":"09","name":"Bayern"}},{"name":"Tannenbergstr.","postalCode":"97318","locality":"Kitzingen","municipality":{"key":"09675141","name":"Kitzingen, GKSt","type":"Große_Kreisstadt"},"district":{"key":"09675","name":"Kitzingen","type":"Landkreis"},"federalState":{"key":"09","name":"Bayern"}},{"name":"Tännigstr.","postalCode":"97318","locality":"Kitzingen","municipality":{"key":"09675141","name":"Kitzingen, GKSt","type":"Große_Kreisstadt"},"district":{"key":"09675","name":"Kitzingen","type":"Landkreis"},"federalState":{"key":"09","name":"Bayern"}},{"name":"Texasweg","postalCode":"97318","locality":"Kitzingen","municipality":{"key":"09675141","name":"Kitzingen, GKSt","type":"Große_Kreisstadt"},"district":{"key":"09675","name":"Kitzingen","type":"Landkreis"},"federalState":{"key":"09","name":"Bayern"}},{"name":"Thomas-Ehemann-Str.","postalCode":"97318","locality":"Kitzingen","municipality":{"key":"09675141","name":"Kitzingen, GKSt","type":"Große_Kreisstadt"},"district":{"key":"09675","name":"Kitzingen","type":"Landkreis"},"federalState":{"key":"09","name":"Bayern"}},{"name":"Thüringer Str.","postalCode":"97318","locality":"Kitzingen","municipality":{"key":"09675141","name":"Kitzingen, GKSt","type":"Große_Kreisstadt"},"district":{"key":"09675","name":"Kitzingen","type":"Landkreis"},"federalState":{"key":"09","name":"Bayern"}},{"name":"Tilsiter Str.","postalCode":"97318","locality":"Kitzingen","municipality":{"key":"09675141","name":"Kitzingen, GKSt","type":"Große_Kreisstadt"},"district":{"key":"09675","name":"Kitzingen","type":"Landkreis"},"federalState":{"key":"09","name":"Bayern"}},{"name":"Uhlandstr.","postalCode":"97318","locality":"Kitzingen","municipality":{"key":"09675141","name":"Kitzingen, GKSt","type":"Große_Kreisstadt"},"district":{"key":"09675","name":"Kitzingen","type":"Landkreis"},"federalState":{"key":"09","name":"Bayern"}},{"name":"Umgehungsstr.","postalCode":"97318","locality":"Kitzingen","municipality":{"key":"09675141","name":"Kitzingen, GKSt","type":"Große_Kreisstadt"},"district":{"key":"09675","name":"Kitzingen","type":"Landkreis"},"federalState":{"key":"09","name":"Bayern"}},{"name":"Untere Bachgasse","postalCode":"97318","locality":"Kitzingen","municipality":{"key":"09675141","name":"Kitzingen, GKSt","type":"Große_Kreisstadt"},"district":{"key":"09675","name":"Kitzingen","type":"Landkreis"},"federalState":{"key":"09","name":"Bayern"}},{"name":"Untere Neue Gasse","postalCode":"97318","locality":"Kitzingen","municipality":{"key":"09675141","name":"Kitzingen, GKSt","type":"Große_Kreisstadt"},"district":{"key":"09675","name":"Kitzingen","type":"Landkreis"},"federalState":{"key":"09","name":"Bayern"}},{"name":"Unterer Fuchsgraben","postalCode":"97318","locality":"Kitzingen","municipality":{"key":"09675141","name":"Kitzingen, GKSt","type":"Große_Kreisstadt"},"district":{"key":"09675","name":"Kitzingen","type":"Landkreis"},"federalState":{"key":"09","name":"Bayern"}},{"name":"Unterer Mainkai","postalCode":"97318","locality":"Kitzingen","municipality":{"key":"09675141","name":"Kitzingen, GKSt","type":"Große_Kreisstadt"},"district":{"key":"09675","name":"Kitzingen","type":"Landkreis"},"federalState":{"key":"09","name":"Bayern"}},{"name":"Völkersgasse","postalCode":"97318","locality":"Kitzingen","municipality":{"key":"09675141","name":"Kitzingen, GKSt","type":"Große_Kreisstadt"},"district":{"key":"09675","name":"Kitzingen","type":"Landkreis"},"federalState":{"key":"09","name":"Bayern"}},{"name":"Von-Deuster-Str.","postalCode":"97318","locality":"Kitzingen","municipality":{"key":"09675141","name":"Kitzingen, GKSt","type":"Große_Kreisstadt"},"district":{"key":"09675","name":"Kitzingen","type":"Landkreis"},"federalState":{"key":"09","name":"Bayern"}},{"name":"Wacholdertalstr.","postalCode":"97355","locality":"Abtswind","municipality":{"key":"09675111","name":"Abtswind, M","type":"Markt"},"district":{"key":"09675","name":"Kitzingen","type":"Landkreis"},"federalState":{"key":"09","name":"Bayern"}},{"name":"Weinstr.","postalCode":"97355","locality":"Abtswind","municipality":{"key":"09675111","name":"Abtswind, M","type":"Markt"},"district":{"key":"09675","name":"Kitzingen","type":"Landkreis"},"federalState":{"key":"09","name":"Bayern"}},{"name":"Wiesentheider Str.","postalCode":"97355","locality":"Abtswind","municipality":{"key":"09675111","name":"Abtswind, M","type":"Markt"},"district":{"key":"09675","name":"Kitzingen","type":"Landkreis"},"federalState":{"key":"09","name":"Bayern"}},{"name":"Zehnthofgasse","postalCode":"97318","locality":"Kitzingen","municipality":{"key":"09675141","name":"Kitzingen, GKSt","type":"Große_Kreisstadt"},"district":{"key":"09675","name":"Kitzingen","type":"Landkreis"},"federalState":{"key":"09","name":"Bayern"}},{"name":"Zeppelinstr.","postalCode":"97318","locality":"Kitzingen","municipality":{"key":"09675141","name":"Kitzingen, GKSt","type":"Große_Kreisstadt"},"district":{"key":"09675","name":"Kitzingen","type":"Landkreis"},"federalState":{"key":"09","name":"Bayern"}},{"name":"Ziegelbergstr.","postalCode":"97318","locality":"Kitzingen","municipality":{"key":"09675141","name":"Kitzingen, GKSt","type":"Große_Kreisstadt"},"district":{"key":"09675","name":"Kitzingen","type":"Landkreis"},"federalState":{"key":"09","name":"Bayern"}},{"name":"Zitterackerweg","postalCode":"97318","locality":"Kitzingen","municipality":{"key":"09675141","name":"Kitzingen, GKSt","type":"Große_Kreisstadt"},"district":{"key":"09675","name":"Kitzingen","type":"Landkreis"},"federalState":{"key":"09","name":"Bayern"}},{"name":"Zum Oberbäumle","postalCode":"97318","locality":"Kitzingen","municipality":{"key":"09675141","name":"Kitzingen, GKSt","type":"Große_Kreisstadt"},"district":{"key":"09675","name":"Kitzingen","type":"Landkreis"},"federalState":{"key":"09","name":"Bayern"}},{"name":"Äußere Sulzfelder Str.","postalCode":"97318","locality":"Kitzingen","municipality":{"key":"09675141","name":"Kitzingen, GKSt","type":"Große_Kreisstadt"},"district":{"key":"09675","name":"Kitzingen","type":"Landkreis"},"federalState":{"key":"09","name":"Bayern"}},{"name":"Ödersgasse","postalCode":"97318","locality":"Kitzingen","municipality":{"key":"09675141","name":"Kitzingen, GKSt","type":"Große_Kreisstadt"},"district":{"key":"09675","name":"Kitzingen","type":"Landkreis"},"federalState":{"key":"09","name":"Bayern"}},]