[{"key":"13072001","name":"Admannshagen-Bargeshagen","type":"Kreisangehörige_Gemeinde","postalCode":"18211","multiplePostalCodes":false,"association":{"key":"13072","name":"Bad Doberan-Land","type":"Amt"},"district":{"key":"13072","name":"Landkreis Rostock","type":"Landkreis"},"federalState":{"key":"13","name":"Mecklenburg-Vorpommern"}},{"key":"13072002","name":"Alt Bukow","type":"Kreisangehörige_Gemeinde","postalCode":"18233","multiplePostalCodes":false,"association":{"key":"13072","name":"Neubukow-Salzhaff","type":"Amt"},"district":{"key":"13072","name":"Landkreis Rostock","type":"Landkreis"},"federalState":{"key":"13","name":"Mecklenburg-Vorpommern"}},{"key":"13072003","name":"Alt Sührkow","type":"Kreisangehörige_Gemeinde","postalCode":"17166","multiplePostalCodes":false,"association":{"key":"13072","name":"Mecklenburgische Schweiz","type":"Amt"},"district":{"key":"13072","name":"Landkreis Rostock","type":"Landkreis"},"federalState":{"key":"13","name":"Mecklenburg-Vorpommern"}},{"key":"13072004","name":"Altkalen","type":"Kreisangehörige_Gemeinde","postalCode":"17179","multiplePostalCodes":false,"association":{"key":"13072","name":"Gnoien","type":"Amt"},"district":{"key":"13072","name":"Landkreis Rostock","type":"Landkreis"},"federalState":{"key":"13","name":"Mecklenburg-Vorpommern"}},{"key":"13072005","name":"Am Salzhaff","type":"Kreisangehörige_Gemeinde","postalCode":"18233","multiplePostalCodes":false,"association":{"key":"13072","name":"Neubukow-Salzhaff","type":"Amt"},"district":{"key":"13072","name":"Landkreis Rostock","type":"Landkreis"},"federalState":{"key":"13","name":"Mecklenburg-Vorpommern"}},{"key":"13072006","name":"Bad Doberan, Stadt","type":"Stadt","postalCode":"18209","multiplePostalCodes":false,"association":{"key":"13072","name":"Bad Doberan, Stadt","type":"Verbandsfreie_Gemeinde"},"district":{"key":"13072","name":"Landkreis Rostock","type":"Landkreis"},"federalState":{"key":"13","name":"Mecklenburg-Vorpommern"}},{"key":"13072007","name":"Bartenshagen-Parkentin","type":"Kreisangehörige_Gemeinde","postalCode":"18209","multiplePostalCodes":false,"association":{"key":"13072","name":"Bad Doberan-Land","type":"Amt"},"district":{"key":"13072","name":"Landkreis Rostock","type":"Landkreis"},"federalState":{"key":"13","name":"Mecklenburg-Vorpommern"}},{"key":"13072008","name":"Bastorf","type":"Kreisangehörige_Gemeinde","postalCode":"18230","multiplePostalCodes":false,"association":{"key":"13072","name":"Neubukow-Salzhaff","type":"Amt"},"district":{"key":"13072","name":"Landkreis Rostock","type":"Landkreis"},"federalState":{"key":"13","name":"Mecklenburg-Vorpommern"}},{"key":"13072009","name":"Baumgarten","type":"Kreisangehörige_Gemeinde","postalCode":"18246","multiplePostalCodes":true,"association":{"key":"13072","name":"Bützow-Land","type":"Amt"},"district":{"key":"13072","name":"Landkreis Rostock","type":"Landkreis"},"federalState":{"key":"13","name":"Mecklenburg-Vorpommern"}},{"key":"13072010","name":"Behren-Lübchin","type":"Kreisangehörige_Gemeinde","postalCode":"17179","multiplePostalCodes":false,"association":{"key":"13072","name":"Gnoien","type":"Amt"},"district":{"key":"13072","name":"Landkreis Rostock","type":"Landkreis"},"federalState":{"key":"13","name":"Mecklenburg-Vorpommern"}},{"key":"13072011","name":"Benitz","type":"Kreisangehörige_Gemeinde","postalCode":"18258","multiplePostalCodes":false,"association":{"key":"13072","name":"Schwaan","type":"Amt"},"district":{"key":"13072","name":"Landkreis Rostock","type":"Landkreis"},"federalState":{"key":"13","name":"Mecklenburg-Vorpommern"}},{"key":"13072012","name":"Bentwisch","type":"Kreisangehörige_Gemeinde","postalCode":"18182","multiplePostalCodes":false,"association":{"key":"13072","name":"Rostocker Heide","type":"Amt"},"district":{"key":"13072","name":"Landkreis Rostock","type":"Landkreis"},"federalState":{"key":"13","name":"Mecklenburg-Vorpommern"}},{"key":"13072013","name":"Bernitt","type":"Kreisangehörige_Gemeinde","postalCode":"18249","multiplePostalCodes":true,"association":{"key":"13072","name":"Bützow-Land","type":"Amt"},"district":{"key":"13072","name":"Landkreis Rostock","type":"Landkreis"},"federalState":{"key":"13","name":"Mecklenburg-Vorpommern"}},{"key":"13072014","name":"Biendorf","type":"Kreisangehörige_Gemeinde","postalCode":"18230","multiplePostalCodes":true,"association":{"key":"13072","name":"Neubukow-Salzhaff","type":"Amt"},"district":{"key":"13072","name":"Landkreis Rostock","type":"Landkreis"},"federalState":{"key":"13","name":"Mecklenburg-Vorpommern"}},{"key":"13072015","name":"Blankenhagen","type":"Kreisangehörige_Gemeinde","postalCode":"18182","multiplePostalCodes":false,"association":{"key":"13072","name":"Rostocker Heide","type":"Amt"},"district":{"key":"13072","name":"Landkreis Rostock","type":"Landkreis"},"federalState":{"key":"13","name":"Mecklenburg-Vorpommern"}},{"key":"13072017","name":"Börgerende-Rethwisch","type":"Kreisangehörige_Gemeinde","postalCode":"18211","multiplePostalCodes":false,"association":{"key":"13072","name":"Bad Doberan-Land","type":"Amt"},"district":{"key":"13072","name":"Landkreis Rostock","type":"Landkreis"},"federalState":{"key":"13","name":"Mecklenburg-Vorpommern"}},{"key":"13072018","name":"Bröbberow","type":"Kreisangehörige_Gemeinde","postalCode":"18258","multiplePostalCodes":false,"association":{"key":"13072","name":"Schwaan","type":"Amt"},"district":{"key":"13072","name":"Landkreis Rostock","type":"Landkreis"},"federalState":{"key":"13","name":"Mecklenburg-Vorpommern"}},{"key":"13072019","name":"Broderstorf","type":"Kreisangehörige_Gemeinde","postalCode":"18184","multiplePostalCodes":false,"association":{"key":"13072","name":"Carbäk","type":"Amt"},"district":{"key":"13072","name":"Landkreis Rostock","type":"Landkreis"},"federalState":{"key":"13","name":"Mecklenburg-Vorpommern"}},{"key":"13072020","name":"Bützow, Stadt","type":"Stadt","postalCode":"18246","multiplePostalCodes":false,"association":{"key":"13072","name":"Bützow-Land","type":"Amt"},"district":{"key":"13072","name":"Landkreis Rostock","type":"Landkreis"},"federalState":{"key":"13","name":"Mecklenburg-Vorpommern"}},{"key":"13072021","name":"Cammin","type":"Kreisangehörige_Gemeinde","postalCode":"18195","multiplePostalCodes":false,"association":{"key":"13072","name":"Tessin","type":"Amt"},"district":{"key":"13072","name":"Landkreis Rostock","type":"Landkreis"},"federalState":{"key":"13","name":"Mecklenburg-Vorpommern"}},{"key":"13072022","name":"Carinerland","type":"Kreisangehörige_Gemeinde","postalCode":"18233","multiplePostalCodes":false,"association":{"key":"13072","name":"Neubukow-Salzhaff","type":"Amt"},"district":{"key":"13072","name":"Landkreis Rostock","type":"Landkreis"},"federalState":{"key":"13","name":"Mecklenburg-Vorpommern"}},{"key":"13072023","name":"Dahmen","type":"Kreisangehörige_Gemeinde","postalCode":"17166","multiplePostalCodes":false,"association":{"key":"13072","name":"Mecklenburgische Schweiz","type":"Amt"},"district":{"key":"13072","name":"Landkreis Rostock","type":"Landkreis"},"federalState":{"key":"13","name":"Mecklenburg-Vorpommern"}},{"key":"13072024","name":"Dalkendorf","type":"Kreisangehörige_Gemeinde","postalCode":"17166","multiplePostalCodes":false,"association":{"key":"13072","name":"Mecklenburgische Schweiz","type":"Amt"},"district":{"key":"13072","name":"Landkreis Rostock","type":"Landkreis"},"federalState":{"key":"13","name":"Mecklenburg-Vorpommern"}},{"key":"13072026","name":"Dobbin-Linstow","type":"Kreisangehörige_Gemeinde","postalCode":"18292","multiplePostalCodes":false,"association":{"key":"13072","name":"Krakow am See","type":"Amt"},"district":{"key":"13072","name":"Landkreis Rostock","type":"Landkreis"},"federalState":{"key":"13","name":"Mecklenburg-Vorpommern"}},{"key":"13072027","name":"Dolgen am See","type":"Kreisangehörige_Gemeinde","postalCode":"18299","multiplePostalCodes":false,"association":{"key":"13072","name":"Laage","type":"Amt"},"district":{"key":"13072","name":"Landkreis Rostock","type":"Landkreis"},"federalState":{"key":"13","name":"Mecklenburg-Vorpommern"}},{"key":"13072028","name":"Dreetz","type":"Kreisangehörige_Gemeinde","postalCode":"18249","multiplePostalCodes":false,"association":{"key":"13072","name":"Bützow-Land","type":"Amt"},"district":{"key":"13072","name":"Landkreis Rostock","type":"Landkreis"},"federalState":{"key":"13","name":"Mecklenburg-Vorpommern"}},{"key":"13072029","name":"Dummerstorf","type":"Kreisangehörige_Gemeinde","postalCode":"18196","multiplePostalCodes":false,"association":{"key":"13072","name":"Dummerstorf","type":"Verbandsfreie_Gemeinde"},"district":{"key":"13072","name":"Landkreis Rostock","type":"Landkreis"},"federalState":{"key":"13","name":"Mecklenburg-Vorpommern"}},{"key":"13072030","name":"Elmenhorst/Lichtenhagen","type":"Kreisangehörige_Gemeinde","postalCode":"18107","multiplePostalCodes":false,"association":{"key":"13072","name":"Warnow-West","type":"Amt"},"district":{"key":"13072","name":"Landkreis Rostock","type":"Landkreis"},"federalState":{"key":"13","name":"Mecklenburg-Vorpommern"}},{"key":"13072031","name":"Finkenthal","type":"Kreisangehörige_Gemeinde","postalCode":"17179","multiplePostalCodes":false,"association":{"key":"13072","name":"Gnoien","type":"Amt"},"district":{"key":"13072","name":"Landkreis Rostock","type":"Landkreis"},"federalState":{"key":"13","name":"Mecklenburg-Vorpommern"}},{"key":"13072032","name":"Gelbensande","type":"Kreisangehörige_Gemeinde","postalCode":"18182","multiplePostalCodes":false,"association":{"key":"13072","name":"Rostocker Heide","type":"Amt"},"district":{"key":"13072","name":"Landkreis Rostock","type":"Landkreis"},"federalState":{"key":"13","name":"Mecklenburg-Vorpommern"}},{"key":"13072033","name":"Glasewitz","type":"Kreisangehörige_Gemeinde","postalCode":"18276","multiplePostalCodes":false,"association":{"key":"13072","name":"Güstrow-Land","type":"Amt"},"district":{"key":"13072","name":"Landkreis Rostock","type":"Landkreis"},"federalState":{"key":"13","name":"Mecklenburg-Vorpommern"}},{"key":"13072034","name":"Gnewitz","type":"Kreisangehörige_Gemeinde","postalCode":"18195","multiplePostalCodes":false,"association":{"key":"13072","name":"Tessin","type":"Amt"},"district":{"key":"13072","name":"Landkreis Rostock","type":"Landkreis"},"federalState":{"key":"13","name":"Mecklenburg-Vorpommern"}},{"key":"13072035","name":"Gnoien, Warbelstadt","type":"Stadt","postalCode":"17179","multiplePostalCodes":false,"association":{"key":"13072","name":"Gnoien","type":"Amt"},"district":{"key":"13072","name":"Landkreis Rostock","type":"Landkreis"},"federalState":{"key":"13","name":"Mecklenburg-Vorpommern"}},{"key":"13072036","name":"Graal-Müritz, Ostseeheilbad","type":"Kreisangehörige_Gemeinde","postalCode":"18181","multiplePostalCodes":false,"association":{"key":"13072","name":"Graal-Müritz, Ostseeheilbad","type":"Verbandsfreie_Gemeinde"},"district":{"key":"13072","name":"Landkreis Rostock","type":"Landkreis"},"federalState":{"key":"13","name":"Mecklenburg-Vorpommern"}},{"key":"13072037","name":"Grammow","type":"Kreisangehörige_Gemeinde","postalCode":"18195","multiplePostalCodes":false,"association":{"key":"13072","name":"Tessin","type":"Amt"},"district":{"key":"13072","name":"Landkreis Rostock","type":"Landkreis"},"federalState":{"key":"13","name":"Mecklenburg-Vorpommern"}},{"key":"13072038","name":"Groß Roge","type":"Kreisangehörige_Gemeinde","postalCode":"17166","multiplePostalCodes":false,"association":{"key":"13072","name":"Mecklenburgische Schweiz","type":"Amt"},"district":{"key":"13072","name":"Landkreis Rostock","type":"Landkreis"},"federalState":{"key":"13","name":"Mecklenburg-Vorpommern"}},{"key":"13072039","name":"Groß Schwiesow","type":"Kreisangehörige_Gemeinde","postalCode":"18276","multiplePostalCodes":false,"association":{"key":"13072","name":"Güstrow-Land","type":"Amt"},"district":{"key":"13072","name":"Landkreis Rostock","type":"Landkreis"},"federalState":{"key":"13","name":"Mecklenburg-Vorpommern"}},{"key":"13072040","name":"Groß Wokern","type":"Kreisangehörige_Gemeinde","postalCode":"17166","multiplePostalCodes":false,"association":{"key":"13072","name":"Mecklenburgische Schweiz","type":"Amt"},"district":{"key":"13072","name":"Landkreis Rostock","type":"Landkreis"},"federalState":{"key":"13","name":"Mecklenburg-Vorpommern"}},{"key":"13072041","name":"Groß Wüstenfelde","type":"Kreisangehörige_Gemeinde","postalCode":"17168","multiplePostalCodes":false,"association":{"key":"13072","name":"Mecklenburgische Schweiz","type":"Amt"},"district":{"key":"13072","name":"Landkreis Rostock","type":"Landkreis"},"federalState":{"key":"13","name":"Mecklenburg-Vorpommern"}},{"key":"13072042","name":"Gülzow-Prüzen","type":"Kreisangehörige_Gemeinde","postalCode":"18276","multiplePostalCodes":false,"association":{"key":"13072","name":"Güstrow-Land","type":"Amt"},"district":{"key":"13072","name":"Landkreis Rostock","type":"Landkreis"},"federalState":{"key":"13","name":"Mecklenburg-Vorpommern"}},{"key":"13072043","name":"Güstrow, Barlachstadt","type":"Stadt","postalCode":"18273","multiplePostalCodes":false,"association":{"key":"13072","name":"Güstrow, Barlachstadt","type":"Verbandsfreie_Gemeinde"},"district":{"key":"13072","name":"Landkreis Rostock","type":"Landkreis"},"federalState":{"key":"13","name":"Mecklenburg-Vorpommern"}},{"key":"13072044","name":"Gutow","type":"Kreisangehörige_Gemeinde","postalCode":"18276","multiplePostalCodes":false,"association":{"key":"13072","name":"Güstrow-Land","type":"Amt"},"district":{"key":"13072","name":"Landkreis Rostock","type":"Landkreis"},"federalState":{"key":"13","name":"Mecklenburg-Vorpommern"}},{"key":"13072045","name":"Hohen Demzin","type":"Kreisangehörige_Gemeinde","postalCode":"17166","multiplePostalCodes":false,"association":{"key":"13072","name":"Mecklenburgische Schweiz","type":"Amt"},"district":{"key":"13072","name":"Landkreis Rostock","type":"Landkreis"},"federalState":{"key":"13","name":"Mecklenburg-Vorpommern"}},{"key":"13072046","name":"Hohen Sprenz","type":"Kreisangehörige_Gemeinde","postalCode":"18299","multiplePostalCodes":false,"association":{"key":"13072","name":"Laage","type":"Amt"},"district":{"key":"13072","name":"Landkreis Rostock","type":"Landkreis"},"federalState":{"key":"13","name":"Mecklenburg-Vorpommern"}},{"key":"13072047","name":"Hohenfelde","type":"Kreisangehörige_Gemeinde","postalCode":"18209","multiplePostalCodes":true,"association":{"key":"13072","name":"Bad Doberan-Land","type":"Amt"},"district":{"key":"13072","name":"Landkreis Rostock","type":"Landkreis"},"federalState":{"key":"13","name":"Mecklenburg-Vorpommern"}},{"key":"13072048","name":"Hoppenrade","type":"Kreisangehörige_Gemeinde","postalCode":"18292","multiplePostalCodes":false,"association":{"key":"13072","name":"Krakow am See","type":"Amt"},"district":{"key":"13072","name":"Landkreis Rostock","type":"Landkreis"},"federalState":{"key":"13","name":"Mecklenburg-Vorpommern"}},{"key":"13072049","name":"Jördenstorf","type":"Kreisangehörige_Gemeinde","postalCode":"17168","multiplePostalCodes":false,"association":{"key":"13072","name":"Mecklenburgische Schweiz","type":"Amt"},"district":{"key":"13072","name":"Landkreis Rostock","type":"Landkreis"},"federalState":{"key":"13","name":"Mecklenburg-Vorpommern"}},{"key":"13072050","name":"Jürgenshagen","type":"Kreisangehörige_Gemeinde","postalCode":"18246","multiplePostalCodes":false,"association":{"key":"13072","name":"Bützow-Land","type":"Amt"},"district":{"key":"13072","name":"Landkreis Rostock","type":"Landkreis"},"federalState":{"key":"13","name":"Mecklenburg-Vorpommern"}},{"key":"13072051","name":"Kassow","type":"Kreisangehörige_Gemeinde","postalCode":"18258","multiplePostalCodes":false,"association":{"key":"13072","name":"Schwaan","type":"Amt"},"district":{"key":"13072","name":"Landkreis Rostock","type":"Landkreis"},"federalState":{"key":"13","name":"Mecklenburg-Vorpommern"}},{"key":"13072053","name":"Klein Belitz","type":"Kreisangehörige_Gemeinde","postalCode":"18246","multiplePostalCodes":false,"association":{"key":"13072","name":"Bützow-Land","type":"Amt"},"district":{"key":"13072","name":"Landkreis Rostock","type":"Landkreis"},"federalState":{"key":"13","name":"Mecklenburg-Vorpommern"}},{"key":"13072055","name":"Klein Upahl","type":"Kreisangehörige_Gemeinde","postalCode":"18276","multiplePostalCodes":false,"association":{"key":"13072","name":"Güstrow-Land","type":"Amt"},"district":{"key":"13072","name":"Landkreis Rostock","type":"Landkreis"},"federalState":{"key":"13","name":"Mecklenburg-Vorpommern"}},{"key":"13072056","name":"Krakow am See, Stadt","type":"Stadt","postalCode":"18292","multiplePostalCodes":false,"association":{"key":"13072","name":"Krakow am See","type":"Amt"},"district":{"key":"13072","name":"Landkreis Rostock","type":"Landkreis"},"federalState":{"key":"13","name":"Mecklenburg-Vorpommern"}},{"key":"13072057","name":"Kritzmow","type":"Kreisangehörige_Gemeinde","postalCode":"18198","multiplePostalCodes":false,"association":{"key":"13072","name":"Warnow-West","type":"Amt"},"district":{"key":"13072","name":"Landkreis Rostock","type":"Landkreis"},"federalState":{"key":"13","name":"Mecklenburg-Vorpommern"}},{"key":"13072058","name":"Kröpelin, Stadt","type":"Stadt","postalCode":"18236","multiplePostalCodes":false,"association":{"key":"13072","name":"Kröpelin, Stadt","type":"Verbandsfreie_Gemeinde"},"district":{"key":"13072","name":"Landkreis Rostock","type":"Landkreis"},"federalState":{"key":"13","name":"Mecklenburg-Vorpommern"}},{"key":"13072059","name":"Kuchelmiß","type":"Kreisangehörige_Gemeinde","postalCode":"18292","multiplePostalCodes":false,"association":{"key":"13072","name":"Krakow am See","type":"Amt"},"district":{"key":"13072","name":"Landkreis Rostock","type":"Landkreis"},"federalState":{"key":"13","name":"Mecklenburg-Vorpommern"}},{"key":"13072060","name":"Kühlungsborn, Ostseebad, Stadt","type":"Stadt","postalCode":"18225","multiplePostalCodes":false,"association":{"key":"13072","name":"Kühlungsborn, Ostseebad, Stadt","type":"Verbandsfreie_Gemeinde"},"district":{"key":"13072","name":"Landkreis Rostock","type":"Landkreis"},"federalState":{"key":"13","name":"Mecklenburg-Vorpommern"}},{"key":"13072061","name":"Kuhs","type":"Kreisangehörige_Gemeinde","postalCode":"18276","multiplePostalCodes":false,"association":{"key":"13072","name":"Güstrow-Land","type":"Amt"},"district":{"key":"13072","name":"Landkreis Rostock","type":"Landkreis"},"federalState":{"key":"13","name":"Mecklenburg-Vorpommern"}},{"key":"13072062","name":"Laage, Stadt","type":"Stadt","postalCode":"18299","multiplePostalCodes":false,"association":{"key":"13072","name":"Laage","type":"Amt"},"district":{"key":"13072","name":"Landkreis Rostock","type":"Landkreis"},"federalState":{"key":"13","name":"Mecklenburg-Vorpommern"}},{"key":"13072063","name":"Lalendorf","type":"Kreisangehörige_Gemeinde","postalCode":"18279","multiplePostalCodes":false,"association":{"key":"13072","name":"Krakow am See","type":"Amt"},"district":{"key":"13072","name":"Landkreis Rostock","type":"Landkreis"},"federalState":{"key":"13","name":"Mecklenburg-Vorpommern"}},{"key":"13072064","name":"Lambrechtshagen","type":"Kreisangehörige_Gemeinde","postalCode":"18069","multiplePostalCodes":false,"association":{"key":"13072","name":"Warnow-West","type":"Amt"},"district":{"key":"13072","name":"Landkreis Rostock","type":"Landkreis"},"federalState":{"key":"13","name":"Mecklenburg-Vorpommern"}},{"key":"13072066","name":"Lelkendorf","type":"Kreisangehörige_Gemeinde","postalCode":"17168","multiplePostalCodes":false,"association":{"key":"13072","name":"Mecklenburgische Schweiz","type":"Amt"},"district":{"key":"13072","name":"Landkreis Rostock","type":"Landkreis"},"federalState":{"key":"13","name":"Mecklenburg-Vorpommern"}},{"key":"13072067","name":"Lohmen","type":"Kreisangehörige_Gemeinde","postalCode":"18276","multiplePostalCodes":false,"association":{"key":"13072","name":"Güstrow-Land","type":"Amt"},"district":{"key":"13072","name":"Landkreis Rostock","type":"Landkreis"},"federalState":{"key":"13","name":"Mecklenburg-Vorpommern"}},{"key":"13072069","name":"Lüssow","type":"Kreisangehörige_Gemeinde","postalCode":"18276","multiplePostalCodes":false,"association":{"key":"13072","name":"Güstrow-Land","type":"Amt"},"district":{"key":"13072","name":"Landkreis Rostock","type":"Landkreis"},"federalState":{"key":"13","name":"Mecklenburg-Vorpommern"}},{"key":"13072071","name":"Mistorf","type":"Kreisangehörige_Gemeinde","postalCode":"18276","multiplePostalCodes":false,"association":{"key":"13072","name":"Güstrow-Land","type":"Amt"},"district":{"key":"13072","name":"Landkreis Rostock","type":"Landkreis"},"federalState":{"key":"13","name":"Mecklenburg-Vorpommern"}},{"key":"13072072","name":"Mönchhagen","type":"Kreisangehörige_Gemeinde","postalCode":"18182","multiplePostalCodes":false,"association":{"key":"13072","name":"Rostocker Heide","type":"Amt"},"district":{"key":"13072","name":"Landkreis Rostock","type":"Landkreis"},"federalState":{"key":"13","name":"Mecklenburg-Vorpommern"}},{"key":"13072073","name":"Mühl Rosin","type":"Kreisangehörige_Gemeinde","postalCode":"18276","multiplePostalCodes":false,"association":{"key":"13072","name":"Güstrow-Land","type":"Amt"},"district":{"key":"13072","name":"Landkreis Rostock","type":"Landkreis"},"federalState":{"key":"13","name":"Mecklenburg-Vorpommern"}},{"key":"13072074","name":"Neubukow, Schliemannstadt","type":"Stadt","postalCode":"18233","multiplePostalCodes":false,"association":{"key":"13072","name":"Neubukow, Schliemannstadt","type":"Verbandsfreie_Gemeinde"},"district":{"key":"13072","name":"Landkreis Rostock","type":"Landkreis"},"federalState":{"key":"13","name":"Mecklenburg-Vorpommern"}},{"key":"13072075","name":"Nienhagen, Ostseebad","type":"Kreisangehörige_Gemeinde","postalCode":"18211","multiplePostalCodes":false,"association":{"key":"13072","name":"Bad Doberan-Land","type":"Amt"},"district":{"key":"13072","name":"Landkreis Rostock","type":"Landkreis"},"federalState":{"key":"13","name":"Mecklenburg-Vorpommern"}},{"key":"13072076","name":"Nustrow","type":"Kreisangehörige_Gemeinde","postalCode":"18195","multiplePostalCodes":false,"association":{"key":"13072","name":"Tessin","type":"Amt"},"district":{"key":"13072","name":"Landkreis Rostock","type":"Landkreis"},"federalState":{"key":"13","name":"Mecklenburg-Vorpommern"}},{"key":"13072077","name":"Papendorf","type":"Kreisangehörige_Gemeinde","postalCode":"18059","multiplePostalCodes":false,"association":{"key":"13072","name":"Warnow-West","type":"Amt"},"district":{"key":"13072","name":"Landkreis Rostock","type":"Landkreis"},"federalState":{"key":"13","name":"Mecklenburg-Vorpommern"}},{"key":"13072078","name":"Penzin","type":"Kreisangehörige_Gemeinde","postalCode":"18249","multiplePostalCodes":false,"association":{"key":"13072","name":"Bützow-Land","type":"Amt"},"district":{"key":"13072","name":"Landkreis Rostock","type":"Landkreis"},"federalState":{"key":"13","name":"Mecklenburg-Vorpommern"}},{"key":"13072079","name":"Plaaz","type":"Kreisangehörige_Gemeinde","postalCode":"18276","multiplePostalCodes":false,"association":{"key":"13072","name":"Güstrow-Land","type":"Amt"},"district":{"key":"13072","name":"Landkreis Rostock","type":"Landkreis"},"federalState":{"key":"13","name":"Mecklenburg-Vorpommern"}},{"key":"13072080","name":"Pölchow","type":"Kreisangehörige_Gemeinde","postalCode":"18059","multiplePostalCodes":false,"association":{"key":"13072","name":"Warnow-West","type":"Amt"},"district":{"key":"13072","name":"Landkreis Rostock","type":"Landkreis"},"federalState":{"key":"13","name":"Mecklenburg-Vorpommern"}},{"key":"13072081","name":"Poppendorf","type":"Kreisangehörige_Gemeinde","postalCode":"18184","multiplePostalCodes":false,"association":{"key":"13072","name":"Carbäk","type":"Amt"},"district":{"key":"13072","name":"Landkreis Rostock","type":"Landkreis"},"federalState":{"key":"13","name":"Mecklenburg-Vorpommern"}},{"key":"13072082","name":"Prebberede","type":"Kreisangehörige_Gemeinde","postalCode":"17168","multiplePostalCodes":false,"association":{"key":"13072","name":"Mecklenburgische Schweiz","type":"Amt"},"district":{"key":"13072","name":"Landkreis Rostock","type":"Landkreis"},"federalState":{"key":"13","name":"Mecklenburg-Vorpommern"}},{"key":"13072083","name":"Reddelich","type":"Kreisangehörige_Gemeinde","postalCode":"18209","multiplePostalCodes":false,"association":{"key":"13072","name":"Bad Doberan-Land","type":"Amt"},"district":{"key":"13072","name":"Landkreis Rostock","type":"Landkreis"},"federalState":{"key":"13","name":"Mecklenburg-Vorpommern"}},{"key":"13072084","name":"Reimershagen","type":"Kreisangehörige_Gemeinde","postalCode":"18276","multiplePostalCodes":false,"association":{"key":"13072","name":"Güstrow-Land","type":"Amt"},"district":{"key":"13072","name":"Landkreis Rostock","type":"Landkreis"},"federalState":{"key":"13","name":"Mecklenburg-Vorpommern"}},{"key":"13072085","name":"Rerik, Ostseebad, Stadt","type":"Stadt","postalCode":"18230","multiplePostalCodes":false,"association":{"key":"13072","name":"Neubukow-Salzhaff","type":"Amt"},"district":{"key":"13072","name":"Landkreis Rostock","type":"Landkreis"},"federalState":{"key":"13","name":"Mecklenburg-Vorpommern"}},{"key":"13072086","name":"Retschow","type":"Kreisangehörige_Gemeinde","postalCode":"18211","multiplePostalCodes":true,"association":{"key":"13072","name":"Bad Doberan-Land","type":"Amt"},"district":{"key":"13072","name":"Landkreis Rostock","type":"Landkreis"},"federalState":{"key":"13","name":"Mecklenburg-Vorpommern"}},{"key":"13072087","name":"Roggentin","type":"Kreisangehörige_Gemeinde","postalCode":"18184","multiplePostalCodes":false,"association":{"key":"13072","name":"Carbäk","type":"Amt"},"district":{"key":"13072","name":"Landkreis Rostock","type":"Landkreis"},"federalState":{"key":"13","name":"Mecklenburg-Vorpommern"}},{"key":"13072088","name":"Rövershagen","type":"Kreisangehörige_Gemeinde","postalCode":"18182","multiplePostalCodes":false,"association":{"key":"13072","name":"Rostocker Heide","type":"Amt"},"district":{"key":"13072","name":"Landkreis Rostock","type":"Landkreis"},"federalState":{"key":"13","name":"Mecklenburg-Vorpommern"}},{"key":"13072089","name":"Rühn","type":"Kreisangehörige_Gemeinde","postalCode":"18246","multiplePostalCodes":false,"association":{"key":"13072","name":"Bützow-Land","type":"Amt"},"district":{"key":"13072","name":"Landkreis Rostock","type":"Landkreis"},"federalState":{"key":"13","name":"Mecklenburg-Vorpommern"}},{"key":"13072090","name":"Rukieten","type":"Kreisangehörige_Gemeinde","postalCode":"18258","multiplePostalCodes":false,"association":{"key":"13072","name":"Schwaan","type":"Amt"},"district":{"key":"13072","name":"Landkreis Rostock","type":"Landkreis"},"federalState":{"key":"13","name":"Mecklenburg-Vorpommern"}},{"key":"13072091","name":"Sanitz","type":"Kreisangehörige_Gemeinde","postalCode":"18190","multiplePostalCodes":false,"association":{"key":"13072","name":"Sanitz","type":"Verbandsfreie_Gemeinde"},"district":{"key":"13072","name":"Landkreis Rostock","type":"Landkreis"},"federalState":{"key":"13","name":"Mecklenburg-Vorpommern"}},{"key":"13072092","name":"Sarmstorf","type":"Kreisangehörige_Gemeinde","postalCode":"18276","multiplePostalCodes":false,"association":{"key":"13072","name":"Güstrow-Land","type":"Amt"},"district":{"key":"13072","name":"Landkreis Rostock","type":"Landkreis"},"federalState":{"key":"13","name":"Mecklenburg-Vorpommern"}},{"key":"13072093","name":"Satow","type":"Kreisangehörige_Gemeinde","postalCode":"18239","multiplePostalCodes":false,"association":{"key":"13072","name":"Satow","type":"Verbandsfreie_Gemeinde"},"district":{"key":"13072","name":"Landkreis Rostock","type":"Landkreis"},"federalState":{"key":"13","name":"Mecklenburg-Vorpommern"}},{"key":"13072094","name":"Schorssow","type":"Kreisangehörige_Gemeinde","postalCode":"17166","multiplePostalCodes":false,"association":{"key":"13072","name":"Mecklenburgische Schweiz","type":"Amt"},"district":{"key":"13072","name":"Landkreis Rostock","type":"Landkreis"},"federalState":{"key":"13","name":"Mecklenburg-Vorpommern"}},{"key":"13072095","name":"Schwaan, Stadt","type":"Stadt","postalCode":"18258","multiplePostalCodes":false,"association":{"key":"13072","name":"Schwaan","type":"Amt"},"district":{"key":"13072","name":"Landkreis Rostock","type":"Landkreis"},"federalState":{"key":"13","name":"Mecklenburg-Vorpommern"}},{"key":"13072096","name":"Schwasdorf","type":"Kreisangehörige_Gemeinde","postalCode":"17168","multiplePostalCodes":false,"association":{"key":"13072","name":"Mecklenburgische Schweiz","type":"Amt"},"district":{"key":"13072","name":"Landkreis Rostock","type":"Landkreis"},"federalState":{"key":"13","name":"Mecklenburg-Vorpommern"}},{"key":"13072097","name":"Selpin","type":"Kreisangehörige_Gemeinde","postalCode":"18195","multiplePostalCodes":false,"association":{"key":"13072","name":"Tessin","type":"Amt"},"district":{"key":"13072","name":"Landkreis Rostock","type":"Landkreis"},"federalState":{"key":"13","name":"Mecklenburg-Vorpommern"}},{"key":"13072098","name":"Stäbelow","type":"Kreisangehörige_Gemeinde","postalCode":"18198","multiplePostalCodes":false,"association":{"key":"13072","name":"Warnow-West","type":"Amt"},"district":{"key":"13072","name":"Landkreis Rostock","type":"Landkreis"},"federalState":{"key":"13","name":"Mecklenburg-Vorpommern"}},{"key":"13072099","name":"Steffenshagen","type":"Kreisangehörige_Gemeinde","postalCode":"18209","multiplePostalCodes":false,"association":{"key":"13072","name":"Bad Doberan-Land","type":"Amt"},"district":{"key":"13072","name":"Landkreis Rostock","type":"Landkreis"},"federalState":{"key":"13","name":"Mecklenburg-Vorpommern"}},{"key":"13072101","name":"Steinhagen","type":"Kreisangehörige_Gemeinde","postalCode":"18246","multiplePostalCodes":false,"association":{"key":"13072","name":"Bützow-Land","type":"Amt"},"district":{"key":"13072","name":"Landkreis Rostock","type":"Landkreis"},"federalState":{"key":"13","name":"Mecklenburg-Vorpommern"}},{"key":"13072102","name":"Stubbendorf","type":"Kreisangehörige_Gemeinde","postalCode":"18195","multiplePostalCodes":false,"association":{"key":"13072","name":"Tessin","type":"Amt"},"district":{"key":"13072","name":"Landkreis Rostock","type":"Landkreis"},"federalState":{"key":"13","name":"Mecklenburg-Vorpommern"}},{"key":"13072103","name":"Sukow-Levitzow","type":"Kreisangehörige_Gemeinde","postalCode":"17168","multiplePostalCodes":false,"association":{"key":"13072","name":"Mecklenburgische Schweiz","type":"Amt"},"district":{"key":"13072","name":"Landkreis Rostock","type":"Landkreis"},"federalState":{"key":"13","name":"Mecklenburg-Vorpommern"}},{"key":"13072104","name":"Tarnow","type":"Kreisangehörige_Gemeinde","postalCode":"18249","multiplePostalCodes":false,"association":{"key":"13072","name":"Bützow-Land","type":"Amt"},"district":{"key":"13072","name":"Landkreis Rostock","type":"Landkreis"},"federalState":{"key":"13","name":"Mecklenburg-Vorpommern"}},{"key":"13072105","name":"Tessin, Blumenstadt","type":"Stadt","postalCode":"18195","multiplePostalCodes":false,"association":{"key":"13072","name":"Tessin","type":"Amt"},"district":{"key":"13072","name":"Landkreis Rostock","type":"Landkreis"},"federalState":{"key":"13","name":"Mecklenburg-Vorpommern"}},{"key":"13072106","name":"Teterow, Bergringstadt","type":"Stadt","postalCode":"17166","multiplePostalCodes":false,"association":{"key":"13072","name":"Teterow, Bergringstadt","type":"Verbandsfreie_Gemeinde"},"district":{"key":"13072","name":"Landkreis Rostock","type":"Landkreis"},"federalState":{"key":"13","name":"Mecklenburg-Vorpommern"}},{"key":"13072107","name":"Thelkow","type":"Kreisangehörige_Gemeinde","postalCode":"18195","multiplePostalCodes":false,"association":{"key":"13072","name":"Tessin","type":"Amt"},"district":{"key":"13072","name":"Landkreis Rostock","type":"Landkreis"},"federalState":{"key":"13","name":"Mecklenburg-Vorpommern"}},{"key":"13072108","name":"Thulendorf","type":"Kreisangehörige_Gemeinde","postalCode":"18184","multiplePostalCodes":false,"association":{"key":"13072","name":"Carbäk","type":"Amt"},"district":{"key":"13072","name":"Landkreis Rostock","type":"Landkreis"},"federalState":{"key":"13","name":"Mecklenburg-Vorpommern"}},{"key":"13072109","name":"Thürkow","type":"Kreisangehörige_Gemeinde","postalCode":"17168","multiplePostalCodes":false,"association":{"key":"13072","name":"Mecklenburgische Schweiz","type":"Amt"},"district":{"key":"13072","name":"Landkreis Rostock","type":"Landkreis"},"federalState":{"key":"13","name":"Mecklenburg-Vorpommern"}},{"key":"13072110","name":"Vorbeck","type":"Kreisangehörige_Gemeinde","postalCode":"18258","multiplePostalCodes":false,"association":{"key":"13072","name":"Schwaan","type":"Amt"},"district":{"key":"13072","name":"Landkreis Rostock","type":"Landkreis"},"federalState":{"key":"13","name":"Mecklenburg-Vorpommern"}},{"key":"13072111","name":"Walkendorf","type":"Kreisangehörige_Gemeinde","postalCode":"17179","multiplePostalCodes":false,"association":{"key":"13072","name":"Gnoien","type":"Amt"},"district":{"key":"13072","name":"Landkreis Rostock","type":"Landkreis"},"federalState":{"key":"13","name":"Mecklenburg-Vorpommern"}},{"key":"13072112","name":"Wardow","type":"Kreisangehörige_Gemeinde","postalCode":"18299","multiplePostalCodes":false,"association":{"key":"13072","name":"Laage","type":"Amt"},"district":{"key":"13072","name":"Landkreis Rostock","type":"Landkreis"},"federalState":{"key":"13","name":"Mecklenburg-Vorpommern"}},{"key":"13072113","name":"Warnkenhagen","type":"Kreisangehörige_Gemeinde","postalCode":"17168","multiplePostalCodes":false,"association":{"key":"13072","name":"Mecklenburgische Schweiz","type":"Amt"},"district":{"key":"13072","name":"Landkreis Rostock","type":"Landkreis"},"federalState":{"key":"13","name":"Mecklenburg-Vorpommern"}},{"key":"13072114","name":"Warnow","type":"Kreisangehörige_Gemeinde","postalCode":"18249","multiplePostalCodes":false,"association":{"key":"13072","name":"Bützow-Land","type":"Amt"},"district":{"key":"13072","name":"Landkreis Rostock","type":"Landkreis"},"federalState":{"key":"13","name":"Mecklenburg-Vorpommern"}},{"key":"13072116","name":"Wiendorf","type":"Kreisangehörige_Gemeinde","postalCode":"18258","multiplePostalCodes":false,"association":{"key":"13072","name":"Schwaan","type":"Amt"},"district":{"key":"13072","name":"Landkreis Rostock","type":"Landkreis"},"federalState":{"key":"13","name":"Mecklenburg-Vorpommern"}},{"key":"13072117","name":"Wittenbeck","type":"Kreisangehörige_Gemeinde","postalCode":"18209","multiplePostalCodes":false,"association":{"key":"13072","name":"Bad Doberan-Land","type":"Amt"},"district":{"key":"13072","name":"Landkreis Rostock","type":"Landkreis"},"federalState":{"key":"13","name":"Mecklenburg-Vorpommern"}},{"key":"13072118","name":"Zarnewanz","type":"Kreisangehörige_Gemeinde","postalCode":"18195","multiplePostalCodes":false,"association":{"key":"13072","name":"Tessin","type":"Amt"},"district":{"key":"13072","name":"Landkreis Rostock","type":"Landkreis"},"federalState":{"key":"13","name":"Mecklenburg-Vorpommern"}},{"key":"13072119","name":"Zehna","type":"Kreisangehörige_Gemeinde","postalCode":"18276","multiplePostalCodes":false,"association":{"key":"13072","name":"Güstrow-Land","type":"Amt"},"district":{"key":"13072","name":"Landkreis Rostock","type":"Landkreis"},"federalState":{"key":"13","name":"Mecklenburg-Vorpommern"}},{"key":"13072120","name":"Zepelin","type":"Kreisangehörige_Gemeinde","postalCode":"18246","multiplePostalCodes":false,"association":{"key":"13072","name":"Bützow-Land","type":"Amt"},"district":{"key":"13072","name":"Landkreis Rostock","type":"Landkreis"},"federalState":{"key":"13","name":"Mecklenburg-Vorpommern"}},{"key":"13072121","name":"Ziesendorf","type":"Kreisangehörige_Gemeinde","postalCode":"18059","multiplePostalCodes":false,"association":{"key":"13072","name":"Warnow-West","type":"Amt"},"district":{"key":"13072","name":"Landkreis Rostock","type":"Landkreis"},"federalState":{"key":"13","name":"Mecklenburg-Vorpommern"}}]