[{"name":"Abt-Anselm-Str.","postalCode":"82140","locality":"Olching","municipality":{"key":"09179142","name":"Olching, St","type":"Stadt"},"district":{"key":"09179","name":"Fürstenfeldbruck","type":"Landkreis"},"federalState":{"key":"09","name":"Bayern"}},{"name":"Adalbert-Stifter-Weg","postalCode":"82140","locality":"Olching","municipality":{"key":"09179142","name":"Olching, St","type":"Stadt"},"district":{"key":"09179","name":"Fürstenfeldbruck","type":"Landkreis"},"federalState":{"key":"09","name":"Bayern"}},{"name":"Adelgundenweg","postalCode":"82140","locality":"Olching","municipality":{"key":"09179142","name":"Olching, St","type":"Stadt"},"district":{"key":"09179","name":"Fürstenfeldbruck","type":"Landkreis"},"federalState":{"key":"09","name":"Bayern"}},{"name":"Adlerweg","postalCode":"82140","locality":"Olching","municipality":{"key":"09179142","name":"Olching, St","type":"Stadt"},"district":{"key":"09179","name":"Fürstenfeldbruck","type":"Landkreis"},"federalState":{"key":"09","name":"Bayern"}},{"name":"Adolf-Kolping-Weg","postalCode":"82140","locality":"Olching","municipality":{"key":"09179142","name":"Olching, St","type":"Stadt"},"district":{"key":"09179","name":"Fürstenfeldbruck","type":"Landkreis"},"federalState":{"key":"09","name":"Bayern"}},{"name":"Albert-Leiss-Weg","postalCode":"82140","locality":"Olching","municipality":{"key":"09179142","name":"Olching, St","type":"Stadt"},"district":{"key":"09179","name":"Fürstenfeldbruck","type":"Landkreis"},"federalState":{"key":"09","name":"Bayern"}},{"name":"Albrecht-Dürer-Str.","postalCode":"82140","locality":"Olching","municipality":{"key":"09179142","name":"Olching, St","type":"Stadt"},"district":{"key":"09179","name":"Fürstenfeldbruck","type":"Landkreis"},"federalState":{"key":"09","name":"Bayern"}},{"name":"Almenrauschweg","postalCode":"82140","locality":"Olching","municipality":{"key":"09179142","name":"Olching, St","type":"Stadt"},"district":{"key":"09179","name":"Fürstenfeldbruck","type":"Landkreis"},"federalState":{"key":"09","name":"Bayern"}},{"name":"Alpenveilchenweg","postalCode":"82140","locality":"Olching","municipality":{"key":"09179142","name":"Olching, St","type":"Stadt"},"district":{"key":"09179","name":"Fürstenfeldbruck","type":"Landkreis"},"federalState":{"key":"09","name":"Bayern"}},{"name":"Alpspitzstr.","postalCode":"82140","locality":"Olching","municipality":{"key":"09179142","name":"Olching, St","type":"Stadt"},"district":{"key":"09179","name":"Fürstenfeldbruck","type":"Landkreis"},"federalState":{"key":"09","name":"Bayern"}},{"name":"Alpspitzweg","postalCode":"82140","locality":"Olching","municipality":{"key":"09179142","name":"Olching, St","type":"Stadt"},"district":{"key":"09179","name":"Fürstenfeldbruck","type":"Landkreis"},"federalState":{"key":"09","name":"Bayern"}},{"name":"Alter Bahndamm","postalCode":"82140","locality":"Olching","municipality":{"key":"09179142","name":"Olching, St","type":"Stadt"},"district":{"key":"09179","name":"Fürstenfeldbruck","type":"Landkreis"},"federalState":{"key":"09","name":"Bayern"}},{"name":"Altmühlweg","postalCode":"82140","locality":"Olching","municipality":{"key":"09179142","name":"Olching, St","type":"Stadt"},"district":{"key":"09179","name":"Fürstenfeldbruck","type":"Landkreis"},"federalState":{"key":"09","name":"Bayern"}},{"name":"Amalienstr.","postalCode":"82140","locality":"Olching","municipality":{"key":"09179142","name":"Olching, St","type":"Stadt"},"district":{"key":"09179","name":"Fürstenfeldbruck","type":"Landkreis"},"federalState":{"key":"09","name":"Bayern"}},{"name":"Ammerweg","postalCode":"82140","locality":"Olching","municipality":{"key":"09179142","name":"Olching, St","type":"Stadt"},"district":{"key":"09179","name":"Fürstenfeldbruck","type":"Landkreis"},"federalState":{"key":"09","name":"Bayern"}},{"name":"Amperau","postalCode":"82140","locality":"Olching","municipality":{"key":"09179142","name":"Olching, St","type":"Stadt"},"district":{"key":"09179","name":"Fürstenfeldbruck","type":"Landkreis"},"federalState":{"key":"09","name":"Bayern"}},{"name":"Amperweg","postalCode":"82140","locality":"Olching","municipality":{"key":"09179142","name":"Olching, St","type":"Stadt"},"district":{"key":"09179","name":"Fürstenfeldbruck","type":"Landkreis"},"federalState":{"key":"09","name":"Bayern"}},{"name":"Amselweg","postalCode":"82140","locality":"Olching","municipality":{"key":"09179142","name":"Olching, St","type":"Stadt"},"district":{"key":"09179","name":"Fürstenfeldbruck","type":"Landkreis"},"federalState":{"key":"09","name":"Bayern"}},{"name":"Am Sonneneck","postalCode":"82140","locality":"Olching","municipality":{"key":"09179142","name":"Olching, St","type":"Stadt"},"district":{"key":"09179","name":"Fürstenfeldbruck","type":"Landkreis"},"federalState":{"key":"09","name":"Bayern"}},{"name":"Am Vogelherd","postalCode":"82140","locality":"Olching","municipality":{"key":"09179142","name":"Olching, St","type":"Stadt"},"district":{"key":"09179","name":"Fürstenfeldbruck","type":"Landkreis"},"federalState":{"key":"09","name":"Bayern"}},{"name":"Ancilla-Schwarz-Weg","postalCode":"82140","locality":"Olching","municipality":{"key":"09179142","name":"Olching, St","type":"Stadt"},"district":{"key":"09179","name":"Fürstenfeldbruck","type":"Landkreis"},"federalState":{"key":"09","name":"Bayern"}},{"name":"André-Delorme-Str.","postalCode":"82140","locality":"Olching","municipality":{"key":"09179142","name":"Olching, St","type":"Stadt"},"district":{"key":"09179","name":"Fürstenfeldbruck","type":"Landkreis"},"federalState":{"key":"09","name":"Bayern"}},{"name":"Angerweg","postalCode":"82140","locality":"Olching","municipality":{"key":"09179142","name":"Olching, St","type":"Stadt"},"district":{"key":"09179","name":"Fürstenfeldbruck","type":"Landkreis"},"federalState":{"key":"09","name":"Bayern"}},{"name":"Anzengruberstr.","postalCode":"82140","locality":"Olching","municipality":{"key":"09179142","name":"Olching, St","type":"Stadt"},"district":{"key":"09179","name":"Fürstenfeldbruck","type":"Landkreis"},"federalState":{"key":"09","name":"Bayern"}},{"name":"Arnulfweg","postalCode":"82140","locality":"Olching","municipality":{"key":"09179142","name":"Olching, St","type":"Stadt"},"district":{"key":"09179","name":"Fürstenfeldbruck","type":"Landkreis"},"federalState":{"key":"09","name":"Bayern"}},{"name":"Aubinger Str.","postalCode":"82140","locality":"Olching","municipality":{"key":"09179142","name":"Olching, St","type":"Stadt"},"district":{"key":"09179","name":"Fürstenfeldbruck","type":"Landkreis"},"federalState":{"key":"09","name":"Bayern"}},{"name":"Auf der Insel","postalCode":"82140","locality":"Olching","municipality":{"key":"09179142","name":"Olching, St","type":"Stadt"},"district":{"key":"09179","name":"Fürstenfeldbruck","type":"Landkreis"},"federalState":{"key":"09","name":"Bayern"}},{"name":"Augustenweg","postalCode":"82140","locality":"Olching","municipality":{"key":"09179142","name":"Olching, St","type":"Stadt"},"district":{"key":"09179","name":"Fürstenfeldbruck","type":"Landkreis"},"federalState":{"key":"09","name":"Bayern"}},{"name":"August-Exter-Str.","postalCode":"82140","locality":"Olching","municipality":{"key":"09179142","name":"Olching, St","type":"Stadt"},"district":{"key":"09179","name":"Fürstenfeldbruck","type":"Landkreis"},"federalState":{"key":"09","name":"Bayern"}},{"name":"Aurikelweg","postalCode":"82140","locality":"Olching","municipality":{"key":"09179142","name":"Olching, St","type":"Stadt"},"district":{"key":"09179","name":"Fürstenfeldbruck","type":"Landkreis"},"federalState":{"key":"09","name":"Bayern"}},{"name":"Bahnhofstr.","postalCode":"82140","locality":"Olching","municipality":{"key":"09179142","name":"Olching, St","type":"Stadt"},"district":{"key":"09179","name":"Fürstenfeldbruck","type":"Landkreis"},"federalState":{"key":"09","name":"Bayern"}},{"name":"Baltenweg","postalCode":"82140","locality":"Olching","municipality":{"key":"09179142","name":"Olching, St","type":"Stadt"},"district":{"key":"09179","name":"Fürstenfeldbruck","type":"Landkreis"},"federalState":{"key":"09","name":"Bayern"}},{"name":"Barbarastr.","postalCode":"82140","locality":"Olching","municipality":{"key":"09179142","name":"Olching, St","type":"Stadt"},"district":{"key":"09179","name":"Fürstenfeldbruck","type":"Landkreis"},"federalState":{"key":"09","name":"Bayern"}},{"name":"Beethovenstr.","postalCode":"82140","locality":"Olching","municipality":{"key":"09179142","name":"Olching, St","type":"Stadt"},"district":{"key":"09179","name":"Fürstenfeldbruck","type":"Landkreis"},"federalState":{"key":"09","name":"Bayern"}},{"name":"Berta-Höchendorfer-Str.","postalCode":"82140","locality":"Olching","municipality":{"key":"09179142","name":"Olching, St","type":"Stadt"},"district":{"key":"09179","name":"Fürstenfeldbruck","type":"Landkreis"},"federalState":{"key":"09","name":"Bayern"}},{"name":"Blaumeisenstr.","postalCode":"82140","locality":"Olching","municipality":{"key":"09179142","name":"Olching, St","type":"Stadt"},"district":{"key":"09179","name":"Fürstenfeldbruck","type":"Landkreis"},"federalState":{"key":"09","name":"Bayern"}},{"name":"Blumenstr.","postalCode":"82140","locality":"Olching","municipality":{"key":"09179142","name":"Olching, St","type":"Stadt"},"district":{"key":"09179","name":"Fürstenfeldbruck","type":"Landkreis"},"federalState":{"key":"09","name":"Bayern"}},{"name":"Blütenstr.","postalCode":"82140","locality":"Olching","municipality":{"key":"09179142","name":"Olching, St","type":"Stadt"},"district":{"key":"09179","name":"Fürstenfeldbruck","type":"Landkreis"},"federalState":{"key":"09","name":"Bayern"}},{"name":"Böhmerwaldweg","postalCode":"82140","locality":"Olching","municipality":{"key":"09179142","name":"Olching, St","type":"Stadt"},"district":{"key":"09179","name":"Fürstenfeldbruck","type":"Landkreis"},"federalState":{"key":"09","name":"Bayern"}},{"name":"Brachvogelweg","postalCode":"82140","locality":"Olching","municipality":{"key":"09179142","name":"Olching, St","type":"Stadt"},"district":{"key":"09179","name":"Fürstenfeldbruck","type":"Landkreis"},"federalState":{"key":"09","name":"Bayern"}},{"name":"Brahmsstr.","postalCode":"82140","locality":"Olching","municipality":{"key":"09179142","name":"Olching, St","type":"Stadt"},"district":{"key":"09179","name":"Fürstenfeldbruck","type":"Landkreis"},"federalState":{"key":"09","name":"Bayern"}},{"name":"Breslauer Str.","postalCode":"82140","locality":"Olching","municipality":{"key":"09179142","name":"Olching, St","type":"Stadt"},"district":{"key":"09179","name":"Fürstenfeldbruck","type":"Landkreis"},"federalState":{"key":"09","name":"Bayern"}},{"name":"Bromberger Weg","postalCode":"82140","locality":"Olching","municipality":{"key":"09179142","name":"Olching, St","type":"Stadt"},"district":{"key":"09179","name":"Fürstenfeldbruck","type":"Landkreis"},"federalState":{"key":"09","name":"Bayern"}},{"name":"Buchfinkenstr.","postalCode":"82140","locality":"Olching","municipality":{"key":"09179142","name":"Olching, St","type":"Stadt"},"district":{"key":"09179","name":"Fürstenfeldbruck","type":"Landkreis"},"federalState":{"key":"09","name":"Bayern"}},{"name":"Buchhoferstr.","postalCode":"82140","locality":"Olching","municipality":{"key":"09179142","name":"Olching, St","type":"Stadt"},"district":{"key":"09179","name":"Fürstenfeldbruck","type":"Landkreis"},"federalState":{"key":"09","name":"Bayern"}},{"name":"Bürgermeister-Drey-Str.","postalCode":"82140","locality":"Olching","municipality":{"key":"09179142","name":"Olching, St","type":"Stadt"},"district":{"key":"09179","name":"Fürstenfeldbruck","type":"Landkreis"},"federalState":{"key":"09","name":"Bayern"}},{"name":"Bürgermeister-Elfinger-Weg","postalCode":"82140","locality":"Olching","municipality":{"key":"09179142","name":"Olching, St","type":"Stadt"},"district":{"key":"09179","name":"Fürstenfeldbruck","type":"Landkreis"},"federalState":{"key":"09","name":"Bayern"}},{"name":"Bürgermeister-Grässmann-Str.","postalCode":"82140","locality":"Olching","municipality":{"key":"09179142","name":"Olching, St","type":"Stadt"},"district":{"key":"09179","name":"Fürstenfeldbruck","type":"Landkreis"},"federalState":{"key":"09","name":"Bayern"}},{"name":"Bürgermeister-Haidacher-Str.","postalCode":"82140","locality":"Olching","municipality":{"key":"09179142","name":"Olching, St","type":"Stadt"},"district":{"key":"09179","name":"Fürstenfeldbruck","type":"Landkreis"},"federalState":{"key":"09","name":"Bayern"}},{"name":"Bürgermeister-Huber-Weg","postalCode":"82140","locality":"Olching","municipality":{"key":"09179142","name":"Olching, St","type":"Stadt"},"district":{"key":"09179","name":"Fürstenfeldbruck","type":"Landkreis"},"federalState":{"key":"09","name":"Bayern"}},{"name":"Bürgermeister-März-Weg","postalCode":"82140","locality":"Olching","municipality":{"key":"09179142","name":"Olching, St","type":"Stadt"},"district":{"key":"09179","name":"Fürstenfeldbruck","type":"Landkreis"},"federalState":{"key":"09","name":"Bayern"}},{"name":"Bürgermeister-Schmölz-Weg","postalCode":"82140","locality":"Olching","municipality":{"key":"09179142","name":"Olching, St","type":"Stadt"},"district":{"key":"09179","name":"Fürstenfeldbruck","type":"Landkreis"},"federalState":{"key":"09","name":"Bayern"}},{"name":"Bürgermeister-Waibel-Weg","postalCode":"82140","locality":"Olching","municipality":{"key":"09179142","name":"Olching, St","type":"Stadt"},"district":{"key":"09179","name":"Fürstenfeldbruck","type":"Landkreis"},"federalState":{"key":"09","name":"Bayern"}},{"name":"Bürgermeister-Weger-Weg","postalCode":"82140","locality":"Olching","municipality":{"key":"09179142","name":"Olching, St","type":"Stadt"},"district":{"key":"09179","name":"Fürstenfeldbruck","type":"Landkreis"},"federalState":{"key":"09","name":"Bayern"}},{"name":"Charlottenstr.","postalCode":"82140","locality":"Olching","municipality":{"key":"09179142","name":"Olching, St","type":"Stadt"},"district":{"key":"09179","name":"Fürstenfeldbruck","type":"Landkreis"},"federalState":{"key":"09","name":"Bayern"}},{"name":"Cronenbergstr.","postalCode":"82140","locality":"Olching","municipality":{"key":"09179142","name":"Olching, St","type":"Stadt"},"district":{"key":"09179","name":"Fürstenfeldbruck","type":"Landkreis"},"federalState":{"key":"09","name":"Bayern"}},{"name":"Dachauer Str.","postalCode":"82140","locality":"Olching","municipality":{"key":"09179142","name":"Olching, St","type":"Stadt"},"district":{"key":"09179","name":"Fürstenfeldbruck","type":"Landkreis"},"federalState":{"key":"09","name":"Bayern"}},{"name":"Danziger Str.","postalCode":"82140","locality":"Olching","municipality":{"key":"09179142","name":"Olching, St","type":"Stadt"},"district":{"key":"09179","name":"Fürstenfeldbruck","type":"Landkreis"},"federalState":{"key":"09","name":"Bayern"}},{"name":"Donaustr.","postalCode":"82140","locality":"Olching","municipality":{"key":"09179142","name":"Olching, St","type":"Stadt"},"district":{"key":"09179","name":"Fürstenfeldbruck","type":"Landkreis"},"federalState":{"key":"09","name":"Bayern"}},{"name":"Dora-Heigenmooser-Str.","postalCode":"82140","locality":"Olching","municipality":{"key":"09179142","name":"Olching, St","type":"Stadt"},"district":{"key":"09179","name":"Fürstenfeldbruck","type":"Landkreis"},"federalState":{"key":"09","name":"Bayern"}},{"name":"Drosselweg","postalCode":"82140","locality":"Olching","municipality":{"key":"09179142","name":"Olching, St","type":"Stadt"},"district":{"key":"09179","name":"Fürstenfeldbruck","type":"Landkreis"},"federalState":{"key":"09","name":"Bayern"}},{"name":"Edisonweg","postalCode":"82140","locality":"Olching","municipality":{"key":"09179142","name":"Olching, St","type":"Stadt"},"district":{"key":"09179","name":"Fürstenfeldbruck","type":"Landkreis"},"federalState":{"key":"09","name":"Bayern"}},{"name":"Egerländer Weg","postalCode":"82140","locality":"Olching","municipality":{"key":"09179142","name":"Olching, St","type":"Stadt"},"district":{"key":"09179","name":"Fürstenfeldbruck","type":"Landkreis"},"federalState":{"key":"09","name":"Bayern"}},{"name":"Eichendorffstr.","postalCode":"82140","locality":"Olching","municipality":{"key":"09179142","name":"Olching, St","type":"Stadt"},"district":{"key":"09179","name":"Fürstenfeldbruck","type":"Landkreis"},"federalState":{"key":"09","name":"Bayern"}},{"name":"Eisvogelweg","postalCode":"82140","locality":"Olching","municipality":{"key":"09179142","name":"Olching, St","type":"Stadt"},"district":{"key":"09179","name":"Fürstenfeldbruck","type":"Landkreis"},"federalState":{"key":"09","name":"Bayern"}},{"name":"Elisabethstr.","postalCode":"82140","locality":"Olching","municipality":{"key":"09179142","name":"Olching, St","type":"Stadt"},"district":{"key":"09179","name":"Fürstenfeldbruck","type":"Landkreis"},"federalState":{"key":"09","name":"Bayern"}},{"name":"Emmeringer Str.","postalCode":"82140","locality":"Olching","municipality":{"key":"09179142","name":"Olching, St","type":"Stadt"},"district":{"key":"09179","name":"Fürstenfeldbruck","type":"Landkreis"},"federalState":{"key":"09","name":"Bayern"}},{"name":"Emmeringer Weg","postalCode":"82140","locality":"Olching","municipality":{"key":"09179142","name":"Olching, St","type":"Stadt"},"district":{"key":"09179","name":"Fürstenfeldbruck","type":"Landkreis"},"federalState":{"key":"09","name":"Bayern"}},{"name":"Enzianweg","postalCode":"82140","locality":"Olching","municipality":{"key":"09179142","name":"Olching, St","type":"Stadt"},"district":{"key":"09179","name":"Fürstenfeldbruck","type":"Landkreis"},"federalState":{"key":"09","name":"Bayern"}},{"name":"Ernst-Raadts-Weg","postalCode":"82140","locality":"Olching","municipality":{"key":"09179142","name":"Olching, St","type":"Stadt"},"district":{"key":"09179","name":"Fürstenfeldbruck","type":"Landkreis"},"federalState":{"key":"09","name":"Bayern"}},{"name":"Eschenrieder Str.","postalCode":"82140","locality":"Olching","municipality":{"key":"09179142","name":"Olching, St","type":"Stadt"},"district":{"key":"09179","name":"Fürstenfeldbruck","type":"Landkreis"},"federalState":{"key":"09","name":"Bayern"}},{"name":"Escherweg","postalCode":"82140","locality":"Olching","municipality":{"key":"09179142","name":"Olching, St","type":"Stadt"},"district":{"key":"09179","name":"Fürstenfeldbruck","type":"Landkreis"},"federalState":{"key":"09","name":"Bayern"}},{"name":"Estinger Str.","postalCode":"82140","locality":"Olching","municipality":{"key":"09179142","name":"Olching, St","type":"Stadt"},"district":{"key":"09179","name":"Fürstenfeldbruck","type":"Landkreis"},"federalState":{"key":"09","name":"Bayern"}},{"name":"Estinger Weg","postalCode":"82140","locality":"Olching","municipality":{"key":"09179142","name":"Olching, St","type":"Stadt"},"district":{"key":"09179","name":"Fürstenfeldbruck","type":"Landkreis"},"federalState":{"key":"09","name":"Bayern"}},{"name":"Estostr.","postalCode":"82140","locality":"Olching","municipality":{"key":"09179142","name":"Olching, St","type":"Stadt"},"district":{"key":"09179","name":"Fürstenfeldbruck","type":"Landkreis"},"federalState":{"key":"09","name":"Bayern"}},{"name":"Eulenweg","postalCode":"82140","locality":"Olching","municipality":{"key":"09179142","name":"Olching, St","type":"Stadt"},"district":{"key":"09179","name":"Fürstenfeldbruck","type":"Landkreis"},"federalState":{"key":"09","name":"Bayern"}},{"name":"Falkenweg","postalCode":"82140","locality":"Olching","municipality":{"key":"09179142","name":"Olching, St","type":"Stadt"},"district":{"key":"09179","name":"Fürstenfeldbruck","type":"Landkreis"},"federalState":{"key":"09","name":"Bayern"}},{"name":"Fasanenweg","postalCode":"82140","locality":"Olching","municipality":{"key":"09179142","name":"Olching, St","type":"Stadt"},"district":{"key":"09179","name":"Fürstenfeldbruck","type":"Landkreis"},"federalState":{"key":"09","name":"Bayern"}},{"name":"Feldenweg","postalCode":"82140","locality":"Olching","municipality":{"key":"09179142","name":"Olching, St","type":"Stadt"},"district":{"key":"09179","name":"Fürstenfeldbruck","type":"Landkreis"},"federalState":{"key":"09","name":"Bayern"}},{"name":"Feldstr.","postalCode":"82140","locality":"Olching","municipality":{"key":"09179142","name":"Olching, St","type":"Stadt"},"district":{"key":"09179","name":"Fürstenfeldbruck","type":"Landkreis"},"federalState":{"key":"09","name":"Bayern"}},{"name":"Ferdinandstr.","postalCode":"82140","locality":"Olching","municipality":{"key":"09179142","name":"Olching, St","type":"Stadt"},"district":{"key":"09179","name":"Fürstenfeldbruck","type":"Landkreis"},"federalState":{"key":"09","name":"Bayern"}},{"name":"Feursstr.","postalCode":"82140","locality":"Olching","municipality":{"key":"09179142","name":"Olching, St","type":"Stadt"},"district":{"key":"09179","name":"Fürstenfeldbruck","type":"Landkreis"},"federalState":{"key":"09","name":"Bayern"}},{"name":"Fichtenweg","postalCode":"82140","locality":"Olching","municipality":{"key":"09179142","name":"Olching, St","type":"Stadt"},"district":{"key":"09179","name":"Fürstenfeldbruck","type":"Landkreis"},"federalState":{"key":"09","name":"Bayern"}},{"name":"Finkenweg","postalCode":"82140","locality":"Olching","municipality":{"key":"09179142","name":"Olching, St","type":"Stadt"},"district":{"key":"09179","name":"Fürstenfeldbruck","type":"Landkreis"},"federalState":{"key":"09","name":"Bayern"}},{"name":"Fliederstr.","postalCode":"82140","locality":"Olching","municipality":{"key":"09179142","name":"Olching, St","type":"Stadt"},"district":{"key":"09179","name":"Fürstenfeldbruck","type":"Landkreis"},"federalState":{"key":"09","name":"Bayern"}},{"name":"Florianstr.","postalCode":"82140","locality":"Olching","municipality":{"key":"09179142","name":"Olching, St","type":"Stadt"},"district":{"key":"09179","name":"Fürstenfeldbruck","type":"Landkreis"},"federalState":{"key":"09","name":"Bayern"}},{"name":"Föhrenweg","postalCode":"82140","locality":"Olching","municipality":{"key":"09179142","name":"Olching, St","type":"Stadt"},"district":{"key":"09179","name":"Fürstenfeldbruck","type":"Landkreis"},"federalState":{"key":"09","name":"Bayern"}},{"name":"Forellenweg","postalCode":"82140","locality":"Olching","municipality":{"key":"09179142","name":"Olching, St","type":"Stadt"},"district":{"key":"09179","name":"Fürstenfeldbruck","type":"Landkreis"},"federalState":{"key":"09","name":"Bayern"}},{"name":"Forstweg","postalCode":"82140","locality":"Olching","municipality":{"key":"09179142","name":"Olching, St","type":"Stadt"},"district":{"key":"09179","name":"Fürstenfeldbruck","type":"Landkreis"},"federalState":{"key":"09","name":"Bayern"}},{"name":"Franz-Hagn-Str.","postalCode":"82140","locality":"Olching","municipality":{"key":"09179142","name":"Olching, St","type":"Stadt"},"district":{"key":"09179","name":"Fürstenfeldbruck","type":"Landkreis"},"federalState":{"key":"09","name":"Bayern"}},{"name":"Franzstr.","postalCode":"82140","locality":"Olching","municipality":{"key":"09179142","name":"Olching, St","type":"Stadt"},"district":{"key":"09179","name":"Fürstenfeldbruck","type":"Landkreis"},"federalState":{"key":"09","name":"Bayern"}},{"name":"Fritz-Endreß-Weg","postalCode":"82140","locality":"Olching","municipality":{"key":"09179142","name":"Olching, St","type":"Stadt"},"district":{"key":"09179","name":"Fürstenfeldbruck","type":"Landkreis"},"federalState":{"key":"09","name":"Bayern"}},{"name":"Fritzstr.","postalCode":"82140","locality":"Olching","municipality":{"key":"09179142","name":"Olching, St","type":"Stadt"},"district":{"key":"09179","name":"Fürstenfeldbruck","type":"Landkreis"},"federalState":{"key":"09","name":"Bayern"}},{"name":"Frühlingstr.","postalCode":"82140","locality":"Olching","municipality":{"key":"09179142","name":"Olching, St","type":"Stadt"},"district":{"key":"09179","name":"Fürstenfeldbruck","type":"Landkreis"},"federalState":{"key":"09","name":"Bayern"}},{"name":"Fürstenfeldbrucker Str.","postalCode":"82140","locality":"Olching","municipality":{"key":"09179142","name":"Olching, St","type":"Stadt"},"district":{"key":"09179","name":"Fürstenfeldbruck","type":"Landkreis"},"federalState":{"key":"09","name":"Bayern"}},{"name":"Futapaßstr.","postalCode":"82140","locality":"Olching","municipality":{"key":"09179142","name":"Olching, St","type":"Stadt"},"district":{"key":"09179","name":"Fürstenfeldbruck","type":"Landkreis"},"federalState":{"key":"09","name":"Bayern"}},{"name":"Ganghoferstr.","postalCode":"82140","locality":"Olching","municipality":{"key":"09179142","name":"Olching, St","type":"Stadt"},"district":{"key":"09179","name":"Fürstenfeldbruck","type":"Landkreis"},"federalState":{"key":"09","name":"Bayern"}},{"name":"Gartenstr.","postalCode":"82140","locality":"Olching","municipality":{"key":"09179142","name":"Olching, St","type":"Stadt"},"district":{"key":"09179","name":"Fürstenfeldbruck","type":"Landkreis"},"federalState":{"key":"09","name":"Bayern"}},{"name":"Geiselbullacher Str.","postalCode":"82140","locality":"Olching","municipality":{"key":"09179142","name":"Olching, St","type":"Stadt"},"district":{"key":"09179","name":"Fürstenfeldbruck","type":"Landkreis"},"federalState":{"key":"09","name":"Bayern"}},{"name":"Gerhart-Hauptmann-Str.","postalCode":"82140","locality":"Olching","municipality":{"key":"09179142","name":"Olching, St","type":"Stadt"},"district":{"key":"09179","name":"Fürstenfeldbruck","type":"Landkreis"},"federalState":{"key":"09","name":"Bayern"}},{"name":"Gernlindener Weg","postalCode":"82140","locality":"Olching","municipality":{"key":"09179142","name":"Olching, St","type":"Stadt"},"district":{"key":"09179","name":"Fürstenfeldbruck","type":"Landkreis"},"federalState":{"key":"09","name":"Bayern"}},{"name":"Geschwister-Scholl-Weg","postalCode":"82140","locality":"Olching","municipality":{"key":"09179142","name":"Olching, St","type":"Stadt"},"district":{"key":"09179","name":"Fürstenfeldbruck","type":"Landkreis"},"federalState":{"key":"09","name":"Bayern"}},{"name":"Gleiserstr.","postalCode":"82140","locality":"Olching","municipality":{"key":"09179142","name":"Olching, St","type":"Stadt"},"district":{"key":"09179","name":"Fürstenfeldbruck","type":"Landkreis"},"federalState":{"key":"09","name":"Bayern"}},{"name":"Goethestr.","postalCode":"82140","locality":"Olching","municipality":{"key":"09179142","name":"Olching, St","type":"Stadt"},"district":{"key":"09179","name":"Fürstenfeldbruck","type":"Landkreis"},"federalState":{"key":"09","name":"Bayern"}},{"name":"Graf-Spreti-Str.","postalCode":"82140","locality":"Olching","municipality":{"key":"09179142","name":"Olching, St","type":"Stadt"},"district":{"key":"09179","name":"Fürstenfeldbruck","type":"Landkreis"},"federalState":{"key":"09","name":"Bayern"}},{"name":"Grasmückenstr.","postalCode":"82140","locality":"Olching","municipality":{"key":"09179142","name":"Olching, St","type":"Stadt"},"district":{"key":"09179","name":"Fürstenfeldbruck","type":"Landkreis"},"federalState":{"key":"09","name":"Bayern"}},{"name":"Graßlfinger Str.","postalCode":"82140","locality":"Olching","municipality":{"key":"09179142","name":"Olching, St","type":"Stadt"},"district":{"key":"09179","name":"Fürstenfeldbruck","type":"Landkreis"},"federalState":{"key":"09","name":"Bayern"}},{"name":"Gröbenzeller Str.","postalCode":"82140","locality":"Olching","municipality":{"key":"09179142","name":"Olching, St","type":"Stadt"},"district":{"key":"09179","name":"Fürstenfeldbruck","type":"Landkreis"},"federalState":{"key":"09","name":"Bayern"}},{"name":"Grünanger","postalCode":"82140","locality":"Olching","municipality":{"key":"09179142","name":"Olching, St","type":"Stadt"},"district":{"key":"09179","name":"Fürstenfeldbruck","type":"Landkreis"},"federalState":{"key":"09","name":"Bayern"}},{"name":"Händelstr.","postalCode":"82140","locality":"Olching","municipality":{"key":"09179142","name":"Olching, St","type":"Stadt"},"district":{"key":"09179","name":"Fürstenfeldbruck","type":"Landkreis"},"federalState":{"key":"09","name":"Bayern"}},{"name":"Hans-Holbein-Str.","postalCode":"82140","locality":"Olching","municipality":{"key":"09179142","name":"Olching, St","type":"Stadt"},"district":{"key":"09179","name":"Fürstenfeldbruck","type":"Landkreis"},"federalState":{"key":"09","name":"Bayern"}},{"name":"Hauptstr.","postalCode":"82140","locality":"Olching","municipality":{"key":"09179142","name":"Olching, St","type":"Stadt"},"district":{"key":"09179","name":"Fürstenfeldbruck","type":"Landkreis"},"federalState":{"key":"09","name":"Bayern"}},{"name":"Heckenstr.","postalCode":"82140","locality":"Olching","municipality":{"key":"09179142","name":"Olching, St","type":"Stadt"},"district":{"key":"09179","name":"Fürstenfeldbruck","type":"Landkreis"},"federalState":{"key":"09","name":"Bayern"}},{"name":"Heideweg","postalCode":"82140","locality":"Olching","municipality":{"key":"09179142","name":"Olching, St","type":"Stadt"},"district":{"key":"09179","name":"Fürstenfeldbruck","type":"Landkreis"},"federalState":{"key":"09","name":"Bayern"}},{"name":"Heimgartenstr.","postalCode":"82140","locality":"Olching","municipality":{"key":"09179142","name":"Olching, St","type":"Stadt"},"district":{"key":"09179","name":"Fürstenfeldbruck","type":"Landkreis"},"federalState":{"key":"09","name":"Bayern"}},{"name":"Heinrich-Kaspar-Schmid-Str.","postalCode":"82140","locality":"Olching","municipality":{"key":"09179142","name":"Olching, St","type":"Stadt"},"district":{"key":"09179","name":"Fürstenfeldbruck","type":"Landkreis"},"federalState":{"key":"09","name":"Bayern"}},{"name":"Heinrich-Nicolaus-Str.","postalCode":"82140","locality":"Olching","municipality":{"key":"09179142","name":"Olching, St","type":"Stadt"},"district":{"key":"09179","name":"Fürstenfeldbruck","type":"Landkreis"},"federalState":{"key":"09","name":"Bayern"}},{"name":"Heinrichweg","postalCode":"82140","locality":"Olching","municipality":{"key":"09179142","name":"Olching, St","type":"Stadt"},"district":{"key":"09179","name":"Fürstenfeldbruck","type":"Landkreis"},"federalState":{"key":"09","name":"Bayern"}},{"name":"Herbststr.","postalCode":"82140","locality":"Olching","municipality":{"key":"09179142","name":"Olching, St","type":"Stadt"},"district":{"key":"09179","name":"Fürstenfeldbruck","type":"Landkreis"},"federalState":{"key":"09","name":"Bayern"}},{"name":"Herzog-Max-Str.","postalCode":"82140","locality":"Olching","municipality":{"key":"09179142","name":"Olching, St","type":"Stadt"},"district":{"key":"09179","name":"Fürstenfeldbruck","type":"Landkreis"},"federalState":{"key":"09","name":"Bayern"}},{"name":"Herzogstandstr.","postalCode":"82140","locality":"Olching","municipality":{"key":"09179142","name":"Olching, St","type":"Stadt"},"district":{"key":"09179","name":"Fürstenfeldbruck","type":"Landkreis"},"federalState":{"key":"09","name":"Bayern"}},{"name":"Hildegardweg","postalCode":"82140","locality":"Olching","municipality":{"key":"09179142","name":"Olching, St","type":"Stadt"},"district":{"key":"09179","name":"Fürstenfeldbruck","type":"Landkreis"},"federalState":{"key":"09","name":"Bayern"}},{"name":"Hirschbergweg","postalCode":"82140","locality":"Olching","municipality":{"key":"09179142","name":"Olching, St","type":"Stadt"},"district":{"key":"09179","name":"Fürstenfeldbruck","type":"Landkreis"},"federalState":{"key":"09","name":"Bayern"}},{"name":"Hochfellnweg","postalCode":"82140","locality":"Olching","municipality":{"key":"09179142","name":"Olching, St","type":"Stadt"},"district":{"key":"09179","name":"Fürstenfeldbruck","type":"Landkreis"},"federalState":{"key":"09","name":"Bayern"}},{"name":"Hochgernweg","postalCode":"82140","locality":"Olching","municipality":{"key":"09179142","name":"Olching, St","type":"Stadt"},"district":{"key":"09179","name":"Fürstenfeldbruck","type":"Landkreis"},"federalState":{"key":"09","name":"Bayern"}},{"name":"Hochrißweg","postalCode":"82140","locality":"Olching","municipality":{"key":"09179142","name":"Olching, St","type":"Stadt"},"district":{"key":"09179","name":"Fürstenfeldbruck","type":"Landkreis"},"federalState":{"key":"09","name":"Bayern"}},{"name":"Hofmarkstr.","postalCode":"82140","locality":"Olching","municipality":{"key":"09179142","name":"Olching, St","type":"Stadt"},"district":{"key":"09179","name":"Fürstenfeldbruck","type":"Landkreis"},"federalState":{"key":"09","name":"Bayern"}},{"name":"Hubertusstr.","postalCode":"82140","locality":"Olching","municipality":{"key":"09179142","name":"Olching, St","type":"Stadt"},"district":{"key":"09179","name":"Fürstenfeldbruck","type":"Landkreis"},"federalState":{"key":"09","name":"Bayern"}},{"name":"Illerweg","postalCode":"82140","locality":"Olching","municipality":{"key":"09179142","name":"Olching, St","type":"Stadt"},"district":{"key":"09179","name":"Fürstenfeldbruck","type":"Landkreis"},"federalState":{"key":"09","name":"Bayern"}},{"name":"Ilzweg","postalCode":"82140","locality":"Olching","municipality":{"key":"09179142","name":"Olching, St","type":"Stadt"},"district":{"key":"09179","name":"Fürstenfeldbruck","type":"Landkreis"},"federalState":{"key":"09","name":"Bayern"}},{"name":"Im Schwaigfeld","postalCode":"82140","locality":"Olching","municipality":{"key":"09179142","name":"Olching, St","type":"Stadt"},"district":{"key":"09179","name":"Fürstenfeldbruck","type":"Landkreis"},"federalState":{"key":"09","name":"Bayern"}},{"name":"Industriestr.","postalCode":"82140","locality":"Olching","municipality":{"key":"09179142","name":"Olching, St","type":"Stadt"},"district":{"key":"09179","name":"Fürstenfeldbruck","type":"Landkreis"},"federalState":{"key":"09","name":"Bayern"}},{"name":"Innweg","postalCode":"82140","locality":"Olching","municipality":{"key":"09179142","name":"Olching, St","type":"Stadt"},"district":{"key":"09179","name":"Fürstenfeldbruck","type":"Landkreis"},"federalState":{"key":"09","name":"Bayern"}},{"name":"Isabellastr.","postalCode":"82140","locality":"Olching","municipality":{"key":"09179142","name":"Olching, St","type":"Stadt"},"district":{"key":"09179","name":"Fürstenfeldbruck","type":"Landkreis"},"federalState":{"key":"09","name":"Bayern"}},{"name":"Isarweg","postalCode":"82140","locality":"Olching","municipality":{"key":"09179142","name":"Olching, St","type":"Stadt"},"district":{"key":"09179","name":"Fürstenfeldbruck","type":"Landkreis"},"federalState":{"key":"09","name":"Bayern"}},{"name":"Jägersteig","postalCode":"82140","locality":"Olching","municipality":{"key":"09179142","name":"Olching, St","type":"Stadt"},"district":{"key":"09179","name":"Fürstenfeldbruck","type":"Landkreis"},"federalState":{"key":"09","name":"Bayern"}},{"name":"Jahnstr.","postalCode":"82140","locality":"Olching","municipality":{"key":"09179142","name":"Olching, St","type":"Stadt"},"district":{"key":"09179","name":"Fürstenfeldbruck","type":"Landkreis"},"federalState":{"key":"09","name":"Bayern"}},{"name":"Jakobusstr.","postalCode":"82140","locality":"Olching","municipality":{"key":"09179142","name":"Olching, St","type":"Stadt"},"district":{"key":"09179","name":"Fürstenfeldbruck","type":"Landkreis"},"federalState":{"key":"09","name":"Bayern"}},{"name":"Jeisstr.","postalCode":"82140","locality":"Olching","municipality":{"key":"09179142","name":"Olching, St","type":"Stadt"},"district":{"key":"09179","name":"Fürstenfeldbruck","type":"Landkreis"},"federalState":{"key":"09","name":"Bayern"}},{"name":"Johann-Sebastian-Bach-Str.","postalCode":"82140","locality":"Olching","municipality":{"key":"09179142","name":"Olching, St","type":"Stadt"},"district":{"key":"09179","name":"Fürstenfeldbruck","type":"Landkreis"},"federalState":{"key":"09","name":"Bayern"}},{"name":"Josef-Bergmann-Weg","postalCode":"82140","locality":"Olching","municipality":{"key":"09179142","name":"Olching, St","type":"Stadt"},"district":{"key":"09179","name":"Fürstenfeldbruck","type":"Landkreis"},"federalState":{"key":"09","name":"Bayern"}},{"name":"Josef-Kistler-Ring","postalCode":"82140","locality":"Olching","municipality":{"key":"09179142","name":"Olching, St","type":"Stadt"},"district":{"key":"09179","name":"Fürstenfeldbruck","type":"Landkreis"},"federalState":{"key":"09","name":"Bayern"}},{"name":"Josef-Tauscheck-Str.","postalCode":"82140","locality":"Olching","municipality":{"key":"09179142","name":"Olching, St","type":"Stadt"},"district":{"key":"09179","name":"Fürstenfeldbruck","type":"Landkreis"},"federalState":{"key":"09","name":"Bayern"}},{"name":"Josef-Wechselberger-Weg","postalCode":"82140","locality":"Olching","municipality":{"key":"09179142","name":"Olching, St","type":"Stadt"},"district":{"key":"09179","name":"Fürstenfeldbruck","type":"Landkreis"},"federalState":{"key":"09","name":"Bayern"}},{"name":"Josephinenstr.","postalCode":"82140","locality":"Olching","municipality":{"key":"09179142","name":"Olching, St","type":"Stadt"},"district":{"key":"09179","name":"Fürstenfeldbruck","type":"Landkreis"},"federalState":{"key":"09","name":"Bayern"}},{"name":"Kampenwandstr.","postalCode":"82140","locality":"Olching","municipality":{"key":"09179142","name":"Olching, St","type":"Stadt"},"district":{"key":"09179","name":"Fürstenfeldbruck","type":"Landkreis"},"federalState":{"key":"09","name":"Bayern"}},{"name":"Kapellenweg","postalCode":"82140","locality":"Olching","municipality":{"key":"09179142","name":"Olching, St","type":"Stadt"},"district":{"key":"09179","name":"Fürstenfeldbruck","type":"Landkreis"},"federalState":{"key":"09","name":"Bayern"}},{"name":"Karlstr.","postalCode":"82140","locality":"Olching","municipality":{"key":"09179142","name":"Olching, St","type":"Stadt"},"district":{"key":"09179","name":"Fürstenfeldbruck","type":"Landkreis"},"federalState":{"key":"09","name":"Bayern"}},{"name":"Karl-Theodor-Str.","postalCode":"82140","locality":"Olching","municipality":{"key":"09179142","name":"Olching, St","type":"Stadt"},"district":{"key":"09179","name":"Fürstenfeldbruck","type":"Landkreis"},"federalState":{"key":"09","name":"Bayern"}},{"name":"Karwendelstr.","postalCode":"82140","locality":"Olching","municipality":{"key":"09179142","name":"Olching, St","type":"Stadt"},"district":{"key":"09179","name":"Fürstenfeldbruck","type":"Landkreis"},"federalState":{"key":"09","name":"Bayern"}},{"name":"Katharinastr.","postalCode":"82140","locality":"Olching","municipality":{"key":"09179142","name":"Olching, St","type":"Stadt"},"district":{"key":"09179","name":"Fürstenfeldbruck","type":"Landkreis"},"federalState":{"key":"09","name":"Bayern"}},{"name":"Käthe-Zeitler-Weg","postalCode":"82140","locality":"Olching","municipality":{"key":"09179142","name":"Olching, St","type":"Stadt"},"district":{"key":"09179","name":"Fürstenfeldbruck","type":"Landkreis"},"federalState":{"key":"09","name":"Bayern"}},{"name":"Keltenweg","postalCode":"82140","locality":"Olching","municipality":{"key":"09179142","name":"Olching, St","type":"Stadt"},"district":{"key":"09179","name":"Fürstenfeldbruck","type":"Landkreis"},"federalState":{"key":"09","name":"Bayern"}},{"name":"Kemeterstr.","postalCode":"82140","locality":"Olching","municipality":{"key":"09179142","name":"Olching, St","type":"Stadt"},"district":{"key":"09179","name":"Fürstenfeldbruck","type":"Landkreis"},"federalState":{"key":"09","name":"Bayern"}},{"name":"Kiesweg","postalCode":"82140","locality":"Olching","municipality":{"key":"09179142","name":"Olching, St","type":"Stadt"},"district":{"key":"09179","name":"Fürstenfeldbruck","type":"Landkreis"},"federalState":{"key":"09","name":"Bayern"}},{"name":"Kirchenweg","postalCode":"82140","locality":"Olching","municipality":{"key":"09179142","name":"Olching, St","type":"Stadt"},"district":{"key":"09179","name":"Fürstenfeldbruck","type":"Landkreis"},"federalState":{"key":"09","name":"Bayern"}},{"name":"Kollerweg","postalCode":"82140","locality":"Olching","municipality":{"key":"09179142","name":"Olching, St","type":"Stadt"},"district":{"key":"09179","name":"Fürstenfeldbruck","type":"Landkreis"},"federalState":{"key":"09","name":"Bayern"}},{"name":"Königsberger Weg","postalCode":"82140","locality":"Olching","municipality":{"key":"09179142","name":"Olching, St","type":"Stadt"},"district":{"key":"09179","name":"Fürstenfeldbruck","type":"Landkreis"},"federalState":{"key":"09","name":"Bayern"}},{"name":"Konradstr.","postalCode":"82140","locality":"Olching","municipality":{"key":"09179142","name":"Olching, St","type":"Stadt"},"district":{"key":"09179","name":"Fürstenfeldbruck","type":"Landkreis"},"federalState":{"key":"09","name":"Bayern"}},{"name":"Krähenweg","postalCode":"82140","locality":"Olching","municipality":{"key":"09179142","name":"Olching, St","type":"Stadt"},"district":{"key":"09179","name":"Fürstenfeldbruck","type":"Landkreis"},"federalState":{"key":"09","name":"Bayern"}},{"name":"Krautgartenweg","postalCode":"82140","locality":"Olching","municipality":{"key":"09179142","name":"Olching, St","type":"Stadt"},"district":{"key":"09179","name":"Fürstenfeldbruck","type":"Landkreis"},"federalState":{"key":"09","name":"Bayern"}},{"name":"Kreutstr.","postalCode":"82140","locality":"Olching","municipality":{"key":"09179142","name":"Olching, St","type":"Stadt"},"district":{"key":"09179","name":"Fürstenfeldbruck","type":"Landkreis"},"federalState":{"key":"09","name":"Bayern"}},{"name":"Kreuzstr.","postalCode":"82140","locality":"Olching","municipality":{"key":"09179142","name":"Olching, St","type":"Stadt"},"district":{"key":"09179","name":"Fürstenfeldbruck","type":"Landkreis"},"federalState":{"key":"09","name":"Bayern"}},{"name":"Krottenkopfweg","postalCode":"82140","locality":"Olching","municipality":{"key":"09179142","name":"Olching, St","type":"Stadt"},"district":{"key":"09179","name":"Fürstenfeldbruck","type":"Landkreis"},"federalState":{"key":"09","name":"Bayern"}},{"name":"Lechweg","postalCode":"82140","locality":"Olching","municipality":{"key":"09179142","name":"Olching, St","type":"Stadt"},"district":{"key":"09179","name":"Fürstenfeldbruck","type":"Landkreis"},"federalState":{"key":"09","name":"Bayern"}},{"name":"Leiblweg","postalCode":"82140","locality":"Olching","municipality":{"key":"09179142","name":"Olching, St","type":"Stadt"},"district":{"key":"09179","name":"Fürstenfeldbruck","type":"Landkreis"},"federalState":{"key":"09","name":"Bayern"}},{"name":"Lenauweg","postalCode":"82140","locality":"Olching","municipality":{"key":"09179142","name":"Olching, St","type":"Stadt"},"district":{"key":"09179","name":"Fürstenfeldbruck","type":"Landkreis"},"federalState":{"key":"09","name":"Bayern"}},{"name":"Lenzstr.","postalCode":"82140","locality":"Olching","municipality":{"key":"09179142","name":"Olching, St","type":"Stadt"},"district":{"key":"09179","name":"Fürstenfeldbruck","type":"Landkreis"},"federalState":{"key":"09","name":"Bayern"}},{"name":"Leopoldstr.","postalCode":"82140","locality":"Olching","municipality":{"key":"09179142","name":"Olching, St","type":"Stadt"},"district":{"key":"09179","name":"Fürstenfeldbruck","type":"Landkreis"},"federalState":{"key":"09","name":"Bayern"}},{"name":"Lerchenstr.","postalCode":"82140","locality":"Olching","municipality":{"key":"09179142","name":"Olching, St","type":"Stadt"},"district":{"key":"09179","name":"Fürstenfeldbruck","type":"Landkreis"},"federalState":{"key":"09","name":"Bayern"}},{"name":"Lessingstr.","postalCode":"82140","locality":"Olching","municipality":{"key":"09179142","name":"Olching, St","type":"Stadt"},"district":{"key":"09179","name":"Fürstenfeldbruck","type":"Landkreis"},"federalState":{"key":"09","name":"Bayern"}},{"name":"Lilienstr.","postalCode":"82140","locality":"Olching","municipality":{"key":"09179142","name":"Olching, St","type":"Stadt"},"district":{"key":"09179","name":"Fürstenfeldbruck","type":"Landkreis"},"federalState":{"key":"09","name":"Bayern"}},{"name":"Loferer Weg","postalCode":"82140","locality":"Olching","municipality":{"key":"09179142","name":"Olching, St","type":"Stadt"},"district":{"key":"09179","name":"Fürstenfeldbruck","type":"Landkreis"},"federalState":{"key":"09","name":"Bayern"}},{"name":"Ludovikastr.","postalCode":"82140","locality":"Olching","municipality":{"key":"09179142","name":"Olching, St","type":"Stadt"},"district":{"key":"09179","name":"Fürstenfeldbruck","type":"Landkreis"},"federalState":{"key":"09","name":"Bayern"}},{"name":"Ludwig-Thoma-Str.","postalCode":"82140","locality":"Olching","municipality":{"key":"09179142","name":"Olching, St","type":"Stadt"},"district":{"key":"09179","name":"Fürstenfeldbruck","type":"Landkreis"},"federalState":{"key":"09","name":"Bayern"}},{"name":"Luitpoldstr.","postalCode":"82140","locality":"Olching","municipality":{"key":"09179142","name":"Olching, St","type":"Stadt"},"district":{"key":"09179","name":"Fürstenfeldbruck","type":"Landkreis"},"federalState":{"key":"09","name":"Bayern"}},{"name":"Maisacher Str.","postalCode":"82140","locality":"Olching","municipality":{"key":"09179142","name":"Olching, St","type":"Stadt"},"district":{"key":"09179","name":"Fürstenfeldbruck","type":"Landkreis"},"federalState":{"key":"09","name":"Bayern"}},{"name":"Maria-Stieren-Weg","postalCode":"82140","locality":"Olching","municipality":{"key":"09179142","name":"Olching, St","type":"Stadt"},"district":{"key":"09179","name":"Fürstenfeldbruck","type":"Landkreis"},"federalState":{"key":"09","name":"Bayern"}},{"name":"Martinstr.","postalCode":"82140","locality":"Olching","municipality":{"key":"09179142","name":"Olching, St","type":"Stadt"},"district":{"key":"09179","name":"Fürstenfeldbruck","type":"Landkreis"},"federalState":{"key":"09","name":"Bayern"}},{"name":"Mathias-Duschl-Str.","postalCode":"82140","locality":"Olching","municipality":{"key":"09179142","name":"Olching, St","type":"Stadt"},"district":{"key":"09179","name":"Fürstenfeldbruck","type":"Landkreis"},"federalState":{"key":"09","name":"Bayern"}},{"name":"Maximilianstr.","postalCode":"82140","locality":"Olching","municipality":{"key":"09179142","name":"Olching, St","type":"Stadt"},"district":{"key":"09179","name":"Fürstenfeldbruck","type":"Landkreis"},"federalState":{"key":"09","name":"Bayern"}},{"name":"Memminger Platz","postalCode":"82140","locality":"Olching","municipality":{"key":"09179142","name":"Olching, St","type":"Stadt"},"district":{"key":"09179","name":"Fürstenfeldbruck","type":"Landkreis"},"federalState":{"key":"09","name":"Bayern"}},{"name":"Mitterweg","postalCode":"82140","locality":"Olching","municipality":{"key":"09179142","name":"Olching, St","type":"Stadt"},"district":{"key":"09179","name":"Fürstenfeldbruck","type":"Landkreis"},"federalState":{"key":"09","name":"Bayern"}},{"name":"Mondstr.","postalCode":"82140","locality":"Olching","municipality":{"key":"09179142","name":"Olching, St","type":"Stadt"},"district":{"key":"09179","name":"Fürstenfeldbruck","type":"Landkreis"},"federalState":{"key":"09","name":"Bayern"}},{"name":"Möslstr.","postalCode":"82140","locality":"Olching","municipality":{"key":"09179142","name":"Olching, St","type":"Stadt"},"district":{"key":"09179","name":"Fürstenfeldbruck","type":"Landkreis"},"federalState":{"key":"09","name":"Bayern"}},{"name":"Mozartstr.","postalCode":"82140","locality":"Olching","municipality":{"key":"09179142","name":"Olching, St","type":"Stadt"},"district":{"key":"09179","name":"Fürstenfeldbruck","type":"Landkreis"},"federalState":{"key":"09","name":"Bayern"}},{"name":"Münchner Str.","postalCode":"82140","locality":"Olching","municipality":{"key":"09179142","name":"Olching, St","type":"Stadt"},"district":{"key":"09179","name":"Fürstenfeldbruck","type":"Landkreis"},"federalState":{"key":"09","name":"Bayern"}},{"name":"Nebelhornstr.","postalCode":"82140","locality":"Olching","municipality":{"key":"09179142","name":"Olching, St","type":"Stadt"},"district":{"key":"09179","name":"Fürstenfeldbruck","type":"Landkreis"},"federalState":{"key":"09","name":"Bayern"}},{"name":"Nelkenweg","postalCode":"82140","locality":"Olching","municipality":{"key":"09179142","name":"Olching, St","type":"Stadt"},"district":{"key":"09179","name":"Fürstenfeldbruck","type":"Landkreis"},"federalState":{"key":"09","name":"Bayern"}},{"name":"Nepomukstr.","postalCode":"82140","locality":"Olching","municipality":{"key":"09179142","name":"Olching, St","type":"Stadt"},"district":{"key":"09179","name":"Fürstenfeldbruck","type":"Landkreis"},"federalState":{"key":"09","name":"Bayern"}},{"name":"Neufeldstr.","postalCode":"82140","locality":"Olching","municipality":{"key":"09179142","name":"Olching, St","type":"Stadt"},"district":{"key":"09179","name":"Fürstenfeldbruck","type":"Landkreis"},"federalState":{"key":"09","name":"Bayern"}},{"name":"Nöscherstr.","postalCode":"82140","locality":"Olching","municipality":{"key":"09179142","name":"Olching, St","type":"Stadt"},"district":{"key":"09179","name":"Fürstenfeldbruck","type":"Landkreis"},"federalState":{"key":"09","name":"Bayern"}},{"name":"Oberanger","postalCode":"82140","locality":"Olching","municipality":{"key":"09179142","name":"Olching, St","type":"Stadt"},"district":{"key":"09179","name":"Fürstenfeldbruck","type":"Landkreis"},"federalState":{"key":"09","name":"Bayern"}},{"name":"Ordenslandstr.","postalCode":"82140","locality":"Olching","municipality":{"key":"09179142","name":"Olching, St","type":"Stadt"},"district":{"key":"09179","name":"Fürstenfeldbruck","type":"Landkreis"},"federalState":{"key":"09","name":"Bayern"}},{"name":"Ostpreußenstr.","postalCode":"82140","locality":"Olching","municipality":{"key":"09179142","name":"Olching, St","type":"Stadt"},"district":{"key":"09179","name":"Fürstenfeldbruck","type":"Landkreis"},"federalState":{"key":"09","name":"Bayern"}},{"name":"Ottostr.","postalCode":"82140","locality":"Olching","municipality":{"key":"09179142","name":"Olching, St","type":"Stadt"},"district":{"key":"09179","name":"Fürstenfeldbruck","type":"Landkreis"},"federalState":{"key":"09","name":"Bayern"}},{"name":"Palsweiser Str.","postalCode":"82140","locality":"Olching","municipality":{"key":"09179142","name":"Olching, St","type":"Stadt"},"district":{"key":"09179","name":"Fürstenfeldbruck","type":"Landkreis"},"federalState":{"key":"09","name":"Bayern"}},{"name":"Pestalozzistr.","postalCode":"82140","locality":"Olching","municipality":{"key":"09179142","name":"Olching, St","type":"Stadt"},"district":{"key":"09179","name":"Fürstenfeldbruck","type":"Landkreis"},"federalState":{"key":"09","name":"Bayern"}},{"name":"Peter-Henlein-Str.","postalCode":"82140","locality":"Olching","municipality":{"key":"09179142","name":"Olching, St","type":"Stadt"},"district":{"key":"09179","name":"Fürstenfeldbruck","type":"Landkreis"},"federalState":{"key":"09","name":"Bayern"}},{"name":"Pfanzeltstr.","postalCode":"82140","locality":"Olching","municipality":{"key":"09179142","name":"Olching, St","type":"Stadt"},"district":{"key":"09179","name":"Fürstenfeldbruck","type":"Landkreis"},"federalState":{"key":"09","name":"Bayern"}},{"name":"Pfarrer-Bendert-Str.","postalCode":"82140","locality":"Olching","municipality":{"key":"09179142","name":"Olching, St","type":"Stadt"},"district":{"key":"09179","name":"Fürstenfeldbruck","type":"Landkreis"},"federalState":{"key":"09","name":"Bayern"}},{"name":"Pfarrer-Böhmer-Weg","postalCode":"82140","locality":"Olching","municipality":{"key":"09179142","name":"Olching, St","type":"Stadt"},"district":{"key":"09179","name":"Fürstenfeldbruck","type":"Landkreis"},"federalState":{"key":"09","name":"Bayern"}},{"name":"Pfarrer-Handwerker-Str.","postalCode":"82140","locality":"Olching","municipality":{"key":"09179142","name":"Olching, St","type":"Stadt"},"district":{"key":"09179","name":"Fürstenfeldbruck","type":"Landkreis"},"federalState":{"key":"09","name":"Bayern"}},{"name":"Pfarrer-Hermann-Müller-Weg","postalCode":"82140","locality":"Olching","municipality":{"key":"09179142","name":"Olching, St","type":"Stadt"},"district":{"key":"09179","name":"Fürstenfeldbruck","type":"Landkreis"},"federalState":{"key":"09","name":"Bayern"}},{"name":"Pfarrer-Rosenhuber-Weg","postalCode":"82140","locality":"Olching","municipality":{"key":"09179142","name":"Olching, St","type":"Stadt"},"district":{"key":"09179","name":"Fürstenfeldbruck","type":"Landkreis"},"federalState":{"key":"09","name":"Bayern"}},{"name":"Pfarrstr.","postalCode":"82140","locality":"Olching","municipality":{"key":"09179142","name":"Olching, St","type":"Stadt"},"district":{"key":"09179","name":"Fürstenfeldbruck","type":"Landkreis"},"federalState":{"key":"09","name":"Bayern"}},{"name":"Pointweg","postalCode":"82140","locality":"Olching","municipality":{"key":"09179142","name":"Olching, St","type":"Stadt"},"district":{"key":"09179","name":"Fürstenfeldbruck","type":"Landkreis"},"federalState":{"key":"09","name":"Bayern"}},{"name":"Pommernstr.","postalCode":"82140","locality":"Olching","municipality":{"key":"09179142","name":"Olching, St","type":"Stadt"},"district":{"key":"09179","name":"Fürstenfeldbruck","type":"Landkreis"},"federalState":{"key":"09","name":"Bayern"}},{"name":"Poststr.","postalCode":"82140","locality":"Olching","municipality":{"key":"09179142","name":"Olching, St","type":"Stadt"},"district":{"key":"09179","name":"Fürstenfeldbruck","type":"Landkreis"},"federalState":{"key":"09","name":"Bayern"}},{"name":"Professor-Schmid-Str.","postalCode":"82140","locality":"Olching","municipality":{"key":"09179142","name":"Olching, St","type":"Stadt"},"district":{"key":"09179","name":"Fürstenfeldbruck","type":"Landkreis"},"federalState":{"key":"09","name":"Bayern"}},{"name":"Rauschbergweg","postalCode":"82140","locality":"Olching","municipality":{"key":"09179142","name":"Olching, St","type":"Stadt"},"district":{"key":"09179","name":"Fürstenfeldbruck","type":"Landkreis"},"federalState":{"key":"09","name":"Bayern"}},{"name":"Rauscherweg","postalCode":"82140","locality":"Olching","municipality":{"key":"09179142","name":"Olching, St","type":"Stadt"},"district":{"key":"09179","name":"Fürstenfeldbruck","type":"Landkreis"},"federalState":{"key":"09","name":"Bayern"}},{"name":"Rauscherweg","postalCode":"82178","locality":"Olching","municipality":{"key":"09179142","name":"Olching, St","type":"Stadt"},"district":{"key":"09179","name":"Fürstenfeldbruck","type":"Landkreis"},"federalState":{"key":"09","name":"Bayern"}},{"name":"Rauschweg","postalCode":"82140","locality":"Olching","municipality":{"key":"09179142","name":"Olching, St","type":"Stadt"},"district":{"key":"09179","name":"Fürstenfeldbruck","type":"Landkreis"},"federalState":{"key":"09","name":"Bayern"}},{"name":"Rebhuhnstr.","postalCode":"82140","locality":"Olching","municipality":{"key":"09179142","name":"Olching, St","type":"Stadt"},"district":{"key":"09179","name":"Fürstenfeldbruck","type":"Landkreis"},"federalState":{"key":"09","name":"Bayern"}},{"name":"Reiherweg","postalCode":"82140","locality":"Olching","municipality":{"key":"09179142","name":"Olching, St","type":"Stadt"},"district":{"key":"09179","name":"Fürstenfeldbruck","type":"Landkreis"},"federalState":{"key":"09","name":"Bayern"}},{"name":"Reischlweg","postalCode":"82140","locality":"Olching","municipality":{"key":"09179142","name":"Olching, St","type":"Stadt"},"district":{"key":"09179","name":"Fürstenfeldbruck","type":"Landkreis"},"federalState":{"key":"09","name":"Bayern"}},{"name":"Richard-Wagner-Str.","postalCode":"82140","locality":"Olching","municipality":{"key":"09179142","name":"Olching, St","type":"Stadt"},"district":{"key":"09179","name":"Fürstenfeldbruck","type":"Landkreis"},"federalState":{"key":"09","name":"Bayern"}},{"name":"Riedlstr.","postalCode":"82140","locality":"Olching","municipality":{"key":"09179142","name":"Olching, St","type":"Stadt"},"district":{"key":"09179","name":"Fürstenfeldbruck","type":"Landkreis"},"federalState":{"key":"09","name":"Bayern"}},{"name":"Riesengebirgsweg","postalCode":"82140","locality":"Olching","municipality":{"key":"09179142","name":"Olching, St","type":"Stadt"},"district":{"key":"09179","name":"Fürstenfeldbruck","type":"Landkreis"},"federalState":{"key":"09","name":"Bayern"}},{"name":"Ringstr.","postalCode":"82140","locality":"Olching","municipality":{"key":"09179142","name":"Olching, St","type":"Stadt"},"district":{"key":"09179","name":"Fürstenfeldbruck","type":"Landkreis"},"federalState":{"key":"09","name":"Bayern"}},{"name":"Roggensteiner Str.","postalCode":"82140","locality":"Olching","municipality":{"key":"09179142","name":"Olching, St","type":"Stadt"},"district":{"key":"09179","name":"Fürstenfeldbruck","type":"Landkreis"},"federalState":{"key":"09","name":"Bayern"}},{"name":"Roseggerweg","postalCode":"82140","locality":"Olching","municipality":{"key":"09179142","name":"Olching, St","type":"Stadt"},"district":{"key":"09179","name":"Fürstenfeldbruck","type":"Landkreis"},"federalState":{"key":"09","name":"Bayern"}},{"name":"Rosenstr.","postalCode":"82140","locality":"Olching","municipality":{"key":"09179142","name":"Olching, St","type":"Stadt"},"district":{"key":"09179","name":"Fürstenfeldbruck","type":"Landkreis"},"federalState":{"key":"09","name":"Bayern"}},{"name":"Roßhaupter Platz","postalCode":"82140","locality":"Olching","municipality":{"key":"09179142","name":"Olching, St","type":"Stadt"},"district":{"key":"09179","name":"Fürstenfeldbruck","type":"Landkreis"},"federalState":{"key":"09","name":"Bayern"}},{"name":"Rotwandstr.","postalCode":"82140","locality":"Olching","municipality":{"key":"09179142","name":"Olching, St","type":"Stadt"},"district":{"key":"09179","name":"Fürstenfeldbruck","type":"Landkreis"},"federalState":{"key":"09","name":"Bayern"}},{"name":"Rudolf-Bögel-Weg","postalCode":"82140","locality":"Olching","municipality":{"key":"09179142","name":"Olching, St","type":"Stadt"},"district":{"key":"09179","name":"Fürstenfeldbruck","type":"Landkreis"},"federalState":{"key":"09","name":"Bayern"}},{"name":"Rupprechtstr.","postalCode":"82140","locality":"Olching","municipality":{"key":"09179142","name":"Olching, St","type":"Stadt"},"district":{"key":"09179","name":"Fürstenfeldbruck","type":"Landkreis"},"federalState":{"key":"09","name":"Bayern"}},{"name":"Sägmühlstr.","postalCode":"82140","locality":"Olching","municipality":{"key":"09179142","name":"Olching, St","type":"Stadt"},"district":{"key":"09179","name":"Fürstenfeldbruck","type":"Landkreis"},"federalState":{"key":"09","name":"Bayern"}},{"name":"Salzachweg","postalCode":"82140","locality":"Olching","municipality":{"key":"09179142","name":"Olching, St","type":"Stadt"},"district":{"key":"09179","name":"Fürstenfeldbruck","type":"Landkreis"},"federalState":{"key":"09","name":"Bayern"}},{"name":"Sankt-Annaberg-Weg","postalCode":"82140","locality":"Olching","municipality":{"key":"09179142","name":"Olching, St","type":"Stadt"},"district":{"key":"09179","name":"Fürstenfeldbruck","type":"Landkreis"},"federalState":{"key":"09","name":"Bayern"}},{"name":"Schillerstr.","postalCode":"82140","locality":"Olching","municipality":{"key":"09179142","name":"Olching, St","type":"Stadt"},"district":{"key":"09179","name":"Fürstenfeldbruck","type":"Landkreis"},"federalState":{"key":"09","name":"Bayern"}},{"name":"Schlesierstr.","postalCode":"82140","locality":"Olching","municipality":{"key":"09179142","name":"Olching, St","type":"Stadt"},"district":{"key":"09179","name":"Fürstenfeldbruck","type":"Landkreis"},"federalState":{"key":"09","name":"Bayern"}},{"name":"Schloßstr.","postalCode":"82140","locality":"Olching","municipality":{"key":"09179142","name":"Olching, St","type":"Stadt"},"district":{"key":"09179","name":"Fürstenfeldbruck","type":"Landkreis"},"federalState":{"key":"09","name":"Bayern"}},{"name":"Schöntrunk","postalCode":"82140","locality":"Olching","municipality":{"key":"09179142","name":"Olching, St","type":"Stadt"},"district":{"key":"09179","name":"Fürstenfeldbruck","type":"Landkreis"},"federalState":{"key":"09","name":"Bayern"}},{"name":"Schubertstr.","postalCode":"82140","locality":"Olching","municipality":{"key":"09179142","name":"Olching, St","type":"Stadt"},"district":{"key":"09179","name":"Fürstenfeldbruck","type":"Landkreis"},"federalState":{"key":"09","name":"Bayern"}},{"name":"Schulstr.","postalCode":"82140","locality":"Olching","municipality":{"key":"09179142","name":"Olching, St","type":"Stadt"},"district":{"key":"09179","name":"Fürstenfeldbruck","type":"Landkreis"},"federalState":{"key":"09","name":"Bayern"}},{"name":"Schwalbeneck","postalCode":"82140","locality":"Olching","municipality":{"key":"09179142","name":"Olching, St","type":"Stadt"},"district":{"key":"09179","name":"Fürstenfeldbruck","type":"Landkreis"},"federalState":{"key":"09","name":"Bayern"}},{"name":"Schweizer Weg","postalCode":"82140","locality":"Olching","municipality":{"key":"09179142","name":"Olching, St","type":"Stadt"},"district":{"key":"09179","name":"Fürstenfeldbruck","type":"Landkreis"},"federalState":{"key":"09","name":"Bayern"}},{"name":"Schwojerstr.","postalCode":"82140","locality":"Olching","municipality":{"key":"09179142","name":"Olching, St","type":"Stadt"},"district":{"key":"09179","name":"Fürstenfeldbruck","type":"Landkreis"},"federalState":{"key":"09","name":"Bayern"}},{"name":"Sebastian-Miller-Weg","postalCode":"82140","locality":"Olching","municipality":{"key":"09179142","name":"Olching, St","type":"Stadt"},"district":{"key":"09179","name":"Fürstenfeldbruck","type":"Landkreis"},"federalState":{"key":"09","name":"Bayern"}},{"name":"Senserstr.","postalCode":"82140","locality":"Olching","municipality":{"key":"09179142","name":"Olching, St","type":"Stadt"},"district":{"key":"09179","name":"Fürstenfeldbruck","type":"Landkreis"},"federalState":{"key":"09","name":"Bayern"}},{"name":"Siebenbürgenweg","postalCode":"82140","locality":"Olching","municipality":{"key":"09179142","name":"Olching, St","type":"Stadt"},"district":{"key":"09179","name":"Fürstenfeldbruck","type":"Landkreis"},"federalState":{"key":"09","name":"Bayern"}},{"name":"Siedlerstr.","postalCode":"82140","locality":"Olching","municipality":{"key":"09179142","name":"Olching, St","type":"Stadt"},"district":{"key":"09179","name":"Fürstenfeldbruck","type":"Landkreis"},"federalState":{"key":"09","name":"Bayern"}},{"name":"Sighartstr.","postalCode":"82140","locality":"Olching","municipality":{"key":"09179142","name":"Olching, St","type":"Stadt"},"district":{"key":"09179","name":"Fürstenfeldbruck","type":"Landkreis"},"federalState":{"key":"09","name":"Bayern"}},{"name":"Sommerstr.","postalCode":"82140","locality":"Olching","municipality":{"key":"09179142","name":"Olching, St","type":"Stadt"},"district":{"key":"09179","name":"Fürstenfeldbruck","type":"Landkreis"},"federalState":{"key":"09","name":"Bayern"}},{"name":"Sonnenstr.","postalCode":"82140","locality":"Olching","municipality":{"key":"09179142","name":"Olching, St","type":"Stadt"},"district":{"key":"09179","name":"Fürstenfeldbruck","type":"Landkreis"},"federalState":{"key":"09","name":"Bayern"}},{"name":"Sophienstr.","postalCode":"82140","locality":"Olching","municipality":{"key":"09179142","name":"Olching, St","type":"Stadt"},"district":{"key":"09179","name":"Fürstenfeldbruck","type":"Landkreis"},"federalState":{"key":"09","name":"Bayern"}},{"name":"Spatzenwinkel","postalCode":"82140","locality":"Olching","municipality":{"key":"09179142","name":"Olching, St","type":"Stadt"},"district":{"key":"09179","name":"Fürstenfeldbruck","type":"Landkreis"},"federalState":{"key":"09","name":"Bayern"}},{"name":"Sperberweg","postalCode":"82140","locality":"Olching","municipality":{"key":"09179142","name":"Olching, St","type":"Stadt"},"district":{"key":"09179","name":"Fürstenfeldbruck","type":"Landkreis"},"federalState":{"key":"09","name":"Bayern"}},{"name":"Starenweg","postalCode":"82140","locality":"Olching","municipality":{"key":"09179142","name":"Olching, St","type":"Stadt"},"district":{"key":"09179","name":"Fürstenfeldbruck","type":"Landkreis"},"federalState":{"key":"09","name":"Bayern"}},{"name":"Stauffenweg","postalCode":"82140","locality":"Olching","municipality":{"key":"09179142","name":"Olching, St","type":"Stadt"},"district":{"key":"09179","name":"Fürstenfeldbruck","type":"Landkreis"},"federalState":{"key":"09","name":"Bayern"}},{"name":"Stephanweg","postalCode":"82140","locality":"Olching","municipality":{"key":"09179142","name":"Olching, St","type":"Stadt"},"district":{"key":"09179","name":"Fürstenfeldbruck","type":"Landkreis"},"federalState":{"key":"09","name":"Bayern"}},{"name":"Sternenstr.","postalCode":"82140","locality":"Olching","municipality":{"key":"09179142","name":"Olching, St","type":"Stadt"},"district":{"key":"09179","name":"Fürstenfeldbruck","type":"Landkreis"},"federalState":{"key":"09","name":"Bayern"}},{"name":"Stifterstr.","postalCode":"82140","locality":"Olching","municipality":{"key":"09179142","name":"Olching, St","type":"Stadt"},"district":{"key":"09179","name":"Fürstenfeldbruck","type":"Landkreis"},"federalState":{"key":"09","name":"Bayern"}},{"name":"Storcheneck","postalCode":"82140","locality":"Olching","municipality":{"key":"09179142","name":"Olching, St","type":"Stadt"},"district":{"key":"09179","name":"Fürstenfeldbruck","type":"Landkreis"},"federalState":{"key":"09","name":"Bayern"}},{"name":"Sudetenstr.","postalCode":"82140","locality":"Olching","municipality":{"key":"09179142","name":"Olching, St","type":"Stadt"},"district":{"key":"09179","name":"Fürstenfeldbruck","type":"Landkreis"},"federalState":{"key":"09","name":"Bayern"}},{"name":"Tannenweg","postalCode":"82140","locality":"Olching","municipality":{"key":"09179142","name":"Olching, St","type":"Stadt"},"district":{"key":"09179","name":"Fürstenfeldbruck","type":"Landkreis"},"federalState":{"key":"09","name":"Bayern"}},{"name":"Theresenweg","postalCode":"82140","locality":"Olching","municipality":{"key":"09179142","name":"Olching, St","type":"Stadt"},"district":{"key":"09179","name":"Fürstenfeldbruck","type":"Landkreis"},"federalState":{"key":"09","name":"Bayern"}},{"name":"Ulmenweg","postalCode":"82140","locality":"Olching","municipality":{"key":"09179142","name":"Olching, St","type":"Stadt"},"district":{"key":"09179","name":"Fürstenfeldbruck","type":"Landkreis"},"federalState":{"key":"09","name":"Bayern"}},{"name":"Unteranger","postalCode":"82140","locality":"Olching","municipality":{"key":"09179142","name":"Olching, St","type":"Stadt"},"district":{"key":"09179","name":"Fürstenfeldbruck","type":"Landkreis"},"federalState":{"key":"09","name":"Bayern"}},{"name":"Von-Schöpf-Weg","postalCode":"82140","locality":"Olching","municipality":{"key":"09179142","name":"Olching, St","type":"Stadt"},"district":{"key":"09179","name":"Fürstenfeldbruck","type":"Landkreis"},"federalState":{"key":"09","name":"Bayern"}},{"name":"Wacht","postalCode":"82140","locality":"Olching","municipality":{"key":"09179142","name":"Olching, St","type":"Stadt"},"district":{"key":"09179","name":"Fürstenfeldbruck","type":"Landkreis"},"federalState":{"key":"09","name":"Bayern"}},{"name":"Wachtweg","postalCode":"82140","locality":"Olching","municipality":{"key":"09179142","name":"Olching, St","type":"Stadt"},"district":{"key":"09179","name":"Fürstenfeldbruck","type":"Landkreis"},"federalState":{"key":"09","name":"Bayern"}},{"name":"Wallbergweg","postalCode":"82140","locality":"Olching","municipality":{"key":"09179142","name":"Olching, St","type":"Stadt"},"district":{"key":"09179","name":"Fürstenfeldbruck","type":"Landkreis"},"federalState":{"key":"09","name":"Bayern"}},{"name":"Warthegaustr.","postalCode":"82140","locality":"Olching","municipality":{"key":"09179142","name":"Olching, St","type":"Stadt"},"district":{"key":"09179","name":"Fürstenfeldbruck","type":"Landkreis"},"federalState":{"key":"09","name":"Bayern"}},{"name":"Watzmannstr.","postalCode":"82140","locality":"Olching","municipality":{"key":"09179142","name":"Olching, St","type":"Stadt"},"district":{"key":"09179","name":"Fürstenfeldbruck","type":"Landkreis"},"federalState":{"key":"09","name":"Bayern"}},{"name":"Waxensteinstr.","postalCode":"82140","locality":"Olching","municipality":{"key":"09179142","name":"Olching, St","type":"Stadt"},"district":{"key":"09179","name":"Fürstenfeldbruck","type":"Landkreis"},"federalState":{"key":"09","name":"Bayern"}},{"name":"Weinstr.","postalCode":"82140","locality":"Olching","municipality":{"key":"09179142","name":"Olching, St","type":"Stadt"},"district":{"key":"09179","name":"Fürstenfeldbruck","type":"Landkreis"},"federalState":{"key":"09","name":"Bayern"}},{"name":"Wendelsteinstr.","postalCode":"82140","locality":"Olching","municipality":{"key":"09179142","name":"Olching, St","type":"Stadt"},"district":{"key":"09179","name":"Fürstenfeldbruck","type":"Landkreis"},"federalState":{"key":"09","name":"Bayern"}},{"name":"Wettersteinstr.","postalCode":"82140","locality":"Olching","municipality":{"key":"09179142","name":"Olching, St","type":"Stadt"},"district":{"key":"09179","name":"Fürstenfeldbruck","type":"Landkreis"},"federalState":{"key":"09","name":"Bayern"}},{"name":"Wiesenweg","postalCode":"82140","locality":"Olching","municipality":{"key":"09179142","name":"Olching, St","type":"Stadt"},"district":{"key":"09179","name":"Fürstenfeldbruck","type":"Landkreis"},"federalState":{"key":"09","name":"Bayern"}},{"name":"Wilhelmstr.","postalCode":"82140","locality":"Olching","municipality":{"key":"09179142","name":"Olching, St","type":"Stadt"},"district":{"key":"09179","name":"Fürstenfeldbruck","type":"Landkreis"},"federalState":{"key":"09","name":"Bayern"}},{"name":"Winterstr.","postalCode":"82140","locality":"Olching","municipality":{"key":"09179142","name":"Olching, St","type":"Stadt"},"district":{"key":"09179","name":"Fürstenfeldbruck","type":"Landkreis"},"federalState":{"key":"09","name":"Bayern"}},{"name":"Wittelsbacher Allee","postalCode":"82140","locality":"Olching","municipality":{"key":"09179142","name":"Olching, St","type":"Stadt"},"district":{"key":"09179","name":"Fürstenfeldbruck","type":"Landkreis"},"federalState":{"key":"09","name":"Bayern"}},{"name":"Wolfganghof","postalCode":"82140","locality":"Olching","municipality":{"key":"09179142","name":"Olching, St","type":"Stadt"},"district":{"key":"09179","name":"Fürstenfeldbruck","type":"Landkreis"},"federalState":{"key":"09","name":"Bayern"}},{"name":"Wolfstr.","postalCode":"82140","locality":"Olching","municipality":{"key":"09179142","name":"Olching, St","type":"Stadt"},"district":{"key":"09179","name":"Fürstenfeldbruck","type":"Landkreis"},"federalState":{"key":"09","name":"Bayern"}},{"name":"Zaunkönigstr.","postalCode":"82140","locality":"Olching","municipality":{"key":"09179142","name":"Olching, St","type":"Stadt"},"district":{"key":"09179","name":"Fürstenfeldbruck","type":"Landkreis"},"federalState":{"key":"09","name":"Bayern"}},{"name":"Zeisigweg","postalCode":"82140","locality":"Olching","municipality":{"key":"09179142","name":"Olching, St","type":"Stadt"},"district":{"key":"09179","name":"Fürstenfeldbruck","type":"Landkreis"},"federalState":{"key":"09","name":"Bayern"}},{"name":"Zugspitzstr.","postalCode":"82140","locality":"Olching","municipality":{"key":"09179142","name":"Olching, St","type":"Stadt"},"district":{"key":"09179","name":"Fürstenfeldbruck","type":"Landkreis"},"federalState":{"key":"09","name":"Bayern"}},{"name":"Zur Heupresse","postalCode":"82140","locality":"Olching","municipality":{"key":"09179142","name":"Olching, St","type":"Stadt"},"district":{"key":"09179","name":"Fürstenfeldbruck","type":"Landkreis"},"federalState":{"key":"09","name":"Bayern"}},{"name":"Zweigstr.","postalCode":"82140","locality":"Olching","municipality":{"key":"09179142","name":"Olching, St","type":"Stadt"},"district":{"key":"09179","name":"Fürstenfeldbruck","type":"Landkreis"},"federalState":{"key":"09","name":"Bayern"}},]