[{"key":"10095942","name":"Au Vieux Village","postalCode":"1035","locality":"Bournens","commune":{"key":"5472","name":"Bournens","shortName":"Bournens"},"district":{"key":"2223","name":"District du Gros-de-Vaud"},"canton":{"key":"22","code":"VD","name":"Vaud"},"status":"Real"},{"key":"10112585","name":"Chemin de l'Oche","postalCode":"1035","locality":"Bournens","commune":{"key":"5472","name":"Bournens","shortName":"Bournens"},"district":{"key":"2223","name":"District du Gros-de-Vaud"},"canton":{"key":"22","code":"VD","name":"Vaud"},"status":"Real"},{"key":"10159057","name":"Chemin des Platanes","postalCode":"1035","locality":"Bournens","commune":{"key":"5472","name":"Bournens","shortName":"Bournens"},"district":{"key":"2223","name":"District du Gros-de-Vaud"},"canton":{"key":"22","code":"VD","name":"Vaud"},"status":"Real"},{"key":"10157629","name":"Chemin d'Oubennes","postalCode":"1035","locality":"Bournens","commune":{"key":"5472","name":"Bournens","shortName":"Bournens"},"district":{"key":"2223","name":"District du Gros-de-Vaud"},"canton":{"key":"22","code":"VD","name":"Vaud"},"status":"Real"},{"key":"10142424","name":"Chemin du Bugnon","postalCode":"1035","locality":"Bournens","commune":{"key":"5472","name":"Bournens","shortName":"Bournens"},"district":{"key":"2223","name":"District du Gros-de-Vaud"},"canton":{"key":"22","code":"VD","name":"Vaud"},"status":"Real"},{"key":"10156757","name":"Chemin du Flon","postalCode":"1035","locality":"Bournens","commune":{"key":"5472","name":"Bournens","shortName":"Bournens"},"district":{"key":"2223","name":"District du Gros-de-Vaud"},"canton":{"key":"22","code":"VD","name":"Vaud"},"status":"Real"},{"key":"10156756","name":"Chemin du Poyet","postalCode":"1035","locality":"Bournens","commune":{"key":"5472","name":"Bournens","shortName":"Bournens"},"district":{"key":"2223","name":"District du Gros-de-Vaud"},"canton":{"key":"22","code":"VD","name":"Vaud"},"status":"Real"},{"key":"10027952","name":"Chemin du Recordet","postalCode":"1035","locality":"Bournens","commune":{"key":"5472","name":"Bournens","shortName":"Bournens"},"district":{"key":"2223","name":"District du Gros-de-Vaud"},"canton":{"key":"22","code":"VD","name":"Vaud"},"status":"Real"},{"key":"10156758","name":"Chemin du Record Joyon","postalCode":"1035","locality":"Bournens","commune":{"key":"5472","name":"Bournens","shortName":"Bournens"},"district":{"key":"2223","name":"District du Gros-de-Vaud"},"canton":{"key":"22","code":"VD","name":"Vaud"},"status":"Real"},{"key":"10154284","name":"Place du Coll√®ge","postalCode":"1035","locality":"Bournens","commune":{"key":"5472","name":"Bournens","shortName":"Bournens"},"district":{"key":"2223","name":"District du Gros-de-Vaud"},"canton":{"key":"22","code":"VD","name":"Vaud"},"status":"Real"},{"key":"10027951","name":"Route de la Plantaz","postalCode":"1035","locality":"Bournens","commune":{"key":"5472","name":"Bournens","shortName":"Bournens"},"district":{"key":"2223","name":"District du Gros-de-Vaud"},"canton":{"key":"22","code":"VD","name":"Vaud"},"status":"Real"},{"key":"10154282","name":"Route du Crochet","postalCode":"1035","locality":"Bournens","commune":{"key":"5472","name":"Bournens","shortName":"Bournens"},"district":{"key":"2223","name":"District du Gros-de-Vaud"},"canton":{"key":"22","code":"VD","name":"Vaud"},"status":"Real"},{"key":"10154283","name":"Route du Mont","postalCode":"1035","locality":"Bournens","commune":{"key":"5472","name":"Bournens","shortName":"Bournens"},"district":{"key":"2223","name":"District du Gros-de-Vaud"},"canton":{"key":"22","code":"VD","name":"Vaud"},"status":"Real"},{"key":"10156755","name":"Route du Raffort","postalCode":"1035","locality":"Bournens","commune":{"key":"5472","name":"Bournens","shortName":"Bournens"},"district":{"key":"2223","name":"District du Gros-de-Vaud"},"canton":{"key":"22","code":"VD","name":"Vaud"},"status":"Real"},]