[{"name":"Am Kannenbruch","postalCode":"23860","locality":"Groß Schenkenberg","municipality":{"key":"01053044","name":"Groß Schenkenberg","type":"Kreisangehörige_Gemeinde"},"district":{"key":"01053","name":"Herzogtum Lauenburg","type":"Kreis"},"federalState":{"key":"01","name":"Schleswig-Holstein"}},{"name":"Bliestorfer Weg","postalCode":"23860","locality":"Groß Schenkenberg","municipality":{"key":"01053044","name":"Groß Schenkenberg","type":"Kreisangehörige_Gemeinde"},"district":{"key":"01053","name":"Herzogtum Lauenburg","type":"Kreis"},"federalState":{"key":"01","name":"Schleswig-Holstein"}},{"name":"Bökenredder","postalCode":"23860","locality":"Groß Schenkenberg","municipality":{"key":"01053044","name":"Groß Schenkenberg","type":"Kreisangehörige_Gemeinde"},"district":{"key":"01053","name":"Herzogtum Lauenburg","type":"Kreis"},"federalState":{"key":"01","name":"Schleswig-Holstein"}},{"name":"Buschkuhle","postalCode":"23860","locality":"Groß Schenkenberg","municipality":{"key":"01053044","name":"Groß Schenkenberg","type":"Kreisangehörige_Gemeinde"},"district":{"key":"01053","name":"Herzogtum Lauenburg","type":"Kreis"},"federalState":{"key":"01","name":"Schleswig-Holstein"}},{"name":"Grinauer Str.","postalCode":"23860","locality":"Groß Schenkenberg","municipality":{"key":"01053044","name":"Groß Schenkenberg","type":"Kreisangehörige_Gemeinde"},"district":{"key":"01053","name":"Herzogtum Lauenburg","type":"Kreis"},"federalState":{"key":"01","name":"Schleswig-Holstein"}},{"name":"Grinautal","postalCode":"23860","locality":"Groß Schenkenberg","municipality":{"key":"01053044","name":"Groß Schenkenberg","type":"Kreisangehörige_Gemeinde"},"district":{"key":"01053","name":"Herzogtum Lauenburg","type":"Kreis"},"federalState":{"key":"01","name":"Schleswig-Holstein"}},{"name":"Hauptstr.","postalCode":"23860","locality":"Groß Schenkenberg","municipality":{"key":"01053044","name":"Groß Schenkenberg","type":"Kreisangehörige_Gemeinde"},"district":{"key":"01053","name":"Herzogtum Lauenburg","type":"Kreis"},"federalState":{"key":"01","name":"Schleswig-Holstein"}},{"name":"Hohe Landweg","postalCode":"23860","locality":"Groß Schenkenberg","municipality":{"key":"01053044","name":"Groß Schenkenberg","type":"Kreisangehörige_Gemeinde"},"district":{"key":"01053","name":"Herzogtum Lauenburg","type":"Kreis"},"federalState":{"key":"01","name":"Schleswig-Holstein"}},{"name":"Kastanienweg","postalCode":"23860","locality":"Groß Schenkenberg","municipality":{"key":"01053044","name":"Groß Schenkenberg","type":"Kreisangehörige_Gemeinde"},"district":{"key":"01053","name":"Herzogtum Lauenburg","type":"Kreis"},"federalState":{"key":"01","name":"Schleswig-Holstein"}},{"name":"Op de Wisch","postalCode":"23860","locality":"Groß Schenkenberg","municipality":{"key":"01053044","name":"Groß Schenkenberg","type":"Kreisangehörige_Gemeinde"},"district":{"key":"01053","name":"Herzogtum Lauenburg","type":"Kreis"},"federalState":{"key":"01","name":"Schleswig-Holstein"}},]