[{"key":"10245944","name":"Ai Barier","postalCode":"6557","locality":"Cama","commune":{"key":"3831","name":"Cama","shortName":"Cama"},"district":{"key":"1847","name":"Region Moesa"},"canton":{"key":"18","code":"GR","name":"Graubünden / Grigioni / Grischun"},"status":"Real"},{"key":"10245947","name":"Ai Vivé","postalCode":"6557","locality":"Cama","commune":{"key":"3831","name":"Cama","shortName":"Cama"},"district":{"key":"1847","name":"Region Moesa"},"canton":{"key":"18","code":"GR","name":"Graubünden / Grigioni / Grischun"},"status":"Real"},{"key":"10194318","name":"al Mái","postalCode":"6557","locality":"Cama","commune":{"key":"3831","name":"Cama","shortName":"Cama"},"district":{"key":"1847","name":"Region Moesa"},"canton":{"key":"18","code":"GR","name":"Graubünden / Grigioni / Grischun"},"status":"Real"},{"key":"10259041","name":"Alp de Borgen","postalCode":"6557","locality":"Cama","commune":{"key":"3831","name":"Cama","shortName":"Cama"},"district":{"key":"1847","name":"Region Moesa"},"canton":{"key":"18","code":"GR","name":"Graubünden / Grigioni / Grischun"},"status":"Real"},{"key":"10259045","name":"Cará de Campiatt","postalCode":"6557","locality":"Cama","commune":{"key":"3831","name":"Cama","shortName":"Cama"},"district":{"key":"1847","name":"Region Moesa"},"canton":{"key":"18","code":"GR","name":"Graubünden / Grigioni / Grischun"},"status":"Real"},{"key":"10245945","name":"Cará de la Gesa","postalCode":"6557","locality":"Cama","commune":{"key":"3831","name":"Cama","shortName":"Cama"},"district":{"key":"1847","name":"Region Moesa"},"canton":{"key":"18","code":"GR","name":"Graubünden / Grigioni / Grischun"},"status":"Real"},{"key":"10250464","name":"Cará de San Franzesch","postalCode":"6557","locality":"Cama","commune":{"key":"3831","name":"Cama","shortName":"Cama"},"district":{"key":"1847","name":"Region Moesa"},"canton":{"key":"18","code":"GR","name":"Graubünden / Grigioni / Grischun"},"status":"Real"},{"key":"10259043","name":"Mont de Norantola","postalCode":"6557","locality":"Cama","commune":{"key":"3831","name":"Cama","shortName":"Cama"},"district":{"key":"1847","name":"Region Moesa"},"canton":{"key":"18","code":"GR","name":"Graubünden / Grigioni / Grischun"},"status":"Real"},{"key":"10215938","name":"Piaza de la Stazion","postalCode":"6557","locality":"Cama","commune":{"key":"3831","name":"Cama","shortName":"Cama"},"district":{"key":"1847","name":"Region Moesa"},"canton":{"key":"18","code":"GR","name":"Graubünden / Grigioni / Grischun"},"status":"Real"},{"key":"10194767","name":"Rónch","postalCode":"6557","locality":"Cama","commune":{"key":"3831","name":"Cama","shortName":"Cama"},"district":{"key":"1847","name":"Region Moesa"},"canton":{"key":"18","code":"GR","name":"Graubünden / Grigioni / Grischun"},"status":"Real"},{"key":"10259039","name":"Senté de Sambrog","postalCode":"6557","locality":"Cama","commune":{"key":"3831","name":"Cama","shortName":"Cama"},"district":{"key":"1847","name":"Region Moesa"},"canton":{"key":"18","code":"GR","name":"Graubünden / Grigioni / Grischun"},"status":"Real"},{"key":"10259044","name":"Senté de Val Cama","postalCode":"6557","locality":"Cama","commune":{"key":"3831","name":"Cama","shortName":"Cama"},"district":{"key":"1847","name":"Region Moesa"},"canton":{"key":"18","code":"GR","name":"Graubünden / Grigioni / Grischun"},"status":"Real"},{"key":"10259046","name":"Senté di Agnon","postalCode":"6557","locality":"Cama","commune":{"key":"3831","name":"Cama","shortName":"Cama"},"district":{"key":"1847","name":"Region Moesa"},"canton":{"key":"18","code":"GR","name":"Graubünden / Grigioni / Grischun"},"status":"Real"},{"key":"10259035","name":"Stráda de Pianezza","postalCode":"6557","locality":"Cama","commune":{"key":"3831","name":"Cama","shortName":"Cama"},"district":{"key":"1847","name":"Region Moesa"},"canton":{"key":"18","code":"GR","name":"Graubünden / Grigioni / Grischun"},"status":"Real"},{"key":"10245946","name":"Stráda di Pián","postalCode":"6557","locality":"Cama","commune":{"key":"3831","name":"Cama","shortName":"Cama"},"district":{"key":"1847","name":"Region Moesa"},"canton":{"key":"18","code":"GR","name":"Graubünden / Grigioni / Grischun"},"status":"Real"},{"key":"10194322","name":"Stráda di Pián","postalCode":"6557","locality":"Cama","commune":{"key":"3831","name":"Cama","shortName":"Cama"},"district":{"key":"1847","name":"Region Moesa"},"canton":{"key":"18","code":"GR","name":"Graubünden / Grigioni / Grischun"},"status":"Real"},{"key":"10259544","name":"Stradon","postalCode":"6557","locality":"Cama","commune":{"key":"3831","name":"Cama","shortName":"Cama"},"district":{"key":"1847","name":"Region Moesa"},"canton":{"key":"18","code":"GR","name":"Graubünden / Grigioni / Grischun"},"status":"Real"},{"key":"10095472","name":"Stradon","postalCode":"6557","locality":"Cama","commune":{"key":"3831","name":"Cama","shortName":"Cama"},"district":{"key":"1847","name":"Region Moesa"},"canton":{"key":"18","code":"GR","name":"Graubünden / Grigioni / Grischun"},"status":"Real"},{"key":"10215947","name":"Via ai Grotti","postalCode":"6557","locality":"Cama","commune":{"key":"3831","name":"Cama","shortName":"Cama"},"district":{"key":"1847","name":"Region Moesa"},"canton":{"key":"18","code":"GR","name":"Graubünden / Grigioni / Grischun"},"status":"Real"},{"key":"10215943","name":"Via a la Gesa","postalCode":"6557","locality":"Cama","commune":{"key":"3831","name":"Cama","shortName":"Cama"},"district":{"key":"1847","name":"Region Moesa"},"canton":{"key":"18","code":"GR","name":"Graubünden / Grigioni / Grischun"},"status":"Real"},{"key":"10215951","name":"Via al Foss","postalCode":"6557","locality":"Cama","commune":{"key":"3831","name":"Cama","shortName":"Cama"},"district":{"key":"1847","name":"Region Moesa"},"canton":{"key":"18","code":"GR","name":"Graubünden / Grigioni / Grischun"},"status":"Real"},{"key":"10215955","name":"Via al Pont","postalCode":"6557","locality":"Cama","commune":{"key":"3831","name":"Cama","shortName":"Cama"},"district":{"key":"1847","name":"Region Moesa"},"canton":{"key":"18","code":"GR","name":"Graubünden / Grigioni / Grischun"},"status":"Real"},{"key":"10215959","name":"Via Aosa","postalCode":"6557","locality":"Cama","commune":{"key":"3831","name":"Cama","shortName":"Cama"},"district":{"key":"1847","name":"Region Moesa"},"canton":{"key":"18","code":"GR","name":"Graubünden / Grigioni / Grischun"},"status":"Real"},{"key":"10259040","name":"Via Brer","postalCode":"6557","locality":"Cama","commune":{"key":"3831","name":"Cama","shortName":"Cama"},"district":{"key":"1847","name":"Region Moesa"},"canton":{"key":"18","code":"GR","name":"Graubünden / Grigioni / Grischun"},"status":"Real"},{"key":"10215966","name":"Via Campagna","postalCode":"6557","locality":"Cama","commune":{"key":"3831","name":"Cama","shortName":"Cama"},"district":{"key":"1847","name":"Region Moesa"},"canton":{"key":"18","code":"GR","name":"Graubünden / Grigioni / Grischun"},"status":"Real"},{"key":"10215962","name":"Via Camp de Trésa","postalCode":"6557","locality":"Cama","commune":{"key":"3831","name":"Cama","shortName":"Cama"},"district":{"key":"1847","name":"Region Moesa"},"canton":{"key":"18","code":"GR","name":"Graubünden / Grigioni / Grischun"},"status":"Real"},{"key":"10215970","name":"Via Campéi","postalCode":"6557","locality":"Cama","commune":{"key":"3831","name":"Cama","shortName":"Cama"},"district":{"key":"1847","name":"Region Moesa"},"canton":{"key":"18","code":"GR","name":"Graubünden / Grigioni / Grischun"},"status":"Real"},{"key":"10259034","name":"Via Castel","postalCode":"6557","locality":"Cama","commune":{"key":"3831","name":"Cama","shortName":"Cama"},"district":{"key":"1847","name":"Region Moesa"},"canton":{"key":"18","code":"GR","name":"Graubünden / Grigioni / Grischun"},"status":"Real"},{"key":"10215975","name":"Via Feròla","postalCode":"6557","locality":"Cama","commune":{"key":"3831","name":"Cama","shortName":"Cama"},"district":{"key":"1847","name":"Region Moesa"},"canton":{"key":"18","code":"GR","name":"Graubünden / Grigioni / Grischun"},"status":"Real"},{"key":"10259037","name":"Via Froda","postalCode":"6557","locality":"Cama","commune":{"key":"3831","name":"Cama","shortName":"Cama"},"district":{"key":"1847","name":"Region Moesa"},"canton":{"key":"18","code":"GR","name":"Graubünden / Grigioni / Grischun"},"status":"Real"},{"key":"10215980","name":"Via Moesèta","postalCode":"6557","locality":"Cama","commune":{"key":"3831","name":"Cama","shortName":"Cama"},"district":{"key":"1847","name":"Region Moesa"},"canton":{"key":"18","code":"GR","name":"Graubünden / Grigioni / Grischun"},"status":"Real"},{"key":"10215984","name":"Via Mulinanca","postalCode":"6557","locality":"Cama","commune":{"key":"3831","name":"Cama","shortName":"Cama"},"district":{"key":"1847","name":"Region Moesa"},"canton":{"key":"18","code":"GR","name":"Graubünden / Grigioni / Grischun"},"status":"Real"},{"key":"10215987","name":"Via Norantola","postalCode":"6557","locality":"Cama","commune":{"key":"3831","name":"Cama","shortName":"Cama"},"district":{"key":"1847","name":"Region Moesa"},"canton":{"key":"18","code":"GR","name":"Graubünden / Grigioni / Grischun"},"status":"Real"},{"key":"10215991","name":"Via Ogrèda","postalCode":"6557","locality":"Cama","commune":{"key":"3831","name":"Cama","shortName":"Cama"},"district":{"key":"1847","name":"Region Moesa"},"canton":{"key":"18","code":"GR","name":"Graubünden / Grigioni / Grischun"},"status":"Real"},{"key":"10215995","name":"Via Ortasc","postalCode":"6557","locality":"Cama","commune":{"key":"3831","name":"Cama","shortName":"Cama"},"district":{"key":"1847","name":"Region Moesa"},"canton":{"key":"18","code":"GR","name":"Graubünden / Grigioni / Grischun"},"status":"Real"},{"key":"10259038","name":"Via Pasqué","postalCode":"6557","locality":"Cama","commune":{"key":"3831","name":"Cama","shortName":"Cama"},"district":{"key":"1847","name":"Region Moesa"},"canton":{"key":"18","code":"GR","name":"Graubünden / Grigioni / Grischun"},"status":"Real"},{"key":"10216001","name":"Via Pisòla","postalCode":"6557","locality":"Cama","commune":{"key":"3831","name":"Cama","shortName":"Cama"},"district":{"key":"1847","name":"Region Moesa"},"canton":{"key":"18","code":"GR","name":"Graubünden / Grigioni / Grischun"},"status":"Real"},{"key":"10216005","name":"Via Pozz","postalCode":"6557","locality":"Cama","commune":{"key":"3831","name":"Cama","shortName":"Cama"},"district":{"key":"1847","name":"Region Moesa"},"canton":{"key":"18","code":"GR","name":"Graubünden / Grigioni / Grischun"},"status":"Real"},{"key":"10216009","name":"Via Pronzin","postalCode":"6557","locality":"Cama","commune":{"key":"3831","name":"Cama","shortName":"Cama"},"district":{"key":"1847","name":"Region Moesa"},"canton":{"key":"18","code":"GR","name":"Graubünden / Grigioni / Grischun"},"status":"Real"},{"key":"10216079","name":"Via Pronzin","postalCode":"6557","locality":"Cama","commune":{"key":"3831","name":"Cama","shortName":"Cama"},"district":{"key":"1847","name":"Region Moesa"},"canton":{"key":"18","code":"GR","name":"Graubünden / Grigioni / Grischun"},"status":"Real"},{"key":"10216013","name":"Via Ref","postalCode":"6557","locality":"Cama","commune":{"key":"3831","name":"Cama","shortName":"Cama"},"district":{"key":"1847","name":"Region Moesa"},"canton":{"key":"18","code":"GR","name":"Graubünden / Grigioni / Grischun"},"status":"Real"},{"key":"10259042","name":"Via Roalta","postalCode":"6557","locality":"Cama","commune":{"key":"3831","name":"Cama","shortName":"Cama"},"district":{"key":"1847","name":"Region Moesa"},"canton":{"key":"18","code":"GR","name":"Graubünden / Grigioni / Grischun"},"status":"Real"},{"key":"10216016","name":"Via Rompeda","postalCode":"6557","locality":"Cama","commune":{"key":"3831","name":"Cama","shortName":"Cama"},"district":{"key":"1847","name":"Region Moesa"},"canton":{"key":"18","code":"GR","name":"Graubünden / Grigioni / Grischun"},"status":"Real"},{"key":"10216021","name":"Via Ronch de Penagia","postalCode":"6557","locality":"Cama","commune":{"key":"3831","name":"Cama","shortName":"Cama"},"district":{"key":"1847","name":"Region Moesa"},"canton":{"key":"18","code":"GR","name":"Graubünden / Grigioni / Grischun"},"status":"Real"},{"key":"10245948","name":"Via Sabion","postalCode":"6557","locality":"Cama","commune":{"key":"3831","name":"Cama","shortName":"Cama"},"district":{"key":"1847","name":"Region Moesa"},"canton":{"key":"18","code":"GR","name":"Graubünden / Grigioni / Grischun"},"status":"Real"},{"key":"10245949","name":"Via Samburia","postalCode":"6557","locality":"Cama","commune":{"key":"3831","name":"Cama","shortName":"Cama"},"district":{"key":"1847","name":"Region Moesa"},"canton":{"key":"18","code":"GR","name":"Graubünden / Grigioni / Grischun"},"status":"Real"},{"key":"10216028","name":"Via San Luzi","postalCode":"6557","locality":"Cama","commune":{"key":"3831","name":"Cama","shortName":"Cama"},"district":{"key":"1847","name":"Region Moesa"},"canton":{"key":"18","code":"GR","name":"Graubünden / Grigioni / Grischun"},"status":"Real"},{"key":"10259533","name":"Via Selva de Viena","postalCode":"6557","locality":"Cama","commune":{"key":"3831","name":"Cama","shortName":"Cama"},"district":{"key":"1847","name":"Region Moesa"},"canton":{"key":"18","code":"GR","name":"Graubünden / Grigioni / Grischun"},"status":"Real"},{"key":"10245950","name":"Via Selva de Viena","postalCode":"6557","locality":"Cama","commune":{"key":"3831","name":"Cama","shortName":"Cama"},"district":{"key":"1847","name":"Region Moesa"},"canton":{"key":"18","code":"GR","name":"Graubünden / Grigioni / Grischun"},"status":"Real"},{"key":"10216032","name":"Via Trambacqua","postalCode":"6557","locality":"Cama","commune":{"key":"3831","name":"Cama","shortName":"Cama"},"district":{"key":"1847","name":"Region Moesa"},"canton":{"key":"18","code":"GR","name":"Graubünden / Grigioni / Grischun"},"status":"Real"},]