[{"name":"Alpenweg","postalCode":"87769","locality":"Oberrieden","municipality":{"key":"09778183","name":"Oberrieden","type":"Kreisangehörige_Gemeinde"},"district":{"key":"09778","name":"Unterallgäu","type":"Landkreis"},"federalState":{"key":"09","name":"Bayern"}},{"name":"Am Anger","postalCode":"87769","locality":"Oberrieden","municipality":{"key":"09778183","name":"Oberrieden","type":"Kreisangehörige_Gemeinde"},"district":{"key":"09778","name":"Unterallgäu","type":"Landkreis"},"federalState":{"key":"09","name":"Bayern"}},{"name":"Bachweg","postalCode":"87769","locality":"Oberrieden","municipality":{"key":"09778183","name":"Oberrieden","type":"Kreisangehörige_Gemeinde"},"district":{"key":"09778","name":"Unterallgäu","type":"Landkreis"},"federalState":{"key":"09","name":"Bayern"}},{"name":"Bedernauer Str.","postalCode":"87769","locality":"Oberrieden","municipality":{"key":"09778183","name":"Oberrieden","type":"Kreisangehörige_Gemeinde"},"district":{"key":"09778","name":"Unterallgäu","type":"Landkreis"},"federalState":{"key":"09","name":"Bayern"}},{"name":"Bergstr.","postalCode":"87769","locality":"Oberrieden","municipality":{"key":"09778183","name":"Oberrieden","type":"Kreisangehörige_Gemeinde"},"district":{"key":"09778","name":"Unterallgäu","type":"Landkreis"},"federalState":{"key":"09","name":"Bayern"}},{"name":"Breitmahdweg","postalCode":"87769","locality":"Oberrieden","municipality":{"key":"09778183","name":"Oberrieden","type":"Kreisangehörige_Gemeinde"},"district":{"key":"09778","name":"Unterallgäu","type":"Landkreis"},"federalState":{"key":"09","name":"Bayern"}},{"name":"Brunnenweg","postalCode":"87769","locality":"Oberrieden","municipality":{"key":"09778183","name":"Oberrieden","type":"Kreisangehörige_Gemeinde"},"district":{"key":"09778","name":"Unterallgäu","type":"Landkreis"},"federalState":{"key":"09","name":"Bayern"}},{"name":"Buchenweg","postalCode":"87769","locality":"Oberrieden","municipality":{"key":"09778183","name":"Oberrieden","type":"Kreisangehörige_Gemeinde"},"district":{"key":"09778","name":"Unterallgäu","type":"Landkreis"},"federalState":{"key":"09","name":"Bayern"}},{"name":"Dorfplatzwiese mit Kastanienbäume, Brunnen mit Wappen von Oberrieden und ein Pavillon","postalCode":"87769","locality":"Oberrieden","municipality":{"key":"09778183","name":"Oberrieden","type":"Kreisangehörige_Gemeinde"},"district":{"key":"09778","name":"Unterallgäu","type":"Landkreis"},"federalState":{"key":"09","name":"Bayern"}},{"name":"Dorfstr.","postalCode":"87769","locality":"Oberrieden","municipality":{"key":"09778183","name":"Oberrieden","type":"Kreisangehörige_Gemeinde"},"district":{"key":"09778","name":"Unterallgäu","type":"Landkreis"},"federalState":{"key":"09","name":"Bayern"}},{"name":"Dorfwiese","postalCode":"87769","locality":"Oberrieden","municipality":{"key":"09778183","name":"Oberrieden","type":"Kreisangehörige_Gemeinde"},"district":{"key":"09778","name":"Unterallgäu","type":"Landkreis"},"federalState":{"key":"09","name":"Bayern"}},{"name":"Egelhofer Weg","postalCode":"87769","locality":"Oberrieden","municipality":{"key":"09778183","name":"Oberrieden","type":"Kreisangehörige_Gemeinde"},"district":{"key":"09778","name":"Unterallgäu","type":"Landkreis"},"federalState":{"key":"09","name":"Bayern"}},{"name":"Eschenweg","postalCode":"87769","locality":"Oberrieden","municipality":{"key":"09778183","name":"Oberrieden","type":"Kreisangehörige_Gemeinde"},"district":{"key":"09778","name":"Unterallgäu","type":"Landkreis"},"federalState":{"key":"09","name":"Bayern"}},{"name":"Griebeläckerstr.","postalCode":"87769","locality":"Oberrieden","municipality":{"key":"09778183","name":"Oberrieden","type":"Kreisangehörige_Gemeinde"},"district":{"key":"09778","name":"Unterallgäu","type":"Landkreis"},"federalState":{"key":"09","name":"Bayern"}},{"name":"Haldenweg","postalCode":"87769","locality":"Oberrieden","municipality":{"key":"09778183","name":"Oberrieden","type":"Kreisangehörige_Gemeinde"},"district":{"key":"09778","name":"Unterallgäu","type":"Landkreis"},"federalState":{"key":"09","name":"Bayern"}},{"name":"Hauptstr.","postalCode":"87769","locality":"Oberrieden","municipality":{"key":"09778183","name":"Oberrieden","type":"Kreisangehörige_Gemeinde"},"district":{"key":"09778","name":"Unterallgäu","type":"Landkreis"},"federalState":{"key":"09","name":"Bayern"}},{"name":"Hochweg","postalCode":"87769","locality":"Oberrieden","municipality":{"key":"09778183","name":"Oberrieden","type":"Kreisangehörige_Gemeinde"},"district":{"key":"09778","name":"Unterallgäu","type":"Landkreis"},"federalState":{"key":"09","name":"Bayern"}},{"name":"Hohenschlauer Weg","postalCode":"87769","locality":"Oberrieden","municipality":{"key":"09778183","name":"Oberrieden","type":"Kreisangehörige_Gemeinde"},"district":{"key":"09778","name":"Unterallgäu","type":"Landkreis"},"federalState":{"key":"09","name":"Bayern"}},{"name":"Kalvarienbergweg","postalCode":"87769","locality":"Oberrieden","municipality":{"key":"09778183","name":"Oberrieden","type":"Kreisangehörige_Gemeinde"},"district":{"key":"09778","name":"Unterallgäu","type":"Landkreis"},"federalState":{"key":"09","name":"Bayern"}},{"name":"Kammelweg","postalCode":"87769","locality":"Oberrieden","municipality":{"key":"09778183","name":"Oberrieden","type":"Kreisangehörige_Gemeinde"},"district":{"key":"09778","name":"Unterallgäu","type":"Landkreis"},"federalState":{"key":"09","name":"Bayern"}},{"name":"Kapellenweg","postalCode":"87769","locality":"Oberrieden","municipality":{"key":"09778183","name":"Oberrieden","type":"Kreisangehörige_Gemeinde"},"district":{"key":"09778","name":"Unterallgäu","type":"Landkreis"},"federalState":{"key":"09","name":"Bayern"}},{"name":"Kirchstr.","postalCode":"87769","locality":"Oberrieden","municipality":{"key":"09778183","name":"Oberrieden","type":"Kreisangehörige_Gemeinde"},"district":{"key":"09778","name":"Unterallgäu","type":"Landkreis"},"federalState":{"key":"09","name":"Bayern"}},{"name":"Kunzacher Weg","postalCode":"87769","locality":"Oberrieden","municipality":{"key":"09778183","name":"Oberrieden","type":"Kreisangehörige_Gemeinde"},"district":{"key":"09778","name":"Unterallgäu","type":"Landkreis"},"federalState":{"key":"09","name":"Bayern"}},{"name":"Lindenweg","postalCode":"87769","locality":"Oberrieden","municipality":{"key":"09778183","name":"Oberrieden","type":"Kreisangehörige_Gemeinde"},"district":{"key":"09778","name":"Unterallgäu","type":"Landkreis"},"federalState":{"key":"09","name":"Bayern"}},{"name":"Mittelfeldweg","postalCode":"87769","locality":"Oberrieden","municipality":{"key":"09778183","name":"Oberrieden","type":"Kreisangehörige_Gemeinde"},"district":{"key":"09778","name":"Unterallgäu","type":"Landkreis"},"federalState":{"key":"09","name":"Bayern"}},{"name":"Mittelrieder Str.","postalCode":"87769","locality":"Oberrieden","municipality":{"key":"09778183","name":"Oberrieden","type":"Kreisangehörige_Gemeinde"},"district":{"key":"09778","name":"Unterallgäu","type":"Landkreis"},"federalState":{"key":"09","name":"Bayern"}},{"name":"Molkereiweg","postalCode":"87769","locality":"Oberrieden","municipality":{"key":"09778183","name":"Oberrieden","type":"Kreisangehörige_Gemeinde"},"district":{"key":"09778","name":"Unterallgäu","type":"Landkreis"},"federalState":{"key":"09","name":"Bayern"}},{"name":"Mühlenweg","postalCode":"87769","locality":"Oberrieden","municipality":{"key":"09778183","name":"Oberrieden","type":"Kreisangehörige_Gemeinde"},"district":{"key":"09778","name":"Unterallgäu","type":"Landkreis"},"federalState":{"key":"09","name":"Bayern"}},{"name":"Mühlmahd","postalCode":"87769","locality":"Oberrieden","municipality":{"key":"09778183","name":"Oberrieden","type":"Kreisangehörige_Gemeinde"},"district":{"key":"09778","name":"Unterallgäu","type":"Landkreis"},"federalState":{"key":"09","name":"Bayern"}},{"name":"Ohnsanger Str.","postalCode":"87769","locality":"Oberrieden","municipality":{"key":"09778183","name":"Oberrieden","type":"Kreisangehörige_Gemeinde"},"district":{"key":"09778","name":"Unterallgäu","type":"Landkreis"},"federalState":{"key":"09","name":"Bayern"}},{"name":"Parkweg","postalCode":"87769","locality":"Oberrieden","municipality":{"key":"09778183","name":"Oberrieden","type":"Kreisangehörige_Gemeinde"},"district":{"key":"09778","name":"Unterallgäu","type":"Landkreis"},"federalState":{"key":"09","name":"Bayern"}},{"name":"Pfaffenhauser Str.","postalCode":"87769","locality":"Oberrieden","municipality":{"key":"09778183","name":"Oberrieden","type":"Kreisangehörige_Gemeinde"},"district":{"key":"09778","name":"Unterallgäu","type":"Landkreis"},"federalState":{"key":"09","name":"Bayern"}},{"name":"Pfarrheimweg","postalCode":"87769","locality":"Oberrieden","municipality":{"key":"09778183","name":"Oberrieden","type":"Kreisangehörige_Gemeinde"},"district":{"key":"09778","name":"Unterallgäu","type":"Landkreis"},"federalState":{"key":"09","name":"Bayern"}},{"name":"Riedweg","postalCode":"87769","locality":"Oberrieden","municipality":{"key":"09778183","name":"Oberrieden","type":"Kreisangehörige_Gemeinde"},"district":{"key":"09778","name":"Unterallgäu","type":"Landkreis"},"federalState":{"key":"09","name":"Bayern"}},{"name":"Ringstr.","postalCode":"87769","locality":"Oberrieden","municipality":{"key":"09778183","name":"Oberrieden","type":"Kreisangehörige_Gemeinde"},"district":{"key":"09778","name":"Unterallgäu","type":"Landkreis"},"federalState":{"key":"09","name":"Bayern"}},{"name":"Schleifweg","postalCode":"87769","locality":"Oberrieden","municipality":{"key":"09778183","name":"Oberrieden","type":"Kreisangehörige_Gemeinde"},"district":{"key":"09778","name":"Unterallgäu","type":"Landkreis"},"federalState":{"key":"09","name":"Bayern"}},{"name":"Schulweg","postalCode":"87769","locality":"Oberrieden","municipality":{"key":"09778183","name":"Oberrieden","type":"Kreisangehörige_Gemeinde"},"district":{"key":"09778","name":"Unterallgäu","type":"Landkreis"},"federalState":{"key":"09","name":"Bayern"}},{"name":"Sportplatzweg","postalCode":"87769","locality":"Oberrieden","municipality":{"key":"09778183","name":"Oberrieden","type":"Kreisangehörige_Gemeinde"},"district":{"key":"09778","name":"Unterallgäu","type":"Landkreis"},"federalState":{"key":"09","name":"Bayern"}},{"name":"Weiherweg","postalCode":"87769","locality":"Oberrieden","municipality":{"key":"09778183","name":"Oberrieden","type":"Kreisangehörige_Gemeinde"},"district":{"key":"09778","name":"Unterallgäu","type":"Landkreis"},"federalState":{"key":"09","name":"Bayern"}},{"name":"Weilbacher Str.","postalCode":"87769","locality":"Oberrieden","municipality":{"key":"09778183","name":"Oberrieden","type":"Kreisangehörige_Gemeinde"},"district":{"key":"09778","name":"Unterallgäu","type":"Landkreis"},"federalState":{"key":"09","name":"Bayern"}},{"name":"Westernacher Str.","postalCode":"87769","locality":"Oberrieden","municipality":{"key":"09778183","name":"Oberrieden","type":"Kreisangehörige_Gemeinde"},"district":{"key":"09778","name":"Unterallgäu","type":"Landkreis"},"federalState":{"key":"09","name":"Bayern"}},]