[{"name":"Aachweg","postalCode":"88529","locality":"Zwiefalten","municipality":{"key":"08415085","name":"Zwiefalten","type":"Kreisangehörige_Gemeinde"},"district":{"key":"08415","name":"Reutlingen","type":"Landkreis"},"federalState":{"key":"08","name":"Baden-Württemberg"}},{"name":"Albert-Burrer-Str.","postalCode":"88529","locality":"Zwiefalten","municipality":{"key":"08415085","name":"Zwiefalten","type":"Kreisangehörige_Gemeinde"},"district":{"key":"08415","name":"Reutlingen","type":"Landkreis"},"federalState":{"key":"08","name":"Baden-Württemberg"}},{"name":"Alpenblick","postalCode":"88529","locality":"Zwiefalten","municipality":{"key":"08415085","name":"Zwiefalten","type":"Kreisangehörige_Gemeinde"},"district":{"key":"08415","name":"Reutlingen","type":"Landkreis"},"federalState":{"key":"08","name":"Baden-Württemberg"}},{"name":"Armsündergässle","postalCode":"88529","locality":"Zwiefalten","municipality":{"key":"08415085","name":"Zwiefalten","type":"Kreisangehörige_Gemeinde"},"district":{"key":"08415","name":"Reutlingen","type":"Landkreis"},"federalState":{"key":"08","name":"Baden-Württemberg"}},{"name":"Beda-Sommerberger-Str.","postalCode":"88529","locality":"Zwiefalten","municipality":{"key":"08415085","name":"Zwiefalten","type":"Kreisangehörige_Gemeinde"},"district":{"key":"08415","name":"Reutlingen","type":"Landkreis"},"federalState":{"key":"08","name":"Baden-Württemberg"}},{"name":"Beim Kirchhof","postalCode":"88529","locality":"Zwiefalten","municipality":{"key":"08415085","name":"Zwiefalten","type":"Kreisangehörige_Gemeinde"},"district":{"key":"08415","name":"Reutlingen","type":"Landkreis"},"federalState":{"key":"08","name":"Baden-Württemberg"}},{"name":"Brühlwiesen","postalCode":"88529","locality":"Zwiefalten","municipality":{"key":"08415085","name":"Zwiefalten","type":"Kreisangehörige_Gemeinde"},"district":{"key":"08415","name":"Reutlingen","type":"Landkreis"},"federalState":{"key":"08","name":"Baden-Württemberg"}},{"name":"Brunnensteige","postalCode":"88529","locality":"Zwiefalten","municipality":{"key":"08415085","name":"Zwiefalten","type":"Kreisangehörige_Gemeinde"},"district":{"key":"08415","name":"Reutlingen","type":"Landkreis"},"federalState":{"key":"08","name":"Baden-Württemberg"}},{"name":"Bussenblick","postalCode":"88529","locality":"Zwiefalten","municipality":{"key":"08415085","name":"Zwiefalten","type":"Kreisangehörige_Gemeinde"},"district":{"key":"08415","name":"Reutlingen","type":"Landkreis"},"federalState":{"key":"08","name":"Baden-Württemberg"}},{"name":"Christianstr.","postalCode":"88529","locality":"Zwiefalten","municipality":{"key":"08415085","name":"Zwiefalten","type":"Kreisangehörige_Gemeinde"},"district":{"key":"08415","name":"Reutlingen","type":"Landkreis"},"federalState":{"key":"08","name":"Baden-Württemberg"}},{"name":"Dobeltal","postalCode":"88529","locality":"Zwiefalten","municipality":{"key":"08415085","name":"Zwiefalten","type":"Kreisangehörige_Gemeinde"},"district":{"key":"08415","name":"Reutlingen","type":"Landkreis"},"federalState":{"key":"08","name":"Baden-Württemberg"}},{"name":"Eichbühl","postalCode":"88529","locality":"Zwiefalten","municipality":{"key":"08415085","name":"Zwiefalten","type":"Kreisangehörige_Gemeinde"},"district":{"key":"08415","name":"Reutlingen","type":"Landkreis"},"federalState":{"key":"08","name":"Baden-Württemberg"}},{"name":"Ellhauser Gasse","postalCode":"88529","locality":"Zwiefalten","municipality":{"key":"08415085","name":"Zwiefalten","type":"Kreisangehörige_Gemeinde"},"district":{"key":"08415","name":"Reutlingen","type":"Landkreis"},"federalState":{"key":"08","name":"Baden-Württemberg"}},{"name":"Elsa-Brändström-Str.","postalCode":"88529","locality":"Zwiefalten","municipality":{"key":"08415085","name":"Zwiefalten","type":"Kreisangehörige_Gemeinde"},"district":{"key":"08415","name":"Reutlingen","type":"Landkreis"},"federalState":{"key":"08","name":"Baden-Württemberg"}},{"name":"Emerbergweg","postalCode":"88529","locality":"Zwiefalten","municipality":{"key":"08415085","name":"Zwiefalten","type":"Kreisangehörige_Gemeinde"},"district":{"key":"08415","name":"Reutlingen","type":"Landkreis"},"federalState":{"key":"08","name":"Baden-Württemberg"}},{"name":"Feichtmayrstr.","postalCode":"88529","locality":"Zwiefalten","municipality":{"key":"08415085","name":"Zwiefalten","type":"Kreisangehörige_Gemeinde"},"district":{"key":"08415","name":"Reutlingen","type":"Landkreis"},"federalState":{"key":"08","name":"Baden-Württemberg"}},{"name":"Forellenweg","postalCode":"88529","locality":"Zwiefalten","municipality":{"key":"08415085","name":"Zwiefalten","type":"Kreisangehörige_Gemeinde"},"district":{"key":"08415","name":"Reutlingen","type":"Landkreis"},"federalState":{"key":"08","name":"Baden-Württemberg"}},{"name":"Galgenberg","postalCode":"88529","locality":"Zwiefalten","municipality":{"key":"08415085","name":"Zwiefalten","type":"Kreisangehörige_Gemeinde"},"district":{"key":"08415","name":"Reutlingen","type":"Landkreis"},"federalState":{"key":"08","name":"Baden-Württemberg"}},{"name":"Gartenweg","postalCode":"88529","locality":"Zwiefalten","municipality":{"key":"08415085","name":"Zwiefalten","type":"Kreisangehörige_Gemeinde"},"district":{"key":"08415","name":"Reutlingen","type":"Landkreis"},"federalState":{"key":"08","name":"Baden-Württemberg"}},{"name":"Gauberg","postalCode":"88529","locality":"Zwiefalten","municipality":{"key":"08415085","name":"Zwiefalten","type":"Kreisangehörige_Gemeinde"},"district":{"key":"08415","name":"Reutlingen","type":"Landkreis"},"federalState":{"key":"08","name":"Baden-Württemberg"}},{"name":"Gauinger Weg","postalCode":"88529","locality":"Zwiefalten","municipality":{"key":"08415085","name":"Zwiefalten","type":"Kreisangehörige_Gemeinde"},"district":{"key":"08415","name":"Reutlingen","type":"Landkreis"},"federalState":{"key":"08","name":"Baden-Württemberg"}},{"name":"Gerberstr.","postalCode":"88529","locality":"Zwiefalten","municipality":{"key":"08415085","name":"Zwiefalten","type":"Kreisangehörige_Gemeinde"},"district":{"key":"08415","name":"Reutlingen","type":"Landkreis"},"federalState":{"key":"08","name":"Baden-Württemberg"}},{"name":"Goldene Gasse","postalCode":"88529","locality":"Zwiefalten","municipality":{"key":"08415085","name":"Zwiefalten","type":"Kreisangehörige_Gemeinde"},"district":{"key":"08415","name":"Reutlingen","type":"Landkreis"},"federalState":{"key":"08","name":"Baden-Württemberg"}},{"name":"Gustav-Werner-Str.","postalCode":"88529","locality":"Zwiefalten","municipality":{"key":"08415085","name":"Zwiefalten","type":"Kreisangehörige_Gemeinde"},"district":{"key":"08415","name":"Reutlingen","type":"Landkreis"},"federalState":{"key":"08","name":"Baden-Württemberg"}},{"name":"Hanfgärten","postalCode":"88529","locality":"Zwiefalten","municipality":{"key":"08415085","name":"Zwiefalten","type":"Kreisangehörige_Gemeinde"},"district":{"key":"08415","name":"Reutlingen","type":"Landkreis"},"federalState":{"key":"08","name":"Baden-Württemberg"}},{"name":"Hauptstr.","postalCode":"88529","locality":"Zwiefalten","municipality":{"key":"08415085","name":"Zwiefalten","type":"Kreisangehörige_Gemeinde"},"district":{"key":"08415","name":"Reutlingen","type":"Landkreis"},"federalState":{"key":"08","name":"Baden-Württemberg"}},{"name":"Hochberg","postalCode":"88529","locality":"Zwiefalten","municipality":{"key":"08415085","name":"Zwiefalten","type":"Kreisangehörige_Gemeinde"},"district":{"key":"08415","name":"Reutlingen","type":"Landkreis"},"federalState":{"key":"08","name":"Baden-Württemberg"}},{"name":"Hofstr.","postalCode":"88529","locality":"Zwiefalten","municipality":{"key":"08415085","name":"Zwiefalten","type":"Kreisangehörige_Gemeinde"},"district":{"key":"08415","name":"Reutlingen","type":"Landkreis"},"federalState":{"key":"08","name":"Baden-Württemberg"}},{"name":"Höhenweg","postalCode":"88529","locality":"Zwiefalten","municipality":{"key":"08415085","name":"Zwiefalten","type":"Kreisangehörige_Gemeinde"},"district":{"key":"08415","name":"Reutlingen","type":"Landkreis"},"federalState":{"key":"08","name":"Baden-Württemberg"}},{"name":"Ihmenfeldstr.","postalCode":"72766","locality":"Reutlingen","municipality":{"key":"08415061","name":"Reutlingen, Stadt","type":"Große_Kreisstadt"},"district":{"key":"08415","name":"Reutlingen","type":"Landkreis"},"federalState":{"key":"08","name":"Baden-Württemberg"}},{"name":"Illerstr.","postalCode":"72768","locality":"Reutlingen","municipality":{"key":"08415061","name":"Reutlingen, Stadt","type":"Große_Kreisstadt"},"district":{"key":"08415","name":"Reutlingen","type":"Landkreis"},"federalState":{"key":"08","name":"Baden-Württemberg"}},{"name":"Iltisweg","postalCode":"72768","locality":"Reutlingen","municipality":{"key":"08415061","name":"Reutlingen, Stadt","type":"Große_Kreisstadt"},"district":{"key":"08415","name":"Reutlingen","type":"Landkreis"},"federalState":{"key":"08","name":"Baden-Württemberg"}},{"name":"Im Besterwasen","postalCode":"72768","locality":"Reutlingen","municipality":{"key":"08415061","name":"Reutlingen, Stadt","type":"Große_Kreisstadt"},"district":{"key":"08415","name":"Reutlingen","type":"Landkreis"},"federalState":{"key":"08","name":"Baden-Württemberg"}},{"name":"Im Bleicherlen","postalCode":"72766","locality":"Reutlingen","municipality":{"key":"08415061","name":"Reutlingen, Stadt","type":"Große_Kreisstadt"},"district":{"key":"08415","name":"Reutlingen","type":"Landkreis"},"federalState":{"key":"08","name":"Baden-Württemberg"}},{"name":"Im Brühl","postalCode":"72770","locality":"Reutlingen","municipality":{"key":"08415061","name":"Reutlingen, Stadt","type":"Große_Kreisstadt"},"district":{"key":"08415","name":"Reutlingen","type":"Landkreis"},"federalState":{"key":"08","name":"Baden-Württemberg"}},{"name":"Im Bungertle","postalCode":"72766","locality":"Reutlingen","municipality":{"key":"08415061","name":"Reutlingen, Stadt","type":"Große_Kreisstadt"},"district":{"key":"08415","name":"Reutlingen","type":"Landkreis"},"federalState":{"key":"08","name":"Baden-Württemberg"}},{"name":"Im Dorf","postalCode":"72770","locality":"Reutlingen","municipality":{"key":"08415061","name":"Reutlingen, Stadt","type":"Große_Kreisstadt"},"district":{"key":"08415","name":"Reutlingen","type":"Landkreis"},"federalState":{"key":"08","name":"Baden-Württemberg"}},{"name":"Im Efeu","postalCode":"72766","locality":"Reutlingen","municipality":{"key":"08415061","name":"Reutlingen, Stadt","type":"Große_Kreisstadt"},"district":{"key":"08415","name":"Reutlingen","type":"Landkreis"},"federalState":{"key":"08","name":"Baden-Württemberg"}},{"name":"Im Felgenbächle","postalCode":"72760","locality":"Reutlingen","municipality":{"key":"08415061","name":"Reutlingen, Stadt","type":"Große_Kreisstadt"},"district":{"key":"08415","name":"Reutlingen","type":"Landkreis"},"federalState":{"key":"08","name":"Baden-Württemberg"}},{"name":"Im Gäßle","postalCode":"72770","locality":"Reutlingen","municipality":{"key":"08415061","name":"Reutlingen, Stadt","type":"Große_Kreisstadt"},"district":{"key":"08415","name":"Reutlingen","type":"Landkreis"},"federalState":{"key":"08","name":"Baden-Württemberg"}},{"name":"Im Gewann Weiher","postalCode":"72762","locality":"Reutlingen","municipality":{"key":"08415061","name":"Reutlingen, Stadt","type":"Große_Kreisstadt"},"district":{"key":"08415","name":"Reutlingen","type":"Landkreis"},"federalState":{"key":"08","name":"Baden-Württemberg"}},{"name":"Im Ghai","postalCode":"72770","locality":"Reutlingen","municipality":{"key":"08415061","name":"Reutlingen, Stadt","type":"Große_Kreisstadt"},"district":{"key":"08415","name":"Reutlingen","type":"Landkreis"},"federalState":{"key":"08","name":"Baden-Württemberg"}},{"name":"Im Hageneck","postalCode":"72768","locality":"Reutlingen","municipality":{"key":"08415061","name":"Reutlingen, Stadt","type":"Große_Kreisstadt"},"district":{"key":"08415","name":"Reutlingen","type":"Landkreis"},"federalState":{"key":"08","name":"Baden-Württemberg"}},{"name":"Im Hau","postalCode":"72768","locality":"Reutlingen","municipality":{"key":"08415061","name":"Reutlingen, Stadt","type":"Große_Kreisstadt"},"district":{"key":"08415","name":"Reutlingen","type":"Landkreis"},"federalState":{"key":"08","name":"Baden-Württemberg"}},{"name":"Im Hof","postalCode":"72768","locality":"Reutlingen","municipality":{"key":"08415061","name":"Reutlingen, Stadt","type":"Große_Kreisstadt"},"district":{"key":"08415","name":"Reutlingen","type":"Landkreis"},"federalState":{"key":"08","name":"Baden-Württemberg"}},{"name":"Im Holder","postalCode":"72770","locality":"Reutlingen","municipality":{"key":"08415061","name":"Reutlingen, Stadt","type":"Große_Kreisstadt"},"district":{"key":"08415","name":"Reutlingen","type":"Landkreis"},"federalState":{"key":"08","name":"Baden-Württemberg"}},{"name":"Im Hörlach","postalCode":"72770","locality":"Reutlingen","municipality":{"key":"08415061","name":"Reutlingen, Stadt","type":"Große_Kreisstadt"},"district":{"key":"08415","name":"Reutlingen","type":"Landkreis"},"federalState":{"key":"08","name":"Baden-Württemberg"}},{"name":"Im Kälblesbiegel","postalCode":"72770","locality":"Reutlingen","municipality":{"key":"08415061","name":"Reutlingen, Stadt","type":"Große_Kreisstadt"},"district":{"key":"08415","name":"Reutlingen","type":"Landkreis"},"federalState":{"key":"08","name":"Baden-Württemberg"}},{"name":"Im Kapf","postalCode":"72766","locality":"Reutlingen","municipality":{"key":"08415061","name":"Reutlingen, Stadt","type":"Große_Kreisstadt"},"district":{"key":"08415","name":"Reutlingen","type":"Landkreis"},"federalState":{"key":"08","name":"Baden-Württemberg"}},{"name":"Im Ländle","postalCode":"72770","locality":"Reutlingen","municipality":{"key":"08415061","name":"Reutlingen, Stadt","type":"Große_Kreisstadt"},"district":{"key":"08415","name":"Reutlingen","type":"Landkreis"},"federalState":{"key":"08","name":"Baden-Württemberg"}},{"name":"Im Morgen","postalCode":"72768","locality":"Reutlingen","municipality":{"key":"08415061","name":"Reutlingen, Stadt","type":"Große_Kreisstadt"},"district":{"key":"08415","name":"Reutlingen","type":"Landkreis"},"federalState":{"key":"08","name":"Baden-Württemberg"}},{"name":"Im Neckartal","postalCode":"72768","locality":"Reutlingen","municipality":{"key":"08415061","name":"Reutlingen, Stadt","type":"Große_Kreisstadt"},"district":{"key":"08415","name":"Reutlingen","type":"Landkreis"},"federalState":{"key":"08","name":"Baden-Württemberg"}},{"name":"Im Paradies","postalCode":"72766","locality":"Reutlingen","municipality":{"key":"08415061","name":"Reutlingen, Stadt","type":"Große_Kreisstadt"},"district":{"key":"08415","name":"Reutlingen","type":"Landkreis"},"federalState":{"key":"08","name":"Baden-Württemberg"}},{"name":"Im Reinenberg","postalCode":"72770","locality":"Reutlingen","municipality":{"key":"08415061","name":"Reutlingen, Stadt","type":"Große_Kreisstadt"},"district":{"key":"08415","name":"Reutlingen","type":"Landkreis"},"federalState":{"key":"08","name":"Baden-Württemberg"}},{"name":"Im Rosswasen","postalCode":"72762","locality":"Reutlingen","municipality":{"key":"08415061","name":"Reutlingen, Stadt","type":"Große_Kreisstadt"},"district":{"key":"08415","name":"Reutlingen","type":"Landkreis"},"federalState":{"key":"08","name":"Baden-Württemberg"}},{"name":"Im Salzmann","postalCode":"72768","locality":"Reutlingen","municipality":{"key":"08415061","name":"Reutlingen, Stadt","type":"Große_Kreisstadt"},"district":{"key":"08415","name":"Reutlingen","type":"Landkreis"},"federalState":{"key":"08","name":"Baden-Württemberg"}},{"name":"Im Sitterbrunnen","postalCode":"72768","locality":"Reutlingen","municipality":{"key":"08415061","name":"Reutlingen, Stadt","type":"Große_Kreisstadt"},"district":{"key":"08415","name":"Reutlingen","type":"Landkreis"},"federalState":{"key":"08","name":"Baden-Württemberg"}},{"name":"Im Staudfuß","postalCode":"72770","locality":"Reutlingen","municipality":{"key":"08415061","name":"Reutlingen, Stadt","type":"Große_Kreisstadt"},"district":{"key":"08415","name":"Reutlingen","type":"Landkreis"},"federalState":{"key":"08","name":"Baden-Württemberg"}},{"name":"Im Strängel","postalCode":"72766","locality":"Reutlingen","municipality":{"key":"08415061","name":"Reutlingen, Stadt","type":"Große_Kreisstadt"},"district":{"key":"08415","name":"Reutlingen","type":"Landkreis"},"federalState":{"key":"08","name":"Baden-Württemberg"}},{"name":"Im Tal","postalCode":"72770","locality":"Reutlingen","municipality":{"key":"08415061","name":"Reutlingen, Stadt","type":"Große_Kreisstadt"},"district":{"key":"08415","name":"Reutlingen","type":"Landkreis"},"federalState":{"key":"08","name":"Baden-Württemberg"}},{"name":"Im Trompeter","postalCode":"72766","locality":"Reutlingen","municipality":{"key":"08415061","name":"Reutlingen, Stadt","type":"Große_Kreisstadt"},"district":{"key":"08415","name":"Reutlingen","type":"Landkreis"},"federalState":{"key":"08","name":"Baden-Württemberg"}},{"name":"Im Wasen","postalCode":"72770","locality":"Reutlingen","municipality":{"key":"08415061","name":"Reutlingen, Stadt","type":"Große_Kreisstadt"},"district":{"key":"08415","name":"Reutlingen","type":"Landkreis"},"federalState":{"key":"08","name":"Baden-Württemberg"}},{"name":"Im Weiler","postalCode":"72770","locality":"Reutlingen","municipality":{"key":"08415061","name":"Reutlingen, Stadt","type":"Große_Kreisstadt"},"district":{"key":"08415","name":"Reutlingen","type":"Landkreis"},"federalState":{"key":"08","name":"Baden-Württemberg"}},{"name":"Im Wengle","postalCode":"72770","locality":"Reutlingen","municipality":{"key":"08415061","name":"Reutlingen, Stadt","type":"Große_Kreisstadt"},"district":{"key":"08415","name":"Reutlingen","type":"Landkreis"},"federalState":{"key":"08","name":"Baden-Württemberg"}},{"name":"Im Wiesaztal","postalCode":"72770","locality":"Reutlingen","municipality":{"key":"08415061","name":"Reutlingen, Stadt","type":"Große_Kreisstadt"},"district":{"key":"08415","name":"Reutlingen","type":"Landkreis"},"federalState":{"key":"08","name":"Baden-Württemberg"}},{"name":"Im Zeil","postalCode":"72768","locality":"Reutlingen","municipality":{"key":"08415061","name":"Reutlingen, Stadt","type":"Große_Kreisstadt"},"district":{"key":"08415","name":"Reutlingen","type":"Landkreis"},"federalState":{"key":"08","name":"Baden-Württemberg"}},{"name":"Ina-Seidel-Str.","postalCode":"72770","locality":"Reutlingen","municipality":{"key":"08415061","name":"Reutlingen, Stadt","type":"Große_Kreisstadt"},"district":{"key":"08415","name":"Reutlingen","type":"Landkreis"},"federalState":{"key":"08","name":"Baden-Württemberg"}},{"name":"In Bühlen","postalCode":"72768","locality":"Reutlingen","municipality":{"key":"08415061","name":"Reutlingen, Stadt","type":"Große_Kreisstadt"},"district":{"key":"08415","name":"Reutlingen","type":"Landkreis"},"federalState":{"key":"08","name":"Baden-Württemberg"}},{"name":"In der Au","postalCode":"72770","locality":"Reutlingen","municipality":{"key":"08415061","name":"Reutlingen, Stadt","type":"Große_Kreisstadt"},"district":{"key":"08415","name":"Reutlingen","type":"Landkreis"},"federalState":{"key":"08","name":"Baden-Württemberg"}},{"name":"In der Braike","postalCode":"72768","locality":"Reutlingen","municipality":{"key":"08415061","name":"Reutlingen, Stadt","type":"Große_Kreisstadt"},"district":{"key":"08415","name":"Reutlingen","type":"Landkreis"},"federalState":{"key":"08","name":"Baden-Württemberg"}},{"name":"In der Schweiz","postalCode":"72770","locality":"Reutlingen","municipality":{"key":"08415061","name":"Reutlingen, Stadt","type":"Große_Kreisstadt"},"district":{"key":"08415","name":"Reutlingen","type":"Landkreis"},"federalState":{"key":"08","name":"Baden-Württemberg"}},{"name":"In der Vorstadt","postalCode":"72768","locality":"Reutlingen","municipality":{"key":"08415061","name":"Reutlingen, Stadt","type":"Große_Kreisstadt"},"district":{"key":"08415","name":"Reutlingen","type":"Landkreis"},"federalState":{"key":"08","name":"Baden-Württemberg"}},{"name":"Industrieweg","postalCode":"72766","locality":"Reutlingen","municipality":{"key":"08415061","name":"Reutlingen, Stadt","type":"Große_Kreisstadt"},"district":{"key":"08415","name":"Reutlingen","type":"Landkreis"},"federalState":{"key":"08","name":"Baden-Württemberg"}},{"name":"In Laisen","postalCode":"72766","locality":"Reutlingen","municipality":{"key":"08415061","name":"Reutlingen, Stadt","type":"Große_Kreisstadt"},"district":{"key":"08415","name":"Reutlingen","type":"Landkreis"},"federalState":{"key":"08","name":"Baden-Württemberg"}},{"name":"Innere Kelterstr.","postalCode":"72764","locality":"Reutlingen","municipality":{"key":"08415061","name":"Reutlingen, Stadt","type":"Große_Kreisstadt"},"district":{"key":"08415","name":"Reutlingen","type":"Landkreis"},"federalState":{"key":"08","name":"Baden-Württemberg"}},{"name":"In Scherrengärten","postalCode":"72766","locality":"Reutlingen","municipality":{"key":"08415061","name":"Reutlingen, Stadt","type":"Große_Kreisstadt"},"district":{"key":"08415","name":"Reutlingen","type":"Landkreis"},"federalState":{"key":"08","name":"Baden-Württemberg"}},{"name":"Isarstr.","postalCode":"72768","locality":"Reutlingen","municipality":{"key":"08415061","name":"Reutlingen, Stadt","type":"Große_Kreisstadt"},"district":{"key":"08415","name":"Reutlingen","type":"Landkreis"},"federalState":{"key":"08","name":"Baden-Württemberg"}},{"name":"Jägerweg","postalCode":"72766","locality":"Reutlingen","municipality":{"key":"08415061","name":"Reutlingen, Stadt","type":"Große_Kreisstadt"},"district":{"key":"08415","name":"Reutlingen","type":"Landkreis"},"federalState":{"key":"08","name":"Baden-Württemberg"}},{"name":"Jahnstr.","postalCode":"72762","locality":"Reutlingen","municipality":{"key":"08415061","name":"Reutlingen, Stadt","type":"Große_Kreisstadt"},"district":{"key":"08415","name":"Reutlingen","type":"Landkreis"},"federalState":{"key":"08","name":"Baden-Württemberg"}},{"name":"Jakob-Degen-Str.","postalCode":"72768","locality":"Reutlingen","municipality":{"key":"08415061","name":"Reutlingen, Stadt","type":"Große_Kreisstadt"},"district":{"key":"08415","name":"Reutlingen","type":"Landkreis"},"federalState":{"key":"08","name":"Baden-Württemberg"}},{"name":"Jakob-Fetzer-Str.","postalCode":"72764","locality":"Reutlingen","municipality":{"key":"08415061","name":"Reutlingen, Stadt","type":"Große_Kreisstadt"},"district":{"key":"08415","name":"Reutlingen","type":"Landkreis"},"federalState":{"key":"08","name":"Baden-Württemberg"}},{"name":"Jakob-Keck-Str.","postalCode":"72770","locality":"Reutlingen","municipality":{"key":"08415061","name":"Reutlingen, Stadt","type":"Große_Kreisstadt"},"district":{"key":"08415","name":"Reutlingen","type":"Landkreis"},"federalState":{"key":"08","name":"Baden-Württemberg"}},{"name":"Jakob-Kurz-Str.","postalCode":"72760","locality":"Reutlingen","municipality":{"key":"08415061","name":"Reutlingen, Stadt","type":"Große_Kreisstadt"},"district":{"key":"08415","name":"Reutlingen","type":"Landkreis"},"federalState":{"key":"08","name":"Baden-Württemberg"}},{"name":"Jakobstr.","postalCode":"72760","locality":"Reutlingen","municipality":{"key":"08415061","name":"Reutlingen, Stadt","type":"Große_Kreisstadt"},"district":{"key":"08415","name":"Reutlingen","type":"Landkreis"},"federalState":{"key":"08","name":"Baden-Württemberg"}},{"name":"Janusz-Korczak-Str.","postalCode":"72762","locality":"Reutlingen","municipality":{"key":"08415061","name":"Reutlingen, Stadt","type":"Große_Kreisstadt"},"district":{"key":"08415","name":"Reutlingen","type":"Landkreis"},"federalState":{"key":"08","name":"Baden-Württemberg"}},{"name":"Jean-Paul-Weg","postalCode":"72770","locality":"Reutlingen","municipality":{"key":"08415061","name":"Reutlingen, Stadt","type":"Große_Kreisstadt"},"district":{"key":"08415","name":"Reutlingen","type":"Landkreis"},"federalState":{"key":"08","name":"Baden-Württemberg"}},{"name":"Jerg-Wurster-Str.","postalCode":"72768","locality":"Reutlingen","municipality":{"key":"08415061","name":"Reutlingen, Stadt","type":"Große_Kreisstadt"},"district":{"key":"08415","name":"Reutlingen","type":"Landkreis"},"federalState":{"key":"08","name":"Baden-Württemberg"}},{"name":"Jettenburger Str.","postalCode":"72770","locality":"Reutlingen","municipality":{"key":"08415061","name":"Reutlingen, Stadt","type":"Große_Kreisstadt"},"district":{"key":"08415","name":"Reutlingen","type":"Landkreis"},"federalState":{"key":"08","name":"Baden-Württemberg"}},{"name":"Johannes-Eisenlohr-Str.","postalCode":"72760","locality":"Reutlingen","municipality":{"key":"08415061","name":"Reutlingen, Stadt","type":"Große_Kreisstadt"},"district":{"key":"08415","name":"Reutlingen","type":"Landkreis"},"federalState":{"key":"08","name":"Baden-Württemberg"}},{"name":"Johannesstr.","postalCode":"72770","locality":"Reutlingen","municipality":{"key":"08415061","name":"Reutlingen, Stadt","type":"Große_Kreisstadt"},"district":{"key":"08415","name":"Reutlingen","type":"Landkreis"},"federalState":{"key":"08","name":"Baden-Württemberg"}},{"name":"Johann-Sebastian-Bach-Str.","postalCode":"72766","locality":"Reutlingen","municipality":{"key":"08415061","name":"Reutlingen, Stadt","type":"Große_Kreisstadt"},"district":{"key":"08415","name":"Reutlingen","type":"Landkreis"},"federalState":{"key":"08","name":"Baden-Württemberg"}},{"name":"Josef-Lanner-Weg","postalCode":"72766","locality":"Reutlingen","municipality":{"key":"08415061","name":"Reutlingen, Stadt","type":"Große_Kreisstadt"},"district":{"key":"08415","name":"Reutlingen","type":"Landkreis"},"federalState":{"key":"08","name":"Baden-Württemberg"}},{"name":"Julianenweg","postalCode":"72770","locality":"Reutlingen","municipality":{"key":"08415061","name":"Reutlingen, Stadt","type":"Große_Kreisstadt"},"district":{"key":"08415","name":"Reutlingen","type":"Landkreis"},"federalState":{"key":"08","name":"Baden-Württemberg"}},{"name":"Julius-Kemmler-Str.","postalCode":"72770","locality":"Reutlingen","municipality":{"key":"08415061","name":"Reutlingen, Stadt","type":"Große_Kreisstadt"},"district":{"key":"08415","name":"Reutlingen","type":"Landkreis"},"federalState":{"key":"08","name":"Baden-Württemberg"}},{"name":"Jungholzweg","postalCode":"72770","locality":"Reutlingen","municipality":{"key":"08415061","name":"Reutlingen, Stadt","type":"Große_Kreisstadt"},"district":{"key":"08415","name":"Reutlingen","type":"Landkreis"},"federalState":{"key":"08","name":"Baden-Württemberg"}},{"name":"Junkersstr.","postalCode":"72770","locality":"Reutlingen","municipality":{"key":"08415061","name":"Reutlingen, Stadt","type":"Große_Kreisstadt"},"district":{"key":"08415","name":"Reutlingen","type":"Landkreis"},"federalState":{"key":"08","name":"Baden-Württemberg"}},{"name":"Jurastr.","postalCode":"72770","locality":"Reutlingen","municipality":{"key":"08415061","name":"Reutlingen, Stadt","type":"Große_Kreisstadt"},"district":{"key":"08415","name":"Reutlingen","type":"Landkreis"},"federalState":{"key":"08","name":"Baden-Württemberg"}},{"name":"Jusistr.","postalCode":"72766","locality":"Reutlingen","municipality":{"key":"08415061","name":"Reutlingen, Stadt","type":"Große_Kreisstadt"},"district":{"key":"08415","name":"Reutlingen","type":"Landkreis"},"federalState":{"key":"08","name":"Baden-Württemberg"}},{"name":"Justinus-Kerner-Str.","postalCode":"72760","locality":"Reutlingen","municipality":{"key":"08415061","name":"Reutlingen, Stadt","type":"Große_Kreisstadt"},"district":{"key":"08415","name":"Reutlingen","type":"Landkreis"},"federalState":{"key":"08","name":"Baden-Württemberg"}},{"name":"Justus-von-Liebig-Str.","postalCode":"72770","locality":"Reutlingen","municipality":{"key":"08415061","name":"Reutlingen, Stadt","type":"Große_Kreisstadt"},"district":{"key":"08415","name":"Reutlingen","type":"Landkreis"},"federalState":{"key":"08","name":"Baden-Württemberg"}},{"name":"Kapellenweg","postalCode":"88529","locality":"Zwiefalten","municipality":{"key":"08415085","name":"Zwiefalten","type":"Kreisangehörige_Gemeinde"},"district":{"key":"08415","name":"Reutlingen","type":"Landkreis"},"federalState":{"key":"08","name":"Baden-Württemberg"}},{"name":"Karl-Baumeister-Str.","postalCode":"88529","locality":"Zwiefalten","municipality":{"key":"08415085","name":"Zwiefalten","type":"Kreisangehörige_Gemeinde"},"district":{"key":"08415","name":"Reutlingen","type":"Landkreis"},"federalState":{"key":"08","name":"Baden-Württemberg"}},{"name":"Kirchenweg","postalCode":"88529","locality":"Zwiefalten","municipality":{"key":"08415085","name":"Zwiefalten","type":"Kreisangehörige_Gemeinde"},"district":{"key":"08415","name":"Reutlingen","type":"Landkreis"},"federalState":{"key":"08","name":"Baden-Württemberg"}},{"name":"Kirchgasse","postalCode":"88529","locality":"Zwiefalten","municipality":{"key":"08415085","name":"Zwiefalten","type":"Kreisangehörige_Gemeinde"},"district":{"key":"08415","name":"Reutlingen","type":"Landkreis"},"federalState":{"key":"08","name":"Baden-Württemberg"}},{"name":"Kirchlesberg","postalCode":"88529","locality":"Zwiefalten","municipality":{"key":"08415085","name":"Zwiefalten","type":"Kreisangehörige_Gemeinde"},"district":{"key":"08415","name":"Reutlingen","type":"Landkreis"},"federalState":{"key":"08","name":"Baden-Württemberg"}},{"name":"Kolpingstr.","postalCode":"88529","locality":"Zwiefalten","municipality":{"key":"08415085","name":"Zwiefalten","type":"Kreisangehörige_Gemeinde"},"district":{"key":"08415","name":"Reutlingen","type":"Landkreis"},"federalState":{"key":"08","name":"Baden-Württemberg"}},{"name":"Konradin-Kreutzer-Str.","postalCode":"88529","locality":"Zwiefalten","municipality":{"key":"08415085","name":"Zwiefalten","type":"Kreisangehörige_Gemeinde"},"district":{"key":"08415","name":"Reutlingen","type":"Landkreis"},"federalState":{"key":"08","name":"Baden-Württemberg"}},{"name":"La Tessoualler Park","postalCode":"88529","locality":"Zwiefalten","municipality":{"key":"08415085","name":"Zwiefalten","type":"Kreisangehörige_Gemeinde"},"district":{"key":"08415","name":"Reutlingen","type":"Landkreis"},"federalState":{"key":"08","name":"Baden-Württemberg"}},{"name":"Lindenstr.","postalCode":"88529","locality":"Zwiefalten","municipality":{"key":"08415085","name":"Zwiefalten","type":"Kreisangehörige_Gemeinde"},"district":{"key":"08415","name":"Reutlingen","type":"Landkreis"},"federalState":{"key":"08","name":"Baden-Württemberg"}},{"name":"Marktplatz","postalCode":"88529","locality":"Zwiefalten","municipality":{"key":"08415085","name":"Zwiefalten","type":"Kreisangehörige_Gemeinde"},"district":{"key":"08415","name":"Reutlingen","type":"Landkreis"},"federalState":{"key":"08","name":"Baden-Württemberg"}},{"name":"Mauerstr.","postalCode":"88529","locality":"Zwiefalten","municipality":{"key":"08415085","name":"Zwiefalten","type":"Kreisangehörige_Gemeinde"},"district":{"key":"08415","name":"Reutlingen","type":"Landkreis"},"federalState":{"key":"08","name":"Baden-Württemberg"}},{"name":"Mühlweg","postalCode":"88529","locality":"Zwiefalten","municipality":{"key":"08415085","name":"Zwiefalten","type":"Kreisangehörige_Gemeinde"},"district":{"key":"08415","name":"Reutlingen","type":"Landkreis"},"federalState":{"key":"08","name":"Baden-Württemberg"}},{"name":"Münsterplatz","postalCode":"88529","locality":"Zwiefalten","municipality":{"key":"08415085","name":"Zwiefalten","type":"Kreisangehörige_Gemeinde"},"district":{"key":"08415","name":"Reutlingen","type":"Landkreis"},"federalState":{"key":"08","name":"Baden-Württemberg"}},{"name":"Nägelesäcker","postalCode":"72770","locality":"Reutlingen","municipality":{"key":"08415061","name":"Reutlingen, Stadt","type":"Große_Kreisstadt"},"district":{"key":"08415","name":"Reutlingen","type":"Landkreis"},"federalState":{"key":"08","name":"Baden-Württemberg"}},{"name":"Nägelestr.","postalCode":"72770","locality":"Reutlingen","municipality":{"key":"08415061","name":"Reutlingen, Stadt","type":"Große_Kreisstadt"},"district":{"key":"08415","name":"Reutlingen","type":"Landkreis"},"federalState":{"key":"08","name":"Baden-Württemberg"}},{"name":"Nahestr.","postalCode":"72768","locality":"Reutlingen","municipality":{"key":"08415061","name":"Reutlingen, Stadt","type":"Große_Kreisstadt"},"district":{"key":"08415","name":"Reutlingen","type":"Landkreis"},"federalState":{"key":"08","name":"Baden-Württemberg"}},{"name":"Narzissenweg","postalCode":"72770","locality":"Reutlingen","municipality":{"key":"08415061","name":"Reutlingen, Stadt","type":"Große_Kreisstadt"},"district":{"key":"08415","name":"Reutlingen","type":"Landkreis"},"federalState":{"key":"08","name":"Baden-Württemberg"}},{"name":"Neckarstr.","postalCode":"72768","locality":"Reutlingen","municipality":{"key":"08415061","name":"Reutlingen, Stadt","type":"Große_Kreisstadt"},"district":{"key":"08415","name":"Reutlingen","type":"Landkreis"},"federalState":{"key":"08","name":"Baden-Württemberg"}},{"name":"Neckartal-Radweg","postalCode":"72768","locality":"Reutlingen","municipality":{"key":"08415061","name":"Reutlingen, Stadt","type":"Große_Kreisstadt"},"district":{"key":"08415","name":"Reutlingen","type":"Landkreis"},"federalState":{"key":"08","name":"Baden-Württemberg"}},{"name":"Neckartalstr.","postalCode":"72768","locality":"Reutlingen","municipality":{"key":"08415061","name":"Reutlingen, Stadt","type":"Große_Kreisstadt"},"district":{"key":"08415","name":"Reutlingen","type":"Landkreis"},"federalState":{"key":"08","name":"Baden-Württemberg"}},{"name":"Neckartenzlinger Str.","postalCode":"72766","locality":"Reutlingen","municipality":{"key":"08415061","name":"Reutlingen, Stadt","type":"Große_Kreisstadt"},"district":{"key":"08415","name":"Reutlingen","type":"Landkreis"},"federalState":{"key":"08","name":"Baden-Württemberg"}},{"name":"Negelerstr.","postalCode":"72762","locality":"Reutlingen","municipality":{"key":"08415061","name":"Reutlingen, Stadt","type":"Große_Kreisstadt"},"district":{"key":"08415","name":"Reutlingen","type":"Landkreis"},"federalState":{"key":"08","name":"Baden-Württemberg"}},{"name":"Nelkenstr.","postalCode":"72764","locality":"Reutlingen","municipality":{"key":"08415061","name":"Reutlingen, Stadt","type":"Große_Kreisstadt"},"district":{"key":"08415","name":"Reutlingen","type":"Landkreis"},"federalState":{"key":"08","name":"Baden-Württemberg"}},{"name":"Nerzweg","postalCode":"72768","locality":"Reutlingen","municipality":{"key":"08415061","name":"Reutlingen, Stadt","type":"Große_Kreisstadt"},"district":{"key":"08415","name":"Reutlingen","type":"Landkreis"},"federalState":{"key":"08","name":"Baden-Württemberg"}},{"name":"Neue Str.","postalCode":"72770","locality":"Reutlingen","municipality":{"key":"08415061","name":"Reutlingen, Stadt","type":"Große_Kreisstadt"},"district":{"key":"08415","name":"Reutlingen","type":"Landkreis"},"federalState":{"key":"08","name":"Baden-Württemberg"}},{"name":"Neuffenweg","postalCode":"72766","locality":"Reutlingen","municipality":{"key":"08415061","name":"Reutlingen, Stadt","type":"Große_Kreisstadt"},"district":{"key":"08415","name":"Reutlingen","type":"Landkreis"},"federalState":{"key":"08","name":"Baden-Württemberg"}},{"name":"Nibelungenstr.","postalCode":"72768","locality":"Reutlingen","municipality":{"key":"08415061","name":"Reutlingen, Stadt","type":"Große_Kreisstadt"},"district":{"key":"08415","name":"Reutlingen","type":"Landkreis"},"federalState":{"key":"08","name":"Baden-Württemberg"}},{"name":"Nikolausstr.","postalCode":"72768","locality":"Reutlingen","municipality":{"key":"08415061","name":"Reutlingen, Stadt","type":"Große_Kreisstadt"},"district":{"key":"08415","name":"Reutlingen","type":"Landkreis"},"federalState":{"key":"08","name":"Baden-Württemberg"}},{"name":"Nonnenwasenstr.","postalCode":"72766","locality":"Reutlingen","municipality":{"key":"08415061","name":"Reutlingen, Stadt","type":"Große_Kreisstadt"},"district":{"key":"08415","name":"Reutlingen","type":"Landkreis"},"federalState":{"key":"08","name":"Baden-Württemberg"}},{"name":"Nördlinger Str.","postalCode":"72760","locality":"Reutlingen","municipality":{"key":"08415061","name":"Reutlingen, Stadt","type":"Große_Kreisstadt"},"district":{"key":"08415","name":"Reutlingen","type":"Landkreis"},"federalState":{"key":"08","name":"Baden-Württemberg"}},{"name":"Novalisweg","postalCode":"72770","locality":"Reutlingen","municipality":{"key":"08415061","name":"Reutlingen, Stadt","type":"Große_Kreisstadt"},"district":{"key":"08415","name":"Reutlingen","type":"Landkreis"},"federalState":{"key":"08","name":"Baden-Württemberg"}},{"name":"Nürnberger Str.","postalCode":"72760","locality":"Reutlingen","municipality":{"key":"08415061","name":"Reutlingen, Stadt","type":"Große_Kreisstadt"},"district":{"key":"08415","name":"Reutlingen","type":"Landkreis"},"federalState":{"key":"08","name":"Baden-Württemberg"}},{"name":"Nürtingerhofstr.","postalCode":"72764","locality":"Reutlingen","municipality":{"key":"08415061","name":"Reutlingen, Stadt","type":"Große_Kreisstadt"},"district":{"key":"08415","name":"Reutlingen","type":"Landkreis"},"federalState":{"key":"08","name":"Baden-Württemberg"}},{"name":"Ostlandstr.","postalCode":"88529","locality":"Zwiefalten","municipality":{"key":"08415085","name":"Zwiefalten","type":"Kreisangehörige_Gemeinde"},"district":{"key":"08415","name":"Reutlingen","type":"Landkreis"},"federalState":{"key":"08","name":"Baden-Württemberg"}},{"name":"Panoramastr.","postalCode":"88529","locality":"Zwiefalten","municipality":{"key":"08415085","name":"Zwiefalten","type":"Kreisangehörige_Gemeinde"},"district":{"key":"08415","name":"Reutlingen","type":"Landkreis"},"federalState":{"key":"08","name":"Baden-Württemberg"}},{"name":"Pfauenstich","postalCode":"88529","locality":"Zwiefalten","municipality":{"key":"08415085","name":"Zwiefalten","type":"Kreisangehörige_Gemeinde"},"district":{"key":"08415","name":"Reutlingen","type":"Landkreis"},"federalState":{"key":"08","name":"Baden-Württemberg"}},{"name":"Prälatenweg","postalCode":"88529","locality":"Zwiefalten","municipality":{"key":"08415085","name":"Zwiefalten","type":"Kreisangehörige_Gemeinde"},"district":{"key":"08415","name":"Reutlingen","type":"Landkreis"},"federalState":{"key":"08","name":"Baden-Württemberg"}},{"name":"Quellenstr.","postalCode":"72770","locality":"Reutlingen","municipality":{"key":"08415061","name":"Reutlingen, Stadt","type":"Große_Kreisstadt"},"district":{"key":"08415","name":"Reutlingen","type":"Landkreis"},"federalState":{"key":"08","name":"Baden-Württemberg"}},{"name":"Reutlinger Str.","postalCode":"88529","locality":"Zwiefalten","municipality":{"key":"08415085","name":"Zwiefalten","type":"Kreisangehörige_Gemeinde"},"district":{"key":"08415","name":"Reutlingen","type":"Landkreis"},"federalState":{"key":"08","name":"Baden-Württemberg"}},{"name":"Sägmühlstr.","postalCode":"88529","locality":"Zwiefalten","municipality":{"key":"08415085","name":"Zwiefalten","type":"Kreisangehörige_Gemeinde"},"district":{"key":"08415","name":"Reutlingen","type":"Landkreis"},"federalState":{"key":"08","name":"Baden-Württemberg"}},{"name":"Schulstr.","postalCode":"88529","locality":"Zwiefalten","municipality":{"key":"08415085","name":"Zwiefalten","type":"Kreisangehörige_Gemeinde"},"district":{"key":"08415","name":"Reutlingen","type":"Landkreis"},"federalState":{"key":"08","name":"Baden-Württemberg"}},{"name":"Sonderbucher Steige","postalCode":"88529","locality":"Zwiefalten","municipality":{"key":"08415085","name":"Zwiefalten","type":"Kreisangehörige_Gemeinde"},"district":{"key":"08415","name":"Reutlingen","type":"Landkreis"},"federalState":{"key":"08","name":"Baden-Württemberg"}},{"name":"Sonnenhalde","postalCode":"88529","locality":"Zwiefalten","municipality":{"key":"08415085","name":"Zwiefalten","type":"Kreisangehörige_Gemeinde"},"district":{"key":"08415","name":"Reutlingen","type":"Landkreis"},"federalState":{"key":"08","name":"Baden-Württemberg"}},{"name":"Spieglerstr.","postalCode":"88529","locality":"Zwiefalten","municipality":{"key":"08415085","name":"Zwiefalten","type":"Kreisangehörige_Gemeinde"},"district":{"key":"08415","name":"Reutlingen","type":"Landkreis"},"federalState":{"key":"08","name":"Baden-Württemberg"}},{"name":"Talweg","postalCode":"88529","locality":"Zwiefalten","municipality":{"key":"08415085","name":"Zwiefalten","type":"Kreisangehörige_Gemeinde"},"district":{"key":"08415","name":"Reutlingen","type":"Landkreis"},"federalState":{"key":"08","name":"Baden-Württemberg"}},{"name":"Uhlandstr.","postalCode":"72764","locality":"Reutlingen","municipality":{"key":"08415061","name":"Reutlingen, Stadt","type":"Große_Kreisstadt"},"district":{"key":"08415","name":"Reutlingen","type":"Landkreis"},"federalState":{"key":"08","name":"Baden-Württemberg"}},{"name":"Ulmenweg","postalCode":"72770","locality":"Reutlingen","municipality":{"key":"08415061","name":"Reutlingen, Stadt","type":"Große_Kreisstadt"},"district":{"key":"08415","name":"Reutlingen","type":"Landkreis"},"federalState":{"key":"08","name":"Baden-Württemberg"}},{"name":"Ulmer Str.","postalCode":"72760","locality":"Reutlingen","municipality":{"key":"08415061","name":"Reutlingen, Stadt","type":"Große_Kreisstadt"},"district":{"key":"08415","name":"Reutlingen","type":"Landkreis"},"federalState":{"key":"08","name":"Baden-Württemberg"}},{"name":"Ulrichstr.","postalCode":"72764","locality":"Reutlingen","municipality":{"key":"08415061","name":"Reutlingen, Stadt","type":"Große_Kreisstadt"},"district":{"key":"08415","name":"Reutlingen","type":"Landkreis"},"federalState":{"key":"08","name":"Baden-Württemberg"}},{"name":"Ungerhalde","postalCode":"72768","locality":"Reutlingen","municipality":{"key":"08415061","name":"Reutlingen, Stadt","type":"Große_Kreisstadt"},"district":{"key":"08415","name":"Reutlingen","type":"Landkreis"},"federalState":{"key":"08","name":"Baden-Württemberg"}},{"name":"Unhaldestr.","postalCode":"72770","locality":"Reutlingen","municipality":{"key":"08415061","name":"Reutlingen, Stadt","type":"Große_Kreisstadt"},"district":{"key":"08415","name":"Reutlingen","type":"Landkreis"},"federalState":{"key":"08","name":"Baden-Württemberg"}},{"name":"Unter den Linden","postalCode":"72762","locality":"Reutlingen","municipality":{"key":"08415061","name":"Reutlingen, Stadt","type":"Große_Kreisstadt"},"district":{"key":"08415","name":"Reutlingen","type":"Landkreis"},"federalState":{"key":"08","name":"Baden-Württemberg"}},{"name":"Untere Gerberstr.","postalCode":"72764","locality":"Reutlingen","municipality":{"key":"08415061","name":"Reutlingen, Stadt","type":"Große_Kreisstadt"},"district":{"key":"08415","name":"Reutlingen","type":"Landkreis"},"federalState":{"key":"08","name":"Baden-Württemberg"}},{"name":"Unterer Haldenweg","postalCode":"72768","locality":"Reutlingen","municipality":{"key":"08415061","name":"Reutlingen, Stadt","type":"Große_Kreisstadt"},"district":{"key":"08415","name":"Reutlingen","type":"Landkreis"},"federalState":{"key":"08","name":"Baden-Württemberg"}},{"name":"Unterer Stichweg","postalCode":"72770","locality":"Reutlingen","municipality":{"key":"08415061","name":"Reutlingen, Stadt","type":"Große_Kreisstadt"},"district":{"key":"08415","name":"Reutlingen","type":"Landkreis"},"federalState":{"key":"08","name":"Baden-Württemberg"}},{"name":"Untere Steigstr.","postalCode":"72770","locality":"Reutlingen","municipality":{"key":"08415061","name":"Reutlingen, Stadt","type":"Große_Kreisstadt"},"district":{"key":"08415","name":"Reutlingen","type":"Landkreis"},"federalState":{"key":"08","name":"Baden-Württemberg"}},{"name":"Unterlauhernweg","postalCode":"72770","locality":"Reutlingen","municipality":{"key":"08415061","name":"Reutlingen, Stadt","type":"Große_Kreisstadt"},"district":{"key":"08415","name":"Reutlingen","type":"Landkreis"},"federalState":{"key":"08","name":"Baden-Württemberg"}},{"name":"Unterm Georgenberg","postalCode":"72762","locality":"Reutlingen","municipality":{"key":"08415061","name":"Reutlingen, Stadt","type":"Große_Kreisstadt"},"district":{"key":"08415","name":"Reutlingen","type":"Landkreis"},"federalState":{"key":"08","name":"Baden-Württemberg"}},{"name":"Uracher Str.","postalCode":"72766","locality":"Reutlingen","municipality":{"key":"08415061","name":"Reutlingen, Stadt","type":"Große_Kreisstadt"},"district":{"key":"08415","name":"Reutlingen","type":"Landkreis"},"federalState":{"key":"08","name":"Baden-Württemberg"}},{"name":"Urbanstr.","postalCode":"72764","locality":"Reutlingen","municipality":{"key":"08415061","name":"Reutlingen, Stadt","type":"Große_Kreisstadt"},"district":{"key":"08415","name":"Reutlingen","type":"Landkreis"},"federalState":{"key":"08","name":"Baden-Württemberg"}},{"name":"Veilchenweg","postalCode":"72764","locality":"Reutlingen","municipality":{"key":"08415061","name":"Reutlingen, Stadt","type":"Große_Kreisstadt"},"district":{"key":"08415","name":"Reutlingen","type":"Landkreis"},"federalState":{"key":"08","name":"Baden-Württemberg"}},{"name":"Veit-Stoß-Str.","postalCode":"72768","locality":"Reutlingen","municipality":{"key":"08415061","name":"Reutlingen, Stadt","type":"Große_Kreisstadt"},"district":{"key":"08415","name":"Reutlingen","type":"Landkreis"},"federalState":{"key":"08","name":"Baden-Württemberg"}},{"name":"Verbindungsweg","postalCode":"72770","locality":"Reutlingen","municipality":{"key":"08415061","name":"Reutlingen, Stadt","type":"Große_Kreisstadt"},"district":{"key":"08415","name":"Reutlingen","type":"Landkreis"},"federalState":{"key":"08","name":"Baden-Württemberg"}},{"name":"Verdistr.","postalCode":"72768","locality":"Reutlingen","municipality":{"key":"08415061","name":"Reutlingen, Stadt","type":"Große_Kreisstadt"},"district":{"key":"08415","name":"Reutlingen","type":"Landkreis"},"federalState":{"key":"08","name":"Baden-Württemberg"}},{"name":"Vier Länder","postalCode":"72768","locality":"Reutlingen","municipality":{"key":"08415061","name":"Reutlingen, Stadt","type":"Große_Kreisstadt"},"district":{"key":"08415","name":"Reutlingen","type":"Landkreis"},"federalState":{"key":"08","name":"Baden-Württemberg"}},{"name":"Villastr.","postalCode":"72770","locality":"Reutlingen","municipality":{"key":"08415061","name":"Reutlingen, Stadt","type":"Große_Kreisstadt"},"district":{"key":"08415","name":"Reutlingen","type":"Landkreis"},"federalState":{"key":"08","name":"Baden-Württemberg"}},{"name":"Vischerstr.","postalCode":"72764","locality":"Reutlingen","municipality":{"key":"08415061","name":"Reutlingen, Stadt","type":"Große_Kreisstadt"},"district":{"key":"08415","name":"Reutlingen","type":"Landkreis"},"federalState":{"key":"08","name":"Baden-Württemberg"}},{"name":"Vochezenholzstr.","postalCode":"72762","locality":"Reutlingen","municipality":{"key":"08415061","name":"Reutlingen, Stadt","type":"Große_Kreisstadt"},"district":{"key":"08415","name":"Reutlingen","type":"Landkreis"},"federalState":{"key":"08","name":"Baden-Württemberg"}},{"name":"Vogelsangstr.","postalCode":"72770","locality":"Reutlingen","municipality":{"key":"08415061","name":"Reutlingen, Stadt","type":"Große_Kreisstadt"},"district":{"key":"08415","name":"Reutlingen","type":"Landkreis"},"federalState":{"key":"08","name":"Baden-Württemberg"}},{"name":"Vogelsbergstr.","postalCode":"72766","locality":"Reutlingen","municipality":{"key":"08415061","name":"Reutlingen, Stadt","type":"Große_Kreisstadt"},"district":{"key":"08415","name":"Reutlingen","type":"Landkreis"},"federalState":{"key":"08","name":"Baden-Württemberg"}},{"name":"Volker-Ammann-Weg","postalCode":"72770","locality":"Reutlingen","municipality":{"key":"08415061","name":"Reutlingen, Stadt","type":"Große_Kreisstadt"},"district":{"key":"08415","name":"Reutlingen","type":"Landkreis"},"federalState":{"key":"08","name":"Baden-Württemberg"}},{"name":"Volkspark","postalCode":"72762","locality":"Reutlingen","municipality":{"key":"08415061","name":"Reutlingen, Stadt","type":"Große_Kreisstadt"},"district":{"key":"08415","name":"Reutlingen","type":"Landkreis"},"federalState":{"key":"08","name":"Baden-Württemberg"}},{"name":"Vorderer Schönrain","postalCode":"72766","locality":"Reutlingen","municipality":{"key":"08415061","name":"Reutlingen, Stadt","type":"Große_Kreisstadt"},"district":{"key":"08415","name":"Reutlingen","type":"Landkreis"},"federalState":{"key":"08","name":"Baden-Württemberg"}},{"name":"Wendelinusweg","postalCode":"88529","locality":"Zwiefalten","municipality":{"key":"08415085","name":"Zwiefalten","type":"Kreisangehörige_Gemeinde"},"district":{"key":"08415","name":"Reutlingen","type":"Landkreis"},"federalState":{"key":"08","name":"Baden-Württemberg"}},{"name":"Wiesental","postalCode":"88529","locality":"Zwiefalten","municipality":{"key":"08415085","name":"Zwiefalten","type":"Kreisangehörige_Gemeinde"},"district":{"key":"08415","name":"Reutlingen","type":"Landkreis"},"federalState":{"key":"08","name":"Baden-Württemberg"}},{"name":"Wimsener Weg","postalCode":"88529","locality":"Zwiefalten","municipality":{"key":"08415085","name":"Zwiefalten","type":"Kreisangehörige_Gemeinde"},"district":{"key":"08415","name":"Reutlingen","type":"Landkreis"},"federalState":{"key":"08","name":"Baden-Württemberg"}},{"name":"Zum Rental","postalCode":"88529","locality":"Zwiefalten","municipality":{"key":"08415085","name":"Zwiefalten","type":"Kreisangehörige_Gemeinde"},"district":{"key":"08415","name":"Reutlingen","type":"Landkreis"},"federalState":{"key":"08","name":"Baden-Württemberg"}},{"name":"Zum Schloßberg","postalCode":"88529","locality":"Zwiefalten","municipality":{"key":"08415085","name":"Zwiefalten","type":"Kreisangehörige_Gemeinde"},"district":{"key":"08415","name":"Reutlingen","type":"Landkreis"},"federalState":{"key":"08","name":"Baden-Württemberg"}},{"name":"Äußere Kelterstr.","postalCode":"72764","locality":"Reutlingen","municipality":{"key":"08415061","name":"Reutlingen, Stadt","type":"Große_Kreisstadt"},"district":{"key":"08415","name":"Reutlingen","type":"Landkreis"},"federalState":{"key":"08","name":"Baden-Württemberg"}},{"name":"Öläckerweg","postalCode":"72770","locality":"Reutlingen","municipality":{"key":"08415061","name":"Reutlingen, Stadt","type":"Große_Kreisstadt"},"district":{"key":"08415","name":"Reutlingen","type":"Landkreis"},"federalState":{"key":"08","name":"Baden-Württemberg"}},{"name":"Öschbergweg","postalCode":"72766","locality":"Reutlingen","municipality":{"key":"08415061","name":"Reutlingen, Stadt","type":"Große_Kreisstadt"},"district":{"key":"08415","name":"Reutlingen","type":"Landkreis"},"federalState":{"key":"08","name":"Baden-Württemberg"}},{"name":"Öschinger Str.","postalCode":"72770","locality":"Reutlingen","municipality":{"key":"08415061","name":"Reutlingen, Stadt","type":"Große_Kreisstadt"},"district":{"key":"08415","name":"Reutlingen","type":"Landkreis"},"federalState":{"key":"08","name":"Baden-Württemberg"}},{"name":"Über den Halden","postalCode":"72768","locality":"Reutlingen","municipality":{"key":"08415061","name":"Reutlingen, Stadt","type":"Große_Kreisstadt"},"district":{"key":"08415","name":"Reutlingen","type":"Landkreis"},"federalState":{"key":"08","name":"Baden-Württemberg"}},{"name":"Überm Neckar","postalCode":"72768","locality":"Reutlingen","municipality":{"key":"08415061","name":"Reutlingen, Stadt","type":"Große_Kreisstadt"},"district":{"key":"08415","name":"Reutlingen","type":"Landkreis"},"federalState":{"key":"08","name":"Baden-Württemberg"}},]