[{"name":"Am Borngarten","postalCode":"65558","locality":"Kaltenholzhausen","municipality":{"key":"07141065","name":"Kaltenholzhausen","type":"Kreisangehörige_Gemeinde"},"district":{"key":"07141","name":"Rhein-Lahn-Kreis","type":"Landkreis"},"federalState":{"key":"07","name":"Rheinland-Pfalz"}},{"name":"Burgschwalbacher Str.","postalCode":"65558","locality":"Kaltenholzhausen","municipality":{"key":"07141065","name":"Kaltenholzhausen","type":"Kreisangehörige_Gemeinde"},"district":{"key":"07141","name":"Rhein-Lahn-Kreis","type":"Landkreis"},"federalState":{"key":"07","name":"Rheinland-Pfalz"}},{"name":"Gartenstr.","postalCode":"65558","locality":"Kaltenholzhausen","municipality":{"key":"07141065","name":"Kaltenholzhausen","type":"Kreisangehörige_Gemeinde"},"district":{"key":"07141","name":"Rhein-Lahn-Kreis","type":"Landkreis"},"federalState":{"key":"07","name":"Rheinland-Pfalz"}},{"name":"Im Großen Acker","postalCode":"65558","locality":"Kaltenholzhausen","municipality":{"key":"07141065","name":"Kaltenholzhausen","type":"Kreisangehörige_Gemeinde"},"district":{"key":"07141","name":"Rhein-Lahn-Kreis","type":"Landkreis"},"federalState":{"key":"07","name":"Rheinland-Pfalz"}},{"name":"Jahnstr.","postalCode":"65558","locality":"Kaltenholzhausen","municipality":{"key":"07141065","name":"Kaltenholzhausen","type":"Kreisangehörige_Gemeinde"},"district":{"key":"07141","name":"Rhein-Lahn-Kreis","type":"Landkreis"},"federalState":{"key":"07","name":"Rheinland-Pfalz"}},{"name":"Kirberger Str.","postalCode":"65558","locality":"Kaltenholzhausen","municipality":{"key":"07141065","name":"Kaltenholzhausen","type":"Kreisangehörige_Gemeinde"},"district":{"key":"07141","name":"Rhein-Lahn-Kreis","type":"Landkreis"},"federalState":{"key":"07","name":"Rheinland-Pfalz"}},{"name":"Kirchgasse","postalCode":"65558","locality":"Kaltenholzhausen","municipality":{"key":"07141065","name":"Kaltenholzhausen","type":"Kreisangehörige_Gemeinde"},"district":{"key":"07141","name":"Rhein-Lahn-Kreis","type":"Landkreis"},"federalState":{"key":"07","name":"Rheinland-Pfalz"}},{"name":"Netzgraben","postalCode":"65558","locality":"Kaltenholzhausen","municipality":{"key":"07141065","name":"Kaltenholzhausen","type":"Kreisangehörige_Gemeinde"},"district":{"key":"07141","name":"Rhein-Lahn-Kreis","type":"Landkreis"},"federalState":{"key":"07","name":"Rheinland-Pfalz"}},{"name":"Ringstr.","postalCode":"65558","locality":"Kaltenholzhausen","municipality":{"key":"07141065","name":"Kaltenholzhausen","type":"Kreisangehörige_Gemeinde"},"district":{"key":"07141","name":"Rhein-Lahn-Kreis","type":"Landkreis"},"federalState":{"key":"07","name":"Rheinland-Pfalz"}},{"name":"Schulstr.","postalCode":"65558","locality":"Kaltenholzhausen","municipality":{"key":"07141065","name":"Kaltenholzhausen","type":"Kreisangehörige_Gemeinde"},"district":{"key":"07141","name":"Rhein-Lahn-Kreis","type":"Landkreis"},"federalState":{"key":"07","name":"Rheinland-Pfalz"}},{"name":"Talblick","postalCode":"65558","locality":"Kaltenholzhausen","municipality":{"key":"07141065","name":"Kaltenholzhausen","type":"Kreisangehörige_Gemeinde"},"district":{"key":"07141","name":"Rhein-Lahn-Kreis","type":"Landkreis"},"federalState":{"key":"07","name":"Rheinland-Pfalz"}},{"name":"Tannenweg","postalCode":"65558","locality":"Kaltenholzhausen","municipality":{"key":"07141065","name":"Kaltenholzhausen","type":"Kreisangehörige_Gemeinde"},"district":{"key":"07141","name":"Rhein-Lahn-Kreis","type":"Landkreis"},"federalState":{"key":"07","name":"Rheinland-Pfalz"}},{"name":"Waldstr.","postalCode":"65558","locality":"Kaltenholzhausen","municipality":{"key":"07141065","name":"Kaltenholzhausen","type":"Kreisangehörige_Gemeinde"},"district":{"key":"07141","name":"Rhein-Lahn-Kreis","type":"Landkreis"},"federalState":{"key":"07","name":"Rheinland-Pfalz"}},]