[{"name":"3C-Ring","postalCode":"86899","locality":"Landsberg am Lech","municipality":{"key":"09181130","name":"Landsberg am Lech, GKSt","type":"Große_Kreisstadt"},"district":{"key":"09181","name":"Landsberg am Lech","type":"Landkreis"},"federalState":{"key":"09","name":"Bayern"}},{"name":"Ahornweg","postalCode":"86931","locality":"Prittriching","municipality":{"key":"09181134","name":"Prittriching","type":"Kreisangehörige_Gemeinde"},"district":{"key":"09181","name":"Landsberg am Lech","type":"Landkreis"},"federalState":{"key":"09","name":"Bayern"}},{"name":"Am Leitenberg","postalCode":"86931","locality":"Prittriching","municipality":{"key":"09181134","name":"Prittriching","type":"Kreisangehörige_Gemeinde"},"district":{"key":"09181","name":"Landsberg am Lech","type":"Landkreis"},"federalState":{"key":"09","name":"Bayern"}},{"name":"Am Luß","postalCode":"86931","locality":"Prittriching","municipality":{"key":"09181134","name":"Prittriching","type":"Kreisangehörige_Gemeinde"},"district":{"key":"09181","name":"Landsberg am Lech","type":"Landkreis"},"federalState":{"key":"09","name":"Bayern"}},{"name":"Angerstr.","postalCode":"86931","locality":"Prittriching","municipality":{"key":"09181134","name":"Prittriching","type":"Kreisangehörige_Gemeinde"},"district":{"key":"09181","name":"Landsberg am Lech","type":"Landkreis"},"federalState":{"key":"09","name":"Bayern"}},{"name":"Angerweg","postalCode":"86931","locality":"Prittriching","municipality":{"key":"09181134","name":"Prittriching","type":"Kreisangehörige_Gemeinde"},"district":{"key":"09181","name":"Landsberg am Lech","type":"Landkreis"},"federalState":{"key":"09","name":"Bayern"}},{"name":"Austr.","postalCode":"86931","locality":"Prittriching","municipality":{"key":"09181134","name":"Prittriching","type":"Kreisangehörige_Gemeinde"},"district":{"key":"09181","name":"Landsberg am Lech","type":"Landkreis"},"federalState":{"key":"09","name":"Bayern"}},{"name":"Bachanger","postalCode":"86931","locality":"Prittriching","municipality":{"key":"09181134","name":"Prittriching","type":"Kreisangehörige_Gemeinde"},"district":{"key":"09181","name":"Landsberg am Lech","type":"Landkreis"},"federalState":{"key":"09","name":"Bayern"}},{"name":"Bachstr.","postalCode":"86931","locality":"Prittriching","municipality":{"key":"09181134","name":"Prittriching","type":"Kreisangehörige_Gemeinde"},"district":{"key":"09181","name":"Landsberg am Lech","type":"Landkreis"},"federalState":{"key":"09","name":"Bayern"}},{"name":"Badstr.","postalCode":"86931","locality":"Prittriching","municipality":{"key":"09181134","name":"Prittriching","type":"Kreisangehörige_Gemeinde"},"district":{"key":"09181","name":"Landsberg am Lech","type":"Landkreis"},"federalState":{"key":"09","name":"Bayern"}},{"name":"Bergstr.","postalCode":"86931","locality":"Prittriching","municipality":{"key":"09181134","name":"Prittriching","type":"Kreisangehörige_Gemeinde"},"district":{"key":"09181","name":"Landsberg am Lech","type":"Landkreis"},"federalState":{"key":"09","name":"Bayern"}},{"name":"Blumenstr.","postalCode":"86931","locality":"Prittriching","municipality":{"key":"09181134","name":"Prittriching","type":"Kreisangehörige_Gemeinde"},"district":{"key":"09181","name":"Landsberg am Lech","type":"Landkreis"},"federalState":{"key":"09","name":"Bayern"}},{"name":"Buchenweg","postalCode":"86931","locality":"Prittriching","municipality":{"key":"09181134","name":"Prittriching","type":"Kreisangehörige_Gemeinde"},"district":{"key":"09181","name":"Landsberg am Lech","type":"Landkreis"},"federalState":{"key":"09","name":"Bayern"}},{"name":"Bürgermeister-Franz-Ditsch-Str.","postalCode":"86931","locality":"Prittriching","municipality":{"key":"09181134","name":"Prittriching","type":"Kreisangehörige_Gemeinde"},"district":{"key":"09181","name":"Landsberg am Lech","type":"Landkreis"},"federalState":{"key":"09","name":"Bayern"}},{"name":"Carl-Friedrich-Benz-Str.","postalCode":"86899","locality":"Landsberg am Lech","municipality":{"key":"09181130","name":"Landsberg am Lech, GKSt","type":"Große_Kreisstadt"},"district":{"key":"09181","name":"Landsberg am Lech","type":"Landkreis"},"federalState":{"key":"09","name":"Bayern"}},{"name":"Christoph-Thomas-Scheffler-Str.","postalCode":"86899","locality":"Landsberg am Lech","municipality":{"key":"09181130","name":"Landsberg am Lech, GKSt","type":"Große_Kreisstadt"},"district":{"key":"09181","name":"Landsberg am Lech","type":"Landkreis"},"federalState":{"key":"09","name":"Bayern"}},{"name":"Dumpfweg","postalCode":"86931","locality":"Prittriching","municipality":{"key":"09181134","name":"Prittriching","type":"Kreisangehörige_Gemeinde"},"district":{"key":"09181","name":"Landsberg am Lech","type":"Landkreis"},"federalState":{"key":"09","name":"Bayern"}},{"name":"Egartenweg","postalCode":"86931","locality":"Prittriching","municipality":{"key":"09181134","name":"Prittriching","type":"Kreisangehörige_Gemeinde"},"district":{"key":"09181","name":"Landsberg am Lech","type":"Landkreis"},"federalState":{"key":"09","name":"Bayern"}},{"name":"Eglinger Str.","postalCode":"86931","locality":"Prittriching","municipality":{"key":"09181134","name":"Prittriching","type":"Kreisangehörige_Gemeinde"},"district":{"key":"09181","name":"Landsberg am Lech","type":"Landkreis"},"federalState":{"key":"09","name":"Bayern"}},{"name":"Erlenweg","postalCode":"86931","locality":"Prittriching","municipality":{"key":"09181134","name":"Prittriching","type":"Kreisangehörige_Gemeinde"},"district":{"key":"09181","name":"Landsberg am Lech","type":"Landkreis"},"federalState":{"key":"09","name":"Bayern"}},{"name":"Eschenweg","postalCode":"86931","locality":"Prittriching","municipality":{"key":"09181134","name":"Prittriching","type":"Kreisangehörige_Gemeinde"},"district":{"key":"09181","name":"Landsberg am Lech","type":"Landkreis"},"federalState":{"key":"09","name":"Bayern"}},{"name":"Frühlingstr.","postalCode":"86931","locality":"Prittriching","municipality":{"key":"09181134","name":"Prittriching","type":"Kreisangehörige_Gemeinde"},"district":{"key":"09181","name":"Landsberg am Lech","type":"Landkreis"},"federalState":{"key":"09","name":"Bayern"}},{"name":"Gartenstr.","postalCode":"86931","locality":"Prittriching","municipality":{"key":"09181134","name":"Prittriching","type":"Kreisangehörige_Gemeinde"},"district":{"key":"09181","name":"Landsberg am Lech","type":"Landkreis"},"federalState":{"key":"09","name":"Bayern"}},{"name":"Gewerbering","postalCode":"86931","locality":"Prittriching","municipality":{"key":"09181134","name":"Prittriching","type":"Kreisangehörige_Gemeinde"},"district":{"key":"09181","name":"Landsberg am Lech","type":"Landkreis"},"federalState":{"key":"09","name":"Bayern"}},{"name":"Haydnstr.","postalCode":"86931","locality":"Prittriching","municipality":{"key":"09181134","name":"Prittriching","type":"Kreisangehörige_Gemeinde"},"district":{"key":"09181","name":"Landsberg am Lech","type":"Landkreis"},"federalState":{"key":"09","name":"Bayern"}},{"name":"Hohlweg","postalCode":"86931","locality":"Prittriching","municipality":{"key":"09181134","name":"Prittriching","type":"Kreisangehörige_Gemeinde"},"district":{"key":"09181","name":"Landsberg am Lech","type":"Landkreis"},"federalState":{"key":"09","name":"Bayern"}},{"name":"Iglinger Str.","postalCode":"86899","locality":"Landsberg am Lech","municipality":{"key":"09181130","name":"Landsberg am Lech, GKSt","type":"Große_Kreisstadt"},"district":{"key":"09181","name":"Landsberg am Lech","type":"Landkreis"},"federalState":{"key":"09","name":"Bayern"}},{"name":"Ignatius-Merani-Str.","postalCode":"86899","locality":"Landsberg am Lech","municipality":{"key":"09181130","name":"Landsberg am Lech, GKSt","type":"Große_Kreisstadt"},"district":{"key":"09181","name":"Landsberg am Lech","type":"Landkreis"},"federalState":{"key":"09","name":"Bayern"}},{"name":"Ignaz-Kögler-Str.","postalCode":"86899","locality":"Landsberg am Lech","municipality":{"key":"09181130","name":"Landsberg am Lech, GKSt","type":"Große_Kreisstadt"},"district":{"key":"09181","name":"Landsberg am Lech","type":"Landkreis"},"federalState":{"key":"09","name":"Bayern"}},{"name":"Immelmannstr.","postalCode":"86899","locality":"Landsberg am Lech","municipality":{"key":"09181130","name":"Landsberg am Lech, GKSt","type":"Große_Kreisstadt"},"district":{"key":"09181","name":"Landsberg am Lech","type":"Landkreis"},"federalState":{"key":"09","name":"Bayern"}},{"name":"Im Mittelstetter Feld","postalCode":"86899","locality":"Landsberg am Lech","municipality":{"key":"09181130","name":"Landsberg am Lech, GKSt","type":"Große_Kreisstadt"},"district":{"key":"09181","name":"Landsberg am Lech","type":"Landkreis"},"federalState":{"key":"09","name":"Bayern"}},{"name":"Irving-Heymont-Str.","postalCode":"86899","locality":"Landsberg am Lech","municipality":{"key":"09181130","name":"Landsberg am Lech, GKSt","type":"Große_Kreisstadt"},"district":{"key":"09181","name":"Landsberg am Lech","type":"Landkreis"},"federalState":{"key":"09","name":"Bayern"}},{"name":"Isidor-Hipper-Str.","postalCode":"86899","locality":"Landsberg am Lech","municipality":{"key":"09181130","name":"Landsberg am Lech, GKSt","type":"Große_Kreisstadt"},"district":{"key":"09181","name":"Landsberg am Lech","type":"Landkreis"},"federalState":{"key":"09","name":"Bayern"}},{"name":"Isotex-Str.","postalCode":"86899","locality":"Landsberg am Lech","municipality":{"key":"09181130","name":"Landsberg am Lech, GKSt","type":"Große_Kreisstadt"},"district":{"key":"09181","name":"Landsberg am Lech","type":"Landkreis"},"federalState":{"key":"09","name":"Bayern"}},{"name":"Israel-Beker-Str.","postalCode":"86899","locality":"Landsberg am Lech","municipality":{"key":"09181130","name":"Landsberg am Lech, GKSt","type":"Große_Kreisstadt"},"district":{"key":"09181","name":"Landsberg am Lech","type":"Landkreis"},"federalState":{"key":"09","name":"Bayern"}},{"name":"Jachenaustr.","postalCode":"86931","locality":"Prittriching","municipality":{"key":"09181134","name":"Prittriching","type":"Kreisangehörige_Gemeinde"},"district":{"key":"09181","name":"Landsberg am Lech","type":"Landkreis"},"federalState":{"key":"09","name":"Bayern"}},{"name":"Jäger-von-Fall-Weg","postalCode":"86931","locality":"Prittriching","municipality":{"key":"09181134","name":"Prittriching","type":"Kreisangehörige_Gemeinde"},"district":{"key":"09181","name":"Landsberg am Lech","type":"Landkreis"},"federalState":{"key":"09","name":"Bayern"}},{"name":"Jahnstr.","postalCode":"86931","locality":"Prittriching","municipality":{"key":"09181134","name":"Prittriching","type":"Kreisangehörige_Gemeinde"},"district":{"key":"09181","name":"Landsberg am Lech","type":"Landkreis"},"federalState":{"key":"09","name":"Bayern"}},{"name":"Johann-Dorn-Str.","postalCode":"86931","locality":"Prittriching","municipality":{"key":"09181134","name":"Prittriching","type":"Kreisangehörige_Gemeinde"},"district":{"key":"09181","name":"Landsberg am Lech","type":"Landkreis"},"federalState":{"key":"09","name":"Bayern"}},{"name":"Kapellenweg","postalCode":"86931","locality":"Prittriching","municipality":{"key":"09181134","name":"Prittriching","type":"Kreisangehörige_Gemeinde"},"district":{"key":"09181","name":"Landsberg am Lech","type":"Landkreis"},"federalState":{"key":"09","name":"Bayern"}},{"name":"Kirchbergstr.","postalCode":"86931","locality":"Prittriching","municipality":{"key":"09181134","name":"Prittriching","type":"Kreisangehörige_Gemeinde"},"district":{"key":"09181","name":"Landsberg am Lech","type":"Landkreis"},"federalState":{"key":"09","name":"Bayern"}},{"name":"Lechfeldstr.","postalCode":"86931","locality":"Prittriching","municipality":{"key":"09181134","name":"Prittriching","type":"Kreisangehörige_Gemeinde"},"district":{"key":"09181","name":"Landsberg am Lech","type":"Landkreis"},"federalState":{"key":"09","name":"Bayern"}},{"name":"Leitenbergstr.","postalCode":"86931","locality":"Prittriching","municipality":{"key":"09181134","name":"Prittriching","type":"Kreisangehörige_Gemeinde"},"district":{"key":"09181","name":"Landsberg am Lech","type":"Landkreis"},"federalState":{"key":"09","name":"Bayern"}},{"name":"Leitenweg","postalCode":"86931","locality":"Prittriching","municipality":{"key":"09181134","name":"Prittriching","type":"Kreisangehörige_Gemeinde"},"district":{"key":"09181","name":"Landsberg am Lech","type":"Landkreis"},"federalState":{"key":"09","name":"Bayern"}},{"name":"Lerchenweg","postalCode":"86931","locality":"Prittriching","municipality":{"key":"09181134","name":"Prittriching","type":"Kreisangehörige_Gemeinde"},"district":{"key":"09181","name":"Landsberg am Lech","type":"Landkreis"},"federalState":{"key":"09","name":"Bayern"}},{"name":"Lindenstr.","postalCode":"86931","locality":"Prittriching","municipality":{"key":"09181134","name":"Prittriching","type":"Kreisangehörige_Gemeinde"},"district":{"key":"09181","name":"Landsberg am Lech","type":"Landkreis"},"federalState":{"key":"09","name":"Bayern"}},{"name":"Max-Schreitmüller-Str.","postalCode":"86931","locality":"Prittriching","municipality":{"key":"09181134","name":"Prittriching","type":"Kreisangehörige_Gemeinde"},"district":{"key":"09181","name":"Landsberg am Lech","type":"Landkreis"},"federalState":{"key":"09","name":"Bayern"}},{"name":"Michael-Urlaub-Str.","postalCode":"86931","locality":"Prittriching","municipality":{"key":"09181134","name":"Prittriching","type":"Kreisangehörige_Gemeinde"},"district":{"key":"09181","name":"Landsberg am Lech","type":"Landkreis"},"federalState":{"key":"09","name":"Bayern"}},{"name":"Mozartstr.","postalCode":"86931","locality":"Prittriching","municipality":{"key":"09181134","name":"Prittriching","type":"Kreisangehörige_Gemeinde"},"district":{"key":"09181","name":"Landsberg am Lech","type":"Landkreis"},"federalState":{"key":"09","name":"Bayern"}},{"name":"Mühlanger","postalCode":"86931","locality":"Prittriching","municipality":{"key":"09181134","name":"Prittriching","type":"Kreisangehörige_Gemeinde"},"district":{"key":"09181","name":"Landsberg am Lech","type":"Landkreis"},"federalState":{"key":"09","name":"Bayern"}},{"name":"Nordring","postalCode":"86931","locality":"Prittriching","municipality":{"key":"09181134","name":"Prittriching","type":"Kreisangehörige_Gemeinde"},"district":{"key":"09181","name":"Landsberg am Lech","type":"Landkreis"},"federalState":{"key":"09","name":"Bayern"}},{"name":"Obere Au","postalCode":"86931","locality":"Prittriching","municipality":{"key":"09181134","name":"Prittriching","type":"Kreisangehörige_Gemeinde"},"district":{"key":"09181","name":"Landsberg am Lech","type":"Landkreis"},"federalState":{"key":"09","name":"Bayern"}},{"name":"Pappelstr.","postalCode":"86899","locality":"Landsberg am Lech","municipality":{"key":"09181130","name":"Landsberg am Lech, GKSt","type":"Große_Kreisstadt"},"district":{"key":"09181","name":"Landsberg am Lech","type":"Landkreis"},"federalState":{"key":"09","name":"Bayern"}},{"name":"Pater-Rupert-Mayer-Str.","postalCode":"86899","locality":"Landsberg am Lech","municipality":{"key":"09181130","name":"Landsberg am Lech, GKSt","type":"Große_Kreisstadt"},"district":{"key":"09181","name":"Landsberg am Lech","type":"Landkreis"},"federalState":{"key":"09","name":"Bayern"}},{"name":"Peter-Dörfler-Weg","postalCode":"86899","locality":"Landsberg am Lech","municipality":{"key":"09181130","name":"Landsberg am Lech, GKSt","type":"Große_Kreisstadt"},"district":{"key":"09181","name":"Landsberg am Lech","type":"Landkreis"},"federalState":{"key":"09","name":"Bayern"}},{"name":"Peter-Rosegger-Str.","postalCode":"86899","locality":"Landsberg am Lech","municipality":{"key":"09181130","name":"Landsberg am Lech, GKSt","type":"Große_Kreisstadt"},"district":{"key":"09181","name":"Landsberg am Lech","type":"Landkreis"},"federalState":{"key":"09","name":"Bayern"}},{"name":"Pfannenstieler Weg","postalCode":"86899","locality":"Landsberg am Lech","municipality":{"key":"09181130","name":"Landsberg am Lech, GKSt","type":"Große_Kreisstadt"},"district":{"key":"09181","name":"Landsberg am Lech","type":"Landkreis"},"federalState":{"key":"09","name":"Bayern"}},{"name":"Pfettenstr.","postalCode":"86899","locality":"Landsberg am Lech","municipality":{"key":"09181130","name":"Landsberg am Lech, GKSt","type":"Große_Kreisstadt"},"district":{"key":"09181","name":"Landsberg am Lech","type":"Landkreis"},"federalState":{"key":"09","name":"Bayern"}},{"name":"Platanenstr.","postalCode":"86899","locality":"Landsberg am Lech","municipality":{"key":"09181130","name":"Landsberg am Lech, GKSt","type":"Große_Kreisstadt"},"district":{"key":"09181","name":"Landsberg am Lech","type":"Landkreis"},"federalState":{"key":"09","name":"Bayern"}},{"name":"Pöringer Str.","postalCode":"86899","locality":"Landsberg am Lech","municipality":{"key":"09181130","name":"Landsberg am Lech, GKSt","type":"Große_Kreisstadt"},"district":{"key":"09181","name":"Landsberg am Lech","type":"Landkreis"},"federalState":{"key":"09","name":"Bayern"}},{"name":"Pössinger Str.","postalCode":"86899","locality":"Landsberg am Lech","municipality":{"key":"09181130","name":"Landsberg am Lech, GKSt","type":"Große_Kreisstadt"},"district":{"key":"09181","name":"Landsberg am Lech","type":"Landkreis"},"federalState":{"key":"09","name":"Bayern"}},{"name":"Pürgener Schleif-Weg","postalCode":"86899","locality":"Landsberg am Lech","municipality":{"key":"09181130","name":"Landsberg am Lech, GKSt","type":"Große_Kreisstadt"},"district":{"key":"09181","name":"Landsberg am Lech","type":"Landkreis"},"federalState":{"key":"09","name":"Bayern"}},{"name":"Ringstr.","postalCode":"86931","locality":"Prittriching","municipality":{"key":"09181134","name":"Prittriching","type":"Kreisangehörige_Gemeinde"},"district":{"key":"09181","name":"Landsberg am Lech","type":"Landkreis"},"federalState":{"key":"09","name":"Bayern"}},{"name":"Rosenstr.","postalCode":"86931","locality":"Prittriching","municipality":{"key":"09181134","name":"Prittriching","type":"Kreisangehörige_Gemeinde"},"district":{"key":"09181","name":"Landsberg am Lech","type":"Landkreis"},"federalState":{"key":"09","name":"Bayern"}},{"name":"Schmiedberg","postalCode":"86931","locality":"Prittriching","municipality":{"key":"09181134","name":"Prittriching","type":"Kreisangehörige_Gemeinde"},"district":{"key":"09181","name":"Landsberg am Lech","type":"Landkreis"},"federalState":{"key":"09","name":"Bayern"}},{"name":"Schulstr.","postalCode":"86931","locality":"Prittriching","municipality":{"key":"09181134","name":"Prittriching","type":"Kreisangehörige_Gemeinde"},"district":{"key":"09181","name":"Landsberg am Lech","type":"Landkreis"},"federalState":{"key":"09","name":"Bayern"}},{"name":"Sonnenstr.","postalCode":"86931","locality":"Prittriching","municipality":{"key":"09181134","name":"Prittriching","type":"Kreisangehörige_Gemeinde"},"district":{"key":"09181","name":"Landsberg am Lech","type":"Landkreis"},"federalState":{"key":"09","name":"Bayern"}},{"name":"St.-Jakob-Str.","postalCode":"86931","locality":"Prittriching","municipality":{"key":"09181134","name":"Prittriching","type":"Kreisangehörige_Gemeinde"},"district":{"key":"09181","name":"Landsberg am Lech","type":"Landkreis"},"federalState":{"key":"09","name":"Bayern"}},{"name":"St. Martinsweg","postalCode":"86931","locality":"Prittriching","municipality":{"key":"09181134","name":"Prittriching","type":"Kreisangehörige_Gemeinde"},"district":{"key":"09181","name":"Landsberg am Lech","type":"Landkreis"},"federalState":{"key":"09","name":"Bayern"}},{"name":"Südring","postalCode":"86931","locality":"Prittriching","municipality":{"key":"09181134","name":"Prittriching","type":"Kreisangehörige_Gemeinde"},"district":{"key":"09181","name":"Landsberg am Lech","type":"Landkreis"},"federalState":{"key":"09","name":"Bayern"}},{"name":"Tannheimer Weg","postalCode":"86899","locality":"Landsberg am Lech","municipality":{"key":"09181130","name":"Landsberg am Lech, GKSt","type":"Große_Kreisstadt"},"district":{"key":"09181","name":"Landsberg am Lech","type":"Landkreis"},"federalState":{"key":"09","name":"Bayern"}},{"name":"Tegelbergstr.","postalCode":"86899","locality":"Landsberg am Lech","municipality":{"key":"09181130","name":"Landsberg am Lech, GKSt","type":"Große_Kreisstadt"},"district":{"key":"09181","name":"Landsberg am Lech","type":"Landkreis"},"federalState":{"key":"09","name":"Bayern"}},{"name":"Thalerseestr.","postalCode":"86899","locality":"Landsberg am Lech","municipality":{"key":"09181130","name":"Landsberg am Lech, GKSt","type":"Große_Kreisstadt"},"district":{"key":"09181","name":"Landsberg am Lech","type":"Landkreis"},"federalState":{"key":"09","name":"Bayern"}},{"name":"Thalhofener Weg","postalCode":"86899","locality":"Landsberg am Lech","municipality":{"key":"09181130","name":"Landsberg am Lech, GKSt","type":"Große_Kreisstadt"},"district":{"key":"09181","name":"Landsberg am Lech","type":"Landkreis"},"federalState":{"key":"09","name":"Bayern"}},{"name":"Thalhofstr.","postalCode":"86899","locality":"Landsberg am Lech","municipality":{"key":"09181130","name":"Landsberg am Lech, GKSt","type":"Große_Kreisstadt"},"district":{"key":"09181","name":"Landsberg am Lech","type":"Landkreis"},"federalState":{"key":"09","name":"Bayern"}},{"name":"Tobias-Unfried-Str.","postalCode":"86899","locality":"Landsberg am Lech","municipality":{"key":"09181130","name":"Landsberg am Lech, GKSt","type":"Große_Kreisstadt"},"district":{"key":"09181","name":"Landsberg am Lech","type":"Landkreis"},"federalState":{"key":"09","name":"Bayern"}},{"name":"Trautweinstr.","postalCode":"86899","locality":"Landsberg am Lech","municipality":{"key":"09181130","name":"Landsberg am Lech, GKSt","type":"Große_Kreisstadt"},"district":{"key":"09181","name":"Landsberg am Lech","type":"Landkreis"},"federalState":{"key":"09","name":"Bayern"}},{"name":"Ulmenweg","postalCode":"86931","locality":"Prittriching","municipality":{"key":"09181134","name":"Prittriching","type":"Kreisangehörige_Gemeinde"},"district":{"key":"09181","name":"Landsberg am Lech","type":"Landkreis"},"federalState":{"key":"09","name":"Bayern"}},{"name":"Ulrichsweg","postalCode":"86931","locality":"Prittriching","municipality":{"key":"09181134","name":"Prittriching","type":"Kreisangehörige_Gemeinde"},"district":{"key":"09181","name":"Landsberg am Lech","type":"Landkreis"},"federalState":{"key":"09","name":"Bayern"}},{"name":"Verdistr.","postalCode":"86931","locality":"Prittriching","municipality":{"key":"09181134","name":"Prittriching","type":"Kreisangehörige_Gemeinde"},"district":{"key":"09181","name":"Landsberg am Lech","type":"Landkreis"},"federalState":{"key":"09","name":"Bayern"}},{"name":"Weidenstr.","postalCode":"86931","locality":"Prittriching","municipality":{"key":"09181134","name":"Prittriching","type":"Kreisangehörige_Gemeinde"},"district":{"key":"09181","name":"Landsberg am Lech","type":"Landkreis"},"federalState":{"key":"09","name":"Bayern"}},{"name":"Wendelinstr.","postalCode":"86931","locality":"Prittriching","municipality":{"key":"09181134","name":"Prittriching","type":"Kreisangehörige_Gemeinde"},"district":{"key":"09181","name":"Landsberg am Lech","type":"Landkreis"},"federalState":{"key":"09","name":"Bayern"}},{"name":"Westring","postalCode":"86931","locality":"Prittriching","municipality":{"key":"09181134","name":"Prittriching","type":"Kreisangehörige_Gemeinde"},"district":{"key":"09181","name":"Landsberg am Lech","type":"Landkreis"},"federalState":{"key":"09","name":"Bayern"}},{"name":"Ziegelbergstr.","postalCode":"86931","locality":"Prittriching","municipality":{"key":"09181134","name":"Prittriching","type":"Kreisangehörige_Gemeinde"},"district":{"key":"09181","name":"Landsberg am Lech","type":"Landkreis"},"federalState":{"key":"09","name":"Bayern"}},{"name":"Zur Ziegelbergstr.","postalCode":"86931","locality":"Prittriching","municipality":{"key":"09181134","name":"Prittriching","type":"Kreisangehörige_Gemeinde"},"district":{"key":"09181","name":"Landsberg am Lech","type":"Landkreis"},"federalState":{"key":"09","name":"Bayern"}},]