[{"name":"Ahornweg","postalCode":"66822","locality":"Lebach","municipality":{"key":"10044112","name":"Lebach, Stadt","type":"Stadt"},"district":{"key":"10044","name":"Saarlouis","type":"Landkreis"},"federalState":{"key":"10","name":"Saarland"}},{"name":"Alemaniastr.","postalCode":"66822","locality":"Lebach","municipality":{"key":"10044112","name":"Lebach, Stadt","type":"Stadt"},"district":{"key":"10044","name":"Saarlouis","type":"Landkreis"},"federalState":{"key":"10","name":"Saarland"}},{"name":"Am Bahnhof","postalCode":"66822","locality":"Lebach","municipality":{"key":"10044112","name":"Lebach, Stadt","type":"Stadt"},"district":{"key":"10044","name":"Saarlouis","type":"Landkreis"},"federalState":{"key":"10","name":"Saarland"}},{"name":"Am Bolzenberg","postalCode":"66822","locality":"Lebach","municipality":{"key":"10044112","name":"Lebach, Stadt","type":"Stadt"},"district":{"key":"10044","name":"Saarlouis","type":"Landkreis"},"federalState":{"key":"10","name":"Saarland"}},{"name":"Am Dörrenbach","postalCode":"66822","locality":"Lebach","municipality":{"key":"10044112","name":"Lebach, Stadt","type":"Stadt"},"district":{"key":"10044","name":"Saarlouis","type":"Landkreis"},"federalState":{"key":"10","name":"Saarland"}},{"name":"Am Ebert","postalCode":"66822","locality":"Lebach","municipality":{"key":"10044112","name":"Lebach, Stadt","type":"Stadt"},"district":{"key":"10044","name":"Saarlouis","type":"Landkreis"},"federalState":{"key":"10","name":"Saarland"}},{"name":"Am Hagelschlag","postalCode":"66822","locality":"Lebach","municipality":{"key":"10044112","name":"Lebach, Stadt","type":"Stadt"},"district":{"key":"10044","name":"Saarlouis","type":"Landkreis"},"federalState":{"key":"10","name":"Saarland"}},{"name":"Am Heischberg","postalCode":"66822","locality":"Lebach","municipality":{"key":"10044112","name":"Lebach, Stadt","type":"Stadt"},"district":{"key":"10044","name":"Saarlouis","type":"Landkreis"},"federalState":{"key":"10","name":"Saarland"}},{"name":"Am Hesselborn","postalCode":"66822","locality":"Lebach","municipality":{"key":"10044112","name":"Lebach, Stadt","type":"Stadt"},"district":{"key":"10044","name":"Saarlouis","type":"Landkreis"},"federalState":{"key":"10","name":"Saarland"}},{"name":"Am Hof","postalCode":"66822","locality":"Lebach","municipality":{"key":"10044112","name":"Lebach, Stadt","type":"Stadt"},"district":{"key":"10044","name":"Saarlouis","type":"Landkreis"},"federalState":{"key":"10","name":"Saarland"}},{"name":"Am Kühlen Brunnen","postalCode":"66822","locality":"Lebach","municipality":{"key":"10044112","name":"Lebach, Stadt","type":"Stadt"},"district":{"key":"10044","name":"Saarlouis","type":"Landkreis"},"federalState":{"key":"10","name":"Saarland"}},{"name":"Am Kump","postalCode":"66822","locality":"Lebach","municipality":{"key":"10044112","name":"Lebach, Stadt","type":"Stadt"},"district":{"key":"10044","name":"Saarlouis","type":"Landkreis"},"federalState":{"key":"10","name":"Saarland"}},{"name":"Am Markt","postalCode":"66822","locality":"Lebach","municipality":{"key":"10044112","name":"Lebach, Stadt","type":"Stadt"},"district":{"key":"10044","name":"Saarlouis","type":"Landkreis"},"federalState":{"key":"10","name":"Saarland"}},{"name":"Am Mühlenberg","postalCode":"66822","locality":"Lebach","municipality":{"key":"10044112","name":"Lebach, Stadt","type":"Stadt"},"district":{"key":"10044","name":"Saarlouis","type":"Landkreis"},"federalState":{"key":"10","name":"Saarland"}},{"name":"Am Mühlenborn","postalCode":"66822","locality":"Lebach","municipality":{"key":"10044112","name":"Lebach, Stadt","type":"Stadt"},"district":{"key":"10044","name":"Saarlouis","type":"Landkreis"},"federalState":{"key":"10","name":"Saarland"}},{"name":"Am Schindelfeld","postalCode":"66822","locality":"Lebach","municipality":{"key":"10044112","name":"Lebach, Stadt","type":"Stadt"},"district":{"key":"10044","name":"Saarlouis","type":"Landkreis"},"federalState":{"key":"10","name":"Saarland"}},{"name":"Am Schützenberg","postalCode":"66822","locality":"Lebach","municipality":{"key":"10044112","name":"Lebach, Stadt","type":"Stadt"},"district":{"key":"10044","name":"Saarlouis","type":"Landkreis"},"federalState":{"key":"10","name":"Saarland"}},{"name":"Amselhain","postalCode":"66822","locality":"Lebach","municipality":{"key":"10044112","name":"Lebach, Stadt","type":"Stadt"},"district":{"key":"10044","name":"Saarlouis","type":"Landkreis"},"federalState":{"key":"10","name":"Saarland"}},{"name":"Amselweg","postalCode":"66822","locality":"Lebach","municipality":{"key":"10044112","name":"Lebach, Stadt","type":"Stadt"},"district":{"key":"10044","name":"Saarlouis","type":"Landkreis"},"federalState":{"key":"10","name":"Saarland"}},{"name":"Am Sonnenhang","postalCode":"66822","locality":"Lebach","municipality":{"key":"10044112","name":"Lebach, Stadt","type":"Stadt"},"district":{"key":"10044","name":"Saarlouis","type":"Landkreis"},"federalState":{"key":"10","name":"Saarland"}},{"name":"Am Sportplatz","postalCode":"66822","locality":"Lebach","municipality":{"key":"10044112","name":"Lebach, Stadt","type":"Stadt"},"district":{"key":"10044","name":"Saarlouis","type":"Landkreis"},"federalState":{"key":"10","name":"Saarland"}},{"name":"Am Weißen Stock","postalCode":"66822","locality":"Lebach","municipality":{"key":"10044112","name":"Lebach, Stadt","type":"Stadt"},"district":{"key":"10044","name":"Saarlouis","type":"Landkreis"},"federalState":{"key":"10","name":"Saarland"}},{"name":"Am Witten","postalCode":"66822","locality":"Lebach","municipality":{"key":"10044112","name":"Lebach, Stadt","type":"Stadt"},"district":{"key":"10044","name":"Saarlouis","type":"Landkreis"},"federalState":{"key":"10","name":"Saarland"}},{"name":"Am Wünschberg","postalCode":"66822","locality":"Lebach","municipality":{"key":"10044112","name":"Lebach, Stadt","type":"Stadt"},"district":{"key":"10044","name":"Saarlouis","type":"Landkreis"},"federalState":{"key":"10","name":"Saarland"}},{"name":"An der Feuerwache","postalCode":"66822","locality":"Lebach","municipality":{"key":"10044112","name":"Lebach, Stadt","type":"Stadt"},"district":{"key":"10044","name":"Saarlouis","type":"Landkreis"},"federalState":{"key":"10","name":"Saarland"}},{"name":"An der Starz","postalCode":"66822","locality":"Lebach","municipality":{"key":"10044112","name":"Lebach, Stadt","type":"Stadt"},"district":{"key":"10044","name":"Saarlouis","type":"Landkreis"},"federalState":{"key":"10","name":"Saarland"}},{"name":"An der Steinstr.","postalCode":"66822","locality":"Lebach","municipality":{"key":"10044112","name":"Lebach, Stadt","type":"Stadt"},"district":{"key":"10044","name":"Saarlouis","type":"Landkreis"},"federalState":{"key":"10","name":"Saarland"}},{"name":"An der Südumgehung","postalCode":"66822","locality":"Lebach","municipality":{"key":"10044112","name":"Lebach, Stadt","type":"Stadt"},"district":{"key":"10044","name":"Saarlouis","type":"Landkreis"},"federalState":{"key":"10","name":"Saarland"}},{"name":"An der Ziegelhütte","postalCode":"66822","locality":"Lebach","municipality":{"key":"10044112","name":"Lebach, Stadt","type":"Stadt"},"district":{"key":"10044","name":"Saarlouis","type":"Landkreis"},"federalState":{"key":"10","name":"Saarland"}},{"name":"Anna-Simon-Weg","postalCode":"66822","locality":"Lebach","municipality":{"key":"10044112","name":"Lebach, Stadt","type":"Stadt"},"district":{"key":"10044","name":"Saarlouis","type":"Landkreis"},"federalState":{"key":"10","name":"Saarland"}},{"name":"Antoniusstr.","postalCode":"66822","locality":"Lebach","municipality":{"key":"10044112","name":"Lebach, Stadt","type":"Stadt"},"district":{"key":"10044","name":"Saarlouis","type":"Landkreis"},"federalState":{"key":"10","name":"Saarland"}},{"name":"Asiatischer Garten","postalCode":"66822","locality":"Lebach","municipality":{"key":"10044112","name":"Lebach, Stadt","type":"Stadt"},"district":{"key":"10044","name":"Saarlouis","type":"Landkreis"},"federalState":{"key":"10","name":"Saarland"}},{"name":"Auf Bammerst","postalCode":"66822","locality":"Lebach","municipality":{"key":"10044112","name":"Lebach, Stadt","type":"Stadt"},"district":{"key":"10044","name":"Saarlouis","type":"Landkreis"},"federalState":{"key":"10","name":"Saarland"}},{"name":"Auf dem Graben","postalCode":"66822","locality":"Lebach","municipality":{"key":"10044112","name":"Lebach, Stadt","type":"Stadt"},"district":{"key":"10044","name":"Saarlouis","type":"Landkreis"},"federalState":{"key":"10","name":"Saarland"}},{"name":"Auf dem Stein","postalCode":"66822","locality":"Lebach","municipality":{"key":"10044112","name":"Lebach, Stadt","type":"Stadt"},"district":{"key":"10044","name":"Saarlouis","type":"Landkreis"},"federalState":{"key":"10","name":"Saarland"}},{"name":"Auf dem Wasen","postalCode":"66822","locality":"Lebach","municipality":{"key":"10044112","name":"Lebach, Stadt","type":"Stadt"},"district":{"key":"10044","name":"Saarlouis","type":"Landkreis"},"federalState":{"key":"10","name":"Saarland"}},{"name":"Auf der Acht","postalCode":"66822","locality":"Lebach","municipality":{"key":"10044112","name":"Lebach, Stadt","type":"Stadt"},"district":{"key":"10044","name":"Saarlouis","type":"Landkreis"},"federalState":{"key":"10","name":"Saarland"}},{"name":"Auf der Kupp","postalCode":"66822","locality":"Lebach","municipality":{"key":"10044112","name":"Lebach, Stadt","type":"Stadt"},"district":{"key":"10044","name":"Saarlouis","type":"Landkreis"},"federalState":{"key":"10","name":"Saarland"}},{"name":"Auf der Röth","postalCode":"66822","locality":"Lebach","municipality":{"key":"10044112","name":"Lebach, Stadt","type":"Stadt"},"district":{"key":"10044","name":"Saarlouis","type":"Landkreis"},"federalState":{"key":"10","name":"Saarland"}},{"name":"Auf der Schled","postalCode":"66822","locality":"Lebach","municipality":{"key":"10044112","name":"Lebach, Stadt","type":"Stadt"},"district":{"key":"10044","name":"Saarlouis","type":"Landkreis"},"federalState":{"key":"10","name":"Saarland"}},{"name":"Auf der Sieber","postalCode":"66822","locality":"Lebach","municipality":{"key":"10044112","name":"Lebach, Stadt","type":"Stadt"},"district":{"key":"10044","name":"Saarlouis","type":"Landkreis"},"federalState":{"key":"10","name":"Saarland"}},{"name":"Auf Dragoner","postalCode":"66822","locality":"Lebach","municipality":{"key":"10044112","name":"Lebach, Stadt","type":"Stadt"},"district":{"key":"10044","name":"Saarlouis","type":"Landkreis"},"federalState":{"key":"10","name":"Saarland"}},{"name":"Auf Häpelt","postalCode":"66822","locality":"Lebach","municipality":{"key":"10044112","name":"Lebach, Stadt","type":"Stadt"},"district":{"key":"10044","name":"Saarlouis","type":"Landkreis"},"federalState":{"key":"10","name":"Saarland"}},{"name":"Auf Merscheid","postalCode":"66822","locality":"Lebach","municipality":{"key":"10044112","name":"Lebach, Stadt","type":"Stadt"},"district":{"key":"10044","name":"Saarlouis","type":"Landkreis"},"federalState":{"key":"10","name":"Saarland"}},{"name":"Auf Mess","postalCode":"66822","locality":"Lebach","municipality":{"key":"10044112","name":"Lebach, Stadt","type":"Stadt"},"district":{"key":"10044","name":"Saarlouis","type":"Landkreis"},"federalState":{"key":"10","name":"Saarland"}},{"name":"Auf Scheiblingen","postalCode":"66822","locality":"Lebach","municipality":{"key":"10044112","name":"Lebach, Stadt","type":"Stadt"},"district":{"key":"10044","name":"Saarlouis","type":"Landkreis"},"federalState":{"key":"10","name":"Saarland"}},{"name":"Bachstr.","postalCode":"66822","locality":"Lebach","municipality":{"key":"10044112","name":"Lebach, Stadt","type":"Stadt"},"district":{"key":"10044","name":"Saarlouis","type":"Landkreis"},"federalState":{"key":"10","name":"Saarland"}},{"name":"Beethovenstr.","postalCode":"66822","locality":"Lebach","municipality":{"key":"10044112","name":"Lebach, Stadt","type":"Stadt"},"district":{"key":"10044","name":"Saarlouis","type":"Landkreis"},"federalState":{"key":"10","name":"Saarland"}},{"name":"Bergstr.","postalCode":"66822","locality":"Lebach","municipality":{"key":"10044112","name":"Lebach, Stadt","type":"Stadt"},"district":{"key":"10044","name":"Saarlouis","type":"Landkreis"},"federalState":{"key":"10","name":"Saarland"}},{"name":"Bergwiesstr.","postalCode":"66822","locality":"Lebach","municipality":{"key":"10044112","name":"Lebach, Stadt","type":"Stadt"},"district":{"key":"10044","name":"Saarlouis","type":"Landkreis"},"federalState":{"key":"10","name":"Saarland"}},{"name":"Birkenhof","postalCode":"66822","locality":"Lebach","municipality":{"key":"10044112","name":"Lebach, Stadt","type":"Stadt"},"district":{"key":"10044","name":"Saarlouis","type":"Landkreis"},"federalState":{"key":"10","name":"Saarland"}},{"name":"Birkenweg","postalCode":"66822","locality":"Lebach","municipality":{"key":"10044112","name":"Lebach, Stadt","type":"Stadt"},"district":{"key":"10044","name":"Saarlouis","type":"Landkreis"},"federalState":{"key":"10","name":"Saarland"}},{"name":"Blumenstr.","postalCode":"66822","locality":"Lebach","municipality":{"key":"10044112","name":"Lebach, Stadt","type":"Stadt"},"district":{"key":"10044","name":"Saarlouis","type":"Landkreis"},"federalState":{"key":"10","name":"Saarland"}},{"name":"Brucknerstr.","postalCode":"66822","locality":"Lebach","municipality":{"key":"10044112","name":"Lebach, Stadt","type":"Stadt"},"district":{"key":"10044","name":"Saarlouis","type":"Landkreis"},"federalState":{"key":"10","name":"Saarland"}},{"name":"Brühlstr.","postalCode":"66822","locality":"Lebach","municipality":{"key":"10044112","name":"Lebach, Stadt","type":"Stadt"},"district":{"key":"10044","name":"Saarlouis","type":"Landkreis"},"federalState":{"key":"10","name":"Saarland"}},{"name":"Brümburgstr.","postalCode":"66822","locality":"Lebach","municipality":{"key":"10044112","name":"Lebach, Stadt","type":"Stadt"},"district":{"key":"10044","name":"Saarlouis","type":"Landkreis"},"federalState":{"key":"10","name":"Saarland"}},{"name":"Brunnenstr.","postalCode":"66822","locality":"Lebach","municipality":{"key":"10044112","name":"Lebach, Stadt","type":"Stadt"},"district":{"key":"10044","name":"Saarlouis","type":"Landkreis"},"federalState":{"key":"10","name":"Saarland"}},{"name":"Buchenweg","postalCode":"66822","locality":"Lebach","municipality":{"key":"10044112","name":"Lebach, Stadt","type":"Stadt"},"district":{"key":"10044","name":"Saarlouis","type":"Landkreis"},"federalState":{"key":"10","name":"Saarland"}},{"name":"Cäcilienweg","postalCode":"66822","locality":"Lebach","municipality":{"key":"10044112","name":"Lebach, Stadt","type":"Stadt"},"district":{"key":"10044","name":"Saarlouis","type":"Landkreis"},"federalState":{"key":"10","name":"Saarland"}},{"name":"Dillinger Str.","postalCode":"66822","locality":"Lebach","municipality":{"key":"10044112","name":"Lebach, Stadt","type":"Stadt"},"district":{"key":"10044","name":"Saarlouis","type":"Landkreis"},"federalState":{"key":"10","name":"Saarland"}},{"name":"Dirminger Str.","postalCode":"66822","locality":"Lebach","municipality":{"key":"10044112","name":"Lebach, Stadt","type":"Stadt"},"district":{"key":"10044","name":"Saarlouis","type":"Landkreis"},"federalState":{"key":"10","name":"Saarland"}},{"name":"Doktor-Spang-Str.","postalCode":"66822","locality":"Lebach","municipality":{"key":"10044112","name":"Lebach, Stadt","type":"Stadt"},"district":{"key":"10044","name":"Saarlouis","type":"Landkreis"},"federalState":{"key":"10","name":"Saarland"}},{"name":"Donatusstr.","postalCode":"66822","locality":"Lebach","municipality":{"key":"10044112","name":"Lebach, Stadt","type":"Stadt"},"district":{"key":"10044","name":"Saarlouis","type":"Landkreis"},"federalState":{"key":"10","name":"Saarland"}},{"name":"Don-Bosco-Str.","postalCode":"66822","locality":"Lebach","municipality":{"key":"10044112","name":"Lebach, Stadt","type":"Stadt"},"district":{"key":"10044","name":"Saarlouis","type":"Landkreis"},"federalState":{"key":"10","name":"Saarland"}},{"name":"Dorfstr.","postalCode":"66822","locality":"Lebach","municipality":{"key":"10044112","name":"Lebach, Stadt","type":"Stadt"},"district":{"key":"10044","name":"Saarlouis","type":"Landkreis"},"federalState":{"key":"10","name":"Saarland"}},{"name":"Dornheckstr.","postalCode":"66822","locality":"Lebach","municipality":{"key":"10044112","name":"Lebach, Stadt","type":"Stadt"},"district":{"key":"10044","name":"Saarlouis","type":"Landkreis"},"federalState":{"key":"10","name":"Saarland"}},{"name":"Dörrenbachstr.","postalCode":"66822","locality":"Lebach","municipality":{"key":"10044112","name":"Lebach, Stadt","type":"Stadt"},"district":{"key":"10044","name":"Saarlouis","type":"Landkreis"},"federalState":{"key":"10","name":"Saarland"}},{"name":"Drosselweg","postalCode":"66822","locality":"Lebach","municipality":{"key":"10044112","name":"Lebach, Stadt","type":"Stadt"},"district":{"key":"10044","name":"Saarlouis","type":"Landkreis"},"federalState":{"key":"10","name":"Saarland"}},{"name":"Eckenstr.","postalCode":"66822","locality":"Lebach","municipality":{"key":"10044112","name":"Lebach, Stadt","type":"Stadt"},"district":{"key":"10044","name":"Saarlouis","type":"Landkreis"},"federalState":{"key":"10","name":"Saarland"}},{"name":"Edelstr.","postalCode":"66822","locality":"Lebach","municipality":{"key":"10044112","name":"Lebach, Stadt","type":"Stadt"},"district":{"key":"10044","name":"Saarlouis","type":"Landkreis"},"federalState":{"key":"10","name":"Saarland"}},{"name":"Eichengartenstr.","postalCode":"66822","locality":"Lebach","municipality":{"key":"10044112","name":"Lebach, Stadt","type":"Stadt"},"district":{"key":"10044","name":"Saarlouis","type":"Landkreis"},"federalState":{"key":"10","name":"Saarland"}},{"name":"Eidenborner Str.","postalCode":"66822","locality":"Lebach","municipality":{"key":"10044112","name":"Lebach, Stadt","type":"Stadt"},"district":{"key":"10044","name":"Saarlouis","type":"Landkreis"},"federalState":{"key":"10","name":"Saarland"}},{"name":"Eisenbahnstr.","postalCode":"66822","locality":"Lebach","municipality":{"key":"10044112","name":"Lebach, Stadt","type":"Stadt"},"district":{"key":"10044","name":"Saarlouis","type":"Landkreis"},"federalState":{"key":"10","name":"Saarland"}},{"name":"Emma-Stern-Weg","postalCode":"66822","locality":"Lebach","municipality":{"key":"10044112","name":"Lebach, Stadt","type":"Stadt"},"district":{"key":"10044","name":"Saarlouis","type":"Landkreis"},"federalState":{"key":"10","name":"Saarland"}},{"name":"Exerzierplatz","postalCode":"66822","locality":"Lebach","municipality":{"key":"10044112","name":"Lebach, Stadt","type":"Stadt"},"district":{"key":"10044","name":"Saarlouis","type":"Landkreis"},"federalState":{"key":"10","name":"Saarland"}},{"name":"Falscheider Str.","postalCode":"66822","locality":"Lebach","municipality":{"key":"10044112","name":"Lebach, Stadt","type":"Stadt"},"district":{"key":"10044","name":"Saarlouis","type":"Landkreis"},"federalState":{"key":"10","name":"Saarland"}},{"name":"Falscheider Weg","postalCode":"66822","locality":"Lebach","municipality":{"key":"10044112","name":"Lebach, Stadt","type":"Stadt"},"district":{"key":"10044","name":"Saarlouis","type":"Landkreis"},"federalState":{"key":"10","name":"Saarland"}},{"name":"Fasanenweg","postalCode":"66822","locality":"Lebach","municipality":{"key":"10044112","name":"Lebach, Stadt","type":"Stadt"},"district":{"key":"10044","name":"Saarlouis","type":"Landkreis"},"federalState":{"key":"10","name":"Saarland"}},{"name":"Feldstr.","postalCode":"66822","locality":"Lebach","municipality":{"key":"10044112","name":"Lebach, Stadt","type":"Stadt"},"district":{"key":"10044","name":"Saarlouis","type":"Landkreis"},"federalState":{"key":"10","name":"Saarland"}},{"name":"Fichtenweg","postalCode":"66822","locality":"Lebach","municipality":{"key":"10044112","name":"Lebach, Stadt","type":"Stadt"},"district":{"key":"10044","name":"Saarlouis","type":"Landkreis"},"federalState":{"key":"10","name":"Saarland"}},{"name":"Finkenweg","postalCode":"66822","locality":"Lebach","municipality":{"key":"10044112","name":"Lebach, Stadt","type":"Stadt"},"district":{"key":"10044","name":"Saarlouis","type":"Landkreis"},"federalState":{"key":"10","name":"Saarland"}},{"name":"Flurstr.","postalCode":"66822","locality":"Lebach","municipality":{"key":"10044112","name":"Lebach, Stadt","type":"Stadt"},"district":{"key":"10044","name":"Saarlouis","type":"Landkreis"},"federalState":{"key":"10","name":"Saarland"}},{"name":"Försterstr.","postalCode":"66822","locality":"Lebach","municipality":{"key":"10044112","name":"Lebach, Stadt","type":"Stadt"},"district":{"key":"10044","name":"Saarlouis","type":"Landkreis"},"federalState":{"key":"10","name":"Saarland"}},{"name":"Forststr.","postalCode":"66822","locality":"Lebach","municipality":{"key":"10044112","name":"Lebach, Stadt","type":"Stadt"},"district":{"key":"10044","name":"Saarlouis","type":"Landkreis"},"federalState":{"key":"10","name":"Saarland"}},{"name":"Franz-Liszt-Str.","postalCode":"66822","locality":"Lebach","municipality":{"key":"10044112","name":"Lebach, Stadt","type":"Stadt"},"district":{"key":"10044","name":"Saarlouis","type":"Landkreis"},"federalState":{"key":"10","name":"Saarland"}},{"name":"Friedensstr.","postalCode":"66822","locality":"Lebach","municipality":{"key":"10044112","name":"Lebach, Stadt","type":"Stadt"},"district":{"key":"10044","name":"Saarlouis","type":"Landkreis"},"federalState":{"key":"10","name":"Saarland"}},{"name":"Friedhofstr.","postalCode":"66822","locality":"Lebach","municipality":{"key":"10044112","name":"Lebach, Stadt","type":"Stadt"},"district":{"key":"10044","name":"Saarlouis","type":"Landkreis"},"federalState":{"key":"10","name":"Saarland"}},{"name":"Galgenheck","postalCode":"66822","locality":"Lebach","municipality":{"key":"10044112","name":"Lebach, Stadt","type":"Stadt"},"district":{"key":"10044","name":"Saarlouis","type":"Landkreis"},"federalState":{"key":"10","name":"Saarland"}},{"name":"Gartenstr.","postalCode":"66822","locality":"Lebach","municipality":{"key":"10044112","name":"Lebach, Stadt","type":"Stadt"},"district":{"key":"10044","name":"Saarlouis","type":"Landkreis"},"federalState":{"key":"10","name":"Saarland"}},{"name":"Geranienweg","postalCode":"66822","locality":"Lebach","municipality":{"key":"10044112","name":"Lebach, Stadt","type":"Stadt"},"district":{"key":"10044","name":"Saarlouis","type":"Landkreis"},"federalState":{"key":"10","name":"Saarland"}},{"name":"Geräuschmeßstrecke Fa. Bastuck","postalCode":"66822","locality":"Lebach","municipality":{"key":"10044112","name":"Lebach, Stadt","type":"Stadt"},"district":{"key":"10044","name":"Saarlouis","type":"Landkreis"},"federalState":{"key":"10","name":"Saarland"}},{"name":"Gerstenfeld","postalCode":"66822","locality":"Lebach","municipality":{"key":"10044112","name":"Lebach, Stadt","type":"Stadt"},"district":{"key":"10044","name":"Saarlouis","type":"Landkreis"},"federalState":{"key":"10","name":"Saarland"}},{"name":"Golocher Weg","postalCode":"66822","locality":"Lebach","municipality":{"key":"10044112","name":"Lebach, Stadt","type":"Stadt"},"district":{"key":"10044","name":"Saarlouis","type":"Landkreis"},"federalState":{"key":"10","name":"Saarland"}},{"name":"Greinhofer Str.","postalCode":"66822","locality":"Lebach","municipality":{"key":"10044112","name":"Lebach, Stadt","type":"Stadt"},"district":{"key":"10044","name":"Saarlouis","type":"Landkreis"},"federalState":{"key":"10","name":"Saarland"}},{"name":"Gresaubacher Str.","postalCode":"66822","locality":"Lebach","municipality":{"key":"10044112","name":"Lebach, Stadt","type":"Stadt"},"district":{"key":"10044","name":"Saarlouis","type":"Landkreis"},"federalState":{"key":"10","name":"Saarland"}},{"name":"Habacher Str.","postalCode":"66822","locality":"Lebach","municipality":{"key":"10044112","name":"Lebach, Stadt","type":"Stadt"},"district":{"key":"10044","name":"Saarlouis","type":"Landkreis"},"federalState":{"key":"10","name":"Saarland"}},{"name":"Hahn","postalCode":"66822","locality":"Lebach","municipality":{"key":"10044112","name":"Lebach, Stadt","type":"Stadt"},"district":{"key":"10044","name":"Saarlouis","type":"Landkreis"},"federalState":{"key":"10","name":"Saarland"}},{"name":"Hangstr.","postalCode":"66822","locality":"Lebach","municipality":{"key":"10044112","name":"Lebach, Stadt","type":"Stadt"},"district":{"key":"10044","name":"Saarlouis","type":"Landkreis"},"federalState":{"key":"10","name":"Saarland"}},{"name":"Hans-Schardt-Str.","postalCode":"66822","locality":"Lebach","municipality":{"key":"10044112","name":"Lebach, Stadt","type":"Stadt"},"district":{"key":"10044","name":"Saarlouis","type":"Landkreis"},"federalState":{"key":"10","name":"Saarland"}},{"name":"Hasborner Str.","postalCode":"66822","locality":"Lebach","municipality":{"key":"10044112","name":"Lebach, Stadt","type":"Stadt"},"district":{"key":"10044","name":"Saarlouis","type":"Landkreis"},"federalState":{"key":"10","name":"Saarland"}},{"name":"Hasenbergstr.","postalCode":"66822","locality":"Lebach","municipality":{"key":"10044112","name":"Lebach, Stadt","type":"Stadt"},"district":{"key":"10044","name":"Saarlouis","type":"Landkreis"},"federalState":{"key":"10","name":"Saarland"}},{"name":"Hauptstr.","postalCode":"66822","locality":"Lebach","municipality":{"key":"10044112","name":"Lebach, Stadt","type":"Stadt"},"district":{"key":"10044","name":"Saarlouis","type":"Landkreis"},"federalState":{"key":"10","name":"Saarland"}},{"name":"Haydnstr.","postalCode":"66822","locality":"Lebach","municipality":{"key":"10044112","name":"Lebach, Stadt","type":"Stadt"},"district":{"key":"10044","name":"Saarlouis","type":"Landkreis"},"federalState":{"key":"10","name":"Saarland"}},{"name":"Heeresstr.","postalCode":"66822","locality":"Lebach","municipality":{"key":"10044112","name":"Lebach, Stadt","type":"Stadt"},"district":{"key":"10044","name":"Saarlouis","type":"Landkreis"},"federalState":{"key":"10","name":"Saarland"}},{"name":"Heidenkopfstr.","postalCode":"66822","locality":"Lebach","municipality":{"key":"10044112","name":"Lebach, Stadt","type":"Stadt"},"district":{"key":"10044","name":"Saarlouis","type":"Landkreis"},"federalState":{"key":"10","name":"Saarland"}},{"name":"Hermann-Löns-Str.","postalCode":"66822","locality":"Lebach","municipality":{"key":"10044112","name":"Lebach, Stadt","type":"Stadt"},"district":{"key":"10044","name":"Saarlouis","type":"Landkreis"},"federalState":{"key":"10","name":"Saarland"}},{"name":"Hermannstr.","postalCode":"66822","locality":"Lebach","municipality":{"key":"10044112","name":"Lebach, Stadt","type":"Stadt"},"district":{"key":"10044","name":"Saarlouis","type":"Landkreis"},"federalState":{"key":"10","name":"Saarland"}},{"name":"Heusweiler Str.","postalCode":"66822","locality":"Lebach","municipality":{"key":"10044112","name":"Lebach, Stadt","type":"Stadt"},"district":{"key":"10044","name":"Saarlouis","type":"Landkreis"},"federalState":{"key":"10","name":"Saarland"}},{"name":"Hirschsprung","postalCode":"66822","locality":"Lebach","municipality":{"key":"10044112","name":"Lebach, Stadt","type":"Stadt"},"district":{"key":"10044","name":"Saarlouis","type":"Landkreis"},"federalState":{"key":"10","name":"Saarland"}},{"name":"Hirtenberg","postalCode":"66822","locality":"Lebach","municipality":{"key":"10044112","name":"Lebach, Stadt","type":"Stadt"},"district":{"key":"10044","name":"Saarlouis","type":"Landkreis"},"federalState":{"key":"10","name":"Saarland"}},{"name":"Hobachstr.","postalCode":"66822","locality":"Lebach","municipality":{"key":"10044112","name":"Lebach, Stadt","type":"Stadt"},"district":{"key":"10044","name":"Saarlouis","type":"Landkreis"},"federalState":{"key":"10","name":"Saarland"}},{"name":"Höchstener Str.","postalCode":"66822","locality":"Lebach","municipality":{"key":"10044112","name":"Lebach, Stadt","type":"Stadt"},"district":{"key":"10044","name":"Saarlouis","type":"Landkreis"},"federalState":{"key":"10","name":"Saarland"}},{"name":"Hoffmannstr.","postalCode":"66822","locality":"Lebach","municipality":{"key":"10044112","name":"Lebach, Stadt","type":"Stadt"},"district":{"key":"10044","name":"Saarlouis","type":"Landkreis"},"federalState":{"key":"10","name":"Saarland"}},{"name":"Hoflandring","postalCode":"66822","locality":"Lebach","municipality":{"key":"10044112","name":"Lebach, Stadt","type":"Stadt"},"district":{"key":"10044","name":"Saarlouis","type":"Landkreis"},"federalState":{"key":"10","name":"Saarland"}},{"name":"Hofstr.","postalCode":"66822","locality":"Lebach","municipality":{"key":"10044112","name":"Lebach, Stadt","type":"Stadt"},"district":{"key":"10044","name":"Saarlouis","type":"Landkreis"},"federalState":{"key":"10","name":"Saarland"}},{"name":"Höhenstr.","postalCode":"66822","locality":"Lebach","municipality":{"key":"10044112","name":"Lebach, Stadt","type":"Stadt"},"district":{"key":"10044","name":"Saarlouis","type":"Landkreis"},"federalState":{"key":"10","name":"Saarland"}},{"name":"Hohe Str.","postalCode":"66822","locality":"Lebach","municipality":{"key":"10044112","name":"Lebach, Stadt","type":"Stadt"},"district":{"key":"10044","name":"Saarlouis","type":"Landkreis"},"federalState":{"key":"10","name":"Saarland"}},{"name":"Hohlstr.","postalCode":"66822","locality":"Lebach","municipality":{"key":"10044112","name":"Lebach, Stadt","type":"Stadt"},"district":{"key":"10044","name":"Saarlouis","type":"Landkreis"},"federalState":{"key":"10","name":"Saarland"}},{"name":"Homesmühle","postalCode":"66822","locality":"Lebach","municipality":{"key":"10044112","name":"Lebach, Stadt","type":"Stadt"},"district":{"key":"10044","name":"Saarlouis","type":"Landkreis"},"federalState":{"key":"10","name":"Saarland"}},{"name":"Hoxbergstr.","postalCode":"66822","locality":"Lebach","municipality":{"key":"10044112","name":"Lebach, Stadt","type":"Stadt"},"district":{"key":"10044","name":"Saarlouis","type":"Landkreis"},"federalState":{"key":"10","name":"Saarland"}},{"name":"Hubertusstr.","postalCode":"66822","locality":"Lebach","municipality":{"key":"10044112","name":"Lebach, Stadt","type":"Stadt"},"district":{"key":"10044","name":"Saarlouis","type":"Landkreis"},"federalState":{"key":"10","name":"Saarland"}},{"name":"Hügelstr.","postalCode":"66822","locality":"Lebach","municipality":{"key":"10044112","name":"Lebach, Stadt","type":"Stadt"},"district":{"key":"10044","name":"Saarlouis","type":"Landkreis"},"federalState":{"key":"10","name":"Saarland"}},{"name":"Im Breitenfeld","postalCode":"66822","locality":"Lebach","municipality":{"key":"10044112","name":"Lebach, Stadt","type":"Stadt"},"district":{"key":"10044","name":"Saarlouis","type":"Landkreis"},"federalState":{"key":"10","name":"Saarland"}},{"name":"Im Eichgarten","postalCode":"66822","locality":"Lebach","municipality":{"key":"10044112","name":"Lebach, Stadt","type":"Stadt"},"district":{"key":"10044","name":"Saarlouis","type":"Landkreis"},"federalState":{"key":"10","name":"Saarland"}},{"name":"Im Forstgarten","postalCode":"66822","locality":"Lebach","municipality":{"key":"10044112","name":"Lebach, Stadt","type":"Stadt"},"district":{"key":"10044","name":"Saarlouis","type":"Landkreis"},"federalState":{"key":"10","name":"Saarland"}},{"name":"Im Hanfgarten","postalCode":"66822","locality":"Lebach","municipality":{"key":"10044112","name":"Lebach, Stadt","type":"Stadt"},"district":{"key":"10044","name":"Saarlouis","type":"Landkreis"},"federalState":{"key":"10","name":"Saarland"}},{"name":"Im Kaumet","postalCode":"66822","locality":"Lebach","municipality":{"key":"10044112","name":"Lebach, Stadt","type":"Stadt"},"district":{"key":"10044","name":"Saarlouis","type":"Landkreis"},"federalState":{"key":"10","name":"Saarland"}},{"name":"Im Kleegarten","postalCode":"66822","locality":"Lebach","municipality":{"key":"10044112","name":"Lebach, Stadt","type":"Stadt"},"district":{"key":"10044","name":"Saarlouis","type":"Landkreis"},"federalState":{"key":"10","name":"Saarland"}},{"name":"Im Rötelsbach","postalCode":"66822","locality":"Lebach","municipality":{"key":"10044112","name":"Lebach, Stadt","type":"Stadt"},"district":{"key":"10044","name":"Saarlouis","type":"Landkreis"},"federalState":{"key":"10","name":"Saarland"}},{"name":"Im Theelgrund","postalCode":"66822","locality":"Lebach","municipality":{"key":"10044112","name":"Lebach, Stadt","type":"Stadt"},"district":{"key":"10044","name":"Saarlouis","type":"Landkreis"},"federalState":{"key":"10","name":"Saarland"}},{"name":"Im Vogelsang","postalCode":"66822","locality":"Lebach","municipality":{"key":"10044112","name":"Lebach, Stadt","type":"Stadt"},"district":{"key":"10044","name":"Saarlouis","type":"Landkreis"},"federalState":{"key":"10","name":"Saarland"}},{"name":"Im Wäldchen","postalCode":"66822","locality":"Lebach","municipality":{"key":"10044112","name":"Lebach, Stadt","type":"Stadt"},"district":{"key":"10044","name":"Saarlouis","type":"Landkreis"},"federalState":{"key":"10","name":"Saarland"}},{"name":"Im Waldwinkel","postalCode":"66822","locality":"Lebach","municipality":{"key":"10044112","name":"Lebach, Stadt","type":"Stadt"},"district":{"key":"10044","name":"Saarlouis","type":"Landkreis"},"federalState":{"key":"10","name":"Saarland"}},{"name":"Im Weiherchen","postalCode":"66822","locality":"Lebach","municipality":{"key":"10044112","name":"Lebach, Stadt","type":"Stadt"},"district":{"key":"10044","name":"Saarlouis","type":"Landkreis"},"federalState":{"key":"10","name":"Saarland"}},{"name":"In Bommersfeld","postalCode":"66822","locality":"Lebach","municipality":{"key":"10044112","name":"Lebach, Stadt","type":"Stadt"},"district":{"key":"10044","name":"Saarlouis","type":"Landkreis"},"federalState":{"key":"10","name":"Saarland"}},{"name":"In den Wacken","postalCode":"66822","locality":"Lebach","municipality":{"key":"10044112","name":"Lebach, Stadt","type":"Stadt"},"district":{"key":"10044","name":"Saarlouis","type":"Landkreis"},"federalState":{"key":"10","name":"Saarland"}},{"name":"In der Au","postalCode":"66822","locality":"Lebach","municipality":{"key":"10044112","name":"Lebach, Stadt","type":"Stadt"},"district":{"key":"10044","name":"Saarlouis","type":"Landkreis"},"federalState":{"key":"10","name":"Saarland"}},{"name":"In der Bachwiese","postalCode":"66822","locality":"Lebach","municipality":{"key":"10044112","name":"Lebach, Stadt","type":"Stadt"},"district":{"key":"10044","name":"Saarlouis","type":"Landkreis"},"federalState":{"key":"10","name":"Saarland"}},{"name":"In der Hauschied","postalCode":"66822","locality":"Lebach","municipality":{"key":"10044112","name":"Lebach, Stadt","type":"Stadt"},"district":{"key":"10044","name":"Saarlouis","type":"Landkreis"},"federalState":{"key":"10","name":"Saarland"}},{"name":"In der Hold","postalCode":"66822","locality":"Lebach","municipality":{"key":"10044112","name":"Lebach, Stadt","type":"Stadt"},"district":{"key":"10044","name":"Saarlouis","type":"Landkreis"},"federalState":{"key":"10","name":"Saarland"}},{"name":"In der Pinselbach","postalCode":"66822","locality":"Lebach","municipality":{"key":"10044112","name":"Lebach, Stadt","type":"Stadt"},"district":{"key":"10044","name":"Saarlouis","type":"Landkreis"},"federalState":{"key":"10","name":"Saarland"}},{"name":"In der Sandkaul","postalCode":"66822","locality":"Lebach","municipality":{"key":"10044112","name":"Lebach, Stadt","type":"Stadt"},"district":{"key":"10044","name":"Saarlouis","type":"Landkreis"},"federalState":{"key":"10","name":"Saarland"}},{"name":"In der Weiherdell","postalCode":"66822","locality":"Lebach","municipality":{"key":"10044112","name":"Lebach, Stadt","type":"Stadt"},"district":{"key":"10044","name":"Saarlouis","type":"Landkreis"},"federalState":{"key":"10","name":"Saarland"}},{"name":"Itzbachstr.","postalCode":"66822","locality":"Lebach","municipality":{"key":"10044112","name":"Lebach, Stadt","type":"Stadt"},"district":{"key":"10044","name":"Saarlouis","type":"Landkreis"},"federalState":{"key":"10","name":"Saarland"}},{"name":"Jabacher Str.","postalCode":"66822","locality":"Lebach","municipality":{"key":"10044112","name":"Lebach, Stadt","type":"Stadt"},"district":{"key":"10044","name":"Saarlouis","type":"Landkreis"},"federalState":{"key":"10","name":"Saarland"}},{"name":"Jägerstr.","postalCode":"66822","locality":"Lebach","municipality":{"key":"10044112","name":"Lebach, Stadt","type":"Stadt"},"district":{"key":"10044","name":"Saarlouis","type":"Landkreis"},"federalState":{"key":"10","name":"Saarland"}},{"name":"Jahnstr.","postalCode":"66822","locality":"Lebach","municipality":{"key":"10044112","name":"Lebach, Stadt","type":"Stadt"},"district":{"key":"10044","name":"Saarlouis","type":"Landkreis"},"federalState":{"key":"10","name":"Saarland"}},{"name":"Josef-Biesel-Weg","postalCode":"66822","locality":"Lebach","municipality":{"key":"10044112","name":"Lebach, Stadt","type":"Stadt"},"district":{"key":"10044","name":"Saarlouis","type":"Landkreis"},"federalState":{"key":"10","name":"Saarland"}},{"name":"Josef-Scherer-Weg","postalCode":"66822","locality":"Lebach","municipality":{"key":"10044112","name":"Lebach, Stadt","type":"Stadt"},"district":{"key":"10044","name":"Saarlouis","type":"Landkreis"},"federalState":{"key":"10","name":"Saarland"}},{"name":"Kapellenstr.","postalCode":"66822","locality":"Lebach","municipality":{"key":"10044112","name":"Lebach, Stadt","type":"Stadt"},"district":{"key":"10044","name":"Saarlouis","type":"Landkreis"},"federalState":{"key":"10","name":"Saarland"}},{"name":"Kettelerstr.","postalCode":"66822","locality":"Lebach","municipality":{"key":"10044112","name":"Lebach, Stadt","type":"Stadt"},"district":{"key":"10044","name":"Saarlouis","type":"Landkreis"},"federalState":{"key":"10","name":"Saarland"}},{"name":"Kirchenstr.","postalCode":"66822","locality":"Lebach","municipality":{"key":"10044112","name":"Lebach, Stadt","type":"Stadt"},"district":{"key":"10044","name":"Saarlouis","type":"Landkreis"},"federalState":{"key":"10","name":"Saarland"}},{"name":"Knorscheider Str.","postalCode":"66822","locality":"Lebach","municipality":{"key":"10044112","name":"Lebach, Stadt","type":"Stadt"},"district":{"key":"10044","name":"Saarlouis","type":"Landkreis"},"federalState":{"key":"10","name":"Saarland"}},{"name":"Koblenzer Str.","postalCode":"66822","locality":"Lebach","municipality":{"key":"10044112","name":"Lebach, Stadt","type":"Stadt"},"district":{"key":"10044","name":"Saarlouis","type":"Landkreis"},"federalState":{"key":"10","name":"Saarland"}},{"name":"Kohlhofstr.","postalCode":"66822","locality":"Lebach","municipality":{"key":"10044112","name":"Lebach, Stadt","type":"Stadt"},"district":{"key":"10044","name":"Saarlouis","type":"Landkreis"},"federalState":{"key":"10","name":"Saarland"}},{"name":"Körpricher Str.","postalCode":"66822","locality":"Lebach","municipality":{"key":"10044112","name":"Lebach, Stadt","type":"Stadt"},"district":{"key":"10044","name":"Saarlouis","type":"Landkreis"},"federalState":{"key":"10","name":"Saarland"}},{"name":"Kortenstr.","postalCode":"66822","locality":"Lebach","municipality":{"key":"10044112","name":"Lebach, Stadt","type":"Stadt"},"district":{"key":"10044","name":"Saarlouis","type":"Landkreis"},"federalState":{"key":"10","name":"Saarland"}},{"name":"Kreuzhecker Str.","postalCode":"66822","locality":"Lebach","municipality":{"key":"10044112","name":"Lebach, Stadt","type":"Stadt"},"district":{"key":"10044","name":"Saarlouis","type":"Landkreis"},"federalState":{"key":"10","name":"Saarland"}},{"name":"Kürbeschstr.","postalCode":"66822","locality":"Lebach","municipality":{"key":"10044112","name":"Lebach, Stadt","type":"Stadt"},"district":{"key":"10044","name":"Saarlouis","type":"Landkreis"},"federalState":{"key":"10","name":"Saarland"}},{"name":"Lachstr.","postalCode":"66822","locality":"Lebach","municipality":{"key":"10044112","name":"Lebach, Stadt","type":"Stadt"},"district":{"key":"10044","name":"Saarlouis","type":"Landkreis"},"federalState":{"key":"10","name":"Saarland"}},{"name":"Landsweilerstr.","postalCode":"66822","locality":"Lebach","municipality":{"key":"10044112","name":"Lebach, Stadt","type":"Stadt"},"district":{"key":"10044","name":"Saarlouis","type":"Landkreis"},"federalState":{"key":"10","name":"Saarland"}},{"name":"Lärchenweg","postalCode":"66822","locality":"Lebach","municipality":{"key":"10044112","name":"Lebach, Stadt","type":"Stadt"},"district":{"key":"10044","name":"Saarlouis","type":"Landkreis"},"federalState":{"key":"10","name":"Saarland"}},{"name":"Lebacher Str.","postalCode":"66822","locality":"Lebach","municipality":{"key":"10044112","name":"Lebach, Stadt","type":"Stadt"},"district":{"key":"10044","name":"Saarlouis","type":"Landkreis"},"federalState":{"key":"10","name":"Saarland"}},{"name":"Lehmkaul","postalCode":"66822","locality":"Lebach","municipality":{"key":"10044112","name":"Lebach, Stadt","type":"Stadt"},"district":{"key":"10044","name":"Saarlouis","type":"Landkreis"},"federalState":{"key":"10","name":"Saarland"}},{"name":"Limbacher Str.","postalCode":"66822","locality":"Lebach","municipality":{"key":"10044112","name":"Lebach, Stadt","type":"Stadt"},"district":{"key":"10044","name":"Saarlouis","type":"Landkreis"},"federalState":{"key":"10","name":"Saarland"}},{"name":"Lindchesdell","postalCode":"66822","locality":"Lebach","municipality":{"key":"10044112","name":"Lebach, Stadt","type":"Stadt"},"district":{"key":"10044","name":"Saarlouis","type":"Landkreis"},"federalState":{"key":"10","name":"Saarland"}},{"name":"Lortzingstr.","postalCode":"66822","locality":"Lebach","municipality":{"key":"10044112","name":"Lebach, Stadt","type":"Stadt"},"district":{"key":"10044","name":"Saarlouis","type":"Landkreis"},"federalState":{"key":"10","name":"Saarland"}},{"name":"Marktstr.","postalCode":"66822","locality":"Lebach","municipality":{"key":"10044112","name":"Lebach, Stadt","type":"Stadt"},"district":{"key":"10044","name":"Saarlouis","type":"Landkreis"},"federalState":{"key":"10","name":"Saarland"}},{"name":"Merzenbachstr.","postalCode":"66822","locality":"Lebach","municipality":{"key":"10044112","name":"Lebach, Stadt","type":"Stadt"},"district":{"key":"10044","name":"Saarlouis","type":"Landkreis"},"federalState":{"key":"10","name":"Saarland"}},{"name":"Michael-Riehm-Weg","postalCode":"66822","locality":"Lebach","municipality":{"key":"10044112","name":"Lebach, Stadt","type":"Stadt"},"district":{"key":"10044","name":"Saarlouis","type":"Landkreis"},"federalState":{"key":"10","name":"Saarland"}},{"name":"Mittelstr.","postalCode":"66822","locality":"Lebach","municipality":{"key":"10044112","name":"Lebach, Stadt","type":"Stadt"},"district":{"key":"10044","name":"Saarlouis","type":"Landkreis"},"federalState":{"key":"10","name":"Saarland"}},{"name":"Mottener Str.","postalCode":"66822","locality":"Lebach","municipality":{"key":"10044112","name":"Lebach, Stadt","type":"Stadt"},"district":{"key":"10044","name":"Saarlouis","type":"Landkreis"},"federalState":{"key":"10","name":"Saarland"}},{"name":"Mozartstr.","postalCode":"66822","locality":"Lebach","municipality":{"key":"10044112","name":"Lebach, Stadt","type":"Stadt"},"district":{"key":"10044","name":"Saarlouis","type":"Landkreis"},"federalState":{"key":"10","name":"Saarland"}},{"name":"Mühlenstr.","postalCode":"66822","locality":"Lebach","municipality":{"key":"10044112","name":"Lebach, Stadt","type":"Stadt"},"district":{"key":"10044","name":"Saarlouis","type":"Landkreis"},"federalState":{"key":"10","name":"Saarland"}},{"name":"Mühlenwaldstr.","postalCode":"66822","locality":"Lebach","municipality":{"key":"10044112","name":"Lebach, Stadt","type":"Stadt"},"district":{"key":"10044","name":"Saarlouis","type":"Landkreis"},"federalState":{"key":"10","name":"Saarland"}},{"name":"Nauwiesstr.","postalCode":"66822","locality":"Lebach","municipality":{"key":"10044112","name":"Lebach, Stadt","type":"Stadt"},"district":{"key":"10044","name":"Saarlouis","type":"Landkreis"},"federalState":{"key":"10","name":"Saarland"}},{"name":"Nelkenstr.","postalCode":"66822","locality":"Lebach","municipality":{"key":"10044112","name":"Lebach, Stadt","type":"Stadt"},"district":{"key":"10044","name":"Saarlouis","type":"Landkreis"},"federalState":{"key":"10","name":"Saarland"}},{"name":"Niedersaubachstr.","postalCode":"66822","locality":"Lebach","municipality":{"key":"10044112","name":"Lebach, Stadt","type":"Stadt"},"district":{"key":"10044","name":"Saarlouis","type":"Landkreis"},"federalState":{"key":"10","name":"Saarland"}},{"name":"Niederwiesstr.","postalCode":"66822","locality":"Lebach","municipality":{"key":"10044112","name":"Lebach, Stadt","type":"Stadt"},"district":{"key":"10044","name":"Saarlouis","type":"Landkreis"},"federalState":{"key":"10","name":"Saarland"}},{"name":"Nikolaus-Kallenborn-Weg","postalCode":"66822","locality":"Lebach","municipality":{"key":"10044112","name":"Lebach, Stadt","type":"Stadt"},"district":{"key":"10044","name":"Saarlouis","type":"Landkreis"},"federalState":{"key":"10","name":"Saarland"}},{"name":"Nordring","postalCode":"66822","locality":"Lebach","municipality":{"key":"10044112","name":"Lebach, Stadt","type":"Stadt"},"district":{"key":"10044","name":"Saarlouis","type":"Landkreis"},"federalState":{"key":"10","name":"Saarland"}},{"name":"Obere Dell","postalCode":"66822","locality":"Lebach","municipality":{"key":"10044112","name":"Lebach, Stadt","type":"Stadt"},"district":{"key":"10044","name":"Saarlouis","type":"Landkreis"},"federalState":{"key":"10","name":"Saarland"}},{"name":"Obere Galgenheck","postalCode":"66822","locality":"Lebach","municipality":{"key":"10044112","name":"Lebach, Stadt","type":"Stadt"},"district":{"key":"10044","name":"Saarlouis","type":"Landkreis"},"federalState":{"key":"10","name":"Saarland"}},{"name":"Oberer Heinzengrund","postalCode":"66822","locality":"Lebach","municipality":{"key":"10044112","name":"Lebach, Stadt","type":"Stadt"},"district":{"key":"10044","name":"Saarlouis","type":"Landkreis"},"federalState":{"key":"10","name":"Saarland"}},{"name":"Oderring","postalCode":"66822","locality":"Lebach","municipality":{"key":"10044112","name":"Lebach, Stadt","type":"Stadt"},"district":{"key":"10044","name":"Saarlouis","type":"Landkreis"},"federalState":{"key":"10","name":"Saarland"}},{"name":"Ostpreußenstr.","postalCode":"66822","locality":"Lebach","municipality":{"key":"10044112","name":"Lebach, Stadt","type":"Stadt"},"district":{"key":"10044","name":"Saarlouis","type":"Landkreis"},"federalState":{"key":"10","name":"Saarland"}},{"name":"Pastor-Geller-Weg","postalCode":"66822","locality":"Lebach","municipality":{"key":"10044112","name":"Lebach, Stadt","type":"Stadt"},"district":{"key":"10044","name":"Saarlouis","type":"Landkreis"},"federalState":{"key":"10","name":"Saarland"}},{"name":"Pastor-Haag-Weg","postalCode":"66822","locality":"Lebach","municipality":{"key":"10044112","name":"Lebach, Stadt","type":"Stadt"},"district":{"key":"10044","name":"Saarlouis","type":"Landkreis"},"federalState":{"key":"10","name":"Saarland"}},{"name":"Pestalozzistr.","postalCode":"66822","locality":"Lebach","municipality":{"key":"10044112","name":"Lebach, Stadt","type":"Stadt"},"district":{"key":"10044","name":"Saarlouis","type":"Landkreis"},"federalState":{"key":"10","name":"Saarland"}},{"name":"Peter-Schmitt-Weg","postalCode":"66822","locality":"Lebach","municipality":{"key":"10044112","name":"Lebach, Stadt","type":"Stadt"},"district":{"key":"10044","name":"Saarlouis","type":"Landkreis"},"federalState":{"key":"10","name":"Saarland"}},{"name":"Pfarrgasse","postalCode":"66822","locality":"Lebach","municipality":{"key":"10044112","name":"Lebach, Stadt","type":"Stadt"},"district":{"key":"10044","name":"Saarlouis","type":"Landkreis"},"federalState":{"key":"10","name":"Saarland"}},{"name":"Pickardstr.","postalCode":"66822","locality":"Lebach","municipality":{"key":"10044112","name":"Lebach, Stadt","type":"Stadt"},"district":{"key":"10044","name":"Saarlouis","type":"Landkreis"},"federalState":{"key":"10","name":"Saarland"}},{"name":"Plückwies","postalCode":"66822","locality":"Lebach","municipality":{"key":"10044112","name":"Lebach, Stadt","type":"Stadt"},"district":{"key":"10044","name":"Saarlouis","type":"Landkreis"},"federalState":{"key":"10","name":"Saarland"}},{"name":"Pommernstr.","postalCode":"66822","locality":"Lebach","municipality":{"key":"10044112","name":"Lebach, Stadt","type":"Stadt"},"district":{"key":"10044","name":"Saarlouis","type":"Landkreis"},"federalState":{"key":"10","name":"Saarland"}},{"name":"Poststr.","postalCode":"66822","locality":"Lebach","municipality":{"key":"10044112","name":"Lebach, Stadt","type":"Stadt"},"district":{"key":"10044","name":"Saarlouis","type":"Landkreis"},"federalState":{"key":"10","name":"Saarland"}},{"name":"Primsstr.","postalCode":"66822","locality":"Lebach","municipality":{"key":"10044112","name":"Lebach, Stadt","type":"Stadt"},"district":{"key":"10044","name":"Saarlouis","type":"Landkreis"},"federalState":{"key":"10","name":"Saarland"}},{"name":"Provinzialstr.","postalCode":"66822","locality":"Lebach","municipality":{"key":"10044112","name":"Lebach, Stadt","type":"Stadt"},"district":{"key":"10044","name":"Saarlouis","type":"Landkreis"},"federalState":{"key":"10","name":"Saarland"}},{"name":"Regerstr.","postalCode":"66822","locality":"Lebach","municipality":{"key":"10044112","name":"Lebach, Stadt","type":"Stadt"},"district":{"key":"10044","name":"Saarlouis","type":"Landkreis"},"federalState":{"key":"10","name":"Saarland"}},{"name":"Reisbacher Str.","postalCode":"66822","locality":"Lebach","municipality":{"key":"10044112","name":"Lebach, Stadt","type":"Stadt"},"district":{"key":"10044","name":"Saarlouis","type":"Landkreis"},"federalState":{"key":"10","name":"Saarland"}},{"name":"Rennbahnstr.","postalCode":"66822","locality":"Lebach","municipality":{"key":"10044112","name":"Lebach, Stadt","type":"Stadt"},"district":{"key":"10044","name":"Saarlouis","type":"Landkreis"},"federalState":{"key":"10","name":"Saarland"}},{"name":"Richard-Wagner-Str.","postalCode":"66822","locality":"Lebach","municipality":{"key":"10044112","name":"Lebach, Stadt","type":"Stadt"},"district":{"key":"10044","name":"Saarlouis","type":"Landkreis"},"federalState":{"key":"10","name":"Saarland"}},{"name":"Ringstr.","postalCode":"66822","locality":"Lebach","municipality":{"key":"10044112","name":"Lebach, Stadt","type":"Stadt"},"district":{"key":"10044","name":"Saarlouis","type":"Landkreis"},"federalState":{"key":"10","name":"Saarland"}},{"name":"Ritterstr.","postalCode":"66822","locality":"Lebach","municipality":{"key":"10044112","name":"Lebach, Stadt","type":"Stadt"},"district":{"key":"10044","name":"Saarlouis","type":"Landkreis"},"federalState":{"key":"10","name":"Saarland"}},{"name":"Ritter-von-Hagen-Str.","postalCode":"66822","locality":"Lebach","municipality":{"key":"10044112","name":"Lebach, Stadt","type":"Stadt"},"district":{"key":"10044","name":"Saarlouis","type":"Landkreis"},"federalState":{"key":"10","name":"Saarland"}},{"name":"Römerstr.","postalCode":"66822","locality":"Lebach","municipality":{"key":"10044112","name":"Lebach, Stadt","type":"Stadt"},"district":{"key":"10044","name":"Saarlouis","type":"Landkreis"},"federalState":{"key":"10","name":"Saarland"}},{"name":"Rosenstr.","postalCode":"66822","locality":"Lebach","municipality":{"key":"10044112","name":"Lebach, Stadt","type":"Stadt"},"district":{"key":"10044","name":"Saarlouis","type":"Landkreis"},"federalState":{"key":"10","name":"Saarland"}},{"name":"Rotheckstr.","postalCode":"66822","locality":"Lebach","municipality":{"key":"10044112","name":"Lebach, Stadt","type":"Stadt"},"district":{"key":"10044","name":"Saarlouis","type":"Landkreis"},"federalState":{"key":"10","name":"Saarland"}},{"name":"Saarbrücker Str.","postalCode":"66822","locality":"Lebach","municipality":{"key":"10044112","name":"Lebach, Stadt","type":"Stadt"},"district":{"key":"10044","name":"Saarlouis","type":"Landkreis"},"federalState":{"key":"10","name":"Saarland"}},{"name":"Saarlouiser Str.","postalCode":"66822","locality":"Lebach","municipality":{"key":"10044112","name":"Lebach, Stadt","type":"Stadt"},"district":{"key":"10044","name":"Saarlouis","type":"Landkreis"},"federalState":{"key":"10","name":"Saarland"}},{"name":"Saarwellinger Str.","postalCode":"66822","locality":"Lebach","municipality":{"key":"10044112","name":"Lebach, Stadt","type":"Stadt"},"district":{"key":"10044","name":"Saarlouis","type":"Landkreis"},"federalState":{"key":"10","name":"Saarland"}},{"name":"Schaumbergstr.","postalCode":"66822","locality":"Lebach","municipality":{"key":"10044112","name":"Lebach, Stadt","type":"Stadt"},"district":{"key":"10044","name":"Saarlouis","type":"Landkreis"},"federalState":{"key":"10","name":"Saarland"}},{"name":"Scheuernstr.","postalCode":"66822","locality":"Lebach","municipality":{"key":"10044112","name":"Lebach, Stadt","type":"Stadt"},"district":{"key":"10044","name":"Saarlouis","type":"Landkreis"},"federalState":{"key":"10","name":"Saarland"}},{"name":"Schillerstr.","postalCode":"66822","locality":"Lebach","municipality":{"key":"10044112","name":"Lebach, Stadt","type":"Stadt"},"district":{"key":"10044","name":"Saarlouis","type":"Landkreis"},"federalState":{"key":"10","name":"Saarland"}},{"name":"Schlesierallee","postalCode":"66822","locality":"Lebach","municipality":{"key":"10044112","name":"Lebach, Stadt","type":"Stadt"},"district":{"key":"10044","name":"Saarlouis","type":"Landkreis"},"federalState":{"key":"10","name":"Saarland"}},{"name":"Schmelzer Str.","postalCode":"66822","locality":"Lebach","municipality":{"key":"10044112","name":"Lebach, Stadt","type":"Stadt"},"district":{"key":"10044","name":"Saarlouis","type":"Landkreis"},"federalState":{"key":"10","name":"Saarland"}},{"name":"Schottenstr.","postalCode":"66822","locality":"Lebach","municipality":{"key":"10044112","name":"Lebach, Stadt","type":"Stadt"},"district":{"key":"10044","name":"Saarlouis","type":"Landkreis"},"federalState":{"key":"10","name":"Saarland"}},{"name":"Schubertstr.","postalCode":"66822","locality":"Lebach","municipality":{"key":"10044112","name":"Lebach, Stadt","type":"Stadt"},"district":{"key":"10044","name":"Saarlouis","type":"Landkreis"},"federalState":{"key":"10","name":"Saarland"}},{"name":"Schulstr.","postalCode":"66822","locality":"Lebach","municipality":{"key":"10044112","name":"Lebach, Stadt","type":"Stadt"},"district":{"key":"10044","name":"Saarlouis","type":"Landkreis"},"federalState":{"key":"10","name":"Saarland"}},{"name":"Schwalbenweg","postalCode":"66822","locality":"Lebach","municipality":{"key":"10044112","name":"Lebach, Stadt","type":"Stadt"},"district":{"key":"10044","name":"Saarlouis","type":"Landkreis"},"federalState":{"key":"10","name":"Saarland"}},{"name":"Schwarzenacker","postalCode":"66822","locality":"Lebach","municipality":{"key":"10044112","name":"Lebach, Stadt","type":"Stadt"},"district":{"key":"10044","name":"Saarlouis","type":"Landkreis"},"federalState":{"key":"10","name":"Saarland"}},{"name":"Schwimmbadweg","postalCode":"66822","locality":"Lebach","municipality":{"key":"10044112","name":"Lebach, Stadt","type":"Stadt"},"district":{"key":"10044","name":"Saarlouis","type":"Landkreis"},"federalState":{"key":"10","name":"Saarland"}},{"name":"Seitersstr.","postalCode":"66822","locality":"Lebach","municipality":{"key":"10044112","name":"Lebach, Stadt","type":"Stadt"},"district":{"key":"10044","name":"Saarlouis","type":"Landkreis"},"federalState":{"key":"10","name":"Saarland"}},{"name":"Seminarweg","postalCode":"66822","locality":"Lebach","municipality":{"key":"10044112","name":"Lebach, Stadt","type":"Stadt"},"district":{"key":"10044","name":"Saarlouis","type":"Landkreis"},"federalState":{"key":"10","name":"Saarland"}},{"name":"Sonnenweg","postalCode":"66822","locality":"Lebach","municipality":{"key":"10044112","name":"Lebach, Stadt","type":"Stadt"},"district":{"key":"10044","name":"Saarlouis","type":"Landkreis"},"federalState":{"key":"10","name":"Saarland"}},{"name":"Sotzweilerweg","postalCode":"66822","locality":"Lebach","municipality":{"key":"10044112","name":"Lebach, Stadt","type":"Stadt"},"district":{"key":"10044","name":"Saarlouis","type":"Landkreis"},"federalState":{"key":"10","name":"Saarland"}},{"name":"St.-Barbara-Str.","postalCode":"66822","locality":"Lebach","municipality":{"key":"10044112","name":"Lebach, Stadt","type":"Stadt"},"district":{"key":"10044","name":"Saarlouis","type":"Landkreis"},"federalState":{"key":"10","name":"Saarland"}},{"name":"Steinbacher Str.","postalCode":"66822","locality":"Lebach","municipality":{"key":"10044112","name":"Lebach, Stadt","type":"Stadt"},"district":{"key":"10044","name":"Saarlouis","type":"Landkreis"},"federalState":{"key":"10","name":"Saarland"}},{"name":"Steinheckstr.","postalCode":"66822","locality":"Lebach","municipality":{"key":"10044112","name":"Lebach, Stadt","type":"Stadt"},"district":{"key":"10044","name":"Saarlouis","type":"Landkreis"},"federalState":{"key":"10","name":"Saarland"}},{"name":"Steinstr.","postalCode":"66822","locality":"Lebach","municipality":{"key":"10044112","name":"Lebach, Stadt","type":"Stadt"},"district":{"key":"10044","name":"Saarlouis","type":"Landkreis"},"federalState":{"key":"10","name":"Saarland"}},{"name":"Str. der Weißen Rose","postalCode":"66822","locality":"Lebach","municipality":{"key":"10044112","name":"Lebach, Stadt","type":"Stadt"},"district":{"key":"10044","name":"Saarlouis","type":"Landkreis"},"federalState":{"key":"10","name":"Saarland"}},{"name":"Talstr.","postalCode":"66822","locality":"Lebach","municipality":{"key":"10044112","name":"Lebach, Stadt","type":"Stadt"},"district":{"key":"10044","name":"Saarlouis","type":"Landkreis"},"federalState":{"key":"10","name":"Saarland"}},{"name":"Tanneck","postalCode":"66822","locality":"Lebach","municipality":{"key":"10044112","name":"Lebach, Stadt","type":"Stadt"},"district":{"key":"10044","name":"Saarlouis","type":"Landkreis"},"federalState":{"key":"10","name":"Saarland"}},{"name":"Tannenweg","postalCode":"66822","locality":"Lebach","municipality":{"key":"10044112","name":"Lebach, Stadt","type":"Stadt"},"district":{"key":"10044","name":"Saarlouis","type":"Landkreis"},"federalState":{"key":"10","name":"Saarland"}},{"name":"Taubenweg","postalCode":"66822","locality":"Lebach","municipality":{"key":"10044112","name":"Lebach, Stadt","type":"Stadt"},"district":{"key":"10044","name":"Saarlouis","type":"Landkreis"},"federalState":{"key":"10","name":"Saarland"}},{"name":"Tholeyer Str.","postalCode":"66822","locality":"Lebach","municipality":{"key":"10044112","name":"Lebach, Stadt","type":"Stadt"},"district":{"key":"10044","name":"Saarlouis","type":"Landkreis"},"federalState":{"key":"10","name":"Saarland"}},{"name":"Trierer Str.","postalCode":"66822","locality":"Lebach","municipality":{"key":"10044112","name":"Lebach, Stadt","type":"Stadt"},"district":{"key":"10044","name":"Saarlouis","type":"Landkreis"},"federalState":{"key":"10","name":"Saarland"}},{"name":"Umgehung Steinbach Süd","postalCode":"66822","locality":"Lebach","municipality":{"key":"10044112","name":"Lebach, Stadt","type":"Stadt"},"district":{"key":"10044","name":"Saarlouis","type":"Landkreis"},"federalState":{"key":"10","name":"Saarland"}},{"name":"Untere Dell","postalCode":"66822","locality":"Lebach","municipality":{"key":"10044112","name":"Lebach, Stadt","type":"Stadt"},"district":{"key":"10044","name":"Saarlouis","type":"Landkreis"},"federalState":{"key":"10","name":"Saarland"}},{"name":"Unterer Heinzengrund","postalCode":"66822","locality":"Lebach","municipality":{"key":"10044112","name":"Lebach, Stadt","type":"Stadt"},"district":{"key":"10044","name":"Saarlouis","type":"Landkreis"},"federalState":{"key":"10","name":"Saarland"}},{"name":"Vor den Stangen","postalCode":"66822","locality":"Lebach","municipality":{"key":"10044112","name":"Lebach, Stadt","type":"Stadt"},"district":{"key":"10044","name":"Saarlouis","type":"Landkreis"},"federalState":{"key":"10","name":"Saarland"}},{"name":"Wackenhübel","postalCode":"66822","locality":"Lebach","municipality":{"key":"10044112","name":"Lebach, Stadt","type":"Stadt"},"district":{"key":"10044","name":"Saarlouis","type":"Landkreis"},"federalState":{"key":"10","name":"Saarland"}},{"name":"Waldstr.","postalCode":"66822","locality":"Lebach","municipality":{"key":"10044112","name":"Lebach, Stadt","type":"Stadt"},"district":{"key":"10044","name":"Saarlouis","type":"Landkreis"},"federalState":{"key":"10","name":"Saarland"}},{"name":"Weihermühle","postalCode":"66822","locality":"Lebach","municipality":{"key":"10044112","name":"Lebach, Stadt","type":"Stadt"},"district":{"key":"10044","name":"Saarlouis","type":"Landkreis"},"federalState":{"key":"10","name":"Saarland"}},{"name":"Weinheckstr.","postalCode":"66822","locality":"Lebach","municipality":{"key":"10044112","name":"Lebach, Stadt","type":"Stadt"},"district":{"key":"10044","name":"Saarlouis","type":"Landkreis"},"federalState":{"key":"10","name":"Saarland"}},{"name":"Wendalinusstr.","postalCode":"66822","locality":"Lebach","municipality":{"key":"10044112","name":"Lebach, Stadt","type":"Stadt"},"district":{"key":"10044","name":"Saarlouis","type":"Landkreis"},"federalState":{"key":"10","name":"Saarland"}},{"name":"Wiesenstr.","postalCode":"66822","locality":"Lebach","municipality":{"key":"10044112","name":"Lebach, Stadt","type":"Stadt"},"district":{"key":"10044","name":"Saarlouis","type":"Landkreis"},"federalState":{"key":"10","name":"Saarland"}},{"name":"Zollstockstr.","postalCode":"66822","locality":"Lebach","municipality":{"key":"10044112","name":"Lebach, Stadt","type":"Stadt"},"district":{"key":"10044","name":"Saarlouis","type":"Landkreis"},"federalState":{"key":"10","name":"Saarland"}},{"name":"Zollstockweg","postalCode":"66822","locality":"Lebach","municipality":{"key":"10044112","name":"Lebach, Stadt","type":"Stadt"},"district":{"key":"10044","name":"Saarlouis","type":"Landkreis"},"federalState":{"key":"10","name":"Saarland"}},{"name":"Zu den Linden","postalCode":"66822","locality":"Lebach","municipality":{"key":"10044112","name":"Lebach, Stadt","type":"Stadt"},"district":{"key":"10044","name":"Saarlouis","type":"Landkreis"},"federalState":{"key":"10","name":"Saarland"}},{"name":"Zum alten Strichen","postalCode":"66822","locality":"Lebach","municipality":{"key":"10044112","name":"Lebach, Stadt","type":"Stadt"},"district":{"key":"10044","name":"Saarlouis","type":"Landkreis"},"federalState":{"key":"10","name":"Saarland"}},{"name":"Zum Demesborn","postalCode":"66822","locality":"Lebach","municipality":{"key":"10044112","name":"Lebach, Stadt","type":"Stadt"},"district":{"key":"10044","name":"Saarlouis","type":"Landkreis"},"federalState":{"key":"10","name":"Saarland"}},{"name":"Zum Eisresch","postalCode":"66822","locality":"Lebach","municipality":{"key":"10044112","name":"Lebach, Stadt","type":"Stadt"},"district":{"key":"10044","name":"Saarlouis","type":"Landkreis"},"federalState":{"key":"10","name":"Saarland"}},{"name":"Zum Grundsberg","postalCode":"66822","locality":"Lebach","municipality":{"key":"10044112","name":"Lebach, Stadt","type":"Stadt"},"district":{"key":"10044","name":"Saarlouis","type":"Landkreis"},"federalState":{"key":"10","name":"Saarland"}},{"name":"Zum Hallenbad","postalCode":"66822","locality":"Lebach","municipality":{"key":"10044112","name":"Lebach, Stadt","type":"Stadt"},"district":{"key":"10044","name":"Saarlouis","type":"Landkreis"},"federalState":{"key":"10","name":"Saarland"}},{"name":"Zum Hangenberg","postalCode":"66822","locality":"Lebach","municipality":{"key":"10044112","name":"Lebach, Stadt","type":"Stadt"},"district":{"key":"10044","name":"Saarlouis","type":"Landkreis"},"federalState":{"key":"10","name":"Saarland"}},{"name":"Zum Hermel","postalCode":"66822","locality":"Lebach","municipality":{"key":"10044112","name":"Lebach, Stadt","type":"Stadt"},"district":{"key":"10044","name":"Saarlouis","type":"Landkreis"},"federalState":{"key":"10","name":"Saarland"}},{"name":"Zum Krispelt","postalCode":"66822","locality":"Lebach","municipality":{"key":"10044112","name":"Lebach, Stadt","type":"Stadt"},"district":{"key":"10044","name":"Saarlouis","type":"Landkreis"},"federalState":{"key":"10","name":"Saarland"}},{"name":"Zum Roßbach","postalCode":"66822","locality":"Lebach","municipality":{"key":"10044112","name":"Lebach, Stadt","type":"Stadt"},"district":{"key":"10044","name":"Saarlouis","type":"Landkreis"},"federalState":{"key":"10","name":"Saarland"}},{"name":"Zum Rothenberg","postalCode":"66822","locality":"Lebach","municipality":{"key":"10044112","name":"Lebach, Stadt","type":"Stadt"},"district":{"key":"10044","name":"Saarlouis","type":"Landkreis"},"federalState":{"key":"10","name":"Saarland"}},{"name":"Zum Sägewerk","postalCode":"66822","locality":"Lebach","municipality":{"key":"10044112","name":"Lebach, Stadt","type":"Stadt"},"district":{"key":"10044","name":"Saarlouis","type":"Landkreis"},"federalState":{"key":"10","name":"Saarland"}},{"name":"Zum Schäferberg","postalCode":"66822","locality":"Lebach","municipality":{"key":"10044112","name":"Lebach, Stadt","type":"Stadt"},"district":{"key":"10044","name":"Saarlouis","type":"Landkreis"},"federalState":{"key":"10","name":"Saarland"}},{"name":"Zum Schaumbergblick","postalCode":"66822","locality":"Lebach","municipality":{"key":"10044112","name":"Lebach, Stadt","type":"Stadt"},"district":{"key":"10044","name":"Saarlouis","type":"Landkreis"},"federalState":{"key":"10","name":"Saarland"}},{"name":"Zum Schmittenberg","postalCode":"66822","locality":"Lebach","municipality":{"key":"10044112","name":"Lebach, Stadt","type":"Stadt"},"district":{"key":"10044","name":"Saarlouis","type":"Landkreis"},"federalState":{"key":"10","name":"Saarland"}},{"name":"Zum Stangenwald","postalCode":"66822","locality":"Lebach","municipality":{"key":"10044112","name":"Lebach, Stadt","type":"Stadt"},"district":{"key":"10044","name":"Saarlouis","type":"Landkreis"},"federalState":{"key":"10","name":"Saarland"}},{"name":"Zum Terrazzo","postalCode":"66822","locality":"Lebach","municipality":{"key":"10044112","name":"Lebach, Stadt","type":"Stadt"},"district":{"key":"10044","name":"Saarlouis","type":"Landkreis"},"federalState":{"key":"10","name":"Saarland"}},{"name":"Zum Waldblick","postalCode":"66822","locality":"Lebach","municipality":{"key":"10044112","name":"Lebach, Stadt","type":"Stadt"},"district":{"key":"10044","name":"Saarlouis","type":"Landkreis"},"federalState":{"key":"10","name":"Saarland"}},{"name":"Zum Wiesengrund","postalCode":"66822","locality":"Lebach","municipality":{"key":"10044112","name":"Lebach, Stadt","type":"Stadt"},"district":{"key":"10044","name":"Saarlouis","type":"Landkreis"},"federalState":{"key":"10","name":"Saarland"}},{"name":"Zur Claus","postalCode":"66822","locality":"Lebach","municipality":{"key":"10044112","name":"Lebach, Stadt","type":"Stadt"},"district":{"key":"10044","name":"Saarlouis","type":"Landkreis"},"federalState":{"key":"10","name":"Saarland"}},{"name":"Zur Eiche","postalCode":"66822","locality":"Lebach","municipality":{"key":"10044112","name":"Lebach, Stadt","type":"Stadt"},"district":{"key":"10044","name":"Saarlouis","type":"Landkreis"},"federalState":{"key":"10","name":"Saarland"}},{"name":"Zur Erzkaul","postalCode":"66822","locality":"Lebach","municipality":{"key":"10044112","name":"Lebach, Stadt","type":"Stadt"},"district":{"key":"10044","name":"Saarlouis","type":"Landkreis"},"federalState":{"key":"10","name":"Saarland"}},{"name":"Zur Flitsch","postalCode":"66822","locality":"Lebach","municipality":{"key":"10044112","name":"Lebach, Stadt","type":"Stadt"},"district":{"key":"10044","name":"Saarlouis","type":"Landkreis"},"federalState":{"key":"10","name":"Saarland"}},{"name":"Zur Homesmühle","postalCode":"66822","locality":"Lebach","municipality":{"key":"10044112","name":"Lebach, Stadt","type":"Stadt"},"district":{"key":"10044","name":"Saarlouis","type":"Landkreis"},"federalState":{"key":"10","name":"Saarland"}},{"name":"Zur Kirchenmühle","postalCode":"66822","locality":"Lebach","municipality":{"key":"10044112","name":"Lebach, Stadt","type":"Stadt"},"district":{"key":"10044","name":"Saarlouis","type":"Landkreis"},"federalState":{"key":"10","name":"Saarland"}},{"name":"Zur Nachtweide","postalCode":"66822","locality":"Lebach","municipality":{"key":"10044112","name":"Lebach, Stadt","type":"Stadt"},"district":{"key":"10044","name":"Saarlouis","type":"Landkreis"},"federalState":{"key":"10","name":"Saarland"}},{"name":"Zur Schnau","postalCode":"66822","locality":"Lebach","municipality":{"key":"10044112","name":"Lebach, Stadt","type":"Stadt"},"district":{"key":"10044","name":"Saarlouis","type":"Landkreis"},"federalState":{"key":"10","name":"Saarland"}},{"name":"Äppelbergstr.","postalCode":"66822","locality":"Lebach","municipality":{"key":"10044112","name":"Lebach, Stadt","type":"Stadt"},"district":{"key":"10044","name":"Saarlouis","type":"Landkreis"},"federalState":{"key":"10","name":"Saarland"}},{"name":"Ölwerkweg","postalCode":"66740","locality":"Saarlouis","municipality":{"key":"10044115","name":"Saarlouis, Kreisstadt","type":"Stadt"},"district":{"key":"10044","name":"Saarlouis","type":"Landkreis"},"federalState":{"key":"10","name":"Saarland"}},{"name":"Überherrner Str.","postalCode":"66740","locality":"Saarlouis","municipality":{"key":"10044115","name":"Saarlouis, Kreisstadt","type":"Stadt"},"district":{"key":"10044","name":"Saarlouis","type":"Landkreis"},"federalState":{"key":"10","name":"Saarland"}},]