[{"name":"Alte Nassauer Str.","postalCode":"56412","locality":"Welschneudorf","municipality":{"key":"07143079","name":"Welschneudorf","type":"Kreisangehörige_Gemeinde"},"district":{"key":"07143","name":"Westerwaldkreis","type":"Landkreis"},"federalState":{"key":"07","name":"Rheinland-Pfalz"}},{"name":"Arzbacher Str.","postalCode":"56412","locality":"Welschneudorf","municipality":{"key":"07143079","name":"Welschneudorf","type":"Kreisangehörige_Gemeinde"},"district":{"key":"07143","name":"Westerwaldkreis","type":"Landkreis"},"federalState":{"key":"07","name":"Rheinland-Pfalz"}},{"name":"Backeswiese","postalCode":"56412","locality":"Welschneudorf","municipality":{"key":"07143079","name":"Welschneudorf","type":"Kreisangehörige_Gemeinde"},"district":{"key":"07143","name":"Westerwaldkreis","type":"Landkreis"},"federalState":{"key":"07","name":"Rheinland-Pfalz"}},{"name":"Bad Emser Str.","postalCode":"56412","locality":"Welschneudorf","municipality":{"key":"07143079","name":"Welschneudorf","type":"Kreisangehörige_Gemeinde"},"district":{"key":"07143","name":"Westerwaldkreis","type":"Landkreis"},"federalState":{"key":"07","name":"Rheinland-Pfalz"}},{"name":"Birkenweg","postalCode":"56412","locality":"Welschneudorf","municipality":{"key":"07143079","name":"Welschneudorf","type":"Kreisangehörige_Gemeinde"},"district":{"key":"07143","name":"Westerwaldkreis","type":"Landkreis"},"federalState":{"key":"07","name":"Rheinland-Pfalz"}},{"name":"Bleichstr.","postalCode":"56412","locality":"Welschneudorf","municipality":{"key":"07143079","name":"Welschneudorf","type":"Kreisangehörige_Gemeinde"},"district":{"key":"07143","name":"Westerwaldkreis","type":"Landkreis"},"federalState":{"key":"07","name":"Rheinland-Pfalz"}},{"name":"Bleichwiese","postalCode":"56412","locality":"Welschneudorf","municipality":{"key":"07143079","name":"Welschneudorf","type":"Kreisangehörige_Gemeinde"},"district":{"key":"07143","name":"Westerwaldkreis","type":"Landkreis"},"federalState":{"key":"07","name":"Rheinland-Pfalz"}},{"name":"Bornplatz","postalCode":"56412","locality":"Welschneudorf","municipality":{"key":"07143079","name":"Welschneudorf","type":"Kreisangehörige_Gemeinde"},"district":{"key":"07143","name":"Westerwaldkreis","type":"Landkreis"},"federalState":{"key":"07","name":"Rheinland-Pfalz"}},{"name":"Bornwiese","postalCode":"56412","locality":"Welschneudorf","municipality":{"key":"07143079","name":"Welschneudorf","type":"Kreisangehörige_Gemeinde"},"district":{"key":"07143","name":"Westerwaldkreis","type":"Landkreis"},"federalState":{"key":"07","name":"Rheinland-Pfalz"}},{"name":"Brunnenweg","postalCode":"56412","locality":"Welschneudorf","municipality":{"key":"07143079","name":"Welschneudorf","type":"Kreisangehörige_Gemeinde"},"district":{"key":"07143","name":"Westerwaldkreis","type":"Landkreis"},"federalState":{"key":"07","name":"Rheinland-Pfalz"}},{"name":"Buchenweg","postalCode":"56412","locality":"Welschneudorf","municipality":{"key":"07143079","name":"Welschneudorf","type":"Kreisangehörige_Gemeinde"},"district":{"key":"07143","name":"Westerwaldkreis","type":"Landkreis"},"federalState":{"key":"07","name":"Rheinland-Pfalz"}},{"name":"Dielkopfweg","postalCode":"56412","locality":"Welschneudorf","municipality":{"key":"07143079","name":"Welschneudorf","type":"Kreisangehörige_Gemeinde"},"district":{"key":"07143","name":"Westerwaldkreis","type":"Landkreis"},"federalState":{"key":"07","name":"Rheinland-Pfalz"}},{"name":"Ebereschenweg","postalCode":"56412","locality":"Welschneudorf","municipality":{"key":"07143079","name":"Welschneudorf","type":"Kreisangehörige_Gemeinde"},"district":{"key":"07143","name":"Westerwaldkreis","type":"Landkreis"},"federalState":{"key":"07","name":"Rheinland-Pfalz"}},{"name":"Friedhofsweg","postalCode":"56412","locality":"Welschneudorf","municipality":{"key":"07143079","name":"Welschneudorf","type":"Kreisangehörige_Gemeinde"},"district":{"key":"07143","name":"Westerwaldkreis","type":"Landkreis"},"federalState":{"key":"07","name":"Rheinland-Pfalz"}},{"name":"Gartenstr.","postalCode":"56412","locality":"Welschneudorf","municipality":{"key":"07143079","name":"Welschneudorf","type":"Kreisangehörige_Gemeinde"},"district":{"key":"07143","name":"Westerwaldkreis","type":"Landkreis"},"federalState":{"key":"07","name":"Rheinland-Pfalz"}},{"name":"Goldgasse","postalCode":"56412","locality":"Welschneudorf","municipality":{"key":"07143079","name":"Welschneudorf","type":"Kreisangehörige_Gemeinde"},"district":{"key":"07143","name":"Westerwaldkreis","type":"Landkreis"},"federalState":{"key":"07","name":"Rheinland-Pfalz"}},{"name":"Im Krautfeld","postalCode":"56412","locality":"Welschneudorf","municipality":{"key":"07143079","name":"Welschneudorf","type":"Kreisangehörige_Gemeinde"},"district":{"key":"07143","name":"Westerwaldkreis","type":"Landkreis"},"federalState":{"key":"07","name":"Rheinland-Pfalz"}},{"name":"In den Stömpen","postalCode":"56412","locality":"Welschneudorf","municipality":{"key":"07143079","name":"Welschneudorf","type":"Kreisangehörige_Gemeinde"},"district":{"key":"07143","name":"Westerwaldkreis","type":"Landkreis"},"federalState":{"key":"07","name":"Rheinland-Pfalz"}},{"name":"Jakobstr.","postalCode":"56412","locality":"Welschneudorf","municipality":{"key":"07143079","name":"Welschneudorf","type":"Kreisangehörige_Gemeinde"},"district":{"key":"07143","name":"Westerwaldkreis","type":"Landkreis"},"federalState":{"key":"07","name":"Rheinland-Pfalz"}},{"name":"Kreuzplatz","postalCode":"56412","locality":"Welschneudorf","municipality":{"key":"07143079","name":"Welschneudorf","type":"Kreisangehörige_Gemeinde"},"district":{"key":"07143","name":"Westerwaldkreis","type":"Landkreis"},"federalState":{"key":"07","name":"Rheinland-Pfalz"}},{"name":"Kuckucksweg","postalCode":"56412","locality":"Welschneudorf","municipality":{"key":"07143079","name":"Welschneudorf","type":"Kreisangehörige_Gemeinde"},"district":{"key":"07143","name":"Westerwaldkreis","type":"Landkreis"},"federalState":{"key":"07","name":"Rheinland-Pfalz"}},{"name":"Lindenweg","postalCode":"56412","locality":"Welschneudorf","municipality":{"key":"07143079","name":"Welschneudorf","type":"Kreisangehörige_Gemeinde"},"district":{"key":"07143","name":"Westerwaldkreis","type":"Landkreis"},"federalState":{"key":"07","name":"Rheinland-Pfalz"}},{"name":"Mariothstr.","postalCode":"56412","locality":"Welschneudorf","municipality":{"key":"07143079","name":"Welschneudorf","type":"Kreisangehörige_Gemeinde"},"district":{"key":"07143","name":"Westerwaldkreis","type":"Landkreis"},"federalState":{"key":"07","name":"Rheinland-Pfalz"}},{"name":"Montabaurer Str.","postalCode":"56412","locality":"Welschneudorf","municipality":{"key":"07143079","name":"Welschneudorf","type":"Kreisangehörige_Gemeinde"},"district":{"key":"07143","name":"Westerwaldkreis","type":"Landkreis"},"federalState":{"key":"07","name":"Rheinland-Pfalz"}},{"name":"Nassauer Str.","postalCode":"56412","locality":"Welschneudorf","municipality":{"key":"07143079","name":"Welschneudorf","type":"Kreisangehörige_Gemeinde"},"district":{"key":"07143","name":"Westerwaldkreis","type":"Landkreis"},"federalState":{"key":"07","name":"Rheinland-Pfalz"}},{"name":"Neustr.","postalCode":"56412","locality":"Welschneudorf","municipality":{"key":"07143079","name":"Welschneudorf","type":"Kreisangehörige_Gemeinde"},"district":{"key":"07143","name":"Westerwaldkreis","type":"Landkreis"},"federalState":{"key":"07","name":"Rheinland-Pfalz"}},{"name":"Schulstr.","postalCode":"56412","locality":"Welschneudorf","municipality":{"key":"07143079","name":"Welschneudorf","type":"Kreisangehörige_Gemeinde"},"district":{"key":"07143","name":"Westerwaldkreis","type":"Landkreis"},"federalState":{"key":"07","name":"Rheinland-Pfalz"}},{"name":"Tannenweg","postalCode":"56412","locality":"Welschneudorf","municipality":{"key":"07143079","name":"Welschneudorf","type":"Kreisangehörige_Gemeinde"},"district":{"key":"07143","name":"Westerwaldkreis","type":"Landkreis"},"federalState":{"key":"07","name":"Rheinland-Pfalz"}},{"name":"Tiergartenstr.","postalCode":"56412","locality":"Welschneudorf","municipality":{"key":"07143079","name":"Welschneudorf","type":"Kreisangehörige_Gemeinde"},"district":{"key":"07143","name":"Westerwaldkreis","type":"Landkreis"},"federalState":{"key":"07","name":"Rheinland-Pfalz"}},{"name":"Waldstr.","postalCode":"56412","locality":"Welschneudorf","municipality":{"key":"07143079","name":"Welschneudorf","type":"Kreisangehörige_Gemeinde"},"district":{"key":"07143","name":"Westerwaldkreis","type":"Landkreis"},"federalState":{"key":"07","name":"Rheinland-Pfalz"}},{"name":"Wiesenweg","postalCode":"56412","locality":"Welschneudorf","municipality":{"key":"07143079","name":"Welschneudorf","type":"Kreisangehörige_Gemeinde"},"district":{"key":"07143","name":"Westerwaldkreis","type":"Landkreis"},"federalState":{"key":"07","name":"Rheinland-Pfalz"}},{"name":"Wilhelmstr.","postalCode":"56412","locality":"Welschneudorf","municipality":{"key":"07143079","name":"Welschneudorf","type":"Kreisangehörige_Gemeinde"},"district":{"key":"07143","name":"Westerwaldkreis","type":"Landkreis"},"federalState":{"key":"07","name":"Rheinland-Pfalz"}},{"name":"Zum Weißen Stein","postalCode":"56412","locality":"Welschneudorf","municipality":{"key":"07143079","name":"Welschneudorf","type":"Kreisangehörige_Gemeinde"},"district":{"key":"07143","name":"Westerwaldkreis","type":"Landkreis"},"federalState":{"key":"07","name":"Rheinland-Pfalz"}},]