[{"name":"Auf der Höh","postalCode":"57629","locality":"Höchstenbach","municipality":{"key":"07143241","name":"Höchstenbach","type":"Kreisangehörige_Gemeinde"},"district":{"key":"07143","name":"Westerwaldkreis","type":"Landkreis"},"federalState":{"key":"07","name":"Rheinland-Pfalz"}},{"name":"Bergstr.","postalCode":"57629","locality":"Höchstenbach","municipality":{"key":"07143241","name":"Höchstenbach","type":"Kreisangehörige_Gemeinde"},"district":{"key":"07143","name":"Westerwaldkreis","type":"Landkreis"},"federalState":{"key":"07","name":"Rheinland-Pfalz"}},{"name":"Brückenstr.","postalCode":"57629","locality":"Höchstenbach","municipality":{"key":"07143241","name":"Höchstenbach","type":"Kreisangehörige_Gemeinde"},"district":{"key":"07143","name":"Westerwaldkreis","type":"Landkreis"},"federalState":{"key":"07","name":"Rheinland-Pfalz"}},{"name":"Frankfurter Str.","postalCode":"57629","locality":"Höchstenbach","municipality":{"key":"07143241","name":"Höchstenbach","type":"Kreisangehörige_Gemeinde"},"district":{"key":"07143","name":"Westerwaldkreis","type":"Landkreis"},"federalState":{"key":"07","name":"Rheinland-Pfalz"}},{"name":"Friedhofstr.","postalCode":"57629","locality":"Höchstenbach","municipality":{"key":"07143241","name":"Höchstenbach","type":"Kreisangehörige_Gemeinde"},"district":{"key":"07143","name":"Westerwaldkreis","type":"Landkreis"},"federalState":{"key":"07","name":"Rheinland-Pfalz"}},{"name":"Gartenweg","postalCode":"57629","locality":"Höchstenbach","municipality":{"key":"07143241","name":"Höchstenbach","type":"Kreisangehörige_Gemeinde"},"district":{"key":"07143","name":"Westerwaldkreis","type":"Landkreis"},"federalState":{"key":"07","name":"Rheinland-Pfalz"}},{"name":"Hof Geisborn","postalCode":"57629","locality":"Höchstenbach","municipality":{"key":"07143241","name":"Höchstenbach","type":"Kreisangehörige_Gemeinde"},"district":{"key":"07143","name":"Westerwaldkreis","type":"Landkreis"},"federalState":{"key":"07","name":"Rheinland-Pfalz"}},{"name":"Im Neugarten","postalCode":"57629","locality":"Höchstenbach","municipality":{"key":"07143241","name":"Höchstenbach","type":"Kreisangehörige_Gemeinde"},"district":{"key":"07143","name":"Westerwaldkreis","type":"Landkreis"},"federalState":{"key":"07","name":"Rheinland-Pfalz"}},{"name":"Im Schulgarten","postalCode":"57629","locality":"Höchstenbach","municipality":{"key":"07143241","name":"Höchstenbach","type":"Kreisangehörige_Gemeinde"},"district":{"key":"07143","name":"Westerwaldkreis","type":"Landkreis"},"federalState":{"key":"07","name":"Rheinland-Pfalz"}},{"name":"Im Weidchen","postalCode":"57629","locality":"Höchstenbach","municipality":{"key":"07143241","name":"Höchstenbach","type":"Kreisangehörige_Gemeinde"},"district":{"key":"07143","name":"Westerwaldkreis","type":"Landkreis"},"federalState":{"key":"07","name":"Rheinland-Pfalz"}},{"name":"Koblenzer Str.","postalCode":"57629","locality":"Höchstenbach","municipality":{"key":"07143241","name":"Höchstenbach","type":"Kreisangehörige_Gemeinde"},"district":{"key":"07143","name":"Westerwaldkreis","type":"Landkreis"},"federalState":{"key":"07","name":"Rheinland-Pfalz"}},{"name":"Kölner Str.","postalCode":"57629","locality":"Höchstenbach","municipality":{"key":"07143241","name":"Höchstenbach","type":"Kreisangehörige_Gemeinde"},"district":{"key":"07143","name":"Westerwaldkreis","type":"Landkreis"},"federalState":{"key":"07","name":"Rheinland-Pfalz"}},{"name":"Mittelweg","postalCode":"57629","locality":"Höchstenbach","municipality":{"key":"07143241","name":"Höchstenbach","type":"Kreisangehörige_Gemeinde"},"district":{"key":"07143","name":"Westerwaldkreis","type":"Landkreis"},"federalState":{"key":"07","name":"Rheinland-Pfalz"}},{"name":"Mühlentalweg","postalCode":"57629","locality":"Höchstenbach","municipality":{"key":"07143241","name":"Höchstenbach","type":"Kreisangehörige_Gemeinde"},"district":{"key":"07143","name":"Westerwaldkreis","type":"Landkreis"},"federalState":{"key":"07","name":"Rheinland-Pfalz"}},{"name":"Ober der Jagdwiese","postalCode":"57629","locality":"Höchstenbach","municipality":{"key":"07143241","name":"Höchstenbach","type":"Kreisangehörige_Gemeinde"},"district":{"key":"07143","name":"Westerwaldkreis","type":"Landkreis"},"federalState":{"key":"07","name":"Rheinland-Pfalz"}},{"name":"Schulweg","postalCode":"57629","locality":"Höchstenbach","municipality":{"key":"07143241","name":"Höchstenbach","type":"Kreisangehörige_Gemeinde"},"district":{"key":"07143","name":"Westerwaldkreis","type":"Landkreis"},"federalState":{"key":"07","name":"Rheinland-Pfalz"}},{"name":"Welkenbacher Str.","postalCode":"57629","locality":"Höchstenbach","municipality":{"key":"07143241","name":"Höchstenbach","type":"Kreisangehörige_Gemeinde"},"district":{"key":"07143","name":"Westerwaldkreis","type":"Landkreis"},"federalState":{"key":"07","name":"Rheinland-Pfalz"}},{"name":"Wilhelmstr.","postalCode":"57629","locality":"Höchstenbach","municipality":{"key":"07143241","name":"Höchstenbach","type":"Kreisangehörige_Gemeinde"},"district":{"key":"07143","name":"Westerwaldkreis","type":"Landkreis"},"federalState":{"key":"07","name":"Rheinland-Pfalz"}},]