[{"name":"Am Anger","postalCode":"99189","locality":"Andisleben","municipality":{"key":"16068002","name":"Andisleben","type":"Kreisangehörige_Gemeinde"},"district":{"key":"16068","name":"Sömmerda","type":"Landkreis"},"federalState":{"key":"16","name":"Thüringen"}},{"name":"Am Bauhof","postalCode":"99189","locality":"Andisleben","municipality":{"key":"16068002","name":"Andisleben","type":"Kreisangehörige_Gemeinde"},"district":{"key":"16068","name":"Sömmerda","type":"Landkreis"},"federalState":{"key":"16","name":"Thüringen"}},{"name":"Am See","postalCode":"99189","locality":"Andisleben","municipality":{"key":"16068002","name":"Andisleben","type":"Kreisangehörige_Gemeinde"},"district":{"key":"16068","name":"Sömmerda","type":"Landkreis"},"federalState":{"key":"16","name":"Thüringen"}},{"name":"Auf der Burg","postalCode":"99189","locality":"Andisleben","municipality":{"key":"16068002","name":"Andisleben","type":"Kreisangehörige_Gemeinde"},"district":{"key":"16068","name":"Sömmerda","type":"Landkreis"},"federalState":{"key":"16","name":"Thüringen"}},{"name":"August-Bebel-Str.","postalCode":"99189","locality":"Andisleben","municipality":{"key":"16068002","name":"Andisleben","type":"Kreisangehörige_Gemeinde"},"district":{"key":"16068","name":"Sömmerda","type":"Landkreis"},"federalState":{"key":"16","name":"Thüringen"}},{"name":"Backsplatz","postalCode":"99189","locality":"Andisleben","municipality":{"key":"16068002","name":"Andisleben","type":"Kreisangehörige_Gemeinde"},"district":{"key":"16068","name":"Sömmerda","type":"Landkreis"},"federalState":{"key":"16","name":"Thüringen"}},{"name":"Bahnhofstr.","postalCode":"99189","locality":"Andisleben","municipality":{"key":"16068002","name":"Andisleben","type":"Kreisangehörige_Gemeinde"},"district":{"key":"16068","name":"Sömmerda","type":"Landkreis"},"federalState":{"key":"16","name":"Thüringen"}},{"name":"Brückenstr.","postalCode":"99189","locality":"Andisleben","municipality":{"key":"16068002","name":"Andisleben","type":"Kreisangehörige_Gemeinde"},"district":{"key":"16068","name":"Sömmerda","type":"Landkreis"},"federalState":{"key":"16","name":"Thüringen"}},{"name":"Burgstr.","postalCode":"99189","locality":"Andisleben","municipality":{"key":"16068002","name":"Andisleben","type":"Kreisangehörige_Gemeinde"},"district":{"key":"16068","name":"Sömmerda","type":"Landkreis"},"federalState":{"key":"16","name":"Thüringen"}},{"name":"Carl-Schleusing-Str.","postalCode":"99610","locality":"Sömmerda","municipality":{"key":"16068051","name":"Sömmerda, Stadt","type":"Stadt"},"district":{"key":"16068","name":"Sömmerda","type":"Landkreis"},"federalState":{"key":"16","name":"Thüringen"}},{"name":"Chausseegasse","postalCode":"99610","locality":"Sömmerda","municipality":{"key":"16068051","name":"Sömmerda, Stadt","type":"Stadt"},"district":{"key":"16068","name":"Sömmerda","type":"Landkreis"},"federalState":{"key":"16","name":"Thüringen"}},{"name":"Dorfplatz","postalCode":"99189","locality":"Andisleben","municipality":{"key":"16068002","name":"Andisleben","type":"Kreisangehörige_Gemeinde"},"district":{"key":"16068","name":"Sömmerda","type":"Landkreis"},"federalState":{"key":"16","name":"Thüringen"}},{"name":"Edelmannsgasse","postalCode":"99625","locality":"Sömmerda","municipality":{"key":"16068051","name":"Sömmerda, Stadt","type":"Stadt"},"district":{"key":"16068","name":"Sömmerda","type":"Landkreis"},"federalState":{"key":"16","name":"Thüringen"}},{"name":"Eichenweg","postalCode":"99610","locality":"Sömmerda","municipality":{"key":"16068051","name":"Sömmerda, Stadt","type":"Stadt"},"district":{"key":"16068","name":"Sömmerda","type":"Landkreis"},"federalState":{"key":"16","name":"Thüringen"}},{"name":"Eichsfeld","postalCode":"99610","locality":"Sömmerda","municipality":{"key":"16068051","name":"Sömmerda, Stadt","type":"Stadt"},"district":{"key":"16068","name":"Sömmerda","type":"Landkreis"},"federalState":{"key":"16","name":"Thüringen"}},{"name":"Enge Gasse","postalCode":"99610","locality":"Sömmerda","municipality":{"key":"16068051","name":"Sömmerda, Stadt","type":"Stadt"},"district":{"key":"16068","name":"Sömmerda","type":"Landkreis"},"federalState":{"key":"16","name":"Thüringen"}},{"name":"Enzmannstr.","postalCode":"99610","locality":"Sömmerda","municipality":{"key":"16068051","name":"Sömmerda, Stadt","type":"Stadt"},"district":{"key":"16068","name":"Sömmerda","type":"Landkreis"},"federalState":{"key":"16","name":"Thüringen"}},{"name":"Erfurter Str.","postalCode":"99610","locality":"Sömmerda","municipality":{"key":"16068051","name":"Sömmerda, Stadt","type":"Stadt"},"district":{"key":"16068","name":"Sömmerda","type":"Landkreis"},"federalState":{"key":"16","name":"Thüringen"}},{"name":"Erhardtstr.","postalCode":"99610","locality":"Sömmerda","municipality":{"key":"16068051","name":"Sömmerda, Stadt","type":"Stadt"},"district":{"key":"16068","name":"Sömmerda","type":"Landkreis"},"federalState":{"key":"16","name":"Thüringen"}},{"name":"Erlenweg","postalCode":"99610","locality":"Sömmerda","municipality":{"key":"16068051","name":"Sömmerda, Stadt","type":"Stadt"},"district":{"key":"16068","name":"Sömmerda","type":"Landkreis"},"federalState":{"key":"16","name":"Thüringen"}},{"name":"Ernst-Thälmann-Str.","postalCode":"99610","locality":"Sömmerda","municipality":{"key":"16068051","name":"Sömmerda, Stadt","type":"Stadt"},"district":{"key":"16068","name":"Sömmerda","type":"Landkreis"},"federalState":{"key":"16","name":"Thüringen"}},{"name":"Eschenweg","postalCode":"99610","locality":"Sömmerda","municipality":{"key":"16068051","name":"Sömmerda, Stadt","type":"Stadt"},"district":{"key":"16068","name":"Sömmerda","type":"Landkreis"},"federalState":{"key":"16","name":"Thüringen"}},{"name":"Etzlebener Str.","postalCode":"99625","locality":"Sömmerda","municipality":{"key":"16068051","name":"Sömmerda, Stadt","type":"Stadt"},"district":{"key":"16068","name":"Sömmerda","type":"Landkreis"},"federalState":{"key":"16","name":"Thüringen"}},{"name":"Friedhofsgasse","postalCode":"99189","locality":"Andisleben","municipality":{"key":"16068002","name":"Andisleben","type":"Kreisangehörige_Gemeinde"},"district":{"key":"16068","name":"Sömmerda","type":"Landkreis"},"federalState":{"key":"16","name":"Thüringen"}},{"name":"Gartenstr.","postalCode":"99189","locality":"Andisleben","municipality":{"key":"16068002","name":"Andisleben","type":"Kreisangehörige_Gemeinde"},"district":{"key":"16068","name":"Sömmerda","type":"Landkreis"},"federalState":{"key":"16","name":"Thüringen"}},{"name":"Gebeseer Str.","postalCode":"99189","locality":"Andisleben","municipality":{"key":"16068002","name":"Andisleben","type":"Kreisangehörige_Gemeinde"},"district":{"key":"16068","name":"Sömmerda","type":"Landkreis"},"federalState":{"key":"16","name":"Thüringen"}},{"name":"Heinrich-Heine-Str.","postalCode":"99189","locality":"Andisleben","municipality":{"key":"16068002","name":"Andisleben","type":"Kreisangehörige_Gemeinde"},"district":{"key":"16068","name":"Sömmerda","type":"Landkreis"},"federalState":{"key":"16","name":"Thüringen"}},{"name":"In der Wettel","postalCode":"99189","locality":"Andisleben","municipality":{"key":"16068002","name":"Andisleben","type":"Kreisangehörige_Gemeinde"},"district":{"key":"16068","name":"Sömmerda","type":"Landkreis"},"federalState":{"key":"16","name":"Thüringen"}},{"name":"Jahnstr.","postalCode":"99610","locality":"Sömmerda","municipality":{"key":"16068051","name":"Sömmerda, Stadt","type":"Stadt"},"district":{"key":"16068","name":"Sömmerda","type":"Landkreis"},"federalState":{"key":"16","name":"Thüringen"}},{"name":"Kirchstr.","postalCode":"99189","locality":"Andisleben","municipality":{"key":"16068002","name":"Andisleben","type":"Kreisangehörige_Gemeinde"},"district":{"key":"16068","name":"Sömmerda","type":"Landkreis"},"federalState":{"key":"16","name":"Thüringen"}},{"name":"Kurze Wiesenstr.","postalCode":"99189","locality":"Andisleben","municipality":{"key":"16068002","name":"Andisleben","type":"Kreisangehörige_Gemeinde"},"district":{"key":"16068","name":"Sömmerda","type":"Landkreis"},"federalState":{"key":"16","name":"Thüringen"}},{"name":"Lange Str.","postalCode":"99189","locality":"Andisleben","municipality":{"key":"16068002","name":"Andisleben","type":"Kreisangehörige_Gemeinde"},"district":{"key":"16068","name":"Sömmerda","type":"Landkreis"},"federalState":{"key":"16","name":"Thüringen"}},{"name":"Mühlgasse","postalCode":"99189","locality":"Andisleben","municipality":{"key":"16068002","name":"Andisleben","type":"Kreisangehörige_Gemeinde"},"district":{"key":"16068","name":"Sömmerda","type":"Landkreis"},"federalState":{"key":"16","name":"Thüringen"}},{"name":"Nebengasse","postalCode":"99610","locality":"Sömmerda","municipality":{"key":"16068051","name":"Sömmerda, Stadt","type":"Stadt"},"district":{"key":"16068","name":"Sömmerda","type":"Landkreis"},"federalState":{"key":"16","name":"Thüringen"}},{"name":"Neutorstr.","postalCode":"99610","locality":"Sömmerda","municipality":{"key":"16068051","name":"Sömmerda, Stadt","type":"Stadt"},"district":{"key":"16068","name":"Sömmerda","type":"Landkreis"},"federalState":{"key":"16","name":"Thüringen"}},{"name":"Nicolaus-von-Dreyse-Str.","postalCode":"99610","locality":"Sömmerda","municipality":{"key":"16068051","name":"Sömmerda, Stadt","type":"Stadt"},"district":{"key":"16068","name":"Sömmerda","type":"Landkreis"},"federalState":{"key":"16","name":"Thüringen"}},{"name":"Obere Kirchgasse","postalCode":"99610","locality":"Sömmerda","municipality":{"key":"16068051","name":"Sömmerda, Stadt","type":"Stadt"},"district":{"key":"16068","name":"Sömmerda","type":"Landkreis"},"federalState":{"key":"16","name":"Thüringen"}},{"name":"Offenhainer Str.","postalCode":"99610","locality":"Sömmerda","municipality":{"key":"16068051","name":"Sömmerda, Stadt","type":"Stadt"},"district":{"key":"16068","name":"Sömmerda","type":"Landkreis"},"federalState":{"key":"16","name":"Thüringen"}},{"name":"Ortsumfahrung Sömmerda","postalCode":"99610","locality":"Sömmerda","municipality":{"key":"16068051","name":"Sömmerda, Stadt","type":"Stadt"},"district":{"key":"16068","name":"Sömmerda","type":"Landkreis"},"federalState":{"key":"16","name":"Thüringen"}},{"name":"Otto-Jessing-Str.","postalCode":"99610","locality":"Sömmerda","municipality":{"key":"16068051","name":"Sömmerda, Stadt","type":"Stadt"},"district":{"key":"16068","name":"Sömmerda","type":"Landkreis"},"federalState":{"key":"16","name":"Thüringen"}},{"name":"Pestalozzistr.","postalCode":"99189","locality":"Andisleben","municipality":{"key":"16068002","name":"Andisleben","type":"Kreisangehörige_Gemeinde"},"district":{"key":"16068","name":"Sömmerda","type":"Landkreis"},"federalState":{"key":"16","name":"Thüringen"}},{"name":"Quergasse","postalCode":"99610","locality":"Sömmerda","municipality":{"key":"16068051","name":"Sömmerda, Stadt","type":"Stadt"},"district":{"key":"16068","name":"Sömmerda","type":"Landkreis"},"federalState":{"key":"16","name":"Thüringen"}},{"name":"Querstr.","postalCode":"99610","locality":"Sömmerda","municipality":{"key":"16068051","name":"Sömmerda, Stadt","type":"Stadt"},"district":{"key":"16068","name":"Sömmerda","type":"Landkreis"},"federalState":{"key":"16","name":"Thüringen"}},{"name":"Querweg","postalCode":"99610","locality":"Sömmerda","municipality":{"key":"16068051","name":"Sömmerda, Stadt","type":"Stadt"},"district":{"key":"16068","name":"Sömmerda","type":"Landkreis"},"federalState":{"key":"16","name":"Thüringen"}},{"name":"Ringlebener Weg","postalCode":"99189","locality":"Andisleben","municipality":{"key":"16068002","name":"Andisleben","type":"Kreisangehörige_Gemeinde"},"district":{"key":"16068","name":"Sömmerda","type":"Landkreis"},"federalState":{"key":"16","name":"Thüringen"}},{"name":"Sackgasse","postalCode":"99610","locality":"Sömmerda","municipality":{"key":"16068051","name":"Sömmerda, Stadt","type":"Stadt"},"district":{"key":"16068","name":"Sömmerda","type":"Landkreis"},"federalState":{"key":"16","name":"Thüringen"}},{"name":"Salzmannstr.","postalCode":"99610","locality":"Sömmerda","municipality":{"key":"16068051","name":"Sömmerda, Stadt","type":"Stadt"},"district":{"key":"16068","name":"Sömmerda","type":"Landkreis"},"federalState":{"key":"16","name":"Thüringen"}},{"name":"Schallenburger Str.","postalCode":"99610","locality":"Sömmerda","municipality":{"key":"16068051","name":"Sömmerda, Stadt","type":"Stadt"},"district":{"key":"16068","name":"Sömmerda","type":"Landkreis"},"federalState":{"key":"16","name":"Thüringen"}},{"name":"Schenkgasse","postalCode":"99625","locality":"Sömmerda","municipality":{"key":"16068051","name":"Sömmerda, Stadt","type":"Stadt"},"district":{"key":"16068","name":"Sömmerda","type":"Landkreis"},"federalState":{"key":"16","name":"Thüringen"}},{"name":"Schenkplatz","postalCode":"99610","locality":"Sömmerda","municipality":{"key":"16068051","name":"Sömmerda, Stadt","type":"Stadt"},"district":{"key":"16068","name":"Sömmerda","type":"Landkreis"},"federalState":{"key":"16","name":"Thüringen"}},{"name":"Scherndorfer Weg","postalCode":"99610","locality":"Sömmerda","municipality":{"key":"16068051","name":"Sömmerda, Stadt","type":"Stadt"},"district":{"key":"16068","name":"Sömmerda","type":"Landkreis"},"federalState":{"key":"16","name":"Thüringen"}},{"name":"Schillerstr.","postalCode":"99610","locality":"Sömmerda","municipality":{"key":"16068051","name":"Sömmerda, Stadt","type":"Stadt"},"district":{"key":"16068","name":"Sömmerda","type":"Landkreis"},"federalState":{"key":"16","name":"Thüringen"}},{"name":"Schloßvippacher Str.","postalCode":"99610","locality":"Sömmerda","municipality":{"key":"16068051","name":"Sömmerda, Stadt","type":"Stadt"},"district":{"key":"16068","name":"Sömmerda","type":"Landkreis"},"federalState":{"key":"16","name":"Thüringen"}},{"name":"Sebastian-Bach-Str.","postalCode":"99610","locality":"Sömmerda","municipality":{"key":"16068051","name":"Sömmerda, Stadt","type":"Stadt"},"district":{"key":"16068","name":"Sömmerda","type":"Landkreis"},"federalState":{"key":"16","name":"Thüringen"}},{"name":"Siedlungsstr.","postalCode":"99610","locality":"Sömmerda","municipality":{"key":"16068051","name":"Sömmerda, Stadt","type":"Stadt"},"district":{"key":"16068","name":"Sömmerda","type":"Landkreis"},"federalState":{"key":"16","name":"Thüringen"}},{"name":"Sömmerdaer Str.","postalCode":"99610","locality":"Sömmerda","municipality":{"key":"16068051","name":"Sömmerda, Stadt","type":"Stadt"},"district":{"key":"16068","name":"Sömmerda","type":"Landkreis"},"federalState":{"key":"16","name":"Thüringen"}},{"name":"Sömmerdaer Weg","postalCode":"99610","locality":"Sömmerda","municipality":{"key":"16068051","name":"Sömmerda, Stadt","type":"Stadt"},"district":{"key":"16068","name":"Sömmerda","type":"Landkreis"},"federalState":{"key":"16","name":"Thüringen"}},{"name":"Sportplatz","postalCode":"99610","locality":"Sömmerda","municipality":{"key":"16068051","name":"Sömmerda, Stadt","type":"Stadt"},"district":{"key":"16068","name":"Sömmerda","type":"Landkreis"},"federalState":{"key":"16","name":"Thüringen"}},{"name":"Stadtpark","postalCode":"99610","locality":"Sömmerda","municipality":{"key":"16068051","name":"Sömmerda, Stadt","type":"Stadt"},"district":{"key":"16068","name":"Sömmerda","type":"Landkreis"},"federalState":{"key":"16","name":"Thüringen"}},{"name":"Stadtring","postalCode":"99610","locality":"Sömmerda","municipality":{"key":"16068051","name":"Sömmerda, Stadt","type":"Stadt"},"district":{"key":"16068","name":"Sömmerda","type":"Landkreis"},"federalState":{"key":"16","name":"Thüringen"}},{"name":"Steinstr.","postalCode":"99610","locality":"Sömmerda","municipality":{"key":"16068051","name":"Sömmerda, Stadt","type":"Stadt"},"district":{"key":"16068","name":"Sömmerda","type":"Landkreis"},"federalState":{"key":"16","name":"Thüringen"}},{"name":"Str. der Einheit","postalCode":"99610","locality":"Sömmerda","municipality":{"key":"16068051","name":"Sömmerda, Stadt","type":"Stadt"},"district":{"key":"16068","name":"Sömmerda","type":"Landkreis"},"federalState":{"key":"16","name":"Thüringen"}},{"name":"Str. des Aufbaus","postalCode":"99610","locality":"Sömmerda","municipality":{"key":"16068051","name":"Sömmerda, Stadt","type":"Stadt"},"district":{"key":"16068","name":"Sömmerda","type":"Landkreis"},"federalState":{"key":"16","name":"Thüringen"}},{"name":"Str. des Friedens","postalCode":"99610","locality":"Sömmerda","municipality":{"key":"16068051","name":"Sömmerda, Stadt","type":"Stadt"},"district":{"key":"16068","name":"Sömmerda","type":"Landkreis"},"federalState":{"key":"16","name":"Thüringen"}},{"name":"Str. nach Kölleda","postalCode":"99610","locality":"Sömmerda","municipality":{"key":"16068051","name":"Sömmerda, Stadt","type":"Stadt"},"district":{"key":"16068","name":"Sömmerda","type":"Landkreis"},"federalState":{"key":"16","name":"Thüringen"}},{"name":"Talsperre Frohndorf","postalCode":"99610","locality":"Sömmerda","municipality":{"key":"16068051","name":"Sömmerda, Stadt","type":"Stadt"},"district":{"key":"16068","name":"Sömmerda","type":"Landkreis"},"federalState":{"key":"16","name":"Thüringen"}},{"name":"Thälmannstr.","postalCode":"99610","locality":"Sömmerda","municipality":{"key":"16068051","name":"Sömmerda, Stadt","type":"Stadt"},"district":{"key":"16068","name":"Sömmerda","type":"Landkreis"},"federalState":{"key":"16","name":"Thüringen"}},{"name":"Thomas-Mann-Str.","postalCode":"99610","locality":"Sömmerda","municipality":{"key":"16068051","name":"Sömmerda, Stadt","type":"Stadt"},"district":{"key":"16068","name":"Sömmerda","type":"Landkreis"},"federalState":{"key":"16","name":"Thüringen"}},{"name":"Thomas-Müntzer-Str.","postalCode":"99610","locality":"Sömmerda","municipality":{"key":"16068051","name":"Sömmerda, Stadt","type":"Stadt"},"district":{"key":"16068","name":"Sömmerda","type":"Landkreis"},"federalState":{"key":"16","name":"Thüringen"}},{"name":"Uhlandstr.","postalCode":"99610","locality":"Sömmerda","municipality":{"key":"16068051","name":"Sömmerda, Stadt","type":"Stadt"},"district":{"key":"16068","name":"Sömmerda","type":"Landkreis"},"federalState":{"key":"16","name":"Thüringen"}},{"name":"Ulmenweg","postalCode":"99610","locality":"Sömmerda","municipality":{"key":"16068051","name":"Sömmerda, Stadt","type":"Stadt"},"district":{"key":"16068","name":"Sömmerda","type":"Landkreis"},"federalState":{"key":"16","name":"Thüringen"}},{"name":"Untere Brückenstr.","postalCode":"99610","locality":"Sömmerda","municipality":{"key":"16068051","name":"Sömmerda, Stadt","type":"Stadt"},"district":{"key":"16068","name":"Sömmerda","type":"Landkreis"},"federalState":{"key":"16","name":"Thüringen"}},{"name":"Untere Kirchgasse","postalCode":"99610","locality":"Sömmerda","municipality":{"key":"16068051","name":"Sömmerda, Stadt","type":"Stadt"},"district":{"key":"16068","name":"Sömmerda","type":"Landkreis"},"federalState":{"key":"16","name":"Thüringen"}},{"name":"Uthmannstr.","postalCode":"99610","locality":"Sömmerda","municipality":{"key":"16068051","name":"Sömmerda, Stadt","type":"Stadt"},"district":{"key":"16068","name":"Sömmerda","type":"Landkreis"},"federalState":{"key":"16","name":"Thüringen"}},{"name":"Vor dem See","postalCode":"99189","locality":"Andisleben","municipality":{"key":"16068002","name":"Andisleben","type":"Kreisangehörige_Gemeinde"},"district":{"key":"16068","name":"Sömmerda","type":"Landkreis"},"federalState":{"key":"16","name":"Thüringen"}},{"name":"Wachtelstr.","postalCode":"99610","locality":"Sömmerda","municipality":{"key":"16068051","name":"Sömmerda, Stadt","type":"Stadt"},"district":{"key":"16068","name":"Sömmerda","type":"Landkreis"},"federalState":{"key":"16","name":"Thüringen"}},{"name":"Wallgasse","postalCode":"99610","locality":"Sömmerda","municipality":{"key":"16068051","name":"Sömmerda, Stadt","type":"Stadt"},"district":{"key":"16068","name":"Sömmerda","type":"Landkreis"},"federalState":{"key":"16","name":"Thüringen"}},{"name":"Walter-Rathenau-Str.","postalCode":"99610","locality":"Sömmerda","municipality":{"key":"16068051","name":"Sömmerda, Stadt","type":"Stadt"},"district":{"key":"16068","name":"Sömmerda","type":"Landkreis"},"federalState":{"key":"16","name":"Thüringen"}},{"name":"Weidenweg","postalCode":"99610","locality":"Sömmerda","municipality":{"key":"16068051","name":"Sömmerda, Stadt","type":"Stadt"},"district":{"key":"16068","name":"Sömmerda","type":"Landkreis"},"federalState":{"key":"16","name":"Thüringen"}},{"name":"Weißenburg","postalCode":"99610","locality":"Sömmerda","municipality":{"key":"16068051","name":"Sömmerda, Stadt","type":"Stadt"},"district":{"key":"16068","name":"Sömmerda","type":"Landkreis"},"federalState":{"key":"16","name":"Thüringen"}},{"name":"Weißenseer Str.","postalCode":"99610","locality":"Sömmerda","municipality":{"key":"16068051","name":"Sömmerda, Stadt","type":"Stadt"},"district":{"key":"16068","name":"Sömmerda","type":"Landkreis"},"federalState":{"key":"16","name":"Thüringen"}},{"name":"Weißenseer Weg","postalCode":"99610","locality":"Sömmerda","municipality":{"key":"16068051","name":"Sömmerda, Stadt","type":"Stadt"},"district":{"key":"16068","name":"Sömmerda","type":"Landkreis"},"federalState":{"key":"16","name":"Thüringen"}},{"name":"Wenigensömmersche Str.","postalCode":"99610","locality":"Sömmerda","municipality":{"key":"16068051","name":"Sömmerda, Stadt","type":"Stadt"},"district":{"key":"16068","name":"Sömmerda","type":"Landkreis"},"federalState":{"key":"16","name":"Thüringen"}},{"name":"Werner-Seelenbinder-Str.","postalCode":"99610","locality":"Sömmerda","municipality":{"key":"16068051","name":"Sömmerda, Stadt","type":"Stadt"},"district":{"key":"16068","name":"Sömmerda","type":"Landkreis"},"federalState":{"key":"16","name":"Thüringen"}},{"name":"Werrchenstr.","postalCode":"99610","locality":"Sömmerda","municipality":{"key":"16068051","name":"Sömmerda, Stadt","type":"Stadt"},"district":{"key":"16068","name":"Sömmerda","type":"Landkreis"},"federalState":{"key":"16","name":"Thüringen"}},{"name":"Wielandstr.","postalCode":"99610","locality":"Sömmerda","municipality":{"key":"16068051","name":"Sömmerda, Stadt","type":"Stadt"},"district":{"key":"16068","name":"Sömmerda","type":"Landkreis"},"federalState":{"key":"16","name":"Thüringen"}},{"name":"Wiesenstr.","postalCode":"99625","locality":"Sömmerda","municipality":{"key":"16068051","name":"Sömmerda, Stadt","type":"Stadt"},"district":{"key":"16068","name":"Sömmerda","type":"Landkreis"},"federalState":{"key":"16","name":"Thüringen"}},{"name":"Wilhelm-Busch-Str.","postalCode":"99610","locality":"Sömmerda","municipality":{"key":"16068051","name":"Sömmerda, Stadt","type":"Stadt"},"district":{"key":"16068","name":"Sömmerda","type":"Landkreis"},"federalState":{"key":"16","name":"Thüringen"}},{"name":"Zum Bahnhof","postalCode":"99610","locality":"Sömmerda","municipality":{"key":"16068051","name":"Sömmerda, Stadt","type":"Stadt"},"district":{"key":"16068","name":"Sömmerda","type":"Landkreis"},"federalState":{"key":"16","name":"Thüringen"}},{"name":"Zum Plan","postalCode":"99625","locality":"Sömmerda","municipality":{"key":"16068051","name":"Sömmerda, Stadt","type":"Stadt"},"district":{"key":"16068","name":"Sömmerda","type":"Landkreis"},"federalState":{"key":"16","name":"Thüringen"}},{"name":"Zwirnsgasse","postalCode":"99610","locality":"Sömmerda","municipality":{"key":"16068051","name":"Sömmerda, Stadt","type":"Stadt"},"district":{"key":"16068","name":"Sömmerda","type":"Landkreis"},"federalState":{"key":"16","name":"Thüringen"}},]