[{"name":"3D-Parcours","postalCode":"98547","locality":"Christes","municipality":{"key":"16066015","name":"Christes","type":"Kreisangehörige_Gemeinde"},"district":{"key":"16066","name":"Schmalkalden-Meiningen","type":"Landkreis"},"federalState":{"key":"16","name":"Thüringen"}},{"name":"Dolmarstr.","postalCode":"98547","locality":"Christes","municipality":{"key":"16066015","name":"Christes","type":"Kreisangehörige_Gemeinde"},"district":{"key":"16066","name":"Schmalkalden-Meiningen","type":"Landkreis"},"federalState":{"key":"16","name":"Thüringen"}},{"name":"Meininger Str.","postalCode":"98547","locality":"Christes","municipality":{"key":"16066015","name":"Christes","type":"Kreisangehörige_Gemeinde"},"district":{"key":"16066","name":"Schmalkalden-Meiningen","type":"Landkreis"},"federalState":{"key":"16","name":"Thüringen"}},{"name":"Metzelser Str.","postalCode":"98547","locality":"Christes","municipality":{"key":"16066015","name":"Christes","type":"Kreisangehörige_Gemeinde"},"district":{"key":"16066","name":"Schmalkalden-Meiningen","type":"Landkreis"},"federalState":{"key":"16","name":"Thüringen"}},{"name":"Schmalkalder Str.","postalCode":"98547","locality":"Christes","municipality":{"key":"16066015","name":"Christes","type":"Kreisangehörige_Gemeinde"},"district":{"key":"16066","name":"Schmalkalden-Meiningen","type":"Landkreis"},"federalState":{"key":"16","name":"Thüringen"}},{"name":"Schwarzaer Str.","postalCode":"98547","locality":"Christes","municipality":{"key":"16066015","name":"Christes","type":"Kreisangehörige_Gemeinde"},"district":{"key":"16066","name":"Schmalkalden-Meiningen","type":"Landkreis"},"federalState":{"key":"16","name":"Thüringen"}},{"name":"Sonnenweg","postalCode":"98547","locality":"Christes","municipality":{"key":"16066015","name":"Christes","type":"Kreisangehörige_Gemeinde"},"district":{"key":"16066","name":"Schmalkalden-Meiningen","type":"Landkreis"},"federalState":{"key":"16","name":"Thüringen"}},{"name":"Viernauer Str.","postalCode":"98547","locality":"Christes","municipality":{"key":"16066015","name":"Christes","type":"Kreisangehörige_Gemeinde"},"district":{"key":"16066","name":"Schmalkalden-Meiningen","type":"Landkreis"},"federalState":{"key":"16","name":"Thüringen"}},{"name":"Wirtsgasse","postalCode":"98547","locality":"Christes","municipality":{"key":"16066015","name":"Christes","type":"Kreisangehörige_Gemeinde"},"district":{"key":"16066","name":"Schmalkalden-Meiningen","type":"Landkreis"},"federalState":{"key":"16","name":"Thüringen"}},]