[{"name":"Am Landturm","postalCode":"91605","locality":"Gallmersgarten","municipality":{"key":"09575124","name":"Gallmersgarten","type":"Kreisangehörige_Gemeinde"},"district":{"key":"09575","name":"Neustadt a.d.Aisch-Bad Windsheim","type":"Landkreis"},"federalState":{"key":"09","name":"Bayern"}},{"name":"Am Tiefenbach","postalCode":"91605","locality":"Gallmersgarten","municipality":{"key":"09575124","name":"Gallmersgarten","type":"Kreisangehörige_Gemeinde"},"district":{"key":"09575","name":"Neustadt a.d.Aisch-Bad Windsheim","type":"Landkreis"},"federalState":{"key":"09","name":"Bayern"}},{"name":"Am Wirtsbuck","postalCode":"91605","locality":"Gallmersgarten","municipality":{"key":"09575124","name":"Gallmersgarten","type":"Kreisangehörige_Gemeinde"},"district":{"key":"09575","name":"Neustadt a.d.Aisch-Bad Windsheim","type":"Landkreis"},"federalState":{"key":"09","name":"Bayern"}},{"name":"An der Schule","postalCode":"91605","locality":"Gallmersgarten","municipality":{"key":"09575124","name":"Gallmersgarten","type":"Kreisangehörige_Gemeinde"},"district":{"key":"09575","name":"Neustadt a.d.Aisch-Bad Windsheim","type":"Landkreis"},"federalState":{"key":"09","name":"Bayern"}},{"name":"Badersbuck","postalCode":"91605","locality":"Gallmersgarten","municipality":{"key":"09575124","name":"Gallmersgarten","type":"Kreisangehörige_Gemeinde"},"district":{"key":"09575","name":"Neustadt a.d.Aisch-Bad Windsheim","type":"Landkreis"},"federalState":{"key":"09","name":"Bayern"}},{"name":"Bahnhofstr.","postalCode":"91605","locality":"Gallmersgarten","municipality":{"key":"09575124","name":"Gallmersgarten","type":"Kreisangehörige_Gemeinde"},"district":{"key":"09575","name":"Neustadt a.d.Aisch-Bad Windsheim","type":"Landkreis"},"federalState":{"key":"09","name":"Bayern"}},{"name":"Bergstr.","postalCode":"91605","locality":"Gallmersgarten","municipality":{"key":"09575124","name":"Gallmersgarten","type":"Kreisangehörige_Gemeinde"},"district":{"key":"09575","name":"Neustadt a.d.Aisch-Bad Windsheim","type":"Landkreis"},"federalState":{"key":"09","name":"Bayern"}},{"name":"Blumenstr.","postalCode":"91605","locality":"Gallmersgarten","municipality":{"key":"09575124","name":"Gallmersgarten","type":"Kreisangehörige_Gemeinde"},"district":{"key":"09575","name":"Neustadt a.d.Aisch-Bad Windsheim","type":"Landkreis"},"federalState":{"key":"09","name":"Bayern"}},{"name":"Brechhausstr.","postalCode":"91605","locality":"Gallmersgarten","municipality":{"key":"09575124","name":"Gallmersgarten","type":"Kreisangehörige_Gemeinde"},"district":{"key":"09575","name":"Neustadt a.d.Aisch-Bad Windsheim","type":"Landkreis"},"federalState":{"key":"09","name":"Bayern"}},{"name":"Buchheimer Weg","postalCode":"91605","locality":"Gallmersgarten","municipality":{"key":"09575124","name":"Gallmersgarten","type":"Kreisangehörige_Gemeinde"},"district":{"key":"09575","name":"Neustadt a.d.Aisch-Bad Windsheim","type":"Landkreis"},"federalState":{"key":"09","name":"Bayern"}},{"name":"Dorfring","postalCode":"91605","locality":"Gallmersgarten","municipality":{"key":"09575124","name":"Gallmersgarten","type":"Kreisangehörige_Gemeinde"},"district":{"key":"09575","name":"Neustadt a.d.Aisch-Bad Windsheim","type":"Landkreis"},"federalState":{"key":"09","name":"Bayern"}},{"name":"Dorfstr.","postalCode":"91605","locality":"Gallmersgarten","municipality":{"key":"09575124","name":"Gallmersgarten","type":"Kreisangehörige_Gemeinde"},"district":{"key":"09575","name":"Neustadt a.d.Aisch-Bad Windsheim","type":"Landkreis"},"federalState":{"key":"09","name":"Bayern"}},{"name":"Ermetzhofer Str.","postalCode":"91605","locality":"Gallmersgarten","municipality":{"key":"09575124","name":"Gallmersgarten","type":"Kreisangehörige_Gemeinde"},"district":{"key":"09575","name":"Neustadt a.d.Aisch-Bad Windsheim","type":"Landkreis"},"federalState":{"key":"09","name":"Bayern"}},{"name":"Flurstr.","postalCode":"91605","locality":"Gallmersgarten","municipality":{"key":"09575124","name":"Gallmersgarten","type":"Kreisangehörige_Gemeinde"},"district":{"key":"09575","name":"Neustadt a.d.Aisch-Bad Windsheim","type":"Landkreis"},"federalState":{"key":"09","name":"Bayern"}},{"name":"Gartenstr.","postalCode":"91605","locality":"Gallmersgarten","municipality":{"key":"09575124","name":"Gallmersgarten","type":"Kreisangehörige_Gemeinde"},"district":{"key":"09575","name":"Neustadt a.d.Aisch-Bad Windsheim","type":"Landkreis"},"federalState":{"key":"09","name":"Bayern"}},{"name":"Gartenweg","postalCode":"91605","locality":"Gallmersgarten","municipality":{"key":"09575124","name":"Gallmersgarten","type":"Kreisangehörige_Gemeinde"},"district":{"key":"09575","name":"Neustadt a.d.Aisch-Bad Windsheim","type":"Landkreis"},"federalState":{"key":"09","name":"Bayern"}},{"name":"Hauptstr.","postalCode":"91605","locality":"Gallmersgarten","municipality":{"key":"09575124","name":"Gallmersgarten","type":"Kreisangehörige_Gemeinde"},"district":{"key":"09575","name":"Neustadt a.d.Aisch-Bad Windsheim","type":"Landkreis"},"federalState":{"key":"09","name":"Bayern"}},{"name":"Herrengasse","postalCode":"91605","locality":"Gallmersgarten","municipality":{"key":"09575124","name":"Gallmersgarten","type":"Kreisangehörige_Gemeinde"},"district":{"key":"09575","name":"Neustadt a.d.Aisch-Bad Windsheim","type":"Landkreis"},"federalState":{"key":"09","name":"Bayern"}},{"name":"Hirtenbuck","postalCode":"91605","locality":"Gallmersgarten","municipality":{"key":"09575124","name":"Gallmersgarten","type":"Kreisangehörige_Gemeinde"},"district":{"key":"09575","name":"Neustadt a.d.Aisch-Bad Windsheim","type":"Landkreis"},"federalState":{"key":"09","name":"Bayern"}},{"name":"Hirtenweg","postalCode":"91605","locality":"Gallmersgarten","municipality":{"key":"09575124","name":"Gallmersgarten","type":"Kreisangehörige_Gemeinde"},"district":{"key":"09575","name":"Neustadt a.d.Aisch-Bad Windsheim","type":"Landkreis"},"federalState":{"key":"09","name":"Bayern"}},{"name":"Hochäckerstr.","postalCode":"91605","locality":"Gallmersgarten","municipality":{"key":"09575124","name":"Gallmersgarten","type":"Kreisangehörige_Gemeinde"},"district":{"key":"09575","name":"Neustadt a.d.Aisch-Bad Windsheim","type":"Landkreis"},"federalState":{"key":"09","name":"Bayern"}},{"name":"Höhenweg","postalCode":"91605","locality":"Gallmersgarten","municipality":{"key":"09575124","name":"Gallmersgarten","type":"Kreisangehörige_Gemeinde"},"district":{"key":"09575","name":"Neustadt a.d.Aisch-Bad Windsheim","type":"Landkreis"},"federalState":{"key":"09","name":"Bayern"}},{"name":"Kirchplatz","postalCode":"91605","locality":"Gallmersgarten","municipality":{"key":"09575124","name":"Gallmersgarten","type":"Kreisangehörige_Gemeinde"},"district":{"key":"09575","name":"Neustadt a.d.Aisch-Bad Windsheim","type":"Landkreis"},"federalState":{"key":"09","name":"Bayern"}},{"name":"Lindenweg","postalCode":"91605","locality":"Gallmersgarten","municipality":{"key":"09575124","name":"Gallmersgarten","type":"Kreisangehörige_Gemeinde"},"district":{"key":"09575","name":"Neustadt a.d.Aisch-Bad Windsheim","type":"Landkreis"},"federalState":{"key":"09","name":"Bayern"}},{"name":"Lohrweg","postalCode":"91605","locality":"Gallmersgarten","municipality":{"key":"09575124","name":"Gallmersgarten","type":"Kreisangehörige_Gemeinde"},"district":{"key":"09575","name":"Neustadt a.d.Aisch-Bad Windsheim","type":"Landkreis"},"federalState":{"key":"09","name":"Bayern"}},{"name":"Mörlbacher Str.","postalCode":"91605","locality":"Gallmersgarten","municipality":{"key":"09575124","name":"Gallmersgarten","type":"Kreisangehörige_Gemeinde"},"district":{"key":"09575","name":"Neustadt a.d.Aisch-Bad Windsheim","type":"Landkreis"},"federalState":{"key":"09","name":"Bayern"}},{"name":"Mühlbuck","postalCode":"91605","locality":"Gallmersgarten","municipality":{"key":"09575124","name":"Gallmersgarten","type":"Kreisangehörige_Gemeinde"},"district":{"key":"09575","name":"Neustadt a.d.Aisch-Bad Windsheim","type":"Landkreis"},"federalState":{"key":"09","name":"Bayern"}},{"name":"Mühlweg","postalCode":"91605","locality":"Gallmersgarten","municipality":{"key":"09575124","name":"Gallmersgarten","type":"Kreisangehörige_Gemeinde"},"district":{"key":"09575","name":"Neustadt a.d.Aisch-Bad Windsheim","type":"Landkreis"},"federalState":{"key":"09","name":"Bayern"}},{"name":"Riedweg","postalCode":"91605","locality":"Gallmersgarten","municipality":{"key":"09575124","name":"Gallmersgarten","type":"Kreisangehörige_Gemeinde"},"district":{"key":"09575","name":"Neustadt a.d.Aisch-Bad Windsheim","type":"Landkreis"},"federalState":{"key":"09","name":"Bayern"}},{"name":"Ringstr.","postalCode":"91605","locality":"Gallmersgarten","municipality":{"key":"09575124","name":"Gallmersgarten","type":"Kreisangehörige_Gemeinde"},"district":{"key":"09575","name":"Neustadt a.d.Aisch-Bad Windsheim","type":"Landkreis"},"federalState":{"key":"09","name":"Bayern"}},{"name":"Schmiedsgasse","postalCode":"91605","locality":"Gallmersgarten","municipality":{"key":"09575124","name":"Gallmersgarten","type":"Kreisangehörige_Gemeinde"},"district":{"key":"09575","name":"Neustadt a.d.Aisch-Bad Windsheim","type":"Landkreis"},"federalState":{"key":"09","name":"Bayern"}},{"name":"Schulstr.","postalCode":"91605","locality":"Gallmersgarten","municipality":{"key":"09575124","name":"Gallmersgarten","type":"Kreisangehörige_Gemeinde"},"district":{"key":"09575","name":"Neustadt a.d.Aisch-Bad Windsheim","type":"Landkreis"},"federalState":{"key":"09","name":"Bayern"}},{"name":"Wassergasse","postalCode":"91605","locality":"Gallmersgarten","municipality":{"key":"09575124","name":"Gallmersgarten","type":"Kreisangehörige_Gemeinde"},"district":{"key":"09575","name":"Neustadt a.d.Aisch-Bad Windsheim","type":"Landkreis"},"federalState":{"key":"09","name":"Bayern"}},{"name":"Weedgasse","postalCode":"91605","locality":"Gallmersgarten","municipality":{"key":"09575124","name":"Gallmersgarten","type":"Kreisangehörige_Gemeinde"},"district":{"key":"09575","name":"Neustadt a.d.Aisch-Bad Windsheim","type":"Landkreis"},"federalState":{"key":"09","name":"Bayern"}},{"name":"Weingartenfeldweg","postalCode":"91605","locality":"Gallmersgarten","municipality":{"key":"09575124","name":"Gallmersgarten","type":"Kreisangehörige_Gemeinde"},"district":{"key":"09575","name":"Neustadt a.d.Aisch-Bad Windsheim","type":"Landkreis"},"federalState":{"key":"09","name":"Bayern"}},{"name":"Weingartenweg","postalCode":"91605","locality":"Gallmersgarten","municipality":{"key":"09575124","name":"Gallmersgarten","type":"Kreisangehörige_Gemeinde"},"district":{"key":"09575","name":"Neustadt a.d.Aisch-Bad Windsheim","type":"Landkreis"},"federalState":{"key":"09","name":"Bayern"}},]