[{"key":"10083258","name":"Aeschfeldstrasse","postalCode":"6017","locality":"Ruswil","commune":{"key":"1098","name":"Ruswil","shortName":"Ruswil"},"district":{"key":"314","name":"Wahlkreis Sursee"},"canton":{"key":"3","code":"LU","name":"Luzern"},"status":"Real"},{"key":"10175334","name":"Aeschland","postalCode":"6017","locality":"Ruswil","commune":{"key":"1098","name":"Ruswil","shortName":"Ruswil"},"district":{"key":"314","name":"Wahlkreis Sursee"},"canton":{"key":"3","code":"LU","name":"Luzern"},"status":"Real"},{"key":"10068987","name":"Althus","postalCode":"6017","locality":"Ruswil","commune":{"key":"1098","name":"Ruswil","shortName":"Ruswil"},"district":{"key":"314","name":"Wahlkreis Sursee"},"canton":{"key":"3","code":"LU","name":"Luzern"},"status":"Real"},{"key":"10017039","name":"Ankeland","postalCode":"6017","locality":"Ruswil","commune":{"key":"1098","name":"Ruswil","shortName":"Ruswil"},"district":{"key":"314","name":"Wahlkreis Sursee"},"canton":{"key":"3","code":"LU","name":"Luzern"},"status":"Real"},{"key":"10068990","name":"Bächliguet","postalCode":"6017","locality":"Ruswil","commune":{"key":"1098","name":"Ruswil","shortName":"Ruswil"},"district":{"key":"314","name":"Wahlkreis Sursee"},"canton":{"key":"3","code":"LU","name":"Luzern"},"status":"Real"},{"key":"10017043","name":"Bächliweg","postalCode":"6017","locality":"Ruswil","commune":{"key":"1098","name":"Ruswil","shortName":"Ruswil"},"district":{"key":"314","name":"Wahlkreis Sursee"},"canton":{"key":"3","code":"LU","name":"Luzern"},"status":"Real"},{"key":"10128078","name":"Bärematt","postalCode":"6017","locality":"Ruswil","commune":{"key":"1098","name":"Ruswil","shortName":"Ruswil"},"district":{"key":"314","name":"Wahlkreis Sursee"},"canton":{"key":"3","code":"LU","name":"Luzern"},"status":"Real"},{"key":"10017044","name":"Bäremattweg","postalCode":"6017","locality":"Ruswil","commune":{"key":"1098","name":"Ruswil","shortName":"Ruswil"},"district":{"key":"314","name":"Wahlkreis Sursee"},"canton":{"key":"3","code":"LU","name":"Luzern"},"status":"Real"},{"key":"10052389","name":"Bärghof","postalCode":"6017","locality":"Ruswil","commune":{"key":"1098","name":"Ruswil","shortName":"Ruswil"},"district":{"key":"314","name":"Wahlkreis Sursee"},"canton":{"key":"3","code":"LU","name":"Luzern"},"status":"Real"},{"key":"10017040","name":"Bielbachweg","postalCode":"6017","locality":"Ruswil","commune":{"key":"1098","name":"Ruswil","shortName":"Ruswil"},"district":{"key":"314","name":"Wahlkreis Sursee"},"canton":{"key":"3","code":"LU","name":"Luzern"},"status":"Real"},{"key":"10068988","name":"Blattweid","postalCode":"6017","locality":"Ruswil","commune":{"key":"1098","name":"Ruswil","shortName":"Ruswil"},"district":{"key":"314","name":"Wahlkreis Sursee"},"canton":{"key":"3","code":"LU","name":"Luzern"},"status":"Real"},{"key":"10017041","name":"Bleischür","postalCode":"6017","locality":"Ruswil","commune":{"key":"1098","name":"Ruswil","shortName":"Ruswil"},"district":{"key":"314","name":"Wahlkreis Sursee"},"canton":{"key":"3","code":"LU","name":"Luzern"},"status":"Real"},{"key":"10052388","name":"Bruederwinkel","postalCode":"6017","locality":"Ruswil","commune":{"key":"1098","name":"Ruswil","shortName":"Ruswil"},"district":{"key":"314","name":"Wahlkreis Sursee"},"canton":{"key":"3","code":"LU","name":"Luzern"},"status":"Real"},{"key":"10017042","name":"Brunnehof","postalCode":"6017","locality":"Ruswil","commune":{"key":"1098","name":"Ruswil","shortName":"Ruswil"},"district":{"key":"314","name":"Wahlkreis Sursee"},"canton":{"key":"3","code":"LU","name":"Luzern"},"status":"Real"},{"key":"10104406","name":"Buebegass","postalCode":"6017","locality":"Ruswil","commune":{"key":"1098","name":"Ruswil","shortName":"Ruswil"},"district":{"key":"314","name":"Wahlkreis Sursee"},"canton":{"key":"3","code":"LU","name":"Luzern"},"status":"Real"},{"key":"10178841","name":"Buechmatt","postalCode":"6017","locality":"Ruswil","commune":{"key":"1098","name":"Ruswil","shortName":"Ruswil"},"district":{"key":"314","name":"Wahlkreis Sursee"},"canton":{"key":"3","code":"LU","name":"Luzern"},"status":"Real"},{"key":"10194977","name":"Buholz","postalCode":"6017","locality":"Ruswil","commune":{"key":"1098","name":"Ruswil","shortName":"Ruswil"},"district":{"key":"314","name":"Wahlkreis Sursee"},"canton":{"key":"3","code":"LU","name":"Luzern"},"status":"Real"},{"key":"10241854","name":"Buholzstrasse","postalCode":"6017","locality":"Ruswil","commune":{"key":"1098","name":"Ruswil","shortName":"Ruswil"},"district":{"key":"314","name":"Wahlkreis Sursee"},"canton":{"key":"3","code":"LU","name":"Luzern"},"status":"Real"},{"key":"10017045","name":"Bünte","postalCode":"6017","locality":"Ruswil","commune":{"key":"1098","name":"Ruswil","shortName":"Ruswil"},"district":{"key":"314","name":"Wahlkreis Sursee"},"canton":{"key":"3","code":"LU","name":"Luzern"},"status":"Real"},{"key":"10068992","name":"Chäppeliacher","postalCode":"6017","locality":"Ruswil","commune":{"key":"1098","name":"Ruswil","shortName":"Ruswil"},"district":{"key":"314","name":"Wahlkreis Sursee"},"canton":{"key":"3","code":"LU","name":"Luzern"},"status":"Real"},{"key":"10187302","name":"Charpfli","postalCode":"6017","locality":"Ruswil","commune":{"key":"1098","name":"Ruswil","shortName":"Ruswil"},"district":{"key":"314","name":"Wahlkreis Sursee"},"canton":{"key":"3","code":"LU","name":"Luzern"},"status":"Real"},{"key":"10188228","name":"Chastelematt","postalCode":"6017","locality":"Ruswil","commune":{"key":"1098","name":"Ruswil","shortName":"Ruswil"},"district":{"key":"314","name":"Wahlkreis Sursee"},"canton":{"key":"3","code":"LU","name":"Luzern"},"status":"Real"},{"key":"10017046","name":"Chasteleweg","postalCode":"6017","locality":"Ruswil","commune":{"key":"1098","name":"Ruswil","shortName":"Ruswil"},"district":{"key":"314","name":"Wahlkreis Sursee"},"canton":{"key":"3","code":"LU","name":"Luzern"},"status":"Real"},{"key":"10052395","name":"Cheerguet","postalCode":"6017","locality":"Ruswil","commune":{"key":"1098","name":"Ruswil","shortName":"Ruswil"},"district":{"key":"314","name":"Wahlkreis Sursee"},"canton":{"key":"3","code":"LU","name":"Luzern"},"status":"Real"},{"key":"10131932","name":"Cheerhof","postalCode":"6017","locality":"Ruswil","commune":{"key":"1098","name":"Ruswil","shortName":"Ruswil"},"district":{"key":"314","name":"Wahlkreis Sursee"},"canton":{"key":"3","code":"LU","name":"Luzern"},"status":"Real"},{"key":"10083260","name":"Chormatte","postalCode":"6017","locality":"Ruswil","commune":{"key":"1098","name":"Ruswil","shortName":"Ruswil"},"district":{"key":"314","name":"Wahlkreis Sursee"},"canton":{"key":"3","code":"LU","name":"Luzern"},"status":"Real"},{"key":"10109967","name":"Chropfmatt","postalCode":"6017","locality":"Ruswil","commune":{"key":"1098","name":"Ruswil","shortName":"Ruswil"},"district":{"key":"314","name":"Wahlkreis Sursee"},"canton":{"key":"3","code":"LU","name":"Luzern"},"status":"Real"},{"key":"10186521","name":"Chrummenacher","postalCode":"6017","locality":"Ruswil","commune":{"key":"1098","name":"Ruswil","shortName":"Ruswil"},"district":{"key":"314","name":"Wahlkreis Sursee"},"canton":{"key":"3","code":"LU","name":"Luzern"},"status":"Real"},{"key":"10017047","name":"Chüemoos","postalCode":"6017","locality":"Ruswil","commune":{"key":"1098","name":"Ruswil","shortName":"Ruswil"},"district":{"key":"314","name":"Wahlkreis Sursee"},"canton":{"key":"3","code":"LU","name":"Luzern"},"status":"Real"},{"key":"10083261","name":"Deckehonig","postalCode":"6017","locality":"Ruswil","commune":{"key":"1098","name":"Ruswil","shortName":"Ruswil"},"district":{"key":"314","name":"Wahlkreis Sursee"},"canton":{"key":"3","code":"LU","name":"Luzern"},"status":"Real"},{"key":"10178842","name":"Eichfels","postalCode":"6017","locality":"Ruswil","commune":{"key":"1098","name":"Ruswil","shortName":"Ruswil"},"district":{"key":"314","name":"Wahlkreis Sursee"},"canton":{"key":"3","code":"LU","name":"Luzern"},"status":"Real"},{"key":"10185874","name":"Elischwand","postalCode":"6017","locality":"Ruswil","commune":{"key":"1098","name":"Ruswil","shortName":"Ruswil"},"district":{"key":"314","name":"Wahlkreis Sursee"},"canton":{"key":"3","code":"LU","name":"Luzern"},"status":"Real"},{"key":"10209450","name":"Etzenerle","postalCode":"6017","locality":"Ruswil","commune":{"key":"1098","name":"Ruswil","shortName":"Ruswil"},"district":{"key":"314","name":"Wahlkreis Sursee"},"canton":{"key":"3","code":"LU","name":"Luzern"},"status":"Real"},{"key":"10017048","name":"Etzenerlestrasse","postalCode":"6017","locality":"Ruswil","commune":{"key":"1098","name":"Ruswil","shortName":"Ruswil"},"district":{"key":"314","name":"Wahlkreis Sursee"},"canton":{"key":"3","code":"LU","name":"Luzern"},"status":"Real"},{"key":"10017049","name":"Feldli","postalCode":"6017","locality":"Ruswil","commune":{"key":"1098","name":"Ruswil","shortName":"Ruswil"},"district":{"key":"314","name":"Wahlkreis Sursee"},"canton":{"key":"3","code":"LU","name":"Luzern"},"status":"Real"},{"key":"10052390","name":"Feldmättli","postalCode":"6017","locality":"Ruswil","commune":{"key":"1098","name":"Ruswil","shortName":"Ruswil"},"district":{"key":"314","name":"Wahlkreis Sursee"},"canton":{"key":"3","code":"LU","name":"Luzern"},"status":"Real"},{"key":"10068993","name":"Fluck","postalCode":"6017","locality":"Ruswil","commune":{"key":"1098","name":"Ruswil","shortName":"Ruswil"},"district":{"key":"314","name":"Wahlkreis Sursee"},"canton":{"key":"3","code":"LU","name":"Luzern"},"status":"Real"},{"key":"10083262","name":"Freiehofstrasse","postalCode":"6017","locality":"Ruswil","commune":{"key":"1098","name":"Ruswil","shortName":"Ruswil"},"district":{"key":"314","name":"Wahlkreis Sursee"},"canton":{"key":"3","code":"LU","name":"Luzern"},"status":"Real"},{"key":"10208134","name":"Freiehofweg","postalCode":"6017","locality":"Ruswil","commune":{"key":"1098","name":"Ruswil","shortName":"Ruswil"},"district":{"key":"314","name":"Wahlkreis Sursee"},"canton":{"key":"3","code":"LU","name":"Luzern"},"status":"Real"},{"key":"10068994","name":"Fuchsweid","postalCode":"6017","locality":"Ruswil","commune":{"key":"1098","name":"Ruswil","shortName":"Ruswil"},"district":{"key":"314","name":"Wahlkreis Sursee"},"canton":{"key":"3","code":"LU","name":"Luzern"},"status":"Real"},{"key":"10017051","name":"Geissbach","postalCode":"6017","locality":"Ruswil","commune":{"key":"1098","name":"Ruswil","shortName":"Ruswil"},"district":{"key":"314","name":"Wahlkreis Sursee"},"canton":{"key":"3","code":"LU","name":"Luzern"},"status":"Real"},{"key":"10052391","name":"Gimmermee","postalCode":"6017","locality":"Ruswil","commune":{"key":"1098","name":"Ruswil","shortName":"Ruswil"},"district":{"key":"314","name":"Wahlkreis Sursee"},"canton":{"key":"3","code":"LU","name":"Luzern"},"status":"Real"},{"key":"10068995","name":"Goldschrüti","postalCode":"6017","locality":"Ruswil","commune":{"key":"1098","name":"Ruswil","shortName":"Ruswil"},"district":{"key":"314","name":"Wahlkreis Sursee"},"canton":{"key":"3","code":"LU","name":"Luzern"},"status":"Real"},{"key":"10178843","name":"Goldschrütifeld","postalCode":"6017","locality":"Ruswil","commune":{"key":"1098","name":"Ruswil","shortName":"Ruswil"},"district":{"key":"314","name":"Wahlkreis Sursee"},"canton":{"key":"3","code":"LU","name":"Luzern"},"status":"Real"},{"key":"10207385","name":"Grabenstrasse","postalCode":"6017","locality":"Ruswil","commune":{"key":"1098","name":"Ruswil","shortName":"Ruswil"},"district":{"key":"314","name":"Wahlkreis Sursee"},"canton":{"key":"3","code":"LU","name":"Luzern"},"status":"Real"},{"key":"10083263","name":"Grindel","postalCode":"6017","locality":"Ruswil","commune":{"key":"1098","name":"Ruswil","shortName":"Ruswil"},"district":{"key":"314","name":"Wahlkreis Sursee"},"canton":{"key":"3","code":"LU","name":"Luzern"},"status":"Real"},{"key":"10017052","name":"Grissenegg","postalCode":"6017","locality":"Ruswil","commune":{"key":"1098","name":"Ruswil","shortName":"Ruswil"},"district":{"key":"314","name":"Wahlkreis Sursee"},"canton":{"key":"3","code":"LU","name":"Luzern"},"status":"Real"},{"key":"10117307","name":"Grueb","postalCode":"6017","locality":"Ruswil","commune":{"key":"1098","name":"Ruswil","shortName":"Ruswil"},"district":{"key":"314","name":"Wahlkreis Sursee"},"canton":{"key":"3","code":"LU","name":"Luzern"},"status":"Real"},{"key":"10097518","name":"Guetischwand","postalCode":"6017","locality":"Ruswil","commune":{"key":"1098","name":"Ruswil","shortName":"Ruswil"},"district":{"key":"314","name":"Wahlkreis Sursee"},"canton":{"key":"3","code":"LU","name":"Luzern"},"status":"Real"},{"key":"10083264","name":"Gumpertschwand","postalCode":"6017","locality":"Ruswil","commune":{"key":"1098","name":"Ruswil","shortName":"Ruswil"},"district":{"key":"314","name":"Wahlkreis Sursee"},"canton":{"key":"3","code":"LU","name":"Luzern"},"status":"Real"},{"key":"10109968","name":"Halterhus","postalCode":"6017","locality":"Ruswil","commune":{"key":"1098","name":"Ruswil","shortName":"Ruswil"},"district":{"key":"314","name":"Wahlkreis Sursee"},"canton":{"key":"3","code":"LU","name":"Luzern"},"status":"Real"},{"key":"10187301","name":"Hapfig","postalCode":"6017","locality":"Ruswil","commune":{"key":"1098","name":"Ruswil","shortName":"Ruswil"},"district":{"key":"314","name":"Wahlkreis Sursee"},"canton":{"key":"3","code":"LU","name":"Luzern"},"status":"Real"},{"key":"10017054","name":"Haselweid","postalCode":"6017","locality":"Ruswil","commune":{"key":"1098","name":"Ruswil","shortName":"Ruswil"},"district":{"key":"314","name":"Wahlkreis Sursee"},"canton":{"key":"3","code":"LU","name":"Luzern"},"status":"Real"},{"key":"10240443","name":"Hauptplatz","postalCode":"6017","locality":"Ruswil","commune":{"key":"1098","name":"Ruswil","shortName":"Ruswil"},"district":{"key":"314","name":"Wahlkreis Sursee"},"canton":{"key":"3","code":"LU","name":"Luzern"},"status":"Real"},{"key":"10251799","name":"Heimat","postalCode":"6017","locality":"Ruswil","commune":{"key":"1098","name":"Ruswil","shortName":"Ruswil"},"district":{"key":"314","name":"Wahlkreis Sursee"},"canton":{"key":"3","code":"LU","name":"Luzern"},"status":"Real"},{"key":"10083265","name":"Hellbühlerstrasse","postalCode":"6017","locality":"Ruswil","commune":{"key":"1098","name":"Ruswil","shortName":"Ruswil"},"district":{"key":"314","name":"Wahlkreis Sursee"},"canton":{"key":"3","code":"LU","name":"Luzern"},"status":"Real"},{"key":"10017055","name":"Herrewegmoos","postalCode":"6017","locality":"Ruswil","commune":{"key":"1098","name":"Ruswil","shortName":"Ruswil"},"district":{"key":"314","name":"Wahlkreis Sursee"},"canton":{"key":"3","code":"LU","name":"Luzern"},"status":"Real"},{"key":"10017056","name":"Hinder Loch","postalCode":"6017","locality":"Ruswil","commune":{"key":"1098","name":"Ruswil","shortName":"Ruswil"},"district":{"key":"314","name":"Wahlkreis Sursee"},"canton":{"key":"3","code":"LU","name":"Luzern"},"status":"Real"},{"key":"10017059","name":"Höchfeld","postalCode":"6017","locality":"Ruswil","commune":{"key":"1098","name":"Ruswil","shortName":"Ruswil"},"district":{"key":"314","name":"Wahlkreis Sursee"},"canton":{"key":"3","code":"LU","name":"Luzern"},"status":"Real"},{"key":"10017033","name":"Holz","postalCode":"6017","locality":"Ruswil","commune":{"key":"1098","name":"Ruswil","shortName":"Ruswil"},"district":{"key":"314","name":"Wahlkreis Sursee"},"canton":{"key":"3","code":"LU","name":"Luzern"},"status":"Real"},{"key":"10052394","name":"Homatt","postalCode":"6017","locality":"Ruswil","commune":{"key":"1098","name":"Ruswil","shortName":"Ruswil"},"district":{"key":"314","name":"Wahlkreis Sursee"},"canton":{"key":"3","code":"LU","name":"Luzern"},"status":"Real"},{"key":"10178844","name":"Homberg","postalCode":"6017","locality":"Ruswil","commune":{"key":"1098","name":"Ruswil","shortName":"Ruswil"},"district":{"key":"314","name":"Wahlkreis Sursee"},"canton":{"key":"3","code":"LU","name":"Luzern"},"status":"Real"},{"key":"10209451","name":"Honig","postalCode":"6017","locality":"Ruswil","commune":{"key":"1098","name":"Ruswil","shortName":"Ruswil"},"district":{"key":"314","name":"Wahlkreis Sursee"},"canton":{"key":"3","code":"LU","name":"Luzern"},"status":"Real"},{"key":"10017058","name":"Hopösche","postalCode":"6017","locality":"Ruswil","commune":{"key":"1098","name":"Ruswil","shortName":"Ruswil"},"district":{"key":"314","name":"Wahlkreis Sursee"},"canton":{"key":"3","code":"LU","name":"Luzern"},"status":"Real"},{"key":"10052392","name":"Houete","postalCode":"6017","locality":"Ruswil","commune":{"key":"1098","name":"Ruswil","shortName":"Ruswil"},"district":{"key":"314","name":"Wahlkreis Sursee"},"canton":{"key":"3","code":"LU","name":"Luzern"},"status":"Real"},{"key":"10208338","name":"K12","postalCode":"6017","locality":"Ruswil","commune":{"key":"1098","name":"Ruswil","shortName":"Ruswil"},"district":{"key":"314","name":"Wahlkreis Sursee"},"canton":{"key":"3","code":"LU","name":"Luzern"},"status":"Real"},{"key":"10207402","name":"K34","postalCode":"6017","locality":"Ruswil","commune":{"key":"1098","name":"Ruswil","shortName":"Ruswil"},"district":{"key":"314","name":"Wahlkreis Sursee"},"canton":{"key":"3","code":"LU","name":"Luzern"},"status":"Real"},{"key":"10185875","name":"Laubeweg","postalCode":"6017","locality":"Ruswil","commune":{"key":"1098","name":"Ruswil","shortName":"Ruswil"},"district":{"key":"314","name":"Wahlkreis Sursee"},"canton":{"key":"3","code":"LU","name":"Luzern"},"status":"Real"},{"key":"10083266","name":"Lein","postalCode":"6017","locality":"Ruswil","commune":{"key":"1098","name":"Ruswil","shortName":"Ruswil"},"district":{"key":"314","name":"Wahlkreis Sursee"},"canton":{"key":"3","code":"LU","name":"Luzern"},"status":"Real"},{"key":"10017060","name":"Leinstrasse","postalCode":"6017","locality":"Ruswil","commune":{"key":"1098","name":"Ruswil","shortName":"Ruswil"},"district":{"key":"314","name":"Wahlkreis Sursee"},"canton":{"key":"3","code":"LU","name":"Luzern"},"status":"Real"},{"key":"10178845","name":"Lindehof","postalCode":"6017","locality":"Ruswil","commune":{"key":"1098","name":"Ruswil","shortName":"Ruswil"},"district":{"key":"314","name":"Wahlkreis Sursee"},"canton":{"key":"3","code":"LU","name":"Luzern"},"status":"Real"},{"key":"10209445","name":"Loch","postalCode":"6017","locality":"Ruswil","commune":{"key":"1098","name":"Ruswil","shortName":"Ruswil"},"district":{"key":"314","name":"Wahlkreis Sursee"},"canton":{"key":"3","code":"LU","name":"Luzern"},"status":"Real"},{"key":"10106142","name":"Lochbachweid","postalCode":"6017","locality":"Ruswil","commune":{"key":"1098","name":"Ruswil","shortName":"Ruswil"},"district":{"key":"314","name":"Wahlkreis Sursee"},"canton":{"key":"3","code":"LU","name":"Luzern"},"status":"Real"},{"key":"10083267","name":"Lochland","postalCode":"6017","locality":"Ruswil","commune":{"key":"1098","name":"Ruswil","shortName":"Ruswil"},"district":{"key":"314","name":"Wahlkreis Sursee"},"canton":{"key":"3","code":"LU","name":"Luzern"},"status":"Real"},{"key":"10017062","name":"Löwenacher","postalCode":"6017","locality":"Ruswil","commune":{"key":"1098","name":"Ruswil","shortName":"Ruswil"},"district":{"key":"314","name":"Wahlkreis Sursee"},"canton":{"key":"3","code":"LU","name":"Luzern"},"status":"Real"},{"key":"10205559","name":"Luegisland Neumüli","postalCode":"6017","locality":"Ruswil","commune":{"key":"1098","name":"Ruswil","shortName":"Ruswil"},"district":{"key":"314","name":"Wahlkreis Sursee"},"canton":{"key":"3","code":"LU","name":"Luzern"},"status":"Real"},{"key":"10211694","name":"Märtplatz","postalCode":"6017","locality":"Ruswil","commune":{"key":"1098","name":"Ruswil","shortName":"Ruswil"},"district":{"key":"314","name":"Wahlkreis Sursee"},"canton":{"key":"3","code":"LU","name":"Luzern"},"status":"Real"},{"key":"10117308","name":"Matt","postalCode":"6017","locality":"Ruswil","commune":{"key":"1098","name":"Ruswil","shortName":"Ruswil"},"district":{"key":"314","name":"Wahlkreis Sursee"},"canton":{"key":"3","code":"LU","name":"Luzern"},"status":"Real"},{"key":"10017063","name":"Mattestrasse","postalCode":"6017","locality":"Ruswil","commune":{"key":"1098","name":"Ruswil","shortName":"Ruswil"},"district":{"key":"314","name":"Wahlkreis Sursee"},"canton":{"key":"3","code":"LU","name":"Luzern"},"status":"Real"},{"key":"10083268","name":"Meierhöfliring","postalCode":"6017","locality":"Ruswil","commune":{"key":"1098","name":"Ruswil","shortName":"Ruswil"},"district":{"key":"314","name":"Wahlkreis Sursee"},"canton":{"key":"3","code":"LU","name":"Luzern"},"status":"Real"},{"key":"10017064","name":"Meierhöflistrasse","postalCode":"6017","locality":"Ruswil","commune":{"key":"1098","name":"Ruswil","shortName":"Ruswil"},"district":{"key":"314","name":"Wahlkreis Sursee"},"canton":{"key":"3","code":"LU","name":"Luzern"},"status":"Real"},{"key":"10209128","name":"Merzeberg","postalCode":"6017","locality":"Ruswil","commune":{"key":"1098","name":"Ruswil","shortName":"Ruswil"},"district":{"key":"314","name":"Wahlkreis Sursee"},"canton":{"key":"3","code":"LU","name":"Luzern"},"status":"Real"},{"key":"10083270","name":"Mittler Schwerzi","postalCode":"6017","locality":"Ruswil","commune":{"key":"1098","name":"Ruswil","shortName":"Ruswil"},"district":{"key":"314","name":"Wahlkreis Sursee"},"canton":{"key":"3","code":"LU","name":"Luzern"},"status":"Real"},{"key":"10073168","name":"Mittlistweid","postalCode":"6017","locality":"Ruswil","commune":{"key":"1098","name":"Ruswil","shortName":"Ruswil"},"district":{"key":"314","name":"Wahlkreis Sursee"},"canton":{"key":"3","code":"LU","name":"Luzern"},"status":"Real"},{"key":"10209452","name":"Moos","postalCode":"6017","locality":"Ruswil","commune":{"key":"1098","name":"Ruswil","shortName":"Ruswil"},"district":{"key":"314","name":"Wahlkreis Sursee"},"canton":{"key":"3","code":"LU","name":"Luzern"},"status":"Real"},{"key":"10017067","name":"Moosguet","postalCode":"6017","locality":"Ruswil","commune":{"key":"1098","name":"Ruswil","shortName":"Ruswil"},"district":{"key":"314","name":"Wahlkreis Sursee"},"canton":{"key":"3","code":"LU","name":"Luzern"},"status":"Real"},{"key":"10207593","name":"Moosguetpark","postalCode":"6017","locality":"Ruswil","commune":{"key":"1098","name":"Ruswil","shortName":"Ruswil"},"district":{"key":"314","name":"Wahlkreis Sursee"},"canton":{"key":"3","code":"LU","name":"Luzern"},"status":"Real"},{"key":"10083271","name":"Moosguetstrasse","postalCode":"6017","locality":"Ruswil","commune":{"key":"1098","name":"Ruswil","shortName":"Ruswil"},"district":{"key":"314","name":"Wahlkreis Sursee"},"canton":{"key":"3","code":"LU","name":"Luzern"},"status":"Real"},{"key":"10207388","name":"Mooshof Moos","postalCode":"6017","locality":"Ruswil","commune":{"key":"1098","name":"Ruswil","shortName":"Ruswil"},"district":{"key":"314","name":"Wahlkreis Sursee"},"canton":{"key":"3","code":"LU","name":"Luzern"},"status":"Real"},{"key":"10017068","name":"Moosmättli","postalCode":"6017","locality":"Ruswil","commune":{"key":"1098","name":"Ruswil","shortName":"Ruswil"},"district":{"key":"314","name":"Wahlkreis Sursee"},"canton":{"key":"3","code":"LU","name":"Luzern"},"status":"Real"},{"key":"10189416","name":"Musegg","postalCode":"6017","locality":"Ruswil","commune":{"key":"1098","name":"Ruswil","shortName":"Ruswil"},"district":{"key":"314","name":"Wahlkreis Sursee"},"canton":{"key":"3","code":"LU","name":"Luzern"},"status":"Real"},{"key":"10017327","name":"Museggstrasse","postalCode":"6017","locality":"Ruswil","commune":{"key":"1098","name":"Ruswil","shortName":"Ruswil"},"district":{"key":"314","name":"Wahlkreis Sursee"},"canton":{"key":"3","code":"LU","name":"Luzern"},"status":"Real"},{"key":"10178847","name":"Neubode","postalCode":"6017","locality":"Ruswil","commune":{"key":"1098","name":"Ruswil","shortName":"Ruswil"},"district":{"key":"314","name":"Wahlkreis Sursee"},"canton":{"key":"3","code":"LU","name":"Luzern"},"status":"Real"},{"key":"10083272","name":"Neuenkirchstrasse","postalCode":"6017","locality":"Ruswil","commune":{"key":"1098","name":"Ruswil","shortName":"Ruswil"},"district":{"key":"314","name":"Wahlkreis Sursee"},"canton":{"key":"3","code":"LU","name":"Luzern"},"status":"Real"},{"key":"10017331","name":"Neuhus","postalCode":"6017","locality":"Ruswil","commune":{"key":"1098","name":"Ruswil","shortName":"Ruswil"},"district":{"key":"314","name":"Wahlkreis Sursee"},"canton":{"key":"3","code":"LU","name":"Luzern"},"status":"Real"},{"key":"10205923","name":"Neulinde","postalCode":"6017","locality":"Ruswil","commune":{"key":"1098","name":"Ruswil","shortName":"Ruswil"},"district":{"key":"314","name":"Wahlkreis Sursee"},"canton":{"key":"3","code":"LU","name":"Luzern"},"status":"Real"},{"key":"10017332","name":"Neumüli","postalCode":"6017","locality":"Ruswil","commune":{"key":"1098","name":"Ruswil","shortName":"Ruswil"},"district":{"key":"314","name":"Wahlkreis Sursee"},"canton":{"key":"3","code":"LU","name":"Luzern"},"status":"Real"},{"key":"10073170","name":"Ob de Chile","postalCode":"6017","locality":"Ruswil","commune":{"key":"1098","name":"Ruswil","shortName":"Ruswil"},"district":{"key":"314","name":"Wahlkreis Sursee"},"canton":{"key":"3","code":"LU","name":"Luzern"},"status":"Real"},{"key":"10017333","name":"Obereichig","postalCode":"6017","locality":"Ruswil","commune":{"key":"1098","name":"Ruswil","shortName":"Ruswil"},"district":{"key":"314","name":"Wahlkreis Sursee"},"canton":{"key":"3","code":"LU","name":"Luzern"},"status":"Real"},{"key":"10082299","name":"Ober Herreweg","postalCode":"6017","locality":"Ruswil","commune":{"key":"1098","name":"Ruswil","shortName":"Ruswil"},"district":{"key":"314","name":"Wahlkreis Sursee"},"canton":{"key":"3","code":"LU","name":"Luzern"},"status":"Real"},{"key":"10209129","name":"Oberland Ruswil","postalCode":"6017","locality":"Ruswil","commune":{"key":"1098","name":"Ruswil","shortName":"Ruswil"},"district":{"key":"314","name":"Wahlkreis Sursee"},"canton":{"key":"3","code":"LU","name":"Luzern"},"status":"Real"},{"key":"10207389","name":"Oberland Sigigen","postalCode":"6017","locality":"Ruswil","commune":{"key":"1098","name":"Ruswil","shortName":"Ruswil"},"district":{"key":"314","name":"Wahlkreis Sursee"},"canton":{"key":"3","code":"LU","name":"Luzern"},"status":"Real"},{"key":"10189417","name":"Ober Neuhus","postalCode":"6017","locality":"Ruswil","commune":{"key":"1098","name":"Ruswil","shortName":"Ruswil"},"district":{"key":"314","name":"Wahlkreis Sursee"},"canton":{"key":"3","code":"LU","name":"Luzern"},"status":"Real"},{"key":"10209130","name":"Ober Roo","postalCode":"6017","locality":"Ruswil","commune":{"key":"1098","name":"Ruswil","shortName":"Ruswil"},"district":{"key":"314","name":"Wahlkreis Sursee"},"canton":{"key":"3","code":"LU","name":"Luzern"},"status":"Real"},{"key":"10143662","name":"Ober Schwerzi","postalCode":"6017","locality":"Ruswil","commune":{"key":"1098","name":"Ruswil","shortName":"Ruswil"},"district":{"key":"314","name":"Wahlkreis Sursee"},"canton":{"key":"3","code":"LU","name":"Luzern"},"status":"Real"},{"key":"10097519","name":"Ober Sonnebergli","postalCode":"6017","locality":"Ruswil","commune":{"key":"1098","name":"Ruswil","shortName":"Ruswil"},"district":{"key":"314","name":"Wahlkreis Sursee"},"canton":{"key":"3","code":"LU","name":"Luzern"},"status":"Real"},{"key":"10017335","name":"Ober Tändli","postalCode":"6017","locality":"Ruswil","commune":{"key":"1098","name":"Ruswil","shortName":"Ruswil"},"district":{"key":"314","name":"Wahlkreis Sursee"},"canton":{"key":"3","code":"LU","name":"Luzern"},"status":"Real"},{"key":"10052397","name":"Paradisli","postalCode":"6017","locality":"Ruswil","commune":{"key":"1098","name":"Ruswil","shortName":"Ruswil"},"district":{"key":"314","name":"Wahlkreis Sursee"},"canton":{"key":"3","code":"LU","name":"Luzern"},"status":"Real"},{"key":"10207390","name":"Pfaffischwand","postalCode":"6017","locality":"Ruswil","commune":{"key":"1098","name":"Ruswil","shortName":"Ruswil"},"district":{"key":"314","name":"Wahlkreis Sursee"},"canton":{"key":"3","code":"LU","name":"Luzern"},"status":"Real"},{"key":"10209131","name":"Primelweg","postalCode":"6017","locality":"Ruswil","commune":{"key":"1098","name":"Ruswil","shortName":"Ruswil"},"district":{"key":"314","name":"Wahlkreis Sursee"},"canton":{"key":"3","code":"LU","name":"Luzern"},"status":"Real"},{"key":"10073174","name":"Rebhaldestrasse","postalCode":"6017","locality":"Ruswil","commune":{"key":"1098","name":"Ruswil","shortName":"Ruswil"},"district":{"key":"314","name":"Wahlkreis Sursee"},"canton":{"key":"3","code":"LU","name":"Luzern"},"status":"Real"},{"key":"10017337","name":"Rebstockstrasse","postalCode":"6017","locality":"Ruswil","commune":{"key":"1098","name":"Ruswil","shortName":"Ruswil"},"district":{"key":"314","name":"Wahlkreis Sursee"},"canton":{"key":"3","code":"LU","name":"Luzern"},"status":"Real"},{"key":"10120212","name":"Recketschwand","postalCode":"6017","locality":"Ruswil","commune":{"key":"1098","name":"Ruswil","shortName":"Ruswil"},"district":{"key":"314","name":"Wahlkreis Sursee"},"canton":{"key":"3","code":"LU","name":"Luzern"},"status":"Real"},{"key":"10178849","name":"Rehhalde","postalCode":"6017","locality":"Ruswil","commune":{"key":"1098","name":"Ruswil","shortName":"Ruswil"},"district":{"key":"314","name":"Wahlkreis Sursee"},"canton":{"key":"3","code":"LU","name":"Luzern"},"status":"Real"},{"key":"10052398","name":"Riede","postalCode":"6017","locality":"Ruswil","commune":{"key":"1098","name":"Ruswil","shortName":"Ruswil"},"district":{"key":"314","name":"Wahlkreis Sursee"},"canton":{"key":"3","code":"LU","name":"Luzern"},"status":"Real"},{"key":"10207391","name":"Rodelhus Buholz","postalCode":"6017","locality":"Ruswil","commune":{"key":"1098","name":"Ruswil","shortName":"Ruswil"},"district":{"key":"314","name":"Wahlkreis Sursee"},"canton":{"key":"3","code":"LU","name":"Luzern"},"status":"Real"},{"key":"10082302","name":"Rosebergrain","postalCode":"6017","locality":"Ruswil","commune":{"key":"1098","name":"Ruswil","shortName":"Ruswil"},"district":{"key":"314","name":"Wahlkreis Sursee"},"canton":{"key":"3","code":"LU","name":"Luzern"},"status":"Real"},{"key":"10017896","name":"Rosebergstrasse","postalCode":"6017","locality":"Ruswil","commune":{"key":"1098","name":"Ruswil","shortName":"Ruswil"},"district":{"key":"314","name":"Wahlkreis Sursee"},"canton":{"key":"3","code":"LU","name":"Luzern"},"status":"Real"},{"key":"10017895","name":"Rosemättli","postalCode":"6017","locality":"Ruswil","commune":{"key":"1098","name":"Ruswil","shortName":"Ruswil"},"district":{"key":"314","name":"Wahlkreis Sursee"},"canton":{"key":"3","code":"LU","name":"Luzern"},"status":"Real"},{"key":"10073177","name":"Rosemättliring","postalCode":"6017","locality":"Ruswil","commune":{"key":"1098","name":"Ruswil","shortName":"Ruswil"},"district":{"key":"314","name":"Wahlkreis Sursee"},"canton":{"key":"3","code":"LU","name":"Luzern"},"status":"Real"},{"key":"10082303","name":"Rosemättliweg","postalCode":"6017","locality":"Ruswil","commune":{"key":"1098","name":"Ruswil","shortName":"Ruswil"},"district":{"key":"314","name":"Wahlkreis Sursee"},"canton":{"key":"3","code":"LU","name":"Luzern"},"status":"Real"},{"key":"10017897","name":"Rosswöschstrasse","postalCode":"6017","locality":"Ruswil","commune":{"key":"1098","name":"Ruswil","shortName":"Ruswil"},"district":{"key":"314","name":"Wahlkreis Sursee"},"canton":{"key":"3","code":"LU","name":"Luzern"},"status":"Real"},{"key":"10209560","name":"Rot","postalCode":"6017","locality":"Ruswil","commune":{"key":"1098","name":"Ruswil","shortName":"Ruswil"},"district":{"key":"314","name":"Wahlkreis Sursee"},"canton":{"key":"3","code":"LU","name":"Luzern"},"status":"Real"},{"key":"10178850","name":"Rüediswilermoos","postalCode":"6017","locality":"Ruswil","commune":{"key":"1098","name":"Ruswil","shortName":"Ruswil"},"district":{"key":"314","name":"Wahlkreis Sursee"},"canton":{"key":"3","code":"LU","name":"Luzern"},"status":"Real"},{"key":"10082304","name":"Rüediswilerstrasse","postalCode":"6017","locality":"Ruswil","commune":{"key":"1098","name":"Ruswil","shortName":"Ruswil"},"district":{"key":"314","name":"Wahlkreis Sursee"},"canton":{"key":"3","code":"LU","name":"Luzern"},"status":"Real"},{"key":"10073178","name":"Rütmatt","postalCode":"6017","locality":"Ruswil","commune":{"key":"1098","name":"Ruswil","shortName":"Ruswil"},"district":{"key":"314","name":"Wahlkreis Sursee"},"canton":{"key":"3","code":"LU","name":"Luzern"},"status":"Real"},{"key":"10131923","name":"Rütmattstrasse","postalCode":"6017","locality":"Ruswil","commune":{"key":"1098","name":"Ruswil","shortName":"Ruswil"},"district":{"key":"314","name":"Wahlkreis Sursee"},"canton":{"key":"3","code":"LU","name":"Luzern"},"status":"Real"},{"key":"10052400","name":"Sagemättli","postalCode":"6017","locality":"Ruswil","commune":{"key":"1098","name":"Ruswil","shortName":"Ruswil"},"district":{"key":"314","name":"Wahlkreis Sursee"},"canton":{"key":"3","code":"LU","name":"Luzern"},"status":"Real"},{"key":"10017898","name":"Sagemüli","postalCode":"6017","locality":"Ruswil","commune":{"key":"1098","name":"Ruswil","shortName":"Ruswil"},"district":{"key":"314","name":"Wahlkreis Sursee"},"canton":{"key":"3","code":"LU","name":"Luzern"},"status":"Real"},{"key":"10052399","name":"Sal","postalCode":"6017","locality":"Ruswil","commune":{"key":"1098","name":"Ruswil","shortName":"Ruswil"},"district":{"key":"314","name":"Wahlkreis Sursee"},"canton":{"key":"3","code":"LU","name":"Luzern"},"status":"Real"},{"key":"10052404","name":"Sälimättli","postalCode":"6017","locality":"Ruswil","commune":{"key":"1098","name":"Ruswil","shortName":"Ruswil"},"district":{"key":"314","name":"Wahlkreis Sursee"},"canton":{"key":"3","code":"LU","name":"Luzern"},"status":"Real"},{"key":"10209447","name":"Schächbel","postalCode":"6017","locality":"Ruswil","commune":{"key":"1098","name":"Ruswil","shortName":"Ruswil"},"district":{"key":"314","name":"Wahlkreis Sursee"},"canton":{"key":"3","code":"LU","name":"Luzern"},"status":"Real"},{"key":"10187304","name":"Schlatt","postalCode":"6017","locality":"Ruswil","commune":{"key":"1098","name":"Ruswil","shortName":"Ruswil"},"district":{"key":"314","name":"Wahlkreis Sursee"},"canton":{"key":"3","code":"LU","name":"Luzern"},"status":"Real"},{"key":"10031956","name":"Schloss Buholz","postalCode":"6017","locality":"Ruswil","commune":{"key":"1098","name":"Ruswil","shortName":"Ruswil"},"district":{"key":"314","name":"Wahlkreis Sursee"},"canton":{"key":"3","code":"LU","name":"Luzern"},"status":"Real"},{"key":"10107441","name":"Schlosshalde","postalCode":"6017","locality":"Ruswil","commune":{"key":"1098","name":"Ruswil","shortName":"Ruswil"},"district":{"key":"314","name":"Wahlkreis Sursee"},"canton":{"key":"3","code":"LU","name":"Luzern"},"status":"Real"},{"key":"10017900","name":"Schore","postalCode":"6017","locality":"Ruswil","commune":{"key":"1098","name":"Ruswil","shortName":"Ruswil"},"district":{"key":"314","name":"Wahlkreis Sursee"},"canton":{"key":"3","code":"LU","name":"Luzern"},"status":"Real"},{"key":"10052401","name":"Schorehüsli","postalCode":"6017","locality":"Ruswil","commune":{"key":"1098","name":"Ruswil","shortName":"Ruswil"},"district":{"key":"314","name":"Wahlkreis Sursee"},"canton":{"key":"3","code":"LU","name":"Luzern"},"status":"Real"},{"key":"10209133","name":"Schübelberg","postalCode":"6017","locality":"Ruswil","commune":{"key":"1098","name":"Ruswil","shortName":"Ruswil"},"district":{"key":"314","name":"Wahlkreis Sursee"},"canton":{"key":"3","code":"LU","name":"Luzern"},"status":"Real"},{"key":"10131197","name":"Schürmatt","postalCode":"6017","locality":"Ruswil","commune":{"key":"1098","name":"Ruswil","shortName":"Ruswil"},"district":{"key":"314","name":"Wahlkreis Sursee"},"canton":{"key":"3","code":"LU","name":"Luzern"},"status":"Real"},{"key":"10017901","name":"Schürweid","postalCode":"6017","locality":"Ruswil","commune":{"key":"1098","name":"Ruswil","shortName":"Ruswil"},"district":{"key":"314","name":"Wahlkreis Sursee"},"canton":{"key":"3","code":"LU","name":"Luzern"},"status":"Real"},{"key":"10097520","name":"Schützeberg","postalCode":"6017","locality":"Ruswil","commune":{"key":"1098","name":"Ruswil","shortName":"Ruswil"},"district":{"key":"314","name":"Wahlkreis Sursee"},"canton":{"key":"3","code":"LU","name":"Luzern"},"status":"Real"},{"key":"10073452","name":"Schwerzistrasse","postalCode":"6017","locality":"Ruswil","commune":{"key":"1098","name":"Ruswil","shortName":"Ruswil"},"district":{"key":"314","name":"Wahlkreis Sursee"},"canton":{"key":"3","code":"LU","name":"Luzern"},"status":"Real"},{"key":"10017902","name":"Sonnebergli","postalCode":"6017","locality":"Ruswil","commune":{"key":"1098","name":"Ruswil","shortName":"Ruswil"},"district":{"key":"314","name":"Wahlkreis Sursee"},"canton":{"key":"3","code":"LU","name":"Luzern"},"status":"Real"},{"key":"10244207","name":"Sonnefeld","postalCode":"6017","locality":"Ruswil","commune":{"key":"1098","name":"Ruswil","shortName":"Ruswil"},"district":{"key":"314","name":"Wahlkreis Sursee"},"canton":{"key":"3","code":"LU","name":"Luzern"},"status":"Planned"},{"key":"10073453","name":"Sonnerain","postalCode":"6017","locality":"Ruswil","commune":{"key":"1098","name":"Ruswil","shortName":"Ruswil"},"district":{"key":"314","name":"Wahlkreis Sursee"},"canton":{"key":"3","code":"LU","name":"Luzern"},"status":"Real"},{"key":"10161597","name":"Sonnhalde","postalCode":"6017","locality":"Ruswil","commune":{"key":"1098","name":"Ruswil","shortName":"Ruswil"},"district":{"key":"314","name":"Wahlkreis Sursee"},"canton":{"key":"3","code":"LU","name":"Luzern"},"status":"Real"},{"key":"10052402","name":"Sonnheim","postalCode":"6017","locality":"Ruswil","commune":{"key":"1098","name":"Ruswil","shortName":"Ruswil"},"district":{"key":"314","name":"Wahlkreis Sursee"},"canton":{"key":"3","code":"LU","name":"Luzern"},"status":"Real"},{"key":"10161774","name":"Soppesee Usserhus","postalCode":"6017","locality":"Ruswil","commune":{"key":"1098","name":"Ruswil","shortName":"Ruswil"},"district":{"key":"314","name":"Wahlkreis Sursee"},"canton":{"key":"3","code":"LU","name":"Luzern"},"status":"Real"},{"key":"10178851","name":"Soppestig","postalCode":"6017","locality":"Ruswil","commune":{"key":"1098","name":"Ruswil","shortName":"Ruswil"},"district":{"key":"314","name":"Wahlkreis Sursee"},"canton":{"key":"3","code":"LU","name":"Luzern"},"status":"Real"},{"key":"10017903","name":"Spyr","postalCode":"6017","locality":"Ruswil","commune":{"key":"1098","name":"Ruswil","shortName":"Ruswil"},"district":{"key":"314","name":"Wahlkreis Sursee"},"canton":{"key":"3","code":"LU","name":"Luzern"},"status":"Real"},{"key":"10073454","name":"Spyrweg","postalCode":"6017","locality":"Ruswil","commune":{"key":"1098","name":"Ruswil","shortName":"Ruswil"},"district":{"key":"314","name":"Wahlkreis Sursee"},"canton":{"key":"3","code":"LU","name":"Luzern"},"status":"Real"},{"key":"10209561","name":"Strick","postalCode":"6017","locality":"Ruswil","commune":{"key":"1098","name":"Ruswil","shortName":"Ruswil"},"district":{"key":"314","name":"Wahlkreis Sursee"},"canton":{"key":"3","code":"LU","name":"Luzern"},"status":"Real"},{"key":"10117309","name":"Studerain","postalCode":"6017","locality":"Ruswil","commune":{"key":"1098","name":"Ruswil","shortName":"Ruswil"},"district":{"key":"314","name":"Wahlkreis Sursee"},"canton":{"key":"3","code":"LU","name":"Luzern"},"status":"Real"},{"key":"10052403","name":"St. Ulrich","postalCode":"6017","locality":"Ruswil","commune":{"key":"1098","name":"Ruswil","shortName":"Ruswil"},"district":{"key":"314","name":"Wahlkreis Sursee"},"canton":{"key":"3","code":"LU","name":"Luzern"},"status":"Real"},{"key":"10115853","name":"Südhaldestrasse","postalCode":"6017","locality":"Ruswil","commune":{"key":"1098","name":"Ruswil","shortName":"Ruswil"},"district":{"key":"314","name":"Wahlkreis Sursee"},"canton":{"key":"3","code":"LU","name":"Luzern"},"status":"Real"},{"key":"10082305","name":"Surbrunnematte","postalCode":"6017","locality":"Ruswil","commune":{"key":"1098","name":"Ruswil","shortName":"Ruswil"},"district":{"key":"314","name":"Wahlkreis Sursee"},"canton":{"key":"3","code":"LU","name":"Luzern"},"status":"Real"},{"key":"10207394","name":"Tafelehus Etzenerlestrasse","postalCode":"6017","locality":"Ruswil","commune":{"key":"1098","name":"Ruswil","shortName":"Ruswil"},"district":{"key":"314","name":"Wahlkreis Sursee"},"canton":{"key":"3","code":"LU","name":"Luzern"},"status":"Real"},{"key":"10017904","name":"Tan","postalCode":"6017","locality":"Ruswil","commune":{"key":"1098","name":"Ruswil","shortName":"Ruswil"},"district":{"key":"314","name":"Wahlkreis Sursee"},"canton":{"key":"3","code":"LU","name":"Luzern"},"status":"Real"},{"key":"10207382","name":"Tändli","postalCode":"6017","locality":"Ruswil","commune":{"key":"1098","name":"Ruswil","shortName":"Ruswil"},"district":{"key":"314","name":"Wahlkreis Sursee"},"canton":{"key":"3","code":"LU","name":"Luzern"},"status":"Real"},{"key":"10052405","name":"Trogmatt","postalCode":"6017","locality":"Ruswil","commune":{"key":"1098","name":"Ruswil","shortName":"Ruswil"},"district":{"key":"314","name":"Wahlkreis Sursee"},"canton":{"key":"3","code":"LU","name":"Luzern"},"status":"Real"},{"key":"10017905","name":"Tüfe","postalCode":"6017","locality":"Ruswil","commune":{"key":"1098","name":"Ruswil","shortName":"Ruswil"},"district":{"key":"314","name":"Wahlkreis Sursee"},"canton":{"key":"3","code":"LU","name":"Luzern"},"status":"Real"},{"key":"10209449","name":"Ulrichsmatt","postalCode":"6017","locality":"Ruswil","commune":{"key":"1098","name":"Ruswil","shortName":"Ruswil"},"district":{"key":"314","name":"Wahlkreis Sursee"},"canton":{"key":"3","code":"LU","name":"Luzern"},"status":"Real"},{"key":"10017908","name":"Undereichig","postalCode":"6017","locality":"Ruswil","commune":{"key":"1098","name":"Ruswil","shortName":"Ruswil"},"district":{"key":"314","name":"Wahlkreis Sursee"},"canton":{"key":"3","code":"LU","name":"Luzern"},"status":"Real"},{"key":"10082306","name":"Under Herreweg","postalCode":"6017","locality":"Ruswil","commune":{"key":"1098","name":"Ruswil","shortName":"Ruswil"},"district":{"key":"314","name":"Wahlkreis Sursee"},"canton":{"key":"3","code":"LU","name":"Luzern"},"status":"Real"},{"key":"10190760","name":"Under Merzeberg","postalCode":"6017","locality":"Ruswil","commune":{"key":"1098","name":"Ruswil","shortName":"Ruswil"},"district":{"key":"314","name":"Wahlkreis Sursee"},"canton":{"key":"3","code":"LU","name":"Luzern"},"status":"Real"},{"key":"10178852","name":"Under Neuhus","postalCode":"6017","locality":"Ruswil","commune":{"key":"1098","name":"Ruswil","shortName":"Ruswil"},"district":{"key":"314","name":"Wahlkreis Sursee"},"canton":{"key":"3","code":"LU","name":"Luzern"},"status":"Real"},{"key":"10074553","name":"Under Rebstock","postalCode":"6017","locality":"Ruswil","commune":{"key":"1098","name":"Ruswil","shortName":"Ruswil"},"district":{"key":"314","name":"Wahlkreis Sursee"},"canton":{"key":"3","code":"LU","name":"Luzern"},"status":"Real"},{"key":"10209562","name":"Under Roo","postalCode":"6017","locality":"Ruswil","commune":{"key":"1098","name":"Ruswil","shortName":"Ruswil"},"district":{"key":"314","name":"Wahlkreis Sursee"},"canton":{"key":"3","code":"LU","name":"Luzern"},"status":"Real"},{"key":"10017909","name":"Under Schübelberg","postalCode":"6017","locality":"Ruswil","commune":{"key":"1098","name":"Ruswil","shortName":"Ruswil"},"district":{"key":"314","name":"Wahlkreis Sursee"},"canton":{"key":"3","code":"LU","name":"Luzern"},"status":"Real"},{"key":"10052407","name":"Under Schwerzi","postalCode":"6017","locality":"Ruswil","commune":{"key":"1098","name":"Ruswil","shortName":"Ruswil"},"district":{"key":"314","name":"Wahlkreis Sursee"},"canton":{"key":"3","code":"LU","name":"Luzern"},"status":"Real"},{"key":"10074558","name":"Wäberhüseresagi","postalCode":"6017","locality":"Ruswil","commune":{"key":"1098","name":"Ruswil","shortName":"Ruswil"},"district":{"key":"314","name":"Wahlkreis Sursee"},"canton":{"key":"3","code":"LU","name":"Luzern"},"status":"Real"},{"key":"10082312","name":"Wächtergass","postalCode":"6017","locality":"Ruswil","commune":{"key":"1098","name":"Ruswil","shortName":"Ruswil"},"district":{"key":"314","name":"Wahlkreis Sursee"},"canton":{"key":"3","code":"LU","name":"Luzern"},"status":"Real"},{"key":"10017914","name":"Weiermättli","postalCode":"6017","locality":"Ruswil","commune":{"key":"1098","name":"Ruswil","shortName":"Ruswil"},"district":{"key":"314","name":"Wahlkreis Sursee"},"canton":{"key":"3","code":"LU","name":"Luzern"},"status":"Real"},{"key":"10082310","name":"Wigarte","postalCode":"6017","locality":"Ruswil","commune":{"key":"1098","name":"Ruswil","shortName":"Ruswil"},"district":{"key":"314","name":"Wahlkreis Sursee"},"canton":{"key":"3","code":"LU","name":"Luzern"},"status":"Real"},{"key":"10187306","name":"Wihalde","postalCode":"6017","locality":"Ruswil","commune":{"key":"1098","name":"Ruswil","shortName":"Ruswil"},"district":{"key":"314","name":"Wahlkreis Sursee"},"canton":{"key":"3","code":"LU","name":"Luzern"},"status":"Real"},{"key":"10017915","name":"Wil","postalCode":"6017","locality":"Ruswil","commune":{"key":"1098","name":"Ruswil","shortName":"Ruswil"},"district":{"key":"314","name":"Wahlkreis Sursee"},"canton":{"key":"3","code":"LU","name":"Luzern"},"status":"Real"},{"key":"10074556","name":"Windbüel","postalCode":"6017","locality":"Ruswil","commune":{"key":"1098","name":"Ruswil","shortName":"Ruswil"},"district":{"key":"314","name":"Wahlkreis Sursee"},"canton":{"key":"3","code":"LU","name":"Luzern"},"status":"Real"},{"key":"10211113","name":"Windbüelfeld","postalCode":"6017","locality":"Ruswil","commune":{"key":"1098","name":"Ruswil","shortName":"Ruswil"},"district":{"key":"314","name":"Wahlkreis Sursee"},"canton":{"key":"3","code":"LU","name":"Luzern"},"status":"Real"},{"key":"10178854","name":"Winkel","postalCode":"6017","locality":"Ruswil","commune":{"key":"1098","name":"Ruswil","shortName":"Ruswil"},"district":{"key":"314","name":"Wahlkreis Sursee"},"canton":{"key":"3","code":"LU","name":"Luzern"},"status":"Real"},{"key":"10017916","name":"Winkelstrasse","postalCode":"6017","locality":"Ruswil","commune":{"key":"1098","name":"Ruswil","shortName":"Ruswil"},"district":{"key":"314","name":"Wahlkreis Sursee"},"canton":{"key":"3","code":"LU","name":"Luzern"},"status":"Real"},{"key":"10207383","name":"Wisstanne","postalCode":"6017","locality":"Ruswil","commune":{"key":"1098","name":"Ruswil","shortName":"Ruswil"},"district":{"key":"314","name":"Wahlkreis Sursee"},"canton":{"key":"3","code":"LU","name":"Luzern"},"status":"Real"},{"key":"10082311","name":"Wixerüti","postalCode":"6017","locality":"Ruswil","commune":{"key":"1098","name":"Ruswil","shortName":"Ruswil"},"district":{"key":"314","name":"Wahlkreis Sursee"},"canton":{"key":"3","code":"LU","name":"Luzern"},"status":"Real"},{"key":"10074557","name":"Wolfsmatt","postalCode":"6017","locality":"Ruswil","commune":{"key":"1098","name":"Ruswil","shortName":"Ruswil"},"district":{"key":"314","name":"Wahlkreis Sursee"},"canton":{"key":"3","code":"LU","name":"Luzern"},"status":"Real"},{"key":"10107443","name":"Wolhuserstrasse","postalCode":"6017","locality":"Ruswil","commune":{"key":"1098","name":"Ruswil","shortName":"Ruswil"},"district":{"key":"314","name":"Wahlkreis Sursee"},"canton":{"key":"3","code":"LU","name":"Luzern"},"status":"Real"},{"key":"10120497","name":"Ziswil","postalCode":"6017","locality":"Ruswil","commune":{"key":"1098","name":"Ruswil","shortName":"Ruswil"},"district":{"key":"314","name":"Wahlkreis Sursee"},"canton":{"key":"3","code":"LU","name":"Luzern"},"status":"Real"},{"key":"10017918","name":"Zücke","postalCode":"6017","locality":"Ruswil","commune":{"key":"1098","name":"Ruswil","shortName":"Ruswil"},"district":{"key":"314","name":"Wahlkreis Sursee"},"canton":{"key":"3","code":"LU","name":"Luzern"},"status":"Real"},{"key":"10185877","name":"Zückerain","postalCode":"6017","locality":"Ruswil","commune":{"key":"1098","name":"Ruswil","shortName":"Ruswil"},"district":{"key":"314","name":"Wahlkreis Sursee"},"canton":{"key":"3","code":"LU","name":"Luzern"},"status":"Real"},{"key":"10017919","name":"Zückestrasse","postalCode":"6017","locality":"Ruswil","commune":{"key":"1098","name":"Ruswil","shortName":"Ruswil"},"district":{"key":"314","name":"Wahlkreis Sursee"},"canton":{"key":"3","code":"LU","name":"Luzern"},"status":"Real"},]