[{"key":"10012785","name":"Abtwilstrasse","postalCode":"6275","locality":"Ballwil","commune":{"key":"1023","name":"Ballwil","shortName":"Ballwil"},"district":{"key":"313","name":"Wahlkreis Hochdorf"},"canton":{"key":"3","code":"LU","name":"Luzern"},"status":"Real"},{"key":"10185141","name":"Aegerten","postalCode":"6275","locality":"Ballwil","commune":{"key":"1023","name":"Ballwil","shortName":"Ballwil"},"district":{"key":"313","name":"Wahlkreis Hochdorf"},"canton":{"key":"3","code":"LU","name":"Luzern"},"status":"Real"},{"key":"10014155","name":"Am Bach","postalCode":"6275","locality":"Ballwil","commune":{"key":"1023","name":"Ballwil","shortName":"Ballwil"},"district":{"key":"313","name":"Wahlkreis Hochdorf"},"canton":{"key":"3","code":"LU","name":"Luzern"},"status":"Real"},{"key":"10111438","name":"Ambar","postalCode":"6275","locality":"Ballwil","commune":{"key":"1023","name":"Ballwil","shortName":"Ballwil"},"district":{"key":"313","name":"Wahlkreis Hochdorf"},"canton":{"key":"3","code":"LU","name":"Luzern"},"status":"Real"},{"key":"10014156","name":"Bachweg","postalCode":"6275","locality":"Ballwil","commune":{"key":"1023","name":"Ballwil","shortName":"Ballwil"},"district":{"key":"313","name":"Wahlkreis Hochdorf"},"canton":{"key":"3","code":"LU","name":"Luzern"},"status":"Real"},{"key":"10123194","name":"Bahnhofstrasse","postalCode":"6275","locality":"Ballwil","commune":{"key":"1023","name":"Ballwil","shortName":"Ballwil"},"district":{"key":"313","name":"Wahlkreis Hochdorf"},"canton":{"key":"3","code":"LU","name":"Luzern"},"status":"Real"},{"key":"10199663","name":"Ballwil-Abtwil","postalCode":"6275","locality":"Ballwil","commune":{"key":"1023","name":"Ballwil","shortName":"Ballwil"},"district":{"key":"313","name":"Wahlkreis Hochdorf"},"canton":{"key":"3","code":"LU","name":"Luzern"},"status":"Real"},{"key":"10085876","name":"Ballwilstrasse","postalCode":"6275","locality":"Ballwil","commune":{"key":"1023","name":"Ballwil","shortName":"Ballwil"},"district":{"key":"313","name":"Wahlkreis Hochdorf"},"canton":{"key":"3","code":"LU","name":"Luzern"},"status":"Real"},{"key":"10192759","name":"Ballwilstrasse","postalCode":"6275","locality":"Ballwil","commune":{"key":"1023","name":"Ballwil","shortName":"Ballwil"},"district":{"key":"313","name":"Wahlkreis Hochdorf"},"canton":{"key":"3","code":"LU","name":"Luzern"},"status":"Real"},{"key":"10012786","name":"Blumenweg","postalCode":"6275","locality":"Ballwil","commune":{"key":"1023","name":"Ballwil","shortName":"Ballwil"},"district":{"key":"313","name":"Wahlkreis Hochdorf"},"canton":{"key":"3","code":"LU","name":"Luzern"},"status":"Real"},{"key":"10012787","name":"Brand","postalCode":"6275","locality":"Ballwil","commune":{"key":"1023","name":"Ballwil","shortName":"Ballwil"},"district":{"key":"313","name":"Wahlkreis Hochdorf"},"canton":{"key":"3","code":"LU","name":"Luzern"},"status":"Real"},{"key":"10085690","name":"Breite","postalCode":"6275","locality":"Ballwil","commune":{"key":"1023","name":"Ballwil","shortName":"Ballwil"},"district":{"key":"313","name":"Wahlkreis Hochdorf"},"canton":{"key":"3","code":"LU","name":"Luzern"},"status":"Real"},{"key":"10130132","name":"Brunnenweg","postalCode":"6275","locality":"Ballwil","commune":{"key":"1023","name":"Ballwil","shortName":"Ballwil"},"district":{"key":"313","name":"Wahlkreis Hochdorf"},"canton":{"key":"3","code":"LU","name":"Luzern"},"status":"Real"},{"key":"10185148","name":"Chäsihang","postalCode":"6275","locality":"Ballwil","commune":{"key":"1023","name":"Ballwil","shortName":"Ballwil"},"district":{"key":"313","name":"Wahlkreis Hochdorf"},"canton":{"key":"3","code":"LU","name":"Luzern"},"status":"Real"},{"key":"10012788","name":"Dorfstrasse","postalCode":"6275","locality":"Ballwil","commune":{"key":"1023","name":"Ballwil","shortName":"Ballwil"},"district":{"key":"313","name":"Wahlkreis Hochdorf"},"canton":{"key":"3","code":"LU","name":"Luzern"},"status":"Real"},{"key":"10038963","name":"Dosoleh","postalCode":"6275","locality":"Ballwil","commune":{"key":"1023","name":"Ballwil","shortName":"Ballwil"},"district":{"key":"313","name":"Wahlkreis Hochdorf"},"canton":{"key":"3","code":"LU","name":"Luzern"},"status":"Real"},{"key":"10054638","name":"Dosoleh","postalCode":"6275","locality":"Ballwil","commune":{"key":"1023","name":"Ballwil","shortName":"Ballwil"},"district":{"key":"313","name":"Wahlkreis Hochdorf"},"canton":{"key":"3","code":"LU","name":"Luzern"},"status":"Real"},{"key":"10251480","name":"Erlenwald","postalCode":"6275","locality":"Ballwil","commune":{"key":"1023","name":"Ballwil","shortName":"Ballwil"},"district":{"key":"313","name":"Wahlkreis Hochdorf"},"canton":{"key":"3","code":"LU","name":"Luzern"},"status":"Real"},{"key":"10129100","name":"Erlenweg","postalCode":"6275","locality":"Ballwil","commune":{"key":"1023","name":"Ballwil","shortName":"Ballwil"},"district":{"key":"313","name":"Wahlkreis Hochdorf"},"canton":{"key":"3","code":"LU","name":"Luzern"},"status":"Real"},{"key":"10012789","name":"Feiern","postalCode":"6275","locality":"Ballwil","commune":{"key":"1023","name":"Ballwil","shortName":"Ballwil"},"district":{"key":"313","name":"Wahlkreis Hochdorf"},"canton":{"key":"3","code":"LU","name":"Luzern"},"status":"Real"},{"key":"10251481","name":"Feiernwald","postalCode":"6275","locality":"Ballwil","commune":{"key":"1023","name":"Ballwil","shortName":"Ballwil"},"district":{"key":"313","name":"Wahlkreis Hochdorf"},"canton":{"key":"3","code":"LU","name":"Luzern"},"status":"Real"},{"key":"10174096","name":"Feldhof","postalCode":"6275","locality":"Ballwil","commune":{"key":"1023","name":"Ballwil","shortName":"Ballwil"},"district":{"key":"313","name":"Wahlkreis Hochdorf"},"canton":{"key":"3","code":"LU","name":"Luzern"},"status":"Real"},{"key":"10085691","name":"Flurhöhe","postalCode":"6275","locality":"Ballwil","commune":{"key":"1023","name":"Ballwil","shortName":"Ballwil"},"district":{"key":"313","name":"Wahlkreis Hochdorf"},"canton":{"key":"3","code":"LU","name":"Luzern"},"status":"Real"},{"key":"10074375","name":"Flurweid","postalCode":"6275","locality":"Ballwil","commune":{"key":"1023","name":"Ballwil","shortName":"Ballwil"},"district":{"key":"313","name":"Wahlkreis Hochdorf"},"canton":{"key":"3","code":"LU","name":"Luzern"},"status":"Real"},{"key":"10130133","name":"Flurweidstrasse","postalCode":"6275","locality":"Ballwil","commune":{"key":"1023","name":"Ballwil","shortName":"Ballwil"},"district":{"key":"313","name":"Wahlkreis Hochdorf"},"canton":{"key":"3","code":"LU","name":"Luzern"},"status":"Real"},{"key":"10064713","name":"Fuhr","postalCode":"6275","locality":"Ballwil","commune":{"key":"1023","name":"Ballwil","shortName":"Ballwil"},"district":{"key":"313","name":"Wahlkreis Hochdorf"},"canton":{"key":"3","code":"LU","name":"Luzern"},"status":"Real"},{"key":"10012784","name":"Gerligen","postalCode":"6275","locality":"Ballwil","commune":{"key":"1023","name":"Ballwil","shortName":"Ballwil"},"district":{"key":"313","name":"Wahlkreis Hochdorf"},"canton":{"key":"3","code":"LU","name":"Luzern"},"status":"Real"},{"key":"10184369","name":"Gibelflüh","postalCode":"6275","locality":"Ballwil","commune":{"key":"1023","name":"Ballwil","shortName":"Ballwil"},"district":{"key":"313","name":"Wahlkreis Hochdorf"},"canton":{"key":"3","code":"LU","name":"Luzern"},"status":"Real"},{"key":"10012790","name":"Gibelflühstrasse","postalCode":"6275","locality":"Ballwil","commune":{"key":"1023","name":"Ballwil","shortName":"Ballwil"},"district":{"key":"313","name":"Wahlkreis Hochdorf"},"canton":{"key":"3","code":"LU","name":"Luzern"},"status":"Real"},{"key":"10187248","name":"Gorgen","postalCode":"6275","locality":"Ballwil","commune":{"key":"1023","name":"Ballwil","shortName":"Ballwil"},"district":{"key":"313","name":"Wahlkreis Hochdorf"},"canton":{"key":"3","code":"LU","name":"Luzern"},"status":"Real"},{"key":"10252425","name":"Gorgenhof","postalCode":"6275","locality":"Ballwil","commune":{"key":"1023","name":"Ballwil","shortName":"Ballwil"},"district":{"key":"313","name":"Wahlkreis Hochdorf"},"canton":{"key":"3","code":"LU","name":"Luzern"},"status":"Real"},{"key":"10251482","name":"Gorgenwald","postalCode":"6275","locality":"Ballwil","commune":{"key":"1023","name":"Ballwil","shortName":"Ballwil"},"district":{"key":"313","name":"Wahlkreis Hochdorf"},"canton":{"key":"3","code":"LU","name":"Luzern"},"status":"Real"},{"key":"10081135","name":"Gütsch","postalCode":"6275","locality":"Ballwil","commune":{"key":"1023","name":"Ballwil","shortName":"Ballwil"},"district":{"key":"313","name":"Wahlkreis Hochdorf"},"canton":{"key":"3","code":"LU","name":"Luzern"},"status":"Real"},{"key":"10054639","name":"Gütschhof","postalCode":"6275","locality":"Ballwil","commune":{"key":"1023","name":"Ballwil","shortName":"Ballwil"},"district":{"key":"313","name":"Wahlkreis Hochdorf"},"canton":{"key":"3","code":"LU","name":"Luzern"},"status":"Real"},{"key":"10189692","name":"Gütschhöhe","postalCode":"6275","locality":"Ballwil","commune":{"key":"1023","name":"Ballwil","shortName":"Ballwil"},"district":{"key":"313","name":"Wahlkreis Hochdorf"},"canton":{"key":"3","code":"LU","name":"Luzern"},"status":"Real"},{"key":"10129098","name":"Gütschrain","postalCode":"6275","locality":"Ballwil","commune":{"key":"1023","name":"Ballwil","shortName":"Ballwil"},"district":{"key":"313","name":"Wahlkreis Hochdorf"},"canton":{"key":"3","code":"LU","name":"Luzern"},"status":"Real"},{"key":"10064714","name":"Hasli","postalCode":"6275","locality":"Ballwil","commune":{"key":"1023","name":"Ballwil","shortName":"Ballwil"},"district":{"key":"313","name":"Wahlkreis Hochdorf"},"canton":{"key":"3","code":"LU","name":"Luzern"},"status":"Real"},{"key":"10085881","name":"Hinterkramis","postalCode":"6275","locality":"Ballwil","commune":{"key":"1023","name":"Ballwil","shortName":"Ballwil"},"district":{"key":"313","name":"Wahlkreis Hochdorf"},"canton":{"key":"3","code":"LU","name":"Luzern"},"status":"Real"},{"key":"10012791","name":"Hochdorfstrasse","postalCode":"6275","locality":"Ballwil","commune":{"key":"1023","name":"Ballwil","shortName":"Ballwil"},"district":{"key":"313","name":"Wahlkreis Hochdorf"},"canton":{"key":"3","code":"LU","name":"Luzern"},"status":"Real"},{"key":"10111439","name":"Höchweid","postalCode":"6275","locality":"Ballwil","commune":{"key":"1023","name":"Ballwil","shortName":"Ballwil"},"district":{"key":"313","name":"Wahlkreis Hochdorf"},"canton":{"key":"3","code":"LU","name":"Luzern"},"status":"Real"},{"key":"10054640","name":"Höhe","postalCode":"6275","locality":"Ballwil","commune":{"key":"1023","name":"Ballwil","shortName":"Ballwil"},"district":{"key":"313","name":"Wahlkreis Hochdorf"},"canton":{"key":"3","code":"LU","name":"Luzern"},"status":"Real"},{"key":"10081136","name":"Hohenrainstrasse","postalCode":"6275","locality":"Ballwil","commune":{"key":"1023","name":"Ballwil","shortName":"Ballwil"},"district":{"key":"313","name":"Wahlkreis Hochdorf"},"canton":{"key":"3","code":"LU","name":"Luzern"},"status":"Real"},{"key":"10211876","name":"Inwilstrasse","postalCode":"6275","locality":"Ballwil","commune":{"key":"1023","name":"Ballwil","shortName":"Ballwil"},"district":{"key":"313","name":"Wahlkreis Hochdorf"},"canton":{"key":"3","code":"LU","name":"Luzern"},"status":"Real"},{"key":"10246846","name":"Kieswerkstrasse","postalCode":"6275","locality":"Ballwil","commune":{"key":"1023","name":"Ballwil","shortName":"Ballwil"},"district":{"key":"313","name":"Wahlkreis Hochdorf"},"canton":{"key":"3","code":"LU","name":"Luzern"},"status":"Real"},{"key":"10012792","name":"Klän","postalCode":"6275","locality":"Ballwil","commune":{"key":"1023","name":"Ballwil","shortName":"Ballwil"},"district":{"key":"313","name":"Wahlkreis Hochdorf"},"canton":{"key":"3","code":"LU","name":"Luzern"},"status":"Real"},{"key":"10111748","name":"Kramis","postalCode":"6275","locality":"Ballwil","commune":{"key":"1023","name":"Ballwil","shortName":"Ballwil"},"district":{"key":"313","name":"Wahlkreis Hochdorf"},"canton":{"key":"3","code":"LU","name":"Luzern"},"status":"Real"},{"key":"10130134","name":"Kramisstrasse","postalCode":"6275","locality":"Ballwil","commune":{"key":"1023","name":"Ballwil","shortName":"Ballwil"},"district":{"key":"313","name":"Wahlkreis Hochdorf"},"canton":{"key":"3","code":"LU","name":"Luzern"},"status":"Real"},{"key":"10054641","name":"Kürbsenhaus","postalCode":"6275","locality":"Ballwil","commune":{"key":"1023","name":"Ballwil","shortName":"Ballwil"},"district":{"key":"313","name":"Wahlkreis Hochdorf"},"canton":{"key":"3","code":"LU","name":"Luzern"},"status":"Real"},{"key":"10012793","name":"Lebern","postalCode":"6275","locality":"Ballwil","commune":{"key":"1023","name":"Ballwil","shortName":"Ballwil"},"district":{"key":"313","name":"Wahlkreis Hochdorf"},"canton":{"key":"3","code":"LU","name":"Luzern"},"status":"Real"},{"key":"10184370","name":"Linggen","postalCode":"6275","locality":"Ballwil","commune":{"key":"1023","name":"Ballwil","shortName":"Ballwil"},"district":{"key":"313","name":"Wahlkreis Hochdorf"},"canton":{"key":"3","code":"LU","name":"Luzern"},"status":"Real"},{"key":"10142124","name":"Linggenhalde","postalCode":"6275","locality":"Ballwil","commune":{"key":"1023","name":"Ballwil","shortName":"Ballwil"},"district":{"key":"313","name":"Wahlkreis Hochdorf"},"canton":{"key":"3","code":"LU","name":"Luzern"},"status":"Real"},{"key":"10020898","name":"Linggenrain","postalCode":"6275","locality":"Ballwil","commune":{"key":"1023","name":"Ballwil","shortName":"Ballwil"},"district":{"key":"313","name":"Wahlkreis Hochdorf"},"canton":{"key":"3","code":"LU","name":"Luzern"},"status":"Real"},{"key":"10064715","name":"Linggenstrasse","postalCode":"6275","locality":"Ballwil","commune":{"key":"1023","name":"Ballwil","shortName":"Ballwil"},"district":{"key":"313","name":"Wahlkreis Hochdorf"},"canton":{"key":"3","code":"LU","name":"Luzern"},"status":"Real"},{"key":"10123973","name":"Linggenweid","postalCode":"6275","locality":"Ballwil","commune":{"key":"1023","name":"Ballwil","shortName":"Ballwil"},"district":{"key":"313","name":"Wahlkreis Hochdorf"},"canton":{"key":"3","code":"LU","name":"Luzern"},"status":"Real"},{"key":"10081137","name":"Luzernstrasse","postalCode":"6275","locality":"Ballwil","commune":{"key":"1023","name":"Ballwil","shortName":"Ballwil"},"district":{"key":"313","name":"Wahlkreis Hochdorf"},"canton":{"key":"3","code":"LU","name":"Luzern"},"status":"Real"},{"key":"10156186","name":"Margrethengasse","postalCode":"6275","locality":"Ballwil","commune":{"key":"1023","name":"Ballwil","shortName":"Ballwil"},"district":{"key":"313","name":"Wahlkreis Hochdorf"},"canton":{"key":"3","code":"LU","name":"Luzern"},"status":"Real"},{"key":"10135298","name":"Margrethenhof","postalCode":"6275","locality":"Ballwil","commune":{"key":"1023","name":"Ballwil","shortName":"Ballwil"},"district":{"key":"313","name":"Wahlkreis Hochdorf"},"canton":{"key":"3","code":"LU","name":"Luzern"},"status":"Real"},{"key":"10246974","name":"Margrethenpark","postalCode":"6275","locality":"Ballwil","commune":{"key":"1023","name":"Ballwil","shortName":"Ballwil"},"district":{"key":"313","name":"Wahlkreis Hochdorf"},"canton":{"key":"3","code":"LU","name":"Luzern"},"status":"Real"},{"key":"10012794","name":"Margrethenstrasse","postalCode":"6275","locality":"Ballwil","commune":{"key":"1023","name":"Ballwil","shortName":"Ballwil"},"district":{"key":"313","name":"Wahlkreis Hochdorf"},"canton":{"key":"3","code":"LU","name":"Luzern"},"status":"Real"},{"key":"10012795","name":"Margrethenweg","postalCode":"6275","locality":"Ballwil","commune":{"key":"1023","name":"Ballwil","shortName":"Ballwil"},"district":{"key":"313","name":"Wahlkreis Hochdorf"},"canton":{"key":"3","code":"LU","name":"Luzern"},"status":"Real"},{"key":"10195262","name":"Meierhöfli","postalCode":"6275","locality":"Ballwil","commune":{"key":"1023","name":"Ballwil","shortName":"Ballwil"},"district":{"key":"313","name":"Wahlkreis Hochdorf"},"canton":{"key":"3","code":"LU","name":"Luzern"},"status":"Real"},{"key":"10012796","name":"Mettenwil","postalCode":"6275","locality":"Ballwil","commune":{"key":"1023","name":"Ballwil","shortName":"Ballwil"},"district":{"key":"313","name":"Wahlkreis Hochdorf"},"canton":{"key":"3","code":"LU","name":"Luzern"},"status":"Real"},{"key":"10081138","name":"Mettenwilhöhe","postalCode":"6275","locality":"Ballwil","commune":{"key":"1023","name":"Ballwil","shortName":"Ballwil"},"district":{"key":"313","name":"Wahlkreis Hochdorf"},"canton":{"key":"3","code":"LU","name":"Luzern"},"status":"Real"},{"key":"10117053","name":"Morgenhalde","postalCode":"6275","locality":"Ballwil","commune":{"key":"1023","name":"Ballwil","shortName":"Ballwil"},"district":{"key":"313","name":"Wahlkreis Hochdorf"},"canton":{"key":"3","code":"LU","name":"Luzern"},"status":"Real"},{"key":"10187249","name":"Morgenhaldenstrasse","postalCode":"6275","locality":"Ballwil","commune":{"key":"1023","name":"Ballwil","shortName":"Ballwil"},"district":{"key":"313","name":"Wahlkreis Hochdorf"},"canton":{"key":"3","code":"LU","name":"Luzern"},"status":"Real"},{"key":"10152425","name":"Neu-Aegerten","postalCode":"6275","locality":"Ballwil","commune":{"key":"1023","name":"Ballwil","shortName":"Ballwil"},"district":{"key":"313","name":"Wahlkreis Hochdorf"},"canton":{"key":"3","code":"LU","name":"Luzern"},"status":"Real"},{"key":"10184371","name":"Neualp","postalCode":"6275","locality":"Ballwil","commune":{"key":"1023","name":"Ballwil","shortName":"Ballwil"},"district":{"key":"313","name":"Wahlkreis Hochdorf"},"canton":{"key":"3","code":"LU","name":"Luzern"},"status":"Real"},{"key":"10103876","name":"Neufuhr","postalCode":"6275","locality":"Ballwil","commune":{"key":"1023","name":"Ballwil","shortName":"Ballwil"},"district":{"key":"313","name":"Wahlkreis Hochdorf"},"canton":{"key":"3","code":"LU","name":"Luzern"},"status":"Real"},{"key":"10161756","name":"Neugorgen","postalCode":"6275","locality":"Ballwil","commune":{"key":"1023","name":"Ballwil","shortName":"Ballwil"},"district":{"key":"313","name":"Wahlkreis Hochdorf"},"canton":{"key":"3","code":"LU","name":"Luzern"},"status":"Real"},{"key":"10012797","name":"Neuheim","postalCode":"6275","locality":"Ballwil","commune":{"key":"1023","name":"Ballwil","shortName":"Ballwil"},"district":{"key":"313","name":"Wahlkreis Hochdorf"},"canton":{"key":"3","code":"LU","name":"Luzern"},"status":"Real"},{"key":"10081139","name":"Neuheimweg","postalCode":"6275","locality":"Ballwil","commune":{"key":"1023","name":"Ballwil","shortName":"Ballwil"},"district":{"key":"313","name":"Wahlkreis Hochdorf"},"canton":{"key":"3","code":"LU","name":"Luzern"},"status":"Real"},{"key":"10012798","name":"Obergerligen","postalCode":"6275","locality":"Ballwil","commune":{"key":"1023","name":"Ballwil","shortName":"Ballwil"},"district":{"key":"313","name":"Wahlkreis Hochdorf"},"canton":{"key":"3","code":"LU","name":"Luzern"},"status":"Real"},{"key":"10175322","name":"Oberkramis","postalCode":"6275","locality":"Ballwil","commune":{"key":"1023","name":"Ballwil","shortName":"Ballwil"},"district":{"key":"313","name":"Wahlkreis Hochdorf"},"canton":{"key":"3","code":"LU","name":"Luzern"},"status":"Real"},{"key":"10054642","name":"Oberlinggen","postalCode":"6275","locality":"Ballwil","commune":{"key":"1023","name":"Ballwil","shortName":"Ballwil"},"district":{"key":"313","name":"Wahlkreis Hochdorf"},"canton":{"key":"3","code":"LU","name":"Luzern"},"status":"Real"},{"key":"10014157","name":"Ottenhusen","postalCode":"6275","locality":"Ballwil","commune":{"key":"1023","name":"Ballwil","shortName":"Ballwil"},"district":{"key":"313","name":"Wahlkreis Hochdorf"},"canton":{"key":"3","code":"LU","name":"Luzern"},"status":"Real"},{"key":"10064717","name":"Pfrundweg","postalCode":"6275","locality":"Ballwil","commune":{"key":"1023","name":"Ballwil","shortName":"Ballwil"},"district":{"key":"313","name":"Wahlkreis Hochdorf"},"canton":{"key":"3","code":"LU","name":"Luzern"},"status":"Real"},{"key":"10163151","name":"Rigiblick","postalCode":"6275","locality":"Ballwil","commune":{"key":"1023","name":"Ballwil","shortName":"Ballwil"},"district":{"key":"313","name":"Wahlkreis Hochdorf"},"canton":{"key":"3","code":"LU","name":"Luzern"},"status":"Real"},{"key":"10130135","name":"Römerweg","postalCode":"6275","locality":"Ballwil","commune":{"key":"1023","name":"Ballwil","shortName":"Ballwil"},"district":{"key":"313","name":"Wahlkreis Hochdorf"},"canton":{"key":"3","code":"LU","name":"Luzern"},"status":"Real"},{"key":"10111728","name":"Rütihof","postalCode":"6275","locality":"Ballwil","commune":{"key":"1023","name":"Ballwil","shortName":"Ballwil"},"district":{"key":"313","name":"Wahlkreis Hochdorf"},"canton":{"key":"3","code":"LU","name":"Luzern"},"status":"Real"},{"key":"10154460","name":"Sagistrasse","postalCode":"6275","locality":"Ballwil","commune":{"key":"1023","name":"Ballwil","shortName":"Ballwil"},"district":{"key":"313","name":"Wahlkreis Hochdorf"},"canton":{"key":"3","code":"LU","name":"Luzern"},"status":"Real"},{"key":"10081140","name":"Sagistrasse","postalCode":"6275","locality":"Ballwil","commune":{"key":"1023","name":"Ballwil","shortName":"Ballwil"},"district":{"key":"313","name":"Wahlkreis Hochdorf"},"canton":{"key":"3","code":"LU","name":"Luzern"},"status":"Real"},{"key":"10012799","name":"Schloss","postalCode":"6275","locality":"Ballwil","commune":{"key":"1023","name":"Ballwil","shortName":"Ballwil"},"district":{"key":"313","name":"Wahlkreis Hochdorf"},"canton":{"key":"3","code":"LU","name":"Luzern"},"status":"Real"},{"key":"10161757","name":"Schlosshof","postalCode":"6275","locality":"Ballwil","commune":{"key":"1023","name":"Ballwil","shortName":"Ballwil"},"district":{"key":"313","name":"Wahlkreis Hochdorf"},"canton":{"key":"3","code":"LU","name":"Luzern"},"status":"Real"},{"key":"10064718","name":"Schlosshöhe","postalCode":"6275","locality":"Ballwil","commune":{"key":"1023","name":"Ballwil","shortName":"Ballwil"},"district":{"key":"313","name":"Wahlkreis Hochdorf"},"canton":{"key":"3","code":"LU","name":"Luzern"},"status":"Real"},{"key":"10192760","name":"Schlössli","postalCode":"6275","locality":"Ballwil","commune":{"key":"1023","name":"Ballwil","shortName":"Ballwil"},"district":{"key":"313","name":"Wahlkreis Hochdorf"},"canton":{"key":"3","code":"LU","name":"Luzern"},"status":"Real"},{"key":"10064719","name":"Schlossmatte","postalCode":"6275","locality":"Ballwil","commune":{"key":"1023","name":"Ballwil","shortName":"Ballwil"},"district":{"key":"313","name":"Wahlkreis Hochdorf"},"canton":{"key":"3","code":"LU","name":"Luzern"},"status":"Real"},{"key":"10012800","name":"Schlossrain","postalCode":"6275","locality":"Ballwil","commune":{"key":"1023","name":"Ballwil","shortName":"Ballwil"},"district":{"key":"313","name":"Wahlkreis Hochdorf"},"canton":{"key":"3","code":"LU","name":"Luzern"},"status":"Real"},{"key":"10118387","name":"Schönfeld","postalCode":"6275","locality":"Ballwil","commune":{"key":"1023","name":"Ballwil","shortName":"Ballwil"},"district":{"key":"313","name":"Wahlkreis Hochdorf"},"canton":{"key":"3","code":"LU","name":"Luzern"},"status":"Real"},{"key":"10184372","name":"Schönfeldstrasse","postalCode":"6275","locality":"Ballwil","commune":{"key":"1023","name":"Ballwil","shortName":"Ballwil"},"district":{"key":"313","name":"Wahlkreis Hochdorf"},"canton":{"key":"3","code":"LU","name":"Luzern"},"status":"Real"},{"key":"10081141","name":"Schürhof","postalCode":"6275","locality":"Ballwil","commune":{"key":"1023","name":"Ballwil","shortName":"Ballwil"},"district":{"key":"313","name":"Wahlkreis Hochdorf"},"canton":{"key":"3","code":"LU","name":"Luzern"},"status":"Real"},{"key":"10014158","name":"Sennenmoos","postalCode":"6275","locality":"Ballwil","commune":{"key":"1023","name":"Ballwil","shortName":"Ballwil"},"district":{"key":"313","name":"Wahlkreis Hochdorf"},"canton":{"key":"3","code":"LU","name":"Luzern"},"status":"Real"},{"key":"10130136","name":"Sinserstrasse","postalCode":"6275","locality":"Ballwil","commune":{"key":"1023","name":"Ballwil","shortName":"Ballwil"},"district":{"key":"313","name":"Wahlkreis Hochdorf"},"canton":{"key":"3","code":"LU","name":"Luzern"},"status":"Real"},{"key":"10015273","name":"Sonnegg","postalCode":"6275","locality":"Ballwil","commune":{"key":"1023","name":"Ballwil","shortName":"Ballwil"},"district":{"key":"313","name":"Wahlkreis Hochdorf"},"canton":{"key":"3","code":"LU","name":"Luzern"},"status":"Real"},{"key":"10185830","name":"Sonnrain","postalCode":"6275","locality":"Ballwil","commune":{"key":"1023","name":"Ballwil","shortName":"Ballwil"},"district":{"key":"313","name":"Wahlkreis Hochdorf"},"canton":{"key":"3","code":"LU","name":"Luzern"},"status":"Real"},{"key":"10192994","name":"Sprengistrasse","postalCode":"6275","locality":"Ballwil","commune":{"key":"1023","name":"Ballwil","shortName":"Ballwil"},"district":{"key":"313","name":"Wahlkreis Hochdorf"},"canton":{"key":"3","code":"LU","name":"Luzern"},"status":"Real"},{"key":"10012801","name":"Steinhalde","postalCode":"6275","locality":"Ballwil","commune":{"key":"1023","name":"Ballwil","shortName":"Ballwil"},"district":{"key":"313","name":"Wahlkreis Hochdorf"},"canton":{"key":"3","code":"LU","name":"Luzern"},"status":"Real"},{"key":"10064720","name":"Unterhöhe","postalCode":"6275","locality":"Ballwil","commune":{"key":"1023","name":"Ballwil","shortName":"Ballwil"},"district":{"key":"313","name":"Wahlkreis Hochdorf"},"canton":{"key":"3","code":"LU","name":"Luzern"},"status":"Real"},{"key":"10015789","name":"Unterlinggen","postalCode":"6275","locality":"Ballwil","commune":{"key":"1023","name":"Ballwil","shortName":"Ballwil"},"district":{"key":"313","name":"Wahlkreis Hochdorf"},"canton":{"key":"3","code":"LU","name":"Luzern"},"status":"Real"},{"key":"10081142","name":"Urswilstrasse","postalCode":"6275","locality":"Ballwil","commune":{"key":"1023","name":"Ballwil","shortName":"Ballwil"},"district":{"key":"313","name":"Wahlkreis Hochdorf"},"canton":{"key":"3","code":"LU","name":"Luzern"},"status":"Real"},{"key":"10196575","name":"Verbindungsstrasse Ottenhusen","postalCode":"6275","locality":"Ballwil","commune":{"key":"1023","name":"Ballwil","shortName":"Ballwil"},"district":{"key":"313","name":"Wahlkreis Hochdorf"},"canton":{"key":"3","code":"LU","name":"Luzern"},"status":"Real"},{"key":"10015274","name":"Vorderkramis","postalCode":"6275","locality":"Ballwil","commune":{"key":"1023","name":"Ballwil","shortName":"Ballwil"},"district":{"key":"313","name":"Wahlkreis Hochdorf"},"canton":{"key":"3","code":"LU","name":"Luzern"},"status":"Real"},{"key":"10064721","name":"Wassergass","postalCode":"6275","locality":"Ballwil","commune":{"key":"1023","name":"Ballwil","shortName":"Ballwil"},"district":{"key":"313","name":"Wahlkreis Hochdorf"},"canton":{"key":"3","code":"LU","name":"Luzern"},"status":"Real"},{"key":"10015790","name":"Weierhaus","postalCode":"6275","locality":"Ballwil","commune":{"key":"1023","name":"Ballwil","shortName":"Ballwil"},"district":{"key":"313","name":"Wahlkreis Hochdorf"},"canton":{"key":"3","code":"LU","name":"Luzern"},"status":"Real"},{"key":"10015791","name":"Weiherstrasse","postalCode":"6275","locality":"Ballwil","commune":{"key":"1023","name":"Ballwil","shortName":"Ballwil"},"district":{"key":"313","name":"Wahlkreis Hochdorf"},"canton":{"key":"3","code":"LU","name":"Luzern"},"status":"Real"},{"key":"10015792","name":"Wiesengrund","postalCode":"6275","locality":"Ballwil","commune":{"key":"1023","name":"Ballwil","shortName":"Ballwil"},"district":{"key":"313","name":"Wahlkreis Hochdorf"},"canton":{"key":"3","code":"LU","name":"Luzern"},"status":"Real"},{"key":"10064722","name":"Wilhofweg","postalCode":"6275","locality":"Ballwil","commune":{"key":"1023","name":"Ballwil","shortName":"Ballwil"},"district":{"key":"313","name":"Wahlkreis Hochdorf"},"canton":{"key":"3","code":"LU","name":"Luzern"},"status":"Real"},{"key":"10081143","name":"Wissenwegen","postalCode":"6275","locality":"Ballwil","commune":{"key":"1023","name":"Ballwil","shortName":"Ballwil"},"district":{"key":"313","name":"Wahlkreis Hochdorf"},"canton":{"key":"3","code":"LU","name":"Luzern"},"status":"Real"},{"key":"10081144","name":"Xaver-Herzogweg","postalCode":"6275","locality":"Ballwil","commune":{"key":"1023","name":"Ballwil","shortName":"Ballwil"},"district":{"key":"313","name":"Wahlkreis Hochdorf"},"canton":{"key":"3","code":"LU","name":"Luzern"},"status":"Real"},]