[{"name":"Am Brunnen","postalCode":"54424","locality":"Gielert","municipality":{"key":"07231035","name":"Gielert","type":"Kreisangehörige_Gemeinde"},"district":{"key":"07231","name":"Bernkastel-Wittlich","type":"Landkreis"},"federalState":{"key":"07","name":"Rheinland-Pfalz"}},{"name":"Eichenhain","postalCode":"54424","locality":"Gielert","municipality":{"key":"07231035","name":"Gielert","type":"Kreisangehörige_Gemeinde"},"district":{"key":"07231","name":"Bernkastel-Wittlich","type":"Landkreis"},"federalState":{"key":"07","name":"Rheinland-Pfalz"}},{"name":"Hohlweg","postalCode":"54424","locality":"Gielert","municipality":{"key":"07231035","name":"Gielert","type":"Kreisangehörige_Gemeinde"},"district":{"key":"07231","name":"Bernkastel-Wittlich","type":"Landkreis"},"federalState":{"key":"07","name":"Rheinland-Pfalz"}},{"name":"Schulweg","postalCode":"54424","locality":"Gielert","municipality":{"key":"07231035","name":"Gielert","type":"Kreisangehörige_Gemeinde"},"district":{"key":"07231","name":"Bernkastel-Wittlich","type":"Landkreis"},"federalState":{"key":"07","name":"Rheinland-Pfalz"}},{"name":"Steinerbaum","postalCode":"54424","locality":"Gielert","municipality":{"key":"07231035","name":"Gielert","type":"Kreisangehörige_Gemeinde"},"district":{"key":"07231","name":"Bernkastel-Wittlich","type":"Landkreis"},"federalState":{"key":"07","name":"Rheinland-Pfalz"}},{"name":"Wiesenweg","postalCode":"54424","locality":"Gielert","municipality":{"key":"07231035","name":"Gielert","type":"Kreisangehörige_Gemeinde"},"district":{"key":"07231","name":"Bernkastel-Wittlich","type":"Landkreis"},"federalState":{"key":"07","name":"Rheinland-Pfalz"}},{"name":"Zum Königsfeld","postalCode":"54424","locality":"Gielert","municipality":{"key":"07231035","name":"Gielert","type":"Kreisangehörige_Gemeinde"},"district":{"key":"07231","name":"Bernkastel-Wittlich","type":"Landkreis"},"federalState":{"key":"07","name":"Rheinland-Pfalz"}},{"name":"Zum Sauerbrunnen","postalCode":"54424","locality":"Gielert","municipality":{"key":"07231035","name":"Gielert","type":"Kreisangehörige_Gemeinde"},"district":{"key":"07231","name":"Bernkastel-Wittlich","type":"Landkreis"},"federalState":{"key":"07","name":"Rheinland-Pfalz"}},{"name":"Zur Heide","postalCode":"54424","locality":"Gielert","municipality":{"key":"07231035","name":"Gielert","type":"Kreisangehörige_Gemeinde"},"district":{"key":"07231","name":"Bernkastel-Wittlich","type":"Landkreis"},"federalState":{"key":"07","name":"Rheinland-Pfalz"}},]