[{"name":"Dormitzer Str.","postalCode":"90562","locality":"Dormitzer Forst","municipality":{"key":"09572453","name":"Dormitzer Forst","type":"Gemeindefreies_Gebiet_Unbewohnt"},"district":{"key":"09572","name":"Erlangen-Höchstadt","type":"Landkreis"},"federalState":{"key":"09","name":"Bayern"}},{"name":"Fünf-Föhren-Linie","postalCode":"90562","locality":"Dormitzer Forst","municipality":{"key":"09572453","name":"Dormitzer Forst","type":"Gemeindefreies_Gebiet_Unbewohnt"},"district":{"key":"09572","name":"Erlangen-Höchstadt","type":"Landkreis"},"federalState":{"key":"09","name":"Bayern"}},{"name":"Kalchreuther Weg","postalCode":"90562","locality":"Dormitzer Forst","municipality":{"key":"09572453","name":"Dormitzer Forst","type":"Gemeindefreies_Gebiet_Unbewohnt"},"district":{"key":"09572","name":"Erlangen-Höchstadt","type":"Landkreis"},"federalState":{"key":"09","name":"Bayern"}},{"name":"Langenbrucker Weg","postalCode":"90562","locality":"Dormitzer Forst","municipality":{"key":"09572453","name":"Dormitzer Forst","type":"Gemeindefreies_Gebiet_Unbewohnt"},"district":{"key":"09572","name":"Erlangen-Höchstadt","type":"Landkreis"},"federalState":{"key":"09","name":"Bayern"}},{"name":"Mühlweg","postalCode":"90562","locality":"Dormitzer Forst","municipality":{"key":"09572453","name":"Dormitzer Forst","type":"Gemeindefreies_Gebiet_Unbewohnt"},"district":{"key":"09572","name":"Erlangen-Höchstadt","type":"Landkreis"},"federalState":{"key":"09","name":"Bayern"}},{"name":"Postenlinie","postalCode":"90562","locality":"Dormitzer Forst","municipality":{"key":"09572453","name":"Dormitzer Forst","type":"Gemeindefreies_Gebiet_Unbewohnt"},"district":{"key":"09572","name":"Erlangen-Höchstadt","type":"Landkreis"},"federalState":{"key":"09","name":"Bayern"}},{"name":"Schöllenbacher Weg","postalCode":"90562","locality":"Dormitzer Forst","municipality":{"key":"09572453","name":"Dormitzer Forst","type":"Gemeindefreies_Gebiet_Unbewohnt"},"district":{"key":"09572","name":"Erlangen-Höchstadt","type":"Landkreis"},"federalState":{"key":"09","name":"Bayern"}},{"name":"Wehrwiesenweg","postalCode":"90562","locality":"Dormitzer Forst","municipality":{"key":"09572453","name":"Dormitzer Forst","type":"Gemeindefreies_Gebiet_Unbewohnt"},"district":{"key":"09572","name":"Erlangen-Höchstadt","type":"Landkreis"},"federalState":{"key":"09","name":"Bayern"}},]