[{"name":"11 Kilometerweg","postalCode":"37431","locality":"Harz (Landkreis Göttingen)","municipality":{"key":"03159501","name":"Harz (Landkreis Göttingen), gemfr. Geb.","type":"Gemeindefreies_Gebiet_Unbewohnt"},"district":{"key":"03159","name":"Göttingen","type":"Landkreis"},"federalState":{"key":"03","name":"Niedersachsen"}},{"name":"13.November-Weg","postalCode":"37520","locality":"Harz (Landkreis Göttingen)","municipality":{"key":"03159501","name":"Harz (Landkreis Göttingen), gemfr. Geb.","type":"Gemeindefreies_Gebiet_Unbewohnt"},"district":{"key":"03159","name":"Göttingen","type":"Landkreis"},"federalState":{"key":"03","name":"Niedersachsen"}},{"name":"1. Eckerhangweg","postalCode":"38667","locality":"Bad Harzburg","municipality":{"key":"03153002","name":"Bad Harzburg, Stadt","type":"Stadt"},"district":{"key":"03153","name":"Goslar","type":"Landkreis"},"federalState":{"key":"03","name":"Niedersachsen"}},{"name":"48-Pfennig-Weg","postalCode":"38667","locality":"Harz (LK Goslar)","municipality":{"key":"03153504","name":"Harz (Landkreis Goslar), gemfr. Gebiet","type":"Gemeindefreies_Gebiet_Unbewohnt"},"district":{"key":"03153","name":"Goslar","type":"Landkreis"},"federalState":{"key":"03","name":"Niedersachsen"}},{"name":"Am Berge","postalCode":"38828","locality":"Wegeleben","municipality":{"key":"15085365","name":"Wegeleben, Stadt","type":"Stadt"},"district":{"key":"15085","name":"Harz","type":"Landkreis"},"federalState":{"key":"15","name":"Sachsen-Anhalt"}},{"name":"Am Friedhof","postalCode":"38828","locality":"Wegeleben","municipality":{"key":"15085365","name":"Wegeleben, Stadt","type":"Stadt"},"district":{"key":"15085","name":"Harz","type":"Landkreis"},"federalState":{"key":"15","name":"Sachsen-Anhalt"}},{"name":"Am Goldbach","postalCode":"38828","locality":"Wegeleben","municipality":{"key":"15085365","name":"Wegeleben, Stadt","type":"Stadt"},"district":{"key":"15085","name":"Harz","type":"Landkreis"},"federalState":{"key":"15","name":"Sachsen-Anhalt"}},{"name":"Am Park","postalCode":"38828","locality":"Wegeleben","municipality":{"key":"15085365","name":"Wegeleben, Stadt","type":"Stadt"},"district":{"key":"15085","name":"Harz","type":"Landkreis"},"federalState":{"key":"15","name":"Sachsen-Anhalt"}},{"name":"Badestr.","postalCode":"38828","locality":"Wegeleben","municipality":{"key":"15085365","name":"Wegeleben, Stadt","type":"Stadt"},"district":{"key":"15085","name":"Harz","type":"Landkreis"},"federalState":{"key":"15","name":"Sachsen-Anhalt"}},{"name":"Beckerberg","postalCode":"38828","locality":"Wegeleben","municipality":{"key":"15085365","name":"Wegeleben, Stadt","type":"Stadt"},"district":{"key":"15085","name":"Harz","type":"Landkreis"},"federalState":{"key":"15","name":"Sachsen-Anhalt"}},{"name":"Blankenburger Weg","postalCode":"38828","locality":"Wegeleben","municipality":{"key":"15085365","name":"Wegeleben, Stadt","type":"Stadt"},"district":{"key":"15085","name":"Harz","type":"Landkreis"},"federalState":{"key":"15","name":"Sachsen-Anhalt"}},{"name":"Breite Str.","postalCode":"38828","locality":"Wegeleben","municipality":{"key":"15085365","name":"Wegeleben, Stadt","type":"Stadt"},"district":{"key":"15085","name":"Harz","type":"Landkreis"},"federalState":{"key":"15","name":"Sachsen-Anhalt"}},{"name":"Bruchtor","postalCode":"38828","locality":"Wegeleben","municipality":{"key":"15085365","name":"Wegeleben, Stadt","type":"Stadt"},"district":{"key":"15085","name":"Harz","type":"Landkreis"},"federalState":{"key":"15","name":"Sachsen-Anhalt"}},{"name":"Carl-Georg-Koch-Ring","postalCode":"38667","locality":"Bad Harzburg","municipality":{"key":"03153002","name":"Bad Harzburg, Stadt","type":"Stadt"},"district":{"key":"03153","name":"Goslar","type":"Landkreis"},"federalState":{"key":"03","name":"Niedersachsen"}},{"name":"Carl-Goerdeler-Ring","postalCode":"38667","locality":"Bad Harzburg","municipality":{"key":"03153002","name":"Bad Harzburg, Stadt","type":"Stadt"},"district":{"key":"03153","name":"Goslar","type":"Landkreis"},"federalState":{"key":"03","name":"Niedersachsen"}},{"name":"Carl-Preen-Weg","postalCode":"38875","locality":"Oberharz am Brocken","municipality":{"key":"15085228","name":"Oberharz am Brocken, Stadt","type":"Stadt"},"district":{"key":"15085","name":"Harz","type":"Landkreis"},"federalState":{"key":"15","name":"Sachsen-Anhalt"}},{"name":"Castendyckstr.","postalCode":"38667","locality":"Bad Harzburg","municipality":{"key":"03153002","name":"Bad Harzburg, Stadt","type":"Stadt"},"district":{"key":"03153","name":"Goslar","type":"Landkreis"},"federalState":{"key":"03","name":"Niedersachsen"}},{"name":"Christian-Ludwig-Str.","postalCode":"37412","locality":"Herzberg am Harz","municipality":{"key":"03159019","name":"Herzberg am Harz, Stadt","type":"Stadt"},"district":{"key":"03159","name":"Göttingen","type":"Landkreis"},"federalState":{"key":"03","name":"Niedersachsen"}},{"name":"Clausbergweg","postalCode":"37520","locality":"Harz (Landkreis Göttingen)","municipality":{"key":"03159501","name":"Harz (Landkreis Göttingen), gemfr. Geb.","type":"Gemeindefreies_Gebiet_Unbewohnt"},"district":{"key":"03159","name":"Göttingen","type":"Landkreis"},"federalState":{"key":"03","name":"Niedersachsen"}},{"name":"Crausestr.","postalCode":"37412","locality":"Herzberg am Harz","municipality":{"key":"03159019","name":"Herzberg am Harz, Stadt","type":"Stadt"},"district":{"key":"03159","name":"Göttingen","type":"Landkreis"},"federalState":{"key":"03","name":"Niedersachsen"}},{"name":"Dorfstr.","postalCode":"38828","locality":"Wegeleben","municipality":{"key":"15085365","name":"Wegeleben, Stadt","type":"Stadt"},"district":{"key":"15085","name":"Harz","type":"Landkreis"},"federalState":{"key":"15","name":"Sachsen-Anhalt"}},{"name":"Ebersbachstr.","postalCode":"38875","locality":"Oberharz am Brocken","municipality":{"key":"15085228","name":"Oberharz am Brocken, Stadt","type":"Stadt"},"district":{"key":"15085","name":"Harz","type":"Landkreis"},"federalState":{"key":"15","name":"Sachsen-Anhalt"}},{"name":"Ebersberg Kammweg","postalCode":"38700","locality":"Harz (LK Goslar)","municipality":{"key":"03153504","name":"Harz (Landkreis Goslar), gemfr. Gebiet","type":"Gemeindefreies_Gebiet_Unbewohnt"},"district":{"key":"03153","name":"Goslar","type":"Landkreis"},"federalState":{"key":"03","name":"Niedersachsen"}},{"name":"Ebersbergstr.","postalCode":"38700","locality":"Harz (LK Goslar)","municipality":{"key":"03153504","name":"Harz (Landkreis Goslar), gemfr. Gebiet","type":"Gemeindefreies_Gebiet_Unbewohnt"},"district":{"key":"03153","name":"Goslar","type":"Landkreis"},"federalState":{"key":"03","name":"Niedersachsen"}},{"name":"Ebersburg-Rundweg","postalCode":"99768","locality":"Harztor","municipality":{"key":"16062065","name":"Harztor","type":"Kreisangehörige_Gemeinde"},"district":{"key":"16062","name":"Nordhausen","type":"Landkreis"},"federalState":{"key":"16","name":"Thüringen"}},{"name":"Eckertalstr.","postalCode":"38667","locality":"Bad Harzburg","municipality":{"key":"03153002","name":"Bad Harzburg, Stadt","type":"Stadt"},"district":{"key":"03153","name":"Goslar","type":"Landkreis"},"federalState":{"key":"03","name":"Niedersachsen"}},{"name":"Eckstr.","postalCode":"38667","locality":"Bad Harzburg","municipality":{"key":"03153002","name":"Bad Harzburg, Stadt","type":"Stadt"},"district":{"key":"03153","name":"Goslar","type":"Landkreis"},"federalState":{"key":"03","name":"Niedersachsen"}},{"name":"Edelweißstr.","postalCode":"37412","locality":"Herzberg am Harz","municipality":{"key":"03159019","name":"Herzberg am Harz, Stadt","type":"Stadt"},"district":{"key":"03159","name":"Göttingen","type":"Landkreis"},"federalState":{"key":"03","name":"Niedersachsen"}},{"name":"Edelweißstr.","postalCode":"37520","locality":"Osterode am Harz","municipality":{"key":"03159026","name":"Osterode am Harz, Stadt","type":"Stadt"},"district":{"key":"03159","name":"Göttingen","type":"Landkreis"},"federalState":{"key":"03","name":"Niedersachsen"}},{"name":"Eggeröder Brunnen","postalCode":"38875","locality":"Oberharz am Brocken","municipality":{"key":"15085228","name":"Oberharz am Brocken, Stadt","type":"Stadt"},"district":{"key":"15085","name":"Harz","type":"Landkreis"},"federalState":{"key":"15","name":"Sachsen-Anhalt"}},{"name":"Eichberg","postalCode":"99768","locality":"Harztor","municipality":{"key":"16062065","name":"Harztor","type":"Kreisangehörige_Gemeinde"},"district":{"key":"16062","name":"Nordhausen","type":"Landkreis"},"federalState":{"key":"16","name":"Thüringen"}},{"name":"Eichbergring","postalCode":"06493","locality":"Harzgerode","municipality":{"key":"15085145","name":"Harzgerode, Stadt","type":"Stadt"},"district":{"key":"15085","name":"Harz","type":"Landkreis"},"federalState":{"key":"15","name":"Sachsen-Anhalt"}},{"name":"Eichelbergstr.","postalCode":"37520","locality":"Harz (Landkreis Göttingen)","municipality":{"key":"03159501","name":"Harz (Landkreis Göttingen), gemfr. Geb.","type":"Gemeindefreies_Gebiet_Unbewohnt"},"district":{"key":"03159","name":"Göttingen","type":"Landkreis"},"federalState":{"key":"03","name":"Niedersachsen"}},{"name":"Eichelnkopfschneise","postalCode":"37431","locality":"Harz (Landkreis Göttingen)","municipality":{"key":"03159501","name":"Harz (Landkreis Göttingen), gemfr. Geb.","type":"Gemeindefreies_Gebiet_Unbewohnt"},"district":{"key":"03159","name":"Göttingen","type":"Landkreis"},"federalState":{"key":"03","name":"Niedersachsen"}},{"name":"Eichenberg","postalCode":"38877","locality":"Oberharz am Brocken","municipality":{"key":"15085228","name":"Oberharz am Brocken, Stadt","type":"Stadt"},"district":{"key":"15085","name":"Harz","type":"Landkreis"},"federalState":{"key":"15","name":"Sachsen-Anhalt"}},{"name":"Eichenbergrundweg","postalCode":"38667","locality":"Bad Harzburg","municipality":{"key":"03153002","name":"Bad Harzburg, Stadt","type":"Stadt"},"district":{"key":"03153","name":"Goslar","type":"Landkreis"},"federalState":{"key":"03","name":"Niedersachsen"}},{"name":"Eichenbergrundweg","postalCode":"38899","locality":"Oberharz am Brocken","municipality":{"key":"15085228","name":"Oberharz am Brocken, Stadt","type":"Stadt"},"district":{"key":"15085","name":"Harz","type":"Landkreis"},"federalState":{"key":"15","name":"Sachsen-Anhalt"}},{"name":"Eichenbergweg","postalCode":"38667","locality":"Bad Harzburg","municipality":{"key":"03153002","name":"Bad Harzburg, Stadt","type":"Stadt"},"district":{"key":"03153","name":"Goslar","type":"Landkreis"},"federalState":{"key":"03","name":"Niedersachsen"}},{"name":"Eichenbergweg","postalCode":"38667","locality":"Harz (LK Goslar)","municipality":{"key":"03153504","name":"Harz (Landkreis Goslar), gemfr. Gebiet","type":"Gemeindefreies_Gebiet_Unbewohnt"},"district":{"key":"03153","name":"Goslar","type":"Landkreis"},"federalState":{"key":"03","name":"Niedersachsen"}},{"name":"Eichenbornsweg","postalCode":"38667","locality":"Harz (LK Goslar)","municipality":{"key":"03153504","name":"Harz (Landkreis Goslar), gemfr. Gebiet","type":"Gemeindefreies_Gebiet_Unbewohnt"},"district":{"key":"03153","name":"Goslar","type":"Landkreis"},"federalState":{"key":"03","name":"Niedersachsen"}},{"name":"Eichendorffstr.","postalCode":"37431","locality":"Bad Lauterberg im Harz","municipality":{"key":"03159003","name":"Bad Lauterberg im Harz, Stadt","type":"Stadt"},"district":{"key":"03159","name":"Göttingen","type":"Landkreis"},"federalState":{"key":"03","name":"Niedersachsen"}},{"name":"Eichendorffstr.","postalCode":"38667","locality":"Bad Harzburg","municipality":{"key":"03153002","name":"Bad Harzburg, Stadt","type":"Stadt"},"district":{"key":"03153","name":"Goslar","type":"Landkreis"},"federalState":{"key":"03","name":"Niedersachsen"}},{"name":"Eichendorffweg","postalCode":"37197","locality":"Hattorf am Harz","municipality":{"key":"03159018","name":"Hattorf am Harz","type":"Kreisangehörige_Gemeinde"},"district":{"key":"03159","name":"Göttingen","type":"Landkreis"},"federalState":{"key":"03","name":"Niedersachsen"}},{"name":"Eichenforstallee","postalCode":"06536","locality":"Südharz","municipality":{"key":"15087412","name":"Südharz","type":"Kreisangehörige_Gemeinde"},"district":{"key":"15087","name":"Mansfeld-Südharz","type":"Landkreis"},"federalState":{"key":"15","name":"Sachsen-Anhalt"}},{"name":"Eichengrund","postalCode":"37520","locality":"Osterode am Harz","municipality":{"key":"03159026","name":"Osterode am Harz, Stadt","type":"Stadt"},"district":{"key":"03159","name":"Göttingen","type":"Landkreis"},"federalState":{"key":"03","name":"Niedersachsen"}},{"name":"Eichenleite","postalCode":"06536","locality":"Südharz","municipality":{"key":"15087412","name":"Südharz","type":"Kreisangehörige_Gemeinde"},"district":{"key":"15087","name":"Mansfeld-Südharz","type":"Landkreis"},"federalState":{"key":"15","name":"Sachsen-Anhalt"}},{"name":"Eichenweg","postalCode":"37520","locality":"Osterode am Harz","municipality":{"key":"03159026","name":"Osterode am Harz, Stadt","type":"Stadt"},"district":{"key":"03159","name":"Göttingen","type":"Landkreis"},"federalState":{"key":"03","name":"Niedersachsen"}},{"name":"Eichenweg","postalCode":"38667","locality":"Bad Harzburg","municipality":{"key":"03153002","name":"Bad Harzburg, Stadt","type":"Stadt"},"district":{"key":"03153","name":"Goslar","type":"Landkreis"},"federalState":{"key":"03","name":"Niedersachsen"}},{"name":"Eichenweg","postalCode":"38667","locality":"Harz (LK Goslar)","municipality":{"key":"03153504","name":"Harz (Landkreis Goslar), gemfr. Gebiet","type":"Gemeindefreies_Gebiet_Unbewohnt"},"district":{"key":"03153","name":"Goslar","type":"Landkreis"},"federalState":{"key":"03","name":"Niedersachsen"}},{"name":"Eichenweg","postalCode":"99768","locality":"Harztor","municipality":{"key":"16062065","name":"Harztor","type":"Kreisangehörige_Gemeinde"},"district":{"key":"16062","name":"Nordhausen","type":"Landkreis"},"federalState":{"key":"16","name":"Thüringen"}},{"name":"Eichlingshalber Weg","postalCode":"37520","locality":"Harz (Landkreis Göttingen)","municipality":{"key":"03159501","name":"Harz (Landkreis Göttingen), gemfr. Geb.","type":"Gemeindefreies_Gebiet_Unbewohnt"},"district":{"key":"03159","name":"Göttingen","type":"Landkreis"},"federalState":{"key":"03","name":"Niedersachsen"}},{"name":"Eickmuhlweg","postalCode":"38723","locality":"Harz (LK Goslar)","municipality":{"key":"03153504","name":"Harz (Landkreis Goslar), gemfr. Gebiet","type":"Gemeindefreies_Gebiet_Unbewohnt"},"district":{"key":"03153","name":"Goslar","type":"Landkreis"},"federalState":{"key":"03","name":"Niedersachsen"}},{"name":"Eierkornstalweg","postalCode":"37431","locality":"Harz (Landkreis Göttingen)","municipality":{"key":"03159501","name":"Harz (Landkreis Göttingen), gemfr. Geb.","type":"Gemeindefreies_Gebiet_Unbewohnt"},"district":{"key":"03159","name":"Göttingen","type":"Landkreis"},"federalState":{"key":"03","name":"Niedersachsen"}},{"name":"Einhornstr.","postalCode":"37412","locality":"Herzberg am Harz","municipality":{"key":"03159019","name":"Herzberg am Harz, Stadt","type":"Stadt"},"district":{"key":"03159","name":"Göttingen","type":"Landkreis"},"federalState":{"key":"03","name":"Niedersachsen"}},{"name":"Einhornweg","postalCode":"38899","locality":"Oberharz am Brocken","municipality":{"key":"15085228","name":"Oberharz am Brocken, Stadt","type":"Stadt"},"district":{"key":"15085","name":"Harz","type":"Landkreis"},"federalState":{"key":"15","name":"Sachsen-Anhalt"}},{"name":"Eisenacher Str.","postalCode":"37412","locality":"Herzberg am Harz","municipality":{"key":"03159019","name":"Herzberg am Harz, Stadt","type":"Stadt"},"district":{"key":"03159","name":"Göttingen","type":"Landkreis"},"federalState":{"key":"03","name":"Niedersachsen"}},{"name":"Eisener Stieg","postalCode":"37520","locality":"Harz (Landkreis Göttingen)","municipality":{"key":"03159501","name":"Harz (Landkreis Göttingen), gemfr. Geb.","type":"Gemeindefreies_Gebiet_Unbewohnt"},"district":{"key":"03159","name":"Göttingen","type":"Landkreis"},"federalState":{"key":"03","name":"Niedersachsen"}},{"name":"Eisenerzstr.","postalCode":"37431","locality":"Bad Lauterberg im Harz","municipality":{"key":"03159003","name":"Bad Lauterberg im Harz, Stadt","type":"Stadt"},"district":{"key":"03159","name":"Göttingen","type":"Landkreis"},"federalState":{"key":"03","name":"Niedersachsen"}},{"name":"Eisenhüttenweg","postalCode":"37520","locality":"Osterode am Harz","municipality":{"key":"03159026","name":"Osterode am Harz, Stadt","type":"Stadt"},"district":{"key":"03159","name":"Göttingen","type":"Landkreis"},"federalState":{"key":"03","name":"Niedersachsen"}},{"name":"Eisensteinbergweg","postalCode":"37444","locality":"Harz (LK Goslar)","municipality":{"key":"03153504","name":"Harz (Landkreis Goslar), gemfr. Gebiet","type":"Gemeindefreies_Gebiet_Unbewohnt"},"district":{"key":"03153","name":"Goslar","type":"Landkreis"},"federalState":{"key":"03","name":"Niedersachsen"}},{"name":"Eisensteinstr.","postalCode":"37520","locality":"Osterode am Harz","municipality":{"key":"03159026","name":"Osterode am Harz, Stadt","type":"Stadt"},"district":{"key":"03159","name":"Göttingen","type":"Landkreis"},"federalState":{"key":"03","name":"Niedersachsen"}},{"name":"Eisensteinstr.","postalCode":"38875","locality":"Oberharz am Brocken","municipality":{"key":"15085228","name":"Oberharz am Brocken, Stadt","type":"Stadt"},"district":{"key":"15085","name":"Harz","type":"Landkreis"},"federalState":{"key":"15","name":"Sachsen-Anhalt"}},{"name":"Eisensteinsweg","postalCode":"38723","locality":"Harz (LK Goslar)","municipality":{"key":"03153504","name":"Harz (Landkreis Goslar), gemfr. Gebiet","type":"Gemeindefreies_Gebiet_Unbewohnt"},"district":{"key":"03153","name":"Goslar","type":"Landkreis"},"federalState":{"key":"03","name":"Niedersachsen"}},{"name":"Eiserner Weg","postalCode":"38667","locality":"Harz (LK Goslar)","municipality":{"key":"03153504","name":"Harz (Landkreis Goslar), gemfr. Gebiet","type":"Gemeindefreies_Gebiet_Unbewohnt"},"district":{"key":"03153","name":"Goslar","type":"Landkreis"},"federalState":{"key":"03","name":"Niedersachsen"}},{"name":"Eisfeldsiedlung","postalCode":"06493","locality":"Harzgerode","municipality":{"key":"15085145","name":"Harzgerode, Stadt","type":"Stadt"},"district":{"key":"15085","name":"Harz","type":"Landkreis"},"federalState":{"key":"15","name":"Sachsen-Anhalt"}},{"name":"Elbinger Weg","postalCode":"37431","locality":"Bad Lauterberg im Harz","municipality":{"key":"03159003","name":"Bad Lauterberg im Harz, Stadt","type":"Stadt"},"district":{"key":"03159","name":"Göttingen","type":"Landkreis"},"federalState":{"key":"03","name":"Niedersachsen"}},{"name":"Elefantenweg","postalCode":"37520","locality":"Harz (Landkreis Göttingen)","municipality":{"key":"03159501","name":"Harz (Landkreis Göttingen), gemfr. Geb.","type":"Gemeindefreies_Gebiet_Unbewohnt"},"district":{"key":"03159","name":"Göttingen","type":"Landkreis"},"federalState":{"key":"03","name":"Niedersachsen"}},{"name":"Elendstal","postalCode":"38875","locality":"Oberharz am Brocken","municipality":{"key":"15085228","name":"Oberharz am Brocken, Stadt","type":"Stadt"},"district":{"key":"15085","name":"Harz","type":"Landkreis"},"federalState":{"key":"15","name":"Sachsen-Anhalt"}},{"name":"Eleonorenweg","postalCode":"37520","locality":"Harz (Landkreis Göttingen)","municipality":{"key":"03159501","name":"Harz (Landkreis Göttingen), gemfr. Geb.","type":"Gemeindefreies_Gebiet_Unbewohnt"},"district":{"key":"03159","name":"Göttingen","type":"Landkreis"},"federalState":{"key":"03","name":"Niedersachsen"}},{"name":"Elfensteinweg","postalCode":"38667","locality":"Harz (LK Goslar)","municipality":{"key":"03153504","name":"Harz (Landkreis Goslar), gemfr. Gebiet","type":"Gemeindefreies_Gebiet_Unbewohnt"},"district":{"key":"03153","name":"Goslar","type":"Landkreis"},"federalState":{"key":"03","name":"Niedersachsen"}},{"name":"Elfenstieg","postalCode":"38667","locality":"Bad Harzburg","municipality":{"key":"03153002","name":"Bad Harzburg, Stadt","type":"Stadt"},"district":{"key":"03153","name":"Goslar","type":"Landkreis"},"federalState":{"key":"03","name":"Niedersachsen"}},{"name":"Friedensstr.","postalCode":"38828","locality":"Wegeleben","municipality":{"key":"15085365","name":"Wegeleben, Stadt","type":"Stadt"},"district":{"key":"15085","name":"Harz","type":"Landkreis"},"federalState":{"key":"15","name":"Sachsen-Anhalt"}},{"name":"Friedenstr.","postalCode":"38828","locality":"Wegeleben","municipality":{"key":"15085365","name":"Wegeleben, Stadt","type":"Stadt"},"district":{"key":"15085","name":"Harz","type":"Landkreis"},"federalState":{"key":"15","name":"Sachsen-Anhalt"}},{"name":"Gartenstr.","postalCode":"38828","locality":"Wegeleben","municipality":{"key":"15085365","name":"Wegeleben, Stadt","type":"Stadt"},"district":{"key":"15085","name":"Harz","type":"Landkreis"},"federalState":{"key":"15","name":"Sachsen-Anhalt"}},{"name":"Gröniger Str.","postalCode":"38828","locality":"Wegeleben","municipality":{"key":"15085365","name":"Wegeleben, Stadt","type":"Stadt"},"district":{"key":"15085","name":"Harz","type":"Landkreis"},"federalState":{"key":"15","name":"Sachsen-Anhalt"}},{"name":"Gundelslebener Weg","postalCode":"38828","locality":"Wegeleben","municipality":{"key":"15085365","name":"Wegeleben, Stadt","type":"Stadt"},"district":{"key":"15085","name":"Harz","type":"Landkreis"},"federalState":{"key":"15","name":"Sachsen-Anhalt"}},{"name":"Halberstädter Str.","postalCode":"38828","locality":"Wegeleben","municipality":{"key":"15085365","name":"Wegeleben, Stadt","type":"Stadt"},"district":{"key":"15085","name":"Harz","type":"Landkreis"},"federalState":{"key":"15","name":"Sachsen-Anhalt"}},{"name":"Halberstädter Tor","postalCode":"38828","locality":"Wegeleben","municipality":{"key":"15085365","name":"Wegeleben, Stadt","type":"Stadt"},"district":{"key":"15085","name":"Harz","type":"Landkreis"},"federalState":{"key":"15","name":"Sachsen-Anhalt"}},{"name":"Harslebener Str.","postalCode":"38828","locality":"Wegeleben","municipality":{"key":"15085365","name":"Wegeleben, Stadt","type":"Stadt"},"district":{"key":"15085","name":"Harz","type":"Landkreis"},"federalState":{"key":"15","name":"Sachsen-Anhalt"}},{"name":"Hederslebener Weg","postalCode":"38828","locality":"Wegeleben","municipality":{"key":"15085365","name":"Wegeleben, Stadt","type":"Stadt"},"district":{"key":"15085","name":"Harz","type":"Landkreis"},"federalState":{"key":"15","name":"Sachsen-Anhalt"}},{"name":"Heerstr.","postalCode":"38828","locality":"Wegeleben","municipality":{"key":"15085365","name":"Wegeleben, Stadt","type":"Stadt"},"district":{"key":"15085","name":"Harz","type":"Landkreis"},"federalState":{"key":"15","name":"Sachsen-Anhalt"}},{"name":"Heteborner Weg","postalCode":"38828","locality":"Wegeleben","municipality":{"key":"15085365","name":"Wegeleben, Stadt","type":"Stadt"},"district":{"key":"15085","name":"Harz","type":"Landkreis"},"federalState":{"key":"15","name":"Sachsen-Anhalt"}},{"name":"Hinter der Mauer","postalCode":"38828","locality":"Wegeleben","municipality":{"key":"15085365","name":"Wegeleben, Stadt","type":"Stadt"},"district":{"key":"15085","name":"Harz","type":"Landkreis"},"federalState":{"key":"15","name":"Sachsen-Anhalt"}},{"name":"Hinter der Oberpfarre","postalCode":"38828","locality":"Wegeleben","municipality":{"key":"15085365","name":"Wegeleben, Stadt","type":"Stadt"},"district":{"key":"15085","name":"Harz","type":"Landkreis"},"federalState":{"key":"15","name":"Sachsen-Anhalt"}},{"name":"Hinterstr.","postalCode":"38828","locality":"Wegeleben","municipality":{"key":"15085365","name":"Wegeleben, Stadt","type":"Stadt"},"district":{"key":"15085","name":"Harz","type":"Landkreis"},"federalState":{"key":"15","name":"Sachsen-Anhalt"}},{"name":"Hundsrücken","postalCode":"38828","locality":"Wegeleben","municipality":{"key":"15085365","name":"Wegeleben, Stadt","type":"Stadt"},"district":{"key":"15085","name":"Harz","type":"Landkreis"},"federalState":{"key":"15","name":"Sachsen-Anhalt"}},{"name":"Hüttensteig","postalCode":"38828","locality":"Wegeleben","municipality":{"key":"15085365","name":"Wegeleben, Stadt","type":"Stadt"},"district":{"key":"15085","name":"Harz","type":"Landkreis"},"federalState":{"key":"15","name":"Sachsen-Anhalt"}},{"name":"Ifenweg","postalCode":"37520","locality":"Harz (Landkreis Göttingen)","municipality":{"key":"03159501","name":"Harz (Landkreis Göttingen), gemfr. Geb.","type":"Gemeindefreies_Gebiet_Unbewohnt"},"district":{"key":"03159","name":"Göttingen","type":"Landkreis"},"federalState":{"key":"03","name":"Niedersachsen"}},{"name":"Igelweg","postalCode":"37520","locality":"Osterode am Harz","municipality":{"key":"03159026","name":"Osterode am Harz, Stadt","type":"Stadt"},"district":{"key":"03159","name":"Göttingen","type":"Landkreis"},"federalState":{"key":"03","name":"Niedersachsen"}},{"name":"I. Hammer","postalCode":"06493","locality":"Harzgerode","municipality":{"key":"15085145","name":"Harzgerode, Stadt","type":"Stadt"},"district":{"key":"15085","name":"Harz","type":"Landkreis"},"federalState":{"key":"15","name":"Sachsen-Anhalt"}},{"name":"Ilfelder Steig","postalCode":"99768","locality":"Harztor","municipality":{"key":"16062065","name":"Harztor","type":"Kreisangehörige_Gemeinde"},"district":{"key":"16062","name":"Nordhausen","type":"Landkreis"},"federalState":{"key":"16","name":"Thüringen"}},{"name":"Ilfelder Str.","postalCode":"99768","locality":"Harztor","municipality":{"key":"16062065","name":"Harztor","type":"Kreisangehörige_Gemeinde"},"district":{"key":"16062","name":"Nordhausen","type":"Landkreis"},"federalState":{"key":"16","name":"Thüringen"}},{"name":"Ilfelder Tal","postalCode":"99768","locality":"Harztor","municipality":{"key":"16062065","name":"Harztor","type":"Kreisangehörige_Gemeinde"},"district":{"key":"16062","name":"Nordhausen","type":"Landkreis"},"federalState":{"key":"16","name":"Thüringen"}},{"name":"Ilfelder Weg","postalCode":"37520","locality":"Osterode am Harz","municipality":{"key":"03159026","name":"Osterode am Harz, Stadt","type":"Stadt"},"district":{"key":"03159","name":"Göttingen","type":"Landkreis"},"federalState":{"key":"03","name":"Niedersachsen"}},{"name":"Ilgerstr.","postalCode":"99768","locality":"Harztor","municipality":{"key":"16062065","name":"Harztor","type":"Kreisangehörige_Gemeinde"},"district":{"key":"16062","name":"Nordhausen","type":"Landkreis"},"federalState":{"key":"16","name":"Thüringen"}},{"name":"Ilmengasse","postalCode":"37412","locality":"Hörden am Harz","municipality":{"key":"03159020","name":"Hörden am Harz","type":"Kreisangehörige_Gemeinde"},"district":{"key":"03159","name":"Göttingen","type":"Landkreis"},"federalState":{"key":"03","name":"Niedersachsen"}},{"name":"Ilsedamm","postalCode":"38871","locality":"Nordharz","municipality":{"key":"15085227","name":"Nordharz","type":"Kreisangehörige_Gemeinde"},"district":{"key":"15085","name":"Harz","type":"Landkreis"},"federalState":{"key":"15","name":"Sachsen-Anhalt"}},{"name":"Ilsenburger Stieg","postalCode":"38667","locality":"Bad Harzburg","municipality":{"key":"03153002","name":"Bad Harzburg, Stadt","type":"Stadt"},"district":{"key":"03153","name":"Goslar","type":"Landkreis"},"federalState":{"key":"03","name":"Niedersachsen"}},{"name":"Ilsenburger Stieg","postalCode":"38871","locality":"Nordharz","municipality":{"key":"15085227","name":"Nordharz","type":"Kreisangehörige_Gemeinde"},"district":{"key":"15085","name":"Harz","type":"Landkreis"},"federalState":{"key":"15","name":"Sachsen-Anhalt"}},{"name":"Ilsenburger Str.","postalCode":"38667","locality":"Bad Harzburg","municipality":{"key":"03153002","name":"Bad Harzburg, Stadt","type":"Stadt"},"district":{"key":"03153","name":"Goslar","type":"Landkreis"},"federalState":{"key":"03","name":"Niedersachsen"}},{"name":"Ilsenburger Str.","postalCode":"38871","locality":"Nordharz","municipality":{"key":"15085227","name":"Nordharz","type":"Kreisangehörige_Gemeinde"},"district":{"key":"15085","name":"Harz","type":"Landkreis"},"federalState":{"key":"15","name":"Sachsen-Anhalt"}},{"name":"Iltisweg","postalCode":"37431","locality":"Bad Lauterberg im Harz","municipality":{"key":"03159003","name":"Bad Lauterberg im Harz, Stadt","type":"Stadt"},"district":{"key":"03159","name":"Göttingen","type":"Landkreis"},"federalState":{"key":"03","name":"Niedersachsen"}},{"name":"Iltisweg","postalCode":"37520","locality":"Osterode am Harz","municipality":{"key":"03159026","name":"Osterode am Harz, Stadt","type":"Stadt"},"district":{"key":"03159","name":"Göttingen","type":"Landkreis"},"federalState":{"key":"03","name":"Niedersachsen"}},{"name":"Im Berggarten","postalCode":"38667","locality":"Bad Harzburg","municipality":{"key":"03153002","name":"Bad Harzburg, Stadt","type":"Stadt"},"district":{"key":"03153","name":"Goslar","type":"Landkreis"},"federalState":{"key":"03","name":"Niedersachsen"}},{"name":"Im Bierweg","postalCode":"37199","locality":"Wulften am Harz","municipality":{"key":"03159039","name":"Wulften am Harz","type":"Kreisangehörige_Gemeinde"},"district":{"key":"03159","name":"Göttingen","type":"Landkreis"},"federalState":{"key":"03","name":"Niedersachsen"}},{"name":"Im Bleichetal","postalCode":"38667","locality":"Bad Harzburg","municipality":{"key":"03153002","name":"Bad Harzburg, Stadt","type":"Stadt"},"district":{"key":"03153","name":"Goslar","type":"Landkreis"},"federalState":{"key":"03","name":"Niedersachsen"}},{"name":"Im Bodden","postalCode":"37412","locality":"Hörden am Harz","municipality":{"key":"03159020","name":"Hörden am Harz","type":"Kreisangehörige_Gemeinde"},"district":{"key":"03159","name":"Göttingen","type":"Landkreis"},"federalState":{"key":"03","name":"Niedersachsen"}},{"name":"Im Bohnrot","postalCode":"37412","locality":"Herzberg am Harz","municipality":{"key":"03159019","name":"Herzberg am Harz, Stadt","type":"Stadt"},"district":{"key":"03159","name":"Göttingen","type":"Landkreis"},"federalState":{"key":"03","name":"Niedersachsen"}},{"name":"Im Brückenhof","postalCode":"37412","locality":"Herzberg am Harz","municipality":{"key":"03159019","name":"Herzberg am Harz, Stadt","type":"Stadt"},"district":{"key":"03159","name":"Göttingen","type":"Landkreis"},"federalState":{"key":"03","name":"Niedersachsen"}},{"name":"Im Büh","postalCode":"37520","locality":"Osterode am Harz","municipality":{"key":"03159026","name":"Osterode am Harz, Stadt","type":"Stadt"},"district":{"key":"03159","name":"Göttingen","type":"Landkreis"},"federalState":{"key":"03","name":"Niedersachsen"}},{"name":"Im Elfengrund","postalCode":"38667","locality":"Bad Harzburg","municipality":{"key":"03153002","name":"Bad Harzburg, Stadt","type":"Stadt"},"district":{"key":"03153","name":"Goslar","type":"Landkreis"},"federalState":{"key":"03","name":"Niedersachsen"}},{"name":"Im Felde","postalCode":"37412","locality":"Herzberg am Harz","municipality":{"key":"03159019","name":"Herzberg am Harz, Stadt","type":"Stadt"},"district":{"key":"03159","name":"Göttingen","type":"Landkreis"},"federalState":{"key":"03","name":"Niedersachsen"}},{"name":"Im Felde","postalCode":"37431","locality":"Bad Lauterberg im Harz","municipality":{"key":"03159003","name":"Bad Lauterberg im Harz, Stadt","type":"Stadt"},"district":{"key":"03159","name":"Göttingen","type":"Landkreis"},"federalState":{"key":"03","name":"Niedersachsen"}},{"name":"Im Gänsekamp","postalCode":"38871","locality":"Nordharz","municipality":{"key":"15085227","name":"Nordharz","type":"Kreisangehörige_Gemeinde"},"district":{"key":"15085","name":"Harz","type":"Landkreis"},"federalState":{"key":"15","name":"Sachsen-Anhalt"}},{"name":"Im Garten","postalCode":"38855","locality":"Nordharz","municipality":{"key":"15085227","name":"Nordharz","type":"Kreisangehörige_Gemeinde"},"district":{"key":"15085","name":"Harz","type":"Landkreis"},"federalState":{"key":"15","name":"Sachsen-Anhalt"}},{"name":"Im Grabendorf","postalCode":"37197","locality":"Hattorf am Harz","municipality":{"key":"03159018","name":"Hattorf am Harz","type":"Kreisangehörige_Gemeinde"},"district":{"key":"03159","name":"Göttingen","type":"Landkreis"},"federalState":{"key":"03","name":"Niedersachsen"}},{"name":"Im Grund","postalCode":"99897","locality":"Tambach-Dietharz","municipality":{"key":"16067065","name":"Tambach-Dietharz/Thür. Wald, Stadt","type":"Stadt"},"district":{"key":"16067","name":"Gotha","type":"Landkreis"},"federalState":{"key":"16","name":"Thüringen"}},{"name":"Im Grunde","postalCode":"06536","locality":"Südharz","municipality":{"key":"15087412","name":"Südharz","type":"Kreisangehörige_Gemeinde"},"district":{"key":"15087","name":"Mansfeld-Südharz","type":"Landkreis"},"federalState":{"key":"15","name":"Sachsen-Anhalt"}},{"name":"Im Himmelreich","postalCode":"37520","locality":"Osterode am Harz","municipality":{"key":"03159026","name":"Osterode am Harz, Stadt","type":"Stadt"},"district":{"key":"03159","name":"Göttingen","type":"Landkreis"},"federalState":{"key":"03","name":"Niedersachsen"}},{"name":"Im hohlen Weg","postalCode":"06536","locality":"Südharz","municipality":{"key":"15087412","name":"Südharz","type":"Kreisangehörige_Gemeinde"},"district":{"key":"15087","name":"Mansfeld-Südharz","type":"Landkreis"},"federalState":{"key":"15","name":"Sachsen-Anhalt"}},{"name":"Im Hundertmorgenfeld","postalCode":"38871","locality":"Nordharz","municipality":{"key":"15085227","name":"Nordharz","type":"Kreisangehörige_Gemeinde"},"district":{"key":"15085","name":"Harz","type":"Landkreis"},"federalState":{"key":"15","name":"Sachsen-Anhalt"}},{"name":"Im Kirchenfelde","postalCode":"38667","locality":"Bad Harzburg","municipality":{"key":"03153002","name":"Bad Harzburg, Stadt","type":"Stadt"},"district":{"key":"03153","name":"Goslar","type":"Landkreis"},"federalState":{"key":"03","name":"Niedersachsen"}},{"name":"Im Knick","postalCode":"37520","locality":"Osterode am Harz","municipality":{"key":"03159026","name":"Osterode am Harz, Stadt","type":"Stadt"},"district":{"key":"03159","name":"Göttingen","type":"Landkreis"},"federalState":{"key":"03","name":"Niedersachsen"}},{"name":"Im Knick","postalCode":"38871","locality":"Nordharz","municipality":{"key":"15085227","name":"Nordharz","type":"Kreisangehörige_Gemeinde"},"district":{"key":"15085","name":"Harz","type":"Landkreis"},"federalState":{"key":"15","name":"Sachsen-Anhalt"}},{"name":"Im Krempel","postalCode":"37520","locality":"Osterode am Harz","municipality":{"key":"03159026","name":"Osterode am Harz, Stadt","type":"Stadt"},"district":{"key":"03159","name":"Göttingen","type":"Landkreis"},"federalState":{"key":"03","name":"Niedersachsen"}},{"name":"Immenröder Str.","postalCode":"38644","locality":"Bad Harzburg","municipality":{"key":"03153002","name":"Bad Harzburg, Stadt","type":"Stadt"},"district":{"key":"03153","name":"Goslar","type":"Landkreis"},"federalState":{"key":"03","name":"Niedersachsen"}},{"name":"Immenröder Str.","postalCode":"38667","locality":"Bad Harzburg","municipality":{"key":"03153002","name":"Bad Harzburg, Stadt","type":"Stadt"},"district":{"key":"03153","name":"Goslar","type":"Landkreis"},"federalState":{"key":"03","name":"Niedersachsen"}},{"name":"Im Pfarrwinkel","postalCode":"37197","locality":"Hattorf am Harz","municipality":{"key":"03159018","name":"Hattorf am Harz","type":"Kreisangehörige_Gemeinde"},"district":{"key":"03159","name":"Göttingen","type":"Landkreis"},"federalState":{"key":"03","name":"Niedersachsen"}},{"name":"Im Rott","postalCode":"37412","locality":"Herzberg am Harz","municipality":{"key":"03159019","name":"Herzberg am Harz, Stadt","type":"Stadt"},"district":{"key":"03159","name":"Göttingen","type":"Landkreis"},"federalState":{"key":"03","name":"Niedersachsen"}},{"name":"Im Schnippel","postalCode":"37197","locality":"Hattorf am Harz","municipality":{"key":"03159018","name":"Hattorf am Harz","type":"Kreisangehörige_Gemeinde"},"district":{"key":"03159","name":"Göttingen","type":"Landkreis"},"federalState":{"key":"03","name":"Niedersachsen"}},{"name":"Im Sösepark","postalCode":"37520","locality":"Osterode am Harz","municipality":{"key":"03159026","name":"Osterode am Harz, Stadt","type":"Stadt"},"district":{"key":"03159","name":"Göttingen","type":"Landkreis"},"federalState":{"key":"03","name":"Niedersachsen"}},{"name":"Im Steinfeld","postalCode":"99768","locality":"Harztor","municipality":{"key":"16062065","name":"Harztor","type":"Kreisangehörige_Gemeinde"},"district":{"key":"16062","name":"Nordhausen","type":"Landkreis"},"federalState":{"key":"16","name":"Thüringen"}},{"name":"Im Strange","postalCode":"37520","locality":"Osterode am Harz","municipality":{"key":"03159026","name":"Osterode am Harz, Stadt","type":"Stadt"},"district":{"key":"03159","name":"Göttingen","type":"Landkreis"},"federalState":{"key":"03","name":"Niedersachsen"}},{"name":"Im Tor","postalCode":"38855","locality":"Nordharz","municipality":{"key":"15085227","name":"Nordharz","type":"Kreisangehörige_Gemeinde"},"district":{"key":"15085","name":"Harz","type":"Landkreis"},"federalState":{"key":"15","name":"Sachsen-Anhalt"}},{"name":"Im Troge","postalCode":"38667","locality":"Bad Harzburg","municipality":{"key":"03153002","name":"Bad Harzburg, Stadt","type":"Stadt"},"district":{"key":"03153","name":"Goslar","type":"Landkreis"},"federalState":{"key":"03","name":"Niedersachsen"}},{"name":"Im Unteren Strange","postalCode":"37520","locality":"Osterode am Harz","municipality":{"key":"03159026","name":"Osterode am Harz, Stadt","type":"Stadt"},"district":{"key":"03159","name":"Göttingen","type":"Landkreis"},"federalState":{"key":"03","name":"Niedersachsen"}},{"name":"Im Wiesengrund","postalCode":"99768","locality":"Harztor","municipality":{"key":"16062065","name":"Harztor","type":"Kreisangehörige_Gemeinde"},"district":{"key":"16062","name":"Nordhausen","type":"Landkreis"},"federalState":{"key":"16","name":"Thüringen"}},{"name":"Jacob-Friesen-Weg","postalCode":"37412","locality":"Herzberg am Harz","municipality":{"key":"03159019","name":"Herzberg am Harz, Stadt","type":"Stadt"},"district":{"key":"03159","name":"Göttingen","type":"Landkreis"},"federalState":{"key":"03","name":"Niedersachsen"}},{"name":"Jagdhausweg","postalCode":"37199","locality":"Wulften am Harz","municipality":{"key":"03159039","name":"Wulften am Harz","type":"Kreisangehörige_Gemeinde"},"district":{"key":"03159","name":"Göttingen","type":"Landkreis"},"federalState":{"key":"03","name":"Niedersachsen"}},{"name":"Jagdhausweg","postalCode":"37520","locality":"Harz (Landkreis Göttingen)","municipality":{"key":"03159501","name":"Harz (Landkreis Göttingen), gemfr. Geb.","type":"Gemeindefreies_Gebiet_Unbewohnt"},"district":{"key":"03159","name":"Göttingen","type":"Landkreis"},"federalState":{"key":"03","name":"Niedersachsen"}},{"name":"Jagdhausweg","postalCode":"38667","locality":"Bad Harzburg","municipality":{"key":"03153002","name":"Bad Harzburg, Stadt","type":"Stadt"},"district":{"key":"03153","name":"Goslar","type":"Landkreis"},"federalState":{"key":"03","name":"Niedersachsen"}},{"name":"Jägergasse","postalCode":"06463","locality":"Falkenstein/Harz","municipality":{"key":"15085110","name":"Falkenstein/Harz, Stadt","type":"Stadt"},"district":{"key":"15085","name":"Harz","type":"Landkreis"},"federalState":{"key":"15","name":"Sachsen-Anhalt"}},{"name":"Jägerstieg","postalCode":"38667","locality":"Bad Harzburg","municipality":{"key":"03153002","name":"Bad Harzburg, Stadt","type":"Stadt"},"district":{"key":"03153","name":"Goslar","type":"Landkreis"},"federalState":{"key":"03","name":"Niedersachsen"}},{"name":"Jägerstieg","postalCode":"38707","locality":"Harz (LK Goslar)","municipality":{"key":"03153504","name":"Harz (Landkreis Goslar), gemfr. Gebiet","type":"Gemeindefreies_Gebiet_Unbewohnt"},"district":{"key":"03153","name":"Goslar","type":"Landkreis"},"federalState":{"key":"03","name":"Niedersachsen"}},{"name":"Jahnring","postalCode":"38667","locality":"Bad Harzburg","municipality":{"key":"03153002","name":"Bad Harzburg, Stadt","type":"Stadt"},"district":{"key":"03153","name":"Goslar","type":"Landkreis"},"federalState":{"key":"03","name":"Niedersachsen"}},{"name":"Jahnstr.","postalCode":"37199","locality":"Wulften am Harz","municipality":{"key":"03159039","name":"Wulften am Harz","type":"Kreisangehörige_Gemeinde"},"district":{"key":"03159","name":"Göttingen","type":"Landkreis"},"federalState":{"key":"03","name":"Niedersachsen"}},{"name":"Jahnstr.","postalCode":"37412","locality":"Herzberg am Harz","municipality":{"key":"03159019","name":"Herzberg am Harz, Stadt","type":"Stadt"},"district":{"key":"03159","name":"Göttingen","type":"Landkreis"},"federalState":{"key":"03","name":"Niedersachsen"}},{"name":"Jahnstr.","postalCode":"37431","locality":"Bad Lauterberg im Harz","municipality":{"key":"03159003","name":"Bad Lauterberg im Harz, Stadt","type":"Stadt"},"district":{"key":"03159","name":"Göttingen","type":"Landkreis"},"federalState":{"key":"03","name":"Niedersachsen"}},{"name":"Jahnstr.","postalCode":"38877","locality":"Oberharz am Brocken","municipality":{"key":"15085228","name":"Oberharz am Brocken, Stadt","type":"Stadt"},"district":{"key":"15085","name":"Harz","type":"Landkreis"},"federalState":{"key":"15","name":"Sachsen-Anhalt"}},{"name":"Jahnstr.","postalCode":"38899","locality":"Oberharz am Brocken","municipality":{"key":"15085228","name":"Oberharz am Brocken, Stadt","type":"Stadt"},"district":{"key":"15085","name":"Harz","type":"Landkreis"},"federalState":{"key":"15","name":"Sachsen-Anhalt"}},{"name":"Jakobstal","postalCode":"37412","locality":"Herzberg am Harz","municipality":{"key":"03159019","name":"Herzberg am Harz, Stadt","type":"Stadt"},"district":{"key":"03159","name":"Göttingen","type":"Landkreis"},"federalState":{"key":"03","name":"Niedersachsen"}},{"name":"Jammertalgasse","postalCode":"37520","locality":"Osterode am Harz","municipality":{"key":"03159026","name":"Osterode am Harz, Stadt","type":"Stadt"},"district":{"key":"03159","name":"Göttingen","type":"Landkreis"},"federalState":{"key":"03","name":"Niedersachsen"}},{"name":"Janckeweg","postalCode":"37431","locality":"Harz (Landkreis Göttingen)","municipality":{"key":"03159501","name":"Harz (Landkreis Göttingen), gemfr. Geb.","type":"Gemeindefreies_Gebiet_Unbewohnt"},"district":{"key":"03159","name":"Göttingen","type":"Landkreis"},"federalState":{"key":"03","name":"Niedersachsen"}},{"name":"Jenaer Str.","postalCode":"37412","locality":"Herzberg am Harz","municipality":{"key":"03159019","name":"Herzberg am Harz, Stadt","type":"Stadt"},"district":{"key":"03159","name":"Göttingen","type":"Landkreis"},"federalState":{"key":"03","name":"Niedersachsen"}},{"name":"Joachim-Gießner-Weg","postalCode":"37412","locality":"Herzberg am Harz","municipality":{"key":"03159019","name":"Herzberg am Harz, Stadt","type":"Stadt"},"district":{"key":"03159","name":"Göttingen","type":"Landkreis"},"federalState":{"key":"03","name":"Niedersachsen"}},{"name":"Jobst-Peter-Weg","postalCode":"38667","locality":"Harz (LK Goslar)","municipality":{"key":"03153504","name":"Harz (Landkreis Goslar), gemfr. Gebiet","type":"Gemeindefreies_Gebiet_Unbewohnt"},"district":{"key":"03153","name":"Goslar","type":"Landkreis"},"federalState":{"key":"03","name":"Niedersachsen"}},{"name":"Johann-Andreas-Engelhardt-Weg","postalCode":"37412","locality":"Herzberg am Harz","municipality":{"key":"03159019","name":"Herzberg am Harz, Stadt","type":"Stadt"},"district":{"key":"03159","name":"Göttingen","type":"Landkreis"},"federalState":{"key":"03","name":"Niedersachsen"}},{"name":"Johannes-Kleinspehn-Schanze","postalCode":"99768","locality":"Harztor","municipality":{"key":"16062065","name":"Harztor","type":"Kreisangehörige_Gemeinde"},"district":{"key":"16062","name":"Nordhausen","type":"Landkreis"},"federalState":{"key":"16","name":"Thüringen"}},{"name":"Johannesstr.","postalCode":"99768","locality":"Harztor","municipality":{"key":"16062065","name":"Harztor","type":"Kreisangehörige_Gemeinde"},"district":{"key":"16062","name":"Nordhausen","type":"Landkreis"},"federalState":{"key":"16","name":"Thüringen"}},{"name":"Johannesweg","postalCode":"06536","locality":"Südharz","municipality":{"key":"15087412","name":"Südharz","type":"Kreisangehörige_Gemeinde"},"district":{"key":"15087","name":"Mansfeld-Südharz","type":"Landkreis"},"federalState":{"key":"15","name":"Sachsen-Anhalt"}},{"name":"Johann Georg von Langen-Weg","postalCode":"38875","locality":"Oberharz am Brocken","municipality":{"key":"15085228","name":"Oberharz am Brocken, Stadt","type":"Stadt"},"district":{"key":"15085","name":"Harz","type":"Landkreis"},"federalState":{"key":"15","name":"Sachsen-Anhalt"}},{"name":"Johannisvorstadt","postalCode":"37520","locality":"Osterode am Harz","municipality":{"key":"03159026","name":"Osterode am Harz, Stadt","type":"Stadt"},"district":{"key":"03159","name":"Göttingen","type":"Landkreis"},"federalState":{"key":"03","name":"Niedersachsen"}},{"name":"Johann-Kleinspehn-Schanze","postalCode":"99768","locality":"Harztor","municipality":{"key":"16062065","name":"Harztor","type":"Kreisangehörige_Gemeinde"},"district":{"key":"16062","name":"Nordhausen","type":"Landkreis"},"federalState":{"key":"16","name":"Thüringen"}},{"name":"Jonaswiese","postalCode":"38667","locality":"Bad Harzburg","municipality":{"key":"03153002","name":"Bad Harzburg, Stadt","type":"Stadt"},"district":{"key":"03153","name":"Goslar","type":"Landkreis"},"federalState":{"key":"03","name":"Niedersachsen"}},{"name":"Jörg-Peter-Kassner-Weg","postalCode":"06493","locality":"Harzgerode","municipality":{"key":"15085145","name":"Harzgerode, Stadt","type":"Stadt"},"district":{"key":"15085","name":"Harz","type":"Landkreis"},"federalState":{"key":"15","name":"Sachsen-Anhalt"}},{"name":"Josefstr.","postalCode":"38667","locality":"Bad Harzburg","municipality":{"key":"03153002","name":"Bad Harzburg, Stadt","type":"Stadt"},"district":{"key":"03153","name":"Goslar","type":"Landkreis"},"federalState":{"key":"03","name":"Niedersachsen"}},{"name":"Jüdengrund","postalCode":"06536","locality":"Südharz","municipality":{"key":"15087412","name":"Südharz","type":"Kreisangehörige_Gemeinde"},"district":{"key":"15087","name":"Mansfeld-Südharz","type":"Landkreis"},"federalState":{"key":"15","name":"Sachsen-Anhalt"}},{"name":"Jüdenstr.","postalCode":"37197","locality":"Hattorf am Harz","municipality":{"key":"03159018","name":"Hattorf am Harz","type":"Kreisangehörige_Gemeinde"},"district":{"key":"03159","name":"Göttingen","type":"Landkreis"},"federalState":{"key":"03","name":"Niedersachsen"}},{"name":"Juesholzallee","postalCode":"37412","locality":"Herzberg am Harz","municipality":{"key":"03159019","name":"Herzberg am Harz, Stadt","type":"Stadt"},"district":{"key":"03159","name":"Göttingen","type":"Landkreis"},"federalState":{"key":"03","name":"Niedersachsen"}},{"name":"Juesholzstr.","postalCode":"37412","locality":"Herzberg am Harz","municipality":{"key":"03159019","name":"Herzberg am Harz, Stadt","type":"Stadt"},"district":{"key":"03159","name":"Göttingen","type":"Landkreis"},"federalState":{"key":"03","name":"Niedersachsen"}},{"name":"Juesweg","postalCode":"37412","locality":"Herzberg am Harz","municipality":{"key":"03159019","name":"Herzberg am Harz, Stadt","type":"Stadt"},"district":{"key":"03159","name":"Göttingen","type":"Landkreis"},"federalState":{"key":"03","name":"Niedersachsen"}},{"name":"Jugendwerkstatt-Weg","postalCode":"37520","locality":"Harz (Landkreis Göttingen)","municipality":{"key":"03159501","name":"Harz (Landkreis Göttingen), gemfr. Geb.","type":"Gemeindefreies_Gebiet_Unbewohnt"},"district":{"key":"03159","name":"Göttingen","type":"Landkreis"},"federalState":{"key":"03","name":"Niedersachsen"}},{"name":"Junkernstr.","postalCode":"37412","locality":"Herzberg am Harz","municipality":{"key":"03159019","name":"Herzberg am Harz, Stadt","type":"Stadt"},"district":{"key":"03159","name":"Göttingen","type":"Landkreis"},"federalState":{"key":"03","name":"Niedersachsen"}},{"name":"Junkernstr.","postalCode":"37520","locality":"Osterode am Harz","municipality":{"key":"03159026","name":"Osterode am Harz, Stadt","type":"Stadt"},"district":{"key":"03159","name":"Göttingen","type":"Landkreis"},"federalState":{"key":"03","name":"Niedersachsen"}},{"name":"Justine-Lüders-Str.","postalCode":"37431","locality":"Bad Lauterberg im Harz","municipality":{"key":"03159003","name":"Bad Lauterberg im Harz, Stadt","type":"Stadt"},"district":{"key":"03159","name":"Göttingen","type":"Landkreis"},"federalState":{"key":"03","name":"Niedersachsen"}},{"name":"Kamp","postalCode":"38828","locality":"Wegeleben","municipality":{"key":"15085365","name":"Wegeleben, Stadt","type":"Stadt"},"district":{"key":"15085","name":"Harz","type":"Landkreis"},"federalState":{"key":"15","name":"Sachsen-Anhalt"}},{"name":"Kampstr.","postalCode":"38828","locality":"Wegeleben","municipality":{"key":"15085365","name":"Wegeleben, Stadt","type":"Stadt"},"district":{"key":"15085","name":"Harz","type":"Landkreis"},"federalState":{"key":"15","name":"Sachsen-Anhalt"}},{"name":"Kohlenstrecke","postalCode":"38828","locality":"Wegeleben","municipality":{"key":"15085365","name":"Wegeleben, Stadt","type":"Stadt"},"district":{"key":"15085","name":"Harz","type":"Landkreis"},"federalState":{"key":"15","name":"Sachsen-Anhalt"}},{"name":"Kornstr.","postalCode":"38828","locality":"Wegeleben","municipality":{"key":"15085365","name":"Wegeleben, Stadt","type":"Stadt"},"district":{"key":"15085","name":"Harz","type":"Landkreis"},"federalState":{"key":"15","name":"Sachsen-Anhalt"}},{"name":"Kuhley","postalCode":"38828","locality":"Wegeleben","municipality":{"key":"15085365","name":"Wegeleben, Stadt","type":"Stadt"},"district":{"key":"15085","name":"Harz","type":"Landkreis"},"federalState":{"key":"15","name":"Sachsen-Anhalt"}},{"name":"Lange Reise","postalCode":"38828","locality":"Wegeleben","municipality":{"key":"15085365","name":"Wegeleben, Stadt","type":"Stadt"},"district":{"key":"15085","name":"Harz","type":"Landkreis"},"federalState":{"key":"15","name":"Sachsen-Anhalt"}},{"name":"Lange Str.","postalCode":"38828","locality":"Wegeleben","municipality":{"key":"15085365","name":"Wegeleben, Stadt","type":"Stadt"},"district":{"key":"15085","name":"Harz","type":"Landkreis"},"federalState":{"key":"15","name":"Sachsen-Anhalt"}},{"name":"Leipziger Str.","postalCode":"38828","locality":"Wegeleben","municipality":{"key":"15085365","name":"Wegeleben, Stadt","type":"Stadt"},"district":{"key":"15085","name":"Harz","type":"Landkreis"},"federalState":{"key":"15","name":"Sachsen-Anhalt"}},{"name":"Lindenhof","postalCode":"38828","locality":"Wegeleben","municipality":{"key":"15085365","name":"Wegeleben, Stadt","type":"Stadt"},"district":{"key":"15085","name":"Harz","type":"Landkreis"},"federalState":{"key":"15","name":"Sachsen-Anhalt"}},{"name":"Markt","postalCode":"38828","locality":"Wegeleben","municipality":{"key":"15085365","name":"Wegeleben, Stadt","type":"Stadt"},"district":{"key":"15085","name":"Harz","type":"Landkreis"},"federalState":{"key":"15","name":"Sachsen-Anhalt"}},{"name":"Mittelstr.","postalCode":"38828","locality":"Wegeleben","municipality":{"key":"15085365","name":"Wegeleben, Stadt","type":"Stadt"},"district":{"key":"15085","name":"Harz","type":"Landkreis"},"federalState":{"key":"15","name":"Sachsen-Anhalt"}},{"name":"Moorweg","postalCode":"38828","locality":"Wegeleben","municipality":{"key":"15085365","name":"Wegeleben, Stadt","type":"Stadt"},"district":{"key":"15085","name":"Harz","type":"Landkreis"},"federalState":{"key":"15","name":"Sachsen-Anhalt"}},{"name":"Mühlenstr.","postalCode":"38828","locality":"Wegeleben","municipality":{"key":"15085365","name":"Wegeleben, Stadt","type":"Stadt"},"district":{"key":"15085","name":"Harz","type":"Landkreis"},"federalState":{"key":"15","name":"Sachsen-Anhalt"}},{"name":"Nachthufe","postalCode":"38871","locality":"Nordharz","municipality":{"key":"15085227","name":"Nordharz","type":"Kreisangehörige_Gemeinde"},"district":{"key":"15085","name":"Harz","type":"Landkreis"},"federalState":{"key":"15","name":"Sachsen-Anhalt"}},{"name":"Nachtwächterweg","postalCode":"06536","locality":"Südharz","municipality":{"key":"15087412","name":"Südharz","type":"Kreisangehörige_Gemeinde"},"district":{"key":"15087","name":"Mansfeld-Südharz","type":"Landkreis"},"federalState":{"key":"15","name":"Sachsen-Anhalt"}},{"name":"Nasser Weg","postalCode":"37520","locality":"Harz (Landkreis Göttingen)","municipality":{"key":"03159501","name":"Harz (Landkreis Göttingen), gemfr. Geb.","type":"Gemeindefreies_Gebiet_Unbewohnt"},"district":{"key":"03159","name":"Göttingen","type":"Landkreis"},"federalState":{"key":"03","name":"Niedersachsen"}},{"name":"Nassestr.","postalCode":"06536","locality":"Südharz","municipality":{"key":"15087412","name":"Südharz","type":"Kreisangehörige_Gemeinde"},"district":{"key":"15087","name":"Mansfeld-Südharz","type":"Landkreis"},"federalState":{"key":"15","name":"Sachsen-Anhalt"}},{"name":"Nasse Str.","postalCode":"06536","locality":"Südharz","municipality":{"key":"15087412","name":"Südharz","type":"Kreisangehörige_Gemeinde"},"district":{"key":"15087","name":"Mansfeld-Südharz","type":"Landkreis"},"federalState":{"key":"15","name":"Sachsen-Anhalt"}},{"name":"Naturlehrpfad","postalCode":"06493","locality":"Harzgerode","municipality":{"key":"15085145","name":"Harzgerode, Stadt","type":"Stadt"},"district":{"key":"15085","name":"Harz","type":"Landkreis"},"federalState":{"key":"15","name":"Sachsen-Anhalt"}},{"name":"Naturlehrpfad","postalCode":"38899","locality":"Oberharz am Brocken","municipality":{"key":"15085228","name":"Oberharz am Brocken, Stadt","type":"Stadt"},"district":{"key":"15085","name":"Harz","type":"Landkreis"},"federalState":{"key":"15","name":"Sachsen-Anhalt"}},{"name":"Naturlehrpfad / Loipe","postalCode":"38899","locality":"Oberharz am Brocken","municipality":{"key":"15085228","name":"Oberharz am Brocken, Stadt","type":"Stadt"},"district":{"key":"15085","name":"Harz","type":"Landkreis"},"federalState":{"key":"15","name":"Sachsen-Anhalt"}},{"name":"Naturpfad","postalCode":"38685","locality":"Harz (LK Goslar)","municipality":{"key":"03153504","name":"Harz (Landkreis Goslar), gemfr. Gebiet","type":"Gemeindefreies_Gebiet_Unbewohnt"},"district":{"key":"03153","name":"Goslar","type":"Landkreis"},"federalState":{"key":"03","name":"Niedersachsen"}},{"name":"Neanderplatz","postalCode":"99768","locality":"Harztor","municipality":{"key":"16062065","name":"Harztor","type":"Kreisangehörige_Gemeinde"},"district":{"key":"16062","name":"Nordhausen","type":"Landkreis"},"federalState":{"key":"16","name":"Thüringen"}},{"name":"Neilespringweg","postalCode":"38723","locality":"Harz (LK Goslar)","municipality":{"key":"03153504","name":"Harz (Landkreis Goslar), gemfr. Gebiet","type":"Gemeindefreies_Gebiet_Unbewohnt"},"district":{"key":"03153","name":"Goslar","type":"Landkreis"},"federalState":{"key":"03","name":"Niedersachsen"}},{"name":"Neilestr.","postalCode":"38723","locality":"Harz (LK Goslar)","municipality":{"key":"03153504","name":"Harz (Landkreis Goslar), gemfr. Gebiet","type":"Gemeindefreies_Gebiet_Unbewohnt"},"district":{"key":"03153","name":"Goslar","type":"Landkreis"},"federalState":{"key":"03","name":"Niedersachsen"}},{"name":"Nelkenstr.","postalCode":"37412","locality":"Herzberg am Harz","municipality":{"key":"03159019","name":"Herzberg am Harz, Stadt","type":"Stadt"},"district":{"key":"03159","name":"Göttingen","type":"Landkreis"},"federalState":{"key":"03","name":"Niedersachsen"}},{"name":"Nelkenstr.","postalCode":"37412","locality":"Hörden am Harz","municipality":{"key":"03159020","name":"Hörden am Harz","type":"Kreisangehörige_Gemeinde"},"district":{"key":"03159","name":"Göttingen","type":"Landkreis"},"federalState":{"key":"03","name":"Niedersachsen"}},{"name":"Nelkenweg","postalCode":"37431","locality":"Bad Lauterberg im Harz","municipality":{"key":"03159003","name":"Bad Lauterberg im Harz, Stadt","type":"Stadt"},"district":{"key":"03159","name":"Göttingen","type":"Landkreis"},"federalState":{"key":"03","name":"Niedersachsen"}},{"name":"Nesselberg","postalCode":"99897","locality":"Tambach-Dietharz","municipality":{"key":"16067065","name":"Tambach-Dietharz/Thür. Wald, Stadt","type":"Stadt"},"district":{"key":"16067","name":"Gotha","type":"Landkreis"},"federalState":{"key":"16","name":"Thüringen"}},{"name":"Nesselweg","postalCode":"37431","locality":"Harz (Landkreis Göttingen)","municipality":{"key":"03159501","name":"Harz (Landkreis Göttingen), gemfr. Geb.","type":"Gemeindefreies_Gebiet_Unbewohnt"},"district":{"key":"03159","name":"Göttingen","type":"Landkreis"},"federalState":{"key":"03","name":"Niedersachsen"}},{"name":"Netzkater","postalCode":"99768","locality":"Harztor","municipality":{"key":"16062065","name":"Harztor","type":"Kreisangehörige_Gemeinde"},"district":{"key":"16062","name":"Nordhausen","type":"Landkreis"},"federalState":{"key":"16","name":"Thüringen"}},{"name":"Neudorfer Fußweg","postalCode":"06493","locality":"Harzgerode","municipality":{"key":"15085145","name":"Harzgerode, Stadt","type":"Stadt"},"district":{"key":"15085","name":"Harz","type":"Landkreis"},"federalState":{"key":"15","name":"Sachsen-Anhalt"}},{"name":"Neudorfer Weg","postalCode":"06493","locality":"Harzgerode","municipality":{"key":"15085145","name":"Harzgerode, Stadt","type":"Stadt"},"district":{"key":"15085","name":"Harz","type":"Landkreis"},"federalState":{"key":"15","name":"Sachsen-Anhalt"}},{"name":"Neue Bauernstr.","postalCode":"06463","locality":"Falkenstein/Harz","municipality":{"key":"15085110","name":"Falkenstein/Harz, Stadt","type":"Stadt"},"district":{"key":"15085","name":"Harz","type":"Landkreis"},"federalState":{"key":"15","name":"Sachsen-Anhalt"}},{"name":"Neue Erikabrücke","postalCode":"37431","locality":"Bad Lauterberg im Harz","municipality":{"key":"03159003","name":"Bad Lauterberg im Harz, Stadt","type":"Stadt"},"district":{"key":"03159","name":"Göttingen","type":"Landkreis"},"federalState":{"key":"03","name":"Niedersachsen"}},{"name":"Neue Forsthäuser","postalCode":"06493","locality":"Harzgerode","municipality":{"key":"15085145","name":"Harzgerode, Stadt","type":"Stadt"},"district":{"key":"15085","name":"Harz","type":"Landkreis"},"federalState":{"key":"15","name":"Sachsen-Anhalt"}},{"name":"Neue Hütte","postalCode":"38875","locality":"Oberharz am Brocken","municipality":{"key":"15085228","name":"Oberharz am Brocken, Stadt","type":"Stadt"},"district":{"key":"15085","name":"Harz","type":"Landkreis"},"federalState":{"key":"15","name":"Sachsen-Anhalt"}},{"name":"Neue Marktstr.","postalCode":"99768","locality":"Harztor","municipality":{"key":"16062065","name":"Harztor","type":"Kreisangehörige_Gemeinde"},"district":{"key":"16062","name":"Nordhausen","type":"Landkreis"},"federalState":{"key":"16","name":"Thüringen"}},{"name":"Neue Meinigstr.","postalCode":"38667","locality":"Bad Harzburg","municipality":{"key":"03153002","name":"Bad Harzburg, Stadt","type":"Stadt"},"district":{"key":"03153","name":"Goslar","type":"Landkreis"},"federalState":{"key":"03","name":"Niedersachsen"}},{"name":"Neuendorf","postalCode":"06536","locality":"Südharz","municipality":{"key":"15087412","name":"Südharz","type":"Kreisangehörige_Gemeinde"},"district":{"key":"15087","name":"Mansfeld-Südharz","type":"Landkreis"},"federalState":{"key":"15","name":"Sachsen-Anhalt"}},{"name":"Neuenfelder Weg","postalCode":"38871","locality":"Nordharz","municipality":{"key":"15085227","name":"Nordharz","type":"Kreisangehörige_Gemeinde"},"district":{"key":"15085","name":"Harz","type":"Landkreis"},"federalState":{"key":"15","name":"Sachsen-Anhalt"}},{"name":"Neue Reihe","postalCode":"06333","locality":"Falkenstein/Harz","municipality":{"key":"15085110","name":"Falkenstein/Harz, Stadt","type":"Stadt"},"district":{"key":"15085","name":"Harz","type":"Landkreis"},"federalState":{"key":"15","name":"Sachsen-Anhalt"}},{"name":"Neue Reihe","postalCode":"37520","locality":"Osterode am Harz","municipality":{"key":"03159026","name":"Osterode am Harz, Stadt","type":"Stadt"},"district":{"key":"03159","name":"Göttingen","type":"Landkreis"},"federalState":{"key":"03","name":"Niedersachsen"}},{"name":"Neuer Teichdamm","postalCode":"06536","locality":"Südharz","municipality":{"key":"15087412","name":"Südharz","type":"Kreisangehörige_Gemeinde"},"district":{"key":"15087","name":"Mansfeld-Südharz","type":"Landkreis"},"federalState":{"key":"15","name":"Sachsen-Anhalt"}},{"name":"Neuer Weg","postalCode":"06493","locality":"Harzgerode","municipality":{"key":"15085145","name":"Harzgerode, Stadt","type":"Stadt"},"district":{"key":"15085","name":"Harz","type":"Landkreis"},"federalState":{"key":"15","name":"Sachsen-Anhalt"}},{"name":"Neuer Weg","postalCode":"06543","locality":"Falkenstein/Harz","municipality":{"key":"15085110","name":"Falkenstein/Harz, Stadt","type":"Stadt"},"district":{"key":"15085","name":"Harz","type":"Landkreis"},"federalState":{"key":"15","name":"Sachsen-Anhalt"}},{"name":"Neuer Weg","postalCode":"37197","locality":"Hattorf am Harz","municipality":{"key":"03159018","name":"Hattorf am Harz","type":"Kreisangehörige_Gemeinde"},"district":{"key":"03159","name":"Göttingen","type":"Landkreis"},"federalState":{"key":"03","name":"Niedersachsen"}},{"name":"Neuer Weg","postalCode":"38667","locality":"Bad Harzburg","municipality":{"key":"03153002","name":"Bad Harzburg, Stadt","type":"Stadt"},"district":{"key":"03153","name":"Goslar","type":"Landkreis"},"federalState":{"key":"03","name":"Niedersachsen"}},{"name":"Neue Siedlung","postalCode":"06493","locality":"Harzgerode","municipality":{"key":"15085145","name":"Harzgerode, Stadt","type":"Stadt"},"district":{"key":"15085","name":"Harz","type":"Landkreis"},"federalState":{"key":"15","name":"Sachsen-Anhalt"}},{"name":"Neues Tor","postalCode":"06493","locality":"Harzgerode","municipality":{"key":"15085145","name":"Harzgerode, Stadt","type":"Stadt"},"district":{"key":"15085","name":"Harz","type":"Landkreis"},"federalState":{"key":"15","name":"Sachsen-Anhalt"}},{"name":"Neue Str.","postalCode":"06463","locality":"Falkenstein/Harz","municipality":{"key":"15085110","name":"Falkenstein/Harz, Stadt","type":"Stadt"},"district":{"key":"15085","name":"Harz","type":"Landkreis"},"federalState":{"key":"15","name":"Sachsen-Anhalt"}},{"name":"Neue Str.","postalCode":"06493","locality":"Harzgerode","municipality":{"key":"15085145","name":"Harzgerode, Stadt","type":"Stadt"},"district":{"key":"15085","name":"Harz","type":"Landkreis"},"federalState":{"key":"15","name":"Sachsen-Anhalt"}},{"name":"Neue Str.","postalCode":"06536","locality":"Südharz","municipality":{"key":"15087412","name":"Südharz","type":"Kreisangehörige_Gemeinde"},"district":{"key":"15087","name":"Mansfeld-Südharz","type":"Landkreis"},"federalState":{"key":"15","name":"Sachsen-Anhalt"}},{"name":"Neue Str.","postalCode":"38875","locality":"Oberharz am Brocken","municipality":{"key":"15085228","name":"Oberharz am Brocken, Stadt","type":"Stadt"},"district":{"key":"15085","name":"Harz","type":"Landkreis"},"federalState":{"key":"15","name":"Sachsen-Anhalt"}},{"name":"Neue Str.","postalCode":"38899","locality":"Oberharz am Brocken","municipality":{"key":"15085228","name":"Oberharz am Brocken, Stadt","type":"Stadt"},"district":{"key":"15085","name":"Harz","type":"Landkreis"},"federalState":{"key":"15","name":"Sachsen-Anhalt"}},{"name":"Neue Str.","postalCode":"99897","locality":"Tambach-Dietharz","municipality":{"key":"16067065","name":"Tambach-Dietharz/Thür. Wald, Stadt","type":"Stadt"},"district":{"key":"16067","name":"Gotha","type":"Landkreis"},"federalState":{"key":"16","name":"Thüringen"}},{"name":"Neue Welt","postalCode":"37199","locality":"Wulften am Harz","municipality":{"key":"03159039","name":"Wulften am Harz","type":"Kreisangehörige_Gemeinde"},"district":{"key":"03159","name":"Göttingen","type":"Landkreis"},"federalState":{"key":"03","name":"Niedersachsen"}},{"name":"Neustadt","postalCode":"06463","locality":"Falkenstein/Harz","municipality":{"key":"15085110","name":"Falkenstein/Harz, Stadt","type":"Stadt"},"district":{"key":"15085","name":"Harz","type":"Landkreis"},"federalState":{"key":"15","name":"Sachsen-Anhalt"}},{"name":"Neustadt","postalCode":"06493","locality":"Harzgerode","municipality":{"key":"15085145","name":"Harzgerode, Stadt","type":"Stadt"},"district":{"key":"15085","name":"Harz","type":"Landkreis"},"federalState":{"key":"15","name":"Sachsen-Anhalt"}},{"name":"Neustadt","postalCode":"06536","locality":"Südharz","municipality":{"key":"15087412","name":"Südharz","type":"Kreisangehörige_Gemeinde"},"district":{"key":"15087","name":"Mansfeld-Südharz","type":"Landkreis"},"federalState":{"key":"15","name":"Sachsen-Anhalt"}},{"name":"Neustadt","postalCode":"38871","locality":"Nordharz","municipality":{"key":"15085227","name":"Nordharz","type":"Kreisangehörige_Gemeinde"},"district":{"key":"15085","name":"Harz","type":"Landkreis"},"federalState":{"key":"15","name":"Sachsen-Anhalt"}},{"name":"Nickolsgasse","postalCode":"06493","locality":"Harzgerode","municipality":{"key":"15085145","name":"Harzgerode, Stadt","type":"Stadt"},"district":{"key":"15085","name":"Harz","type":"Landkreis"},"federalState":{"key":"15","name":"Sachsen-Anhalt"}},{"name":"Nicolairing","postalCode":"38667","locality":"Bad Harzburg","municipality":{"key":"03153002","name":"Bad Harzburg, Stadt","type":"Stadt"},"district":{"key":"03153","name":"Goslar","type":"Landkreis"},"federalState":{"key":"03","name":"Niedersachsen"}},{"name":"Oberstr.","postalCode":"38828","locality":"Wegeleben","municipality":{"key":"15085365","name":"Wegeleben, Stadt","type":"Stadt"},"district":{"key":"15085","name":"Harz","type":"Landkreis"},"federalState":{"key":"15","name":"Sachsen-Anhalt"}},{"name":"Petersilienstr.","postalCode":"38828","locality":"Wegeleben","municipality":{"key":"15085365","name":"Wegeleben, Stadt","type":"Stadt"},"district":{"key":"15085","name":"Harz","type":"Landkreis"},"federalState":{"key":"15","name":"Sachsen-Anhalt"}},{"name":"Quedlinburger Str.","postalCode":"38828","locality":"Wegeleben","municipality":{"key":"15085365","name":"Wegeleben, Stadt","type":"Stadt"},"district":{"key":"15085","name":"Harz","type":"Landkreis"},"federalState":{"key":"15","name":"Sachsen-Anhalt"}},{"name":"Quedlinburger Tor","postalCode":"38828","locality":"Wegeleben","municipality":{"key":"15085365","name":"Wegeleben, Stadt","type":"Stadt"},"district":{"key":"15085","name":"Harz","type":"Landkreis"},"federalState":{"key":"15","name":"Sachsen-Anhalt"}},{"name":"Reihe","postalCode":"38828","locality":"Wegeleben","municipality":{"key":"15085365","name":"Wegeleben, Stadt","type":"Stadt"},"district":{"key":"15085","name":"Harz","type":"Landkreis"},"federalState":{"key":"15","name":"Sachsen-Anhalt"}},{"name":"Ringstr.","postalCode":"38828","locality":"Wegeleben","municipality":{"key":"15085365","name":"Wegeleben, Stadt","type":"Stadt"},"district":{"key":"15085","name":"Harz","type":"Landkreis"},"federalState":{"key":"15","name":"Sachsen-Anhalt"}},{"name":"Rosenwinkel","postalCode":"38828","locality":"Wegeleben","municipality":{"key":"15085365","name":"Wegeleben, Stadt","type":"Stadt"},"district":{"key":"15085","name":"Harz","type":"Landkreis"},"federalState":{"key":"15","name":"Sachsen-Anhalt"}},{"name":"Rudolf Breitscheid Str.","postalCode":"38828","locality":"Wegeleben","municipality":{"key":"15085365","name":"Wegeleben, Stadt","type":"Stadt"},"district":{"key":"15085","name":"Harz","type":"Landkreis"},"federalState":{"key":"15","name":"Sachsen-Anhalt"}},{"name":"Schulstr.","postalCode":"38828","locality":"Wegeleben","municipality":{"key":"15085365","name":"Wegeleben, Stadt","type":"Stadt"},"district":{"key":"15085","name":"Harz","type":"Landkreis"},"federalState":{"key":"15","name":"Sachsen-Anhalt"}},{"name":"Siechenhofsweg","postalCode":"38828","locality":"Wegeleben","municipality":{"key":"15085365","name":"Wegeleben, Stadt","type":"Stadt"},"district":{"key":"15085","name":"Harz","type":"Landkreis"},"federalState":{"key":"15","name":"Sachsen-Anhalt"}},{"name":"Siedlung","postalCode":"38828","locality":"Wegeleben","municipality":{"key":"15085365","name":"Wegeleben, Stadt","type":"Stadt"},"district":{"key":"15085","name":"Harz","type":"Landkreis"},"federalState":{"key":"15","name":"Sachsen-Anhalt"}},{"name":"Steinweg","postalCode":"38828","locality":"Wegeleben","municipality":{"key":"15085365","name":"Wegeleben, Stadt","type":"Stadt"},"district":{"key":"15085","name":"Harz","type":"Landkreis"},"federalState":{"key":"15","name":"Sachsen-Anhalt"}},{"name":"Stiebgasse","postalCode":"38828","locality":"Wegeleben","municipality":{"key":"15085365","name":"Wegeleben, Stadt","type":"Stadt"},"district":{"key":"15085","name":"Harz","type":"Landkreis"},"federalState":{"key":"15","name":"Sachsen-Anhalt"}},{"name":"Str. der Freundschaft","postalCode":"38828","locality":"Wegeleben","municipality":{"key":"15085365","name":"Wegeleben, Stadt","type":"Stadt"},"district":{"key":"15085","name":"Harz","type":"Landkreis"},"federalState":{"key":"15","name":"Sachsen-Anhalt"}},{"name":"Teichwall","postalCode":"38828","locality":"Wegeleben","municipality":{"key":"15085365","name":"Wegeleben, Stadt","type":"Stadt"},"district":{"key":"15085","name":"Harz","type":"Landkreis"},"federalState":{"key":"15","name":"Sachsen-Anhalt"}},{"name":"Trift","postalCode":"38828","locality":"Wegeleben","municipality":{"key":"15085365","name":"Wegeleben, Stadt","type":"Stadt"},"district":{"key":"15085","name":"Harz","type":"Landkreis"},"federalState":{"key":"15","name":"Sachsen-Anhalt"}},{"name":"Uferstr.","postalCode":"37197","locality":"Hattorf am Harz","municipality":{"key":"03159018","name":"Hattorf am Harz","type":"Kreisangehörige_Gemeinde"},"district":{"key":"03159","name":"Göttingen","type":"Landkreis"},"federalState":{"key":"03","name":"Niedersachsen"}},{"name":"Uferstr.","postalCode":"37199","locality":"Wulften am Harz","municipality":{"key":"03159039","name":"Wulften am Harz","type":"Kreisangehörige_Gemeinde"},"district":{"key":"03159","name":"Göttingen","type":"Landkreis"},"federalState":{"key":"03","name":"Niedersachsen"}},{"name":"Uferstr.","postalCode":"37431","locality":"Bad Lauterberg im Harz","municipality":{"key":"03159003","name":"Bad Lauterberg im Harz, Stadt","type":"Stadt"},"district":{"key":"03159","name":"Göttingen","type":"Landkreis"},"federalState":{"key":"03","name":"Niedersachsen"}},{"name":"Uferstr.","postalCode":"99768","locality":"Harztor","municipality":{"key":"16062065","name":"Harztor","type":"Kreisangehörige_Gemeinde"},"district":{"key":"16062","name":"Nordhausen","type":"Landkreis"},"federalState":{"key":"16","name":"Thüringen"}},{"name":"Uftrunger Enge Gasse","postalCode":"06536","locality":"Südharz","municipality":{"key":"15087412","name":"Südharz","type":"Kreisangehörige_Gemeinde"},"district":{"key":"15087","name":"Mansfeld-Südharz","type":"Landkreis"},"federalState":{"key":"15","name":"Sachsen-Anhalt"}},{"name":"Uftrunger Feldstr.","postalCode":"06536","locality":"Südharz","municipality":{"key":"15087412","name":"Südharz","type":"Kreisangehörige_Gemeinde"},"district":{"key":"15087","name":"Mansfeld-Südharz","type":"Landkreis"},"federalState":{"key":"15","name":"Sachsen-Anhalt"}},{"name":"Uftrunger Hauptstr.","postalCode":"06536","locality":"Südharz","municipality":{"key":"15087412","name":"Südharz","type":"Kreisangehörige_Gemeinde"},"district":{"key":"15087","name":"Mansfeld-Südharz","type":"Landkreis"},"federalState":{"key":"15","name":"Sachsen-Anhalt"}},{"name":"Uftrunger Schulgasse","postalCode":"06536","locality":"Südharz","municipality":{"key":"15087412","name":"Südharz","type":"Kreisangehörige_Gemeinde"},"district":{"key":"15087","name":"Mansfeld-Südharz","type":"Landkreis"},"federalState":{"key":"15","name":"Sachsen-Anhalt"}},{"name":"Uftrunger Teichdamm","postalCode":"06536","locality":"Südharz","municipality":{"key":"15087412","name":"Südharz","type":"Kreisangehörige_Gemeinde"},"district":{"key":"15087","name":"Mansfeld-Südharz","type":"Landkreis"},"federalState":{"key":"15","name":"Sachsen-Anhalt"}},{"name":"Uhlenweg","postalCode":"38667","locality":"Bad Harzburg","municipality":{"key":"03153002","name":"Bad Harzburg, Stadt","type":"Stadt"},"district":{"key":"03153","name":"Goslar","type":"Landkreis"},"federalState":{"key":"03","name":"Niedersachsen"}},{"name":"Ulmenstr.","postalCode":"37412","locality":"Herzberg am Harz","municipality":{"key":"03159019","name":"Herzberg am Harz, Stadt","type":"Stadt"},"district":{"key":"03159","name":"Göttingen","type":"Landkreis"},"federalState":{"key":"03","name":"Niedersachsen"}},{"name":"Ulmenstr.","postalCode":"37431","locality":"Bad Lauterberg im Harz","municipality":{"key":"03159003","name":"Bad Lauterberg im Harz, Stadt","type":"Stadt"},"district":{"key":"03159","name":"Göttingen","type":"Landkreis"},"federalState":{"key":"03","name":"Niedersachsen"}},{"name":"Ulmenweg","postalCode":"37520","locality":"Osterode am Harz","municipality":{"key":"03159026","name":"Osterode am Harz, Stadt","type":"Stadt"},"district":{"key":"03159","name":"Göttingen","type":"Landkreis"},"federalState":{"key":"03","name":"Niedersachsen"}},{"name":"Ulmer Weg","postalCode":"37520","locality":"Harz (Landkreis Göttingen)","municipality":{"key":"03159501","name":"Harz (Landkreis Göttingen), gemfr. Geb.","type":"Gemeindefreies_Gebiet_Unbewohnt"},"district":{"key":"03159","name":"Göttingen","type":"Landkreis"},"federalState":{"key":"03","name":"Niedersachsen"}},{"name":"Ulmer Weg","postalCode":"38667","locality":"Harz (LK Goslar)","municipality":{"key":"03153504","name":"Harz (Landkreis Goslar), gemfr. Gebiet","type":"Gemeindefreies_Gebiet_Unbewohnt"},"district":{"key":"03153","name":"Goslar","type":"Landkreis"},"federalState":{"key":"03","name":"Niedersachsen"}},{"name":"Ulmer Weg","postalCode":"38700","locality":"Harz (LK Goslar)","municipality":{"key":"03153504","name":"Harz (Landkreis Goslar), gemfr. Gebiet","type":"Gemeindefreies_Gebiet_Unbewohnt"},"district":{"key":"03153","name":"Goslar","type":"Landkreis"},"federalState":{"key":"03","name":"Niedersachsen"}},{"name":"Ulmer Weg","postalCode":"38875","locality":"Oberharz am Brocken","municipality":{"key":"15085228","name":"Oberharz am Brocken, Stadt","type":"Stadt"},"district":{"key":"15085","name":"Harz","type":"Landkreis"},"federalState":{"key":"15","name":"Sachsen-Anhalt"}},{"name":"Ulrichstal","postalCode":"37445","locality":"Harz (Landkreis Göttingen)","municipality":{"key":"03159501","name":"Harz (Landkreis Göttingen), gemfr. Geb.","type":"Gemeindefreies_Gebiet_Unbewohnt"},"district":{"key":"03159","name":"Göttingen","type":"Landkreis"},"federalState":{"key":"03","name":"Niedersachsen"}},{"name":"Unterbruch","postalCode":"38877","locality":"Oberharz am Brocken","municipality":{"key":"15085228","name":"Oberharz am Brocken, Stadt","type":"Stadt"},"district":{"key":"15085","name":"Harz","type":"Landkreis"},"federalState":{"key":"15","name":"Sachsen-Anhalt"}},{"name":"Unter dem Branntweinstein","postalCode":"37520","locality":"Osterode am Harz","municipality":{"key":"03159026","name":"Osterode am Harz, Stadt","type":"Stadt"},"district":{"key":"03159","name":"Göttingen","type":"Landkreis"},"federalState":{"key":"03","name":"Niedersachsen"}},{"name":"Unter dem Kleiberg","postalCode":"37412","locality":"Hörden am Harz","municipality":{"key":"03159020","name":"Hörden am Harz","type":"Kreisangehörige_Gemeinde"},"district":{"key":"03159","name":"Göttingen","type":"Landkreis"},"federalState":{"key":"03","name":"Niedersachsen"}},{"name":"Unter den Birken","postalCode":"38875","locality":"Oberharz am Brocken","municipality":{"key":"15085228","name":"Oberharz am Brocken, Stadt","type":"Stadt"},"district":{"key":"15085","name":"Harz","type":"Landkreis"},"federalState":{"key":"15","name":"Sachsen-Anhalt"}},{"name":"Unter den Eichen","postalCode":"37197","locality":"Hattorf am Harz","municipality":{"key":"03159018","name":"Hattorf am Harz","type":"Kreisangehörige_Gemeinde"},"district":{"key":"03159","name":"Göttingen","type":"Landkreis"},"federalState":{"key":"03","name":"Niedersachsen"}},{"name":"Unter den Eichen","postalCode":"38667","locality":"Bad Harzburg","municipality":{"key":"03153002","name":"Bad Harzburg, Stadt","type":"Stadt"},"district":{"key":"03153","name":"Goslar","type":"Landkreis"},"federalState":{"key":"03","name":"Niedersachsen"}},{"name":"Unter den Linden","postalCode":"38667","locality":"Bad Harzburg","municipality":{"key":"03153002","name":"Bad Harzburg, Stadt","type":"Stadt"},"district":{"key":"03153","name":"Goslar","type":"Landkreis"},"federalState":{"key":"03","name":"Niedersachsen"}},{"name":"Unterdorf","postalCode":"06463","locality":"Falkenstein/Harz","municipality":{"key":"15085110","name":"Falkenstein/Harz, Stadt","type":"Stadt"},"district":{"key":"15085","name":"Harz","type":"Landkreis"},"federalState":{"key":"15","name":"Sachsen-Anhalt"}},{"name":"Unterdorf","postalCode":"06543","locality":"Falkenstein/Harz","municipality":{"key":"15085110","name":"Falkenstein/Harz, Stadt","type":"Stadt"},"district":{"key":"15085","name":"Harz","type":"Landkreis"},"federalState":{"key":"15","name":"Sachsen-Anhalt"}},{"name":"Unterdorf","postalCode":"37199","locality":"Wulften am Harz","municipality":{"key":"03159039","name":"Wulften am Harz","type":"Kreisangehörige_Gemeinde"},"district":{"key":"03159","name":"Göttingen","type":"Landkreis"},"federalState":{"key":"03","name":"Niedersachsen"}},{"name":"Unterdorf","postalCode":"37412","locality":"Herzberg am Harz","municipality":{"key":"03159019","name":"Herzberg am Harz, Stadt","type":"Stadt"},"district":{"key":"03159","name":"Göttingen","type":"Landkreis"},"federalState":{"key":"03","name":"Niedersachsen"}},{"name":"Unterdorf","postalCode":"37520","locality":"Osterode am Harz","municipality":{"key":"03159026","name":"Osterode am Harz, Stadt","type":"Stadt"},"district":{"key":"03159","name":"Göttingen","type":"Landkreis"},"federalState":{"key":"03","name":"Niedersachsen"}},{"name":"Untere Gasse","postalCode":"06536","locality":"Südharz","municipality":{"key":"15087412","name":"Südharz","type":"Kreisangehörige_Gemeinde"},"district":{"key":"15087","name":"Mansfeld-Südharz","type":"Landkreis"},"federalState":{"key":"15","name":"Sachsen-Anhalt"}},{"name":"Untere Gasse","postalCode":"06543","locality":"Falkenstein/Harz","municipality":{"key":"15085110","name":"Falkenstein/Harz, Stadt","type":"Stadt"},"district":{"key":"15085","name":"Harz","type":"Landkreis"},"federalState":{"key":"15","name":"Sachsen-Anhalt"}},{"name":"Untere Hauptstr.","postalCode":"06333","locality":"Falkenstein/Harz","municipality":{"key":"15085110","name":"Falkenstein/Harz, Stadt","type":"Stadt"},"district":{"key":"15085","name":"Harz","type":"Landkreis"},"federalState":{"key":"15","name":"Sachsen-Anhalt"}},{"name":"Untere Herrentalstr.","postalCode":"37520","locality":"Osterode am Harz","municipality":{"key":"03159026","name":"Osterode am Harz, Stadt","type":"Stadt"},"district":{"key":"03159","name":"Göttingen","type":"Landkreis"},"federalState":{"key":"03","name":"Niedersachsen"}},{"name":"Untere Hofbreite","postalCode":"38667","locality":"Bad Harzburg","municipality":{"key":"03153002","name":"Bad Harzburg, Stadt","type":"Stadt"},"district":{"key":"03153","name":"Goslar","type":"Landkreis"},"federalState":{"key":"03","name":"Niedersachsen"}},{"name":"Untere Kreisstr.","postalCode":"06493","locality":"Harzgerode","municipality":{"key":"15085145","name":"Harzgerode, Stadt","type":"Stadt"},"district":{"key":"15085","name":"Harz","type":"Landkreis"},"federalState":{"key":"15","name":"Sachsen-Anhalt"}},{"name":"Untere Krodostr.","postalCode":"38667","locality":"Bad Harzburg","municipality":{"key":"03153002","name":"Bad Harzburg, Stadt","type":"Stadt"},"district":{"key":"03153","name":"Goslar","type":"Landkreis"},"federalState":{"key":"03","name":"Niedersachsen"}},{"name":"Untere Neustadt","postalCode":"37520","locality":"Osterode am Harz","municipality":{"key":"03159026","name":"Osterode am Harz, Stadt","type":"Stadt"},"district":{"key":"03159","name":"Göttingen","type":"Landkreis"},"federalState":{"key":"03","name":"Niedersachsen"}},{"name":"Unterer Adenbergweg","postalCode":"38667","locality":"Harz (LK Goslar)","municipality":{"key":"03153504","name":"Harz (Landkreis Goslar), gemfr. Gebiet","type":"Gemeindefreies_Gebiet_Unbewohnt"},"district":{"key":"03153","name":"Goslar","type":"Landkreis"},"federalState":{"key":"03","name":"Niedersachsen"}},{"name":"Unterer Bruchbergweg","postalCode":"38707","locality":"Harz (LK Goslar)","municipality":{"key":"03153504","name":"Harz (Landkreis Goslar), gemfr. Gebiet","type":"Gemeindefreies_Gebiet_Unbewohnt"},"district":{"key":"03153","name":"Goslar","type":"Landkreis"},"federalState":{"key":"03","name":"Niedersachsen"}},{"name":"Unterer Eichenbergsweg","postalCode":"38723","locality":"Harz (LK Goslar)","municipality":{"key":"03153504","name":"Harz (Landkreis Goslar), gemfr. Gebiet","type":"Gemeindefreies_Gebiet_Unbewohnt"},"district":{"key":"03153","name":"Goslar","type":"Landkreis"},"federalState":{"key":"03","name":"Niedersachsen"}},{"name":"Untere Reihe","postalCode":"99768","locality":"Harztor","municipality":{"key":"16062065","name":"Harztor","type":"Kreisangehörige_Gemeinde"},"district":{"key":"16062","name":"Nordhausen","type":"Landkreis"},"federalState":{"key":"16","name":"Thüringen"}},{"name":"Unterer Fußstieg","postalCode":"06536","locality":"Südharz","municipality":{"key":"15087412","name":"Südharz","type":"Kreisangehörige_Gemeinde"},"district":{"key":"15087","name":"Mansfeld-Südharz","type":"Landkreis"},"federalState":{"key":"15","name":"Sachsen-Anhalt"}},{"name":"Unterer Hahnenkopf","postalCode":"38889","locality":"Oberharz am Brocken","municipality":{"key":"15085228","name":"Oberharz am Brocken, Stadt","type":"Stadt"},"district":{"key":"15085","name":"Harz","type":"Landkreis"},"federalState":{"key":"15","name":"Sachsen-Anhalt"}},{"name":"Unterer Herrenweg","postalCode":"38667","locality":"Harz (LK Goslar)","municipality":{"key":"03153504","name":"Harz (Landkreis Goslar), gemfr. Gebiet","type":"Gemeindefreies_Gebiet_Unbewohnt"},"district":{"key":"03153","name":"Goslar","type":"Landkreis"},"federalState":{"key":"03","name":"Niedersachsen"}},{"name":"Unterer Horizontalweg","postalCode":"38700","locality":"Harz (LK Goslar)","municipality":{"key":"03153504","name":"Harz (Landkreis Goslar), gemfr. Gebiet","type":"Gemeindefreies_Gebiet_Unbewohnt"},"district":{"key":"03153","name":"Goslar","type":"Landkreis"},"federalState":{"key":"03","name":"Niedersachsen"}},{"name":"Unterer Kahbergsweg","postalCode":"38667","locality":"Harz (LK Goslar)","municipality":{"key":"03153504","name":"Harz (Landkreis Goslar), gemfr. Gebiet","type":"Gemeindefreies_Gebiet_Unbewohnt"},"district":{"key":"03153","name":"Goslar","type":"Landkreis"},"federalState":{"key":"03","name":"Niedersachsen"}},{"name":"Unterer Kahlenberg","postalCode":"38875","locality":"Oberharz am Brocken","municipality":{"key":"15085228","name":"Oberharz am Brocken, Stadt","type":"Stadt"},"district":{"key":"15085","name":"Harz","type":"Landkreis"},"federalState":{"key":"15","name":"Sachsen-Anhalt"}},{"name":"Unterer Kuxstein","postalCode":"06536","locality":"Südharz","municipality":{"key":"15087412","name":"Südharz","type":"Kreisangehörige_Gemeinde"},"district":{"key":"15087","name":"Mansfeld-Südharz","type":"Landkreis"},"federalState":{"key":"15","name":"Sachsen-Anhalt"}},{"name":"Unterer Oderweg","postalCode":"37444","locality":"Harz (LK Goslar)","municipality":{"key":"03153504","name":"Harz (Landkreis Goslar), gemfr. Gebiet","type":"Gemeindefreies_Gebiet_Unbewohnt"},"district":{"key":"03153","name":"Goslar","type":"Landkreis"},"federalState":{"key":"03","name":"Niedersachsen"}},{"name":"Varleystr.","postalCode":"38685","locality":"Harz (LK Goslar)","municipality":{"key":"03153504","name":"Harz (Landkreis Goslar), gemfr. Gebiet","type":"Gemeindefreies_Gebiet_Unbewohnt"},"district":{"key":"03153","name":"Goslar","type":"Landkreis"},"federalState":{"key":"03","name":"Niedersachsen"}},{"name":"Varleystrasse","postalCode":"38685","locality":"Harz (LK Goslar)","municipality":{"key":"03153504","name":"Harz (Landkreis Goslar), gemfr. Gebiet","type":"Gemeindefreies_Gebiet_Unbewohnt"},"district":{"key":"03153","name":"Goslar","type":"Landkreis"},"federalState":{"key":"03","name":"Niedersachsen"}},{"name":"Vater-Jahn-Str.","postalCode":"06463","locality":"Falkenstein/Harz","municipality":{"key":"15085110","name":"Falkenstein/Harz, Stadt","type":"Stadt"},"district":{"key":"15085","name":"Harz","type":"Landkreis"},"federalState":{"key":"15","name":"Sachsen-Anhalt"}},{"name":"Vater-Jahn-Str.","postalCode":"99768","locality":"Harztor","municipality":{"key":"16062065","name":"Harztor","type":"Kreisangehörige_Gemeinde"},"district":{"key":"16062","name":"Nordhausen","type":"Landkreis"},"federalState":{"key":"16","name":"Thüringen"}},{"name":"v.d. Heydeweg","postalCode":"37520","locality":"Harz (Landkreis Göttingen)","municipality":{"key":"03159501","name":"Harz (Landkreis Göttingen), gemfr. Geb.","type":"Gemeindefreies_Gebiet_Unbewohnt"},"district":{"key":"03159","name":"Göttingen","type":"Landkreis"},"federalState":{"key":"03","name":"Niedersachsen"}},{"name":"Veckenstedter Weg","postalCode":"38855","locality":"Nordharz","municipality":{"key":"15085227","name":"Nordharz","type":"Kreisangehörige_Gemeinde"},"district":{"key":"15085","name":"Harz","type":"Landkreis"},"federalState":{"key":"15","name":"Sachsen-Anhalt"}},{"name":"Veckenstedts Winkel","postalCode":"38855","locality":"Nordharz","municipality":{"key":"15085227","name":"Nordharz","type":"Kreisangehörige_Gemeinde"},"district":{"key":"15085","name":"Harz","type":"Landkreis"},"federalState":{"key":"15","name":"Sachsen-Anhalt"}},{"name":"Veilchenstr.","postalCode":"37412","locality":"Herzberg am Harz","municipality":{"key":"03159019","name":"Herzberg am Harz, Stadt","type":"Stadt"},"district":{"key":"03159","name":"Göttingen","type":"Landkreis"},"federalState":{"key":"03","name":"Niedersachsen"}},{"name":"Veilchenstr.","postalCode":"37412","locality":"Hörden am Harz","municipality":{"key":"03159020","name":"Hörden am Harz","type":"Kreisangehörige_Gemeinde"},"district":{"key":"03159","name":"Göttingen","type":"Landkreis"},"federalState":{"key":"03","name":"Niedersachsen"}},{"name":"Veilchenweg","postalCode":"37197","locality":"Hattorf am Harz","municipality":{"key":"03159018","name":"Hattorf am Harz","type":"Kreisangehörige_Gemeinde"},"district":{"key":"03159","name":"Göttingen","type":"Landkreis"},"federalState":{"key":"03","name":"Niedersachsen"}},{"name":"Veilchenweg","postalCode":"37520","locality":"Osterode am Harz","municipality":{"key":"03159026","name":"Osterode am Harz, Stadt","type":"Stadt"},"district":{"key":"03159","name":"Göttingen","type":"Landkreis"},"federalState":{"key":"03","name":"Niedersachsen"}},{"name":"Verbindungsweg","postalCode":"37444","locality":"Harz (LK Goslar)","municipality":{"key":"03153504","name":"Harz (Landkreis Goslar), gemfr. Gebiet","type":"Gemeindefreies_Gebiet_Unbewohnt"},"district":{"key":"03153","name":"Goslar","type":"Landkreis"},"federalState":{"key":"03","name":"Niedersachsen"}},{"name":"Vereinsweg","postalCode":"38723","locality":"Harz (LK Goslar)","municipality":{"key":"03153504","name":"Harz (Landkreis Goslar), gemfr. Gebiet","type":"Gemeindefreies_Gebiet_Unbewohnt"},"district":{"key":"03153","name":"Goslar","type":"Landkreis"},"federalState":{"key":"03","name":"Niedersachsen"}},{"name":"Verlorene Kulmkestr.","postalCode":"37520","locality":"Harz (Landkreis Göttingen)","municipality":{"key":"03159501","name":"Harz (Landkreis Göttingen), gemfr. Geb.","type":"Gemeindefreies_Gebiet_Unbewohnt"},"district":{"key":"03159","name":"Göttingen","type":"Landkreis"},"federalState":{"key":"03","name":"Niedersachsen"}},{"name":"v. Hammerstein-Weg","postalCode":"38678","locality":"Harz (LK Goslar)","municipality":{"key":"03153504","name":"Harz (Landkreis Goslar), gemfr. Gebiet","type":"Gemeindefreies_Gebiet_Unbewohnt"},"district":{"key":"03153","name":"Goslar","type":"Landkreis"},"federalState":{"key":"03","name":"Niedersachsen"}},{"name":"Viehweide","postalCode":"38667","locality":"Bad Harzburg","municipality":{"key":"03153002","name":"Bad Harzburg, Stadt","type":"Stadt"},"district":{"key":"03153","name":"Goslar","type":"Landkreis"},"federalState":{"key":"03","name":"Niedersachsen"}},{"name":"Vienenburger Str.","postalCode":"38667","locality":"Bad Harzburg","municipality":{"key":"03153002","name":"Bad Harzburg, Stadt","type":"Stadt"},"district":{"key":"03153","name":"Goslar","type":"Landkreis"},"federalState":{"key":"03","name":"Niedersachsen"}},{"name":"Viktorshöher Fahrweg","postalCode":"06493","locality":"Harzgerode","municipality":{"key":"15085145","name":"Harzgerode, Stadt","type":"Stadt"},"district":{"key":"15085","name":"Harz","type":"Landkreis"},"federalState":{"key":"15","name":"Sachsen-Anhalt"}},{"name":"Vizeweg","postalCode":"38723","locality":"Harz (LK Goslar)","municipality":{"key":"03153504","name":"Harz (Landkreis Goslar), gemfr. Gebiet","type":"Gemeindefreies_Gebiet_Unbewohnt"},"district":{"key":"03153","name":"Goslar","type":"Landkreis"},"federalState":{"key":"03","name":"Niedersachsen"}},{"name":"Vogtland","postalCode":"99768","locality":"Harztor","municipality":{"key":"16062065","name":"Harztor","type":"Kreisangehörige_Gemeinde"},"district":{"key":"16062","name":"Nordhausen","type":"Landkreis"},"federalState":{"key":"16","name":"Thüringen"}},{"name":"Voigtsfeld","postalCode":"38877","locality":"Oberharz am Brocken","municipality":{"key":"15085228","name":"Oberharz am Brocken, Stadt","type":"Stadt"},"district":{"key":"15085","name":"Harz","type":"Landkreis"},"federalState":{"key":"15","name":"Sachsen-Anhalt"}},{"name":"Volkenskopfweg","postalCode":"37520","locality":"Harz (Landkreis Göttingen)","municipality":{"key":"03159501","name":"Harz (Landkreis Göttingen), gemfr. Geb.","type":"Gemeindefreies_Gebiet_Unbewohnt"},"district":{"key":"03159","name":"Göttingen","type":"Landkreis"},"federalState":{"key":"03","name":"Niedersachsen"}},{"name":"Vollbrechtstr.","postalCode":"06536","locality":"Südharz","municipality":{"key":"15087412","name":"Südharz","type":"Kreisangehörige_Gemeinde"},"district":{"key":"15087","name":"Mansfeld-Südharz","type":"Landkreis"},"federalState":{"key":"15","name":"Sachsen-Anhalt"}},{"name":"Von-der-Heydestr.","postalCode":"37444","locality":"Harz (LK Goslar)","municipality":{"key":"03153504","name":"Harz (Landkreis Goslar), gemfr. Gebiet","type":"Gemeindefreies_Gebiet_Unbewohnt"},"district":{"key":"03153","name":"Goslar","type":"Landkreis"},"federalState":{"key":"03","name":"Niedersachsen"}},{"name":"Von-Eichendorff-Str.","postalCode":"37412","locality":"Herzberg am Harz","municipality":{"key":"03159019","name":"Herzberg am Harz, Stadt","type":"Stadt"},"district":{"key":"03159","name":"Göttingen","type":"Landkreis"},"federalState":{"key":"03","name":"Niedersachsen"}},{"name":"Von-Einem-Str.","postalCode":"37412","locality":"Herzberg am Harz","municipality":{"key":"03159019","name":"Herzberg am Harz, Stadt","type":"Stadt"},"district":{"key":"03159","name":"Göttingen","type":"Landkreis"},"federalState":{"key":"03","name":"Niedersachsen"}},{"name":"von-Langen-Str.","postalCode":"38700","locality":"Harz (LK Goslar)","municipality":{"key":"03153504","name":"Harz (Landkreis Goslar), gemfr. Gebiet","type":"Gemeindefreies_Gebiet_Unbewohnt"},"district":{"key":"03153","name":"Goslar","type":"Landkreis"},"federalState":{"key":"03","name":"Niedersachsen"}},{"name":"Von-Weber-Str.","postalCode":"37412","locality":"Herzberg am Harz","municipality":{"key":"03159019","name":"Herzberg am Harz, Stadt","type":"Stadt"},"district":{"key":"03159","name":"Göttingen","type":"Landkreis"},"federalState":{"key":"03","name":"Niedersachsen"}},{"name":"Vor dem Berge","postalCode":"37520","locality":"Osterode am Harz","municipality":{"key":"03159026","name":"Osterode am Harz, Stadt","type":"Stadt"},"district":{"key":"03159","name":"Göttingen","type":"Landkreis"},"federalState":{"key":"03","name":"Niedersachsen"}},{"name":"Vor dem Dorfe","postalCode":"06536","locality":"Südharz","municipality":{"key":"15087412","name":"Südharz","type":"Kreisangehörige_Gemeinde"},"district":{"key":"15087","name":"Mansfeld-Südharz","type":"Landkreis"},"federalState":{"key":"15","name":"Sachsen-Anhalt"}},{"name":"Vor dem Tore","postalCode":"38871","locality":"Nordharz","municipality":{"key":"15085227","name":"Nordharz","type":"Kreisangehörige_Gemeinde"},"district":{"key":"15085","name":"Harz","type":"Landkreis"},"federalState":{"key":"15","name":"Sachsen-Anhalt"}},{"name":"Vor dem Viertel","postalCode":"37431","locality":"Bad Lauterberg im Harz","municipality":{"key":"03159003","name":"Bad Lauterberg im Harz, Stadt","type":"Stadt"},"district":{"key":"03159","name":"Göttingen","type":"Landkreis"},"federalState":{"key":"03","name":"Niedersachsen"}},{"name":"Vor den Höfen","postalCode":"38667","locality":"Bad Harzburg","municipality":{"key":"03153002","name":"Bad Harzburg, Stadt","type":"Stadt"},"district":{"key":"03153","name":"Goslar","type":"Landkreis"},"federalState":{"key":"03","name":"Niedersachsen"}},{"name":"Vordere Dorfstr.","postalCode":"06536","locality":"Südharz","municipality":{"key":"15087412","name":"Südharz","type":"Kreisangehörige_Gemeinde"},"district":{"key":"15087","name":"Mansfeld-Südharz","type":"Landkreis"},"federalState":{"key":"15","name":"Sachsen-Anhalt"}},{"name":"Vorderer Kirchberg","postalCode":"06536","locality":"Südharz","municipality":{"key":"15087412","name":"Südharz","type":"Kreisangehörige_Gemeinde"},"district":{"key":"15087","name":"Mansfeld-Südharz","type":"Landkreis"},"federalState":{"key":"15","name":"Sachsen-Anhalt"}},{"name":"Vorderer Königsbergweg","postalCode":"37520","locality":"Harz (Landkreis Göttingen)","municipality":{"key":"03159501","name":"Harz (Landkreis Göttingen), gemfr. Geb.","type":"Gemeindefreies_Gebiet_Unbewohnt"},"district":{"key":"03159","name":"Göttingen","type":"Landkreis"},"federalState":{"key":"03","name":"Niedersachsen"}},{"name":"Vor der Steinkirche","postalCode":"37412","locality":"Herzberg am Harz","municipality":{"key":"03159019","name":"Herzberg am Harz, Stadt","type":"Stadt"},"district":{"key":"03159","name":"Göttingen","type":"Landkreis"},"federalState":{"key":"03","name":"Niedersachsen"}},{"name":"Vorderstr.","postalCode":"99768","locality":"Harztor","municipality":{"key":"16062065","name":"Harztor","type":"Kreisangehörige_Gemeinde"},"district":{"key":"16062","name":"Nordhausen","type":"Landkreis"},"federalState":{"key":"16","name":"Thüringen"}},{"name":"Vorstadt","postalCode":"37412","locality":"Herzberg am Harz","municipality":{"key":"03159019","name":"Herzberg am Harz, Stadt","type":"Stadt"},"district":{"key":"03159","name":"Göttingen","type":"Landkreis"},"federalState":{"key":"03","name":"Niedersachsen"}},{"name":"Vorwerk","postalCode":"37431","locality":"Bad Lauterberg im Harz","municipality":{"key":"03159003","name":"Bad Lauterberg im Harz, Stadt","type":"Stadt"},"district":{"key":"03159","name":"Göttingen","type":"Landkreis"},"federalState":{"key":"03","name":"Niedersachsen"}},{"name":"Wallstr.","postalCode":"38828","locality":"Wegeleben","municipality":{"key":"15085365","name":"Wegeleben, Stadt","type":"Stadt"},"district":{"key":"15085","name":"Harz","type":"Landkreis"},"federalState":{"key":"15","name":"Sachsen-Anhalt"}},{"name":"Wedderstedter Weg","postalCode":"38828","locality":"Wegeleben","municipality":{"key":"15085365","name":"Wegeleben, Stadt","type":"Stadt"},"district":{"key":"15085","name":"Harz","type":"Landkreis"},"federalState":{"key":"15","name":"Sachsen-Anhalt"}},{"name":"Wegelebener Str.","postalCode":"38828","locality":"Wegeleben","municipality":{"key":"15085365","name":"Wegeleben, Stadt","type":"Stadt"},"district":{"key":"15085","name":"Harz","type":"Landkreis"},"federalState":{"key":"15","name":"Sachsen-Anhalt"}},{"name":"Winkel","postalCode":"38828","locality":"Wegeleben","municipality":{"key":"15085365","name":"Wegeleben, Stadt","type":"Stadt"},"district":{"key":"15085","name":"Harz","type":"Landkreis"},"federalState":{"key":"15","name":"Sachsen-Anhalt"}},{"name":"Zechenfeld","postalCode":"06493","locality":"Harzgerode","municipality":{"key":"15085145","name":"Harzgerode, Stadt","type":"Stadt"},"district":{"key":"15085","name":"Harz","type":"Landkreis"},"federalState":{"key":"15","name":"Sachsen-Anhalt"}},{"name":"Zechenhaus","postalCode":"06536","locality":"Südharz","municipality":{"key":"15087412","name":"Südharz","type":"Kreisangehörige_Gemeinde"},"district":{"key":"15087","name":"Mansfeld-Südharz","type":"Landkreis"},"federalState":{"key":"15","name":"Sachsen-Anhalt"}},{"name":"Zechenstr.","postalCode":"37431","locality":"Bad Lauterberg im Harz","municipality":{"key":"03159003","name":"Bad Lauterberg im Harz, Stadt","type":"Stadt"},"district":{"key":"03159","name":"Göttingen","type":"Landkreis"},"federalState":{"key":"03","name":"Niedersachsen"}},{"name":"Zechental","postalCode":"06536","locality":"Südharz","municipality":{"key":"15087412","name":"Südharz","type":"Kreisangehörige_Gemeinde"},"district":{"key":"15087","name":"Mansfeld-Südharz","type":"Landkreis"},"federalState":{"key":"15","name":"Sachsen-Anhalt"}},{"name":"Zeughausplan","postalCode":"06536","locality":"Südharz","municipality":{"key":"15087412","name":"Südharz","type":"Kreisangehörige_Gemeinde"},"district":{"key":"15087","name":"Mansfeld-Südharz","type":"Landkreis"},"federalState":{"key":"15","name":"Sachsen-Anhalt"}},{"name":"Ziegeleistr.","postalCode":"06536","locality":"Südharz","municipality":{"key":"15087412","name":"Südharz","type":"Kreisangehörige_Gemeinde"},"district":{"key":"15087","name":"Mansfeld-Südharz","type":"Landkreis"},"federalState":{"key":"15","name":"Sachsen-Anhalt"}},{"name":"Ziegengasse","postalCode":"06536","locality":"Südharz","municipality":{"key":"15087412","name":"Südharz","type":"Kreisangehörige_Gemeinde"},"district":{"key":"15087","name":"Mansfeld-Südharz","type":"Landkreis"},"federalState":{"key":"15","name":"Sachsen-Anhalt"}},{"name":"Ziegenhalde","postalCode":"38855","locality":"Nordharz","municipality":{"key":"15085227","name":"Nordharz","type":"Kreisangehörige_Gemeinde"},"district":{"key":"15085","name":"Harz","type":"Landkreis"},"federalState":{"key":"15","name":"Sachsen-Anhalt"}},{"name":"Ziegenkopf","postalCode":"38877","locality":"Oberharz am Brocken","municipality":{"key":"15085228","name":"Oberharz am Brocken, Stadt","type":"Stadt"},"district":{"key":"15085","name":"Harz","type":"Landkreis"},"federalState":{"key":"15","name":"Sachsen-Anhalt"}},{"name":"Ziegenrückenweg","postalCode":"38667","locality":"Harz (LK Goslar)","municipality":{"key":"03153504","name":"Harz (Landkreis Goslar), gemfr. Gebiet","type":"Gemeindefreies_Gebiet_Unbewohnt"},"district":{"key":"03153","name":"Goslar","type":"Landkreis"},"federalState":{"key":"03","name":"Niedersachsen"}},{"name":"Zieglerskopfweg","postalCode":"37431","locality":"Harz (Landkreis Göttingen)","municipality":{"key":"03159501","name":"Harz (Landkreis Göttingen), gemfr. Geb.","type":"Gemeindefreies_Gebiet_Unbewohnt"},"district":{"key":"03159","name":"Göttingen","type":"Landkreis"},"federalState":{"key":"03","name":"Niedersachsen"}},{"name":"Zillyer Weg","postalCode":"38871","locality":"Nordharz","municipality":{"key":"15085227","name":"Nordharz","type":"Kreisangehörige_Gemeinde"},"district":{"key":"15085","name":"Harz","type":"Landkreis"},"federalState":{"key":"15","name":"Sachsen-Anhalt"}},{"name":"Zimmermannsweg","postalCode":"37520","locality":"Harz (Landkreis Göttingen)","municipality":{"key":"03159501","name":"Harz (Landkreis Göttingen), gemfr. Geb.","type":"Gemeindefreies_Gebiet_Unbewohnt"},"district":{"key":"03159","name":"Göttingen","type":"Landkreis"},"federalState":{"key":"03","name":"Niedersachsen"}},{"name":"Zinne","postalCode":"38875","locality":"Oberharz am Brocken","municipality":{"key":"15085228","name":"Oberharz am Brocken, Stadt","type":"Stadt"},"district":{"key":"15085","name":"Harz","type":"Landkreis"},"federalState":{"key":"15","name":"Sachsen-Anhalt"}},{"name":"Zipfel","postalCode":"99897","locality":"Tambach-Dietharz","municipality":{"key":"16067065","name":"Tambach-Dietharz/Thür. Wald, Stadt","type":"Stadt"},"district":{"key":"16067","name":"Gotha","type":"Landkreis"},"federalState":{"key":"16","name":"Thüringen"}},{"name":"Zollhäuserstr.","postalCode":"38877","locality":"Oberharz am Brocken","municipality":{"key":"15085228","name":"Oberharz am Brocken, Stadt","type":"Stadt"},"district":{"key":"15085","name":"Harz","type":"Landkreis"},"federalState":{"key":"15","name":"Sachsen-Anhalt"}},{"name":"Zollweg","postalCode":"37431","locality":"Bad Lauterberg im Harz","municipality":{"key":"03159003","name":"Bad Lauterberg im Harz, Stadt","type":"Stadt"},"district":{"key":"03159","name":"Göttingen","type":"Landkreis"},"federalState":{"key":"03","name":"Niedersachsen"}},{"name":"Zorger Weg","postalCode":"37445","locality":"Harz (Landkreis Göttingen)","municipality":{"key":"03159501","name":"Harz (Landkreis Göttingen), gemfr. Geb.","type":"Gemeindefreies_Gebiet_Unbewohnt"},"district":{"key":"03159","name":"Göttingen","type":"Landkreis"},"federalState":{"key":"03","name":"Niedersachsen"}},{"name":"Zuckerfabrik","postalCode":"38871","locality":"Nordharz","municipality":{"key":"15085227","name":"Nordharz","type":"Kreisangehörige_Gemeinde"},"district":{"key":"15085","name":"Harz","type":"Landkreis"},"federalState":{"key":"15","name":"Sachsen-Anhalt"}},{"name":"Zum Bad","postalCode":"06536","locality":"Südharz","municipality":{"key":"15087412","name":"Südharz","type":"Kreisangehörige_Gemeinde"},"district":{"key":"15087","name":"Mansfeld-Südharz","type":"Landkreis"},"federalState":{"key":"15","name":"Sachsen-Anhalt"}},{"name":"Zum Birkenkreuz","postalCode":"37412","locality":"Herzberg am Harz","municipality":{"key":"03159019","name":"Herzberg am Harz, Stadt","type":"Stadt"},"district":{"key":"03159","name":"Göttingen","type":"Landkreis"},"federalState":{"key":"03","name":"Niedersachsen"}},{"name":"Zum Brockenblick","postalCode":"37431","locality":"Bad Lauterberg im Harz","municipality":{"key":"03159003","name":"Bad Lauterberg im Harz, Stadt","type":"Stadt"},"district":{"key":"03159","name":"Göttingen","type":"Landkreis"},"federalState":{"key":"03","name":"Niedersachsen"}},{"name":"Zum Faulborn","postalCode":"37412","locality":"Herzberg am Harz","municipality":{"key":"03159019","name":"Herzberg am Harz, Stadt","type":"Stadt"},"district":{"key":"03159","name":"Göttingen","type":"Landkreis"},"federalState":{"key":"03","name":"Niedersachsen"}},{"name":"Zum Gesselbusch","postalCode":"37431","locality":"Bad Lauterberg im Harz","municipality":{"key":"03159003","name":"Bad Lauterberg im Harz, Stadt","type":"Stadt"},"district":{"key":"03159","name":"Göttingen","type":"Landkreis"},"federalState":{"key":"03","name":"Niedersachsen"}},{"name":"Zum Haseltal","postalCode":"06536","locality":"Südharz","municipality":{"key":"15087412","name":"Südharz","type":"Kreisangehörige_Gemeinde"},"district":{"key":"15087","name":"Mansfeld-Südharz","type":"Landkreis"},"federalState":{"key":"15","name":"Sachsen-Anhalt"}},{"name":"Zum Heudepot","postalCode":"99897","locality":"Tambach-Dietharz","municipality":{"key":"16067065","name":"Tambach-Dietharz/Thür. Wald, Stadt","type":"Stadt"},"district":{"key":"16067","name":"Gotha","type":"Landkreis"},"federalState":{"key":"16","name":"Thüringen"}},{"name":"Zum Katzenstein","postalCode":"37412","locality":"Herzberg am Harz","municipality":{"key":"03159019","name":"Herzberg am Harz, Stadt","type":"Stadt"},"district":{"key":"03159","name":"Göttingen","type":"Landkreis"},"federalState":{"key":"03","name":"Niedersachsen"}},{"name":"Zum Krücker","postalCode":"37197","locality":"Hattorf am Harz","municipality":{"key":"03159018","name":"Hattorf am Harz","type":"Kreisangehörige_Gemeinde"},"district":{"key":"03159","name":"Göttingen","type":"Landkreis"},"federalState":{"key":"03","name":"Niedersachsen"}},{"name":"Zum Lichtenstein","postalCode":"37520","locality":"Osterode am Harz","municipality":{"key":"03159026","name":"Osterode am Harz, Stadt","type":"Stadt"},"district":{"key":"03159","name":"Göttingen","type":"Landkreis"},"federalState":{"key":"03","name":"Niedersachsen"}},{"name":"Zum Liethberg","postalCode":"37431","locality":"Bad Lauterberg im Harz","municipality":{"key":"03159003","name":"Bad Lauterberg im Harz, Stadt","type":"Stadt"},"district":{"key":"03159","name":"Göttingen","type":"Landkreis"},"federalState":{"key":"03","name":"Niedersachsen"}},{"name":"Zum Mühlweg","postalCode":"06536","locality":"Südharz","municipality":{"key":"15087412","name":"Südharz","type":"Kreisangehörige_Gemeinde"},"district":{"key":"15087","name":"Mansfeld-Südharz","type":"Landkreis"},"federalState":{"key":"15","name":"Sachsen-Anhalt"}},{"name":"Zum Reuterbusch","postalCode":"38667","locality":"Bad Harzburg","municipality":{"key":"03153002","name":"Bad Harzburg, Stadt","type":"Stadt"},"district":{"key":"03153","name":"Goslar","type":"Landkreis"},"federalState":{"key":"03","name":"Niedersachsen"}},{"name":"Zum Rödchen","postalCode":"06536","locality":"Südharz","municipality":{"key":"15087412","name":"Südharz","type":"Kreisangehörige_Gemeinde"},"district":{"key":"15087","name":"Mansfeld-Südharz","type":"Landkreis"},"federalState":{"key":"15","name":"Sachsen-Anhalt"}},{"name":"Zum Sandplatz","postalCode":"99768","locality":"Harztor","municipality":{"key":"16062065","name":"Harztor","type":"Kreisangehörige_Gemeinde"},"district":{"key":"16062","name":"Nordhausen","type":"Landkreis"},"federalState":{"key":"16","name":"Thüringen"}},{"name":"Zum Schultengrund","postalCode":"37197","locality":"Hattorf am Harz","municipality":{"key":"03159018","name":"Hattorf am Harz","type":"Kreisangehörige_Gemeinde"},"district":{"key":"03159","name":"Göttingen","type":"Landkreis"},"federalState":{"key":"03","name":"Niedersachsen"}},{"name":"Zum Seeberg","postalCode":"06536","locality":"Südharz","municipality":{"key":"15087412","name":"Südharz","type":"Kreisangehörige_Gemeinde"},"district":{"key":"15087","name":"Mansfeld-Südharz","type":"Landkreis"},"federalState":{"key":"15","name":"Sachsen-Anhalt"}},{"name":"Zum Sportplatz","postalCode":"37197","locality":"Hattorf am Harz","municipality":{"key":"03159018","name":"Hattorf am Harz","type":"Kreisangehörige_Gemeinde"},"district":{"key":"03159","name":"Göttingen","type":"Landkreis"},"federalState":{"key":"03","name":"Niedersachsen"}},{"name":"Zum Sportplatz","postalCode":"37520","locality":"Osterode am Harz","municipality":{"key":"03159026","name":"Osterode am Harz, Stadt","type":"Stadt"},"district":{"key":"03159","name":"Göttingen","type":"Landkreis"},"federalState":{"key":"03","name":"Niedersachsen"}},{"name":"Zum Sportzentrum","postalCode":"06536","locality":"Südharz","municipality":{"key":"15087412","name":"Südharz","type":"Kreisangehörige_Gemeinde"},"district":{"key":"15087","name":"Mansfeld-Südharz","type":"Landkreis"},"federalState":{"key":"15","name":"Sachsen-Anhalt"}},{"name":"Zum Umsetzer","postalCode":"37520","locality":"Harz (Landkreis Göttingen)","municipality":{"key":"03159501","name":"Harz (Landkreis Göttingen), gemfr. Geb.","type":"Gemeindefreies_Gebiet_Unbewohnt"},"district":{"key":"03159","name":"Göttingen","type":"Landkreis"},"federalState":{"key":"03","name":"Niedersachsen"}},{"name":"Zur Festwiese","postalCode":"06536","locality":"Südharz","municipality":{"key":"15087412","name":"Südharz","type":"Kreisangehörige_Gemeinde"},"district":{"key":"15087","name":"Mansfeld-Südharz","type":"Landkreis"},"federalState":{"key":"15","name":"Sachsen-Anhalt"}},{"name":"Zwergenpfad","postalCode":"38899","locality":"Oberharz am Brocken","municipality":{"key":"15085228","name":"Oberharz am Brocken, Stadt","type":"Stadt"},"district":{"key":"15085","name":"Harz","type":"Landkreis"},"federalState":{"key":"15","name":"Sachsen-Anhalt"}},{"name":"Zwingerstr.","postalCode":"37412","locality":"Herzberg am Harz","municipality":{"key":"03159019","name":"Herzberg am Harz, Stadt","type":"Stadt"},"district":{"key":"03159","name":"Göttingen","type":"Landkreis"},"federalState":{"key":"03","name":"Niedersachsen"}},{"name":"Zwischen den Brücken","postalCode":"37520","locality":"Osterode am Harz","municipality":{"key":"03159026","name":"Osterode am Harz, Stadt","type":"Stadt"},"district":{"key":"03159","name":"Göttingen","type":"Landkreis"},"federalState":{"key":"03","name":"Niedersachsen"}},{"name":"Zwischen den Zäunen","postalCode":"37520","locality":"Osterode am Harz","municipality":{"key":"03159026","name":"Osterode am Harz, Stadt","type":"Stadt"},"district":{"key":"03159","name":"Göttingen","type":"Landkreis"},"federalState":{"key":"03","name":"Niedersachsen"}},{"name":"Öhrentalsweg","postalCode":"38667","locality":"Harz (LK Goslar)","municipality":{"key":"03153504","name":"Harz (Landkreis Goslar), gemfr. Gebiet","type":"Gemeindefreies_Gebiet_Unbewohnt"},"district":{"key":"03153","name":"Goslar","type":"Landkreis"},"federalState":{"key":"03","name":"Niedersachsen"}},{"name":"Ölmühle","postalCode":"06536","locality":"Südharz","municipality":{"key":"15087412","name":"Südharz","type":"Kreisangehörige_Gemeinde"},"district":{"key":"15087","name":"Mansfeld-Südharz","type":"Landkreis"},"federalState":{"key":"15","name":"Sachsen-Anhalt"}},{"name":"Ölmühle","postalCode":"37199","locality":"Wulften am Harz","municipality":{"key":"03159039","name":"Wulften am Harz","type":"Kreisangehörige_Gemeinde"},"district":{"key":"03159","name":"Göttingen","type":"Landkreis"},"federalState":{"key":"03","name":"Niedersachsen"}},{"name":"Ölmühlengasse","postalCode":"37520","locality":"Osterode am Harz","municipality":{"key":"03159026","name":"Osterode am Harz, Stadt","type":"Stadt"},"district":{"key":"03159","name":"Göttingen","type":"Landkreis"},"federalState":{"key":"03","name":"Niedersachsen"}},{"name":"Ölmühlenweg","postalCode":"06493","locality":"Harzgerode","municipality":{"key":"15085145","name":"Harzgerode, Stadt","type":"Stadt"},"district":{"key":"15085","name":"Harz","type":"Landkreis"},"federalState":{"key":"15","name":"Sachsen-Anhalt"}},{"name":"Übelsbergweg","postalCode":"37431","locality":"Harz (Landkreis Göttingen)","municipality":{"key":"03159501","name":"Harz (Landkreis Göttingen), gemfr. Geb.","type":"Gemeindefreies_Gebiet_Unbewohnt"},"district":{"key":"03159","name":"Göttingen","type":"Landkreis"},"federalState":{"key":"03","name":"Niedersachsen"}},{"name":"Über der Flut","postalCode":"37431","locality":"Bad Lauterberg im Harz","municipality":{"key":"03159003","name":"Bad Lauterberg im Harz, Stadt","type":"Stadt"},"district":{"key":"03159","name":"Göttingen","type":"Landkreis"},"federalState":{"key":"03","name":"Niedersachsen"}},{"name":"Über der Kälberbucht","postalCode":"37431","locality":"Bad Lauterberg im Harz","municipality":{"key":"03159003","name":"Bad Lauterberg im Harz, Stadt","type":"Stadt"},"district":{"key":"03159","name":"Göttingen","type":"Landkreis"},"federalState":{"key":"03","name":"Niedersachsen"}},{"name":"Ührde","postalCode":"37520","locality":"Osterode am Harz","municipality":{"key":"03159026","name":"Osterode am Harz, Stadt","type":"Stadt"},"district":{"key":"03159","name":"Göttingen","type":"Landkreis"},"federalState":{"key":"03","name":"Niedersachsen"}},{"name":"Ührder Str.","postalCode":"37520","locality":"Osterode am Harz","municipality":{"key":"03159026","name":"Osterode am Harz, Stadt","type":"Stadt"},"district":{"key":"03159","name":"Göttingen","type":"Landkreis"},"federalState":{"key":"03","name":"Niedersachsen"}},]