[{"name":"Achterdamm","postalCode":"28879","locality":"Grasberg","municipality":{"key":"03356002","name":"Grasberg","type":"Kreisangehörige_Gemeinde"},"district":{"key":"03356","name":"Osterholz","type":"Landkreis"},"federalState":{"key":"03","name":"Niedersachsen"}},{"name":"Adolphsdorfer Str.","postalCode":"28879","locality":"Grasberg","municipality":{"key":"03356002","name":"Grasberg","type":"Kreisangehörige_Gemeinde"},"district":{"key":"03356","name":"Osterholz","type":"Landkreis"},"federalState":{"key":"03","name":"Niedersachsen"}},{"name":"Am Berg","postalCode":"28879","locality":"Grasberg","municipality":{"key":"03356002","name":"Grasberg","type":"Kreisangehörige_Gemeinde"},"district":{"key":"03356","name":"Osterholz","type":"Landkreis"},"federalState":{"key":"03","name":"Niedersachsen"}},{"name":"Am Findorffhof","postalCode":"28879","locality":"Grasberg","municipality":{"key":"03356002","name":"Grasberg","type":"Kreisangehörige_Gemeinde"},"district":{"key":"03356","name":"Osterholz","type":"Landkreis"},"federalState":{"key":"03","name":"Niedersachsen"}},{"name":"Am Krummen Arm","postalCode":"28879","locality":"Grasberg","municipality":{"key":"03356002","name":"Grasberg","type":"Kreisangehörige_Gemeinde"},"district":{"key":"03356","name":"Osterholz","type":"Landkreis"},"federalState":{"key":"03","name":"Niedersachsen"}},{"name":"Am Langenmoor","postalCode":"28879","locality":"Grasberg","municipality":{"key":"03356002","name":"Grasberg","type":"Kreisangehörige_Gemeinde"},"district":{"key":"03356","name":"Osterholz","type":"Landkreis"},"federalState":{"key":"03","name":"Niedersachsen"}},{"name":"Am Schiffgraben","postalCode":"28879","locality":"Grasberg","municipality":{"key":"03356002","name":"Grasberg","type":"Kreisangehörige_Gemeinde"},"district":{"key":"03356","name":"Osterholz","type":"Landkreis"},"federalState":{"key":"03","name":"Niedersachsen"}},{"name":"Am Ützenbarg","postalCode":"28879","locality":"Grasberg","municipality":{"key":"03356002","name":"Grasberg","type":"Kreisangehörige_Gemeinde"},"district":{"key":"03356","name":"Osterholz","type":"Landkreis"},"federalState":{"key":"03","name":"Niedersachsen"}},{"name":"An der Mühle","postalCode":"28879","locality":"Grasberg","municipality":{"key":"03356002","name":"Grasberg","type":"Kreisangehörige_Gemeinde"},"district":{"key":"03356","name":"Osterholz","type":"Landkreis"},"federalState":{"key":"03","name":"Niedersachsen"}},{"name":"Arp-Schnitger-Str.","postalCode":"28879","locality":"Grasberg","municipality":{"key":"03356002","name":"Grasberg","type":"Kreisangehörige_Gemeinde"},"district":{"key":"03356","name":"Osterholz","type":"Landkreis"},"federalState":{"key":"03","name":"Niedersachsen"}},{"name":"Beim Sportplatz","postalCode":"28879","locality":"Grasberg","municipality":{"key":"03356002","name":"Grasberg","type":"Kreisangehörige_Gemeinde"},"district":{"key":"03356","name":"Osterholz","type":"Landkreis"},"federalState":{"key":"03","name":"Niedersachsen"}},{"name":"Birkenstr.","postalCode":"28879","locality":"Grasberg","municipality":{"key":"03356002","name":"Grasberg","type":"Kreisangehörige_Gemeinde"},"district":{"key":"03356","name":"Osterholz","type":"Landkreis"},"federalState":{"key":"03","name":"Niedersachsen"}},{"name":"Bremersdamm","postalCode":"28879","locality":"Grasberg","municipality":{"key":"03356002","name":"Grasberg","type":"Kreisangehörige_Gemeinde"},"district":{"key":"03356","name":"Osterholz","type":"Landkreis"},"federalState":{"key":"03","name":"Niedersachsen"}},{"name":"Breslauer Str.","postalCode":"28879","locality":"Grasberg","municipality":{"key":"03356002","name":"Grasberg","type":"Kreisangehörige_Gemeinde"},"district":{"key":"03356","name":"Osterholz","type":"Landkreis"},"federalState":{"key":"03","name":"Niedersachsen"}},{"name":"Carl-Schurz-Str.","postalCode":"27711","locality":"Osterholz-Scharmbeck","municipality":{"key":"03356007","name":"Osterholz-Scharmbeck, Stadt","type":"Stadt"},"district":{"key":"03356","name":"Osterholz","type":"Landkreis"},"federalState":{"key":"03","name":"Niedersachsen"}},{"name":"Carl-Vinnen-Str.","postalCode":"27711","locality":"Osterholz-Scharmbeck","municipality":{"key":"03356007","name":"Osterholz-Scharmbeck, Stadt","type":"Stadt"},"district":{"key":"03356","name":"Osterholz","type":"Landkreis"},"federalState":{"key":"03","name":"Niedersachsen"}},{"name":"Clara-Westhoff-Str.","postalCode":"27711","locality":"Osterholz-Scharmbeck","municipality":{"key":"03356007","name":"Osterholz-Scharmbeck, Stadt","type":"Stadt"},"district":{"key":"03356","name":"Osterholz","type":"Landkreis"},"federalState":{"key":"03","name":"Niedersachsen"}},{"name":"Dannenberger Str.","postalCode":"28879","locality":"Grasberg","municipality":{"key":"03356002","name":"Grasberg","type":"Kreisangehörige_Gemeinde"},"district":{"key":"03356","name":"Osterholz","type":"Landkreis"},"federalState":{"key":"03","name":"Niedersachsen"}},{"name":"Deepen Wisch","postalCode":"28879","locality":"Grasberg","municipality":{"key":"03356002","name":"Grasberg","type":"Kreisangehörige_Gemeinde"},"district":{"key":"03356","name":"Osterholz","type":"Landkreis"},"federalState":{"key":"03","name":"Niedersachsen"}},{"name":"Eichenstr.","postalCode":"28879","locality":"Grasberg","municipality":{"key":"03356002","name":"Grasberg","type":"Kreisangehörige_Gemeinde"},"district":{"key":"03356","name":"Osterholz","type":"Landkreis"},"federalState":{"key":"03","name":"Niedersachsen"}},{"name":"Eickedorfer Vorweiden","postalCode":"28879","locality":"Grasberg","municipality":{"key":"03356002","name":"Grasberg","type":"Kreisangehörige_Gemeinde"},"district":{"key":"03356","name":"Osterholz","type":"Landkreis"},"federalState":{"key":"03","name":"Niedersachsen"}},{"name":"Feldstr.","postalCode":"28879","locality":"Grasberg","municipality":{"key":"03356002","name":"Grasberg","type":"Kreisangehörige_Gemeinde"},"district":{"key":"03356","name":"Osterholz","type":"Landkreis"},"federalState":{"key":"03","name":"Niedersachsen"}},{"name":"Gartenstr.","postalCode":"28879","locality":"Grasberg","municipality":{"key":"03356002","name":"Grasberg","type":"Kreisangehörige_Gemeinde"},"district":{"key":"03356","name":"Osterholz","type":"Landkreis"},"federalState":{"key":"03","name":"Niedersachsen"}},{"name":"Gefkensweg","postalCode":"28879","locality":"Grasberg","municipality":{"key":"03356002","name":"Grasberg","type":"Kreisangehörige_Gemeinde"},"district":{"key":"03356","name":"Osterholz","type":"Landkreis"},"federalState":{"key":"03","name":"Niedersachsen"}},{"name":"Grasdorfer Nebenweg","postalCode":"28879","locality":"Grasberg","municipality":{"key":"03356002","name":"Grasberg","type":"Kreisangehörige_Gemeinde"},"district":{"key":"03356","name":"Osterholz","type":"Landkreis"},"federalState":{"key":"03","name":"Niedersachsen"}},{"name":"Hausstelle","postalCode":"28879","locality":"Grasberg","municipality":{"key":"03356002","name":"Grasberg","type":"Kreisangehörige_Gemeinde"},"district":{"key":"03356","name":"Osterholz","type":"Landkreis"},"federalState":{"key":"03","name":"Niedersachsen"}},{"name":"Heckenweg","postalCode":"28879","locality":"Grasberg","municipality":{"key":"03356002","name":"Grasberg","type":"Kreisangehörige_Gemeinde"},"district":{"key":"03356","name":"Osterholz","type":"Landkreis"},"federalState":{"key":"03","name":"Niedersachsen"}},{"name":"Heudamm","postalCode":"28879","locality":"Grasberg","municipality":{"key":"03356002","name":"Grasberg","type":"Kreisangehörige_Gemeinde"},"district":{"key":"03356","name":"Osterholz","type":"Landkreis"},"federalState":{"key":"03","name":"Niedersachsen"}},{"name":"Holschenstr.","postalCode":"28879","locality":"Grasberg","municipality":{"key":"03356002","name":"Grasberg","type":"Kreisangehörige_Gemeinde"},"district":{"key":"03356","name":"Osterholz","type":"Landkreis"},"federalState":{"key":"03","name":"Niedersachsen"}},{"name":"Holzdamm","postalCode":"28879","locality":"Grasberg","municipality":{"key":"03356002","name":"Grasberg","type":"Kreisangehörige_Gemeinde"},"district":{"key":"03356","name":"Osterholz","type":"Landkreis"},"federalState":{"key":"03","name":"Niedersachsen"}},{"name":"Huxfelder See","postalCode":"28879","locality":"Grasberg","municipality":{"key":"03356002","name":"Grasberg","type":"Kreisangehörige_Gemeinde"},"district":{"key":"03356","name":"Osterholz","type":"Landkreis"},"federalState":{"key":"03","name":"Niedersachsen"}},{"name":"Huxfelder Str.","postalCode":"28879","locality":"Grasberg","municipality":{"key":"03356002","name":"Grasberg","type":"Kreisangehörige_Gemeinde"},"district":{"key":"03356","name":"Osterholz","type":"Landkreis"},"federalState":{"key":"03","name":"Niedersachsen"}},{"name":"Im Grünen Winkel","postalCode":"28879","locality":"Grasberg","municipality":{"key":"03356002","name":"Grasberg","type":"Kreisangehörige_Gemeinde"},"district":{"key":"03356","name":"Osterholz","type":"Landkreis"},"federalState":{"key":"03","name":"Niedersachsen"}},{"name":"Im Wiesengrund","postalCode":"28879","locality":"Grasberg","municipality":{"key":"03356002","name":"Grasberg","type":"Kreisangehörige_Gemeinde"},"district":{"key":"03356","name":"Osterholz","type":"Landkreis"},"federalState":{"key":"03","name":"Niedersachsen"}},{"name":"Jan-Reiners-Str.","postalCode":"28879","locality":"Grasberg","municipality":{"key":"03356002","name":"Grasberg","type":"Kreisangehörige_Gemeinde"},"district":{"key":"03356","name":"Osterholz","type":"Landkreis"},"federalState":{"key":"03","name":"Niedersachsen"}},{"name":"Karl-Lilienthal-Str.","postalCode":"28879","locality":"Grasberg","municipality":{"key":"03356002","name":"Grasberg","type":"Kreisangehörige_Gemeinde"},"district":{"key":"03356","name":"Osterholz","type":"Landkreis"},"federalState":{"key":"03","name":"Niedersachsen"}},{"name":"Kirchdamm","postalCode":"28879","locality":"Grasberg","municipality":{"key":"03356002","name":"Grasberg","type":"Kreisangehörige_Gemeinde"},"district":{"key":"03356","name":"Osterholz","type":"Landkreis"},"federalState":{"key":"03","name":"Niedersachsen"}},{"name":"Königsberger Str.","postalCode":"28879","locality":"Grasberg","municipality":{"key":"03356002","name":"Grasberg","type":"Kreisangehörige_Gemeinde"},"district":{"key":"03356","name":"Osterholz","type":"Landkreis"},"federalState":{"key":"03","name":"Niedersachsen"}},{"name":"Lindenstr.","postalCode":"28879","locality":"Grasberg","municipality":{"key":"03356002","name":"Grasberg","type":"Kreisangehörige_Gemeinde"},"district":{"key":"03356","name":"Osterholz","type":"Landkreis"},"federalState":{"key":"03","name":"Niedersachsen"}},{"name":"Meinershauser Str.","postalCode":"28879","locality":"Grasberg","municipality":{"key":"03356002","name":"Grasberg","type":"Kreisangehörige_Gemeinde"},"district":{"key":"03356","name":"Osterholz","type":"Landkreis"},"federalState":{"key":"03","name":"Niedersachsen"}},{"name":"Mittelsmoorer Str.","postalCode":"28879","locality":"Grasberg","municipality":{"key":"03356002","name":"Grasberg","type":"Kreisangehörige_Gemeinde"},"district":{"key":"03356","name":"Osterholz","type":"Landkreis"},"federalState":{"key":"03","name":"Niedersachsen"}},{"name":"Mühlenstr.","postalCode":"28879","locality":"Grasberg","municipality":{"key":"03356002","name":"Grasberg","type":"Kreisangehörige_Gemeinde"},"district":{"key":"03356","name":"Osterholz","type":"Landkreis"},"federalState":{"key":"03","name":"Niedersachsen"}},{"name":"Neu-Dannenberger Str.","postalCode":"28879","locality":"Grasberg","municipality":{"key":"03356002","name":"Grasberg","type":"Kreisangehörige_Gemeinde"},"district":{"key":"03356","name":"Osterholz","type":"Landkreis"},"federalState":{"key":"03","name":"Niedersachsen"}},{"name":"Neue Str.","postalCode":"28879","locality":"Grasberg","municipality":{"key":"03356002","name":"Grasberg","type":"Kreisangehörige_Gemeinde"},"district":{"key":"03356","name":"Osterholz","type":"Landkreis"},"federalState":{"key":"03","name":"Niedersachsen"}},{"name":"Ottersteiner Vorweide","postalCode":"28879","locality":"Grasberg","municipality":{"key":"03356002","name":"Grasberg","type":"Kreisangehörige_Gemeinde"},"district":{"key":"03356","name":"Osterholz","type":"Landkreis"},"federalState":{"key":"03","name":"Niedersachsen"}},{"name":"Pastorenwäldchen","postalCode":"28879","locality":"Grasberg","municipality":{"key":"03356002","name":"Grasberg","type":"Kreisangehörige_Gemeinde"},"district":{"key":"03356","name":"Osterholz","type":"Landkreis"},"federalState":{"key":"03","name":"Niedersachsen"}},{"name":"Querstr.","postalCode":"27711","locality":"Osterholz-Scharmbeck","municipality":{"key":"03356007","name":"Osterholz-Scharmbeck, Stadt","type":"Stadt"},"district":{"key":"03356","name":"Osterholz","type":"Landkreis"},"federalState":{"key":"03","name":"Niedersachsen"}},{"name":"Rautendorfer Damm","postalCode":"28879","locality":"Grasberg","municipality":{"key":"03356002","name":"Grasberg","type":"Kreisangehörige_Gemeinde"},"district":{"key":"03356","name":"Osterholz","type":"Landkreis"},"federalState":{"key":"03","name":"Niedersachsen"}},{"name":"Rautendorfer Landstr.","postalCode":"28879","locality":"Grasberg","municipality":{"key":"03356002","name":"Grasberg","type":"Kreisangehörige_Gemeinde"},"district":{"key":"03356","name":"Osterholz","type":"Landkreis"},"federalState":{"key":"03","name":"Niedersachsen"}},{"name":"Rautendorfer Str.","postalCode":"28879","locality":"Grasberg","municipality":{"key":"03356002","name":"Grasberg","type":"Kreisangehörige_Gemeinde"},"district":{"key":"03356","name":"Osterholz","type":"Landkreis"},"federalState":{"key":"03","name":"Niedersachsen"}},{"name":"Rotdornweg","postalCode":"28879","locality":"Grasberg","municipality":{"key":"03356002","name":"Grasberg","type":"Kreisangehörige_Gemeinde"},"district":{"key":"03356","name":"Osterholz","type":"Landkreis"},"federalState":{"key":"03","name":"Niedersachsen"}},{"name":"Rutenbarg","postalCode":"28879","locality":"Grasberg","municipality":{"key":"03356002","name":"Grasberg","type":"Kreisangehörige_Gemeinde"},"district":{"key":"03356","name":"Osterholz","type":"Landkreis"},"federalState":{"key":"03","name":"Niedersachsen"}},{"name":"Saatmoorgraben","postalCode":"28879","locality":"Grasberg","municipality":{"key":"03356002","name":"Grasberg","type":"Kreisangehörige_Gemeinde"},"district":{"key":"03356","name":"Osterholz","type":"Landkreis"},"federalState":{"key":"03","name":"Niedersachsen"}},{"name":"Schmiedestr.","postalCode":"28879","locality":"Grasberg","municipality":{"key":"03356002","name":"Grasberg","type":"Kreisangehörige_Gemeinde"},"district":{"key":"03356","name":"Osterholz","type":"Landkreis"},"federalState":{"key":"03","name":"Niedersachsen"}},{"name":"Schnakenbergstr.","postalCode":"28879","locality":"Grasberg","municipality":{"key":"03356002","name":"Grasberg","type":"Kreisangehörige_Gemeinde"},"district":{"key":"03356","name":"Osterholz","type":"Landkreis"},"federalState":{"key":"03","name":"Niedersachsen"}},{"name":"Schuldamm","postalCode":"28879","locality":"Grasberg","municipality":{"key":"03356002","name":"Grasberg","type":"Kreisangehörige_Gemeinde"},"district":{"key":"03356","name":"Osterholz","type":"Landkreis"},"federalState":{"key":"03","name":"Niedersachsen"}},{"name":"Schulweg","postalCode":"28879","locality":"Grasberg","municipality":{"key":"03356002","name":"Grasberg","type":"Kreisangehörige_Gemeinde"},"district":{"key":"03356","name":"Osterholz","type":"Landkreis"},"federalState":{"key":"03","name":"Niedersachsen"}},{"name":"Seehauser Str.","postalCode":"28879","locality":"Grasberg","municipality":{"key":"03356002","name":"Grasberg","type":"Kreisangehörige_Gemeinde"},"district":{"key":"03356","name":"Osterholz","type":"Landkreis"},"federalState":{"key":"03","name":"Niedersachsen"}},{"name":"Seggendamm","postalCode":"28879","locality":"Grasberg","municipality":{"key":"03356002","name":"Grasberg","type":"Kreisangehörige_Gemeinde"},"district":{"key":"03356","name":"Osterholz","type":"Landkreis"},"federalState":{"key":"03","name":"Niedersachsen"}},{"name":"Speckmannstr.","postalCode":"28879","locality":"Grasberg","municipality":{"key":"03356002","name":"Grasberg","type":"Kreisangehörige_Gemeinde"},"district":{"key":"03356","name":"Osterholz","type":"Landkreis"},"federalState":{"key":"03","name":"Niedersachsen"}},{"name":"Tüschendorfer Damm","postalCode":"28879","locality":"Grasberg","municipality":{"key":"03356002","name":"Grasberg","type":"Kreisangehörige_Gemeinde"},"district":{"key":"03356","name":"Osterholz","type":"Landkreis"},"federalState":{"key":"03","name":"Niedersachsen"}},{"name":"Tüschendorfer Str.","postalCode":"28879","locality":"Grasberg","municipality":{"key":"03356002","name":"Grasberg","type":"Kreisangehörige_Gemeinde"},"district":{"key":"03356","name":"Osterholz","type":"Landkreis"},"federalState":{"key":"03","name":"Niedersachsen"}},{"name":"Umbeckweg","postalCode":"27711","locality":"Osterholz-Scharmbeck","municipality":{"key":"03356007","name":"Osterholz-Scharmbeck, Stadt","type":"Stadt"},"district":{"key":"03356","name":"Osterholz","type":"Landkreis"},"federalState":{"key":"03","name":"Niedersachsen"}},{"name":"Umgehungsstr.","postalCode":"27711","locality":"Osterholz-Scharmbeck","municipality":{"key":"03356007","name":"Osterholz-Scharmbeck, Stadt","type":"Stadt"},"district":{"key":"03356","name":"Osterholz","type":"Landkreis"},"federalState":{"key":"03","name":"Niedersachsen"}},{"name":"Unter den Linden","postalCode":"27711","locality":"Osterholz-Scharmbeck","municipality":{"key":"03356007","name":"Osterholz-Scharmbeck, Stadt","type":"Stadt"},"district":{"key":"03356","name":"Osterholz","type":"Landkreis"},"federalState":{"key":"03","name":"Niedersachsen"}},{"name":"Verbindugsweg Teufelsmoor - Verlüßmoor","postalCode":"27711","locality":"Osterholz-Scharmbeck","municipality":{"key":"03356007","name":"Osterholz-Scharmbeck, Stadt","type":"Stadt"},"district":{"key":"03356","name":"Osterholz","type":"Landkreis"},"federalState":{"key":"03","name":"Niedersachsen"}},{"name":"Verbindungsweg Teufelsmoor - Verlüßmoor","postalCode":"27711","locality":"Osterholz-Scharmbeck","municipality":{"key":"03356007","name":"Osterholz-Scharmbeck, Stadt","type":"Stadt"},"district":{"key":"03356","name":"Osterholz","type":"Landkreis"},"federalState":{"key":"03","name":"Niedersachsen"}},{"name":"Vor dem Raden","postalCode":"27711","locality":"Osterholz-Scharmbeck","municipality":{"key":"03356007","name":"Osterholz-Scharmbeck, Stadt","type":"Stadt"},"district":{"key":"03356","name":"Osterholz","type":"Landkreis"},"federalState":{"key":"03","name":"Niedersachsen"}},{"name":"Vor dem Reithbruch","postalCode":"27711","locality":"Osterholz-Scharmbeck","municipality":{"key":"03356007","name":"Osterholz-Scharmbeck, Stadt","type":"Stadt"},"district":{"key":"03356","name":"Osterholz","type":"Landkreis"},"federalState":{"key":"03","name":"Niedersachsen"}},{"name":"Vor dem Sandbeck","postalCode":"27711","locality":"Osterholz-Scharmbeck","municipality":{"key":"03356007","name":"Osterholz-Scharmbeck, Stadt","type":"Stadt"},"district":{"key":"03356","name":"Osterholz","type":"Landkreis"},"federalState":{"key":"03","name":"Niedersachsen"}},{"name":"Vorwerk","postalCode":"27711","locality":"Osterholz-Scharmbeck","municipality":{"key":"03356007","name":"Osterholz-Scharmbeck, Stadt","type":"Stadt"},"district":{"key":"03356","name":"Osterholz","type":"Landkreis"},"federalState":{"key":"03","name":"Niedersachsen"}},{"name":"Weidedamm","postalCode":"28879","locality":"Grasberg","municipality":{"key":"03356002","name":"Grasberg","type":"Kreisangehörige_Gemeinde"},"district":{"key":"03356","name":"Osterholz","type":"Landkreis"},"federalState":{"key":"03","name":"Niedersachsen"}},{"name":"Weinkaufsmoorer Str.","postalCode":"28879","locality":"Grasberg","municipality":{"key":"03356002","name":"Grasberg","type":"Kreisangehörige_Gemeinde"},"district":{"key":"03356","name":"Osterholz","type":"Landkreis"},"federalState":{"key":"03","name":"Niedersachsen"}},{"name":"Wiesendamm","postalCode":"28879","locality":"Grasberg","municipality":{"key":"03356002","name":"Grasberg","type":"Kreisangehörige_Gemeinde"},"district":{"key":"03356","name":"Osterholz","type":"Landkreis"},"federalState":{"key":"03","name":"Niedersachsen"}},{"name":"Wilstedtermoorer Schiffgraben","postalCode":"28879","locality":"Grasberg","municipality":{"key":"03356002","name":"Grasberg","type":"Kreisangehörige_Gemeinde"},"district":{"key":"03356","name":"Osterholz","type":"Landkreis"},"federalState":{"key":"03","name":"Niedersachsen"}},{"name":"Wörpedorfer Ring","postalCode":"28879","locality":"Grasberg","municipality":{"key":"03356002","name":"Grasberg","type":"Kreisangehörige_Gemeinde"},"district":{"key":"03356","name":"Osterholz","type":"Landkreis"},"federalState":{"key":"03","name":"Niedersachsen"}},{"name":"Wörpedorfer Str.","postalCode":"28879","locality":"Grasberg","municipality":{"key":"03356002","name":"Grasberg","type":"Kreisangehörige_Gemeinde"},"district":{"key":"03356","name":"Osterholz","type":"Landkreis"},"federalState":{"key":"03","name":"Niedersachsen"}},{"name":"Wörpe Park","postalCode":"28879","locality":"Grasberg","municipality":{"key":"03356002","name":"Grasberg","type":"Kreisangehörige_Gemeinde"},"district":{"key":"03356","name":"Osterholz","type":"Landkreis"},"federalState":{"key":"03","name":"Niedersachsen"}},{"name":"Zu den Stauwiesen","postalCode":"28879","locality":"Grasberg","municipality":{"key":"03356002","name":"Grasberg","type":"Kreisangehörige_Gemeinde"},"district":{"key":"03356","name":"Osterholz","type":"Landkreis"},"federalState":{"key":"03","name":"Niedersachsen"}},]