[{"key":"10082504","name":"Allmendhagweg","postalCode":"3225","locality":"Müntschemier","commune":{"key":"498","name":"Müntschemier","shortName":"Müntschemier"},"district":{"key":"243","name":"Verwaltungskreis Seeland"},"canton":{"key":"2","code":"BE","name":"Bern / Berne"},"status":"Real"},{"key":"10009784","name":"Alpenweg","postalCode":"3225","locality":"Müntschemier","commune":{"key":"498","name":"Müntschemier","shortName":"Müntschemier"},"district":{"key":"243","name":"Verwaltungskreis Seeland"},"canton":{"key":"2","code":"BE","name":"Bern / Berne"},"status":"Real"},{"key":"10060394","name":"Bahnhofplatz","postalCode":"3225","locality":"Müntschemier","commune":{"key":"498","name":"Müntschemier","shortName":"Müntschemier"},"district":{"key":"243","name":"Verwaltungskreis Seeland"},"canton":{"key":"2","code":"BE","name":"Bern / Berne"},"status":"Real"},{"key":"10082505","name":"Bahnhofstrasse","postalCode":"3225","locality":"Müntschemier","commune":{"key":"498","name":"Müntschemier","shortName":"Müntschemier"},"district":{"key":"243","name":"Verwaltungskreis Seeland"},"canton":{"key":"2","code":"BE","name":"Bern / Berne"},"status":"Real"},{"key":"10009785","name":"Bergweg","postalCode":"3225","locality":"Müntschemier","commune":{"key":"498","name":"Müntschemier","shortName":"Müntschemier"},"district":{"key":"243","name":"Verwaltungskreis Seeland"},"canton":{"key":"2","code":"BE","name":"Bern / Berne"},"status":"Real"},{"key":"10209177","name":"Beundenweg","postalCode":"3225","locality":"Müntschemier","commune":{"key":"498","name":"Müntschemier","shortName":"Müntschemier"},"district":{"key":"243","name":"Verwaltungskreis Seeland"},"canton":{"key":"2","code":"BE","name":"Bern / Berne"},"status":"Real"},{"key":"10009786","name":"Birkenweg","postalCode":"3225","locality":"Müntschemier","commune":{"key":"498","name":"Müntschemier","shortName":"Müntschemier"},"district":{"key":"243","name":"Verwaltungskreis Seeland"},"canton":{"key":"2","code":"BE","name":"Bern / Berne"},"status":"Real"},{"key":"10066274","name":"Blumenweg","postalCode":"3225","locality":"Müntschemier","commune":{"key":"498","name":"Müntschemier","shortName":"Müntschemier"},"district":{"key":"243","name":"Verwaltungskreis Seeland"},"canton":{"key":"2","code":"BE","name":"Bern / Berne"},"status":"Real"},{"key":"10009787","name":"Bodenrebenweg","postalCode":"3225","locality":"Müntschemier","commune":{"key":"498","name":"Müntschemier","shortName":"Müntschemier"},"district":{"key":"243","name":"Verwaltungskreis Seeland"},"canton":{"key":"2","code":"BE","name":"Bern / Berne"},"status":"Real"},{"key":"10112124","name":"Brückenweg","postalCode":"3225","locality":"Müntschemier","commune":{"key":"498","name":"Müntschemier","shortName":"Müntschemier"},"district":{"key":"243","name":"Verwaltungskreis Seeland"},"canton":{"key":"2","code":"BE","name":"Bern / Berne"},"status":"Real"},{"key":"10082506","name":"Chasseralstrasse","postalCode":"3225","locality":"Müntschemier","commune":{"key":"498","name":"Müntschemier","shortName":"Müntschemier"},"district":{"key":"243","name":"Verwaltungskreis Seeland"},"canton":{"key":"2","code":"BE","name":"Bern / Berne"},"status":"Real"},{"key":"10009788","name":"Dorfplatz","postalCode":"3225","locality":"Müntschemier","commune":{"key":"498","name":"Müntschemier","shortName":"Müntschemier"},"district":{"key":"243","name":"Verwaltungskreis Seeland"},"canton":{"key":"2","code":"BE","name":"Bern / Berne"},"status":"Real"},{"key":"10066275","name":"Dorfstrasse","postalCode":"3225","locality":"Müntschemier","commune":{"key":"498","name":"Müntschemier","shortName":"Müntschemier"},"district":{"key":"243","name":"Verwaltungskreis Seeland"},"canton":{"key":"2","code":"BE","name":"Bern / Berne"},"status":"Real"},{"key":"10146797","name":"Erlenweg","postalCode":"3225","locality":"Müntschemier","commune":{"key":"498","name":"Müntschemier","shortName":"Müntschemier"},"district":{"key":"243","name":"Verwaltungskreis Seeland"},"canton":{"key":"2","code":"BE","name":"Bern / Berne"},"status":"Real"},{"key":"10156944","name":"Fichtenweg","postalCode":"3225","locality":"Müntschemier","commune":{"key":"498","name":"Müntschemier","shortName":"Müntschemier"},"district":{"key":"243","name":"Verwaltungskreis Seeland"},"canton":{"key":"2","code":"BE","name":"Bern / Berne"},"status":"Real"},{"key":"10009789","name":"Fluhackerweg","postalCode":"3225","locality":"Müntschemier","commune":{"key":"498","name":"Müntschemier","shortName":"Müntschemier"},"district":{"key":"243","name":"Verwaltungskreis Seeland"},"canton":{"key":"2","code":"BE","name":"Bern / Berne"},"status":"Real"},{"key":"10135522","name":"Hagacherweg","postalCode":"3225","locality":"Müntschemier","commune":{"key":"498","name":"Müntschemier","shortName":"Müntschemier"},"district":{"key":"243","name":"Verwaltungskreis Seeland"},"canton":{"key":"2","code":"BE","name":"Bern / Berne"},"status":"Real"},{"key":"10177330","name":"Heckenweg","postalCode":"3225","locality":"Müntschemier","commune":{"key":"498","name":"Müntschemier","shortName":"Müntschemier"},"district":{"key":"243","name":"Verwaltungskreis Seeland"},"canton":{"key":"2","code":"BE","name":"Bern / Berne"},"status":"Real"},{"key":"10082507","name":"Hinter der Post","postalCode":"3225","locality":"Müntschemier","commune":{"key":"498","name":"Müntschemier","shortName":"Müntschemier"},"district":{"key":"243","name":"Verwaltungskreis Seeland"},"canton":{"key":"2","code":"BE","name":"Bern / Berne"},"status":"Real"},{"key":"10009790","name":"Hohlenrebenweg","postalCode":"3225","locality":"Müntschemier","commune":{"key":"498","name":"Müntschemier","shortName":"Müntschemier"},"district":{"key":"243","name":"Verwaltungskreis Seeland"},"canton":{"key":"2","code":"BE","name":"Bern / Berne"},"status":"Real"},{"key":"10153419","name":"Industriezone","postalCode":"3225","locality":"Müntschemier","commune":{"key":"498","name":"Müntschemier","shortName":"Müntschemier"},"district":{"key":"243","name":"Verwaltungskreis Seeland"},"canton":{"key":"2","code":"BE","name":"Bern / Berne"},"status":"Real"},{"key":"10066276","name":"Insstrasse","postalCode":"3225","locality":"Müntschemier","commune":{"key":"498","name":"Müntschemier","shortName":"Müntschemier"},"district":{"key":"243","name":"Verwaltungskreis Seeland"},"canton":{"key":"2","code":"BE","name":"Bern / Berne"},"status":"Real"},{"key":"10009791","name":"Juraweg","postalCode":"3225","locality":"Müntschemier","commune":{"key":"498","name":"Müntschemier","shortName":"Müntschemier"},"district":{"key":"243","name":"Verwaltungskreis Seeland"},"canton":{"key":"2","code":"BE","name":"Bern / Berne"},"status":"Real"},{"key":"10009793","name":"Käsereiweg","postalCode":"3225","locality":"Müntschemier","commune":{"key":"498","name":"Müntschemier","shortName":"Müntschemier"},"district":{"key":"243","name":"Verwaltungskreis Seeland"},"canton":{"key":"2","code":"BE","name":"Bern / Berne"},"status":"Real"},{"key":"10009792","name":"Kerzersstrasse","postalCode":"3225","locality":"Müntschemier","commune":{"key":"498","name":"Müntschemier","shortName":"Müntschemier"},"district":{"key":"243","name":"Verwaltungskreis Seeland"},"canton":{"key":"2","code":"BE","name":"Bern / Berne"},"status":"Real"},{"key":"10082508","name":"Kesslergasse","postalCode":"3225","locality":"Müntschemier","commune":{"key":"498","name":"Müntschemier","shortName":"Müntschemier"},"district":{"key":"243","name":"Verwaltungskreis Seeland"},"canton":{"key":"2","code":"BE","name":"Bern / Berne"},"status":"Real"},{"key":"10205519","name":"Lagerhausstrasse","postalCode":"3225","locality":"Müntschemier","commune":{"key":"498","name":"Müntschemier","shortName":"Müntschemier"},"district":{"key":"243","name":"Verwaltungskreis Seeland"},"canton":{"key":"2","code":"BE","name":"Bern / Berne"},"status":"Real"},{"key":"10066277","name":"Lindenweg","postalCode":"3225","locality":"Müntschemier","commune":{"key":"498","name":"Müntschemier","shortName":"Müntschemier"},"district":{"key":"243","name":"Verwaltungskreis Seeland"},"canton":{"key":"2","code":"BE","name":"Bern / Berne"},"status":"Real"},{"key":"10009794","name":"Mattenweg","postalCode":"3225","locality":"Müntschemier","commune":{"key":"498","name":"Müntschemier","shortName":"Müntschemier"},"district":{"key":"243","name":"Verwaltungskreis Seeland"},"canton":{"key":"2","code":"BE","name":"Bern / Berne"},"status":"Real"},{"key":"10124930","name":"Moosallmendweg","postalCode":"3225","locality":"Müntschemier","commune":{"key":"498","name":"Müntschemier","shortName":"Müntschemier"},"district":{"key":"243","name":"Verwaltungskreis Seeland"},"canton":{"key":"2","code":"BE","name":"Bern / Berne"},"status":"Real"},{"key":"10082509","name":"Moosgasse","postalCode":"3225","locality":"Müntschemier","commune":{"key":"498","name":"Müntschemier","shortName":"Müntschemier"},"district":{"key":"243","name":"Verwaltungskreis Seeland"},"canton":{"key":"2","code":"BE","name":"Bern / Berne"},"status":"Real"},{"key":"10066278","name":"Neuengasse","postalCode":"3225","locality":"Müntschemier","commune":{"key":"498","name":"Müntschemier","shortName":"Müntschemier"},"district":{"key":"243","name":"Verwaltungskreis Seeland"},"canton":{"key":"2","code":"BE","name":"Bern / Berne"},"status":"Real"},{"key":"10177331","name":"Oberer Bergweg","postalCode":"3225","locality":"Müntschemier","commune":{"key":"498","name":"Müntschemier","shortName":"Müntschemier"},"district":{"key":"243","name":"Verwaltungskreis Seeland"},"canton":{"key":"2","code":"BE","name":"Bern / Berne"},"status":"Real"},{"key":"10122615","name":"Rauenmattenweg","postalCode":"3225","locality":"Müntschemier","commune":{"key":"498","name":"Müntschemier","shortName":"Müntschemier"},"district":{"key":"243","name":"Verwaltungskreis Seeland"},"canton":{"key":"2","code":"BE","name":"Bern / Berne"},"status":"Real"},{"key":"10009795","name":"Rebenrain","postalCode":"3225","locality":"Müntschemier","commune":{"key":"498","name":"Müntschemier","shortName":"Müntschemier"},"district":{"key":"243","name":"Verwaltungskreis Seeland"},"canton":{"key":"2","code":"BE","name":"Bern / Berne"},"status":"Real"},{"key":"10066279","name":"Rebenweg","postalCode":"3225","locality":"Müntschemier","commune":{"key":"498","name":"Müntschemier","shortName":"Müntschemier"},"district":{"key":"243","name":"Verwaltungskreis Seeland"},"canton":{"key":"2","code":"BE","name":"Bern / Berne"},"status":"Real"},{"key":"10009796","name":"Reiterweg","postalCode":"3225","locality":"Müntschemier","commune":{"key":"498","name":"Müntschemier","shortName":"Müntschemier"},"district":{"key":"243","name":"Verwaltungskreis Seeland"},"canton":{"key":"2","code":"BE","name":"Bern / Berne"},"status":"Real"},{"key":"10112125","name":"Rohrmattenweg","postalCode":"3225","locality":"Müntschemier","commune":{"key":"498","name":"Müntschemier","shortName":"Müntschemier"},"district":{"key":"243","name":"Verwaltungskreis Seeland"},"canton":{"key":"2","code":"BE","name":"Bern / Berne"},"status":"Real"},{"key":"10217763","name":"Spitzallmendweg","postalCode":"3225","locality":"Müntschemier","commune":{"key":"498","name":"Müntschemier","shortName":"Müntschemier"},"district":{"key":"243","name":"Verwaltungskreis Seeland"},"canton":{"key":"2","code":"BE","name":"Bern / Berne"},"status":"Real"},{"key":"10217767","name":"Sportplatzweg","postalCode":"3225","locality":"Müntschemier","commune":{"key":"498","name":"Müntschemier","shortName":"Müntschemier"},"district":{"key":"243","name":"Verwaltungskreis Seeland"},"canton":{"key":"2","code":"BE","name":"Bern / Berne"},"status":"Real"},{"key":"10082510","name":"Treitengasse","postalCode":"3225","locality":"Müntschemier","commune":{"key":"498","name":"Müntschemier","shortName":"Müntschemier"},"district":{"key":"243","name":"Verwaltungskreis Seeland"},"canton":{"key":"2","code":"BE","name":"Bern / Berne"},"status":"Real"},{"key":"10217770","name":"Umfahrungsstrasse West","postalCode":"3225","locality":"Müntschemier","commune":{"key":"498","name":"Müntschemier","shortName":"Müntschemier"},"district":{"key":"243","name":"Verwaltungskreis Seeland"},"canton":{"key":"2","code":"BE","name":"Bern / Berne"},"status":"Real"},{"key":"10009797","name":"Untere Bahnhofstrasse","postalCode":"3225","locality":"Müntschemier","commune":{"key":"498","name":"Müntschemier","shortName":"Müntschemier"},"district":{"key":"243","name":"Verwaltungskreis Seeland"},"canton":{"key":"2","code":"BE","name":"Bern / Berne"},"status":"Real"},{"key":"10189821","name":"Wasenweg","postalCode":"3225","locality":"Müntschemier","commune":{"key":"498","name":"Müntschemier","shortName":"Müntschemier"},"district":{"key":"243","name":"Verwaltungskreis Seeland"},"canton":{"key":"2","code":"BE","name":"Bern / Berne"},"status":"Real"},]