[{"name":"Backhausweg","postalCode":"67822","locality":"Winterborn","municipality":{"key":"07333083","name":"Winterborn","type":"Kreisangehörige_Gemeinde"},"district":{"key":"07333","name":"Donnersbergkreis","type":"Landkreis"},"federalState":{"key":"07","name":"Rheinland-Pfalz"}},{"name":"Fahrweg","postalCode":"67822","locality":"Winterborn","municipality":{"key":"07333083","name":"Winterborn","type":"Kreisangehörige_Gemeinde"},"district":{"key":"07333","name":"Donnersbergkreis","type":"Landkreis"},"federalState":{"key":"07","name":"Rheinland-Pfalz"}},{"name":"Hauptstr.","postalCode":"67822","locality":"Winterborn","municipality":{"key":"07333083","name":"Winterborn","type":"Kreisangehörige_Gemeinde"},"district":{"key":"07333","name":"Donnersbergkreis","type":"Landkreis"},"federalState":{"key":"07","name":"Rheinland-Pfalz"}},{"name":"Kehrweg","postalCode":"67822","locality":"Winterborn","municipality":{"key":"07333083","name":"Winterborn","type":"Kreisangehörige_Gemeinde"},"district":{"key":"07333","name":"Donnersbergkreis","type":"Landkreis"},"federalState":{"key":"07","name":"Rheinland-Pfalz"}},{"name":"Schöne Aussicht","postalCode":"67822","locality":"Winterborn","municipality":{"key":"07333083","name":"Winterborn","type":"Kreisangehörige_Gemeinde"},"district":{"key":"07333","name":"Donnersbergkreis","type":"Landkreis"},"federalState":{"key":"07","name":"Rheinland-Pfalz"}},{"name":"Steinstr.","postalCode":"67822","locality":"Winterborn","municipality":{"key":"07333083","name":"Winterborn","type":"Kreisangehörige_Gemeinde"},"district":{"key":"07333","name":"Donnersbergkreis","type":"Landkreis"},"federalState":{"key":"07","name":"Rheinland-Pfalz"}},{"name":"Triftstr.","postalCode":"67822","locality":"Winterborn","municipality":{"key":"07333083","name":"Winterborn","type":"Kreisangehörige_Gemeinde"},"district":{"key":"07333","name":"Donnersbergkreis","type":"Landkreis"},"federalState":{"key":"07","name":"Rheinland-Pfalz"}},{"name":"Von Brunck-Str.","postalCode":"67822","locality":"Winterborn","municipality":{"key":"07333083","name":"Winterborn","type":"Kreisangehörige_Gemeinde"},"district":{"key":"07333","name":"Donnersbergkreis","type":"Landkreis"},"federalState":{"key":"07","name":"Rheinland-Pfalz"}},]