[{"name":"Birkenweg","postalCode":"54552","locality":"Ellscheid","municipality":{"key":"07233021","name":"Ellscheid","type":"Kreisangehörige_Gemeinde"},"district":{"key":"07233","name":"Vulkaneifel","type":"Landkreis"},"federalState":{"key":"07","name":"Rheinland-Pfalz"}},{"name":"Büchelweg","postalCode":"54552","locality":"Ellscheid","municipality":{"key":"07233021","name":"Ellscheid","type":"Kreisangehörige_Gemeinde"},"district":{"key":"07233","name":"Vulkaneifel","type":"Landkreis"},"federalState":{"key":"07","name":"Rheinland-Pfalz"}},{"name":"Erlenweg","postalCode":"54552","locality":"Ellscheid","municipality":{"key":"07233021","name":"Ellscheid","type":"Kreisangehörige_Gemeinde"},"district":{"key":"07233","name":"Vulkaneifel","type":"Landkreis"},"federalState":{"key":"07","name":"Rheinland-Pfalz"}},{"name":"Hauptstr.","postalCode":"54552","locality":"Ellscheid","municipality":{"key":"07233021","name":"Ellscheid","type":"Kreisangehörige_Gemeinde"},"district":{"key":"07233","name":"Vulkaneifel","type":"Landkreis"},"federalState":{"key":"07","name":"Rheinland-Pfalz"}},{"name":"Im Bungert","postalCode":"54552","locality":"Ellscheid","municipality":{"key":"07233021","name":"Ellscheid","type":"Kreisangehörige_Gemeinde"},"district":{"key":"07233","name":"Vulkaneifel","type":"Landkreis"},"federalState":{"key":"07","name":"Rheinland-Pfalz"}},{"name":"Im Weierchen","postalCode":"54552","locality":"Ellscheid","municipality":{"key":"07233021","name":"Ellscheid","type":"Kreisangehörige_Gemeinde"},"district":{"key":"07233","name":"Vulkaneifel","type":"Landkreis"},"federalState":{"key":"07","name":"Rheinland-Pfalz"}},{"name":"Kirchbergweg","postalCode":"54552","locality":"Ellscheid","municipality":{"key":"07233021","name":"Ellscheid","type":"Kreisangehörige_Gemeinde"},"district":{"key":"07233","name":"Vulkaneifel","type":"Landkreis"},"federalState":{"key":"07","name":"Rheinland-Pfalz"}},{"name":"Lindenweg","postalCode":"54552","locality":"Ellscheid","municipality":{"key":"07233021","name":"Ellscheid","type":"Kreisangehörige_Gemeinde"},"district":{"key":"07233","name":"Vulkaneifel","type":"Landkreis"},"federalState":{"key":"07","name":"Rheinland-Pfalz"}},{"name":"Moselweg","postalCode":"54552","locality":"Ellscheid","municipality":{"key":"07233021","name":"Ellscheid","type":"Kreisangehörige_Gemeinde"},"district":{"key":"07233","name":"Vulkaneifel","type":"Landkreis"},"federalState":{"key":"07","name":"Rheinland-Pfalz"}},{"name":"Mürmesweg","postalCode":"54552","locality":"Ellscheid","municipality":{"key":"07233021","name":"Ellscheid","type":"Kreisangehörige_Gemeinde"},"district":{"key":"07233","name":"Vulkaneifel","type":"Landkreis"},"federalState":{"key":"07","name":"Rheinland-Pfalz"}},]