[{"name":"Am Soden","postalCode":"54497","locality":"Horath","municipality":{"key":"07231058","name":"Horath","type":"Kreisangehörige_Gemeinde"},"district":{"key":"07231","name":"Bernkastel-Wittlich","type":"Landkreis"},"federalState":{"key":"07","name":"Rheinland-Pfalz"}},{"name":"Bergstr.","postalCode":"54497","locality":"Horath","municipality":{"key":"07231058","name":"Horath","type":"Kreisangehörige_Gemeinde"},"district":{"key":"07231","name":"Bernkastel-Wittlich","type":"Landkreis"},"federalState":{"key":"07","name":"Rheinland-Pfalz"}},{"name":"Forstweg","postalCode":"54497","locality":"Horath","municipality":{"key":"07231058","name":"Horath","type":"Kreisangehörige_Gemeinde"},"district":{"key":"07231","name":"Bernkastel-Wittlich","type":"Landkreis"},"federalState":{"key":"07","name":"Rheinland-Pfalz"}},{"name":"Harpelsteinstr.","postalCode":"54497","locality":"Horath","municipality":{"key":"07231058","name":"Horath","type":"Kreisangehörige_Gemeinde"},"district":{"key":"07231","name":"Bernkastel-Wittlich","type":"Landkreis"},"federalState":{"key":"07","name":"Rheinland-Pfalz"}},{"name":"Hunsrückstr.","postalCode":"54497","locality":"Horath","municipality":{"key":"07231058","name":"Horath","type":"Kreisangehörige_Gemeinde"},"district":{"key":"07231","name":"Bernkastel-Wittlich","type":"Landkreis"},"federalState":{"key":"07","name":"Rheinland-Pfalz"}},{"name":"Im Hostert","postalCode":"54497","locality":"Horath","municipality":{"key":"07231058","name":"Horath","type":"Kreisangehörige_Gemeinde"},"district":{"key":"07231","name":"Bernkastel-Wittlich","type":"Landkreis"},"federalState":{"key":"07","name":"Rheinland-Pfalz"}},{"name":"In der Borheck","postalCode":"54497","locality":"Horath","municipality":{"key":"07231058","name":"Horath","type":"Kreisangehörige_Gemeinde"},"district":{"key":"07231","name":"Bernkastel-Wittlich","type":"Landkreis"},"federalState":{"key":"07","name":"Rheinland-Pfalz"}},{"name":"Kegelbahnstr.","postalCode":"54497","locality":"Horath","municipality":{"key":"07231058","name":"Horath","type":"Kreisangehörige_Gemeinde"},"district":{"key":"07231","name":"Bernkastel-Wittlich","type":"Landkreis"},"federalState":{"key":"07","name":"Rheinland-Pfalz"}},{"name":"Kirchgasse","postalCode":"54497","locality":"Horath","municipality":{"key":"07231058","name":"Horath","type":"Kreisangehörige_Gemeinde"},"district":{"key":"07231","name":"Bernkastel-Wittlich","type":"Landkreis"},"federalState":{"key":"07","name":"Rheinland-Pfalz"}},{"name":"Königsgartenstr.","postalCode":"54497","locality":"Horath","municipality":{"key":"07231058","name":"Horath","type":"Kreisangehörige_Gemeinde"},"district":{"key":"07231","name":"Bernkastel-Wittlich","type":"Landkreis"},"federalState":{"key":"07","name":"Rheinland-Pfalz"}},{"name":"Rass Str.","postalCode":"54497","locality":"Horath","municipality":{"key":"07231058","name":"Horath","type":"Kreisangehörige_Gemeinde"},"district":{"key":"07231","name":"Bernkastel-Wittlich","type":"Landkreis"},"federalState":{"key":"07","name":"Rheinland-Pfalz"}},{"name":"Röttgerplatz","postalCode":"54497","locality":"Horath","municipality":{"key":"07231058","name":"Horath","type":"Kreisangehörige_Gemeinde"},"district":{"key":"07231","name":"Bernkastel-Wittlich","type":"Landkreis"},"federalState":{"key":"07","name":"Rheinland-Pfalz"}},{"name":"Schulstr.","postalCode":"54497","locality":"Horath","municipality":{"key":"07231058","name":"Horath","type":"Kreisangehörige_Gemeinde"},"district":{"key":"07231","name":"Bernkastel-Wittlich","type":"Landkreis"},"federalState":{"key":"07","name":"Rheinland-Pfalz"}},{"name":"Wasserweg","postalCode":"54497","locality":"Horath","municipality":{"key":"07231058","name":"Horath","type":"Kreisangehörige_Gemeinde"},"district":{"key":"07231","name":"Bernkastel-Wittlich","type":"Landkreis"},"federalState":{"key":"07","name":"Rheinland-Pfalz"}},]