[{"name":"Abenteuer Golfanlage","postalCode":"88630","locality":"Pfullendorf","municipality":{"key":"08437088","name":"Pfullendorf, Stadt","type":"Stadt"},"district":{"key":"08437","name":"Sigmaringen","type":"Landkreis"},"federalState":{"key":"08","name":"Baden-Württemberg"}},{"name":"Adolf-Kolping-Str.","postalCode":"88630","locality":"Pfullendorf","municipality":{"key":"08437088","name":"Pfullendorf, Stadt","type":"Stadt"},"district":{"key":"08437","name":"Sigmaringen","type":"Landkreis"},"federalState":{"key":"08","name":"Baden-Württemberg"}},{"name":"Aftholderberger Str.","postalCode":"88630","locality":"Pfullendorf","municipality":{"key":"08437088","name":"Pfullendorf, Stadt","type":"Stadt"},"district":{"key":"08437","name":"Sigmaringen","type":"Landkreis"},"federalState":{"key":"08","name":"Baden-Württemberg"}},{"name":"Ahornweg","postalCode":"88630","locality":"Pfullendorf","municipality":{"key":"08437088","name":"Pfullendorf, Stadt","type":"Stadt"},"district":{"key":"08437","name":"Sigmaringen","type":"Landkreis"},"federalState":{"key":"08","name":"Baden-Württemberg"}},{"name":"Akazienweg","postalCode":"88630","locality":"Pfullendorf","municipality":{"key":"08437088","name":"Pfullendorf, Stadt","type":"Stadt"},"district":{"key":"08437","name":"Sigmaringen","type":"Landkreis"},"federalState":{"key":"08","name":"Baden-Württemberg"}},{"name":"Allschwiler Weg","postalCode":"88630","locality":"Pfullendorf","municipality":{"key":"08437088","name":"Pfullendorf, Stadt","type":"Stadt"},"district":{"key":"08437","name":"Sigmaringen","type":"Landkreis"},"federalState":{"key":"08","name":"Baden-Württemberg"}},{"name":"Alpenblick","postalCode":"88630","locality":"Pfullendorf","municipality":{"key":"08437088","name":"Pfullendorf, Stadt","type":"Stadt"},"district":{"key":"08437","name":"Sigmaringen","type":"Landkreis"},"federalState":{"key":"08","name":"Baden-Württemberg"}},{"name":"Alte Postgasse","postalCode":"88630","locality":"Pfullendorf","municipality":{"key":"08437088","name":"Pfullendorf, Stadt","type":"Stadt"},"district":{"key":"08437","name":"Sigmaringen","type":"Landkreis"},"federalState":{"key":"08","name":"Baden-Württemberg"}},{"name":"Am alten Spital","postalCode":"88630","locality":"Pfullendorf","municipality":{"key":"08437088","name":"Pfullendorf, Stadt","type":"Stadt"},"district":{"key":"08437","name":"Sigmaringen","type":"Landkreis"},"federalState":{"key":"08","name":"Baden-Württemberg"}},{"name":"Am Berghof","postalCode":"88630","locality":"Pfullendorf","municipality":{"key":"08437088","name":"Pfullendorf, Stadt","type":"Stadt"},"district":{"key":"08437","name":"Sigmaringen","type":"Landkreis"},"federalState":{"key":"08","name":"Baden-Württemberg"}},{"name":"Ambrosstr.","postalCode":"88630","locality":"Pfullendorf","municipality":{"key":"08437088","name":"Pfullendorf, Stadt","type":"Stadt"},"district":{"key":"08437","name":"Sigmaringen","type":"Landkreis"},"federalState":{"key":"08","name":"Baden-Württemberg"}},{"name":"Am Bubenberg","postalCode":"88630","locality":"Pfullendorf","municipality":{"key":"08437088","name":"Pfullendorf, Stadt","type":"Stadt"},"district":{"key":"08437","name":"Sigmaringen","type":"Landkreis"},"federalState":{"key":"08","name":"Baden-Württemberg"}},{"name":"Am Einfang","postalCode":"88630","locality":"Pfullendorf","municipality":{"key":"08437088","name":"Pfullendorf, Stadt","type":"Stadt"},"district":{"key":"08437","name":"Sigmaringen","type":"Landkreis"},"federalState":{"key":"08","name":"Baden-Württemberg"}},{"name":"Am Gaisbühl","postalCode":"88630","locality":"Pfullendorf","municipality":{"key":"08437088","name":"Pfullendorf, Stadt","type":"Stadt"},"district":{"key":"08437","name":"Sigmaringen","type":"Landkreis"},"federalState":{"key":"08","name":"Baden-Württemberg"}},{"name":"Am Kehlbach","postalCode":"88630","locality":"Pfullendorf","municipality":{"key":"08437088","name":"Pfullendorf, Stadt","type":"Stadt"},"district":{"key":"08437","name":"Sigmaringen","type":"Landkreis"},"federalState":{"key":"08","name":"Baden-Württemberg"}},{"name":"Am Litzelbacher Weg","postalCode":"88630","locality":"Pfullendorf","municipality":{"key":"08437088","name":"Pfullendorf, Stadt","type":"Stadt"},"district":{"key":"08437","name":"Sigmaringen","type":"Landkreis"},"federalState":{"key":"08","name":"Baden-Württemberg"}},{"name":"Am oberen Tor","postalCode":"88630","locality":"Pfullendorf","municipality":{"key":"08437088","name":"Pfullendorf, Stadt","type":"Stadt"},"district":{"key":"08437","name":"Sigmaringen","type":"Landkreis"},"federalState":{"key":"08","name":"Baden-Württemberg"}},{"name":"Am Pfarröschle","postalCode":"88630","locality":"Pfullendorf","municipality":{"key":"08437088","name":"Pfullendorf, Stadt","type":"Stadt"},"district":{"key":"08437","name":"Sigmaringen","type":"Landkreis"},"federalState":{"key":"08","name":"Baden-Württemberg"}},{"name":"Am Schützenbühl","postalCode":"88630","locality":"Pfullendorf","municipality":{"key":"08437088","name":"Pfullendorf, Stadt","type":"Stadt"},"district":{"key":"08437","name":"Sigmaringen","type":"Landkreis"},"federalState":{"key":"08","name":"Baden-Württemberg"}},{"name":"Am Schweizersbild","postalCode":"88630","locality":"Pfullendorf","municipality":{"key":"08437088","name":"Pfullendorf, Stadt","type":"Stadt"},"district":{"key":"08437","name":"Sigmaringen","type":"Landkreis"},"federalState":{"key":"08","name":"Baden-Württemberg"}},{"name":"Am Sechslindenöschle","postalCode":"88630","locality":"Pfullendorf","municipality":{"key":"08437088","name":"Pfullendorf, Stadt","type":"Stadt"},"district":{"key":"08437","name":"Sigmaringen","type":"Landkreis"},"federalState":{"key":"08","name":"Baden-Württemberg"}},{"name":"Am Stadtgarten","postalCode":"88630","locality":"Pfullendorf","municipality":{"key":"08437088","name":"Pfullendorf, Stadt","type":"Stadt"},"district":{"key":"08437","name":"Sigmaringen","type":"Landkreis"},"federalState":{"key":"08","name":"Baden-Württemberg"}},{"name":"Am Stadtweiher","postalCode":"88630","locality":"Pfullendorf","municipality":{"key":"08437088","name":"Pfullendorf, Stadt","type":"Stadt"},"district":{"key":"08437","name":"Sigmaringen","type":"Landkreis"},"federalState":{"key":"08","name":"Baden-Württemberg"}},{"name":"An der Mauer","postalCode":"88630","locality":"Pfullendorf","municipality":{"key":"08437088","name":"Pfullendorf, Stadt","type":"Stadt"},"district":{"key":"08437","name":"Sigmaringen","type":"Landkreis"},"federalState":{"key":"08","name":"Baden-Württemberg"}},{"name":"Andreas-Rogg-Gasse","postalCode":"88630","locality":"Pfullendorf","municipality":{"key":"08437088","name":"Pfullendorf, Stadt","type":"Stadt"},"district":{"key":"08437","name":"Sigmaringen","type":"Landkreis"},"federalState":{"key":"08","name":"Baden-Württemberg"}},{"name":"Apfelrain","postalCode":"88630","locality":"Pfullendorf","municipality":{"key":"08437088","name":"Pfullendorf, Stadt","type":"Stadt"},"district":{"key":"08437","name":"Sigmaringen","type":"Landkreis"},"federalState":{"key":"08","name":"Baden-Württemberg"}},{"name":"Bachstr.","postalCode":"88630","locality":"Pfullendorf","municipality":{"key":"08437088","name":"Pfullendorf, Stadt","type":"Stadt"},"district":{"key":"08437","name":"Sigmaringen","type":"Landkreis"},"federalState":{"key":"08","name":"Baden-Württemberg"}},{"name":"Bahnhofstr.","postalCode":"88630","locality":"Pfullendorf","municipality":{"key":"08437088","name":"Pfullendorf, Stadt","type":"Stadt"},"district":{"key":"08437","name":"Sigmaringen","type":"Landkreis"},"federalState":{"key":"08","name":"Baden-Württemberg"}},{"name":"Bahnhofweg","postalCode":"88630","locality":"Pfullendorf","municipality":{"key":"08437088","name":"Pfullendorf, Stadt","type":"Stadt"},"district":{"key":"08437","name":"Sigmaringen","type":"Landkreis"},"federalState":{"key":"08","name":"Baden-Württemberg"}},{"name":"Bannholzer Weg","postalCode":"88630","locality":"Pfullendorf","municipality":{"key":"08437088","name":"Pfullendorf, Stadt","type":"Stadt"},"district":{"key":"08437","name":"Sigmaringen","type":"Landkreis"},"federalState":{"key":"08","name":"Baden-Württemberg"}},{"name":"Beethovenstr.","postalCode":"88630","locality":"Pfullendorf","municipality":{"key":"08437088","name":"Pfullendorf, Stadt","type":"Stadt"},"district":{"key":"08437","name":"Sigmaringen","type":"Landkreis"},"federalState":{"key":"08","name":"Baden-Württemberg"}},{"name":"Bei der Lehmgrube","postalCode":"88630","locality":"Pfullendorf","municipality":{"key":"08437088","name":"Pfullendorf, Stadt","type":"Stadt"},"district":{"key":"08437","name":"Sigmaringen","type":"Landkreis"},"federalState":{"key":"08","name":"Baden-Württemberg"}},{"name":"Bei Maria Schray","postalCode":"88630","locality":"Pfullendorf","municipality":{"key":"08437088","name":"Pfullendorf, Stadt","type":"Stadt"},"district":{"key":"08437","name":"Sigmaringen","type":"Landkreis"},"federalState":{"key":"08","name":"Baden-Württemberg"}},{"name":"Beim Wasserturm","postalCode":"88630","locality":"Pfullendorf","municipality":{"key":"08437088","name":"Pfullendorf, Stadt","type":"Stadt"},"district":{"key":"08437","name":"Sigmaringen","type":"Landkreis"},"federalState":{"key":"08","name":"Baden-Württemberg"}},{"name":"Bergstr.","postalCode":"88630","locality":"Pfullendorf","municipality":{"key":"08437088","name":"Pfullendorf, Stadt","type":"Stadt"},"district":{"key":"08437","name":"Sigmaringen","type":"Landkreis"},"federalState":{"key":"08","name":"Baden-Württemberg"}},{"name":"Bergwaldstr.","postalCode":"88630","locality":"Pfullendorf","municipality":{"key":"08437088","name":"Pfullendorf, Stadt","type":"Stadt"},"district":{"key":"08437","name":"Sigmaringen","type":"Landkreis"},"federalState":{"key":"08","name":"Baden-Württemberg"}},{"name":"Birkenösch","postalCode":"88630","locality":"Pfullendorf","municipality":{"key":"08437088","name":"Pfullendorf, Stadt","type":"Stadt"},"district":{"key":"08437","name":"Sigmaringen","type":"Landkreis"},"federalState":{"key":"08","name":"Baden-Württemberg"}},{"name":"Bleichestr.","postalCode":"88630","locality":"Pfullendorf","municipality":{"key":"08437088","name":"Pfullendorf, Stadt","type":"Stadt"},"district":{"key":"08437","name":"Sigmaringen","type":"Landkreis"},"federalState":{"key":"08","name":"Baden-Württemberg"}},{"name":"Blumenstr.","postalCode":"88630","locality":"Pfullendorf","municipality":{"key":"08437088","name":"Pfullendorf, Stadt","type":"Stadt"},"district":{"key":"08437","name":"Sigmaringen","type":"Landkreis"},"federalState":{"key":"08","name":"Baden-Württemberg"}},{"name":"Bodenseestr.","postalCode":"88630","locality":"Pfullendorf","municipality":{"key":"08437088","name":"Pfullendorf, Stadt","type":"Stadt"},"district":{"key":"08437","name":"Sigmaringen","type":"Landkreis"},"federalState":{"key":"08","name":"Baden-Württemberg"}},{"name":"Brandweg","postalCode":"88630","locality":"Pfullendorf","municipality":{"key":"08437088","name":"Pfullendorf, Stadt","type":"Stadt"},"district":{"key":"08437","name":"Sigmaringen","type":"Landkreis"},"federalState":{"key":"08","name":"Baden-Württemberg"}},{"name":"Brehmerberg","postalCode":"88630","locality":"Pfullendorf","municipality":{"key":"08437088","name":"Pfullendorf, Stadt","type":"Stadt"},"district":{"key":"08437","name":"Sigmaringen","type":"Landkreis"},"federalState":{"key":"08","name":"Baden-Württemberg"}},{"name":"Brigitta-von-Zimmern-Str.","postalCode":"88630","locality":"Pfullendorf","municipality":{"key":"08437088","name":"Pfullendorf, Stadt","type":"Stadt"},"district":{"key":"08437","name":"Sigmaringen","type":"Landkreis"},"federalState":{"key":"08","name":"Baden-Württemberg"}},{"name":"Brunnhausen","postalCode":"88630","locality":"Pfullendorf","municipality":{"key":"08437088","name":"Pfullendorf, Stadt","type":"Stadt"},"district":{"key":"08437","name":"Sigmaringen","type":"Landkreis"},"federalState":{"key":"08","name":"Baden-Württemberg"}},{"name":"Buchenwasen","postalCode":"88630","locality":"Pfullendorf","municipality":{"key":"08437088","name":"Pfullendorf, Stadt","type":"Stadt"},"district":{"key":"08437","name":"Sigmaringen","type":"Landkreis"},"federalState":{"key":"08","name":"Baden-Württemberg"}},{"name":"Bühlweg","postalCode":"88630","locality":"Pfullendorf","municipality":{"key":"08437088","name":"Pfullendorf, Stadt","type":"Stadt"},"district":{"key":"08437","name":"Sigmaringen","type":"Landkreis"},"federalState":{"key":"08","name":"Baden-Württemberg"}},{"name":"Burgweg","postalCode":"88630","locality":"Pfullendorf","municipality":{"key":"08437088","name":"Pfullendorf, Stadt","type":"Stadt"},"district":{"key":"08437","name":"Sigmaringen","type":"Landkreis"},"federalState":{"key":"08","name":"Baden-Württemberg"}},{"name":"Carleinstr.","postalCode":"88630","locality":"Pfullendorf","municipality":{"key":"08437088","name":"Pfullendorf, Stadt","type":"Stadt"},"district":{"key":"08437","name":"Sigmaringen","type":"Landkreis"},"federalState":{"key":"08","name":"Baden-Württemberg"}},{"name":"Deutsch-Haus-Weg","postalCode":"88630","locality":"Pfullendorf","municipality":{"key":"08437088","name":"Pfullendorf, Stadt","type":"Stadt"},"district":{"key":"08437","name":"Sigmaringen","type":"Landkreis"},"federalState":{"key":"08","name":"Baden-Württemberg"}},{"name":"Dorfstr.","postalCode":"88630","locality":"Pfullendorf","municipality":{"key":"08437088","name":"Pfullendorf, Stadt","type":"Stadt"},"district":{"key":"08437","name":"Sigmaringen","type":"Landkreis"},"federalState":{"key":"08","name":"Baden-Württemberg"}},{"name":"Ennerbach","postalCode":"88630","locality":"Pfullendorf","municipality":{"key":"08437088","name":"Pfullendorf, Stadt","type":"Stadt"},"district":{"key":"08437","name":"Sigmaringen","type":"Landkreis"},"federalState":{"key":"08","name":"Baden-Württemberg"}},{"name":"Erlenweg","postalCode":"88630","locality":"Pfullendorf","municipality":{"key":"08437088","name":"Pfullendorf, Stadt","type":"Stadt"},"district":{"key":"08437","name":"Sigmaringen","type":"Landkreis"},"federalState":{"key":"08","name":"Baden-Württemberg"}},{"name":"Espanweg","postalCode":"88630","locality":"Pfullendorf","municipality":{"key":"08437088","name":"Pfullendorf, Stadt","type":"Stadt"},"district":{"key":"08437","name":"Sigmaringen","type":"Landkreis"},"federalState":{"key":"08","name":"Baden-Württemberg"}},{"name":"Espen","postalCode":"88630","locality":"Pfullendorf","municipality":{"key":"08437088","name":"Pfullendorf, Stadt","type":"Stadt"},"district":{"key":"08437","name":"Sigmaringen","type":"Landkreis"},"federalState":{"key":"08","name":"Baden-Württemberg"}},{"name":"Espenweg","postalCode":"88630","locality":"Pfullendorf","municipality":{"key":"08437088","name":"Pfullendorf, Stadt","type":"Stadt"},"district":{"key":"08437","name":"Sigmaringen","type":"Landkreis"},"federalState":{"key":"08","name":"Baden-Württemberg"}},{"name":"Eulogiusstr.","postalCode":"88630","locality":"Pfullendorf","municipality":{"key":"08437088","name":"Pfullendorf, Stadt","type":"Stadt"},"district":{"key":"08437","name":"Sigmaringen","type":"Landkreis"},"federalState":{"key":"08","name":"Baden-Württemberg"}},{"name":"Falkenstr.","postalCode":"88630","locality":"Pfullendorf","municipality":{"key":"08437088","name":"Pfullendorf, Stadt","type":"Stadt"},"district":{"key":"08437","name":"Sigmaringen","type":"Landkreis"},"federalState":{"key":"08","name":"Baden-Württemberg"}},{"name":"Fliederweg","postalCode":"88630","locality":"Pfullendorf","municipality":{"key":"08437088","name":"Pfullendorf, Stadt","type":"Stadt"},"district":{"key":"08437","name":"Sigmaringen","type":"Landkreis"},"federalState":{"key":"08","name":"Baden-Württemberg"}},{"name":"Franz-Xaver-Heilig-Str.","postalCode":"88630","locality":"Pfullendorf","municipality":{"key":"08437088","name":"Pfullendorf, Stadt","type":"Stadt"},"district":{"key":"08437","name":"Sigmaringen","type":"Landkreis"},"federalState":{"key":"08","name":"Baden-Württemberg"}},{"name":"Friedenstr.","postalCode":"88630","locality":"Pfullendorf","municipality":{"key":"08437088","name":"Pfullendorf, Stadt","type":"Stadt"},"district":{"key":"08437","name":"Sigmaringen","type":"Landkreis"},"federalState":{"key":"08","name":"Baden-Württemberg"}},{"name":"Friedhofstr.","postalCode":"88630","locality":"Pfullendorf","municipality":{"key":"08437088","name":"Pfullendorf, Stadt","type":"Stadt"},"district":{"key":"08437","name":"Sigmaringen","type":"Landkreis"},"federalState":{"key":"08","name":"Baden-Württemberg"}},{"name":"Fuchshaldenweg","postalCode":"88630","locality":"Pfullendorf","municipality":{"key":"08437088","name":"Pfullendorf, Stadt","type":"Stadt"},"district":{"key":"08437","name":"Sigmaringen","type":"Landkreis"},"federalState":{"key":"08","name":"Baden-Württemberg"}},{"name":"Funkenbühl","postalCode":"88630","locality":"Pfullendorf","municipality":{"key":"08437088","name":"Pfullendorf, Stadt","type":"Stadt"},"district":{"key":"08437","name":"Sigmaringen","type":"Landkreis"},"federalState":{"key":"08","name":"Baden-Württemberg"}},{"name":"Galgenbühl","postalCode":"88630","locality":"Pfullendorf","municipality":{"key":"08437088","name":"Pfullendorf, Stadt","type":"Stadt"},"district":{"key":"08437","name":"Sigmaringen","type":"Landkreis"},"federalState":{"key":"08","name":"Baden-Württemberg"}},{"name":"Garnmarktgasse","postalCode":"88630","locality":"Pfullendorf","municipality":{"key":"08437088","name":"Pfullendorf, Stadt","type":"Stadt"},"district":{"key":"08437","name":"Sigmaringen","type":"Landkreis"},"federalState":{"key":"08","name":"Baden-Württemberg"}},{"name":"Gartenstr.","postalCode":"88630","locality":"Pfullendorf","municipality":{"key":"08437088","name":"Pfullendorf, Stadt","type":"Stadt"},"district":{"key":"08437","name":"Sigmaringen","type":"Landkreis"},"federalState":{"key":"08","name":"Baden-Württemberg"}},{"name":"Gärtnersberg","postalCode":"88630","locality":"Pfullendorf","municipality":{"key":"08437088","name":"Pfullendorf, Stadt","type":"Stadt"},"district":{"key":"08437","name":"Sigmaringen","type":"Landkreis"},"federalState":{"key":"08","name":"Baden-Württemberg"}},{"name":"Gisela-Franke-Weg","postalCode":"88630","locality":"Pfullendorf","municipality":{"key":"08437088","name":"Pfullendorf, Stadt","type":"Stadt"},"district":{"key":"08437","name":"Sigmaringen","type":"Landkreis"},"federalState":{"key":"08","name":"Baden-Württemberg"}},{"name":"Goethestr.","postalCode":"88630","locality":"Pfullendorf","municipality":{"key":"08437088","name":"Pfullendorf, Stadt","type":"Stadt"},"district":{"key":"08437","name":"Sigmaringen","type":"Landkreis"},"federalState":{"key":"08","name":"Baden-Württemberg"}},{"name":"Grundweg","postalCode":"88630","locality":"Pfullendorf","municipality":{"key":"08437088","name":"Pfullendorf, Stadt","type":"Stadt"},"district":{"key":"08437","name":"Sigmaringen","type":"Landkreis"},"federalState":{"key":"08","name":"Baden-Württemberg"}},{"name":"Hans-Ruck-Str.","postalCode":"88630","locality":"Pfullendorf","municipality":{"key":"08437088","name":"Pfullendorf, Stadt","type":"Stadt"},"district":{"key":"08437","name":"Sigmaringen","type":"Landkreis"},"federalState":{"key":"08","name":"Baden-Württemberg"}},{"name":"Hans-Thoma-Str.","postalCode":"88630","locality":"Pfullendorf","municipality":{"key":"08437088","name":"Pfullendorf, Stadt","type":"Stadt"},"district":{"key":"08437","name":"Sigmaringen","type":"Landkreis"},"federalState":{"key":"08","name":"Baden-Württemberg"}},{"name":"Härle","postalCode":"88630","locality":"Pfullendorf","municipality":{"key":"08437088","name":"Pfullendorf, Stadt","type":"Stadt"},"district":{"key":"08437","name":"Sigmaringen","type":"Landkreis"},"federalState":{"key":"08","name":"Baden-Württemberg"}},{"name":"Hauptstr.","postalCode":"88630","locality":"Pfullendorf","municipality":{"key":"08437088","name":"Pfullendorf, Stadt","type":"Stadt"},"district":{"key":"08437","name":"Sigmaringen","type":"Landkreis"},"federalState":{"key":"08","name":"Baden-Württemberg"}},{"name":"Hausener Str.","postalCode":"88630","locality":"Pfullendorf","municipality":{"key":"08437088","name":"Pfullendorf, Stadt","type":"Stadt"},"district":{"key":"08437","name":"Sigmaringen","type":"Landkreis"},"federalState":{"key":"08","name":"Baden-Württemberg"}},{"name":"Heiligenberger Str.","postalCode":"88630","locality":"Pfullendorf","municipality":{"key":"08437088","name":"Pfullendorf, Stadt","type":"Stadt"},"district":{"key":"08437","name":"Sigmaringen","type":"Landkreis"},"federalState":{"key":"08","name":"Baden-Württemberg"}},{"name":"Hesselbühl","postalCode":"88630","locality":"Pfullendorf","municipality":{"key":"08437088","name":"Pfullendorf, Stadt","type":"Stadt"},"district":{"key":"08437","name":"Sigmaringen","type":"Landkreis"},"federalState":{"key":"08","name":"Baden-Württemberg"}},{"name":"Hillergraben","postalCode":"88630","locality":"Pfullendorf","municipality":{"key":"08437088","name":"Pfullendorf, Stadt","type":"Stadt"},"district":{"key":"08437","name":"Sigmaringen","type":"Landkreis"},"federalState":{"key":"08","name":"Baden-Württemberg"}},{"name":"Hintere Bergstr.","postalCode":"88630","locality":"Pfullendorf","municipality":{"key":"08437088","name":"Pfullendorf, Stadt","type":"Stadt"},"district":{"key":"08437","name":"Sigmaringen","type":"Landkreis"},"federalState":{"key":"08","name":"Baden-Württemberg"}},{"name":"Hohenzollernstr.","postalCode":"88630","locality":"Pfullendorf","municipality":{"key":"08437088","name":"Pfullendorf, Stadt","type":"Stadt"},"district":{"key":"08437","name":"Sigmaringen","type":"Landkreis"},"federalState":{"key":"08","name":"Baden-Württemberg"}},{"name":"Hohkreuzerlänge","postalCode":"88630","locality":"Pfullendorf","municipality":{"key":"08437088","name":"Pfullendorf, Stadt","type":"Stadt"},"district":{"key":"08437","name":"Sigmaringen","type":"Landkreis"},"federalState":{"key":"08","name":"Baden-Württemberg"}},{"name":"Im Breitle","postalCode":"88630","locality":"Pfullendorf","municipality":{"key":"08437088","name":"Pfullendorf, Stadt","type":"Stadt"},"district":{"key":"08437","name":"Sigmaringen","type":"Landkreis"},"federalState":{"key":"08","name":"Baden-Württemberg"}},{"name":"Im Goldäcker","postalCode":"88630","locality":"Pfullendorf","municipality":{"key":"08437088","name":"Pfullendorf, Stadt","type":"Stadt"},"district":{"key":"08437","name":"Sigmaringen","type":"Landkreis"},"federalState":{"key":"08","name":"Baden-Württemberg"}},{"name":"Industriestr.","postalCode":"88630","locality":"Pfullendorf","municipality":{"key":"08437088","name":"Pfullendorf, Stadt","type":"Stadt"},"district":{"key":"08437","name":"Sigmaringen","type":"Landkreis"},"federalState":{"key":"08","name":"Baden-Württemberg"}},{"name":"Jahnweg","postalCode":"88630","locality":"Pfullendorf","municipality":{"key":"08437088","name":"Pfullendorf, Stadt","type":"Stadt"},"district":{"key":"08437","name":"Sigmaringen","type":"Landkreis"},"federalState":{"key":"08","name":"Baden-Württemberg"}},{"name":"Jakob-Kemm-Weg","postalCode":"88630","locality":"Pfullendorf","municipality":{"key":"08437088","name":"Pfullendorf, Stadt","type":"Stadt"},"district":{"key":"08437","name":"Sigmaringen","type":"Landkreis"},"federalState":{"key":"08","name":"Baden-Württemberg"}},{"name":"Jakobus-Feucht-Str.","postalCode":"88630","locality":"Pfullendorf","municipality":{"key":"08437088","name":"Pfullendorf, Stadt","type":"Stadt"},"district":{"key":"08437","name":"Sigmaringen","type":"Landkreis"},"federalState":{"key":"08","name":"Baden-Württemberg"}},{"name":"Johann-Peter-Hebel-Str.","postalCode":"88630","locality":"Pfullendorf","municipality":{"key":"08437088","name":"Pfullendorf, Stadt","type":"Stadt"},"district":{"key":"08437","name":"Sigmaringen","type":"Landkreis"},"federalState":{"key":"08","name":"Baden-Württemberg"}},{"name":"Johann-Schupp-Weg","postalCode":"88630","locality":"Pfullendorf","municipality":{"key":"08437088","name":"Pfullendorf, Stadt","type":"Stadt"},"district":{"key":"08437","name":"Sigmaringen","type":"Landkreis"},"federalState":{"key":"08","name":"Baden-Württemberg"}},{"name":"John-F.-Kennedy-Str.","postalCode":"88630","locality":"Pfullendorf","municipality":{"key":"08437088","name":"Pfullendorf, Stadt","type":"Stadt"},"district":{"key":"08437","name":"Sigmaringen","type":"Landkreis"},"federalState":{"key":"08","name":"Baden-Württemberg"}},{"name":"Josef-Groner-Weg","postalCode":"88630","locality":"Pfullendorf","municipality":{"key":"08437088","name":"Pfullendorf, Stadt","type":"Stadt"},"district":{"key":"08437","name":"Sigmaringen","type":"Landkreis"},"federalState":{"key":"08","name":"Baden-Württemberg"}},{"name":"Josef-Schreck-Weg","postalCode":"88630","locality":"Pfullendorf","municipality":{"key":"08437088","name":"Pfullendorf, Stadt","type":"Stadt"},"district":{"key":"08437","name":"Sigmaringen","type":"Landkreis"},"federalState":{"key":"08","name":"Baden-Württemberg"}},{"name":"Junker-von-Gremlich-Str.","postalCode":"88630","locality":"Pfullendorf","municipality":{"key":"08437088","name":"Pfullendorf, Stadt","type":"Stadt"},"district":{"key":"08437","name":"Sigmaringen","type":"Landkreis"},"federalState":{"key":"08","name":"Baden-Württemberg"}},{"name":"Kellerweg","postalCode":"88630","locality":"Pfullendorf","municipality":{"key":"08437088","name":"Pfullendorf, Stadt","type":"Stadt"},"district":{"key":"08437","name":"Sigmaringen","type":"Landkreis"},"federalState":{"key":"08","name":"Baden-Württemberg"}},{"name":"Kipptorstr.","postalCode":"88630","locality":"Pfullendorf","municipality":{"key":"08437088","name":"Pfullendorf, Stadt","type":"Stadt"},"district":{"key":"08437","name":"Sigmaringen","type":"Landkreis"},"federalState":{"key":"08","name":"Baden-Württemberg"}},{"name":"Kirchberg","postalCode":"88630","locality":"Pfullendorf","municipality":{"key":"08437088","name":"Pfullendorf, Stadt","type":"Stadt"},"district":{"key":"08437","name":"Sigmaringen","type":"Landkreis"},"federalState":{"key":"08","name":"Baden-Württemberg"}},{"name":"Kirchplatz","postalCode":"88630","locality":"Pfullendorf","municipality":{"key":"08437088","name":"Pfullendorf, Stadt","type":"Stadt"},"district":{"key":"08437","name":"Sigmaringen","type":"Landkreis"},"federalState":{"key":"08","name":"Baden-Württemberg"}},{"name":"Kleinstadelhofen","postalCode":"88630","locality":"Pfullendorf","municipality":{"key":"08437088","name":"Pfullendorf, Stadt","type":"Stadt"},"district":{"key":"08437","name":"Sigmaringen","type":"Landkreis"},"federalState":{"key":"08","name":"Baden-Württemberg"}},{"name":"Kogenäcker","postalCode":"88630","locality":"Pfullendorf","municipality":{"key":"08437088","name":"Pfullendorf, Stadt","type":"Stadt"},"district":{"key":"08437","name":"Sigmaringen","type":"Landkreis"},"federalState":{"key":"08","name":"Baden-Württemberg"}},{"name":"Konrad-Heilig-Str.","postalCode":"88630","locality":"Pfullendorf","municipality":{"key":"08437088","name":"Pfullendorf, Stadt","type":"Stadt"},"district":{"key":"08437","name":"Sigmaringen","type":"Landkreis"},"federalState":{"key":"08","name":"Baden-Württemberg"}},{"name":"Krähenried","postalCode":"88630","locality":"Pfullendorf","municipality":{"key":"08437088","name":"Pfullendorf, Stadt","type":"Stadt"},"district":{"key":"08437","name":"Sigmaringen","type":"Landkreis"},"federalState":{"key":"08","name":"Baden-Württemberg"}},{"name":"Kreuzäcker","postalCode":"88630","locality":"Pfullendorf","municipality":{"key":"08437088","name":"Pfullendorf, Stadt","type":"Stadt"},"district":{"key":"08437","name":"Sigmaringen","type":"Landkreis"},"federalState":{"key":"08","name":"Baden-Württemberg"}},{"name":"Lagerhausweg","postalCode":"88630","locality":"Pfullendorf","municipality":{"key":"08437088","name":"Pfullendorf, Stadt","type":"Stadt"},"district":{"key":"08437","name":"Sigmaringen","type":"Landkreis"},"federalState":{"key":"08","name":"Baden-Württemberg"}},{"name":"Lammgasse","postalCode":"88630","locality":"Pfullendorf","municipality":{"key":"08437088","name":"Pfullendorf, Stadt","type":"Stadt"},"district":{"key":"08437","name":"Sigmaringen","type":"Landkreis"},"federalState":{"key":"08","name":"Baden-Württemberg"}},{"name":"Langäcker","postalCode":"88630","locality":"Pfullendorf","municipality":{"key":"08437088","name":"Pfullendorf, Stadt","type":"Stadt"},"district":{"key":"08437","name":"Sigmaringen","type":"Landkreis"},"federalState":{"key":"08","name":"Baden-Württemberg"}},{"name":"Lange Planie","postalCode":"88630","locality":"Pfullendorf","municipality":{"key":"08437088","name":"Pfullendorf, Stadt","type":"Stadt"},"district":{"key":"08437","name":"Sigmaringen","type":"Landkreis"},"federalState":{"key":"08","name":"Baden-Württemberg"}},{"name":"Langgassen","postalCode":"88630","locality":"Pfullendorf","municipality":{"key":"08437088","name":"Pfullendorf, Stadt","type":"Stadt"},"district":{"key":"08437","name":"Sigmaringen","type":"Landkreis"},"federalState":{"key":"08","name":"Baden-Württemberg"}},{"name":"Lausheimer Str.","postalCode":"88630","locality":"Pfullendorf","municipality":{"key":"08437088","name":"Pfullendorf, Stadt","type":"Stadt"},"district":{"key":"08437","name":"Sigmaringen","type":"Landkreis"},"federalState":{"key":"08","name":"Baden-Württemberg"}},{"name":"Lindenstr.","postalCode":"88630","locality":"Pfullendorf","municipality":{"key":"08437088","name":"Pfullendorf, Stadt","type":"Stadt"},"district":{"key":"08437","name":"Sigmaringen","type":"Landkreis"},"federalState":{"key":"08","name":"Baden-Württemberg"}},{"name":"Linzgaustr.","postalCode":"88630","locality":"Pfullendorf","municipality":{"key":"08437088","name":"Pfullendorf, Stadt","type":"Stadt"},"district":{"key":"08437","name":"Sigmaringen","type":"Landkreis"},"federalState":{"key":"08","name":"Baden-Württemberg"}},{"name":"Litzelbach","postalCode":"88630","locality":"Pfullendorf","municipality":{"key":"08437088","name":"Pfullendorf, Stadt","type":"Stadt"},"district":{"key":"08437","name":"Sigmaringen","type":"Landkreis"},"federalState":{"key":"08","name":"Baden-Württemberg"}},{"name":"Malaienstr.","postalCode":"88630","locality":"Pfullendorf","municipality":{"key":"08437088","name":"Pfullendorf, Stadt","type":"Stadt"},"district":{"key":"08437","name":"Sigmaringen","type":"Landkreis"},"federalState":{"key":"08","name":"Baden-Württemberg"}},{"name":"Maria-Schray-Weg","postalCode":"88630","locality":"Pfullendorf","municipality":{"key":"08437088","name":"Pfullendorf, Stadt","type":"Stadt"},"district":{"key":"08437","name":"Sigmaringen","type":"Landkreis"},"federalState":{"key":"08","name":"Baden-Württemberg"}},{"name":"Marienstr.","postalCode":"88630","locality":"Pfullendorf","municipality":{"key":"08437088","name":"Pfullendorf, Stadt","type":"Stadt"},"district":{"key":"08437","name":"Sigmaringen","type":"Landkreis"},"federalState":{"key":"08","name":"Baden-Württemberg"}},{"name":"Martin-Schneller-Str.","postalCode":"88630","locality":"Pfullendorf","municipality":{"key":"08437088","name":"Pfullendorf, Stadt","type":"Stadt"},"district":{"key":"08437","name":"Sigmaringen","type":"Landkreis"},"federalState":{"key":"08","name":"Baden-Württemberg"}},{"name":"Matthäus-Hofmann-Weg","postalCode":"88630","locality":"Pfullendorf","municipality":{"key":"08437088","name":"Pfullendorf, Stadt","type":"Stadt"},"district":{"key":"08437","name":"Sigmaringen","type":"Landkreis"},"federalState":{"key":"08","name":"Baden-Württemberg"}},{"name":"Melanchthonweg","postalCode":"88630","locality":"Pfullendorf","municipality":{"key":"08437088","name":"Pfullendorf, Stadt","type":"Stadt"},"district":{"key":"08437","name":"Sigmaringen","type":"Landkreis"},"federalState":{"key":"08","name":"Baden-Württemberg"}},{"name":"Mengener Str.","postalCode":"88630","locality":"Pfullendorf","municipality":{"key":"08437088","name":"Pfullendorf, Stadt","type":"Stadt"},"district":{"key":"08437","name":"Sigmaringen","type":"Landkreis"},"federalState":{"key":"08","name":"Baden-Württemberg"}},{"name":"Meßkircher Str.","postalCode":"88630","locality":"Pfullendorf","municipality":{"key":"08437088","name":"Pfullendorf, Stadt","type":"Stadt"},"district":{"key":"08437","name":"Sigmaringen","type":"Landkreis"},"federalState":{"key":"08","name":"Baden-Württemberg"}},{"name":"Metzgergasse","postalCode":"88630","locality":"Pfullendorf","municipality":{"key":"08437088","name":"Pfullendorf, Stadt","type":"Stadt"},"district":{"key":"08437","name":"Sigmaringen","type":"Landkreis"},"federalState":{"key":"08","name":"Baden-Württemberg"}},{"name":"Moosteich","postalCode":"88630","locality":"Pfullendorf","municipality":{"key":"08437088","name":"Pfullendorf, Stadt","type":"Stadt"},"district":{"key":"08437","name":"Sigmaringen","type":"Landkreis"},"federalState":{"key":"08","name":"Baden-Württemberg"}},{"name":"Mozartstr.","postalCode":"88630","locality":"Pfullendorf","municipality":{"key":"08437088","name":"Pfullendorf, Stadt","type":"Stadt"},"district":{"key":"08437","name":"Sigmaringen","type":"Landkreis"},"federalState":{"key":"08","name":"Baden-Württemberg"}},{"name":"Mühlenweg","postalCode":"88630","locality":"Pfullendorf","municipality":{"key":"08437088","name":"Pfullendorf, Stadt","type":"Stadt"},"district":{"key":"08437","name":"Sigmaringen","type":"Landkreis"},"federalState":{"key":"08","name":"Baden-Württemberg"}},{"name":"Mühlesteigle","postalCode":"88630","locality":"Pfullendorf","municipality":{"key":"08437088","name":"Pfullendorf, Stadt","type":"Stadt"},"district":{"key":"08437","name":"Sigmaringen","type":"Landkreis"},"federalState":{"key":"08","name":"Baden-Württemberg"}},{"name":"Mühlgarten","postalCode":"88630","locality":"Pfullendorf","municipality":{"key":"08437088","name":"Pfullendorf, Stadt","type":"Stadt"},"district":{"key":"08437","name":"Sigmaringen","type":"Landkreis"},"federalState":{"key":"08","name":"Baden-Württemberg"}},{"name":"Mühlweg","postalCode":"88630","locality":"Pfullendorf","municipality":{"key":"08437088","name":"Pfullendorf, Stadt","type":"Stadt"},"district":{"key":"08437","name":"Sigmaringen","type":"Landkreis"},"federalState":{"key":"08","name":"Baden-Württemberg"}},{"name":"Museumsgasse","postalCode":"88630","locality":"Pfullendorf","municipality":{"key":"08437088","name":"Pfullendorf, Stadt","type":"Stadt"},"district":{"key":"08437","name":"Sigmaringen","type":"Landkreis"},"federalState":{"key":"08","name":"Baden-Württemberg"}},{"name":"Neidlingstr.","postalCode":"88630","locality":"Pfullendorf","municipality":{"key":"08437088","name":"Pfullendorf, Stadt","type":"Stadt"},"district":{"key":"08437","name":"Sigmaringen","type":"Landkreis"},"federalState":{"key":"08","name":"Baden-Württemberg"}},{"name":"Nordring","postalCode":"88630","locality":"Pfullendorf","municipality":{"key":"08437088","name":"Pfullendorf, Stadt","type":"Stadt"},"district":{"key":"08437","name":"Sigmaringen","type":"Landkreis"},"federalState":{"key":"08","name":"Baden-Württemberg"}},{"name":"Oberdorfstr.","postalCode":"88630","locality":"Pfullendorf","municipality":{"key":"08437088","name":"Pfullendorf, Stadt","type":"Stadt"},"district":{"key":"08437","name":"Sigmaringen","type":"Landkreis"},"federalState":{"key":"08","name":"Baden-Württemberg"}},{"name":"Obere Bussen","postalCode":"88630","locality":"Pfullendorf","municipality":{"key":"08437088","name":"Pfullendorf, Stadt","type":"Stadt"},"district":{"key":"08437","name":"Sigmaringen","type":"Landkreis"},"federalState":{"key":"08","name":"Baden-Württemberg"}},{"name":"Oberes Tor","postalCode":"88630","locality":"Pfullendorf","municipality":{"key":"08437088","name":"Pfullendorf, Stadt","type":"Stadt"},"district":{"key":"08437","name":"Sigmaringen","type":"Landkreis"},"federalState":{"key":"08","name":"Baden-Württemberg"}},{"name":"Ochsensteige","postalCode":"88630","locality":"Pfullendorf","municipality":{"key":"08437088","name":"Pfullendorf, Stadt","type":"Stadt"},"district":{"key":"08437","name":"Sigmaringen","type":"Landkreis"},"federalState":{"key":"08","name":"Baden-Württemberg"}},{"name":"Ortsstr.","postalCode":"88630","locality":"Pfullendorf","municipality":{"key":"08437088","name":"Pfullendorf, Stadt","type":"Stadt"},"district":{"key":"08437","name":"Sigmaringen","type":"Landkreis"},"federalState":{"key":"08","name":"Baden-Württemberg"}},{"name":"Ostracher Str.","postalCode":"88630","locality":"Pfullendorf","municipality":{"key":"08437088","name":"Pfullendorf, Stadt","type":"Stadt"},"district":{"key":"08437","name":"Sigmaringen","type":"Landkreis"},"federalState":{"key":"08","name":"Baden-Württemberg"}},{"name":"Otterswanger Str.","postalCode":"88630","locality":"Pfullendorf","municipality":{"key":"08437088","name":"Pfullendorf, Stadt","type":"Stadt"},"district":{"key":"08437","name":"Sigmaringen","type":"Landkreis"},"federalState":{"key":"08","name":"Baden-Württemberg"}},{"name":"Paul-Heilig-Str.","postalCode":"88630","locality":"Pfullendorf","municipality":{"key":"08437088","name":"Pfullendorf, Stadt","type":"Stadt"},"district":{"key":"08437","name":"Sigmaringen","type":"Landkreis"},"federalState":{"key":"08","name":"Baden-Württemberg"}},{"name":"Pfarrhofgasse","postalCode":"88630","locality":"Pfullendorf","municipality":{"key":"08437088","name":"Pfullendorf, Stadt","type":"Stadt"},"district":{"key":"08437","name":"Sigmaringen","type":"Landkreis"},"federalState":{"key":"08","name":"Baden-Württemberg"}},{"name":"Pfleghofgraben","postalCode":"88630","locality":"Pfullendorf","municipality":{"key":"08437088","name":"Pfullendorf, Stadt","type":"Stadt"},"district":{"key":"08437","name":"Sigmaringen","type":"Landkreis"},"federalState":{"key":"08","name":"Baden-Württemberg"}},{"name":"Pfullendorfer Str.","postalCode":"88630","locality":"Pfullendorf","municipality":{"key":"08437088","name":"Pfullendorf, Stadt","type":"Stadt"},"district":{"key":"08437","name":"Sigmaringen","type":"Landkreis"},"federalState":{"key":"08","name":"Baden-Württemberg"}},{"name":"Plazidus-Ott-Str.","postalCode":"88630","locality":"Pfullendorf","municipality":{"key":"08437088","name":"Pfullendorf, Stadt","type":"Stadt"},"district":{"key":"08437","name":"Sigmaringen","type":"Landkreis"},"federalState":{"key":"08","name":"Baden-Württemberg"}},{"name":"Quellweg","postalCode":"88630","locality":"Pfullendorf","municipality":{"key":"08437088","name":"Pfullendorf, Stadt","type":"Stadt"},"district":{"key":"08437","name":"Sigmaringen","type":"Landkreis"},"federalState":{"key":"08","name":"Baden-Württemberg"}},{"name":"Reute","postalCode":"88630","locality":"Pfullendorf","municipality":{"key":"08437088","name":"Pfullendorf, Stadt","type":"Stadt"},"district":{"key":"08437","name":"Sigmaringen","type":"Landkreis"},"federalState":{"key":"08","name":"Baden-Württemberg"}},{"name":"Ringgrube","postalCode":"88630","locality":"Pfullendorf","municipality":{"key":"08437088","name":"Pfullendorf, Stadt","type":"Stadt"},"district":{"key":"08437","name":"Sigmaringen","type":"Landkreis"},"federalState":{"key":"08","name":"Baden-Württemberg"}},{"name":"Ringstr.","postalCode":"88630","locality":"Pfullendorf","municipality":{"key":"08437088","name":"Pfullendorf, Stadt","type":"Stadt"},"district":{"key":"08437","name":"Sigmaringen","type":"Landkreis"},"federalState":{"key":"08","name":"Baden-Württemberg"}},{"name":"Römerstr.","postalCode":"88630","locality":"Pfullendorf","municipality":{"key":"08437088","name":"Pfullendorf, Stadt","type":"Stadt"},"district":{"key":"08437","name":"Sigmaringen","type":"Landkreis"},"federalState":{"key":"08","name":"Baden-Württemberg"}},{"name":"Rosenweg","postalCode":"88630","locality":"Pfullendorf","municipality":{"key":"08437088","name":"Pfullendorf, Stadt","type":"Stadt"},"district":{"key":"08437","name":"Sigmaringen","type":"Landkreis"},"federalState":{"key":"08","name":"Baden-Württemberg"}},{"name":"Roßknechtsiedlung","postalCode":"88630","locality":"Pfullendorf","municipality":{"key":"08437088","name":"Pfullendorf, Stadt","type":"Stadt"},"district":{"key":"08437","name":"Sigmaringen","type":"Landkreis"},"federalState":{"key":"08","name":"Baden-Württemberg"}},{"name":"Roßmarktgasse","postalCode":"88630","locality":"Pfullendorf","municipality":{"key":"08437088","name":"Pfullendorf, Stadt","type":"Stadt"},"district":{"key":"08437","name":"Sigmaringen","type":"Landkreis"},"federalState":{"key":"08","name":"Baden-Württemberg"}},{"name":"Roter Bühl","postalCode":"88630","locality":"Pfullendorf","municipality":{"key":"08437088","name":"Pfullendorf, Stadt","type":"Stadt"},"district":{"key":"08437","name":"Sigmaringen","type":"Landkreis"},"federalState":{"key":"08","name":"Baden-Württemberg"}},{"name":"Rudolfstr.","postalCode":"88630","locality":"Pfullendorf","municipality":{"key":"08437088","name":"Pfullendorf, Stadt","type":"Stadt"},"district":{"key":"08437","name":"Sigmaringen","type":"Landkreis"},"federalState":{"key":"08","name":"Baden-Württemberg"}},{"name":"Sägadern","postalCode":"88630","locality":"Pfullendorf","municipality":{"key":"08437088","name":"Pfullendorf, Stadt","type":"Stadt"},"district":{"key":"08437","name":"Sigmaringen","type":"Landkreis"},"federalState":{"key":"08","name":"Baden-Württemberg"}},{"name":"Sägeweg","postalCode":"88630","locality":"Pfullendorf","municipality":{"key":"08437088","name":"Pfullendorf, Stadt","type":"Stadt"},"district":{"key":"08437","name":"Sigmaringen","type":"Landkreis"},"federalState":{"key":"08","name":"Baden-Württemberg"}},{"name":"Sahlenbach","postalCode":"88630","locality":"Pfullendorf","municipality":{"key":"08437088","name":"Pfullendorf, Stadt","type":"Stadt"},"district":{"key":"08437","name":"Sigmaringen","type":"Landkreis"},"federalState":{"key":"08","name":"Baden-Württemberg"}},{"name":"Sahlenbacher Str.","postalCode":"88630","locality":"Pfullendorf","municipality":{"key":"08437088","name":"Pfullendorf, Stadt","type":"Stadt"},"district":{"key":"08437","name":"Sigmaringen","type":"Landkreis"},"federalState":{"key":"08","name":"Baden-Württemberg"}},{"name":"Salzgasse","postalCode":"88630","locality":"Pfullendorf","municipality":{"key":"08437088","name":"Pfullendorf, Stadt","type":"Stadt"},"district":{"key":"08437","name":"Sigmaringen","type":"Landkreis"},"federalState":{"key":"08","name":"Baden-Württemberg"}},{"name":"Sankt Katharinenstr.","postalCode":"88630","locality":"Pfullendorf","municipality":{"key":"08437088","name":"Pfullendorf, Stadt","type":"Stadt"},"district":{"key":"08437","name":"Sigmaringen","type":"Landkreis"},"federalState":{"key":"08","name":"Baden-Württemberg"}},{"name":"Sankt Martinsplatz","postalCode":"88630","locality":"Pfullendorf","municipality":{"key":"08437088","name":"Pfullendorf, Stadt","type":"Stadt"},"district":{"key":"08437","name":"Sigmaringen","type":"Landkreis"},"federalState":{"key":"08","name":"Baden-Württemberg"}},{"name":"Schächergasse","postalCode":"88630","locality":"Pfullendorf","municipality":{"key":"08437088","name":"Pfullendorf, Stadt","type":"Stadt"},"district":{"key":"08437","name":"Sigmaringen","type":"Landkreis"},"federalState":{"key":"08","name":"Baden-Württemberg"}},{"name":"Schillerstr.","postalCode":"88630","locality":"Pfullendorf","municipality":{"key":"08437088","name":"Pfullendorf, Stadt","type":"Stadt"},"district":{"key":"08437","name":"Sigmaringen","type":"Landkreis"},"federalState":{"key":"08","name":"Baden-Württemberg"}},{"name":"Schloßgarten","postalCode":"88630","locality":"Pfullendorf","municipality":{"key":"08437088","name":"Pfullendorf, Stadt","type":"Stadt"},"district":{"key":"08437","name":"Sigmaringen","type":"Landkreis"},"federalState":{"key":"08","name":"Baden-Württemberg"}},{"name":"Schlosshalde","postalCode":"88630","locality":"Pfullendorf","municipality":{"key":"08437088","name":"Pfullendorf, Stadt","type":"Stadt"},"district":{"key":"08437","name":"Sigmaringen","type":"Landkreis"},"federalState":{"key":"08","name":"Baden-Württemberg"}},{"name":"Schmiedebühlstr.","postalCode":"88630","locality":"Pfullendorf","municipality":{"key":"08437088","name":"Pfullendorf, Stadt","type":"Stadt"},"district":{"key":"08437","name":"Sigmaringen","type":"Landkreis"},"federalState":{"key":"08","name":"Baden-Württemberg"}},{"name":"Schneiderweg","postalCode":"88630","locality":"Pfullendorf","municipality":{"key":"08437088","name":"Pfullendorf, Stadt","type":"Stadt"},"district":{"key":"08437","name":"Sigmaringen","type":"Landkreis"},"federalState":{"key":"08","name":"Baden-Württemberg"}},{"name":"Schobergasse","postalCode":"88630","locality":"Pfullendorf","municipality":{"key":"08437088","name":"Pfullendorf, Stadt","type":"Stadt"},"district":{"key":"08437","name":"Sigmaringen","type":"Landkreis"},"federalState":{"key":"08","name":"Baden-Württemberg"}},{"name":"Schubertstr.","postalCode":"88630","locality":"Pfullendorf","municipality":{"key":"08437088","name":"Pfullendorf, Stadt","type":"Stadt"},"district":{"key":"08437","name":"Sigmaringen","type":"Landkreis"},"federalState":{"key":"08","name":"Baden-Württemberg"}},{"name":"Schulstr.","postalCode":"88630","locality":"Pfullendorf","municipality":{"key":"08437088","name":"Pfullendorf, Stadt","type":"Stadt"},"district":{"key":"08437","name":"Sigmaringen","type":"Landkreis"},"federalState":{"key":"08","name":"Baden-Württemberg"}},{"name":"Schulweg","postalCode":"88630","locality":"Pfullendorf","municipality":{"key":"08437088","name":"Pfullendorf, Stadt","type":"Stadt"},"district":{"key":"08437","name":"Sigmaringen","type":"Landkreis"},"federalState":{"key":"08","name":"Baden-Württemberg"}},{"name":"Schwäblishauser Str.","postalCode":"88630","locality":"Pfullendorf","municipality":{"key":"08437088","name":"Pfullendorf, Stadt","type":"Stadt"},"district":{"key":"08437","name":"Sigmaringen","type":"Landkreis"},"federalState":{"key":"08","name":"Baden-Württemberg"}},{"name":"Sechslindensteige","postalCode":"88630","locality":"Pfullendorf","municipality":{"key":"08437088","name":"Pfullendorf, Stadt","type":"Stadt"},"district":{"key":"08437","name":"Sigmaringen","type":"Landkreis"},"federalState":{"key":"08","name":"Baden-Württemberg"}},{"name":"Sedel","postalCode":"88630","locality":"Pfullendorf","municipality":{"key":"08437088","name":"Pfullendorf, Stadt","type":"Stadt"},"district":{"key":"08437","name":"Sigmaringen","type":"Landkreis"},"federalState":{"key":"08","name":"Baden-Württemberg"}},{"name":"Seelhofgasse","postalCode":"88630","locality":"Pfullendorf","municipality":{"key":"08437088","name":"Pfullendorf, Stadt","type":"Stadt"},"district":{"key":"08437","name":"Sigmaringen","type":"Landkreis"},"federalState":{"key":"08","name":"Baden-Württemberg"}},{"name":"Sigmaringer Str.","postalCode":"88630","locality":"Pfullendorf","municipality":{"key":"08437088","name":"Pfullendorf, Stadt","type":"Stadt"},"district":{"key":"08437","name":"Sigmaringen","type":"Landkreis"},"federalState":{"key":"08","name":"Baden-Württemberg"}},{"name":"Sigurd-Lange-Weg","postalCode":"88630","locality":"Pfullendorf","municipality":{"key":"08437088","name":"Pfullendorf, Stadt","type":"Stadt"},"district":{"key":"08437","name":"Sigmaringen","type":"Landkreis"},"federalState":{"key":"08","name":"Baden-Württemberg"}},{"name":"Sonnenhalde","postalCode":"88630","locality":"Pfullendorf","municipality":{"key":"08437088","name":"Pfullendorf, Stadt","type":"Stadt"},"district":{"key":"08437","name":"Sigmaringen","type":"Landkreis"},"federalState":{"key":"08","name":"Baden-Württemberg"}},{"name":"Sonnenrain","postalCode":"88630","locality":"Pfullendorf","municipality":{"key":"08437088","name":"Pfullendorf, Stadt","type":"Stadt"},"district":{"key":"08437","name":"Sigmaringen","type":"Landkreis"},"federalState":{"key":"08","name":"Baden-Württemberg"}},{"name":"Stadtgarten","postalCode":"88630","locality":"Pfullendorf","municipality":{"key":"08437088","name":"Pfullendorf, Stadt","type":"Stadt"},"district":{"key":"08437","name":"Sigmaringen","type":"Landkreis"},"federalState":{"key":"08","name":"Baden-Württemberg"}},{"name":"Stadtpark","postalCode":"88630","locality":"Pfullendorf","municipality":{"key":"08437088","name":"Pfullendorf, Stadt","type":"Stadt"},"district":{"key":"08437","name":"Sigmaringen","type":"Landkreis"},"federalState":{"key":"08","name":"Baden-Württemberg"}},{"name":"Steingrube","postalCode":"88630","locality":"Pfullendorf","municipality":{"key":"08437088","name":"Pfullendorf, Stadt","type":"Stadt"},"district":{"key":"08437","name":"Sigmaringen","type":"Landkreis"},"federalState":{"key":"08","name":"Baden-Württemberg"}},{"name":"Steinweg","postalCode":"88630","locality":"Pfullendorf","municipality":{"key":"08437088","name":"Pfullendorf, Stadt","type":"Stadt"},"district":{"key":"08437","name":"Sigmaringen","type":"Landkreis"},"federalState":{"key":"08","name":"Baden-Württemberg"}},{"name":"Stelzacker","postalCode":"88630","locality":"Pfullendorf","municipality":{"key":"08437088","name":"Pfullendorf, Stadt","type":"Stadt"},"district":{"key":"08437","name":"Sigmaringen","type":"Landkreis"},"federalState":{"key":"08","name":"Baden-Württemberg"}},{"name":"Sternenbühl","postalCode":"88630","locality":"Pfullendorf","municipality":{"key":"08437088","name":"Pfullendorf, Stadt","type":"Stadt"},"district":{"key":"08437","name":"Sigmaringen","type":"Landkreis"},"federalState":{"key":"08","name":"Baden-Württemberg"}},{"name":"St.-Martin-Str.","postalCode":"88630","locality":"Pfullendorf","municipality":{"key":"08437088","name":"Pfullendorf, Stadt","type":"Stadt"},"district":{"key":"08437","name":"Sigmaringen","type":"Landkreis"},"federalState":{"key":"08","name":"Baden-Württemberg"}},{"name":"Stockacher Str.","postalCode":"88630","locality":"Pfullendorf","municipality":{"key":"08437088","name":"Pfullendorf, Stadt","type":"Stadt"},"district":{"key":"08437","name":"Sigmaringen","type":"Landkreis"},"federalState":{"key":"08","name":"Baden-Württemberg"}},{"name":"StOÜbPl Pfullendorf","postalCode":"88630","locality":"Pfullendorf","municipality":{"key":"08437088","name":"Pfullendorf, Stadt","type":"Stadt"},"district":{"key":"08437","name":"Sigmaringen","type":"Landkreis"},"federalState":{"key":"08","name":"Baden-Württemberg"}},{"name":"StOÜPl Pfullendorf","postalCode":"88630","locality":"Pfullendorf","municipality":{"key":"08437088","name":"Pfullendorf, Stadt","type":"Stadt"},"district":{"key":"08437","name":"Sigmaringen","type":"Landkreis"},"federalState":{"key":"08","name":"Baden-Württemberg"}},{"name":"Straß","postalCode":"88630","locality":"Pfullendorf","municipality":{"key":"08437088","name":"Pfullendorf, Stadt","type":"Stadt"},"district":{"key":"08437","name":"Sigmaringen","type":"Landkreis"},"federalState":{"key":"08","name":"Baden-Württemberg"}},{"name":"Strittmatterstr.","postalCode":"88630","locality":"Pfullendorf","municipality":{"key":"08437088","name":"Pfullendorf, Stadt","type":"Stadt"},"district":{"key":"08437","name":"Sigmaringen","type":"Landkreis"},"federalState":{"key":"08","name":"Baden-Württemberg"}},{"name":"Sylvenstal","postalCode":"88630","locality":"Pfullendorf","municipality":{"key":"08437088","name":"Pfullendorf, Stadt","type":"Stadt"},"district":{"key":"08437","name":"Sigmaringen","type":"Landkreis"},"federalState":{"key":"08","name":"Baden-Württemberg"}},{"name":"Tannenburgweg","postalCode":"88630","locality":"Pfullendorf","municipality":{"key":"08437088","name":"Pfullendorf, Stadt","type":"Stadt"},"district":{"key":"08437","name":"Sigmaringen","type":"Landkreis"},"federalState":{"key":"08","name":"Baden-Württemberg"}},{"name":"Theuerbach","postalCode":"88630","locality":"Pfullendorf","municipality":{"key":"08437088","name":"Pfullendorf, Stadt","type":"Stadt"},"district":{"key":"08437","name":"Sigmaringen","type":"Landkreis"},"federalState":{"key":"08","name":"Baden-Württemberg"}},{"name":"Tobelweg","postalCode":"88630","locality":"Pfullendorf","municipality":{"key":"08437088","name":"Pfullendorf, Stadt","type":"Stadt"},"district":{"key":"08437","name":"Sigmaringen","type":"Landkreis"},"federalState":{"key":"08","name":"Baden-Württemberg"}},{"name":"Tulpenstr.","postalCode":"88630","locality":"Pfullendorf","municipality":{"key":"08437088","name":"Pfullendorf, Stadt","type":"Stadt"},"district":{"key":"08437","name":"Sigmaringen","type":"Landkreis"},"federalState":{"key":"08","name":"Baden-Württemberg"}},{"name":"Tummelhaus","postalCode":"88630","locality":"Pfullendorf","municipality":{"key":"08437088","name":"Pfullendorf, Stadt","type":"Stadt"},"district":{"key":"08437","name":"Sigmaringen","type":"Landkreis"},"federalState":{"key":"08","name":"Baden-Württemberg"}},{"name":"Uhlandstr.","postalCode":"88630","locality":"Pfullendorf","municipality":{"key":"08437088","name":"Pfullendorf, Stadt","type":"Stadt"},"district":{"key":"08437","name":"Sigmaringen","type":"Landkreis"},"federalState":{"key":"08","name":"Baden-Württemberg"}},{"name":"Ulrichstr.","postalCode":"88630","locality":"Pfullendorf","municipality":{"key":"08437088","name":"Pfullendorf, Stadt","type":"Stadt"},"district":{"key":"08437","name":"Sigmaringen","type":"Landkreis"},"federalState":{"key":"08","name":"Baden-Württemberg"}},{"name":"Ursula-Kley-Weg","postalCode":"88630","locality":"Pfullendorf","municipality":{"key":"08437088","name":"Pfullendorf, Stadt","type":"Stadt"},"district":{"key":"08437","name":"Sigmaringen","type":"Landkreis"},"federalState":{"key":"08","name":"Baden-Württemberg"}},{"name":"Uttengasse","postalCode":"88630","locality":"Pfullendorf","municipality":{"key":"08437088","name":"Pfullendorf, Stadt","type":"Stadt"},"district":{"key":"08437","name":"Sigmaringen","type":"Landkreis"},"federalState":{"key":"08","name":"Baden-Württemberg"}},{"name":"Vogelsang","postalCode":"88630","locality":"Pfullendorf","municipality":{"key":"08437088","name":"Pfullendorf, Stadt","type":"Stadt"},"district":{"key":"08437","name":"Sigmaringen","type":"Landkreis"},"federalState":{"key":"08","name":"Baden-Württemberg"}},{"name":"Vorderberg","postalCode":"88630","locality":"Pfullendorf","municipality":{"key":"08437088","name":"Pfullendorf, Stadt","type":"Stadt"},"district":{"key":"08437","name":"Sigmaringen","type":"Landkreis"},"federalState":{"key":"08","name":"Baden-Württemberg"}},{"name":"Wacker Neuson Str.","postalCode":"88630","locality":"Pfullendorf","municipality":{"key":"08437088","name":"Pfullendorf, Stadt","type":"Stadt"},"district":{"key":"08437","name":"Sigmaringen","type":"Landkreis"},"federalState":{"key":"08","name":"Baden-Württemberg"}},{"name":"Wagnerstr.","postalCode":"88630","locality":"Pfullendorf","municipality":{"key":"08437088","name":"Pfullendorf, Stadt","type":"Stadt"},"district":{"key":"08437","name":"Sigmaringen","type":"Landkreis"},"federalState":{"key":"08","name":"Baden-Württemberg"}},{"name":"Wahlwiese","postalCode":"88630","locality":"Pfullendorf","municipality":{"key":"08437088","name":"Pfullendorf, Stadt","type":"Stadt"},"district":{"key":"08437","name":"Sigmaringen","type":"Landkreis"},"federalState":{"key":"08","name":"Baden-Württemberg"}},{"name":"Walder Str.","postalCode":"88630","locality":"Pfullendorf","municipality":{"key":"08437088","name":"Pfullendorf, Stadt","type":"Stadt"},"district":{"key":"08437","name":"Sigmaringen","type":"Landkreis"},"federalState":{"key":"08","name":"Baden-Württemberg"}},{"name":"Wattenreute","postalCode":"88630","locality":"Pfullendorf","municipality":{"key":"08437088","name":"Pfullendorf, Stadt","type":"Stadt"},"district":{"key":"08437","name":"Sigmaringen","type":"Landkreis"},"federalState":{"key":"08","name":"Baden-Württemberg"}},{"name":"Webergasse","postalCode":"88630","locality":"Pfullendorf","municipality":{"key":"08437088","name":"Pfullendorf, Stadt","type":"Stadt"},"district":{"key":"08437","name":"Sigmaringen","type":"Landkreis"},"federalState":{"key":"08","name":"Baden-Württemberg"}},{"name":"Weidenstr.","postalCode":"88630","locality":"Pfullendorf","municipality":{"key":"08437088","name":"Pfullendorf, Stadt","type":"Stadt"},"district":{"key":"08437","name":"Sigmaringen","type":"Landkreis"},"federalState":{"key":"08","name":"Baden-Württemberg"}},{"name":"Weihwang","postalCode":"88630","locality":"Pfullendorf","municipality":{"key":"08437088","name":"Pfullendorf, Stadt","type":"Stadt"},"district":{"key":"08437","name":"Sigmaringen","type":"Landkreis"},"federalState":{"key":"08","name":"Baden-Württemberg"}},{"name":"Weihwanger Str.","postalCode":"88630","locality":"Pfullendorf","municipality":{"key":"08437088","name":"Pfullendorf, Stadt","type":"Stadt"},"district":{"key":"08437","name":"Sigmaringen","type":"Landkreis"},"federalState":{"key":"08","name":"Baden-Württemberg"}},{"name":"Weißochsengasse","postalCode":"88630","locality":"Pfullendorf","municipality":{"key":"08437088","name":"Pfullendorf, Stadt","type":"Stadt"},"district":{"key":"08437","name":"Sigmaringen","type":"Landkreis"},"federalState":{"key":"08","name":"Baden-Württemberg"}},{"name":"Weithartstr.","postalCode":"88630","locality":"Pfullendorf","municipality":{"key":"08437088","name":"Pfullendorf, Stadt","type":"Stadt"},"district":{"key":"08437","name":"Sigmaringen","type":"Landkreis"},"federalState":{"key":"08","name":"Baden-Württemberg"}},{"name":"Willi-Nusser-Str.","postalCode":"88630","locality":"Pfullendorf","municipality":{"key":"08437088","name":"Pfullendorf, Stadt","type":"Stadt"},"district":{"key":"08437","name":"Sigmaringen","type":"Landkreis"},"federalState":{"key":"08","name":"Baden-Württemberg"}},{"name":"Winkelgasse","postalCode":"88630","locality":"Pfullendorf","municipality":{"key":"08437088","name":"Pfullendorf, Stadt","type":"Stadt"},"district":{"key":"08437","name":"Sigmaringen","type":"Landkreis"},"federalState":{"key":"08","name":"Baden-Württemberg"}},{"name":"Wolfacker","postalCode":"88630","locality":"Pfullendorf","municipality":{"key":"08437088","name":"Pfullendorf, Stadt","type":"Stadt"},"district":{"key":"08437","name":"Sigmaringen","type":"Landkreis"},"federalState":{"key":"08","name":"Baden-Württemberg"}},{"name":"Zeller Str.","postalCode":"88630","locality":"Pfullendorf","municipality":{"key":"08437088","name":"Pfullendorf, Stadt","type":"Stadt"},"district":{"key":"08437","name":"Sigmaringen","type":"Landkreis"},"federalState":{"key":"08","name":"Baden-Württemberg"}},{"name":"ZG-Str.","postalCode":"88630","locality":"Pfullendorf","municipality":{"key":"08437088","name":"Pfullendorf, Stadt","type":"Stadt"},"district":{"key":"08437","name":"Sigmaringen","type":"Landkreis"},"federalState":{"key":"08","name":"Baden-Württemberg"}},{"name":"Ziegelrain","postalCode":"88630","locality":"Pfullendorf","municipality":{"key":"08437088","name":"Pfullendorf, Stadt","type":"Stadt"},"district":{"key":"08437","name":"Sigmaringen","type":"Landkreis"},"federalState":{"key":"08","name":"Baden-Württemberg"}},{"name":"Zufahrt Kieswerk","postalCode":"88630","locality":"Pfullendorf","municipality":{"key":"08437088","name":"Pfullendorf, Stadt","type":"Stadt"},"district":{"key":"08437","name":"Sigmaringen","type":"Landkreis"},"federalState":{"key":"08","name":"Baden-Württemberg"}},{"name":"Zum Eichberg","postalCode":"88630","locality":"Pfullendorf","municipality":{"key":"08437088","name":"Pfullendorf, Stadt","type":"Stadt"},"district":{"key":"08437","name":"Sigmaringen","type":"Landkreis"},"federalState":{"key":"08","name":"Baden-Württemberg"}},{"name":"Zum Kiesweiher","postalCode":"88630","locality":"Pfullendorf","municipality":{"key":"08437088","name":"Pfullendorf, Stadt","type":"Stadt"},"district":{"key":"08437","name":"Sigmaringen","type":"Landkreis"},"federalState":{"key":"08","name":"Baden-Württemberg"}},{"name":"Zum Neidling","postalCode":"88630","locality":"Pfullendorf","municipality":{"key":"08437088","name":"Pfullendorf, Stadt","type":"Stadt"},"district":{"key":"08437","name":"Sigmaringen","type":"Landkreis"},"federalState":{"key":"08","name":"Baden-Württemberg"}},{"name":"Zur Wolfsgrube","postalCode":"88630","locality":"Pfullendorf","municipality":{"key":"08437088","name":"Pfullendorf, Stadt","type":"Stadt"},"district":{"key":"08437","name":"Sigmaringen","type":"Landkreis"},"federalState":{"key":"08","name":"Baden-Württemberg"}},{"name":"Äußerer Mühlweg","postalCode":"88630","locality":"Pfullendorf","municipality":{"key":"08437088","name":"Pfullendorf, Stadt","type":"Stadt"},"district":{"key":"08437","name":"Sigmaringen","type":"Landkreis"},"federalState":{"key":"08","name":"Baden-Württemberg"}},{"name":"Äußeres Härle","postalCode":"88630","locality":"Pfullendorf","municipality":{"key":"08437088","name":"Pfullendorf, Stadt","type":"Stadt"},"district":{"key":"08437","name":"Sigmaringen","type":"Landkreis"},"federalState":{"key":"08","name":"Baden-Württemberg"}},{"name":"Öhmdwiese","postalCode":"88630","locality":"Pfullendorf","municipality":{"key":"08437088","name":"Pfullendorf, Stadt","type":"Stadt"},"district":{"key":"08437","name":"Sigmaringen","type":"Landkreis"},"federalState":{"key":"08","name":"Baden-Württemberg"}},{"name":"Ölbergstr.","postalCode":"88630","locality":"Pfullendorf","municipality":{"key":"08437088","name":"Pfullendorf, Stadt","type":"Stadt"},"district":{"key":"08437","name":"Sigmaringen","type":"Landkreis"},"federalState":{"key":"08","name":"Baden-Württemberg"}},{"name":"Öschleweg","postalCode":"88630","locality":"Pfullendorf","municipality":{"key":"08437088","name":"Pfullendorf, Stadt","type":"Stadt"},"district":{"key":"08437","name":"Sigmaringen","type":"Landkreis"},"federalState":{"key":"08","name":"Baden-Württemberg"}},{"name":"Öschweg","postalCode":"88630","locality":"Pfullendorf","municipality":{"key":"08437088","name":"Pfullendorf, Stadt","type":"Stadt"},"district":{"key":"08437","name":"Sigmaringen","type":"Landkreis"},"federalState":{"key":"08","name":"Baden-Württemberg"}},{"name":"Überlinger Str.","postalCode":"88630","locality":"Pfullendorf","municipality":{"key":"08437088","name":"Pfullendorf, Stadt","type":"Stadt"},"district":{"key":"08437","name":"Sigmaringen","type":"Landkreis"},"federalState":{"key":"08","name":"Baden-Württemberg"}},]