[{"name":"Bergstr.","postalCode":"56459","locality":"Stahlhofen am Wiesensee","municipality":{"key":"07143293","name":"Stahlhofen am Wiesensee","type":"Kreisangehörige_Gemeinde"},"district":{"key":"07143","name":"Westerwaldkreis","type":"Landkreis"},"federalState":{"key":"07","name":"Rheinland-Pfalz"}},{"name":"Borngass","postalCode":"56459","locality":"Stahlhofen am Wiesensee","municipality":{"key":"07143293","name":"Stahlhofen am Wiesensee","type":"Kreisangehörige_Gemeinde"},"district":{"key":"07143","name":"Westerwaldkreis","type":"Landkreis"},"federalState":{"key":"07","name":"Rheinland-Pfalz"}},{"name":"Buchenweg","postalCode":"56459","locality":"Stahlhofen am Wiesensee","municipality":{"key":"07143293","name":"Stahlhofen am Wiesensee","type":"Kreisangehörige_Gemeinde"},"district":{"key":"07143","name":"Westerwaldkreis","type":"Landkreis"},"federalState":{"key":"07","name":"Rheinland-Pfalz"}},{"name":"Dorfstr.","postalCode":"56459","locality":"Stahlhofen am Wiesensee","municipality":{"key":"07143293","name":"Stahlhofen am Wiesensee","type":"Kreisangehörige_Gemeinde"},"district":{"key":"07143","name":"Westerwaldkreis","type":"Landkreis"},"federalState":{"key":"07","name":"Rheinland-Pfalz"}},{"name":"Erwin-Bensing-Allee","postalCode":"56459","locality":"Stahlhofen am Wiesensee","municipality":{"key":"07143293","name":"Stahlhofen am Wiesensee","type":"Kreisangehörige_Gemeinde"},"district":{"key":"07143","name":"Westerwaldkreis","type":"Landkreis"},"federalState":{"key":"07","name":"Rheinland-Pfalz"}},{"name":"Gartenstr.","postalCode":"56459","locality":"Stahlhofen am Wiesensee","municipality":{"key":"07143293","name":"Stahlhofen am Wiesensee","type":"Kreisangehörige_Gemeinde"},"district":{"key":"07143","name":"Westerwaldkreis","type":"Landkreis"},"federalState":{"key":"07","name":"Rheinland-Pfalz"}},{"name":"Hauptstr.","postalCode":"56459","locality":"Stahlhofen am Wiesensee","municipality":{"key":"07143293","name":"Stahlhofen am Wiesensee","type":"Kreisangehörige_Gemeinde"},"district":{"key":"07143","name":"Westerwaldkreis","type":"Landkreis"},"federalState":{"key":"07","name":"Rheinland-Pfalz"}},{"name":"Im Wiesengrund","postalCode":"56459","locality":"Stahlhofen am Wiesensee","municipality":{"key":"07143293","name":"Stahlhofen am Wiesensee","type":"Kreisangehörige_Gemeinde"},"district":{"key":"07143","name":"Westerwaldkreis","type":"Landkreis"},"federalState":{"key":"07","name":"Rheinland-Pfalz"}},{"name":"Oellinger Str.","postalCode":"56459","locality":"Stahlhofen am Wiesensee","municipality":{"key":"07143293","name":"Stahlhofen am Wiesensee","type":"Kreisangehörige_Gemeinde"},"district":{"key":"07143","name":"Westerwaldkreis","type":"Landkreis"},"federalState":{"key":"07","name":"Rheinland-Pfalz"}},{"name":"Parkstr.","postalCode":"56459","locality":"Stahlhofen am Wiesensee","municipality":{"key":"07143293","name":"Stahlhofen am Wiesensee","type":"Kreisangehörige_Gemeinde"},"district":{"key":"07143","name":"Westerwaldkreis","type":"Landkreis"},"federalState":{"key":"07","name":"Rheinland-Pfalz"}},{"name":"Ringstr.","postalCode":"56459","locality":"Stahlhofen am Wiesensee","municipality":{"key":"07143293","name":"Stahlhofen am Wiesensee","type":"Kreisangehörige_Gemeinde"},"district":{"key":"07143","name":"Westerwaldkreis","type":"Landkreis"},"federalState":{"key":"07","name":"Rheinland-Pfalz"}},{"name":"Seestr.","postalCode":"56459","locality":"Stahlhofen am Wiesensee","municipality":{"key":"07143293","name":"Stahlhofen am Wiesensee","type":"Kreisangehörige_Gemeinde"},"district":{"key":"07143","name":"Westerwaldkreis","type":"Landkreis"},"federalState":{"key":"07","name":"Rheinland-Pfalz"}},{"name":"Sonnenstr.","postalCode":"56459","locality":"Stahlhofen am Wiesensee","municipality":{"key":"07143293","name":"Stahlhofen am Wiesensee","type":"Kreisangehörige_Gemeinde"},"district":{"key":"07143","name":"Westerwaldkreis","type":"Landkreis"},"federalState":{"key":"07","name":"Rheinland-Pfalz"}},{"name":"Waldstr.","postalCode":"56459","locality":"Stahlhofen am Wiesensee","municipality":{"key":"07143293","name":"Stahlhofen am Wiesensee","type":"Kreisangehörige_Gemeinde"},"district":{"key":"07143","name":"Westerwaldkreis","type":"Landkreis"},"federalState":{"key":"07","name":"Rheinland-Pfalz"}},]