[{"name":"Am Goosberg","postalCode":"24340","locality":"Gammelby","municipality":{"key":"01058057","name":"Gammelby","type":"Kreisangehörige_Gemeinde"},"district":{"key":"01058","name":"Rendsburg-Eckernförde","type":"Kreis"},"federalState":{"key":"01","name":"Schleswig-Holstein"}},{"name":"Am Kirchenweg","postalCode":"24340","locality":"Gammelby","municipality":{"key":"01058057","name":"Gammelby","type":"Kreisangehörige_Gemeinde"},"district":{"key":"01058","name":"Rendsburg-Eckernförde","type":"Kreis"},"federalState":{"key":"01","name":"Schleswig-Holstein"}},{"name":"An der Au","postalCode":"24340","locality":"Gammelby","municipality":{"key":"01058057","name":"Gammelby","type":"Kreisangehörige_Gemeinde"},"district":{"key":"01058","name":"Rendsburg-Eckernförde","type":"Kreis"},"federalState":{"key":"01","name":"Schleswig-Holstein"}},{"name":"An der Bundesstr.","postalCode":"24340","locality":"Gammelby","municipality":{"key":"01058057","name":"Gammelby","type":"Kreisangehörige_Gemeinde"},"district":{"key":"01058","name":"Rendsburg-Eckernförde","type":"Kreis"},"federalState":{"key":"01","name":"Schleswig-Holstein"}},{"name":"Bergstr.","postalCode":"24340","locality":"Gammelby","municipality":{"key":"01058057","name":"Gammelby","type":"Kreisangehörige_Gemeinde"},"district":{"key":"01058","name":"Rendsburg-Eckernförde","type":"Kreis"},"federalState":{"key":"01","name":"Schleswig-Holstein"}},{"name":"Birkenweg","postalCode":"24340","locality":"Gammelby","municipality":{"key":"01058057","name":"Gammelby","type":"Kreisangehörige_Gemeinde"},"district":{"key":"01058","name":"Rendsburg-Eckernförde","type":"Kreis"},"federalState":{"key":"01","name":"Schleswig-Holstein"}},{"name":"Dorfstr.","postalCode":"24340","locality":"Gammelby","municipality":{"key":"01058057","name":"Gammelby","type":"Kreisangehörige_Gemeinde"},"district":{"key":"01058","name":"Rendsburg-Eckernförde","type":"Kreis"},"federalState":{"key":"01","name":"Schleswig-Holstein"}},{"name":"Feldweg","postalCode":"24340","locality":"Gammelby","municipality":{"key":"01058057","name":"Gammelby","type":"Kreisangehörige_Gemeinde"},"district":{"key":"01058","name":"Rendsburg-Eckernförde","type":"Kreis"},"federalState":{"key":"01","name":"Schleswig-Holstein"}},{"name":"Flintberg","postalCode":"24340","locality":"Gammelby","municipality":{"key":"01058057","name":"Gammelby","type":"Kreisangehörige_Gemeinde"},"district":{"key":"01058","name":"Rendsburg-Eckernförde","type":"Kreis"},"federalState":{"key":"01","name":"Schleswig-Holstein"}},{"name":"Kummel","postalCode":"24340","locality":"Gammelby","municipality":{"key":"01058057","name":"Gammelby","type":"Kreisangehörige_Gemeinde"},"district":{"key":"01058","name":"Rendsburg-Eckernförde","type":"Kreis"},"federalState":{"key":"01","name":"Schleswig-Holstein"}},{"name":"Rögener Weg","postalCode":"24340","locality":"Gammelby","municipality":{"key":"01058057","name":"Gammelby","type":"Kreisangehörige_Gemeinde"},"district":{"key":"01058","name":"Rendsburg-Eckernförde","type":"Kreis"},"federalState":{"key":"01","name":"Schleswig-Holstein"}},]