[{"name":"Achtstauden Schneise","postalCode":"65479","locality":"Raunheim","municipality":{"key":"06433010","name":"Raunheim, Stadt","type":"Stadt"},"district":{"key":"06433","name":"Groß-Gerau","type":"Landkreis"},"federalState":{"key":"06","name":"Hessen"}},{"name":"Adalbert-Stifter-Str.","postalCode":"65479","locality":"Raunheim","municipality":{"key":"06433010","name":"Raunheim, Stadt","type":"Stadt"},"district":{"key":"06433","name":"Groß-Gerau","type":"Landkreis"},"federalState":{"key":"06","name":"Hessen"}},{"name":"Ahornweg","postalCode":"65479","locality":"Raunheim","municipality":{"key":"06433010","name":"Raunheim, Stadt","type":"Stadt"},"district":{"key":"06433","name":"Groß-Gerau","type":"Landkreis"},"federalState":{"key":"06","name":"Hessen"}},{"name":"Akazienweg","postalCode":"65479","locality":"Raunheim","municipality":{"key":"06433010","name":"Raunheim, Stadt","type":"Stadt"},"district":{"key":"06433","name":"Groß-Gerau","type":"Landkreis"},"federalState":{"key":"06","name":"Hessen"}},{"name":"Albert-Schweitzer-Str.","postalCode":"65479","locality":"Raunheim","municipality":{"key":"06433010","name":"Raunheim, Stadt","type":"Stadt"},"district":{"key":"06433","name":"Groß-Gerau","type":"Landkreis"},"federalState":{"key":"06","name":"Hessen"}},{"name":"Alexander-von-Humboldt-Str.","postalCode":"65479","locality":"Raunheim","municipality":{"key":"06433010","name":"Raunheim, Stadt","type":"Stadt"},"district":{"key":"06433","name":"Groß-Gerau","type":"Landkreis"},"federalState":{"key":"06","name":"Hessen"}},{"name":"Alfred-Delp-Kreisel","postalCode":"65479","locality":"Raunheim","municipality":{"key":"06433010","name":"Raunheim, Stadt","type":"Stadt"},"district":{"key":"06433","name":"Groß-Gerau","type":"Landkreis"},"federalState":{"key":"06","name":"Hessen"}},{"name":"Am Börnchen","postalCode":"65479","locality":"Raunheim","municipality":{"key":"06433010","name":"Raunheim, Stadt","type":"Stadt"},"district":{"key":"06433","name":"Groß-Gerau","type":"Landkreis"},"federalState":{"key":"06","name":"Hessen"}},{"name":"Am Messeplatz","postalCode":"65479","locality":"Raunheim","municipality":{"key":"06433010","name":"Raunheim, Stadt","type":"Stadt"},"district":{"key":"06433","name":"Groß-Gerau","type":"Landkreis"},"federalState":{"key":"06","name":"Hessen"}},{"name":"Am Prime-Parc","postalCode":"65479","locality":"Raunheim","municipality":{"key":"06433010","name":"Raunheim, Stadt","type":"Stadt"},"district":{"key":"06433","name":"Groß-Gerau","type":"Landkreis"},"federalState":{"key":"06","name":"Hessen"}},{"name":"Am Ried","postalCode":"65479","locality":"Raunheim","municipality":{"key":"06433010","name":"Raunheim, Stadt","type":"Stadt"},"district":{"key":"06433","name":"Groß-Gerau","type":"Landkreis"},"federalState":{"key":"06","name":"Hessen"}},{"name":"Am Schifferstück","postalCode":"65479","locality":"Raunheim","municipality":{"key":"06433010","name":"Raunheim, Stadt","type":"Stadt"},"district":{"key":"06433","name":"Groß-Gerau","type":"Landkreis"},"federalState":{"key":"06","name":"Hessen"}},{"name":"Amselweg","postalCode":"65479","locality":"Raunheim","municipality":{"key":"06433010","name":"Raunheim, Stadt","type":"Stadt"},"district":{"key":"06433","name":"Groß-Gerau","type":"Landkreis"},"federalState":{"key":"06","name":"Hessen"}},{"name":"Am Waldblick","postalCode":"65479","locality":"Raunheim","municipality":{"key":"06433010","name":"Raunheim, Stadt","type":"Stadt"},"district":{"key":"06433","name":"Groß-Gerau","type":"Landkreis"},"federalState":{"key":"06","name":"Hessen"}},{"name":"An der Bahn","postalCode":"65479","locality":"Raunheim","municipality":{"key":"06433010","name":"Raunheim, Stadt","type":"Stadt"},"district":{"key":"06433","name":"Groß-Gerau","type":"Landkreis"},"federalState":{"key":"06","name":"Hessen"}},{"name":"An der Lache","postalCode":"65479","locality":"Raunheim","municipality":{"key":"06433010","name":"Raunheim, Stadt","type":"Stadt"},"district":{"key":"06433","name":"Groß-Gerau","type":"Landkreis"},"federalState":{"key":"06","name":"Hessen"}},{"name":"Anton-Flettner-Str.","postalCode":"65479","locality":"Raunheim","municipality":{"key":"06433010","name":"Raunheim, Stadt","type":"Stadt"},"district":{"key":"06433","name":"Groß-Gerau","type":"Landkreis"},"federalState":{"key":"06","name":"Hessen"}},{"name":"Aschaffenburger Str.","postalCode":"65479","locality":"Raunheim","municipality":{"key":"06433010","name":"Raunheim, Stadt","type":"Stadt"},"district":{"key":"06433","name":"Groß-Gerau","type":"Landkreis"},"federalState":{"key":"06","name":"Hessen"}},{"name":"Asternweg","postalCode":"65479","locality":"Raunheim","municipality":{"key":"06433010","name":"Raunheim, Stadt","type":"Stadt"},"district":{"key":"06433","name":"Groß-Gerau","type":"Landkreis"},"federalState":{"key":"06","name":"Hessen"}},{"name":"Auf dem Weiherchen","postalCode":"65479","locality":"Raunheim","municipality":{"key":"06433010","name":"Raunheim, Stadt","type":"Stadt"},"district":{"key":"06433","name":"Groß-Gerau","type":"Landkreis"},"federalState":{"key":"06","name":"Hessen"}},{"name":"August-Bebel-Str.","postalCode":"65479","locality":"Raunheim","municipality":{"key":"06433010","name":"Raunheim, Stadt","type":"Stadt"},"district":{"key":"06433","name":"Groß-Gerau","type":"Landkreis"},"federalState":{"key":"06","name":"Hessen"}},{"name":"Aussiger Str.","postalCode":"65479","locality":"Raunheim","municipality":{"key":"06433010","name":"Raunheim, Stadt","type":"Stadt"},"district":{"key":"06433","name":"Groß-Gerau","type":"Landkreis"},"federalState":{"key":"06","name":"Hessen"}},{"name":"Bahnhofstr.","postalCode":"65479","locality":"Raunheim","municipality":{"key":"06433010","name":"Raunheim, Stadt","type":"Stadt"},"district":{"key":"06433","name":"Groß-Gerau","type":"Landkreis"},"federalState":{"key":"06","name":"Hessen"}},{"name":"Birkenschneise","postalCode":"65479","locality":"Raunheim","municipality":{"key":"06433010","name":"Raunheim, Stadt","type":"Stadt"},"district":{"key":"06433","name":"Groß-Gerau","type":"Landkreis"},"federalState":{"key":"06","name":"Hessen"}},{"name":"Bleichstr.","postalCode":"65479","locality":"Raunheim","municipality":{"key":"06433010","name":"Raunheim, Stadt","type":"Stadt"},"district":{"key":"06433","name":"Groß-Gerau","type":"Landkreis"},"federalState":{"key":"06","name":"Hessen"}},{"name":"Breslauer Str.","postalCode":"65479","locality":"Raunheim","municipality":{"key":"06433010","name":"Raunheim, Stadt","type":"Stadt"},"district":{"key":"06433","name":"Groß-Gerau","type":"Landkreis"},"federalState":{"key":"06","name":"Hessen"}},{"name":"Buchenweg","postalCode":"65479","locality":"Raunheim","municipality":{"key":"06433010","name":"Raunheim, Stadt","type":"Stadt"},"district":{"key":"06433","name":"Groß-Gerau","type":"Landkreis"},"federalState":{"key":"06","name":"Hessen"}},{"name":"Büchnerplatz","postalCode":"65479","locality":"Raunheim","municipality":{"key":"06433010","name":"Raunheim, Stadt","type":"Stadt"},"district":{"key":"06433","name":"Groß-Gerau","type":"Landkreis"},"federalState":{"key":"06","name":"Hessen"}},{"name":"Carl-von-Ossietzky-Str.","postalCode":"65479","locality":"Raunheim","municipality":{"key":"06433010","name":"Raunheim, Stadt","type":"Stadt"},"district":{"key":"06433","name":"Groß-Gerau","type":"Landkreis"},"federalState":{"key":"06","name":"Hessen"}},{"name":"Carl-Zuckmayer-Weg","postalCode":"65479","locality":"Raunheim","municipality":{"key":"06433010","name":"Raunheim, Stadt","type":"Stadt"},"district":{"key":"06433","name":"Groß-Gerau","type":"Landkreis"},"federalState":{"key":"06","name":"Hessen"}},{"name":"Christoph-Kolumbus-Str.","postalCode":"65479","locality":"Raunheim","municipality":{"key":"06433010","name":"Raunheim, Stadt","type":"Stadt"},"district":{"key":"06433","name":"Groß-Gerau","type":"Landkreis"},"federalState":{"key":"06","name":"Hessen"}},{"name":"Christoph-Probst-Kreisel","postalCode":"65479","locality":"Raunheim","municipality":{"key":"06433010","name":"Raunheim, Stadt","type":"Stadt"},"district":{"key":"06433","name":"Groß-Gerau","type":"Landkreis"},"federalState":{"key":"06","name":"Hessen"}},{"name":"Dachsbauschneise","postalCode":"65479","locality":"Raunheim","municipality":{"key":"06433010","name":"Raunheim, Stadt","type":"Stadt"},"district":{"key":"06433","name":"Groß-Gerau","type":"Landkreis"},"federalState":{"key":"06","name":"Hessen"}},{"name":"Diebspfadschneise","postalCode":"65479","locality":"Raunheim","municipality":{"key":"06433010","name":"Raunheim, Stadt","type":"Stadt"},"district":{"key":"06433","name":"Groß-Gerau","type":"Landkreis"},"federalState":{"key":"06","name":"Hessen"}},{"name":"Dietrich-Bonhoeffer-Kreisel","postalCode":"65479","locality":"Raunheim","municipality":{"key":"06433010","name":"Raunheim, Stadt","type":"Stadt"},"district":{"key":"06433","name":"Groß-Gerau","type":"Landkreis"},"federalState":{"key":"06","name":"Hessen"}},{"name":"Dr.-Hermann-Ehlers-Str.","postalCode":"65479","locality":"Raunheim","municipality":{"key":"06433010","name":"Raunheim, Stadt","type":"Stadt"},"district":{"key":"06433","name":"Groß-Gerau","type":"Landkreis"},"federalState":{"key":"06","name":"Hessen"}},{"name":"Dr.-Kurt-Schumacher-Str.","postalCode":"65479","locality":"Raunheim","municipality":{"key":"06433010","name":"Raunheim, Stadt","type":"Stadt"},"district":{"key":"06433","name":"Groß-Gerau","type":"Landkreis"},"federalState":{"key":"06","name":"Hessen"}},{"name":"Egerländer Str.","postalCode":"65479","locality":"Raunheim","municipality":{"key":"06433010","name":"Raunheim, Stadt","type":"Stadt"},"district":{"key":"06433","name":"Groß-Gerau","type":"Landkreis"},"federalState":{"key":"06","name":"Hessen"}},{"name":"Eichendorffstr.","postalCode":"65479","locality":"Raunheim","municipality":{"key":"06433010","name":"Raunheim, Stadt","type":"Stadt"},"district":{"key":"06433","name":"Groß-Gerau","type":"Landkreis"},"federalState":{"key":"06","name":"Hessen"}},{"name":"Eichenrainweg","postalCode":"65479","locality":"Raunheim","municipality":{"key":"06433010","name":"Raunheim, Stadt","type":"Stadt"},"district":{"key":"06433","name":"Groß-Gerau","type":"Landkreis"},"federalState":{"key":"06","name":"Hessen"}},{"name":"Eichenweg","postalCode":"65479","locality":"Raunheim","municipality":{"key":"06433010","name":"Raunheim, Stadt","type":"Stadt"},"district":{"key":"06433","name":"Groß-Gerau","type":"Landkreis"},"federalState":{"key":"06","name":"Hessen"}},{"name":"Elbestr.","postalCode":"65479","locality":"Raunheim","municipality":{"key":"06433010","name":"Raunheim, Stadt","type":"Stadt"},"district":{"key":"06433","name":"Groß-Gerau","type":"Landkreis"},"federalState":{"key":"06","name":"Hessen"}},{"name":"Elisabethenstr.","postalCode":"65479","locality":"Raunheim","municipality":{"key":"06433010","name":"Raunheim, Stadt","type":"Stadt"},"district":{"key":"06433","name":"Groß-Gerau","type":"Landkreis"},"federalState":{"key":"06","name":"Hessen"}},{"name":"Erlenweg","postalCode":"65479","locality":"Raunheim","municipality":{"key":"06433010","name":"Raunheim, Stadt","type":"Stadt"},"district":{"key":"06433","name":"Groß-Gerau","type":"Landkreis"},"federalState":{"key":"06","name":"Hessen"}},{"name":"Ernst-Reuter-Str.","postalCode":"65479","locality":"Raunheim","municipality":{"key":"06433010","name":"Raunheim, Stadt","type":"Stadt"},"district":{"key":"06433","name":"Groß-Gerau","type":"Landkreis"},"federalState":{"key":"06","name":"Hessen"}},{"name":"Ernst-Wiechert-Str.","postalCode":"65479","locality":"Raunheim","municipality":{"key":"06433010","name":"Raunheim, Stadt","type":"Stadt"},"district":{"key":"06433","name":"Groß-Gerau","type":"Landkreis"},"federalState":{"key":"06","name":"Hessen"}},{"name":"Finkenweg","postalCode":"65479","locality":"Raunheim","municipality":{"key":"06433010","name":"Raunheim, Stadt","type":"Stadt"},"district":{"key":"06433","name":"Groß-Gerau","type":"Landkreis"},"federalState":{"key":"06","name":"Hessen"}},{"name":"Fischergasse","postalCode":"65479","locality":"Raunheim","municipality":{"key":"06433010","name":"Raunheim, Stadt","type":"Stadt"},"district":{"key":"06433","name":"Groß-Gerau","type":"Landkreis"},"federalState":{"key":"06","name":"Hessen"}},{"name":"Flörsheimer Str.","postalCode":"65479","locality":"Raunheim","municipality":{"key":"06433010","name":"Raunheim, Stadt","type":"Stadt"},"district":{"key":"06433","name":"Groß-Gerau","type":"Landkreis"},"federalState":{"key":"06","name":"Hessen"}},{"name":"Flörsheimer Waldweg","postalCode":"65479","locality":"Raunheim","municipality":{"key":"06433010","name":"Raunheim, Stadt","type":"Stadt"},"district":{"key":"06433","name":"Groß-Gerau","type":"Landkreis"},"federalState":{"key":"06","name":"Hessen"}},{"name":"Forsthausstr.","postalCode":"65479","locality":"Raunheim","municipality":{"key":"06433010","name":"Raunheim, Stadt","type":"Stadt"},"district":{"key":"06433","name":"Groß-Gerau","type":"Landkreis"},"federalState":{"key":"06","name":"Hessen"}},{"name":"Frankfurter Str.","postalCode":"65479","locality":"Raunheim","municipality":{"key":"06433010","name":"Raunheim, Stadt","type":"Stadt"},"district":{"key":"06433","name":"Groß-Gerau","type":"Landkreis"},"federalState":{"key":"06","name":"Hessen"}},{"name":"Friedrich-Ebert-Str.","postalCode":"65479","locality":"Raunheim","municipality":{"key":"06433010","name":"Raunheim, Stadt","type":"Stadt"},"district":{"key":"06433","name":"Groß-Gerau","type":"Landkreis"},"federalState":{"key":"06","name":"Hessen"}},{"name":"Gebrüder-Grimm-Str.","postalCode":"65479","locality":"Raunheim","municipality":{"key":"06433010","name":"Raunheim, Stadt","type":"Stadt"},"district":{"key":"06433","name":"Groß-Gerau","type":"Landkreis"},"federalState":{"key":"06","name":"Hessen"}},{"name":"Georg-Elser-Kreisel","postalCode":"65479","locality":"Raunheim","municipality":{"key":"06433010","name":"Raunheim, Stadt","type":"Stadt"},"district":{"key":"06433","name":"Groß-Gerau","type":"Landkreis"},"federalState":{"key":"06","name":"Hessen"}},{"name":"Gerberstr.","postalCode":"65479","locality":"Raunheim","municipality":{"key":"06433010","name":"Raunheim, Stadt","type":"Stadt"},"district":{"key":"06433","name":"Groß-Gerau","type":"Landkreis"},"federalState":{"key":"06","name":"Hessen"}},{"name":"Gerhart-Hauptmann-Str.","postalCode":"65479","locality":"Raunheim","municipality":{"key":"06433010","name":"Raunheim, Stadt","type":"Stadt"},"district":{"key":"06433","name":"Groß-Gerau","type":"Landkreis"},"federalState":{"key":"06","name":"Hessen"}},{"name":"Geschwister-Scholl-Str.","postalCode":"65479","locality":"Raunheim","municipality":{"key":"06433010","name":"Raunheim, Stadt","type":"Stadt"},"district":{"key":"06433","name":"Groß-Gerau","type":"Landkreis"},"federalState":{"key":"06","name":"Hessen"}},{"name":"Goethestr.","postalCode":"65479","locality":"Raunheim","municipality":{"key":"06433010","name":"Raunheim, Stadt","type":"Stadt"},"district":{"key":"06433","name":"Groß-Gerau","type":"Landkreis"},"federalState":{"key":"06","name":"Hessen"}},{"name":"Gottfried-Keller-Str.","postalCode":"65479","locality":"Raunheim","municipality":{"key":"06433010","name":"Raunheim, Stadt","type":"Stadt"},"district":{"key":"06433","name":"Groß-Gerau","type":"Landkreis"},"federalState":{"key":"06","name":"Hessen"}},{"name":"Grenzweg","postalCode":"65479","locality":"Raunheim","municipality":{"key":"06433010","name":"Raunheim, Stadt","type":"Stadt"},"district":{"key":"06433","name":"Groß-Gerau","type":"Landkreis"},"federalState":{"key":"06","name":"Hessen"}},{"name":"Grenzweg Flörsheim","postalCode":"65479","locality":"Raunheim","municipality":{"key":"06433010","name":"Raunheim, Stadt","type":"Stadt"},"district":{"key":"06433","name":"Groß-Gerau","type":"Landkreis"},"federalState":{"key":"06","name":"Hessen"}},{"name":"Hafenstr.","postalCode":"65479","locality":"Raunheim","municipality":{"key":"06433010","name":"Raunheim, Stadt","type":"Stadt"},"district":{"key":"06433","name":"Groß-Gerau","type":"Landkreis"},"federalState":{"key":"06","name":"Hessen"}},{"name":"Häfnerschneise","postalCode":"65479","locality":"Raunheim","municipality":{"key":"06433010","name":"Raunheim, Stadt","type":"Stadt"},"district":{"key":"06433","name":"Groß-Gerau","type":"Landkreis"},"federalState":{"key":"06","name":"Hessen"}},{"name":"Häfnerweg","postalCode":"65479","locality":"Raunheim","municipality":{"key":"06433010","name":"Raunheim, Stadt","type":"Stadt"},"district":{"key":"06433","name":"Groß-Gerau","type":"Landkreis"},"federalState":{"key":"06","name":"Hessen"}},{"name":"Hans-Sachs-Str.","postalCode":"65479","locality":"Raunheim","municipality":{"key":"06433010","name":"Raunheim, Stadt","type":"Stadt"},"district":{"key":"06433","name":"Groß-Gerau","type":"Landkreis"},"federalState":{"key":"06","name":"Hessen"}},{"name":"Hans-Scholl-Kreisel","postalCode":"65479","locality":"Raunheim","municipality":{"key":"06433010","name":"Raunheim, Stadt","type":"Stadt"},"district":{"key":"06433","name":"Groß-Gerau","type":"Landkreis"},"federalState":{"key":"06","name":"Hessen"}},{"name":"Hartmannsbornschneise","postalCode":"65479","locality":"Raunheim","municipality":{"key":"06433010","name":"Raunheim, Stadt","type":"Stadt"},"district":{"key":"06433","name":"Groß-Gerau","type":"Landkreis"},"federalState":{"key":"06","name":"Hessen"}},{"name":"Haßlocher Str.","postalCode":"65479","locality":"Raunheim","municipality":{"key":"06433010","name":"Raunheim, Stadt","type":"Stadt"},"district":{"key":"06433","name":"Groß-Gerau","type":"Landkreis"},"federalState":{"key":"06","name":"Hessen"}},{"name":"Haßlocher Weg","postalCode":"65479","locality":"Raunheim","municipality":{"key":"06433010","name":"Raunheim, Stadt","type":"Stadt"},"district":{"key":"06433","name":"Groß-Gerau","type":"Landkreis"},"federalState":{"key":"06","name":"Hessen"}},{"name":"Hebbelplatz","postalCode":"65479","locality":"Raunheim","municipality":{"key":"06433010","name":"Raunheim, Stadt","type":"Stadt"},"district":{"key":"06433","name":"Groß-Gerau","type":"Landkreis"},"federalState":{"key":"06","name":"Hessen"}},{"name":"Heinrich-Heine-Str.","postalCode":"65479","locality":"Raunheim","municipality":{"key":"06433010","name":"Raunheim, Stadt","type":"Stadt"},"district":{"key":"06433","name":"Groß-Gerau","type":"Landkreis"},"federalState":{"key":"06","name":"Hessen"}},{"name":"Heinrichstr.","postalCode":"65479","locality":"Raunheim","municipality":{"key":"06433010","name":"Raunheim, Stadt","type":"Stadt"},"district":{"key":"06433","name":"Groß-Gerau","type":"Landkreis"},"federalState":{"key":"06","name":"Hessen"}},{"name":"Hermann-Hesse-Str.","postalCode":"65479","locality":"Raunheim","municipality":{"key":"06433010","name":"Raunheim, Stadt","type":"Stadt"},"district":{"key":"06433","name":"Groß-Gerau","type":"Landkreis"},"federalState":{"key":"06","name":"Hessen"}},{"name":"Hermann-Löns-Str.","postalCode":"65479","locality":"Raunheim","municipality":{"key":"06433010","name":"Raunheim, Stadt","type":"Stadt"},"district":{"key":"06433","name":"Groß-Gerau","type":"Landkreis"},"federalState":{"key":"06","name":"Hessen"}},{"name":"Hermannstr.","postalCode":"65479","locality":"Raunheim","municipality":{"key":"06433010","name":"Raunheim, Stadt","type":"Stadt"},"district":{"key":"06433","name":"Groß-Gerau","type":"Landkreis"},"federalState":{"key":"06","name":"Hessen"}},{"name":"Hohe Hügelschneise","postalCode":"65479","locality":"Raunheim","municipality":{"key":"06433010","name":"Raunheim, Stadt","type":"Stadt"},"district":{"key":"06433","name":"Groß-Gerau","type":"Landkreis"},"federalState":{"key":"06","name":"Hessen"}},{"name":"Holzweg","postalCode":"65479","locality":"Raunheim","municipality":{"key":"06433010","name":"Raunheim, Stadt","type":"Stadt"},"district":{"key":"06433","name":"Groß-Gerau","type":"Landkreis"},"federalState":{"key":"06","name":"Hessen"}},{"name":"Hügelschneise","postalCode":"65479","locality":"Raunheim","municipality":{"key":"06433010","name":"Raunheim, Stadt","type":"Stadt"},"district":{"key":"06433","name":"Groß-Gerau","type":"Landkreis"},"federalState":{"key":"06","name":"Hessen"}},{"name":"Im Langgewann","postalCode":"65479","locality":"Raunheim","municipality":{"key":"06433010","name":"Raunheim, Stadt","type":"Stadt"},"district":{"key":"06433","name":"Groß-Gerau","type":"Landkreis"},"federalState":{"key":"06","name":"Hessen"}},{"name":"In den Beunen","postalCode":"65479","locality":"Raunheim","municipality":{"key":"06433010","name":"Raunheim, Stadt","type":"Stadt"},"district":{"key":"06433","name":"Groß-Gerau","type":"Landkreis"},"federalState":{"key":"06","name":"Hessen"}},{"name":"In den Binsenbüschen","postalCode":"65479","locality":"Raunheim","municipality":{"key":"06433010","name":"Raunheim, Stadt","type":"Stadt"},"district":{"key":"06433","name":"Groß-Gerau","type":"Landkreis"},"federalState":{"key":"06","name":"Hessen"}},{"name":"In den Birken","postalCode":"65479","locality":"Raunheim","municipality":{"key":"06433010","name":"Raunheim, Stadt","type":"Stadt"},"district":{"key":"06433","name":"Groß-Gerau","type":"Landkreis"},"federalState":{"key":"06","name":"Hessen"}},{"name":"Industriestr.","postalCode":"65479","locality":"Raunheim","municipality":{"key":"06433010","name":"Raunheim, Stadt","type":"Stadt"},"district":{"key":"06433","name":"Groß-Gerau","type":"Landkreis"},"federalState":{"key":"06","name":"Hessen"}},{"name":"Jakobstr.","postalCode":"65479","locality":"Raunheim","municipality":{"key":"06433010","name":"Raunheim, Stadt","type":"Stadt"},"district":{"key":"06433","name":"Groß-Gerau","type":"Landkreis"},"federalState":{"key":"06","name":"Hessen"}},{"name":"James-Graf-von-Moltke-Str.","postalCode":"65479","locality":"Raunheim","municipality":{"key":"06433010","name":"Raunheim, Stadt","type":"Stadt"},"district":{"key":"06433","name":"Groß-Gerau","type":"Landkreis"},"federalState":{"key":"06","name":"Hessen"}},{"name":"Karl-Liebknecht-Str.","postalCode":"65479","locality":"Raunheim","municipality":{"key":"06433010","name":"Raunheim, Stadt","type":"Stadt"},"district":{"key":"06433","name":"Groß-Gerau","type":"Landkreis"},"federalState":{"key":"06","name":"Hessen"}},{"name":"Karlsbader Str.","postalCode":"65479","locality":"Raunheim","municipality":{"key":"06433010","name":"Raunheim, Stadt","type":"Stadt"},"district":{"key":"06433","name":"Groß-Gerau","type":"Landkreis"},"federalState":{"key":"06","name":"Hessen"}},{"name":"Karlstr.","postalCode":"65479","locality":"Raunheim","municipality":{"key":"06433010","name":"Raunheim, Stadt","type":"Stadt"},"district":{"key":"06433","name":"Groß-Gerau","type":"Landkreis"},"federalState":{"key":"06","name":"Hessen"}},{"name":"Kastanienweg","postalCode":"65479","locality":"Raunheim","municipality":{"key":"06433010","name":"Raunheim, Stadt","type":"Stadt"},"district":{"key":"06433","name":"Groß-Gerau","type":"Landkreis"},"federalState":{"key":"06","name":"Hessen"}},{"name":"Katharinenstr.","postalCode":"65479","locality":"Raunheim","municipality":{"key":"06433010","name":"Raunheim, Stadt","type":"Stadt"},"district":{"key":"06433","name":"Groß-Gerau","type":"Landkreis"},"federalState":{"key":"06","name":"Hessen"}},{"name":"Kelsterbacher Str.","postalCode":"65479","locality":"Raunheim","municipality":{"key":"06433010","name":"Raunheim, Stadt","type":"Stadt"},"district":{"key":"06433","name":"Groß-Gerau","type":"Landkreis"},"federalState":{"key":"06","name":"Hessen"}},{"name":"Kiefernweg","postalCode":"65479","locality":"Raunheim","municipality":{"key":"06433010","name":"Raunheim, Stadt","type":"Stadt"},"district":{"key":"06433","name":"Groß-Gerau","type":"Landkreis"},"federalState":{"key":"06","name":"Hessen"}},{"name":"Kirschbaumweg","postalCode":"65479","locality":"Raunheim","municipality":{"key":"06433010","name":"Raunheim, Stadt","type":"Stadt"},"district":{"key":"06433","name":"Groß-Gerau","type":"Landkreis"},"federalState":{"key":"06","name":"Hessen"}},{"name":"Klopstockstr.","postalCode":"65479","locality":"Raunheim","municipality":{"key":"06433010","name":"Raunheim, Stadt","type":"Stadt"},"district":{"key":"06433","name":"Groß-Gerau","type":"Landkreis"},"federalState":{"key":"06","name":"Hessen"}},{"name":"Königsberger Str.","postalCode":"65479","locality":"Raunheim","municipality":{"key":"06433010","name":"Raunheim, Stadt","type":"Stadt"},"district":{"key":"06433","name":"Groß-Gerau","type":"Landkreis"},"federalState":{"key":"06","name":"Hessen"}},{"name":"Korbmacherstr.","postalCode":"65479","locality":"Raunheim","municipality":{"key":"06433010","name":"Raunheim, Stadt","type":"Stadt"},"district":{"key":"06433","name":"Groß-Gerau","type":"Landkreis"},"federalState":{"key":"06","name":"Hessen"}},{"name":"Kornblumenweg","postalCode":"65479","locality":"Raunheim","municipality":{"key":"06433010","name":"Raunheim, Stadt","type":"Stadt"},"district":{"key":"06433","name":"Groß-Gerau","type":"Landkreis"},"federalState":{"key":"06","name":"Hessen"}},{"name":"Küferstr.","postalCode":"65479","locality":"Raunheim","municipality":{"key":"06433010","name":"Raunheim, Stadt","type":"Stadt"},"district":{"key":"06433","name":"Groß-Gerau","type":"Landkreis"},"federalState":{"key":"06","name":"Hessen"}},{"name":"Kurze Feldschneise","postalCode":"65479","locality":"Raunheim","municipality":{"key":"06433010","name":"Raunheim, Stadt","type":"Stadt"},"district":{"key":"06433","name":"Groß-Gerau","type":"Landkreis"},"federalState":{"key":"06","name":"Hessen"}},{"name":"Lahnstr.","postalCode":"65479","locality":"Raunheim","municipality":{"key":"06433010","name":"Raunheim, Stadt","type":"Stadt"},"district":{"key":"06433","name":"Groß-Gerau","type":"Landkreis"},"federalState":{"key":"06","name":"Hessen"}},{"name":"Lange Feldschneise","postalCode":"65479","locality":"Raunheim","municipality":{"key":"06433010","name":"Raunheim, Stadt","type":"Stadt"},"district":{"key":"06433","name":"Groß-Gerau","type":"Landkreis"},"federalState":{"key":"06","name":"Hessen"}},{"name":"Lappenschneise","postalCode":"65479","locality":"Raunheim","municipality":{"key":"06433010","name":"Raunheim, Stadt","type":"Stadt"},"district":{"key":"06433","name":"Groß-Gerau","type":"Landkreis"},"federalState":{"key":"06","name":"Hessen"}},{"name":"Lessingstr.","postalCode":"65479","locality":"Raunheim","municipality":{"key":"06433010","name":"Raunheim, Stadt","type":"Stadt"},"district":{"key":"06433","name":"Groß-Gerau","type":"Landkreis"},"federalState":{"key":"06","name":"Hessen"}},{"name":"Le-Teil-Str.","postalCode":"65479","locality":"Raunheim","municipality":{"key":"06433010","name":"Raunheim, Stadt","type":"Stadt"},"district":{"key":"06433","name":"Groß-Gerau","type":"Landkreis"},"federalState":{"key":"06","name":"Hessen"}},{"name":"Liebfrauenstr.","postalCode":"65479","locality":"Raunheim","municipality":{"key":"06433010","name":"Raunheim, Stadt","type":"Stadt"},"district":{"key":"06433","name":"Groß-Gerau","type":"Landkreis"},"federalState":{"key":"06","name":"Hessen"}},{"name":"Limesstr.","postalCode":"65479","locality":"Raunheim","municipality":{"key":"06433010","name":"Raunheim, Stadt","type":"Stadt"},"district":{"key":"06433","name":"Groß-Gerau","type":"Landkreis"},"federalState":{"key":"06","name":"Hessen"}},{"name":"Ludwig-Buxbaum-Allee","postalCode":"65479","locality":"Raunheim","municipality":{"key":"06433010","name":"Raunheim, Stadt","type":"Stadt"},"district":{"key":"06433","name":"Groß-Gerau","type":"Landkreis"},"federalState":{"key":"06","name":"Hessen"}},{"name":"Ludwigstr.","postalCode":"65479","locality":"Raunheim","municipality":{"key":"06433010","name":"Raunheim, Stadt","type":"Stadt"},"district":{"key":"06433","name":"Groß-Gerau","type":"Landkreis"},"federalState":{"key":"06","name":"Hessen"}},{"name":"Luftschneise","postalCode":"65479","locality":"Raunheim","municipality":{"key":"06433010","name":"Raunheim, Stadt","type":"Stadt"},"district":{"key":"06433","name":"Groß-Gerau","type":"Landkreis"},"federalState":{"key":"06","name":"Hessen"}},{"name":"Magellan-Allee","postalCode":"65479","locality":"Raunheim","municipality":{"key":"06433010","name":"Raunheim, Stadt","type":"Stadt"},"district":{"key":"06433","name":"Groß-Gerau","type":"Landkreis"},"federalState":{"key":"06","name":"Hessen"}},{"name":"Mainstr.","postalCode":"65479","locality":"Raunheim","municipality":{"key":"06433010","name":"Raunheim, Stadt","type":"Stadt"},"district":{"key":"06433","name":"Groß-Gerau","type":"Landkreis"},"federalState":{"key":"06","name":"Hessen"}},{"name":"Mainzer Str.","postalCode":"65479","locality":"Raunheim","municipality":{"key":"06433010","name":"Raunheim, Stadt","type":"Stadt"},"district":{"key":"06433","name":"Groß-Gerau","type":"Landkreis"},"federalState":{"key":"06","name":"Hessen"}},{"name":"Marco-Polo-Str.","postalCode":"65479","locality":"Raunheim","municipality":{"key":"06433010","name":"Raunheim, Stadt","type":"Stadt"},"district":{"key":"06433","name":"Groß-Gerau","type":"Landkreis"},"federalState":{"key":"06","name":"Hessen"}},{"name":"Margeritenweg","postalCode":"65479","locality":"Raunheim","municipality":{"key":"06433010","name":"Raunheim, Stadt","type":"Stadt"},"district":{"key":"06433","name":"Groß-Gerau","type":"Landkreis"},"federalState":{"key":"06","name":"Hessen"}},{"name":"Martin-Niemöller-Anlage","postalCode":"65479","locality":"Raunheim","municipality":{"key":"06433010","name":"Raunheim, Stadt","type":"Stadt"},"district":{"key":"06433","name":"Groß-Gerau","type":"Landkreis"},"federalState":{"key":"06","name":"Hessen"}},{"name":"Mathildenstr.","postalCode":"65479","locality":"Raunheim","municipality":{"key":"06433010","name":"Raunheim, Stadt","type":"Stadt"},"district":{"key":"06433","name":"Groß-Gerau","type":"Landkreis"},"federalState":{"key":"06","name":"Hessen"}},{"name":"Messeplatz","postalCode":"65479","locality":"Raunheim","municipality":{"key":"06433010","name":"Raunheim, Stadt","type":"Stadt"},"district":{"key":"06433","name":"Groß-Gerau","type":"Landkreis"},"federalState":{"key":"06","name":"Hessen"}},{"name":"Mönchhofschneise","postalCode":"65479","locality":"Raunheim","municipality":{"key":"06433010","name":"Raunheim, Stadt","type":"Stadt"},"district":{"key":"06433","name":"Groß-Gerau","type":"Landkreis"},"federalState":{"key":"06","name":"Hessen"}},{"name":"Mörikestr.","postalCode":"65479","locality":"Raunheim","municipality":{"key":"06433010","name":"Raunheim, Stadt","type":"Stadt"},"district":{"key":"06433","name":"Groß-Gerau","type":"Landkreis"},"federalState":{"key":"06","name":"Hessen"}},{"name":"Moselstr.","postalCode":"65479","locality":"Raunheim","municipality":{"key":"06433010","name":"Raunheim, Stadt","type":"Stadt"},"district":{"key":"06433","name":"Groß-Gerau","type":"Landkreis"},"federalState":{"key":"06","name":"Hessen"}},{"name":"Nahestr.","postalCode":"65479","locality":"Raunheim","municipality":{"key":"06433010","name":"Raunheim, Stadt","type":"Stadt"},"district":{"key":"06433","name":"Groß-Gerau","type":"Landkreis"},"federalState":{"key":"06","name":"Hessen"}},{"name":"Neckarstr.","postalCode":"65479","locality":"Raunheim","municipality":{"key":"06433010","name":"Raunheim, Stadt","type":"Stadt"},"district":{"key":"06433","name":"Groß-Gerau","type":"Landkreis"},"federalState":{"key":"06","name":"Hessen"}},{"name":"Neuhöfer Tannschneise","postalCode":"65479","locality":"Raunheim","municipality":{"key":"06433010","name":"Raunheim, Stadt","type":"Stadt"},"district":{"key":"06433","name":"Groß-Gerau","type":"Landkreis"},"federalState":{"key":"06","name":"Hessen"}},{"name":"Niddastr.","postalCode":"65479","locality":"Raunheim","municipality":{"key":"06433010","name":"Raunheim, Stadt","type":"Stadt"},"district":{"key":"06433","name":"Groß-Gerau","type":"Landkreis"},"federalState":{"key":"06","name":"Hessen"}},{"name":"Odenwaldstr.","postalCode":"65479","locality":"Raunheim","municipality":{"key":"06433010","name":"Raunheim, Stadt","type":"Stadt"},"district":{"key":"06433","name":"Groß-Gerau","type":"Landkreis"},"federalState":{"key":"06","name":"Hessen"}},{"name":"Oderstr.","postalCode":"65479","locality":"Raunheim","municipality":{"key":"06433010","name":"Raunheim, Stadt","type":"Stadt"},"district":{"key":"06433","name":"Groß-Gerau","type":"Landkreis"},"federalState":{"key":"06","name":"Hessen"}},{"name":"Paul-Avon-Anlage","postalCode":"65479","locality":"Raunheim","municipality":{"key":"06433010","name":"Raunheim, Stadt","type":"Stadt"},"district":{"key":"06433","name":"Groß-Gerau","type":"Landkreis"},"federalState":{"key":"06","name":"Hessen"}},{"name":"Pfarrer-Heyer-Weg","postalCode":"65479","locality":"Raunheim","municipality":{"key":"06433010","name":"Raunheim, Stadt","type":"Stadt"},"district":{"key":"06433","name":"Groß-Gerau","type":"Landkreis"},"federalState":{"key":"06","name":"Hessen"}},{"name":"Rabenweg","postalCode":"65479","locality":"Raunheim","municipality":{"key":"06433010","name":"Raunheim, Stadt","type":"Stadt"},"district":{"key":"06433","name":"Groß-Gerau","type":"Landkreis"},"federalState":{"key":"06","name":"Hessen"}},{"name":"Rathenauplatz","postalCode":"65479","locality":"Raunheim","municipality":{"key":"06433010","name":"Raunheim, Stadt","type":"Stadt"},"district":{"key":"06433","name":"Groß-Gerau","type":"Landkreis"},"federalState":{"key":"06","name":"Hessen"}},{"name":"Reichenberger Str.","postalCode":"65479","locality":"Raunheim","municipality":{"key":"06433010","name":"Raunheim, Stadt","type":"Stadt"},"district":{"key":"06433","name":"Groß-Gerau","type":"Landkreis"},"federalState":{"key":"06","name":"Hessen"}},{"name":"Ringstr.","postalCode":"65479","locality":"Raunheim","municipality":{"key":"06433010","name":"Raunheim, Stadt","type":"Stadt"},"district":{"key":"06433","name":"Groß-Gerau","type":"Landkreis"},"federalState":{"key":"06","name":"Hessen"}},{"name":"Robert-Koch-Str.","postalCode":"65479","locality":"Raunheim","municipality":{"key":"06433010","name":"Raunheim, Stadt","type":"Stadt"},"district":{"key":"06433","name":"Groß-Gerau","type":"Landkreis"},"federalState":{"key":"06","name":"Hessen"}},{"name":"Römerstr.","postalCode":"65479","locality":"Raunheim","municipality":{"key":"06433010","name":"Raunheim, Stadt","type":"Stadt"},"district":{"key":"06433","name":"Groß-Gerau","type":"Landkreis"},"federalState":{"key":"06","name":"Hessen"}},{"name":"Sandhügelschneise","postalCode":"65479","locality":"Raunheim","municipality":{"key":"06433010","name":"Raunheim, Stadt","type":"Stadt"},"district":{"key":"06433","name":"Groß-Gerau","type":"Landkreis"},"federalState":{"key":"06","name":"Hessen"}},{"name":"Schillerstr.","postalCode":"65479","locality":"Raunheim","municipality":{"key":"06433010","name":"Raunheim, Stadt","type":"Stadt"},"district":{"key":"06433","name":"Groß-Gerau","type":"Landkreis"},"federalState":{"key":"06","name":"Hessen"}},{"name":"Schlesierstr.","postalCode":"65479","locality":"Raunheim","municipality":{"key":"06433010","name":"Raunheim, Stadt","type":"Stadt"},"district":{"key":"06433","name":"Groß-Gerau","type":"Landkreis"},"federalState":{"key":"06","name":"Hessen"}},{"name":"Schleusenstr.","postalCode":"65479","locality":"Raunheim","municipality":{"key":"06433010","name":"Raunheim, Stadt","type":"Stadt"},"district":{"key":"06433","name":"Groß-Gerau","type":"Landkreis"},"federalState":{"key":"06","name":"Hessen"}},{"name":"Schneise Nummer 3","postalCode":"65479","locality":"Raunheim","municipality":{"key":"06433010","name":"Raunheim, Stadt","type":"Stadt"},"district":{"key":"06433","name":"Groß-Gerau","type":"Landkreis"},"federalState":{"key":"06","name":"Hessen"}},{"name":"Schneise Nummer 4","postalCode":"65479","locality":"Raunheim","municipality":{"key":"06433010","name":"Raunheim, Stadt","type":"Stadt"},"district":{"key":"06433","name":"Groß-Gerau","type":"Landkreis"},"federalState":{"key":"06","name":"Hessen"}},{"name":"Schneise Nummer 5","postalCode":"65479","locality":"Raunheim","municipality":{"key":"06433010","name":"Raunheim, Stadt","type":"Stadt"},"district":{"key":"06433","name":"Groß-Gerau","type":"Landkreis"},"federalState":{"key":"06","name":"Hessen"}},{"name":"Schneise Nummer 6","postalCode":"65479","locality":"Raunheim","municipality":{"key":"06433010","name":"Raunheim, Stadt","type":"Stadt"},"district":{"key":"06433","name":"Groß-Gerau","type":"Landkreis"},"federalState":{"key":"06","name":"Hessen"}},{"name":"Schnelser Weg","postalCode":"65479","locality":"Raunheim","municipality":{"key":"06433010","name":"Raunheim, Stadt","type":"Stadt"},"district":{"key":"06433","name":"Groß-Gerau","type":"Landkreis"},"federalState":{"key":"06","name":"Hessen"}},{"name":"Schulstr.","postalCode":"65479","locality":"Raunheim","municipality":{"key":"06433010","name":"Raunheim, Stadt","type":"Stadt"},"district":{"key":"06433","name":"Groß-Gerau","type":"Landkreis"},"federalState":{"key":"06","name":"Hessen"}},{"name":"Schultannenschneise","postalCode":"65479","locality":"Raunheim","municipality":{"key":"06433010","name":"Raunheim, Stadt","type":"Stadt"},"district":{"key":"06433","name":"Groß-Gerau","type":"Landkreis"},"federalState":{"key":"06","name":"Hessen"}},{"name":"Schwarzer Weg","postalCode":"65479","locality":"Raunheim","municipality":{"key":"06433010","name":"Raunheim, Stadt","type":"Stadt"},"district":{"key":"06433","name":"Groß-Gerau","type":"Landkreis"},"federalState":{"key":"06","name":"Hessen"}},{"name":"Siegfrid-Lenz-Weg","postalCode":"65479","locality":"Raunheim","municipality":{"key":"06433010","name":"Raunheim, Stadt","type":"Stadt"},"district":{"key":"06433","name":"Groß-Gerau","type":"Landkreis"},"federalState":{"key":"06","name":"Hessen"}},{"name":"Sophie-Scholl-Kreisel","postalCode":"65479","locality":"Raunheim","municipality":{"key":"06433010","name":"Raunheim, Stadt","type":"Stadt"},"district":{"key":"06433","name":"Groß-Gerau","type":"Landkreis"},"federalState":{"key":"06","name":"Hessen"}},{"name":"Starkenburger Str.","postalCode":"65479","locality":"Raunheim","municipality":{"key":"06433010","name":"Raunheim, Stadt","type":"Stadt"},"district":{"key":"06433","name":"Groß-Gerau","type":"Landkreis"},"federalState":{"key":"06","name":"Hessen"}},{"name":"Steinschneise","postalCode":"65479","locality":"Raunheim","municipality":{"key":"06433010","name":"Raunheim, Stadt","type":"Stadt"},"district":{"key":"06433","name":"Groß-Gerau","type":"Landkreis"},"federalState":{"key":"06","name":"Hessen"}},{"name":"Stockstr.","postalCode":"65479","locality":"Raunheim","municipality":{"key":"06433010","name":"Raunheim, Stadt","type":"Stadt"},"district":{"key":"06433","name":"Groß-Gerau","type":"Landkreis"},"federalState":{"key":"06","name":"Hessen"}},{"name":"Stresemannplatz","postalCode":"65479","locality":"Raunheim","municipality":{"key":"06433010","name":"Raunheim, Stadt","type":"Stadt"},"district":{"key":"06433","name":"Groß-Gerau","type":"Landkreis"},"federalState":{"key":"06","name":"Hessen"}},{"name":"Sudetenstr.","postalCode":"65479","locality":"Raunheim","municipality":{"key":"06433010","name":"Raunheim, Stadt","type":"Stadt"},"district":{"key":"06433","name":"Groß-Gerau","type":"Landkreis"},"federalState":{"key":"06","name":"Hessen"}},{"name":"Tannackerschneise","postalCode":"65479","locality":"Raunheim","municipality":{"key":"06433010","name":"Raunheim, Stadt","type":"Stadt"},"district":{"key":"06433","name":"Groß-Gerau","type":"Landkreis"},"federalState":{"key":"06","name":"Hessen"}},{"name":"Taubengrundschneise","postalCode":"65479","locality":"Raunheim","municipality":{"key":"06433010","name":"Raunheim, Stadt","type":"Stadt"},"district":{"key":"06433","name":"Groß-Gerau","type":"Landkreis"},"federalState":{"key":"06","name":"Hessen"}},{"name":"Taunusstr.","postalCode":"65479","locality":"Raunheim","municipality":{"key":"06433010","name":"Raunheim, Stadt","type":"Stadt"},"district":{"key":"06433","name":"Groß-Gerau","type":"Landkreis"},"federalState":{"key":"06","name":"Hessen"}},{"name":"Theodor-Storm-Str.","postalCode":"65479","locality":"Raunheim","municipality":{"key":"06433010","name":"Raunheim, Stadt","type":"Stadt"},"district":{"key":"06433","name":"Groß-Gerau","type":"Landkreis"},"federalState":{"key":"06","name":"Hessen"}},{"name":"Thomas-Mann-Str.","postalCode":"65479","locality":"Raunheim","municipality":{"key":"06433010","name":"Raunheim, Stadt","type":"Stadt"},"district":{"key":"06433","name":"Groß-Gerau","type":"Landkreis"},"federalState":{"key":"06","name":"Hessen"}},{"name":"Trofarellostr.","postalCode":"65479","locality":"Raunheim","municipality":{"key":"06433010","name":"Raunheim, Stadt","type":"Stadt"},"district":{"key":"06433","name":"Groß-Gerau","type":"Landkreis"},"federalState":{"key":"06","name":"Hessen"}},{"name":"Tulpenweg","postalCode":"65479","locality":"Raunheim","municipality":{"key":"06433010","name":"Raunheim, Stadt","type":"Stadt"},"district":{"key":"06433","name":"Groß-Gerau","type":"Landkreis"},"federalState":{"key":"06","name":"Hessen"}},{"name":"Uhlandstr.","postalCode":"65479","locality":"Raunheim","municipality":{"key":"06433010","name":"Raunheim, Stadt","type":"Stadt"},"district":{"key":"06433","name":"Groß-Gerau","type":"Landkreis"},"federalState":{"key":"06","name":"Hessen"}},{"name":"Waldstr.","postalCode":"65479","locality":"Raunheim","municipality":{"key":"06433010","name":"Raunheim, Stadt","type":"Stadt"},"district":{"key":"06433","name":"Groß-Gerau","type":"Landkreis"},"federalState":{"key":"06","name":"Hessen"}},{"name":"Waldweg","postalCode":"65479","locality":"Raunheim","municipality":{"key":"06433010","name":"Raunheim, Stadt","type":"Stadt"},"district":{"key":"06433","name":"Groß-Gerau","type":"Landkreis"},"federalState":{"key":"06","name":"Hessen"}},{"name":"Wasserlochschneise","postalCode":"65479","locality":"Raunheim","municipality":{"key":"06433010","name":"Raunheim, Stadt","type":"Stadt"},"district":{"key":"06433","name":"Groß-Gerau","type":"Landkreis"},"federalState":{"key":"06","name":"Hessen"}},{"name":"Weinbergstr.","postalCode":"65479","locality":"Raunheim","municipality":{"key":"06433010","name":"Raunheim, Stadt","type":"Stadt"},"district":{"key":"06433","name":"Groß-Gerau","type":"Landkreis"},"federalState":{"key":"06","name":"Hessen"}},{"name":"Weserstr.","postalCode":"65479","locality":"Raunheim","municipality":{"key":"06433010","name":"Raunheim, Stadt","type":"Stadt"},"district":{"key":"06433","name":"Groß-Gerau","type":"Landkreis"},"federalState":{"key":"06","name":"Hessen"}},{"name":"Wilhelm-Busch-Str.","postalCode":"65479","locality":"Raunheim","municipality":{"key":"06433010","name":"Raunheim, Stadt","type":"Stadt"},"district":{"key":"06433","name":"Groß-Gerau","type":"Landkreis"},"federalState":{"key":"06","name":"Hessen"}},{"name":"Wilhelminenstr.","postalCode":"65479","locality":"Raunheim","municipality":{"key":"06433010","name":"Raunheim, Stadt","type":"Stadt"},"district":{"key":"06433","name":"Groß-Gerau","type":"Landkreis"},"federalState":{"key":"06","name":"Hessen"}},{"name":"Wilhelm-Leuschner-Str.","postalCode":"65479","locality":"Raunheim","municipality":{"key":"06433010","name":"Raunheim, Stadt","type":"Stadt"},"district":{"key":"06433","name":"Groß-Gerau","type":"Landkreis"},"federalState":{"key":"06","name":"Hessen"}},{"name":"Wilhelm-Raabe-Str.","postalCode":"65479","locality":"Raunheim","municipality":{"key":"06433010","name":"Raunheim, Stadt","type":"Stadt"},"district":{"key":"06433","name":"Groß-Gerau","type":"Landkreis"},"federalState":{"key":"06","name":"Hessen"}},{"name":"Ziegelhüttenweg","postalCode":"65479","locality":"Raunheim","municipality":{"key":"06433010","name":"Raunheim, Stadt","type":"Stadt"},"district":{"key":"06433","name":"Groß-Gerau","type":"Landkreis"},"federalState":{"key":"06","name":"Hessen"}},{"name":"Zum Neuen Hof","postalCode":"65479","locality":"Raunheim","municipality":{"key":"06433010","name":"Raunheim, Stadt","type":"Stadt"},"district":{"key":"06433","name":"Groß-Gerau","type":"Landkreis"},"federalState":{"key":"06","name":"Hessen"}},{"name":"Zwiebelstückschneise","postalCode":"65479","locality":"Raunheim","municipality":{"key":"06433010","name":"Raunheim, Stadt","type":"Stadt"},"district":{"key":"06433","name":"Groß-Gerau","type":"Landkreis"},"federalState":{"key":"06","name":"Hessen"}},{"name":"Ölhafenbrücke","postalCode":"65479","locality":"Raunheim","municipality":{"key":"06433010","name":"Raunheim, Stadt","type":"Stadt"},"district":{"key":"06433","name":"Groß-Gerau","type":"Landkreis"},"federalState":{"key":"06","name":"Hessen"}},]