[{"name":"Ablassgasse","postalCode":"56154","locality":"Boppard","municipality":{"key":"07140501","name":"Boppard, Stadt","type":"Stadt"},"district":{"key":"07140","name":"Rhein-Hunsrück-Kreis","type":"Landkreis"},"federalState":{"key":"07","name":"Rheinland-Pfalz"}},{"name":"Ahornweg","postalCode":"56154","locality":"Boppard","municipality":{"key":"07140501","name":"Boppard, Stadt","type":"Stadt"},"district":{"key":"07140","name":"Rhein-Hunsrück-Kreis","type":"Landkreis"},"federalState":{"key":"07","name":"Rheinland-Pfalz"}},{"name":"Akazienweg","postalCode":"56154","locality":"Boppard","municipality":{"key":"07140501","name":"Boppard, Stadt","type":"Stadt"},"district":{"key":"07140","name":"Rhein-Hunsrück-Kreis","type":"Landkreis"},"federalState":{"key":"07","name":"Rheinland-Pfalz"}},{"name":"Alte Heerstr.","postalCode":"56154","locality":"Boppard","municipality":{"key":"07140501","name":"Boppard, Stadt","type":"Stadt"},"district":{"key":"07140","name":"Rhein-Hunsrück-Kreis","type":"Landkreis"},"federalState":{"key":"07","name":"Rheinland-Pfalz"}},{"name":"Alte Römerstr.","postalCode":"56154","locality":"Boppard","municipality":{"key":"07140501","name":"Boppard, Stadt","type":"Stadt"},"district":{"key":"07140","name":"Rhein-Hunsrück-Kreis","type":"Landkreis"},"federalState":{"key":"07","name":"Rheinland-Pfalz"}},{"name":"Am Alten Posthof","postalCode":"56154","locality":"Boppard","municipality":{"key":"07140501","name":"Boppard, Stadt","type":"Stadt"},"district":{"key":"07140","name":"Rhein-Hunsrück-Kreis","type":"Landkreis"},"federalState":{"key":"07","name":"Rheinland-Pfalz"}},{"name":"Am Alten Sportplatz","postalCode":"56154","locality":"Boppard","municipality":{"key":"07140501","name":"Boppard, Stadt","type":"Stadt"},"district":{"key":"07140","name":"Rhein-Hunsrück-Kreis","type":"Landkreis"},"federalState":{"key":"07","name":"Rheinland-Pfalz"}},{"name":"Am Bahnhof","postalCode":"56154","locality":"Boppard","municipality":{"key":"07140501","name":"Boppard, Stadt","type":"Stadt"},"district":{"key":"07140","name":"Rhein-Hunsrück-Kreis","type":"Landkreis"},"federalState":{"key":"07","name":"Rheinland-Pfalz"}},{"name":"Am Casino","postalCode":"56154","locality":"Boppard","municipality":{"key":"07140501","name":"Boppard, Stadt","type":"Stadt"},"district":{"key":"07140","name":"Rhein-Hunsrück-Kreis","type":"Landkreis"},"federalState":{"key":"07","name":"Rheinland-Pfalz"}},{"name":"Am Eichelsberg","postalCode":"56154","locality":"Boppard","municipality":{"key":"07140501","name":"Boppard, Stadt","type":"Stadt"},"district":{"key":"07140","name":"Rhein-Hunsrück-Kreis","type":"Landkreis"},"federalState":{"key":"07","name":"Rheinland-Pfalz"}},{"name":"Am Eisenberg","postalCode":"56154","locality":"Boppard","municipality":{"key":"07140501","name":"Boppard, Stadt","type":"Stadt"},"district":{"key":"07140","name":"Rhein-Hunsrück-Kreis","type":"Landkreis"},"federalState":{"key":"07","name":"Rheinland-Pfalz"}},{"name":"Am Fraubach","postalCode":"56154","locality":"Boppard","municipality":{"key":"07140501","name":"Boppard, Stadt","type":"Stadt"},"district":{"key":"07140","name":"Rhein-Hunsrück-Kreis","type":"Landkreis"},"federalState":{"key":"07","name":"Rheinland-Pfalz"}},{"name":"Am Hang","postalCode":"56154","locality":"Boppard","municipality":{"key":"07140501","name":"Boppard, Stadt","type":"Stadt"},"district":{"key":"07140","name":"Rhein-Hunsrück-Kreis","type":"Landkreis"},"federalState":{"key":"07","name":"Rheinland-Pfalz"}},{"name":"Am Heckenpfad","postalCode":"56154","locality":"Boppard","municipality":{"key":"07140501","name":"Boppard, Stadt","type":"Stadt"},"district":{"key":"07140","name":"Rhein-Hunsrück-Kreis","type":"Landkreis"},"federalState":{"key":"07","name":"Rheinland-Pfalz"}},{"name":"Am Heidepark","postalCode":"56154","locality":"Boppard","municipality":{"key":"07140501","name":"Boppard, Stadt","type":"Stadt"},"district":{"key":"07140","name":"Rhein-Hunsrück-Kreis","type":"Landkreis"},"federalState":{"key":"07","name":"Rheinland-Pfalz"}},{"name":"Am Hellenberg","postalCode":"56154","locality":"Boppard","municipality":{"key":"07140501","name":"Boppard, Stadt","type":"Stadt"},"district":{"key":"07140","name":"Rhein-Hunsrück-Kreis","type":"Landkreis"},"federalState":{"key":"07","name":"Rheinland-Pfalz"}},{"name":"Am Kohlbach","postalCode":"56154","locality":"Boppard","municipality":{"key":"07140501","name":"Boppard, Stadt","type":"Stadt"},"district":{"key":"07140","name":"Rhein-Hunsrück-Kreis","type":"Landkreis"},"federalState":{"key":"07","name":"Rheinland-Pfalz"}},{"name":"Am Kronenbusch","postalCode":"56154","locality":"Boppard","municipality":{"key":"07140501","name":"Boppard, Stadt","type":"Stadt"},"district":{"key":"07140","name":"Rhein-Hunsrück-Kreis","type":"Landkreis"},"federalState":{"key":"07","name":"Rheinland-Pfalz"}},{"name":"Am Kurpark","postalCode":"56154","locality":"Boppard","municipality":{"key":"07140501","name":"Boppard, Stadt","type":"Stadt"},"district":{"key":"07140","name":"Rhein-Hunsrück-Kreis","type":"Landkreis"},"federalState":{"key":"07","name":"Rheinland-Pfalz"}},{"name":"Am Landweg","postalCode":"56154","locality":"Boppard","municipality":{"key":"07140501","name":"Boppard, Stadt","type":"Stadt"},"district":{"key":"07140","name":"Rhein-Hunsrück-Kreis","type":"Landkreis"},"federalState":{"key":"07","name":"Rheinland-Pfalz"}},{"name":"Am Marienberg Park","postalCode":"56154","locality":"Boppard","municipality":{"key":"07140501","name":"Boppard, Stadt","type":"Stadt"},"district":{"key":"07140","name":"Rhein-Hunsrück-Kreis","type":"Landkreis"},"federalState":{"key":"07","name":"Rheinland-Pfalz"}},{"name":"Ammerweg","postalCode":"56154","locality":"Boppard","municipality":{"key":"07140501","name":"Boppard, Stadt","type":"Stadt"},"district":{"key":"07140","name":"Rhein-Hunsrück-Kreis","type":"Landkreis"},"federalState":{"key":"07","name":"Rheinland-Pfalz"}},{"name":"Am Obergraben","postalCode":"56154","locality":"Boppard","municipality":{"key":"07140501","name":"Boppard, Stadt","type":"Stadt"},"district":{"key":"07140","name":"Rhein-Hunsrück-Kreis","type":"Landkreis"},"federalState":{"key":"07","name":"Rheinland-Pfalz"}},{"name":"Amselweg","postalCode":"56154","locality":"Boppard","municipality":{"key":"07140501","name":"Boppard, Stadt","type":"Stadt"},"district":{"key":"07140","name":"Rhein-Hunsrück-Kreis","type":"Landkreis"},"federalState":{"key":"07","name":"Rheinland-Pfalz"}},{"name":"Am Tulpenbaum","postalCode":"56154","locality":"Boppard","municipality":{"key":"07140501","name":"Boppard, Stadt","type":"Stadt"},"district":{"key":"07140","name":"Rhein-Hunsrück-Kreis","type":"Landkreis"},"federalState":{"key":"07","name":"Rheinland-Pfalz"}},{"name":"Am Turnplatz","postalCode":"56154","locality":"Boppard","municipality":{"key":"07140501","name":"Boppard, Stadt","type":"Stadt"},"district":{"key":"07140","name":"Rhein-Hunsrück-Kreis","type":"Landkreis"},"federalState":{"key":"07","name":"Rheinland-Pfalz"}},{"name":"An den Kreuzen","postalCode":"56154","locality":"Boppard","municipality":{"key":"07140501","name":"Boppard, Stadt","type":"Stadt"},"district":{"key":"07140","name":"Rhein-Hunsrück-Kreis","type":"Landkreis"},"federalState":{"key":"07","name":"Rheinland-Pfalz"}},{"name":"An den Weiden","postalCode":"56154","locality":"Boppard","municipality":{"key":"07140501","name":"Boppard, Stadt","type":"Stadt"},"district":{"key":"07140","name":"Rhein-Hunsrück-Kreis","type":"Landkreis"},"federalState":{"key":"07","name":"Rheinland-Pfalz"}},{"name":"An der Platane","postalCode":"56154","locality":"Boppard","municipality":{"key":"07140501","name":"Boppard, Stadt","type":"Stadt"},"district":{"key":"07140","name":"Rhein-Hunsrück-Kreis","type":"Landkreis"},"federalState":{"key":"07","name":"Rheinland-Pfalz"}},{"name":"An der Spitzlay","postalCode":"56154","locality":"Boppard","municipality":{"key":"07140501","name":"Boppard, Stadt","type":"Stadt"},"district":{"key":"07140","name":"Rhein-Hunsrück-Kreis","type":"Landkreis"},"federalState":{"key":"07","name":"Rheinland-Pfalz"}},{"name":"Andreas-Schüller-Str.","postalCode":"56154","locality":"Boppard","municipality":{"key":"07140501","name":"Boppard, Stadt","type":"Stadt"},"district":{"key":"07140","name":"Rhein-Hunsrück-Kreis","type":"Landkreis"},"federalState":{"key":"07","name":"Rheinland-Pfalz"}},{"name":"Angertstr.","postalCode":"56154","locality":"Boppard","municipality":{"key":"07140501","name":"Boppard, Stadt","type":"Stadt"},"district":{"key":"07140","name":"Rhein-Hunsrück-Kreis","type":"Landkreis"},"federalState":{"key":"07","name":"Rheinland-Pfalz"}},{"name":"Anleger K-D","postalCode":"56154","locality":"Boppard","municipality":{"key":"07140501","name":"Boppard, Stadt","type":"Stadt"},"district":{"key":"07140","name":"Rhein-Hunsrück-Kreis","type":"Landkreis"},"federalState":{"key":"07","name":"Rheinland-Pfalz"}},{"name":"Antoniusstr.","postalCode":"56154","locality":"Boppard","municipality":{"key":"07140501","name":"Boppard, Stadt","type":"Stadt"},"district":{"key":"07140","name":"Rhein-Hunsrück-Kreis","type":"Landkreis"},"federalState":{"key":"07","name":"Rheinland-Pfalz"}},{"name":"Arche","postalCode":"56154","locality":"Boppard","municipality":{"key":"07140501","name":"Boppard, Stadt","type":"Stadt"},"district":{"key":"07140","name":"Rhein-Hunsrück-Kreis","type":"Landkreis"},"federalState":{"key":"07","name":"Rheinland-Pfalz"}},{"name":"Auf Belgenhöchst","postalCode":"56154","locality":"Boppard","municipality":{"key":"07140501","name":"Boppard, Stadt","type":"Stadt"},"district":{"key":"07140","name":"Rhein-Hunsrück-Kreis","type":"Landkreis"},"federalState":{"key":"07","name":"Rheinland-Pfalz"}},{"name":"Auf dem Balkan","postalCode":"56154","locality":"Boppard","municipality":{"key":"07140501","name":"Boppard, Stadt","type":"Stadt"},"district":{"key":"07140","name":"Rhein-Hunsrück-Kreis","type":"Landkreis"},"federalState":{"key":"07","name":"Rheinland-Pfalz"}},{"name":"Auf dem Heidchen","postalCode":"56154","locality":"Boppard","municipality":{"key":"07140501","name":"Boppard, Stadt","type":"Stadt"},"district":{"key":"07140","name":"Rhein-Hunsrück-Kreis","type":"Landkreis"},"federalState":{"key":"07","name":"Rheinland-Pfalz"}},{"name":"Auf dem Kirchenflur","postalCode":"56154","locality":"Boppard","municipality":{"key":"07140501","name":"Boppard, Stadt","type":"Stadt"},"district":{"key":"07140","name":"Rhein-Hunsrück-Kreis","type":"Landkreis"},"federalState":{"key":"07","name":"Rheinland-Pfalz"}},{"name":"Auf dem Öhlig","postalCode":"56154","locality":"Boppard","municipality":{"key":"07140501","name":"Boppard, Stadt","type":"Stadt"},"district":{"key":"07140","name":"Rhein-Hunsrück-Kreis","type":"Landkreis"},"federalState":{"key":"07","name":"Rheinland-Pfalz"}},{"name":"Auf dem Schild","postalCode":"56154","locality":"Boppard","municipality":{"key":"07140501","name":"Boppard, Stadt","type":"Stadt"},"district":{"key":"07140","name":"Rhein-Hunsrück-Kreis","type":"Landkreis"},"federalState":{"key":"07","name":"Rheinland-Pfalz"}},{"name":"Auf den Gärten","postalCode":"56154","locality":"Boppard","municipality":{"key":"07140501","name":"Boppard, Stadt","type":"Stadt"},"district":{"key":"07140","name":"Rhein-Hunsrück-Kreis","type":"Landkreis"},"federalState":{"key":"07","name":"Rheinland-Pfalz"}},{"name":"Auf der Haley","postalCode":"56154","locality":"Boppard","municipality":{"key":"07140501","name":"Boppard, Stadt","type":"Stadt"},"district":{"key":"07140","name":"Rhein-Hunsrück-Kreis","type":"Landkreis"},"federalState":{"key":"07","name":"Rheinland-Pfalz"}},{"name":"Auf der Heide","postalCode":"56154","locality":"Boppard","municipality":{"key":"07140501","name":"Boppard, Stadt","type":"Stadt"},"district":{"key":"07140","name":"Rhein-Hunsrück-Kreis","type":"Landkreis"},"federalState":{"key":"07","name":"Rheinland-Pfalz"}},{"name":"Auf der Steinrausch","postalCode":"56154","locality":"Boppard","municipality":{"key":"07140501","name":"Boppard, Stadt","type":"Stadt"},"district":{"key":"07140","name":"Rhein-Hunsrück-Kreis","type":"Landkreis"},"federalState":{"key":"07","name":"Rheinland-Pfalz"}},{"name":"Auf der Zeil","postalCode":"56154","locality":"Boppard","municipality":{"key":"07140501","name":"Boppard, Stadt","type":"Stadt"},"district":{"key":"07140","name":"Rhein-Hunsrück-Kreis","type":"Landkreis"},"federalState":{"key":"07","name":"Rheinland-Pfalz"}},{"name":"Auf Kreuz","postalCode":"56154","locality":"Boppard","municipality":{"key":"07140501","name":"Boppard, Stadt","type":"Stadt"},"district":{"key":"07140","name":"Rhein-Hunsrück-Kreis","type":"Landkreis"},"federalState":{"key":"07","name":"Rheinland-Pfalz"}},{"name":"Auf Proffen","postalCode":"56154","locality":"Boppard","municipality":{"key":"07140501","name":"Boppard, Stadt","type":"Stadt"},"district":{"key":"07140","name":"Rhein-Hunsrück-Kreis","type":"Landkreis"},"federalState":{"key":"07","name":"Rheinland-Pfalz"}},{"name":"Auf Sabel","postalCode":"56154","locality":"Boppard","municipality":{"key":"07140501","name":"Boppard, Stadt","type":"Stadt"},"district":{"key":"07140","name":"Rhein-Hunsrück-Kreis","type":"Landkreis"},"federalState":{"key":"07","name":"Rheinland-Pfalz"}},{"name":"Auf Wasem","postalCode":"56154","locality":"Boppard","municipality":{"key":"07140501","name":"Boppard, Stadt","type":"Stadt"},"district":{"key":"07140","name":"Rhein-Hunsrück-Kreis","type":"Landkreis"},"federalState":{"key":"07","name":"Rheinland-Pfalz"}},{"name":"Bahnhof Buchholz","postalCode":"56154","locality":"Boppard","municipality":{"key":"07140501","name":"Boppard, Stadt","type":"Stadt"},"district":{"key":"07140","name":"Rhein-Hunsrück-Kreis","type":"Landkreis"},"federalState":{"key":"07","name":"Rheinland-Pfalz"}},{"name":"Bahnhofstr.","postalCode":"56154","locality":"Boppard","municipality":{"key":"07140501","name":"Boppard, Stadt","type":"Stadt"},"district":{"key":"07140","name":"Rhein-Hunsrück-Kreis","type":"Landkreis"},"federalState":{"key":"07","name":"Rheinland-Pfalz"}},{"name":"Baldiunsweg","postalCode":"56154","locality":"Boppard","municipality":{"key":"07140501","name":"Boppard, Stadt","type":"Stadt"},"district":{"key":"07140","name":"Rhein-Hunsrück-Kreis","type":"Landkreis"},"federalState":{"key":"07","name":"Rheinland-Pfalz"}},{"name":"Balduinsweg","postalCode":"56154","locality":"Boppard","municipality":{"key":"07140501","name":"Boppard, Stadt","type":"Stadt"},"district":{"key":"07140","name":"Rhein-Hunsrück-Kreis","type":"Landkreis"},"federalState":{"key":"07","name":"Rheinland-Pfalz"}},{"name":"Beethovenstr.","postalCode":"56154","locality":"Boppard","municipality":{"key":"07140501","name":"Boppard, Stadt","type":"Stadt"},"district":{"key":"07140","name":"Rhein-Hunsrück-Kreis","type":"Landkreis"},"federalState":{"key":"07","name":"Rheinland-Pfalz"}},{"name":"Bei den Roten Buchen","postalCode":"56154","locality":"Boppard","municipality":{"key":"07140501","name":"Boppard, Stadt","type":"Stadt"},"district":{"key":"07140","name":"Rhein-Hunsrück-Kreis","type":"Landkreis"},"federalState":{"key":"07","name":"Rheinland-Pfalz"}},{"name":"Bergstr.","postalCode":"56154","locality":"Boppard","municipality":{"key":"07140501","name":"Boppard, Stadt","type":"Stadt"},"district":{"key":"07140","name":"Rhein-Hunsrück-Kreis","type":"Landkreis"},"federalState":{"key":"07","name":"Rheinland-Pfalz"}},{"name":"Bertolt-Brecht-Str.","postalCode":"56154","locality":"Boppard","municipality":{"key":"07140501","name":"Boppard, Stadt","type":"Stadt"},"district":{"key":"07140","name":"Rhein-Hunsrück-Kreis","type":"Landkreis"},"federalState":{"key":"07","name":"Rheinland-Pfalz"}},{"name":"Beyerhofgasse","postalCode":"56154","locality":"Boppard","municipality":{"key":"07140501","name":"Boppard, Stadt","type":"Stadt"},"district":{"key":"07140","name":"Rhein-Hunsrück-Kreis","type":"Landkreis"},"federalState":{"key":"07","name":"Rheinland-Pfalz"}},{"name":"Binger Gasse","postalCode":"56154","locality":"Boppard","municipality":{"key":"07140501","name":"Boppard, Stadt","type":"Stadt"},"district":{"key":"07140","name":"Rhein-Hunsrück-Kreis","type":"Landkreis"},"federalState":{"key":"07","name":"Rheinland-Pfalz"}},{"name":"Binger Str.","postalCode":"56154","locality":"Boppard","municipality":{"key":"07140501","name":"Boppard, Stadt","type":"Stadt"},"district":{"key":"07140","name":"Rhein-Hunsrück-Kreis","type":"Landkreis"},"federalState":{"key":"07","name":"Rheinland-Pfalz"}},{"name":"Birkenstr.","postalCode":"56154","locality":"Boppard","municipality":{"key":"07140501","name":"Boppard, Stadt","type":"Stadt"},"district":{"key":"07140","name":"Rhein-Hunsrück-Kreis","type":"Landkreis"},"federalState":{"key":"07","name":"Rheinland-Pfalz"}},{"name":"Bladenwiese","postalCode":"56154","locality":"Boppard","municipality":{"key":"07140501","name":"Boppard, Stadt","type":"Stadt"},"district":{"key":"07140","name":"Rhein-Hunsrück-Kreis","type":"Landkreis"},"federalState":{"key":"07","name":"Rheinland-Pfalz"}},{"name":"Blumenstr.","postalCode":"56154","locality":"Boppard","municipality":{"key":"07140501","name":"Boppard, Stadt","type":"Stadt"},"district":{"key":"07140","name":"Rhein-Hunsrück-Kreis","type":"Landkreis"},"federalState":{"key":"07","name":"Rheinland-Pfalz"}},{"name":"Blutgässchen","postalCode":"56154","locality":"Boppard","municipality":{"key":"07140501","name":"Boppard, Stadt","type":"Stadt"},"district":{"key":"07140","name":"Rhein-Hunsrück-Kreis","type":"Landkreis"},"federalState":{"key":"07","name":"Rheinland-Pfalz"}},{"name":"Bogenstr.","postalCode":"56154","locality":"Boppard","municipality":{"key":"07140501","name":"Boppard, Stadt","type":"Stadt"},"district":{"key":"07140","name":"Rhein-Hunsrück-Kreis","type":"Landkreis"},"federalState":{"key":"07","name":"Rheinland-Pfalz"}},{"name":"Bopparder Str.","postalCode":"56154","locality":"Boppard","municipality":{"key":"07140501","name":"Boppard, Stadt","type":"Stadt"},"district":{"key":"07140","name":"Rhein-Hunsrück-Kreis","type":"Landkreis"},"federalState":{"key":"07","name":"Rheinland-Pfalz"}},{"name":"Breite Str.","postalCode":"56154","locality":"Boppard","municipality":{"key":"07140501","name":"Boppard, Stadt","type":"Stadt"},"district":{"key":"07140","name":"Rhein-Hunsrück-Kreis","type":"Landkreis"},"federalState":{"key":"07","name":"Rheinland-Pfalz"}},{"name":"Brodenbacher Str.","postalCode":"56154","locality":"Boppard","municipality":{"key":"07140501","name":"Boppard, Stadt","type":"Stadt"},"district":{"key":"07140","name":"Rhein-Hunsrück-Kreis","type":"Landkreis"},"federalState":{"key":"07","name":"Rheinland-Pfalz"}},{"name":"Brudermichelstal","postalCode":"56154","locality":"Boppard","municipality":{"key":"07140501","name":"Boppard, Stadt","type":"Stadt"},"district":{"key":"07140","name":"Rhein-Hunsrück-Kreis","type":"Landkreis"},"federalState":{"key":"07","name":"Rheinland-Pfalz"}},{"name":"Brühler Weg","postalCode":"56154","locality":"Boppard","municipality":{"key":"07140501","name":"Boppard, Stadt","type":"Stadt"},"district":{"key":"07140","name":"Rhein-Hunsrück-Kreis","type":"Landkreis"},"federalState":{"key":"07","name":"Rheinland-Pfalz"}},{"name":"Brühlstr.","postalCode":"56154","locality":"Boppard","municipality":{"key":"07140501","name":"Boppard, Stadt","type":"Stadt"},"district":{"key":"07140","name":"Rhein-Hunsrück-Kreis","type":"Landkreis"},"federalState":{"key":"07","name":"Rheinland-Pfalz"}},{"name":"Brunnenstr.","postalCode":"56154","locality":"Boppard","municipality":{"key":"07140501","name":"Boppard, Stadt","type":"Stadt"},"district":{"key":"07140","name":"Rhein-Hunsrück-Kreis","type":"Landkreis"},"federalState":{"key":"07","name":"Rheinland-Pfalz"}},{"name":"Buchenauer Str.","postalCode":"56154","locality":"Boppard","municipality":{"key":"07140501","name":"Boppard, Stadt","type":"Stadt"},"district":{"key":"07140","name":"Rhein-Hunsrück-Kreis","type":"Landkreis"},"federalState":{"key":"07","name":"Rheinland-Pfalz"}},{"name":"Buchenstr.","postalCode":"56154","locality":"Boppard","municipality":{"key":"07140501","name":"Boppard, Stadt","type":"Stadt"},"district":{"key":"07140","name":"Rhein-Hunsrück-Kreis","type":"Landkreis"},"federalState":{"key":"07","name":"Rheinland-Pfalz"}},{"name":"Buchfinkenweg","postalCode":"56154","locality":"Boppard","municipality":{"key":"07140501","name":"Boppard, Stadt","type":"Stadt"},"district":{"key":"07140","name":"Rhein-Hunsrück-Kreis","type":"Landkreis"},"federalState":{"key":"07","name":"Rheinland-Pfalz"}},{"name":"Buchholzer Str.","postalCode":"56154","locality":"Boppard","municipality":{"key":"07140501","name":"Boppard, Stadt","type":"Stadt"},"district":{"key":"07140","name":"Rhein-Hunsrück-Kreis","type":"Landkreis"},"federalState":{"key":"07","name":"Rheinland-Pfalz"}},{"name":"Burdengasse","postalCode":"56154","locality":"Boppard","municipality":{"key":"07140501","name":"Boppard, Stadt","type":"Stadt"},"district":{"key":"07140","name":"Rhein-Hunsrück-Kreis","type":"Landkreis"},"federalState":{"key":"07","name":"Rheinland-Pfalz"}},{"name":"Burdenstr.","postalCode":"56154","locality":"Boppard","municipality":{"key":"07140501","name":"Boppard, Stadt","type":"Stadt"},"district":{"key":"07140","name":"Rhein-Hunsrück-Kreis","type":"Landkreis"},"federalState":{"key":"07","name":"Rheinland-Pfalz"}},{"name":"Burdental","postalCode":"56154","locality":"Boppard","municipality":{"key":"07140501","name":"Boppard, Stadt","type":"Stadt"},"district":{"key":"07140","name":"Rhein-Hunsrück-Kreis","type":"Landkreis"},"federalState":{"key":"07","name":"Rheinland-Pfalz"}},{"name":"Burgenblick","postalCode":"56154","locality":"Boppard","municipality":{"key":"07140501","name":"Boppard, Stadt","type":"Stadt"},"district":{"key":"07140","name":"Rhein-Hunsrück-Kreis","type":"Landkreis"},"federalState":{"key":"07","name":"Rheinland-Pfalz"}},{"name":"Bürgermeister-Syree-Platz","postalCode":"56154","locality":"Boppard","municipality":{"key":"07140501","name":"Boppard, Stadt","type":"Stadt"},"district":{"key":"07140","name":"Rhein-Hunsrück-Kreis","type":"Landkreis"},"federalState":{"key":"07","name":"Rheinland-Pfalz"}},{"name":"Burggraben","postalCode":"56154","locality":"Boppard","municipality":{"key":"07140501","name":"Boppard, Stadt","type":"Stadt"},"district":{"key":"07140","name":"Rhein-Hunsrück-Kreis","type":"Landkreis"},"federalState":{"key":"07","name":"Rheinland-Pfalz"}},{"name":"Burgplatz","postalCode":"56154","locality":"Boppard","municipality":{"key":"07140501","name":"Boppard, Stadt","type":"Stadt"},"district":{"key":"07140","name":"Rhein-Hunsrück-Kreis","type":"Landkreis"},"federalState":{"key":"07","name":"Rheinland-Pfalz"}},{"name":"Burgstr.","postalCode":"56154","locality":"Boppard","municipality":{"key":"07140501","name":"Boppard, Stadt","type":"Stadt"},"district":{"key":"07140","name":"Rhein-Hunsrück-Kreis","type":"Landkreis"},"federalState":{"key":"07","name":"Rheinland-Pfalz"}},{"name":"Casinostr.","postalCode":"56154","locality":"Boppard","municipality":{"key":"07140501","name":"Boppard, Stadt","type":"Stadt"},"district":{"key":"07140","name":"Rhein-Hunsrück-Kreis","type":"Landkreis"},"federalState":{"key":"07","name":"Rheinland-Pfalz"}},{"name":"Christengasse","postalCode":"56154","locality":"Boppard","municipality":{"key":"07140501","name":"Boppard, Stadt","type":"Stadt"},"district":{"key":"07140","name":"Rhein-Hunsrück-Kreis","type":"Landkreis"},"federalState":{"key":"07","name":"Rheinland-Pfalz"}},{"name":"Dachsweg","postalCode":"56154","locality":"Boppard","municipality":{"key":"07140501","name":"Boppard, Stadt","type":"Stadt"},"district":{"key":"07140","name":"Rhein-Hunsrück-Kreis","type":"Landkreis"},"federalState":{"key":"07","name":"Rheinland-Pfalz"}},{"name":"Dammigstr.","postalCode":"56154","locality":"Boppard","municipality":{"key":"07140501","name":"Boppard, Stadt","type":"Stadt"},"district":{"key":"07140","name":"Rhein-Hunsrück-Kreis","type":"Landkreis"},"federalState":{"key":"07","name":"Rheinland-Pfalz"}},{"name":"Daubisberger Weg","postalCode":"56154","locality":"Boppard","municipality":{"key":"07140501","name":"Boppard, Stadt","type":"Stadt"},"district":{"key":"07140","name":"Rhein-Hunsrück-Kreis","type":"Landkreis"},"federalState":{"key":"07","name":"Rheinland-Pfalz"}},{"name":"Doevenspeck","postalCode":"56154","locality":"Boppard","municipality":{"key":"07140501","name":"Boppard, Stadt","type":"Stadt"},"district":{"key":"07140","name":"Rhein-Hunsrück-Kreis","type":"Landkreis"},"federalState":{"key":"07","name":"Rheinland-Pfalz"}},{"name":"Dr.-Alexander-Stollenwerk-Str.","postalCode":"56154","locality":"Boppard","municipality":{"key":"07140501","name":"Boppard, Stadt","type":"Stadt"},"district":{"key":"07140","name":"Rhein-Hunsrück-Kreis","type":"Landkreis"},"federalState":{"key":"07","name":"Rheinland-Pfalz"}},{"name":"Drosselweg","postalCode":"56154","locality":"Boppard","municipality":{"key":"07140501","name":"Boppard, Stadt","type":"Stadt"},"district":{"key":"07140","name":"Rhein-Hunsrück-Kreis","type":"Landkreis"},"federalState":{"key":"07","name":"Rheinland-Pfalz"}},{"name":"Eckmühle","postalCode":"56154","locality":"Boppard","municipality":{"key":"07140501","name":"Boppard, Stadt","type":"Stadt"},"district":{"key":"07140","name":"Rhein-Hunsrück-Kreis","type":"Landkreis"},"federalState":{"key":"07","name":"Rheinland-Pfalz"}},{"name":"Ehrbachtal","postalCode":"56154","locality":"Boppard","municipality":{"key":"07140501","name":"Boppard, Stadt","type":"Stadt"},"district":{"key":"07140","name":"Rhein-Hunsrück-Kreis","type":"Landkreis"},"federalState":{"key":"07","name":"Rheinland-Pfalz"}},{"name":"Eisenholz","postalCode":"56154","locality":"Boppard","municipality":{"key":"07140501","name":"Boppard, Stadt","type":"Stadt"},"district":{"key":"07140","name":"Rhein-Hunsrück-Kreis","type":"Landkreis"},"federalState":{"key":"07","name":"Rheinland-Pfalz"}},{"name":"Elmstr.","postalCode":"56154","locality":"Boppard","municipality":{"key":"07140501","name":"Boppard, Stadt","type":"Stadt"},"district":{"key":"07140","name":"Rhein-Hunsrück-Kreis","type":"Landkreis"},"federalState":{"key":"07","name":"Rheinland-Pfalz"}},{"name":"Eltzerhofstr.","postalCode":"56154","locality":"Boppard","municipality":{"key":"07140501","name":"Boppard, Stadt","type":"Stadt"},"district":{"key":"07140","name":"Rhein-Hunsrück-Kreis","type":"Landkreis"},"federalState":{"key":"07","name":"Rheinland-Pfalz"}},{"name":"Erich-Kästner-Str.","postalCode":"56154","locality":"Boppard","municipality":{"key":"07140501","name":"Boppard, Stadt","type":"Stadt"},"district":{"key":"07140","name":"Rhein-Hunsrück-Kreis","type":"Landkreis"},"federalState":{"key":"07","name":"Rheinland-Pfalz"}},{"name":"Erlengrund","postalCode":"56154","locality":"Boppard","municipality":{"key":"07140501","name":"Boppard, Stadt","type":"Stadt"},"district":{"key":"07140","name":"Rhein-Hunsrück-Kreis","type":"Landkreis"},"federalState":{"key":"07","name":"Rheinland-Pfalz"}},{"name":"Eschenweg","postalCode":"56154","locality":"Boppard","municipality":{"key":"07140501","name":"Boppard, Stadt","type":"Stadt"},"district":{"key":"07140","name":"Rhein-Hunsrück-Kreis","type":"Landkreis"},"federalState":{"key":"07","name":"Rheinland-Pfalz"}},{"name":"Fasanenweg","postalCode":"56154","locality":"Boppard","municipality":{"key":"07140501","name":"Boppard, Stadt","type":"Stadt"},"district":{"key":"07140","name":"Rhein-Hunsrück-Kreis","type":"Landkreis"},"federalState":{"key":"07","name":"Rheinland-Pfalz"}},{"name":"Felsengrund","postalCode":"56154","locality":"Boppard","municipality":{"key":"07140501","name":"Boppard, Stadt","type":"Stadt"},"district":{"key":"07140","name":"Rhein-Hunsrück-Kreis","type":"Landkreis"},"federalState":{"key":"07","name":"Rheinland-Pfalz"}},{"name":"Fichtenweg","postalCode":"56154","locality":"Boppard","municipality":{"key":"07140501","name":"Boppard, Stadt","type":"Stadt"},"district":{"key":"07140","name":"Rhein-Hunsrück-Kreis","type":"Landkreis"},"federalState":{"key":"07","name":"Rheinland-Pfalz"}},{"name":"Finkenweg","postalCode":"56154","locality":"Boppard","municipality":{"key":"07140501","name":"Boppard, Stadt","type":"Stadt"},"district":{"key":"07140","name":"Rhein-Hunsrück-Kreis","type":"Landkreis"},"federalState":{"key":"07","name":"Rheinland-Pfalz"}},{"name":"Flogtstr.","postalCode":"56154","locality":"Boppard","municipality":{"key":"07140501","name":"Boppard, Stadt","type":"Stadt"},"district":{"key":"07140","name":"Rhein-Hunsrück-Kreis","type":"Landkreis"},"federalState":{"key":"07","name":"Rheinland-Pfalz"}},{"name":"Forstwirtschaftsplatz","postalCode":"56154","locality":"Boppard","municipality":{"key":"07140501","name":"Boppard, Stadt","type":"Stadt"},"district":{"key":"07140","name":"Rhein-Hunsrück-Kreis","type":"Landkreis"},"federalState":{"key":"07","name":"Rheinland-Pfalz"}},{"name":"Frankenweg","postalCode":"56154","locality":"Boppard","municipality":{"key":"07140501","name":"Boppard, Stadt","type":"Stadt"},"district":{"key":"07140","name":"Rhein-Hunsrück-Kreis","type":"Landkreis"},"federalState":{"key":"07","name":"Rheinland-Pfalz"}},{"name":"Franziskanerstr.","postalCode":"56154","locality":"Boppard","municipality":{"key":"07140501","name":"Boppard, Stadt","type":"Stadt"},"district":{"key":"07140","name":"Rhein-Hunsrück-Kreis","type":"Landkreis"},"federalState":{"key":"07","name":"Rheinland-Pfalz"}},{"name":"Fraubachtal","postalCode":"56154","locality":"Boppard","municipality":{"key":"07140501","name":"Boppard, Stadt","type":"Stadt"},"district":{"key":"07140","name":"Rhein-Hunsrück-Kreis","type":"Landkreis"},"federalState":{"key":"07","name":"Rheinland-Pfalz"}},{"name":"Fritz-Stammer-Str.","postalCode":"56154","locality":"Boppard","municipality":{"key":"07140501","name":"Boppard, Stadt","type":"Stadt"},"district":{"key":"07140","name":"Rhein-Hunsrück-Kreis","type":"Landkreis"},"federalState":{"key":"07","name":"Rheinland-Pfalz"}},{"name":"Fuchsröhre","postalCode":"56154","locality":"Boppard","municipality":{"key":"07140501","name":"Boppard, Stadt","type":"Stadt"},"district":{"key":"07140","name":"Rhein-Hunsrück-Kreis","type":"Landkreis"},"federalState":{"key":"07","name":"Rheinland-Pfalz"}},{"name":"Gartenstr.","postalCode":"56154","locality":"Boppard","municipality":{"key":"07140501","name":"Boppard, Stadt","type":"Stadt"},"district":{"key":"07140","name":"Rhein-Hunsrück-Kreis","type":"Landkreis"},"federalState":{"key":"07","name":"Rheinland-Pfalz"}},{"name":"Gedeonstr.","postalCode":"56154","locality":"Boppard","municipality":{"key":"07140501","name":"Boppard, Stadt","type":"Stadt"},"district":{"key":"07140","name":"Rhein-Hunsrück-Kreis","type":"Landkreis"},"federalState":{"key":"07","name":"Rheinland-Pfalz"}},{"name":"Giebelspitz","postalCode":"56154","locality":"Boppard","municipality":{"key":"07140501","name":"Boppard, Stadt","type":"Stadt"},"district":{"key":"07140","name":"Rhein-Hunsrück-Kreis","type":"Landkreis"},"federalState":{"key":"07","name":"Rheinland-Pfalz"}},{"name":"Ginsterweg","postalCode":"56154","locality":"Boppard","municipality":{"key":"07140501","name":"Boppard, Stadt","type":"Stadt"},"district":{"key":"07140","name":"Rhein-Hunsrück-Kreis","type":"Landkreis"},"federalState":{"key":"07","name":"Rheinland-Pfalz"}},{"name":"Goethestr.","postalCode":"56154","locality":"Boppard","municipality":{"key":"07140501","name":"Boppard, Stadt","type":"Stadt"},"district":{"key":"07140","name":"Rhein-Hunsrück-Kreis","type":"Landkreis"},"federalState":{"key":"07","name":"Rheinland-Pfalz"}},{"name":"Grasgarten","postalCode":"56154","locality":"Boppard","municipality":{"key":"07140501","name":"Boppard, Stadt","type":"Stadt"},"district":{"key":"07140","name":"Rhein-Hunsrück-Kreis","type":"Landkreis"},"federalState":{"key":"07","name":"Rheinland-Pfalz"}},{"name":"Grilloweg","postalCode":"56154","locality":"Boppard","municipality":{"key":"07140501","name":"Boppard, Stadt","type":"Stadt"},"district":{"key":"07140","name":"Rhein-Hunsrück-Kreis","type":"Landkreis"},"federalState":{"key":"07","name":"Rheinland-Pfalz"}},{"name":"Gymnasialstr.","postalCode":"56154","locality":"Boppard","municipality":{"key":"07140501","name":"Boppard, Stadt","type":"Stadt"},"district":{"key":"07140","name":"Rhein-Hunsrück-Kreis","type":"Landkreis"},"federalState":{"key":"07","name":"Rheinland-Pfalz"}},{"name":"Hangstr.","postalCode":"56154","locality":"Boppard","municipality":{"key":"07140501","name":"Boppard, Stadt","type":"Stadt"},"district":{"key":"07140","name":"Rhein-Hunsrück-Kreis","type":"Landkreis"},"federalState":{"key":"07","name":"Rheinland-Pfalz"}},{"name":"Hans-Jöres-Str.","postalCode":"56154","locality":"Boppard","municipality":{"key":"07140501","name":"Boppard, Stadt","type":"Stadt"},"district":{"key":"07140","name":"Rhein-Hunsrück-Kreis","type":"Landkreis"},"federalState":{"key":"07","name":"Rheinland-Pfalz"}},{"name":"Hasenacker","postalCode":"56154","locality":"Boppard","municipality":{"key":"07140501","name":"Boppard, Stadt","type":"Stadt"},"district":{"key":"07140","name":"Rhein-Hunsrück-Kreis","type":"Landkreis"},"federalState":{"key":"07","name":"Rheinland-Pfalz"}},{"name":"Hauptstr.","postalCode":"56154","locality":"Boppard","municipality":{"key":"07140501","name":"Boppard, Stadt","type":"Stadt"},"district":{"key":"07140","name":"Rhein-Hunsrück-Kreis","type":"Landkreis"},"federalState":{"key":"07","name":"Rheinland-Pfalz"}},{"name":"Haydnstr.","postalCode":"56154","locality":"Boppard","municipality":{"key":"07140501","name":"Boppard, Stadt","type":"Stadt"},"district":{"key":"07140","name":"Rhein-Hunsrück-Kreis","type":"Landkreis"},"federalState":{"key":"07","name":"Rheinland-Pfalz"}},{"name":"Heerstr.","postalCode":"56154","locality":"Boppard","municipality":{"key":"07140501","name":"Boppard, Stadt","type":"Stadt"},"district":{"key":"07140","name":"Rhein-Hunsrück-Kreis","type":"Landkreis"},"federalState":{"key":"07","name":"Rheinland-Pfalz"}},{"name":"Hefestr.","postalCode":"56154","locality":"Boppard","municipality":{"key":"07140501","name":"Boppard, Stadt","type":"Stadt"},"district":{"key":"07140","name":"Rhein-Hunsrück-Kreis","type":"Landkreis"},"federalState":{"key":"07","name":"Rheinland-Pfalz"}},{"name":"Heidestr.","postalCode":"56154","locality":"Boppard","municipality":{"key":"07140501","name":"Boppard, Stadt","type":"Stadt"},"district":{"key":"07140","name":"Rhein-Hunsrück-Kreis","type":"Landkreis"},"federalState":{"key":"07","name":"Rheinland-Pfalz"}},{"name":"Heilbornstr.","postalCode":"56154","locality":"Boppard","municipality":{"key":"07140501","name":"Boppard, Stadt","type":"Stadt"},"district":{"key":"07140","name":"Rhein-Hunsrück-Kreis","type":"Landkreis"},"federalState":{"key":"07","name":"Rheinland-Pfalz"}},{"name":"Heinrich-Heine-Str.","postalCode":"56154","locality":"Boppard","municipality":{"key":"07140501","name":"Boppard, Stadt","type":"Stadt"},"district":{"key":"07140","name":"Rhein-Hunsrück-Kreis","type":"Landkreis"},"federalState":{"key":"07","name":"Rheinland-Pfalz"}},{"name":"Helene-Pagés-Str.","postalCode":"56154","locality":"Boppard","municipality":{"key":"07140501","name":"Boppard, Stadt","type":"Stadt"},"district":{"key":"07140","name":"Rhein-Hunsrück-Kreis","type":"Landkreis"},"federalState":{"key":"07","name":"Rheinland-Pfalz"}},{"name":"Hermann-Holz-Str.","postalCode":"56154","locality":"Boppard","municipality":{"key":"07140501","name":"Boppard, Stadt","type":"Stadt"},"district":{"key":"07140","name":"Rhein-Hunsrück-Kreis","type":"Landkreis"},"federalState":{"key":"07","name":"Rheinland-Pfalz"}},{"name":"Herrengutweg","postalCode":"56154","locality":"Boppard","municipality":{"key":"07140501","name":"Boppard, Stadt","type":"Stadt"},"district":{"key":"07140","name":"Rhein-Hunsrück-Kreis","type":"Landkreis"},"federalState":{"key":"07","name":"Rheinland-Pfalz"}},{"name":"Hinter der Haie","postalCode":"56154","locality":"Boppard","municipality":{"key":"07140501","name":"Boppard, Stadt","type":"Stadt"},"district":{"key":"07140","name":"Rhein-Hunsrück-Kreis","type":"Landkreis"},"federalState":{"key":"07","name":"Rheinland-Pfalz"}},{"name":"Hintergasse","postalCode":"56154","locality":"Boppard","municipality":{"key":"07140501","name":"Boppard, Stadt","type":"Stadt"},"district":{"key":"07140","name":"Rhein-Hunsrück-Kreis","type":"Landkreis"},"federalState":{"key":"07","name":"Rheinland-Pfalz"}},{"name":"Hinterm Backes","postalCode":"56154","locality":"Boppard","municipality":{"key":"07140501","name":"Boppard, Stadt","type":"Stadt"},"district":{"key":"07140","name":"Rhein-Hunsrück-Kreis","type":"Landkreis"},"federalState":{"key":"07","name":"Rheinland-Pfalz"}},{"name":"Hinterm Hollerbusch","postalCode":"56154","locality":"Boppard","municipality":{"key":"07140501","name":"Boppard, Stadt","type":"Stadt"},"district":{"key":"07140","name":"Rhein-Hunsrück-Kreis","type":"Landkreis"},"federalState":{"key":"07","name":"Rheinland-Pfalz"}},{"name":"Hof Taunusblick","postalCode":"56154","locality":"Boppard","municipality":{"key":"07140501","name":"Boppard, Stadt","type":"Stadt"},"district":{"key":"07140","name":"Rhein-Hunsrück-Kreis","type":"Landkreis"},"federalState":{"key":"07","name":"Rheinland-Pfalz"}},{"name":"Hoher Klosterweg","postalCode":"56154","locality":"Boppard","municipality":{"key":"07140501","name":"Boppard, Stadt","type":"Stadt"},"district":{"key":"07140","name":"Rhein-Hunsrück-Kreis","type":"Landkreis"},"federalState":{"key":"07","name":"Rheinland-Pfalz"}},{"name":"Hohlstr.","postalCode":"56154","locality":"Boppard","municipality":{"key":"07140501","name":"Boppard, Stadt","type":"Stadt"},"district":{"key":"07140","name":"Rhein-Hunsrück-Kreis","type":"Landkreis"},"federalState":{"key":"07","name":"Rheinland-Pfalz"}},{"name":"Hubertusstr.","postalCode":"56154","locality":"Boppard","municipality":{"key":"07140501","name":"Boppard, Stadt","type":"Stadt"},"district":{"key":"07140","name":"Rhein-Hunsrück-Kreis","type":"Landkreis"},"federalState":{"key":"07","name":"Rheinland-Pfalz"}},{"name":"Hübinger Str.","postalCode":"56154","locality":"Boppard","municipality":{"key":"07140501","name":"Boppard, Stadt","type":"Stadt"},"district":{"key":"07140","name":"Rhein-Hunsrück-Kreis","type":"Landkreis"},"federalState":{"key":"07","name":"Rheinland-Pfalz"}},{"name":"Hügelstr.","postalCode":"56154","locality":"Boppard","municipality":{"key":"07140501","name":"Boppard, Stadt","type":"Stadt"},"district":{"key":"07140","name":"Rhein-Hunsrück-Kreis","type":"Landkreis"},"federalState":{"key":"07","name":"Rheinland-Pfalz"}},{"name":"Humperdinckstr.","postalCode":"56154","locality":"Boppard","municipality":{"key":"07140501","name":"Boppard, Stadt","type":"Stadt"},"district":{"key":"07140","name":"Rhein-Hunsrück-Kreis","type":"Landkreis"},"federalState":{"key":"07","name":"Rheinland-Pfalz"}},{"name":"Hunsrückhöhenstr.","postalCode":"56154","locality":"Boppard","municipality":{"key":"07140501","name":"Boppard, Stadt","type":"Stadt"},"district":{"key":"07140","name":"Rhein-Hunsrück-Kreis","type":"Landkreis"},"federalState":{"key":"07","name":"Rheinland-Pfalz"}},{"name":"Hüttenweg","postalCode":"56154","locality":"Boppard","municipality":{"key":"07140501","name":"Boppard, Stadt","type":"Stadt"},"district":{"key":"07140","name":"Rhein-Hunsrück-Kreis","type":"Landkreis"},"federalState":{"key":"07","name":"Rheinland-Pfalz"}},{"name":"Igelstr.","postalCode":"56154","locality":"Boppard","municipality":{"key":"07140501","name":"Boppard, Stadt","type":"Stadt"},"district":{"key":"07140","name":"Rhein-Hunsrück-Kreis","type":"Landkreis"},"federalState":{"key":"07","name":"Rheinland-Pfalz"}},{"name":"Im Anger","postalCode":"56154","locality":"Boppard","municipality":{"key":"07140501","name":"Boppard, Stadt","type":"Stadt"},"district":{"key":"07140","name":"Rhein-Hunsrück-Kreis","type":"Landkreis"},"federalState":{"key":"07","name":"Rheinland-Pfalz"}},{"name":"Im Bienengarten","postalCode":"56154","locality":"Boppard","municipality":{"key":"07140501","name":"Boppard, Stadt","type":"Stadt"},"district":{"key":"07140","name":"Rhein-Hunsrück-Kreis","type":"Landkreis"},"federalState":{"key":"07","name":"Rheinland-Pfalz"}},{"name":"Im Blütenhain","postalCode":"56154","locality":"Boppard","municipality":{"key":"07140501","name":"Boppard, Stadt","type":"Stadt"},"district":{"key":"07140","name":"Rhein-Hunsrück-Kreis","type":"Landkreis"},"federalState":{"key":"07","name":"Rheinland-Pfalz"}},{"name":"Im Buchmorgen","postalCode":"56154","locality":"Boppard","municipality":{"key":"07140501","name":"Boppard, Stadt","type":"Stadt"},"district":{"key":"07140","name":"Rhein-Hunsrück-Kreis","type":"Landkreis"},"federalState":{"key":"07","name":"Rheinland-Pfalz"}},{"name":"Im Bungert","postalCode":"56154","locality":"Boppard","municipality":{"key":"07140501","name":"Boppard, Stadt","type":"Stadt"},"district":{"key":"07140","name":"Rhein-Hunsrück-Kreis","type":"Landkreis"},"federalState":{"key":"07","name":"Rheinland-Pfalz"}},{"name":"Im Drum","postalCode":"56154","locality":"Boppard","municipality":{"key":"07140501","name":"Boppard, Stadt","type":"Stadt"},"district":{"key":"07140","name":"Rhein-Hunsrück-Kreis","type":"Landkreis"},"federalState":{"key":"07","name":"Rheinland-Pfalz"}},{"name":"Im Ermeserhahn","postalCode":"56154","locality":"Boppard","municipality":{"key":"07140501","name":"Boppard, Stadt","type":"Stadt"},"district":{"key":"07140","name":"Rhein-Hunsrück-Kreis","type":"Landkreis"},"federalState":{"key":"07","name":"Rheinland-Pfalz"}},{"name":"Im Goldenen Stück","postalCode":"56154","locality":"Boppard","municipality":{"key":"07140501","name":"Boppard, Stadt","type":"Stadt"},"district":{"key":"07140","name":"Rhein-Hunsrück-Kreis","type":"Landkreis"},"federalState":{"key":"07","name":"Rheinland-Pfalz"}},{"name":"Im Goldregen","postalCode":"56154","locality":"Boppard","municipality":{"key":"07140501","name":"Boppard, Stadt","type":"Stadt"},"district":{"key":"07140","name":"Rhein-Hunsrück-Kreis","type":"Landkreis"},"federalState":{"key":"07","name":"Rheinland-Pfalz"}},{"name":"Im Hähnchen","postalCode":"56154","locality":"Boppard","municipality":{"key":"07140501","name":"Boppard, Stadt","type":"Stadt"},"district":{"key":"07140","name":"Rhein-Hunsrück-Kreis","type":"Landkreis"},"federalState":{"key":"07","name":"Rheinland-Pfalz"}},{"name":"Im Hofel","postalCode":"56154","locality":"Boppard","municipality":{"key":"07140501","name":"Boppard, Stadt","type":"Stadt"},"district":{"key":"07140","name":"Rhein-Hunsrück-Kreis","type":"Landkreis"},"federalState":{"key":"07","name":"Rheinland-Pfalz"}},{"name":"Im Hohenroth","postalCode":"56154","locality":"Boppard","municipality":{"key":"07140501","name":"Boppard, Stadt","type":"Stadt"},"district":{"key":"07140","name":"Rhein-Hunsrück-Kreis","type":"Landkreis"},"federalState":{"key":"07","name":"Rheinland-Pfalz"}},{"name":"Im Langgarten","postalCode":"56154","locality":"Boppard","municipality":{"key":"07140501","name":"Boppard, Stadt","type":"Stadt"},"district":{"key":"07140","name":"Rhein-Hunsrück-Kreis","type":"Landkreis"},"federalState":{"key":"07","name":"Rheinland-Pfalz"}},{"name":"Im Ohlengrund","postalCode":"56154","locality":"Boppard","municipality":{"key":"07140501","name":"Boppard, Stadt","type":"Stadt"},"district":{"key":"07140","name":"Rhein-Hunsrück-Kreis","type":"Landkreis"},"federalState":{"key":"07","name":"Rheinland-Pfalz"}},{"name":"Im Quebel","postalCode":"56154","locality":"Boppard","municipality":{"key":"07140501","name":"Boppard, Stadt","type":"Stadt"},"district":{"key":"07140","name":"Rhein-Hunsrück-Kreis","type":"Landkreis"},"federalState":{"key":"07","name":"Rheinland-Pfalz"}},{"name":"Im Reitel","postalCode":"56154","locality":"Boppard","municipality":{"key":"07140501","name":"Boppard, Stadt","type":"Stadt"},"district":{"key":"07140","name":"Rhein-Hunsrück-Kreis","type":"Landkreis"},"federalState":{"key":"07","name":"Rheinland-Pfalz"}},{"name":"Im Rosenacker","postalCode":"56154","locality":"Boppard","municipality":{"key":"07140501","name":"Boppard, Stadt","type":"Stadt"},"district":{"key":"07140","name":"Rhein-Hunsrück-Kreis","type":"Landkreis"},"federalState":{"key":"07","name":"Rheinland-Pfalz"}},{"name":"Im Schiessgraben","postalCode":"56154","locality":"Boppard","municipality":{"key":"07140501","name":"Boppard, Stadt","type":"Stadt"},"district":{"key":"07140","name":"Rhein-Hunsrück-Kreis","type":"Landkreis"},"federalState":{"key":"07","name":"Rheinland-Pfalz"}},{"name":"Im Vogelsang","postalCode":"56154","locality":"Boppard","municipality":{"key":"07140501","name":"Boppard, Stadt","type":"Stadt"},"district":{"key":"07140","name":"Rhein-Hunsrück-Kreis","type":"Landkreis"},"federalState":{"key":"07","name":"Rheinland-Pfalz"}},{"name":"Im Wiesengrund","postalCode":"56154","locality":"Boppard","municipality":{"key":"07140501","name":"Boppard, Stadt","type":"Stadt"},"district":{"key":"07140","name":"Rhein-Hunsrück-Kreis","type":"Landkreis"},"federalState":{"key":"07","name":"Rheinland-Pfalz"}},{"name":"In den Gassen","postalCode":"56154","locality":"Boppard","municipality":{"key":"07140501","name":"Boppard, Stadt","type":"Stadt"},"district":{"key":"07140","name":"Rhein-Hunsrück-Kreis","type":"Landkreis"},"federalState":{"key":"07","name":"Rheinland-Pfalz"}},{"name":"In den Gassenwiesen","postalCode":"56154","locality":"Boppard","municipality":{"key":"07140501","name":"Boppard, Stadt","type":"Stadt"},"district":{"key":"07140","name":"Rhein-Hunsrück-Kreis","type":"Landkreis"},"federalState":{"key":"07","name":"Rheinland-Pfalz"}},{"name":"In den Seifen","postalCode":"56154","locality":"Boppard","municipality":{"key":"07140501","name":"Boppard, Stadt","type":"Stadt"},"district":{"key":"07140","name":"Rhein-Hunsrück-Kreis","type":"Landkreis"},"federalState":{"key":"07","name":"Rheinland-Pfalz"}},{"name":"In den Wiesen","postalCode":"56154","locality":"Boppard","municipality":{"key":"07140501","name":"Boppard, Stadt","type":"Stadt"},"district":{"key":"07140","name":"Rhein-Hunsrück-Kreis","type":"Landkreis"},"federalState":{"key":"07","name":"Rheinland-Pfalz"}},{"name":"In der Hirschwiese","postalCode":"56154","locality":"Boppard","municipality":{"key":"07140501","name":"Boppard, Stadt","type":"Stadt"},"district":{"key":"07140","name":"Rhein-Hunsrück-Kreis","type":"Landkreis"},"federalState":{"key":"07","name":"Rheinland-Pfalz"}},{"name":"In der Hohl","postalCode":"56154","locality":"Boppard","municipality":{"key":"07140501","name":"Boppard, Stadt","type":"Stadt"},"district":{"key":"07140","name":"Rhein-Hunsrück-Kreis","type":"Landkreis"},"federalState":{"key":"07","name":"Rheinland-Pfalz"}},{"name":"Jakobsgarten","postalCode":"56154","locality":"Boppard","municipality":{"key":"07140501","name":"Boppard, Stadt","type":"Stadt"},"district":{"key":"07140","name":"Rhein-Hunsrück-Kreis","type":"Landkreis"},"federalState":{"key":"07","name":"Rheinland-Pfalz"}},{"name":"Jean-Nick-Str.","postalCode":"56154","locality":"Boppard","municipality":{"key":"07140501","name":"Boppard, Stadt","type":"Stadt"},"district":{"key":"07140","name":"Rhein-Hunsrück-Kreis","type":"Landkreis"},"federalState":{"key":"07","name":"Rheinland-Pfalz"}},{"name":"Johannesgarten","postalCode":"56154","locality":"Boppard","municipality":{"key":"07140501","name":"Boppard, Stadt","type":"Stadt"},"district":{"key":"07140","name":"Rhein-Hunsrück-Kreis","type":"Landkreis"},"federalState":{"key":"07","name":"Rheinland-Pfalz"}},{"name":"Johann-Sebastian-Bach-Str.","postalCode":"56154","locality":"Boppard","municipality":{"key":"07140501","name":"Boppard, Stadt","type":"Stadt"},"district":{"key":"07140","name":"Rhein-Hunsrück-Kreis","type":"Landkreis"},"federalState":{"key":"07","name":"Rheinland-Pfalz"}},{"name":"Josef-Dany-Str.","postalCode":"56154","locality":"Boppard","municipality":{"key":"07140501","name":"Boppard, Stadt","type":"Stadt"},"district":{"key":"07140","name":"Rhein-Hunsrück-Kreis","type":"Landkreis"},"federalState":{"key":"07","name":"Rheinland-Pfalz"}},{"name":"Kaiser-Friedrich-Str.","postalCode":"56154","locality":"Boppard","municipality":{"key":"07140501","name":"Boppard, Stadt","type":"Stadt"},"district":{"key":"07140","name":"Rhein-Hunsrück-Kreis","type":"Landkreis"},"federalState":{"key":"07","name":"Rheinland-Pfalz"}},{"name":"Kaiser-Otto-Str.","postalCode":"56154","locality":"Boppard","municipality":{"key":"07140501","name":"Boppard, Stadt","type":"Stadt"},"district":{"key":"07140","name":"Rhein-Hunsrück-Kreis","type":"Landkreis"},"federalState":{"key":"07","name":"Rheinland-Pfalz"}},{"name":"Kalmuttal","postalCode":"56154","locality":"Boppard","municipality":{"key":"07140501","name":"Boppard, Stadt","type":"Stadt"},"district":{"key":"07140","name":"Rhein-Hunsrück-Kreis","type":"Landkreis"},"federalState":{"key":"07","name":"Rheinland-Pfalz"}},{"name":"Karmeliterstr.","postalCode":"56154","locality":"Boppard","municipality":{"key":"07140501","name":"Boppard, Stadt","type":"Stadt"},"district":{"key":"07140","name":"Rhein-Hunsrück-Kreis","type":"Landkreis"},"federalState":{"key":"07","name":"Rheinland-Pfalz"}},{"name":"Kastanienstr.","postalCode":"56154","locality":"Boppard","municipality":{"key":"07140501","name":"Boppard, Stadt","type":"Stadt"},"district":{"key":"07140","name":"Rhein-Hunsrück-Kreis","type":"Landkreis"},"federalState":{"key":"07","name":"Rheinland-Pfalz"}},{"name":"KD-Anlegestelle Boppard","postalCode":"56154","locality":"Boppard","municipality":{"key":"07140501","name":"Boppard, Stadt","type":"Stadt"},"district":{"key":"07140","name":"Rhein-Hunsrück-Kreis","type":"Landkreis"},"federalState":{"key":"07","name":"Rheinland-Pfalz"}},{"name":"Kiefernweg","postalCode":"56154","locality":"Boppard","municipality":{"key":"07140501","name":"Boppard, Stadt","type":"Stadt"},"district":{"key":"07140","name":"Rhein-Hunsrück-Kreis","type":"Landkreis"},"federalState":{"key":"07","name":"Rheinland-Pfalz"}},{"name":"Kirchgasse","postalCode":"56154","locality":"Boppard","municipality":{"key":"07140501","name":"Boppard, Stadt","type":"Stadt"},"district":{"key":"07140","name":"Rhein-Hunsrück-Kreis","type":"Landkreis"},"federalState":{"key":"07","name":"Rheinland-Pfalz"}},{"name":"Kirchstr.","postalCode":"56154","locality":"Boppard","municipality":{"key":"07140501","name":"Boppard, Stadt","type":"Stadt"},"district":{"key":"07140","name":"Rhein-Hunsrück-Kreis","type":"Landkreis"},"federalState":{"key":"07","name":"Rheinland-Pfalz"}},{"name":"Kreuzberger Weg","postalCode":"56154","locality":"Boppard","municipality":{"key":"07140501","name":"Boppard, Stadt","type":"Stadt"},"district":{"key":"07140","name":"Rhein-Hunsrück-Kreis","type":"Landkreis"},"federalState":{"key":"07","name":"Rheinland-Pfalz"}},{"name":"Kreuzweg","postalCode":"56154","locality":"Boppard","municipality":{"key":"07140501","name":"Boppard, Stadt","type":"Stadt"},"district":{"key":"07140","name":"Rhein-Hunsrück-Kreis","type":"Landkreis"},"federalState":{"key":"07","name":"Rheinland-Pfalz"}},{"name":"Kronengasse","postalCode":"56154","locality":"Boppard","municipality":{"key":"07140501","name":"Boppard, Stadt","type":"Stadt"},"district":{"key":"07140","name":"Rhein-Hunsrück-Kreis","type":"Landkreis"},"federalState":{"key":"07","name":"Rheinland-Pfalz"}},{"name":"Kühgasse","postalCode":"56154","locality":"Boppard","municipality":{"key":"07140501","name":"Boppard, Stadt","type":"Stadt"},"district":{"key":"07140","name":"Rhein-Hunsrück-Kreis","type":"Landkreis"},"federalState":{"key":"07","name":"Rheinland-Pfalz"}},{"name":"Kühgassse","postalCode":"56154","locality":"Boppard","municipality":{"key":"07140501","name":"Boppard, Stadt","type":"Stadt"},"district":{"key":"07140","name":"Rhein-Hunsrück-Kreis","type":"Landkreis"},"federalState":{"key":"07","name":"Rheinland-Pfalz"}},{"name":"Kurpark Bald Salzig","postalCode":"56154","locality":"Boppard","municipality":{"key":"07140501","name":"Boppard, Stadt","type":"Stadt"},"district":{"key":"07140","name":"Rhein-Hunsrück-Kreis","type":"Landkreis"},"federalState":{"key":"07","name":"Rheinland-Pfalz"}},{"name":"Kyffhäuser Weg","postalCode":"56154","locality":"Boppard","municipality":{"key":"07140501","name":"Boppard, Stadt","type":"Stadt"},"district":{"key":"07140","name":"Rhein-Hunsrück-Kreis","type":"Landkreis"},"federalState":{"key":"07","name":"Rheinland-Pfalz"}},{"name":"Lämmergasse","postalCode":"56154","locality":"Boppard","municipality":{"key":"07140501","name":"Boppard, Stadt","type":"Stadt"},"district":{"key":"07140","name":"Rhein-Hunsrück-Kreis","type":"Landkreis"},"federalState":{"key":"07","name":"Rheinland-Pfalz"}},{"name":"Lärchenweg","postalCode":"56154","locality":"Boppard","municipality":{"key":"07140501","name":"Boppard, Stadt","type":"Stadt"},"district":{"key":"07140","name":"Rhein-Hunsrück-Kreis","type":"Landkreis"},"federalState":{"key":"07","name":"Rheinland-Pfalz"}},{"name":"Leiergasse","postalCode":"56154","locality":"Boppard","municipality":{"key":"07140501","name":"Boppard, Stadt","type":"Stadt"},"district":{"key":"07140","name":"Rhein-Hunsrück-Kreis","type":"Landkreis"},"federalState":{"key":"07","name":"Rheinland-Pfalz"}},{"name":"Leonorenstr.","postalCode":"56154","locality":"Boppard","municipality":{"key":"07140501","name":"Boppard, Stadt","type":"Stadt"},"district":{"key":"07140","name":"Rhein-Hunsrück-Kreis","type":"Landkreis"},"federalState":{"key":"07","name":"Rheinland-Pfalz"}},{"name":"Lessingstr.","postalCode":"56154","locality":"Boppard","municipality":{"key":"07140501","name":"Boppard, Stadt","type":"Stadt"},"district":{"key":"07140","name":"Rhein-Hunsrück-Kreis","type":"Landkreis"},"federalState":{"key":"07","name":"Rheinland-Pfalz"}},{"name":"Libellenweg","postalCode":"56154","locality":"Boppard","municipality":{"key":"07140501","name":"Boppard, Stadt","type":"Stadt"},"district":{"key":"07140","name":"Rhein-Hunsrück-Kreis","type":"Landkreis"},"federalState":{"key":"07","name":"Rheinland-Pfalz"}},{"name":"Liebensteinstr.","postalCode":"56154","locality":"Boppard","municipality":{"key":"07140501","name":"Boppard, Stadt","type":"Stadt"},"district":{"key":"07140","name":"Rhein-Hunsrück-Kreis","type":"Landkreis"},"federalState":{"key":"07","name":"Rheinland-Pfalz"}},{"name":"Lilientorstr.","postalCode":"56154","locality":"Boppard","municipality":{"key":"07140501","name":"Boppard, Stadt","type":"Stadt"},"district":{"key":"07140","name":"Rhein-Hunsrück-Kreis","type":"Landkreis"},"federalState":{"key":"07","name":"Rheinland-Pfalz"}},{"name":"Lindenhof","postalCode":"56154","locality":"Boppard","municipality":{"key":"07140501","name":"Boppard, Stadt","type":"Stadt"},"district":{"key":"07140","name":"Rhein-Hunsrück-Kreis","type":"Landkreis"},"federalState":{"key":"07","name":"Rheinland-Pfalz"}},{"name":"Lindenstr.","postalCode":"56154","locality":"Boppard","municipality":{"key":"07140501","name":"Boppard, Stadt","type":"Stadt"},"district":{"key":"07140","name":"Rhein-Hunsrück-Kreis","type":"Landkreis"},"federalState":{"key":"07","name":"Rheinland-Pfalz"}},{"name":"Mainzer Str.","postalCode":"56154","locality":"Boppard","municipality":{"key":"07140501","name":"Boppard, Stadt","type":"Stadt"},"district":{"key":"07140","name":"Rhein-Hunsrück-Kreis","type":"Landkreis"},"federalState":{"key":"07","name":"Rheinland-Pfalz"}},{"name":"Maria-Terwiel-Str.","postalCode":"56154","locality":"Boppard","municipality":{"key":"07140501","name":"Boppard, Stadt","type":"Stadt"},"district":{"key":"07140","name":"Rhein-Hunsrück-Kreis","type":"Landkreis"},"federalState":{"key":"07","name":"Rheinland-Pfalz"}},{"name":"Marienberger Hohl","postalCode":"56154","locality":"Boppard","municipality":{"key":"07140501","name":"Boppard, Stadt","type":"Stadt"},"district":{"key":"07140","name":"Rhein-Hunsrück-Kreis","type":"Landkreis"},"federalState":{"key":"07","name":"Rheinland-Pfalz"}},{"name":"Marienberger Str.","postalCode":"56154","locality":"Boppard","municipality":{"key":"07140501","name":"Boppard, Stadt","type":"Stadt"},"district":{"key":"07140","name":"Rhein-Hunsrück-Kreis","type":"Landkreis"},"federalState":{"key":"07","name":"Rheinland-Pfalz"}},{"name":"Marienstr.","postalCode":"56154","locality":"Boppard","municipality":{"key":"07140501","name":"Boppard, Stadt","type":"Stadt"},"district":{"key":"07140","name":"Rhein-Hunsrück-Kreis","type":"Landkreis"},"federalState":{"key":"07","name":"Rheinland-Pfalz"}},{"name":"Marktplatz","postalCode":"56154","locality":"Boppard","municipality":{"key":"07140501","name":"Boppard, Stadt","type":"Stadt"},"district":{"key":"07140","name":"Rhein-Hunsrück-Kreis","type":"Landkreis"},"federalState":{"key":"07","name":"Rheinland-Pfalz"}},{"name":"Maternusweg","postalCode":"56154","locality":"Boppard","municipality":{"key":"07140501","name":"Boppard, Stadt","type":"Stadt"},"district":{"key":"07140","name":"Rhein-Hunsrück-Kreis","type":"Landkreis"},"federalState":{"key":"07","name":"Rheinland-Pfalz"}},{"name":"Meisenweg","postalCode":"56154","locality":"Boppard","municipality":{"key":"07140501","name":"Boppard, Stadt","type":"Stadt"},"district":{"key":"07140","name":"Rhein-Hunsrück-Kreis","type":"Landkreis"},"federalState":{"key":"07","name":"Rheinland-Pfalz"}},{"name":"Mergstr.","postalCode":"56154","locality":"Boppard","municipality":{"key":"07140501","name":"Boppard, Stadt","type":"Stadt"},"district":{"key":"07140","name":"Rhein-Hunsrück-Kreis","type":"Landkreis"},"federalState":{"key":"07","name":"Rheinland-Pfalz"}},{"name":"Michael-Bach-Str.","postalCode":"56154","locality":"Boppard","municipality":{"key":"07140501","name":"Boppard, Stadt","type":"Stadt"},"district":{"key":"07140","name":"Rhein-Hunsrück-Kreis","type":"Landkreis"},"federalState":{"key":"07","name":"Rheinland-Pfalz"}},{"name":"Mittelbachtal","postalCode":"56154","locality":"Boppard","municipality":{"key":"07140501","name":"Boppard, Stadt","type":"Stadt"},"district":{"key":"07140","name":"Rhein-Hunsrück-Kreis","type":"Landkreis"},"federalState":{"key":"07","name":"Rheinland-Pfalz"}},{"name":"Mittelstr.","postalCode":"56154","locality":"Boppard","municipality":{"key":"07140501","name":"Boppard, Stadt","type":"Stadt"},"district":{"key":"07140","name":"Rhein-Hunsrück-Kreis","type":"Landkreis"},"federalState":{"key":"07","name":"Rheinland-Pfalz"}},{"name":"Mittlere Marktstaße","postalCode":"56154","locality":"Boppard","municipality":{"key":"07140501","name":"Boppard, Stadt","type":"Stadt"},"district":{"key":"07140","name":"Rhein-Hunsrück-Kreis","type":"Landkreis"},"federalState":{"key":"07","name":"Rheinland-Pfalz"}},{"name":"Mooshell","postalCode":"56154","locality":"Boppard","municipality":{"key":"07140501","name":"Boppard, Stadt","type":"Stadt"},"district":{"key":"07140","name":"Rhein-Hunsrück-Kreis","type":"Landkreis"},"federalState":{"key":"07","name":"Rheinland-Pfalz"}},{"name":"Mörderbachtal","postalCode":"56154","locality":"Boppard","municipality":{"key":"07140501","name":"Boppard, Stadt","type":"Stadt"},"district":{"key":"07140","name":"Rhein-Hunsrück-Kreis","type":"Landkreis"},"federalState":{"key":"07","name":"Rheinland-Pfalz"}},{"name":"Moselstr.","postalCode":"56154","locality":"Boppard","municipality":{"key":"07140501","name":"Boppard, Stadt","type":"Stadt"},"district":{"key":"07140","name":"Rhein-Hunsrück-Kreis","type":"Landkreis"},"federalState":{"key":"07","name":"Rheinland-Pfalz"}},{"name":"Mozartstr.","postalCode":"56154","locality":"Boppard","municipality":{"key":"07140501","name":"Boppard, Stadt","type":"Stadt"},"district":{"key":"07140","name":"Rhein-Hunsrück-Kreis","type":"Landkreis"},"federalState":{"key":"07","name":"Rheinland-Pfalz"}},{"name":"Mühlenstr.","postalCode":"56154","locality":"Boppard","municipality":{"key":"07140501","name":"Boppard, Stadt","type":"Stadt"},"district":{"key":"07140","name":"Rhein-Hunsrück-Kreis","type":"Landkreis"},"federalState":{"key":"07","name":"Rheinland-Pfalz"}},{"name":"Mühltal","postalCode":"56154","locality":"Boppard","municipality":{"key":"07140501","name":"Boppard, Stadt","type":"Stadt"},"district":{"key":"07140","name":"Rhein-Hunsrück-Kreis","type":"Landkreis"},"federalState":{"key":"07","name":"Rheinland-Pfalz"}},{"name":"Münchsufer","postalCode":"56154","locality":"Boppard","municipality":{"key":"07140501","name":"Boppard, Stadt","type":"Stadt"},"district":{"key":"07140","name":"Rhein-Hunsrück-Kreis","type":"Landkreis"},"federalState":{"key":"07","name":"Rheinland-Pfalz"}},{"name":"Nagelgasse","postalCode":"56154","locality":"Boppard","municipality":{"key":"07140501","name":"Boppard, Stadt","type":"Stadt"},"district":{"key":"07140","name":"Rhein-Hunsrück-Kreis","type":"Landkreis"},"federalState":{"key":"07","name":"Rheinland-Pfalz"}},{"name":"Neustr.","postalCode":"56154","locality":"Boppard","municipality":{"key":"07140501","name":"Boppard, Stadt","type":"Stadt"},"district":{"key":"07140","name":"Rhein-Hunsrück-Kreis","type":"Landkreis"},"federalState":{"key":"07","name":"Rheinland-Pfalz"}},{"name":"Neuweg","postalCode":"56154","locality":"Boppard","municipality":{"key":"07140501","name":"Boppard, Stadt","type":"Stadt"},"district":{"key":"07140","name":"Rhein-Hunsrück-Kreis","type":"Landkreis"},"federalState":{"key":"07","name":"Rheinland-Pfalz"}},{"name":"Niedersburger Weg","postalCode":"56154","locality":"Boppard","municipality":{"key":"07140501","name":"Boppard, Stadt","type":"Stadt"},"district":{"key":"07140","name":"Rhein-Hunsrück-Kreis","type":"Landkreis"},"federalState":{"key":"07","name":"Rheinland-Pfalz"}},{"name":"Niederstadtstr.","postalCode":"56154","locality":"Boppard","municipality":{"key":"07140501","name":"Boppard, Stadt","type":"Stadt"},"district":{"key":"07140","name":"Rhein-Hunsrück-Kreis","type":"Landkreis"},"federalState":{"key":"07","name":"Rheinland-Pfalz"}},{"name":"Oberbornstr.","postalCode":"56154","locality":"Boppard","municipality":{"key":"07140501","name":"Boppard, Stadt","type":"Stadt"},"district":{"key":"07140","name":"Rhein-Hunsrück-Kreis","type":"Landkreis"},"federalState":{"key":"07","name":"Rheinland-Pfalz"}},{"name":"Obere Fraubachstr.","postalCode":"56154","locality":"Boppard","municipality":{"key":"07140501","name":"Boppard, Stadt","type":"Stadt"},"district":{"key":"07140","name":"Rhein-Hunsrück-Kreis","type":"Landkreis"},"federalState":{"key":"07","name":"Rheinland-Pfalz"}},{"name":"Obere Marktstaße","postalCode":"56154","locality":"Boppard","municipality":{"key":"07140501","name":"Boppard, Stadt","type":"Stadt"},"district":{"key":"07140","name":"Rhein-Hunsrück-Kreis","type":"Landkreis"},"federalState":{"key":"07","name":"Rheinland-Pfalz"}},{"name":"Obere Rheingasse","postalCode":"56154","locality":"Boppard","municipality":{"key":"07140501","name":"Boppard, Stadt","type":"Stadt"},"district":{"key":"07140","name":"Rhein-Hunsrück-Kreis","type":"Landkreis"},"federalState":{"key":"07","name":"Rheinland-Pfalz"}},{"name":"Oberfeller Str.","postalCode":"56154","locality":"Boppard","municipality":{"key":"07140501","name":"Boppard, Stadt","type":"Stadt"},"district":{"key":"07140","name":"Rhein-Hunsrück-Kreis","type":"Landkreis"},"federalState":{"key":"07","name":"Rheinland-Pfalz"}},{"name":"Oberstr.","postalCode":"56154","locality":"Boppard","municipality":{"key":"07140501","name":"Boppard, Stadt","type":"Stadt"},"district":{"key":"07140","name":"Rhein-Hunsrück-Kreis","type":"Landkreis"},"federalState":{"key":"07","name":"Rheinland-Pfalz"}},{"name":"Oberwies","postalCode":"56154","locality":"Boppard","municipality":{"key":"07140501","name":"Boppard, Stadt","type":"Stadt"},"district":{"key":"07140","name":"Rhein-Hunsrück-Kreis","type":"Landkreis"},"federalState":{"key":"07","name":"Rheinland-Pfalz"}},{"name":"Ohlenfeldstr.","postalCode":"56154","locality":"Boppard","municipality":{"key":"07140501","name":"Boppard, Stadt","type":"Stadt"},"district":{"key":"07140","name":"Rhein-Hunsrück-Kreis","type":"Landkreis"},"federalState":{"key":"07","name":"Rheinland-Pfalz"}},{"name":"Ordensritterstr.","postalCode":"56154","locality":"Boppard","municipality":{"key":"07140501","name":"Boppard, Stadt","type":"Stadt"},"district":{"key":"07140","name":"Rhein-Hunsrück-Kreis","type":"Landkreis"},"federalState":{"key":"07","name":"Rheinland-Pfalz"}},{"name":"Orgelbornstr.","postalCode":"56154","locality":"Boppard","municipality":{"key":"07140501","name":"Boppard, Stadt","type":"Stadt"},"district":{"key":"07140","name":"Rhein-Hunsrück-Kreis","type":"Landkreis"},"federalState":{"key":"07","name":"Rheinland-Pfalz"}},{"name":"Pankratiusring","postalCode":"56154","locality":"Boppard","municipality":{"key":"07140501","name":"Boppard, Stadt","type":"Stadt"},"district":{"key":"07140","name":"Rhein-Hunsrück-Kreis","type":"Landkreis"},"federalState":{"key":"07","name":"Rheinland-Pfalz"}},{"name":"Parkanlage Brunnen / Spielplatz","postalCode":"56154","locality":"Boppard","municipality":{"key":"07140501","name":"Boppard, Stadt","type":"Stadt"},"district":{"key":"07140","name":"Rhein-Hunsrück-Kreis","type":"Landkreis"},"federalState":{"key":"07","name":"Rheinland-Pfalz"}},{"name":"Park rings um die Japane Steinlaterne","postalCode":"56154","locality":"Boppard","municipality":{"key":"07140501","name":"Boppard, Stadt","type":"Stadt"},"district":{"key":"07140","name":"Rhein-Hunsrück-Kreis","type":"Landkreis"},"federalState":{"key":"07","name":"Rheinland-Pfalz"}},{"name":"Parkstr.","postalCode":"56154","locality":"Boppard","municipality":{"key":"07140501","name":"Boppard, Stadt","type":"Stadt"},"district":{"key":"07140","name":"Rhein-Hunsrück-Kreis","type":"Landkreis"},"federalState":{"key":"07","name":"Rheinland-Pfalz"}},{"name":"Pastorsgasse","postalCode":"56154","locality":"Boppard","municipality":{"key":"07140501","name":"Boppard, Stadt","type":"Stadt"},"district":{"key":"07140","name":"Rhein-Hunsrück-Kreis","type":"Landkreis"},"federalState":{"key":"07","name":"Rheinland-Pfalz"}},{"name":"Pastor-Wiegand-Str.","postalCode":"56154","locality":"Boppard","municipality":{"key":"07140501","name":"Boppard, Stadt","type":"Stadt"},"district":{"key":"07140","name":"Rhein-Hunsrück-Kreis","type":"Landkreis"},"federalState":{"key":"07","name":"Rheinland-Pfalz"}},{"name":"Paul-Piwowarsky-Str.","postalCode":"56154","locality":"Boppard","municipality":{"key":"07140501","name":"Boppard, Stadt","type":"Stadt"},"district":{"key":"07140","name":"Rhein-Hunsrück-Kreis","type":"Landkreis"},"federalState":{"key":"07","name":"Rheinland-Pfalz"}},{"name":"Paul-Preiss-Str.","postalCode":"56154","locality":"Boppard","municipality":{"key":"07140501","name":"Boppard, Stadt","type":"Stadt"},"district":{"key":"07140","name":"Rhein-Hunsrück-Kreis","type":"Landkreis"},"federalState":{"key":"07","name":"Rheinland-Pfalz"}},{"name":"Peterhof","postalCode":"56154","locality":"Boppard","municipality":{"key":"07140501","name":"Boppard, Stadt","type":"Stadt"},"district":{"key":"07140","name":"Rhein-Hunsrück-Kreis","type":"Landkreis"},"federalState":{"key":"07","name":"Rheinland-Pfalz"}},{"name":"Peter-Josef-Kreuzberg-Str.","postalCode":"56154","locality":"Boppard","municipality":{"key":"07140501","name":"Boppard, Stadt","type":"Stadt"},"district":{"key":"07140","name":"Rhein-Hunsrück-Kreis","type":"Landkreis"},"federalState":{"key":"07","name":"Rheinland-Pfalz"}},{"name":"Pfarrer-Nick-Str.","postalCode":"56154","locality":"Boppard","municipality":{"key":"07140501","name":"Boppard, Stadt","type":"Stadt"},"district":{"key":"07140","name":"Rhein-Hunsrück-Kreis","type":"Landkreis"},"federalState":{"key":"07","name":"Rheinland-Pfalz"}},{"name":"Pielstr.","postalCode":"56154","locality":"Boppard","municipality":{"key":"07140501","name":"Boppard, Stadt","type":"Stadt"},"district":{"key":"07140","name":"Rhein-Hunsrück-Kreis","type":"Landkreis"},"federalState":{"key":"07","name":"Rheinland-Pfalz"}},{"name":"Pletschweg","postalCode":"56154","locality":"Boppard","municipality":{"key":"07140501","name":"Boppard, Stadt","type":"Stadt"},"district":{"key":"07140","name":"Rhein-Hunsrück-Kreis","type":"Landkreis"},"federalState":{"key":"07","name":"Rheinland-Pfalz"}},{"name":"Poststr.","postalCode":"56154","locality":"Boppard","municipality":{"key":"07140501","name":"Boppard, Stadt","type":"Stadt"},"district":{"key":"07140","name":"Rhein-Hunsrück-Kreis","type":"Landkreis"},"federalState":{"key":"07","name":"Rheinland-Pfalz"}},{"name":"Preissbachtal","postalCode":"56154","locality":"Boppard","municipality":{"key":"07140501","name":"Boppard, Stadt","type":"Stadt"},"district":{"key":"07140","name":"Rhein-Hunsrück-Kreis","type":"Landkreis"},"federalState":{"key":"07","name":"Rheinland-Pfalz"}},{"name":"Proffenstiege","postalCode":"56154","locality":"Boppard","municipality":{"key":"07140501","name":"Boppard, Stadt","type":"Stadt"},"district":{"key":"07140","name":"Rhein-Hunsrück-Kreis","type":"Landkreis"},"federalState":{"key":"07","name":"Rheinland-Pfalz"}},{"name":"Propsteigarten","postalCode":"56154","locality":"Boppard","municipality":{"key":"07140501","name":"Boppard, Stadt","type":"Stadt"},"district":{"key":"07140","name":"Rhein-Hunsrück-Kreis","type":"Landkreis"},"federalState":{"key":"07","name":"Rheinland-Pfalz"}},{"name":"Propsteistr.","postalCode":"56154","locality":"Boppard","municipality":{"key":"07140501","name":"Boppard, Stadt","type":"Stadt"},"district":{"key":"07140","name":"Rhein-Hunsrück-Kreis","type":"Landkreis"},"federalState":{"key":"07","name":"Rheinland-Pfalz"}},{"name":"Pützgasse","postalCode":"56154","locality":"Boppard","municipality":{"key":"07140501","name":"Boppard, Stadt","type":"Stadt"},"district":{"key":"07140","name":"Rhein-Hunsrück-Kreis","type":"Landkreis"},"federalState":{"key":"07","name":"Rheinland-Pfalz"}},{"name":"Raiffeisenstr.","postalCode":"56154","locality":"Boppard","municipality":{"key":"07140501","name":"Boppard, Stadt","type":"Stadt"},"district":{"key":"07140","name":"Rhein-Hunsrück-Kreis","type":"Landkreis"},"federalState":{"key":"07","name":"Rheinland-Pfalz"}},{"name":"Rehwinkel","postalCode":"56154","locality":"Boppard","municipality":{"key":"07140501","name":"Boppard, Stadt","type":"Stadt"},"district":{"key":"07140","name":"Rhein-Hunsrück-Kreis","type":"Landkreis"},"federalState":{"key":"07","name":"Rheinland-Pfalz"}},{"name":"Reichenspergerstr.","postalCode":"56154","locality":"Boppard","municipality":{"key":"07140501","name":"Boppard, Stadt","type":"Stadt"},"district":{"key":"07140","name":"Rhein-Hunsrück-Kreis","type":"Landkreis"},"federalState":{"key":"07","name":"Rheinland-Pfalz"}},{"name":"Rheinallee","postalCode":"56154","locality":"Boppard","municipality":{"key":"07140501","name":"Boppard, Stadt","type":"Stadt"},"district":{"key":"07140","name":"Rhein-Hunsrück-Kreis","type":"Landkreis"},"federalState":{"key":"07","name":"Rheinland-Pfalz"}},{"name":"Rheinbabenallee","postalCode":"56154","locality":"Boppard","municipality":{"key":"07140501","name":"Boppard, Stadt","type":"Stadt"},"district":{"key":"07140","name":"Rhein-Hunsrück-Kreis","type":"Landkreis"},"federalState":{"key":"07","name":"Rheinland-Pfalz"}},{"name":"Rheinblick","postalCode":"56154","locality":"Boppard","municipality":{"key":"07140501","name":"Boppard, Stadt","type":"Stadt"},"district":{"key":"07140","name":"Rhein-Hunsrück-Kreis","type":"Landkreis"},"federalState":{"key":"07","name":"Rheinland-Pfalz"}},{"name":"Rheingoldstr.","postalCode":"56154","locality":"Boppard","municipality":{"key":"07140501","name":"Boppard, Stadt","type":"Stadt"},"district":{"key":"07140","name":"Rhein-Hunsrück-Kreis","type":"Landkreis"},"federalState":{"key":"07","name":"Rheinland-Pfalz"}},{"name":"Rheingoldweg","postalCode":"56154","locality":"Boppard","municipality":{"key":"07140501","name":"Boppard, Stadt","type":"Stadt"},"district":{"key":"07140","name":"Rhein-Hunsrück-Kreis","type":"Landkreis"},"federalState":{"key":"07","name":"Rheinland-Pfalz"}},{"name":"Rheinhöhe","postalCode":"56154","locality":"Boppard","municipality":{"key":"07140501","name":"Boppard, Stadt","type":"Stadt"},"district":{"key":"07140","name":"Rhein-Hunsrück-Kreis","type":"Landkreis"},"federalState":{"key":"07","name":"Rheinland-Pfalz"}},{"name":"Rhein-Mosel-Str.","postalCode":"56154","locality":"Boppard","municipality":{"key":"07140501","name":"Boppard, Stadt","type":"Stadt"},"district":{"key":"07140","name":"Rhein-Hunsrück-Kreis","type":"Landkreis"},"federalState":{"key":"07","name":"Rheinland-Pfalz"}},{"name":"Rheinstr.","postalCode":"56154","locality":"Boppard","municipality":{"key":"07140501","name":"Boppard, Stadt","type":"Stadt"},"district":{"key":"07140","name":"Rhein-Hunsrück-Kreis","type":"Landkreis"},"federalState":{"key":"07","name":"Rheinland-Pfalz"}},{"name":"Rheinuferstr.","postalCode":"56154","locality":"Boppard","municipality":{"key":"07140501","name":"Boppard, Stadt","type":"Stadt"},"district":{"key":"07140","name":"Rhein-Hunsrück-Kreis","type":"Landkreis"},"federalState":{"key":"07","name":"Rheinland-Pfalz"}},{"name":"Ringstr.","postalCode":"56154","locality":"Boppard","municipality":{"key":"07140501","name":"Boppard, Stadt","type":"Stadt"},"district":{"key":"07140","name":"Rhein-Hunsrück-Kreis","type":"Landkreis"},"federalState":{"key":"07","name":"Rheinland-Pfalz"}},{"name":"Ritter-Schwalbach-Str.","postalCode":"56154","locality":"Boppard","municipality":{"key":"07140501","name":"Boppard, Stadt","type":"Stadt"},"district":{"key":"07140","name":"Rhein-Hunsrück-Kreis","type":"Landkreis"},"federalState":{"key":"07","name":"Rheinland-Pfalz"}},{"name":"Röhrenbornstr.","postalCode":"56154","locality":"Boppard","municipality":{"key":"07140501","name":"Boppard, Stadt","type":"Stadt"},"district":{"key":"07140","name":"Rhein-Hunsrück-Kreis","type":"Landkreis"},"federalState":{"key":"07","name":"Rheinland-Pfalz"}},{"name":"Römerstr.","postalCode":"56154","locality":"Boppard","municipality":{"key":"07140501","name":"Boppard, Stadt","type":"Stadt"},"district":{"key":"07140","name":"Rhein-Hunsrück-Kreis","type":"Landkreis"},"federalState":{"key":"07","name":"Rheinland-Pfalz"}},{"name":"Römerweg","postalCode":"56154","locality":"Boppard","municipality":{"key":"07140501","name":"Boppard, Stadt","type":"Stadt"},"district":{"key":"07140","name":"Rhein-Hunsrück-Kreis","type":"Landkreis"},"federalState":{"key":"07","name":"Rheinland-Pfalz"}},{"name":"Rosenstr.","postalCode":"56154","locality":"Boppard","municipality":{"key":"07140501","name":"Boppard, Stadt","type":"Stadt"},"district":{"key":"07140","name":"Rhein-Hunsrück-Kreis","type":"Landkreis"},"federalState":{"key":"07","name":"Rheinland-Pfalz"}},{"name":"Sabelstr.","postalCode":"56154","locality":"Boppard","municipality":{"key":"07140501","name":"Boppard, Stadt","type":"Stadt"},"district":{"key":"07140","name":"Rhein-Hunsrück-Kreis","type":"Landkreis"},"federalState":{"key":"07","name":"Rheinland-Pfalz"}},{"name":"Salzbornhöhe","postalCode":"56154","locality":"Boppard","municipality":{"key":"07140501","name":"Boppard, Stadt","type":"Stadt"},"district":{"key":"07140","name":"Rhein-Hunsrück-Kreis","type":"Landkreis"},"federalState":{"key":"07","name":"Rheinland-Pfalz"}},{"name":"Salzbornstr.","postalCode":"56154","locality":"Boppard","municipality":{"key":"07140501","name":"Boppard, Stadt","type":"Stadt"},"district":{"key":"07140","name":"Rhein-Hunsrück-Kreis","type":"Landkreis"},"federalState":{"key":"07","name":"Rheinland-Pfalz"}},{"name":"Säuerlingstr.","postalCode":"56154","locality":"Boppard","municipality":{"key":"07140501","name":"Boppard, Stadt","type":"Stadt"},"district":{"key":"07140","name":"Rhein-Hunsrück-Kreis","type":"Landkreis"},"federalState":{"key":"07","name":"Rheinland-Pfalz"}},{"name":"Schäffersweyer","postalCode":"56154","locality":"Boppard","municipality":{"key":"07140501","name":"Boppard, Stadt","type":"Stadt"},"district":{"key":"07140","name":"Rhein-Hunsrück-Kreis","type":"Landkreis"},"federalState":{"key":"07","name":"Rheinland-Pfalz"}},{"name":"Schiffelsfelder Weg","postalCode":"56154","locality":"Boppard","municipality":{"key":"07140501","name":"Boppard, Stadt","type":"Stadt"},"district":{"key":"07140","name":"Rhein-Hunsrück-Kreis","type":"Landkreis"},"federalState":{"key":"07","name":"Rheinland-Pfalz"}},{"name":"Schillerstr.","postalCode":"56154","locality":"Boppard","municipality":{"key":"07140501","name":"Boppard, Stadt","type":"Stadt"},"district":{"key":"07140","name":"Rhein-Hunsrück-Kreis","type":"Landkreis"},"federalState":{"key":"07","name":"Rheinland-Pfalz"}},{"name":"Schlaningtal","postalCode":"56154","locality":"Boppard","municipality":{"key":"07140501","name":"Boppard, Stadt","type":"Stadt"},"district":{"key":"07140","name":"Rhein-Hunsrück-Kreis","type":"Landkreis"},"federalState":{"key":"07","name":"Rheinland-Pfalz"}},{"name":"Schlüsselstr.","postalCode":"56154","locality":"Boppard","municipality":{"key":"07140501","name":"Boppard, Stadt","type":"Stadt"},"district":{"key":"07140","name":"Rhein-Hunsrück-Kreis","type":"Landkreis"},"federalState":{"key":"07","name":"Rheinland-Pfalz"}},{"name":"Schönecker Str.","postalCode":"56154","locality":"Boppard","municipality":{"key":"07140501","name":"Boppard, Stadt","type":"Stadt"},"district":{"key":"07140","name":"Rhein-Hunsrück-Kreis","type":"Landkreis"},"federalState":{"key":"07","name":"Rheinland-Pfalz"}},{"name":"Schulgässchen","postalCode":"56154","locality":"Boppard","municipality":{"key":"07140501","name":"Boppard, Stadt","type":"Stadt"},"district":{"key":"07140","name":"Rhein-Hunsrück-Kreis","type":"Landkreis"},"federalState":{"key":"07","name":"Rheinland-Pfalz"}},{"name":"Schulstr.","postalCode":"56154","locality":"Boppard","municipality":{"key":"07140501","name":"Boppard, Stadt","type":"Stadt"},"district":{"key":"07140","name":"Rhein-Hunsrück-Kreis","type":"Landkreis"},"federalState":{"key":"07","name":"Rheinland-Pfalz"}},{"name":"Schultheißwies","postalCode":"56154","locality":"Boppard","municipality":{"key":"07140501","name":"Boppard, Stadt","type":"Stadt"},"district":{"key":"07140","name":"Rhein-Hunsrück-Kreis","type":"Landkreis"},"federalState":{"key":"07","name":"Rheinland-Pfalz"}},{"name":"Schützenstr.","postalCode":"56154","locality":"Boppard","municipality":{"key":"07140501","name":"Boppard, Stadt","type":"Stadt"},"district":{"key":"07140","name":"Rhein-Hunsrück-Kreis","type":"Landkreis"},"federalState":{"key":"07","name":"Rheinland-Pfalz"}},{"name":"Seifenberg","postalCode":"56154","locality":"Boppard","municipality":{"key":"07140501","name":"Boppard, Stadt","type":"Stadt"},"district":{"key":"07140","name":"Rhein-Hunsrück-Kreis","type":"Landkreis"},"federalState":{"key":"07","name":"Rheinland-Pfalz"}},{"name":"Seminarstr.","postalCode":"56154","locality":"Boppard","municipality":{"key":"07140501","name":"Boppard, Stadt","type":"Stadt"},"district":{"key":"07140","name":"Rhein-Hunsrück-Kreis","type":"Landkreis"},"federalState":{"key":"07","name":"Rheinland-Pfalz"}},{"name":"Simmerner Str.","postalCode":"56154","locality":"Boppard","municipality":{"key":"07140501","name":"Boppard, Stadt","type":"Stadt"},"district":{"key":"07140","name":"Rhein-Hunsrück-Kreis","type":"Landkreis"},"federalState":{"key":"07","name":"Rheinland-Pfalz"}},{"name":"Sonnenhang","postalCode":"56154","locality":"Boppard","municipality":{"key":"07140501","name":"Boppard, Stadt","type":"Stadt"},"district":{"key":"07140","name":"Rhein-Hunsrück-Kreis","type":"Landkreis"},"federalState":{"key":"07","name":"Rheinland-Pfalz"}},{"name":"Sonnenhof","postalCode":"56154","locality":"Boppard","municipality":{"key":"07140501","name":"Boppard, Stadt","type":"Stadt"},"district":{"key":"07140","name":"Rhein-Hunsrück-Kreis","type":"Landkreis"},"federalState":{"key":"07","name":"Rheinland-Pfalz"}},{"name":"Spechtweg","postalCode":"56154","locality":"Boppard","municipality":{"key":"07140501","name":"Boppard, Stadt","type":"Stadt"},"district":{"key":"07140","name":"Rhein-Hunsrück-Kreis","type":"Landkreis"},"federalState":{"key":"07","name":"Rheinland-Pfalz"}},{"name":"St.-Ägidius-Str.","postalCode":"56154","locality":"Boppard","municipality":{"key":"07140501","name":"Boppard, Stadt","type":"Stadt"},"district":{"key":"07140","name":"Rhein-Hunsrück-Kreis","type":"Landkreis"},"federalState":{"key":"07","name":"Rheinland-Pfalz"}},{"name":"Steiningsbachtal","postalCode":"56154","locality":"Boppard","municipality":{"key":"07140501","name":"Boppard, Stadt","type":"Stadt"},"district":{"key":"07140","name":"Rhein-Hunsrück-Kreis","type":"Landkreis"},"federalState":{"key":"07","name":"Rheinland-Pfalz"}},{"name":"Steinstr.","postalCode":"56154","locality":"Boppard","municipality":{"key":"07140501","name":"Boppard, Stadt","type":"Stadt"},"district":{"key":"07140","name":"Rhein-Hunsrück-Kreis","type":"Landkreis"},"federalState":{"key":"07","name":"Rheinland-Pfalz"}},{"name":"Sterrenbergstaße","postalCode":"56154","locality":"Boppard","municipality":{"key":"07140501","name":"Boppard, Stadt","type":"Stadt"},"district":{"key":"07140","name":"Rhein-Hunsrück-Kreis","type":"Landkreis"},"federalState":{"key":"07","name":"Rheinland-Pfalz"}},{"name":"Sterrenbergstr.","postalCode":"56154","locality":"Boppard","municipality":{"key":"07140501","name":"Boppard, Stadt","type":"Stadt"},"district":{"key":"07140","name":"Rhein-Hunsrück-Kreis","type":"Landkreis"},"federalState":{"key":"07","name":"Rheinland-Pfalz"}},{"name":"St.-Martin-Str.","postalCode":"56154","locality":"Boppard","municipality":{"key":"07140501","name":"Boppard, Stadt","type":"Stadt"},"district":{"key":"07140","name":"Rhein-Hunsrück-Kreis","type":"Landkreis"},"federalState":{"key":"07","name":"Rheinland-Pfalz"}},{"name":"St.-Sebastian-Str.","postalCode":"56154","locality":"Boppard","municipality":{"key":"07140501","name":"Boppard, Stadt","type":"Stadt"},"district":{"key":"07140","name":"Rhein-Hunsrück-Kreis","type":"Landkreis"},"federalState":{"key":"07","name":"Rheinland-Pfalz"}},{"name":"Südstr.","postalCode":"56154","locality":"Boppard","municipality":{"key":"07140501","name":"Boppard, Stadt","type":"Stadt"},"district":{"key":"07140","name":"Rhein-Hunsrück-Kreis","type":"Landkreis"},"federalState":{"key":"07","name":"Rheinland-Pfalz"}},{"name":"Tannenstr.","postalCode":"56154","locality":"Boppard","municipality":{"key":"07140501","name":"Boppard, Stadt","type":"Stadt"},"district":{"key":"07140","name":"Rhein-Hunsrück-Kreis","type":"Landkreis"},"federalState":{"key":"07","name":"Rheinland-Pfalz"}},{"name":"Tempusplatz","postalCode":"56154","locality":"Boppard","municipality":{"key":"07140501","name":"Boppard, Stadt","type":"Stadt"},"district":{"key":"07140","name":"Rhein-Hunsrück-Kreis","type":"Landkreis"},"federalState":{"key":"07","name":"Rheinland-Pfalz"}},{"name":"Tempusstr.","postalCode":"56154","locality":"Boppard","municipality":{"key":"07140501","name":"Boppard, Stadt","type":"Stadt"},"district":{"key":"07140","name":"Rhein-Hunsrück-Kreis","type":"Landkreis"},"federalState":{"key":"07","name":"Rheinland-Pfalz"}},{"name":"Theodor-Hoffmann-Platz","postalCode":"56154","locality":"Boppard","municipality":{"key":"07140501","name":"Boppard, Stadt","type":"Stadt"},"district":{"key":"07140","name":"Rhein-Hunsrück-Kreis","type":"Landkreis"},"federalState":{"key":"07","name":"Rheinland-Pfalz"}},{"name":"Udostr.","postalCode":"56154","locality":"Boppard","municipality":{"key":"07140501","name":"Boppard, Stadt","type":"Stadt"},"district":{"key":"07140","name":"Rhein-Hunsrück-Kreis","type":"Landkreis"},"federalState":{"key":"07","name":"Rheinland-Pfalz"}},{"name":"Ulmenweg","postalCode":"56154","locality":"Boppard","municipality":{"key":"07140501","name":"Boppard, Stadt","type":"Stadt"},"district":{"key":"07140","name":"Rhein-Hunsrück-Kreis","type":"Landkreis"},"federalState":{"key":"07","name":"Rheinland-Pfalz"}},{"name":"Unter den Birken","postalCode":"56154","locality":"Boppard","municipality":{"key":"07140501","name":"Boppard, Stadt","type":"Stadt"},"district":{"key":"07140","name":"Rhein-Hunsrück-Kreis","type":"Landkreis"},"federalState":{"key":"07","name":"Rheinland-Pfalz"}},{"name":"Untere Fraubachstr.","postalCode":"56154","locality":"Boppard","municipality":{"key":"07140501","name":"Boppard, Stadt","type":"Stadt"},"district":{"key":"07140","name":"Rhein-Hunsrück-Kreis","type":"Landkreis"},"federalState":{"key":"07","name":"Rheinland-Pfalz"}},{"name":"Untere Marktstr.","postalCode":"56154","locality":"Boppard","municipality":{"key":"07140501","name":"Boppard, Stadt","type":"Stadt"},"district":{"key":"07140","name":"Rhein-Hunsrück-Kreis","type":"Landkreis"},"federalState":{"key":"07","name":"Rheinland-Pfalz"}},{"name":"Unterer Burdenweg","postalCode":"56154","locality":"Boppard","municipality":{"key":"07140501","name":"Boppard, Stadt","type":"Stadt"},"district":{"key":"07140","name":"Rhein-Hunsrück-Kreis","type":"Landkreis"},"federalState":{"key":"07","name":"Rheinland-Pfalz"}},{"name":"Untere Rheingasse","postalCode":"56154","locality":"Boppard","municipality":{"key":"07140501","name":"Boppard, Stadt","type":"Stadt"},"district":{"key":"07140","name":"Rhein-Hunsrück-Kreis","type":"Landkreis"},"federalState":{"key":"07","name":"Rheinland-Pfalz"}},{"name":"Unterm Klopp","postalCode":"56154","locality":"Boppard","municipality":{"key":"07140501","name":"Boppard, Stadt","type":"Stadt"},"district":{"key":"07140","name":"Rhein-Hunsrück-Kreis","type":"Landkreis"},"federalState":{"key":"07","name":"Rheinland-Pfalz"}},{"name":"Veloxstr.","postalCode":"56154","locality":"Boppard","municipality":{"key":"07140501","name":"Boppard, Stadt","type":"Stadt"},"district":{"key":"07140","name":"Rhein-Hunsrück-Kreis","type":"Landkreis"},"federalState":{"key":"07","name":"Rheinland-Pfalz"}},{"name":"Vierseenblick","postalCode":"56154","locality":"Boppard","municipality":{"key":"07140501","name":"Boppard, Stadt","type":"Stadt"},"district":{"key":"07140","name":"Rhein-Hunsrück-Kreis","type":"Landkreis"},"federalState":{"key":"07","name":"Rheinland-Pfalz"}},{"name":"Vierzehn Eichen","postalCode":"56154","locality":"Boppard","municipality":{"key":"07140501","name":"Boppard, Stadt","type":"Stadt"},"district":{"key":"07140","name":"Rhein-Hunsrück-Kreis","type":"Landkreis"},"federalState":{"key":"07","name":"Rheinland-Pfalz"}},{"name":"Volksgasse","postalCode":"56154","locality":"Boppard","municipality":{"key":"07140501","name":"Boppard, Stadt","type":"Stadt"},"district":{"key":"07140","name":"Rhein-Hunsrück-Kreis","type":"Landkreis"},"federalState":{"key":"07","name":"Rheinland-Pfalz"}},{"name":"Walburgisgasse","postalCode":"56154","locality":"Boppard","municipality":{"key":"07140501","name":"Boppard, Stadt","type":"Stadt"},"district":{"key":"07140","name":"Rhein-Hunsrück-Kreis","type":"Landkreis"},"federalState":{"key":"07","name":"Rheinland-Pfalz"}},{"name":"Waldstr.","postalCode":"56154","locality":"Boppard","municipality":{"key":"07140501","name":"Boppard, Stadt","type":"Stadt"},"district":{"key":"07140","name":"Rhein-Hunsrück-Kreis","type":"Landkreis"},"federalState":{"key":"07","name":"Rheinland-Pfalz"}},{"name":"Wasemstr.","postalCode":"56154","locality":"Boppard","municipality":{"key":"07140501","name":"Boppard, Stadt","type":"Stadt"},"district":{"key":"07140","name":"Rhein-Hunsrück-Kreis","type":"Landkreis"},"federalState":{"key":"07","name":"Rheinland-Pfalz"}},{"name":"Wehrweg","postalCode":"56154","locality":"Boppard","municipality":{"key":"07140501","name":"Boppard, Stadt","type":"Stadt"},"district":{"key":"07140","name":"Rhein-Hunsrück-Kreis","type":"Landkreis"},"federalState":{"key":"07","name":"Rheinland-Pfalz"}},{"name":"Weiherstr.","postalCode":"56154","locality":"Boppard","municipality":{"key":"07140501","name":"Boppard, Stadt","type":"Stadt"},"district":{"key":"07140","name":"Rhein-Hunsrück-Kreis","type":"Landkreis"},"federalState":{"key":"07","name":"Rheinland-Pfalz"}},{"name":"Weilerer Weg","postalCode":"56154","locality":"Boppard","municipality":{"key":"07140501","name":"Boppard, Stadt","type":"Stadt"},"district":{"key":"07140","name":"Rhein-Hunsrück-Kreis","type":"Landkreis"},"federalState":{"key":"07","name":"Rheinland-Pfalz"}},{"name":"Wieselweg","postalCode":"56154","locality":"Boppard","municipality":{"key":"07140501","name":"Boppard, Stadt","type":"Stadt"},"district":{"key":"07140","name":"Rhein-Hunsrück-Kreis","type":"Landkreis"},"federalState":{"key":"07","name":"Rheinland-Pfalz"}},{"name":"Wiesenstr.","postalCode":"56154","locality":"Boppard","municipality":{"key":"07140501","name":"Boppard, Stadt","type":"Stadt"},"district":{"key":"07140","name":"Rhein-Hunsrück-Kreis","type":"Landkreis"},"federalState":{"key":"07","name":"Rheinland-Pfalz"}},{"name":"Wilhelmstr.","postalCode":"56154","locality":"Boppard","municipality":{"key":"07140501","name":"Boppard, Stadt","type":"Stadt"},"district":{"key":"07140","name":"Rhein-Hunsrück-Kreis","type":"Landkreis"},"federalState":{"key":"07","name":"Rheinland-Pfalz"}},{"name":"Wiltbergerstr.","postalCode":"56154","locality":"Boppard","municipality":{"key":"07140501","name":"Boppard, Stadt","type":"Stadt"},"district":{"key":"07140","name":"Rhein-Hunsrück-Kreis","type":"Landkreis"},"federalState":{"key":"07","name":"Rheinland-Pfalz"}},{"name":"Zehntergässchen","postalCode":"56154","locality":"Boppard","municipality":{"key":"07140501","name":"Boppard, Stadt","type":"Stadt"},"district":{"key":"07140","name":"Rhein-Hunsrück-Kreis","type":"Landkreis"},"federalState":{"key":"07","name":"Rheinland-Pfalz"}},{"name":"Zehnthofstr.","postalCode":"56154","locality":"Boppard","municipality":{"key":"07140501","name":"Boppard, Stadt","type":"Stadt"},"district":{"key":"07140","name":"Rhein-Hunsrück-Kreis","type":"Landkreis"},"federalState":{"key":"07","name":"Rheinland-Pfalz"}},{"name":"Zeisigweg","postalCode":"56154","locality":"Boppard","municipality":{"key":"07140501","name":"Boppard, Stadt","type":"Stadt"},"district":{"key":"07140","name":"Rhein-Hunsrück-Kreis","type":"Landkreis"},"federalState":{"key":"07","name":"Rheinland-Pfalz"}},{"name":"Zelkesgasse","postalCode":"56154","locality":"Boppard","municipality":{"key":"07140501","name":"Boppard, Stadt","type":"Stadt"},"district":{"key":"07140","name":"Rhein-Hunsrück-Kreis","type":"Landkreis"},"federalState":{"key":"07","name":"Rheinland-Pfalz"}},{"name":"Zum Rothesfeld","postalCode":"56154","locality":"Boppard","municipality":{"key":"07140501","name":"Boppard, Stadt","type":"Stadt"},"district":{"key":"07140","name":"Rhein-Hunsrück-Kreis","type":"Landkreis"},"federalState":{"key":"07","name":"Rheinland-Pfalz"}},{"name":"Zum Vierseenblick","postalCode":"56154","locality":"Boppard","municipality":{"key":"07140501","name":"Boppard, Stadt","type":"Stadt"},"district":{"key":"07140","name":"Rhein-Hunsrück-Kreis","type":"Landkreis"},"federalState":{"key":"07","name":"Rheinland-Pfalz"}},{"name":"Zum Vogelsberg","postalCode":"56154","locality":"Boppard","municipality":{"key":"07140501","name":"Boppard, Stadt","type":"Stadt"},"district":{"key":"07140","name":"Rhein-Hunsrück-Kreis","type":"Landkreis"},"federalState":{"key":"07","name":"Rheinland-Pfalz"}},{"name":"Zum Wilpertskopf","postalCode":"56154","locality":"Boppard","municipality":{"key":"07140501","name":"Boppard, Stadt","type":"Stadt"},"district":{"key":"07140","name":"Rhein-Hunsrück-Kreis","type":"Landkreis"},"federalState":{"key":"07","name":"Rheinland-Pfalz"}},{"name":"Zur Bleiche","postalCode":"56154","locality":"Boppard","municipality":{"key":"07140501","name":"Boppard, Stadt","type":"Stadt"},"district":{"key":"07140","name":"Rhein-Hunsrück-Kreis","type":"Landkreis"},"federalState":{"key":"07","name":"Rheinland-Pfalz"}},{"name":"Zur Buchley","postalCode":"56154","locality":"Boppard","municipality":{"key":"07140501","name":"Boppard, Stadt","type":"Stadt"},"district":{"key":"07140","name":"Rhein-Hunsrück-Kreis","type":"Landkreis"},"federalState":{"key":"07","name":"Rheinland-Pfalz"}},{"name":"Zur Kleeburg","postalCode":"56154","locality":"Boppard","municipality":{"key":"07140501","name":"Boppard, Stadt","type":"Stadt"},"district":{"key":"07140","name":"Rhein-Hunsrück-Kreis","type":"Landkreis"},"federalState":{"key":"07","name":"Rheinland-Pfalz"}},{"name":"Zur Peterskirche","postalCode":"56154","locality":"Boppard","municipality":{"key":"07140501","name":"Boppard, Stadt","type":"Stadt"},"district":{"key":"07140","name":"Rhein-Hunsrück-Kreis","type":"Landkreis"},"federalState":{"key":"07","name":"Rheinland-Pfalz"}},{"name":"Zur Peterslay","postalCode":"56154","locality":"Boppard","municipality":{"key":"07140501","name":"Boppard, Stadt","type":"Stadt"},"district":{"key":"07140","name":"Rhein-Hunsrück-Kreis","type":"Landkreis"},"federalState":{"key":"07","name":"Rheinland-Pfalz"}},{"name":"Zur Richt","postalCode":"56154","locality":"Boppard","municipality":{"key":"07140501","name":"Boppard, Stadt","type":"Stadt"},"district":{"key":"07140","name":"Rhein-Hunsrück-Kreis","type":"Landkreis"},"federalState":{"key":"07","name":"Rheinland-Pfalz"}},{"name":"Zur Winkelgasse","postalCode":"56154","locality":"Boppard","municipality":{"key":"07140501","name":"Boppard, Stadt","type":"Stadt"},"district":{"key":"07140","name":"Rhein-Hunsrück-Kreis","type":"Landkreis"},"federalState":{"key":"07","name":"Rheinland-Pfalz"}},{"name":"Überm Höllbach","postalCode":"56154","locality":"Boppard","municipality":{"key":"07140501","name":"Boppard, Stadt","type":"Stadt"},"district":{"key":"07140","name":"Rhein-Hunsrück-Kreis","type":"Landkreis"},"federalState":{"key":"07","name":"Rheinland-Pfalz"}},]