[{"name":"Ahrstr.","postalCode":"53520","locality":"Hümmel","municipality":{"key":"07131033","name":"Hümmel","type":"Kreisangehörige_Gemeinde"},"district":{"key":"07131","name":"Ahrweiler","type":"Landkreis"},"federalState":{"key":"07","name":"Rheinland-Pfalz"}},{"name":"Am Backes","postalCode":"53520","locality":"Hümmel","municipality":{"key":"07131033","name":"Hümmel","type":"Kreisangehörige_Gemeinde"},"district":{"key":"07131","name":"Ahrweiler","type":"Landkreis"},"federalState":{"key":"07","name":"Rheinland-Pfalz"}},{"name":"Bergstr.","postalCode":"53520","locality":"Hümmel","municipality":{"key":"07131033","name":"Hümmel","type":"Kreisangehörige_Gemeinde"},"district":{"key":"07131","name":"Ahrweiler","type":"Landkreis"},"federalState":{"key":"07","name":"Rheinland-Pfalz"}},{"name":"Breitzterweg","postalCode":"53520","locality":"Hümmel","municipality":{"key":"07131033","name":"Hümmel","type":"Kreisangehörige_Gemeinde"},"district":{"key":"07131","name":"Ahrweiler","type":"Landkreis"},"federalState":{"key":"07","name":"Rheinland-Pfalz"}},{"name":"Brunnenstr.","postalCode":"53520","locality":"Hümmel","municipality":{"key":"07131033","name":"Hümmel","type":"Kreisangehörige_Gemeinde"},"district":{"key":"07131","name":"Ahrweiler","type":"Landkreis"},"federalState":{"key":"07","name":"Rheinland-Pfalz"}},{"name":"Büchelstr.","postalCode":"53520","locality":"Hümmel","municipality":{"key":"07131033","name":"Hümmel","type":"Kreisangehörige_Gemeinde"},"district":{"key":"07131","name":"Ahrweiler","type":"Landkreis"},"federalState":{"key":"07","name":"Rheinland-Pfalz"}},{"name":"Bunkerstr.","postalCode":"53520","locality":"Hümmel","municipality":{"key":"07131033","name":"Hümmel","type":"Kreisangehörige_Gemeinde"},"district":{"key":"07131","name":"Ahrweiler","type":"Landkreis"},"federalState":{"key":"07","name":"Rheinland-Pfalz"}},{"name":"Carl-von-Ehrenwall-Allee","postalCode":"53474","locality":"Bad Neuenahr-Ahrweiler","municipality":{"key":"07131007","name":"Bad Neuenahr-Ahrweiler, Stadt","type":"Stadt"},"district":{"key":"07131","name":"Ahrweiler","type":"Landkreis"},"federalState":{"key":"07","name":"Rheinland-Pfalz"}},{"name":"Carl-Weisgerber-Weg","postalCode":"53474","locality":"Bad Neuenahr-Ahrweiler","municipality":{"key":"07131007","name":"Bad Neuenahr-Ahrweiler, Stadt","type":"Stadt"},"district":{"key":"07131","name":"Ahrweiler","type":"Landkreis"},"federalState":{"key":"07","name":"Rheinland-Pfalz"}},{"name":"Casinostr.","postalCode":"53474","locality":"Bad Neuenahr-Ahrweiler","municipality":{"key":"07131007","name":"Bad Neuenahr-Ahrweiler, Stadt","type":"Stadt"},"district":{"key":"07131","name":"Ahrweiler","type":"Landkreis"},"federalState":{"key":"07","name":"Rheinland-Pfalz"}},{"name":"Christian-Develich-Str.","postalCode":"53474","locality":"Bad Neuenahr-Ahrweiler","municipality":{"key":"07131007","name":"Bad Neuenahr-Ahrweiler, Stadt","type":"Stadt"},"district":{"key":"07131","name":"Ahrweiler","type":"Landkreis"},"federalState":{"key":"07","name":"Rheinland-Pfalz"}},{"name":"Christian-Ulrich-Str.","postalCode":"53474","locality":"Bad Neuenahr-Ahrweiler","municipality":{"key":"07131007","name":"Bad Neuenahr-Ahrweiler, Stadt","type":"Stadt"},"district":{"key":"07131","name":"Ahrweiler","type":"Landkreis"},"federalState":{"key":"07","name":"Rheinland-Pfalz"}},{"name":"Christine-Demmer-Str.","postalCode":"53474","locality":"Bad Neuenahr-Ahrweiler","municipality":{"key":"07131007","name":"Bad Neuenahr-Ahrweiler, Stadt","type":"Stadt"},"district":{"key":"07131","name":"Ahrweiler","type":"Landkreis"},"federalState":{"key":"07","name":"Rheinland-Pfalz"}},{"name":"Christopherusweg","postalCode":"53474","locality":"Bad Neuenahr-Ahrweiler","municipality":{"key":"07131007","name":"Bad Neuenahr-Ahrweiler, Stadt","type":"Stadt"},"district":{"key":"07131","name":"Ahrweiler","type":"Landkreis"},"federalState":{"key":"07","name":"Rheinland-Pfalz"}},{"name":"Cyrillus-Jarre-Str.","postalCode":"53474","locality":"Bad Neuenahr-Ahrweiler","municipality":{"key":"07131007","name":"Bad Neuenahr-Ahrweiler, Stadt","type":"Stadt"},"district":{"key":"07131","name":"Ahrweiler","type":"Landkreis"},"federalState":{"key":"07","name":"Rheinland-Pfalz"}},{"name":"Durchfahrt Armuthsbach","postalCode":"53520","locality":"Hümmel","municipality":{"key":"07131033","name":"Hümmel","type":"Kreisangehörige_Gemeinde"},"district":{"key":"07131","name":"Ahrweiler","type":"Landkreis"},"federalState":{"key":"07","name":"Rheinland-Pfalz"}},{"name":"Edith-Stein-Str.","postalCode":"53474","locality":"Bad Neuenahr-Ahrweiler","municipality":{"key":"07131007","name":"Bad Neuenahr-Ahrweiler, Stadt","type":"Stadt"},"district":{"key":"07131","name":"Ahrweiler","type":"Landkreis"},"federalState":{"key":"07","name":"Rheinland-Pfalz"}},{"name":"Ehlinger Str.","postalCode":"53474","locality":"Bad Neuenahr-Ahrweiler","municipality":{"key":"07131007","name":"Bad Neuenahr-Ahrweiler, Stadt","type":"Stadt"},"district":{"key":"07131","name":"Ahrweiler","type":"Landkreis"},"federalState":{"key":"07","name":"Rheinland-Pfalz"}},{"name":"Eichendorffstr.","postalCode":"53474","locality":"Bad Neuenahr-Ahrweiler","municipality":{"key":"07131007","name":"Bad Neuenahr-Ahrweiler, Stadt","type":"Stadt"},"district":{"key":"07131","name":"Ahrweiler","type":"Landkreis"},"federalState":{"key":"07","name":"Rheinland-Pfalz"}},{"name":"Eichenweg","postalCode":"53474","locality":"Bad Neuenahr-Ahrweiler","municipality":{"key":"07131007","name":"Bad Neuenahr-Ahrweiler, Stadt","type":"Stadt"},"district":{"key":"07131","name":"Ahrweiler","type":"Landkreis"},"federalState":{"key":"07","name":"Rheinland-Pfalz"}},{"name":"Eifelstr.","postalCode":"53474","locality":"Bad Neuenahr-Ahrweiler","municipality":{"key":"07131007","name":"Bad Neuenahr-Ahrweiler, Stadt","type":"Stadt"},"district":{"key":"07131","name":"Ahrweiler","type":"Landkreis"},"federalState":{"key":"07","name":"Rheinland-Pfalz"}},{"name":"Elinger Buschweg","postalCode":"53474","locality":"Bad Neuenahr-Ahrweiler","municipality":{"key":"07131007","name":"Bad Neuenahr-Ahrweiler, Stadt","type":"Stadt"},"district":{"key":"07131","name":"Ahrweiler","type":"Landkreis"},"federalState":{"key":"07","name":"Rheinland-Pfalz"}},{"name":"Elligstr.","postalCode":"53474","locality":"Bad Neuenahr-Ahrweiler","municipality":{"key":"07131007","name":"Bad Neuenahr-Ahrweiler, Stadt","type":"Stadt"},"district":{"key":"07131","name":"Ahrweiler","type":"Landkreis"},"federalState":{"key":"07","name":"Rheinland-Pfalz"}},{"name":"Erlenweg","postalCode":"53474","locality":"Bad Neuenahr-Ahrweiler","municipality":{"key":"07131007","name":"Bad Neuenahr-Ahrweiler, Stadt","type":"Stadt"},"district":{"key":"07131","name":"Ahrweiler","type":"Landkreis"},"federalState":{"key":"07","name":"Rheinland-Pfalz"}},{"name":"Ernst-Karl-Plachner-Weg","postalCode":"53474","locality":"Bad Neuenahr-Ahrweiler","municipality":{"key":"07131007","name":"Bad Neuenahr-Ahrweiler, Stadt","type":"Stadt"},"district":{"key":"07131","name":"Ahrweiler","type":"Landkreis"},"federalState":{"key":"07","name":"Rheinland-Pfalz"}},{"name":"Ernst-Kley-Str.","postalCode":"53474","locality":"Bad Neuenahr-Ahrweiler","municipality":{"key":"07131007","name":"Bad Neuenahr-Ahrweiler, Stadt","type":"Stadt"},"district":{"key":"07131","name":"Ahrweiler","type":"Landkreis"},"federalState":{"key":"07","name":"Rheinland-Pfalz"}},{"name":"Ernst-Thrasolt-Str.","postalCode":"53474","locality":"Bad Neuenahr-Ahrweiler","municipality":{"key":"07131007","name":"Bad Neuenahr-Ahrweiler, Stadt","type":"Stadt"},"district":{"key":"07131","name":"Ahrweiler","type":"Landkreis"},"federalState":{"key":"07","name":"Rheinland-Pfalz"}},{"name":"Eschenweg","postalCode":"53474","locality":"Bad Neuenahr-Ahrweiler","municipality":{"key":"07131007","name":"Bad Neuenahr-Ahrweiler, Stadt","type":"Stadt"},"district":{"key":"07131","name":"Ahrweiler","type":"Landkreis"},"federalState":{"key":"07","name":"Rheinland-Pfalz"}},{"name":"Eulenstr.","postalCode":"53474","locality":"Bad Neuenahr-Ahrweiler","municipality":{"key":"07131007","name":"Bad Neuenahr-Ahrweiler, Stadt","type":"Stadt"},"district":{"key":"07131","name":"Ahrweiler","type":"Landkreis"},"federalState":{"key":"07","name":"Rheinland-Pfalz"}},{"name":"Flurweg","postalCode":"53520","locality":"Hümmel","municipality":{"key":"07131033","name":"Hümmel","type":"Kreisangehörige_Gemeinde"},"district":{"key":"07131","name":"Ahrweiler","type":"Landkreis"},"federalState":{"key":"07","name":"Rheinland-Pfalz"}},{"name":"Frankenstr.","postalCode":"53520","locality":"Hümmel","municipality":{"key":"07131033","name":"Hümmel","type":"Kreisangehörige_Gemeinde"},"district":{"key":"07131","name":"Ahrweiler","type":"Landkreis"},"federalState":{"key":"07","name":"Rheinland-Pfalz"}},{"name":"Gartenstr.","postalCode":"53520","locality":"Hümmel","municipality":{"key":"07131033","name":"Hümmel","type":"Kreisangehörige_Gemeinde"},"district":{"key":"07131","name":"Ahrweiler","type":"Landkreis"},"federalState":{"key":"07","name":"Rheinland-Pfalz"}},{"name":"Hainweg","postalCode":"53520","locality":"Hümmel","municipality":{"key":"07131033","name":"Hümmel","type":"Kreisangehörige_Gemeinde"},"district":{"key":"07131","name":"Ahrweiler","type":"Landkreis"},"federalState":{"key":"07","name":"Rheinland-Pfalz"}},{"name":"Hauptstr.","postalCode":"53520","locality":"Hümmel","municipality":{"key":"07131033","name":"Hümmel","type":"Kreisangehörige_Gemeinde"},"district":{"key":"07131","name":"Ahrweiler","type":"Landkreis"},"federalState":{"key":"07","name":"Rheinland-Pfalz"}},{"name":"Heideweg","postalCode":"53520","locality":"Hümmel","municipality":{"key":"07131033","name":"Hümmel","type":"Kreisangehörige_Gemeinde"},"district":{"key":"07131","name":"Ahrweiler","type":"Landkreis"},"federalState":{"key":"07","name":"Rheinland-Pfalz"}},{"name":"Hümmeler Mühlenpfad","postalCode":"53520","locality":"Hümmel","municipality":{"key":"07131033","name":"Hümmel","type":"Kreisangehörige_Gemeinde"},"district":{"key":"07131","name":"Ahrweiler","type":"Landkreis"},"federalState":{"key":"07","name":"Rheinland-Pfalz"}},{"name":"Idienstr.","postalCode":"53474","locality":"Bad Neuenahr-Ahrweiler","municipality":{"key":"07131007","name":"Bad Neuenahr-Ahrweiler, Stadt","type":"Stadt"},"district":{"key":"07131","name":"Ahrweiler","type":"Landkreis"},"federalState":{"key":"07","name":"Rheinland-Pfalz"}},{"name":"Ilexweg","postalCode":"53474","locality":"Bad Neuenahr-Ahrweiler","municipality":{"key":"07131007","name":"Bad Neuenahr-Ahrweiler, Stadt","type":"Stadt"},"district":{"key":"07131","name":"Ahrweiler","type":"Landkreis"},"federalState":{"key":"07","name":"Rheinland-Pfalz"}},{"name":"Im Auelsgarten","postalCode":"53474","locality":"Bad Neuenahr-Ahrweiler","municipality":{"key":"07131007","name":"Bad Neuenahr-Ahrweiler, Stadt","type":"Stadt"},"district":{"key":"07131","name":"Ahrweiler","type":"Landkreis"},"federalState":{"key":"07","name":"Rheinland-Pfalz"}},{"name":"Im Bornstück","postalCode":"53474","locality":"Bad Neuenahr-Ahrweiler","municipality":{"key":"07131007","name":"Bad Neuenahr-Ahrweiler, Stadt","type":"Stadt"},"district":{"key":"07131","name":"Ahrweiler","type":"Landkreis"},"federalState":{"key":"07","name":"Rheinland-Pfalz"}},{"name":"Im Bülland","postalCode":"53474","locality":"Bad Neuenahr-Ahrweiler","municipality":{"key":"07131007","name":"Bad Neuenahr-Ahrweiler, Stadt","type":"Stadt"},"district":{"key":"07131","name":"Ahrweiler","type":"Landkreis"},"federalState":{"key":"07","name":"Rheinland-Pfalz"}},{"name":"Im Dellmich","postalCode":"53474","locality":"Bad Neuenahr-Ahrweiler","municipality":{"key":"07131007","name":"Bad Neuenahr-Ahrweiler, Stadt","type":"Stadt"},"district":{"key":"07131","name":"Ahrweiler","type":"Landkreis"},"federalState":{"key":"07","name":"Rheinland-Pfalz"}},{"name":"Im Gässchen","postalCode":"53474","locality":"Bad Neuenahr-Ahrweiler","municipality":{"key":"07131007","name":"Bad Neuenahr-Ahrweiler, Stadt","type":"Stadt"},"district":{"key":"07131","name":"Ahrweiler","type":"Landkreis"},"federalState":{"key":"07","name":"Rheinland-Pfalz"}},{"name":"Im Graben","postalCode":"53474","locality":"Bad Neuenahr-Ahrweiler","municipality":{"key":"07131007","name":"Bad Neuenahr-Ahrweiler, Stadt","type":"Stadt"},"district":{"key":"07131","name":"Ahrweiler","type":"Landkreis"},"federalState":{"key":"07","name":"Rheinland-Pfalz"}},{"name":"Im Idienbachtal","postalCode":"53474","locality":"Bad Neuenahr-Ahrweiler","municipality":{"key":"07131007","name":"Bad Neuenahr-Ahrweiler, Stadt","type":"Stadt"},"district":{"key":"07131","name":"Ahrweiler","type":"Landkreis"},"federalState":{"key":"07","name":"Rheinland-Pfalz"}},{"name":"Im Küppelfeld","postalCode":"53474","locality":"Bad Neuenahr-Ahrweiler","municipality":{"key":"07131007","name":"Bad Neuenahr-Ahrweiler, Stadt","type":"Stadt"},"district":{"key":"07131","name":"Ahrweiler","type":"Landkreis"},"federalState":{"key":"07","name":"Rheinland-Pfalz"}},{"name":"Im Muckental","postalCode":"53474","locality":"Bad Neuenahr-Ahrweiler","municipality":{"key":"07131007","name":"Bad Neuenahr-Ahrweiler, Stadt","type":"Stadt"},"district":{"key":"07131","name":"Ahrweiler","type":"Landkreis"},"federalState":{"key":"07","name":"Rheinland-Pfalz"}},{"name":"Im Plänzert","postalCode":"53474","locality":"Bad Neuenahr-Ahrweiler","municipality":{"key":"07131007","name":"Bad Neuenahr-Ahrweiler, Stadt","type":"Stadt"},"district":{"key":"07131","name":"Ahrweiler","type":"Landkreis"},"federalState":{"key":"07","name":"Rheinland-Pfalz"}},{"name":"Im Schwertstal","postalCode":"53474","locality":"Bad Neuenahr-Ahrweiler","municipality":{"key":"07131007","name":"Bad Neuenahr-Ahrweiler, Stadt","type":"Stadt"},"district":{"key":"07131","name":"Ahrweiler","type":"Landkreis"},"federalState":{"key":"07","name":"Rheinland-Pfalz"}},{"name":"Im Seifelsgraben","postalCode":"53474","locality":"Bad Neuenahr-Ahrweiler","municipality":{"key":"07131007","name":"Bad Neuenahr-Ahrweiler, Stadt","type":"Stadt"},"district":{"key":"07131","name":"Ahrweiler","type":"Landkreis"},"federalState":{"key":"07","name":"Rheinland-Pfalz"}},{"name":"Im Weitgarten","postalCode":"53474","locality":"Bad Neuenahr-Ahrweiler","municipality":{"key":"07131007","name":"Bad Neuenahr-Ahrweiler, Stadt","type":"Stadt"},"district":{"key":"07131","name":"Ahrweiler","type":"Landkreis"},"federalState":{"key":"07","name":"Rheinland-Pfalz"}},{"name":"Im Wiesengrund","postalCode":"53474","locality":"Bad Neuenahr-Ahrweiler","municipality":{"key":"07131007","name":"Bad Neuenahr-Ahrweiler, Stadt","type":"Stadt"},"district":{"key":"07131","name":"Ahrweiler","type":"Landkreis"},"federalState":{"key":"07","name":"Rheinland-Pfalz"}},{"name":"Im Wiesenpfad","postalCode":"53474","locality":"Bad Neuenahr-Ahrweiler","municipality":{"key":"07131007","name":"Bad Neuenahr-Ahrweiler, Stadt","type":"Stadt"},"district":{"key":"07131","name":"Ahrweiler","type":"Landkreis"},"federalState":{"key":"07","name":"Rheinland-Pfalz"}},{"name":"Im Winkel","postalCode":"53474","locality":"Bad Neuenahr-Ahrweiler","municipality":{"key":"07131007","name":"Bad Neuenahr-Ahrweiler, Stadt","type":"Stadt"},"district":{"key":"07131","name":"Ahrweiler","type":"Landkreis"},"federalState":{"key":"07","name":"Rheinland-Pfalz"}},{"name":"In den Auen","postalCode":"53474","locality":"Bad Neuenahr-Ahrweiler","municipality":{"key":"07131007","name":"Bad Neuenahr-Ahrweiler, Stadt","type":"Stadt"},"district":{"key":"07131","name":"Ahrweiler","type":"Landkreis"},"federalState":{"key":"07","name":"Rheinland-Pfalz"}},{"name":"In der Held","postalCode":"53474","locality":"Bad Neuenahr-Ahrweiler","municipality":{"key":"07131007","name":"Bad Neuenahr-Ahrweiler, Stadt","type":"Stadt"},"district":{"key":"07131","name":"Ahrweiler","type":"Landkreis"},"federalState":{"key":"07","name":"Rheinland-Pfalz"}},{"name":"In der Hostert","postalCode":"53474","locality":"Bad Neuenahr-Ahrweiler","municipality":{"key":"07131007","name":"Bad Neuenahr-Ahrweiler, Stadt","type":"Stadt"},"district":{"key":"07131","name":"Ahrweiler","type":"Landkreis"},"federalState":{"key":"07","name":"Rheinland-Pfalz"}},{"name":"Jahnstr.","postalCode":"53474","locality":"Bad Neuenahr-Ahrweiler","municipality":{"key":"07131007","name":"Bad Neuenahr-Ahrweiler, Stadt","type":"Stadt"},"district":{"key":"07131","name":"Ahrweiler","type":"Landkreis"},"federalState":{"key":"07","name":"Rheinland-Pfalz"}},{"name":"Jakob-Rausch-Str.","postalCode":"53474","locality":"Bad Neuenahr-Ahrweiler","municipality":{"key":"07131007","name":"Bad Neuenahr-Ahrweiler, Stadt","type":"Stadt"},"district":{"key":"07131","name":"Ahrweiler","type":"Landkreis"},"federalState":{"key":"07","name":"Rheinland-Pfalz"}},{"name":"Jesuitenstr.","postalCode":"53474","locality":"Bad Neuenahr-Ahrweiler","municipality":{"key":"07131007","name":"Bad Neuenahr-Ahrweiler, Stadt","type":"Stadt"},"district":{"key":"07131","name":"Ahrweiler","type":"Landkreis"},"federalState":{"key":"07","name":"Rheinland-Pfalz"}},{"name":"Joerresstr.","postalCode":"53474","locality":"Bad Neuenahr-Ahrweiler","municipality":{"key":"07131007","name":"Bad Neuenahr-Ahrweiler, Stadt","type":"Stadt"},"district":{"key":"07131","name":"Ahrweiler","type":"Landkreis"},"federalState":{"key":"07","name":"Rheinland-Pfalz"}},{"name":"Johannes-Kirschweng-Str.","postalCode":"53474","locality":"Bad Neuenahr-Ahrweiler","municipality":{"key":"07131007","name":"Bad Neuenahr-Ahrweiler, Stadt","type":"Stadt"},"district":{"key":"07131","name":"Ahrweiler","type":"Landkreis"},"federalState":{"key":"07","name":"Rheinland-Pfalz"}},{"name":"Johannes-Müller-Str.","postalCode":"53474","locality":"Bad Neuenahr-Ahrweiler","municipality":{"key":"07131007","name":"Bad Neuenahr-Ahrweiler, Stadt","type":"Stadt"},"district":{"key":"07131","name":"Ahrweiler","type":"Landkreis"},"federalState":{"key":"07","name":"Rheinland-Pfalz"}},{"name":"Johannisbergweg","postalCode":"53474","locality":"Bad Neuenahr-Ahrweiler","municipality":{"key":"07131007","name":"Bad Neuenahr-Ahrweiler, Stadt","type":"Stadt"},"district":{"key":"07131","name":"Ahrweiler","type":"Landkreis"},"federalState":{"key":"07","name":"Rheinland-Pfalz"}},{"name":"Johannisstr.","postalCode":"53474","locality":"Bad Neuenahr-Ahrweiler","municipality":{"key":"07131007","name":"Bad Neuenahr-Ahrweiler, Stadt","type":"Stadt"},"district":{"key":"07131","name":"Ahrweiler","type":"Landkreis"},"federalState":{"key":"07","name":"Rheinland-Pfalz"}},{"name":"Johanniswall","postalCode":"53474","locality":"Bad Neuenahr-Ahrweiler","municipality":{"key":"07131007","name":"Bad Neuenahr-Ahrweiler, Stadt","type":"Stadt"},"district":{"key":"07131","name":"Ahrweiler","type":"Landkreis"},"federalState":{"key":"07","name":"Rheinland-Pfalz"}},{"name":"Josef-Dickopf-Str.","postalCode":"53474","locality":"Bad Neuenahr-Ahrweiler","municipality":{"key":"07131007","name":"Bad Neuenahr-Ahrweiler, Stadt","type":"Stadt"},"district":{"key":"07131","name":"Ahrweiler","type":"Landkreis"},"federalState":{"key":"07","name":"Rheinland-Pfalz"}},{"name":"Josef-Schäfer-Weg","postalCode":"53474","locality":"Bad Neuenahr-Ahrweiler","municipality":{"key":"07131007","name":"Bad Neuenahr-Ahrweiler, Stadt","type":"Stadt"},"district":{"key":"07131","name":"Ahrweiler","type":"Landkreis"},"federalState":{"key":"07","name":"Rheinland-Pfalz"}},{"name":"Josefstr.","postalCode":"53474","locality":"Bad Neuenahr-Ahrweiler","municipality":{"key":"07131007","name":"Bad Neuenahr-Ahrweiler, Stadt","type":"Stadt"},"district":{"key":"07131","name":"Ahrweiler","type":"Landkreis"},"federalState":{"key":"07","name":"Rheinland-Pfalz"}},{"name":"Jülichstr.","postalCode":"53474","locality":"Bad Neuenahr-Ahrweiler","municipality":{"key":"07131007","name":"Bad Neuenahr-Ahrweiler, Stadt","type":"Stadt"},"district":{"key":"07131","name":"Ahrweiler","type":"Landkreis"},"federalState":{"key":"07","name":"Rheinland-Pfalz"}},{"name":"Kallenstr.","postalCode":"53520","locality":"Hümmel","municipality":{"key":"07131033","name":"Hümmel","type":"Kreisangehörige_Gemeinde"},"district":{"key":"07131","name":"Ahrweiler","type":"Landkreis"},"federalState":{"key":"07","name":"Rheinland-Pfalz"}},{"name":"Kapellenstr.","postalCode":"53520","locality":"Hümmel","municipality":{"key":"07131033","name":"Hümmel","type":"Kreisangehörige_Gemeinde"},"district":{"key":"07131","name":"Ahrweiler","type":"Landkreis"},"federalState":{"key":"07","name":"Rheinland-Pfalz"}},{"name":"Keltenstr.","postalCode":"53520","locality":"Hümmel","municipality":{"key":"07131033","name":"Hümmel","type":"Kreisangehörige_Gemeinde"},"district":{"key":"07131","name":"Ahrweiler","type":"Landkreis"},"federalState":{"key":"07","name":"Rheinland-Pfalz"}},{"name":"Lenzenweg","postalCode":"53520","locality":"Hümmel","municipality":{"key":"07131033","name":"Hümmel","type":"Kreisangehörige_Gemeinde"},"district":{"key":"07131","name":"Ahrweiler","type":"Landkreis"},"federalState":{"key":"07","name":"Rheinland-Pfalz"}},{"name":"Mühlenstr.","postalCode":"53520","locality":"Hümmel","municipality":{"key":"07131033","name":"Hümmel","type":"Kreisangehörige_Gemeinde"},"district":{"key":"07131","name":"Ahrweiler","type":"Landkreis"},"federalState":{"key":"07","name":"Rheinland-Pfalz"}},{"name":"Münstereifeler Str.","postalCode":"53520","locality":"Hümmel","municipality":{"key":"07131033","name":"Hümmel","type":"Kreisangehörige_Gemeinde"},"district":{"key":"07131","name":"Ahrweiler","type":"Landkreis"},"federalState":{"key":"07","name":"Rheinland-Pfalz"}},{"name":"Nussbaumweg","postalCode":"53520","locality":"Hümmel","municipality":{"key":"07131033","name":"Hümmel","type":"Kreisangehörige_Gemeinde"},"district":{"key":"07131","name":"Ahrweiler","type":"Landkreis"},"federalState":{"key":"07","name":"Rheinland-Pfalz"}},{"name":"Ober den Gärten","postalCode":"53474","locality":"Bad Neuenahr-Ahrweiler","municipality":{"key":"07131007","name":"Bad Neuenahr-Ahrweiler, Stadt","type":"Stadt"},"district":{"key":"07131","name":"Ahrweiler","type":"Landkreis"},"federalState":{"key":"07","name":"Rheinland-Pfalz"}},{"name":"Oberhutstr.","postalCode":"53474","locality":"Bad Neuenahr-Ahrweiler","municipality":{"key":"07131007","name":"Bad Neuenahr-Ahrweiler, Stadt","type":"Stadt"},"district":{"key":"07131","name":"Ahrweiler","type":"Landkreis"},"federalState":{"key":"07","name":"Rheinland-Pfalz"}},{"name":"Oberstr.","postalCode":"53474","locality":"Bad Neuenahr-Ahrweiler","municipality":{"key":"07131007","name":"Bad Neuenahr-Ahrweiler, Stadt","type":"Stadt"},"district":{"key":"07131","name":"Ahrweiler","type":"Landkreis"},"federalState":{"key":"07","name":"Rheinland-Pfalz"}},{"name":"Orsbeckstr.","postalCode":"53474","locality":"Bad Neuenahr-Ahrweiler","municipality":{"key":"07131007","name":"Bad Neuenahr-Ahrweiler, Stadt","type":"Stadt"},"district":{"key":"07131","name":"Ahrweiler","type":"Landkreis"},"federalState":{"key":"07","name":"Rheinland-Pfalz"}},{"name":"Oststr.","postalCode":"53474","locality":"Bad Neuenahr-Ahrweiler","municipality":{"key":"07131007","name":"Bad Neuenahr-Ahrweiler, Stadt","type":"Stadt"},"district":{"key":"07131","name":"Ahrweiler","type":"Landkreis"},"federalState":{"key":"07","name":"Rheinland-Pfalz"}},{"name":"Otlerstr.","postalCode":"53474","locality":"Bad Neuenahr-Ahrweiler","municipality":{"key":"07131007","name":"Bad Neuenahr-Ahrweiler, Stadt","type":"Stadt"},"district":{"key":"07131","name":"Ahrweiler","type":"Landkreis"},"federalState":{"key":"07","name":"Rheinland-Pfalz"}},{"name":"Poststr.","postalCode":"53520","locality":"Hümmel","municipality":{"key":"07131033","name":"Hümmel","type":"Kreisangehörige_Gemeinde"},"district":{"key":"07131","name":"Ahrweiler","type":"Landkreis"},"federalState":{"key":"07","name":"Rheinland-Pfalz"}},{"name":"Quellenstr.","postalCode":"53474","locality":"Bad Neuenahr-Ahrweiler","municipality":{"key":"07131007","name":"Bad Neuenahr-Ahrweiler, Stadt","type":"Stadt"},"district":{"key":"07131","name":"Ahrweiler","type":"Landkreis"},"federalState":{"key":"07","name":"Rheinland-Pfalz"}},{"name":"Römerstr.","postalCode":"53520","locality":"Hümmel","municipality":{"key":"07131033","name":"Hümmel","type":"Kreisangehörige_Gemeinde"},"district":{"key":"07131","name":"Ahrweiler","type":"Landkreis"},"federalState":{"key":"07","name":"Rheinland-Pfalz"}},{"name":"Schollweg","postalCode":"53520","locality":"Hümmel","municipality":{"key":"07131033","name":"Hümmel","type":"Kreisangehörige_Gemeinde"},"district":{"key":"07131","name":"Ahrweiler","type":"Landkreis"},"federalState":{"key":"07","name":"Rheinland-Pfalz"}},{"name":"Sonnenweg","postalCode":"53520","locality":"Hümmel","municipality":{"key":"07131033","name":"Hümmel","type":"Kreisangehörige_Gemeinde"},"district":{"key":"07131","name":"Ahrweiler","type":"Landkreis"},"federalState":{"key":"07","name":"Rheinland-Pfalz"}},{"name":"Talweg","postalCode":"53520","locality":"Hümmel","municipality":{"key":"07131033","name":"Hümmel","type":"Kreisangehörige_Gemeinde"},"district":{"key":"07131","name":"Ahrweiler","type":"Landkreis"},"federalState":{"key":"07","name":"Rheinland-Pfalz"}},{"name":"Tannenweg","postalCode":"53520","locality":"Hümmel","municipality":{"key":"07131033","name":"Hümmel","type":"Kreisangehörige_Gemeinde"},"district":{"key":"07131","name":"Ahrweiler","type":"Landkreis"},"federalState":{"key":"07","name":"Rheinland-Pfalz"}},{"name":"Uhlandstr.","postalCode":"53474","locality":"Bad Neuenahr-Ahrweiler","municipality":{"key":"07131007","name":"Bad Neuenahr-Ahrweiler, Stadt","type":"Stadt"},"district":{"key":"07131","name":"Ahrweiler","type":"Landkreis"},"federalState":{"key":"07","name":"Rheinland-Pfalz"}},{"name":"Ulmenweg","postalCode":"53474","locality":"Bad Neuenahr-Ahrweiler","municipality":{"key":"07131007","name":"Bad Neuenahr-Ahrweiler, Stadt","type":"Stadt"},"district":{"key":"07131","name":"Ahrweiler","type":"Landkreis"},"federalState":{"key":"07","name":"Rheinland-Pfalz"}},{"name":"Unterstr.","postalCode":"53474","locality":"Bad Neuenahr-Ahrweiler","municipality":{"key":"07131007","name":"Bad Neuenahr-Ahrweiler, Stadt","type":"Stadt"},"district":{"key":"07131","name":"Ahrweiler","type":"Landkreis"},"federalState":{"key":"07","name":"Rheinland-Pfalz"}},{"name":"Ursulinenstr.","postalCode":"53474","locality":"Bad Neuenahr-Ahrweiler","municipality":{"key":"07131007","name":"Bad Neuenahr-Ahrweiler, Stadt","type":"Stadt"},"district":{"key":"07131","name":"Ahrweiler","type":"Landkreis"},"federalState":{"key":"07","name":"Rheinland-Pfalz"}},{"name":"Vehner Weg","postalCode":"53474","locality":"Bad Neuenahr-Ahrweiler","municipality":{"key":"07131007","name":"Bad Neuenahr-Ahrweiler, Stadt","type":"Stadt"},"district":{"key":"07131","name":"Ahrweiler","type":"Landkreis"},"federalState":{"key":"07","name":"Rheinland-Pfalz"}},{"name":"Veltenstr.","postalCode":"53474","locality":"Bad Neuenahr-Ahrweiler","municipality":{"key":"07131007","name":"Bad Neuenahr-Ahrweiler, Stadt","type":"Stadt"},"district":{"key":"07131","name":"Ahrweiler","type":"Landkreis"},"federalState":{"key":"07","name":"Rheinland-Pfalz"}},{"name":"Vinxtweg","postalCode":"53474","locality":"Bad Neuenahr-Ahrweiler","municipality":{"key":"07131007","name":"Bad Neuenahr-Ahrweiler, Stadt","type":"Stadt"},"district":{"key":"07131","name":"Ahrweiler","type":"Landkreis"},"federalState":{"key":"07","name":"Rheinland-Pfalz"}},{"name":"Waldweg","postalCode":"53520","locality":"Hümmel","municipality":{"key":"07131033","name":"Hümmel","type":"Kreisangehörige_Gemeinde"},"district":{"key":"07131","name":"Ahrweiler","type":"Landkreis"},"federalState":{"key":"07","name":"Rheinland-Pfalz"}},{"name":"Weiherstr.","postalCode":"53520","locality":"Hümmel","municipality":{"key":"07131033","name":"Hümmel","type":"Kreisangehörige_Gemeinde"},"district":{"key":"07131","name":"Ahrweiler","type":"Landkreis"},"federalState":{"key":"07","name":"Rheinland-Pfalz"}},{"name":"Zum Pferdetal","postalCode":"53520","locality":"Hümmel","municipality":{"key":"07131033","name":"Hümmel","type":"Kreisangehörige_Gemeinde"},"district":{"key":"07131","name":"Ahrweiler","type":"Landkreis"},"federalState":{"key":"07","name":"Rheinland-Pfalz"}},]