[{"name":"Achalmweg","postalCode":"72649","locality":"Wolfschlugen","municipality":{"key":"08116073","name":"Wolfschlugen","type":"Kreisangehörige_Gemeinde"},"district":{"key":"08116","name":"Esslingen","type":"Landkreis"},"federalState":{"key":"08","name":"Baden-Württemberg"}},{"name":"Ackerstr.","postalCode":"03253","locality":"Doberlug-Kirchhain","municipality":{"key":"12062092","name":"Doberlug-Kirchhain, Stadt","type":"Stadt"},"district":{"key":"12062","name":"Elbe-Elster","type":"Landkreis"},"federalState":{"key":"12","name":"Brandenburg"}},{"name":"Akazienweg","postalCode":"03253","locality":"Doberlug-Kirchhain","municipality":{"key":"12062092","name":"Doberlug-Kirchhain, Stadt","type":"Stadt"},"district":{"key":"12062","name":"Elbe-Elster","type":"Landkreis"},"federalState":{"key":"12","name":"Brandenburg"}},{"name":"Albert-Schweitzer-Str.","postalCode":"09385","locality":"Lugau","municipality":{"key":"14521380","name":"Lugau/Erzgeb., Stadt","type":"Stadt"},"district":{"key":"14521","name":"Erzgebirgskreis","type":"Landkreis"},"federalState":{"key":"14","name":"Sachsen"}},{"name":"Albstr.","postalCode":"72649","locality":"Wolfschlugen","municipality":{"key":"08116073","name":"Wolfschlugen","type":"Kreisangehörige_Gemeinde"},"district":{"key":"08116","name":"Esslingen","type":"Landkreis"},"federalState":{"key":"08","name":"Baden-Württemberg"}},{"name":"Alte Flockenstr.","postalCode":"09385","locality":"Lugau","municipality":{"key":"14521380","name":"Lugau/Erzgeb., Stadt","type":"Stadt"},"district":{"key":"14521","name":"Erzgebirgskreis","type":"Landkreis"},"federalState":{"key":"14","name":"Sachsen"}},{"name":"Alte Herzberger Str.","postalCode":"03253","locality":"Doberlug-Kirchhain","municipality":{"key":"12062092","name":"Doberlug-Kirchhain, Stadt","type":"Stadt"},"district":{"key":"12062","name":"Elbe-Elster","type":"Landkreis"},"federalState":{"key":"12","name":"Brandenburg"}},{"name":"Alte Kirchhainer Str.","postalCode":"03253","locality":"Doberlug-Kirchhain","municipality":{"key":"12062092","name":"Doberlug-Kirchhain, Stadt","type":"Stadt"},"district":{"key":"12062","name":"Elbe-Elster","type":"Landkreis"},"federalState":{"key":"12","name":"Brandenburg"}},{"name":"Alte Poststr.","postalCode":"03253","locality":"Doberlug-Kirchhain","municipality":{"key":"12062092","name":"Doberlug-Kirchhain, Stadt","type":"Stadt"},"district":{"key":"12062","name":"Elbe-Elster","type":"Landkreis"},"federalState":{"key":"12","name":"Brandenburg"}},{"name":"Alter Friedhof","postalCode":"72649","locality":"Wolfschlugen","municipality":{"key":"08116073","name":"Wolfschlugen","type":"Kreisangehörige_Gemeinde"},"district":{"key":"08116","name":"Esslingen","type":"Landkreis"},"federalState":{"key":"08","name":"Baden-Württemberg"}},{"name":"Alter Schachtweg","postalCode":"09385","locality":"Lugau","municipality":{"key":"14521380","name":"Lugau/Erzgeb., Stadt","type":"Stadt"},"district":{"key":"14521","name":"Erzgebirgskreis","type":"Landkreis"},"federalState":{"key":"14","name":"Sachsen"}},{"name":"Alte Schmiedegasse","postalCode":"09385","locality":"Lugau","municipality":{"key":"14521380","name":"Lugau/Erzgeb., Stadt","type":"Stadt"},"district":{"key":"14521","name":"Erzgebirgskreis","type":"Landkreis"},"federalState":{"key":"14","name":"Sachsen"}},{"name":"Alte Str.","postalCode":"09385","locality":"Lugau","municipality":{"key":"14521380","name":"Lugau/Erzgeb., Stadt","type":"Stadt"},"district":{"key":"14521","name":"Erzgebirgskreis","type":"Landkreis"},"federalState":{"key":"14","name":"Sachsen"}},{"name":"Alte Waldstr.","postalCode":"09385","locality":"Lugau","municipality":{"key":"14521380","name":"Lugau/Erzgeb., Stadt","type":"Stadt"},"district":{"key":"14521","name":"Erzgebirgskreis","type":"Landkreis"},"federalState":{"key":"14","name":"Sachsen"}},{"name":"Am Bad","postalCode":"09385","locality":"Lugau","municipality":{"key":"14521380","name":"Lugau/Erzgeb., Stadt","type":"Stadt"},"district":{"key":"14521","name":"Erzgebirgskreis","type":"Landkreis"},"federalState":{"key":"14","name":"Sachsen"}},{"name":"Am Bahnhof","postalCode":"09385","locality":"Lugau","municipality":{"key":"14521380","name":"Lugau/Erzgeb., Stadt","type":"Stadt"},"district":{"key":"14521","name":"Erzgebirgskreis","type":"Landkreis"},"federalState":{"key":"14","name":"Sachsen"}},{"name":"Am Birkenwald","postalCode":"09385","locality":"Lugau","municipality":{"key":"14521380","name":"Lugau/Erzgeb., Stadt","type":"Stadt"},"district":{"key":"14521","name":"Erzgebirgskreis","type":"Landkreis"},"federalState":{"key":"14","name":"Sachsen"}},{"name":"Am Eichenwald","postalCode":"09385","locality":"Lugau","municipality":{"key":"14521380","name":"Lugau/Erzgeb., Stadt","type":"Stadt"},"district":{"key":"14521","name":"Erzgebirgskreis","type":"Landkreis"},"federalState":{"key":"14","name":"Sachsen"}},{"name":"Am Flutgraben","postalCode":"03253","locality":"Doberlug-Kirchhain","municipality":{"key":"12062092","name":"Doberlug-Kirchhain, Stadt","type":"Stadt"},"district":{"key":"12062","name":"Elbe-Elster","type":"Landkreis"},"federalState":{"key":"12","name":"Brandenburg"}},{"name":"Am Föllbach","postalCode":"72649","locality":"Wolfschlugen","municipality":{"key":"08116073","name":"Wolfschlugen","type":"Kreisangehörige_Gemeinde"},"district":{"key":"08116","name":"Esslingen","type":"Landkreis"},"federalState":{"key":"08","name":"Baden-Württemberg"}},{"name":"Am Fulgensgraben","postalCode":"03253","locality":"Doberlug-Kirchhain","municipality":{"key":"12062092","name":"Doberlug-Kirchhain, Stadt","type":"Stadt"},"district":{"key":"12062","name":"Elbe-Elster","type":"Landkreis"},"federalState":{"key":"12","name":"Brandenburg"}},{"name":"Am Graben","postalCode":"03253","locality":"Doberlug-Kirchhain","municipality":{"key":"12062092","name":"Doberlug-Kirchhain, Stadt","type":"Stadt"},"district":{"key":"12062","name":"Elbe-Elster","type":"Landkreis"},"federalState":{"key":"12","name":"Brandenburg"}},{"name":"Am Grünen Weg","postalCode":"72649","locality":"Wolfschlugen","municipality":{"key":"08116073","name":"Wolfschlugen","type":"Kreisangehörige_Gemeinde"},"district":{"key":"08116","name":"Esslingen","type":"Landkreis"},"federalState":{"key":"08","name":"Baden-Württemberg"}},{"name":"Am Hagwall","postalCode":"03253","locality":"Doberlug-Kirchhain","municipality":{"key":"12062092","name":"Doberlug-Kirchhain, Stadt","type":"Stadt"},"district":{"key":"12062","name":"Elbe-Elster","type":"Landkreis"},"federalState":{"key":"12","name":"Brandenburg"}},{"name":"Am Hard","postalCode":"03253","locality":"Doberlug-Kirchhain","municipality":{"key":"12062092","name":"Doberlug-Kirchhain, Stadt","type":"Stadt"},"district":{"key":"12062","name":"Elbe-Elster","type":"Landkreis"},"federalState":{"key":"12","name":"Brandenburg"}},{"name":"Am Hirschgrund","postalCode":"09385","locality":"Lugau","municipality":{"key":"14521380","name":"Lugau/Erzgeb., Stadt","type":"Stadt"},"district":{"key":"14521","name":"Erzgebirgskreis","type":"Landkreis"},"federalState":{"key":"14","name":"Sachsen"}},{"name":"Am Hohen Steig","postalCode":"03253","locality":"Doberlug-Kirchhain","municipality":{"key":"12062092","name":"Doberlug-Kirchhain, Stadt","type":"Stadt"},"district":{"key":"12062","name":"Elbe-Elster","type":"Landkreis"},"federalState":{"key":"12","name":"Brandenburg"}},{"name":"Am Kirchplatz","postalCode":"03253","locality":"Doberlug-Kirchhain","municipality":{"key":"12062092","name":"Doberlug-Kirchhain, Stadt","type":"Stadt"},"district":{"key":"12062","name":"Elbe-Elster","type":"Landkreis"},"federalState":{"key":"12","name":"Brandenburg"}},{"name":"Am Krankenhaus","postalCode":"03253","locality":"Doberlug-Kirchhain","municipality":{"key":"12062092","name":"Doberlug-Kirchhain, Stadt","type":"Stadt"},"district":{"key":"12062","name":"Elbe-Elster","type":"Landkreis"},"federalState":{"key":"12","name":"Brandenburg"}},{"name":"Am Lehmberg","postalCode":"09385","locality":"Lugau","municipality":{"key":"14521380","name":"Lugau/Erzgeb., Stadt","type":"Stadt"},"district":{"key":"14521","name":"Erzgebirgskreis","type":"Landkreis"},"federalState":{"key":"14","name":"Sachsen"}},{"name":"Am Markt","postalCode":"03253","locality":"Doberlug-Kirchhain","municipality":{"key":"12062092","name":"Doberlug-Kirchhain, Stadt","type":"Stadt"},"district":{"key":"12062","name":"Elbe-Elster","type":"Landkreis"},"federalState":{"key":"12","name":"Brandenburg"}},{"name":"Am Markt","postalCode":"09385","locality":"Lugau","municipality":{"key":"14521380","name":"Lugau/Erzgeb., Stadt","type":"Stadt"},"district":{"key":"14521","name":"Erzgebirgskreis","type":"Landkreis"},"federalState":{"key":"14","name":"Sachsen"}},{"name":"Am Mühlberg","postalCode":"09385","locality":"Lugau","municipality":{"key":"14521380","name":"Lugau/Erzgeb., Stadt","type":"Stadt"},"district":{"key":"14521","name":"Erzgebirgskreis","type":"Landkreis"},"federalState":{"key":"14","name":"Sachsen"}},{"name":"Am Mühlenfließ","postalCode":"03253","locality":"Doberlug-Kirchhain","municipality":{"key":"12062092","name":"Doberlug-Kirchhain, Stadt","type":"Stadt"},"district":{"key":"12062","name":"Elbe-Elster","type":"Landkreis"},"federalState":{"key":"12","name":"Brandenburg"}},{"name":"Am Mühlgraben","postalCode":"03253","locality":"Doberlug-Kirchhain","municipality":{"key":"12062092","name":"Doberlug-Kirchhain, Stadt","type":"Stadt"},"district":{"key":"12062","name":"Elbe-Elster","type":"Landkreis"},"federalState":{"key":"12","name":"Brandenburg"}},{"name":"Am Pfarrwald","postalCode":"09385","locality":"Lugau","municipality":{"key":"14521380","name":"Lugau/Erzgeb., Stadt","type":"Stadt"},"district":{"key":"14521","name":"Erzgebirgskreis","type":"Landkreis"},"federalState":{"key":"14","name":"Sachsen"}},{"name":"Am Plätzel","postalCode":"76848","locality":"Lug","municipality":{"key":"07340030","name":"Lug","type":"Kreisangehörige_Gemeinde"},"district":{"key":"07340","name":"Südwestpfalz","type":"Landkreis"},"federalState":{"key":"07","name":"Rheinland-Pfalz"}},{"name":"Am Plumphag","postalCode":"03253","locality":"Doberlug-Kirchhain","municipality":{"key":"12062092","name":"Doberlug-Kirchhain, Stadt","type":"Stadt"},"district":{"key":"12062","name":"Elbe-Elster","type":"Landkreis"},"federalState":{"key":"12","name":"Brandenburg"}},{"name":"Am Rosenende","postalCode":"03253","locality":"Doberlug-Kirchhain","municipality":{"key":"12062092","name":"Doberlug-Kirchhain, Stadt","type":"Stadt"},"district":{"key":"12062","name":"Elbe-Elster","type":"Landkreis"},"federalState":{"key":"12","name":"Brandenburg"}},{"name":"Am Schiefen Weg","postalCode":"03253","locality":"Doberlug-Kirchhain","municipality":{"key":"12062092","name":"Doberlug-Kirchhain, Stadt","type":"Stadt"},"district":{"key":"12062","name":"Elbe-Elster","type":"Landkreis"},"federalState":{"key":"12","name":"Brandenburg"}},{"name":"Am Seewaldschacht","postalCode":"09385","locality":"Lugau","municipality":{"key":"14521380","name":"Lugau/Erzgeb., Stadt","type":"Stadt"},"district":{"key":"14521","name":"Erzgebirgskreis","type":"Landkreis"},"federalState":{"key":"14","name":"Sachsen"}},{"name":"Amselweg","postalCode":"72649","locality":"Wolfschlugen","municipality":{"key":"08116073","name":"Wolfschlugen","type":"Kreisangehörige_Gemeinde"},"district":{"key":"08116","name":"Esslingen","type":"Landkreis"},"federalState":{"key":"08","name":"Baden-Württemberg"}},{"name":"Am Sportplatz","postalCode":"03253","locality":"Doberlug-Kirchhain","municipality":{"key":"12062092","name":"Doberlug-Kirchhain, Stadt","type":"Stadt"},"district":{"key":"12062","name":"Elbe-Elster","type":"Landkreis"},"federalState":{"key":"12","name":"Brandenburg"}},{"name":"Am Stadtbad","postalCode":"09385","locality":"Lugau","municipality":{"key":"14521380","name":"Lugau/Erzgeb., Stadt","type":"Stadt"},"district":{"key":"14521","name":"Erzgebirgskreis","type":"Landkreis"},"federalState":{"key":"14","name":"Sachsen"}},{"name":"Am Steegenwald","postalCode":"09385","locality":"Lugau","municipality":{"key":"14521380","name":"Lugau/Erzgeb., Stadt","type":"Stadt"},"district":{"key":"14521","name":"Erzgebirgskreis","type":"Landkreis"},"federalState":{"key":"14","name":"Sachsen"}},{"name":"Am Tagesbau","postalCode":"03253","locality":"Doberlug-Kirchhain","municipality":{"key":"12062092","name":"Doberlug-Kirchhain, Stadt","type":"Stadt"},"district":{"key":"12062","name":"Elbe-Elster","type":"Landkreis"},"federalState":{"key":"12","name":"Brandenburg"}},{"name":"Am Thümmelberg","postalCode":"09385","locality":"Lugau","municipality":{"key":"14521380","name":"Lugau/Erzgeb., Stadt","type":"Stadt"},"district":{"key":"14521","name":"Erzgebirgskreis","type":"Landkreis"},"federalState":{"key":"14","name":"Sachsen"}},{"name":"Am Vertrauenschacht","postalCode":"09385","locality":"Lugau","municipality":{"key":"14521380","name":"Lugau/Erzgeb., Stadt","type":"Stadt"},"district":{"key":"14521","name":"Erzgebirgskreis","type":"Landkreis"},"federalState":{"key":"14","name":"Sachsen"}},{"name":"Am Waldgraben","postalCode":"03253","locality":"Doberlug-Kirchhain","municipality":{"key":"12062092","name":"Doberlug-Kirchhain, Stadt","type":"Stadt"},"district":{"key":"12062","name":"Elbe-Elster","type":"Landkreis"},"federalState":{"key":"12","name":"Brandenburg"}},{"name":"Am Waldrand","postalCode":"03253","locality":"Doberlug-Kirchhain","municipality":{"key":"12062092","name":"Doberlug-Kirchhain, Stadt","type":"Stadt"},"district":{"key":"12062","name":"Elbe-Elster","type":"Landkreis"},"federalState":{"key":"12","name":"Brandenburg"}},{"name":"Bachstr.","postalCode":"09385","locality":"Lugau","municipality":{"key":"14521380","name":"Lugau/Erzgeb., Stadt","type":"Stadt"},"district":{"key":"14521","name":"Erzgebirgskreis","type":"Landkreis"},"federalState":{"key":"14","name":"Sachsen"}},{"name":"Bachwiesenweg","postalCode":"72649","locality":"Wolfschlugen","municipality":{"key":"08116073","name":"Wolfschlugen","type":"Kreisangehörige_Gemeinde"},"district":{"key":"08116","name":"Esslingen","type":"Landkreis"},"federalState":{"key":"08","name":"Baden-Württemberg"}},{"name":"Bahnhofsallee","postalCode":"03253","locality":"Doberlug-Kirchhain","municipality":{"key":"12062092","name":"Doberlug-Kirchhain, Stadt","type":"Stadt"},"district":{"key":"12062","name":"Elbe-Elster","type":"Landkreis"},"federalState":{"key":"12","name":"Brandenburg"}},{"name":"Bahnhofstr.","postalCode":"03253","locality":"Doberlug-Kirchhain","municipality":{"key":"12062092","name":"Doberlug-Kirchhain, Stadt","type":"Stadt"},"district":{"key":"12062","name":"Elbe-Elster","type":"Landkreis"},"federalState":{"key":"12","name":"Brandenburg"}},{"name":"Bahnstr.","postalCode":"09385","locality":"Lugau","municipality":{"key":"14521380","name":"Lugau/Erzgeb., Stadt","type":"Stadt"},"district":{"key":"14521","name":"Erzgebirgskreis","type":"Landkreis"},"federalState":{"key":"14","name":"Sachsen"}},{"name":"Bärfangweg","postalCode":"03253","locality":"Doberlug-Kirchhain","municipality":{"key":"12062092","name":"Doberlug-Kirchhain, Stadt","type":"Stadt"},"district":{"key":"12062","name":"Elbe-Elster","type":"Landkreis"},"federalState":{"key":"12","name":"Brandenburg"}},{"name":"Baumschulenweg","postalCode":"03253","locality":"Doberlug-Kirchhain","municipality":{"key":"12062092","name":"Doberlug-Kirchhain, Stadt","type":"Stadt"},"district":{"key":"12062","name":"Elbe-Elster","type":"Landkreis"},"federalState":{"key":"12","name":"Brandenburg"}},{"name":"Beethovenstr.","postalCode":"72649","locality":"Wolfschlugen","municipality":{"key":"08116073","name":"Wolfschlugen","type":"Kreisangehörige_Gemeinde"},"district":{"key":"08116","name":"Esslingen","type":"Landkreis"},"federalState":{"key":"08","name":"Baden-Württemberg"}},{"name":"Benzstr.","postalCode":"72649","locality":"Wolfschlugen","municipality":{"key":"08116073","name":"Wolfschlugen","type":"Kreisangehörige_Gemeinde"},"district":{"key":"08116","name":"Esslingen","type":"Landkreis"},"federalState":{"key":"08","name":"Baden-Württemberg"}},{"name":"Bergstr.","postalCode":"09385","locality":"Lugau","municipality":{"key":"14521380","name":"Lugau/Erzgeb., Stadt","type":"Stadt"},"district":{"key":"14521","name":"Erzgebirgskreis","type":"Landkreis"},"federalState":{"key":"14","name":"Sachsen"}},{"name":"Bergstr.","postalCode":"72649","locality":"Wolfschlugen","municipality":{"key":"08116073","name":"Wolfschlugen","type":"Kreisangehörige_Gemeinde"},"district":{"key":"08116","name":"Esslingen","type":"Landkreis"},"federalState":{"key":"08","name":"Baden-Württemberg"}},{"name":"Bergstr.","postalCode":"76848","locality":"Lug","municipality":{"key":"07340030","name":"Lug","type":"Kreisangehörige_Gemeinde"},"district":{"key":"07340","name":"Südwestpfalz","type":"Landkreis"},"federalState":{"key":"07","name":"Rheinland-Pfalz"}},{"name":"Bertolt-Brecht-Str.","postalCode":"09385","locality":"Lugau","municipality":{"key":"14521380","name":"Lugau/Erzgeb., Stadt","type":"Stadt"},"district":{"key":"14521","name":"Erzgebirgskreis","type":"Landkreis"},"federalState":{"key":"14","name":"Sachsen"}},{"name":"Birkenweg","postalCode":"72649","locality":"Wolfschlugen","municipality":{"key":"08116073","name":"Wolfschlugen","type":"Kreisangehörige_Gemeinde"},"district":{"key":"08116","name":"Esslingen","type":"Landkreis"},"federalState":{"key":"08","name":"Baden-Württemberg"}},{"name":"Brahmsweg","postalCode":"72649","locality":"Wolfschlugen","municipality":{"key":"08116073","name":"Wolfschlugen","type":"Kreisangehörige_Gemeinde"},"district":{"key":"08116","name":"Esslingen","type":"Landkreis"},"federalState":{"key":"08","name":"Baden-Württemberg"}},{"name":"Brauhausgasse","postalCode":"03253","locality":"Doberlug-Kirchhain","municipality":{"key":"12062092","name":"Doberlug-Kirchhain, Stadt","type":"Stadt"},"district":{"key":"12062","name":"Elbe-Elster","type":"Landkreis"},"federalState":{"key":"12","name":"Brandenburg"}},{"name":"Brauhausstr.","postalCode":"03253","locality":"Doberlug-Kirchhain","municipality":{"key":"12062092","name":"Doberlug-Kirchhain, Stadt","type":"Stadt"},"district":{"key":"12062","name":"Elbe-Elster","type":"Landkreis"},"federalState":{"key":"12","name":"Brandenburg"}},{"name":"Brückenplatz","postalCode":"09385","locality":"Lugau","municipality":{"key":"14521380","name":"Lugau/Erzgeb., Stadt","type":"Stadt"},"district":{"key":"14521","name":"Erzgebirgskreis","type":"Landkreis"},"federalState":{"key":"14","name":"Sachsen"}},{"name":"Brückenstr.","postalCode":"09385","locality":"Lugau","municipality":{"key":"14521380","name":"Lugau/Erzgeb., Stadt","type":"Stadt"},"district":{"key":"14521","name":"Erzgebirgskreis","type":"Landkreis"},"federalState":{"key":"14","name":"Sachsen"}},{"name":"Brucknerweg","postalCode":"72649","locality":"Wolfschlugen","municipality":{"key":"08116073","name":"Wolfschlugen","type":"Kreisangehörige_Gemeinde"},"district":{"key":"08116","name":"Esslingen","type":"Landkreis"},"federalState":{"key":"08","name":"Baden-Württemberg"}},{"name":"Brunnenstr.","postalCode":"72649","locality":"Wolfschlugen","municipality":{"key":"08116073","name":"Wolfschlugen","type":"Kreisangehörige_Gemeinde"},"district":{"key":"08116","name":"Esslingen","type":"Landkreis"},"federalState":{"key":"08","name":"Baden-Württemberg"}},{"name":"Buchhainer Mittelstr.","postalCode":"03253","locality":"Doberlug-Kirchhain","municipality":{"key":"12062092","name":"Doberlug-Kirchhain, Stadt","type":"Stadt"},"district":{"key":"12062","name":"Elbe-Elster","type":"Landkreis"},"federalState":{"key":"12","name":"Brandenburg"}},{"name":"Buchhainer Str.","postalCode":"03253","locality":"Doberlug-Kirchhain","municipality":{"key":"12062092","name":"Doberlug-Kirchhain, Stadt","type":"Stadt"},"district":{"key":"12062","name":"Elbe-Elster","type":"Landkreis"},"federalState":{"key":"12","name":"Brandenburg"}},{"name":"Buchhain Mittelstr.","postalCode":"03253","locality":"Doberlug-Kirchhain","municipality":{"key":"12062092","name":"Doberlug-Kirchhain, Stadt","type":"Stadt"},"district":{"key":"12062","name":"Elbe-Elster","type":"Landkreis"},"federalState":{"key":"12","name":"Brandenburg"}},{"name":"Buschmühle","postalCode":"03253","locality":"Doberlug-Kirchhain","municipality":{"key":"12062092","name":"Doberlug-Kirchhain, Stadt","type":"Stadt"},"district":{"key":"12062","name":"Elbe-Elster","type":"Landkreis"},"federalState":{"key":"12","name":"Brandenburg"}},{"name":"Chemnitzer Str.","postalCode":"09385","locality":"Lugau","municipality":{"key":"14521380","name":"Lugau/Erzgeb., Stadt","type":"Stadt"},"district":{"key":"14521","name":"Erzgebirgskreis","type":"Landkreis"},"federalState":{"key":"14","name":"Sachsen"}},{"name":"Clara-Zetkin-Str.","postalCode":"09385","locality":"Lugau","municipality":{"key":"14521380","name":"Lugau/Erzgeb., Stadt","type":"Stadt"},"district":{"key":"14521","name":"Erzgebirgskreis","type":"Landkreis"},"federalState":{"key":"14","name":"Sachsen"}},{"name":"Concordiastr.","postalCode":"09385","locality":"Lugau","municipality":{"key":"14521380","name":"Lugau/Erzgeb., Stadt","type":"Stadt"},"district":{"key":"14521","name":"Erzgebirgskreis","type":"Landkreis"},"federalState":{"key":"14","name":"Sachsen"}},{"name":"Cottbuser Str.","postalCode":"03253","locality":"Doberlug-Kirchhain","municipality":{"key":"12062092","name":"Doberlug-Kirchhain, Stadt","type":"Stadt"},"district":{"key":"12062","name":"Elbe-Elster","type":"Landkreis"},"federalState":{"key":"12","name":"Brandenburg"}},{"name":"Daimlerstr.","postalCode":"72649","locality":"Wolfschlugen","municipality":{"key":"08116073","name":"Wolfschlugen","type":"Kreisangehörige_Gemeinde"},"district":{"key":"08116","name":"Esslingen","type":"Landkreis"},"federalState":{"key":"08","name":"Baden-Württemberg"}},{"name":"Dammweg","postalCode":"03253","locality":"Doberlug-Kirchhain","municipality":{"key":"12062092","name":"Doberlug-Kirchhain, Stadt","type":"Stadt"},"district":{"key":"12062","name":"Elbe-Elster","type":"Landkreis"},"federalState":{"key":"12","name":"Brandenburg"}},{"name":"Doberluger Chaussee","postalCode":"03253","locality":"Doberlug-Kirchhain","municipality":{"key":"12062092","name":"Doberlug-Kirchhain, Stadt","type":"Stadt"},"district":{"key":"12062","name":"Elbe-Elster","type":"Landkreis"},"federalState":{"key":"12","name":"Brandenburg"}},{"name":"Doberluger Str.","postalCode":"03253","locality":"Doberlug-Kirchhain","municipality":{"key":"12062092","name":"Doberlug-Kirchhain, Stadt","type":"Stadt"},"district":{"key":"12062","name":"Elbe-Elster","type":"Landkreis"},"federalState":{"key":"12","name":"Brandenburg"}},{"name":"Dorfplatz","postalCode":"03253","locality":"Doberlug-Kirchhain","municipality":{"key":"12062092","name":"Doberlug-Kirchhain, Stadt","type":"Stadt"},"district":{"key":"12062","name":"Elbe-Elster","type":"Landkreis"},"federalState":{"key":"12","name":"Brandenburg"}},{"name":"Dorfstr.","postalCode":"09385","locality":"Lugau","municipality":{"key":"14521380","name":"Lugau/Erzgeb., Stadt","type":"Stadt"},"district":{"key":"14521","name":"Erzgebirgskreis","type":"Landkreis"},"federalState":{"key":"14","name":"Sachsen"}},{"name":"Dr.-Wilhelm-Külz-Str.","postalCode":"03253","locality":"Doberlug-Kirchhain","municipality":{"key":"12062092","name":"Doberlug-Kirchhain, Stadt","type":"Stadt"},"district":{"key":"12062","name":"Elbe-Elster","type":"Landkreis"},"federalState":{"key":"12","name":"Brandenburg"}},{"name":"Dübrichen","postalCode":"03253","locality":"Doberlug-Kirchhain","municipality":{"key":"12062092","name":"Doberlug-Kirchhain, Stadt","type":"Stadt"},"district":{"key":"12062","name":"Elbe-Elster","type":"Landkreis"},"federalState":{"key":"12","name":"Brandenburg"}},{"name":"Eichgässchen","postalCode":"09385","locality":"Lugau","municipality":{"key":"14521380","name":"Lugau/Erzgeb., Stadt","type":"Stadt"},"district":{"key":"14521","name":"Erzgebirgskreis","type":"Landkreis"},"federalState":{"key":"14","name":"Sachsen"}},{"name":"Eichholzer Weg","postalCode":"03253","locality":"Doberlug-Kirchhain","municipality":{"key":"12062092","name":"Doberlug-Kirchhain, Stadt","type":"Stadt"},"district":{"key":"12062","name":"Elbe-Elster","type":"Landkreis"},"federalState":{"key":"12","name":"Brandenburg"}},{"name":"Ernst Thälmann Str.","postalCode":"03253","locality":"Doberlug-Kirchhain","municipality":{"key":"12062092","name":"Doberlug-Kirchhain, Stadt","type":"Stadt"},"district":{"key":"12062","name":"Elbe-Elster","type":"Landkreis"},"federalState":{"key":"12","name":"Brandenburg"}},{"name":"Erwin-Kramer-Ring","postalCode":"03253","locality":"Doberlug-Kirchhain","municipality":{"key":"12062092","name":"Doberlug-Kirchhain, Stadt","type":"Stadt"},"district":{"key":"12062","name":"Elbe-Elster","type":"Landkreis"},"federalState":{"key":"12","name":"Brandenburg"}},{"name":"Esslinger Str.","postalCode":"72649","locality":"Wolfschlugen","municipality":{"key":"08116073","name":"Wolfschlugen","type":"Kreisangehörige_Gemeinde"},"district":{"key":"08116","name":"Esslingen","type":"Landkreis"},"federalState":{"key":"08","name":"Baden-Württemberg"}},{"name":"Ewald-Wolf-Str.","postalCode":"03253","locality":"Doberlug-Kirchhain","municipality":{"key":"12062092","name":"Doberlug-Kirchhain, Stadt","type":"Stadt"},"district":{"key":"12062","name":"Elbe-Elster","type":"Landkreis"},"federalState":{"key":"12","name":"Brandenburg"}},{"name":"Feldgasse","postalCode":"09385","locality":"Lugau","municipality":{"key":"14521380","name":"Lugau/Erzgeb., Stadt","type":"Stadt"},"district":{"key":"14521","name":"Erzgebirgskreis","type":"Landkreis"},"federalState":{"key":"14","name":"Sachsen"}},{"name":"Feldklirrenstr.","postalCode":"72649","locality":"Wolfschlugen","municipality":{"key":"08116073","name":"Wolfschlugen","type":"Kreisangehörige_Gemeinde"},"district":{"key":"08116","name":"Esslingen","type":"Landkreis"},"federalState":{"key":"08","name":"Baden-Württemberg"}},{"name":"Feldstr.","postalCode":"03253","locality":"Doberlug-Kirchhain","municipality":{"key":"12062092","name":"Doberlug-Kirchhain, Stadt","type":"Stadt"},"district":{"key":"12062","name":"Elbe-Elster","type":"Landkreis"},"federalState":{"key":"12","name":"Brandenburg"}},{"name":"Feldstr.","postalCode":"09385","locality":"Lugau","municipality":{"key":"14521380","name":"Lugau/Erzgeb., Stadt","type":"Stadt"},"district":{"key":"14521","name":"Erzgebirgskreis","type":"Landkreis"},"federalState":{"key":"14","name":"Sachsen"}},{"name":"Feldweg","postalCode":"03253","locality":"Doberlug-Kirchhain","municipality":{"key":"12062092","name":"Doberlug-Kirchhain, Stadt","type":"Stadt"},"district":{"key":"12062","name":"Elbe-Elster","type":"Landkreis"},"federalState":{"key":"12","name":"Brandenburg"}},{"name":"Felsenstr.","postalCode":"76848","locality":"Lug","municipality":{"key":"07340030","name":"Lug","type":"Kreisangehörige_Gemeinde"},"district":{"key":"07340","name":"Südwestpfalz","type":"Landkreis"},"federalState":{"key":"07","name":"Rheinland-Pfalz"}},{"name":"Feuerhauptstr.","postalCode":"72649","locality":"Wolfschlugen","municipality":{"key":"08116073","name":"Wolfschlugen","type":"Kreisangehörige_Gemeinde"},"district":{"key":"08116","name":"Esslingen","type":"Landkreis"},"federalState":{"key":"08","name":"Baden-Württemberg"}},{"name":"Feuerleinstr.","postalCode":"72649","locality":"Wolfschlugen","municipality":{"key":"08116073","name":"Wolfschlugen","type":"Kreisangehörige_Gemeinde"},"district":{"key":"08116","name":"Esslingen","type":"Landkreis"},"federalState":{"key":"08","name":"Baden-Württemberg"}},{"name":"Finkenweg","postalCode":"72649","locality":"Wolfschlugen","municipality":{"key":"08116073","name":"Wolfschlugen","type":"Kreisangehörige_Gemeinde"},"district":{"key":"08116","name":"Esslingen","type":"Landkreis"},"federalState":{"key":"08","name":"Baden-Württemberg"}},{"name":"Finsterwalder Chaussee","postalCode":"03253","locality":"Doberlug-Kirchhain","municipality":{"key":"12062092","name":"Doberlug-Kirchhain, Stadt","type":"Stadt"},"district":{"key":"12062","name":"Elbe-Elster","type":"Landkreis"},"federalState":{"key":"12","name":"Brandenburg"}},{"name":"Finsterwalder Str.","postalCode":"03253","locality":"Doberlug-Kirchhain","municipality":{"key":"12062092","name":"Doberlug-Kirchhain, Stadt","type":"Stadt"},"district":{"key":"12062","name":"Elbe-Elster","type":"Landkreis"},"federalState":{"key":"12","name":"Brandenburg"}},{"name":"Firstenweg","postalCode":"09385","locality":"Lugau","municipality":{"key":"14521380","name":"Lugau/Erzgeb., Stadt","type":"Stadt"},"district":{"key":"14521","name":"Erzgebirgskreis","type":"Landkreis"},"federalState":{"key":"14","name":"Sachsen"}},{"name":"Fischwasserstr.","postalCode":"03253","locality":"Doberlug-Kirchhain","municipality":{"key":"12062092","name":"Doberlug-Kirchhain, Stadt","type":"Stadt"},"district":{"key":"12062","name":"Elbe-Elster","type":"Landkreis"},"federalState":{"key":"12","name":"Brandenburg"}},{"name":"Flockenstr.","postalCode":"09385","locality":"Lugau","municipality":{"key":"14521380","name":"Lugau/Erzgeb., Stadt","type":"Stadt"},"district":{"key":"14521","name":"Erzgebirgskreis","type":"Landkreis"},"federalState":{"key":"14","name":"Sachsen"}},{"name":"Folgenweg","postalCode":"03253","locality":"Doberlug-Kirchhain","municipality":{"key":"12062092","name":"Doberlug-Kirchhain, Stadt","type":"Stadt"},"district":{"key":"12062","name":"Elbe-Elster","type":"Landkreis"},"federalState":{"key":"12","name":"Brandenburg"}},{"name":"Frankenaer Dorfstr.","postalCode":"03253","locality":"Doberlug-Kirchhain","municipality":{"key":"12062092","name":"Doberlug-Kirchhain, Stadt","type":"Stadt"},"district":{"key":"12062","name":"Elbe-Elster","type":"Landkreis"},"federalState":{"key":"12","name":"Brandenburg"}},{"name":"Frankenaer Hauptstr.","postalCode":"03253","locality":"Doberlug-Kirchhain","municipality":{"key":"12062092","name":"Doberlug-Kirchhain, Stadt","type":"Stadt"},"district":{"key":"12062","name":"Elbe-Elster","type":"Landkreis"},"federalState":{"key":"12","name":"Brandenburg"}},{"name":"Frankenaer Weg","postalCode":"03253","locality":"Doberlug-Kirchhain","municipality":{"key":"12062092","name":"Doberlug-Kirchhain, Stadt","type":"Stadt"},"district":{"key":"12062","name":"Elbe-Elster","type":"Landkreis"},"federalState":{"key":"12","name":"Brandenburg"}},{"name":"Franz-Lehar-Weg","postalCode":"72649","locality":"Wolfschlugen","municipality":{"key":"08116073","name":"Wolfschlugen","type":"Kreisangehörige_Gemeinde"},"district":{"key":"08116","name":"Esslingen","type":"Landkreis"},"federalState":{"key":"08","name":"Baden-Württemberg"}},{"name":"Friedenstr.","postalCode":"03253","locality":"Doberlug-Kirchhain","municipality":{"key":"12062092","name":"Doberlug-Kirchhain, Stadt","type":"Stadt"},"district":{"key":"12062","name":"Elbe-Elster","type":"Landkreis"},"federalState":{"key":"12","name":"Brandenburg"}},{"name":"Friedhofstr.","postalCode":"72649","locality":"Wolfschlugen","municipality":{"key":"08116073","name":"Wolfschlugen","type":"Kreisangehörige_Gemeinde"},"district":{"key":"08116","name":"Esslingen","type":"Landkreis"},"federalState":{"key":"08","name":"Baden-Württemberg"}},{"name":"Friedrich-Engels-Str.","postalCode":"03253","locality":"Doberlug-Kirchhain","municipality":{"key":"12062092","name":"Doberlug-Kirchhain, Stadt","type":"Stadt"},"district":{"key":"12062","name":"Elbe-Elster","type":"Landkreis"},"federalState":{"key":"12","name":"Brandenburg"}},{"name":"Friedrich-Ludwig-Jahn-Str.","postalCode":"03253","locality":"Doberlug-Kirchhain","municipality":{"key":"12062092","name":"Doberlug-Kirchhain, Stadt","type":"Stadt"},"district":{"key":"12062","name":"Elbe-Elster","type":"Landkreis"},"federalState":{"key":"12","name":"Brandenburg"}},{"name":"Friedrichstr.","postalCode":"72649","locality":"Wolfschlugen","municipality":{"key":"08116073","name":"Wolfschlugen","type":"Kreisangehörige_Gemeinde"},"district":{"key":"08116","name":"Esslingen","type":"Landkreis"},"federalState":{"key":"08","name":"Baden-Württemberg"}},{"name":"Gartenstr.","postalCode":"03253","locality":"Doberlug-Kirchhain","municipality":{"key":"12062092","name":"Doberlug-Kirchhain, Stadt","type":"Stadt"},"district":{"key":"12062","name":"Elbe-Elster","type":"Landkreis"},"federalState":{"key":"12","name":"Brandenburg"}},{"name":"Gartenstr.","postalCode":"09385","locality":"Lugau","municipality":{"key":"14521380","name":"Lugau/Erzgeb., Stadt","type":"Stadt"},"district":{"key":"14521","name":"Erzgebirgskreis","type":"Landkreis"},"federalState":{"key":"14","name":"Sachsen"}},{"name":"Gartenstr.","postalCode":"72649","locality":"Wolfschlugen","municipality":{"key":"08116073","name":"Wolfschlugen","type":"Kreisangehörige_Gemeinde"},"district":{"key":"08116","name":"Esslingen","type":"Landkreis"},"federalState":{"key":"08","name":"Baden-Württemberg"}},{"name":"Gartenstr.","postalCode":"76848","locality":"Lug","municipality":{"key":"07340030","name":"Lug","type":"Kreisangehörige_Gemeinde"},"district":{"key":"07340","name":"Südwestpfalz","type":"Landkreis"},"federalState":{"key":"07","name":"Rheinland-Pfalz"}},{"name":"Gärtnereiweg","postalCode":"09385","locality":"Lugau","municipality":{"key":"14521380","name":"Lugau/Erzgeb., Stadt","type":"Stadt"},"district":{"key":"14521","name":"Erzgebirgskreis","type":"Landkreis"},"federalState":{"key":"14","name":"Sachsen"}},{"name":"Genossenschaftsstr.","postalCode":"03253","locality":"Doberlug-Kirchhain","municipality":{"key":"12062092","name":"Doberlug-Kirchhain, Stadt","type":"Stadt"},"district":{"key":"12062","name":"Elbe-Elster","type":"Landkreis"},"federalState":{"key":"12","name":"Brandenburg"}},{"name":"Gerberstr.","postalCode":"03253","locality":"Doberlug-Kirchhain","municipality":{"key":"12062092","name":"Doberlug-Kirchhain, Stadt","type":"Stadt"},"district":{"key":"12062","name":"Elbe-Elster","type":"Landkreis"},"federalState":{"key":"12","name":"Brandenburg"}},{"name":"Gerichtsstr.","postalCode":"03253","locality":"Doberlug-Kirchhain","municipality":{"key":"12062092","name":"Doberlug-Kirchhain, Stadt","type":"Stadt"},"district":{"key":"12062","name":"Elbe-Elster","type":"Landkreis"},"federalState":{"key":"12","name":"Brandenburg"}},{"name":"Gersdorfer Str.","postalCode":"09385","locality":"Lugau","municipality":{"key":"14521380","name":"Lugau/Erzgeb., Stadt","type":"Stadt"},"district":{"key":"14521","name":"Erzgebirgskreis","type":"Landkreis"},"federalState":{"key":"14","name":"Sachsen"}},{"name":"Gewerbegebiet Südstr.","postalCode":"03253","locality":"Doberlug-Kirchhain","municipality":{"key":"12062092","name":"Doberlug-Kirchhain, Stadt","type":"Stadt"},"district":{"key":"12062","name":"Elbe-Elster","type":"Landkreis"},"federalState":{"key":"12","name":"Brandenburg"}},{"name":"Gleisstr.","postalCode":"09385","locality":"Lugau","municipality":{"key":"14521380","name":"Lugau/Erzgeb., Stadt","type":"Stadt"},"district":{"key":"14521","name":"Erzgebirgskreis","type":"Landkreis"},"federalState":{"key":"14","name":"Sachsen"}},{"name":"Glockenturmweg","postalCode":"09385","locality":"Lugau","municipality":{"key":"14521380","name":"Lugau/Erzgeb., Stadt","type":"Stadt"},"district":{"key":"14521","name":"Erzgebirgskreis","type":"Landkreis"},"federalState":{"key":"14","name":"Sachsen"}},{"name":"Glück-Auf-Str.","postalCode":"09385","locality":"Lugau","municipality":{"key":"14521380","name":"Lugau/Erzgeb., Stadt","type":"Stadt"},"district":{"key":"14521","name":"Erzgebirgskreis","type":"Landkreis"},"federalState":{"key":"14","name":"Sachsen"}},{"name":"Goethestr.","postalCode":"03253","locality":"Doberlug-Kirchhain","municipality":{"key":"12062092","name":"Doberlug-Kirchhain, Stadt","type":"Stadt"},"district":{"key":"12062","name":"Elbe-Elster","type":"Landkreis"},"federalState":{"key":"12","name":"Brandenburg"}},{"name":"Goethestr.","postalCode":"09385","locality":"Lugau","municipality":{"key":"14521380","name":"Lugau/Erzgeb., Stadt","type":"Stadt"},"district":{"key":"14521","name":"Erzgebirgskreis","type":"Landkreis"},"federalState":{"key":"14","name":"Sachsen"}},{"name":"Goethestr.","postalCode":"72649","locality":"Wolfschlugen","municipality":{"key":"08116073","name":"Wolfschlugen","type":"Kreisangehörige_Gemeinde"},"district":{"key":"08116","name":"Esslingen","type":"Landkreis"},"federalState":{"key":"08","name":"Baden-Württemberg"}},{"name":"Gottes-Segen-Schacht-Str.","postalCode":"09385","locality":"Lugau","municipality":{"key":"14521380","name":"Lugau/Erzgeb., Stadt","type":"Stadt"},"district":{"key":"14521","name":"Erzgebirgskreis","type":"Landkreis"},"federalState":{"key":"14","name":"Sachsen"}},{"name":"Grenzstr.","postalCode":"09385","locality":"Lugau","municipality":{"key":"14521380","name":"Lugau/Erzgeb., Stadt","type":"Stadt"},"district":{"key":"14521","name":"Erzgebirgskreis","type":"Landkreis"},"federalState":{"key":"14","name":"Sachsen"}},{"name":"Grimmerstr.","postalCode":"03253","locality":"Doberlug-Kirchhain","municipality":{"key":"12062092","name":"Doberlug-Kirchhain, Stadt","type":"Stadt"},"district":{"key":"12062","name":"Elbe-Elster","type":"Landkreis"},"federalState":{"key":"12","name":"Brandenburg"}},{"name":"Grötzinger Str.","postalCode":"72649","locality":"Wolfschlugen","municipality":{"key":"08116073","name":"Wolfschlugen","type":"Kreisangehörige_Gemeinde"},"district":{"key":"08116","name":"Esslingen","type":"Landkreis"},"federalState":{"key":"08","name":"Baden-Württemberg"}},{"name":"Grunerweg","postalCode":"09385","locality":"Lugau","municipality":{"key":"14521380","name":"Lugau/Erzgeb., Stadt","type":"Stadt"},"district":{"key":"14521","name":"Erzgebirgskreis","type":"Landkreis"},"federalState":{"key":"14","name":"Sachsen"}},{"name":"Grüner Weg","postalCode":"03253","locality":"Doberlug-Kirchhain","municipality":{"key":"12062092","name":"Doberlug-Kirchhain, Stadt","type":"Stadt"},"district":{"key":"12062","name":"Elbe-Elster","type":"Landkreis"},"federalState":{"key":"12","name":"Brandenburg"}},{"name":"Günter-Bauer-Str.","postalCode":"76848","locality":"Lug","municipality":{"key":"07340030","name":"Lug","type":"Kreisangehörige_Gemeinde"},"district":{"key":"07340","name":"Südwestpfalz","type":"Landkreis"},"federalState":{"key":"07","name":"Rheinland-Pfalz"}},{"name":"Gurgelweg","postalCode":"72649","locality":"Wolfschlugen","municipality":{"key":"08116073","name":"Wolfschlugen","type":"Kreisangehörige_Gemeinde"},"district":{"key":"08116","name":"Esslingen","type":"Landkreis"},"federalState":{"key":"08","name":"Baden-Württemberg"}},{"name":"Gutenbergstr.","postalCode":"09385","locality":"Lugau","municipality":{"key":"14521380","name":"Lugau/Erzgeb., Stadt","type":"Stadt"},"district":{"key":"14521","name":"Erzgebirgskreis","type":"Landkreis"},"federalState":{"key":"14","name":"Sachsen"}},{"name":"Güterstr.","postalCode":"09385","locality":"Lugau","municipality":{"key":"14521380","name":"Lugau/Erzgeb., Stadt","type":"Stadt"},"district":{"key":"14521","name":"Erzgebirgskreis","type":"Landkreis"},"federalState":{"key":"14","name":"Sachsen"}},{"name":"Hagweg","postalCode":"03253","locality":"Doberlug-Kirchhain","municipality":{"key":"12062092","name":"Doberlug-Kirchhain, Stadt","type":"Stadt"},"district":{"key":"12062","name":"Elbe-Elster","type":"Landkreis"},"federalState":{"key":"12","name":"Brandenburg"}},{"name":"Hardter Str.","postalCode":"72649","locality":"Wolfschlugen","municipality":{"key":"08116073","name":"Wolfschlugen","type":"Kreisangehörige_Gemeinde"},"district":{"key":"08116","name":"Esslingen","type":"Landkreis"},"federalState":{"key":"08","name":"Baden-Württemberg"}},{"name":"Hauensteiner Str.","postalCode":"76848","locality":"Lug","municipality":{"key":"07340030","name":"Lug","type":"Kreisangehörige_Gemeinde"},"district":{"key":"07340","name":"Südwestpfalz","type":"Landkreis"},"federalState":{"key":"07","name":"Rheinland-Pfalz"}},{"name":"Hauffstr.","postalCode":"72649","locality":"Wolfschlugen","municipality":{"key":"08116073","name":"Wolfschlugen","type":"Kreisangehörige_Gemeinde"},"district":{"key":"08116","name":"Esslingen","type":"Landkreis"},"federalState":{"key":"08","name":"Baden-Württemberg"}},{"name":"Hauptstr.","postalCode":"03253","locality":"Doberlug-Kirchhain","municipality":{"key":"12062092","name":"Doberlug-Kirchhain, Stadt","type":"Stadt"},"district":{"key":"12062","name":"Elbe-Elster","type":"Landkreis"},"federalState":{"key":"12","name":"Brandenburg"}},{"name":"Hauptstr.","postalCode":"76848","locality":"Lug","municipality":{"key":"07340030","name":"Lug","type":"Kreisangehörige_Gemeinde"},"district":{"key":"07340","name":"Südwestpfalz","type":"Landkreis"},"federalState":{"key":"07","name":"Rheinland-Pfalz"}},{"name":"Haydnstr.","postalCode":"72649","locality":"Wolfschlugen","municipality":{"key":"08116073","name":"Wolfschlugen","type":"Kreisangehörige_Gemeinde"},"district":{"key":"08116","name":"Esslingen","type":"Landkreis"},"federalState":{"key":"08","name":"Baden-Württemberg"}},{"name":"Hegelweg","postalCode":"72649","locality":"Wolfschlugen","municipality":{"key":"08116073","name":"Wolfschlugen","type":"Kreisangehörige_Gemeinde"},"district":{"key":"08116","name":"Esslingen","type":"Landkreis"},"federalState":{"key":"08","name":"Baden-Württemberg"}},{"name":"Heinrich-Heine-Str.","postalCode":"09385","locality":"Lugau","municipality":{"key":"14521380","name":"Lugau/Erzgeb., Stadt","type":"Stadt"},"district":{"key":"14521","name":"Erzgebirgskreis","type":"Landkreis"},"federalState":{"key":"14","name":"Sachsen"}},{"name":"Hennersdorfer Damm","postalCode":"03253","locality":"Doberlug-Kirchhain","municipality":{"key":"12062092","name":"Doberlug-Kirchhain, Stadt","type":"Stadt"},"district":{"key":"12062","name":"Elbe-Elster","type":"Landkreis"},"federalState":{"key":"12","name":"Brandenburg"}},{"name":"Hennersdorfer Str.","postalCode":"03253","locality":"Doberlug-Kirchhain","municipality":{"key":"12062092","name":"Doberlug-Kirchhain, Stadt","type":"Stadt"},"district":{"key":"12062","name":"Elbe-Elster","type":"Landkreis"},"federalState":{"key":"12","name":"Brandenburg"}},{"name":"Hennersdorfer Weg","postalCode":"03253","locality":"Doberlug-Kirchhain","municipality":{"key":"12062092","name":"Doberlug-Kirchhain, Stadt","type":"Stadt"},"district":{"key":"12062","name":"Elbe-Elster","type":"Landkreis"},"federalState":{"key":"12","name":"Brandenburg"}},{"name":"Herzberger Str.","postalCode":"03253","locality":"Doberlug-Kirchhain","municipality":{"key":"12062092","name":"Doberlug-Kirchhain, Stadt","type":"Stadt"},"district":{"key":"12062","name":"Elbe-Elster","type":"Landkreis"},"federalState":{"key":"12","name":"Brandenburg"}},{"name":"Hindenburgstr.","postalCode":"72649","locality":"Wolfschlugen","municipality":{"key":"08116073","name":"Wolfschlugen","type":"Kreisangehörige_Gemeinde"},"district":{"key":"08116","name":"Esslingen","type":"Landkreis"},"federalState":{"key":"08","name":"Baden-Württemberg"}},{"name":"Hirschgrund","postalCode":"09385","locality":"Lugau","municipality":{"key":"14521380","name":"Lugau/Erzgeb., Stadt","type":"Stadt"},"district":{"key":"14521","name":"Erzgebirgskreis","type":"Landkreis"},"federalState":{"key":"14","name":"Sachsen"}},{"name":"Hirschstr.","postalCode":"72649","locality":"Wolfschlugen","municipality":{"key":"08116073","name":"Wolfschlugen","type":"Kreisangehörige_Gemeinde"},"district":{"key":"08116","name":"Esslingen","type":"Landkreis"},"federalState":{"key":"08","name":"Baden-Württemberg"}},{"name":"Hirtenstr.","postalCode":"03253","locality":"Doberlug-Kirchhain","municipality":{"key":"12062092","name":"Doberlug-Kirchhain, Stadt","type":"Stadt"},"district":{"key":"12062","name":"Elbe-Elster","type":"Landkreis"},"federalState":{"key":"12","name":"Brandenburg"}},{"name":"Hirtenteichstr.","postalCode":"03253","locality":"Doberlug-Kirchhain","municipality":{"key":"12062092","name":"Doberlug-Kirchhain, Stadt","type":"Stadt"},"district":{"key":"12062","name":"Elbe-Elster","type":"Landkreis"},"federalState":{"key":"12","name":"Brandenburg"}},{"name":"Hofäckerstr.","postalCode":"72649","locality":"Wolfschlugen","municipality":{"key":"08116073","name":"Wolfschlugen","type":"Kreisangehörige_Gemeinde"},"district":{"key":"08116","name":"Esslingen","type":"Landkreis"},"federalState":{"key":"08","name":"Baden-Württemberg"}},{"name":"Hoffnungsschachtstr.","postalCode":"09385","locality":"Lugau","municipality":{"key":"14521380","name":"Lugau/Erzgeb., Stadt","type":"Stadt"},"district":{"key":"14521","name":"Erzgebirgskreis","type":"Landkreis"},"federalState":{"key":"14","name":"Sachsen"}},{"name":"Höflach","postalCode":"72649","locality":"Wolfschlugen","municipality":{"key":"08116073","name":"Wolfschlugen","type":"Kreisangehörige_Gemeinde"},"district":{"key":"08116","name":"Esslingen","type":"Landkreis"},"federalState":{"key":"08","name":"Baden-Württemberg"}},{"name":"Hofweg","postalCode":"72649","locality":"Wolfschlugen","municipality":{"key":"08116073","name":"Wolfschlugen","type":"Kreisangehörige_Gemeinde"},"district":{"key":"08116","name":"Esslingen","type":"Landkreis"},"federalState":{"key":"08","name":"Baden-Württemberg"}},{"name":"Hohenneuffenstr.","postalCode":"72649","locality":"Wolfschlugen","municipality":{"key":"08116073","name":"Wolfschlugen","type":"Kreisangehörige_Gemeinde"},"district":{"key":"08116","name":"Esslingen","type":"Landkreis"},"federalState":{"key":"08","name":"Baden-Württemberg"}},{"name":"Hohensteiner Str.","postalCode":"09385","locality":"Lugau","municipality":{"key":"14521380","name":"Lugau/Erzgeb., Stadt","type":"Stadt"},"district":{"key":"14521","name":"Erzgebirgskreis","type":"Landkreis"},"federalState":{"key":"14","name":"Sachsen"}},{"name":"Hohenzollernweg","postalCode":"72649","locality":"Wolfschlugen","municipality":{"key":"08116073","name":"Wolfschlugen","type":"Kreisangehörige_Gemeinde"},"district":{"key":"08116","name":"Esslingen","type":"Landkreis"},"federalState":{"key":"08","name":"Baden-Württemberg"}},{"name":"Hölderlinstr.","postalCode":"72649","locality":"Wolfschlugen","municipality":{"key":"08116073","name":"Wolfschlugen","type":"Kreisangehörige_Gemeinde"},"district":{"key":"08116","name":"Esslingen","type":"Landkreis"},"federalState":{"key":"08","name":"Baden-Württemberg"}},{"name":"Hopfengartenweg","postalCode":"72649","locality":"Wolfschlugen","municipality":{"key":"08116073","name":"Wolfschlugen","type":"Kreisangehörige_Gemeinde"},"district":{"key":"08116","name":"Esslingen","type":"Landkreis"},"federalState":{"key":"08","name":"Baden-Württemberg"}},{"name":"Im Felde West","postalCode":"03253","locality":"Doberlug-Kirchhain","municipality":{"key":"12062092","name":"Doberlug-Kirchhain, Stadt","type":"Stadt"},"district":{"key":"12062","name":"Elbe-Elster","type":"Landkreis"},"federalState":{"key":"12","name":"Brandenburg"}},{"name":"Im Gänsgarten","postalCode":"72649","locality":"Wolfschlugen","municipality":{"key":"08116073","name":"Wolfschlugen","type":"Kreisangehörige_Gemeinde"},"district":{"key":"08116","name":"Esslingen","type":"Landkreis"},"federalState":{"key":"08","name":"Baden-Württemberg"}},{"name":"Im Grund","postalCode":"72649","locality":"Wolfschlugen","municipality":{"key":"08116073","name":"Wolfschlugen","type":"Kreisangehörige_Gemeinde"},"district":{"key":"08116","name":"Esslingen","type":"Landkreis"},"federalState":{"key":"08","name":"Baden-Württemberg"}},{"name":"Im Maisfeld","postalCode":"76848","locality":"Lug","municipality":{"key":"07340030","name":"Lug","type":"Kreisangehörige_Gemeinde"},"district":{"key":"07340","name":"Südwestpfalz","type":"Landkreis"},"federalState":{"key":"07","name":"Rheinland-Pfalz"}},{"name":"Im Stillert","postalCode":"72649","locality":"Wolfschlugen","municipality":{"key":"08116073","name":"Wolfschlugen","type":"Kreisangehörige_Gemeinde"},"district":{"key":"08116","name":"Esslingen","type":"Landkreis"},"federalState":{"key":"08","name":"Baden-Württemberg"}},{"name":"In den Kirchhofländern","postalCode":"72649","locality":"Wolfschlugen","municipality":{"key":"08116073","name":"Wolfschlugen","type":"Kreisangehörige_Gemeinde"},"district":{"key":"08116","name":"Esslingen","type":"Landkreis"},"federalState":{"key":"08","name":"Baden-Württemberg"}},{"name":"In der Aue","postalCode":"09385","locality":"Lugau","municipality":{"key":"14521380","name":"Lugau/Erzgeb., Stadt","type":"Stadt"},"district":{"key":"14521","name":"Erzgebirgskreis","type":"Landkreis"},"federalState":{"key":"14","name":"Sachsen"}},{"name":"In der Laubendöll","postalCode":"76848","locality":"Lug","municipality":{"key":"07340030","name":"Lug","type":"Kreisangehörige_Gemeinde"},"district":{"key":"07340","name":"Südwestpfalz","type":"Landkreis"},"federalState":{"key":"07","name":"Rheinland-Pfalz"}},{"name":"Jägerstr.","postalCode":"09385","locality":"Lugau","municipality":{"key":"14521380","name":"Lugau/Erzgeb., Stadt","type":"Stadt"},"district":{"key":"14521","name":"Erzgebirgskreis","type":"Landkreis"},"federalState":{"key":"14","name":"Sachsen"}},{"name":"Jähdeneck","postalCode":"03253","locality":"Doberlug-Kirchhain","municipality":{"key":"12062092","name":"Doberlug-Kirchhain, Stadt","type":"Stadt"},"district":{"key":"12062","name":"Elbe-Elster","type":"Landkreis"},"federalState":{"key":"12","name":"Brandenburg"}},{"name":"Jahnstr.","postalCode":"72649","locality":"Wolfschlugen","municipality":{"key":"08116073","name":"Wolfschlugen","type":"Kreisangehörige_Gemeinde"},"district":{"key":"08116","name":"Esslingen","type":"Landkreis"},"federalState":{"key":"08","name":"Baden-Württemberg"}},{"name":"Jakobstr.","postalCode":"72649","locality":"Wolfschlugen","municipality":{"key":"08116073","name":"Wolfschlugen","type":"Kreisangehörige_Gemeinde"},"district":{"key":"08116","name":"Esslingen","type":"Landkreis"},"federalState":{"key":"08","name":"Baden-Württemberg"}},{"name":"Johann-Sebastian-Bach-Str.","postalCode":"03253","locality":"Doberlug-Kirchhain","municipality":{"key":"12062092","name":"Doberlug-Kirchhain, Stadt","type":"Stadt"},"district":{"key":"12062","name":"Elbe-Elster","type":"Landkreis"},"federalState":{"key":"12","name":"Brandenburg"}},{"name":"Johann-Strauß-Weg","postalCode":"72649","locality":"Wolfschlugen","municipality":{"key":"08116073","name":"Wolfschlugen","type":"Kreisangehörige_Gemeinde"},"district":{"key":"08116","name":"Esslingen","type":"Landkreis"},"federalState":{"key":"08","name":"Baden-Württemberg"}},{"name":"Juri-Gagarin-Str.","postalCode":"09385","locality":"Lugau","municipality":{"key":"14521380","name":"Lugau/Erzgeb., Stadt","type":"Stadt"},"district":{"key":"14521","name":"Erzgebirgskreis","type":"Landkreis"},"federalState":{"key":"14","name":"Sachsen"}},{"name":"Kantorstr.","postalCode":"03253","locality":"Doberlug-Kirchhain","municipality":{"key":"12062092","name":"Doberlug-Kirchhain, Stadt","type":"Stadt"},"district":{"key":"12062","name":"Elbe-Elster","type":"Landkreis"},"federalState":{"key":"12","name":"Brandenburg"}},{"name":"Karl-Liebknecht-Str.","postalCode":"03253","locality":"Doberlug-Kirchhain","municipality":{"key":"12062092","name":"Doberlug-Kirchhain, Stadt","type":"Stadt"},"district":{"key":"12062","name":"Elbe-Elster","type":"Landkreis"},"federalState":{"key":"12","name":"Brandenburg"}},{"name":"Karl-Marx-Str.","postalCode":"03253","locality":"Doberlug-Kirchhain","municipality":{"key":"12062092","name":"Doberlug-Kirchhain, Stadt","type":"Stadt"},"district":{"key":"12062","name":"Elbe-Elster","type":"Landkreis"},"federalState":{"key":"12","name":"Brandenburg"}},{"name":"Kietzer Str.","postalCode":"03253","locality":"Doberlug-Kirchhain","municipality":{"key":"12062092","name":"Doberlug-Kirchhain, Stadt","type":"Stadt"},"district":{"key":"12062","name":"Elbe-Elster","type":"Landkreis"},"federalState":{"key":"12","name":"Brandenburg"}},{"name":"Kirchhainer Str.","postalCode":"03253","locality":"Doberlug-Kirchhain","municipality":{"key":"12062092","name":"Doberlug-Kirchhain, Stadt","type":"Stadt"},"district":{"key":"12062","name":"Elbe-Elster","type":"Landkreis"},"federalState":{"key":"12","name":"Brandenburg"}},{"name":"Kirchhainer Weg","postalCode":"03253","locality":"Doberlug-Kirchhain","municipality":{"key":"12062092","name":"Doberlug-Kirchhain, Stadt","type":"Stadt"},"district":{"key":"12062","name":"Elbe-Elster","type":"Landkreis"},"federalState":{"key":"12","name":"Brandenburg"}},{"name":"Kirchsteig","postalCode":"03253","locality":"Doberlug-Kirchhain","municipality":{"key":"12062092","name":"Doberlug-Kirchhain, Stadt","type":"Stadt"},"district":{"key":"12062","name":"Elbe-Elster","type":"Landkreis"},"federalState":{"key":"12","name":"Brandenburg"}},{"name":"Kirchstr.","postalCode":"03253","locality":"Doberlug-Kirchhain","municipality":{"key":"12062092","name":"Doberlug-Kirchhain, Stadt","type":"Stadt"},"district":{"key":"12062","name":"Elbe-Elster","type":"Landkreis"},"federalState":{"key":"12","name":"Brandenburg"}},{"name":"Kirchstr.","postalCode":"72649","locality":"Wolfschlugen","municipality":{"key":"08116073","name":"Wolfschlugen","type":"Kreisangehörige_Gemeinde"},"district":{"key":"08116","name":"Esslingen","type":"Landkreis"},"federalState":{"key":"08","name":"Baden-Württemberg"}},{"name":"Kirchstr.","postalCode":"76848","locality":"Lug","municipality":{"key":"07340030","name":"Lug","type":"Kreisangehörige_Gemeinde"},"district":{"key":"07340","name":"Südwestpfalz","type":"Landkreis"},"federalState":{"key":"07","name":"Rheinland-Pfalz"}},{"name":"Kirchweg","postalCode":"09385","locality":"Lugau","municipality":{"key":"14521380","name":"Lugau/Erzgeb., Stadt","type":"Stadt"},"district":{"key":"14521","name":"Erzgebirgskreis","type":"Landkreis"},"federalState":{"key":"14","name":"Sachsen"}},{"name":"Klingenhauweg","postalCode":"72649","locality":"Wolfschlugen","municipality":{"key":"08116073","name":"Wolfschlugen","type":"Kreisangehörige_Gemeinde"},"district":{"key":"08116","name":"Esslingen","type":"Landkreis"},"federalState":{"key":"08","name":"Baden-Württemberg"}},{"name":"Klingenstr.","postalCode":"72649","locality":"Wolfschlugen","municipality":{"key":"08116073","name":"Wolfschlugen","type":"Kreisangehörige_Gemeinde"},"district":{"key":"08116","name":"Esslingen","type":"Landkreis"},"federalState":{"key":"08","name":"Baden-Württemberg"}},{"name":"Kohlebahnradweg","postalCode":"09385","locality":"Lugau","municipality":{"key":"14521380","name":"Lugau/Erzgeb., Stadt","type":"Stadt"},"district":{"key":"14521","name":"Erzgebirgskreis","type":"Landkreis"},"federalState":{"key":"14","name":"Sachsen"}},{"name":"Koshauweg","postalCode":"72649","locality":"Wolfschlugen","municipality":{"key":"08116073","name":"Wolfschlugen","type":"Kreisangehörige_Gemeinde"},"district":{"key":"08116","name":"Esslingen","type":"Landkreis"},"federalState":{"key":"08","name":"Baden-Württemberg"}},{"name":"Küferstr.","postalCode":"72649","locality":"Wolfschlugen","municipality":{"key":"08116073","name":"Wolfschlugen","type":"Kreisangehörige_Gemeinde"},"district":{"key":"08116","name":"Esslingen","type":"Landkreis"},"federalState":{"key":"08","name":"Baden-Württemberg"}},{"name":"Kurze Str.","postalCode":"09385","locality":"Lugau","municipality":{"key":"14521380","name":"Lugau/Erzgeb., Stadt","type":"Stadt"},"district":{"key":"14521","name":"Erzgebirgskreis","type":"Landkreis"},"federalState":{"key":"14","name":"Sachsen"}},{"name":"Lauerhauweg","postalCode":"72649","locality":"Wolfschlugen","municipality":{"key":"08116073","name":"Wolfschlugen","type":"Kreisangehörige_Gemeinde"},"district":{"key":"08116","name":"Esslingen","type":"Landkreis"},"federalState":{"key":"08","name":"Baden-Württemberg"}},{"name":"Lehmweg","postalCode":"03253","locality":"Doberlug-Kirchhain","municipality":{"key":"12062092","name":"Doberlug-Kirchhain, Stadt","type":"Stadt"},"district":{"key":"12062","name":"Elbe-Elster","type":"Landkreis"},"federalState":{"key":"12","name":"Brandenburg"}},{"name":"Leipziger Str.","postalCode":"03253","locality":"Doberlug-Kirchhain","municipality":{"key":"12062092","name":"Doberlug-Kirchhain, Stadt","type":"Stadt"},"district":{"key":"12062","name":"Elbe-Elster","type":"Landkreis"},"federalState":{"key":"12","name":"Brandenburg"}},{"name":"Lerchenstr.","postalCode":"72649","locality":"Wolfschlugen","municipality":{"key":"08116073","name":"Wolfschlugen","type":"Kreisangehörige_Gemeinde"},"district":{"key":"08116","name":"Esslingen","type":"Landkreis"},"federalState":{"key":"08","name":"Baden-Württemberg"}},{"name":"Lessingstr.","postalCode":"09385","locality":"Lugau","municipality":{"key":"14521380","name":"Lugau/Erzgeb., Stadt","type":"Stadt"},"district":{"key":"14521","name":"Erzgebirgskreis","type":"Landkreis"},"federalState":{"key":"14","name":"Sachsen"}},{"name":"Leukersdorfer Str.","postalCode":"09385","locality":"Lugau","municipality":{"key":"14521380","name":"Lugau/Erzgeb., Stadt","type":"Stadt"},"district":{"key":"14521","name":"Erzgebirgskreis","type":"Landkreis"},"federalState":{"key":"14","name":"Sachsen"}},{"name":"Lichtena","postalCode":"03253","locality":"Doberlug-Kirchhain","municipality":{"key":"12062092","name":"Doberlug-Kirchhain, Stadt","type":"Stadt"},"district":{"key":"12062","name":"Elbe-Elster","type":"Landkreis"},"federalState":{"key":"12","name":"Brandenburg"}},{"name":"Lindenaer Str.","postalCode":"03253","locality":"Doberlug-Kirchhain","municipality":{"key":"12062092","name":"Doberlug-Kirchhain, Stadt","type":"Stadt"},"district":{"key":"12062","name":"Elbe-Elster","type":"Landkreis"},"federalState":{"key":"12","name":"Brandenburg"}},{"name":"Lindengrabenstr.","postalCode":"72649","locality":"Wolfschlugen","municipality":{"key":"08116073","name":"Wolfschlugen","type":"Kreisangehörige_Gemeinde"},"district":{"key":"08116","name":"Esslingen","type":"Landkreis"},"federalState":{"key":"08","name":"Baden-Württemberg"}},{"name":"Lindenstr.","postalCode":"03253","locality":"Doberlug-Kirchhain","municipality":{"key":"12062092","name":"Doberlug-Kirchhain, Stadt","type":"Stadt"},"district":{"key":"12062","name":"Elbe-Elster","type":"Landkreis"},"federalState":{"key":"12","name":"Brandenburg"}},{"name":"Lindenstr.","postalCode":"09385","locality":"Lugau","municipality":{"key":"14521380","name":"Lugau/Erzgeb., Stadt","type":"Stadt"},"district":{"key":"14521","name":"Erzgebirgskreis","type":"Landkreis"},"federalState":{"key":"14","name":"Sachsen"}},{"name":"Lönsweg","postalCode":"72649","locality":"Wolfschlugen","municipality":{"key":"08116073","name":"Wolfschlugen","type":"Kreisangehörige_Gemeinde"},"district":{"key":"08116","name":"Esslingen","type":"Landkreis"},"federalState":{"key":"08","name":"Baden-Württemberg"}},{"name":"Luckauer Str.","postalCode":"03253","locality":"Doberlug-Kirchhain","municipality":{"key":"12062092","name":"Doberlug-Kirchhain, Stadt","type":"Stadt"},"district":{"key":"12062","name":"Elbe-Elster","type":"Landkreis"},"federalState":{"key":"12","name":"Brandenburg"}},{"name":"Lugau Ausbau Nr.","postalCode":"03253","locality":"Doberlug-Kirchhain","municipality":{"key":"12062092","name":"Doberlug-Kirchhain, Stadt","type":"Stadt"},"district":{"key":"12062","name":"Elbe-Elster","type":"Landkreis"},"federalState":{"key":"12","name":"Brandenburg"}},{"name":"Lugauer Allee","postalCode":"03253","locality":"Doberlug-Kirchhain","municipality":{"key":"12062092","name":"Doberlug-Kirchhain, Stadt","type":"Stadt"},"district":{"key":"12062","name":"Elbe-Elster","type":"Landkreis"},"federalState":{"key":"12","name":"Brandenburg"}},{"name":"Lugauer Chaussee","postalCode":"03253","locality":"Doberlug-Kirchhain","municipality":{"key":"12062092","name":"Doberlug-Kirchhain, Stadt","type":"Stadt"},"district":{"key":"12062","name":"Elbe-Elster","type":"Landkreis"},"federalState":{"key":"12","name":"Brandenburg"}},{"name":"Lugauer Hauptstr.","postalCode":"03253","locality":"Doberlug-Kirchhain","municipality":{"key":"12062092","name":"Doberlug-Kirchhain, Stadt","type":"Stadt"},"district":{"key":"12062","name":"Elbe-Elster","type":"Landkreis"},"federalState":{"key":"12","name":"Brandenburg"}},{"name":"Lugauer Str.","postalCode":"03253","locality":"Doberlug-Kirchhain","municipality":{"key":"12062092","name":"Doberlug-Kirchhain, Stadt","type":"Stadt"},"district":{"key":"12062","name":"Elbe-Elster","type":"Landkreis"},"federalState":{"key":"12","name":"Brandenburg"}},{"name":"Lugauer Weg","postalCode":"03253","locality":"Doberlug-Kirchhain","municipality":{"key":"12062092","name":"Doberlug-Kirchhain, Stadt","type":"Stadt"},"district":{"key":"12062","name":"Elbe-Elster","type":"Landkreis"},"federalState":{"key":"12","name":"Brandenburg"}},{"name":"Marktgäßchen","postalCode":"09385","locality":"Lugau","municipality":{"key":"14521380","name":"Lugau/Erzgeb., Stadt","type":"Stadt"},"district":{"key":"14521","name":"Erzgebirgskreis","type":"Landkreis"},"federalState":{"key":"14","name":"Sachsen"}},{"name":"Max-Eyth-Str.","postalCode":"72649","locality":"Wolfschlugen","municipality":{"key":"08116073","name":"Wolfschlugen","type":"Kreisangehörige_Gemeinde"},"district":{"key":"08116","name":"Esslingen","type":"Landkreis"},"federalState":{"key":"08","name":"Baden-Württemberg"}},{"name":"Meisenweg","postalCode":"72649","locality":"Wolfschlugen","municipality":{"key":"08116073","name":"Wolfschlugen","type":"Kreisangehörige_Gemeinde"},"district":{"key":"08116","name":"Esslingen","type":"Landkreis"},"federalState":{"key":"08","name":"Baden-Württemberg"}},{"name":"Mittelstr.","postalCode":"03253","locality":"Doberlug-Kirchhain","municipality":{"key":"12062092","name":"Doberlug-Kirchhain, Stadt","type":"Stadt"},"district":{"key":"12062","name":"Elbe-Elster","type":"Landkreis"},"federalState":{"key":"12","name":"Brandenburg"}},{"name":"Mittelweg","postalCode":"03253","locality":"Doberlug-Kirchhain","municipality":{"key":"12062092","name":"Doberlug-Kirchhain, Stadt","type":"Stadt"},"district":{"key":"12062","name":"Elbe-Elster","type":"Landkreis"},"federalState":{"key":"12","name":"Brandenburg"}},{"name":"Mörikestr.","postalCode":"72649","locality":"Wolfschlugen","municipality":{"key":"08116073","name":"Wolfschlugen","type":"Kreisangehörige_Gemeinde"},"district":{"key":"08116","name":"Esslingen","type":"Landkreis"},"federalState":{"key":"08","name":"Baden-Württemberg"}},{"name":"Mozartstr.","postalCode":"72649","locality":"Wolfschlugen","municipality":{"key":"08116073","name":"Wolfschlugen","type":"Kreisangehörige_Gemeinde"},"district":{"key":"08116","name":"Esslingen","type":"Landkreis"},"federalState":{"key":"08","name":"Baden-Württemberg"}},{"name":"Mühlenstr.","postalCode":"03253","locality":"Doberlug-Kirchhain","municipality":{"key":"12062092","name":"Doberlug-Kirchhain, Stadt","type":"Stadt"},"district":{"key":"12062","name":"Elbe-Elster","type":"Landkreis"},"federalState":{"key":"12","name":"Brandenburg"}},{"name":"Mühlenweg","postalCode":"03253","locality":"Doberlug-Kirchhain","municipality":{"key":"12062092","name":"Doberlug-Kirchhain, Stadt","type":"Stadt"},"district":{"key":"12062","name":"Elbe-Elster","type":"Landkreis"},"federalState":{"key":"12","name":"Brandenburg"}},{"name":"Mühlgrabenweg","postalCode":"03253","locality":"Doberlug-Kirchhain","municipality":{"key":"12062092","name":"Doberlug-Kirchhain, Stadt","type":"Stadt"},"district":{"key":"12062","name":"Elbe-Elster","type":"Landkreis"},"federalState":{"key":"12","name":"Brandenburg"}},{"name":"Mühlstr.","postalCode":"76848","locality":"Lug","municipality":{"key":"07340030","name":"Lug","type":"Kreisangehörige_Gemeinde"},"district":{"key":"07340","name":"Südwestpfalz","type":"Landkreis"},"federalState":{"key":"07","name":"Rheinland-Pfalz"}},{"name":"Mühlweg","postalCode":"09385","locality":"Lugau","municipality":{"key":"14521380","name":"Lugau/Erzgeb., Stadt","type":"Stadt"},"district":{"key":"14521","name":"Erzgebirgskreis","type":"Landkreis"},"federalState":{"key":"14","name":"Sachsen"}},{"name":"Münchhausener Str.","postalCode":"03253","locality":"Doberlug-Kirchhain","municipality":{"key":"12062092","name":"Doberlug-Kirchhain, Stadt","type":"Stadt"},"district":{"key":"12062","name":"Elbe-Elster","type":"Landkreis"},"federalState":{"key":"12","name":"Brandenburg"}},{"name":"Nexdorfer Dorfstr.","postalCode":"03253","locality":"Doberlug-Kirchhain","municipality":{"key":"12062092","name":"Doberlug-Kirchhain, Stadt","type":"Stadt"},"district":{"key":"12062","name":"Elbe-Elster","type":"Landkreis"},"federalState":{"key":"12","name":"Brandenburg"}},{"name":"Nexdorfer Hauptstr.","postalCode":"03253","locality":"Doberlug-Kirchhain","municipality":{"key":"12062092","name":"Doberlug-Kirchhain, Stadt","type":"Stadt"},"district":{"key":"12062","name":"Elbe-Elster","type":"Landkreis"},"federalState":{"key":"12","name":"Brandenburg"}},{"name":"Nürtinger Str.","postalCode":"72649","locality":"Wolfschlugen","municipality":{"key":"08116073","name":"Wolfschlugen","type":"Kreisangehörige_Gemeinde"},"district":{"key":"08116","name":"Esslingen","type":"Landkreis"},"federalState":{"key":"08","name":"Baden-Württemberg"}},{"name":"Obere Hauptstr.","postalCode":"09385","locality":"Lugau","municipality":{"key":"14521380","name":"Lugau/Erzgeb., Stadt","type":"Stadt"},"district":{"key":"14521","name":"Erzgebirgskreis","type":"Landkreis"},"federalState":{"key":"14","name":"Sachsen"}},{"name":"Oberensinger-Höhe-Weg","postalCode":"72649","locality":"Wolfschlugen","municipality":{"key":"08116073","name":"Wolfschlugen","type":"Kreisangehörige_Gemeinde"},"district":{"key":"08116","name":"Esslingen","type":"Landkreis"},"federalState":{"key":"08","name":"Baden-Württemberg"}},{"name":"Oberer Winterhaldeweg","postalCode":"72649","locality":"Wolfschlugen","municipality":{"key":"08116073","name":"Wolfschlugen","type":"Kreisangehörige_Gemeinde"},"district":{"key":"08116","name":"Esslingen","type":"Landkreis"},"federalState":{"key":"08","name":"Baden-Württemberg"}},{"name":"Oberlungwitzer Str.","postalCode":"09385","locality":"Lugau","municipality":{"key":"14521380","name":"Lugau/Erzgeb., Stadt","type":"Stadt"},"district":{"key":"14521","name":"Erzgebirgskreis","type":"Landkreis"},"federalState":{"key":"14","name":"Sachsen"}},{"name":"Oelsiger Str.","postalCode":"03253","locality":"Doberlug-Kirchhain","municipality":{"key":"12062092","name":"Doberlug-Kirchhain, Stadt","type":"Stadt"},"district":{"key":"12062","name":"Elbe-Elster","type":"Landkreis"},"federalState":{"key":"12","name":"Brandenburg"}},{"name":"Oelsnitzer Str.","postalCode":"09385","locality":"Lugau","municipality":{"key":"14521380","name":"Lugau/Erzgeb., Stadt","type":"Stadt"},"district":{"key":"14521","name":"Erzgebirgskreis","type":"Landkreis"},"federalState":{"key":"14","name":"Sachsen"}},{"name":"Offenbachweg","postalCode":"72649","locality":"Wolfschlugen","municipality":{"key":"08116073","name":"Wolfschlugen","type":"Kreisangehörige_Gemeinde"},"district":{"key":"08116","name":"Esslingen","type":"Landkreis"},"federalState":{"key":"08","name":"Baden-Württemberg"}},{"name":"Oststr.","postalCode":"03253","locality":"Doberlug-Kirchhain","municipality":{"key":"12062092","name":"Doberlug-Kirchhain, Stadt","type":"Stadt"},"district":{"key":"12062","name":"Elbe-Elster","type":"Landkreis"},"federalState":{"key":"12","name":"Brandenburg"}},{"name":"Oststr.","postalCode":"09385","locality":"Lugau","municipality":{"key":"14521380","name":"Lugau/Erzgeb., Stadt","type":"Stadt"},"district":{"key":"14521","name":"Erzgebirgskreis","type":"Landkreis"},"federalState":{"key":"14","name":"Sachsen"}},{"name":"Pappelweg","postalCode":"72649","locality":"Wolfschlugen","municipality":{"key":"08116073","name":"Wolfschlugen","type":"Kreisangehörige_Gemeinde"},"district":{"key":"08116","name":"Esslingen","type":"Landkreis"},"federalState":{"key":"08","name":"Baden-Württemberg"}},{"name":"Parkstr.","postalCode":"72649","locality":"Wolfschlugen","municipality":{"key":"08116073","name":"Wolfschlugen","type":"Kreisangehörige_Gemeinde"},"district":{"key":"08116","name":"Esslingen","type":"Landkreis"},"federalState":{"key":"08","name":"Baden-Württemberg"}},{"name":"Pestalozziplatz","postalCode":"03253","locality":"Doberlug-Kirchhain","municipality":{"key":"12062092","name":"Doberlug-Kirchhain, Stadt","type":"Stadt"},"district":{"key":"12062","name":"Elbe-Elster","type":"Landkreis"},"federalState":{"key":"12","name":"Brandenburg"}},{"name":"Pestalozzistr.","postalCode":"09385","locality":"Lugau","municipality":{"key":"14521380","name":"Lugau/Erzgeb., Stadt","type":"Stadt"},"district":{"key":"14521","name":"Erzgebirgskreis","type":"Landkreis"},"federalState":{"key":"14","name":"Sachsen"}},{"name":"Pfaffenhauweg","postalCode":"72649","locality":"Wolfschlugen","municipality":{"key":"08116073","name":"Wolfschlugen","type":"Kreisangehörige_Gemeinde"},"district":{"key":"08116","name":"Esslingen","type":"Landkreis"},"federalState":{"key":"08","name":"Baden-Württemberg"}},{"name":"Pfarrweg","postalCode":"09385","locality":"Lugau","municipality":{"key":"14521380","name":"Lugau/Erzgeb., Stadt","type":"Stadt"},"district":{"key":"14521","name":"Erzgebirgskreis","type":"Landkreis"},"federalState":{"key":"14","name":"Sachsen"}},{"name":"Poststr.","postalCode":"03253","locality":"Doberlug-Kirchhain","municipality":{"key":"12062092","name":"Doberlug-Kirchhain, Stadt","type":"Stadt"},"district":{"key":"12062","name":"Elbe-Elster","type":"Landkreis"},"federalState":{"key":"12","name":"Brandenburg"}},{"name":"Poststr.","postalCode":"09385","locality":"Lugau","municipality":{"key":"14521380","name":"Lugau/Erzgeb., Stadt","type":"Stadt"},"district":{"key":"14521","name":"Erzgebirgskreis","type":"Landkreis"},"federalState":{"key":"14","name":"Sachsen"}},{"name":"Postweg","postalCode":"09385","locality":"Lugau","municipality":{"key":"14521380","name":"Lugau/Erzgeb., Stadt","type":"Stadt"},"district":{"key":"14521","name":"Erzgebirgskreis","type":"Landkreis"},"federalState":{"key":"14","name":"Sachsen"}},{"name":"Potsdamer Str.","postalCode":"03253","locality":"Doberlug-Kirchhain","municipality":{"key":"12062092","name":"Doberlug-Kirchhain, Stadt","type":"Stadt"},"district":{"key":"12062","name":"Elbe-Elster","type":"Landkreis"},"federalState":{"key":"12","name":"Brandenburg"}},{"name":"Prießener Str.","postalCode":"03253","locality":"Doberlug-Kirchhain","municipality":{"key":"12062092","name":"Doberlug-Kirchhain, Stadt","type":"Stadt"},"district":{"key":"12062","name":"Elbe-Elster","type":"Landkreis"},"federalState":{"key":"12","name":"Brandenburg"}},{"name":"Querstr.","postalCode":"03253","locality":"Doberlug-Kirchhain","municipality":{"key":"12062092","name":"Doberlug-Kirchhain, Stadt","type":"Stadt"},"district":{"key":"12062","name":"Elbe-Elster","type":"Landkreis"},"federalState":{"key":"12","name":"Brandenburg"}},{"name":"Querstr.","postalCode":"09385","locality":"Lugau","municipality":{"key":"14521380","name":"Lugau/Erzgeb., Stadt","type":"Stadt"},"district":{"key":"14521","name":"Erzgebirgskreis","type":"Landkreis"},"federalState":{"key":"14","name":"Sachsen"}},{"name":"Rathausstr.","postalCode":"03253","locality":"Doberlug-Kirchhain","municipality":{"key":"12062092","name":"Doberlug-Kirchhain, Stadt","type":"Stadt"},"district":{"key":"12062","name":"Elbe-Elster","type":"Landkreis"},"federalState":{"key":"12","name":"Brandenburg"}},{"name":"Rathausstr.","postalCode":"09385","locality":"Lugau","municipality":{"key":"14521380","name":"Lugau/Erzgeb., Stadt","type":"Stadt"},"district":{"key":"14521","name":"Erzgebirgskreis","type":"Landkreis"},"federalState":{"key":"14","name":"Sachsen"}},{"name":"Rathausstr.","postalCode":"72649","locality":"Wolfschlugen","municipality":{"key":"08116073","name":"Wolfschlugen","type":"Kreisangehörige_Gemeinde"},"district":{"key":"08116","name":"Esslingen","type":"Landkreis"},"federalState":{"key":"08","name":"Baden-Württemberg"}},{"name":"Reinhardtstr.","postalCode":"72649","locality":"Wolfschlugen","municipality":{"key":"08116073","name":"Wolfschlugen","type":"Kreisangehörige_Gemeinde"},"district":{"key":"08116","name":"Esslingen","type":"Landkreis"},"federalState":{"key":"08","name":"Baden-Württemberg"}},{"name":"Revierstr.","postalCode":"09385","locality":"Lugau","municipality":{"key":"14521380","name":"Lugau/Erzgeb., Stadt","type":"Stadt"},"district":{"key":"14521","name":"Erzgebirgskreis","type":"Landkreis"},"federalState":{"key":"14","name":"Sachsen"}},{"name":"Rhenaniaweg","postalCode":"09385","locality":"Lugau","municipality":{"key":"14521380","name":"Lugau/Erzgeb., Stadt","type":"Stadt"},"district":{"key":"14521","name":"Erzgebirgskreis","type":"Landkreis"},"federalState":{"key":"14","name":"Sachsen"}},{"name":"Richard-Wagner-Str.","postalCode":"72649","locality":"Wolfschlugen","municipality":{"key":"08116073","name":"Wolfschlugen","type":"Kreisangehörige_Gemeinde"},"district":{"key":"08116","name":"Esslingen","type":"Landkreis"},"federalState":{"key":"08","name":"Baden-Württemberg"}},{"name":"Riedbronnenweg","postalCode":"72649","locality":"Wolfschlugen","municipality":{"key":"08116073","name":"Wolfschlugen","type":"Kreisangehörige_Gemeinde"},"district":{"key":"08116","name":"Esslingen","type":"Landkreis"},"federalState":{"key":"08","name":"Baden-Württemberg"}},{"name":"Riederhäuleweg","postalCode":"72649","locality":"Wolfschlugen","municipality":{"key":"08116073","name":"Wolfschlugen","type":"Kreisangehörige_Gemeinde"},"district":{"key":"08116","name":"Esslingen","type":"Landkreis"},"federalState":{"key":"08","name":"Baden-Württemberg"}},{"name":"Riedstr.","postalCode":"72649","locality":"Wolfschlugen","municipality":{"key":"08116073","name":"Wolfschlugen","type":"Kreisangehörige_Gemeinde"},"district":{"key":"08116","name":"Esslingen","type":"Landkreis"},"federalState":{"key":"08","name":"Baden-Württemberg"}},{"name":"Rittersteig","postalCode":"03253","locality":"Doberlug-Kirchhain","municipality":{"key":"12062092","name":"Doberlug-Kirchhain, Stadt","type":"Stadt"},"district":{"key":"12062","name":"Elbe-Elster","type":"Landkreis"},"federalState":{"key":"12","name":"Brandenburg"}},{"name":"Rosa-Luxemburg-Str.","postalCode":"03253","locality":"Doberlug-Kirchhain","municipality":{"key":"12062092","name":"Doberlug-Kirchhain, Stadt","type":"Stadt"},"district":{"key":"12062","name":"Elbe-Elster","type":"Landkreis"},"federalState":{"key":"12","name":"Brandenburg"}},{"name":"Rossbergstr.","postalCode":"72649","locality":"Wolfschlugen","municipality":{"key":"08116073","name":"Wolfschlugen","type":"Kreisangehörige_Gemeinde"},"district":{"key":"08116","name":"Esslingen","type":"Landkreis"},"federalState":{"key":"08","name":"Baden-Württemberg"}},{"name":"Rückersdorfer Str.","postalCode":"03253","locality":"Doberlug-Kirchhain","municipality":{"key":"12062092","name":"Doberlug-Kirchhain, Stadt","type":"Stadt"},"district":{"key":"12062","name":"Elbe-Elster","type":"Landkreis"},"federalState":{"key":"12","name":"Brandenburg"}},{"name":"Saarstr.","postalCode":"76848","locality":"Lug","municipality":{"key":"07340030","name":"Lug","type":"Kreisangehörige_Gemeinde"},"district":{"key":"07340","name":"Südwestpfalz","type":"Landkreis"},"federalState":{"key":"07","name":"Rheinland-Pfalz"}},{"name":"Saatschulweg","postalCode":"72649","locality":"Wolfschlugen","municipality":{"key":"08116073","name":"Wolfschlugen","type":"Kreisangehörige_Gemeinde"},"district":{"key":"08116","name":"Esslingen","type":"Landkreis"},"federalState":{"key":"08","name":"Baden-Württemberg"}},{"name":"Sallauminer Str.","postalCode":"09385","locality":"Lugau","municipality":{"key":"14521380","name":"Lugau/Erzgeb., Stadt","type":"Stadt"},"district":{"key":"14521","name":"Erzgebirgskreis","type":"Landkreis"},"federalState":{"key":"14","name":"Sachsen"}},{"name":"Schäferberg","postalCode":"03253","locality":"Doberlug-Kirchhain","municipality":{"key":"12062092","name":"Doberlug-Kirchhain, Stadt","type":"Stadt"},"district":{"key":"12062","name":"Elbe-Elster","type":"Landkreis"},"federalState":{"key":"12","name":"Brandenburg"}},{"name":"Schildaer Str.","postalCode":"03253","locality":"Doberlug-Kirchhain","municipality":{"key":"12062092","name":"Doberlug-Kirchhain, Stadt","type":"Stadt"},"district":{"key":"12062","name":"Elbe-Elster","type":"Landkreis"},"federalState":{"key":"12","name":"Brandenburg"}},{"name":"Schillerpark","postalCode":"03253","locality":"Doberlug-Kirchhain","municipality":{"key":"12062092","name":"Doberlug-Kirchhain, Stadt","type":"Stadt"},"district":{"key":"12062","name":"Elbe-Elster","type":"Landkreis"},"federalState":{"key":"12","name":"Brandenburg"}},{"name":"Schillerstr.","postalCode":"03253","locality":"Doberlug-Kirchhain","municipality":{"key":"12062092","name":"Doberlug-Kirchhain, Stadt","type":"Stadt"},"district":{"key":"12062","name":"Elbe-Elster","type":"Landkreis"},"federalState":{"key":"12","name":"Brandenburg"}},{"name":"Schillerstr.","postalCode":"09385","locality":"Lugau","municipality":{"key":"14521380","name":"Lugau/Erzgeb., Stadt","type":"Stadt"},"district":{"key":"14521","name":"Erzgebirgskreis","type":"Landkreis"},"federalState":{"key":"14","name":"Sachsen"}},{"name":"Schillerstr.","postalCode":"72649","locality":"Wolfschlugen","municipality":{"key":"08116073","name":"Wolfschlugen","type":"Kreisangehörige_Gemeinde"},"district":{"key":"08116","name":"Esslingen","type":"Landkreis"},"federalState":{"key":"08","name":"Baden-Württemberg"}},{"name":"Schloßstr.","postalCode":"03253","locality":"Doberlug-Kirchhain","municipality":{"key":"12062092","name":"Doberlug-Kirchhain, Stadt","type":"Stadt"},"district":{"key":"12062","name":"Elbe-Elster","type":"Landkreis"},"federalState":{"key":"12","name":"Brandenburg"}},{"name":"Schöllhauweg","postalCode":"72649","locality":"Wolfschlugen","municipality":{"key":"08116073","name":"Wolfschlugen","type":"Kreisangehörige_Gemeinde"},"district":{"key":"08116","name":"Esslingen","type":"Landkreis"},"federalState":{"key":"08","name":"Baden-Württemberg"}},{"name":"Schönborner Str.","postalCode":"03253","locality":"Doberlug-Kirchhain","municipality":{"key":"12062092","name":"Doberlug-Kirchhain, Stadt","type":"Stadt"},"district":{"key":"12062","name":"Elbe-Elster","type":"Landkreis"},"federalState":{"key":"12","name":"Brandenburg"}},{"name":"Schubertstr.","postalCode":"72649","locality":"Wolfschlugen","municipality":{"key":"08116073","name":"Wolfschlugen","type":"Kreisangehörige_Gemeinde"},"district":{"key":"08116","name":"Esslingen","type":"Landkreis"},"federalState":{"key":"08","name":"Baden-Württemberg"}},{"name":"Schulsteig","postalCode":"03253","locality":"Doberlug-Kirchhain","municipality":{"key":"12062092","name":"Doberlug-Kirchhain, Stadt","type":"Stadt"},"district":{"key":"12062","name":"Elbe-Elster","type":"Landkreis"},"federalState":{"key":"12","name":"Brandenburg"}},{"name":"Schulstr.","postalCode":"03253","locality":"Doberlug-Kirchhain","municipality":{"key":"12062092","name":"Doberlug-Kirchhain, Stadt","type":"Stadt"},"district":{"key":"12062","name":"Elbe-Elster","type":"Landkreis"},"federalState":{"key":"12","name":"Brandenburg"}},{"name":"Schulstr.","postalCode":"09385","locality":"Lugau","municipality":{"key":"14521380","name":"Lugau/Erzgeb., Stadt","type":"Stadt"},"district":{"key":"14521","name":"Erzgebirgskreis","type":"Landkreis"},"federalState":{"key":"14","name":"Sachsen"}},{"name":"Schulstr.","postalCode":"72649","locality":"Wolfschlugen","municipality":{"key":"08116073","name":"Wolfschlugen","type":"Kreisangehörige_Gemeinde"},"district":{"key":"08116","name":"Esslingen","type":"Landkreis"},"federalState":{"key":"08","name":"Baden-Württemberg"}},{"name":"Schulstr.","postalCode":"76848","locality":"Lug","municipality":{"key":"07340030","name":"Lug","type":"Kreisangehörige_Gemeinde"},"district":{"key":"07340","name":"Südwestpfalz","type":"Landkreis"},"federalState":{"key":"07","name":"Rheinland-Pfalz"}},{"name":"Seestr.","postalCode":"72649","locality":"Wolfschlugen","municipality":{"key":"08116073","name":"Wolfschlugen","type":"Kreisangehörige_Gemeinde"},"district":{"key":"08116","name":"Esslingen","type":"Landkreis"},"federalState":{"key":"08","name":"Baden-Württemberg"}},{"name":"Selzweg","postalCode":"03253","locality":"Doberlug-Kirchhain","municipality":{"key":"12062092","name":"Doberlug-Kirchhain, Stadt","type":"Stadt"},"district":{"key":"12062","name":"Elbe-Elster","type":"Landkreis"},"federalState":{"key":"12","name":"Brandenburg"}},{"name":"Siedlerweg","postalCode":"03253","locality":"Doberlug-Kirchhain","municipality":{"key":"12062092","name":"Doberlug-Kirchhain, Stadt","type":"Stadt"},"district":{"key":"12062","name":"Elbe-Elster","type":"Landkreis"},"federalState":{"key":"12","name":"Brandenburg"}},{"name":"Siedlung Alte Schmiedegasse","postalCode":"09385","locality":"Lugau","municipality":{"key":"14521380","name":"Lugau/Erzgeb., Stadt","type":"Stadt"},"district":{"key":"14521","name":"Erzgebirgskreis","type":"Landkreis"},"federalState":{"key":"14","name":"Sachsen"}},{"name":"Siedlung Schulz","postalCode":"03253","locality":"Doberlug-Kirchhain","municipality":{"key":"12062092","name":"Doberlug-Kirchhain, Stadt","type":"Stadt"},"district":{"key":"12062","name":"Elbe-Elster","type":"Landkreis"},"federalState":{"key":"12","name":"Brandenburg"}},{"name":"Sielminger Str.","postalCode":"72649","locality":"Wolfschlugen","municipality":{"key":"08116073","name":"Wolfschlugen","type":"Kreisangehörige_Gemeinde"},"district":{"key":"08116","name":"Esslingen","type":"Landkreis"},"federalState":{"key":"08","name":"Baden-Württemberg"}},{"name":"Silcherstr.","postalCode":"72649","locality":"Wolfschlugen","municipality":{"key":"08116073","name":"Wolfschlugen","type":"Kreisangehörige_Gemeinde"},"district":{"key":"08116","name":"Esslingen","type":"Landkreis"},"federalState":{"key":"08","name":"Baden-Württemberg"}},{"name":"Sonnenstr.","postalCode":"03253","locality":"Doberlug-Kirchhain","municipality":{"key":"12062092","name":"Doberlug-Kirchhain, Stadt","type":"Stadt"},"district":{"key":"12062","name":"Elbe-Elster","type":"Landkreis"},"federalState":{"key":"12","name":"Brandenburg"}},{"name":"Sonnenstr.","postalCode":"09385","locality":"Lugau","municipality":{"key":"14521380","name":"Lugau/Erzgeb., Stadt","type":"Stadt"},"district":{"key":"14521","name":"Erzgebirgskreis","type":"Landkreis"},"federalState":{"key":"14","name":"Sachsen"}},{"name":"Spielstr.","postalCode":"09385","locality":"Lugau","municipality":{"key":"14521380","name":"Lugau/Erzgeb., Stadt","type":"Stadt"},"district":{"key":"14521","name":"Erzgebirgskreis","type":"Landkreis"},"federalState":{"key":"14","name":"Sachsen"}},{"name":"Stadtpark Lugau","postalCode":"09385","locality":"Lugau","municipality":{"key":"14521380","name":"Lugau/Erzgeb., Stadt","type":"Stadt"},"district":{"key":"14521","name":"Erzgebirgskreis","type":"Landkreis"},"federalState":{"key":"14","name":"Sachsen"}},{"name":"Stellweg","postalCode":"09385","locality":"Lugau","municipality":{"key":"14521380","name":"Lugau/Erzgeb., Stadt","type":"Stadt"},"district":{"key":"14521","name":"Erzgebirgskreis","type":"Landkreis"},"federalState":{"key":"14","name":"Sachsen"}},{"name":"Stickereiweg","postalCode":"72649","locality":"Wolfschlugen","municipality":{"key":"08116073","name":"Wolfschlugen","type":"Kreisangehörige_Gemeinde"},"district":{"key":"08116","name":"Esslingen","type":"Landkreis"},"federalState":{"key":"08","name":"Baden-Württemberg"}},{"name":"Stollberger Str.","postalCode":"09385","locality":"Lugau","municipality":{"key":"14521380","name":"Lugau/Erzgeb., Stadt","type":"Stadt"},"district":{"key":"14521","name":"Erzgebirgskreis","type":"Landkreis"},"federalState":{"key":"14","name":"Sachsen"}},{"name":"Str. der Jugend","postalCode":"03253","locality":"Doberlug-Kirchhain","municipality":{"key":"12062092","name":"Doberlug-Kirchhain, Stadt","type":"Stadt"},"district":{"key":"12062","name":"Elbe-Elster","type":"Landkreis"},"federalState":{"key":"12","name":"Brandenburg"}},{"name":"Stuttgarter Str.","postalCode":"72649","locality":"Wolfschlugen","municipality":{"key":"08116073","name":"Wolfschlugen","type":"Kreisangehörige_Gemeinde"},"district":{"key":"08116","name":"Esslingen","type":"Landkreis"},"federalState":{"key":"08","name":"Baden-Württemberg"}},{"name":"Südeck","postalCode":"03253","locality":"Doberlug-Kirchhain","municipality":{"key":"12062092","name":"Doberlug-Kirchhain, Stadt","type":"Stadt"},"district":{"key":"12062","name":"Elbe-Elster","type":"Landkreis"},"federalState":{"key":"12","name":"Brandenburg"}},{"name":"Südstr.","postalCode":"03253","locality":"Doberlug-Kirchhain","municipality":{"key":"12062092","name":"Doberlug-Kirchhain, Stadt","type":"Stadt"},"district":{"key":"12062","name":"Elbe-Elster","type":"Landkreis"},"federalState":{"key":"12","name":"Brandenburg"}},{"name":"Südstr.","postalCode":"09385","locality":"Lugau","municipality":{"key":"14521380","name":"Lugau/Erzgeb., Stadt","type":"Stadt"},"district":{"key":"14521","name":"Erzgebirgskreis","type":"Landkreis"},"federalState":{"key":"14","name":"Sachsen"}},{"name":"Südweg","postalCode":"03253","locality":"Doberlug-Kirchhain","municipality":{"key":"12062092","name":"Doberlug-Kirchhain, Stadt","type":"Stadt"},"district":{"key":"12062","name":"Elbe-Elster","type":"Landkreis"},"federalState":{"key":"12","name":"Brandenburg"}},{"name":"Talstr.","postalCode":"09385","locality":"Lugau","municipality":{"key":"14521380","name":"Lugau/Erzgeb., Stadt","type":"Stadt"},"district":{"key":"14521","name":"Erzgebirgskreis","type":"Landkreis"},"federalState":{"key":"14","name":"Sachsen"}},{"name":"Teckstr.","postalCode":"72649","locality":"Wolfschlugen","municipality":{"key":"08116073","name":"Wolfschlugen","type":"Kreisangehörige_Gemeinde"},"district":{"key":"08116","name":"Esslingen","type":"Landkreis"},"federalState":{"key":"08","name":"Baden-Württemberg"}},{"name":"Thomas-Mann-Str.","postalCode":"09385","locality":"Lugau","municipality":{"key":"14521380","name":"Lugau/Erzgeb., Stadt","type":"Stadt"},"district":{"key":"14521","name":"Erzgebirgskreis","type":"Landkreis"},"federalState":{"key":"14","name":"Sachsen"}},{"name":"Thümmelberg","postalCode":"09385","locality":"Lugau","municipality":{"key":"14521380","name":"Lugau/Erzgeb., Stadt","type":"Stadt"},"district":{"key":"14521","name":"Erzgebirgskreis","type":"Landkreis"},"federalState":{"key":"14","name":"Sachsen"}},{"name":"Tiergartenstr.","postalCode":"03253","locality":"Doberlug-Kirchhain","municipality":{"key":"12062092","name":"Doberlug-Kirchhain, Stadt","type":"Stadt"},"district":{"key":"12062","name":"Elbe-Elster","type":"Landkreis"},"federalState":{"key":"12","name":"Brandenburg"}},{"name":"Torgauer Str.","postalCode":"03253","locality":"Doberlug-Kirchhain","municipality":{"key":"12062092","name":"Doberlug-Kirchhain, Stadt","type":"Stadt"},"district":{"key":"12062","name":"Elbe-Elster","type":"Landkreis"},"federalState":{"key":"12","name":"Brandenburg"}},{"name":"Traufweg Koshauweg","postalCode":"72649","locality":"Wolfschlugen","municipality":{"key":"08116073","name":"Wolfschlugen","type":"Kreisangehörige_Gemeinde"},"district":{"key":"08116","name":"Esslingen","type":"Landkreis"},"federalState":{"key":"08","name":"Baden-Württemberg"}},{"name":"Trebbus","postalCode":"03253","locality":"Doberlug-Kirchhain","municipality":{"key":"12062092","name":"Doberlug-Kirchhain, Stadt","type":"Stadt"},"district":{"key":"12062","name":"Elbe-Elster","type":"Landkreis"},"federalState":{"key":"12","name":"Brandenburg"}},{"name":"Trifelsstr.","postalCode":"76848","locality":"Lug","municipality":{"key":"07340030","name":"Lug","type":"Kreisangehörige_Gemeinde"},"district":{"key":"07340","name":"Südwestpfalz","type":"Landkreis"},"federalState":{"key":"07","name":"Rheinland-Pfalz"}},{"name":"Trift","postalCode":"03253","locality":"Doberlug-Kirchhain","municipality":{"key":"12062092","name":"Doberlug-Kirchhain, Stadt","type":"Stadt"},"district":{"key":"12062","name":"Elbe-Elster","type":"Landkreis"},"federalState":{"key":"12","name":"Brandenburg"}},{"name":"Uhlandstr.","postalCode":"09385","locality":"Lugau","municipality":{"key":"14521380","name":"Lugau/Erzgeb., Stadt","type":"Stadt"},"district":{"key":"14521","name":"Erzgebirgskreis","type":"Landkreis"},"federalState":{"key":"14","name":"Sachsen"}},{"name":"Uhlandstr.","postalCode":"72649","locality":"Wolfschlugen","municipality":{"key":"08116073","name":"Wolfschlugen","type":"Kreisangehörige_Gemeinde"},"district":{"key":"08116","name":"Esslingen","type":"Landkreis"},"federalState":{"key":"08","name":"Baden-Württemberg"}},{"name":"Ulrich-Kühn-Str.","postalCode":"03253","locality":"Doberlug-Kirchhain","municipality":{"key":"12062092","name":"Doberlug-Kirchhain, Stadt","type":"Stadt"},"district":{"key":"12062","name":"Elbe-Elster","type":"Landkreis"},"federalState":{"key":"12","name":"Brandenburg"}},{"name":"Ulrichstr.","postalCode":"72649","locality":"Wolfschlugen","municipality":{"key":"08116073","name":"Wolfschlugen","type":"Kreisangehörige_Gemeinde"},"district":{"key":"08116","name":"Esslingen","type":"Landkreis"},"federalState":{"key":"08","name":"Baden-Württemberg"}},{"name":"Umgehungsstr.","postalCode":"03253","locality":"Doberlug-Kirchhain","municipality":{"key":"12062092","name":"Doberlug-Kirchhain, Stadt","type":"Stadt"},"district":{"key":"12062","name":"Elbe-Elster","type":"Landkreis"},"federalState":{"key":"12","name":"Brandenburg"}},{"name":"Untere Dorfstr.","postalCode":"09385","locality":"Lugau","municipality":{"key":"14521380","name":"Lugau/Erzgeb., Stadt","type":"Stadt"},"district":{"key":"14521","name":"Erzgebirgskreis","type":"Landkreis"},"federalState":{"key":"14","name":"Sachsen"}},{"name":"Untere Hauptstr.","postalCode":"09385","locality":"Lugau","municipality":{"key":"14521380","name":"Lugau/Erzgeb., Stadt","type":"Stadt"},"district":{"key":"14521","name":"Erzgebirgskreis","type":"Landkreis"},"federalState":{"key":"14","name":"Sachsen"}},{"name":"Untere Riedwiesen","postalCode":"72649","locality":"Wolfschlugen","municipality":{"key":"08116073","name":"Wolfschlugen","type":"Kreisangehörige_Gemeinde"},"district":{"key":"08116","name":"Esslingen","type":"Landkreis"},"federalState":{"key":"08","name":"Baden-Württemberg"}},{"name":"Vertrauenschachtstr.","postalCode":"09385","locality":"Lugau","municipality":{"key":"14521380","name":"Lugau/Erzgeb., Stadt","type":"Stadt"},"district":{"key":"14521","name":"Erzgebirgskreis","type":"Landkreis"},"federalState":{"key":"14","name":"Sachsen"}},{"name":"Viehgasse","postalCode":"09385","locality":"Lugau","municipality":{"key":"14521380","name":"Lugau/Erzgeb., Stadt","type":"Stadt"},"district":{"key":"14521","name":"Erzgebirgskreis","type":"Landkreis"},"federalState":{"key":"14","name":"Sachsen"}},{"name":"Viktoriastr.","postalCode":"09385","locality":"Lugau","municipality":{"key":"14521380","name":"Lugau/Erzgeb., Stadt","type":"Stadt"},"district":{"key":"14521","name":"Erzgebirgskreis","type":"Landkreis"},"federalState":{"key":"14","name":"Sachsen"}},{"name":"Von-Stauffenberg-Str.","postalCode":"09385","locality":"Lugau","municipality":{"key":"14521380","name":"Lugau/Erzgeb., Stadt","type":"Stadt"},"district":{"key":"14521","name":"Erzgebirgskreis","type":"Landkreis"},"federalState":{"key":"14","name":"Sachsen"}},{"name":"Waldhäuserstr.","postalCode":"72649","locality":"Wolfschlugen","municipality":{"key":"08116073","name":"Wolfschlugen","type":"Kreisangehörige_Gemeinde"},"district":{"key":"08116","name":"Esslingen","type":"Landkreis"},"federalState":{"key":"08","name":"Baden-Württemberg"}},{"name":"Waldhufenstr.","postalCode":"03253","locality":"Doberlug-Kirchhain","municipality":{"key":"12062092","name":"Doberlug-Kirchhain, Stadt","type":"Stadt"},"district":{"key":"12062","name":"Elbe-Elster","type":"Landkreis"},"federalState":{"key":"12","name":"Brandenburg"}},{"name":"Waldstr.","postalCode":"09385","locality":"Lugau","municipality":{"key":"14521380","name":"Lugau/Erzgeb., Stadt","type":"Stadt"},"district":{"key":"14521","name":"Erzgebirgskreis","type":"Landkreis"},"federalState":{"key":"14","name":"Sachsen"}},{"name":"Waldstr.","postalCode":"76848","locality":"Lug","municipality":{"key":"07340030","name":"Lug","type":"Kreisangehörige_Gemeinde"},"district":{"key":"07340","name":"Südwestpfalz","type":"Landkreis"},"federalState":{"key":"07","name":"Rheinland-Pfalz"}},{"name":"Waldweg","postalCode":"72649","locality":"Wolfschlugen","municipality":{"key":"08116073","name":"Wolfschlugen","type":"Kreisangehörige_Gemeinde"},"district":{"key":"08116","name":"Esslingen","type":"Landkreis"},"federalState":{"key":"08","name":"Baden-Württemberg"}},{"name":"Walther-Rathenau-Str.","postalCode":"03253","locality":"Doberlug-Kirchhain","municipality":{"key":"12062092","name":"Doberlug-Kirchhain, Stadt","type":"Stadt"},"district":{"key":"12062","name":"Elbe-Elster","type":"Landkreis"},"federalState":{"key":"12","name":"Brandenburg"}},{"name":"Weg am Umspannwerk","postalCode":"03253","locality":"Doberlug-Kirchhain","municipality":{"key":"12062092","name":"Doberlug-Kirchhain, Stadt","type":"Stadt"},"district":{"key":"12062","name":"Elbe-Elster","type":"Landkreis"},"federalState":{"key":"12","name":"Brandenburg"}},{"name":"Weg am Volkshaus","postalCode":"09385","locality":"Lugau","municipality":{"key":"14521380","name":"Lugau/Erzgeb., Stadt","type":"Stadt"},"district":{"key":"14521","name":"Erzgebirgskreis","type":"Landkreis"},"federalState":{"key":"14","name":"Sachsen"}},{"name":"Weg zum Reitplatz","postalCode":"09385","locality":"Lugau","municipality":{"key":"14521380","name":"Lugau/Erzgeb., Stadt","type":"Stadt"},"district":{"key":"14521","name":"Erzgebirgskreis","type":"Landkreis"},"federalState":{"key":"14","name":"Sachsen"}},{"name":"Werenzhainer Hauptstr.","postalCode":"03253","locality":"Doberlug-Kirchhain","municipality":{"key":"12062092","name":"Doberlug-Kirchhain, Stadt","type":"Stadt"},"district":{"key":"12062","name":"Elbe-Elster","type":"Landkreis"},"federalState":{"key":"12","name":"Brandenburg"}},{"name":"Werenzhainer Wiesenweg","postalCode":"03253","locality":"Doberlug-Kirchhain","municipality":{"key":"12062092","name":"Doberlug-Kirchhain, Stadt","type":"Stadt"},"district":{"key":"12062","name":"Elbe-Elster","type":"Landkreis"},"federalState":{"key":"12","name":"Brandenburg"}},{"name":"Werenzhainer Ziegelei","postalCode":"03253","locality":"Doberlug-Kirchhain","municipality":{"key":"12062092","name":"Doberlug-Kirchhain, Stadt","type":"Stadt"},"district":{"key":"12062","name":"Elbe-Elster","type":"Landkreis"},"federalState":{"key":"12","name":"Brandenburg"}},{"name":"Werksstr. MKK","postalCode":"03253","locality":"Doberlug-Kirchhain","municipality":{"key":"12062092","name":"Doberlug-Kirchhain, Stadt","type":"Stadt"},"district":{"key":"12062","name":"Elbe-Elster","type":"Landkreis"},"federalState":{"key":"12","name":"Brandenburg"}},{"name":"Wielandstr.","postalCode":"72649","locality":"Wolfschlugen","municipality":{"key":"08116073","name":"Wolfschlugen","type":"Kreisangehörige_Gemeinde"},"district":{"key":"08116","name":"Esslingen","type":"Landkreis"},"federalState":{"key":"08","name":"Baden-Württemberg"}},{"name":"Wiesenstr.","postalCode":"03253","locality":"Doberlug-Kirchhain","municipality":{"key":"12062092","name":"Doberlug-Kirchhain, Stadt","type":"Stadt"},"district":{"key":"12062","name":"Elbe-Elster","type":"Landkreis"},"federalState":{"key":"12","name":"Brandenburg"}},{"name":"Wiesenstr.","postalCode":"09385","locality":"Lugau","municipality":{"key":"14521380","name":"Lugau/Erzgeb., Stadt","type":"Stadt"},"district":{"key":"14521","name":"Erzgebirgskreis","type":"Landkreis"},"federalState":{"key":"14","name":"Sachsen"}},{"name":"Wiesenweg","postalCode":"03253","locality":"Doberlug-Kirchhain","municipality":{"key":"12062092","name":"Doberlug-Kirchhain, Stadt","type":"Stadt"},"district":{"key":"12062","name":"Elbe-Elster","type":"Landkreis"},"federalState":{"key":"12","name":"Brandenburg"}},{"name":"Wiesenweg","postalCode":"09385","locality":"Lugau","municipality":{"key":"14521380","name":"Lugau/Erzgeb., Stadt","type":"Stadt"},"district":{"key":"14521","name":"Erzgebirgskreis","type":"Landkreis"},"federalState":{"key":"14","name":"Sachsen"}},{"name":"Wiesenweg","postalCode":"72649","locality":"Wolfschlugen","municipality":{"key":"08116073","name":"Wolfschlugen","type":"Kreisangehörige_Gemeinde"},"district":{"key":"08116","name":"Esslingen","type":"Landkreis"},"federalState":{"key":"08","name":"Baden-Württemberg"}},{"name":"Wilhelmstr.","postalCode":"72649","locality":"Wolfschlugen","municipality":{"key":"08116073","name":"Wolfschlugen","type":"Kreisangehörige_Gemeinde"},"district":{"key":"08116","name":"Esslingen","type":"Landkreis"},"federalState":{"key":"08","name":"Baden-Württemberg"}},{"name":"Winkelwiesen","postalCode":"72649","locality":"Wolfschlugen","municipality":{"key":"08116073","name":"Wolfschlugen","type":"Kreisangehörige_Gemeinde"},"district":{"key":"08116","name":"Esslingen","type":"Landkreis"},"federalState":{"key":"08","name":"Baden-Württemberg"}},{"name":"Wirtschaftsweg","postalCode":"09385","locality":"Lugau","municipality":{"key":"14521380","name":"Lugau/Erzgeb., Stadt","type":"Stadt"},"district":{"key":"14521","name":"Erzgebirgskreis","type":"Landkreis"},"federalState":{"key":"14","name":"Sachsen"}},{"name":"Wolflochweg","postalCode":"72649","locality":"Wolfschlugen","municipality":{"key":"08116073","name":"Wolfschlugen","type":"Kreisangehörige_Gemeinde"},"district":{"key":"08116","name":"Esslingen","type":"Landkreis"},"federalState":{"key":"08","name":"Baden-Württemberg"}},{"name":"Zechenstr.","postalCode":"09385","locality":"Lugau","municipality":{"key":"14521380","name":"Lugau/Erzgeb., Stadt","type":"Stadt"},"district":{"key":"14521","name":"Erzgebirgskreis","type":"Landkreis"},"federalState":{"key":"14","name":"Sachsen"}},{"name":"Zeppelinstr.","postalCode":"72649","locality":"Wolfschlugen","municipality":{"key":"08116073","name":"Wolfschlugen","type":"Kreisangehörige_Gemeinde"},"district":{"key":"08116","name":"Esslingen","type":"Landkreis"},"federalState":{"key":"08","name":"Baden-Württemberg"}},{"name":"Ziegelei","postalCode":"03253","locality":"Doberlug-Kirchhain","municipality":{"key":"12062092","name":"Doberlug-Kirchhain, Stadt","type":"Stadt"},"district":{"key":"12062","name":"Elbe-Elster","type":"Landkreis"},"federalState":{"key":"12","name":"Brandenburg"}},{"name":"Zum Torfstich","postalCode":"03253","locality":"Doberlug-Kirchhain","municipality":{"key":"12062092","name":"Doberlug-Kirchhain, Stadt","type":"Stadt"},"district":{"key":"12062","name":"Elbe-Elster","type":"Landkreis"},"federalState":{"key":"12","name":"Brandenburg"}},{"name":"Äußere Kirchberger Str.","postalCode":"09385","locality":"Lugau","municipality":{"key":"14521380","name":"Lugau/Erzgeb., Stadt","type":"Stadt"},"district":{"key":"14521","name":"Erzgebirgskreis","type":"Landkreis"},"federalState":{"key":"14","name":"Sachsen"}},{"name":"Ölsiger Str.","postalCode":"03253","locality":"Doberlug-Kirchhain","municipality":{"key":"12062092","name":"Doberlug-Kirchhain, Stadt","type":"Stadt"},"district":{"key":"12062","name":"Elbe-Elster","type":"Landkreis"},"federalState":{"key":"12","name":"Brandenburg"}},]