[{"key":"10151331","name":"Ahornweg","postalCode":"4938","locality":"Rohrbach","commune":{"key":"338","name":"Rohrbach","shortName":"Rohrbach"},"district":{"key":"244","name":"Verwaltungskreis Oberaargau"},"canton":{"key":"2","code":"BE","name":"Bern / Berne"},"status":"Real"},{"key":"10083803","name":"Allmendstrasse","postalCode":"4938","locality":"Rohrbach","commune":{"key":"338","name":"Rohrbach","shortName":"Rohrbach"},"district":{"key":"244","name":"Verwaltungskreis Oberaargau"},"canton":{"key":"2","code":"BE","name":"Bern / Berne"},"status":"Real"},{"key":"10198135","name":"Allmid","postalCode":"3155","locality":"Helgisried-Rohrbach","commune":{"key":"880","name":"Rüeggisberg","shortName":"Rüeggisberg"},"district":{"key":"246","name":"Verwaltungskreis Bern-Mittelland"},"canton":{"key":"2","code":"BE","name":"Bern / Berne"},"status":"Real"},{"key":"10151332","name":"Am Bach","postalCode":"4938","locality":"Rohrbach","commune":{"key":"338","name":"Rohrbach","shortName":"Rohrbach"},"district":{"key":"244","name":"Verwaltungskreis Oberaargau"},"canton":{"key":"2","code":"BE","name":"Bern / Berne"},"status":"Real"},{"key":"10062323","name":"Bahnhofstrasse","postalCode":"4938","locality":"Rohrbach","commune":{"key":"338","name":"Rohrbach","shortName":"Rohrbach"},"district":{"key":"244","name":"Verwaltungskreis Oberaargau"},"canton":{"key":"2","code":"BE","name":"Bern / Berne"},"status":"Real"},{"key":"10009585","name":"Bantli","postalCode":"4938","locality":"Rohrbachgraben","commune":{"key":"339","name":"Rohrbachgraben","shortName":"Rohrbachgraben"},"district":{"key":"244","name":"Verwaltungskreis Oberaargau"},"canton":{"key":"2","code":"BE","name":"Bern / Berne"},"status":"Real"},{"key":"10083809","name":"Bärgli","postalCode":"4938","locality":"Rohrbachgraben","commune":{"key":"339","name":"Rohrbachgraben","shortName":"Rohrbachgraben"},"district":{"key":"244","name":"Verwaltungskreis Oberaargau"},"canton":{"key":"2","code":"BE","name":"Bern / Berne"},"status":"Real"},{"key":"10217122","name":"Bergacker","postalCode":"3155","locality":"Helgisried-Rohrbach","commune":{"key":"880","name":"Rüeggisberg","shortName":"Rüeggisberg"},"district":{"key":"246","name":"Verwaltungskreis Bern-Mittelland"},"canton":{"key":"2","code":"BE","name":"Bern / Berne"},"status":"Real"},{"key":"10178422","name":"Bergstrasse","postalCode":"4938","locality":"Rohrbach","commune":{"key":"338","name":"Rohrbach","shortName":"Rohrbach"},"district":{"key":"244","name":"Verwaltungskreis Oberaargau"},"canton":{"key":"2","code":"BE","name":"Bern / Berne"},"status":"Real"},{"key":"10117096","name":"Bleicheweg","postalCode":"4938","locality":"Rohrbach","commune":{"key":"338","name":"Rohrbach","shortName":"Rohrbach"},"district":{"key":"244","name":"Verwaltungskreis Oberaargau"},"canton":{"key":"2","code":"BE","name":"Bern / Berne"},"status":"Real"},{"key":"10182593","name":"Bodenweg","postalCode":"4938","locality":"Rohrbach","commune":{"key":"338","name":"Rohrbach","shortName":"Rohrbach"},"district":{"key":"244","name":"Verwaltungskreis Oberaargau"},"canton":{"key":"2","code":"BE","name":"Bern / Berne"},"status":"Real"},{"key":"10009574","name":"Brandweg","postalCode":"4938","locality":"Rohrbach","commune":{"key":"338","name":"Rohrbach","shortName":"Rohrbach"},"district":{"key":"244","name":"Verwaltungskreis Oberaargau"},"canton":{"key":"2","code":"BE","name":"Bern / Berne"},"status":"Real"},{"key":"10114352","name":"Chelsimatt","postalCode":"3155","locality":"Helgisried-Rohrbach","commune":{"key":"880","name":"Rüeggisberg","shortName":"Rüeggisberg"},"district":{"key":"246","name":"Verwaltungskreis Bern-Mittelland"},"canton":{"key":"2","code":"BE","name":"Bern / Berne"},"status":"Real"},{"key":"10056984","name":"Ehehafte","postalCode":"3155","locality":"Helgisried-Rohrbach","commune":{"key":"880","name":"Rüeggisberg","shortName":"Rüeggisberg"},"district":{"key":"246","name":"Verwaltungskreis Bern-Mittelland"},"canton":{"key":"2","code":"BE","name":"Bern / Berne"},"status":"Real"},{"key":"10198093","name":"Eichmattstrasse","postalCode":"3155","locality":"Helgisried-Rohrbach","commune":{"key":"880","name":"Rüeggisberg","shortName":"Rüeggisberg"},"district":{"key":"246","name":"Verwaltungskreis Bern-Mittelland"},"canton":{"key":"2","code":"BE","name":"Bern / Berne"},"status":"Real"},{"key":"10083804","name":"Eichmattweg","postalCode":"4938","locality":"Rohrbach","commune":{"key":"338","name":"Rohrbach","shortName":"Rohrbach"},"district":{"key":"244","name":"Verwaltungskreis Oberaargau"},"canton":{"key":"2","code":"BE","name":"Bern / Berne"},"status":"Real"},{"key":"10151333","name":"Eisenbahnstrasse","postalCode":"4938","locality":"Rohrbach","commune":{"key":"338","name":"Rohrbach","shortName":"Rohrbach"},"district":{"key":"244","name":"Verwaltungskreis Oberaargau"},"canton":{"key":"2","code":"BE","name":"Bern / Berne"},"status":"Real"},{"key":"10083903","name":"Eisselmatt","postalCode":"3155","locality":"Helgisried-Rohrbach","commune":{"key":"880","name":"Rüeggisberg","shortName":"Rüeggisberg"},"district":{"key":"246","name":"Verwaltungskreis Bern-Mittelland"},"canton":{"key":"2","code":"BE","name":"Bern / Berne"},"status":"Real"},{"key":"10178426","name":"Flückigen","postalCode":"4938","locality":"Rohrbachgraben","commune":{"key":"339","name":"Rohrbachgraben","shortName":"Rohrbachgraben"},"district":{"key":"244","name":"Verwaltungskreis Oberaargau"},"canton":{"key":"2","code":"BE","name":"Bern / Berne"},"status":"Real"},{"key":"10220211","name":"Friedhof","postalCode":"4938","locality":"Rohrbach","commune":{"key":"338","name":"Rohrbach","shortName":"Rohrbach"},"district":{"key":"244","name":"Verwaltungskreis Oberaargau"},"canton":{"key":"2","code":"BE","name":"Bern / Berne"},"status":"Real"},{"key":"10009575","name":"Galgenrain","postalCode":"4938","locality":"Rohrbach","commune":{"key":"338","name":"Rohrbach","shortName":"Rohrbach"},"district":{"key":"244","name":"Verwaltungskreis Oberaargau"},"canton":{"key":"2","code":"BE","name":"Bern / Berne"},"status":"Real"},{"key":"10220087","name":"Ganzenberg","postalCode":"4938","locality":"Rohrbachgraben","commune":{"key":"339","name":"Rohrbachgraben","shortName":"Rohrbachgraben"},"district":{"key":"244","name":"Verwaltungskreis Oberaargau"},"canton":{"key":"2","code":"BE","name":"Bern / Berne"},"status":"Real"},{"key":"10009586","name":"Ganzenberg","postalCode":"4938","locality":"Rohrbachgraben","commune":{"key":"339","name":"Rohrbachgraben","shortName":"Rohrbachgraben"},"district":{"key":"244","name":"Verwaltungskreis Oberaargau"},"canton":{"key":"2","code":"BE","name":"Bern / Berne"},"status":"Real"},{"key":"10198116","name":"Giebeleggstrasse","postalCode":"3155","locality":"Helgisried-Rohrbach","commune":{"key":"880","name":"Rüeggisberg","shortName":"Rüeggisberg"},"district":{"key":"246","name":"Verwaltungskreis Bern-Mittelland"},"canton":{"key":"2","code":"BE","name":"Bern / Berne"},"status":"Real"},{"key":"10162914","name":"Giebeleggwald","postalCode":"3155","locality":"Helgisried-Rohrbach","commune":{"key":"880","name":"Rüeggisberg","shortName":"Rüeggisberg"},"district":{"key":"246","name":"Verwaltungskreis Bern-Mittelland"},"canton":{"key":"2","code":"BE","name":"Bern / Berne"},"status":"Real"},{"key":"10220214","name":"Gitziloch","postalCode":"4938","locality":"Rohrbach","commune":{"key":"338","name":"Rohrbach","shortName":"Rohrbach"},"district":{"key":"244","name":"Verwaltungskreis Oberaargau"},"canton":{"key":"2","code":"BE","name":"Bern / Berne"},"status":"Real"},{"key":"10188556","name":"Glasbach","postalCode":"4938","locality":"Rohrbachgraben","commune":{"key":"339","name":"Rohrbachgraben","shortName":"Rohrbachgraben"},"district":{"key":"244","name":"Verwaltungskreis Oberaargau"},"canton":{"key":"2","code":"BE","name":"Bern / Berne"},"status":"Real"},{"key":"10180917","name":"Glasbachweid","postalCode":"4938","locality":"Rohrbachgraben","commune":{"key":"339","name":"Rohrbachgraben","shortName":"Rohrbachgraben"},"district":{"key":"244","name":"Verwaltungskreis Oberaargau"},"canton":{"key":"2","code":"BE","name":"Bern / Berne"},"status":"Real"},{"key":"10056797","name":"Greter","postalCode":"4938","locality":"Rohrbachgraben","commune":{"key":"339","name":"Rohrbachgraben","shortName":"Rohrbachgraben"},"district":{"key":"244","name":"Verwaltungskreis Oberaargau"},"canton":{"key":"2","code":"BE","name":"Bern / Berne"},"status":"Real"},{"key":"10009587","name":"Grube","postalCode":"4938","locality":"Rohrbachgraben","commune":{"key":"339","name":"Rohrbachgraben","shortName":"Rohrbachgraben"},"district":{"key":"244","name":"Verwaltungskreis Oberaargau"},"canton":{"key":"2","code":"BE","name":"Bern / Berne"},"status":"Real"},{"key":"10062332","name":"Grubenweid","postalCode":"4938","locality":"Rohrbachgraben","commune":{"key":"339","name":"Rohrbachgraben","shortName":"Rohrbachgraben"},"district":{"key":"244","name":"Verwaltungskreis Oberaargau"},"canton":{"key":"2","code":"BE","name":"Bern / Berne"},"status":"Real"},{"key":"10083921","name":"Grüeni","postalCode":"3155","locality":"Helgisried-Rohrbach","commune":{"key":"880","name":"Rüeggisberg","shortName":"Rüeggisberg"},"district":{"key":"246","name":"Verwaltungskreis Bern-Mittelland"},"canton":{"key":"2","code":"BE","name":"Bern / Berne"},"status":"Real"},{"key":"10220218","name":"Gumi","postalCode":"4938","locality":"Rohrbach","commune":{"key":"338","name":"Rohrbach","shortName":"Rohrbach"},"district":{"key":"244","name":"Verwaltungskreis Oberaargau"},"canton":{"key":"2","code":"BE","name":"Bern / Berne"},"status":"Real"},{"key":"10178423","name":"Häbernbadweg","postalCode":"4938","locality":"Rohrbach","commune":{"key":"338","name":"Rohrbach","shortName":"Rohrbach"},"district":{"key":"244","name":"Verwaltungskreis Oberaargau"},"canton":{"key":"2","code":"BE","name":"Bern / Berne"},"status":"Real"},{"key":"10109082","name":"Hänseli","postalCode":"4938","locality":"Rohrbach","commune":{"key":"338","name":"Rohrbach","shortName":"Rohrbach"},"district":{"key":"244","name":"Verwaltungskreis Oberaargau"},"canton":{"key":"2","code":"BE","name":"Bern / Berne"},"status":"Real"},{"key":"10220222","name":"Hänseli","postalCode":"4938","locality":"Rohrbach","commune":{"key":"338","name":"Rohrbach","shortName":"Rohrbach"},"district":{"key":"244","name":"Verwaltungskreis Oberaargau"},"canton":{"key":"2","code":"BE","name":"Bern / Berne"},"status":"Real"},{"key":"10056087","name":"Hauptstrasse","postalCode":"4938","locality":"Rohrbach","commune":{"key":"338","name":"Rohrbach","shortName":"Rohrbach"},"district":{"key":"244","name":"Verwaltungskreis Oberaargau"},"canton":{"key":"2","code":"BE","name":"Bern / Berne"},"status":"Real"},{"key":"10062324","name":"Hintergasse","postalCode":"4938","locality":"Rohrbach","commune":{"key":"338","name":"Rohrbach","shortName":"Rohrbach"},"district":{"key":"244","name":"Verwaltungskreis Oberaargau"},"canton":{"key":"2","code":"BE","name":"Bern / Berne"},"status":"Real"},{"key":"10191620","name":"Hinterwil","postalCode":"4938","locality":"Rohrbachgraben","commune":{"key":"339","name":"Rohrbachgraben","shortName":"Rohrbachgraben"},"district":{"key":"244","name":"Verwaltungskreis Oberaargau"},"canton":{"key":"2","code":"BE","name":"Bern / Berne"},"status":"Real"},{"key":"10009577","name":"Hohmattweg","postalCode":"4938","locality":"Rohrbach","commune":{"key":"338","name":"Rohrbach","shortName":"Rohrbach"},"district":{"key":"244","name":"Verwaltungskreis Oberaargau"},"canton":{"key":"2","code":"BE","name":"Bern / Berne"},"status":"Real"},{"key":"10220226","name":"Holzacher","postalCode":"4938","locality":"Rohrbach","commune":{"key":"338","name":"Rohrbach","shortName":"Rohrbach"},"district":{"key":"244","name":"Verwaltungskreis Oberaargau"},"canton":{"key":"2","code":"BE","name":"Bern / Berne"},"status":"Real"},{"key":"10114349","name":"Holzweid","postalCode":"3155","locality":"Helgisried-Rohrbach","commune":{"key":"880","name":"Rüeggisberg","shortName":"Rüeggisberg"},"district":{"key":"246","name":"Verwaltungskreis Bern-Mittelland"},"canton":{"key":"2","code":"BE","name":"Bern / Berne"},"status":"Real"},{"key":"10198389","name":"Horepp","postalCode":"3155","locality":"Helgisried-Rohrbach","commune":{"key":"880","name":"Rüeggisberg","shortName":"Rüeggisberg"},"district":{"key":"246","name":"Verwaltungskreis Bern-Mittelland"},"canton":{"key":"2","code":"BE","name":"Bern / Berne"},"status":"Real"},{"key":"10009588","name":"Hubberger","postalCode":"4938","locality":"Rohrbachgraben","commune":{"key":"339","name":"Rohrbachgraben","shortName":"Rohrbachgraben"},"district":{"key":"244","name":"Verwaltungskreis Oberaargau"},"canton":{"key":"2","code":"BE","name":"Bern / Berne"},"status":"Real"},{"key":"10242784","name":"Hubel","postalCode":"3155","locality":"Helgisried-Rohrbach","commune":{"key":"880","name":"Rüeggisberg","shortName":"Rüeggisberg"},"district":{"key":"246","name":"Verwaltungskreis Bern-Mittelland"},"canton":{"key":"2","code":"BE","name":"Bern / Berne"},"status":"Real"},{"key":"10011170","name":"Hundsacker","postalCode":"3155","locality":"Helgisried-Rohrbach","commune":{"key":"880","name":"Rüeggisberg","shortName":"Rüeggisberg"},"district":{"key":"246","name":"Verwaltungskreis Bern-Mittelland"},"canton":{"key":"2","code":"BE","name":"Bern / Berne"},"status":"Real"},{"key":"10220230","name":"Huttwilstrasse","postalCode":"4938","locality":"Rohrbach","commune":{"key":"338","name":"Rohrbach","shortName":"Rohrbach"},"district":{"key":"244","name":"Verwaltungskreis Oberaargau"},"canton":{"key":"2","code":"BE","name":"Bern / Berne"},"status":"Real"},{"key":"10009589","name":"Im Schär","postalCode":"4938","locality":"Rohrbachgraben","commune":{"key":"339","name":"Rohrbachgraben","shortName":"Rohrbachgraben"},"district":{"key":"244","name":"Verwaltungskreis Oberaargau"},"canton":{"key":"2","code":"BE","name":"Bern / Berne"},"status":"Real"},{"key":"10083810","name":"Kaltenegg","postalCode":"4938","locality":"Rohrbachgraben","commune":{"key":"339","name":"Rohrbachgraben","shortName":"Rohrbachgraben"},"district":{"key":"244","name":"Verwaltungskreis Oberaargau"},"canton":{"key":"2","code":"BE","name":"Bern / Berne"},"status":"Real"},{"key":"10220238","name":"Kalteneggwald","postalCode":"4938","locality":"Rohrbachgraben","commune":{"key":"339","name":"Rohrbachgraben","shortName":"Rohrbachgraben"},"district":{"key":"244","name":"Verwaltungskreis Oberaargau"},"canton":{"key":"2","code":"BE","name":"Bern / Berne"},"status":"Real"},{"key":"10062325","name":"Kasern","postalCode":"4938","locality":"Rohrbach","commune":{"key":"338","name":"Rohrbach","shortName":"Rohrbach"},"district":{"key":"244","name":"Verwaltungskreis Oberaargau"},"canton":{"key":"2","code":"BE","name":"Bern / Berne"},"status":"Real"},{"key":"10056798","name":"Kellerhüsli","postalCode":"4938","locality":"Rohrbachgraben","commune":{"key":"339","name":"Rohrbachgraben","shortName":"Rohrbachgraben"},"district":{"key":"244","name":"Verwaltungskreis Oberaargau"},"canton":{"key":"2","code":"BE","name":"Bern / Berne"},"status":"Real"},{"key":"10198102","name":"Kilcherslehnweg","postalCode":"3155","locality":"Helgisried-Rohrbach","commune":{"key":"880","name":"Rüeggisberg","shortName":"Rüeggisberg"},"district":{"key":"246","name":"Verwaltungskreis Bern-Mittelland"},"canton":{"key":"2","code":"BE","name":"Bern / Berne"},"status":"Real"},{"key":"10046140","name":"Kirchgasse","postalCode":"4938","locality":"Rohrbach","commune":{"key":"338","name":"Rohrbach","shortName":"Rohrbach"},"district":{"key":"244","name":"Verwaltungskreis Oberaargau"},"canton":{"key":"2","code":"BE","name":"Bern / Berne"},"status":"Real"},{"key":"10083907","name":"Klostergasse","postalCode":"3155","locality":"Helgisried-Rohrbach","commune":{"key":"880","name":"Rüeggisberg","shortName":"Rüeggisberg"},"district":{"key":"246","name":"Verwaltungskreis Bern-Mittelland"},"canton":{"key":"2","code":"BE","name":"Bern / Berne"},"status":"Real"},{"key":"10009590","name":"Kühweid","postalCode":"4938","locality":"Rohrbachgraben","commune":{"key":"339","name":"Rohrbachgraben","shortName":"Rohrbachgraben"},"district":{"key":"244","name":"Verwaltungskreis Oberaargau"},"canton":{"key":"2","code":"BE","name":"Bern / Berne"},"status":"Real"},{"key":"10112100","name":"Längi","postalCode":"4938","locality":"Rohrbachgraben","commune":{"key":"339","name":"Rohrbachgraben","shortName":"Rohrbachgraben"},"district":{"key":"244","name":"Verwaltungskreis Oberaargau"},"canton":{"key":"2","code":"BE","name":"Bern / Berne"},"status":"Real"},{"key":"10083806","name":"Lengacker","postalCode":"4938","locality":"Rohrbach","commune":{"key":"338","name":"Rohrbach","shortName":"Rohrbach"},"district":{"key":"244","name":"Verwaltungskreis Oberaargau"},"canton":{"key":"2","code":"BE","name":"Bern / Berne"},"status":"Real"},{"key":"10062333","name":"Liemberg","postalCode":"4938","locality":"Rohrbachgraben","commune":{"key":"339","name":"Rohrbachgraben","shortName":"Rohrbachgraben"},"district":{"key":"244","name":"Verwaltungskreis Oberaargau"},"canton":{"key":"2","code":"BE","name":"Bern / Berne"},"status":"Real"},{"key":"10178427","name":"Luder","postalCode":"4938","locality":"Rohrbachgraben","commune":{"key":"339","name":"Rohrbachgraben","shortName":"Rohrbachgraben"},"district":{"key":"244","name":"Verwaltungskreis Oberaargau"},"canton":{"key":"2","code":"BE","name":"Bern / Berne"},"status":"Real"},{"key":"10162034","name":"Matten","postalCode":"3155","locality":"Helgisried-Rohrbach","commune":{"key":"880","name":"Rüeggisberg","shortName":"Rüeggisberg"},"district":{"key":"246","name":"Verwaltungskreis Bern-Mittelland"},"canton":{"key":"2","code":"BE","name":"Bern / Berne"},"status":"Real"},{"key":"10056799","name":"Matten","postalCode":"4938","locality":"Rohrbachgraben","commune":{"key":"339","name":"Rohrbachgraben","shortName":"Rohrbachgraben"},"district":{"key":"244","name":"Verwaltungskreis Oberaargau"},"canton":{"key":"2","code":"BE","name":"Bern / Berne"},"status":"Real"},{"key":"10062334","name":"Mei","postalCode":"4938","locality":"Rohrbachgraben","commune":{"key":"339","name":"Rohrbachgraben","shortName":"Rohrbachgraben"},"district":{"key":"244","name":"Verwaltungskreis Oberaargau"},"canton":{"key":"2","code":"BE","name":"Bern / Berne"},"status":"Real"},{"key":"10009578","name":"Mittelweg","postalCode":"4938","locality":"Rohrbach","commune":{"key":"338","name":"Rohrbach","shortName":"Rohrbach"},"district":{"key":"244","name":"Verwaltungskreis Oberaargau"},"canton":{"key":"2","code":"BE","name":"Bern / Berne"},"status":"Real"},{"key":"10198129","name":"Moosweg","postalCode":"3155","locality":"Helgisried-Rohrbach","commune":{"key":"880","name":"Rüeggisberg","shortName":"Rüeggisberg"},"district":{"key":"246","name":"Verwaltungskreis Bern-Mittelland"},"canton":{"key":"2","code":"BE","name":"Bern / Berne"},"status":"Real"},{"key":"10117834","name":"Mösli","postalCode":"4938","locality":"Rohrbach","commune":{"key":"338","name":"Rohrbach","shortName":"Rohrbach"},"district":{"key":"244","name":"Verwaltungskreis Oberaargau"},"canton":{"key":"2","code":"BE","name":"Bern / Berne"},"status":"Real"},{"key":"10046141","name":"Mühlegasse","postalCode":"4938","locality":"Rohrbach","commune":{"key":"338","name":"Rohrbach","shortName":"Rohrbach"},"district":{"key":"244","name":"Verwaltungskreis Oberaargau"},"canton":{"key":"2","code":"BE","name":"Bern / Berne"},"status":"Real"},{"key":"10009591","name":"Mühleweid","postalCode":"4938","locality":"Rohrbachgraben","commune":{"key":"339","name":"Rohrbachgraben","shortName":"Rohrbachgraben"},"district":{"key":"244","name":"Verwaltungskreis Oberaargau"},"canton":{"key":"2","code":"BE","name":"Bern / Berne"},"status":"Real"},{"key":"10219240","name":"Munimatte","postalCode":"4938","locality":"Rohrbach","commune":{"key":"338","name":"Rohrbach","shortName":"Rohrbach"},"district":{"key":"244","name":"Verwaltungskreis Oberaargau"},"canton":{"key":"2","code":"BE","name":"Bern / Berne"},"status":"Real"},{"key":"10108059","name":"Nesselrain","postalCode":"3155","locality":"Helgisried-Rohrbach","commune":{"key":"880","name":"Rüeggisberg","shortName":"Rüeggisberg"},"district":{"key":"246","name":"Verwaltungskreis Bern-Mittelland"},"canton":{"key":"2","code":"BE","name":"Bern / Berne"},"status":"Real"},{"key":"10083811","name":"Neumatt","postalCode":"4938","locality":"Rohrbachgraben","commune":{"key":"339","name":"Rohrbachgraben","shortName":"Rohrbachgraben"},"district":{"key":"244","name":"Verwaltungskreis Oberaargau"},"canton":{"key":"2","code":"BE","name":"Bern / Berne"},"status":"Real"},{"key":"10062335","name":"Obere Matten","postalCode":"4938","locality":"Rohrbachgraben","commune":{"key":"339","name":"Rohrbachgraben","shortName":"Rohrbachgraben"},"district":{"key":"244","name":"Verwaltungskreis Oberaargau"},"canton":{"key":"2","code":"BE","name":"Bern / Berne"},"status":"Real"},{"key":"10009592","name":"Oberer Glasbach","postalCode":"4938","locality":"Rohrbachgraben","commune":{"key":"339","name":"Rohrbachgraben","shortName":"Rohrbachgraben"},"district":{"key":"244","name":"Verwaltungskreis Oberaargau"},"canton":{"key":"2","code":"BE","name":"Bern / Berne"},"status":"Real"},{"key":"10058481","name":"Obere Rotmatt","postalCode":"4938","locality":"Rohrbachgraben","commune":{"key":"339","name":"Rohrbachgraben","shortName":"Rohrbachgraben"},"district":{"key":"244","name":"Verwaltungskreis Oberaargau"},"canton":{"key":"2","code":"BE","name":"Bern / Berne"},"status":"Real"},{"key":"10104027","name":"Oberes Lang","postalCode":"4938","locality":"Rohrbach","commune":{"key":"338","name":"Rohrbach","shortName":"Rohrbach"},"district":{"key":"244","name":"Verwaltungskreis Oberaargau"},"canton":{"key":"2","code":"BE","name":"Bern / Berne"},"status":"Real"},{"key":"10104034","name":"Oberflückigen","postalCode":"4938","locality":"Rohrbachgraben","commune":{"key":"339","name":"Rohrbachgraben","shortName":"Rohrbachgraben"},"district":{"key":"244","name":"Verwaltungskreis Oberaargau"},"canton":{"key":"2","code":"BE","name":"Bern / Berne"},"status":"Real"},{"key":"10198106","name":"Pfandersacker","postalCode":"3155","locality":"Helgisried-Rohrbach","commune":{"key":"880","name":"Rüeggisberg","shortName":"Rüeggisberg"},"district":{"key":"246","name":"Verwaltungskreis Bern-Mittelland"},"canton":{"key":"2","code":"BE","name":"Bern / Berne"},"status":"Real"},{"key":"10062327","name":"Rainweg","postalCode":"4938","locality":"Rohrbach","commune":{"key":"338","name":"Rohrbach","shortName":"Rohrbach"},"district":{"key":"244","name":"Verwaltungskreis Oberaargau"},"canton":{"key":"2","code":"BE","name":"Bern / Berne"},"status":"Real"},{"key":"10009579","name":"Riedmatt","postalCode":"4938","locality":"Rohrbach","commune":{"key":"338","name":"Rohrbach","shortName":"Rohrbach"},"district":{"key":"244","name":"Verwaltungskreis Oberaargau"},"canton":{"key":"2","code":"BE","name":"Bern / Berne"},"status":"Real"},{"key":"10067748","name":"Riggisbergstrasse","postalCode":"3155","locality":"Helgisried-Rohrbach","commune":{"key":"880","name":"Rüeggisberg","shortName":"Rüeggisberg"},"district":{"key":"246","name":"Verwaltungskreis Bern-Mittelland"},"canton":{"key":"2","code":"BE","name":"Bern / Berne"},"status":"Real"},{"key":"10062556","name":"Rohrbachberg","postalCode":"4938","locality":"Rohrbach","commune":{"key":"338","name":"Rohrbach","shortName":"Rohrbach"},"district":{"key":"244","name":"Verwaltungskreis Oberaargau"},"canton":{"key":"2","code":"BE","name":"Bern / Berne"},"status":"Real"},{"key":"10179867","name":"Rohrbachgasse","postalCode":"3155","locality":"Helgisried-Rohrbach","commune":{"key":"880","name":"Rüeggisberg","shortName":"Rüeggisberg"},"district":{"key":"246","name":"Verwaltungskreis Bern-Mittelland"},"canton":{"key":"2","code":"BE","name":"Bern / Berne"},"status":"Real"},{"key":"10009593","name":"Rütmätteli","postalCode":"4938","locality":"Rohrbachgraben","commune":{"key":"339","name":"Rohrbachgraben","shortName":"Rohrbachgraben"},"district":{"key":"244","name":"Verwaltungskreis Oberaargau"},"canton":{"key":"2","code":"BE","name":"Bern / Berne"},"status":"Real"},{"key":"10151334","name":"Sagiloch","postalCode":"4938","locality":"Rohrbach","commune":{"key":"338","name":"Rohrbach","shortName":"Rohrbach"},"district":{"key":"244","name":"Verwaltungskreis Oberaargau"},"canton":{"key":"2","code":"BE","name":"Bern / Berne"},"status":"Real"},{"key":"10062336","name":"Scheueracker","postalCode":"4938","locality":"Rohrbachgraben","commune":{"key":"339","name":"Rohrbachgraben","shortName":"Rohrbachgraben"},"district":{"key":"244","name":"Verwaltungskreis Oberaargau"},"canton":{"key":"2","code":"BE","name":"Bern / Berne"},"status":"Real"},{"key":"10009393","name":"Schlössli","postalCode":"4938","locality":"Rohrbach","commune":{"key":"338","name":"Rohrbach","shortName":"Rohrbach"},"district":{"key":"244","name":"Verwaltungskreis Oberaargau"},"canton":{"key":"2","code":"BE","name":"Bern / Berne"},"status":"Real"},{"key":"10046142","name":"Schulhausstrasse","postalCode":"4938","locality":"Rohrbach","commune":{"key":"338","name":"Rohrbach","shortName":"Rohrbach"},"district":{"key":"244","name":"Verwaltungskreis Oberaargau"},"canton":{"key":"2","code":"BE","name":"Bern / Berne"},"status":"Real"},{"key":"10062557","name":"Schürliberg","postalCode":"4938","locality":"Rohrbach","commune":{"key":"338","name":"Rohrbach","shortName":"Rohrbach"},"district":{"key":"244","name":"Verwaltungskreis Oberaargau"},"canton":{"key":"2","code":"BE","name":"Bern / Berne"},"status":"Real"},{"key":"10198108","name":"Schwalmernstrasse","postalCode":"3155","locality":"Helgisried-Rohrbach","commune":{"key":"880","name":"Rüeggisberg","shortName":"Rüeggisberg"},"district":{"key":"246","name":"Verwaltungskreis Bern-Mittelland"},"canton":{"key":"2","code":"BE","name":"Bern / Berne"},"status":"Real"},{"key":"10198399","name":"Schwandenhöhe","postalCode":"3155","locality":"Helgisried-Rohrbach","commune":{"key":"880","name":"Rüeggisberg","shortName":"Rüeggisberg"},"district":{"key":"246","name":"Verwaltungskreis Bern-Mittelland"},"canton":{"key":"2","code":"BE","name":"Bern / Berne"},"status":"Real"},{"key":"10198109","name":"Schwandenstrasse","postalCode":"3155","locality":"Helgisried-Rohrbach","commune":{"key":"880","name":"Rüeggisberg","shortName":"Rüeggisberg"},"district":{"key":"246","name":"Verwaltungskreis Bern-Mittelland"},"canton":{"key":"2","code":"BE","name":"Bern / Berne"},"status":"Real"},{"key":"10014090","name":"Schweinbrunnenberg","postalCode":"4938","locality":"Rohrbachgraben","commune":{"key":"339","name":"Rohrbachgraben","shortName":"Rohrbachgraben"},"district":{"key":"244","name":"Verwaltungskreis Oberaargau"},"canton":{"key":"2","code":"BE","name":"Bern / Berne"},"status":"Real"},{"key":"10062328","name":"Sonnweg","postalCode":"4938","locality":"Rohrbach","commune":{"key":"338","name":"Rohrbach","shortName":"Rohrbach"},"district":{"key":"244","name":"Verwaltungskreis Oberaargau"},"canton":{"key":"2","code":"BE","name":"Bern / Berne"},"status":"Real"},{"key":"10151335","name":"Sossaustrasse","postalCode":"4938","locality":"Rohrbach","commune":{"key":"338","name":"Rohrbach","shortName":"Rohrbach"},"district":{"key":"244","name":"Verwaltungskreis Oberaargau"},"canton":{"key":"2","code":"BE","name":"Bern / Berne"},"status":"Real"},{"key":"10046143","name":"Steggässli","postalCode":"4938","locality":"Rohrbach","commune":{"key":"338","name":"Rohrbach","shortName":"Rohrbach"},"district":{"key":"244","name":"Verwaltungskreis Oberaargau"},"canton":{"key":"2","code":"BE","name":"Bern / Berne"},"status":"Real"},{"key":"10084882","name":"Steinacker","postalCode":"4938","locality":"Rohrbachgraben","commune":{"key":"339","name":"Rohrbachgraben","shortName":"Rohrbachgraben"},"district":{"key":"244","name":"Verwaltungskreis Oberaargau"},"canton":{"key":"2","code":"BE","name":"Bern / Berne"},"status":"Real"},{"key":"10198401","name":"Steinhof","postalCode":"3155","locality":"Helgisried-Rohrbach","commune":{"key":"880","name":"Rüeggisberg","shortName":"Rüeggisberg"},"district":{"key":"246","name":"Verwaltungskreis Bern-Mittelland"},"canton":{"key":"2","code":"BE","name":"Bern / Berne"},"status":"Real"},{"key":"10060113","name":"Tanntschachen","postalCode":"3155","locality":"Helgisried-Rohrbach","commune":{"key":"880","name":"Rüeggisberg","shortName":"Rüeggisberg"},"district":{"key":"246","name":"Verwaltungskreis Bern-Mittelland"},"canton":{"key":"2","code":"BE","name":"Bern / Berne"},"status":"Real"},{"key":"10188213","name":"Tiefmaad","postalCode":"3155","locality":"Helgisried-Rohrbach","commune":{"key":"880","name":"Rüeggisberg","shortName":"Rüeggisberg"},"district":{"key":"246","name":"Verwaltungskreis Bern-Mittelland"},"canton":{"key":"2","code":"BE","name":"Bern / Berne"},"status":"Real"},{"key":"10149393","name":"Toggiburgstrasse","postalCode":"4938","locality":"Rohrbach","commune":{"key":"338","name":"Rohrbach","shortName":"Rohrbach"},"district":{"key":"244","name":"Verwaltungskreis Oberaargau"},"canton":{"key":"2","code":"BE","name":"Bern / Berne"},"status":"Real"},{"key":"10009594","name":"Ueberich","postalCode":"4938","locality":"Rohrbachgraben","commune":{"key":"339","name":"Rohrbachgraben","shortName":"Rohrbachgraben"},"district":{"key":"244","name":"Verwaltungskreis Oberaargau"},"canton":{"key":"2","code":"BE","name":"Bern / Berne"},"status":"Real"},{"key":"10178428","name":"Untere Matten","postalCode":"4938","locality":"Rohrbachgraben","commune":{"key":"339","name":"Rohrbachgraben","shortName":"Rohrbachgraben"},"district":{"key":"244","name":"Verwaltungskreis Oberaargau"},"canton":{"key":"2","code":"BE","name":"Bern / Berne"},"status":"Real"},{"key":"10056768","name":"Unteres Lang","postalCode":"4938","locality":"Rohrbach","commune":{"key":"338","name":"Rohrbach","shortName":"Rohrbach"},"district":{"key":"244","name":"Verwaltungskreis Oberaargau"},"canton":{"key":"2","code":"BE","name":"Bern / Berne"},"status":"Real"},{"key":"10149394","name":"Untere Toggiburgstrasse","postalCode":"4938","locality":"Rohrbach","commune":{"key":"338","name":"Rohrbach","shortName":"Rohrbach"},"district":{"key":"244","name":"Verwaltungskreis Oberaargau"},"canton":{"key":"2","code":"BE","name":"Bern / Berne"},"status":"Real"},{"key":"10062337","name":"Wald","postalCode":"4938","locality":"Rohrbachgraben","commune":{"key":"339","name":"Rohrbachgraben","shortName":"Rohrbachgraben"},"district":{"key":"244","name":"Verwaltungskreis Oberaargau"},"canton":{"key":"2","code":"BE","name":"Bern / Berne"},"status":"Real"},{"key":"10009584","name":"Walke","postalCode":"4938","locality":"Rohrbach","commune":{"key":"338","name":"Rohrbach","shortName":"Rohrbach"},"district":{"key":"244","name":"Verwaltungskreis Oberaargau"},"canton":{"key":"2","code":"BE","name":"Bern / Berne"},"status":"Real"},{"key":"10084883","name":"Waltimoos","postalCode":"4938","locality":"Rohrbachgraben","commune":{"key":"339","name":"Rohrbachgraben","shortName":"Rohrbachgraben"},"district":{"key":"244","name":"Verwaltungskreis Oberaargau"},"canton":{"key":"2","code":"BE","name":"Bern / Berne"},"status":"Real"},{"key":"10178425","name":"Wannenbach","postalCode":"4938","locality":"Rohrbach","commune":{"key":"338","name":"Rohrbach","shortName":"Rohrbach"},"district":{"key":"244","name":"Verwaltungskreis Oberaargau"},"canton":{"key":"2","code":"BE","name":"Bern / Berne"},"status":"Real"},{"key":"10179924","name":"Wil","postalCode":"4938","locality":"Rohrbachgraben","commune":{"key":"339","name":"Rohrbachgraben","shortName":"Rohrbachgraben"},"district":{"key":"244","name":"Verwaltungskreis Oberaargau"},"canton":{"key":"2","code":"BE","name":"Bern / Berne"},"status":"Real"},{"key":"10011177","name":"Wylerhubel","postalCode":"3155","locality":"Helgisried-Rohrbach","commune":{"key":"880","name":"Rüeggisberg","shortName":"Rüeggisberg"},"district":{"key":"246","name":"Verwaltungskreis Bern-Mittelland"},"canton":{"key":"2","code":"BE","name":"Bern / Berne"},"status":"Real"},{"key":"10198113","name":"Wylerweg","postalCode":"3155","locality":"Helgisried-Rohrbach","commune":{"key":"880","name":"Rüeggisberg","shortName":"Rüeggisberg"},"district":{"key":"246","name":"Verwaltungskreis Bern-Mittelland"},"canton":{"key":"2","code":"BE","name":"Bern / Berne"},"status":"Real"},{"key":"10060114","name":"Ziegelhaus","postalCode":"3155","locality":"Helgisried-Rohrbach","commune":{"key":"880","name":"Rüeggisberg","shortName":"Rüeggisberg"},"district":{"key":"246","name":"Verwaltungskreis Bern-Mittelland"},"canton":{"key":"2","code":"BE","name":"Bern / Berne"},"status":"Real"},{"key":"10014091","name":"Zwang","postalCode":"4938","locality":"Rohrbachgraben","commune":{"key":"339","name":"Rohrbachgraben","shortName":"Rohrbachgraben"},"district":{"key":"244","name":"Verwaltungskreis Oberaargau"},"canton":{"key":"2","code":"BE","name":"Bern / Berne"},"status":"Real"},]