[{"name":"Akazienweg","postalCode":"06895","locality":"Zahna-Elster","municipality":{"key":"15091391","name":"Zahna-Elster, Stadt","type":"Stadt"},"district":{"key":"15091","name":"Wittenberg","type":"Landkreis"},"federalState":{"key":"15","name":"Sachsen-Anhalt"}},{"name":"Albrechtstr.","postalCode":"06895","locality":"Zahna-Elster","municipality":{"key":"15091391","name":"Zahna-Elster, Stadt","type":"Stadt"},"district":{"key":"15091","name":"Wittenberg","type":"Landkreis"},"federalState":{"key":"15","name":"Sachsen-Anhalt"}},{"name":"Alte Dorfstr.","postalCode":"06895","locality":"Zahna-Elster","municipality":{"key":"15091391","name":"Zahna-Elster, Stadt","type":"Stadt"},"district":{"key":"15091","name":"Wittenberg","type":"Landkreis"},"federalState":{"key":"15","name":"Sachsen-Anhalt"}},{"name":"Alte Försterei","postalCode":"06895","locality":"Zahna-Elster","municipality":{"key":"15091391","name":"Zahna-Elster, Stadt","type":"Stadt"},"district":{"key":"15091","name":"Wittenberg","type":"Landkreis"},"federalState":{"key":"15","name":"Sachsen-Anhalt"}},{"name":"Alte Nordstr.","postalCode":"06895","locality":"Zahna-Elster","municipality":{"key":"15091391","name":"Zahna-Elster, Stadt","type":"Stadt"},"district":{"key":"15091","name":"Wittenberg","type":"Landkreis"},"federalState":{"key":"15","name":"Sachsen-Anhalt"}},{"name":"Alte Oststr.","postalCode":"06895","locality":"Zahna-Elster","municipality":{"key":"15091391","name":"Zahna-Elster, Stadt","type":"Stadt"},"district":{"key":"15091","name":"Wittenberg","type":"Landkreis"},"federalState":{"key":"15","name":"Sachsen-Anhalt"}},{"name":"Am Alten Friedhof","postalCode":"06895","locality":"Zahna-Elster","municipality":{"key":"15091391","name":"Zahna-Elster, Stadt","type":"Stadt"},"district":{"key":"15091","name":"Wittenberg","type":"Landkreis"},"federalState":{"key":"15","name":"Sachsen-Anhalt"}},{"name":"Am Anger","postalCode":"06895","locality":"Zahna-Elster","municipality":{"key":"15091391","name":"Zahna-Elster, Stadt","type":"Stadt"},"district":{"key":"15091","name":"Wittenberg","type":"Landkreis"},"federalState":{"key":"15","name":"Sachsen-Anhalt"}},{"name":"Am Bahnhof","postalCode":"06895","locality":"Zahna-Elster","municipality":{"key":"15091391","name":"Zahna-Elster, Stadt","type":"Stadt"},"district":{"key":"15091","name":"Wittenberg","type":"Landkreis"},"federalState":{"key":"15","name":"Sachsen-Anhalt"}},{"name":"Am Berg","postalCode":"06895","locality":"Zahna-Elster","municipality":{"key":"15091391","name":"Zahna-Elster, Stadt","type":"Stadt"},"district":{"key":"15091","name":"Wittenberg","type":"Landkreis"},"federalState":{"key":"15","name":"Sachsen-Anhalt"}},{"name":"Am Birkenwäldchen","postalCode":"06895","locality":"Zahna-Elster","municipality":{"key":"15091391","name":"Zahna-Elster, Stadt","type":"Stadt"},"district":{"key":"15091","name":"Wittenberg","type":"Landkreis"},"federalState":{"key":"15","name":"Sachsen-Anhalt"}},{"name":"Am Damm","postalCode":"06895","locality":"Zahna-Elster","municipality":{"key":"15091391","name":"Zahna-Elster, Stadt","type":"Stadt"},"district":{"key":"15091","name":"Wittenberg","type":"Landkreis"},"federalState":{"key":"15","name":"Sachsen-Anhalt"}},{"name":"Am Denkmal","postalCode":"06895","locality":"Zahna-Elster","municipality":{"key":"15091391","name":"Zahna-Elster, Stadt","type":"Stadt"},"district":{"key":"15091","name":"Wittenberg","type":"Landkreis"},"federalState":{"key":"15","name":"Sachsen-Anhalt"}},{"name":"Am Felde","postalCode":"06895","locality":"Zahna-Elster","municipality":{"key":"15091391","name":"Zahna-Elster, Stadt","type":"Stadt"},"district":{"key":"15091","name":"Wittenberg","type":"Landkreis"},"federalState":{"key":"15","name":"Sachsen-Anhalt"}},{"name":"Am Feldweg","postalCode":"06895","locality":"Zahna-Elster","municipality":{"key":"15091391","name":"Zahna-Elster, Stadt","type":"Stadt"},"district":{"key":"15091","name":"Wittenberg","type":"Landkreis"},"federalState":{"key":"15","name":"Sachsen-Anhalt"}},{"name":"Am Gewerbepark","postalCode":"06895","locality":"Zahna-Elster","municipality":{"key":"15091391","name":"Zahna-Elster, Stadt","type":"Stadt"},"district":{"key":"15091","name":"Wittenberg","type":"Landkreis"},"federalState":{"key":"15","name":"Sachsen-Anhalt"}},{"name":"Am Holländer","postalCode":"06895","locality":"Zahna-Elster","municipality":{"key":"15091391","name":"Zahna-Elster, Stadt","type":"Stadt"},"district":{"key":"15091","name":"Wittenberg","type":"Landkreis"},"federalState":{"key":"15","name":"Sachsen-Anhalt"}},{"name":"Am Mittelgraben","postalCode":"06895","locality":"Zahna-Elster","municipality":{"key":"15091391","name":"Zahna-Elster, Stadt","type":"Stadt"},"district":{"key":"15091","name":"Wittenberg","type":"Landkreis"},"federalState":{"key":"15","name":"Sachsen-Anhalt"}},{"name":"Am Mühlberg","postalCode":"06895","locality":"Zahna-Elster","municipality":{"key":"15091391","name":"Zahna-Elster, Stadt","type":"Stadt"},"district":{"key":"15091","name":"Wittenberg","type":"Landkreis"},"federalState":{"key":"15","name":"Sachsen-Anhalt"}},{"name":"Am Rathaus","postalCode":"06895","locality":"Zahna-Elster","municipality":{"key":"15091391","name":"Zahna-Elster, Stadt","type":"Stadt"},"district":{"key":"15091","name":"Wittenberg","type":"Landkreis"},"federalState":{"key":"15","name":"Sachsen-Anhalt"}},{"name":"Am Ratsteich","postalCode":"06895","locality":"Zahna-Elster","municipality":{"key":"15091391","name":"Zahna-Elster, Stadt","type":"Stadt"},"district":{"key":"15091","name":"Wittenberg","type":"Landkreis"},"federalState":{"key":"15","name":"Sachsen-Anhalt"}},{"name":"Am Schwimmbad","postalCode":"06895","locality":"Zahna-Elster","municipality":{"key":"15091391","name":"Zahna-Elster, Stadt","type":"Stadt"},"district":{"key":"15091","name":"Wittenberg","type":"Landkreis"},"federalState":{"key":"15","name":"Sachsen-Anhalt"}},{"name":"Amselweg","postalCode":"06895","locality":"Zahna-Elster","municipality":{"key":"15091391","name":"Zahna-Elster, Stadt","type":"Stadt"},"district":{"key":"15091","name":"Wittenberg","type":"Landkreis"},"federalState":{"key":"15","name":"Sachsen-Anhalt"}},{"name":"Am Sportplatz","postalCode":"06895","locality":"Zahna-Elster","municipality":{"key":"15091391","name":"Zahna-Elster, Stadt","type":"Stadt"},"district":{"key":"15091","name":"Wittenberg","type":"Landkreis"},"federalState":{"key":"15","name":"Sachsen-Anhalt"}},{"name":"Am Tonteich","postalCode":"06895","locality":"Zahna-Elster","municipality":{"key":"15091391","name":"Zahna-Elster, Stadt","type":"Stadt"},"district":{"key":"15091","name":"Wittenberg","type":"Landkreis"},"federalState":{"key":"15","name":"Sachsen-Anhalt"}},{"name":"Am Wasserwerk","postalCode":"06895","locality":"Zahna-Elster","municipality":{"key":"15091391","name":"Zahna-Elster, Stadt","type":"Stadt"},"district":{"key":"15091","name":"Wittenberg","type":"Landkreis"},"federalState":{"key":"15","name":"Sachsen-Anhalt"}},{"name":"An den Wegestücken","postalCode":"06895","locality":"Zahna-Elster","municipality":{"key":"15091391","name":"Zahna-Elster, Stadt","type":"Stadt"},"district":{"key":"15091","name":"Wittenberg","type":"Landkreis"},"federalState":{"key":"15","name":"Sachsen-Anhalt"}},{"name":"An der Gärtnerei","postalCode":"06895","locality":"Zahna-Elster","municipality":{"key":"15091391","name":"Zahna-Elster, Stadt","type":"Stadt"},"district":{"key":"15091","name":"Wittenberg","type":"Landkreis"},"federalState":{"key":"15","name":"Sachsen-Anhalt"}},{"name":"An der Greye","postalCode":"06895","locality":"Zahna-Elster","municipality":{"key":"15091391","name":"Zahna-Elster, Stadt","type":"Stadt"},"district":{"key":"15091","name":"Wittenberg","type":"Landkreis"},"federalState":{"key":"15","name":"Sachsen-Anhalt"}},{"name":"An der Oßnitz","postalCode":"06895","locality":"Zahna-Elster","municipality":{"key":"15091391","name":"Zahna-Elster, Stadt","type":"Stadt"},"district":{"key":"15091","name":"Wittenberg","type":"Landkreis"},"federalState":{"key":"15","name":"Sachsen-Anhalt"}},{"name":"An der Pferdewiese","postalCode":"06895","locality":"Zahna-Elster","municipality":{"key":"15091391","name":"Zahna-Elster, Stadt","type":"Stadt"},"district":{"key":"15091","name":"Wittenberg","type":"Landkreis"},"federalState":{"key":"15","name":"Sachsen-Anhalt"}},{"name":"An der Tongrube","postalCode":"06895","locality":"Zahna-Elster","municipality":{"key":"15091391","name":"Zahna-Elster, Stadt","type":"Stadt"},"district":{"key":"15091","name":"Wittenberg","type":"Landkreis"},"federalState":{"key":"15","name":"Sachsen-Anhalt"}},{"name":"Bachstr.","postalCode":"06895","locality":"Zahna-Elster","municipality":{"key":"15091391","name":"Zahna-Elster, Stadt","type":"Stadt"},"district":{"key":"15091","name":"Wittenberg","type":"Landkreis"},"federalState":{"key":"15","name":"Sachsen-Anhalt"}},{"name":"Baderstr.","postalCode":"06895","locality":"Zahna-Elster","municipality":{"key":"15091391","name":"Zahna-Elster, Stadt","type":"Stadt"},"district":{"key":"15091","name":"Wittenberg","type":"Landkreis"},"federalState":{"key":"15","name":"Sachsen-Anhalt"}},{"name":"Bahnhofstr.","postalCode":"06895","locality":"Zahna-Elster","municipality":{"key":"15091391","name":"Zahna-Elster, Stadt","type":"Stadt"},"district":{"key":"15091","name":"Wittenberg","type":"Landkreis"},"federalState":{"key":"15","name":"Sachsen-Anhalt"}},{"name":"Bahnstr.","postalCode":"06895","locality":"Zahna-Elster","municipality":{"key":"15091391","name":"Zahna-Elster, Stadt","type":"Stadt"},"district":{"key":"15091","name":"Wittenberg","type":"Landkreis"},"federalState":{"key":"15","name":"Sachsen-Anhalt"}},{"name":"Berggasse","postalCode":"06895","locality":"Zahna-Elster","municipality":{"key":"15091391","name":"Zahna-Elster, Stadt","type":"Stadt"},"district":{"key":"15091","name":"Wittenberg","type":"Landkreis"},"federalState":{"key":"15","name":"Sachsen-Anhalt"}},{"name":"Bergstr.","postalCode":"06895","locality":"Zahna-Elster","municipality":{"key":"15091391","name":"Zahna-Elster, Stadt","type":"Stadt"},"district":{"key":"15091","name":"Wittenberg","type":"Landkreis"},"federalState":{"key":"15","name":"Sachsen-Anhalt"}},{"name":"Betonwerkstr.","postalCode":"06895","locality":"Zahna-Elster","municipality":{"key":"15091391","name":"Zahna-Elster, Stadt","type":"Stadt"},"district":{"key":"15091","name":"Wittenberg","type":"Landkreis"},"federalState":{"key":"15","name":"Sachsen-Anhalt"}},{"name":"Breitenstr.","postalCode":"06895","locality":"Zahna-Elster","municipality":{"key":"15091391","name":"Zahna-Elster, Stadt","type":"Stadt"},"district":{"key":"15091","name":"Wittenberg","type":"Landkreis"},"federalState":{"key":"15","name":"Sachsen-Anhalt"}},{"name":"Breitenteichstr.","postalCode":"06895","locality":"Zahna-Elster","municipality":{"key":"15091391","name":"Zahna-Elster, Stadt","type":"Stadt"},"district":{"key":"15091","name":"Wittenberg","type":"Landkreis"},"federalState":{"key":"15","name":"Sachsen-Anhalt"}},{"name":"Brunnenstr.","postalCode":"06895","locality":"Zahna-Elster","municipality":{"key":"15091391","name":"Zahna-Elster, Stadt","type":"Stadt"},"district":{"key":"15091","name":"Wittenberg","type":"Landkreis"},"federalState":{"key":"15","name":"Sachsen-Anhalt"}},{"name":"Brunnenweg","postalCode":"06895","locality":"Zahna-Elster","municipality":{"key":"15091391","name":"Zahna-Elster, Stadt","type":"Stadt"},"district":{"key":"15091","name":"Wittenberg","type":"Landkreis"},"federalState":{"key":"15","name":"Sachsen-Anhalt"}},{"name":"Buchenweg","postalCode":"06895","locality":"Zahna-Elster","municipality":{"key":"15091391","name":"Zahna-Elster, Stadt","type":"Stadt"},"district":{"key":"15091","name":"Wittenberg","type":"Landkreis"},"federalState":{"key":"15","name":"Sachsen-Anhalt"}},{"name":"Bülziger Str.","postalCode":"06895","locality":"Zahna-Elster","municipality":{"key":"15091391","name":"Zahna-Elster, Stadt","type":"Stadt"},"district":{"key":"15091","name":"Wittenberg","type":"Landkreis"},"federalState":{"key":"15","name":"Sachsen-Anhalt"}},{"name":"Burgstr.","postalCode":"06895","locality":"Zahna-Elster","municipality":{"key":"15091391","name":"Zahna-Elster, Stadt","type":"Stadt"},"district":{"key":"15091","name":"Wittenberg","type":"Landkreis"},"federalState":{"key":"15","name":"Sachsen-Anhalt"}},{"name":"Buswendeschleife an der Schule","postalCode":"06895","locality":"Zahna-Elster","municipality":{"key":"15091391","name":"Zahna-Elster, Stadt","type":"Stadt"},"district":{"key":"15091","name":"Wittenberg","type":"Landkreis"},"federalState":{"key":"15","name":"Sachsen-Anhalt"}},{"name":"Charlottenstr.","postalCode":"06886","locality":"Wittenberg","municipality":{"key":"15091375","name":"Wittenberg, Lutherstadt","type":"Stadt"},"district":{"key":"15091","name":"Wittenberg","type":"Landkreis"},"federalState":{"key":"15","name":"Sachsen-Anhalt"}},{"name":"Clara-Zetkin-Str.","postalCode":"06886","locality":"Wittenberg","municipality":{"key":"15091375","name":"Wittenberg, Lutherstadt","type":"Stadt"},"district":{"key":"15091","name":"Wittenberg","type":"Landkreis"},"federalState":{"key":"15","name":"Sachsen-Anhalt"}},{"name":"Collegienstr.","postalCode":"06886","locality":"Wittenberg","municipality":{"key":"15091375","name":"Wittenberg, Lutherstadt","type":"Stadt"},"district":{"key":"15091","name":"Wittenberg","type":"Landkreis"},"federalState":{"key":"15","name":"Sachsen-Anhalt"}},{"name":"Coswiger Landstr.","postalCode":"06886","locality":"Wittenberg","municipality":{"key":"15091375","name":"Wittenberg, Lutherstadt","type":"Stadt"},"district":{"key":"15091","name":"Wittenberg","type":"Landkreis"},"federalState":{"key":"15","name":"Sachsen-Anhalt"}},{"name":"Cumlosener Str.","postalCode":"19322","locality":"Wittenberge","municipality":{"key":"12070424","name":"Wittenberge, Stadt","type":"Stadt"},"district":{"key":"12070","name":"Prignitz","type":"Landkreis"},"federalState":{"key":"12","name":"Brandenburg"}},{"name":"Dammweg","postalCode":"06895","locality":"Zahna-Elster","municipality":{"key":"15091391","name":"Zahna-Elster, Stadt","type":"Stadt"},"district":{"key":"15091","name":"Wittenberg","type":"Landkreis"},"federalState":{"key":"15","name":"Sachsen-Anhalt"}},{"name":"Dietrichsdorf","postalCode":"06895","locality":"Zahna-Elster","municipality":{"key":"15091391","name":"Zahna-Elster, Stadt","type":"Stadt"},"district":{"key":"15091","name":"Wittenberg","type":"Landkreis"},"federalState":{"key":"15","name":"Sachsen-Anhalt"}},{"name":"Dietrichsdorfer Mühle","postalCode":"06895","locality":"Zahna-Elster","municipality":{"key":"15091391","name":"Zahna-Elster, Stadt","type":"Stadt"},"district":{"key":"15091","name":"Wittenberg","type":"Landkreis"},"federalState":{"key":"15","name":"Sachsen-Anhalt"}},{"name":"Dietrichsdorfer Str.","postalCode":"06895","locality":"Zahna-Elster","municipality":{"key":"15091391","name":"Zahna-Elster, Stadt","type":"Stadt"},"district":{"key":"15091","name":"Wittenberg","type":"Landkreis"},"federalState":{"key":"15","name":"Sachsen-Anhalt"}},{"name":"Dorfstr.","postalCode":"06895","locality":"Zahna-Elster","municipality":{"key":"15091391","name":"Zahna-Elster, Stadt","type":"Stadt"},"district":{"key":"15091","name":"Wittenberg","type":"Landkreis"},"federalState":{"key":"15","name":"Sachsen-Anhalt"}},{"name":"Dresdener Str.","postalCode":"06895","locality":"Zahna-Elster","municipality":{"key":"15091391","name":"Zahna-Elster, Stadt","type":"Stadt"},"district":{"key":"15091","name":"Wittenberg","type":"Landkreis"},"federalState":{"key":"15","name":"Sachsen-Anhalt"}},{"name":"Dr.-Kurt-Fischer-Str.","postalCode":"06895","locality":"Zahna-Elster","municipality":{"key":"15091391","name":"Zahna-Elster, Stadt","type":"Stadt"},"district":{"key":"15091","name":"Wittenberg","type":"Landkreis"},"federalState":{"key":"15","name":"Sachsen-Anhalt"}},{"name":"Eichenweg","postalCode":"06895","locality":"Zahna-Elster","municipality":{"key":"15091391","name":"Zahna-Elster, Stadt","type":"Stadt"},"district":{"key":"15091","name":"Wittenberg","type":"Landkreis"},"federalState":{"key":"15","name":"Sachsen-Anhalt"}},{"name":"Eisenbahnstr.","postalCode":"06895","locality":"Zahna-Elster","municipality":{"key":"15091391","name":"Zahna-Elster, Stadt","type":"Stadt"},"district":{"key":"15091","name":"Wittenberg","type":"Landkreis"},"federalState":{"key":"15","name":"Sachsen-Anhalt"}},{"name":"Elbesiedlung","postalCode":"06895","locality":"Zahna-Elster","municipality":{"key":"15091391","name":"Zahna-Elster, Stadt","type":"Stadt"},"district":{"key":"15091","name":"Wittenberg","type":"Landkreis"},"federalState":{"key":"15","name":"Sachsen-Anhalt"}},{"name":"Elbstr.","postalCode":"06895","locality":"Zahna-Elster","municipality":{"key":"15091391","name":"Zahna-Elster, Stadt","type":"Stadt"},"district":{"key":"15091","name":"Wittenberg","type":"Landkreis"},"federalState":{"key":"15","name":"Sachsen-Anhalt"}},{"name":"Elsterstr.","postalCode":"06895","locality":"Zahna-Elster","municipality":{"key":"15091391","name":"Zahna-Elster, Stadt","type":"Stadt"},"district":{"key":"15091","name":"Wittenberg","type":"Landkreis"},"federalState":{"key":"15","name":"Sachsen-Anhalt"}},{"name":"Elsterweg","postalCode":"06895","locality":"Zahna-Elster","municipality":{"key":"15091391","name":"Zahna-Elster, Stadt","type":"Stadt"},"district":{"key":"15091","name":"Wittenberg","type":"Landkreis"},"federalState":{"key":"15","name":"Sachsen-Anhalt"}},{"name":"Ernst-Thälmann-Str.","postalCode":"06895","locality":"Zahna-Elster","municipality":{"key":"15091391","name":"Zahna-Elster, Stadt","type":"Stadt"},"district":{"key":"15091","name":"Wittenberg","type":"Landkreis"},"federalState":{"key":"15","name":"Sachsen-Anhalt"}},{"name":"Fabrik","postalCode":"06895","locality":"Zahna-Elster","municipality":{"key":"15091391","name":"Zahna-Elster, Stadt","type":"Stadt"},"district":{"key":"15091","name":"Wittenberg","type":"Landkreis"},"federalState":{"key":"15","name":"Sachsen-Anhalt"}},{"name":"Falkstr.","postalCode":"06895","locality":"Zahna-Elster","municipality":{"key":"15091391","name":"Zahna-Elster, Stadt","type":"Stadt"},"district":{"key":"15091","name":"Wittenberg","type":"Landkreis"},"federalState":{"key":"15","name":"Sachsen-Anhalt"}},{"name":"Feldstr.","postalCode":"06895","locality":"Zahna-Elster","municipality":{"key":"15091391","name":"Zahna-Elster, Stadt","type":"Stadt"},"district":{"key":"15091","name":"Wittenberg","type":"Landkreis"},"federalState":{"key":"15","name":"Sachsen-Anhalt"}},{"name":"Fischermühlenstr.","postalCode":"06895","locality":"Zahna-Elster","municipality":{"key":"15091391","name":"Zahna-Elster, Stadt","type":"Stadt"},"district":{"key":"15091","name":"Wittenberg","type":"Landkreis"},"federalState":{"key":"15","name":"Sachsen-Anhalt"}},{"name":"Fischermühlenweg","postalCode":"06895","locality":"Zahna-Elster","municipality":{"key":"15091391","name":"Zahna-Elster, Stadt","type":"Stadt"},"district":{"key":"15091","name":"Wittenberg","type":"Landkreis"},"federalState":{"key":"15","name":"Sachsen-Anhalt"}},{"name":"Flämingstr.","postalCode":"06895","locality":"Zahna-Elster","municipality":{"key":"15091391","name":"Zahna-Elster, Stadt","type":"Stadt"},"district":{"key":"15091","name":"Wittenberg","type":"Landkreis"},"federalState":{"key":"15","name":"Sachsen-Anhalt"}},{"name":"Friedensstr.","postalCode":"06895","locality":"Zahna-Elster","municipality":{"key":"15091391","name":"Zahna-Elster, Stadt","type":"Stadt"},"district":{"key":"15091","name":"Wittenberg","type":"Landkreis"},"federalState":{"key":"15","name":"Sachsen-Anhalt"}},{"name":"Friedrich-Engels Str.","postalCode":"06895","locality":"Zahna-Elster","municipality":{"key":"15091391","name":"Zahna-Elster, Stadt","type":"Stadt"},"district":{"key":"15091","name":"Wittenberg","type":"Landkreis"},"federalState":{"key":"15","name":"Sachsen-Anhalt"}},{"name":"Friedrichstr.","postalCode":"06895","locality":"Zahna-Elster","municipality":{"key":"15091391","name":"Zahna-Elster, Stadt","type":"Stadt"},"district":{"key":"15091","name":"Wittenberg","type":"Landkreis"},"federalState":{"key":"15","name":"Sachsen-Anhalt"}},{"name":"Fröbelstr.","postalCode":"06895","locality":"Zahna-Elster","municipality":{"key":"15091391","name":"Zahna-Elster, Stadt","type":"Stadt"},"district":{"key":"15091","name":"Wittenberg","type":"Landkreis"},"federalState":{"key":"15","name":"Sachsen-Anhalt"}},{"name":"Gadegast","postalCode":"06895","locality":"Zahna-Elster","municipality":{"key":"15091391","name":"Zahna-Elster, Stadt","type":"Stadt"},"district":{"key":"15091","name":"Wittenberg","type":"Landkreis"},"federalState":{"key":"15","name":"Sachsen-Anhalt"}},{"name":"Gallin","postalCode":"06895","locality":"Zahna-Elster","municipality":{"key":"15091391","name":"Zahna-Elster, Stadt","type":"Stadt"},"district":{"key":"15091","name":"Wittenberg","type":"Landkreis"},"federalState":{"key":"15","name":"Sachsen-Anhalt"}},{"name":"Galliner Str.","postalCode":"06895","locality":"Zahna-Elster","municipality":{"key":"15091391","name":"Zahna-Elster, Stadt","type":"Stadt"},"district":{"key":"15091","name":"Wittenberg","type":"Landkreis"},"federalState":{"key":"15","name":"Sachsen-Anhalt"}},{"name":"Gartenstr.","postalCode":"06895","locality":"Zahna-Elster","municipality":{"key":"15091391","name":"Zahna-Elster, Stadt","type":"Stadt"},"district":{"key":"15091","name":"Wittenberg","type":"Landkreis"},"federalState":{"key":"15","name":"Sachsen-Anhalt"}},{"name":"Gartenweg","postalCode":"06895","locality":"Zahna-Elster","municipality":{"key":"15091391","name":"Zahna-Elster, Stadt","type":"Stadt"},"district":{"key":"15091","name":"Wittenberg","type":"Landkreis"},"federalState":{"key":"15","name":"Sachsen-Anhalt"}},{"name":"Gielsdorf","postalCode":"06895","locality":"Zahna-Elster","municipality":{"key":"15091391","name":"Zahna-Elster, Stadt","type":"Stadt"},"district":{"key":"15091","name":"Wittenberg","type":"Landkreis"},"federalState":{"key":"15","name":"Sachsen-Anhalt"}},{"name":"Gielsdorfer Str.","postalCode":"06895","locality":"Zahna-Elster","municipality":{"key":"15091391","name":"Zahna-Elster, Stadt","type":"Stadt"},"district":{"key":"15091","name":"Wittenberg","type":"Landkreis"},"federalState":{"key":"15","name":"Sachsen-Anhalt"}},{"name":"Graf-Zeppelin-Str.","postalCode":"06895","locality":"Zahna-Elster","municipality":{"key":"15091391","name":"Zahna-Elster, Stadt","type":"Stadt"},"district":{"key":"15091","name":"Wittenberg","type":"Landkreis"},"federalState":{"key":"15","name":"Sachsen-Anhalt"}},{"name":"Grüner Weg","postalCode":"06895","locality":"Zahna-Elster","municipality":{"key":"15091391","name":"Zahna-Elster, Stadt","type":"Stadt"},"district":{"key":"15091","name":"Wittenberg","type":"Landkreis"},"federalState":{"key":"15","name":"Sachsen-Anhalt"}},{"name":"Grünstr.","postalCode":"06895","locality":"Zahna-Elster","municipality":{"key":"15091391","name":"Zahna-Elster, Stadt","type":"Stadt"},"district":{"key":"15091","name":"Wittenberg","type":"Landkreis"},"federalState":{"key":"15","name":"Sachsen-Anhalt"}},{"name":"Hauptstr.","postalCode":"06895","locality":"Zahna-Elster","municipality":{"key":"15091391","name":"Zahna-Elster, Stadt","type":"Stadt"},"district":{"key":"15091","name":"Wittenberg","type":"Landkreis"},"federalState":{"key":"15","name":"Sachsen-Anhalt"}},{"name":"Heideweg","postalCode":"06895","locality":"Zahna-Elster","municipality":{"key":"15091391","name":"Zahna-Elster, Stadt","type":"Stadt"},"district":{"key":"15091","name":"Wittenberg","type":"Landkreis"},"federalState":{"key":"15","name":"Sachsen-Anhalt"}},{"name":"Hermannstr.","postalCode":"06895","locality":"Zahna-Elster","municipality":{"key":"15091391","name":"Zahna-Elster, Stadt","type":"Stadt"},"district":{"key":"15091","name":"Wittenberg","type":"Landkreis"},"federalState":{"key":"15","name":"Sachsen-Anhalt"}},{"name":"Heuweg","postalCode":"06895","locality":"Zahna-Elster","municipality":{"key":"15091391","name":"Zahna-Elster, Stadt","type":"Stadt"},"district":{"key":"15091","name":"Wittenberg","type":"Landkreis"},"federalState":{"key":"15","name":"Sachsen-Anhalt"}},{"name":"Hohndorfer Str.","postalCode":"06895","locality":"Zahna-Elster","municipality":{"key":"15091391","name":"Zahna-Elster, Stadt","type":"Stadt"},"district":{"key":"15091","name":"Wittenberg","type":"Landkreis"},"federalState":{"key":"15","name":"Sachsen-Anhalt"}},{"name":"Iserbegka","postalCode":"06895","locality":"Zahna-Elster","municipality":{"key":"15091391","name":"Zahna-Elster, Stadt","type":"Stadt"},"district":{"key":"15091","name":"Wittenberg","type":"Landkreis"},"federalState":{"key":"15","name":"Sachsen-Anhalt"}},{"name":"Jahnstr.","postalCode":"06895","locality":"Zahna-Elster","municipality":{"key":"15091391","name":"Zahna-Elster, Stadt","type":"Stadt"},"district":{"key":"15091","name":"Wittenberg","type":"Landkreis"},"federalState":{"key":"15","name":"Sachsen-Anhalt"}},{"name":"Jessener Str.","postalCode":"06895","locality":"Zahna-Elster","municipality":{"key":"15091391","name":"Zahna-Elster, Stadt","type":"Stadt"},"district":{"key":"15091","name":"Wittenberg","type":"Landkreis"},"federalState":{"key":"15","name":"Sachsen-Anhalt"}},{"name":"Josef-Empl-Str.","postalCode":"06895","locality":"Zahna-Elster","municipality":{"key":"15091391","name":"Zahna-Elster, Stadt","type":"Stadt"},"district":{"key":"15091","name":"Wittenberg","type":"Landkreis"},"federalState":{"key":"15","name":"Sachsen-Anhalt"}},{"name":"Jüterboger Str.","postalCode":"06895","locality":"Zahna-Elster","municipality":{"key":"15091391","name":"Zahna-Elster, Stadt","type":"Stadt"},"district":{"key":"15091","name":"Wittenberg","type":"Landkreis"},"federalState":{"key":"15","name":"Sachsen-Anhalt"}},{"name":"Karlstr.","postalCode":"06895","locality":"Zahna-Elster","municipality":{"key":"15091391","name":"Zahna-Elster, Stadt","type":"Stadt"},"district":{"key":"15091","name":"Wittenberg","type":"Landkreis"},"federalState":{"key":"15","name":"Sachsen-Anhalt"}},{"name":"Kirchplatz","postalCode":"06895","locality":"Zahna-Elster","municipality":{"key":"15091391","name":"Zahna-Elster, Stadt","type":"Stadt"},"district":{"key":"15091","name":"Wittenberg","type":"Landkreis"},"federalState":{"key":"15","name":"Sachsen-Anhalt"}},{"name":"Kirchweg","postalCode":"06895","locality":"Zahna-Elster","municipality":{"key":"15091391","name":"Zahna-Elster, Stadt","type":"Stadt"},"district":{"key":"15091","name":"Wittenberg","type":"Landkreis"},"federalState":{"key":"15","name":"Sachsen-Anhalt"}},{"name":"Klebitzer Dorfstr.","postalCode":"06895","locality":"Zahna-Elster","municipality":{"key":"15091391","name":"Zahna-Elster, Stadt","type":"Stadt"},"district":{"key":"15091","name":"Wittenberg","type":"Landkreis"},"federalState":{"key":"15","name":"Sachsen-Anhalt"}},{"name":"Klebitzer Str.","postalCode":"06895","locality":"Zahna-Elster","municipality":{"key":"15091391","name":"Zahna-Elster, Stadt","type":"Stadt"},"district":{"key":"15091","name":"Wittenberg","type":"Landkreis"},"federalState":{"key":"15","name":"Sachsen-Anhalt"}},{"name":"Königsstr.","postalCode":"06895","locality":"Zahna-Elster","municipality":{"key":"15091391","name":"Zahna-Elster, Stadt","type":"Stadt"},"district":{"key":"15091","name":"Wittenberg","type":"Landkreis"},"federalState":{"key":"15","name":"Sachsen-Anhalt"}},{"name":"Köpnicker Weg","postalCode":"06895","locality":"Zahna-Elster","municipality":{"key":"15091391","name":"Zahna-Elster, Stadt","type":"Stadt"},"district":{"key":"15091","name":"Wittenberg","type":"Landkreis"},"federalState":{"key":"15","name":"Sachsen-Anhalt"}},{"name":"Kreuzstr.","postalCode":"06895","locality":"Zahna-Elster","municipality":{"key":"15091391","name":"Zahna-Elster, Stadt","type":"Stadt"},"district":{"key":"15091","name":"Wittenberg","type":"Landkreis"},"federalState":{"key":"15","name":"Sachsen-Anhalt"}},{"name":"Kropstädter Str.","postalCode":"06895","locality":"Zahna-Elster","municipality":{"key":"15091391","name":"Zahna-Elster, Stadt","type":"Stadt"},"district":{"key":"15091","name":"Wittenberg","type":"Landkreis"},"federalState":{"key":"15","name":"Sachsen-Anhalt"}},{"name":"Külso","postalCode":"06895","locality":"Zahna-Elster","municipality":{"key":"15091391","name":"Zahna-Elster, Stadt","type":"Stadt"},"district":{"key":"15091","name":"Wittenberg","type":"Landkreis"},"federalState":{"key":"15","name":"Sachsen-Anhalt"}},{"name":"Külsoer Str.","postalCode":"06895","locality":"Zahna-Elster","municipality":{"key":"15091391","name":"Zahna-Elster, Stadt","type":"Stadt"},"district":{"key":"15091","name":"Wittenberg","type":"Landkreis"},"federalState":{"key":"15","name":"Sachsen-Anhalt"}},{"name":"Külsoer Weg","postalCode":"06895","locality":"Zahna-Elster","municipality":{"key":"15091391","name":"Zahna-Elster, Stadt","type":"Stadt"},"district":{"key":"15091","name":"Wittenberg","type":"Landkreis"},"federalState":{"key":"15","name":"Sachsen-Anhalt"}},{"name":"Kurze Str.","postalCode":"06895","locality":"Zahna-Elster","municipality":{"key":"15091391","name":"Zahna-Elster, Stadt","type":"Stadt"},"district":{"key":"15091","name":"Wittenberg","type":"Landkreis"},"federalState":{"key":"15","name":"Sachsen-Anhalt"}},{"name":"Leetza","postalCode":"06895","locality":"Zahna-Elster","municipality":{"key":"15091391","name":"Zahna-Elster, Stadt","type":"Stadt"},"district":{"key":"15091","name":"Wittenberg","type":"Landkreis"},"federalState":{"key":"15","name":"Sachsen-Anhalt"}},{"name":"Lehmkeitenweg","postalCode":"06895","locality":"Zahna-Elster","municipality":{"key":"15091391","name":"Zahna-Elster, Stadt","type":"Stadt"},"district":{"key":"15091","name":"Wittenberg","type":"Landkreis"},"federalState":{"key":"15","name":"Sachsen-Anhalt"}},{"name":"Lindenplatz","postalCode":"06895","locality":"Zahna-Elster","municipality":{"key":"15091391","name":"Zahna-Elster, Stadt","type":"Stadt"},"district":{"key":"15091","name":"Wittenberg","type":"Landkreis"},"federalState":{"key":"15","name":"Sachsen-Anhalt"}},{"name":"Lindenstr.","postalCode":"06895","locality":"Zahna-Elster","municipality":{"key":"15091391","name":"Zahna-Elster, Stadt","type":"Stadt"},"district":{"key":"15091","name":"Wittenberg","type":"Landkreis"},"federalState":{"key":"15","name":"Sachsen-Anhalt"}},{"name":"Lucas-Cranach-Str.","postalCode":"06895","locality":"Zahna-Elster","municipality":{"key":"15091391","name":"Zahna-Elster, Stadt","type":"Stadt"},"district":{"key":"15091","name":"Wittenberg","type":"Landkreis"},"federalState":{"key":"15","name":"Sachsen-Anhalt"}},{"name":"Markt","postalCode":"06895","locality":"Zahna-Elster","municipality":{"key":"15091391","name":"Zahna-Elster, Stadt","type":"Stadt"},"district":{"key":"15091","name":"Wittenberg","type":"Landkreis"},"federalState":{"key":"15","name":"Sachsen-Anhalt"}},{"name":"Martin-Luther-Str.","postalCode":"06895","locality":"Zahna-Elster","municipality":{"key":"15091391","name":"Zahna-Elster, Stadt","type":"Stadt"},"district":{"key":"15091","name":"Wittenberg","type":"Landkreis"},"federalState":{"key":"15","name":"Sachsen-Anhalt"}},{"name":"Meltendorf","postalCode":"06895","locality":"Zahna-Elster","municipality":{"key":"15091391","name":"Zahna-Elster, Stadt","type":"Stadt"},"district":{"key":"15091","name":"Wittenberg","type":"Landkreis"},"federalState":{"key":"15","name":"Sachsen-Anhalt"}},{"name":"Meltendorfer Str.","postalCode":"06895","locality":"Zahna-Elster","municipality":{"key":"15091391","name":"Zahna-Elster, Stadt","type":"Stadt"},"district":{"key":"15091","name":"Wittenberg","type":"Landkreis"},"federalState":{"key":"15","name":"Sachsen-Anhalt"}},{"name":"Michael-Kohlhaas-Str.","postalCode":"06895","locality":"Zahna-Elster","municipality":{"key":"15091391","name":"Zahna-Elster, Stadt","type":"Stadt"},"district":{"key":"15091","name":"Wittenberg","type":"Landkreis"},"federalState":{"key":"15","name":"Sachsen-Anhalt"}},{"name":"Mittelstr.","postalCode":"06895","locality":"Zahna-Elster","municipality":{"key":"15091391","name":"Zahna-Elster, Stadt","type":"Stadt"},"district":{"key":"15091","name":"Wittenberg","type":"Landkreis"},"federalState":{"key":"15","name":"Sachsen-Anhalt"}},{"name":"Molkereistr.","postalCode":"06895","locality":"Zahna-Elster","municipality":{"key":"15091391","name":"Zahna-Elster, Stadt","type":"Stadt"},"district":{"key":"15091","name":"Wittenberg","type":"Landkreis"},"federalState":{"key":"15","name":"Sachsen-Anhalt"}},{"name":"Mühlenstr.","postalCode":"06895","locality":"Zahna-Elster","municipality":{"key":"15091391","name":"Zahna-Elster, Stadt","type":"Stadt"},"district":{"key":"15091","name":"Wittenberg","type":"Landkreis"},"federalState":{"key":"15","name":"Sachsen-Anhalt"}},{"name":"Neuer Weg","postalCode":"06895","locality":"Zahna-Elster","municipality":{"key":"15091391","name":"Zahna-Elster, Stadt","type":"Stadt"},"district":{"key":"15091","name":"Wittenberg","type":"Landkreis"},"federalState":{"key":"15","name":"Sachsen-Anhalt"}},{"name":"Neue Str.","postalCode":"06895","locality":"Zahna-Elster","municipality":{"key":"15091391","name":"Zahna-Elster, Stadt","type":"Stadt"},"district":{"key":"15091","name":"Wittenberg","type":"Landkreis"},"federalState":{"key":"15","name":"Sachsen-Anhalt"}},{"name":"Neustr.","postalCode":"06895","locality":"Zahna-Elster","municipality":{"key":"15091391","name":"Zahna-Elster, Stadt","type":"Stadt"},"district":{"key":"15091","name":"Wittenberg","type":"Landkreis"},"federalState":{"key":"15","name":"Sachsen-Anhalt"}},{"name":"Nordstr.","postalCode":"06895","locality":"Zahna-Elster","municipality":{"key":"15091391","name":"Zahna-Elster, Stadt","type":"Stadt"},"district":{"key":"15091","name":"Wittenberg","type":"Landkreis"},"federalState":{"key":"15","name":"Sachsen-Anhalt"}},{"name":"Obere Linden","postalCode":"06895","locality":"Zahna-Elster","municipality":{"key":"15091391","name":"Zahna-Elster, Stadt","type":"Stadt"},"district":{"key":"15091","name":"Wittenberg","type":"Landkreis"},"federalState":{"key":"15","name":"Sachsen-Anhalt"}},{"name":"Oststr.","postalCode":"06895","locality":"Zahna-Elster","municipality":{"key":"15091391","name":"Zahna-Elster, Stadt","type":"Stadt"},"district":{"key":"15091","name":"Wittenberg","type":"Landkreis"},"federalState":{"key":"15","name":"Sachsen-Anhalt"}},{"name":"Ottmannsdorfer Str.","postalCode":"06895","locality":"Zahna-Elster","municipality":{"key":"15091391","name":"Zahna-Elster, Stadt","type":"Stadt"},"district":{"key":"15091","name":"Wittenberg","type":"Landkreis"},"federalState":{"key":"15","name":"Sachsen-Anhalt"}},{"name":"Parkstr.","postalCode":"06895","locality":"Zahna-Elster","municipality":{"key":"15091391","name":"Zahna-Elster, Stadt","type":"Stadt"},"district":{"key":"15091","name":"Wittenberg","type":"Landkreis"},"federalState":{"key":"15","name":"Sachsen-Anhalt"}},{"name":"Platz der Jugend","postalCode":"06895","locality":"Zahna-Elster","municipality":{"key":"15091391","name":"Zahna-Elster, Stadt","type":"Stadt"},"district":{"key":"15091","name":"Wittenberg","type":"Landkreis"},"federalState":{"key":"15","name":"Sachsen-Anhalt"}},{"name":"Postweg","postalCode":"06895","locality":"Zahna-Elster","municipality":{"key":"15091391","name":"Zahna-Elster, Stadt","type":"Stadt"},"district":{"key":"15091","name":"Wittenberg","type":"Landkreis"},"federalState":{"key":"15","name":"Sachsen-Anhalt"}},{"name":"Prühlitz","postalCode":"06895","locality":"Zahna-Elster","municipality":{"key":"15091391","name":"Zahna-Elster, Stadt","type":"Stadt"},"district":{"key":"15091","name":"Wittenberg","type":"Landkreis"},"federalState":{"key":"15","name":"Sachsen-Anhalt"}},{"name":"Prühlitzer Str.","postalCode":"06895","locality":"Zahna-Elster","municipality":{"key":"15091391","name":"Zahna-Elster, Stadt","type":"Stadt"},"district":{"key":"15091","name":"Wittenberg","type":"Landkreis"},"federalState":{"key":"15","name":"Sachsen-Anhalt"}},{"name":"Querstr.","postalCode":"06895","locality":"Zahna-Elster","municipality":{"key":"15091391","name":"Zahna-Elster, Stadt","type":"Stadt"},"district":{"key":"15091","name":"Wittenberg","type":"Landkreis"},"federalState":{"key":"15","name":"Sachsen-Anhalt"}},{"name":"Rahnsdorfer Lindenstr.","postalCode":"06895","locality":"Zahna-Elster","municipality":{"key":"15091391","name":"Zahna-Elster, Stadt","type":"Stadt"},"district":{"key":"15091","name":"Wittenberg","type":"Landkreis"},"federalState":{"key":"15","name":"Sachsen-Anhalt"}},{"name":"Rahnsdorfer Str.","postalCode":"06895","locality":"Zahna-Elster","municipality":{"key":"15091391","name":"Zahna-Elster, Stadt","type":"Stadt"},"district":{"key":"15091","name":"Wittenberg","type":"Landkreis"},"federalState":{"key":"15","name":"Sachsen-Anhalt"}},{"name":"Raßdorf","postalCode":"06895","locality":"Zahna-Elster","municipality":{"key":"15091391","name":"Zahna-Elster, Stadt","type":"Stadt"},"district":{"key":"15091","name":"Wittenberg","type":"Landkreis"},"federalState":{"key":"15","name":"Sachsen-Anhalt"}},{"name":"Rathausstr.","postalCode":"06895","locality":"Zahna-Elster","municipality":{"key":"15091391","name":"Zahna-Elster, Stadt","type":"Stadt"},"district":{"key":"15091","name":"Wittenberg","type":"Landkreis"},"federalState":{"key":"15","name":"Sachsen-Anhalt"}},{"name":"Rosenweg","postalCode":"06895","locality":"Zahna-Elster","municipality":{"key":"15091391","name":"Zahna-Elster, Stadt","type":"Stadt"},"district":{"key":"15091","name":"Wittenberg","type":"Landkreis"},"federalState":{"key":"15","name":"Sachsen-Anhalt"}},{"name":"Rote Mühle","postalCode":"06895","locality":"Zahna-Elster","municipality":{"key":"15091391","name":"Zahna-Elster, Stadt","type":"Stadt"},"district":{"key":"15091","name":"Wittenberg","type":"Landkreis"},"federalState":{"key":"15","name":"Sachsen-Anhalt"}},{"name":"Saydaer Weg","postalCode":"06895","locality":"Zahna-Elster","municipality":{"key":"15091391","name":"Zahna-Elster, Stadt","type":"Stadt"},"district":{"key":"15091","name":"Wittenberg","type":"Landkreis"},"federalState":{"key":"15","name":"Sachsen-Anhalt"}},{"name":"Schiffsmühle","postalCode":"06895","locality":"Zahna-Elster","municipality":{"key":"15091391","name":"Zahna-Elster, Stadt","type":"Stadt"},"district":{"key":"15091","name":"Wittenberg","type":"Landkreis"},"federalState":{"key":"15","name":"Sachsen-Anhalt"}},{"name":"Schönefelder Str.","postalCode":"06895","locality":"Zahna-Elster","municipality":{"key":"15091391","name":"Zahna-Elster, Stadt","type":"Stadt"},"district":{"key":"15091","name":"Wittenberg","type":"Landkreis"},"federalState":{"key":"15","name":"Sachsen-Anhalt"}},{"name":"Schönefelder Weg","postalCode":"06895","locality":"Zahna-Elster","municipality":{"key":"15091391","name":"Zahna-Elster, Stadt","type":"Stadt"},"district":{"key":"15091","name":"Wittenberg","type":"Landkreis"},"federalState":{"key":"15","name":"Sachsen-Anhalt"}},{"name":"Schräger Weg","postalCode":"06895","locality":"Zahna-Elster","municipality":{"key":"15091391","name":"Zahna-Elster, Stadt","type":"Stadt"},"district":{"key":"15091","name":"Wittenberg","type":"Landkreis"},"federalState":{"key":"15","name":"Sachsen-Anhalt"}},{"name":"Schulstr.","postalCode":"06895","locality":"Zahna-Elster","municipality":{"key":"15091391","name":"Zahna-Elster, Stadt","type":"Stadt"},"district":{"key":"15091","name":"Wittenberg","type":"Landkreis"},"federalState":{"key":"15","name":"Sachsen-Anhalt"}},{"name":"Schützenweg","postalCode":"06895","locality":"Zahna-Elster","municipality":{"key":"15091391","name":"Zahna-Elster, Stadt","type":"Stadt"},"district":{"key":"15091","name":"Wittenberg","type":"Landkreis"},"federalState":{"key":"15","name":"Sachsen-Anhalt"}},{"name":"Seydaer Str.","postalCode":"06895","locality":"Zahna-Elster","municipality":{"key":"15091391","name":"Zahna-Elster, Stadt","type":"Stadt"},"district":{"key":"15091","name":"Wittenberg","type":"Landkreis"},"federalState":{"key":"15","name":"Sachsen-Anhalt"}},{"name":"Seydaer Weg","postalCode":"06895","locality":"Zahna-Elster","municipality":{"key":"15091391","name":"Zahna-Elster, Stadt","type":"Stadt"},"district":{"key":"15091","name":"Wittenberg","type":"Landkreis"},"federalState":{"key":"15","name":"Sachsen-Anhalt"}},{"name":"Siedlung","postalCode":"06895","locality":"Zahna-Elster","municipality":{"key":"15091391","name":"Zahna-Elster, Stadt","type":"Stadt"},"district":{"key":"15091","name":"Wittenberg","type":"Landkreis"},"federalState":{"key":"15","name":"Sachsen-Anhalt"}},{"name":"Siedlungsstr.","postalCode":"06895","locality":"Zahna-Elster","municipality":{"key":"15091391","name":"Zahna-Elster, Stadt","type":"Stadt"},"district":{"key":"15091","name":"Wittenberg","type":"Landkreis"},"federalState":{"key":"15","name":"Sachsen-Anhalt"}},{"name":"Sportplatz","postalCode":"06895","locality":"Zahna-Elster","municipality":{"key":"15091391","name":"Zahna-Elster, Stadt","type":"Stadt"},"district":{"key":"15091","name":"Wittenberg","type":"Landkreis"},"federalState":{"key":"15","name":"Sachsen-Anhalt"}},{"name":"Südstr.","postalCode":"06895","locality":"Zahna-Elster","municipality":{"key":"15091391","name":"Zahna-Elster, Stadt","type":"Stadt"},"district":{"key":"15091","name":"Wittenberg","type":"Landkreis"},"federalState":{"key":"15","name":"Sachsen-Anhalt"}},{"name":"Tannenweg","postalCode":"06895","locality":"Zahna-Elster","municipality":{"key":"15091391","name":"Zahna-Elster, Stadt","type":"Stadt"},"district":{"key":"15091","name":"Wittenberg","type":"Landkreis"},"federalState":{"key":"15","name":"Sachsen-Anhalt"}},{"name":"Thälmannstr.","postalCode":"06895","locality":"Zahna-Elster","municipality":{"key":"15091391","name":"Zahna-Elster, Stadt","type":"Stadt"},"district":{"key":"15091","name":"Wittenberg","type":"Landkreis"},"federalState":{"key":"15","name":"Sachsen-Anhalt"}},{"name":"Töpferstr.","postalCode":"06895","locality":"Zahna-Elster","municipality":{"key":"15091391","name":"Zahna-Elster, Stadt","type":"Stadt"},"district":{"key":"15091","name":"Wittenberg","type":"Landkreis"},"federalState":{"key":"15","name":"Sachsen-Anhalt"}},{"name":"Triftstr.","postalCode":"06895","locality":"Zahna-Elster","municipality":{"key":"15091391","name":"Zahna-Elster, Stadt","type":"Stadt"},"district":{"key":"15091","name":"Wittenberg","type":"Landkreis"},"federalState":{"key":"15","name":"Sachsen-Anhalt"}},{"name":"Umspannwerk","postalCode":"06895","locality":"Zahna-Elster","municipality":{"key":"15091391","name":"Zahna-Elster, Stadt","type":"Stadt"},"district":{"key":"15091","name":"Wittenberg","type":"Landkreis"},"federalState":{"key":"15","name":"Sachsen-Anhalt"}},{"name":"Untere Linden","postalCode":"06895","locality":"Zahna-Elster","municipality":{"key":"15091391","name":"Zahna-Elster, Stadt","type":"Stadt"},"district":{"key":"15091","name":"Wittenberg","type":"Landkreis"},"federalState":{"key":"15","name":"Sachsen-Anhalt"}},{"name":"Unterer Schädweg","postalCode":"06895","locality":"Zahna-Elster","municipality":{"key":"15091391","name":"Zahna-Elster, Stadt","type":"Stadt"},"district":{"key":"15091","name":"Wittenberg","type":"Landkreis"},"federalState":{"key":"15","name":"Sachsen-Anhalt"}},{"name":"Vogelgesang","postalCode":"06895","locality":"Zahna-Elster","municipality":{"key":"15091391","name":"Zahna-Elster, Stadt","type":"Stadt"},"district":{"key":"15091","name":"Wittenberg","type":"Landkreis"},"federalState":{"key":"15","name":"Sachsen-Anhalt"}},{"name":"Waldstr.","postalCode":"06895","locality":"Zahna-Elster","municipality":{"key":"15091391","name":"Zahna-Elster, Stadt","type":"Stadt"},"district":{"key":"15091","name":"Wittenberg","type":"Landkreis"},"federalState":{"key":"15","name":"Sachsen-Anhalt"}},{"name":"Wartenburger Str.","postalCode":"06895","locality":"Zahna-Elster","municipality":{"key":"15091391","name":"Zahna-Elster, Stadt","type":"Stadt"},"district":{"key":"15091","name":"Wittenberg","type":"Landkreis"},"federalState":{"key":"15","name":"Sachsen-Anhalt"}},{"name":"Wendeschleife","postalCode":"06895","locality":"Zahna-Elster","municipality":{"key":"15091391","name":"Zahna-Elster, Stadt","type":"Stadt"},"district":{"key":"15091","name":"Wittenberg","type":"Landkreis"},"federalState":{"key":"15","name":"Sachsen-Anhalt"}},{"name":"Westendstr.","postalCode":"06895","locality":"Zahna-Elster","municipality":{"key":"15091391","name":"Zahna-Elster, Stadt","type":"Stadt"},"district":{"key":"15091","name":"Wittenberg","type":"Landkreis"},"federalState":{"key":"15","name":"Sachsen-Anhalt"}},{"name":"Wiesenbachstr.","postalCode":"06895","locality":"Zahna-Elster","municipality":{"key":"15091391","name":"Zahna-Elster, Stadt","type":"Stadt"},"district":{"key":"15091","name":"Wittenberg","type":"Landkreis"},"federalState":{"key":"15","name":"Sachsen-Anhalt"}},{"name":"Wiesenstr.","postalCode":"06895","locality":"Zahna-Elster","municipality":{"key":"15091391","name":"Zahna-Elster, Stadt","type":"Stadt"},"district":{"key":"15091","name":"Wittenberg","type":"Landkreis"},"federalState":{"key":"15","name":"Sachsen-Anhalt"}},{"name":"Wilhelm-Pieck-Str.","postalCode":"06895","locality":"Zahna-Elster","municipality":{"key":"15091391","name":"Zahna-Elster, Stadt","type":"Stadt"},"district":{"key":"15091","name":"Wittenberg","type":"Landkreis"},"federalState":{"key":"15","name":"Sachsen-Anhalt"}},{"name":"Wilhelmstr.","postalCode":"06895","locality":"Zahna-Elster","municipality":{"key":"15091391","name":"Zahna-Elster, Stadt","type":"Stadt"},"district":{"key":"15091","name":"Wittenberg","type":"Landkreis"},"federalState":{"key":"15","name":"Sachsen-Anhalt"}},{"name":"Wittenberger Allee","postalCode":"06895","locality":"Zahna-Elster","municipality":{"key":"15091391","name":"Zahna-Elster, Stadt","type":"Stadt"},"district":{"key":"15091","name":"Wittenberg","type":"Landkreis"},"federalState":{"key":"15","name":"Sachsen-Anhalt"}},{"name":"Wittenberger Str.","postalCode":"06895","locality":"Zahna-Elster","municipality":{"key":"15091391","name":"Zahna-Elster, Stadt","type":"Stadt"},"district":{"key":"15091","name":"Wittenberg","type":"Landkreis"},"federalState":{"key":"15","name":"Sachsen-Anhalt"}},{"name":"Wolfswinkel","postalCode":"06895","locality":"Zahna-Elster","municipality":{"key":"15091391","name":"Zahna-Elster, Stadt","type":"Stadt"},"district":{"key":"15091","name":"Wittenberg","type":"Landkreis"},"federalState":{"key":"15","name":"Sachsen-Anhalt"}},{"name":"Woltersdorf","postalCode":"06895","locality":"Zahna-Elster","municipality":{"key":"15091391","name":"Zahna-Elster, Stadt","type":"Stadt"},"district":{"key":"15091","name":"Wittenberg","type":"Landkreis"},"federalState":{"key":"15","name":"Sachsen-Anhalt"}},{"name":"Woltersdorfer Str.","postalCode":"06895","locality":"Zahna-Elster","municipality":{"key":"15091391","name":"Zahna-Elster, Stadt","type":"Stadt"},"district":{"key":"15091","name":"Wittenberg","type":"Landkreis"},"federalState":{"key":"15","name":"Sachsen-Anhalt"}},{"name":"Wüstemarker Weg","postalCode":"06895","locality":"Zahna-Elster","municipality":{"key":"15091391","name":"Zahna-Elster, Stadt","type":"Stadt"},"district":{"key":"15091","name":"Wittenberg","type":"Landkreis"},"federalState":{"key":"15","name":"Sachsen-Anhalt"}},{"name":"Zahnaer Gartenstr.","postalCode":"06895","locality":"Zahna-Elster","municipality":{"key":"15091391","name":"Zahna-Elster, Stadt","type":"Stadt"},"district":{"key":"15091","name":"Wittenberg","type":"Landkreis"},"federalState":{"key":"15","name":"Sachsen-Anhalt"}},{"name":"Zahnaer Landstr.","postalCode":"06895","locality":"Zahna-Elster","municipality":{"key":"15091391","name":"Zahna-Elster, Stadt","type":"Stadt"},"district":{"key":"15091","name":"Wittenberg","type":"Landkreis"},"federalState":{"key":"15","name":"Sachsen-Anhalt"}},{"name":"Zahnaer Str.","postalCode":"06895","locality":"Zahna-Elster","municipality":{"key":"15091391","name":"Zahna-Elster, Stadt","type":"Stadt"},"district":{"key":"15091","name":"Wittenberg","type":"Landkreis"},"federalState":{"key":"15","name":"Sachsen-Anhalt"}},{"name":"Zallmsdorf","postalCode":"06895","locality":"Zahna-Elster","municipality":{"key":"15091391","name":"Zahna-Elster, Stadt","type":"Stadt"},"district":{"key":"15091","name":"Wittenberg","type":"Landkreis"},"federalState":{"key":"15","name":"Sachsen-Anhalt"}},{"name":"Zallmsdorfer Str.","postalCode":"06895","locality":"Zahna-Elster","municipality":{"key":"15091391","name":"Zahna-Elster, Stadt","type":"Stadt"},"district":{"key":"15091","name":"Wittenberg","type":"Landkreis"},"federalState":{"key":"15","name":"Sachsen-Anhalt"}},{"name":"Zemnick","postalCode":"06895","locality":"Zahna-Elster","municipality":{"key":"15091391","name":"Zahna-Elster, Stadt","type":"Stadt"},"district":{"key":"15091","name":"Wittenberg","type":"Landkreis"},"federalState":{"key":"15","name":"Sachsen-Anhalt"}},{"name":"Zeppelinstr.","postalCode":"06895","locality":"Zahna-Elster","municipality":{"key":"15091391","name":"Zahna-Elster, Stadt","type":"Stadt"},"district":{"key":"15091","name":"Wittenberg","type":"Landkreis"},"federalState":{"key":"15","name":"Sachsen-Anhalt"}},{"name":"Zörnigaller Landstr.","postalCode":"06895","locality":"Zahna-Elster","municipality":{"key":"15091391","name":"Zahna-Elster, Stadt","type":"Stadt"},"district":{"key":"15091","name":"Wittenberg","type":"Landkreis"},"federalState":{"key":"15","name":"Sachsen-Anhalt"}},{"name":"Zörnigaller Str.","postalCode":"06895","locality":"Zahna-Elster","municipality":{"key":"15091391","name":"Zahna-Elster, Stadt","type":"Stadt"},"district":{"key":"15091","name":"Wittenberg","type":"Landkreis"},"federalState":{"key":"15","name":"Sachsen-Anhalt"}},{"name":"Zufuhrstr.","postalCode":"06895","locality":"Zahna-Elster","municipality":{"key":"15091391","name":"Zahna-Elster, Stadt","type":"Stadt"},"district":{"key":"15091","name":"Wittenberg","type":"Landkreis"},"federalState":{"key":"15","name":"Sachsen-Anhalt"}},{"name":"Zur Elbe","postalCode":"06895","locality":"Zahna-Elster","municipality":{"key":"15091391","name":"Zahna-Elster, Stadt","type":"Stadt"},"district":{"key":"15091","name":"Wittenberg","type":"Landkreis"},"federalState":{"key":"15","name":"Sachsen-Anhalt"}},]