[{"name":"Alte Steige","postalCode":"73108","locality":"Gammelshausen","municipality":{"key":"08117023","name":"Gammelshausen","type":"Kreisangehörige_Gemeinde"},"district":{"key":"08117","name":"Göppingen","type":"Landkreis"},"federalState":{"key":"08","name":"Baden-Württemberg"}},{"name":"Birkenweg","postalCode":"73108","locality":"Gammelshausen","municipality":{"key":"08117023","name":"Gammelshausen","type":"Kreisangehörige_Gemeinde"},"district":{"key":"08117","name":"Göppingen","type":"Landkreis"},"federalState":{"key":"08","name":"Baden-Württemberg"}},{"name":"Blumenstr.","postalCode":"73108","locality":"Gammelshausen","municipality":{"key":"08117023","name":"Gammelshausen","type":"Kreisangehörige_Gemeinde"},"district":{"key":"08117","name":"Göppingen","type":"Landkreis"},"federalState":{"key":"08","name":"Baden-Württemberg"}},{"name":"Boßlerstr.","postalCode":"73108","locality":"Gammelshausen","municipality":{"key":"08117023","name":"Gammelshausen","type":"Kreisangehörige_Gemeinde"},"district":{"key":"08117","name":"Göppingen","type":"Landkreis"},"federalState":{"key":"08","name":"Baden-Württemberg"}},{"name":"Buchenstr.","postalCode":"73108","locality":"Gammelshausen","municipality":{"key":"08117023","name":"Gammelshausen","type":"Kreisangehörige_Gemeinde"},"district":{"key":"08117","name":"Göppingen","type":"Landkreis"},"federalState":{"key":"08","name":"Baden-Württemberg"}},{"name":"Buchenwaldweg","postalCode":"73108","locality":"Gammelshausen","municipality":{"key":"08117023","name":"Gammelshausen","type":"Kreisangehörige_Gemeinde"},"district":{"key":"08117","name":"Göppingen","type":"Landkreis"},"federalState":{"key":"08","name":"Baden-Württemberg"}},{"name":"Carl-Benz-Str.","postalCode":"73037","locality":"Göppingen","municipality":{"key":"08117026","name":"Göppingen, Stadt","type":"Große_Kreisstadt"},"district":{"key":"08117","name":"Göppingen","type":"Landkreis"},"federalState":{"key":"08","name":"Baden-Württemberg"}},{"name":"Carl-Hermann-Gaiser-Str.","postalCode":"73033","locality":"Göppingen","municipality":{"key":"08117026","name":"Göppingen, Stadt","type":"Große_Kreisstadt"},"district":{"key":"08117","name":"Göppingen","type":"Landkreis"},"federalState":{"key":"08","name":"Baden-Württemberg"}},{"name":"Carl-Martin-Weg","postalCode":"73037","locality":"Göppingen","municipality":{"key":"08117026","name":"Göppingen, Stadt","type":"Große_Kreisstadt"},"district":{"key":"08117","name":"Göppingen","type":"Landkreis"},"federalState":{"key":"08","name":"Baden-Württemberg"}},{"name":"Cäsar-Flaischlen-Str.","postalCode":"73033","locality":"Göppingen","municipality":{"key":"08117026","name":"Göppingen, Stadt","type":"Große_Kreisstadt"},"district":{"key":"08117","name":"Göppingen","type":"Landkreis"},"federalState":{"key":"08","name":"Baden-Württemberg"}},{"name":"Charlottenstr.","postalCode":"73037","locality":"Göppingen","municipality":{"key":"08117026","name":"Göppingen, Stadt","type":"Große_Kreisstadt"},"district":{"key":"08117","name":"Göppingen","type":"Landkreis"},"federalState":{"key":"08","name":"Baden-Württemberg"}},{"name":"Christian-Grüninger-Str.","postalCode":"73033","locality":"Göppingen","municipality":{"key":"08117026","name":"Göppingen, Stadt","type":"Große_Kreisstadt"},"district":{"key":"08117","name":"Göppingen","type":"Landkreis"},"federalState":{"key":"08","name":"Baden-Württemberg"}},{"name":"Christian-Grüninger-Str.","postalCode":"73035","locality":"Göppingen","municipality":{"key":"08117026","name":"Göppingen, Stadt","type":"Große_Kreisstadt"},"district":{"key":"08117","name":"Göppingen","type":"Landkreis"},"federalState":{"key":"08","name":"Baden-Württemberg"}},{"name":"Christophstr.","postalCode":"73033","locality":"Göppingen","municipality":{"key":"08117026","name":"Göppingen, Stadt","type":"Große_Kreisstadt"},"district":{"key":"08117","name":"Göppingen","type":"Landkreis"},"federalState":{"key":"08","name":"Baden-Württemberg"}},{"name":"Cranachweg","postalCode":"73033","locality":"Göppingen","municipality":{"key":"08117026","name":"Göppingen, Stadt","type":"Große_Kreisstadt"},"district":{"key":"08117","name":"Göppingen","type":"Landkreis"},"federalState":{"key":"08","name":"Baden-Württemberg"}},{"name":"Dürnauer Str.","postalCode":"73108","locality":"Gammelshausen","municipality":{"key":"08117023","name":"Gammelshausen","type":"Kreisangehörige_Gemeinde"},"district":{"key":"08117","name":"Göppingen","type":"Landkreis"},"federalState":{"key":"08","name":"Baden-Württemberg"}},{"name":"Eichenstr.","postalCode":"73108","locality":"Gammelshausen","municipality":{"key":"08117023","name":"Gammelshausen","type":"Kreisangehörige_Gemeinde"},"district":{"key":"08117","name":"Göppingen","type":"Landkreis"},"federalState":{"key":"08","name":"Baden-Württemberg"}},{"name":"Erbisweg","postalCode":"73108","locality":"Gammelshausen","municipality":{"key":"08117023","name":"Gammelshausen","type":"Kreisangehörige_Gemeinde"},"district":{"key":"08117","name":"Göppingen","type":"Landkreis"},"federalState":{"key":"08","name":"Baden-Württemberg"}},{"name":"Erlenweg","postalCode":"73108","locality":"Gammelshausen","municipality":{"key":"08117023","name":"Gammelshausen","type":"Kreisangehörige_Gemeinde"},"district":{"key":"08117","name":"Göppingen","type":"Landkreis"},"federalState":{"key":"08","name":"Baden-Württemberg"}},{"name":"Eschenbacher Str.","postalCode":"73108","locality":"Gammelshausen","municipality":{"key":"08117023","name":"Gammelshausen","type":"Kreisangehörige_Gemeinde"},"district":{"key":"08117","name":"Göppingen","type":"Landkreis"},"federalState":{"key":"08","name":"Baden-Württemberg"}},{"name":"Eschenweg","postalCode":"73108","locality":"Gammelshausen","municipality":{"key":"08117023","name":"Gammelshausen","type":"Kreisangehörige_Gemeinde"},"district":{"key":"08117","name":"Göppingen","type":"Landkreis"},"federalState":{"key":"08","name":"Baden-Württemberg"}},{"name":"Eugen-Rau-Str.","postalCode":"73108","locality":"Gammelshausen","municipality":{"key":"08117023","name":"Gammelshausen","type":"Kreisangehörige_Gemeinde"},"district":{"key":"08117","name":"Göppingen","type":"Landkreis"},"federalState":{"key":"08","name":"Baden-Württemberg"}},{"name":"Fichtenstr.","postalCode":"73108","locality":"Gammelshausen","municipality":{"key":"08117023","name":"Gammelshausen","type":"Kreisangehörige_Gemeinde"},"district":{"key":"08117","name":"Göppingen","type":"Landkreis"},"federalState":{"key":"08","name":"Baden-Württemberg"}},{"name":"Friedhofstr.","postalCode":"73108","locality":"Gammelshausen","municipality":{"key":"08117023","name":"Gammelshausen","type":"Kreisangehörige_Gemeinde"},"district":{"key":"08117","name":"Göppingen","type":"Landkreis"},"federalState":{"key":"08","name":"Baden-Württemberg"}},{"name":"Frühlingstr.","postalCode":"73108","locality":"Gammelshausen","municipality":{"key":"08117023","name":"Gammelshausen","type":"Kreisangehörige_Gemeinde"},"district":{"key":"08117","name":"Göppingen","type":"Landkreis"},"federalState":{"key":"08","name":"Baden-Württemberg"}},{"name":"Fuchseckstr.","postalCode":"73108","locality":"Gammelshausen","municipality":{"key":"08117023","name":"Gammelshausen","type":"Kreisangehörige_Gemeinde"},"district":{"key":"08117","name":"Göppingen","type":"Landkreis"},"federalState":{"key":"08","name":"Baden-Württemberg"}},{"name":"Gartenstr.","postalCode":"73108","locality":"Gammelshausen","municipality":{"key":"08117023","name":"Gammelshausen","type":"Kreisangehörige_Gemeinde"},"district":{"key":"08117","name":"Göppingen","type":"Landkreis"},"federalState":{"key":"08","name":"Baden-Württemberg"}},{"name":"Haldenweg","postalCode":"73108","locality":"Gammelshausen","municipality":{"key":"08117023","name":"Gammelshausen","type":"Kreisangehörige_Gemeinde"},"district":{"key":"08117","name":"Göppingen","type":"Landkreis"},"federalState":{"key":"08","name":"Baden-Württemberg"}},{"name":"Hauptstr.","postalCode":"73108","locality":"Gammelshausen","municipality":{"key":"08117023","name":"Gammelshausen","type":"Kreisangehörige_Gemeinde"},"district":{"key":"08117","name":"Göppingen","type":"Landkreis"},"federalState":{"key":"08","name":"Baden-Württemberg"}},{"name":"Heininger Str.","postalCode":"73108","locality":"Gammelshausen","municipality":{"key":"08117023","name":"Gammelshausen","type":"Kreisangehörige_Gemeinde"},"district":{"key":"08117","name":"Göppingen","type":"Landkreis"},"federalState":{"key":"08","name":"Baden-Württemberg"}},{"name":"Hofstr.","postalCode":"73108","locality":"Gammelshausen","municipality":{"key":"08117023","name":"Gammelshausen","type":"Kreisangehörige_Gemeinde"},"district":{"key":"08117","name":"Göppingen","type":"Landkreis"},"federalState":{"key":"08","name":"Baden-Württemberg"}},{"name":"Hohenstaufenstr.","postalCode":"73108","locality":"Gammelshausen","municipality":{"key":"08117023","name":"Gammelshausen","type":"Kreisangehörige_Gemeinde"},"district":{"key":"08117","name":"Göppingen","type":"Landkreis"},"federalState":{"key":"08","name":"Baden-Württemberg"}},{"name":"Im Anwand","postalCode":"73108","locality":"Gammelshausen","municipality":{"key":"08117023","name":"Gammelshausen","type":"Kreisangehörige_Gemeinde"},"district":{"key":"08117","name":"Göppingen","type":"Landkreis"},"federalState":{"key":"08","name":"Baden-Württemberg"}},{"name":"Im Enter","postalCode":"73108","locality":"Gammelshausen","municipality":{"key":"08117023","name":"Gammelshausen","type":"Kreisangehörige_Gemeinde"},"district":{"key":"08117","name":"Göppingen","type":"Landkreis"},"federalState":{"key":"08","name":"Baden-Württemberg"}},{"name":"Im Ostern","postalCode":"73108","locality":"Gammelshausen","municipality":{"key":"08117023","name":"Gammelshausen","type":"Kreisangehörige_Gemeinde"},"district":{"key":"08117","name":"Göppingen","type":"Landkreis"},"federalState":{"key":"08","name":"Baden-Württemberg"}},{"name":"In der Breite","postalCode":"73108","locality":"Gammelshausen","municipality":{"key":"08117023","name":"Gammelshausen","type":"Kreisangehörige_Gemeinde"},"district":{"key":"08117","name":"Göppingen","type":"Landkreis"},"federalState":{"key":"08","name":"Baden-Württemberg"}},{"name":"Jägergasse","postalCode":"73037","locality":"Göppingen","municipality":{"key":"08117026","name":"Göppingen, Stadt","type":"Große_Kreisstadt"},"district":{"key":"08117","name":"Göppingen","type":"Landkreis"},"federalState":{"key":"08","name":"Baden-Württemberg"}},{"name":"Jägersteig","postalCode":"73035","locality":"Göppingen","municipality":{"key":"08117026","name":"Göppingen, Stadt","type":"Große_Kreisstadt"},"district":{"key":"08117","name":"Göppingen","type":"Landkreis"},"federalState":{"key":"08","name":"Baden-Württemberg"}},{"name":"Jahnstr.","postalCode":"73037","locality":"Göppingen","municipality":{"key":"08117026","name":"Göppingen, Stadt","type":"Große_Kreisstadt"},"district":{"key":"08117","name":"Göppingen","type":"Landkreis"},"federalState":{"key":"08","name":"Baden-Württemberg"}},{"name":"Jebenhäuser Str.","postalCode":"73033","locality":"Göppingen","municipality":{"key":"08117026","name":"Göppingen, Stadt","type":"Große_Kreisstadt"},"district":{"key":"08117","name":"Göppingen","type":"Landkreis"},"federalState":{"key":"08","name":"Baden-Württemberg"}},{"name":"Jebenhäuser Str.","postalCode":"73035","locality":"Göppingen","municipality":{"key":"08117026","name":"Göppingen, Stadt","type":"Große_Kreisstadt"},"district":{"key":"08117","name":"Göppingen","type":"Landkreis"},"federalState":{"key":"08","name":"Baden-Württemberg"}},{"name":"Jebenhäuser Str.","postalCode":"73037","locality":"Göppingen","municipality":{"key":"08117026","name":"Göppingen, Stadt","type":"Große_Kreisstadt"},"district":{"key":"08117","name":"Göppingen","type":"Landkreis"},"federalState":{"key":"08","name":"Baden-Württemberg"}},{"name":"Johannes-Illig-Str.","postalCode":"73033","locality":"Göppingen","municipality":{"key":"08117026","name":"Göppingen, Stadt","type":"Große_Kreisstadt"},"district":{"key":"08117","name":"Göppingen","type":"Landkreis"},"federalState":{"key":"08","name":"Baden-Württemberg"}},{"name":"Johannes-Scherr-Str.","postalCode":"73033","locality":"Göppingen","municipality":{"key":"08117026","name":"Göppingen, Stadt","type":"Große_Kreisstadt"},"district":{"key":"08117","name":"Göppingen","type":"Landkreis"},"federalState":{"key":"08","name":"Baden-Württemberg"}},{"name":"John-A.-Holbrook-Str.","postalCode":"73037","locality":"Göppingen","municipality":{"key":"08117026","name":"Göppingen, Stadt","type":"Große_Kreisstadt"},"district":{"key":"08117","name":"Göppingen","type":"Landkreis"},"federalState":{"key":"08","name":"Baden-Württemberg"}},{"name":"John-Steinbeck-Str.","postalCode":"73037","locality":"Göppingen","municipality":{"key":"08117026","name":"Göppingen, Stadt","type":"Große_Kreisstadt"},"district":{"key":"08117","name":"Göppingen","type":"Landkreis"},"federalState":{"key":"08","name":"Baden-Württemberg"}},{"name":"Josef-Mühlberger-Weg","postalCode":"73037","locality":"Göppingen","municipality":{"key":"08117026","name":"Göppingen, Stadt","type":"Große_Kreisstadt"},"district":{"key":"08117","name":"Göppingen","type":"Landkreis"},"federalState":{"key":"08","name":"Baden-Württemberg"}},{"name":"Julius-Spieth-Weg","postalCode":"73037","locality":"Göppingen","municipality":{"key":"08117026","name":"Göppingen, Stadt","type":"Große_Kreisstadt"},"district":{"key":"08117","name":"Göppingen","type":"Landkreis"},"federalState":{"key":"08","name":"Baden-Württemberg"}},{"name":"Junkersstr.","postalCode":"73035","locality":"Göppingen","municipality":{"key":"08117026","name":"Göppingen, Stadt","type":"Große_Kreisstadt"},"district":{"key":"08117","name":"Göppingen","type":"Landkreis"},"federalState":{"key":"08","name":"Baden-Württemberg"}},{"name":"Jurastr.","postalCode":"73037","locality":"Göppingen","municipality":{"key":"08117026","name":"Göppingen, Stadt","type":"Große_Kreisstadt"},"district":{"key":"08117","name":"Göppingen","type":"Landkreis"},"federalState":{"key":"08","name":"Baden-Württemberg"}},{"name":"Justinus-Kerner-Str.","postalCode":"73035","locality":"Göppingen","municipality":{"key":"08117026","name":"Göppingen, Stadt","type":"Große_Kreisstadt"},"district":{"key":"08117","name":"Göppingen","type":"Landkreis"},"federalState":{"key":"08","name":"Baden-Württemberg"}},{"name":"Kirchstr.","postalCode":"73108","locality":"Gammelshausen","municipality":{"key":"08117023","name":"Gammelshausen","type":"Kreisangehörige_Gemeinde"},"district":{"key":"08117","name":"Göppingen","type":"Landkreis"},"federalState":{"key":"08","name":"Baden-Württemberg"}},{"name":"Köldweg","postalCode":"73108","locality":"Gammelshausen","municipality":{"key":"08117023","name":"Gammelshausen","type":"Kreisangehörige_Gemeinde"},"district":{"key":"08117","name":"Göppingen","type":"Landkreis"},"federalState":{"key":"08","name":"Baden-Württemberg"}},{"name":"Kornbergstr.","postalCode":"73108","locality":"Gammelshausen","municipality":{"key":"08117023","name":"Gammelshausen","type":"Kreisangehörige_Gemeinde"},"district":{"key":"08117","name":"Göppingen","type":"Landkreis"},"federalState":{"key":"08","name":"Baden-Württemberg"}},{"name":"Lerchenweg","postalCode":"73108","locality":"Gammelshausen","municipality":{"key":"08117023","name":"Gammelshausen","type":"Kreisangehörige_Gemeinde"},"district":{"key":"08117","name":"Göppingen","type":"Landkreis"},"federalState":{"key":"08","name":"Baden-Württemberg"}},{"name":"Lindenstr.","postalCode":"73108","locality":"Gammelshausen","municipality":{"key":"08117023","name":"Gammelshausen","type":"Kreisangehörige_Gemeinde"},"district":{"key":"08117","name":"Göppingen","type":"Landkreis"},"federalState":{"key":"08","name":"Baden-Württemberg"}},{"name":"Lindenweg","postalCode":"73108","locality":"Gammelshausen","municipality":{"key":"08117023","name":"Gammelshausen","type":"Kreisangehörige_Gemeinde"},"district":{"key":"08117","name":"Göppingen","type":"Landkreis"},"federalState":{"key":"08","name":"Baden-Württemberg"}},{"name":"Lotenbergstr.","postalCode":"73108","locality":"Gammelshausen","municipality":{"key":"08117023","name":"Gammelshausen","type":"Kreisangehörige_Gemeinde"},"district":{"key":"08117","name":"Göppingen","type":"Landkreis"},"federalState":{"key":"08","name":"Baden-Württemberg"}},{"name":"Maitiser Str.","postalCode":"73037","locality":"Göppingen","municipality":{"key":"08117026","name":"Göppingen, Stadt","type":"Große_Kreisstadt"},"district":{"key":"08117","name":"Göppingen","type":"Landkreis"},"federalState":{"key":"08","name":"Baden-Württemberg"}},{"name":"Manfred-Wörner-Str.","postalCode":"73037","locality":"Göppingen","municipality":{"key":"08117026","name":"Göppingen, Stadt","type":"Große_Kreisstadt"},"district":{"key":"08117","name":"Göppingen","type":"Landkreis"},"federalState":{"key":"08","name":"Baden-Württemberg"}},{"name":"Manzenstr.","postalCode":"73037","locality":"Göppingen","municipality":{"key":"08117026","name":"Göppingen, Stadt","type":"Große_Kreisstadt"},"district":{"key":"08117","name":"Göppingen","type":"Landkreis"},"federalState":{"key":"08","name":"Baden-Württemberg"}},{"name":"Marbachstr.","postalCode":"73035","locality":"Göppingen","municipality":{"key":"08117026","name":"Göppingen, Stadt","type":"Große_Kreisstadt"},"district":{"key":"08117","name":"Göppingen","type":"Landkreis"},"federalState":{"key":"08","name":"Baden-Württemberg"}},{"name":"Marbachweg","postalCode":"73035","locality":"Göppingen","municipality":{"key":"08117026","name":"Göppingen, Stadt","type":"Große_Kreisstadt"},"district":{"key":"08117","name":"Göppingen","type":"Landkreis"},"federalState":{"key":"08","name":"Baden-Württemberg"}},{"name":"Marderweg","postalCode":"73035","locality":"Göppingen","municipality":{"key":"08117026","name":"Göppingen, Stadt","type":"Große_Kreisstadt"},"district":{"key":"08117","name":"Göppingen","type":"Landkreis"},"federalState":{"key":"08","name":"Baden-Württemberg"}},{"name":"Marienstr.","postalCode":"73035","locality":"Göppingen","municipality":{"key":"08117026","name":"Göppingen, Stadt","type":"Große_Kreisstadt"},"district":{"key":"08117","name":"Göppingen","type":"Landkreis"},"federalState":{"key":"08","name":"Baden-Württemberg"}},{"name":"Märklinweg","postalCode":"73033","locality":"Göppingen","municipality":{"key":"08117026","name":"Göppingen, Stadt","type":"Große_Kreisstadt"},"district":{"key":"08117","name":"Göppingen","type":"Landkreis"},"federalState":{"key":"08","name":"Baden-Württemberg"}},{"name":"Marktstr.","postalCode":"73033","locality":"Göppingen","municipality":{"key":"08117026","name":"Göppingen, Stadt","type":"Große_Kreisstadt"},"district":{"key":"08117","name":"Göppingen","type":"Landkreis"},"federalState":{"key":"08","name":"Baden-Württemberg"}},{"name":"Marstallstr.","postalCode":"73033","locality":"Göppingen","municipality":{"key":"08117026","name":"Göppingen, Stadt","type":"Große_Kreisstadt"},"district":{"key":"08117","name":"Göppingen","type":"Landkreis"},"federalState":{"key":"08","name":"Baden-Württemberg"}},{"name":"Martin-Luther-King-Str.","postalCode":"73037","locality":"Göppingen","municipality":{"key":"08117026","name":"Göppingen, Stadt","type":"Große_Kreisstadt"},"district":{"key":"08117","name":"Göppingen","type":"Landkreis"},"federalState":{"key":"08","name":"Baden-Württemberg"}},{"name":"Mästlinstr.","postalCode":"73033","locality":"Göppingen","municipality":{"key":"08117026","name":"Göppingen, Stadt","type":"Große_Kreisstadt"},"district":{"key":"08117","name":"Göppingen","type":"Landkreis"},"federalState":{"key":"08","name":"Baden-Württemberg"}},{"name":"Max-Herz-Str.","postalCode":"73035","locality":"Göppingen","municipality":{"key":"08117026","name":"Göppingen, Stadt","type":"Große_Kreisstadt"},"district":{"key":"08117","name":"Göppingen","type":"Landkreis"},"federalState":{"key":"08","name":"Baden-Württemberg"}},{"name":"Maybachstr.","postalCode":"73037","locality":"Göppingen","municipality":{"key":"08117026","name":"Göppingen, Stadt","type":"Große_Kreisstadt"},"district":{"key":"08117","name":"Göppingen","type":"Landkreis"},"federalState":{"key":"08","name":"Baden-Württemberg"}},{"name":"Meisenweg","postalCode":"73035","locality":"Göppingen","municipality":{"key":"08117026","name":"Göppingen, Stadt","type":"Große_Kreisstadt"},"district":{"key":"08117","name":"Göppingen","type":"Landkreis"},"federalState":{"key":"08","name":"Baden-Württemberg"}},{"name":"Mercedesstr.","postalCode":"73035","locality":"Göppingen","municipality":{"key":"08117026","name":"Göppingen, Stadt","type":"Große_Kreisstadt"},"district":{"key":"08117","name":"Göppingen","type":"Landkreis"},"federalState":{"key":"08","name":"Baden-Württemberg"}},{"name":"Messelbergstr.","postalCode":"73037","locality":"Göppingen","municipality":{"key":"08117026","name":"Göppingen, Stadt","type":"Große_Kreisstadt"},"district":{"key":"08117","name":"Göppingen","type":"Landkreis"},"federalState":{"key":"08","name":"Baden-Württemberg"}},{"name":"Michael-Schnell-Weg","postalCode":"73035","locality":"Göppingen","municipality":{"key":"08117026","name":"Göppingen, Stadt","type":"Große_Kreisstadt"},"district":{"key":"08117","name":"Göppingen","type":"Landkreis"},"federalState":{"key":"08","name":"Baden-Württemberg"}},{"name":"Mittenfeldstaffel","postalCode":"73035","locality":"Göppingen","municipality":{"key":"08117026","name":"Göppingen, Stadt","type":"Große_Kreisstadt"},"district":{"key":"08117","name":"Göppingen","type":"Landkreis"},"federalState":{"key":"08","name":"Baden-Württemberg"}},{"name":"Mittenfeldstr.","postalCode":"73035","locality":"Göppingen","municipality":{"key":"08117026","name":"Göppingen, Stadt","type":"Große_Kreisstadt"},"district":{"key":"08117","name":"Göppingen","type":"Landkreis"},"federalState":{"key":"08","name":"Baden-Württemberg"}},{"name":"Mittlere Karlstr.","postalCode":"73033","locality":"Göppingen","municipality":{"key":"08117026","name":"Göppingen, Stadt","type":"Große_Kreisstadt"},"district":{"key":"08117","name":"Göppingen","type":"Landkreis"},"federalState":{"key":"08","name":"Baden-Württemberg"}},{"name":"Mörikestr.","postalCode":"73033","locality":"Göppingen","municipality":{"key":"08117026","name":"Göppingen, Stadt","type":"Große_Kreisstadt"},"district":{"key":"08117","name":"Göppingen","type":"Landkreis"},"federalState":{"key":"08","name":"Baden-Württemberg"}},{"name":"Mozartstr.","postalCode":"73033","locality":"Göppingen","municipality":{"key":"08117026","name":"Göppingen, Stadt","type":"Große_Kreisstadt"},"district":{"key":"08117","name":"Göppingen","type":"Landkreis"},"federalState":{"key":"08","name":"Baden-Württemberg"}},{"name":"Müglitzer Weg","postalCode":"73033","locality":"Göppingen","municipality":{"key":"08117026","name":"Göppingen, Stadt","type":"Große_Kreisstadt"},"district":{"key":"08117","name":"Göppingen","type":"Landkreis"},"federalState":{"key":"08","name":"Baden-Württemberg"}},{"name":"Mühlenweg","postalCode":"73035","locality":"Göppingen","municipality":{"key":"08117026","name":"Göppingen, Stadt","type":"Große_Kreisstadt"},"district":{"key":"08117","name":"Göppingen","type":"Landkreis"},"federalState":{"key":"08","name":"Baden-Württemberg"}},{"name":"Mühlhaldenweg","postalCode":"73035","locality":"Göppingen","municipality":{"key":"08117026","name":"Göppingen, Stadt","type":"Große_Kreisstadt"},"district":{"key":"08117","name":"Göppingen","type":"Landkreis"},"federalState":{"key":"08","name":"Baden-Württemberg"}},{"name":"Nägelesgasse","postalCode":"73037","locality":"Göppingen","municipality":{"key":"08117026","name":"Göppingen, Stadt","type":"Große_Kreisstadt"},"district":{"key":"08117","name":"Göppingen","type":"Landkreis"},"federalState":{"key":"08","name":"Baden-Württemberg"}},{"name":"Neue Fischstr.","postalCode":"73033","locality":"Göppingen","municipality":{"key":"08117026","name":"Göppingen, Stadt","type":"Große_Kreisstadt"},"district":{"key":"08117","name":"Göppingen","type":"Landkreis"},"federalState":{"key":"08","name":"Baden-Württemberg"}},{"name":"Neue Mitte","postalCode":"73035","locality":"Göppingen","municipality":{"key":"08117026","name":"Göppingen, Stadt","type":"Große_Kreisstadt"},"district":{"key":"08117","name":"Göppingen","type":"Landkreis"},"federalState":{"key":"08","name":"Baden-Württemberg"}},{"name":"Niels-Bohr-Str.","postalCode":"73037","locality":"Göppingen","municipality":{"key":"08117026","name":"Göppingen, Stadt","type":"Große_Kreisstadt"},"district":{"key":"08117","name":"Göppingen","type":"Landkreis"},"federalState":{"key":"08","name":"Baden-Württemberg"}},{"name":"Nikolaus-Lenau-Str.","postalCode":"73035","locality":"Göppingen","municipality":{"key":"08117026","name":"Göppingen, Stadt","type":"Große_Kreisstadt"},"district":{"key":"08117","name":"Göppingen","type":"Landkreis"},"federalState":{"key":"08","name":"Baden-Württemberg"}},{"name":"Nördliche Ringstr.","postalCode":"73033","locality":"Göppingen","municipality":{"key":"08117026","name":"Göppingen, Stadt","type":"Große_Kreisstadt"},"district":{"key":"08117","name":"Göppingen","type":"Landkreis"},"federalState":{"key":"08","name":"Baden-Württemberg"}},{"name":"Nortelweg","postalCode":"73037","locality":"Göppingen","municipality":{"key":"08117026","name":"Göppingen, Stadt","type":"Große_Kreisstadt"},"district":{"key":"08117","name":"Göppingen","type":"Landkreis"},"federalState":{"key":"08","name":"Baden-Württemberg"}},{"name":"Ochsengasse","postalCode":"73108","locality":"Gammelshausen","municipality":{"key":"08117023","name":"Gammelshausen","type":"Kreisangehörige_Gemeinde"},"district":{"key":"08117","name":"Göppingen","type":"Landkreis"},"federalState":{"key":"08","name":"Baden-Württemberg"}},{"name":"Palmstr.","postalCode":"73033","locality":"Göppingen","municipality":{"key":"08117026","name":"Göppingen, Stadt","type":"Große_Kreisstadt"},"district":{"key":"08117","name":"Göppingen","type":"Landkreis"},"federalState":{"key":"08","name":"Baden-Württemberg"}},{"name":"Panoramastr.","postalCode":"73035","locality":"Göppingen","municipality":{"key":"08117026","name":"Göppingen, Stadt","type":"Große_Kreisstadt"},"district":{"key":"08117","name":"Göppingen","type":"Landkreis"},"federalState":{"key":"08","name":"Baden-Württemberg"}},{"name":"Papiermühle","postalCode":"73035","locality":"Göppingen","municipality":{"key":"08117026","name":"Göppingen, Stadt","type":"Große_Kreisstadt"},"district":{"key":"08117","name":"Göppingen","type":"Landkreis"},"federalState":{"key":"08","name":"Baden-Württemberg"}},{"name":"Pappelweg","postalCode":"73037","locality":"Göppingen","municipality":{"key":"08117026","name":"Göppingen, Stadt","type":"Große_Kreisstadt"},"district":{"key":"08117","name":"Göppingen","type":"Landkreis"},"federalState":{"key":"08","name":"Baden-Württemberg"}},{"name":"Paradiesgasse","postalCode":"73033","locality":"Göppingen","municipality":{"key":"08117026","name":"Göppingen, Stadt","type":"Große_Kreisstadt"},"district":{"key":"08117","name":"Göppingen","type":"Landkreis"},"federalState":{"key":"08","name":"Baden-Württemberg"}},{"name":"Park","postalCode":"73035","locality":"Göppingen","municipality":{"key":"08117026","name":"Göppingen, Stadt","type":"Große_Kreisstadt"},"district":{"key":"08117","name":"Göppingen","type":"Landkreis"},"federalState":{"key":"08","name":"Baden-Württemberg"}},{"name":"Pater-Kolbe-Str.","postalCode":"73037","locality":"Göppingen","municipality":{"key":"08117026","name":"Göppingen, Stadt","type":"Große_Kreisstadt"},"district":{"key":"08117","name":"Göppingen","type":"Landkreis"},"federalState":{"key":"08","name":"Baden-Württemberg"}},{"name":"Paul-Koepff-Weg","postalCode":"73037","locality":"Göppingen","municipality":{"key":"08117026","name":"Göppingen, Stadt","type":"Große_Kreisstadt"},"district":{"key":"08117","name":"Göppingen","type":"Landkreis"},"federalState":{"key":"08","name":"Baden-Württemberg"}},{"name":"Pearl-S.-Buck-Str.","postalCode":"73037","locality":"Göppingen","municipality":{"key":"08117026","name":"Göppingen, Stadt","type":"Große_Kreisstadt"},"district":{"key":"08117","name":"Göppingen","type":"Landkreis"},"federalState":{"key":"08","name":"Baden-Württemberg"}},{"name":"Pestalozzistr.","postalCode":"73033","locality":"Göppingen","municipality":{"key":"08117026","name":"Göppingen, Stadt","type":"Große_Kreisstadt"},"district":{"key":"08117","name":"Göppingen","type":"Landkreis"},"federalState":{"key":"08","name":"Baden-Württemberg"}},{"name":"Pfarrgasse","postalCode":"73037","locality":"Göppingen","municipality":{"key":"08117026","name":"Göppingen, Stadt","type":"Große_Kreisstadt"},"district":{"key":"08117","name":"Göppingen","type":"Landkreis"},"federalState":{"key":"08","name":"Baden-Württemberg"}},{"name":"Pfarrsteige","postalCode":"73037","locality":"Göppingen","municipality":{"key":"08117026","name":"Göppingen, Stadt","type":"Große_Kreisstadt"},"district":{"key":"08117","name":"Göppingen","type":"Landkreis"},"federalState":{"key":"08","name":"Baden-Württemberg"}},{"name":"Pfarrstr.","postalCode":"73033","locality":"Göppingen","municipality":{"key":"08117026","name":"Göppingen, Stadt","type":"Große_Kreisstadt"},"district":{"key":"08117","name":"Göppingen","type":"Landkreis"},"federalState":{"key":"08","name":"Baden-Württemberg"}},{"name":"Pflegstr.","postalCode":"73033","locality":"Göppingen","municipality":{"key":"08117026","name":"Göppingen, Stadt","type":"Große_Kreisstadt"},"district":{"key":"08117","name":"Göppingen","type":"Landkreis"},"federalState":{"key":"08","name":"Baden-Württemberg"}},{"name":"Pistoriusstr.","postalCode":"73033","locality":"Göppingen","municipality":{"key":"08117026","name":"Göppingen, Stadt","type":"Große_Kreisstadt"},"district":{"key":"08117","name":"Göppingen","type":"Landkreis"},"federalState":{"key":"08","name":"Baden-Württemberg"}},{"name":"Planckweg","postalCode":"73035","locality":"Göppingen","municipality":{"key":"08117026","name":"Göppingen, Stadt","type":"Große_Kreisstadt"},"district":{"key":"08117","name":"Göppingen","type":"Landkreis"},"federalState":{"key":"08","name":"Baden-Württemberg"}},{"name":"Porschestr.","postalCode":"73035","locality":"Göppingen","municipality":{"key":"08117026","name":"Göppingen, Stadt","type":"Große_Kreisstadt"},"district":{"key":"08117","name":"Göppingen","type":"Landkreis"},"federalState":{"key":"08","name":"Baden-Württemberg"}},{"name":"Poststr.","postalCode":"73033","locality":"Göppingen","municipality":{"key":"08117026","name":"Göppingen, Stadt","type":"Große_Kreisstadt"},"district":{"key":"08117","name":"Göppingen","type":"Landkreis"},"federalState":{"key":"08","name":"Baden-Württemberg"}},{"name":"Promenadeweg","postalCode":"73035","locality":"Göppingen","municipality":{"key":"08117026","name":"Göppingen, Stadt","type":"Große_Kreisstadt"},"district":{"key":"08117","name":"Göppingen","type":"Landkreis"},"federalState":{"key":"08","name":"Baden-Württemberg"}},{"name":"Quäkerstr.","postalCode":"73033","locality":"Göppingen","municipality":{"key":"08117026","name":"Göppingen, Stadt","type":"Große_Kreisstadt"},"district":{"key":"08117","name":"Göppingen","type":"Landkreis"},"federalState":{"key":"08","name":"Baden-Württemberg"}},{"name":"Querstr.","postalCode":"73033","locality":"Göppingen","municipality":{"key":"08117026","name":"Göppingen, Stadt","type":"Große_Kreisstadt"},"district":{"key":"08117","name":"Göppingen","type":"Landkreis"},"federalState":{"key":"08","name":"Baden-Württemberg"}},{"name":"Rechbergstr.","postalCode":"73108","locality":"Gammelshausen","municipality":{"key":"08117023","name":"Gammelshausen","type":"Kreisangehörige_Gemeinde"},"district":{"key":"08117","name":"Göppingen","type":"Landkreis"},"federalState":{"key":"08","name":"Baden-Württemberg"}},{"name":"Rosenstr.","postalCode":"73108","locality":"Gammelshausen","municipality":{"key":"08117023","name":"Gammelshausen","type":"Kreisangehörige_Gemeinde"},"district":{"key":"08117","name":"Göppingen","type":"Landkreis"},"federalState":{"key":"08","name":"Baden-Württemberg"}},{"name":"Schillerstr.","postalCode":"73108","locality":"Gammelshausen","municipality":{"key":"08117023","name":"Gammelshausen","type":"Kreisangehörige_Gemeinde"},"district":{"key":"08117","name":"Göppingen","type":"Landkreis"},"federalState":{"key":"08","name":"Baden-Württemberg"}},{"name":"Schulweg","postalCode":"73108","locality":"Gammelshausen","municipality":{"key":"08117023","name":"Gammelshausen","type":"Kreisangehörige_Gemeinde"},"district":{"key":"08117","name":"Göppingen","type":"Landkreis"},"federalState":{"key":"08","name":"Baden-Württemberg"}},{"name":"Sielenwangstr.","postalCode":"73108","locality":"Gammelshausen","municipality":{"key":"08117023","name":"Gammelshausen","type":"Kreisangehörige_Gemeinde"},"district":{"key":"08117","name":"Göppingen","type":"Landkreis"},"federalState":{"key":"08","name":"Baden-Württemberg"}},{"name":"Steinriegelweg","postalCode":"73108","locality":"Gammelshausen","municipality":{"key":"08117023","name":"Gammelshausen","type":"Kreisangehörige_Gemeinde"},"district":{"key":"08117","name":"Göppingen","type":"Landkreis"},"federalState":{"key":"08","name":"Baden-Württemberg"}},{"name":"Stuifenstr.","postalCode":"73108","locality":"Gammelshausen","municipality":{"key":"08117023","name":"Gammelshausen","type":"Kreisangehörige_Gemeinde"},"district":{"key":"08117","name":"Göppingen","type":"Landkreis"},"federalState":{"key":"08","name":"Baden-Württemberg"}},{"name":"Tabakäcker","postalCode":"73037","locality":"Göppingen","municipality":{"key":"08117026","name":"Göppingen, Stadt","type":"Große_Kreisstadt"},"district":{"key":"08117","name":"Göppingen","type":"Landkreis"},"federalState":{"key":"08","name":"Baden-Württemberg"}},{"name":"Talweg","postalCode":"73037","locality":"Göppingen","municipality":{"key":"08117026","name":"Göppingen, Stadt","type":"Große_Kreisstadt"},"district":{"key":"08117","name":"Göppingen","type":"Landkreis"},"federalState":{"key":"08","name":"Baden-Württemberg"}},{"name":"Tannenstr.","postalCode":"73035","locality":"Göppingen","municipality":{"key":"08117026","name":"Göppingen, Stadt","type":"Große_Kreisstadt"},"district":{"key":"08117","name":"Göppingen","type":"Landkreis"},"federalState":{"key":"08","name":"Baden-Württemberg"}},{"name":"Tannenstr.","postalCode":"73037","locality":"Göppingen","municipality":{"key":"08117026","name":"Göppingen, Stadt","type":"Große_Kreisstadt"},"district":{"key":"08117","name":"Göppingen","type":"Landkreis"},"federalState":{"key":"08","name":"Baden-Württemberg"}},{"name":"Teckstr.","postalCode":"73035","locality":"Göppingen","municipality":{"key":"08117026","name":"Göppingen, Stadt","type":"Große_Kreisstadt"},"district":{"key":"08117","name":"Göppingen","type":"Landkreis"},"federalState":{"key":"08","name":"Baden-Württemberg"}},{"name":"Tegelbergweg","postalCode":"73033","locality":"Göppingen","municipality":{"key":"08117026","name":"Göppingen, Stadt","type":"Große_Kreisstadt"},"district":{"key":"08117","name":"Göppingen","type":"Landkreis"},"federalState":{"key":"08","name":"Baden-Württemberg"}},{"name":"Tennenbergstr.","postalCode":"73037","locality":"Göppingen","municipality":{"key":"08117026","name":"Göppingen, Stadt","type":"Große_Kreisstadt"},"district":{"key":"08117","name":"Göppingen","type":"Landkreis"},"federalState":{"key":"08","name":"Baden-Württemberg"}},{"name":"Theodor-Heuss-Str.","postalCode":"73033","locality":"Göppingen","municipality":{"key":"08117026","name":"Göppingen, Stadt","type":"Große_Kreisstadt"},"district":{"key":"08117","name":"Göppingen","type":"Landkreis"},"federalState":{"key":"08","name":"Baden-Württemberg"}},{"name":"Thomas-Mann-Str.","postalCode":"73037","locality":"Göppingen","municipality":{"key":"08117026","name":"Göppingen, Stadt","type":"Große_Kreisstadt"},"district":{"key":"08117","name":"Göppingen","type":"Landkreis"},"federalState":{"key":"08","name":"Baden-Württemberg"}},{"name":"Tintenbachstr.","postalCode":"73035","locality":"Göppingen","municipality":{"key":"08117026","name":"Göppingen, Stadt","type":"Große_Kreisstadt"},"district":{"key":"08117","name":"Göppingen","type":"Landkreis"},"federalState":{"key":"08","name":"Baden-Württemberg"}},{"name":"Tobelbachstr.","postalCode":"73035","locality":"Göppingen","municipality":{"key":"08117026","name":"Göppingen, Stadt","type":"Große_Kreisstadt"},"district":{"key":"08117","name":"Göppingen","type":"Landkreis"},"federalState":{"key":"08","name":"Baden-Württemberg"}},{"name":"Töbele","postalCode":"73037","locality":"Göppingen","municipality":{"key":"08117026","name":"Göppingen, Stadt","type":"Große_Kreisstadt"},"district":{"key":"08117","name":"Göppingen","type":"Landkreis"},"federalState":{"key":"08","name":"Baden-Württemberg"}},{"name":"Tobelweg","postalCode":"73037","locality":"Göppingen","municipality":{"key":"08117026","name":"Göppingen, Stadt","type":"Große_Kreisstadt"},"district":{"key":"08117","name":"Göppingen","type":"Landkreis"},"federalState":{"key":"08","name":"Baden-Württemberg"}},{"name":"Troppauer Str.","postalCode":"73035","locality":"Göppingen","municipality":{"key":"08117026","name":"Göppingen, Stadt","type":"Große_Kreisstadt"},"district":{"key":"08117","name":"Göppingen","type":"Landkreis"},"federalState":{"key":"08","name":"Baden-Württemberg"}},{"name":"Trübauer Weg","postalCode":"73033","locality":"Göppingen","municipality":{"key":"08117026","name":"Göppingen, Stadt","type":"Große_Kreisstadt"},"district":{"key":"08117","name":"Göppingen","type":"Landkreis"},"federalState":{"key":"08","name":"Baden-Württemberg"}},{"name":"Turmweg","postalCode":"73037","locality":"Göppingen","municipality":{"key":"08117026","name":"Göppingen, Stadt","type":"Große_Kreisstadt"},"district":{"key":"08117","name":"Göppingen","type":"Landkreis"},"federalState":{"key":"08","name":"Baden-Württemberg"}},{"name":"Turnerstr.","postalCode":"73033","locality":"Göppingen","municipality":{"key":"08117026","name":"Göppingen, Stadt","type":"Große_Kreisstadt"},"district":{"key":"08117","name":"Göppingen","type":"Landkreis"},"federalState":{"key":"08","name":"Baden-Württemberg"}},{"name":"Turnhallenstr.","postalCode":"73035","locality":"Göppingen","municipality":{"key":"08117026","name":"Göppingen, Stadt","type":"Große_Kreisstadt"},"district":{"key":"08117","name":"Göppingen","type":"Landkreis"},"federalState":{"key":"08","name":"Baden-Württemberg"}},{"name":"Uhlandstr.","postalCode":"73035","locality":"Göppingen","municipality":{"key":"08117026","name":"Göppingen, Stadt","type":"Große_Kreisstadt"},"district":{"key":"08117","name":"Göppingen","type":"Landkreis"},"federalState":{"key":"08","name":"Baden-Württemberg"}},{"name":"Ulmenstr.","postalCode":"73035","locality":"Göppingen","municipality":{"key":"08117026","name":"Göppingen, Stadt","type":"Große_Kreisstadt"},"district":{"key":"08117","name":"Göppingen","type":"Landkreis"},"federalState":{"key":"08","name":"Baden-Württemberg"}},{"name":"Ulmenweg","postalCode":"73037","locality":"Göppingen","municipality":{"key":"08117026","name":"Göppingen, Stadt","type":"Große_Kreisstadt"},"district":{"key":"08117","name":"Göppingen","type":"Landkreis"},"federalState":{"key":"08","name":"Baden-Württemberg"}},{"name":"Ulmer Str.","postalCode":"73033","locality":"Göppingen","municipality":{"key":"08117026","name":"Göppingen, Stadt","type":"Große_Kreisstadt"},"district":{"key":"08117","name":"Göppingen","type":"Landkreis"},"federalState":{"key":"08","name":"Baden-Württemberg"}},{"name":"Ulmer Str.","postalCode":"73037","locality":"Göppingen","municipality":{"key":"08117026","name":"Göppingen, Stadt","type":"Große_Kreisstadt"},"district":{"key":"08117","name":"Göppingen","type":"Landkreis"},"federalState":{"key":"08","name":"Baden-Württemberg"}},{"name":"Ulrichstr.","postalCode":"73033","locality":"Göppingen","municipality":{"key":"08117026","name":"Göppingen, Stadt","type":"Große_Kreisstadt"},"district":{"key":"08117","name":"Göppingen","type":"Landkreis"},"federalState":{"key":"08","name":"Baden-Württemberg"}},{"name":"Unterdorfstr.","postalCode":"73037","locality":"Göppingen","municipality":{"key":"08117026","name":"Göppingen, Stadt","type":"Große_Kreisstadt"},"district":{"key":"08117","name":"Göppingen","type":"Landkreis"},"federalState":{"key":"08","name":"Baden-Württemberg"}},{"name":"Untere Halde","postalCode":"73037","locality":"Göppingen","municipality":{"key":"08117026","name":"Göppingen, Stadt","type":"Große_Kreisstadt"},"district":{"key":"08117","name":"Göppingen","type":"Landkreis"},"federalState":{"key":"08","name":"Baden-Württemberg"}},{"name":"Unterer Lederberg","postalCode":"73035","locality":"Göppingen","municipality":{"key":"08117026","name":"Göppingen, Stadt","type":"Große_Kreisstadt"},"district":{"key":"08117","name":"Göppingen","type":"Landkreis"},"federalState":{"key":"08","name":"Baden-Württemberg"}},{"name":"Unterer Weiler","postalCode":"73037","locality":"Göppingen","municipality":{"key":"08117026","name":"Göppingen, Stadt","type":"Große_Kreisstadt"},"district":{"key":"08117","name":"Göppingen","type":"Landkreis"},"federalState":{"key":"08","name":"Baden-Württemberg"}},{"name":"Untere Wasenstr.","postalCode":"73035","locality":"Göppingen","municipality":{"key":"08117026","name":"Göppingen, Stadt","type":"Große_Kreisstadt"},"district":{"key":"08117","name":"Göppingen","type":"Landkreis"},"federalState":{"key":"08","name":"Baden-Württemberg"}},{"name":"Ursenwanger Weg","postalCode":"73037","locality":"Göppingen","municipality":{"key":"08117026","name":"Göppingen, Stadt","type":"Große_Kreisstadt"},"district":{"key":"08117","name":"Göppingen","type":"Landkreis"},"federalState":{"key":"08","name":"Baden-Württemberg"}},{"name":"Vinzenz-Stroh-Weg","postalCode":"73037","locality":"Göppingen","municipality":{"key":"08117026","name":"Göppingen, Stadt","type":"Große_Kreisstadt"},"district":{"key":"08117","name":"Göppingen","type":"Landkreis"},"federalState":{"key":"08","name":"Baden-Württemberg"}},{"name":"Von-Drais-Str.","postalCode":"73037","locality":"Göppingen","municipality":{"key":"08117026","name":"Göppingen, Stadt","type":"Große_Kreisstadt"},"district":{"key":"08117","name":"Göppingen","type":"Landkreis"},"federalState":{"key":"08","name":"Baden-Württemberg"}},{"name":"Von-Schwerdt-Weg","postalCode":"73035","locality":"Göppingen","municipality":{"key":"08117026","name":"Göppingen, Stadt","type":"Große_Kreisstadt"},"district":{"key":"08117","name":"Göppingen","type":"Landkreis"},"federalState":{"key":"08","name":"Baden-Württemberg"}},{"name":"Von-Sprewitz-Str.","postalCode":"73035","locality":"Göppingen","municipality":{"key":"08117026","name":"Göppingen, Stadt","type":"Große_Kreisstadt"},"district":{"key":"08117","name":"Göppingen","type":"Landkreis"},"federalState":{"key":"08","name":"Baden-Württemberg"}},{"name":"Vordere Karlstr.","postalCode":"73033","locality":"Göppingen","municipality":{"key":"08117026","name":"Göppingen, Stadt","type":"Große_Kreisstadt"},"district":{"key":"08117","name":"Göppingen","type":"Landkreis"},"federalState":{"key":"08","name":"Baden-Württemberg"}},{"name":"Vordere Mühlstr.","postalCode":"73035","locality":"Göppingen","municipality":{"key":"08117026","name":"Göppingen, Stadt","type":"Große_Kreisstadt"},"district":{"key":"08117","name":"Göppingen","type":"Landkreis"},"federalState":{"key":"08","name":"Baden-Württemberg"}},{"name":"Vorderer Berg","postalCode":"73035","locality":"Göppingen","municipality":{"key":"08117026","name":"Göppingen, Stadt","type":"Große_Kreisstadt"},"district":{"key":"08117","name":"Göppingen","type":"Landkreis"},"federalState":{"key":"08","name":"Baden-Württemberg"}},{"name":"Wasserbergstr.","postalCode":"73108","locality":"Gammelshausen","municipality":{"key":"08117023","name":"Gammelshausen","type":"Kreisangehörige_Gemeinde"},"district":{"key":"08117","name":"Göppingen","type":"Landkreis"},"federalState":{"key":"08","name":"Baden-Württemberg"}},{"name":"Weingartenstr.","postalCode":"73108","locality":"Gammelshausen","municipality":{"key":"08117023","name":"Gammelshausen","type":"Kreisangehörige_Gemeinde"},"district":{"key":"08117","name":"Göppingen","type":"Landkreis"},"federalState":{"key":"08","name":"Baden-Württemberg"}},{"name":"Willi-Moll-Weg","postalCode":"73108","locality":"Gammelshausen","municipality":{"key":"08117023","name":"Gammelshausen","type":"Kreisangehörige_Gemeinde"},"district":{"key":"08117","name":"Göppingen","type":"Landkreis"},"federalState":{"key":"08","name":"Baden-Württemberg"}},{"name":"Zeisigweg","postalCode":"73035","locality":"Göppingen","municipality":{"key":"08117026","name":"Göppingen, Stadt","type":"Große_Kreisstadt"},"district":{"key":"08117","name":"Göppingen","type":"Landkreis"},"federalState":{"key":"08","name":"Baden-Württemberg"}},{"name":"Zeppelinstr.","postalCode":"73033","locality":"Göppingen","municipality":{"key":"08117026","name":"Göppingen, Stadt","type":"Große_Kreisstadt"},"district":{"key":"08117","name":"Göppingen","type":"Landkreis"},"federalState":{"key":"08","name":"Baden-Württemberg"}},{"name":"Ziegelstr.","postalCode":"73033","locality":"Göppingen","municipality":{"key":"08117026","name":"Göppingen, Stadt","type":"Große_Kreisstadt"},"district":{"key":"08117","name":"Göppingen","type":"Landkreis"},"federalState":{"key":"08","name":"Baden-Württemberg"}},{"name":"Ziegerhof","postalCode":"73037","locality":"Göppingen","municipality":{"key":"08117026","name":"Göppingen, Stadt","type":"Große_Kreisstadt"},"district":{"key":"08117","name":"Göppingen","type":"Landkreis"},"federalState":{"key":"08","name":"Baden-Württemberg"}},{"name":"Zinnweg","postalCode":"73035","locality":"Göppingen","municipality":{"key":"08117026","name":"Göppingen, Stadt","type":"Große_Kreisstadt"},"district":{"key":"08117","name":"Göppingen","type":"Landkreis"},"federalState":{"key":"08","name":"Baden-Württemberg"}},{"name":"Znaimer Weg","postalCode":"73035","locality":"Göppingen","municipality":{"key":"08117026","name":"Göppingen, Stadt","type":"Große_Kreisstadt"},"district":{"key":"08117","name":"Göppingen","type":"Landkreis"},"federalState":{"key":"08","name":"Baden-Württemberg"}},{"name":"Zur Friedenslinde","postalCode":"73037","locality":"Göppingen","municipality":{"key":"08117026","name":"Göppingen, Stadt","type":"Große_Kreisstadt"},"district":{"key":"08117","name":"Göppingen","type":"Landkreis"},"federalState":{"key":"08","name":"Baden-Württemberg"}},{"name":"Zwittauer Weg","postalCode":"73035","locality":"Göppingen","municipality":{"key":"08117026","name":"Göppingen, Stadt","type":"Große_Kreisstadt"},"district":{"key":"08117","name":"Göppingen","type":"Landkreis"},"federalState":{"key":"08","name":"Baden-Württemberg"}},{"name":"Öchslinstr.","postalCode":"73033","locality":"Göppingen","municipality":{"key":"08117026","name":"Göppingen, Stadt","type":"Große_Kreisstadt"},"district":{"key":"08117","name":"Göppingen","type":"Landkreis"},"federalState":{"key":"08","name":"Baden-Württemberg"}},{"name":"Ödeweg","postalCode":"73035","locality":"Göppingen","municipality":{"key":"08117026","name":"Göppingen, Stadt","type":"Große_Kreisstadt"},"district":{"key":"08117","name":"Göppingen","type":"Landkreis"},"federalState":{"key":"08","name":"Baden-Württemberg"}},{"name":"Österbachstr.","postalCode":"73033","locality":"Göppingen","municipality":{"key":"08117026","name":"Göppingen, Stadt","type":"Große_Kreisstadt"},"district":{"key":"08117","name":"Göppingen","type":"Landkreis"},"federalState":{"key":"08","name":"Baden-Württemberg"}},{"name":"Östliche Linsenholz-Ausfahrt","postalCode":"73037","locality":"Göppingen","municipality":{"key":"08117026","name":"Göppingen, Stadt","type":"Große_Kreisstadt"},"district":{"key":"08117","name":"Göppingen","type":"Landkreis"},"federalState":{"key":"08","name":"Baden-Württemberg"}},{"name":"Östliche Ringstr.","postalCode":"73033","locality":"Göppingen","municipality":{"key":"08117026","name":"Göppingen, Stadt","type":"Große_Kreisstadt"},"district":{"key":"08117","name":"Göppingen","type":"Landkreis"},"federalState":{"key":"08","name":"Baden-Württemberg"}},]