[{"key":"10107417","name":"Am Mülirain","postalCode":"8117","locality":"Fällanden","commune":{"key":"193","name":"Fällanden","shortName":"Fällanden"},"district":{"key":"109","name":"Bezirk Uster"},"canton":{"key":"1","code":"ZH","name":"Zürich"},"status":"Real"},{"key":"10156571","name":"Am Zilbach","postalCode":"8117","locality":"Fällanden","commune":{"key":"193","name":"Fällanden","shortName":"Fällanden"},"district":{"key":"109","name":"Bezirk Uster"},"canton":{"key":"1","code":"ZH","name":"Zürich"},"status":"Real"},{"key":"10101940","name":"Apsenrütiweg","postalCode":"8117","locality":"Fällanden","commune":{"key":"193","name":"Fällanden","shortName":"Fällanden"},"district":{"key":"109","name":"Bezirk Uster"},"canton":{"key":"1","code":"ZH","name":"Zürich"},"status":"Real"},{"key":"10159130","name":"Bachwisweg","postalCode":"8117","locality":"Fällanden","commune":{"key":"193","name":"Fällanden","shortName":"Fällanden"},"district":{"key":"109","name":"Bezirk Uster"},"canton":{"key":"1","code":"ZH","name":"Zürich"},"status":"Real"},{"key":"10174562","name":"Balmweg","postalCode":"8117","locality":"Fällanden","commune":{"key":"193","name":"Fällanden","shortName":"Fällanden"},"district":{"key":"109","name":"Bezirk Uster"},"canton":{"key":"1","code":"ZH","name":"Zürich"},"status":"Real"},{"key":"10085181","name":"Bergstrasse","postalCode":"8117","locality":"Fällanden","commune":{"key":"193","name":"Fällanden","shortName":"Fällanden"},"district":{"key":"109","name":"Bezirk Uster"},"canton":{"key":"1","code":"ZH","name":"Zürich"},"status":"Real"},{"key":"10001838","name":"Bollenrütiweg","postalCode":"8117","locality":"Fällanden","commune":{"key":"193","name":"Fällanden","shortName":"Fällanden"},"district":{"key":"109","name":"Bezirk Uster"},"canton":{"key":"1","code":"ZH","name":"Zürich"},"status":"Real"},{"key":"10176658","name":"Brandholzstrasse","postalCode":"8117","locality":"Fällanden","commune":{"key":"193","name":"Fällanden","shortName":"Fällanden"},"district":{"key":"109","name":"Bezirk Uster"},"canton":{"key":"1","code":"ZH","name":"Zürich"},"status":"Real"},{"key":"10170577","name":"Brandholzweg","postalCode":"8117","locality":"Fällanden","commune":{"key":"193","name":"Fällanden","shortName":"Fällanden"},"district":{"key":"109","name":"Bezirk Uster"},"canton":{"key":"1","code":"ZH","name":"Zürich"},"status":"Real"},{"key":"10167970","name":"Breitiweg","postalCode":"8117","locality":"Fällanden","commune":{"key":"193","name":"Fällanden","shortName":"Fällanden"},"district":{"key":"109","name":"Bezirk Uster"},"canton":{"key":"1","code":"ZH","name":"Zürich"},"status":"Real"},{"key":"10085182","name":"Bruggacherstrasse","postalCode":"8117","locality":"Fällanden","commune":{"key":"193","name":"Fällanden","shortName":"Fällanden"},"district":{"key":"109","name":"Bezirk Uster"},"canton":{"key":"1","code":"ZH","name":"Zürich"},"status":"Real"},{"key":"10166770","name":"Chalenbachweg","postalCode":"8117","locality":"Fällanden","commune":{"key":"193","name":"Fällanden","shortName":"Fällanden"},"district":{"key":"109","name":"Bezirk Uster"},"canton":{"key":"1","code":"ZH","name":"Zürich"},"status":"Real"},{"key":"10163895","name":"Chalenweg","postalCode":"8117","locality":"Fällanden","commune":{"key":"193","name":"Fällanden","shortName":"Fällanden"},"district":{"key":"109","name":"Bezirk Uster"},"canton":{"key":"1","code":"ZH","name":"Zürich"},"status":"Real"},{"key":"10206691","name":"Chilewäg","postalCode":"8117","locality":"Fällanden","commune":{"key":"193","name":"Fällanden","shortName":"Fällanden"},"district":{"key":"109","name":"Bezirk Uster"},"canton":{"key":"1","code":"ZH","name":"Zürich"},"status":"Real"},{"key":"10205909","name":"Chiliholzweg","postalCode":"8117","locality":"Fällanden","commune":{"key":"193","name":"Fällanden","shortName":"Fällanden"},"district":{"key":"109","name":"Bezirk Uster"},"canton":{"key":"1","code":"ZH","name":"Zürich"},"status":"Real"},{"key":"10109312","name":"Dorfgass","postalCode":"8117","locality":"Fällanden","commune":{"key":"193","name":"Fällanden","shortName":"Fällanden"},"district":{"key":"109","name":"Bezirk Uster"},"canton":{"key":"1","code":"ZH","name":"Zürich"},"status":"Real"},{"key":"10001839","name":"Dübendorfstrasse","postalCode":"8117","locality":"Fällanden","commune":{"key":"193","name":"Fällanden","shortName":"Fällanden"},"district":{"key":"109","name":"Bezirk Uster"},"canton":{"key":"1","code":"ZH","name":"Zürich"},"status":"Real"},{"key":"10170579","name":"Dürrasweg","postalCode":"8117","locality":"Fällanden","commune":{"key":"193","name":"Fällanden","shortName":"Fällanden"},"district":{"key":"109","name":"Bezirk Uster"},"canton":{"key":"1","code":"ZH","name":"Zürich"},"status":"Real"},{"key":"10001840","name":"Ebmatingerweg","postalCode":"8117","locality":"Fällanden","commune":{"key":"193","name":"Fällanden","shortName":"Fällanden"},"district":{"key":"109","name":"Bezirk Uster"},"canton":{"key":"1","code":"ZH","name":"Zürich"},"status":"Real"},{"key":"10085183","name":"Egglerstrasse","postalCode":"8117","locality":"Fällanden","commune":{"key":"193","name":"Fällanden","shortName":"Fällanden"},"district":{"key":"109","name":"Bezirk Uster"},"canton":{"key":"1","code":"ZH","name":"Zürich"},"status":"Real"},{"key":"10164553","name":"Egglerwäg","postalCode":"8117","locality":"Fällanden","commune":{"key":"193","name":"Fällanden","shortName":"Fällanden"},"district":{"key":"109","name":"Bezirk Uster"},"canton":{"key":"1","code":"ZH","name":"Zürich"},"status":"Real"},{"key":"10170580","name":"Eichgrindelweg","postalCode":"8117","locality":"Fällanden","commune":{"key":"193","name":"Fällanden","shortName":"Fällanden"},"district":{"key":"109","name":"Bezirk Uster"},"canton":{"key":"1","code":"ZH","name":"Zürich"},"status":"Real"},{"key":"10170581","name":"Eichholzweg","postalCode":"8117","locality":"Fällanden","commune":{"key":"193","name":"Fällanden","shortName":"Fällanden"},"district":{"key":"109","name":"Bezirk Uster"},"canton":{"key":"1","code":"ZH","name":"Zürich"},"status":"Real"},{"key":"10125694","name":"Eichwiswäg","postalCode":"8117","locality":"Fällanden","commune":{"key":"193","name":"Fällanden","shortName":"Fällanden"},"district":{"key":"109","name":"Bezirk Uster"},"canton":{"key":"1","code":"ZH","name":"Zürich"},"status":"Real"},{"key":"10159129","name":"Eigentalweg","postalCode":"8117","locality":"Fällanden","commune":{"key":"193","name":"Fällanden","shortName":"Fällanden"},"district":{"key":"109","name":"Bezirk Uster"},"canton":{"key":"1","code":"ZH","name":"Zürich"},"status":"Real"},{"key":"10171078","name":"Erlenweg","postalCode":"8117","locality":"Fällanden","commune":{"key":"193","name":"Fällanden","shortName":"Fällanden"},"district":{"key":"109","name":"Bezirk Uster"},"canton":{"key":"1","code":"ZH","name":"Zürich"},"status":"Real"},{"key":"10064467","name":"Fröschbach","postalCode":"8117","locality":"Fällanden","commune":{"key":"193","name":"Fällanden","shortName":"Fällanden"},"district":{"key":"109","name":"Bezirk Uster"},"canton":{"key":"1","code":"ZH","name":"Zürich"},"status":"Real"},{"key":"10174568","name":"Gartewäg","postalCode":"8117","locality":"Fällanden","commune":{"key":"193","name":"Fällanden","shortName":"Fällanden"},"district":{"key":"109","name":"Bezirk Uster"},"canton":{"key":"1","code":"ZH","name":"Zürich"},"status":"Real"},{"key":"10159128","name":"Geissbergweg","postalCode":"8117","locality":"Fällanden","commune":{"key":"193","name":"Fällanden","shortName":"Fällanden"},"district":{"key":"109","name":"Bezirk Uster"},"canton":{"key":"1","code":"ZH","name":"Zürich"},"status":"Real"},{"key":"10001841","name":"Geren","postalCode":"8117","locality":"Fällanden","commune":{"key":"193","name":"Fällanden","shortName":"Fällanden"},"district":{"key":"109","name":"Bezirk Uster"},"canton":{"key":"1","code":"ZH","name":"Zürich"},"status":"Real"},{"key":"10171079","name":"Gibelweg","postalCode":"8117","locality":"Fällanden","commune":{"key":"193","name":"Fällanden","shortName":"Fällanden"},"district":{"key":"109","name":"Bezirk Uster"},"canton":{"key":"1","code":"ZH","name":"Zürich"},"status":"Real"},{"key":"10158505","name":"Glattweg","postalCode":"8117","locality":"Fällanden","commune":{"key":"193","name":"Fällanden","shortName":"Fällanden"},"district":{"key":"109","name":"Bezirk Uster"},"canton":{"key":"1","code":"ZH","name":"Zürich"},"status":"Real"},{"key":"10174569","name":"Grabenweg","postalCode":"8117","locality":"Fällanden","commune":{"key":"193","name":"Fällanden","shortName":"Fällanden"},"district":{"key":"109","name":"Bezirk Uster"},"canton":{"key":"1","code":"ZH","name":"Zürich"},"status":"Real"},{"key":"10174570","name":"Gruebenweg","postalCode":"8117","locality":"Fällanden","commune":{"key":"193","name":"Fällanden","shortName":"Fällanden"},"district":{"key":"109","name":"Bezirk Uster"},"canton":{"key":"1","code":"ZH","name":"Zürich"},"status":"Real"},{"key":"10166769","name":"Grütweg","postalCode":"8117","locality":"Fällanden","commune":{"key":"193","name":"Fällanden","shortName":"Fällanden"},"district":{"key":"109","name":"Bezirk Uster"},"canton":{"key":"1","code":"ZH","name":"Zürich"},"status":"Real"},{"key":"10166736","name":"Hasenacherweg","postalCode":"8117","locality":"Fällanden","commune":{"key":"193","name":"Fällanden","shortName":"Fällanden"},"district":{"key":"109","name":"Bezirk Uster"},"canton":{"key":"1","code":"ZH","name":"Zürich"},"status":"Real"},{"key":"10001842","name":"Hopplenweg","postalCode":"8117","locality":"Fällanden","commune":{"key":"193","name":"Fällanden","shortName":"Fällanden"},"district":{"key":"109","name":"Bezirk Uster"},"canton":{"key":"1","code":"ZH","name":"Zürich"},"status":"Real"},{"key":"10001843","name":"Huebwis","postalCode":"8117","locality":"Fällanden","commune":{"key":"193","name":"Fällanden","shortName":"Fällanden"},"district":{"key":"109","name":"Bezirk Uster"},"canton":{"key":"1","code":"ZH","name":"Zürich"},"status":"Real"},{"key":"10109340","name":"Huebwisstrasse","postalCode":"8117","locality":"Fällanden","commune":{"key":"193","name":"Fällanden","shortName":"Fällanden"},"district":{"key":"109","name":"Bezirk Uster"},"canton":{"key":"1","code":"ZH","name":"Zürich"},"status":"Real"},{"key":"10166768","name":"Huebwisweg","postalCode":"8117","locality":"Fällanden","commune":{"key":"193","name":"Fällanden","shortName":"Fällanden"},"district":{"key":"109","name":"Bezirk Uster"},"canton":{"key":"1","code":"ZH","name":"Zürich"},"status":"Real"},{"key":"10170584","name":"I de Cholgrueb","postalCode":"8117","locality":"Fällanden","commune":{"key":"193","name":"Fällanden","shortName":"Fällanden"},"district":{"key":"109","name":"Bezirk Uster"},"canton":{"key":"1","code":"ZH","name":"Zürich"},"status":"Real"},{"key":"10170585","name":"I der Balm","postalCode":"8117","locality":"Fällanden","commune":{"key":"193","name":"Fällanden","shortName":"Fällanden"},"district":{"key":"109","name":"Bezirk Uster"},"canton":{"key":"1","code":"ZH","name":"Zürich"},"status":"Real"},{"key":"10167971","name":"Im Ankenrain","postalCode":"8117","locality":"Fällanden","commune":{"key":"193","name":"Fällanden","shortName":"Fällanden"},"district":{"key":"109","name":"Bezirk Uster"},"canton":{"key":"1","code":"ZH","name":"Zürich"},"status":"Real"},{"key":"10182242","name":"Im Breiteli","postalCode":"8117","locality":"Fällanden","commune":{"key":"193","name":"Fällanden","shortName":"Fällanden"},"district":{"key":"109","name":"Bezirk Uster"},"canton":{"key":"1","code":"ZH","name":"Zürich"},"status":"Real"},{"key":"10185306","name":"Im Gibel","postalCode":"8117","locality":"Fällanden","commune":{"key":"193","name":"Fällanden","shortName":"Fällanden"},"district":{"key":"109","name":"Bezirk Uster"},"canton":{"key":"1","code":"ZH","name":"Zürich"},"status":"Real"},{"key":"10001844","name":"Im Haufland","postalCode":"8117","locality":"Fällanden","commune":{"key":"193","name":"Fällanden","shortName":"Fällanden"},"district":{"key":"109","name":"Bezirk Uster"},"canton":{"key":"1","code":"ZH","name":"Zürich"},"status":"Real"},{"key":"10157839","name":"Im Meyerhof","postalCode":"8117","locality":"Fällanden","commune":{"key":"193","name":"Fällanden","shortName":"Fällanden"},"district":{"key":"109","name":"Bezirk Uster"},"canton":{"key":"1","code":"ZH","name":"Zürich"},"status":"Real"},{"key":"10001847","name":"Im Rohr","postalCode":"8117","locality":"Fällanden","commune":{"key":"193","name":"Fällanden","shortName":"Fällanden"},"district":{"key":"109","name":"Bezirk Uster"},"canton":{"key":"1","code":"ZH","name":"Zürich"},"status":"Real"},{"key":"10176659","name":"Im Rüeblig","postalCode":"8117","locality":"Fällanden","commune":{"key":"193","name":"Fällanden","shortName":"Fällanden"},"district":{"key":"109","name":"Bezirk Uster"},"canton":{"key":"1","code":"ZH","name":"Zürich"},"status":"Real"},{"key":"10161568","name":"In der Breiti","postalCode":"8117","locality":"Fällanden","commune":{"key":"193","name":"Fällanden","shortName":"Fällanden"},"district":{"key":"109","name":"Bezirk Uster"},"canton":{"key":"1","code":"ZH","name":"Zürich"},"status":"Real"},{"key":"10085184","name":"Industriestrasse","postalCode":"8117","locality":"Fällanden","commune":{"key":"193","name":"Fällanden","shortName":"Fällanden"},"district":{"key":"109","name":"Bezirk Uster"},"canton":{"key":"1","code":"ZH","name":"Zürich"},"status":"Real"},{"key":"10001845","name":"Kehrstrasse","postalCode":"8117","locality":"Fällanden","commune":{"key":"193","name":"Fällanden","shortName":"Fällanden"},"district":{"key":"109","name":"Bezirk Uster"},"canton":{"key":"1","code":"ZH","name":"Zürich"},"status":"Real"},{"key":"10170586","name":"Kehrweg","postalCode":"8117","locality":"Fällanden","commune":{"key":"193","name":"Fällanden","shortName":"Fällanden"},"district":{"key":"109","name":"Bezirk Uster"},"canton":{"key":"1","code":"ZH","name":"Zürich"},"status":"Real"},{"key":"10166735","name":"Klara-Buri-Strasse","postalCode":"8117","locality":"Fällanden","commune":{"key":"193","name":"Fällanden","shortName":"Fällanden"},"district":{"key":"109","name":"Bezirk Uster"},"canton":{"key":"1","code":"ZH","name":"Zürich"},"status":"Real"},{"key":"10163384","name":"Lachentobelweg","postalCode":"8117","locality":"Fällanden","commune":{"key":"193","name":"Fällanden","shortName":"Fällanden"},"district":{"key":"109","name":"Bezirk Uster"},"canton":{"key":"1","code":"ZH","name":"Zürich"},"status":"Real"},{"key":"10001846","name":"Langäristrasse","postalCode":"8117","locality":"Fällanden","commune":{"key":"193","name":"Fällanden","shortName":"Fällanden"},"district":{"key":"109","name":"Bezirk Uster"},"canton":{"key":"1","code":"ZH","name":"Zürich"},"status":"Real"},{"key":"10144279","name":"Letzacherstrasse","postalCode":"8117","locality":"Fällanden","commune":{"key":"193","name":"Fällanden","shortName":"Fällanden"},"district":{"key":"109","name":"Bezirk Uster"},"canton":{"key":"1","code":"ZH","name":"Zürich"},"status":"Real"},{"key":"10166734","name":"Letzacherweg","postalCode":"8117","locality":"Fällanden","commune":{"key":"193","name":"Fällanden","shortName":"Fällanden"},"district":{"key":"109","name":"Bezirk Uster"},"canton":{"key":"1","code":"ZH","name":"Zürich"},"status":"Real"},{"key":"10129716","name":"Maurstrasse","postalCode":"8117","locality":"Fällanden","commune":{"key":"193","name":"Fällanden","shortName":"Fällanden"},"district":{"key":"109","name":"Bezirk Uster"},"canton":{"key":"1","code":"ZH","name":"Zürich"},"status":"Real"},{"key":"10121829","name":"Morglenweg","postalCode":"8117","locality":"Fällanden","commune":{"key":"193","name":"Fällanden","shortName":"Fällanden"},"district":{"key":"109","name":"Bezirk Uster"},"canton":{"key":"1","code":"ZH","name":"Zürich"},"status":"Real"},{"key":"10245007","name":"Müliholzweg","postalCode":"8117","locality":"Fällanden","commune":{"key":"193","name":"Fällanden","shortName":"Fällanden"},"district":{"key":"109","name":"Bezirk Uster"},"canton":{"key":"1","code":"ZH","name":"Zürich"},"status":"Real"},{"key":"10016196","name":"Neuhusweg","postalCode":"8117","locality":"Fällanden","commune":{"key":"193","name":"Fällanden","shortName":"Fällanden"},"district":{"key":"109","name":"Bezirk Uster"},"canton":{"key":"1","code":"ZH","name":"Zürich"},"status":"Real"},{"key":"10085185","name":"Oberdorfstrasse","postalCode":"8117","locality":"Fällanden","commune":{"key":"193","name":"Fällanden","shortName":"Fällanden"},"district":{"key":"109","name":"Bezirk Uster"},"canton":{"key":"1","code":"ZH","name":"Zürich"},"status":"Real"},{"key":"10212098","name":"Oberdorfweg","postalCode":"8117","locality":"Fällanden","commune":{"key":"193","name":"Fällanden","shortName":"Fällanden"},"district":{"key":"109","name":"Bezirk Uster"},"canton":{"key":"1","code":"ZH","name":"Zürich"},"status":"Real"},{"key":"10016197","name":"Oberer Haldenweg","postalCode":"8117","locality":"Fällanden","commune":{"key":"193","name":"Fällanden","shortName":"Fällanden"},"district":{"key":"109","name":"Bezirk Uster"},"canton":{"key":"1","code":"ZH","name":"Zürich"},"status":"Real"},{"key":"10174571","name":"Oberer Zilbachweg","postalCode":"8117","locality":"Fällanden","commune":{"key":"193","name":"Fällanden","shortName":"Fällanden"},"district":{"key":"109","name":"Bezirk Uster"},"canton":{"key":"1","code":"ZH","name":"Zürich"},"status":"Real"},{"key":"10016198","name":"Rainwäg","postalCode":"8117","locality":"Fällanden","commune":{"key":"193","name":"Fällanden","shortName":"Fällanden"},"district":{"key":"109","name":"Bezirk Uster"},"canton":{"key":"1","code":"ZH","name":"Zürich"},"status":"Real"},{"key":"10174572","name":"Resiweiherweg","postalCode":"8117","locality":"Fällanden","commune":{"key":"193","name":"Fällanden","shortName":"Fällanden"},"district":{"key":"109","name":"Bezirk Uster"},"canton":{"key":"1","code":"ZH","name":"Zürich"},"status":"Real"},{"key":"10171080","name":"Rietgass","postalCode":"8117","locality":"Fällanden","commune":{"key":"193","name":"Fällanden","shortName":"Fällanden"},"district":{"key":"109","name":"Bezirk Uster"},"canton":{"key":"1","code":"ZH","name":"Zürich"},"status":"Real"},{"key":"10170588","name":"Rohrbachweg","postalCode":"8117","locality":"Fällanden","commune":{"key":"193","name":"Fällanden","shortName":"Fällanden"},"district":{"key":"109","name":"Bezirk Uster"},"canton":{"key":"1","code":"ZH","name":"Zürich"},"status":"Real"},{"key":"10171081","name":"Rohrwisweg","postalCode":"8117","locality":"Fällanden","commune":{"key":"193","name":"Fällanden","shortName":"Fällanden"},"district":{"key":"109","name":"Bezirk Uster"},"canton":{"key":"1","code":"ZH","name":"Zürich"},"status":"Real"},{"key":"10174573","name":"Sädelflurweg","postalCode":"8117","locality":"Fällanden","commune":{"key":"193","name":"Fällanden","shortName":"Fällanden"},"district":{"key":"109","name":"Bezirk Uster"},"canton":{"key":"1","code":"ZH","name":"Zürich"},"status":"Real"},{"key":"10174574","name":"Sädelweg","postalCode":"8117","locality":"Fällanden","commune":{"key":"193","name":"Fällanden","shortName":"Fällanden"},"district":{"key":"109","name":"Bezirk Uster"},"canton":{"key":"1","code":"ZH","name":"Zürich"},"status":"Real"},{"key":"10157280","name":"Sagiwäg","postalCode":"8117","locality":"Fällanden","commune":{"key":"193","name":"Fällanden","shortName":"Fällanden"},"district":{"key":"109","name":"Bezirk Uster"},"canton":{"key":"1","code":"ZH","name":"Zürich"},"status":"Real"},{"key":"10170591","name":"Sängglenweg","postalCode":"8117","locality":"Fällanden","commune":{"key":"193","name":"Fällanden","shortName":"Fällanden"},"district":{"key":"109","name":"Bezirk Uster"},"canton":{"key":"1","code":"ZH","name":"Zürich"},"status":"Real"},{"key":"10164554","name":"Sännhüttenwäg","postalCode":"8117","locality":"Fällanden","commune":{"key":"193","name":"Fällanden","shortName":"Fällanden"},"district":{"key":"109","name":"Bezirk Uster"},"canton":{"key":"1","code":"ZH","name":"Zürich"},"status":"Real"},{"key":"10176660","name":"Schüepwisstrasse","postalCode":"8117","locality":"Fällanden","commune":{"key":"193","name":"Fällanden","shortName":"Fällanden"},"district":{"key":"109","name":"Bezirk Uster"},"canton":{"key":"1","code":"ZH","name":"Zürich"},"status":"Real"},{"key":"10174575","name":"Schüepwiswäg","postalCode":"8117","locality":"Fällanden","commune":{"key":"193","name":"Fällanden","shortName":"Fällanden"},"district":{"key":"109","name":"Bezirk Uster"},"canton":{"key":"1","code":"ZH","name":"Zürich"},"status":"Real"},{"key":"10104130","name":"Schulhausstrasse","postalCode":"8117","locality":"Fällanden","commune":{"key":"193","name":"Fällanden","shortName":"Fällanden"},"district":{"key":"109","name":"Bezirk Uster"},"canton":{"key":"1","code":"ZH","name":"Zürich"},"status":"Real"},{"key":"10001848","name":"Schwandlenstrasse","postalCode":"8117","locality":"Fällanden","commune":{"key":"193","name":"Fällanden","shortName":"Fällanden"},"district":{"key":"109","name":"Bezirk Uster"},"canton":{"key":"1","code":"ZH","name":"Zürich"},"status":"Real"},{"key":"10174576","name":"Schwandlenweg","postalCode":"8117","locality":"Fällanden","commune":{"key":"193","name":"Fällanden","shortName":"Fällanden"},"district":{"key":"109","name":"Bezirk Uster"},"canton":{"key":"1","code":"ZH","name":"Zürich"},"status":"Real"},{"key":"10117591","name":"Schwerzenbachstrasse","postalCode":"8117","locality":"Fällanden","commune":{"key":"193","name":"Fällanden","shortName":"Fällanden"},"district":{"key":"109","name":"Bezirk Uster"},"canton":{"key":"1","code":"ZH","name":"Zürich"},"status":"Real"},{"key":"10161082","name":"Seefeldweg","postalCode":"8117","locality":"Fällanden","commune":{"key":"193","name":"Fällanden","shortName":"Fällanden"},"district":{"key":"109","name":"Bezirk Uster"},"canton":{"key":"1","code":"ZH","name":"Zürich"},"status":"Real"},{"key":"10172658","name":"Sinenrietweg","postalCode":"8117","locality":"Fällanden","commune":{"key":"193","name":"Fällanden","shortName":"Fällanden"},"district":{"key":"109","name":"Bezirk Uster"},"canton":{"key":"1","code":"ZH","name":"Zürich"},"status":"Real"},{"key":"10166732","name":"Speckwisweg","postalCode":"8117","locality":"Fällanden","commune":{"key":"193","name":"Fällanden","shortName":"Fällanden"},"district":{"key":"109","name":"Bezirk Uster"},"canton":{"key":"1","code":"ZH","name":"Zürich"},"status":"Real"},{"key":"10104005","name":"Stocklen","postalCode":"8117","locality":"Fällanden","commune":{"key":"193","name":"Fällanden","shortName":"Fällanden"},"district":{"key":"109","name":"Bezirk Uster"},"canton":{"key":"1","code":"ZH","name":"Zürich"},"status":"Real"},{"key":"10171083","name":"Stocklenweg","postalCode":"8117","locality":"Fällanden","commune":{"key":"193","name":"Fällanden","shortName":"Fällanden"},"district":{"key":"109","name":"Bezirk Uster"},"canton":{"key":"1","code":"ZH","name":"Zürich"},"status":"Real"},{"key":"10174577","name":"Stritgfennweg","postalCode":"8117","locality":"Fällanden","commune":{"key":"193","name":"Fällanden","shortName":"Fällanden"},"district":{"key":"109","name":"Bezirk Uster"},"canton":{"key":"1","code":"ZH","name":"Zürich"},"status":"Real"},{"key":"10125695","name":"Sunnetalstrasse","postalCode":"8117","locality":"Fällanden","commune":{"key":"193","name":"Fällanden","shortName":"Fällanden"},"district":{"key":"109","name":"Bezirk Uster"},"canton":{"key":"1","code":"ZH","name":"Zürich"},"status":"Real"},{"key":"10159127","name":"Sunnewäg","postalCode":"8117","locality":"Fällanden","commune":{"key":"193","name":"Fällanden","shortName":"Fällanden"},"district":{"key":"109","name":"Bezirk Uster"},"canton":{"key":"1","code":"ZH","name":"Zürich"},"status":"Real"},{"key":"10001849","name":"Talgartenstrasse","postalCode":"8117","locality":"Fällanden","commune":{"key":"193","name":"Fällanden","shortName":"Fällanden"},"district":{"key":"109","name":"Bezirk Uster"},"canton":{"key":"1","code":"ZH","name":"Zürich"},"status":"Real"},{"key":"10085186","name":"Tämperlistrasse","postalCode":"8117","locality":"Fällanden","commune":{"key":"193","name":"Fällanden","shortName":"Fällanden"},"district":{"key":"109","name":"Bezirk Uster"},"canton":{"key":"1","code":"ZH","name":"Zürich"},"status":"Real"},{"key":"10109313","name":"Toktergass","postalCode":"8117","locality":"Fällanden","commune":{"key":"193","name":"Fällanden","shortName":"Fällanden"},"district":{"key":"109","name":"Bezirk Uster"},"canton":{"key":"1","code":"ZH","name":"Zürich"},"status":"Real"},{"key":"10174578","name":"Tüfwisweg","postalCode":"8117","locality":"Fällanden","commune":{"key":"193","name":"Fällanden","shortName":"Fällanden"},"district":{"key":"109","name":"Bezirk Uster"},"canton":{"key":"1","code":"ZH","name":"Zürich"},"status":"Real"},{"key":"10166767","name":"Underrietweg","postalCode":"8117","locality":"Fällanden","commune":{"key":"193","name":"Fällanden","shortName":"Fällanden"},"district":{"key":"109","name":"Bezirk Uster"},"canton":{"key":"1","code":"ZH","name":"Zürich"},"status":"Real"},{"key":"10162310","name":"Unterdorfstrasse","postalCode":"8117","locality":"Fällanden","commune":{"key":"193","name":"Fällanden","shortName":"Fällanden"},"district":{"key":"109","name":"Bezirk Uster"},"canton":{"key":"1","code":"ZH","name":"Zürich"},"status":"Real"},{"key":"10165535","name":"Unterdorfwäg","postalCode":"8117","locality":"Fällanden","commune":{"key":"193","name":"Fällanden","shortName":"Fällanden"},"district":{"key":"109","name":"Bezirk Uster"},"canton":{"key":"1","code":"ZH","name":"Zürich"},"status":"Real"},{"key":"10001850","name":"Untere Halden","postalCode":"8117","locality":"Fällanden","commune":{"key":"193","name":"Fällanden","shortName":"Fällanden"},"district":{"key":"109","name":"Bezirk Uster"},"canton":{"key":"1","code":"ZH","name":"Zürich"},"status":"Real"},{"key":"10164556","name":"Unterer Chalenweg","postalCode":"8117","locality":"Fällanden","commune":{"key":"193","name":"Fällanden","shortName":"Fällanden"},"district":{"key":"109","name":"Bezirk Uster"},"canton":{"key":"1","code":"ZH","name":"Zürich"},"status":"Real"},{"key":"10207747","name":"Unterer Haldenweg","postalCode":"8117","locality":"Fällanden","commune":{"key":"193","name":"Fällanden","shortName":"Fällanden"},"district":{"key":"109","name":"Bezirk Uster"},"canton":{"key":"1","code":"ZH","name":"Zürich"},"status":"Real"},{"key":"10001851","name":"Unterer Rain","postalCode":"8117","locality":"Fällanden","commune":{"key":"193","name":"Fällanden","shortName":"Fällanden"},"district":{"key":"109","name":"Bezirk Uster"},"canton":{"key":"1","code":"ZH","name":"Zürich"},"status":"Real"},{"key":"10166766","name":"Unterer Zilbachweg","postalCode":"8117","locality":"Fällanden","commune":{"key":"193","name":"Fällanden","shortName":"Fällanden"},"district":{"key":"109","name":"Bezirk Uster"},"canton":{"key":"1","code":"ZH","name":"Zürich"},"status":"Real"},{"key":"10164557","name":"Wäglergass","postalCode":"8117","locality":"Fällanden","commune":{"key":"193","name":"Fällanden","shortName":"Fällanden"},"district":{"key":"109","name":"Bezirk Uster"},"canton":{"key":"1","code":"ZH","name":"Zürich"},"status":"Real"},{"key":"10164558","name":"Waldhausweg","postalCode":"8117","locality":"Fällanden","commune":{"key":"193","name":"Fällanden","shortName":"Fällanden"},"district":{"key":"109","name":"Bezirk Uster"},"canton":{"key":"1","code":"ZH","name":"Zürich"},"status":"Real"},{"key":"10164559","name":"Weiherweg","postalCode":"8117","locality":"Fällanden","commune":{"key":"193","name":"Fällanden","shortName":"Fällanden"},"district":{"key":"109","name":"Bezirk Uster"},"canton":{"key":"1","code":"ZH","name":"Zürich"},"status":"Real"},{"key":"10085187","name":"Wigartenstrasse","postalCode":"8117","locality":"Fällanden","commune":{"key":"193","name":"Fällanden","shortName":"Fällanden"},"district":{"key":"109","name":"Bezirk Uster"},"canton":{"key":"1","code":"ZH","name":"Zürich"},"status":"Real"},{"key":"10174579","name":"Wisbachflurweg","postalCode":"8117","locality":"Fällanden","commune":{"key":"193","name":"Fällanden","shortName":"Fällanden"},"district":{"key":"109","name":"Bezirk Uster"},"canton":{"key":"1","code":"ZH","name":"Zürich"},"status":"Real"},{"key":"10164560","name":"Wisbachweg","postalCode":"8117","locality":"Fällanden","commune":{"key":"193","name":"Fällanden","shortName":"Fällanden"},"district":{"key":"109","name":"Bezirk Uster"},"canton":{"key":"1","code":"ZH","name":"Zürich"},"status":"Real"},{"key":"10166731","name":"Ziegelhüttenweg","postalCode":"8117","locality":"Fällanden","commune":{"key":"193","name":"Fällanden","shortName":"Fällanden"},"district":{"key":"109","name":"Bezirk Uster"},"canton":{"key":"1","code":"ZH","name":"Zürich"},"status":"Real"},{"key":"10162065","name":"Zilbachweg","postalCode":"8117","locality":"Fällanden","commune":{"key":"193","name":"Fällanden","shortName":"Fällanden"},"district":{"key":"109","name":"Bezirk Uster"},"canton":{"key":"1","code":"ZH","name":"Zürich"},"status":"Real"},{"key":"10153163","name":"Zilstrasse","postalCode":"8117","locality":"Fällanden","commune":{"key":"193","name":"Fällanden","shortName":"Fällanden"},"district":{"key":"109","name":"Bezirk Uster"},"canton":{"key":"1","code":"ZH","name":"Zürich"},"status":"Real"},{"key":"10085191","name":"Zürich-Fussweg","postalCode":"8117","locality":"Fällanden","commune":{"key":"193","name":"Fällanden","shortName":"Fällanden"},"district":{"key":"109","name":"Bezirk Uster"},"canton":{"key":"1","code":"ZH","name":"Zürich"},"status":"Real"},{"key":"10104131","name":"Zürichstrasse","postalCode":"8117","locality":"Fällanden","commune":{"key":"193","name":"Fällanden","shortName":"Fällanden"},"district":{"key":"109","name":"Bezirk Uster"},"canton":{"key":"1","code":"ZH","name":"Zürich"},"status":"Real"},]