[{"key":"10099277","name":"Chemin Clos François","postalCode":"1081","locality":"Montpreveyres","commune":{"key":"5792","name":"Montpreveyres","shortName":"Montpreveyres"},"district":{"key":"2226","name":"District de Lavaux-Oron"},"canton":{"key":"22","code":"VD","name":"Vaud"},"status":"Real"},{"key":"10155075","name":"Chemin de la Chérard","postalCode":"1081","locality":"Montpreveyres","commune":{"key":"5792","name":"Montpreveyres","shortName":"Montpreveyres"},"district":{"key":"2226","name":"District de Lavaux-Oron"},"canton":{"key":"22","code":"VD","name":"Vaud"},"status":"Real"},{"key":"10037186","name":"Chemin de la Combe","postalCode":"1081","locality":"Montpreveyres","commune":{"key":"5792","name":"Montpreveyres","shortName":"Montpreveyres"},"district":{"key":"2226","name":"District de Lavaux-Oron"},"canton":{"key":"22","code":"VD","name":"Vaud"},"status":"Real"},{"key":"10140026","name":"Chemin de la Mellette","postalCode":"1081","locality":"Montpreveyres","commune":{"key":"5792","name":"Montpreveyres","shortName":"Montpreveyres"},"district":{"key":"2226","name":"District de Lavaux-Oron"},"canton":{"key":"22","code":"VD","name":"Vaud"},"status":"Real"},{"key":"10159764","name":"Chemin de l'Ancienne Poste","postalCode":"1081","locality":"Montpreveyres","commune":{"key":"5792","name":"Montpreveyres","shortName":"Montpreveyres"},"district":{"key":"2226","name":"District de Lavaux-Oron"},"canton":{"key":"22","code":"VD","name":"Vaud"},"status":"Real"},{"key":"10188704","name":"Chemin de la Rochette","postalCode":"1081","locality":"Montpreveyres","commune":{"key":"5792","name":"Montpreveyres","shortName":"Montpreveyres"},"district":{"key":"2226","name":"District de Lavaux-Oron"},"canton":{"key":"22","code":"VD","name":"Vaud"},"status":"Real"},{"key":"10037184","name":"Chemin de l'Eglise","postalCode":"1081","locality":"Montpreveyres","commune":{"key":"5792","name":"Montpreveyres","shortName":"Montpreveyres"},"district":{"key":"2226","name":"District de Lavaux-Oron"},"canton":{"key":"22","code":"VD","name":"Vaud"},"status":"Real"},{"key":"10159763","name":"Chemin de l'Epinette","postalCode":"1081","locality":"Montpreveyres","commune":{"key":"5792","name":"Montpreveyres","shortName":"Montpreveyres"},"district":{"key":"2226","name":"District de Lavaux-Oron"},"canton":{"key":"22","code":"VD","name":"Vaud"},"status":"Real"},{"key":"10180763","name":"Chemin de Molliebaudin","postalCode":"1081","locality":"Montpreveyres","commune":{"key":"5792","name":"Montpreveyres","shortName":"Montpreveyres"},"district":{"key":"2226","name":"District de Lavaux-Oron"},"canton":{"key":"22","code":"VD","name":"Vaud"},"status":"Real"},{"key":"10068547","name":"Chemin des Balances","postalCode":"1081","locality":"Montpreveyres","commune":{"key":"5792","name":"Montpreveyres","shortName":"Montpreveyres"},"district":{"key":"2226","name":"District de Lavaux-Oron"},"canton":{"key":"22","code":"VD","name":"Vaud"},"status":"Real"},{"key":"10165378","name":"Chemin des Bossons","postalCode":"1081","locality":"Montpreveyres","commune":{"key":"5792","name":"Montpreveyres","shortName":"Montpreveyres"},"district":{"key":"2226","name":"District de Lavaux-Oron"},"canton":{"key":"22","code":"VD","name":"Vaud"},"status":"Real"},{"key":"10099278","name":"Chemin du Rogin","postalCode":"1081","locality":"Montpreveyres","commune":{"key":"5792","name":"Montpreveyres","shortName":"Montpreveyres"},"district":{"key":"2226","name":"District de Lavaux-Oron"},"canton":{"key":"22","code":"VD","name":"Vaud"},"status":"Real"},{"key":"10037188","name":"Chemin Praz Paris","postalCode":"1081","locality":"Montpreveyres","commune":{"key":"5792","name":"Montpreveyres","shortName":"Montpreveyres"},"district":{"key":"2226","name":"District de Lavaux-Oron"},"canton":{"key":"22","code":"VD","name":"Vaud"},"status":"Real"},{"key":"10099279","name":"Moulin-du-Creux","postalCode":"1081","locality":"Montpreveyres","commune":{"key":"5792","name":"Montpreveyres","shortName":"Montpreveyres"},"district":{"key":"2226","name":"District de Lavaux-Oron"},"canton":{"key":"22","code":"VD","name":"Vaud"},"status":"Real"},{"key":"10037185","name":"Route A l'Allamand","postalCode":"1081","locality":"Montpreveyres","commune":{"key":"5792","name":"Montpreveyres","shortName":"Montpreveyres"},"district":{"key":"2226","name":"District de Lavaux-Oron"},"canton":{"key":"22","code":"VD","name":"Vaud"},"status":"Real"},{"key":"10125502","name":"Route de Berne","postalCode":"1081","locality":"Montpreveyres","commune":{"key":"5792","name":"Montpreveyres","shortName":"Montpreveyres"},"district":{"key":"2226","name":"District de Lavaux-Oron"},"canton":{"key":"22","code":"VD","name":"Vaud"},"status":"Real"},{"key":"10140025","name":"Route de la Croix Neuve","postalCode":"1081","locality":"Montpreveyres","commune":{"key":"5792","name":"Montpreveyres","shortName":"Montpreveyres"},"district":{"key":"2226","name":"District de Lavaux-Oron"},"canton":{"key":"22","code":"VD","name":"Vaud"},"status":"Real"},{"key":"10037187","name":"Route du Riau","postalCode":"1081","locality":"Montpreveyres","commune":{"key":"5792","name":"Montpreveyres","shortName":"Montpreveyres"},"district":{"key":"2226","name":"District de Lavaux-Oron"},"canton":{"key":"22","code":"VD","name":"Vaud"},"status":"Real"},{"key":"10139755","name":"Rue du Village","postalCode":"1081","locality":"Montpreveyres","commune":{"key":"5792","name":"Montpreveyres","shortName":"Montpreveyres"},"district":{"key":"2226","name":"District de Lavaux-Oron"},"canton":{"key":"22","code":"VD","name":"Vaud"},"status":"Real"},]