[{"name":"Ailsbach","postalCode":"91475","locality":"Lonnerstadt","municipality":{"key":"09572139","name":"Lonnerstadt, M","type":"Markt"},"district":{"key":"09572","name":"Erlangen-Höchstadt","type":"Landkreis"},"federalState":{"key":"09","name":"Bayern"}},{"name":"Am Baumgarten","postalCode":"91475","locality":"Lonnerstadt","municipality":{"key":"09572139","name":"Lonnerstadt, M","type":"Markt"},"district":{"key":"09572","name":"Erlangen-Höchstadt","type":"Landkreis"},"federalState":{"key":"09","name":"Bayern"}},{"name":"Am Mühlbach","postalCode":"91475","locality":"Lonnerstadt","municipality":{"key":"09572139","name":"Lonnerstadt, M","type":"Markt"},"district":{"key":"09572","name":"Erlangen-Höchstadt","type":"Landkreis"},"federalState":{"key":"09","name":"Bayern"}},{"name":"Amselstr.","postalCode":"91475","locality":"Lonnerstadt","municipality":{"key":"09572139","name":"Lonnerstadt, M","type":"Markt"},"district":{"key":"09572","name":"Erlangen-Höchstadt","type":"Landkreis"},"federalState":{"key":"09","name":"Bayern"}},{"name":"Am Sportplatz","postalCode":"91475","locality":"Lonnerstadt","municipality":{"key":"09572139","name":"Lonnerstadt, M","type":"Markt"},"district":{"key":"09572","name":"Erlangen-Höchstadt","type":"Landkreis"},"federalState":{"key":"09","name":"Bayern"}},{"name":"Am Steinbruch","postalCode":"91475","locality":"Lonnerstadt","municipality":{"key":"09572139","name":"Lonnerstadt, M","type":"Markt"},"district":{"key":"09572","name":"Erlangen-Höchstadt","type":"Landkreis"},"federalState":{"key":"09","name":"Bayern"}},{"name":"An den Kellern","postalCode":"91475","locality":"Lonnerstadt","municipality":{"key":"09572139","name":"Lonnerstadt, M","type":"Markt"},"district":{"key":"09572","name":"Erlangen-Höchstadt","type":"Landkreis"},"federalState":{"key":"09","name":"Bayern"}},{"name":"An der Leite","postalCode":"91475","locality":"Lonnerstadt","municipality":{"key":"09572139","name":"Lonnerstadt, M","type":"Markt"},"district":{"key":"09572","name":"Erlangen-Höchstadt","type":"Landkreis"},"federalState":{"key":"09","name":"Bayern"}},{"name":"An der Steinleiten","postalCode":"91475","locality":"Lonnerstadt","municipality":{"key":"09572139","name":"Lonnerstadt, M","type":"Markt"},"district":{"key":"09572","name":"Erlangen-Höchstadt","type":"Landkreis"},"federalState":{"key":"09","name":"Bayern"}},{"name":"An der Weisach","postalCode":"91475","locality":"Lonnerstadt","municipality":{"key":"09572139","name":"Lonnerstadt, M","type":"Markt"},"district":{"key":"09572","name":"Erlangen-Höchstadt","type":"Landkreis"},"federalState":{"key":"09","name":"Bayern"}},{"name":"Badgasse","postalCode":"91475","locality":"Lonnerstadt","municipality":{"key":"09572139","name":"Lonnerstadt, M","type":"Markt"},"district":{"key":"09572","name":"Erlangen-Höchstadt","type":"Landkreis"},"federalState":{"key":"09","name":"Bayern"}},{"name":"Bergstr.","postalCode":"91475","locality":"Lonnerstadt","municipality":{"key":"09572139","name":"Lonnerstadt, M","type":"Markt"},"district":{"key":"09572","name":"Erlangen-Höchstadt","type":"Landkreis"},"federalState":{"key":"09","name":"Bayern"}},{"name":"Breitenwasen","postalCode":"91475","locality":"Lonnerstadt","municipality":{"key":"09572139","name":"Lonnerstadt, M","type":"Markt"},"district":{"key":"09572","name":"Erlangen-Höchstadt","type":"Landkreis"},"federalState":{"key":"09","name":"Bayern"}},{"name":"Bürgermeister-Krafft-Str.","postalCode":"91475","locality":"Lonnerstadt","municipality":{"key":"09572139","name":"Lonnerstadt, M","type":"Markt"},"district":{"key":"09572","name":"Erlangen-Höchstadt","type":"Landkreis"},"federalState":{"key":"09","name":"Bayern"}},{"name":"Dompfaffweg","postalCode":"91475","locality":"Lonnerstadt","municipality":{"key":"09572139","name":"Lonnerstadt, M","type":"Markt"},"district":{"key":"09572","name":"Erlangen-Höchstadt","type":"Landkreis"},"federalState":{"key":"09","name":"Bayern"}},{"name":"Drosselstr.","postalCode":"91475","locality":"Lonnerstadt","municipality":{"key":"09572139","name":"Lonnerstadt, M","type":"Markt"},"district":{"key":"09572","name":"Erlangen-Höchstadt","type":"Landkreis"},"federalState":{"key":"09","name":"Bayern"}},{"name":"Fetzelhofen","postalCode":"91475","locality":"Lonnerstadt","municipality":{"key":"09572139","name":"Lonnerstadt, M","type":"Markt"},"district":{"key":"09572","name":"Erlangen-Höchstadt","type":"Landkreis"},"federalState":{"key":"09","name":"Bayern"}},{"name":"Fetzelhöferweg","postalCode":"91475","locality":"Lonnerstadt","municipality":{"key":"09572139","name":"Lonnerstadt, M","type":"Markt"},"district":{"key":"09572","name":"Erlangen-Höchstadt","type":"Landkreis"},"federalState":{"key":"09","name":"Bayern"}},{"name":"Finkenweg","postalCode":"91475","locality":"Lonnerstadt","municipality":{"key":"09572139","name":"Lonnerstadt, M","type":"Markt"},"district":{"key":"09572","name":"Erlangen-Höchstadt","type":"Landkreis"},"federalState":{"key":"09","name":"Bayern"}},{"name":"Flurstr.","postalCode":"91475","locality":"Lonnerstadt","municipality":{"key":"09572139","name":"Lonnerstadt, M","type":"Markt"},"district":{"key":"09572","name":"Erlangen-Höchstadt","type":"Landkreis"},"federalState":{"key":"09","name":"Bayern"}},{"name":"Goethestr.","postalCode":"91475","locality":"Lonnerstadt","municipality":{"key":"09572139","name":"Lonnerstadt, M","type":"Markt"},"district":{"key":"09572","name":"Erlangen-Höchstadt","type":"Landkreis"},"federalState":{"key":"09","name":"Bayern"}},{"name":"Hauptstr.","postalCode":"91475","locality":"Lonnerstadt","municipality":{"key":"09572139","name":"Lonnerstadt, M","type":"Markt"},"district":{"key":"09572","name":"Erlangen-Höchstadt","type":"Landkreis"},"federalState":{"key":"09","name":"Bayern"}},{"name":"Herrnstr.","postalCode":"91475","locality":"Lonnerstadt","municipality":{"key":"09572139","name":"Lonnerstadt, M","type":"Markt"},"district":{"key":"09572","name":"Erlangen-Höchstadt","type":"Landkreis"},"federalState":{"key":"09","name":"Bayern"}},{"name":"Hirtenhöhe","postalCode":"91475","locality":"Lonnerstadt","municipality":{"key":"09572139","name":"Lonnerstadt, M","type":"Markt"},"district":{"key":"09572","name":"Erlangen-Höchstadt","type":"Landkreis"},"federalState":{"key":"09","name":"Bayern"}},{"name":"Höchstadter Str.","postalCode":"91475","locality":"Lonnerstadt","municipality":{"key":"09572139","name":"Lonnerstadt, M","type":"Markt"},"district":{"key":"09572","name":"Erlangen-Höchstadt","type":"Landkreis"},"federalState":{"key":"09","name":"Bayern"}},{"name":"Hutergasse","postalCode":"91475","locality":"Lonnerstadt","municipality":{"key":"09572139","name":"Lonnerstadt, M","type":"Markt"},"district":{"key":"09572","name":"Erlangen-Höchstadt","type":"Landkreis"},"federalState":{"key":"09","name":"Bayern"}},{"name":"Lerchenstr.","postalCode":"91475","locality":"Lonnerstadt","municipality":{"key":"09572139","name":"Lonnerstadt, M","type":"Markt"},"district":{"key":"09572","name":"Erlangen-Höchstadt","type":"Landkreis"},"federalState":{"key":"09","name":"Bayern"}},{"name":"Mailach","postalCode":"91475","locality":"Lonnerstadt","municipality":{"key":"09572139","name":"Lonnerstadt, M","type":"Markt"},"district":{"key":"09572","name":"Erlangen-Höchstadt","type":"Landkreis"},"federalState":{"key":"09","name":"Bayern"}},{"name":"Marktplatz","postalCode":"91475","locality":"Lonnerstadt","municipality":{"key":"09572139","name":"Lonnerstadt, M","type":"Markt"},"district":{"key":"09572","name":"Erlangen-Höchstadt","type":"Landkreis"},"federalState":{"key":"09","name":"Bayern"}},{"name":"Meisenweg","postalCode":"91475","locality":"Lonnerstadt","municipality":{"key":"09572139","name":"Lonnerstadt, M","type":"Markt"},"district":{"key":"09572","name":"Erlangen-Höchstadt","type":"Landkreis"},"federalState":{"key":"09","name":"Bayern"}},{"name":"Mühlgasse","postalCode":"91475","locality":"Lonnerstadt","municipality":{"key":"09572139","name":"Lonnerstadt, M","type":"Markt"},"district":{"key":"09572","name":"Erlangen-Höchstadt","type":"Landkreis"},"federalState":{"key":"09","name":"Bayern"}},{"name":"Mühlleite","postalCode":"91475","locality":"Lonnerstadt","municipality":{"key":"09572139","name":"Lonnerstadt, M","type":"Markt"},"district":{"key":"09572","name":"Erlangen-Höchstadt","type":"Landkreis"},"federalState":{"key":"09","name":"Bayern"}},{"name":"Oberer Garten","postalCode":"91475","locality":"Lonnerstadt","municipality":{"key":"09572139","name":"Lonnerstadt, M","type":"Markt"},"district":{"key":"09572","name":"Erlangen-Höchstadt","type":"Landkreis"},"federalState":{"key":"09","name":"Bayern"}},{"name":"Pfarrgasse","postalCode":"91475","locality":"Lonnerstadt","municipality":{"key":"09572139","name":"Lonnerstadt, M","type":"Markt"},"district":{"key":"09572","name":"Erlangen-Höchstadt","type":"Landkreis"},"federalState":{"key":"09","name":"Bayern"}},{"name":"Ringstr.","postalCode":"91475","locality":"Lonnerstadt","municipality":{"key":"09572139","name":"Lonnerstadt, M","type":"Markt"},"district":{"key":"09572","name":"Erlangen-Höchstadt","type":"Landkreis"},"federalState":{"key":"09","name":"Bayern"}},{"name":"Roter Bergweg","postalCode":"91475","locality":"Lonnerstadt","municipality":{"key":"09572139","name":"Lonnerstadt, M","type":"Markt"},"district":{"key":"09572","name":"Erlangen-Höchstadt","type":"Landkreis"},"federalState":{"key":"09","name":"Bayern"}},{"name":"Schillerstr.","postalCode":"91475","locality":"Lonnerstadt","municipality":{"key":"09572139","name":"Lonnerstadt, M","type":"Markt"},"district":{"key":"09572","name":"Erlangen-Höchstadt","type":"Landkreis"},"federalState":{"key":"09","name":"Bayern"}},{"name":"Schulstr.","postalCode":"91475","locality":"Lonnerstadt","municipality":{"key":"09572139","name":"Lonnerstadt, M","type":"Markt"},"district":{"key":"09572","name":"Erlangen-Höchstadt","type":"Landkreis"},"federalState":{"key":"09","name":"Bayern"}},{"name":"Schustergasse","postalCode":"91475","locality":"Lonnerstadt","municipality":{"key":"09572139","name":"Lonnerstadt, M","type":"Markt"},"district":{"key":"09572","name":"Erlangen-Höchstadt","type":"Landkreis"},"federalState":{"key":"09","name":"Bayern"}},{"name":"Schwalbenstr.","postalCode":"91475","locality":"Lonnerstadt","municipality":{"key":"09572139","name":"Lonnerstadt, M","type":"Markt"},"district":{"key":"09572","name":"Erlangen-Höchstadt","type":"Landkreis"},"federalState":{"key":"09","name":"Bayern"}},]