[{"name":"Ackerstr.","postalCode":"92533","locality":"Wernberg-Köblitz","municipality":{"key":"09376150","name":"Wernberg-Köblitz, M","type":"Markt"},"district":{"key":"09376","name":"Schwandorf","type":"Landkreis"},"federalState":{"key":"09","name":"Bayern"}},{"name":"Akazienweg","postalCode":"92533","locality":"Wernberg-Köblitz","municipality":{"key":"09376150","name":"Wernberg-Köblitz, M","type":"Markt"},"district":{"key":"09376","name":"Schwandorf","type":"Landkreis"},"federalState":{"key":"09","name":"Bayern"}},{"name":"Am Anger","postalCode":"92533","locality":"Wernberg-Köblitz","municipality":{"key":"09376150","name":"Wernberg-Köblitz, M","type":"Markt"},"district":{"key":"09376","name":"Schwandorf","type":"Landkreis"},"federalState":{"key":"09","name":"Bayern"}},{"name":"Am Bergl","postalCode":"92533","locality":"Wernberg-Köblitz","municipality":{"key":"09376150","name":"Wernberg-Köblitz, M","type":"Markt"},"district":{"key":"09376","name":"Schwandorf","type":"Landkreis"},"federalState":{"key":"09","name":"Bayern"}},{"name":"Am Fischerbügel","postalCode":"92533","locality":"Wernberg-Köblitz","municipality":{"key":"09376150","name":"Wernberg-Köblitz, M","type":"Markt"},"district":{"key":"09376","name":"Schwandorf","type":"Landkreis"},"federalState":{"key":"09","name":"Bayern"}},{"name":"Am Franzosengraben","postalCode":"92533","locality":"Wernberg-Köblitz","municipality":{"key":"09376150","name":"Wernberg-Köblitz, M","type":"Markt"},"district":{"key":"09376","name":"Schwandorf","type":"Landkreis"},"federalState":{"key":"09","name":"Bayern"}},{"name":"Am Hutanger","postalCode":"92533","locality":"Wernberg-Köblitz","municipality":{"key":"09376150","name":"Wernberg-Köblitz, M","type":"Markt"},"district":{"key":"09376","name":"Schwandorf","type":"Landkreis"},"federalState":{"key":"09","name":"Bayern"}},{"name":"Am Kalvarienberg","postalCode":"92533","locality":"Wernberg-Köblitz","municipality":{"key":"09376150","name":"Wernberg-Köblitz, M","type":"Markt"},"district":{"key":"09376","name":"Schwandorf","type":"Landkreis"},"federalState":{"key":"09","name":"Bayern"}},{"name":"Am Sonnenhang","postalCode":"92533","locality":"Wernberg-Köblitz","municipality":{"key":"09376150","name":"Wernberg-Köblitz, M","type":"Markt"},"district":{"key":"09376","name":"Schwandorf","type":"Landkreis"},"federalState":{"key":"09","name":"Bayern"}},{"name":"Am Umriß","postalCode":"92533","locality":"Wernberg-Köblitz","municipality":{"key":"09376150","name":"Wernberg-Köblitz, M","type":"Markt"},"district":{"key":"09376","name":"Schwandorf","type":"Landkreis"},"federalState":{"key":"09","name":"Bayern"}},{"name":"Austr.","postalCode":"92533","locality":"Wernberg-Köblitz","municipality":{"key":"09376150","name":"Wernberg-Köblitz, M","type":"Markt"},"district":{"key":"09376","name":"Schwandorf","type":"Landkreis"},"federalState":{"key":"09","name":"Bayern"}},{"name":"Bachgasse","postalCode":"92533","locality":"Wernberg-Köblitz","municipality":{"key":"09376150","name":"Wernberg-Köblitz, M","type":"Markt"},"district":{"key":"09376","name":"Schwandorf","type":"Landkreis"},"federalState":{"key":"09","name":"Bayern"}},{"name":"Bachstr.","postalCode":"92533","locality":"Wernberg-Köblitz","municipality":{"key":"09376150","name":"Wernberg-Köblitz, M","type":"Markt"},"district":{"key":"09376","name":"Schwandorf","type":"Landkreis"},"federalState":{"key":"09","name":"Bayern"}},{"name":"Bahnhofstr.","postalCode":"92533","locality":"Wernberg-Köblitz","municipality":{"key":"09376150","name":"Wernberg-Köblitz, M","type":"Markt"},"district":{"key":"09376","name":"Schwandorf","type":"Landkreis"},"federalState":{"key":"09","name":"Bayern"}},{"name":"Baronstr.","postalCode":"92533","locality":"Wernberg-Köblitz","municipality":{"key":"09376150","name":"Wernberg-Köblitz, M","type":"Markt"},"district":{"key":"09376","name":"Schwandorf","type":"Landkreis"},"federalState":{"key":"09","name":"Bayern"}},{"name":"Bayernstr.","postalCode":"92533","locality":"Wernberg-Köblitz","municipality":{"key":"09376150","name":"Wernberg-Köblitz, M","type":"Markt"},"district":{"key":"09376","name":"Schwandorf","type":"Landkreis"},"federalState":{"key":"09","name":"Bayern"}},{"name":"Bergl-Mitte","postalCode":"92533","locality":"Wernberg-Köblitz","municipality":{"key":"09376150","name":"Wernberg-Köblitz, M","type":"Markt"},"district":{"key":"09376","name":"Schwandorf","type":"Landkreis"},"federalState":{"key":"09","name":"Bayern"}},{"name":"Bergstr.","postalCode":"92533","locality":"Wernberg-Köblitz","municipality":{"key":"09376150","name":"Wernberg-Köblitz, M","type":"Markt"},"district":{"key":"09376","name":"Schwandorf","type":"Landkreis"},"federalState":{"key":"09","name":"Bayern"}},{"name":"Beringerstr.","postalCode":"92533","locality":"Wernberg-Köblitz","municipality":{"key":"09376150","name":"Wernberg-Köblitz, M","type":"Markt"},"district":{"key":"09376","name":"Schwandorf","type":"Landkreis"},"federalState":{"key":"09","name":"Bayern"}},{"name":"Bernsteinstr.","postalCode":"92533","locality":"Wernberg-Köblitz","municipality":{"key":"09376150","name":"Wernberg-Köblitz, M","type":"Markt"},"district":{"key":"09376","name":"Schwandorf","type":"Landkreis"},"federalState":{"key":"09","name":"Bayern"}},{"name":"Birkenstr.","postalCode":"92533","locality":"Wernberg-Köblitz","municipality":{"key":"09376150","name":"Wernberg-Köblitz, M","type":"Markt"},"district":{"key":"09376","name":"Schwandorf","type":"Landkreis"},"federalState":{"key":"09","name":"Bayern"}},{"name":"Blumenstr.","postalCode":"92533","locality":"Wernberg-Köblitz","municipality":{"key":"09376150","name":"Wernberg-Köblitz, M","type":"Markt"},"district":{"key":"09376","name":"Schwandorf","type":"Landkreis"},"federalState":{"key":"09","name":"Bayern"}},{"name":"Blütenstr.","postalCode":"92533","locality":"Wernberg-Köblitz","municipality":{"key":"09376150","name":"Wernberg-Köblitz, M","type":"Markt"},"district":{"key":"09376","name":"Schwandorf","type":"Landkreis"},"federalState":{"key":"09","name":"Bayern"}},{"name":"Böhmerwaldstr.","postalCode":"92533","locality":"Wernberg-Köblitz","municipality":{"key":"09376150","name":"Wernberg-Köblitz, M","type":"Markt"},"district":{"key":"09376","name":"Schwandorf","type":"Landkreis"},"federalState":{"key":"09","name":"Bayern"}},{"name":"Brandenburger Weg","postalCode":"92533","locality":"Wernberg-Köblitz","municipality":{"key":"09376150","name":"Wernberg-Köblitz, M","type":"Markt"},"district":{"key":"09376","name":"Schwandorf","type":"Landkreis"},"federalState":{"key":"09","name":"Bayern"}},{"name":"Brauhausstr.","postalCode":"92533","locality":"Wernberg-Köblitz","municipality":{"key":"09376150","name":"Wernberg-Köblitz, M","type":"Markt"},"district":{"key":"09376","name":"Schwandorf","type":"Landkreis"},"federalState":{"key":"09","name":"Bayern"}},{"name":"Brenckenstr.","postalCode":"92533","locality":"Wernberg-Köblitz","municipality":{"key":"09376150","name":"Wernberg-Köblitz, M","type":"Markt"},"district":{"key":"09376","name":"Schwandorf","type":"Landkreis"},"federalState":{"key":"09","name":"Bayern"}},{"name":"Brückenstr.","postalCode":"92533","locality":"Wernberg-Köblitz","municipality":{"key":"09376150","name":"Wernberg-Köblitz, M","type":"Markt"},"district":{"key":"09376","name":"Schwandorf","type":"Landkreis"},"federalState":{"key":"09","name":"Bayern"}},{"name":"Bürgermeister-Bauer-Str.","postalCode":"92533","locality":"Wernberg-Köblitz","municipality":{"key":"09376150","name":"Wernberg-Köblitz, M","type":"Markt"},"district":{"key":"09376","name":"Schwandorf","type":"Landkreis"},"federalState":{"key":"09","name":"Bayern"}},{"name":"Bürgermeister-Birkmüller-Str.","postalCode":"92533","locality":"Wernberg-Köblitz","municipality":{"key":"09376150","name":"Wernberg-Köblitz, M","type":"Markt"},"district":{"key":"09376","name":"Schwandorf","type":"Landkreis"},"federalState":{"key":"09","name":"Bayern"}},{"name":"Bürgermeister-Koch-Str.","postalCode":"92533","locality":"Wernberg-Köblitz","municipality":{"key":"09376150","name":"Wernberg-Köblitz, M","type":"Markt"},"district":{"key":"09376","name":"Schwandorf","type":"Landkreis"},"federalState":{"key":"09","name":"Bayern"}},{"name":"Bürgermeister-Wiederer-Str.","postalCode":"92533","locality":"Wernberg-Köblitz","municipality":{"key":"09376150","name":"Wernberg-Köblitz, M","type":"Markt"},"district":{"key":"09376","name":"Schwandorf","type":"Landkreis"},"federalState":{"key":"09","name":"Bayern"}},{"name":"Celsiusstr.","postalCode":"92421","locality":"Schwandorf","municipality":{"key":"09376161","name":"Schwandorf, GKSt","type":"Große_Kreisstadt"},"district":{"key":"09376","name":"Schwandorf","type":"Landkreis"},"federalState":{"key":"09","name":"Bayern"}},{"name":"Charlottenhof","postalCode":"92421","locality":"Schwandorf","municipality":{"key":"09376161","name":"Schwandorf, GKSt","type":"Große_Kreisstadt"},"district":{"key":"09376","name":"Schwandorf","type":"Landkreis"},"federalState":{"key":"09","name":"Bayern"}},{"name":"Damelsdorf","postalCode":"92533","locality":"Wernberg-Köblitz","municipality":{"key":"09376150","name":"Wernberg-Köblitz, M","type":"Markt"},"district":{"key":"09376","name":"Schwandorf","type":"Landkreis"},"federalState":{"key":"09","name":"Bayern"}},{"name":"Damelsdorf-Siedlung","postalCode":"92533","locality":"Wernberg-Köblitz","municipality":{"key":"09376150","name":"Wernberg-Köblitz, M","type":"Markt"},"district":{"key":"09376","name":"Schwandorf","type":"Landkreis"},"federalState":{"key":"09","name":"Bayern"}},{"name":"Diebrunn","postalCode":"92533","locality":"Wernberg-Köblitz","municipality":{"key":"09376150","name":"Wernberg-Köblitz, M","type":"Markt"},"district":{"key":"09376","name":"Schwandorf","type":"Landkreis"},"federalState":{"key":"09","name":"Bayern"}},{"name":"Diebrunner Weg","postalCode":"92533","locality":"Wernberg-Köblitz","municipality":{"key":"09376150","name":"Wernberg-Köblitz, M","type":"Markt"},"district":{"key":"09376","name":"Schwandorf","type":"Landkreis"},"federalState":{"key":"09","name":"Bayern"}},{"name":"Döllnitzer Str.","postalCode":"92533","locality":"Wernberg-Köblitz","municipality":{"key":"09376150","name":"Wernberg-Köblitz, M","type":"Markt"},"district":{"key":"09376","name":"Schwandorf","type":"Landkreis"},"federalState":{"key":"09","name":"Bayern"}},{"name":"Dr.-Fritz-Loew-Str.","postalCode":"92533","locality":"Wernberg-Köblitz","municipality":{"key":"09376150","name":"Wernberg-Köblitz, M","type":"Markt"},"district":{"key":"09376","name":"Schwandorf","type":"Landkreis"},"federalState":{"key":"09","name":"Bayern"}},{"name":"Erlenweg","postalCode":"92533","locality":"Wernberg-Köblitz","municipality":{"key":"09376150","name":"Wernberg-Köblitz, M","type":"Markt"},"district":{"key":"09376","name":"Schwandorf","type":"Landkreis"},"federalState":{"key":"09","name":"Bayern"}},{"name":"Färberstr.","postalCode":"92533","locality":"Wernberg-Köblitz","municipality":{"key":"09376150","name":"Wernberg-Köblitz, M","type":"Markt"},"district":{"key":"09376","name":"Schwandorf","type":"Landkreis"},"federalState":{"key":"09","name":"Bayern"}},{"name":"Feistelberger Str.","postalCode":"92533","locality":"Wernberg-Köblitz","municipality":{"key":"09376150","name":"Wernberg-Köblitz, M","type":"Markt"},"district":{"key":"09376","name":"Schwandorf","type":"Landkreis"},"federalState":{"key":"09","name":"Bayern"}},{"name":"Feistelholzstr.","postalCode":"92533","locality":"Wernberg-Köblitz","municipality":{"key":"09376150","name":"Wernberg-Köblitz, M","type":"Markt"},"district":{"key":"09376","name":"Schwandorf","type":"Landkreis"},"federalState":{"key":"09","name":"Bayern"}},{"name":"Feldstr.","postalCode":"92533","locality":"Wernberg-Köblitz","municipality":{"key":"09376150","name":"Wernberg-Köblitz, M","type":"Markt"},"district":{"key":"09376","name":"Schwandorf","type":"Landkreis"},"federalState":{"key":"09","name":"Bayern"}},{"name":"Fichtenstr.","postalCode":"92533","locality":"Wernberg-Köblitz","municipality":{"key":"09376150","name":"Wernberg-Köblitz, M","type":"Markt"},"district":{"key":"09376","name":"Schwandorf","type":"Landkreis"},"federalState":{"key":"09","name":"Bayern"}},{"name":"Finkenweg","postalCode":"92533","locality":"Wernberg-Köblitz","municipality":{"key":"09376150","name":"Wernberg-Köblitz, M","type":"Markt"},"district":{"key":"09376","name":"Schwandorf","type":"Landkreis"},"federalState":{"key":"09","name":"Bayern"}},{"name":"Fischerweg","postalCode":"92533","locality":"Wernberg-Köblitz","municipality":{"key":"09376150","name":"Wernberg-Köblitz, M","type":"Markt"},"district":{"key":"09376","name":"Schwandorf","type":"Landkreis"},"federalState":{"key":"09","name":"Bayern"}},{"name":"Fliederstr.","postalCode":"92533","locality":"Wernberg-Köblitz","municipality":{"key":"09376150","name":"Wernberg-Köblitz, M","type":"Markt"},"district":{"key":"09376","name":"Schwandorf","type":"Landkreis"},"federalState":{"key":"09","name":"Bayern"}},{"name":"Florianstr.","postalCode":"92533","locality":"Wernberg-Köblitz","municipality":{"key":"09376150","name":"Wernberg-Köblitz, M","type":"Markt"},"district":{"key":"09376","name":"Schwandorf","type":"Landkreis"},"federalState":{"key":"09","name":"Bayern"}},{"name":"Flurstr.","postalCode":"92533","locality":"Wernberg-Köblitz","municipality":{"key":"09376150","name":"Wernberg-Köblitz, M","type":"Markt"},"district":{"key":"09376","name":"Schwandorf","type":"Landkreis"},"federalState":{"key":"09","name":"Bayern"}},{"name":"Försterweg","postalCode":"92533","locality":"Wernberg-Köblitz","municipality":{"key":"09376150","name":"Wernberg-Köblitz, M","type":"Markt"},"district":{"key":"09376","name":"Schwandorf","type":"Landkreis"},"federalState":{"key":"09","name":"Bayern"}},{"name":"Friedersdorf","postalCode":"92533","locality":"Wernberg-Köblitz","municipality":{"key":"09376150","name":"Wernberg-Köblitz, M","type":"Markt"},"district":{"key":"09376","name":"Schwandorf","type":"Landkreis"},"federalState":{"key":"09","name":"Bayern"}},{"name":"Frühlingstr.","postalCode":"92533","locality":"Wernberg-Köblitz","municipality":{"key":"09376150","name":"Wernberg-Köblitz, M","type":"Markt"},"district":{"key":"09376","name":"Schwandorf","type":"Landkreis"},"federalState":{"key":"09","name":"Bayern"}},{"name":"Galgenbergweg","postalCode":"92533","locality":"Wernberg-Köblitz","municipality":{"key":"09376150","name":"Wernberg-Köblitz, M","type":"Markt"},"district":{"key":"09376","name":"Schwandorf","type":"Landkreis"},"federalState":{"key":"09","name":"Bayern"}},{"name":"Geisfußstr.","postalCode":"92533","locality":"Wernberg-Köblitz","municipality":{"key":"09376150","name":"Wernberg-Köblitz, M","type":"Markt"},"district":{"key":"09376","name":"Schwandorf","type":"Landkreis"},"federalState":{"key":"09","name":"Bayern"}},{"name":"Gewerbering Süd","postalCode":"92533","locality":"Wernberg-Köblitz","municipality":{"key":"09376150","name":"Wernberg-Köblitz, M","type":"Markt"},"district":{"key":"09376","name":"Schwandorf","type":"Landkreis"},"federalState":{"key":"09","name":"Bayern"}},{"name":"Graf-Schall-Str.","postalCode":"92533","locality":"Wernberg-Köblitz","municipality":{"key":"09376150","name":"Wernberg-Köblitz, M","type":"Markt"},"district":{"key":"09376","name":"Schwandorf","type":"Landkreis"},"federalState":{"key":"09","name":"Bayern"}},{"name":"Hammertrathstr.","postalCode":"92533","locality":"Wernberg-Köblitz","municipality":{"key":"09376150","name":"Wernberg-Köblitz, M","type":"Markt"},"district":{"key":"09376","name":"Schwandorf","type":"Landkreis"},"federalState":{"key":"09","name":"Bayern"}},{"name":"Hauptstr.","postalCode":"92533","locality":"Wernberg-Köblitz","municipality":{"key":"09376150","name":"Wernberg-Köblitz, M","type":"Markt"},"district":{"key":"09376","name":"Schwandorf","type":"Landkreis"},"federalState":{"key":"09","name":"Bayern"}},{"name":"Heidestr.","postalCode":"92533","locality":"Wernberg-Köblitz","municipality":{"key":"09376150","name":"Wernberg-Köblitz, M","type":"Markt"},"district":{"key":"09376","name":"Schwandorf","type":"Landkreis"},"federalState":{"key":"09","name":"Bayern"}},{"name":"Hintere Gasse","postalCode":"92533","locality":"Wernberg-Köblitz","municipality":{"key":"09376150","name":"Wernberg-Köblitz, M","type":"Markt"},"district":{"key":"09376","name":"Schwandorf","type":"Landkreis"},"federalState":{"key":"09","name":"Bayern"}},{"name":"Hirtenstr.","postalCode":"92533","locality":"Wernberg-Köblitz","municipality":{"key":"09376150","name":"Wernberg-Köblitz, M","type":"Markt"},"district":{"key":"09376","name":"Schwandorf","type":"Landkreis"},"federalState":{"key":"09","name":"Bayern"}},{"name":"Hochstr.","postalCode":"92533","locality":"Wernberg-Köblitz","municipality":{"key":"09376150","name":"Wernberg-Köblitz, M","type":"Markt"},"district":{"key":"09376","name":"Schwandorf","type":"Landkreis"},"federalState":{"key":"09","name":"Bayern"}},{"name":"Hofau","postalCode":"92533","locality":"Wernberg-Köblitz","municipality":{"key":"09376150","name":"Wernberg-Köblitz, M","type":"Markt"},"district":{"key":"09376","name":"Schwandorf","type":"Landkreis"},"federalState":{"key":"09","name":"Bayern"}},{"name":"Hofmarkstr.","postalCode":"92533","locality":"Wernberg-Köblitz","municipality":{"key":"09376150","name":"Wernberg-Köblitz, M","type":"Markt"},"district":{"key":"09376","name":"Schwandorf","type":"Landkreis"},"federalState":{"key":"09","name":"Bayern"}},{"name":"Höhenweg","postalCode":"92533","locality":"Wernberg-Köblitz","municipality":{"key":"09376150","name":"Wernberg-Köblitz, M","type":"Markt"},"district":{"key":"09376","name":"Schwandorf","type":"Landkreis"},"federalState":{"key":"09","name":"Bayern"}},{"name":"Holunderweg","postalCode":"92533","locality":"Wernberg-Köblitz","municipality":{"key":"09376150","name":"Wernberg-Köblitz, M","type":"Markt"},"district":{"key":"09376","name":"Schwandorf","type":"Landkreis"},"federalState":{"key":"09","name":"Bayern"}},{"name":"Holzhammerweg","postalCode":"92533","locality":"Wernberg-Köblitz","municipality":{"key":"09376150","name":"Wernberg-Köblitz, M","type":"Markt"},"district":{"key":"09376","name":"Schwandorf","type":"Landkreis"},"federalState":{"key":"09","name":"Bayern"}},{"name":"Im Gassl","postalCode":"92533","locality":"Wernberg-Köblitz","municipality":{"key":"09376150","name":"Wernberg-Köblitz, M","type":"Markt"},"district":{"key":"09376","name":"Schwandorf","type":"Landkreis"},"federalState":{"key":"09","name":"Bayern"}},{"name":"Jägerstr.","postalCode":"92533","locality":"Wernberg-Köblitz","municipality":{"key":"09376150","name":"Wernberg-Köblitz, M","type":"Markt"},"district":{"key":"09376","name":"Schwandorf","type":"Landkreis"},"federalState":{"key":"09","name":"Bayern"}},{"name":"Jahnstr.","postalCode":"92533","locality":"Wernberg-Köblitz","municipality":{"key":"09376150","name":"Wernberg-Köblitz, M","type":"Markt"},"district":{"key":"09376","name":"Schwandorf","type":"Landkreis"},"federalState":{"key":"09","name":"Bayern"}},{"name":"Kärntner Str.","postalCode":"92533","locality":"Wernberg-Köblitz","municipality":{"key":"09376150","name":"Wernberg-Köblitz, M","type":"Markt"},"district":{"key":"09376","name":"Schwandorf","type":"Landkreis"},"federalState":{"key":"09","name":"Bayern"}},{"name":"Kellerweg","postalCode":"92533","locality":"Wernberg-Köblitz","municipality":{"key":"09376150","name":"Wernberg-Köblitz, M","type":"Markt"},"district":{"key":"09376","name":"Schwandorf","type":"Landkreis"},"federalState":{"key":"09","name":"Bayern"}},{"name":"Keplerstr.","postalCode":"92533","locality":"Wernberg-Köblitz","municipality":{"key":"09376150","name":"Wernberg-Köblitz, M","type":"Markt"},"district":{"key":"09376","name":"Schwandorf","type":"Landkreis"},"federalState":{"key":"09","name":"Bayern"}},{"name":"Kiefernweg","postalCode":"92533","locality":"Wernberg-Köblitz","municipality":{"key":"09376150","name":"Wernberg-Köblitz, M","type":"Markt"},"district":{"key":"09376","name":"Schwandorf","type":"Landkreis"},"federalState":{"key":"09","name":"Bayern"}},{"name":"Kinderheimstr.","postalCode":"92533","locality":"Wernberg-Köblitz","municipality":{"key":"09376150","name":"Wernberg-Köblitz, M","type":"Markt"},"district":{"key":"09376","name":"Schwandorf","type":"Landkreis"},"federalState":{"key":"09","name":"Bayern"}},{"name":"Kirchgasse","postalCode":"92533","locality":"Wernberg-Köblitz","municipality":{"key":"09376150","name":"Wernberg-Köblitz, M","type":"Markt"},"district":{"key":"09376","name":"Schwandorf","type":"Landkreis"},"federalState":{"key":"09","name":"Bayern"}},{"name":"Kirschweg","postalCode":"92533","locality":"Wernberg-Köblitz","municipality":{"key":"09376150","name":"Wernberg-Köblitz, M","type":"Markt"},"district":{"key":"09376","name":"Schwandorf","type":"Landkreis"},"federalState":{"key":"09","name":"Bayern"}},{"name":"Klaus-Conrad-Str.","postalCode":"92533","locality":"Wernberg-Köblitz","municipality":{"key":"09376150","name":"Wernberg-Köblitz, M","type":"Markt"},"district":{"key":"09376","name":"Schwandorf","type":"Landkreis"},"federalState":{"key":"09","name":"Bayern"}},{"name":"Köblitzer Str.","postalCode":"92533","locality":"Wernberg-Köblitz","municipality":{"key":"09376150","name":"Wernberg-Köblitz, M","type":"Markt"},"district":{"key":"09376","name":"Schwandorf","type":"Landkreis"},"federalState":{"key":"09","name":"Bayern"}},{"name":"Kolpingstr.","postalCode":"92533","locality":"Wernberg-Köblitz","municipality":{"key":"09376150","name":"Wernberg-Köblitz, M","type":"Markt"},"district":{"key":"09376","name":"Schwandorf","type":"Landkreis"},"federalState":{"key":"09","name":"Bayern"}},{"name":"Kötschdorf","postalCode":"92533","locality":"Wernberg-Köblitz","municipality":{"key":"09376150","name":"Wernberg-Köblitz, M","type":"Markt"},"district":{"key":"09376","name":"Schwandorf","type":"Landkreis"},"federalState":{"key":"09","name":"Bayern"}},{"name":"Kreuzäckerstr.","postalCode":"92533","locality":"Wernberg-Köblitz","municipality":{"key":"09376150","name":"Wernberg-Köblitz, M","type":"Markt"},"district":{"key":"09376","name":"Schwandorf","type":"Landkreis"},"federalState":{"key":"09","name":"Bayern"}},{"name":"Krummleite","postalCode":"92533","locality":"Wernberg-Köblitz","municipality":{"key":"09376150","name":"Wernberg-Köblitz, M","type":"Markt"},"district":{"key":"09376","name":"Schwandorf","type":"Landkreis"},"federalState":{"key":"09","name":"Bayern"}},{"name":"Lehrer-Lang-Str.","postalCode":"92533","locality":"Wernberg-Köblitz","municipality":{"key":"09376150","name":"Wernberg-Köblitz, M","type":"Markt"},"district":{"key":"09376","name":"Schwandorf","type":"Landkreis"},"federalState":{"key":"09","name":"Bayern"}},{"name":"Lehrer-Schinner-Str.","postalCode":"92533","locality":"Wernberg-Köblitz","municipality":{"key":"09376150","name":"Wernberg-Köblitz, M","type":"Markt"},"district":{"key":"09376","name":"Schwandorf","type":"Landkreis"},"federalState":{"key":"09","name":"Bayern"}},{"name":"Leuchtenberger Str.","postalCode":"92533","locality":"Wernberg-Köblitz","municipality":{"key":"09376150","name":"Wernberg-Köblitz, M","type":"Markt"},"district":{"key":"09376","name":"Schwandorf","type":"Landkreis"},"federalState":{"key":"09","name":"Bayern"}},{"name":"Lindenweg","postalCode":"92533","locality":"Wernberg-Köblitz","municipality":{"key":"09376150","name":"Wernberg-Köblitz, M","type":"Markt"},"district":{"key":"09376","name":"Schwandorf","type":"Landkreis"},"federalState":{"key":"09","name":"Bayern"}},{"name":"Losau","postalCode":"92533","locality":"Wernberg-Köblitz","municipality":{"key":"09376150","name":"Wernberg-Köblitz, M","type":"Markt"},"district":{"key":"09376","name":"Schwandorf","type":"Landkreis"},"federalState":{"key":"09","name":"Bayern"}},{"name":"Maistr.","postalCode":"92533","locality":"Wernberg-Köblitz","municipality":{"key":"09376150","name":"Wernberg-Köblitz, M","type":"Markt"},"district":{"key":"09376","name":"Schwandorf","type":"Landkreis"},"federalState":{"key":"09","name":"Bayern"}},{"name":"Marktplatz","postalCode":"92533","locality":"Wernberg-Köblitz","municipality":{"key":"09376150","name":"Wernberg-Köblitz, M","type":"Markt"},"district":{"key":"09376","name":"Schwandorf","type":"Landkreis"},"federalState":{"key":"09","name":"Bayern"}},{"name":"Mühlweg","postalCode":"92533","locality":"Wernberg-Köblitz","municipality":{"key":"09376150","name":"Wernberg-Köblitz, M","type":"Markt"},"district":{"key":"09376","name":"Schwandorf","type":"Landkreis"},"federalState":{"key":"09","name":"Bayern"}},{"name":"Mühlweiherweg","postalCode":"92533","locality":"Wernberg-Köblitz","municipality":{"key":"09376150","name":"Wernberg-Köblitz, M","type":"Markt"},"district":{"key":"09376","name":"Schwandorf","type":"Landkreis"},"federalState":{"key":"09","name":"Bayern"}},{"name":"Naabweg","postalCode":"92533","locality":"Wernberg-Köblitz","municipality":{"key":"09376150","name":"Wernberg-Köblitz, M","type":"Markt"},"district":{"key":"09376","name":"Schwandorf","type":"Landkreis"},"federalState":{"key":"09","name":"Bayern"}},{"name":"Natzlweg","postalCode":"92533","locality":"Wernberg-Köblitz","municipality":{"key":"09376150","name":"Wernberg-Köblitz, M","type":"Markt"},"district":{"key":"09376","name":"Schwandorf","type":"Landkreis"},"federalState":{"key":"09","name":"Bayern"}},{"name":"Neunaigener Str.","postalCode":"92533","locality":"Wernberg-Köblitz","municipality":{"key":"09376150","name":"Wernberg-Köblitz, M","type":"Markt"},"district":{"key":"09376","name":"Schwandorf","type":"Landkreis"},"federalState":{"key":"09","name":"Bayern"}},{"name":"Neurißweg","postalCode":"92533","locality":"Wernberg-Köblitz","municipality":{"key":"09376150","name":"Wernberg-Köblitz, M","type":"Markt"},"district":{"key":"09376","name":"Schwandorf","type":"Landkreis"},"federalState":{"key":"09","name":"Bayern"}},{"name":"Nothafftstr.","postalCode":"92533","locality":"Wernberg-Köblitz","municipality":{"key":"09376150","name":"Wernberg-Köblitz, M","type":"Markt"},"district":{"key":"09376","name":"Schwandorf","type":"Landkreis"},"federalState":{"key":"09","name":"Bayern"}},{"name":"Nürnberger Str.","postalCode":"92533","locality":"Wernberg-Köblitz","municipality":{"key":"09376150","name":"Wernberg-Köblitz, M","type":"Markt"},"district":{"key":"09376","name":"Schwandorf","type":"Landkreis"},"federalState":{"key":"09","name":"Bayern"}},{"name":"Oberndorfer Str.","postalCode":"92533","locality":"Wernberg-Köblitz","municipality":{"key":"09376150","name":"Wernberg-Köblitz, M","type":"Markt"},"district":{"key":"09376","name":"Schwandorf","type":"Landkreis"},"federalState":{"key":"09","name":"Bayern"}},{"name":"Ostastr.","postalCode":"92533","locality":"Wernberg-Köblitz","municipality":{"key":"09376150","name":"Wernberg-Köblitz, M","type":"Markt"},"district":{"key":"09376","name":"Schwandorf","type":"Landkreis"},"federalState":{"key":"09","name":"Bayern"}},{"name":"Paul-Schiedt-Str.","postalCode":"92533","locality":"Wernberg-Köblitz","municipality":{"key":"09376150","name":"Wernberg-Köblitz, M","type":"Markt"},"district":{"key":"09376","name":"Schwandorf","type":"Landkreis"},"federalState":{"key":"09","name":"Bayern"}},{"name":"Pfarrer-Schreyer-Str.","postalCode":"92533","locality":"Wernberg-Köblitz","municipality":{"key":"09376150","name":"Wernberg-Köblitz, M","type":"Markt"},"district":{"key":"09376","name":"Schwandorf","type":"Landkreis"},"federalState":{"key":"09","name":"Bayern"}},{"name":"Pfarrer-Wittmann-Str.","postalCode":"92533","locality":"Wernberg-Köblitz","municipality":{"key":"09376150","name":"Wernberg-Köblitz, M","type":"Markt"},"district":{"key":"09376","name":"Schwandorf","type":"Landkreis"},"federalState":{"key":"09","name":"Bayern"}},{"name":"Pfarrweg","postalCode":"92533","locality":"Wernberg-Köblitz","municipality":{"key":"09376150","name":"Wernberg-Köblitz, M","type":"Markt"},"district":{"key":"09376","name":"Schwandorf","type":"Landkreis"},"federalState":{"key":"09","name":"Bayern"}},{"name":"Pfreimder Str.","postalCode":"92533","locality":"Wernberg-Köblitz","municipality":{"key":"09376150","name":"Wernberg-Köblitz, M","type":"Markt"},"district":{"key":"09376","name":"Schwandorf","type":"Landkreis"},"federalState":{"key":"09","name":"Bayern"}},{"name":"Point","postalCode":"92533","locality":"Wernberg-Köblitz","municipality":{"key":"09376150","name":"Wernberg-Köblitz, M","type":"Markt"},"district":{"key":"09376","name":"Schwandorf","type":"Landkreis"},"federalState":{"key":"09","name":"Bayern"}},{"name":"Postleite","postalCode":"92533","locality":"Wernberg-Köblitz","municipality":{"key":"09376150","name":"Wernberg-Köblitz, M","type":"Markt"},"district":{"key":"09376","name":"Schwandorf","type":"Landkreis"},"federalState":{"key":"09","name":"Bayern"}},{"name":"Preppacher Str.","postalCode":"92533","locality":"Wernberg-Köblitz","municipality":{"key":"09376150","name":"Wernberg-Köblitz, M","type":"Markt"},"district":{"key":"09376","name":"Schwandorf","type":"Landkreis"},"federalState":{"key":"09","name":"Bayern"}},{"name":"Quellweg","postalCode":"92421","locality":"Schwandorf","municipality":{"key":"09376161","name":"Schwandorf, GKSt","type":"Große_Kreisstadt"},"district":{"key":"09376","name":"Schwandorf","type":"Landkreis"},"federalState":{"key":"09","name":"Bayern"}},{"name":"Rabenbühlstr.","postalCode":"92533","locality":"Wernberg-Köblitz","municipality":{"key":"09376150","name":"Wernberg-Köblitz, M","type":"Markt"},"district":{"key":"09376","name":"Schwandorf","type":"Landkreis"},"federalState":{"key":"09","name":"Bayern"}},{"name":"Rattenberger Str.","postalCode":"92533","locality":"Wernberg-Köblitz","municipality":{"key":"09376150","name":"Wernberg-Köblitz, M","type":"Markt"},"district":{"key":"09376","name":"Schwandorf","type":"Landkreis"},"federalState":{"key":"09","name":"Bayern"}},{"name":"Regensburger Str.","postalCode":"92533","locality":"Wernberg-Köblitz","municipality":{"key":"09376150","name":"Wernberg-Köblitz, M","type":"Markt"},"district":{"key":"09376","name":"Schwandorf","type":"Landkreis"},"federalState":{"key":"09","name":"Bayern"}},{"name":"Riedweg","postalCode":"92533","locality":"Wernberg-Köblitz","municipality":{"key":"09376150","name":"Wernberg-Köblitz, M","type":"Markt"},"district":{"key":"09376","name":"Schwandorf","type":"Landkreis"},"federalState":{"key":"09","name":"Bayern"}},{"name":"Ringstr.","postalCode":"92533","locality":"Wernberg-Köblitz","municipality":{"key":"09376150","name":"Wernberg-Köblitz, M","type":"Markt"},"district":{"key":"09376","name":"Schwandorf","type":"Landkreis"},"federalState":{"key":"09","name":"Bayern"}},{"name":"Rosenstr.","postalCode":"92533","locality":"Wernberg-Köblitz","municipality":{"key":"09376150","name":"Wernberg-Köblitz, M","type":"Markt"},"district":{"key":"09376","name":"Schwandorf","type":"Landkreis"},"federalState":{"key":"09","name":"Bayern"}},{"name":"Saltendorfer Str.","postalCode":"92533","locality":"Wernberg-Köblitz","municipality":{"key":"09376150","name":"Wernberg-Köblitz, M","type":"Markt"},"district":{"key":"09376","name":"Schwandorf","type":"Landkreis"},"federalState":{"key":"09","name":"Bayern"}},{"name":"Sandweg","postalCode":"92533","locality":"Wernberg-Köblitz","municipality":{"key":"09376150","name":"Wernberg-Köblitz, M","type":"Markt"},"district":{"key":"09376","name":"Schwandorf","type":"Landkreis"},"federalState":{"key":"09","name":"Bayern"}},{"name":"Sankt-Vitus-Str.","postalCode":"92533","locality":"Wernberg-Köblitz","municipality":{"key":"09376150","name":"Wernberg-Köblitz, M","type":"Markt"},"district":{"key":"09376","name":"Schwandorf","type":"Landkreis"},"federalState":{"key":"09","name":"Bayern"}},{"name":"Sankt-Wolfgang-Str.","postalCode":"92533","locality":"Wernberg-Köblitz","municipality":{"key":"09376150","name":"Wernberg-Köblitz, M","type":"Markt"},"district":{"key":"09376","name":"Schwandorf","type":"Landkreis"},"federalState":{"key":"09","name":"Bayern"}},{"name":"Schiltern","postalCode":"92533","locality":"Wernberg-Köblitz","municipality":{"key":"09376150","name":"Wernberg-Köblitz, M","type":"Markt"},"district":{"key":"09376","name":"Schwandorf","type":"Landkreis"},"federalState":{"key":"09","name":"Bayern"}},{"name":"Schlagackerstr.","postalCode":"92533","locality":"Wernberg-Köblitz","municipality":{"key":"09376150","name":"Wernberg-Köblitz, M","type":"Markt"},"district":{"key":"09376","name":"Schwandorf","type":"Landkreis"},"federalState":{"key":"09","name":"Bayern"}},{"name":"Schlesierstr.","postalCode":"92533","locality":"Wernberg-Köblitz","municipality":{"key":"09376150","name":"Wernberg-Köblitz, M","type":"Markt"},"district":{"key":"09376","name":"Schwandorf","type":"Landkreis"},"federalState":{"key":"09","name":"Bayern"}},{"name":"Schloßberg","postalCode":"92533","locality":"Wernberg-Köblitz","municipality":{"key":"09376150","name":"Wernberg-Köblitz, M","type":"Markt"},"district":{"key":"09376","name":"Schwandorf","type":"Landkreis"},"federalState":{"key":"09","name":"Bayern"}},{"name":"Schloßbergweg","postalCode":"92533","locality":"Wernberg-Köblitz","municipality":{"key":"09376150","name":"Wernberg-Köblitz, M","type":"Markt"},"district":{"key":"09376","name":"Schwandorf","type":"Landkreis"},"federalState":{"key":"09","name":"Bayern"}},{"name":"Schulrat-Benz-Str.","postalCode":"92533","locality":"Wernberg-Köblitz","municipality":{"key":"09376150","name":"Wernberg-Köblitz, M","type":"Markt"},"district":{"key":"09376","name":"Schwandorf","type":"Landkreis"},"federalState":{"key":"09","name":"Bayern"}},{"name":"Schulstr.","postalCode":"92533","locality":"Wernberg-Köblitz","municipality":{"key":"09376150","name":"Wernberg-Köblitz, M","type":"Markt"},"district":{"key":"09376","name":"Schwandorf","type":"Landkreis"},"federalState":{"key":"09","name":"Bayern"}},{"name":"Schwallbachstr.","postalCode":"92533","locality":"Wernberg-Köblitz","municipality":{"key":"09376150","name":"Wernberg-Köblitz, M","type":"Markt"},"district":{"key":"09376","name":"Schwandorf","type":"Landkreis"},"federalState":{"key":"09","name":"Bayern"}},{"name":"Schwarzberg","postalCode":"92533","locality":"Wernberg-Köblitz","municipality":{"key":"09376150","name":"Wernberg-Köblitz, M","type":"Markt"},"district":{"key":"09376","name":"Schwandorf","type":"Landkreis"},"federalState":{"key":"09","name":"Bayern"}},{"name":"Sonnenweg","postalCode":"92533","locality":"Wernberg-Köblitz","municipality":{"key":"09376150","name":"Wernberg-Köblitz, M","type":"Markt"},"district":{"key":"09376","name":"Schwandorf","type":"Landkreis"},"federalState":{"key":"09","name":"Bayern"}},{"name":"Sorauweg","postalCode":"92533","locality":"Wernberg-Köblitz","municipality":{"key":"09376150","name":"Wernberg-Köblitz, M","type":"Markt"},"district":{"key":"09376","name":"Schwandorf","type":"Landkreis"},"federalState":{"key":"09","name":"Bayern"}},{"name":"Sportplatzstr.","postalCode":"92533","locality":"Wernberg-Köblitz","municipality":{"key":"09376150","name":"Wernberg-Köblitz, M","type":"Markt"},"district":{"key":"09376","name":"Schwandorf","type":"Landkreis"},"federalState":{"key":"09","name":"Bayern"}},{"name":"St.- Emmeram-Str.","postalCode":"92533","locality":"Wernberg-Köblitz","municipality":{"key":"09376150","name":"Wernberg-Köblitz, M","type":"Markt"},"district":{"key":"09376","name":"Schwandorf","type":"Landkreis"},"federalState":{"key":"09","name":"Bayern"}},{"name":"St.-Paul-Str.","postalCode":"92533","locality":"Wernberg-Köblitz","municipality":{"key":"09376150","name":"Wernberg-Köblitz, M","type":"Markt"},"district":{"key":"09376","name":"Schwandorf","type":"Landkreis"},"federalState":{"key":"09","name":"Bayern"}},{"name":"St.-Peter-Str.","postalCode":"92533","locality":"Wernberg-Köblitz","municipality":{"key":"09376150","name":"Wernberg-Köblitz, M","type":"Markt"},"district":{"key":"09376","name":"Schwandorf","type":"Landkreis"},"federalState":{"key":"09","name":"Bayern"}},{"name":"Sudetenstr.","postalCode":"92533","locality":"Wernberg-Köblitz","municipality":{"key":"09376150","name":"Wernberg-Köblitz, M","type":"Markt"},"district":{"key":"09376","name":"Schwandorf","type":"Landkreis"},"federalState":{"key":"09","name":"Bayern"}},{"name":"Talstr.","postalCode":"92533","locality":"Wernberg-Köblitz","municipality":{"key":"09376150","name":"Wernberg-Köblitz, M","type":"Markt"},"district":{"key":"09376","name":"Schwandorf","type":"Landkreis"},"federalState":{"key":"09","name":"Bayern"}},{"name":"Ulrich-Hübner-Str.","postalCode":"92533","locality":"Wernberg-Köblitz","municipality":{"key":"09376150","name":"Wernberg-Köblitz, M","type":"Markt"},"district":{"key":"09376","name":"Schwandorf","type":"Landkreis"},"federalState":{"key":"09","name":"Bayern"}},{"name":"Vohenstraußer Str.","postalCode":"92533","locality":"Wernberg-Köblitz","municipality":{"key":"09376150","name":"Wernberg-Köblitz, M","type":"Markt"},"district":{"key":"09376","name":"Schwandorf","type":"Landkreis"},"federalState":{"key":"09","name":"Bayern"}},{"name":"Weberstr.","postalCode":"92533","locality":"Wernberg-Köblitz","municipality":{"key":"09376150","name":"Wernberg-Köblitz, M","type":"Markt"},"district":{"key":"09376","name":"Schwandorf","type":"Landkreis"},"federalState":{"key":"09","name":"Bayern"}},{"name":"Weidener Str.","postalCode":"92533","locality":"Wernberg-Köblitz","municipality":{"key":"09376150","name":"Wernberg-Köblitz, M","type":"Markt"},"district":{"key":"09376","name":"Schwandorf","type":"Landkreis"},"federalState":{"key":"09","name":"Bayern"}},{"name":"Weidlstr.","postalCode":"92533","locality":"Wernberg-Köblitz","municipality":{"key":"09376150","name":"Wernberg-Köblitz, M","type":"Markt"},"district":{"key":"09376","name":"Schwandorf","type":"Landkreis"},"federalState":{"key":"09","name":"Bayern"}},{"name":"Weiherner Weg","postalCode":"92533","locality":"Wernberg-Köblitz","municipality":{"key":"09376150","name":"Wernberg-Köblitz, M","type":"Markt"},"district":{"key":"09376","name":"Schwandorf","type":"Landkreis"},"federalState":{"key":"09","name":"Bayern"}},{"name":"Wenzelstr.","postalCode":"92533","locality":"Wernberg-Köblitz","municipality":{"key":"09376150","name":"Wernberg-Köblitz, M","type":"Markt"},"district":{"key":"09376","name":"Schwandorf","type":"Landkreis"},"federalState":{"key":"09","name":"Bayern"}},{"name":"Wolfsgrube","postalCode":"92533","locality":"Wernberg-Köblitz","municipality":{"key":"09376150","name":"Wernberg-Köblitz, M","type":"Markt"},"district":{"key":"09376","name":"Schwandorf","type":"Landkreis"},"federalState":{"key":"09","name":"Bayern"}},{"name":"Zum Maiergrund","postalCode":"92533","locality":"Wernberg-Köblitz","municipality":{"key":"09376150","name":"Wernberg-Köblitz, M","type":"Markt"},"district":{"key":"09376","name":"Schwandorf","type":"Landkreis"},"federalState":{"key":"09","name":"Bayern"}},{"name":"Zur roten Marter","postalCode":"92533","locality":"Wernberg-Köblitz","municipality":{"key":"09376150","name":"Wernberg-Köblitz, M","type":"Markt"},"district":{"key":"09376","name":"Schwandorf","type":"Landkreis"},"federalState":{"key":"09","name":"Bayern"}},]