[{"name":"Adenauerstr.","postalCode":"42781","locality":"Haan","municipality":{"key":"05158008","name":"Haan, Stadt","type":"Stadt"},"district":{"key":"05158","name":"Mettmann","type":"Kreis"},"federalState":{"key":"05","name":"Nordrhein-Westfalen"}},{"name":"Adlerstr.","postalCode":"42781","locality":"Haan","municipality":{"key":"05158008","name":"Haan, Stadt","type":"Stadt"},"district":{"key":"05158","name":"Mettmann","type":"Kreis"},"federalState":{"key":"05","name":"Nordrhein-Westfalen"}},{"name":"Adolf-Clarenbach-Str.","postalCode":"42781","locality":"Haan","municipality":{"key":"05158008","name":"Haan, Stadt","type":"Stadt"},"district":{"key":"05158","name":"Mettmann","type":"Kreis"},"federalState":{"key":"05","name":"Nordrhein-Westfalen"}},{"name":"Alleestr.","postalCode":"42781","locality":"Haan","municipality":{"key":"05158008","name":"Haan, Stadt","type":"Stadt"},"district":{"key":"05158","name":"Mettmann","type":"Kreis"},"federalState":{"key":"05","name":"Nordrhein-Westfalen"}},{"name":"Alsenstr.","postalCode":"42781","locality":"Haan","municipality":{"key":"05158008","name":"Haan, Stadt","type":"Stadt"},"district":{"key":"05158","name":"Mettmann","type":"Kreis"},"federalState":{"key":"05","name":"Nordrhein-Westfalen"}},{"name":"Alte Ley","postalCode":"42781","locality":"Haan","municipality":{"key":"05158008","name":"Haan, Stadt","type":"Stadt"},"district":{"key":"05158","name":"Mettmann","type":"Kreis"},"federalState":{"key":"05","name":"Nordrhein-Westfalen"}},{"name":"Alter Kirchplatz","postalCode":"42781","locality":"Haan","municipality":{"key":"05158008","name":"Haan, Stadt","type":"Stadt"},"district":{"key":"05158","name":"Mettmann","type":"Kreis"},"federalState":{"key":"05","name":"Nordrhein-Westfalen"}},{"name":"Altes Walzwerk","postalCode":"42781","locality":"Haan","municipality":{"key":"05158008","name":"Haan, Stadt","type":"Stadt"},"district":{"key":"05158","name":"Mettmann","type":"Kreis"},"federalState":{"key":"05","name":"Nordrhein-Westfalen"}},{"name":"Alt-Thienhausen","postalCode":"42781","locality":"Haan","municipality":{"key":"05158008","name":"Haan, Stadt","type":"Stadt"},"district":{"key":"05158","name":"Mettmann","type":"Kreis"},"federalState":{"key":"05","name":"Nordrhein-Westfalen"}},{"name":"Am Bandenfeld","postalCode":"42781","locality":"Haan","municipality":{"key":"05158008","name":"Haan, Stadt","type":"Stadt"},"district":{"key":"05158","name":"Mettmann","type":"Kreis"},"federalState":{"key":"05","name":"Nordrhein-Westfalen"}},{"name":"Am Bollenberg","postalCode":"42781","locality":"Haan","municipality":{"key":"05158008","name":"Haan, Stadt","type":"Stadt"},"district":{"key":"05158","name":"Mettmann","type":"Kreis"},"federalState":{"key":"05","name":"Nordrhein-Westfalen"}},{"name":"Am Frankenberg","postalCode":"42781","locality":"Haan","municipality":{"key":"05158008","name":"Haan, Stadt","type":"Stadt"},"district":{"key":"05158","name":"Mettmann","type":"Kreis"},"federalState":{"key":"05","name":"Nordrhein-Westfalen"}},{"name":"Am Grunderfeld","postalCode":"42781","locality":"Haan","municipality":{"key":"05158008","name":"Haan, Stadt","type":"Stadt"},"district":{"key":"05158","name":"Mettmann","type":"Kreis"},"federalState":{"key":"05","name":"Nordrhein-Westfalen"}},{"name":"Am Hain","postalCode":"42781","locality":"Haan","municipality":{"key":"05158008","name":"Haan, Stadt","type":"Stadt"},"district":{"key":"05158","name":"Mettmann","type":"Kreis"},"federalState":{"key":"05","name":"Nordrhein-Westfalen"}},{"name":"Am Hang","postalCode":"42781","locality":"Haan","municipality":{"key":"05158008","name":"Haan, Stadt","type":"Stadt"},"district":{"key":"05158","name":"Mettmann","type":"Kreis"},"federalState":{"key":"05","name":"Nordrhein-Westfalen"}},{"name":"Am Hühnerbach","postalCode":"42781","locality":"Haan","municipality":{"key":"05158008","name":"Haan, Stadt","type":"Stadt"},"district":{"key":"05158","name":"Mettmann","type":"Kreis"},"federalState":{"key":"05","name":"Nordrhein-Westfalen"}},{"name":"Am Ideck","postalCode":"42781","locality":"Haan","municipality":{"key":"05158008","name":"Haan, Stadt","type":"Stadt"},"district":{"key":"05158","name":"Mettmann","type":"Kreis"},"federalState":{"key":"05","name":"Nordrhein-Westfalen"}},{"name":"Am Kaisersbusch","postalCode":"42781","locality":"Haan","municipality":{"key":"05158008","name":"Haan, Stadt","type":"Stadt"},"district":{"key":"05158","name":"Mettmann","type":"Kreis"},"federalState":{"key":"05","name":"Nordrhein-Westfalen"}},{"name":"Am Kämpchen","postalCode":"42781","locality":"Haan","municipality":{"key":"05158008","name":"Haan, Stadt","type":"Stadt"},"district":{"key":"05158","name":"Mettmann","type":"Kreis"},"federalState":{"key":"05","name":"Nordrhein-Westfalen"}},{"name":"Am Kauerbusch","postalCode":"42781","locality":"Haan","municipality":{"key":"05158008","name":"Haan, Stadt","type":"Stadt"},"district":{"key":"05158","name":"Mettmann","type":"Kreis"},"federalState":{"key":"05","name":"Nordrhein-Westfalen"}},{"name":"Am Kuckesberg","postalCode":"42781","locality":"Haan","municipality":{"key":"05158008","name":"Haan, Stadt","type":"Stadt"},"district":{"key":"05158","name":"Mettmann","type":"Kreis"},"federalState":{"key":"05","name":"Nordrhein-Westfalen"}},{"name":"Am Küppershäuschen","postalCode":"42781","locality":"Haan","municipality":{"key":"05158008","name":"Haan, Stadt","type":"Stadt"},"district":{"key":"05158","name":"Mettmann","type":"Kreis"},"federalState":{"key":"05","name":"Nordrhein-Westfalen"}},{"name":"Am Langenkamp","postalCode":"42781","locality":"Haan","municipality":{"key":"05158008","name":"Haan, Stadt","type":"Stadt"},"district":{"key":"05158","name":"Mettmann","type":"Kreis"},"federalState":{"key":"05","name":"Nordrhein-Westfalen"}},{"name":"Am Marktweg","postalCode":"42781","locality":"Haan","municipality":{"key":"05158008","name":"Haan, Stadt","type":"Stadt"},"district":{"key":"05158","name":"Mettmann","type":"Kreis"},"federalState":{"key":"05","name":"Nordrhein-Westfalen"}},{"name":"Am Mühlenbusch","postalCode":"42781","locality":"Haan","municipality":{"key":"05158008","name":"Haan, Stadt","type":"Stadt"},"district":{"key":"05158","name":"Mettmann","type":"Kreis"},"federalState":{"key":"05","name":"Nordrhein-Westfalen"}},{"name":"Am Nachbarsberg","postalCode":"42781","locality":"Haan","municipality":{"key":"05158008","name":"Haan, Stadt","type":"Stadt"},"district":{"key":"05158","name":"Mettmann","type":"Kreis"},"federalState":{"key":"05","name":"Nordrhein-Westfalen"}},{"name":"Am Quall","postalCode":"42781","locality":"Haan","municipality":{"key":"05158008","name":"Haan, Stadt","type":"Stadt"},"district":{"key":"05158","name":"Mettmann","type":"Kreis"},"federalState":{"key":"05","name":"Nordrhein-Westfalen"}},{"name":"Am Sandbach","postalCode":"42781","locality":"Haan","municipality":{"key":"05158008","name":"Haan, Stadt","type":"Stadt"},"district":{"key":"05158","name":"Mettmann","type":"Kreis"},"federalState":{"key":"05","name":"Nordrhein-Westfalen"}},{"name":"Am Sandsiepen","postalCode":"42781","locality":"Haan","municipality":{"key":"05158008","name":"Haan, Stadt","type":"Stadt"},"district":{"key":"05158","name":"Mettmann","type":"Kreis"},"federalState":{"key":"05","name":"Nordrhein-Westfalen"}},{"name":"Am Schasiepen","postalCode":"42781","locality":"Haan","municipality":{"key":"05158008","name":"Haan, Stadt","type":"Stadt"},"district":{"key":"05158","name":"Mettmann","type":"Kreis"},"federalState":{"key":"05","name":"Nordrhein-Westfalen"}},{"name":"Am Schlagbaum","postalCode":"42781","locality":"Haan","municipality":{"key":"05158008","name":"Haan, Stadt","type":"Stadt"},"district":{"key":"05158","name":"Mettmann","type":"Kreis"},"federalState":{"key":"05","name":"Nordrhein-Westfalen"}},{"name":"Am Schützenhaus","postalCode":"42781","locality":"Haan","municipality":{"key":"05158008","name":"Haan, Stadt","type":"Stadt"},"district":{"key":"05158","name":"Mettmann","type":"Kreis"},"federalState":{"key":"05","name":"Nordrhein-Westfalen"}},{"name":"Amselweg","postalCode":"42781","locality":"Haan","municipality":{"key":"05158008","name":"Haan, Stadt","type":"Stadt"},"district":{"key":"05158","name":"Mettmann","type":"Kreis"},"federalState":{"key":"05","name":"Nordrhein-Westfalen"}},{"name":"Am Sportplatz","postalCode":"42781","locality":"Haan","municipality":{"key":"05158008","name":"Haan, Stadt","type":"Stadt"},"district":{"key":"05158","name":"Mettmann","type":"Kreis"},"federalState":{"key":"05","name":"Nordrhein-Westfalen"}},{"name":"Am Steinbruch","postalCode":"42781","locality":"Haan","municipality":{"key":"05158008","name":"Haan, Stadt","type":"Stadt"},"district":{"key":"05158","name":"Mettmann","type":"Kreis"},"federalState":{"key":"05","name":"Nordrhein-Westfalen"}},{"name":"Am Steinenhaus","postalCode":"42781","locality":"Haan","municipality":{"key":"05158008","name":"Haan, Stadt","type":"Stadt"},"district":{"key":"05158","name":"Mettmann","type":"Kreis"},"federalState":{"key":"05","name":"Nordrhein-Westfalen"}},{"name":"Am Teichkamp","postalCode":"42781","locality":"Haan","municipality":{"key":"05158008","name":"Haan, Stadt","type":"Stadt"},"district":{"key":"05158","name":"Mettmann","type":"Kreis"},"federalState":{"key":"05","name":"Nordrhein-Westfalen"}},{"name":"Am Weinberg","postalCode":"42781","locality":"Haan","municipality":{"key":"05158008","name":"Haan, Stadt","type":"Stadt"},"district":{"key":"05158","name":"Mettmann","type":"Kreis"},"federalState":{"key":"05","name":"Nordrhein-Westfalen"}},{"name":"Am Ziegelhäuschen","postalCode":"42781","locality":"Haan","municipality":{"key":"05158008","name":"Haan, Stadt","type":"Stadt"},"district":{"key":"05158","name":"Mettmann","type":"Kreis"},"federalState":{"key":"05","name":"Nordrhein-Westfalen"}},{"name":"An den Loren","postalCode":"42781","locality":"Haan","municipality":{"key":"05158008","name":"Haan, Stadt","type":"Stadt"},"district":{"key":"05158","name":"Mettmann","type":"Kreis"},"federalState":{"key":"05","name":"Nordrhein-Westfalen"}},{"name":"An der Bellekuhl","postalCode":"42781","locality":"Haan","municipality":{"key":"05158008","name":"Haan, Stadt","type":"Stadt"},"district":{"key":"05158","name":"Mettmann","type":"Kreis"},"federalState":{"key":"05","name":"Nordrhein-Westfalen"}},{"name":"An der Düssel","postalCode":"42781","locality":"Haan","municipality":{"key":"05158008","name":"Haan, Stadt","type":"Stadt"},"district":{"key":"05158","name":"Mettmann","type":"Kreis"},"federalState":{"key":"05","name":"Nordrhein-Westfalen"}},{"name":"An der Schmitte","postalCode":"42781","locality":"Haan","municipality":{"key":"05158008","name":"Haan, Stadt","type":"Stadt"},"district":{"key":"05158","name":"Mettmann","type":"Kreis"},"federalState":{"key":"05","name":"Nordrhein-Westfalen"}},{"name":"An der Waage","postalCode":"42781","locality":"Haan","municipality":{"key":"05158008","name":"Haan, Stadt","type":"Stadt"},"district":{"key":"05158","name":"Mettmann","type":"Kreis"},"federalState":{"key":"05","name":"Nordrhein-Westfalen"}},{"name":"Annette-von-Droste-Hülshoff-Weg","postalCode":"42781","locality":"Haan","municipality":{"key":"05158008","name":"Haan, Stadt","type":"Stadt"},"district":{"key":"05158","name":"Mettmann","type":"Kreis"},"federalState":{"key":"05","name":"Nordrhein-Westfalen"}},{"name":"Anni-Albers-Str.","postalCode":"42781","locality":"Haan","municipality":{"key":"05158008","name":"Haan, Stadt","type":"Stadt"},"district":{"key":"05158","name":"Mettmann","type":"Kreis"},"federalState":{"key":"05","name":"Nordrhein-Westfalen"}},{"name":"Aue","postalCode":"42781","locality":"Haan","municipality":{"key":"05158008","name":"Haan, Stadt","type":"Stadt"},"district":{"key":"05158","name":"Mettmann","type":"Kreis"},"federalState":{"key":"05","name":"Nordrhein-Westfalen"}},{"name":"Auf den Schollen","postalCode":"42781","locality":"Haan","municipality":{"key":"05158008","name":"Haan, Stadt","type":"Stadt"},"district":{"key":"05158","name":"Mettmann","type":"Kreis"},"federalState":{"key":"05","name":"Nordrhein-Westfalen"}},{"name":"August-Macke-Weg","postalCode":"42781","locality":"Haan","municipality":{"key":"05158008","name":"Haan, Stadt","type":"Stadt"},"district":{"key":"05158","name":"Mettmann","type":"Kreis"},"federalState":{"key":"05","name":"Nordrhein-Westfalen"}},{"name":"August-Thewes-Weg","postalCode":"42781","locality":"Haan","municipality":{"key":"05158008","name":"Haan, Stadt","type":"Stadt"},"district":{"key":"05158","name":"Mettmann","type":"Kreis"},"federalState":{"key":"05","name":"Nordrhein-Westfalen"}},{"name":"Bachstr.","postalCode":"42781","locality":"Haan","municipality":{"key":"05158008","name":"Haan, Stadt","type":"Stadt"},"district":{"key":"05158","name":"Mettmann","type":"Kreis"},"federalState":{"key":"05","name":"Nordrhein-Westfalen"}},{"name":"Bahn 10","postalCode":"42781","locality":"Haan","municipality":{"key":"05158008","name":"Haan, Stadt","type":"Stadt"},"district":{"key":"05158","name":"Mettmann","type":"Kreis"},"federalState":{"key":"05","name":"Nordrhein-Westfalen"}},{"name":"Bahnhofstr.","postalCode":"42781","locality":"Haan","municipality":{"key":"05158008","name":"Haan, Stadt","type":"Stadt"},"district":{"key":"05158","name":"Mettmann","type":"Kreis"},"federalState":{"key":"05","name":"Nordrhein-Westfalen"}},{"name":"Bahnstr.","postalCode":"42781","locality":"Haan","municipality":{"key":"05158008","name":"Haan, Stadt","type":"Stadt"},"district":{"key":"05158","name":"Mettmann","type":"Kreis"},"federalState":{"key":"05","name":"Nordrhein-Westfalen"}},{"name":"Bastianskotten","postalCode":"42781","locality":"Haan","municipality":{"key":"05158008","name":"Haan, Stadt","type":"Stadt"},"district":{"key":"05158","name":"Mettmann","type":"Kreis"},"federalState":{"key":"05","name":"Nordrhein-Westfalen"}},{"name":"Bäusenberg","postalCode":"42781","locality":"Haan","municipality":{"key":"05158008","name":"Haan, Stadt","type":"Stadt"},"district":{"key":"05158","name":"Mettmann","type":"Kreis"},"federalState":{"key":"05","name":"Nordrhein-Westfalen"}},{"name":"Becherbanden","postalCode":"42781","locality":"Haan","municipality":{"key":"05158008","name":"Haan, Stadt","type":"Stadt"},"district":{"key":"05158","name":"Mettmann","type":"Kreis"},"federalState":{"key":"05","name":"Nordrhein-Westfalen"}},{"name":"Beethovenstr.","postalCode":"42781","locality":"Haan","municipality":{"key":"05158008","name":"Haan, Stadt","type":"Stadt"},"district":{"key":"05158","name":"Mettmann","type":"Kreis"},"federalState":{"key":"05","name":"Nordrhein-Westfalen"}},{"name":"Bellekuhl","postalCode":"42781","locality":"Haan","municipality":{"key":"05158008","name":"Haan, Stadt","type":"Stadt"},"district":{"key":"05158","name":"Mettmann","type":"Kreis"},"federalState":{"key":"05","name":"Nordrhein-Westfalen"}},{"name":"Bellingrathweg","postalCode":"42781","locality":"Haan","municipality":{"key":"05158008","name":"Haan, Stadt","type":"Stadt"},"district":{"key":"05158","name":"Mettmann","type":"Kreis"},"federalState":{"key":"05","name":"Nordrhein-Westfalen"}},{"name":"Benzenbergweg","postalCode":"42781","locality":"Haan","municipality":{"key":"05158008","name":"Haan, Stadt","type":"Stadt"},"district":{"key":"05158","name":"Mettmann","type":"Kreis"},"federalState":{"key":"05","name":"Nordrhein-Westfalen"}},{"name":"Bergische Str.","postalCode":"42781","locality":"Haan","municipality":{"key":"05158008","name":"Haan, Stadt","type":"Stadt"},"district":{"key":"05158","name":"Mettmann","type":"Kreis"},"federalState":{"key":"05","name":"Nordrhein-Westfalen"}},{"name":"Bergstr.","postalCode":"42781","locality":"Haan","municipality":{"key":"05158008","name":"Haan, Stadt","type":"Stadt"},"district":{"key":"05158","name":"Mettmann","type":"Kreis"},"federalState":{"key":"05","name":"Nordrhein-Westfalen"}},{"name":"Berliner Str.","postalCode":"42781","locality":"Haan","municipality":{"key":"05158008","name":"Haan, Stadt","type":"Stadt"},"district":{"key":"05158","name":"Mettmann","type":"Kreis"},"federalState":{"key":"05","name":"Nordrhein-Westfalen"}},{"name":"Bettina-von-Arnim-Str.","postalCode":"42781","locality":"Haan","municipality":{"key":"05158008","name":"Haan, Stadt","type":"Stadt"},"district":{"key":"05158","name":"Mettmann","type":"Kreis"},"federalState":{"key":"05","name":"Nordrhein-Westfalen"}},{"name":"Birkenweg","postalCode":"42781","locality":"Haan","municipality":{"key":"05158008","name":"Haan, Stadt","type":"Stadt"},"district":{"key":"05158","name":"Mettmann","type":"Kreis"},"federalState":{"key":"05","name":"Nordrhein-Westfalen"}},{"name":"Bischof-Wichfried-Weg","postalCode":"42781","locality":"Haan","municipality":{"key":"05158008","name":"Haan, Stadt","type":"Stadt"},"district":{"key":"05158","name":"Mettmann","type":"Kreis"},"federalState":{"key":"05","name":"Nordrhein-Westfalen"}},{"name":"Bismarckstr.","postalCode":"42781","locality":"Haan","municipality":{"key":"05158008","name":"Haan, Stadt","type":"Stadt"},"district":{"key":"05158","name":"Mettmann","type":"Kreis"},"federalState":{"key":"05","name":"Nordrhein-Westfalen"}},{"name":"Bleichstr.","postalCode":"42781","locality":"Haan","municipality":{"key":"05158008","name":"Haan, Stadt","type":"Stadt"},"district":{"key":"05158","name":"Mettmann","type":"Kreis"},"federalState":{"key":"05","name":"Nordrhein-Westfalen"}},{"name":"Blücherstr.","postalCode":"42781","locality":"Haan","municipality":{"key":"05158008","name":"Haan, Stadt","type":"Stadt"},"district":{"key":"05158","name":"Mettmann","type":"Kreis"},"federalState":{"key":"05","name":"Nordrhein-Westfalen"}},{"name":"Blumenstr.","postalCode":"42781","locality":"Haan","municipality":{"key":"05158008","name":"Haan, Stadt","type":"Stadt"},"district":{"key":"05158","name":"Mettmann","type":"Kreis"},"federalState":{"key":"05","name":"Nordrhein-Westfalen"}},{"name":"Bollenberger Busch","postalCode":"42781","locality":"Haan","municipality":{"key":"05158008","name":"Haan, Stadt","type":"Stadt"},"district":{"key":"05158","name":"Mettmann","type":"Kreis"},"federalState":{"key":"05","name":"Nordrhein-Westfalen"}},{"name":"Bollenheide","postalCode":"42781","locality":"Haan","municipality":{"key":"05158008","name":"Haan, Stadt","type":"Stadt"},"district":{"key":"05158","name":"Mettmann","type":"Kreis"},"federalState":{"key":"05","name":"Nordrhein-Westfalen"}},{"name":"Borgmannsweg","postalCode":"42781","locality":"Haan","municipality":{"key":"05158008","name":"Haan, Stadt","type":"Stadt"},"district":{"key":"05158","name":"Mettmann","type":"Kreis"},"federalState":{"key":"05","name":"Nordrhein-Westfalen"}},{"name":"Borsigstr.","postalCode":"42781","locality":"Haan","municipality":{"key":"05158008","name":"Haan, Stadt","type":"Stadt"},"district":{"key":"05158","name":"Mettmann","type":"Kreis"},"federalState":{"key":"05","name":"Nordrhein-Westfalen"}},{"name":"Boschstr.","postalCode":"42781","locality":"Haan","municipality":{"key":"05158008","name":"Haan, Stadt","type":"Stadt"},"district":{"key":"05158","name":"Mettmann","type":"Kreis"},"federalState":{"key":"05","name":"Nordrhein-Westfalen"}},{"name":"Böttingerstr.","postalCode":"42781","locality":"Haan","municipality":{"key":"05158008","name":"Haan, Stadt","type":"Stadt"},"district":{"key":"05158","name":"Mettmann","type":"Kreis"},"federalState":{"key":"05","name":"Nordrhein-Westfalen"}},{"name":"Bracken","postalCode":"42781","locality":"Haan","municipality":{"key":"05158008","name":"Haan, Stadt","type":"Stadt"},"district":{"key":"05158","name":"Mettmann","type":"Kreis"},"federalState":{"key":"05","name":"Nordrhein-Westfalen"}},{"name":"Brahmsweg","postalCode":"42781","locality":"Haan","municipality":{"key":"05158008","name":"Haan, Stadt","type":"Stadt"},"district":{"key":"05158","name":"Mettmann","type":"Kreis"},"federalState":{"key":"05","name":"Nordrhein-Westfalen"}},{"name":"Breidenhofer Str.","postalCode":"42781","locality":"Haan","municipality":{"key":"05158008","name":"Haan, Stadt","type":"Stadt"},"district":{"key":"05158","name":"Mettmann","type":"Kreis"},"federalState":{"key":"05","name":"Nordrhein-Westfalen"}},{"name":"Breite Str.","postalCode":"42781","locality":"Haan","municipality":{"key":"05158008","name":"Haan, Stadt","type":"Stadt"},"district":{"key":"05158","name":"Mettmann","type":"Kreis"},"federalState":{"key":"05","name":"Nordrhein-Westfalen"}},{"name":"Breslauer Str.","postalCode":"42781","locality":"Haan","municipality":{"key":"05158008","name":"Haan, Stadt","type":"Stadt"},"district":{"key":"05158","name":"Mettmann","type":"Kreis"},"federalState":{"key":"05","name":"Nordrhein-Westfalen"}},{"name":"Briandstr.","postalCode":"42781","locality":"Haan","municipality":{"key":"05158008","name":"Haan, Stadt","type":"Stadt"},"district":{"key":"05158","name":"Mettmann","type":"Kreis"},"federalState":{"key":"05","name":"Nordrhein-Westfalen"}},{"name":"Bröckers","postalCode":"42781","locality":"Haan","municipality":{"key":"05158008","name":"Haan, Stadt","type":"Stadt"},"district":{"key":"05158","name":"Mettmann","type":"Kreis"},"federalState":{"key":"05","name":"Nordrhein-Westfalen"}},{"name":"Brökers","postalCode":"42781","locality":"Haan","municipality":{"key":"05158008","name":"Haan, Stadt","type":"Stadt"},"district":{"key":"05158","name":"Mettmann","type":"Kreis"},"federalState":{"key":"05","name":"Nordrhein-Westfalen"}},{"name":"Brucherkotten","postalCode":"42781","locality":"Haan","municipality":{"key":"05158008","name":"Haan, Stadt","type":"Stadt"},"district":{"key":"05158","name":"Mettmann","type":"Kreis"},"federalState":{"key":"05","name":"Nordrhein-Westfalen"}},{"name":"Bruchermühlen Str.","postalCode":"42781","locality":"Haan","municipality":{"key":"05158008","name":"Haan, Stadt","type":"Stadt"},"district":{"key":"05158","name":"Mettmann","type":"Kreis"},"federalState":{"key":"05","name":"Nordrhein-Westfalen"}},{"name":"Brückenstr.","postalCode":"42781","locality":"Haan","municipality":{"key":"05158008","name":"Haan, Stadt","type":"Stadt"},"district":{"key":"05158","name":"Mettmann","type":"Kreis"},"federalState":{"key":"05","name":"Nordrhein-Westfalen"}},{"name":"Buchenweg","postalCode":"42781","locality":"Haan","municipality":{"key":"05158008","name":"Haan, Stadt","type":"Stadt"},"district":{"key":"05158","name":"Mettmann","type":"Kreis"},"federalState":{"key":"05","name":"Nordrhein-Westfalen"}},{"name":"Burghardsheide","postalCode":"42781","locality":"Haan","municipality":{"key":"05158008","name":"Haan, Stadt","type":"Stadt"},"district":{"key":"05158","name":"Mettmann","type":"Kreis"},"federalState":{"key":"05","name":"Nordrhein-Westfalen"}},{"name":"Buschhöfen","postalCode":"42781","locality":"Haan","municipality":{"key":"05158008","name":"Haan, Stadt","type":"Stadt"},"district":{"key":"05158","name":"Mettmann","type":"Kreis"},"federalState":{"key":"05","name":"Nordrhein-Westfalen"}},{"name":"Büssingstr.","postalCode":"42781","locality":"Haan","municipality":{"key":"05158008","name":"Haan, Stadt","type":"Stadt"},"district":{"key":"05158","name":"Mettmann","type":"Kreis"},"federalState":{"key":"05","name":"Nordrhein-Westfalen"}},{"name":"Carl-Barth-Str.","postalCode":"42781","locality":"Haan","municipality":{"key":"05158008","name":"Haan, Stadt","type":"Stadt"},"district":{"key":"05158","name":"Mettmann","type":"Kreis"},"federalState":{"key":"05","name":"Nordrhein-Westfalen"}},{"name":"Champagne","postalCode":"42781","locality":"Haan","municipality":{"key":"05158008","name":"Haan, Stadt","type":"Stadt"},"district":{"key":"05158","name":"Mettmann","type":"Kreis"},"federalState":{"key":"05","name":"Nordrhein-Westfalen"}},{"name":"Clevenhof","postalCode":"42781","locality":"Haan","municipality":{"key":"05158008","name":"Haan, Stadt","type":"Stadt"},"district":{"key":"05158","name":"Mettmann","type":"Kreis"},"federalState":{"key":"05","name":"Nordrhein-Westfalen"}},{"name":"Danziger Str.","postalCode":"42781","locality":"Haan","municipality":{"key":"05158008","name":"Haan, Stadt","type":"Stadt"},"district":{"key":"05158","name":"Mettmann","type":"Kreis"},"federalState":{"key":"05","name":"Nordrhein-Westfalen"}},{"name":"Deller Str.","postalCode":"42781","locality":"Haan","municipality":{"key":"05158008","name":"Haan, Stadt","type":"Stadt"},"district":{"key":"05158","name":"Mettmann","type":"Kreis"},"federalState":{"key":"05","name":"Nordrhein-Westfalen"}},{"name":"Diekerhofstr.","postalCode":"42781","locality":"Haan","municipality":{"key":"05158008","name":"Haan, Stadt","type":"Stadt"},"district":{"key":"05158","name":"Mettmann","type":"Kreis"},"federalState":{"key":"05","name":"Nordrhein-Westfalen"}},{"name":"Diekermühle","postalCode":"42781","locality":"Haan","municipality":{"key":"05158008","name":"Haan, Stadt","type":"Stadt"},"district":{"key":"05158","name":"Mettmann","type":"Kreis"},"federalState":{"key":"05","name":"Nordrhein-Westfalen"}},{"name":"Diekermühlen Str.","postalCode":"42781","locality":"Haan","municipality":{"key":"05158008","name":"Haan, Stadt","type":"Stadt"},"district":{"key":"05158","name":"Mettmann","type":"Kreis"},"federalState":{"key":"05","name":"Nordrhein-Westfalen"}},{"name":"Dieker Str.","postalCode":"42781","locality":"Haan","municipality":{"key":"05158008","name":"Haan, Stadt","type":"Stadt"},"district":{"key":"05158","name":"Mettmann","type":"Kreis"},"federalState":{"key":"05","name":"Nordrhein-Westfalen"}},{"name":"Dietrich-Bonhoeffer-Weg","postalCode":"42781","locality":"Haan","municipality":{"key":"05158008","name":"Haan, Stadt","type":"Stadt"},"district":{"key":"05158","name":"Mettmann","type":"Kreis"},"federalState":{"key":"05","name":"Nordrhein-Westfalen"}},{"name":"Dinkelweg","postalCode":"42781","locality":"Haan","municipality":{"key":"05158008","name":"Haan, Stadt","type":"Stadt"},"district":{"key":"05158","name":"Mettmann","type":"Kreis"},"federalState":{"key":"05","name":"Nordrhein-Westfalen"}},{"name":"Dörpfeldstr.","postalCode":"42781","locality":"Haan","municipality":{"key":"05158008","name":"Haan, Stadt","type":"Stadt"},"district":{"key":"05158","name":"Mettmann","type":"Kreis"},"federalState":{"key":"05","name":"Nordrhein-Westfalen"}},{"name":"Drosselweg","postalCode":"42781","locality":"Haan","municipality":{"key":"05158008","name":"Haan, Stadt","type":"Stadt"},"district":{"key":"05158","name":"Mettmann","type":"Kreis"},"federalState":{"key":"05","name":"Nordrhein-Westfalen"}},{"name":"Düppelstr.","postalCode":"42781","locality":"Haan","municipality":{"key":"05158008","name":"Haan, Stadt","type":"Stadt"},"district":{"key":"05158","name":"Mettmann","type":"Kreis"},"federalState":{"key":"05","name":"Nordrhein-Westfalen"}},{"name":"Dürerstr.","postalCode":"42781","locality":"Haan","municipality":{"key":"05158008","name":"Haan, Stadt","type":"Stadt"},"district":{"key":"05158","name":"Mettmann","type":"Kreis"},"federalState":{"key":"05","name":"Nordrhein-Westfalen"}},{"name":"Düsselberger Str.","postalCode":"42781","locality":"Haan","municipality":{"key":"05158008","name":"Haan, Stadt","type":"Stadt"},"district":{"key":"05158","name":"Mettmann","type":"Kreis"},"federalState":{"key":"05","name":"Nordrhein-Westfalen"}},{"name":"Düsseldorfer Str.","postalCode":"42781","locality":"Haan","municipality":{"key":"05158008","name":"Haan, Stadt","type":"Stadt"},"district":{"key":"05158","name":"Mettmann","type":"Kreis"},"federalState":{"key":"05","name":"Nordrhein-Westfalen"}},{"name":"Düsseltalstr.","postalCode":"42781","locality":"Haan","municipality":{"key":"05158008","name":"Haan, Stadt","type":"Stadt"},"district":{"key":"05158","name":"Mettmann","type":"Kreis"},"federalState":{"key":"05","name":"Nordrhein-Westfalen"}},{"name":"Ehlenbeck","postalCode":"42781","locality":"Haan","municipality":{"key":"05158008","name":"Haan, Stadt","type":"Stadt"},"district":{"key":"05158","name":"Mettmann","type":"Kreis"},"federalState":{"key":"05","name":"Nordrhein-Westfalen"}},{"name":"Eichenstr.","postalCode":"42781","locality":"Haan","municipality":{"key":"05158008","name":"Haan, Stadt","type":"Stadt"},"district":{"key":"05158","name":"Mettmann","type":"Kreis"},"federalState":{"key":"05","name":"Nordrhein-Westfalen"}},{"name":"Eisenbahnstr.","postalCode":"42781","locality":"Haan","municipality":{"key":"05158008","name":"Haan, Stadt","type":"Stadt"},"district":{"key":"05158","name":"Mettmann","type":"Kreis"},"federalState":{"key":"05","name":"Nordrhein-Westfalen"}},{"name":"Elberfelder Str.","postalCode":"42781","locality":"Haan","municipality":{"key":"05158008","name":"Haan, Stadt","type":"Stadt"},"district":{"key":"05158","name":"Mettmann","type":"Kreis"},"federalState":{"key":"05","name":"Nordrhein-Westfalen"}},{"name":"Ellscheid","postalCode":"42781","locality":"Haan","municipality":{"key":"05158008","name":"Haan, Stadt","type":"Stadt"},"district":{"key":"05158","name":"Mettmann","type":"Kreis"},"federalState":{"key":"05","name":"Nordrhein-Westfalen"}},{"name":"Ellscheider Str.","postalCode":"42781","locality":"Haan","municipality":{"key":"05158008","name":"Haan, Stadt","type":"Stadt"},"district":{"key":"05158","name":"Mettmann","type":"Kreis"},"federalState":{"key":"05","name":"Nordrhein-Westfalen"}},{"name":"Elp","postalCode":"42781","locality":"Haan","municipality":{"key":"05158008","name":"Haan, Stadt","type":"Stadt"},"district":{"key":"05158","name":"Mettmann","type":"Kreis"},"federalState":{"key":"05","name":"Nordrhein-Westfalen"}},{"name":"Elsa-Brandström-Str.","postalCode":"42781","locality":"Haan","municipality":{"key":"05158008","name":"Haan, Stadt","type":"Stadt"},"district":{"key":"05158","name":"Mettmann","type":"Kreis"},"federalState":{"key":"05","name":"Nordrhein-Westfalen"}},{"name":"Else-Lasker-Schüler-Ring","postalCode":"42781","locality":"Haan","municipality":{"key":"05158008","name":"Haan, Stadt","type":"Stadt"},"district":{"key":"05158","name":"Mettmann","type":"Kreis"},"federalState":{"key":"05","name":"Nordrhein-Westfalen"}},{"name":"Erikaweg","postalCode":"42781","locality":"Haan","municipality":{"key":"05158008","name":"Haan, Stadt","type":"Stadt"},"district":{"key":"05158","name":"Mettmann","type":"Kreis"},"federalState":{"key":"05","name":"Nordrhein-Westfalen"}},{"name":"Erkrather Str.","postalCode":"42781","locality":"Haan","municipality":{"key":"05158008","name":"Haan, Stadt","type":"Stadt"},"district":{"key":"05158","name":"Mettmann","type":"Kreis"},"federalState":{"key":"05","name":"Nordrhein-Westfalen"}},{"name":"Erlenweg","postalCode":"42781","locality":"Haan","municipality":{"key":"05158008","name":"Haan, Stadt","type":"Stadt"},"district":{"key":"05158","name":"Mettmann","type":"Kreis"},"federalState":{"key":"05","name":"Nordrhein-Westfalen"}},{"name":"Ernst-Reuter-Weg","postalCode":"42781","locality":"Haan","municipality":{"key":"05158008","name":"Haan, Stadt","type":"Stadt"},"district":{"key":"05158","name":"Mettmann","type":"Kreis"},"federalState":{"key":"05","name":"Nordrhein-Westfalen"}},{"name":"Eschenweg","postalCode":"42781","locality":"Haan","municipality":{"key":"05158008","name":"Haan, Stadt","type":"Stadt"},"district":{"key":"05158","name":"Mettmann","type":"Kreis"},"federalState":{"key":"05","name":"Nordrhein-Westfalen"}},{"name":"Falkenweg","postalCode":"42781","locality":"Haan","municipality":{"key":"05158008","name":"Haan, Stadt","type":"Stadt"},"district":{"key":"05158","name":"Mettmann","type":"Kreis"},"federalState":{"key":"05","name":"Nordrhein-Westfalen"}},{"name":"Feldstr.","postalCode":"42781","locality":"Haan","municipality":{"key":"05158008","name":"Haan, Stadt","type":"Stadt"},"district":{"key":"05158","name":"Mettmann","type":"Kreis"},"federalState":{"key":"05","name":"Nordrhein-Westfalen"}},{"name":"Feuerbachstr.","postalCode":"42781","locality":"Haan","municipality":{"key":"05158008","name":"Haan, Stadt","type":"Stadt"},"district":{"key":"05158","name":"Mettmann","type":"Kreis"},"federalState":{"key":"05","name":"Nordrhein-Westfalen"}},{"name":"Finkenweg","postalCode":"42781","locality":"Haan","municipality":{"key":"05158008","name":"Haan, Stadt","type":"Stadt"},"district":{"key":"05158","name":"Mettmann","type":"Kreis"},"federalState":{"key":"05","name":"Nordrhein-Westfalen"}},{"name":"Flemingstr.","postalCode":"42781","locality":"Haan","municipality":{"key":"05158008","name":"Haan, Stadt","type":"Stadt"},"district":{"key":"05158","name":"Mettmann","type":"Kreis"},"federalState":{"key":"05","name":"Nordrhein-Westfalen"}},{"name":"Fliederstr.","postalCode":"42781","locality":"Haan","municipality":{"key":"05158008","name":"Haan, Stadt","type":"Stadt"},"district":{"key":"05158","name":"Mettmann","type":"Kreis"},"federalState":{"key":"05","name":"Nordrhein-Westfalen"}},{"name":"Flurstr.","postalCode":"42781","locality":"Haan","municipality":{"key":"05158008","name":"Haan, Stadt","type":"Stadt"},"district":{"key":"05158","name":"Mettmann","type":"Kreis"},"federalState":{"key":"05","name":"Nordrhein-Westfalen"}},{"name":"Forstweg","postalCode":"42781","locality":"Haan","municipality":{"key":"05158008","name":"Haan, Stadt","type":"Stadt"},"district":{"key":"05158","name":"Mettmann","type":"Kreis"},"federalState":{"key":"05","name":"Nordrhein-Westfalen"}},{"name":"Friedhofstr.","postalCode":"42781","locality":"Haan","municipality":{"key":"05158008","name":"Haan, Stadt","type":"Stadt"},"district":{"key":"05158","name":"Mettmann","type":"Kreis"},"federalState":{"key":"05","name":"Nordrhein-Westfalen"}},{"name":"Friedrich-Ebert-Str.","postalCode":"42781","locality":"Haan","municipality":{"key":"05158008","name":"Haan, Stadt","type":"Stadt"},"district":{"key":"05158","name":"Mettmann","type":"Kreis"},"federalState":{"key":"05","name":"Nordrhein-Westfalen"}},{"name":"Friedrichstr.","postalCode":"42781","locality":"Haan","municipality":{"key":"05158008","name":"Haan, Stadt","type":"Stadt"},"district":{"key":"05158","name":"Mettmann","type":"Kreis"},"federalState":{"key":"05","name":"Nordrhein-Westfalen"}},{"name":"Fritz-Reusing-Weg","postalCode":"42781","locality":"Haan","municipality":{"key":"05158008","name":"Haan, Stadt","type":"Stadt"},"district":{"key":"05158","name":"Mettmann","type":"Kreis"},"federalState":{"key":"05","name":"Nordrhein-Westfalen"}},{"name":"Fröbelweg","postalCode":"42781","locality":"Haan","municipality":{"key":"05158008","name":"Haan, Stadt","type":"Stadt"},"district":{"key":"05158","name":"Mettmann","type":"Kreis"},"federalState":{"key":"05","name":"Nordrhein-Westfalen"}},{"name":"Gartenstr.","postalCode":"42781","locality":"Haan","municipality":{"key":"05158008","name":"Haan, Stadt","type":"Stadt"},"district":{"key":"05158","name":"Mettmann","type":"Kreis"},"federalState":{"key":"05","name":"Nordrhein-Westfalen"}},{"name":"Gaudigweg","postalCode":"42781","locality":"Haan","municipality":{"key":"05158008","name":"Haan, Stadt","type":"Stadt"},"district":{"key":"05158","name":"Mettmann","type":"Kreis"},"federalState":{"key":"05","name":"Nordrhein-Westfalen"}},{"name":"Geschwister-Scholl-Weg","postalCode":"42781","locality":"Haan","municipality":{"key":"05158008","name":"Haan, Stadt","type":"Stadt"},"district":{"key":"05158","name":"Mettmann","type":"Kreis"},"federalState":{"key":"05","name":"Nordrhein-Westfalen"}},{"name":"Ginsterweg","postalCode":"42781","locality":"Haan","municipality":{"key":"05158008","name":"Haan, Stadt","type":"Stadt"},"district":{"key":"05158","name":"Mettmann","type":"Kreis"},"federalState":{"key":"05","name":"Nordrhein-Westfalen"}},{"name":"Gluckstr.","postalCode":"42781","locality":"Haan","municipality":{"key":"05158008","name":"Haan, Stadt","type":"Stadt"},"district":{"key":"05158","name":"Mettmann","type":"Kreis"},"federalState":{"key":"05","name":"Nordrhein-Westfalen"}},{"name":"Goerdelerstr.","postalCode":"42781","locality":"Haan","municipality":{"key":"05158008","name":"Haan, Stadt","type":"Stadt"},"district":{"key":"05158","name":"Mettmann","type":"Kreis"},"federalState":{"key":"05","name":"Nordrhein-Westfalen"}},{"name":"Goethestr.","postalCode":"42781","locality":"Haan","municipality":{"key":"05158008","name":"Haan, Stadt","type":"Stadt"},"district":{"key":"05158","name":"Mettmann","type":"Kreis"},"federalState":{"key":"05","name":"Nordrhein-Westfalen"}},{"name":"Graf-Engelbert-Str.","postalCode":"42781","locality":"Haan","municipality":{"key":"05158008","name":"Haan, Stadt","type":"Stadt"},"district":{"key":"05158","name":"Mettmann","type":"Kreis"},"federalState":{"key":"05","name":"Nordrhein-Westfalen"}},{"name":"Gräfrather Str.","postalCode":"42781","locality":"Haan","municipality":{"key":"05158008","name":"Haan, Stadt","type":"Stadt"},"district":{"key":"05158","name":"Mettmann","type":"Kreis"},"federalState":{"key":"05","name":"Nordrhein-Westfalen"}},{"name":"Graf-von-Galen-Weg","postalCode":"42781","locality":"Haan","municipality":{"key":"05158008","name":"Haan, Stadt","type":"Stadt"},"district":{"key":"05158","name":"Mettmann","type":"Kreis"},"federalState":{"key":"05","name":"Nordrhein-Westfalen"}},{"name":"Grenzstr.","postalCode":"42781","locality":"Haan","municipality":{"key":"05158008","name":"Haan, Stadt","type":"Stadt"},"district":{"key":"05158","name":"Mettmann","type":"Kreis"},"federalState":{"key":"05","name":"Nordrhein-Westfalen"}},{"name":"Gruitener Str.","postalCode":"42781","locality":"Haan","municipality":{"key":"05158008","name":"Haan, Stadt","type":"Stadt"},"district":{"key":"05158","name":"Mettmann","type":"Kreis"},"federalState":{"key":"05","name":"Nordrhein-Westfalen"}},{"name":"Grüner Weg","postalCode":"42781","locality":"Haan","municipality":{"key":"05158008","name":"Haan, Stadt","type":"Stadt"},"district":{"key":"05158","name":"Mettmann","type":"Kreis"},"federalState":{"key":"05","name":"Nordrhein-Westfalen"}},{"name":"Grünstr.","postalCode":"42781","locality":"Haan","municipality":{"key":"05158008","name":"Haan, Stadt","type":"Stadt"},"district":{"key":"05158","name":"Mettmann","type":"Kreis"},"federalState":{"key":"05","name":"Nordrhein-Westfalen"}},{"name":"Gustav-Kipp-Weg","postalCode":"42781","locality":"Haan","municipality":{"key":"05158008","name":"Haan, Stadt","type":"Stadt"},"district":{"key":"05158","name":"Mettmann","type":"Kreis"},"federalState":{"key":"05","name":"Nordrhein-Westfalen"}},{"name":"Guttentag-Loben-Str.","postalCode":"42781","locality":"Haan","municipality":{"key":"05158008","name":"Haan, Stadt","type":"Stadt"},"district":{"key":"05158","name":"Mettmann","type":"Kreis"},"federalState":{"key":"05","name":"Nordrhein-Westfalen"}},{"name":"Haaner Str.","postalCode":"42781","locality":"Haan","municipality":{"key":"05158008","name":"Haan, Stadt","type":"Stadt"},"district":{"key":"05158","name":"Mettmann","type":"Kreis"},"federalState":{"key":"05","name":"Nordrhein-Westfalen"}},{"name":"Hahnenfurther Weg","postalCode":"42781","locality":"Haan","municipality":{"key":"05158008","name":"Haan, Stadt","type":"Stadt"},"district":{"key":"05158","name":"Mettmann","type":"Kreis"},"federalState":{"key":"05","name":"Nordrhein-Westfalen"}},{"name":"Hahscheid","postalCode":"42781","locality":"Haan","municipality":{"key":"05158008","name":"Haan, Stadt","type":"Stadt"},"district":{"key":"05158","name":"Mettmann","type":"Kreis"},"federalState":{"key":"05","name":"Nordrhein-Westfalen"}},{"name":"Hasenhaus","postalCode":"42781","locality":"Haan","municipality":{"key":"05158008","name":"Haan, Stadt","type":"Stadt"},"district":{"key":"05158","name":"Mettmann","type":"Kreis"},"federalState":{"key":"05","name":"Nordrhein-Westfalen"}},{"name":"Haydnweg","postalCode":"42781","locality":"Haan","municipality":{"key":"05158008","name":"Haan, Stadt","type":"Stadt"},"district":{"key":"05158","name":"Mettmann","type":"Kreis"},"federalState":{"key":"05","name":"Nordrhein-Westfalen"}},{"name":"Heideweg","postalCode":"42781","locality":"Haan","municipality":{"key":"05158008","name":"Haan, Stadt","type":"Stadt"},"district":{"key":"05158","name":"Mettmann","type":"Kreis"},"federalState":{"key":"05","name":"Nordrhein-Westfalen"}},{"name":"Heidfeld","postalCode":"42781","locality":"Haan","municipality":{"key":"05158008","name":"Haan, Stadt","type":"Stadt"},"district":{"key":"05158","name":"Mettmann","type":"Kreis"},"federalState":{"key":"05","name":"Nordrhein-Westfalen"}},{"name":"Heinhausen","postalCode":"42781","locality":"Haan","municipality":{"key":"05158008","name":"Haan, Stadt","type":"Stadt"},"district":{"key":"05158","name":"Mettmann","type":"Kreis"},"federalState":{"key":"05","name":"Nordrhein-Westfalen"}},{"name":"Heinhauser Höh","postalCode":"42781","locality":"Haan","municipality":{"key":"05158008","name":"Haan, Stadt","type":"Stadt"},"district":{"key":"05158","name":"Mettmann","type":"Kreis"},"federalState":{"key":"05","name":"Nordrhein-Westfalen"}},{"name":"Heinhauser Weg","postalCode":"42781","locality":"Haan","municipality":{"key":"05158008","name":"Haan, Stadt","type":"Stadt"},"district":{"key":"05158","name":"Mettmann","type":"Kreis"},"federalState":{"key":"05","name":"Nordrhein-Westfalen"}},{"name":"Heinrich-Bilcken-Weg","postalCode":"42781","locality":"Haan","municipality":{"key":"05158008","name":"Haan, Stadt","type":"Stadt"},"district":{"key":"05158","name":"Mettmann","type":"Kreis"},"federalState":{"key":"05","name":"Nordrhein-Westfalen"}},{"name":"Hermann-Löns-Weg","postalCode":"42781","locality":"Haan","municipality":{"key":"05158008","name":"Haan, Stadt","type":"Stadt"},"district":{"key":"05158","name":"Mettmann","type":"Kreis"},"federalState":{"key":"05","name":"Nordrhein-Westfalen"}},{"name":"Hochdahler Str.","postalCode":"42781","locality":"Haan","municipality":{"key":"05158008","name":"Haan, Stadt","type":"Stadt"},"district":{"key":"05158","name":"Mettmann","type":"Kreis"},"federalState":{"key":"05","name":"Nordrhein-Westfalen"}},{"name":"Hochstr.","postalCode":"42781","locality":"Haan","municipality":{"key":"05158008","name":"Haan, Stadt","type":"Stadt"},"district":{"key":"05158","name":"Mettmann","type":"Kreis"},"federalState":{"key":"05","name":"Nordrhein-Westfalen"}},{"name":"Holbeinstr.","postalCode":"42781","locality":"Haan","municipality":{"key":"05158008","name":"Haan, Stadt","type":"Stadt"},"district":{"key":"05158","name":"Mettmann","type":"Kreis"},"federalState":{"key":"05","name":"Nordrhein-Westfalen"}},{"name":"Holunderweg","postalCode":"42781","locality":"Haan","municipality":{"key":"05158008","name":"Haan, Stadt","type":"Stadt"},"district":{"key":"05158","name":"Mettmann","type":"Kreis"},"federalState":{"key":"05","name":"Nordrhein-Westfalen"}},{"name":"Horst","postalCode":"42781","locality":"Haan","municipality":{"key":"05158008","name":"Haan, Stadt","type":"Stadt"},"district":{"key":"05158","name":"Mettmann","type":"Kreis"},"federalState":{"key":"05","name":"Nordrhein-Westfalen"}},{"name":"Horstmannsmühle","postalCode":"42781","locality":"Haan","municipality":{"key":"05158008","name":"Haan, Stadt","type":"Stadt"},"district":{"key":"05158","name":"Mettmann","type":"Kreis"},"federalState":{"key":"05","name":"Nordrhein-Westfalen"}},{"name":"Horststr.","postalCode":"42781","locality":"Haan","municipality":{"key":"05158008","name":"Haan, Stadt","type":"Stadt"},"district":{"key":"05158","name":"Mettmann","type":"Kreis"},"federalState":{"key":"05","name":"Nordrhein-Westfalen"}},{"name":"Hülsberg","postalCode":"42781","locality":"Haan","municipality":{"key":"05158008","name":"Haan, Stadt","type":"Stadt"},"district":{"key":"05158","name":"Mettmann","type":"Kreis"},"federalState":{"key":"05","name":"Nordrhein-Westfalen"}},{"name":"Hülsberger Busch","postalCode":"42781","locality":"Haan","municipality":{"key":"05158008","name":"Haan, Stadt","type":"Stadt"},"district":{"key":"05158","name":"Mettmann","type":"Kreis"},"federalState":{"key":"05","name":"Nordrhein-Westfalen"}},{"name":"Iserkull","postalCode":"42781","locality":"Haan","municipality":{"key":"05158008","name":"Haan, Stadt","type":"Stadt"},"district":{"key":"05158","name":"Mettmann","type":"Kreis"},"federalState":{"key":"05","name":"Nordrhein-Westfalen"}},{"name":"Ittertalstr.","postalCode":"42781","locality":"Haan","municipality":{"key":"05158008","name":"Haan, Stadt","type":"Stadt"},"district":{"key":"05158","name":"Mettmann","type":"Kreis"},"federalState":{"key":"05","name":"Nordrhein-Westfalen"}},{"name":"Jägerstr.","postalCode":"42781","locality":"Haan","municipality":{"key":"05158008","name":"Haan, Stadt","type":"Stadt"},"district":{"key":"05158","name":"Mettmann","type":"Kreis"},"federalState":{"key":"05","name":"Nordrhein-Westfalen"}},{"name":"Jahnstr.","postalCode":"42781","locality":"Haan","municipality":{"key":"05158008","name":"Haan, Stadt","type":"Stadt"},"district":{"key":"05158","name":"Mettmann","type":"Kreis"},"federalState":{"key":"05","name":"Nordrhein-Westfalen"}},{"name":"Joachim-Neander-Weg","postalCode":"42781","locality":"Haan","municipality":{"key":"05158008","name":"Haan, Stadt","type":"Stadt"},"district":{"key":"05158","name":"Mettmann","type":"Kreis"},"federalState":{"key":"05","name":"Nordrhein-Westfalen"}},{"name":"Johann-Heidelberg-Weg","postalCode":"42781","locality":"Haan","municipality":{"key":"05158008","name":"Haan, Stadt","type":"Stadt"},"district":{"key":"05158","name":"Mettmann","type":"Kreis"},"federalState":{"key":"05","name":"Nordrhein-Westfalen"}},{"name":"Justus-Gruner-Weg","postalCode":"42781","locality":"Haan","municipality":{"key":"05158008","name":"Haan, Stadt","type":"Stadt"},"district":{"key":"05158","name":"Mettmann","type":"Kreis"},"federalState":{"key":"05","name":"Nordrhein-Westfalen"}},{"name":"Kaisersbusch","postalCode":"42781","locality":"Haan","municipality":{"key":"05158008","name":"Haan, Stadt","type":"Stadt"},"district":{"key":"05158","name":"Mettmann","type":"Kreis"},"federalState":{"key":"05","name":"Nordrhein-Westfalen"}},{"name":"Kaiserstr.","postalCode":"42781","locality":"Haan","municipality":{"key":"05158008","name":"Haan, Stadt","type":"Stadt"},"district":{"key":"05158","name":"Mettmann","type":"Kreis"},"federalState":{"key":"05","name":"Nordrhein-Westfalen"}},{"name":"Kalkstr.","postalCode":"42781","locality":"Haan","municipality":{"key":"05158008","name":"Haan, Stadt","type":"Stadt"},"district":{"key":"05158","name":"Mettmann","type":"Kreis"},"federalState":{"key":"05","name":"Nordrhein-Westfalen"}},{"name":"Kamp","postalCode":"42781","locality":"Haan","municipality":{"key":"05158008","name":"Haan, Stadt","type":"Stadt"},"district":{"key":"05158","name":"Mettmann","type":"Kreis"},"federalState":{"key":"05","name":"Nordrhein-Westfalen"}},{"name":"Kampheider Feld","postalCode":"42781","locality":"Haan","municipality":{"key":"05158008","name":"Haan, Stadt","type":"Stadt"},"district":{"key":"05158","name":"Mettmann","type":"Kreis"},"federalState":{"key":"05","name":"Nordrhein-Westfalen"}},{"name":"Kampheider Str.","postalCode":"42781","locality":"Haan","municipality":{"key":"05158008","name":"Haan, Stadt","type":"Stadt"},"district":{"key":"05158","name":"Mettmann","type":"Kreis"},"federalState":{"key":"05","name":"Nordrhein-Westfalen"}},{"name":"Kampstr.","postalCode":"42781","locality":"Haan","municipality":{"key":"05158008","name":"Haan, Stadt","type":"Stadt"},"district":{"key":"05158","name":"Mettmann","type":"Kreis"},"federalState":{"key":"05","name":"Nordrhein-Westfalen"}},{"name":"Karl-August-Jung-Platz","postalCode":"42781","locality":"Haan","municipality":{"key":"05158008","name":"Haan, Stadt","type":"Stadt"},"district":{"key":"05158","name":"Mettmann","type":"Kreis"},"federalState":{"key":"05","name":"Nordrhein-Westfalen"}},{"name":"Karl-Niepenberg-Weg","postalCode":"42781","locality":"Haan","municipality":{"key":"05158008","name":"Haan, Stadt","type":"Stadt"},"district":{"key":"05158","name":"Mettmann","type":"Kreis"},"federalState":{"key":"05","name":"Nordrhein-Westfalen"}},{"name":"Karlstr.","postalCode":"42781","locality":"Haan","municipality":{"key":"05158008","name":"Haan, Stadt","type":"Stadt"},"district":{"key":"05158","name":"Mettmann","type":"Kreis"},"federalState":{"key":"05","name":"Nordrhein-Westfalen"}},{"name":"Karoline-von-Günderode-Weg","postalCode":"42781","locality":"Haan","municipality":{"key":"05158008","name":"Haan, Stadt","type":"Stadt"},"district":{"key":"05158","name":"Mettmann","type":"Kreis"},"federalState":{"key":"05","name":"Nordrhein-Westfalen"}},{"name":"Kastanienweg","postalCode":"42781","locality":"Haan","municipality":{"key":"05158008","name":"Haan, Stadt","type":"Stadt"},"district":{"key":"05158","name":"Mettmann","type":"Kreis"},"federalState":{"key":"05","name":"Nordrhein-Westfalen"}},{"name":"Käthe-Kollwitz-Str.","postalCode":"42781","locality":"Haan","municipality":{"key":"05158008","name":"Haan, Stadt","type":"Stadt"},"district":{"key":"05158","name":"Mettmann","type":"Kreis"},"federalState":{"key":"05","name":"Nordrhein-Westfalen"}},{"name":"Kirchstr.","postalCode":"42781","locality":"Haan","municipality":{"key":"05158008","name":"Haan, Stadt","type":"Stadt"},"district":{"key":"05158","name":"Mettmann","type":"Kreis"},"federalState":{"key":"05","name":"Nordrhein-Westfalen"}},{"name":"Kneteisen","postalCode":"42781","locality":"Haan","municipality":{"key":"05158008","name":"Haan, Stadt","type":"Stadt"},"district":{"key":"05158","name":"Mettmann","type":"Kreis"},"federalState":{"key":"05","name":"Nordrhein-Westfalen"}},{"name":"Kölner Str.","postalCode":"42781","locality":"Haan","municipality":{"key":"05158008","name":"Haan, Stadt","type":"Stadt"},"district":{"key":"05158","name":"Mettmann","type":"Kreis"},"federalState":{"key":"05","name":"Nordrhein-Westfalen"}},{"name":"Königgrätzer Str.","postalCode":"42781","locality":"Haan","municipality":{"key":"05158008","name":"Haan, Stadt","type":"Stadt"},"district":{"key":"05158","name":"Mettmann","type":"Kreis"},"federalState":{"key":"05","name":"Nordrhein-Westfalen"}},{"name":"Königsberger Str.","postalCode":"42781","locality":"Haan","municipality":{"key":"05158008","name":"Haan, Stadt","type":"Stadt"},"district":{"key":"05158","name":"Mettmann","type":"Kreis"},"federalState":{"key":"05","name":"Nordrhein-Westfalen"}},{"name":"Königstr.","postalCode":"42781","locality":"Haan","municipality":{"key":"05158008","name":"Haan, Stadt","type":"Stadt"},"district":{"key":"05158","name":"Mettmann","type":"Kreis"},"federalState":{"key":"05","name":"Nordrhein-Westfalen"}},{"name":"Korkenziehertrasse","postalCode":"42781","locality":"Haan","municipality":{"key":"05158008","name":"Haan, Stadt","type":"Stadt"},"district":{"key":"05158","name":"Mettmann","type":"Kreis"},"federalState":{"key":"05","name":"Nordrhein-Westfalen"}},{"name":"Körnerstr.","postalCode":"42781","locality":"Haan","municipality":{"key":"05158008","name":"Haan, Stadt","type":"Stadt"},"district":{"key":"05158","name":"Mettmann","type":"Kreis"},"federalState":{"key":"05","name":"Nordrhein-Westfalen"}},{"name":"Kriekhausen","postalCode":"42781","locality":"Haan","municipality":{"key":"05158008","name":"Haan, Stadt","type":"Stadt"},"district":{"key":"05158","name":"Mettmann","type":"Kreis"},"federalState":{"key":"05","name":"Nordrhein-Westfalen"}},{"name":"Kurt-Schumacher-Weg","postalCode":"42781","locality":"Haan","municipality":{"key":"05158008","name":"Haan, Stadt","type":"Stadt"},"district":{"key":"05158","name":"Mettmann","type":"Kreis"},"federalState":{"key":"05","name":"Nordrhein-Westfalen"}},{"name":"Kurze Str.","postalCode":"42781","locality":"Haan","municipality":{"key":"05158008","name":"Haan, Stadt","type":"Stadt"},"district":{"key":"05158","name":"Mettmann","type":"Kreis"},"federalState":{"key":"05","name":"Nordrhein-Westfalen"}},{"name":"Landstr.","postalCode":"42781","locality":"Haan","municipality":{"key":"05158008","name":"Haan, Stadt","type":"Stadt"},"district":{"key":"05158","name":"Mettmann","type":"Kreis"},"federalState":{"key":"05","name":"Nordrhein-Westfalen"}},{"name":"Leichlinger Str.","postalCode":"42781","locality":"Haan","municipality":{"key":"05158008","name":"Haan, Stadt","type":"Stadt"},"district":{"key":"05158","name":"Mettmann","type":"Kreis"},"federalState":{"key":"05","name":"Nordrhein-Westfalen"}},{"name":"Lerchenweg","postalCode":"42781","locality":"Haan","municipality":{"key":"05158008","name":"Haan, Stadt","type":"Stadt"},"district":{"key":"05158","name":"Mettmann","type":"Kreis"},"federalState":{"key":"05","name":"Nordrhein-Westfalen"}},{"name":"Lessingstr.","postalCode":"42781","locality":"Haan","municipality":{"key":"05158008","name":"Haan, Stadt","type":"Stadt"},"district":{"key":"05158","name":"Mettmann","type":"Kreis"},"federalState":{"key":"05","name":"Nordrhein-Westfalen"}},{"name":"Lindenweg","postalCode":"42781","locality":"Haan","municipality":{"key":"05158008","name":"Haan, Stadt","type":"Stadt"},"district":{"key":"05158","name":"Mettmann","type":"Kreis"},"federalState":{"key":"05","name":"Nordrhein-Westfalen"}},{"name":"Lisztstr.","postalCode":"42781","locality":"Haan","municipality":{"key":"05158008","name":"Haan, Stadt","type":"Stadt"},"district":{"key":"05158","name":"Mettmann","type":"Kreis"},"federalState":{"key":"05","name":"Nordrhein-Westfalen"}},{"name":"Ludwigstr.","postalCode":"42781","locality":"Haan","municipality":{"key":"05158008","name":"Haan, Stadt","type":"Stadt"},"district":{"key":"05158","name":"Mettmann","type":"Kreis"},"federalState":{"key":"05","name":"Nordrhein-Westfalen"}},{"name":"Luisenstr.","postalCode":"42781","locality":"Haan","municipality":{"key":"05158008","name":"Haan, Stadt","type":"Stadt"},"district":{"key":"05158","name":"Mettmann","type":"Kreis"},"federalState":{"key":"05","name":"Nordrhein-Westfalen"}},{"name":"Mahnertmühle","postalCode":"42781","locality":"Haan","municipality":{"key":"05158008","name":"Haan, Stadt","type":"Stadt"},"district":{"key":"05158","name":"Mettmann","type":"Kreis"},"federalState":{"key":"05","name":"Nordrhein-Westfalen"}},{"name":"Martin-Luther-Str.","postalCode":"42781","locality":"Haan","municipality":{"key":"05158008","name":"Haan, Stadt","type":"Stadt"},"district":{"key":"05158","name":"Mettmann","type":"Kreis"},"federalState":{"key":"05","name":"Nordrhein-Westfalen"}},{"name":"Max-Liebermann-Str.","postalCode":"42781","locality":"Haan","municipality":{"key":"05158008","name":"Haan, Stadt","type":"Stadt"},"district":{"key":"05158","name":"Mettmann","type":"Kreis"},"federalState":{"key":"05","name":"Nordrhein-Westfalen"}},{"name":"Memeler Str.","postalCode":"42781","locality":"Haan","municipality":{"key":"05158008","name":"Haan, Stadt","type":"Stadt"},"district":{"key":"05158","name":"Mettmann","type":"Kreis"},"federalState":{"key":"05","name":"Nordrhein-Westfalen"}},{"name":"Menzelstr.","postalCode":"42781","locality":"Haan","municipality":{"key":"05158008","name":"Haan, Stadt","type":"Stadt"},"district":{"key":"05158","name":"Mettmann","type":"Kreis"},"federalState":{"key":"05","name":"Nordrhein-Westfalen"}},{"name":"Mergelweg","postalCode":"42781","locality":"Haan","municipality":{"key":"05158008","name":"Haan, Stadt","type":"Stadt"},"district":{"key":"05158","name":"Mettmann","type":"Kreis"},"federalState":{"key":"05","name":"Nordrhein-Westfalen"}},{"name":"Mettmanner Str.","postalCode":"42781","locality":"Haan","municipality":{"key":"05158008","name":"Haan, Stadt","type":"Stadt"},"district":{"key":"05158","name":"Mettmann","type":"Kreis"},"federalState":{"key":"05","name":"Nordrhein-Westfalen"}},{"name":"Millrather Str.","postalCode":"42781","locality":"Haan","municipality":{"key":"05158008","name":"Haan, Stadt","type":"Stadt"},"district":{"key":"05158","name":"Mettmann","type":"Kreis"},"federalState":{"key":"05","name":"Nordrhein-Westfalen"}},{"name":"Mittelstr.","postalCode":"42781","locality":"Haan","municipality":{"key":"05158008","name":"Haan, Stadt","type":"Stadt"},"district":{"key":"05158","name":"Mettmann","type":"Kreis"},"federalState":{"key":"05","name":"Nordrhein-Westfalen"}},{"name":"Moltkestr.","postalCode":"42781","locality":"Haan","municipality":{"key":"05158008","name":"Haan, Stadt","type":"Stadt"},"district":{"key":"05158","name":"Mettmann","type":"Kreis"},"federalState":{"key":"05","name":"Nordrhein-Westfalen"}},{"name":"Montanusweg","postalCode":"42781","locality":"Haan","municipality":{"key":"05158008","name":"Haan, Stadt","type":"Stadt"},"district":{"key":"05158","name":"Mettmann","type":"Kreis"},"federalState":{"key":"05","name":"Nordrhein-Westfalen"}},{"name":"Moorbirkenweg","postalCode":"42781","locality":"Haan","municipality":{"key":"05158008","name":"Haan, Stadt","type":"Stadt"},"district":{"key":"05158","name":"Mettmann","type":"Kreis"},"federalState":{"key":"05","name":"Nordrhein-Westfalen"}},{"name":"Mozartstr.","postalCode":"42781","locality":"Haan","municipality":{"key":"05158008","name":"Haan, Stadt","type":"Stadt"},"district":{"key":"05158","name":"Mettmann","type":"Kreis"},"federalState":{"key":"05","name":"Nordrhein-Westfalen"}},{"name":"Müllersberg","postalCode":"42781","locality":"Haan","municipality":{"key":"05158008","name":"Haan, Stadt","type":"Stadt"},"district":{"key":"05158","name":"Mettmann","type":"Kreis"},"federalState":{"key":"05","name":"Nordrhein-Westfalen"}},{"name":"Muschelkalkweg","postalCode":"42781","locality":"Haan","municipality":{"key":"05158008","name":"Haan, Stadt","type":"Stadt"},"district":{"key":"05158","name":"Mettmann","type":"Kreis"},"federalState":{"key":"05","name":"Nordrhein-Westfalen"}},{"name":"Nachtigallenweg","postalCode":"42781","locality":"Haan","municipality":{"key":"05158008","name":"Haan, Stadt","type":"Stadt"},"district":{"key":"05158","name":"Mettmann","type":"Kreis"},"federalState":{"key":"05","name":"Nordrhein-Westfalen"}},{"name":"Neandertalweg","postalCode":"42781","locality":"Haan","municipality":{"key":"05158008","name":"Haan, Stadt","type":"Stadt"},"district":{"key":"05158","name":"Mettmann","type":"Kreis"},"federalState":{"key":"05","name":"Nordrhein-Westfalen"}},{"name":"Nelkenweg","postalCode":"42781","locality":"Haan","municipality":{"key":"05158008","name":"Haan, Stadt","type":"Stadt"},"district":{"key":"05158","name":"Mettmann","type":"Kreis"},"federalState":{"key":"05","name":"Nordrhein-Westfalen"}},{"name":"Nelly-Sachs-Weg","postalCode":"42781","locality":"Haan","municipality":{"key":"05158008","name":"Haan, Stadt","type":"Stadt"},"district":{"key":"05158","name":"Mettmann","type":"Kreis"},"federalState":{"key":"05","name":"Nordrhein-Westfalen"}},{"name":"Neuer Markt","postalCode":"42781","locality":"Haan","municipality":{"key":"05158008","name":"Haan, Stadt","type":"Stadt"},"district":{"key":"05158","name":"Mettmann","type":"Kreis"},"federalState":{"key":"05","name":"Nordrhein-Westfalen"}},{"name":"Neustr.","postalCode":"42781","locality":"Haan","municipality":{"key":"05158008","name":"Haan, Stadt","type":"Stadt"},"district":{"key":"05158","name":"Mettmann","type":"Kreis"},"federalState":{"key":"05","name":"Nordrhein-Westfalen"}},{"name":"Nordstr.","postalCode":"42781","locality":"Haan","municipality":{"key":"05158008","name":"Haan, Stadt","type":"Stadt"},"district":{"key":"05158","name":"Mettmann","type":"Kreis"},"federalState":{"key":"05","name":"Nordrhein-Westfalen"}},{"name":"Ohligser Str.","postalCode":"42781","locality":"Haan","municipality":{"key":"05158008","name":"Haan, Stadt","type":"Stadt"},"district":{"key":"05158","name":"Mettmann","type":"Kreis"},"federalState":{"key":"05","name":"Nordrhein-Westfalen"}},{"name":"Osterholzer Str.","postalCode":"42781","locality":"Haan","municipality":{"key":"05158008","name":"Haan, Stadt","type":"Stadt"},"district":{"key":"05158","name":"Mettmann","type":"Kreis"},"federalState":{"key":"05","name":"Nordrhein-Westfalen"}},{"name":"Ostspange","postalCode":"42781","locality":"Haan","municipality":{"key":"05158008","name":"Haan, Stadt","type":"Stadt"},"district":{"key":"05158","name":"Mettmann","type":"Kreis"},"federalState":{"key":"05","name":"Nordrhein-Westfalen"}},{"name":"Pannschoppen","postalCode":"42781","locality":"Haan","municipality":{"key":"05158008","name":"Haan, Stadt","type":"Stadt"},"district":{"key":"05158","name":"Mettmann","type":"Kreis"},"federalState":{"key":"05","name":"Nordrhein-Westfalen"}},{"name":"Pappelweg","postalCode":"42781","locality":"Haan","municipality":{"key":"05158008","name":"Haan, Stadt","type":"Stadt"},"district":{"key":"05158","name":"Mettmann","type":"Kreis"},"federalState":{"key":"05","name":"Nordrhein-Westfalen"}},{"name":"Parkstr.","postalCode":"42781","locality":"Haan","municipality":{"key":"05158008","name":"Haan, Stadt","type":"Stadt"},"district":{"key":"05158","name":"Mettmann","type":"Kreis"},"federalState":{"key":"05","name":"Nordrhein-Westfalen"}},{"name":"Park Ville d’Eu","postalCode":"42781","locality":"Haan","municipality":{"key":"05158008","name":"Haan, Stadt","type":"Stadt"},"district":{"key":"05158","name":"Mettmann","type":"Kreis"},"federalState":{"key":"05","name":"Nordrhein-Westfalen"}},{"name":"Pastor-Vömel-Str.","postalCode":"42781","locality":"Haan","municipality":{"key":"05158008","name":"Haan, Stadt","type":"Stadt"},"district":{"key":"05158","name":"Mettmann","type":"Kreis"},"federalState":{"key":"05","name":"Nordrhein-Westfalen"}},{"name":"Paul-Klee-Str.","postalCode":"42781","locality":"Haan","municipality":{"key":"05158008","name":"Haan, Stadt","type":"Stadt"},"district":{"key":"05158","name":"Mettmann","type":"Kreis"},"federalState":{"key":"05","name":"Nordrhein-Westfalen"}},{"name":"Paul-Lincke-Weg","postalCode":"42781","locality":"Haan","municipality":{"key":"05158008","name":"Haan, Stadt","type":"Stadt"},"district":{"key":"05158","name":"Mettmann","type":"Kreis"},"federalState":{"key":"05","name":"Nordrhein-Westfalen"}},{"name":"Pelzers","postalCode":"42781","locality":"Haan","municipality":{"key":"05158008","name":"Haan, Stadt","type":"Stadt"},"district":{"key":"05158","name":"Mettmann","type":"Kreis"},"federalState":{"key":"05","name":"Nordrhein-Westfalen"}},{"name":"Prälat-Marschall-Str.","postalCode":"42781","locality":"Haan","municipality":{"key":"05158008","name":"Haan, Stadt","type":"Stadt"},"district":{"key":"05158","name":"Mettmann","type":"Kreis"},"federalState":{"key":"05","name":"Nordrhein-Westfalen"}},{"name":"Pütt","postalCode":"42781","locality":"Haan","municipality":{"key":"05158008","name":"Haan, Stadt","type":"Stadt"},"district":{"key":"05158","name":"Mettmann","type":"Kreis"},"federalState":{"key":"05","name":"Nordrhein-Westfalen"}},{"name":"Quarzweg","postalCode":"42781","locality":"Haan","municipality":{"key":"05158008","name":"Haan, Stadt","type":"Stadt"},"district":{"key":"05158","name":"Mettmann","type":"Kreis"},"federalState":{"key":"05","name":"Nordrhein-Westfalen"}},{"name":"Rathmacherweg","postalCode":"42781","locality":"Haan","municipality":{"key":"05158008","name":"Haan, Stadt","type":"Stadt"},"district":{"key":"05158","name":"Mettmann","type":"Kreis"},"federalState":{"key":"05","name":"Nordrhein-Westfalen"}},{"name":"Ricarda-Huch-Weg","postalCode":"42781","locality":"Haan","municipality":{"key":"05158008","name":"Haan, Stadt","type":"Stadt"},"district":{"key":"05158","name":"Mettmann","type":"Kreis"},"federalState":{"key":"05","name":"Nordrhein-Westfalen"}},{"name":"Richard-Wagner-Str.","postalCode":"42781","locality":"Haan","municipality":{"key":"05158008","name":"Haan, Stadt","type":"Stadt"},"district":{"key":"05158","name":"Mettmann","type":"Kreis"},"federalState":{"key":"05","name":"Nordrhein-Westfalen"}},{"name":"Rietmacherweg","postalCode":"42781","locality":"Haan","municipality":{"key":"05158008","name":"Haan, Stadt","type":"Stadt"},"district":{"key":"05158","name":"Mettmann","type":"Kreis"},"federalState":{"key":"05","name":"Nordrhein-Westfalen"}},{"name":"Robert-Koch-Str.","postalCode":"42781","locality":"Haan","municipality":{"key":"05158008","name":"Haan, Stadt","type":"Stadt"},"district":{"key":"05158","name":"Mettmann","type":"Kreis"},"federalState":{"key":"05","name":"Nordrhein-Westfalen"}},{"name":"Robert-Stolz-Weg","postalCode":"42781","locality":"Haan","municipality":{"key":"05158008","name":"Haan, Stadt","type":"Stadt"},"district":{"key":"05158","name":"Mettmann","type":"Kreis"},"federalState":{"key":"05","name":"Nordrhein-Westfalen"}},{"name":"Rodensiepen","postalCode":"42781","locality":"Haan","municipality":{"key":"05158008","name":"Haan, Stadt","type":"Stadt"},"district":{"key":"05158","name":"Mettmann","type":"Kreis"},"federalState":{"key":"05","name":"Nordrhein-Westfalen"}},{"name":"Röntgenstr.","postalCode":"42781","locality":"Haan","municipality":{"key":"05158008","name":"Haan, Stadt","type":"Stadt"},"district":{"key":"05158","name":"Mettmann","type":"Kreis"},"federalState":{"key":"05","name":"Nordrhein-Westfalen"}},{"name":"Rosenweg","postalCode":"42781","locality":"Haan","municipality":{"key":"05158008","name":"Haan, Stadt","type":"Stadt"},"district":{"key":"05158","name":"Mettmann","type":"Kreis"},"federalState":{"key":"05","name":"Nordrhein-Westfalen"}},{"name":"Rotdornweg","postalCode":"42781","locality":"Haan","municipality":{"key":"05158008","name":"Haan, Stadt","type":"Stadt"},"district":{"key":"05158","name":"Mettmann","type":"Kreis"},"federalState":{"key":"05","name":"Nordrhein-Westfalen"}},{"name":"Rudolf-Harbig-Weg","postalCode":"42781","locality":"Haan","municipality":{"key":"05158008","name":"Haan, Stadt","type":"Stadt"},"district":{"key":"05158","name":"Mettmann","type":"Kreis"},"federalState":{"key":"05","name":"Nordrhein-Westfalen"}},{"name":"Sanddornweg","postalCode":"42781","locality":"Haan","municipality":{"key":"05158008","name":"Haan, Stadt","type":"Stadt"},"district":{"key":"05158","name":"Mettmann","type":"Kreis"},"federalState":{"key":"05","name":"Nordrhein-Westfalen"}},{"name":"Sandstr.","postalCode":"42781","locality":"Haan","municipality":{"key":"05158008","name":"Haan, Stadt","type":"Stadt"},"district":{"key":"05158","name":"Mettmann","type":"Kreis"},"federalState":{"key":"05","name":"Nordrhein-Westfalen"}},{"name":"Sankt-Nikolaus-Siedlung","postalCode":"42781","locality":"Haan","municipality":{"key":"05158008","name":"Haan, Stadt","type":"Stadt"},"district":{"key":"05158","name":"Mettmann","type":"Kreis"},"federalState":{"key":"05","name":"Nordrhein-Westfalen"}},{"name":"Sauerbruchstr.","postalCode":"42781","locality":"Haan","municipality":{"key":"05158008","name":"Haan, Stadt","type":"Stadt"},"district":{"key":"05158","name":"Mettmann","type":"Kreis"},"federalState":{"key":"05","name":"Nordrhein-Westfalen"}},{"name":"Schallbruch","postalCode":"42781","locality":"Haan","municipality":{"key":"05158008","name":"Haan, Stadt","type":"Stadt"},"district":{"key":"05158","name":"Mettmann","type":"Kreis"},"federalState":{"key":"05","name":"Nordrhein-Westfalen"}},{"name":"Schallbrucher Höhe","postalCode":"42781","locality":"Haan","municipality":{"key":"05158008","name":"Haan, Stadt","type":"Stadt"},"district":{"key":"05158","name":"Mettmann","type":"Kreis"},"federalState":{"key":"05","name":"Nordrhein-Westfalen"}},{"name":"Schärerweg","postalCode":"42781","locality":"Haan","municipality":{"key":"05158008","name":"Haan, Stadt","type":"Stadt"},"district":{"key":"05158","name":"Mettmann","type":"Kreis"},"federalState":{"key":"05","name":"Nordrhein-Westfalen"}},{"name":"Scheidemannstr.","postalCode":"42781","locality":"Haan","municipality":{"key":"05158008","name":"Haan, Stadt","type":"Stadt"},"district":{"key":"05158","name":"Mettmann","type":"Kreis"},"federalState":{"key":"05","name":"Nordrhein-Westfalen"}},{"name":"Schiensbusch","postalCode":"42781","locality":"Haan","municipality":{"key":"05158008","name":"Haan, Stadt","type":"Stadt"},"district":{"key":"05158","name":"Mettmann","type":"Kreis"},"federalState":{"key":"05","name":"Nordrhein-Westfalen"}},{"name":"Schillerstr.","postalCode":"42781","locality":"Haan","municipality":{"key":"05158008","name":"Haan, Stadt","type":"Stadt"},"district":{"key":"05158","name":"Mettmann","type":"Kreis"},"federalState":{"key":"05","name":"Nordrhein-Westfalen"}},{"name":"Schirrmannweg","postalCode":"42781","locality":"Haan","municipality":{"key":"05158008","name":"Haan, Stadt","type":"Stadt"},"district":{"key":"05158","name":"Mettmann","type":"Kreis"},"federalState":{"key":"05","name":"Nordrhein-Westfalen"}},{"name":"Schlehdornweg","postalCode":"42781","locality":"Haan","municipality":{"key":"05158008","name":"Haan, Stadt","type":"Stadt"},"district":{"key":"05158","name":"Mettmann","type":"Kreis"},"federalState":{"key":"05","name":"Nordrhein-Westfalen"}},{"name":"Schragen","postalCode":"42781","locality":"Haan","municipality":{"key":"05158008","name":"Haan, Stadt","type":"Stadt"},"district":{"key":"05158","name":"Mettmann","type":"Kreis"},"federalState":{"key":"05","name":"Nordrhein-Westfalen"}},{"name":"Schubertweg","postalCode":"42781","locality":"Haan","municipality":{"key":"05158008","name":"Haan, Stadt","type":"Stadt"},"district":{"key":"05158","name":"Mettmann","type":"Kreis"},"federalState":{"key":"05","name":"Nordrhein-Westfalen"}},{"name":"Schumannstr.","postalCode":"42781","locality":"Haan","municipality":{"key":"05158008","name":"Haan, Stadt","type":"Stadt"},"district":{"key":"05158","name":"Mettmann","type":"Kreis"},"federalState":{"key":"05","name":"Nordrhein-Westfalen"}},{"name":"Schwindstr.","postalCode":"42781","locality":"Haan","municipality":{"key":"05158008","name":"Haan, Stadt","type":"Stadt"},"district":{"key":"05158","name":"Mettmann","type":"Kreis"},"federalState":{"key":"05","name":"Nordrhein-Westfalen"}},{"name":"Sedanstr.","postalCode":"42781","locality":"Haan","municipality":{"key":"05158008","name":"Haan, Stadt","type":"Stadt"},"district":{"key":"05158","name":"Mettmann","type":"Kreis"},"federalState":{"key":"05","name":"Nordrhein-Westfalen"}},{"name":"Seidenwebergasse","postalCode":"42781","locality":"Haan","municipality":{"key":"05158008","name":"Haan, Stadt","type":"Stadt"},"district":{"key":"05158","name":"Mettmann","type":"Kreis"},"federalState":{"key":"05","name":"Nordrhein-Westfalen"}},{"name":"Seilbahnweg","postalCode":"42781","locality":"Haan","municipality":{"key":"05158008","name":"Haan, Stadt","type":"Stadt"},"district":{"key":"05158","name":"Mettmann","type":"Kreis"},"federalState":{"key":"05","name":"Nordrhein-Westfalen"}},{"name":"Siemensstr.","postalCode":"42781","locality":"Haan","municipality":{"key":"05158008","name":"Haan, Stadt","type":"Stadt"},"district":{"key":"05158","name":"Mettmann","type":"Kreis"},"federalState":{"key":"05","name":"Nordrhein-Westfalen"}},{"name":"Sinterstr.","postalCode":"42781","locality":"Haan","municipality":{"key":"05158008","name":"Haan, Stadt","type":"Stadt"},"district":{"key":"05158","name":"Mettmann","type":"Kreis"},"federalState":{"key":"05","name":"Nordrhein-Westfalen"}},{"name":"Sombers","postalCode":"42781","locality":"Haan","municipality":{"key":"05158008","name":"Haan, Stadt","type":"Stadt"},"district":{"key":"05158","name":"Mettmann","type":"Kreis"},"federalState":{"key":"05","name":"Nordrhein-Westfalen"}},{"name":"Sonnenschein – Kneteisen","postalCode":"42781","locality":"Haan","municipality":{"key":"05158008","name":"Haan, Stadt","type":"Stadt"},"district":{"key":"05158","name":"Mettmann","type":"Kreis"},"federalState":{"key":"05","name":"Nordrhein-Westfalen"}},{"name":"Spörkelnbruch","postalCode":"42781","locality":"Haan","municipality":{"key":"05158008","name":"Haan, Stadt","type":"Stadt"},"district":{"key":"05158","name":"Mettmann","type":"Kreis"},"federalState":{"key":"05","name":"Nordrhein-Westfalen"}},{"name":"Spulerweg","postalCode":"42781","locality":"Haan","municipality":{"key":"05158008","name":"Haan, Stadt","type":"Stadt"},"district":{"key":"05158","name":"Mettmann","type":"Kreis"},"federalState":{"key":"05","name":"Nordrhein-Westfalen"}},{"name":"Starenweg","postalCode":"42781","locality":"Haan","municipality":{"key":"05158008","name":"Haan, Stadt","type":"Stadt"},"district":{"key":"05158","name":"Mettmann","type":"Kreis"},"federalState":{"key":"05","name":"Nordrhein-Westfalen"}},{"name":"Steinfelder Str.","postalCode":"42781","locality":"Haan","municipality":{"key":"05158008","name":"Haan, Stadt","type":"Stadt"},"district":{"key":"05158","name":"Mettmann","type":"Kreis"},"federalState":{"key":"05","name":"Nordrhein-Westfalen"}},{"name":"Steinkulle","postalCode":"42781","locality":"Haan","municipality":{"key":"05158008","name":"Haan, Stadt","type":"Stadt"},"district":{"key":"05158","name":"Mettmann","type":"Kreis"},"federalState":{"key":"05","name":"Nordrhein-Westfalen"}},{"name":"Steinstr.","postalCode":"42781","locality":"Haan","municipality":{"key":"05158008","name":"Haan, Stadt","type":"Stadt"},"district":{"key":"05158","name":"Mettmann","type":"Kreis"},"federalState":{"key":"05","name":"Nordrhein-Westfalen"}},{"name":"Stettiner Str.","postalCode":"42781","locality":"Haan","municipality":{"key":"05158008","name":"Haan, Stadt","type":"Stadt"},"district":{"key":"05158","name":"Mettmann","type":"Kreis"},"federalState":{"key":"05","name":"Nordrhein-Westfalen"}},{"name":"Stöcken","postalCode":"42781","locality":"Haan","municipality":{"key":"05158008","name":"Haan, Stadt","type":"Stadt"},"district":{"key":"05158","name":"Mettmann","type":"Kreis"},"federalState":{"key":"05","name":"Nordrhein-Westfalen"}},{"name":"Stresemannstr.","postalCode":"42781","locality":"Haan","municipality":{"key":"05158008","name":"Haan, Stadt","type":"Stadt"},"district":{"key":"05158","name":"Mettmann","type":"Kreis"},"federalState":{"key":"05","name":"Nordrhein-Westfalen"}},{"name":"Südring","postalCode":"42781","locality":"Haan","municipality":{"key":"05158008","name":"Haan, Stadt","type":"Stadt"},"district":{"key":"05158","name":"Mettmann","type":"Kreis"},"federalState":{"key":"05","name":"Nordrhein-Westfalen"}},{"name":"Suitbertusweg","postalCode":"42781","locality":"Haan","municipality":{"key":"05158008","name":"Haan, Stadt","type":"Stadt"},"district":{"key":"05158","name":"Mettmann","type":"Kreis"},"federalState":{"key":"05","name":"Nordrhein-Westfalen"}},{"name":"Talstr.","postalCode":"42781","locality":"Haan","municipality":{"key":"05158008","name":"Haan, Stadt","type":"Stadt"},"district":{"key":"05158","name":"Mettmann","type":"Kreis"},"federalState":{"key":"05","name":"Nordrhein-Westfalen"}},{"name":"Tannenwäldchen","postalCode":"42781","locality":"Haan","municipality":{"key":"05158008","name":"Haan, Stadt","type":"Stadt"},"district":{"key":"05158","name":"Mettmann","type":"Kreis"},"federalState":{"key":"05","name":"Nordrhein-Westfalen"}},{"name":"Tenger","postalCode":"42781","locality":"Haan","municipality":{"key":"05158008","name":"Haan, Stadt","type":"Stadt"},"district":{"key":"05158","name":"Mettmann","type":"Kreis"},"federalState":{"key":"05","name":"Nordrhein-Westfalen"}},{"name":"Thienhausener Str.","postalCode":"42781","locality":"Haan","municipality":{"key":"05158008","name":"Haan, Stadt","type":"Stadt"},"district":{"key":"05158","name":"Mettmann","type":"Kreis"},"federalState":{"key":"05","name":"Nordrhein-Westfalen"}},{"name":"Thunbuschpark","postalCode":"42781","locality":"Haan","municipality":{"key":"05158008","name":"Haan, Stadt","type":"Stadt"},"district":{"key":"05158","name":"Mettmann","type":"Kreis"},"federalState":{"key":"05","name":"Nordrhein-Westfalen"}},{"name":"Thunbuschstr.","postalCode":"42781","locality":"Haan","municipality":{"key":"05158008","name":"Haan, Stadt","type":"Stadt"},"district":{"key":"05158","name":"Mettmann","type":"Kreis"},"federalState":{"key":"05","name":"Nordrhein-Westfalen"}},{"name":"Tilsiter Str.","postalCode":"42781","locality":"Haan","municipality":{"key":"05158008","name":"Haan, Stadt","type":"Stadt"},"district":{"key":"05158","name":"Mettmann","type":"Kreis"},"federalState":{"key":"05","name":"Nordrhein-Westfalen"}},{"name":"Tückmantel","postalCode":"42781","locality":"Haan","municipality":{"key":"05158008","name":"Haan, Stadt","type":"Stadt"},"district":{"key":"05158","name":"Mettmann","type":"Kreis"},"federalState":{"key":"05","name":"Nordrhein-Westfalen"}},{"name":"Turnstr.","postalCode":"42781","locality":"Haan","municipality":{"key":"05158008","name":"Haan, Stadt","type":"Stadt"},"district":{"key":"05158","name":"Mettmann","type":"Kreis"},"federalState":{"key":"05","name":"Nordrhein-Westfalen"}},{"name":"Unten Klophausen","postalCode":"42781","locality":"Haan","municipality":{"key":"05158008","name":"Haan, Stadt","type":"Stadt"},"district":{"key":"05158","name":"Mettmann","type":"Kreis"},"federalState":{"key":"05","name":"Nordrhein-Westfalen"}},{"name":"Virchowstr.","postalCode":"42781","locality":"Haan","municipality":{"key":"05158008","name":"Haan, Stadt","type":"Stadt"},"district":{"key":"05158","name":"Mettmann","type":"Kreis"},"federalState":{"key":"05","name":"Nordrhein-Westfalen"}},{"name":"Vohwinkeler Str.","postalCode":"42781","locality":"Haan","municipality":{"key":"05158008","name":"Haan, Stadt","type":"Stadt"},"district":{"key":"05158","name":"Mettmann","type":"Kreis"},"federalState":{"key":"05","name":"Nordrhein-Westfalen"}},{"name":"Voisheider Weg","postalCode":"42781","locality":"Haan","municipality":{"key":"05158008","name":"Haan, Stadt","type":"Stadt"},"district":{"key":"05158","name":"Mettmann","type":"Kreis"},"federalState":{"key":"05","name":"Nordrhein-Westfalen"}},{"name":"Voisholz","postalCode":"42781","locality":"Haan","municipality":{"key":"05158008","name":"Haan, Stadt","type":"Stadt"},"district":{"key":"05158","name":"Mettmann","type":"Kreis"},"federalState":{"key":"05","name":"Nordrhein-Westfalen"}},{"name":"Von-Stauffenberg-Weg","postalCode":"42781","locality":"Haan","municipality":{"key":"05158008","name":"Haan, Stadt","type":"Stadt"},"district":{"key":"05158","name":"Mettmann","type":"Kreis"},"federalState":{"key":"05","name":"Nordrhein-Westfalen"}},{"name":"Walder Str.","postalCode":"42781","locality":"Haan","municipality":{"key":"05158008","name":"Haan, Stadt","type":"Stadt"},"district":{"key":"05158","name":"Mettmann","type":"Kreis"},"federalState":{"key":"05","name":"Nordrhein-Westfalen"}},{"name":"Weilenhaus","postalCode":"42781","locality":"Haan","municipality":{"key":"05158008","name":"Haan, Stadt","type":"Stadt"},"district":{"key":"05158","name":"Mettmann","type":"Kreis"},"federalState":{"key":"05","name":"Nordrhein-Westfalen"}},{"name":"Wibbelrather Weg","postalCode":"42781","locality":"Haan","municipality":{"key":"05158008","name":"Haan, Stadt","type":"Stadt"},"district":{"key":"05158","name":"Mettmann","type":"Kreis"},"federalState":{"key":"05","name":"Nordrhein-Westfalen"}},{"name":"Wiedenhofer Str.","postalCode":"42781","locality":"Haan","municipality":{"key":"05158008","name":"Haan, Stadt","type":"Stadt"},"district":{"key":"05158","name":"Mettmann","type":"Kreis"},"federalState":{"key":"05","name":"Nordrhein-Westfalen"}},{"name":"Wiesengrundstr.","postalCode":"42781","locality":"Haan","municipality":{"key":"05158008","name":"Haan, Stadt","type":"Stadt"},"district":{"key":"05158","name":"Mettmann","type":"Kreis"},"federalState":{"key":"05","name":"Nordrhein-Westfalen"}},{"name":"Wiesenstr.","postalCode":"42781","locality":"Haan","municipality":{"key":"05158008","name":"Haan, Stadt","type":"Stadt"},"district":{"key":"05158","name":"Mettmann","type":"Kreis"},"federalState":{"key":"05","name":"Nordrhein-Westfalen"}},{"name":"Wilhelm-Büren-Weg","postalCode":"42781","locality":"Haan","municipality":{"key":"05158008","name":"Haan, Stadt","type":"Stadt"},"district":{"key":"05158","name":"Mettmann","type":"Kreis"},"federalState":{"key":"05","name":"Nordrhein-Westfalen"}},{"name":"Wilhelm-Neuhaus-Weg","postalCode":"42781","locality":"Haan","municipality":{"key":"05158008","name":"Haan, Stadt","type":"Stadt"},"district":{"key":"05158","name":"Mettmann","type":"Kreis"},"federalState":{"key":"05","name":"Nordrhein-Westfalen"}},{"name":"Wilhelm-Rongius-Weg","postalCode":"42781","locality":"Haan","municipality":{"key":"05158008","name":"Haan, Stadt","type":"Stadt"},"district":{"key":"05158","name":"Mettmann","type":"Kreis"},"federalState":{"key":"05","name":"Nordrhein-Westfalen"}},{"name":"Wilhelmstr.","postalCode":"42781","locality":"Haan","municipality":{"key":"05158008","name":"Haan, Stadt","type":"Stadt"},"district":{"key":"05158","name":"Mettmann","type":"Kreis"},"federalState":{"key":"05","name":"Nordrhein-Westfalen"}},{"name":"Zaunholzbusch","postalCode":"42781","locality":"Haan","municipality":{"key":"05158008","name":"Haan, Stadt","type":"Stadt"},"district":{"key":"05158","name":"Mettmann","type":"Kreis"},"federalState":{"key":"05","name":"Nordrhein-Westfalen"}},{"name":"Zeppelinstr.","postalCode":"42781","locality":"Haan","municipality":{"key":"05158008","name":"Haan, Stadt","type":"Stadt"},"district":{"key":"05158","name":"Mettmann","type":"Kreis"},"federalState":{"key":"05","name":"Nordrhein-Westfalen"}},{"name":"Zum Diek","postalCode":"42781","locality":"Haan","municipality":{"key":"05158008","name":"Haan, Stadt","type":"Stadt"},"district":{"key":"05158","name":"Mettmann","type":"Kreis"},"federalState":{"key":"05","name":"Nordrhein-Westfalen"}},{"name":"Zur alten Brennerei","postalCode":"42781","locality":"Haan","municipality":{"key":"05158008","name":"Haan, Stadt","type":"Stadt"},"district":{"key":"05158","name":"Mettmann","type":"Kreis"},"federalState":{"key":"05","name":"Nordrhein-Westfalen"}},{"name":"Zur alten Gesenkschmiede","postalCode":"42781","locality":"Haan","municipality":{"key":"05158008","name":"Haan, Stadt","type":"Stadt"},"district":{"key":"05158","name":"Mettmann","type":"Kreis"},"federalState":{"key":"05","name":"Nordrhein-Westfalen"}},{"name":"Zur Pumpstation","postalCode":"42781","locality":"Haan","municipality":{"key":"05158008","name":"Haan, Stadt","type":"Stadt"},"district":{"key":"05158","name":"Mettmann","type":"Kreis"},"federalState":{"key":"05","name":"Nordrhein-Westfalen"}},{"name":"Zwengenberger Str.","postalCode":"42781","locality":"Haan","municipality":{"key":"05158008","name":"Haan, Stadt","type":"Stadt"},"district":{"key":"05158","name":"Mettmann","type":"Kreis"},"federalState":{"key":"05","name":"Nordrhein-Westfalen"}},{"name":"Zwirnerweg","postalCode":"42781","locality":"Haan","municipality":{"key":"05158008","name":"Haan, Stadt","type":"Stadt"},"district":{"key":"05158","name":"Mettmann","type":"Kreis"},"federalState":{"key":"05","name":"Nordrhein-Westfalen"}},{"name":"Ömjang","postalCode":"40822","locality":"Mettmann","municipality":{"key":"05158024","name":"Mettmann, Stadt","type":"Stadt"},"district":{"key":"05158","name":"Mettmann","type":"Kreis"},"federalState":{"key":"05","name":"Nordrhein-Westfalen"}},{"name":"Überfelder Str.","postalCode":"42781","locality":"Haan","municipality":{"key":"05158008","name":"Haan, Stadt","type":"Stadt"},"district":{"key":"05158","name":"Mettmann","type":"Kreis"},"federalState":{"key":"05","name":"Nordrhein-Westfalen"}},]