[{"name":"Aakweg","postalCode":"27639","locality":"Wurster Nordseeküste","municipality":{"key":"03352061","name":"Wurster Nordseeküste","type":"Kreisangehörige_Gemeinde"},"district":{"key":"03352","name":"Cuxhaven","type":"Landkreis"},"federalState":{"key":"03","name":"Niedersachsen"}},{"name":"Ablaßer Str.","postalCode":"27639","locality":"Wurster Nordseeküste","municipality":{"key":"03352061","name":"Wurster Nordseeküste","type":"Kreisangehörige_Gemeinde"},"district":{"key":"03352","name":"Cuxhaven","type":"Landkreis"},"federalState":{"key":"03","name":"Niedersachsen"}},{"name":"Achter de Hülken","postalCode":"27639","locality":"Wurster Nordseeküste","municipality":{"key":"03352061","name":"Wurster Nordseeküste","type":"Kreisangehörige_Gemeinde"},"district":{"key":"03352","name":"Cuxhaven","type":"Landkreis"},"federalState":{"key":"03","name":"Niedersachsen"}},{"name":"Achterkamp","postalCode":"27639","locality":"Wurster Nordseeküste","municipality":{"key":"03352061","name":"Wurster Nordseeküste","type":"Kreisangehörige_Gemeinde"},"district":{"key":"03352","name":"Cuxhaven","type":"Landkreis"},"federalState":{"key":"03","name":"Niedersachsen"}},{"name":"Achtern Büttel","postalCode":"27639","locality":"Wurster Nordseeküste","municipality":{"key":"03352061","name":"Wurster Nordseeküste","type":"Kreisangehörige_Gemeinde"},"district":{"key":"03352","name":"Cuxhaven","type":"Landkreis"},"federalState":{"key":"03","name":"Niedersachsen"}},{"name":"Achtern Diek","postalCode":"27639","locality":"Wurster Nordseeküste","municipality":{"key":"03352061","name":"Wurster Nordseeküste","type":"Kreisangehörige_Gemeinde"},"district":{"key":"03352","name":"Cuxhaven","type":"Landkreis"},"federalState":{"key":"03","name":"Niedersachsen"}},{"name":"Achterum","postalCode":"27639","locality":"Wurster Nordseeküste","municipality":{"key":"03352061","name":"Wurster Nordseeküste","type":"Kreisangehörige_Gemeinde"},"district":{"key":"03352","name":"Cuxhaven","type":"Landkreis"},"federalState":{"key":"03","name":"Niedersachsen"}},{"name":"Ahlinger Weg","postalCode":"27639","locality":"Wurster Nordseeküste","municipality":{"key":"03352061","name":"Wurster Nordseeküste","type":"Kreisangehörige_Gemeinde"},"district":{"key":"03352","name":"Cuxhaven","type":"Landkreis"},"federalState":{"key":"03","name":"Niedersachsen"}},{"name":"Ahornweg","postalCode":"27639","locality":"Wurster Nordseeküste","municipality":{"key":"03352061","name":"Wurster Nordseeküste","type":"Kreisangehörige_Gemeinde"},"district":{"key":"03352","name":"Cuxhaven","type":"Landkreis"},"federalState":{"key":"03","name":"Niedersachsen"}},{"name":"Allersstr.","postalCode":"27639","locality":"Wurster Nordseeküste","municipality":{"key":"03352061","name":"Wurster Nordseeküste","type":"Kreisangehörige_Gemeinde"},"district":{"key":"03352","name":"Cuxhaven","type":"Landkreis"},"federalState":{"key":"03","name":"Niedersachsen"}},{"name":"Alsumer Feld","postalCode":"27639","locality":"Wurster Nordseeküste","municipality":{"key":"03352061","name":"Wurster Nordseeküste","type":"Kreisangehörige_Gemeinde"},"district":{"key":"03352","name":"Cuxhaven","type":"Landkreis"},"federalState":{"key":"03","name":"Niedersachsen"}},{"name":"Alsumer Hellme","postalCode":"27639","locality":"Wurster Nordseeküste","municipality":{"key":"03352061","name":"Wurster Nordseeküste","type":"Kreisangehörige_Gemeinde"},"district":{"key":"03352","name":"Cuxhaven","type":"Landkreis"},"federalState":{"key":"03","name":"Niedersachsen"}},{"name":"Alsumer Specken","postalCode":"27639","locality":"Wurster Nordseeküste","municipality":{"key":"03352061","name":"Wurster Nordseeküste","type":"Kreisangehörige_Gemeinde"},"district":{"key":"03352","name":"Cuxhaven","type":"Landkreis"},"federalState":{"key":"03","name":"Niedersachsen"}},{"name":"Alsumer Str.","postalCode":"27639","locality":"Wurster Nordseeküste","municipality":{"key":"03352061","name":"Wurster Nordseeküste","type":"Kreisangehörige_Gemeinde"},"district":{"key":"03352","name":"Cuxhaven","type":"Landkreis"},"federalState":{"key":"03","name":"Niedersachsen"}},{"name":"Alsumer Weg","postalCode":"27639","locality":"Wurster Nordseeküste","municipality":{"key":"03352061","name":"Wurster Nordseeküste","type":"Kreisangehörige_Gemeinde"},"district":{"key":"03352","name":"Cuxhaven","type":"Landkreis"},"federalState":{"key":"03","name":"Niedersachsen"}},{"name":"Alte Bundesstr.","postalCode":"27639","locality":"Wurster Nordseeküste","municipality":{"key":"03352061","name":"Wurster Nordseeküste","type":"Kreisangehörige_Gemeinde"},"district":{"key":"03352","name":"Cuxhaven","type":"Landkreis"},"federalState":{"key":"03","name":"Niedersachsen"}},{"name":"Alte Kreisstr.","postalCode":"27639","locality":"Wurster Nordseeküste","municipality":{"key":"03352061","name":"Wurster Nordseeküste","type":"Kreisangehörige_Gemeinde"},"district":{"key":"03352","name":"Cuxhaven","type":"Landkreis"},"federalState":{"key":"03","name":"Niedersachsen"}},{"name":"Alten Deich","postalCode":"27639","locality":"Wurster Nordseeküste","municipality":{"key":"03352061","name":"Wurster Nordseeküste","type":"Kreisangehörige_Gemeinde"},"district":{"key":"03352","name":"Cuxhaven","type":"Landkreis"},"federalState":{"key":"03","name":"Niedersachsen"}},{"name":"Alter Deich","postalCode":"27639","locality":"Wurster Nordseeküste","municipality":{"key":"03352061","name":"Wurster Nordseeküste","type":"Kreisangehörige_Gemeinde"},"district":{"key":"03352","name":"Cuxhaven","type":"Landkreis"},"federalState":{"key":"03","name":"Niedersachsen"}},{"name":"Alter Kirchweg","postalCode":"27639","locality":"Wurster Nordseeküste","municipality":{"key":"03352061","name":"Wurster Nordseeküste","type":"Kreisangehörige_Gemeinde"},"district":{"key":"03352","name":"Cuxhaven","type":"Landkreis"},"federalState":{"key":"03","name":"Niedersachsen"}},{"name":"Alter Postweg","postalCode":"27639","locality":"Wurster Nordseeküste","municipality":{"key":"03352061","name":"Wurster Nordseeküste","type":"Kreisangehörige_Gemeinde"},"district":{"key":"03352","name":"Cuxhaven","type":"Landkreis"},"federalState":{"key":"03","name":"Niedersachsen"}},{"name":"Alter Ritzebütteler Weg","postalCode":"27639","locality":"Wurster Nordseeküste","municipality":{"key":"03352061","name":"Wurster Nordseeküste","type":"Kreisangehörige_Gemeinde"},"district":{"key":"03352","name":"Cuxhaven","type":"Landkreis"},"federalState":{"key":"03","name":"Niedersachsen"}},{"name":"Am Amtsgericht","postalCode":"27639","locality":"Wurster Nordseeküste","municipality":{"key":"03352061","name":"Wurster Nordseeküste","type":"Kreisangehörige_Gemeinde"},"district":{"key":"03352","name":"Cuxhaven","type":"Landkreis"},"federalState":{"key":"03","name":"Niedersachsen"}},{"name":"Am Bahnhof","postalCode":"27639","locality":"Wurster Nordseeküste","municipality":{"key":"03352061","name":"Wurster Nordseeküste","type":"Kreisangehörige_Gemeinde"},"district":{"key":"03352","name":"Cuxhaven","type":"Landkreis"},"federalState":{"key":"03","name":"Niedersachsen"}},{"name":"Am Büttel","postalCode":"27639","locality":"Wurster Nordseeküste","municipality":{"key":"03352061","name":"Wurster Nordseeküste","type":"Kreisangehörige_Gemeinde"},"district":{"key":"03352","name":"Cuxhaven","type":"Landkreis"},"federalState":{"key":"03","name":"Niedersachsen"}},{"name":"Am Dorfe","postalCode":"27639","locality":"Wurster Nordseeküste","municipality":{"key":"03352061","name":"Wurster Nordseeküste","type":"Kreisangehörige_Gemeinde"},"district":{"key":"03352","name":"Cuxhaven","type":"Landkreis"},"federalState":{"key":"03","name":"Niedersachsen"}},{"name":"Am Dornbusch","postalCode":"27639","locality":"Wurster Nordseeküste","municipality":{"key":"03352061","name":"Wurster Nordseeküste","type":"Kreisangehörige_Gemeinde"},"district":{"key":"03352","name":"Cuxhaven","type":"Landkreis"},"federalState":{"key":"03","name":"Niedersachsen"}},{"name":"Am Freibad","postalCode":"27639","locality":"Wurster Nordseeküste","municipality":{"key":"03352061","name":"Wurster Nordseeküste","type":"Kreisangehörige_Gemeinde"},"district":{"key":"03352","name":"Cuxhaven","type":"Landkreis"},"federalState":{"key":"03","name":"Niedersachsen"}},{"name":"Am Grauwall","postalCode":"27639","locality":"Wurster Nordseeküste","municipality":{"key":"03352061","name":"Wurster Nordseeküste","type":"Kreisangehörige_Gemeinde"},"district":{"key":"03352","name":"Cuxhaven","type":"Landkreis"},"federalState":{"key":"03","name":"Niedersachsen"}},{"name":"Am Grünen Feld","postalCode":"27639","locality":"Wurster Nordseeküste","municipality":{"key":"03352061","name":"Wurster Nordseeküste","type":"Kreisangehörige_Gemeinde"},"district":{"key":"03352","name":"Cuxhaven","type":"Landkreis"},"federalState":{"key":"03","name":"Niedersachsen"}},{"name":"Am Helschenfleht","postalCode":"27639","locality":"Wurster Nordseeküste","municipality":{"key":"03352061","name":"Wurster Nordseeküste","type":"Kreisangehörige_Gemeinde"},"district":{"key":"03352","name":"Cuxhaven","type":"Landkreis"},"federalState":{"key":"03","name":"Niedersachsen"}},{"name":"Am Kutterhafen","postalCode":"27639","locality":"Wurster Nordseeküste","municipality":{"key":"03352061","name":"Wurster Nordseeküste","type":"Kreisangehörige_Gemeinde"},"district":{"key":"03352","name":"Cuxhaven","type":"Landkreis"},"federalState":{"key":"03","name":"Niedersachsen"}},{"name":"Am Lilienberg","postalCode":"27639","locality":"Wurster Nordseeküste","municipality":{"key":"03352061","name":"Wurster Nordseeküste","type":"Kreisangehörige_Gemeinde"},"district":{"key":"03352","name":"Cuxhaven","type":"Landkreis"},"federalState":{"key":"03","name":"Niedersachsen"}},{"name":"Am Mahnhamm","postalCode":"27639","locality":"Wurster Nordseeküste","municipality":{"key":"03352061","name":"Wurster Nordseeküste","type":"Kreisangehörige_Gemeinde"},"district":{"key":"03352","name":"Cuxhaven","type":"Landkreis"},"federalState":{"key":"03","name":"Niedersachsen"}},{"name":"Am Markt","postalCode":"27639","locality":"Wurster Nordseeküste","municipality":{"key":"03352061","name":"Wurster Nordseeküste","type":"Kreisangehörige_Gemeinde"},"district":{"key":"03352","name":"Cuxhaven","type":"Landkreis"},"federalState":{"key":"03","name":"Niedersachsen"}},{"name":"Am Marktplatz","postalCode":"27639","locality":"Wurster Nordseeküste","municipality":{"key":"03352061","name":"Wurster Nordseeküste","type":"Kreisangehörige_Gemeinde"},"district":{"key":"03352","name":"Cuxhaven","type":"Landkreis"},"federalState":{"key":"03","name":"Niedersachsen"}},{"name":"Am Meer","postalCode":"27639","locality":"Wurster Nordseeküste","municipality":{"key":"03352061","name":"Wurster Nordseeküste","type":"Kreisangehörige_Gemeinde"},"district":{"key":"03352","name":"Cuxhaven","type":"Landkreis"},"federalState":{"key":"03","name":"Niedersachsen"}},{"name":"Am Mühlenberg","postalCode":"27639","locality":"Wurster Nordseeküste","municipality":{"key":"03352061","name":"Wurster Nordseeküste","type":"Kreisangehörige_Gemeinde"},"district":{"key":"03352","name":"Cuxhaven","type":"Landkreis"},"federalState":{"key":"03","name":"Niedersachsen"}},{"name":"Am Neuen Deich","postalCode":"27639","locality":"Wurster Nordseeküste","municipality":{"key":"03352061","name":"Wurster Nordseeküste","type":"Kreisangehörige_Gemeinde"},"district":{"key":"03352","name":"Cuxhaven","type":"Landkreis"},"federalState":{"key":"03","name":"Niedersachsen"}},{"name":"Am Ostertor","postalCode":"27639","locality":"Wurster Nordseeküste","municipality":{"key":"03352061","name":"Wurster Nordseeküste","type":"Kreisangehörige_Gemeinde"},"district":{"key":"03352","name":"Cuxhaven","type":"Landkreis"},"federalState":{"key":"03","name":"Niedersachsen"}},{"name":"Am Ring","postalCode":"27639","locality":"Wurster Nordseeküste","municipality":{"key":"03352061","name":"Wurster Nordseeküste","type":"Kreisangehörige_Gemeinde"},"district":{"key":"03352","name":"Cuxhaven","type":"Landkreis"},"federalState":{"key":"03","name":"Niedersachsen"}},{"name":"Am Schwarzen Berg","postalCode":"27639","locality":"Wurster Nordseeküste","municipality":{"key":"03352061","name":"Wurster Nordseeküste","type":"Kreisangehörige_Gemeinde"},"district":{"key":"03352","name":"Cuxhaven","type":"Landkreis"},"federalState":{"key":"03","name":"Niedersachsen"}},{"name":"Am Seedeich","postalCode":"27639","locality":"Wurster Nordseeküste","municipality":{"key":"03352061","name":"Wurster Nordseeküste","type":"Kreisangehörige_Gemeinde"},"district":{"key":"03352","name":"Cuxhaven","type":"Landkreis"},"federalState":{"key":"03","name":"Niedersachsen"}},{"name":"Am Seepark","postalCode":"27639","locality":"Wurster Nordseeküste","municipality":{"key":"03352061","name":"Wurster Nordseeküste","type":"Kreisangehörige_Gemeinde"},"district":{"key":"03352","name":"Cuxhaven","type":"Landkreis"},"federalState":{"key":"03","name":"Niedersachsen"}},{"name":"Amselweg","postalCode":"27639","locality":"Wurster Nordseeküste","municipality":{"key":"03352061","name":"Wurster Nordseeküste","type":"Kreisangehörige_Gemeinde"},"district":{"key":"03352","name":"Cuxhaven","type":"Landkreis"},"federalState":{"key":"03","name":"Niedersachsen"}},{"name":"Am Sperberweg","postalCode":"27639","locality":"Wurster Nordseeküste","municipality":{"key":"03352061","name":"Wurster Nordseeküste","type":"Kreisangehörige_Gemeinde"},"district":{"key":"03352","name":"Cuxhaven","type":"Landkreis"},"federalState":{"key":"03","name":"Niedersachsen"}},{"name":"Am Sportplatz","postalCode":"27639","locality":"Wurster Nordseeküste","municipality":{"key":"03352061","name":"Wurster Nordseeküste","type":"Kreisangehörige_Gemeinde"},"district":{"key":"03352","name":"Cuxhaven","type":"Landkreis"},"federalState":{"key":"03","name":"Niedersachsen"}},{"name":"Amtsgarten","postalCode":"27639","locality":"Wurster Nordseeküste","municipality":{"key":"03352061","name":"Wurster Nordseeküste","type":"Kreisangehörige_Gemeinde"},"district":{"key":"03352","name":"Cuxhaven","type":"Landkreis"},"federalState":{"key":"03","name":"Niedersachsen"}},{"name":"Am Wremer Bahnhof","postalCode":"27639","locality":"Wurster Nordseeküste","municipality":{"key":"03352061","name":"Wurster Nordseeküste","type":"Kreisangehörige_Gemeinde"},"district":{"key":"03352","name":"Cuxhaven","type":"Landkreis"},"federalState":{"key":"03","name":"Niedersachsen"}},{"name":"Am Wremer Tief","postalCode":"27639","locality":"Wurster Nordseeküste","municipality":{"key":"03352061","name":"Wurster Nordseeküste","type":"Kreisangehörige_Gemeinde"},"district":{"key":"03352","name":"Cuxhaven","type":"Landkreis"},"federalState":{"key":"03","name":"Niedersachsen"}},{"name":"Bäckerpfad","postalCode":"27639","locality":"Wurster Nordseeküste","municipality":{"key":"03352061","name":"Wurster Nordseeküste","type":"Kreisangehörige_Gemeinde"},"district":{"key":"03352","name":"Cuxhaven","type":"Landkreis"},"federalState":{"key":"03","name":"Niedersachsen"}},{"name":"Bahnhofstr.","postalCode":"27639","locality":"Wurster Nordseeküste","municipality":{"key":"03352061","name":"Wurster Nordseeküste","type":"Kreisangehörige_Gemeinde"},"district":{"key":"03352","name":"Cuxhaven","type":"Landkreis"},"federalState":{"key":"03","name":"Niedersachsen"}},{"name":"Barghammsweken","postalCode":"27639","locality":"Wurster Nordseeküste","municipality":{"key":"03352061","name":"Wurster Nordseeküste","type":"Kreisangehörige_Gemeinde"},"district":{"key":"03352","name":"Cuxhaven","type":"Landkreis"},"federalState":{"key":"03","name":"Niedersachsen"}},{"name":"Barlinghausener Str.","postalCode":"27639","locality":"Wurster Nordseeküste","municipality":{"key":"03352061","name":"Wurster Nordseeküste","type":"Kreisangehörige_Gemeinde"},"district":{"key":"03352","name":"Cuxhaven","type":"Landkreis"},"federalState":{"key":"03","name":"Niedersachsen"}},{"name":"Bauernkamp","postalCode":"27639","locality":"Wurster Nordseeküste","municipality":{"key":"03352061","name":"Wurster Nordseeküste","type":"Kreisangehörige_Gemeinde"},"district":{"key":"03352","name":"Cuxhaven","type":"Landkreis"},"federalState":{"key":"03","name":"Niedersachsen"}},{"name":"Behlersstr.","postalCode":"27639","locality":"Wurster Nordseeküste","municipality":{"key":"03352061","name":"Wurster Nordseeküste","type":"Kreisangehörige_Gemeinde"},"district":{"key":"03352","name":"Cuxhaven","type":"Landkreis"},"federalState":{"key":"03","name":"Niedersachsen"}},{"name":"Bergstr.","postalCode":"27639","locality":"Wurster Nordseeküste","municipality":{"key":"03352061","name":"Wurster Nordseeküste","type":"Kreisangehörige_Gemeinde"},"district":{"key":"03352","name":"Cuxhaven","type":"Landkreis"},"federalState":{"key":"03","name":"Niedersachsen"}},{"name":"Berliner Str.","postalCode":"27639","locality":"Wurster Nordseeküste","municipality":{"key":"03352061","name":"Wurster Nordseeküste","type":"Kreisangehörige_Gemeinde"},"district":{"key":"03352","name":"Cuxhaven","type":"Landkreis"},"federalState":{"key":"03","name":"Niedersachsen"}},{"name":"Birkenweg","postalCode":"27639","locality":"Wurster Nordseeküste","municipality":{"key":"03352061","name":"Wurster Nordseeküste","type":"Kreisangehörige_Gemeinde"},"district":{"key":"03352","name":"Cuxhaven","type":"Landkreis"},"federalState":{"key":"03","name":"Niedersachsen"}},{"name":"Blickhausen","postalCode":"27639","locality":"Wurster Nordseeküste","municipality":{"key":"03352061","name":"Wurster Nordseeküste","type":"Kreisangehörige_Gemeinde"},"district":{"key":"03352","name":"Cuxhaven","type":"Landkreis"},"federalState":{"key":"03","name":"Niedersachsen"}},{"name":"Blickhausener Landstr.","postalCode":"27639","locality":"Wurster Nordseeküste","municipality":{"key":"03352061","name":"Wurster Nordseeküste","type":"Kreisangehörige_Gemeinde"},"district":{"key":"03352","name":"Cuxhaven","type":"Landkreis"},"federalState":{"key":"03","name":"Niedersachsen"}},{"name":"Bohlsweg","postalCode":"27639","locality":"Wurster Nordseeküste","municipality":{"key":"03352061","name":"Wurster Nordseeküste","type":"Kreisangehörige_Gemeinde"},"district":{"key":"03352","name":"Cuxhaven","type":"Landkreis"},"federalState":{"key":"03","name":"Niedersachsen"}},{"name":"Borriesstr.","postalCode":"27639","locality":"Wurster Nordseeküste","municipality":{"key":"03352061","name":"Wurster Nordseeküste","type":"Kreisangehörige_Gemeinde"},"district":{"key":"03352","name":"Cuxhaven","type":"Landkreis"},"federalState":{"key":"03","name":"Niedersachsen"}},{"name":"Brandentenweg","postalCode":"27639","locality":"Wurster Nordseeküste","municipality":{"key":"03352061","name":"Wurster Nordseeküste","type":"Kreisangehörige_Gemeinde"},"district":{"key":"03352","name":"Cuxhaven","type":"Landkreis"},"federalState":{"key":"03","name":"Niedersachsen"}},{"name":"Breetpad","postalCode":"27639","locality":"Wurster Nordseeküste","municipality":{"key":"03352061","name":"Wurster Nordseeküste","type":"Kreisangehörige_Gemeinde"},"district":{"key":"03352","name":"Cuxhaven","type":"Landkreis"},"federalState":{"key":"03","name":"Niedersachsen"}},{"name":"Breslauer Str.","postalCode":"27639","locality":"Wurster Nordseeküste","municipality":{"key":"03352061","name":"Wurster Nordseeküste","type":"Kreisangehörige_Gemeinde"},"district":{"key":"03352","name":"Cuxhaven","type":"Landkreis"},"federalState":{"key":"03","name":"Niedersachsen"}},{"name":"Brunnenweg","postalCode":"27639","locality":"Wurster Nordseeküste","municipality":{"key":"03352061","name":"Wurster Nordseeküste","type":"Kreisangehörige_Gemeinde"},"district":{"key":"03352","name":"Cuxhaven","type":"Landkreis"},"federalState":{"key":"03","name":"Niedersachsen"}},{"name":"Buchenweg","postalCode":"27639","locality":"Wurster Nordseeküste","municipality":{"key":"03352061","name":"Wurster Nordseeküste","type":"Kreisangehörige_Gemeinde"},"district":{"key":"03352","name":"Cuxhaven","type":"Landkreis"},"federalState":{"key":"03","name":"Niedersachsen"}},{"name":"Bundesstr.","postalCode":"27639","locality":"Wurster Nordseeküste","municipality":{"key":"03352061","name":"Wurster Nordseeküste","type":"Kreisangehörige_Gemeinde"},"district":{"key":"03352","name":"Cuxhaven","type":"Landkreis"},"federalState":{"key":"03","name":"Niedersachsen"}},{"name":"Bürgermeister-Hogrefe-Str.","postalCode":"27639","locality":"Wurster Nordseeküste","municipality":{"key":"03352061","name":"Wurster Nordseeküste","type":"Kreisangehörige_Gemeinde"},"district":{"key":"03352","name":"Cuxhaven","type":"Landkreis"},"federalState":{"key":"03","name":"Niedersachsen"}},{"name":"Bürgermeister-Hülsemann-Weg","postalCode":"27639","locality":"Wurster Nordseeküste","municipality":{"key":"03352061","name":"Wurster Nordseeküste","type":"Kreisangehörige_Gemeinde"},"district":{"key":"03352","name":"Cuxhaven","type":"Landkreis"},"federalState":{"key":"03","name":"Niedersachsen"}},{"name":"Bürgermeister-Meyer-Weg","postalCode":"27639","locality":"Wurster Nordseeküste","municipality":{"key":"03352061","name":"Wurster Nordseeküste","type":"Kreisangehörige_Gemeinde"},"district":{"key":"03352","name":"Cuxhaven","type":"Landkreis"},"federalState":{"key":"03","name":"Niedersachsen"}},{"name":"Bürgermeister-Wiebalck-Weg","postalCode":"27639","locality":"Wurster Nordseeküste","municipality":{"key":"03352061","name":"Wurster Nordseeküste","type":"Kreisangehörige_Gemeinde"},"district":{"key":"03352","name":"Cuxhaven","type":"Landkreis"},"federalState":{"key":"03","name":"Niedersachsen"}},{"name":"Burweken","postalCode":"27639","locality":"Wurster Nordseeküste","municipality":{"key":"03352061","name":"Wurster Nordseeküste","type":"Kreisangehörige_Gemeinde"},"district":{"key":"03352","name":"Cuxhaven","type":"Landkreis"},"federalState":{"key":"03","name":"Niedersachsen"}},{"name":"Bussardweg","postalCode":"27639","locality":"Wurster Nordseeküste","municipality":{"key":"03352061","name":"Wurster Nordseeküste","type":"Kreisangehörige_Gemeinde"},"district":{"key":"03352","name":"Cuxhaven","type":"Landkreis"},"federalState":{"key":"03","name":"Niedersachsen"}},{"name":"Bütteler Weg","postalCode":"27639","locality":"Wurster Nordseeküste","municipality":{"key":"03352061","name":"Wurster Nordseeküste","type":"Kreisangehörige_Gemeinde"},"district":{"key":"03352","name":"Cuxhaven","type":"Landkreis"},"federalState":{"key":"03","name":"Niedersachsen"}},{"name":"Cappeler Altendeich","postalCode":"27639","locality":"Wurster Nordseeküste","municipality":{"key":"03352061","name":"Wurster Nordseeküste","type":"Kreisangehörige_Gemeinde"},"district":{"key":"03352","name":"Cuxhaven","type":"Landkreis"},"federalState":{"key":"03","name":"Niedersachsen"}},{"name":"Cappeler Bahnhofstr.","postalCode":"27639","locality":"Wurster Nordseeküste","municipality":{"key":"03352061","name":"Wurster Nordseeküste","type":"Kreisangehörige_Gemeinde"},"district":{"key":"03352","name":"Cuxhaven","type":"Landkreis"},"federalState":{"key":"03","name":"Niedersachsen"}},{"name":"Cappeler Landstr.","postalCode":"27639","locality":"Wurster Nordseeküste","municipality":{"key":"03352061","name":"Wurster Nordseeküste","type":"Kreisangehörige_Gemeinde"},"district":{"key":"03352","name":"Cuxhaven","type":"Landkreis"},"federalState":{"key":"03","name":"Niedersachsen"}},{"name":"Cappeler Mühlenstr.","postalCode":"27639","locality":"Wurster Nordseeküste","municipality":{"key":"03352061","name":"Wurster Nordseeküste","type":"Kreisangehörige_Gemeinde"},"district":{"key":"03352","name":"Cuxhaven","type":"Landkreis"},"federalState":{"key":"03","name":"Niedersachsen"}},{"name":"Cappeler Niederstrich","postalCode":"27639","locality":"Wurster Nordseeküste","municipality":{"key":"03352061","name":"Wurster Nordseeküste","type":"Kreisangehörige_Gemeinde"},"district":{"key":"03352","name":"Cuxhaven","type":"Landkreis"},"federalState":{"key":"03","name":"Niedersachsen"}},{"name":"Cappeler Oberstrich","postalCode":"27639","locality":"Wurster Nordseeküste","municipality":{"key":"03352061","name":"Wurster Nordseeküste","type":"Kreisangehörige_Gemeinde"},"district":{"key":"03352","name":"Cuxhaven","type":"Landkreis"},"federalState":{"key":"03","name":"Niedersachsen"}},{"name":"Cappeler Weg","postalCode":"27639","locality":"Wurster Nordseeküste","municipality":{"key":"03352061","name":"Wurster Nordseeküste","type":"Kreisangehörige_Gemeinde"},"district":{"key":"03352","name":"Cuxhaven","type":"Landkreis"},"federalState":{"key":"03","name":"Niedersachsen"}},{"name":"Cappel-Neufelder Sieltrift","postalCode":"27639","locality":"Wurster Nordseeküste","municipality":{"key":"03352061","name":"Wurster Nordseeküste","type":"Kreisangehörige_Gemeinde"},"district":{"key":"03352","name":"Cuxhaven","type":"Landkreis"},"federalState":{"key":"03","name":"Niedersachsen"}},{"name":"Claudius-Dornier-Weg","postalCode":"27639","locality":"Wurster Nordseeküste","municipality":{"key":"03352061","name":"Wurster Nordseeküste","type":"Kreisangehörige_Gemeinde"},"district":{"key":"03352","name":"Cuxhaven","type":"Landkreis"},"federalState":{"key":"03","name":"Niedersachsen"}},{"name":"Dahlienweg","postalCode":"27639","locality":"Wurster Nordseeküste","municipality":{"key":"03352061","name":"Wurster Nordseeküste","type":"Kreisangehörige_Gemeinde"},"district":{"key":"03352","name":"Cuxhaven","type":"Landkreis"},"federalState":{"key":"03","name":"Niedersachsen"}},{"name":"Danziger Str.","postalCode":"27639","locality":"Wurster Nordseeküste","municipality":{"key":"03352061","name":"Wurster Nordseeküste","type":"Kreisangehörige_Gemeinde"},"district":{"key":"03352","name":"Cuxhaven","type":"Landkreis"},"federalState":{"key":"03","name":"Niedersachsen"}},{"name":"Danziger Weg","postalCode":"27639","locality":"Wurster Nordseeküste","municipality":{"key":"03352061","name":"Wurster Nordseeküste","type":"Kreisangehörige_Gemeinde"},"district":{"key":"03352","name":"Cuxhaven","type":"Landkreis"},"federalState":{"key":"03","name":"Niedersachsen"}},{"name":"Deichgraf-Johanns-Str.","postalCode":"27639","locality":"Wurster Nordseeküste","municipality":{"key":"03352061","name":"Wurster Nordseeküste","type":"Kreisangehörige_Gemeinde"},"district":{"key":"03352","name":"Cuxhaven","type":"Landkreis"},"federalState":{"key":"03","name":"Niedersachsen"}},{"name":"Deichstr.","postalCode":"27639","locality":"Wurster Nordseeküste","municipality":{"key":"03352061","name":"Wurster Nordseeküste","type":"Kreisangehörige_Gemeinde"},"district":{"key":"03352","name":"Cuxhaven","type":"Landkreis"},"federalState":{"key":"03","name":"Niedersachsen"}},{"name":"Deichverteidigungsweg","postalCode":"27639","locality":"Wurster Nordseeküste","municipality":{"key":"03352061","name":"Wurster Nordseeküste","type":"Kreisangehörige_Gemeinde"},"district":{"key":"03352","name":"Cuxhaven","type":"Landkreis"},"federalState":{"key":"03","name":"Niedersachsen"}},{"name":"Domäne Hünkemann","postalCode":"27639","locality":"Wurster Nordseeküste","municipality":{"key":"03352061","name":"Wurster Nordseeküste","type":"Kreisangehörige_Gemeinde"},"district":{"key":"03352","name":"Cuxhaven","type":"Landkreis"},"federalState":{"key":"03","name":"Niedersachsen"}},{"name":"Dorfstr.","postalCode":"27639","locality":"Wurster Nordseeküste","municipality":{"key":"03352061","name":"Wurster Nordseeküste","type":"Kreisangehörige_Gemeinde"},"district":{"key":"03352","name":"Cuxhaven","type":"Landkreis"},"federalState":{"key":"03","name":"Niedersachsen"}},{"name":"Dorftrift","postalCode":"27639","locality":"Wurster Nordseeküste","municipality":{"key":"03352061","name":"Wurster Nordseeküste","type":"Kreisangehörige_Gemeinde"},"district":{"key":"03352","name":"Cuxhaven","type":"Landkreis"},"federalState":{"key":"03","name":"Niedersachsen"}},{"name":"Dorumer Bahnhofstr.","postalCode":"27639","locality":"Wurster Nordseeküste","municipality":{"key":"03352061","name":"Wurster Nordseeküste","type":"Kreisangehörige_Gemeinde"},"district":{"key":"03352","name":"Cuxhaven","type":"Landkreis"},"federalState":{"key":"03","name":"Niedersachsen"}},{"name":"Dorumer Helmer","postalCode":"27639","locality":"Wurster Nordseeküste","municipality":{"key":"03352061","name":"Wurster Nordseeküste","type":"Kreisangehörige_Gemeinde"},"district":{"key":"03352","name":"Cuxhaven","type":"Landkreis"},"federalState":{"key":"03","name":"Niedersachsen"}},{"name":"Dorumer Marren","postalCode":"27639","locality":"Wurster Nordseeküste","municipality":{"key":"03352061","name":"Wurster Nordseeküste","type":"Kreisangehörige_Gemeinde"},"district":{"key":"03352","name":"Cuxhaven","type":"Landkreis"},"federalState":{"key":"03","name":"Niedersachsen"}},{"name":"Dorumer Strichweg","postalCode":"27639","locality":"Wurster Nordseeküste","municipality":{"key":"03352061","name":"Wurster Nordseeküste","type":"Kreisangehörige_Gemeinde"},"district":{"key":"03352","name":"Cuxhaven","type":"Landkreis"},"federalState":{"key":"03","name":"Niedersachsen"}},{"name":"Dorumer Weg","postalCode":"27639","locality":"Wurster Nordseeküste","municipality":{"key":"03352061","name":"Wurster Nordseeküste","type":"Kreisangehörige_Gemeinde"},"district":{"key":"03352","name":"Cuxhaven","type":"Landkreis"},"federalState":{"key":"03","name":"Niedersachsen"}},{"name":"Drahn","postalCode":"27639","locality":"Wurster Nordseeküste","municipality":{"key":"03352061","name":"Wurster Nordseeküste","type":"Kreisangehörige_Gemeinde"},"district":{"key":"03352","name":"Cuxhaven","type":"Landkreis"},"federalState":{"key":"03","name":"Niedersachsen"}},{"name":"Dreibergen","postalCode":"27639","locality":"Wurster Nordseeküste","municipality":{"key":"03352061","name":"Wurster Nordseeküste","type":"Kreisangehörige_Gemeinde"},"district":{"key":"03352","name":"Cuxhaven","type":"Landkreis"},"federalState":{"key":"03","name":"Niedersachsen"}},{"name":"Dresdener Str.","postalCode":"27639","locality":"Wurster Nordseeküste","municipality":{"key":"03352061","name":"Wurster Nordseeküste","type":"Kreisangehörige_Gemeinde"},"district":{"key":"03352","name":"Cuxhaven","type":"Landkreis"},"federalState":{"key":"03","name":"Niedersachsen"}},{"name":"Drosselweg","postalCode":"27639","locality":"Wurster Nordseeküste","municipality":{"key":"03352061","name":"Wurster Nordseeküste","type":"Kreisangehörige_Gemeinde"},"district":{"key":"03352","name":"Cuxhaven","type":"Landkreis"},"federalState":{"key":"03","name":"Niedersachsen"}},{"name":"Duddinger Weg","postalCode":"27639","locality":"Wurster Nordseeküste","municipality":{"key":"03352061","name":"Wurster Nordseeküste","type":"Kreisangehörige_Gemeinde"},"district":{"key":"03352","name":"Cuxhaven","type":"Landkreis"},"federalState":{"key":"03","name":"Niedersachsen"}},{"name":"Dudinger Weg","postalCode":"27639","locality":"Wurster Nordseeküste","municipality":{"key":"03352061","name":"Wurster Nordseeküste","type":"Kreisangehörige_Gemeinde"},"district":{"key":"03352","name":"Cuxhaven","type":"Landkreis"},"federalState":{"key":"03","name":"Niedersachsen"}},{"name":"Düllhammsweg","postalCode":"27639","locality":"Wurster Nordseeküste","municipality":{"key":"03352061","name":"Wurster Nordseeküste","type":"Kreisangehörige_Gemeinde"},"district":{"key":"03352","name":"Cuxhaven","type":"Landkreis"},"federalState":{"key":"03","name":"Niedersachsen"}},{"name":"Düringer Weg","postalCode":"27639","locality":"Wurster Nordseeküste","municipality":{"key":"03352061","name":"Wurster Nordseeküste","type":"Kreisangehörige_Gemeinde"},"district":{"key":"03352","name":"Cuxhaven","type":"Landkreis"},"federalState":{"key":"03","name":"Niedersachsen"}},{"name":"Dwarsweg","postalCode":"27639","locality":"Wurster Nordseeküste","municipality":{"key":"03352061","name":"Wurster Nordseeküste","type":"Kreisangehörige_Gemeinde"},"district":{"key":"03352","name":"Cuxhaven","type":"Landkreis"},"federalState":{"key":"03","name":"Niedersachsen"}},{"name":"Eckelehe","postalCode":"27639","locality":"Wurster Nordseeküste","municipality":{"key":"03352061","name":"Wurster Nordseeküste","type":"Kreisangehörige_Gemeinde"},"district":{"key":"03352","name":"Cuxhaven","type":"Landkreis"},"federalState":{"key":"03","name":"Niedersachsen"}},{"name":"Edentrift","postalCode":"27639","locality":"Wurster Nordseeküste","municipality":{"key":"03352061","name":"Wurster Nordseeküste","type":"Kreisangehörige_Gemeinde"},"district":{"key":"03352","name":"Cuxhaven","type":"Landkreis"},"federalState":{"key":"03","name":"Niedersachsen"}},{"name":"Edi-Oehmsen-Stroot","postalCode":"27639","locality":"Wurster Nordseeküste","municipality":{"key":"03352061","name":"Wurster Nordseeküste","type":"Kreisangehörige_Gemeinde"},"district":{"key":"03352","name":"Cuxhaven","type":"Landkreis"},"federalState":{"key":"03","name":"Niedersachsen"}},{"name":"Eduard-Klenck-Weg","postalCode":"27639","locality":"Wurster Nordseeküste","municipality":{"key":"03352061","name":"Wurster Nordseeküste","type":"Kreisangehörige_Gemeinde"},"district":{"key":"03352","name":"Cuxhaven","type":"Landkreis"},"federalState":{"key":"03","name":"Niedersachsen"}},{"name":"Eichenhamm","postalCode":"27639","locality":"Wurster Nordseeküste","municipality":{"key":"03352061","name":"Wurster Nordseeküste","type":"Kreisangehörige_Gemeinde"},"district":{"key":"03352","name":"Cuxhaven","type":"Landkreis"},"federalState":{"key":"03","name":"Niedersachsen"}},{"name":"Eichenweg","postalCode":"27639","locality":"Wurster Nordseeküste","municipality":{"key":"03352061","name":"Wurster Nordseeküste","type":"Kreisangehörige_Gemeinde"},"district":{"key":"03352","name":"Cuxhaven","type":"Landkreis"},"federalState":{"key":"03","name":"Niedersachsen"}},{"name":"Eichhornweg","postalCode":"27639","locality":"Wurster Nordseeküste","municipality":{"key":"03352061","name":"Wurster Nordseeküste","type":"Kreisangehörige_Gemeinde"},"district":{"key":"03352","name":"Cuxhaven","type":"Landkreis"},"federalState":{"key":"03","name":"Niedersachsen"}},{"name":"Elbestr.","postalCode":"27639","locality":"Wurster Nordseeküste","municipality":{"key":"03352061","name":"Wurster Nordseeküste","type":"Kreisangehörige_Gemeinde"},"district":{"key":"03352","name":"Cuxhaven","type":"Landkreis"},"federalState":{"key":"03","name":"Niedersachsen"}},{"name":"Ellhornstr.","postalCode":"27639","locality":"Wurster Nordseeküste","municipality":{"key":"03352061","name":"Wurster Nordseeküste","type":"Kreisangehörige_Gemeinde"},"district":{"key":"03352","name":"Cuxhaven","type":"Landkreis"},"federalState":{"key":"03","name":"Niedersachsen"}},{"name":"Emmelkestr.","postalCode":"27639","locality":"Wurster Nordseeküste","municipality":{"key":"03352061","name":"Wurster Nordseeküste","type":"Kreisangehörige_Gemeinde"},"district":{"key":"03352","name":"Cuxhaven","type":"Landkreis"},"federalState":{"key":"03","name":"Niedersachsen"}},{"name":"Engbüttel","postalCode":"27639","locality":"Wurster Nordseeküste","municipality":{"key":"03352061","name":"Wurster Nordseeküste","type":"Kreisangehörige_Gemeinde"},"district":{"key":"03352","name":"Cuxhaven","type":"Landkreis"},"federalState":{"key":"03","name":"Niedersachsen"}},{"name":"Engbütteler Str.","postalCode":"27639","locality":"Wurster Nordseeküste","municipality":{"key":"03352061","name":"Wurster Nordseeküste","type":"Kreisangehörige_Gemeinde"},"district":{"key":"03352","name":"Cuxhaven","type":"Landkreis"},"federalState":{"key":"03","name":"Niedersachsen"}},{"name":"Engelskopf","postalCode":"27639","locality":"Wurster Nordseeküste","municipality":{"key":"03352061","name":"Wurster Nordseeküste","type":"Kreisangehörige_Gemeinde"},"district":{"key":"03352","name":"Cuxhaven","type":"Landkreis"},"federalState":{"key":"03","name":"Niedersachsen"}},{"name":"Erlenweg","postalCode":"27639","locality":"Wurster Nordseeküste","municipality":{"key":"03352061","name":"Wurster Nordseeküste","type":"Kreisangehörige_Gemeinde"},"district":{"key":"03352","name":"Cuxhaven","type":"Landkreis"},"federalState":{"key":"03","name":"Niedersachsen"}},{"name":"Ernst-Friedrich-Adickes-Str.","postalCode":"27639","locality":"Wurster Nordseeküste","municipality":{"key":"03352061","name":"Wurster Nordseeküste","type":"Kreisangehörige_Gemeinde"},"district":{"key":"03352","name":"Cuxhaven","type":"Landkreis"},"federalState":{"key":"03","name":"Niedersachsen"}},{"name":"Erwin-Icken-Str.","postalCode":"27639","locality":"Wurster Nordseeküste","municipality":{"key":"03352061","name":"Wurster Nordseeküste","type":"Kreisangehörige_Gemeinde"},"district":{"key":"03352","name":"Cuxhaven","type":"Landkreis"},"federalState":{"key":"03","name":"Niedersachsen"}},{"name":"Eulenweg","postalCode":"27639","locality":"Wurster Nordseeküste","municipality":{"key":"03352061","name":"Wurster Nordseeküste","type":"Kreisangehörige_Gemeinde"},"district":{"key":"03352","name":"Cuxhaven","type":"Landkreis"},"federalState":{"key":"03","name":"Niedersachsen"}},{"name":"Falkenstr.","postalCode":"27639","locality":"Wurster Nordseeküste","municipality":{"key":"03352061","name":"Wurster Nordseeküste","type":"Kreisangehörige_Gemeinde"},"district":{"key":"03352","name":"Cuxhaven","type":"Landkreis"},"federalState":{"key":"03","name":"Niedersachsen"}},{"name":"Fasanenweg","postalCode":"27639","locality":"Wurster Nordseeküste","municipality":{"key":"03352061","name":"Wurster Nordseeküste","type":"Kreisangehörige_Gemeinde"},"district":{"key":"03352","name":"Cuxhaven","type":"Landkreis"},"federalState":{"key":"03","name":"Niedersachsen"}},{"name":"Feldhof","postalCode":"27639","locality":"Wurster Nordseeküste","municipality":{"key":"03352061","name":"Wurster Nordseeküste","type":"Kreisangehörige_Gemeinde"},"district":{"key":"03352","name":"Cuxhaven","type":"Landkreis"},"federalState":{"key":"03","name":"Niedersachsen"}},{"name":"Feldsating","postalCode":"27639","locality":"Wurster Nordseeküste","municipality":{"key":"03352061","name":"Wurster Nordseeküste","type":"Kreisangehörige_Gemeinde"},"district":{"key":"03352","name":"Cuxhaven","type":"Landkreis"},"federalState":{"key":"03","name":"Niedersachsen"}},{"name":"Feldsatinger Weg","postalCode":"27639","locality":"Wurster Nordseeküste","municipality":{"key":"03352061","name":"Wurster Nordseeküste","type":"Kreisangehörige_Gemeinde"},"district":{"key":"03352","name":"Cuxhaven","type":"Landkreis"},"federalState":{"key":"03","name":"Niedersachsen"}},{"name":"Feldweg","postalCode":"27639","locality":"Wurster Nordseeküste","municipality":{"key":"03352061","name":"Wurster Nordseeküste","type":"Kreisangehörige_Gemeinde"},"district":{"key":"03352","name":"Cuxhaven","type":"Landkreis"},"federalState":{"key":"03","name":"Niedersachsen"}},{"name":"Feuerweg","postalCode":"27639","locality":"Wurster Nordseeküste","municipality":{"key":"03352061","name":"Wurster Nordseeküste","type":"Kreisangehörige_Gemeinde"},"district":{"key":"03352","name":"Cuxhaven","type":"Landkreis"},"federalState":{"key":"03","name":"Niedersachsen"}},{"name":"Fischadlerweg","postalCode":"27639","locality":"Wurster Nordseeküste","municipality":{"key":"03352061","name":"Wurster Nordseeküste","type":"Kreisangehörige_Gemeinde"},"district":{"key":"03352","name":"Cuxhaven","type":"Landkreis"},"federalState":{"key":"03","name":"Niedersachsen"}},{"name":"Fischersiedlung","postalCode":"27639","locality":"Wurster Nordseeküste","municipality":{"key":"03352061","name":"Wurster Nordseeküste","type":"Kreisangehörige_Gemeinde"},"district":{"key":"03352","name":"Cuxhaven","type":"Landkreis"},"federalState":{"key":"03","name":"Niedersachsen"}},{"name":"Fliederweg","postalCode":"27639","locality":"Wurster Nordseeküste","municipality":{"key":"03352061","name":"Wurster Nordseeküste","type":"Kreisangehörige_Gemeinde"},"district":{"key":"03352","name":"Cuxhaven","type":"Landkreis"},"federalState":{"key":"03","name":"Niedersachsen"}},{"name":"Freys Heide","postalCode":"27639","locality":"Wurster Nordseeküste","municipality":{"key":"03352061","name":"Wurster Nordseeküste","type":"Kreisangehörige_Gemeinde"},"district":{"key":"03352","name":"Cuxhaven","type":"Landkreis"},"federalState":{"key":"03","name":"Niedersachsen"}},{"name":"Friedrich-Lübs-Weg","postalCode":"27639","locality":"Wurster Nordseeküste","municipality":{"key":"03352061","name":"Wurster Nordseeküste","type":"Kreisangehörige_Gemeinde"},"district":{"key":"03352","name":"Cuxhaven","type":"Landkreis"},"federalState":{"key":"03","name":"Niedersachsen"}},{"name":"Fritz-Husmann-Weg","postalCode":"27639","locality":"Wurster Nordseeküste","municipality":{"key":"03352061","name":"Wurster Nordseeküste","type":"Kreisangehörige_Gemeinde"},"district":{"key":"03352","name":"Cuxhaven","type":"Landkreis"},"federalState":{"key":"03","name":"Niedersachsen"}},{"name":"Gänsepfad","postalCode":"27639","locality":"Wurster Nordseeküste","municipality":{"key":"03352061","name":"Wurster Nordseeküste","type":"Kreisangehörige_Gemeinde"},"district":{"key":"03352","name":"Cuxhaven","type":"Landkreis"},"federalState":{"key":"03","name":"Niedersachsen"}},{"name":"Gattje","postalCode":"27639","locality":"Wurster Nordseeküste","municipality":{"key":"03352061","name":"Wurster Nordseeküste","type":"Kreisangehörige_Gemeinde"},"district":{"key":"03352","name":"Cuxhaven","type":"Landkreis"},"federalState":{"key":"03","name":"Niedersachsen"}},{"name":"Ginsterweg","postalCode":"27639","locality":"Wurster Nordseeküste","municipality":{"key":"03352061","name":"Wurster Nordseeküste","type":"Kreisangehörige_Gemeinde"},"district":{"key":"03352","name":"Cuxhaven","type":"Landkreis"},"federalState":{"key":"03","name":"Niedersachsen"}},{"name":"Grauer Wall","postalCode":"27639","locality":"Wurster Nordseeküste","municipality":{"key":"03352061","name":"Wurster Nordseeküste","type":"Kreisangehörige_Gemeinde"},"district":{"key":"03352","name":"Cuxhaven","type":"Landkreis"},"federalState":{"key":"03","name":"Niedersachsen"}},{"name":"Graugansweg","postalCode":"27639","locality":"Wurster Nordseeküste","municipality":{"key":"03352061","name":"Wurster Nordseeküste","type":"Kreisangehörige_Gemeinde"},"district":{"key":"03352","name":"Cuxhaven","type":"Landkreis"},"federalState":{"key":"03","name":"Niedersachsen"}},{"name":"Graureiherweg","postalCode":"27639","locality":"Wurster Nordseeküste","municipality":{"key":"03352061","name":"Wurster Nordseeküste","type":"Kreisangehörige_Gemeinde"},"district":{"key":"03352","name":"Cuxhaven","type":"Landkreis"},"federalState":{"key":"03","name":"Niedersachsen"}},{"name":"Grauwall","postalCode":"27639","locality":"Wurster Nordseeküste","municipality":{"key":"03352061","name":"Wurster Nordseeküste","type":"Kreisangehörige_Gemeinde"},"district":{"key":"03352","name":"Cuxhaven","type":"Landkreis"},"federalState":{"key":"03","name":"Niedersachsen"}},{"name":"Greti-Grube-Weg","postalCode":"27639","locality":"Wurster Nordseeküste","municipality":{"key":"03352061","name":"Wurster Nordseeküste","type":"Kreisangehörige_Gemeinde"},"district":{"key":"03352","name":"Cuxhaven","type":"Landkreis"},"federalState":{"key":"03","name":"Niedersachsen"}},{"name":"Gröpelstr.","postalCode":"27639","locality":"Wurster Nordseeküste","municipality":{"key":"03352061","name":"Wurster Nordseeküste","type":"Kreisangehörige_Gemeinde"},"district":{"key":"03352","name":"Cuxhaven","type":"Landkreis"},"federalState":{"key":"03","name":"Niedersachsen"}},{"name":"Großbütteler Weg","postalCode":"27639","locality":"Wurster Nordseeküste","municipality":{"key":"03352061","name":"Wurster Nordseeküste","type":"Kreisangehörige_Gemeinde"},"district":{"key":"03352","name":"Cuxhaven","type":"Landkreis"},"federalState":{"key":"03","name":"Niedersachsen"}},{"name":"Großenbüttel","postalCode":"27639","locality":"Wurster Nordseeküste","municipality":{"key":"03352061","name":"Wurster Nordseeküste","type":"Kreisangehörige_Gemeinde"},"district":{"key":"03352","name":"Cuxhaven","type":"Landkreis"},"federalState":{"key":"03","name":"Niedersachsen"}},{"name":"Großer Feldweg","postalCode":"27639","locality":"Wurster Nordseeküste","municipality":{"key":"03352061","name":"Wurster Nordseeküste","type":"Kreisangehörige_Gemeinde"},"district":{"key":"03352","name":"Cuxhaven","type":"Landkreis"},"federalState":{"key":"03","name":"Niedersachsen"}},{"name":"Großer Kirchweg","postalCode":"27639","locality":"Wurster Nordseeküste","municipality":{"key":"03352061","name":"Wurster Nordseeküste","type":"Kreisangehörige_Gemeinde"},"district":{"key":"03352","name":"Cuxhaven","type":"Landkreis"},"federalState":{"key":"03","name":"Niedersachsen"}},{"name":"Großer Röhrweg","postalCode":"27639","locality":"Wurster Nordseeküste","municipality":{"key":"03352061","name":"Wurster Nordseeküste","type":"Kreisangehörige_Gemeinde"},"district":{"key":"03352","name":"Cuxhaven","type":"Landkreis"},"federalState":{"key":"03","name":"Niedersachsen"}},{"name":"Grüner Specken","postalCode":"27639","locality":"Wurster Nordseeküste","municipality":{"key":"03352061","name":"Wurster Nordseeküste","type":"Kreisangehörige_Gemeinde"},"district":{"key":"03352","name":"Cuxhaven","type":"Landkreis"},"federalState":{"key":"03","name":"Niedersachsen"}},{"name":"Grüner Weg","postalCode":"27639","locality":"Wurster Nordseeküste","municipality":{"key":"03352061","name":"Wurster Nordseeküste","type":"Kreisangehörige_Gemeinde"},"district":{"key":"03352","name":"Cuxhaven","type":"Landkreis"},"federalState":{"key":"03","name":"Niedersachsen"}},{"name":"Habichtstr.","postalCode":"27639","locality":"Wurster Nordseeküste","municipality":{"key":"03352061","name":"Wurster Nordseeküste","type":"Kreisangehörige_Gemeinde"},"district":{"key":"03352","name":"Cuxhaven","type":"Landkreis"},"federalState":{"key":"03","name":"Niedersachsen"}},{"name":"Hainkhörnstr.","postalCode":"27639","locality":"Wurster Nordseeküste","municipality":{"key":"03352061","name":"Wurster Nordseeküste","type":"Kreisangehörige_Gemeinde"},"district":{"key":"03352","name":"Cuxhaven","type":"Landkreis"},"federalState":{"key":"03","name":"Niedersachsen"}},{"name":"Harmsbüttel","postalCode":"27639","locality":"Wurster Nordseeküste","municipality":{"key":"03352061","name":"Wurster Nordseeküste","type":"Kreisangehörige_Gemeinde"},"district":{"key":"03352","name":"Cuxhaven","type":"Landkreis"},"federalState":{"key":"03","name":"Niedersachsen"}},{"name":"Hartingspecken","postalCode":"27639","locality":"Wurster Nordseeküste","municipality":{"key":"03352061","name":"Wurster Nordseeküste","type":"Kreisangehörige_Gemeinde"},"district":{"key":"03352","name":"Cuxhaven","type":"Landkreis"},"federalState":{"key":"03","name":"Niedersachsen"}},{"name":"Hartingspeckener Feld","postalCode":"27639","locality":"Wurster Nordseeküste","municipality":{"key":"03352061","name":"Wurster Nordseeküste","type":"Kreisangehörige_Gemeinde"},"district":{"key":"03352","name":"Cuxhaven","type":"Landkreis"},"federalState":{"key":"03","name":"Niedersachsen"}},{"name":"Hasenweg","postalCode":"27639","locality":"Wurster Nordseeküste","municipality":{"key":"03352061","name":"Wurster Nordseeküste","type":"Kreisangehörige_Gemeinde"},"district":{"key":"03352","name":"Cuxhaven","type":"Landkreis"},"federalState":{"key":"03","name":"Niedersachsen"}},{"name":"Heideweg","postalCode":"27639","locality":"Wurster Nordseeküste","municipality":{"key":"03352061","name":"Wurster Nordseeküste","type":"Kreisangehörige_Gemeinde"},"district":{"key":"03352","name":"Cuxhaven","type":"Landkreis"},"federalState":{"key":"03","name":"Niedersachsen"}},{"name":"Heinrich-Siebern-Str.","postalCode":"27639","locality":"Wurster Nordseeküste","municipality":{"key":"03352061","name":"Wurster Nordseeküste","type":"Kreisangehörige_Gemeinde"},"district":{"key":"03352","name":"Cuxhaven","type":"Landkreis"},"federalState":{"key":"03","name":"Niedersachsen"}},{"name":"Heuhausen","postalCode":"27639","locality":"Wurster Nordseeküste","municipality":{"key":"03352061","name":"Wurster Nordseeküste","type":"Kreisangehörige_Gemeinde"},"district":{"key":"03352","name":"Cuxhaven","type":"Landkreis"},"federalState":{"key":"03","name":"Niedersachsen"}},{"name":"H.-H.-Grube-Stroot","postalCode":"27639","locality":"Wurster Nordseeküste","municipality":{"key":"03352061","name":"Wurster Nordseeküste","type":"Kreisangehörige_Gemeinde"},"district":{"key":"03352","name":"Cuxhaven","type":"Landkreis"},"federalState":{"key":"03","name":"Niedersachsen"}},{"name":"Hinter der Bahn","postalCode":"27639","locality":"Wurster Nordseeküste","municipality":{"key":"03352061","name":"Wurster Nordseeküste","type":"Kreisangehörige_Gemeinde"},"district":{"key":"03352","name":"Cuxhaven","type":"Landkreis"},"federalState":{"key":"03","name":"Niedersachsen"}},{"name":"Hinter der Kirche","postalCode":"27639","locality":"Wurster Nordseeküste","municipality":{"key":"03352061","name":"Wurster Nordseeküste","type":"Kreisangehörige_Gemeinde"},"district":{"key":"03352","name":"Cuxhaven","type":"Landkreis"},"federalState":{"key":"03","name":"Niedersachsen"}},{"name":"Hinter der Lieth","postalCode":"27639","locality":"Wurster Nordseeküste","municipality":{"key":"03352061","name":"Wurster Nordseeküste","type":"Kreisangehörige_Gemeinde"},"district":{"key":"03352","name":"Cuxhaven","type":"Landkreis"},"federalState":{"key":"03","name":"Niedersachsen"}},{"name":"Hochkamp","postalCode":"27639","locality":"Wurster Nordseeküste","municipality":{"key":"03352061","name":"Wurster Nordseeküste","type":"Kreisangehörige_Gemeinde"},"district":{"key":"03352","name":"Cuxhaven","type":"Landkreis"},"federalState":{"key":"03","name":"Niedersachsen"}},{"name":"Höchte","postalCode":"27639","locality":"Wurster Nordseeküste","municipality":{"key":"03352061","name":"Wurster Nordseeküste","type":"Kreisangehörige_Gemeinde"},"district":{"key":"03352","name":"Cuxhaven","type":"Landkreis"},"federalState":{"key":"03","name":"Niedersachsen"}},{"name":"Hofer Weg","postalCode":"27639","locality":"Wurster Nordseeküste","municipality":{"key":"03352061","name":"Wurster Nordseeküste","type":"Kreisangehörige_Gemeinde"},"district":{"key":"03352","name":"Cuxhaven","type":"Landkreis"},"federalState":{"key":"03","name":"Niedersachsen"}},{"name":"Hohensteinsforst","postalCode":"27639","locality":"Wurster Nordseeküste","municipality":{"key":"03352061","name":"Wurster Nordseeküste","type":"Kreisangehörige_Gemeinde"},"district":{"key":"03352","name":"Cuxhaven","type":"Landkreis"},"federalState":{"key":"03","name":"Niedersachsen"}},{"name":"Hünkemannsweg","postalCode":"27639","locality":"Wurster Nordseeküste","municipality":{"key":"03352061","name":"Wurster Nordseeküste","type":"Kreisangehörige_Gemeinde"},"district":{"key":"03352","name":"Cuxhaven","type":"Landkreis"},"federalState":{"key":"03","name":"Niedersachsen"}},{"name":"Ilkenbarger Weg","postalCode":"27639","locality":"Wurster Nordseeküste","municipality":{"key":"03352061","name":"Wurster Nordseeküste","type":"Kreisangehörige_Gemeinde"},"district":{"key":"03352","name":"Cuxhaven","type":"Landkreis"},"federalState":{"key":"03","name":"Niedersachsen"}},{"name":"Im Büttelfeld","postalCode":"27639","locality":"Wurster Nordseeküste","municipality":{"key":"03352061","name":"Wurster Nordseeküste","type":"Kreisangehörige_Gemeinde"},"district":{"key":"03352","name":"Cuxhaven","type":"Landkreis"},"federalState":{"key":"03","name":"Niedersachsen"}},{"name":"Im Dorfe","postalCode":"27639","locality":"Wurster Nordseeküste","municipality":{"key":"03352061","name":"Wurster Nordseeküste","type":"Kreisangehörige_Gemeinde"},"district":{"key":"03352","name":"Cuxhaven","type":"Landkreis"},"federalState":{"key":"03","name":"Niedersachsen"}},{"name":"Im Ellhorn","postalCode":"27639","locality":"Wurster Nordseeküste","municipality":{"key":"03352061","name":"Wurster Nordseeküste","type":"Kreisangehörige_Gemeinde"},"district":{"key":"03352","name":"Cuxhaven","type":"Landkreis"},"federalState":{"key":"03","name":"Niedersachsen"}},{"name":"Im Felde","postalCode":"27639","locality":"Wurster Nordseeküste","municipality":{"key":"03352061","name":"Wurster Nordseeküste","type":"Kreisangehörige_Gemeinde"},"district":{"key":"03352","name":"Cuxhaven","type":"Landkreis"},"federalState":{"key":"03","name":"Niedersachsen"}},{"name":"Im Gewerbepark","postalCode":"27639","locality":"Wurster Nordseeküste","municipality":{"key":"03352061","name":"Wurster Nordseeküste","type":"Kreisangehörige_Gemeinde"},"district":{"key":"03352","name":"Cuxhaven","type":"Landkreis"},"federalState":{"key":"03","name":"Niedersachsen"}},{"name":"Im Grohden","postalCode":"27639","locality":"Wurster Nordseeküste","municipality":{"key":"03352061","name":"Wurster Nordseeküste","type":"Kreisangehörige_Gemeinde"},"district":{"key":"03352","name":"Cuxhaven","type":"Landkreis"},"federalState":{"key":"03","name":"Niedersachsen"}},{"name":"Im Morgenland","postalCode":"27639","locality":"Wurster Nordseeküste","municipality":{"key":"03352061","name":"Wurster Nordseeküste","type":"Kreisangehörige_Gemeinde"},"district":{"key":"03352","name":"Cuxhaven","type":"Landkreis"},"federalState":{"key":"03","name":"Niedersachsen"}},{"name":"Im Speckenfeld","postalCode":"27639","locality":"Wurster Nordseeküste","municipality":{"key":"03352061","name":"Wurster Nordseeküste","type":"Kreisangehörige_Gemeinde"},"district":{"key":"03352","name":"Cuxhaven","type":"Landkreis"},"federalState":{"key":"03","name":"Niedersachsen"}},{"name":"In den Wiesen","postalCode":"27639","locality":"Wurster Nordseeküste","municipality":{"key":"03352061","name":"Wurster Nordseeküste","type":"Kreisangehörige_Gemeinde"},"district":{"key":"03352","name":"Cuxhaven","type":"Landkreis"},"federalState":{"key":"03","name":"Niedersachsen"}},{"name":"In der Hofe","postalCode":"27639","locality":"Wurster Nordseeküste","municipality":{"key":"03352061","name":"Wurster Nordseeküste","type":"Kreisangehörige_Gemeinde"},"district":{"key":"03352","name":"Cuxhaven","type":"Landkreis"},"federalState":{"key":"03","name":"Niedersachsen"}},{"name":"In der Langen Str.","postalCode":"27639","locality":"Wurster Nordseeküste","municipality":{"key":"03352061","name":"Wurster Nordseeküste","type":"Kreisangehörige_Gemeinde"},"district":{"key":"03352","name":"Cuxhaven","type":"Landkreis"},"federalState":{"key":"03","name":"Niedersachsen"}},{"name":"In der Wierde","postalCode":"27639","locality":"Wurster Nordseeküste","municipality":{"key":"03352061","name":"Wurster Nordseeküste","type":"Kreisangehörige_Gemeinde"},"district":{"key":"03352","name":"Cuxhaven","type":"Landkreis"},"federalState":{"key":"03","name":"Niedersachsen"}},{"name":"Industrieweg","postalCode":"27639","locality":"Wurster Nordseeküste","municipality":{"key":"03352061","name":"Wurster Nordseeküste","type":"Kreisangehörige_Gemeinde"},"district":{"key":"03352","name":"Cuxhaven","type":"Landkreis"},"federalState":{"key":"03","name":"Niedersachsen"}},{"name":"Jägerstr.","postalCode":"27639","locality":"Wurster Nordseeküste","municipality":{"key":"03352061","name":"Wurster Nordseeküste","type":"Kreisangehörige_Gemeinde"},"district":{"key":"03352","name":"Cuxhaven","type":"Landkreis"},"federalState":{"key":"03","name":"Niedersachsen"}},{"name":"Johann-Meincke-Str.","postalCode":"27639","locality":"Wurster Nordseeküste","municipality":{"key":"03352061","name":"Wurster Nordseeküste","type":"Kreisangehörige_Gemeinde"},"district":{"key":"03352","name":"Cuxhaven","type":"Landkreis"},"federalState":{"key":"03","name":"Niedersachsen"}},{"name":"Jückweg","postalCode":"27639","locality":"Wurster Nordseeküste","municipality":{"key":"03352061","name":"Wurster Nordseeküste","type":"Kreisangehörige_Gemeinde"},"district":{"key":"03352","name":"Cuxhaven","type":"Landkreis"},"federalState":{"key":"03","name":"Niedersachsen"}},{"name":"Kajediek","postalCode":"27639","locality":"Wurster Nordseeküste","municipality":{"key":"03352061","name":"Wurster Nordseeküste","type":"Kreisangehörige_Gemeinde"},"district":{"key":"03352","name":"Cuxhaven","type":"Landkreis"},"federalState":{"key":"03","name":"Niedersachsen"}},{"name":"Kanalweg West","postalCode":"27639","locality":"Wurster Nordseeküste","municipality":{"key":"03352061","name":"Wurster Nordseeküste","type":"Kreisangehörige_Gemeinde"},"district":{"key":"03352","name":"Cuxhaven","type":"Landkreis"},"federalState":{"key":"03","name":"Niedersachsen"}},{"name":"Kapellenweg","postalCode":"27639","locality":"Wurster Nordseeküste","municipality":{"key":"03352061","name":"Wurster Nordseeküste","type":"Kreisangehörige_Gemeinde"},"district":{"key":"03352","name":"Cuxhaven","type":"Landkreis"},"federalState":{"key":"03","name":"Niedersachsen"}},{"name":"Kastanienweg","postalCode":"27639","locality":"Wurster Nordseeküste","municipality":{"key":"03352061","name":"Wurster Nordseeküste","type":"Kreisangehörige_Gemeinde"},"district":{"key":"03352","name":"Cuxhaven","type":"Landkreis"},"federalState":{"key":"03","name":"Niedersachsen"}},{"name":"Käthe-Ringe-Str.","postalCode":"27639","locality":"Wurster Nordseeküste","municipality":{"key":"03352061","name":"Wurster Nordseeküste","type":"Kreisangehörige_Gemeinde"},"district":{"key":"03352","name":"Cuxhaven","type":"Landkreis"},"federalState":{"key":"03","name":"Niedersachsen"}},{"name":"Kiebitzhörn","postalCode":"27639","locality":"Wurster Nordseeküste","municipality":{"key":"03352061","name":"Wurster Nordseeküste","type":"Kreisangehörige_Gemeinde"},"district":{"key":"03352","name":"Cuxhaven","type":"Landkreis"},"federalState":{"key":"03","name":"Niedersachsen"}},{"name":"Kiefernweg","postalCode":"27639","locality":"Wurster Nordseeküste","municipality":{"key":"03352061","name":"Wurster Nordseeküste","type":"Kreisangehörige_Gemeinde"},"district":{"key":"03352","name":"Cuxhaven","type":"Landkreis"},"federalState":{"key":"03","name":"Niedersachsen"}},{"name":"Kirchgasse","postalCode":"27639","locality":"Wurster Nordseeküste","municipality":{"key":"03352061","name":"Wurster Nordseeküste","type":"Kreisangehörige_Gemeinde"},"district":{"key":"03352","name":"Cuxhaven","type":"Landkreis"},"federalState":{"key":"03","name":"Niedersachsen"}},{"name":"Kirchstr.","postalCode":"27639","locality":"Wurster Nordseeküste","municipality":{"key":"03352061","name":"Wurster Nordseeküste","type":"Kreisangehörige_Gemeinde"},"district":{"key":"03352","name":"Cuxhaven","type":"Landkreis"},"federalState":{"key":"03","name":"Niedersachsen"}},{"name":"Kirchweg","postalCode":"27639","locality":"Wurster Nordseeküste","municipality":{"key":"03352061","name":"Wurster Nordseeküste","type":"Kreisangehörige_Gemeinde"},"district":{"key":"03352","name":"Cuxhaven","type":"Landkreis"},"federalState":{"key":"03","name":"Niedersachsen"}},{"name":"Kleiner Feldweg","postalCode":"27639","locality":"Wurster Nordseeküste","municipality":{"key":"03352061","name":"Wurster Nordseeküste","type":"Kreisangehörige_Gemeinde"},"district":{"key":"03352","name":"Cuxhaven","type":"Landkreis"},"federalState":{"key":"03","name":"Niedersachsen"}},{"name":"Kleiner Kirchweg","postalCode":"27639","locality":"Wurster Nordseeküste","municipality":{"key":"03352061","name":"Wurster Nordseeküste","type":"Kreisangehörige_Gemeinde"},"district":{"key":"03352","name":"Cuxhaven","type":"Landkreis"},"federalState":{"key":"03","name":"Niedersachsen"}},{"name":"Kleiner Weg","postalCode":"27639","locality":"Wurster Nordseeküste","municipality":{"key":"03352061","name":"Wurster Nordseeküste","type":"Kreisangehörige_Gemeinde"},"district":{"key":"03352","name":"Cuxhaven","type":"Landkreis"},"federalState":{"key":"03","name":"Niedersachsen"}},{"name":"Kleines Feld","postalCode":"27639","locality":"Wurster Nordseeküste","municipality":{"key":"03352061","name":"Wurster Nordseeküste","type":"Kreisangehörige_Gemeinde"},"district":{"key":"03352","name":"Cuxhaven","type":"Landkreis"},"federalState":{"key":"03","name":"Niedersachsen"}},{"name":"Knakenburg","postalCode":"27639","locality":"Wurster Nordseeküste","municipality":{"key":"03352061","name":"Wurster Nordseeküste","type":"Kreisangehörige_Gemeinde"},"district":{"key":"03352","name":"Cuxhaven","type":"Landkreis"},"federalState":{"key":"03","name":"Niedersachsen"}},{"name":"Knechtsand","postalCode":"27639","locality":"Wurster Nordseeküste","municipality":{"key":"03352061","name":"Wurster Nordseeküste","type":"Kreisangehörige_Gemeinde"},"district":{"key":"03352","name":"Cuxhaven","type":"Landkreis"},"federalState":{"key":"03","name":"Niedersachsen"}},{"name":"Kniepsand","postalCode":"27639","locality":"Wurster Nordseeküste","municipality":{"key":"03352061","name":"Wurster Nordseeküste","type":"Kreisangehörige_Gemeinde"},"district":{"key":"03352","name":"Cuxhaven","type":"Landkreis"},"federalState":{"key":"03","name":"Niedersachsen"}},{"name":"Knill","postalCode":"27639","locality":"Wurster Nordseeküste","municipality":{"key":"03352061","name":"Wurster Nordseeküste","type":"Kreisangehörige_Gemeinde"},"district":{"key":"03352","name":"Cuxhaven","type":"Landkreis"},"federalState":{"key":"03","name":"Niedersachsen"}},{"name":"Königsberger Str.","postalCode":"27639","locality":"Wurster Nordseeküste","municipality":{"key":"03352061","name":"Wurster Nordseeküste","type":"Kreisangehörige_Gemeinde"},"district":{"key":"03352","name":"Cuxhaven","type":"Landkreis"},"federalState":{"key":"03","name":"Niedersachsen"}},{"name":"Kormoranweg","postalCode":"27639","locality":"Wurster Nordseeküste","municipality":{"key":"03352061","name":"Wurster Nordseeküste","type":"Kreisangehörige_Gemeinde"},"district":{"key":"03352","name":"Cuxhaven","type":"Landkreis"},"federalState":{"key":"03","name":"Niedersachsen"}},{"name":"Krähenburg","postalCode":"27639","locality":"Wurster Nordseeküste","municipality":{"key":"03352061","name":"Wurster Nordseeküste","type":"Kreisangehörige_Gemeinde"},"district":{"key":"03352","name":"Cuxhaven","type":"Landkreis"},"federalState":{"key":"03","name":"Niedersachsen"}},{"name":"Kransburger Str.","postalCode":"27639","locality":"Wurster Nordseeküste","municipality":{"key":"03352061","name":"Wurster Nordseeküste","type":"Kreisangehörige_Gemeinde"},"district":{"key":"03352","name":"Cuxhaven","type":"Landkreis"},"federalState":{"key":"03","name":"Niedersachsen"}},{"name":"Krempeler Weg","postalCode":"27639","locality":"Wurster Nordseeküste","municipality":{"key":"03352061","name":"Wurster Nordseeküste","type":"Kreisangehörige_Gemeinde"},"district":{"key":"03352","name":"Cuxhaven","type":"Landkreis"},"federalState":{"key":"03","name":"Niedersachsen"}},{"name":"Krummhörn","postalCode":"27639","locality":"Wurster Nordseeküste","municipality":{"key":"03352061","name":"Wurster Nordseeküste","type":"Kreisangehörige_Gemeinde"},"district":{"key":"03352","name":"Cuxhaven","type":"Landkreis"},"federalState":{"key":"03","name":"Niedersachsen"}},{"name":"Kurgarten Grille","postalCode":"27639","locality":"Wurster Nordseeküste","municipality":{"key":"03352061","name":"Wurster Nordseeküste","type":"Kreisangehörige_Gemeinde"},"district":{"key":"03352","name":"Cuxhaven","type":"Landkreis"},"federalState":{"key":"03","name":"Niedersachsen"}},{"name":"Kurze Str.","postalCode":"27639","locality":"Wurster Nordseeküste","municipality":{"key":"03352061","name":"Wurster Nordseeküste","type":"Kreisangehörige_Gemeinde"},"district":{"key":"03352","name":"Cuxhaven","type":"Landkreis"},"federalState":{"key":"03","name":"Niedersachsen"}},{"name":"Lancken-Granitz-Str.","postalCode":"27639","locality":"Wurster Nordseeküste","municipality":{"key":"03352061","name":"Wurster Nordseeküste","type":"Kreisangehörige_Gemeinde"},"district":{"key":"03352","name":"Cuxhaven","type":"Landkreis"},"federalState":{"key":"03","name":"Niedersachsen"}},{"name":"Landweg","postalCode":"27639","locality":"Wurster Nordseeküste","municipality":{"key":"03352061","name":"Wurster Nordseeküste","type":"Kreisangehörige_Gemeinde"},"district":{"key":"03352","name":"Cuxhaven","type":"Landkreis"},"federalState":{"key":"03","name":"Niedersachsen"}},{"name":"Langer Weg","postalCode":"27639","locality":"Wurster Nordseeküste","municipality":{"key":"03352061","name":"Wurster Nordseeküste","type":"Kreisangehörige_Gemeinde"},"district":{"key":"03352","name":"Cuxhaven","type":"Landkreis"},"federalState":{"key":"03","name":"Niedersachsen"}},{"name":"Lange Str.","postalCode":"27639","locality":"Wurster Nordseeküste","municipality":{"key":"03352061","name":"Wurster Nordseeküste","type":"Kreisangehörige_Gemeinde"},"district":{"key":"03352","name":"Cuxhaven","type":"Landkreis"},"federalState":{"key":"03","name":"Niedersachsen"}},{"name":"Lepstedter Str.","postalCode":"27639","locality":"Wurster Nordseeküste","municipality":{"key":"03352061","name":"Wurster Nordseeküste","type":"Kreisangehörige_Gemeinde"},"district":{"key":"03352","name":"Cuxhaven","type":"Landkreis"},"federalState":{"key":"03","name":"Niedersachsen"}},{"name":"Lerchenweg","postalCode":"27639","locality":"Wurster Nordseeküste","municipality":{"key":"03352061","name":"Wurster Nordseeküste","type":"Kreisangehörige_Gemeinde"},"district":{"key":"03352","name":"Cuxhaven","type":"Landkreis"},"federalState":{"key":"03","name":"Niedersachsen"}},{"name":"Lewinger Grüner Weg","postalCode":"27639","locality":"Wurster Nordseeküste","municipality":{"key":"03352061","name":"Wurster Nordseeküste","type":"Kreisangehörige_Gemeinde"},"district":{"key":"03352","name":"Cuxhaven","type":"Landkreis"},"federalState":{"key":"03","name":"Niedersachsen"}},{"name":"Lewinger Specken","postalCode":"27639","locality":"Wurster Nordseeküste","municipality":{"key":"03352061","name":"Wurster Nordseeküste","type":"Kreisangehörige_Gemeinde"},"district":{"key":"03352","name":"Cuxhaven","type":"Landkreis"},"federalState":{"key":"03","name":"Niedersachsen"}},{"name":"Lilienweg","postalCode":"27639","locality":"Wurster Nordseeküste","municipality":{"key":"03352061","name":"Wurster Nordseeküste","type":"Kreisangehörige_Gemeinde"},"district":{"key":"03352","name":"Cuxhaven","type":"Landkreis"},"federalState":{"key":"03","name":"Niedersachsen"}},{"name":"Lilli Marleen","postalCode":"27639","locality":"Wurster Nordseeküste","municipality":{"key":"03352061","name":"Wurster Nordseeküste","type":"Kreisangehörige_Gemeinde"},"district":{"key":"03352","name":"Cuxhaven","type":"Landkreis"},"federalState":{"key":"03","name":"Niedersachsen"}},{"name":"Lindenweg","postalCode":"27639","locality":"Wurster Nordseeküste","municipality":{"key":"03352061","name":"Wurster Nordseeküste","type":"Kreisangehörige_Gemeinde"},"district":{"key":"03352","name":"Cuxhaven","type":"Landkreis"},"federalState":{"key":"03","name":"Niedersachsen"}},{"name":"Lübsweg","postalCode":"27639","locality":"Wurster Nordseeküste","municipality":{"key":"03352061","name":"Wurster Nordseeküste","type":"Kreisangehörige_Gemeinde"},"district":{"key":"03352","name":"Cuxhaven","type":"Landkreis"},"federalState":{"key":"03","name":"Niedersachsen"}},{"name":"Luerscher Weg","postalCode":"27639","locality":"Wurster Nordseeküste","municipality":{"key":"03352061","name":"Wurster Nordseeküste","type":"Kreisangehörige_Gemeinde"},"district":{"key":"03352","name":"Cuxhaven","type":"Landkreis"},"federalState":{"key":"03","name":"Niedersachsen"}},{"name":"Lührentrift","postalCode":"27639","locality":"Wurster Nordseeküste","municipality":{"key":"03352061","name":"Wurster Nordseeküste","type":"Kreisangehörige_Gemeinde"},"district":{"key":"03352","name":"Cuxhaven","type":"Landkreis"},"federalState":{"key":"03","name":"Niedersachsen"}},{"name":"Lummenweg","postalCode":"27639","locality":"Wurster Nordseeküste","municipality":{"key":"03352061","name":"Wurster Nordseeküste","type":"Kreisangehörige_Gemeinde"},"district":{"key":"03352","name":"Cuxhaven","type":"Landkreis"},"federalState":{"key":"03","name":"Niedersachsen"}},{"name":"Lütjendorfer Weg","postalCode":"27639","locality":"Wurster Nordseeküste","municipality":{"key":"03352061","name":"Wurster Nordseeküste","type":"Kreisangehörige_Gemeinde"},"district":{"key":"03352","name":"Cuxhaven","type":"Landkreis"},"federalState":{"key":"03","name":"Niedersachsen"}},{"name":"Mecklenburger Str.","postalCode":"27639","locality":"Wurster Nordseeküste","municipality":{"key":"03352061","name":"Wurster Nordseeküste","type":"Kreisangehörige_Gemeinde"},"district":{"key":"03352","name":"Cuxhaven","type":"Landkreis"},"federalState":{"key":"03","name":"Niedersachsen"}},{"name":"Medemsand","postalCode":"27639","locality":"Wurster Nordseeküste","municipality":{"key":"03352061","name":"Wurster Nordseeküste","type":"Kreisangehörige_Gemeinde"},"district":{"key":"03352","name":"Cuxhaven","type":"Landkreis"},"federalState":{"key":"03","name":"Niedersachsen"}},{"name":"Mellumplate","postalCode":"27639","locality":"Wurster Nordseeküste","municipality":{"key":"03352061","name":"Wurster Nordseeküste","type":"Kreisangehörige_Gemeinde"},"district":{"key":"03352","name":"Cuxhaven","type":"Landkreis"},"federalState":{"key":"03","name":"Niedersachsen"}},{"name":"Memelstr.","postalCode":"27639","locality":"Wurster Nordseeküste","municipality":{"key":"03352061","name":"Wurster Nordseeküste","type":"Kreisangehörige_Gemeinde"},"district":{"key":"03352","name":"Cuxhaven","type":"Landkreis"},"federalState":{"key":"03","name":"Niedersachsen"}},{"name":"Merlinweg","postalCode":"27639","locality":"Wurster Nordseeküste","municipality":{"key":"03352061","name":"Wurster Nordseeküste","type":"Kreisangehörige_Gemeinde"},"district":{"key":"03352","name":"Cuxhaven","type":"Landkreis"},"federalState":{"key":"03","name":"Niedersachsen"}},{"name":"Midlumer Dorfstr.","postalCode":"27639","locality":"Wurster Nordseeküste","municipality":{"key":"03352061","name":"Wurster Nordseeküste","type":"Kreisangehörige_Gemeinde"},"district":{"key":"03352","name":"Cuxhaven","type":"Landkreis"},"federalState":{"key":"03","name":"Niedersachsen"}},{"name":"Mirkenweg","postalCode":"27639","locality":"Wurster Nordseeküste","municipality":{"key":"03352061","name":"Wurster Nordseeküste","type":"Kreisangehörige_Gemeinde"},"district":{"key":"03352","name":"Cuxhaven","type":"Landkreis"},"federalState":{"key":"03","name":"Niedersachsen"}},{"name":"Misselwardener Dorfstr.","postalCode":"27639","locality":"Wurster Nordseeküste","municipality":{"key":"03352061","name":"Wurster Nordseeküste","type":"Kreisangehörige_Gemeinde"},"district":{"key":"03352","name":"Cuxhaven","type":"Landkreis"},"federalState":{"key":"03","name":"Niedersachsen"}},{"name":"Misselwardener Grabenweg","postalCode":"27639","locality":"Wurster Nordseeküste","municipality":{"key":"03352061","name":"Wurster Nordseeküste","type":"Kreisangehörige_Gemeinde"},"district":{"key":"03352","name":"Cuxhaven","type":"Landkreis"},"federalState":{"key":"03","name":"Niedersachsen"}},{"name":"Misselwardener Landstr.","postalCode":"27639","locality":"Wurster Nordseeküste","municipality":{"key":"03352061","name":"Wurster Nordseeküste","type":"Kreisangehörige_Gemeinde"},"district":{"key":"03352","name":"Cuxhaven","type":"Landkreis"},"federalState":{"key":"03","name":"Niedersachsen"}},{"name":"Misselwardener Niederstrich","postalCode":"27639","locality":"Wurster Nordseeküste","municipality":{"key":"03352061","name":"Wurster Nordseeküste","type":"Kreisangehörige_Gemeinde"},"district":{"key":"03352","name":"Cuxhaven","type":"Landkreis"},"federalState":{"key":"03","name":"Niedersachsen"}},{"name":"Misselwardener Specken","postalCode":"27639","locality":"Wurster Nordseeküste","municipality":{"key":"03352061","name":"Wurster Nordseeküste","type":"Kreisangehörige_Gemeinde"},"district":{"key":"03352","name":"Cuxhaven","type":"Landkreis"},"federalState":{"key":"03","name":"Niedersachsen"}},{"name":"Mittelmoorweg","postalCode":"27639","locality":"Wurster Nordseeküste","municipality":{"key":"03352061","name":"Wurster Nordseeküste","type":"Kreisangehörige_Gemeinde"},"district":{"key":"03352","name":"Cuxhaven","type":"Landkreis"},"federalState":{"key":"03","name":"Niedersachsen"}},{"name":"Mittelstr.","postalCode":"27639","locality":"Wurster Nordseeküste","municipality":{"key":"03352061","name":"Wurster Nordseeküste","type":"Kreisangehörige_Gemeinde"},"district":{"key":"03352","name":"Cuxhaven","type":"Landkreis"},"federalState":{"key":"03","name":"Niedersachsen"}},{"name":"Möhlenpad","postalCode":"27639","locality":"Wurster Nordseeküste","municipality":{"key":"03352061","name":"Wurster Nordseeküste","type":"Kreisangehörige_Gemeinde"},"district":{"key":"03352","name":"Cuxhaven","type":"Landkreis"},"federalState":{"key":"03","name":"Niedersachsen"}},{"name":"Mojeweg","postalCode":"27639","locality":"Wurster Nordseeküste","municipality":{"key":"03352061","name":"Wurster Nordseeküste","type":"Kreisangehörige_Gemeinde"},"district":{"key":"03352","name":"Cuxhaven","type":"Landkreis"},"federalState":{"key":"03","name":"Niedersachsen"}},{"name":"Moorkamp","postalCode":"27639","locality":"Wurster Nordseeküste","municipality":{"key":"03352061","name":"Wurster Nordseeküste","type":"Kreisangehörige_Gemeinde"},"district":{"key":"03352","name":"Cuxhaven","type":"Landkreis"},"federalState":{"key":"03","name":"Niedersachsen"}},{"name":"Möwenweg","postalCode":"27639","locality":"Wurster Nordseeküste","municipality":{"key":"03352061","name":"Wurster Nordseeküste","type":"Kreisangehörige_Gemeinde"},"district":{"key":"03352","name":"Cuxhaven","type":"Landkreis"},"federalState":{"key":"03","name":"Niedersachsen"}},{"name":"Mückenhörn","postalCode":"27639","locality":"Wurster Nordseeküste","municipality":{"key":"03352061","name":"Wurster Nordseeküste","type":"Kreisangehörige_Gemeinde"},"district":{"key":"03352","name":"Cuxhaven","type":"Landkreis"},"federalState":{"key":"03","name":"Niedersachsen"}},{"name":"Mühlenpad","postalCode":"27639","locality":"Wurster Nordseeküste","municipality":{"key":"03352061","name":"Wurster Nordseeküste","type":"Kreisangehörige_Gemeinde"},"district":{"key":"03352","name":"Cuxhaven","type":"Landkreis"},"federalState":{"key":"03","name":"Niedersachsen"}},{"name":"Mühlenstr.","postalCode":"27639","locality":"Wurster Nordseeküste","municipality":{"key":"03352061","name":"Wurster Nordseeküste","type":"Kreisangehörige_Gemeinde"},"district":{"key":"03352","name":"Cuxhaven","type":"Landkreis"},"federalState":{"key":"03","name":"Niedersachsen"}},{"name":"Mühlenweg","postalCode":"27639","locality":"Wurster Nordseeküste","municipality":{"key":"03352061","name":"Wurster Nordseeküste","type":"Kreisangehörige_Gemeinde"},"district":{"key":"03352","name":"Cuxhaven","type":"Landkreis"},"federalState":{"key":"03","name":"Niedersachsen"}},{"name":"Mulsumer Großer Specken","postalCode":"27639","locality":"Wurster Nordseeküste","municipality":{"key":"03352061","name":"Wurster Nordseeküste","type":"Kreisangehörige_Gemeinde"},"district":{"key":"03352","name":"Cuxhaven","type":"Landkreis"},"federalState":{"key":"03","name":"Niedersachsen"}},{"name":"Mulsumer Landstr.","postalCode":"27639","locality":"Wurster Nordseeküste","municipality":{"key":"03352061","name":"Wurster Nordseeküste","type":"Kreisangehörige_Gemeinde"},"district":{"key":"03352","name":"Cuxhaven","type":"Landkreis"},"federalState":{"key":"03","name":"Niedersachsen"}},{"name":"Muschelweg","postalCode":"27639","locality":"Wurster Nordseeküste","municipality":{"key":"03352061","name":"Wurster Nordseeküste","type":"Kreisangehörige_Gemeinde"},"district":{"key":"03352","name":"Cuxhaven","type":"Landkreis"},"federalState":{"key":"03","name":"Niedersachsen"}},{"name":"Nelkenweg","postalCode":"27639","locality":"Wurster Nordseeküste","municipality":{"key":"03352061","name":"Wurster Nordseeküste","type":"Kreisangehörige_Gemeinde"},"district":{"key":"03352","name":"Cuxhaven","type":"Landkreis"},"federalState":{"key":"03","name":"Niedersachsen"}},{"name":"Neuenwalder Weg","postalCode":"27639","locality":"Wurster Nordseeküste","municipality":{"key":"03352061","name":"Wurster Nordseeküste","type":"Kreisangehörige_Gemeinde"},"district":{"key":"03352","name":"Cuxhaven","type":"Landkreis"},"federalState":{"key":"03","name":"Niedersachsen"}},{"name":"Neuer Weg","postalCode":"27639","locality":"Wurster Nordseeküste","municipality":{"key":"03352061","name":"Wurster Nordseeküste","type":"Kreisangehörige_Gemeinde"},"district":{"key":"03352","name":"Cuxhaven","type":"Landkreis"},"federalState":{"key":"03","name":"Niedersachsen"}},{"name":"Neue Trift","postalCode":"27639","locality":"Wurster Nordseeküste","municipality":{"key":"03352061","name":"Wurster Nordseeküste","type":"Kreisangehörige_Gemeinde"},"district":{"key":"03352","name":"Cuxhaven","type":"Landkreis"},"federalState":{"key":"03","name":"Niedersachsen"}},{"name":"Niederende","postalCode":"27639","locality":"Wurster Nordseeküste","municipality":{"key":"03352061","name":"Wurster Nordseeküste","type":"Kreisangehörige_Gemeinde"},"district":{"key":"03352","name":"Cuxhaven","type":"Landkreis"},"federalState":{"key":"03","name":"Niedersachsen"}},{"name":"Nordende","postalCode":"27639","locality":"Wurster Nordseeküste","municipality":{"key":"03352061","name":"Wurster Nordseeküste","type":"Kreisangehörige_Gemeinde"},"district":{"key":"03352","name":"Cuxhaven","type":"Landkreis"},"federalState":{"key":"03","name":"Niedersachsen"}},{"name":"Norder Steinweg","postalCode":"27639","locality":"Wurster Nordseeküste","municipality":{"key":"03352061","name":"Wurster Nordseeküste","type":"Kreisangehörige_Gemeinde"},"district":{"key":"03352","name":"Cuxhaven","type":"Landkreis"},"federalState":{"key":"03","name":"Niedersachsen"}},{"name":"Nordholzer Weg","postalCode":"27639","locality":"Wurster Nordseeküste","municipality":{"key":"03352061","name":"Wurster Nordseeküste","type":"Kreisangehörige_Gemeinde"},"district":{"key":"03352","name":"Cuxhaven","type":"Landkreis"},"federalState":{"key":"03","name":"Niedersachsen"}},{"name":"Nordweg","postalCode":"27639","locality":"Wurster Nordseeküste","municipality":{"key":"03352061","name":"Wurster Nordseeküste","type":"Kreisangehörige_Gemeinde"},"district":{"key":"03352","name":"Cuxhaven","type":"Landkreis"},"federalState":{"key":"03","name":"Niedersachsen"}},{"name":"Northumer Weg","postalCode":"27639","locality":"Wurster Nordseeküste","municipality":{"key":"03352061","name":"Wurster Nordseeküste","type":"Kreisangehörige_Gemeinde"},"district":{"key":"03352","name":"Cuxhaven","type":"Landkreis"},"federalState":{"key":"03","name":"Niedersachsen"}},{"name":"Oberende","postalCode":"27639","locality":"Wurster Nordseeküste","municipality":{"key":"03352061","name":"Wurster Nordseeküste","type":"Kreisangehörige_Gemeinde"},"district":{"key":"03352","name":"Cuxhaven","type":"Landkreis"},"federalState":{"key":"03","name":"Niedersachsen"}},{"name":"Oberhausen","postalCode":"27639","locality":"Wurster Nordseeküste","municipality":{"key":"03352061","name":"Wurster Nordseeküste","type":"Kreisangehörige_Gemeinde"},"district":{"key":"03352","name":"Cuxhaven","type":"Landkreis"},"federalState":{"key":"03","name":"Niedersachsen"}},{"name":"Oberknill","postalCode":"27639","locality":"Wurster Nordseeküste","municipality":{"key":"03352061","name":"Wurster Nordseeküste","type":"Kreisangehörige_Gemeinde"},"district":{"key":"03352","name":"Cuxhaven","type":"Landkreis"},"federalState":{"key":"03","name":"Niedersachsen"}},{"name":"Oberweg","postalCode":"27639","locality":"Wurster Nordseeküste","municipality":{"key":"03352061","name":"Wurster Nordseeküste","type":"Kreisangehörige_Gemeinde"},"district":{"key":"03352","name":"Cuxhaven","type":"Landkreis"},"federalState":{"key":"03","name":"Niedersachsen"}},{"name":"Ochsenhammsweg","postalCode":"27639","locality":"Wurster Nordseeküste","municipality":{"key":"03352061","name":"Wurster Nordseeküste","type":"Kreisangehörige_Gemeinde"},"district":{"key":"03352","name":"Cuxhaven","type":"Landkreis"},"federalState":{"key":"03","name":"Niedersachsen"}},{"name":"Oderstr.","postalCode":"27639","locality":"Wurster Nordseeküste","municipality":{"key":"03352061","name":"Wurster Nordseeküste","type":"Kreisangehörige_Gemeinde"},"district":{"key":"03352","name":"Cuxhaven","type":"Landkreis"},"federalState":{"key":"03","name":"Niedersachsen"}},{"name":"Oldendorffstr.","postalCode":"27639","locality":"Wurster Nordseeküste","municipality":{"key":"03352061","name":"Wurster Nordseeküste","type":"Kreisangehörige_Gemeinde"},"district":{"key":"03352","name":"Cuxhaven","type":"Landkreis"},"federalState":{"key":"03","name":"Niedersachsen"}},{"name":"Opi-Huck-Stroot","postalCode":"27639","locality":"Wurster Nordseeküste","municipality":{"key":"03352061","name":"Wurster Nordseeküste","type":"Kreisangehörige_Gemeinde"},"district":{"key":"03352","name":"Cuxhaven","type":"Landkreis"},"federalState":{"key":"03","name":"Niedersachsen"}},{"name":"Organistenweg","postalCode":"27639","locality":"Wurster Nordseeküste","municipality":{"key":"03352061","name":"Wurster Nordseeküste","type":"Kreisangehörige_Gemeinde"},"district":{"key":"03352","name":"Cuxhaven","type":"Landkreis"},"federalState":{"key":"03","name":"Niedersachsen"}},{"name":"Osterbüttel","postalCode":"27639","locality":"Wurster Nordseeküste","municipality":{"key":"03352061","name":"Wurster Nordseeküste","type":"Kreisangehörige_Gemeinde"},"district":{"key":"03352","name":"Cuxhaven","type":"Landkreis"},"federalState":{"key":"03","name":"Niedersachsen"}},{"name":"Osterndorffsweg","postalCode":"27639","locality":"Wurster Nordseeküste","municipality":{"key":"03352061","name":"Wurster Nordseeküste","type":"Kreisangehörige_Gemeinde"},"district":{"key":"03352","name":"Cuxhaven","type":"Landkreis"},"federalState":{"key":"03","name":"Niedersachsen"}},{"name":"Osterstr.","postalCode":"27639","locality":"Wurster Nordseeküste","municipality":{"key":"03352061","name":"Wurster Nordseeküste","type":"Kreisangehörige_Gemeinde"},"district":{"key":"03352","name":"Cuxhaven","type":"Landkreis"},"federalState":{"key":"03","name":"Niedersachsen"}},{"name":"Ostertill","postalCode":"27639","locality":"Wurster Nordseeküste","municipality":{"key":"03352061","name":"Wurster Nordseeküste","type":"Kreisangehörige_Gemeinde"},"district":{"key":"03352","name":"Cuxhaven","type":"Landkreis"},"federalState":{"key":"03","name":"Niedersachsen"}},{"name":"Ostpreußenstr.","postalCode":"27639","locality":"Wurster Nordseeküste","municipality":{"key":"03352061","name":"Wurster Nordseeküste","type":"Kreisangehörige_Gemeinde"},"district":{"key":"03352","name":"Cuxhaven","type":"Landkreis"},"federalState":{"key":"03","name":"Niedersachsen"}},{"name":"Ostpreußenweg","postalCode":"27639","locality":"Wurster Nordseeküste","municipality":{"key":"03352061","name":"Wurster Nordseeküste","type":"Kreisangehörige_Gemeinde"},"district":{"key":"03352","name":"Cuxhaven","type":"Landkreis"},"federalState":{"key":"03","name":"Niedersachsen"}},{"name":"Otto-Lilienthal-Str.","postalCode":"27639","locality":"Wurster Nordseeküste","municipality":{"key":"03352061","name":"Wurster Nordseeküste","type":"Kreisangehörige_Gemeinde"},"district":{"key":"03352","name":"Cuxhaven","type":"Landkreis"},"federalState":{"key":"03","name":"Niedersachsen"}},{"name":"Otto-Thalmann-Str.","postalCode":"27639","locality":"Wurster Nordseeküste","municipality":{"key":"03352061","name":"Wurster Nordseeküste","type":"Kreisangehörige_Gemeinde"},"district":{"key":"03352","name":"Cuxhaven","type":"Landkreis"},"federalState":{"key":"03","name":"Niedersachsen"}},{"name":"Oxstedter Weg","postalCode":"27639","locality":"Wurster Nordseeküste","municipality":{"key":"03352061","name":"Wurster Nordseeküste","type":"Kreisangehörige_Gemeinde"},"district":{"key":"03352","name":"Cuxhaven","type":"Landkreis"},"federalState":{"key":"03","name":"Niedersachsen"}},{"name":"Oxter Flage","postalCode":"27639","locality":"Wurster Nordseeküste","municipality":{"key":"03352061","name":"Wurster Nordseeküste","type":"Kreisangehörige_Gemeinde"},"district":{"key":"03352","name":"Cuxhaven","type":"Landkreis"},"federalState":{"key":"03","name":"Niedersachsen"}},{"name":"Padingbütteler Altendeich","postalCode":"27639","locality":"Wurster Nordseeküste","municipality":{"key":"03352061","name":"Wurster Nordseeküste","type":"Kreisangehörige_Gemeinde"},"district":{"key":"03352","name":"Cuxhaven","type":"Landkreis"},"federalState":{"key":"03","name":"Niedersachsen"}},{"name":"Padingbütteler Specken","postalCode":"27639","locality":"Wurster Nordseeküste","municipality":{"key":"03352061","name":"Wurster Nordseeküste","type":"Kreisangehörige_Gemeinde"},"district":{"key":"03352","name":"Cuxhaven","type":"Landkreis"},"federalState":{"key":"03","name":"Niedersachsen"}},{"name":"Padingbütteler Strich","postalCode":"27639","locality":"Wurster Nordseeküste","municipality":{"key":"03352061","name":"Wurster Nordseeküste","type":"Kreisangehörige_Gemeinde"},"district":{"key":"03352","name":"Cuxhaven","type":"Landkreis"},"federalState":{"key":"03","name":"Niedersachsen"}},{"name":"Pastorenweg","postalCode":"27639","locality":"Wurster Nordseeküste","municipality":{"key":"03352061","name":"Wurster Nordseeküste","type":"Kreisangehörige_Gemeinde"},"district":{"key":"03352","name":"Cuxhaven","type":"Landkreis"},"federalState":{"key":"03","name":"Niedersachsen"}},{"name":"Pastor-Möller-Weg","postalCode":"27639","locality":"Wurster Nordseeküste","municipality":{"key":"03352061","name":"Wurster Nordseeküste","type":"Kreisangehörige_Gemeinde"},"district":{"key":"03352","name":"Cuxhaven","type":"Landkreis"},"federalState":{"key":"03","name":"Niedersachsen"}},{"name":"Peter-Strasser-Platz","postalCode":"27639","locality":"Wurster Nordseeküste","municipality":{"key":"03352061","name":"Wurster Nordseeküste","type":"Kreisangehörige_Gemeinde"},"district":{"key":"03352","name":"Cuxhaven","type":"Landkreis"},"federalState":{"key":"03","name":"Niedersachsen"}},{"name":"Pickerstr.","postalCode":"27639","locality":"Wurster Nordseeküste","municipality":{"key":"03352061","name":"Wurster Nordseeküste","type":"Kreisangehörige_Gemeinde"},"district":{"key":"03352","name":"Cuxhaven","type":"Landkreis"},"federalState":{"key":"03","name":"Niedersachsen"}},{"name":"Pommernstr.","postalCode":"27639","locality":"Wurster Nordseeküste","municipality":{"key":"03352061","name":"Wurster Nordseeküste","type":"Kreisangehörige_Gemeinde"},"district":{"key":"03352","name":"Cuxhaven","type":"Landkreis"},"federalState":{"key":"03","name":"Niedersachsen"}},{"name":"Posener Str.","postalCode":"27639","locality":"Wurster Nordseeküste","municipality":{"key":"03352061","name":"Wurster Nordseeküste","type":"Kreisangehörige_Gemeinde"},"district":{"key":"03352","name":"Cuxhaven","type":"Landkreis"},"federalState":{"key":"03","name":"Niedersachsen"}},{"name":"Poststr.","postalCode":"27639","locality":"Wurster Nordseeküste","municipality":{"key":"03352061","name":"Wurster Nordseeküste","type":"Kreisangehörige_Gemeinde"},"district":{"key":"03352","name":"Cuxhaven","type":"Landkreis"},"federalState":{"key":"03","name":"Niedersachsen"}},{"name":"Querflaggen","postalCode":"27478","locality":"Cuxhaven","municipality":{"key":"03352011","name":"Cuxhaven, Stadt","type":"Stadt"},"district":{"key":"03352","name":"Cuxhaven","type":"Landkreis"},"federalState":{"key":"03","name":"Niedersachsen"}},{"name":"Rebhuhnweg","postalCode":"27639","locality":"Wurster Nordseeküste","municipality":{"key":"03352061","name":"Wurster Nordseeküste","type":"Kreisangehörige_Gemeinde"},"district":{"key":"03352","name":"Cuxhaven","type":"Landkreis"},"federalState":{"key":"03","name":"Niedersachsen"}},{"name":"Reiherweg","postalCode":"27639","locality":"Wurster Nordseeküste","municipality":{"key":"03352061","name":"Wurster Nordseeküste","type":"Kreisangehörige_Gemeinde"},"district":{"key":"03352","name":"Cuxhaven","type":"Landkreis"},"federalState":{"key":"03","name":"Niedersachsen"}},{"name":"Repsoldstr.","postalCode":"27639","locality":"Wurster Nordseeküste","municipality":{"key":"03352061","name":"Wurster Nordseeküste","type":"Kreisangehörige_Gemeinde"},"district":{"key":"03352","name":"Cuxhaven","type":"Landkreis"},"federalState":{"key":"03","name":"Niedersachsen"}},{"name":"Reuters Hof","postalCode":"27639","locality":"Wurster Nordseeküste","municipality":{"key":"03352061","name":"Wurster Nordseeküste","type":"Kreisangehörige_Gemeinde"},"district":{"key":"03352","name":"Cuxhaven","type":"Landkreis"},"federalState":{"key":"03","name":"Niedersachsen"}},{"name":"Rielker Weg","postalCode":"27639","locality":"Wurster Nordseeküste","municipality":{"key":"03352061","name":"Wurster Nordseeküste","type":"Kreisangehörige_Gemeinde"},"district":{"key":"03352","name":"Cuxhaven","type":"Landkreis"},"federalState":{"key":"03","name":"Niedersachsen"}},{"name":"Ringstr.","postalCode":"27639","locality":"Wurster Nordseeküste","municipality":{"key":"03352061","name":"Wurster Nordseeküste","type":"Kreisangehörige_Gemeinde"},"district":{"key":"03352","name":"Cuxhaven","type":"Landkreis"},"federalState":{"key":"03","name":"Niedersachsen"}},{"name":"Robert-Wiebalck-Str.","postalCode":"27639","locality":"Wurster Nordseeküste","municipality":{"key":"03352061","name":"Wurster Nordseeküste","type":"Kreisangehörige_Gemeinde"},"district":{"key":"03352","name":"Cuxhaven","type":"Landkreis"},"federalState":{"key":"03","name":"Niedersachsen"}},{"name":"Robinsbalje","postalCode":"27639","locality":"Wurster Nordseeküste","municipality":{"key":"03352061","name":"Wurster Nordseeküste","type":"Kreisangehörige_Gemeinde"},"district":{"key":"03352","name":"Cuxhaven","type":"Landkreis"},"federalState":{"key":"03","name":"Niedersachsen"}},{"name":"Rolf-Dircksen-Weg","postalCode":"27639","locality":"Wurster Nordseeküste","municipality":{"key":"03352061","name":"Wurster Nordseeküste","type":"Kreisangehörige_Gemeinde"},"district":{"key":"03352","name":"Cuxhaven","type":"Landkreis"},"federalState":{"key":"03","name":"Niedersachsen"}},{"name":"Rosengasse","postalCode":"27639","locality":"Wurster Nordseeküste","municipality":{"key":"03352061","name":"Wurster Nordseeküste","type":"Kreisangehörige_Gemeinde"},"district":{"key":"03352","name":"Cuxhaven","type":"Landkreis"},"federalState":{"key":"03","name":"Niedersachsen"}},{"name":"Rosenstr.","postalCode":"27639","locality":"Wurster Nordseeküste","municipality":{"key":"03352061","name":"Wurster Nordseeküste","type":"Kreisangehörige_Gemeinde"},"district":{"key":"03352","name":"Cuxhaven","type":"Landkreis"},"federalState":{"key":"03","name":"Niedersachsen"}},{"name":"Rosenweg","postalCode":"27639","locality":"Wurster Nordseeküste","municipality":{"key":"03352061","name":"Wurster Nordseeküste","type":"Kreisangehörige_Gemeinde"},"district":{"key":"03352","name":"Cuxhaven","type":"Landkreis"},"federalState":{"key":"03","name":"Niedersachsen"}},{"name":"Rotkehlchenweg","postalCode":"27639","locality":"Wurster Nordseeküste","municipality":{"key":"03352061","name":"Wurster Nordseeküste","type":"Kreisangehörige_Gemeinde"},"district":{"key":"03352","name":"Cuxhaven","type":"Landkreis"},"federalState":{"key":"03","name":"Niedersachsen"}},{"name":"Rotthausener Weg","postalCode":"27639","locality":"Wurster Nordseeküste","municipality":{"key":"03352061","name":"Wurster Nordseeküste","type":"Kreisangehörige_Gemeinde"},"district":{"key":"03352","name":"Cuxhaven","type":"Landkreis"},"federalState":{"key":"03","name":"Niedersachsen"}},{"name":"Rottland","postalCode":"27639","locality":"Wurster Nordseeküste","municipality":{"key":"03352061","name":"Wurster Nordseeküste","type":"Kreisangehörige_Gemeinde"},"district":{"key":"03352","name":"Cuxhaven","type":"Landkreis"},"federalState":{"key":"03","name":"Niedersachsen"}},{"name":"Rugenmoor","postalCode":"27639","locality":"Wurster Nordseeküste","municipality":{"key":"03352061","name":"Wurster Nordseeküste","type":"Kreisangehörige_Gemeinde"},"district":{"key":"03352","name":"Cuxhaven","type":"Landkreis"},"federalState":{"key":"03","name":"Niedersachsen"}},{"name":"Sandweg","postalCode":"27639","locality":"Wurster Nordseeküste","municipality":{"key":"03352061","name":"Wurster Nordseeküste","type":"Kreisangehörige_Gemeinde"},"district":{"key":"03352","name":"Cuxhaven","type":"Landkreis"},"federalState":{"key":"03","name":"Niedersachsen"}},{"name":"Sanitätsrat-Becker-Str.","postalCode":"27639","locality":"Wurster Nordseeküste","municipality":{"key":"03352061","name":"Wurster Nordseeküste","type":"Kreisangehörige_Gemeinde"},"district":{"key":"03352","name":"Cuxhaven","type":"Landkreis"},"federalState":{"key":"03","name":"Niedersachsen"}},{"name":"Schafweg","postalCode":"27639","locality":"Wurster Nordseeküste","municipality":{"key":"03352061","name":"Wurster Nordseeküste","type":"Kreisangehörige_Gemeinde"},"district":{"key":"03352","name":"Cuxhaven","type":"Landkreis"},"federalState":{"key":"03","name":"Niedersachsen"}},{"name":"Scharnstedter Weg","postalCode":"27639","locality":"Wurster Nordseeküste","municipality":{"key":"03352061","name":"Wurster Nordseeküste","type":"Kreisangehörige_Gemeinde"},"district":{"key":"03352","name":"Cuxhaven","type":"Landkreis"},"federalState":{"key":"03","name":"Niedersachsen"}},{"name":"Schmarrener Nordweg","postalCode":"27639","locality":"Wurster Nordseeküste","municipality":{"key":"03352061","name":"Wurster Nordseeküste","type":"Kreisangehörige_Gemeinde"},"district":{"key":"03352","name":"Cuxhaven","type":"Landkreis"},"federalState":{"key":"03","name":"Niedersachsen"}},{"name":"Schmarrener Südweg","postalCode":"27639","locality":"Wurster Nordseeküste","municipality":{"key":"03352061","name":"Wurster Nordseeküste","type":"Kreisangehörige_Gemeinde"},"district":{"key":"03352","name":"Cuxhaven","type":"Landkreis"},"federalState":{"key":"03","name":"Niedersachsen"}},{"name":"Schmuggelpfad","postalCode":"27639","locality":"Wurster Nordseeküste","municipality":{"key":"03352061","name":"Wurster Nordseeküste","type":"Kreisangehörige_Gemeinde"},"district":{"key":"03352","name":"Cuxhaven","type":"Landkreis"},"federalState":{"key":"03","name":"Niedersachsen"}},{"name":"Schoopstrift","postalCode":"27639","locality":"Wurster Nordseeküste","municipality":{"key":"03352061","name":"Wurster Nordseeküste","type":"Kreisangehörige_Gemeinde"},"district":{"key":"03352","name":"Cuxhaven","type":"Landkreis"},"federalState":{"key":"03","name":"Niedersachsen"}},{"name":"Schulstr.","postalCode":"27639","locality":"Wurster Nordseeküste","municipality":{"key":"03352061","name":"Wurster Nordseeküste","type":"Kreisangehörige_Gemeinde"},"district":{"key":"03352","name":"Cuxhaven","type":"Landkreis"},"federalState":{"key":"03","name":"Niedersachsen"}},{"name":"Schulweg","postalCode":"27639","locality":"Wurster Nordseeküste","municipality":{"key":"03352061","name":"Wurster Nordseeküste","type":"Kreisangehörige_Gemeinde"},"district":{"key":"03352","name":"Cuxhaven","type":"Landkreis"},"federalState":{"key":"03","name":"Niedersachsen"}},{"name":"Schütte-Lanz-Weg","postalCode":"27639","locality":"Wurster Nordseeküste","municipality":{"key":"03352061","name":"Wurster Nordseeküste","type":"Kreisangehörige_Gemeinde"},"district":{"key":"03352","name":"Cuxhaven","type":"Landkreis"},"federalState":{"key":"03","name":"Niedersachsen"}},{"name":"Schwalbenstieg","postalCode":"27639","locality":"Wurster Nordseeküste","municipality":{"key":"03352061","name":"Wurster Nordseeküste","type":"Kreisangehörige_Gemeinde"},"district":{"key":"03352","name":"Cuxhaven","type":"Landkreis"},"federalState":{"key":"03","name":"Niedersachsen"}},{"name":"Schwester-Anna-Str.","postalCode":"27639","locality":"Wurster Nordseeküste","municipality":{"key":"03352061","name":"Wurster Nordseeküste","type":"Kreisangehörige_Gemeinde"},"district":{"key":"03352","name":"Cuxhaven","type":"Landkreis"},"federalState":{"key":"03","name":"Niedersachsen"}},{"name":"Seeadlerweg","postalCode":"27639","locality":"Wurster Nordseeküste","municipality":{"key":"03352061","name":"Wurster Nordseeküste","type":"Kreisangehörige_Gemeinde"},"district":{"key":"03352","name":"Cuxhaven","type":"Landkreis"},"federalState":{"key":"03","name":"Niedersachsen"}},{"name":"Seeschwalbenweg","postalCode":"27639","locality":"Wurster Nordseeküste","municipality":{"key":"03352061","name":"Wurster Nordseeküste","type":"Kreisangehörige_Gemeinde"},"district":{"key":"03352","name":"Cuxhaven","type":"Landkreis"},"federalState":{"key":"03","name":"Niedersachsen"}},{"name":"Sichterweg","postalCode":"27639","locality":"Wurster Nordseeküste","municipality":{"key":"03352061","name":"Wurster Nordseeküste","type":"Kreisangehörige_Gemeinde"},"district":{"key":"03352","name":"Cuxhaven","type":"Landkreis"},"federalState":{"key":"03","name":"Niedersachsen"}},{"name":"Siedlerweg","postalCode":"27639","locality":"Wurster Nordseeküste","municipality":{"key":"03352061","name":"Wurster Nordseeküste","type":"Kreisangehörige_Gemeinde"},"district":{"key":"03352","name":"Cuxhaven","type":"Landkreis"},"federalState":{"key":"03","name":"Niedersachsen"}},{"name":"Sieltrift","postalCode":"27639","locality":"Wurster Nordseeküste","municipality":{"key":"03352061","name":"Wurster Nordseeküste","type":"Kreisangehörige_Gemeinde"},"district":{"key":"03352","name":"Cuxhaven","type":"Landkreis"},"federalState":{"key":"03","name":"Niedersachsen"}},{"name":"Sieverner Specken","postalCode":"27639","locality":"Wurster Nordseeküste","municipality":{"key":"03352061","name":"Wurster Nordseeküste","type":"Kreisangehörige_Gemeinde"},"district":{"key":"03352","name":"Cuxhaven","type":"Landkreis"},"federalState":{"key":"03","name":"Niedersachsen"}},{"name":"Sodacker","postalCode":"27639","locality":"Wurster Nordseeküste","municipality":{"key":"03352061","name":"Wurster Nordseeküste","type":"Kreisangehörige_Gemeinde"},"district":{"key":"03352","name":"Cuxhaven","type":"Landkreis"},"federalState":{"key":"03","name":"Niedersachsen"}},{"name":"Sorthum","postalCode":"27639","locality":"Wurster Nordseeküste","municipality":{"key":"03352061","name":"Wurster Nordseeküste","type":"Kreisangehörige_Gemeinde"},"district":{"key":"03352","name":"Cuxhaven","type":"Landkreis"},"federalState":{"key":"03","name":"Niedersachsen"}},{"name":"Specken","postalCode":"27639","locality":"Wurster Nordseeküste","municipality":{"key":"03352061","name":"Wurster Nordseeküste","type":"Kreisangehörige_Gemeinde"},"district":{"key":"03352","name":"Cuxhaven","type":"Landkreis"},"federalState":{"key":"03","name":"Niedersachsen"}},{"name":"Speckenstr.","postalCode":"27639","locality":"Wurster Nordseeküste","municipality":{"key":"03352061","name":"Wurster Nordseeküste","type":"Kreisangehörige_Gemeinde"},"district":{"key":"03352","name":"Cuxhaven","type":"Landkreis"},"federalState":{"key":"03","name":"Niedersachsen"}},{"name":"Spieka-Booth","postalCode":"27639","locality":"Wurster Nordseeküste","municipality":{"key":"03352061","name":"Wurster Nordseeküste","type":"Kreisangehörige_Gemeinde"},"district":{"key":"03352","name":"Cuxhaven","type":"Landkreis"},"federalState":{"key":"03","name":"Niedersachsen"}},{"name":"Spiekaer Kirchweg","postalCode":"27639","locality":"Wurster Nordseeküste","municipality":{"key":"03352061","name":"Wurster Nordseeküste","type":"Kreisangehörige_Gemeinde"},"district":{"key":"03352","name":"Cuxhaven","type":"Landkreis"},"federalState":{"key":"03","name":"Niedersachsen"}},{"name":"Steinau","postalCode":"27639","locality":"Wurster Nordseeküste","municipality":{"key":"03352061","name":"Wurster Nordseeküste","type":"Kreisangehörige_Gemeinde"},"district":{"key":"03352","name":"Cuxhaven","type":"Landkreis"},"federalState":{"key":"03","name":"Niedersachsen"}},{"name":"Stettiner Str.","postalCode":"27639","locality":"Wurster Nordseeküste","municipality":{"key":"03352061","name":"Wurster Nordseeküste","type":"Kreisangehörige_Gemeinde"},"district":{"key":"03352","name":"Cuxhaven","type":"Landkreis"},"federalState":{"key":"03","name":"Niedersachsen"}},{"name":"Stockentenweg","postalCode":"27639","locality":"Wurster Nordseeküste","municipality":{"key":"03352061","name":"Wurster Nordseeküste","type":"Kreisangehörige_Gemeinde"},"district":{"key":"03352","name":"Cuxhaven","type":"Landkreis"},"federalState":{"key":"03","name":"Niedersachsen"}},{"name":"Storchenweg","postalCode":"27639","locality":"Wurster Nordseeküste","municipality":{"key":"03352061","name":"Wurster Nordseeküste","type":"Kreisangehörige_Gemeinde"},"district":{"key":"03352","name":"Cuxhaven","type":"Landkreis"},"federalState":{"key":"03","name":"Niedersachsen"}},{"name":"Strandläuferweg","postalCode":"27639","locality":"Wurster Nordseeküste","municipality":{"key":"03352061","name":"Wurster Nordseeküste","type":"Kreisangehörige_Gemeinde"},"district":{"key":"03352","name":"Cuxhaven","type":"Landkreis"},"federalState":{"key":"03","name":"Niedersachsen"}},{"name":"Strandstr.","postalCode":"27639","locality":"Wurster Nordseeküste","municipality":{"key":"03352061","name":"Wurster Nordseeküste","type":"Kreisangehörige_Gemeinde"},"district":{"key":"03352","name":"Cuxhaven","type":"Landkreis"},"federalState":{"key":"03","name":"Niedersachsen"}},{"name":"Strompfad","postalCode":"27639","locality":"Wurster Nordseeküste","municipality":{"key":"03352061","name":"Wurster Nordseeküste","type":"Kreisangehörige_Gemeinde"},"district":{"key":"03352","name":"Cuxhaven","type":"Landkreis"},"federalState":{"key":"03","name":"Niedersachsen"}},{"name":"Süderberg","postalCode":"27639","locality":"Wurster Nordseeküste","municipality":{"key":"03352061","name":"Wurster Nordseeküste","type":"Kreisangehörige_Gemeinde"},"district":{"key":"03352","name":"Cuxhaven","type":"Landkreis"},"federalState":{"key":"03","name":"Niedersachsen"}},{"name":"Südermarren","postalCode":"27639","locality":"Wurster Nordseeküste","municipality":{"key":"03352061","name":"Wurster Nordseeküste","type":"Kreisangehörige_Gemeinde"},"district":{"key":"03352","name":"Cuxhaven","type":"Landkreis"},"federalState":{"key":"03","name":"Niedersachsen"}},{"name":"Süder Steinweg","postalCode":"27639","locality":"Wurster Nordseeküste","municipality":{"key":"03352061","name":"Wurster Nordseeküste","type":"Kreisangehörige_Gemeinde"},"district":{"key":"03352","name":"Cuxhaven","type":"Landkreis"},"federalState":{"key":"03","name":"Niedersachsen"}},{"name":"Süderwarden","postalCode":"27639","locality":"Wurster Nordseeküste","municipality":{"key":"03352061","name":"Wurster Nordseeküste","type":"Kreisangehörige_Gemeinde"},"district":{"key":"03352","name":"Cuxhaven","type":"Landkreis"},"federalState":{"key":"03","name":"Niedersachsen"}},{"name":"Südstr.","postalCode":"27639","locality":"Wurster Nordseeküste","municipality":{"key":"03352061","name":"Wurster Nordseeküste","type":"Kreisangehörige_Gemeinde"},"district":{"key":"03352","name":"Cuxhaven","type":"Landkreis"},"federalState":{"key":"03","name":"Niedersachsen"}},{"name":"Taubenring","postalCode":"27639","locality":"Wurster Nordseeküste","municipality":{"key":"03352061","name":"Wurster Nordseeküste","type":"Kreisangehörige_Gemeinde"},"district":{"key":"03352","name":"Cuxhaven","type":"Landkreis"},"federalState":{"key":"03","name":"Niedersachsen"}},{"name":"Tebel","postalCode":"27639","locality":"Wurster Nordseeküste","municipality":{"key":"03352061","name":"Wurster Nordseeküste","type":"Kreisangehörige_Gemeinde"},"district":{"key":"03352","name":"Cuxhaven","type":"Landkreis"},"federalState":{"key":"03","name":"Niedersachsen"}},{"name":"Tegeler Rinne","postalCode":"27639","locality":"Wurster Nordseeküste","municipality":{"key":"03352061","name":"Wurster Nordseeküste","type":"Kreisangehörige_Gemeinde"},"district":{"key":"03352","name":"Cuxhaven","type":"Landkreis"},"federalState":{"key":"03","name":"Niedersachsen"}},{"name":"Tjede-Peckes-Str.","postalCode":"27639","locality":"Wurster Nordseeküste","municipality":{"key":"03352061","name":"Wurster Nordseeküste","type":"Kreisangehörige_Gemeinde"},"district":{"key":"03352","name":"Cuxhaven","type":"Landkreis"},"federalState":{"key":"03","name":"Niedersachsen"}},{"name":"Tjüchenweg","postalCode":"27639","locality":"Wurster Nordseeküste","municipality":{"key":"03352061","name":"Wurster Nordseeküste","type":"Kreisangehörige_Gemeinde"},"district":{"key":"03352","name":"Cuxhaven","type":"Landkreis"},"federalState":{"key":"03","name":"Niedersachsen"}},{"name":"Tulpenweg","postalCode":"27639","locality":"Wurster Nordseeküste","municipality":{"key":"03352061","name":"Wurster Nordseeküste","type":"Kreisangehörige_Gemeinde"},"district":{"key":"03352","name":"Cuxhaven","type":"Landkreis"},"federalState":{"key":"03","name":"Niedersachsen"}},{"name":"Twendammer Weg","postalCode":"27639","locality":"Wurster Nordseeküste","municipality":{"key":"03352061","name":"Wurster Nordseeküste","type":"Kreisangehörige_Gemeinde"},"district":{"key":"03352","name":"Cuxhaven","type":"Landkreis"},"federalState":{"key":"03","name":"Niedersachsen"}},{"name":"Ulmenweg","postalCode":"27639","locality":"Wurster Nordseeküste","municipality":{"key":"03352061","name":"Wurster Nordseeküste","type":"Kreisangehörige_Gemeinde"},"district":{"key":"03352","name":"Cuxhaven","type":"Landkreis"},"federalState":{"key":"03","name":"Niedersachsen"}},{"name":"Valge","postalCode":"27639","locality":"Wurster Nordseeküste","municipality":{"key":"03352061","name":"Wurster Nordseeküste","type":"Kreisangehörige_Gemeinde"},"district":{"key":"03352","name":"Cuxhaven","type":"Landkreis"},"federalState":{"key":"03","name":"Niedersachsen"}},{"name":"Valger Landstr.","postalCode":"27639","locality":"Wurster Nordseeküste","municipality":{"key":"03352061","name":"Wurster Nordseeküste","type":"Kreisangehörige_Gemeinde"},"district":{"key":"03352","name":"Cuxhaven","type":"Landkreis"},"federalState":{"key":"03","name":"Niedersachsen"}},{"name":"Valger Weg","postalCode":"27639","locality":"Wurster Nordseeküste","municipality":{"key":"03352061","name":"Wurster Nordseeküste","type":"Kreisangehörige_Gemeinde"},"district":{"key":"03352","name":"Cuxhaven","type":"Landkreis"},"federalState":{"key":"03","name":"Niedersachsen"}},{"name":"Vincent-Lübeck-Str.","postalCode":"27639","locality":"Wurster Nordseeküste","municipality":{"key":"03352061","name":"Wurster Nordseeküste","type":"Kreisangehörige_Gemeinde"},"district":{"key":"03352","name":"Cuxhaven","type":"Landkreis"},"federalState":{"key":"03","name":"Niedersachsen"}},{"name":"Von-Lehe-Str.","postalCode":"27639","locality":"Wurster Nordseeküste","municipality":{"key":"03352061","name":"Wurster Nordseeküste","type":"Kreisangehörige_Gemeinde"},"district":{"key":"03352","name":"Cuxhaven","type":"Landkreis"},"federalState":{"key":"03","name":"Niedersachsen"}},{"name":"Vorderkamp","postalCode":"27639","locality":"Wurster Nordseeküste","municipality":{"key":"03352061","name":"Wurster Nordseeküste","type":"Kreisangehörige_Gemeinde"},"district":{"key":"03352","name":"Cuxhaven","type":"Landkreis"},"federalState":{"key":"03","name":"Niedersachsen"}},{"name":"Waldweg","postalCode":"27639","locality":"Wurster Nordseeküste","municipality":{"key":"03352061","name":"Wurster Nordseeküste","type":"Kreisangehörige_Gemeinde"},"district":{"key":"03352","name":"Cuxhaven","type":"Landkreis"},"federalState":{"key":"03","name":"Niedersachsen"}},{"name":"Walter-Carstens-Str.","postalCode":"27639","locality":"Wurster Nordseeküste","municipality":{"key":"03352061","name":"Wurster Nordseeküste","type":"Kreisangehörige_Gemeinde"},"district":{"key":"03352","name":"Cuxhaven","type":"Landkreis"},"federalState":{"key":"03","name":"Niedersachsen"}},{"name":"Wanhödener Str.","postalCode":"27639","locality":"Wurster Nordseeküste","municipality":{"key":"03352061","name":"Wurster Nordseeküste","type":"Kreisangehörige_Gemeinde"},"district":{"key":"03352","name":"Cuxhaven","type":"Landkreis"},"federalState":{"key":"03","name":"Niedersachsen"}},{"name":"Wanhödener Weg","postalCode":"27639","locality":"Wurster Nordseeküste","municipality":{"key":"03352061","name":"Wurster Nordseeküste","type":"Kreisangehörige_Gemeinde"},"district":{"key":"03352","name":"Cuxhaven","type":"Landkreis"},"federalState":{"key":"03","name":"Niedersachsen"}},{"name":"Wehlstrift","postalCode":"27639","locality":"Wurster Nordseeküste","municipality":{"key":"03352061","name":"Wurster Nordseeküste","type":"Kreisangehörige_Gemeinde"},"district":{"key":"03352","name":"Cuxhaven","type":"Landkreis"},"federalState":{"key":"03","name":"Niedersachsen"}},{"name":"Westertill","postalCode":"27639","locality":"Wurster Nordseeküste","municipality":{"key":"03352061","name":"Wurster Nordseeküste","type":"Kreisangehörige_Gemeinde"},"district":{"key":"03352","name":"Cuxhaven","type":"Landkreis"},"federalState":{"key":"03","name":"Niedersachsen"}},{"name":"Westpreußenstr.","postalCode":"27639","locality":"Wurster Nordseeküste","municipality":{"key":"03352061","name":"Wurster Nordseeküste","type":"Kreisangehörige_Gemeinde"},"district":{"key":"03352","name":"Cuxhaven","type":"Landkreis"},"federalState":{"key":"03","name":"Niedersachsen"}},{"name":"Wierdener Patt","postalCode":"27639","locality":"Wurster Nordseeküste","municipality":{"key":"03352061","name":"Wurster Nordseeküste","type":"Kreisangehörige_Gemeinde"},"district":{"key":"03352","name":"Cuxhaven","type":"Landkreis"},"federalState":{"key":"03","name":"Niedersachsen"}},{"name":"Wierdener Str.","postalCode":"27639","locality":"Wurster Nordseeküste","municipality":{"key":"03352061","name":"Wurster Nordseeküste","type":"Kreisangehörige_Gemeinde"},"district":{"key":"03352","name":"Cuxhaven","type":"Landkreis"},"federalState":{"key":"03","name":"Niedersachsen"}},{"name":"Wiesengasse","postalCode":"27639","locality":"Wurster Nordseeküste","municipality":{"key":"03352061","name":"Wurster Nordseeküste","type":"Kreisangehörige_Gemeinde"},"district":{"key":"03352","name":"Cuxhaven","type":"Landkreis"},"federalState":{"key":"03","name":"Niedersachsen"}},{"name":"Wiesenstr.","postalCode":"27639","locality":"Wurster Nordseeküste","municipality":{"key":"03352061","name":"Wurster Nordseeküste","type":"Kreisangehörige_Gemeinde"},"district":{"key":"03352","name":"Cuxhaven","type":"Landkreis"},"federalState":{"key":"03","name":"Niedersachsen"}},{"name":"Wiesenweg","postalCode":"27639","locality":"Wurster Nordseeküste","municipality":{"key":"03352061","name":"Wurster Nordseeküste","type":"Kreisangehörige_Gemeinde"},"district":{"key":"03352","name":"Cuxhaven","type":"Landkreis"},"federalState":{"key":"03","name":"Niedersachsen"}},{"name":"Wilhelm-Koch-Str.","postalCode":"27639","locality":"Wurster Nordseeküste","municipality":{"key":"03352061","name":"Wurster Nordseeküste","type":"Kreisangehörige_Gemeinde"},"district":{"key":"03352","name":"Cuxhaven","type":"Landkreis"},"federalState":{"key":"03","name":"Niedersachsen"}},{"name":"Wischhausener Weg","postalCode":"27639","locality":"Wurster Nordseeküste","municipality":{"key":"03352061","name":"Wurster Nordseeküste","type":"Kreisangehörige_Gemeinde"},"district":{"key":"03352","name":"Cuxhaven","type":"Landkreis"},"federalState":{"key":"03","name":"Niedersachsen"}},{"name":"Wittsand","postalCode":"27639","locality":"Wurster Nordseeküste","municipality":{"key":"03352061","name":"Wurster Nordseeküste","type":"Kreisangehörige_Gemeinde"},"district":{"key":"03352","name":"Cuxhaven","type":"Landkreis"},"federalState":{"key":"03","name":"Niedersachsen"}},{"name":"Wremer Specken","postalCode":"27639","locality":"Wurster Nordseeküste","municipality":{"key":"03352061","name":"Wurster Nordseeküste","type":"Kreisangehörige_Gemeinde"},"district":{"key":"03352","name":"Cuxhaven","type":"Landkreis"},"federalState":{"key":"03","name":"Niedersachsen"}},{"name":"Wremer Str.","postalCode":"27639","locality":"Wurster Nordseeküste","municipality":{"key":"03352061","name":"Wurster Nordseeküste","type":"Kreisangehörige_Gemeinde"},"district":{"key":"03352","name":"Cuxhaven","type":"Landkreis"},"federalState":{"key":"03","name":"Niedersachsen"}},{"name":"Wremer Tief Nordstrand","postalCode":"27639","locality":"Wurster Nordseeküste","municipality":{"key":"03352061","name":"Wurster Nordseeküste","type":"Kreisangehörige_Gemeinde"},"district":{"key":"03352","name":"Cuxhaven","type":"Landkreis"},"federalState":{"key":"03","name":"Niedersachsen"}},{"name":"Wurster Landstr.","postalCode":"27639","locality":"Wurster Nordseeküste","municipality":{"key":"03352061","name":"Wurster Nordseeküste","type":"Kreisangehörige_Gemeinde"},"district":{"key":"03352","name":"Cuxhaven","type":"Landkreis"},"federalState":{"key":"03","name":"Niedersachsen"}},{"name":"Wurster Moorweg","postalCode":"27639","locality":"Wurster Nordseeküste","municipality":{"key":"03352061","name":"Wurster Nordseeküste","type":"Kreisangehörige_Gemeinde"},"district":{"key":"03352","name":"Cuxhaven","type":"Landkreis"},"federalState":{"key":"03","name":"Niedersachsen"}},{"name":"Wurster Str.","postalCode":"27639","locality":"Wurster Nordseeküste","municipality":{"key":"03352061","name":"Wurster Nordseeküste","type":"Kreisangehörige_Gemeinde"},"district":{"key":"03352","name":"Cuxhaven","type":"Landkreis"},"federalState":{"key":"03","name":"Niedersachsen"}},{"name":"Zeppelinstr.","postalCode":"27639","locality":"Wurster Nordseeküste","municipality":{"key":"03352061","name":"Wurster Nordseeküste","type":"Kreisangehörige_Gemeinde"},"district":{"key":"03352","name":"Cuxhaven","type":"Landkreis"},"federalState":{"key":"03","name":"Niedersachsen"}},{"name":"Zum Bahnhof","postalCode":"27639","locality":"Wurster Nordseeküste","municipality":{"key":"03352061","name":"Wurster Nordseeküste","type":"Kreisangehörige_Gemeinde"},"district":{"key":"03352","name":"Cuxhaven","type":"Landkreis"},"federalState":{"key":"03","name":"Niedersachsen"}},{"name":"Zum Kollhof","postalCode":"27639","locality":"Wurster Nordseeküste","municipality":{"key":"03352061","name":"Wurster Nordseeküste","type":"Kreisangehörige_Gemeinde"},"district":{"key":"03352","name":"Cuxhaven","type":"Landkreis"},"federalState":{"key":"03","name":"Niedersachsen"}},{"name":"Zum Kutterhafen","postalCode":"27639","locality":"Wurster Nordseeküste","municipality":{"key":"03352061","name":"Wurster Nordseeküste","type":"Kreisangehörige_Gemeinde"},"district":{"key":"03352","name":"Cuxhaven","type":"Landkreis"},"federalState":{"key":"03","name":"Niedersachsen"}},{"name":"Zum Schießstand","postalCode":"27639","locality":"Wurster Nordseeküste","municipality":{"key":"03352061","name":"Wurster Nordseeküste","type":"Kreisangehörige_Gemeinde"},"district":{"key":"03352","name":"Cuxhaven","type":"Landkreis"},"federalState":{"key":"03","name":"Niedersachsen"}},{"name":"Zum Zollhaus","postalCode":"27639","locality":"Wurster Nordseeküste","municipality":{"key":"03352061","name":"Wurster Nordseeküste","type":"Kreisangehörige_Gemeinde"},"district":{"key":"03352","name":"Cuxhaven","type":"Landkreis"},"federalState":{"key":"03","name":"Niedersachsen"}},{"name":"Zur Alten Schule","postalCode":"27639","locality":"Wurster Nordseeküste","municipality":{"key":"03352061","name":"Wurster Nordseeküste","type":"Kreisangehörige_Gemeinde"},"district":{"key":"03352","name":"Cuxhaven","type":"Landkreis"},"federalState":{"key":"03","name":"Niedersachsen"}},{"name":"Zur Beeke","postalCode":"27639","locality":"Wurster Nordseeküste","municipality":{"key":"03352061","name":"Wurster Nordseeküste","type":"Kreisangehörige_Gemeinde"},"district":{"key":"03352","name":"Cuxhaven","type":"Landkreis"},"federalState":{"key":"03","name":"Niedersachsen"}},{"name":"Zur Dorfwurt","postalCode":"27639","locality":"Wurster Nordseeküste","municipality":{"key":"03352061","name":"Wurster Nordseeküste","type":"Kreisangehörige_Gemeinde"},"district":{"key":"03352","name":"Cuxhaven","type":"Landkreis"},"federalState":{"key":"03","name":"Niedersachsen"}},{"name":"Zur Hoge","postalCode":"27639","locality":"Wurster Nordseeküste","municipality":{"key":"03352061","name":"Wurster Nordseeküste","type":"Kreisangehörige_Gemeinde"},"district":{"key":"03352","name":"Cuxhaven","type":"Landkreis"},"federalState":{"key":"03","name":"Niedersachsen"}},{"name":"Zur Kirche","postalCode":"27639","locality":"Wurster Nordseeküste","municipality":{"key":"03352061","name":"Wurster Nordseeküste","type":"Kreisangehörige_Gemeinde"},"district":{"key":"03352","name":"Cuxhaven","type":"Landkreis"},"federalState":{"key":"03","name":"Niedersachsen"}},{"name":"Zur Lieth","postalCode":"27639","locality":"Wurster Nordseeküste","municipality":{"key":"03352061","name":"Wurster Nordseeküste","type":"Kreisangehörige_Gemeinde"},"district":{"key":"03352","name":"Cuxhaven","type":"Landkreis"},"federalState":{"key":"03","name":"Niedersachsen"}},{"name":"Zur Mühle","postalCode":"27639","locality":"Wurster Nordseeküste","municipality":{"key":"03352061","name":"Wurster Nordseeküste","type":"Kreisangehörige_Gemeinde"},"district":{"key":"03352","name":"Cuxhaven","type":"Landkreis"},"federalState":{"key":"03","name":"Niedersachsen"}},{"name":"Zur Pulverhütte","postalCode":"27639","locality":"Wurster Nordseeküste","municipality":{"key":"03352061","name":"Wurster Nordseeküste","type":"Kreisangehörige_Gemeinde"},"district":{"key":"03352","name":"Cuxhaven","type":"Landkreis"},"federalState":{"key":"03","name":"Niedersachsen"}},{"name":"Zur Wierde","postalCode":"27639","locality":"Wurster Nordseeküste","municipality":{"key":"03352061","name":"Wurster Nordseeküste","type":"Kreisangehörige_Gemeinde"},"district":{"key":"03352","name":"Cuxhaven","type":"Landkreis"},"federalState":{"key":"03","name":"Niedersachsen"}},{"name":"Zur Wolfsburg","postalCode":"27639","locality":"Wurster Nordseeküste","municipality":{"key":"03352061","name":"Wurster Nordseeküste","type":"Kreisangehörige_Gemeinde"},"district":{"key":"03352","name":"Cuxhaven","type":"Landkreis"},"federalState":{"key":"03","name":"Niedersachsen"}},{"name":"Üterlüe Specken","postalCode":"27639","locality":"Wurster Nordseeküste","municipality":{"key":"03352061","name":"Wurster Nordseeküste","type":"Kreisangehörige_Gemeinde"},"district":{"key":"03352","name":"Cuxhaven","type":"Landkreis"},"federalState":{"key":"03","name":"Niedersachsen"}},]