[{"name":"Adolf-Damaschke-Str.","postalCode":"07589","locality":"Münchenbernsdorf","municipality":{"key":"16076049","name":"Münchenbernsdorf, Stadt","type":"Stadt"},"district":{"key":"16076","name":"Greiz","type":"Landkreis"},"federalState":{"key":"16","name":"Thüringen"}},{"name":"Agrarstr.","postalCode":"09337","locality":"Bernsdorf","municipality":{"key":"14524010","name":"Bernsdorf","type":"Kreisangehörige_Gemeinde"},"district":{"key":"14524","name":"Zwickau","type":"Landkreis"},"federalState":{"key":"14","name":"Sachsen"}},{"name":"Ahornweg","postalCode":"02994","locality":"Bernsdorf","municipality":{"key":"14625030","name":"Bernsdorf, Stadt","type":"Stadt"},"district":{"key":"14625","name":"Bautzen","type":"Landkreis"},"federalState":{"key":"14","name":"Sachsen"}},{"name":"Akazienstr.","postalCode":"02994","locality":"Bernsdorf","municipality":{"key":"14625030","name":"Bernsdorf, Stadt","type":"Stadt"},"district":{"key":"14625","name":"Bautzen","type":"Landkreis"},"federalState":{"key":"14","name":"Sachsen"}},{"name":"Akazienstr.","postalCode":"07589","locality":"Münchenbernsdorf","municipality":{"key":"16076049","name":"Münchenbernsdorf, Stadt","type":"Stadt"},"district":{"key":"16076","name":"Greiz","type":"Landkreis"},"federalState":{"key":"16","name":"Thüringen"}},{"name":"Albert-Schweitzer-Str.","postalCode":"02994","locality":"Bernsdorf","municipality":{"key":"14625030","name":"Bernsdorf, Stadt","type":"Stadt"},"district":{"key":"14625","name":"Bautzen","type":"Landkreis"},"federalState":{"key":"14","name":"Sachsen"}},{"name":"Albertsdorfer Str.","postalCode":"08428","locality":"Langenbernsdorf","municipality":{"key":"14524140","name":"Langenbernsdorf","type":"Kreisangehörige_Gemeinde"},"district":{"key":"14524","name":"Zwickau","type":"Landkreis"},"federalState":{"key":"14","name":"Sachsen"}},{"name":"Alfred-Brehm-Str.","postalCode":"07589","locality":"Münchenbernsdorf","municipality":{"key":"16076049","name":"Münchenbernsdorf, Stadt","type":"Stadt"},"district":{"key":"16076","name":"Greiz","type":"Landkreis"},"federalState":{"key":"16","name":"Thüringen"}},{"name":"Alte Coseler Str.","postalCode":"02994","locality":"Bernsdorf","municipality":{"key":"14625030","name":"Bernsdorf, Stadt","type":"Stadt"},"district":{"key":"14625","name":"Bautzen","type":"Landkreis"},"federalState":{"key":"14","name":"Sachsen"}},{"name":"Alte Kamenzer Str.","postalCode":"02994","locality":"Bernsdorf","municipality":{"key":"14625030","name":"Bernsdorf, Stadt","type":"Stadt"},"district":{"key":"14625","name":"Bautzen","type":"Landkreis"},"federalState":{"key":"14","name":"Sachsen"}},{"name":"Alter Biehlaer Heideweg","postalCode":"02994","locality":"Bernsdorf","municipality":{"key":"14625030","name":"Bernsdorf, Stadt","type":"Stadt"},"district":{"key":"14625","name":"Bautzen","type":"Landkreis"},"federalState":{"key":"14","name":"Sachsen"}},{"name":"Alter Wiednitzer Weg","postalCode":"02994","locality":"Bernsdorf","municipality":{"key":"14625030","name":"Bernsdorf, Stadt","type":"Stadt"},"district":{"key":"14625","name":"Bautzen","type":"Landkreis"},"federalState":{"key":"14","name":"Sachsen"}},{"name":"Alte Schulstr.","postalCode":"02994","locality":"Bernsdorf","municipality":{"key":"14625030","name":"Bernsdorf, Stadt","type":"Stadt"},"district":{"key":"14625","name":"Bautzen","type":"Landkreis"},"federalState":{"key":"14","name":"Sachsen"}},{"name":"Am Ankerglasplatz","postalCode":"02994","locality":"Bernsdorf","municipality":{"key":"14625030","name":"Bernsdorf, Stadt","type":"Stadt"},"district":{"key":"14625","name":"Bautzen","type":"Landkreis"},"federalState":{"key":"14","name":"Sachsen"}},{"name":"Am Blauen See","postalCode":"02994","locality":"Bernsdorf","municipality":{"key":"14625030","name":"Bernsdorf, Stadt","type":"Stadt"},"district":{"key":"14625","name":"Bautzen","type":"Landkreis"},"federalState":{"key":"14","name":"Sachsen"}},{"name":"Am Dorfteich","postalCode":"02994","locality":"Bernsdorf","municipality":{"key":"14625030","name":"Bernsdorf, Stadt","type":"Stadt"},"district":{"key":"14625","name":"Bautzen","type":"Landkreis"},"federalState":{"key":"14","name":"Sachsen"}},{"name":"Am Eichberg","postalCode":"07589","locality":"Münchenbernsdorf","municipality":{"key":"16076049","name":"Münchenbernsdorf, Stadt","type":"Stadt"},"district":{"key":"16076","name":"Greiz","type":"Landkreis"},"federalState":{"key":"16","name":"Thüringen"}},{"name":"Am Friedhof","postalCode":"02994","locality":"Bernsdorf","municipality":{"key":"14625030","name":"Bernsdorf, Stadt","type":"Stadt"},"district":{"key":"14625","name":"Bautzen","type":"Landkreis"},"federalState":{"key":"14","name":"Sachsen"}},{"name":"Am Gipfel","postalCode":"02994","locality":"Bernsdorf","municipality":{"key":"14625030","name":"Bernsdorf, Stadt","type":"Stadt"},"district":{"key":"14625","name":"Bautzen","type":"Landkreis"},"federalState":{"key":"14","name":"Sachsen"}},{"name":"Am Grünen Tal","postalCode":"08428","locality":"Langenbernsdorf","municipality":{"key":"14524140","name":"Langenbernsdorf","type":"Kreisangehörige_Gemeinde"},"district":{"key":"14524","name":"Zwickau","type":"Landkreis"},"federalState":{"key":"14","name":"Sachsen"}},{"name":"Am Hang","postalCode":"09337","locality":"Bernsdorf","municipality":{"key":"14524010","name":"Bernsdorf","type":"Kreisangehörige_Gemeinde"},"district":{"key":"14524","name":"Zwickau","type":"Landkreis"},"federalState":{"key":"14","name":"Sachsen"}},{"name":"Am Hopfenberg","postalCode":"07589","locality":"Münchenbernsdorf","municipality":{"key":"16076049","name":"Münchenbernsdorf, Stadt","type":"Stadt"},"district":{"key":"16076","name":"Greiz","type":"Landkreis"},"federalState":{"key":"16","name":"Thüringen"}},{"name":"Am Langen Holz","postalCode":"02994","locality":"Bernsdorf","municipality":{"key":"14625030","name":"Bernsdorf, Stadt","type":"Stadt"},"district":{"key":"14625","name":"Bautzen","type":"Landkreis"},"federalState":{"key":"14","name":"Sachsen"}},{"name":"Am Lindengarten","postalCode":"02994","locality":"Bernsdorf","municipality":{"key":"14625030","name":"Bernsdorf, Stadt","type":"Stadt"},"district":{"key":"14625","name":"Bautzen","type":"Landkreis"},"federalState":{"key":"14","name":"Sachsen"}},{"name":"Am Park","postalCode":"09337","locality":"Bernsdorf","municipality":{"key":"14524010","name":"Bernsdorf","type":"Kreisangehörige_Gemeinde"},"district":{"key":"14524","name":"Zwickau","type":"Landkreis"},"federalState":{"key":"14","name":"Sachsen"}},{"name":"Am Park der Solidarität","postalCode":"02994","locality":"Bernsdorf","municipality":{"key":"14625030","name":"Bernsdorf, Stadt","type":"Stadt"},"district":{"key":"14625","name":"Bautzen","type":"Landkreis"},"federalState":{"key":"14","name":"Sachsen"}},{"name":"Am Roten Graben","postalCode":"08428","locality":"Langenbernsdorf","municipality":{"key":"14524140","name":"Langenbernsdorf","type":"Kreisangehörige_Gemeinde"},"district":{"key":"14524","name":"Zwickau","type":"Landkreis"},"federalState":{"key":"14","name":"Sachsen"}},{"name":"Am Sachsenring","postalCode":"09337","locality":"Bernsdorf","municipality":{"key":"14524010","name":"Bernsdorf","type":"Kreisangehörige_Gemeinde"},"district":{"key":"14524","name":"Zwickau","type":"Landkreis"},"federalState":{"key":"14","name":"Sachsen"}},{"name":"Am Saleskbach","postalCode":"02994","locality":"Bernsdorf","municipality":{"key":"14625030","name":"Bernsdorf, Stadt","type":"Stadt"},"district":{"key":"14625","name":"Bautzen","type":"Landkreis"},"federalState":{"key":"14","name":"Sachsen"}},{"name":"Am Schmelzteich","postalCode":"02994","locality":"Bernsdorf","municipality":{"key":"14625030","name":"Bernsdorf, Stadt","type":"Stadt"},"district":{"key":"14625","name":"Bautzen","type":"Landkreis"},"federalState":{"key":"14","name":"Sachsen"}},{"name":"Am Schmelzteichgraben","postalCode":"02994","locality":"Bernsdorf","municipality":{"key":"14625030","name":"Bernsdorf, Stadt","type":"Stadt"},"district":{"key":"14625","name":"Bautzen","type":"Landkreis"},"federalState":{"key":"14","name":"Sachsen"}},{"name":"Am Schrebergarten","postalCode":"02994","locality":"Bernsdorf","municipality":{"key":"14625030","name":"Bernsdorf, Stadt","type":"Stadt"},"district":{"key":"14625","name":"Bautzen","type":"Landkreis"},"federalState":{"key":"14","name":"Sachsen"}},{"name":"Amselweg","postalCode":"02994","locality":"Bernsdorf","municipality":{"key":"14625030","name":"Bernsdorf, Stadt","type":"Stadt"},"district":{"key":"14625","name":"Bautzen","type":"Landkreis"},"federalState":{"key":"14","name":"Sachsen"}},{"name":"Am Sportplatz","postalCode":"02994","locality":"Bernsdorf","municipality":{"key":"14625030","name":"Bernsdorf, Stadt","type":"Stadt"},"district":{"key":"14625","name":"Bautzen","type":"Landkreis"},"federalState":{"key":"14","name":"Sachsen"}},{"name":"Am Sportplatz","postalCode":"08428","locality":"Langenbernsdorf","municipality":{"key":"14524140","name":"Langenbernsdorf","type":"Kreisangehörige_Gemeinde"},"district":{"key":"14524","name":"Zwickau","type":"Landkreis"},"federalState":{"key":"14","name":"Sachsen"}},{"name":"Am Stadtpark","postalCode":"07589","locality":"Münchenbernsdorf","municipality":{"key":"16076049","name":"Münchenbernsdorf, Stadt","type":"Stadt"},"district":{"key":"16076","name":"Greiz","type":"Landkreis"},"federalState":{"key":"16","name":"Thüringen"}},{"name":"Am Waldrand","postalCode":"02994","locality":"Bernsdorf","municipality":{"key":"14625030","name":"Bernsdorf, Stadt","type":"Stadt"},"district":{"key":"14625","name":"Bautzen","type":"Landkreis"},"federalState":{"key":"14","name":"Sachsen"}},{"name":"Am Wasserwerk","postalCode":"02994","locality":"Bernsdorf","municipality":{"key":"14625030","name":"Bernsdorf, Stadt","type":"Stadt"},"district":{"key":"14625","name":"Bautzen","type":"Landkreis"},"federalState":{"key":"14","name":"Sachsen"}},{"name":"Am Wirschk","postalCode":"02994","locality":"Bernsdorf","municipality":{"key":"14625030","name":"Bernsdorf, Stadt","type":"Stadt"},"district":{"key":"14625","name":"Bautzen","type":"Landkreis"},"federalState":{"key":"14","name":"Sachsen"}},{"name":"Am Wirtschaftshof","postalCode":"02994","locality":"Bernsdorf","municipality":{"key":"14625030","name":"Bernsdorf, Stadt","type":"Stadt"},"district":{"key":"14625","name":"Bautzen","type":"Landkreis"},"federalState":{"key":"14","name":"Sachsen"}},{"name":"An den Feldern","postalCode":"02994","locality":"Bernsdorf","municipality":{"key":"14625030","name":"Bernsdorf, Stadt","type":"Stadt"},"district":{"key":"14625","name":"Bautzen","type":"Landkreis"},"federalState":{"key":"14","name":"Sachsen"}},{"name":"An den Wiesen","postalCode":"02994","locality":"Bernsdorf","municipality":{"key":"14625030","name":"Bernsdorf, Stadt","type":"Stadt"},"district":{"key":"14625","name":"Bautzen","type":"Landkreis"},"federalState":{"key":"14","name":"Sachsen"}},{"name":"An der Aue","postalCode":"02994","locality":"Bernsdorf","municipality":{"key":"14625030","name":"Bernsdorf, Stadt","type":"Stadt"},"district":{"key":"14625","name":"Bautzen","type":"Landkreis"},"federalState":{"key":"14","name":"Sachsen"}},{"name":"An der Folge","postalCode":"08428","locality":"Langenbernsdorf","municipality":{"key":"14524140","name":"Langenbernsdorf","type":"Kreisangehörige_Gemeinde"},"district":{"key":"14524","name":"Zwickau","type":"Landkreis"},"federalState":{"key":"14","name":"Sachsen"}},{"name":"An der Kienheide","postalCode":"02994","locality":"Bernsdorf","municipality":{"key":"14625030","name":"Bernsdorf, Stadt","type":"Stadt"},"district":{"key":"14625","name":"Bautzen","type":"Landkreis"},"federalState":{"key":"14","name":"Sachsen"}},{"name":"An der Liegend","postalCode":"07589","locality":"Münchenbernsdorf","municipality":{"key":"16076049","name":"Münchenbernsdorf, Stadt","type":"Stadt"},"district":{"key":"16076","name":"Greiz","type":"Landkreis"},"federalState":{"key":"16","name":"Thüringen"}},{"name":"An der Naherholung","postalCode":"09337","locality":"Bernsdorf","municipality":{"key":"14524010","name":"Bernsdorf","type":"Kreisangehörige_Gemeinde"},"district":{"key":"14524","name":"Zwickau","type":"Landkreis"},"federalState":{"key":"14","name":"Sachsen"}},{"name":"An der Ziegelei","postalCode":"02994","locality":"Bernsdorf","municipality":{"key":"14625030","name":"Bernsdorf, Stadt","type":"Stadt"},"district":{"key":"14625","name":"Bautzen","type":"Landkreis"},"federalState":{"key":"14","name":"Sachsen"}},{"name":"Apfelallee","postalCode":"02994","locality":"Bernsdorf","municipality":{"key":"14625030","name":"Bernsdorf, Stadt","type":"Stadt"},"district":{"key":"14625","name":"Bautzen","type":"Landkreis"},"federalState":{"key":"14","name":"Sachsen"}},{"name":"August-Bebel-Park","postalCode":"02994","locality":"Bernsdorf","municipality":{"key":"14625030","name":"Bernsdorf, Stadt","type":"Stadt"},"district":{"key":"14625","name":"Bautzen","type":"Landkreis"},"federalState":{"key":"14","name":"Sachsen"}},{"name":"Bachstr.","postalCode":"08428","locality":"Langenbernsdorf","municipality":{"key":"14524140","name":"Langenbernsdorf","type":"Kreisangehörige_Gemeinde"},"district":{"key":"14524","name":"Zwickau","type":"Landkreis"},"federalState":{"key":"14","name":"Sachsen"}},{"name":"Bachstr.","postalCode":"09337","locality":"Bernsdorf","municipality":{"key":"14524010","name":"Bernsdorf","type":"Kreisangehörige_Gemeinde"},"district":{"key":"14524","name":"Zwickau","type":"Landkreis"},"federalState":{"key":"14","name":"Sachsen"}},{"name":"Badeweg","postalCode":"02994","locality":"Bernsdorf","municipality":{"key":"14625030","name":"Bernsdorf, Stadt","type":"Stadt"},"district":{"key":"14625","name":"Bautzen","type":"Landkreis"},"federalState":{"key":"14","name":"Sachsen"}},{"name":"Bahnhofstr.","postalCode":"02994","locality":"Bernsdorf","municipality":{"key":"14625030","name":"Bernsdorf, Stadt","type":"Stadt"},"district":{"key":"14625","name":"Bautzen","type":"Landkreis"},"federalState":{"key":"14","name":"Sachsen"}},{"name":"Bahnhofstr.","postalCode":"07589","locality":"Münchenbernsdorf","municipality":{"key":"16076049","name":"Münchenbernsdorf, Stadt","type":"Stadt"},"district":{"key":"16076","name":"Greiz","type":"Landkreis"},"federalState":{"key":"16","name":"Thüringen"}},{"name":"Bahnhofstr.","postalCode":"08428","locality":"Langenbernsdorf","municipality":{"key":"14524140","name":"Langenbernsdorf","type":"Kreisangehörige_Gemeinde"},"district":{"key":"14524","name":"Zwickau","type":"Landkreis"},"federalState":{"key":"14","name":"Sachsen"}},{"name":"Bergstr.","postalCode":"02994","locality":"Bernsdorf","municipality":{"key":"14625030","name":"Bernsdorf, Stadt","type":"Stadt"},"district":{"key":"14625","name":"Bautzen","type":"Landkreis"},"federalState":{"key":"14","name":"Sachsen"}},{"name":"Bergstr.","postalCode":"09337","locality":"Bernsdorf","municipality":{"key":"14524010","name":"Bernsdorf","type":"Kreisangehörige_Gemeinde"},"district":{"key":"14524","name":"Zwickau","type":"Landkreis"},"federalState":{"key":"14","name":"Sachsen"}},{"name":"Bergweg","postalCode":"08428","locality":"Langenbernsdorf","municipality":{"key":"14524140","name":"Langenbernsdorf","type":"Kreisangehörige_Gemeinde"},"district":{"key":"14524","name":"Zwickau","type":"Landkreis"},"federalState":{"key":"14","name":"Sachsen"}},{"name":"Bernhardstr.","postalCode":"02994","locality":"Bernsdorf","municipality":{"key":"14625030","name":"Bernsdorf, Stadt","type":"Stadt"},"district":{"key":"14625","name":"Bautzen","type":"Landkreis"},"federalState":{"key":"14","name":"Sachsen"}},{"name":"Bernsdorfer Str.","postalCode":"02994","locality":"Bernsdorf","municipality":{"key":"14625030","name":"Bernsdorf, Stadt","type":"Stadt"},"district":{"key":"14625","name":"Bautzen","type":"Landkreis"},"federalState":{"key":"14","name":"Sachsen"}},{"name":"Birkenweg","postalCode":"02994","locality":"Bernsdorf","municipality":{"key":"14625030","name":"Bernsdorf, Stadt","type":"Stadt"},"district":{"key":"14625","name":"Bautzen","type":"Landkreis"},"federalState":{"key":"14","name":"Sachsen"}},{"name":"Birkenweg","postalCode":"07589","locality":"Münchenbernsdorf","municipality":{"key":"16076049","name":"Münchenbernsdorf, Stadt","type":"Stadt"},"district":{"key":"16076","name":"Greiz","type":"Landkreis"},"federalState":{"key":"16","name":"Thüringen"}},{"name":"Birkenweg","postalCode":"08428","locality":"Langenbernsdorf","municipality":{"key":"14524140","name":"Langenbernsdorf","type":"Kreisangehörige_Gemeinde"},"district":{"key":"14524","name":"Zwickau","type":"Landkreis"},"federalState":{"key":"14","name":"Sachsen"}},{"name":"Blumenweg","postalCode":"08428","locality":"Langenbernsdorf","municipality":{"key":"14524140","name":"Langenbernsdorf","type":"Kreisangehörige_Gemeinde"},"district":{"key":"14524","name":"Zwickau","type":"Landkreis"},"federalState":{"key":"14","name":"Sachsen"}},{"name":"Breite Gasse","postalCode":"02994","locality":"Bernsdorf","municipality":{"key":"14625030","name":"Bernsdorf, Stadt","type":"Stadt"},"district":{"key":"14625","name":"Bautzen","type":"Landkreis"},"federalState":{"key":"14","name":"Sachsen"}},{"name":"Breite Str.","postalCode":"07589","locality":"Münchenbernsdorf","municipality":{"key":"16076049","name":"Münchenbernsdorf, Stadt","type":"Stadt"},"district":{"key":"16076","name":"Greiz","type":"Landkreis"},"federalState":{"key":"16","name":"Thüringen"}},{"name":"Brühl","postalCode":"07589","locality":"Münchenbernsdorf","municipality":{"key":"16076049","name":"Münchenbernsdorf, Stadt","type":"Stadt"},"district":{"key":"16076","name":"Greiz","type":"Landkreis"},"federalState":{"key":"16","name":"Thüringen"}},{"name":"Buchenweg","postalCode":"02994","locality":"Bernsdorf","municipality":{"key":"14625030","name":"Bernsdorf, Stadt","type":"Stadt"},"district":{"key":"14625","name":"Bautzen","type":"Landkreis"},"federalState":{"key":"14","name":"Sachsen"}},{"name":"Cainsdorfer Bergstr.","postalCode":"08064","locality":"Zwickau","municipality":{"key":"14524330","name":"Zwickau, Stadt","type":"Stadt"},"district":{"key":"14524","name":"Zwickau","type":"Landkreis"},"federalState":{"key":"14","name":"Sachsen"}},{"name":"Cainsdorfer Brücke","postalCode":"08056","locality":"Zwickau","municipality":{"key":"14524330","name":"Zwickau, Stadt","type":"Stadt"},"district":{"key":"14524","name":"Zwickau","type":"Landkreis"},"federalState":{"key":"14","name":"Sachsen"}},{"name":"Cainsdorfer Hauptstr.","postalCode":"08064","locality":"Zwickau","municipality":{"key":"14524330","name":"Zwickau, Stadt","type":"Stadt"},"district":{"key":"14524","name":"Zwickau","type":"Landkreis"},"federalState":{"key":"14","name":"Sachsen"}},{"name":"Cainsdorfer Höhe","postalCode":"08064","locality":"Zwickau","municipality":{"key":"14524330","name":"Zwickau, Stadt","type":"Stadt"},"district":{"key":"14524","name":"Zwickau","type":"Landkreis"},"federalState":{"key":"14","name":"Sachsen"}},{"name":"Cainsdorfer Str.","postalCode":"08064","locality":"Zwickau","municipality":{"key":"14524330","name":"Zwickau, Stadt","type":"Stadt"},"district":{"key":"14524","name":"Zwickau","type":"Landkreis"},"federalState":{"key":"14","name":"Sachsen"}},{"name":"Cainsdorfer Waldweg","postalCode":"08064","locality":"Zwickau","municipality":{"key":"14524330","name":"Zwickau, Stadt","type":"Stadt"},"district":{"key":"14524","name":"Zwickau","type":"Landkreis"},"federalState":{"key":"14","name":"Sachsen"}},{"name":"Carl-Goerdeler-Str.","postalCode":"08066","locality":"Zwickau","municipality":{"key":"14524330","name":"Zwickau, Stadt","type":"Stadt"},"district":{"key":"14524","name":"Zwickau","type":"Landkreis"},"federalState":{"key":"14","name":"Sachsen"}},{"name":"Carl-Wolf-Str.","postalCode":"08066","locality":"Zwickau","municipality":{"key":"14524330","name":"Zwickau, Stadt","type":"Stadt"},"district":{"key":"14524","name":"Zwickau","type":"Landkreis"},"federalState":{"key":"14","name":"Sachsen"}},{"name":"Carolastr.","postalCode":"08056","locality":"Zwickau","municipality":{"key":"14524330","name":"Zwickau, Stadt","type":"Stadt"},"district":{"key":"14524","name":"Zwickau","type":"Landkreis"},"federalState":{"key":"14","name":"Sachsen"}},{"name":"Casparistr.","postalCode":"08056","locality":"Zwickau","municipality":{"key":"14524330","name":"Zwickau, Stadt","type":"Stadt"},"district":{"key":"14524","name":"Zwickau","type":"Landkreis"},"federalState":{"key":"14","name":"Sachsen"}},{"name":"Christian-Kautzsch-Str.","postalCode":"08056","locality":"Zwickau","municipality":{"key":"14524330","name":"Zwickau, Stadt","type":"Stadt"},"district":{"key":"14524","name":"Zwickau","type":"Landkreis"},"federalState":{"key":"14","name":"Sachsen"}},{"name":"Christianstr.","postalCode":"08062","locality":"Zwickau","municipality":{"key":"14524330","name":"Zwickau, Stadt","type":"Stadt"},"district":{"key":"14524","name":"Zwickau","type":"Landkreis"},"federalState":{"key":"14","name":"Sachsen"}},{"name":"Clara-Zetkin-Str.","postalCode":"08058","locality":"Zwickau","municipality":{"key":"14524330","name":"Zwickau, Stadt","type":"Stadt"},"district":{"key":"14524","name":"Zwickau","type":"Landkreis"},"federalState":{"key":"14","name":"Sachsen"}},{"name":"Colombstr.","postalCode":"08066","locality":"Zwickau","municipality":{"key":"14524330","name":"Zwickau, Stadt","type":"Stadt"},"district":{"key":"14524","name":"Zwickau","type":"Landkreis"},"federalState":{"key":"14","name":"Sachsen"}},{"name":"Comeniusweg","postalCode":"08056","locality":"Zwickau","municipality":{"key":"14524330","name":"Zwickau, Stadt","type":"Stadt"},"district":{"key":"14524","name":"Zwickau","type":"Landkreis"},"federalState":{"key":"14","name":"Sachsen"}},{"name":"Crataegusdamm","postalCode":"08056","locality":"Zwickau","municipality":{"key":"14524330","name":"Zwickau, Stadt","type":"Stadt"},"district":{"key":"14524","name":"Zwickau","type":"Landkreis"},"federalState":{"key":"14","name":"Sachsen"}},{"name":"Crimmitschauer Str.","postalCode":"08056","locality":"Zwickau","municipality":{"key":"14524330","name":"Zwickau, Stadt","type":"Stadt"},"district":{"key":"14524","name":"Zwickau","type":"Landkreis"},"federalState":{"key":"14","name":"Sachsen"}},{"name":"Crimmitschauer Str.","postalCode":"08058","locality":"Zwickau","municipality":{"key":"14524330","name":"Zwickau, Stadt","type":"Stadt"},"district":{"key":"14524","name":"Zwickau","type":"Landkreis"},"federalState":{"key":"14","name":"Sachsen"}},{"name":"Crossener Kirchsteig","postalCode":"08058","locality":"Zwickau","municipality":{"key":"14524330","name":"Zwickau, Stadt","type":"Stadt"},"district":{"key":"14524","name":"Zwickau","type":"Landkreis"},"federalState":{"key":"14","name":"Sachsen"}},{"name":"Crossener Kirchstr.","postalCode":"08058","locality":"Zwickau","municipality":{"key":"14524330","name":"Zwickau, Stadt","type":"Stadt"},"district":{"key":"14524","name":"Zwickau","type":"Landkreis"},"federalState":{"key":"14","name":"Sachsen"}},{"name":"Crossener Marktsteig","postalCode":"08058","locality":"Zwickau","municipality":{"key":"14524330","name":"Zwickau, Stadt","type":"Stadt"},"district":{"key":"14524","name":"Zwickau","type":"Landkreis"},"federalState":{"key":"14","name":"Sachsen"}},{"name":"Crossener Str.","postalCode":"08058","locality":"Zwickau","municipality":{"key":"14524330","name":"Zwickau, Stadt","type":"Stadt"},"district":{"key":"14524","name":"Zwickau","type":"Landkreis"},"federalState":{"key":"14","name":"Sachsen"}},{"name":"Culitzscher Weg","postalCode":"08064","locality":"Zwickau","municipality":{"key":"14524330","name":"Zwickau, Stadt","type":"Stadt"},"district":{"key":"14524","name":"Zwickau","type":"Landkreis"},"federalState":{"key":"14","name":"Sachsen"}},{"name":"Dittrichsweg","postalCode":"02994","locality":"Bernsdorf","municipality":{"key":"14625030","name":"Bernsdorf, Stadt","type":"Stadt"},"district":{"key":"14625","name":"Bautzen","type":"Landkreis"},"federalState":{"key":"14","name":"Sachsen"}},{"name":"Dorfstr.","postalCode":"02994","locality":"Bernsdorf","municipality":{"key":"14625030","name":"Bernsdorf, Stadt","type":"Stadt"},"district":{"key":"14625","name":"Bautzen","type":"Landkreis"},"federalState":{"key":"14","name":"Sachsen"}},{"name":"Dorfstr.","postalCode":"08428","locality":"Langenbernsdorf","municipality":{"key":"14524140","name":"Langenbernsdorf","type":"Kreisangehörige_Gemeinde"},"district":{"key":"14524","name":"Zwickau","type":"Landkreis"},"federalState":{"key":"14","name":"Sachsen"}},{"name":"Dresdener Str.","postalCode":"02994","locality":"Bernsdorf","municipality":{"key":"14625030","name":"Bernsdorf, Stadt","type":"Stadt"},"district":{"key":"14625","name":"Bautzen","type":"Landkreis"},"federalState":{"key":"14","name":"Sachsen"}},{"name":"Dresdner Str.","postalCode":"09337","locality":"Bernsdorf","municipality":{"key":"14524010","name":"Bernsdorf","type":"Kreisangehörige_Gemeinde"},"district":{"key":"14524","name":"Zwickau","type":"Landkreis"},"federalState":{"key":"14","name":"Sachsen"}},{"name":"Drosselweg","postalCode":"02994","locality":"Bernsdorf","municipality":{"key":"14625030","name":"Bernsdorf, Stadt","type":"Stadt"},"district":{"key":"14625","name":"Bautzen","type":"Landkreis"},"federalState":{"key":"14","name":"Sachsen"}},{"name":"Dr.-Wilhelm-Külz-Str.","postalCode":"07589","locality":"Münchenbernsdorf","municipality":{"key":"16076049","name":"Münchenbernsdorf, Stadt","type":"Stadt"},"district":{"key":"16076","name":"Greiz","type":"Landkreis"},"federalState":{"key":"16","name":"Thüringen"}},{"name":"Eichenweg","postalCode":"02994","locality":"Bernsdorf","municipality":{"key":"14625030","name":"Bernsdorf, Stadt","type":"Stadt"},"district":{"key":"14625","name":"Bautzen","type":"Landkreis"},"federalState":{"key":"14","name":"Sachsen"}},{"name":"Eichertstr.","postalCode":"07589","locality":"Münchenbernsdorf","municipality":{"key":"16076049","name":"Münchenbernsdorf, Stadt","type":"Stadt"},"district":{"key":"16076","name":"Greiz","type":"Landkreis"},"federalState":{"key":"16","name":"Thüringen"}},{"name":"Eichgartenstr.","postalCode":"02994","locality":"Bernsdorf","municipality":{"key":"14625030","name":"Bernsdorf, Stadt","type":"Stadt"},"district":{"key":"14625","name":"Bautzen","type":"Landkreis"},"federalState":{"key":"14","name":"Sachsen"}},{"name":"Eigene Scholle","postalCode":"02994","locality":"Bernsdorf","municipality":{"key":"14625030","name":"Bernsdorf, Stadt","type":"Stadt"},"district":{"key":"14625","name":"Bautzen","type":"Landkreis"},"federalState":{"key":"14","name":"Sachsen"}},{"name":"Eisenwerkstr.","postalCode":"02994","locality":"Bernsdorf","municipality":{"key":"14625030","name":"Bernsdorf, Stadt","type":"Stadt"},"district":{"key":"14625","name":"Bautzen","type":"Landkreis"},"federalState":{"key":"14","name":"Sachsen"}},{"name":"Erlenweg","postalCode":"02994","locality":"Bernsdorf","municipality":{"key":"14625030","name":"Bernsdorf, Stadt","type":"Stadt"},"district":{"key":"14625","name":"Bautzen","type":"Landkreis"},"federalState":{"key":"14","name":"Sachsen"}},{"name":"Ernst-Thälmann-Str.","postalCode":"02994","locality":"Bernsdorf","municipality":{"key":"14625030","name":"Bernsdorf, Stadt","type":"Stadt"},"district":{"key":"14625","name":"Bautzen","type":"Landkreis"},"federalState":{"key":"14","name":"Sachsen"}},{"name":"Ernst-Uhlich-Str.","postalCode":"02994","locality":"Bernsdorf","municipality":{"key":"14625030","name":"Bernsdorf, Stadt","type":"Stadt"},"district":{"key":"14625","name":"Bautzen","type":"Landkreis"},"federalState":{"key":"14","name":"Sachsen"}},{"name":"Eschenweg","postalCode":"02994","locality":"Bernsdorf","municipality":{"key":"14625030","name":"Bernsdorf, Stadt","type":"Stadt"},"district":{"key":"14625","name":"Bautzen","type":"Landkreis"},"federalState":{"key":"14","name":"Sachsen"}},{"name":"Fabrikweg","postalCode":"02994","locality":"Bernsdorf","municipality":{"key":"14625030","name":"Bernsdorf, Stadt","type":"Stadt"},"district":{"key":"14625","name":"Bautzen","type":"Landkreis"},"federalState":{"key":"14","name":"Sachsen"}},{"name":"Feldstr.","postalCode":"02994","locality":"Bernsdorf","municipality":{"key":"14625030","name":"Bernsdorf, Stadt","type":"Stadt"},"district":{"key":"14625","name":"Bautzen","type":"Landkreis"},"federalState":{"key":"14","name":"Sachsen"}},{"name":"Feldstr.","postalCode":"09337","locality":"Bernsdorf","municipality":{"key":"14524010","name":"Bernsdorf","type":"Kreisangehörige_Gemeinde"},"district":{"key":"14524","name":"Zwickau","type":"Landkreis"},"federalState":{"key":"14","name":"Sachsen"}},{"name":"Fichtenweg","postalCode":"02994","locality":"Bernsdorf","municipality":{"key":"14625030","name":"Bernsdorf, Stadt","type":"Stadt"},"district":{"key":"14625","name":"Bautzen","type":"Landkreis"},"federalState":{"key":"14","name":"Sachsen"}},{"name":"Fichtenweg","postalCode":"08428","locality":"Langenbernsdorf","municipality":{"key":"14524140","name":"Langenbernsdorf","type":"Kreisangehörige_Gemeinde"},"district":{"key":"14524","name":"Zwickau","type":"Landkreis"},"federalState":{"key":"14","name":"Sachsen"}},{"name":"Finkensteg","postalCode":"02994","locality":"Bernsdorf","municipality":{"key":"14625030","name":"Bernsdorf, Stadt","type":"Stadt"},"district":{"key":"14625","name":"Bautzen","type":"Landkreis"},"federalState":{"key":"14","name":"Sachsen"}},{"name":"Fliederweg","postalCode":"02994","locality":"Bernsdorf","municipality":{"key":"14625030","name":"Bernsdorf, Stadt","type":"Stadt"},"district":{"key":"14625","name":"Bautzen","type":"Landkreis"},"federalState":{"key":"14","name":"Sachsen"}},{"name":"Forstmühlenweg","postalCode":"02994","locality":"Bernsdorf","municipality":{"key":"14625030","name":"Bernsdorf, Stadt","type":"Stadt"},"district":{"key":"14625","name":"Bautzen","type":"Landkreis"},"federalState":{"key":"14","name":"Sachsen"}},{"name":"Forststr.","postalCode":"02994","locality":"Bernsdorf","municipality":{"key":"14625030","name":"Bernsdorf, Stadt","type":"Stadt"},"district":{"key":"14625","name":"Bautzen","type":"Landkreis"},"federalState":{"key":"14","name":"Sachsen"}},{"name":"Forstweg","postalCode":"02994","locality":"Bernsdorf","municipality":{"key":"14625030","name":"Bernsdorf, Stadt","type":"Stadt"},"district":{"key":"14625","name":"Bautzen","type":"Landkreis"},"federalState":{"key":"14","name":"Sachsen"}},{"name":"Friedhofstr.","postalCode":"07589","locality":"Münchenbernsdorf","municipality":{"key":"16076049","name":"Münchenbernsdorf, Stadt","type":"Stadt"},"district":{"key":"16076","name":"Greiz","type":"Landkreis"},"federalState":{"key":"16","name":"Thüringen"}},{"name":"Friedhofsweg","postalCode":"02994","locality":"Bernsdorf","municipality":{"key":"14625030","name":"Bernsdorf, Stadt","type":"Stadt"},"district":{"key":"14625","name":"Bautzen","type":"Landkreis"},"federalState":{"key":"14","name":"Sachsen"}},{"name":"Friedmannsdorfer Str.","postalCode":"08428","locality":"Langenbernsdorf","municipality":{"key":"14524140","name":"Langenbernsdorf","type":"Kreisangehörige_Gemeinde"},"district":{"key":"14524","name":"Zwickau","type":"Landkreis"},"federalState":{"key":"14","name":"Sachsen"}},{"name":"Friedrich-Engels-Str.","postalCode":"02994","locality":"Bernsdorf","municipality":{"key":"14625030","name":"Bernsdorf, Stadt","type":"Stadt"},"district":{"key":"14625","name":"Bautzen","type":"Landkreis"},"federalState":{"key":"14","name":"Sachsen"}},{"name":"Friedrich-Fröbel-Str.","postalCode":"07589","locality":"Münchenbernsdorf","municipality":{"key":"16076049","name":"Münchenbernsdorf, Stadt","type":"Stadt"},"district":{"key":"16076","name":"Greiz","type":"Landkreis"},"federalState":{"key":"16","name":"Thüringen"}},{"name":"Fritz-Kube-Ring","postalCode":"02994","locality":"Bernsdorf","municipality":{"key":"14625030","name":"Bernsdorf, Stadt","type":"Stadt"},"district":{"key":"14625","name":"Bautzen","type":"Landkreis"},"federalState":{"key":"14","name":"Sachsen"}},{"name":"Gabelsberger Str.","postalCode":"07589","locality":"Münchenbernsdorf","municipality":{"key":"16076049","name":"Münchenbernsdorf, Stadt","type":"Stadt"},"district":{"key":"16076","name":"Greiz","type":"Landkreis"},"federalState":{"key":"16","name":"Thüringen"}},{"name":"Gartenstr.","postalCode":"02994","locality":"Bernsdorf","municipality":{"key":"14625030","name":"Bernsdorf, Stadt","type":"Stadt"},"district":{"key":"14625","name":"Bautzen","type":"Landkreis"},"federalState":{"key":"14","name":"Sachsen"}},{"name":"Gartenstr.","postalCode":"07589","locality":"Münchenbernsdorf","municipality":{"key":"16076049","name":"Münchenbernsdorf, Stadt","type":"Stadt"},"district":{"key":"16076","name":"Greiz","type":"Landkreis"},"federalState":{"key":"16","name":"Thüringen"}},{"name":"Gartenweg","postalCode":"02994","locality":"Bernsdorf","municipality":{"key":"14625030","name":"Bernsdorf, Stadt","type":"Stadt"},"district":{"key":"14625","name":"Bautzen","type":"Landkreis"},"federalState":{"key":"14","name":"Sachsen"}},{"name":"Gärtnerweg","postalCode":"08428","locality":"Langenbernsdorf","municipality":{"key":"14524140","name":"Langenbernsdorf","type":"Kreisangehörige_Gemeinde"},"district":{"key":"14524","name":"Zwickau","type":"Landkreis"},"federalState":{"key":"14","name":"Sachsen"}},{"name":"Gaswerkstr.","postalCode":"02994","locality":"Bernsdorf","municipality":{"key":"14625030","name":"Bernsdorf, Stadt","type":"Stadt"},"district":{"key":"14625","name":"Bautzen","type":"Landkreis"},"federalState":{"key":"14","name":"Sachsen"}},{"name":"Gebauerweg","postalCode":"02994","locality":"Bernsdorf","municipality":{"key":"14625030","name":"Bernsdorf, Stadt","type":"Stadt"},"district":{"key":"14625","name":"Bautzen","type":"Landkreis"},"federalState":{"key":"14","name":"Sachsen"}},{"name":"Geraer Str.","postalCode":"07589","locality":"Münchenbernsdorf","municipality":{"key":"16076049","name":"Münchenbernsdorf, Stadt","type":"Stadt"},"district":{"key":"16076","name":"Greiz","type":"Landkreis"},"federalState":{"key":"16","name":"Thüringen"}},{"name":"Gerbergasse","postalCode":"07589","locality":"Münchenbernsdorf","municipality":{"key":"16076049","name":"Münchenbernsdorf, Stadt","type":"Stadt"},"district":{"key":"16076","name":"Greiz","type":"Landkreis"},"federalState":{"key":"16","name":"Thüringen"}},{"name":"Geschwister-Scholl-Str.","postalCode":"07589","locality":"Münchenbernsdorf","municipality":{"key":"16076049","name":"Münchenbernsdorf, Stadt","type":"Stadt"},"district":{"key":"16076","name":"Greiz","type":"Landkreis"},"federalState":{"key":"16","name":"Thüringen"}},{"name":"Gießereistr.","postalCode":"02994","locality":"Bernsdorf","municipality":{"key":"14625030","name":"Bernsdorf, Stadt","type":"Stadt"},"district":{"key":"14625","name":"Bautzen","type":"Landkreis"},"federalState":{"key":"14","name":"Sachsen"}},{"name":"Glasbergstr.","postalCode":"08428","locality":"Langenbernsdorf","municipality":{"key":"14524140","name":"Langenbernsdorf","type":"Kreisangehörige_Gemeinde"},"district":{"key":"14524","name":"Zwickau","type":"Landkreis"},"federalState":{"key":"14","name":"Sachsen"}},{"name":"Goetheplatz","postalCode":"02994","locality":"Bernsdorf","municipality":{"key":"14625030","name":"Bernsdorf, Stadt","type":"Stadt"},"district":{"key":"14625","name":"Bautzen","type":"Landkreis"},"federalState":{"key":"14","name":"Sachsen"}},{"name":"Goethestr.","postalCode":"07589","locality":"Münchenbernsdorf","municipality":{"key":"16076049","name":"Münchenbernsdorf, Stadt","type":"Stadt"},"district":{"key":"16076","name":"Greiz","type":"Landkreis"},"federalState":{"key":"16","name":"Thüringen"}},{"name":"Greizer Str.","postalCode":"08428","locality":"Langenbernsdorf","municipality":{"key":"14524140","name":"Langenbernsdorf","type":"Kreisangehörige_Gemeinde"},"district":{"key":"14524","name":"Zwickau","type":"Landkreis"},"federalState":{"key":"14","name":"Sachsen"}},{"name":"Grenzweg","postalCode":"08428","locality":"Langenbernsdorf","municipality":{"key":"14524140","name":"Langenbernsdorf","type":"Kreisangehörige_Gemeinde"},"district":{"key":"14524","name":"Zwickau","type":"Landkreis"},"federalState":{"key":"14","name":"Sachsen"}},{"name":"Großbockaer Str.","postalCode":"07589","locality":"Münchenbernsdorf","municipality":{"key":"16076049","name":"Münchenbernsdorf, Stadt","type":"Stadt"},"district":{"key":"16076","name":"Greiz","type":"Landkreis"},"federalState":{"key":"16","name":"Thüringen"}},{"name":"Grube-Clara-Str.","postalCode":"02994","locality":"Bernsdorf","municipality":{"key":"14625030","name":"Bernsdorf, Stadt","type":"Stadt"},"district":{"key":"14625","name":"Bautzen","type":"Landkreis"},"federalState":{"key":"14","name":"Sachsen"}},{"name":"Grundstr.","postalCode":"08428","locality":"Langenbernsdorf","municipality":{"key":"14524140","name":"Langenbernsdorf","type":"Kreisangehörige_Gemeinde"},"district":{"key":"14524","name":"Zwickau","type":"Landkreis"},"federalState":{"key":"14","name":"Sachsen"}},{"name":"Grüner Weg","postalCode":"08428","locality":"Langenbernsdorf","municipality":{"key":"14524140","name":"Langenbernsdorf","type":"Kreisangehörige_Gemeinde"},"district":{"key":"14524","name":"Zwickau","type":"Landkreis"},"federalState":{"key":"14","name":"Sachsen"}},{"name":"Grünewalder Str.","postalCode":"02994","locality":"Bernsdorf","municipality":{"key":"14625030","name":"Bernsdorf, Stadt","type":"Stadt"},"district":{"key":"14625","name":"Bautzen","type":"Landkreis"},"federalState":{"key":"14","name":"Sachsen"}},{"name":"Grünstr.","postalCode":"02994","locality":"Bernsdorf","municipality":{"key":"14625030","name":"Bernsdorf, Stadt","type":"Stadt"},"district":{"key":"14625","name":"Bautzen","type":"Landkreis"},"federalState":{"key":"14","name":"Sachsen"}},{"name":"Haferweg","postalCode":"08428","locality":"Langenbernsdorf","municipality":{"key":"14524140","name":"Langenbernsdorf","type":"Kreisangehörige_Gemeinde"},"district":{"key":"14524","name":"Zwickau","type":"Landkreis"},"federalState":{"key":"14","name":"Sachsen"}},{"name":"Hälftbuchenweg","postalCode":"08428","locality":"Langenbernsdorf","municipality":{"key":"14524140","name":"Langenbernsdorf","type":"Kreisangehörige_Gemeinde"},"district":{"key":"14524","name":"Zwickau","type":"Landkreis"},"federalState":{"key":"14","name":"Sachsen"}},{"name":"Hauptstr.","postalCode":"08428","locality":"Langenbernsdorf","municipality":{"key":"14524140","name":"Langenbernsdorf","type":"Kreisangehörige_Gemeinde"},"district":{"key":"14524","name":"Zwickau","type":"Landkreis"},"federalState":{"key":"14","name":"Sachsen"}},{"name":"Hauptstr.","postalCode":"09337","locality":"Bernsdorf","municipality":{"key":"14524010","name":"Bernsdorf","type":"Kreisangehörige_Gemeinde"},"district":{"key":"14524","name":"Zwickau","type":"Landkreis"},"federalState":{"key":"14","name":"Sachsen"}},{"name":"Hausdorfer Str.","postalCode":"02994","locality":"Bernsdorf","municipality":{"key":"14625030","name":"Bernsdorf, Stadt","type":"Stadt"},"district":{"key":"14625","name":"Bautzen","type":"Landkreis"},"federalState":{"key":"14","name":"Sachsen"}},{"name":"Heinrich-Heine-Str.","postalCode":"02994","locality":"Bernsdorf","municipality":{"key":"14625030","name":"Bernsdorf, Stadt","type":"Stadt"},"district":{"key":"14625","name":"Bautzen","type":"Landkreis"},"federalState":{"key":"14","name":"Sachsen"}},{"name":"Heinrich-Popella-Str.","postalCode":"02994","locality":"Bernsdorf","municipality":{"key":"14625030","name":"Bernsdorf, Stadt","type":"Stadt"},"district":{"key":"14625","name":"Bautzen","type":"Landkreis"},"federalState":{"key":"14","name":"Sachsen"}},{"name":"Hermsdorfer Weg","postalCode":"09337","locality":"Bernsdorf","municipality":{"key":"14524010","name":"Bernsdorf","type":"Kreisangehörige_Gemeinde"},"district":{"key":"14524","name":"Zwickau","type":"Landkreis"},"federalState":{"key":"14","name":"Sachsen"}},{"name":"Hinter der Mauer","postalCode":"07589","locality":"Münchenbernsdorf","municipality":{"key":"16076049","name":"Münchenbernsdorf, Stadt","type":"Stadt"},"district":{"key":"16076","name":"Greiz","type":"Landkreis"},"federalState":{"key":"16","name":"Thüringen"}},{"name":"Hohe Str.","postalCode":"07589","locality":"Münchenbernsdorf","municipality":{"key":"16076049","name":"Münchenbernsdorf, Stadt","type":"Stadt"},"district":{"key":"16076","name":"Greiz","type":"Landkreis"},"federalState":{"key":"16","name":"Thüringen"}},{"name":"Hohe Str.","postalCode":"08428","locality":"Langenbernsdorf","municipality":{"key":"14524140","name":"Langenbernsdorf","type":"Kreisangehörige_Gemeinde"},"district":{"key":"14524","name":"Zwickau","type":"Landkreis"},"federalState":{"key":"14","name":"Sachsen"}},{"name":"Hospitalstr.","postalCode":"07589","locality":"Münchenbernsdorf","municipality":{"key":"16076049","name":"Münchenbernsdorf, Stadt","type":"Stadt"},"district":{"key":"16076","name":"Greiz","type":"Landkreis"},"federalState":{"key":"16","name":"Thüringen"}},{"name":"Hoyerswerdaer Str.","postalCode":"02994","locality":"Bernsdorf","municipality":{"key":"14625030","name":"Bernsdorf, Stadt","type":"Stadt"},"district":{"key":"14625","name":"Bautzen","type":"Landkreis"},"federalState":{"key":"14","name":"Sachsen"}},{"name":"Hüttengasse","postalCode":"02994","locality":"Bernsdorf","municipality":{"key":"14625030","name":"Bernsdorf, Stadt","type":"Stadt"},"district":{"key":"14625","name":"Bautzen","type":"Landkreis"},"federalState":{"key":"14","name":"Sachsen"}},{"name":"Industrie- und Gewerbegebiet","postalCode":"02994","locality":"Bernsdorf","municipality":{"key":"14625030","name":"Bernsdorf, Stadt","type":"Stadt"},"district":{"key":"14625","name":"Bautzen","type":"Landkreis"},"federalState":{"key":"14","name":"Sachsen"}},{"name":"Jahnstr.","postalCode":"02994","locality":"Bernsdorf","municipality":{"key":"14625030","name":"Bernsdorf, Stadt","type":"Stadt"},"district":{"key":"14625","name":"Bautzen","type":"Landkreis"},"federalState":{"key":"14","name":"Sachsen"}},{"name":"Jenaer Str.","postalCode":"07589","locality":"Münchenbernsdorf","municipality":{"key":"16076049","name":"Münchenbernsdorf, Stadt","type":"Stadt"},"district":{"key":"16076","name":"Greiz","type":"Landkreis"},"federalState":{"key":"16","name":"Thüringen"}},{"name":"Kamenzer Str.","postalCode":"02994","locality":"Bernsdorf","municipality":{"key":"14625030","name":"Bernsdorf, Stadt","type":"Stadt"},"district":{"key":"14625","name":"Bautzen","type":"Landkreis"},"federalState":{"key":"14","name":"Sachsen"}},{"name":"Karl-Liebknecht-Str.","postalCode":"02994","locality":"Bernsdorf","municipality":{"key":"14625030","name":"Bernsdorf, Stadt","type":"Stadt"},"district":{"key":"14625","name":"Bautzen","type":"Landkreis"},"federalState":{"key":"14","name":"Sachsen"}},{"name":"Karl-Liebknecht-Str.","postalCode":"07589","locality":"Münchenbernsdorf","municipality":{"key":"16076049","name":"Münchenbernsdorf, Stadt","type":"Stadt"},"district":{"key":"16076","name":"Greiz","type":"Landkreis"},"federalState":{"key":"16","name":"Thüringen"}},{"name":"Karl-Marx-Platz","postalCode":"07589","locality":"Münchenbernsdorf","municipality":{"key":"16076049","name":"Münchenbernsdorf, Stadt","type":"Stadt"},"district":{"key":"16076","name":"Greiz","type":"Landkreis"},"federalState":{"key":"16","name":"Thüringen"}},{"name":"Karl-Marx-Str.","postalCode":"02994","locality":"Bernsdorf","municipality":{"key":"14625030","name":"Bernsdorf, Stadt","type":"Stadt"},"district":{"key":"14625","name":"Bautzen","type":"Landkreis"},"federalState":{"key":"14","name":"Sachsen"}},{"name":"Kastanienweg","postalCode":"02994","locality":"Bernsdorf","municipality":{"key":"14625030","name":"Bernsdorf, Stadt","type":"Stadt"},"district":{"key":"14625","name":"Bautzen","type":"Landkreis"},"federalState":{"key":"14","name":"Sachsen"}},{"name":"Käthe-Kollwitz-Str.","postalCode":"02994","locality":"Bernsdorf","municipality":{"key":"14625030","name":"Bernsdorf, Stadt","type":"Stadt"},"district":{"key":"14625","name":"Bautzen","type":"Landkreis"},"federalState":{"key":"14","name":"Sachsen"}},{"name":"Katzendorfer Str.","postalCode":"08428","locality":"Langenbernsdorf","municipality":{"key":"14524140","name":"Langenbernsdorf","type":"Kreisangehörige_Gemeinde"},"district":{"key":"14524","name":"Zwickau","type":"Landkreis"},"federalState":{"key":"14","name":"Sachsen"}},{"name":"Kiefernweg","postalCode":"02994","locality":"Bernsdorf","municipality":{"key":"14625030","name":"Bernsdorf, Stadt","type":"Stadt"},"district":{"key":"14625","name":"Bautzen","type":"Landkreis"},"federalState":{"key":"14","name":"Sachsen"}},{"name":"Kirchberg","postalCode":"07589","locality":"Münchenbernsdorf","municipality":{"key":"16076049","name":"Münchenbernsdorf, Stadt","type":"Stadt"},"district":{"key":"16076","name":"Greiz","type":"Landkreis"},"federalState":{"key":"16","name":"Thüringen"}},{"name":"Kirchgasse","postalCode":"07589","locality":"Münchenbernsdorf","municipality":{"key":"16076049","name":"Münchenbernsdorf, Stadt","type":"Stadt"},"district":{"key":"16076","name":"Greiz","type":"Landkreis"},"federalState":{"key":"16","name":"Thüringen"}},{"name":"Kirchstr.","postalCode":"02994","locality":"Bernsdorf","municipality":{"key":"14625030","name":"Bernsdorf, Stadt","type":"Stadt"},"district":{"key":"14625","name":"Bautzen","type":"Landkreis"},"federalState":{"key":"14","name":"Sachsen"}},{"name":"Kirchtal","postalCode":"07589","locality":"Münchenbernsdorf","municipality":{"key":"16076049","name":"Münchenbernsdorf, Stadt","type":"Stadt"},"district":{"key":"16076","name":"Greiz","type":"Landkreis"},"federalState":{"key":"16","name":"Thüringen"}},{"name":"Kirchweg","postalCode":"02994","locality":"Bernsdorf","municipality":{"key":"14625030","name":"Bernsdorf, Stadt","type":"Stadt"},"district":{"key":"14625","name":"Bautzen","type":"Landkreis"},"federalState":{"key":"14","name":"Sachsen"}},{"name":"Kirschallee","postalCode":"07589","locality":"Münchenbernsdorf","municipality":{"key":"16076049","name":"Münchenbernsdorf, Stadt","type":"Stadt"},"district":{"key":"16076","name":"Greiz","type":"Landkreis"},"federalState":{"key":"16","name":"Thüringen"}},{"name":"Kleinbernsdorfer Str.","postalCode":"07589","locality":"Münchenbernsdorf","municipality":{"key":"16076049","name":"Münchenbernsdorf, Stadt","type":"Stadt"},"district":{"key":"16076","name":"Greiz","type":"Landkreis"},"federalState":{"key":"16","name":"Thüringen"}},{"name":"Kleinbockaer Str.","postalCode":"07589","locality":"Münchenbernsdorf","municipality":{"key":"16076049","name":"Münchenbernsdorf, Stadt","type":"Stadt"},"district":{"key":"16076","name":"Greiz","type":"Landkreis"},"federalState":{"key":"16","name":"Thüringen"}},{"name":"Kleine Gasse","postalCode":"02994","locality":"Bernsdorf","municipality":{"key":"14625030","name":"Bernsdorf, Stadt","type":"Stadt"},"district":{"key":"14625","name":"Bautzen","type":"Landkreis"},"federalState":{"key":"14","name":"Sachsen"}},{"name":"Kleine Schloßstr.","postalCode":"07589","locality":"Münchenbernsdorf","municipality":{"key":"16076049","name":"Münchenbernsdorf, Stadt","type":"Stadt"},"district":{"key":"16076","name":"Greiz","type":"Landkreis"},"federalState":{"key":"16","name":"Thüringen"}},{"name":"Kreuzweg","postalCode":"08428","locality":"Langenbernsdorf","municipality":{"key":"14524140","name":"Langenbernsdorf","type":"Kreisangehörige_Gemeinde"},"district":{"key":"14524","name":"Zwickau","type":"Landkreis"},"federalState":{"key":"14","name":"Sachsen"}},{"name":"Kuhschnappler Berg","postalCode":"09337","locality":"Bernsdorf","municipality":{"key":"14524010","name":"Bernsdorf","type":"Kreisangehörige_Gemeinde"},"district":{"key":"14524","name":"Zwickau","type":"Landkreis"},"federalState":{"key":"14","name":"Sachsen"}},{"name":"Kuhschnappler Weg","postalCode":"09337","locality":"Bernsdorf","municipality":{"key":"14524010","name":"Bernsdorf","type":"Kreisangehörige_Gemeinde"},"district":{"key":"14524","name":"Zwickau","type":"Landkreis"},"federalState":{"key":"14","name":"Sachsen"}},{"name":"Kurze Str.","postalCode":"07589","locality":"Münchenbernsdorf","municipality":{"key":"16076049","name":"Münchenbernsdorf, Stadt","type":"Stadt"},"district":{"key":"16076","name":"Greiz","type":"Landkreis"},"federalState":{"key":"16","name":"Thüringen"}},{"name":"Landsteig","postalCode":"08428","locality":"Langenbernsdorf","municipality":{"key":"14524140","name":"Langenbernsdorf","type":"Kreisangehörige_Gemeinde"},"district":{"key":"14524","name":"Zwickau","type":"Landkreis"},"federalState":{"key":"14","name":"Sachsen"}},{"name":"Lärchenweg","postalCode":"08428","locality":"Langenbernsdorf","municipality":{"key":"14524140","name":"Langenbernsdorf","type":"Kreisangehörige_Gemeinde"},"district":{"key":"14524","name":"Zwickau","type":"Landkreis"},"federalState":{"key":"14","name":"Sachsen"}},{"name":"Leichenweg","postalCode":"02994","locality":"Bernsdorf","municipality":{"key":"14625030","name":"Bernsdorf, Stadt","type":"Stadt"},"district":{"key":"14625","name":"Bautzen","type":"Landkreis"},"federalState":{"key":"14","name":"Sachsen"}},{"name":"Leippsche Str.","postalCode":"02994","locality":"Bernsdorf","municipality":{"key":"14625030","name":"Bernsdorf, Stadt","type":"Stadt"},"district":{"key":"14625","name":"Bautzen","type":"Landkreis"},"federalState":{"key":"14","name":"Sachsen"}},{"name":"Lerchenweg","postalCode":"02994","locality":"Bernsdorf","municipality":{"key":"14625030","name":"Bernsdorf, Stadt","type":"Stadt"},"district":{"key":"14625","name":"Bautzen","type":"Landkreis"},"federalState":{"key":"14","name":"Sachsen"}},{"name":"Lessingstr.","postalCode":"02994","locality":"Bernsdorf","municipality":{"key":"14625030","name":"Bernsdorf, Stadt","type":"Stadt"},"district":{"key":"14625","name":"Bautzen","type":"Landkreis"},"federalState":{"key":"14","name":"Sachsen"}},{"name":"Lichtensteiner Str.","postalCode":"09337","locality":"Bernsdorf","municipality":{"key":"14524010","name":"Bernsdorf","type":"Kreisangehörige_Gemeinde"},"district":{"key":"14524","name":"Zwickau","type":"Landkreis"},"federalState":{"key":"14","name":"Sachsen"}},{"name":"Lindenallee","postalCode":"02994","locality":"Bernsdorf","municipality":{"key":"14625030","name":"Bernsdorf, Stadt","type":"Stadt"},"district":{"key":"14625","name":"Bautzen","type":"Landkreis"},"federalState":{"key":"14","name":"Sachsen"}},{"name":"Lindenhof","postalCode":"09337","locality":"Bernsdorf","municipality":{"key":"14524010","name":"Bernsdorf","type":"Kreisangehörige_Gemeinde"},"district":{"key":"14524","name":"Zwickau","type":"Landkreis"},"federalState":{"key":"14","name":"Sachsen"}},{"name":"Lindenstr.","postalCode":"02994","locality":"Bernsdorf","municipality":{"key":"14625030","name":"Bernsdorf, Stadt","type":"Stadt"},"district":{"key":"14625","name":"Bautzen","type":"Landkreis"},"federalState":{"key":"14","name":"Sachsen"}},{"name":"Lindenstr.","postalCode":"08428","locality":"Langenbernsdorf","municipality":{"key":"14524140","name":"Langenbernsdorf","type":"Kreisangehörige_Gemeinde"},"district":{"key":"14524","name":"Zwickau","type":"Landkreis"},"federalState":{"key":"14","name":"Sachsen"}},{"name":"Ludwig-Jahn-Str.","postalCode":"07589","locality":"Münchenbernsdorf","municipality":{"key":"16076049","name":"Münchenbernsdorf, Stadt","type":"Stadt"},"district":{"key":"16076","name":"Greiz","type":"Landkreis"},"federalState":{"key":"16","name":"Thüringen"}},{"name":"Markt","postalCode":"07589","locality":"Münchenbernsdorf","municipality":{"key":"16076049","name":"Münchenbernsdorf, Stadt","type":"Stadt"},"district":{"key":"16076","name":"Greiz","type":"Landkreis"},"federalState":{"key":"16","name":"Thüringen"}},{"name":"Marktstr.","postalCode":"02994","locality":"Bernsdorf","municipality":{"key":"14625030","name":"Bernsdorf, Stadt","type":"Stadt"},"district":{"key":"14625","name":"Bautzen","type":"Landkreis"},"federalState":{"key":"14","name":"Sachsen"}},{"name":"Marktstr.","postalCode":"07589","locality":"Münchenbernsdorf","municipality":{"key":"16076049","name":"Münchenbernsdorf, Stadt","type":"Stadt"},"district":{"key":"16076","name":"Greiz","type":"Landkreis"},"federalState":{"key":"16","name":"Thüringen"}},{"name":"Mittelstr.","postalCode":"02994","locality":"Bernsdorf","municipality":{"key":"14625030","name":"Bernsdorf, Stadt","type":"Stadt"},"district":{"key":"14625","name":"Bautzen","type":"Landkreis"},"federalState":{"key":"14","name":"Sachsen"}},{"name":"Mittelweg","postalCode":"02994","locality":"Bernsdorf","municipality":{"key":"14625030","name":"Bernsdorf, Stadt","type":"Stadt"},"district":{"key":"14625","name":"Bautzen","type":"Landkreis"},"federalState":{"key":"14","name":"Sachsen"}},{"name":"Mittelweg","postalCode":"08428","locality":"Langenbernsdorf","municipality":{"key":"14524140","name":"Langenbernsdorf","type":"Kreisangehörige_Gemeinde"},"district":{"key":"14524","name":"Zwickau","type":"Landkreis"},"federalState":{"key":"14","name":"Sachsen"}},{"name":"Mostereiweg","postalCode":"08428","locality":"Langenbernsdorf","municipality":{"key":"14524140","name":"Langenbernsdorf","type":"Kreisangehörige_Gemeinde"},"district":{"key":"14524","name":"Zwickau","type":"Landkreis"},"federalState":{"key":"14","name":"Sachsen"}},{"name":"Mühlberg","postalCode":"08428","locality":"Langenbernsdorf","municipality":{"key":"14524140","name":"Langenbernsdorf","type":"Kreisangehörige_Gemeinde"},"district":{"key":"14524","name":"Zwickau","type":"Landkreis"},"federalState":{"key":"14","name":"Sachsen"}},{"name":"Mühlweg","postalCode":"08428","locality":"Langenbernsdorf","municipality":{"key":"14524140","name":"Langenbernsdorf","type":"Kreisangehörige_Gemeinde"},"district":{"key":"14524","name":"Zwickau","type":"Landkreis"},"federalState":{"key":"14","name":"Sachsen"}},{"name":"Neuer Markt","postalCode":"02994","locality":"Bernsdorf","municipality":{"key":"14625030","name":"Bernsdorf, Stadt","type":"Stadt"},"district":{"key":"14625","name":"Bautzen","type":"Landkreis"},"federalState":{"key":"14","name":"Sachsen"}},{"name":"Neuer Weg","postalCode":"02994","locality":"Bernsdorf","municipality":{"key":"14625030","name":"Bernsdorf, Stadt","type":"Stadt"},"district":{"key":"14625","name":"Bautzen","type":"Landkreis"},"federalState":{"key":"14","name":"Sachsen"}},{"name":"Neuer Weg","postalCode":"07589","locality":"Münchenbernsdorf","municipality":{"key":"16076049","name":"Münchenbernsdorf, Stadt","type":"Stadt"},"district":{"key":"16076","name":"Greiz","type":"Landkreis"},"federalState":{"key":"16","name":"Thüringen"}},{"name":"Neuer Weg","postalCode":"09337","locality":"Bernsdorf","municipality":{"key":"14524010","name":"Bernsdorf","type":"Kreisangehörige_Gemeinde"},"district":{"key":"14524","name":"Zwickau","type":"Landkreis"},"federalState":{"key":"14","name":"Sachsen"}},{"name":"Neu Wiednitzer Str.","postalCode":"02994","locality":"Bernsdorf","municipality":{"key":"14625030","name":"Bernsdorf, Stadt","type":"Stadt"},"district":{"key":"14625","name":"Bautzen","type":"Landkreis"},"federalState":{"key":"14","name":"Sachsen"}},{"name":"Nikolaiweg","postalCode":"08428","locality":"Langenbernsdorf","municipality":{"key":"14524140","name":"Langenbernsdorf","type":"Kreisangehörige_Gemeinde"},"district":{"key":"14524","name":"Zwickau","type":"Landkreis"},"federalState":{"key":"14","name":"Sachsen"}},{"name":"Nordstr.","postalCode":"02994","locality":"Bernsdorf","municipality":{"key":"14625030","name":"Bernsdorf, Stadt","type":"Stadt"},"district":{"key":"14625","name":"Bautzen","type":"Landkreis"},"federalState":{"key":"14","name":"Sachsen"}},{"name":"Nordstr.","postalCode":"07589","locality":"Münchenbernsdorf","municipality":{"key":"16076049","name":"Münchenbernsdorf, Stadt","type":"Stadt"},"district":{"key":"16076","name":"Greiz","type":"Landkreis"},"federalState":{"key":"16","name":"Thüringen"}},{"name":"Obere Bachstr.","postalCode":"08428","locality":"Langenbernsdorf","municipality":{"key":"14524140","name":"Langenbernsdorf","type":"Kreisangehörige_Gemeinde"},"district":{"key":"14524","name":"Zwickau","type":"Landkreis"},"federalState":{"key":"14","name":"Sachsen"}},{"name":"Obere Hauptstr.","postalCode":"09337","locality":"Bernsdorf","municipality":{"key":"14524010","name":"Bernsdorf","type":"Kreisangehörige_Gemeinde"},"district":{"key":"14524","name":"Zwickau","type":"Landkreis"},"federalState":{"key":"14","name":"Sachsen"}},{"name":"Otterschütz","postalCode":"02994","locality":"Bernsdorf","municipality":{"key":"14625030","name":"Bernsdorf, Stadt","type":"Stadt"},"district":{"key":"14625","name":"Bautzen","type":"Landkreis"},"federalState":{"key":"14","name":"Sachsen"}},{"name":"Otto-Buchwitz-Str.","postalCode":"02994","locality":"Bernsdorf","municipality":{"key":"14625030","name":"Bernsdorf, Stadt","type":"Stadt"},"district":{"key":"14625","name":"Bautzen","type":"Landkreis"},"federalState":{"key":"14","name":"Sachsen"}},{"name":"Park der Solidarität","postalCode":"02994","locality":"Bernsdorf","municipality":{"key":"14625030","name":"Bernsdorf, Stadt","type":"Stadt"},"district":{"key":"14625","name":"Bautzen","type":"Landkreis"},"federalState":{"key":"14","name":"Sachsen"}},{"name":"Parkstr.","postalCode":"02994","locality":"Bernsdorf","municipality":{"key":"14625030","name":"Bernsdorf, Stadt","type":"Stadt"},"district":{"key":"14625","name":"Bautzen","type":"Landkreis"},"federalState":{"key":"14","name":"Sachsen"}},{"name":"Pascherweg","postalCode":"02994","locality":"Bernsdorf","municipality":{"key":"14625030","name":"Bernsdorf, Stadt","type":"Stadt"},"district":{"key":"14625","name":"Bautzen","type":"Landkreis"},"federalState":{"key":"14","name":"Sachsen"}},{"name":"Pestalozzistr.","postalCode":"02994","locality":"Bernsdorf","municipality":{"key":"14625030","name":"Bernsdorf, Stadt","type":"Stadt"},"district":{"key":"14625","name":"Bautzen","type":"Landkreis"},"federalState":{"key":"14","name":"Sachsen"}},{"name":"Pfarrberg","postalCode":"08428","locality":"Langenbernsdorf","municipality":{"key":"14524140","name":"Langenbernsdorf","type":"Kreisangehörige_Gemeinde"},"district":{"key":"14524","name":"Zwickau","type":"Landkreis"},"federalState":{"key":"14","name":"Sachsen"}},{"name":"Plantagenstr.","postalCode":"02994","locality":"Bernsdorf","municipality":{"key":"14625030","name":"Bernsdorf, Stadt","type":"Stadt"},"district":{"key":"14625","name":"Bautzen","type":"Landkreis"},"federalState":{"key":"14","name":"Sachsen"}},{"name":"Queckenberg","postalCode":"09337","locality":"Bernsdorf","municipality":{"key":"14524010","name":"Bernsdorf","type":"Kreisangehörige_Gemeinde"},"district":{"key":"14524","name":"Zwickau","type":"Landkreis"},"federalState":{"key":"14","name":"Sachsen"}},{"name":"Quergasse","postalCode":"09337","locality":"Bernsdorf","municipality":{"key":"14524010","name":"Bernsdorf","type":"Kreisangehörige_Gemeinde"},"district":{"key":"14524","name":"Zwickau","type":"Landkreis"},"federalState":{"key":"14","name":"Sachsen"}},{"name":"Querstr.","postalCode":"07589","locality":"Münchenbernsdorf","municipality":{"key":"16076049","name":"Münchenbernsdorf, Stadt","type":"Stadt"},"district":{"key":"16076","name":"Greiz","type":"Landkreis"},"federalState":{"key":"16","name":"Thüringen"}},{"name":"Querstr.","postalCode":"08428","locality":"Langenbernsdorf","municipality":{"key":"14524140","name":"Langenbernsdorf","type":"Kreisangehörige_Gemeinde"},"district":{"key":"14524","name":"Zwickau","type":"Landkreis"},"federalState":{"key":"14","name":"Sachsen"}},{"name":"Querweg","postalCode":"08428","locality":"Langenbernsdorf","municipality":{"key":"14524140","name":"Langenbernsdorf","type":"Kreisangehörige_Gemeinde"},"district":{"key":"14524","name":"Zwickau","type":"Landkreis"},"federalState":{"key":"14","name":"Sachsen"}},{"name":"Rathausallee","postalCode":"02994","locality":"Bernsdorf","municipality":{"key":"14625030","name":"Bernsdorf, Stadt","type":"Stadt"},"district":{"key":"14625","name":"Bautzen","type":"Landkreis"},"federalState":{"key":"14","name":"Sachsen"}},{"name":"Reichertsberg","postalCode":"07589","locality":"Münchenbernsdorf","municipality":{"key":"16076049","name":"Münchenbernsdorf, Stadt","type":"Stadt"},"district":{"key":"16076","name":"Greiz","type":"Landkreis"},"federalState":{"key":"16","name":"Thüringen"}},{"name":"Ringstr.","postalCode":"02994","locality":"Bernsdorf","municipality":{"key":"14625030","name":"Bernsdorf, Stadt","type":"Stadt"},"district":{"key":"14625","name":"Bautzen","type":"Landkreis"},"federalState":{"key":"14","name":"Sachsen"}},{"name":"Ringstr.","postalCode":"09337","locality":"Bernsdorf","municipality":{"key":"14524010","name":"Bernsdorf","type":"Kreisangehörige_Gemeinde"},"district":{"key":"14524","name":"Zwickau","type":"Landkreis"},"federalState":{"key":"14","name":"Sachsen"}},{"name":"Rodaer Str.","postalCode":"07589","locality":"Münchenbernsdorf","municipality":{"key":"16076049","name":"Münchenbernsdorf, Stadt","type":"Stadt"},"district":{"key":"16076","name":"Greiz","type":"Landkreis"},"federalState":{"key":"16","name":"Thüringen"}},{"name":"Ronneburger Str.","postalCode":"08428","locality":"Langenbernsdorf","municipality":{"key":"14524140","name":"Langenbernsdorf","type":"Kreisangehörige_Gemeinde"},"district":{"key":"14524","name":"Zwickau","type":"Landkreis"},"federalState":{"key":"14","name":"Sachsen"}},{"name":"Roter Hof","postalCode":"07589","locality":"Münchenbernsdorf","municipality":{"key":"16076049","name":"Münchenbernsdorf, Stadt","type":"Stadt"},"district":{"key":"16076","name":"Greiz","type":"Landkreis"},"federalState":{"key":"16","name":"Thüringen"}},{"name":"Rudolf-Breitscheid-Str.","postalCode":"02994","locality":"Bernsdorf","municipality":{"key":"14625030","name":"Bernsdorf, Stadt","type":"Stadt"},"district":{"key":"14625","name":"Bautzen","type":"Landkreis"},"federalState":{"key":"14","name":"Sachsen"}},{"name":"Sandweg","postalCode":"02994","locality":"Bernsdorf","municipality":{"key":"14625030","name":"Bernsdorf, Stadt","type":"Stadt"},"district":{"key":"14625","name":"Bautzen","type":"Landkreis"},"federalState":{"key":"14","name":"Sachsen"}},{"name":"Saxonia","postalCode":"02994","locality":"Bernsdorf","municipality":{"key":"14625030","name":"Bernsdorf, Stadt","type":"Stadt"},"district":{"key":"14625","name":"Bautzen","type":"Landkreis"},"federalState":{"key":"14","name":"Sachsen"}},{"name":"Schillerplatz","postalCode":"07589","locality":"Münchenbernsdorf","municipality":{"key":"16076049","name":"Münchenbernsdorf, Stadt","type":"Stadt"},"district":{"key":"16076","name":"Greiz","type":"Landkreis"},"federalState":{"key":"16","name":"Thüringen"}},{"name":"Schloßstr.","postalCode":"07589","locality":"Münchenbernsdorf","municipality":{"key":"16076049","name":"Münchenbernsdorf, Stadt","type":"Stadt"},"district":{"key":"16076","name":"Greiz","type":"Landkreis"},"federalState":{"key":"16","name":"Thüringen"}},{"name":"Schöna","postalCode":"07589","locality":"Münchenbernsdorf","municipality":{"key":"16076049","name":"Münchenbernsdorf, Stadt","type":"Stadt"},"district":{"key":"16076","name":"Greiz","type":"Landkreis"},"federalState":{"key":"16","name":"Thüringen"}},{"name":"Schöne Aussicht","postalCode":"07589","locality":"Münchenbernsdorf","municipality":{"key":"16076049","name":"Münchenbernsdorf, Stadt","type":"Stadt"},"district":{"key":"16076","name":"Greiz","type":"Landkreis"},"federalState":{"key":"16","name":"Thüringen"}},{"name":"Schulstr.","postalCode":"02994","locality":"Bernsdorf","municipality":{"key":"14625030","name":"Bernsdorf, Stadt","type":"Stadt"},"district":{"key":"14625","name":"Bautzen","type":"Landkreis"},"federalState":{"key":"14","name":"Sachsen"}},{"name":"Schulstr.","postalCode":"08428","locality":"Langenbernsdorf","municipality":{"key":"14524140","name":"Langenbernsdorf","type":"Kreisangehörige_Gemeinde"},"district":{"key":"14524","name":"Zwickau","type":"Landkreis"},"federalState":{"key":"14","name":"Sachsen"}},{"name":"Schulweg","postalCode":"02994","locality":"Bernsdorf","municipality":{"key":"14625030","name":"Bernsdorf, Stadt","type":"Stadt"},"district":{"key":"14625","name":"Bautzen","type":"Landkreis"},"federalState":{"key":"14","name":"Sachsen"}},{"name":"Schulweg","postalCode":"08428","locality":"Langenbernsdorf","municipality":{"key":"14524140","name":"Langenbernsdorf","type":"Kreisangehörige_Gemeinde"},"district":{"key":"14524","name":"Zwickau","type":"Landkreis"},"federalState":{"key":"14","name":"Sachsen"}},{"name":"Sellaer Weg","postalCode":"02994","locality":"Bernsdorf","municipality":{"key":"14625030","name":"Bernsdorf, Stadt","type":"Stadt"},"district":{"key":"14625","name":"Bautzen","type":"Landkreis"},"federalState":{"key":"14","name":"Sachsen"}},{"name":"Siedlerweg","postalCode":"09337","locality":"Bernsdorf","municipality":{"key":"14524010","name":"Bernsdorf","type":"Kreisangehörige_Gemeinde"},"district":{"key":"14524","name":"Zwickau","type":"Landkreis"},"federalState":{"key":"14","name":"Sachsen"}},{"name":"Siedlung","postalCode":"02994","locality":"Bernsdorf","municipality":{"key":"14625030","name":"Bernsdorf, Stadt","type":"Stadt"},"district":{"key":"14625","name":"Bautzen","type":"Landkreis"},"federalState":{"key":"14","name":"Sachsen"}},{"name":"Siedlung","postalCode":"08428","locality":"Langenbernsdorf","municipality":{"key":"14524140","name":"Langenbernsdorf","type":"Kreisangehörige_Gemeinde"},"district":{"key":"14524","name":"Zwickau","type":"Landkreis"},"federalState":{"key":"14","name":"Sachsen"}},{"name":"Siedlung Kanada","postalCode":"07589","locality":"Münchenbernsdorf","municipality":{"key":"16076049","name":"Münchenbernsdorf, Stadt","type":"Stadt"},"district":{"key":"16076","name":"Greiz","type":"Landkreis"},"federalState":{"key":"16","name":"Thüringen"}},{"name":"Siedlungsstr.","postalCode":"02994","locality":"Bernsdorf","municipality":{"key":"14625030","name":"Bernsdorf, Stadt","type":"Stadt"},"district":{"key":"14625","name":"Bautzen","type":"Landkreis"},"federalState":{"key":"14","name":"Sachsen"}},{"name":"Siedlungsweg","postalCode":"02994","locality":"Bernsdorf","municipality":{"key":"14625030","name":"Bernsdorf, Stadt","type":"Stadt"},"district":{"key":"14625","name":"Bautzen","type":"Landkreis"},"federalState":{"key":"14","name":"Sachsen"}},{"name":"Siedlungsweg","postalCode":"09337","locality":"Bernsdorf","municipality":{"key":"14524010","name":"Bernsdorf","type":"Kreisangehörige_Gemeinde"},"district":{"key":"14524","name":"Zwickau","type":"Landkreis"},"federalState":{"key":"14","name":"Sachsen"}},{"name":"Sportplatzweg","postalCode":"09337","locality":"Bernsdorf","municipality":{"key":"14524010","name":"Bernsdorf","type":"Kreisangehörige_Gemeinde"},"district":{"key":"14524","name":"Zwickau","type":"Landkreis"},"federalState":{"key":"14","name":"Sachsen"}},{"name":"Stadtpark","postalCode":"07589","locality":"Münchenbernsdorf","municipality":{"key":"16076049","name":"Münchenbernsdorf, Stadt","type":"Stadt"},"district":{"key":"16076","name":"Greiz","type":"Landkreis"},"federalState":{"key":"16","name":"Thüringen"}},{"name":"Steinbruchweg","postalCode":"08428","locality":"Langenbernsdorf","municipality":{"key":"14524140","name":"Langenbernsdorf","type":"Kreisangehörige_Gemeinde"},"district":{"key":"14524","name":"Zwickau","type":"Landkreis"},"federalState":{"key":"14","name":"Sachsen"}},{"name":"Steinstr.","postalCode":"09337","locality":"Bernsdorf","municipality":{"key":"14524010","name":"Bernsdorf","type":"Kreisangehörige_Gemeinde"},"district":{"key":"14524","name":"Zwickau","type":"Landkreis"},"federalState":{"key":"14","name":"Sachsen"}},{"name":"Stöckener Str.","postalCode":"08428","locality":"Langenbernsdorf","municipality":{"key":"14524140","name":"Langenbernsdorf","type":"Kreisangehörige_Gemeinde"},"district":{"key":"14524","name":"Zwickau","type":"Landkreis"},"federalState":{"key":"14","name":"Sachsen"}},{"name":"Str. des 8. Mai","postalCode":"02994","locality":"Bernsdorf","municipality":{"key":"14625030","name":"Bernsdorf, Stadt","type":"Stadt"},"district":{"key":"14625","name":"Bautzen","type":"Landkreis"},"federalState":{"key":"14","name":"Sachsen"}},{"name":"Str. des Jugendrotkreuzes","postalCode":"07589","locality":"Münchenbernsdorf","municipality":{"key":"16076049","name":"Münchenbernsdorf, Stadt","type":"Stadt"},"district":{"key":"16076","name":"Greiz","type":"Landkreis"},"federalState":{"key":"16","name":"Thüringen"}},{"name":"Südstr.","postalCode":"02994","locality":"Bernsdorf","municipality":{"key":"14625030","name":"Bernsdorf, Stadt","type":"Stadt"},"district":{"key":"14625","name":"Bautzen","type":"Landkreis"},"federalState":{"key":"14","name":"Sachsen"}},{"name":"Talsperrenstr.","postalCode":"08428","locality":"Langenbernsdorf","municipality":{"key":"14524140","name":"Langenbernsdorf","type":"Kreisangehörige_Gemeinde"},"district":{"key":"14524","name":"Zwickau","type":"Landkreis"},"federalState":{"key":"14","name":"Sachsen"}},{"name":"Talstr.","postalCode":"08428","locality":"Langenbernsdorf","municipality":{"key":"14524140","name":"Langenbernsdorf","type":"Kreisangehörige_Gemeinde"},"district":{"key":"14524","name":"Zwickau","type":"Landkreis"},"federalState":{"key":"14","name":"Sachsen"}},{"name":"Taubenweg","postalCode":"08428","locality":"Langenbernsdorf","municipality":{"key":"14524140","name":"Langenbernsdorf","type":"Kreisangehörige_Gemeinde"},"district":{"key":"14524","name":"Zwickau","type":"Landkreis"},"federalState":{"key":"14","name":"Sachsen"}},{"name":"Tautendorfer Weg","postalCode":"07589","locality":"Münchenbernsdorf","municipality":{"key":"16076049","name":"Münchenbernsdorf, Stadt","type":"Stadt"},"district":{"key":"16076","name":"Greiz","type":"Landkreis"},"federalState":{"key":"16","name":"Thüringen"}},{"name":"Teichhäuser","postalCode":"07589","locality":"Münchenbernsdorf","municipality":{"key":"16076049","name":"Münchenbernsdorf, Stadt","type":"Stadt"},"district":{"key":"16076","name":"Greiz","type":"Landkreis"},"federalState":{"key":"16","name":"Thüringen"}},{"name":"Teichwolframsdorfer Str.","postalCode":"08428","locality":"Langenbernsdorf","municipality":{"key":"14524140","name":"Langenbernsdorf","type":"Kreisangehörige_Gemeinde"},"district":{"key":"14524","name":"Zwickau","type":"Landkreis"},"federalState":{"key":"14","name":"Sachsen"}},{"name":"Thomas-Müntzer-Str.","postalCode":"07589","locality":"Münchenbernsdorf","municipality":{"key":"16076049","name":"Münchenbernsdorf, Stadt","type":"Stadt"},"district":{"key":"16076","name":"Greiz","type":"Landkreis"},"federalState":{"key":"16","name":"Thüringen"}},{"name":"Triftweg","postalCode":"08428","locality":"Langenbernsdorf","municipality":{"key":"14524140","name":"Langenbernsdorf","type":"Kreisangehörige_Gemeinde"},"district":{"key":"14524","name":"Zwickau","type":"Landkreis"},"federalState":{"key":"14","name":"Sachsen"}},{"name":"Trünziger Str.","postalCode":"08428","locality":"Langenbernsdorf","municipality":{"key":"14524140","name":"Langenbernsdorf","type":"Kreisangehörige_Gemeinde"},"district":{"key":"14524","name":"Zwickau","type":"Landkreis"},"federalState":{"key":"14","name":"Sachsen"}},{"name":"Untere Bachgasse","postalCode":"07589","locality":"Münchenbernsdorf","municipality":{"key":"16076049","name":"Münchenbernsdorf, Stadt","type":"Stadt"},"district":{"key":"16076","name":"Greiz","type":"Landkreis"},"federalState":{"key":"16","name":"Thüringen"}},{"name":"Untere Hauptstr.","postalCode":"09337","locality":"Bernsdorf","municipality":{"key":"14524010","name":"Bernsdorf","type":"Kreisangehörige_Gemeinde"},"district":{"key":"14524","name":"Zwickau","type":"Landkreis"},"federalState":{"key":"14","name":"Sachsen"}},{"name":"Veilchenweg","postalCode":"08058","locality":"Zwickau","municipality":{"key":"14524330","name":"Zwickau, Stadt","type":"Stadt"},"district":{"key":"14524","name":"Zwickau","type":"Landkreis"},"federalState":{"key":"14","name":"Sachsen"}},{"name":"Vereinsglückstr.","postalCode":"08056","locality":"Zwickau","municipality":{"key":"14524330","name":"Zwickau, Stadt","type":"Stadt"},"district":{"key":"14524","name":"Zwickau","type":"Landkreis"},"federalState":{"key":"14","name":"Sachsen"}},{"name":"Virchowplatz","postalCode":"08060","locality":"Zwickau","municipality":{"key":"14524330","name":"Zwickau, Stadt","type":"Stadt"},"district":{"key":"14524","name":"Zwickau","type":"Landkreis"},"federalState":{"key":"14","name":"Sachsen"}},{"name":"Vollrathstr.","postalCode":"08066","locality":"Zwickau","municipality":{"key":"14524330","name":"Zwickau, Stadt","type":"Stadt"},"district":{"key":"14524","name":"Zwickau","type":"Landkreis"},"federalState":{"key":"14","name":"Sachsen"}},{"name":"Von-Schlegel-Str.","postalCode":"08056","locality":"Zwickau","municipality":{"key":"14524330","name":"Zwickau, Stadt","type":"Stadt"},"district":{"key":"14524","name":"Zwickau","type":"Landkreis"},"federalState":{"key":"14","name":"Sachsen"}},{"name":"Von-Weber-Str.","postalCode":"08064","locality":"Zwickau","municipality":{"key":"14524330","name":"Zwickau, Stadt","type":"Stadt"},"district":{"key":"14524","name":"Zwickau","type":"Landkreis"},"federalState":{"key":"14","name":"Sachsen"}},{"name":"Waldbadstr.","postalCode":"02994","locality":"Bernsdorf","municipality":{"key":"14625030","name":"Bernsdorf, Stadt","type":"Stadt"},"district":{"key":"14625","name":"Bautzen","type":"Landkreis"},"federalState":{"key":"14","name":"Sachsen"}},{"name":"Walddorfer Ring","postalCode":"08428","locality":"Langenbernsdorf","municipality":{"key":"14524140","name":"Langenbernsdorf","type":"Kreisangehörige_Gemeinde"},"district":{"key":"14524","name":"Zwickau","type":"Landkreis"},"federalState":{"key":"14","name":"Sachsen"}},{"name":"Waldenburger Str.","postalCode":"09337","locality":"Bernsdorf","municipality":{"key":"14524010","name":"Bernsdorf","type":"Kreisangehörige_Gemeinde"},"district":{"key":"14524","name":"Zwickau","type":"Landkreis"},"federalState":{"key":"14","name":"Sachsen"}},{"name":"Waldhäuser","postalCode":"08428","locality":"Langenbernsdorf","municipality":{"key":"14524140","name":"Langenbernsdorf","type":"Kreisangehörige_Gemeinde"},"district":{"key":"14524","name":"Zwickau","type":"Landkreis"},"federalState":{"key":"14","name":"Sachsen"}},{"name":"Waldhäuser Str.","postalCode":"08428","locality":"Langenbernsdorf","municipality":{"key":"14524140","name":"Langenbernsdorf","type":"Kreisangehörige_Gemeinde"},"district":{"key":"14524","name":"Zwickau","type":"Landkreis"},"federalState":{"key":"14","name":"Sachsen"}},{"name":"Waldhofweg","postalCode":"02994","locality":"Bernsdorf","municipality":{"key":"14625030","name":"Bernsdorf, Stadt","type":"Stadt"},"district":{"key":"14625","name":"Bautzen","type":"Landkreis"},"federalState":{"key":"14","name":"Sachsen"}},{"name":"Waldstr.","postalCode":"07589","locality":"Münchenbernsdorf","municipality":{"key":"16076049","name":"Münchenbernsdorf, Stadt","type":"Stadt"},"district":{"key":"16076","name":"Greiz","type":"Landkreis"},"federalState":{"key":"16","name":"Thüringen"}},{"name":"Waldweg","postalCode":"02994","locality":"Bernsdorf","municipality":{"key":"14625030","name":"Bernsdorf, Stadt","type":"Stadt"},"district":{"key":"14625","name":"Bautzen","type":"Landkreis"},"federalState":{"key":"14","name":"Sachsen"}},{"name":"Waldweg","postalCode":"08428","locality":"Langenbernsdorf","municipality":{"key":"14524140","name":"Langenbernsdorf","type":"Kreisangehörige_Gemeinde"},"district":{"key":"14524","name":"Zwickau","type":"Landkreis"},"federalState":{"key":"14","name":"Sachsen"}},{"name":"Weberstr.","postalCode":"08428","locality":"Langenbernsdorf","municipality":{"key":"14524140","name":"Langenbernsdorf","type":"Kreisangehörige_Gemeinde"},"district":{"key":"14524","name":"Zwickau","type":"Landkreis"},"federalState":{"key":"14","name":"Sachsen"}},{"name":"Weidaer Str.","postalCode":"07589","locality":"Münchenbernsdorf","municipality":{"key":"16076049","name":"Münchenbernsdorf, Stadt","type":"Stadt"},"district":{"key":"16076","name":"Greiz","type":"Landkreis"},"federalState":{"key":"16","name":"Thüringen"}},{"name":"Weidaer Weg","postalCode":"07589","locality":"Münchenbernsdorf","municipality":{"key":"16076049","name":"Münchenbernsdorf, Stadt","type":"Stadt"},"district":{"key":"16076","name":"Greiz","type":"Landkreis"},"federalState":{"key":"16","name":"Thüringen"}},{"name":"Weinbergweg","postalCode":"02994","locality":"Bernsdorf","municipality":{"key":"14625030","name":"Bernsdorf, Stadt","type":"Stadt"},"district":{"key":"14625","name":"Bautzen","type":"Landkreis"},"federalState":{"key":"14","name":"Sachsen"}},{"name":"Weißiger Str.","postalCode":"02994","locality":"Bernsdorf","municipality":{"key":"14625030","name":"Bernsdorf, Stadt","type":"Stadt"},"district":{"key":"14625","name":"Bautzen","type":"Landkreis"},"federalState":{"key":"14","name":"Sachsen"}},{"name":"Wendeweg","postalCode":"08428","locality":"Langenbernsdorf","municipality":{"key":"14524140","name":"Langenbernsdorf","type":"Kreisangehörige_Gemeinde"},"district":{"key":"14524","name":"Zwickau","type":"Landkreis"},"federalState":{"key":"14","name":"Sachsen"}},{"name":"Werdauer Str.","postalCode":"08428","locality":"Langenbernsdorf","municipality":{"key":"14524140","name":"Langenbernsdorf","type":"Kreisangehörige_Gemeinde"},"district":{"key":"14524","name":"Zwickau","type":"Landkreis"},"federalState":{"key":"14","name":"Sachsen"}},{"name":"Wiesenstr.","postalCode":"02994","locality":"Bernsdorf","municipality":{"key":"14625030","name":"Bernsdorf, Stadt","type":"Stadt"},"district":{"key":"14625","name":"Bautzen","type":"Landkreis"},"federalState":{"key":"14","name":"Sachsen"}},{"name":"Wiesenstr.","postalCode":"07589","locality":"Münchenbernsdorf","municipality":{"key":"16076049","name":"Münchenbernsdorf, Stadt","type":"Stadt"},"district":{"key":"16076","name":"Greiz","type":"Landkreis"},"federalState":{"key":"16","name":"Thüringen"}},{"name":"Wiesenstr.","postalCode":"09337","locality":"Bernsdorf","municipality":{"key":"14524010","name":"Bernsdorf","type":"Kreisangehörige_Gemeinde"},"district":{"key":"14524","name":"Zwickau","type":"Landkreis"},"federalState":{"key":"14","name":"Sachsen"}},{"name":"Wiesenweg","postalCode":"02994","locality":"Bernsdorf","municipality":{"key":"14625030","name":"Bernsdorf, Stadt","type":"Stadt"},"district":{"key":"14625","name":"Bautzen","type":"Landkreis"},"federalState":{"key":"14","name":"Sachsen"}},{"name":"Windmühlenstr.","postalCode":"07589","locality":"Münchenbernsdorf","municipality":{"key":"16076049","name":"Münchenbernsdorf, Stadt","type":"Stadt"},"district":{"key":"16076","name":"Greiz","type":"Landkreis"},"federalState":{"key":"16","name":"Thüringen"}},{"name":"Wirtschaftsweg","postalCode":"02994","locality":"Bernsdorf","municipality":{"key":"14625030","name":"Bernsdorf, Stadt","type":"Stadt"},"district":{"key":"14625","name":"Bautzen","type":"Landkreis"},"federalState":{"key":"14","name":"Sachsen"}},{"name":"Wittichenauer Str.","postalCode":"02994","locality":"Bernsdorf","municipality":{"key":"14625030","name":"Bernsdorf, Stadt","type":"Stadt"},"district":{"key":"14625","name":"Bautzen","type":"Landkreis"},"federalState":{"key":"14","name":"Sachsen"}},{"name":"Zeißholzer Str.","postalCode":"02994","locality":"Bernsdorf","municipality":{"key":"14625030","name":"Bernsdorf, Stadt","type":"Stadt"},"district":{"key":"14625","name":"Bautzen","type":"Landkreis"},"federalState":{"key":"14","name":"Sachsen"}},{"name":"Zur Eibe","postalCode":"02994","locality":"Bernsdorf","municipality":{"key":"14625030","name":"Bernsdorf, Stadt","type":"Stadt"},"district":{"key":"14625","name":"Bautzen","type":"Landkreis"},"federalState":{"key":"14","name":"Sachsen"}},{"name":"Zur Eichleithe","postalCode":"08428","locality":"Langenbernsdorf","municipality":{"key":"14524140","name":"Langenbernsdorf","type":"Kreisangehörige_Gemeinde"},"district":{"key":"14524","name":"Zwickau","type":"Landkreis"},"federalState":{"key":"14","name":"Sachsen"}},{"name":"Zur Hasenheide","postalCode":"08428","locality":"Langenbernsdorf","municipality":{"key":"14524140","name":"Langenbernsdorf","type":"Kreisangehörige_Gemeinde"},"district":{"key":"14524","name":"Zwickau","type":"Landkreis"},"federalState":{"key":"14","name":"Sachsen"}},{"name":"Äußere Dresdner Str.","postalCode":"08066","locality":"Zwickau","municipality":{"key":"14524330","name":"Zwickau, Stadt","type":"Stadt"},"district":{"key":"14524","name":"Zwickau","type":"Landkreis"},"federalState":{"key":"14","name":"Sachsen"}},{"name":"Äußere Schneeberger Str.","postalCode":"08056","locality":"Zwickau","municipality":{"key":"14524330","name":"Zwickau, Stadt","type":"Stadt"},"district":{"key":"14524","name":"Zwickau","type":"Landkreis"},"federalState":{"key":"14","name":"Sachsen"}},{"name":"Äußere Zwickauer Str.","postalCode":"08064","locality":"Zwickau","municipality":{"key":"14524330","name":"Zwickau, Stadt","type":"Stadt"},"district":{"key":"14524","name":"Zwickau","type":"Landkreis"},"federalState":{"key":"14","name":"Sachsen"}},]