[{"key":"10022801","name":"Au Village","postalCode":"1642","locality":"Sorens","commune":{"key":"2153","name":"Sorens","shortName":"Sorens"},"district":{"key":"1003","name":"District de la Gruyère"},"canton":{"key":"10","code":"FR","name":"Fribourg / Freiburg"},"status":"Real"},{"key":"10088712","name":"Beauregard","postalCode":"1642","locality":"Sorens","commune":{"key":"2153","name":"Sorens","shortName":"Sorens"},"district":{"key":"1003","name":"District de la Gruyère"},"canton":{"key":"10","code":"FR","name":"Fribourg / Freiburg"},"status":"Real"},{"key":"10157537","name":"Camping-La-Forêt","postalCode":"1642","locality":"Sorens","commune":{"key":"2153","name":"Sorens","shortName":"Sorens"},"district":{"key":"1003","name":"District de la Gruyère"},"canton":{"key":"10","code":"FR","name":"Fribourg / Freiburg"},"status":"Real"},{"key":"10139103","name":"Chalet d'Amont","postalCode":"1642","locality":"Sorens","commune":{"key":"2153","name":"Sorens","shortName":"Sorens"},"district":{"key":"1003","name":"District de la Gruyère"},"canton":{"key":"10","code":"FR","name":"Fribourg / Freiburg"},"status":"Real"},{"key":"10157538","name":"Charbonnière","postalCode":"1642","locality":"Sorens","commune":{"key":"2153","name":"Sorens","shortName":"Sorens"},"district":{"key":"1003","name":"District de la Gruyère"},"canton":{"key":"10","code":"FR","name":"Fribourg / Freiburg"},"status":"Real"},{"key":"10145163","name":"Chemin de la Paix","postalCode":"1642","locality":"Sorens","commune":{"key":"2153","name":"Sorens","shortName":"Sorens"},"district":{"key":"1003","name":"District de la Gruyère"},"canton":{"key":"10","code":"FR","name":"Fribourg / Freiburg"},"status":"Real"},{"key":"10153184","name":"Chemin de Montiollin","postalCode":"1642","locality":"Sorens","commune":{"key":"2153","name":"Sorens","shortName":"Sorens"},"district":{"key":"1003","name":"District de la Gruyère"},"canton":{"key":"10","code":"FR","name":"Fribourg / Freiburg"},"status":"Real"},{"key":"10052203","name":"Chemin de Pra-Genoud","postalCode":"1642","locality":"Sorens","commune":{"key":"2153","name":"Sorens","shortName":"Sorens"},"district":{"key":"1003","name":"District de la Gruyère"},"canton":{"key":"10","code":"FR","name":"Fribourg / Freiburg"},"status":"Real"},{"key":"10157540","name":"Chemin des Rontes","postalCode":"1642","locality":"Sorens","commune":{"key":"2153","name":"Sorens","shortName":"Sorens"},"district":{"key":"1003","name":"District de la Gruyère"},"canton":{"key":"10","code":"FR","name":"Fribourg / Freiburg"},"status":"Real"},{"key":"10157541","name":"Chemin du Foyer","postalCode":"1642","locality":"Sorens","commune":{"key":"2153","name":"Sorens","shortName":"Sorens"},"district":{"key":"1003","name":"District de la Gruyère"},"canton":{"key":"10","code":"FR","name":"Fribourg / Freiburg"},"status":"Real"},{"key":"10157542","name":"Chemin du Stand","postalCode":"1642","locality":"Sorens","commune":{"key":"2153","name":"Sorens","shortName":"Sorens"},"district":{"key":"1003","name":"District de la Gruyère"},"canton":{"key":"10","code":"FR","name":"Fribourg / Freiburg"},"status":"Real"},{"key":"10144790","name":"Cotagery","postalCode":"1642","locality":"Sorens","commune":{"key":"2153","name":"Sorens","shortName":"Sorens"},"district":{"key":"1003","name":"District de la Gruyère"},"canton":{"key":"10","code":"FR","name":"Fribourg / Freiburg"},"status":"Real"},{"key":"10253258","name":"Côtes-à-Richard","postalCode":"1642","locality":"Sorens","commune":{"key":"2153","name":"Sorens","shortName":"Sorens"},"district":{"key":"1003","name":"District de la Gruyère"},"canton":{"key":"10","code":"FR","name":"Fribourg / Freiburg"},"status":"Real"},{"key":"10022803","name":"Cudré","postalCode":"1642","locality":"Sorens","commune":{"key":"2153","name":"Sorens","shortName":"Sorens"},"district":{"key":"1003","name":"District de la Gruyère"},"canton":{"key":"10","code":"FR","name":"Fribourg / Freiburg"},"status":"Real"},{"key":"10022802","name":"En Coppy","postalCode":"1642","locality":"Sorens","commune":{"key":"2153","name":"Sorens","shortName":"Sorens"},"district":{"key":"1003","name":"District de la Gruyère"},"canton":{"key":"10","code":"FR","name":"Fribourg / Freiburg"},"status":"Real"},{"key":"10157543","name":"En Pochon","postalCode":"1642","locality":"Sorens","commune":{"key":"2153","name":"Sorens","shortName":"Sorens"},"district":{"key":"1003","name":"District de la Gruyère"},"canton":{"key":"10","code":"FR","name":"Fribourg / Freiburg"},"status":"Real"},{"key":"10022804","name":"Fin-de-Villard","postalCode":"1642","locality":"Sorens","commune":{"key":"2153","name":"Sorens","shortName":"Sorens"},"district":{"key":"1003","name":"District de la Gruyère"},"canton":{"key":"10","code":"FR","name":"Fribourg / Freiburg"},"status":"Real"},{"key":"10160968","name":"Grosse-Verna","postalCode":"1642","locality":"Sorens","commune":{"key":"2153","name":"Sorens","shortName":"Sorens"},"district":{"key":"1003","name":"District de la Gruyère"},"canton":{"key":"10","code":"FR","name":"Fribourg / Freiburg"},"status":"Real"},{"key":"10145162","name":"Impasse de la Croix","postalCode":"1642","locality":"Sorens","commune":{"key":"2153","name":"Sorens","shortName":"Sorens"},"district":{"key":"1003","name":"District de la Gruyère"},"canton":{"key":"10","code":"FR","name":"Fribourg / Freiburg"},"status":"Real"},{"key":"10088713","name":"Jotterand","postalCode":"1642","locality":"Sorens","commune":{"key":"2153","name":"Sorens","shortName":"Sorens"},"district":{"key":"1003","name":"District de la Gruyère"},"canton":{"key":"10","code":"FR","name":"Fribourg / Freiburg"},"status":"Real"},{"key":"10253275","name":"La Côte des Troncs","postalCode":"1642","locality":"Sorens","commune":{"key":"2153","name":"Sorens","shortName":"Sorens"},"district":{"key":"1003","name":"District de la Gruyère"},"canton":{"key":"10","code":"FR","name":"Fribourg / Freiburg"},"status":"Real"},{"key":"10253281","name":"La Felotta","postalCode":"1642","locality":"Sorens","commune":{"key":"2153","name":"Sorens","shortName":"Sorens"},"district":{"key":"1003","name":"District de la Gruyère"},"canton":{"key":"10","code":"FR","name":"Fribourg / Freiburg"},"status":"Real"},{"key":"10253287","name":"La Fin Delez","postalCode":"1642","locality":"Sorens","commune":{"key":"2153","name":"Sorens","shortName":"Sorens"},"district":{"key":"1003","name":"District de la Gruyère"},"canton":{"key":"10","code":"FR","name":"Fribourg / Freiburg"},"status":"Real"},{"key":"10022805","name":"La Gissetta","postalCode":"1642","locality":"Sorens","commune":{"key":"2153","name":"Sorens","shortName":"Sorens"},"district":{"key":"1003","name":"District de la Gruyère"},"canton":{"key":"10","code":"FR","name":"Fribourg / Freiburg"},"status":"Real"},{"key":"10124051","name":"La Grangette","postalCode":"1642","locality":"Sorens","commune":{"key":"2153","name":"Sorens","shortName":"Sorens"},"district":{"key":"1003","name":"District de la Gruyère"},"canton":{"key":"10","code":"FR","name":"Fribourg / Freiburg"},"status":"Real"},{"key":"10166396","name":"La Grosse Pierre","postalCode":"1642","locality":"Sorens","commune":{"key":"2153","name":"Sorens","shortName":"Sorens"},"district":{"key":"1003","name":"District de la Gruyère"},"canton":{"key":"10","code":"FR","name":"Fribourg / Freiburg"},"status":"Real"},{"key":"10022806","name":"La Palla","postalCode":"1642","locality":"Sorens","commune":{"key":"2153","name":"Sorens","shortName":"Sorens"},"district":{"key":"1003","name":"District de la Gruyère"},"canton":{"key":"10","code":"FR","name":"Fribourg / Freiburg"},"status":"Real"},{"key":"10253295","name":"La Verna","postalCode":"1642","locality":"Sorens","commune":{"key":"2153","name":"Sorens","shortName":"Sorens"},"district":{"key":"1003","name":"District de la Gruyère"},"canton":{"key":"10","code":"FR","name":"Fribourg / Freiburg"},"status":"Real"},{"key":"10022807","name":"Le Bugnon","postalCode":"1642","locality":"Sorens","commune":{"key":"2153","name":"Sorens","shortName":"Sorens"},"district":{"key":"1003","name":"District de la Gruyère"},"canton":{"key":"10","code":"FR","name":"Fribourg / Freiburg"},"status":"Real"},{"key":"10253301","name":"Le Carro","postalCode":"1642","locality":"Sorens","commune":{"key":"2153","name":"Sorens","shortName":"Sorens"},"district":{"key":"1003","name":"District de la Gruyère"},"canton":{"key":"10","code":"FR","name":"Fribourg / Freiburg"},"status":"Real"},{"key":"10191538","name":"Le Gérigno","postalCode":"1642","locality":"Sorens","commune":{"key":"2153","name":"Sorens","shortName":"Sorens"},"district":{"key":"1003","name":"District de la Gruyère"},"canton":{"key":"10","code":"FR","name":"Fribourg / Freiburg"},"status":"Real"},{"key":"10253312","name":"Le Gibloux","postalCode":"1642","locality":"Sorens","commune":{"key":"2153","name":"Sorens","shortName":"Sorens"},"district":{"key":"1003","name":"District de la Gruyère"},"canton":{"key":"10","code":"FR","name":"Fribourg / Freiburg"},"status":"Real"},{"key":"10066227","name":"Le Perrex","postalCode":"1642","locality":"Sorens","commune":{"key":"2153","name":"Sorens","shortName":"Sorens"},"district":{"key":"1003","name":"District de la Gruyère"},"canton":{"key":"10","code":"FR","name":"Fribourg / Freiburg"},"status":"Real"},{"key":"10253319","name":"Le Riondi","postalCode":"1642","locality":"Sorens","commune":{"key":"2153","name":"Sorens","shortName":"Sorens"},"district":{"key":"1003","name":"District de la Gruyère"},"canton":{"key":"10","code":"FR","name":"Fribourg / Freiburg"},"status":"Real"},{"key":"10051395","name":"Le Ru","postalCode":"1642","locality":"Sorens","commune":{"key":"2153","name":"Sorens","shortName":"Sorens"},"district":{"key":"1003","name":"District de la Gruyère"},"canton":{"key":"10","code":"FR","name":"Fribourg / Freiburg"},"status":"Real"},{"key":"10253322","name":"Les Closis","postalCode":"1642","locality":"Sorens","commune":{"key":"2153","name":"Sorens","shortName":"Sorens"},"district":{"key":"1003","name":"District de la Gruyère"},"canton":{"key":"10","code":"FR","name":"Fribourg / Freiburg"},"status":"Real"},{"key":"10253333","name":"Les Paquiers","postalCode":"1642","locality":"Sorens","commune":{"key":"2153","name":"Sorens","shortName":"Sorens"},"district":{"key":"1003","name":"District de la Gruyère"},"canton":{"key":"10","code":"FR","name":"Fribourg / Freiburg"},"status":"Real"},{"key":"10022808","name":"Les Tours","postalCode":"1642","locality":"Sorens","commune":{"key":"2153","name":"Sorens","shortName":"Sorens"},"district":{"key":"1003","name":"District de la Gruyère"},"canton":{"key":"10","code":"FR","name":"Fribourg / Freiburg"},"status":"Real"},{"key":"10253342","name":"Les Troncs","postalCode":"1642","locality":"Sorens","commune":{"key":"2153","name":"Sorens","shortName":"Sorens"},"district":{"key":"1003","name":"District de la Gruyère"},"canton":{"key":"10","code":"FR","name":"Fribourg / Freiburg"},"status":"Real"},{"key":"10253350","name":"L'Obeca","postalCode":"1642","locality":"Sorens","commune":{"key":"2153","name":"Sorens","shortName":"Sorens"},"district":{"key":"1003","name":"District de la Gruyère"},"canton":{"key":"10","code":"FR","name":"Fribourg / Freiburg"},"status":"Real"},{"key":"10110353","name":"Pépin","postalCode":"1642","locality":"Sorens","commune":{"key":"2153","name":"Sorens","shortName":"Sorens"},"district":{"key":"1003","name":"District de la Gruyère"},"canton":{"key":"10","code":"FR","name":"Fribourg / Freiburg"},"status":"Real"},{"key":"10052205","name":"Plan-des-Marais","postalCode":"1642","locality":"Sorens","commune":{"key":"2153","name":"Sorens","shortName":"Sorens"},"district":{"key":"1003","name":"District de la Gruyère"},"canton":{"key":"10","code":"FR","name":"Fribourg / Freiburg"},"status":"Real"},{"key":"10088714","name":"Pra-Mettraux","postalCode":"1642","locality":"Sorens","commune":{"key":"2153","name":"Sorens","shortName":"Sorens"},"district":{"key":"1003","name":"District de la Gruyère"},"canton":{"key":"10","code":"FR","name":"Fribourg / Freiburg"},"status":"Real"},{"key":"10253360","name":"Pra-Perretta","postalCode":"1642","locality":"Sorens","commune":{"key":"2153","name":"Sorens","shortName":"Sorens"},"district":{"key":"1003","name":"District de la Gruyère"},"canton":{"key":"10","code":"FR","name":"Fribourg / Freiburg"},"status":"Real"},{"key":"10052206","name":"Route de l'Abbaye","postalCode":"1642","locality":"Sorens","commune":{"key":"2153","name":"Sorens","shortName":"Sorens"},"district":{"key":"1003","name":"District de la Gruyère"},"canton":{"key":"10","code":"FR","name":"Fribourg / Freiburg"},"status":"Real"},{"key":"10144789","name":"Route des Jorettes","postalCode":"1642","locality":"Sorens","commune":{"key":"2153","name":"Sorens","shortName":"Sorens"},"district":{"key":"1003","name":"District de la Gruyère"},"canton":{"key":"10","code":"FR","name":"Fribourg / Freiburg"},"status":"Real"},{"key":"10153185","name":"Route des Versanes","postalCode":"1642","locality":"Sorens","commune":{"key":"2153","name":"Sorens","shortName":"Sorens"},"district":{"key":"1003","name":"District de la Gruyère"},"canton":{"key":"10","code":"FR","name":"Fribourg / Freiburg"},"status":"Real"},{"key":"10052209","name":"Route Principale","postalCode":"1642","locality":"Sorens","commune":{"key":"2153","name":"Sorens","shortName":"Sorens"},"district":{"key":"1003","name":"District de la Gruyère"},"canton":{"key":"10","code":"FR","name":"Fribourg / Freiburg"},"status":"Real"},{"key":"10157548","name":"Sous-l'Eglise","postalCode":"1642","locality":"Sorens","commune":{"key":"2153","name":"Sorens","shortName":"Sorens"},"district":{"key":"1003","name":"District de la Gruyère"},"canton":{"key":"10","code":"FR","name":"Fribourg / Freiburg"},"status":"Real"},{"key":"10051396","name":"Sous-les-Prés","postalCode":"1642","locality":"Sorens","commune":{"key":"2153","name":"Sorens","shortName":"Sorens"},"district":{"key":"1003","name":"District de la Gruyère"},"canton":{"key":"10","code":"FR","name":"Fribourg / Freiburg"},"status":"Real"},{"key":"10253368","name":"Sur-Jean-Pierre","postalCode":"1642","locality":"Sorens","commune":{"key":"2153","name":"Sorens","shortName":"Sorens"},"district":{"key":"1003","name":"District de la Gruyère"},"canton":{"key":"10","code":"FR","name":"Fribourg / Freiburg"},"status":"Real"},{"key":"10052216","name":"Sur-la-Scie","postalCode":"1642","locality":"Sorens","commune":{"key":"2153","name":"Sorens","shortName":"Sorens"},"district":{"key":"1003","name":"District de la Gruyère"},"canton":{"key":"10","code":"FR","name":"Fribourg / Freiburg"},"status":"Real"},{"key":"10253375","name":"Sur-les-Obèques","postalCode":"1642","locality":"Sorens","commune":{"key":"2153","name":"Sorens","shortName":"Sorens"},"district":{"key":"1003","name":"District de la Gruyère"},"canton":{"key":"10","code":"FR","name":"Fribourg / Freiburg"},"status":"Real"},{"key":"10066229","name":"Vers-les-Masson","postalCode":"1642","locality":"Sorens","commune":{"key":"2153","name":"Sorens","shortName":"Sorens"},"district":{"key":"1003","name":"District de la Gruyère"},"canton":{"key":"10","code":"FR","name":"Fribourg / Freiburg"},"status":"Real"},{"key":"10088715","name":"Vers-les-Roulin","postalCode":"1642","locality":"Sorens","commune":{"key":"2153","name":"Sorens","shortName":"Sorens"},"district":{"key":"1003","name":"District de la Gruyère"},"canton":{"key":"10","code":"FR","name":"Fribourg / Freiburg"},"status":"Real"},]