[{"key":"10133266","name":"Chemin des Vergers","postalCode":"2806","locality":"Mettembert","commune":{"key":"6711","name":"Delémont","shortName":"Delémont"},"district":{"key":"2601","name":"District de Delémont"},"canton":{"key":"26","code":"JU","name":"Jura"},"status":"Real"},{"key":"10223329","name":"Combe de Mettembert","postalCode":"2806","locality":"Mettembert","commune":{"key":"6711","name":"Delémont","shortName":"Delémont"},"district":{"key":"2601","name":"District de Delémont"},"canton":{"key":"26","code":"JU","name":"Jura"},"status":"Real"},{"key":"10100255","name":"En Haut la Côte","postalCode":"2806","locality":"Mettembert","commune":{"key":"6711","name":"Delémont","shortName":"Delémont"},"district":{"key":"2601","name":"District de Delémont"},"canton":{"key":"26","code":"JU","name":"Jura"},"status":"Real"},{"key":"10223340","name":"Forêt de Mettembert","postalCode":"2806","locality":"Mettembert","commune":{"key":"6711","name":"Delémont","shortName":"Delémont"},"district":{"key":"2601","name":"District de Delémont"},"canton":{"key":"26","code":"JU","name":"Jura"},"status":"Real"},{"key":"10183462","name":"La Charbonnette","postalCode":"2806","locality":"Mettembert","commune":{"key":"6711","name":"Delémont","shortName":"Delémont"},"district":{"key":"2601","name":"District de Delémont"},"canton":{"key":"26","code":"JU","name":"Jura"},"status":"Real"},{"key":"10144667","name":"La Gasse","postalCode":"2806","locality":"Mettembert","commune":{"key":"6711","name":"Delémont","shortName":"Delémont"},"district":{"key":"2601","name":"District de Delémont"},"canton":{"key":"26","code":"JU","name":"Jura"},"status":"Real"},{"key":"10159903","name":"Les Aimetteneux","postalCode":"2806","locality":"Mettembert","commune":{"key":"6711","name":"Delémont","shortName":"Delémont"},"district":{"key":"2601","name":"District de Delémont"},"canton":{"key":"26","code":"JU","name":"Jura"},"status":"Real"},{"key":"10223409","name":"Les Champs de la Croix","postalCode":"2806","locality":"Mettembert","commune":{"key":"6711","name":"Delémont","shortName":"Delémont"},"district":{"key":"2601","name":"District de Delémont"},"canton":{"key":"26","code":"JU","name":"Jura"},"status":"Real"},{"key":"10223413","name":"Les Champs des Perches","postalCode":"2806","locality":"Mettembert","commune":{"key":"6711","name":"Delémont","shortName":"Delémont"},"district":{"key":"2601","name":"District de Delémont"},"canton":{"key":"26","code":"JU","name":"Jura"},"status":"Real"},{"key":"10183480","name":"Métairie de Forme","postalCode":"2806","locality":"Mettembert","commune":{"key":"6711","name":"Delémont","shortName":"Delémont"},"district":{"key":"2601","name":"District de Delémont"},"canton":{"key":"26","code":"JU","name":"Jura"},"status":"Real"},{"key":"10063111","name":"Petit-Brunchenal","postalCode":"2806","locality":"Mettembert","commune":{"key":"6711","name":"Delémont","shortName":"Delémont"},"district":{"key":"2601","name":"District de Delémont"},"canton":{"key":"26","code":"JU","name":"Jura"},"status":"Real"},{"key":"10053123","name":"Route du Haut-Plateau","postalCode":"2806","locality":"Mettembert","commune":{"key":"6711","name":"Delémont","shortName":"Delémont"},"district":{"key":"2601","name":"District de Delémont"},"canton":{"key":"26","code":"JU","name":"Jura"},"status":"Real"},{"key":"10140756","name":"Ruelle de la Chèvre","postalCode":"2806","locality":"Mettembert","commune":{"key":"6711","name":"Delémont","shortName":"Delémont"},"district":{"key":"2601","name":"District de Delémont"},"canton":{"key":"26","code":"JU","name":"Jura"},"status":"Real"},{"key":"10153754","name":"Rue Sainte-Anne","postalCode":"2806","locality":"Mettembert","commune":{"key":"6711","name":"Delémont","shortName":"Delémont"},"district":{"key":"2601","name":"District de Delémont"},"canton":{"key":"26","code":"JU","name":"Jura"},"status":"Real"},{"key":"10053124","name":"Sur le Pré","postalCode":"2806","locality":"Mettembert","commune":{"key":"6711","name":"Delémont","shortName":"Delémont"},"district":{"key":"2601","name":"District de Delémont"},"canton":{"key":"26","code":"JU","name":"Jura"},"status":"Real"},]