[{"name":"1. Siedlungsweg","postalCode":"17335","locality":"Strasburg (Uckermark)","municipality":{"key":"13075130","name":"Strasburg (Uckermark), Stadt","type":"Stadt"},"district":{"key":"13075","name":"Vorpommern-Greifswald","type":"Landkreis"},"federalState":{"key":"13","name":"Mecklenburg-Vorpommern"}},{"name":"2. Siedlungsweg","postalCode":"17335","locality":"Strasburg (Uckermark)","municipality":{"key":"13075130","name":"Strasburg (Uckermark), Stadt","type":"Stadt"},"district":{"key":"13075","name":"Vorpommern-Greifswald","type":"Landkreis"},"federalState":{"key":"13","name":"Mecklenburg-Vorpommern"}},{"name":"3. Siedlungsweg","postalCode":"17335","locality":"Strasburg (Uckermark)","municipality":{"key":"13075130","name":"Strasburg (Uckermark), Stadt","type":"Stadt"},"district":{"key":"13075","name":"Vorpommern-Greifswald","type":"Landkreis"},"federalState":{"key":"13","name":"Mecklenburg-Vorpommern"}},{"name":"Adolf-Stahr-Str.","postalCode":"17291","locality":"Prenzlau","municipality":{"key":"12073452","name":"Prenzlau, Stadt","type":"Stadt"},"district":{"key":"12073","name":"Uckermark","type":"Landkreis"},"federalState":{"key":"12","name":"Brandenburg"}},{"name":"Ahornweg","postalCode":"17291","locality":"Prenzlau","municipality":{"key":"12073452","name":"Prenzlau, Stadt","type":"Stadt"},"district":{"key":"12073","name":"Uckermark","type":"Landkreis"},"federalState":{"key":"12","name":"Brandenburg"}},{"name":"Akazienstr.","postalCode":"17291","locality":"Prenzlau","municipality":{"key":"12073452","name":"Prenzlau, Stadt","type":"Stadt"},"district":{"key":"12073","name":"Uckermark","type":"Landkreis"},"federalState":{"key":"12","name":"Brandenburg"}},{"name":"Alexanderhöhe","postalCode":"17291","locality":"Prenzlau","municipality":{"key":"12073452","name":"Prenzlau, Stadt","type":"Stadt"},"district":{"key":"12073","name":"Uckermark","type":"Landkreis"},"federalState":{"key":"12","name":"Brandenburg"}},{"name":"Alexanderstr.","postalCode":"17291","locality":"Prenzlau","municipality":{"key":"12073452","name":"Prenzlau, Stadt","type":"Stadt"},"district":{"key":"12073","name":"Uckermark","type":"Landkreis"},"federalState":{"key":"12","name":"Brandenburg"}},{"name":"Alfred-Hinrichs-Str.","postalCode":"17291","locality":"Prenzlau","municipality":{"key":"12073452","name":"Prenzlau, Stadt","type":"Stadt"},"district":{"key":"12073","name":"Uckermark","type":"Landkreis"},"federalState":{"key":"12","name":"Brandenburg"}},{"name":"Am alten Bahndamm","postalCode":"17291","locality":"Prenzlau","municipality":{"key":"12073452","name":"Prenzlau, Stadt","type":"Stadt"},"district":{"key":"12073","name":"Uckermark","type":"Landkreis"},"federalState":{"key":"12","name":"Brandenburg"}},{"name":"Am Bahnhof","postalCode":"17291","locality":"Prenzlau","municipality":{"key":"12073452","name":"Prenzlau, Stadt","type":"Stadt"},"district":{"key":"12073","name":"Uckermark","type":"Landkreis"},"federalState":{"key":"12","name":"Brandenburg"}},{"name":"Am Dreieck","postalCode":"17291","locality":"Prenzlau","municipality":{"key":"12073452","name":"Prenzlau, Stadt","type":"Stadt"},"district":{"key":"12073","name":"Uckermark","type":"Landkreis"},"federalState":{"key":"12","name":"Brandenburg"}},{"name":"Am Durchbruch","postalCode":"17291","locality":"Prenzlau","municipality":{"key":"12073452","name":"Prenzlau, Stadt","type":"Stadt"},"district":{"key":"12073","name":"Uckermark","type":"Landkreis"},"federalState":{"key":"12","name":"Brandenburg"}},{"name":"Am Gaswerk","postalCode":"17291","locality":"Prenzlau","municipality":{"key":"12073452","name":"Prenzlau, Stadt","type":"Stadt"},"district":{"key":"12073","name":"Uckermark","type":"Landkreis"},"federalState":{"key":"12","name":"Brandenburg"}},{"name":"Am Igelpfuhl","postalCode":"17291","locality":"Prenzlau","municipality":{"key":"12073452","name":"Prenzlau, Stadt","type":"Stadt"},"district":{"key":"12073","name":"Uckermark","type":"Landkreis"},"federalState":{"key":"12","name":"Brandenburg"}},{"name":"Am Krankenhaus","postalCode":"17291","locality":"Prenzlau","municipality":{"key":"12073452","name":"Prenzlau, Stadt","type":"Stadt"},"district":{"key":"12073","name":"Uckermark","type":"Landkreis"},"federalState":{"key":"12","name":"Brandenburg"}},{"name":"Am Lindenberg","postalCode":"17291","locality":"Prenzlau","municipality":{"key":"12073452","name":"Prenzlau, Stadt","type":"Stadt"},"district":{"key":"12073","name":"Uckermark","type":"Landkreis"},"federalState":{"key":"12","name":"Brandenburg"}},{"name":"Am Quillow","postalCode":"17291","locality":"Prenzlau","municipality":{"key":"12073452","name":"Prenzlau, Stadt","type":"Stadt"},"district":{"key":"12073","name":"Uckermark","type":"Landkreis"},"federalState":{"key":"12","name":"Brandenburg"}},{"name":"Am Rohrteich","postalCode":"17291","locality":"Prenzlau","municipality":{"key":"12073452","name":"Prenzlau, Stadt","type":"Stadt"},"district":{"key":"12073","name":"Uckermark","type":"Landkreis"},"federalState":{"key":"12","name":"Brandenburg"}},{"name":"Am Sägewerk","postalCode":"17291","locality":"Prenzlau","municipality":{"key":"12073452","name":"Prenzlau, Stadt","type":"Stadt"},"district":{"key":"12073","name":"Uckermark","type":"Landkreis"},"federalState":{"key":"12","name":"Brandenburg"}},{"name":"Am Schäfergraben","postalCode":"17291","locality":"Prenzlau","municipality":{"key":"12073452","name":"Prenzlau, Stadt","type":"Stadt"},"district":{"key":"12073","name":"Uckermark","type":"Landkreis"},"federalState":{"key":"12","name":"Brandenburg"}},{"name":"Am Schafgrund","postalCode":"17291","locality":"Prenzlau","municipality":{"key":"12073452","name":"Prenzlau, Stadt","type":"Stadt"},"district":{"key":"12073","name":"Uckermark","type":"Landkreis"},"federalState":{"key":"12","name":"Brandenburg"}},{"name":"Am Scharfrichtersee","postalCode":"17291","locality":"Prenzlau","municipality":{"key":"12073452","name":"Prenzlau, Stadt","type":"Stadt"},"district":{"key":"12073","name":"Uckermark","type":"Landkreis"},"federalState":{"key":"12","name":"Brandenburg"}},{"name":"Am Seelübber See","postalCode":"17291","locality":"Prenzlau","municipality":{"key":"12073452","name":"Prenzlau, Stadt","type":"Stadt"},"district":{"key":"12073","name":"Uckermark","type":"Landkreis"},"federalState":{"key":"12","name":"Brandenburg"}},{"name":"Amselsteig","postalCode":"17291","locality":"Prenzlau","municipality":{"key":"12073452","name":"Prenzlau, Stadt","type":"Stadt"},"district":{"key":"12073","name":"Uckermark","type":"Landkreis"},"federalState":{"key":"12","name":"Brandenburg"}},{"name":"Am Stausee","postalCode":"17291","locality":"Prenzlau","municipality":{"key":"12073452","name":"Prenzlau, Stadt","type":"Stadt"},"district":{"key":"12073","name":"Uckermark","type":"Landkreis"},"federalState":{"key":"12","name":"Brandenburg"}},{"name":"Am Steintor","postalCode":"17291","locality":"Prenzlau","municipality":{"key":"12073452","name":"Prenzlau, Stadt","type":"Stadt"},"district":{"key":"12073","name":"Uckermark","type":"Landkreis"},"federalState":{"key":"12","name":"Brandenburg"}},{"name":"Am Sternberg","postalCode":"17291","locality":"Prenzlau","municipality":{"key":"12073452","name":"Prenzlau, Stadt","type":"Stadt"},"district":{"key":"12073","name":"Uckermark","type":"Landkreis"},"federalState":{"key":"12","name":"Brandenburg"}},{"name":"Am Strom","postalCode":"17291","locality":"Prenzlau","municipality":{"key":"12073452","name":"Prenzlau, Stadt","type":"Stadt"},"district":{"key":"12073","name":"Uckermark","type":"Landkreis"},"federalState":{"key":"12","name":"Brandenburg"}},{"name":"Am Uckerstadion","postalCode":"17291","locality":"Prenzlau","municipality":{"key":"12073452","name":"Prenzlau, Stadt","type":"Stadt"},"district":{"key":"12073","name":"Uckermark","type":"Landkreis"},"federalState":{"key":"12","name":"Brandenburg"}},{"name":"Am Umspannwerk","postalCode":"17291","locality":"Prenzlau","municipality":{"key":"12073452","name":"Prenzlau, Stadt","type":"Stadt"},"district":{"key":"12073","name":"Uckermark","type":"Landkreis"},"federalState":{"key":"12","name":"Brandenburg"}},{"name":"Am Weinberg","postalCode":"17291","locality":"Prenzlau","municipality":{"key":"12073452","name":"Prenzlau, Stadt","type":"Stadt"},"district":{"key":"12073","name":"Uckermark","type":"Landkreis"},"federalState":{"key":"12","name":"Brandenburg"}},{"name":"An der Baumschule","postalCode":"17291","locality":"Prenzlau","municipality":{"key":"12073452","name":"Prenzlau, Stadt","type":"Stadt"},"district":{"key":"12073","name":"Uckermark","type":"Landkreis"},"federalState":{"key":"12","name":"Brandenburg"}},{"name":"An der Milchviehanlage","postalCode":"17291","locality":"Prenzlau","municipality":{"key":"12073452","name":"Prenzlau, Stadt","type":"Stadt"},"district":{"key":"12073","name":"Uckermark","type":"Landkreis"},"federalState":{"key":"12","name":"Brandenburg"}},{"name":"An der Schnelle","postalCode":"17291","locality":"Prenzlau","municipality":{"key":"12073452","name":"Prenzlau, Stadt","type":"Stadt"},"district":{"key":"12073","name":"Uckermark","type":"Landkreis"},"federalState":{"key":"12","name":"Brandenburg"}},{"name":"An der Ucker","postalCode":"17291","locality":"Prenzlau","municipality":{"key":"12073452","name":"Prenzlau, Stadt","type":"Stadt"},"district":{"key":"12073","name":"Uckermark","type":"Landkreis"},"federalState":{"key":"12","name":"Brandenburg"}},{"name":"Angermünder Str.","postalCode":"17291","locality":"Prenzlau","municipality":{"key":"12073452","name":"Prenzlau, Stadt","type":"Stadt"},"district":{"key":"12073","name":"Uckermark","type":"Landkreis"},"federalState":{"key":"12","name":"Brandenburg"}},{"name":"Anlagen","postalCode":"17291","locality":"Prenzlau","municipality":{"key":"12073452","name":"Prenzlau, Stadt","type":"Stadt"},"district":{"key":"12073","name":"Uckermark","type":"Landkreis"},"federalState":{"key":"12","name":"Brandenburg"}},{"name":"Armaturenstr.","postalCode":"17291","locality":"Prenzlau","municipality":{"key":"12073452","name":"Prenzlau, Stadt","type":"Stadt"},"district":{"key":"12073","name":"Uckermark","type":"Landkreis"},"federalState":{"key":"12","name":"Brandenburg"}},{"name":"Automeile","postalCode":"17291","locality":"Prenzlau","municipality":{"key":"12073452","name":"Prenzlau, Stadt","type":"Stadt"},"district":{"key":"12073","name":"Uckermark","type":"Landkreis"},"federalState":{"key":"12","name":"Brandenburg"}},{"name":"Bäckerweg","postalCode":"17291","locality":"Prenzlau","municipality":{"key":"12073452","name":"Prenzlau, Stadt","type":"Stadt"},"district":{"key":"12073","name":"Uckermark","type":"Landkreis"},"federalState":{"key":"12","name":"Brandenburg"}},{"name":"Badestr.","postalCode":"17291","locality":"Prenzlau","municipality":{"key":"12073452","name":"Prenzlau, Stadt","type":"Stadt"},"district":{"key":"12073","name":"Uckermark","type":"Landkreis"},"federalState":{"key":"12","name":"Brandenburg"}},{"name":"Bahnhofstr.","postalCode":"17291","locality":"Prenzlau","municipality":{"key":"12073452","name":"Prenzlau, Stadt","type":"Stadt"},"district":{"key":"12073","name":"Uckermark","type":"Landkreis"},"federalState":{"key":"12","name":"Brandenburg"}},{"name":"Bahnwärterhaus","postalCode":"17291","locality":"Prenzlau","municipality":{"key":"12073452","name":"Prenzlau, Stadt","type":"Stadt"},"district":{"key":"12073","name":"Uckermark","type":"Landkreis"},"federalState":{"key":"12","name":"Brandenburg"}},{"name":"Basedower Str.","postalCode":"17291","locality":"Prenzlau","municipality":{"key":"12073452","name":"Prenzlau, Stadt","type":"Stadt"},"district":{"key":"12073","name":"Uckermark","type":"Landkreis"},"federalState":{"key":"12","name":"Brandenburg"}},{"name":"Baumgärtner Weg","postalCode":"17291","locality":"Prenzlau","municipality":{"key":"12073452","name":"Prenzlau, Stadt","type":"Stadt"},"district":{"key":"12073","name":"Uckermark","type":"Landkreis"},"federalState":{"key":"12","name":"Brandenburg"}},{"name":"Baustr.","postalCode":"17291","locality":"Prenzlau","municipality":{"key":"12073452","name":"Prenzlau, Stadt","type":"Stadt"},"district":{"key":"12073","name":"Uckermark","type":"Landkreis"},"federalState":{"key":"12","name":"Brandenburg"}},{"name":"Bergstr.","postalCode":"17291","locality":"Prenzlau","municipality":{"key":"12073452","name":"Prenzlau, Stadt","type":"Stadt"},"district":{"key":"12073","name":"Uckermark","type":"Landkreis"},"federalState":{"key":"12","name":"Brandenburg"}},{"name":"Berliner Str.","postalCode":"17291","locality":"Prenzlau","municipality":{"key":"12073452","name":"Prenzlau, Stadt","type":"Stadt"},"district":{"key":"12073","name":"Uckermark","type":"Landkreis"},"federalState":{"key":"12","name":"Brandenburg"}},{"name":"Bertikower Weg","postalCode":"17291","locality":"Prenzlau","municipality":{"key":"12073452","name":"Prenzlau, Stadt","type":"Stadt"},"district":{"key":"12073","name":"Uckermark","type":"Landkreis"},"federalState":{"key":"12","name":"Brandenburg"}},{"name":"Binnenmühle","postalCode":"17291","locality":"Prenzlau","municipality":{"key":"12073452","name":"Prenzlau, Stadt","type":"Stadt"},"district":{"key":"12073","name":"Uckermark","type":"Landkreis"},"federalState":{"key":"12","name":"Brandenburg"}},{"name":"Birkenweg","postalCode":"17291","locality":"Prenzlau","municipality":{"key":"12073452","name":"Prenzlau, Stadt","type":"Stadt"},"district":{"key":"12073","name":"Uckermark","type":"Landkreis"},"federalState":{"key":"12","name":"Brandenburg"}},{"name":"Blankenburger Weg","postalCode":"17291","locality":"Prenzlau","municipality":{"key":"12073452","name":"Prenzlau, Stadt","type":"Stadt"},"district":{"key":"12073","name":"Uckermark","type":"Landkreis"},"federalState":{"key":"12","name":"Brandenburg"}},{"name":"Blumenstr.","postalCode":"17291","locality":"Prenzlau","municipality":{"key":"12073452","name":"Prenzlau, Stadt","type":"Stadt"},"district":{"key":"12073","name":"Uckermark","type":"Landkreis"},"federalState":{"key":"12","name":"Brandenburg"}},{"name":"Bruchweg","postalCode":"17291","locality":"Prenzlau","municipality":{"key":"12073452","name":"Prenzlau, Stadt","type":"Stadt"},"district":{"key":"12073","name":"Uckermark","type":"Landkreis"},"federalState":{"key":"12","name":"Brandenburg"}},{"name":"Brüderstr.","postalCode":"17291","locality":"Prenzlau","municipality":{"key":"12073452","name":"Prenzlau, Stadt","type":"Stadt"},"district":{"key":"12073","name":"Uckermark","type":"Landkreis"},"federalState":{"key":"12","name":"Brandenburg"}},{"name":"Brüssower Allee","postalCode":"17291","locality":"Prenzlau","municipality":{"key":"12073452","name":"Prenzlau, Stadt","type":"Stadt"},"district":{"key":"12073","name":"Uckermark","type":"Landkreis"},"federalState":{"key":"12","name":"Brandenburg"}},{"name":"Brüssower Str.","postalCode":"17291","locality":"Prenzlau","municipality":{"key":"12073452","name":"Prenzlau, Stadt","type":"Stadt"},"district":{"key":"12073","name":"Uckermark","type":"Landkreis"},"federalState":{"key":"12","name":"Brandenburg"}},{"name":"Buchenweg","postalCode":"17291","locality":"Prenzlau","municipality":{"key":"12073452","name":"Prenzlau, Stadt","type":"Stadt"},"district":{"key":"12073","name":"Uckermark","type":"Landkreis"},"federalState":{"key":"12","name":"Brandenburg"}},{"name":"Bündigershof","postalCode":"17291","locality":"Prenzlau","municipality":{"key":"12073452","name":"Prenzlau, Stadt","type":"Stadt"},"district":{"key":"12073","name":"Uckermark","type":"Landkreis"},"federalState":{"key":"12","name":"Brandenburg"}},{"name":"Chausseestr.","postalCode":"17291","locality":"Nordwestuckermark","municipality":{"key":"12073429","name":"Nordwestuckermark","type":"Kreisangehörige_Gemeinde"},"district":{"key":"12073","name":"Uckermark","type":"Landkreis"},"federalState":{"key":"12","name":"Brandenburg"}},{"name":"Diesterwegstr.","postalCode":"17291","locality":"Prenzlau","municipality":{"key":"12073452","name":"Prenzlau, Stadt","type":"Stadt"},"district":{"key":"12073","name":"Uckermark","type":"Landkreis"},"federalState":{"key":"12","name":"Brandenburg"}},{"name":"Dittenplatz","postalCode":"17291","locality":"Prenzlau","municipality":{"key":"12073452","name":"Prenzlau, Stadt","type":"Stadt"},"district":{"key":"12073","name":"Uckermark","type":"Landkreis"},"federalState":{"key":"12","name":"Brandenburg"}},{"name":"Dorfstr.","postalCode":"17291","locality":"Prenzlau","municipality":{"key":"12073452","name":"Prenzlau, Stadt","type":"Stadt"},"district":{"key":"12073","name":"Uckermark","type":"Landkreis"},"federalState":{"key":"12","name":"Brandenburg"}},{"name":"Dr.-Bähr-Str.","postalCode":"17291","locality":"Prenzlau","municipality":{"key":"12073452","name":"Prenzlau, Stadt","type":"Stadt"},"district":{"key":"12073","name":"Uckermark","type":"Landkreis"},"federalState":{"key":"12","name":"Brandenburg"}},{"name":"Dreyershof","postalCode":"17291","locality":"Prenzlau","municipality":{"key":"12073452","name":"Prenzlau, Stadt","type":"Stadt"},"district":{"key":"12073","name":"Uckermark","type":"Landkreis"},"federalState":{"key":"12","name":"Brandenburg"}},{"name":"Dr.-Lena-Ohnesorge-Str.","postalCode":"17291","locality":"Prenzlau","municipality":{"key":"12073452","name":"Prenzlau, Stadt","type":"Stadt"},"district":{"key":"12073","name":"Uckermark","type":"Landkreis"},"federalState":{"key":"12","name":"Brandenburg"}},{"name":"Drosselgasse","postalCode":"17291","locality":"Prenzlau","municipality":{"key":"12073452","name":"Prenzlau, Stadt","type":"Stadt"},"district":{"key":"12073","name":"Uckermark","type":"Landkreis"},"federalState":{"key":"12","name":"Brandenburg"}},{"name":"Dr.-Wilhelm-Külz-Str.","postalCode":"17291","locality":"Prenzlau","municipality":{"key":"12073452","name":"Prenzlau, Stadt","type":"Stadt"},"district":{"key":"12073","name":"Uckermark","type":"Landkreis"},"federalState":{"key":"12","name":"Brandenburg"}},{"name":"Eibenweg","postalCode":"17291","locality":"Prenzlau","municipality":{"key":"12073452","name":"Prenzlau, Stadt","type":"Stadt"},"district":{"key":"12073","name":"Uckermark","type":"Landkreis"},"federalState":{"key":"12","name":"Brandenburg"}},{"name":"Ellingen","postalCode":"17291","locality":"Prenzlau","municipality":{"key":"12073452","name":"Prenzlau, Stadt","type":"Stadt"},"district":{"key":"12073","name":"Uckermark","type":"Landkreis"},"federalState":{"key":"12","name":"Brandenburg"}},{"name":"Erlenweg","postalCode":"17291","locality":"Prenzlau","municipality":{"key":"12073452","name":"Prenzlau, Stadt","type":"Stadt"},"district":{"key":"12073","name":"Uckermark","type":"Landkreis"},"federalState":{"key":"12","name":"Brandenburg"}},{"name":"Eschenweg","postalCode":"17291","locality":"Prenzlau","municipality":{"key":"12073452","name":"Prenzlau, Stadt","type":"Stadt"},"district":{"key":"12073","name":"Uckermark","type":"Landkreis"},"federalState":{"key":"12","name":"Brandenburg"}},{"name":"Ewaldshof","postalCode":"17291","locality":"Prenzlau","municipality":{"key":"12073452","name":"Prenzlau, Stadt","type":"Stadt"},"district":{"key":"12073","name":"Uckermark","type":"Landkreis"},"federalState":{"key":"12","name":"Brandenburg"}},{"name":"Feldstr.","postalCode":"17291","locality":"Prenzlau","municipality":{"key":"12073452","name":"Prenzlau, Stadt","type":"Stadt"},"district":{"key":"12073","name":"Uckermark","type":"Landkreis"},"federalState":{"key":"12","name":"Brandenburg"}},{"name":"Fichtenweg","postalCode":"17291","locality":"Prenzlau","municipality":{"key":"12073452","name":"Prenzlau, Stadt","type":"Stadt"},"district":{"key":"12073","name":"Uckermark","type":"Landkreis"},"federalState":{"key":"12","name":"Brandenburg"}},{"name":"Fischerstr.","postalCode":"17291","locality":"Prenzlau","municipality":{"key":"12073452","name":"Prenzlau, Stadt","type":"Stadt"},"district":{"key":"12073","name":"Uckermark","type":"Landkreis"},"federalState":{"key":"12","name":"Brandenburg"}},{"name":"Fliederweg","postalCode":"17291","locality":"Prenzlau","municipality":{"key":"12073452","name":"Prenzlau, Stadt","type":"Stadt"},"district":{"key":"12073","name":"Uckermark","type":"Landkreis"},"federalState":{"key":"12","name":"Brandenburg"}},{"name":"Fohlenbruch","postalCode":"17291","locality":"Prenzlau","municipality":{"key":"12073452","name":"Prenzlau, Stadt","type":"Stadt"},"district":{"key":"12073","name":"Uckermark","type":"Landkreis"},"federalState":{"key":"12","name":"Brandenburg"}},{"name":"Franz-Wienholz-Str.","postalCode":"17291","locality":"Prenzlau","municipality":{"key":"12073452","name":"Prenzlau, Stadt","type":"Stadt"},"district":{"key":"12073","name":"Uckermark","type":"Landkreis"},"federalState":{"key":"12","name":"Brandenburg"}},{"name":"Freyschmidtstr.","postalCode":"17291","locality":"Prenzlau","municipality":{"key":"12073452","name":"Prenzlau, Stadt","type":"Stadt"},"district":{"key":"12073","name":"Uckermark","type":"Landkreis"},"federalState":{"key":"12","name":"Brandenburg"}},{"name":"Friedenskamp","postalCode":"17291","locality":"Prenzlau","municipality":{"key":"12073452","name":"Prenzlau, Stadt","type":"Stadt"},"district":{"key":"12073","name":"Uckermark","type":"Landkreis"},"federalState":{"key":"12","name":"Brandenburg"}},{"name":"Friedhofstr.","postalCode":"17291","locality":"Prenzlau","municipality":{"key":"12073452","name":"Prenzlau, Stadt","type":"Stadt"},"district":{"key":"12073","name":"Uckermark","type":"Landkreis"},"federalState":{"key":"12","name":"Brandenburg"}},{"name":"Friedrichstr.","postalCode":"17291","locality":"Prenzlau","municipality":{"key":"12073452","name":"Prenzlau, Stadt","type":"Stadt"},"district":{"key":"12073","name":"Uckermark","type":"Landkreis"},"federalState":{"key":"12","name":"Brandenburg"}},{"name":"Frohe Zukunft","postalCode":"17291","locality":"Prenzlau","municipality":{"key":"12073452","name":"Prenzlau, Stadt","type":"Stadt"},"district":{"key":"12073","name":"Uckermark","type":"Landkreis"},"federalState":{"key":"12","name":"Brandenburg"}},{"name":"Gartenstr.","postalCode":"17291","locality":"Prenzlau","municipality":{"key":"12073452","name":"Prenzlau, Stadt","type":"Stadt"},"district":{"key":"12073","name":"Uckermark","type":"Landkreis"},"federalState":{"key":"12","name":"Brandenburg"}},{"name":"Gebrüder-Hoffmann-Str.","postalCode":"17291","locality":"Prenzlau","municipality":{"key":"12073452","name":"Prenzlau, Stadt","type":"Stadt"},"district":{"key":"12073","name":"Uckermark","type":"Landkreis"},"federalState":{"key":"12","name":"Brandenburg"}},{"name":"Georg-Dreke-Ring","postalCode":"17291","locality":"Prenzlau","municipality":{"key":"12073452","name":"Prenzlau, Stadt","type":"Stadt"},"district":{"key":"12073","name":"Uckermark","type":"Landkreis"},"federalState":{"key":"12","name":"Brandenburg"}},{"name":"Geschwister-Scholl-Str.","postalCode":"17291","locality":"Prenzlau","municipality":{"key":"12073452","name":"Prenzlau, Stadt","type":"Stadt"},"district":{"key":"12073","name":"Uckermark","type":"Landkreis"},"federalState":{"key":"12","name":"Brandenburg"}},{"name":"Gewerbestr.","postalCode":"17291","locality":"Prenzlau","municipality":{"key":"12073452","name":"Prenzlau, Stadt","type":"Stadt"},"district":{"key":"12073","name":"Uckermark","type":"Landkreis"},"federalState":{"key":"12","name":"Brandenburg"}},{"name":"Goethestr.","postalCode":"17291","locality":"Prenzlau","municipality":{"key":"12073452","name":"Prenzlau, Stadt","type":"Stadt"},"district":{"key":"12073","name":"Uckermark","type":"Landkreis"},"federalState":{"key":"12","name":"Brandenburg"}},{"name":"Grabowstr.","postalCode":"17291","locality":"Prenzlau","municipality":{"key":"12073452","name":"Prenzlau, Stadt","type":"Stadt"},"district":{"key":"12073","name":"Uckermark","type":"Landkreis"},"federalState":{"key":"12","name":"Brandenburg"}},{"name":"Großes Bruch","postalCode":"17291","locality":"Prenzlau","municipality":{"key":"12073452","name":"Prenzlau, Stadt","type":"Stadt"},"district":{"key":"12073","name":"Uckermark","type":"Landkreis"},"federalState":{"key":"12","name":"Brandenburg"}},{"name":"Grüner Weg","postalCode":"17291","locality":"Prenzlau","municipality":{"key":"12073452","name":"Prenzlau, Stadt","type":"Stadt"},"district":{"key":"12073","name":"Uckermark","type":"Landkreis"},"federalState":{"key":"12","name":"Brandenburg"}},{"name":"Grüner Winkel","postalCode":"17291","locality":"Prenzlau","municipality":{"key":"12073452","name":"Prenzlau, Stadt","type":"Stadt"},"district":{"key":"12073","name":"Uckermark","type":"Landkreis"},"federalState":{"key":"12","name":"Brandenburg"}},{"name":"Grünower Chaussee","postalCode":"17291","locality":"Prenzlau","municipality":{"key":"12073452","name":"Prenzlau, Stadt","type":"Stadt"},"district":{"key":"12073","name":"Uckermark","type":"Landkreis"},"federalState":{"key":"12","name":"Brandenburg"}},{"name":"Grünower Weg","postalCode":"17291","locality":"Prenzlau","municipality":{"key":"12073452","name":"Prenzlau, Stadt","type":"Stadt"},"district":{"key":"12073","name":"Uckermark","type":"Landkreis"},"federalState":{"key":"12","name":"Brandenburg"}},{"name":"Güstower Str.","postalCode":"17291","locality":"Prenzlau","municipality":{"key":"12073452","name":"Prenzlau, Stadt","type":"Stadt"},"district":{"key":"12073","name":"Uckermark","type":"Landkreis"},"federalState":{"key":"12","name":"Brandenburg"}},{"name":"Heideweg","postalCode":"17291","locality":"Prenzlau","municipality":{"key":"12073452","name":"Prenzlau, Stadt","type":"Stadt"},"district":{"key":"12073","name":"Uckermark","type":"Landkreis"},"federalState":{"key":"12","name":"Brandenburg"}},{"name":"Heinrich-Heine-Str.","postalCode":"17291","locality":"Prenzlau","municipality":{"key":"12073452","name":"Prenzlau, Stadt","type":"Stadt"},"district":{"key":"12073","name":"Uckermark","type":"Landkreis"},"federalState":{"key":"12","name":"Brandenburg"}},{"name":"Hospitalstr.","postalCode":"17291","locality":"Prenzlau","municipality":{"key":"12073452","name":"Prenzlau, Stadt","type":"Stadt"},"district":{"key":"12073","name":"Uckermark","type":"Landkreis"},"federalState":{"key":"12","name":"Brandenburg"}},{"name":"Inselweg","postalCode":"17291","locality":"Nordwestuckermark","municipality":{"key":"12073429","name":"Nordwestuckermark","type":"Kreisangehörige_Gemeinde"},"district":{"key":"12073","name":"Uckermark","type":"Landkreis"},"federalState":{"key":"12","name":"Brandenburg"}},{"name":"Jüteritzer Str.","postalCode":"17335","locality":"Strasburg (Uckermark)","municipality":{"key":"13075130","name":"Strasburg (Uckermark), Stadt","type":"Stadt"},"district":{"key":"13075","name":"Vorpommern-Greifswald","type":"Landkreis"},"federalState":{"key":"13","name":"Mecklenburg-Vorpommern"}},{"name":"Karl-Marx-Str.","postalCode":"17291","locality":"Prenzlau","municipality":{"key":"12073452","name":"Prenzlau, Stadt","type":"Stadt"},"district":{"key":"12073","name":"Uckermark","type":"Landkreis"},"federalState":{"key":"12","name":"Brandenburg"}},{"name":"Kastanienweg","postalCode":"17291","locality":"Prenzlau","municipality":{"key":"12073452","name":"Prenzlau, Stadt","type":"Stadt"},"district":{"key":"12073","name":"Uckermark","type":"Landkreis"},"federalState":{"key":"12","name":"Brandenburg"}},{"name":"Kiefernweg","postalCode":"17291","locality":"Prenzlau","municipality":{"key":"12073452","name":"Prenzlau, Stadt","type":"Stadt"},"district":{"key":"12073","name":"Uckermark","type":"Landkreis"},"federalState":{"key":"12","name":"Brandenburg"}},{"name":"Kietzstr.","postalCode":"17291","locality":"Prenzlau","municipality":{"key":"12073452","name":"Prenzlau, Stadt","type":"Stadt"},"district":{"key":"12073","name":"Uckermark","type":"Landkreis"},"federalState":{"key":"12","name":"Brandenburg"}},{"name":"Kirchweg","postalCode":"17291","locality":"Prenzlau","municipality":{"key":"12073452","name":"Prenzlau, Stadt","type":"Stadt"},"district":{"key":"12073","name":"Uckermark","type":"Landkreis"},"federalState":{"key":"12","name":"Brandenburg"}},{"name":"Kleine Baustr.","postalCode":"17291","locality":"Prenzlau","municipality":{"key":"12073452","name":"Prenzlau, Stadt","type":"Stadt"},"district":{"key":"12073","name":"Uckermark","type":"Landkreis"},"federalState":{"key":"12","name":"Brandenburg"}},{"name":"Kleine Friedrichstr.","postalCode":"17291","locality":"Prenzlau","municipality":{"key":"12073452","name":"Prenzlau, Stadt","type":"Stadt"},"district":{"key":"12073","name":"Uckermark","type":"Landkreis"},"federalState":{"key":"12","name":"Brandenburg"}},{"name":"Kleine Heide","postalCode":"17291","locality":"Prenzlau","municipality":{"key":"12073452","name":"Prenzlau, Stadt","type":"Stadt"},"district":{"key":"12073","name":"Uckermark","type":"Landkreis"},"federalState":{"key":"12","name":"Brandenburg"}},{"name":"Klosterstr.","postalCode":"17291","locality":"Prenzlau","municipality":{"key":"12073452","name":"Prenzlau, Stadt","type":"Stadt"},"district":{"key":"12073","name":"Uckermark","type":"Landkreis"},"federalState":{"key":"12","name":"Brandenburg"}},{"name":"Koppelweg","postalCode":"17291","locality":"Prenzlau","municipality":{"key":"12073452","name":"Prenzlau, Stadt","type":"Stadt"},"district":{"key":"12073","name":"Uckermark","type":"Landkreis"},"federalState":{"key":"12","name":"Brandenburg"}},{"name":"Kreuzstr.","postalCode":"17291","locality":"Prenzlau","municipality":{"key":"12073452","name":"Prenzlau, Stadt","type":"Stadt"},"district":{"key":"12073","name":"Uckermark","type":"Landkreis"},"federalState":{"key":"12","name":"Brandenburg"}},{"name":"Kupferschmiedegang","postalCode":"17291","locality":"Prenzlau","municipality":{"key":"12073452","name":"Prenzlau, Stadt","type":"Stadt"},"district":{"key":"12073","name":"Uckermark","type":"Landkreis"},"federalState":{"key":"12","name":"Brandenburg"}},{"name":"Landstr.","postalCode":"17291","locality":"Prenzlau","municipality":{"key":"12073452","name":"Prenzlau, Stadt","type":"Stadt"},"district":{"key":"12073","name":"Uckermark","type":"Landkreis"},"federalState":{"key":"12","name":"Brandenburg"}},{"name":"Laubenweg","postalCode":"17291","locality":"Prenzlau","municipality":{"key":"12073452","name":"Prenzlau, Stadt","type":"Stadt"},"district":{"key":"12073","name":"Uckermark","type":"Landkreis"},"federalState":{"key":"12","name":"Brandenburg"}},{"name":"Lerchensteig","postalCode":"17291","locality":"Prenzlau","municipality":{"key":"12073452","name":"Prenzlau, Stadt","type":"Stadt"},"district":{"key":"12073","name":"Uckermark","type":"Landkreis"},"federalState":{"key":"12","name":"Brandenburg"}},{"name":"Lessingstr.","postalCode":"17291","locality":"Prenzlau","municipality":{"key":"12073452","name":"Prenzlau, Stadt","type":"Stadt"},"district":{"key":"12073","name":"Uckermark","type":"Landkreis"},"federalState":{"key":"12","name":"Brandenburg"}},{"name":"Lewetzowweg","postalCode":"17291","locality":"Prenzlau","municipality":{"key":"12073452","name":"Prenzlau, Stadt","type":"Stadt"},"district":{"key":"12073","name":"Uckermark","type":"Landkreis"},"federalState":{"key":"12","name":"Brandenburg"}},{"name":"Lindenstr.","postalCode":"17291","locality":"Prenzlau","municipality":{"key":"12073452","name":"Prenzlau, Stadt","type":"Stadt"},"district":{"key":"12073","name":"Uckermark","type":"Landkreis"},"federalState":{"key":"12","name":"Brandenburg"}},{"name":"Magnushof","postalCode":"17291","locality":"Prenzlau","municipality":{"key":"12073452","name":"Prenzlau, Stadt","type":"Stadt"},"district":{"key":"12073","name":"Uckermark","type":"Landkreis"},"federalState":{"key":"12","name":"Brandenburg"}},{"name":"Marienkirchstr.","postalCode":"17291","locality":"Prenzlau","municipality":{"key":"12073452","name":"Prenzlau, Stadt","type":"Stadt"},"district":{"key":"12073","name":"Uckermark","type":"Landkreis"},"federalState":{"key":"12","name":"Brandenburg"}},{"name":"Marius-Eriksen-Str.","postalCode":"17291","locality":"Prenzlau","municipality":{"key":"12073452","name":"Prenzlau, Stadt","type":"Stadt"},"district":{"key":"12073","name":"Uckermark","type":"Landkreis"},"federalState":{"key":"12","name":"Brandenburg"}},{"name":"Marktberg","postalCode":"17291","locality":"Prenzlau","municipality":{"key":"12073452","name":"Prenzlau, Stadt","type":"Stadt"},"district":{"key":"12073","name":"Uckermark","type":"Landkreis"},"federalState":{"key":"12","name":"Brandenburg"}},{"name":"Mauerstr.","postalCode":"17291","locality":"Prenzlau","municipality":{"key":"12073452","name":"Prenzlau, Stadt","type":"Stadt"},"district":{"key":"12073","name":"Uckermark","type":"Landkreis"},"federalState":{"key":"12","name":"Brandenburg"}},{"name":"Max-Lindow-Str.","postalCode":"17291","locality":"Prenzlau","municipality":{"key":"12073452","name":"Prenzlau, Stadt","type":"Stadt"},"district":{"key":"12073","name":"Uckermark","type":"Landkreis"},"federalState":{"key":"12","name":"Brandenburg"}},{"name":"Mühlendamm","postalCode":"17291","locality":"Prenzlau","municipality":{"key":"12073452","name":"Prenzlau, Stadt","type":"Stadt"},"district":{"key":"12073","name":"Uckermark","type":"Landkreis"},"federalState":{"key":"12","name":"Brandenburg"}},{"name":"Mühlenpforte","postalCode":"17291","locality":"Prenzlau","municipality":{"key":"12073452","name":"Prenzlau, Stadt","type":"Stadt"},"district":{"key":"12073","name":"Uckermark","type":"Landkreis"},"federalState":{"key":"12","name":"Brandenburg"}},{"name":"Mühlmannstr.","postalCode":"17291","locality":"Prenzlau","municipality":{"key":"12073452","name":"Prenzlau, Stadt","type":"Stadt"},"district":{"key":"12073","name":"Uckermark","type":"Landkreis"},"federalState":{"key":"12","name":"Brandenburg"}},{"name":"Neubrandenburger Str.","postalCode":"17291","locality":"Prenzlau","municipality":{"key":"12073452","name":"Prenzlau, Stadt","type":"Stadt"},"district":{"key":"12073","name":"Uckermark","type":"Landkreis"},"federalState":{"key":"12","name":"Brandenburg"}},{"name":"Neustadt","postalCode":"17291","locality":"Prenzlau","municipality":{"key":"12073452","name":"Prenzlau, Stadt","type":"Stadt"},"district":{"key":"12073","name":"Uckermark","type":"Landkreis"},"federalState":{"key":"12","name":"Brandenburg"}},{"name":"Neustädter Damm","postalCode":"17291","locality":"Prenzlau","municipality":{"key":"12073452","name":"Prenzlau, Stadt","type":"Stadt"},"district":{"key":"12073","name":"Uckermark","type":"Landkreis"},"federalState":{"key":"12","name":"Brandenburg"}},{"name":"Neustädter Feldmark","postalCode":"17291","locality":"Prenzlau","municipality":{"key":"12073452","name":"Prenzlau, Stadt","type":"Stadt"},"district":{"key":"12073","name":"Uckermark","type":"Landkreis"},"federalState":{"key":"12","name":"Brandenburg"}},{"name":"Oskar-von-Arnim-Str.","postalCode":"17291","locality":"Nordwestuckermark","municipality":{"key":"12073429","name":"Nordwestuckermark","type":"Kreisangehörige_Gemeinde"},"district":{"key":"12073","name":"Uckermark","type":"Landkreis"},"federalState":{"key":"12","name":"Brandenburg"}},{"name":"Ottilienau","postalCode":"17335","locality":"Strasburg (Uckermark)","municipality":{"key":"13075130","name":"Strasburg (Uckermark), Stadt","type":"Stadt"},"district":{"key":"13075","name":"Vorpommern-Greifswald","type":"Landkreis"},"federalState":{"key":"13","name":"Mecklenburg-Vorpommern"}},{"name":"Otto-Bremer-Str.","postalCode":"17291","locality":"Nordwestuckermark","municipality":{"key":"12073429","name":"Nordwestuckermark","type":"Kreisangehörige_Gemeinde"},"district":{"key":"12073","name":"Uckermark","type":"Landkreis"},"federalState":{"key":"12","name":"Brandenburg"}},{"name":"Paul-Gloede-Str.","postalCode":"17291","locality":"Prenzlau","municipality":{"key":"12073452","name":"Prenzlau, Stadt","type":"Stadt"},"district":{"key":"12073","name":"Uckermark","type":"Landkreis"},"federalState":{"key":"12","name":"Brandenburg"}},{"name":"Philipp-Hackert-Str.","postalCode":"17291","locality":"Prenzlau","municipality":{"key":"12073452","name":"Prenzlau, Stadt","type":"Stadt"},"district":{"key":"12073","name":"Uckermark","type":"Landkreis"},"federalState":{"key":"12","name":"Brandenburg"}},{"name":"Platanenallee","postalCode":"17291","locality":"Prenzlau","municipality":{"key":"12073452","name":"Prenzlau, Stadt","type":"Stadt"},"district":{"key":"12073","name":"Uckermark","type":"Landkreis"},"federalState":{"key":"12","name":"Brandenburg"}},{"name":"Platz an der ehemaligen Synagoge","postalCode":"17291","locality":"Prenzlau","municipality":{"key":"12073452","name":"Prenzlau, Stadt","type":"Stadt"},"district":{"key":"12073","name":"Uckermark","type":"Landkreis"},"federalState":{"key":"12","name":"Brandenburg"}},{"name":"Prenzlauer Str.","postalCode":"17291","locality":"Prenzlau","municipality":{"key":"12073452","name":"Prenzlau, Stadt","type":"Stadt"},"district":{"key":"12073","name":"Uckermark","type":"Landkreis"},"federalState":{"key":"12","name":"Brandenburg"}},{"name":"Quillowstr.","postalCode":"17291","locality":"Nordwestuckermark","municipality":{"key":"12073429","name":"Nordwestuckermark","type":"Kreisangehörige_Gemeinde"},"district":{"key":"12073","name":"Uckermark","type":"Landkreis"},"federalState":{"key":"12","name":"Brandenburg"}},{"name":"Richard-Steinweg-Str.","postalCode":"17291","locality":"Prenzlau","municipality":{"key":"12073452","name":"Prenzlau, Stadt","type":"Stadt"},"district":{"key":"12073","name":"Uckermark","type":"Landkreis"},"federalState":{"key":"12","name":"Brandenburg"}},{"name":"Richtstr.","postalCode":"17291","locality":"Prenzlau","municipality":{"key":"12073452","name":"Prenzlau, Stadt","type":"Stadt"},"district":{"key":"12073","name":"Uckermark","type":"Landkreis"},"federalState":{"key":"12","name":"Brandenburg"}},{"name":"Robert-Schulz-Ring","postalCode":"17291","locality":"Prenzlau","municipality":{"key":"12073452","name":"Prenzlau, Stadt","type":"Stadt"},"district":{"key":"12073","name":"Uckermark","type":"Landkreis"},"federalState":{"key":"12","name":"Brandenburg"}},{"name":"Röpersdorfer Str.","postalCode":"17291","locality":"Prenzlau","municipality":{"key":"12073452","name":"Prenzlau, Stadt","type":"Stadt"},"district":{"key":"12073","name":"Uckermark","type":"Landkreis"},"federalState":{"key":"12","name":"Brandenburg"}},{"name":"Rosa-Luxemburg-Str.","postalCode":"17291","locality":"Prenzlau","municipality":{"key":"12073452","name":"Prenzlau, Stadt","type":"Stadt"},"district":{"key":"12073","name":"Uckermark","type":"Landkreis"},"federalState":{"key":"12","name":"Brandenburg"}},{"name":"Rosenweg","postalCode":"17291","locality":"Prenzlau","municipality":{"key":"12073452","name":"Prenzlau, Stadt","type":"Stadt"},"district":{"key":"12073","name":"Uckermark","type":"Landkreis"},"federalState":{"key":"12","name":"Brandenburg"}},{"name":"Rudolf-Breitscheid-Str.","postalCode":"17291","locality":"Prenzlau","municipality":{"key":"12073452","name":"Prenzlau, Stadt","type":"Stadt"},"district":{"key":"12073","name":"Uckermark","type":"Landkreis"},"federalState":{"key":"12","name":"Brandenburg"}},{"name":"Sabinenkloster-Ziegelei","postalCode":"17291","locality":"Prenzlau","municipality":{"key":"12073452","name":"Prenzlau, Stadt","type":"Stadt"},"district":{"key":"12073","name":"Uckermark","type":"Landkreis"},"federalState":{"key":"12","name":"Brandenburg"}},{"name":"Scharrnstr.","postalCode":"17291","locality":"Prenzlau","municipality":{"key":"12073452","name":"Prenzlau, Stadt","type":"Stadt"},"district":{"key":"12073","name":"Uckermark","type":"Landkreis"},"federalState":{"key":"12","name":"Brandenburg"}},{"name":"Schenkenberger Str.","postalCode":"17291","locality":"Prenzlau","municipality":{"key":"12073452","name":"Prenzlau, Stadt","type":"Stadt"},"district":{"key":"12073","name":"Uckermark","type":"Landkreis"},"federalState":{"key":"12","name":"Brandenburg"}},{"name":"Schleusenstr.","postalCode":"17291","locality":"Prenzlau","municipality":{"key":"12073452","name":"Prenzlau, Stadt","type":"Stadt"},"district":{"key":"12073","name":"Uckermark","type":"Landkreis"},"federalState":{"key":"12","name":"Brandenburg"}},{"name":"Schulstr.","postalCode":"17291","locality":"Prenzlau","municipality":{"key":"12073452","name":"Prenzlau, Stadt","type":"Stadt"},"district":{"key":"12073","name":"Uckermark","type":"Landkreis"},"federalState":{"key":"12","name":"Brandenburg"}},{"name":"Schulzenstr.","postalCode":"17291","locality":"Prenzlau","municipality":{"key":"12073452","name":"Prenzlau, Stadt","type":"Stadt"},"district":{"key":"12073","name":"Uckermark","type":"Landkreis"},"federalState":{"key":"12","name":"Brandenburg"}},{"name":"Schwarzer Weg","postalCode":"17291","locality":"Prenzlau","municipality":{"key":"12073452","name":"Prenzlau, Stadt","type":"Stadt"},"district":{"key":"12073","name":"Uckermark","type":"Landkreis"},"federalState":{"key":"12","name":"Brandenburg"}},{"name":"Schwedter Str.","postalCode":"17291","locality":"Prenzlau","municipality":{"key":"12073452","name":"Prenzlau, Stadt","type":"Stadt"},"district":{"key":"12073","name":"Uckermark","type":"Landkreis"},"federalState":{"key":"12","name":"Brandenburg"}},{"name":"Seehausener Weg","postalCode":"17291","locality":"Prenzlau","municipality":{"key":"12073452","name":"Prenzlau, Stadt","type":"Stadt"},"district":{"key":"12073","name":"Uckermark","type":"Landkreis"},"federalState":{"key":"12","name":"Brandenburg"}},{"name":"Seelübber Weg","postalCode":"17291","locality":"Prenzlau","municipality":{"key":"12073452","name":"Prenzlau, Stadt","type":"Stadt"},"district":{"key":"12073","name":"Uckermark","type":"Landkreis"},"federalState":{"key":"12","name":"Brandenburg"}},{"name":"Seepark","postalCode":"17291","locality":"Prenzlau","municipality":{"key":"12073452","name":"Prenzlau, Stadt","type":"Stadt"},"district":{"key":"12073","name":"Uckermark","type":"Landkreis"},"federalState":{"key":"12","name":"Brandenburg"}},{"name":"Seeweg","postalCode":"17291","locality":"Prenzlau","municipality":{"key":"12073452","name":"Prenzlau, Stadt","type":"Stadt"},"district":{"key":"12073","name":"Uckermark","type":"Landkreis"},"federalState":{"key":"12","name":"Brandenburg"}},{"name":"Siedlungsstr.","postalCode":"17291","locality":"Prenzlau","municipality":{"key":"12073452","name":"Prenzlau, Stadt","type":"Stadt"},"district":{"key":"12073","name":"Uckermark","type":"Landkreis"},"federalState":{"key":"12","name":"Brandenburg"}},{"name":"Siedlungsweg","postalCode":"17291","locality":"Prenzlau","municipality":{"key":"12073452","name":"Prenzlau, Stadt","type":"Stadt"},"district":{"key":"12073","name":"Uckermark","type":"Landkreis"},"federalState":{"key":"12","name":"Brandenburg"}},{"name":"Siefertshof","postalCode":"17291","locality":"Prenzlau","municipality":{"key":"12073452","name":"Prenzlau, Stadt","type":"Stadt"},"district":{"key":"12073","name":"Uckermark","type":"Landkreis"},"federalState":{"key":"12","name":"Brandenburg"}},{"name":"Sperlingslust","postalCode":"17291","locality":"Prenzlau","municipality":{"key":"12073452","name":"Prenzlau, Stadt","type":"Stadt"},"district":{"key":"12073","name":"Uckermark","type":"Landkreis"},"federalState":{"key":"12","name":"Brandenburg"}},{"name":"Stadtpark","postalCode":"17291","locality":"Prenzlau","municipality":{"key":"12073452","name":"Prenzlau, Stadt","type":"Stadt"},"district":{"key":"12073","name":"Uckermark","type":"Landkreis"},"federalState":{"key":"12","name":"Brandenburg"}},{"name":"Stegemannshof","postalCode":"17291","locality":"Prenzlau","municipality":{"key":"12073452","name":"Prenzlau, Stadt","type":"Stadt"},"district":{"key":"12073","name":"Uckermark","type":"Landkreis"},"federalState":{"key":"12","name":"Brandenburg"}},{"name":"Steinfurth","postalCode":"17291","locality":"Prenzlau","municipality":{"key":"12073452","name":"Prenzlau, Stadt","type":"Stadt"},"district":{"key":"12073","name":"Uckermark","type":"Landkreis"},"federalState":{"key":"12","name":"Brandenburg"}},{"name":"Steinfurther Str.","postalCode":"17291","locality":"Prenzlau","municipality":{"key":"12073452","name":"Prenzlau, Stadt","type":"Stadt"},"district":{"key":"12073","name":"Uckermark","type":"Landkreis"},"federalState":{"key":"12","name":"Brandenburg"}},{"name":"Steinstr.","postalCode":"17291","locality":"Prenzlau","municipality":{"key":"12073452","name":"Prenzlau, Stadt","type":"Stadt"},"district":{"key":"12073","name":"Uckermark","type":"Landkreis"},"federalState":{"key":"12","name":"Brandenburg"}},{"name":"Sternstr.","postalCode":"17291","locality":"Prenzlau","municipality":{"key":"12073452","name":"Prenzlau, Stadt","type":"Stadt"},"district":{"key":"12073","name":"Uckermark","type":"Landkreis"},"federalState":{"key":"12","name":"Brandenburg"}},{"name":"Stettiner Str.","postalCode":"17291","locality":"Prenzlau","municipality":{"key":"12073452","name":"Prenzlau, Stadt","type":"Stadt"},"district":{"key":"12073","name":"Uckermark","type":"Landkreis"},"federalState":{"key":"12","name":"Brandenburg"}},{"name":"St. Nikolai Kirchplatz","postalCode":"17291","locality":"Prenzlau","municipality":{"key":"12073452","name":"Prenzlau, Stadt","type":"Stadt"},"district":{"key":"12073","name":"Uckermark","type":"Landkreis"},"federalState":{"key":"12","name":"Brandenburg"}},{"name":"Str. des Friedens","postalCode":"17291","locality":"Prenzlau","municipality":{"key":"12073452","name":"Prenzlau, Stadt","type":"Stadt"},"district":{"key":"12073","name":"Uckermark","type":"Landkreis"},"federalState":{"key":"12","name":"Brandenburg"}},{"name":"Süßer Grund","postalCode":"17291","locality":"Prenzlau","municipality":{"key":"12073452","name":"Prenzlau, Stadt","type":"Stadt"},"district":{"key":"12073","name":"Uckermark","type":"Landkreis"},"federalState":{"key":"12","name":"Brandenburg"}},{"name":"Tannenweg","postalCode":"17291","locality":"Prenzlau","municipality":{"key":"12073452","name":"Prenzlau, Stadt","type":"Stadt"},"district":{"key":"12073","name":"Uckermark","type":"Landkreis"},"federalState":{"key":"12","name":"Brandenburg"}},{"name":"Thomas-Müntzer-Platz","postalCode":"17291","locality":"Prenzlau","municipality":{"key":"12073452","name":"Prenzlau, Stadt","type":"Stadt"},"district":{"key":"12073","name":"Uckermark","type":"Landkreis"},"federalState":{"key":"12","name":"Brandenburg"}},{"name":"Triftstr.","postalCode":"17291","locality":"Prenzlau","municipality":{"key":"12073452","name":"Prenzlau, Stadt","type":"Stadt"},"district":{"key":"12073","name":"Uckermark","type":"Landkreis"},"federalState":{"key":"12","name":"Brandenburg"}},{"name":"Uckerblick","postalCode":"17291","locality":"Prenzlau","municipality":{"key":"12073452","name":"Prenzlau, Stadt","type":"Stadt"},"district":{"key":"12073","name":"Uckermark","type":"Landkreis"},"federalState":{"key":"12","name":"Brandenburg"}},{"name":"Uckerpromenade","postalCode":"17291","locality":"Prenzlau","municipality":{"key":"12073452","name":"Prenzlau, Stadt","type":"Stadt"},"district":{"key":"12073","name":"Uckermark","type":"Landkreis"},"federalState":{"key":"12","name":"Brandenburg"}},{"name":"Uckerwiek","postalCode":"17291","locality":"Prenzlau","municipality":{"key":"12073452","name":"Prenzlau, Stadt","type":"Stadt"},"district":{"key":"12073","name":"Uckermark","type":"Landkreis"},"federalState":{"key":"12","name":"Brandenburg"}},{"name":"Vincentstr.","postalCode":"17291","locality":"Prenzlau","municipality":{"key":"12073452","name":"Prenzlau, Stadt","type":"Stadt"},"district":{"key":"12073","name":"Uckermark","type":"Landkreis"},"federalState":{"key":"12","name":"Brandenburg"}},{"name":"Vogelsang","postalCode":"17291","locality":"Prenzlau","municipality":{"key":"12073452","name":"Prenzlau, Stadt","type":"Stadt"},"district":{"key":"12073","name":"Uckermark","type":"Landkreis"},"federalState":{"key":"12","name":"Brandenburg"}},{"name":"Vorstadtbahnhof","postalCode":"17291","locality":"Prenzlau","municipality":{"key":"12073452","name":"Prenzlau, Stadt","type":"Stadt"},"district":{"key":"12073","name":"Uckermark","type":"Landkreis"},"federalState":{"key":"12","name":"Brandenburg"}},{"name":"Wallgasse","postalCode":"17291","locality":"Prenzlau","municipality":{"key":"12073452","name":"Prenzlau, Stadt","type":"Stadt"},"district":{"key":"12073","name":"Uckermark","type":"Landkreis"},"federalState":{"key":"12","name":"Brandenburg"}},{"name":"Walther-Rathenau-Platz","postalCode":"17291","locality":"Prenzlau","municipality":{"key":"12073452","name":"Prenzlau, Stadt","type":"Stadt"},"district":{"key":"12073","name":"Uckermark","type":"Landkreis"},"federalState":{"key":"12","name":"Brandenburg"}},{"name":"Walther-Rathenau-Str.","postalCode":"17291","locality":"Prenzlau","municipality":{"key":"12073452","name":"Prenzlau, Stadt","type":"Stadt"},"district":{"key":"12073","name":"Uckermark","type":"Landkreis"},"federalState":{"key":"12","name":"Brandenburg"}},{"name":"Wasserpforte","postalCode":"17291","locality":"Prenzlau","municipality":{"key":"12073452","name":"Prenzlau, Stadt","type":"Stadt"},"district":{"key":"12073","name":"Uckermark","type":"Landkreis"},"federalState":{"key":"12","name":"Brandenburg"}},{"name":"Wiesengrund","postalCode":"17291","locality":"Prenzlau","municipality":{"key":"12073452","name":"Prenzlau, Stadt","type":"Stadt"},"district":{"key":"12073","name":"Uckermark","type":"Landkreis"},"federalState":{"key":"12","name":"Brandenburg"}},{"name":"Wiesenweg","postalCode":"17291","locality":"Prenzlau","municipality":{"key":"12073452","name":"Prenzlau, Stadt","type":"Stadt"},"district":{"key":"12073","name":"Uckermark","type":"Landkreis"},"federalState":{"key":"12","name":"Brandenburg"}},{"name":"Winterfeldtstr.","postalCode":"17291","locality":"Prenzlau","municipality":{"key":"12073452","name":"Prenzlau, Stadt","type":"Stadt"},"district":{"key":"12073","name":"Uckermark","type":"Landkreis"},"federalState":{"key":"12","name":"Brandenburg"}},{"name":"Wittenhofer Str.","postalCode":"17291","locality":"Prenzlau","municipality":{"key":"12073452","name":"Prenzlau, Stadt","type":"Stadt"},"district":{"key":"12073","name":"Uckermark","type":"Landkreis"},"federalState":{"key":"12","name":"Brandenburg"}},{"name":"Woldegker Str.","postalCode":"17291","locality":"Prenzlau","municipality":{"key":"12073452","name":"Prenzlau, Stadt","type":"Stadt"},"district":{"key":"12073","name":"Uckermark","type":"Landkreis"},"federalState":{"key":"12","name":"Brandenburg"}},{"name":"Wollenthin","postalCode":"17291","locality":"Prenzlau","municipality":{"key":"12073452","name":"Prenzlau, Stadt","type":"Stadt"},"district":{"key":"12073","name":"Uckermark","type":"Landkreis"},"federalState":{"key":"12","name":"Brandenburg"}},{"name":"Zu den Bahngleisen","postalCode":"17291","locality":"Prenzlau","municipality":{"key":"12073452","name":"Prenzlau, Stadt","type":"Stadt"},"district":{"key":"12073","name":"Uckermark","type":"Landkreis"},"federalState":{"key":"12","name":"Brandenburg"}},{"name":"Zum Gutshof","postalCode":"17291","locality":"Prenzlau","municipality":{"key":"12073452","name":"Prenzlau, Stadt","type":"Stadt"},"district":{"key":"12073","name":"Uckermark","type":"Landkreis"},"federalState":{"key":"12","name":"Brandenburg"}},{"name":"Zum Strom","postalCode":"17291","locality":"Prenzlau","municipality":{"key":"12073452","name":"Prenzlau, Stadt","type":"Stadt"},"district":{"key":"12073","name":"Uckermark","type":"Landkreis"},"federalState":{"key":"12","name":"Brandenburg"}},{"name":"Zum Wehr","postalCode":"17291","locality":"Prenzlau","municipality":{"key":"12073452","name":"Prenzlau, Stadt","type":"Stadt"},"district":{"key":"12073","name":"Uckermark","type":"Landkreis"},"federalState":{"key":"12","name":"Brandenburg"}},{"name":"Zur Mühle","postalCode":"17291","locality":"Prenzlau","municipality":{"key":"12073452","name":"Prenzlau, Stadt","type":"Stadt"},"district":{"key":"12073","name":"Uckermark","type":"Landkreis"},"federalState":{"key":"12","name":"Brandenburg"}},]