[{"name":"Aegidiusstr.","postalCode":"67595","locality":"Bechtheim","municipality":{"key":"07331006","name":"Bechtheim","type":"Kreisangehörige_Gemeinde"},"district":{"key":"07331","name":"Alzey-Worms","type":"Landkreis"},"federalState":{"key":"07","name":"Rheinland-Pfalz"}},{"name":"Altkirchstr.","postalCode":"67595","locality":"Bechtheim","municipality":{"key":"07331006","name":"Bechtheim","type":"Kreisangehörige_Gemeinde"},"district":{"key":"07331","name":"Alzey-Worms","type":"Landkreis"},"federalState":{"key":"07","name":"Rheinland-Pfalz"}},{"name":"Am Eulenberg","postalCode":"67595","locality":"Bechtheim","municipality":{"key":"07331006","name":"Bechtheim","type":"Kreisangehörige_Gemeinde"},"district":{"key":"07331","name":"Alzey-Worms","type":"Landkreis"},"federalState":{"key":"07","name":"Rheinland-Pfalz"}},{"name":"Am Markt","postalCode":"67595","locality":"Bechtheim","municipality":{"key":"07331006","name":"Bechtheim","type":"Kreisangehörige_Gemeinde"},"district":{"key":"07331","name":"Alzey-Worms","type":"Landkreis"},"federalState":{"key":"07","name":"Rheinland-Pfalz"}},{"name":"Auf der Heck","postalCode":"67595","locality":"Bechtheim","municipality":{"key":"07331006","name":"Bechtheim","type":"Kreisangehörige_Gemeinde"},"district":{"key":"07331","name":"Alzey-Worms","type":"Landkreis"},"federalState":{"key":"07","name":"Rheinland-Pfalz"}},{"name":"Bahnhofstr.","postalCode":"67595","locality":"Bechtheim","municipality":{"key":"07331006","name":"Bechtheim","type":"Kreisangehörige_Gemeinde"},"district":{"key":"07331","name":"Alzey-Worms","type":"Landkreis"},"federalState":{"key":"07","name":"Rheinland-Pfalz"}},{"name":"Bendestr.","postalCode":"67595","locality":"Bechtheim","municipality":{"key":"07331006","name":"Bechtheim","type":"Kreisangehörige_Gemeinde"},"district":{"key":"07331","name":"Alzey-Worms","type":"Landkreis"},"federalState":{"key":"07","name":"Rheinland-Pfalz"}},{"name":"Bleichstr.","postalCode":"67595","locality":"Bechtheim","municipality":{"key":"07331006","name":"Bechtheim","type":"Kreisangehörige_Gemeinde"},"district":{"key":"07331","name":"Alzey-Worms","type":"Landkreis"},"federalState":{"key":"07","name":"Rheinland-Pfalz"}},{"name":"Breslauer Str.","postalCode":"67595","locality":"Bechtheim","municipality":{"key":"07331006","name":"Bechtheim","type":"Kreisangehörige_Gemeinde"},"district":{"key":"07331","name":"Alzey-Worms","type":"Landkreis"},"federalState":{"key":"07","name":"Rheinland-Pfalz"}},{"name":"Burggasse","postalCode":"67595","locality":"Bechtheim","municipality":{"key":"07331006","name":"Bechtheim","type":"Kreisangehörige_Gemeinde"},"district":{"key":"07331","name":"Alzey-Worms","type":"Landkreis"},"federalState":{"key":"07","name":"Rheinland-Pfalz"}},{"name":"Burgunderstr.","postalCode":"67595","locality":"Bechtheim","municipality":{"key":"07331006","name":"Bechtheim","type":"Kreisangehörige_Gemeinde"},"district":{"key":"07331","name":"Alzey-Worms","type":"Landkreis"},"federalState":{"key":"07","name":"Rheinland-Pfalz"}},{"name":"Dalbergstr.","postalCode":"67595","locality":"Bechtheim","municipality":{"key":"07331006","name":"Bechtheim","type":"Kreisangehörige_Gemeinde"},"district":{"key":"07331","name":"Alzey-Worms","type":"Landkreis"},"federalState":{"key":"07","name":"Rheinland-Pfalz"}},{"name":"Deichelgasse","postalCode":"67595","locality":"Bechtheim","municipality":{"key":"07331006","name":"Bechtheim","type":"Kreisangehörige_Gemeinde"},"district":{"key":"07331","name":"Alzey-Worms","type":"Landkreis"},"federalState":{"key":"07","name":"Rheinland-Pfalz"}},{"name":"Elisabethenstr.","postalCode":"67595","locality":"Bechtheim","municipality":{"key":"07331006","name":"Bechtheim","type":"Kreisangehörige_Gemeinde"},"district":{"key":"07331","name":"Alzey-Worms","type":"Landkreis"},"federalState":{"key":"07","name":"Rheinland-Pfalz"}},{"name":"Erfurter Str.","postalCode":"67595","locality":"Bechtheim","municipality":{"key":"07331006","name":"Bechtheim","type":"Kreisangehörige_Gemeinde"},"district":{"key":"07331","name":"Alzey-Worms","type":"Landkreis"},"federalState":{"key":"07","name":"Rheinland-Pfalz"}},{"name":"Gartenstr.","postalCode":"67595","locality":"Bechtheim","municipality":{"key":"07331006","name":"Bechtheim","type":"Kreisangehörige_Gemeinde"},"district":{"key":"07331","name":"Alzey-Worms","type":"Landkreis"},"federalState":{"key":"07","name":"Rheinland-Pfalz"}},{"name":"Gaustr.","postalCode":"67595","locality":"Bechtheim","municipality":{"key":"07331006","name":"Bechtheim","type":"Kreisangehörige_Gemeinde"},"district":{"key":"07331","name":"Alzey-Worms","type":"Landkreis"},"federalState":{"key":"07","name":"Rheinland-Pfalz"}},{"name":"Heilig-Kreuz-Str.","postalCode":"67595","locality":"Bechtheim","municipality":{"key":"07331006","name":"Bechtheim","type":"Kreisangehörige_Gemeinde"},"district":{"key":"07331","name":"Alzey-Worms","type":"Landkreis"},"federalState":{"key":"07","name":"Rheinland-Pfalz"}},{"name":"Heßlocher Str.","postalCode":"67595","locality":"Bechtheim","municipality":{"key":"07331006","name":"Bechtheim","type":"Kreisangehörige_Gemeinde"},"district":{"key":"07331","name":"Alzey-Worms","type":"Landkreis"},"federalState":{"key":"07","name":"Rheinland-Pfalz"}},{"name":"Hintergasse","postalCode":"67595","locality":"Bechtheim","municipality":{"key":"07331006","name":"Bechtheim","type":"Kreisangehörige_Gemeinde"},"district":{"key":"07331","name":"Alzey-Worms","type":"Landkreis"},"federalState":{"key":"07","name":"Rheinland-Pfalz"}},{"name":"Hirschberg","postalCode":"67595","locality":"Bechtheim","municipality":{"key":"07331006","name":"Bechtheim","type":"Kreisangehörige_Gemeinde"},"district":{"key":"07331","name":"Alzey-Worms","type":"Landkreis"},"federalState":{"key":"07","name":"Rheinland-Pfalz"}},{"name":"Hirschtal","postalCode":"67595","locality":"Bechtheim","municipality":{"key":"07331006","name":"Bechtheim","type":"Kreisangehörige_Gemeinde"},"district":{"key":"07331","name":"Alzey-Worms","type":"Landkreis"},"federalState":{"key":"07","name":"Rheinland-Pfalz"}},{"name":"Im Bongarten","postalCode":"67595","locality":"Bechtheim","municipality":{"key":"07331006","name":"Bechtheim","type":"Kreisangehörige_Gemeinde"},"district":{"key":"07331","name":"Alzey-Worms","type":"Landkreis"},"federalState":{"key":"07","name":"Rheinland-Pfalz"}},{"name":"Im Hasensprung","postalCode":"67595","locality":"Bechtheim","municipality":{"key":"07331006","name":"Bechtheim","type":"Kreisangehörige_Gemeinde"},"district":{"key":"07331","name":"Alzey-Worms","type":"Landkreis"},"federalState":{"key":"07","name":"Rheinland-Pfalz"}},{"name":"Im Lauzenloch","postalCode":"67595","locality":"Bechtheim","municipality":{"key":"07331006","name":"Bechtheim","type":"Kreisangehörige_Gemeinde"},"district":{"key":"07331","name":"Alzey-Worms","type":"Landkreis"},"federalState":{"key":"07","name":"Rheinland-Pfalz"}},{"name":"Im Reifenberg","postalCode":"67595","locality":"Bechtheim","municipality":{"key":"07331006","name":"Bechtheim","type":"Kreisangehörige_Gemeinde"},"district":{"key":"07331","name":"Alzey-Worms","type":"Landkreis"},"federalState":{"key":"07","name":"Rheinland-Pfalz"}},{"name":"Im Rosengarten","postalCode":"67595","locality":"Bechtheim","municipality":{"key":"07331006","name":"Bechtheim","type":"Kreisangehörige_Gemeinde"},"district":{"key":"07331","name":"Alzey-Worms","type":"Landkreis"},"federalState":{"key":"07","name":"Rheinland-Pfalz"}},{"name":"Im Siegelsgrund","postalCode":"67595","locality":"Bechtheim","municipality":{"key":"07331006","name":"Bechtheim","type":"Kreisangehörige_Gemeinde"},"district":{"key":"07331","name":"Alzey-Worms","type":"Landkreis"},"federalState":{"key":"07","name":"Rheinland-Pfalz"}},{"name":"Im Sigelsgrund","postalCode":"67595","locality":"Bechtheim","municipality":{"key":"07331006","name":"Bechtheim","type":"Kreisangehörige_Gemeinde"},"district":{"key":"07331","name":"Alzey-Worms","type":"Landkreis"},"federalState":{"key":"07","name":"Rheinland-Pfalz"}},{"name":"Im Stiegel","postalCode":"67595","locality":"Bechtheim","municipality":{"key":"07331006","name":"Bechtheim","type":"Kreisangehörige_Gemeinde"},"district":{"key":"07331","name":"Alzey-Worms","type":"Landkreis"},"federalState":{"key":"07","name":"Rheinland-Pfalz"}},{"name":"Jakob-Hans-Str.","postalCode":"67595","locality":"Bechtheim","municipality":{"key":"07331006","name":"Bechtheim","type":"Kreisangehörige_Gemeinde"},"district":{"key":"07331","name":"Alzey-Worms","type":"Landkreis"},"federalState":{"key":"07","name":"Rheinland-Pfalz"}},{"name":"Kirchgasse","postalCode":"67595","locality":"Bechtheim","municipality":{"key":"07331006","name":"Bechtheim","type":"Kreisangehörige_Gemeinde"},"district":{"key":"07331","name":"Alzey-Worms","type":"Landkreis"},"federalState":{"key":"07","name":"Rheinland-Pfalz"}},{"name":"Kuhpfortenstr.","postalCode":"67595","locality":"Bechtheim","municipality":{"key":"07331006","name":"Bechtheim","type":"Kreisangehörige_Gemeinde"},"district":{"key":"07331","name":"Alzey-Worms","type":"Landkreis"},"federalState":{"key":"07","name":"Rheinland-Pfalz"}},{"name":"Kuhweg","postalCode":"67595","locality":"Bechtheim","municipality":{"key":"07331006","name":"Bechtheim","type":"Kreisangehörige_Gemeinde"},"district":{"key":"07331","name":"Alzey-Worms","type":"Landkreis"},"federalState":{"key":"07","name":"Rheinland-Pfalz"}},{"name":"Lambertuspark","postalCode":"67595","locality":"Bechtheim","municipality":{"key":"07331006","name":"Bechtheim","type":"Kreisangehörige_Gemeinde"},"district":{"key":"07331","name":"Alzey-Worms","type":"Landkreis"},"federalState":{"key":"07","name":"Rheinland-Pfalz"}},{"name":"Lambertusstr.","postalCode":"67595","locality":"Bechtheim","municipality":{"key":"07331006","name":"Bechtheim","type":"Kreisangehörige_Gemeinde"},"district":{"key":"07331","name":"Alzey-Worms","type":"Landkreis"},"federalState":{"key":"07","name":"Rheinland-Pfalz"}},{"name":"Lauterbacher Weg","postalCode":"67595","locality":"Bechtheim","municipality":{"key":"07331006","name":"Bechtheim","type":"Kreisangehörige_Gemeinde"},"district":{"key":"07331","name":"Alzey-Worms","type":"Landkreis"},"federalState":{"key":"07","name":"Rheinland-Pfalz"}},{"name":"Ludwigstr.","postalCode":"67595","locality":"Bechtheim","municipality":{"key":"07331006","name":"Bechtheim","type":"Kreisangehörige_Gemeinde"},"district":{"key":"07331","name":"Alzey-Worms","type":"Landkreis"},"federalState":{"key":"07","name":"Rheinland-Pfalz"}},{"name":"Marie-Luisen-Str.","postalCode":"67595","locality":"Bechtheim","municipality":{"key":"07331006","name":"Bechtheim","type":"Kreisangehörige_Gemeinde"},"district":{"key":"07331","name":"Alzey-Worms","type":"Landkreis"},"federalState":{"key":"07","name":"Rheinland-Pfalz"}},{"name":"Martin-Luther-Str.","postalCode":"67595","locality":"Bechtheim","municipality":{"key":"07331006","name":"Bechtheim","type":"Kreisangehörige_Gemeinde"},"district":{"key":"07331","name":"Alzey-Worms","type":"Landkreis"},"federalState":{"key":"07","name":"Rheinland-Pfalz"}},{"name":"Neugasse","postalCode":"67595","locality":"Bechtheim","municipality":{"key":"07331006","name":"Bechtheim","type":"Kreisangehörige_Gemeinde"},"district":{"key":"07331","name":"Alzey-Worms","type":"Landkreis"},"federalState":{"key":"07","name":"Rheinland-Pfalz"}},{"name":"Obere Klinggasse","postalCode":"67595","locality":"Bechtheim","municipality":{"key":"07331006","name":"Bechtheim","type":"Kreisangehörige_Gemeinde"},"district":{"key":"07331","name":"Alzey-Worms","type":"Landkreis"},"federalState":{"key":"07","name":"Rheinland-Pfalz"}},{"name":"Petersgässchen","postalCode":"67595","locality":"Bechtheim","municipality":{"key":"07331006","name":"Bechtheim","type":"Kreisangehörige_Gemeinde"},"district":{"key":"07331","name":"Alzey-Worms","type":"Landkreis"},"federalState":{"key":"07","name":"Rheinland-Pfalz"}},{"name":"Pfandturmstr.","postalCode":"67595","locality":"Bechtheim","municipality":{"key":"07331006","name":"Bechtheim","type":"Kreisangehörige_Gemeinde"},"district":{"key":"07331","name":"Alzey-Worms","type":"Landkreis"},"federalState":{"key":"07","name":"Rheinland-Pfalz"}},{"name":"Pilgerpfad","postalCode":"67595","locality":"Bechtheim","municipality":{"key":"07331006","name":"Bechtheim","type":"Kreisangehörige_Gemeinde"},"district":{"key":"07331","name":"Alzey-Worms","type":"Landkreis"},"federalState":{"key":"07","name":"Rheinland-Pfalz"}},{"name":"Raiffeisenstr.","postalCode":"67595","locality":"Bechtheim","municipality":{"key":"07331006","name":"Bechtheim","type":"Kreisangehörige_Gemeinde"},"district":{"key":"07331","name":"Alzey-Worms","type":"Landkreis"},"federalState":{"key":"07","name":"Rheinland-Pfalz"}},{"name":"Rheinstr.","postalCode":"67595","locality":"Bechtheim","municipality":{"key":"07331006","name":"Bechtheim","type":"Kreisangehörige_Gemeinde"},"district":{"key":"07331","name":"Alzey-Worms","type":"Landkreis"},"federalState":{"key":"07","name":"Rheinland-Pfalz"}},{"name":"Riederbachstr.","postalCode":"67595","locality":"Bechtheim","municipality":{"key":"07331006","name":"Bechtheim","type":"Kreisangehörige_Gemeinde"},"district":{"key":"07331","name":"Alzey-Worms","type":"Landkreis"},"federalState":{"key":"07","name":"Rheinland-Pfalz"}},{"name":"Rieslingstr.","postalCode":"67595","locality":"Bechtheim","municipality":{"key":"07331006","name":"Bechtheim","type":"Kreisangehörige_Gemeinde"},"district":{"key":"07331","name":"Alzey-Worms","type":"Landkreis"},"federalState":{"key":"07","name":"Rheinland-Pfalz"}},{"name":"Rittergasse","postalCode":"67595","locality":"Bechtheim","municipality":{"key":"07331006","name":"Bechtheim","type":"Kreisangehörige_Gemeinde"},"district":{"key":"07331","name":"Alzey-Worms","type":"Landkreis"},"federalState":{"key":"07","name":"Rheinland-Pfalz"}},{"name":"Saulgasse","postalCode":"67595","locality":"Bechtheim","municipality":{"key":"07331006","name":"Bechtheim","type":"Kreisangehörige_Gemeinde"},"district":{"key":"07331","name":"Alzey-Worms","type":"Landkreis"},"federalState":{"key":"07","name":"Rheinland-Pfalz"}},{"name":"Schwanenstr.","postalCode":"67595","locality":"Bechtheim","municipality":{"key":"07331006","name":"Bechtheim","type":"Kreisangehörige_Gemeinde"},"district":{"key":"07331","name":"Alzey-Worms","type":"Landkreis"},"federalState":{"key":"07","name":"Rheinland-Pfalz"}},{"name":"Schwerdstr.","postalCode":"67595","locality":"Bechtheim","municipality":{"key":"07331006","name":"Bechtheim","type":"Kreisangehörige_Gemeinde"},"district":{"key":"07331","name":"Alzey-Worms","type":"Landkreis"},"federalState":{"key":"07","name":"Rheinland-Pfalz"}},{"name":"Spitzenbergstr.","postalCode":"67595","locality":"Bechtheim","municipality":{"key":"07331006","name":"Bechtheim","type":"Kreisangehörige_Gemeinde"},"district":{"key":"07331","name":"Alzey-Worms","type":"Landkreis"},"federalState":{"key":"07","name":"Rheinland-Pfalz"}},{"name":"Steig bei der Warte","postalCode":"67595","locality":"Bechtheim","municipality":{"key":"07331006","name":"Bechtheim","type":"Kreisangehörige_Gemeinde"},"district":{"key":"07331","name":"Alzey-Worms","type":"Landkreis"},"federalState":{"key":"07","name":"Rheinland-Pfalz"}},{"name":"Steinstr.","postalCode":"67595","locality":"Bechtheim","municipality":{"key":"07331006","name":"Bechtheim","type":"Kreisangehörige_Gemeinde"},"district":{"key":"07331","name":"Alzey-Worms","type":"Landkreis"},"federalState":{"key":"07","name":"Rheinland-Pfalz"}},{"name":"Untere Klinggasse","postalCode":"67595","locality":"Bechtheim","municipality":{"key":"07331006","name":"Bechtheim","type":"Kreisangehörige_Gemeinde"},"district":{"key":"07331","name":"Alzey-Worms","type":"Landkreis"},"federalState":{"key":"07","name":"Rheinland-Pfalz"}},{"name":"Welheimer Weg","postalCode":"67595","locality":"Bechtheim","municipality":{"key":"07331006","name":"Bechtheim","type":"Kreisangehörige_Gemeinde"},"district":{"key":"07331","name":"Alzey-Worms","type":"Landkreis"},"federalState":{"key":"07","name":"Rheinland-Pfalz"}},{"name":"Wiesenstr.","postalCode":"67595","locality":"Bechtheim","municipality":{"key":"07331006","name":"Bechtheim","type":"Kreisangehörige_Gemeinde"},"district":{"key":"07331","name":"Alzey-Worms","type":"Landkreis"},"federalState":{"key":"07","name":"Rheinland-Pfalz"}},{"name":"Wilhelmstr.","postalCode":"67595","locality":"Bechtheim","municipality":{"key":"07331006","name":"Bechtheim","type":"Kreisangehörige_Gemeinde"},"district":{"key":"07331","name":"Alzey-Worms","type":"Landkreis"},"federalState":{"key":"07","name":"Rheinland-Pfalz"}},{"name":"Winzerstr.","postalCode":"67595","locality":"Bechtheim","municipality":{"key":"07331006","name":"Bechtheim","type":"Kreisangehörige_Gemeinde"},"district":{"key":"07331","name":"Alzey-Worms","type":"Landkreis"},"federalState":{"key":"07","name":"Rheinland-Pfalz"}},{"name":"Wissepädche","postalCode":"67595","locality":"Bechtheim","municipality":{"key":"07331006","name":"Bechtheim","type":"Kreisangehörige_Gemeinde"},"district":{"key":"07331","name":"Alzey-Worms","type":"Landkreis"},"federalState":{"key":"07","name":"Rheinland-Pfalz"}},{"name":"Wormser Str.","postalCode":"67595","locality":"Bechtheim","municipality":{"key":"07331006","name":"Bechtheim","type":"Kreisangehörige_Gemeinde"},"district":{"key":"07331","name":"Alzey-Worms","type":"Landkreis"},"federalState":{"key":"07","name":"Rheinland-Pfalz"}},{"name":"Zum Öhmd","postalCode":"67595","locality":"Bechtheim","municipality":{"key":"07331006","name":"Bechtheim","type":"Kreisangehörige_Gemeinde"},"district":{"key":"07331","name":"Alzey-Worms","type":"Landkreis"},"federalState":{"key":"07","name":"Rheinland-Pfalz"}},]