[{"name":"Achalmstr.","postalCode":"71088","locality":"Holzgerlingen","municipality":{"key":"08115024","name":"Holzgerlingen, Stadt","type":"Stadt"},"district":{"key":"08115","name":"Böblingen","type":"Landkreis"},"federalState":{"key":"08","name":"Baden-Württemberg"}},{"name":"Agnesweg","postalCode":"71088","locality":"Holzgerlingen","municipality":{"key":"08115024","name":"Holzgerlingen, Stadt","type":"Stadt"},"district":{"key":"08115","name":"Böblingen","type":"Landkreis"},"federalState":{"key":"08","name":"Baden-Württemberg"}},{"name":"Ahornstr.","postalCode":"71088","locality":"Holzgerlingen","municipality":{"key":"08115024","name":"Holzgerlingen, Stadt","type":"Stadt"},"district":{"key":"08115","name":"Böblingen","type":"Landkreis"},"federalState":{"key":"08","name":"Baden-Württemberg"}},{"name":"Ahornweg","postalCode":"70839","locality":"Gerlingen","municipality":{"key":"08118019","name":"Gerlingen, Stadt","type":"Stadt"},"district":{"key":"08118","name":"Ludwigsburg","type":"Landkreis"},"federalState":{"key":"08","name":"Baden-Württemberg"}},{"name":"Aichtalstr.","postalCode":"71088","locality":"Holzgerlingen","municipality":{"key":"08115024","name":"Holzgerlingen, Stadt","type":"Stadt"},"district":{"key":"08115","name":"Böblingen","type":"Landkreis"},"federalState":{"key":"08","name":"Baden-Württemberg"}},{"name":"Aischbach","postalCode":"70839","locality":"Gerlingen","municipality":{"key":"08118019","name":"Gerlingen, Stadt","type":"Stadt"},"district":{"key":"08118","name":"Ludwigsburg","type":"Landkreis"},"federalState":{"key":"08","name":"Baden-Württemberg"}},{"name":"Akazienweg","postalCode":"70839","locality":"Gerlingen","municipality":{"key":"08118019","name":"Gerlingen, Stadt","type":"Stadt"},"district":{"key":"08118","name":"Ludwigsburg","type":"Landkreis"},"federalState":{"key":"08","name":"Baden-Württemberg"}},{"name":"Alemannenstr.","postalCode":"71088","locality":"Holzgerlingen","municipality":{"key":"08115024","name":"Holzgerlingen, Stadt","type":"Stadt"},"district":{"key":"08115","name":"Böblingen","type":"Landkreis"},"federalState":{"key":"08","name":"Baden-Württemberg"}},{"name":"Altdorfer Str.","postalCode":"71088","locality":"Holzgerlingen","municipality":{"key":"08115024","name":"Holzgerlingen, Stadt","type":"Stadt"},"district":{"key":"08115","name":"Böblingen","type":"Landkreis"},"federalState":{"key":"08","name":"Baden-Württemberg"}},{"name":"Altes Steinbruchsträsschen","postalCode":"70839","locality":"Gerlingen","municipality":{"key":"08118019","name":"Gerlingen, Stadt","type":"Stadt"},"district":{"key":"08118","name":"Ludwigsburg","type":"Landkreis"},"federalState":{"key":"08","name":"Baden-Württemberg"}},{"name":"Altes Steinbruchsträßchen","postalCode":"70839","locality":"Gerlingen","municipality":{"key":"08118019","name":"Gerlingen, Stadt","type":"Stadt"},"district":{"key":"08118","name":"Ludwigsburg","type":"Landkreis"},"federalState":{"key":"08","name":"Baden-Württemberg"}},{"name":"Alte Steige","postalCode":"70839","locality":"Gerlingen","municipality":{"key":"08118019","name":"Gerlingen, Stadt","type":"Stadt"},"district":{"key":"08118","name":"Ludwigsburg","type":"Landkreis"},"federalState":{"key":"08","name":"Baden-Württemberg"}},{"name":"Amalienstr.","postalCode":"71088","locality":"Holzgerlingen","municipality":{"key":"08115024","name":"Holzgerlingen, Stadt","type":"Stadt"},"district":{"key":"08115","name":"Böblingen","type":"Landkreis"},"federalState":{"key":"08","name":"Baden-Württemberg"}},{"name":"Am Eschelbach","postalCode":"71088","locality":"Holzgerlingen","municipality":{"key":"08115024","name":"Holzgerlingen, Stadt","type":"Stadt"},"district":{"key":"08115","name":"Böblingen","type":"Landkreis"},"federalState":{"key":"08","name":"Baden-Württemberg"}},{"name":"Am Gerlinger Tor","postalCode":"70839","locality":"Gerlingen","municipality":{"key":"08118019","name":"Gerlingen, Stadt","type":"Stadt"},"district":{"key":"08118","name":"Ludwigsburg","type":"Landkreis"},"federalState":{"key":"08","name":"Baden-Württemberg"}},{"name":"Am Schloßberg","postalCode":"70839","locality":"Gerlingen","municipality":{"key":"08118019","name":"Gerlingen, Stadt","type":"Stadt"},"district":{"key":"08118","name":"Ludwigsburg","type":"Landkreis"},"federalState":{"key":"08","name":"Baden-Württemberg"}},{"name":"Amselweg","postalCode":"70839","locality":"Gerlingen","municipality":{"key":"08118019","name":"Gerlingen, Stadt","type":"Stadt"},"district":{"key":"08118","name":"Ludwigsburg","type":"Landkreis"},"federalState":{"key":"08","name":"Baden-Württemberg"}},{"name":"Amselweg","postalCode":"71088","locality":"Holzgerlingen","municipality":{"key":"08115024","name":"Holzgerlingen, Stadt","type":"Stadt"},"district":{"key":"08115","name":"Böblingen","type":"Landkreis"},"federalState":{"key":"08","name":"Baden-Württemberg"}},{"name":"Amthausstr.","postalCode":"70839","locality":"Gerlingen","municipality":{"key":"08118019","name":"Gerlingen, Stadt","type":"Stadt"},"district":{"key":"08118","name":"Ludwigsburg","type":"Landkreis"},"federalState":{"key":"08","name":"Baden-Württemberg"}},{"name":"Anna-Haag-Str.","postalCode":"71088","locality":"Holzgerlingen","municipality":{"key":"08115024","name":"Holzgerlingen, Stadt","type":"Stadt"},"district":{"key":"08115","name":"Böblingen","type":"Landkreis"},"federalState":{"key":"08","name":"Baden-Württemberg"}},{"name":"Annaweg","postalCode":"71088","locality":"Holzgerlingen","municipality":{"key":"08115024","name":"Holzgerlingen, Stadt","type":"Stadt"},"district":{"key":"08115","name":"Böblingen","type":"Landkreis"},"federalState":{"key":"08","name":"Baden-Württemberg"}},{"name":"Anne-Frank-Str.","postalCode":"71088","locality":"Holzgerlingen","municipality":{"key":"08115024","name":"Holzgerlingen, Stadt","type":"Stadt"},"district":{"key":"08115","name":"Böblingen","type":"Landkreis"},"federalState":{"key":"08","name":"Baden-Württemberg"}},{"name":"Antoniaweg","postalCode":"71088","locality":"Holzgerlingen","municipality":{"key":"08115024","name":"Holzgerlingen, Stadt","type":"Stadt"},"district":{"key":"08115","name":"Böblingen","type":"Landkreis"},"federalState":{"key":"08","name":"Baden-Württemberg"}},{"name":"Arthur-Hecker-Str.","postalCode":"71088","locality":"Holzgerlingen","municipality":{"key":"08115024","name":"Holzgerlingen, Stadt","type":"Stadt"},"district":{"key":"08115","name":"Böblingen","type":"Landkreis"},"federalState":{"key":"08","name":"Baden-Württemberg"}},{"name":"Aspergle","postalCode":"70839","locality":"Gerlingen","municipality":{"key":"08118019","name":"Gerlingen, Stadt","type":"Stadt"},"district":{"key":"08118","name":"Ludwigsburg","type":"Landkreis"},"federalState":{"key":"08","name":"Baden-Württemberg"}},{"name":"Astrid-Lindgren-Str.","postalCode":"71088","locality":"Holzgerlingen","municipality":{"key":"08115024","name":"Holzgerlingen, Stadt","type":"Stadt"},"district":{"key":"08115","name":"Böblingen","type":"Landkreis"},"federalState":{"key":"08","name":"Baden-Württemberg"}},{"name":"Bachstr.","postalCode":"70839","locality":"Gerlingen","municipality":{"key":"08118019","name":"Gerlingen, Stadt","type":"Stadt"},"district":{"key":"08118","name":"Ludwigsburg","type":"Landkreis"},"federalState":{"key":"08","name":"Baden-Württemberg"}},{"name":"Badstr.","postalCode":"71088","locality":"Holzgerlingen","municipality":{"key":"08115024","name":"Holzgerlingen, Stadt","type":"Stadt"},"district":{"key":"08115","name":"Böblingen","type":"Landkreis"},"federalState":{"key":"08","name":"Baden-Württemberg"}},{"name":"Bahnhofstr.","postalCode":"71088","locality":"Holzgerlingen","municipality":{"key":"08115024","name":"Holzgerlingen, Stadt","type":"Stadt"},"district":{"key":"08115","name":"Böblingen","type":"Landkreis"},"federalState":{"key":"08","name":"Baden-Württemberg"}},{"name":"Barbaraweg","postalCode":"71088","locality":"Holzgerlingen","municipality":{"key":"08115024","name":"Holzgerlingen, Stadt","type":"Stadt"},"district":{"key":"08115","name":"Böblingen","type":"Landkreis"},"federalState":{"key":"08","name":"Baden-Württemberg"}},{"name":"Bärenseeallee","postalCode":"70839","locality":"Gerlingen","municipality":{"key":"08118019","name":"Gerlingen, Stadt","type":"Stadt"},"district":{"key":"08118","name":"Ludwigsburg","type":"Landkreis"},"federalState":{"key":"08","name":"Baden-Württemberg"}},{"name":"Beim Brückentor","postalCode":"70839","locality":"Gerlingen","municipality":{"key":"08118019","name":"Gerlingen, Stadt","type":"Stadt"},"district":{"key":"08118","name":"Ludwigsburg","type":"Landkreis"},"federalState":{"key":"08","name":"Baden-Württemberg"}},{"name":"Beim Gerlinger Tor","postalCode":"70839","locality":"Gerlingen","municipality":{"key":"08118019","name":"Gerlingen, Stadt","type":"Stadt"},"district":{"key":"08118","name":"Ludwigsburg","type":"Landkreis"},"federalState":{"key":"08","name":"Baden-Württemberg"}},{"name":"Beim Unteren Tor","postalCode":"70839","locality":"Gerlingen","municipality":{"key":"08118019","name":"Gerlingen, Stadt","type":"Stadt"},"district":{"key":"08118","name":"Ludwigsburg","type":"Landkreis"},"federalState":{"key":"08","name":"Baden-Württemberg"}},{"name":"Belchenweg","postalCode":"71088","locality":"Holzgerlingen","municipality":{"key":"08115024","name":"Holzgerlingen, Stadt","type":"Stadt"},"district":{"key":"08115","name":"Böblingen","type":"Landkreis"},"federalState":{"key":"08","name":"Baden-Württemberg"}},{"name":"Benzstr.","postalCode":"70839","locality":"Gerlingen","municipality":{"key":"08118019","name":"Gerlingen, Stadt","type":"Stadt"},"district":{"key":"08118","name":"Ludwigsburg","type":"Landkreis"},"federalState":{"key":"08","name":"Baden-Württemberg"}},{"name":"Bergheimer Weg","postalCode":"70839","locality":"Gerlingen","municipality":{"key":"08118019","name":"Gerlingen, Stadt","type":"Stadt"},"district":{"key":"08118","name":"Ludwigsburg","type":"Landkreis"},"federalState":{"key":"08","name":"Baden-Württemberg"}},{"name":"Berkenstr.","postalCode":"71088","locality":"Holzgerlingen","municipality":{"key":"08115024","name":"Holzgerlingen, Stadt","type":"Stadt"},"district":{"key":"08115","name":"Böblingen","type":"Landkreis"},"federalState":{"key":"08","name":"Baden-Württemberg"}},{"name":"Bettäckerstr.","postalCode":"70839","locality":"Gerlingen","municipality":{"key":"08118019","name":"Gerlingen, Stadt","type":"Stadt"},"district":{"key":"08118","name":"Ludwigsburg","type":"Landkreis"},"federalState":{"key":"08","name":"Baden-Württemberg"}},{"name":"Bettelmannsweg","postalCode":"70839","locality":"Gerlingen","municipality":{"key":"08118019","name":"Gerlingen, Stadt","type":"Stadt"},"district":{"key":"08118","name":"Ludwigsburg","type":"Landkreis"},"federalState":{"key":"08","name":"Baden-Württemberg"}},{"name":"Bildstr.","postalCode":"70839","locality":"Gerlingen","municipality":{"key":"08118019","name":"Gerlingen, Stadt","type":"Stadt"},"district":{"key":"08118","name":"Ludwigsburg","type":"Landkreis"},"federalState":{"key":"08","name":"Baden-Württemberg"}},{"name":"Birkenhauweg","postalCode":"70839","locality":"Gerlingen","municipality":{"key":"08118019","name":"Gerlingen, Stadt","type":"Stadt"},"district":{"key":"08118","name":"Ludwigsburg","type":"Landkreis"},"federalState":{"key":"08","name":"Baden-Württemberg"}},{"name":"Birkenstr.","postalCode":"71088","locality":"Holzgerlingen","municipality":{"key":"08115024","name":"Holzgerlingen, Stadt","type":"Stadt"},"district":{"key":"08115","name":"Böblingen","type":"Landkreis"},"federalState":{"key":"08","name":"Baden-Württemberg"}},{"name":"Birkenweg","postalCode":"70839","locality":"Gerlingen","municipality":{"key":"08118019","name":"Gerlingen, Stadt","type":"Stadt"},"district":{"key":"08118","name":"Ludwigsburg","type":"Landkreis"},"federalState":{"key":"08","name":"Baden-Württemberg"}},{"name":"Blumenstr.","postalCode":"70839","locality":"Gerlingen","municipality":{"key":"08118019","name":"Gerlingen, Stadt","type":"Stadt"},"district":{"key":"08118","name":"Ludwigsburg","type":"Landkreis"},"federalState":{"key":"08","name":"Baden-Württemberg"}},{"name":"Böblinger Str.","postalCode":"71088","locality":"Holzgerlingen","municipality":{"key":"08115024","name":"Holzgerlingen, Stadt","type":"Stadt"},"district":{"key":"08115","name":"Böblingen","type":"Landkreis"},"federalState":{"key":"08","name":"Baden-Württemberg"}},{"name":"Boelckestr.","postalCode":"70839","locality":"Gerlingen","municipality":{"key":"08118019","name":"Gerlingen, Stadt","type":"Stadt"},"district":{"key":"08118","name":"Ludwigsburg","type":"Landkreis"},"federalState":{"key":"08","name":"Baden-Württemberg"}},{"name":"Bopserwaldstr.","postalCode":"70839","locality":"Gerlingen","municipality":{"key":"08118019","name":"Gerlingen, Stadt","type":"Stadt"},"district":{"key":"08118","name":"Ludwigsburg","type":"Landkreis"},"federalState":{"key":"08","name":"Baden-Württemberg"}},{"name":"Boslerstr.","postalCode":"71088","locality":"Holzgerlingen","municipality":{"key":"08115024","name":"Holzgerlingen, Stadt","type":"Stadt"},"district":{"key":"08115","name":"Böblingen","type":"Landkreis"},"federalState":{"key":"08","name":"Baden-Württemberg"}},{"name":"Breitwiesenstr.","postalCode":"70839","locality":"Gerlingen","municipality":{"key":"08118019","name":"Gerlingen, Stadt","type":"Stadt"},"district":{"key":"08118","name":"Ludwigsburg","type":"Landkreis"},"federalState":{"key":"08","name":"Baden-Württemberg"}},{"name":"Brennerstr.","postalCode":"70839","locality":"Gerlingen","municipality":{"key":"08118019","name":"Gerlingen, Stadt","type":"Stadt"},"district":{"key":"08118","name":"Ludwigsburg","type":"Landkreis"},"federalState":{"key":"08","name":"Baden-Württemberg"}},{"name":"Brockenbergstr.","postalCode":"71088","locality":"Holzgerlingen","municipality":{"key":"08115024","name":"Holzgerlingen, Stadt","type":"Stadt"},"district":{"key":"08115","name":"Böblingen","type":"Landkreis"},"federalState":{"key":"08","name":"Baden-Württemberg"}},{"name":"Brombergweg","postalCode":"71088","locality":"Holzgerlingen","municipality":{"key":"08115024","name":"Holzgerlingen, Stadt","type":"Stadt"},"district":{"key":"08115","name":"Böblingen","type":"Landkreis"},"federalState":{"key":"08","name":"Baden-Württemberg"}},{"name":"Bruderhausallee","postalCode":"70839","locality":"Gerlingen","municipality":{"key":"08118019","name":"Gerlingen, Stadt","type":"Stadt"},"district":{"key":"08118","name":"Ludwigsburg","type":"Landkreis"},"federalState":{"key":"08","name":"Baden-Württemberg"}},{"name":"Bruhweg","postalCode":"70839","locality":"Gerlingen","municipality":{"key":"08118019","name":"Gerlingen, Stadt","type":"Stadt"},"district":{"key":"08118","name":"Ludwigsburg","type":"Landkreis"},"federalState":{"key":"08","name":"Baden-Württemberg"}},{"name":"Brunnenstr.","postalCode":"71088","locality":"Holzgerlingen","municipality":{"key":"08115024","name":"Holzgerlingen, Stadt","type":"Stadt"},"district":{"key":"08115","name":"Böblingen","type":"Landkreis"},"federalState":{"key":"08","name":"Baden-Württemberg"}},{"name":"Buchenweg","postalCode":"70839","locality":"Gerlingen","municipality":{"key":"08118019","name":"Gerlingen, Stadt","type":"Stadt"},"district":{"key":"08118","name":"Ludwigsburg","type":"Landkreis"},"federalState":{"key":"08","name":"Baden-Württemberg"}},{"name":"Buchrainweg","postalCode":"71088","locality":"Holzgerlingen","municipality":{"key":"08115024","name":"Holzgerlingen, Stadt","type":"Stadt"},"district":{"key":"08115","name":"Böblingen","type":"Landkreis"},"federalState":{"key":"08","name":"Baden-Württemberg"}},{"name":"Budapester Str.","postalCode":"70839","locality":"Gerlingen","municipality":{"key":"08118019","name":"Gerlingen, Stadt","type":"Stadt"},"district":{"key":"08118","name":"Ludwigsburg","type":"Landkreis"},"federalState":{"key":"08","name":"Baden-Württemberg"}},{"name":"Bühlenstr.","postalCode":"71088","locality":"Holzgerlingen","municipality":{"key":"08115024","name":"Holzgerlingen, Stadt","type":"Stadt"},"district":{"key":"08115","name":"Böblingen","type":"Landkreis"},"federalState":{"key":"08","name":"Baden-Württemberg"}},{"name":"Burgklinge","postalCode":"70839","locality":"Gerlingen","municipality":{"key":"08118019","name":"Gerlingen, Stadt","type":"Stadt"},"district":{"key":"08118","name":"Ludwigsburg","type":"Landkreis"},"federalState":{"key":"08","name":"Baden-Württemberg"}},{"name":"Bussardweg","postalCode":"70839","locality":"Gerlingen","municipality":{"key":"08118019","name":"Gerlingen, Stadt","type":"Stadt"},"district":{"key":"08118","name":"Ludwigsburg","type":"Landkreis"},"federalState":{"key":"08","name":"Baden-Württemberg"}},{"name":"Carl-Zeiss-Str.","postalCode":"70839","locality":"Gerlingen","municipality":{"key":"08118019","name":"Gerlingen, Stadt","type":"Stadt"},"district":{"key":"08118","name":"Ludwigsburg","type":"Landkreis"},"federalState":{"key":"08","name":"Baden-Württemberg"}},{"name":"Charlottenstr.","postalCode":"71088","locality":"Holzgerlingen","municipality":{"key":"08115024","name":"Holzgerlingen, Stadt","type":"Stadt"},"district":{"key":"08115","name":"Böblingen","type":"Landkreis"},"federalState":{"key":"08","name":"Baden-Württemberg"}},{"name":"Christian-Wagner-Str.","postalCode":"70839","locality":"Gerlingen","municipality":{"key":"08118019","name":"Gerlingen, Stadt","type":"Stadt"},"district":{"key":"08118","name":"Ludwigsburg","type":"Landkreis"},"federalState":{"key":"08","name":"Baden-Württemberg"}},{"name":"Christophstr.","postalCode":"70839","locality":"Gerlingen","municipality":{"key":"08118019","name":"Gerlingen, Stadt","type":"Stadt"},"district":{"key":"08118","name":"Ludwigsburg","type":"Landkreis"},"federalState":{"key":"08","name":"Baden-Württemberg"}},{"name":"Crystal-Lake-Str.","postalCode":"71088","locality":"Holzgerlingen","municipality":{"key":"08115024","name":"Holzgerlingen, Stadt","type":"Stadt"},"district":{"key":"08115","name":"Böblingen","type":"Landkreis"},"federalState":{"key":"08","name":"Baden-Württemberg"}},{"name":"Daimlerstr.","postalCode":"70839","locality":"Gerlingen","municipality":{"key":"08118019","name":"Gerlingen, Stadt","type":"Stadt"},"district":{"key":"08118","name":"Ludwigsburg","type":"Landkreis"},"federalState":{"key":"08","name":"Baden-Württemberg"}},{"name":"Dengelwiesenstr.","postalCode":"70839","locality":"Gerlingen","municipality":{"key":"08118019","name":"Gerlingen, Stadt","type":"Stadt"},"district":{"key":"08118","name":"Ludwigsburg","type":"Landkreis"},"federalState":{"key":"08","name":"Baden-Württemberg"}},{"name":"Dieselstr.","postalCode":"70839","locality":"Gerlingen","municipality":{"key":"08118019","name":"Gerlingen, Stadt","type":"Stadt"},"district":{"key":"08118","name":"Ludwigsburg","type":"Landkreis"},"federalState":{"key":"08","name":"Baden-Württemberg"}},{"name":"Dietrich-Bonhoeffer-Platz","postalCode":"70839","locality":"Gerlingen","municipality":{"key":"08118019","name":"Gerlingen, Stadt","type":"Stadt"},"district":{"key":"08118","name":"Ludwigsburg","type":"Landkreis"},"federalState":{"key":"08","name":"Baden-Württemberg"}},{"name":"Dietrich-Bonhoeffer-Weg","postalCode":"71088","locality":"Holzgerlingen","municipality":{"key":"08115024","name":"Holzgerlingen, Stadt","type":"Stadt"},"district":{"key":"08115","name":"Böblingen","type":"Landkreis"},"federalState":{"key":"08","name":"Baden-Württemberg"}},{"name":"Ditzinger Str.","postalCode":"70839","locality":"Gerlingen","municipality":{"key":"08118019","name":"Gerlingen, Stadt","type":"Stadt"},"district":{"key":"08118","name":"Ludwigsburg","type":"Landkreis"},"federalState":{"key":"08","name":"Baden-Württemberg"}},{"name":"Dorotheastr.","postalCode":"71088","locality":"Holzgerlingen","municipality":{"key":"08115024","name":"Holzgerlingen, Stadt","type":"Stadt"},"district":{"key":"08115","name":"Böblingen","type":"Landkreis"},"federalState":{"key":"08","name":"Baden-Württemberg"}},{"name":"Dreispitzweg","postalCode":"70839","locality":"Gerlingen","municipality":{"key":"08118019","name":"Gerlingen, Stadt","type":"Stadt"},"district":{"key":"08118","name":"Ludwigsburg","type":"Landkreis"},"federalState":{"key":"08","name":"Baden-Württemberg"}},{"name":"Drosselweg","postalCode":"70839","locality":"Gerlingen","municipality":{"key":"08118019","name":"Gerlingen, Stadt","type":"Stadt"},"district":{"key":"08118","name":"Ludwigsburg","type":"Landkreis"},"federalState":{"key":"08","name":"Baden-Württemberg"}},{"name":"Drosselweg","postalCode":"71088","locality":"Holzgerlingen","municipality":{"key":"08115024","name":"Holzgerlingen, Stadt","type":"Stadt"},"district":{"key":"08115","name":"Böblingen","type":"Landkreis"},"federalState":{"key":"08","name":"Baden-Württemberg"}},{"name":"Eberhardstr.","postalCode":"71088","locality":"Holzgerlingen","municipality":{"key":"08115024","name":"Holzgerlingen, Stadt","type":"Stadt"},"district":{"key":"08115","name":"Böblingen","type":"Landkreis"},"federalState":{"key":"08","name":"Baden-Württemberg"}},{"name":"Eibenweg","postalCode":"70839","locality":"Gerlingen","municipality":{"key":"08118019","name":"Gerlingen, Stadt","type":"Stadt"},"district":{"key":"08118","name":"Ludwigsburg","type":"Landkreis"},"federalState":{"key":"08","name":"Baden-Württemberg"}},{"name":"Eichelesgartenweg","postalCode":"71088","locality":"Holzgerlingen","municipality":{"key":"08115024","name":"Holzgerlingen, Stadt","type":"Stadt"},"district":{"key":"08115","name":"Böblingen","type":"Landkreis"},"federalState":{"key":"08","name":"Baden-Württemberg"}},{"name":"Eichendorffweg","postalCode":"70839","locality":"Gerlingen","municipality":{"key":"08118019","name":"Gerlingen, Stadt","type":"Stadt"},"district":{"key":"08118","name":"Ludwigsburg","type":"Landkreis"},"federalState":{"key":"08","name":"Baden-Württemberg"}},{"name":"Eichenweg","postalCode":"70839","locality":"Gerlingen","municipality":{"key":"08118019","name":"Gerlingen, Stadt","type":"Stadt"},"district":{"key":"08118","name":"Ludwigsburg","type":"Landkreis"},"federalState":{"key":"08","name":"Baden-Württemberg"}},{"name":"Elisabethenweg","postalCode":"71088","locality":"Holzgerlingen","municipality":{"key":"08115024","name":"Holzgerlingen, Stadt","type":"Stadt"},"district":{"key":"08115","name":"Böblingen","type":"Landkreis"},"federalState":{"key":"08","name":"Baden-Württemberg"}},{"name":"Elsterweg","postalCode":"70839","locality":"Gerlingen","municipality":{"key":"08118019","name":"Gerlingen, Stadt","type":"Stadt"},"district":{"key":"08118","name":"Ludwigsburg","type":"Landkreis"},"federalState":{"key":"08","name":"Baden-Württemberg"}},{"name":"Eltinger Str.","postalCode":"70839","locality":"Gerlingen","municipality":{"key":"08118019","name":"Gerlingen, Stadt","type":"Stadt"},"district":{"key":"08118","name":"Ludwigsburg","type":"Landkreis"},"federalState":{"key":"08","name":"Baden-Württemberg"}},{"name":"Engelbergstr.","postalCode":"70839","locality":"Gerlingen","municipality":{"key":"08118019","name":"Gerlingen, Stadt","type":"Stadt"},"district":{"key":"08118","name":"Ludwigsburg","type":"Landkreis"},"federalState":{"key":"08","name":"Baden-Württemberg"}},{"name":"Erbgrabenweg","postalCode":"70839","locality":"Gerlingen","municipality":{"key":"08118019","name":"Gerlingen, Stadt","type":"Stadt"},"district":{"key":"08118","name":"Ludwigsburg","type":"Landkreis"},"federalState":{"key":"08","name":"Baden-Württemberg"}},{"name":"Erlachstr.","postalCode":"71088","locality":"Holzgerlingen","municipality":{"key":"08115024","name":"Holzgerlingen, Stadt","type":"Stadt"},"district":{"key":"08115","name":"Böblingen","type":"Landkreis"},"federalState":{"key":"08","name":"Baden-Württemberg"}},{"name":"Erlenweg","postalCode":"70839","locality":"Gerlingen","municipality":{"key":"08118019","name":"Gerlingen, Stadt","type":"Stadt"},"district":{"key":"08118","name":"Ludwigsburg","type":"Landkreis"},"federalState":{"key":"08","name":"Baden-Württemberg"}},{"name":"Ernst-Moritz-Arndt-Str.","postalCode":"70839","locality":"Gerlingen","municipality":{"key":"08118019","name":"Gerlingen, Stadt","type":"Stadt"},"district":{"key":"08118","name":"Ludwigsburg","type":"Landkreis"},"federalState":{"key":"08","name":"Baden-Württemberg"}},{"name":"Eschelbachstr.","postalCode":"71088","locality":"Holzgerlingen","municipality":{"key":"08115024","name":"Holzgerlingen, Stadt","type":"Stadt"},"district":{"key":"08115","name":"Böblingen","type":"Landkreis"},"federalState":{"key":"08","name":"Baden-Württemberg"}},{"name":"Eschenweg","postalCode":"70839","locality":"Gerlingen","municipality":{"key":"08118019","name":"Gerlingen, Stadt","type":"Stadt"},"district":{"key":"08118","name":"Ludwigsburg","type":"Landkreis"},"federalState":{"key":"08","name":"Baden-Württemberg"}},{"name":"Espenweg","postalCode":"70839","locality":"Gerlingen","municipality":{"key":"08118019","name":"Gerlingen, Stadt","type":"Stadt"},"district":{"key":"08118","name":"Ludwigsburg","type":"Landkreis"},"federalState":{"key":"08","name":"Baden-Württemberg"}},{"name":"Etterweg","postalCode":"70839","locality":"Gerlingen","municipality":{"key":"08118019","name":"Gerlingen, Stadt","type":"Stadt"},"district":{"key":"08118","name":"Ludwigsburg","type":"Landkreis"},"federalState":{"key":"08","name":"Baden-Württemberg"}},{"name":"Eugenstr.","postalCode":"71088","locality":"Holzgerlingen","municipality":{"key":"08115024","name":"Holzgerlingen, Stadt","type":"Stadt"},"district":{"key":"08115","name":"Böblingen","type":"Landkreis"},"federalState":{"key":"08","name":"Baden-Württemberg"}},{"name":"Falkenstr.","postalCode":"71088","locality":"Holzgerlingen","municipality":{"key":"08115024","name":"Holzgerlingen, Stadt","type":"Stadt"},"district":{"key":"08115","name":"Böblingen","type":"Landkreis"},"federalState":{"key":"08","name":"Baden-Württemberg"}},{"name":"Falkenweg","postalCode":"70839","locality":"Gerlingen","municipality":{"key":"08118019","name":"Gerlingen, Stadt","type":"Stadt"},"district":{"key":"08118","name":"Ludwigsburg","type":"Landkreis"},"federalState":{"key":"08","name":"Baden-Württemberg"}},{"name":"Färberstr.","postalCode":"71088","locality":"Holzgerlingen","municipality":{"key":"08115024","name":"Holzgerlingen, Stadt","type":"Stadt"},"district":{"key":"08115","name":"Böblingen","type":"Landkreis"},"federalState":{"key":"08","name":"Baden-Württemberg"}},{"name":"Fasanenweg","postalCode":"70839","locality":"Gerlingen","municipality":{"key":"08118019","name":"Gerlingen, Stadt","type":"Stadt"},"district":{"key":"08118","name":"Ludwigsburg","type":"Landkreis"},"federalState":{"key":"08","name":"Baden-Württemberg"}},{"name":"Fasanenweg","postalCode":"71088","locality":"Holzgerlingen","municipality":{"key":"08115024","name":"Holzgerlingen, Stadt","type":"Stadt"},"district":{"key":"08115","name":"Böblingen","type":"Landkreis"},"federalState":{"key":"08","name":"Baden-Württemberg"}},{"name":"Feldbergstr.","postalCode":"71088","locality":"Holzgerlingen","municipality":{"key":"08115024","name":"Holzgerlingen, Stadt","type":"Stadt"},"district":{"key":"08115","name":"Böblingen","type":"Landkreis"},"federalState":{"key":"08","name":"Baden-Württemberg"}},{"name":"Fesenwengertstaffel","postalCode":"70839","locality":"Gerlingen","municipality":{"key":"08118019","name":"Gerlingen, Stadt","type":"Stadt"},"district":{"key":"08118","name":"Ludwigsburg","type":"Landkreis"},"federalState":{"key":"08","name":"Baden-Württemberg"}},{"name":"Feuerbacher Str.","postalCode":"70839","locality":"Gerlingen","municipality":{"key":"08118019","name":"Gerlingen, Stadt","type":"Stadt"},"district":{"key":"08118","name":"Ludwigsburg","type":"Landkreis"},"federalState":{"key":"08","name":"Baden-Württemberg"}},{"name":"Fichtenstr.","postalCode":"71088","locality":"Holzgerlingen","municipality":{"key":"08115024","name":"Holzgerlingen, Stadt","type":"Stadt"},"district":{"key":"08115","name":"Böblingen","type":"Landkreis"},"federalState":{"key":"08","name":"Baden-Württemberg"}},{"name":"Fichtenweg","postalCode":"70839","locality":"Gerlingen","municipality":{"key":"08118019","name":"Gerlingen, Stadt","type":"Stadt"},"district":{"key":"08118","name":"Ludwigsburg","type":"Landkreis"},"federalState":{"key":"08","name":"Baden-Württemberg"}},{"name":"Finkenstr.","postalCode":"71088","locality":"Holzgerlingen","municipality":{"key":"08115024","name":"Holzgerlingen, Stadt","type":"Stadt"},"district":{"key":"08115","name":"Böblingen","type":"Landkreis"},"federalState":{"key":"08","name":"Baden-Württemberg"}},{"name":"Finkenweg","postalCode":"70839","locality":"Gerlingen","municipality":{"key":"08118019","name":"Gerlingen, Stadt","type":"Stadt"},"district":{"key":"08118","name":"Ludwigsburg","type":"Landkreis"},"federalState":{"key":"08","name":"Baden-Württemberg"}},{"name":"Firstweg","postalCode":"71088","locality":"Holzgerlingen","municipality":{"key":"08115024","name":"Holzgerlingen, Stadt","type":"Stadt"},"district":{"key":"08115","name":"Böblingen","type":"Landkreis"},"federalState":{"key":"08","name":"Baden-Württemberg"}},{"name":"Forchenrainstr.","postalCode":"70839","locality":"Gerlingen","municipality":{"key":"08118019","name":"Gerlingen, Stadt","type":"Stadt"},"district":{"key":"08118","name":"Ludwigsburg","type":"Landkreis"},"federalState":{"key":"08","name":"Baden-Württemberg"}},{"name":"Franzensträßle","postalCode":"71088","locality":"Holzgerlingen","municipality":{"key":"08115024","name":"Holzgerlingen, Stadt","type":"Stadt"},"district":{"key":"08115","name":"Böblingen","type":"Landkreis"},"federalState":{"key":"08","name":"Baden-Württemberg"}},{"name":"Friedhofstr.","postalCode":"71088","locality":"Holzgerlingen","municipality":{"key":"08115024","name":"Holzgerlingen, Stadt","type":"Stadt"},"district":{"key":"08115","name":"Böblingen","type":"Landkreis"},"federalState":{"key":"08","name":"Baden-Württemberg"}},{"name":"Friedhofweg","postalCode":"70839","locality":"Gerlingen","municipality":{"key":"08118019","name":"Gerlingen, Stadt","type":"Stadt"},"district":{"key":"08118","name":"Ludwigsburg","type":"Landkreis"},"federalState":{"key":"08","name":"Baden-Württemberg"}},{"name":"Friedrich-Schaffert-Str.","postalCode":"70839","locality":"Gerlingen","municipality":{"key":"08118019","name":"Gerlingen, Stadt","type":"Stadt"},"district":{"key":"08118","name":"Ludwigsburg","type":"Landkreis"},"federalState":{"key":"08","name":"Baden-Württemberg"}},{"name":"Friedrichstr.","postalCode":"71088","locality":"Holzgerlingen","municipality":{"key":"08115024","name":"Holzgerlingen, Stadt","type":"Stadt"},"district":{"key":"08115","name":"Böblingen","type":"Landkreis"},"federalState":{"key":"08","name":"Baden-Württemberg"}},{"name":"Fritz-von-Graevenitz-Str.","postalCode":"70839","locality":"Gerlingen","municipality":{"key":"08118019","name":"Gerlingen, Stadt","type":"Stadt"},"district":{"key":"08118","name":"Ludwigsburg","type":"Landkreis"},"federalState":{"key":"08","name":"Baden-Württemberg"}},{"name":"Frühlingsweg","postalCode":"70839","locality":"Gerlingen","municipality":{"key":"08118019","name":"Gerlingen, Stadt","type":"Stadt"},"district":{"key":"08118","name":"Ludwigsburg","type":"Landkreis"},"federalState":{"key":"08","name":"Baden-Württemberg"}},{"name":"Füllerstr.","postalCode":"70839","locality":"Gerlingen","municipality":{"key":"08118019","name":"Gerlingen, Stadt","type":"Stadt"},"district":{"key":"08118","name":"Ludwigsburg","type":"Landkreis"},"federalState":{"key":"08","name":"Baden-Württemberg"}},{"name":"Fürsaalstr.","postalCode":"70839","locality":"Gerlingen","municipality":{"key":"08118019","name":"Gerlingen, Stadt","type":"Stadt"},"district":{"key":"08118","name":"Ludwigsburg","type":"Landkreis"},"federalState":{"key":"08","name":"Baden-Württemberg"}},{"name":"Ganswiesenweg","postalCode":"70839","locality":"Gerlingen","municipality":{"key":"08118019","name":"Gerlingen, Stadt","type":"Stadt"},"district":{"key":"08118","name":"Ludwigsburg","type":"Landkreis"},"federalState":{"key":"08","name":"Baden-Württemberg"}},{"name":"Gartenstr.","postalCode":"70839","locality":"Gerlingen","municipality":{"key":"08118019","name":"Gerlingen, Stadt","type":"Stadt"},"district":{"key":"08118","name":"Ludwigsburg","type":"Landkreis"},"federalState":{"key":"08","name":"Baden-Württemberg"}},{"name":"Gartenstr.","postalCode":"71088","locality":"Holzgerlingen","municipality":{"key":"08115024","name":"Holzgerlingen, Stadt","type":"Stadt"},"district":{"key":"08115","name":"Böblingen","type":"Landkreis"},"federalState":{"key":"08","name":"Baden-Württemberg"}},{"name":"Gehenbühlstr.","postalCode":"70839","locality":"Gerlingen","municipality":{"key":"08118019","name":"Gerlingen, Stadt","type":"Stadt"},"district":{"key":"08118","name":"Ludwigsburg","type":"Landkreis"},"federalState":{"key":"08","name":"Baden-Württemberg"}},{"name":"Georg-Elser-Weg","postalCode":"71088","locality":"Holzgerlingen","municipality":{"key":"08115024","name":"Holzgerlingen, Stadt","type":"Stadt"},"district":{"key":"08115","name":"Böblingen","type":"Landkreis"},"federalState":{"key":"08","name":"Baden-Württemberg"}},{"name":"Germanenstr.","postalCode":"71088","locality":"Holzgerlingen","municipality":{"key":"08115024","name":"Holzgerlingen, Stadt","type":"Stadt"},"district":{"key":"08115","name":"Böblingen","type":"Landkreis"},"federalState":{"key":"08","name":"Baden-Württemberg"}},{"name":"Gerokstr.","postalCode":"71088","locality":"Holzgerlingen","municipality":{"key":"08115024","name":"Holzgerlingen, Stadt","type":"Stadt"},"district":{"key":"08115","name":"Böblingen","type":"Landkreis"},"federalState":{"key":"08","name":"Baden-Württemberg"}},{"name":"Gerteisenstr.","postalCode":"70839","locality":"Gerlingen","municipality":{"key":"08118019","name":"Gerlingen, Stadt","type":"Stadt"},"district":{"key":"08118","name":"Ludwigsburg","type":"Landkreis"},"federalState":{"key":"08","name":"Baden-Württemberg"}},{"name":"Geschwister-Scholl-Str.","postalCode":"71088","locality":"Holzgerlingen","municipality":{"key":"08115024","name":"Holzgerlingen, Stadt","type":"Stadt"},"district":{"key":"08115","name":"Böblingen","type":"Landkreis"},"federalState":{"key":"08","name":"Baden-Württemberg"}},{"name":"Glashauweg","postalCode":"71088","locality":"Holzgerlingen","municipality":{"key":"08115024","name":"Holzgerlingen, Stadt","type":"Stadt"},"district":{"key":"08115","name":"Böblingen","type":"Landkreis"},"federalState":{"key":"08","name":"Baden-Württemberg"}},{"name":"Glattberglesweg","postalCode":"71088","locality":"Holzgerlingen","municipality":{"key":"08115024","name":"Holzgerlingen, Stadt","type":"Stadt"},"district":{"key":"08115","name":"Böblingen","type":"Landkreis"},"federalState":{"key":"08","name":"Baden-Württemberg"}},{"name":"Goethestr.","postalCode":"70839","locality":"Gerlingen","municipality":{"key":"08118019","name":"Gerlingen, Stadt","type":"Stadt"},"district":{"key":"08118","name":"Ludwigsburg","type":"Landkreis"},"federalState":{"key":"08","name":"Baden-Württemberg"}},{"name":"Goethestr.","postalCode":"71088","locality":"Holzgerlingen","municipality":{"key":"08115024","name":"Holzgerlingen, Stadt","type":"Stadt"},"district":{"key":"08115","name":"Böblingen","type":"Landkreis"},"federalState":{"key":"08","name":"Baden-Württemberg"}},{"name":"Gottlieb-Eisele-Str.","postalCode":"70839","locality":"Gerlingen","municipality":{"key":"08118019","name":"Gerlingen, Stadt","type":"Stadt"},"district":{"key":"08118","name":"Ludwigsburg","type":"Landkreis"},"federalState":{"key":"08","name":"Baden-Württemberg"}},{"name":"Graf-von-Stauffenberg-Weg","postalCode":"71088","locality":"Holzgerlingen","municipality":{"key":"08115024","name":"Holzgerlingen, Stadt","type":"Stadt"},"district":{"key":"08115","name":"Böblingen","type":"Landkreis"},"federalState":{"key":"08","name":"Baden-Württemberg"}},{"name":"Grenzweg","postalCode":"70839","locality":"Gerlingen","municipality":{"key":"08118019","name":"Gerlingen, Stadt","type":"Stadt"},"district":{"key":"08118","name":"Ludwigsburg","type":"Landkreis"},"federalState":{"key":"08","name":"Baden-Württemberg"}},{"name":"Gröninger Weg","postalCode":"70839","locality":"Gerlingen","municipality":{"key":"08118019","name":"Gerlingen, Stadt","type":"Stadt"},"district":{"key":"08118","name":"Ludwigsburg","type":"Landkreis"},"federalState":{"key":"08","name":"Baden-Württemberg"}},{"name":"Gündlensbachweg","postalCode":"70839","locality":"Gerlingen","municipality":{"key":"08118019","name":"Gerlingen, Stadt","type":"Stadt"},"district":{"key":"08118","name":"Ludwigsburg","type":"Landkreis"},"federalState":{"key":"08","name":"Baden-Württemberg"}},{"name":"Gutenbergstr.","postalCode":"70839","locality":"Gerlingen","municipality":{"key":"08118019","name":"Gerlingen, Stadt","type":"Stadt"},"district":{"key":"08118","name":"Ludwigsburg","type":"Landkreis"},"federalState":{"key":"08","name":"Baden-Württemberg"}},{"name":"Habichtweg","postalCode":"70839","locality":"Gerlingen","municipality":{"key":"08118019","name":"Gerlingen, Stadt","type":"Stadt"},"district":{"key":"08118","name":"Ludwigsburg","type":"Landkreis"},"federalState":{"key":"08","name":"Baden-Württemberg"}},{"name":"Haldenweg","postalCode":"70839","locality":"Gerlingen","municipality":{"key":"08118019","name":"Gerlingen, Stadt","type":"Stadt"},"district":{"key":"08118","name":"Ludwigsburg","type":"Landkreis"},"federalState":{"key":"08","name":"Baden-Württemberg"}},{"name":"Hallstattweg","postalCode":"70839","locality":"Gerlingen","municipality":{"key":"08118019","name":"Gerlingen, Stadt","type":"Stadt"},"district":{"key":"08118","name":"Ludwigsburg","type":"Landkreis"},"federalState":{"key":"08","name":"Baden-Württemberg"}},{"name":"Hans-Keil-Str.","postalCode":"70839","locality":"Gerlingen","municipality":{"key":"08118019","name":"Gerlingen, Stadt","type":"Stadt"},"district":{"key":"08118","name":"Ludwigsburg","type":"Landkreis"},"federalState":{"key":"08","name":"Baden-Württemberg"}},{"name":"Hasenbergstr.","postalCode":"70839","locality":"Gerlingen","municipality":{"key":"08118019","name":"Gerlingen, Stadt","type":"Stadt"},"district":{"key":"08118","name":"Ludwigsburg","type":"Landkreis"},"federalState":{"key":"08","name":"Baden-Württemberg"}},{"name":"Hauffstr.","postalCode":"71088","locality":"Holzgerlingen","municipality":{"key":"08115024","name":"Holzgerlingen, Stadt","type":"Stadt"},"district":{"key":"08115","name":"Böblingen","type":"Landkreis"},"federalState":{"key":"08","name":"Baden-Württemberg"}},{"name":"Hauptstr.","postalCode":"70839","locality":"Gerlingen","municipality":{"key":"08118019","name":"Gerlingen, Stadt","type":"Stadt"},"district":{"key":"08118","name":"Ludwigsburg","type":"Landkreis"},"federalState":{"key":"08","name":"Baden-Württemberg"}},{"name":"Hauptweg","postalCode":"70839","locality":"Gerlingen","municipality":{"key":"08118019","name":"Gerlingen, Stadt","type":"Stadt"},"district":{"key":"08118","name":"Ludwigsburg","type":"Landkreis"},"federalState":{"key":"08","name":"Baden-Württemberg"}},{"name":"Hegnachweg","postalCode":"70839","locality":"Gerlingen","municipality":{"key":"08118019","name":"Gerlingen, Stadt","type":"Stadt"},"district":{"key":"08118","name":"Ludwigsburg","type":"Landkreis"},"federalState":{"key":"08","name":"Baden-Württemberg"}},{"name":"Heideweg","postalCode":"70839","locality":"Gerlingen","municipality":{"key":"08118019","name":"Gerlingen, Stadt","type":"Stadt"},"district":{"key":"08118","name":"Ludwigsburg","type":"Landkreis"},"federalState":{"key":"08","name":"Baden-Württemberg"}},{"name":"Henriettestr.","postalCode":"71088","locality":"Holzgerlingen","municipality":{"key":"08115024","name":"Holzgerlingen, Stadt","type":"Stadt"},"district":{"key":"08115","name":"Böblingen","type":"Landkreis"},"federalState":{"key":"08","name":"Baden-Württemberg"}},{"name":"Herdweg","postalCode":"70839","locality":"Gerlingen","municipality":{"key":"08118019","name":"Gerlingen, Stadt","type":"Stadt"},"district":{"key":"08118","name":"Ludwigsburg","type":"Landkreis"},"federalState":{"key":"08","name":"Baden-Württemberg"}},{"name":"Hermann-Dreher-Str.","postalCode":"70839","locality":"Gerlingen","municipality":{"key":"08118019","name":"Gerlingen, Stadt","type":"Stadt"},"district":{"key":"08118","name":"Ludwigsburg","type":"Landkreis"},"federalState":{"key":"08","name":"Baden-Württemberg"}},{"name":"Hermann-Löns-Str.","postalCode":"70839","locality":"Gerlingen","municipality":{"key":"08118019","name":"Gerlingen, Stadt","type":"Stadt"},"district":{"key":"08118","name":"Ludwigsburg","type":"Landkreis"},"federalState":{"key":"08","name":"Baden-Württemberg"}},{"name":"Hermannstr.","postalCode":"70839","locality":"Gerlingen","municipality":{"key":"08118019","name":"Gerlingen, Stadt","type":"Stadt"},"district":{"key":"08118","name":"Ludwigsburg","type":"Landkreis"},"federalState":{"key":"08","name":"Baden-Württemberg"}},{"name":"Hermannstr.","postalCode":"71088","locality":"Holzgerlingen","municipality":{"key":"08115024","name":"Holzgerlingen, Stadt","type":"Stadt"},"district":{"key":"08115","name":"Böblingen","type":"Landkreis"},"federalState":{"key":"08","name":"Baden-Württemberg"}},{"name":"Heuweg","postalCode":"70839","locality":"Gerlingen","municipality":{"key":"08118019","name":"Gerlingen, Stadt","type":"Stadt"},"district":{"key":"08118","name":"Ludwigsburg","type":"Landkreis"},"federalState":{"key":"08","name":"Baden-Württemberg"}},{"name":"Hinter den Weingärten","postalCode":"71088","locality":"Holzgerlingen","municipality":{"key":"08115024","name":"Holzgerlingen, Stadt","type":"Stadt"},"district":{"key":"08115","name":"Böblingen","type":"Landkreis"},"federalState":{"key":"08","name":"Baden-Württemberg"}},{"name":"Hintere Str.","postalCode":"71088","locality":"Holzgerlingen","municipality":{"key":"08115024","name":"Holzgerlingen, Stadt","type":"Stadt"},"district":{"key":"08115","name":"Böblingen","type":"Landkreis"},"federalState":{"key":"08","name":"Baden-Württemberg"}},{"name":"Hirschallee","postalCode":"70839","locality":"Gerlingen","municipality":{"key":"08118019","name":"Gerlingen, Stadt","type":"Stadt"},"district":{"key":"08118","name":"Ludwigsburg","type":"Landkreis"},"federalState":{"key":"08","name":"Baden-Württemberg"}},{"name":"Hirschbergstr.","postalCode":"70839","locality":"Gerlingen","municipality":{"key":"08118019","name":"Gerlingen, Stadt","type":"Stadt"},"district":{"key":"08118","name":"Ludwigsburg","type":"Landkreis"},"federalState":{"key":"08","name":"Baden-Württemberg"}},{"name":"Hirschstr.","postalCode":"70839","locality":"Gerlingen","municipality":{"key":"08118019","name":"Gerlingen, Stadt","type":"Stadt"},"district":{"key":"08118","name":"Ludwigsburg","type":"Landkreis"},"federalState":{"key":"08","name":"Baden-Württemberg"}},{"name":"Hofwiesenstr.","postalCode":"70839","locality":"Gerlingen","municipality":{"key":"08118019","name":"Gerlingen, Stadt","type":"Stadt"},"district":{"key":"08118","name":"Ludwigsburg","type":"Landkreis"},"federalState":{"key":"08","name":"Baden-Württemberg"}},{"name":"Hohenzollernstr.","postalCode":"71088","locality":"Holzgerlingen","municipality":{"key":"08115024","name":"Holzgerlingen, Stadt","type":"Stadt"},"district":{"key":"08115","name":"Böblingen","type":"Landkreis"},"federalState":{"key":"08","name":"Baden-Württemberg"}},{"name":"Hohewartweg","postalCode":"70839","locality":"Gerlingen","municipality":{"key":"08118019","name":"Gerlingen, Stadt","type":"Stadt"},"district":{"key":"08118","name":"Ludwigsburg","type":"Landkreis"},"federalState":{"key":"08","name":"Baden-Württemberg"}},{"name":"Holderäckerstr.","postalCode":"70839","locality":"Gerlingen","municipality":{"key":"08118019","name":"Gerlingen, Stadt","type":"Stadt"},"district":{"key":"08118","name":"Ludwigsburg","type":"Landkreis"},"federalState":{"key":"08","name":"Baden-Württemberg"}},{"name":"Hölderlinstr.","postalCode":"70839","locality":"Gerlingen","municipality":{"key":"08118019","name":"Gerlingen, Stadt","type":"Stadt"},"district":{"key":"08118","name":"Ludwigsburg","type":"Landkreis"},"federalState":{"key":"08","name":"Baden-Württemberg"}},{"name":"Hölderlinstr.","postalCode":"71088","locality":"Holzgerlingen","municipality":{"key":"08115024","name":"Holzgerlingen, Stadt","type":"Stadt"},"district":{"key":"08115","name":"Böblingen","type":"Landkreis"},"federalState":{"key":"08","name":"Baden-Württemberg"}},{"name":"Holzgerlinger Str.","postalCode":"71088","locality":"Holzgerlingen","municipality":{"key":"08115024","name":"Holzgerlingen, Stadt","type":"Stadt"},"district":{"key":"08115","name":"Böblingen","type":"Landkreis"},"federalState":{"key":"08","name":"Baden-Württemberg"}},{"name":"Hörnleshangweg","postalCode":"71088","locality":"Holzgerlingen","municipality":{"key":"08115024","name":"Holzgerlingen, Stadt","type":"Stadt"},"district":{"key":"08115","name":"Böblingen","type":"Landkreis"},"federalState":{"key":"08","name":"Baden-Württemberg"}},{"name":"Hügelweg","postalCode":"70839","locality":"Gerlingen","municipality":{"key":"08118019","name":"Gerlingen, Stadt","type":"Stadt"},"district":{"key":"08118","name":"Ludwigsburg","type":"Landkreis"},"federalState":{"key":"08","name":"Baden-Württemberg"}},{"name":"Hülbenstr.","postalCode":"71088","locality":"Holzgerlingen","municipality":{"key":"08115024","name":"Holzgerlingen, Stadt","type":"Stadt"},"district":{"key":"08115","name":"Böblingen","type":"Landkreis"},"federalState":{"key":"08","name":"Baden-Württemberg"}},{"name":"Huttenstr.","postalCode":"71088","locality":"Holzgerlingen","municipality":{"key":"08115024","name":"Holzgerlingen, Stadt","type":"Stadt"},"district":{"key":"08115","name":"Böblingen","type":"Landkreis"},"federalState":{"key":"08","name":"Baden-Württemberg"}},{"name":"Im Bonholz","postalCode":"70839","locality":"Gerlingen","municipality":{"key":"08118019","name":"Gerlingen, Stadt","type":"Stadt"},"district":{"key":"08118","name":"Ludwigsburg","type":"Landkreis"},"federalState":{"key":"08","name":"Baden-Württemberg"}},{"name":"Im Brückle","postalCode":"70839","locality":"Gerlingen","municipality":{"key":"08118019","name":"Gerlingen, Stadt","type":"Stadt"},"district":{"key":"08118","name":"Ludwigsburg","type":"Landkreis"},"federalState":{"key":"08","name":"Baden-Württemberg"}},{"name":"Im Dörnach","postalCode":"71088","locality":"Holzgerlingen","municipality":{"key":"08115024","name":"Holzgerlingen, Stadt","type":"Stadt"},"district":{"key":"08115","name":"Böblingen","type":"Landkreis"},"federalState":{"key":"08","name":"Baden-Württemberg"}},{"name":"Im Grimmle","postalCode":"70839","locality":"Gerlingen","municipality":{"key":"08118019","name":"Gerlingen, Stadt","type":"Stadt"},"district":{"key":"08118","name":"Ludwigsburg","type":"Landkreis"},"federalState":{"key":"08","name":"Baden-Württemberg"}},{"name":"Im Heidewinkel","postalCode":"70839","locality":"Gerlingen","municipality":{"key":"08118019","name":"Gerlingen, Stadt","type":"Stadt"},"district":{"key":"08118","name":"Ludwigsburg","type":"Landkreis"},"federalState":{"key":"08","name":"Baden-Württemberg"}},{"name":"Im Hertling","postalCode":"70839","locality":"Gerlingen","municipality":{"key":"08118019","name":"Gerlingen, Stadt","type":"Stadt"},"district":{"key":"08118","name":"Ludwigsburg","type":"Landkreis"},"federalState":{"key":"08","name":"Baden-Württemberg"}},{"name":"Im Köngemann","postalCode":"70839","locality":"Gerlingen","municipality":{"key":"08118019","name":"Gerlingen, Stadt","type":"Stadt"},"district":{"key":"08118","name":"Ludwigsburg","type":"Landkreis"},"federalState":{"key":"08","name":"Baden-Württemberg"}},{"name":"Im Mahdental","postalCode":"70839","locality":"Gerlingen","municipality":{"key":"08118019","name":"Gerlingen, Stadt","type":"Stadt"},"district":{"key":"08118","name":"Ludwigsburg","type":"Landkreis"},"federalState":{"key":"08","name":"Baden-Württemberg"}},{"name":"Immelmannstr.","postalCode":"70839","locality":"Gerlingen","municipality":{"key":"08118019","name":"Gerlingen, Stadt","type":"Stadt"},"district":{"key":"08118","name":"Ludwigsburg","type":"Landkreis"},"federalState":{"key":"08","name":"Baden-Württemberg"}},{"name":"Im Schönberg","postalCode":"71088","locality":"Holzgerlingen","municipality":{"key":"08115024","name":"Holzgerlingen, Stadt","type":"Stadt"},"district":{"key":"08115","name":"Böblingen","type":"Landkreis"},"federalState":{"key":"08","name":"Baden-Württemberg"}},{"name":"Im Stöckach","postalCode":"70839","locality":"Gerlingen","municipality":{"key":"08118019","name":"Gerlingen, Stadt","type":"Stadt"},"district":{"key":"08118","name":"Ludwigsburg","type":"Landkreis"},"federalState":{"key":"08","name":"Baden-Württemberg"}},{"name":"Jahnstr.","postalCode":"70839","locality":"Gerlingen","municipality":{"key":"08118019","name":"Gerlingen, Stadt","type":"Stadt"},"district":{"key":"08118","name":"Ludwigsburg","type":"Landkreis"},"federalState":{"key":"08","name":"Baden-Württemberg"}},{"name":"Jahnstr.","postalCode":"71088","locality":"Holzgerlingen","municipality":{"key":"08115024","name":"Holzgerlingen, Stadt","type":"Stadt"},"district":{"key":"08115","name":"Böblingen","type":"Landkreis"},"federalState":{"key":"08","name":"Baden-Württemberg"}},{"name":"Jakob-Bleyer-Str.","postalCode":"70839","locality":"Gerlingen","municipality":{"key":"08118019","name":"Gerlingen, Stadt","type":"Stadt"},"district":{"key":"08118","name":"Ludwigsburg","type":"Landkreis"},"federalState":{"key":"08","name":"Baden-Württemberg"}},{"name":"Jakobstr.","postalCode":"70839","locality":"Gerlingen","municipality":{"key":"08118019","name":"Gerlingen, Stadt","type":"Stadt"},"district":{"key":"08118","name":"Ludwigsburg","type":"Landkreis"},"federalState":{"key":"08","name":"Baden-Württemberg"}},{"name":"Jilové Str.","postalCode":"71088","locality":"Holzgerlingen","municipality":{"key":"08115024","name":"Holzgerlingen, Stadt","type":"Stadt"},"district":{"key":"08115","name":"Böblingen","type":"Landkreis"},"federalState":{"key":"08","name":"Baden-Württemberg"}},{"name":"Johannaweg","postalCode":"71088","locality":"Holzgerlingen","municipality":{"key":"08115024","name":"Holzgerlingen, Stadt","type":"Stadt"},"district":{"key":"08115","name":"Böblingen","type":"Landkreis"},"federalState":{"key":"08","name":"Baden-Württemberg"}},{"name":"Johannes-Rebmann-Str.","postalCode":"70839","locality":"Gerlingen","municipality":{"key":"08118019","name":"Gerlingen, Stadt","type":"Stadt"},"district":{"key":"08118","name":"Ludwigsburg","type":"Landkreis"},"federalState":{"key":"08","name":"Baden-Württemberg"}},{"name":"Johannes-Zimmermann-Str.","postalCode":"70839","locality":"Gerlingen","municipality":{"key":"08118019","name":"Gerlingen, Stadt","type":"Stadt"},"district":{"key":"08118","name":"Ludwigsburg","type":"Landkreis"},"federalState":{"key":"08","name":"Baden-Württemberg"}},{"name":"Kappelweg","postalCode":"70839","locality":"Gerlingen","municipality":{"key":"08118019","name":"Gerlingen, Stadt","type":"Stadt"},"district":{"key":"08118","name":"Ludwigsburg","type":"Landkreis"},"federalState":{"key":"08","name":"Baden-Württemberg"}},{"name":"Karl-Regeles-Weg","postalCode":"71088","locality":"Holzgerlingen","municipality":{"key":"08115024","name":"Holzgerlingen, Stadt","type":"Stadt"},"district":{"key":"08115","name":"Böblingen","type":"Landkreis"},"federalState":{"key":"08","name":"Baden-Württemberg"}},{"name":"Karlsbader Str.","postalCode":"70839","locality":"Gerlingen","municipality":{"key":"08118019","name":"Gerlingen, Stadt","type":"Stadt"},"district":{"key":"08118","name":"Ludwigsburg","type":"Landkreis"},"federalState":{"key":"08","name":"Baden-Württemberg"}},{"name":"Karlstr.","postalCode":"70839","locality":"Gerlingen","municipality":{"key":"08118019","name":"Gerlingen, Stadt","type":"Stadt"},"district":{"key":"08118","name":"Ludwigsburg","type":"Landkreis"},"federalState":{"key":"08","name":"Baden-Württemberg"}},{"name":"Karlstr.","postalCode":"71088","locality":"Holzgerlingen","municipality":{"key":"08115024","name":"Holzgerlingen, Stadt","type":"Stadt"},"district":{"key":"08115","name":"Böblingen","type":"Landkreis"},"federalState":{"key":"08","name":"Baden-Württemberg"}},{"name":"Katharina-Kepler-Str.","postalCode":"71088","locality":"Holzgerlingen","municipality":{"key":"08115024","name":"Holzgerlingen, Stadt","type":"Stadt"},"district":{"key":"08115","name":"Böblingen","type":"Landkreis"},"federalState":{"key":"08","name":"Baden-Württemberg"}},{"name":"Katharinaweg","postalCode":"71088","locality":"Holzgerlingen","municipality":{"key":"08115024","name":"Holzgerlingen, Stadt","type":"Stadt"},"district":{"key":"08115","name":"Böblingen","type":"Landkreis"},"federalState":{"key":"08","name":"Baden-Württemberg"}},{"name":"Käthe-Kollwitz-Str.","postalCode":"71088","locality":"Holzgerlingen","municipality":{"key":"08115024","name":"Holzgerlingen, Stadt","type":"Stadt"},"district":{"key":"08115","name":"Böblingen","type":"Landkreis"},"federalState":{"key":"08","name":"Baden-Württemberg"}},{"name":"Käthe-Simon-Weg","postalCode":"70839","locality":"Gerlingen","municipality":{"key":"08118019","name":"Gerlingen, Stadt","type":"Stadt"},"district":{"key":"08118","name":"Ludwigsburg","type":"Landkreis"},"federalState":{"key":"08","name":"Baden-Württemberg"}},{"name":"Kaufhaussträßchen","postalCode":"70839","locality":"Gerlingen","municipality":{"key":"08118019","name":"Gerlingen, Stadt","type":"Stadt"},"district":{"key":"08118","name":"Ludwigsburg","type":"Landkreis"},"federalState":{"key":"08","name":"Baden-Württemberg"}},{"name":"Kaufhausträßchen","postalCode":"70839","locality":"Gerlingen","municipality":{"key":"08118019","name":"Gerlingen, Stadt","type":"Stadt"},"district":{"key":"08118","name":"Ludwigsburg","type":"Landkreis"},"federalState":{"key":"08","name":"Baden-Württemberg"}},{"name":"Keimenäckerstr.","postalCode":"70839","locality":"Gerlingen","municipality":{"key":"08118019","name":"Gerlingen, Stadt","type":"Stadt"},"district":{"key":"08118","name":"Ludwigsburg","type":"Landkreis"},"federalState":{"key":"08","name":"Baden-Württemberg"}},{"name":"Keltenweg","postalCode":"70839","locality":"Gerlingen","municipality":{"key":"08118019","name":"Gerlingen, Stadt","type":"Stadt"},"district":{"key":"08118","name":"Ludwigsburg","type":"Landkreis"},"federalState":{"key":"08","name":"Baden-Württemberg"}},{"name":"Keplerstr.","postalCode":"70839","locality":"Gerlingen","municipality":{"key":"08118019","name":"Gerlingen, Stadt","type":"Stadt"},"district":{"key":"08118","name":"Ludwigsburg","type":"Landkreis"},"federalState":{"key":"08","name":"Baden-Württemberg"}},{"name":"Kernerstr.","postalCode":"71088","locality":"Holzgerlingen","municipality":{"key":"08115024","name":"Holzgerlingen, Stadt","type":"Stadt"},"district":{"key":"08115","name":"Böblingen","type":"Landkreis"},"federalState":{"key":"08","name":"Baden-Württemberg"}},{"name":"Keuperweg","postalCode":"70839","locality":"Gerlingen","municipality":{"key":"08118019","name":"Gerlingen, Stadt","type":"Stadt"},"district":{"key":"08118","name":"Ludwigsburg","type":"Landkreis"},"federalState":{"key":"08","name":"Baden-Württemberg"}},{"name":"Kiefernweg","postalCode":"70839","locality":"Gerlingen","municipality":{"key":"08118019","name":"Gerlingen, Stadt","type":"Stadt"},"district":{"key":"08118","name":"Ludwigsburg","type":"Landkreis"},"federalState":{"key":"08","name":"Baden-Württemberg"}},{"name":"Kirchstr.","postalCode":"70839","locality":"Gerlingen","municipality":{"key":"08118019","name":"Gerlingen, Stadt","type":"Stadt"},"district":{"key":"08118","name":"Ludwigsburg","type":"Landkreis"},"federalState":{"key":"08","name":"Baden-Württemberg"}},{"name":"Kleiststr.","postalCode":"71088","locality":"Holzgerlingen","municipality":{"key":"08115024","name":"Holzgerlingen, Stadt","type":"Stadt"},"district":{"key":"08115","name":"Böblingen","type":"Landkreis"},"federalState":{"key":"08","name":"Baden-Württemberg"}},{"name":"Klemmertstr.","postalCode":"71088","locality":"Holzgerlingen","municipality":{"key":"08115024","name":"Holzgerlingen, Stadt","type":"Stadt"},"district":{"key":"08115","name":"Böblingen","type":"Landkreis"},"federalState":{"key":"08","name":"Baden-Württemberg"}},{"name":"Klippeneckweg","postalCode":"71088","locality":"Holzgerlingen","municipality":{"key":"08115024","name":"Holzgerlingen, Stadt","type":"Stadt"},"district":{"key":"08115","name":"Böblingen","type":"Landkreis"},"federalState":{"key":"08","name":"Baden-Württemberg"}},{"name":"Kniebisstr.","postalCode":"71088","locality":"Holzgerlingen","municipality":{"key":"08115024","name":"Holzgerlingen, Stadt","type":"Stadt"},"district":{"key":"08115","name":"Böblingen","type":"Landkreis"},"federalState":{"key":"08","name":"Baden-Württemberg"}},{"name":"Köhlbergstr.","postalCode":"71088","locality":"Holzgerlingen","municipality":{"key":"08115024","name":"Holzgerlingen, Stadt","type":"Stadt"},"district":{"key":"08115","name":"Böblingen","type":"Landkreis"},"federalState":{"key":"08","name":"Baden-Württemberg"}},{"name":"Königstandweg","postalCode":"70839","locality":"Gerlingen","municipality":{"key":"08118019","name":"Gerlingen, Stadt","type":"Stadt"},"district":{"key":"08118","name":"Ludwigsburg","type":"Landkreis"},"federalState":{"key":"08","name":"Baden-Württemberg"}},{"name":"Kreisverkehr Schillerhöhe","postalCode":"70839","locality":"Gerlingen","municipality":{"key":"08118019","name":"Gerlingen, Stadt","type":"Stadt"},"district":{"key":"08118","name":"Ludwigsburg","type":"Landkreis"},"federalState":{"key":"08","name":"Baden-Württemberg"}},{"name":"Kreuzerwasenstr.","postalCode":"71088","locality":"Holzgerlingen","municipality":{"key":"08115024","name":"Holzgerlingen, Stadt","type":"Stadt"},"district":{"key":"08115","name":"Böblingen","type":"Landkreis"},"federalState":{"key":"08","name":"Baden-Württemberg"}},{"name":"Küchenallee","postalCode":"70839","locality":"Gerlingen","municipality":{"key":"08118019","name":"Gerlingen, Stadt","type":"Stadt"},"district":{"key":"08118","name":"Ludwigsburg","type":"Landkreis"},"federalState":{"key":"08","name":"Baden-Württemberg"}},{"name":"Kupferwiesenstr.","postalCode":"70839","locality":"Gerlingen","municipality":{"key":"08118019","name":"Gerlingen, Stadt","type":"Stadt"},"district":{"key":"08118","name":"Ludwigsburg","type":"Landkreis"},"federalState":{"key":"08","name":"Baden-Württemberg"}},{"name":"Laichlestr.","postalCode":"70839","locality":"Gerlingen","municipality":{"key":"08118019","name":"Gerlingen, Stadt","type":"Stadt"},"district":{"key":"08118","name":"Ludwigsburg","type":"Landkreis"},"federalState":{"key":"08","name":"Baden-Württemberg"}},{"name":"Lammstr.","postalCode":"70839","locality":"Gerlingen","municipality":{"key":"08118019","name":"Gerlingen, Stadt","type":"Stadt"},"district":{"key":"08118","name":"Ludwigsburg","type":"Landkreis"},"federalState":{"key":"08","name":"Baden-Württemberg"}},{"name":"Leimengrubenstr.","postalCode":"70839","locality":"Gerlingen","municipality":{"key":"08118019","name":"Gerlingen, Stadt","type":"Stadt"},"district":{"key":"08118","name":"Ludwigsburg","type":"Landkreis"},"federalState":{"key":"08","name":"Baden-Württemberg"}},{"name":"Leonberger Str.","postalCode":"70839","locality":"Gerlingen","municipality":{"key":"08118019","name":"Gerlingen, Stadt","type":"Stadt"},"district":{"key":"08118","name":"Ludwigsburg","type":"Landkreis"},"federalState":{"key":"08","name":"Baden-Württemberg"}},{"name":"Lerchenstr.","postalCode":"71088","locality":"Holzgerlingen","municipality":{"key":"08115024","name":"Holzgerlingen, Stadt","type":"Stadt"},"district":{"key":"08115","name":"Böblingen","type":"Landkreis"},"federalState":{"key":"08","name":"Baden-Württemberg"}},{"name":"Lerchenweg","postalCode":"70839","locality":"Gerlingen","municipality":{"key":"08118019","name":"Gerlingen, Stadt","type":"Stadt"},"district":{"key":"08118","name":"Ludwigsburg","type":"Landkreis"},"federalState":{"key":"08","name":"Baden-Württemberg"}},{"name":"Lessingweg","postalCode":"71088","locality":"Holzgerlingen","municipality":{"key":"08115024","name":"Holzgerlingen, Stadt","type":"Stadt"},"district":{"key":"08115","name":"Böblingen","type":"Landkreis"},"federalState":{"key":"08","name":"Baden-Württemberg"}},{"name":"Lichtenhaldeweg","postalCode":"71088","locality":"Holzgerlingen","municipality":{"key":"08115024","name":"Holzgerlingen, Stadt","type":"Stadt"},"district":{"key":"08115","name":"Böblingen","type":"Landkreis"},"federalState":{"key":"08","name":"Baden-Württemberg"}},{"name":"Lichtensteinstr.","postalCode":"71088","locality":"Holzgerlingen","municipality":{"key":"08115024","name":"Holzgerlingen, Stadt","type":"Stadt"},"district":{"key":"08115","name":"Böblingen","type":"Landkreis"},"federalState":{"key":"08","name":"Baden-Württemberg"}},{"name":"Lilienstr.","postalCode":"71088","locality":"Holzgerlingen","municipality":{"key":"08115024","name":"Holzgerlingen, Stadt","type":"Stadt"},"district":{"key":"08115","name":"Böblingen","type":"Landkreis"},"federalState":{"key":"08","name":"Baden-Württemberg"}},{"name":"Lindenallee","postalCode":"70839","locality":"Gerlingen","municipality":{"key":"08118019","name":"Gerlingen, Stadt","type":"Stadt"},"district":{"key":"08118","name":"Ludwigsburg","type":"Landkreis"},"federalState":{"key":"08","name":"Baden-Württemberg"}},{"name":"Lindenstr.","postalCode":"70839","locality":"Gerlingen","municipality":{"key":"08118019","name":"Gerlingen, Stadt","type":"Stadt"},"district":{"key":"08118","name":"Ludwigsburg","type":"Landkreis"},"federalState":{"key":"08","name":"Baden-Württemberg"}},{"name":"Lindenstr.","postalCode":"71088","locality":"Holzgerlingen","municipality":{"key":"08115024","name":"Holzgerlingen, Stadt","type":"Stadt"},"district":{"key":"08115","name":"Böblingen","type":"Landkreis"},"federalState":{"key":"08","name":"Baden-Württemberg"}},{"name":"Liststr.","postalCode":"71088","locality":"Holzgerlingen","municipality":{"key":"08115024","name":"Holzgerlingen, Stadt","type":"Stadt"},"district":{"key":"08115","name":"Böblingen","type":"Landkreis"},"federalState":{"key":"08","name":"Baden-Württemberg"}},{"name":"Lontelstr.","postalCode":"70839","locality":"Gerlingen","municipality":{"key":"08118019","name":"Gerlingen, Stadt","type":"Stadt"},"district":{"key":"08118","name":"Ludwigsburg","type":"Landkreis"},"federalState":{"key":"08","name":"Baden-Württemberg"}},{"name":"Lorscher Weg","postalCode":"70839","locality":"Gerlingen","municipality":{"key":"08118019","name":"Gerlingen, Stadt","type":"Stadt"},"district":{"key":"08118","name":"Ludwigsburg","type":"Landkreis"},"federalState":{"key":"08","name":"Baden-Württemberg"}},{"name":"Ludwigstr.","postalCode":"70839","locality":"Gerlingen","municipality":{"key":"08118019","name":"Gerlingen, Stadt","type":"Stadt"},"district":{"key":"08118","name":"Ludwigsburg","type":"Landkreis"},"federalState":{"key":"08","name":"Baden-Württemberg"}},{"name":"Luise-Burkhardt-Weg","postalCode":"71088","locality":"Holzgerlingen","municipality":{"key":"08115024","name":"Holzgerlingen, Stadt","type":"Stadt"},"district":{"key":"08115","name":"Böblingen","type":"Landkreis"},"federalState":{"key":"08","name":"Baden-Württemberg"}},{"name":"Magdalenaweg","postalCode":"71088","locality":"Holzgerlingen","municipality":{"key":"08115024","name":"Holzgerlingen, Stadt","type":"Stadt"},"district":{"key":"08115","name":"Böblingen","type":"Landkreis"},"federalState":{"key":"08","name":"Baden-Württemberg"}},{"name":"Mahdentalstr.","postalCode":"70839","locality":"Gerlingen","municipality":{"key":"08118019","name":"Gerlingen, Stadt","type":"Stadt"},"district":{"key":"08118","name":"Ludwigsburg","type":"Landkreis"},"federalState":{"key":"08","name":"Baden-Württemberg"}},{"name":"Malvenweg","postalCode":"70839","locality":"Gerlingen","municipality":{"key":"08118019","name":"Gerlingen, Stadt","type":"Stadt"},"district":{"key":"08118","name":"Ludwigsburg","type":"Landkreis"},"federalState":{"key":"08","name":"Baden-Württemberg"}},{"name":"Margaretenweg","postalCode":"70839","locality":"Gerlingen","municipality":{"key":"08118019","name":"Gerlingen, Stadt","type":"Stadt"},"district":{"key":"08118","name":"Ludwigsburg","type":"Landkreis"},"federalState":{"key":"08","name":"Baden-Württemberg"}},{"name":"Margarete-Steiff-Str.","postalCode":"71088","locality":"Holzgerlingen","municipality":{"key":"08115024","name":"Holzgerlingen, Stadt","type":"Stadt"},"district":{"key":"08115","name":"Böblingen","type":"Landkreis"},"federalState":{"key":"08","name":"Baden-Württemberg"}},{"name":"Marienweg","postalCode":"71088","locality":"Holzgerlingen","municipality":{"key":"08115024","name":"Holzgerlingen, Stadt","type":"Stadt"},"district":{"key":"08115","name":"Böblingen","type":"Landkreis"},"federalState":{"key":"08","name":"Baden-Württemberg"}},{"name":"Mathildenstr.","postalCode":"70839","locality":"Gerlingen","municipality":{"key":"08118019","name":"Gerlingen, Stadt","type":"Stadt"},"district":{"key":"08118","name":"Ludwigsburg","type":"Landkreis"},"federalState":{"key":"08","name":"Baden-Württemberg"}},{"name":"Mathilde-Planck-Weg","postalCode":"70839","locality":"Gerlingen","municipality":{"key":"08118019","name":"Gerlingen, Stadt","type":"Stadt"},"district":{"key":"08118","name":"Ludwigsburg","type":"Landkreis"},"federalState":{"key":"08","name":"Baden-Württemberg"}},{"name":"Maurener Str.","postalCode":"71088","locality":"Holzgerlingen","municipality":{"key":"08115024","name":"Holzgerlingen, Stadt","type":"Stadt"},"district":{"key":"08115","name":"Böblingen","type":"Landkreis"},"federalState":{"key":"08","name":"Baden-Württemberg"}},{"name":"Max-Eyth-Str.","postalCode":"70839","locality":"Gerlingen","municipality":{"key":"08118019","name":"Gerlingen, Stadt","type":"Stadt"},"district":{"key":"08118","name":"Ludwigsburg","type":"Landkreis"},"federalState":{"key":"08","name":"Baden-Württemberg"}},{"name":"Maybachstr.","postalCode":"70839","locality":"Gerlingen","municipality":{"key":"08118019","name":"Gerlingen, Stadt","type":"Stadt"},"district":{"key":"08118","name":"Ludwigsburg","type":"Landkreis"},"federalState":{"key":"08","name":"Baden-Württemberg"}},{"name":"Mechthildweg","postalCode":"71088","locality":"Holzgerlingen","municipality":{"key":"08115024","name":"Holzgerlingen, Stadt","type":"Stadt"},"district":{"key":"08115","name":"Böblingen","type":"Landkreis"},"federalState":{"key":"08","name":"Baden-Württemberg"}},{"name":"Meisenweg","postalCode":"70839","locality":"Gerlingen","municipality":{"key":"08118019","name":"Gerlingen, Stadt","type":"Stadt"},"district":{"key":"08118","name":"Ludwigsburg","type":"Landkreis"},"federalState":{"key":"08","name":"Baden-Württemberg"}},{"name":"Meisenweg","postalCode":"71088","locality":"Holzgerlingen","municipality":{"key":"08115024","name":"Holzgerlingen, Stadt","type":"Stadt"},"district":{"key":"08115","name":"Böblingen","type":"Landkreis"},"federalState":{"key":"08","name":"Baden-Württemberg"}},{"name":"Mesneramt","postalCode":"70839","locality":"Gerlingen","municipality":{"key":"08118019","name":"Gerlingen, Stadt","type":"Stadt"},"district":{"key":"08118","name":"Ludwigsburg","type":"Landkreis"},"federalState":{"key":"08","name":"Baden-Württemberg"}},{"name":"Meterstr.","postalCode":"70839","locality":"Gerlingen","municipality":{"key":"08118019","name":"Gerlingen, Stadt","type":"Stadt"},"district":{"key":"08118","name":"Ludwigsburg","type":"Landkreis"},"federalState":{"key":"08","name":"Baden-Württemberg"}},{"name":"Missenharterweg","postalCode":"70839","locality":"Gerlingen","municipality":{"key":"08118019","name":"Gerlingen, Stadt","type":"Stadt"},"district":{"key":"08118","name":"Ludwigsburg","type":"Landkreis"},"federalState":{"key":"08","name":"Baden-Württemberg"}},{"name":"Mitschelenstr.","postalCode":"70839","locality":"Gerlingen","municipality":{"key":"08118019","name":"Gerlingen, Stadt","type":"Stadt"},"district":{"key":"08118","name":"Ludwigsburg","type":"Landkreis"},"federalState":{"key":"08","name":"Baden-Württemberg"}},{"name":"Mittlere Ringstr.","postalCode":"70839","locality":"Gerlingen","municipality":{"key":"08118019","name":"Gerlingen, Stadt","type":"Stadt"},"district":{"key":"08118","name":"Ludwigsburg","type":"Landkreis"},"federalState":{"key":"08","name":"Baden-Württemberg"}},{"name":"Mögistorstr.","postalCode":"71088","locality":"Holzgerlingen","municipality":{"key":"08115024","name":"Holzgerlingen, Stadt","type":"Stadt"},"district":{"key":"08115","name":"Böblingen","type":"Landkreis"},"federalState":{"key":"08","name":"Baden-Württemberg"}},{"name":"Mönchweg","postalCode":"71088","locality":"Holzgerlingen","municipality":{"key":"08115024","name":"Holzgerlingen, Stadt","type":"Stadt"},"district":{"key":"08115","name":"Böblingen","type":"Landkreis"},"federalState":{"key":"08","name":"Baden-Württemberg"}},{"name":"Mörikestr.","postalCode":"70839","locality":"Gerlingen","municipality":{"key":"08118019","name":"Gerlingen, Stadt","type":"Stadt"},"district":{"key":"08118","name":"Ludwigsburg","type":"Landkreis"},"federalState":{"key":"08","name":"Baden-Württemberg"}},{"name":"Mörikestr.","postalCode":"71088","locality":"Holzgerlingen","municipality":{"key":"08115024","name":"Holzgerlingen, Stadt","type":"Stadt"},"district":{"key":"08115","name":"Böblingen","type":"Landkreis"},"federalState":{"key":"08","name":"Baden-Württemberg"}},{"name":"Mühlstr.","postalCode":"70839","locality":"Gerlingen","municipality":{"key":"08118019","name":"Gerlingen, Stadt","type":"Stadt"},"district":{"key":"08118","name":"Ludwigsburg","type":"Landkreis"},"federalState":{"key":"08","name":"Baden-Württemberg"}},{"name":"Mühlweg","postalCode":"70839","locality":"Gerlingen","municipality":{"key":"08118019","name":"Gerlingen, Stadt","type":"Stadt"},"district":{"key":"08118","name":"Ludwigsburg","type":"Landkreis"},"federalState":{"key":"08","name":"Baden-Württemberg"}},{"name":"Nanetteweg","postalCode":"70839","locality":"Gerlingen","municipality":{"key":"08118019","name":"Gerlingen, Stadt","type":"Stadt"},"district":{"key":"08118","name":"Ludwigsburg","type":"Landkreis"},"federalState":{"key":"08","name":"Baden-Württemberg"}},{"name":"Nelkenstr.","postalCode":"71088","locality":"Holzgerlingen","municipality":{"key":"08115024","name":"Holzgerlingen, Stadt","type":"Stadt"},"district":{"key":"08115","name":"Böblingen","type":"Landkreis"},"federalState":{"key":"08","name":"Baden-Württemberg"}},{"name":"Neuenhofer Str.","postalCode":"71088","locality":"Holzgerlingen","municipality":{"key":"08115024","name":"Holzgerlingen, Stadt","type":"Stadt"},"district":{"key":"08115","name":"Böblingen","type":"Landkreis"},"federalState":{"key":"08","name":"Baden-Württemberg"}},{"name":"Neue Ramtelstr.","postalCode":"70839","locality":"Gerlingen","municipality":{"key":"08118019","name":"Gerlingen, Stadt","type":"Stadt"},"district":{"key":"08118","name":"Ludwigsburg","type":"Landkreis"},"federalState":{"key":"08","name":"Baden-Württemberg"}},{"name":"Neuwiesenweg","postalCode":"71088","locality":"Holzgerlingen","municipality":{"key":"08115024","name":"Holzgerlingen, Stadt","type":"Stadt"},"district":{"key":"08115","name":"Böblingen","type":"Landkreis"},"federalState":{"key":"08","name":"Baden-Württemberg"}},{"name":"Nieskyer Str.","postalCode":"71088","locality":"Holzgerlingen","municipality":{"key":"08115024","name":"Holzgerlingen, Stadt","type":"Stadt"},"district":{"key":"08115","name":"Böblingen","type":"Landkreis"},"federalState":{"key":"08","name":"Baden-Württemberg"}},{"name":"Obere Bergstr.","postalCode":"70839","locality":"Gerlingen","municipality":{"key":"08118019","name":"Gerlingen, Stadt","type":"Stadt"},"district":{"key":"08118","name":"Ludwigsburg","type":"Landkreis"},"federalState":{"key":"08","name":"Baden-Württemberg"}},{"name":"Obere Ringstr.","postalCode":"70839","locality":"Gerlingen","municipality":{"key":"08118019","name":"Gerlingen, Stadt","type":"Stadt"},"district":{"key":"08118","name":"Ludwigsburg","type":"Landkreis"},"federalState":{"key":"08","name":"Baden-Württemberg"}},{"name":"Obertorstr.","postalCode":"70839","locality":"Gerlingen","municipality":{"key":"08118019","name":"Gerlingen, Stadt","type":"Stadt"},"district":{"key":"08118","name":"Ludwigsburg","type":"Landkreis"},"federalState":{"key":"08","name":"Baden-Württemberg"}},{"name":"Ochsenhausträßle","postalCode":"71088","locality":"Holzgerlingen","municipality":{"key":"08115024","name":"Holzgerlingen, Stadt","type":"Stadt"},"district":{"key":"08115","name":"Böblingen","type":"Landkreis"},"federalState":{"key":"08","name":"Baden-Württemberg"}},{"name":"Olgastr.","postalCode":"71088","locality":"Holzgerlingen","municipality":{"key":"08115024","name":"Holzgerlingen, Stadt","type":"Stadt"},"district":{"key":"08115","name":"Böblingen","type":"Landkreis"},"federalState":{"key":"08","name":"Baden-Württemberg"}},{"name":"Otto-Schöpfer-Str.","postalCode":"70839","locality":"Gerlingen","municipality":{"key":"08118019","name":"Gerlingen, Stadt","type":"Stadt"},"district":{"key":"08118","name":"Ludwigsburg","type":"Landkreis"},"federalState":{"key":"08","name":"Baden-Württemberg"}},{"name":"Otto-Weddigen-Str.","postalCode":"70839","locality":"Gerlingen","municipality":{"key":"08118019","name":"Gerlingen, Stadt","type":"Stadt"},"district":{"key":"08118","name":"Ludwigsburg","type":"Landkreis"},"federalState":{"key":"08","name":"Baden-Württemberg"}},{"name":"Palmerstr.","postalCode":"71088","locality":"Holzgerlingen","municipality":{"key":"08115024","name":"Holzgerlingen, Stadt","type":"Stadt"},"district":{"key":"08115","name":"Böblingen","type":"Landkreis"},"federalState":{"key":"08","name":"Baden-Württemberg"}},{"name":"Panoramastr.","postalCode":"70839","locality":"Gerlingen","municipality":{"key":"08118019","name":"Gerlingen, Stadt","type":"Stadt"},"district":{"key":"08118","name":"Ludwigsburg","type":"Landkreis"},"federalState":{"key":"08","name":"Baden-Württemberg"}},{"name":"Panoramastr.","postalCode":"71088","locality":"Holzgerlingen","municipality":{"key":"08115024","name":"Holzgerlingen, Stadt","type":"Stadt"},"district":{"key":"08115","name":"Böblingen","type":"Landkreis"},"federalState":{"key":"08","name":"Baden-Württemberg"}},{"name":"Pappelweg","postalCode":"70839","locality":"Gerlingen","municipality":{"key":"08118019","name":"Gerlingen, Stadt","type":"Stadt"},"district":{"key":"08118","name":"Ludwigsburg","type":"Landkreis"},"federalState":{"key":"08","name":"Baden-Württemberg"}},{"name":"Pfarrer-Martin-Thust-Weg","postalCode":"71088","locality":"Holzgerlingen","municipality":{"key":"08115024","name":"Holzgerlingen, Stadt","type":"Stadt"},"district":{"key":"08115","name":"Böblingen","type":"Landkreis"},"federalState":{"key":"08","name":"Baden-Württemberg"}},{"name":"Pfarrgartenstr.","postalCode":"71088","locality":"Holzgerlingen","municipality":{"key":"08115024","name":"Holzgerlingen, Stadt","type":"Stadt"},"district":{"key":"08115","name":"Böblingen","type":"Landkreis"},"federalState":{"key":"08","name":"Baden-Württemberg"}},{"name":"Querstr.","postalCode":"70839","locality":"Gerlingen","municipality":{"key":"08118019","name":"Gerlingen, Stadt","type":"Stadt"},"district":{"key":"08118","name":"Ludwigsburg","type":"Landkreis"},"federalState":{"key":"08","name":"Baden-Württemberg"}},{"name":"Raiffeisenstr.","postalCode":"70839","locality":"Gerlingen","municipality":{"key":"08118019","name":"Gerlingen, Stadt","type":"Stadt"},"district":{"key":"08118","name":"Ludwigsburg","type":"Landkreis"},"federalState":{"key":"08","name":"Baden-Württemberg"}},{"name":"Rappenhofweg","postalCode":"70839","locality":"Gerlingen","municipality":{"key":"08118019","name":"Gerlingen, Stadt","type":"Stadt"},"district":{"key":"08118","name":"Ludwigsburg","type":"Landkreis"},"federalState":{"key":"08","name":"Baden-Württemberg"}},{"name":"Rechbergstr.","postalCode":"71088","locality":"Holzgerlingen","municipality":{"key":"08115024","name":"Holzgerlingen, Stadt","type":"Stadt"},"district":{"key":"08115","name":"Böblingen","type":"Landkreis"},"federalState":{"key":"08","name":"Baden-Württemberg"}},{"name":"Reiflestr.","postalCode":"70839","locality":"Gerlingen","municipality":{"key":"08118019","name":"Gerlingen, Stadt","type":"Stadt"},"district":{"key":"08118","name":"Ludwigsburg","type":"Landkreis"},"federalState":{"key":"08","name":"Baden-Württemberg"}},{"name":"Rektor-Franke-Weg","postalCode":"71088","locality":"Holzgerlingen","municipality":{"key":"08115024","name":"Holzgerlingen, Stadt","type":"Stadt"},"district":{"key":"08115","name":"Böblingen","type":"Landkreis"},"federalState":{"key":"08","name":"Baden-Württemberg"}},{"name":"Reußensteinweg","postalCode":"71088","locality":"Holzgerlingen","municipality":{"key":"08115024","name":"Holzgerlingen, Stadt","type":"Stadt"},"district":{"key":"08115","name":"Böblingen","type":"Landkreis"},"federalState":{"key":"08","name":"Baden-Württemberg"}},{"name":"Richthofenstr.","postalCode":"70839","locality":"Gerlingen","municipality":{"key":"08118019","name":"Gerlingen, Stadt","type":"Stadt"},"district":{"key":"08118","name":"Ludwigsburg","type":"Landkreis"},"federalState":{"key":"08","name":"Baden-Württemberg"}},{"name":"Richthofenstr.","postalCode":"71088","locality":"Holzgerlingen","municipality":{"key":"08115024","name":"Holzgerlingen, Stadt","type":"Stadt"},"district":{"key":"08115","name":"Böblingen","type":"Landkreis"},"federalState":{"key":"08","name":"Baden-Württemberg"}},{"name":"Ringstr.","postalCode":"70839","locality":"Gerlingen","municipality":{"key":"08118019","name":"Gerlingen, Stadt","type":"Stadt"},"district":{"key":"08118","name":"Ludwigsburg","type":"Landkreis"},"federalState":{"key":"08","name":"Baden-Württemberg"}},{"name":"Robert-Heck-Str.","postalCode":"70839","locality":"Gerlingen","municipality":{"key":"08118019","name":"Gerlingen, Stadt","type":"Stadt"},"district":{"key":"08118","name":"Ludwigsburg","type":"Landkreis"},"federalState":{"key":"08","name":"Baden-Württemberg"}},{"name":"Robert-Koch-Str.","postalCode":"70839","locality":"Gerlingen","municipality":{"key":"08118019","name":"Gerlingen, Stadt","type":"Stadt"},"district":{"key":"08118","name":"Ludwigsburg","type":"Landkreis"},"federalState":{"key":"08","name":"Baden-Württemberg"}},{"name":"Robert-Schuman-Str.","postalCode":"70839","locality":"Gerlingen","municipality":{"key":"08118019","name":"Gerlingen, Stadt","type":"Stadt"},"district":{"key":"08118","name":"Ludwigsburg","type":"Landkreis"},"federalState":{"key":"08","name":"Baden-Württemberg"}},{"name":"Römersteinweg","postalCode":"71088","locality":"Holzgerlingen","municipality":{"key":"08115024","name":"Holzgerlingen, Stadt","type":"Stadt"},"district":{"key":"08115","name":"Böblingen","type":"Landkreis"},"federalState":{"key":"08","name":"Baden-Württemberg"}},{"name":"Römerweg","postalCode":"70839","locality":"Gerlingen","municipality":{"key":"08118019","name":"Gerlingen, Stadt","type":"Stadt"},"district":{"key":"08118","name":"Ludwigsburg","type":"Landkreis"},"federalState":{"key":"08","name":"Baden-Württemberg"}},{"name":"Rosenstr.","postalCode":"70839","locality":"Gerlingen","municipality":{"key":"08118019","name":"Gerlingen, Stadt","type":"Stadt"},"district":{"key":"08118","name":"Ludwigsburg","type":"Landkreis"},"federalState":{"key":"08","name":"Baden-Württemberg"}},{"name":"Rosenstr.","postalCode":"71088","locality":"Holzgerlingen","municipality":{"key":"08115024","name":"Holzgerlingen, Stadt","type":"Stadt"},"district":{"key":"08115","name":"Böblingen","type":"Landkreis"},"federalState":{"key":"08","name":"Baden-Württemberg"}},{"name":"Rudolf-Diesel-Str.","postalCode":"71088","locality":"Holzgerlingen","municipality":{"key":"08115024","name":"Holzgerlingen, Stadt","type":"Stadt"},"district":{"key":"08115","name":"Böblingen","type":"Landkreis"},"federalState":{"key":"08","name":"Baden-Württemberg"}},{"name":"Ruhesteinweg","postalCode":"71088","locality":"Holzgerlingen","municipality":{"key":"08115024","name":"Holzgerlingen, Stadt","type":"Stadt"},"district":{"key":"08115","name":"Böblingen","type":"Landkreis"},"federalState":{"key":"08","name":"Baden-Württemberg"}},{"name":"Schellingstr.","postalCode":"71088","locality":"Holzgerlingen","municipality":{"key":"08115024","name":"Holzgerlingen, Stadt","type":"Stadt"},"district":{"key":"08115","name":"Böblingen","type":"Landkreis"},"federalState":{"key":"08","name":"Baden-Württemberg"}},{"name":"Schelmengraben","postalCode":"70839","locality":"Gerlingen","municipality":{"key":"08118019","name":"Gerlingen, Stadt","type":"Stadt"},"district":{"key":"08118","name":"Ludwigsburg","type":"Landkreis"},"federalState":{"key":"08","name":"Baden-Württemberg"}},{"name":"Schillerstr.","postalCode":"70839","locality":"Gerlingen","municipality":{"key":"08118019","name":"Gerlingen, Stadt","type":"Stadt"},"district":{"key":"08118","name":"Ludwigsburg","type":"Landkreis"},"federalState":{"key":"08","name":"Baden-Württemberg"}},{"name":"Schillerstr.","postalCode":"71088","locality":"Holzgerlingen","municipality":{"key":"08115024","name":"Holzgerlingen, Stadt","type":"Stadt"},"district":{"key":"08115","name":"Böblingen","type":"Landkreis"},"federalState":{"key":"08","name":"Baden-Württemberg"}},{"name":"Schlehenweg","postalCode":"70839","locality":"Gerlingen","municipality":{"key":"08118019","name":"Gerlingen, Stadt","type":"Stadt"},"district":{"key":"08118","name":"Ludwigsburg","type":"Landkreis"},"federalState":{"key":"08","name":"Baden-Württemberg"}},{"name":"Schliffkopfweg","postalCode":"71088","locality":"Holzgerlingen","municipality":{"key":"08115024","name":"Holzgerlingen, Stadt","type":"Stadt"},"district":{"key":"08115","name":"Böblingen","type":"Landkreis"},"federalState":{"key":"08","name":"Baden-Württemberg"}},{"name":"Schloßstr.","postalCode":"71088","locality":"Holzgerlingen","municipality":{"key":"08115024","name":"Holzgerlingen, Stadt","type":"Stadt"},"district":{"key":"08115","name":"Böblingen","type":"Landkreis"},"federalState":{"key":"08","name":"Baden-Württemberg"}},{"name":"Schönaicher Str.","postalCode":"71088","locality":"Holzgerlingen","municipality":{"key":"08115024","name":"Holzgerlingen, Stadt","type":"Stadt"},"district":{"key":"08115","name":"Böblingen","type":"Landkreis"},"federalState":{"key":"08","name":"Baden-Württemberg"}},{"name":"Schönbuchstr.","postalCode":"71088","locality":"Holzgerlingen","municipality":{"key":"08115024","name":"Holzgerlingen, Stadt","type":"Stadt"},"district":{"key":"08115","name":"Böblingen","type":"Landkreis"},"federalState":{"key":"08","name":"Baden-Württemberg"}},{"name":"Schubartstr.","postalCode":"70839","locality":"Gerlingen","municipality":{"key":"08118019","name":"Gerlingen, Stadt","type":"Stadt"},"district":{"key":"08118","name":"Ludwigsburg","type":"Landkreis"},"federalState":{"key":"08","name":"Baden-Württemberg"}},{"name":"Schubertstr.","postalCode":"71088","locality":"Holzgerlingen","municipality":{"key":"08115024","name":"Holzgerlingen, Stadt","type":"Stadt"},"district":{"key":"08115","name":"Böblingen","type":"Landkreis"},"federalState":{"key":"08","name":"Baden-Württemberg"}},{"name":"Schulstr.","postalCode":"70839","locality":"Gerlingen","municipality":{"key":"08118019","name":"Gerlingen, Stadt","type":"Stadt"},"district":{"key":"08118","name":"Ludwigsburg","type":"Landkreis"},"federalState":{"key":"08","name":"Baden-Württemberg"}},{"name":"Schwabstr.","postalCode":"71088","locality":"Holzgerlingen","municipality":{"key":"08115024","name":"Holzgerlingen, Stadt","type":"Stadt"},"district":{"key":"08115","name":"Böblingen","type":"Landkreis"},"federalState":{"key":"08","name":"Baden-Württemberg"}},{"name":"Seifertstr.","postalCode":"70839","locality":"Gerlingen","municipality":{"key":"08118019","name":"Gerlingen, Stadt","type":"Stadt"},"district":{"key":"08118","name":"Ludwigsburg","type":"Landkreis"},"federalState":{"key":"08","name":"Baden-Württemberg"}},{"name":"Siemensstr.","postalCode":"70839","locality":"Gerlingen","municipality":{"key":"08118019","name":"Gerlingen, Stadt","type":"Stadt"},"district":{"key":"08118","name":"Ludwigsburg","type":"Landkreis"},"federalState":{"key":"08","name":"Baden-Württemberg"}},{"name":"Silcherstr.","postalCode":"70839","locality":"Gerlingen","municipality":{"key":"08118019","name":"Gerlingen, Stadt","type":"Stadt"},"district":{"key":"08118","name":"Ludwigsburg","type":"Landkreis"},"federalState":{"key":"08","name":"Baden-Württemberg"}},{"name":"Silcherstr.","postalCode":"71088","locality":"Holzgerlingen","municipality":{"key":"08115024","name":"Holzgerlingen, Stadt","type":"Stadt"},"district":{"key":"08115","name":"Böblingen","type":"Landkreis"},"federalState":{"key":"08","name":"Baden-Württemberg"}},{"name":"Solitudestr.","postalCode":"70839","locality":"Gerlingen","municipality":{"key":"08118019","name":"Gerlingen, Stadt","type":"Stadt"},"district":{"key":"08118","name":"Ludwigsburg","type":"Landkreis"},"federalState":{"key":"08","name":"Baden-Württemberg"}},{"name":"Sommerrain","postalCode":"70839","locality":"Gerlingen","municipality":{"key":"08118019","name":"Gerlingen, Stadt","type":"Stadt"},"district":{"key":"08118","name":"Ludwigsburg","type":"Landkreis"},"federalState":{"key":"08","name":"Baden-Württemberg"}},{"name":"Sonnenrainweg","postalCode":"71088","locality":"Holzgerlingen","municipality":{"key":"08115024","name":"Holzgerlingen, Stadt","type":"Stadt"},"district":{"key":"08115","name":"Böblingen","type":"Landkreis"},"federalState":{"key":"08","name":"Baden-Württemberg"}},{"name":"Sophiastr.","postalCode":"71088","locality":"Holzgerlingen","municipality":{"key":"08115024","name":"Holzgerlingen, Stadt","type":"Stadt"},"district":{"key":"08115","name":"Böblingen","type":"Landkreis"},"federalState":{"key":"08","name":"Baden-Württemberg"}},{"name":"Spechtweg","postalCode":"70839","locality":"Gerlingen","municipality":{"key":"08118019","name":"Gerlingen, Stadt","type":"Stadt"},"district":{"key":"08118","name":"Ludwigsburg","type":"Landkreis"},"federalState":{"key":"08","name":"Baden-Württemberg"}},{"name":"Sperberweg","postalCode":"70839","locality":"Gerlingen","municipality":{"key":"08118019","name":"Gerlingen, Stadt","type":"Stadt"},"district":{"key":"08118","name":"Ludwigsburg","type":"Landkreis"},"federalState":{"key":"08","name":"Baden-Württemberg"}},{"name":"Stahlerstr.","postalCode":"70839","locality":"Gerlingen","municipality":{"key":"08118019","name":"Gerlingen, Stadt","type":"Stadt"},"district":{"key":"08118","name":"Ludwigsburg","type":"Landkreis"},"federalState":{"key":"08","name":"Baden-Württemberg"}},{"name":"Stangenholzweg","postalCode":"70839","locality":"Gerlingen","municipality":{"key":"08118019","name":"Gerlingen, Stadt","type":"Stadt"},"district":{"key":"08118","name":"Ludwigsburg","type":"Landkreis"},"federalState":{"key":"08","name":"Baden-Württemberg"}},{"name":"Stäuchle","postalCode":"71088","locality":"Holzgerlingen","municipality":{"key":"08115024","name":"Holzgerlingen, Stadt","type":"Stadt"},"district":{"key":"08115","name":"Böblingen","type":"Landkreis"},"federalState":{"key":"08","name":"Baden-Württemberg"}},{"name":"Steinbeißstr.","postalCode":"70839","locality":"Gerlingen","municipality":{"key":"08118019","name":"Gerlingen, Stadt","type":"Stadt"},"district":{"key":"08118","name":"Ludwigsburg","type":"Landkreis"},"federalState":{"key":"08","name":"Baden-Württemberg"}},{"name":"Steinbruchweg","postalCode":"70839","locality":"Gerlingen","municipality":{"key":"08118019","name":"Gerlingen, Stadt","type":"Stadt"},"district":{"key":"08118","name":"Ludwigsburg","type":"Landkreis"},"federalState":{"key":"08","name":"Baden-Württemberg"}},{"name":"Stöckachstr.","postalCode":"70839","locality":"Gerlingen","municipality":{"key":"08118019","name":"Gerlingen, Stadt","type":"Stadt"},"district":{"key":"08118","name":"Ludwigsburg","type":"Landkreis"},"federalState":{"key":"08","name":"Baden-Württemberg"}},{"name":"Stöckachweg","postalCode":"70839","locality":"Gerlingen","municipality":{"key":"08118019","name":"Gerlingen, Stadt","type":"Stadt"},"district":{"key":"08118","name":"Ludwigsburg","type":"Landkreis"},"federalState":{"key":"08","name":"Baden-Württemberg"}},{"name":"Stöckring","postalCode":"71088","locality":"Holzgerlingen","municipality":{"key":"08115024","name":"Holzgerlingen, Stadt","type":"Stadt"},"district":{"key":"08115","name":"Böblingen","type":"Landkreis"},"federalState":{"key":"08","name":"Baden-Württemberg"}},{"name":"Studentenallee","postalCode":"70839","locality":"Gerlingen","municipality":{"key":"08118019","name":"Gerlingen, Stadt","type":"Stadt"},"district":{"key":"08118","name":"Ludwigsburg","type":"Landkreis"},"federalState":{"key":"08","name":"Baden-Württemberg"}},{"name":"Stuifenweg","postalCode":"71088","locality":"Holzgerlingen","municipality":{"key":"08115024","name":"Holzgerlingen, Stadt","type":"Stadt"},"district":{"key":"08115","name":"Böblingen","type":"Landkreis"},"federalState":{"key":"08","name":"Baden-Württemberg"}},{"name":"Stuttgarter Str.","postalCode":"70839","locality":"Gerlingen","municipality":{"key":"08118019","name":"Gerlingen, Stadt","type":"Stadt"},"district":{"key":"08118","name":"Ludwigsburg","type":"Landkreis"},"federalState":{"key":"08","name":"Baden-Württemberg"}},{"name":"Talstr.","postalCode":"70839","locality":"Gerlingen","municipality":{"key":"08118019","name":"Gerlingen, Stadt","type":"Stadt"},"district":{"key":"08118","name":"Ludwigsburg","type":"Landkreis"},"federalState":{"key":"08","name":"Baden-Württemberg"}},{"name":"Talstr.","postalCode":"71088","locality":"Holzgerlingen","municipality":{"key":"08115024","name":"Holzgerlingen, Stadt","type":"Stadt"},"district":{"key":"08115","name":"Böblingen","type":"Landkreis"},"federalState":{"key":"08","name":"Baden-Württemberg"}},{"name":"Tannenstr.","postalCode":"71088","locality":"Holzgerlingen","municipality":{"key":"08115024","name":"Holzgerlingen, Stadt","type":"Stadt"},"district":{"key":"08115","name":"Böblingen","type":"Landkreis"},"federalState":{"key":"08","name":"Baden-Württemberg"}},{"name":"Tannenweg","postalCode":"70839","locality":"Gerlingen","municipality":{"key":"08118019","name":"Gerlingen, Stadt","type":"Stadt"},"district":{"key":"08118","name":"Ludwigsburg","type":"Landkreis"},"federalState":{"key":"08","name":"Baden-Württemberg"}},{"name":"Tatastr.","postalCode":"70839","locality":"Gerlingen","municipality":{"key":"08118019","name":"Gerlingen, Stadt","type":"Stadt"},"district":{"key":"08118","name":"Ludwigsburg","type":"Landkreis"},"federalState":{"key":"08","name":"Baden-Württemberg"}},{"name":"Taubenstr.","postalCode":"71088","locality":"Holzgerlingen","municipality":{"key":"08115024","name":"Holzgerlingen, Stadt","type":"Stadt"},"district":{"key":"08115","name":"Böblingen","type":"Landkreis"},"federalState":{"key":"08","name":"Baden-Württemberg"}},{"name":"Tauschklingenweg","postalCode":"70839","locality":"Gerlingen","municipality":{"key":"08118019","name":"Gerlingen, Stadt","type":"Stadt"},"district":{"key":"08118","name":"Ludwigsburg","type":"Landkreis"},"federalState":{"key":"08","name":"Baden-Württemberg"}},{"name":"Teckstr.","postalCode":"71088","locality":"Holzgerlingen","municipality":{"key":"08115024","name":"Holzgerlingen, Stadt","type":"Stadt"},"district":{"key":"08115","name":"Böblingen","type":"Landkreis"},"federalState":{"key":"08","name":"Baden-Württemberg"}},{"name":"Teuremertalweg","postalCode":"70839","locality":"Gerlingen","municipality":{"key":"08118019","name":"Gerlingen, Stadt","type":"Stadt"},"district":{"key":"08118","name":"Ludwigsburg","type":"Landkreis"},"federalState":{"key":"08","name":"Baden-Württemberg"}},{"name":"Tübinger Str.","postalCode":"71088","locality":"Holzgerlingen","municipality":{"key":"08115024","name":"Holzgerlingen, Stadt","type":"Stadt"},"district":{"key":"08115","name":"Böblingen","type":"Landkreis"},"federalState":{"key":"08","name":"Baden-Württemberg"}},{"name":"Tübinger Weg","postalCode":"71088","locality":"Holzgerlingen","municipality":{"key":"08115024","name":"Holzgerlingen, Stadt","type":"Stadt"},"district":{"key":"08115","name":"Böblingen","type":"Landkreis"},"federalState":{"key":"08","name":"Baden-Württemberg"}},{"name":"Tulpenstr.","postalCode":"71088","locality":"Holzgerlingen","municipality":{"key":"08115024","name":"Holzgerlingen, Stadt","type":"Stadt"},"district":{"key":"08115","name":"Böblingen","type":"Landkreis"},"federalState":{"key":"08","name":"Baden-Württemberg"}},{"name":"Turmstr.","postalCode":"71088","locality":"Holzgerlingen","municipality":{"key":"08115024","name":"Holzgerlingen, Stadt","type":"Stadt"},"district":{"key":"08115","name":"Böblingen","type":"Landkreis"},"federalState":{"key":"08","name":"Baden-Württemberg"}},{"name":"Uhlandstr.","postalCode":"70839","locality":"Gerlingen","municipality":{"key":"08118019","name":"Gerlingen, Stadt","type":"Stadt"},"district":{"key":"08118","name":"Ludwigsburg","type":"Landkreis"},"federalState":{"key":"08","name":"Baden-Württemberg"}},{"name":"Uhlandstr.","postalCode":"71088","locality":"Holzgerlingen","municipality":{"key":"08115024","name":"Holzgerlingen, Stadt","type":"Stadt"},"district":{"key":"08115","name":"Böblingen","type":"Landkreis"},"federalState":{"key":"08","name":"Baden-Württemberg"}},{"name":"Ulmenstr.","postalCode":"71088","locality":"Holzgerlingen","municipality":{"key":"08115024","name":"Holzgerlingen, Stadt","type":"Stadt"},"district":{"key":"08115","name":"Böblingen","type":"Landkreis"},"federalState":{"key":"08","name":"Baden-Württemberg"}},{"name":"Ulmenweg","postalCode":"70839","locality":"Gerlingen","municipality":{"key":"08118019","name":"Gerlingen, Stadt","type":"Stadt"},"district":{"key":"08118","name":"Ludwigsburg","type":"Landkreis"},"federalState":{"key":"08","name":"Baden-Württemberg"}},{"name":"Umgehungsstr.","postalCode":"71088","locality":"Holzgerlingen","municipality":{"key":"08115024","name":"Holzgerlingen, Stadt","type":"Stadt"},"district":{"key":"08115","name":"Böblingen","type":"Landkreis"},"federalState":{"key":"08","name":"Baden-Württemberg"}},{"name":"Untere Bergstr.","postalCode":"70839","locality":"Gerlingen","municipality":{"key":"08118019","name":"Gerlingen, Stadt","type":"Stadt"},"district":{"key":"08118","name":"Ludwigsburg","type":"Landkreis"},"federalState":{"key":"08","name":"Baden-Württemberg"}},{"name":"Unterer Schloßberg","postalCode":"70839","locality":"Gerlingen","municipality":{"key":"08118019","name":"Gerlingen, Stadt","type":"Stadt"},"district":{"key":"08118","name":"Ludwigsburg","type":"Landkreis"},"federalState":{"key":"08","name":"Baden-Württemberg"}},{"name":"Urbanstr.","postalCode":"70839","locality":"Gerlingen","municipality":{"key":"08118019","name":"Gerlingen, Stadt","type":"Stadt"},"district":{"key":"08118","name":"Ludwigsburg","type":"Landkreis"},"federalState":{"key":"08","name":"Baden-Württemberg"}},{"name":"Veilchenweg","postalCode":"70839","locality":"Gerlingen","municipality":{"key":"08118019","name":"Gerlingen, Stadt","type":"Stadt"},"district":{"key":"08118","name":"Ludwigsburg","type":"Landkreis"},"federalState":{"key":"08","name":"Baden-Württemberg"}},{"name":"Vesouler Str.","postalCode":"70839","locality":"Gerlingen","municipality":{"key":"08118019","name":"Gerlingen, Stadt","type":"Stadt"},"district":{"key":"08118","name":"Ludwigsburg","type":"Landkreis"},"federalState":{"key":"08","name":"Baden-Württemberg"}},{"name":"Vogelsangstr.","postalCode":"71088","locality":"Holzgerlingen","municipality":{"key":"08115024","name":"Holzgerlingen, Stadt","type":"Stadt"},"district":{"key":"08115","name":"Böblingen","type":"Landkreis"},"federalState":{"key":"08","name":"Baden-Württemberg"}},{"name":"Vogelsangweg","postalCode":"70839","locality":"Gerlingen","municipality":{"key":"08118019","name":"Gerlingen, Stadt","type":"Stadt"},"district":{"key":"08118","name":"Ludwigsburg","type":"Landkreis"},"federalState":{"key":"08","name":"Baden-Württemberg"}},{"name":"Wacholderweg","postalCode":"70839","locality":"Gerlingen","municipality":{"key":"08118019","name":"Gerlingen, Stadt","type":"Stadt"},"district":{"key":"08118","name":"Ludwigsburg","type":"Landkreis"},"federalState":{"key":"08","name":"Baden-Württemberg"}},{"name":"Waldfreibad Holzgerlingen","postalCode":"71088","locality":"Holzgerlingen","municipality":{"key":"08115024","name":"Holzgerlingen, Stadt","type":"Stadt"},"district":{"key":"08115","name":"Böblingen","type":"Landkreis"},"federalState":{"key":"08","name":"Baden-Württemberg"}},{"name":"Weihdorfer Str.","postalCode":"71088","locality":"Holzgerlingen","municipality":{"key":"08115024","name":"Holzgerlingen, Stadt","type":"Stadt"},"district":{"key":"08115","name":"Böblingen","type":"Landkreis"},"federalState":{"key":"08","name":"Baden-Württemberg"}},{"name":"Weilimdorfer Str.","postalCode":"70839","locality":"Gerlingen","municipality":{"key":"08118019","name":"Gerlingen, Stadt","type":"Stadt"},"district":{"key":"08118","name":"Ludwigsburg","type":"Landkreis"},"federalState":{"key":"08","name":"Baden-Württemberg"}},{"name":"Weinweg","postalCode":"71088","locality":"Holzgerlingen","municipality":{"key":"08115024","name":"Holzgerlingen, Stadt","type":"Stadt"},"district":{"key":"08115","name":"Böblingen","type":"Landkreis"},"federalState":{"key":"08","name":"Baden-Württemberg"}},{"name":"Wengertsteige","postalCode":"71088","locality":"Holzgerlingen","municipality":{"key":"08115024","name":"Holzgerlingen, Stadt","type":"Stadt"},"district":{"key":"08115","name":"Böblingen","type":"Landkreis"},"federalState":{"key":"08","name":"Baden-Württemberg"}},{"name":"Werastr.","postalCode":"71088","locality":"Holzgerlingen","municipality":{"key":"08115024","name":"Holzgerlingen, Stadt","type":"Stadt"},"district":{"key":"08115","name":"Böblingen","type":"Landkreis"},"federalState":{"key":"08","name":"Baden-Württemberg"}},{"name":"Wettegraben","postalCode":"70839","locality":"Gerlingen","municipality":{"key":"08118019","name":"Gerlingen, Stadt","type":"Stadt"},"district":{"key":"08118","name":"Ludwigsburg","type":"Landkreis"},"federalState":{"key":"08","name":"Baden-Württemberg"}},{"name":"Wielandstr.","postalCode":"71088","locality":"Holzgerlingen","municipality":{"key":"08115024","name":"Holzgerlingen, Stadt","type":"Stadt"},"district":{"key":"08115","name":"Böblingen","type":"Landkreis"},"federalState":{"key":"08","name":"Baden-Württemberg"}},{"name":"Wiesengässle","postalCode":"70839","locality":"Gerlingen","municipality":{"key":"08118019","name":"Gerlingen, Stadt","type":"Stadt"},"district":{"key":"08118","name":"Ludwigsburg","type":"Landkreis"},"federalState":{"key":"08","name":"Baden-Württemberg"}},{"name":"Wildparkstr.","postalCode":"70839","locality":"Gerlingen","municipality":{"key":"08118019","name":"Gerlingen, Stadt","type":"Stadt"},"district":{"key":"08118","name":"Ludwigsburg","type":"Landkreis"},"federalState":{"key":"08","name":"Baden-Württemberg"}},{"name":"Wilhelm-Gutbrod-Str.","postalCode":"70839","locality":"Gerlingen","municipality":{"key":"08118019","name":"Gerlingen, Stadt","type":"Stadt"},"district":{"key":"08118","name":"Ludwigsburg","type":"Landkreis"},"federalState":{"key":"08","name":"Baden-Württemberg"}},{"name":"Wilhelm-Nagel-Str.","postalCode":"70839","locality":"Gerlingen","municipality":{"key":"08118019","name":"Gerlingen, Stadt","type":"Stadt"},"district":{"key":"08118","name":"Ludwigsburg","type":"Landkreis"},"federalState":{"key":"08","name":"Baden-Württemberg"}},{"name":"Wilhelmstr.","postalCode":"71088","locality":"Holzgerlingen","municipality":{"key":"08115024","name":"Holzgerlingen, Stadt","type":"Stadt"},"district":{"key":"08115","name":"Böblingen","type":"Landkreis"},"federalState":{"key":"08","name":"Baden-Württemberg"}},{"name":"Wolfschlucht","postalCode":"70839","locality":"Gerlingen","municipality":{"key":"08118019","name":"Gerlingen, Stadt","type":"Stadt"},"district":{"key":"08118","name":"Ludwigsburg","type":"Landkreis"},"federalState":{"key":"08","name":"Baden-Württemberg"}},{"name":"Yorckstr.","postalCode":"71636","locality":"Ludwigsburg","municipality":{"key":"08118048","name":"Ludwigsburg, Stadt","type":"Große_Kreisstadt"},"district":{"key":"08118","name":"Ludwigsburg","type":"Landkreis"},"federalState":{"key":"08","name":"Baden-Württemberg"}},{"name":"Zedernweg","postalCode":"70839","locality":"Gerlingen","municipality":{"key":"08118019","name":"Gerlingen, Stadt","type":"Stadt"},"district":{"key":"08118","name":"Ludwigsburg","type":"Landkreis"},"federalState":{"key":"08","name":"Baden-Württemberg"}},{"name":"Zeppelinstr.","postalCode":"71088","locality":"Holzgerlingen","municipality":{"key":"08115024","name":"Holzgerlingen, Stadt","type":"Stadt"},"district":{"key":"08115","name":"Böblingen","type":"Landkreis"},"federalState":{"key":"08","name":"Baden-Württemberg"}},{"name":"Ziegelhofstr.","postalCode":"71088","locality":"Holzgerlingen","municipality":{"key":"08115024","name":"Holzgerlingen, Stadt","type":"Stadt"},"district":{"key":"08115","name":"Böblingen","type":"Landkreis"},"federalState":{"key":"08","name":"Baden-Württemberg"}},{"name":"Zimmerschlagweg","postalCode":"71088","locality":"Holzgerlingen","municipality":{"key":"08115024","name":"Holzgerlingen, Stadt","type":"Stadt"},"district":{"key":"08115","name":"Böblingen","type":"Landkreis"},"federalState":{"key":"08","name":"Baden-Württemberg"}},{"name":"Zur Kirchstaße","postalCode":"70839","locality":"Gerlingen","municipality":{"key":"08118019","name":"Gerlingen, Stadt","type":"Stadt"},"district":{"key":"08118","name":"Ludwigsburg","type":"Landkreis"},"federalState":{"key":"08","name":"Baden-Württemberg"}},{"name":"Zwerchstr.","postalCode":"71088","locality":"Holzgerlingen","municipality":{"key":"08115024","name":"Holzgerlingen, Stadt","type":"Stadt"},"district":{"key":"08115","name":"Böblingen","type":"Landkreis"},"federalState":{"key":"08","name":"Baden-Württemberg"}},{"name":"Äsplensweg","postalCode":"71088","locality":"Holzgerlingen","municipality":{"key":"08115024","name":"Holzgerlingen, Stadt","type":"Stadt"},"district":{"key":"08115","name":"Böblingen","type":"Landkreis"},"federalState":{"key":"08","name":"Baden-Württemberg"}},{"name":"Östlicher Parkweg","postalCode":"71634","locality":"Ludwigsburg","municipality":{"key":"08118048","name":"Ludwigsburg, Stadt","type":"Große_Kreisstadt"},"district":{"key":"08118","name":"Ludwigsburg","type":"Landkreis"},"federalState":{"key":"08","name":"Baden-Württemberg"}},{"name":"Östlicher Parkweg","postalCode":"71642","locality":"Ludwigsburg","municipality":{"key":"08118048","name":"Ludwigsburg, Stadt","type":"Große_Kreisstadt"},"district":{"key":"08118","name":"Ludwigsburg","type":"Landkreis"},"federalState":{"key":"08","name":"Baden-Württemberg"}},{"name":"Überkinger Str.","postalCode":"71642","locality":"Ludwigsburg","municipality":{"key":"08118048","name":"Ludwigsburg, Stadt","type":"Große_Kreisstadt"},"district":{"key":"08118","name":"Ludwigsburg","type":"Landkreis"},"federalState":{"key":"08","name":"Baden-Württemberg"}},]