[{"name":"Adelshofer Str.","postalCode":"75031","locality":"Eppingen","municipality":{"key":"08125026","name":"Eppingen, Stadt","type":"Große_Kreisstadt"},"district":{"key":"08125","name":"Heilbronn","type":"Landkreis"},"federalState":{"key":"08","name":"Baden-Württemberg"}},{"name":"Adolf-Heilig-Str.","postalCode":"75031","locality":"Eppingen","municipality":{"key":"08125026","name":"Eppingen, Stadt","type":"Große_Kreisstadt"},"district":{"key":"08125","name":"Heilbronn","type":"Landkreis"},"federalState":{"key":"08","name":"Baden-Württemberg"}},{"name":"Adolf-Vielhauer-Str.","postalCode":"75031","locality":"Eppingen","municipality":{"key":"08125026","name":"Eppingen, Stadt","type":"Große_Kreisstadt"},"district":{"key":"08125","name":"Heilbronn","type":"Landkreis"},"federalState":{"key":"08","name":"Baden-Württemberg"}},{"name":"Agnesbrunnen","postalCode":"75031","locality":"Eppingen","municipality":{"key":"08125026","name":"Eppingen, Stadt","type":"Große_Kreisstadt"},"district":{"key":"08125","name":"Heilbronn","type":"Landkreis"},"federalState":{"key":"08","name":"Baden-Württemberg"}},{"name":"Ahornweg","postalCode":"75031","locality":"Eppingen","municipality":{"key":"08125026","name":"Eppingen, Stadt","type":"Große_Kreisstadt"},"district":{"key":"08125","name":"Heilbronn","type":"Landkreis"},"federalState":{"key":"08","name":"Baden-Württemberg"}},{"name":"Albert-Schweitzer-Str.","postalCode":"75031","locality":"Eppingen","municipality":{"key":"08125026","name":"Eppingen, Stadt","type":"Große_Kreisstadt"},"district":{"key":"08125","name":"Heilbronn","type":"Landkreis"},"federalState":{"key":"08","name":"Baden-Württemberg"}},{"name":"Allensteiner Str.","postalCode":"75031","locality":"Eppingen","municipality":{"key":"08125026","name":"Eppingen, Stadt","type":"Große_Kreisstadt"},"district":{"key":"08125","name":"Heilbronn","type":"Landkreis"},"federalState":{"key":"08","name":"Baden-Württemberg"}},{"name":"Allensteiner Weg","postalCode":"75031","locality":"Eppingen","municipality":{"key":"08125026","name":"Eppingen, Stadt","type":"Große_Kreisstadt"},"district":{"key":"08125","name":"Heilbronn","type":"Landkreis"},"federalState":{"key":"08","name":"Baden-Württemberg"}},{"name":"Alte Lehmgrube","postalCode":"75031","locality":"Eppingen","municipality":{"key":"08125026","name":"Eppingen, Stadt","type":"Große_Kreisstadt"},"district":{"key":"08125","name":"Heilbronn","type":"Landkreis"},"federalState":{"key":"08","name":"Baden-Württemberg"}},{"name":"Altenburger Weg","postalCode":"75031","locality":"Eppingen","municipality":{"key":"08125026","name":"Eppingen, Stadt","type":"Große_Kreisstadt"},"district":{"key":"08125","name":"Heilbronn","type":"Landkreis"},"federalState":{"key":"08","name":"Baden-Württemberg"}},{"name":"Alter Friedhof Adelshofen","postalCode":"75031","locality":"Eppingen","municipality":{"key":"08125026","name":"Eppingen, Stadt","type":"Große_Kreisstadt"},"district":{"key":"08125","name":"Heilbronn","type":"Landkreis"},"federalState":{"key":"08","name":"Baden-Württemberg"}},{"name":"Alter Mühlbacher Weg","postalCode":"75031","locality":"Eppingen","municipality":{"key":"08125026","name":"Eppingen, Stadt","type":"Große_Kreisstadt"},"district":{"key":"08125","name":"Heilbronn","type":"Landkreis"},"federalState":{"key":"08","name":"Baden-Württemberg"}},{"name":"Alter Richener Weg","postalCode":"75031","locality":"Eppingen","municipality":{"key":"08125026","name":"Eppingen, Stadt","type":"Große_Kreisstadt"},"district":{"key":"08125","name":"Heilbronn","type":"Landkreis"},"federalState":{"key":"08","name":"Baden-Württemberg"}},{"name":"Altgartacherweg","postalCode":"75031","locality":"Eppingen","municipality":{"key":"08125026","name":"Eppingen, Stadt","type":"Große_Kreisstadt"},"district":{"key":"08125","name":"Heilbronn","type":"Landkreis"},"federalState":{"key":"08","name":"Baden-Württemberg"}},{"name":"Altstadtring","postalCode":"75031","locality":"Eppingen","municipality":{"key":"08125026","name":"Eppingen, Stadt","type":"Große_Kreisstadt"},"district":{"key":"08125","name":"Heilbronn","type":"Landkreis"},"federalState":{"key":"08","name":"Baden-Württemberg"}},{"name":"Altstadtstr.","postalCode":"75031","locality":"Eppingen","municipality":{"key":"08125026","name":"Eppingen, Stadt","type":"Große_Kreisstadt"},"district":{"key":"08125","name":"Heilbronn","type":"Landkreis"},"federalState":{"key":"08","name":"Baden-Württemberg"}},{"name":"Am Albertsberg","postalCode":"75031","locality":"Eppingen","municipality":{"key":"08125026","name":"Eppingen, Stadt","type":"Große_Kreisstadt"},"district":{"key":"08125","name":"Heilbronn","type":"Landkreis"},"federalState":{"key":"08","name":"Baden-Württemberg"}},{"name":"Am Fischersrain","postalCode":"75031","locality":"Eppingen","municipality":{"key":"08125026","name":"Eppingen, Stadt","type":"Große_Kreisstadt"},"district":{"key":"08125","name":"Heilbronn","type":"Landkreis"},"federalState":{"key":"08","name":"Baden-Württemberg"}},{"name":"Am Karlsplatz","postalCode":"75031","locality":"Eppingen","municipality":{"key":"08125026","name":"Eppingen, Stadt","type":"Große_Kreisstadt"},"district":{"key":"08125","name":"Heilbronn","type":"Landkreis"},"federalState":{"key":"08","name":"Baden-Württemberg"}},{"name":"Am Schanzgraben","postalCode":"75031","locality":"Eppingen","municipality":{"key":"08125026","name":"Eppingen, Stadt","type":"Große_Kreisstadt"},"district":{"key":"08125","name":"Heilbronn","type":"Landkreis"},"federalState":{"key":"08","name":"Baden-Württemberg"}},{"name":"Amselweg","postalCode":"75031","locality":"Eppingen","municipality":{"key":"08125026","name":"Eppingen, Stadt","type":"Große_Kreisstadt"},"district":{"key":"08125","name":"Heilbronn","type":"Landkreis"},"federalState":{"key":"08","name":"Baden-Württemberg"}},{"name":"Am Sportplatz","postalCode":"75031","locality":"Eppingen","municipality":{"key":"08125026","name":"Eppingen, Stadt","type":"Große_Kreisstadt"},"district":{"key":"08125","name":"Heilbronn","type":"Landkreis"},"federalState":{"key":"08","name":"Baden-Württemberg"}},{"name":"Am Weinberg","postalCode":"75031","locality":"Eppingen","municipality":{"key":"08125026","name":"Eppingen, Stadt","type":"Große_Kreisstadt"},"district":{"key":"08125","name":"Heilbronn","type":"Landkreis"},"federalState":{"key":"08","name":"Baden-Württemberg"}},{"name":"Am Zimmerplatz","postalCode":"75031","locality":"Eppingen","municipality":{"key":"08125026","name":"Eppingen, Stadt","type":"Große_Kreisstadt"},"district":{"key":"08125","name":"Heilbronn","type":"Landkreis"},"federalState":{"key":"08","name":"Baden-Württemberg"}},{"name":"An den Hofgärten","postalCode":"75031","locality":"Eppingen","municipality":{"key":"08125026","name":"Eppingen, Stadt","type":"Große_Kreisstadt"},"district":{"key":"08125","name":"Heilbronn","type":"Landkreis"},"federalState":{"key":"08","name":"Baden-Württemberg"}},{"name":"An der Schanz","postalCode":"75031","locality":"Eppingen","municipality":{"key":"08125026","name":"Eppingen, Stadt","type":"Große_Kreisstadt"},"district":{"key":"08125","name":"Heilbronn","type":"Landkreis"},"federalState":{"key":"08","name":"Baden-Württemberg"}},{"name":"Anton-Bruckner-Str.","postalCode":"75031","locality":"Eppingen","municipality":{"key":"08125026","name":"Eppingen, Stadt","type":"Große_Kreisstadt"},"district":{"key":"08125","name":"Heilbronn","type":"Landkreis"},"federalState":{"key":"08","name":"Baden-Württemberg"}},{"name":"Anton-Eisenhut-Str.","postalCode":"75031","locality":"Eppingen","municipality":{"key":"08125026","name":"Eppingen, Stadt","type":"Große_Kreisstadt"},"district":{"key":"08125","name":"Heilbronn","type":"Landkreis"},"federalState":{"key":"08","name":"Baden-Württemberg"}},{"name":"Anton-Fränznick-Str.","postalCode":"75031","locality":"Eppingen","municipality":{"key":"08125026","name":"Eppingen, Stadt","type":"Große_Kreisstadt"},"district":{"key":"08125","name":"Heilbronn","type":"Landkreis"},"federalState":{"key":"08","name":"Baden-Württemberg"}},{"name":"Asternstr.","postalCode":"75031","locality":"Eppingen","municipality":{"key":"08125026","name":"Eppingen, Stadt","type":"Große_Kreisstadt"},"district":{"key":"08125","name":"Heilbronn","type":"Landkreis"},"federalState":{"key":"08","name":"Baden-Württemberg"}},{"name":"Auf der Au","postalCode":"75031","locality":"Eppingen","municipality":{"key":"08125026","name":"Eppingen, Stadt","type":"Große_Kreisstadt"},"district":{"key":"08125","name":"Heilbronn","type":"Landkreis"},"federalState":{"key":"08","name":"Baden-Württemberg"}},{"name":"Aussiedlerhof","postalCode":"75031","locality":"Eppingen","municipality":{"key":"08125026","name":"Eppingen, Stadt","type":"Große_Kreisstadt"},"district":{"key":"08125","name":"Heilbronn","type":"Landkreis"},"federalState":{"key":"08","name":"Baden-Württemberg"}},{"name":"Bachstr.","postalCode":"75031","locality":"Eppingen","municipality":{"key":"08125026","name":"Eppingen, Stadt","type":"Große_Kreisstadt"},"district":{"key":"08125","name":"Heilbronn","type":"Landkreis"},"federalState":{"key":"08","name":"Baden-Württemberg"}},{"name":"Bäderstr.","postalCode":"75031","locality":"Eppingen","municipality":{"key":"08125026","name":"Eppingen, Stadt","type":"Große_Kreisstadt"},"district":{"key":"08125","name":"Heilbronn","type":"Landkreis"},"federalState":{"key":"08","name":"Baden-Württemberg"}},{"name":"Badgasse","postalCode":"75031","locality":"Eppingen","municipality":{"key":"08125026","name":"Eppingen, Stadt","type":"Große_Kreisstadt"},"district":{"key":"08125","name":"Heilbronn","type":"Landkreis"},"federalState":{"key":"08","name":"Baden-Württemberg"}},{"name":"Bahnhofstr.","postalCode":"75031","locality":"Eppingen","municipality":{"key":"08125026","name":"Eppingen, Stadt","type":"Große_Kreisstadt"},"district":{"key":"08125","name":"Heilbronn","type":"Landkreis"},"federalState":{"key":"08","name":"Baden-Württemberg"}},{"name":"Balzstr.","postalCode":"75031","locality":"Eppingen","municipality":{"key":"08125026","name":"Eppingen, Stadt","type":"Große_Kreisstadt"},"district":{"key":"08125","name":"Heilbronn","type":"Landkreis"},"federalState":{"key":"08","name":"Baden-Württemberg"}},{"name":"Bannholzstr.","postalCode":"75031","locality":"Eppingen","municipality":{"key":"08125026","name":"Eppingen, Stadt","type":"Große_Kreisstadt"},"district":{"key":"08125","name":"Heilbronn","type":"Landkreis"},"federalState":{"key":"08","name":"Baden-Württemberg"}},{"name":"Baumackerweg","postalCode":"75031","locality":"Eppingen","municipality":{"key":"08125026","name":"Eppingen, Stadt","type":"Große_Kreisstadt"},"district":{"key":"08125","name":"Heilbronn","type":"Landkreis"},"federalState":{"key":"08","name":"Baden-Württemberg"}},{"name":"Bauwaldstr.","postalCode":"75031","locality":"Eppingen","municipality":{"key":"08125026","name":"Eppingen, Stadt","type":"Große_Kreisstadt"},"district":{"key":"08125","name":"Heilbronn","type":"Landkreis"},"federalState":{"key":"08","name":"Baden-Württemberg"}},{"name":"Beethovenstr.","postalCode":"75031","locality":"Eppingen","municipality":{"key":"08125026","name":"Eppingen, Stadt","type":"Große_Kreisstadt"},"district":{"key":"08125","name":"Heilbronn","type":"Landkreis"},"federalState":{"key":"08","name":"Baden-Württemberg"}},{"name":"Bergring","postalCode":"75031","locality":"Eppingen","municipality":{"key":"08125026","name":"Eppingen, Stadt","type":"Große_Kreisstadt"},"district":{"key":"08125","name":"Heilbronn","type":"Landkreis"},"federalState":{"key":"08","name":"Baden-Württemberg"}},{"name":"Bergstr.","postalCode":"75031","locality":"Eppingen","municipality":{"key":"08125026","name":"Eppingen, Stadt","type":"Große_Kreisstadt"},"district":{"key":"08125","name":"Heilbronn","type":"Landkreis"},"federalState":{"key":"08","name":"Baden-Württemberg"}},{"name":"Berliner Ring","postalCode":"75031","locality":"Eppingen","municipality":{"key":"08125026","name":"Eppingen, Stadt","type":"Große_Kreisstadt"},"district":{"key":"08125","name":"Heilbronn","type":"Landkreis"},"federalState":{"key":"08","name":"Baden-Württemberg"}},{"name":"Berwanger Str.","postalCode":"75031","locality":"Eppingen","municipality":{"key":"08125026","name":"Eppingen, Stadt","type":"Große_Kreisstadt"},"district":{"key":"08125","name":"Heilbronn","type":"Landkreis"},"federalState":{"key":"08","name":"Baden-Württemberg"}},{"name":"Bienhäldestr.","postalCode":"75031","locality":"Eppingen","municipality":{"key":"08125026","name":"Eppingen, Stadt","type":"Große_Kreisstadt"},"district":{"key":"08125","name":"Heilbronn","type":"Landkreis"},"federalState":{"key":"08","name":"Baden-Württemberg"}},{"name":"Bildstockstr.","postalCode":"75031","locality":"Eppingen","municipality":{"key":"08125026","name":"Eppingen, Stadt","type":"Große_Kreisstadt"},"district":{"key":"08125","name":"Heilbronn","type":"Landkreis"},"federalState":{"key":"08","name":"Baden-Württemberg"}},{"name":"Binsbachweg","postalCode":"75031","locality":"Eppingen","municipality":{"key":"08125026","name":"Eppingen, Stadt","type":"Große_Kreisstadt"},"district":{"key":"08125","name":"Heilbronn","type":"Landkreis"},"federalState":{"key":"08","name":"Baden-Württemberg"}},{"name":"Birkenseeweg","postalCode":"75031","locality":"Eppingen","municipality":{"key":"08125026","name":"Eppingen, Stadt","type":"Große_Kreisstadt"},"district":{"key":"08125","name":"Heilbronn","type":"Landkreis"},"federalState":{"key":"08","name":"Baden-Württemberg"}},{"name":"Birkenweg","postalCode":"75031","locality":"Eppingen","municipality":{"key":"08125026","name":"Eppingen, Stadt","type":"Große_Kreisstadt"},"district":{"key":"08125","name":"Heilbronn","type":"Landkreis"},"federalState":{"key":"08","name":"Baden-Württemberg"}},{"name":"Bismarckstr.","postalCode":"75031","locality":"Eppingen","municipality":{"key":"08125026","name":"Eppingen, Stadt","type":"Große_Kreisstadt"},"district":{"key":"08125","name":"Heilbronn","type":"Landkreis"},"federalState":{"key":"08","name":"Baden-Württemberg"}},{"name":"Bleichwiesenweg","postalCode":"75031","locality":"Eppingen","municipality":{"key":"08125026","name":"Eppingen, Stadt","type":"Große_Kreisstadt"},"district":{"key":"08125","name":"Heilbronn","type":"Landkreis"},"federalState":{"key":"08","name":"Baden-Württemberg"}},{"name":"Blumenstr.","postalCode":"75031","locality":"Eppingen","municipality":{"key":"08125026","name":"Eppingen, Stadt","type":"Große_Kreisstadt"},"district":{"key":"08125","name":"Heilbronn","type":"Landkreis"},"federalState":{"key":"08","name":"Baden-Württemberg"}},{"name":"Bodelschwinghstr.","postalCode":"75031","locality":"Eppingen","municipality":{"key":"08125026","name":"Eppingen, Stadt","type":"Große_Kreisstadt"},"district":{"key":"08125","name":"Heilbronn","type":"Landkreis"},"federalState":{"key":"08","name":"Baden-Württemberg"}},{"name":"Brahmsweg","postalCode":"75031","locality":"Eppingen","municipality":{"key":"08125026","name":"Eppingen, Stadt","type":"Große_Kreisstadt"},"district":{"key":"08125","name":"Heilbronn","type":"Landkreis"},"federalState":{"key":"08","name":"Baden-Württemberg"}},{"name":"Brandenburger Str.","postalCode":"75031","locality":"Eppingen","municipality":{"key":"08125026","name":"Eppingen, Stadt","type":"Große_Kreisstadt"},"district":{"key":"08125","name":"Heilbronn","type":"Landkreis"},"federalState":{"key":"08","name":"Baden-Württemberg"}},{"name":"Brandströmstr.","postalCode":"75031","locality":"Eppingen","municipality":{"key":"08125026","name":"Eppingen, Stadt","type":"Große_Kreisstadt"},"district":{"key":"08125","name":"Heilbronn","type":"Landkreis"},"federalState":{"key":"08","name":"Baden-Württemberg"}},{"name":"Bräunlingstr.","postalCode":"75031","locality":"Eppingen","municipality":{"key":"08125026","name":"Eppingen, Stadt","type":"Große_Kreisstadt"},"district":{"key":"08125","name":"Heilbronn","type":"Landkreis"},"federalState":{"key":"08","name":"Baden-Württemberg"}},{"name":"Breslauer Str.","postalCode":"75031","locality":"Eppingen","municipality":{"key":"08125026","name":"Eppingen, Stadt","type":"Große_Kreisstadt"},"district":{"key":"08125","name":"Heilbronn","type":"Landkreis"},"federalState":{"key":"08","name":"Baden-Württemberg"}},{"name":"Brettachstr.","postalCode":"75031","locality":"Eppingen","municipality":{"key":"08125026","name":"Eppingen, Stadt","type":"Große_Kreisstadt"},"district":{"key":"08125","name":"Heilbronn","type":"Landkreis"},"federalState":{"key":"08","name":"Baden-Württemberg"}},{"name":"Brettener Str.","postalCode":"75031","locality":"Eppingen","municipality":{"key":"08125026","name":"Eppingen, Stadt","type":"Große_Kreisstadt"},"district":{"key":"08125","name":"Heilbronn","type":"Landkreis"},"federalState":{"key":"08","name":"Baden-Württemberg"}},{"name":"Bruchsaler Str.","postalCode":"75031","locality":"Eppingen","municipality":{"key":"08125026","name":"Eppingen, Stadt","type":"Große_Kreisstadt"},"district":{"key":"08125","name":"Heilbronn","type":"Landkreis"},"federalState":{"key":"08","name":"Baden-Württemberg"}},{"name":"Brunnenweg","postalCode":"75031","locality":"Eppingen","municipality":{"key":"08125026","name":"Eppingen, Stadt","type":"Große_Kreisstadt"},"district":{"key":"08125","name":"Heilbronn","type":"Landkreis"},"federalState":{"key":"08","name":"Baden-Württemberg"}},{"name":"Brünner Str.","postalCode":"75031","locality":"Eppingen","municipality":{"key":"08125026","name":"Eppingen, Stadt","type":"Große_Kreisstadt"},"district":{"key":"08125","name":"Heilbronn","type":"Landkreis"},"federalState":{"key":"08","name":"Baden-Württemberg"}},{"name":"Büchenstr.","postalCode":"75031","locality":"Eppingen","municipality":{"key":"08125026","name":"Eppingen, Stadt","type":"Große_Kreisstadt"},"district":{"key":"08125","name":"Heilbronn","type":"Landkreis"},"federalState":{"key":"08","name":"Baden-Württemberg"}},{"name":"Büchenweg","postalCode":"75031","locality":"Eppingen","municipality":{"key":"08125026","name":"Eppingen, Stadt","type":"Große_Kreisstadt"},"district":{"key":"08125","name":"Heilbronn","type":"Landkreis"},"federalState":{"key":"08","name":"Baden-Württemberg"}},{"name":"Burchrainweg","postalCode":"75031","locality":"Eppingen","municipality":{"key":"08125026","name":"Eppingen, Stadt","type":"Große_Kreisstadt"},"district":{"key":"08125","name":"Heilbronn","type":"Landkreis"},"federalState":{"key":"08","name":"Baden-Württemberg"}},{"name":"Burgberg","postalCode":"75031","locality":"Eppingen","municipality":{"key":"08125026","name":"Eppingen, Stadt","type":"Große_Kreisstadt"},"district":{"key":"08125","name":"Heilbronn","type":"Landkreis"},"federalState":{"key":"08","name":"Baden-Württemberg"}},{"name":"Burgstr.","postalCode":"75031","locality":"Eppingen","municipality":{"key":"08125026","name":"Eppingen, Stadt","type":"Große_Kreisstadt"},"district":{"key":"08125","name":"Heilbronn","type":"Landkreis"},"federalState":{"key":"08","name":"Baden-Württemberg"}},{"name":"Burgunderweg","postalCode":"75031","locality":"Eppingen","municipality":{"key":"08125026","name":"Eppingen, Stadt","type":"Große_Kreisstadt"},"district":{"key":"08125","name":"Heilbronn","type":"Landkreis"},"federalState":{"key":"08","name":"Baden-Württemberg"}},{"name":"Carl-Orff-Str.","postalCode":"75031","locality":"Eppingen","municipality":{"key":"08125026","name":"Eppingen, Stadt","type":"Große_Kreisstadt"},"district":{"key":"08125","name":"Heilbronn","type":"Landkreis"},"federalState":{"key":"08","name":"Baden-Württemberg"}},{"name":"Chemnitzer Str.","postalCode":"75031","locality":"Eppingen","municipality":{"key":"08125026","name":"Eppingen, Stadt","type":"Große_Kreisstadt"},"district":{"key":"08125","name":"Heilbronn","type":"Landkreis"},"federalState":{"key":"08","name":"Baden-Württemberg"}},{"name":"Clara-Schumann-Str.","postalCode":"75031","locality":"Eppingen","municipality":{"key":"08125026","name":"Eppingen, Stadt","type":"Große_Kreisstadt"},"district":{"key":"08125","name":"Heilbronn","type":"Landkreis"},"federalState":{"key":"08","name":"Baden-Württemberg"}},{"name":"Dahlienweg","postalCode":"75031","locality":"Eppingen","municipality":{"key":"08125026","name":"Eppingen, Stadt","type":"Große_Kreisstadt"},"district":{"key":"08125","name":"Heilbronn","type":"Landkreis"},"federalState":{"key":"08","name":"Baden-Württemberg"}},{"name":"Dammweg","postalCode":"75031","locality":"Eppingen","municipality":{"key":"08125026","name":"Eppingen, Stadt","type":"Große_Kreisstadt"},"district":{"key":"08125","name":"Heilbronn","type":"Landkreis"},"federalState":{"key":"08","name":"Baden-Württemberg"}},{"name":"Danziger Str.","postalCode":"75031","locality":"Eppingen","municipality":{"key":"08125026","name":"Eppingen, Stadt","type":"Große_Kreisstadt"},"district":{"key":"08125","name":"Heilbronn","type":"Landkreis"},"federalState":{"key":"08","name":"Baden-Württemberg"}},{"name":"Denkmalstr.","postalCode":"75031","locality":"Eppingen","municipality":{"key":"08125026","name":"Eppingen, Stadt","type":"Große_Kreisstadt"},"district":{"key":"08125","name":"Heilbronn","type":"Landkreis"},"federalState":{"key":"08","name":"Baden-Württemberg"}},{"name":"Diakonatsgasse","postalCode":"75031","locality":"Eppingen","municipality":{"key":"08125026","name":"Eppingen, Stadt","type":"Große_Kreisstadt"},"district":{"key":"08125","name":"Heilbronn","type":"Landkreis"},"federalState":{"key":"08","name":"Baden-Württemberg"}},{"name":"Doktor-Emil-Beysel-Str.","postalCode":"75031","locality":"Eppingen","municipality":{"key":"08125026","name":"Eppingen, Stadt","type":"Große_Kreisstadt"},"district":{"key":"08125","name":"Heilbronn","type":"Landkreis"},"federalState":{"key":"08","name":"Baden-Württemberg"}},{"name":"Dorfblick","postalCode":"75031","locality":"Eppingen","municipality":{"key":"08125026","name":"Eppingen, Stadt","type":"Große_Kreisstadt"},"district":{"key":"08125","name":"Heilbronn","type":"Landkreis"},"federalState":{"key":"08","name":"Baden-Württemberg"}},{"name":"Dorfplatz Adelshofen","postalCode":"75031","locality":"Eppingen","municipality":{"key":"08125026","name":"Eppingen, Stadt","type":"Große_Kreisstadt"},"district":{"key":"08125","name":"Heilbronn","type":"Landkreis"},"federalState":{"key":"08","name":"Baden-Württemberg"}},{"name":"Dorfwiesen","postalCode":"75031","locality":"Eppingen","municipality":{"key":"08125026","name":"Eppingen, Stadt","type":"Große_Kreisstadt"},"district":{"key":"08125","name":"Heilbronn","type":"Landkreis"},"federalState":{"key":"08","name":"Baden-Württemberg"}},{"name":"Dornfelderweg","postalCode":"75031","locality":"Eppingen","municipality":{"key":"08125026","name":"Eppingen, Stadt","type":"Große_Kreisstadt"},"district":{"key":"08125","name":"Heilbronn","type":"Landkreis"},"federalState":{"key":"08","name":"Baden-Württemberg"}},{"name":"Dörnle","postalCode":"75031","locality":"Eppingen","municipality":{"key":"08125026","name":"Eppingen, Stadt","type":"Große_Kreisstadt"},"district":{"key":"08125","name":"Heilbronn","type":"Landkreis"},"federalState":{"key":"08","name":"Baden-Württemberg"}},{"name":"Dr.-Emil-Beysel-Str.","postalCode":"75031","locality":"Eppingen","municipality":{"key":"08125026","name":"Eppingen, Stadt","type":"Große_Kreisstadt"},"district":{"key":"08125","name":"Heilbronn","type":"Landkreis"},"federalState":{"key":"08","name":"Baden-Württemberg"}},{"name":"Dresdener Str.","postalCode":"75031","locality":"Eppingen","municipality":{"key":"08125026","name":"Eppingen, Stadt","type":"Große_Kreisstadt"},"district":{"key":"08125","name":"Heilbronn","type":"Landkreis"},"federalState":{"key":"08","name":"Baden-Württemberg"}},{"name":"Dr.-Georg-Fischer-Str.","postalCode":"75031","locality":"Eppingen","municipality":{"key":"08125026","name":"Eppingen, Stadt","type":"Große_Kreisstadt"},"district":{"key":"08125","name":"Heilbronn","type":"Landkreis"},"federalState":{"key":"08","name":"Baden-Württemberg"}},{"name":"Dr.-Leinz-Str.","postalCode":"75031","locality":"Eppingen","municipality":{"key":"08125026","name":"Eppingen, Stadt","type":"Große_Kreisstadt"},"district":{"key":"08125","name":"Heilbronn","type":"Landkreis"},"federalState":{"key":"08","name":"Baden-Württemberg"}},{"name":"Drosselweg","postalCode":"75031","locality":"Eppingen","municipality":{"key":"08125026","name":"Eppingen, Stadt","type":"Große_Kreisstadt"},"district":{"key":"08125","name":"Heilbronn","type":"Landkreis"},"federalState":{"key":"08","name":"Baden-Württemberg"}},{"name":"Dunantstr.","postalCode":"75031","locality":"Eppingen","municipality":{"key":"08125026","name":"Eppingen, Stadt","type":"Große_Kreisstadt"},"district":{"key":"08125","name":"Heilbronn","type":"Landkreis"},"federalState":{"key":"08","name":"Baden-Württemberg"}},{"name":"Dunantweg","postalCode":"75031","locality":"Eppingen","municipality":{"key":"08125026","name":"Eppingen, Stadt","type":"Große_Kreisstadt"},"district":{"key":"08125","name":"Heilbronn","type":"Landkreis"},"federalState":{"key":"08","name":"Baden-Württemberg"}},{"name":"Dürerstr.","postalCode":"75031","locality":"Eppingen","municipality":{"key":"08125026","name":"Eppingen, Stadt","type":"Große_Kreisstadt"},"district":{"key":"08125","name":"Heilbronn","type":"Landkreis"},"federalState":{"key":"08","name":"Baden-Württemberg"}},{"name":"Durichteichweg","postalCode":"75031","locality":"Eppingen","municipality":{"key":"08125026","name":"Eppingen, Stadt","type":"Große_Kreisstadt"},"district":{"key":"08125","name":"Heilbronn","type":"Landkreis"},"federalState":{"key":"08","name":"Baden-Württemberg"}},{"name":"Eichbühlhof","postalCode":"75031","locality":"Eppingen","municipality":{"key":"08125026","name":"Eppingen, Stadt","type":"Große_Kreisstadt"},"district":{"key":"08125","name":"Heilbronn","type":"Landkreis"},"federalState":{"key":"08","name":"Baden-Württemberg"}},{"name":"Eichelberger Weg","postalCode":"75031","locality":"Eppingen","municipality":{"key":"08125026","name":"Eppingen, Stadt","type":"Große_Kreisstadt"},"district":{"key":"08125","name":"Heilbronn","type":"Landkreis"},"federalState":{"key":"08","name":"Baden-Württemberg"}},{"name":"Eichendorffstr.","postalCode":"75031","locality":"Eppingen","municipality":{"key":"08125026","name":"Eppingen, Stadt","type":"Große_Kreisstadt"},"district":{"key":"08125","name":"Heilbronn","type":"Landkreis"},"federalState":{"key":"08","name":"Baden-Württemberg"}},{"name":"Eichenrain","postalCode":"75031","locality":"Eppingen","municipality":{"key":"08125026","name":"Eppingen, Stadt","type":"Große_Kreisstadt"},"district":{"key":"08125","name":"Heilbronn","type":"Landkreis"},"federalState":{"key":"08","name":"Baden-Württemberg"}},{"name":"Eichenweg","postalCode":"75031","locality":"Eppingen","municipality":{"key":"08125026","name":"Eppingen, Stadt","type":"Große_Kreisstadt"},"district":{"key":"08125","name":"Heilbronn","type":"Landkreis"},"federalState":{"key":"08","name":"Baden-Württemberg"}},{"name":"Eichgasse","postalCode":"75031","locality":"Eppingen","municipality":{"key":"08125026","name":"Eppingen, Stadt","type":"Große_Kreisstadt"},"district":{"key":"08125","name":"Heilbronn","type":"Landkreis"},"federalState":{"key":"08","name":"Baden-Württemberg"}},{"name":"Einsiedelteichweg","postalCode":"75031","locality":"Eppingen","municipality":{"key":"08125026","name":"Eppingen, Stadt","type":"Große_Kreisstadt"},"district":{"key":"08125","name":"Heilbronn","type":"Landkreis"},"federalState":{"key":"08","name":"Baden-Württemberg"}},{"name":"Eisenbahnstr.","postalCode":"75031","locality":"Eppingen","municipality":{"key":"08125026","name":"Eppingen, Stadt","type":"Große_Kreisstadt"},"district":{"key":"08125","name":"Heilbronn","type":"Landkreis"},"federalState":{"key":"08","name":"Baden-Württemberg"}},{"name":"Elsenzstr.","postalCode":"75031","locality":"Eppingen","municipality":{"key":"08125026","name":"Eppingen, Stadt","type":"Große_Kreisstadt"},"district":{"key":"08125","name":"Heilbronn","type":"Landkreis"},"federalState":{"key":"08","name":"Baden-Württemberg"}},{"name":"Emil-Thoma-Str.","postalCode":"75031","locality":"Eppingen","municipality":{"key":"08125026","name":"Eppingen, Stadt","type":"Große_Kreisstadt"},"district":{"key":"08125","name":"Heilbronn","type":"Landkreis"},"federalState":{"key":"08","name":"Baden-Württemberg"}},{"name":"Endgasse","postalCode":"75031","locality":"Eppingen","municipality":{"key":"08125026","name":"Eppingen, Stadt","type":"Große_Kreisstadt"},"district":{"key":"08125","name":"Heilbronn","type":"Landkreis"},"federalState":{"key":"08","name":"Baden-Württemberg"}},{"name":"Entengasse","postalCode":"75031","locality":"Eppingen","municipality":{"key":"08125026","name":"Eppingen, Stadt","type":"Große_Kreisstadt"},"district":{"key":"08125","name":"Heilbronn","type":"Landkreis"},"federalState":{"key":"08","name":"Baden-Württemberg"}},{"name":"Eppinger Str.","postalCode":"75031","locality":"Eppingen","municipality":{"key":"08125026","name":"Eppingen, Stadt","type":"Große_Kreisstadt"},"district":{"key":"08125","name":"Heilbronn","type":"Landkreis"},"federalState":{"key":"08","name":"Baden-Württemberg"}},{"name":"Eppinger Waldfühlpfad","postalCode":"75031","locality":"Eppingen","municipality":{"key":"08125026","name":"Eppingen, Stadt","type":"Große_Kreisstadt"},"district":{"key":"08125","name":"Heilbronn","type":"Landkreis"},"federalState":{"key":"08","name":"Baden-Württemberg"}},{"name":"Eppinger Waldfühlpfad / Teufelsgrundweg","postalCode":"75031","locality":"Eppingen","municipality":{"key":"08125026","name":"Eppingen, Stadt","type":"Große_Kreisstadt"},"district":{"key":"08125","name":"Heilbronn","type":"Landkreis"},"federalState":{"key":"08","name":"Baden-Württemberg"}},{"name":"Erlebnisgarten","postalCode":"75031","locality":"Eppingen","municipality":{"key":"08125026","name":"Eppingen, Stadt","type":"Große_Kreisstadt"},"district":{"key":"08125","name":"Heilbronn","type":"Landkreis"},"federalState":{"key":"08","name":"Baden-Württemberg"}},{"name":"Erlen","postalCode":"75031","locality":"Eppingen","municipality":{"key":"08125026","name":"Eppingen, Stadt","type":"Große_Kreisstadt"},"district":{"key":"08125","name":"Heilbronn","type":"Landkreis"},"federalState":{"key":"08","name":"Baden-Württemberg"}},{"name":"Eschenweg","postalCode":"75031","locality":"Eppingen","municipality":{"key":"08125026","name":"Eppingen, Stadt","type":"Große_Kreisstadt"},"district":{"key":"08125","name":"Heilbronn","type":"Landkreis"},"federalState":{"key":"08","name":"Baden-Württemberg"}},{"name":"Essigbergweg","postalCode":"75031","locality":"Eppingen","municipality":{"key":"08125026","name":"Eppingen, Stadt","type":"Große_Kreisstadt"},"district":{"key":"08125","name":"Heilbronn","type":"Landkreis"},"federalState":{"key":"08","name":"Baden-Württemberg"}},{"name":"Färbergasse","postalCode":"75031","locality":"Eppingen","municipality":{"key":"08125026","name":"Eppingen, Stadt","type":"Große_Kreisstadt"},"district":{"key":"08125","name":"Heilbronn","type":"Landkreis"},"federalState":{"key":"08","name":"Baden-Württemberg"}},{"name":"Fasanenweg","postalCode":"75031","locality":"Eppingen","municipality":{"key":"08125026","name":"Eppingen, Stadt","type":"Große_Kreisstadt"},"district":{"key":"08125","name":"Heilbronn","type":"Landkreis"},"federalState":{"key":"08","name":"Baden-Württemberg"}},{"name":"Feuerbachstr.","postalCode":"75031","locality":"Eppingen","municipality":{"key":"08125026","name":"Eppingen, Stadt","type":"Große_Kreisstadt"},"district":{"key":"08125","name":"Heilbronn","type":"Landkreis"},"federalState":{"key":"08","name":"Baden-Württemberg"}},{"name":"Finkenweg","postalCode":"75031","locality":"Eppingen","municipality":{"key":"08125026","name":"Eppingen, Stadt","type":"Große_Kreisstadt"},"district":{"key":"08125","name":"Heilbronn","type":"Landkreis"},"federalState":{"key":"08","name":"Baden-Württemberg"}},{"name":"Fischweiherstr.","postalCode":"75031","locality":"Eppingen","municipality":{"key":"08125026","name":"Eppingen, Stadt","type":"Große_Kreisstadt"},"district":{"key":"08125","name":"Heilbronn","type":"Landkreis"},"federalState":{"key":"08","name":"Baden-Württemberg"}},{"name":"Fleischgasse","postalCode":"75031","locality":"Eppingen","municipality":{"key":"08125026","name":"Eppingen, Stadt","type":"Große_Kreisstadt"},"district":{"key":"08125","name":"Heilbronn","type":"Landkreis"},"federalState":{"key":"08","name":"Baden-Württemberg"}},{"name":"Fliederweg","postalCode":"75031","locality":"Eppingen","municipality":{"key":"08125026","name":"Eppingen, Stadt","type":"Große_Kreisstadt"},"district":{"key":"08125","name":"Heilbronn","type":"Landkreis"},"federalState":{"key":"08","name":"Baden-Württemberg"}},{"name":"Forststr.","postalCode":"75031","locality":"Eppingen","municipality":{"key":"08125026","name":"Eppingen, Stadt","type":"Große_Kreisstadt"},"district":{"key":"08125","name":"Heilbronn","type":"Landkreis"},"federalState":{"key":"08","name":"Baden-Württemberg"}},{"name":"Frankenstr.","postalCode":"75031","locality":"Eppingen","municipality":{"key":"08125026","name":"Eppingen, Stadt","type":"Große_Kreisstadt"},"district":{"key":"08125","name":"Heilbronn","type":"Landkreis"},"federalState":{"key":"08","name":"Baden-Württemberg"}},{"name":"Frankfurter Weg","postalCode":"75031","locality":"Eppingen","municipality":{"key":"08125026","name":"Eppingen, Stadt","type":"Große_Kreisstadt"},"district":{"key":"08125","name":"Heilbronn","type":"Landkreis"},"federalState":{"key":"08","name":"Baden-Württemberg"}},{"name":"Frauenbrunnerstr.","postalCode":"75031","locality":"Eppingen","municipality":{"key":"08125026","name":"Eppingen, Stadt","type":"Große_Kreisstadt"},"district":{"key":"08125","name":"Heilbronn","type":"Landkreis"},"federalState":{"key":"08","name":"Baden-Württemberg"}},{"name":"Freudenhälde","postalCode":"75031","locality":"Eppingen","municipality":{"key":"08125026","name":"Eppingen, Stadt","type":"Große_Kreisstadt"},"district":{"key":"08125","name":"Heilbronn","type":"Landkreis"},"federalState":{"key":"08","name":"Baden-Württemberg"}},{"name":"Friedensstr.","postalCode":"75031","locality":"Eppingen","municipality":{"key":"08125026","name":"Eppingen, Stadt","type":"Große_Kreisstadt"},"district":{"key":"08125","name":"Heilbronn","type":"Landkreis"},"federalState":{"key":"08","name":"Baden-Württemberg"}},{"name":"Friedhofsweg","postalCode":"75031","locality":"Eppingen","municipality":{"key":"08125026","name":"Eppingen, Stadt","type":"Große_Kreisstadt"},"district":{"key":"08125","name":"Heilbronn","type":"Landkreis"},"federalState":{"key":"08","name":"Baden-Württemberg"}},{"name":"Friedrich-Pfeil-Str.","postalCode":"75031","locality":"Eppingen","municipality":{"key":"08125026","name":"Eppingen, Stadt","type":"Große_Kreisstadt"},"district":{"key":"08125","name":"Heilbronn","type":"Landkreis"},"federalState":{"key":"08","name":"Baden-Württemberg"}},{"name":"Gänsgartenweg","postalCode":"75031","locality":"Eppingen","municipality":{"key":"08125026","name":"Eppingen, Stadt","type":"Große_Kreisstadt"},"district":{"key":"08125","name":"Heilbronn","type":"Landkreis"},"federalState":{"key":"08","name":"Baden-Württemberg"}},{"name":"Gartenschau Eppingen – Areal \"Bachwegle\"","postalCode":"75031","locality":"Eppingen","municipality":{"key":"08125026","name":"Eppingen, Stadt","type":"Große_Kreisstadt"},"district":{"key":"08125","name":"Heilbronn","type":"Landkreis"},"federalState":{"key":"08","name":"Baden-Württemberg"}},{"name":"Gartenschau Eppingen – Areal \"Festwiesen\"","postalCode":"75031","locality":"Eppingen","municipality":{"key":"08125026","name":"Eppingen, Stadt","type":"Große_Kreisstadt"},"district":{"key":"08125","name":"Heilbronn","type":"Landkreis"},"federalState":{"key":"08","name":"Baden-Württemberg"}},{"name":"Gartenschau Eppingen – Areal \"Weiherpark\"","postalCode":"75031","locality":"Eppingen","municipality":{"key":"08125026","name":"Eppingen, Stadt","type":"Große_Kreisstadt"},"district":{"key":"08125","name":"Heilbronn","type":"Landkreis"},"federalState":{"key":"08","name":"Baden-Württemberg"}},{"name":"Gartenstr.","postalCode":"75031","locality":"Eppingen","municipality":{"key":"08125026","name":"Eppingen, Stadt","type":"Große_Kreisstadt"},"district":{"key":"08125","name":"Heilbronn","type":"Landkreis"},"federalState":{"key":"08","name":"Baden-Württemberg"}},{"name":"Gassenäcker","postalCode":"75031","locality":"Eppingen","municipality":{"key":"08125026","name":"Eppingen, Stadt","type":"Große_Kreisstadt"},"district":{"key":"08125","name":"Heilbronn","type":"Landkreis"},"federalState":{"key":"08","name":"Baden-Württemberg"}},{"name":"Geisertstr.","postalCode":"75031","locality":"Eppingen","municipality":{"key":"08125026","name":"Eppingen, Stadt","type":"Große_Kreisstadt"},"district":{"key":"08125","name":"Heilbronn","type":"Landkreis"},"federalState":{"key":"08","name":"Baden-Württemberg"}},{"name":"Gemminger Str.","postalCode":"75031","locality":"Eppingen","municipality":{"key":"08125026","name":"Eppingen, Stadt","type":"Große_Kreisstadt"},"district":{"key":"08125","name":"Heilbronn","type":"Landkreis"},"federalState":{"key":"08","name":"Baden-Württemberg"}},{"name":"Georg-Friedrich-Händel-Str.","postalCode":"75031","locality":"Eppingen","municipality":{"key":"08125026","name":"Eppingen, Stadt","type":"Große_Kreisstadt"},"district":{"key":"08125","name":"Heilbronn","type":"Landkreis"},"federalState":{"key":"08","name":"Baden-Württemberg"}},{"name":"Georg-Schlatter-Str.","postalCode":"75031","locality":"Eppingen","municipality":{"key":"08125026","name":"Eppingen, Stadt","type":"Große_Kreisstadt"},"district":{"key":"08125","name":"Heilbronn","type":"Landkreis"},"federalState":{"key":"08","name":"Baden-Württemberg"}},{"name":"Geranienstr.","postalCode":"75031","locality":"Eppingen","municipality":{"key":"08125026","name":"Eppingen, Stadt","type":"Große_Kreisstadt"},"district":{"key":"08125","name":"Heilbronn","type":"Landkreis"},"federalState":{"key":"08","name":"Baden-Württemberg"}},{"name":"Gerbergasse","postalCode":"75031","locality":"Eppingen","municipality":{"key":"08125026","name":"Eppingen, Stadt","type":"Große_Kreisstadt"},"district":{"key":"08125","name":"Heilbronn","type":"Landkreis"},"federalState":{"key":"08","name":"Baden-Württemberg"}},{"name":"Gewerbestr.","postalCode":"75031","locality":"Eppingen","municipality":{"key":"08125026","name":"Eppingen, Stadt","type":"Große_Kreisstadt"},"district":{"key":"08125","name":"Heilbronn","type":"Landkreis"},"federalState":{"key":"08","name":"Baden-Württemberg"}},{"name":"Gleiwitzer Str.","postalCode":"75031","locality":"Eppingen","municipality":{"key":"08125026","name":"Eppingen, Stadt","type":"Große_Kreisstadt"},"district":{"key":"08125","name":"Heilbronn","type":"Landkreis"},"federalState":{"key":"08","name":"Baden-Württemberg"}},{"name":"Gochsheimer Str.","postalCode":"75031","locality":"Eppingen","municipality":{"key":"08125026","name":"Eppingen, Stadt","type":"Große_Kreisstadt"},"district":{"key":"08125","name":"Heilbronn","type":"Landkreis"},"federalState":{"key":"08","name":"Baden-Württemberg"}},{"name":"Goethestr.","postalCode":"75031","locality":"Eppingen","municipality":{"key":"08125026","name":"Eppingen, Stadt","type":"Große_Kreisstadt"},"district":{"key":"08125","name":"Heilbronn","type":"Landkreis"},"federalState":{"key":"08","name":"Baden-Württemberg"}},{"name":"Görlitzer Str.","postalCode":"75031","locality":"Eppingen","municipality":{"key":"08125026","name":"Eppingen, Stadt","type":"Große_Kreisstadt"},"district":{"key":"08125","name":"Heilbronn","type":"Landkreis"},"federalState":{"key":"08","name":"Baden-Württemberg"}},{"name":"Grabengasse","postalCode":"75031","locality":"Eppingen","municipality":{"key":"08125026","name":"Eppingen, Stadt","type":"Große_Kreisstadt"},"district":{"key":"08125","name":"Heilbronn","type":"Landkreis"},"federalState":{"key":"08","name":"Baden-Württemberg"}},{"name":"Großer Kuhbachweg","postalCode":"75031","locality":"Eppingen","municipality":{"key":"08125026","name":"Eppingen, Stadt","type":"Große_Kreisstadt"},"district":{"key":"08125","name":"Heilbronn","type":"Landkreis"},"federalState":{"key":"08","name":"Baden-Württemberg"}},{"name":"Grüner-Hof-Str.","postalCode":"75031","locality":"Eppingen","municipality":{"key":"08125026","name":"Eppingen, Stadt","type":"Große_Kreisstadt"},"district":{"key":"08125","name":"Heilbronn","type":"Landkreis"},"federalState":{"key":"08","name":"Baden-Württemberg"}},{"name":"Güglinger Str.","postalCode":"75031","locality":"Eppingen","municipality":{"key":"08125026","name":"Eppingen, Stadt","type":"Große_Kreisstadt"},"district":{"key":"08125","name":"Heilbronn","type":"Landkreis"},"federalState":{"key":"08","name":"Baden-Württemberg"}},{"name":"Gustav-Mahler-Str.","postalCode":"75031","locality":"Eppingen","municipality":{"key":"08125026","name":"Eppingen, Stadt","type":"Große_Kreisstadt"},"district":{"key":"08125","name":"Heilbronn","type":"Landkreis"},"federalState":{"key":"08","name":"Baden-Württemberg"}},{"name":"Hafnergasse","postalCode":"75031","locality":"Eppingen","municipality":{"key":"08125026","name":"Eppingen, Stadt","type":"Große_Kreisstadt"},"district":{"key":"08125","name":"Heilbronn","type":"Landkreis"},"federalState":{"key":"08","name":"Baden-Württemberg"}},{"name":"Hagstr.","postalCode":"75031","locality":"Eppingen","municipality":{"key":"08125026","name":"Eppingen, Stadt","type":"Große_Kreisstadt"},"district":{"key":"08125","name":"Heilbronn","type":"Landkreis"},"federalState":{"key":"08","name":"Baden-Württemberg"}},{"name":"Haidenrainweg","postalCode":"75031","locality":"Eppingen","municipality":{"key":"08125026","name":"Eppingen, Stadt","type":"Große_Kreisstadt"},"district":{"key":"08125","name":"Heilbronn","type":"Landkreis"},"federalState":{"key":"08","name":"Baden-Württemberg"}},{"name":"Hans-Wiessner-Str.","postalCode":"75031","locality":"Eppingen","municipality":{"key":"08125026","name":"Eppingen, Stadt","type":"Große_Kreisstadt"},"district":{"key":"08125","name":"Heilbronn","type":"Landkreis"},"federalState":{"key":"08","name":"Baden-Württemberg"}},{"name":"Hauptstr.","postalCode":"75031","locality":"Eppingen","municipality":{"key":"08125026","name":"Eppingen, Stadt","type":"Große_Kreisstadt"},"district":{"key":"08125","name":"Heilbronn","type":"Landkreis"},"federalState":{"key":"08","name":"Baden-Württemberg"}},{"name":"Haydnstr.","postalCode":"75031","locality":"Eppingen","municipality":{"key":"08125026","name":"Eppingen, Stadt","type":"Große_Kreisstadt"},"district":{"key":"08125","name":"Heilbronn","type":"Landkreis"},"federalState":{"key":"08","name":"Baden-Württemberg"}},{"name":"Hebelstr.","postalCode":"75031","locality":"Eppingen","municipality":{"key":"08125026","name":"Eppingen, Stadt","type":"Große_Kreisstadt"},"district":{"key":"08125","name":"Heilbronn","type":"Landkreis"},"federalState":{"key":"08","name":"Baden-Württemberg"}},{"name":"Heckenbuschstr.","postalCode":"75031","locality":"Eppingen","municipality":{"key":"08125026","name":"Eppingen, Stadt","type":"Große_Kreisstadt"},"district":{"key":"08125","name":"Heilbronn","type":"Landkreis"},"federalState":{"key":"08","name":"Baden-Württemberg"}},{"name":"Heckenweg","postalCode":"75031","locality":"Eppingen","municipality":{"key":"08125026","name":"Eppingen, Stadt","type":"Große_Kreisstadt"},"district":{"key":"08125","name":"Heilbronn","type":"Landkreis"},"federalState":{"key":"08","name":"Baden-Württemberg"}},{"name":"Heilbronner Str.","postalCode":"75031","locality":"Eppingen","municipality":{"key":"08125026","name":"Eppingen, Stadt","type":"Große_Kreisstadt"},"district":{"key":"08125","name":"Heilbronn","type":"Landkreis"},"federalState":{"key":"08","name":"Baden-Württemberg"}},{"name":"Heiligenberg","postalCode":"75031","locality":"Eppingen","municipality":{"key":"08125026","name":"Eppingen, Stadt","type":"Große_Kreisstadt"},"district":{"key":"08125","name":"Heilbronn","type":"Landkreis"},"federalState":{"key":"08","name":"Baden-Württemberg"}},{"name":"Heimstättenweg","postalCode":"75031","locality":"Eppingen","municipality":{"key":"08125026","name":"Eppingen, Stadt","type":"Große_Kreisstadt"},"district":{"key":"08125","name":"Heilbronn","type":"Landkreis"},"federalState":{"key":"08","name":"Baden-Württemberg"}},{"name":"Heinrich-Beck-Str.","postalCode":"75031","locality":"Eppingen","municipality":{"key":"08125026","name":"Eppingen, Stadt","type":"Große_Kreisstadt"},"district":{"key":"08125","name":"Heilbronn","type":"Landkreis"},"federalState":{"key":"08","name":"Baden-Württemberg"}},{"name":"Hellbergstr.","postalCode":"75031","locality":"Eppingen","municipality":{"key":"08125026","name":"Eppingen, Stadt","type":"Große_Kreisstadt"},"district":{"key":"08125","name":"Heilbronn","type":"Landkreis"},"federalState":{"key":"08","name":"Baden-Württemberg"}},{"name":"Herdweg","postalCode":"75031","locality":"Eppingen","municipality":{"key":"08125026","name":"Eppingen, Stadt","type":"Große_Kreisstadt"},"district":{"key":"08125","name":"Heilbronn","type":"Landkreis"},"federalState":{"key":"08","name":"Baden-Württemberg"}},{"name":"Hermann-Hesse-Str.","postalCode":"75031","locality":"Eppingen","municipality":{"key":"08125026","name":"Eppingen, Stadt","type":"Große_Kreisstadt"},"district":{"key":"08125","name":"Heilbronn","type":"Landkreis"},"federalState":{"key":"08","name":"Baden-Württemberg"}},{"name":"Hermannstädter Str.","postalCode":"75031","locality":"Eppingen","municipality":{"key":"08125026","name":"Eppingen, Stadt","type":"Große_Kreisstadt"},"district":{"key":"08125","name":"Heilbronn","type":"Landkreis"},"federalState":{"key":"08","name":"Baden-Württemberg"}},{"name":"Herrenäcker","postalCode":"75031","locality":"Eppingen","municipality":{"key":"08125026","name":"Eppingen, Stadt","type":"Große_Kreisstadt"},"district":{"key":"08125","name":"Heilbronn","type":"Landkreis"},"federalState":{"key":"08","name":"Baden-Württemberg"}},{"name":"Herrengrundstr.","postalCode":"75031","locality":"Eppingen","municipality":{"key":"08125026","name":"Eppingen, Stadt","type":"Große_Kreisstadt"},"district":{"key":"08125","name":"Heilbronn","type":"Landkreis"},"federalState":{"key":"08","name":"Baden-Württemberg"}},{"name":"Heuchelbergstr.","postalCode":"75031","locality":"Eppingen","municipality":{"key":"08125026","name":"Eppingen, Stadt","type":"Große_Kreisstadt"},"district":{"key":"08125","name":"Heilbronn","type":"Landkreis"},"federalState":{"key":"08","name":"Baden-Württemberg"}},{"name":"Hexenstäffele","postalCode":"75031","locality":"Eppingen","municipality":{"key":"08125026","name":"Eppingen, Stadt","type":"Große_Kreisstadt"},"district":{"key":"08125","name":"Heilbronn","type":"Landkreis"},"federalState":{"key":"08","name":"Baden-Württemberg"}},{"name":"Hilsbach Brücke","postalCode":"75031","locality":"Eppingen","municipality":{"key":"08125026","name":"Eppingen, Stadt","type":"Große_Kreisstadt"},"district":{"key":"08125","name":"Heilbronn","type":"Landkreis"},"federalState":{"key":"08","name":"Baden-Württemberg"}},{"name":"Hilsbacher Str.","postalCode":"75031","locality":"Eppingen","municipality":{"key":"08125026","name":"Eppingen, Stadt","type":"Große_Kreisstadt"},"district":{"key":"08125","name":"Heilbronn","type":"Landkreis"},"federalState":{"key":"08","name":"Baden-Württemberg"}},{"name":"Himmelreichweg","postalCode":"75031","locality":"Eppingen","municipality":{"key":"08125026","name":"Eppingen, Stadt","type":"Große_Kreisstadt"},"district":{"key":"08125","name":"Heilbronn","type":"Landkreis"},"federalState":{"key":"08","name":"Baden-Württemberg"}},{"name":"Hindenburgstr.","postalCode":"75031","locality":"Eppingen","municipality":{"key":"08125026","name":"Eppingen, Stadt","type":"Große_Kreisstadt"},"district":{"key":"08125","name":"Heilbronn","type":"Landkreis"},"federalState":{"key":"08","name":"Baden-Württemberg"}},{"name":"Hinter der Kirch","postalCode":"75031","locality":"Eppingen","municipality":{"key":"08125026","name":"Eppingen, Stadt","type":"Große_Kreisstadt"},"district":{"key":"08125","name":"Heilbronn","type":"Landkreis"},"federalState":{"key":"08","name":"Baden-Württemberg"}},{"name":"Hintere Gasse","postalCode":"75031","locality":"Eppingen","municipality":{"key":"08125026","name":"Eppingen, Stadt","type":"Große_Kreisstadt"},"district":{"key":"08125","name":"Heilbronn","type":"Landkreis"},"federalState":{"key":"08","name":"Baden-Württemberg"}},{"name":"Höhenweg","postalCode":"75031","locality":"Eppingen","municipality":{"key":"08125026","name":"Eppingen, Stadt","type":"Große_Kreisstadt"},"district":{"key":"08125","name":"Heilbronn","type":"Landkreis"},"federalState":{"key":"08","name":"Baden-Württemberg"}},{"name":"Hohe Str.","postalCode":"75031","locality":"Eppingen","municipality":{"key":"08125026","name":"Eppingen, Stadt","type":"Große_Kreisstadt"},"district":{"key":"08125","name":"Heilbronn","type":"Landkreis"},"federalState":{"key":"08","name":"Baden-Württemberg"}},{"name":"Hölderlinstr.","postalCode":"75031","locality":"Eppingen","municipality":{"key":"08125026","name":"Eppingen, Stadt","type":"Große_Kreisstadt"},"district":{"key":"08125","name":"Heilbronn","type":"Landkreis"},"federalState":{"key":"08","name":"Baden-Württemberg"}},{"name":"Hornbuckelweg","postalCode":"75031","locality":"Eppingen","municipality":{"key":"08125026","name":"Eppingen, Stadt","type":"Große_Kreisstadt"},"district":{"key":"08125","name":"Heilbronn","type":"Landkreis"},"federalState":{"key":"08","name":"Baden-Württemberg"}},{"name":"Hotschenbergstr.","postalCode":"75031","locality":"Eppingen","municipality":{"key":"08125026","name":"Eppingen, Stadt","type":"Große_Kreisstadt"},"district":{"key":"08125","name":"Heilbronn","type":"Landkreis"},"federalState":{"key":"08","name":"Baden-Württemberg"}},{"name":"Hutbergstr.","postalCode":"75031","locality":"Eppingen","municipality":{"key":"08125026","name":"Eppingen, Stadt","type":"Große_Kreisstadt"},"district":{"key":"08125","name":"Heilbronn","type":"Landkreis"},"federalState":{"key":"08","name":"Baden-Württemberg"}},{"name":"Im Eichbühl","postalCode":"75031","locality":"Eppingen","municipality":{"key":"08125026","name":"Eppingen, Stadt","type":"Große_Kreisstadt"},"district":{"key":"08125","name":"Heilbronn","type":"Landkreis"},"federalState":{"key":"08","name":"Baden-Württemberg"}},{"name":"Im Gemminger Feld","postalCode":"75031","locality":"Eppingen","municipality":{"key":"08125026","name":"Eppingen, Stadt","type":"Große_Kreisstadt"},"district":{"key":"08125","name":"Heilbronn","type":"Landkreis"},"federalState":{"key":"08","name":"Baden-Württemberg"}},{"name":"Im Grund","postalCode":"75031","locality":"Eppingen","municipality":{"key":"08125026","name":"Eppingen, Stadt","type":"Große_Kreisstadt"},"district":{"key":"08125","name":"Heilbronn","type":"Landkreis"},"federalState":{"key":"08","name":"Baden-Württemberg"}},{"name":"Im Martinskirchle","postalCode":"75031","locality":"Eppingen","municipality":{"key":"08125026","name":"Eppingen, Stadt","type":"Große_Kreisstadt"},"district":{"key":"08125","name":"Heilbronn","type":"Landkreis"},"federalState":{"key":"08","name":"Baden-Württemberg"}},{"name":"Im Mühlfeld","postalCode":"75031","locality":"Eppingen","municipality":{"key":"08125026","name":"Eppingen, Stadt","type":"Große_Kreisstadt"},"district":{"key":"08125","name":"Heilbronn","type":"Landkreis"},"federalState":{"key":"08","name":"Baden-Württemberg"}},{"name":"Im Schelmengrund","postalCode":"75031","locality":"Eppingen","municipality":{"key":"08125026","name":"Eppingen, Stadt","type":"Große_Kreisstadt"},"district":{"key":"08125","name":"Heilbronn","type":"Landkreis"},"federalState":{"key":"08","name":"Baden-Württemberg"}},{"name":"Im Vogelsgrund","postalCode":"75031","locality":"Eppingen","municipality":{"key":"08125026","name":"Eppingen, Stadt","type":"Große_Kreisstadt"},"district":{"key":"08125","name":"Heilbronn","type":"Landkreis"},"federalState":{"key":"08","name":"Baden-Württemberg"}},{"name":"Im Wiesental","postalCode":"75031","locality":"Eppingen","municipality":{"key":"08125026","name":"Eppingen, Stadt","type":"Große_Kreisstadt"},"district":{"key":"08125","name":"Heilbronn","type":"Landkreis"},"federalState":{"key":"08","name":"Baden-Württemberg"}},{"name":"Im Zitterich","postalCode":"75031","locality":"Eppingen","municipality":{"key":"08125026","name":"Eppingen, Stadt","type":"Große_Kreisstadt"},"district":{"key":"08125","name":"Heilbronn","type":"Landkreis"},"federalState":{"key":"08","name":"Baden-Württemberg"}},{"name":"In der Brandstatt","postalCode":"75031","locality":"Eppingen","municipality":{"key":"08125026","name":"Eppingen, Stadt","type":"Große_Kreisstadt"},"district":{"key":"08125","name":"Heilbronn","type":"Landkreis"},"federalState":{"key":"08","name":"Baden-Württemberg"}},{"name":"In der Mulde","postalCode":"75031","locality":"Eppingen","municipality":{"key":"08125026","name":"Eppingen, Stadt","type":"Große_Kreisstadt"},"district":{"key":"08125","name":"Heilbronn","type":"Landkreis"},"federalState":{"key":"08","name":"Baden-Württemberg"}},{"name":"Inselstr.","postalCode":"75031","locality":"Eppingen","municipality":{"key":"08125026","name":"Eppingen, Stadt","type":"Große_Kreisstadt"},"district":{"key":"08125","name":"Heilbronn","type":"Landkreis"},"federalState":{"key":"08","name":"Baden-Württemberg"}},{"name":"Ittlinger Str.","postalCode":"75031","locality":"Eppingen","municipality":{"key":"08125026","name":"Eppingen, Stadt","type":"Große_Kreisstadt"},"district":{"key":"08125","name":"Heilbronn","type":"Landkreis"},"federalState":{"key":"08","name":"Baden-Württemberg"}},{"name":"Jahnstr.","postalCode":"75031","locality":"Eppingen","municipality":{"key":"08125026","name":"Eppingen, Stadt","type":"Große_Kreisstadt"},"district":{"key":"08125","name":"Heilbronn","type":"Landkreis"},"federalState":{"key":"08","name":"Baden-Württemberg"}},{"name":"Jakob-Dörr-Str.","postalCode":"75031","locality":"Eppingen","municipality":{"key":"08125026","name":"Eppingen, Stadt","type":"Große_Kreisstadt"},"district":{"key":"08125","name":"Heilbronn","type":"Landkreis"},"federalState":{"key":"08","name":"Baden-Württemberg"}},{"name":"Jenaer Weg","postalCode":"75031","locality":"Eppingen","municipality":{"key":"08125026","name":"Eppingen, Stadt","type":"Große_Kreisstadt"},"district":{"key":"08125","name":"Heilbronn","type":"Landkreis"},"federalState":{"key":"08","name":"Baden-Württemberg"}},{"name":"Johannes-Kleinheins-Str.","postalCode":"75031","locality":"Eppingen","municipality":{"key":"08125026","name":"Eppingen, Stadt","type":"Große_Kreisstadt"},"district":{"key":"08125","name":"Heilbronn","type":"Landkreis"},"federalState":{"key":"08","name":"Baden-Württemberg"}},{"name":"Johann-Kuhmann-Str.","postalCode":"75031","locality":"Eppingen","municipality":{"key":"08125026","name":"Eppingen, Stadt","type":"Große_Kreisstadt"},"district":{"key":"08125","name":"Heilbronn","type":"Landkreis"},"federalState":{"key":"08","name":"Baden-Württemberg"}},{"name":"Johann-Strauß-Str.","postalCode":"75031","locality":"Eppingen","municipality":{"key":"08125026","name":"Eppingen, Stadt","type":"Große_Kreisstadt"},"district":{"key":"08125","name":"Heilbronn","type":"Landkreis"},"federalState":{"key":"08","name":"Baden-Württemberg"}},{"name":"Kaiserstr.","postalCode":"75031","locality":"Eppingen","municipality":{"key":"08125026","name":"Eppingen, Stadt","type":"Große_Kreisstadt"},"district":{"key":"08125","name":"Heilbronn","type":"Landkreis"},"federalState":{"key":"08","name":"Baden-Württemberg"}},{"name":"Kälberlöcherweg","postalCode":"75031","locality":"Eppingen","municipality":{"key":"08125026","name":"Eppingen, Stadt","type":"Große_Kreisstadt"},"district":{"key":"08125","name":"Heilbronn","type":"Landkreis"},"federalState":{"key":"08","name":"Baden-Württemberg"}},{"name":"Kaltenbergstr.","postalCode":"75031","locality":"Eppingen","municipality":{"key":"08125026","name":"Eppingen, Stadt","type":"Große_Kreisstadt"},"district":{"key":"08125","name":"Heilbronn","type":"Landkreis"},"federalState":{"key":"08","name":"Baden-Württemberg"}},{"name":"Kapellenweg","postalCode":"75031","locality":"Eppingen","municipality":{"key":"08125026","name":"Eppingen, Stadt","type":"Große_Kreisstadt"},"district":{"key":"08125","name":"Heilbronn","type":"Landkreis"},"federalState":{"key":"08","name":"Baden-Württemberg"}},{"name":"Karlsbader Str.","postalCode":"75031","locality":"Eppingen","municipality":{"key":"08125026","name":"Eppingen, Stadt","type":"Große_Kreisstadt"},"district":{"key":"08125","name":"Heilbronn","type":"Landkreis"},"federalState":{"key":"08","name":"Baden-Württemberg"}},{"name":"Kastanienweg","postalCode":"75031","locality":"Eppingen","municipality":{"key":"08125026","name":"Eppingen, Stadt","type":"Große_Kreisstadt"},"district":{"key":"08125","name":"Heilbronn","type":"Landkreis"},"federalState":{"key":"08","name":"Baden-Württemberg"}},{"name":"Katharinenstr.","postalCode":"75031","locality":"Eppingen","municipality":{"key":"08125026","name":"Eppingen, Stadt","type":"Große_Kreisstadt"},"district":{"key":"08125","name":"Heilbronn","type":"Landkreis"},"federalState":{"key":"08","name":"Baden-Württemberg"}},{"name":"Kelterstr.","postalCode":"75031","locality":"Eppingen","municipality":{"key":"08125026","name":"Eppingen, Stadt","type":"Große_Kreisstadt"},"district":{"key":"08125","name":"Heilbronn","type":"Landkreis"},"federalState":{"key":"08","name":"Baden-Württemberg"}},{"name":"Kettengasse","postalCode":"75031","locality":"Eppingen","municipality":{"key":"08125026","name":"Eppingen, Stadt","type":"Große_Kreisstadt"},"district":{"key":"08125","name":"Heilbronn","type":"Landkreis"},"federalState":{"key":"08","name":"Baden-Württemberg"}},{"name":"Kirchgasse","postalCode":"75031","locality":"Eppingen","municipality":{"key":"08125026","name":"Eppingen, Stadt","type":"Große_Kreisstadt"},"district":{"key":"08125","name":"Heilbronn","type":"Landkreis"},"federalState":{"key":"08","name":"Baden-Württemberg"}},{"name":"Kleebergstr.","postalCode":"75031","locality":"Eppingen","municipality":{"key":"08125026","name":"Eppingen, Stadt","type":"Große_Kreisstadt"},"district":{"key":"08125","name":"Heilbronn","type":"Landkreis"},"federalState":{"key":"08","name":"Baden-Württemberg"}},{"name":"Kleinbrückentorplatz","postalCode":"75031","locality":"Eppingen","municipality":{"key":"08125026","name":"Eppingen, Stadt","type":"Große_Kreisstadt"},"district":{"key":"08125","name":"Heilbronn","type":"Landkreis"},"federalState":{"key":"08","name":"Baden-Württemberg"}},{"name":"Kleiner Kuhbachweg","postalCode":"75031","locality":"Eppingen","municipality":{"key":"08125026","name":"Eppingen, Stadt","type":"Große_Kreisstadt"},"district":{"key":"08125","name":"Heilbronn","type":"Landkreis"},"federalState":{"key":"08","name":"Baden-Württemberg"}},{"name":"Kleingartacher Str.","postalCode":"75031","locality":"Eppingen","municipality":{"key":"08125026","name":"Eppingen, Stadt","type":"Große_Kreisstadt"},"district":{"key":"08125","name":"Heilbronn","type":"Landkreis"},"federalState":{"key":"08","name":"Baden-Württemberg"}},{"name":"Klosterweg","postalCode":"75031","locality":"Eppingen","municipality":{"key":"08125026","name":"Eppingen, Stadt","type":"Große_Kreisstadt"},"district":{"key":"08125","name":"Heilbronn","type":"Landkreis"},"federalState":{"key":"08","name":"Baden-Württemberg"}},{"name":"Knebelseckweg","postalCode":"75031","locality":"Eppingen","municipality":{"key":"08125026","name":"Eppingen, Stadt","type":"Große_Kreisstadt"},"district":{"key":"08125","name":"Heilbronn","type":"Landkreis"},"federalState":{"key":"08","name":"Baden-Württemberg"}},{"name":"Kneippstr.","postalCode":"75031","locality":"Eppingen","municipality":{"key":"08125026","name":"Eppingen, Stadt","type":"Große_Kreisstadt"},"district":{"key":"08125","name":"Heilbronn","type":"Landkreis"},"federalState":{"key":"08","name":"Baden-Württemberg"}},{"name":"Kögelgasse","postalCode":"75031","locality":"Eppingen","municipality":{"key":"08125026","name":"Eppingen, Stadt","type":"Große_Kreisstadt"},"district":{"key":"08125","name":"Heilbronn","type":"Landkreis"},"federalState":{"key":"08","name":"Baden-Württemberg"}},{"name":"Kohlplattenweg","postalCode":"75031","locality":"Eppingen","municipality":{"key":"08125026","name":"Eppingen, Stadt","type":"Große_Kreisstadt"},"district":{"key":"08125","name":"Heilbronn","type":"Landkreis"},"federalState":{"key":"08","name":"Baden-Württemberg"}},{"name":"Kolpingstr.","postalCode":"75031","locality":"Eppingen","municipality":{"key":"08125026","name":"Eppingen, Stadt","type":"Große_Kreisstadt"},"district":{"key":"08125","name":"Heilbronn","type":"Landkreis"},"federalState":{"key":"08","name":"Baden-Württemberg"}},{"name":"Königsberger Weg","postalCode":"75031","locality":"Eppingen","municipality":{"key":"08125026","name":"Eppingen, Stadt","type":"Große_Kreisstadt"},"district":{"key":"08125","name":"Heilbronn","type":"Landkreis"},"federalState":{"key":"08","name":"Baden-Württemberg"}},{"name":"Konrad-Veith-Weg","postalCode":"75031","locality":"Eppingen","municipality":{"key":"08125026","name":"Eppingen, Stadt","type":"Große_Kreisstadt"},"district":{"key":"08125","name":"Heilbronn","type":"Landkreis"},"federalState":{"key":"08","name":"Baden-Württemberg"}},{"name":"Körnerstr.","postalCode":"75031","locality":"Eppingen","municipality":{"key":"08125026","name":"Eppingen, Stadt","type":"Große_Kreisstadt"},"district":{"key":"08125","name":"Heilbronn","type":"Landkreis"},"federalState":{"key":"08","name":"Baden-Württemberg"}},{"name":"Kraichgaustr.","postalCode":"75031","locality":"Eppingen","municipality":{"key":"08125026","name":"Eppingen, Stadt","type":"Große_Kreisstadt"},"district":{"key":"08125","name":"Heilbronn","type":"Landkreis"},"federalState":{"key":"08","name":"Baden-Württemberg"}},{"name":"Kreuzgäßle","postalCode":"75031","locality":"Eppingen","municipality":{"key":"08125026","name":"Eppingen, Stadt","type":"Große_Kreisstadt"},"district":{"key":"08125","name":"Heilbronn","type":"Landkreis"},"federalState":{"key":"08","name":"Baden-Württemberg"}},{"name":"Kreuzstr.","postalCode":"75031","locality":"Eppingen","municipality":{"key":"08125026","name":"Eppingen, Stadt","type":"Große_Kreisstadt"},"district":{"key":"08125","name":"Heilbronn","type":"Landkreis"},"federalState":{"key":"08","name":"Baden-Württemberg"}},{"name":"Kronenstr.","postalCode":"75031","locality":"Eppingen","municipality":{"key":"08125026","name":"Eppingen, Stadt","type":"Große_Kreisstadt"},"district":{"key":"08125","name":"Heilbronn","type":"Landkreis"},"federalState":{"key":"08","name":"Baden-Württemberg"}},{"name":"Krummränklesweg","postalCode":"75031","locality":"Eppingen","municipality":{"key":"08125026","name":"Eppingen, Stadt","type":"Große_Kreisstadt"},"district":{"key":"08125","name":"Heilbronn","type":"Landkreis"},"federalState":{"key":"08","name":"Baden-Württemberg"}},{"name":"Küfergasse","postalCode":"75031","locality":"Eppingen","municipality":{"key":"08125026","name":"Eppingen, Stadt","type":"Große_Kreisstadt"},"district":{"key":"08125","name":"Heilbronn","type":"Landkreis"},"federalState":{"key":"08","name":"Baden-Württemberg"}},{"name":"Kuhbachweg","postalCode":"75031","locality":"Eppingen","municipality":{"key":"08125026","name":"Eppingen, Stadt","type":"Große_Kreisstadt"},"district":{"key":"08125","name":"Heilbronn","type":"Landkreis"},"federalState":{"key":"08","name":"Baden-Württemberg"}},{"name":"Kühnstelleweg","postalCode":"75031","locality":"Eppingen","municipality":{"key":"08125026","name":"Eppingen, Stadt","type":"Große_Kreisstadt"},"district":{"key":"08125","name":"Heilbronn","type":"Landkreis"},"federalState":{"key":"08","name":"Baden-Württemberg"}},{"name":"Kurze Str.","postalCode":"75031","locality":"Eppingen","municipality":{"key":"08125026","name":"Eppingen, Stadt","type":"Große_Kreisstadt"},"district":{"key":"08125","name":"Heilbronn","type":"Landkreis"},"federalState":{"key":"08","name":"Baden-Württemberg"}},{"name":"Langenberger Hohlweg","postalCode":"75031","locality":"Eppingen","municipality":{"key":"08125026","name":"Eppingen, Stadt","type":"Große_Kreisstadt"},"district":{"key":"08125","name":"Heilbronn","type":"Landkreis"},"federalState":{"key":"08","name":"Baden-Württemberg"}},{"name":"Langenbergstr.","postalCode":"75031","locality":"Eppingen","municipality":{"key":"08125026","name":"Eppingen, Stadt","type":"Große_Kreisstadt"},"district":{"key":"08125","name":"Heilbronn","type":"Landkreis"},"federalState":{"key":"08","name":"Baden-Württemberg"}},{"name":"Längenfeldstr.","postalCode":"75031","locality":"Eppingen","municipality":{"key":"08125026","name":"Eppingen, Stadt","type":"Große_Kreisstadt"},"district":{"key":"08125","name":"Heilbronn","type":"Landkreis"},"federalState":{"key":"08","name":"Baden-Württemberg"}},{"name":"Langengrundweg","postalCode":"75031","locality":"Eppingen","municipality":{"key":"08125026","name":"Eppingen, Stadt","type":"Große_Kreisstadt"},"district":{"key":"08125","name":"Heilbronn","type":"Landkreis"},"federalState":{"key":"08","name":"Baden-Württemberg"}},{"name":"Lanzweg","postalCode":"75031","locality":"Eppingen","municipality":{"key":"08125026","name":"Eppingen, Stadt","type":"Große_Kreisstadt"},"district":{"key":"08125","name":"Heilbronn","type":"Landkreis"},"federalState":{"key":"08","name":"Baden-Württemberg"}},{"name":"Lattwaldweg","postalCode":"75031","locality":"Eppingen","municipality":{"key":"08125026","name":"Eppingen, Stadt","type":"Große_Kreisstadt"},"district":{"key":"08125","name":"Heilbronn","type":"Landkreis"},"federalState":{"key":"08","name":"Baden-Württemberg"}},{"name":"Legelstr.","postalCode":"75031","locality":"Eppingen","municipality":{"key":"08125026","name":"Eppingen, Stadt","type":"Große_Kreisstadt"},"district":{"key":"08125","name":"Heilbronn","type":"Landkreis"},"federalState":{"key":"08","name":"Baden-Württemberg"}},{"name":"Leiergasse","postalCode":"75031","locality":"Eppingen","municipality":{"key":"08125026","name":"Eppingen, Stadt","type":"Große_Kreisstadt"},"district":{"key":"08125","name":"Heilbronn","type":"Landkreis"},"federalState":{"key":"08","name":"Baden-Württemberg"}},{"name":"Leimengrube","postalCode":"75031","locality":"Eppingen","municipality":{"key":"08125026","name":"Eppingen, Stadt","type":"Große_Kreisstadt"},"district":{"key":"08125","name":"Heilbronn","type":"Landkreis"},"federalState":{"key":"08","name":"Baden-Württemberg"}},{"name":"Leinbergstr.","postalCode":"75031","locality":"Eppingen","municipality":{"key":"08125026","name":"Eppingen, Stadt","type":"Große_Kreisstadt"},"district":{"key":"08125","name":"Heilbronn","type":"Landkreis"},"federalState":{"key":"08","name":"Baden-Württemberg"}},{"name":"Leintalstr.","postalCode":"75031","locality":"Eppingen","municipality":{"key":"08125026","name":"Eppingen, Stadt","type":"Große_Kreisstadt"},"district":{"key":"08125","name":"Heilbronn","type":"Landkreis"},"federalState":{"key":"08","name":"Baden-Württemberg"}},{"name":"Leipziger Str.","postalCode":"75031","locality":"Eppingen","municipality":{"key":"08125026","name":"Eppingen, Stadt","type":"Große_Kreisstadt"},"district":{"key":"08125","name":"Heilbronn","type":"Landkreis"},"federalState":{"key":"08","name":"Baden-Württemberg"}},{"name":"Lembergerweg","postalCode":"75031","locality":"Eppingen","municipality":{"key":"08125026","name":"Eppingen, Stadt","type":"Große_Kreisstadt"},"district":{"key":"08125","name":"Heilbronn","type":"Landkreis"},"federalState":{"key":"08","name":"Baden-Württemberg"}},{"name":"Leonbronner Weg","postalCode":"75031","locality":"Eppingen","municipality":{"key":"08125026","name":"Eppingen, Stadt","type":"Große_Kreisstadt"},"district":{"key":"08125","name":"Heilbronn","type":"Landkreis"},"federalState":{"key":"08","name":"Baden-Württemberg"}},{"name":"Leonhard-Engelhardt-Str.","postalCode":"75031","locality":"Eppingen","municipality":{"key":"08125026","name":"Eppingen, Stadt","type":"Große_Kreisstadt"},"district":{"key":"08125","name":"Heilbronn","type":"Landkreis"},"federalState":{"key":"08","name":"Baden-Württemberg"}},{"name":"Leopold-Regensburger-Str.","postalCode":"75031","locality":"Eppingen","municipality":{"key":"08125026","name":"Eppingen, Stadt","type":"Große_Kreisstadt"},"district":{"key":"08125","name":"Heilbronn","type":"Landkreis"},"federalState":{"key":"08","name":"Baden-Württemberg"}},{"name":"Lerchenbergstr.","postalCode":"75031","locality":"Eppingen","municipality":{"key":"08125026","name":"Eppingen, Stadt","type":"Große_Kreisstadt"},"district":{"key":"08125","name":"Heilbronn","type":"Landkreis"},"federalState":{"key":"08","name":"Baden-Württemberg"}},{"name":"Lerchenweg","postalCode":"75031","locality":"Eppingen","municipality":{"key":"08125026","name":"Eppingen, Stadt","type":"Große_Kreisstadt"},"district":{"key":"08125","name":"Heilbronn","type":"Landkreis"},"federalState":{"key":"08","name":"Baden-Württemberg"}},{"name":"Lessingstr.","postalCode":"75031","locality":"Eppingen","municipality":{"key":"08125026","name":"Eppingen, Stadt","type":"Große_Kreisstadt"},"district":{"key":"08125","name":"Heilbronn","type":"Landkreis"},"federalState":{"key":"08","name":"Baden-Württemberg"}},{"name":"Lichtenbergstr.","postalCode":"75031","locality":"Eppingen","municipality":{"key":"08125026","name":"Eppingen, Stadt","type":"Große_Kreisstadt"},"district":{"key":"08125","name":"Heilbronn","type":"Landkreis"},"federalState":{"key":"08","name":"Baden-Württemberg"}},{"name":"Lichthölzeweg","postalCode":"75031","locality":"Eppingen","municipality":{"key":"08125026","name":"Eppingen, Stadt","type":"Große_Kreisstadt"},"district":{"key":"08125","name":"Heilbronn","type":"Landkreis"},"federalState":{"key":"08","name":"Baden-Württemberg"}},{"name":"Liebigstr.","postalCode":"75031","locality":"Eppingen","municipality":{"key":"08125026","name":"Eppingen, Stadt","type":"Große_Kreisstadt"},"district":{"key":"08125","name":"Heilbronn","type":"Landkreis"},"federalState":{"key":"08","name":"Baden-Württemberg"}},{"name":"Liegnitzer Str.","postalCode":"75031","locality":"Eppingen","municipality":{"key":"08125026","name":"Eppingen, Stadt","type":"Große_Kreisstadt"},"district":{"key":"08125","name":"Heilbronn","type":"Landkreis"},"federalState":{"key":"08","name":"Baden-Württemberg"}},{"name":"Lilienstr.","postalCode":"75031","locality":"Eppingen","municipality":{"key":"08125026","name":"Eppingen, Stadt","type":"Große_Kreisstadt"},"district":{"key":"08125","name":"Heilbronn","type":"Landkreis"},"federalState":{"key":"08","name":"Baden-Württemberg"}},{"name":"Lindenrainweg","postalCode":"75031","locality":"Eppingen","municipality":{"key":"08125026","name":"Eppingen, Stadt","type":"Große_Kreisstadt"},"district":{"key":"08125","name":"Heilbronn","type":"Landkreis"},"federalState":{"key":"08","name":"Baden-Württemberg"}},{"name":"Lindenteichweg","postalCode":"75031","locality":"Eppingen","municipality":{"key":"08125026","name":"Eppingen, Stadt","type":"Große_Kreisstadt"},"district":{"key":"08125","name":"Heilbronn","type":"Landkreis"},"federalState":{"key":"08","name":"Baden-Württemberg"}},{"name":"Lindenweg","postalCode":"75031","locality":"Eppingen","municipality":{"key":"08125026","name":"Eppingen, Stadt","type":"Große_Kreisstadt"},"district":{"key":"08125","name":"Heilbronn","type":"Landkreis"},"federalState":{"key":"08","name":"Baden-Württemberg"}},{"name":"Linsenviertel","postalCode":"75031","locality":"Eppingen","municipality":{"key":"08125026","name":"Eppingen, Stadt","type":"Große_Kreisstadt"},"district":{"key":"08125","name":"Heilbronn","type":"Landkreis"},"federalState":{"key":"08","name":"Baden-Württemberg"}},{"name":"Lohgasse","postalCode":"75031","locality":"Eppingen","municipality":{"key":"08125026","name":"Eppingen, Stadt","type":"Große_Kreisstadt"},"district":{"key":"08125","name":"Heilbronn","type":"Landkreis"},"federalState":{"key":"08","name":"Baden-Württemberg"}},{"name":"Lohmühlstr.","postalCode":"75031","locality":"Eppingen","municipality":{"key":"08125026","name":"Eppingen, Stadt","type":"Große_Kreisstadt"},"district":{"key":"08125","name":"Heilbronn","type":"Landkreis"},"federalState":{"key":"08","name":"Baden-Württemberg"}},{"name":"Lortzingweg","postalCode":"75031","locality":"Eppingen","municipality":{"key":"08125026","name":"Eppingen, Stadt","type":"Große_Kreisstadt"},"district":{"key":"08125","name":"Heilbronn","type":"Landkreis"},"federalState":{"key":"08","name":"Baden-Württemberg"}},{"name":"Ludwigsplatz","postalCode":"75031","locality":"Eppingen","municipality":{"key":"08125026","name":"Eppingen, Stadt","type":"Große_Kreisstadt"},"district":{"key":"08125","name":"Heilbronn","type":"Landkreis"},"federalState":{"key":"08","name":"Baden-Württemberg"}},{"name":"Ludwig-Zorn-Str.","postalCode":"75031","locality":"Eppingen","municipality":{"key":"08125026","name":"Eppingen, Stadt","type":"Große_Kreisstadt"},"district":{"key":"08125","name":"Heilbronn","type":"Landkreis"},"federalState":{"key":"08","name":"Baden-Württemberg"}},{"name":"Lußgartenstr.","postalCode":"75031","locality":"Eppingen","municipality":{"key":"08125026","name":"Eppingen, Stadt","type":"Große_Kreisstadt"},"district":{"key":"08125","name":"Heilbronn","type":"Landkreis"},"federalState":{"key":"08","name":"Baden-Württemberg"}},{"name":"Luzernenweg","postalCode":"75031","locality":"Eppingen","municipality":{"key":"08125026","name":"Eppingen, Stadt","type":"Große_Kreisstadt"},"district":{"key":"08125","name":"Heilbronn","type":"Landkreis"},"federalState":{"key":"08","name":"Baden-Württemberg"}},{"name":"LZA-Park","postalCode":"75031","locality":"Eppingen","municipality":{"key":"08125026","name":"Eppingen, Stadt","type":"Große_Kreisstadt"},"district":{"key":"08125","name":"Heilbronn","type":"Landkreis"},"federalState":{"key":"08","name":"Baden-Württemberg"}},{"name":"Magdeburger Str.","postalCode":"75031","locality":"Eppingen","municipality":{"key":"08125026","name":"Eppingen, Stadt","type":"Große_Kreisstadt"},"district":{"key":"08125","name":"Heilbronn","type":"Landkreis"},"federalState":{"key":"08","name":"Baden-Württemberg"}},{"name":"Manöverweg","postalCode":"75031","locality":"Eppingen","municipality":{"key":"08125026","name":"Eppingen, Stadt","type":"Große_Kreisstadt"},"district":{"key":"08125","name":"Heilbronn","type":"Landkreis"},"federalState":{"key":"08","name":"Baden-Württemberg"}},{"name":"Marktplatz","postalCode":"75031","locality":"Eppingen","municipality":{"key":"08125026","name":"Eppingen, Stadt","type":"Große_Kreisstadt"},"district":{"key":"08125","name":"Heilbronn","type":"Landkreis"},"federalState":{"key":"08","name":"Baden-Württemberg"}},{"name":"Marktstr.","postalCode":"75031","locality":"Eppingen","municipality":{"key":"08125026","name":"Eppingen, Stadt","type":"Große_Kreisstadt"},"district":{"key":"08125","name":"Heilbronn","type":"Landkreis"},"federalState":{"key":"08","name":"Baden-Württemberg"}},{"name":"Maulbronner Str.","postalCode":"75031","locality":"Eppingen","municipality":{"key":"08125026","name":"Eppingen, Stadt","type":"Große_Kreisstadt"},"district":{"key":"08125","name":"Heilbronn","type":"Landkreis"},"federalState":{"key":"08","name":"Baden-Württemberg"}},{"name":"Max-Reger-Str.","postalCode":"75031","locality":"Eppingen","municipality":{"key":"08125026","name":"Eppingen, Stadt","type":"Große_Kreisstadt"},"district":{"key":"08125","name":"Heilbronn","type":"Landkreis"},"federalState":{"key":"08","name":"Baden-Württemberg"}},{"name":"Meisenweg","postalCode":"75031","locality":"Eppingen","municipality":{"key":"08125026","name":"Eppingen, Stadt","type":"Große_Kreisstadt"},"district":{"key":"08125","name":"Heilbronn","type":"Landkreis"},"federalState":{"key":"08","name":"Baden-Württemberg"}},{"name":"Meissener Weg","postalCode":"75031","locality":"Eppingen","municipality":{"key":"08125026","name":"Eppingen, Stadt","type":"Große_Kreisstadt"},"district":{"key":"08125","name":"Heilbronn","type":"Landkreis"},"federalState":{"key":"08","name":"Baden-Württemberg"}},{"name":"Metzgergasse","postalCode":"75031","locality":"Eppingen","municipality":{"key":"08125026","name":"Eppingen, Stadt","type":"Große_Kreisstadt"},"district":{"key":"08125","name":"Heilbronn","type":"Landkreis"},"federalState":{"key":"08","name":"Baden-Württemberg"}},{"name":"Michelbacher Allee","postalCode":"75031","locality":"Eppingen","municipality":{"key":"08125026","name":"Eppingen, Stadt","type":"Große_Kreisstadt"},"district":{"key":"08125","name":"Heilbronn","type":"Landkreis"},"federalState":{"key":"08","name":"Baden-Württemberg"}},{"name":"Mitteldorfstr.","postalCode":"75031","locality":"Eppingen","municipality":{"key":"08125026","name":"Eppingen, Stadt","type":"Große_Kreisstadt"},"district":{"key":"08125","name":"Heilbronn","type":"Landkreis"},"federalState":{"key":"08","name":"Baden-Württemberg"}},{"name":"Mittlere Gasse","postalCode":"75031","locality":"Eppingen","municipality":{"key":"08125026","name":"Eppingen, Stadt","type":"Große_Kreisstadt"},"district":{"key":"08125","name":"Heilbronn","type":"Landkreis"},"federalState":{"key":"08","name":"Baden-Württemberg"}},{"name":"Mittlerer Kuhbachweg","postalCode":"75031","locality":"Eppingen","municipality":{"key":"08125026","name":"Eppingen, Stadt","type":"Große_Kreisstadt"},"district":{"key":"08125","name":"Heilbronn","type":"Landkreis"},"federalState":{"key":"08","name":"Baden-Württemberg"}},{"name":"Mönchsberg","postalCode":"75031","locality":"Eppingen","municipality":{"key":"08125026","name":"Eppingen, Stadt","type":"Große_Kreisstadt"},"district":{"key":"08125","name":"Heilbronn","type":"Landkreis"},"federalState":{"key":"08","name":"Baden-Württemberg"}},{"name":"Mönchstr.","postalCode":"75031","locality":"Eppingen","municipality":{"key":"08125026","name":"Eppingen, Stadt","type":"Große_Kreisstadt"},"district":{"key":"08125","name":"Heilbronn","type":"Landkreis"},"federalState":{"key":"08","name":"Baden-Württemberg"}},{"name":"Mozartstr.","postalCode":"75031","locality":"Eppingen","municipality":{"key":"08125026","name":"Eppingen, Stadt","type":"Große_Kreisstadt"},"district":{"key":"08125","name":"Heilbronn","type":"Landkreis"},"federalState":{"key":"08","name":"Baden-Württemberg"}},{"name":"Mühläcker","postalCode":"75031","locality":"Eppingen","municipality":{"key":"08125026","name":"Eppingen, Stadt","type":"Große_Kreisstadt"},"district":{"key":"08125","name":"Heilbronn","type":"Landkreis"},"federalState":{"key":"08","name":"Baden-Württemberg"}},{"name":"Mühlbacher Str.","postalCode":"75031","locality":"Eppingen","municipality":{"key":"08125026","name":"Eppingen, Stadt","type":"Große_Kreisstadt"},"district":{"key":"08125","name":"Heilbronn","type":"Landkreis"},"federalState":{"key":"08","name":"Baden-Württemberg"}},{"name":"Mühlbacher Weg","postalCode":"75031","locality":"Eppingen","municipality":{"key":"08125026","name":"Eppingen, Stadt","type":"Große_Kreisstadt"},"district":{"key":"08125","name":"Heilbronn","type":"Landkreis"},"federalState":{"key":"08","name":"Baden-Württemberg"}},{"name":"Mühlweg","postalCode":"75031","locality":"Eppingen","municipality":{"key":"08125026","name":"Eppingen, Stadt","type":"Große_Kreisstadt"},"district":{"key":"08125","name":"Heilbronn","type":"Landkreis"},"federalState":{"key":"08","name":"Baden-Württemberg"}},{"name":"Nansenstr.","postalCode":"75031","locality":"Eppingen","municipality":{"key":"08125026","name":"Eppingen, Stadt","type":"Große_Kreisstadt"},"district":{"key":"08125","name":"Heilbronn","type":"Landkreis"},"federalState":{"key":"08","name":"Baden-Württemberg"}},{"name":"Narzissenstr.","postalCode":"75031","locality":"Eppingen","municipality":{"key":"08125026","name":"Eppingen, Stadt","type":"Große_Kreisstadt"},"district":{"key":"08125","name":"Heilbronn","type":"Landkreis"},"federalState":{"key":"08","name":"Baden-Württemberg"}},{"name":"Nelkenweg","postalCode":"75031","locality":"Eppingen","municipality":{"key":"08125026","name":"Eppingen, Stadt","type":"Große_Kreisstadt"},"district":{"key":"08125","name":"Heilbronn","type":"Landkreis"},"federalState":{"key":"08","name":"Baden-Württemberg"}},{"name":"Nesselbachgasse","postalCode":"75031","locality":"Eppingen","municipality":{"key":"08125026","name":"Eppingen, Stadt","type":"Große_Kreisstadt"},"district":{"key":"08125","name":"Heilbronn","type":"Landkreis"},"federalState":{"key":"08","name":"Baden-Württemberg"}},{"name":"Nesselbachstr.","postalCode":"75031","locality":"Eppingen","municipality":{"key":"08125026","name":"Eppingen, Stadt","type":"Große_Kreisstadt"},"district":{"key":"08125","name":"Heilbronn","type":"Landkreis"},"federalState":{"key":"08","name":"Baden-Württemberg"}},{"name":"Neubergstr.","postalCode":"75031","locality":"Eppingen","municipality":{"key":"08125026","name":"Eppingen, Stadt","type":"Große_Kreisstadt"},"district":{"key":"08125","name":"Heilbronn","type":"Landkreis"},"federalState":{"key":"08","name":"Baden-Württemberg"}},{"name":"Neuer Berg","postalCode":"75031","locality":"Eppingen","municipality":{"key":"08125026","name":"Eppingen, Stadt","type":"Große_Kreisstadt"},"district":{"key":"08125","name":"Heilbronn","type":"Landkreis"},"federalState":{"key":"08","name":"Baden-Württemberg"}},{"name":"Niederhöfer Weg","postalCode":"75031","locality":"Eppingen","municipality":{"key":"08125026","name":"Eppingen, Stadt","type":"Große_Kreisstadt"},"district":{"key":"08125","name":"Heilbronn","type":"Landkreis"},"federalState":{"key":"08","name":"Baden-Württemberg"}},{"name":"Nordstr.","postalCode":"75031","locality":"Eppingen","municipality":{"key":"08125026","name":"Eppingen, Stadt","type":"Große_Kreisstadt"},"district":{"key":"08125","name":"Heilbronn","type":"Landkreis"},"federalState":{"key":"08","name":"Baden-Württemberg"}},{"name":"Oberer Bachweg","postalCode":"75031","locality":"Eppingen","municipality":{"key":"08125026","name":"Eppingen, Stadt","type":"Große_Kreisstadt"},"district":{"key":"08125","name":"Heilbronn","type":"Landkreis"},"federalState":{"key":"08","name":"Baden-Württemberg"}},{"name":"Oberlinweg","postalCode":"75031","locality":"Eppingen","municipality":{"key":"08125026","name":"Eppingen, Stadt","type":"Große_Kreisstadt"},"district":{"key":"08125","name":"Heilbronn","type":"Landkreis"},"federalState":{"key":"08","name":"Baden-Württemberg"}},{"name":"Ochsenburger Str.","postalCode":"75031","locality":"Eppingen","municipality":{"key":"08125026","name":"Eppingen, Stadt","type":"Große_Kreisstadt"},"district":{"key":"08125","name":"Heilbronn","type":"Landkreis"},"federalState":{"key":"08","name":"Baden-Württemberg"}},{"name":"Ochsenburger Weg","postalCode":"75031","locality":"Eppingen","municipality":{"key":"08125026","name":"Eppingen, Stadt","type":"Große_Kreisstadt"},"district":{"key":"08125","name":"Heilbronn","type":"Landkreis"},"federalState":{"key":"08","name":"Baden-Württemberg"}},{"name":"Odenbergstr.","postalCode":"75031","locality":"Eppingen","municipality":{"key":"08125026","name":"Eppingen, Stadt","type":"Große_Kreisstadt"},"district":{"key":"08125","name":"Heilbronn","type":"Landkreis"},"federalState":{"key":"08","name":"Baden-Württemberg"}},{"name":"Oleanderstr.","postalCode":"75031","locality":"Eppingen","municipality":{"key":"08125026","name":"Eppingen, Stadt","type":"Große_Kreisstadt"},"district":{"key":"08125","name":"Heilbronn","type":"Landkreis"},"federalState":{"key":"08","name":"Baden-Württemberg"}},{"name":"Oppelner Str.","postalCode":"75031","locality":"Eppingen","municipality":{"key":"08125026","name":"Eppingen, Stadt","type":"Große_Kreisstadt"},"district":{"key":"08125","name":"Heilbronn","type":"Landkreis"},"federalState":{"key":"08","name":"Baden-Württemberg"}},{"name":"Orchideenstr.","postalCode":"75031","locality":"Eppingen","municipality":{"key":"08125026","name":"Eppingen, Stadt","type":"Große_Kreisstadt"},"district":{"key":"08125","name":"Heilbronn","type":"Landkreis"},"federalState":{"key":"08","name":"Baden-Württemberg"}},{"name":"Ostendgasse","postalCode":"75031","locality":"Eppingen","municipality":{"key":"08125026","name":"Eppingen, Stadt","type":"Große_Kreisstadt"},"district":{"key":"08125","name":"Heilbronn","type":"Landkreis"},"federalState":{"key":"08","name":"Baden-Württemberg"}},{"name":"Ostrauer Str.","postalCode":"75031","locality":"Eppingen","municipality":{"key":"08125026","name":"Eppingen, Stadt","type":"Große_Kreisstadt"},"district":{"key":"08125","name":"Heilbronn","type":"Landkreis"},"federalState":{"key":"08","name":"Baden-Württemberg"}},{"name":"Oststr.","postalCode":"75031","locality":"Eppingen","municipality":{"key":"08125026","name":"Eppingen, Stadt","type":"Große_Kreisstadt"},"district":{"key":"08125","name":"Heilbronn","type":"Landkreis"},"federalState":{"key":"08","name":"Baden-Württemberg"}},{"name":"Ottilienstr.","postalCode":"75031","locality":"Eppingen","municipality":{"key":"08125026","name":"Eppingen, Stadt","type":"Große_Kreisstadt"},"district":{"key":"08125","name":"Heilbronn","type":"Landkreis"},"federalState":{"key":"08","name":"Baden-Württemberg"}},{"name":"Otto-Hahn-Str.","postalCode":"75031","locality":"Eppingen","municipality":{"key":"08125026","name":"Eppingen, Stadt","type":"Große_Kreisstadt"},"district":{"key":"08125","name":"Heilbronn","type":"Landkreis"},"federalState":{"key":"08","name":"Baden-Württemberg"}},{"name":"Otto-Riecker-Str.","postalCode":"75031","locality":"Eppingen","municipality":{"key":"08125026","name":"Eppingen, Stadt","type":"Große_Kreisstadt"},"district":{"key":"08125","name":"Heilbronn","type":"Landkreis"},"federalState":{"key":"08","name":"Baden-Württemberg"}},{"name":"Panoramastr.","postalCode":"75031","locality":"Eppingen","municipality":{"key":"08125026","name":"Eppingen, Stadt","type":"Große_Kreisstadt"},"district":{"key":"08125","name":"Heilbronn","type":"Landkreis"},"federalState":{"key":"08","name":"Baden-Württemberg"}},{"name":"Pappelweg","postalCode":"75031","locality":"Eppingen","municipality":{"key":"08125026","name":"Eppingen, Stadt","type":"Große_Kreisstadt"},"district":{"key":"08125","name":"Heilbronn","type":"Landkreis"},"federalState":{"key":"08","name":"Baden-Württemberg"}},{"name":"Parkweg","postalCode":"75031","locality":"Eppingen","municipality":{"key":"08125026","name":"Eppingen, Stadt","type":"Große_Kreisstadt"},"district":{"key":"08125","name":"Heilbronn","type":"Landkreis"},"federalState":{"key":"08","name":"Baden-Württemberg"}},{"name":"Pestalozzistr.","postalCode":"75031","locality":"Eppingen","municipality":{"key":"08125026","name":"Eppingen, Stadt","type":"Große_Kreisstadt"},"district":{"key":"08125","name":"Heilbronn","type":"Landkreis"},"federalState":{"key":"08","name":"Baden-Württemberg"}},{"name":"Pestalozziweg","postalCode":"75031","locality":"Eppingen","municipality":{"key":"08125026","name":"Eppingen, Stadt","type":"Große_Kreisstadt"},"district":{"key":"08125","name":"Heilbronn","type":"Landkreis"},"federalState":{"key":"08","name":"Baden-Württemberg"}},{"name":"Petunienweg","postalCode":"75031","locality":"Eppingen","municipality":{"key":"08125026","name":"Eppingen, Stadt","type":"Große_Kreisstadt"},"district":{"key":"08125","name":"Heilbronn","type":"Landkreis"},"federalState":{"key":"08","name":"Baden-Württemberg"}},{"name":"Pfaffenbergweg","postalCode":"75031","locality":"Eppingen","municipality":{"key":"08125026","name":"Eppingen, Stadt","type":"Große_Kreisstadt"},"district":{"key":"08125","name":"Heilbronn","type":"Landkreis"},"federalState":{"key":"08","name":"Baden-Württemberg"}},{"name":"Pfarrgartenweg","postalCode":"75031","locality":"Eppingen","municipality":{"key":"08125026","name":"Eppingen, Stadt","type":"Große_Kreisstadt"},"district":{"key":"08125","name":"Heilbronn","type":"Landkreis"},"federalState":{"key":"08","name":"Baden-Württemberg"}},{"name":"Pfarrgasse","postalCode":"75031","locality":"Eppingen","municipality":{"key":"08125026","name":"Eppingen, Stadt","type":"Große_Kreisstadt"},"district":{"key":"08125","name":"Heilbronn","type":"Landkreis"},"federalState":{"key":"08","name":"Baden-Württemberg"}},{"name":"Pflanzschulweg","postalCode":"75031","locality":"Eppingen","municipality":{"key":"08125026","name":"Eppingen, Stadt","type":"Große_Kreisstadt"},"district":{"key":"08125","name":"Heilbronn","type":"Landkreis"},"federalState":{"key":"08","name":"Baden-Württemberg"}},{"name":"Pfützenbaum","postalCode":"75031","locality":"Eppingen","municipality":{"key":"08125026","name":"Eppingen, Stadt","type":"Große_Kreisstadt"},"district":{"key":"08125","name":"Heilbronn","type":"Landkreis"},"federalState":{"key":"08","name":"Baden-Württemberg"}},{"name":"Philosophenweg","postalCode":"75031","locality":"Eppingen","municipality":{"key":"08125026","name":"Eppingen, Stadt","type":"Große_Kreisstadt"},"district":{"key":"08125","name":"Heilbronn","type":"Landkreis"},"federalState":{"key":"08","name":"Baden-Württemberg"}},{"name":"Plattenweg","postalCode":"75031","locality":"Eppingen","municipality":{"key":"08125026","name":"Eppingen, Stadt","type":"Große_Kreisstadt"},"district":{"key":"08125","name":"Heilbronn","type":"Landkreis"},"federalState":{"key":"08","name":"Baden-Württemberg"}},{"name":"Posener Weg","postalCode":"75031","locality":"Eppingen","municipality":{"key":"08125026","name":"Eppingen, Stadt","type":"Große_Kreisstadt"},"district":{"key":"08125","name":"Heilbronn","type":"Landkreis"},"federalState":{"key":"08","name":"Baden-Württemberg"}},{"name":"Postweg","postalCode":"75031","locality":"Eppingen","municipality":{"key":"08125026","name":"Eppingen, Stadt","type":"Große_Kreisstadt"},"district":{"key":"08125","name":"Heilbronn","type":"Landkreis"},"federalState":{"key":"08","name":"Baden-Württemberg"}},{"name":"Potsdamer Str.","postalCode":"75031","locality":"Eppingen","municipality":{"key":"08125026","name":"Eppingen, Stadt","type":"Große_Kreisstadt"},"district":{"key":"08125","name":"Heilbronn","type":"Landkreis"},"federalState":{"key":"08","name":"Baden-Württemberg"}},{"name":"Professor-Rupp-Str.","postalCode":"75031","locality":"Eppingen","municipality":{"key":"08125026","name":"Eppingen, Stadt","type":"Große_Kreisstadt"},"district":{"key":"08125","name":"Heilbronn","type":"Landkreis"},"federalState":{"key":"08","name":"Baden-Württemberg"}},{"name":"Quartiersgarten","postalCode":"74072","locality":"Heilbronn","municipality":{"key":"08121000","name":"Heilbronn, Universitätsstadt","type":"Stadtkreis"},"district":{"key":"08121","name":"Heilbronn, Stadtkreis","type":"Stadtkreis"},"federalState":{"key":"08","name":"Baden-Württemberg"}},{"name":"Quellenstr.","postalCode":"74081","locality":"Heilbronn","municipality":{"key":"08121000","name":"Heilbronn, Universitätsstadt","type":"Stadtkreis"},"district":{"key":"08121","name":"Heilbronn, Stadtkreis","type":"Stadtkreis"},"federalState":{"key":"08","name":"Baden-Württemberg"}},{"name":"Querstr.","postalCode":"74080","locality":"Heilbronn","municipality":{"key":"08121000","name":"Heilbronn, Universitätsstadt","type":"Stadtkreis"},"district":{"key":"08121","name":"Heilbronn, Stadtkreis","type":"Stadtkreis"},"federalState":{"key":"08","name":"Baden-Württemberg"}},{"name":"Raiffeisenplatz","postalCode":"75031","locality":"Eppingen","municipality":{"key":"08125026","name":"Eppingen, Stadt","type":"Große_Kreisstadt"},"district":{"key":"08125","name":"Heilbronn","type":"Landkreis"},"federalState":{"key":"08","name":"Baden-Württemberg"}},{"name":"Raiffeisenstr.","postalCode":"75031","locality":"Eppingen","municipality":{"key":"08125026","name":"Eppingen, Stadt","type":"Große_Kreisstadt"},"district":{"key":"08125","name":"Heilbronn","type":"Landkreis"},"federalState":{"key":"08","name":"Baden-Württemberg"}},{"name":"Rappenauer Str.","postalCode":"75031","locality":"Eppingen","municipality":{"key":"08125026","name":"Eppingen, Stadt","type":"Große_Kreisstadt"},"district":{"key":"08125","name":"Heilbronn","type":"Landkreis"},"federalState":{"key":"08","name":"Baden-Württemberg"}},{"name":"Raußmühlstr.","postalCode":"75031","locality":"Eppingen","municipality":{"key":"08125026","name":"Eppingen, Stadt","type":"Große_Kreisstadt"},"district":{"key":"08125","name":"Heilbronn","type":"Landkreis"},"federalState":{"key":"08","name":"Baden-Württemberg"}},{"name":"Reiterstr.","postalCode":"75031","locality":"Eppingen","municipality":{"key":"08125026","name":"Eppingen, Stadt","type":"Große_Kreisstadt"},"district":{"key":"08125","name":"Heilbronn","type":"Landkreis"},"federalState":{"key":"08","name":"Baden-Württemberg"}},{"name":"Richard-Wagner-Str.","postalCode":"75031","locality":"Eppingen","municipality":{"key":"08125026","name":"Eppingen, Stadt","type":"Große_Kreisstadt"},"district":{"key":"08125","name":"Heilbronn","type":"Landkreis"},"federalState":{"key":"08","name":"Baden-Württemberg"}},{"name":"Richener Str.","postalCode":"75031","locality":"Eppingen","municipality":{"key":"08125026","name":"Eppingen, Stadt","type":"Große_Kreisstadt"},"district":{"key":"08125","name":"Heilbronn","type":"Landkreis"},"federalState":{"key":"08","name":"Baden-Württemberg"}},{"name":"Richterstr.","postalCode":"75031","locality":"Eppingen","municipality":{"key":"08125026","name":"Eppingen, Stadt","type":"Große_Kreisstadt"},"district":{"key":"08125","name":"Heilbronn","type":"Landkreis"},"federalState":{"key":"08","name":"Baden-Württemberg"}},{"name":"Richtweg","postalCode":"75031","locality":"Eppingen","municipality":{"key":"08125026","name":"Eppingen, Stadt","type":"Große_Kreisstadt"},"district":{"key":"08125","name":"Heilbronn","type":"Landkreis"},"federalState":{"key":"08","name":"Baden-Württemberg"}},{"name":"Rieslingstr.","postalCode":"75031","locality":"Eppingen","municipality":{"key":"08125026","name":"Eppingen, Stadt","type":"Große_Kreisstadt"},"district":{"key":"08125","name":"Heilbronn","type":"Landkreis"},"federalState":{"key":"08","name":"Baden-Württemberg"}},{"name":"Ringstr.","postalCode":"75031","locality":"Eppingen","municipality":{"key":"08125026","name":"Eppingen, Stadt","type":"Große_Kreisstadt"},"district":{"key":"08125","name":"Heilbronn","type":"Landkreis"},"federalState":{"key":"08","name":"Baden-Württemberg"}},{"name":"Rohrbacher Str.","postalCode":"75031","locality":"Eppingen","municipality":{"key":"08125026","name":"Eppingen, Stadt","type":"Große_Kreisstadt"},"district":{"key":"08125","name":"Heilbronn","type":"Landkreis"},"federalState":{"key":"08","name":"Baden-Württemberg"}},{"name":"Röhrichstr.","postalCode":"75031","locality":"Eppingen","municipality":{"key":"08125026","name":"Eppingen, Stadt","type":"Große_Kreisstadt"},"district":{"key":"08125","name":"Heilbronn","type":"Landkreis"},"federalState":{"key":"08","name":"Baden-Württemberg"}},{"name":"Römerstr.","postalCode":"75031","locality":"Eppingen","municipality":{"key":"08125026","name":"Eppingen, Stadt","type":"Große_Kreisstadt"},"district":{"key":"08125","name":"Heilbronn","type":"Landkreis"},"federalState":{"key":"08","name":"Baden-Württemberg"}},{"name":"Rosenstr.","postalCode":"75031","locality":"Eppingen","municipality":{"key":"08125026","name":"Eppingen, Stadt","type":"Große_Kreisstadt"},"district":{"key":"08125","name":"Heilbronn","type":"Landkreis"},"federalState":{"key":"08","name":"Baden-Württemberg"}},{"name":"Roter Schneiderweg","postalCode":"75031","locality":"Eppingen","municipality":{"key":"08125026","name":"Eppingen, Stadt","type":"Große_Kreisstadt"},"district":{"key":"08125","name":"Heilbronn","type":"Landkreis"},"federalState":{"key":"08","name":"Baden-Württemberg"}},{"name":"Rottwaldstr.","postalCode":"75031","locality":"Eppingen","municipality":{"key":"08125026","name":"Eppingen, Stadt","type":"Große_Kreisstadt"},"district":{"key":"08125","name":"Heilbronn","type":"Landkreis"},"federalState":{"key":"08","name":"Baden-Württemberg"}},{"name":"Rückerstr.","postalCode":"75031","locality":"Eppingen","municipality":{"key":"08125026","name":"Eppingen, Stadt","type":"Große_Kreisstadt"},"district":{"key":"08125","name":"Heilbronn","type":"Landkreis"},"federalState":{"key":"08","name":"Baden-Württemberg"}},{"name":"Ruländerweg","postalCode":"75031","locality":"Eppingen","municipality":{"key":"08125026","name":"Eppingen, Stadt","type":"Große_Kreisstadt"},"district":{"key":"08125","name":"Heilbronn","type":"Landkreis"},"federalState":{"key":"08","name":"Baden-Württemberg"}},{"name":"Sandsteinpfad","postalCode":"75031","locality":"Eppingen","municipality":{"key":"08125026","name":"Eppingen, Stadt","type":"Große_Kreisstadt"},"district":{"key":"08125","name":"Heilbronn","type":"Landkreis"},"federalState":{"key":"08","name":"Baden-Württemberg"}},{"name":"Sankt-Peters-Gasse","postalCode":"75031","locality":"Eppingen","municipality":{"key":"08125026","name":"Eppingen, Stadt","type":"Große_Kreisstadt"},"district":{"key":"08125","name":"Heilbronn","type":"Landkreis"},"federalState":{"key":"08","name":"Baden-Württemberg"}},{"name":"Schachtstr.","postalCode":"75031","locality":"Eppingen","municipality":{"key":"08125026","name":"Eppingen, Stadt","type":"Große_Kreisstadt"},"district":{"key":"08125","name":"Heilbronn","type":"Landkreis"},"federalState":{"key":"08","name":"Baden-Württemberg"}},{"name":"Schafbergring","postalCode":"75031","locality":"Eppingen","municipality":{"key":"08125026","name":"Eppingen, Stadt","type":"Große_Kreisstadt"},"district":{"key":"08125","name":"Heilbronn","type":"Landkreis"},"federalState":{"key":"08","name":"Baden-Württemberg"}},{"name":"Schafgärten","postalCode":"75031","locality":"Eppingen","municipality":{"key":"08125026","name":"Eppingen, Stadt","type":"Große_Kreisstadt"},"district":{"key":"08125","name":"Heilbronn","type":"Landkreis"},"federalState":{"key":"08","name":"Baden-Württemberg"}},{"name":"Schafhausgasse","postalCode":"75031","locality":"Eppingen","municipality":{"key":"08125026","name":"Eppingen, Stadt","type":"Große_Kreisstadt"},"district":{"key":"08125","name":"Heilbronn","type":"Landkreis"},"federalState":{"key":"08","name":"Baden-Württemberg"}},{"name":"Schalksgasse","postalCode":"75031","locality":"Eppingen","municipality":{"key":"08125026","name":"Eppingen, Stadt","type":"Große_Kreisstadt"},"district":{"key":"08125","name":"Heilbronn","type":"Landkreis"},"federalState":{"key":"08","name":"Baden-Württemberg"}},{"name":"Schanzweg","postalCode":"75031","locality":"Eppingen","municipality":{"key":"08125026","name":"Eppingen, Stadt","type":"Große_Kreisstadt"},"district":{"key":"08125","name":"Heilbronn","type":"Landkreis"},"federalState":{"key":"08","name":"Baden-Württemberg"}},{"name":"Scheffelstr.","postalCode":"75031","locality":"Eppingen","municipality":{"key":"08125026","name":"Eppingen, Stadt","type":"Große_Kreisstadt"},"district":{"key":"08125","name":"Heilbronn","type":"Landkreis"},"federalState":{"key":"08","name":"Baden-Württemberg"}},{"name":"Schelmenrain","postalCode":"75031","locality":"Eppingen","municipality":{"key":"08125026","name":"Eppingen, Stadt","type":"Große_Kreisstadt"},"district":{"key":"08125","name":"Heilbronn","type":"Landkreis"},"federalState":{"key":"08","name":"Baden-Württemberg"}},{"name":"Scheuerlesstr.","postalCode":"75031","locality":"Eppingen","municipality":{"key":"08125026","name":"Eppingen, Stadt","type":"Große_Kreisstadt"},"district":{"key":"08125","name":"Heilbronn","type":"Landkreis"},"federalState":{"key":"08","name":"Baden-Württemberg"}},{"name":"Scheufelesbergweg","postalCode":"75031","locality":"Eppingen","municipality":{"key":"08125026","name":"Eppingen, Stadt","type":"Große_Kreisstadt"},"district":{"key":"08125","name":"Heilbronn","type":"Landkreis"},"federalState":{"key":"08","name":"Baden-Württemberg"}},{"name":"Schillerstr.","postalCode":"75031","locality":"Eppingen","municipality":{"key":"08125026","name":"Eppingen, Stadt","type":"Große_Kreisstadt"},"district":{"key":"08125","name":"Heilbronn","type":"Landkreis"},"federalState":{"key":"08","name":"Baden-Württemberg"}},{"name":"Schimmelesweg","postalCode":"75031","locality":"Eppingen","municipality":{"key":"08125026","name":"Eppingen, Stadt","type":"Große_Kreisstadt"},"district":{"key":"08125","name":"Heilbronn","type":"Landkreis"},"federalState":{"key":"08","name":"Baden-Württemberg"}},{"name":"Schlettichsteige","postalCode":"75031","locality":"Eppingen","municipality":{"key":"08125026","name":"Eppingen, Stadt","type":"Große_Kreisstadt"},"district":{"key":"08125","name":"Heilbronn","type":"Landkreis"},"federalState":{"key":"08","name":"Baden-Württemberg"}},{"name":"Schlettichweg","postalCode":"75031","locality":"Eppingen","municipality":{"key":"08125026","name":"Eppingen, Stadt","type":"Große_Kreisstadt"},"district":{"key":"08125","name":"Heilbronn","type":"Landkreis"},"federalState":{"key":"08","name":"Baden-Württemberg"}},{"name":"Schlierbach","postalCode":"75031","locality":"Eppingen","municipality":{"key":"08125026","name":"Eppingen, Stadt","type":"Große_Kreisstadt"},"district":{"key":"08125","name":"Heilbronn","type":"Landkreis"},"federalState":{"key":"08","name":"Baden-Württemberg"}},{"name":"Schlossberg","postalCode":"75031","locality":"Eppingen","municipality":{"key":"08125026","name":"Eppingen, Stadt","type":"Große_Kreisstadt"},"district":{"key":"08125","name":"Heilbronn","type":"Landkreis"},"federalState":{"key":"08","name":"Baden-Württemberg"}},{"name":"Schlossgartenstr.","postalCode":"75031","locality":"Eppingen","municipality":{"key":"08125026","name":"Eppingen, Stadt","type":"Große_Kreisstadt"},"district":{"key":"08125","name":"Heilbronn","type":"Landkreis"},"federalState":{"key":"08","name":"Baden-Württemberg"}},{"name":"Schloßwiesen","postalCode":"75031","locality":"Eppingen","municipality":{"key":"08125026","name":"Eppingen, Stadt","type":"Große_Kreisstadt"},"district":{"key":"08125","name":"Heilbronn","type":"Landkreis"},"federalState":{"key":"08","name":"Baden-Württemberg"}},{"name":"Schubertstr.","postalCode":"75031","locality":"Eppingen","municipality":{"key":"08125026","name":"Eppingen, Stadt","type":"Große_Kreisstadt"},"district":{"key":"08125","name":"Heilbronn","type":"Landkreis"},"federalState":{"key":"08","name":"Baden-Württemberg"}},{"name":"Schulpfad","postalCode":"75031","locality":"Eppingen","municipality":{"key":"08125026","name":"Eppingen, Stadt","type":"Große_Kreisstadt"},"district":{"key":"08125","name":"Heilbronn","type":"Landkreis"},"federalState":{"key":"08","name":"Baden-Württemberg"}},{"name":"Schulstr.","postalCode":"75031","locality":"Eppingen","municipality":{"key":"08125026","name":"Eppingen, Stadt","type":"Große_Kreisstadt"},"district":{"key":"08125","name":"Heilbronn","type":"Landkreis"},"federalState":{"key":"08","name":"Baden-Württemberg"}},{"name":"Schulwiesenweg","postalCode":"75031","locality":"Eppingen","municipality":{"key":"08125026","name":"Eppingen, Stadt","type":"Große_Kreisstadt"},"district":{"key":"08125","name":"Heilbronn","type":"Landkreis"},"federalState":{"key":"08","name":"Baden-Württemberg"}},{"name":"Schwanenweg","postalCode":"75031","locality":"Eppingen","municipality":{"key":"08125026","name":"Eppingen, Stadt","type":"Große_Kreisstadt"},"district":{"key":"08125","name":"Heilbronn","type":"Landkreis"},"federalState":{"key":"08","name":"Baden-Württemberg"}},{"name":"Schweriner Str.","postalCode":"75031","locality":"Eppingen","municipality":{"key":"08125026","name":"Eppingen, Stadt","type":"Große_Kreisstadt"},"district":{"key":"08125","name":"Heilbronn","type":"Landkreis"},"federalState":{"key":"08","name":"Baden-Württemberg"}},{"name":"Seebachtalweg","postalCode":"75031","locality":"Eppingen","municipality":{"key":"08125026","name":"Eppingen, Stadt","type":"Große_Kreisstadt"},"district":{"key":"08125","name":"Heilbronn","type":"Landkreis"},"federalState":{"key":"08","name":"Baden-Württemberg"}},{"name":"Seestr.","postalCode":"75031","locality":"Eppingen","municipality":{"key":"08125026","name":"Eppingen, Stadt","type":"Große_Kreisstadt"},"district":{"key":"08125","name":"Heilbronn","type":"Landkreis"},"federalState":{"key":"08","name":"Baden-Württemberg"}},{"name":"Seewaldstr.","postalCode":"75031","locality":"Eppingen","municipality":{"key":"08125026","name":"Eppingen, Stadt","type":"Große_Kreisstadt"},"district":{"key":"08125","name":"Heilbronn","type":"Landkreis"},"federalState":{"key":"08","name":"Baden-Württemberg"}},{"name":"Silcherstr.","postalCode":"75031","locality":"Eppingen","municipality":{"key":"08125026","name":"Eppingen, Stadt","type":"Große_Kreisstadt"},"district":{"key":"08125","name":"Heilbronn","type":"Landkreis"},"federalState":{"key":"08","name":"Baden-Württemberg"}},{"name":"Silvanerweg","postalCode":"75031","locality":"Eppingen","municipality":{"key":"08125026","name":"Eppingen, Stadt","type":"Große_Kreisstadt"},"district":{"key":"08125","name":"Heilbronn","type":"Landkreis"},"federalState":{"key":"08","name":"Baden-Württemberg"}},{"name":"Sinsenteichweg","postalCode":"75031","locality":"Eppingen","municipality":{"key":"08125026","name":"Eppingen, Stadt","type":"Große_Kreisstadt"},"district":{"key":"08125","name":"Heilbronn","type":"Landkreis"},"federalState":{"key":"08","name":"Baden-Württemberg"}},{"name":"Sinsheimer Str.","postalCode":"75031","locality":"Eppingen","municipality":{"key":"08125026","name":"Eppingen, Stadt","type":"Große_Kreisstadt"},"district":{"key":"08125","name":"Heilbronn","type":"Landkreis"},"federalState":{"key":"08","name":"Baden-Württemberg"}},{"name":"Sommergrabenweg","postalCode":"75031","locality":"Eppingen","municipality":{"key":"08125026","name":"Eppingen, Stadt","type":"Große_Kreisstadt"},"district":{"key":"08125","name":"Heilbronn","type":"Landkreis"},"federalState":{"key":"08","name":"Baden-Württemberg"}},{"name":"Sommerweg","postalCode":"75031","locality":"Eppingen","municipality":{"key":"08125026","name":"Eppingen, Stadt","type":"Große_Kreisstadt"},"district":{"key":"08125","name":"Heilbronn","type":"Landkreis"},"federalState":{"key":"08","name":"Baden-Württemberg"}},{"name":"Sonnengasse","postalCode":"75031","locality":"Eppingen","municipality":{"key":"08125026","name":"Eppingen, Stadt","type":"Große_Kreisstadt"},"district":{"key":"08125","name":"Heilbronn","type":"Landkreis"},"federalState":{"key":"08","name":"Baden-Württemberg"}},{"name":"Spechtstr.","postalCode":"75031","locality":"Eppingen","municipality":{"key":"08125026","name":"Eppingen, Stadt","type":"Große_Kreisstadt"},"district":{"key":"08125","name":"Heilbronn","type":"Landkreis"},"federalState":{"key":"08","name":"Baden-Württemberg"}},{"name":"Spenglerstr.","postalCode":"75031","locality":"Eppingen","municipality":{"key":"08125026","name":"Eppingen, Stadt","type":"Große_Kreisstadt"},"district":{"key":"08125","name":"Heilbronn","type":"Landkreis"},"federalState":{"key":"08","name":"Baden-Württemberg"}},{"name":"Sperbelgartenstr.","postalCode":"75031","locality":"Eppingen","municipality":{"key":"08125026","name":"Eppingen, Stadt","type":"Große_Kreisstadt"},"district":{"key":"08125","name":"Heilbronn","type":"Landkreis"},"federalState":{"key":"08","name":"Baden-Württemberg"}},{"name":"Speyerer Str.","postalCode":"75031","locality":"Eppingen","municipality":{"key":"08125026","name":"Eppingen, Stadt","type":"Große_Kreisstadt"},"district":{"key":"08125","name":"Heilbronn","type":"Landkreis"},"federalState":{"key":"08","name":"Baden-Württemberg"}},{"name":"Speyerer Weg","postalCode":"75031","locality":"Eppingen","municipality":{"key":"08125026","name":"Eppingen, Stadt","type":"Große_Kreisstadt"},"district":{"key":"08125","name":"Heilbronn","type":"Landkreis"},"federalState":{"key":"08","name":"Baden-Württemberg"}},{"name":"Spitzäcker","postalCode":"75031","locality":"Eppingen","municipality":{"key":"08125026","name":"Eppingen, Stadt","type":"Große_Kreisstadt"},"district":{"key":"08125","name":"Heilbronn","type":"Landkreis"},"federalState":{"key":"08","name":"Baden-Württemberg"}},{"name":"Spitzgärten","postalCode":"75031","locality":"Eppingen","municipality":{"key":"08125026","name":"Eppingen, Stadt","type":"Große_Kreisstadt"},"district":{"key":"08125","name":"Heilbronn","type":"Landkreis"},"federalState":{"key":"08","name":"Baden-Württemberg"}},{"name":"Sportplatzweg","postalCode":"75031","locality":"Eppingen","municipality":{"key":"08125026","name":"Eppingen, Stadt","type":"Große_Kreisstadt"},"district":{"key":"08125","name":"Heilbronn","type":"Landkreis"},"federalState":{"key":"08","name":"Baden-Württemberg"}},{"name":"Stadtwinkel","postalCode":"75031","locality":"Eppingen","municipality":{"key":"08125026","name":"Eppingen, Stadt","type":"Große_Kreisstadt"},"district":{"key":"08125","name":"Heilbronn","type":"Landkreis"},"federalState":{"key":"08","name":"Baden-Württemberg"}},{"name":"standstreifen","postalCode":"75031","locality":"Eppingen","municipality":{"key":"08125026","name":"Eppingen, Stadt","type":"Große_Kreisstadt"},"district":{"key":"08125","name":"Heilbronn","type":"Landkreis"},"federalState":{"key":"08","name":"Baden-Württemberg"}},{"name":"Stebbacher Str.","postalCode":"75031","locality":"Eppingen","municipality":{"key":"08125026","name":"Eppingen, Stadt","type":"Große_Kreisstadt"},"district":{"key":"08125","name":"Heilbronn","type":"Landkreis"},"federalState":{"key":"08","name":"Baden-Württemberg"}},{"name":"Steige","postalCode":"75031","locality":"Eppingen","municipality":{"key":"08125026","name":"Eppingen, Stadt","type":"Große_Kreisstadt"},"district":{"key":"08125","name":"Heilbronn","type":"Landkreis"},"federalState":{"key":"08","name":"Baden-Württemberg"}},{"name":"Steinbruchweg","postalCode":"75031","locality":"Eppingen","municipality":{"key":"08125026","name":"Eppingen, Stadt","type":"Große_Kreisstadt"},"district":{"key":"08125","name":"Heilbronn","type":"Landkreis"},"federalState":{"key":"08","name":"Baden-Württemberg"}},{"name":"Steinsfeldle","postalCode":"75031","locality":"Eppingen","municipality":{"key":"08125026","name":"Eppingen, Stadt","type":"Große_Kreisstadt"},"district":{"key":"08125","name":"Heilbronn","type":"Landkreis"},"federalState":{"key":"08","name":"Baden-Württemberg"}},{"name":"Talstr.","postalCode":"75031","locality":"Eppingen","municipality":{"key":"08125026","name":"Eppingen, Stadt","type":"Große_Kreisstadt"},"district":{"key":"08125","name":"Heilbronn","type":"Landkreis"},"federalState":{"key":"08","name":"Baden-Württemberg"}},{"name":"Teufelsgrundweg","postalCode":"75031","locality":"Eppingen","municipality":{"key":"08125026","name":"Eppingen, Stadt","type":"Große_Kreisstadt"},"district":{"key":"08125","name":"Heilbronn","type":"Landkreis"},"federalState":{"key":"08","name":"Baden-Württemberg"}},{"name":"Theodor-Fliedner-Weg","postalCode":"75031","locality":"Eppingen","municipality":{"key":"08125026","name":"Eppingen, Stadt","type":"Große_Kreisstadt"},"district":{"key":"08125","name":"Heilbronn","type":"Landkreis"},"federalState":{"key":"08","name":"Baden-Württemberg"}},{"name":"Theodor-Heuss-Str.","postalCode":"75031","locality":"Eppingen","municipality":{"key":"08125026","name":"Eppingen, Stadt","type":"Große_Kreisstadt"},"district":{"key":"08125","name":"Heilbronn","type":"Landkreis"},"federalState":{"key":"08","name":"Baden-Württemberg"}},{"name":"Theodor-Storm-Str.","postalCode":"75031","locality":"Eppingen","municipality":{"key":"08125026","name":"Eppingen, Stadt","type":"Große_Kreisstadt"},"district":{"key":"08125","name":"Heilbronn","type":"Landkreis"},"federalState":{"key":"08","name":"Baden-Württemberg"}},{"name":"Torgasse","postalCode":"75031","locality":"Eppingen","municipality":{"key":"08125026","name":"Eppingen, Stadt","type":"Große_Kreisstadt"},"district":{"key":"08125","name":"Heilbronn","type":"Landkreis"},"federalState":{"key":"08","name":"Baden-Württemberg"}},{"name":"Traminerweg","postalCode":"75031","locality":"Eppingen","municipality":{"key":"08125026","name":"Eppingen, Stadt","type":"Große_Kreisstadt"},"district":{"key":"08125","name":"Heilbronn","type":"Landkreis"},"federalState":{"key":"08","name":"Baden-Württemberg"}},{"name":"Traufweg","postalCode":"75031","locality":"Eppingen","municipality":{"key":"08125026","name":"Eppingen, Stadt","type":"Große_Kreisstadt"},"district":{"key":"08125","name":"Heilbronn","type":"Landkreis"},"federalState":{"key":"08","name":"Baden-Württemberg"}},{"name":"Trollingerweg","postalCode":"75031","locality":"Eppingen","municipality":{"key":"08125026","name":"Eppingen, Stadt","type":"Große_Kreisstadt"},"district":{"key":"08125","name":"Heilbronn","type":"Landkreis"},"federalState":{"key":"08","name":"Baden-Württemberg"}},{"name":"Tullastr.","postalCode":"75031","locality":"Eppingen","municipality":{"key":"08125026","name":"Eppingen, Stadt","type":"Große_Kreisstadt"},"district":{"key":"08125","name":"Heilbronn","type":"Landkreis"},"federalState":{"key":"08","name":"Baden-Württemberg"}},{"name":"Tulpenstr.","postalCode":"75031","locality":"Eppingen","municipality":{"key":"08125026","name":"Eppingen, Stadt","type":"Große_Kreisstadt"},"district":{"key":"08125","name":"Heilbronn","type":"Landkreis"},"federalState":{"key":"08","name":"Baden-Württemberg"}},{"name":"Türmle","postalCode":"75031","locality":"Eppingen","municipality":{"key":"08125026","name":"Eppingen, Stadt","type":"Große_Kreisstadt"},"district":{"key":"08125","name":"Heilbronn","type":"Landkreis"},"federalState":{"key":"08","name":"Baden-Württemberg"}},{"name":"Uhlandstr.","postalCode":"75031","locality":"Eppingen","municipality":{"key":"08125026","name":"Eppingen, Stadt","type":"Große_Kreisstadt"},"district":{"key":"08125","name":"Heilbronn","type":"Landkreis"},"federalState":{"key":"08","name":"Baden-Württemberg"}},{"name":"Ulmenweg","postalCode":"75031","locality":"Eppingen","municipality":{"key":"08125026","name":"Eppingen, Stadt","type":"Große_Kreisstadt"},"district":{"key":"08125","name":"Heilbronn","type":"Landkreis"},"federalState":{"key":"08","name":"Baden-Württemberg"}},{"name":"Unter der Steig","postalCode":"75031","locality":"Eppingen","municipality":{"key":"08125026","name":"Eppingen, Stadt","type":"Große_Kreisstadt"},"district":{"key":"08125","name":"Heilbronn","type":"Landkreis"},"federalState":{"key":"08","name":"Baden-Württemberg"}},{"name":"Unterdorfstr.","postalCode":"75031","locality":"Eppingen","municipality":{"key":"08125026","name":"Eppingen, Stadt","type":"Große_Kreisstadt"},"district":{"key":"08125","name":"Heilbronn","type":"Landkreis"},"federalState":{"key":"08","name":"Baden-Württemberg"}},{"name":"Untere Gasse","postalCode":"75031","locality":"Eppingen","municipality":{"key":"08125026","name":"Eppingen, Stadt","type":"Große_Kreisstadt"},"district":{"key":"08125","name":"Heilbronn","type":"Landkreis"},"federalState":{"key":"08","name":"Baden-Württemberg"}},{"name":"Unterer Bachweg","postalCode":"75031","locality":"Eppingen","municipality":{"key":"08125026","name":"Eppingen, Stadt","type":"Große_Kreisstadt"},"district":{"key":"08125","name":"Heilbronn","type":"Landkreis"},"federalState":{"key":"08","name":"Baden-Württemberg"}},{"name":"Unterer Hagwaldweg","postalCode":"75031","locality":"Eppingen","municipality":{"key":"08125026","name":"Eppingen, Stadt","type":"Große_Kreisstadt"},"district":{"key":"08125","name":"Heilbronn","type":"Landkreis"},"federalState":{"key":"08","name":"Baden-Württemberg"}},{"name":"Veilchenstr.","postalCode":"75031","locality":"Eppingen","municipality":{"key":"08125026","name":"Eppingen, Stadt","type":"Große_Kreisstadt"},"district":{"key":"08125","name":"Heilbronn","type":"Landkreis"},"federalState":{"key":"08","name":"Baden-Württemberg"}},{"name":"Verbindungsweg","postalCode":"75031","locality":"Eppingen","municipality":{"key":"08125026","name":"Eppingen, Stadt","type":"Große_Kreisstadt"},"district":{"key":"08125","name":"Heilbronn","type":"Landkreis"},"federalState":{"key":"08","name":"Baden-Württemberg"}},{"name":"Vierordtstr.","postalCode":"75031","locality":"Eppingen","municipality":{"key":"08125026","name":"Eppingen, Stadt","type":"Große_Kreisstadt"},"district":{"key":"08125","name":"Heilbronn","type":"Landkreis"},"federalState":{"key":"08","name":"Baden-Württemberg"}},{"name":"Vogelherdweg","postalCode":"75031","locality":"Eppingen","municipality":{"key":"08125026","name":"Eppingen, Stadt","type":"Große_Kreisstadt"},"district":{"key":"08125","name":"Heilbronn","type":"Landkreis"},"federalState":{"key":"08","name":"Baden-Württemberg"}},{"name":"Vogelsbergstr.","postalCode":"75031","locality":"Eppingen","municipality":{"key":"08125026","name":"Eppingen, Stadt","type":"Große_Kreisstadt"},"district":{"key":"08125","name":"Heilbronn","type":"Landkreis"},"federalState":{"key":"08","name":"Baden-Württemberg"}},{"name":"Vogelsteige","postalCode":"75031","locality":"Eppingen","municipality":{"key":"08125026","name":"Eppingen, Stadt","type":"Große_Kreisstadt"},"district":{"key":"08125","name":"Heilbronn","type":"Landkreis"},"federalState":{"key":"08","name":"Baden-Württemberg"}},{"name":"Vorstädter Brücke","postalCode":"75031","locality":"Eppingen","municipality":{"key":"08125026","name":"Eppingen, Stadt","type":"Große_Kreisstadt"},"district":{"key":"08125","name":"Heilbronn","type":"Landkreis"},"federalState":{"key":"08","name":"Baden-Württemberg"}},{"name":"Waldenburger Str.","postalCode":"75031","locality":"Eppingen","municipality":{"key":"08125026","name":"Eppingen, Stadt","type":"Große_Kreisstadt"},"district":{"key":"08125","name":"Heilbronn","type":"Landkreis"},"federalState":{"key":"08","name":"Baden-Württemberg"}},{"name":"Walder-Weissert-Str.","postalCode":"75031","locality":"Eppingen","municipality":{"key":"08125026","name":"Eppingen, Stadt","type":"Große_Kreisstadt"},"district":{"key":"08125","name":"Heilbronn","type":"Landkreis"},"federalState":{"key":"08","name":"Baden-Württemberg"}},{"name":"Waldstr.","postalCode":"75031","locality":"Eppingen","municipality":{"key":"08125026","name":"Eppingen, Stadt","type":"Große_Kreisstadt"},"district":{"key":"08125","name":"Heilbronn","type":"Landkreis"},"federalState":{"key":"08","name":"Baden-Württemberg"}},{"name":"Wartbergstr.","postalCode":"75031","locality":"Eppingen","municipality":{"key":"08125026","name":"Eppingen, Stadt","type":"Große_Kreisstadt"},"district":{"key":"08125","name":"Heilbronn","type":"Landkreis"},"federalState":{"key":"08","name":"Baden-Württemberg"}},{"name":"Wassy-Platz","postalCode":"75031","locality":"Eppingen","municipality":{"key":"08125026","name":"Eppingen, Stadt","type":"Große_Kreisstadt"},"district":{"key":"08125","name":"Heilbronn","type":"Landkreis"},"federalState":{"key":"08","name":"Baden-Württemberg"}},{"name":"Weberstr.","postalCode":"75031","locality":"Eppingen","municipality":{"key":"08125026","name":"Eppingen, Stadt","type":"Große_Kreisstadt"},"district":{"key":"08125","name":"Heilbronn","type":"Landkreis"},"federalState":{"key":"08","name":"Baden-Württemberg"}},{"name":"Weilerstr.","postalCode":"75031","locality":"Eppingen","municipality":{"key":"08125026","name":"Eppingen, Stadt","type":"Große_Kreisstadt"},"district":{"key":"08125","name":"Heilbronn","type":"Landkreis"},"federalState":{"key":"08","name":"Baden-Württemberg"}},{"name":"Weimarer Str.","postalCode":"75031","locality":"Eppingen","municipality":{"key":"08125026","name":"Eppingen, Stadt","type":"Große_Kreisstadt"},"district":{"key":"08125","name":"Heilbronn","type":"Landkreis"},"federalState":{"key":"08","name":"Baden-Württemberg"}},{"name":"Weinbergweg","postalCode":"75031","locality":"Eppingen","municipality":{"key":"08125026","name":"Eppingen, Stadt","type":"Große_Kreisstadt"},"district":{"key":"08125","name":"Heilbronn","type":"Landkreis"},"federalState":{"key":"08","name":"Baden-Württemberg"}},{"name":"Weinbrennerstr.","postalCode":"75031","locality":"Eppingen","municipality":{"key":"08125026","name":"Eppingen, Stadt","type":"Große_Kreisstadt"},"district":{"key":"08125","name":"Heilbronn","type":"Landkreis"},"federalState":{"key":"08","name":"Baden-Württemberg"}},{"name":"Weisenbergstr.","postalCode":"75031","locality":"Eppingen","municipality":{"key":"08125026","name":"Eppingen, Stadt","type":"Große_Kreisstadt"},"district":{"key":"08125","name":"Heilbronn","type":"Landkreis"},"federalState":{"key":"08","name":"Baden-Württemberg"}},{"name":"Weisenwiesen","postalCode":"75031","locality":"Eppingen","municipality":{"key":"08125026","name":"Eppingen, Stadt","type":"Große_Kreisstadt"},"district":{"key":"08125","name":"Heilbronn","type":"Landkreis"},"federalState":{"key":"08","name":"Baden-Württemberg"}},{"name":"Westtangente","postalCode":"75031","locality":"Eppingen","municipality":{"key":"08125026","name":"Eppingen, Stadt","type":"Große_Kreisstadt"},"district":{"key":"08125","name":"Heilbronn","type":"Landkreis"},"federalState":{"key":"08","name":"Baden-Württemberg"}},{"name":"Wiechertstr.","postalCode":"75031","locality":"Eppingen","municipality":{"key":"08125026","name":"Eppingen, Stadt","type":"Große_Kreisstadt"},"district":{"key":"08125","name":"Heilbronn","type":"Landkreis"},"federalState":{"key":"08","name":"Baden-Württemberg"}},{"name":"Wiesenstr.","postalCode":"75031","locality":"Eppingen","municipality":{"key":"08125026","name":"Eppingen, Stadt","type":"Große_Kreisstadt"},"district":{"key":"08125","name":"Heilbronn","type":"Landkreis"},"federalState":{"key":"08","name":"Baden-Württemberg"}},{"name":"Wilhelm-August-Kirsch-Str.","postalCode":"75031","locality":"Eppingen","municipality":{"key":"08125026","name":"Eppingen, Stadt","type":"Große_Kreisstadt"},"district":{"key":"08125","name":"Heilbronn","type":"Landkreis"},"federalState":{"key":"08","name":"Baden-Württemberg"}},{"name":"Wilhelm-Frank-Str.","postalCode":"75031","locality":"Eppingen","municipality":{"key":"08125026","name":"Eppingen, Stadt","type":"Große_Kreisstadt"},"district":{"key":"08125","name":"Heilbronn","type":"Landkreis"},"federalState":{"key":"08","name":"Baden-Württemberg"}},{"name":"Wilhelmstr.","postalCode":"75031","locality":"Eppingen","municipality":{"key":"08125026","name":"Eppingen, Stadt","type":"Große_Kreisstadt"},"district":{"key":"08125","name":"Heilbronn","type":"Landkreis"},"federalState":{"key":"08","name":"Baden-Württemberg"}},{"name":"Willi-Häcker-Str.","postalCode":"75031","locality":"Eppingen","municipality":{"key":"08125026","name":"Eppingen, Stadt","type":"Große_Kreisstadt"},"district":{"key":"08125","name":"Heilbronn","type":"Landkreis"},"federalState":{"key":"08","name":"Baden-Württemberg"}},{"name":"Winterhäldestr.","postalCode":"75031","locality":"Eppingen","municipality":{"key":"08125026","name":"Eppingen, Stadt","type":"Große_Kreisstadt"},"district":{"key":"08125","name":"Heilbronn","type":"Landkreis"},"federalState":{"key":"08","name":"Baden-Württemberg"}},{"name":"Wolferstr.","postalCode":"75031","locality":"Eppingen","municipality":{"key":"08125026","name":"Eppingen, Stadt","type":"Große_Kreisstadt"},"district":{"key":"08125","name":"Heilbronn","type":"Landkreis"},"federalState":{"key":"08","name":"Baden-Württemberg"}},{"name":"Wolfertstalstr.","postalCode":"75031","locality":"Eppingen","municipality":{"key":"08125026","name":"Eppingen, Stadt","type":"Große_Kreisstadt"},"district":{"key":"08125","name":"Heilbronn","type":"Landkreis"},"federalState":{"key":"08","name":"Baden-Württemberg"}},{"name":"Wolfsbergstr.","postalCode":"75031","locality":"Eppingen","municipality":{"key":"08125026","name":"Eppingen, Stadt","type":"Große_Kreisstadt"},"district":{"key":"08125","name":"Heilbronn","type":"Landkreis"},"federalState":{"key":"08","name":"Baden-Württemberg"}},{"name":"Wolfsgasse","postalCode":"75031","locality":"Eppingen","municipality":{"key":"08125026","name":"Eppingen, Stadt","type":"Große_Kreisstadt"},"district":{"key":"08125","name":"Heilbronn","type":"Landkreis"},"federalState":{"key":"08","name":"Baden-Württemberg"}},{"name":"Zabergäustr.","postalCode":"75031","locality":"Eppingen","municipality":{"key":"08125026","name":"Eppingen, Stadt","type":"Große_Kreisstadt"},"district":{"key":"08125","name":"Heilbronn","type":"Landkreis"},"federalState":{"key":"08","name":"Baden-Württemberg"}},{"name":"Zehntgasse","postalCode":"75031","locality":"Eppingen","municipality":{"key":"08125026","name":"Eppingen, Stadt","type":"Große_Kreisstadt"},"district":{"key":"08125","name":"Heilbronn","type":"Landkreis"},"federalState":{"key":"08","name":"Baden-Württemberg"}},{"name":"Zeppelinstr.","postalCode":"75031","locality":"Eppingen","municipality":{"key":"08125026","name":"Eppingen, Stadt","type":"Große_Kreisstadt"},"district":{"key":"08125","name":"Heilbronn","type":"Landkreis"},"federalState":{"key":"08","name":"Baden-Württemberg"}},{"name":"Zollstockweg","postalCode":"75031","locality":"Eppingen","municipality":{"key":"08125026","name":"Eppingen, Stadt","type":"Große_Kreisstadt"},"district":{"key":"08125","name":"Heilbronn","type":"Landkreis"},"federalState":{"key":"08","name":"Baden-Württemberg"}},{"name":"Zunfthausgasse","postalCode":"75031","locality":"Eppingen","municipality":{"key":"08125026","name":"Eppingen, Stadt","type":"Große_Kreisstadt"},"district":{"key":"08125","name":"Heilbronn","type":"Landkreis"},"federalState":{"key":"08","name":"Baden-Württemberg"}},{"name":"Zur Waldhohl","postalCode":"75031","locality":"Eppingen","municipality":{"key":"08125026","name":"Eppingen, Stadt","type":"Große_Kreisstadt"},"district":{"key":"08125","name":"Heilbronn","type":"Landkreis"},"federalState":{"key":"08","name":"Baden-Württemberg"}},{"name":"Zwinger","postalCode":"75031","locality":"Eppingen","municipality":{"key":"08125026","name":"Eppingen, Stadt","type":"Große_Kreisstadt"},"district":{"key":"08125","name":"Heilbronn","type":"Landkreis"},"federalState":{"key":"08","name":"Baden-Württemberg"}},{"name":"Zwingergasse","postalCode":"75031","locality":"Eppingen","municipality":{"key":"08125026","name":"Eppingen, Stadt","type":"Große_Kreisstadt"},"district":{"key":"08125","name":"Heilbronn","type":"Landkreis"},"federalState":{"key":"08","name":"Baden-Württemberg"}},{"name":"Äußere Mausklinge","postalCode":"74074","locality":"Heilbronn","municipality":{"key":"08121000","name":"Heilbronn, Universitätsstadt","type":"Stadtkreis"},"district":{"key":"08121","name":"Heilbronn, Stadtkreis","type":"Stadtkreis"},"federalState":{"key":"08","name":"Baden-Württemberg"}},{"name":"Äußerer Steinweg","postalCode":"74074","locality":"Heilbronn","municipality":{"key":"08121000","name":"Heilbronn, Universitätsstadt","type":"Stadtkreis"},"district":{"key":"08121","name":"Heilbronn, Stadtkreis","type":"Stadtkreis"},"federalState":{"key":"08","name":"Baden-Württemberg"}},{"name":"Ölgasse","postalCode":"75031","locality":"Eppingen","municipality":{"key":"08125026","name":"Eppingen, Stadt","type":"Große_Kreisstadt"},"district":{"key":"08125","name":"Heilbronn","type":"Landkreis"},"federalState":{"key":"08","name":"Baden-Württemberg"}},{"name":"Ölmühlstr.","postalCode":"75031","locality":"Eppingen","municipality":{"key":"08125026","name":"Eppingen, Stadt","type":"Große_Kreisstadt"},"district":{"key":"08125","name":"Heilbronn","type":"Landkreis"},"federalState":{"key":"08","name":"Baden-Württemberg"}},]