[{"name":"Alt Thymer Str.","postalCode":"17237","locality":"Wokuhl-Dabelow","municipality":{"key":"13071162","name":"Wokuhl-Dabelow","type":"Kreisangehörige_Gemeinde"},"district":{"key":"13071","name":"Mecklenburgische Seenplatte","type":"Landkreis"},"federalState":{"key":"13","name":"Mecklenburg-Vorpommern"}},{"name":"Am Blauen See","postalCode":"19406","locality":"Dabel","municipality":{"key":"13076026","name":"Dabel","type":"Kreisangehörige_Gemeinde"},"district":{"key":"13076","name":"Ludwigslust-Parchim","type":"Landkreis"},"federalState":{"key":"13","name":"Mecklenburg-Vorpommern"}},{"name":"Am Brink","postalCode":"17237","locality":"Wokuhl-Dabelow","municipality":{"key":"13071162","name":"Wokuhl-Dabelow","type":"Kreisangehörige_Gemeinde"},"district":{"key":"13071","name":"Mecklenburgische Seenplatte","type":"Landkreis"},"federalState":{"key":"13","name":"Mecklenburg-Vorpommern"}},{"name":"Am Dorfe","postalCode":"19406","locality":"Dabel","municipality":{"key":"13076026","name":"Dabel","type":"Kreisangehörige_Gemeinde"},"district":{"key":"13076","name":"Ludwigslust-Parchim","type":"Landkreis"},"federalState":{"key":"13","name":"Mecklenburg-Vorpommern"}},{"name":"Am Mattenstieg","postalCode":"19406","locality":"Dabel","municipality":{"key":"13076026","name":"Dabel","type":"Kreisangehörige_Gemeinde"},"district":{"key":"13076","name":"Ludwigslust-Parchim","type":"Landkreis"},"federalState":{"key":"13","name":"Mecklenburg-Vorpommern"}},{"name":"An der Mühle","postalCode":"17237","locality":"Wokuhl-Dabelow","municipality":{"key":"13071162","name":"Wokuhl-Dabelow","type":"Kreisangehörige_Gemeinde"},"district":{"key":"13071","name":"Mecklenburgische Seenplatte","type":"Landkreis"},"federalState":{"key":"13","name":"Mecklenburg-Vorpommern"}},{"name":"Ausbau","postalCode":"19406","locality":"Dabel","municipality":{"key":"13076026","name":"Dabel","type":"Kreisangehörige_Gemeinde"},"district":{"key":"13076","name":"Ludwigslust-Parchim","type":"Landkreis"},"federalState":{"key":"13","name":"Mecklenburg-Vorpommern"}},{"name":"Bahnhofstr.","postalCode":"19406","locality":"Dabel","municipality":{"key":"13076026","name":"Dabel","type":"Kreisangehörige_Gemeinde"},"district":{"key":"13076","name":"Ludwigslust-Parchim","type":"Landkreis"},"federalState":{"key":"13","name":"Mecklenburg-Vorpommern"}},{"name":"Brückentin","postalCode":"17237","locality":"Wokuhl-Dabelow","municipality":{"key":"13071162","name":"Wokuhl-Dabelow","type":"Kreisangehörige_Gemeinde"},"district":{"key":"13071","name":"Mecklenburgische Seenplatte","type":"Landkreis"},"federalState":{"key":"13","name":"Mecklenburg-Vorpommern"}},{"name":"Bungalowsiedlung 1 Herzwolde","postalCode":"17237","locality":"Wokuhl-Dabelow","municipality":{"key":"13071162","name":"Wokuhl-Dabelow","type":"Kreisangehörige_Gemeinde"},"district":{"key":"13071","name":"Mecklenburgische Seenplatte","type":"Landkreis"},"federalState":{"key":"13","name":"Mecklenburg-Vorpommern"}},{"name":"Bungalowsiedlung 2 Herzwolde","postalCode":"17237","locality":"Wokuhl-Dabelow","municipality":{"key":"13071162","name":"Wokuhl-Dabelow","type":"Kreisangehörige_Gemeinde"},"district":{"key":"13071","name":"Mecklenburgische Seenplatte","type":"Landkreis"},"federalState":{"key":"13","name":"Mecklenburg-Vorpommern"}},{"name":"Bungalowsiedlung Wutschendorf","postalCode":"17237","locality":"Wokuhl-Dabelow","municipality":{"key":"13071162","name":"Wokuhl-Dabelow","type":"Kreisangehörige_Gemeinde"},"district":{"key":"13071","name":"Mecklenburgische Seenplatte","type":"Landkreis"},"federalState":{"key":"13","name":"Mecklenburg-Vorpommern"}},{"name":"Carolinenhof","postalCode":"17237","locality":"Wokuhl-Dabelow","municipality":{"key":"13071162","name":"Wokuhl-Dabelow","type":"Kreisangehörige_Gemeinde"},"district":{"key":"13071","name":"Mecklenburgische Seenplatte","type":"Landkreis"},"federalState":{"key":"13","name":"Mecklenburg-Vorpommern"}},{"name":"Comthurey","postalCode":"17237","locality":"Wokuhl-Dabelow","municipality":{"key":"13071162","name":"Wokuhl-Dabelow","type":"Kreisangehörige_Gemeinde"},"district":{"key":"13071","name":"Mecklenburgische Seenplatte","type":"Landkreis"},"federalState":{"key":"13","name":"Mecklenburg-Vorpommern"}},{"name":"Dabelower Str.","postalCode":"17237","locality":"Wokuhl-Dabelow","municipality":{"key":"13071162","name":"Wokuhl-Dabelow","type":"Kreisangehörige_Gemeinde"},"district":{"key":"13071","name":"Mecklenburgische Seenplatte","type":"Landkreis"},"federalState":{"key":"13","name":"Mecklenburg-Vorpommern"}},{"name":"Dabel-Woland","postalCode":"19406","locality":"Dabel","municipality":{"key":"13076026","name":"Dabel","type":"Kreisangehörige_Gemeinde"},"district":{"key":"13076","name":"Ludwigslust-Parchim","type":"Landkreis"},"federalState":{"key":"13","name":"Mecklenburg-Vorpommern"}},{"name":"Dorfstr.","postalCode":"17237","locality":"Wokuhl-Dabelow","municipality":{"key":"13071162","name":"Wokuhl-Dabelow","type":"Kreisangehörige_Gemeinde"},"district":{"key":"13071","name":"Mecklenburgische Seenplatte","type":"Landkreis"},"federalState":{"key":"13","name":"Mecklenburg-Vorpommern"}},{"name":"Dorfstr.","postalCode":"19406","locality":"Dabel","municipality":{"key":"13076026","name":"Dabel","type":"Kreisangehörige_Gemeinde"},"district":{"key":"13076","name":"Ludwigslust-Parchim","type":"Landkreis"},"federalState":{"key":"13","name":"Mecklenburg-Vorpommern"}},{"name":"Eschenweg","postalCode":"17237","locality":"Wokuhl-Dabelow","municipality":{"key":"13071162","name":"Wokuhl-Dabelow","type":"Kreisangehörige_Gemeinde"},"district":{"key":"13071","name":"Mecklenburgische Seenplatte","type":"Landkreis"},"federalState":{"key":"13","name":"Mecklenburg-Vorpommern"}},{"name":"Feldweg","postalCode":"19406","locality":"Dabel","municipality":{"key":"13076026","name":"Dabel","type":"Kreisangehörige_Gemeinde"},"district":{"key":"13076","name":"Ludwigslust-Parchim","type":"Landkreis"},"federalState":{"key":"13","name":"Mecklenburg-Vorpommern"}},{"name":"Fritz-Reuter-Weg","postalCode":"19406","locality":"Dabel","municipality":{"key":"13076026","name":"Dabel","type":"Kreisangehörige_Gemeinde"},"district":{"key":"13076","name":"Ludwigslust-Parchim","type":"Landkreis"},"federalState":{"key":"13","name":"Mecklenburg-Vorpommern"}},{"name":"Gägelower Weg","postalCode":"19406","locality":"Dabel","municipality":{"key":"13076026","name":"Dabel","type":"Kreisangehörige_Gemeinde"},"district":{"key":"13076","name":"Ludwigslust-Parchim","type":"Landkreis"},"federalState":{"key":"13","name":"Mecklenburg-Vorpommern"}},{"name":"Gnewitzer Str.","postalCode":"17237","locality":"Wokuhl-Dabelow","municipality":{"key":"13071162","name":"Wokuhl-Dabelow","type":"Kreisangehörige_Gemeinde"},"district":{"key":"13071","name":"Mecklenburgische Seenplatte","type":"Landkreis"},"federalState":{"key":"13","name":"Mecklenburg-Vorpommern"}},{"name":"Goldenbaumer Landstr.","postalCode":"17237","locality":"Wokuhl-Dabelow","municipality":{"key":"13071162","name":"Wokuhl-Dabelow","type":"Kreisangehörige_Gemeinde"},"district":{"key":"13071","name":"Mecklenburgische Seenplatte","type":"Landkreis"},"federalState":{"key":"13","name":"Mecklenburg-Vorpommern"}},{"name":"Grammertin","postalCode":"17237","locality":"Wokuhl-Dabelow","municipality":{"key":"13071162","name":"Wokuhl-Dabelow","type":"Kreisangehörige_Gemeinde"},"district":{"key":"13071","name":"Mecklenburgische Seenplatte","type":"Landkreis"},"federalState":{"key":"13","name":"Mecklenburg-Vorpommern"}},{"name":"Herrenweg","postalCode":"19406","locality":"Dabel","municipality":{"key":"13076026","name":"Dabel","type":"Kreisangehörige_Gemeinde"},"district":{"key":"13076","name":"Ludwigslust-Parchim","type":"Landkreis"},"federalState":{"key":"13","name":"Mecklenburg-Vorpommern"}},{"name":"Herzwolde Oberdorf","postalCode":"17237","locality":"Wokuhl-Dabelow","municipality":{"key":"13071162","name":"Wokuhl-Dabelow","type":"Kreisangehörige_Gemeinde"},"district":{"key":"13071","name":"Mecklenburgische Seenplatte","type":"Landkreis"},"federalState":{"key":"13","name":"Mecklenburg-Vorpommern"}},{"name":"Herzwolde Unterdorf","postalCode":"17237","locality":"Wokuhl-Dabelow","municipality":{"key":"13071162","name":"Wokuhl-Dabelow","type":"Kreisangehörige_Gemeinde"},"district":{"key":"13071","name":"Mecklenburgische Seenplatte","type":"Landkreis"},"federalState":{"key":"13","name":"Mecklenburg-Vorpommern"}},{"name":"Johannes-R.-Becher-Str.","postalCode":"19406","locality":"Dabel","municipality":{"key":"13076026","name":"Dabel","type":"Kreisangehörige_Gemeinde"},"district":{"key":"13076","name":"Ludwigslust-Parchim","type":"Landkreis"},"federalState":{"key":"13","name":"Mecklenburg-Vorpommern"}},{"name":"Kukuker Weg","postalCode":"19406","locality":"Dabel","municipality":{"key":"13076026","name":"Dabel","type":"Kreisangehörige_Gemeinde"},"district":{"key":"13076","name":"Ludwigslust-Parchim","type":"Landkreis"},"federalState":{"key":"13","name":"Mecklenburg-Vorpommern"}},{"name":"Lindenstr.","postalCode":"19406","locality":"Dabel","municipality":{"key":"13076026","name":"Dabel","type":"Kreisangehörige_Gemeinde"},"district":{"key":"13076","name":"Ludwigslust-Parchim","type":"Landkreis"},"federalState":{"key":"13","name":"Mecklenburg-Vorpommern"}},{"name":"Lychener Str.","postalCode":"17237","locality":"Wokuhl-Dabelow","municipality":{"key":"13071162","name":"Wokuhl-Dabelow","type":"Kreisangehörige_Gemeinde"},"district":{"key":"13071","name":"Mecklenburgische Seenplatte","type":"Landkreis"},"federalState":{"key":"13","name":"Mecklenburg-Vorpommern"}},{"name":"Neubrück","postalCode":"17237","locality":"Wokuhl-Dabelow","municipality":{"key":"13071162","name":"Wokuhl-Dabelow","type":"Kreisangehörige_Gemeinde"},"district":{"key":"13071","name":"Mecklenburgische Seenplatte","type":"Landkreis"},"federalState":{"key":"13","name":"Mecklenburg-Vorpommern"}},{"name":"Neue Str.","postalCode":"19406","locality":"Dabel","municipality":{"key":"13076026","name":"Dabel","type":"Kreisangehörige_Gemeinde"},"district":{"key":"13076","name":"Ludwigslust-Parchim","type":"Landkreis"},"federalState":{"key":"13","name":"Mecklenburg-Vorpommern"}},{"name":"Roter Strumpf","postalCode":"19406","locality":"Dabel","municipality":{"key":"13076026","name":"Dabel","type":"Kreisangehörige_Gemeinde"},"district":{"key":"13076","name":"Ludwigslust-Parchim","type":"Landkreis"},"federalState":{"key":"13","name":"Mecklenburg-Vorpommern"}},{"name":"Schäferstein","postalCode":"19406","locality":"Dabel","municipality":{"key":"13076026","name":"Dabel","type":"Kreisangehörige_Gemeinde"},"district":{"key":"13076","name":"Ludwigslust-Parchim","type":"Landkreis"},"federalState":{"key":"13","name":"Mecklenburg-Vorpommern"}},{"name":"Schillerstr.","postalCode":"19406","locality":"Dabel","municipality":{"key":"13076026","name":"Dabel","type":"Kreisangehörige_Gemeinde"},"district":{"key":"13076","name":"Ludwigslust-Parchim","type":"Landkreis"},"federalState":{"key":"13","name":"Mecklenburg-Vorpommern"}},{"name":"Schmiedestr.","postalCode":"19406","locality":"Dabel","municipality":{"key":"13076026","name":"Dabel","type":"Kreisangehörige_Gemeinde"},"district":{"key":"13076","name":"Ludwigslust-Parchim","type":"Landkreis"},"federalState":{"key":"13","name":"Mecklenburg-Vorpommern"}},{"name":"Seeweg","postalCode":"17237","locality":"Wokuhl-Dabelow","municipality":{"key":"13071162","name":"Wokuhl-Dabelow","type":"Kreisangehörige_Gemeinde"},"district":{"key":"13071","name":"Mecklenburgische Seenplatte","type":"Landkreis"},"federalState":{"key":"13","name":"Mecklenburg-Vorpommern"}},{"name":"Str. der Artillerie","postalCode":"19406","locality":"Dabel","municipality":{"key":"13076026","name":"Dabel","type":"Kreisangehörige_Gemeinde"},"district":{"key":"13076","name":"Ludwigslust-Parchim","type":"Landkreis"},"federalState":{"key":"13","name":"Mecklenburg-Vorpommern"}},{"name":"Str. der DSF","postalCode":"19406","locality":"Dabel","municipality":{"key":"13076026","name":"Dabel","type":"Kreisangehörige_Gemeinde"},"district":{"key":"13076","name":"Ludwigslust-Parchim","type":"Landkreis"},"federalState":{"key":"13","name":"Mecklenburg-Vorpommern"}},{"name":"Turloff","postalCode":"19406","locality":"Dabel","municipality":{"key":"13076026","name":"Dabel","type":"Kreisangehörige_Gemeinde"},"district":{"key":"13076","name":"Ludwigslust-Parchim","type":"Landkreis"},"federalState":{"key":"13","name":"Mecklenburg-Vorpommern"}},{"name":"Unterdorf","postalCode":"17237","locality":"Wokuhl-Dabelow","municipality":{"key":"13071162","name":"Wokuhl-Dabelow","type":"Kreisangehörige_Gemeinde"},"district":{"key":"13071","name":"Mecklenburgische Seenplatte","type":"Landkreis"},"federalState":{"key":"13","name":"Mecklenburg-Vorpommern"}},{"name":"Werderweg","postalCode":"19406","locality":"Dabel","municipality":{"key":"13076026","name":"Dabel","type":"Kreisangehörige_Gemeinde"},"district":{"key":"13076","name":"Ludwigslust-Parchim","type":"Landkreis"},"federalState":{"key":"13","name":"Mecklenburg-Vorpommern"}},{"name":"Wilhelm-Pieck-Str.","postalCode":"19406","locality":"Dabel","municipality":{"key":"13076026","name":"Dabel","type":"Kreisangehörige_Gemeinde"},"district":{"key":"13076","name":"Ludwigslust-Parchim","type":"Landkreis"},"federalState":{"key":"13","name":"Mecklenburg-Vorpommern"}},{"name":"Zu den Achtertannen","postalCode":"19406","locality":"Dabel","municipality":{"key":"13076026","name":"Dabel","type":"Kreisangehörige_Gemeinde"},"district":{"key":"13076","name":"Ludwigslust-Parchim","type":"Landkreis"},"federalState":{"key":"13","name":"Mecklenburg-Vorpommern"}},{"name":"Zum Stern","postalCode":"17237","locality":"Wokuhl-Dabelow","municipality":{"key":"13071162","name":"Wokuhl-Dabelow","type":"Kreisangehörige_Gemeinde"},"district":{"key":"13071","name":"Mecklenburgische Seenplatte","type":"Landkreis"},"federalState":{"key":"13","name":"Mecklenburg-Vorpommern"}},]