[{"name":"Ackerrainweg","postalCode":"64625","locality":"Bensheim","municipality":{"key":"06431002","name":"Bensheim, Stadt","type":"Stadt"},"district":{"key":"06431","name":"Bergstraße","type":"Landkreis"},"federalState":{"key":"06","name":"Hessen"}},{"name":"Adalbert-Stifter-Str.","postalCode":"64625","locality":"Bensheim","municipality":{"key":"06431002","name":"Bensheim, Stadt","type":"Stadt"},"district":{"key":"06431","name":"Bergstraße","type":"Landkreis"},"federalState":{"key":"06","name":"Hessen"}},{"name":"Adam-Bräunig-Str.","postalCode":"64625","locality":"Bensheim","municipality":{"key":"06431002","name":"Bensheim, Stadt","type":"Stadt"},"district":{"key":"06431","name":"Bergstraße","type":"Landkreis"},"federalState":{"key":"06","name":"Hessen"}},{"name":"Adelungstr.","postalCode":"64625","locality":"Bensheim","municipality":{"key":"06431002","name":"Bensheim, Stadt","type":"Stadt"},"district":{"key":"06431","name":"Bergstraße","type":"Landkreis"},"federalState":{"key":"06","name":"Hessen"}},{"name":"Adolf-Kolping-Str.","postalCode":"64625","locality":"Bensheim","municipality":{"key":"06431002","name":"Bensheim, Stadt","type":"Stadt"},"district":{"key":"06431","name":"Bergstraße","type":"Landkreis"},"federalState":{"key":"06","name":"Hessen"}},{"name":"Ahornstr.","postalCode":"64625","locality":"Bensheim","municipality":{"key":"06431002","name":"Bensheim, Stadt","type":"Stadt"},"district":{"key":"06431","name":"Bergstraße","type":"Landkreis"},"federalState":{"key":"06","name":"Hessen"}},{"name":"Ahornweg","postalCode":"85117","locality":"Eitensheim","municipality":{"key":"09176124","name":"Eitensheim","type":"Kreisangehörige_Gemeinde"},"district":{"key":"09176","name":"Eichstätt","type":"Landkreis"},"federalState":{"key":"09","name":"Bayern"}},{"name":"Albert-Schweitzer-Str.","postalCode":"85117","locality":"Eitensheim","municipality":{"key":"09176124","name":"Eitensheim","type":"Kreisangehörige_Gemeinde"},"district":{"key":"09176","name":"Eichstätt","type":"Landkreis"},"federalState":{"key":"09","name":"Bayern"}},{"name":"Alemannenstr.","postalCode":"64625","locality":"Bensheim","municipality":{"key":"06431002","name":"Bensheim, Stadt","type":"Stadt"},"district":{"key":"06431","name":"Bergstraße","type":"Landkreis"},"federalState":{"key":"06","name":"Hessen"}},{"name":"Aloys-van-Gries-Str.","postalCode":"64625","locality":"Bensheim","municipality":{"key":"06431002","name":"Bensheim, Stadt","type":"Stadt"},"district":{"key":"06431","name":"Bergstraße","type":"Landkreis"},"federalState":{"key":"06","name":"Hessen"}},{"name":"Altengaßweg","postalCode":"64625","locality":"Bensheim","municipality":{"key":"06431002","name":"Bensheim, Stadt","type":"Stadt"},"district":{"key":"06431","name":"Bergstraße","type":"Landkreis"},"federalState":{"key":"06","name":"Hessen"}},{"name":"Alter Schloßweg","postalCode":"64625","locality":"Bensheim","municipality":{"key":"06431002","name":"Bensheim, Stadt","type":"Stadt"},"district":{"key":"06431","name":"Bergstraße","type":"Landkreis"},"federalState":{"key":"06","name":"Hessen"}},{"name":"Alter Weg","postalCode":"64625","locality":"Bensheim","municipality":{"key":"06431002","name":"Bensheim, Stadt","type":"Stadt"},"district":{"key":"06431","name":"Bergstraße","type":"Landkreis"},"federalState":{"key":"06","name":"Hessen"}},{"name":"Alzeyer Str.","postalCode":"55232","locality":"Ensheim","municipality":{"key":"07331019","name":"Ensheim","type":"Kreisangehörige_Gemeinde"},"district":{"key":"07331","name":"Alzey-Worms","type":"Landkreis"},"federalState":{"key":"07","name":"Rheinland-Pfalz"}},{"name":"Am Alten E-Werk","postalCode":"64625","locality":"Bensheim","municipality":{"key":"06431002","name":"Bensheim, Stadt","type":"Stadt"},"district":{"key":"06431","name":"Bergstraße","type":"Landkreis"},"federalState":{"key":"06","name":"Hessen"}},{"name":"Am Anger","postalCode":"85117","locality":"Eitensheim","municipality":{"key":"09176124","name":"Eitensheim","type":"Kreisangehörige_Gemeinde"},"district":{"key":"09176","name":"Eichstätt","type":"Landkreis"},"federalState":{"key":"09","name":"Bayern"}},{"name":"Am Bachl","postalCode":"85117","locality":"Eitensheim","municipality":{"key":"09176124","name":"Eitensheim","type":"Kreisangehörige_Gemeinde"},"district":{"key":"09176","name":"Eichstätt","type":"Landkreis"},"federalState":{"key":"09","name":"Bayern"}},{"name":"Am Berg","postalCode":"64625","locality":"Bensheim","municipality":{"key":"06431002","name":"Bensheim, Stadt","type":"Stadt"},"district":{"key":"06431","name":"Bergstraße","type":"Landkreis"},"federalState":{"key":"06","name":"Hessen"}},{"name":"Am Bildstock","postalCode":"64625","locality":"Bensheim","municipality":{"key":"06431002","name":"Bensheim, Stadt","type":"Stadt"},"district":{"key":"06431","name":"Bergstraße","type":"Landkreis"},"federalState":{"key":"06","name":"Hessen"}},{"name":"Am Brunnen","postalCode":"55232","locality":"Ensheim","municipality":{"key":"07331019","name":"Ensheim","type":"Kreisangehörige_Gemeinde"},"district":{"key":"07331","name":"Alzey-Worms","type":"Landkreis"},"federalState":{"key":"07","name":"Rheinland-Pfalz"}},{"name":"Am Brunnenweg","postalCode":"64625","locality":"Bensheim","municipality":{"key":"06431002","name":"Bensheim, Stadt","type":"Stadt"},"district":{"key":"06431","name":"Bergstraße","type":"Landkreis"},"federalState":{"key":"06","name":"Hessen"}},{"name":"Am Bürgerhaus","postalCode":"64625","locality":"Bensheim","municipality":{"key":"06431002","name":"Bensheim, Stadt","type":"Stadt"},"district":{"key":"06431","name":"Bergstraße","type":"Landkreis"},"federalState":{"key":"06","name":"Hessen"}},{"name":"Am Eichelsgrund","postalCode":"64625","locality":"Bensheim","municipality":{"key":"06431002","name":"Bensheim, Stadt","type":"Stadt"},"district":{"key":"06431","name":"Bergstraße","type":"Landkreis"},"federalState":{"key":"06","name":"Hessen"}},{"name":"Amershamplatz","postalCode":"64625","locality":"Bensheim","municipality":{"key":"06431002","name":"Bensheim, Stadt","type":"Stadt"},"district":{"key":"06431","name":"Bergstraße","type":"Landkreis"},"federalState":{"key":"06","name":"Hessen"}},{"name":"Am Falltor","postalCode":"64625","locality":"Bensheim","municipality":{"key":"06431002","name":"Bensheim, Stadt","type":"Stadt"},"district":{"key":"06431","name":"Bergstraße","type":"Landkreis"},"federalState":{"key":"06","name":"Hessen"}},{"name":"Am Flechtenberg","postalCode":"64625","locality":"Bensheim","municipality":{"key":"06431002","name":"Bensheim, Stadt","type":"Stadt"},"district":{"key":"06431","name":"Bergstraße","type":"Landkreis"},"federalState":{"key":"06","name":"Hessen"}},{"name":"Am Fuchsloch","postalCode":"64625","locality":"Bensheim","municipality":{"key":"06431002","name":"Bensheim, Stadt","type":"Stadt"},"district":{"key":"06431","name":"Bergstraße","type":"Landkreis"},"federalState":{"key":"06","name":"Hessen"}},{"name":"Am Haag","postalCode":"64625","locality":"Bensheim","municipality":{"key":"06431002","name":"Bensheim, Stadt","type":"Stadt"},"district":{"key":"06431","name":"Bergstraße","type":"Landkreis"},"federalState":{"key":"06","name":"Hessen"}},{"name":"Am Hinkelstein","postalCode":"64625","locality":"Bensheim","municipality":{"key":"06431002","name":"Bensheim, Stadt","type":"Stadt"},"district":{"key":"06431","name":"Bergstraße","type":"Landkreis"},"federalState":{"key":"06","name":"Hessen"}},{"name":"Am Hirtenacker","postalCode":"64625","locality":"Bensheim","municipality":{"key":"06431002","name":"Bensheim, Stadt","type":"Stadt"},"district":{"key":"06431","name":"Bergstraße","type":"Landkreis"},"federalState":{"key":"06","name":"Hessen"}},{"name":"Am Höllberg","postalCode":"64625","locality":"Bensheim","municipality":{"key":"06431002","name":"Bensheim, Stadt","type":"Stadt"},"district":{"key":"06431","name":"Bergstraße","type":"Landkreis"},"federalState":{"key":"06","name":"Hessen"}},{"name":"Am Hollermorgen","postalCode":"64625","locality":"Bensheim","municipality":{"key":"06431002","name":"Bensheim, Stadt","type":"Stadt"},"district":{"key":"06431","name":"Bergstraße","type":"Landkreis"},"federalState":{"key":"06","name":"Hessen"}},{"name":"Am Junkergarten","postalCode":"64625","locality":"Bensheim","municipality":{"key":"06431002","name":"Bensheim, Stadt","type":"Stadt"},"district":{"key":"06431","name":"Bergstraße","type":"Landkreis"},"federalState":{"key":"06","name":"Hessen"}},{"name":"Am Kachelberg","postalCode":"55232","locality":"Ensheim","municipality":{"key":"07331019","name":"Ensheim","type":"Kreisangehörige_Gemeinde"},"district":{"key":"07331","name":"Alzey-Worms","type":"Landkreis"},"federalState":{"key":"07","name":"Rheinland-Pfalz"}},{"name":"Am Krummgewann","postalCode":"64625","locality":"Bensheim","municipality":{"key":"06431002","name":"Bensheim, Stadt","type":"Stadt"},"district":{"key":"06431","name":"Bergstraße","type":"Landkreis"},"federalState":{"key":"06","name":"Hessen"}},{"name":"Am Kurpark","postalCode":"64625","locality":"Bensheim","municipality":{"key":"06431002","name":"Bensheim, Stadt","type":"Stadt"},"district":{"key":"06431","name":"Bergstraße","type":"Landkreis"},"federalState":{"key":"06","name":"Hessen"}},{"name":"Am Kutschenmorgen","postalCode":"64625","locality":"Bensheim","municipality":{"key":"06431002","name":"Bensheim, Stadt","type":"Stadt"},"district":{"key":"06431","name":"Bergstraße","type":"Landkreis"},"federalState":{"key":"06","name":"Hessen"}},{"name":"Am Langen Pfad","postalCode":"64625","locality":"Bensheim","municipality":{"key":"06431002","name":"Bensheim, Stadt","type":"Stadt"},"district":{"key":"06431","name":"Bergstraße","type":"Landkreis"},"federalState":{"key":"06","name":"Hessen"}},{"name":"Am Leimenberg","postalCode":"64625","locality":"Bensheim","municipality":{"key":"06431002","name":"Bensheim, Stadt","type":"Stadt"},"district":{"key":"06431","name":"Bergstraße","type":"Landkreis"},"federalState":{"key":"06","name":"Hessen"}},{"name":"Am Meerbach","postalCode":"64625","locality":"Bensheim","municipality":{"key":"06431002","name":"Bensheim, Stadt","type":"Stadt"},"district":{"key":"06431","name":"Bergstraße","type":"Landkreis"},"federalState":{"key":"06","name":"Hessen"}},{"name":"Am Melibokus","postalCode":"64625","locality":"Bensheim","municipality":{"key":"06431002","name":"Bensheim, Stadt","type":"Stadt"},"district":{"key":"06431","name":"Bergstraße","type":"Landkreis"},"federalState":{"key":"06","name":"Hessen"}},{"name":"Am Mühlkandel","postalCode":"64625","locality":"Bensheim","municipality":{"key":"06431002","name":"Bensheim, Stadt","type":"Stadt"},"district":{"key":"06431","name":"Bergstraße","type":"Landkreis"},"federalState":{"key":"06","name":"Hessen"}},{"name":"Am Niederwald","postalCode":"64625","locality":"Bensheim","municipality":{"key":"06431002","name":"Bensheim, Stadt","type":"Stadt"},"district":{"key":"06431","name":"Bergstraße","type":"Landkreis"},"federalState":{"key":"06","name":"Hessen"}},{"name":"Am Oberhof","postalCode":"64625","locality":"Bensheim","municipality":{"key":"06431002","name":"Bensheim, Stadt","type":"Stadt"},"district":{"key":"06431","name":"Bergstraße","type":"Landkreis"},"federalState":{"key":"06","name":"Hessen"}},{"name":"Am Rain","postalCode":"64625","locality":"Bensheim","municipality":{"key":"06431002","name":"Bensheim, Stadt","type":"Stadt"},"district":{"key":"06431","name":"Bergstraße","type":"Landkreis"},"federalState":{"key":"06","name":"Hessen"}},{"name":"Am Rehberg","postalCode":"64625","locality":"Bensheim","municipality":{"key":"06431002","name":"Bensheim, Stadt","type":"Stadt"},"district":{"key":"06431","name":"Bergstraße","type":"Landkreis"},"federalState":{"key":"06","name":"Hessen"}},{"name":"Am Rinnentor","postalCode":"64625","locality":"Bensheim","municipality":{"key":"06431002","name":"Bensheim, Stadt","type":"Stadt"},"district":{"key":"06431","name":"Bergstraße","type":"Landkreis"},"federalState":{"key":"06","name":"Hessen"}},{"name":"Am Ritterplatz","postalCode":"64625","locality":"Bensheim","municipality":{"key":"06431002","name":"Bensheim, Stadt","type":"Stadt"},"district":{"key":"06431","name":"Bergstraße","type":"Landkreis"},"federalState":{"key":"06","name":"Hessen"}},{"name":"Am Römer","postalCode":"64625","locality":"Bensheim","municipality":{"key":"06431002","name":"Bensheim, Stadt","type":"Stadt"},"district":{"key":"06431","name":"Bergstraße","type":"Landkreis"},"federalState":{"key":"06","name":"Hessen"}},{"name":"Am Rosengrund","postalCode":"64625","locality":"Bensheim","municipality":{"key":"06431002","name":"Bensheim, Stadt","type":"Stadt"},"district":{"key":"06431","name":"Bergstraße","type":"Landkreis"},"federalState":{"key":"06","name":"Hessen"}},{"name":"Bachgasse","postalCode":"64625","locality":"Bensheim","municipality":{"key":"06431002","name":"Bensheim, Stadt","type":"Stadt"},"district":{"key":"06431","name":"Bergstraße","type":"Landkreis"},"federalState":{"key":"06","name":"Hessen"}},{"name":"Bahnhofstr.","postalCode":"64625","locality":"Bensheim","municipality":{"key":"06431002","name":"Bensheim, Stadt","type":"Stadt"},"district":{"key":"06431","name":"Bergstraße","type":"Landkreis"},"federalState":{"key":"06","name":"Hessen"}},{"name":"Bahnhofstr.","postalCode":"85117","locality":"Eitensheim","municipality":{"key":"09176124","name":"Eitensheim","type":"Kreisangehörige_Gemeinde"},"district":{"key":"09176","name":"Eichstätt","type":"Landkreis"},"federalState":{"key":"09","name":"Bayern"}},{"name":"Bahnstr.","postalCode":"64625","locality":"Bensheim","municipality":{"key":"06431002","name":"Bensheim, Stadt","type":"Stadt"},"district":{"key":"06431","name":"Bergstraße","type":"Landkreis"},"federalState":{"key":"06","name":"Hessen"}},{"name":"Bahrenweg","postalCode":"55232","locality":"Ensheim","municipality":{"key":"07331019","name":"Ensheim","type":"Kreisangehörige_Gemeinde"},"district":{"key":"07331","name":"Alzey-Worms","type":"Landkreis"},"federalState":{"key":"07","name":"Rheinland-Pfalz"}},{"name":"Bangertshöhe","postalCode":"64625","locality":"Bensheim","municipality":{"key":"06431002","name":"Bensheim, Stadt","type":"Stadt"},"district":{"key":"06431","name":"Bergstraße","type":"Landkreis"},"federalState":{"key":"06","name":"Hessen"}},{"name":"Basinusstr.","postalCode":"64625","locality":"Bensheim","municipality":{"key":"06431002","name":"Bensheim, Stadt","type":"Stadt"},"district":{"key":"06431","name":"Bergstraße","type":"Landkreis"},"federalState":{"key":"06","name":"Hessen"}},{"name":"Baumschulstr.","postalCode":"64625","locality":"Bensheim","municipality":{"key":"06431002","name":"Bensheim, Stadt","type":"Stadt"},"district":{"key":"06431","name":"Bergstraße","type":"Landkreis"},"federalState":{"key":"06","name":"Hessen"}},{"name":"Baustr.","postalCode":"64625","locality":"Bensheim","municipality":{"key":"06431002","name":"Bensheim, Stadt","type":"Stadt"},"district":{"key":"06431","name":"Bergstraße","type":"Landkreis"},"federalState":{"key":"06","name":"Hessen"}},{"name":"Beauner Platz","postalCode":"64625","locality":"Bensheim","municipality":{"key":"06431002","name":"Bensheim, Stadt","type":"Stadt"},"district":{"key":"06431","name":"Bergstraße","type":"Landkreis"},"federalState":{"key":"06","name":"Hessen"}},{"name":"Beethovenstr.","postalCode":"64625","locality":"Bensheim","municipality":{"key":"06431002","name":"Bensheim, Stadt","type":"Stadt"},"district":{"key":"06431","name":"Bergstraße","type":"Landkreis"},"federalState":{"key":"06","name":"Hessen"}},{"name":"Beethovenstr.","postalCode":"85117","locality":"Eitensheim","municipality":{"key":"09176124","name":"Eitensheim","type":"Kreisangehörige_Gemeinde"},"district":{"key":"09176","name":"Eichstätt","type":"Landkreis"},"federalState":{"key":"09","name":"Bayern"}},{"name":"Beginenstr.","postalCode":"64625","locality":"Bensheim","municipality":{"key":"06431002","name":"Bensheim, Stadt","type":"Stadt"},"district":{"key":"06431","name":"Bergstraße","type":"Landkreis"},"federalState":{"key":"06","name":"Hessen"}},{"name":"Beinengutstr.","postalCode":"64625","locality":"Bensheim","municipality":{"key":"06431002","name":"Bensheim, Stadt","type":"Stadt"},"district":{"key":"06431","name":"Bergstraße","type":"Landkreis"},"federalState":{"key":"06","name":"Hessen"}},{"name":"Bensheimer Str.","postalCode":"64625","locality":"Bensheim","municipality":{"key":"06431002","name":"Bensheim, Stadt","type":"Stadt"},"district":{"key":"06431","name":"Bergstraße","type":"Landkreis"},"federalState":{"key":"06","name":"Hessen"}},{"name":"Bensheimer Weg","postalCode":"64625","locality":"Bensheim","municipality":{"key":"06431002","name":"Bensheim, Stadt","type":"Stadt"},"district":{"key":"06431","name":"Bergstraße","type":"Landkreis"},"federalState":{"key":"06","name":"Hessen"}},{"name":"Bergblick","postalCode":"64625","locality":"Bensheim","municipality":{"key":"06431002","name":"Bensheim, Stadt","type":"Stadt"},"district":{"key":"06431","name":"Bergstraße","type":"Landkreis"},"federalState":{"key":"06","name":"Hessen"}},{"name":"Berliner Ring","postalCode":"64625","locality":"Bensheim","municipality":{"key":"06431002","name":"Bensheim, Stadt","type":"Stadt"},"district":{"key":"06431","name":"Bergstraße","type":"Landkreis"},"federalState":{"key":"06","name":"Hessen"}},{"name":"Bertolt-Brecht-Ring","postalCode":"64625","locality":"Bensheim","municipality":{"key":"06431002","name":"Bensheim, Stadt","type":"Stadt"},"district":{"key":"06431","name":"Bergstraße","type":"Landkreis"},"federalState":{"key":"06","name":"Hessen"}},{"name":"Biedenkämmerweg","postalCode":"64625","locality":"Bensheim","municipality":{"key":"06431002","name":"Bensheim, Stadt","type":"Stadt"},"district":{"key":"06431","name":"Bergstraße","type":"Landkreis"},"federalState":{"key":"06","name":"Hessen"}},{"name":"Birkenweg","postalCode":"64625","locality":"Bensheim","municipality":{"key":"06431002","name":"Bensheim, Stadt","type":"Stadt"},"district":{"key":"06431","name":"Bergstraße","type":"Landkreis"},"federalState":{"key":"06","name":"Hessen"}},{"name":"Birkenweg","postalCode":"85117","locality":"Eitensheim","municipality":{"key":"09176124","name":"Eitensheim","type":"Kreisangehörige_Gemeinde"},"district":{"key":"09176","name":"Eichstätt","type":"Landkreis"},"federalState":{"key":"09","name":"Bayern"}},{"name":"Bismarckstr.","postalCode":"64625","locality":"Bensheim","municipality":{"key":"06431002","name":"Bensheim, Stadt","type":"Stadt"},"district":{"key":"06431","name":"Bergstraße","type":"Landkreis"},"federalState":{"key":"06","name":"Hessen"}},{"name":"Bleichstr.","postalCode":"64625","locality":"Bensheim","municipality":{"key":"06431002","name":"Bensheim, Stadt","type":"Stadt"},"district":{"key":"06431","name":"Bergstraße","type":"Landkreis"},"federalState":{"key":"06","name":"Hessen"}},{"name":"Blücherstr.","postalCode":"64625","locality":"Bensheim","municipality":{"key":"06431002","name":"Bensheim, Stadt","type":"Stadt"},"district":{"key":"06431","name":"Bergstraße","type":"Landkreis"},"federalState":{"key":"06","name":"Hessen"}},{"name":"Blumenstr.","postalCode":"85117","locality":"Eitensheim","municipality":{"key":"09176124","name":"Eitensheim","type":"Kreisangehörige_Gemeinde"},"district":{"key":"09176","name":"Eichstätt","type":"Landkreis"},"federalState":{"key":"09","name":"Bayern"}},{"name":"Blütenweg","postalCode":"64625","locality":"Bensheim","municipality":{"key":"06431002","name":"Bensheim, Stadt","type":"Stadt"},"district":{"key":"06431","name":"Bergstraße","type":"Landkreis"},"federalState":{"key":"06","name":"Hessen"}},{"name":"Bodelschwinghstr.","postalCode":"64625","locality":"Bensheim","municipality":{"key":"06431002","name":"Bensheim, Stadt","type":"Stadt"},"district":{"key":"06431","name":"Bergstraße","type":"Landkreis"},"federalState":{"key":"06","name":"Hessen"}},{"name":"Böhmfelder Weg","postalCode":"85117","locality":"Eitensheim","municipality":{"key":"09176124","name":"Eitensheim","type":"Kreisangehörige_Gemeinde"},"district":{"key":"09176","name":"Eichstätt","type":"Landkreis"},"federalState":{"key":"09","name":"Bayern"}},{"name":"Bonhoefferstr.","postalCode":"64625","locality":"Bensheim","municipality":{"key":"06431002","name":"Bensheim, Stadt","type":"Stadt"},"district":{"key":"06431","name":"Bergstraße","type":"Landkreis"},"federalState":{"key":"06","name":"Hessen"}},{"name":"Brahmsstr.","postalCode":"64625","locality":"Bensheim","municipality":{"key":"06431002","name":"Bensheim, Stadt","type":"Stadt"},"district":{"key":"06431","name":"Bergstraße","type":"Landkreis"},"federalState":{"key":"06","name":"Hessen"}},{"name":"Bräuweg","postalCode":"85117","locality":"Eitensheim","municipality":{"key":"09176124","name":"Eitensheim","type":"Kreisangehörige_Gemeinde"},"district":{"key":"09176","name":"Eichstätt","type":"Landkreis"},"federalState":{"key":"09","name":"Bayern"}},{"name":"Breitenweg","postalCode":"85117","locality":"Eitensheim","municipality":{"key":"09176124","name":"Eitensheim","type":"Kreisangehörige_Gemeinde"},"district":{"key":"09176","name":"Eichstätt","type":"Landkreis"},"federalState":{"key":"09","name":"Bayern"}},{"name":"Breslauer Str.","postalCode":"64625","locality":"Bensheim","municipality":{"key":"06431002","name":"Bensheim, Stadt","type":"Stadt"},"district":{"key":"06431","name":"Bergstraße","type":"Landkreis"},"federalState":{"key":"06","name":"Hessen"}},{"name":"Bruchwiese","postalCode":"64625","locality":"Bensheim","municipality":{"key":"06431002","name":"Bensheim, Stadt","type":"Stadt"},"district":{"key":"06431","name":"Bergstraße","type":"Landkreis"},"federalState":{"key":"06","name":"Hessen"}},{"name":"Brückweg","postalCode":"64625","locality":"Bensheim","municipality":{"key":"06431002","name":"Bensheim, Stadt","type":"Stadt"},"district":{"key":"06431","name":"Bergstraße","type":"Landkreis"},"federalState":{"key":"06","name":"Hessen"}},{"name":"Brüder-Grimm-Str.","postalCode":"64625","locality":"Bensheim","municipality":{"key":"06431002","name":"Bensheim, Stadt","type":"Stadt"},"district":{"key":"06431","name":"Bergstraße","type":"Landkreis"},"federalState":{"key":"06","name":"Hessen"}},{"name":"Brunhildstr.","postalCode":"64625","locality":"Bensheim","municipality":{"key":"06431002","name":"Bensheim, Stadt","type":"Stadt"},"district":{"key":"06431","name":"Bergstraße","type":"Landkreis"},"federalState":{"key":"06","name":"Hessen"}},{"name":"Brunnenweg","postalCode":"64625","locality":"Bensheim","municipality":{"key":"06431002","name":"Bensheim, Stadt","type":"Stadt"},"district":{"key":"06431","name":"Bergstraße","type":"Landkreis"},"federalState":{"key":"06","name":"Hessen"}},{"name":"Buchenweg","postalCode":"64625","locality":"Bensheim","municipality":{"key":"06431002","name":"Bensheim, Stadt","type":"Stadt"},"district":{"key":"06431","name":"Bergstraße","type":"Landkreis"},"federalState":{"key":"06","name":"Hessen"}},{"name":"Buchenweg","postalCode":"85117","locality":"Eitensheim","municipality":{"key":"09176124","name":"Eitensheim","type":"Kreisangehörige_Gemeinde"},"district":{"key":"09176","name":"Eichstätt","type":"Landkreis"},"federalState":{"key":"09","name":"Bayern"}},{"name":"Burgstr.","postalCode":"64625","locality":"Bensheim","municipality":{"key":"06431002","name":"Bensheim, Stadt","type":"Stadt"},"district":{"key":"06431","name":"Bergstraße","type":"Landkreis"},"federalState":{"key":"06","name":"Hessen"}},{"name":"Burgweg","postalCode":"64625","locality":"Bensheim","municipality":{"key":"06431002","name":"Bensheim, Stadt","type":"Stadt"},"district":{"key":"06431","name":"Bergstraße","type":"Landkreis"},"federalState":{"key":"06","name":"Hessen"}},{"name":"Buschernweg","postalCode":"64625","locality":"Bensheim","municipality":{"key":"06431002","name":"Bensheim, Stadt","type":"Stadt"},"district":{"key":"06431","name":"Bergstraße","type":"Landkreis"},"federalState":{"key":"06","name":"Hessen"}},{"name":"Buxheimer Str.","postalCode":"85117","locality":"Eitensheim","municipality":{"key":"09176124","name":"Eitensheim","type":"Kreisangehörige_Gemeinde"},"district":{"key":"09176","name":"Eichstätt","type":"Landkreis"},"federalState":{"key":"09","name":"Bayern"}},{"name":"Caritasheim St. Elisabeth","postalCode":"64625","locality":"Bensheim","municipality":{"key":"06431002","name":"Bensheim, Stadt","type":"Stadt"},"district":{"key":"06431","name":"Bergstraße","type":"Landkreis"},"federalState":{"key":"06","name":"Hessen"}},{"name":"Carl-Orff-Str.","postalCode":"64625","locality":"Bensheim","municipality":{"key":"06431002","name":"Bensheim, Stadt","type":"Stadt"},"district":{"key":"06431","name":"Bergstraße","type":"Landkreis"},"federalState":{"key":"06","name":"Hessen"}},{"name":"Commoder Weg","postalCode":"64625","locality":"Bensheim","municipality":{"key":"06431002","name":"Bensheim, Stadt","type":"Stadt"},"district":{"key":"06431","name":"Bergstraße","type":"Landkreis"},"federalState":{"key":"06","name":"Hessen"}},{"name":"Dahlbergergasse","postalCode":"64625","locality":"Bensheim","municipality":{"key":"06431002","name":"Bensheim, Stadt","type":"Stadt"},"district":{"key":"06431","name":"Bergstraße","type":"Landkreis"},"federalState":{"key":"06","name":"Hessen"}},{"name":"Dahlienweg","postalCode":"85117","locality":"Eitensheim","municipality":{"key":"09176124","name":"Eitensheim","type":"Kreisangehörige_Gemeinde"},"district":{"key":"09176","name":"Eichstätt","type":"Landkreis"},"federalState":{"key":"09","name":"Bayern"}},{"name":"Dalbergergasse","postalCode":"64625","locality":"Bensheim","municipality":{"key":"06431002","name":"Bensheim, Stadt","type":"Stadt"},"district":{"key":"06431","name":"Bergstraße","type":"Landkreis"},"federalState":{"key":"06","name":"Hessen"}},{"name":"Dammstr.","postalCode":"64625","locality":"Bensheim","municipality":{"key":"06431002","name":"Bensheim, Stadt","type":"Stadt"},"district":{"key":"06431","name":"Bergstraße","type":"Landkreis"},"federalState":{"key":"06","name":"Hessen"}},{"name":"Darmstädter Str.","postalCode":"64625","locality":"Bensheim","municipality":{"key":"06431002","name":"Bensheim, Stadt","type":"Stadt"},"district":{"key":"06431","name":"Bergstraße","type":"Landkreis"},"federalState":{"key":"06","name":"Hessen"}},{"name":"Donaustr.","postalCode":"64625","locality":"Bensheim","municipality":{"key":"06431002","name":"Bensheim, Stadt","type":"Stadt"},"district":{"key":"06431","name":"Bergstraße","type":"Landkreis"},"federalState":{"key":"06","name":"Hessen"}},{"name":"Don-Bosco-Str.","postalCode":"85117","locality":"Eitensheim","municipality":{"key":"09176124","name":"Eitensheim","type":"Kreisangehörige_Gemeinde"},"district":{"key":"09176","name":"Eichstätt","type":"Landkreis"},"federalState":{"key":"09","name":"Bayern"}},{"name":"Dreibrunnen-Schneise","postalCode":"64625","locality":"Bensheim","municipality":{"key":"06431002","name":"Bensheim, Stadt","type":"Stadt"},"district":{"key":"06431","name":"Bergstraße","type":"Landkreis"},"federalState":{"key":"06","name":"Hessen"}},{"name":"Dr.-Hesse-Weg","postalCode":"64625","locality":"Bensheim","municipality":{"key":"06431002","name":"Bensheim, Stadt","type":"Stadt"},"district":{"key":"06431","name":"Bergstraße","type":"Landkreis"},"federalState":{"key":"06","name":"Hessen"}},{"name":"Dr.-Linck-Weg","postalCode":"64625","locality":"Bensheim","municipality":{"key":"06431002","name":"Bensheim, Stadt","type":"Stadt"},"district":{"key":"06431","name":"Bergstraße","type":"Landkreis"},"federalState":{"key":"06","name":"Hessen"}},{"name":"Drosselstr.","postalCode":"85117","locality":"Eitensheim","municipality":{"key":"09176124","name":"Eitensheim","type":"Kreisangehörige_Gemeinde"},"district":{"key":"09176","name":"Eichstätt","type":"Landkreis"},"federalState":{"key":"09","name":"Bayern"}},{"name":"Drosselweg","postalCode":"64625","locality":"Bensheim","municipality":{"key":"06431002","name":"Bensheim, Stadt","type":"Stadt"},"district":{"key":"06431","name":"Bergstraße","type":"Landkreis"},"federalState":{"key":"06","name":"Hessen"}},{"name":"Drususstr.","postalCode":"64625","locality":"Bensheim","municipality":{"key":"06431002","name":"Bensheim, Stadt","type":"Stadt"},"district":{"key":"06431","name":"Bergstraße","type":"Landkreis"},"federalState":{"key":"06","name":"Hessen"}},{"name":"Dürerstr.","postalCode":"64625","locality":"Bensheim","municipality":{"key":"06431002","name":"Bensheim, Stadt","type":"Stadt"},"district":{"key":"06431","name":"Bergstraße","type":"Landkreis"},"federalState":{"key":"06","name":"Hessen"}},{"name":"Eichelbergweg","postalCode":"64625","locality":"Bensheim","municipality":{"key":"06431002","name":"Bensheim, Stadt","type":"Stadt"},"district":{"key":"06431","name":"Bergstraße","type":"Landkreis"},"federalState":{"key":"06","name":"Hessen"}},{"name":"Eichendorffstr.","postalCode":"64625","locality":"Bensheim","municipality":{"key":"06431002","name":"Bensheim, Stadt","type":"Stadt"},"district":{"key":"06431","name":"Bergstraße","type":"Landkreis"},"federalState":{"key":"06","name":"Hessen"}},{"name":"Eichenweg","postalCode":"64625","locality":"Bensheim","municipality":{"key":"06431002","name":"Bensheim, Stadt","type":"Stadt"},"district":{"key":"06431","name":"Bergstraße","type":"Landkreis"},"federalState":{"key":"06","name":"Hessen"}},{"name":"Eichstätter Str.","postalCode":"85117","locality":"Eitensheim","municipality":{"key":"09176124","name":"Eitensheim","type":"Kreisangehörige_Gemeinde"},"district":{"key":"09176","name":"Eichstätt","type":"Landkreis"},"federalState":{"key":"09","name":"Bayern"}},{"name":"Eifelstr.","postalCode":"64625","locality":"Bensheim","municipality":{"key":"06431002","name":"Bensheim, Stadt","type":"Stadt"},"district":{"key":"06431","name":"Bergstraße","type":"Landkreis"},"federalState":{"key":"06","name":"Hessen"}},{"name":"Elbestr.","postalCode":"64625","locality":"Bensheim","municipality":{"key":"06431002","name":"Bensheim, Stadt","type":"Stadt"},"district":{"key":"06431","name":"Bergstraße","type":"Landkreis"},"federalState":{"key":"06","name":"Hessen"}},{"name":"Elbinger Str.","postalCode":"64625","locality":"Bensheim","municipality":{"key":"06431002","name":"Bensheim, Stadt","type":"Stadt"},"district":{"key":"06431","name":"Bergstraße","type":"Landkreis"},"federalState":{"key":"06","name":"Hessen"}},{"name":"Elisabethenstr.","postalCode":"64625","locality":"Bensheim","municipality":{"key":"06431002","name":"Bensheim, Stadt","type":"Stadt"},"district":{"key":"06431","name":"Bergstraße","type":"Landkreis"},"federalState":{"key":"06","name":"Hessen"}},{"name":"Elsbeerweg","postalCode":"64625","locality":"Bensheim","municipality":{"key":"06431002","name":"Bensheim, Stadt","type":"Stadt"},"district":{"key":"06431","name":"Bergstraße","type":"Landkreis"},"federalState":{"key":"06","name":"Hessen"}},{"name":"Else-Jawanske-Str.","postalCode":"64625","locality":"Bensheim","municipality":{"key":"06431002","name":"Bensheim, Stadt","type":"Stadt"},"district":{"key":"06431","name":"Bergstraße","type":"Landkreis"},"federalState":{"key":"06","name":"Hessen"}},{"name":"Else-Lasker-Schüler-Str.","postalCode":"64625","locality":"Bensheim","municipality":{"key":"06431002","name":"Bensheim, Stadt","type":"Stadt"},"district":{"key":"06431","name":"Bergstraße","type":"Landkreis"},"federalState":{"key":"06","name":"Hessen"}},{"name":"Elzweg","postalCode":"64625","locality":"Bensheim","municipality":{"key":"06431002","name":"Bensheim, Stadt","type":"Stadt"},"district":{"key":"06431","name":"Bergstraße","type":"Landkreis"},"federalState":{"key":"06","name":"Hessen"}},{"name":"Erbacher Str.","postalCode":"64625","locality":"Bensheim","municipality":{"key":"06431002","name":"Bensheim, Stadt","type":"Stadt"},"district":{"key":"06431","name":"Bergstraße","type":"Landkreis"},"federalState":{"key":"06","name":"Hessen"}},{"name":"Erich-Kästner-Weg","postalCode":"64625","locality":"Bensheim","municipality":{"key":"06431002","name":"Bensheim, Stadt","type":"Stadt"},"district":{"key":"06431","name":"Bergstraße","type":"Landkreis"},"federalState":{"key":"06","name":"Hessen"}},{"name":"Erlenhauptstr.","postalCode":"64625","locality":"Bensheim","municipality":{"key":"06431002","name":"Bensheim, Stadt","type":"Stadt"},"district":{"key":"06431","name":"Bergstraße","type":"Landkreis"},"federalState":{"key":"06","name":"Hessen"}},{"name":"Erlenweg","postalCode":"85117","locality":"Eitensheim","municipality":{"key":"09176124","name":"Eitensheim","type":"Kreisangehörige_Gemeinde"},"district":{"key":"09176","name":"Eichstätt","type":"Landkreis"},"federalState":{"key":"09","name":"Bayern"}},{"name":"Ernst-Ludwig-Str.","postalCode":"64625","locality":"Bensheim","municipality":{"key":"06431002","name":"Bensheim, Stadt","type":"Stadt"},"district":{"key":"06431","name":"Bergstraße","type":"Landkreis"},"federalState":{"key":"06","name":"Hessen"}},{"name":"Ernst-Moritz-Arndt-Str.","postalCode":"64625","locality":"Bensheim","municipality":{"key":"06431002","name":"Bensheim, Stadt","type":"Stadt"},"district":{"key":"06431","name":"Bergstraße","type":"Landkreis"},"federalState":{"key":"06","name":"Hessen"}},{"name":"Ernst-Pasqué-Str.","postalCode":"64625","locality":"Bensheim","municipality":{"key":"06431002","name":"Bensheim, Stadt","type":"Stadt"},"district":{"key":"06431","name":"Bergstraße","type":"Landkreis"},"federalState":{"key":"06","name":"Hessen"}},{"name":"Eschenstr.","postalCode":"64625","locality":"Bensheim","municipality":{"key":"06431002","name":"Bensheim, Stadt","type":"Stadt"},"district":{"key":"06431","name":"Bergstraße","type":"Landkreis"},"federalState":{"key":"06","name":"Hessen"}},{"name":"Eschenweg","postalCode":"85117","locality":"Eitensheim","municipality":{"key":"09176124","name":"Eitensheim","type":"Kreisangehörige_Gemeinde"},"district":{"key":"09176","name":"Eichstätt","type":"Landkreis"},"federalState":{"key":"09","name":"Bayern"}},{"name":"Etzwiesenstr.","postalCode":"64625","locality":"Bensheim","municipality":{"key":"06431002","name":"Bensheim, Stadt","type":"Stadt"},"district":{"key":"06431","name":"Bergstraße","type":"Landkreis"},"federalState":{"key":"06","name":"Hessen"}},{"name":"Falltorstr.","postalCode":"64625","locality":"Bensheim","municipality":{"key":"06431002","name":"Bensheim, Stadt","type":"Stadt"},"district":{"key":"06431","name":"Bergstraße","type":"Landkreis"},"federalState":{"key":"06","name":"Hessen"}},{"name":"Fasanenstr.","postalCode":"85117","locality":"Eitensheim","municipality":{"key":"09176124","name":"Eitensheim","type":"Kreisangehörige_Gemeinde"},"district":{"key":"09176","name":"Eichstätt","type":"Landkreis"},"federalState":{"key":"09","name":"Bayern"}},{"name":"Fasanenweg","postalCode":"64625","locality":"Bensheim","municipality":{"key":"06431002","name":"Bensheim, Stadt","type":"Stadt"},"district":{"key":"06431","name":"Bergstraße","type":"Landkreis"},"federalState":{"key":"06","name":"Hessen"}},{"name":"Fehlheimer Str.","postalCode":"64625","locality":"Bensheim","municipality":{"key":"06431002","name":"Bensheim, Stadt","type":"Stadt"},"district":{"key":"06431","name":"Bergstraße","type":"Landkreis"},"federalState":{"key":"06","name":"Hessen"}},{"name":"Felsbergstr.","postalCode":"64625","locality":"Bensheim","municipality":{"key":"06431002","name":"Bensheim, Stadt","type":"Stadt"},"district":{"key":"06431","name":"Bergstraße","type":"Landkreis"},"federalState":{"key":"06","name":"Hessen"}},{"name":"Fichtestr.","postalCode":"64625","locality":"Bensheim","municipality":{"key":"06431002","name":"Bensheim, Stadt","type":"Stadt"},"district":{"key":"06431","name":"Bergstraße","type":"Landkreis"},"federalState":{"key":"06","name":"Hessen"}},{"name":"Finkenweg","postalCode":"64625","locality":"Bensheim","municipality":{"key":"06431002","name":"Bensheim, Stadt","type":"Stadt"},"district":{"key":"06431","name":"Bergstraße","type":"Landkreis"},"federalState":{"key":"06","name":"Hessen"}},{"name":"Finkenweg","postalCode":"85117","locality":"Eitensheim","municipality":{"key":"09176124","name":"Eitensheim","type":"Kreisangehörige_Gemeinde"},"district":{"key":"09176","name":"Eichstätt","type":"Landkreis"},"federalState":{"key":"09","name":"Bayern"}},{"name":"Fliederstr.","postalCode":"85117","locality":"Eitensheim","municipality":{"key":"09176124","name":"Eitensheim","type":"Kreisangehörige_Gemeinde"},"district":{"key":"09176","name":"Eichstätt","type":"Landkreis"},"federalState":{"key":"09","name":"Bayern"}},{"name":"Fliederweg","postalCode":"64625","locality":"Bensheim","municipality":{"key":"06431002","name":"Bensheim, Stadt","type":"Stadt"},"district":{"key":"06431","name":"Bergstraße","type":"Landkreis"},"federalState":{"key":"06","name":"Hessen"}},{"name":"Flieger-Schneise","postalCode":"64625","locality":"Bensheim","municipality":{"key":"06431002","name":"Bensheim, Stadt","type":"Stadt"},"district":{"key":"06431","name":"Bergstraße","type":"Landkreis"},"federalState":{"key":"06","name":"Hessen"}},{"name":"Föhrenweg","postalCode":"85117","locality":"Eitensheim","municipality":{"key":"09176124","name":"Eitensheim","type":"Kreisangehörige_Gemeinde"},"district":{"key":"09176","name":"Eichstätt","type":"Landkreis"},"federalState":{"key":"09","name":"Bayern"}},{"name":"Forsthausstr.","postalCode":"64625","locality":"Bensheim","municipality":{"key":"06431002","name":"Bensheim, Stadt","type":"Stadt"},"district":{"key":"06431","name":"Bergstraße","type":"Landkreis"},"federalState":{"key":"06","name":"Hessen"}},{"name":"Frankensteinstr.","postalCode":"64625","locality":"Bensheim","municipality":{"key":"06431002","name":"Bensheim, Stadt","type":"Stadt"},"district":{"key":"06431","name":"Bergstraße","type":"Landkreis"},"federalState":{"key":"06","name":"Hessen"}},{"name":"Frankenstr.","postalCode":"64625","locality":"Bensheim","municipality":{"key":"06431002","name":"Bensheim, Stadt","type":"Stadt"},"district":{"key":"06431","name":"Bergstraße","type":"Landkreis"},"federalState":{"key":"06","name":"Hessen"}},{"name":"Franz-Kafka-Str.","postalCode":"64625","locality":"Bensheim","municipality":{"key":"06431002","name":"Bensheim, Stadt","type":"Stadt"},"district":{"key":"06431","name":"Bergstraße","type":"Landkreis"},"federalState":{"key":"06","name":"Hessen"}},{"name":"Franz-Lehár-Weg","postalCode":"64625","locality":"Bensheim","municipality":{"key":"06431002","name":"Bensheim, Stadt","type":"Stadt"},"district":{"key":"06431","name":"Bergstraße","type":"Landkreis"},"federalState":{"key":"06","name":"Hessen"}},{"name":"Franz-Schubert-Str.","postalCode":"64625","locality":"Bensheim","municipality":{"key":"06431002","name":"Bensheim, Stadt","type":"Stadt"},"district":{"key":"06431","name":"Bergstraße","type":"Landkreis"},"federalState":{"key":"06","name":"Hessen"}},{"name":"Freiherr-vom-Stein-Str.","postalCode":"64625","locality":"Bensheim","municipality":{"key":"06431002","name":"Bensheim, Stadt","type":"Stadt"},"district":{"key":"06431","name":"Bergstraße","type":"Landkreis"},"federalState":{"key":"06","name":"Hessen"}},{"name":"Frenaystr.","postalCode":"64625","locality":"Bensheim","municipality":{"key":"06431002","name":"Bensheim, Stadt","type":"Stadt"},"district":{"key":"06431","name":"Bergstraße","type":"Landkreis"},"federalState":{"key":"06","name":"Hessen"}},{"name":"Friedensstr.","postalCode":"64625","locality":"Bensheim","municipality":{"key":"06431002","name":"Bensheim, Stadt","type":"Stadt"},"district":{"key":"06431","name":"Bergstraße","type":"Landkreis"},"federalState":{"key":"06","name":"Hessen"}},{"name":"Friedhofstr.","postalCode":"64625","locality":"Bensheim","municipality":{"key":"06431002","name":"Bensheim, Stadt","type":"Stadt"},"district":{"key":"06431","name":"Bergstraße","type":"Landkreis"},"federalState":{"key":"06","name":"Hessen"}},{"name":"Friedrich-Ebert-Str.","postalCode":"64625","locality":"Bensheim","municipality":{"key":"06431002","name":"Bensheim, Stadt","type":"Stadt"},"district":{"key":"06431","name":"Bergstraße","type":"Landkreis"},"federalState":{"key":"06","name":"Hessen"}},{"name":"Friedrichstr.","postalCode":"64625","locality":"Bensheim","municipality":{"key":"06431002","name":"Bensheim, Stadt","type":"Stadt"},"district":{"key":"06431","name":"Bergstraße","type":"Landkreis"},"federalState":{"key":"06","name":"Hessen"}},{"name":"Fritz-Bockius-Str.","postalCode":"64625","locality":"Bensheim","municipality":{"key":"06431002","name":"Bensheim, Stadt","type":"Stadt"},"district":{"key":"06431","name":"Bergstraße","type":"Landkreis"},"federalState":{"key":"06","name":"Hessen"}},{"name":"Fröbelstr.","postalCode":"64625","locality":"Bensheim","municipality":{"key":"06431002","name":"Bensheim, Stadt","type":"Stadt"},"district":{"key":"06431","name":"Bergstraße","type":"Landkreis"},"federalState":{"key":"06","name":"Hessen"}},{"name":"Fröbelstr.","postalCode":"85117","locality":"Eitensheim","municipality":{"key":"09176124","name":"Eitensheim","type":"Kreisangehörige_Gemeinde"},"district":{"key":"09176","name":"Eichstätt","type":"Landkreis"},"federalState":{"key":"09","name":"Bayern"}},{"name":"Frühlingsstr.","postalCode":"85117","locality":"Eitensheim","municipality":{"key":"09176124","name":"Eitensheim","type":"Kreisangehörige_Gemeinde"},"district":{"key":"09176","name":"Eichstätt","type":"Landkreis"},"federalState":{"key":"09","name":"Bayern"}},{"name":"Fuldastr.","postalCode":"64625","locality":"Bensheim","municipality":{"key":"06431002","name":"Bensheim, Stadt","type":"Stadt"},"district":{"key":"06431","name":"Bergstraße","type":"Landkreis"},"federalState":{"key":"06","name":"Hessen"}},{"name":"Gaimersheimer Str.","postalCode":"85117","locality":"Eitensheim","municipality":{"key":"09176124","name":"Eitensheim","type":"Kreisangehörige_Gemeinde"},"district":{"key":"09176","name":"Eichstätt","type":"Landkreis"},"federalState":{"key":"09","name":"Bayern"}},{"name":"Gartenfeldstr.","postalCode":"55232","locality":"Ensheim","municipality":{"key":"07331019","name":"Ensheim","type":"Kreisangehörige_Gemeinde"},"district":{"key":"07331","name":"Alzey-Worms","type":"Landkreis"},"federalState":{"key":"07","name":"Rheinland-Pfalz"}},{"name":"Gartenstr.","postalCode":"64625","locality":"Bensheim","municipality":{"key":"06431002","name":"Bensheim, Stadt","type":"Stadt"},"district":{"key":"06431","name":"Bergstraße","type":"Landkreis"},"federalState":{"key":"06","name":"Hessen"}},{"name":"Gartenstr.","postalCode":"85117","locality":"Eitensheim","municipality":{"key":"09176124","name":"Eitensheim","type":"Kreisangehörige_Gemeinde"},"district":{"key":"09176","name":"Eichstätt","type":"Landkreis"},"federalState":{"key":"09","name":"Bayern"}},{"name":"Gärtnerweg","postalCode":"64625","locality":"Bensheim","municipality":{"key":"06431002","name":"Bensheim, Stadt","type":"Stadt"},"district":{"key":"06431","name":"Bergstraße","type":"Landkreis"},"federalState":{"key":"06","name":"Hessen"}},{"name":"Gehrenweg","postalCode":"64625","locality":"Bensheim","municipality":{"key":"06431002","name":"Bensheim, Stadt","type":"Stadt"},"district":{"key":"06431","name":"Bergstraße","type":"Landkreis"},"federalState":{"key":"06","name":"Hessen"}},{"name":"Georg-Möller-Weg","postalCode":"64625","locality":"Bensheim","municipality":{"key":"06431002","name":"Bensheim, Stadt","type":"Stadt"},"district":{"key":"06431","name":"Bergstraße","type":"Landkreis"},"federalState":{"key":"06","name":"Hessen"}},{"name":"Gerbergasse","postalCode":"64625","locality":"Bensheim","municipality":{"key":"06431002","name":"Bensheim, Stadt","type":"Stadt"},"district":{"key":"06431","name":"Bergstraße","type":"Landkreis"},"federalState":{"key":"06","name":"Hessen"}},{"name":"Gerhart-Hauptmann-Str.","postalCode":"64625","locality":"Bensheim","municipality":{"key":"06431002","name":"Bensheim, Stadt","type":"Stadt"},"district":{"key":"06431","name":"Bergstraße","type":"Landkreis"},"federalState":{"key":"06","name":"Hessen"}},{"name":"Gertrud-Eysoldt-Str.","postalCode":"64625","locality":"Bensheim","municipality":{"key":"06431002","name":"Bensheim, Stadt","type":"Stadt"},"district":{"key":"06431","name":"Bergstraße","type":"Landkreis"},"federalState":{"key":"06","name":"Hessen"}},{"name":"Goethestr.","postalCode":"64625","locality":"Bensheim","municipality":{"key":"06431002","name":"Bensheim, Stadt","type":"Stadt"},"district":{"key":"06431","name":"Bergstraße","type":"Landkreis"},"federalState":{"key":"06","name":"Hessen"}},{"name":"Goethestr.","postalCode":"85117","locality":"Eitensheim","municipality":{"key":"09176124","name":"Eitensheim","type":"Kreisangehörige_Gemeinde"},"district":{"key":"09176","name":"Eichstätt","type":"Landkreis"},"federalState":{"key":"09","name":"Bayern"}},{"name":"Görlitzer Str.","postalCode":"64625","locality":"Bensheim","municipality":{"key":"06431002","name":"Bensheim, Stadt","type":"Stadt"},"district":{"key":"06431","name":"Bergstraße","type":"Landkreis"},"federalState":{"key":"06","name":"Hessen"}},{"name":"Gotenstr.","postalCode":"64625","locality":"Bensheim","municipality":{"key":"06431002","name":"Bensheim, Stadt","type":"Stadt"},"district":{"key":"06431","name":"Bergstraße","type":"Landkreis"},"federalState":{"key":"06","name":"Hessen"}},{"name":"Grafenstr.","postalCode":"64625","locality":"Bensheim","municipality":{"key":"06431002","name":"Bensheim, Stadt","type":"Stadt"},"district":{"key":"06431","name":"Bergstraße","type":"Landkreis"},"federalState":{"key":"06","name":"Hessen"}},{"name":"Grenzweg","postalCode":"64625","locality":"Bensheim","municipality":{"key":"06431002","name":"Bensheim, Stadt","type":"Stadt"},"district":{"key":"06431","name":"Bergstraße","type":"Landkreis"},"federalState":{"key":"06","name":"Hessen"}},{"name":"Grieselstr.","postalCode":"64625","locality":"Bensheim","municipality":{"key":"06431002","name":"Bensheim, Stadt","type":"Stadt"},"district":{"key":"06431","name":"Bergstraße","type":"Landkreis"},"federalState":{"key":"06","name":"Hessen"}},{"name":"Gronauer Str.","postalCode":"64625","locality":"Bensheim","municipality":{"key":"06431002","name":"Bensheim, Stadt","type":"Stadt"},"district":{"key":"06431","name":"Bergstraße","type":"Landkreis"},"federalState":{"key":"06","name":"Hessen"}},{"name":"Grüne Str.","postalCode":"64625","locality":"Bensheim","municipality":{"key":"06431002","name":"Bensheim, Stadt","type":"Stadt"},"district":{"key":"06431","name":"Bergstraße","type":"Landkreis"},"federalState":{"key":"06","name":"Hessen"}},{"name":"Guntherstr.","postalCode":"64625","locality":"Bensheim","municipality":{"key":"06431002","name":"Bensheim, Stadt","type":"Stadt"},"district":{"key":"06431","name":"Bergstraße","type":"Landkreis"},"federalState":{"key":"06","name":"Hessen"}},{"name":"Haderstr.","postalCode":"85117","locality":"Eitensheim","municipality":{"key":"09176124","name":"Eitensheim","type":"Kreisangehörige_Gemeinde"},"district":{"key":"09176","name":"Eichstätt","type":"Landkreis"},"federalState":{"key":"09","name":"Bayern"}},{"name":"Hagenstr.","postalCode":"64625","locality":"Bensheim","municipality":{"key":"06431002","name":"Bensheim, Stadt","type":"Stadt"},"district":{"key":"06431","name":"Bergstraße","type":"Landkreis"},"federalState":{"key":"06","name":"Hessen"}},{"name":"Hahnbergweg","postalCode":"64625","locality":"Bensheim","municipality":{"key":"06431002","name":"Bensheim, Stadt","type":"Stadt"},"district":{"key":"06431","name":"Bergstraße","type":"Landkreis"},"federalState":{"key":"06","name":"Hessen"}},{"name":"Hahnengasse","postalCode":"55232","locality":"Ensheim","municipality":{"key":"07331019","name":"Ensheim","type":"Kreisangehörige_Gemeinde"},"district":{"key":"07331","name":"Alzey-Worms","type":"Landkreis"},"federalState":{"key":"07","name":"Rheinland-Pfalz"}},{"name":"Hambacher Str.","postalCode":"64625","locality":"Bensheim","municipality":{"key":"06431002","name":"Bensheim, Stadt","type":"Stadt"},"district":{"key":"06431","name":"Bergstraße","type":"Landkreis"},"federalState":{"key":"06","name":"Hessen"}},{"name":"Hambacher Weg","postalCode":"64625","locality":"Bensheim","municipality":{"key":"06431002","name":"Bensheim, Stadt","type":"Stadt"},"district":{"key":"06431","name":"Bergstraße","type":"Landkreis"},"federalState":{"key":"06","name":"Hessen"}},{"name":"Händelstr.","postalCode":"85117","locality":"Eitensheim","municipality":{"key":"09176124","name":"Eitensheim","type":"Kreisangehörige_Gemeinde"},"district":{"key":"09176","name":"Eichstätt","type":"Landkreis"},"federalState":{"key":"09","name":"Bayern"}},{"name":"Hardweg","postalCode":"64625","locality":"Bensheim","municipality":{"key":"06431002","name":"Bensheim, Stadt","type":"Stadt"},"district":{"key":"06431","name":"Bergstraße","type":"Landkreis"},"federalState":{"key":"06","name":"Hessen"}},{"name":"Hartmannsrechweg","postalCode":"64625","locality":"Bensheim","municipality":{"key":"06431002","name":"Bensheim, Stadt","type":"Stadt"},"district":{"key":"06431","name":"Bergstraße","type":"Landkreis"},"federalState":{"key":"06","name":"Hessen"}},{"name":"Hasengasse","postalCode":"64625","locality":"Bensheim","municipality":{"key":"06431002","name":"Bensheim, Stadt","type":"Stadt"},"district":{"key":"06431","name":"Bergstraße","type":"Landkreis"},"federalState":{"key":"06","name":"Hessen"}},{"name":"Haydnstr.","postalCode":"64625","locality":"Bensheim","municipality":{"key":"06431002","name":"Bensheim, Stadt","type":"Stadt"},"district":{"key":"06431","name":"Bergstraße","type":"Landkreis"},"federalState":{"key":"06","name":"Hessen"}},{"name":"Haydnstr.","postalCode":"85117","locality":"Eitensheim","municipality":{"key":"09176124","name":"Eitensheim","type":"Kreisangehörige_Gemeinde"},"district":{"key":"09176","name":"Eichstätt","type":"Landkreis"},"federalState":{"key":"09","name":"Bayern"}},{"name":"Heidelberger Str.","postalCode":"64625","locality":"Bensheim","municipality":{"key":"06431002","name":"Bensheim, Stadt","type":"Stadt"},"district":{"key":"06431","name":"Bergstraße","type":"Landkreis"},"federalState":{"key":"06","name":"Hessen"}},{"name":"Heimrodstr.","postalCode":"64625","locality":"Bensheim","municipality":{"key":"06431002","name":"Bensheim, Stadt","type":"Stadt"},"district":{"key":"06431","name":"Bergstraße","type":"Landkreis"},"federalState":{"key":"06","name":"Hessen"}},{"name":"Heinrich-Heine-Str.","postalCode":"64625","locality":"Bensheim","municipality":{"key":"06431002","name":"Bensheim, Stadt","type":"Stadt"},"district":{"key":"06431","name":"Bergstraße","type":"Landkreis"},"federalState":{"key":"06","name":"Hessen"}},{"name":"Heinrichstr.","postalCode":"64625","locality":"Bensheim","municipality":{"key":"06431002","name":"Bensheim, Stadt","type":"Stadt"},"district":{"key":"06431","name":"Bergstraße","type":"Landkreis"},"federalState":{"key":"06","name":"Hessen"}},{"name":"Heinrich-von-Brentano-Str.","postalCode":"64625","locality":"Bensheim","municipality":{"key":"06431002","name":"Bensheim, Stadt","type":"Stadt"},"district":{"key":"06431","name":"Bergstraße","type":"Landkreis"},"federalState":{"key":"06","name":"Hessen"}},{"name":"Heinrich-von-Gagern-Platz","postalCode":"64625","locality":"Bensheim","municipality":{"key":"06431002","name":"Bensheim, Stadt","type":"Stadt"},"district":{"key":"06431","name":"Bergstraße","type":"Landkreis"},"federalState":{"key":"06","name":"Hessen"}},{"name":"Heinrich-von-Kleist-Str.","postalCode":"64625","locality":"Bensheim","municipality":{"key":"06431002","name":"Bensheim, Stadt","type":"Stadt"},"district":{"key":"06431","name":"Bergstraße","type":"Landkreis"},"federalState":{"key":"06","name":"Hessen"}},{"name":"Heinrich-Winter-Weg","postalCode":"64625","locality":"Bensheim","municipality":{"key":"06431002","name":"Bensheim, Stadt","type":"Stadt"},"district":{"key":"06431","name":"Bergstraße","type":"Landkreis"},"federalState":{"key":"06","name":"Hessen"}},{"name":"Heinz-Eiff-Str.","postalCode":"64625","locality":"Bensheim","municipality":{"key":"06431002","name":"Bensheim, Stadt","type":"Stadt"},"district":{"key":"06431","name":"Bergstraße","type":"Landkreis"},"federalState":{"key":"06","name":"Hessen"}},{"name":"Hemsbergstr.","postalCode":"64625","locality":"Bensheim","municipality":{"key":"06431002","name":"Bensheim, Stadt","type":"Stadt"},"district":{"key":"06431","name":"Bergstraße","type":"Landkreis"},"federalState":{"key":"06","name":"Hessen"}},{"name":"Hemsbergweg","postalCode":"64625","locality":"Bensheim","municipality":{"key":"06431002","name":"Bensheim, Stadt","type":"Stadt"},"district":{"key":"06431","name":"Bergstraße","type":"Landkreis"},"federalState":{"key":"06","name":"Hessen"}},{"name":"Henri-Dunant-Str.","postalCode":"64625","locality":"Bensheim","municipality":{"key":"06431002","name":"Bensheim, Stadt","type":"Stadt"},"district":{"key":"06431","name":"Bergstraße","type":"Landkreis"},"federalState":{"key":"06","name":"Hessen"}},{"name":"Herderstr.","postalCode":"64625","locality":"Bensheim","municipality":{"key":"06431002","name":"Bensheim, Stadt","type":"Stadt"},"district":{"key":"06431","name":"Bergstraße","type":"Landkreis"},"federalState":{"key":"06","name":"Hessen"}},{"name":"Herderstr.","postalCode":"85117","locality":"Eitensheim","municipality":{"key":"09176124","name":"Eitensheim","type":"Kreisangehörige_Gemeinde"},"district":{"key":"09176","name":"Eichstätt","type":"Landkreis"},"federalState":{"key":"09","name":"Bayern"}},{"name":"Hermann-Löns-Str.","postalCode":"64625","locality":"Bensheim","municipality":{"key":"06431002","name":"Bensheim, Stadt","type":"Stadt"},"district":{"key":"06431","name":"Bergstraße","type":"Landkreis"},"federalState":{"key":"06","name":"Hessen"}},{"name":"Hermannstr.","postalCode":"64625","locality":"Bensheim","municipality":{"key":"06431002","name":"Bensheim, Stadt","type":"Stadt"},"district":{"key":"06431","name":"Bergstraße","type":"Landkreis"},"federalState":{"key":"06","name":"Hessen"}},{"name":"Herrenweg","postalCode":"64625","locality":"Bensheim","municipality":{"key":"06431002","name":"Bensheim, Stadt","type":"Stadt"},"district":{"key":"06431","name":"Bergstraße","type":"Landkreis"},"federalState":{"key":"06","name":"Hessen"}},{"name":"Herrgasse","postalCode":"55232","locality":"Ensheim","municipality":{"key":"07331019","name":"Ensheim","type":"Kreisangehörige_Gemeinde"},"district":{"key":"07331","name":"Alzey-Worms","type":"Landkreis"},"federalState":{"key":"07","name":"Rheinland-Pfalz"}},{"name":"Herrnwaldstr.","postalCode":"64625","locality":"Bensheim","municipality":{"key":"06431002","name":"Bensheim, Stadt","type":"Stadt"},"district":{"key":"06431","name":"Bergstraße","type":"Landkreis"},"federalState":{"key":"06","name":"Hessen"}},{"name":"Hintenausweg","postalCode":"64625","locality":"Bensheim","municipality":{"key":"06431002","name":"Bensheim, Stadt","type":"Stadt"},"district":{"key":"06431","name":"Bergstraße","type":"Landkreis"},"federalState":{"key":"06","name":"Hessen"}},{"name":"Hintergasse","postalCode":"64625","locality":"Bensheim","municipality":{"key":"06431002","name":"Bensheim, Stadt","type":"Stadt"},"district":{"key":"06431","name":"Bergstraße","type":"Landkreis"},"federalState":{"key":"06","name":"Hessen"}},{"name":"Hochstr.","postalCode":"64625","locality":"Bensheim","municipality":{"key":"06431002","name":"Bensheim, Stadt","type":"Stadt"},"district":{"key":"06431","name":"Bergstraße","type":"Landkreis"},"federalState":{"key":"06","name":"Hessen"}},{"name":"Hochzeitsweg","postalCode":"64625","locality":"Bensheim","municipality":{"key":"06431002","name":"Bensheim, Stadt","type":"Stadt"},"district":{"key":"06431","name":"Bergstraße","type":"Landkreis"},"federalState":{"key":"06","name":"Hessen"}},{"name":"Hofgartenstr.","postalCode":"64625","locality":"Bensheim","municipality":{"key":"06431002","name":"Bensheim, Stadt","type":"Stadt"},"district":{"key":"06431","name":"Bergstraße","type":"Landkreis"},"federalState":{"key":"06","name":"Hessen"}},{"name":"Hofgasse","postalCode":"85117","locality":"Eitensheim","municipality":{"key":"09176124","name":"Eitensheim","type":"Kreisangehörige_Gemeinde"},"district":{"key":"09176","name":"Eichstätt","type":"Landkreis"},"federalState":{"key":"09","name":"Bayern"}},{"name":"Hofweg","postalCode":"64625","locality":"Bensheim","municipality":{"key":"06431002","name":"Bensheim, Stadt","type":"Stadt"},"district":{"key":"06431","name":"Bergstraße","type":"Landkreis"},"federalState":{"key":"06","name":"Hessen"}},{"name":"Hofwiesenstr.","postalCode":"85117","locality":"Eitensheim","municipality":{"key":"09176124","name":"Eitensheim","type":"Kreisangehörige_Gemeinde"},"district":{"key":"09176","name":"Eichstätt","type":"Landkreis"},"federalState":{"key":"09","name":"Bayern"}},{"name":"Hohbergweg","postalCode":"64625","locality":"Bensheim","municipality":{"key":"06431002","name":"Bensheim, Stadt","type":"Stadt"},"district":{"key":"06431","name":"Bergstraße","type":"Landkreis"},"federalState":{"key":"06","name":"Hessen"}},{"name":"Hohenweg","postalCode":"64625","locality":"Bensheim","municipality":{"key":"06431002","name":"Bensheim, Stadt","type":"Stadt"},"district":{"key":"06431","name":"Bergstraße","type":"Landkreis"},"federalState":{"key":"06","name":"Hessen"}},{"name":"Hohle Gasse","postalCode":"64625","locality":"Bensheim","municipality":{"key":"06431002","name":"Bensheim, Stadt","type":"Stadt"},"district":{"key":"06431","name":"Bergstraße","type":"Landkreis"},"federalState":{"key":"06","name":"Hessen"}},{"name":"Holunderweg","postalCode":"64625","locality":"Bensheim","municipality":{"key":"06431002","name":"Bensheim, Stadt","type":"Stadt"},"district":{"key":"06431","name":"Bergstraße","type":"Landkreis"},"federalState":{"key":"06","name":"Hessen"}},{"name":"Hortensienweg","postalCode":"64625","locality":"Bensheim","municipality":{"key":"06431002","name":"Bensheim, Stadt","type":"Stadt"},"district":{"key":"06431","name":"Bergstraße","type":"Landkreis"},"federalState":{"key":"06","name":"Hessen"}},{"name":"Hospitalstr.","postalCode":"64625","locality":"Bensheim","municipality":{"key":"06431002","name":"Bensheim, Stadt","type":"Stadt"},"district":{"key":"06431","name":"Bergstraße","type":"Landkreis"},"federalState":{"key":"06","name":"Hessen"}},{"name":"Hügelstr.","postalCode":"64625","locality":"Bensheim","municipality":{"key":"06431002","name":"Bensheim, Stadt","type":"Stadt"},"district":{"key":"06431","name":"Bergstraße","type":"Landkreis"},"federalState":{"key":"06","name":"Hessen"}},{"name":"Humboldtstr.","postalCode":"64625","locality":"Bensheim","municipality":{"key":"06431002","name":"Bensheim, Stadt","type":"Stadt"},"district":{"key":"06431","name":"Bergstraße","type":"Landkreis"},"federalState":{"key":"06","name":"Hessen"}},{"name":"Hunsrückstr.","postalCode":"64625","locality":"Bensheim","municipality":{"key":"06431002","name":"Bensheim, Stadt","type":"Stadt"},"district":{"key":"06431","name":"Bergstraße","type":"Landkreis"},"federalState":{"key":"06","name":"Hessen"}},{"name":"Im Alengarten","postalCode":"64625","locality":"Bensheim","municipality":{"key":"06431002","name":"Bensheim, Stadt","type":"Stadt"},"district":{"key":"06431","name":"Bergstraße","type":"Landkreis"},"federalState":{"key":"06","name":"Hessen"}},{"name":"Im Bangert","postalCode":"64625","locality":"Bensheim","municipality":{"key":"06431002","name":"Bensheim, Stadt","type":"Stadt"},"district":{"key":"06431","name":"Bergstraße","type":"Landkreis"},"federalState":{"key":"06","name":"Hessen"}},{"name":"Im Bärbelsgrund","postalCode":"64625","locality":"Bensheim","municipality":{"key":"06431002","name":"Bensheim, Stadt","type":"Stadt"},"district":{"key":"06431","name":"Bergstraße","type":"Landkreis"},"federalState":{"key":"06","name":"Hessen"}},{"name":"Im Ebertswinkel","postalCode":"64625","locality":"Bensheim","municipality":{"key":"06431002","name":"Bensheim, Stadt","type":"Stadt"},"district":{"key":"06431","name":"Bergstraße","type":"Landkreis"},"federalState":{"key":"06","name":"Hessen"}},{"name":"Im Eichenböhl","postalCode":"64625","locality":"Bensheim","municipality":{"key":"06431002","name":"Bensheim, Stadt","type":"Stadt"},"district":{"key":"06431","name":"Bergstraße","type":"Landkreis"},"federalState":{"key":"06","name":"Hessen"}},{"name":"Im Entenpfad","postalCode":"64625","locality":"Bensheim","municipality":{"key":"06431002","name":"Bensheim, Stadt","type":"Stadt"},"district":{"key":"06431","name":"Bergstraße","type":"Landkreis"},"federalState":{"key":"06","name":"Hessen"}},{"name":"Im Entich","postalCode":"64625","locality":"Bensheim","municipality":{"key":"06431002","name":"Bensheim, Stadt","type":"Stadt"},"district":{"key":"06431","name":"Bergstraße","type":"Landkreis"},"federalState":{"key":"06","name":"Hessen"}},{"name":"Im Freiacker","postalCode":"64625","locality":"Bensheim","municipality":{"key":"06431002","name":"Bensheim, Stadt","type":"Stadt"},"district":{"key":"06431","name":"Bergstraße","type":"Landkreis"},"federalState":{"key":"06","name":"Hessen"}},{"name":"Im Gerstengrund","postalCode":"64625","locality":"Bensheim","municipality":{"key":"06431002","name":"Bensheim, Stadt","type":"Stadt"},"district":{"key":"06431","name":"Bergstraße","type":"Landkreis"},"federalState":{"key":"06","name":"Hessen"}},{"name":"Im Haingrund","postalCode":"64625","locality":"Bensheim","municipality":{"key":"06431002","name":"Bensheim, Stadt","type":"Stadt"},"district":{"key":"06431","name":"Bergstraße","type":"Landkreis"},"federalState":{"key":"06","name":"Hessen"}},{"name":"Im Heckengrund","postalCode":"64625","locality":"Bensheim","municipality":{"key":"06431002","name":"Bensheim, Stadt","type":"Stadt"},"district":{"key":"06431","name":"Bergstraße","type":"Landkreis"},"federalState":{"key":"06","name":"Hessen"}},{"name":"Im Kappelgrund","postalCode":"64625","locality":"Bensheim","municipality":{"key":"06431002","name":"Bensheim, Stadt","type":"Stadt"},"district":{"key":"06431","name":"Bergstraße","type":"Landkreis"},"federalState":{"key":"06","name":"Hessen"}},{"name":"Im Käsethal","postalCode":"64625","locality":"Bensheim","municipality":{"key":"06431002","name":"Bensheim, Stadt","type":"Stadt"},"district":{"key":"06431","name":"Bergstraße","type":"Landkreis"},"federalState":{"key":"06","name":"Hessen"}},{"name":"Im Lerchengrund","postalCode":"64625","locality":"Bensheim","municipality":{"key":"06431002","name":"Bensheim, Stadt","type":"Stadt"},"district":{"key":"06431","name":"Bergstraße","type":"Landkreis"},"federalState":{"key":"06","name":"Hessen"}},{"name":"Im Neugarten","postalCode":"64625","locality":"Bensheim","municipality":{"key":"06431002","name":"Bensheim, Stadt","type":"Stadt"},"district":{"key":"06431","name":"Bergstraße","type":"Landkreis"},"federalState":{"key":"06","name":"Hessen"}},{"name":"Im Pflänzer","postalCode":"64625","locality":"Bensheim","municipality":{"key":"06431002","name":"Bensheim, Stadt","type":"Stadt"},"district":{"key":"06431","name":"Bergstraße","type":"Landkreis"},"federalState":{"key":"06","name":"Hessen"}},{"name":"Im Sand","postalCode":"64625","locality":"Bensheim","municipality":{"key":"06431002","name":"Bensheim, Stadt","type":"Stadt"},"district":{"key":"06431","name":"Bergstraße","type":"Landkreis"},"federalState":{"key":"06","name":"Hessen"}},{"name":"Im Tiefen Weg","postalCode":"64625","locality":"Bensheim","municipality":{"key":"06431002","name":"Bensheim, Stadt","type":"Stadt"},"district":{"key":"06431","name":"Bergstraße","type":"Landkreis"},"federalState":{"key":"06","name":"Hessen"}},{"name":"In den Linkengärten","postalCode":"64625","locality":"Bensheim","municipality":{"key":"06431002","name":"Bensheim, Stadt","type":"Stadt"},"district":{"key":"06431","name":"Bergstraße","type":"Landkreis"},"federalState":{"key":"06","name":"Hessen"}},{"name":"In den Zeilbäumen","postalCode":"64625","locality":"Bensheim","municipality":{"key":"06431002","name":"Bensheim, Stadt","type":"Stadt"},"district":{"key":"06431","name":"Bergstraße","type":"Landkreis"},"federalState":{"key":"06","name":"Hessen"}},{"name":"In der Baumreihe","postalCode":"64625","locality":"Bensheim","municipality":{"key":"06431002","name":"Bensheim, Stadt","type":"Stadt"},"district":{"key":"06431","name":"Bergstraße","type":"Landkreis"},"federalState":{"key":"06","name":"Hessen"}},{"name":"In der Bensendell","postalCode":"64625","locality":"Bensheim","municipality":{"key":"06431002","name":"Bensheim, Stadt","type":"Stadt"},"district":{"key":"06431","name":"Bergstraße","type":"Landkreis"},"federalState":{"key":"06","name":"Hessen"}},{"name":"In der Breiten","postalCode":"85117","locality":"Eitensheim","municipality":{"key":"09176124","name":"Eitensheim","type":"Kreisangehörige_Gemeinde"},"district":{"key":"09176","name":"Eichstätt","type":"Landkreis"},"federalState":{"key":"09","name":"Bayern"}},{"name":"In der Goi","postalCode":"85117","locality":"Eitensheim","municipality":{"key":"09176124","name":"Eitensheim","type":"Kreisangehörige_Gemeinde"},"district":{"key":"09176","name":"Eichstätt","type":"Landkreis"},"federalState":{"key":"09","name":"Bayern"}},{"name":"In der Heinzelsgasse","postalCode":"64625","locality":"Bensheim","municipality":{"key":"06431002","name":"Bensheim, Stadt","type":"Stadt"},"district":{"key":"06431","name":"Bergstraße","type":"Landkreis"},"federalState":{"key":"06","name":"Hessen"}},{"name":"In der Oberwiese","postalCode":"55232","locality":"Ensheim","municipality":{"key":"07331019","name":"Ensheim","type":"Kreisangehörige_Gemeinde"},"district":{"key":"07331","name":"Alzey-Worms","type":"Landkreis"},"federalState":{"key":"07","name":"Rheinland-Pfalz"}},{"name":"In der Wolfsschlucht","postalCode":"64625","locality":"Bensheim","municipality":{"key":"06431002","name":"Bensheim, Stadt","type":"Stadt"},"district":{"key":"06431","name":"Bergstraße","type":"Landkreis"},"federalState":{"key":"06","name":"Hessen"}},{"name":"Ingolstädter Str.","postalCode":"85117","locality":"Eitensheim","municipality":{"key":"09176124","name":"Eitensheim","type":"Kreisangehörige_Gemeinde"},"district":{"key":"09176","name":"Eichstätt","type":"Landkreis"},"federalState":{"key":"09","name":"Bayern"}},{"name":"Jacob-Löhr-Str.","postalCode":"64625","locality":"Bensheim","municipality":{"key":"06431002","name":"Bensheim, Stadt","type":"Stadt"},"district":{"key":"06431","name":"Bergstraße","type":"Landkreis"},"federalState":{"key":"06","name":"Hessen"}},{"name":"Jägersburger Str.","postalCode":"64625","locality":"Bensheim","municipality":{"key":"06431002","name":"Bensheim, Stadt","type":"Stadt"},"district":{"key":"06431","name":"Bergstraße","type":"Landkreis"},"federalState":{"key":"06","name":"Hessen"}},{"name":"Jägerstr.","postalCode":"64625","locality":"Bensheim","municipality":{"key":"06431002","name":"Bensheim, Stadt","type":"Stadt"},"district":{"key":"06431","name":"Bergstraße","type":"Landkreis"},"federalState":{"key":"06","name":"Hessen"}},{"name":"Jahnstr.","postalCode":"64625","locality":"Bensheim","municipality":{"key":"06431002","name":"Bensheim, Stadt","type":"Stadt"},"district":{"key":"06431","name":"Bergstraße","type":"Landkreis"},"federalState":{"key":"06","name":"Hessen"}},{"name":"Jahnstr.","postalCode":"85117","locality":"Eitensheim","municipality":{"key":"09176124","name":"Eitensheim","type":"Kreisangehörige_Gemeinde"},"district":{"key":"09176","name":"Eichstätt","type":"Landkreis"},"federalState":{"key":"09","name":"Bayern"}},{"name":"Jakob-Kindinger-Str.","postalCode":"64625","locality":"Bensheim","municipality":{"key":"06431002","name":"Bensheim, Stadt","type":"Stadt"},"district":{"key":"06431","name":"Bergstraße","type":"Landkreis"},"federalState":{"key":"06","name":"Hessen"}},{"name":"Jakobsweg","postalCode":"64625","locality":"Bensheim","municipality":{"key":"06431002","name":"Bensheim, Stadt","type":"Stadt"},"district":{"key":"06431","name":"Bergstraße","type":"Landkreis"},"federalState":{"key":"06","name":"Hessen"}},{"name":"Jasminweg","postalCode":"64625","locality":"Bensheim","municipality":{"key":"06431002","name":"Bensheim, Stadt","type":"Stadt"},"district":{"key":"06431","name":"Bergstraße","type":"Landkreis"},"federalState":{"key":"06","name":"Hessen"}},{"name":"Josef-Sartorius-Str.","postalCode":"64625","locality":"Bensheim","municipality":{"key":"06431002","name":"Bensheim, Stadt","type":"Stadt"},"district":{"key":"06431","name":"Bergstraße","type":"Landkreis"},"federalState":{"key":"06","name":"Hessen"}},{"name":"Josef-Stoll-Platz","postalCode":"64625","locality":"Bensheim","municipality":{"key":"06431002","name":"Bensheim, Stadt","type":"Stadt"},"district":{"key":"06431","name":"Bergstraße","type":"Landkreis"},"federalState":{"key":"06","name":"Hessen"}},{"name":"Joseph-Heckler-Weg","postalCode":"64625","locality":"Bensheim","municipality":{"key":"06431002","name":"Bensheim, Stadt","type":"Stadt"},"district":{"key":"06431","name":"Bergstraße","type":"Landkreis"},"federalState":{"key":"06","name":"Hessen"}},{"name":"Joseph-Treffert-Str.","postalCode":"64625","locality":"Bensheim","municipality":{"key":"06431002","name":"Bensheim, Stadt","type":"Stadt"},"district":{"key":"06431","name":"Bergstraße","type":"Landkreis"},"federalState":{"key":"06","name":"Hessen"}},{"name":"Kälberpfad","postalCode":"64625","locality":"Bensheim","municipality":{"key":"06431002","name":"Bensheim, Stadt","type":"Stadt"},"district":{"key":"06431","name":"Bergstraße","type":"Landkreis"},"federalState":{"key":"06","name":"Hessen"}},{"name":"Kampflwiesenweg","postalCode":"85117","locality":"Eitensheim","municipality":{"key":"09176124","name":"Eitensheim","type":"Kreisangehörige_Gemeinde"},"district":{"key":"09176","name":"Eichstätt","type":"Landkreis"},"federalState":{"key":"09","name":"Bayern"}},{"name":"Kandelbornweg","postalCode":"64625","locality":"Bensheim","municipality":{"key":"06431002","name":"Bensheim, Stadt","type":"Stadt"},"district":{"key":"06431","name":"Bergstraße","type":"Landkreis"},"federalState":{"key":"06","name":"Hessen"}},{"name":"Kantstr.","postalCode":"85117","locality":"Eitensheim","municipality":{"key":"09176124","name":"Eitensheim","type":"Kreisangehörige_Gemeinde"},"district":{"key":"09176","name":"Eichstätt","type":"Landkreis"},"federalState":{"key":"09","name":"Bayern"}},{"name":"Kapellstr.","postalCode":"64625","locality":"Bensheim","municipality":{"key":"06431002","name":"Bensheim, Stadt","type":"Stadt"},"district":{"key":"06431","name":"Bergstraße","type":"Landkreis"},"federalState":{"key":"06","name":"Hessen"}},{"name":"Kappengasse","postalCode":"64625","locality":"Bensheim","municipality":{"key":"06431002","name":"Bensheim, Stadt","type":"Stadt"},"district":{"key":"06431","name":"Bergstraße","type":"Landkreis"},"federalState":{"key":"06","name":"Hessen"}},{"name":"Kapuzinergäßchen","postalCode":"64625","locality":"Bensheim","municipality":{"key":"06431002","name":"Bensheim, Stadt","type":"Stadt"},"district":{"key":"06431","name":"Bergstraße","type":"Landkreis"},"federalState":{"key":"06","name":"Hessen"}},{"name":"Karl-Fuchs-Str.","postalCode":"64625","locality":"Bensheim","municipality":{"key":"06431002","name":"Bensheim, Stadt","type":"Stadt"},"district":{"key":"06431","name":"Bergstraße","type":"Landkreis"},"federalState":{"key":"06","name":"Hessen"}},{"name":"Karl-Kreuzer-Weg","postalCode":"64625","locality":"Bensheim","municipality":{"key":"06431002","name":"Bensheim, Stadt","type":"Stadt"},"district":{"key":"06431","name":"Bergstraße","type":"Landkreis"},"federalState":{"key":"06","name":"Hessen"}},{"name":"Karl-Marx-Str.","postalCode":"64625","locality":"Bensheim","municipality":{"key":"06431002","name":"Bensheim, Stadt","type":"Stadt"},"district":{"key":"06431","name":"Bergstraße","type":"Landkreis"},"federalState":{"key":"06","name":"Hessen"}},{"name":"Karlsbader Str.","postalCode":"64625","locality":"Bensheim","municipality":{"key":"06431002","name":"Bensheim, Stadt","type":"Stadt"},"district":{"key":"06431","name":"Bergstraße","type":"Landkreis"},"federalState":{"key":"06","name":"Hessen"}},{"name":"Karl-Schäfer-Str.","postalCode":"64625","locality":"Bensheim","municipality":{"key":"06431002","name":"Bensheim, Stadt","type":"Stadt"},"district":{"key":"06431","name":"Bergstraße","type":"Landkreis"},"federalState":{"key":"06","name":"Hessen"}},{"name":"Karlstr.","postalCode":"64625","locality":"Bensheim","municipality":{"key":"06431002","name":"Bensheim, Stadt","type":"Stadt"},"district":{"key":"06431","name":"Bergstraße","type":"Landkreis"},"federalState":{"key":"06","name":"Hessen"}},{"name":"Kellereigasse","postalCode":"64625","locality":"Bensheim","municipality":{"key":"06431002","name":"Bensheim, Stadt","type":"Stadt"},"district":{"key":"06431","name":"Bergstraße","type":"Landkreis"},"federalState":{"key":"06","name":"Hessen"}},{"name":"Kellerswiesenweg","postalCode":"64625","locality":"Bensheim","municipality":{"key":"06431002","name":"Bensheim, Stadt","type":"Stadt"},"district":{"key":"06431","name":"Bergstraße","type":"Landkreis"},"federalState":{"key":"06","name":"Hessen"}},{"name":"Keltenstr.","postalCode":"64625","locality":"Bensheim","municipality":{"key":"06431002","name":"Bensheim, Stadt","type":"Stadt"},"district":{"key":"06431","name":"Bergstraße","type":"Landkreis"},"federalState":{"key":"06","name":"Hessen"}},{"name":"Kettelerstr.","postalCode":"64625","locality":"Bensheim","municipality":{"key":"06431002","name":"Bensheim, Stadt","type":"Stadt"},"district":{"key":"06431","name":"Bergstraße","type":"Landkreis"},"federalState":{"key":"06","name":"Hessen"}},{"name":"Kiefernweg","postalCode":"64625","locality":"Bensheim","municipality":{"key":"06431002","name":"Bensheim, Stadt","type":"Stadt"},"district":{"key":"06431","name":"Bergstraße","type":"Landkreis"},"federalState":{"key":"06","name":"Hessen"}},{"name":"Kinzigstr.","postalCode":"64625","locality":"Bensheim","municipality":{"key":"06431002","name":"Bensheim, Stadt","type":"Stadt"},"district":{"key":"06431","name":"Bergstraße","type":"Landkreis"},"federalState":{"key":"06","name":"Hessen"}},{"name":"Kirchbergstr.","postalCode":"64625","locality":"Bensheim","municipality":{"key":"06431002","name":"Bensheim, Stadt","type":"Stadt"},"district":{"key":"06431","name":"Bergstraße","type":"Landkreis"},"federalState":{"key":"06","name":"Hessen"}},{"name":"Kirchgasse","postalCode":"55232","locality":"Ensheim","municipality":{"key":"07331019","name":"Ensheim","type":"Kreisangehörige_Gemeinde"},"district":{"key":"07331","name":"Alzey-Worms","type":"Landkreis"},"federalState":{"key":"07","name":"Rheinland-Pfalz"}},{"name":"Kirchplatz","postalCode":"85117","locality":"Eitensheim","municipality":{"key":"09176124","name":"Eitensheim","type":"Kreisangehörige_Gemeinde"},"district":{"key":"09176","name":"Eichstätt","type":"Landkreis"},"federalState":{"key":"09","name":"Bayern"}},{"name":"Kirchstr.","postalCode":"64625","locality":"Bensheim","municipality":{"key":"06431002","name":"Bensheim, Stadt","type":"Stadt"},"district":{"key":"06431","name":"Bergstraße","type":"Landkreis"},"federalState":{"key":"06","name":"Hessen"}},{"name":"Kirchweg","postalCode":"64625","locality":"Bensheim","municipality":{"key":"06431002","name":"Bensheim, Stadt","type":"Stadt"},"district":{"key":"06431","name":"Bergstraße","type":"Landkreis"},"federalState":{"key":"06","name":"Hessen"}},{"name":"Kleine Hasengasse","postalCode":"64625","locality":"Bensheim","municipality":{"key":"06431002","name":"Bensheim, Stadt","type":"Stadt"},"district":{"key":"06431","name":"Bergstraße","type":"Landkreis"},"federalState":{"key":"06","name":"Hessen"}},{"name":"Klostergasse","postalCode":"64625","locality":"Bensheim","municipality":{"key":"06431002","name":"Bensheim, Stadt","type":"Stadt"},"district":{"key":"06431","name":"Bergstraße","type":"Landkreis"},"federalState":{"key":"06","name":"Hessen"}},{"name":"Knappenweg","postalCode":"64625","locality":"Bensheim","municipality":{"key":"06431002","name":"Bensheim, Stadt","type":"Stadt"},"district":{"key":"06431","name":"Bergstraße","type":"Landkreis"},"federalState":{"key":"06","name":"Hessen"}},{"name":"Knodener Höhenweg","postalCode":"64625","locality":"Bensheim","municipality":{"key":"06431002","name":"Bensheim, Stadt","type":"Stadt"},"district":{"key":"06431","name":"Bergstraße","type":"Landkreis"},"federalState":{"key":"06","name":"Hessen"}},{"name":"Knodener Str.","postalCode":"64625","locality":"Bensheim","municipality":{"key":"06431002","name":"Bensheim, Stadt","type":"Stadt"},"district":{"key":"06431","name":"Bergstraße","type":"Landkreis"},"federalState":{"key":"06","name":"Hessen"}},{"name":"Königsberger Str.","postalCode":"64625","locality":"Bensheim","municipality":{"key":"06431002","name":"Bensheim, Stadt","type":"Stadt"},"district":{"key":"06431","name":"Bergstraße","type":"Landkreis"},"federalState":{"key":"06","name":"Hessen"}},{"name":"Konrad-Adenauer-Str.","postalCode":"64625","locality":"Bensheim","municipality":{"key":"06431002","name":"Bensheim, Stadt","type":"Stadt"},"district":{"key":"06431","name":"Bergstraße","type":"Landkreis"},"federalState":{"key":"06","name":"Hessen"}},{"name":"Körnerstr.","postalCode":"64625","locality":"Bensheim","municipality":{"key":"06431002","name":"Bensheim, Stadt","type":"Stadt"},"district":{"key":"06431","name":"Bergstraße","type":"Landkreis"},"federalState":{"key":"06","name":"Hessen"}},{"name":"Kreuzerstr.","postalCode":"64625","locality":"Bensheim","municipality":{"key":"06431002","name":"Bensheim, Stadt","type":"Stadt"},"district":{"key":"06431","name":"Bergstraße","type":"Landkreis"},"federalState":{"key":"06","name":"Hessen"}},{"name":"Kriemhildstr.","postalCode":"64625","locality":"Bensheim","municipality":{"key":"06431002","name":"Bensheim, Stadt","type":"Stadt"},"district":{"key":"06431","name":"Bergstraße","type":"Landkreis"},"federalState":{"key":"06","name":"Hessen"}},{"name":"Kronepark","postalCode":"64625","locality":"Bensheim","municipality":{"key":"06431002","name":"Bensheim, Stadt","type":"Stadt"},"district":{"key":"06431","name":"Bergstraße","type":"Landkreis"},"federalState":{"key":"06","name":"Hessen"}},{"name":"Kurt-Schumacher-Str.","postalCode":"64625","locality":"Bensheim","municipality":{"key":"06431002","name":"Bensheim, Stadt","type":"Stadt"},"district":{"key":"06431","name":"Bergstraße","type":"Landkreis"},"federalState":{"key":"06","name":"Hessen"}},{"name":"Lahnstr.","postalCode":"64625","locality":"Bensheim","municipality":{"key":"06431002","name":"Bensheim, Stadt","type":"Stadt"},"district":{"key":"06431","name":"Bergstraße","type":"Landkreis"},"federalState":{"key":"06","name":"Hessen"}},{"name":"Lammertsgasse","postalCode":"64625","locality":"Bensheim","municipality":{"key":"06431002","name":"Bensheim, Stadt","type":"Stadt"},"district":{"key":"06431","name":"Bergstraße","type":"Landkreis"},"federalState":{"key":"06","name":"Hessen"}},{"name":"Landgrafenstr.","postalCode":"64625","locality":"Bensheim","municipality":{"key":"06431002","name":"Bensheim, Stadt","type":"Stadt"},"district":{"key":"06431","name":"Bergstraße","type":"Landkreis"},"federalState":{"key":"06","name":"Hessen"}},{"name":"Langwadener Str.","postalCode":"64625","locality":"Bensheim","municipality":{"key":"06431002","name":"Bensheim, Stadt","type":"Stadt"},"district":{"key":"06431","name":"Bergstraße","type":"Landkreis"},"federalState":{"key":"06","name":"Hessen"}},{"name":"Legelweg","postalCode":"64625","locality":"Bensheim","municipality":{"key":"06431002","name":"Bensheim, Stadt","type":"Stadt"},"district":{"key":"06431","name":"Bergstraße","type":"Landkreis"},"federalState":{"key":"06","name":"Hessen"}},{"name":"Leo-Grewenig-Str.","postalCode":"64625","locality":"Bensheim","municipality":{"key":"06431002","name":"Bensheim, Stadt","type":"Stadt"},"district":{"key":"06431","name":"Bergstraße","type":"Landkreis"},"federalState":{"key":"06","name":"Hessen"}},{"name":"Lerchenstr.","postalCode":"85117","locality":"Eitensheim","municipality":{"key":"09176124","name":"Eitensheim","type":"Kreisangehörige_Gemeinde"},"district":{"key":"09176","name":"Eichstätt","type":"Landkreis"},"federalState":{"key":"09","name":"Bayern"}},{"name":"Leslie-Mackay-Passage","postalCode":"64625","locality":"Bensheim","municipality":{"key":"06431002","name":"Bensheim, Stadt","type":"Stadt"},"district":{"key":"06431","name":"Bergstraße","type":"Landkreis"},"federalState":{"key":"06","name":"Hessen"}},{"name":"Lessingstr.","postalCode":"64625","locality":"Bensheim","municipality":{"key":"06431002","name":"Bensheim, Stadt","type":"Stadt"},"district":{"key":"06431","name":"Bergstraße","type":"Landkreis"},"federalState":{"key":"06","name":"Hessen"}},{"name":"Lessingstr.","postalCode":"85117","locality":"Eitensheim","municipality":{"key":"09176124","name":"Eitensheim","type":"Kreisangehörige_Gemeinde"},"district":{"key":"09176","name":"Eichstätt","type":"Landkreis"},"federalState":{"key":"09","name":"Bayern"}},{"name":"Liebigstr.","postalCode":"85117","locality":"Eitensheim","municipality":{"key":"09176124","name":"Eitensheim","type":"Kreisangehörige_Gemeinde"},"district":{"key":"09176","name":"Eichstätt","type":"Landkreis"},"federalState":{"key":"09","name":"Bayern"}},{"name":"Liegnitzer Weg","postalCode":"64625","locality":"Bensheim","municipality":{"key":"06431002","name":"Bensheim, Stadt","type":"Stadt"},"district":{"key":"06431","name":"Bergstraße","type":"Landkreis"},"federalState":{"key":"06","name":"Hessen"}},{"name":"Liesengasse","postalCode":"64625","locality":"Bensheim","municipality":{"key":"06431002","name":"Bensheim, Stadt","type":"Stadt"},"district":{"key":"06431","name":"Bergstraße","type":"Landkreis"},"federalState":{"key":"06","name":"Hessen"}},{"name":"Lilienthalstr.","postalCode":"64625","locality":"Bensheim","municipality":{"key":"06431002","name":"Bensheim, Stadt","type":"Stadt"},"district":{"key":"06431","name":"Bergstraße","type":"Landkreis"},"federalState":{"key":"06","name":"Hessen"}},{"name":"Limesstr.","postalCode":"64625","locality":"Bensheim","municipality":{"key":"06431002","name":"Bensheim, Stadt","type":"Stadt"},"district":{"key":"06431","name":"Bergstraße","type":"Landkreis"},"federalState":{"key":"06","name":"Hessen"}},{"name":"Lindenstr.","postalCode":"64625","locality":"Bensheim","municipality":{"key":"06431002","name":"Bensheim, Stadt","type":"Stadt"},"district":{"key":"06431","name":"Bergstraße","type":"Landkreis"},"federalState":{"key":"06","name":"Hessen"}},{"name":"Lindenstr.","postalCode":"85117","locality":"Eitensheim","municipality":{"key":"09176124","name":"Eitensheim","type":"Kreisangehörige_Gemeinde"},"district":{"key":"09176","name":"Eichstätt","type":"Landkreis"},"federalState":{"key":"09","name":"Bayern"}},{"name":"Lippertshofener Str.","postalCode":"85117","locality":"Eitensheim","municipality":{"key":"09176124","name":"Eitensheim","type":"Kreisangehörige_Gemeinde"},"district":{"key":"09176","name":"Eichstätt","type":"Landkreis"},"federalState":{"key":"09","name":"Bayern"}},{"name":"Lorscher Str.","postalCode":"64625","locality":"Bensheim","municipality":{"key":"06431002","name":"Bensheim, Stadt","type":"Stadt"},"district":{"key":"06431","name":"Bergstraße","type":"Landkreis"},"federalState":{"key":"06","name":"Hessen"}},{"name":"Ludwigstr.","postalCode":"64625","locality":"Bensheim","municipality":{"key":"06431002","name":"Bensheim, Stadt","type":"Stadt"},"district":{"key":"06431","name":"Bergstraße","type":"Landkreis"},"federalState":{"key":"06","name":"Hessen"}},{"name":"Lüssweg","postalCode":"85117","locality":"Eitensheim","municipality":{"key":"09176124","name":"Eitensheim","type":"Kreisangehörige_Gemeinde"},"district":{"key":"09176","name":"Eichstätt","type":"Landkreis"},"federalState":{"key":"09","name":"Bayern"}},{"name":"Lustgarten","postalCode":"64625","locality":"Bensheim","municipality":{"key":"06431002","name":"Bensheim, Stadt","type":"Stadt"},"district":{"key":"06431","name":"Bergstraße","type":"Landkreis"},"federalState":{"key":"06","name":"Hessen"}},{"name":"Magnolienweg","postalCode":"64625","locality":"Bensheim","municipality":{"key":"06431002","name":"Bensheim, Stadt","type":"Stadt"},"district":{"key":"06431","name":"Bergstraße","type":"Landkreis"},"federalState":{"key":"06","name":"Hessen"}},{"name":"Mainstr.","postalCode":"64625","locality":"Bensheim","municipality":{"key":"06431002","name":"Bensheim, Stadt","type":"Stadt"},"district":{"key":"06431","name":"Bergstraße","type":"Landkreis"},"federalState":{"key":"06","name":"Hessen"}},{"name":"Mainzer Str.","postalCode":"55232","locality":"Ensheim","municipality":{"key":"07331019","name":"Ensheim","type":"Kreisangehörige_Gemeinde"},"district":{"key":"07331","name":"Alzey-Worms","type":"Landkreis"},"federalState":{"key":"07","name":"Rheinland-Pfalz"}},{"name":"Mainzer Weg","postalCode":"55232","locality":"Ensheim","municipality":{"key":"07331019","name":"Ensheim","type":"Kreisangehörige_Gemeinde"},"district":{"key":"07331","name":"Alzey-Worms","type":"Landkreis"},"federalState":{"key":"07","name":"Rheinland-Pfalz"}},{"name":"Malchenweg","postalCode":"64625","locality":"Bensheim","municipality":{"key":"06431002","name":"Bensheim, Stadt","type":"Stadt"},"district":{"key":"06431","name":"Bergstraße","type":"Landkreis"},"federalState":{"key":"06","name":"Hessen"}},{"name":"Mandelweg","postalCode":"64625","locality":"Bensheim","municipality":{"key":"06431002","name":"Bensheim, Stadt","type":"Stadt"},"district":{"key":"06431","name":"Bergstraße","type":"Landkreis"},"federalState":{"key":"06","name":"Hessen"}},{"name":"Mannheimer Str.","postalCode":"64625","locality":"Bensheim","municipality":{"key":"06431002","name":"Bensheim, Stadt","type":"Stadt"},"district":{"key":"06431","name":"Bergstraße","type":"Landkreis"},"federalState":{"key":"06","name":"Hessen"}},{"name":"Margarethenstr.","postalCode":"64625","locality":"Bensheim","municipality":{"key":"06431002","name":"Bensheim, Stadt","type":"Stadt"},"district":{"key":"06431","name":"Bergstraße","type":"Landkreis"},"federalState":{"key":"06","name":"Hessen"}},{"name":"Märkerwaldstr.","postalCode":"64625","locality":"Bensheim","municipality":{"key":"06431002","name":"Bensheim, Stadt","type":"Stadt"},"district":{"key":"06431","name":"Bergstraße","type":"Landkreis"},"federalState":{"key":"06","name":"Hessen"}},{"name":"Martinstr.","postalCode":"64625","locality":"Bensheim","municipality":{"key":"06431002","name":"Bensheim, Stadt","type":"Stadt"},"district":{"key":"06431","name":"Bergstraße","type":"Landkreis"},"federalState":{"key":"06","name":"Hessen"}},{"name":"Mathildenstr.","postalCode":"64625","locality":"Bensheim","municipality":{"key":"06431002","name":"Bensheim, Stadt","type":"Stadt"},"district":{"key":"06431","name":"Bergstraße","type":"Landkreis"},"federalState":{"key":"06","name":"Hessen"}},{"name":"Max-Reinhardt-Str.","postalCode":"64625","locality":"Bensheim","municipality":{"key":"06431002","name":"Bensheim, Stadt","type":"Stadt"},"district":{"key":"06431","name":"Bergstraße","type":"Landkreis"},"federalState":{"key":"06","name":"Hessen"}},{"name":"Meerbachstr.","postalCode":"64625","locality":"Bensheim","municipality":{"key":"06431002","name":"Bensheim, Stadt","type":"Stadt"},"district":{"key":"06431","name":"Bergstraße","type":"Landkreis"},"federalState":{"key":"06","name":"Hessen"}},{"name":"Melibokusblick","postalCode":"64625","locality":"Bensheim","municipality":{"key":"06431002","name":"Bensheim, Stadt","type":"Stadt"},"district":{"key":"06431","name":"Bergstraße","type":"Landkreis"},"federalState":{"key":"06","name":"Hessen"}},{"name":"Melibokusstr.","postalCode":"64625","locality":"Bensheim","municipality":{"key":"06431002","name":"Bensheim, Stadt","type":"Stadt"},"district":{"key":"06431","name":"Bergstraße","type":"Landkreis"},"federalState":{"key":"06","name":"Hessen"}},{"name":"Memelstr.","postalCode":"64625","locality":"Bensheim","municipality":{"key":"06431002","name":"Bensheim, Stadt","type":"Stadt"},"district":{"key":"06431","name":"Bergstraße","type":"Landkreis"},"federalState":{"key":"06","name":"Hessen"}},{"name":"Metaruheweg","postalCode":"64625","locality":"Bensheim","municipality":{"key":"06431002","name":"Bensheim, Stadt","type":"Stadt"},"district":{"key":"06431","name":"Bergstraße","type":"Landkreis"},"federalState":{"key":"06","name":"Hessen"}},{"name":"Mierendorffstr.","postalCode":"64625","locality":"Bensheim","municipality":{"key":"06431002","name":"Bensheim, Stadt","type":"Stadt"},"district":{"key":"06431","name":"Bergstraße","type":"Landkreis"},"federalState":{"key":"06","name":"Hessen"}},{"name":"Mittelgasse","postalCode":"55232","locality":"Ensheim","municipality":{"key":"07331019","name":"Ensheim","type":"Kreisangehörige_Gemeinde"},"district":{"key":"07331","name":"Alzey-Worms","type":"Landkreis"},"federalState":{"key":"07","name":"Rheinland-Pfalz"}},{"name":"Mittelgasse","postalCode":"64625","locality":"Bensheim","municipality":{"key":"06431002","name":"Bensheim, Stadt","type":"Stadt"},"district":{"key":"06431","name":"Bergstraße","type":"Landkreis"},"federalState":{"key":"06","name":"Hessen"}},{"name":"Mittelstr.","postalCode":"64625","locality":"Bensheim","municipality":{"key":"06431002","name":"Bensheim, Stadt","type":"Stadt"},"district":{"key":"06431","name":"Bergstraße","type":"Landkreis"},"federalState":{"key":"06","name":"Hessen"}},{"name":"Mittlere Hasengasse","postalCode":"64625","locality":"Bensheim","municipality":{"key":"06431002","name":"Bensheim, Stadt","type":"Stadt"},"district":{"key":"06431","name":"Bergstraße","type":"Landkreis"},"federalState":{"key":"06","name":"Hessen"}},{"name":"Mohács-Platz","postalCode":"64625","locality":"Bensheim","municipality":{"key":"06431002","name":"Bensheim, Stadt","type":"Stadt"},"district":{"key":"06431","name":"Bergstraße","type":"Landkreis"},"federalState":{"key":"06","name":"Hessen"}},{"name":"Moltkestr.","postalCode":"64625","locality":"Bensheim","municipality":{"key":"06431002","name":"Bensheim, Stadt","type":"Stadt"},"district":{"key":"06431","name":"Bergstraße","type":"Landkreis"},"federalState":{"key":"06","name":"Hessen"}},{"name":"Mönchbachweg","postalCode":"64625","locality":"Bensheim","municipality":{"key":"06431002","name":"Bensheim, Stadt","type":"Stadt"},"district":{"key":"06431","name":"Bergstraße","type":"Landkreis"},"federalState":{"key":"06","name":"Hessen"}},{"name":"Moselstr.","postalCode":"64625","locality":"Bensheim","municipality":{"key":"06431002","name":"Bensheim, Stadt","type":"Stadt"},"district":{"key":"06431","name":"Bergstraße","type":"Landkreis"},"federalState":{"key":"06","name":"Hessen"}},{"name":"Mozartstr.","postalCode":"64625","locality":"Bensheim","municipality":{"key":"06431002","name":"Bensheim, Stadt","type":"Stadt"},"district":{"key":"06431","name":"Bergstraße","type":"Landkreis"},"federalState":{"key":"06","name":"Hessen"}},{"name":"Mozartstr.","postalCode":"85117","locality":"Eitensheim","municipality":{"key":"09176124","name":"Eitensheim","type":"Kreisangehörige_Gemeinde"},"district":{"key":"09176","name":"Eichstätt","type":"Landkreis"},"federalState":{"key":"09","name":"Bayern"}},{"name":"Mozenrechweg","postalCode":"64625","locality":"Bensheim","municipality":{"key":"06431002","name":"Bensheim, Stadt","type":"Stadt"},"district":{"key":"06431","name":"Bergstraße","type":"Landkreis"},"federalState":{"key":"06","name":"Hessen"}},{"name":"Mühlbergstr.","postalCode":"64625","locality":"Bensheim","municipality":{"key":"06431002","name":"Bensheim, Stadt","type":"Stadt"},"district":{"key":"06431","name":"Bergstraße","type":"Landkreis"},"federalState":{"key":"06","name":"Hessen"}},{"name":"Mühlenweg","postalCode":"64625","locality":"Bensheim","municipality":{"key":"06431002","name":"Bensheim, Stadt","type":"Stadt"},"district":{"key":"06431","name":"Bergstraße","type":"Landkreis"},"federalState":{"key":"06","name":"Hessen"}},{"name":"Mühlgasse","postalCode":"64625","locality":"Bensheim","municipality":{"key":"06431002","name":"Bensheim, Stadt","type":"Stadt"},"district":{"key":"06431","name":"Bergstraße","type":"Landkreis"},"federalState":{"key":"06","name":"Hessen"}},{"name":"Mühlgrabenstr.","postalCode":"64625","locality":"Bensheim","municipality":{"key":"06431002","name":"Bensheim, Stadt","type":"Stadt"},"district":{"key":"06431","name":"Bergstraße","type":"Landkreis"},"federalState":{"key":"06","name":"Hessen"}},{"name":"Mühlstr.","postalCode":"64625","locality":"Bensheim","municipality":{"key":"06431002","name":"Bensheim, Stadt","type":"Stadt"},"district":{"key":"06431","name":"Bergstraße","type":"Landkreis"},"federalState":{"key":"06","name":"Hessen"}},{"name":"Mühltalstr.","postalCode":"64625","locality":"Bensheim","municipality":{"key":"06431002","name":"Bensheim, Stadt","type":"Stadt"},"district":{"key":"06431","name":"Bergstraße","type":"Landkreis"},"federalState":{"key":"06","name":"Hessen"}},{"name":"Mümlingstr.","postalCode":"64625","locality":"Bensheim","municipality":{"key":"06431002","name":"Bensheim, Stadt","type":"Stadt"},"district":{"key":"06431","name":"Bergstraße","type":"Landkreis"},"federalState":{"key":"06","name":"Hessen"}},{"name":"Nahestr.","postalCode":"64625","locality":"Bensheim","municipality":{"key":"06431002","name":"Bensheim, Stadt","type":"Stadt"},"district":{"key":"06431","name":"Bergstraße","type":"Landkreis"},"federalState":{"key":"06","name":"Hessen"}},{"name":"Narzissenweg","postalCode":"64625","locality":"Bensheim","municipality":{"key":"06431002","name":"Bensheim, Stadt","type":"Stadt"},"district":{"key":"06431","name":"Bergstraße","type":"Landkreis"},"federalState":{"key":"06","name":"Hessen"}},{"name":"Narzissenweg","postalCode":"85117","locality":"Eitensheim","municipality":{"key":"09176124","name":"Eitensheim","type":"Kreisangehörige_Gemeinde"},"district":{"key":"09176","name":"Eichstätt","type":"Landkreis"},"federalState":{"key":"09","name":"Bayern"}},{"name":"Neckarstr.","postalCode":"64625","locality":"Bensheim","municipality":{"key":"06431002","name":"Bensheim, Stadt","type":"Stadt"},"district":{"key":"06431","name":"Bergstraße","type":"Landkreis"},"federalState":{"key":"06","name":"Hessen"}},{"name":"Neißestr.","postalCode":"64625","locality":"Bensheim","municipality":{"key":"06431002","name":"Bensheim, Stadt","type":"Stadt"},"district":{"key":"06431","name":"Bergstraße","type":"Landkreis"},"federalState":{"key":"06","name":"Hessen"}},{"name":"Nelkenweg","postalCode":"64625","locality":"Bensheim","municipality":{"key":"06431002","name":"Bensheim, Stadt","type":"Stadt"},"district":{"key":"06431","name":"Bergstraße","type":"Landkreis"},"federalState":{"key":"06","name":"Hessen"}},{"name":"Nelkenweg","postalCode":"85117","locality":"Eitensheim","municipality":{"key":"09176124","name":"Eitensheim","type":"Kreisangehörige_Gemeinde"},"district":{"key":"09176","name":"Eichstätt","type":"Landkreis"},"federalState":{"key":"09","name":"Bayern"}},{"name":"Neuer Weg","postalCode":"64625","locality":"Bensheim","municipality":{"key":"06431002","name":"Bensheim, Stadt","type":"Stadt"},"district":{"key":"06431","name":"Bergstraße","type":"Landkreis"},"federalState":{"key":"06","name":"Hessen"}},{"name":"Neugasse","postalCode":"55232","locality":"Ensheim","municipality":{"key":"07331019","name":"Ensheim","type":"Kreisangehörige_Gemeinde"},"district":{"key":"07331","name":"Alzey-Worms","type":"Landkreis"},"federalState":{"key":"07","name":"Rheinland-Pfalz"}},{"name":"Neugasse","postalCode":"64625","locality":"Bensheim","municipality":{"key":"06431002","name":"Bensheim, Stadt","type":"Stadt"},"district":{"key":"06431","name":"Bergstraße","type":"Landkreis"},"federalState":{"key":"06","name":"Hessen"}},{"name":"Neugrabenstr.","postalCode":"64625","locality":"Bensheim","municipality":{"key":"06431002","name":"Bensheim, Stadt","type":"Stadt"},"district":{"key":"06431","name":"Bergstraße","type":"Landkreis"},"federalState":{"key":"06","name":"Hessen"}},{"name":"Neurodstr.","postalCode":"64625","locality":"Bensheim","municipality":{"key":"06431002","name":"Bensheim, Stadt","type":"Stadt"},"district":{"key":"06431","name":"Bergstraße","type":"Landkreis"},"federalState":{"key":"06","name":"Hessen"}},{"name":"Nibelungenstr.","postalCode":"64625","locality":"Bensheim","municipality":{"key":"06431002","name":"Bensheim, Stadt","type":"Stadt"},"district":{"key":"06431","name":"Bergstraße","type":"Landkreis"},"federalState":{"key":"06","name":"Hessen"}},{"name":"Niddastr.","postalCode":"64625","locality":"Bensheim","municipality":{"key":"06431002","name":"Bensheim, Stadt","type":"Stadt"},"district":{"key":"06431","name":"Bergstraße","type":"Landkreis"},"federalState":{"key":"06","name":"Hessen"}},{"name":"Niederwaldstr.","postalCode":"64625","locality":"Bensheim","municipality":{"key":"06431002","name":"Bensheim, Stadt","type":"Stadt"},"district":{"key":"06431","name":"Bergstraße","type":"Landkreis"},"federalState":{"key":"06","name":"Hessen"}},{"name":"Nußallee","postalCode":"64625","locality":"Bensheim","municipality":{"key":"06431002","name":"Bensheim, Stadt","type":"Stadt"},"district":{"key":"06431","name":"Bergstraße","type":"Landkreis"},"federalState":{"key":"06","name":"Hessen"}},{"name":"Obere Grieselstr.","postalCode":"64625","locality":"Bensheim","municipality":{"key":"06431002","name":"Bensheim, Stadt","type":"Stadt"},"district":{"key":"06431","name":"Bergstraße","type":"Landkreis"},"federalState":{"key":"06","name":"Hessen"}},{"name":"Obere Hasengasse","postalCode":"64625","locality":"Bensheim","municipality":{"key":"06431002","name":"Bensheim, Stadt","type":"Stadt"},"district":{"key":"06431","name":"Bergstraße","type":"Landkreis"},"federalState":{"key":"06","name":"Hessen"}},{"name":"Obergasse","postalCode":"55232","locality":"Ensheim","municipality":{"key":"07331019","name":"Ensheim","type":"Kreisangehörige_Gemeinde"},"district":{"key":"07331","name":"Alzey-Worms","type":"Landkreis"},"federalState":{"key":"07","name":"Rheinland-Pfalz"}},{"name":"Obergasse","postalCode":"64625","locality":"Bensheim","municipality":{"key":"06431002","name":"Bensheim, Stadt","type":"Stadt"},"district":{"key":"06431","name":"Bergstraße","type":"Landkreis"},"federalState":{"key":"06","name":"Hessen"}},{"name":"Oberweg","postalCode":"64625","locality":"Bensheim","municipality":{"key":"06431002","name":"Bensheim, Stadt","type":"Stadt"},"district":{"key":"06431","name":"Bergstraße","type":"Landkreis"},"federalState":{"key":"06","name":"Hessen"}},{"name":"Odenwaldstr.","postalCode":"64625","locality":"Bensheim","municipality":{"key":"06431002","name":"Bensheim, Stadt","type":"Stadt"},"district":{"key":"06431","name":"Bergstraße","type":"Landkreis"},"federalState":{"key":"06","name":"Hessen"}},{"name":"Oleanderweg","postalCode":"64625","locality":"Bensheim","municipality":{"key":"06431002","name":"Bensheim, Stadt","type":"Stadt"},"district":{"key":"06431","name":"Bergstraße","type":"Landkreis"},"federalState":{"key":"06","name":"Hessen"}},{"name":"Olmützer Str.","postalCode":"64625","locality":"Bensheim","municipality":{"key":"06431002","name":"Bensheim, Stadt","type":"Stadt"},"district":{"key":"06431","name":"Bergstraße","type":"Landkreis"},"federalState":{"key":"06","name":"Hessen"}},{"name":"Orchideenweg","postalCode":"85117","locality":"Eitensheim","municipality":{"key":"09176124","name":"Eitensheim","type":"Kreisangehörige_Gemeinde"},"district":{"key":"09176","name":"Eichstätt","type":"Landkreis"},"federalState":{"key":"09","name":"Bayern"}},{"name":"Otto-Beck-Str.","postalCode":"64625","locality":"Bensheim","municipality":{"key":"06431002","name":"Bensheim, Stadt","type":"Stadt"},"district":{"key":"06431","name":"Bergstraße","type":"Landkreis"},"federalState":{"key":"06","name":"Hessen"}},{"name":"Otto Sanner-Platz","postalCode":"64625","locality":"Bensheim","municipality":{"key":"06431002","name":"Bensheim, Stadt","type":"Stadt"},"district":{"key":"06431","name":"Bergstraße","type":"Landkreis"},"federalState":{"key":"06","name":"Hessen"}},{"name":"Ottostr.","postalCode":"64625","locality":"Bensheim","municipality":{"key":"06431002","name":"Bensheim, Stadt","type":"Stadt"},"district":{"key":"06431","name":"Bergstraße","type":"Landkreis"},"federalState":{"key":"06","name":"Hessen"}},{"name":"Pappelallee","postalCode":"64625","locality":"Bensheim","municipality":{"key":"06431002","name":"Bensheim, Stadt","type":"Stadt"},"district":{"key":"06431","name":"Bergstraße","type":"Landkreis"},"federalState":{"key":"06","name":"Hessen"}},{"name":"Pappelweg","postalCode":"64625","locality":"Bensheim","municipality":{"key":"06431002","name":"Bensheim, Stadt","type":"Stadt"},"district":{"key":"06431","name":"Bergstraße","type":"Landkreis"},"federalState":{"key":"06","name":"Hessen"}},{"name":"Parkanlage","postalCode":"64625","locality":"Bensheim","municipality":{"key":"06431002","name":"Bensheim, Stadt","type":"Stadt"},"district":{"key":"06431","name":"Bergstraße","type":"Landkreis"},"federalState":{"key":"06","name":"Hessen"}},{"name":"Parkanlage Ehrenmal","postalCode":"64625","locality":"Bensheim","municipality":{"key":"06431002","name":"Bensheim, Stadt","type":"Stadt"},"district":{"key":"06431","name":"Bergstraße","type":"Landkreis"},"federalState":{"key":"06","name":"Hessen"}},{"name":"Parkanlage Obststreuwiese","postalCode":"64625","locality":"Bensheim","municipality":{"key":"06431002","name":"Bensheim, Stadt","type":"Stadt"},"district":{"key":"06431","name":"Bergstraße","type":"Landkreis"},"federalState":{"key":"06","name":"Hessen"}},{"name":"Parkstr.","postalCode":"64625","locality":"Bensheim","municipality":{"key":"06431002","name":"Bensheim, Stadt","type":"Stadt"},"district":{"key":"06431","name":"Bergstraße","type":"Landkreis"},"federalState":{"key":"06","name":"Hessen"}},{"name":"Pater-Delp-Str.","postalCode":"64625","locality":"Bensheim","municipality":{"key":"06431002","name":"Bensheim, Stadt","type":"Stadt"},"district":{"key":"06431","name":"Bergstraße","type":"Landkreis"},"federalState":{"key":"06","name":"Hessen"}},{"name":"Paul-Sieben-Weg","postalCode":"64625","locality":"Bensheim","municipality":{"key":"06431002","name":"Bensheim, Stadt","type":"Stadt"},"district":{"key":"06431","name":"Bergstraße","type":"Landkreis"},"federalState":{"key":"06","name":"Hessen"}},{"name":"Pestalozzistr.","postalCode":"64625","locality":"Bensheim","municipality":{"key":"06431002","name":"Bensheim, Stadt","type":"Stadt"},"district":{"key":"06431","name":"Bergstraße","type":"Landkreis"},"federalState":{"key":"06","name":"Hessen"}},{"name":"Pestalozzistr.","postalCode":"85117","locality":"Eitensheim","municipality":{"key":"09176124","name":"Eitensheim","type":"Kreisangehörige_Gemeinde"},"district":{"key":"09176","name":"Eichstätt","type":"Landkreis"},"federalState":{"key":"09","name":"Bayern"}},{"name":"Peter-Krenkel-Str.","postalCode":"64625","locality":"Bensheim","municipality":{"key":"06431002","name":"Bensheim, Stadt","type":"Stadt"},"district":{"key":"06431","name":"Bergstraße","type":"Landkreis"},"federalState":{"key":"06","name":"Hessen"}},{"name":"Pfalzstr.","postalCode":"64625","locality":"Bensheim","municipality":{"key":"06431002","name":"Bensheim, Stadt","type":"Stadt"},"district":{"key":"06431","name":"Bergstraße","type":"Landkreis"},"federalState":{"key":"06","name":"Hessen"}},{"name":"Pfortenstr.","postalCode":"55232","locality":"Ensheim","municipality":{"key":"07331019","name":"Ensheim","type":"Kreisangehörige_Gemeinde"},"district":{"key":"07331","name":"Alzey-Worms","type":"Landkreis"},"federalState":{"key":"07","name":"Rheinland-Pfalz"}},{"name":"Philipp-Münster-Str.","postalCode":"64625","locality":"Bensheim","municipality":{"key":"06431002","name":"Bensheim, Stadt","type":"Stadt"},"district":{"key":"06431","name":"Bergstraße","type":"Landkreis"},"federalState":{"key":"06","name":"Hessen"}},{"name":"Philippshöhe","postalCode":"64625","locality":"Bensheim","municipality":{"key":"06431002","name":"Bensheim, Stadt","type":"Stadt"},"district":{"key":"06431","name":"Bergstraße","type":"Landkreis"},"federalState":{"key":"06","name":"Hessen"}},{"name":"Philipp-Zimmermann-Str.","postalCode":"64625","locality":"Bensheim","municipality":{"key":"06431002","name":"Bensheim, Stadt","type":"Stadt"},"district":{"key":"06431","name":"Bergstraße","type":"Landkreis"},"federalState":{"key":"06","name":"Hessen"}},{"name":"Pirolweg","postalCode":"64625","locality":"Bensheim","municipality":{"key":"06431002","name":"Bensheim, Stadt","type":"Stadt"},"district":{"key":"06431","name":"Bergstraße","type":"Landkreis"},"federalState":{"key":"06","name":"Hessen"}},{"name":"Pitzweg","postalCode":"64625","locality":"Bensheim","municipality":{"key":"06431002","name":"Bensheim, Stadt","type":"Stadt"},"district":{"key":"06431","name":"Bergstraße","type":"Landkreis"},"federalState":{"key":"06","name":"Hessen"}},{"name":"Platanenallee","postalCode":"64625","locality":"Bensheim","municipality":{"key":"06431002","name":"Bensheim, Stadt","type":"Stadt"},"district":{"key":"06431","name":"Bergstraße","type":"Landkreis"},"federalState":{"key":"06","name":"Hessen"}},{"name":"privat Evangelische Pfarrgemeinde","postalCode":"64625","locality":"Bensheim","municipality":{"key":"06431002","name":"Bensheim, Stadt","type":"Stadt"},"district":{"key":"06431","name":"Bergstraße","type":"Landkreis"},"federalState":{"key":"06","name":"Hessen"}},{"name":"Promenadenstr.","postalCode":"64625","locality":"Bensheim","municipality":{"key":"06431002","name":"Bensheim, Stadt","type":"Stadt"},"district":{"key":"06431","name":"Bergstraße","type":"Landkreis"},"federalState":{"key":"06","name":"Hessen"}},{"name":"Raabgasse","postalCode":"64625","locality":"Bensheim","municipality":{"key":"06431002","name":"Bensheim, Stadt","type":"Stadt"},"district":{"key":"06431","name":"Bergstraße","type":"Landkreis"},"federalState":{"key":"06","name":"Hessen"}},{"name":"Rabenlochweg","postalCode":"64625","locality":"Bensheim","municipality":{"key":"06431002","name":"Bensheim, Stadt","type":"Stadt"},"district":{"key":"06431","name":"Bergstraße","type":"Landkreis"},"federalState":{"key":"06","name":"Hessen"}},{"name":"Rathausstr.","postalCode":"64625","locality":"Bensheim","municipality":{"key":"06431002","name":"Bensheim, Stadt","type":"Stadt"},"district":{"key":"06431","name":"Bergstraße","type":"Landkreis"},"federalState":{"key":"06","name":"Hessen"}},{"name":"Renngrubenstr.","postalCode":"64625","locality":"Bensheim","municipality":{"key":"06431002","name":"Bensheim, Stadt","type":"Stadt"},"district":{"key":"06431","name":"Bergstraße","type":"Landkreis"},"federalState":{"key":"06","name":"Hessen"}},{"name":"Rheinstr.","postalCode":"64625","locality":"Bensheim","municipality":{"key":"06431002","name":"Bensheim, Stadt","type":"Stadt"},"district":{"key":"06431","name":"Bergstraße","type":"Landkreis"},"federalState":{"key":"06","name":"Hessen"}},{"name":"Rhönstr.","postalCode":"64625","locality":"Bensheim","municipality":{"key":"06431002","name":"Bensheim, Stadt","type":"Stadt"},"district":{"key":"06431","name":"Bergstraße","type":"Landkreis"},"federalState":{"key":"06","name":"Hessen"}},{"name":"Ricarda-Huch-Weg","postalCode":"64625","locality":"Bensheim","municipality":{"key":"06431002","name":"Bensheim, Stadt","type":"Stadt"},"district":{"key":"06431","name":"Bergstraße","type":"Landkreis"},"federalState":{"key":"06","name":"Hessen"}},{"name":"Richard-Strauss-Str.","postalCode":"64625","locality":"Bensheim","municipality":{"key":"06431002","name":"Bensheim, Stadt","type":"Stadt"},"district":{"key":"06431","name":"Bergstraße","type":"Landkreis"},"federalState":{"key":"06","name":"Hessen"}},{"name":"Richard-Wagner-Str.","postalCode":"64625","locality":"Bensheim","municipality":{"key":"06431002","name":"Bensheim, Stadt","type":"Stadt"},"district":{"key":"06431","name":"Bergstraße","type":"Landkreis"},"federalState":{"key":"06","name":"Hessen"}},{"name":"Richard-Wagner-Str.","postalCode":"85117","locality":"Eitensheim","municipality":{"key":"09176124","name":"Eitensheim","type":"Kreisangehörige_Gemeinde"},"district":{"key":"09176","name":"Eichstätt","type":"Landkreis"},"federalState":{"key":"09","name":"Bayern"}},{"name":"Riedstr.","postalCode":"64625","locality":"Bensheim","municipality":{"key":"06431002","name":"Bensheim, Stadt","type":"Stadt"},"district":{"key":"06431","name":"Bergstraße","type":"Landkreis"},"federalState":{"key":"06","name":"Hessen"}},{"name":"Riesengebirgsstr.","postalCode":"64625","locality":"Bensheim","municipality":{"key":"06431002","name":"Bensheim, Stadt","type":"Stadt"},"district":{"key":"06431","name":"Bergstraße","type":"Landkreis"},"federalState":{"key":"06","name":"Hessen"}},{"name":"Ringgartenstr.","postalCode":"64625","locality":"Bensheim","municipality":{"key":"06431002","name":"Bensheim, Stadt","type":"Stadt"},"district":{"key":"06431","name":"Bergstraße","type":"Landkreis"},"federalState":{"key":"06","name":"Hessen"}},{"name":"Ringstr.","postalCode":"64625","locality":"Bensheim","municipality":{"key":"06431002","name":"Bensheim, Stadt","type":"Stadt"},"district":{"key":"06431","name":"Bergstraße","type":"Landkreis"},"federalState":{"key":"06","name":"Hessen"}},{"name":"Ritzhaubstr.","postalCode":"64625","locality":"Bensheim","municipality":{"key":"06431002","name":"Bensheim, Stadt","type":"Stadt"},"district":{"key":"06431","name":"Bergstraße","type":"Landkreis"},"federalState":{"key":"06","name":"Hessen"}},{"name":"Riva-del-Garda-Platz","postalCode":"64625","locality":"Bensheim","municipality":{"key":"06431002","name":"Bensheim, Stadt","type":"Stadt"},"district":{"key":"06431","name":"Bergstraße","type":"Landkreis"},"federalState":{"key":"06","name":"Hessen"}},{"name":"Robert-Bosch-Str.","postalCode":"64625","locality":"Bensheim","municipality":{"key":"06431002","name":"Bensheim, Stadt","type":"Stadt"},"district":{"key":"06431","name":"Bergstraße","type":"Landkreis"},"federalState":{"key":"06","name":"Hessen"}},{"name":"Robert-Koch-Str.","postalCode":"85117","locality":"Eitensheim","municipality":{"key":"09176124","name":"Eitensheim","type":"Kreisangehörige_Gemeinde"},"district":{"key":"09176","name":"Eichstätt","type":"Landkreis"},"federalState":{"key":"09","name":"Bayern"}},{"name":"Robert-Schumann-Str.","postalCode":"64625","locality":"Bensheim","municipality":{"key":"06431002","name":"Bensheim, Stadt","type":"Stadt"},"district":{"key":"06431","name":"Bergstraße","type":"Landkreis"},"federalState":{"key":"06","name":"Hessen"}},{"name":"Rodauer Str.","postalCode":"64625","locality":"Bensheim","municipality":{"key":"06431002","name":"Bensheim, Stadt","type":"Stadt"},"district":{"key":"06431","name":"Bergstraße","type":"Landkreis"},"federalState":{"key":"06","name":"Hessen"}},{"name":"Rodensteinstr.","postalCode":"64625","locality":"Bensheim","municipality":{"key":"06431002","name":"Bensheim, Stadt","type":"Stadt"},"district":{"key":"06431","name":"Bergstraße","type":"Landkreis"},"federalState":{"key":"06","name":"Hessen"}},{"name":"Röderweg","postalCode":"64625","locality":"Bensheim","municipality":{"key":"06431002","name":"Bensheim, Stadt","type":"Stadt"},"district":{"key":"06431","name":"Bergstraße","type":"Landkreis"},"federalState":{"key":"06","name":"Hessen"}},{"name":"Rohrheimer Str.","postalCode":"64625","locality":"Bensheim","municipality":{"key":"06431002","name":"Bensheim, Stadt","type":"Stadt"},"district":{"key":"06431","name":"Bergstraße","type":"Landkreis"},"federalState":{"key":"06","name":"Hessen"}},{"name":"Römerstr.","postalCode":"64625","locality":"Bensheim","municipality":{"key":"06431002","name":"Bensheim, Stadt","type":"Stadt"},"district":{"key":"06431","name":"Bergstraße","type":"Landkreis"},"federalState":{"key":"06","name":"Hessen"}},{"name":"Rommersheimer Weg","postalCode":"55232","locality":"Ensheim","municipality":{"key":"07331019","name":"Ensheim","type":"Kreisangehörige_Gemeinde"},"district":{"key":"07331","name":"Alzey-Worms","type":"Landkreis"},"federalState":{"key":"07","name":"Rheinland-Pfalz"}},{"name":"Röntgenstr.","postalCode":"85117","locality":"Eitensheim","municipality":{"key":"09176124","name":"Eitensheim","type":"Kreisangehörige_Gemeinde"},"district":{"key":"09176","name":"Eichstätt","type":"Landkreis"},"federalState":{"key":"09","name":"Bayern"}},{"name":"Roonstr.","postalCode":"64625","locality":"Bensheim","municipality":{"key":"06431002","name":"Bensheim, Stadt","type":"Stadt"},"district":{"key":"06431","name":"Bergstraße","type":"Landkreis"},"federalState":{"key":"06","name":"Hessen"}},{"name":"Rosenweg","postalCode":"64625","locality":"Bensheim","municipality":{"key":"06431002","name":"Bensheim, Stadt","type":"Stadt"},"district":{"key":"06431","name":"Bergstraße","type":"Landkreis"},"federalState":{"key":"06","name":"Hessen"}},{"name":"Rosenweg","postalCode":"85117","locality":"Eitensheim","municipality":{"key":"09176124","name":"Eitensheim","type":"Kreisangehörige_Gemeinde"},"district":{"key":"09176","name":"Eichstätt","type":"Landkreis"},"federalState":{"key":"09","name":"Bayern"}},{"name":"Rudolf-Angermeier-Str.","postalCode":"64625","locality":"Bensheim","municipality":{"key":"06431002","name":"Bensheim, Stadt","type":"Stadt"},"district":{"key":"06431","name":"Bergstraße","type":"Landkreis"},"federalState":{"key":"06","name":"Hessen"}},{"name":"Ruwerstr.","postalCode":"64625","locality":"Bensheim","municipality":{"key":"06431002","name":"Bensheim, Stadt","type":"Stadt"},"district":{"key":"06431","name":"Bergstraße","type":"Landkreis"},"federalState":{"key":"06","name":"Hessen"}},{"name":"Saarstr.","postalCode":"64625","locality":"Bensheim","municipality":{"key":"06431002","name":"Bensheim, Stadt","type":"Stadt"},"district":{"key":"06431","name":"Bergstraße","type":"Landkreis"},"federalState":{"key":"06","name":"Hessen"}},{"name":"Sandhügelstr.","postalCode":"64625","locality":"Bensheim","municipality":{"key":"06431002","name":"Bensheim, Stadt","type":"Stadt"},"district":{"key":"06431","name":"Bergstraße","type":"Landkreis"},"federalState":{"key":"06","name":"Hessen"}},{"name":"Sandstr.","postalCode":"64625","locality":"Bensheim","municipality":{"key":"06431002","name":"Bensheim, Stadt","type":"Stadt"},"district":{"key":"06431","name":"Bergstraße","type":"Landkreis"},"federalState":{"key":"06","name":"Hessen"}},{"name":"Sauerbruchstr.","postalCode":"85117","locality":"Eitensheim","municipality":{"key":"09176124","name":"Eitensheim","type":"Kreisangehörige_Gemeinde"},"district":{"key":"09176","name":"Eichstätt","type":"Landkreis"},"federalState":{"key":"09","name":"Bayern"}},{"name":"Schannenbacher Weg","postalCode":"64625","locality":"Bensheim","municipality":{"key":"06431002","name":"Bensheim, Stadt","type":"Stadt"},"district":{"key":"06431","name":"Bergstraße","type":"Landkreis"},"federalState":{"key":"06","name":"Hessen"}},{"name":"Scheffelstr.","postalCode":"64625","locality":"Bensheim","municipality":{"key":"06431002","name":"Bensheim, Stadt","type":"Stadt"},"district":{"key":"06431","name":"Bergstraße","type":"Landkreis"},"federalState":{"key":"06","name":"Hessen"}},{"name":"Schelmengasse","postalCode":"64625","locality":"Bensheim","municipality":{"key":"06431002","name":"Bensheim, Stadt","type":"Stadt"},"district":{"key":"06431","name":"Bergstraße","type":"Landkreis"},"federalState":{"key":"06","name":"Hessen"}},{"name":"Scheurebenring","postalCode":"55232","locality":"Ensheim","municipality":{"key":"07331019","name":"Ensheim","type":"Kreisangehörige_Gemeinde"},"district":{"key":"07331","name":"Alzey-Worms","type":"Landkreis"},"federalState":{"key":"07","name":"Rheinland-Pfalz"}},{"name":"Schilfweg","postalCode":"64625","locality":"Bensheim","municipality":{"key":"06431002","name":"Bensheim, Stadt","type":"Stadt"},"district":{"key":"06431","name":"Bergstraße","type":"Landkreis"},"federalState":{"key":"06","name":"Hessen"}},{"name":"Schillerstr.","postalCode":"64625","locality":"Bensheim","municipality":{"key":"06431002","name":"Bensheim, Stadt","type":"Stadt"},"district":{"key":"06431","name":"Bergstraße","type":"Landkreis"},"federalState":{"key":"06","name":"Hessen"}},{"name":"Schillerstr.","postalCode":"85117","locality":"Eitensheim","municipality":{"key":"09176124","name":"Eitensheim","type":"Kreisangehörige_Gemeinde"},"district":{"key":"09176","name":"Eichstätt","type":"Landkreis"},"federalState":{"key":"09","name":"Bayern"}},{"name":"Schlaggasse","postalCode":"55232","locality":"Ensheim","municipality":{"key":"07331019","name":"Ensheim","type":"Kreisangehörige_Gemeinde"},"district":{"key":"07331","name":"Alzey-Worms","type":"Landkreis"},"federalState":{"key":"07","name":"Rheinland-Pfalz"}},{"name":"Schlehenweg","postalCode":"64625","locality":"Bensheim","municipality":{"key":"06431002","name":"Bensheim, Stadt","type":"Stadt"},"district":{"key":"06431","name":"Bergstraße","type":"Landkreis"},"federalState":{"key":"06","name":"Hessen"}},{"name":"Schlesierstr.","postalCode":"64625","locality":"Bensheim","municipality":{"key":"06431002","name":"Bensheim, Stadt","type":"Stadt"},"district":{"key":"06431","name":"Bergstraße","type":"Landkreis"},"federalState":{"key":"06","name":"Hessen"}},{"name":"Schlinkengasse","postalCode":"64625","locality":"Bensheim","municipality":{"key":"06431002","name":"Bensheim, Stadt","type":"Stadt"},"district":{"key":"06431","name":"Bergstraße","type":"Landkreis"},"federalState":{"key":"06","name":"Hessen"}},{"name":"Schlosshügel","postalCode":"55232","locality":"Ensheim","municipality":{"key":"07331019","name":"Ensheim","type":"Kreisangehörige_Gemeinde"},"district":{"key":"07331","name":"Alzey-Worms","type":"Landkreis"},"federalState":{"key":"07","name":"Rheinland-Pfalz"}},{"name":"Schloßstr.","postalCode":"64625","locality":"Bensheim","municipality":{"key":"06431002","name":"Bensheim, Stadt","type":"Stadt"},"district":{"key":"06431","name":"Bergstraße","type":"Landkreis"},"federalState":{"key":"06","name":"Hessen"}},{"name":"Scholzenviertel","postalCode":"64625","locality":"Bensheim","municipality":{"key":"06431002","name":"Bensheim, Stadt","type":"Stadt"},"district":{"key":"06431","name":"Bergstraße","type":"Landkreis"},"federalState":{"key":"06","name":"Hessen"}},{"name":"Schönberger Str.","postalCode":"64625","locality":"Bensheim","municipality":{"key":"06431002","name":"Bensheim, Stadt","type":"Stadt"},"district":{"key":"06431","name":"Bergstraße","type":"Landkreis"},"federalState":{"key":"06","name":"Hessen"}},{"name":"Schönberger Weg","postalCode":"64625","locality":"Bensheim","municipality":{"key":"06431002","name":"Bensheim, Stadt","type":"Stadt"},"district":{"key":"06431","name":"Bergstraße","type":"Landkreis"},"federalState":{"key":"06","name":"Hessen"}},{"name":"Schuhgasse","postalCode":"64625","locality":"Bensheim","municipality":{"key":"06431002","name":"Bensheim, Stadt","type":"Stadt"},"district":{"key":"06431","name":"Bergstraße","type":"Landkreis"},"federalState":{"key":"06","name":"Hessen"}},{"name":"Schulstr.","postalCode":"64625","locality":"Bensheim","municipality":{"key":"06431002","name":"Bensheim, Stadt","type":"Stadt"},"district":{"key":"06431","name":"Bergstraße","type":"Landkreis"},"federalState":{"key":"06","name":"Hessen"}},{"name":"Schulstr.","postalCode":"85117","locality":"Eitensheim","municipality":{"key":"09176124","name":"Eitensheim","type":"Kreisangehörige_Gemeinde"},"district":{"key":"09176","name":"Eichstätt","type":"Landkreis"},"federalState":{"key":"09","name":"Bayern"}},{"name":"Schulzengasse","postalCode":"64625","locality":"Bensheim","municipality":{"key":"06431002","name":"Bensheim, Stadt","type":"Stadt"},"district":{"key":"06431","name":"Bergstraße","type":"Landkreis"},"federalState":{"key":"06","name":"Hessen"}},{"name":"Schützenstr.","postalCode":"64625","locality":"Bensheim","municipality":{"key":"06431002","name":"Bensheim, Stadt","type":"Stadt"},"district":{"key":"06431","name":"Bergstraße","type":"Landkreis"},"federalState":{"key":"06","name":"Hessen"}},{"name":"Schwalbenweg","postalCode":"64625","locality":"Bensheim","municipality":{"key":"06431002","name":"Bensheim, Stadt","type":"Stadt"},"district":{"key":"06431","name":"Bergstraße","type":"Landkreis"},"federalState":{"key":"06","name":"Hessen"}},{"name":"Schwanheimer Str.","postalCode":"64625","locality":"Bensheim","municipality":{"key":"06431002","name":"Bensheim, Stadt","type":"Stadt"},"district":{"key":"06431","name":"Bergstraße","type":"Landkreis"},"federalState":{"key":"06","name":"Hessen"}},{"name":"Schwarzwaldstr.","postalCode":"64625","locality":"Bensheim","municipality":{"key":"06431002","name":"Bensheim, Stadt","type":"Stadt"},"district":{"key":"06431","name":"Bergstraße","type":"Landkreis"},"federalState":{"key":"06","name":"Hessen"}},{"name":"Schwester-Jovita-Str.","postalCode":"64625","locality":"Bensheim","municipality":{"key":"06431002","name":"Bensheim, Stadt","type":"Stadt"},"district":{"key":"06431","name":"Bergstraße","type":"Landkreis"},"federalState":{"key":"06","name":"Hessen"}},{"name":"Seminarstr.","postalCode":"64625","locality":"Bensheim","municipality":{"key":"06431002","name":"Bensheim, Stadt","type":"Stadt"},"district":{"key":"06431","name":"Bergstraße","type":"Landkreis"},"federalState":{"key":"06","name":"Hessen"}},{"name":"Siegfried-Lenz-Weg","postalCode":"64625","locality":"Bensheim","municipality":{"key":"06431002","name":"Bensheim, Stadt","type":"Stadt"},"district":{"key":"06431","name":"Bergstraße","type":"Landkreis"},"federalState":{"key":"06","name":"Hessen"}},{"name":"Siegfriedstr.","postalCode":"64625","locality":"Bensheim","municipality":{"key":"06431002","name":"Bensheim, Stadt","type":"Stadt"},"district":{"key":"06431","name":"Bergstraße","type":"Landkreis"},"federalState":{"key":"06","name":"Hessen"}},{"name":"Siemensstr.","postalCode":"85117","locality":"Eitensheim","municipality":{"key":"09176124","name":"Eitensheim","type":"Kreisangehörige_Gemeinde"},"district":{"key":"09176","name":"Eichstätt","type":"Landkreis"},"federalState":{"key":"09","name":"Bayern"}},{"name":"Spessartstr.","postalCode":"64625","locality":"Bensheim","municipality":{"key":"06431002","name":"Bensheim, Stadt","type":"Stadt"},"district":{"key":"06431","name":"Bergstraße","type":"Landkreis"},"federalState":{"key":"06","name":"Hessen"}},{"name":"Spiessheimer Weg","postalCode":"55232","locality":"Ensheim","municipality":{"key":"07331019","name":"Ensheim","type":"Kreisangehörige_Gemeinde"},"district":{"key":"07331","name":"Alzey-Worms","type":"Landkreis"},"federalState":{"key":"07","name":"Rheinland-Pfalz"}},{"name":"Staatspark Fürstenlager","postalCode":"64625","locality":"Bensheim","municipality":{"key":"06431002","name":"Bensheim, Stadt","type":"Stadt"},"district":{"key":"06431","name":"Bergstraße","type":"Landkreis"},"federalState":{"key":"06","name":"Hessen"}},{"name":"Stadtpark","postalCode":"64625","locality":"Bensheim","municipality":{"key":"06431002","name":"Bensheim, Stadt","type":"Stadt"},"district":{"key":"06431","name":"Bergstraße","type":"Landkreis"},"federalState":{"key":"06","name":"Hessen"}},{"name":"Starenweg","postalCode":"64625","locality":"Bensheim","municipality":{"key":"06431002","name":"Bensheim, Stadt","type":"Stadt"},"district":{"key":"06431","name":"Bergstraße","type":"Landkreis"},"federalState":{"key":"06","name":"Hessen"}},{"name":"Starkenburgstr.","postalCode":"64625","locality":"Bensheim","municipality":{"key":"06431002","name":"Bensheim, Stadt","type":"Stadt"},"district":{"key":"06431","name":"Bergstraße","type":"Landkreis"},"federalState":{"key":"06","name":"Hessen"}},{"name":"Steigäckerring","postalCode":"85117","locality":"Eitensheim","municipality":{"key":"09176124","name":"Eitensheim","type":"Kreisangehörige_Gemeinde"},"district":{"key":"09176","name":"Eichstätt","type":"Landkreis"},"federalState":{"key":"09","name":"Bayern"}},{"name":"Steinförstweg","postalCode":"64625","locality":"Bensheim","municipality":{"key":"06431002","name":"Bensheim, Stadt","type":"Stadt"},"district":{"key":"06431","name":"Bergstraße","type":"Landkreis"},"federalState":{"key":"06","name":"Hessen"}},{"name":"Steiniger Weg","postalCode":"64625","locality":"Bensheim","municipality":{"key":"06431002","name":"Bensheim, Stadt","type":"Stadt"},"district":{"key":"06431","name":"Bergstraße","type":"Landkreis"},"federalState":{"key":"06","name":"Hessen"}},{"name":"Steinweg","postalCode":"64625","locality":"Bensheim","municipality":{"key":"06431002","name":"Bensheim, Stadt","type":"Stadt"},"district":{"key":"06431","name":"Bergstraße","type":"Landkreis"},"federalState":{"key":"06","name":"Hessen"}},{"name":"Stubenwald-Allee","postalCode":"64625","locality":"Bensheim","municipality":{"key":"06431002","name":"Bensheim, Stadt","type":"Stadt"},"district":{"key":"06431","name":"Bergstraße","type":"Landkreis"},"federalState":{"key":"06","name":"Hessen"}},{"name":"Stubenwaldstr.","postalCode":"64625","locality":"Bensheim","municipality":{"key":"06431002","name":"Bensheim, Stadt","type":"Stadt"},"district":{"key":"06431","name":"Bergstraße","type":"Landkreis"},"federalState":{"key":"06","name":"Hessen"}},{"name":"Sudetenstr.","postalCode":"64625","locality":"Bensheim","municipality":{"key":"06431002","name":"Bensheim, Stadt","type":"Stadt"},"district":{"key":"06431","name":"Bergstraße","type":"Landkreis"},"federalState":{"key":"06","name":"Hessen"}},{"name":"Talackerweg","postalCode":"55232","locality":"Ensheim","municipality":{"key":"07331019","name":"Ensheim","type":"Kreisangehörige_Gemeinde"},"district":{"key":"07331","name":"Alzey-Worms","type":"Landkreis"},"federalState":{"key":"07","name":"Rheinland-Pfalz"}},{"name":"Talstr.","postalCode":"64625","locality":"Bensheim","municipality":{"key":"06431002","name":"Bensheim, Stadt","type":"Stadt"},"district":{"key":"06431","name":"Bergstraße","type":"Landkreis"},"federalState":{"key":"06","name":"Hessen"}},{"name":"Tannbergstr.","postalCode":"64625","locality":"Bensheim","municipality":{"key":"06431002","name":"Bensheim, Stadt","type":"Stadt"},"district":{"key":"06431","name":"Bergstraße","type":"Landkreis"},"federalState":{"key":"06","name":"Hessen"}},{"name":"Tauberfelder Weg","postalCode":"85117","locality":"Eitensheim","municipality":{"key":"09176124","name":"Eitensheim","type":"Kreisangehörige_Gemeinde"},"district":{"key":"09176","name":"Eichstätt","type":"Landkreis"},"federalState":{"key":"09","name":"Bayern"}},{"name":"Taubertsgasse","postalCode":"64625","locality":"Bensheim","municipality":{"key":"06431002","name":"Bensheim, Stadt","type":"Stadt"},"district":{"key":"06431","name":"Bergstraße","type":"Landkreis"},"federalState":{"key":"06","name":"Hessen"}},{"name":"Taunusanlage","postalCode":"64625","locality":"Bensheim","municipality":{"key":"06431002","name":"Bensheim, Stadt","type":"Stadt"},"district":{"key":"06431","name":"Bergstraße","type":"Landkreis"},"federalState":{"key":"06","name":"Hessen"}},{"name":"Taunusstr.","postalCode":"64625","locality":"Bensheim","municipality":{"key":"06431002","name":"Bensheim, Stadt","type":"Stadt"},"district":{"key":"06431","name":"Bergstraße","type":"Landkreis"},"federalState":{"key":"06","name":"Hessen"}},{"name":"Teichstr.","postalCode":"64625","locality":"Bensheim","municipality":{"key":"06431002","name":"Bensheim, Stadt","type":"Stadt"},"district":{"key":"06431","name":"Bergstraße","type":"Landkreis"},"federalState":{"key":"06","name":"Hessen"}},{"name":"Theodor-Heuss-Str.","postalCode":"64625","locality":"Bensheim","municipality":{"key":"06431002","name":"Bensheim, Stadt","type":"Stadt"},"district":{"key":"06431","name":"Bergstraße","type":"Landkreis"},"federalState":{"key":"06","name":"Hessen"}},{"name":"Therese-Giehse-Str.","postalCode":"64625","locality":"Bensheim","municipality":{"key":"06431002","name":"Bensheim, Stadt","type":"Stadt"},"district":{"key":"06431","name":"Bergstraße","type":"Landkreis"},"federalState":{"key":"06","name":"Hessen"}},{"name":"Tilsiter Weg","postalCode":"64625","locality":"Bensheim","municipality":{"key":"06431002","name":"Bensheim, Stadt","type":"Stadt"},"district":{"key":"06431","name":"Bergstraße","type":"Landkreis"},"federalState":{"key":"06","name":"Hessen"}},{"name":"Tulpenweg","postalCode":"64625","locality":"Bensheim","municipality":{"key":"06431002","name":"Bensheim, Stadt","type":"Stadt"},"district":{"key":"06431","name":"Bergstraße","type":"Landkreis"},"federalState":{"key":"06","name":"Hessen"}},{"name":"Tulpenweg","postalCode":"85117","locality":"Eitensheim","municipality":{"key":"09176124","name":"Eitensheim","type":"Kreisangehörige_Gemeinde"},"district":{"key":"09176","name":"Eichstätt","type":"Landkreis"},"federalState":{"key":"09","name":"Bayern"}},{"name":"Uhlandstr.","postalCode":"64625","locality":"Bensheim","municipality":{"key":"06431002","name":"Bensheim, Stadt","type":"Stadt"},"district":{"key":"06431","name":"Bergstraße","type":"Landkreis"},"federalState":{"key":"06","name":"Hessen"}},{"name":"Ulmenweg","postalCode":"64625","locality":"Bensheim","municipality":{"key":"06431002","name":"Bensheim, Stadt","type":"Stadt"},"district":{"key":"06431","name":"Bergstraße","type":"Landkreis"},"federalState":{"key":"06","name":"Hessen"}},{"name":"Unteres Grabengäßchen","postalCode":"64625","locality":"Bensheim","municipality":{"key":"06431002","name":"Bensheim, Stadt","type":"Stadt"},"district":{"key":"06431","name":"Bergstraße","type":"Landkreis"},"federalState":{"key":"06","name":"Hessen"}},{"name":"Untergasse","postalCode":"55232","locality":"Ensheim","municipality":{"key":"07331019","name":"Ensheim","type":"Kreisangehörige_Gemeinde"},"district":{"key":"07331","name":"Alzey-Worms","type":"Landkreis"},"federalState":{"key":"07","name":"Rheinland-Pfalz"}},{"name":"Unterweg","postalCode":"64625","locality":"Bensheim","municipality":{"key":"06431002","name":"Bensheim, Stadt","type":"Stadt"},"district":{"key":"06431","name":"Bergstraße","type":"Landkreis"},"federalState":{"key":"06","name":"Hessen"}},{"name":"Uteweg","postalCode":"64625","locality":"Bensheim","municipality":{"key":"06431002","name":"Bensheim, Stadt","type":"Stadt"},"district":{"key":"06431","name":"Bergstraße","type":"Landkreis"},"federalState":{"key":"06","name":"Hessen"}},{"name":"Verbindungsweg","postalCode":"64625","locality":"Bensheim","municipality":{"key":"06431002","name":"Bensheim, Stadt","type":"Stadt"},"district":{"key":"06431","name":"Bergstraße","type":"Landkreis"},"federalState":{"key":"06","name":"Hessen"}},{"name":"Vogelhecke","postalCode":"64625","locality":"Bensheim","municipality":{"key":"06431002","name":"Bensheim, Stadt","type":"Stadt"},"district":{"key":"06431","name":"Bergstraße","type":"Landkreis"},"federalState":{"key":"06","name":"Hessen"}},{"name":"Vogelsbergstr.","postalCode":"64625","locality":"Bensheim","municipality":{"key":"06431002","name":"Bensheim, Stadt","type":"Stadt"},"district":{"key":"06431","name":"Bergstraße","type":"Landkreis"},"federalState":{"key":"06","name":"Hessen"}},{"name":"Volkerstr.","postalCode":"64625","locality":"Bensheim","municipality":{"key":"06431002","name":"Bensheim, Stadt","type":"Stadt"},"district":{"key":"06431","name":"Bergstraße","type":"Landkreis"},"federalState":{"key":"06","name":"Hessen"}},{"name":"Vorderwaldstr.","postalCode":"64625","locality":"Bensheim","municipality":{"key":"06431002","name":"Bensheim, Stadt","type":"Stadt"},"district":{"key":"06431","name":"Bergstraße","type":"Landkreis"},"federalState":{"key":"06","name":"Hessen"}},{"name":"Waldblick","postalCode":"64625","locality":"Bensheim","municipality":{"key":"06431002","name":"Bensheim, Stadt","type":"Stadt"},"district":{"key":"06431","name":"Bergstraße","type":"Landkreis"},"federalState":{"key":"06","name":"Hessen"}},{"name":"Waldmeisterweg","postalCode":"64625","locality":"Bensheim","municipality":{"key":"06431002","name":"Bensheim, Stadt","type":"Stadt"},"district":{"key":"06431","name":"Bergstraße","type":"Landkreis"},"federalState":{"key":"06","name":"Hessen"}},{"name":"Waldstr.","postalCode":"64625","locality":"Bensheim","municipality":{"key":"06431002","name":"Bensheim, Stadt","type":"Stadt"},"district":{"key":"06431","name":"Bergstraße","type":"Landkreis"},"federalState":{"key":"06","name":"Hessen"}},{"name":"Weidenring","postalCode":"64625","locality":"Bensheim","municipality":{"key":"06431002","name":"Bensheim, Stadt","type":"Stadt"},"district":{"key":"06431","name":"Bergstraße","type":"Landkreis"},"federalState":{"key":"06","name":"Hessen"}},{"name":"Weidgasse","postalCode":"64625","locality":"Bensheim","municipality":{"key":"06431002","name":"Bensheim, Stadt","type":"Stadt"},"district":{"key":"06431","name":"Bergstraße","type":"Landkreis"},"federalState":{"key":"06","name":"Hessen"}},{"name":"Weiherstr.","postalCode":"64625","locality":"Bensheim","municipality":{"key":"06431002","name":"Bensheim, Stadt","type":"Stadt"},"district":{"key":"06431","name":"Bergstraße","type":"Landkreis"},"federalState":{"key":"06","name":"Hessen"}},{"name":"Weiherweg","postalCode":"64625","locality":"Bensheim","municipality":{"key":"06431002","name":"Bensheim, Stadt","type":"Stadt"},"district":{"key":"06431","name":"Bergstraße","type":"Landkreis"},"federalState":{"key":"06","name":"Hessen"}},{"name":"Weinbergstr.","postalCode":"64625","locality":"Bensheim","municipality":{"key":"06431002","name":"Bensheim, Stadt","type":"Stadt"},"district":{"key":"06431","name":"Bergstraße","type":"Landkreis"},"federalState":{"key":"06","name":"Hessen"}},{"name":"Weinheimer Str.","postalCode":"64625","locality":"Bensheim","municipality":{"key":"06431002","name":"Bensheim, Stadt","type":"Stadt"},"district":{"key":"06431","name":"Bergstraße","type":"Landkreis"},"federalState":{"key":"06","name":"Hessen"}},{"name":"Weinlagenweg","postalCode":"64625","locality":"Bensheim","municipality":{"key":"06431002","name":"Bensheim, Stadt","type":"Stadt"},"district":{"key":"06431","name":"Bergstraße","type":"Landkreis"},"federalState":{"key":"06","name":"Hessen"}},{"name":"Werrastr.","postalCode":"64625","locality":"Bensheim","municipality":{"key":"06431002","name":"Bensheim, Stadt","type":"Stadt"},"district":{"key":"06431","name":"Bergstraße","type":"Landkreis"},"federalState":{"key":"06","name":"Hessen"}},{"name":"Weserstr.","postalCode":"64625","locality":"Bensheim","municipality":{"key":"06431002","name":"Bensheim, Stadt","type":"Stadt"},"district":{"key":"06431","name":"Bergstraße","type":"Landkreis"},"federalState":{"key":"06","name":"Hessen"}},{"name":"Weyrichstr.","postalCode":"64625","locality":"Bensheim","municipality":{"key":"06431002","name":"Bensheim, Stadt","type":"Stadt"},"district":{"key":"06431","name":"Bergstraße","type":"Landkreis"},"federalState":{"key":"06","name":"Hessen"}},{"name":"Wiesengasse","postalCode":"55232","locality":"Ensheim","municipality":{"key":"07331019","name":"Ensheim","type":"Kreisangehörige_Gemeinde"},"district":{"key":"07331","name":"Alzey-Worms","type":"Landkreis"},"federalState":{"key":"07","name":"Rheinland-Pfalz"}},{"name":"Wiesenstr.","postalCode":"64625","locality":"Bensheim","municipality":{"key":"06431002","name":"Bensheim, Stadt","type":"Stadt"},"district":{"key":"06431","name":"Bergstraße","type":"Landkreis"},"federalState":{"key":"06","name":"Hessen"}},{"name":"Wilhelm-Busch-Str.","postalCode":"64625","locality":"Bensheim","municipality":{"key":"06431002","name":"Bensheim, Stadt","type":"Stadt"},"district":{"key":"06431","name":"Bergstraße","type":"Landkreis"},"federalState":{"key":"06","name":"Hessen"}},{"name":"Wilhelm-Euler-Str.","postalCode":"64625","locality":"Bensheim","municipality":{"key":"06431002","name":"Bensheim, Stadt","type":"Stadt"},"district":{"key":"06431","name":"Bergstraße","type":"Landkreis"},"federalState":{"key":"06","name":"Hessen"}},{"name":"Wilhelminenstr.","postalCode":"64625","locality":"Bensheim","municipality":{"key":"06431002","name":"Bensheim, Stadt","type":"Stadt"},"district":{"key":"06431","name":"Bergstraße","type":"Landkreis"},"federalState":{"key":"06","name":"Hessen"}},{"name":"Wilhelm-Kilian-Str.","postalCode":"64625","locality":"Bensheim","municipality":{"key":"06431002","name":"Bensheim, Stadt","type":"Stadt"},"district":{"key":"06431","name":"Bergstraße","type":"Landkreis"},"federalState":{"key":"06","name":"Hessen"}},{"name":"Wilhelm-Leuschner-Str.","postalCode":"64625","locality":"Bensheim","municipality":{"key":"06431002","name":"Bensheim, Stadt","type":"Stadt"},"district":{"key":"06431","name":"Bergstraße","type":"Landkreis"},"federalState":{"key":"06","name":"Hessen"}},{"name":"Wilhelmstr.","postalCode":"64625","locality":"Bensheim","municipality":{"key":"06431002","name":"Bensheim, Stadt","type":"Stadt"},"district":{"key":"06431","name":"Bergstraße","type":"Landkreis"},"federalState":{"key":"06","name":"Hessen"}},{"name":"Wilhelmsweg","postalCode":"64625","locality":"Bensheim","municipality":{"key":"06431002","name":"Bensheim, Stadt","type":"Stadt"},"district":{"key":"06431","name":"Bergstraße","type":"Landkreis"},"federalState":{"key":"06","name":"Hessen"}},{"name":"Wingertsweg","postalCode":"64625","locality":"Bensheim","municipality":{"key":"06431002","name":"Bensheim, Stadt","type":"Stadt"},"district":{"key":"06431","name":"Bergstraße","type":"Landkreis"},"federalState":{"key":"06","name":"Hessen"}},{"name":"Wohnpark","postalCode":"64625","locality":"Bensheim","municipality":{"key":"06431002","name":"Bensheim, Stadt","type":"Stadt"},"district":{"key":"06431","name":"Bergstraße","type":"Landkreis"},"federalState":{"key":"06","name":"Hessen"}},{"name":"Wolfsgartenstr.","postalCode":"64625","locality":"Bensheim","municipality":{"key":"06431002","name":"Bensheim, Stadt","type":"Stadt"},"district":{"key":"06431","name":"Bergstraße","type":"Landkreis"},"federalState":{"key":"06","name":"Hessen"}},{"name":"Wormser Str.","postalCode":"64625","locality":"Bensheim","municipality":{"key":"06431002","name":"Bensheim, Stadt","type":"Stadt"},"district":{"key":"06431","name":"Bergstraße","type":"Landkreis"},"federalState":{"key":"06","name":"Hessen"}},{"name":"Zeller Str.","postalCode":"64625","locality":"Bensheim","municipality":{"key":"06431002","name":"Bensheim, Stadt","type":"Stadt"},"district":{"key":"06431","name":"Bergstraße","type":"Landkreis"},"federalState":{"key":"06","name":"Hessen"}},{"name":"Zeppelinstr.","postalCode":"64625","locality":"Bensheim","municipality":{"key":"06431002","name":"Bensheim, Stadt","type":"Stadt"},"district":{"key":"06431","name":"Bergstraße","type":"Landkreis"},"federalState":{"key":"06","name":"Hessen"}},{"name":"Ziegeleiweg","postalCode":"85117","locality":"Eitensheim","municipality":{"key":"09176124","name":"Eitensheim","type":"Kreisangehörige_Gemeinde"},"district":{"key":"09176","name":"Eichstätt","type":"Landkreis"},"federalState":{"key":"09","name":"Bayern"}},{"name":"Zum Katzenrech","postalCode":"64625","locality":"Bensheim","municipality":{"key":"06431002","name":"Bensheim, Stadt","type":"Stadt"},"district":{"key":"06431","name":"Bergstraße","type":"Landkreis"},"federalState":{"key":"06","name":"Hessen"}},{"name":"Zum Langgewann","postalCode":"64625","locality":"Bensheim","municipality":{"key":"06431002","name":"Bensheim, Stadt","type":"Stadt"},"district":{"key":"06431","name":"Bergstraße","type":"Landkreis"},"federalState":{"key":"06","name":"Hessen"}},{"name":"Zum Oberfeld","postalCode":"64625","locality":"Bensheim","municipality":{"key":"06431002","name":"Bensheim, Stadt","type":"Stadt"},"district":{"key":"06431","name":"Bergstraße","type":"Landkreis"},"federalState":{"key":"06","name":"Hessen"}},{"name":"Zum Ratswäldchen","postalCode":"64625","locality":"Bensheim","municipality":{"key":"06431002","name":"Bensheim, Stadt","type":"Stadt"},"district":{"key":"06431","name":"Bergstraße","type":"Landkreis"},"federalState":{"key":"06","name":"Hessen"}},{"name":"Zum Römerhügel","postalCode":"64625","locality":"Bensheim","municipality":{"key":"06431002","name":"Bensheim, Stadt","type":"Stadt"},"district":{"key":"06431","name":"Bergstraße","type":"Landkreis"},"federalState":{"key":"06","name":"Hessen"}},{"name":"Zur Holderhecke","postalCode":"64625","locality":"Bensheim","municipality":{"key":"06431002","name":"Bensheim, Stadt","type":"Stadt"},"district":{"key":"06431","name":"Bergstraße","type":"Landkreis"},"federalState":{"key":"06","name":"Hessen"}},{"name":"Zwischen den Bächen","postalCode":"64625","locality":"Bensheim","municipality":{"key":"06431002","name":"Bensheim, Stadt","type":"Stadt"},"district":{"key":"06431","name":"Bergstraße","type":"Landkreis"},"federalState":{"key":"06","name":"Hessen"}},]