[{"name":"Auf der Fenn","postalCode":"56858","locality":"Mittelstrimmig","municipality":{"key":"07135061","name":"Mittelstrimmig","type":"Kreisangehörige_Gemeinde"},"district":{"key":"07135","name":"Cochem-Zell","type":"Landkreis"},"federalState":{"key":"07","name":"Rheinland-Pfalz"}},{"name":"Auf Ferbel","postalCode":"56858","locality":"Mittelstrimmig","municipality":{"key":"07135061","name":"Mittelstrimmig","type":"Kreisangehörige_Gemeinde"},"district":{"key":"07135","name":"Cochem-Zell","type":"Landkreis"},"federalState":{"key":"07","name":"Rheinland-Pfalz"}},{"name":"Auf Helmert","postalCode":"56858","locality":"Mittelstrimmig","municipality":{"key":"07135061","name":"Mittelstrimmig","type":"Kreisangehörige_Gemeinde"},"district":{"key":"07135","name":"Cochem-Zell","type":"Landkreis"},"federalState":{"key":"07","name":"Rheinland-Pfalz"}},{"name":"Dorfplatz","postalCode":"56858","locality":"Mittelstrimmig","municipality":{"key":"07135061","name":"Mittelstrimmig","type":"Kreisangehörige_Gemeinde"},"district":{"key":"07135","name":"Cochem-Zell","type":"Landkreis"},"federalState":{"key":"07","name":"Rheinland-Pfalz"}},{"name":"Flaumbach","postalCode":"56858","locality":"Mittelstrimmig","municipality":{"key":"07135061","name":"Mittelstrimmig","type":"Kreisangehörige_Gemeinde"},"district":{"key":"07135","name":"Cochem-Zell","type":"Landkreis"},"federalState":{"key":"07","name":"Rheinland-Pfalz"}},{"name":"Flurstr.","postalCode":"56858","locality":"Mittelstrimmig","municipality":{"key":"07135061","name":"Mittelstrimmig","type":"Kreisangehörige_Gemeinde"},"district":{"key":"07135","name":"Cochem-Zell","type":"Landkreis"},"federalState":{"key":"07","name":"Rheinland-Pfalz"}},{"name":"Gartenstr.","postalCode":"56858","locality":"Mittelstrimmig","municipality":{"key":"07135061","name":"Mittelstrimmig","type":"Kreisangehörige_Gemeinde"},"district":{"key":"07135","name":"Cochem-Zell","type":"Landkreis"},"federalState":{"key":"07","name":"Rheinland-Pfalz"}},{"name":"Hauptstr.","postalCode":"56858","locality":"Mittelstrimmig","municipality":{"key":"07135061","name":"Mittelstrimmig","type":"Kreisangehörige_Gemeinde"},"district":{"key":"07135","name":"Cochem-Zell","type":"Landkreis"},"federalState":{"key":"07","name":"Rheinland-Pfalz"}},{"name":"Höhlenschlucht","postalCode":"56858","locality":"Mittelstrimmig","municipality":{"key":"07135061","name":"Mittelstrimmig","type":"Kreisangehörige_Gemeinde"},"district":{"key":"07135","name":"Cochem-Zell","type":"Landkreis"},"federalState":{"key":"07","name":"Rheinland-Pfalz"}},{"name":"Museumstr.","postalCode":"56858","locality":"Mittelstrimmig","municipality":{"key":"07135061","name":"Mittelstrimmig","type":"Kreisangehörige_Gemeinde"},"district":{"key":"07135","name":"Cochem-Zell","type":"Landkreis"},"federalState":{"key":"07","name":"Rheinland-Pfalz"}},{"name":"Pöhlstr.","postalCode":"56858","locality":"Mittelstrimmig","municipality":{"key":"07135061","name":"Mittelstrimmig","type":"Kreisangehörige_Gemeinde"},"district":{"key":"07135","name":"Cochem-Zell","type":"Landkreis"},"federalState":{"key":"07","name":"Rheinland-Pfalz"}},{"name":"Schulstr.","postalCode":"56858","locality":"Mittelstrimmig","municipality":{"key":"07135061","name":"Mittelstrimmig","type":"Kreisangehörige_Gemeinde"},"district":{"key":"07135","name":"Cochem-Zell","type":"Landkreis"},"federalState":{"key":"07","name":"Rheinland-Pfalz"}},{"name":"Sportplatz","postalCode":"56858","locality":"Mittelstrimmig","municipality":{"key":"07135061","name":"Mittelstrimmig","type":"Kreisangehörige_Gemeinde"},"district":{"key":"07135","name":"Cochem-Zell","type":"Landkreis"},"federalState":{"key":"07","name":"Rheinland-Pfalz"}},]