[{"key":"10132458","name":"Aberwandelstrasse","postalCode":"8181","locality":"Höri","commune":{"key":"60","name":"Höri","shortName":"Höri"},"district":{"key":"103","name":"Bezirk Bülach"},"canton":{"key":"1","code":"ZH","name":"Zürich"},"status":"Real"},{"key":"10077652","name":"Alte Kaiserstuhlerstrasse","postalCode":"8181","locality":"Höri","commune":{"key":"60","name":"Höri","shortName":"Höri"},"district":{"key":"103","name":"Bezirk Bülach"},"canton":{"key":"1","code":"ZH","name":"Zürich"},"status":"Real"},{"key":"10133356","name":"Alter Reservoirweg","postalCode":"8181","locality":"Höri","commune":{"key":"60","name":"Höri","shortName":"Höri"},"district":{"key":"103","name":"Bezirk Bülach"},"canton":{"key":"1","code":"ZH","name":"Zürich"},"status":"Real"},{"key":"10080741","name":"Altmannsteinstrasse","postalCode":"8181","locality":"Höri","commune":{"key":"60","name":"Höri","shortName":"Höri"},"district":{"key":"103","name":"Bezirk Bülach"},"canton":{"key":"1","code":"ZH","name":"Zürich"},"status":"Real"},{"key":"10221006","name":"Au","postalCode":"3174","locality":"Thörishaus","commune":{"key":"355","name":"Köniz","shortName":"Köniz"},"district":{"key":"246","name":"Verwaltungskreis Bern-Mittelland"},"canton":{"key":"2","code":"BE","name":"Bern / Berne"},"status":"Real"},{"key":"10090347","name":"Bachstrasse","postalCode":"3367","locality":"Thörigen","commune":{"key":"989","name":"Thörigen","shortName":"Thörigen"},"district":{"key":"244","name":"Verwaltungskreis Oberaargau"},"canton":{"key":"2","code":"BE","name":"Bern / Berne"},"status":"Real"},{"key":"10133358","name":"Bahnweg","postalCode":"8181","locality":"Höri","commune":{"key":"60","name":"Höri","shortName":"Höri"},"district":{"key":"103","name":"Bezirk Bülach"},"canton":{"key":"1","code":"ZH","name":"Zürich"},"status":"Real"},{"key":"10152808","name":"Baumgartenweg","postalCode":"8181","locality":"Höri","commune":{"key":"60","name":"Höri","shortName":"Höri"},"district":{"key":"103","name":"Bezirk Bülach"},"canton":{"key":"1","code":"ZH","name":"Zürich"},"status":"Real"},{"key":"10066396","name":"Birkenweg","postalCode":"3367","locality":"Thörigen","commune":{"key":"989","name":"Thörigen","shortName":"Thörigen"},"district":{"key":"244","name":"Verwaltungskreis Oberaargau"},"canton":{"key":"2","code":"BE","name":"Bern / Berne"},"status":"Real"},{"key":"10133359","name":"Bodenächerweg","postalCode":"8181","locality":"Höri","commune":{"key":"60","name":"Höri","shortName":"Höri"},"district":{"key":"103","name":"Bezirk Bülach"},"canton":{"key":"1","code":"ZH","name":"Zürich"},"status":"Real"},{"key":"10133360","name":"Breitenweg","postalCode":"8181","locality":"Höri","commune":{"key":"60","name":"Höri","shortName":"Höri"},"district":{"key":"103","name":"Bezirk Bülach"},"canton":{"key":"1","code":"ZH","name":"Zürich"},"status":"Real"},{"key":"10014591","name":"Brunnackerweg","postalCode":"3367","locality":"Thörigen","commune":{"key":"989","name":"Thörigen","shortName":"Thörigen"},"district":{"key":"244","name":"Verwaltungskreis Oberaargau"},"canton":{"key":"2","code":"BE","name":"Bern / Berne"},"status":"Real"},{"key":"10152809","name":"Brünnliweg","postalCode":"8181","locality":"Höri","commune":{"key":"60","name":"Höri","shortName":"Höri"},"district":{"key":"103","name":"Bezirk Bülach"},"canton":{"key":"1","code":"ZH","name":"Zürich"},"status":"Real"},{"key":"10166983","name":"Brünnliwiesstrasse","postalCode":"8181","locality":"Höri","commune":{"key":"60","name":"Höri","shortName":"Höri"},"district":{"key":"103","name":"Bezirk Bülach"},"canton":{"key":"1","code":"ZH","name":"Zürich"},"status":"Real"},{"key":"10059253","name":"Brunnmattstrasse","postalCode":"3174","locality":"Thörishaus","commune":{"key":"355","name":"Köniz","shortName":"Köniz"},"district":{"key":"246","name":"Verwaltungskreis Bern-Mittelland"},"canton":{"key":"2","code":"BE","name":"Bern / Berne"},"status":"Real"},{"key":"10014592","name":"Buchsistrasse","postalCode":"3367","locality":"Thörigen","commune":{"key":"989","name":"Thörigen","shortName":"Thörigen"},"district":{"key":"244","name":"Verwaltungskreis Oberaargau"},"canton":{"key":"2","code":"BE","name":"Bern / Berne"},"status":"Real"},{"key":"10001091","name":"Bücklerstrasse","postalCode":"8181","locality":"Höri","commune":{"key":"60","name":"Höri","shortName":"Höri"},"district":{"key":"103","name":"Bezirk Bülach"},"canton":{"key":"1","code":"ZH","name":"Zürich"},"status":"Real"},{"key":"10134758","name":"Buckweg","postalCode":"8181","locality":"Höri","commune":{"key":"60","name":"Höri","shortName":"Höri"},"district":{"key":"103","name":"Bezirk Bülach"},"canton":{"key":"1","code":"ZH","name":"Zürich"},"status":"Real"},{"key":"10128133","name":"Bühlweg","postalCode":"3367","locality":"Thörigen","commune":{"key":"989","name":"Thörigen","shortName":"Thörigen"},"district":{"key":"244","name":"Verwaltungskreis Oberaargau"},"canton":{"key":"2","code":"BE","name":"Bern / Berne"},"status":"Real"},{"key":"10053903","name":"Bungertstrasse","postalCode":"8181","locality":"Höri","commune":{"key":"60","name":"Höri","shortName":"Höri"},"district":{"key":"103","name":"Bezirk Bülach"},"canton":{"key":"1","code":"ZH","name":"Zürich"},"status":"Real"},{"key":"10013550","name":"Burgdorfstrasse","postalCode":"3367","locality":"Thörigen","commune":{"key":"989","name":"Thörigen","shortName":"Thörigen"},"district":{"key":"244","name":"Verwaltungskreis Oberaargau"},"canton":{"key":"2","code":"BE","name":"Bern / Berne"},"status":"Real"},{"key":"10112450","name":"Chaletweg","postalCode":"3174","locality":"Thörishaus","commune":{"key":"355","name":"Köniz","shortName":"Köniz"},"district":{"key":"246","name":"Verwaltungskreis Bern-Mittelland"},"canton":{"key":"2","code":"BE","name":"Bern / Berne"},"status":"Real"},{"key":"10152810","name":"Chegelbuckweg","postalCode":"8181","locality":"Höri","commune":{"key":"60","name":"Höri","shortName":"Höri"},"district":{"key":"103","name":"Bezirk Bülach"},"canton":{"key":"1","code":"ZH","name":"Zürich"},"status":"Real"},{"key":"10152811","name":"Chesslerweg","postalCode":"8181","locality":"Höri","commune":{"key":"60","name":"Höri","shortName":"Höri"},"district":{"key":"103","name":"Bezirk Bülach"},"canton":{"key":"1","code":"ZH","name":"Zürich"},"status":"Real"},{"key":"10152812","name":"Chüebuckweg","postalCode":"8181","locality":"Höri","commune":{"key":"60","name":"Höri","shortName":"Höri"},"district":{"key":"103","name":"Bezirk Bülach"},"canton":{"key":"1","code":"ZH","name":"Zürich"},"status":"Real"},{"key":"10088980","name":"Dachsenweidweg","postalCode":"3174","locality":"Thörishaus","commune":{"key":"355","name":"Köniz","shortName":"Köniz"},"district":{"key":"246","name":"Verwaltungskreis Bern-Mittelland"},"canton":{"key":"2","code":"BE","name":"Bern / Berne"},"status":"Real"},{"key":"10057279","name":"Dorfstrasse","postalCode":"8181","locality":"Höri","commune":{"key":"60","name":"Höri","shortName":"Höri"},"district":{"key":"103","name":"Bezirk Bülach"},"canton":{"key":"1","code":"ZH","name":"Zürich"},"status":"Real"},{"key":"10110932","name":"Dörndlerweg","postalCode":"8181","locality":"Höri","commune":{"key":"60","name":"Höri","shortName":"Höri"},"district":{"key":"103","name":"Bezirk Bülach"},"canton":{"key":"1","code":"ZH","name":"Zürich"},"status":"Real"},{"key":"10090348","name":"Eigen","postalCode":"3367","locality":"Thörigen","commune":{"key":"989","name":"Thörigen","shortName":"Thörigen"},"district":{"key":"244","name":"Verwaltungskreis Oberaargau"},"canton":{"key":"2","code":"BE","name":"Bern / Berne"},"status":"Real"},{"key":"10066397","name":"Eigenstrasse","postalCode":"3367","locality":"Thörigen","commune":{"key":"989","name":"Thörigen","shortName":"Thörigen"},"district":{"key":"244","name":"Verwaltungskreis Oberaargau"},"canton":{"key":"2","code":"BE","name":"Bern / Berne"},"status":"Real"},{"key":"10152813","name":"Familiengartenweg","postalCode":"8181","locality":"Höri","commune":{"key":"60","name":"Höri","shortName":"Höri"},"district":{"key":"103","name":"Bezirk Bülach"},"canton":{"key":"1","code":"ZH","name":"Zürich"},"status":"Real"},{"key":"10053904","name":"Feldwiesstrasse","postalCode":"8181","locality":"Höri","commune":{"key":"60","name":"Höri","shortName":"Höri"},"district":{"key":"103","name":"Bezirk Bülach"},"canton":{"key":"1","code":"ZH","name":"Zürich"},"status":"Real"},{"key":"10050820","name":"Freiburgstrasse","postalCode":"3174","locality":"Thörishaus","commune":{"key":"355","name":"Köniz","shortName":"Köniz"},"district":{"key":"246","name":"Verwaltungskreis Bern-Mittelland"},"canton":{"key":"2","code":"BE","name":"Bern / Berne"},"status":"Real"},{"key":"10003220","name":"Freiburgstrasse","postalCode":"3174","locality":"Thörishaus","commune":{"key":"355","name":"Köniz","shortName":"Köniz"},"district":{"key":"246","name":"Verwaltungskreis Bern-Mittelland"},"canton":{"key":"2","code":"BE","name":"Bern / Berne"},"status":"Real"},{"key":"10001092","name":"Fuhrstrasse","postalCode":"8181","locality":"Höri","commune":{"key":"60","name":"Höri","shortName":"Höri"},"district":{"key":"103","name":"Bezirk Bülach"},"canton":{"key":"1","code":"ZH","name":"Zürich"},"status":"Real"},{"key":"10158849","name":"Gärtnersmattweg","postalCode":"3174","locality":"Thörishaus","commune":{"key":"355","name":"Köniz","shortName":"Köniz"},"district":{"key":"246","name":"Verwaltungskreis Bern-Mittelland"},"canton":{"key":"2","code":"BE","name":"Bern / Berne"},"status":"Real"},{"key":"10013551","name":"Gässli","postalCode":"3367","locality":"Thörigen","commune":{"key":"989","name":"Thörigen","shortName":"Thörigen"},"district":{"key":"244","name":"Verwaltungskreis Oberaargau"},"canton":{"key":"2","code":"BE","name":"Bern / Berne"},"status":"Real"},{"key":"10182603","name":"Gäustrasse","postalCode":"3174","locality":"Thörishaus","commune":{"key":"355","name":"Köniz","shortName":"Köniz"},"district":{"key":"246","name":"Verwaltungskreis Bern-Mittelland"},"canton":{"key":"2","code":"BE","name":"Bern / Berne"},"status":"Real"},{"key":"10080742","name":"Gentertstrasse","postalCode":"8181","locality":"Höri","commune":{"key":"60","name":"Höri","shortName":"Höri"},"district":{"key":"103","name":"Bezirk Bülach"},"canton":{"key":"1","code":"ZH","name":"Zürich"},"status":"Real"},{"key":"10099761","name":"Glärnischweg","postalCode":"8181","locality":"Höri","commune":{"key":"60","name":"Höri","shortName":"Höri"},"district":{"key":"103","name":"Bezirk Bülach"},"canton":{"key":"1","code":"ZH","name":"Zürich"},"status":"Real"},{"key":"10152814","name":"Glattalstrasse","postalCode":"8181","locality":"Höri","commune":{"key":"60","name":"Höri","shortName":"Höri"},"district":{"key":"103","name":"Bezirk Bülach"},"canton":{"key":"1","code":"ZH","name":"Zürich"},"status":"Real"},{"key":"10001093","name":"Grabackerstrasse","postalCode":"8181","locality":"Höri","commune":{"key":"60","name":"Höri","shortName":"Höri"},"district":{"key":"103","name":"Bezirk Bülach"},"canton":{"key":"1","code":"ZH","name":"Zürich"},"status":"Real"},{"key":"10060676","name":"Grabmattweg","postalCode":"3174","locality":"Thörishaus","commune":{"key":"355","name":"Köniz","shortName":"Köniz"},"district":{"key":"246","name":"Verwaltungskreis Bern-Mittelland"},"canton":{"key":"2","code":"BE","name":"Bern / Berne"},"status":"Real"},{"key":"10133361","name":"Grafschaftsweg","postalCode":"8181","locality":"Höri","commune":{"key":"60","name":"Höri","shortName":"Höri"},"district":{"key":"103","name":"Bezirk Bülach"},"canton":{"key":"1","code":"ZH","name":"Zürich"},"status":"Real"},{"key":"10088981","name":"Grossweidweg","postalCode":"3174","locality":"Thörishaus","commune":{"key":"355","name":"Köniz","shortName":"Köniz"},"district":{"key":"246","name":"Verwaltungskreis Bern-Mittelland"},"canton":{"key":"2","code":"BE","name":"Bern / Berne"},"status":"Real"},{"key":"10134759","name":"Grosswisengrabenweg","postalCode":"8181","locality":"Höri","commune":{"key":"60","name":"Höri","shortName":"Höri"},"district":{"key":"103","name":"Bezirk Bülach"},"canton":{"key":"1","code":"ZH","name":"Zürich"},"status":"Real"},{"key":"10134760","name":"Grüebliweg","postalCode":"8181","locality":"Höri","commune":{"key":"60","name":"Höri","shortName":"Höri"},"district":{"key":"103","name":"Bezirk Bülach"},"canton":{"key":"1","code":"ZH","name":"Zürich"},"status":"Real"},{"key":"10134761","name":"Grundweg","postalCode":"8181","locality":"Höri","commune":{"key":"60","name":"Höri","shortName":"Höri"},"district":{"key":"103","name":"Bezirk Bülach"},"canton":{"key":"1","code":"ZH","name":"Zürich"},"status":"Real"},{"key":"10084953","name":"Gummenstrasse","postalCode":"3174","locality":"Thörishaus","commune":{"key":"355","name":"Köniz","shortName":"Köniz"},"district":{"key":"246","name":"Verwaltungskreis Bern-Mittelland"},"canton":{"key":"2","code":"BE","name":"Bern / Berne"},"status":"Real"},{"key":"10126318","name":"Haldenstrasse","postalCode":"8181","locality":"Höri","commune":{"key":"60","name":"Höri","shortName":"Höri"},"district":{"key":"103","name":"Bezirk Bülach"},"canton":{"key":"1","code":"ZH","name":"Zürich"},"status":"Real"},{"key":"10160217","name":"Halenstutz","postalCode":"3174","locality":"Thörishaus","commune":{"key":"355","name":"Köniz","shortName":"Köniz"},"district":{"key":"246","name":"Verwaltungskreis Bern-Mittelland"},"canton":{"key":"2","code":"BE","name":"Bern / Berne"},"status":"Real"},{"key":"10152815","name":"Hanffeldweg","postalCode":"8181","locality":"Höri","commune":{"key":"60","name":"Höri","shortName":"Höri"},"district":{"key":"103","name":"Bezirk Bülach"},"canton":{"key":"1","code":"ZH","name":"Zürich"},"status":"Real"},{"key":"10057280","name":"Harbirbenweg","postalCode":"8181","locality":"Höri","commune":{"key":"60","name":"Höri","shortName":"Höri"},"district":{"key":"103","name":"Bezirk Bülach"},"canton":{"key":"1","code":"ZH","name":"Zürich"},"status":"Real"},{"key":"10003232","name":"Hardweg","postalCode":"3174","locality":"Thörishaus","commune":{"key":"355","name":"Köniz","shortName":"Köniz"},"district":{"key":"246","name":"Verwaltungskreis Bern-Mittelland"},"canton":{"key":"2","code":"BE","name":"Bern / Berne"},"status":"Real"},{"key":"10090349","name":"Hintermoosweg","postalCode":"3367","locality":"Thörigen","commune":{"key":"989","name":"Thörigen","shortName":"Thörigen"},"district":{"key":"244","name":"Verwaltungskreis Oberaargau"},"canton":{"key":"2","code":"BE","name":"Bern / Berne"},"status":"Real"},{"key":"10053905","name":"Hochfelderstrasse","postalCode":"8181","locality":"Höri","commune":{"key":"60","name":"Höri","shortName":"Höri"},"district":{"key":"103","name":"Bezirk Bülach"},"canton":{"key":"1","code":"ZH","name":"Zürich"},"status":"Real"},{"key":"10001094","name":"Hofstrasse","postalCode":"8181","locality":"Höri","commune":{"key":"60","name":"Höri","shortName":"Höri"},"district":{"key":"103","name":"Bezirk Bülach"},"canton":{"key":"1","code":"ZH","name":"Zürich"},"status":"Real"},{"key":"10066398","name":"Hombergstrasse","postalCode":"3367","locality":"Thörigen","commune":{"key":"989","name":"Thörigen","shortName":"Thörigen"},"district":{"key":"244","name":"Verwaltungskreis Oberaargau"},"canton":{"key":"2","code":"BE","name":"Bern / Berne"},"status":"Real"},{"key":"10001095","name":"Höriberg","postalCode":"8181","locality":"Höri","commune":{"key":"60","name":"Höri","shortName":"Höri"},"district":{"key":"103","name":"Bezirk Bülach"},"canton":{"key":"1","code":"ZH","name":"Zürich"},"status":"Real"},{"key":"10152816","name":"Höribergstrasse","postalCode":"8181","locality":"Höri","commune":{"key":"60","name":"Höri","shortName":"Höri"},"district":{"key":"103","name":"Bezirk Bülach"},"canton":{"key":"1","code":"ZH","name":"Zürich"},"status":"Real"},{"key":"10245099","name":"Höribergweg","postalCode":"8181","locality":"Höri","commune":{"key":"60","name":"Höri","shortName":"Höri"},"district":{"key":"103","name":"Bezirk Bülach"},"canton":{"key":"1","code":"ZH","name":"Zürich"},"status":"Real"},{"key":"10152817","name":"Hörnliweg","postalCode":"8181","locality":"Höri","commune":{"key":"60","name":"Höri","shortName":"Höri"},"district":{"key":"103","name":"Bezirk Bülach"},"canton":{"key":"1","code":"ZH","name":"Zürich"},"status":"Real"},{"key":"10130091","name":"Im Hinderacher","postalCode":"8181","locality":"Höri","commune":{"key":"60","name":"Höri","shortName":"Höri"},"district":{"key":"103","name":"Bezirk Bülach"},"canton":{"key":"1","code":"ZH","name":"Zürich"},"status":"Real"},{"key":"10128126","name":"Im Schoren","postalCode":"8181","locality":"Höri","commune":{"key":"60","name":"Höri","shortName":"Höri"},"district":{"key":"103","name":"Bezirk Bülach"},"canton":{"key":"1","code":"ZH","name":"Zürich"},"status":"Real"},{"key":"10054297","name":"Im Seeber","postalCode":"8181","locality":"Höri","commune":{"key":"60","name":"Höri","shortName":"Höri"},"district":{"key":"103","name":"Bezirk Bülach"},"canton":{"key":"1","code":"ZH","name":"Zürich"},"status":"Real"},{"key":"10001096","name":"Junkergasse","postalCode":"8181","locality":"Höri","commune":{"key":"60","name":"Höri","shortName":"Höri"},"district":{"key":"103","name":"Bezirk Bülach"},"canton":{"key":"1","code":"ZH","name":"Zürich"},"status":"Real"},{"key":"10013552","name":"Jurastrasse","postalCode":"3367","locality":"Thörigen","commune":{"key":"989","name":"Thörigen","shortName":"Thörigen"},"district":{"key":"244","name":"Verwaltungskreis Oberaargau"},"canton":{"key":"2","code":"BE","name":"Bern / Berne"},"status":"Real"},{"key":"10221326","name":"Kirchweg","postalCode":"3367","locality":"Thörigen","commune":{"key":"989","name":"Thörigen","shortName":"Thörigen"},"district":{"key":"244","name":"Verwaltungskreis Oberaargau"},"canton":{"key":"2","code":"BE","name":"Bern / Berne"},"status":"Real"},{"key":"10056518","name":"Köhlerstrasse","postalCode":"3174","locality":"Thörishaus","commune":{"key":"355","name":"Köniz","shortName":"Köniz"},"district":{"key":"246","name":"Verwaltungskreis Bern-Mittelland"},"canton":{"key":"2","code":"BE","name":"Bern / Berne"},"status":"Real"},{"key":"10133362","name":"Lamaweg","postalCode":"8181","locality":"Höri","commune":{"key":"60","name":"Höri","shortName":"Höri"},"district":{"key":"103","name":"Bezirk Bülach"},"canton":{"key":"1","code":"ZH","name":"Zürich"},"status":"Real"},{"key":"10066399","name":"Längacherstrasse","postalCode":"3367","locality":"Thörigen","commune":{"key":"989","name":"Thörigen","shortName":"Thörigen"},"district":{"key":"244","name":"Verwaltungskreis Oberaargau"},"canton":{"key":"2","code":"BE","name":"Bern / Berne"},"status":"Real"},{"key":"10133363","name":"Langenrainweg","postalCode":"8181","locality":"Höri","commune":{"key":"60","name":"Höri","shortName":"Höri"},"district":{"key":"103","name":"Bezirk Bülach"},"canton":{"key":"1","code":"ZH","name":"Zürich"},"status":"Real"},{"key":"10090350","name":"Langenthalstrasse","postalCode":"3367","locality":"Thörigen","commune":{"key":"989","name":"Thörigen","shortName":"Thörigen"},"district":{"key":"244","name":"Verwaltungskreis Oberaargau"},"canton":{"key":"2","code":"BE","name":"Bern / Berne"},"status":"Real"},{"key":"10133364","name":"Lattacherweg","postalCode":"8181","locality":"Höri","commune":{"key":"60","name":"Höri","shortName":"Höri"},"district":{"key":"103","name":"Bezirk Bülach"},"canton":{"key":"1","code":"ZH","name":"Zürich"},"status":"Real"},{"key":"10152818","name":"Leeacherweg","postalCode":"8181","locality":"Höri","commune":{"key":"60","name":"Höri","shortName":"Höri"},"district":{"key":"103","name":"Bezirk Bülach"},"canton":{"key":"1","code":"ZH","name":"Zürich"},"status":"Real"},{"key":"10057281","name":"Leehagstrasse","postalCode":"8181","locality":"Höri","commune":{"key":"60","name":"Höri","shortName":"Höri"},"district":{"key":"103","name":"Bezirk Bülach"},"canton":{"key":"1","code":"ZH","name":"Zürich"},"status":"Real"},{"key":"10152819","name":"Leehagweg","postalCode":"8181","locality":"Höri","commune":{"key":"60","name":"Höri","shortName":"Höri"},"district":{"key":"103","name":"Bezirk Bülach"},"canton":{"key":"1","code":"ZH","name":"Zürich"},"status":"Real"},{"key":"10047543","name":"Leimernstrasse","postalCode":"3174","locality":"Thörishaus","commune":{"key":"355","name":"Köniz","shortName":"Köniz"},"district":{"key":"246","name":"Verwaltungskreis Bern-Mittelland"},"canton":{"key":"2","code":"BE","name":"Bern / Berne"},"status":"Real"},{"key":"10182927","name":"Liebewilstrasse","postalCode":"3174","locality":"Thörishaus","commune":{"key":"355","name":"Köniz","shortName":"Köniz"},"district":{"key":"246","name":"Verwaltungskreis Bern-Mittelland"},"canton":{"key":"2","code":"BE","name":"Bern / Berne"},"status":"Real"},{"key":"10013553","name":"Lindenstrasse","postalCode":"3367","locality":"Thörigen","commune":{"key":"989","name":"Thörigen","shortName":"Thörigen"},"district":{"key":"244","name":"Verwaltungskreis Oberaargau"},"canton":{"key":"2","code":"BE","name":"Bern / Berne"},"status":"Real"},{"key":"10133365","name":"Looweg","postalCode":"8181","locality":"Höri","commune":{"key":"60","name":"Höri","shortName":"Höri"},"district":{"key":"103","name":"Bezirk Bülach"},"canton":{"key":"1","code":"ZH","name":"Zürich"},"status":"Real"},{"key":"10152820","name":"Loowisengrabenweg","postalCode":"8181","locality":"Höri","commune":{"key":"60","name":"Höri","shortName":"Höri"},"district":{"key":"103","name":"Bezirk Bülach"},"canton":{"key":"1","code":"ZH","name":"Zürich"},"status":"Real"},{"key":"10013554","name":"Mättenbergstrasse","postalCode":"3367","locality":"Thörigen","commune":{"key":"989","name":"Thörigen","shortName":"Thörigen"},"district":{"key":"244","name":"Verwaltungskreis Oberaargau"},"canton":{"key":"2","code":"BE","name":"Bern / Berne"},"status":"Real"},{"key":"10133366","name":"Mettlenweg","postalCode":"8181","locality":"Höri","commune":{"key":"60","name":"Höri","shortName":"Höri"},"district":{"key":"103","name":"Bezirk Bülach"},"canton":{"key":"1","code":"ZH","name":"Zürich"},"status":"Real"},{"key":"10133367","name":"Mülisteinweg","postalCode":"8181","locality":"Höri","commune":{"key":"60","name":"Höri","shortName":"Höri"},"district":{"key":"103","name":"Bezirk Bülach"},"canton":{"key":"1","code":"ZH","name":"Zürich"},"status":"Real"},{"key":"10133368","name":"Neeriweg","postalCode":"8181","locality":"Höri","commune":{"key":"60","name":"Höri","shortName":"Höri"},"district":{"key":"103","name":"Bezirk Bülach"},"canton":{"key":"1","code":"ZH","name":"Zürich"},"status":"Real"},{"key":"10109835","name":"Neuhusweg","postalCode":"3174","locality":"Thörishaus","commune":{"key":"355","name":"Köniz","shortName":"Köniz"},"district":{"key":"246","name":"Verwaltungskreis Bern-Mittelland"},"canton":{"key":"2","code":"BE","name":"Bern / Berne"},"status":"Real"},{"key":"10053906","name":"Neukirchhofweg","postalCode":"8181","locality":"Höri","commune":{"key":"60","name":"Höri","shortName":"Höri"},"district":{"key":"103","name":"Bezirk Bülach"},"canton":{"key":"1","code":"ZH","name":"Zürich"},"status":"Real"},{"key":"10080743","name":"Niederglatterstrasse","postalCode":"8181","locality":"Höri","commune":{"key":"60","name":"Höri","shortName":"Höri"},"district":{"key":"103","name":"Bezirk Bülach"},"canton":{"key":"1","code":"ZH","name":"Zürich"},"status":"Real"},{"key":"10115533","name":"Obermühleweg","postalCode":"8181","locality":"Höri","commune":{"key":"60","name":"Höri","shortName":"Höri"},"district":{"key":"103","name":"Bezirk Bülach"},"canton":{"key":"1","code":"ZH","name":"Zürich"},"status":"Real"},{"key":"10056523","name":"Oberriedstrasse","postalCode":"3174","locality":"Thörishaus","commune":{"key":"355","name":"Köniz","shortName":"Köniz"},"district":{"key":"246","name":"Verwaltungskreis Bern-Mittelland"},"canton":{"key":"2","code":"BE","name":"Bern / Berne"},"status":"Real"},{"key":"10133369","name":"Obstgartenweg","postalCode":"8181","locality":"Höri","commune":{"key":"60","name":"Höri","shortName":"Höri"},"district":{"key":"103","name":"Bezirk Bülach"},"canton":{"key":"1","code":"ZH","name":"Zürich"},"status":"Real"},{"key":"10013555","name":"Postweg","postalCode":"3367","locality":"Thörigen","commune":{"key":"989","name":"Thörigen","shortName":"Thörigen"},"district":{"key":"244","name":"Verwaltungskreis Oberaargau"},"canton":{"key":"2","code":"BE","name":"Bern / Berne"},"status":"Real"},{"key":"10171715","name":"Püntenweg","postalCode":"8181","locality":"Höri","commune":{"key":"60","name":"Höri","shortName":"Höri"},"district":{"key":"103","name":"Bezirk Bülach"},"canton":{"key":"1","code":"ZH","name":"Zürich"},"status":"Real"},{"key":"10221329","name":"Querstrasse","postalCode":"3367","locality":"Thörigen","commune":{"key":"989","name":"Thörigen","shortName":"Thörigen"},"district":{"key":"244","name":"Verwaltungskreis Oberaargau"},"canton":{"key":"2","code":"BE","name":"Bern / Berne"},"status":"Real"},{"key":"10001097","name":"Rainrebenstrasse","postalCode":"8181","locality":"Höri","commune":{"key":"60","name":"Höri","shortName":"Höri"},"district":{"key":"103","name":"Bezirk Bülach"},"canton":{"key":"1","code":"ZH","name":"Zürich"},"status":"Real"},{"key":"10119940","name":"Rainweg","postalCode":"8181","locality":"Höri","commune":{"key":"60","name":"Höri","shortName":"Höri"},"district":{"key":"103","name":"Bezirk Bülach"},"canton":{"key":"1","code":"ZH","name":"Zürich"},"status":"Real"},{"key":"10053907","name":"Rebweg","postalCode":"8181","locality":"Höri","commune":{"key":"60","name":"Höri","shortName":"Höri"},"district":{"key":"103","name":"Bezirk Bülach"},"canton":{"key":"1","code":"ZH","name":"Zürich"},"status":"Real"},{"key":"10047544","name":"Reitiweg","postalCode":"3174","locality":"Thörishaus","commune":{"key":"355","name":"Köniz","shortName":"Köniz"},"district":{"key":"246","name":"Verwaltungskreis Bern-Mittelland"},"canton":{"key":"2","code":"BE","name":"Bern / Berne"},"status":"Real"},{"key":"10173830","name":"Rotwisweg","postalCode":"8181","locality":"Höri","commune":{"key":"60","name":"Höri","shortName":"Höri"},"district":{"key":"103","name":"Bezirk Bülach"},"canton":{"key":"1","code":"ZH","name":"Zürich"},"status":"Real"},{"key":"10090351","name":"Rütistrasse","postalCode":"3367","locality":"Thörigen","commune":{"key":"989","name":"Thörigen","shortName":"Thörigen"},"district":{"key":"244","name":"Verwaltungskreis Oberaargau"},"canton":{"key":"2","code":"BE","name":"Bern / Berne"},"status":"Real"},{"key":"10152821","name":"Saliweg","postalCode":"8181","locality":"Höri","commune":{"key":"60","name":"Höri","shortName":"Höri"},"district":{"key":"103","name":"Bezirk Bülach"},"canton":{"key":"1","code":"ZH","name":"Zürich"},"status":"Real"},{"key":"10110933","name":"Sandackerstrasse","postalCode":"8181","locality":"Höri","commune":{"key":"60","name":"Höri","shortName":"Höri"},"district":{"key":"103","name":"Bezirk Bülach"},"canton":{"key":"1","code":"ZH","name":"Zürich"},"status":"Real"},{"key":"10119941","name":"Säufurtweg","postalCode":"8181","locality":"Höri","commune":{"key":"60","name":"Höri","shortName":"Höri"},"district":{"key":"103","name":"Bezirk Bülach"},"canton":{"key":"1","code":"ZH","name":"Zürich"},"status":"Real"},{"key":"10133370","name":"Saumweiherweg","postalCode":"8181","locality":"Höri","commune":{"key":"60","name":"Höri","shortName":"Höri"},"district":{"key":"103","name":"Bezirk Bülach"},"canton":{"key":"1","code":"ZH","name":"Zürich"},"status":"Real"},{"key":"10152822","name":"Schorensteg","postalCode":"8181","locality":"Höri","commune":{"key":"60","name":"Höri","shortName":"Höri"},"district":{"key":"103","name":"Bezirk Bülach"},"canton":{"key":"1","code":"ZH","name":"Zürich"},"status":"Real"},{"key":"10053908","name":"Schorenstrasse","postalCode":"8181","locality":"Höri","commune":{"key":"60","name":"Höri","shortName":"Höri"},"district":{"key":"103","name":"Bezirk Bülach"},"canton":{"key":"1","code":"ZH","name":"Zürich"},"status":"Real"},{"key":"10119942","name":"Schorenweg","postalCode":"8181","locality":"Höri","commune":{"key":"60","name":"Höri","shortName":"Höri"},"district":{"key":"103","name":"Bezirk Bülach"},"canton":{"key":"1","code":"ZH","name":"Zürich"},"status":"Real"},{"key":"10188579","name":"Schorrgasse","postalCode":"3174","locality":"Thörishaus","commune":{"key":"355","name":"Köniz","shortName":"Köniz"},"district":{"key":"246","name":"Verwaltungskreis Bern-Mittelland"},"canton":{"key":"2","code":"BE","name":"Bern / Berne"},"status":"Real"},{"key":"10057282","name":"Schulhausstrasse","postalCode":"8181","locality":"Höri","commune":{"key":"60","name":"Höri","shortName":"Höri"},"district":{"key":"103","name":"Bezirk Bülach"},"canton":{"key":"1","code":"ZH","name":"Zürich"},"status":"Real"},{"key":"10152823","name":"Seeberweg","postalCode":"8181","locality":"Höri","commune":{"key":"60","name":"Höri","shortName":"Höri"},"district":{"key":"103","name":"Bezirk Bülach"},"canton":{"key":"1","code":"ZH","name":"Zürich"},"status":"Real"},{"key":"10047545","name":"Senseblickstrasse","postalCode":"3174","locality":"Thörishaus","commune":{"key":"355","name":"Köniz","shortName":"Köniz"},"district":{"key":"246","name":"Verwaltungskreis Bern-Mittelland"},"canton":{"key":"2","code":"BE","name":"Bern / Berne"},"status":"Real"},{"key":"10079348","name":"Sensemattstrasse","postalCode":"3174","locality":"Thörishaus","commune":{"key":"355","name":"Köniz","shortName":"Köniz"},"district":{"key":"246","name":"Verwaltungskreis Bern-Mittelland"},"canton":{"key":"2","code":"BE","name":"Bern / Berne"},"status":"Real"},{"key":"10059262","name":"Sensemattstrasse","postalCode":"3174","locality":"Thörishaus","commune":{"key":"355","name":"Köniz","shortName":"Köniz"},"district":{"key":"246","name":"Verwaltungskreis Bern-Mittelland"},"canton":{"key":"2","code":"BE","name":"Bern / Berne"},"status":"Real"},{"key":"10117345","name":"Sonnenbühlstrasse","postalCode":"8181","locality":"Höri","commune":{"key":"60","name":"Höri","shortName":"Höri"},"district":{"key":"103","name":"Bezirk Bülach"},"canton":{"key":"1","code":"ZH","name":"Zürich"},"status":"Real"},{"key":"10056527","name":"Sonnhaldeweg","postalCode":"3174","locality":"Thörishaus","commune":{"key":"355","name":"Köniz","shortName":"Köniz"},"district":{"key":"246","name":"Verwaltungskreis Bern-Mittelland"},"canton":{"key":"2","code":"BE","name":"Bern / Berne"},"status":"Real"},{"key":"10099762","name":"Spitzackerstrasse","postalCode":"8181","locality":"Höri","commune":{"key":"60","name":"Höri","shortName":"Höri"},"district":{"key":"103","name":"Bezirk Bülach"},"canton":{"key":"1","code":"ZH","name":"Zürich"},"status":"Real"},{"key":"10003233","name":"Stäffisweg","postalCode":"3174","locality":"Thörishaus","commune":{"key":"355","name":"Köniz","shortName":"Köniz"},"district":{"key":"246","name":"Verwaltungskreis Bern-Mittelland"},"canton":{"key":"2","code":"BE","name":"Bern / Berne"},"status":"Real"},{"key":"10119943","name":"Steinbruchweg","postalCode":"8181","locality":"Höri","commune":{"key":"60","name":"Höri","shortName":"Höri"},"district":{"key":"103","name":"Bezirk Bülach"},"canton":{"key":"1","code":"ZH","name":"Zürich"},"status":"Real"},{"key":"10102721","name":"Strandheimstrasse","postalCode":"3174","locality":"Thörishaus","commune":{"key":"355","name":"Köniz","shortName":"Köniz"},"district":{"key":"246","name":"Verwaltungskreis Bern-Mittelland"},"canton":{"key":"2","code":"BE","name":"Bern / Berne"},"status":"Real"},{"key":"10009986","name":"Stuckistrasse","postalCode":"3174","locality":"Thörishaus","commune":{"key":"355","name":"Köniz","shortName":"Köniz"},"district":{"key":"246","name":"Verwaltungskreis Bern-Mittelland"},"canton":{"key":"2","code":"BE","name":"Bern / Berne"},"status":"Real"},{"key":"10221333","name":"Stutzrüti","postalCode":"3367","locality":"Thörigen","commune":{"key":"989","name":"Thörigen","shortName":"Thörigen"},"district":{"key":"244","name":"Verwaltungskreis Oberaargau"},"canton":{"key":"2","code":"BE","name":"Bern / Berne"},"status":"Real"},{"key":"10119944","name":"Sunnenbergweg","postalCode":"8181","locality":"Höri","commune":{"key":"60","name":"Höri","shortName":"Höri"},"district":{"key":"103","name":"Bezirk Bülach"},"canton":{"key":"1","code":"ZH","name":"Zürich"},"status":"Real"},{"key":"10009987","name":"Talstrasse","postalCode":"3174","locality":"Thörishaus","commune":{"key":"355","name":"Köniz","shortName":"Köniz"},"district":{"key":"246","name":"Verwaltungskreis Bern-Mittelland"},"canton":{"key":"2","code":"BE","name":"Bern / Berne"},"status":"Real"},{"key":"10207101","name":"Teufmattweg","postalCode":"3367","locality":"Thörigen","commune":{"key":"989","name":"Thörigen","shortName":"Thörigen"},"district":{"key":"244","name":"Verwaltungskreis Oberaargau"},"canton":{"key":"2","code":"BE","name":"Bern / Berne"},"status":"Real"},{"key":"10001098","name":"Tödiweg","postalCode":"8181","locality":"Höri","commune":{"key":"60","name":"Höri","shortName":"Höri"},"district":{"key":"103","name":"Bezirk Bülach"},"canton":{"key":"1","code":"ZH","name":"Zürich"},"status":"Real"},{"key":"10098601","name":"Troslenweg","postalCode":"3174","locality":"Thörishaus","commune":{"key":"355","name":"Köniz","shortName":"Köniz"},"district":{"key":"246","name":"Verwaltungskreis Bern-Mittelland"},"canton":{"key":"2","code":"BE","name":"Bern / Berne"},"status":"Real"},{"key":"10001099","name":"Wehntalerstrasse","postalCode":"8181","locality":"Höri","commune":{"key":"60","name":"Höri","shortName":"Höri"},"district":{"key":"103","name":"Bezirk Bülach"},"canton":{"key":"1","code":"ZH","name":"Zürich"},"status":"Real"},{"key":"10119945","name":"Weiherweg","postalCode":"8181","locality":"Höri","commune":{"key":"60","name":"Höri","shortName":"Höri"},"district":{"key":"103","name":"Bezirk Bülach"},"canton":{"key":"1","code":"ZH","name":"Zürich"},"status":"Real"},{"key":"10180186","name":"Weingartenstrasse","postalCode":"3367","locality":"Thörigen","commune":{"key":"989","name":"Thörigen","shortName":"Thörigen"},"district":{"key":"244","name":"Verwaltungskreis Oberaargau"},"canton":{"key":"2","code":"BE","name":"Bern / Berne"},"status":"Real"},{"key":"10120432","name":"Weingartenstrasse","postalCode":"8181","locality":"Höri","commune":{"key":"60","name":"Höri","shortName":"Höri"},"district":{"key":"103","name":"Bezirk Bülach"},"canton":{"key":"1","code":"ZH","name":"Zürich"},"status":"Real"},{"key":"10152824","name":"Wiegenweg","postalCode":"8181","locality":"Höri","commune":{"key":"60","name":"Höri","shortName":"Höri"},"district":{"key":"103","name":"Bezirk Bülach"},"canton":{"key":"1","code":"ZH","name":"Zürich"},"status":"Real"},{"key":"10053909","name":"Winzerweg","postalCode":"8181","locality":"Höri","commune":{"key":"60","name":"Höri","shortName":"Höri"},"district":{"key":"103","name":"Bezirk Bülach"},"canton":{"key":"1","code":"ZH","name":"Zürich"},"status":"Real"},{"key":"10133371","name":"Wisligrabenweg","postalCode":"8181","locality":"Höri","commune":{"key":"60","name":"Höri","shortName":"Höri"},"district":{"key":"103","name":"Bezirk Bülach"},"canton":{"key":"1","code":"ZH","name":"Zürich"},"status":"Real"},{"key":"10050821","name":"Wittenmattstrasse","postalCode":"3174","locality":"Thörishaus","commune":{"key":"355","name":"Köniz","shortName":"Köniz"},"district":{"key":"246","name":"Verwaltungskreis Bern-Mittelland"},"canton":{"key":"2","code":"BE","name":"Bern / Berne"},"status":"Real"},{"key":"10003234","name":"Wittenmattstrasse","postalCode":"3174","locality":"Thörishaus","commune":{"key":"355","name":"Köniz","shortName":"Köniz"},"district":{"key":"246","name":"Verwaltungskreis Bern-Mittelland"},"canton":{"key":"2","code":"BE","name":"Bern / Berne"},"status":"Real"},{"key":"10080744","name":"Zelglistrasse","postalCode":"8181","locality":"Höri","commune":{"key":"60","name":"Höri","shortName":"Höri"},"district":{"key":"103","name":"Bezirk Bülach"},"canton":{"key":"1","code":"ZH","name":"Zürich"},"status":"Real"},{"key":"10057283","name":"Zweierstrasse","postalCode":"8181","locality":"Höri","commune":{"key":"60","name":"Höri","shortName":"Höri"},"district":{"key":"103","name":"Bezirk Bülach"},"canton":{"key":"1","code":"ZH","name":"Zürich"},"status":"Real"},{"key":"10152825","name":"Zweierweg","postalCode":"8181","locality":"Höri","commune":{"key":"60","name":"Höri","shortName":"Höri"},"district":{"key":"103","name":"Bezirk Bülach"},"canton":{"key":"1","code":"ZH","name":"Zürich"},"status":"Real"},{"key":"10133357","name":"Äugstlerweg","postalCode":"8181","locality":"Höri","commune":{"key":"60","name":"Höri","shortName":"Höri"},"district":{"key":"103","name":"Bezirk Bülach"},"canton":{"key":"1","code":"ZH","name":"Zürich"},"status":"Real"},]