[{"name":"Ahornweg","postalCode":"68723","locality":"Schwetzingen","municipality":{"key":"08226084","name":"Schwetzingen, Stadt","type":"Große_Kreisstadt"},"district":{"key":"08226","name":"Rhein-Neckar-Kreis","type":"Landkreis"},"federalState":{"key":"08","name":"Baden-Württemberg"}},{"name":"Akazienweg","postalCode":"68723","locality":"Schwetzingen","municipality":{"key":"08226084","name":"Schwetzingen, Stadt","type":"Große_Kreisstadt"},"district":{"key":"08226","name":"Rhein-Neckar-Kreis","type":"Landkreis"},"federalState":{"key":"08","name":"Baden-Württemberg"}},{"name":"Albert-Schweitzer-Str.","postalCode":"68723","locality":"Schwetzingen","municipality":{"key":"08226084","name":"Schwetzingen, Stadt","type":"Große_Kreisstadt"},"district":{"key":"08226","name":"Rhein-Neckar-Kreis","type":"Landkreis"},"federalState":{"key":"08","name":"Baden-Württemberg"}},{"name":"Albrecht-Dürer-Str.","postalCode":"68723","locality":"Schwetzingen","municipality":{"key":"08226084","name":"Schwetzingen, Stadt","type":"Große_Kreisstadt"},"district":{"key":"08226","name":"Rhein-Neckar-Kreis","type":"Landkreis"},"federalState":{"key":"08","name":"Baden-Württemberg"}},{"name":"Allmendsand","postalCode":"68723","locality":"Schwetzingen","municipality":{"key":"08226084","name":"Schwetzingen, Stadt","type":"Große_Kreisstadt"},"district":{"key":"08226","name":"Rhein-Neckar-Kreis","type":"Landkreis"},"federalState":{"key":"08","name":"Baden-Württemberg"}},{"name":"Alter Schälzigweg","postalCode":"68723","locality":"Schwetzingen","municipality":{"key":"08226084","name":"Schwetzingen, Stadt","type":"Große_Kreisstadt"},"district":{"key":"08226","name":"Rhein-Neckar-Kreis","type":"Landkreis"},"federalState":{"key":"08","name":"Baden-Württemberg"}},{"name":"Altvadderlessteg","postalCode":"68723","locality":"Schwetzingen","municipality":{"key":"08226084","name":"Schwetzingen, Stadt","type":"Große_Kreisstadt"},"district":{"key":"08226","name":"Rhein-Neckar-Kreis","type":"Landkreis"},"federalState":{"key":"08","name":"Baden-Württemberg"}},{"name":"Altvadderlesweg","postalCode":"68723","locality":"Schwetzingen","municipality":{"key":"08226084","name":"Schwetzingen, Stadt","type":"Große_Kreisstadt"},"district":{"key":"08226","name":"Rhein-Neckar-Kreis","type":"Landkreis"},"federalState":{"key":"08","name":"Baden-Württemberg"}},{"name":"Am langen Sand","postalCode":"68723","locality":"Schwetzingen","municipality":{"key":"08226084","name":"Schwetzingen, Stadt","type":"Große_Kreisstadt"},"district":{"key":"08226","name":"Rhein-Neckar-Kreis","type":"Landkreis"},"federalState":{"key":"08","name":"Baden-Württemberg"}},{"name":"Anselm-Feuerbach-Str.","postalCode":"68723","locality":"Schwetzingen","municipality":{"key":"08226084","name":"Schwetzingen, Stadt","type":"Große_Kreisstadt"},"district":{"key":"08226","name":"Rhein-Neckar-Kreis","type":"Landkreis"},"federalState":{"key":"08","name":"Baden-Württemberg"}},{"name":"Antonisstr.","postalCode":"68723","locality":"Schwetzingen","municipality":{"key":"08226084","name":"Schwetzingen, Stadt","type":"Große_Kreisstadt"},"district":{"key":"08226","name":"Rhein-Neckar-Kreis","type":"Landkreis"},"federalState":{"key":"08","name":"Baden-Württemberg"}},{"name":"Arionweg","postalCode":"68723","locality":"Schwetzingen","municipality":{"key":"08226084","name":"Schwetzingen, Stadt","type":"Große_Kreisstadt"},"district":{"key":"08226","name":"Rhein-Neckar-Kreis","type":"Landkreis"},"federalState":{"key":"08","name":"Baden-Württemberg"}},{"name":"Augustastr.","postalCode":"68723","locality":"Schwetzingen","municipality":{"key":"08226084","name":"Schwetzingen, Stadt","type":"Große_Kreisstadt"},"district":{"key":"08226","name":"Rhein-Neckar-Kreis","type":"Landkreis"},"federalState":{"key":"08","name":"Baden-Württemberg"}},{"name":"August-Neuhaus-Str.","postalCode":"68723","locality":"Schwetzingen","municipality":{"key":"08226084","name":"Schwetzingen, Stadt","type":"Große_Kreisstadt"},"district":{"key":"08226","name":"Rhein-Neckar-Kreis","type":"Landkreis"},"federalState":{"key":"08","name":"Baden-Württemberg"}},{"name":"Bahnhofanlage","postalCode":"68723","locality":"Schwetzingen","municipality":{"key":"08226084","name":"Schwetzingen, Stadt","type":"Große_Kreisstadt"},"district":{"key":"08226","name":"Rhein-Neckar-Kreis","type":"Landkreis"},"federalState":{"key":"08","name":"Baden-Württemberg"}},{"name":"Beethovenstr.","postalCode":"68723","locality":"Schwetzingen","municipality":{"key":"08226084","name":"Schwetzingen, Stadt","type":"Große_Kreisstadt"},"district":{"key":"08226","name":"Rhein-Neckar-Kreis","type":"Landkreis"},"federalState":{"key":"08","name":"Baden-Württemberg"}},{"name":"Berliner Platz","postalCode":"68723","locality":"Schwetzingen","municipality":{"key":"08226084","name":"Schwetzingen, Stadt","type":"Große_Kreisstadt"},"district":{"key":"08226","name":"Rhein-Neckar-Kreis","type":"Landkreis"},"federalState":{"key":"08","name":"Baden-Württemberg"}},{"name":"Berliner Str.","postalCode":"68723","locality":"Schwetzingen","municipality":{"key":"08226084","name":"Schwetzingen, Stadt","type":"Große_Kreisstadt"},"district":{"key":"08226","name":"Rhein-Neckar-Kreis","type":"Landkreis"},"federalState":{"key":"08","name":"Baden-Württemberg"}},{"name":"Bibienastr.","postalCode":"68723","locality":"Schwetzingen","municipality":{"key":"08226084","name":"Schwetzingen, Stadt","type":"Große_Kreisstadt"},"district":{"key":"08226","name":"Rhein-Neckar-Kreis","type":"Landkreis"},"federalState":{"key":"08","name":"Baden-Württemberg"}},{"name":"Birkenweg","postalCode":"68723","locality":"Schwetzingen","municipality":{"key":"08226084","name":"Schwetzingen, Stadt","type":"Große_Kreisstadt"},"district":{"key":"08226","name":"Rhein-Neckar-Kreis","type":"Landkreis"},"federalState":{"key":"08","name":"Baden-Württemberg"}},{"name":"Bismarckplatz","postalCode":"68723","locality":"Schwetzingen","municipality":{"key":"08226084","name":"Schwetzingen, Stadt","type":"Große_Kreisstadt"},"district":{"key":"08226","name":"Rhein-Neckar-Kreis","type":"Landkreis"},"federalState":{"key":"08","name":"Baden-Württemberg"}},{"name":"Bismarckstr.","postalCode":"68723","locality":"Schwetzingen","municipality":{"key":"08226084","name":"Schwetzingen, Stadt","type":"Große_Kreisstadt"},"district":{"key":"08226","name":"Rhein-Neckar-Kreis","type":"Landkreis"},"federalState":{"key":"08","name":"Baden-Württemberg"}},{"name":"Blumenstr.","postalCode":"68723","locality":"Schwetzingen","municipality":{"key":"08226084","name":"Schwetzingen, Stadt","type":"Große_Kreisstadt"},"district":{"key":"08226","name":"Rhein-Neckar-Kreis","type":"Landkreis"},"federalState":{"key":"08","name":"Baden-Württemberg"}},{"name":"Bochumer Str.","postalCode":"68723","locality":"Schwetzingen","municipality":{"key":"08226084","name":"Schwetzingen, Stadt","type":"Große_Kreisstadt"},"district":{"key":"08226","name":"Rhein-Neckar-Kreis","type":"Landkreis"},"federalState":{"key":"08","name":"Baden-Württemberg"}},{"name":"Bodelschwinghstr.","postalCode":"68723","locality":"Schwetzingen","municipality":{"key":"08226084","name":"Schwetzingen, Stadt","type":"Große_Kreisstadt"},"district":{"key":"08226","name":"Rhein-Neckar-Kreis","type":"Landkreis"},"federalState":{"key":"08","name":"Baden-Württemberg"}},{"name":"Borsigstr.","postalCode":"68723","locality":"Schwetzingen","municipality":{"key":"08226084","name":"Schwetzingen, Stadt","type":"Große_Kreisstadt"},"district":{"key":"08226","name":"Rhein-Neckar-Kreis","type":"Landkreis"},"federalState":{"key":"08","name":"Baden-Württemberg"}},{"name":"Breslauer Str.","postalCode":"68723","locality":"Schwetzingen","municipality":{"key":"08226084","name":"Schwetzingen, Stadt","type":"Große_Kreisstadt"},"district":{"key":"08226","name":"Rhein-Neckar-Kreis","type":"Landkreis"},"federalState":{"key":"08","name":"Baden-Württemberg"}},{"name":"Bruchhäuser Str.","postalCode":"68723","locality":"Schwetzingen","municipality":{"key":"08226084","name":"Schwetzingen, Stadt","type":"Große_Kreisstadt"},"district":{"key":"08226","name":"Rhein-Neckar-Kreis","type":"Landkreis"},"federalState":{"key":"08","name":"Baden-Württemberg"}},{"name":"Brühler Landstr.","postalCode":"68723","locality":"Schwetzingen","municipality":{"key":"08226084","name":"Schwetzingen, Stadt","type":"Große_Kreisstadt"},"district":{"key":"08226","name":"Rhein-Neckar-Kreis","type":"Landkreis"},"federalState":{"key":"08","name":"Baden-Württemberg"}},{"name":"Brühler Sträßchen","postalCode":"68723","locality":"Schwetzingen","municipality":{"key":"08226084","name":"Schwetzingen, Stadt","type":"Große_Kreisstadt"},"district":{"key":"08226","name":"Rhein-Neckar-Kreis","type":"Landkreis"},"federalState":{"key":"08","name":"Baden-Württemberg"}},{"name":"Brunnenweg","postalCode":"68723","locality":"Schwetzingen","municipality":{"key":"08226084","name":"Schwetzingen, Stadt","type":"Große_Kreisstadt"},"district":{"key":"08226","name":"Rhein-Neckar-Kreis","type":"Landkreis"},"federalState":{"key":"08","name":"Baden-Württemberg"}},{"name":"Buchenweg","postalCode":"68723","locality":"Schwetzingen","municipality":{"key":"08226084","name":"Schwetzingen, Stadt","type":"Große_Kreisstadt"},"district":{"key":"08226","name":"Rhein-Neckar-Kreis","type":"Landkreis"},"federalState":{"key":"08","name":"Baden-Württemberg"}},{"name":"Bunsenstr.","postalCode":"68723","locality":"Schwetzingen","municipality":{"key":"08226084","name":"Schwetzingen, Stadt","type":"Große_Kreisstadt"},"district":{"key":"08226","name":"Rhein-Neckar-Kreis","type":"Landkreis"},"federalState":{"key":"08","name":"Baden-Württemberg"}},{"name":"Carl-Benz-Str.","postalCode":"68723","locality":"Schwetzingen","municipality":{"key":"08226084","name":"Schwetzingen, Stadt","type":"Große_Kreisstadt"},"district":{"key":"08226","name":"Rhein-Neckar-Kreis","type":"Landkreis"},"federalState":{"key":"08","name":"Baden-Württemberg"}},{"name":"Carl-Gördeler-Str.","postalCode":"68723","locality":"Schwetzingen","municipality":{"key":"08226084","name":"Schwetzingen, Stadt","type":"Große_Kreisstadt"},"district":{"key":"08226","name":"Rhein-Neckar-Kreis","type":"Landkreis"},"federalState":{"key":"08","name":"Baden-Württemberg"}},{"name":"Carl-Theodor-Brücke","postalCode":"68723","locality":"Schwetzingen","municipality":{"key":"08226084","name":"Schwetzingen, Stadt","type":"Große_Kreisstadt"},"district":{"key":"08226","name":"Rhein-Neckar-Kreis","type":"Landkreis"},"federalState":{"key":"08","name":"Baden-Württemberg"}},{"name":"Carl-Theodor-Str.","postalCode":"68723","locality":"Schwetzingen","municipality":{"key":"08226084","name":"Schwetzingen, Stadt","type":"Große_Kreisstadt"},"district":{"key":"08226","name":"Rhein-Neckar-Kreis","type":"Landkreis"},"federalState":{"key":"08","name":"Baden-Württemberg"}},{"name":"Clementine-Bassermann-Str.","postalCode":"68723","locality":"Schwetzingen","municipality":{"key":"08226084","name":"Schwetzingen, Stadt","type":"Große_Kreisstadt"},"district":{"key":"08226","name":"Rhein-Neckar-Kreis","type":"Landkreis"},"federalState":{"key":"08","name":"Baden-Württemberg"}},{"name":"Collinistr.","postalCode":"68723","locality":"Schwetzingen","municipality":{"key":"08226084","name":"Schwetzingen, Stadt","type":"Große_Kreisstadt"},"district":{"key":"08226","name":"Rhein-Neckar-Kreis","type":"Landkreis"},"federalState":{"key":"08","name":"Baden-Württemberg"}},{"name":"Danziger Str.","postalCode":"68723","locality":"Schwetzingen","municipality":{"key":"08226084","name":"Schwetzingen, Stadt","type":"Große_Kreisstadt"},"district":{"key":"08226","name":"Rhein-Neckar-Kreis","type":"Landkreis"},"federalState":{"key":"08","name":"Baden-Württemberg"}},{"name":"Dessauer Str.","postalCode":"68723","locality":"Schwetzingen","municipality":{"key":"08226084","name":"Schwetzingen, Stadt","type":"Große_Kreisstadt"},"district":{"key":"08226","name":"Rhein-Neckar-Kreis","type":"Landkreis"},"federalState":{"key":"08","name":"Baden-Württemberg"}},{"name":"Dianaweg","postalCode":"68723","locality":"Schwetzingen","municipality":{"key":"08226084","name":"Schwetzingen, Stadt","type":"Große_Kreisstadt"},"district":{"key":"08226","name":"Rhein-Neckar-Kreis","type":"Landkreis"},"federalState":{"key":"08","name":"Baden-Württemberg"}},{"name":"Dortmunder Str.","postalCode":"68723","locality":"Schwetzingen","municipality":{"key":"08226084","name":"Schwetzingen, Stadt","type":"Große_Kreisstadt"},"district":{"key":"08226","name":"Rhein-Neckar-Kreis","type":"Landkreis"},"federalState":{"key":"08","name":"Baden-Württemberg"}},{"name":"Dreikönigstr.","postalCode":"68723","locality":"Schwetzingen","municipality":{"key":"08226084","name":"Schwetzingen, Stadt","type":"Große_Kreisstadt"},"district":{"key":"08226","name":"Rhein-Neckar-Kreis","type":"Landkreis"},"federalState":{"key":"08","name":"Baden-Württemberg"}},{"name":"Dr. Valentin-Gaa-Str.","postalCode":"68723","locality":"Schwetzingen","municipality":{"key":"08226084","name":"Schwetzingen, Stadt","type":"Große_Kreisstadt"},"district":{"key":"08226","name":"Rhein-Neckar-Kreis","type":"Landkreis"},"federalState":{"key":"08","name":"Baden-Württemberg"}},{"name":"Duisburger Str.","postalCode":"68723","locality":"Schwetzingen","municipality":{"key":"08226084","name":"Schwetzingen, Stadt","type":"Große_Kreisstadt"},"district":{"key":"08226","name":"Rhein-Neckar-Kreis","type":"Landkreis"},"federalState":{"key":"08","name":"Baden-Württemberg"}},{"name":"Edinger Riedweg","postalCode":"68723","locality":"Schwetzingen","municipality":{"key":"08226084","name":"Schwetzingen, Stadt","type":"Große_Kreisstadt"},"district":{"key":"08226","name":"Rhein-Neckar-Kreis","type":"Landkreis"},"federalState":{"key":"08","name":"Baden-Württemberg"}},{"name":"Eichendorffstr.","postalCode":"68723","locality":"Schwetzingen","municipality":{"key":"08226084","name":"Schwetzingen, Stadt","type":"Große_Kreisstadt"},"district":{"key":"08226","name":"Rhein-Neckar-Kreis","type":"Landkreis"},"federalState":{"key":"08","name":"Baden-Württemberg"}},{"name":"Eichenweg","postalCode":"68723","locality":"Schwetzingen","municipality":{"key":"08226084","name":"Schwetzingen, Stadt","type":"Große_Kreisstadt"},"district":{"key":"08226","name":"Rhein-Neckar-Kreis","type":"Landkreis"},"federalState":{"key":"08","name":"Baden-Württemberg"}},{"name":"Eisenacher Str.","postalCode":"68723","locality":"Schwetzingen","municipality":{"key":"08226084","name":"Schwetzingen, Stadt","type":"Große_Kreisstadt"},"district":{"key":"08226","name":"Rhein-Neckar-Kreis","type":"Landkreis"},"federalState":{"key":"08","name":"Baden-Württemberg"}},{"name":"Eiskellerweg","postalCode":"68723","locality":"Schwetzingen","municipality":{"key":"08226084","name":"Schwetzingen, Stadt","type":"Große_Kreisstadt"},"district":{"key":"08226","name":"Rhein-Neckar-Kreis","type":"Landkreis"},"federalState":{"key":"08","name":"Baden-Württemberg"}},{"name":"Erfurter Str.","postalCode":"68723","locality":"Schwetzingen","municipality":{"key":"08226084","name":"Schwetzingen, Stadt","type":"Große_Kreisstadt"},"district":{"key":"08226","name":"Rhein-Neckar-Kreis","type":"Landkreis"},"federalState":{"key":"08","name":"Baden-Württemberg"}},{"name":"Erlenweg","postalCode":"68723","locality":"Schwetzingen","municipality":{"key":"08226084","name":"Schwetzingen, Stadt","type":"Große_Kreisstadt"},"district":{"key":"08226","name":"Rhein-Neckar-Kreis","type":"Landkreis"},"federalState":{"key":"08","name":"Baden-Württemberg"}},{"name":"Fliederweg","postalCode":"68723","locality":"Schwetzingen","municipality":{"key":"08226084","name":"Schwetzingen, Stadt","type":"Große_Kreisstadt"},"district":{"key":"08226","name":"Rhein-Neckar-Kreis","type":"Landkreis"},"federalState":{"key":"08","name":"Baden-Württemberg"}},{"name":"Forlenweg","postalCode":"68723","locality":"Schwetzingen","municipality":{"key":"08226084","name":"Schwetzingen, Stadt","type":"Große_Kreisstadt"},"district":{"key":"08226","name":"Rhein-Neckar-Kreis","type":"Landkreis"},"federalState":{"key":"08","name":"Baden-Württemberg"}},{"name":"Forsthausstr.","postalCode":"68723","locality":"Schwetzingen","municipality":{"key":"08226084","name":"Schwetzingen, Stadt","type":"Große_Kreisstadt"},"district":{"key":"08226","name":"Rhein-Neckar-Kreis","type":"Landkreis"},"federalState":{"key":"08","name":"Baden-Württemberg"}},{"name":"Franz-Dusberger-Str.","postalCode":"68723","locality":"Schwetzingen","municipality":{"key":"08226084","name":"Schwetzingen, Stadt","type":"Große_Kreisstadt"},"district":{"key":"08226","name":"Rhein-Neckar-Kreis","type":"Landkreis"},"federalState":{"key":"08","name":"Baden-Württemberg"}},{"name":"Friedrich-Ebert-Str.","postalCode":"68723","locality":"Schwetzingen","municipality":{"key":"08226084","name":"Schwetzingen, Stadt","type":"Große_Kreisstadt"},"district":{"key":"08226","name":"Rhein-Neckar-Kreis","type":"Landkreis"},"federalState":{"key":"08","name":"Baden-Württemberg"}},{"name":"Friedrichsfelder Str.","postalCode":"68723","locality":"Schwetzingen","municipality":{"key":"08226084","name":"Schwetzingen, Stadt","type":"Große_Kreisstadt"},"district":{"key":"08226","name":"Rhein-Neckar-Kreis","type":"Landkreis"},"federalState":{"key":"08","name":"Baden-Württemberg"}},{"name":"Friedrichstr.","postalCode":"68723","locality":"Schwetzingen","municipality":{"key":"08226084","name":"Schwetzingen, Stadt","type":"Große_Kreisstadt"},"district":{"key":"08226","name":"Rhein-Neckar-Kreis","type":"Landkreis"},"federalState":{"key":"08","name":"Baden-Württemberg"}},{"name":"Fritz-Schweiger-Str.","postalCode":"68723","locality":"Schwetzingen","municipality":{"key":"08226084","name":"Schwetzingen, Stadt","type":"Große_Kreisstadt"},"district":{"key":"08226","name":"Rhein-Neckar-Kreis","type":"Landkreis"},"federalState":{"key":"08","name":"Baden-Württemberg"}},{"name":"Galateaweg","postalCode":"68723","locality":"Schwetzingen","municipality":{"key":"08226084","name":"Schwetzingen, Stadt","type":"Große_Kreisstadt"},"district":{"key":"08226","name":"Rhein-Neckar-Kreis","type":"Landkreis"},"federalState":{"key":"08","name":"Baden-Württemberg"}},{"name":"Gartenstr.","postalCode":"68723","locality":"Schwetzingen","municipality":{"key":"08226084","name":"Schwetzingen, Stadt","type":"Große_Kreisstadt"},"district":{"key":"08226","name":"Rhein-Neckar-Kreis","type":"Landkreis"},"federalState":{"key":"08","name":"Baden-Württemberg"}},{"name":"Gelsenkirchener Str.","postalCode":"68723","locality":"Schwetzingen","municipality":{"key":"08226084","name":"Schwetzingen, Stadt","type":"Große_Kreisstadt"},"district":{"key":"08226","name":"Rhein-Neckar-Kreis","type":"Landkreis"},"federalState":{"key":"08","name":"Baden-Württemberg"}},{"name":"Goethestr.","postalCode":"68723","locality":"Schwetzingen","municipality":{"key":"08226084","name":"Schwetzingen, Stadt","type":"Große_Kreisstadt"},"district":{"key":"08226","name":"Rhein-Neckar-Kreis","type":"Landkreis"},"federalState":{"key":"08","name":"Baden-Württemberg"}},{"name":"Grenzhöfer Str.","postalCode":"68723","locality":"Schwetzingen","municipality":{"key":"08226084","name":"Schwetzingen, Stadt","type":"Große_Kreisstadt"},"district":{"key":"08226","name":"Rhein-Neckar-Kreis","type":"Landkreis"},"federalState":{"key":"08","name":"Baden-Württemberg"}},{"name":"Grießhardtweg","postalCode":"68723","locality":"Schwetzingen","municipality":{"key":"08226084","name":"Schwetzingen, Stadt","type":"Große_Kreisstadt"},"district":{"key":"08226","name":"Rhein-Neckar-Kreis","type":"Landkreis"},"federalState":{"key":"08","name":"Baden-Württemberg"}},{"name":"Gustav-Hummel-Str.","postalCode":"68723","locality":"Schwetzingen","municipality":{"key":"08226084","name":"Schwetzingen, Stadt","type":"Große_Kreisstadt"},"district":{"key":"08226","name":"Rhein-Neckar-Kreis","type":"Landkreis"},"federalState":{"key":"08","name":"Baden-Württemberg"}},{"name":"Gustav-Stresemann-Str.","postalCode":"68723","locality":"Schwetzingen","municipality":{"key":"08226084","name":"Schwetzingen, Stadt","type":"Große_Kreisstadt"},"district":{"key":"08226","name":"Rhein-Neckar-Kreis","type":"Landkreis"},"federalState":{"key":"08","name":"Baden-Württemberg"}},{"name":"Gutenbergstr.","postalCode":"68723","locality":"Schwetzingen","municipality":{"key":"08226084","name":"Schwetzingen, Stadt","type":"Große_Kreisstadt"},"district":{"key":"08226","name":"Rhein-Neckar-Kreis","type":"Landkreis"},"federalState":{"key":"08","name":"Baden-Württemberg"}},{"name":"Hans-Kahrmann-Str.","postalCode":"68723","locality":"Schwetzingen","municipality":{"key":"08226084","name":"Schwetzingen, Stadt","type":"Große_Kreisstadt"},"district":{"key":"08226","name":"Rhein-Neckar-Kreis","type":"Landkreis"},"federalState":{"key":"08","name":"Baden-Württemberg"}},{"name":"Hans-Thoma-Str.","postalCode":"68723","locality":"Schwetzingen","municipality":{"key":"08226084","name":"Schwetzingen, Stadt","type":"Große_Kreisstadt"},"district":{"key":"08226","name":"Rhein-Neckar-Kreis","type":"Landkreis"},"federalState":{"key":"08","name":"Baden-Württemberg"}},{"name":"Hebelplatz","postalCode":"68723","locality":"Schwetzingen","municipality":{"key":"08226084","name":"Schwetzingen, Stadt","type":"Große_Kreisstadt"},"district":{"key":"08226","name":"Rhein-Neckar-Kreis","type":"Landkreis"},"federalState":{"key":"08","name":"Baden-Württemberg"}},{"name":"Hebelstr.","postalCode":"68723","locality":"Schwetzingen","municipality":{"key":"08226084","name":"Schwetzingen, Stadt","type":"Große_Kreisstadt"},"district":{"key":"08226","name":"Rhein-Neckar-Kreis","type":"Landkreis"},"federalState":{"key":"08","name":"Baden-Württemberg"}},{"name":"Heckerstr.","postalCode":"68723","locality":"Schwetzingen","municipality":{"key":"08226084","name":"Schwetzingen, Stadt","type":"Große_Kreisstadt"},"district":{"key":"08226","name":"Rhein-Neckar-Kreis","type":"Landkreis"},"federalState":{"key":"08","name":"Baden-Württemberg"}},{"name":"Heidelberger Str.","postalCode":"68723","locality":"Schwetzingen","municipality":{"key":"08226084","name":"Schwetzingen, Stadt","type":"Große_Kreisstadt"},"district":{"key":"08226","name":"Rhein-Neckar-Kreis","type":"Landkreis"},"federalState":{"key":"08","name":"Baden-Württemberg"}},{"name":"Heinrich-Heine-Str.","postalCode":"68723","locality":"Schwetzingen","municipality":{"key":"08226084","name":"Schwetzingen, Stadt","type":"Große_Kreisstadt"},"district":{"key":"08226","name":"Rhein-Neckar-Kreis","type":"Landkreis"},"federalState":{"key":"08","name":"Baden-Württemberg"}},{"name":"Helmholtzstr.","postalCode":"68723","locality":"Schwetzingen","municipality":{"key":"08226084","name":"Schwetzingen, Stadt","type":"Große_Kreisstadt"},"district":{"key":"08226","name":"Rhein-Neckar-Kreis","type":"Landkreis"},"federalState":{"key":"08","name":"Baden-Württemberg"}},{"name":"Herzogstr.","postalCode":"68723","locality":"Schwetzingen","municipality":{"key":"08226084","name":"Schwetzingen, Stadt","type":"Große_Kreisstadt"},"district":{"key":"08226","name":"Rhein-Neckar-Kreis","type":"Landkreis"},"federalState":{"key":"08","name":"Baden-Württemberg"}},{"name":"Heuweg","postalCode":"68723","locality":"Schwetzingen","municipality":{"key":"08226084","name":"Schwetzingen, Stadt","type":"Große_Kreisstadt"},"district":{"key":"08226","name":"Rhein-Neckar-Kreis","type":"Landkreis"},"federalState":{"key":"08","name":"Baden-Württemberg"}},{"name":"Hildastr.","postalCode":"68723","locality":"Schwetzingen","municipality":{"key":"08226084","name":"Schwetzingen, Stadt","type":"Große_Kreisstadt"},"district":{"key":"08226","name":"Rhein-Neckar-Kreis","type":"Landkreis"},"federalState":{"key":"08","name":"Baden-Württemberg"}},{"name":"Hirschbrunnenweg","postalCode":"68723","locality":"Schwetzingen","municipality":{"key":"08226084","name":"Schwetzingen, Stadt","type":"Große_Kreisstadt"},"district":{"key":"08226","name":"Rhein-Neckar-Kreis","type":"Landkreis"},"federalState":{"key":"08","name":"Baden-Württemberg"}},{"name":"Hockenheimer Landstr.","postalCode":"68723","locality":"Schwetzingen","municipality":{"key":"08226084","name":"Schwetzingen, Stadt","type":"Große_Kreisstadt"},"district":{"key":"08226","name":"Rhein-Neckar-Kreis","type":"Landkreis"},"federalState":{"key":"08","name":"Baden-Württemberg"}},{"name":"Hoher Weg","postalCode":"68723","locality":"Schwetzingen","municipality":{"key":"08226084","name":"Schwetzingen, Stadt","type":"Große_Kreisstadt"},"district":{"key":"08226","name":"Rhein-Neckar-Kreis","type":"Landkreis"},"federalState":{"key":"08","name":"Baden-Württemberg"}},{"name":"Hölderlinstr.","postalCode":"68723","locality":"Schwetzingen","municipality":{"key":"08226084","name":"Schwetzingen, Stadt","type":"Große_Kreisstadt"},"district":{"key":"08226","name":"Rhein-Neckar-Kreis","type":"Landkreis"},"federalState":{"key":"08","name":"Baden-Württemberg"}},{"name":"Holunderweg","postalCode":"68723","locality":"Schwetzingen","municipality":{"key":"08226084","name":"Schwetzingen, Stadt","type":"Große_Kreisstadt"},"district":{"key":"08226","name":"Rhein-Neckar-Kreis","type":"Landkreis"},"federalState":{"key":"08","name":"Baden-Württemberg"}},{"name":"Holzbauerstr.","postalCode":"68723","locality":"Schwetzingen","municipality":{"key":"08226084","name":"Schwetzingen, Stadt","type":"Große_Kreisstadt"},"district":{"key":"08226","name":"Rhein-Neckar-Kreis","type":"Landkreis"},"federalState":{"key":"08","name":"Baden-Württemberg"}},{"name":"Jahn-Platz","postalCode":"68723","locality":"Schwetzingen","municipality":{"key":"08226084","name":"Schwetzingen, Stadt","type":"Große_Kreisstadt"},"district":{"key":"08226","name":"Rhein-Neckar-Kreis","type":"Landkreis"},"federalState":{"key":"08","name":"Baden-Württemberg"}},{"name":"Karlsruher Str.","postalCode":"68723","locality":"Schwetzingen","municipality":{"key":"08226084","name":"Schwetzingen, Stadt","type":"Große_Kreisstadt"},"district":{"key":"08226","name":"Rhein-Neckar-Kreis","type":"Landkreis"},"federalState":{"key":"08","name":"Baden-Württemberg"}},{"name":"Karlstr.","postalCode":"68723","locality":"Schwetzingen","municipality":{"key":"08226084","name":"Schwetzingen, Stadt","type":"Große_Kreisstadt"},"district":{"key":"08226","name":"Rhein-Neckar-Kreis","type":"Landkreis"},"federalState":{"key":"08","name":"Baden-Württemberg"}},{"name":"Kastanienweg","postalCode":"68723","locality":"Schwetzingen","municipality":{"key":"08226084","name":"Schwetzingen, Stadt","type":"Große_Kreisstadt"},"district":{"key":"08226","name":"Rhein-Neckar-Kreis","type":"Landkreis"},"federalState":{"key":"08","name":"Baden-Württemberg"}},{"name":"Kastellweg","postalCode":"68723","locality":"Schwetzingen","municipality":{"key":"08226084","name":"Schwetzingen, Stadt","type":"Große_Kreisstadt"},"district":{"key":"08226","name":"Rhein-Neckar-Kreis","type":"Landkreis"},"federalState":{"key":"08","name":"Baden-Württemberg"}},{"name":"Keplerstr.","postalCode":"68723","locality":"Schwetzingen","municipality":{"key":"08226084","name":"Schwetzingen, Stadt","type":"Große_Kreisstadt"},"district":{"key":"08226","name":"Rhein-Neckar-Kreis","type":"Landkreis"},"federalState":{"key":"08","name":"Baden-Württemberg"}},{"name":"Ketscher Landstr.","postalCode":"68723","locality":"Schwetzingen","municipality":{"key":"08226084","name":"Schwetzingen, Stadt","type":"Große_Kreisstadt"},"district":{"key":"08226","name":"Rhein-Neckar-Kreis","type":"Landkreis"},"federalState":{"key":"08","name":"Baden-Württemberg"}},{"name":"Kobellstr.","postalCode":"68723","locality":"Schwetzingen","municipality":{"key":"08226084","name":"Schwetzingen, Stadt","type":"Große_Kreisstadt"},"district":{"key":"08226","name":"Rhein-Neckar-Kreis","type":"Landkreis"},"federalState":{"key":"08","name":"Baden-Württemberg"}},{"name":"Kolpingstr.","postalCode":"68723","locality":"Schwetzingen","municipality":{"key":"08226084","name":"Schwetzingen, Stadt","type":"Große_Kreisstadt"},"district":{"key":"08226","name":"Rhein-Neckar-Kreis","type":"Landkreis"},"federalState":{"key":"08","name":"Baden-Württemberg"}},{"name":"Königsäcker","postalCode":"68723","locality":"Schwetzingen","municipality":{"key":"08226084","name":"Schwetzingen, Stadt","type":"Große_Kreisstadt"},"district":{"key":"08226","name":"Rhein-Neckar-Kreis","type":"Landkreis"},"federalState":{"key":"08","name":"Baden-Württemberg"}},{"name":"Königsberger Str.","postalCode":"68723","locality":"Schwetzingen","municipality":{"key":"08226084","name":"Schwetzingen, Stadt","type":"Große_Kreisstadt"},"district":{"key":"08226","name":"Rhein-Neckar-Kreis","type":"Landkreis"},"federalState":{"key":"08","name":"Baden-Württemberg"}},{"name":"Kronenstr.","postalCode":"68723","locality":"Schwetzingen","municipality":{"key":"08226084","name":"Schwetzingen, Stadt","type":"Große_Kreisstadt"},"district":{"key":"08226","name":"Rhein-Neckar-Kreis","type":"Landkreis"},"federalState":{"key":"08","name":"Baden-Württemberg"}},{"name":"Kurfürstenstr.","postalCode":"68723","locality":"Schwetzingen","municipality":{"key":"08226084","name":"Schwetzingen, Stadt","type":"Große_Kreisstadt"},"district":{"key":"08226","name":"Rhein-Neckar-Kreis","type":"Landkreis"},"federalState":{"key":"08","name":"Baden-Württemberg"}},{"name":"Kurpfalzring","postalCode":"68723","locality":"Schwetzingen","municipality":{"key":"08226084","name":"Schwetzingen, Stadt","type":"Große_Kreisstadt"},"district":{"key":"08226","name":"Rhein-Neckar-Kreis","type":"Landkreis"},"federalState":{"key":"08","name":"Baden-Württemberg"}},{"name":"Leipziger Str.","postalCode":"68723","locality":"Schwetzingen","municipality":{"key":"08226084","name":"Schwetzingen, Stadt","type":"Große_Kreisstadt"},"district":{"key":"08226","name":"Rhein-Neckar-Kreis","type":"Landkreis"},"federalState":{"key":"08","name":"Baden-Württemberg"}},{"name":"Leopoldstr.","postalCode":"68723","locality":"Schwetzingen","municipality":{"key":"08226084","name":"Schwetzingen, Stadt","type":"Große_Kreisstadt"},"district":{"key":"08226","name":"Rhein-Neckar-Kreis","type":"Landkreis"},"federalState":{"key":"08","name":"Baden-Württemberg"}},{"name":"Lessingstr.","postalCode":"68723","locality":"Schwetzingen","municipality":{"key":"08226084","name":"Schwetzingen, Stadt","type":"Große_Kreisstadt"},"district":{"key":"08226","name":"Rhein-Neckar-Kreis","type":"Landkreis"},"federalState":{"key":"08","name":"Baden-Württemberg"}},{"name":"Linckstr.","postalCode":"68723","locality":"Schwetzingen","municipality":{"key":"08226084","name":"Schwetzingen, Stadt","type":"Große_Kreisstadt"},"district":{"key":"08226","name":"Rhein-Neckar-Kreis","type":"Landkreis"},"federalState":{"key":"08","name":"Baden-Württemberg"}},{"name":"Lindenstr.","postalCode":"68723","locality":"Schwetzingen","municipality":{"key":"08226084","name":"Schwetzingen, Stadt","type":"Große_Kreisstadt"},"district":{"key":"08226","name":"Rhein-Neckar-Kreis","type":"Landkreis"},"federalState":{"key":"08","name":"Baden-Württemberg"}},{"name":"Liselottestr.","postalCode":"68723","locality":"Schwetzingen","municipality":{"key":"08226084","name":"Schwetzingen, Stadt","type":"Große_Kreisstadt"},"district":{"key":"08226","name":"Rhein-Neckar-Kreis","type":"Landkreis"},"federalState":{"key":"08","name":"Baden-Württemberg"}},{"name":"Ludwigstr.","postalCode":"68723","locality":"Schwetzingen","municipality":{"key":"08226084","name":"Schwetzingen, Stadt","type":"Große_Kreisstadt"},"district":{"key":"08226","name":"Rhein-Neckar-Kreis","type":"Landkreis"},"federalState":{"key":"08","name":"Baden-Württemberg"}},{"name":"Luisenstr.","postalCode":"68723","locality":"Schwetzingen","municipality":{"key":"08226084","name":"Schwetzingen, Stadt","type":"Große_Kreisstadt"},"district":{"key":"08226","name":"Rhein-Neckar-Kreis","type":"Landkreis"},"federalState":{"key":"08","name":"Baden-Württemberg"}},{"name":"Lunéviller Str.","postalCode":"68723","locality":"Schwetzingen","municipality":{"key":"08226084","name":"Schwetzingen, Stadt","type":"Große_Kreisstadt"},"district":{"key":"08226","name":"Rhein-Neckar-Kreis","type":"Landkreis"},"federalState":{"key":"08","name":"Baden-Württemberg"}},{"name":"Mannheimer Landstr.","postalCode":"68723","locality":"Schwetzingen","municipality":{"key":"08226084","name":"Schwetzingen, Stadt","type":"Große_Kreisstadt"},"district":{"key":"08226","name":"Rhein-Neckar-Kreis","type":"Landkreis"},"federalState":{"key":"08","name":"Baden-Württemberg"}},{"name":"Mannheimer Str.","postalCode":"68723","locality":"Schwetzingen","municipality":{"key":"08226084","name":"Schwetzingen, Stadt","type":"Große_Kreisstadt"},"district":{"key":"08226","name":"Rhein-Neckar-Kreis","type":"Landkreis"},"federalState":{"key":"08","name":"Baden-Württemberg"}},{"name":"Markgrafenstr.","postalCode":"68723","locality":"Schwetzingen","municipality":{"key":"08226084","name":"Schwetzingen, Stadt","type":"Große_Kreisstadt"},"district":{"key":"08226","name":"Rhein-Neckar-Kreis","type":"Landkreis"},"federalState":{"key":"08","name":"Baden-Württemberg"}},{"name":"Marktplatz","postalCode":"68723","locality":"Schwetzingen","municipality":{"key":"08226084","name":"Schwetzingen, Stadt","type":"Große_Kreisstadt"},"district":{"key":"08226","name":"Rhein-Neckar-Kreis","type":"Landkreis"},"federalState":{"key":"08","name":"Baden-Württemberg"}},{"name":"Marstallhof","postalCode":"68723","locality":"Schwetzingen","municipality":{"key":"08226084","name":"Schwetzingen, Stadt","type":"Große_Kreisstadt"},"district":{"key":"08226","name":"Rhein-Neckar-Kreis","type":"Landkreis"},"federalState":{"key":"08","name":"Baden-Württemberg"}},{"name":"Marstallstr.","postalCode":"68723","locality":"Schwetzingen","municipality":{"key":"08226084","name":"Schwetzingen, Stadt","type":"Große_Kreisstadt"},"district":{"key":"08226","name":"Rhein-Neckar-Kreis","type":"Landkreis"},"federalState":{"key":"08","name":"Baden-Württemberg"}},{"name":"Maschinenweg","postalCode":"68723","locality":"Schwetzingen","municipality":{"key":"08226084","name":"Schwetzingen, Stadt","type":"Große_Kreisstadt"},"district":{"key":"08226","name":"Rhein-Neckar-Kreis","type":"Landkreis"},"federalState":{"key":"08","name":"Baden-Württemberg"}},{"name":"Masurenweg","postalCode":"68723","locality":"Schwetzingen","municipality":{"key":"08226084","name":"Schwetzingen, Stadt","type":"Große_Kreisstadt"},"district":{"key":"08226","name":"Rhein-Neckar-Kreis","type":"Landkreis"},"federalState":{"key":"08","name":"Baden-Württemberg"}},{"name":"Maximilianstr.","postalCode":"68723","locality":"Schwetzingen","municipality":{"key":"08226084","name":"Schwetzingen, Stadt","type":"Große_Kreisstadt"},"district":{"key":"08226","name":"Rhein-Neckar-Kreis","type":"Landkreis"},"federalState":{"key":"08","name":"Baden-Württemberg"}},{"name":"Merkurweg","postalCode":"68723","locality":"Schwetzingen","municipality":{"key":"08226084","name":"Schwetzingen, Stadt","type":"Große_Kreisstadt"},"district":{"key":"08226","name":"Rhein-Neckar-Kreis","type":"Landkreis"},"federalState":{"key":"08","name":"Baden-Württemberg"}},{"name":"Minervaweg","postalCode":"68723","locality":"Schwetzingen","municipality":{"key":"08226084","name":"Schwetzingen, Stadt","type":"Große_Kreisstadt"},"district":{"key":"08226","name":"Rhein-Neckar-Kreis","type":"Landkreis"},"federalState":{"key":"08","name":"Baden-Württemberg"}},{"name":"Mittelgewann","postalCode":"68723","locality":"Schwetzingen","municipality":{"key":"08226084","name":"Schwetzingen, Stadt","type":"Große_Kreisstadt"},"district":{"key":"08226","name":"Rhein-Neckar-Kreis","type":"Landkreis"},"federalState":{"key":"08","name":"Baden-Württemberg"}},{"name":"Moltkestr.","postalCode":"68723","locality":"Schwetzingen","municipality":{"key":"08226084","name":"Schwetzingen, Stadt","type":"Große_Kreisstadt"},"district":{"key":"08226","name":"Rhein-Neckar-Kreis","type":"Landkreis"},"federalState":{"key":"08","name":"Baden-Württemberg"}},{"name":"Moscheeweg","postalCode":"68723","locality":"Schwetzingen","municipality":{"key":"08226084","name":"Schwetzingen, Stadt","type":"Große_Kreisstadt"},"district":{"key":"08226","name":"Rhein-Neckar-Kreis","type":"Landkreis"},"federalState":{"key":"08","name":"Baden-Württemberg"}},{"name":"Mozartstr.","postalCode":"68723","locality":"Schwetzingen","municipality":{"key":"08226084","name":"Schwetzingen, Stadt","type":"Große_Kreisstadt"},"district":{"key":"08226","name":"Rhein-Neckar-Kreis","type":"Landkreis"},"federalState":{"key":"08","name":"Baden-Württemberg"}},{"name":"Mühlenstr.","postalCode":"68723","locality":"Schwetzingen","municipality":{"key":"08226084","name":"Schwetzingen, Stadt","type":"Große_Kreisstadt"},"district":{"key":"08226","name":"Rhein-Neckar-Kreis","type":"Landkreis"},"federalState":{"key":"08","name":"Baden-Württemberg"}},{"name":"Nadlerstr.","postalCode":"68723","locality":"Schwetzingen","municipality":{"key":"08226084","name":"Schwetzingen, Stadt","type":"Große_Kreisstadt"},"district":{"key":"08226","name":"Rhein-Neckar-Kreis","type":"Landkreis"},"federalState":{"key":"08","name":"Baden-Württemberg"}},{"name":"Nikolaus-Lenau-Str.","postalCode":"68723","locality":"Schwetzingen","municipality":{"key":"08226084","name":"Schwetzingen, Stadt","type":"Große_Kreisstadt"},"district":{"key":"08226","name":"Rhein-Neckar-Kreis","type":"Landkreis"},"federalState":{"key":"08","name":"Baden-Württemberg"}},{"name":"Odenwaldring","postalCode":"68723","locality":"Schwetzingen","municipality":{"key":"08226084","name":"Schwetzingen, Stadt","type":"Große_Kreisstadt"},"district":{"key":"08226","name":"Rhein-Neckar-Kreis","type":"Landkreis"},"federalState":{"key":"08","name":"Baden-Württemberg"}},{"name":"Osterweg","postalCode":"68723","locality":"Schwetzingen","municipality":{"key":"08226084","name":"Schwetzingen, Stadt","type":"Große_Kreisstadt"},"district":{"key":"08226","name":"Rhein-Neckar-Kreis","type":"Landkreis"},"federalState":{"key":"08","name":"Baden-Württemberg"}},{"name":"Ostpreußenring","postalCode":"68723","locality":"Schwetzingen","municipality":{"key":"08226084","name":"Schwetzingen, Stadt","type":"Große_Kreisstadt"},"district":{"key":"08226","name":"Rhein-Neckar-Kreis","type":"Landkreis"},"federalState":{"key":"08","name":"Baden-Württemberg"}},{"name":"Pápa-Str.","postalCode":"68723","locality":"Schwetzingen","municipality":{"key":"08226084","name":"Schwetzingen, Stadt","type":"Große_Kreisstadt"},"district":{"key":"08226","name":"Rhein-Neckar-Kreis","type":"Landkreis"},"federalState":{"key":"08","name":"Baden-Württemberg"}},{"name":"Pfaudlerstr.","postalCode":"68723","locality":"Schwetzingen","municipality":{"key":"08226084","name":"Schwetzingen, Stadt","type":"Große_Kreisstadt"},"district":{"key":"08226","name":"Rhein-Neckar-Kreis","type":"Landkreis"},"federalState":{"key":"08","name":"Baden-Württemberg"}},{"name":"Pfauenweg","postalCode":"68723","locality":"Schwetzingen","municipality":{"key":"08226084","name":"Schwetzingen, Stadt","type":"Große_Kreisstadt"},"district":{"key":"08226","name":"Rhein-Neckar-Kreis","type":"Landkreis"},"federalState":{"key":"08","name":"Baden-Württemberg"}},{"name":"Pigagestr.","postalCode":"68723","locality":"Schwetzingen","municipality":{"key":"08226084","name":"Schwetzingen, Stadt","type":"Große_Kreisstadt"},"district":{"key":"08226","name":"Rhein-Neckar-Kreis","type":"Landkreis"},"federalState":{"key":"08","name":"Baden-Württemberg"}},{"name":"Rabaliattistr.","postalCode":"68723","locality":"Schwetzingen","municipality":{"key":"08226084","name":"Schwetzingen, Stadt","type":"Große_Kreisstadt"},"district":{"key":"08226","name":"Rhein-Neckar-Kreis","type":"Landkreis"},"federalState":{"key":"08","name":"Baden-Württemberg"}},{"name":"Reiherweg","postalCode":"68723","locality":"Schwetzingen","municipality":{"key":"08226084","name":"Schwetzingen, Stadt","type":"Große_Kreisstadt"},"district":{"key":"08226","name":"Rhein-Neckar-Kreis","type":"Landkreis"},"federalState":{"key":"08","name":"Baden-Württemberg"}},{"name":"Reinhardtweg","postalCode":"68723","locality":"Schwetzingen","municipality":{"key":"08226084","name":"Schwetzingen, Stadt","type":"Große_Kreisstadt"},"district":{"key":"08226","name":"Rhein-Neckar-Kreis","type":"Landkreis"},"federalState":{"key":"08","name":"Baden-Württemberg"}},{"name":"Rheintalstr.","postalCode":"68723","locality":"Schwetzingen","municipality":{"key":"08226084","name":"Schwetzingen, Stadt","type":"Große_Kreisstadt"},"district":{"key":"08226","name":"Rhein-Neckar-Kreis","type":"Landkreis"},"federalState":{"key":"08","name":"Baden-Württemberg"}},{"name":"Richard-Wagner-Str.","postalCode":"68723","locality":"Schwetzingen","municipality":{"key":"08226084","name":"Schwetzingen, Stadt","type":"Große_Kreisstadt"},"district":{"key":"08226","name":"Rhein-Neckar-Kreis","type":"Landkreis"},"federalState":{"key":"08","name":"Baden-Württemberg"}},{"name":"Robert-Bosch-Str.","postalCode":"68723","locality":"Schwetzingen","municipality":{"key":"08226084","name":"Schwetzingen, Stadt","type":"Große_Kreisstadt"},"district":{"key":"08226","name":"Rhein-Neckar-Kreis","type":"Landkreis"},"federalState":{"key":"08","name":"Baden-Württemberg"}},{"name":"Rondell","postalCode":"68723","locality":"Schwetzingen","municipality":{"key":"08226084","name":"Schwetzingen, Stadt","type":"Große_Kreisstadt"},"district":{"key":"08226","name":"Rhein-Neckar-Kreis","type":"Landkreis"},"federalState":{"key":"08","name":"Baden-Württemberg"}},{"name":"Röntgenstr.","postalCode":"68723","locality":"Schwetzingen","municipality":{"key":"08226084","name":"Schwetzingen, Stadt","type":"Große_Kreisstadt"},"district":{"key":"08226","name":"Rhein-Neckar-Kreis","type":"Landkreis"},"federalState":{"key":"08","name":"Baden-Württemberg"}},{"name":"Rosenweg","postalCode":"68723","locality":"Schwetzingen","municipality":{"key":"08226084","name":"Schwetzingen, Stadt","type":"Große_Kreisstadt"},"district":{"key":"08226","name":"Rhein-Neckar-Kreis","type":"Landkreis"},"federalState":{"key":"08","name":"Baden-Württemberg"}},{"name":"Rudolf-Diesel-Str.","postalCode":"68723","locality":"Schwetzingen","municipality":{"key":"08226084","name":"Schwetzingen, Stadt","type":"Große_Kreisstadt"},"district":{"key":"08226","name":"Rhein-Neckar-Kreis","type":"Landkreis"},"federalState":{"key":"08","name":"Baden-Württemberg"}},{"name":"Sauerbruchstr.","postalCode":"68723","locality":"Schwetzingen","municipality":{"key":"08226084","name":"Schwetzingen, Stadt","type":"Große_Kreisstadt"},"district":{"key":"08226","name":"Rhein-Neckar-Kreis","type":"Landkreis"},"federalState":{"key":"08","name":"Baden-Württemberg"}},{"name":"Schälzigweg","postalCode":"68723","locality":"Schwetzingen","municipality":{"key":"08226084","name":"Schwetzingen, Stadt","type":"Große_Kreisstadt"},"district":{"key":"08226","name":"Rhein-Neckar-Kreis","type":"Landkreis"},"federalState":{"key":"08","name":"Baden-Württemberg"}},{"name":"Scheffelstr.","postalCode":"68723","locality":"Schwetzingen","municipality":{"key":"08226084","name":"Schwetzingen, Stadt","type":"Große_Kreisstadt"},"district":{"key":"08226","name":"Rhein-Neckar-Kreis","type":"Landkreis"},"federalState":{"key":"08","name":"Baden-Württemberg"}},{"name":"Schillerstr.","postalCode":"68723","locality":"Schwetzingen","municipality":{"key":"08226084","name":"Schwetzingen, Stadt","type":"Große_Kreisstadt"},"district":{"key":"08226","name":"Rhein-Neckar-Kreis","type":"Landkreis"},"federalState":{"key":"08","name":"Baden-Württemberg"}},{"name":"Schimperstr.","postalCode":"68723","locality":"Schwetzingen","municipality":{"key":"08226084","name":"Schwetzingen, Stadt","type":"Große_Kreisstadt"},"district":{"key":"08226","name":"Rhein-Neckar-Kreis","type":"Landkreis"},"federalState":{"key":"08","name":"Baden-Württemberg"}},{"name":"Schloßgartenweg","postalCode":"68723","locality":"Schwetzingen","municipality":{"key":"08226084","name":"Schwetzingen, Stadt","type":"Große_Kreisstadt"},"district":{"key":"08226","name":"Rhein-Neckar-Kreis","type":"Landkreis"},"federalState":{"key":"08","name":"Baden-Württemberg"}},{"name":"Schlossplatz","postalCode":"68723","locality":"Schwetzingen","municipality":{"key":"08226084","name":"Schwetzingen, Stadt","type":"Große_Kreisstadt"},"district":{"key":"08226","name":"Rhein-Neckar-Kreis","type":"Landkreis"},"federalState":{"key":"08","name":"Baden-Württemberg"}},{"name":"Schloßstr.","postalCode":"68723","locality":"Schwetzingen","municipality":{"key":"08226084","name":"Schwetzingen, Stadt","type":"Große_Kreisstadt"},"district":{"key":"08226","name":"Rhein-Neckar-Kreis","type":"Landkreis"},"federalState":{"key":"08","name":"Baden-Württemberg"}},{"name":"Schubertstr.","postalCode":"68723","locality":"Schwetzingen","municipality":{"key":"08226084","name":"Schwetzingen, Stadt","type":"Große_Kreisstadt"},"district":{"key":"08226","name":"Rhein-Neckar-Kreis","type":"Landkreis"},"federalState":{"key":"08","name":"Baden-Württemberg"}},{"name":"Schulstr.","postalCode":"68723","locality":"Schwetzingen","municipality":{"key":"08226084","name":"Schwetzingen, Stadt","type":"Große_Kreisstadt"},"district":{"key":"08226","name":"Rhein-Neckar-Kreis","type":"Landkreis"},"federalState":{"key":"08","name":"Baden-Württemberg"}},{"name":"Schützenstr.","postalCode":"68723","locality":"Schwetzingen","municipality":{"key":"08226084","name":"Schwetzingen, Stadt","type":"Große_Kreisstadt"},"district":{"key":"08226","name":"Rhein-Neckar-Kreis","type":"Landkreis"},"federalState":{"key":"08","name":"Baden-Württemberg"}},{"name":"Schwetzinger Schlossgarten","postalCode":"68723","locality":"Schwetzingen","municipality":{"key":"08226084","name":"Schwetzingen, Stadt","type":"Große_Kreisstadt"},"district":{"key":"08226","name":"Rhein-Neckar-Kreis","type":"Landkreis"},"federalState":{"key":"08","name":"Baden-Württemberg"}},{"name":"Schwetzinger Str.","postalCode":"68723","locality":"Schwetzingen","municipality":{"key":"08226084","name":"Schwetzingen, Stadt","type":"Große_Kreisstadt"},"district":{"key":"08226","name":"Rhein-Neckar-Kreis","type":"Landkreis"},"federalState":{"key":"08","name":"Baden-Württemberg"}},{"name":"Sckellstr.","postalCode":"68723","locality":"Schwetzingen","municipality":{"key":"08226084","name":"Schwetzingen, Stadt","type":"Große_Kreisstadt"},"district":{"key":"08226","name":"Rhein-Neckar-Kreis","type":"Landkreis"},"federalState":{"key":"08","name":"Baden-Württemberg"}},{"name":"Semmelweisstr.","postalCode":"68723","locality":"Schwetzingen","municipality":{"key":"08226084","name":"Schwetzingen, Stadt","type":"Große_Kreisstadt"},"district":{"key":"08226","name":"Rhein-Neckar-Kreis","type":"Landkreis"},"federalState":{"key":"08","name":"Baden-Württemberg"}},{"name":"Siedlerstr.","postalCode":"68723","locality":"Schwetzingen","municipality":{"key":"08226084","name":"Schwetzingen, Stadt","type":"Große_Kreisstadt"},"district":{"key":"08226","name":"Rhein-Neckar-Kreis","type":"Landkreis"},"federalState":{"key":"08","name":"Baden-Württemberg"}},{"name":"Silcherstr.","postalCode":"68723","locality":"Schwetzingen","municipality":{"key":"08226084","name":"Schwetzingen, Stadt","type":"Große_Kreisstadt"},"district":{"key":"08226","name":"Rhein-Neckar-Kreis","type":"Landkreis"},"federalState":{"key":"08","name":"Baden-Württemberg"}},{"name":"Spoleto-Str.","postalCode":"68723","locality":"Schwetzingen","municipality":{"key":"08226084","name":"Schwetzingen, Stadt","type":"Große_Kreisstadt"},"district":{"key":"08226","name":"Rhein-Neckar-Kreis","type":"Landkreis"},"federalState":{"key":"08","name":"Baden-Württemberg"}},{"name":"Stamitzstr.","postalCode":"68723","locality":"Schwetzingen","municipality":{"key":"08226084","name":"Schwetzingen, Stadt","type":"Große_Kreisstadt"},"district":{"key":"08226","name":"Rhein-Neckar-Kreis","type":"Landkreis"},"federalState":{"key":"08","name":"Baden-Württemberg"}},{"name":"Starenweg","postalCode":"68723","locality":"Schwetzingen","municipality":{"key":"08226084","name":"Schwetzingen, Stadt","type":"Große_Kreisstadt"},"district":{"key":"08226","name":"Rhein-Neckar-Kreis","type":"Landkreis"},"federalState":{"key":"08","name":"Baden-Württemberg"}},{"name":"Sternallee","postalCode":"68723","locality":"Schwetzingen","municipality":{"key":"08226084","name":"Schwetzingen, Stadt","type":"Große_Kreisstadt"},"district":{"key":"08226","name":"Rhein-Neckar-Kreis","type":"Landkreis"},"federalState":{"key":"08","name":"Baden-Württemberg"}},{"name":"Stettiner Str.","postalCode":"68723","locality":"Schwetzingen","municipality":{"key":"08226084","name":"Schwetzingen, Stadt","type":"Große_Kreisstadt"},"district":{"key":"08226","name":"Rhein-Neckar-Kreis","type":"Landkreis"},"federalState":{"key":"08","name":"Baden-Württemberg"}},{"name":"Sudetenring","postalCode":"68723","locality":"Schwetzingen","municipality":{"key":"08226084","name":"Schwetzingen, Stadt","type":"Große_Kreisstadt"},"district":{"key":"08226","name":"Rhein-Neckar-Kreis","type":"Landkreis"},"federalState":{"key":"08","name":"Baden-Württemberg"}},{"name":"Südtangente","postalCode":"68723","locality":"Schwetzingen","municipality":{"key":"08226084","name":"Schwetzingen, Stadt","type":"Große_Kreisstadt"},"district":{"key":"08226","name":"Rhein-Neckar-Kreis","type":"Landkreis"},"federalState":{"key":"08","name":"Baden-Württemberg"}},{"name":"Teichgewann","postalCode":"68723","locality":"Schwetzingen","municipality":{"key":"08226084","name":"Schwetzingen, Stadt","type":"Große_Kreisstadt"},"district":{"key":"08226","name":"Rhein-Neckar-Kreis","type":"Landkreis"},"federalState":{"key":"08","name":"Baden-Württemberg"}},{"name":"Tilsiter Weg","postalCode":"68723","locality":"Schwetzingen","municipality":{"key":"08226084","name":"Schwetzingen, Stadt","type":"Große_Kreisstadt"},"district":{"key":"08226","name":"Rhein-Neckar-Kreis","type":"Landkreis"},"federalState":{"key":"08","name":"Baden-Württemberg"}},{"name":"Uhlandstr.","postalCode":"68723","locality":"Schwetzingen","municipality":{"key":"08226084","name":"Schwetzingen, Stadt","type":"Große_Kreisstadt"},"district":{"key":"08226","name":"Rhein-Neckar-Kreis","type":"Landkreis"},"federalState":{"key":"08","name":"Baden-Württemberg"}},{"name":"Ulmenweg","postalCode":"68723","locality":"Schwetzingen","municipality":{"key":"08226084","name":"Schwetzingen, Stadt","type":"Große_Kreisstadt"},"district":{"key":"08226","name":"Rhein-Neckar-Kreis","type":"Landkreis"},"federalState":{"key":"08","name":"Baden-Württemberg"}},{"name":"Unseltstr.","postalCode":"68723","locality":"Schwetzingen","municipality":{"key":"08226084","name":"Schwetzingen, Stadt","type":"Große_Kreisstadt"},"district":{"key":"08226","name":"Rhein-Neckar-Kreis","type":"Landkreis"},"federalState":{"key":"08","name":"Baden-Württemberg"}},{"name":"Veithweg","postalCode":"68723","locality":"Schwetzingen","municipality":{"key":"08226084","name":"Schwetzingen, Stadt","type":"Große_Kreisstadt"},"district":{"key":"08226","name":"Rhein-Neckar-Kreis","type":"Landkreis"},"federalState":{"key":"08","name":"Baden-Württemberg"}},{"name":"Verschaffeltstr.","postalCode":"68723","locality":"Schwetzingen","municipality":{"key":"08226084","name":"Schwetzingen, Stadt","type":"Große_Kreisstadt"},"district":{"key":"08226","name":"Rhein-Neckar-Kreis","type":"Landkreis"},"federalState":{"key":"08","name":"Baden-Württemberg"}},{"name":"Viktoriastr.","postalCode":"68723","locality":"Schwetzingen","municipality":{"key":"08226084","name":"Schwetzingen, Stadt","type":"Große_Kreisstadt"},"district":{"key":"08226","name":"Rhein-Neckar-Kreis","type":"Landkreis"},"federalState":{"key":"08","name":"Baden-Württemberg"}},{"name":"Vogelsang","postalCode":"68723","locality":"Schwetzingen","municipality":{"key":"08226084","name":"Schwetzingen, Stadt","type":"Große_Kreisstadt"},"district":{"key":"08226","name":"Rhein-Neckar-Kreis","type":"Landkreis"},"federalState":{"key":"08","name":"Baden-Württemberg"}},{"name":"Voltairestr.","postalCode":"68723","locality":"Schwetzingen","municipality":{"key":"08226084","name":"Schwetzingen, Stadt","type":"Große_Kreisstadt"},"district":{"key":"08226","name":"Rhein-Neckar-Kreis","type":"Landkreis"},"federalState":{"key":"08","name":"Baden-Württemberg"}},{"name":"Walther-Rathenau-Str.","postalCode":"68723","locality":"Schwetzingen","municipality":{"key":"08226084","name":"Schwetzingen, Stadt","type":"Große_Kreisstadt"},"district":{"key":"08226","name":"Rhein-Neckar-Kreis","type":"Landkreis"},"federalState":{"key":"08","name":"Baden-Württemberg"}},{"name":"Wartstation","postalCode":"68723","locality":"Schwetzingen","municipality":{"key":"08226084","name":"Schwetzingen, Stadt","type":"Große_Kreisstadt"},"district":{"key":"08226","name":"Rhein-Neckar-Kreis","type":"Landkreis"},"federalState":{"key":"08","name":"Baden-Württemberg"}},{"name":"Weinbrennerstr.","postalCode":"68723","locality":"Schwetzingen","municipality":{"key":"08226084","name":"Schwetzingen, Stadt","type":"Große_Kreisstadt"},"district":{"key":"08226","name":"Rhein-Neckar-Kreis","type":"Landkreis"},"federalState":{"key":"08","name":"Baden-Württemberg"}},{"name":"Werderstr.","postalCode":"68723","locality":"Schwetzingen","municipality":{"key":"08226084","name":"Schwetzingen, Stadt","type":"Große_Kreisstadt"},"district":{"key":"08226","name":"Rhein-Neckar-Kreis","type":"Landkreis"},"federalState":{"key":"08","name":"Baden-Württemberg"}},{"name":"Werkstr.","postalCode":"68723","locality":"Schwetzingen","municipality":{"key":"08226084","name":"Schwetzingen, Stadt","type":"Große_Kreisstadt"},"district":{"key":"08226","name":"Rhein-Neckar-Kreis","type":"Landkreis"},"federalState":{"key":"08","name":"Baden-Württemberg"}},{"name":"Wiesenblättchen","postalCode":"68723","locality":"Schwetzingen","municipality":{"key":"08226084","name":"Schwetzingen, Stadt","type":"Große_Kreisstadt"},"district":{"key":"08226","name":"Rhein-Neckar-Kreis","type":"Landkreis"},"federalState":{"key":"08","name":"Baden-Württemberg"}},{"name":"Wildemannstr.","postalCode":"68723","locality":"Schwetzingen","municipality":{"key":"08226084","name":"Schwetzingen, Stadt","type":"Große_Kreisstadt"},"district":{"key":"08226","name":"Rhein-Neckar-Kreis","type":"Landkreis"},"federalState":{"key":"08","name":"Baden-Württemberg"}},{"name":"Wilhelmstr.","postalCode":"68723","locality":"Schwetzingen","municipality":{"key":"08226084","name":"Schwetzingen, Stadt","type":"Große_Kreisstadt"},"district":{"key":"08226","name":"Rhein-Neckar-Kreis","type":"Landkreis"},"federalState":{"key":"08","name":"Baden-Württemberg"}},{"name":"Wingertsbuckel","postalCode":"68723","locality":"Schwetzingen","municipality":{"key":"08226084","name":"Schwetzingen, Stadt","type":"Große_Kreisstadt"},"district":{"key":"08226","name":"Rhein-Neckar-Kreis","type":"Landkreis"},"federalState":{"key":"08","name":"Baden-Württemberg"}},{"name":"Wuppertaler Str.","postalCode":"68723","locality":"Schwetzingen","municipality":{"key":"08226084","name":"Schwetzingen, Stadt","type":"Große_Kreisstadt"},"district":{"key":"08226","name":"Rhein-Neckar-Kreis","type":"Landkreis"},"federalState":{"key":"08","name":"Baden-Württemberg"}},{"name":"Zähringerstr.","postalCode":"68723","locality":"Schwetzingen","municipality":{"key":"08226084","name":"Schwetzingen, Stadt","type":"Große_Kreisstadt"},"district":{"key":"08226","name":"Rhein-Neckar-Kreis","type":"Landkreis"},"federalState":{"key":"08","name":"Baden-Württemberg"}},{"name":"Zeyherstr.","postalCode":"68723","locality":"Schwetzingen","municipality":{"key":"08226084","name":"Schwetzingen, Stadt","type":"Große_Kreisstadt"},"district":{"key":"08226","name":"Rhein-Neckar-Kreis","type":"Landkreis"},"federalState":{"key":"08","name":"Baden-Württemberg"}},{"name":"Ziegelweg","postalCode":"68723","locality":"Schwetzingen","municipality":{"key":"08226084","name":"Schwetzingen, Stadt","type":"Große_Kreisstadt"},"district":{"key":"08226","name":"Rhein-Neckar-Kreis","type":"Landkreis"},"federalState":{"key":"08","name":"Baden-Württemberg"}},]