[{"name":"Alter Schulweg","postalCode":"93095","locality":"Hagelstadt","municipality":{"key":"09375143","name":"Hagelstadt","type":"Kreisangehörige_Gemeinde"},"district":{"key":"09375","name":"Regensburg","type":"Landkreis"},"federalState":{"key":"09","name":"Bayern"}},{"name":"Alte Ziegelei","postalCode":"93095","locality":"Hagelstadt","municipality":{"key":"09375143","name":"Hagelstadt","type":"Kreisangehörige_Gemeinde"},"district":{"key":"09375","name":"Regensburg","type":"Landkreis"},"federalState":{"key":"09","name":"Bayern"}},{"name":"Am Kirchplatz","postalCode":"93095","locality":"Hagelstadt","municipality":{"key":"09375143","name":"Hagelstadt","type":"Kreisangehörige_Gemeinde"},"district":{"key":"09375","name":"Regensburg","type":"Landkreis"},"federalState":{"key":"09","name":"Bayern"}},{"name":"Am Mühlweg","postalCode":"93095","locality":"Hagelstadt","municipality":{"key":"09375143","name":"Hagelstadt","type":"Kreisangehörige_Gemeinde"},"district":{"key":"09375","name":"Regensburg","type":"Landkreis"},"federalState":{"key":"09","name":"Bayern"}},{"name":"Am Sonnblick","postalCode":"93095","locality":"Hagelstadt","municipality":{"key":"09375143","name":"Hagelstadt","type":"Kreisangehörige_Gemeinde"},"district":{"key":"09375","name":"Regensburg","type":"Landkreis"},"federalState":{"key":"09","name":"Bayern"}},{"name":"Am Tegelberg","postalCode":"93095","locality":"Hagelstadt","municipality":{"key":"09375143","name":"Hagelstadt","type":"Kreisangehörige_Gemeinde"},"district":{"key":"09375","name":"Regensburg","type":"Landkreis"},"federalState":{"key":"09","name":"Bayern"}},{"name":"Am Ziegelfeld","postalCode":"93095","locality":"Hagelstadt","municipality":{"key":"09375143","name":"Hagelstadt","type":"Kreisangehörige_Gemeinde"},"district":{"key":"09375","name":"Regensburg","type":"Landkreis"},"federalState":{"key":"09","name":"Bayern"}},{"name":"An der Frey","postalCode":"93095","locality":"Hagelstadt","municipality":{"key":"09375143","name":"Hagelstadt","type":"Kreisangehörige_Gemeinde"},"district":{"key":"09375","name":"Regensburg","type":"Landkreis"},"federalState":{"key":"09","name":"Bayern"}},{"name":"Auf der Höhe","postalCode":"93095","locality":"Hagelstadt","municipality":{"key":"09375143","name":"Hagelstadt","type":"Kreisangehörige_Gemeinde"},"district":{"key":"09375","name":"Regensburg","type":"Landkreis"},"federalState":{"key":"09","name":"Bayern"}},{"name":"Auweg","postalCode":"93095","locality":"Hagelstadt","municipality":{"key":"09375143","name":"Hagelstadt","type":"Kreisangehörige_Gemeinde"},"district":{"key":"09375","name":"Regensburg","type":"Landkreis"},"federalState":{"key":"09","name":"Bayern"}},{"name":"Bachgasse","postalCode":"93095","locality":"Hagelstadt","municipality":{"key":"09375143","name":"Hagelstadt","type":"Kreisangehörige_Gemeinde"},"district":{"key":"09375","name":"Regensburg","type":"Landkreis"},"federalState":{"key":"09","name":"Bayern"}},{"name":"Bahnhofstr.","postalCode":"93095","locality":"Hagelstadt","municipality":{"key":"09375143","name":"Hagelstadt","type":"Kreisangehörige_Gemeinde"},"district":{"key":"09375","name":"Regensburg","type":"Landkreis"},"federalState":{"key":"09","name":"Bayern"}},{"name":"Bajuwarenring","postalCode":"93095","locality":"Hagelstadt","municipality":{"key":"09375143","name":"Hagelstadt","type":"Kreisangehörige_Gemeinde"},"district":{"key":"09375","name":"Regensburg","type":"Landkreis"},"federalState":{"key":"09","name":"Bayern"}},{"name":"Bergstr.","postalCode":"93095","locality":"Hagelstadt","municipality":{"key":"09375143","name":"Hagelstadt","type":"Kreisangehörige_Gemeinde"},"district":{"key":"09375","name":"Regensburg","type":"Landkreis"},"federalState":{"key":"09","name":"Bayern"}},{"name":"Biberweg","postalCode":"93095","locality":"Hagelstadt","municipality":{"key":"09375143","name":"Hagelstadt","type":"Kreisangehörige_Gemeinde"},"district":{"key":"09375","name":"Regensburg","type":"Landkreis"},"federalState":{"key":"09","name":"Bayern"}},{"name":"Birkenstr.","postalCode":"93095","locality":"Hagelstadt","municipality":{"key":"09375143","name":"Hagelstadt","type":"Kreisangehörige_Gemeinde"},"district":{"key":"09375","name":"Regensburg","type":"Landkreis"},"federalState":{"key":"09","name":"Bayern"}},{"name":"Böhmerwaldstr.","postalCode":"93095","locality":"Hagelstadt","municipality":{"key":"09375143","name":"Hagelstadt","type":"Kreisangehörige_Gemeinde"},"district":{"key":"09375","name":"Regensburg","type":"Landkreis"},"federalState":{"key":"09","name":"Bayern"}},{"name":"Brunnthalstr.","postalCode":"93095","locality":"Hagelstadt","municipality":{"key":"09375143","name":"Hagelstadt","type":"Kreisangehörige_Gemeinde"},"district":{"key":"09375","name":"Regensburg","type":"Landkreis"},"federalState":{"key":"09","name":"Bayern"}},{"name":"Buchenweg","postalCode":"93095","locality":"Hagelstadt","municipality":{"key":"09375143","name":"Hagelstadt","type":"Kreisangehörige_Gemeinde"},"district":{"key":"09375","name":"Regensburg","type":"Landkreis"},"federalState":{"key":"09","name":"Bayern"}},{"name":"Camille-Claudel-Str.","postalCode":"93055","locality":"Regensburg","municipality":{"key":"09362000","name":"Regensburg","type":"Kreisfreie_Stadt"},"district":{"key":"09362","name":"Regensburg","type":"Kreisfreie_Stadt"},"federalState":{"key":"09","name":"Bayern"}},{"name":"Carl-Maria-von-Weber-Str.","postalCode":"93053","locality":"Regensburg","municipality":{"key":"09362000","name":"Regensburg","type":"Kreisfreie_Stadt"},"district":{"key":"09362","name":"Regensburg","type":"Kreisfreie_Stadt"},"federalState":{"key":"09","name":"Bayern"}},{"name":"Carl-Orff-Weg","postalCode":"93051","locality":"Regensburg","municipality":{"key":"09362000","name":"Regensburg","type":"Kreisfreie_Stadt"},"district":{"key":"09362","name":"Regensburg","type":"Kreisfreie_Stadt"},"federalState":{"key":"09","name":"Bayern"}},{"name":"Carlstr.","postalCode":"93049","locality":"Regensburg","municipality":{"key":"09362000","name":"Regensburg","type":"Kreisfreie_Stadt"},"district":{"key":"09362","name":"Regensburg","type":"Kreisfreie_Stadt"},"federalState":{"key":"09","name":"Bayern"}},{"name":"Carl-Thiel-Str.","postalCode":"93053","locality":"Regensburg","municipality":{"key":"09362000","name":"Regensburg","type":"Kreisfreie_Stadt"},"district":{"key":"09362","name":"Regensburg","type":"Kreisfreie_Stadt"},"federalState":{"key":"09","name":"Bayern"}},{"name":"Caroline-Herschel-Str.","postalCode":"93055","locality":"Regensburg","municipality":{"key":"09362000","name":"Regensburg","type":"Kreisfreie_Stadt"},"district":{"key":"09362","name":"Regensburg","type":"Kreisfreie_Stadt"},"federalState":{"key":"09","name":"Bayern"}},{"name":"Cecilie-Vogt-Weg","postalCode":"93055","locality":"Regensburg","municipality":{"key":"09362000","name":"Regensburg","type":"Kreisfreie_Stadt"},"district":{"key":"09362","name":"Regensburg","type":"Kreisfreie_Stadt"},"federalState":{"key":"09","name":"Bayern"}},{"name":"Ceresweg","postalCode":"93055","locality":"Regensburg","municipality":{"key":"09362000","name":"Regensburg","type":"Kreisfreie_Stadt"},"district":{"key":"09362","name":"Regensburg","type":"Kreisfreie_Stadt"},"federalState":{"key":"09","name":"Bayern"}},{"name":"Chamer Str.","postalCode":"93057","locality":"Regensburg","municipality":{"key":"09362000","name":"Regensburg","type":"Kreisfreie_Stadt"},"district":{"key":"09362","name":"Regensburg","type":"Kreisfreie_Stadt"},"federalState":{"key":"09","name":"Bayern"}},{"name":"Charles-Lindbergh-Str.","postalCode":"93049","locality":"Regensburg","municipality":{"key":"09362000","name":"Regensburg","type":"Kreisfreie_Stadt"},"district":{"key":"09362","name":"Regensburg","type":"Kreisfreie_Stadt"},"federalState":{"key":"09","name":"Bayern"}},{"name":"Christine-Friedlein-Str.","postalCode":"93055","locality":"Regensburg","municipality":{"key":"09362000","name":"Regensburg","type":"Kreisfreie_Stadt"},"district":{"key":"09362","name":"Regensburg","type":"Kreisfreie_Stadt"},"federalState":{"key":"09","name":"Bayern"}},{"name":"Christliebstr.","postalCode":"93055","locality":"Regensburg","municipality":{"key":"09362000","name":"Regensburg","type":"Kreisfreie_Stadt"},"district":{"key":"09362","name":"Regensburg","type":"Kreisfreie_Stadt"},"federalState":{"key":"09","name":"Bayern"}},{"name":"Clara-Schumann-Str.","postalCode":"93049","locality":"Regensburg","municipality":{"key":"09362000","name":"Regensburg","type":"Kreisfreie_Stadt"},"district":{"key":"09362","name":"Regensburg","type":"Kreisfreie_Stadt"},"federalState":{"key":"09","name":"Bayern"}},{"name":"Clausewitzstr.","postalCode":"93049","locality":"Regensburg","municipality":{"key":"09362000","name":"Regensburg","type":"Kreisfreie_Stadt"},"district":{"key":"09362","name":"Regensburg","type":"Kreisfreie_Stadt"},"federalState":{"key":"09","name":"Bayern"}},{"name":"Clermont-Ferrand-Allee","postalCode":"93049","locality":"Regensburg","municipality":{"key":"09362000","name":"Regensburg","type":"Kreisfreie_Stadt"},"district":{"key":"09362","name":"Regensburg","type":"Kreisfreie_Stadt"},"federalState":{"key":"09","name":"Bayern"}},{"name":"Coburger Str.","postalCode":"93057","locality":"Regensburg","municipality":{"key":"09362000","name":"Regensburg","type":"Kreisfreie_Stadt"},"district":{"key":"09362","name":"Regensburg","type":"Kreisfreie_Stadt"},"federalState":{"key":"09","name":"Bayern"}},{"name":"Colmarer Str.","postalCode":"93057","locality":"Regensburg","municipality":{"key":"09362000","name":"Regensburg","type":"Kreisfreie_Stadt"},"district":{"key":"09362","name":"Regensburg","type":"Kreisfreie_Stadt"},"federalState":{"key":"09","name":"Bayern"}},{"name":"Coulmiersstr.","postalCode":"93055","locality":"Regensburg","municipality":{"key":"09362000","name":"Regensburg","type":"Kreisfreie_Stadt"},"district":{"key":"09362","name":"Regensburg","type":"Kreisfreie_Stadt"},"federalState":{"key":"09","name":"Bayern"}},{"name":"Cranachweg","postalCode":"93051","locality":"Regensburg","municipality":{"key":"09362000","name":"Regensburg","type":"Kreisfreie_Stadt"},"district":{"key":"09362","name":"Regensburg","type":"Kreisfreie_Stadt"},"federalState":{"key":"09","name":"Bayern"}},{"name":"Deplazstr.","postalCode":"93095","locality":"Hagelstadt","municipality":{"key":"09375143","name":"Hagelstadt","type":"Kreisangehörige_Gemeinde"},"district":{"key":"09375","name":"Regensburg","type":"Landkreis"},"federalState":{"key":"09","name":"Bayern"}},{"name":"Dorfstr.","postalCode":"93095","locality":"Hagelstadt","municipality":{"key":"09375143","name":"Hagelstadt","type":"Kreisangehörige_Gemeinde"},"district":{"key":"09375","name":"Regensburg","type":"Landkreis"},"federalState":{"key":"09","name":"Bayern"}},{"name":"Eheweg","postalCode":"93095","locality":"Hagelstadt","municipality":{"key":"09375143","name":"Hagelstadt","type":"Kreisangehörige_Gemeinde"},"district":{"key":"09375","name":"Regensburg","type":"Landkreis"},"federalState":{"key":"09","name":"Bayern"}},{"name":"Eichenstr.","postalCode":"93095","locality":"Hagelstadt","municipality":{"key":"09375143","name":"Hagelstadt","type":"Kreisangehörige_Gemeinde"},"district":{"key":"09375","name":"Regensburg","type":"Landkreis"},"federalState":{"key":"09","name":"Bayern"}},{"name":"Erlenbachstr.","postalCode":"93095","locality":"Hagelstadt","municipality":{"key":"09375143","name":"Hagelstadt","type":"Kreisangehörige_Gemeinde"},"district":{"key":"09375","name":"Regensburg","type":"Landkreis"},"federalState":{"key":"09","name":"Bayern"}},{"name":"Eschenweg","postalCode":"93095","locality":"Hagelstadt","municipality":{"key":"09375143","name":"Hagelstadt","type":"Kreisangehörige_Gemeinde"},"district":{"key":"09375","name":"Regensburg","type":"Landkreis"},"federalState":{"key":"09","name":"Bayern"}},{"name":"Fahrbeckgasse","postalCode":"93047","locality":"Regensburg","municipality":{"key":"09362000","name":"Regensburg","type":"Kreisfreie_Stadt"},"district":{"key":"09362","name":"Regensburg","type":"Kreisfreie_Stadt"},"federalState":{"key":"09","name":"Bayern"}},{"name":"Fährenweg","postalCode":"93049","locality":"Regensburg","municipality":{"key":"09362000","name":"Regensburg","type":"Kreisfreie_Stadt"},"district":{"key":"09362","name":"Regensburg","type":"Kreisfreie_Stadt"},"federalState":{"key":"09","name":"Bayern"}},{"name":"Falkensteinstr.","postalCode":"93059","locality":"Regensburg","municipality":{"key":"09362000","name":"Regensburg","type":"Kreisfreie_Stadt"},"district":{"key":"09362","name":"Regensburg","type":"Kreisfreie_Stadt"},"federalState":{"key":"09","name":"Bayern"}},{"name":"Fanny-Hensel-Weg","postalCode":"93055","locality":"Regensburg","municipality":{"key":"09362000","name":"Regensburg","type":"Kreisfreie_Stadt"},"district":{"key":"09362","name":"Regensburg","type":"Kreisfreie_Stadt"},"federalState":{"key":"09","name":"Bayern"}},{"name":"Fasanerieweg","postalCode":"93051","locality":"Regensburg","municipality":{"key":"09362000","name":"Regensburg","type":"Kreisfreie_Stadt"},"district":{"key":"09362","name":"Regensburg","type":"Kreisfreie_Stadt"},"federalState":{"key":"09","name":"Bayern"}},{"name":"Faunusweg","postalCode":"93055","locality":"Regensburg","municipality":{"key":"09362000","name":"Regensburg","type":"Kreisfreie_Stadt"},"district":{"key":"09362","name":"Regensburg","type":"Kreisfreie_Stadt"},"federalState":{"key":"09","name":"Bayern"}},{"name":"Fellingerbergstr.","postalCode":"93055","locality":"Regensburg","municipality":{"key":"09362000","name":"Regensburg","type":"Kreisfreie_Stadt"},"district":{"key":"09362","name":"Regensburg","type":"Kreisfreie_Stadt"},"federalState":{"key":"09","name":"Bayern"}},{"name":"Feuerbachweg","postalCode":"93051","locality":"Regensburg","municipality":{"key":"09362000","name":"Regensburg","type":"Kreisfreie_Stadt"},"district":{"key":"09362","name":"Regensburg","type":"Kreisfreie_Stadt"},"federalState":{"key":"09","name":"Bayern"}},{"name":"Fichtelgebirgstr.","postalCode":"93057","locality":"Regensburg","municipality":{"key":"09362000","name":"Regensburg","type":"Kreisfreie_Stadt"},"district":{"key":"09362","name":"Regensburg","type":"Kreisfreie_Stadt"},"federalState":{"key":"09","name":"Bayern"}},{"name":"Fidelgasse","postalCode":"93047","locality":"Regensburg","municipality":{"key":"09362000","name":"Regensburg","type":"Kreisfreie_Stadt"},"district":{"key":"09362","name":"Regensburg","type":"Kreisfreie_Stadt"},"federalState":{"key":"09","name":"Bayern"}},{"name":"Fikentscherstr.","postalCode":"93051","locality":"Regensburg","municipality":{"key":"09362000","name":"Regensburg","type":"Kreisfreie_Stadt"},"district":{"key":"09362","name":"Regensburg","type":"Kreisfreie_Stadt"},"federalState":{"key":"09","name":"Bayern"}},{"name":"Finkenweg","postalCode":"93059","locality":"Regensburg","municipality":{"key":"09362000","name":"Regensburg","type":"Kreisfreie_Stadt"},"district":{"key":"09362","name":"Regensburg","type":"Kreisfreie_Stadt"},"federalState":{"key":"09","name":"Bayern"}},{"name":"Fischgässel","postalCode":"93047","locality":"Regensburg","municipality":{"key":"09362000","name":"Regensburg","type":"Kreisfreie_Stadt"},"district":{"key":"09362","name":"Regensburg","type":"Kreisfreie_Stadt"},"federalState":{"key":"09","name":"Bayern"}},{"name":"Fischmarkt","postalCode":"93047","locality":"Regensburg","municipality":{"key":"09362000","name":"Regensburg","type":"Kreisfreie_Stadt"},"district":{"key":"09362","name":"Regensburg","type":"Kreisfreie_Stadt"},"federalState":{"key":"09","name":"Bayern"}},{"name":"Flandernstr.","postalCode":"93057","locality":"Regensburg","municipality":{"key":"09362000","name":"Regensburg","type":"Kreisfreie_Stadt"},"district":{"key":"09362","name":"Regensburg","type":"Kreisfreie_Stadt"},"federalState":{"key":"09","name":"Bayern"}},{"name":"Fleischmannstr.","postalCode":"93055","locality":"Regensburg","municipality":{"key":"09362000","name":"Regensburg","type":"Kreisfreie_Stadt"},"district":{"key":"09362","name":"Regensburg","type":"Kreisfreie_Stadt"},"federalState":{"key":"09","name":"Bayern"}},{"name":"Floraweg","postalCode":"93055","locality":"Regensburg","municipality":{"key":"09362000","name":"Regensburg","type":"Kreisfreie_Stadt"},"district":{"key":"09362","name":"Regensburg","type":"Kreisfreie_Stadt"},"federalState":{"key":"09","name":"Bayern"}},{"name":"Flößerstr.","postalCode":"93059","locality":"Regensburg","municipality":{"key":"09362000","name":"Regensburg","type":"Kreisfreie_Stadt"},"district":{"key":"09362","name":"Regensburg","type":"Kreisfreie_Stadt"},"federalState":{"key":"09","name":"Bayern"}},{"name":"Fluderstr.","postalCode":"93059","locality":"Regensburg","municipality":{"key":"09362000","name":"Regensburg","type":"Kreisfreie_Stadt"},"district":{"key":"09362","name":"Regensburg","type":"Kreisfreie_Stadt"},"federalState":{"key":"09","name":"Bayern"}},{"name":"Fort-Skelly-Str.","postalCode":"93053","locality":"Regensburg","municipality":{"key":"09362000","name":"Regensburg","type":"Kreisfreie_Stadt"},"district":{"key":"09362","name":"Regensburg","type":"Kreisfreie_Stadt"},"federalState":{"key":"09","name":"Bayern"}},{"name":"Frankenstr.","postalCode":"93059","locality":"Regensburg","municipality":{"key":"09362000","name":"Regensburg","type":"Kreisfreie_Stadt"},"district":{"key":"09362","name":"Regensburg","type":"Kreisfreie_Stadt"},"federalState":{"key":"09","name":"Bayern"}},{"name":"Franzensbader Weg","postalCode":"93057","locality":"Regensburg","municipality":{"key":"09362000","name":"Regensburg","type":"Kreisfreie_Stadt"},"district":{"key":"09362","name":"Regensburg","type":"Kreisfreie_Stadt"},"federalState":{"key":"09","name":"Bayern"}},{"name":"Franz-Hartl-Str.","postalCode":"93053","locality":"Regensburg","municipality":{"key":"09362000","name":"Regensburg","type":"Kreisfreie_Stadt"},"district":{"key":"09362","name":"Regensburg","type":"Kreisfreie_Stadt"},"federalState":{"key":"09","name":"Bayern"}},{"name":"Franziskanerplatz","postalCode":"93059","locality":"Regensburg","municipality":{"key":"09362000","name":"Regensburg","type":"Kreisfreie_Stadt"},"district":{"key":"09362","name":"Regensburg","type":"Kreisfreie_Stadt"},"federalState":{"key":"09","name":"Bayern"}},{"name":"Franz-Josef-Strauß-Allee","postalCode":"93053","locality":"Regensburg","municipality":{"key":"09362000","name":"Regensburg","type":"Kreisfreie_Stadt"},"district":{"key":"09362","name":"Regensburg","type":"Kreisfreie_Stadt"},"federalState":{"key":"09","name":"Bayern"}},{"name":"Franz-Josef-Strauß-Allee","postalCode":"93055","locality":"Regensburg","municipality":{"key":"09362000","name":"Regensburg","type":"Kreisfreie_Stadt"},"district":{"key":"09362","name":"Regensburg","type":"Kreisfreie_Stadt"},"federalState":{"key":"09","name":"Bayern"}},{"name":"Franz-Mayer-Str.","postalCode":"93053","locality":"Regensburg","municipality":{"key":"09362000","name":"Regensburg","type":"Kreisfreie_Stadt"},"district":{"key":"09362","name":"Regensburg","type":"Kreisfreie_Stadt"},"federalState":{"key":"09","name":"Bayern"}},{"name":"Franz-von-Kobell-Str.","postalCode":"93051","locality":"Regensburg","municipality":{"key":"09362000","name":"Regensburg","type":"Kreisfreie_Stadt"},"district":{"key":"09362","name":"Regensburg","type":"Kreisfreie_Stadt"},"federalState":{"key":"09","name":"Bayern"}},{"name":"Franz-von-Taxis-Ring","postalCode":"93049","locality":"Regensburg","municipality":{"key":"09362000","name":"Regensburg","type":"Kreisfreie_Stadt"},"district":{"key":"09362","name":"Regensburg","type":"Kreisfreie_Stadt"},"federalState":{"key":"09","name":"Bayern"}},{"name":"Franz-Winzinger-Weg","postalCode":"93051","locality":"Regensburg","municipality":{"key":"09362000","name":"Regensburg","type":"Kreisfreie_Stadt"},"district":{"key":"09362","name":"Regensburg","type":"Kreisfreie_Stadt"},"federalState":{"key":"09","name":"Bayern"}},{"name":"Frauendorferstr.","postalCode":"93051","locality":"Regensburg","municipality":{"key":"09362000","name":"Regensburg","type":"Kreisfreie_Stadt"},"district":{"key":"09362","name":"Regensburg","type":"Kreisfreie_Stadt"},"federalState":{"key":"09","name":"Bayern"}},{"name":"Frauenzellstr.","postalCode":"93057","locality":"Regensburg","municipality":{"key":"09362000","name":"Regensburg","type":"Kreisfreie_Stadt"},"district":{"key":"09362","name":"Regensburg","type":"Kreisfreie_Stadt"},"federalState":{"key":"09","name":"Bayern"}},{"name":"Freiherr-vom-Stein-Str.","postalCode":"93049","locality":"Regensburg","municipality":{"key":"09362000","name":"Regensburg","type":"Kreisfreie_Stadt"},"district":{"key":"09362","name":"Regensburg","type":"Kreisfreie_Stadt"},"federalState":{"key":"09","name":"Bayern"}},{"name":"Friedenstr.","postalCode":"93051","locality":"Regensburg","municipality":{"key":"09362000","name":"Regensburg","type":"Kreisfreie_Stadt"},"district":{"key":"09362","name":"Regensburg","type":"Kreisfreie_Stadt"},"federalState":{"key":"09","name":"Bayern"}},{"name":"Friedenstr.","postalCode":"93053","locality":"Regensburg","municipality":{"key":"09362000","name":"Regensburg","type":"Kreisfreie_Stadt"},"district":{"key":"09362","name":"Regensburg","type":"Kreisfreie_Stadt"},"federalState":{"key":"09","name":"Bayern"}},{"name":"Friedrich-Ebert-Str.","postalCode":"93051","locality":"Regensburg","municipality":{"key":"09362000","name":"Regensburg","type":"Kreisfreie_Stadt"},"district":{"key":"09362","name":"Regensburg","type":"Kreisfreie_Stadt"},"federalState":{"key":"09","name":"Bayern"}},{"name":"Friedrich-Niedermayer-Str.","postalCode":"93047","locality":"Regensburg","municipality":{"key":"09362000","name":"Regensburg","type":"Kreisfreie_Stadt"},"district":{"key":"09362","name":"Regensburg","type":"Kreisfreie_Stadt"},"federalState":{"key":"09","name":"Bayern"}},{"name":"Friedrich-Niedermayer-Str.","postalCode":"93049","locality":"Regensburg","municipality":{"key":"09362000","name":"Regensburg","type":"Kreisfreie_Stadt"},"district":{"key":"09362","name":"Regensburg","type":"Kreisfreie_Stadt"},"federalState":{"key":"09","name":"Bayern"}},{"name":"Friedrich-Viehbacher-Allee","postalCode":"93055","locality":"Regensburg","municipality":{"key":"09362000","name":"Regensburg","type":"Kreisfreie_Stadt"},"district":{"key":"09362","name":"Regensburg","type":"Kreisfreie_Stadt"},"federalState":{"key":"09","name":"Bayern"}},{"name":"Friesenstr.","postalCode":"93053","locality":"Regensburg","municipality":{"key":"09362000","name":"Regensburg","type":"Kreisfreie_Stadt"},"district":{"key":"09362","name":"Regensburg","type":"Kreisfreie_Stadt"},"federalState":{"key":"09","name":"Bayern"}},{"name":"Fritz-Fend-Str.","postalCode":"93047","locality":"Regensburg","municipality":{"key":"09362000","name":"Regensburg","type":"Kreisfreie_Stadt"},"district":{"key":"09362","name":"Regensburg","type":"Kreisfreie_Stadt"},"federalState":{"key":"09","name":"Bayern"}},{"name":"Fritz-Schäffer-Weg","postalCode":"93051","locality":"Regensburg","municipality":{"key":"09362000","name":"Regensburg","type":"Kreisfreie_Stadt"},"district":{"key":"09362","name":"Regensburg","type":"Kreisfreie_Stadt"},"federalState":{"key":"09","name":"Bayern"}},{"name":"Frobenius-Forster-Str.","postalCode":"93055","locality":"Regensburg","municipality":{"key":"09362000","name":"Regensburg","type":"Kreisfreie_Stadt"},"district":{"key":"09362","name":"Regensburg","type":"Kreisfreie_Stadt"},"federalState":{"key":"09","name":"Bayern"}},{"name":"Fröhliche-Türken-Str.","postalCode":"93047","locality":"Regensburg","municipality":{"key":"09362000","name":"Regensburg","type":"Kreisfreie_Stadt"},"district":{"key":"09362","name":"Regensburg","type":"Kreisfreie_Stadt"},"federalState":{"key":"09","name":"Bayern"}},{"name":"Frohnwiesenweg","postalCode":"93055","locality":"Regensburg","municipality":{"key":"09362000","name":"Regensburg","type":"Kreisfreie_Stadt"},"district":{"key":"09362","name":"Regensburg","type":"Kreisfreie_Stadt"},"federalState":{"key":"09","name":"Bayern"}},{"name":"Fürnrohrstr.","postalCode":"93051","locality":"Regensburg","municipality":{"key":"09362000","name":"Regensburg","type":"Kreisfreie_Stadt"},"district":{"key":"09362","name":"Regensburg","type":"Kreisfreie_Stadt"},"federalState":{"key":"09","name":"Bayern"}},{"name":"Fürst-Albert-Allee","postalCode":"93051","locality":"Regensburg","municipality":{"key":"09362000","name":"Regensburg","type":"Kreisfreie_Stadt"},"district":{"key":"09362","name":"Regensburg","type":"Kreisfreie_Stadt"},"federalState":{"key":"09","name":"Bayern"}},{"name":"Fürst-Anselm-Allee","postalCode":"93047","locality":"Regensburg","municipality":{"key":"09362000","name":"Regensburg","type":"Kreisfreie_Stadt"},"district":{"key":"09362","name":"Regensburg","type":"Kreisfreie_Stadt"},"federalState":{"key":"09","name":"Bayern"}},{"name":"Fürst-Anselm-Park","postalCode":"93047","locality":"Regensburg","municipality":{"key":"09362000","name":"Regensburg","type":"Kreisfreie_Stadt"},"district":{"key":"09362","name":"Regensburg","type":"Kreisfreie_Stadt"},"federalState":{"key":"09","name":"Bayern"}},{"name":"Further Str.","postalCode":"93059","locality":"Regensburg","municipality":{"key":"09362000","name":"Regensburg","type":"Kreisfreie_Stadt"},"district":{"key":"09362","name":"Regensburg","type":"Kreisfreie_Stadt"},"federalState":{"key":"09","name":"Bayern"}},{"name":"Gailsbacher Str.","postalCode":"93095","locality":"Hagelstadt","municipality":{"key":"09375143","name":"Hagelstadt","type":"Kreisangehörige_Gemeinde"},"district":{"key":"09375","name":"Regensburg","type":"Landkreis"},"federalState":{"key":"09","name":"Bayern"}},{"name":"Gartenstr.","postalCode":"93095","locality":"Hagelstadt","municipality":{"key":"09375143","name":"Hagelstadt","type":"Kreisangehörige_Gemeinde"},"district":{"key":"09375","name":"Regensburg","type":"Landkreis"},"federalState":{"key":"09","name":"Bayern"}},{"name":"Gemeindebergstr.","postalCode":"93095","locality":"Hagelstadt","municipality":{"key":"09375143","name":"Hagelstadt","type":"Kreisangehörige_Gemeinde"},"district":{"key":"09375","name":"Regensburg","type":"Landkreis"},"federalState":{"key":"09","name":"Bayern"}},{"name":"Gittinger Weg","postalCode":"93095","locality":"Hagelstadt","municipality":{"key":"09375143","name":"Hagelstadt","type":"Kreisangehörige_Gemeinde"},"district":{"key":"09375","name":"Regensburg","type":"Landkreis"},"federalState":{"key":"09","name":"Bayern"}},{"name":"Hafnerstr.","postalCode":"93095","locality":"Hagelstadt","municipality":{"key":"09375143","name":"Hagelstadt","type":"Kreisangehörige_Gemeinde"},"district":{"key":"09375","name":"Regensburg","type":"Landkreis"},"federalState":{"key":"09","name":"Bayern"}},{"name":"Helferweg","postalCode":"93095","locality":"Hagelstadt","municipality":{"key":"09375143","name":"Hagelstadt","type":"Kreisangehörige_Gemeinde"},"district":{"key":"09375","name":"Regensburg","type":"Landkreis"},"federalState":{"key":"09","name":"Bayern"}},{"name":"Hellkofener Str.","postalCode":"93095","locality":"Hagelstadt","municipality":{"key":"09375143","name":"Hagelstadt","type":"Kreisangehörige_Gemeinde"},"district":{"key":"09375","name":"Regensburg","type":"Landkreis"},"federalState":{"key":"09","name":"Bayern"}},{"name":"Henebergstr.","postalCode":"93095","locality":"Hagelstadt","municipality":{"key":"09375143","name":"Hagelstadt","type":"Kreisangehörige_Gemeinde"},"district":{"key":"09375","name":"Regensburg","type":"Landkreis"},"federalState":{"key":"09","name":"Bayern"}},{"name":"Hochfeldstr.","postalCode":"93095","locality":"Hagelstadt","municipality":{"key":"09375143","name":"Hagelstadt","type":"Kreisangehörige_Gemeinde"},"district":{"key":"09375","name":"Regensburg","type":"Landkreis"},"federalState":{"key":"09","name":"Bayern"}},{"name":"Hochweg","postalCode":"93095","locality":"Hagelstadt","municipality":{"key":"09375143","name":"Hagelstadt","type":"Kreisangehörige_Gemeinde"},"district":{"key":"09375","name":"Regensburg","type":"Landkreis"},"federalState":{"key":"09","name":"Bayern"}},{"name":"Höllfeldstr.","postalCode":"93095","locality":"Hagelstadt","municipality":{"key":"09375143","name":"Hagelstadt","type":"Kreisangehörige_Gemeinde"},"district":{"key":"09375","name":"Regensburg","type":"Landkreis"},"federalState":{"key":"09","name":"Bayern"}},{"name":"In der Rast","postalCode":"93095","locality":"Hagelstadt","municipality":{"key":"09375143","name":"Hagelstadt","type":"Kreisangehörige_Gemeinde"},"district":{"key":"09375","name":"Regensburg","type":"Landkreis"},"federalState":{"key":"09","name":"Bayern"}},{"name":"Johannesweg","postalCode":"93095","locality":"Hagelstadt","municipality":{"key":"09375143","name":"Hagelstadt","type":"Kreisangehörige_Gemeinde"},"district":{"key":"09375","name":"Regensburg","type":"Landkreis"},"federalState":{"key":"09","name":"Bayern"}},{"name":"Keltenschanze","postalCode":"93095","locality":"Hagelstadt","municipality":{"key":"09375143","name":"Hagelstadt","type":"Kreisangehörige_Gemeinde"},"district":{"key":"09375","name":"Regensburg","type":"Landkreis"},"federalState":{"key":"09","name":"Bayern"}},{"name":"Kirchgasse","postalCode":"93095","locality":"Hagelstadt","municipality":{"key":"09375143","name":"Hagelstadt","type":"Kreisangehörige_Gemeinde"},"district":{"key":"09375","name":"Regensburg","type":"Landkreis"},"federalState":{"key":"09","name":"Bayern"}},{"name":"Kollergang","postalCode":"93095","locality":"Hagelstadt","municipality":{"key":"09375143","name":"Hagelstadt","type":"Kreisangehörige_Gemeinde"},"district":{"key":"09375","name":"Regensburg","type":"Landkreis"},"federalState":{"key":"09","name":"Bayern"}},{"name":"Kreuzweg","postalCode":"93095","locality":"Hagelstadt","municipality":{"key":"09375143","name":"Hagelstadt","type":"Kreisangehörige_Gemeinde"},"district":{"key":"09375","name":"Regensburg","type":"Landkreis"},"federalState":{"key":"09","name":"Bayern"}},{"name":"Landshuter Str.","postalCode":"93095","locality":"Hagelstadt","municipality":{"key":"09375143","name":"Hagelstadt","type":"Kreisangehörige_Gemeinde"},"district":{"key":"09375","name":"Regensburg","type":"Landkreis"},"federalState":{"key":"09","name":"Bayern"}},{"name":"Langenerlinger Str.","postalCode":"93095","locality":"Hagelstadt","municipality":{"key":"09375143","name":"Hagelstadt","type":"Kreisangehörige_Gemeinde"},"district":{"key":"09375","name":"Regensburg","type":"Landkreis"},"federalState":{"key":"09","name":"Bayern"}},{"name":"Mönchsweg","postalCode":"93095","locality":"Hagelstadt","municipality":{"key":"09375143","name":"Hagelstadt","type":"Kreisangehörige_Gemeinde"},"district":{"key":"09375","name":"Regensburg","type":"Landkreis"},"federalState":{"key":"09","name":"Bayern"}},{"name":"Mooshamer Str.","postalCode":"93095","locality":"Hagelstadt","municipality":{"key":"09375143","name":"Hagelstadt","type":"Kreisangehörige_Gemeinde"},"district":{"key":"09375","name":"Regensburg","type":"Landkreis"},"federalState":{"key":"09","name":"Bayern"}},{"name":"Mühlweg","postalCode":"93095","locality":"Hagelstadt","municipality":{"key":"09375143","name":"Hagelstadt","type":"Kreisangehörige_Gemeinde"},"district":{"key":"09375","name":"Regensburg","type":"Landkreis"},"federalState":{"key":"09","name":"Bayern"}},{"name":"Naabstr.","postalCode":"93059","locality":"Regensburg","municipality":{"key":"09362000","name":"Regensburg","type":"Kreisfreie_Stadt"},"district":{"key":"09362","name":"Regensburg","type":"Kreisfreie_Stadt"},"federalState":{"key":"09","name":"Bayern"}},{"name":"Nabburger Str.","postalCode":"93057","locality":"Regensburg","municipality":{"key":"09362000","name":"Regensburg","type":"Kreisfreie_Stadt"},"district":{"key":"09362","name":"Regensburg","type":"Kreisfreie_Stadt"},"federalState":{"key":"09","name":"Bayern"}},{"name":"Nannette-Streicher-Str.","postalCode":"93055","locality":"Regensburg","municipality":{"key":"09362000","name":"Regensburg","type":"Kreisfreie_Stadt"},"district":{"key":"09362","name":"Regensburg","type":"Kreisfreie_Stadt"},"federalState":{"key":"09","name":"Bayern"}},{"name":"Nelkenweg","postalCode":"93053","locality":"Regensburg","municipality":{"key":"09362000","name":"Regensburg","type":"Kreisfreie_Stadt"},"district":{"key":"09362","name":"Regensburg","type":"Kreisfreie_Stadt"},"federalState":{"key":"09","name":"Bayern"}},{"name":"Neptunweg","postalCode":"93055","locality":"Regensburg","municipality":{"key":"09362000","name":"Regensburg","type":"Kreisfreie_Stadt"},"district":{"key":"09362","name":"Regensburg","type":"Kreisfreie_Stadt"},"federalState":{"key":"09","name":"Bayern"}},{"name":"Nestroystr.","postalCode":"93051","locality":"Regensburg","municipality":{"key":"09362000","name":"Regensburg","type":"Kreisfreie_Stadt"},"district":{"key":"09362","name":"Regensburg","type":"Kreisfreie_Stadt"},"federalState":{"key":"09","name":"Bayern"}},{"name":"Neue-Waag-Gasse","postalCode":"93047","locality":"Regensburg","municipality":{"key":"09362000","name":"Regensburg","type":"Kreisfreie_Stadt"},"district":{"key":"09362","name":"Regensburg","type":"Kreisfreie_Stadt"},"federalState":{"key":"09","name":"Bayern"}},{"name":"Neufferstr.","postalCode":"93055","locality":"Regensburg","municipality":{"key":"09362000","name":"Regensburg","type":"Kreisfreie_Stadt"},"district":{"key":"09362","name":"Regensburg","type":"Kreisfreie_Stadt"},"federalState":{"key":"09","name":"Bayern"}},{"name":"Neuhausstr.","postalCode":"93047","locality":"Regensburg","municipality":{"key":"09362000","name":"Regensburg","type":"Kreisfreie_Stadt"},"district":{"key":"09362","name":"Regensburg","type":"Kreisfreie_Stadt"},"federalState":{"key":"09","name":"Bayern"}},{"name":"Neumannstr.","postalCode":"93053","locality":"Regensburg","municipality":{"key":"09362000","name":"Regensburg","type":"Kreisfreie_Stadt"},"district":{"key":"09362","name":"Regensburg","type":"Kreisfreie_Stadt"},"federalState":{"key":"09","name":"Bayern"}},{"name":"Neupfarrplatz","postalCode":"93047","locality":"Regensburg","municipality":{"key":"09362000","name":"Regensburg","type":"Kreisfreie_Stadt"},"district":{"key":"09362","name":"Regensburg","type":"Kreisfreie_Stadt"},"federalState":{"key":"09","name":"Bayern"}},{"name":"Neuprüll","postalCode":"93051","locality":"Regensburg","municipality":{"key":"09362000","name":"Regensburg","type":"Kreisfreie_Stadt"},"district":{"key":"09362","name":"Regensburg","type":"Kreisfreie_Stadt"},"federalState":{"key":"09","name":"Bayern"}},{"name":"Neuprüll","postalCode":"93053","locality":"Regensburg","municipality":{"key":"09362000","name":"Regensburg","type":"Kreisfreie_Stadt"},"district":{"key":"09362","name":"Regensburg","type":"Kreisfreie_Stadt"},"federalState":{"key":"09","name":"Bayern"}},{"name":"Neutraublinger Str.","postalCode":"93055","locality":"Regensburg","municipality":{"key":"09362000","name":"Regensburg","type":"Kreisfreie_Stadt"},"district":{"key":"09362","name":"Regensburg","type":"Kreisfreie_Stadt"},"federalState":{"key":"09","name":"Bayern"}},{"name":"Nibelungenbrücke","postalCode":"93055","locality":"Regensburg","municipality":{"key":"09362000","name":"Regensburg","type":"Kreisfreie_Stadt"},"district":{"key":"09362","name":"Regensburg","type":"Kreisfreie_Stadt"},"federalState":{"key":"09","name":"Bayern"}},{"name":"Nibelungenbrücke","postalCode":"93059","locality":"Regensburg","municipality":{"key":"09362000","name":"Regensburg","type":"Kreisfreie_Stadt"},"district":{"key":"09362","name":"Regensburg","type":"Kreisfreie_Stadt"},"federalState":{"key":"09","name":"Bayern"}},{"name":"Nibelungenstr.","postalCode":"93051","locality":"Regensburg","municipality":{"key":"09362000","name":"Regensburg","type":"Kreisfreie_Stadt"},"district":{"key":"09362","name":"Regensburg","type":"Kreisfreie_Stadt"},"federalState":{"key":"09","name":"Bayern"}},{"name":"Nicolaus-Gallus-Str.","postalCode":"93051","locality":"Regensburg","municipality":{"key":"09362000","name":"Regensburg","type":"Kreisfreie_Stadt"},"district":{"key":"09362","name":"Regensburg","type":"Kreisfreie_Stadt"},"federalState":{"key":"09","name":"Bayern"}},{"name":"Niefangweg","postalCode":"93049","locality":"Regensburg","municipality":{"key":"09362000","name":"Regensburg","type":"Kreisfreie_Stadt"},"district":{"key":"09362","name":"Regensburg","type":"Kreisfreie_Stadt"},"federalState":{"key":"09","name":"Bayern"}},{"name":"Nittenauer Str.","postalCode":"93057","locality":"Regensburg","municipality":{"key":"09362000","name":"Regensburg","type":"Kreisfreie_Stadt"},"district":{"key":"09362","name":"Regensburg","type":"Kreisfreie_Stadt"},"federalState":{"key":"09","name":"Bayern"}},{"name":"Nonnenplatz","postalCode":"93047","locality":"Regensburg","municipality":{"key":"09362000","name":"Regensburg","type":"Kreisfreie_Stadt"},"district":{"key":"09362","name":"Regensburg","type":"Kreisfreie_Stadt"},"federalState":{"key":"09","name":"Bayern"}},{"name":"Nordgaustr.","postalCode":"93057","locality":"Regensburg","municipality":{"key":"09362000","name":"Regensburg","type":"Kreisfreie_Stadt"},"district":{"key":"09362","name":"Regensburg","type":"Kreisfreie_Stadt"},"federalState":{"key":"09","name":"Bayern"}},{"name":"Nordgaustr.","postalCode":"93059","locality":"Regensburg","municipality":{"key":"09362000","name":"Regensburg","type":"Kreisfreie_Stadt"},"district":{"key":"09362","name":"Regensburg","type":"Kreisfreie_Stadt"},"federalState":{"key":"09","name":"Bayern"}},{"name":"Nothaftstr.","postalCode":"93053","locality":"Regensburg","municipality":{"key":"09362000","name":"Regensburg","type":"Kreisfreie_Stadt"},"district":{"key":"09362","name":"Regensburg","type":"Kreisfreie_Stadt"},"federalState":{"key":"09","name":"Bayern"}},{"name":"Nürnberger Str.","postalCode":"93059","locality":"Regensburg","municipality":{"key":"09362000","name":"Regensburg","type":"Kreisfreie_Stadt"},"district":{"key":"09362","name":"Regensburg","type":"Kreisfreie_Stadt"},"federalState":{"key":"09","name":"Bayern"}},{"name":"Nußbergerstr.","postalCode":"93059","locality":"Regensburg","municipality":{"key":"09362000","name":"Regensburg","type":"Kreisfreie_Stadt"},"district":{"key":"09362","name":"Regensburg","type":"Kreisfreie_Stadt"},"federalState":{"key":"09","name":"Bayern"}},{"name":"Nußweg","postalCode":"93055","locality":"Regensburg","municipality":{"key":"09362000","name":"Regensburg","type":"Kreisfreie_Stadt"},"district":{"key":"09362","name":"Regensburg","type":"Kreisfreie_Stadt"},"federalState":{"key":"09","name":"Bayern"}},{"name":"Ostersteig","postalCode":"93095","locality":"Hagelstadt","municipality":{"key":"09375143","name":"Hagelstadt","type":"Kreisangehörige_Gemeinde"},"district":{"key":"09375","name":"Regensburg","type":"Landkreis"},"federalState":{"key":"09","name":"Bayern"}},{"name":"Plammerbergstr.","postalCode":"93095","locality":"Hagelstadt","municipality":{"key":"09375143","name":"Hagelstadt","type":"Kreisangehörige_Gemeinde"},"district":{"key":"09375","name":"Regensburg","type":"Landkreis"},"federalState":{"key":"09","name":"Bayern"}},{"name":"Quartiersplatz","postalCode":"93053","locality":"Regensburg","municipality":{"key":"09362000","name":"Regensburg","type":"Kreisfreie_Stadt"},"district":{"key":"09362","name":"Regensburg","type":"Kreisfreie_Stadt"},"federalState":{"key":"09","name":"Bayern"}},{"name":"Regensburger Str.","postalCode":"93095","locality":"Hagelstadt","municipality":{"key":"09375143","name":"Hagelstadt","type":"Kreisangehörige_Gemeinde"},"district":{"key":"09375","name":"Regensburg","type":"Landkreis"},"federalState":{"key":"09","name":"Bayern"}},{"name":"Ringstr.","postalCode":"93095","locality":"Hagelstadt","municipality":{"key":"09375143","name":"Hagelstadt","type":"Kreisangehörige_Gemeinde"},"district":{"key":"09375","name":"Regensburg","type":"Landkreis"},"federalState":{"key":"09","name":"Bayern"}},{"name":"Sandweg","postalCode":"93095","locality":"Hagelstadt","municipality":{"key":"09375143","name":"Hagelstadt","type":"Kreisangehörige_Gemeinde"},"district":{"key":"09375","name":"Regensburg","type":"Landkreis"},"federalState":{"key":"09","name":"Bayern"}},{"name":"Schlehenstr.","postalCode":"93095","locality":"Hagelstadt","municipality":{"key":"09375143","name":"Hagelstadt","type":"Kreisangehörige_Gemeinde"},"district":{"key":"09375","name":"Regensburg","type":"Landkreis"},"federalState":{"key":"09","name":"Bayern"}},{"name":"Sebastianiweg","postalCode":"93095","locality":"Hagelstadt","municipality":{"key":"09375143","name":"Hagelstadt","type":"Kreisangehörige_Gemeinde"},"district":{"key":"09375","name":"Regensburg","type":"Landkreis"},"federalState":{"key":"09","name":"Bayern"}},{"name":"Sudetenstr.","postalCode":"93095","locality":"Hagelstadt","municipality":{"key":"09375143","name":"Hagelstadt","type":"Kreisangehörige_Gemeinde"},"district":{"key":"09375","name":"Regensburg","type":"Landkreis"},"federalState":{"key":"09","name":"Bayern"}},{"name":"Triftlfinger Str.","postalCode":"93095","locality":"Hagelstadt","municipality":{"key":"09375143","name":"Hagelstadt","type":"Kreisangehörige_Gemeinde"},"district":{"key":"09375","name":"Regensburg","type":"Landkreis"},"federalState":{"key":"09","name":"Bayern"}},{"name":"Udetstr.","postalCode":"93049","locality":"Regensburg","municipality":{"key":"09362000","name":"Regensburg","type":"Kreisfreie_Stadt"},"district":{"key":"09362","name":"Regensburg","type":"Kreisfreie_Stadt"},"federalState":{"key":"09","name":"Bayern"}},{"name":"Uferstr.","postalCode":"93059","locality":"Regensburg","municipality":{"key":"09362000","name":"Regensburg","type":"Kreisfreie_Stadt"},"district":{"key":"09362","name":"Regensburg","type":"Kreisfreie_Stadt"},"federalState":{"key":"09","name":"Bayern"}},{"name":"Uhlandstr.","postalCode":"93049","locality":"Regensburg","municipality":{"key":"09362000","name":"Regensburg","type":"Kreisfreie_Stadt"},"district":{"key":"09362","name":"Regensburg","type":"Kreisfreie_Stadt"},"federalState":{"key":"09","name":"Bayern"}},{"name":"Ulmenstr.","postalCode":"93049","locality":"Regensburg","municipality":{"key":"09362000","name":"Regensburg","type":"Kreisfreie_Stadt"},"district":{"key":"09362","name":"Regensburg","type":"Kreisfreie_Stadt"},"federalState":{"key":"09","name":"Bayern"}},{"name":"Universitätsstr.","postalCode":"93053","locality":"Regensburg","municipality":{"key":"09362000","name":"Regensburg","type":"Kreisfreie_Stadt"},"district":{"key":"09362","name":"Regensburg","type":"Kreisfreie_Stadt"},"federalState":{"key":"09","name":"Bayern"}},{"name":"Unter den Schwibbögen","postalCode":"93047","locality":"Regensburg","municipality":{"key":"09362000","name":"Regensburg","type":"Kreisfreie_Stadt"},"district":{"key":"09362","name":"Regensburg","type":"Kreisfreie_Stadt"},"federalState":{"key":"09","name":"Bayern"}},{"name":"Untere Regenstr.","postalCode":"93059","locality":"Regensburg","municipality":{"key":"09362000","name":"Regensburg","type":"Kreisfreie_Stadt"},"district":{"key":"09362","name":"Regensburg","type":"Kreisfreie_Stadt"},"federalState":{"key":"09","name":"Bayern"}},{"name":"Unterer Ehweg","postalCode":"93055","locality":"Regensburg","municipality":{"key":"09362000","name":"Regensburg","type":"Kreisfreie_Stadt"},"district":{"key":"09362","name":"Regensburg","type":"Kreisfreie_Stadt"},"federalState":{"key":"09","name":"Bayern"}},{"name":"Unterislinger Weg","postalCode":"93053","locality":"Regensburg","municipality":{"key":"09362000","name":"Regensburg","type":"Kreisfreie_Stadt"},"district":{"key":"09362","name":"Regensburg","type":"Kreisfreie_Stadt"},"federalState":{"key":"09","name":"Bayern"}},{"name":"Unterislinger Weg","postalCode":"93055","locality":"Regensburg","municipality":{"key":"09362000","name":"Regensburg","type":"Kreisfreie_Stadt"},"district":{"key":"09362","name":"Regensburg","type":"Kreisfreie_Stadt"},"federalState":{"key":"09","name":"Bayern"}},{"name":"Urbanstr.","postalCode":"93059","locality":"Regensburg","municipality":{"key":"09362000","name":"Regensburg","type":"Kreisfreie_Stadt"},"district":{"key":"09362","name":"Regensburg","type":"Kreisfreie_Stadt"},"federalState":{"key":"09","name":"Bayern"}},{"name":"Utastr.","postalCode":"93049","locality":"Regensburg","municipality":{"key":"09362000","name":"Regensburg","type":"Kreisfreie_Stadt"},"district":{"key":"09362","name":"Regensburg","type":"Kreisfreie_Stadt"},"federalState":{"key":"09","name":"Bayern"}},{"name":"Uternagelstr.","postalCode":"93055","locality":"Regensburg","municipality":{"key":"09362000","name":"Regensburg","type":"Kreisfreie_Stadt"},"district":{"key":"09362","name":"Regensburg","type":"Kreisfreie_Stadt"},"federalState":{"key":"09","name":"Bayern"}},{"name":"Vestaweg","postalCode":"93055","locality":"Regensburg","municipality":{"key":"09362000","name":"Regensburg","type":"Kreisfreie_Stadt"},"district":{"key":"09362","name":"Regensburg","type":"Kreisfreie_Stadt"},"federalState":{"key":"09","name":"Bayern"}},{"name":"Victoriaweg","postalCode":"93055","locality":"Regensburg","municipality":{"key":"09362000","name":"Regensburg","type":"Kreisfreie_Stadt"},"district":{"key":"09362","name":"Regensburg","type":"Kreisfreie_Stadt"},"federalState":{"key":"09","name":"Bayern"}},{"name":"Vidiner Str.","postalCode":"93055","locality":"Regensburg","municipality":{"key":"09362000","name":"Regensburg","type":"Kreisfreie_Stadt"},"district":{"key":"09362","name":"Regensburg","type":"Kreisfreie_Stadt"},"federalState":{"key":"09","name":"Bayern"}},{"name":"Viktor-von-Scheffel-Str.","postalCode":"93051","locality":"Regensburg","municipality":{"key":"09362000","name":"Regensburg","type":"Kreisfreie_Stadt"},"district":{"key":"09362","name":"Regensburg","type":"Kreisfreie_Stadt"},"federalState":{"key":"09","name":"Bayern"}},{"name":"Villapark","postalCode":"93055","locality":"Regensburg","municipality":{"key":"09362000","name":"Regensburg","type":"Kreisfreie_Stadt"},"district":{"key":"09362","name":"Regensburg","type":"Kreisfreie_Stadt"},"federalState":{"key":"09","name":"Bayern"}},{"name":"Villa Rustica","postalCode":"93055","locality":"Regensburg","municipality":{"key":"09362000","name":"Regensburg","type":"Kreisfreie_Stadt"},"district":{"key":"09362","name":"Regensburg","type":"Kreisfreie_Stadt"},"federalState":{"key":"09","name":"Bayern"}},{"name":"Villastr.","postalCode":"93055","locality":"Regensburg","municipality":{"key":"09362000","name":"Regensburg","type":"Kreisfreie_Stadt"},"district":{"key":"09362","name":"Regensburg","type":"Kreisfreie_Stadt"},"federalState":{"key":"09","name":"Bayern"}},{"name":"Vilsecker Str.","postalCode":"93057","locality":"Regensburg","municipality":{"key":"09362000","name":"Regensburg","type":"Kreisfreie_Stadt"},"district":{"key":"09362","name":"Regensburg","type":"Kreisfreie_Stadt"},"federalState":{"key":"09","name":"Bayern"}},{"name":"Vilshofener Str.","postalCode":"93055","locality":"Regensburg","municipality":{"key":"09362000","name":"Regensburg","type":"Kreisfreie_Stadt"},"district":{"key":"09362","name":"Regensburg","type":"Kreisfreie_Stadt"},"federalState":{"key":"09","name":"Bayern"}},{"name":"Vilsstr.","postalCode":"93059","locality":"Regensburg","municipality":{"key":"09362000","name":"Regensburg","type":"Kreisfreie_Stadt"},"district":{"key":"09362","name":"Regensburg","type":"Kreisfreie_Stadt"},"federalState":{"key":"09","name":"Bayern"}},{"name":"Vintlweg","postalCode":"93053","locality":"Regensburg","municipality":{"key":"09362000","name":"Regensburg","type":"Kreisfreie_Stadt"},"district":{"key":"09362","name":"Regensburg","type":"Kreisfreie_Stadt"},"federalState":{"key":"09","name":"Bayern"}},{"name":"Vitusstr.","postalCode":"93051","locality":"Regensburg","municipality":{"key":"09362000","name":"Regensburg","type":"Kreisfreie_Stadt"},"district":{"key":"09362","name":"Regensburg","type":"Kreisfreie_Stadt"},"federalState":{"key":"09","name":"Bayern"}},{"name":"Vogelbeerweg","postalCode":"93055","locality":"Regensburg","municipality":{"key":"09362000","name":"Regensburg","type":"Kreisfreie_Stadt"},"district":{"key":"09362","name":"Regensburg","type":"Kreisfreie_Stadt"},"federalState":{"key":"09","name":"Bayern"}},{"name":"Vogesenstr.","postalCode":"93057","locality":"Regensburg","municipality":{"key":"09362000","name":"Regensburg","type":"Kreisfreie_Stadt"},"district":{"key":"09362","name":"Regensburg","type":"Kreisfreie_Stadt"},"federalState":{"key":"09","name":"Bayern"}},{"name":"Volcanusweg","postalCode":"93055","locality":"Regensburg","municipality":{"key":"09362000","name":"Regensburg","type":"Kreisfreie_Stadt"},"district":{"key":"09362","name":"Regensburg","type":"Kreisfreie_Stadt"},"federalState":{"key":"09","name":"Bayern"}},{"name":"Von-Brettreich-Str.","postalCode":"93049","locality":"Regensburg","municipality":{"key":"09362000","name":"Regensburg","type":"Kreisfreie_Stadt"},"district":{"key":"09362","name":"Regensburg","type":"Kreisfreie_Stadt"},"federalState":{"key":"09","name":"Bayern"}},{"name":"Von-der-Tann-Str.","postalCode":"93047","locality":"Regensburg","municipality":{"key":"09362000","name":"Regensburg","type":"Kreisfreie_Stadt"},"district":{"key":"09362","name":"Regensburg","type":"Kreisfreie_Stadt"},"federalState":{"key":"09","name":"Bayern"}},{"name":"Von-Donle-Str.","postalCode":"93055","locality":"Regensburg","municipality":{"key":"09362000","name":"Regensburg","type":"Kreisfreie_Stadt"},"district":{"key":"09362","name":"Regensburg","type":"Kreisfreie_Stadt"},"federalState":{"key":"09","name":"Bayern"}},{"name":"Von-Reiner-Str.","postalCode":"93053","locality":"Regensburg","municipality":{"key":"09362000","name":"Regensburg","type":"Kreisfreie_Stadt"},"district":{"key":"09362","name":"Regensburg","type":"Kreisfreie_Stadt"},"federalState":{"key":"09","name":"Bayern"}},{"name":"Von-Richthofen-Str.","postalCode":"93051","locality":"Regensburg","municipality":{"key":"09362000","name":"Regensburg","type":"Kreisfreie_Stadt"},"district":{"key":"09362","name":"Regensburg","type":"Kreisfreie_Stadt"},"federalState":{"key":"09","name":"Bayern"}},{"name":"Von-Schenk-Str.","postalCode":"93051","locality":"Regensburg","municipality":{"key":"09362000","name":"Regensburg","type":"Kreisfreie_Stadt"},"district":{"key":"09362","name":"Regensburg","type":"Kreisfreie_Stadt"},"federalState":{"key":"09","name":"Bayern"}},{"name":"Von-Seeckt-Str.","postalCode":"93053","locality":"Regensburg","municipality":{"key":"09362000","name":"Regensburg","type":"Kreisfreie_Stadt"},"district":{"key":"09362","name":"Regensburg","type":"Kreisfreie_Stadt"},"federalState":{"key":"09","name":"Bayern"}},{"name":"Vor der Grieb","postalCode":"93047","locality":"Regensburg","municipality":{"key":"09362000","name":"Regensburg","type":"Kreisfreie_Stadt"},"district":{"key":"09362","name":"Regensburg","type":"Kreisfreie_Stadt"},"federalState":{"key":"09","name":"Bayern"}},{"name":"Vorlandweg","postalCode":"93055","locality":"Regensburg","municipality":{"key":"09362000","name":"Regensburg","type":"Kreisfreie_Stadt"},"district":{"key":"09362","name":"Regensburg","type":"Kreisfreie_Stadt"},"federalState":{"key":"09","name":"Bayern"}},{"name":"Waldstr.","postalCode":"93095","locality":"Hagelstadt","municipality":{"key":"09375143","name":"Hagelstadt","type":"Kreisangehörige_Gemeinde"},"district":{"key":"09375","name":"Regensburg","type":"Landkreis"},"federalState":{"key":"09","name":"Bayern"}},{"name":"Weiherweg","postalCode":"93095","locality":"Hagelstadt","municipality":{"key":"09375143","name":"Hagelstadt","type":"Kreisangehörige_Gemeinde"},"district":{"key":"09375","name":"Regensburg","type":"Landkreis"},"federalState":{"key":"09","name":"Bayern"}},{"name":"Westerfeldstr.","postalCode":"93095","locality":"Hagelstadt","municipality":{"key":"09375143","name":"Hagelstadt","type":"Kreisangehörige_Gemeinde"},"district":{"key":"09375","name":"Regensburg","type":"Landkreis"},"federalState":{"key":"09","name":"Bayern"}},{"name":"Xaver-Fuhr-Str.","postalCode":"93055","locality":"Regensburg","municipality":{"key":"09362000","name":"Regensburg","type":"Kreisfreie_Stadt"},"district":{"key":"09362","name":"Regensburg","type":"Kreisfreie_Stadt"},"federalState":{"key":"09","name":"Bayern"}},{"name":"Yorckstr.","postalCode":"93049","locality":"Regensburg","municipality":{"key":"09362000","name":"Regensburg","type":"Kreisfreie_Stadt"},"district":{"key":"09362","name":"Regensburg","type":"Kreisfreie_Stadt"},"federalState":{"key":"09","name":"Bayern"}},{"name":"Zandtengasse","postalCode":"93047","locality":"Regensburg","municipality":{"key":"09362000","name":"Regensburg","type":"Kreisfreie_Stadt"},"district":{"key":"09362","name":"Regensburg","type":"Kreisfreie_Stadt"},"federalState":{"key":"09","name":"Bayern"}},{"name":"Zechenweg","postalCode":"93051","locality":"Regensburg","municipality":{"key":"09362000","name":"Regensburg","type":"Kreisfreie_Stadt"},"district":{"key":"09362","name":"Regensburg","type":"Kreisfreie_Stadt"},"federalState":{"key":"09","name":"Bayern"}},{"name":"Zehentstr.","postalCode":"93053","locality":"Regensburg","municipality":{"key":"09362000","name":"Regensburg","type":"Kreisfreie_Stadt"},"district":{"key":"09362","name":"Regensburg","type":"Kreisfreie_Stadt"},"federalState":{"key":"09","name":"Bayern"}},{"name":"Zeißstr.","postalCode":"93053","locality":"Regensburg","municipality":{"key":"09362000","name":"Regensburg","type":"Kreisfreie_Stadt"},"district":{"key":"09362","name":"Regensburg","type":"Kreisfreie_Stadt"},"federalState":{"key":"09","name":"Bayern"}},{"name":"Zeitlarner Weg","postalCode":"93057","locality":"Regensburg","municipality":{"key":"09362000","name":"Regensburg","type":"Kreisfreie_Stadt"},"district":{"key":"09362","name":"Regensburg","type":"Kreisfreie_Stadt"},"federalState":{"key":"09","name":"Bayern"}},{"name":"Zieblandstr.","postalCode":"93049","locality":"Regensburg","municipality":{"key":"09362000","name":"Regensburg","type":"Kreisfreie_Stadt"},"district":{"key":"09362","name":"Regensburg","type":"Kreisfreie_Stadt"},"federalState":{"key":"09","name":"Bayern"}},{"name":"Ziegelweg","postalCode":"93053","locality":"Regensburg","municipality":{"key":"09362000","name":"Regensburg","type":"Kreisfreie_Stadt"},"district":{"key":"09362","name":"Regensburg","type":"Kreisfreie_Stadt"},"federalState":{"key":"09","name":"Bayern"}},{"name":"Ziegetsdorfer Park","postalCode":"93051","locality":"Regensburg","municipality":{"key":"09362000","name":"Regensburg","type":"Kreisfreie_Stadt"},"district":{"key":"09362","name":"Regensburg","type":"Kreisfreie_Stadt"},"federalState":{"key":"09","name":"Bayern"}},{"name":"Ziegetsdorfer Str.","postalCode":"93051","locality":"Regensburg","municipality":{"key":"09362000","name":"Regensburg","type":"Kreisfreie_Stadt"},"district":{"key":"09362","name":"Regensburg","type":"Kreisfreie_Stadt"},"federalState":{"key":"09","name":"Bayern"}},{"name":"Zimmerstr.","postalCode":"93059","locality":"Regensburg","municipality":{"key":"09362000","name":"Regensburg","type":"Kreisfreie_Stadt"},"district":{"key":"09362","name":"Regensburg","type":"Kreisfreie_Stadt"},"federalState":{"key":"09","name":"Bayern"}},{"name":"Zirklstr.","postalCode":"93049","locality":"Regensburg","municipality":{"key":"09362000","name":"Regensburg","type":"Kreisfreie_Stadt"},"district":{"key":"09362","name":"Regensburg","type":"Kreisfreie_Stadt"},"federalState":{"key":"09","name":"Bayern"}},{"name":"Zirngiblstr.","postalCode":"93051","locality":"Regensburg","municipality":{"key":"09362000","name":"Regensburg","type":"Kreisfreie_Stadt"},"district":{"key":"09362","name":"Regensburg","type":"Kreisfreie_Stadt"},"federalState":{"key":"09","name":"Bayern"}},{"name":"Zollerstr.","postalCode":"93053","locality":"Regensburg","municipality":{"key":"09362000","name":"Regensburg","type":"Kreisfreie_Stadt"},"district":{"key":"09362","name":"Regensburg","type":"Kreisfreie_Stadt"},"federalState":{"key":"09","name":"Bayern"}},{"name":"Zuckerfabrikstr.","postalCode":"93055","locality":"Regensburg","municipality":{"key":"09362000","name":"Regensburg","type":"Kreisfreie_Stadt"},"district":{"key":"09362","name":"Regensburg","type":"Kreisfreie_Stadt"},"federalState":{"key":"09","name":"Bayern"}},{"name":"Zur Hohen Linie","postalCode":"93055","locality":"Regensburg","municipality":{"key":"09362000","name":"Regensburg","type":"Kreisfreie_Stadt"},"district":{"key":"09362","name":"Regensburg","type":"Kreisfreie_Stadt"},"federalState":{"key":"09","name":"Bayern"}},{"name":"Zur Schönen Aussicht","postalCode":"93051","locality":"Regensburg","municipality":{"key":"09362000","name":"Regensburg","type":"Kreisfreie_Stadt"},"district":{"key":"09362","name":"Regensburg","type":"Kreisfreie_Stadt"},"federalState":{"key":"09","name":"Bayern"}},{"name":"Zwerchpaintstr.","postalCode":"93055","locality":"Regensburg","municipality":{"key":"09362000","name":"Regensburg","type":"Kreisfreie_Stadt"},"district":{"key":"09362","name":"Regensburg","type":"Kreisfreie_Stadt"},"federalState":{"key":"09","name":"Bayern"}},{"name":"Ägidienplatz","postalCode":"93047","locality":"Regensburg","municipality":{"key":"09362000","name":"Regensburg","type":"Kreisfreie_Stadt"},"district":{"key":"09362","name":"Regensburg","type":"Kreisfreie_Stadt"},"federalState":{"key":"09","name":"Bayern"}},{"name":"Äußere Wiener Str.","postalCode":"93055","locality":"Regensburg","municipality":{"key":"09362000","name":"Regensburg","type":"Kreisfreie_Stadt"},"district":{"key":"09362","name":"Regensburg","type":"Kreisfreie_Stadt"},"federalState":{"key":"09","name":"Bayern"}},{"name":"Ödenthal","postalCode":"93057","locality":"Regensburg","municipality":{"key":"09362000","name":"Regensburg","type":"Kreisfreie_Stadt"},"district":{"key":"09362","name":"Regensburg","type":"Kreisfreie_Stadt"},"federalState":{"key":"09","name":"Bayern"}},{"name":"Ödenthaler Weg","postalCode":"93057","locality":"Regensburg","municipality":{"key":"09362000","name":"Regensburg","type":"Kreisfreie_Stadt"},"district":{"key":"09362","name":"Regensburg","type":"Kreisfreie_Stadt"},"federalState":{"key":"09","name":"Bayern"}},{"name":"Ödenthalweg","postalCode":"93057","locality":"Regensburg","municipality":{"key":"09362000","name":"Regensburg","type":"Kreisfreie_Stadt"},"district":{"key":"09362","name":"Regensburg","type":"Kreisfreie_Stadt"},"federalState":{"key":"09","name":"Bayern"}},]