[{"key":"10000771","name":"Amenloch","postalCode":"8416","locality":"Flaach","commune":{"key":"28","name":"Flaach","shortName":"Flaach"},"district":{"key":"102","name":"Bezirk Andelfingen"},"canton":{"key":"1","code":"ZH","name":"Zürich"},"status":"Real"},{"key":"10000772","name":"Andelfingerstrasse","postalCode":"8416","locality":"Flaach","commune":{"key":"28","name":"Flaach","shortName":"Flaach"},"district":{"key":"102","name":"Bezirk Andelfingen"},"canton":{"key":"1","code":"ZH","name":"Zürich"},"status":"Real"},{"key":"10088665","name":"Auen","postalCode":"8416","locality":"Flaach","commune":{"key":"28","name":"Flaach","shortName":"Flaach"},"district":{"key":"102","name":"Bezirk Andelfingen"},"canton":{"key":"1","code":"ZH","name":"Zürich"},"status":"Real"},{"key":"10247695","name":"Badiweg","postalCode":"8416","locality":"Flaach","commune":{"key":"28","name":"Flaach","shortName":"Flaach"},"district":{"key":"102","name":"Bezirk Andelfingen"},"canton":{"key":"1","code":"ZH","name":"Zürich"},"status":"Real"},{"key":"10025756","name":"Beim Schloss","postalCode":"8416","locality":"Flaach","commune":{"key":"28","name":"Flaach","shortName":"Flaach"},"district":{"key":"102","name":"Bezirk Andelfingen"},"canton":{"key":"1","code":"ZH","name":"Zürich"},"status":"Real"},{"key":"10069550","name":"Bergstrasse","postalCode":"8416","locality":"Flaach","commune":{"key":"28","name":"Flaach","shortName":"Flaach"},"district":{"key":"102","name":"Bezirk Andelfingen"},"canton":{"key":"1","code":"ZH","name":"Zürich"},"status":"Real"},{"key":"10057457","name":"Bertschi","postalCode":"8416","locality":"Flaach","commune":{"key":"28","name":"Flaach","shortName":"Flaach"},"district":{"key":"102","name":"Bezirk Andelfingen"},"canton":{"key":"1","code":"ZH","name":"Zürich"},"status":"Real"},{"key":"10067303","name":"Betternstrasse","postalCode":"8416","locality":"Flaach","commune":{"key":"28","name":"Flaach","shortName":"Flaach"},"district":{"key":"102","name":"Bezirk Andelfingen"},"canton":{"key":"1","code":"ZH","name":"Zürich"},"status":"Real"},{"key":"10114076","name":"Boden","postalCode":"8416","locality":"Flaach","commune":{"key":"28","name":"Flaach","shortName":"Flaach"},"district":{"key":"102","name":"Bezirk Andelfingen"},"canton":{"key":"1","code":"ZH","name":"Zürich"},"status":"Real"},{"key":"10153851","name":"Botzen","postalCode":"8416","locality":"Flaach","commune":{"key":"28","name":"Flaach","shortName":"Flaach"},"district":{"key":"102","name":"Bezirk Andelfingen"},"canton":{"key":"1","code":"ZH","name":"Zürich"},"status":"Real"},{"key":"10156721","name":"Botzengasse","postalCode":"8416","locality":"Flaach","commune":{"key":"28","name":"Flaach","shortName":"Flaach"},"district":{"key":"102","name":"Bezirk Andelfingen"},"canton":{"key":"1","code":"ZH","name":"Zürich"},"status":"Real"},{"key":"10000773","name":"Breiten","postalCode":"8416","locality":"Flaach","commune":{"key":"28","name":"Flaach","shortName":"Flaach"},"district":{"key":"102","name":"Bezirk Andelfingen"},"canton":{"key":"1","code":"ZH","name":"Zürich"},"status":"Real"},{"key":"10000774","name":"Buechehof","postalCode":"8416","locality":"Flaach","commune":{"key":"28","name":"Flaach","shortName":"Flaach"},"district":{"key":"102","name":"Bezirk Andelfingen"},"canton":{"key":"1","code":"ZH","name":"Zürich"},"status":"Real"},{"key":"10241307","name":"Buechenbrunnenstrasse","postalCode":"8416","locality":"Flaach","commune":{"key":"28","name":"Flaach","shortName":"Flaach"},"district":{"key":"102","name":"Bezirk Andelfingen"},"canton":{"key":"1","code":"ZH","name":"Zürich"},"status":"Real"},{"key":"10119733","name":"Büel","postalCode":"8416","locality":"Flaach","commune":{"key":"28","name":"Flaach","shortName":"Flaach"},"district":{"key":"102","name":"Bezirk Andelfingen"},"canton":{"key":"1","code":"ZH","name":"Zürich"},"status":"Real"},{"key":"10155410","name":"Chläfflerstrasse","postalCode":"8416","locality":"Flaach","commune":{"key":"28","name":"Flaach","shortName":"Flaach"},"district":{"key":"102","name":"Bezirk Andelfingen"},"canton":{"key":"1","code":"ZH","name":"Zürich"},"status":"Real"},{"key":"10134236","name":"Chrumben","postalCode":"8416","locality":"Flaach","commune":{"key":"28","name":"Flaach","shortName":"Flaach"},"district":{"key":"102","name":"Bezirk Andelfingen"},"canton":{"key":"1","code":"ZH","name":"Zürich"},"status":"Real"},{"key":"10051479","name":"Ebnet","postalCode":"8416","locality":"Flaach","commune":{"key":"28","name":"Flaach","shortName":"Flaach"},"district":{"key":"102","name":"Bezirk Andelfingen"},"canton":{"key":"1","code":"ZH","name":"Zürich"},"status":"Real"},{"key":"10241308","name":"Eichbüelstrasse","postalCode":"8416","locality":"Flaach","commune":{"key":"28","name":"Flaach","shortName":"Flaach"},"district":{"key":"102","name":"Bezirk Andelfingen"},"canton":{"key":"1","code":"ZH","name":"Zürich"},"status":"Real"},{"key":"10057458","name":"Eichhof","postalCode":"8416","locality":"Flaach","commune":{"key":"28","name":"Flaach","shortName":"Flaach"},"district":{"key":"102","name":"Bezirk Andelfingen"},"canton":{"key":"1","code":"ZH","name":"Zürich"},"status":"Real"},{"key":"10241311","name":"Eigentalweg","postalCode":"8416","locality":"Flaach","commune":{"key":"28","name":"Flaach","shortName":"Flaach"},"district":{"key":"102","name":"Bezirk Andelfingen"},"canton":{"key":"1","code":"ZH","name":"Zürich"},"status":"Real"},{"key":"10152551","name":"Ellikerstrasse","postalCode":"8416","locality":"Flaach","commune":{"key":"28","name":"Flaach","shortName":"Flaach"},"district":{"key":"102","name":"Bezirk Andelfingen"},"canton":{"key":"1","code":"ZH","name":"Zürich"},"status":"Real"},{"key":"10000775","name":"Engi","postalCode":"8416","locality":"Flaach","commune":{"key":"28","name":"Flaach","shortName":"Flaach"},"district":{"key":"102","name":"Bezirk Andelfingen"},"canton":{"key":"1","code":"ZH","name":"Zürich"},"status":"Real"},{"key":"10241315","name":"Engihäulistrasse","postalCode":"8416","locality":"Flaach","commune":{"key":"28","name":"Flaach","shortName":"Flaach"},"district":{"key":"102","name":"Bezirk Andelfingen"},"canton":{"key":"1","code":"ZH","name":"Zürich"},"status":"Real"},{"key":"10069551","name":"Feldhof","postalCode":"8416","locality":"Flaach","commune":{"key":"28","name":"Flaach","shortName":"Flaach"},"district":{"key":"102","name":"Bezirk Andelfingen"},"canton":{"key":"1","code":"ZH","name":"Zürich"},"status":"Real"},{"key":"10152552","name":"Forspitz","postalCode":"8416","locality":"Flaach","commune":{"key":"28","name":"Flaach","shortName":"Flaach"},"district":{"key":"102","name":"Bezirk Andelfingen"},"canton":{"key":"1","code":"ZH","name":"Zürich"},"status":"Real"},{"key":"10172972","name":"Gärtnerweg","postalCode":"8416","locality":"Flaach","commune":{"key":"28","name":"Flaach","shortName":"Flaach"},"district":{"key":"102","name":"Bezirk Andelfingen"},"canton":{"key":"1","code":"ZH","name":"Zürich"},"status":"Real"},{"key":"10152553","name":"Giessen","postalCode":"8416","locality":"Flaach","commune":{"key":"28","name":"Flaach","shortName":"Flaach"},"district":{"key":"102","name":"Bezirk Andelfingen"},"canton":{"key":"1","code":"ZH","name":"Zürich"},"status":"Real"},{"key":"10241313","name":"Gründenstrasse","postalCode":"8416","locality":"Flaach","commune":{"key":"28","name":"Flaach","shortName":"Flaach"},"district":{"key":"102","name":"Bezirk Andelfingen"},"canton":{"key":"1","code":"ZH","name":"Zürich"},"status":"Real"},{"key":"10072948","name":"Grundhof","postalCode":"8416","locality":"Flaach","commune":{"key":"28","name":"Flaach","shortName":"Flaach"},"district":{"key":"102","name":"Bezirk Andelfingen"},"canton":{"key":"1","code":"ZH","name":"Zürich"},"status":"Real"},{"key":"10110871","name":"Halden","postalCode":"8416","locality":"Flaach","commune":{"key":"28","name":"Flaach","shortName":"Flaach"},"district":{"key":"102","name":"Bezirk Andelfingen"},"canton":{"key":"1","code":"ZH","name":"Zürich"},"status":"Real"},{"key":"10126427","name":"Haldenweg","postalCode":"8416","locality":"Flaach","commune":{"key":"28","name":"Flaach","shortName":"Flaach"},"district":{"key":"102","name":"Bezirk Andelfingen"},"canton":{"key":"1","code":"ZH","name":"Zürich"},"status":"Real"},{"key":"10121313","name":"Hauptstrasse","postalCode":"8416","locality":"Flaach","commune":{"key":"28","name":"Flaach","shortName":"Flaach"},"district":{"key":"102","name":"Bezirk Andelfingen"},"canton":{"key":"1","code":"ZH","name":"Zürich"},"status":"Real"},{"key":"10067304","name":"Hüselenstrasse","postalCode":"8416","locality":"Flaach","commune":{"key":"28","name":"Flaach","shortName":"Flaach"},"district":{"key":"102","name":"Bezirk Andelfingen"},"canton":{"key":"1","code":"ZH","name":"Zürich"},"status":"Real"},{"key":"10000776","name":"Ifang","postalCode":"8416","locality":"Flaach","commune":{"key":"28","name":"Flaach","shortName":"Flaach"},"district":{"key":"102","name":"Bezirk Andelfingen"},"canton":{"key":"1","code":"ZH","name":"Zürich"},"status":"Real"},{"key":"10020593","name":"Im Feier","postalCode":"8416","locality":"Flaach","commune":{"key":"28","name":"Flaach","shortName":"Flaach"},"district":{"key":"102","name":"Bezirk Andelfingen"},"canton":{"key":"1","code":"ZH","name":"Zürich"},"status":"Real"},{"key":"10069552","name":"Im Langen","postalCode":"8416","locality":"Flaach","commune":{"key":"28","name":"Flaach","shortName":"Flaach"},"district":{"key":"102","name":"Bezirk Andelfingen"},"canton":{"key":"1","code":"ZH","name":"Zürich"},"status":"Real"},{"key":"10111692","name":"Im Lei","postalCode":"8416","locality":"Flaach","commune":{"key":"28","name":"Flaach","shortName":"Flaach"},"district":{"key":"102","name":"Bezirk Andelfingen"},"canton":{"key":"1","code":"ZH","name":"Zürich"},"status":"Real"},{"key":"10108008","name":"Im Moos","postalCode":"8416","locality":"Flaach","commune":{"key":"28","name":"Flaach","shortName":"Flaach"},"district":{"key":"102","name":"Bezirk Andelfingen"},"canton":{"key":"1","code":"ZH","name":"Zürich"},"status":"Real"},{"key":"10113333","name":"Im Rosengarten","postalCode":"8416","locality":"Flaach","commune":{"key":"28","name":"Flaach","shortName":"Flaach"},"district":{"key":"102","name":"Bezirk Andelfingen"},"canton":{"key":"1","code":"ZH","name":"Zürich"},"status":"Real"},{"key":"10000777","name":"Im Schuder","postalCode":"8416","locality":"Flaach","commune":{"key":"28","name":"Flaach","shortName":"Flaach"},"district":{"key":"102","name":"Bezirk Andelfingen"},"canton":{"key":"1","code":"ZH","name":"Zürich"},"status":"Real"},{"key":"10175868","name":"Im Winkel","postalCode":"8416","locality":"Flaach","commune":{"key":"28","name":"Flaach","shortName":"Flaach"},"district":{"key":"102","name":"Bezirk Andelfingen"},"canton":{"key":"1","code":"ZH","name":"Zürich"},"status":"Real"},{"key":"10000778","name":"Langenstrasse","postalCode":"8416","locality":"Flaach","commune":{"key":"28","name":"Flaach","shortName":"Flaach"},"district":{"key":"102","name":"Bezirk Andelfingen"},"canton":{"key":"1","code":"ZH","name":"Zürich"},"status":"Real"},{"key":"10165118","name":"Langenzüni","postalCode":"8416","locality":"Flaach","commune":{"key":"28","name":"Flaach","shortName":"Flaach"},"district":{"key":"102","name":"Bezirk Andelfingen"},"canton":{"key":"1","code":"ZH","name":"Zürich"},"status":"Real"},{"key":"10110872","name":"Moosstrasse","postalCode":"8416","locality":"Flaach","commune":{"key":"28","name":"Flaach","shortName":"Flaach"},"district":{"key":"102","name":"Bezirk Andelfingen"},"canton":{"key":"1","code":"ZH","name":"Zürich"},"status":"Real"},{"key":"10157272","name":"Mooswiesen","postalCode":"8416","locality":"Flaach","commune":{"key":"28","name":"Flaach","shortName":"Flaach"},"district":{"key":"102","name":"Bezirk Andelfingen"},"canton":{"key":"1","code":"ZH","name":"Zürich"},"status":"Real"},{"key":"10183522","name":"Mühlebergstrasse","postalCode":"8416","locality":"Flaach","commune":{"key":"28","name":"Flaach","shortName":"Flaach"},"district":{"key":"102","name":"Bezirk Andelfingen"},"canton":{"key":"1","code":"ZH","name":"Zürich"},"status":"Real"},{"key":"10150178","name":"Mülberg","postalCode":"8416","locality":"Flaach","commune":{"key":"28","name":"Flaach","shortName":"Flaach"},"district":{"key":"102","name":"Bezirk Andelfingen"},"canton":{"key":"1","code":"ZH","name":"Zürich"},"status":"Real"},{"key":"10057459","name":"Neugrüt","postalCode":"8416","locality":"Flaach","commune":{"key":"28","name":"Flaach","shortName":"Flaach"},"district":{"key":"102","name":"Bezirk Andelfingen"},"canton":{"key":"1","code":"ZH","name":"Zürich"},"status":"Real"},{"key":"10090237","name":"Neuguet","postalCode":"8416","locality":"Flaach","commune":{"key":"28","name":"Flaach","shortName":"Flaach"},"district":{"key":"102","name":"Bezirk Andelfingen"},"canton":{"key":"1","code":"ZH","name":"Zürich"},"status":"Real"},{"key":"10152554","name":"Neuwiesen","postalCode":"8416","locality":"Flaach","commune":{"key":"28","name":"Flaach","shortName":"Flaach"},"district":{"key":"102","name":"Bezirk Andelfingen"},"canton":{"key":"1","code":"ZH","name":"Zürich"},"status":"Real"},{"key":"10000779","name":"Oberdorfstrasse","postalCode":"8416","locality":"Flaach","commune":{"key":"28","name":"Flaach","shortName":"Flaach"},"district":{"key":"102","name":"Bezirk Andelfingen"},"canton":{"key":"1","code":"ZH","name":"Zürich"},"status":"Real"},{"key":"10069553","name":"Obere Haldenstrasse","postalCode":"8416","locality":"Flaach","commune":{"key":"28","name":"Flaach","shortName":"Flaach"},"district":{"key":"102","name":"Bezirk Andelfingen"},"canton":{"key":"1","code":"ZH","name":"Zürich"},"status":"Real"},{"key":"10057460","name":"Oberfeld","postalCode":"8416","locality":"Flaach","commune":{"key":"28","name":"Flaach","shortName":"Flaach"},"district":{"key":"102","name":"Bezirk Andelfingen"},"canton":{"key":"1","code":"ZH","name":"Zürich"},"status":"Real"},{"key":"10211144","name":"Oberhof","postalCode":"8416","locality":"Flaach","commune":{"key":"28","name":"Flaach","shortName":"Flaach"},"district":{"key":"102","name":"Bezirk Andelfingen"},"canton":{"key":"1","code":"ZH","name":"Zürich"},"status":"Real"},{"key":"10000780","name":"Obermühleweg","postalCode":"8416","locality":"Flaach","commune":{"key":"28","name":"Flaach","shortName":"Flaach"},"district":{"key":"102","name":"Bezirk Andelfingen"},"canton":{"key":"1","code":"ZH","name":"Zürich"},"status":"Real"},{"key":"10108009","name":"Obstgartenweg","postalCode":"8416","locality":"Flaach","commune":{"key":"28","name":"Flaach","shortName":"Flaach"},"district":{"key":"102","name":"Bezirk Andelfingen"},"canton":{"key":"1","code":"ZH","name":"Zürich"},"status":"Real"},{"key":"10000781","name":"Platte","postalCode":"8416","locality":"Flaach","commune":{"key":"28","name":"Flaach","shortName":"Flaach"},"district":{"key":"102","name":"Bezirk Andelfingen"},"canton":{"key":"1","code":"ZH","name":"Zürich"},"status":"Real"},{"key":"10111693","name":"Postgasse","postalCode":"8416","locality":"Flaach","commune":{"key":"28","name":"Flaach","shortName":"Flaach"},"district":{"key":"102","name":"Bezirk Andelfingen"},"canton":{"key":"1","code":"ZH","name":"Zürich"},"status":"Real"},{"key":"10152555","name":"Preusselen","postalCode":"8416","locality":"Flaach","commune":{"key":"28","name":"Flaach","shortName":"Flaach"},"district":{"key":"102","name":"Bezirk Andelfingen"},"canton":{"key":"1","code":"ZH","name":"Zürich"},"status":"Real"},{"key":"10241310","name":"Rainweg","postalCode":"8416","locality":"Flaach","commune":{"key":"28","name":"Flaach","shortName":"Flaach"},"district":{"key":"102","name":"Bezirk Andelfingen"},"canton":{"key":"1","code":"ZH","name":"Zürich"},"status":"Real"},{"key":"10000782","name":"Rebenstrasse","postalCode":"8416","locality":"Flaach","commune":{"key":"28","name":"Flaach","shortName":"Flaach"},"district":{"key":"102","name":"Bezirk Andelfingen"},"canton":{"key":"1","code":"ZH","name":"Zürich"},"status":"Real"},{"key":"10069554","name":"Rhyhof","postalCode":"8416","locality":"Flaach","commune":{"key":"28","name":"Flaach","shortName":"Flaach"},"district":{"key":"102","name":"Bezirk Andelfingen"},"canton":{"key":"1","code":"ZH","name":"Zürich"},"status":"Real"},{"key":"10241317","name":"Richliweg","postalCode":"8416","locality":"Flaach","commune":{"key":"28","name":"Flaach","shortName":"Flaach"},"district":{"key":"102","name":"Bezirk Andelfingen"},"canton":{"key":"1","code":"ZH","name":"Zürich"},"status":"Real"},{"key":"10090515","name":"Rietwies","postalCode":"8416","locality":"Flaach","commune":{"key":"28","name":"Flaach","shortName":"Flaach"},"district":{"key":"102","name":"Bezirk Andelfingen"},"canton":{"key":"1","code":"ZH","name":"Zürich"},"status":"Real"},{"key":"10241309","name":"Rietwiesstrasse","postalCode":"8416","locality":"Flaach","commune":{"key":"28","name":"Flaach","shortName":"Flaach"},"district":{"key":"102","name":"Bezirk Andelfingen"},"canton":{"key":"1","code":"ZH","name":"Zürich"},"status":"Real"},{"key":"10067305","name":"Rohnhofstrasse","postalCode":"8416","locality":"Flaach","commune":{"key":"28","name":"Flaach","shortName":"Flaach"},"district":{"key":"102","name":"Bezirk Andelfingen"},"canton":{"key":"1","code":"ZH","name":"Zürich"},"status":"Real"},{"key":"10089731","name":"Schloss Flaach","postalCode":"8416","locality":"Flaach","commune":{"key":"28","name":"Flaach","shortName":"Flaach"},"district":{"key":"102","name":"Bezirk Andelfingen"},"canton":{"key":"1","code":"ZH","name":"Zürich"},"status":"Real"},{"key":"10000783","name":"Schlosstrotte","postalCode":"8416","locality":"Flaach","commune":{"key":"28","name":"Flaach","shortName":"Flaach"},"district":{"key":"102","name":"Bezirk Andelfingen"},"canton":{"key":"1","code":"ZH","name":"Zürich"},"status":"Real"},{"key":"10072949","name":"Schnäggenbällerweg","postalCode":"8416","locality":"Flaach","commune":{"key":"28","name":"Flaach","shortName":"Flaach"},"district":{"key":"102","name":"Bezirk Andelfingen"},"canton":{"key":"1","code":"ZH","name":"Zürich"},"status":"Real"},{"key":"10110873","name":"Schollenberg","postalCode":"8416","locality":"Flaach","commune":{"key":"28","name":"Flaach","shortName":"Flaach"},"district":{"key":"102","name":"Bezirk Andelfingen"},"canton":{"key":"1","code":"ZH","name":"Zürich"},"status":"Real"},{"key":"10121314","name":"Schulhausstrasse","postalCode":"8416","locality":"Flaach","commune":{"key":"28","name":"Flaach","shortName":"Flaach"},"district":{"key":"102","name":"Bezirk Andelfingen"},"canton":{"key":"1","code":"ZH","name":"Zürich"},"status":"Real"},{"key":"10089733","name":"Stäubisallmend","postalCode":"8416","locality":"Flaach","commune":{"key":"28","name":"Flaach","shortName":"Flaach"},"district":{"key":"102","name":"Bezirk Andelfingen"},"canton":{"key":"1","code":"ZH","name":"Zürich"},"status":"Real"},{"key":"10067306","name":"Steig","postalCode":"8416","locality":"Flaach","commune":{"key":"28","name":"Flaach","shortName":"Flaach"},"district":{"key":"102","name":"Bezirk Andelfingen"},"canton":{"key":"1","code":"ZH","name":"Zürich"},"status":"Real"},{"key":"10067307","name":"Strehlgasse","postalCode":"8416","locality":"Flaach","commune":{"key":"28","name":"Flaach","shortName":"Flaach"},"district":{"key":"102","name":"Bezirk Andelfingen"},"canton":{"key":"1","code":"ZH","name":"Zürich"},"status":"Real"},{"key":"10241312","name":"Thurenpüntenstrasse","postalCode":"8416","locality":"Flaach","commune":{"key":"28","name":"Flaach","shortName":"Flaach"},"district":{"key":"102","name":"Bezirk Andelfingen"},"canton":{"key":"1","code":"ZH","name":"Zürich"},"status":"Real"},{"key":"10187510","name":"Thurhof","postalCode":"8416","locality":"Flaach","commune":{"key":"28","name":"Flaach","shortName":"Flaach"},"district":{"key":"102","name":"Bezirk Andelfingen"},"canton":{"key":"1","code":"ZH","name":"Zürich"},"status":"Real"},{"key":"10021729","name":"Trotthof","postalCode":"8416","locality":"Flaach","commune":{"key":"28","name":"Flaach","shortName":"Flaach"},"district":{"key":"102","name":"Bezirk Andelfingen"},"canton":{"key":"1","code":"ZH","name":"Zürich"},"status":"Real"},{"key":"10080902","name":"Tuechstrasse","postalCode":"8416","locality":"Flaach","commune":{"key":"28","name":"Flaach","shortName":"Flaach"},"district":{"key":"102","name":"Bezirk Andelfingen"},"canton":{"key":"1","code":"ZH","name":"Zürich"},"status":"Real"},{"key":"10241314","name":"Unterer Schnäggenbällerweg","postalCode":"8416","locality":"Flaach","commune":{"key":"28","name":"Flaach","shortName":"Flaach"},"district":{"key":"102","name":"Bezirk Andelfingen"},"canton":{"key":"1","code":"ZH","name":"Zürich"},"status":"Real"},{"key":"10000784","name":"Untermühleweg","postalCode":"8416","locality":"Flaach","commune":{"key":"28","name":"Flaach","shortName":"Flaach"},"district":{"key":"102","name":"Bezirk Andelfingen"},"canton":{"key":"1","code":"ZH","name":"Zürich"},"status":"Real"},{"key":"10241316","name":"Unterwidenstrasse","postalCode":"8416","locality":"Flaach","commune":{"key":"28","name":"Flaach","shortName":"Flaach"},"district":{"key":"102","name":"Bezirk Andelfingen"},"canton":{"key":"1","code":"ZH","name":"Zürich"},"status":"Real"},{"key":"10020625","name":"Unterwyden","postalCode":"8416","locality":"Flaach","commune":{"key":"28","name":"Flaach","shortName":"Flaach"},"district":{"key":"102","name":"Bezirk Andelfingen"},"canton":{"key":"1","code":"ZH","name":"Zürich"},"status":"Real"},{"key":"10080903","name":"Waldhof","postalCode":"8416","locality":"Flaach","commune":{"key":"28","name":"Flaach","shortName":"Flaach"},"district":{"key":"102","name":"Bezirk Andelfingen"},"canton":{"key":"1","code":"ZH","name":"Zürich"},"status":"Real"},{"key":"10000785","name":"Webergasse","postalCode":"8416","locality":"Flaach","commune":{"key":"28","name":"Flaach","shortName":"Flaach"},"district":{"key":"102","name":"Bezirk Andelfingen"},"canton":{"key":"1","code":"ZH","name":"Zürich"},"status":"Real"},{"key":"10118080","name":"Werdhof","postalCode":"8416","locality":"Flaach","commune":{"key":"28","name":"Flaach","shortName":"Flaach"},"district":{"key":"102","name":"Bezirk Andelfingen"},"canton":{"key":"1","code":"ZH","name":"Zürich"},"status":"Real"},{"key":"10150179","name":"Werdhölzli","postalCode":"8416","locality":"Flaach","commune":{"key":"28","name":"Flaach","shortName":"Flaach"},"district":{"key":"102","name":"Bezirk Andelfingen"},"canton":{"key":"1","code":"ZH","name":"Zürich"},"status":"Real"},{"key":"10110874","name":"Wesenplatz","postalCode":"8416","locality":"Flaach","commune":{"key":"28","name":"Flaach","shortName":"Flaach"},"district":{"key":"102","name":"Bezirk Andelfingen"},"canton":{"key":"1","code":"ZH","name":"Zürich"},"status":"Real"},{"key":"10150180","name":"Wolau","postalCode":"8416","locality":"Flaach","commune":{"key":"28","name":"Flaach","shortName":"Flaach"},"district":{"key":"102","name":"Bezirk Andelfingen"},"canton":{"key":"1","code":"ZH","name":"Zürich"},"status":"Real"},{"key":"10000786","name":"Wolfrain","postalCode":"8416","locality":"Flaach","commune":{"key":"28","name":"Flaach","shortName":"Flaach"},"district":{"key":"102","name":"Bezirk Andelfingen"},"canton":{"key":"1","code":"ZH","name":"Zürich"},"status":"Real"},{"key":"10067308","name":"Worbigstrasse","postalCode":"8416","locality":"Flaach","commune":{"key":"28","name":"Flaach","shortName":"Flaach"},"district":{"key":"102","name":"Bezirk Andelfingen"},"canton":{"key":"1","code":"ZH","name":"Zürich"},"status":"Real"},{"key":"10128121","name":"Worrenberg","postalCode":"8416","locality":"Flaach","commune":{"key":"28","name":"Flaach","shortName":"Flaach"},"district":{"key":"102","name":"Bezirk Andelfingen"},"canton":{"key":"1","code":"ZH","name":"Zürich"},"status":"Real"},{"key":"10057461","name":"Wydhof","postalCode":"8416","locality":"Flaach","commune":{"key":"28","name":"Flaach","shortName":"Flaach"},"district":{"key":"102","name":"Bezirk Andelfingen"},"canton":{"key":"1","code":"ZH","name":"Zürich"},"status":"Real"},{"key":"10130068","name":"Ziegelhütte","postalCode":"8416","locality":"Flaach","commune":{"key":"28","name":"Flaach","shortName":"Flaach"},"district":{"key":"102","name":"Bezirk Andelfingen"},"canton":{"key":"1","code":"ZH","name":"Zürich"},"status":"Real"},]