[{"name":"Altensteiger Str.","postalCode":"72299","locality":"Wörnersberg","municipality":{"key":"08237072","name":"Wörnersberg","type":"Kreisangehörige_Gemeinde"},"district":{"key":"08237","name":"Freudenstadt","type":"Landkreis"},"federalState":{"key":"08","name":"Baden-Württemberg"}},{"name":"Backer-Frieder-Weg","postalCode":"72250","locality":"Freudenstadt","municipality":{"key":"08237028","name":"Freudenstadt, Stadt","type":"Große_Kreisstadt"},"district":{"key":"08237","name":"Freudenstadt","type":"Landkreis"},"federalState":{"key":"08","name":"Baden-Württemberg"}},{"name":"Badstr.","postalCode":"72250","locality":"Freudenstadt","municipality":{"key":"08237028","name":"Freudenstadt, Stadt","type":"Große_Kreisstadt"},"district":{"key":"08237","name":"Freudenstadt","type":"Landkreis"},"federalState":{"key":"08","name":"Baden-Württemberg"}},{"name":"Bahnhofstr.","postalCode":"72250","locality":"Freudenstadt","municipality":{"key":"08237028","name":"Freudenstadt, Stadt","type":"Große_Kreisstadt"},"district":{"key":"08237","name":"Freudenstadt","type":"Landkreis"},"federalState":{"key":"08","name":"Baden-Württemberg"}},{"name":"Baiersbronner Sträßle","postalCode":"72250","locality":"Freudenstadt","municipality":{"key":"08237028","name":"Freudenstadt, Stadt","type":"Große_Kreisstadt"},"district":{"key":"08237","name":"Freudenstadt","type":"Landkreis"},"federalState":{"key":"08","name":"Baden-Württemberg"}},{"name":"Balderhofergraben","postalCode":"72250","locality":"Freudenstadt","municipality":{"key":"08237028","name":"Freudenstadt, Stadt","type":"Große_Kreisstadt"},"district":{"key":"08237","name":"Freudenstadt","type":"Landkreis"},"federalState":{"key":"08","name":"Baden-Württemberg"}},{"name":"Bärenwiesen","postalCode":"72250","locality":"Freudenstadt","municipality":{"key":"08237028","name":"Freudenstadt, Stadt","type":"Große_Kreisstadt"},"district":{"key":"08237","name":"Freudenstadt","type":"Landkreis"},"federalState":{"key":"08","name":"Baden-Württemberg"}},{"name":"Bärenwiesenweg","postalCode":"72250","locality":"Freudenstadt","municipality":{"key":"08237028","name":"Freudenstadt, Stadt","type":"Große_Kreisstadt"},"district":{"key":"08237","name":"Freudenstadt","type":"Landkreis"},"federalState":{"key":"08","name":"Baden-Württemberg"}},{"name":"Bässler Brücke","postalCode":"72250","locality":"Freudenstadt","municipality":{"key":"08237028","name":"Freudenstadt, Stadt","type":"Große_Kreisstadt"},"district":{"key":"08237","name":"Freudenstadt","type":"Landkreis"},"federalState":{"key":"08","name":"Baden-Württemberg"}},{"name":"Beethovenstr.","postalCode":"72250","locality":"Freudenstadt","municipality":{"key":"08237028","name":"Freudenstadt, Stadt","type":"Große_Kreisstadt"},"district":{"key":"08237","name":"Freudenstadt","type":"Landkreis"},"federalState":{"key":"08","name":"Baden-Württemberg"}},{"name":"Beißzange","postalCode":"72250","locality":"Freudenstadt","municipality":{"key":"08237028","name":"Freudenstadt, Stadt","type":"Große_Kreisstadt"},"district":{"key":"08237","name":"Freudenstadt","type":"Landkreis"},"federalState":{"key":"08","name":"Baden-Württemberg"}},{"name":"Bekerfriederweg","postalCode":"72250","locality":"Freudenstadt","municipality":{"key":"08237028","name":"Freudenstadt, Stadt","type":"Große_Kreisstadt"},"district":{"key":"08237","name":"Freudenstadt","type":"Landkreis"},"federalState":{"key":"08","name":"Baden-Württemberg"}},{"name":"Benzinger Str.","postalCode":"72250","locality":"Freudenstadt","municipality":{"key":"08237028","name":"Freudenstadt, Stadt","type":"Große_Kreisstadt"},"district":{"key":"08237","name":"Freudenstadt","type":"Landkreis"},"federalState":{"key":"08","name":"Baden-Württemberg"}},{"name":"Berblingerweg","postalCode":"72250","locality":"Freudenstadt","municipality":{"key":"08237028","name":"Freudenstadt, Stadt","type":"Große_Kreisstadt"},"district":{"key":"08237","name":"Freudenstadt","type":"Landkreis"},"federalState":{"key":"08","name":"Baden-Württemberg"}},{"name":"Bergstr.","postalCode":"72250","locality":"Freudenstadt","municipality":{"key":"08237028","name":"Freudenstadt, Stadt","type":"Große_Kreisstadt"},"district":{"key":"08237","name":"Freudenstadt","type":"Landkreis"},"federalState":{"key":"08","name":"Baden-Württemberg"}},{"name":"Bernbachhaldenweg","postalCode":"72250","locality":"Freudenstadt","municipality":{"key":"08237028","name":"Freudenstadt, Stadt","type":"Große_Kreisstadt"},"district":{"key":"08237","name":"Freudenstadt","type":"Landkreis"},"federalState":{"key":"08","name":"Baden-Württemberg"}},{"name":"Besenfelder Weg","postalCode":"72250","locality":"Freudenstadt","municipality":{"key":"08237028","name":"Freudenstadt, Stadt","type":"Große_Kreisstadt"},"district":{"key":"08237","name":"Freudenstadt","type":"Landkreis"},"federalState":{"key":"08","name":"Baden-Württemberg"}},{"name":"Biegel","postalCode":"72250","locality":"Freudenstadt","municipality":{"key":"08237028","name":"Freudenstadt, Stadt","type":"Große_Kreisstadt"},"district":{"key":"08237","name":"Freudenstadt","type":"Landkreis"},"federalState":{"key":"08","name":"Baden-Württemberg"}},{"name":"Birkenwaldstr.","postalCode":"72250","locality":"Freudenstadt","municipality":{"key":"08237028","name":"Freudenstadt, Stadt","type":"Große_Kreisstadt"},"district":{"key":"08237","name":"Freudenstadt","type":"Landkreis"},"federalState":{"key":"08","name":"Baden-Württemberg"}},{"name":"Birkenweg","postalCode":"72250","locality":"Freudenstadt","municipality":{"key":"08237028","name":"Freudenstadt, Stadt","type":"Große_Kreisstadt"},"district":{"key":"08237","name":"Freudenstadt","type":"Landkreis"},"federalState":{"key":"08","name":"Baden-Württemberg"}},{"name":"Bismarckstr.","postalCode":"72250","locality":"Freudenstadt","municipality":{"key":"08237028","name":"Freudenstadt, Stadt","type":"Große_Kreisstadt"},"district":{"key":"08237","name":"Freudenstadt","type":"Landkreis"},"federalState":{"key":"08","name":"Baden-Württemberg"}},{"name":"Blaicherstr.","postalCode":"72250","locality":"Freudenstadt","municipality":{"key":"08237028","name":"Freudenstadt, Stadt","type":"Große_Kreisstadt"},"district":{"key":"08237","name":"Freudenstadt","type":"Landkreis"},"federalState":{"key":"08","name":"Baden-Württemberg"}},{"name":"Blumengässle","postalCode":"72250","locality":"Freudenstadt","municipality":{"key":"08237028","name":"Freudenstadt, Stadt","type":"Große_Kreisstadt"},"district":{"key":"08237","name":"Freudenstadt","type":"Landkreis"},"federalState":{"key":"08","name":"Baden-Württemberg"}},{"name":"Blumenweg","postalCode":"72250","locality":"Freudenstadt","municipality":{"key":"08237028","name":"Freudenstadt, Stadt","type":"Große_Kreisstadt"},"district":{"key":"08237","name":"Freudenstadt","type":"Landkreis"},"federalState":{"key":"08","name":"Baden-Württemberg"}},{"name":"Bodelschwinghstr.","postalCode":"72250","locality":"Freudenstadt","municipality":{"key":"08237028","name":"Freudenstadt, Stadt","type":"Große_Kreisstadt"},"district":{"key":"08237","name":"Freudenstadt","type":"Landkreis"},"federalState":{"key":"08","name":"Baden-Württemberg"}},{"name":"Böhringerweg","postalCode":"72250","locality":"Freudenstadt","municipality":{"key":"08237028","name":"Freudenstadt, Stadt","type":"Große_Kreisstadt"},"district":{"key":"08237","name":"Freudenstadt","type":"Landkreis"},"federalState":{"key":"08","name":"Baden-Württemberg"}},{"name":"Brand","postalCode":"72250","locality":"Freudenstadt","municipality":{"key":"08237028","name":"Freudenstadt, Stadt","type":"Große_Kreisstadt"},"district":{"key":"08237","name":"Freudenstadt","type":"Landkreis"},"federalState":{"key":"08","name":"Baden-Württemberg"}},{"name":"Brandströmstr.","postalCode":"72250","locality":"Freudenstadt","municipality":{"key":"08237028","name":"Freudenstadt, Stadt","type":"Große_Kreisstadt"},"district":{"key":"08237","name":"Freudenstadt","type":"Landkreis"},"federalState":{"key":"08","name":"Baden-Württemberg"}},{"name":"Breslauer Str.","postalCode":"72250","locality":"Freudenstadt","municipality":{"key":"08237028","name":"Freudenstadt, Stadt","type":"Große_Kreisstadt"},"district":{"key":"08237","name":"Freudenstadt","type":"Landkreis"},"federalState":{"key":"08","name":"Baden-Württemberg"}},{"name":"Briegelstr.","postalCode":"72250","locality":"Freudenstadt","municipality":{"key":"08237028","name":"Freudenstadt, Stadt","type":"Große_Kreisstadt"},"district":{"key":"08237","name":"Freudenstadt","type":"Landkreis"},"federalState":{"key":"08","name":"Baden-Württemberg"}},{"name":"Brunnenstr.","postalCode":"72250","locality":"Freudenstadt","municipality":{"key":"08237028","name":"Freudenstadt, Stadt","type":"Große_Kreisstadt"},"district":{"key":"08237","name":"Freudenstadt","type":"Landkreis"},"federalState":{"key":"08","name":"Baden-Württemberg"}},{"name":"Brunnentrögerweg","postalCode":"72250","locality":"Freudenstadt","municipality":{"key":"08237028","name":"Freudenstadt, Stadt","type":"Große_Kreisstadt"},"district":{"key":"08237","name":"Freudenstadt","type":"Landkreis"},"federalState":{"key":"08","name":"Baden-Württemberg"}},{"name":"Brünnlesweg","postalCode":"72250","locality":"Freudenstadt","municipality":{"key":"08237028","name":"Freudenstadt, Stadt","type":"Große_Kreisstadt"},"district":{"key":"08237","name":"Freudenstadt","type":"Landkreis"},"federalState":{"key":"08","name":"Baden-Württemberg"}},{"name":"Buchrainweg","postalCode":"72250","locality":"Freudenstadt","municipality":{"key":"08237028","name":"Freudenstadt, Stadt","type":"Große_Kreisstadt"},"district":{"key":"08237","name":"Freudenstadt","type":"Landkreis"},"federalState":{"key":"08","name":"Baden-Württemberg"}},{"name":"Bühlweg","postalCode":"72250","locality":"Freudenstadt","municipality":{"key":"08237028","name":"Freudenstadt, Stadt","type":"Große_Kreisstadt"},"district":{"key":"08237","name":"Freudenstadt","type":"Landkreis"},"federalState":{"key":"08","name":"Baden-Württemberg"}},{"name":"Burgkopfweg","postalCode":"72250","locality":"Freudenstadt","municipality":{"key":"08237028","name":"Freudenstadt, Stadt","type":"Große_Kreisstadt"},"district":{"key":"08237","name":"Freudenstadt","type":"Landkreis"},"federalState":{"key":"08","name":"Baden-Württemberg"}},{"name":"Carl-Beer-Str.","postalCode":"72250","locality":"Freudenstadt","municipality":{"key":"08237028","name":"Freudenstadt, Stadt","type":"Große_Kreisstadt"},"district":{"key":"08237","name":"Freudenstadt","type":"Landkreis"},"federalState":{"key":"08","name":"Baden-Württemberg"}},{"name":"Carl-Benz-Str.","postalCode":"72250","locality":"Freudenstadt","municipality":{"key":"08237028","name":"Freudenstadt, Stadt","type":"Große_Kreisstadt"},"district":{"key":"08237","name":"Freudenstadt","type":"Landkreis"},"federalState":{"key":"08","name":"Baden-Württemberg"}},{"name":"Carl-Zeiss-Str.","postalCode":"72250","locality":"Freudenstadt","municipality":{"key":"08237028","name":"Freudenstadt, Stadt","type":"Große_Kreisstadt"},"district":{"key":"08237","name":"Freudenstadt","type":"Landkreis"},"federalState":{"key":"08","name":"Baden-Württemberg"}},{"name":"Christophstaler Steige","postalCode":"72250","locality":"Freudenstadt","municipality":{"key":"08237028","name":"Freudenstadt, Stadt","type":"Große_Kreisstadt"},"district":{"key":"08237","name":"Freudenstadt","type":"Landkreis"},"federalState":{"key":"08","name":"Baden-Württemberg"}},{"name":"Christophstr.","postalCode":"72250","locality":"Freudenstadt","municipality":{"key":"08237028","name":"Freudenstadt, Stadt","type":"Große_Kreisstadt"},"district":{"key":"08237","name":"Freudenstadt","type":"Landkreis"},"federalState":{"key":"08","name":"Baden-Württemberg"}},{"name":"Clara-Schumann-Weg","postalCode":"72250","locality":"Freudenstadt","municipality":{"key":"08237028","name":"Freudenstadt, Stadt","type":"Große_Kreisstadt"},"district":{"key":"08237","name":"Freudenstadt","type":"Landkreis"},"federalState":{"key":"08","name":"Baden-Württemberg"}},{"name":"Danziger Str.","postalCode":"72250","locality":"Freudenstadt","municipality":{"key":"08237028","name":"Freudenstadt, Stadt","type":"Große_Kreisstadt"},"district":{"key":"08237","name":"Freudenstadt","type":"Landkreis"},"federalState":{"key":"08","name":"Baden-Württemberg"}},{"name":"Deutzstr.","postalCode":"72250","locality":"Freudenstadt","municipality":{"key":"08237028","name":"Freudenstadt, Stadt","type":"Große_Kreisstadt"},"district":{"key":"08237","name":"Freudenstadt","type":"Landkreis"},"federalState":{"key":"08","name":"Baden-Württemberg"}},{"name":"Dietersweiler Str.","postalCode":"72250","locality":"Freudenstadt","municipality":{"key":"08237028","name":"Freudenstadt, Stadt","type":"Große_Kreisstadt"},"district":{"key":"08237","name":"Freudenstadt","type":"Landkreis"},"federalState":{"key":"08","name":"Baden-Württemberg"}},{"name":"Dietrichstr.","postalCode":"72250","locality":"Freudenstadt","municipality":{"key":"08237028","name":"Freudenstadt, Stadt","type":"Große_Kreisstadt"},"district":{"key":"08237","name":"Freudenstadt","type":"Landkreis"},"federalState":{"key":"08","name":"Baden-Württemberg"}},{"name":"Dinkelweg","postalCode":"72250","locality":"Freudenstadt","municipality":{"key":"08237028","name":"Freudenstadt, Stadt","type":"Große_Kreisstadt"},"district":{"key":"08237","name":"Freudenstadt","type":"Landkreis"},"federalState":{"key":"08","name":"Baden-Württemberg"}},{"name":"Dobelweg","postalCode":"72250","locality":"Freudenstadt","municipality":{"key":"08237028","name":"Freudenstadt, Stadt","type":"Große_Kreisstadt"},"district":{"key":"08237","name":"Freudenstadt","type":"Landkreis"},"federalState":{"key":"08","name":"Baden-Württemberg"}},{"name":"Dölleweg","postalCode":"72250","locality":"Freudenstadt","municipality":{"key":"08237028","name":"Freudenstadt, Stadt","type":"Große_Kreisstadt"},"district":{"key":"08237","name":"Freudenstadt","type":"Landkreis"},"federalState":{"key":"08","name":"Baden-Württemberg"}},{"name":"Dompfaffenweg","postalCode":"72250","locality":"Freudenstadt","municipality":{"key":"08237028","name":"Freudenstadt, Stadt","type":"Große_Kreisstadt"},"district":{"key":"08237","name":"Freudenstadt","type":"Landkreis"},"federalState":{"key":"08","name":"Baden-Württemberg"}},{"name":"Dorfwiesen","postalCode":"72250","locality":"Freudenstadt","municipality":{"key":"08237028","name":"Freudenstadt, Stadt","type":"Große_Kreisstadt"},"district":{"key":"08237","name":"Freudenstadt","type":"Landkreis"},"federalState":{"key":"08","name":"Baden-Württemberg"}},{"name":"Dornstetter Str.","postalCode":"72250","locality":"Freudenstadt","municipality":{"key":"08237028","name":"Freudenstadt, Stadt","type":"Große_Kreisstadt"},"district":{"key":"08237","name":"Freudenstadt","type":"Landkreis"},"federalState":{"key":"08","name":"Baden-Württemberg"}},{"name":"Drittenbach","postalCode":"72250","locality":"Freudenstadt","municipality":{"key":"08237028","name":"Freudenstadt, Stadt","type":"Große_Kreisstadt"},"district":{"key":"08237","name":"Freudenstadt","type":"Landkreis"},"federalState":{"key":"08","name":"Baden-Württemberg"}},{"name":"Drosselweg","postalCode":"72250","locality":"Freudenstadt","municipality":{"key":"08237028","name":"Freudenstadt, Stadt","type":"Große_Kreisstadt"},"district":{"key":"08237","name":"Freudenstadt","type":"Landkreis"},"federalState":{"key":"08","name":"Baden-Württemberg"}},{"name":"Duftrosenpark Kienberg","postalCode":"72250","locality":"Freudenstadt","municipality":{"key":"08237028","name":"Freudenstadt, Stadt","type":"Große_Kreisstadt"},"district":{"key":"08237","name":"Freudenstadt","type":"Landkreis"},"federalState":{"key":"08","name":"Baden-Württemberg"}},{"name":"Dungweg","postalCode":"72250","locality":"Freudenstadt","municipality":{"key":"08237028","name":"Freudenstadt, Stadt","type":"Große_Kreisstadt"},"district":{"key":"08237","name":"Freudenstadt","type":"Landkreis"},"federalState":{"key":"08","name":"Baden-Württemberg"}},{"name":"Dürrbachmähder","postalCode":"72250","locality":"Freudenstadt","municipality":{"key":"08237028","name":"Freudenstadt, Stadt","type":"Große_Kreisstadt"},"district":{"key":"08237","name":"Freudenstadt","type":"Landkreis"},"federalState":{"key":"08","name":"Baden-Württemberg"}},{"name":"Dürrbachweg","postalCode":"72250","locality":"Freudenstadt","municipality":{"key":"08237028","name":"Freudenstadt, Stadt","type":"Große_Kreisstadt"},"district":{"key":"08237","name":"Freudenstadt","type":"Landkreis"},"federalState":{"key":"08","name":"Baden-Württemberg"}},{"name":"Dürrengässle","postalCode":"72250","locality":"Freudenstadt","municipality":{"key":"08237028","name":"Freudenstadt, Stadt","type":"Große_Kreisstadt"},"district":{"key":"08237","name":"Freudenstadt","type":"Landkreis"},"federalState":{"key":"08","name":"Baden-Württemberg"}},{"name":"Eichelbachstr.","postalCode":"72250","locality":"Freudenstadt","municipality":{"key":"08237028","name":"Freudenstadt, Stadt","type":"Große_Kreisstadt"},"district":{"key":"08237","name":"Freudenstadt","type":"Landkreis"},"federalState":{"key":"08","name":"Baden-Württemberg"}},{"name":"Eichwaldweg","postalCode":"72250","locality":"Freudenstadt","municipality":{"key":"08237028","name":"Freudenstadt, Stadt","type":"Große_Kreisstadt"},"district":{"key":"08237","name":"Freudenstadt","type":"Landkreis"},"federalState":{"key":"08","name":"Baden-Württemberg"}},{"name":"Einsteinstr.","postalCode":"72250","locality":"Freudenstadt","municipality":{"key":"08237028","name":"Freudenstadt, Stadt","type":"Große_Kreisstadt"},"district":{"key":"08237","name":"Freudenstadt","type":"Landkreis"},"federalState":{"key":"08","name":"Baden-Württemberg"}},{"name":"Eisweiherstr.","postalCode":"72250","locality":"Freudenstadt","municipality":{"key":"08237028","name":"Freudenstadt, Stadt","type":"Große_Kreisstadt"},"district":{"key":"08237","name":"Freudenstadt","type":"Landkreis"},"federalState":{"key":"08","name":"Baden-Württemberg"}},{"name":"Ellbachseeweg","postalCode":"72250","locality":"Freudenstadt","municipality":{"key":"08237028","name":"Freudenstadt, Stadt","type":"Große_Kreisstadt"},"district":{"key":"08237","name":"Freudenstadt","type":"Landkreis"},"federalState":{"key":"08","name":"Baden-Württemberg"}},{"name":"Elzenbronnenweg","postalCode":"72250","locality":"Freudenstadt","municipality":{"key":"08237028","name":"Freudenstadt, Stadt","type":"Große_Kreisstadt"},"district":{"key":"08237","name":"Freudenstadt","type":"Landkreis"},"federalState":{"key":"08","name":"Baden-Württemberg"}},{"name":"Elzenbrunnensträßle","postalCode":"72250","locality":"Freudenstadt","municipality":{"key":"08237028","name":"Freudenstadt, Stadt","type":"Große_Kreisstadt"},"district":{"key":"08237","name":"Freudenstadt","type":"Landkreis"},"federalState":{"key":"08","name":"Baden-Württemberg"}},{"name":"Eppeneckstr.","postalCode":"72250","locality":"Freudenstadt","municipality":{"key":"08237028","name":"Freudenstadt, Stadt","type":"Große_Kreisstadt"},"district":{"key":"08237","name":"Freudenstadt","type":"Landkreis"},"federalState":{"key":"08","name":"Baden-Württemberg"}},{"name":"Erlenweg","postalCode":"72250","locality":"Freudenstadt","municipality":{"key":"08237028","name":"Freudenstadt, Stadt","type":"Große_Kreisstadt"},"district":{"key":"08237","name":"Freudenstadt","type":"Landkreis"},"federalState":{"key":"08","name":"Baden-Württemberg"}},{"name":"Ernst-Luz-Weg","postalCode":"72250","locality":"Freudenstadt","municipality":{"key":"08237028","name":"Freudenstadt, Stadt","type":"Große_Kreisstadt"},"district":{"key":"08237","name":"Freudenstadt","type":"Landkreis"},"federalState":{"key":"08","name":"Baden-Württemberg"}},{"name":"Ernst-Ruisinger-Weg","postalCode":"72250","locality":"Freudenstadt","municipality":{"key":"08237028","name":"Freudenstadt, Stadt","type":"Große_Kreisstadt"},"district":{"key":"08237","name":"Freudenstadt","type":"Landkreis"},"federalState":{"key":"08","name":"Baden-Württemberg"}},{"name":"Erwin-Hils-Weg","postalCode":"72250","locality":"Freudenstadt","municipality":{"key":"08237028","name":"Freudenstadt, Stadt","type":"Große_Kreisstadt"},"district":{"key":"08237","name":"Freudenstadt","type":"Landkreis"},"federalState":{"key":"08","name":"Baden-Württemberg"}},{"name":"Ettenbachweg","postalCode":"72250","locality":"Freudenstadt","municipality":{"key":"08237028","name":"Freudenstadt, Stadt","type":"Große_Kreisstadt"},"district":{"key":"08237","name":"Freudenstadt","type":"Landkreis"},"federalState":{"key":"08","name":"Baden-Württemberg"}},{"name":"Eugen-King-Str.","postalCode":"72250","locality":"Freudenstadt","municipality":{"key":"08237028","name":"Freudenstadt, Stadt","type":"Große_Kreisstadt"},"district":{"key":"08237","name":"Freudenstadt","type":"Landkreis"},"federalState":{"key":"08","name":"Baden-Württemberg"}},{"name":"Eugen-Nägele-Str.","postalCode":"72250","locality":"Freudenstadt","municipality":{"key":"08237028","name":"Freudenstadt, Stadt","type":"Große_Kreisstadt"},"district":{"key":"08237","name":"Freudenstadt","type":"Landkreis"},"federalState":{"key":"08","name":"Baden-Württemberg"}},{"name":"Exkursionsweg","postalCode":"72250","locality":"Freudenstadt","municipality":{"key":"08237028","name":"Freudenstadt, Stadt","type":"Große_Kreisstadt"},"district":{"key":"08237","name":"Freudenstadt","type":"Landkreis"},"federalState":{"key":"08","name":"Baden-Württemberg"}},{"name":"Falkenstr.","postalCode":"72250","locality":"Freudenstadt","municipality":{"key":"08237028","name":"Freudenstadt, Stadt","type":"Große_Kreisstadt"},"district":{"key":"08237","name":"Freudenstadt","type":"Landkreis"},"federalState":{"key":"08","name":"Baden-Württemberg"}},{"name":"Färberstr.","postalCode":"72250","locality":"Freudenstadt","municipality":{"key":"08237028","name":"Freudenstadt, Stadt","type":"Große_Kreisstadt"},"district":{"key":"08237","name":"Freudenstadt","type":"Landkreis"},"federalState":{"key":"08","name":"Baden-Württemberg"}},{"name":"Farinastr.","postalCode":"72250","locality":"Freudenstadt","municipality":{"key":"08237028","name":"Freudenstadt, Stadt","type":"Große_Kreisstadt"},"district":{"key":"08237","name":"Freudenstadt","type":"Landkreis"},"federalState":{"key":"08","name":"Baden-Württemberg"}},{"name":"Feilenhauerstr.","postalCode":"72250","locality":"Freudenstadt","municipality":{"key":"08237028","name":"Freudenstadt, Stadt","type":"Große_Kreisstadt"},"district":{"key":"08237","name":"Freudenstadt","type":"Landkreis"},"federalState":{"key":"08","name":"Baden-Württemberg"}},{"name":"Feuerwehrwegle","postalCode":"72250","locality":"Freudenstadt","municipality":{"key":"08237028","name":"Freudenstadt, Stadt","type":"Große_Kreisstadt"},"district":{"key":"08237","name":"Freudenstadt","type":"Landkreis"},"federalState":{"key":"08","name":"Baden-Württemberg"}},{"name":"Finkenbergstr.","postalCode":"72250","locality":"Freudenstadt","municipality":{"key":"08237028","name":"Freudenstadt, Stadt","type":"Große_Kreisstadt"},"district":{"key":"08237","name":"Freudenstadt","type":"Landkreis"},"federalState":{"key":"08","name":"Baden-Württemberg"}},{"name":"Finkenweg","postalCode":"72250","locality":"Freudenstadt","municipality":{"key":"08237028","name":"Freudenstadt, Stadt","type":"Große_Kreisstadt"},"district":{"key":"08237","name":"Freudenstadt","type":"Landkreis"},"federalState":{"key":"08","name":"Baden-Württemberg"}},{"name":"Finkenwiese","postalCode":"72250","locality":"Freudenstadt","municipality":{"key":"08237028","name":"Freudenstadt, Stadt","type":"Große_Kreisstadt"},"district":{"key":"08237","name":"Freudenstadt","type":"Landkreis"},"federalState":{"key":"08","name":"Baden-Württemberg"}},{"name":"Finsterteichweg","postalCode":"72250","locality":"Freudenstadt","municipality":{"key":"08237028","name":"Freudenstadt, Stadt","type":"Große_Kreisstadt"},"district":{"key":"08237","name":"Freudenstadt","type":"Landkreis"},"federalState":{"key":"08","name":"Baden-Württemberg"}},{"name":"Fliederweg","postalCode":"72250","locality":"Freudenstadt","municipality":{"key":"08237028","name":"Freudenstadt, Stadt","type":"Große_Kreisstadt"},"district":{"key":"08237","name":"Freudenstadt","type":"Landkreis"},"federalState":{"key":"08","name":"Baden-Württemberg"}},{"name":"Forchenkopfstr.","postalCode":"72250","locality":"Freudenstadt","municipality":{"key":"08237028","name":"Freudenstadt, Stadt","type":"Große_Kreisstadt"},"district":{"key":"08237","name":"Freudenstadt","type":"Landkreis"},"federalState":{"key":"08","name":"Baden-Württemberg"}},{"name":"Forststr.","postalCode":"72250","locality":"Freudenstadt","municipality":{"key":"08237028","name":"Freudenstadt, Stadt","type":"Große_Kreisstadt"},"district":{"key":"08237","name":"Freudenstadt","type":"Landkreis"},"federalState":{"key":"08","name":"Baden-Württemberg"}},{"name":"Frank-Buchman-Weg","postalCode":"72250","locality":"Freudenstadt","municipality":{"key":"08237028","name":"Freudenstadt, Stadt","type":"Große_Kreisstadt"},"district":{"key":"08237","name":"Freudenstadt","type":"Landkreis"},"federalState":{"key":"08","name":"Baden-Württemberg"}},{"name":"Frauenmantelweg","postalCode":"72250","locality":"Freudenstadt","municipality":{"key":"08237028","name":"Freudenstadt, Stadt","type":"Große_Kreisstadt"},"district":{"key":"08237","name":"Freudenstadt","type":"Landkreis"},"federalState":{"key":"08","name":"Baden-Württemberg"}},{"name":"Frauenteichweg","postalCode":"72250","locality":"Freudenstadt","municipality":{"key":"08237028","name":"Freudenstadt, Stadt","type":"Große_Kreisstadt"},"district":{"key":"08237","name":"Freudenstadt","type":"Landkreis"},"federalState":{"key":"08","name":"Baden-Württemberg"}},{"name":"Freudenstädter Str.","postalCode":"72250","locality":"Freudenstadt","municipality":{"key":"08237028","name":"Freudenstadt, Stadt","type":"Große_Kreisstadt"},"district":{"key":"08237","name":"Freudenstadt","type":"Landkreis"},"federalState":{"key":"08","name":"Baden-Württemberg"}},{"name":"Friedhofweg","postalCode":"72250","locality":"Freudenstadt","municipality":{"key":"08237028","name":"Freudenstadt, Stadt","type":"Große_Kreisstadt"},"district":{"key":"08237","name":"Freudenstadt","type":"Landkreis"},"federalState":{"key":"08","name":"Baden-Württemberg"}},{"name":"Friedrich-Ebert-Str.","postalCode":"72250","locality":"Freudenstadt","municipality":{"key":"08237028","name":"Freudenstadt, Stadt","type":"Große_Kreisstadt"},"district":{"key":"08237","name":"Freudenstadt","type":"Landkreis"},"federalState":{"key":"08","name":"Baden-Württemberg"}},{"name":"Friedrich-List-Str.","postalCode":"72250","locality":"Freudenstadt","municipality":{"key":"08237028","name":"Freudenstadt, Stadt","type":"Große_Kreisstadt"},"district":{"key":"08237","name":"Freudenstadt","type":"Landkreis"},"federalState":{"key":"08","name":"Baden-Württemberg"}},{"name":"Friedrich-Rothfuß-Str.","postalCode":"72250","locality":"Freudenstadt","municipality":{"key":"08237028","name":"Freudenstadt, Stadt","type":"Große_Kreisstadt"},"district":{"key":"08237","name":"Freudenstadt","type":"Landkreis"},"federalState":{"key":"08","name":"Baden-Württemberg"}},{"name":"Friedrichstr.","postalCode":"72250","locality":"Freudenstadt","municipality":{"key":"08237028","name":"Freudenstadt, Stadt","type":"Große_Kreisstadt"},"district":{"key":"08237","name":"Freudenstadt","type":"Landkreis"},"federalState":{"key":"08","name":"Baden-Württemberg"}},{"name":"Frühlingsauweg","postalCode":"72250","locality":"Freudenstadt","municipality":{"key":"08237028","name":"Freudenstadt, Stadt","type":"Große_Kreisstadt"},"district":{"key":"08237","name":"Freudenstadt","type":"Landkreis"},"federalState":{"key":"08","name":"Baden-Württemberg"}},{"name":"Frutenhofer Weg","postalCode":"72250","locality":"Freudenstadt","municipality":{"key":"08237028","name":"Freudenstadt, Stadt","type":"Große_Kreisstadt"},"district":{"key":"08237","name":"Freudenstadt","type":"Landkreis"},"federalState":{"key":"08","name":"Baden-Württemberg"}},{"name":"Fuchsbauweg","postalCode":"72250","locality":"Freudenstadt","municipality":{"key":"08237028","name":"Freudenstadt, Stadt","type":"Große_Kreisstadt"},"district":{"key":"08237","name":"Freudenstadt","type":"Landkreis"},"federalState":{"key":"08","name":"Baden-Württemberg"}},{"name":"Fuhrmannstr.","postalCode":"72250","locality":"Freudenstadt","municipality":{"key":"08237028","name":"Freudenstadt, Stadt","type":"Große_Kreisstadt"},"district":{"key":"08237","name":"Freudenstadt","type":"Landkreis"},"federalState":{"key":"08","name":"Baden-Württemberg"}},{"name":"Gallbronnenweg","postalCode":"72299","locality":"Wörnersberg","municipality":{"key":"08237072","name":"Wörnersberg","type":"Kreisangehörige_Gemeinde"},"district":{"key":"08237","name":"Freudenstadt","type":"Landkreis"},"federalState":{"key":"08","name":"Baden-Württemberg"}},{"name":"Grundweg","postalCode":"72299","locality":"Wörnersberg","municipality":{"key":"08237072","name":"Wörnersberg","type":"Kreisangehörige_Gemeinde"},"district":{"key":"08237","name":"Freudenstadt","type":"Landkreis"},"federalState":{"key":"08","name":"Baden-Württemberg"}},{"name":"Hauptstr.","postalCode":"72299","locality":"Wörnersberg","municipality":{"key":"08237072","name":"Wörnersberg","type":"Kreisangehörige_Gemeinde"},"district":{"key":"08237","name":"Freudenstadt","type":"Landkreis"},"federalState":{"key":"08","name":"Baden-Württemberg"}},{"name":"Igelsbergerstr.","postalCode":"72250","locality":"Freudenstadt","municipality":{"key":"08237028","name":"Freudenstadt, Stadt","type":"Große_Kreisstadt"},"district":{"key":"08237","name":"Freudenstadt","type":"Landkreis"},"federalState":{"key":"08","name":"Baden-Württemberg"}},{"name":"Igelsberger Sträßle","postalCode":"72250","locality":"Freudenstadt","municipality":{"key":"08237028","name":"Freudenstadt, Stadt","type":"Große_Kreisstadt"},"district":{"key":"08237","name":"Freudenstadt","type":"Landkreis"},"federalState":{"key":"08","name":"Baden-Württemberg"}},{"name":"Ikarusweg","postalCode":"72250","locality":"Freudenstadt","municipality":{"key":"08237028","name":"Freudenstadt, Stadt","type":"Große_Kreisstadt"},"district":{"key":"08237","name":"Freudenstadt","type":"Landkreis"},"federalState":{"key":"08","name":"Baden-Württemberg"}},{"name":"Im Aischbach","postalCode":"72250","locality":"Freudenstadt","municipality":{"key":"08237028","name":"Freudenstadt, Stadt","type":"Große_Kreisstadt"},"district":{"key":"08237","name":"Freudenstadt","type":"Landkreis"},"federalState":{"key":"08","name":"Baden-Württemberg"}},{"name":"Im Hagenfeld","postalCode":"72250","locality":"Freudenstadt","municipality":{"key":"08237028","name":"Freudenstadt, Stadt","type":"Große_Kreisstadt"},"district":{"key":"08237","name":"Freudenstadt","type":"Landkreis"},"federalState":{"key":"08","name":"Baden-Württemberg"}},{"name":"Im Hofacker","postalCode":"72250","locality":"Freudenstadt","municipality":{"key":"08237028","name":"Freudenstadt, Stadt","type":"Große_Kreisstadt"},"district":{"key":"08237","name":"Freudenstadt","type":"Landkreis"},"federalState":{"key":"08","name":"Baden-Württemberg"}},{"name":"Immenweg","postalCode":"72250","locality":"Freudenstadt","municipality":{"key":"08237028","name":"Freudenstadt, Stadt","type":"Große_Kreisstadt"},"district":{"key":"08237","name":"Freudenstadt","type":"Landkreis"},"federalState":{"key":"08","name":"Baden-Württemberg"}},{"name":"Im Nickentäle","postalCode":"72250","locality":"Freudenstadt","municipality":{"key":"08237028","name":"Freudenstadt, Stadt","type":"Große_Kreisstadt"},"district":{"key":"08237","name":"Freudenstadt","type":"Landkreis"},"federalState":{"key":"08","name":"Baden-Württemberg"}},{"name":"Im Sulzhau","postalCode":"72250","locality":"Freudenstadt","municipality":{"key":"08237028","name":"Freudenstadt, Stadt","type":"Große_Kreisstadt"},"district":{"key":"08237","name":"Freudenstadt","type":"Landkreis"},"federalState":{"key":"08","name":"Baden-Württemberg"}},{"name":"In der Langenau","postalCode":"72250","locality":"Freudenstadt","municipality":{"key":"08237028","name":"Freudenstadt, Stadt","type":"Große_Kreisstadt"},"district":{"key":"08237","name":"Freudenstadt","type":"Landkreis"},"federalState":{"key":"08","name":"Baden-Württemberg"}},{"name":"Jagdsteinstr.","postalCode":"72250","locality":"Freudenstadt","municipality":{"key":"08237028","name":"Freudenstadt, Stadt","type":"Große_Kreisstadt"},"district":{"key":"08237","name":"Freudenstadt","type":"Landkreis"},"federalState":{"key":"08","name":"Baden-Württemberg"}},{"name":"Jägerlochweg","postalCode":"72250","locality":"Freudenstadt","municipality":{"key":"08237028","name":"Freudenstadt, Stadt","type":"Große_Kreisstadt"},"district":{"key":"08237","name":"Freudenstadt","type":"Landkreis"},"federalState":{"key":"08","name":"Baden-Württemberg"}},{"name":"Jägerpfad","postalCode":"72250","locality":"Freudenstadt","municipality":{"key":"08237028","name":"Freudenstadt, Stadt","type":"Große_Kreisstadt"},"district":{"key":"08237","name":"Freudenstadt","type":"Landkreis"},"federalState":{"key":"08","name":"Baden-Württemberg"}},{"name":"Jakob-Möhrle-Weg","postalCode":"72250","locality":"Freudenstadt","municipality":{"key":"08237028","name":"Freudenstadt, Stadt","type":"Große_Kreisstadt"},"district":{"key":"08237","name":"Freudenstadt","type":"Landkreis"},"federalState":{"key":"08","name":"Baden-Württemberg"}},{"name":"Jakobstr.","postalCode":"72250","locality":"Freudenstadt","municipality":{"key":"08237028","name":"Freudenstadt, Stadt","type":"Große_Kreisstadt"},"district":{"key":"08237","name":"Freudenstadt","type":"Landkreis"},"federalState":{"key":"08","name":"Baden-Württemberg"}},{"name":"Jaspisstr.","postalCode":"72250","locality":"Freudenstadt","municipality":{"key":"08237028","name":"Freudenstadt, Stadt","type":"Große_Kreisstadt"},"district":{"key":"08237","name":"Freudenstadt","type":"Landkreis"},"federalState":{"key":"08","name":"Baden-Württemberg"}},{"name":"Johannes-Brenz-Str.","postalCode":"72250","locality":"Freudenstadt","municipality":{"key":"08237028","name":"Freudenstadt, Stadt","type":"Große_Kreisstadt"},"district":{"key":"08237","name":"Freudenstadt","type":"Landkreis"},"federalState":{"key":"08","name":"Baden-Württemberg"}},{"name":"Johann-Gottfried-Herder-Str.","postalCode":"72250","locality":"Freudenstadt","municipality":{"key":"08237028","name":"Freudenstadt, Stadt","type":"Große_Kreisstadt"},"district":{"key":"08237","name":"Freudenstadt","type":"Landkreis"},"federalState":{"key":"08","name":"Baden-Württemberg"}},{"name":"Johann-Sebastian-Bach-Weg","postalCode":"72250","locality":"Freudenstadt","municipality":{"key":"08237028","name":"Freudenstadt, Stadt","type":"Große_Kreisstadt"},"district":{"key":"08237","name":"Freudenstadt","type":"Landkreis"},"federalState":{"key":"08","name":"Baden-Württemberg"}},{"name":"Justinus-Kerner-Str.","postalCode":"72250","locality":"Freudenstadt","municipality":{"key":"08237028","name":"Freudenstadt, Stadt","type":"Große_Kreisstadt"},"district":{"key":"08237","name":"Freudenstadt","type":"Landkreis"},"federalState":{"key":"08","name":"Baden-Württemberg"}},{"name":"Kälberbronner Str.","postalCode":"72250","locality":"Freudenstadt","municipality":{"key":"08237028","name":"Freudenstadt, Stadt","type":"Große_Kreisstadt"},"district":{"key":"08237","name":"Freudenstadt","type":"Landkreis"},"federalState":{"key":"08","name":"Baden-Württemberg"}},{"name":"Kantstr.","postalCode":"72250","locality":"Freudenstadt","municipality":{"key":"08237028","name":"Freudenstadt, Stadt","type":"Große_Kreisstadt"},"district":{"key":"08237","name":"Freudenstadt","type":"Landkreis"},"federalState":{"key":"08","name":"Baden-Württemberg"}},{"name":"Karl-von-Hahn-Str.","postalCode":"72250","locality":"Freudenstadt","municipality":{"key":"08237028","name":"Freudenstadt, Stadt","type":"Große_Kreisstadt"},"district":{"key":"08237","name":"Freudenstadt","type":"Landkreis"},"federalState":{"key":"08","name":"Baden-Württemberg"}},{"name":"Karl Weickert Weg","postalCode":"72250","locality":"Freudenstadt","municipality":{"key":"08237028","name":"Freudenstadt, Stadt","type":"Große_Kreisstadt"},"district":{"key":"08237","name":"Freudenstadt","type":"Landkreis"},"federalState":{"key":"08","name":"Baden-Württemberg"}},{"name":"Karneolstr.","postalCode":"72250","locality":"Freudenstadt","municipality":{"key":"08237028","name":"Freudenstadt, Stadt","type":"Große_Kreisstadt"},"district":{"key":"08237","name":"Freudenstadt","type":"Landkreis"},"federalState":{"key":"08","name":"Baden-Württemberg"}},{"name":"Kärntner Str.","postalCode":"72250","locality":"Freudenstadt","municipality":{"key":"08237028","name":"Freudenstadt, Stadt","type":"Große_Kreisstadt"},"district":{"key":"08237","name":"Freudenstadt","type":"Landkreis"},"federalState":{"key":"08","name":"Baden-Württemberg"}},{"name":"Kasernenbrunnenweg","postalCode":"72250","locality":"Freudenstadt","municipality":{"key":"08237028","name":"Freudenstadt, Stadt","type":"Große_Kreisstadt"},"district":{"key":"08237","name":"Freudenstadt","type":"Landkreis"},"federalState":{"key":"08","name":"Baden-Württemberg"}},{"name":"Kasernenstr.","postalCode":"72250","locality":"Freudenstadt","municipality":{"key":"08237028","name":"Freudenstadt, Stadt","type":"Große_Kreisstadt"},"district":{"key":"08237","name":"Freudenstadt","type":"Landkreis"},"federalState":{"key":"08","name":"Baden-Württemberg"}},{"name":"Katharinenstr.","postalCode":"72250","locality":"Freudenstadt","municipality":{"key":"08237028","name":"Freudenstadt, Stadt","type":"Große_Kreisstadt"},"district":{"key":"08237","name":"Freudenstadt","type":"Landkreis"},"federalState":{"key":"08","name":"Baden-Württemberg"}},{"name":"Kaufhausstr.","postalCode":"72250","locality":"Freudenstadt","municipality":{"key":"08237028","name":"Freudenstadt, Stadt","type":"Große_Kreisstadt"},"district":{"key":"08237","name":"Freudenstadt","type":"Landkreis"},"federalState":{"key":"08","name":"Baden-Württemberg"}},{"name":"Keplerstr.","postalCode":"72250","locality":"Freudenstadt","municipality":{"key":"08237028","name":"Freudenstadt, Stadt","type":"Große_Kreisstadt"},"district":{"key":"08237","name":"Freudenstadt","type":"Landkreis"},"federalState":{"key":"08","name":"Baden-Württemberg"}},{"name":"Kiefernweg","postalCode":"72250","locality":"Freudenstadt","municipality":{"key":"08237028","name":"Freudenstadt, Stadt","type":"Große_Kreisstadt"},"district":{"key":"08237","name":"Freudenstadt","type":"Landkreis"},"federalState":{"key":"08","name":"Baden-Württemberg"}},{"name":"Kirchgäßle","postalCode":"72250","locality":"Freudenstadt","municipality":{"key":"08237028","name":"Freudenstadt, Stadt","type":"Große_Kreisstadt"},"district":{"key":"08237","name":"Freudenstadt","type":"Landkreis"},"federalState":{"key":"08","name":"Baden-Württemberg"}},{"name":"Kirchplatz","postalCode":"72250","locality":"Freudenstadt","municipality":{"key":"08237028","name":"Freudenstadt, Stadt","type":"Große_Kreisstadt"},"district":{"key":"08237","name":"Freudenstadt","type":"Landkreis"},"federalState":{"key":"08","name":"Baden-Württemberg"}},{"name":"Kirchstr.","postalCode":"72250","locality":"Freudenstadt","municipality":{"key":"08237028","name":"Freudenstadt, Stadt","type":"Große_Kreisstadt"},"district":{"key":"08237","name":"Freudenstadt","type":"Landkreis"},"federalState":{"key":"08","name":"Baden-Württemberg"}},{"name":"Kirschblütenweg","postalCode":"72250","locality":"Freudenstadt","municipality":{"key":"08237028","name":"Freudenstadt, Stadt","type":"Große_Kreisstadt"},"district":{"key":"08237","name":"Freudenstadt","type":"Landkreis"},"federalState":{"key":"08","name":"Baden-Württemberg"}},{"name":"Kleinrheinstr.","postalCode":"72250","locality":"Freudenstadt","municipality":{"key":"08237028","name":"Freudenstadt, Stadt","type":"Große_Kreisstadt"},"district":{"key":"08237","name":"Freudenstadt","type":"Landkreis"},"federalState":{"key":"08","name":"Baden-Württemberg"}},{"name":"Klingenweg","postalCode":"72250","locality":"Freudenstadt","municipality":{"key":"08237028","name":"Freudenstadt, Stadt","type":"Große_Kreisstadt"},"district":{"key":"08237","name":"Freudenstadt","type":"Landkreis"},"federalState":{"key":"08","name":"Baden-Württemberg"}},{"name":"Klosterstr.","postalCode":"72250","locality":"Freudenstadt","municipality":{"key":"08237028","name":"Freudenstadt, Stadt","type":"Große_Kreisstadt"},"district":{"key":"08237","name":"Freudenstadt","type":"Landkreis"},"federalState":{"key":"08","name":"Baden-Württemberg"}},{"name":"Köhlerweg","postalCode":"72250","locality":"Freudenstadt","municipality":{"key":"08237028","name":"Freudenstadt, Stadt","type":"Große_Kreisstadt"},"district":{"key":"08237","name":"Freudenstadt","type":"Landkreis"},"federalState":{"key":"08","name":"Baden-Württemberg"}},{"name":"Kohlwaldweg","postalCode":"72250","locality":"Freudenstadt","municipality":{"key":"08237028","name":"Freudenstadt, Stadt","type":"Große_Kreisstadt"},"district":{"key":"08237","name":"Freudenstadt","type":"Landkreis"},"federalState":{"key":"08","name":"Baden-Württemberg"}},{"name":"Kohlweg","postalCode":"72250","locality":"Freudenstadt","municipality":{"key":"08237028","name":"Freudenstadt, Stadt","type":"Große_Kreisstadt"},"district":{"key":"08237","name":"Freudenstadt","type":"Landkreis"},"federalState":{"key":"08","name":"Baden-Württemberg"}},{"name":"Kolpingstr.","postalCode":"72250","locality":"Freudenstadt","municipality":{"key":"08237028","name":"Freudenstadt, Stadt","type":"Große_Kreisstadt"},"district":{"key":"08237","name":"Freudenstadt","type":"Landkreis"},"federalState":{"key":"08","name":"Baden-Württemberg"}},{"name":"König-Karl-Str.","postalCode":"72250","locality":"Freudenstadt","municipality":{"key":"08237028","name":"Freudenstadt, Stadt","type":"Große_Kreisstadt"},"district":{"key":"08237","name":"Freudenstadt","type":"Landkreis"},"federalState":{"key":"08","name":"Baden-Württemberg"}},{"name":"Königsberger Str.","postalCode":"72250","locality":"Freudenstadt","municipality":{"key":"08237028","name":"Freudenstadt, Stadt","type":"Große_Kreisstadt"},"district":{"key":"08237","name":"Freudenstadt","type":"Landkreis"},"federalState":{"key":"08","name":"Baden-Württemberg"}},{"name":"König-Wilhelm-Str.","postalCode":"72250","locality":"Freudenstadt","municipality":{"key":"08237028","name":"Freudenstadt, Stadt","type":"Große_Kreisstadt"},"district":{"key":"08237","name":"Freudenstadt","type":"Landkreis"},"federalState":{"key":"08","name":"Baden-Württemberg"}},{"name":"Konrad-Schott-Str.","postalCode":"72250","locality":"Freudenstadt","municipality":{"key":"08237028","name":"Freudenstadt, Stadt","type":"Große_Kreisstadt"},"district":{"key":"08237","name":"Freudenstadt","type":"Landkreis"},"federalState":{"key":"08","name":"Baden-Württemberg"}},{"name":"Krähenhardtweg","postalCode":"72250","locality":"Freudenstadt","municipality":{"key":"08237028","name":"Freudenstadt, Stadt","type":"Große_Kreisstadt"},"district":{"key":"08237","name":"Freudenstadt","type":"Landkreis"},"federalState":{"key":"08","name":"Baden-Württemberg"}},{"name":"Kraibrunnenstr.","postalCode":"72250","locality":"Freudenstadt","municipality":{"key":"08237028","name":"Freudenstadt, Stadt","type":"Große_Kreisstadt"},"district":{"key":"08237","name":"Freudenstadt","type":"Landkreis"},"federalState":{"key":"08","name":"Baden-Württemberg"}},{"name":"Krämerweg","postalCode":"72250","locality":"Freudenstadt","municipality":{"key":"08237028","name":"Freudenstadt, Stadt","type":"Große_Kreisstadt"},"district":{"key":"08237","name":"Freudenstadt","type":"Landkreis"},"federalState":{"key":"08","name":"Baden-Württemberg"}},{"name":"Kronengasse","postalCode":"72250","locality":"Freudenstadt","municipality":{"key":"08237028","name":"Freudenstadt, Stadt","type":"Große_Kreisstadt"},"district":{"key":"08237","name":"Freudenstadt","type":"Landkreis"},"federalState":{"key":"08","name":"Baden-Württemberg"}},{"name":"Kurgarten","postalCode":"72250","locality":"Freudenstadt","municipality":{"key":"08237028","name":"Freudenstadt, Stadt","type":"Große_Kreisstadt"},"district":{"key":"08237","name":"Freudenstadt","type":"Landkreis"},"federalState":{"key":"08","name":"Baden-Württemberg"}},{"name":"Kurgartenweg","postalCode":"72250","locality":"Freudenstadt","municipality":{"key":"08237028","name":"Freudenstadt, Stadt","type":"Große_Kreisstadt"},"district":{"key":"08237","name":"Freudenstadt","type":"Landkreis"},"federalState":{"key":"08","name":"Baden-Württemberg"}},{"name":"Lindenweg","postalCode":"72299","locality":"Wörnersberg","municipality":{"key":"08237072","name":"Wörnersberg","type":"Kreisangehörige_Gemeinde"},"district":{"key":"08237","name":"Freudenstadt","type":"Landkreis"},"federalState":{"key":"08","name":"Baden-Württemberg"}},{"name":"Maienstr.","postalCode":"72250","locality":"Freudenstadt","municipality":{"key":"08237028","name":"Freudenstadt, Stadt","type":"Große_Kreisstadt"},"district":{"key":"08237","name":"Freudenstadt","type":"Landkreis"},"federalState":{"key":"08","name":"Baden-Württemberg"}},{"name":"Manbachweg","postalCode":"72250","locality":"Freudenstadt","municipality":{"key":"08237028","name":"Freudenstadt, Stadt","type":"Große_Kreisstadt"},"district":{"key":"08237","name":"Freudenstadt","type":"Landkreis"},"federalState":{"key":"08","name":"Baden-Württemberg"}},{"name":"Margeritenweg","postalCode":"72250","locality":"Freudenstadt","municipality":{"key":"08237028","name":"Freudenstadt, Stadt","type":"Große_Kreisstadt"},"district":{"key":"08237","name":"Freudenstadt","type":"Landkreis"},"federalState":{"key":"08","name":"Baden-Württemberg"}},{"name":"Marie-Curie-Str.","postalCode":"72250","locality":"Freudenstadt","municipality":{"key":"08237028","name":"Freudenstadt, Stadt","type":"Große_Kreisstadt"},"district":{"key":"08237","name":"Freudenstadt","type":"Landkreis"},"federalState":{"key":"08","name":"Baden-Württemberg"}},{"name":"Marktplatz","postalCode":"72250","locality":"Freudenstadt","municipality":{"key":"08237028","name":"Freudenstadt, Stadt","type":"Große_Kreisstadt"},"district":{"key":"08237","name":"Freudenstadt","type":"Landkreis"},"federalState":{"key":"08","name":"Baden-Württemberg"}},{"name":"Martin-Luther-Str.","postalCode":"72250","locality":"Freudenstadt","municipality":{"key":"08237028","name":"Freudenstadt, Stadt","type":"Große_Kreisstadt"},"district":{"key":"08237","name":"Freudenstadt","type":"Landkreis"},"federalState":{"key":"08","name":"Baden-Württemberg"}},{"name":"Max-Eyth-Str.","postalCode":"72250","locality":"Freudenstadt","municipality":{"key":"08237028","name":"Freudenstadt, Stadt","type":"Große_Kreisstadt"},"district":{"key":"08237","name":"Freudenstadt","type":"Landkreis"},"federalState":{"key":"08","name":"Baden-Württemberg"}},{"name":"Maybachstr.","postalCode":"72250","locality":"Freudenstadt","municipality":{"key":"08237028","name":"Freudenstadt, Stadt","type":"Große_Kreisstadt"},"district":{"key":"08237","name":"Freudenstadt","type":"Landkreis"},"federalState":{"key":"08","name":"Baden-Württemberg"}},{"name":"Meisenhüttenweg","postalCode":"72250","locality":"Freudenstadt","municipality":{"key":"08237028","name":"Freudenstadt, Stadt","type":"Große_Kreisstadt"},"district":{"key":"08237","name":"Freudenstadt","type":"Landkreis"},"federalState":{"key":"08","name":"Baden-Württemberg"}},{"name":"Meisenweg","postalCode":"72250","locality":"Freudenstadt","municipality":{"key":"08237028","name":"Freudenstadt, Stadt","type":"Große_Kreisstadt"},"district":{"key":"08237","name":"Freudenstadt","type":"Landkreis"},"federalState":{"key":"08","name":"Baden-Württemberg"}},{"name":"Merzenbergstr.","postalCode":"72250","locality":"Freudenstadt","municipality":{"key":"08237028","name":"Freudenstadt, Stadt","type":"Große_Kreisstadt"},"district":{"key":"08237","name":"Freudenstadt","type":"Landkreis"},"federalState":{"key":"08","name":"Baden-Württemberg"}},{"name":"Messerschmiedstr.","postalCode":"72250","locality":"Freudenstadt","municipality":{"key":"08237028","name":"Freudenstadt, Stadt","type":"Große_Kreisstadt"},"district":{"key":"08237","name":"Freudenstadt","type":"Landkreis"},"federalState":{"key":"08","name":"Baden-Württemberg"}},{"name":"Mönchweg","postalCode":"72250","locality":"Freudenstadt","municipality":{"key":"08237028","name":"Freudenstadt, Stadt","type":"Große_Kreisstadt"},"district":{"key":"08237","name":"Freudenstadt","type":"Landkreis"},"federalState":{"key":"08","name":"Baden-Württemberg"}},{"name":"Montgolfierweg","postalCode":"72250","locality":"Freudenstadt","municipality":{"key":"08237028","name":"Freudenstadt, Stadt","type":"Große_Kreisstadt"},"district":{"key":"08237","name":"Freudenstadt","type":"Landkreis"},"federalState":{"key":"08","name":"Baden-Württemberg"}},{"name":"Moosstr.","postalCode":"72250","locality":"Freudenstadt","municipality":{"key":"08237028","name":"Freudenstadt, Stadt","type":"Große_Kreisstadt"},"district":{"key":"08237","name":"Freudenstadt","type":"Landkreis"},"federalState":{"key":"08","name":"Baden-Württemberg"}},{"name":"Mörikestr.","postalCode":"72250","locality":"Freudenstadt","municipality":{"key":"08237028","name":"Freudenstadt, Stadt","type":"Große_Kreisstadt"},"district":{"key":"08237","name":"Freudenstadt","type":"Landkreis"},"federalState":{"key":"08","name":"Baden-Württemberg"}},{"name":"Moselstr.","postalCode":"72250","locality":"Freudenstadt","municipality":{"key":"08237028","name":"Freudenstadt, Stadt","type":"Große_Kreisstadt"},"district":{"key":"08237","name":"Freudenstadt","type":"Landkreis"},"federalState":{"key":"08","name":"Baden-Württemberg"}},{"name":"Mozartstr.","postalCode":"72250","locality":"Freudenstadt","municipality":{"key":"08237028","name":"Freudenstadt, Stadt","type":"Große_Kreisstadt"},"district":{"key":"08237","name":"Freudenstadt","type":"Landkreis"},"federalState":{"key":"08","name":"Baden-Württemberg"}},{"name":"Muggengärtlestr.","postalCode":"72250","locality":"Freudenstadt","municipality":{"key":"08237028","name":"Freudenstadt, Stadt","type":"Große_Kreisstadt"},"district":{"key":"08237","name":"Freudenstadt","type":"Landkreis"},"federalState":{"key":"08","name":"Baden-Württemberg"}},{"name":"Mühlenweg","postalCode":"72250","locality":"Freudenstadt","municipality":{"key":"08237028","name":"Freudenstadt, Stadt","type":"Große_Kreisstadt"},"district":{"key":"08237","name":"Freudenstadt","type":"Landkreis"},"federalState":{"key":"08","name":"Baden-Württemberg"}},{"name":"Mühleweg","postalCode":"72250","locality":"Freudenstadt","municipality":{"key":"08237028","name":"Freudenstadt, Stadt","type":"Große_Kreisstadt"},"district":{"key":"08237","name":"Freudenstadt","type":"Landkreis"},"federalState":{"key":"08","name":"Baden-Württemberg"}},{"name":"Mühlhaldenstr.","postalCode":"72250","locality":"Freudenstadt","municipality":{"key":"08237028","name":"Freudenstadt, Stadt","type":"Große_Kreisstadt"},"district":{"key":"08237","name":"Freudenstadt","type":"Landkreis"},"federalState":{"key":"08","name":"Baden-Württemberg"}},{"name":"Mühlhaldenweg","postalCode":"72250","locality":"Freudenstadt","municipality":{"key":"08237028","name":"Freudenstadt, Stadt","type":"Große_Kreisstadt"},"district":{"key":"08237","name":"Freudenstadt","type":"Landkreis"},"federalState":{"key":"08","name":"Baden-Württemberg"}},{"name":"Müllerweg","postalCode":"72250","locality":"Freudenstadt","municipality":{"key":"08237028","name":"Freudenstadt, Stadt","type":"Große_Kreisstadt"},"district":{"key":"08237","name":"Freudenstadt","type":"Landkreis"},"federalState":{"key":"08","name":"Baden-Württemberg"}},{"name":"Murgtalstr.","postalCode":"72250","locality":"Freudenstadt","municipality":{"key":"08237028","name":"Freudenstadt, Stadt","type":"Große_Kreisstadt"},"district":{"key":"08237","name":"Freudenstadt","type":"Landkreis"},"federalState":{"key":"08","name":"Baden-Württemberg"}},{"name":"Musbacher Str.","postalCode":"72250","locality":"Freudenstadt","municipality":{"key":"08237028","name":"Freudenstadt, Stadt","type":"Große_Kreisstadt"},"district":{"key":"08237","name":"Freudenstadt","type":"Landkreis"},"federalState":{"key":"08","name":"Baden-Württemberg"}},{"name":"Nagelschmiedstr.","postalCode":"72250","locality":"Freudenstadt","municipality":{"key":"08237028","name":"Freudenstadt, Stadt","type":"Große_Kreisstadt"},"district":{"key":"08237","name":"Freudenstadt","type":"Landkreis"},"federalState":{"key":"08","name":"Baden-Württemberg"}},{"name":"Nagoldstr.","postalCode":"72250","locality":"Freudenstadt","municipality":{"key":"08237028","name":"Freudenstadt, Stadt","type":"Große_Kreisstadt"},"district":{"key":"08237","name":"Freudenstadt","type":"Landkreis"},"federalState":{"key":"08","name":"Baden-Württemberg"}},{"name":"Nagoldtalstr.","postalCode":"72250","locality":"Freudenstadt","municipality":{"key":"08237028","name":"Freudenstadt, Stadt","type":"Große_Kreisstadt"},"district":{"key":"08237","name":"Freudenstadt","type":"Landkreis"},"federalState":{"key":"08","name":"Baden-Württemberg"}},{"name":"Naturfreundeweg","postalCode":"72250","locality":"Freudenstadt","municipality":{"key":"08237028","name":"Freudenstadt, Stadt","type":"Große_Kreisstadt"},"district":{"key":"08237","name":"Freudenstadt","type":"Landkreis"},"federalState":{"key":"08","name":"Baden-Württemberg"}},{"name":"Nelkenweg","postalCode":"72250","locality":"Freudenstadt","municipality":{"key":"08237028","name":"Freudenstadt, Stadt","type":"Große_Kreisstadt"},"district":{"key":"08237","name":"Freudenstadt","type":"Landkreis"},"federalState":{"key":"08","name":"Baden-Württemberg"}},{"name":"Neue Str.","postalCode":"72250","locality":"Freudenstadt","municipality":{"key":"08237028","name":"Freudenstadt, Stadt","type":"Große_Kreisstadt"},"district":{"key":"08237","name":"Freudenstadt","type":"Landkreis"},"federalState":{"key":"08","name":"Baden-Württemberg"}},{"name":"Neuffenstr.","postalCode":"72250","locality":"Freudenstadt","municipality":{"key":"08237028","name":"Freudenstadt, Stadt","type":"Große_Kreisstadt"},"district":{"key":"08237","name":"Freudenstadt","type":"Landkreis"},"federalState":{"key":"08","name":"Baden-Württemberg"}},{"name":"Niederfeld","postalCode":"72250","locality":"Freudenstadt","municipality":{"key":"08237028","name":"Freudenstadt, Stadt","type":"Große_Kreisstadt"},"district":{"key":"08237","name":"Freudenstadt","type":"Landkreis"},"federalState":{"key":"08","name":"Baden-Württemberg"}},{"name":"Nillabergweg","postalCode":"72250","locality":"Freudenstadt","municipality":{"key":"08237028","name":"Freudenstadt, Stadt","type":"Große_Kreisstadt"},"district":{"key":"08237","name":"Freudenstadt","type":"Landkreis"},"federalState":{"key":"08","name":"Baden-Württemberg"}},{"name":"Notzeitweg","postalCode":"72250","locality":"Freudenstadt","municipality":{"key":"08237028","name":"Freudenstadt, Stadt","type":"Große_Kreisstadt"},"district":{"key":"08237","name":"Freudenstadt","type":"Landkreis"},"federalState":{"key":"08","name":"Baden-Württemberg"}},{"name":"Ob der Hecke","postalCode":"72250","locality":"Freudenstadt","municipality":{"key":"08237028","name":"Freudenstadt, Stadt","type":"Große_Kreisstadt"},"district":{"key":"08237","name":"Freudenstadt","type":"Landkreis"},"federalState":{"key":"08","name":"Baden-Württemberg"}},{"name":"Oberer Hardtweg","postalCode":"72250","locality":"Freudenstadt","municipality":{"key":"08237028","name":"Freudenstadt, Stadt","type":"Große_Kreisstadt"},"district":{"key":"08237","name":"Freudenstadt","type":"Landkreis"},"federalState":{"key":"08","name":"Baden-Württemberg"}},{"name":"Oberer Höhenweg","postalCode":"72250","locality":"Freudenstadt","municipality":{"key":"08237028","name":"Freudenstadt, Stadt","type":"Große_Kreisstadt"},"district":{"key":"08237","name":"Freudenstadt","type":"Landkreis"},"federalState":{"key":"08","name":"Baden-Württemberg"}},{"name":"Oberer Marktplatz","postalCode":"72250","locality":"Freudenstadt","municipality":{"key":"08237028","name":"Freudenstadt, Stadt","type":"Große_Kreisstadt"},"district":{"key":"08237","name":"Freudenstadt","type":"Landkreis"},"federalState":{"key":"08","name":"Baden-Württemberg"}},{"name":"Oberer Palmenwaldweg","postalCode":"72250","locality":"Freudenstadt","municipality":{"key":"08237028","name":"Freudenstadt, Stadt","type":"Große_Kreisstadt"},"district":{"key":"08237","name":"Freudenstadt","type":"Landkreis"},"federalState":{"key":"08","name":"Baden-Württemberg"}},{"name":"Obere Viehgasse","postalCode":"72250","locality":"Freudenstadt","municipality":{"key":"08237028","name":"Freudenstadt, Stadt","type":"Große_Kreisstadt"},"district":{"key":"08237","name":"Freudenstadt","type":"Landkreis"},"federalState":{"key":"08","name":"Baden-Württemberg"}},{"name":"Oberlinweg","postalCode":"72250","locality":"Freudenstadt","municipality":{"key":"08237028","name":"Freudenstadt, Stadt","type":"Große_Kreisstadt"},"district":{"key":"08237","name":"Freudenstadt","type":"Landkreis"},"federalState":{"key":"08","name":"Baden-Württemberg"}},{"name":"Obermusbacher Weg","postalCode":"72250","locality":"Freudenstadt","municipality":{"key":"08237028","name":"Freudenstadt, Stadt","type":"Große_Kreisstadt"},"district":{"key":"08237","name":"Freudenstadt","type":"Landkreis"},"federalState":{"key":"08","name":"Baden-Württemberg"}},{"name":"Ochsenhardtweg","postalCode":"72250","locality":"Freudenstadt","municipality":{"key":"08237028","name":"Freudenstadt, Stadt","type":"Große_Kreisstadt"},"district":{"key":"08237","name":"Freudenstadt","type":"Landkreis"},"federalState":{"key":"08","name":"Baden-Württemberg"}},{"name":"Ortsstr.","postalCode":"72250","locality":"Freudenstadt","municipality":{"key":"08237028","name":"Freudenstadt, Stadt","type":"Große_Kreisstadt"},"district":{"key":"08237","name":"Freudenstadt","type":"Landkreis"},"federalState":{"key":"08","name":"Baden-Württemberg"}},{"name":"Ostweg","postalCode":"72250","locality":"Freudenstadt","municipality":{"key":"08237028","name":"Freudenstadt, Stadt","type":"Große_Kreisstadt"},"district":{"key":"08237","name":"Freudenstadt","type":"Landkreis"},"federalState":{"key":"08","name":"Baden-Württemberg"}},{"name":"Panoramaweg","postalCode":"72299","locality":"Wörnersberg","municipality":{"key":"08237072","name":"Wörnersberg","type":"Kreisangehörige_Gemeinde"},"district":{"key":"08237","name":"Freudenstadt","type":"Landkreis"},"federalState":{"key":"08","name":"Baden-Württemberg"}},{"name":"Quellenweg","postalCode":"72250","locality":"Freudenstadt","municipality":{"key":"08237028","name":"Freudenstadt, Stadt","type":"Große_Kreisstadt"},"district":{"key":"08237","name":"Freudenstadt","type":"Landkreis"},"federalState":{"key":"08","name":"Baden-Württemberg"}},{"name":"Raiffeisenstr.","postalCode":"72250","locality":"Freudenstadt","municipality":{"key":"08237028","name":"Freudenstadt, Stadt","type":"Große_Kreisstadt"},"district":{"key":"08237","name":"Freudenstadt","type":"Landkreis"},"federalState":{"key":"08","name":"Baden-Württemberg"}},{"name":"Rainweg","postalCode":"72250","locality":"Freudenstadt","municipality":{"key":"08237028","name":"Freudenstadt, Stadt","type":"Große_Kreisstadt"},"district":{"key":"08237","name":"Freudenstadt","type":"Landkreis"},"federalState":{"key":"08","name":"Baden-Württemberg"}},{"name":"Rankweg","postalCode":"72250","locality":"Freudenstadt","municipality":{"key":"08237028","name":"Freudenstadt, Stadt","type":"Große_Kreisstadt"},"district":{"key":"08237","name":"Freudenstadt","type":"Landkreis"},"federalState":{"key":"08","name":"Baden-Württemberg"}},{"name":"Rappenstr.","postalCode":"72250","locality":"Freudenstadt","municipality":{"key":"08237028","name":"Freudenstadt, Stadt","type":"Große_Kreisstadt"},"district":{"key":"08237","name":"Freudenstadt","type":"Landkreis"},"federalState":{"key":"08","name":"Baden-Württemberg"}},{"name":"Ratsweg","postalCode":"72250","locality":"Freudenstadt","municipality":{"key":"08237028","name":"Freudenstadt, Stadt","type":"Große_Kreisstadt"},"district":{"key":"08237","name":"Freudenstadt","type":"Landkreis"},"federalState":{"key":"08","name":"Baden-Württemberg"}},{"name":"Reichenbacher Str.","postalCode":"72250","locality":"Freudenstadt","municipality":{"key":"08237028","name":"Freudenstadt, Stadt","type":"Große_Kreisstadt"},"district":{"key":"08237","name":"Freudenstadt","type":"Landkreis"},"federalState":{"key":"08","name":"Baden-Württemberg"}},{"name":"Reichsstr.","postalCode":"72250","locality":"Freudenstadt","municipality":{"key":"08237028","name":"Freudenstadt, Stadt","type":"Große_Kreisstadt"},"district":{"key":"08237","name":"Freudenstadt","type":"Landkreis"},"federalState":{"key":"08","name":"Baden-Württemberg"}},{"name":"Reinerzauer Rötenbächle","postalCode":"72250","locality":"Freudenstadt","municipality":{"key":"08237028","name":"Freudenstadt, Stadt","type":"Große_Kreisstadt"},"district":{"key":"08237","name":"Freudenstadt","type":"Landkreis"},"federalState":{"key":"08","name":"Baden-Württemberg"}},{"name":"Reitstallweg","postalCode":"72250","locality":"Freudenstadt","municipality":{"key":"08237028","name":"Freudenstadt, Stadt","type":"Große_Kreisstadt"},"district":{"key":"08237","name":"Freudenstadt","type":"Landkreis"},"federalState":{"key":"08","name":"Baden-Württemberg"}},{"name":"Reutäckerweg","postalCode":"72250","locality":"Freudenstadt","municipality":{"key":"08237028","name":"Freudenstadt, Stadt","type":"Große_Kreisstadt"},"district":{"key":"08237","name":"Freudenstadt","type":"Landkreis"},"federalState":{"key":"08","name":"Baden-Württemberg"}},{"name":"Reute","postalCode":"72250","locality":"Freudenstadt","municipality":{"key":"08237028","name":"Freudenstadt, Stadt","type":"Große_Kreisstadt"},"district":{"key":"08237","name":"Freudenstadt","type":"Landkreis"},"federalState":{"key":"08","name":"Baden-Württemberg"}},{"name":"Reutegasse","postalCode":"72250","locality":"Freudenstadt","municipality":{"key":"08237028","name":"Freudenstadt, Stadt","type":"Große_Kreisstadt"},"district":{"key":"08237","name":"Freudenstadt","type":"Landkreis"},"federalState":{"key":"08","name":"Baden-Württemberg"}},{"name":"Rheinlandstr.","postalCode":"72250","locality":"Freudenstadt","municipality":{"key":"08237028","name":"Freudenstadt, Stadt","type":"Große_Kreisstadt"},"district":{"key":"08237","name":"Freudenstadt","type":"Landkreis"},"federalState":{"key":"08","name":"Baden-Württemberg"}},{"name":"Riedgasse","postalCode":"72250","locality":"Freudenstadt","municipality":{"key":"08237028","name":"Freudenstadt, Stadt","type":"Große_Kreisstadt"},"district":{"key":"08237","name":"Freudenstadt","type":"Landkreis"},"federalState":{"key":"08","name":"Baden-Württemberg"}},{"name":"Rimbachweg","postalCode":"72250","locality":"Freudenstadt","municipality":{"key":"08237028","name":"Freudenstadt, Stadt","type":"Große_Kreisstadt"},"district":{"key":"08237","name":"Freudenstadt","type":"Landkreis"},"federalState":{"key":"08","name":"Baden-Württemberg"}},{"name":"Ringstr.","postalCode":"72250","locality":"Freudenstadt","municipality":{"key":"08237028","name":"Freudenstadt, Stadt","type":"Große_Kreisstadt"},"district":{"key":"08237","name":"Freudenstadt","type":"Landkreis"},"federalState":{"key":"08","name":"Baden-Württemberg"}},{"name":"Ringwaldstr.","postalCode":"72250","locality":"Freudenstadt","municipality":{"key":"08237028","name":"Freudenstadt, Stadt","type":"Große_Kreisstadt"},"district":{"key":"08237","name":"Freudenstadt","type":"Landkreis"},"federalState":{"key":"08","name":"Baden-Württemberg"}},{"name":"Ringweg","postalCode":"72250","locality":"Freudenstadt","municipality":{"key":"08237028","name":"Freudenstadt, Stadt","type":"Große_Kreisstadt"},"district":{"key":"08237","name":"Freudenstadt","type":"Landkreis"},"federalState":{"key":"08","name":"Baden-Württemberg"}},{"name":"Rippoldsauer Str.","postalCode":"72250","locality":"Freudenstadt","municipality":{"key":"08237028","name":"Freudenstadt, Stadt","type":"Große_Kreisstadt"},"district":{"key":"08237","name":"Freudenstadt","type":"Landkreis"},"federalState":{"key":"08","name":"Baden-Württemberg"}},{"name":"Robert-Bosch-Str.","postalCode":"72250","locality":"Freudenstadt","municipality":{"key":"08237028","name":"Freudenstadt, Stadt","type":"Große_Kreisstadt"},"district":{"key":"08237","name":"Freudenstadt","type":"Landkreis"},"federalState":{"key":"08","name":"Baden-Württemberg"}},{"name":"Robert-Bürkle-Str.","postalCode":"72250","locality":"Freudenstadt","municipality":{"key":"08237028","name":"Freudenstadt, Stadt","type":"Große_Kreisstadt"},"district":{"key":"08237","name":"Freudenstadt","type":"Landkreis"},"federalState":{"key":"08","name":"Baden-Württemberg"}},{"name":"Rosenbuschweg","postalCode":"72250","locality":"Freudenstadt","municipality":{"key":"08237028","name":"Freudenstadt, Stadt","type":"Große_Kreisstadt"},"district":{"key":"08237","name":"Freudenstadt","type":"Landkreis"},"federalState":{"key":"08","name":"Baden-Württemberg"}},{"name":"Rosenweg","postalCode":"72250","locality":"Freudenstadt","municipality":{"key":"08237028","name":"Freudenstadt, Stadt","type":"Große_Kreisstadt"},"district":{"key":"08237","name":"Freudenstadt","type":"Landkreis"},"federalState":{"key":"08","name":"Baden-Württemberg"}},{"name":"Rothweg","postalCode":"72250","locality":"Freudenstadt","municipality":{"key":"08237028","name":"Freudenstadt, Stadt","type":"Große_Kreisstadt"},"district":{"key":"08237","name":"Freudenstadt","type":"Landkreis"},"federalState":{"key":"08","name":"Baden-Württemberg"}},{"name":"Rotkleeweg","postalCode":"72250","locality":"Freudenstadt","municipality":{"key":"08237028","name":"Freudenstadt, Stadt","type":"Große_Kreisstadt"},"district":{"key":"08237","name":"Freudenstadt","type":"Landkreis"},"federalState":{"key":"08","name":"Baden-Württemberg"}},{"name":"Rotwasser","postalCode":"72250","locality":"Freudenstadt","municipality":{"key":"08237028","name":"Freudenstadt, Stadt","type":"Große_Kreisstadt"},"district":{"key":"08237","name":"Freudenstadt","type":"Landkreis"},"federalState":{"key":"08","name":"Baden-Württemberg"}},{"name":"Rudolf-Diesel-Str.","postalCode":"72250","locality":"Freudenstadt","municipality":{"key":"08237028","name":"Freudenstadt, Stadt","type":"Große_Kreisstadt"},"district":{"key":"08237","name":"Freudenstadt","type":"Landkreis"},"federalState":{"key":"08","name":"Baden-Württemberg"}},{"name":"Saarstr.","postalCode":"72250","locality":"Freudenstadt","municipality":{"key":"08237028","name":"Freudenstadt, Stadt","type":"Große_Kreisstadt"},"district":{"key":"08237","name":"Freudenstadt","type":"Landkreis"},"federalState":{"key":"08","name":"Baden-Württemberg"}},{"name":"Sägmühleweg","postalCode":"72250","locality":"Freudenstadt","municipality":{"key":"08237028","name":"Freudenstadt, Stadt","type":"Große_Kreisstadt"},"district":{"key":"08237","name":"Freudenstadt","type":"Landkreis"},"federalState":{"key":"08","name":"Baden-Württemberg"}},{"name":"Salamanderweg","postalCode":"72250","locality":"Freudenstadt","municipality":{"key":"08237028","name":"Freudenstadt, Stadt","type":"Große_Kreisstadt"},"district":{"key":"08237","name":"Freudenstadt","type":"Landkreis"},"federalState":{"key":"08","name":"Baden-Württemberg"}},{"name":"Salenbergstr.","postalCode":"72250","locality":"Freudenstadt","municipality":{"key":"08237028","name":"Freudenstadt, Stadt","type":"Große_Kreisstadt"},"district":{"key":"08237","name":"Freudenstadt","type":"Landkreis"},"federalState":{"key":"08","name":"Baden-Württemberg"}},{"name":"Salzleckerweg","postalCode":"72250","locality":"Freudenstadt","municipality":{"key":"08237028","name":"Freudenstadt, Stadt","type":"Große_Kreisstadt"},"district":{"key":"08237","name":"Freudenstadt","type":"Landkreis"},"federalState":{"key":"08","name":"Baden-Württemberg"}},{"name":"Saugass","postalCode":"72250","locality":"Freudenstadt","municipality":{"key":"08237028","name":"Freudenstadt, Stadt","type":"Große_Kreisstadt"},"district":{"key":"08237","name":"Freudenstadt","type":"Landkreis"},"federalState":{"key":"08","name":"Baden-Württemberg"}},{"name":"Sauteichstr.","postalCode":"72250","locality":"Freudenstadt","municipality":{"key":"08237028","name":"Freudenstadt, Stadt","type":"Große_Kreisstadt"},"district":{"key":"08237","name":"Freudenstadt","type":"Landkreis"},"federalState":{"key":"08","name":"Baden-Württemberg"}},{"name":"Schachenäcker Weg","postalCode":"72250","locality":"Freudenstadt","municipality":{"key":"08237028","name":"Freudenstadt, Stadt","type":"Große_Kreisstadt"},"district":{"key":"08237","name":"Freudenstadt","type":"Landkreis"},"federalState":{"key":"08","name":"Baden-Württemberg"}},{"name":"Schäferweg","postalCode":"72250","locality":"Freudenstadt","municipality":{"key":"08237028","name":"Freudenstadt, Stadt","type":"Große_Kreisstadt"},"district":{"key":"08237","name":"Freudenstadt","type":"Landkreis"},"federalState":{"key":"08","name":"Baden-Württemberg"}},{"name":"Schapacher Weg","postalCode":"72250","locality":"Freudenstadt","municipality":{"key":"08237028","name":"Freudenstadt, Stadt","type":"Große_Kreisstadt"},"district":{"key":"08237","name":"Freudenstadt","type":"Landkreis"},"federalState":{"key":"08","name":"Baden-Württemberg"}},{"name":"Schellingstr.","postalCode":"72250","locality":"Freudenstadt","municipality":{"key":"08237028","name":"Freudenstadt, Stadt","type":"Große_Kreisstadt"},"district":{"key":"08237","name":"Freudenstadt","type":"Landkreis"},"federalState":{"key":"08","name":"Baden-Württemberg"}},{"name":"Schickhardtstr.","postalCode":"72250","locality":"Freudenstadt","municipality":{"key":"08237028","name":"Freudenstadt, Stadt","type":"Große_Kreisstadt"},"district":{"key":"08237","name":"Freudenstadt","type":"Landkreis"},"federalState":{"key":"08","name":"Baden-Württemberg"}},{"name":"Schierenbergstr.","postalCode":"72250","locality":"Freudenstadt","municipality":{"key":"08237028","name":"Freudenstadt, Stadt","type":"Große_Kreisstadt"},"district":{"key":"08237","name":"Freudenstadt","type":"Landkreis"},"federalState":{"key":"08","name":"Baden-Württemberg"}},{"name":"Schillerstr.","postalCode":"72250","locality":"Freudenstadt","municipality":{"key":"08237028","name":"Freudenstadt, Stadt","type":"Große_Kreisstadt"},"district":{"key":"08237","name":"Freudenstadt","type":"Landkreis"},"federalState":{"key":"08","name":"Baden-Württemberg"}},{"name":"Schlehenstr.","postalCode":"72250","locality":"Freudenstadt","municipality":{"key":"08237028","name":"Freudenstadt, Stadt","type":"Große_Kreisstadt"},"district":{"key":"08237","name":"Freudenstadt","type":"Landkreis"},"federalState":{"key":"08","name":"Baden-Württemberg"}},{"name":"Schlosserstr.","postalCode":"72250","locality":"Freudenstadt","municipality":{"key":"08237028","name":"Freudenstadt, Stadt","type":"Große_Kreisstadt"},"district":{"key":"08237","name":"Freudenstadt","type":"Landkreis"},"federalState":{"key":"08","name":"Baden-Württemberg"}},{"name":"Schmiedweg","postalCode":"72250","locality":"Freudenstadt","municipality":{"key":"08237028","name":"Freudenstadt, Stadt","type":"Große_Kreisstadt"},"district":{"key":"08237","name":"Freudenstadt","type":"Landkreis"},"federalState":{"key":"08","name":"Baden-Württemberg"}},{"name":"Schöllkopfstr.","postalCode":"72250","locality":"Freudenstadt","municipality":{"key":"08237028","name":"Freudenstadt, Stadt","type":"Große_Kreisstadt"},"district":{"key":"08237","name":"Freudenstadt","type":"Landkreis"},"federalState":{"key":"08","name":"Baden-Württemberg"}},{"name":"Schöllkopfweg","postalCode":"72250","locality":"Freudenstadt","municipality":{"key":"08237028","name":"Freudenstadt, Stadt","type":"Große_Kreisstadt"},"district":{"key":"08237","name":"Freudenstadt","type":"Landkreis"},"federalState":{"key":"08","name":"Baden-Württemberg"}},{"name":"Schömberger Str.","postalCode":"72250","locality":"Freudenstadt","municipality":{"key":"08237028","name":"Freudenstadt, Stadt","type":"Große_Kreisstadt"},"district":{"key":"08237","name":"Freudenstadt","type":"Landkreis"},"federalState":{"key":"08","name":"Baden-Württemberg"}},{"name":"Schönblick","postalCode":"72250","locality":"Freudenstadt","municipality":{"key":"08237028","name":"Freudenstadt, Stadt","type":"Große_Kreisstadt"},"district":{"key":"08237","name":"Freudenstadt","type":"Landkreis"},"federalState":{"key":"08","name":"Baden-Württemberg"}},{"name":"Schönblickweg","postalCode":"72250","locality":"Freudenstadt","municipality":{"key":"08237028","name":"Freudenstadt, Stadt","type":"Große_Kreisstadt"},"district":{"key":"08237","name":"Freudenstadt","type":"Landkreis"},"federalState":{"key":"08","name":"Baden-Württemberg"}},{"name":"Schöneckweg","postalCode":"72250","locality":"Freudenstadt","municipality":{"key":"08237028","name":"Freudenstadt, Stadt","type":"Große_Kreisstadt"},"district":{"key":"08237","name":"Freudenstadt","type":"Landkreis"},"federalState":{"key":"08","name":"Baden-Württemberg"}},{"name":"Schubertweg","postalCode":"72250","locality":"Freudenstadt","municipality":{"key":"08237028","name":"Freudenstadt, Stadt","type":"Große_Kreisstadt"},"district":{"key":"08237","name":"Freudenstadt","type":"Landkreis"},"federalState":{"key":"08","name":"Baden-Württemberg"}},{"name":"Schulstr.","postalCode":"72250","locality":"Freudenstadt","municipality":{"key":"08237028","name":"Freudenstadt, Stadt","type":"Große_Kreisstadt"},"district":{"key":"08237","name":"Freudenstadt","type":"Landkreis"},"federalState":{"key":"08","name":"Baden-Württemberg"}},{"name":"Schwanenstr.","postalCode":"72250","locality":"Freudenstadt","municipality":{"key":"08237028","name":"Freudenstadt, Stadt","type":"Große_Kreisstadt"},"district":{"key":"08237","name":"Freudenstadt","type":"Landkreis"},"federalState":{"key":"08","name":"Baden-Württemberg"}},{"name":"Schwarzer Stich","postalCode":"72250","locality":"Freudenstadt","municipality":{"key":"08237028","name":"Freudenstadt, Stadt","type":"Große_Kreisstadt"},"district":{"key":"08237","name":"Freudenstadt","type":"Landkreis"},"federalState":{"key":"08","name":"Baden-Württemberg"}},{"name":"Schwarzwaldstr.","postalCode":"72250","locality":"Freudenstadt","municipality":{"key":"08237028","name":"Freudenstadt, Stadt","type":"Große_Kreisstadt"},"district":{"key":"08237","name":"Freudenstadt","type":"Landkreis"},"federalState":{"key":"08","name":"Baden-Württemberg"}},{"name":"Schwenkeweg","postalCode":"72250","locality":"Freudenstadt","municipality":{"key":"08237028","name":"Freudenstadt, Stadt","type":"Große_Kreisstadt"},"district":{"key":"08237","name":"Freudenstadt","type":"Landkreis"},"federalState":{"key":"08","name":"Baden-Württemberg"}},{"name":"Seebach","postalCode":"72250","locality":"Freudenstadt","municipality":{"key":"08237028","name":"Freudenstadt, Stadt","type":"Große_Kreisstadt"},"district":{"key":"08237","name":"Freudenstadt","type":"Landkreis"},"federalState":{"key":"08","name":"Baden-Württemberg"}},{"name":"Siemensstr.","postalCode":"72250","locality":"Freudenstadt","municipality":{"key":"08237028","name":"Freudenstadt, Stadt","type":"Große_Kreisstadt"},"district":{"key":"08237","name":"Freudenstadt","type":"Landkreis"},"federalState":{"key":"08","name":"Baden-Württemberg"}},{"name":"Silcherstr.","postalCode":"72250","locality":"Freudenstadt","municipality":{"key":"08237028","name":"Freudenstadt, Stadt","type":"Große_Kreisstadt"},"district":{"key":"08237","name":"Freudenstadt","type":"Landkreis"},"federalState":{"key":"08","name":"Baden-Württemberg"}},{"name":"Skiweg","postalCode":"72250","locality":"Freudenstadt","municipality":{"key":"08237028","name":"Freudenstadt, Stadt","type":"Große_Kreisstadt"},"district":{"key":"08237","name":"Freudenstadt","type":"Landkreis"},"federalState":{"key":"08","name":"Baden-Württemberg"}},{"name":"Sommerhaldenweg","postalCode":"72250","locality":"Freudenstadt","municipality":{"key":"08237028","name":"Freudenstadt, Stadt","type":"Große_Kreisstadt"},"district":{"key":"08237","name":"Freudenstadt","type":"Landkreis"},"federalState":{"key":"08","name":"Baden-Württemberg"}},{"name":"Sonnenhalde","postalCode":"72250","locality":"Freudenstadt","municipality":{"key":"08237028","name":"Freudenstadt, Stadt","type":"Große_Kreisstadt"},"district":{"key":"08237","name":"Freudenstadt","type":"Landkreis"},"federalState":{"key":"08","name":"Baden-Württemberg"}},{"name":"Sonnenhang","postalCode":"72250","locality":"Freudenstadt","municipality":{"key":"08237028","name":"Freudenstadt, Stadt","type":"Große_Kreisstadt"},"district":{"key":"08237","name":"Freudenstadt","type":"Landkreis"},"federalState":{"key":"08","name":"Baden-Württemberg"}},{"name":"Sonnenwiese","postalCode":"72250","locality":"Freudenstadt","municipality":{"key":"08237028","name":"Freudenstadt, Stadt","type":"Große_Kreisstadt"},"district":{"key":"08237","name":"Freudenstadt","type":"Landkreis"},"federalState":{"key":"08","name":"Baden-Württemberg"}},{"name":"Springbrunnenweg","postalCode":"72250","locality":"Freudenstadt","municipality":{"key":"08237028","name":"Freudenstadt, Stadt","type":"Große_Kreisstadt"},"district":{"key":"08237","name":"Freudenstadt","type":"Landkreis"},"federalState":{"key":"08","name":"Baden-Württemberg"}},{"name":"Stadter Mahd","postalCode":"72250","locality":"Freudenstadt","municipality":{"key":"08237028","name":"Freudenstadt, Stadt","type":"Große_Kreisstadt"},"district":{"key":"08237","name":"Freudenstadt","type":"Landkreis"},"federalState":{"key":"08","name":"Baden-Württemberg"}},{"name":"Staufenstr.","postalCode":"72250","locality":"Freudenstadt","municipality":{"key":"08237028","name":"Freudenstadt, Stadt","type":"Große_Kreisstadt"},"district":{"key":"08237","name":"Freudenstadt","type":"Landkreis"},"federalState":{"key":"08","name":"Baden-Württemberg"}},{"name":"Steinbeisweg","postalCode":"72250","locality":"Freudenstadt","municipality":{"key":"08237028","name":"Freudenstadt, Stadt","type":"Große_Kreisstadt"},"district":{"key":"08237","name":"Freudenstadt","type":"Landkreis"},"federalState":{"key":"08","name":"Baden-Württemberg"}},{"name":"Steinhauerstr.","postalCode":"72250","locality":"Freudenstadt","municipality":{"key":"08237028","name":"Freudenstadt, Stadt","type":"Große_Kreisstadt"},"district":{"key":"08237","name":"Freudenstadt","type":"Landkreis"},"federalState":{"key":"08","name":"Baden-Württemberg"}},{"name":"Stettiner Str.","postalCode":"72250","locality":"Freudenstadt","municipality":{"key":"08237028","name":"Freudenstadt, Stadt","type":"Große_Kreisstadt"},"district":{"key":"08237","name":"Freudenstadt","type":"Landkreis"},"federalState":{"key":"08","name":"Baden-Württemberg"}},{"name":"Stiegelweg","postalCode":"72250","locality":"Freudenstadt","municipality":{"key":"08237028","name":"Freudenstadt, Stadt","type":"Große_Kreisstadt"},"district":{"key":"08237","name":"Freudenstadt","type":"Landkreis"},"federalState":{"key":"08","name":"Baden-Württemberg"}},{"name":"Stockerbachstr.","postalCode":"72250","locality":"Freudenstadt","municipality":{"key":"08237028","name":"Freudenstadt, Stadt","type":"Große_Kreisstadt"},"district":{"key":"08237","name":"Freudenstadt","type":"Landkreis"},"federalState":{"key":"08","name":"Baden-Württemberg"}},{"name":"Stockerbachweg","postalCode":"72250","locality":"Freudenstadt","municipality":{"key":"08237028","name":"Freudenstadt, Stadt","type":"Große_Kreisstadt"},"district":{"key":"08237","name":"Freudenstadt","type":"Landkreis"},"federalState":{"key":"08","name":"Baden-Württemberg"}},{"name":"Stockerweg","postalCode":"72250","locality":"Freudenstadt","municipality":{"key":"08237028","name":"Freudenstadt, Stadt","type":"Große_Kreisstadt"},"district":{"key":"08237","name":"Freudenstadt","type":"Landkreis"},"federalState":{"key":"08","name":"Baden-Württemberg"}},{"name":"Stöfflerstr.","postalCode":"72250","locality":"Freudenstadt","municipality":{"key":"08237028","name":"Freudenstadt, Stadt","type":"Große_Kreisstadt"},"district":{"key":"08237","name":"Freudenstadt","type":"Landkreis"},"federalState":{"key":"08","name":"Baden-Württemberg"}},{"name":"Stokingerweg","postalCode":"72250","locality":"Freudenstadt","municipality":{"key":"08237028","name":"Freudenstadt, Stadt","type":"Große_Kreisstadt"},"district":{"key":"08237","name":"Freudenstadt","type":"Landkreis"},"federalState":{"key":"08","name":"Baden-Württemberg"}},{"name":"Straßburger Str.","postalCode":"72250","locality":"Freudenstadt","municipality":{"key":"08237028","name":"Freudenstadt, Stadt","type":"Große_Kreisstadt"},"district":{"key":"08237","name":"Freudenstadt","type":"Landkreis"},"federalState":{"key":"08","name":"Baden-Württemberg"}},{"name":"Tal","postalCode":"72250","locality":"Freudenstadt","municipality":{"key":"08237028","name":"Freudenstadt, Stadt","type":"Große_Kreisstadt"},"district":{"key":"08237","name":"Freudenstadt","type":"Landkreis"},"federalState":{"key":"08","name":"Baden-Württemberg"}},{"name":"Talstr.","postalCode":"72250","locality":"Freudenstadt","municipality":{"key":"08237028","name":"Freudenstadt, Stadt","type":"Große_Kreisstadt"},"district":{"key":"08237","name":"Freudenstadt","type":"Landkreis"},"federalState":{"key":"08","name":"Baden-Württemberg"}},{"name":"Tannenstr.","postalCode":"72250","locality":"Freudenstadt","municipality":{"key":"08237028","name":"Freudenstadt, Stadt","type":"Große_Kreisstadt"},"district":{"key":"08237","name":"Freudenstadt","type":"Landkreis"},"federalState":{"key":"08","name":"Baden-Württemberg"}},{"name":"Teckstr.","postalCode":"72250","locality":"Freudenstadt","municipality":{"key":"08237028","name":"Freudenstadt, Stadt","type":"Große_Kreisstadt"},"district":{"key":"08237","name":"Freudenstadt","type":"Landkreis"},"federalState":{"key":"08","name":"Baden-Württemberg"}},{"name":"Teuchelweg","postalCode":"72250","locality":"Freudenstadt","municipality":{"key":"08237028","name":"Freudenstadt, Stadt","type":"Große_Kreisstadt"},"district":{"key":"08237","name":"Freudenstadt","type":"Landkreis"},"federalState":{"key":"08","name":"Baden-Württemberg"}},{"name":"Thea-Rasche-Weg","postalCode":"72250","locality":"Freudenstadt","municipality":{"key":"08237028","name":"Freudenstadt, Stadt","type":"Große_Kreisstadt"},"district":{"key":"08237","name":"Freudenstadt","type":"Landkreis"},"federalState":{"key":"08","name":"Baden-Württemberg"}},{"name":"Traufweg","postalCode":"72250","locality":"Freudenstadt","municipality":{"key":"08237028","name":"Freudenstadt, Stadt","type":"Große_Kreisstadt"},"district":{"key":"08237","name":"Freudenstadt","type":"Landkreis"},"federalState":{"key":"08","name":"Baden-Württemberg"}},{"name":"Tripsenweg","postalCode":"72250","locality":"Freudenstadt","municipality":{"key":"08237028","name":"Freudenstadt, Stadt","type":"Große_Kreisstadt"},"district":{"key":"08237","name":"Freudenstadt","type":"Landkreis"},"federalState":{"key":"08","name":"Baden-Württemberg"}},{"name":"Tuchmacherstr.","postalCode":"72250","locality":"Freudenstadt","municipality":{"key":"08237028","name":"Freudenstadt, Stadt","type":"Große_Kreisstadt"},"district":{"key":"08237","name":"Freudenstadt","type":"Landkreis"},"federalState":{"key":"08","name":"Baden-Württemberg"}},{"name":"Tulpenstr.","postalCode":"72250","locality":"Freudenstadt","municipality":{"key":"08237028","name":"Freudenstadt, Stadt","type":"Große_Kreisstadt"},"district":{"key":"08237","name":"Freudenstadt","type":"Landkreis"},"federalState":{"key":"08","name":"Baden-Württemberg"}},{"name":"Turnhallestr.","postalCode":"72250","locality":"Freudenstadt","municipality":{"key":"08237028","name":"Freudenstadt, Stadt","type":"Große_Kreisstadt"},"district":{"key":"08237","name":"Freudenstadt","type":"Landkreis"},"federalState":{"key":"08","name":"Baden-Württemberg"}},{"name":"Uhlandstr.","postalCode":"72250","locality":"Freudenstadt","municipality":{"key":"08237028","name":"Freudenstadt, Stadt","type":"Große_Kreisstadt"},"district":{"key":"08237","name":"Freudenstadt","type":"Landkreis"},"federalState":{"key":"08","name":"Baden-Württemberg"}},{"name":"Ulanenstr.","postalCode":"72250","locality":"Freudenstadt","municipality":{"key":"08237028","name":"Freudenstadt, Stadt","type":"Große_Kreisstadt"},"district":{"key":"08237","name":"Freudenstadt","type":"Landkreis"},"federalState":{"key":"08","name":"Baden-Württemberg"}},{"name":"Unterer Palmenwaldweg","postalCode":"72250","locality":"Freudenstadt","municipality":{"key":"08237028","name":"Freudenstadt, Stadt","type":"Große_Kreisstadt"},"district":{"key":"08237","name":"Freudenstadt","type":"Landkreis"},"federalState":{"key":"08","name":"Baden-Württemberg"}},{"name":"Vischerweg","postalCode":"72250","locality":"Freudenstadt","municipality":{"key":"08237028","name":"Freudenstadt, Stadt","type":"Große_Kreisstadt"},"district":{"key":"08237","name":"Freudenstadt","type":"Landkreis"},"federalState":{"key":"08","name":"Baden-Württemberg"}},{"name":"Vogelsangweg","postalCode":"72250","locality":"Freudenstadt","municipality":{"key":"08237028","name":"Freudenstadt, Stadt","type":"Große_Kreisstadt"},"district":{"key":"08237","name":"Freudenstadt","type":"Landkreis"},"federalState":{"key":"08","name":"Baden-Württemberg"}},{"name":"Vöhringer Str.","postalCode":"72250","locality":"Freudenstadt","municipality":{"key":"08237028","name":"Freudenstadt, Stadt","type":"Große_Kreisstadt"},"district":{"key":"08237","name":"Freudenstadt","type":"Landkreis"},"federalState":{"key":"08","name":"Baden-Württemberg"}},{"name":"Waidschlagweg","postalCode":"72250","locality":"Freudenstadt","municipality":{"key":"08237028","name":"Freudenstadt, Stadt","type":"Große_Kreisstadt"},"district":{"key":"08237","name":"Freudenstadt","type":"Landkreis"},"federalState":{"key":"08","name":"Baden-Württemberg"}},{"name":"Waldäcker","postalCode":"72250","locality":"Freudenstadt","municipality":{"key":"08237028","name":"Freudenstadt, Stadt","type":"Große_Kreisstadt"},"district":{"key":"08237","name":"Freudenstadt","type":"Landkreis"},"federalState":{"key":"08","name":"Baden-Württemberg"}},{"name":"Wäldestr.","postalCode":"72250","locality":"Freudenstadt","municipality":{"key":"08237028","name":"Freudenstadt, Stadt","type":"Große_Kreisstadt"},"district":{"key":"08237","name":"Freudenstadt","type":"Landkreis"},"federalState":{"key":"08","name":"Baden-Württemberg"}},{"name":"Waldgeschichtspfad","postalCode":"72250","locality":"Freudenstadt","municipality":{"key":"08237028","name":"Freudenstadt, Stadt","type":"Große_Kreisstadt"},"district":{"key":"08237","name":"Freudenstadt","type":"Landkreis"},"federalState":{"key":"08","name":"Baden-Württemberg"}},{"name":"Waldhornweg","postalCode":"72250","locality":"Freudenstadt","municipality":{"key":"08237028","name":"Freudenstadt, Stadt","type":"Große_Kreisstadt"},"district":{"key":"08237","name":"Freudenstadt","type":"Landkreis"},"federalState":{"key":"08","name":"Baden-Württemberg"}},{"name":"Wäldlesweg","postalCode":"72250","locality":"Freudenstadt","municipality":{"key":"08237028","name":"Freudenstadt, Stadt","type":"Große_Kreisstadt"},"district":{"key":"08237","name":"Freudenstadt","type":"Landkreis"},"federalState":{"key":"08","name":"Baden-Württemberg"}},{"name":"Waldstr.","postalCode":"72250","locality":"Freudenstadt","municipality":{"key":"08237028","name":"Freudenstadt, Stadt","type":"Große_Kreisstadt"},"district":{"key":"08237","name":"Freudenstadt","type":"Landkreis"},"federalState":{"key":"08","name":"Baden-Württemberg"}},{"name":"Wallstr.","postalCode":"72250","locality":"Freudenstadt","municipality":{"key":"08237028","name":"Freudenstadt, Stadt","type":"Große_Kreisstadt"},"district":{"key":"08237","name":"Freudenstadt","type":"Landkreis"},"federalState":{"key":"08","name":"Baden-Württemberg"}},{"name":"Wangerweg","postalCode":"72250","locality":"Freudenstadt","municipality":{"key":"08237028","name":"Freudenstadt, Stadt","type":"Große_Kreisstadt"},"district":{"key":"08237","name":"Freudenstadt","type":"Landkreis"},"federalState":{"key":"08","name":"Baden-Württemberg"}},{"name":"Wannenweg","postalCode":"72250","locality":"Freudenstadt","municipality":{"key":"08237028","name":"Freudenstadt, Stadt","type":"Große_Kreisstadt"},"district":{"key":"08237","name":"Freudenstadt","type":"Landkreis"},"federalState":{"key":"08","name":"Baden-Württemberg"}},{"name":"Warnbergstr.","postalCode":"72250","locality":"Freudenstadt","municipality":{"key":"08237028","name":"Freudenstadt, Stadt","type":"Große_Kreisstadt"},"district":{"key":"08237","name":"Freudenstadt","type":"Landkreis"},"federalState":{"key":"08","name":"Baden-Württemberg"}},{"name":"Wasenweg","postalCode":"72250","locality":"Freudenstadt","municipality":{"key":"08237028","name":"Freudenstadt, Stadt","type":"Große_Kreisstadt"},"district":{"key":"08237","name":"Freudenstadt","type":"Landkreis"},"federalState":{"key":"08","name":"Baden-Württemberg"}},{"name":"Wasserhausweg","postalCode":"72250","locality":"Freudenstadt","municipality":{"key":"08237028","name":"Freudenstadt, Stadt","type":"Große_Kreisstadt"},"district":{"key":"08237","name":"Freudenstadt","type":"Landkreis"},"federalState":{"key":"08","name":"Baden-Württemberg"}},{"name":"Weimarstr.","postalCode":"72250","locality":"Freudenstadt","municipality":{"key":"08237028","name":"Freudenstadt, Stadt","type":"Große_Kreisstadt"},"district":{"key":"08237","name":"Freudenstadt","type":"Landkreis"},"federalState":{"key":"08","name":"Baden-Württemberg"}},{"name":"Wiesenblick","postalCode":"72250","locality":"Freudenstadt","municipality":{"key":"08237028","name":"Freudenstadt, Stadt","type":"Große_Kreisstadt"},"district":{"key":"08237","name":"Freudenstadt","type":"Landkreis"},"federalState":{"key":"08","name":"Baden-Württemberg"}},{"name":"Wildbader Str.","postalCode":"72250","locality":"Freudenstadt","municipality":{"key":"08237028","name":"Freudenstadt, Stadt","type":"Große_Kreisstadt"},"district":{"key":"08237","name":"Freudenstadt","type":"Landkreis"},"federalState":{"key":"08","name":"Baden-Württemberg"}},{"name":"Wilhelm-Busch-Str.","postalCode":"72250","locality":"Freudenstadt","municipality":{"key":"08237028","name":"Freudenstadt, Stadt","type":"Große_Kreisstadt"},"district":{"key":"08237","name":"Freudenstadt","type":"Landkreis"},"federalState":{"key":"08","name":"Baden-Württemberg"}},{"name":"Wilhelm-Hauff-Str.","postalCode":"72250","locality":"Freudenstadt","municipality":{"key":"08237028","name":"Freudenstadt, Stadt","type":"Große_Kreisstadt"},"district":{"key":"08237","name":"Freudenstadt","type":"Landkreis"},"federalState":{"key":"08","name":"Baden-Württemberg"}},{"name":"Wilhelm-Münster-Str.","postalCode":"72250","locality":"Freudenstadt","municipality":{"key":"08237028","name":"Freudenstadt, Stadt","type":"Große_Kreisstadt"},"district":{"key":"08237","name":"Freudenstadt","type":"Landkreis"},"federalState":{"key":"08","name":"Baden-Württemberg"}},{"name":"Wilhelmstr.","postalCode":"72250","locality":"Freudenstadt","municipality":{"key":"08237028","name":"Freudenstadt, Stadt","type":"Große_Kreisstadt"},"district":{"key":"08237","name":"Freudenstadt","type":"Landkreis"},"federalState":{"key":"08","name":"Baden-Württemberg"}},{"name":"Wittlensweilerstr.","postalCode":"72250","locality":"Freudenstadt","municipality":{"key":"08237028","name":"Freudenstadt, Stadt","type":"Große_Kreisstadt"},"district":{"key":"08237","name":"Freudenstadt","type":"Landkreis"},"federalState":{"key":"08","name":"Baden-Württemberg"}},{"name":"Wölperwiesenweg","postalCode":"72250","locality":"Freudenstadt","municipality":{"key":"08237028","name":"Freudenstadt, Stadt","type":"Große_Kreisstadt"},"district":{"key":"08237","name":"Freudenstadt","type":"Landkreis"},"federalState":{"key":"08","name":"Baden-Württemberg"}},{"name":"Zachergässle","postalCode":"72250","locality":"Freudenstadt","municipality":{"key":"08237028","name":"Freudenstadt, Stadt","type":"Große_Kreisstadt"},"district":{"key":"08237","name":"Freudenstadt","type":"Landkreis"},"federalState":{"key":"08","name":"Baden-Württemberg"}},{"name":"Zeppelinstr.","postalCode":"72250","locality":"Freudenstadt","municipality":{"key":"08237028","name":"Freudenstadt, Stadt","type":"Große_Kreisstadt"},"district":{"key":"08237","name":"Freudenstadt","type":"Landkreis"},"federalState":{"key":"08","name":"Baden-Württemberg"}},{"name":"Ziegelbuckel","postalCode":"72250","locality":"Freudenstadt","municipality":{"key":"08237028","name":"Freudenstadt, Stadt","type":"Große_Kreisstadt"},"district":{"key":"08237","name":"Freudenstadt","type":"Landkreis"},"federalState":{"key":"08","name":"Baden-Württemberg"}},{"name":"Ziegeleistr.","postalCode":"72250","locality":"Freudenstadt","municipality":{"key":"08237028","name":"Freudenstadt, Stadt","type":"Große_Kreisstadt"},"district":{"key":"08237","name":"Freudenstadt","type":"Landkreis"},"federalState":{"key":"08","name":"Baden-Württemberg"}},{"name":"Ziegelwäldle","postalCode":"72250","locality":"Freudenstadt","municipality":{"key":"08237028","name":"Freudenstadt, Stadt","type":"Große_Kreisstadt"},"district":{"key":"08237","name":"Freudenstadt","type":"Landkreis"},"federalState":{"key":"08","name":"Baden-Württemberg"}},{"name":"Zollernblickweg","postalCode":"72250","locality":"Freudenstadt","municipality":{"key":"08237028","name":"Freudenstadt, Stadt","type":"Große_Kreisstadt"},"district":{"key":"08237","name":"Freudenstadt","type":"Landkreis"},"federalState":{"key":"08","name":"Baden-Württemberg"}},{"name":"Zollernstr.","postalCode":"72250","locality":"Freudenstadt","municipality":{"key":"08237028","name":"Freudenstadt, Stadt","type":"Große_Kreisstadt"},"district":{"key":"08237","name":"Freudenstadt","type":"Landkreis"},"federalState":{"key":"08","name":"Baden-Württemberg"}},{"name":"Zwieselberg","postalCode":"72250","locality":"Freudenstadt","municipality":{"key":"08237028","name":"Freudenstadt, Stadt","type":"Große_Kreisstadt"},"district":{"key":"08237","name":"Freudenstadt","type":"Landkreis"},"federalState":{"key":"08","name":"Baden-Württemberg"}},{"name":"Äußere Riviera","postalCode":"72250","locality":"Freudenstadt","municipality":{"key":"08237028","name":"Freudenstadt, Stadt","type":"Große_Kreisstadt"},"district":{"key":"08237","name":"Freudenstadt","type":"Landkreis"},"federalState":{"key":"08","name":"Baden-Württemberg"}},{"name":"Österbach","postalCode":"72250","locality":"Freudenstadt","municipality":{"key":"08237028","name":"Freudenstadt, Stadt","type":"Große_Kreisstadt"},"district":{"key":"08237","name":"Freudenstadt","type":"Landkreis"},"federalState":{"key":"08","name":"Baden-Württemberg"}},]