[{"name":"Am Gross Bütt","postalCode":"23972","locality":"Metelsdorf","municipality":{"key":"13074053","name":"Metelsdorf","type":"Kreisangehörige_Gemeinde"},"district":{"key":"13074","name":"Nordwestmecklenburg","type":"Landkreis"},"federalState":{"key":"13","name":"Mecklenburg-Vorpommern"}},{"name":"Birkenweg","postalCode":"23972","locality":"Metelsdorf","municipality":{"key":"13074053","name":"Metelsdorf","type":"Kreisangehörige_Gemeinde"},"district":{"key":"13074","name":"Nordwestmecklenburg","type":"Landkreis"},"federalState":{"key":"13","name":"Mecklenburg-Vorpommern"}},{"name":"Dammweg","postalCode":"23972","locality":"Metelsdorf","municipality":{"key":"13074053","name":"Metelsdorf","type":"Kreisangehörige_Gemeinde"},"district":{"key":"13074","name":"Nordwestmecklenburg","type":"Landkreis"},"federalState":{"key":"13","name":"Mecklenburg-Vorpommern"}},{"name":"Hauptstr.","postalCode":"23972","locality":"Metelsdorf","municipality":{"key":"13074053","name":"Metelsdorf","type":"Kreisangehörige_Gemeinde"},"district":{"key":"13074","name":"Nordwestmecklenburg","type":"Landkreis"},"federalState":{"key":"13","name":"Mecklenburg-Vorpommern"}},{"name":"Maibruchweg","postalCode":"23972","locality":"Metelsdorf","municipality":{"key":"13074053","name":"Metelsdorf","type":"Kreisangehörige_Gemeinde"},"district":{"key":"13074","name":"Nordwestmecklenburg","type":"Landkreis"},"federalState":{"key":"13","name":"Mecklenburg-Vorpommern"}},{"name":"Martensdorf","postalCode":"23972","locality":"Metelsdorf","municipality":{"key":"13074053","name":"Metelsdorf","type":"Kreisangehörige_Gemeinde"},"district":{"key":"13074","name":"Nordwestmecklenburg","type":"Landkreis"},"federalState":{"key":"13","name":"Mecklenburg-Vorpommern"}},{"name":"Mecklenburger Str.","postalCode":"23972","locality":"Metelsdorf","municipality":{"key":"13074053","name":"Metelsdorf","type":"Kreisangehörige_Gemeinde"},"district":{"key":"13074","name":"Nordwestmecklenburg","type":"Landkreis"},"federalState":{"key":"13","name":"Mecklenburg-Vorpommern"}},{"name":"Metelsdorfer Str.","postalCode":"23972","locality":"Metelsdorf","municipality":{"key":"13074053","name":"Metelsdorf","type":"Kreisangehörige_Gemeinde"},"district":{"key":"13074","name":"Nordwestmecklenburg","type":"Landkreis"},"federalState":{"key":"13","name":"Mecklenburg-Vorpommern"}},{"name":"Schulenbrook","postalCode":"23972","locality":"Metelsdorf","municipality":{"key":"13074053","name":"Metelsdorf","type":"Kreisangehörige_Gemeinde"},"district":{"key":"13074","name":"Nordwestmecklenburg","type":"Landkreis"},"federalState":{"key":"13","name":"Mecklenburg-Vorpommern"}},{"name":"Zum Bach","postalCode":"23972","locality":"Metelsdorf","municipality":{"key":"13074053","name":"Metelsdorf","type":"Kreisangehörige_Gemeinde"},"district":{"key":"13074","name":"Nordwestmecklenburg","type":"Landkreis"},"federalState":{"key":"13","name":"Mecklenburg-Vorpommern"}},]