[{"name":"Akazienweg","postalCode":"34474","locality":"Diemelstadt","municipality":{"key":"06635008","name":"Diemelstadt, Stadt","type":"Stadt"},"district":{"key":"06635","name":"Waldeck-Frankenberg","type":"Landkreis"},"federalState":{"key":"06","name":"Hessen"}},{"name":"Alte Landstr.","postalCode":"34474","locality":"Diemelstadt","municipality":{"key":"06635008","name":"Diemelstadt, Stadt","type":"Stadt"},"district":{"key":"06635","name":"Waldeck-Frankenberg","type":"Landkreis"},"federalState":{"key":"06","name":"Hessen"}},{"name":"Alter Friedhofsweg","postalCode":"34474","locality":"Diemelstadt","municipality":{"key":"06635008","name":"Diemelstadt, Stadt","type":"Stadt"},"district":{"key":"06635","name":"Waldeck-Frankenberg","type":"Landkreis"},"federalState":{"key":"06","name":"Hessen"}},{"name":"Alter Weg","postalCode":"34474","locality":"Diemelstadt","municipality":{"key":"06635008","name":"Diemelstadt, Stadt","type":"Stadt"},"district":{"key":"06635","name":"Waldeck-Frankenberg","type":"Landkreis"},"federalState":{"key":"06","name":"Hessen"}},{"name":"Am Großen Knappe","postalCode":"34474","locality":"Diemelstadt","municipality":{"key":"06635008","name":"Diemelstadt, Stadt","type":"Stadt"},"district":{"key":"06635","name":"Waldeck-Frankenberg","type":"Landkreis"},"federalState":{"key":"06","name":"Hessen"}},{"name":"Am Hopfengarten","postalCode":"34474","locality":"Diemelstadt","municipality":{"key":"06635008","name":"Diemelstadt, Stadt","type":"Stadt"},"district":{"key":"06635","name":"Waldeck-Frankenberg","type":"Landkreis"},"federalState":{"key":"06","name":"Hessen"}},{"name":"Am Kehlberg","postalCode":"34474","locality":"Diemelstadt","municipality":{"key":"06635008","name":"Diemelstadt, Stadt","type":"Stadt"},"district":{"key":"06635","name":"Waldeck-Frankenberg","type":"Landkreis"},"federalState":{"key":"06","name":"Hessen"}},{"name":"Am Lustgarten","postalCode":"34474","locality":"Diemelstadt","municipality":{"key":"06635008","name":"Diemelstadt, Stadt","type":"Stadt"},"district":{"key":"06635","name":"Waldeck-Frankenberg","type":"Landkreis"},"federalState":{"key":"06","name":"Hessen"}},{"name":"Am Mausepfad","postalCode":"34474","locality":"Diemelstadt","municipality":{"key":"06635008","name":"Diemelstadt, Stadt","type":"Stadt"},"district":{"key":"06635","name":"Waldeck-Frankenberg","type":"Landkreis"},"federalState":{"key":"06","name":"Hessen"}},{"name":"Am Rhoder Bach","postalCode":"34474","locality":"Diemelstadt","municipality":{"key":"06635008","name":"Diemelstadt, Stadt","type":"Stadt"},"district":{"key":"06635","name":"Waldeck-Frankenberg","type":"Landkreis"},"federalState":{"key":"06","name":"Hessen"}},{"name":"Am Schlossberg","postalCode":"34474","locality":"Diemelstadt","municipality":{"key":"06635008","name":"Diemelstadt, Stadt","type":"Stadt"},"district":{"key":"06635","name":"Waldeck-Frankenberg","type":"Landkreis"},"federalState":{"key":"06","name":"Hessen"}},{"name":"Am Sportplatz","postalCode":"34474","locality":"Diemelstadt","municipality":{"key":"06635008","name":"Diemelstadt, Stadt","type":"Stadt"},"district":{"key":"06635","name":"Waldeck-Frankenberg","type":"Landkreis"},"federalState":{"key":"06","name":"Hessen"}},{"name":"Am Stiegel","postalCode":"34474","locality":"Diemelstadt","municipality":{"key":"06635008","name":"Diemelstadt, Stadt","type":"Stadt"},"district":{"key":"06635","name":"Waldeck-Frankenberg","type":"Landkreis"},"federalState":{"key":"06","name":"Hessen"}},{"name":"An der Tonkuhle","postalCode":"34474","locality":"Diemelstadt","municipality":{"key":"06635008","name":"Diemelstadt, Stadt","type":"Stadt"},"district":{"key":"06635","name":"Waldeck-Frankenberg","type":"Landkreis"},"federalState":{"key":"06","name":"Hessen"}},{"name":"Antonsgasse","postalCode":"34474","locality":"Diemelstadt","municipality":{"key":"06635008","name":"Diemelstadt, Stadt","type":"Stadt"},"district":{"key":"06635","name":"Waldeck-Frankenberg","type":"Landkreis"},"federalState":{"key":"06","name":"Hessen"}},{"name":"Asseler Str.","postalCode":"34474","locality":"Diemelstadt","municipality":{"key":"06635008","name":"Diemelstadt, Stadt","type":"Stadt"},"district":{"key":"06635","name":"Waldeck-Frankenberg","type":"Landkreis"},"federalState":{"key":"06","name":"Hessen"}},{"name":"Auerhahnsberg","postalCode":"34474","locality":"Diemelstadt","municipality":{"key":"06635008","name":"Diemelstadt, Stadt","type":"Stadt"},"district":{"key":"06635","name":"Waldeck-Frankenberg","type":"Landkreis"},"federalState":{"key":"06","name":"Hessen"}},{"name":"Auf dem kleinen Hügel","postalCode":"34474","locality":"Diemelstadt","municipality":{"key":"06635008","name":"Diemelstadt, Stadt","type":"Stadt"},"district":{"key":"06635","name":"Waldeck-Frankenberg","type":"Landkreis"},"federalState":{"key":"06","name":"Hessen"}},{"name":"Auf dem Ort","postalCode":"34474","locality":"Diemelstadt","municipality":{"key":"06635008","name":"Diemelstadt, Stadt","type":"Stadt"},"district":{"key":"06635","name":"Waldeck-Frankenberg","type":"Landkreis"},"federalState":{"key":"06","name":"Hessen"}},{"name":"Auf dem Schilde","postalCode":"34474","locality":"Diemelstadt","municipality":{"key":"06635008","name":"Diemelstadt, Stadt","type":"Stadt"},"district":{"key":"06635","name":"Waldeck-Frankenberg","type":"Landkreis"},"federalState":{"key":"06","name":"Hessen"}},{"name":"Auf dem Tannenberg","postalCode":"34474","locality":"Diemelstadt","municipality":{"key":"06635008","name":"Diemelstadt, Stadt","type":"Stadt"},"district":{"key":"06635","name":"Waldeck-Frankenberg","type":"Landkreis"},"federalState":{"key":"06","name":"Hessen"}},{"name":"Auf den Kleinen Steinen","postalCode":"34474","locality":"Diemelstadt","municipality":{"key":"06635008","name":"Diemelstadt, Stadt","type":"Stadt"},"district":{"key":"06635","name":"Waldeck-Frankenberg","type":"Landkreis"},"federalState":{"key":"06","name":"Hessen"}},{"name":"Auf den Klippen","postalCode":"34474","locality":"Diemelstadt","municipality":{"key":"06635008","name":"Diemelstadt, Stadt","type":"Stadt"},"district":{"key":"06635","name":"Waldeck-Frankenberg","type":"Landkreis"},"federalState":{"key":"06","name":"Hessen"}},{"name":"August-Koch-Str.","postalCode":"34474","locality":"Diemelstadt","municipality":{"key":"06635008","name":"Diemelstadt, Stadt","type":"Stadt"},"district":{"key":"06635","name":"Waldeck-Frankenberg","type":"Landkreis"},"federalState":{"key":"06","name":"Hessen"}},{"name":"Bachstr.","postalCode":"34474","locality":"Diemelstadt","municipality":{"key":"06635008","name":"Diemelstadt, Stadt","type":"Stadt"},"district":{"key":"06635","name":"Waldeck-Frankenberg","type":"Landkreis"},"federalState":{"key":"06","name":"Hessen"}},{"name":"Bäckerstr.","postalCode":"34474","locality":"Diemelstadt","municipality":{"key":"06635008","name":"Diemelstadt, Stadt","type":"Stadt"},"district":{"key":"06635","name":"Waldeck-Frankenberg","type":"Landkreis"},"federalState":{"key":"06","name":"Hessen"}},{"name":"Bahnhof","postalCode":"34474","locality":"Diemelstadt","municipality":{"key":"06635008","name":"Diemelstadt, Stadt","type":"Stadt"},"district":{"key":"06635","name":"Waldeck-Frankenberg","type":"Landkreis"},"federalState":{"key":"06","name":"Hessen"}},{"name":"Beim niederen Teiche","postalCode":"34474","locality":"Diemelstadt","municipality":{"key":"06635008","name":"Diemelstadt, Stadt","type":"Stadt"},"district":{"key":"06635","name":"Waldeck-Frankenberg","type":"Landkreis"},"federalState":{"key":"06","name":"Hessen"}},{"name":"Berghof","postalCode":"34474","locality":"Diemelstadt","municipality":{"key":"06635008","name":"Diemelstadt, Stadt","type":"Stadt"},"district":{"key":"06635","name":"Waldeck-Frankenberg","type":"Landkreis"},"federalState":{"key":"06","name":"Hessen"}},{"name":"Bergstr.","postalCode":"34474","locality":"Diemelstadt","municipality":{"key":"06635008","name":"Diemelstadt, Stadt","type":"Stadt"},"district":{"key":"06635","name":"Waldeck-Frankenberg","type":"Landkreis"},"federalState":{"key":"06","name":"Hessen"}},{"name":"Berliner Str.","postalCode":"34474","locality":"Diemelstadt","municipality":{"key":"06635008","name":"Diemelstadt, Stadt","type":"Stadt"},"district":{"key":"06635","name":"Waldeck-Frankenberg","type":"Landkreis"},"federalState":{"key":"06","name":"Hessen"}},{"name":"Biggenbusch","postalCode":"34474","locality":"Diemelstadt","municipality":{"key":"06635008","name":"Diemelstadt, Stadt","type":"Stadt"},"district":{"key":"06635","name":"Waldeck-Frankenberg","type":"Landkreis"},"federalState":{"key":"06","name":"Hessen"}},{"name":"Billinghäuser Weg","postalCode":"34474","locality":"Diemelstadt","municipality":{"key":"06635008","name":"Diemelstadt, Stadt","type":"Stadt"},"district":{"key":"06635","name":"Waldeck-Frankenberg","type":"Landkreis"},"federalState":{"key":"06","name":"Hessen"}},{"name":"Birkenkamp","postalCode":"34474","locality":"Diemelstadt","municipality":{"key":"06635008","name":"Diemelstadt, Stadt","type":"Stadt"},"district":{"key":"06635","name":"Waldeck-Frankenberg","type":"Landkreis"},"federalState":{"key":"06","name":"Hessen"}},{"name":"Blumenweg","postalCode":"34474","locality":"Diemelstadt","municipality":{"key":"06635008","name":"Diemelstadt, Stadt","type":"Stadt"},"district":{"key":"06635","name":"Waldeck-Frankenberg","type":"Landkreis"},"federalState":{"key":"06","name":"Hessen"}},{"name":"Brandenbruch-Str.","postalCode":"34474","locality":"Diemelstadt","municipality":{"key":"06635008","name":"Diemelstadt, Stadt","type":"Stadt"},"district":{"key":"06635","name":"Waldeck-Frankenberg","type":"Landkreis"},"federalState":{"key":"06","name":"Hessen"}},{"name":"Brombergstr.","postalCode":"34474","locality":"Diemelstadt","municipality":{"key":"06635008","name":"Diemelstadt, Stadt","type":"Stadt"},"district":{"key":"06635","name":"Waldeck-Frankenberg","type":"Landkreis"},"federalState":{"key":"06","name":"Hessen"}},{"name":"Brunnenstr.","postalCode":"34474","locality":"Diemelstadt","municipality":{"key":"06635008","name":"Diemelstadt, Stadt","type":"Stadt"},"district":{"key":"06635","name":"Waldeck-Frankenberg","type":"Landkreis"},"federalState":{"key":"06","name":"Hessen"}},{"name":"Bunsenstr.","postalCode":"34474","locality":"Diemelstadt","municipality":{"key":"06635008","name":"Diemelstadt, Stadt","type":"Stadt"},"district":{"key":"06635","name":"Waldeck-Frankenberg","type":"Landkreis"},"federalState":{"key":"06","name":"Hessen"}},{"name":"Burggraben","postalCode":"34474","locality":"Diemelstadt","municipality":{"key":"06635008","name":"Diemelstadt, Stadt","type":"Stadt"},"district":{"key":"06635","name":"Waldeck-Frankenberg","type":"Landkreis"},"federalState":{"key":"06","name":"Hessen"}},{"name":"Dehausen","postalCode":"34474","locality":"Diemelstadt","municipality":{"key":"06635008","name":"Diemelstadt, Stadt","type":"Stadt"},"district":{"key":"06635","name":"Waldeck-Frankenberg","type":"Landkreis"},"federalState":{"key":"06","name":"Hessen"}},{"name":"Detelsheimer Weg","postalCode":"34474","locality":"Diemelstadt","municipality":{"key":"06635008","name":"Diemelstadt, Stadt","type":"Stadt"},"district":{"key":"06635","name":"Waldeck-Frankenberg","type":"Landkreis"},"federalState":{"key":"06","name":"Hessen"}},{"name":"Diemelstr.","postalCode":"34474","locality":"Diemelstadt","municipality":{"key":"06635008","name":"Diemelstadt, Stadt","type":"Stadt"},"district":{"key":"06635","name":"Waldeck-Frankenberg","type":"Landkreis"},"federalState":{"key":"06","name":"Hessen"}},{"name":"Diemelweg","postalCode":"34474","locality":"Diemelstadt","municipality":{"key":"06635008","name":"Diemelstadt, Stadt","type":"Stadt"},"district":{"key":"06635","name":"Waldeck-Frankenberg","type":"Landkreis"},"federalState":{"key":"06","name":"Hessen"}},{"name":"Dorfstr.","postalCode":"34474","locality":"Diemelstadt","municipality":{"key":"06635008","name":"Diemelstadt, Stadt","type":"Stadt"},"district":{"key":"06635","name":"Waldeck-Frankenberg","type":"Landkreis"},"federalState":{"key":"06","name":"Hessen"}},{"name":"Drahthammer","postalCode":"34474","locality":"Diemelstadt","municipality":{"key":"06635008","name":"Diemelstadt, Stadt","type":"Stadt"},"district":{"key":"06635","name":"Waldeck-Frankenberg","type":"Landkreis"},"federalState":{"key":"06","name":"Hessen"}},{"name":"Driesch","postalCode":"34474","locality":"Diemelstadt","municipality":{"key":"06635008","name":"Diemelstadt, Stadt","type":"Stadt"},"district":{"key":"06635","name":"Waldeck-Frankenberg","type":"Landkreis"},"federalState":{"key":"06","name":"Hessen"}},{"name":"Ebentalsweg","postalCode":"34474","locality":"Diemelstadt","municipality":{"key":"06635008","name":"Diemelstadt, Stadt","type":"Stadt"},"district":{"key":"06635","name":"Waldeck-Frankenberg","type":"Landkreis"},"federalState":{"key":"06","name":"Hessen"}},{"name":"Eckenweg","postalCode":"34474","locality":"Diemelstadt","municipality":{"key":"06635008","name":"Diemelstadt, Stadt","type":"Stadt"},"district":{"key":"06635","name":"Waldeck-Frankenberg","type":"Landkreis"},"federalState":{"key":"06","name":"Hessen"}},{"name":"Eichholz","postalCode":"34474","locality":"Diemelstadt","municipality":{"key":"06635008","name":"Diemelstadt, Stadt","type":"Stadt"},"district":{"key":"06635","name":"Waldeck-Frankenberg","type":"Landkreis"},"federalState":{"key":"06","name":"Hessen"}},{"name":"Fabrikweg","postalCode":"34474","locality":"Diemelstadt","municipality":{"key":"06635008","name":"Diemelstadt, Stadt","type":"Stadt"},"district":{"key":"06635","name":"Waldeck-Frankenberg","type":"Landkreis"},"federalState":{"key":"06","name":"Hessen"}},{"name":"Fichtenweg","postalCode":"34474","locality":"Diemelstadt","municipality":{"key":"06635008","name":"Diemelstadt, Stadt","type":"Stadt"},"district":{"key":"06635","name":"Waldeck-Frankenberg","type":"Landkreis"},"federalState":{"key":"06","name":"Hessen"}},{"name":"Fliederweg","postalCode":"34474","locality":"Diemelstadt","municipality":{"key":"06635008","name":"Diemelstadt, Stadt","type":"Stadt"},"district":{"key":"06635","name":"Waldeck-Frankenberg","type":"Landkreis"},"federalState":{"key":"06","name":"Hessen"}},{"name":"Flüburg","postalCode":"34474","locality":"Diemelstadt","municipality":{"key":"06635008","name":"Diemelstadt, Stadt","type":"Stadt"},"district":{"key":"06635","name":"Waldeck-Frankenberg","type":"Landkreis"},"federalState":{"key":"06","name":"Hessen"}},{"name":"Forsthausweg","postalCode":"34474","locality":"Diemelstadt","municipality":{"key":"06635008","name":"Diemelstadt, Stadt","type":"Stadt"},"district":{"key":"06635","name":"Waldeck-Frankenberg","type":"Landkreis"},"federalState":{"key":"06","name":"Hessen"}},{"name":"Forstrat Kayestr.","postalCode":"34474","locality":"Diemelstadt","municipality":{"key":"06635008","name":"Diemelstadt, Stadt","type":"Stadt"},"district":{"key":"06635","name":"Waldeck-Frankenberg","type":"Landkreis"},"federalState":{"key":"06","name":"Hessen"}},{"name":"Gartenstr.","postalCode":"34474","locality":"Diemelstadt","municipality":{"key":"06635008","name":"Diemelstadt, Stadt","type":"Stadt"},"district":{"key":"06635","name":"Waldeck-Frankenberg","type":"Landkreis"},"federalState":{"key":"06","name":"Hessen"}},{"name":"Georgenhof","postalCode":"34474","locality":"Diemelstadt","municipality":{"key":"06635008","name":"Diemelstadt, Stadt","type":"Stadt"},"district":{"key":"06635","name":"Waldeck-Frankenberg","type":"Landkreis"},"federalState":{"key":"06","name":"Hessen"}},{"name":"Gröneken","postalCode":"34474","locality":"Diemelstadt","municipality":{"key":"06635008","name":"Diemelstadt, Stadt","type":"Stadt"},"district":{"key":"06635","name":"Waldeck-Frankenberg","type":"Landkreis"},"federalState":{"key":"06","name":"Hessen"}},{"name":"Gruland","postalCode":"34474","locality":"Diemelstadt","municipality":{"key":"06635008","name":"Diemelstadt, Stadt","type":"Stadt"},"district":{"key":"06635","name":"Waldeck-Frankenberg","type":"Landkreis"},"federalState":{"key":"06","name":"Hessen"}},{"name":"Grundwiese","postalCode":"34474","locality":"Diemelstadt","municipality":{"key":"06635008","name":"Diemelstadt, Stadt","type":"Stadt"},"district":{"key":"06635","name":"Waldeck-Frankenberg","type":"Landkreis"},"federalState":{"key":"06","name":"Hessen"}},{"name":"Grüner Weg","postalCode":"34474","locality":"Diemelstadt","municipality":{"key":"06635008","name":"Diemelstadt, Stadt","type":"Stadt"},"district":{"key":"06635","name":"Waldeck-Frankenberg","type":"Landkreis"},"federalState":{"key":"06","name":"Hessen"}},{"name":"Haferkamp","postalCode":"34474","locality":"Diemelstadt","municipality":{"key":"06635008","name":"Diemelstadt, Stadt","type":"Stadt"},"district":{"key":"06635","name":"Waldeck-Frankenberg","type":"Landkreis"},"federalState":{"key":"06","name":"Hessen"}},{"name":"Hagenberg","postalCode":"34474","locality":"Diemelstadt","municipality":{"key":"06635008","name":"Diemelstadt, Stadt","type":"Stadt"},"district":{"key":"06635","name":"Waldeck-Frankenberg","type":"Landkreis"},"federalState":{"key":"06","name":"Hessen"}},{"name":"Hagenstr.","postalCode":"34474","locality":"Diemelstadt","municipality":{"key":"06635008","name":"Diemelstadt, Stadt","type":"Stadt"},"district":{"key":"06635","name":"Waldeck-Frankenberg","type":"Landkreis"},"federalState":{"key":"06","name":"Hessen"}},{"name":"Hangelbuche","postalCode":"34474","locality":"Diemelstadt","municipality":{"key":"06635008","name":"Diemelstadt, Stadt","type":"Stadt"},"district":{"key":"06635","name":"Waldeck-Frankenberg","type":"Landkreis"},"federalState":{"key":"06","name":"Hessen"}},{"name":"Harensberg","postalCode":"34474","locality":"Diemelstadt","municipality":{"key":"06635008","name":"Diemelstadt, Stadt","type":"Stadt"},"district":{"key":"06635","name":"Waldeck-Frankenberg","type":"Landkreis"},"federalState":{"key":"06","name":"Hessen"}},{"name":"Hauptstr.","postalCode":"34474","locality":"Diemelstadt","municipality":{"key":"06635008","name":"Diemelstadt, Stadt","type":"Stadt"},"district":{"key":"06635","name":"Waldeck-Frankenberg","type":"Landkreis"},"federalState":{"key":"06","name":"Hessen"}},{"name":"Heinenweg","postalCode":"34474","locality":"Diemelstadt","municipality":{"key":"06635008","name":"Diemelstadt, Stadt","type":"Stadt"},"district":{"key":"06635","name":"Waldeck-Frankenberg","type":"Landkreis"},"federalState":{"key":"06","name":"Hessen"}},{"name":"Helmighäuser Str.","postalCode":"34474","locality":"Diemelstadt","municipality":{"key":"06635008","name":"Diemelstadt, Stadt","type":"Stadt"},"district":{"key":"06635","name":"Waldeck-Frankenberg","type":"Landkreis"},"federalState":{"key":"06","name":"Hessen"}},{"name":"Herrman-Scipio-Str.","postalCode":"34474","locality":"Diemelstadt","municipality":{"key":"06635008","name":"Diemelstadt, Stadt","type":"Stadt"},"district":{"key":"06635","name":"Waldeck-Frankenberg","type":"Landkreis"},"federalState":{"key":"06","name":"Hessen"}},{"name":"Hesperinghäuser Str.","postalCode":"34474","locality":"Diemelstadt","municipality":{"key":"06635008","name":"Diemelstadt, Stadt","type":"Stadt"},"district":{"key":"06635","name":"Waldeck-Frankenberg","type":"Landkreis"},"federalState":{"key":"06","name":"Hessen"}},{"name":"Heumarkt","postalCode":"34474","locality":"Diemelstadt","municipality":{"key":"06635008","name":"Diemelstadt, Stadt","type":"Stadt"},"district":{"key":"06635","name":"Waldeck-Frankenberg","type":"Landkreis"},"federalState":{"key":"06","name":"Hessen"}},{"name":"Hinter dem Klapp","postalCode":"34474","locality":"Diemelstadt","municipality":{"key":"06635008","name":"Diemelstadt, Stadt","type":"Stadt"},"district":{"key":"06635","name":"Waldeck-Frankenberg","type":"Landkreis"},"federalState":{"key":"06","name":"Hessen"}},{"name":"Hinter den Häusern","postalCode":"34474","locality":"Diemelstadt","municipality":{"key":"06635008","name":"Diemelstadt, Stadt","type":"Stadt"},"district":{"key":"06635","name":"Waldeck-Frankenberg","type":"Landkreis"},"federalState":{"key":"06","name":"Hessen"}},{"name":"Hintere Steinstr.","postalCode":"34474","locality":"Diemelstadt","municipality":{"key":"06635008","name":"Diemelstadt, Stadt","type":"Stadt"},"district":{"key":"06635","name":"Waldeck-Frankenberg","type":"Landkreis"},"federalState":{"key":"06","name":"Hessen"}},{"name":"Hinterstr.","postalCode":"34474","locality":"Diemelstadt","municipality":{"key":"06635008","name":"Diemelstadt, Stadt","type":"Stadt"},"district":{"key":"06635","name":"Waldeck-Frankenberg","type":"Landkreis"},"federalState":{"key":"06","name":"Hessen"}},{"name":"Hoher Stein","postalCode":"34474","locality":"Diemelstadt","municipality":{"key":"06635008","name":"Diemelstadt, Stadt","type":"Stadt"},"district":{"key":"06635","name":"Waldeck-Frankenberg","type":"Landkreis"},"federalState":{"key":"06","name":"Hessen"}},{"name":"Hohle Str.","postalCode":"34474","locality":"Diemelstadt","municipality":{"key":"06635008","name":"Diemelstadt, Stadt","type":"Stadt"},"district":{"key":"06635","name":"Waldeck-Frankenberg","type":"Landkreis"},"federalState":{"key":"06","name":"Hessen"}},{"name":"Holpergrund","postalCode":"34474","locality":"Diemelstadt","municipality":{"key":"06635008","name":"Diemelstadt, Stadt","type":"Stadt"},"district":{"key":"06635","name":"Waldeck-Frankenberg","type":"Landkreis"},"federalState":{"key":"06","name":"Hessen"}},{"name":"Holzweg","postalCode":"34474","locality":"Diemelstadt","municipality":{"key":"06635008","name":"Diemelstadt, Stadt","type":"Stadt"},"district":{"key":"06635","name":"Waldeck-Frankenberg","type":"Landkreis"},"federalState":{"key":"06","name":"Hessen"}},{"name":"Hundepfuhl","postalCode":"34474","locality":"Diemelstadt","municipality":{"key":"06635008","name":"Diemelstadt, Stadt","type":"Stadt"},"district":{"key":"06635","name":"Waldeck-Frankenberg","type":"Landkreis"},"federalState":{"key":"06","name":"Hessen"}},{"name":"Im Schweinegrund","postalCode":"34474","locality":"Diemelstadt","municipality":{"key":"06635008","name":"Diemelstadt, Stadt","type":"Stadt"},"district":{"key":"06635","name":"Waldeck-Frankenberg","type":"Landkreis"},"federalState":{"key":"06","name":"Hessen"}},{"name":"Jütte","postalCode":"34474","locality":"Diemelstadt","municipality":{"key":"06635008","name":"Diemelstadt, Stadt","type":"Stadt"},"district":{"key":"06635","name":"Waldeck-Frankenberg","type":"Landkreis"},"federalState":{"key":"06","name":"Hessen"}},{"name":"Kallental","postalCode":"34474","locality":"Diemelstadt","municipality":{"key":"06635008","name":"Diemelstadt, Stadt","type":"Stadt"},"district":{"key":"06635","name":"Waldeck-Frankenberg","type":"Landkreis"},"federalState":{"key":"06","name":"Hessen"}},{"name":"Kaninchenhügel","postalCode":"34474","locality":"Diemelstadt","municipality":{"key":"06635008","name":"Diemelstadt, Stadt","type":"Stadt"},"district":{"key":"06635","name":"Waldeck-Frankenberg","type":"Landkreis"},"federalState":{"key":"06","name":"Hessen"}},{"name":"Kirchstr.","postalCode":"34474","locality":"Diemelstadt","municipality":{"key":"06635008","name":"Diemelstadt, Stadt","type":"Stadt"},"district":{"key":"06635","name":"Waldeck-Frankenberg","type":"Landkreis"},"federalState":{"key":"06","name":"Hessen"}},{"name":"Klappstr.","postalCode":"34474","locality":"Diemelstadt","municipality":{"key":"06635008","name":"Diemelstadt, Stadt","type":"Stadt"},"district":{"key":"06635","name":"Waldeck-Frankenberg","type":"Landkreis"},"federalState":{"key":"06","name":"Hessen"}},{"name":"Kleine Jütte","postalCode":"34474","locality":"Diemelstadt","municipality":{"key":"06635008","name":"Diemelstadt, Stadt","type":"Stadt"},"district":{"key":"06635","name":"Waldeck-Frankenberg","type":"Landkreis"},"federalState":{"key":"06","name":"Hessen"}},{"name":"Kleiner Kuhweg","postalCode":"34474","locality":"Diemelstadt","municipality":{"key":"06635008","name":"Diemelstadt, Stadt","type":"Stadt"},"district":{"key":"06635","name":"Waldeck-Frankenberg","type":"Landkreis"},"federalState":{"key":"06","name":"Hessen"}},{"name":"Knappweg","postalCode":"34474","locality":"Diemelstadt","municipality":{"key":"06635008","name":"Diemelstadt, Stadt","type":"Stadt"},"district":{"key":"06635","name":"Waldeck-Frankenberg","type":"Landkreis"},"federalState":{"key":"06","name":"Hessen"}},{"name":"Krethagen","postalCode":"34474","locality":"Diemelstadt","municipality":{"key":"06635008","name":"Diemelstadt, Stadt","type":"Stadt"},"district":{"key":"06635","name":"Waldeck-Frankenberg","type":"Landkreis"},"federalState":{"key":"06","name":"Hessen"}},{"name":"Kuhweg","postalCode":"34474","locality":"Diemelstadt","municipality":{"key":"06635008","name":"Diemelstadt, Stadt","type":"Stadt"},"district":{"key":"06635","name":"Waldeck-Frankenberg","type":"Landkreis"},"federalState":{"key":"06","name":"Hessen"}},{"name":"Kupferkuhle","postalCode":"34474","locality":"Diemelstadt","municipality":{"key":"06635008","name":"Diemelstadt, Stadt","type":"Stadt"},"district":{"key":"06635","name":"Waldeck-Frankenberg","type":"Landkreis"},"federalState":{"key":"06","name":"Hessen"}},{"name":"Kurze Str.","postalCode":"34474","locality":"Diemelstadt","municipality":{"key":"06635008","name":"Diemelstadt, Stadt","type":"Stadt"},"district":{"key":"06635","name":"Waldeck-Frankenberg","type":"Landkreis"},"federalState":{"key":"06","name":"Hessen"}},{"name":"Landwehr","postalCode":"34474","locality":"Diemelstadt","municipality":{"key":"06635008","name":"Diemelstadt, Stadt","type":"Stadt"},"district":{"key":"06635","name":"Waldeck-Frankenberg","type":"Landkreis"},"federalState":{"key":"06","name":"Hessen"}},{"name":"Lange Str.","postalCode":"34474","locality":"Diemelstadt","municipality":{"key":"06635008","name":"Diemelstadt, Stadt","type":"Stadt"},"district":{"key":"06635","name":"Waldeck-Frankenberg","type":"Landkreis"},"federalState":{"key":"06","name":"Hessen"}},{"name":"Lärchenweg","postalCode":"34474","locality":"Diemelstadt","municipality":{"key":"06635008","name":"Diemelstadt, Stadt","type":"Stadt"},"district":{"key":"06635","name":"Waldeck-Frankenberg","type":"Landkreis"},"federalState":{"key":"06","name":"Hessen"}},{"name":"Laubach","postalCode":"34474","locality":"Diemelstadt","municipality":{"key":"06635008","name":"Diemelstadt, Stadt","type":"Stadt"},"district":{"key":"06635","name":"Waldeck-Frankenberg","type":"Landkreis"},"federalState":{"key":"06","name":"Hessen"}},{"name":"Laubacher Weg","postalCode":"34474","locality":"Diemelstadt","municipality":{"key":"06635008","name":"Diemelstadt, Stadt","type":"Stadt"},"district":{"key":"06635","name":"Waldeck-Frankenberg","type":"Landkreis"},"federalState":{"key":"06","name":"Hessen"}},{"name":"Lilienstr.","postalCode":"34474","locality":"Diemelstadt","municipality":{"key":"06635008","name":"Diemelstadt, Stadt","type":"Stadt"},"district":{"key":"06635","name":"Waldeck-Frankenberg","type":"Landkreis"},"federalState":{"key":"06","name":"Hessen"}},{"name":"Lütteken Feld","postalCode":"34474","locality":"Diemelstadt","municipality":{"key":"06635008","name":"Diemelstadt, Stadt","type":"Stadt"},"district":{"key":"06635","name":"Waldeck-Frankenberg","type":"Landkreis"},"federalState":{"key":"06","name":"Hessen"}},{"name":"Marsberger Str.","postalCode":"34474","locality":"Diemelstadt","municipality":{"key":"06635008","name":"Diemelstadt, Stadt","type":"Stadt"},"district":{"key":"06635","name":"Waldeck-Frankenberg","type":"Landkreis"},"federalState":{"key":"06","name":"Hessen"}},{"name":"Meerweg","postalCode":"34474","locality":"Diemelstadt","municipality":{"key":"06635008","name":"Diemelstadt, Stadt","type":"Stadt"},"district":{"key":"06635","name":"Waldeck-Frankenberg","type":"Landkreis"},"federalState":{"key":"06","name":"Hessen"}},{"name":"Meisterstr.","postalCode":"34474","locality":"Diemelstadt","municipality":{"key":"06635008","name":"Diemelstadt, Stadt","type":"Stadt"},"district":{"key":"06635","name":"Waldeck-Frankenberg","type":"Landkreis"},"federalState":{"key":"06","name":"Hessen"}},{"name":"Mittelstr.","postalCode":"34474","locality":"Diemelstadt","municipality":{"key":"06635008","name":"Diemelstadt, Stadt","type":"Stadt"},"district":{"key":"06635","name":"Waldeck-Frankenberg","type":"Landkreis"},"federalState":{"key":"06","name":"Hessen"}},{"name":"Molkenborn","postalCode":"34474","locality":"Diemelstadt","municipality":{"key":"06635008","name":"Diemelstadt, Stadt","type":"Stadt"},"district":{"key":"06635","name":"Waldeck-Frankenberg","type":"Landkreis"},"federalState":{"key":"06","name":"Hessen"}},{"name":"Mühlenstr.","postalCode":"34474","locality":"Diemelstadt","municipality":{"key":"06635008","name":"Diemelstadt, Stadt","type":"Stadt"},"district":{"key":"06635","name":"Waldeck-Frankenberg","type":"Landkreis"},"federalState":{"key":"06","name":"Hessen"}},{"name":"Mühlenweg","postalCode":"34474","locality":"Diemelstadt","municipality":{"key":"06635008","name":"Diemelstadt, Stadt","type":"Stadt"},"district":{"key":"06635","name":"Waldeck-Frankenberg","type":"Landkreis"},"federalState":{"key":"06","name":"Hessen"}},{"name":"Mushof","postalCode":"34474","locality":"Diemelstadt","municipality":{"key":"06635008","name":"Diemelstadt, Stadt","type":"Stadt"},"district":{"key":"06635","name":"Waldeck-Frankenberg","type":"Landkreis"},"federalState":{"key":"06","name":"Hessen"}},{"name":"Nelkenstr.","postalCode":"34474","locality":"Diemelstadt","municipality":{"key":"06635008","name":"Diemelstadt, Stadt","type":"Stadt"},"district":{"key":"06635","name":"Waldeck-Frankenberg","type":"Landkreis"},"federalState":{"key":"06","name":"Hessen"}},{"name":"Neudorfer Str.","postalCode":"34474","locality":"Diemelstadt","municipality":{"key":"06635008","name":"Diemelstadt, Stadt","type":"Stadt"},"district":{"key":"06635","name":"Waldeck-Frankenberg","type":"Landkreis"},"federalState":{"key":"06","name":"Hessen"}},{"name":"Neuer Weg","postalCode":"34474","locality":"Diemelstadt","municipality":{"key":"06635008","name":"Diemelstadt, Stadt","type":"Stadt"},"district":{"key":"06635","name":"Waldeck-Frankenberg","type":"Landkreis"},"federalState":{"key":"06","name":"Hessen"}},{"name":"Neumannstr.","postalCode":"34474","locality":"Diemelstadt","municipality":{"key":"06635008","name":"Diemelstadt, Stadt","type":"Stadt"},"district":{"key":"06635","name":"Waldeck-Frankenberg","type":"Landkreis"},"federalState":{"key":"06","name":"Hessen"}},{"name":"Neustadt","postalCode":"34474","locality":"Diemelstadt","municipality":{"key":"06635008","name":"Diemelstadt, Stadt","type":"Stadt"},"district":{"key":"06635","name":"Waldeck-Frankenberg","type":"Landkreis"},"federalState":{"key":"06","name":"Hessen"}},{"name":"Nordstr.","postalCode":"34474","locality":"Diemelstadt","municipality":{"key":"06635008","name":"Diemelstadt, Stadt","type":"Stadt"},"district":{"key":"06635","name":"Waldeck-Frankenberg","type":"Landkreis"},"federalState":{"key":"06","name":"Hessen"}},{"name":"Nussbäumer Weg","postalCode":"34474","locality":"Diemelstadt","municipality":{"key":"06635008","name":"Diemelstadt, Stadt","type":"Stadt"},"district":{"key":"06635","name":"Waldeck-Frankenberg","type":"Landkreis"},"federalState":{"key":"06","name":"Hessen"}},{"name":"Oberdorf","postalCode":"34474","locality":"Diemelstadt","municipality":{"key":"06635008","name":"Diemelstadt, Stadt","type":"Stadt"},"district":{"key":"06635","name":"Waldeck-Frankenberg","type":"Landkreis"},"federalState":{"key":"06","name":"Hessen"}},{"name":"Obere Str.","postalCode":"34474","locality":"Diemelstadt","municipality":{"key":"06635008","name":"Diemelstadt, Stadt","type":"Stadt"},"district":{"key":"06635","name":"Waldeck-Frankenberg","type":"Landkreis"},"federalState":{"key":"06","name":"Hessen"}},{"name":"Orpethaler Str.","postalCode":"34474","locality":"Diemelstadt","municipality":{"key":"06635008","name":"Diemelstadt, Stadt","type":"Stadt"},"district":{"key":"06635","name":"Waldeck-Frankenberg","type":"Landkreis"},"federalState":{"key":"06","name":"Hessen"}},{"name":"Ostpreußenring","postalCode":"34474","locality":"Diemelstadt","municipality":{"key":"06635008","name":"Diemelstadt, Stadt","type":"Stadt"},"district":{"key":"06635","name":"Waldeck-Frankenberg","type":"Landkreis"},"federalState":{"key":"06","name":"Hessen"}},{"name":"Papagei","postalCode":"34474","locality":"Diemelstadt","municipality":{"key":"06635008","name":"Diemelstadt, Stadt","type":"Stadt"},"district":{"key":"06635","name":"Waldeck-Frankenberg","type":"Landkreis"},"federalState":{"key":"06","name":"Hessen"}},{"name":"Papengrund","postalCode":"34474","locality":"Diemelstadt","municipality":{"key":"06635008","name":"Diemelstadt, Stadt","type":"Stadt"},"district":{"key":"06635","name":"Waldeck-Frankenberg","type":"Landkreis"},"federalState":{"key":"06","name":"Hessen"}},{"name":"Pastor-Wahl-Str.","postalCode":"34474","locality":"Diemelstadt","municipality":{"key":"06635008","name":"Diemelstadt, Stadt","type":"Stadt"},"district":{"key":"06635","name":"Waldeck-Frankenberg","type":"Landkreis"},"federalState":{"key":"06","name":"Hessen"}},{"name":"Petersilienstr.","postalCode":"34474","locality":"Diemelstadt","municipality":{"key":"06635008","name":"Diemelstadt, Stadt","type":"Stadt"},"district":{"key":"06635","name":"Waldeck-Frankenberg","type":"Landkreis"},"federalState":{"key":"06","name":"Hessen"}},{"name":"Pfarrgarten","postalCode":"34474","locality":"Diemelstadt","municipality":{"key":"06635008","name":"Diemelstadt, Stadt","type":"Stadt"},"district":{"key":"06635","name":"Waldeck-Frankenberg","type":"Landkreis"},"federalState":{"key":"06","name":"Hessen"}},{"name":"Philosophenweg","postalCode":"34474","locality":"Diemelstadt","municipality":{"key":"06635008","name":"Diemelstadt, Stadt","type":"Stadt"},"district":{"key":"06635","name":"Waldeck-Frankenberg","type":"Landkreis"},"federalState":{"key":"06","name":"Hessen"}},{"name":"Poststr.","postalCode":"34474","locality":"Diemelstadt","municipality":{"key":"06635008","name":"Diemelstadt, Stadt","type":"Stadt"},"district":{"key":"06635","name":"Waldeck-Frankenberg","type":"Landkreis"},"federalState":{"key":"06","name":"Hessen"}},{"name":"Quast","postalCode":"34474","locality":"Diemelstadt","municipality":{"key":"06635008","name":"Diemelstadt, Stadt","type":"Stadt"},"district":{"key":"06635","name":"Waldeck-Frankenberg","type":"Landkreis"},"federalState":{"key":"06","name":"Hessen"}},{"name":"Quastweg","postalCode":"34474","locality":"Diemelstadt","municipality":{"key":"06635008","name":"Diemelstadt, Stadt","type":"Stadt"},"district":{"key":"06635","name":"Waldeck-Frankenberg","type":"Landkreis"},"federalState":{"key":"06","name":"Hessen"}},{"name":"Querweg","postalCode":"34474","locality":"Diemelstadt","municipality":{"key":"06635008","name":"Diemelstadt, Stadt","type":"Stadt"},"district":{"key":"06635","name":"Waldeck-Frankenberg","type":"Landkreis"},"federalState":{"key":"06","name":"Hessen"}},{"name":"Ramser Str.","postalCode":"34474","locality":"Diemelstadt","municipality":{"key":"06635008","name":"Diemelstadt, Stadt","type":"Stadt"},"district":{"key":"06635","name":"Waldeck-Frankenberg","type":"Landkreis"},"federalState":{"key":"06","name":"Hessen"}},{"name":"Rathausgasse","postalCode":"34474","locality":"Diemelstadt","municipality":{"key":"06635008","name":"Diemelstadt, Stadt","type":"Stadt"},"district":{"key":"06635","name":"Waldeck-Frankenberg","type":"Landkreis"},"federalState":{"key":"06","name":"Hessen"}},{"name":"Rhodener Str.","postalCode":"34474","locality":"Diemelstadt","municipality":{"key":"06635008","name":"Diemelstadt, Stadt","type":"Stadt"},"district":{"key":"06635","name":"Waldeck-Frankenberg","type":"Landkreis"},"federalState":{"key":"06","name":"Hessen"}},{"name":"Rießen","postalCode":"34474","locality":"Diemelstadt","municipality":{"key":"06635008","name":"Diemelstadt, Stadt","type":"Stadt"},"district":{"key":"06635","name":"Waldeck-Frankenberg","type":"Landkreis"},"federalState":{"key":"06","name":"Hessen"}},{"name":"Ringweg","postalCode":"34474","locality":"Diemelstadt","municipality":{"key":"06635008","name":"Diemelstadt, Stadt","type":"Stadt"},"district":{"key":"06635","name":"Waldeck-Frankenberg","type":"Landkreis"},"federalState":{"key":"06","name":"Hessen"}},{"name":"Rinscherberg","postalCode":"34474","locality":"Diemelstadt","municipality":{"key":"06635008","name":"Diemelstadt, Stadt","type":"Stadt"},"district":{"key":"06635","name":"Waldeck-Frankenberg","type":"Landkreis"},"federalState":{"key":"06","name":"Hessen"}},{"name":"Rosenstr.","postalCode":"34474","locality":"Diemelstadt","municipality":{"key":"06635008","name":"Diemelstadt, Stadt","type":"Stadt"},"district":{"key":"06635","name":"Waldeck-Frankenberg","type":"Landkreis"},"federalState":{"key":"06","name":"Hessen"}},{"name":"Rote-Land-Str.","postalCode":"34474","locality":"Diemelstadt","municipality":{"key":"06635008","name":"Diemelstadt, Stadt","type":"Stadt"},"district":{"key":"06635","name":"Waldeck-Frankenberg","type":"Landkreis"},"federalState":{"key":"06","name":"Hessen"}},{"name":"Sägemühle","postalCode":"34474","locality":"Diemelstadt","municipality":{"key":"06635008","name":"Diemelstadt, Stadt","type":"Stadt"},"district":{"key":"06635","name":"Waldeck-Frankenberg","type":"Landkreis"},"federalState":{"key":"06","name":"Hessen"}},{"name":"Sandweg","postalCode":"34474","locality":"Diemelstadt","municipality":{"key":"06635008","name":"Diemelstadt, Stadt","type":"Stadt"},"district":{"key":"06635","name":"Waldeck-Frankenberg","type":"Landkreis"},"federalState":{"key":"06","name":"Hessen"}},{"name":"Scheuermannsweg","postalCode":"34474","locality":"Diemelstadt","municipality":{"key":"06635008","name":"Diemelstadt, Stadt","type":"Stadt"},"district":{"key":"06635","name":"Waldeck-Frankenberg","type":"Landkreis"},"federalState":{"key":"06","name":"Hessen"}},{"name":"Schildweg","postalCode":"34474","locality":"Diemelstadt","municipality":{"key":"06635008","name":"Diemelstadt, Stadt","type":"Stadt"},"district":{"key":"06635","name":"Waldeck-Frankenberg","type":"Landkreis"},"federalState":{"key":"06","name":"Hessen"}},{"name":"Schlangensterz","postalCode":"34474","locality":"Diemelstadt","municipality":{"key":"06635008","name":"Diemelstadt, Stadt","type":"Stadt"},"district":{"key":"06635","name":"Waldeck-Frankenberg","type":"Landkreis"},"federalState":{"key":"06","name":"Hessen"}},{"name":"Schlesische Str.","postalCode":"34474","locality":"Diemelstadt","municipality":{"key":"06635008","name":"Diemelstadt, Stadt","type":"Stadt"},"district":{"key":"06635","name":"Waldeck-Frankenberg","type":"Landkreis"},"federalState":{"key":"06","name":"Hessen"}},{"name":"Schloßplatz","postalCode":"34474","locality":"Diemelstadt","municipality":{"key":"06635008","name":"Diemelstadt, Stadt","type":"Stadt"},"district":{"key":"06635","name":"Waldeck-Frankenberg","type":"Landkreis"},"federalState":{"key":"06","name":"Hessen"}},{"name":"Schmidtswiese","postalCode":"34474","locality":"Diemelstadt","municipality":{"key":"06635008","name":"Diemelstadt, Stadt","type":"Stadt"},"district":{"key":"06635","name":"Waldeck-Frankenberg","type":"Landkreis"},"federalState":{"key":"06","name":"Hessen"}},{"name":"Schmillinghäuser Weg","postalCode":"34474","locality":"Diemelstadt","municipality":{"key":"06635008","name":"Diemelstadt, Stadt","type":"Stadt"},"district":{"key":"06635","name":"Waldeck-Frankenberg","type":"Landkreis"},"federalState":{"key":"06","name":"Hessen"}},{"name":"Schulland","postalCode":"34474","locality":"Diemelstadt","municipality":{"key":"06635008","name":"Diemelstadt, Stadt","type":"Stadt"},"district":{"key":"06635","name":"Waldeck-Frankenberg","type":"Landkreis"},"federalState":{"key":"06","name":"Hessen"}},{"name":"Schulstr.","postalCode":"34474","locality":"Diemelstadt","municipality":{"key":"06635008","name":"Diemelstadt, Stadt","type":"Stadt"},"district":{"key":"06635","name":"Waldeck-Frankenberg","type":"Landkreis"},"federalState":{"key":"06","name":"Hessen"}},{"name":"Schützenkamp","postalCode":"34474","locality":"Diemelstadt","municipality":{"key":"06635008","name":"Diemelstadt, Stadt","type":"Stadt"},"district":{"key":"06635","name":"Waldeck-Frankenberg","type":"Landkreis"},"federalState":{"key":"06","name":"Hessen"}},{"name":"Schützenstr.","postalCode":"34474","locality":"Diemelstadt","municipality":{"key":"06635008","name":"Diemelstadt, Stadt","type":"Stadt"},"district":{"key":"06635","name":"Waldeck-Frankenberg","type":"Landkreis"},"federalState":{"key":"06","name":"Hessen"}},{"name":"Siebringsgrund","postalCode":"34474","locality":"Diemelstadt","municipality":{"key":"06635008","name":"Diemelstadt, Stadt","type":"Stadt"},"district":{"key":"06635","name":"Waldeck-Frankenberg","type":"Landkreis"},"federalState":{"key":"06","name":"Hessen"}},{"name":"Siedlung","postalCode":"34474","locality":"Diemelstadt","municipality":{"key":"06635008","name":"Diemelstadt, Stadt","type":"Stadt"},"district":{"key":"06635","name":"Waldeck-Frankenberg","type":"Landkreis"},"federalState":{"key":"06","name":"Hessen"}},{"name":"Sonnenweg","postalCode":"34474","locality":"Diemelstadt","municipality":{"key":"06635008","name":"Diemelstadt, Stadt","type":"Stadt"},"district":{"key":"06635","name":"Waldeck-Frankenberg","type":"Landkreis"},"federalState":{"key":"06","name":"Hessen"}},{"name":"Spielplatz Helmighausen","postalCode":"34474","locality":"Diemelstadt","municipality":{"key":"06635008","name":"Diemelstadt, Stadt","type":"Stadt"},"district":{"key":"06635","name":"Waldeck-Frankenberg","type":"Landkreis"},"federalState":{"key":"06","name":"Hessen"}},{"name":"Stadtberger Weg","postalCode":"34474","locality":"Diemelstadt","municipality":{"key":"06635008","name":"Diemelstadt, Stadt","type":"Stadt"},"district":{"key":"06635","name":"Waldeck-Frankenberg","type":"Landkreis"},"federalState":{"key":"06","name":"Hessen"}},{"name":"Stämmeckenberg","postalCode":"34474","locality":"Diemelstadt","municipality":{"key":"06635008","name":"Diemelstadt, Stadt","type":"Stadt"},"district":{"key":"06635","name":"Waldeck-Frankenberg","type":"Landkreis"},"federalState":{"key":"06","name":"Hessen"}},{"name":"Steinberg","postalCode":"34474","locality":"Diemelstadt","municipality":{"key":"06635008","name":"Diemelstadt, Stadt","type":"Stadt"},"district":{"key":"06635","name":"Waldeck-Frankenberg","type":"Landkreis"},"federalState":{"key":"06","name":"Hessen"}},{"name":"Steinbergpark","postalCode":"34474","locality":"Diemelstadt","municipality":{"key":"06635008","name":"Diemelstadt, Stadt","type":"Stadt"},"district":{"key":"06635","name":"Waldeck-Frankenberg","type":"Landkreis"},"federalState":{"key":"06","name":"Hessen"}},{"name":"Steingraben","postalCode":"34474","locality":"Diemelstadt","municipality":{"key":"06635008","name":"Diemelstadt, Stadt","type":"Stadt"},"district":{"key":"06635","name":"Waldeck-Frankenberg","type":"Landkreis"},"federalState":{"key":"06","name":"Hessen"}},{"name":"Steinweg","postalCode":"34474","locality":"Diemelstadt","municipality":{"key":"06635008","name":"Diemelstadt, Stadt","type":"Stadt"},"district":{"key":"06635","name":"Waldeck-Frankenberg","type":"Landkreis"},"federalState":{"key":"06","name":"Hessen"}},{"name":"Stickenweg","postalCode":"34474","locality":"Diemelstadt","municipality":{"key":"06635008","name":"Diemelstadt, Stadt","type":"Stadt"},"district":{"key":"06635","name":"Waldeck-Frankenberg","type":"Landkreis"},"federalState":{"key":"06","name":"Hessen"}},{"name":"Sudetenstr.","postalCode":"34474","locality":"Diemelstadt","municipality":{"key":"06635008","name":"Diemelstadt, Stadt","type":"Stadt"},"district":{"key":"06635","name":"Waldeck-Frankenberg","type":"Landkreis"},"federalState":{"key":"06","name":"Hessen"}},{"name":"Südstr.","postalCode":"34474","locality":"Diemelstadt","municipality":{"key":"06635008","name":"Diemelstadt, Stadt","type":"Stadt"},"district":{"key":"06635","name":"Waldeck-Frankenberg","type":"Landkreis"},"federalState":{"key":"06","name":"Hessen"}},{"name":"Tannenberg","postalCode":"34474","locality":"Diemelstadt","municipality":{"key":"06635008","name":"Diemelstadt, Stadt","type":"Stadt"},"district":{"key":"06635","name":"Waldeck-Frankenberg","type":"Landkreis"},"federalState":{"key":"06","name":"Hessen"}},{"name":"Tannenstr.","postalCode":"34474","locality":"Diemelstadt","municipality":{"key":"06635008","name":"Diemelstadt, Stadt","type":"Stadt"},"district":{"key":"06635","name":"Waldeck-Frankenberg","type":"Landkreis"},"federalState":{"key":"06","name":"Hessen"}},{"name":"Teichheide","postalCode":"34474","locality":"Diemelstadt","municipality":{"key":"06635008","name":"Diemelstadt, Stadt","type":"Stadt"},"district":{"key":"06635","name":"Waldeck-Frankenberg","type":"Landkreis"},"federalState":{"key":"06","name":"Hessen"}},{"name":"Teichstr.","postalCode":"34474","locality":"Diemelstadt","municipality":{"key":"06635008","name":"Diemelstadt, Stadt","type":"Stadt"},"district":{"key":"06635","name":"Waldeck-Frankenberg","type":"Landkreis"},"federalState":{"key":"06","name":"Hessen"}},{"name":"Triftstr.","postalCode":"34474","locality":"Diemelstadt","municipality":{"key":"06635008","name":"Diemelstadt, Stadt","type":"Stadt"},"district":{"key":"06635","name":"Waldeck-Frankenberg","type":"Landkreis"},"federalState":{"key":"06","name":"Hessen"}},{"name":"Tulpenstr.","postalCode":"34474","locality":"Diemelstadt","municipality":{"key":"06635008","name":"Diemelstadt, Stadt","type":"Stadt"},"district":{"key":"06635","name":"Waldeck-Frankenberg","type":"Landkreis"},"federalState":{"key":"06","name":"Hessen"}},{"name":"Twete","postalCode":"34474","locality":"Diemelstadt","municipality":{"key":"06635008","name":"Diemelstadt, Stadt","type":"Stadt"},"district":{"key":"06635","name":"Waldeck-Frankenberg","type":"Landkreis"},"federalState":{"key":"06","name":"Hessen"}},{"name":"Uhlenflucht","postalCode":"34474","locality":"Diemelstadt","municipality":{"key":"06635008","name":"Diemelstadt, Stadt","type":"Stadt"},"district":{"key":"06635","name":"Waldeck-Frankenberg","type":"Landkreis"},"federalState":{"key":"06","name":"Hessen"}},{"name":"Unter den Steinen","postalCode":"34474","locality":"Diemelstadt","municipality":{"key":"06635008","name":"Diemelstadt, Stadt","type":"Stadt"},"district":{"key":"06635","name":"Waldeck-Frankenberg","type":"Landkreis"},"federalState":{"key":"06","name":"Hessen"}},{"name":"Unter den Zäunen","postalCode":"34474","locality":"Diemelstadt","municipality":{"key":"06635008","name":"Diemelstadt, Stadt","type":"Stadt"},"district":{"key":"06635","name":"Waldeck-Frankenberg","type":"Landkreis"},"federalState":{"key":"06","name":"Hessen"}},{"name":"Unter der Mauer","postalCode":"34474","locality":"Diemelstadt","municipality":{"key":"06635008","name":"Diemelstadt, Stadt","type":"Stadt"},"district":{"key":"06635","name":"Waldeck-Frankenberg","type":"Landkreis"},"federalState":{"key":"06","name":"Hessen"}},{"name":"Unterdorf","postalCode":"34474","locality":"Diemelstadt","municipality":{"key":"06635008","name":"Diemelstadt, Stadt","type":"Stadt"},"district":{"key":"06635","name":"Waldeck-Frankenberg","type":"Landkreis"},"federalState":{"key":"06","name":"Hessen"}},{"name":"Violinenstr.","postalCode":"34474","locality":"Diemelstadt","municipality":{"key":"06635008","name":"Diemelstadt, Stadt","type":"Stadt"},"district":{"key":"06635","name":"Waldeck-Frankenberg","type":"Landkreis"},"federalState":{"key":"06","name":"Hessen"}},{"name":"Vogelstange","postalCode":"34474","locality":"Diemelstadt","municipality":{"key":"06635008","name":"Diemelstadt, Stadt","type":"Stadt"},"district":{"key":"06635","name":"Waldeck-Frankenberg","type":"Landkreis"},"federalState":{"key":"06","name":"Hessen"}},{"name":"Vor dem Klapp","postalCode":"34474","locality":"Diemelstadt","municipality":{"key":"06635008","name":"Diemelstadt, Stadt","type":"Stadt"},"district":{"key":"06635","name":"Waldeck-Frankenberg","type":"Landkreis"},"federalState":{"key":"06","name":"Hessen"}},{"name":"Vordere Steinstr.","postalCode":"34474","locality":"Diemelstadt","municipality":{"key":"06635008","name":"Diemelstadt, Stadt","type":"Stadt"},"district":{"key":"06635","name":"Waldeck-Frankenberg","type":"Landkreis"},"federalState":{"key":"06","name":"Hessen"}},{"name":"Wahlsburg","postalCode":"34474","locality":"Diemelstadt","municipality":{"key":"06635008","name":"Diemelstadt, Stadt","type":"Stadt"},"district":{"key":"06635","name":"Waldeck-Frankenberg","type":"Landkreis"},"federalState":{"key":"06","name":"Hessen"}},{"name":"Waldwinkel","postalCode":"34474","locality":"Diemelstadt","municipality":{"key":"06635008","name":"Diemelstadt, Stadt","type":"Stadt"},"district":{"key":"06635","name":"Waldeck-Frankenberg","type":"Landkreis"},"federalState":{"key":"06","name":"Hessen"}},{"name":"Walme","postalCode":"34474","locality":"Diemelstadt","municipality":{"key":"06635008","name":"Diemelstadt, Stadt","type":"Stadt"},"district":{"key":"06635","name":"Waldeck-Frankenberg","type":"Landkreis"},"federalState":{"key":"06","name":"Hessen"}},{"name":"Warburger Weg","postalCode":"34474","locality":"Diemelstadt","municipality":{"key":"06635008","name":"Diemelstadt, Stadt","type":"Stadt"},"district":{"key":"06635","name":"Waldeck-Frankenberg","type":"Landkreis"},"federalState":{"key":"06","name":"Hessen"}},{"name":"Warbusch","postalCode":"34474","locality":"Diemelstadt","municipality":{"key":"06635008","name":"Diemelstadt, Stadt","type":"Stadt"},"district":{"key":"06635","name":"Waldeck-Frankenberg","type":"Landkreis"},"federalState":{"key":"06","name":"Hessen"}},{"name":"Weishaupts Pfad","postalCode":"34474","locality":"Diemelstadt","municipality":{"key":"06635008","name":"Diemelstadt, Stadt","type":"Stadt"},"district":{"key":"06635","name":"Waldeck-Frankenberg","type":"Landkreis"},"federalState":{"key":"06","name":"Hessen"}},{"name":"Westend","postalCode":"34474","locality":"Diemelstadt","municipality":{"key":"06635008","name":"Diemelstadt, Stadt","type":"Stadt"},"district":{"key":"06635","name":"Waldeck-Frankenberg","type":"Landkreis"},"federalState":{"key":"06","name":"Hessen"}},{"name":"Westheimer Str.","postalCode":"34474","locality":"Diemelstadt","municipality":{"key":"06635008","name":"Diemelstadt, Stadt","type":"Stadt"},"district":{"key":"06635","name":"Waldeck-Frankenberg","type":"Landkreis"},"federalState":{"key":"06","name":"Hessen"}},{"name":"Wethener Str.","postalCode":"34474","locality":"Diemelstadt","municipality":{"key":"06635008","name":"Diemelstadt, Stadt","type":"Stadt"},"district":{"key":"06635","name":"Waldeck-Frankenberg","type":"Landkreis"},"federalState":{"key":"06","name":"Hessen"}},{"name":"Wiesengrund","postalCode":"34474","locality":"Diemelstadt","municipality":{"key":"06635008","name":"Diemelstadt, Stadt","type":"Stadt"},"district":{"key":"06635","name":"Waldeck-Frankenberg","type":"Landkreis"},"federalState":{"key":"06","name":"Hessen"}},{"name":"Wilhelmstr.","postalCode":"34474","locality":"Diemelstadt","municipality":{"key":"06635008","name":"Diemelstadt, Stadt","type":"Stadt"},"district":{"key":"06635","name":"Waldeck-Frankenberg","type":"Landkreis"},"federalState":{"key":"06","name":"Hessen"}},{"name":"Winterberg","postalCode":"34474","locality":"Diemelstadt","municipality":{"key":"06635008","name":"Diemelstadt, Stadt","type":"Stadt"},"district":{"key":"06635","name":"Waldeck-Frankenberg","type":"Landkreis"},"federalState":{"key":"06","name":"Hessen"}},{"name":"Wolfsstange","postalCode":"34474","locality":"Diemelstadt","municipality":{"key":"06635008","name":"Diemelstadt, Stadt","type":"Stadt"},"district":{"key":"06635","name":"Waldeck-Frankenberg","type":"Landkreis"},"federalState":{"key":"06","name":"Hessen"}},{"name":"Wrexener Str.","postalCode":"34474","locality":"Diemelstadt","municipality":{"key":"06635008","name":"Diemelstadt, Stadt","type":"Stadt"},"district":{"key":"06635","name":"Waldeck-Frankenberg","type":"Landkreis"},"federalState":{"key":"06","name":"Hessen"}},{"name":"Ziegelhütte","postalCode":"34474","locality":"Diemelstadt","municipality":{"key":"06635008","name":"Diemelstadt, Stadt","type":"Stadt"},"district":{"key":"06635","name":"Waldeck-Frankenberg","type":"Landkreis"},"federalState":{"key":"06","name":"Hessen"}},{"name":"Zillertal","postalCode":"34474","locality":"Diemelstadt","municipality":{"key":"06635008","name":"Diemelstadt, Stadt","type":"Stadt"},"district":{"key":"06635","name":"Waldeck-Frankenberg","type":"Landkreis"},"federalState":{"key":"06","name":"Hessen"}},{"name":"Zum Bruch","postalCode":"34474","locality":"Diemelstadt","municipality":{"key":"06635008","name":"Diemelstadt, Stadt","type":"Stadt"},"district":{"key":"06635","name":"Waldeck-Frankenberg","type":"Landkreis"},"federalState":{"key":"06","name":"Hessen"}},{"name":"Zum Erbbegräbnis","postalCode":"34474","locality":"Diemelstadt","municipality":{"key":"06635008","name":"Diemelstadt, Stadt","type":"Stadt"},"district":{"key":"06635","name":"Waldeck-Frankenberg","type":"Landkreis"},"federalState":{"key":"06","name":"Hessen"}},{"name":"Zur Heide","postalCode":"34474","locality":"Diemelstadt","municipality":{"key":"06635008","name":"Diemelstadt, Stadt","type":"Stadt"},"district":{"key":"06635","name":"Waldeck-Frankenberg","type":"Landkreis"},"federalState":{"key":"06","name":"Hessen"}},{"name":"Zur Helle","postalCode":"34474","locality":"Diemelstadt","municipality":{"key":"06635008","name":"Diemelstadt, Stadt","type":"Stadt"},"district":{"key":"06635","name":"Waldeck-Frankenberg","type":"Landkreis"},"federalState":{"key":"06","name":"Hessen"}},{"name":"Zur Kunst","postalCode":"34474","locality":"Diemelstadt","municipality":{"key":"06635008","name":"Diemelstadt, Stadt","type":"Stadt"},"district":{"key":"06635","name":"Waldeck-Frankenberg","type":"Landkreis"},"federalState":{"key":"06","name":"Hessen"}},{"name":"Zur Speile","postalCode":"34474","locality":"Diemelstadt","municipality":{"key":"06635008","name":"Diemelstadt, Stadt","type":"Stadt"},"district":{"key":"06635","name":"Waldeck-Frankenberg","type":"Landkreis"},"federalState":{"key":"06","name":"Hessen"}},{"name":"Über den Höfen","postalCode":"34474","locality":"Diemelstadt","municipality":{"key":"06635008","name":"Diemelstadt, Stadt","type":"Stadt"},"district":{"key":"06635","name":"Waldeck-Frankenberg","type":"Landkreis"},"federalState":{"key":"06","name":"Hessen"}},{"name":"Über den Lärchen","postalCode":"34474","locality":"Diemelstadt","municipality":{"key":"06635008","name":"Diemelstadt, Stadt","type":"Stadt"},"district":{"key":"06635","name":"Waldeck-Frankenberg","type":"Landkreis"},"federalState":{"key":"06","name":"Hessen"}},]