[{"name":"Aichelbergstr.","postalCode":"73092","locality":"Heiningen","municipality":{"key":"08117030","name":"Heiningen","type":"Kreisangehörige_Gemeinde"},"district":{"key":"08117","name":"Göppingen","type":"Landkreis"},"federalState":{"key":"08","name":"Baden-Württemberg"}},{"name":"Am Hopfengarten","postalCode":"38312","locality":"Heiningen","municipality":{"key":"03158019","name":"Heiningen","type":"Kreisangehörige_Gemeinde"},"district":{"key":"03158","name":"Wolfenbüttel","type":"Landkreis"},"federalState":{"key":"03","name":"Niedersachsen"}},{"name":"Am Inselteich","postalCode":"38312","locality":"Heiningen","municipality":{"key":"03158019","name":"Heiningen","type":"Kreisangehörige_Gemeinde"},"district":{"key":"03158","name":"Wolfenbüttel","type":"Landkreis"},"federalState":{"key":"03","name":"Niedersachsen"}},{"name":"Am Mühlengraben","postalCode":"38312","locality":"Heiningen","municipality":{"key":"03158019","name":"Heiningen","type":"Kreisangehörige_Gemeinde"},"district":{"key":"03158","name":"Wolfenbüttel","type":"Landkreis"},"federalState":{"key":"03","name":"Niedersachsen"}},{"name":"Am Wallgraben","postalCode":"73092","locality":"Heiningen","municipality":{"key":"08117030","name":"Heiningen","type":"Kreisangehörige_Gemeinde"},"district":{"key":"08117","name":"Göppingen","type":"Landkreis"},"federalState":{"key":"08","name":"Baden-Württemberg"}},{"name":"An der Feldscheuer","postalCode":"73092","locality":"Heiningen","municipality":{"key":"08117030","name":"Heiningen","type":"Kreisangehörige_Gemeinde"},"district":{"key":"08117","name":"Göppingen","type":"Landkreis"},"federalState":{"key":"08","name":"Baden-Württemberg"}},{"name":"Auf den Feldäckern","postalCode":"73092","locality":"Heiningen","municipality":{"key":"08117030","name":"Heiningen","type":"Kreisangehörige_Gemeinde"},"district":{"key":"08117","name":"Göppingen","type":"Landkreis"},"federalState":{"key":"08","name":"Baden-Württemberg"}},{"name":"Bahnhofstr.","postalCode":"73092","locality":"Heiningen","municipality":{"key":"08117030","name":"Heiningen","type":"Kreisangehörige_Gemeinde"},"district":{"key":"08117","name":"Göppingen","type":"Landkreis"},"federalState":{"key":"08","name":"Baden-Württemberg"}},{"name":"Bentelgasse","postalCode":"73092","locality":"Heiningen","municipality":{"key":"08117030","name":"Heiningen","type":"Kreisangehörige_Gemeinde"},"district":{"key":"08117","name":"Göppingen","type":"Landkreis"},"federalState":{"key":"08","name":"Baden-Württemberg"}},{"name":"Bergstr.","postalCode":"73092","locality":"Heiningen","municipality":{"key":"08117030","name":"Heiningen","type":"Kreisangehörige_Gemeinde"},"district":{"key":"08117","name":"Göppingen","type":"Landkreis"},"federalState":{"key":"08","name":"Baden-Württemberg"}},{"name":"Berliner Str.","postalCode":"38312","locality":"Heiningen","municipality":{"key":"03158019","name":"Heiningen","type":"Kreisangehörige_Gemeinde"},"district":{"key":"03158","name":"Wolfenbüttel","type":"Landkreis"},"federalState":{"key":"03","name":"Niedersachsen"}},{"name":"Bettina-von-Arnim-Weg","postalCode":"73092","locality":"Heiningen","municipality":{"key":"08117030","name":"Heiningen","type":"Kreisangehörige_Gemeinde"},"district":{"key":"08117","name":"Göppingen","type":"Landkreis"},"federalState":{"key":"08","name":"Baden-Württemberg"}},{"name":"Bezgenrieter Str.","postalCode":"73092","locality":"Heiningen","municipality":{"key":"08117030","name":"Heiningen","type":"Kreisangehörige_Gemeinde"},"district":{"key":"08117","name":"Göppingen","type":"Landkreis"},"federalState":{"key":"08","name":"Baden-Württemberg"}},{"name":"Bleichstr.","postalCode":"73092","locality":"Heiningen","municipality":{"key":"08117030","name":"Heiningen","type":"Kreisangehörige_Gemeinde"},"district":{"key":"08117","name":"Göppingen","type":"Landkreis"},"federalState":{"key":"08","name":"Baden-Württemberg"}},{"name":"Blumenstr.","postalCode":"73092","locality":"Heiningen","municipality":{"key":"08117030","name":"Heiningen","type":"Kreisangehörige_Gemeinde"},"district":{"key":"08117","name":"Göppingen","type":"Landkreis"},"federalState":{"key":"08","name":"Baden-Württemberg"}},{"name":"Börßumer Str.","postalCode":"38312","locality":"Heiningen","municipality":{"key":"03158019","name":"Heiningen","type":"Kreisangehörige_Gemeinde"},"district":{"key":"03158","name":"Wolfenbüttel","type":"Landkreis"},"federalState":{"key":"03","name":"Niedersachsen"}},{"name":"Boßlerstr.","postalCode":"73092","locality":"Heiningen","municipality":{"key":"08117030","name":"Heiningen","type":"Kreisangehörige_Gemeinde"},"district":{"key":"08117","name":"Göppingen","type":"Landkreis"},"federalState":{"key":"08","name":"Baden-Württemberg"}},{"name":"Breitestr.","postalCode":"73092","locality":"Heiningen","municipality":{"key":"08117030","name":"Heiningen","type":"Kreisangehörige_Gemeinde"},"district":{"key":"08117","name":"Göppingen","type":"Landkreis"},"federalState":{"key":"08","name":"Baden-Württemberg"}},{"name":"Brockenblick","postalCode":"38312","locality":"Heiningen","municipality":{"key":"03158019","name":"Heiningen","type":"Kreisangehörige_Gemeinde"},"district":{"key":"03158","name":"Wolfenbüttel","type":"Landkreis"},"federalState":{"key":"03","name":"Niedersachsen"}},{"name":"Buchenstr.","postalCode":"73092","locality":"Heiningen","municipality":{"key":"08117030","name":"Heiningen","type":"Kreisangehörige_Gemeinde"},"district":{"key":"08117","name":"Göppingen","type":"Landkreis"},"federalState":{"key":"08","name":"Baden-Württemberg"}},{"name":"Buchhaldenweg","postalCode":"73092","locality":"Heiningen","municipality":{"key":"08117030","name":"Heiningen","type":"Kreisangehörige_Gemeinde"},"district":{"key":"08117","name":"Göppingen","type":"Landkreis"},"federalState":{"key":"08","name":"Baden-Württemberg"}},{"name":"Clara-Schumann-Str.","postalCode":"73092","locality":"Heiningen","municipality":{"key":"08117030","name":"Heiningen","type":"Kreisangehörige_Gemeinde"},"district":{"key":"08117","name":"Göppingen","type":"Landkreis"},"federalState":{"key":"08","name":"Baden-Württemberg"}},{"name":"Dorfstr.","postalCode":"38312","locality":"Heiningen","municipality":{"key":"03158019","name":"Heiningen","type":"Kreisangehörige_Gemeinde"},"district":{"key":"03158","name":"Wolfenbüttel","type":"Landkreis"},"federalState":{"key":"03","name":"Niedersachsen"}},{"name":"Dürnauer Weg","postalCode":"73092","locality":"Heiningen","municipality":{"key":"08117030","name":"Heiningen","type":"Kreisangehörige_Gemeinde"},"district":{"key":"08117","name":"Göppingen","type":"Landkreis"},"federalState":{"key":"08","name":"Baden-Württemberg"}},{"name":"Eichendorffweg","postalCode":"73092","locality":"Heiningen","municipality":{"key":"08117030","name":"Heiningen","type":"Kreisangehörige_Gemeinde"},"district":{"key":"08117","name":"Göppingen","type":"Landkreis"},"federalState":{"key":"08","name":"Baden-Württemberg"}},{"name":"Eichenstr.","postalCode":"73092","locality":"Heiningen","municipality":{"key":"08117030","name":"Heiningen","type":"Kreisangehörige_Gemeinde"},"district":{"key":"08117","name":"Göppingen","type":"Landkreis"},"federalState":{"key":"08","name":"Baden-Württemberg"}},{"name":"Eitswiesenstr.","postalCode":"73092","locality":"Heiningen","municipality":{"key":"08117030","name":"Heiningen","type":"Kreisangehörige_Gemeinde"},"district":{"key":"08117","name":"Göppingen","type":"Landkreis"},"federalState":{"key":"08","name":"Baden-Württemberg"}},{"name":"Eschenbacher Str.","postalCode":"73092","locality":"Heiningen","municipality":{"key":"08117030","name":"Heiningen","type":"Kreisangehörige_Gemeinde"},"district":{"key":"08117","name":"Göppingen","type":"Landkreis"},"federalState":{"key":"08","name":"Baden-Württemberg"}},{"name":"Feldwiesenstr.","postalCode":"73092","locality":"Heiningen","municipality":{"key":"08117030","name":"Heiningen","type":"Kreisangehörige_Gemeinde"},"district":{"key":"08117","name":"Göppingen","type":"Landkreis"},"federalState":{"key":"08","name":"Baden-Württemberg"}},{"name":"Fichtenstr.","postalCode":"73092","locality":"Heiningen","municipality":{"key":"08117030","name":"Heiningen","type":"Kreisangehörige_Gemeinde"},"district":{"key":"08117","name":"Göppingen","type":"Landkreis"},"federalState":{"key":"08","name":"Baden-Württemberg"}},{"name":"Frühlingstr.","postalCode":"73092","locality":"Heiningen","municipality":{"key":"08117030","name":"Heiningen","type":"Kreisangehörige_Gemeinde"},"district":{"key":"08117","name":"Göppingen","type":"Landkreis"},"federalState":{"key":"08","name":"Baden-Württemberg"}},{"name":"Fuchseckstr.","postalCode":"73092","locality":"Heiningen","municipality":{"key":"08117030","name":"Heiningen","type":"Kreisangehörige_Gemeinde"},"district":{"key":"08117","name":"Göppingen","type":"Landkreis"},"federalState":{"key":"08","name":"Baden-Württemberg"}},{"name":"Gartenstr.","postalCode":"73092","locality":"Heiningen","municipality":{"key":"08117030","name":"Heiningen","type":"Kreisangehörige_Gemeinde"},"district":{"key":"08117","name":"Göppingen","type":"Landkreis"},"federalState":{"key":"08","name":"Baden-Württemberg"}},{"name":"Goethestr.","postalCode":"73092","locality":"Heiningen","municipality":{"key":"08117030","name":"Heiningen","type":"Kreisangehörige_Gemeinde"},"district":{"key":"08117","name":"Göppingen","type":"Landkreis"},"federalState":{"key":"08","name":"Baden-Württemberg"}},{"name":"Göppinger Str.","postalCode":"73092","locality":"Heiningen","municipality":{"key":"08117030","name":"Heiningen","type":"Kreisangehörige_Gemeinde"},"district":{"key":"08117","name":"Göppingen","type":"Landkreis"},"federalState":{"key":"08","name":"Baden-Württemberg"}},{"name":"Gutshof","postalCode":"38312","locality":"Heiningen","municipality":{"key":"03158019","name":"Heiningen","type":"Kreisangehörige_Gemeinde"},"district":{"key":"03158","name":"Wolfenbüttel","type":"Landkreis"},"federalState":{"key":"03","name":"Niedersachsen"}},{"name":"Haagweg","postalCode":"73092","locality":"Heiningen","municipality":{"key":"08117030","name":"Heiningen","type":"Kreisangehörige_Gemeinde"},"district":{"key":"08117","name":"Göppingen","type":"Landkreis"},"federalState":{"key":"08","name":"Baden-Württemberg"}},{"name":"Hasengasse","postalCode":"73092","locality":"Heiningen","municipality":{"key":"08117030","name":"Heiningen","type":"Kreisangehörige_Gemeinde"},"district":{"key":"08117","name":"Göppingen","type":"Landkreis"},"federalState":{"key":"08","name":"Baden-Württemberg"}},{"name":"Hauffstr.","postalCode":"73092","locality":"Heiningen","municipality":{"key":"08117030","name":"Heiningen","type":"Kreisangehörige_Gemeinde"},"district":{"key":"08117","name":"Göppingen","type":"Landkreis"},"federalState":{"key":"08","name":"Baden-Württemberg"}},{"name":"Hauptstr.","postalCode":"38312","locality":"Heiningen","municipality":{"key":"03158019","name":"Heiningen","type":"Kreisangehörige_Gemeinde"},"district":{"key":"03158","name":"Wolfenbüttel","type":"Landkreis"},"federalState":{"key":"03","name":"Niedersachsen"}},{"name":"Hauptstr.","postalCode":"73092","locality":"Heiningen","municipality":{"key":"08117030","name":"Heiningen","type":"Kreisangehörige_Gemeinde"},"district":{"key":"08117","name":"Göppingen","type":"Landkreis"},"federalState":{"key":"08","name":"Baden-Württemberg"}},{"name":"Hermann-Hesse-Str.","postalCode":"73092","locality":"Heiningen","municipality":{"key":"08117030","name":"Heiningen","type":"Kreisangehörige_Gemeinde"},"district":{"key":"08117","name":"Göppingen","type":"Landkreis"},"federalState":{"key":"08","name":"Baden-Württemberg"}},{"name":"Heubachstr.","postalCode":"73092","locality":"Heiningen","municipality":{"key":"08117030","name":"Heiningen","type":"Kreisangehörige_Gemeinde"},"district":{"key":"08117","name":"Göppingen","type":"Landkreis"},"federalState":{"key":"08","name":"Baden-Württemberg"}},{"name":"Hofstr.","postalCode":"73092","locality":"Heiningen","municipality":{"key":"08117030","name":"Heiningen","type":"Kreisangehörige_Gemeinde"},"district":{"key":"08117","name":"Göppingen","type":"Landkreis"},"federalState":{"key":"08","name":"Baden-Württemberg"}},{"name":"Hohenstaufenstr.","postalCode":"73092","locality":"Heiningen","municipality":{"key":"08117030","name":"Heiningen","type":"Kreisangehörige_Gemeinde"},"district":{"key":"08117","name":"Göppingen","type":"Landkreis"},"federalState":{"key":"08","name":"Baden-Württemberg"}},{"name":"Hohläckerweg","postalCode":"73092","locality":"Heiningen","municipality":{"key":"08117030","name":"Heiningen","type":"Kreisangehörige_Gemeinde"},"district":{"key":"08117","name":"Göppingen","type":"Landkreis"},"federalState":{"key":"08","name":"Baden-Württemberg"}},{"name":"Hölderlinstr.","postalCode":"73092","locality":"Heiningen","municipality":{"key":"08117030","name":"Heiningen","type":"Kreisangehörige_Gemeinde"},"district":{"key":"08117","name":"Göppingen","type":"Landkreis"},"federalState":{"key":"08","name":"Baden-Württemberg"}},{"name":"Iltishofweg","postalCode":"73092","locality":"Heiningen","municipality":{"key":"08117030","name":"Heiningen","type":"Kreisangehörige_Gemeinde"},"district":{"key":"08117","name":"Göppingen","type":"Landkreis"},"federalState":{"key":"08","name":"Baden-Württemberg"}},{"name":"Im Entenfang","postalCode":"38312","locality":"Heiningen","municipality":{"key":"03158019","name":"Heiningen","type":"Kreisangehörige_Gemeinde"},"district":{"key":"03158","name":"Wolfenbüttel","type":"Landkreis"},"federalState":{"key":"03","name":"Niedersachsen"}},{"name":"Im Kötterhagen","postalCode":"38312","locality":"Heiningen","municipality":{"key":"03158019","name":"Heiningen","type":"Kreisangehörige_Gemeinde"},"district":{"key":"03158","name":"Wolfenbüttel","type":"Landkreis"},"federalState":{"key":"03","name":"Niedersachsen"}},{"name":"Jägerstieg","postalCode":"38312","locality":"Heiningen","municipality":{"key":"03158019","name":"Heiningen","type":"Kreisangehörige_Gemeinde"},"district":{"key":"03158","name":"Wolfenbüttel","type":"Landkreis"},"federalState":{"key":"03","name":"Niedersachsen"}},{"name":"Jebenhäuser Str.","postalCode":"73092","locality":"Heiningen","municipality":{"key":"08117030","name":"Heiningen","type":"Kreisangehörige_Gemeinde"},"district":{"key":"08117","name":"Göppingen","type":"Landkreis"},"federalState":{"key":"08","name":"Baden-Württemberg"}},{"name":"Karl-May-Str.","postalCode":"73092","locality":"Heiningen","municipality":{"key":"08117030","name":"Heiningen","type":"Kreisangehörige_Gemeinde"},"district":{"key":"08117","name":"Göppingen","type":"Landkreis"},"federalState":{"key":"08","name":"Baden-Württemberg"}},{"name":"Kastanienallee","postalCode":"73092","locality":"Heiningen","municipality":{"key":"08117030","name":"Heiningen","type":"Kreisangehörige_Gemeinde"},"district":{"key":"08117","name":"Göppingen","type":"Landkreis"},"federalState":{"key":"08","name":"Baden-Württemberg"}},{"name":"Kirchstr.","postalCode":"73092","locality":"Heiningen","municipality":{"key":"08117030","name":"Heiningen","type":"Kreisangehörige_Gemeinde"},"district":{"key":"08117","name":"Göppingen","type":"Landkreis"},"federalState":{"key":"08","name":"Baden-Württemberg"}},{"name":"Kornbergstr.","postalCode":"73092","locality":"Heiningen","municipality":{"key":"08117030","name":"Heiningen","type":"Kreisangehörige_Gemeinde"},"district":{"key":"08117","name":"Göppingen","type":"Landkreis"},"federalState":{"key":"08","name":"Baden-Württemberg"}},{"name":"Kurze Str.","postalCode":"73092","locality":"Heiningen","municipality":{"key":"08117030","name":"Heiningen","type":"Kreisangehörige_Gemeinde"},"district":{"key":"08117","name":"Göppingen","type":"Landkreis"},"federalState":{"key":"08","name":"Baden-Württemberg"}},{"name":"Kurzländstr.","postalCode":"73092","locality":"Heiningen","municipality":{"key":"08117030","name":"Heiningen","type":"Kreisangehörige_Gemeinde"},"district":{"key":"08117","name":"Göppingen","type":"Landkreis"},"federalState":{"key":"08","name":"Baden-Württemberg"}},{"name":"Lange Str.","postalCode":"73092","locality":"Heiningen","municipality":{"key":"08117030","name":"Heiningen","type":"Kreisangehörige_Gemeinde"},"district":{"key":"08117","name":"Göppingen","type":"Landkreis"},"federalState":{"key":"08","name":"Baden-Württemberg"}},{"name":"Liebesgasse","postalCode":"38312","locality":"Heiningen","municipality":{"key":"03158019","name":"Heiningen","type":"Kreisangehörige_Gemeinde"},"district":{"key":"03158","name":"Wolfenbüttel","type":"Landkreis"},"federalState":{"key":"03","name":"Niedersachsen"}},{"name":"Lindenstr.","postalCode":"73092","locality":"Heiningen","municipality":{"key":"08117030","name":"Heiningen","type":"Kreisangehörige_Gemeinde"},"district":{"key":"08117","name":"Göppingen","type":"Landkreis"},"federalState":{"key":"08","name":"Baden-Württemberg"}},{"name":"Mörikestr.","postalCode":"73092","locality":"Heiningen","municipality":{"key":"08117030","name":"Heiningen","type":"Kreisangehörige_Gemeinde"},"district":{"key":"08117","name":"Göppingen","type":"Landkreis"},"federalState":{"key":"08","name":"Baden-Württemberg"}},{"name":"Mühlstr.","postalCode":"73092","locality":"Heiningen","municipality":{"key":"08117030","name":"Heiningen","type":"Kreisangehörige_Gemeinde"},"district":{"key":"08117","name":"Göppingen","type":"Landkreis"},"federalState":{"key":"08","name":"Baden-Württemberg"}},{"name":"Neuffenstr.","postalCode":"73092","locality":"Heiningen","municipality":{"key":"08117030","name":"Heiningen","type":"Kreisangehörige_Gemeinde"},"district":{"key":"08117","name":"Göppingen","type":"Landkreis"},"federalState":{"key":"08","name":"Baden-Württemberg"}},{"name":"Obere Weingartenstr.","postalCode":"73092","locality":"Heiningen","municipality":{"key":"08117030","name":"Heiningen","type":"Kreisangehörige_Gemeinde"},"district":{"key":"08117","name":"Göppingen","type":"Landkreis"},"federalState":{"key":"08","name":"Baden-Württemberg"}},{"name":"Pfarrstr.","postalCode":"73092","locality":"Heiningen","municipality":{"key":"08117030","name":"Heiningen","type":"Kreisangehörige_Gemeinde"},"district":{"key":"08117","name":"Göppingen","type":"Landkreis"},"federalState":{"key":"08","name":"Baden-Württemberg"}},{"name":"Querstr.","postalCode":"73092","locality":"Heiningen","municipality":{"key":"08117030","name":"Heiningen","type":"Kreisangehörige_Gemeinde"},"district":{"key":"08117","name":"Göppingen","type":"Landkreis"},"federalState":{"key":"08","name":"Baden-Württemberg"}},{"name":"Rechbergstr.","postalCode":"73092","locality":"Heiningen","municipality":{"key":"08117030","name":"Heiningen","type":"Kreisangehörige_Gemeinde"},"district":{"key":"08117","name":"Göppingen","type":"Landkreis"},"federalState":{"key":"08","name":"Baden-Württemberg"}},{"name":"Reuschstr.","postalCode":"73092","locality":"Heiningen","municipality":{"key":"08117030","name":"Heiningen","type":"Kreisangehörige_Gemeinde"},"district":{"key":"08117","name":"Göppingen","type":"Landkreis"},"federalState":{"key":"08","name":"Baden-Württemberg"}},{"name":"Richtung Eschenbach","postalCode":"73092","locality":"Heiningen","municipality":{"key":"08117030","name":"Heiningen","type":"Kreisangehörige_Gemeinde"},"district":{"key":"08117","name":"Göppingen","type":"Landkreis"},"federalState":{"key":"08","name":"Baden-Württemberg"}},{"name":"Riedstr.","postalCode":"73092","locality":"Heiningen","municipality":{"key":"08117030","name":"Heiningen","type":"Kreisangehörige_Gemeinde"},"district":{"key":"08117","name":"Göppingen","type":"Landkreis"},"federalState":{"key":"08","name":"Baden-Württemberg"}},{"name":"Ringstr.","postalCode":"73092","locality":"Heiningen","municipality":{"key":"08117030","name":"Heiningen","type":"Kreisangehörige_Gemeinde"},"district":{"key":"08117","name":"Göppingen","type":"Landkreis"},"federalState":{"key":"08","name":"Baden-Württemberg"}},{"name":"Rissweg","postalCode":"73092","locality":"Heiningen","municipality":{"key":"08117030","name":"Heiningen","type":"Kreisangehörige_Gemeinde"},"district":{"key":"08117","name":"Göppingen","type":"Landkreis"},"federalState":{"key":"08","name":"Baden-Württemberg"}},{"name":"Scheffelstr.","postalCode":"73092","locality":"Heiningen","municipality":{"key":"08117030","name":"Heiningen","type":"Kreisangehörige_Gemeinde"},"district":{"key":"08117","name":"Göppingen","type":"Landkreis"},"federalState":{"key":"08","name":"Baden-Württemberg"}},{"name":"Schillerstr.","postalCode":"73092","locality":"Heiningen","municipality":{"key":"08117030","name":"Heiningen","type":"Kreisangehörige_Gemeinde"},"district":{"key":"08117","name":"Göppingen","type":"Landkreis"},"federalState":{"key":"08","name":"Baden-Württemberg"}},{"name":"Schlesierweg","postalCode":"38312","locality":"Heiningen","municipality":{"key":"03158019","name":"Heiningen","type":"Kreisangehörige_Gemeinde"},"district":{"key":"03158","name":"Wolfenbüttel","type":"Landkreis"},"federalState":{"key":"03","name":"Niedersachsen"}},{"name":"Schneckengasse","postalCode":"73092","locality":"Heiningen","municipality":{"key":"08117030","name":"Heiningen","type":"Kreisangehörige_Gemeinde"},"district":{"key":"08117","name":"Göppingen","type":"Landkreis"},"federalState":{"key":"08","name":"Baden-Württemberg"}},{"name":"Schubartstr.","postalCode":"73092","locality":"Heiningen","municipality":{"key":"08117030","name":"Heiningen","type":"Kreisangehörige_Gemeinde"},"district":{"key":"08117","name":"Göppingen","type":"Landkreis"},"federalState":{"key":"08","name":"Baden-Württemberg"}},{"name":"Schulstr.","postalCode":"38312","locality":"Heiningen","municipality":{"key":"03158019","name":"Heiningen","type":"Kreisangehörige_Gemeinde"},"district":{"key":"03158","name":"Wolfenbüttel","type":"Landkreis"},"federalState":{"key":"03","name":"Niedersachsen"}},{"name":"Sielenwangstr.","postalCode":"73092","locality":"Heiningen","municipality":{"key":"08117030","name":"Heiningen","type":"Kreisangehörige_Gemeinde"},"district":{"key":"08117","name":"Göppingen","type":"Landkreis"},"federalState":{"key":"08","name":"Baden-Württemberg"}},{"name":"Silcherstr.","postalCode":"73092","locality":"Heiningen","municipality":{"key":"08117030","name":"Heiningen","type":"Kreisangehörige_Gemeinde"},"district":{"key":"08117","name":"Göppingen","type":"Landkreis"},"federalState":{"key":"08","name":"Baden-Württemberg"}},{"name":"Staufeneckstr.","postalCode":"73092","locality":"Heiningen","municipality":{"key":"08117030","name":"Heiningen","type":"Kreisangehörige_Gemeinde"},"district":{"key":"08117","name":"Göppingen","type":"Landkreis"},"federalState":{"key":"08","name":"Baden-Württemberg"}},{"name":"Stellebergstr.","postalCode":"73092","locality":"Heiningen","municipality":{"key":"08117030","name":"Heiningen","type":"Kreisangehörige_Gemeinde"},"district":{"key":"08117","name":"Göppingen","type":"Landkreis"},"federalState":{"key":"08","name":"Baden-Württemberg"}},{"name":"Struttweg","postalCode":"73092","locality":"Heiningen","municipality":{"key":"08117030","name":"Heiningen","type":"Kreisangehörige_Gemeinde"},"district":{"key":"08117","name":"Göppingen","type":"Landkreis"},"federalState":{"key":"08","name":"Baden-Württemberg"}},{"name":"Stuifenstr.","postalCode":"73092","locality":"Heiningen","municipality":{"key":"08117030","name":"Heiningen","type":"Kreisangehörige_Gemeinde"},"district":{"key":"08117","name":"Göppingen","type":"Landkreis"},"federalState":{"key":"08","name":"Baden-Württemberg"}},{"name":"Sudetenstr.","postalCode":"73092","locality":"Heiningen","municipality":{"key":"08117030","name":"Heiningen","type":"Kreisangehörige_Gemeinde"},"district":{"key":"08117","name":"Göppingen","type":"Landkreis"},"federalState":{"key":"08","name":"Baden-Württemberg"}},{"name":"Talweg","postalCode":"73092","locality":"Heiningen","municipality":{"key":"08117030","name":"Heiningen","type":"Kreisangehörige_Gemeinde"},"district":{"key":"08117","name":"Göppingen","type":"Landkreis"},"federalState":{"key":"08","name":"Baden-Württemberg"}},{"name":"Tannenstr.","postalCode":"73092","locality":"Heiningen","municipality":{"key":"08117030","name":"Heiningen","type":"Kreisangehörige_Gemeinde"},"district":{"key":"08117","name":"Göppingen","type":"Landkreis"},"federalState":{"key":"08","name":"Baden-Württemberg"}},{"name":"Teckstr.","postalCode":"73092","locality":"Heiningen","municipality":{"key":"08117030","name":"Heiningen","type":"Kreisangehörige_Gemeinde"},"district":{"key":"08117","name":"Göppingen","type":"Landkreis"},"federalState":{"key":"08","name":"Baden-Württemberg"}},{"name":"Uhlandstr.","postalCode":"73092","locality":"Heiningen","municipality":{"key":"08117030","name":"Heiningen","type":"Kreisangehörige_Gemeinde"},"district":{"key":"08117","name":"Göppingen","type":"Landkreis"},"federalState":{"key":"08","name":"Baden-Württemberg"}},{"name":"Untere Weingartenstr.","postalCode":"73092","locality":"Heiningen","municipality":{"key":"08117030","name":"Heiningen","type":"Kreisangehörige_Gemeinde"},"district":{"key":"08117","name":"Göppingen","type":"Landkreis"},"federalState":{"key":"08","name":"Baden-Württemberg"}},{"name":"Virchowweg","postalCode":"38302","locality":"Wolfenbüttel","municipality":{"key":"03158037","name":"Wolfenbüttel, Stadt","type":"Stadt"},"district":{"key":"03158","name":"Wolfenbüttel","type":"Landkreis"},"federalState":{"key":"03","name":"Niedersachsen"}},{"name":"Vogesweg","postalCode":"38304","locality":"Wolfenbüttel","municipality":{"key":"03158037","name":"Wolfenbüttel, Stadt","type":"Stadt"},"district":{"key":"03158","name":"Wolfenbüttel","type":"Landkreis"},"federalState":{"key":"03","name":"Niedersachsen"}},{"name":"Vor dem Gotteslager","postalCode":"38300","locality":"Wolfenbüttel","municipality":{"key":"03158037","name":"Wolfenbüttel, Stadt","type":"Stadt"},"district":{"key":"03158","name":"Wolfenbüttel","type":"Landkreis"},"federalState":{"key":"03","name":"Niedersachsen"}},{"name":"Vor dem Rottland","postalCode":"38302","locality":"Wolfenbüttel","municipality":{"key":"03158037","name":"Wolfenbüttel, Stadt","type":"Stadt"},"district":{"key":"03158","name":"Wolfenbüttel","type":"Landkreis"},"federalState":{"key":"03","name":"Niedersachsen"}},{"name":"Vor dem Schlosse","postalCode":"38302","locality":"Wolfenbüttel","municipality":{"key":"03158037","name":"Wolfenbüttel, Stadt","type":"Stadt"},"district":{"key":"03158","name":"Wolfenbüttel","type":"Landkreis"},"federalState":{"key":"03","name":"Niedersachsen"}},{"name":"Vor dem Stadtberge","postalCode":"38300","locality":"Wolfenbüttel","municipality":{"key":"03158037","name":"Wolfenbüttel, Stadt","type":"Stadt"},"district":{"key":"03158","name":"Wolfenbüttel","type":"Landkreis"},"federalState":{"key":"03","name":"Niedersachsen"}},{"name":"Vor den Drohnen","postalCode":"38302","locality":"Wolfenbüttel","municipality":{"key":"03158037","name":"Wolfenbüttel, Stadt","type":"Stadt"},"district":{"key":"03158","name":"Wolfenbüttel","type":"Landkreis"},"federalState":{"key":"03","name":"Niedersachsen"}},{"name":"Vor den Gärten","postalCode":"38302","locality":"Wolfenbüttel","municipality":{"key":"03158037","name":"Wolfenbüttel, Stadt","type":"Stadt"},"district":{"key":"03158","name":"Wolfenbüttel","type":"Landkreis"},"federalState":{"key":"03","name":"Niedersachsen"}},{"name":"Vor den Rotten","postalCode":"38304","locality":"Wolfenbüttel","municipality":{"key":"03158037","name":"Wolfenbüttel, Stadt","type":"Stadt"},"district":{"key":"03158","name":"Wolfenbüttel","type":"Landkreis"},"federalState":{"key":"03","name":"Niedersachsen"}},{"name":"Vor den Wiesen","postalCode":"38300","locality":"Wolfenbüttel","municipality":{"key":"03158037","name":"Wolfenbüttel, Stadt","type":"Stadt"},"district":{"key":"03158","name":"Wolfenbüttel","type":"Landkreis"},"federalState":{"key":"03","name":"Niedersachsen"}},{"name":"Wielandstr.","postalCode":"73092","locality":"Heiningen","municipality":{"key":"08117030","name":"Heiningen","type":"Kreisangehörige_Gemeinde"},"district":{"key":"08117","name":"Göppingen","type":"Landkreis"},"federalState":{"key":"08","name":"Baden-Württemberg"}},{"name":"Ziegelstr.","postalCode":"73092","locality":"Heiningen","municipality":{"key":"08117030","name":"Heiningen","type":"Kreisangehörige_Gemeinde"},"district":{"key":"08117","name":"Göppingen","type":"Landkreis"},"federalState":{"key":"08","name":"Baden-Württemberg"}},{"name":"Öschstr.","postalCode":"73092","locality":"Heiningen","municipality":{"key":"08117030","name":"Heiningen","type":"Kreisangehörige_Gemeinde"},"district":{"key":"08117","name":"Göppingen","type":"Landkreis"},"federalState":{"key":"08","name":"Baden-Württemberg"}},{"name":"Über dem Dorfe","postalCode":"38304","locality":"Wolfenbüttel","municipality":{"key":"03158037","name":"Wolfenbüttel, Stadt","type":"Stadt"},"district":{"key":"03158","name":"Wolfenbüttel","type":"Landkreis"},"federalState":{"key":"03","name":"Niedersachsen"}},{"name":"Über der Wiese","postalCode":"38304","locality":"Wolfenbüttel","municipality":{"key":"03158037","name":"Wolfenbüttel, Stadt","type":"Stadt"},"district":{"key":"03158","name":"Wolfenbüttel","type":"Landkreis"},"federalState":{"key":"03","name":"Niedersachsen"}},]