[{"key":"10061220","name":"Aabeberg","postalCode":"3812","locality":"Wilderswil","commune":{"key":"594","name":"Wilderswil","shortName":"Wilderswil"},"district":{"key":"250","name":"Verwaltungskreis Interlaken-Oberhasli"},"canton":{"key":"2","code":"BE","name":"Bern / Berne"},"status":"Real"},{"key":"10219461","name":"Aabeweid","postalCode":"3812","locality":"Wilderswil","commune":{"key":"594","name":"Wilderswil","shortName":"Wilderswil"},"district":{"key":"250","name":"Verwaltungskreis Interlaken-Oberhasli"},"canton":{"key":"2","code":"BE","name":"Bern / Berne"},"status":"Real"},{"key":"10128075","name":"Aegertiweg","postalCode":"3812","locality":"Wilderswil","commune":{"key":"594","name":"Wilderswil","shortName":"Wilderswil"},"district":{"key":"250","name":"Verwaltungskreis Interlaken-Oberhasli"},"canton":{"key":"2","code":"BE","name":"Bern / Berne"},"status":"Real"},{"key":"10007857","name":"Aegertzaunstrasse","postalCode":"3812","locality":"Wilderswil","commune":{"key":"594","name":"Wilderswil","shortName":"Wilderswil"},"district":{"key":"250","name":"Verwaltungskreis Interlaken-Oberhasli"},"canton":{"key":"2","code":"BE","name":"Bern / Berne"},"status":"Real"},{"key":"10007858","name":"Aegertzaunweg","postalCode":"3812","locality":"Wilderswil","commune":{"key":"594","name":"Wilderswil","shortName":"Wilderswil"},"district":{"key":"250","name":"Verwaltungskreis Interlaken-Oberhasli"},"canton":{"key":"2","code":"BE","name":"Bern / Berne"},"status":"Real"},{"key":"10208088","name":"Aenderberg","postalCode":"3812","locality":"Wilderswil","commune":{"key":"594","name":"Wilderswil","shortName":"Wilderswil"},"district":{"key":"250","name":"Verwaltungskreis Interlaken-Oberhasli"},"canton":{"key":"2","code":"BE","name":"Bern / Berne"},"status":"Real"},{"key":"10219465","name":"Ahorni","postalCode":"3812","locality":"Wilderswil","commune":{"key":"594","name":"Wilderswil","shortName":"Wilderswil"},"district":{"key":"250","name":"Verwaltungskreis Interlaken-Oberhasli"},"canton":{"key":"2","code":"BE","name":"Bern / Berne"},"status":"Real"},{"key":"10074788","name":"Allmendstrasse","postalCode":"3812","locality":"Wilderswil","commune":{"key":"594","name":"Wilderswil","shortName":"Wilderswil"},"district":{"key":"250","name":"Verwaltungskreis Interlaken-Oberhasli"},"canton":{"key":"2","code":"BE","name":"Bern / Berne"},"status":"Real"},{"key":"10155538","name":"Allmigässli","postalCode":"3812","locality":"Wilderswil","commune":{"key":"594","name":"Wilderswil","shortName":"Wilderswil"},"district":{"key":"250","name":"Verwaltungskreis Interlaken-Oberhasli"},"canton":{"key":"2","code":"BE","name":"Bern / Berne"},"status":"Real"},{"key":"10155539","name":"Alte Staatsstrasse","postalCode":"3812","locality":"Wilderswil","commune":{"key":"594","name":"Wilderswil","shortName":"Wilderswil"},"district":{"key":"250","name":"Verwaltungskreis Interlaken-Oberhasli"},"canton":{"key":"2","code":"BE","name":"Bern / Berne"},"status":"Real"},{"key":"10006479","name":"Am Musterplatz","postalCode":"3812","locality":"Wilderswil","commune":{"key":"594","name":"Wilderswil","shortName":"Wilderswil"},"district":{"key":"250","name":"Verwaltungskreis Interlaken-Oberhasli"},"canton":{"key":"2","code":"BE","name":"Bern / Berne"},"status":"Real"},{"key":"10219469","name":"Bärefure","postalCode":"3812","locality":"Wilderswil","commune":{"key":"594","name":"Wilderswil","shortName":"Wilderswil"},"district":{"key":"250","name":"Verwaltungskreis Interlaken-Oberhasli"},"canton":{"key":"2","code":"BE","name":"Bern / Berne"},"status":"Real"},{"key":"10218637","name":"Bim Grüt","postalCode":"3812","locality":"Wilderswil","commune":{"key":"594","name":"Wilderswil","shortName":"Wilderswil"},"district":{"key":"250","name":"Verwaltungskreis Interlaken-Oberhasli"},"canton":{"key":"2","code":"BE","name":"Bern / Berne"},"status":"Real"},{"key":"10218640","name":"Bir Müli","postalCode":"3812","locality":"Wilderswil","commune":{"key":"594","name":"Wilderswil","shortName":"Wilderswil"},"district":{"key":"250","name":"Verwaltungskreis Interlaken-Oberhasli"},"canton":{"key":"2","code":"BE","name":"Bern / Berne"},"status":"Real"},{"key":"10218644","name":"Bir Sagi","postalCode":"3812","locality":"Wilderswil","commune":{"key":"594","name":"Wilderswil","shortName":"Wilderswil"},"district":{"key":"250","name":"Verwaltungskreis Interlaken-Oberhasli"},"canton":{"key":"2","code":"BE","name":"Bern / Berne"},"status":"Real"},{"key":"10218647","name":"Bödeli","postalCode":"3812","locality":"Wilderswil","commune":{"key":"594","name":"Wilderswil","shortName":"Wilderswil"},"district":{"key":"250","name":"Verwaltungskreis Interlaken-Oberhasli"},"canton":{"key":"2","code":"BE","name":"Bern / Berne"},"status":"Real"},{"key":"10128074","name":"Bönigstrasse","postalCode":"3812","locality":"Wilderswil","commune":{"key":"594","name":"Wilderswil","shortName":"Wilderswil"},"district":{"key":"250","name":"Verwaltungskreis Interlaken-Oberhasli"},"canton":{"key":"2","code":"BE","name":"Bern / Berne"},"status":"Real"},{"key":"10104085","name":"Büelgässli","postalCode":"3812","locality":"Wilderswil","commune":{"key":"594","name":"Wilderswil","shortName":"Wilderswil"},"district":{"key":"250","name":"Verwaltungskreis Interlaken-Oberhasli"},"canton":{"key":"2","code":"BE","name":"Bern / Berne"},"status":"Real"},{"key":"10218650","name":"Burgzun","postalCode":"3812","locality":"Wilderswil","commune":{"key":"594","name":"Wilderswil","shortName":"Wilderswil"},"district":{"key":"250","name":"Verwaltungskreis Interlaken-Oberhasli"},"canton":{"key":"2","code":"BE","name":"Bern / Berne"},"status":"Real"},{"key":"10218654","name":"Butibos Ried","postalCode":"3812","locality":"Wilderswil","commune":{"key":"594","name":"Wilderswil","shortName":"Wilderswil"},"district":{"key":"250","name":"Verwaltungskreis Interlaken-Oberhasli"},"canton":{"key":"2","code":"BE","name":"Bern / Berne"},"status":"Real"},{"key":"10219436","name":"Chammeribode","postalCode":"3812","locality":"Wilderswil","commune":{"key":"594","name":"Wilderswil","shortName":"Wilderswil"},"district":{"key":"250","name":"Verwaltungskreis Interlaken-Oberhasli"},"canton":{"key":"2","code":"BE","name":"Bern / Berne"},"status":"Real"},{"key":"10219443","name":"Chammri","postalCode":"3812","locality":"Wilderswil","commune":{"key":"594","name":"Wilderswil","shortName":"Wilderswil"},"district":{"key":"250","name":"Verwaltungskreis Interlaken-Oberhasli"},"canton":{"key":"2","code":"BE","name":"Bern / Berne"},"status":"Real"},{"key":"10220152","name":"Chrummeney","postalCode":"3812","locality":"Wilderswil","commune":{"key":"594","name":"Wilderswil","shortName":"Wilderswil"},"district":{"key":"250","name":"Verwaltungskreis Interlaken-Oberhasli"},"canton":{"key":"2","code":"BE","name":"Bern / Berne"},"status":"Real"},{"key":"10156840","name":"Dammweg","postalCode":"3812","locality":"Wilderswil","commune":{"key":"594","name":"Wilderswil","shortName":"Wilderswil"},"district":{"key":"250","name":"Verwaltungskreis Interlaken-Oberhasli"},"canton":{"key":"2","code":"BE","name":"Bern / Berne"},"status":"Real"},{"key":"10007859","name":"Dickiweg","postalCode":"3812","locality":"Wilderswil","commune":{"key":"594","name":"Wilderswil","shortName":"Wilderswil"},"district":{"key":"250","name":"Verwaltungskreis Interlaken-Oberhasli"},"canton":{"key":"2","code":"BE","name":"Bern / Berne"},"status":"Real"},{"key":"10007860","name":"Dorfmattenstrasse","postalCode":"3812","locality":"Wilderswil","commune":{"key":"594","name":"Wilderswil","shortName":"Wilderswil"},"district":{"key":"250","name":"Verwaltungskreis Interlaken-Oberhasli"},"canton":{"key":"2","code":"BE","name":"Bern / Berne"},"status":"Real"},{"key":"10219451","name":"Eichelti","postalCode":"3812","locality":"Wilderswil","commune":{"key":"594","name":"Wilderswil","shortName":"Wilderswil"},"district":{"key":"250","name":"Verwaltungskreis Interlaken-Oberhasli"},"canton":{"key":"2","code":"BE","name":"Bern / Berne"},"status":"Real"},{"key":"10110012","name":"Fäldli","postalCode":"3812","locality":"Wilderswil","commune":{"key":"594","name":"Wilderswil","shortName":"Wilderswil"},"district":{"key":"250","name":"Verwaltungskreis Interlaken-Oberhasli"},"canton":{"key":"2","code":"BE","name":"Bern / Berne"},"status":"Real"},{"key":"10219459","name":"Fäldliwald","postalCode":"3812","locality":"Wilderswil","commune":{"key":"594","name":"Wilderswil","shortName":"Wilderswil"},"district":{"key":"250","name":"Verwaltungskreis Interlaken-Oberhasli"},"canton":{"key":"2","code":"BE","name":"Bern / Berne"},"status":"Real"},{"key":"10061909","name":"Feldgässli","postalCode":"3812","locality":"Wilderswil","commune":{"key":"594","name":"Wilderswil","shortName":"Wilderswil"},"district":{"key":"250","name":"Verwaltungskreis Interlaken-Oberhasli"},"canton":{"key":"2","code":"BE","name":"Bern / Berne"},"status":"Real"},{"key":"10156839","name":"Fuhrenweg","postalCode":"3812","locality":"Wilderswil","commune":{"key":"594","name":"Wilderswil","shortName":"Wilderswil"},"district":{"key":"250","name":"Verwaltungskreis Interlaken-Oberhasli"},"canton":{"key":"2","code":"BE","name":"Bern / Berne"},"status":"Real"},{"key":"10060010","name":"Gärbigässli","postalCode":"3812","locality":"Wilderswil","commune":{"key":"594","name":"Wilderswil","shortName":"Wilderswil"},"district":{"key":"250","name":"Verwaltungskreis Interlaken-Oberhasli"},"canton":{"key":"2","code":"BE","name":"Bern / Berne"},"status":"Real"},{"key":"10219524","name":"Gatafel","postalCode":"3812","locality":"Wilderswil","commune":{"key":"594","name":"Wilderswil","shortName":"Wilderswil"},"district":{"key":"250","name":"Verwaltungskreis Interlaken-Oberhasli"},"canton":{"key":"2","code":"BE","name":"Bern / Berne"},"status":"Real"},{"key":"10219535","name":"Gewerbeweg","postalCode":"3812","locality":"Wilderswil","commune":{"key":"594","name":"Wilderswil","shortName":"Wilderswil"},"district":{"key":"250","name":"Verwaltungskreis Interlaken-Oberhasli"},"canton":{"key":"2","code":"BE","name":"Bern / Berne"},"status":"Real"},{"key":"10219549","name":"Glootri","postalCode":"3812","locality":"Wilderswil","commune":{"key":"594","name":"Wilderswil","shortName":"Wilderswil"},"district":{"key":"250","name":"Verwaltungskreis Interlaken-Oberhasli"},"canton":{"key":"2","code":"BE","name":"Bern / Berne"},"status":"Real"},{"key":"10197036","name":"Greiche","postalCode":"3812","locality":"Wilderswil","commune":{"key":"594","name":"Wilderswil","shortName":"Wilderswil"},"district":{"key":"250","name":"Verwaltungskreis Interlaken-Oberhasli"},"canton":{"key":"2","code":"BE","name":"Bern / Berne"},"status":"Real"},{"key":"10115375","name":"Grenchenstrasse","postalCode":"3812","locality":"Wilderswil","commune":{"key":"594","name":"Wilderswil","shortName":"Wilderswil"},"district":{"key":"250","name":"Verwaltungskreis Interlaken-Oberhasli"},"canton":{"key":"2","code":"BE","name":"Bern / Berne"},"status":"Real"},{"key":"10143638","name":"Grenchenweg","postalCode":"3812","locality":"Wilderswil","commune":{"key":"594","name":"Wilderswil","shortName":"Wilderswil"},"district":{"key":"250","name":"Verwaltungskreis Interlaken-Oberhasli"},"canton":{"key":"2","code":"BE","name":"Bern / Berne"},"status":"Real"},{"key":"10061910","name":"Gsteigstrasse","postalCode":"3812","locality":"Wilderswil","commune":{"key":"594","name":"Wilderswil","shortName":"Wilderswil"},"district":{"key":"250","name":"Verwaltungskreis Interlaken-Oberhasli"},"canton":{"key":"2","code":"BE","name":"Bern / Berne"},"status":"Real"},{"key":"10220156","name":"Gubi","postalCode":"3812","locality":"Wilderswil","commune":{"key":"594","name":"Wilderswil","shortName":"Wilderswil"},"district":{"key":"250","name":"Verwaltungskreis Interlaken-Oberhasli"},"canton":{"key":"2","code":"BE","name":"Bern / Berne"},"status":"Real"},{"key":"10219564","name":"Gubigässli","postalCode":"3812","locality":"Wilderswil","commune":{"key":"594","name":"Wilderswil","shortName":"Wilderswil"},"district":{"key":"250","name":"Verwaltungskreis Interlaken-Oberhasli"},"canton":{"key":"2","code":"BE","name":"Bern / Berne"},"status":"Real"},{"key":"10156841","name":"Gubiweg","postalCode":"3812","locality":"Wilderswil","commune":{"key":"594","name":"Wilderswil","shortName":"Wilderswil"},"district":{"key":"250","name":"Verwaltungskreis Interlaken-Oberhasli"},"canton":{"key":"2","code":"BE","name":"Bern / Berne"},"status":"Real"},{"key":"10219571","name":"Haltenweg","postalCode":"3812","locality":"Wilderswil","commune":{"key":"594","name":"Wilderswil","shortName":"Wilderswil"},"district":{"key":"250","name":"Verwaltungskreis Interlaken-Oberhasli"},"canton":{"key":"2","code":"BE","name":"Bern / Berne"},"status":"Real"},{"key":"10196628","name":"Haselholz","postalCode":"3812","locality":"Wilderswil","commune":{"key":"594","name":"Wilderswil","shortName":"Wilderswil"},"district":{"key":"250","name":"Verwaltungskreis Interlaken-Oberhasli"},"canton":{"key":"2","code":"BE","name":"Bern / Berne"},"status":"Real"},{"key":"10007862","name":"Hauptstrasse","postalCode":"3812","locality":"Wilderswil","commune":{"key":"594","name":"Wilderswil","shortName":"Wilderswil"},"district":{"key":"250","name":"Verwaltungskreis Interlaken-Oberhasli"},"canton":{"key":"2","code":"BE","name":"Bern / Berne"},"status":"Real"},{"key":"10174460","name":"Hinder de Hüser","postalCode":"3812","locality":"Wilderswil","commune":{"key":"594","name":"Wilderswil","shortName":"Wilderswil"},"district":{"key":"250","name":"Verwaltungskreis Interlaken-Oberhasli"},"canton":{"key":"2","code":"BE","name":"Bern / Berne"},"status":"Real"},{"key":"10151650","name":"Hinderwydi","postalCode":"3812","locality":"Wilderswil","commune":{"key":"594","name":"Wilderswil","shortName":"Wilderswil"},"district":{"key":"250","name":"Verwaltungskreis Interlaken-Oberhasli"},"canton":{"key":"2","code":"BE","name":"Bern / Berne"},"status":"Real"},{"key":"10061911","name":"Hubelweg","postalCode":"3812","locality":"Wilderswil","commune":{"key":"594","name":"Wilderswil","shortName":"Wilderswil"},"district":{"key":"250","name":"Verwaltungskreis Interlaken-Oberhasli"},"canton":{"key":"2","code":"BE","name":"Bern / Berne"},"status":"Real"},{"key":"10216637","name":"Hundschüpfa","postalCode":"3812","locality":"Wilderswil","commune":{"key":"594","name":"Wilderswil","shortName":"Wilderswil"},"district":{"key":"250","name":"Verwaltungskreis Interlaken-Oberhasli"},"canton":{"key":"2","code":"BE","name":"Bern / Berne"},"status":"Real"},{"key":"10216641","name":"Im Ortli","postalCode":"3812","locality":"Wilderswil","commune":{"key":"594","name":"Wilderswil","shortName":"Wilderswil"},"district":{"key":"250","name":"Verwaltungskreis Interlaken-Oberhasli"},"canton":{"key":"2","code":"BE","name":"Bern / Berne"},"status":"Real"},{"key":"10216644","name":"Im Steischlag","postalCode":"3812","locality":"Wilderswil","commune":{"key":"594","name":"Wilderswil","shortName":"Wilderswil"},"district":{"key":"250","name":"Verwaltungskreis Interlaken-Oberhasli"},"canton":{"key":"2","code":"BE","name":"Bern / Berne"},"status":"Real"},{"key":"10216648","name":"Im Tal","postalCode":"3812","locality":"Wilderswil","commune":{"key":"594","name":"Wilderswil","shortName":"Wilderswil"},"district":{"key":"250","name":"Verwaltungskreis Interlaken-Oberhasli"},"canton":{"key":"2","code":"BE","name":"Bern / Berne"},"status":"Real"},{"key":"10216653","name":"Industriestrasse","postalCode":"3812","locality":"Wilderswil","commune":{"key":"594","name":"Wilderswil","shortName":"Wilderswil"},"district":{"key":"250","name":"Verwaltungskreis Interlaken-Oberhasli"},"canton":{"key":"2","code":"BE","name":"Bern / Berne"},"status":"Real"},{"key":"10216657","name":"Ingelschwande","postalCode":"3812","locality":"Wilderswil","commune":{"key":"594","name":"Wilderswil","shortName":"Wilderswil"},"district":{"key":"250","name":"Verwaltungskreis Interlaken-Oberhasli"},"canton":{"key":"2","code":"BE","name":"Bern / Berne"},"status":"Real"},{"key":"10131136","name":"Jungfrauweg","postalCode":"3812","locality":"Wilderswil","commune":{"key":"594","name":"Wilderswil","shortName":"Wilderswil"},"district":{"key":"250","name":"Verwaltungskreis Interlaken-Oberhasli"},"canton":{"key":"2","code":"BE","name":"Bern / Berne"},"status":"Real"},{"key":"10007863","name":"Kirchgasse","postalCode":"3812","locality":"Wilderswil","commune":{"key":"594","name":"Wilderswil","shortName":"Wilderswil"},"district":{"key":"250","name":"Verwaltungskreis Interlaken-Oberhasli"},"canton":{"key":"2","code":"BE","name":"Bern / Berne"},"status":"Real"},{"key":"10163724","name":"Kirchweg","postalCode":"3812","locality":"Wilderswil","commune":{"key":"594","name":"Wilderswil","shortName":"Wilderswil"},"district":{"key":"250","name":"Verwaltungskreis Interlaken-Oberhasli"},"canton":{"key":"2","code":"BE","name":"Bern / Berne"},"status":"Real"},{"key":"10050777","name":"Kreuzgasse","postalCode":"3812","locality":"Wilderswil","commune":{"key":"594","name":"Wilderswil","shortName":"Wilderswil"},"district":{"key":"250","name":"Verwaltungskreis Interlaken-Oberhasli"},"canton":{"key":"2","code":"BE","name":"Bern / Berne"},"status":"Real"},{"key":"10006478","name":"Kreuzimaadweg","postalCode":"3812","locality":"Wilderswil","commune":{"key":"594","name":"Wilderswil","shortName":"Wilderswil"},"district":{"key":"250","name":"Verwaltungskreis Interlaken-Oberhasli"},"canton":{"key":"2","code":"BE","name":"Bern / Berne"},"status":"Real"},{"key":"10074791","name":"Kupfergasse","postalCode":"3812","locality":"Wilderswil","commune":{"key":"594","name":"Wilderswil","shortName":"Wilderswil"},"district":{"key":"250","name":"Verwaltungskreis Interlaken-Oberhasli"},"canton":{"key":"2","code":"BE","name":"Bern / Berne"},"status":"Real"},{"key":"10102710","name":"Lehngasse","postalCode":"3812","locality":"Wilderswil","commune":{"key":"594","name":"Wilderswil","shortName":"Wilderswil"},"district":{"key":"250","name":"Verwaltungskreis Interlaken-Oberhasli"},"canton":{"key":"2","code":"BE","name":"Bern / Berne"},"status":"Real"},{"key":"10193374","name":"Lochmad","postalCode":"3812","locality":"Wilderswil","commune":{"key":"594","name":"Wilderswil","shortName":"Wilderswil"},"district":{"key":"250","name":"Verwaltungskreis Interlaken-Oberhasli"},"canton":{"key":"2","code":"BE","name":"Bern / Berne"},"status":"Real"},{"key":"10201569","name":"Lybueche","postalCode":"3812","locality":"Wilderswil","commune":{"key":"594","name":"Wilderswil","shortName":"Wilderswil"},"district":{"key":"250","name":"Verwaltungskreis Interlaken-Oberhasli"},"canton":{"key":"2","code":"BE","name":"Bern / Berne"},"status":"Real"},{"key":"10216661","name":"Mattenweg","postalCode":"3812","locality":"Wilderswil","commune":{"key":"594","name":"Wilderswil","shortName":"Wilderswil"},"district":{"key":"250","name":"Verwaltungskreis Interlaken-Oberhasli"},"canton":{"key":"2","code":"BE","name":"Bern / Berne"},"status":"Real"},{"key":"10061912","name":"Mittelweg","postalCode":"3812","locality":"Wilderswil","commune":{"key":"594","name":"Wilderswil","shortName":"Wilderswil"},"district":{"key":"250","name":"Verwaltungskreis Interlaken-Oberhasli"},"canton":{"key":"2","code":"BE","name":"Bern / Berne"},"status":"Real"},{"key":"10006480","name":"Mühlenenfeldweg","postalCode":"3812","locality":"Wilderswil","commune":{"key":"594","name":"Wilderswil","shortName":"Wilderswil"},"district":{"key":"250","name":"Verwaltungskreis Interlaken-Oberhasli"},"canton":{"key":"2","code":"BE","name":"Bern / Berne"},"status":"Real"},{"key":"10178351","name":"Mühlenenstrasse","postalCode":"3812","locality":"Wilderswil","commune":{"key":"594","name":"Wilderswil","shortName":"Wilderswil"},"district":{"key":"250","name":"Verwaltungskreis Interlaken-Oberhasli"},"canton":{"key":"2","code":"BE","name":"Bern / Berne"},"status":"Real"},{"key":"10216665","name":"Nüwi Matta","postalCode":"3812","locality":"Wilderswil","commune":{"key":"594","name":"Wilderswil","shortName":"Wilderswil"},"district":{"key":"250","name":"Verwaltungskreis Interlaken-Oberhasli"},"canton":{"key":"2","code":"BE","name":"Bern / Berne"},"status":"Real"},{"key":"10216669","name":"Oberacher","postalCode":"3812","locality":"Wilderswil","commune":{"key":"594","name":"Wilderswil","shortName":"Wilderswil"},"district":{"key":"250","name":"Verwaltungskreis Interlaken-Oberhasli"},"canton":{"key":"2","code":"BE","name":"Bern / Berne"},"status":"Real"},{"key":"10216674","name":"Oberdorf","postalCode":"3812","locality":"Wilderswil","commune":{"key":"594","name":"Wilderswil","shortName":"Wilderswil"},"district":{"key":"250","name":"Verwaltungskreis Interlaken-Oberhasli"},"canton":{"key":"2","code":"BE","name":"Bern / Berne"},"status":"Real"},{"key":"10112639","name":"Oberdorfstrasse","postalCode":"3812","locality":"Wilderswil","commune":{"key":"594","name":"Wilderswil","shortName":"Wilderswil"},"district":{"key":"250","name":"Verwaltungskreis Interlaken-Oberhasli"},"canton":{"key":"2","code":"BE","name":"Bern / Berne"},"status":"Real"},{"key":"10074792","name":"Oberdorfweg","postalCode":"3812","locality":"Wilderswil","commune":{"key":"594","name":"Wilderswil","shortName":"Wilderswil"},"district":{"key":"250","name":"Verwaltungskreis Interlaken-Oberhasli"},"canton":{"key":"2","code":"BE","name":"Bern / Berne"},"status":"Real"},{"key":"10059389","name":"Obereigasse","postalCode":"3812","locality":"Wilderswil","commune":{"key":"594","name":"Wilderswil","shortName":"Wilderswil"},"district":{"key":"250","name":"Verwaltungskreis Interlaken-Oberhasli"},"canton":{"key":"2","code":"BE","name":"Bern / Berne"},"status":"Real"},{"key":"10139761","name":"Obereiweg","postalCode":"3812","locality":"Wilderswil","commune":{"key":"594","name":"Wilderswil","shortName":"Wilderswil"},"district":{"key":"250","name":"Verwaltungskreis Interlaken-Oberhasli"},"canton":{"key":"2","code":"BE","name":"Bern / Berne"},"status":"Real"},{"key":"10216678","name":"Obere Lenge Streich","postalCode":"3812","locality":"Wilderswil","commune":{"key":"594","name":"Wilderswil","shortName":"Wilderswil"},"district":{"key":"250","name":"Verwaltungskreis Interlaken-Oberhasli"},"canton":{"key":"2","code":"BE","name":"Bern / Berne"},"status":"Real"},{"key":"10216681","name":"Oberi Bigla","postalCode":"3812","locality":"Wilderswil","commune":{"key":"594","name":"Wilderswil","shortName":"Wilderswil"},"district":{"key":"250","name":"Verwaltungskreis Interlaken-Oberhasli"},"canton":{"key":"2","code":"BE","name":"Bern / Berne"},"status":"Real"},{"key":"10196796","name":"Oberi Farnera","postalCode":"3812","locality":"Wilderswil","commune":{"key":"594","name":"Wilderswil","shortName":"Wilderswil"},"district":{"key":"250","name":"Verwaltungskreis Interlaken-Oberhasli"},"canton":{"key":"2","code":"BE","name":"Bern / Berne"},"status":"Real"},{"key":"10216684","name":"Oberi Halta","postalCode":"3812","locality":"Wilderswil","commune":{"key":"594","name":"Wilderswil","shortName":"Wilderswil"},"district":{"key":"250","name":"Verwaltungskreis Interlaken-Oberhasli"},"canton":{"key":"2","code":"BE","name":"Bern / Berne"},"status":"Real"},{"key":"10201570","name":"Obers Ried","postalCode":"3812","locality":"Wilderswil","commune":{"key":"594","name":"Wilderswil","shortName":"Wilderswil"},"district":{"key":"250","name":"Verwaltungskreis Interlaken-Oberhasli"},"canton":{"key":"2","code":"BE","name":"Bern / Berne"},"status":"Real"},{"key":"10202903","name":"Ofni","postalCode":"3812","locality":"Wilderswil","commune":{"key":"594","name":"Wilderswil","shortName":"Wilderswil"},"district":{"key":"250","name":"Verwaltungskreis Interlaken-Oberhasli"},"canton":{"key":"2","code":"BE","name":"Bern / Berne"},"status":"Real"},{"key":"10152977","name":"Plöschiweg","postalCode":"3812","locality":"Wilderswil","commune":{"key":"594","name":"Wilderswil","shortName":"Wilderswil"},"district":{"key":"250","name":"Verwaltungskreis Interlaken-Oberhasli"},"canton":{"key":"2","code":"BE","name":"Bern / Berne"},"status":"Real"},{"key":"10201280","name":"Roggera","postalCode":"3812","locality":"Wilderswil","commune":{"key":"594","name":"Wilderswil","shortName":"Wilderswil"},"district":{"key":"250","name":"Verwaltungskreis Interlaken-Oberhasli"},"canton":{"key":"2","code":"BE","name":"Bern / Berne"},"status":"Real"},{"key":"10006482","name":"Rosshag","postalCode":"3812","locality":"Wilderswil","commune":{"key":"594","name":"Wilderswil","shortName":"Wilderswil"},"district":{"key":"250","name":"Verwaltungskreis Interlaken-Oberhasli"},"canton":{"key":"2","code":"BE","name":"Bern / Berne"},"status":"Real"},{"key":"10216690","name":"Rosshagweg","postalCode":"3812","locality":"Wilderswil","commune":{"key":"594","name":"Wilderswil","shortName":"Wilderswil"},"district":{"key":"250","name":"Verwaltungskreis Interlaken-Oberhasli"},"canton":{"key":"2","code":"BE","name":"Bern / Berne"},"status":"Real"},{"key":"10193800","name":"Roteflue","postalCode":"3812","locality":"Wilderswil","commune":{"key":"594","name":"Wilderswil","shortName":"Wilderswil"},"district":{"key":"250","name":"Verwaltungskreis Interlaken-Oberhasli"},"canton":{"key":"2","code":"BE","name":"Bern / Berne"},"status":"Real"},{"key":"10216694","name":"Rotweidli","postalCode":"3812","locality":"Wilderswil","commune":{"key":"594","name":"Wilderswil","shortName":"Wilderswil"},"district":{"key":"250","name":"Verwaltungskreis Interlaken-Oberhasli"},"canton":{"key":"2","code":"BE","name":"Bern / Berne"},"status":"Real"},{"key":"10050778","name":"Rugenstrasse","postalCode":"3812","locality":"Wilderswil","commune":{"key":"594","name":"Wilderswil","shortName":"Wilderswil"},"district":{"key":"250","name":"Verwaltungskreis Interlaken-Oberhasli"},"canton":{"key":"2","code":"BE","name":"Bern / Berne"},"status":"Real"},{"key":"10216698","name":"Ruine","postalCode":"3812","locality":"Wilderswil","commune":{"key":"594","name":"Wilderswil","shortName":"Wilderswil"},"district":{"key":"250","name":"Verwaltungskreis Interlaken-Oberhasli"},"canton":{"key":"2","code":"BE","name":"Bern / Berne"},"status":"Real"},{"key":"10216701","name":"Rüti","postalCode":"3812","locality":"Wilderswil","commune":{"key":"594","name":"Wilderswil","shortName":"Wilderswil"},"district":{"key":"250","name":"Verwaltungskreis Interlaken-Oberhasli"},"canton":{"key":"2","code":"BE","name":"Bern / Berne"},"status":"Real"},{"key":"10152978","name":"Sandweg","postalCode":"3812","locality":"Wilderswil","commune":{"key":"594","name":"Wilderswil","shortName":"Wilderswil"},"district":{"key":"250","name":"Verwaltungskreis Interlaken-Oberhasli"},"canton":{"key":"2","code":"BE","name":"Bern / Berne"},"status":"Real"},{"key":"10074793","name":"Saxetbachweg","postalCode":"3812","locality":"Wilderswil","commune":{"key":"594","name":"Wilderswil","shortName":"Wilderswil"},"district":{"key":"250","name":"Verwaltungskreis Interlaken-Oberhasli"},"canton":{"key":"2","code":"BE","name":"Bern / Berne"},"status":"Real"},{"key":"10143639","name":"Saxetenstrasse","postalCode":"3812","locality":"Wilderswil","commune":{"key":"594","name":"Wilderswil","shortName":"Wilderswil"},"district":{"key":"250","name":"Verwaltungskreis Interlaken-Oberhasli"},"canton":{"key":"2","code":"BE","name":"Bern / Berne"},"status":"Real"},{"key":"10059391","name":"Scheurenweg","postalCode":"3812","locality":"Wilderswil","commune":{"key":"594","name":"Wilderswil","shortName":"Wilderswil"},"district":{"key":"250","name":"Verwaltungskreis Interlaken-Oberhasli"},"canton":{"key":"2","code":"BE","name":"Bern / Berne"},"status":"Real"},{"key":"10216707","name":"Schmidmatta","postalCode":"3812","locality":"Wilderswil","commune":{"key":"594","name":"Wilderswil","shortName":"Wilderswil"},"district":{"key":"250","name":"Verwaltungskreis Interlaken-Oberhasli"},"canton":{"key":"2","code":"BE","name":"Bern / Berne"},"status":"Real"},{"key":"10050779","name":"Schulgässli","postalCode":"3812","locality":"Wilderswil","commune":{"key":"594","name":"Wilderswil","shortName":"Wilderswil"},"district":{"key":"250","name":"Verwaltungskreis Interlaken-Oberhasli"},"canton":{"key":"2","code":"BE","name":"Bern / Berne"},"status":"Real"},{"key":"10074794","name":"Schwande","postalCode":"3812","locality":"Wilderswil","commune":{"key":"594","name":"Wilderswil","shortName":"Wilderswil"},"district":{"key":"250","name":"Verwaltungskreis Interlaken-Oberhasli"},"canton":{"key":"2","code":"BE","name":"Bern / Berne"},"status":"Real"},{"key":"10198380","name":"Schwendi","postalCode":"3812","locality":"Wilderswil","commune":{"key":"594","name":"Wilderswil","shortName":"Wilderswil"},"district":{"key":"250","name":"Verwaltungskreis Interlaken-Oberhasli"},"canton":{"key":"2","code":"BE","name":"Bern / Berne"},"status":"Real"},{"key":"10216711","name":"Schybeschlagwald","postalCode":"3812","locality":"Wilderswil","commune":{"key":"594","name":"Wilderswil","shortName":"Wilderswil"},"district":{"key":"250","name":"Verwaltungskreis Interlaken-Oberhasli"},"canton":{"key":"2","code":"BE","name":"Bern / Berne"},"status":"Real"},{"key":"10158427","name":"Schynige Platte","postalCode":"3812","locality":"Wilderswil","commune":{"key":"594","name":"Wilderswil","shortName":"Wilderswil"},"district":{"key":"250","name":"Verwaltungskreis Interlaken-Oberhasli"},"canton":{"key":"2","code":"BE","name":"Bern / Berne"},"status":"Real"},{"key":"10006484","name":"Steiniweg","postalCode":"3812","locality":"Wilderswil","commune":{"key":"594","name":"Wilderswil","shortName":"Wilderswil"},"district":{"key":"250","name":"Verwaltungskreis Interlaken-Oberhasli"},"canton":{"key":"2","code":"BE","name":"Bern / Berne"},"status":"Real"},{"key":"10124621","name":"Stockacherweg","postalCode":"3812","locality":"Wilderswil","commune":{"key":"594","name":"Wilderswil","shortName":"Wilderswil"},"district":{"key":"250","name":"Verwaltungskreis Interlaken-Oberhasli"},"canton":{"key":"2","code":"BE","name":"Bern / Berne"},"status":"Real"},{"key":"10074795","name":"Sydachstrasse","postalCode":"3812","locality":"Wilderswil","commune":{"key":"594","name":"Wilderswil","shortName":"Wilderswil"},"district":{"key":"250","name":"Verwaltungskreis Interlaken-Oberhasli"},"canton":{"key":"2","code":"BE","name":"Bern / Berne"},"status":"Real"},{"key":"10110014","name":"Sydachweg","postalCode":"3812","locality":"Wilderswil","commune":{"key":"594","name":"Wilderswil","shortName":"Wilderswil"},"district":{"key":"250","name":"Verwaltungskreis Interlaken-Oberhasli"},"canton":{"key":"2","code":"BE","name":"Bern / Berne"},"status":"Real"},{"key":"10216715","name":"Sylera","postalCode":"3812","locality":"Wilderswil","commune":{"key":"594","name":"Wilderswil","shortName":"Wilderswil"},"district":{"key":"250","name":"Verwaltungskreis Interlaken-Oberhasli"},"canton":{"key":"2","code":"BE","name":"Bern / Berne"},"status":"Real"},{"key":"10216719","name":"Sytiwald","postalCode":"3812","locality":"Wilderswil","commune":{"key":"594","name":"Wilderswil","shortName":"Wilderswil"},"district":{"key":"250","name":"Verwaltungskreis Interlaken-Oberhasli"},"canton":{"key":"2","code":"BE","name":"Bern / Berne"},"status":"Real"},{"key":"10196914","name":"Sytiweidleni","postalCode":"3812","locality":"Wilderswil","commune":{"key":"594","name":"Wilderswil","shortName":"Wilderswil"},"district":{"key":"250","name":"Verwaltungskreis Interlaken-Oberhasli"},"canton":{"key":"2","code":"BE","name":"Bern / Berne"},"status":"Real"},{"key":"10116918","name":"Talweg","postalCode":"3812","locality":"Wilderswil","commune":{"key":"594","name":"Wilderswil","shortName":"Wilderswil"},"district":{"key":"250","name":"Verwaltungskreis Interlaken-Oberhasli"},"canton":{"key":"2","code":"BE","name":"Bern / Berne"},"status":"Real"},{"key":"10216723","name":"Tschingelegge","postalCode":"3812","locality":"Wilderswil","commune":{"key":"594","name":"Wilderswil","shortName":"Wilderswil"},"district":{"key":"250","name":"Verwaltungskreis Interlaken-Oberhasli"},"canton":{"key":"2","code":"BE","name":"Bern / Berne"},"status":"Real"},{"key":"10193375","name":"Uf Egg","postalCode":"3812","locality":"Wilderswil","commune":{"key":"594","name":"Wilderswil","shortName":"Wilderswil"},"district":{"key":"250","name":"Verwaltungskreis Interlaken-Oberhasli"},"canton":{"key":"2","code":"BE","name":"Bern / Berne"},"status":"Real"},{"key":"10216725","name":"Underi Bigla","postalCode":"3812","locality":"Wilderswil","commune":{"key":"594","name":"Wilderswil","shortName":"Wilderswil"},"district":{"key":"250","name":"Verwaltungskreis Interlaken-Oberhasli"},"canton":{"key":"2","code":"BE","name":"Bern / Berne"},"status":"Real"},{"key":"10201281","name":"Underi Farnera","postalCode":"3812","locality":"Wilderswil","commune":{"key":"594","name":"Wilderswil","shortName":"Wilderswil"},"district":{"key":"250","name":"Verwaltungskreis Interlaken-Oberhasli"},"canton":{"key":"2","code":"BE","name":"Bern / Berne"},"status":"Real"},{"key":"10197037","name":"Unders Ried","postalCode":"3812","locality":"Wilderswil","commune":{"key":"594","name":"Wilderswil","shortName":"Wilderswil"},"district":{"key":"250","name":"Verwaltungskreis Interlaken-Oberhasli"},"canton":{"key":"2","code":"BE","name":"Bern / Berne"},"status":"Real"},{"key":"10160994","name":"Unionsgasse","postalCode":"3812","locality":"Wilderswil","commune":{"key":"594","name":"Wilderswil","shortName":"Wilderswil"},"district":{"key":"250","name":"Verwaltungskreis Interlaken-Oberhasli"},"canton":{"key":"2","code":"BE","name":"Bern / Berne"},"status":"Real"},{"key":"10112640","name":"Unspunnenstrasse","postalCode":"3812","locality":"Wilderswil","commune":{"key":"594","name":"Wilderswil","shortName":"Wilderswil"},"district":{"key":"250","name":"Verwaltungskreis Interlaken-Oberhasli"},"canton":{"key":"2","code":"BE","name":"Bern / Berne"},"status":"Real"},{"key":"10128191","name":"Unter der Fuhre","postalCode":"3812","locality":"Wilderswil","commune":{"key":"594","name":"Wilderswil","shortName":"Wilderswil"},"district":{"key":"250","name":"Verwaltungskreis Interlaken-Oberhasli"},"canton":{"key":"2","code":"BE","name":"Bern / Berne"},"status":"Real"},{"key":"10128190","name":"Unterdorfweg","postalCode":"3812","locality":"Wilderswil","commune":{"key":"594","name":"Wilderswil","shortName":"Wilderswil"},"district":{"key":"250","name":"Verwaltungskreis Interlaken-Oberhasli"},"canton":{"key":"2","code":"BE","name":"Bern / Berne"},"status":"Real"},{"key":"10160955","name":"Untere Lenge Streich","postalCode":"3812","locality":"Wilderswil","commune":{"key":"594","name":"Wilderswil","shortName":"Wilderswil"},"district":{"key":"250","name":"Verwaltungskreis Interlaken-Oberhasli"},"canton":{"key":"2","code":"BE","name":"Bern / Berne"},"status":"Real"},{"key":"10112350","name":"Wengelacher","postalCode":"3812","locality":"Wilderswil","commune":{"key":"594","name":"Wilderswil","shortName":"Wilderswil"},"district":{"key":"250","name":"Verwaltungskreis Interlaken-Oberhasli"},"canton":{"key":"2","code":"BE","name":"Bern / Berne"},"status":"Real"},{"key":"10006485","name":"Wengelacherweg","postalCode":"3812","locality":"Wilderswil","commune":{"key":"594","name":"Wilderswil","shortName":"Wilderswil"},"district":{"key":"250","name":"Verwaltungskreis Interlaken-Oberhasli"},"canton":{"key":"2","code":"BE","name":"Bern / Berne"},"status":"Real"},{"key":"10160957","name":"Wydigässli","postalCode":"3812","locality":"Wilderswil","commune":{"key":"594","name":"Wilderswil","shortName":"Wilderswil"},"district":{"key":"250","name":"Verwaltungskreis Interlaken-Oberhasli"},"canton":{"key":"2","code":"BE","name":"Bern / Berne"},"status":"Real"},{"key":"10180613","name":"Wydistrasse","postalCode":"3812","locality":"Wilderswil","commune":{"key":"594","name":"Wilderswil","shortName":"Wilderswil"},"district":{"key":"250","name":"Verwaltungskreis Interlaken-Oberhasli"},"canton":{"key":"2","code":"BE","name":"Bern / Berne"},"status":"Real"},{"key":"10197801","name":"Zügegg","postalCode":"3812","locality":"Wilderswil","commune":{"key":"594","name":"Wilderswil","shortName":"Wilderswil"},"district":{"key":"250","name":"Verwaltungskreis Interlaken-Oberhasli"},"canton":{"key":"2","code":"BE","name":"Bern / Berne"},"status":"Real"},]