[{"name":"Bundesstr.","postalCode":"21524","locality":"Brunstorf","municipality":{"key":"01053017","name":"Brunstorf","type":"Kreisangehörige_Gemeinde"},"district":{"key":"01053","name":"Herzogtum Lauenburg","type":"Kreis"},"federalState":{"key":"01","name":"Schleswig-Holstein"}},{"name":"Dorfstr.","postalCode":"21524","locality":"Brunstorf","municipality":{"key":"01053017","name":"Brunstorf","type":"Kreisangehörige_Gemeinde"},"district":{"key":"01053","name":"Herzogtum Lauenburg","type":"Kreis"},"federalState":{"key":"01","name":"Schleswig-Holstein"}},{"name":"Feldstr.","postalCode":"21524","locality":"Brunstorf","municipality":{"key":"01053017","name":"Brunstorf","type":"Kreisangehörige_Gemeinde"},"district":{"key":"01053","name":"Herzogtum Lauenburg","type":"Kreis"},"federalState":{"key":"01","name":"Schleswig-Holstein"}},{"name":"Forsthof","postalCode":"21524","locality":"Brunstorf","municipality":{"key":"01053017","name":"Brunstorf","type":"Kreisangehörige_Gemeinde"},"district":{"key":"01053","name":"Herzogtum Lauenburg","type":"Kreis"},"federalState":{"key":"01","name":"Schleswig-Holstein"}},{"name":"Im Winkel","postalCode":"21524","locality":"Brunstorf","municipality":{"key":"01053017","name":"Brunstorf","type":"Kreisangehörige_Gemeinde"},"district":{"key":"01053","name":"Herzogtum Lauenburg","type":"Kreis"},"federalState":{"key":"01","name":"Schleswig-Holstein"}},{"name":"Kirchweg","postalCode":"21524","locality":"Brunstorf","municipality":{"key":"01053017","name":"Brunstorf","type":"Kreisangehörige_Gemeinde"},"district":{"key":"01053","name":"Herzogtum Lauenburg","type":"Kreis"},"federalState":{"key":"01","name":"Schleswig-Holstein"}},{"name":"Königsallee","postalCode":"21524","locality":"Brunstorf","municipality":{"key":"01053017","name":"Brunstorf","type":"Kreisangehörige_Gemeinde"},"district":{"key":"01053","name":"Herzogtum Lauenburg","type":"Kreis"},"federalState":{"key":"01","name":"Schleswig-Holstein"}},{"name":"Lindenstr.","postalCode":"21524","locality":"Brunstorf","municipality":{"key":"01053017","name":"Brunstorf","type":"Kreisangehörige_Gemeinde"},"district":{"key":"01053","name":"Herzogtum Lauenburg","type":"Kreis"},"federalState":{"key":"01","name":"Schleswig-Holstein"}},{"name":"Mühlenblöcken","postalCode":"21524","locality":"Brunstorf","municipality":{"key":"01053017","name":"Brunstorf","type":"Kreisangehörige_Gemeinde"},"district":{"key":"01053","name":"Herzogtum Lauenburg","type":"Kreis"},"federalState":{"key":"01","name":"Schleswig-Holstein"}},{"name":"Schulweg","postalCode":"21524","locality":"Brunstorf","municipality":{"key":"01053017","name":"Brunstorf","type":"Kreisangehörige_Gemeinde"},"district":{"key":"01053","name":"Herzogtum Lauenburg","type":"Kreis"},"federalState":{"key":"01","name":"Schleswig-Holstein"}},{"name":"Steinkamp","postalCode":"21524","locality":"Brunstorf","municipality":{"key":"01053017","name":"Brunstorf","type":"Kreisangehörige_Gemeinde"},"district":{"key":"01053","name":"Herzogtum Lauenburg","type":"Kreis"},"federalState":{"key":"01","name":"Schleswig-Holstein"}},{"name":"Totenweg","postalCode":"21524","locality":"Brunstorf","municipality":{"key":"01053017","name":"Brunstorf","type":"Kreisangehörige_Gemeinde"},"district":{"key":"01053","name":"Herzogtum Lauenburg","type":"Kreis"},"federalState":{"key":"01","name":"Schleswig-Holstein"}},{"name":"Waldgräfenstr.","postalCode":"21524","locality":"Brunstorf","municipality":{"key":"01053017","name":"Brunstorf","type":"Kreisangehörige_Gemeinde"},"district":{"key":"01053","name":"Herzogtum Lauenburg","type":"Kreis"},"federalState":{"key":"01","name":"Schleswig-Holstein"}},{"name":"Waldstr.","postalCode":"21524","locality":"Brunstorf","municipality":{"key":"01053017","name":"Brunstorf","type":"Kreisangehörige_Gemeinde"},"district":{"key":"01053","name":"Herzogtum Lauenburg","type":"Kreis"},"federalState":{"key":"01","name":"Schleswig-Holstein"}},{"name":"Wiesenweg","postalCode":"21524","locality":"Brunstorf","municipality":{"key":"01053017","name":"Brunstorf","type":"Kreisangehörige_Gemeinde"},"district":{"key":"01053","name":"Herzogtum Lauenburg","type":"Kreis"},"federalState":{"key":"01","name":"Schleswig-Holstein"}},]