[{"name":"Aichstetter Str.","postalCode":"87763","locality":"Lautrach","municipality":{"key":"09778164","name":"Lautrach","type":"Kreisangehörige_Gemeinde"},"district":{"key":"09778","name":"Unterallgäu","type":"Landkreis"},"federalState":{"key":"09","name":"Bayern"}},{"name":"Allgäustr.","postalCode":"87763","locality":"Lautrach","municipality":{"key":"09778164","name":"Lautrach","type":"Kreisangehörige_Gemeinde"},"district":{"key":"09778","name":"Unterallgäu","type":"Landkreis"},"federalState":{"key":"09","name":"Bayern"}},{"name":"Alpenweg","postalCode":"87763","locality":"Lautrach","municipality":{"key":"09778164","name":"Lautrach","type":"Kreisangehörige_Gemeinde"},"district":{"key":"09778","name":"Unterallgäu","type":"Landkreis"},"federalState":{"key":"09","name":"Bayern"}},{"name":"Alte Mühlsteige","postalCode":"87763","locality":"Lautrach","municipality":{"key":"09778164","name":"Lautrach","type":"Kreisangehörige_Gemeinde"},"district":{"key":"09778","name":"Unterallgäu","type":"Landkreis"},"federalState":{"key":"09","name":"Bayern"}},{"name":"Am Stausee","postalCode":"87763","locality":"Lautrach","municipality":{"key":"09778164","name":"Lautrach","type":"Kreisangehörige_Gemeinde"},"district":{"key":"09778","name":"Unterallgäu","type":"Landkreis"},"federalState":{"key":"09","name":"Bayern"}},{"name":"Bergstr.","postalCode":"87763","locality":"Lautrach","municipality":{"key":"09778164","name":"Lautrach","type":"Kreisangehörige_Gemeinde"},"district":{"key":"09778","name":"Unterallgäu","type":"Landkreis"},"federalState":{"key":"09","name":"Bayern"}},{"name":"Burggäßle","postalCode":"87763","locality":"Lautrach","municipality":{"key":"09778164","name":"Lautrach","type":"Kreisangehörige_Gemeinde"},"district":{"key":"09778","name":"Unterallgäu","type":"Landkreis"},"federalState":{"key":"09","name":"Bayern"}},{"name":"Deybachstr.","postalCode":"87763","locality":"Lautrach","municipality":{"key":"09778164","name":"Lautrach","type":"Kreisangehörige_Gemeinde"},"district":{"key":"09778","name":"Unterallgäu","type":"Landkreis"},"federalState":{"key":"09","name":"Bayern"}},{"name":"Dilpersrieder Str.","postalCode":"87763","locality":"Lautrach","municipality":{"key":"09778164","name":"Lautrach","type":"Kreisangehörige_Gemeinde"},"district":{"key":"09778","name":"Unterallgäu","type":"Landkreis"},"federalState":{"key":"09","name":"Bayern"}},{"name":"Dr.-Anschütz-Str.","postalCode":"87763","locality":"Lautrach","municipality":{"key":"09778164","name":"Lautrach","type":"Kreisangehörige_Gemeinde"},"district":{"key":"09778","name":"Unterallgäu","type":"Landkreis"},"federalState":{"key":"09","name":"Bayern"}},{"name":"Einsteinstr.","postalCode":"87763","locality":"Lautrach","municipality":{"key":"09778164","name":"Lautrach","type":"Kreisangehörige_Gemeinde"},"district":{"key":"09778","name":"Unterallgäu","type":"Landkreis"},"federalState":{"key":"09","name":"Bayern"}},{"name":"Fellhornstr.","postalCode":"87763","locality":"Lautrach","municipality":{"key":"09778164","name":"Lautrach","type":"Kreisangehörige_Gemeinde"},"district":{"key":"09778","name":"Unterallgäu","type":"Landkreis"},"federalState":{"key":"09","name":"Bayern"}},{"name":"Gaishornweg","postalCode":"87763","locality":"Lautrach","municipality":{"key":"09778164","name":"Lautrach","type":"Kreisangehörige_Gemeinde"},"district":{"key":"09778","name":"Unterallgäu","type":"Landkreis"},"federalState":{"key":"09","name":"Bayern"}},{"name":"Grüntenstr.","postalCode":"87763","locality":"Lautrach","municipality":{"key":"09778164","name":"Lautrach","type":"Kreisangehörige_Gemeinde"},"district":{"key":"09778","name":"Unterallgäu","type":"Landkreis"},"federalState":{"key":"09","name":"Bayern"}},{"name":"Hochgratstr.","postalCode":"87763","locality":"Lautrach","municipality":{"key":"09778164","name":"Lautrach","type":"Kreisangehörige_Gemeinde"},"district":{"key":"09778","name":"Unterallgäu","type":"Landkreis"},"federalState":{"key":"09","name":"Bayern"}},{"name":"Höfatsstr.","postalCode":"87763","locality":"Lautrach","municipality":{"key":"09778164","name":"Lautrach","type":"Kreisangehörige_Gemeinde"},"district":{"key":"09778","name":"Unterallgäu","type":"Landkreis"},"federalState":{"key":"09","name":"Bayern"}},{"name":"Illermühle","postalCode":"87763","locality":"Lautrach","municipality":{"key":"09778164","name":"Lautrach","type":"Kreisangehörige_Gemeinde"},"district":{"key":"09778","name":"Unterallgäu","type":"Landkreis"},"federalState":{"key":"09","name":"Bayern"}},{"name":"Illerstr.","postalCode":"87763","locality":"Lautrach","municipality":{"key":"09778164","name":"Lautrach","type":"Kreisangehörige_Gemeinde"},"district":{"key":"09778","name":"Unterallgäu","type":"Landkreis"},"federalState":{"key":"09","name":"Bayern"}},{"name":"Kapellenweg","postalCode":"87763","locality":"Lautrach","municipality":{"key":"09778164","name":"Lautrach","type":"Kreisangehörige_Gemeinde"},"district":{"key":"09778","name":"Unterallgäu","type":"Landkreis"},"federalState":{"key":"09","name":"Bayern"}},{"name":"Kirchtalstr.","postalCode":"87763","locality":"Lautrach","municipality":{"key":"09778164","name":"Lautrach","type":"Kreisangehörige_Gemeinde"},"district":{"key":"09778","name":"Unterallgäu","type":"Landkreis"},"federalState":{"key":"09","name":"Bayern"}},{"name":"Legauer Str.","postalCode":"87763","locality":"Lautrach","municipality":{"key":"09778164","name":"Lautrach","type":"Kreisangehörige_Gemeinde"},"district":{"key":"09778","name":"Unterallgäu","type":"Landkreis"},"federalState":{"key":"09","name":"Bayern"}},{"name":"Memminger Str.","postalCode":"87763","locality":"Lautrach","municipality":{"key":"09778164","name":"Lautrach","type":"Kreisangehörige_Gemeinde"},"district":{"key":"09778","name":"Unterallgäu","type":"Landkreis"},"federalState":{"key":"09","name":"Bayern"}},{"name":"Mückental","postalCode":"87763","locality":"Lautrach","municipality":{"key":"09778164","name":"Lautrach","type":"Kreisangehörige_Gemeinde"},"district":{"key":"09778","name":"Unterallgäu","type":"Landkreis"},"federalState":{"key":"09","name":"Bayern"}},{"name":"Nebelhornstr.","postalCode":"87763","locality":"Lautrach","municipality":{"key":"09778164","name":"Lautrach","type":"Kreisangehörige_Gemeinde"},"district":{"key":"09778","name":"Unterallgäu","type":"Landkreis"},"federalState":{"key":"09","name":"Bayern"}},{"name":"Poststr.","postalCode":"87763","locality":"Lautrach","municipality":{"key":"09778164","name":"Lautrach","type":"Kreisangehörige_Gemeinde"},"district":{"key":"09778","name":"Unterallgäu","type":"Landkreis"},"federalState":{"key":"09","name":"Bayern"}},{"name":"Ringweg","postalCode":"87763","locality":"Lautrach","municipality":{"key":"09778164","name":"Lautrach","type":"Kreisangehörige_Gemeinde"},"district":{"key":"09778","name":"Unterallgäu","type":"Landkreis"},"federalState":{"key":"09","name":"Bayern"}},{"name":"Rosenstr.","postalCode":"87763","locality":"Lautrach","municipality":{"key":"09778164","name":"Lautrach","type":"Kreisangehörige_Gemeinde"},"district":{"key":"09778","name":"Unterallgäu","type":"Landkreis"},"federalState":{"key":"09","name":"Bayern"}},{"name":"Sandtnerstr.","postalCode":"87763","locality":"Lautrach","municipality":{"key":"09778164","name":"Lautrach","type":"Kreisangehörige_Gemeinde"},"district":{"key":"09778","name":"Unterallgäu","type":"Landkreis"},"federalState":{"key":"09","name":"Bayern"}},{"name":"Schloßstr.","postalCode":"87763","locality":"Lautrach","municipality":{"key":"09778164","name":"Lautrach","type":"Kreisangehörige_Gemeinde"},"district":{"key":"09778","name":"Unterallgäu","type":"Landkreis"},"federalState":{"key":"09","name":"Bayern"}},{"name":"Tulpenstr.","postalCode":"87763","locality":"Lautrach","municipality":{"key":"09778164","name":"Lautrach","type":"Kreisangehörige_Gemeinde"},"district":{"key":"09778","name":"Unterallgäu","type":"Landkreis"},"federalState":{"key":"09","name":"Bayern"}},{"name":"Zugspitzweg","postalCode":"87763","locality":"Lautrach","municipality":{"key":"09778164","name":"Lautrach","type":"Kreisangehörige_Gemeinde"},"district":{"key":"09778","name":"Unterallgäu","type":"Landkreis"},"federalState":{"key":"09","name":"Bayern"}},]