[{"name":"Ackerstr.","postalCode":"56294","locality":"Gappenach","municipality":{"key":"07137027","name":"Gappenach","type":"Kreisangehörige_Gemeinde"},"district":{"key":"07137","name":"Mayen-Koblenz","type":"Landkreis"},"federalState":{"key":"07","name":"Rheinland-Pfalz"}},{"name":"Am Heiligenhäuschen","postalCode":"56294","locality":"Gappenach","municipality":{"key":"07137027","name":"Gappenach","type":"Kreisangehörige_Gemeinde"},"district":{"key":"07137","name":"Mayen-Koblenz","type":"Landkreis"},"federalState":{"key":"07","name":"Rheinland-Pfalz"}},{"name":"Burweg","postalCode":"56294","locality":"Gappenach","municipality":{"key":"07137027","name":"Gappenach","type":"Kreisangehörige_Gemeinde"},"district":{"key":"07137","name":"Mayen-Koblenz","type":"Landkreis"},"federalState":{"key":"07","name":"Rheinland-Pfalz"}},{"name":"Gartenstr.","postalCode":"56294","locality":"Gappenach","municipality":{"key":"07137027","name":"Gappenach","type":"Kreisangehörige_Gemeinde"},"district":{"key":"07137","name":"Mayen-Koblenz","type":"Landkreis"},"federalState":{"key":"07","name":"Rheinland-Pfalz"}},{"name":"Geismühle","postalCode":"56294","locality":"Gappenach","municipality":{"key":"07137027","name":"Gappenach","type":"Kreisangehörige_Gemeinde"},"district":{"key":"07137","name":"Mayen-Koblenz","type":"Landkreis"},"federalState":{"key":"07","name":"Rheinland-Pfalz"}},{"name":"Hauptstr.","postalCode":"56294","locality":"Gappenach","municipality":{"key":"07137027","name":"Gappenach","type":"Kreisangehörige_Gemeinde"},"district":{"key":"07137","name":"Mayen-Koblenz","type":"Landkreis"},"federalState":{"key":"07","name":"Rheinland-Pfalz"}},{"name":"Kirchweg","postalCode":"56294","locality":"Gappenach","municipality":{"key":"07137027","name":"Gappenach","type":"Kreisangehörige_Gemeinde"},"district":{"key":"07137","name":"Mayen-Koblenz","type":"Landkreis"},"federalState":{"key":"07","name":"Rheinland-Pfalz"}},{"name":"Kolpingstr.","postalCode":"56294","locality":"Gappenach","municipality":{"key":"07137027","name":"Gappenach","type":"Kreisangehörige_Gemeinde"},"district":{"key":"07137","name":"Mayen-Koblenz","type":"Landkreis"},"federalState":{"key":"07","name":"Rheinland-Pfalz"}},{"name":"Maximinstr.","postalCode":"56294","locality":"Gappenach","municipality":{"key":"07137027","name":"Gappenach","type":"Kreisangehörige_Gemeinde"},"district":{"key":"07137","name":"Mayen-Koblenz","type":"Landkreis"},"federalState":{"key":"07","name":"Rheinland-Pfalz"}},{"name":"Naunheimer Str.","postalCode":"56294","locality":"Gappenach","municipality":{"key":"07137027","name":"Gappenach","type":"Kreisangehörige_Gemeinde"},"district":{"key":"07137","name":"Mayen-Koblenz","type":"Landkreis"},"federalState":{"key":"07","name":"Rheinland-Pfalz"}},{"name":"Neumühle","postalCode":"56294","locality":"Gappenach","municipality":{"key":"07137027","name":"Gappenach","type":"Kreisangehörige_Gemeinde"},"district":{"key":"07137","name":"Mayen-Koblenz","type":"Landkreis"},"federalState":{"key":"07","name":"Rheinland-Pfalz"}},]