[{"name":"Altendorf","postalCode":"84152","locality":"Mengkofen","municipality":{"key":"09279127","name":"Mengkofen","type":"Kreisangehörige_Gemeinde"},"district":{"key":"09279","name":"Dingolfing-Landau","type":"Landkreis"},"federalState":{"key":"09","name":"Bayern"}},{"name":"Alte Staatsstr.","postalCode":"84152","locality":"Mengkofen","municipality":{"key":"09279127","name":"Mengkofen","type":"Kreisangehörige_Gemeinde"},"district":{"key":"09279","name":"Dingolfing-Landau","type":"Landkreis"},"federalState":{"key":"09","name":"Bayern"}},{"name":"Am Anger","postalCode":"84152","locality":"Mengkofen","municipality":{"key":"09279127","name":"Mengkofen","type":"Kreisangehörige_Gemeinde"},"district":{"key":"09279","name":"Dingolfing-Landau","type":"Landkreis"},"federalState":{"key":"09","name":"Bayern"}},{"name":"Am Berg","postalCode":"84152","locality":"Mengkofen","municipality":{"key":"09279127","name":"Mengkofen","type":"Kreisangehörige_Gemeinde"},"district":{"key":"09279","name":"Dingolfing-Landau","type":"Landkreis"},"federalState":{"key":"09","name":"Bayern"}},{"name":"Am Bräugraben","postalCode":"84152","locality":"Mengkofen","municipality":{"key":"09279127","name":"Mengkofen","type":"Kreisangehörige_Gemeinde"},"district":{"key":"09279","name":"Dingolfing-Landau","type":"Landkreis"},"federalState":{"key":"09","name":"Bayern"}},{"name":"Am Freibad","postalCode":"84152","locality":"Mengkofen","municipality":{"key":"09279127","name":"Mengkofen","type":"Kreisangehörige_Gemeinde"},"district":{"key":"09279","name":"Dingolfing-Landau","type":"Landkreis"},"federalState":{"key":"09","name":"Bayern"}},{"name":"Am Hackerfeld","postalCode":"84152","locality":"Mengkofen","municipality":{"key":"09279127","name":"Mengkofen","type":"Kreisangehörige_Gemeinde"},"district":{"key":"09279","name":"Dingolfing-Landau","type":"Landkreis"},"federalState":{"key":"09","name":"Bayern"}},{"name":"Am Herrnberg","postalCode":"84152","locality":"Mengkofen","municipality":{"key":"09279127","name":"Mengkofen","type":"Kreisangehörige_Gemeinde"},"district":{"key":"09279","name":"Dingolfing-Landau","type":"Landkreis"},"federalState":{"key":"09","name":"Bayern"}},{"name":"Am Hirschgarten","postalCode":"84152","locality":"Mengkofen","municipality":{"key":"09279127","name":"Mengkofen","type":"Kreisangehörige_Gemeinde"},"district":{"key":"09279","name":"Dingolfing-Landau","type":"Landkreis"},"federalState":{"key":"09","name":"Bayern"}},{"name":"Ammertalweg","postalCode":"84152","locality":"Mengkofen","municipality":{"key":"09279127","name":"Mengkofen","type":"Kreisangehörige_Gemeinde"},"district":{"key":"09279","name":"Dingolfing-Landau","type":"Landkreis"},"federalState":{"key":"09","name":"Bayern"}},{"name":"Am Schwebach","postalCode":"84152","locality":"Mengkofen","municipality":{"key":"09279127","name":"Mengkofen","type":"Kreisangehörige_Gemeinde"},"district":{"key":"09279","name":"Dingolfing-Landau","type":"Landkreis"},"federalState":{"key":"09","name":"Bayern"}},{"name":"Amselweg","postalCode":"84152","locality":"Mengkofen","municipality":{"key":"09279127","name":"Mengkofen","type":"Kreisangehörige_Gemeinde"},"district":{"key":"09279","name":"Dingolfing-Landau","type":"Landkreis"},"federalState":{"key":"09","name":"Bayern"}},{"name":"Am Waldeck","postalCode":"84152","locality":"Mengkofen","municipality":{"key":"09279127","name":"Mengkofen","type":"Kreisangehörige_Gemeinde"},"district":{"key":"09279","name":"Dingolfing-Landau","type":"Landkreis"},"federalState":{"key":"09","name":"Bayern"}},{"name":"Am Weiher","postalCode":"84152","locality":"Mengkofen","municipality":{"key":"09279127","name":"Mengkofen","type":"Kreisangehörige_Gemeinde"},"district":{"key":"09279","name":"Dingolfing-Landau","type":"Landkreis"},"federalState":{"key":"09","name":"Bayern"}},{"name":"Am Weinberg","postalCode":"84152","locality":"Mengkofen","municipality":{"key":"09279127","name":"Mengkofen","type":"Kreisangehörige_Gemeinde"},"district":{"key":"09279","name":"Dingolfing-Landau","type":"Landkreis"},"federalState":{"key":"09","name":"Bayern"}},{"name":"Am Wirtsgarten","postalCode":"84152","locality":"Mengkofen","municipality":{"key":"09279127","name":"Mengkofen","type":"Kreisangehörige_Gemeinde"},"district":{"key":"09279","name":"Dingolfing-Landau","type":"Landkreis"},"federalState":{"key":"09","name":"Bayern"}},{"name":"An der Aitrach","postalCode":"84152","locality":"Mengkofen","municipality":{"key":"09279127","name":"Mengkofen","type":"Kreisangehörige_Gemeinde"},"district":{"key":"09279","name":"Dingolfing-Landau","type":"Landkreis"},"federalState":{"key":"09","name":"Bayern"}},{"name":"An der Then","postalCode":"84152","locality":"Mengkofen","municipality":{"key":"09279127","name":"Mengkofen","type":"Kreisangehörige_Gemeinde"},"district":{"key":"09279","name":"Dingolfing-Landau","type":"Landkreis"},"federalState":{"key":"09","name":"Bayern"}},{"name":"Apianstr.","postalCode":"84152","locality":"Mengkofen","municipality":{"key":"09279127","name":"Mengkofen","type":"Kreisangehörige_Gemeinde"},"district":{"key":"09279","name":"Dingolfing-Landau","type":"Landkreis"},"federalState":{"key":"09","name":"Bayern"}},{"name":"Auf der Frey","postalCode":"84152","locality":"Mengkofen","municipality":{"key":"09279127","name":"Mengkofen","type":"Kreisangehörige_Gemeinde"},"district":{"key":"09279","name":"Dingolfing-Landau","type":"Landkreis"},"federalState":{"key":"09","name":"Bayern"}},{"name":"Auholz","postalCode":"84152","locality":"Mengkofen","municipality":{"key":"09279127","name":"Mengkofen","type":"Kreisangehörige_Gemeinde"},"district":{"key":"09279","name":"Dingolfing-Landau","type":"Landkreis"},"federalState":{"key":"09","name":"Bayern"}},{"name":"Bachstr.","postalCode":"84152","locality":"Mengkofen","municipality":{"key":"09279127","name":"Mengkofen","type":"Kreisangehörige_Gemeinde"},"district":{"key":"09279","name":"Dingolfing-Landau","type":"Landkreis"},"federalState":{"key":"09","name":"Bayern"}},{"name":"Bergfeldstr.","postalCode":"84152","locality":"Mengkofen","municipality":{"key":"09279127","name":"Mengkofen","type":"Kreisangehörige_Gemeinde"},"district":{"key":"09279","name":"Dingolfing-Landau","type":"Landkreis"},"federalState":{"key":"09","name":"Bayern"}},{"name":"Bergstr.","postalCode":"84152","locality":"Mengkofen","municipality":{"key":"09279127","name":"Mengkofen","type":"Kreisangehörige_Gemeinde"},"district":{"key":"09279","name":"Dingolfing-Landau","type":"Landkreis"},"federalState":{"key":"09","name":"Bayern"}},{"name":"Birkenweg","postalCode":"84152","locality":"Mengkofen","municipality":{"key":"09279127","name":"Mengkofen","type":"Kreisangehörige_Gemeinde"},"district":{"key":"09279","name":"Dingolfing-Landau","type":"Landkreis"},"federalState":{"key":"09","name":"Bayern"}},{"name":"Breitenauer Str.","postalCode":"84152","locality":"Mengkofen","municipality":{"key":"09279127","name":"Mengkofen","type":"Kreisangehörige_Gemeinde"},"district":{"key":"09279","name":"Dingolfing-Landau","type":"Landkreis"},"federalState":{"key":"09","name":"Bayern"}},{"name":"Bründlweg","postalCode":"84152","locality":"Mengkofen","municipality":{"key":"09279127","name":"Mengkofen","type":"Kreisangehörige_Gemeinde"},"district":{"key":"09279","name":"Dingolfing-Landau","type":"Landkreis"},"federalState":{"key":"09","name":"Bayern"}},{"name":"Dengkofen","postalCode":"84152","locality":"Mengkofen","municipality":{"key":"09279127","name":"Mengkofen","type":"Kreisangehörige_Gemeinde"},"district":{"key":"09279","name":"Dingolfing-Landau","type":"Landkreis"},"federalState":{"key":"09","name":"Bayern"}},{"name":"Dr.-Haselmayr-Str.","postalCode":"84152","locality":"Mengkofen","municipality":{"key":"09279127","name":"Mengkofen","type":"Kreisangehörige_Gemeinde"},"district":{"key":"09279","name":"Dingolfing-Landau","type":"Landkreis"},"federalState":{"key":"09","name":"Bayern"}},{"name":"Dr.-Mayr-Str.","postalCode":"84152","locality":"Mengkofen","municipality":{"key":"09279127","name":"Mengkofen","type":"Kreisangehörige_Gemeinde"},"district":{"key":"09279","name":"Dingolfing-Landau","type":"Landkreis"},"federalState":{"key":"09","name":"Bayern"}},{"name":"Eichelberg","postalCode":"84152","locality":"Mengkofen","municipality":{"key":"09279127","name":"Mengkofen","type":"Kreisangehörige_Gemeinde"},"district":{"key":"09279","name":"Dingolfing-Landau","type":"Landkreis"},"federalState":{"key":"09","name":"Bayern"}},{"name":"Eichenweg","postalCode":"84152","locality":"Mengkofen","municipality":{"key":"09279127","name":"Mengkofen","type":"Kreisangehörige_Gemeinde"},"district":{"key":"09279","name":"Dingolfing-Landau","type":"Landkreis"},"federalState":{"key":"09","name":"Bayern"}},{"name":"Eisental","postalCode":"84152","locality":"Mengkofen","municipality":{"key":"09279127","name":"Mengkofen","type":"Kreisangehörige_Gemeinde"},"district":{"key":"09279","name":"Dingolfing-Landau","type":"Landkreis"},"federalState":{"key":"09","name":"Bayern"}},{"name":"Esterthaler Str.","postalCode":"84152","locality":"Mengkofen","municipality":{"key":"09279127","name":"Mengkofen","type":"Kreisangehörige_Gemeinde"},"district":{"key":"09279","name":"Dingolfing-Landau","type":"Landkreis"},"federalState":{"key":"09","name":"Bayern"}},{"name":"Ettenkofen","postalCode":"84152","locality":"Mengkofen","municipality":{"key":"09279127","name":"Mengkofen","type":"Kreisangehörige_Gemeinde"},"district":{"key":"09279","name":"Dingolfing-Landau","type":"Landkreis"},"federalState":{"key":"09","name":"Bayern"}},{"name":"Fasanenweg","postalCode":"84152","locality":"Mengkofen","municipality":{"key":"09279127","name":"Mengkofen","type":"Kreisangehörige_Gemeinde"},"district":{"key":"09279","name":"Dingolfing-Landau","type":"Landkreis"},"federalState":{"key":"09","name":"Bayern"}},{"name":"Fichtenstr.","postalCode":"84152","locality":"Mengkofen","municipality":{"key":"09279127","name":"Mengkofen","type":"Kreisangehörige_Gemeinde"},"district":{"key":"09279","name":"Dingolfing-Landau","type":"Landkreis"},"federalState":{"key":"09","name":"Bayern"}},{"name":"Finkenweg","postalCode":"84152","locality":"Mengkofen","municipality":{"key":"09279127","name":"Mengkofen","type":"Kreisangehörige_Gemeinde"},"district":{"key":"09279","name":"Dingolfing-Landau","type":"Landkreis"},"federalState":{"key":"09","name":"Bayern"}},{"name":"Floriweg","postalCode":"84152","locality":"Mengkofen","municipality":{"key":"09279127","name":"Mengkofen","type":"Kreisangehörige_Gemeinde"},"district":{"key":"09279","name":"Dingolfing-Landau","type":"Landkreis"},"federalState":{"key":"09","name":"Bayern"}},{"name":"Geiselhöringer Str.","postalCode":"84152","locality":"Mengkofen","municipality":{"key":"09279127","name":"Mengkofen","type":"Kreisangehörige_Gemeinde"},"district":{"key":"09279","name":"Dingolfing-Landau","type":"Landkreis"},"federalState":{"key":"09","name":"Bayern"}},{"name":"Ginhart","postalCode":"84152","locality":"Mengkofen","municipality":{"key":"09279127","name":"Mengkofen","type":"Kreisangehörige_Gemeinde"},"district":{"key":"09279","name":"Dingolfing-Landau","type":"Landkreis"},"federalState":{"key":"09","name":"Bayern"}},{"name":"Glöckerlweg","postalCode":"84152","locality":"Mengkofen","municipality":{"key":"09279127","name":"Mengkofen","type":"Kreisangehörige_Gemeinde"},"district":{"key":"09279","name":"Dingolfing-Landau","type":"Landkreis"},"federalState":{"key":"09","name":"Bayern"}},{"name":"Graf-Arco-Weg","postalCode":"84152","locality":"Mengkofen","municipality":{"key":"09279127","name":"Mengkofen","type":"Kreisangehörige_Gemeinde"},"district":{"key":"09279","name":"Dingolfing-Landau","type":"Landkreis"},"federalState":{"key":"09","name":"Bayern"}},{"name":"Grafenweg","postalCode":"84152","locality":"Mengkofen","municipality":{"key":"09279127","name":"Mengkofen","type":"Kreisangehörige_Gemeinde"},"district":{"key":"09279","name":"Dingolfing-Landau","type":"Landkreis"},"federalState":{"key":"09","name":"Bayern"}},{"name":"Großlug","postalCode":"84152","locality":"Mengkofen","municipality":{"key":"09279127","name":"Mengkofen","type":"Kreisangehörige_Gemeinde"},"district":{"key":"09279","name":"Dingolfing-Landau","type":"Landkreis"},"federalState":{"key":"09","name":"Bayern"}},{"name":"Grünleiten","postalCode":"84152","locality":"Mengkofen","municipality":{"key":"09279127","name":"Mengkofen","type":"Kreisangehörige_Gemeinde"},"district":{"key":"09279","name":"Dingolfing-Landau","type":"Landkreis"},"federalState":{"key":"09","name":"Bayern"}},{"name":"Haberdorn","postalCode":"84152","locality":"Mengkofen","municipality":{"key":"09279127","name":"Mengkofen","type":"Kreisangehörige_Gemeinde"},"district":{"key":"09279","name":"Dingolfing-Landau","type":"Landkreis"},"federalState":{"key":"09","name":"Bayern"}},{"name":"Hagenau","postalCode":"84152","locality":"Mengkofen","municipality":{"key":"09279127","name":"Mengkofen","type":"Kreisangehörige_Gemeinde"},"district":{"key":"09279","name":"Dingolfing-Landau","type":"Landkreis"},"federalState":{"key":"09","name":"Bayern"}},{"name":"Hailinger Str.","postalCode":"84152","locality":"Mengkofen","municipality":{"key":"09279127","name":"Mengkofen","type":"Kreisangehörige_Gemeinde"},"district":{"key":"09279","name":"Dingolfing-Landau","type":"Landkreis"},"federalState":{"key":"09","name":"Bayern"}},{"name":"Hamelhof","postalCode":"84152","locality":"Mengkofen","municipality":{"key":"09279127","name":"Mengkofen","type":"Kreisangehörige_Gemeinde"},"district":{"key":"09279","name":"Dingolfing-Landau","type":"Landkreis"},"federalState":{"key":"09","name":"Bayern"}},{"name":"Hammeröder Str.","postalCode":"84152","locality":"Mengkofen","municipality":{"key":"09279127","name":"Mengkofen","type":"Kreisangehörige_Gemeinde"},"district":{"key":"09279","name":"Dingolfing-Landau","type":"Landkreis"},"federalState":{"key":"09","name":"Bayern"}},{"name":"Hanny","postalCode":"84152","locality":"Mengkofen","municipality":{"key":"09279127","name":"Mengkofen","type":"Kreisangehörige_Gemeinde"},"district":{"key":"09279","name":"Dingolfing-Landau","type":"Landkreis"},"federalState":{"key":"09","name":"Bayern"}},{"name":"Hans-Spielbauer-Str.","postalCode":"84152","locality":"Mengkofen","municipality":{"key":"09279127","name":"Mengkofen","type":"Kreisangehörige_Gemeinde"},"district":{"key":"09279","name":"Dingolfing-Landau","type":"Landkreis"},"federalState":{"key":"09","name":"Bayern"}},{"name":"Haunmühle","postalCode":"84152","locality":"Mengkofen","municipality":{"key":"09279127","name":"Mengkofen","type":"Kreisangehörige_Gemeinde"},"district":{"key":"09279","name":"Dingolfing-Landau","type":"Landkreis"},"federalState":{"key":"09","name":"Bayern"}},{"name":"Haunsdorfer Str.","postalCode":"84152","locality":"Mengkofen","municipality":{"key":"09279127","name":"Mengkofen","type":"Kreisangehörige_Gemeinde"},"district":{"key":"09279","name":"Dingolfing-Landau","type":"Landkreis"},"federalState":{"key":"09","name":"Bayern"}},{"name":"Hauptstr.","postalCode":"84152","locality":"Mengkofen","municipality":{"key":"09279127","name":"Mengkofen","type":"Kreisangehörige_Gemeinde"},"district":{"key":"09279","name":"Dingolfing-Landau","type":"Landkreis"},"federalState":{"key":"09","name":"Bayern"}},{"name":"Hausenthaler Str.","postalCode":"84152","locality":"Mengkofen","municipality":{"key":"09279127","name":"Mengkofen","type":"Kreisangehörige_Gemeinde"},"district":{"key":"09279","name":"Dingolfing-Landau","type":"Landkreis"},"federalState":{"key":"09","name":"Bayern"}},{"name":"Herrenfeld","postalCode":"84152","locality":"Mengkofen","municipality":{"key":"09279127","name":"Mengkofen","type":"Kreisangehörige_Gemeinde"},"district":{"key":"09279","name":"Dingolfing-Landau","type":"Landkreis"},"federalState":{"key":"09","name":"Bayern"}},{"name":"Hinflucht","postalCode":"84152","locality":"Mengkofen","municipality":{"key":"09279127","name":"Mengkofen","type":"Kreisangehörige_Gemeinde"},"district":{"key":"09279","name":"Dingolfing-Landau","type":"Landkreis"},"federalState":{"key":"09","name":"Bayern"}},{"name":"Hochstr.","postalCode":"84152","locality":"Mengkofen","municipality":{"key":"09279127","name":"Mengkofen","type":"Kreisangehörige_Gemeinde"},"district":{"key":"09279","name":"Dingolfing-Landau","type":"Landkreis"},"federalState":{"key":"09","name":"Bayern"}},{"name":"Hofdorfer Str.","postalCode":"84152","locality":"Mengkofen","municipality":{"key":"09279127","name":"Mengkofen","type":"Kreisangehörige_Gemeinde"},"district":{"key":"09279","name":"Dingolfing-Landau","type":"Landkreis"},"federalState":{"key":"09","name":"Bayern"}},{"name":"Hofstettener Str.","postalCode":"84152","locality":"Mengkofen","municipality":{"key":"09279127","name":"Mengkofen","type":"Kreisangehörige_Gemeinde"},"district":{"key":"09279","name":"Dingolfing-Landau","type":"Landkreis"},"federalState":{"key":"09","name":"Bayern"}},{"name":"Hösackerer Str.","postalCode":"84152","locality":"Mengkofen","municipality":{"key":"09279127","name":"Mengkofen","type":"Kreisangehörige_Gemeinde"},"district":{"key":"09279","name":"Dingolfing-Landau","type":"Landkreis"},"federalState":{"key":"09","name":"Bayern"}},{"name":"Huchelwieser Str.","postalCode":"84152","locality":"Mengkofen","municipality":{"key":"09279127","name":"Mengkofen","type":"Kreisangehörige_Gemeinde"},"district":{"key":"09279","name":"Dingolfing-Landau","type":"Landkreis"},"federalState":{"key":"09","name":"Bayern"}},{"name":"Josef-Müller-Str.","postalCode":"84152","locality":"Mengkofen","municipality":{"key":"09279127","name":"Mengkofen","type":"Kreisangehörige_Gemeinde"},"district":{"key":"09279","name":"Dingolfing-Landau","type":"Landkreis"},"federalState":{"key":"09","name":"Bayern"}},{"name":"Karl-Pillmaier-Str.","postalCode":"84152","locality":"Mengkofen","municipality":{"key":"09279127","name":"Mengkofen","type":"Kreisangehörige_Gemeinde"},"district":{"key":"09279","name":"Dingolfing-Landau","type":"Landkreis"},"federalState":{"key":"09","name":"Bayern"}},{"name":"Kattenbacher Str.","postalCode":"84152","locality":"Mengkofen","municipality":{"key":"09279127","name":"Mengkofen","type":"Kreisangehörige_Gemeinde"},"district":{"key":"09279","name":"Dingolfing-Landau","type":"Landkreis"},"federalState":{"key":"09","name":"Bayern"}},{"name":"Kiefernstr.","postalCode":"84152","locality":"Mengkofen","municipality":{"key":"09279127","name":"Mengkofen","type":"Kreisangehörige_Gemeinde"},"district":{"key":"09279","name":"Dingolfing-Landau","type":"Landkreis"},"federalState":{"key":"09","name":"Bayern"}},{"name":"Kirchfeld","postalCode":"84152","locality":"Mengkofen","municipality":{"key":"09279127","name":"Mengkofen","type":"Kreisangehörige_Gemeinde"},"district":{"key":"09279","name":"Dingolfing-Landau","type":"Landkreis"},"federalState":{"key":"09","name":"Bayern"}},{"name":"Klausenweg","postalCode":"84152","locality":"Mengkofen","municipality":{"key":"09279127","name":"Mengkofen","type":"Kreisangehörige_Gemeinde"},"district":{"key":"09279","name":"Dingolfing-Landau","type":"Landkreis"},"federalState":{"key":"09","name":"Bayern"}},{"name":"Kleinlug","postalCode":"84152","locality":"Mengkofen","municipality":{"key":"09279127","name":"Mengkofen","type":"Kreisangehörige_Gemeinde"},"district":{"key":"09279","name":"Dingolfing-Landau","type":"Landkreis"},"federalState":{"key":"09","name":"Bayern"}},{"name":"Kleinweichshofen","postalCode":"84152","locality":"Mengkofen","municipality":{"key":"09279127","name":"Mengkofen","type":"Kreisangehörige_Gemeinde"},"district":{"key":"09279","name":"Dingolfing-Landau","type":"Landkreis"},"federalState":{"key":"09","name":"Bayern"}},{"name":"Kohlstattweg","postalCode":"84152","locality":"Mengkofen","municipality":{"key":"09279127","name":"Mengkofen","type":"Kreisangehörige_Gemeinde"},"district":{"key":"09279","name":"Dingolfing-Landau","type":"Landkreis"},"federalState":{"key":"09","name":"Bayern"}},{"name":"Kothlaken","postalCode":"84152","locality":"Mengkofen","municipality":{"key":"09279127","name":"Mengkofen","type":"Kreisangehörige_Gemeinde"},"district":{"key":"09279","name":"Dingolfing-Landau","type":"Landkreis"},"federalState":{"key":"09","name":"Bayern"}},{"name":"Krottenthaler Str.","postalCode":"84152","locality":"Mengkofen","municipality":{"key":"09279127","name":"Mengkofen","type":"Kreisangehörige_Gemeinde"},"district":{"key":"09279","name":"Dingolfing-Landau","type":"Landkreis"},"federalState":{"key":"09","name":"Bayern"}},{"name":"Lärchenstr.","postalCode":"84152","locality":"Mengkofen","municipality":{"key":"09279127","name":"Mengkofen","type":"Kreisangehörige_Gemeinde"},"district":{"key":"09279","name":"Dingolfing-Landau","type":"Landkreis"},"federalState":{"key":"09","name":"Bayern"}},{"name":"Leiblfinger Str.","postalCode":"84152","locality":"Mengkofen","municipality":{"key":"09279127","name":"Mengkofen","type":"Kreisangehörige_Gemeinde"},"district":{"key":"09279","name":"Dingolfing-Landau","type":"Landkreis"},"federalState":{"key":"09","name":"Bayern"}},{"name":"Lengthaler Str.","postalCode":"84152","locality":"Mengkofen","municipality":{"key":"09279127","name":"Mengkofen","type":"Kreisangehörige_Gemeinde"},"district":{"key":"09279","name":"Dingolfing-Landau","type":"Landkreis"},"federalState":{"key":"09","name":"Bayern"}},{"name":"Limbacher Str.","postalCode":"84152","locality":"Mengkofen","municipality":{"key":"09279127","name":"Mengkofen","type":"Kreisangehörige_Gemeinde"},"district":{"key":"09279","name":"Dingolfing-Landau","type":"Landkreis"},"federalState":{"key":"09","name":"Bayern"}},{"name":"Lohe","postalCode":"84152","locality":"Mengkofen","municipality":{"key":"09279127","name":"Mengkofen","type":"Kreisangehörige_Gemeinde"},"district":{"key":"09279","name":"Dingolfing-Landau","type":"Landkreis"},"federalState":{"key":"09","name":"Bayern"}},{"name":"Luger Str.","postalCode":"84152","locality":"Mengkofen","municipality":{"key":"09279127","name":"Mengkofen","type":"Kreisangehörige_Gemeinde"},"district":{"key":"09279","name":"Dingolfing-Landau","type":"Landkreis"},"federalState":{"key":"09","name":"Bayern"}},{"name":"Mammutstr.","postalCode":"84152","locality":"Mengkofen","municipality":{"key":"09279127","name":"Mengkofen","type":"Kreisangehörige_Gemeinde"},"district":{"key":"09279","name":"Dingolfing-Landau","type":"Landkreis"},"federalState":{"key":"09","name":"Bayern"}},{"name":"Marienhöhe","postalCode":"84152","locality":"Mengkofen","municipality":{"key":"09279127","name":"Mengkofen","type":"Kreisangehörige_Gemeinde"},"district":{"key":"09279","name":"Dingolfing-Landau","type":"Landkreis"},"federalState":{"key":"09","name":"Bayern"}},{"name":"Martin-Peller-Str.","postalCode":"84152","locality":"Mengkofen","municipality":{"key":"09279127","name":"Mengkofen","type":"Kreisangehörige_Gemeinde"},"district":{"key":"09279","name":"Dingolfing-Landau","type":"Landkreis"},"federalState":{"key":"09","name":"Bayern"}},{"name":"Martinshöhe","postalCode":"84152","locality":"Mengkofen","municipality":{"key":"09279127","name":"Mengkofen","type":"Kreisangehörige_Gemeinde"},"district":{"key":"09279","name":"Dingolfing-Landau","type":"Landkreis"},"federalState":{"key":"09","name":"Bayern"}},{"name":"Meier-Wirt-Str.","postalCode":"84152","locality":"Mengkofen","municipality":{"key":"09279127","name":"Mengkofen","type":"Kreisangehörige_Gemeinde"},"district":{"key":"09279","name":"Dingolfing-Landau","type":"Landkreis"},"federalState":{"key":"09","name":"Bayern"}},{"name":"Meisenstr.","postalCode":"84152","locality":"Mengkofen","municipality":{"key":"09279127","name":"Mengkofen","type":"Kreisangehörige_Gemeinde"},"district":{"key":"09279","name":"Dingolfing-Landau","type":"Landkreis"},"federalState":{"key":"09","name":"Bayern"}},{"name":"Mitterlug","postalCode":"84152","locality":"Mengkofen","municipality":{"key":"09279127","name":"Mengkofen","type":"Kreisangehörige_Gemeinde"},"district":{"key":"09279","name":"Dingolfing-Landau","type":"Landkreis"},"federalState":{"key":"09","name":"Bayern"}},{"name":"Mitterweg","postalCode":"84152","locality":"Mengkofen","municipality":{"key":"09279127","name":"Mengkofen","type":"Kreisangehörige_Gemeinde"},"district":{"key":"09279","name":"Dingolfing-Landau","type":"Landkreis"},"federalState":{"key":"09","name":"Bayern"}},{"name":"Multhamer Str.","postalCode":"84152","locality":"Mengkofen","municipality":{"key":"09279127","name":"Mengkofen","type":"Kreisangehörige_Gemeinde"},"district":{"key":"09279","name":"Dingolfing-Landau","type":"Landkreis"},"federalState":{"key":"09","name":"Bayern"}},{"name":"Neuhofener Str.","postalCode":"84152","locality":"Mengkofen","municipality":{"key":"09279127","name":"Mengkofen","type":"Kreisangehörige_Gemeinde"},"district":{"key":"09279","name":"Dingolfing-Landau","type":"Landkreis"},"federalState":{"key":"09","name":"Bayern"}},{"name":"Niederreuth","postalCode":"84152","locality":"Mengkofen","municipality":{"key":"09279127","name":"Mengkofen","type":"Kreisangehörige_Gemeinde"},"district":{"key":"09279","name":"Dingolfing-Landau","type":"Landkreis"},"federalState":{"key":"09","name":"Bayern"}},{"name":"Niedertundinger Str.","postalCode":"84152","locality":"Mengkofen","municipality":{"key":"09279127","name":"Mengkofen","type":"Kreisangehörige_Gemeinde"},"district":{"key":"09279","name":"Dingolfing-Landau","type":"Landkreis"},"federalState":{"key":"09","name":"Bayern"}},{"name":"Obagstr.","postalCode":"84152","locality":"Mengkofen","municipality":{"key":"09279127","name":"Mengkofen","type":"Kreisangehörige_Gemeinde"},"district":{"key":"09279","name":"Dingolfing-Landau","type":"Landkreis"},"federalState":{"key":"09","name":"Bayern"}},{"name":"Oberallmannsbach","postalCode":"84152","locality":"Mengkofen","municipality":{"key":"09279127","name":"Mengkofen","type":"Kreisangehörige_Gemeinde"},"district":{"key":"09279","name":"Dingolfing-Landau","type":"Landkreis"},"federalState":{"key":"09","name":"Bayern"}},{"name":"Oberbibelsbach","postalCode":"84152","locality":"Mengkofen","municipality":{"key":"09279127","name":"Mengkofen","type":"Kreisangehörige_Gemeinde"},"district":{"key":"09279","name":"Dingolfing-Landau","type":"Landkreis"},"federalState":{"key":"09","name":"Bayern"}},{"name":"Oberreuth","postalCode":"84152","locality":"Mengkofen","municipality":{"key":"09279127","name":"Mengkofen","type":"Kreisangehörige_Gemeinde"},"district":{"key":"09279","name":"Dingolfing-Landau","type":"Landkreis"},"federalState":{"key":"09","name":"Bayern"}},{"name":"Obersalhof","postalCode":"84152","locality":"Mengkofen","municipality":{"key":"09279127","name":"Mengkofen","type":"Kreisangehörige_Gemeinde"},"district":{"key":"09279","name":"Dingolfing-Landau","type":"Landkreis"},"federalState":{"key":"09","name":"Bayern"}},{"name":"Obersteinbach","postalCode":"84152","locality":"Mengkofen","municipality":{"key":"09279127","name":"Mengkofen","type":"Kreisangehörige_Gemeinde"},"district":{"key":"09279","name":"Dingolfing-Landau","type":"Landkreis"},"federalState":{"key":"09","name":"Bayern"}},{"name":"Ottendinger Str.","postalCode":"84152","locality":"Mengkofen","municipality":{"key":"09279127","name":"Mengkofen","type":"Kreisangehörige_Gemeinde"},"district":{"key":"09279","name":"Dingolfing-Landau","type":"Landkreis"},"federalState":{"key":"09","name":"Bayern"}},{"name":"Otteringer Str.","postalCode":"84152","locality":"Mengkofen","municipality":{"key":"09279127","name":"Mengkofen","type":"Kreisangehörige_Gemeinde"},"district":{"key":"09279","name":"Dingolfing-Landau","type":"Landkreis"},"federalState":{"key":"09","name":"Bayern"}},{"name":"Pfarrer-Gabler-Str.","postalCode":"84152","locality":"Mengkofen","municipality":{"key":"09279127","name":"Mengkofen","type":"Kreisangehörige_Gemeinde"},"district":{"key":"09279","name":"Dingolfing-Landau","type":"Landkreis"},"federalState":{"key":"09","name":"Bayern"}},{"name":"Pfarrer-Huber-Ring","postalCode":"84152","locality":"Mengkofen","municipality":{"key":"09279127","name":"Mengkofen","type":"Kreisangehörige_Gemeinde"},"district":{"key":"09279","name":"Dingolfing-Landau","type":"Landkreis"},"federalState":{"key":"09","name":"Bayern"}},{"name":"Pfarrer-Schlicht-Str.","postalCode":"84152","locality":"Mengkofen","municipality":{"key":"09279127","name":"Mengkofen","type":"Kreisangehörige_Gemeinde"},"district":{"key":"09279","name":"Dingolfing-Landau","type":"Landkreis"},"federalState":{"key":"09","name":"Bayern"}},{"name":"Pfarrer-Sirl-Str.","postalCode":"84152","locality":"Mengkofen","municipality":{"key":"09279127","name":"Mengkofen","type":"Kreisangehörige_Gemeinde"},"district":{"key":"09279","name":"Dingolfing-Landau","type":"Landkreis"},"federalState":{"key":"09","name":"Bayern"}},{"name":"Pfarrweiher","postalCode":"84152","locality":"Mengkofen","municipality":{"key":"09279127","name":"Mengkofen","type":"Kreisangehörige_Gemeinde"},"district":{"key":"09279","name":"Dingolfing-Landau","type":"Landkreis"},"federalState":{"key":"09","name":"Bayern"}},{"name":"Plinganserstr.","postalCode":"84152","locality":"Mengkofen","municipality":{"key":"09279127","name":"Mengkofen","type":"Kreisangehörige_Gemeinde"},"district":{"key":"09279","name":"Dingolfing-Landau","type":"Landkreis"},"federalState":{"key":"09","name":"Bayern"}},{"name":"Pramersbuch","postalCode":"84152","locality":"Mengkofen","municipality":{"key":"09279127","name":"Mengkofen","type":"Kreisangehörige_Gemeinde"},"district":{"key":"09279","name":"Dingolfing-Landau","type":"Landkreis"},"federalState":{"key":"09","name":"Bayern"}},{"name":"Pramwinkl","postalCode":"84152","locality":"Mengkofen","municipality":{"key":"09279127","name":"Mengkofen","type":"Kreisangehörige_Gemeinde"},"district":{"key":"09279","name":"Dingolfing-Landau","type":"Landkreis"},"federalState":{"key":"09","name":"Bayern"}},{"name":"Radlkofen","postalCode":"84152","locality":"Mengkofen","municipality":{"key":"09279127","name":"Mengkofen","type":"Kreisangehörige_Gemeinde"},"district":{"key":"09279","name":"Dingolfing-Landau","type":"Landkreis"},"federalState":{"key":"09","name":"Bayern"}},{"name":"Radlkofener Str.","postalCode":"84152","locality":"Mengkofen","municipality":{"key":"09279127","name":"Mengkofen","type":"Kreisangehörige_Gemeinde"},"district":{"key":"09279","name":"Dingolfing-Landau","type":"Landkreis"},"federalState":{"key":"09","name":"Bayern"}},{"name":"Raiffeisenstr.","postalCode":"84152","locality":"Mengkofen","municipality":{"key":"09279127","name":"Mengkofen","type":"Kreisangehörige_Gemeinde"},"district":{"key":"09279","name":"Dingolfing-Landau","type":"Landkreis"},"federalState":{"key":"09","name":"Bayern"}},{"name":"Rascher Weg","postalCode":"84152","locality":"Mengkofen","municipality":{"key":"09279127","name":"Mengkofen","type":"Kreisangehörige_Gemeinde"},"district":{"key":"09279","name":"Dingolfing-Landau","type":"Landkreis"},"federalState":{"key":"09","name":"Bayern"}},{"name":"Rauheck","postalCode":"84152","locality":"Mengkofen","municipality":{"key":"09279127","name":"Mengkofen","type":"Kreisangehörige_Gemeinde"},"district":{"key":"09279","name":"Dingolfing-Landau","type":"Landkreis"},"federalState":{"key":"09","name":"Bayern"}},{"name":"Rosenstr.","postalCode":"84152","locality":"Mengkofen","municipality":{"key":"09279127","name":"Mengkofen","type":"Kreisangehörige_Gemeinde"},"district":{"key":"09279","name":"Dingolfing-Landau","type":"Landkreis"},"federalState":{"key":"09","name":"Bayern"}},{"name":"Schloßberg","postalCode":"84152","locality":"Mengkofen","municipality":{"key":"09279127","name":"Mengkofen","type":"Kreisangehörige_Gemeinde"},"district":{"key":"09279","name":"Dingolfing-Landau","type":"Landkreis"},"federalState":{"key":"09","name":"Bayern"}},{"name":"Schneiderberg","postalCode":"84152","locality":"Mengkofen","municipality":{"key":"09279127","name":"Mengkofen","type":"Kreisangehörige_Gemeinde"},"district":{"key":"09279","name":"Dingolfing-Landau","type":"Landkreis"},"federalState":{"key":"09","name":"Bayern"}},{"name":"Schönrainer Str.","postalCode":"84152","locality":"Mengkofen","municipality":{"key":"09279127","name":"Mengkofen","type":"Kreisangehörige_Gemeinde"},"district":{"key":"09279","name":"Dingolfing-Landau","type":"Landkreis"},"federalState":{"key":"09","name":"Bayern"}},{"name":"Schützenstr.","postalCode":"84152","locality":"Mengkofen","municipality":{"key":"09279127","name":"Mengkofen","type":"Kreisangehörige_Gemeinde"},"district":{"key":"09279","name":"Dingolfing-Landau","type":"Landkreis"},"federalState":{"key":"09","name":"Bayern"}},{"name":"Schwebach-Halbrund","postalCode":"84152","locality":"Mengkofen","municipality":{"key":"09279127","name":"Mengkofen","type":"Kreisangehörige_Gemeinde"},"district":{"key":"09279","name":"Dingolfing-Landau","type":"Landkreis"},"federalState":{"key":"09","name":"Bayern"}},{"name":"Schwedenschanze","postalCode":"84152","locality":"Mengkofen","municipality":{"key":"09279127","name":"Mengkofen","type":"Kreisangehörige_Gemeinde"},"district":{"key":"09279","name":"Dingolfing-Landau","type":"Landkreis"},"federalState":{"key":"09","name":"Bayern"}},{"name":"Sedlgasse","postalCode":"84152","locality":"Mengkofen","municipality":{"key":"09279127","name":"Mengkofen","type":"Kreisangehörige_Gemeinde"},"district":{"key":"09279","name":"Dingolfing-Landau","type":"Landkreis"},"federalState":{"key":"09","name":"Bayern"}},{"name":"Sollerberg","postalCode":"84152","locality":"Mengkofen","municipality":{"key":"09279127","name":"Mengkofen","type":"Kreisangehörige_Gemeinde"},"district":{"key":"09279","name":"Dingolfing-Landau","type":"Landkreis"},"federalState":{"key":"09","name":"Bayern"}},{"name":"Sommeracker","postalCode":"84152","locality":"Mengkofen","municipality":{"key":"09279127","name":"Mengkofen","type":"Kreisangehörige_Gemeinde"},"district":{"key":"09279","name":"Dingolfing-Landau","type":"Landkreis"},"federalState":{"key":"09","name":"Bayern"}},{"name":"Steinbach","postalCode":"84152","locality":"Mengkofen","municipality":{"key":"09279127","name":"Mengkofen","type":"Kreisangehörige_Gemeinde"},"district":{"key":"09279","name":"Dingolfing-Landau","type":"Landkreis"},"federalState":{"key":"09","name":"Bayern"}},{"name":"Steinbühl","postalCode":"84152","locality":"Mengkofen","municipality":{"key":"09279127","name":"Mengkofen","type":"Kreisangehörige_Gemeinde"},"district":{"key":"09279","name":"Dingolfing-Landau","type":"Landkreis"},"federalState":{"key":"09","name":"Bayern"}},{"name":"Steinleite","postalCode":"84152","locality":"Mengkofen","municipality":{"key":"09279127","name":"Mengkofen","type":"Kreisangehörige_Gemeinde"},"district":{"key":"09279","name":"Dingolfing-Landau","type":"Landkreis"},"federalState":{"key":"09","name":"Bayern"}},{"name":"Stocketweg","postalCode":"84152","locality":"Mengkofen","municipality":{"key":"09279127","name":"Mengkofen","type":"Kreisangehörige_Gemeinde"},"district":{"key":"09279","name":"Dingolfing-Landau","type":"Landkreis"},"federalState":{"key":"09","name":"Bayern"}},{"name":"Stögerberg","postalCode":"84152","locality":"Mengkofen","municipality":{"key":"09279127","name":"Mengkofen","type":"Kreisangehörige_Gemeinde"},"district":{"key":"09279","name":"Dingolfing-Landau","type":"Landkreis"},"federalState":{"key":"09","name":"Bayern"}},{"name":"Straubinger Str.","postalCode":"84152","locality":"Mengkofen","municipality":{"key":"09279127","name":"Mengkofen","type":"Kreisangehörige_Gemeinde"},"district":{"key":"09279","name":"Dingolfing-Landau","type":"Landkreis"},"federalState":{"key":"09","name":"Bayern"}},{"name":"Süßkofen","postalCode":"84152","locality":"Mengkofen","municipality":{"key":"09279127","name":"Mengkofen","type":"Kreisangehörige_Gemeinde"},"district":{"key":"09279","name":"Dingolfing-Landau","type":"Landkreis"},"federalState":{"key":"09","name":"Bayern"}},{"name":"Süßkofener Str.","postalCode":"84152","locality":"Mengkofen","municipality":{"key":"09279127","name":"Mengkofen","type":"Kreisangehörige_Gemeinde"},"district":{"key":"09279","name":"Dingolfing-Landau","type":"Landkreis"},"federalState":{"key":"09","name":"Bayern"}},{"name":"Tannenweg","postalCode":"84152","locality":"Mengkofen","municipality":{"key":"09279127","name":"Mengkofen","type":"Kreisangehörige_Gemeinde"},"district":{"key":"09279","name":"Dingolfing-Landau","type":"Landkreis"},"federalState":{"key":"09","name":"Bayern"}},{"name":"Thomas-Lehner-Weg","postalCode":"84152","locality":"Mengkofen","municipality":{"key":"09279127","name":"Mengkofen","type":"Kreisangehörige_Gemeinde"},"district":{"key":"09279","name":"Dingolfing-Landau","type":"Landkreis"},"federalState":{"key":"09","name":"Bayern"}},{"name":"Tundinger Str.","postalCode":"84152","locality":"Mengkofen","municipality":{"key":"09279127","name":"Mengkofen","type":"Kreisangehörige_Gemeinde"},"district":{"key":"09279","name":"Dingolfing-Landau","type":"Landkreis"},"federalState":{"key":"09","name":"Bayern"}},{"name":"Tunzenberger Str.","postalCode":"84152","locality":"Mengkofen","municipality":{"key":"09279127","name":"Mengkofen","type":"Kreisangehörige_Gemeinde"},"district":{"key":"09279","name":"Dingolfing-Landau","type":"Landkreis"},"federalState":{"key":"09","name":"Bayern"}},{"name":"Tunzenweg","postalCode":"84152","locality":"Mengkofen","municipality":{"key":"09279127","name":"Mengkofen","type":"Kreisangehörige_Gemeinde"},"district":{"key":"09279","name":"Dingolfing-Landau","type":"Landkreis"},"federalState":{"key":"09","name":"Bayern"}},{"name":"Unterfeld","postalCode":"84152","locality":"Mengkofen","municipality":{"key":"09279127","name":"Mengkofen","type":"Kreisangehörige_Gemeinde"},"district":{"key":"09279","name":"Dingolfing-Landau","type":"Landkreis"},"federalState":{"key":"09","name":"Bayern"}},{"name":"Untersalhof","postalCode":"84152","locality":"Mengkofen","municipality":{"key":"09279127","name":"Mengkofen","type":"Kreisangehörige_Gemeinde"},"district":{"key":"09279","name":"Dingolfing-Landau","type":"Landkreis"},"federalState":{"key":"09","name":"Bayern"}},{"name":"Vogelsang","postalCode":"84152","locality":"Mengkofen","municipality":{"key":"09279127","name":"Mengkofen","type":"Kreisangehörige_Gemeinde"},"district":{"key":"09279","name":"Dingolfing-Landau","type":"Landkreis"},"federalState":{"key":"09","name":"Bayern"}},{"name":"Von-Haniel-Allee","postalCode":"84152","locality":"Mengkofen","municipality":{"key":"09279127","name":"Mengkofen","type":"Kreisangehörige_Gemeinde"},"district":{"key":"09279","name":"Dingolfing-Landau","type":"Landkreis"},"federalState":{"key":"09","name":"Bayern"}},{"name":"Von-Lerchenfeld-Str.","postalCode":"84152","locality":"Mengkofen","municipality":{"key":"09279127","name":"Mengkofen","type":"Kreisangehörige_Gemeinde"},"district":{"key":"09279","name":"Dingolfing-Landau","type":"Landkreis"},"federalState":{"key":"09","name":"Bayern"}},{"name":"Von-Niethammer-Str.","postalCode":"84152","locality":"Mengkofen","municipality":{"key":"09279127","name":"Mengkofen","type":"Kreisangehörige_Gemeinde"},"district":{"key":"09279","name":"Dingolfing-Landau","type":"Landkreis"},"federalState":{"key":"09","name":"Bayern"}},{"name":"Wagnerweg","postalCode":"84152","locality":"Mengkofen","municipality":{"key":"09279127","name":"Mengkofen","type":"Kreisangehörige_Gemeinde"},"district":{"key":"09279","name":"Dingolfing-Landau","type":"Landkreis"},"federalState":{"key":"09","name":"Bayern"}},{"name":"Webergasse","postalCode":"84152","locality":"Mengkofen","municipality":{"key":"09279127","name":"Mengkofen","type":"Kreisangehörige_Gemeinde"},"district":{"key":"09279","name":"Dingolfing-Landau","type":"Landkreis"},"federalState":{"key":"09","name":"Bayern"}},{"name":"Weitenhülln","postalCode":"84152","locality":"Mengkofen","municipality":{"key":"09279127","name":"Mengkofen","type":"Kreisangehörige_Gemeinde"},"district":{"key":"09279","name":"Dingolfing-Landau","type":"Landkreis"},"federalState":{"key":"09","name":"Bayern"}},{"name":"Wirtsgasse","postalCode":"84152","locality":"Mengkofen","municipality":{"key":"09279127","name":"Mengkofen","type":"Kreisangehörige_Gemeinde"},"district":{"key":"09279","name":"Dingolfing-Landau","type":"Landkreis"},"federalState":{"key":"09","name":"Bayern"}},{"name":"Ziegelstadel","postalCode":"84152","locality":"Mengkofen","municipality":{"key":"09279127","name":"Mengkofen","type":"Kreisangehörige_Gemeinde"},"district":{"key":"09279","name":"Dingolfing-Landau","type":"Landkreis"},"federalState":{"key":"09","name":"Bayern"}},{"name":"Zieglerweg","postalCode":"84152","locality":"Mengkofen","municipality":{"key":"09279127","name":"Mengkofen","type":"Kreisangehörige_Gemeinde"},"district":{"key":"09279","name":"Dingolfing-Landau","type":"Landkreis"},"federalState":{"key":"09","name":"Bayern"}},]