[{"name":"Bahnhofstr.","postalCode":"99718","locality":"Westgreußen","municipality":{"key":"16065079","name":"Westgreußen","type":"Kreisangehörige_Gemeinde"},"district":{"key":"16065","name":"Kyffhäuserkreis","type":"Landkreis"},"federalState":{"key":"16","name":"Thüringen"}},{"name":"Dorfstr.","postalCode":"99718","locality":"Westgreußen","municipality":{"key":"16065079","name":"Westgreußen","type":"Kreisangehörige_Gemeinde"},"district":{"key":"16065","name":"Kyffhäuserkreis","type":"Landkreis"},"federalState":{"key":"16","name":"Thüringen"}},{"name":"Flattig","postalCode":"99718","locality":"Westgreußen","municipality":{"key":"16065079","name":"Westgreußen","type":"Kreisangehörige_Gemeinde"},"district":{"key":"16065","name":"Kyffhäuserkreis","type":"Landkreis"},"federalState":{"key":"16","name":"Thüringen"}},{"name":"Hauptstr.","postalCode":"99718","locality":"Westgreußen","municipality":{"key":"16065079","name":"Westgreußen","type":"Kreisangehörige_Gemeinde"},"district":{"key":"16065","name":"Kyffhäuserkreis","type":"Landkreis"},"federalState":{"key":"16","name":"Thüringen"}},{"name":"Klingerstr.","postalCode":"99718","locality":"Westgreußen","municipality":{"key":"16065079","name":"Westgreußen","type":"Kreisangehörige_Gemeinde"},"district":{"key":"16065","name":"Kyffhäuserkreis","type":"Landkreis"},"federalState":{"key":"16","name":"Thüringen"}},{"name":"Rohnstedter Str.","postalCode":"99718","locality":"Westgreußen","municipality":{"key":"16065079","name":"Westgreußen","type":"Kreisangehörige_Gemeinde"},"district":{"key":"16065","name":"Kyffhäuserkreis","type":"Landkreis"},"federalState":{"key":"16","name":"Thüringen"}},{"name":"Schenkstr.","postalCode":"99718","locality":"Westgreußen","municipality":{"key":"16065079","name":"Westgreußen","type":"Kreisangehörige_Gemeinde"},"district":{"key":"16065","name":"Kyffhäuserkreis","type":"Landkreis"},"federalState":{"key":"16","name":"Thüringen"}},{"name":"Schulstr.","postalCode":"99718","locality":"Westgreußen","municipality":{"key":"16065079","name":"Westgreußen","type":"Kreisangehörige_Gemeinde"},"district":{"key":"16065","name":"Kyffhäuserkreis","type":"Landkreis"},"federalState":{"key":"16","name":"Thüringen"}},{"name":"Str. des Aufbaus","postalCode":"99718","locality":"Westgreußen","municipality":{"key":"16065079","name":"Westgreußen","type":"Kreisangehörige_Gemeinde"},"district":{"key":"16065","name":"Kyffhäuserkreis","type":"Landkreis"},"federalState":{"key":"16","name":"Thüringen"}},{"name":"Westgreußener Str.","postalCode":"99718","locality":"Westgreußen","municipality":{"key":"16065079","name":"Westgreußen","type":"Kreisangehörige_Gemeinde"},"district":{"key":"16065","name":"Kyffhäuserkreis","type":"Landkreis"},"federalState":{"key":"16","name":"Thüringen"}},]