[{"name":"Adolf-Dietz-Str.","postalCode":"72535","locality":"Heroldstatt","municipality":{"key":"08425139","name":"Heroldstatt","type":"Kreisangehörige_Gemeinde"},"district":{"key":"08425","name":"Alb-Donau-Kreis","type":"Landkreis"},"federalState":{"key":"08","name":"Baden-Württemberg"}},{"name":"Ahornweg","postalCode":"72535","locality":"Heroldstatt","municipality":{"key":"08425139","name":"Heroldstatt","type":"Kreisangehörige_Gemeinde"},"district":{"key":"08425","name":"Alb-Donau-Kreis","type":"Landkreis"},"federalState":{"key":"08","name":"Baden-Württemberg"}},{"name":"Albstr.","postalCode":"72535","locality":"Heroldstatt","municipality":{"key":"08425139","name":"Heroldstatt","type":"Kreisangehörige_Gemeinde"},"district":{"key":"08425","name":"Alb-Donau-Kreis","type":"Landkreis"},"federalState":{"key":"08","name":"Baden-Württemberg"}},{"name":"Am Berg","postalCode":"72535","locality":"Heroldstatt","municipality":{"key":"08425139","name":"Heroldstatt","type":"Kreisangehörige_Gemeinde"},"district":{"key":"08425","name":"Alb-Donau-Kreis","type":"Landkreis"},"federalState":{"key":"08","name":"Baden-Württemberg"}},{"name":"Am Heustädele","postalCode":"72535","locality":"Heroldstatt","municipality":{"key":"08425139","name":"Heroldstatt","type":"Kreisangehörige_Gemeinde"},"district":{"key":"08425","name":"Alb-Donau-Kreis","type":"Landkreis"},"federalState":{"key":"08","name":"Baden-Württemberg"}},{"name":"Auf dem Berg","postalCode":"72535","locality":"Heroldstatt","municipality":{"key":"08425139","name":"Heroldstatt","type":"Kreisangehörige_Gemeinde"},"district":{"key":"08425","name":"Alb-Donau-Kreis","type":"Landkreis"},"federalState":{"key":"08","name":"Baden-Württemberg"}},{"name":"Bannholz","postalCode":"72535","locality":"Heroldstatt","municipality":{"key":"08425139","name":"Heroldstatt","type":"Kreisangehörige_Gemeinde"},"district":{"key":"08425","name":"Alb-Donau-Kreis","type":"Landkreis"},"federalState":{"key":"08","name":"Baden-Württemberg"}},{"name":"Beethovenstr.","postalCode":"72535","locality":"Heroldstatt","municipality":{"key":"08425139","name":"Heroldstatt","type":"Kreisangehörige_Gemeinde"},"district":{"key":"08425","name":"Alb-Donau-Kreis","type":"Landkreis"},"federalState":{"key":"08","name":"Baden-Württemberg"}},{"name":"Bergstr.","postalCode":"72535","locality":"Heroldstatt","municipality":{"key":"08425139","name":"Heroldstatt","type":"Kreisangehörige_Gemeinde"},"district":{"key":"08425","name":"Alb-Donau-Kreis","type":"Landkreis"},"federalState":{"key":"08","name":"Baden-Württemberg"}},{"name":"Birkenweg","postalCode":"72535","locality":"Heroldstatt","municipality":{"key":"08425139","name":"Heroldstatt","type":"Kreisangehörige_Gemeinde"},"district":{"key":"08425","name":"Alb-Donau-Kreis","type":"Landkreis"},"federalState":{"key":"08","name":"Baden-Württemberg"}},{"name":"Blaubeurer Weg","postalCode":"72535","locality":"Heroldstatt","municipality":{"key":"08425139","name":"Heroldstatt","type":"Kreisangehörige_Gemeinde"},"district":{"key":"08425","name":"Alb-Donau-Kreis","type":"Landkreis"},"federalState":{"key":"08","name":"Baden-Württemberg"}},{"name":"Blumenstr.","postalCode":"72535","locality":"Heroldstatt","municipality":{"key":"08425139","name":"Heroldstatt","type":"Kreisangehörige_Gemeinde"},"district":{"key":"08425","name":"Alb-Donau-Kreis","type":"Landkreis"},"federalState":{"key":"08","name":"Baden-Württemberg"}},{"name":"Boden","postalCode":"72535","locality":"Heroldstatt","municipality":{"key":"08425139","name":"Heroldstatt","type":"Kreisangehörige_Gemeinde"},"district":{"key":"08425","name":"Alb-Donau-Kreis","type":"Landkreis"},"federalState":{"key":"08","name":"Baden-Württemberg"}},{"name":"Boschstr.","postalCode":"72535","locality":"Heroldstatt","municipality":{"key":"08425139","name":"Heroldstatt","type":"Kreisangehörige_Gemeinde"},"district":{"key":"08425","name":"Alb-Donau-Kreis","type":"Landkreis"},"federalState":{"key":"08","name":"Baden-Württemberg"}},{"name":"Breitenstr.","postalCode":"72535","locality":"Heroldstatt","municipality":{"key":"08425139","name":"Heroldstatt","type":"Kreisangehörige_Gemeinde"},"district":{"key":"08425","name":"Alb-Donau-Kreis","type":"Landkreis"},"federalState":{"key":"08","name":"Baden-Württemberg"}},{"name":"Brunnenstr.","postalCode":"72535","locality":"Heroldstatt","municipality":{"key":"08425139","name":"Heroldstatt","type":"Kreisangehörige_Gemeinde"},"district":{"key":"08425","name":"Alb-Donau-Kreis","type":"Landkreis"},"federalState":{"key":"08","name":"Baden-Württemberg"}},{"name":"Buchenweg","postalCode":"72535","locality":"Heroldstatt","municipality":{"key":"08425139","name":"Heroldstatt","type":"Kreisangehörige_Gemeinde"},"district":{"key":"08425","name":"Alb-Donau-Kreis","type":"Landkreis"},"federalState":{"key":"08","name":"Baden-Württemberg"}},{"name":"Daimlerstr.","postalCode":"72535","locality":"Heroldstatt","municipality":{"key":"08425139","name":"Heroldstatt","type":"Kreisangehörige_Gemeinde"},"district":{"key":"08425","name":"Alb-Donau-Kreis","type":"Landkreis"},"federalState":{"key":"08","name":"Baden-Württemberg"}},{"name":"Dieselstr.","postalCode":"72535","locality":"Heroldstatt","municipality":{"key":"08425139","name":"Heroldstatt","type":"Kreisangehörige_Gemeinde"},"district":{"key":"08425","name":"Alb-Donau-Kreis","type":"Landkreis"},"federalState":{"key":"08","name":"Baden-Württemberg"}},{"name":"Drosselweg","postalCode":"72535","locality":"Heroldstatt","municipality":{"key":"08425139","name":"Heroldstatt","type":"Kreisangehörige_Gemeinde"},"district":{"key":"08425","name":"Alb-Donau-Kreis","type":"Landkreis"},"federalState":{"key":"08","name":"Baden-Württemberg"}},{"name":"Eichenweg","postalCode":"72535","locality":"Heroldstatt","municipality":{"key":"08425139","name":"Heroldstatt","type":"Kreisangehörige_Gemeinde"},"district":{"key":"08425","name":"Alb-Donau-Kreis","type":"Landkreis"},"federalState":{"key":"08","name":"Baden-Württemberg"}},{"name":"Eichhalde","postalCode":"72535","locality":"Heroldstatt","municipality":{"key":"08425139","name":"Heroldstatt","type":"Kreisangehörige_Gemeinde"},"district":{"key":"08425","name":"Alb-Donau-Kreis","type":"Landkreis"},"federalState":{"key":"08","name":"Baden-Württemberg"}},{"name":"Eichweg","postalCode":"72535","locality":"Heroldstatt","municipality":{"key":"08425139","name":"Heroldstatt","type":"Kreisangehörige_Gemeinde"},"district":{"key":"08425","name":"Alb-Donau-Kreis","type":"Landkreis"},"federalState":{"key":"08","name":"Baden-Württemberg"}},{"name":"Ennabeurer Weg","postalCode":"72535","locality":"Heroldstatt","municipality":{"key":"08425139","name":"Heroldstatt","type":"Kreisangehörige_Gemeinde"},"district":{"key":"08425","name":"Alb-Donau-Kreis","type":"Landkreis"},"federalState":{"key":"08","name":"Baden-Württemberg"}},{"name":"Erlenstr.","postalCode":"72535","locality":"Heroldstatt","municipality":{"key":"08425139","name":"Heroldstatt","type":"Kreisangehörige_Gemeinde"},"district":{"key":"08425","name":"Alb-Donau-Kreis","type":"Landkreis"},"federalState":{"key":"08","name":"Baden-Württemberg"}},{"name":"Eschenweg","postalCode":"72535","locality":"Heroldstatt","municipality":{"key":"08425139","name":"Heroldstatt","type":"Kreisangehörige_Gemeinde"},"district":{"key":"08425","name":"Alb-Donau-Kreis","type":"Landkreis"},"federalState":{"key":"08","name":"Baden-Württemberg"}},{"name":"Feldstetter Str.","postalCode":"72535","locality":"Heroldstatt","municipality":{"key":"08425139","name":"Heroldstatt","type":"Kreisangehörige_Gemeinde"},"district":{"key":"08425","name":"Alb-Donau-Kreis","type":"Landkreis"},"federalState":{"key":"08","name":"Baden-Württemberg"}},{"name":"Finkenweg","postalCode":"72535","locality":"Heroldstatt","municipality":{"key":"08425139","name":"Heroldstatt","type":"Kreisangehörige_Gemeinde"},"district":{"key":"08425","name":"Alb-Donau-Kreis","type":"Landkreis"},"federalState":{"key":"08","name":"Baden-Württemberg"}},{"name":"Flurstr.","postalCode":"72535","locality":"Heroldstatt","municipality":{"key":"08425139","name":"Heroldstatt","type":"Kreisangehörige_Gemeinde"},"district":{"key":"08425","name":"Alb-Donau-Kreis","type":"Landkreis"},"federalState":{"key":"08","name":"Baden-Württemberg"}},{"name":"Gartenstr.","postalCode":"72535","locality":"Heroldstatt","municipality":{"key":"08425139","name":"Heroldstatt","type":"Kreisangehörige_Gemeinde"},"district":{"key":"08425","name":"Alb-Donau-Kreis","type":"Landkreis"},"federalState":{"key":"08","name":"Baden-Württemberg"}},{"name":"Gewerbestr.","postalCode":"72535","locality":"Heroldstatt","municipality":{"key":"08425139","name":"Heroldstatt","type":"Kreisangehörige_Gemeinde"},"district":{"key":"08425","name":"Alb-Donau-Kreis","type":"Landkreis"},"federalState":{"key":"08","name":"Baden-Württemberg"}},{"name":"Haselweg","postalCode":"72535","locality":"Heroldstatt","municipality":{"key":"08425139","name":"Heroldstatt","type":"Kreisangehörige_Gemeinde"},"district":{"key":"08425","name":"Alb-Donau-Kreis","type":"Landkreis"},"federalState":{"key":"08","name":"Baden-Württemberg"}},{"name":"Haydnstr.","postalCode":"72535","locality":"Heroldstatt","municipality":{"key":"08425139","name":"Heroldstatt","type":"Kreisangehörige_Gemeinde"},"district":{"key":"08425","name":"Alb-Donau-Kreis","type":"Landkreis"},"federalState":{"key":"08","name":"Baden-Württemberg"}},{"name":"Heiliger Berg","postalCode":"72535","locality":"Heroldstatt","municipality":{"key":"08425139","name":"Heroldstatt","type":"Kreisangehörige_Gemeinde"},"district":{"key":"08425","name":"Alb-Donau-Kreis","type":"Landkreis"},"federalState":{"key":"08","name":"Baden-Württemberg"}},{"name":"Heroldstetter Weg","postalCode":"72535","locality":"Heroldstatt","municipality":{"key":"08425139","name":"Heroldstatt","type":"Kreisangehörige_Gemeinde"},"district":{"key":"08425","name":"Alb-Donau-Kreis","type":"Landkreis"},"federalState":{"key":"08","name":"Baden-Württemberg"}},{"name":"Hirnhauweg","postalCode":"72535","locality":"Heroldstatt","municipality":{"key":"08425139","name":"Heroldstatt","type":"Kreisangehörige_Gemeinde"},"district":{"key":"08425","name":"Alb-Donau-Kreis","type":"Landkreis"},"federalState":{"key":"08","name":"Baden-Württemberg"}},{"name":"Hirningshütteweg","postalCode":"72535","locality":"Heroldstatt","municipality":{"key":"08425139","name":"Heroldstatt","type":"Kreisangehörige_Gemeinde"},"district":{"key":"08425","name":"Alb-Donau-Kreis","type":"Landkreis"},"federalState":{"key":"08","name":"Baden-Württemberg"}},{"name":"Hofsiedlung","postalCode":"72535","locality":"Heroldstatt","municipality":{"key":"08425139","name":"Heroldstatt","type":"Kreisangehörige_Gemeinde"},"district":{"key":"08425","name":"Alb-Donau-Kreis","type":"Landkreis"},"federalState":{"key":"08","name":"Baden-Württemberg"}},{"name":"Höhenstr.","postalCode":"72535","locality":"Heroldstatt","municipality":{"key":"08425139","name":"Heroldstatt","type":"Kreisangehörige_Gemeinde"},"district":{"key":"08425","name":"Alb-Donau-Kreis","type":"Landkreis"},"federalState":{"key":"08","name":"Baden-Württemberg"}},{"name":"Holunderweg","postalCode":"72535","locality":"Heroldstatt","municipality":{"key":"08425139","name":"Heroldstatt","type":"Kreisangehörige_Gemeinde"},"district":{"key":"08425","name":"Alb-Donau-Kreis","type":"Landkreis"},"federalState":{"key":"08","name":"Baden-Württemberg"}},{"name":"Hülbenstr.","postalCode":"72535","locality":"Heroldstatt","municipality":{"key":"08425139","name":"Heroldstatt","type":"Kreisangehörige_Gemeinde"},"district":{"key":"08425","name":"Alb-Donau-Kreis","type":"Landkreis"},"federalState":{"key":"08","name":"Baden-Württemberg"}},{"name":"Im Brunnengäßle","postalCode":"72535","locality":"Heroldstatt","municipality":{"key":"08425139","name":"Heroldstatt","type":"Kreisangehörige_Gemeinde"},"district":{"key":"08425","name":"Alb-Donau-Kreis","type":"Landkreis"},"federalState":{"key":"08","name":"Baden-Württemberg"}},{"name":"Justinger Weg","postalCode":"72535","locality":"Heroldstatt","municipality":{"key":"08425139","name":"Heroldstatt","type":"Kreisangehörige_Gemeinde"},"district":{"key":"08425","name":"Alb-Donau-Kreis","type":"Landkreis"},"federalState":{"key":"08","name":"Baden-Württemberg"}},{"name":"Kaltenbuchweg","postalCode":"72535","locality":"Heroldstatt","municipality":{"key":"08425139","name":"Heroldstatt","type":"Kreisangehörige_Gemeinde"},"district":{"key":"08425","name":"Alb-Donau-Kreis","type":"Landkreis"},"federalState":{"key":"08","name":"Baden-Württemberg"}},{"name":"Kirchgasse","postalCode":"72535","locality":"Heroldstatt","municipality":{"key":"08425139","name":"Heroldstatt","type":"Kreisangehörige_Gemeinde"},"district":{"key":"08425","name":"Alb-Donau-Kreis","type":"Landkreis"},"federalState":{"key":"08","name":"Baden-Württemberg"}},{"name":"Kohlhalde","postalCode":"72535","locality":"Heroldstatt","municipality":{"key":"08425139","name":"Heroldstatt","type":"Kreisangehörige_Gemeinde"},"district":{"key":"08425","name":"Alb-Donau-Kreis","type":"Landkreis"},"federalState":{"key":"08","name":"Baden-Württemberg"}},{"name":"Laichinger Str.","postalCode":"72535","locality":"Heroldstatt","municipality":{"key":"08425139","name":"Heroldstatt","type":"Kreisangehörige_Gemeinde"},"district":{"key":"08425","name":"Alb-Donau-Kreis","type":"Landkreis"},"federalState":{"key":"08","name":"Baden-Württemberg"}},{"name":"Landsbühl","postalCode":"72535","locality":"Heroldstatt","municipality":{"key":"08425139","name":"Heroldstatt","type":"Kreisangehörige_Gemeinde"},"district":{"key":"08425","name":"Alb-Donau-Kreis","type":"Landkreis"},"federalState":{"key":"08","name":"Baden-Württemberg"}},{"name":"Lange Str.","postalCode":"72535","locality":"Heroldstatt","municipality":{"key":"08425139","name":"Heroldstatt","type":"Kreisangehörige_Gemeinde"},"district":{"key":"08425","name":"Alb-Donau-Kreis","type":"Landkreis"},"federalState":{"key":"08","name":"Baden-Württemberg"}},{"name":"Lärchenweg","postalCode":"72535","locality":"Heroldstatt","municipality":{"key":"08425139","name":"Heroldstatt","type":"Kreisangehörige_Gemeinde"},"district":{"key":"08425","name":"Alb-Donau-Kreis","type":"Landkreis"},"federalState":{"key":"08","name":"Baden-Württemberg"}},{"name":"Ligusterweg","postalCode":"72535","locality":"Heroldstatt","municipality":{"key":"08425139","name":"Heroldstatt","type":"Kreisangehörige_Gemeinde"},"district":{"key":"08425","name":"Alb-Donau-Kreis","type":"Landkreis"},"federalState":{"key":"08","name":"Baden-Württemberg"}},{"name":"Lindenhof","postalCode":"72535","locality":"Heroldstatt","municipality":{"key":"08425139","name":"Heroldstatt","type":"Kreisangehörige_Gemeinde"},"district":{"key":"08425","name":"Alb-Donau-Kreis","type":"Landkreis"},"federalState":{"key":"08","name":"Baden-Württemberg"}},{"name":"Lindenstr.","postalCode":"72535","locality":"Heroldstatt","municipality":{"key":"08425139","name":"Heroldstatt","type":"Kreisangehörige_Gemeinde"},"district":{"key":"08425","name":"Alb-Donau-Kreis","type":"Landkreis"},"federalState":{"key":"08","name":"Baden-Württemberg"}},{"name":"Meisenweg","postalCode":"72535","locality":"Heroldstatt","municipality":{"key":"08425139","name":"Heroldstatt","type":"Kreisangehörige_Gemeinde"},"district":{"key":"08425","name":"Alb-Donau-Kreis","type":"Landkreis"},"federalState":{"key":"08","name":"Baden-Württemberg"}},{"name":"Mozartweg","postalCode":"72535","locality":"Heroldstatt","municipality":{"key":"08425139","name":"Heroldstatt","type":"Kreisangehörige_Gemeinde"},"district":{"key":"08425","name":"Alb-Donau-Kreis","type":"Landkreis"},"federalState":{"key":"08","name":"Baden-Württemberg"}},{"name":"Mühlweg","postalCode":"72535","locality":"Heroldstatt","municipality":{"key":"08425139","name":"Heroldstatt","type":"Kreisangehörige_Gemeinde"},"district":{"key":"08425","name":"Alb-Donau-Kreis","type":"Landkreis"},"federalState":{"key":"08","name":"Baden-Württemberg"}},{"name":"Münsinger Str.","postalCode":"72535","locality":"Heroldstatt","municipality":{"key":"08425139","name":"Heroldstatt","type":"Kreisangehörige_Gemeinde"},"district":{"key":"08425","name":"Alb-Donau-Kreis","type":"Landkreis"},"federalState":{"key":"08","name":"Baden-Württemberg"}},{"name":"Neubachweg","postalCode":"72535","locality":"Heroldstatt","municipality":{"key":"08425139","name":"Heroldstatt","type":"Kreisangehörige_Gemeinde"},"district":{"key":"08425","name":"Alb-Donau-Kreis","type":"Landkreis"},"federalState":{"key":"08","name":"Baden-Württemberg"}},{"name":"Neue Siedlung","postalCode":"72535","locality":"Heroldstatt","municipality":{"key":"08425139","name":"Heroldstatt","type":"Kreisangehörige_Gemeinde"},"district":{"key":"08425","name":"Alb-Donau-Kreis","type":"Landkreis"},"federalState":{"key":"08","name":"Baden-Württemberg"}},{"name":"Ober dem Rauhbucherhäule","postalCode":"72535","locality":"Heroldstatt","municipality":{"key":"08425139","name":"Heroldstatt","type":"Kreisangehörige_Gemeinde"},"district":{"key":"08425","name":"Alb-Donau-Kreis","type":"Landkreis"},"federalState":{"key":"08","name":"Baden-Württemberg"}},{"name":"Panoramaweg","postalCode":"72535","locality":"Heroldstatt","municipality":{"key":"08425139","name":"Heroldstatt","type":"Kreisangehörige_Gemeinde"},"district":{"key":"08425","name":"Alb-Donau-Kreis","type":"Landkreis"},"federalState":{"key":"08","name":"Baden-Württemberg"}},{"name":"Pater-Kentenich-Weg","postalCode":"72535","locality":"Heroldstatt","municipality":{"key":"08425139","name":"Heroldstatt","type":"Kreisangehörige_Gemeinde"},"district":{"key":"08425","name":"Alb-Donau-Kreis","type":"Landkreis"},"federalState":{"key":"08","name":"Baden-Württemberg"}},{"name":"Reiterhof","postalCode":"72535","locality":"Heroldstatt","municipality":{"key":"08425139","name":"Heroldstatt","type":"Kreisangehörige_Gemeinde"},"district":{"key":"08425","name":"Alb-Donau-Kreis","type":"Landkreis"},"federalState":{"key":"08","name":"Baden-Württemberg"}},{"name":"Remontedepot","postalCode":"72535","locality":"Heroldstatt","municipality":{"key":"08425139","name":"Heroldstatt","type":"Kreisangehörige_Gemeinde"},"district":{"key":"08425","name":"Alb-Donau-Kreis","type":"Landkreis"},"federalState":{"key":"08","name":"Baden-Württemberg"}},{"name":"Ringstr.","postalCode":"72535","locality":"Heroldstatt","municipality":{"key":"08425139","name":"Heroldstatt","type":"Kreisangehörige_Gemeinde"},"district":{"key":"08425","name":"Alb-Donau-Kreis","type":"Landkreis"},"federalState":{"key":"08","name":"Baden-Württemberg"}},{"name":"Schießwinkel","postalCode":"72535","locality":"Heroldstatt","municipality":{"key":"08425139","name":"Heroldstatt","type":"Kreisangehörige_Gemeinde"},"district":{"key":"08425","name":"Alb-Donau-Kreis","type":"Landkreis"},"federalState":{"key":"08","name":"Baden-Württemberg"}},{"name":"Schillerstr.","postalCode":"72535","locality":"Heroldstatt","municipality":{"key":"08425139","name":"Heroldstatt","type":"Kreisangehörige_Gemeinde"},"district":{"key":"08425","name":"Alb-Donau-Kreis","type":"Landkreis"},"federalState":{"key":"08","name":"Baden-Württemberg"}},{"name":"Schlehenweg","postalCode":"72535","locality":"Heroldstatt","municipality":{"key":"08425139","name":"Heroldstatt","type":"Kreisangehörige_Gemeinde"},"district":{"key":"08425","name":"Alb-Donau-Kreis","type":"Landkreis"},"federalState":{"key":"08","name":"Baden-Württemberg"}},{"name":"Schlenkgasse","postalCode":"72535","locality":"Heroldstatt","municipality":{"key":"08425139","name":"Heroldstatt","type":"Kreisangehörige_Gemeinde"},"district":{"key":"08425","name":"Alb-Donau-Kreis","type":"Landkreis"},"federalState":{"key":"08","name":"Baden-Württemberg"}},{"name":"Schubertstr.","postalCode":"72535","locality":"Heroldstatt","municipality":{"key":"08425139","name":"Heroldstatt","type":"Kreisangehörige_Gemeinde"},"district":{"key":"08425","name":"Alb-Donau-Kreis","type":"Landkreis"},"federalState":{"key":"08","name":"Baden-Württemberg"}},{"name":"Schulstr.","postalCode":"72535","locality":"Heroldstatt","municipality":{"key":"08425139","name":"Heroldstatt","type":"Kreisangehörige_Gemeinde"},"district":{"key":"08425","name":"Alb-Donau-Kreis","type":"Landkreis"},"federalState":{"key":"08","name":"Baden-Württemberg"}},{"name":"Schumannweg","postalCode":"72535","locality":"Heroldstatt","municipality":{"key":"08425139","name":"Heroldstatt","type":"Kreisangehörige_Gemeinde"},"district":{"key":"08425","name":"Alb-Donau-Kreis","type":"Landkreis"},"federalState":{"key":"08","name":"Baden-Württemberg"}},{"name":"Schwabenstr.","postalCode":"72535","locality":"Heroldstatt","municipality":{"key":"08425139","name":"Heroldstatt","type":"Kreisangehörige_Gemeinde"},"district":{"key":"08425","name":"Alb-Donau-Kreis","type":"Landkreis"},"federalState":{"key":"08","name":"Baden-Württemberg"}},{"name":"Siemensstr.","postalCode":"72535","locality":"Heroldstatt","municipality":{"key":"08425139","name":"Heroldstatt","type":"Kreisangehörige_Gemeinde"},"district":{"key":"08425","name":"Alb-Donau-Kreis","type":"Landkreis"},"federalState":{"key":"08","name":"Baden-Württemberg"}},{"name":"Silberdistelweg","postalCode":"72535","locality":"Heroldstatt","municipality":{"key":"08425139","name":"Heroldstatt","type":"Kreisangehörige_Gemeinde"},"district":{"key":"08425","name":"Alb-Donau-Kreis","type":"Landkreis"},"federalState":{"key":"08","name":"Baden-Württemberg"}},{"name":"Silcherweg","postalCode":"72535","locality":"Heroldstatt","municipality":{"key":"08425139","name":"Heroldstatt","type":"Kreisangehörige_Gemeinde"},"district":{"key":"08425","name":"Alb-Donau-Kreis","type":"Landkreis"},"federalState":{"key":"08","name":"Baden-Württemberg"}},{"name":"Sonnenweg","postalCode":"72535","locality":"Heroldstatt","municipality":{"key":"08425139","name":"Heroldstatt","type":"Kreisangehörige_Gemeinde"},"district":{"key":"08425","name":"Alb-Donau-Kreis","type":"Landkreis"},"federalState":{"key":"08","name":"Baden-Württemberg"}},{"name":"Starenweg","postalCode":"72535","locality":"Heroldstatt","municipality":{"key":"08425139","name":"Heroldstatt","type":"Kreisangehörige_Gemeinde"},"district":{"key":"08425","name":"Alb-Donau-Kreis","type":"Landkreis"},"federalState":{"key":"08","name":"Baden-Württemberg"}},{"name":"Steigle","postalCode":"72535","locality":"Heroldstatt","municipality":{"key":"08425139","name":"Heroldstatt","type":"Kreisangehörige_Gemeinde"},"district":{"key":"08425","name":"Alb-Donau-Kreis","type":"Landkreis"},"federalState":{"key":"08","name":"Baden-Württemberg"}},{"name":"Steinge","postalCode":"72535","locality":"Heroldstatt","municipality":{"key":"08425139","name":"Heroldstatt","type":"Kreisangehörige_Gemeinde"},"district":{"key":"08425","name":"Alb-Donau-Kreis","type":"Landkreis"},"federalState":{"key":"08","name":"Baden-Württemberg"}},{"name":"Steinstetter Str.","postalCode":"72535","locality":"Heroldstatt","municipality":{"key":"08425139","name":"Heroldstatt","type":"Kreisangehörige_Gemeinde"},"district":{"key":"08425","name":"Alb-Donau-Kreis","type":"Landkreis"},"federalState":{"key":"08","name":"Baden-Württemberg"}},{"name":"Suppinger Weg","postalCode":"72535","locality":"Heroldstatt","municipality":{"key":"08425139","name":"Heroldstatt","type":"Kreisangehörige_Gemeinde"},"district":{"key":"08425","name":"Alb-Donau-Kreis","type":"Landkreis"},"federalState":{"key":"08","name":"Baden-Württemberg"}},{"name":"Tannenweg","postalCode":"72535","locality":"Heroldstatt","municipality":{"key":"08425139","name":"Heroldstatt","type":"Kreisangehörige_Gemeinde"},"district":{"key":"08425","name":"Alb-Donau-Kreis","type":"Landkreis"},"federalState":{"key":"08","name":"Baden-Württemberg"}},{"name":"Taubergweg","postalCode":"72535","locality":"Heroldstatt","municipality":{"key":"08425139","name":"Heroldstatt","type":"Kreisangehörige_Gemeinde"},"district":{"key":"08425","name":"Alb-Donau-Kreis","type":"Landkreis"},"federalState":{"key":"08","name":"Baden-Württemberg"}},{"name":"Tiefentalweg","postalCode":"72535","locality":"Heroldstatt","municipality":{"key":"08425139","name":"Heroldstatt","type":"Kreisangehörige_Gemeinde"},"district":{"key":"08425","name":"Alb-Donau-Kreis","type":"Landkreis"},"federalState":{"key":"08","name":"Baden-Württemberg"}},{"name":"Uhlandstr.","postalCode":"72535","locality":"Heroldstatt","municipality":{"key":"08425139","name":"Heroldstatt","type":"Kreisangehörige_Gemeinde"},"district":{"key":"08425","name":"Alb-Donau-Kreis","type":"Landkreis"},"federalState":{"key":"08","name":"Baden-Württemberg"}},{"name":"Ulmenweg","postalCode":"72535","locality":"Heroldstatt","municipality":{"key":"08425139","name":"Heroldstatt","type":"Kreisangehörige_Gemeinde"},"district":{"key":"08425","name":"Alb-Donau-Kreis","type":"Landkreis"},"federalState":{"key":"08","name":"Baden-Württemberg"}},{"name":"Ulmer Str.","postalCode":"72535","locality":"Heroldstatt","municipality":{"key":"08425139","name":"Heroldstatt","type":"Kreisangehörige_Gemeinde"},"district":{"key":"08425","name":"Alb-Donau-Kreis","type":"Landkreis"},"federalState":{"key":"08","name":"Baden-Württemberg"}},{"name":"Untere Gasse","postalCode":"72535","locality":"Heroldstatt","municipality":{"key":"08425139","name":"Heroldstatt","type":"Kreisangehörige_Gemeinde"},"district":{"key":"08425","name":"Alb-Donau-Kreis","type":"Landkreis"},"federalState":{"key":"08","name":"Baden-Württemberg"}},{"name":"Wacholderweg","postalCode":"72535","locality":"Heroldstatt","municipality":{"key":"08425139","name":"Heroldstatt","type":"Kreisangehörige_Gemeinde"},"district":{"key":"08425","name":"Alb-Donau-Kreis","type":"Landkreis"},"federalState":{"key":"08","name":"Baden-Württemberg"}},{"name":"Wagnerstr.","postalCode":"72535","locality":"Heroldstatt","municipality":{"key":"08425139","name":"Heroldstatt","type":"Kreisangehörige_Gemeinde"},"district":{"key":"08425","name":"Alb-Donau-Kreis","type":"Landkreis"},"federalState":{"key":"08","name":"Baden-Württemberg"}},{"name":"Waldstetter Weg","postalCode":"72535","locality":"Heroldstatt","municipality":{"key":"08425139","name":"Heroldstatt","type":"Kreisangehörige_Gemeinde"},"district":{"key":"08425","name":"Alb-Donau-Kreis","type":"Landkreis"},"federalState":{"key":"08","name":"Baden-Württemberg"}},{"name":"Wasserstein","postalCode":"72535","locality":"Heroldstatt","municipality":{"key":"08425139","name":"Heroldstatt","type":"Kreisangehörige_Gemeinde"},"district":{"key":"08425","name":"Alb-Donau-Kreis","type":"Landkreis"},"federalState":{"key":"08","name":"Baden-Württemberg"}},{"name":"Weberstr.","postalCode":"72535","locality":"Heroldstatt","municipality":{"key":"08425139","name":"Heroldstatt","type":"Kreisangehörige_Gemeinde"},"district":{"key":"08425","name":"Alb-Donau-Kreis","type":"Landkreis"},"federalState":{"key":"08","name":"Baden-Württemberg"}},{"name":"Weidenstr.","postalCode":"72535","locality":"Heroldstatt","municipality":{"key":"08425139","name":"Heroldstatt","type":"Kreisangehörige_Gemeinde"},"district":{"key":"08425","name":"Alb-Donau-Kreis","type":"Landkreis"},"federalState":{"key":"08","name":"Baden-Württemberg"}},{"name":"Weißdornweg","postalCode":"72535","locality":"Heroldstatt","municipality":{"key":"08425139","name":"Heroldstatt","type":"Kreisangehörige_Gemeinde"},"district":{"key":"08425","name":"Alb-Donau-Kreis","type":"Landkreis"},"federalState":{"key":"08","name":"Baden-Württemberg"}},{"name":"Wiesenstr.","postalCode":"72535","locality":"Heroldstatt","municipality":{"key":"08425139","name":"Heroldstatt","type":"Kreisangehörige_Gemeinde"},"district":{"key":"08425","name":"Alb-Donau-Kreis","type":"Landkreis"},"federalState":{"key":"08","name":"Baden-Württemberg"}},{"name":"Wörthstr.","postalCode":"72535","locality":"Heroldstatt","municipality":{"key":"08425139","name":"Heroldstatt","type":"Kreisangehörige_Gemeinde"},"district":{"key":"08425","name":"Alb-Donau-Kreis","type":"Landkreis"},"federalState":{"key":"08","name":"Baden-Württemberg"}},{"name":"Zeppelinstrasße","postalCode":"72535","locality":"Heroldstatt","municipality":{"key":"08425139","name":"Heroldstatt","type":"Kreisangehörige_Gemeinde"},"district":{"key":"08425","name":"Alb-Donau-Kreis","type":"Landkreis"},"federalState":{"key":"08","name":"Baden-Württemberg"}},]