[{"name":"Acisbrunnen","postalCode":"36381","locality":"Schlüchtern","municipality":{"key":"06435025","name":"Schlüchtern, Stadt","type":"Stadt"},"district":{"key":"06435","name":"Main-Kinzig-Kreis","type":"Landkreis"},"federalState":{"key":"06","name":"Hessen"}},{"name":"Acisweg","postalCode":"36381","locality":"Schlüchtern","municipality":{"key":"06435025","name":"Schlüchtern, Stadt","type":"Stadt"},"district":{"key":"06435","name":"Main-Kinzig-Kreis","type":"Landkreis"},"federalState":{"key":"06","name":"Hessen"}},{"name":"Ahlersbacher Str.","postalCode":"36381","locality":"Schlüchtern","municipality":{"key":"06435025","name":"Schlüchtern, Stadt","type":"Stadt"},"district":{"key":"06435","name":"Main-Kinzig-Kreis","type":"Landkreis"},"federalState":{"key":"06","name":"Hessen"}},{"name":"Ahornweg","postalCode":"36381","locality":"Schlüchtern","municipality":{"key":"06435025","name":"Schlüchtern, Stadt","type":"Stadt"},"district":{"key":"06435","name":"Main-Kinzig-Kreis","type":"Landkreis"},"federalState":{"key":"06","name":"Hessen"}},{"name":"Akazienstr.","postalCode":"36381","locality":"Schlüchtern","municipality":{"key":"06435025","name":"Schlüchtern, Stadt","type":"Stadt"},"district":{"key":"06435","name":"Main-Kinzig-Kreis","type":"Landkreis"},"federalState":{"key":"06","name":"Hessen"}},{"name":"Alte Ahlersbacher Str.","postalCode":"36381","locality":"Schlüchtern","municipality":{"key":"06435025","name":"Schlüchtern, Stadt","type":"Stadt"},"district":{"key":"06435","name":"Main-Kinzig-Kreis","type":"Landkreis"},"federalState":{"key":"06","name":"Hessen"}},{"name":"Alte Bahnhofstr.","postalCode":"36381","locality":"Schlüchtern","municipality":{"key":"06435025","name":"Schlüchtern, Stadt","type":"Stadt"},"district":{"key":"06435","name":"Main-Kinzig-Kreis","type":"Landkreis"},"federalState":{"key":"06","name":"Hessen"}},{"name":"Alte Bellingser Str.","postalCode":"36381","locality":"Schlüchtern","municipality":{"key":"06435025","name":"Schlüchtern, Stadt","type":"Stadt"},"district":{"key":"06435","name":"Main-Kinzig-Kreis","type":"Landkreis"},"federalState":{"key":"06","name":"Hessen"}},{"name":"Alte Gasse","postalCode":"36381","locality":"Schlüchtern","municipality":{"key":"06435025","name":"Schlüchtern, Stadt","type":"Stadt"},"district":{"key":"06435","name":"Main-Kinzig-Kreis","type":"Landkreis"},"federalState":{"key":"06","name":"Hessen"}},{"name":"Alte Hohenzeller Str.","postalCode":"36381","locality":"Schlüchtern","municipality":{"key":"06435025","name":"Schlüchtern, Stadt","type":"Stadt"},"district":{"key":"06435","name":"Main-Kinzig-Kreis","type":"Landkreis"},"federalState":{"key":"06","name":"Hessen"}},{"name":"Alte Steinauer Str.","postalCode":"36381","locality":"Schlüchtern","municipality":{"key":"06435025","name":"Schlüchtern, Stadt","type":"Stadt"},"district":{"key":"06435","name":"Main-Kinzig-Kreis","type":"Landkreis"},"federalState":{"key":"06","name":"Hessen"}},{"name":"Alte Str.","postalCode":"36381","locality":"Schlüchtern","municipality":{"key":"06435025","name":"Schlüchtern, Stadt","type":"Stadt"},"district":{"key":"06435","name":"Main-Kinzig-Kreis","type":"Landkreis"},"federalState":{"key":"06","name":"Hessen"}},{"name":"Am Aspe","postalCode":"36381","locality":"Schlüchtern","municipality":{"key":"06435025","name":"Schlüchtern, Stadt","type":"Stadt"},"district":{"key":"06435","name":"Main-Kinzig-Kreis","type":"Landkreis"},"federalState":{"key":"06","name":"Hessen"}},{"name":"Am Bahnhof","postalCode":"36381","locality":"Schlüchtern","municipality":{"key":"06435025","name":"Schlüchtern, Stadt","type":"Stadt"},"district":{"key":"06435","name":"Main-Kinzig-Kreis","type":"Landkreis"},"federalState":{"key":"06","name":"Hessen"}},{"name":"Am Birkes","postalCode":"36381","locality":"Schlüchtern","municipality":{"key":"06435025","name":"Schlüchtern, Stadt","type":"Stadt"},"district":{"key":"06435","name":"Main-Kinzig-Kreis","type":"Landkreis"},"federalState":{"key":"06","name":"Hessen"}},{"name":"Am Brühl","postalCode":"36381","locality":"Schlüchtern","municipality":{"key":"06435025","name":"Schlüchtern, Stadt","type":"Stadt"},"district":{"key":"06435","name":"Main-Kinzig-Kreis","type":"Landkreis"},"federalState":{"key":"06","name":"Hessen"}},{"name":"Am Buchenberg","postalCode":"36381","locality":"Schlüchtern","municipality":{"key":"06435025","name":"Schlüchtern, Stadt","type":"Stadt"},"district":{"key":"06435","name":"Main-Kinzig-Kreis","type":"Landkreis"},"federalState":{"key":"06","name":"Hessen"}},{"name":"Am Dreibrüderhof","postalCode":"36381","locality":"Schlüchtern","municipality":{"key":"06435025","name":"Schlüchtern, Stadt","type":"Stadt"},"district":{"key":"06435","name":"Main-Kinzig-Kreis","type":"Landkreis"},"federalState":{"key":"06","name":"Hessen"}},{"name":"Am Eichholz","postalCode":"36381","locality":"Schlüchtern","municipality":{"key":"06435025","name":"Schlüchtern, Stadt","type":"Stadt"},"district":{"key":"06435","name":"Main-Kinzig-Kreis","type":"Landkreis"},"federalState":{"key":"06","name":"Hessen"}},{"name":"Am Elmacker","postalCode":"36381","locality":"Schlüchtern","municipality":{"key":"06435025","name":"Schlüchtern, Stadt","type":"Stadt"},"district":{"key":"06435","name":"Main-Kinzig-Kreis","type":"Landkreis"},"federalState":{"key":"06","name":"Hessen"}},{"name":"Am Galgenberg","postalCode":"36381","locality":"Schlüchtern","municipality":{"key":"06435025","name":"Schlüchtern, Stadt","type":"Stadt"},"district":{"key":"06435","name":"Main-Kinzig-Kreis","type":"Landkreis"},"federalState":{"key":"06","name":"Hessen"}},{"name":"Am Gartenrain","postalCode":"36381","locality":"Schlüchtern","municipality":{"key":"06435025","name":"Schlüchtern, Stadt","type":"Stadt"},"district":{"key":"06435","name":"Main-Kinzig-Kreis","type":"Landkreis"},"federalState":{"key":"06","name":"Hessen"}},{"name":"Am Gläserberg","postalCode":"36381","locality":"Schlüchtern","municipality":{"key":"06435025","name":"Schlüchtern, Stadt","type":"Stadt"},"district":{"key":"06435","name":"Main-Kinzig-Kreis","type":"Landkreis"},"federalState":{"key":"06","name":"Hessen"}},{"name":"Am Hainzenberg","postalCode":"36381","locality":"Schlüchtern","municipality":{"key":"06435025","name":"Schlüchtern, Stadt","type":"Stadt"},"district":{"key":"06435","name":"Main-Kinzig-Kreis","type":"Landkreis"},"federalState":{"key":"06","name":"Hessen"}},{"name":"Am Hang","postalCode":"36381","locality":"Schlüchtern","municipality":{"key":"06435025","name":"Schlüchtern, Stadt","type":"Stadt"},"district":{"key":"06435","name":"Main-Kinzig-Kreis","type":"Landkreis"},"federalState":{"key":"06","name":"Hessen"}},{"name":"Am Höfchen","postalCode":"36381","locality":"Schlüchtern","municipality":{"key":"06435025","name":"Schlüchtern, Stadt","type":"Stadt"},"district":{"key":"06435","name":"Main-Kinzig-Kreis","type":"Landkreis"},"federalState":{"key":"06","name":"Hessen"}},{"name":"Am Hollerberg","postalCode":"36381","locality":"Schlüchtern","municipality":{"key":"06435025","name":"Schlüchtern, Stadt","type":"Stadt"},"district":{"key":"06435","name":"Main-Kinzig-Kreis","type":"Landkreis"},"federalState":{"key":"06","name":"Hessen"}},{"name":"Am Hopfenacker","postalCode":"36381","locality":"Schlüchtern","municipality":{"key":"06435025","name":"Schlüchtern, Stadt","type":"Stadt"},"district":{"key":"06435","name":"Main-Kinzig-Kreis","type":"Landkreis"},"federalState":{"key":"06","name":"Hessen"}},{"name":"Am Kinzigberg","postalCode":"36381","locality":"Schlüchtern","municipality":{"key":"06435025","name":"Schlüchtern, Stadt","type":"Stadt"},"district":{"key":"06435","name":"Main-Kinzig-Kreis","type":"Landkreis"},"federalState":{"key":"06","name":"Hessen"}},{"name":"Am Klößchen","postalCode":"36381","locality":"Schlüchtern","municipality":{"key":"06435025","name":"Schlüchtern, Stadt","type":"Stadt"},"district":{"key":"06435","name":"Main-Kinzig-Kreis","type":"Landkreis"},"federalState":{"key":"06","name":"Hessen"}},{"name":"Am Köllerfeld","postalCode":"36381","locality":"Schlüchtern","municipality":{"key":"06435025","name":"Schlüchtern, Stadt","type":"Stadt"},"district":{"key":"06435","name":"Main-Kinzig-Kreis","type":"Landkreis"},"federalState":{"key":"06","name":"Hessen"}},{"name":"Am Linsengarten","postalCode":"36381","locality":"Schlüchtern","municipality":{"key":"06435025","name":"Schlüchtern, Stadt","type":"Stadt"},"district":{"key":"06435","name":"Main-Kinzig-Kreis","type":"Landkreis"},"federalState":{"key":"06","name":"Hessen"}},{"name":"Am Mühlacker","postalCode":"36381","locality":"Schlüchtern","municipality":{"key":"06435025","name":"Schlüchtern, Stadt","type":"Stadt"},"district":{"key":"06435","name":"Main-Kinzig-Kreis","type":"Landkreis"},"federalState":{"key":"06","name":"Hessen"}},{"name":"Am Mühlgraben","postalCode":"36381","locality":"Schlüchtern","municipality":{"key":"06435025","name":"Schlüchtern, Stadt","type":"Stadt"},"district":{"key":"06435","name":"Main-Kinzig-Kreis","type":"Landkreis"},"federalState":{"key":"06","name":"Hessen"}},{"name":"Am Reitacker","postalCode":"36381","locality":"Schlüchtern","municipality":{"key":"06435025","name":"Schlüchtern, Stadt","type":"Stadt"},"district":{"key":"06435","name":"Main-Kinzig-Kreis","type":"Landkreis"},"federalState":{"key":"06","name":"Hessen"}},{"name":"Am Reitstück","postalCode":"36381","locality":"Schlüchtern","municipality":{"key":"06435025","name":"Schlüchtern, Stadt","type":"Stadt"},"district":{"key":"06435","name":"Main-Kinzig-Kreis","type":"Landkreis"},"federalState":{"key":"06","name":"Hessen"}},{"name":"Am Riedbach","postalCode":"36381","locality":"Schlüchtern","municipality":{"key":"06435025","name":"Schlüchtern, Stadt","type":"Stadt"},"district":{"key":"06435","name":"Main-Kinzig-Kreis","type":"Landkreis"},"federalState":{"key":"06","name":"Hessen"}},{"name":"Am Ring","postalCode":"36381","locality":"Schlüchtern","municipality":{"key":"06435025","name":"Schlüchtern, Stadt","type":"Stadt"},"district":{"key":"06435","name":"Main-Kinzig-Kreis","type":"Landkreis"},"federalState":{"key":"06","name":"Hessen"}},{"name":"Am Röderwasser","postalCode":"36381","locality":"Schlüchtern","municipality":{"key":"06435025","name":"Schlüchtern, Stadt","type":"Stadt"},"district":{"key":"06435","name":"Main-Kinzig-Kreis","type":"Landkreis"},"federalState":{"key":"06","name":"Hessen"}},{"name":"Am Rustel","postalCode":"36381","locality":"Schlüchtern","municipality":{"key":"06435025","name":"Schlüchtern, Stadt","type":"Stadt"},"district":{"key":"06435","name":"Main-Kinzig-Kreis","type":"Landkreis"},"federalState":{"key":"06","name":"Hessen"}},{"name":"Am Schloßborn","postalCode":"36381","locality":"Schlüchtern","municipality":{"key":"06435025","name":"Schlüchtern, Stadt","type":"Stadt"},"district":{"key":"06435","name":"Main-Kinzig-Kreis","type":"Landkreis"},"federalState":{"key":"06","name":"Hessen"}},{"name":"Am Schwimmbad","postalCode":"36381","locality":"Schlüchtern","municipality":{"key":"06435025","name":"Schlüchtern, Stadt","type":"Stadt"},"district":{"key":"06435","name":"Main-Kinzig-Kreis","type":"Landkreis"},"federalState":{"key":"06","name":"Hessen"}},{"name":"Am Sensenberg","postalCode":"36381","locality":"Schlüchtern","municipality":{"key":"06435025","name":"Schlüchtern, Stadt","type":"Stadt"},"district":{"key":"06435","name":"Main-Kinzig-Kreis","type":"Landkreis"},"federalState":{"key":"06","name":"Hessen"}},{"name":"Am Sportplatz","postalCode":"36381","locality":"Schlüchtern","municipality":{"key":"06435025","name":"Schlüchtern, Stadt","type":"Stadt"},"district":{"key":"06435","name":"Main-Kinzig-Kreis","type":"Landkreis"},"federalState":{"key":"06","name":"Hessen"}},{"name":"Amtsberg","postalCode":"36381","locality":"Schlüchtern","municipality":{"key":"06435025","name":"Schlüchtern, Stadt","type":"Stadt"},"district":{"key":"06435","name":"Main-Kinzig-Kreis","type":"Landkreis"},"federalState":{"key":"06","name":"Hessen"}},{"name":"Am Tunnel","postalCode":"36381","locality":"Schlüchtern","municipality":{"key":"06435025","name":"Schlüchtern, Stadt","type":"Stadt"},"district":{"key":"06435","name":"Main-Kinzig-Kreis","type":"Landkreis"},"federalState":{"key":"06","name":"Hessen"}},{"name":"Am Unteren Elm","postalCode":"36381","locality":"Schlüchtern","municipality":{"key":"06435025","name":"Schlüchtern, Stadt","type":"Stadt"},"district":{"key":"06435","name":"Main-Kinzig-Kreis","type":"Landkreis"},"federalState":{"key":"06","name":"Hessen"}},{"name":"Am Untertor","postalCode":"36381","locality":"Schlüchtern","municipality":{"key":"06435025","name":"Schlüchtern, Stadt","type":"Stadt"},"district":{"key":"06435","name":"Main-Kinzig-Kreis","type":"Landkreis"},"federalState":{"key":"06","name":"Hessen"}},{"name":"Am Wäldchen","postalCode":"36381","locality":"Schlüchtern","municipality":{"key":"06435025","name":"Schlüchtern, Stadt","type":"Stadt"},"district":{"key":"06435","name":"Main-Kinzig-Kreis","type":"Landkreis"},"federalState":{"key":"06","name":"Hessen"}},{"name":"Am Weinberg","postalCode":"36381","locality":"Schlüchtern","municipality":{"key":"06435025","name":"Schlüchtern, Stadt","type":"Stadt"},"district":{"key":"06435","name":"Main-Kinzig-Kreis","type":"Landkreis"},"federalState":{"key":"06","name":"Hessen"}},{"name":"Bachstr.","postalCode":"36381","locality":"Schlüchtern","municipality":{"key":"06435025","name":"Schlüchtern, Stadt","type":"Stadt"},"district":{"key":"06435","name":"Main-Kinzig-Kreis","type":"Landkreis"},"federalState":{"key":"06","name":"Hessen"}},{"name":"Badeweg","postalCode":"36381","locality":"Schlüchtern","municipality":{"key":"06435025","name":"Schlüchtern, Stadt","type":"Stadt"},"district":{"key":"06435","name":"Main-Kinzig-Kreis","type":"Landkreis"},"federalState":{"key":"06","name":"Hessen"}},{"name":"Bad Sodener Weg","postalCode":"36381","locality":"Schlüchtern","municipality":{"key":"06435025","name":"Schlüchtern, Stadt","type":"Stadt"},"district":{"key":"06435","name":"Main-Kinzig-Kreis","type":"Landkreis"},"federalState":{"key":"06","name":"Hessen"}},{"name":"Bahnhaus","postalCode":"36381","locality":"Schlüchtern","municipality":{"key":"06435025","name":"Schlüchtern, Stadt","type":"Stadt"},"district":{"key":"06435","name":"Main-Kinzig-Kreis","type":"Landkreis"},"federalState":{"key":"06","name":"Hessen"}},{"name":"Bahnhofstr.","postalCode":"36381","locality":"Schlüchtern","municipality":{"key":"06435025","name":"Schlüchtern, Stadt","type":"Stadt"},"district":{"key":"06435","name":"Main-Kinzig-Kreis","type":"Landkreis"},"federalState":{"key":"06","name":"Hessen"}},{"name":"Bahnhofsweg","postalCode":"36381","locality":"Schlüchtern","municipality":{"key":"06435025","name":"Schlüchtern, Stadt","type":"Stadt"},"district":{"key":"06435","name":"Main-Kinzig-Kreis","type":"Landkreis"},"federalState":{"key":"06","name":"Hessen"}},{"name":"Bellingser Str.","postalCode":"36381","locality":"Schlüchtern","municipality":{"key":"06435025","name":"Schlüchtern, Stadt","type":"Stadt"},"district":{"key":"06435","name":"Main-Kinzig-Kreis","type":"Landkreis"},"federalState":{"key":"06","name":"Hessen"}},{"name":"Bergstr.","postalCode":"36381","locality":"Schlüchtern","municipality":{"key":"06435025","name":"Schlüchtern, Stadt","type":"Stadt"},"district":{"key":"06435","name":"Main-Kinzig-Kreis","type":"Landkreis"},"federalState":{"key":"06","name":"Hessen"}},{"name":"Bergweg","postalCode":"36381","locality":"Schlüchtern","municipality":{"key":"06435025","name":"Schlüchtern, Stadt","type":"Stadt"},"district":{"key":"06435","name":"Main-Kinzig-Kreis","type":"Landkreis"},"federalState":{"key":"06","name":"Hessen"}},{"name":"Bergwinkelweg","postalCode":"36381","locality":"Schlüchtern","municipality":{"key":"06435025","name":"Schlüchtern, Stadt","type":"Stadt"},"district":{"key":"06435","name":"Main-Kinzig-Kreis","type":"Landkreis"},"federalState":{"key":"06","name":"Hessen"}},{"name":"Birkenweg","postalCode":"36381","locality":"Schlüchtern","municipality":{"key":"06435025","name":"Schlüchtern, Stadt","type":"Stadt"},"district":{"key":"06435","name":"Main-Kinzig-Kreis","type":"Landkreis"},"federalState":{"key":"06","name":"Hessen"}},{"name":"Blumenweg","postalCode":"36381","locality":"Schlüchtern","municipality":{"key":"06435025","name":"Schlüchtern, Stadt","type":"Stadt"},"district":{"key":"06435","name":"Main-Kinzig-Kreis","type":"Landkreis"},"federalState":{"key":"06","name":"Hessen"}},{"name":"Borngasse","postalCode":"36381","locality":"Schlüchtern","municipality":{"key":"06435025","name":"Schlüchtern, Stadt","type":"Stadt"},"district":{"key":"06435","name":"Main-Kinzig-Kreis","type":"Landkreis"},"federalState":{"key":"06","name":"Hessen"}},{"name":"Bornkresseweg","postalCode":"36381","locality":"Schlüchtern","municipality":{"key":"06435025","name":"Schlüchtern, Stadt","type":"Stadt"},"district":{"key":"06435","name":"Main-Kinzig-Kreis","type":"Landkreis"},"federalState":{"key":"06","name":"Hessen"}},{"name":"Bornweg","postalCode":"36381","locality":"Schlüchtern","municipality":{"key":"06435025","name":"Schlüchtern, Stadt","type":"Stadt"},"district":{"key":"06435","name":"Main-Kinzig-Kreis","type":"Landkreis"},"federalState":{"key":"06","name":"Hessen"}},{"name":"Bornwiesenweg","postalCode":"36381","locality":"Schlüchtern","municipality":{"key":"06435025","name":"Schlüchtern, Stadt","type":"Stadt"},"district":{"key":"06435","name":"Main-Kinzig-Kreis","type":"Landkreis"},"federalState":{"key":"06","name":"Hessen"}},{"name":"Brandensteiner Str.","postalCode":"36381","locality":"Schlüchtern","municipality":{"key":"06435025","name":"Schlüchtern, Stadt","type":"Stadt"},"district":{"key":"06435","name":"Main-Kinzig-Kreis","type":"Landkreis"},"federalState":{"key":"06","name":"Hessen"}},{"name":"Braugasse","postalCode":"36381","locality":"Schlüchtern","municipality":{"key":"06435025","name":"Schlüchtern, Stadt","type":"Stadt"},"district":{"key":"06435","name":"Main-Kinzig-Kreis","type":"Landkreis"},"federalState":{"key":"06","name":"Hessen"}},{"name":"Breitenbacher Str.","postalCode":"36381","locality":"Schlüchtern","municipality":{"key":"06435025","name":"Schlüchtern, Stadt","type":"Stadt"},"district":{"key":"06435","name":"Main-Kinzig-Kreis","type":"Landkreis"},"federalState":{"key":"06","name":"Hessen"}},{"name":"Breitwiesenstr.","postalCode":"36381","locality":"Schlüchtern","municipality":{"key":"06435025","name":"Schlüchtern, Stadt","type":"Stadt"},"district":{"key":"06435","name":"Main-Kinzig-Kreis","type":"Landkreis"},"federalState":{"key":"06","name":"Hessen"}},{"name":"Breslauer Weg","postalCode":"36381","locality":"Schlüchtern","municipality":{"key":"06435025","name":"Schlüchtern, Stadt","type":"Stadt"},"district":{"key":"06435","name":"Main-Kinzig-Kreis","type":"Landkreis"},"federalState":{"key":"06","name":"Hessen"}},{"name":"Brückenauer Str.","postalCode":"36381","locality":"Schlüchtern","municipality":{"key":"06435025","name":"Schlüchtern, Stadt","type":"Stadt"},"district":{"key":"06435","name":"Main-Kinzig-Kreis","type":"Landkreis"},"federalState":{"key":"06","name":"Hessen"}},{"name":"Brückenstr.","postalCode":"36381","locality":"Schlüchtern","municipality":{"key":"06435025","name":"Schlüchtern, Stadt","type":"Stadt"},"district":{"key":"06435","name":"Main-Kinzig-Kreis","type":"Landkreis"},"federalState":{"key":"06","name":"Hessen"}},{"name":"Brunkenbergstr.","postalCode":"36381","locality":"Schlüchtern","municipality":{"key":"06435025","name":"Schlüchtern, Stadt","type":"Stadt"},"district":{"key":"06435","name":"Main-Kinzig-Kreis","type":"Landkreis"},"federalState":{"key":"06","name":"Hessen"}},{"name":"Brunnenweg","postalCode":"36381","locality":"Schlüchtern","municipality":{"key":"06435025","name":"Schlüchtern, Stadt","type":"Stadt"},"district":{"key":"06435","name":"Main-Kinzig-Kreis","type":"Landkreis"},"federalState":{"key":"06","name":"Hessen"}},{"name":"Buchenweg","postalCode":"36381","locality":"Schlüchtern","municipality":{"key":"06435025","name":"Schlüchtern, Stadt","type":"Stadt"},"district":{"key":"06435","name":"Main-Kinzig-Kreis","type":"Landkreis"},"federalState":{"key":"06","name":"Hessen"}},{"name":"Buchweg","postalCode":"36381","locality":"Schlüchtern","municipality":{"key":"06435025","name":"Schlüchtern, Stadt","type":"Stadt"},"district":{"key":"06435","name":"Main-Kinzig-Kreis","type":"Landkreis"},"federalState":{"key":"06","name":"Hessen"}},{"name":"Dammweg","postalCode":"36381","locality":"Schlüchtern","municipality":{"key":"06435025","name":"Schlüchtern, Stadt","type":"Stadt"},"district":{"key":"06435","name":"Main-Kinzig-Kreis","type":"Landkreis"},"federalState":{"key":"06","name":"Hessen"}},{"name":"Danziger Str.","postalCode":"36381","locality":"Schlüchtern","municipality":{"key":"06435025","name":"Schlüchtern, Stadt","type":"Stadt"},"district":{"key":"06435","name":"Main-Kinzig-Kreis","type":"Landkreis"},"federalState":{"key":"06","name":"Hessen"}},{"name":"Distelrasen","postalCode":"36381","locality":"Schlüchtern","municipality":{"key":"06435025","name":"Schlüchtern, Stadt","type":"Stadt"},"district":{"key":"06435","name":"Main-Kinzig-Kreis","type":"Landkreis"},"federalState":{"key":"06","name":"Hessen"}},{"name":"Dorfwiesenweg","postalCode":"36381","locality":"Schlüchtern","municipality":{"key":"06435025","name":"Schlüchtern, Stadt","type":"Stadt"},"district":{"key":"06435","name":"Main-Kinzig-Kreis","type":"Landkreis"},"federalState":{"key":"06","name":"Hessen"}},{"name":"Drasenberg","postalCode":"36381","locality":"Schlüchtern","municipality":{"key":"06435025","name":"Schlüchtern, Stadt","type":"Stadt"},"district":{"key":"06435","name":"Main-Kinzig-Kreis","type":"Landkreis"},"federalState":{"key":"06","name":"Hessen"}},{"name":"Dreibrüderstr.","postalCode":"36381","locality":"Schlüchtern","municipality":{"key":"06435025","name":"Schlüchtern, Stadt","type":"Stadt"},"district":{"key":"06435","name":"Main-Kinzig-Kreis","type":"Landkreis"},"federalState":{"key":"06","name":"Hessen"}},{"name":"Dreispitzenhohle","postalCode":"36381","locality":"Schlüchtern","municipality":{"key":"06435025","name":"Schlüchtern, Stadt","type":"Stadt"},"district":{"key":"06435","name":"Main-Kinzig-Kreis","type":"Landkreis"},"federalState":{"key":"06","name":"Hessen"}},{"name":"Dr.-Lotich-Str.","postalCode":"36381","locality":"Schlüchtern","municipality":{"key":"06435025","name":"Schlüchtern, Stadt","type":"Stadt"},"district":{"key":"06435","name":"Main-Kinzig-Kreis","type":"Landkreis"},"federalState":{"key":"06","name":"Hessen"}},{"name":"Ebertsbergstr.","postalCode":"36381","locality":"Schlüchtern","municipality":{"key":"06435025","name":"Schlüchtern, Stadt","type":"Stadt"},"district":{"key":"06435","name":"Main-Kinzig-Kreis","type":"Landkreis"},"federalState":{"key":"06","name":"Hessen"}},{"name":"Eckebornstr.","postalCode":"36381","locality":"Schlüchtern","municipality":{"key":"06435025","name":"Schlüchtern, Stadt","type":"Stadt"},"district":{"key":"06435","name":"Main-Kinzig-Kreis","type":"Landkreis"},"federalState":{"key":"06","name":"Hessen"}},{"name":"Eckelsgrund","postalCode":"36381","locality":"Schlüchtern","municipality":{"key":"06435025","name":"Schlüchtern, Stadt","type":"Stadt"},"district":{"key":"06435","name":"Main-Kinzig-Kreis","type":"Landkreis"},"federalState":{"key":"06","name":"Hessen"}},{"name":"Eckelsweg","postalCode":"36381","locality":"Schlüchtern","municipality":{"key":"06435025","name":"Schlüchtern, Stadt","type":"Stadt"},"district":{"key":"06435","name":"Main-Kinzig-Kreis","type":"Landkreis"},"federalState":{"key":"06","name":"Hessen"}},{"name":"Eichborn","postalCode":"36381","locality":"Schlüchtern","municipality":{"key":"06435025","name":"Schlüchtern, Stadt","type":"Stadt"},"district":{"key":"06435","name":"Main-Kinzig-Kreis","type":"Landkreis"},"federalState":{"key":"06","name":"Hessen"}},{"name":"Eichenweg","postalCode":"36381","locality":"Schlüchtern","municipality":{"key":"06435025","name":"Schlüchtern, Stadt","type":"Stadt"},"district":{"key":"06435","name":"Main-Kinzig-Kreis","type":"Landkreis"},"federalState":{"key":"06","name":"Hessen"}},{"name":"Eichgasse","postalCode":"36381","locality":"Schlüchtern","municipality":{"key":"06435025","name":"Schlüchtern, Stadt","type":"Stadt"},"district":{"key":"06435","name":"Main-Kinzig-Kreis","type":"Landkreis"},"federalState":{"key":"06","name":"Hessen"}},{"name":"Eisenbahnstr.","postalCode":"36381","locality":"Schlüchtern","municipality":{"key":"06435025","name":"Schlüchtern, Stadt","type":"Stadt"},"district":{"key":"06435","name":"Main-Kinzig-Kreis","type":"Landkreis"},"federalState":{"key":"06","name":"Hessen"}},{"name":"Ellerweg","postalCode":"36381","locality":"Schlüchtern","municipality":{"key":"06435025","name":"Schlüchtern, Stadt","type":"Stadt"},"district":{"key":"06435","name":"Main-Kinzig-Kreis","type":"Landkreis"},"federalState":{"key":"06","name":"Hessen"}},{"name":"Elmer Aue","postalCode":"36381","locality":"Schlüchtern","municipality":{"key":"06435025","name":"Schlüchtern, Stadt","type":"Stadt"},"district":{"key":"06435","name":"Main-Kinzig-Kreis","type":"Landkreis"},"federalState":{"key":"06","name":"Hessen"}},{"name":"Elmer Landstr.","postalCode":"36381","locality":"Schlüchtern","municipality":{"key":"06435025","name":"Schlüchtern, Stadt","type":"Stadt"},"district":{"key":"06435","name":"Main-Kinzig-Kreis","type":"Landkreis"},"federalState":{"key":"06","name":"Hessen"}},{"name":"Elmweg","postalCode":"36381","locality":"Schlüchtern","municipality":{"key":"06435025","name":"Schlüchtern, Stadt","type":"Stadt"},"district":{"key":"06435","name":"Main-Kinzig-Kreis","type":"Landkreis"},"federalState":{"key":"06","name":"Hessen"}},{"name":"Engelsweg","postalCode":"36381","locality":"Schlüchtern","municipality":{"key":"06435025","name":"Schlüchtern, Stadt","type":"Stadt"},"district":{"key":"06435","name":"Main-Kinzig-Kreis","type":"Landkreis"},"federalState":{"key":"06","name":"Hessen"}},{"name":"Erlenweg","postalCode":"36381","locality":"Schlüchtern","municipality":{"key":"06435025","name":"Schlüchtern, Stadt","type":"Stadt"},"district":{"key":"06435","name":"Main-Kinzig-Kreis","type":"Landkreis"},"federalState":{"key":"06","name":"Hessen"}},{"name":"Eschenweg","postalCode":"36381","locality":"Schlüchtern","municipality":{"key":"06435025","name":"Schlüchtern, Stadt","type":"Stadt"},"district":{"key":"06435","name":"Main-Kinzig-Kreis","type":"Landkreis"},"federalState":{"key":"06","name":"Hessen"}},{"name":"Feierabendgrund","postalCode":"36381","locality":"Schlüchtern","municipality":{"key":"06435025","name":"Schlüchtern, Stadt","type":"Stadt"},"district":{"key":"06435","name":"Main-Kinzig-Kreis","type":"Landkreis"},"federalState":{"key":"06","name":"Hessen"}},{"name":"Feldstr.","postalCode":"36381","locality":"Schlüchtern","municipality":{"key":"06435025","name":"Schlüchtern, Stadt","type":"Stadt"},"district":{"key":"06435","name":"Main-Kinzig-Kreis","type":"Landkreis"},"federalState":{"key":"06","name":"Hessen"}},{"name":"Fichtenstr.","postalCode":"36381","locality":"Schlüchtern","municipality":{"key":"06435025","name":"Schlüchtern, Stadt","type":"Stadt"},"district":{"key":"06435","name":"Main-Kinzig-Kreis","type":"Landkreis"},"federalState":{"key":"06","name":"Hessen"}},{"name":"Fliedener Str.","postalCode":"36381","locality":"Schlüchtern","municipality":{"key":"06435025","name":"Schlüchtern, Stadt","type":"Stadt"},"district":{"key":"06435","name":"Main-Kinzig-Kreis","type":"Landkreis"},"federalState":{"key":"06","name":"Hessen"}},{"name":"Fliederweg","postalCode":"36381","locality":"Schlüchtern","municipality":{"key":"06435025","name":"Schlüchtern, Stadt","type":"Stadt"},"district":{"key":"06435","name":"Main-Kinzig-Kreis","type":"Landkreis"},"federalState":{"key":"06","name":"Hessen"}},{"name":"Flurweg","postalCode":"36381","locality":"Schlüchtern","municipality":{"key":"06435025","name":"Schlüchtern, Stadt","type":"Stadt"},"district":{"key":"06435","name":"Main-Kinzig-Kreis","type":"Landkreis"},"federalState":{"key":"06","name":"Hessen"}},{"name":"Forsthausweg","postalCode":"36381","locality":"Schlüchtern","municipality":{"key":"06435025","name":"Schlüchtern, Stadt","type":"Stadt"},"district":{"key":"06435","name":"Main-Kinzig-Kreis","type":"Landkreis"},"federalState":{"key":"06","name":"Hessen"}},{"name":"Frankfurter Str.","postalCode":"36381","locality":"Schlüchtern","municipality":{"key":"06435025","name":"Schlüchtern, Stadt","type":"Stadt"},"district":{"key":"06435","name":"Main-Kinzig-Kreis","type":"Landkreis"},"federalState":{"key":"06","name":"Hessen"}},{"name":"Frankfurt-Leipziger-Str.","postalCode":"36381","locality":"Schlüchtern","municipality":{"key":"06435025","name":"Schlüchtern, Stadt","type":"Stadt"},"district":{"key":"06435","name":"Main-Kinzig-Kreis","type":"Landkreis"},"federalState":{"key":"06","name":"Hessen"}},{"name":"Freiensteinauer Str.","postalCode":"36381","locality":"Schlüchtern","municipality":{"key":"06435025","name":"Schlüchtern, Stadt","type":"Stadt"},"district":{"key":"06435","name":"Main-Kinzig-Kreis","type":"Landkreis"},"federalState":{"key":"06","name":"Hessen"}},{"name":"Friedensgärtchen","postalCode":"36381","locality":"Schlüchtern","municipality":{"key":"06435025","name":"Schlüchtern, Stadt","type":"Stadt"},"district":{"key":"06435","name":"Main-Kinzig-Kreis","type":"Landkreis"},"federalState":{"key":"06","name":"Hessen"}},{"name":"Friedhofsweg","postalCode":"36381","locality":"Schlüchtern","municipality":{"key":"06435025","name":"Schlüchtern, Stadt","type":"Stadt"},"district":{"key":"06435","name":"Main-Kinzig-Kreis","type":"Landkreis"},"federalState":{"key":"06","name":"Hessen"}},{"name":"Frohnwiesen","postalCode":"36381","locality":"Schlüchtern","municipality":{"key":"06435025","name":"Schlüchtern, Stadt","type":"Stadt"},"district":{"key":"06435","name":"Main-Kinzig-Kreis","type":"Landkreis"},"federalState":{"key":"06","name":"Hessen"}},{"name":"Fuldaer Str.","postalCode":"36381","locality":"Schlüchtern","municipality":{"key":"06435025","name":"Schlüchtern, Stadt","type":"Stadt"},"district":{"key":"06435","name":"Main-Kinzig-Kreis","type":"Landkreis"},"federalState":{"key":"06","name":"Hessen"}},{"name":"Gartenstr.","postalCode":"36381","locality":"Schlüchtern","municipality":{"key":"06435025","name":"Schlüchtern, Stadt","type":"Stadt"},"district":{"key":"06435","name":"Main-Kinzig-Kreis","type":"Landkreis"},"federalState":{"key":"06","name":"Hessen"}},{"name":"Georg-Flemmig-Str.","postalCode":"36381","locality":"Schlüchtern","municipality":{"key":"06435025","name":"Schlüchtern, Stadt","type":"Stadt"},"district":{"key":"06435","name":"Main-Kinzig-Kreis","type":"Landkreis"},"federalState":{"key":"06","name":"Hessen"}},{"name":"Goldkaute","postalCode":"36381","locality":"Schlüchtern","municipality":{"key":"06435025","name":"Schlüchtern, Stadt","type":"Stadt"},"district":{"key":"06435","name":"Main-Kinzig-Kreis","type":"Landkreis"},"federalState":{"key":"06","name":"Hessen"}},{"name":"Gomfritz","postalCode":"36381","locality":"Schlüchtern","municipality":{"key":"06435025","name":"Schlüchtern, Stadt","type":"Stadt"},"district":{"key":"06435","name":"Main-Kinzig-Kreis","type":"Landkreis"},"federalState":{"key":"06","name":"Hessen"}},{"name":"Grabenstr.","postalCode":"36381","locality":"Schlüchtern","municipality":{"key":"06435025","name":"Schlüchtern, Stadt","type":"Stadt"},"district":{"key":"06435","name":"Main-Kinzig-Kreis","type":"Landkreis"},"federalState":{"key":"06","name":"Hessen"}},{"name":"Grimmstr.","postalCode":"36381","locality":"Schlüchtern","municipality":{"key":"06435025","name":"Schlüchtern, Stadt","type":"Stadt"},"district":{"key":"06435","name":"Main-Kinzig-Kreis","type":"Landkreis"},"federalState":{"key":"06","name":"Hessen"}},{"name":"Grundstr.","postalCode":"36381","locality":"Schlüchtern","municipality":{"key":"06435025","name":"Schlüchtern, Stadt","type":"Stadt"},"district":{"key":"06435","name":"Main-Kinzig-Kreis","type":"Landkreis"},"federalState":{"key":"06","name":"Hessen"}},{"name":"Gundhelmer Str.","postalCode":"36381","locality":"Schlüchtern","municipality":{"key":"06435025","name":"Schlüchtern, Stadt","type":"Stadt"},"district":{"key":"06435","name":"Main-Kinzig-Kreis","type":"Landkreis"},"federalState":{"key":"06","name":"Hessen"}},{"name":"Haager Hohle","postalCode":"36381","locality":"Schlüchtern","municipality":{"key":"06435025","name":"Schlüchtern, Stadt","type":"Stadt"},"district":{"key":"06435","name":"Main-Kinzig-Kreis","type":"Landkreis"},"federalState":{"key":"06","name":"Hessen"}},{"name":"Hainbuchenweg","postalCode":"36381","locality":"Schlüchtern","municipality":{"key":"06435025","name":"Schlüchtern, Stadt","type":"Stadt"},"district":{"key":"06435","name":"Main-Kinzig-Kreis","type":"Landkreis"},"federalState":{"key":"06","name":"Hessen"}},{"name":"Hainweg","postalCode":"36381","locality":"Schlüchtern","municipality":{"key":"06435025","name":"Schlüchtern, Stadt","type":"Stadt"},"district":{"key":"06435","name":"Main-Kinzig-Kreis","type":"Landkreis"},"federalState":{"key":"06","name":"Hessen"}},{"name":"Hainwiesenweg","postalCode":"36381","locality":"Schlüchtern","municipality":{"key":"06435025","name":"Schlüchtern, Stadt","type":"Stadt"},"district":{"key":"06435","name":"Main-Kinzig-Kreis","type":"Landkreis"},"federalState":{"key":"06","name":"Hessen"}},{"name":"Hanauer Str.","postalCode":"36381","locality":"Schlüchtern","municipality":{"key":"06435025","name":"Schlüchtern, Stadt","type":"Stadt"},"district":{"key":"06435","name":"Main-Kinzig-Kreis","type":"Landkreis"},"federalState":{"key":"06","name":"Hessen"}},{"name":"Haubergstr.","postalCode":"36381","locality":"Schlüchtern","municipality":{"key":"06435025","name":"Schlüchtern, Stadt","type":"Stadt"},"district":{"key":"06435","name":"Main-Kinzig-Kreis","type":"Landkreis"},"federalState":{"key":"06","name":"Hessen"}},{"name":"Hauptstr.","postalCode":"36381","locality":"Schlüchtern","municipality":{"key":"06435025","name":"Schlüchtern, Stadt","type":"Stadt"},"district":{"key":"06435","name":"Main-Kinzig-Kreis","type":"Landkreis"},"federalState":{"key":"06","name":"Hessen"}},{"name":"Hauswiese","postalCode":"36381","locality":"Schlüchtern","municipality":{"key":"06435025","name":"Schlüchtern, Stadt","type":"Stadt"},"district":{"key":"06435","name":"Main-Kinzig-Kreis","type":"Landkreis"},"federalState":{"key":"06","name":"Hessen"}},{"name":"Helfendorfweg","postalCode":"36381","locality":"Schlüchtern","municipality":{"key":"06435025","name":"Schlüchtern, Stadt","type":"Stadt"},"district":{"key":"06435","name":"Main-Kinzig-Kreis","type":"Landkreis"},"federalState":{"key":"06","name":"Hessen"}},{"name":"Herolzer Str.","postalCode":"36381","locality":"Schlüchtern","municipality":{"key":"06435025","name":"Schlüchtern, Stadt","type":"Stadt"},"district":{"key":"06435","name":"Main-Kinzig-Kreis","type":"Landkreis"},"federalState":{"key":"06","name":"Hessen"}},{"name":"Hinkelhofer Str.","postalCode":"36381","locality":"Schlüchtern","municipality":{"key":"06435025","name":"Schlüchtern, Stadt","type":"Stadt"},"district":{"key":"06435","name":"Main-Kinzig-Kreis","type":"Landkreis"},"federalState":{"key":"06","name":"Hessen"}},{"name":"Hinterburgstr.","postalCode":"36381","locality":"Schlüchtern","municipality":{"key":"06435025","name":"Schlüchtern, Stadt","type":"Stadt"},"district":{"key":"06435","name":"Main-Kinzig-Kreis","type":"Landkreis"},"federalState":{"key":"06","name":"Hessen"}},{"name":"Hintersteinauer Str.","postalCode":"36381","locality":"Schlüchtern","municipality":{"key":"06435025","name":"Schlüchtern, Stadt","type":"Stadt"},"district":{"key":"06435","name":"Main-Kinzig-Kreis","type":"Landkreis"},"federalState":{"key":"06","name":"Hessen"}},{"name":"Hirtenweg","postalCode":"36381","locality":"Schlüchtern","municipality":{"key":"06435025","name":"Schlüchtern, Stadt","type":"Stadt"},"district":{"key":"06435","name":"Main-Kinzig-Kreis","type":"Landkreis"},"federalState":{"key":"06","name":"Hessen"}},{"name":"Höbäckerweg","postalCode":"36381","locality":"Schlüchtern","municipality":{"key":"06435025","name":"Schlüchtern, Stadt","type":"Stadt"},"district":{"key":"06435","name":"Main-Kinzig-Kreis","type":"Landkreis"},"federalState":{"key":"06","name":"Hessen"}},{"name":"Hochstr.","postalCode":"36381","locality":"Schlüchtern","municipality":{"key":"06435025","name":"Schlüchtern, Stadt","type":"Stadt"},"district":{"key":"06435","name":"Main-Kinzig-Kreis","type":"Landkreis"},"federalState":{"key":"06","name":"Hessen"}},{"name":"Hofrasenring","postalCode":"36381","locality":"Schlüchtern","municipality":{"key":"06435025","name":"Schlüchtern, Stadt","type":"Stadt"},"district":{"key":"06435","name":"Main-Kinzig-Kreis","type":"Landkreis"},"federalState":{"key":"06","name":"Hessen"}},{"name":"Hofweg","postalCode":"36381","locality":"Schlüchtern","municipality":{"key":"06435025","name":"Schlüchtern, Stadt","type":"Stadt"},"district":{"key":"06435","name":"Main-Kinzig-Kreis","type":"Landkreis"},"federalState":{"key":"06","name":"Hessen"}},{"name":"Hofwiesenweg","postalCode":"36381","locality":"Schlüchtern","municipality":{"key":"06435025","name":"Schlüchtern, Stadt","type":"Stadt"},"district":{"key":"06435","name":"Main-Kinzig-Kreis","type":"Landkreis"},"federalState":{"key":"06","name":"Hessen"}},{"name":"Höhenstr.","postalCode":"36381","locality":"Schlüchtern","municipality":{"key":"06435025","name":"Schlüchtern, Stadt","type":"Stadt"},"district":{"key":"06435","name":"Main-Kinzig-Kreis","type":"Landkreis"},"federalState":{"key":"06","name":"Hessen"}},{"name":"Holunderweg","postalCode":"36381","locality":"Schlüchtern","municipality":{"key":"06435025","name":"Schlüchtern, Stadt","type":"Stadt"},"district":{"key":"06435","name":"Main-Kinzig-Kreis","type":"Landkreis"},"federalState":{"key":"06","name":"Hessen"}},{"name":"Holzbrücke","postalCode":"36381","locality":"Schlüchtern","municipality":{"key":"06435025","name":"Schlüchtern, Stadt","type":"Stadt"},"district":{"key":"06435","name":"Main-Kinzig-Kreis","type":"Landkreis"},"federalState":{"key":"06","name":"Hessen"}},{"name":"Hospitalstr.","postalCode":"36381","locality":"Schlüchtern","municipality":{"key":"06435025","name":"Schlüchtern, Stadt","type":"Stadt"},"district":{"key":"06435","name":"Main-Kinzig-Kreis","type":"Landkreis"},"federalState":{"key":"06","name":"Hessen"}},{"name":"Huhnweg","postalCode":"36381","locality":"Schlüchtern","municipality":{"key":"06435025","name":"Schlüchtern, Stadt","type":"Stadt"},"district":{"key":"06435","name":"Main-Kinzig-Kreis","type":"Landkreis"},"federalState":{"key":"06","name":"Hessen"}},{"name":"Huttener Str.","postalCode":"36381","locality":"Schlüchtern","municipality":{"key":"06435025","name":"Schlüchtern, Stadt","type":"Stadt"},"district":{"key":"06435","name":"Main-Kinzig-Kreis","type":"Landkreis"},"federalState":{"key":"06","name":"Hessen"}},{"name":"Huttengrund","postalCode":"36381","locality":"Schlüchtern","municipality":{"key":"06435025","name":"Schlüchtern, Stadt","type":"Stadt"},"district":{"key":"06435","name":"Main-Kinzig-Kreis","type":"Landkreis"},"federalState":{"key":"06","name":"Hessen"}},{"name":"Im Dorf","postalCode":"36381","locality":"Schlüchtern","municipality":{"key":"06435025","name":"Schlüchtern, Stadt","type":"Stadt"},"district":{"key":"06435","name":"Main-Kinzig-Kreis","type":"Landkreis"},"federalState":{"key":"06","name":"Hessen"}},{"name":"Im Gäßchen","postalCode":"36381","locality":"Schlüchtern","municipality":{"key":"06435025","name":"Schlüchtern, Stadt","type":"Stadt"},"district":{"key":"06435","name":"Main-Kinzig-Kreis","type":"Landkreis"},"federalState":{"key":"06","name":"Hessen"}},{"name":"Im Gern","postalCode":"36381","locality":"Schlüchtern","municipality":{"key":"06435025","name":"Schlüchtern, Stadt","type":"Stadt"},"district":{"key":"06435","name":"Main-Kinzig-Kreis","type":"Landkreis"},"federalState":{"key":"06","name":"Hessen"}},{"name":"Im Grund","postalCode":"36381","locality":"Schlüchtern","municipality":{"key":"06435025","name":"Schlüchtern, Stadt","type":"Stadt"},"district":{"key":"06435","name":"Main-Kinzig-Kreis","type":"Landkreis"},"federalState":{"key":"06","name":"Hessen"}},{"name":"Im Hochstrauch","postalCode":"36381","locality":"Schlüchtern","municipality":{"key":"06435025","name":"Schlüchtern, Stadt","type":"Stadt"},"district":{"key":"06435","name":"Main-Kinzig-Kreis","type":"Landkreis"},"federalState":{"key":"06","name":"Hessen"}},{"name":"Im Sonneneck","postalCode":"36381","locality":"Schlüchtern","municipality":{"key":"06435025","name":"Schlüchtern, Stadt","type":"Stadt"},"district":{"key":"06435","name":"Main-Kinzig-Kreis","type":"Landkreis"},"federalState":{"key":"06","name":"Hessen"}},{"name":"Im Tröller","postalCode":"36381","locality":"Schlüchtern","municipality":{"key":"06435025","name":"Schlüchtern, Stadt","type":"Stadt"},"district":{"key":"06435","name":"Main-Kinzig-Kreis","type":"Landkreis"},"federalState":{"key":"06","name":"Hessen"}},{"name":"In den Peterwiesen","postalCode":"36381","locality":"Schlüchtern","municipality":{"key":"06435025","name":"Schlüchtern, Stadt","type":"Stadt"},"district":{"key":"06435","name":"Main-Kinzig-Kreis","type":"Landkreis"},"federalState":{"key":"06","name":"Hessen"}},{"name":"In den Sauren Wiesen","postalCode":"36381","locality":"Schlüchtern","municipality":{"key":"06435025","name":"Schlüchtern, Stadt","type":"Stadt"},"district":{"key":"06435","name":"Main-Kinzig-Kreis","type":"Landkreis"},"federalState":{"key":"06","name":"Hessen"}},{"name":"In der Hohle","postalCode":"36381","locality":"Schlüchtern","municipality":{"key":"06435025","name":"Schlüchtern, Stadt","type":"Stadt"},"district":{"key":"06435","name":"Main-Kinzig-Kreis","type":"Landkreis"},"federalState":{"key":"06","name":"Hessen"}},{"name":"Jacobsgärten","postalCode":"36381","locality":"Schlüchtern","municipality":{"key":"06435025","name":"Schlüchtern, Stadt","type":"Stadt"},"district":{"key":"06435","name":"Main-Kinzig-Kreis","type":"Landkreis"},"federalState":{"key":"06","name":"Hessen"}},{"name":"Jägerweg","postalCode":"36381","locality":"Schlüchtern","municipality":{"key":"06435025","name":"Schlüchtern, Stadt","type":"Stadt"},"district":{"key":"06435","name":"Main-Kinzig-Kreis","type":"Landkreis"},"federalState":{"key":"06","name":"Hessen"}},{"name":"Jossaer Str.","postalCode":"36381","locality":"Schlüchtern","municipality":{"key":"06435025","name":"Schlüchtern, Stadt","type":"Stadt"},"district":{"key":"06435","name":"Main-Kinzig-Kreis","type":"Landkreis"},"federalState":{"key":"06","name":"Hessen"}},{"name":"Karlsbader Weg","postalCode":"36381","locality":"Schlüchtern","municipality":{"key":"06435025","name":"Schlüchtern, Stadt","type":"Stadt"},"district":{"key":"06435","name":"Main-Kinzig-Kreis","type":"Landkreis"},"federalState":{"key":"06","name":"Hessen"}},{"name":"Kastanienstr.","postalCode":"36381","locality":"Schlüchtern","municipality":{"key":"06435025","name":"Schlüchtern, Stadt","type":"Stadt"},"district":{"key":"06435","name":"Main-Kinzig-Kreis","type":"Landkreis"},"federalState":{"key":"06","name":"Hessen"}},{"name":"Kaufmannsweg","postalCode":"36381","locality":"Schlüchtern","municipality":{"key":"06435025","name":"Schlüchtern, Stadt","type":"Stadt"},"district":{"key":"06435","name":"Main-Kinzig-Kreis","type":"Landkreis"},"federalState":{"key":"06","name":"Hessen"}},{"name":"Kiefernstr.","postalCode":"36381","locality":"Schlüchtern","municipality":{"key":"06435025","name":"Schlüchtern, Stadt","type":"Stadt"},"district":{"key":"06435","name":"Main-Kinzig-Kreis","type":"Landkreis"},"federalState":{"key":"06","name":"Hessen"}},{"name":"Kinzigstr.","postalCode":"36381","locality":"Schlüchtern","municipality":{"key":"06435025","name":"Schlüchtern, Stadt","type":"Stadt"},"district":{"key":"06435","name":"Main-Kinzig-Kreis","type":"Landkreis"},"federalState":{"key":"06","name":"Hessen"}},{"name":"Kirchstr.","postalCode":"36381","locality":"Schlüchtern","municipality":{"key":"06435025","name":"Schlüchtern, Stadt","type":"Stadt"},"district":{"key":"06435","name":"Main-Kinzig-Kreis","type":"Landkreis"},"federalState":{"key":"06","name":"Hessen"}},{"name":"Klosterstr.","postalCode":"36381","locality":"Schlüchtern","municipality":{"key":"06435025","name":"Schlüchtern, Stadt","type":"Stadt"},"district":{"key":"06435","name":"Main-Kinzig-Kreis","type":"Landkreis"},"federalState":{"key":"06","name":"Hessen"}},{"name":"Kohlhoppenweg","postalCode":"36381","locality":"Schlüchtern","municipality":{"key":"06435025","name":"Schlüchtern, Stadt","type":"Stadt"},"district":{"key":"06435","name":"Main-Kinzig-Kreis","type":"Landkreis"},"federalState":{"key":"06","name":"Hessen"}},{"name":"Kohlstückering","postalCode":"36381","locality":"Schlüchtern","municipality":{"key":"06435025","name":"Schlüchtern, Stadt","type":"Stadt"},"district":{"key":"06435","name":"Main-Kinzig-Kreis","type":"Landkreis"},"federalState":{"key":"06","name":"Hessen"}},{"name":"Kohlstückeweg","postalCode":"36381","locality":"Schlüchtern","municipality":{"key":"06435025","name":"Schlüchtern, Stadt","type":"Stadt"},"district":{"key":"06435","name":"Main-Kinzig-Kreis","type":"Landkreis"},"federalState":{"key":"06","name":"Hessen"}},{"name":"Kohlweg","postalCode":"36381","locality":"Schlüchtern","municipality":{"key":"06435025","name":"Schlüchtern, Stadt","type":"Stadt"},"district":{"key":"06435","name":"Main-Kinzig-Kreis","type":"Landkreis"},"federalState":{"key":"06","name":"Hessen"}},{"name":"Königsberger Str.","postalCode":"36381","locality":"Schlüchtern","municipality":{"key":"06435025","name":"Schlüchtern, Stadt","type":"Stadt"},"district":{"key":"06435","name":"Main-Kinzig-Kreis","type":"Landkreis"},"federalState":{"key":"06","name":"Hessen"}},{"name":"Krämerstr.","postalCode":"36381","locality":"Schlüchtern","municipality":{"key":"06435025","name":"Schlüchtern, Stadt","type":"Stadt"},"district":{"key":"06435","name":"Main-Kinzig-Kreis","type":"Landkreis"},"federalState":{"key":"06","name":"Hessen"}},{"name":"Kressenbacher Str.","postalCode":"36381","locality":"Schlüchtern","municipality":{"key":"06435025","name":"Schlüchtern, Stadt","type":"Stadt"},"district":{"key":"06435","name":"Main-Kinzig-Kreis","type":"Landkreis"},"federalState":{"key":"06","name":"Hessen"}},{"name":"Kreuzackerweg","postalCode":"36381","locality":"Schlüchtern","municipality":{"key":"06435025","name":"Schlüchtern, Stadt","type":"Stadt"},"district":{"key":"06435","name":"Main-Kinzig-Kreis","type":"Landkreis"},"federalState":{"key":"06","name":"Hessen"}},{"name":"Kreuzgartenweg","postalCode":"36381","locality":"Schlüchtern","municipality":{"key":"06435025","name":"Schlüchtern, Stadt","type":"Stadt"},"district":{"key":"06435","name":"Main-Kinzig-Kreis","type":"Landkreis"},"federalState":{"key":"06","name":"Hessen"}},{"name":"Kriegsgräberstätte","postalCode":"36381","locality":"Schlüchtern","municipality":{"key":"06435025","name":"Schlüchtern, Stadt","type":"Stadt"},"district":{"key":"06435","name":"Main-Kinzig-Kreis","type":"Landkreis"},"federalState":{"key":"06","name":"Hessen"}},{"name":"Kurfürstenstr.","postalCode":"36381","locality":"Schlüchtern","municipality":{"key":"06435025","name":"Schlüchtern, Stadt","type":"Stadt"},"district":{"key":"06435","name":"Main-Kinzig-Kreis","type":"Landkreis"},"federalState":{"key":"06","name":"Hessen"}},{"name":"Lange Grasbeete","postalCode":"36381","locality":"Schlüchtern","municipality":{"key":"06435025","name":"Schlüchtern, Stadt","type":"Stadt"},"district":{"key":"06435","name":"Main-Kinzig-Kreis","type":"Landkreis"},"federalState":{"key":"06","name":"Hessen"}},{"name":"Lange Str.","postalCode":"36381","locality":"Schlüchtern","municipality":{"key":"06435025","name":"Schlüchtern, Stadt","type":"Stadt"},"district":{"key":"06435","name":"Main-Kinzig-Kreis","type":"Landkreis"},"federalState":{"key":"06","name":"Hessen"}},{"name":"Lärchenstr.","postalCode":"36381","locality":"Schlüchtern","municipality":{"key":"06435025","name":"Schlüchtern, Stadt","type":"Stadt"},"district":{"key":"06435","name":"Main-Kinzig-Kreis","type":"Landkreis"},"federalState":{"key":"06","name":"Hessen"}},{"name":"Lenne","postalCode":"36381","locality":"Schlüchtern","municipality":{"key":"06435025","name":"Schlüchtern, Stadt","type":"Stadt"},"district":{"key":"06435","name":"Main-Kinzig-Kreis","type":"Landkreis"},"federalState":{"key":"06","name":"Hessen"}},{"name":"Lindenweg","postalCode":"36381","locality":"Schlüchtern","municipality":{"key":"06435025","name":"Schlüchtern, Stadt","type":"Stadt"},"district":{"key":"06435","name":"Main-Kinzig-Kreis","type":"Landkreis"},"federalState":{"key":"06","name":"Hessen"}},{"name":"Linsengasse","postalCode":"36381","locality":"Schlüchtern","municipality":{"key":"06435025","name":"Schlüchtern, Stadt","type":"Stadt"},"district":{"key":"06435","name":"Main-Kinzig-Kreis","type":"Landkreis"},"federalState":{"key":"06","name":"Hessen"}},{"name":"Lohstr.","postalCode":"36381","locality":"Schlüchtern","municipality":{"key":"06435025","name":"Schlüchtern, Stadt","type":"Stadt"},"district":{"key":"06435","name":"Main-Kinzig-Kreis","type":"Landkreis"},"federalState":{"key":"06","name":"Hessen"}},{"name":"Lotichiusstr.","postalCode":"36381","locality":"Schlüchtern","municipality":{"key":"06435025","name":"Schlüchtern, Stadt","type":"Stadt"},"district":{"key":"06435","name":"Main-Kinzig-Kreis","type":"Landkreis"},"federalState":{"key":"06","name":"Hessen"}},{"name":"Ludovica-von-Stumm-Str.","postalCode":"36381","locality":"Schlüchtern","municipality":{"key":"06435025","name":"Schlüchtern, Stadt","type":"Stadt"},"district":{"key":"06435","name":"Main-Kinzig-Kreis","type":"Landkreis"},"federalState":{"key":"06","name":"Hessen"}},{"name":"Marienbader Weg","postalCode":"36381","locality":"Schlüchtern","municipality":{"key":"06435025","name":"Schlüchtern, Stadt","type":"Stadt"},"district":{"key":"06435","name":"Main-Kinzig-Kreis","type":"Landkreis"},"federalState":{"key":"06","name":"Hessen"}},{"name":"Mäuernstr.","postalCode":"36381","locality":"Schlüchtern","municipality":{"key":"06435025","name":"Schlüchtern, Stadt","type":"Stadt"},"district":{"key":"06435","name":"Main-Kinzig-Kreis","type":"Landkreis"},"federalState":{"key":"06","name":"Hessen"}},{"name":"Mauerwiese","postalCode":"36381","locality":"Schlüchtern","municipality":{"key":"06435025","name":"Schlüchtern, Stadt","type":"Stadt"},"district":{"key":"06435","name":"Main-Kinzig-Kreis","type":"Landkreis"},"federalState":{"key":"06","name":"Hessen"}},{"name":"Mausbachweg","postalCode":"36381","locality":"Schlüchtern","municipality":{"key":"06435025","name":"Schlüchtern, Stadt","type":"Stadt"},"district":{"key":"06435","name":"Main-Kinzig-Kreis","type":"Landkreis"},"federalState":{"key":"06","name":"Hessen"}},{"name":"Merx Weg","postalCode":"36381","locality":"Schlüchtern","municipality":{"key":"06435025","name":"Schlüchtern, Stadt","type":"Stadt"},"district":{"key":"06435","name":"Main-Kinzig-Kreis","type":"Landkreis"},"federalState":{"key":"06","name":"Hessen"}},{"name":"Mitteldorf","postalCode":"36381","locality":"Schlüchtern","municipality":{"key":"06435025","name":"Schlüchtern, Stadt","type":"Stadt"},"district":{"key":"06435","name":"Main-Kinzig-Kreis","type":"Landkreis"},"federalState":{"key":"06","name":"Hessen"}},{"name":"Mittelweg","postalCode":"36381","locality":"Schlüchtern","municipality":{"key":"06435025","name":"Schlüchtern, Stadt","type":"Stadt"},"district":{"key":"06435","name":"Main-Kinzig-Kreis","type":"Landkreis"},"federalState":{"key":"06","name":"Hessen"}},{"name":"Mönchspfad","postalCode":"36381","locality":"Schlüchtern","municipality":{"key":"06435025","name":"Schlüchtern, Stadt","type":"Stadt"},"district":{"key":"06435","name":"Main-Kinzig-Kreis","type":"Landkreis"},"federalState":{"key":"06","name":"Hessen"}},{"name":"Mühldorf","postalCode":"36381","locality":"Schlüchtern","municipality":{"key":"06435025","name":"Schlüchtern, Stadt","type":"Stadt"},"district":{"key":"06435","name":"Main-Kinzig-Kreis","type":"Landkreis"},"federalState":{"key":"06","name":"Hessen"}},{"name":"Mühlengrund","postalCode":"36381","locality":"Schlüchtern","municipality":{"key":"06435025","name":"Schlüchtern, Stadt","type":"Stadt"},"district":{"key":"06435","name":"Main-Kinzig-Kreis","type":"Landkreis"},"federalState":{"key":"06","name":"Hessen"}},{"name":"Mühlenweg","postalCode":"36381","locality":"Schlüchtern","municipality":{"key":"06435025","name":"Schlüchtern, Stadt","type":"Stadt"},"district":{"key":"06435","name":"Main-Kinzig-Kreis","type":"Landkreis"},"federalState":{"key":"06","name":"Hessen"}},{"name":"Neue Hohenzeller Str.","postalCode":"36381","locality":"Schlüchtern","municipality":{"key":"06435025","name":"Schlüchtern, Stadt","type":"Stadt"},"district":{"key":"06435","name":"Main-Kinzig-Kreis","type":"Landkreis"},"federalState":{"key":"06","name":"Hessen"}},{"name":"Neugasse","postalCode":"36381","locality":"Schlüchtern","municipality":{"key":"06435025","name":"Schlüchtern, Stadt","type":"Stadt"},"district":{"key":"06435","name":"Main-Kinzig-Kreis","type":"Landkreis"},"federalState":{"key":"06","name":"Hessen"}},{"name":"Niederzeller Weg","postalCode":"36381","locality":"Schlüchtern","municipality":{"key":"06435025","name":"Schlüchtern, Stadt","type":"Stadt"},"district":{"key":"06435","name":"Main-Kinzig-Kreis","type":"Landkreis"},"federalState":{"key":"06","name":"Hessen"}},{"name":"Nußweg","postalCode":"36381","locality":"Schlüchtern","municipality":{"key":"06435025","name":"Schlüchtern, Stadt","type":"Stadt"},"district":{"key":"06435","name":"Main-Kinzig-Kreis","type":"Landkreis"},"federalState":{"key":"06","name":"Hessen"}},{"name":"Obertorstr.","postalCode":"36381","locality":"Schlüchtern","municipality":{"key":"06435025","name":"Schlüchtern, Stadt","type":"Stadt"},"district":{"key":"06435","name":"Main-Kinzig-Kreis","type":"Landkreis"},"federalState":{"key":"06","name":"Hessen"}},{"name":"Oberzeller Str.","postalCode":"36381","locality":"Schlüchtern","municipality":{"key":"06435025","name":"Schlüchtern, Stadt","type":"Stadt"},"district":{"key":"06435","name":"Main-Kinzig-Kreis","type":"Landkreis"},"federalState":{"key":"06","name":"Hessen"}},{"name":"Oststr.","postalCode":"36381","locality":"Schlüchtern","municipality":{"key":"06435025","name":"Schlüchtern, Stadt","type":"Stadt"},"district":{"key":"06435","name":"Main-Kinzig-Kreis","type":"Landkreis"},"federalState":{"key":"06","name":"Hessen"}},{"name":"Panoramaweg","postalCode":"36381","locality":"Schlüchtern","municipality":{"key":"06435025","name":"Schlüchtern, Stadt","type":"Stadt"},"district":{"key":"06435","name":"Main-Kinzig-Kreis","type":"Landkreis"},"federalState":{"key":"06","name":"Hessen"}},{"name":"Pappelweg","postalCode":"36381","locality":"Schlüchtern","municipality":{"key":"06435025","name":"Schlüchtern, Stadt","type":"Stadt"},"district":{"key":"06435","name":"Main-Kinzig-Kreis","type":"Landkreis"},"federalState":{"key":"06","name":"Hessen"}},{"name":"Parkstr.","postalCode":"36381","locality":"Schlüchtern","municipality":{"key":"06435025","name":"Schlüchtern, Stadt","type":"Stadt"},"district":{"key":"06435","name":"Main-Kinzig-Kreis","type":"Landkreis"},"federalState":{"key":"06","name":"Hessen"}},{"name":"Pfaffenwiese","postalCode":"36381","locality":"Schlüchtern","municipality":{"key":"06435025","name":"Schlüchtern, Stadt","type":"Stadt"},"district":{"key":"06435","name":"Main-Kinzig-Kreis","type":"Landkreis"},"federalState":{"key":"06","name":"Hessen"}},{"name":"Pfingstschüsselweg","postalCode":"36381","locality":"Schlüchtern","municipality":{"key":"06435025","name":"Schlüchtern, Stadt","type":"Stadt"},"district":{"key":"06435","name":"Main-Kinzig-Kreis","type":"Landkreis"},"federalState":{"key":"06","name":"Hessen"}},{"name":"Platanenweg","postalCode":"36381","locality":"Schlüchtern","municipality":{"key":"06435025","name":"Schlüchtern, Stadt","type":"Stadt"},"district":{"key":"06435","name":"Main-Kinzig-Kreis","type":"Landkreis"},"federalState":{"key":"06","name":"Hessen"}},{"name":"Poststr.","postalCode":"36381","locality":"Schlüchtern","municipality":{"key":"06435025","name":"Schlüchtern, Stadt","type":"Stadt"},"district":{"key":"06435","name":"Main-Kinzig-Kreis","type":"Landkreis"},"federalState":{"key":"06","name":"Hessen"}},{"name":"Quellenweg","postalCode":"36381","locality":"Schlüchtern","municipality":{"key":"06435025","name":"Schlüchtern, Stadt","type":"Stadt"},"district":{"key":"06435","name":"Main-Kinzig-Kreis","type":"Landkreis"},"federalState":{"key":"06","name":"Hessen"}},{"name":"Ramholzer Str.","postalCode":"36381","locality":"Schlüchtern","municipality":{"key":"06435025","name":"Schlüchtern, Stadt","type":"Stadt"},"district":{"key":"06435","name":"Main-Kinzig-Kreis","type":"Landkreis"},"federalState":{"key":"06","name":"Hessen"}},{"name":"Rebenweg","postalCode":"36381","locality":"Schlüchtern","municipality":{"key":"06435025","name":"Schlüchtern, Stadt","type":"Stadt"},"district":{"key":"06435","name":"Main-Kinzig-Kreis","type":"Landkreis"},"federalState":{"key":"06","name":"Hessen"}},{"name":"Reithweg","postalCode":"36381","locality":"Schlüchtern","municipality":{"key":"06435025","name":"Schlüchtern, Stadt","type":"Stadt"},"district":{"key":"06435","name":"Main-Kinzig-Kreis","type":"Landkreis"},"federalState":{"key":"06","name":"Hessen"}},{"name":"Rennwiesenweg","postalCode":"36381","locality":"Schlüchtern","municipality":{"key":"06435025","name":"Schlüchtern, Stadt","type":"Stadt"},"district":{"key":"06435","name":"Main-Kinzig-Kreis","type":"Landkreis"},"federalState":{"key":"06","name":"Hessen"}},{"name":"Rhönstr.","postalCode":"36381","locality":"Schlüchtern","municipality":{"key":"06435025","name":"Schlüchtern, Stadt","type":"Stadt"},"district":{"key":"06435","name":"Main-Kinzig-Kreis","type":"Landkreis"},"federalState":{"key":"06","name":"Hessen"}},{"name":"Riedweg","postalCode":"36381","locality":"Schlüchtern","municipality":{"key":"06435025","name":"Schlüchtern, Stadt","type":"Stadt"},"district":{"key":"06435","name":"Main-Kinzig-Kreis","type":"Landkreis"},"federalState":{"key":"06","name":"Hessen"}},{"name":"Ringstr.","postalCode":"36381","locality":"Schlüchtern","municipality":{"key":"06435025","name":"Schlüchtern, Stadt","type":"Stadt"},"district":{"key":"06435","name":"Main-Kinzig-Kreis","type":"Landkreis"},"federalState":{"key":"06","name":"Hessen"}},{"name":"Röhrigs","postalCode":"36381","locality":"Schlüchtern","municipality":{"key":"06435025","name":"Schlüchtern, Stadt","type":"Stadt"},"district":{"key":"06435","name":"Main-Kinzig-Kreis","type":"Landkreis"},"federalState":{"key":"06","name":"Hessen"}},{"name":"Rosenmühle","postalCode":"36381","locality":"Schlüchtern","municipality":{"key":"06435025","name":"Schlüchtern, Stadt","type":"Stadt"},"district":{"key":"06435","name":"Main-Kinzig-Kreis","type":"Landkreis"},"federalState":{"key":"06","name":"Hessen"}},{"name":"Rosenweg","postalCode":"36381","locality":"Schlüchtern","municipality":{"key":"06435025","name":"Schlüchtern, Stadt","type":"Stadt"},"district":{"key":"06435","name":"Main-Kinzig-Kreis","type":"Landkreis"},"federalState":{"key":"06","name":"Hessen"}},{"name":"Rotbuchenweg","postalCode":"36381","locality":"Schlüchtern","municipality":{"key":"06435025","name":"Schlüchtern, Stadt","type":"Stadt"},"district":{"key":"06435","name":"Main-Kinzig-Kreis","type":"Landkreis"},"federalState":{"key":"06","name":"Hessen"}},{"name":"Rötheweg","postalCode":"36381","locality":"Schlüchtern","municipality":{"key":"06435025","name":"Schlüchtern, Stadt","type":"Stadt"},"district":{"key":"06435","name":"Main-Kinzig-Kreis","type":"Landkreis"},"federalState":{"key":"06","name":"Hessen"}},{"name":"R. Philippi-Pfad","postalCode":"36381","locality":"Schlüchtern","municipality":{"key":"06435025","name":"Schlüchtern, Stadt","type":"Stadt"},"district":{"key":"06435","name":"Main-Kinzig-Kreis","type":"Landkreis"},"federalState":{"key":"06","name":"Hessen"}},{"name":"Rückerser Str.","postalCode":"36381","locality":"Schlüchtern","municipality":{"key":"06435025","name":"Schlüchtern, Stadt","type":"Stadt"},"district":{"key":"06435","name":"Main-Kinzig-Kreis","type":"Landkreis"},"federalState":{"key":"06","name":"Hessen"}},{"name":"Sackgasse","postalCode":"36381","locality":"Schlüchtern","municipality":{"key":"06435025","name":"Schlüchtern, Stadt","type":"Stadt"},"district":{"key":"06435","name":"Main-Kinzig-Kreis","type":"Landkreis"},"federalState":{"key":"06","name":"Hessen"}},{"name":"Salmünsterer Weg","postalCode":"36381","locality":"Schlüchtern","municipality":{"key":"06435025","name":"Schlüchtern, Stadt","type":"Stadt"},"district":{"key":"06435","name":"Main-Kinzig-Kreis","type":"Landkreis"},"federalState":{"key":"06","name":"Hessen"}},{"name":"Sandgarten","postalCode":"36381","locality":"Schlüchtern","municipality":{"key":"06435025","name":"Schlüchtern, Stadt","type":"Stadt"},"district":{"key":"06435","name":"Main-Kinzig-Kreis","type":"Landkreis"},"federalState":{"key":"06","name":"Hessen"}},{"name":"Sannerzer Str.","postalCode":"36381","locality":"Schlüchtern","municipality":{"key":"06435025","name":"Schlüchtern, Stadt","type":"Stadt"},"district":{"key":"06435","name":"Main-Kinzig-Kreis","type":"Landkreis"},"federalState":{"key":"06","name":"Hessen"}},{"name":"Schlagweg","postalCode":"36381","locality":"Schlüchtern","municipality":{"key":"06435025","name":"Schlüchtern, Stadt","type":"Stadt"},"district":{"key":"06435","name":"Main-Kinzig-Kreis","type":"Landkreis"},"federalState":{"key":"06","name":"Hessen"}},{"name":"Schlagwiesenstr.","postalCode":"36381","locality":"Schlüchtern","municipality":{"key":"06435025","name":"Schlüchtern, Stadt","type":"Stadt"},"district":{"key":"06435","name":"Main-Kinzig-Kreis","type":"Landkreis"},"federalState":{"key":"06","name":"Hessen"}},{"name":"Schlehenring","postalCode":"36381","locality":"Schlüchtern","municipality":{"key":"06435025","name":"Schlüchtern, Stadt","type":"Stadt"},"district":{"key":"06435","name":"Main-Kinzig-Kreis","type":"Landkreis"},"federalState":{"key":"06","name":"Hessen"}},{"name":"Schlittenweg","postalCode":"36381","locality":"Schlüchtern","municipality":{"key":"06435025","name":"Schlüchtern, Stadt","type":"Stadt"},"district":{"key":"06435","name":"Main-Kinzig-Kreis","type":"Landkreis"},"federalState":{"key":"06","name":"Hessen"}},{"name":"Schloßpark Ramholz","postalCode":"36381","locality":"Schlüchtern","municipality":{"key":"06435025","name":"Schlüchtern, Stadt","type":"Stadt"},"district":{"key":"06435","name":"Main-Kinzig-Kreis","type":"Landkreis"},"federalState":{"key":"06","name":"Hessen"}},{"name":"Schloßstr.","postalCode":"36381","locality":"Schlüchtern","municipality":{"key":"06435025","name":"Schlüchtern, Stadt","type":"Stadt"},"district":{"key":"06435","name":"Main-Kinzig-Kreis","type":"Landkreis"},"federalState":{"key":"06","name":"Hessen"}},{"name":"Schmiedsgasse","postalCode":"36381","locality":"Schlüchtern","municipality":{"key":"06435025","name":"Schlüchtern, Stadt","type":"Stadt"},"district":{"key":"06435","name":"Main-Kinzig-Kreis","type":"Landkreis"},"federalState":{"key":"06","name":"Hessen"}},{"name":"Schneitweg","postalCode":"36381","locality":"Schlüchtern","municipality":{"key":"06435025","name":"Schlüchtern, Stadt","type":"Stadt"},"district":{"key":"06435","name":"Main-Kinzig-Kreis","type":"Landkreis"},"federalState":{"key":"06","name":"Hessen"}},{"name":"Schöne Aussicht","postalCode":"36381","locality":"Schlüchtern","municipality":{"key":"06435025","name":"Schlüchtern, Stadt","type":"Stadt"},"district":{"key":"06435","name":"Main-Kinzig-Kreis","type":"Landkreis"},"federalState":{"key":"06","name":"Hessen"}},{"name":"Schulstr.","postalCode":"36381","locality":"Schlüchtern","municipality":{"key":"06435025","name":"Schlüchtern, Stadt","type":"Stadt"},"district":{"key":"06435","name":"Main-Kinzig-Kreis","type":"Landkreis"},"federalState":{"key":"06","name":"Hessen"}},{"name":"Schützenweg","postalCode":"36381","locality":"Schlüchtern","municipality":{"key":"06435025","name":"Schlüchtern, Stadt","type":"Stadt"},"district":{"key":"06435","name":"Main-Kinzig-Kreis","type":"Landkreis"},"federalState":{"key":"06","name":"Hessen"}},{"name":"Schwarzbachstr.","postalCode":"36381","locality":"Schlüchtern","municipality":{"key":"06435025","name":"Schlüchtern, Stadt","type":"Stadt"},"district":{"key":"06435","name":"Main-Kinzig-Kreis","type":"Landkreis"},"federalState":{"key":"06","name":"Hessen"}},{"name":"Schwarzdornweg","postalCode":"36381","locality":"Schlüchtern","municipality":{"key":"06435025","name":"Schlüchtern, Stadt","type":"Stadt"},"district":{"key":"06435","name":"Main-Kinzig-Kreis","type":"Landkreis"},"federalState":{"key":"06","name":"Hessen"}},{"name":"Seidelbastring","postalCode":"36381","locality":"Schlüchtern","municipality":{"key":"06435025","name":"Schlüchtern, Stadt","type":"Stadt"},"district":{"key":"06435","name":"Main-Kinzig-Kreis","type":"Landkreis"},"federalState":{"key":"06","name":"Hessen"}},{"name":"Seilerweg","postalCode":"36381","locality":"Schlüchtern","municipality":{"key":"06435025","name":"Schlüchtern, Stadt","type":"Stadt"},"district":{"key":"06435","name":"Main-Kinzig-Kreis","type":"Landkreis"},"federalState":{"key":"06","name":"Hessen"}},{"name":"Siedlung","postalCode":"36381","locality":"Schlüchtern","municipality":{"key":"06435025","name":"Schlüchtern, Stadt","type":"Stadt"},"district":{"key":"06435","name":"Main-Kinzig-Kreis","type":"Landkreis"},"federalState":{"key":"06","name":"Hessen"}},{"name":"Sonnenweg","postalCode":"36381","locality":"Schlüchtern","municipality":{"key":"06435025","name":"Schlüchtern, Stadt","type":"Stadt"},"district":{"key":"06435","name":"Main-Kinzig-Kreis","type":"Landkreis"},"federalState":{"key":"06","name":"Hessen"}},{"name":"Spechtstr.","postalCode":"36381","locality":"Schlüchtern","municipality":{"key":"06435025","name":"Schlüchtern, Stadt","type":"Stadt"},"district":{"key":"06435","name":"Main-Kinzig-Kreis","type":"Landkreis"},"federalState":{"key":"06","name":"Hessen"}},{"name":"Spenglersruh","postalCode":"36381","locality":"Schlüchtern","municipality":{"key":"06435025","name":"Schlüchtern, Stadt","type":"Stadt"},"district":{"key":"06435","name":"Main-Kinzig-Kreis","type":"Landkreis"},"federalState":{"key":"06","name":"Hessen"}},{"name":"Spessartstr.","postalCode":"36381","locality":"Schlüchtern","municipality":{"key":"06435025","name":"Schlüchtern, Stadt","type":"Stadt"},"district":{"key":"06435","name":"Main-Kinzig-Kreis","type":"Landkreis"},"federalState":{"key":"06","name":"Hessen"}},{"name":"Spiegelacker","postalCode":"36381","locality":"Schlüchtern","municipality":{"key":"06435025","name":"Schlüchtern, Stadt","type":"Stadt"},"district":{"key":"06435","name":"Main-Kinzig-Kreis","type":"Landkreis"},"federalState":{"key":"06","name":"Hessen"}},{"name":"Städtermühle","postalCode":"36381","locality":"Schlüchtern","municipality":{"key":"06435025","name":"Schlüchtern, Stadt","type":"Stadt"},"district":{"key":"06435","name":"Main-Kinzig-Kreis","type":"Landkreis"},"federalState":{"key":"06","name":"Hessen"}},{"name":"Stadtplatz","postalCode":"36381","locality":"Schlüchtern","municipality":{"key":"06435025","name":"Schlüchtern, Stadt","type":"Stadt"},"district":{"key":"06435","name":"Main-Kinzig-Kreis","type":"Landkreis"},"federalState":{"key":"06","name":"Hessen"}},{"name":"Steinauer Weg","postalCode":"36381","locality":"Schlüchtern","municipality":{"key":"06435025","name":"Schlüchtern, Stadt","type":"Stadt"},"district":{"key":"06435","name":"Main-Kinzig-Kreis","type":"Landkreis"},"federalState":{"key":"06","name":"Hessen"}},{"name":"Steinhaagweg","postalCode":"36381","locality":"Schlüchtern","municipality":{"key":"06435025","name":"Schlüchtern, Stadt","type":"Stadt"},"district":{"key":"06435","name":"Main-Kinzig-Kreis","type":"Landkreis"},"federalState":{"key":"06","name":"Hessen"}},{"name":"Steinkaute","postalCode":"36381","locality":"Schlüchtern","municipality":{"key":"06435025","name":"Schlüchtern, Stadt","type":"Stadt"},"district":{"key":"06435","name":"Main-Kinzig-Kreis","type":"Landkreis"},"federalState":{"key":"06","name":"Hessen"}},{"name":"Steinweg","postalCode":"36381","locality":"Schlüchtern","municipality":{"key":"06435025","name":"Schlüchtern, Stadt","type":"Stadt"},"district":{"key":"06435","name":"Main-Kinzig-Kreis","type":"Landkreis"},"federalState":{"key":"06","name":"Hessen"}},{"name":"Strauchweg","postalCode":"36381","locality":"Schlüchtern","municipality":{"key":"06435025","name":"Schlüchtern, Stadt","type":"Stadt"},"district":{"key":"06435","name":"Main-Kinzig-Kreis","type":"Landkreis"},"federalState":{"key":"06","name":"Hessen"}},{"name":"Struthrain","postalCode":"36381","locality":"Schlüchtern","municipality":{"key":"06435025","name":"Schlüchtern, Stadt","type":"Stadt"},"district":{"key":"06435","name":"Main-Kinzig-Kreis","type":"Landkreis"},"federalState":{"key":"06","name":"Hessen"}},{"name":"Struthweg","postalCode":"36381","locality":"Schlüchtern","municipality":{"key":"06435025","name":"Schlüchtern, Stadt","type":"Stadt"},"district":{"key":"06435","name":"Main-Kinzig-Kreis","type":"Landkreis"},"federalState":{"key":"06","name":"Hessen"}},{"name":"Talweg","postalCode":"36381","locality":"Schlüchtern","municipality":{"key":"06435025","name":"Schlüchtern, Stadt","type":"Stadt"},"district":{"key":"06435","name":"Main-Kinzig-Kreis","type":"Landkreis"},"federalState":{"key":"06","name":"Hessen"}},{"name":"Tannenstr.","postalCode":"36381","locality":"Schlüchtern","municipality":{"key":"06435025","name":"Schlüchtern, Stadt","type":"Stadt"},"district":{"key":"06435","name":"Main-Kinzig-Kreis","type":"Landkreis"},"federalState":{"key":"06","name":"Hessen"}},{"name":"Tannenweg","postalCode":"36381","locality":"Schlüchtern","municipality":{"key":"06435025","name":"Schlüchtern, Stadt","type":"Stadt"},"district":{"key":"06435","name":"Main-Kinzig-Kreis","type":"Landkreis"},"federalState":{"key":"06","name":"Hessen"}},{"name":"Tulpenweg","postalCode":"36381","locality":"Schlüchtern","municipality":{"key":"06435025","name":"Schlüchtern, Stadt","type":"Stadt"},"district":{"key":"06435","name":"Main-Kinzig-Kreis","type":"Landkreis"},"federalState":{"key":"06","name":"Hessen"}},{"name":"Uferweg","postalCode":"36381","locality":"Schlüchtern","municipality":{"key":"06435025","name":"Schlüchtern, Stadt","type":"Stadt"},"district":{"key":"06435","name":"Main-Kinzig-Kreis","type":"Landkreis"},"federalState":{"key":"06","name":"Hessen"}},{"name":"Ulmenstr.","postalCode":"36381","locality":"Schlüchtern","municipality":{"key":"06435025","name":"Schlüchtern, Stadt","type":"Stadt"},"district":{"key":"06435","name":"Main-Kinzig-Kreis","type":"Landkreis"},"federalState":{"key":"06","name":"Hessen"}},{"name":"Ulrich-von-Hutten-Str.","postalCode":"36381","locality":"Schlüchtern","municipality":{"key":"06435025","name":"Schlüchtern, Stadt","type":"Stadt"},"district":{"key":"06435","name":"Main-Kinzig-Kreis","type":"Landkreis"},"federalState":{"key":"06","name":"Hessen"}},{"name":"Umgehungsstr. Nord","postalCode":"36381","locality":"Schlüchtern","municipality":{"key":"06435025","name":"Schlüchtern, Stadt","type":"Stadt"},"district":{"key":"06435","name":"Main-Kinzig-Kreis","type":"Landkreis"},"federalState":{"key":"06","name":"Hessen"}},{"name":"Unter den Linden","postalCode":"36381","locality":"Schlüchtern","municipality":{"key":"06435025","name":"Schlüchtern, Stadt","type":"Stadt"},"district":{"key":"06435","name":"Main-Kinzig-Kreis","type":"Landkreis"},"federalState":{"key":"06","name":"Hessen"}},{"name":"Untere Heeg","postalCode":"36381","locality":"Schlüchtern","municipality":{"key":"06435025","name":"Schlüchtern, Stadt","type":"Stadt"},"district":{"key":"06435","name":"Main-Kinzig-Kreis","type":"Landkreis"},"federalState":{"key":"06","name":"Hessen"}},{"name":"Unterm Giebel","postalCode":"36381","locality":"Schlüchtern","municipality":{"key":"06435025","name":"Schlüchtern, Stadt","type":"Stadt"},"district":{"key":"06435","name":"Main-Kinzig-Kreis","type":"Landkreis"},"federalState":{"key":"06","name":"Hessen"}},{"name":"Veitsteinbacher Str.","postalCode":"36381","locality":"Schlüchtern","municipality":{"key":"06435025","name":"Schlüchtern, Stadt","type":"Stadt"},"district":{"key":"06435","name":"Main-Kinzig-Kreis","type":"Landkreis"},"federalState":{"key":"06","name":"Hessen"}},{"name":"Vogelsbergstr.","postalCode":"36381","locality":"Schlüchtern","municipality":{"key":"06435025","name":"Schlüchtern, Stadt","type":"Stadt"},"district":{"key":"06435","name":"Main-Kinzig-Kreis","type":"Landkreis"},"federalState":{"key":"06","name":"Hessen"}},{"name":"Wallrother Str.","postalCode":"36381","locality":"Schlüchtern","municipality":{"key":"06435025","name":"Schlüchtern, Stadt","type":"Stadt"},"district":{"key":"06435","name":"Main-Kinzig-Kreis","type":"Landkreis"},"federalState":{"key":"06","name":"Hessen"}},{"name":"Wassergasse","postalCode":"36381","locality":"Schlüchtern","municipality":{"key":"06435025","name":"Schlüchtern, Stadt","type":"Stadt"},"district":{"key":"06435","name":"Main-Kinzig-Kreis","type":"Landkreis"},"federalState":{"key":"06","name":"Hessen"}},{"name":"Weigels","postalCode":"36381","locality":"Schlüchtern","municipality":{"key":"06435025","name":"Schlüchtern, Stadt","type":"Stadt"},"district":{"key":"06435","name":"Main-Kinzig-Kreis","type":"Landkreis"},"federalState":{"key":"06","name":"Hessen"}},{"name":"Weinbergstr.","postalCode":"36381","locality":"Schlüchtern","municipality":{"key":"06435025","name":"Schlüchtern, Stadt","type":"Stadt"},"district":{"key":"06435","name":"Main-Kinzig-Kreis","type":"Landkreis"},"federalState":{"key":"06","name":"Hessen"}},{"name":"Weinstr.","postalCode":"36381","locality":"Schlüchtern","municipality":{"key":"06435025","name":"Schlüchtern, Stadt","type":"Stadt"},"district":{"key":"06435","name":"Main-Kinzig-Kreis","type":"Landkreis"},"federalState":{"key":"06","name":"Hessen"}},{"name":"Weisbergstr.","postalCode":"36381","locality":"Schlüchtern","municipality":{"key":"06435025","name":"Schlüchtern, Stadt","type":"Stadt"},"district":{"key":"06435","name":"Main-Kinzig-Kreis","type":"Landkreis"},"federalState":{"key":"06","name":"Hessen"}},{"name":"Weißbachstr.","postalCode":"36381","locality":"Schlüchtern","municipality":{"key":"06435025","name":"Schlüchtern, Stadt","type":"Stadt"},"district":{"key":"06435","name":"Main-Kinzig-Kreis","type":"Landkreis"},"federalState":{"key":"06","name":"Hessen"}},{"name":"Weißdornweg","postalCode":"36381","locality":"Schlüchtern","municipality":{"key":"06435025","name":"Schlüchtern, Stadt","type":"Stadt"},"district":{"key":"06435","name":"Main-Kinzig-Kreis","type":"Landkreis"},"federalState":{"key":"06","name":"Hessen"}},{"name":"Weitzelstr.","postalCode":"36381","locality":"Schlüchtern","municipality":{"key":"06435025","name":"Schlüchtern, Stadt","type":"Stadt"},"district":{"key":"06435","name":"Main-Kinzig-Kreis","type":"Landkreis"},"federalState":{"key":"06","name":"Hessen"}},{"name":"Wiener Eck","postalCode":"36381","locality":"Schlüchtern","municipality":{"key":"06435025","name":"Schlüchtern, Stadt","type":"Stadt"},"district":{"key":"06435","name":"Main-Kinzig-Kreis","type":"Landkreis"},"federalState":{"key":"06","name":"Hessen"}},{"name":"Wiesenweg","postalCode":"36381","locality":"Schlüchtern","municipality":{"key":"06435025","name":"Schlüchtern, Stadt","type":"Stadt"},"district":{"key":"06435","name":"Main-Kinzig-Kreis","type":"Landkreis"},"federalState":{"key":"06","name":"Hessen"}},{"name":"Zehntstr.","postalCode":"36381","locality":"Schlüchtern","municipality":{"key":"06435025","name":"Schlüchtern, Stadt","type":"Stadt"},"district":{"key":"06435","name":"Main-Kinzig-Kreis","type":"Landkreis"},"federalState":{"key":"06","name":"Hessen"}},{"name":"Zementwerk","postalCode":"36381","locality":"Schlüchtern","municipality":{"key":"06435025","name":"Schlüchtern, Stadt","type":"Stadt"},"district":{"key":"06435","name":"Main-Kinzig-Kreis","type":"Landkreis"},"federalState":{"key":"06","name":"Hessen"}},{"name":"Ziegenbergweg","postalCode":"36381","locality":"Schlüchtern","municipality":{"key":"06435025","name":"Schlüchtern, Stadt","type":"Stadt"},"district":{"key":"06435","name":"Main-Kinzig-Kreis","type":"Landkreis"},"federalState":{"key":"06","name":"Hessen"}},{"name":"Zum Brückchen","postalCode":"36381","locality":"Schlüchtern","municipality":{"key":"06435025","name":"Schlüchtern, Stadt","type":"Stadt"},"district":{"key":"06435","name":"Main-Kinzig-Kreis","type":"Landkreis"},"federalState":{"key":"06","name":"Hessen"}},{"name":"Zum Gerlingsberg","postalCode":"36381","locality":"Schlüchtern","municipality":{"key":"06435025","name":"Schlüchtern, Stadt","type":"Stadt"},"district":{"key":"06435","name":"Main-Kinzig-Kreis","type":"Landkreis"},"federalState":{"key":"06","name":"Hessen"}},{"name":"Zum Hirzfeld","postalCode":"36381","locality":"Schlüchtern","municipality":{"key":"06435025","name":"Schlüchtern, Stadt","type":"Stadt"},"district":{"key":"06435","name":"Main-Kinzig-Kreis","type":"Landkreis"},"federalState":{"key":"06","name":"Hessen"}},{"name":"Zum Kindergarten","postalCode":"36381","locality":"Schlüchtern","municipality":{"key":"06435025","name":"Schlüchtern, Stadt","type":"Stadt"},"district":{"key":"06435","name":"Main-Kinzig-Kreis","type":"Landkreis"},"federalState":{"key":"06","name":"Hessen"}},{"name":"Zum Weißen Grund","postalCode":"36381","locality":"Schlüchtern","municipality":{"key":"06435025","name":"Schlüchtern, Stadt","type":"Stadt"},"district":{"key":"06435","name":"Main-Kinzig-Kreis","type":"Landkreis"},"federalState":{"key":"06","name":"Hessen"}},{"name":"Zum Wilden Stein","postalCode":"36381","locality":"Schlüchtern","municipality":{"key":"06435025","name":"Schlüchtern, Stadt","type":"Stadt"},"district":{"key":"06435","name":"Main-Kinzig-Kreis","type":"Landkreis"},"federalState":{"key":"06","name":"Hessen"}},{"name":"Zur Dornenhecke","postalCode":"36381","locality":"Schlüchtern","municipality":{"key":"06435025","name":"Schlüchtern, Stadt","type":"Stadt"},"district":{"key":"06435","name":"Main-Kinzig-Kreis","type":"Landkreis"},"federalState":{"key":"06","name":"Hessen"}},{"name":"Zur Kötzenmühle","postalCode":"36381","locality":"Schlüchtern","municipality":{"key":"06435025","name":"Schlüchtern, Stadt","type":"Stadt"},"district":{"key":"06435","name":"Main-Kinzig-Kreis","type":"Landkreis"},"federalState":{"key":"06","name":"Hessen"}},{"name":"Zur Lieserhöhe","postalCode":"36381","locality":"Schlüchtern","municipality":{"key":"06435025","name":"Schlüchtern, Stadt","type":"Stadt"},"district":{"key":"06435","name":"Main-Kinzig-Kreis","type":"Landkreis"},"federalState":{"key":"06","name":"Hessen"}},{"name":"Zur Neuen Siedlung","postalCode":"36381","locality":"Schlüchtern","municipality":{"key":"06435025","name":"Schlüchtern, Stadt","type":"Stadt"},"district":{"key":"06435","name":"Main-Kinzig-Kreis","type":"Landkreis"},"federalState":{"key":"06","name":"Hessen"}},{"name":"Zur Schießhütte","postalCode":"36381","locality":"Schlüchtern","municipality":{"key":"06435025","name":"Schlüchtern, Stadt","type":"Stadt"},"district":{"key":"06435","name":"Main-Kinzig-Kreis","type":"Landkreis"},"federalState":{"key":"06","name":"Hessen"}},]