[{"name":"Aalweg","postalCode":"26556","locality":"Westerholt","municipality":{"key":"03462018","name":"Westerholt","type":"Kreisangehörige_Gemeinde"},"district":{"key":"03462","name":"Wittmund","type":"Landkreis"},"federalState":{"key":"03","name":"Niedersachsen"}},{"name":"Alter Postweg","postalCode":"26556","locality":"Westerholt","municipality":{"key":"03462018","name":"Westerholt","type":"Kreisangehörige_Gemeinde"},"district":{"key":"03462","name":"Wittmund","type":"Landkreis"},"federalState":{"key":"03","name":"Niedersachsen"}},{"name":"Am Gehölz","postalCode":"26556","locality":"Westerholt","municipality":{"key":"03462018","name":"Westerholt","type":"Kreisangehörige_Gemeinde"},"district":{"key":"03462","name":"Wittmund","type":"Landkreis"},"federalState":{"key":"03","name":"Niedersachsen"}},{"name":"Am Schützenplatz","postalCode":"26556","locality":"Westerholt","municipality":{"key":"03462018","name":"Westerholt","type":"Kreisangehörige_Gemeinde"},"district":{"key":"03462","name":"Wittmund","type":"Landkreis"},"federalState":{"key":"03","name":"Niedersachsen"}},{"name":"Am Wall","postalCode":"26556","locality":"Westerholt","municipality":{"key":"03462018","name":"Westerholt","type":"Kreisangehörige_Gemeinde"},"district":{"key":"03462","name":"Wittmund","type":"Landkreis"},"federalState":{"key":"03","name":"Niedersachsen"}},{"name":"An der Mühle","postalCode":"26556","locality":"Westerholt","municipality":{"key":"03462018","name":"Westerholt","type":"Kreisangehörige_Gemeinde"},"district":{"key":"03462","name":"Wittmund","type":"Landkreis"},"federalState":{"key":"03","name":"Niedersachsen"}},{"name":"An't Deep","postalCode":"26556","locality":"Westerholt","municipality":{"key":"03462018","name":"Westerholt","type":"Kreisangehörige_Gemeinde"},"district":{"key":"03462","name":"Wittmund","type":"Landkreis"},"federalState":{"key":"03","name":"Niedersachsen"}},{"name":"Ant Gast","postalCode":"26556","locality":"Westerholt","municipality":{"key":"03462018","name":"Westerholt","type":"Kreisangehörige_Gemeinde"},"district":{"key":"03462","name":"Wittmund","type":"Landkreis"},"federalState":{"key":"03","name":"Niedersachsen"}},{"name":"Auricher Str.","postalCode":"26556","locality":"Westerholt","municipality":{"key":"03462018","name":"Westerholt","type":"Kreisangehörige_Gemeinde"},"district":{"key":"03462","name":"Wittmund","type":"Landkreis"},"federalState":{"key":"03","name":"Niedersachsen"}},{"name":"Birkenweg","postalCode":"26556","locality":"Westerholt","municipality":{"key":"03462018","name":"Westerholt","type":"Kreisangehörige_Gemeinde"},"district":{"key":"03462","name":"Wittmund","type":"Landkreis"},"federalState":{"key":"03","name":"Niedersachsen"}},{"name":"Bonisweg","postalCode":"26556","locality":"Westerholt","municipality":{"key":"03462018","name":"Westerholt","type":"Kreisangehörige_Gemeinde"},"district":{"key":"03462","name":"Wittmund","type":"Landkreis"},"federalState":{"key":"03","name":"Niedersachsen"}},{"name":"Bültenweg","postalCode":"26556","locality":"Westerholt","municipality":{"key":"03462018","name":"Westerholt","type":"Kreisangehörige_Gemeinde"},"district":{"key":"03462","name":"Wittmund","type":"Landkreis"},"federalState":{"key":"03","name":"Niedersachsen"}},{"name":"Closterstr.","postalCode":"26556","locality":"Westerholt","municipality":{"key":"03462018","name":"Westerholt","type":"Kreisangehörige_Gemeinde"},"district":{"key":"03462","name":"Wittmund","type":"Landkreis"},"federalState":{"key":"03","name":"Niedersachsen"}},{"name":"Dahlienstr.","postalCode":"26556","locality":"Westerholt","municipality":{"key":"03462018","name":"Westerholt","type":"Kreisangehörige_Gemeinde"},"district":{"key":"03462","name":"Wittmund","type":"Landkreis"},"federalState":{"key":"03","name":"Niedersachsen"}},{"name":"Dargerweg","postalCode":"26556","locality":"Westerholt","municipality":{"key":"03462018","name":"Westerholt","type":"Kreisangehörige_Gemeinde"},"district":{"key":"03462","name":"Wittmund","type":"Landkreis"},"federalState":{"key":"03","name":"Niedersachsen"}},{"name":"Dornumer Str.","postalCode":"26556","locality":"Westerholt","municipality":{"key":"03462018","name":"Westerholt","type":"Kreisangehörige_Gemeinde"},"district":{"key":"03462","name":"Wittmund","type":"Landkreis"},"federalState":{"key":"03","name":"Niedersachsen"}},{"name":"Dünenkamp","postalCode":"26556","locality":"Westerholt","municipality":{"key":"03462018","name":"Westerholt","type":"Kreisangehörige_Gemeinde"},"district":{"key":"03462","name":"Wittmund","type":"Landkreis"},"federalState":{"key":"03","name":"Niedersachsen"}},{"name":"Eichenweg","postalCode":"26556","locality":"Westerholt","municipality":{"key":"03462018","name":"Westerholt","type":"Kreisangehörige_Gemeinde"},"district":{"key":"03462","name":"Wittmund","type":"Landkreis"},"federalState":{"key":"03","name":"Niedersachsen"}},{"name":"Eichweg","postalCode":"26556","locality":"Westerholt","municipality":{"key":"03462018","name":"Westerholt","type":"Kreisangehörige_Gemeinde"},"district":{"key":"03462","name":"Wittmund","type":"Landkreis"},"federalState":{"key":"03","name":"Niedersachsen"}},{"name":"Ellernweg","postalCode":"26556","locality":"Westerholt","municipality":{"key":"03462018","name":"Westerholt","type":"Kreisangehörige_Gemeinde"},"district":{"key":"03462","name":"Wittmund","type":"Landkreis"},"federalState":{"key":"03","name":"Niedersachsen"}},{"name":"Esenser Str.","postalCode":"26556","locality":"Westerholt","municipality":{"key":"03462018","name":"Westerholt","type":"Kreisangehörige_Gemeinde"},"district":{"key":"03462","name":"Wittmund","type":"Landkreis"},"federalState":{"key":"03","name":"Niedersachsen"}},{"name":"Ewigsweg","postalCode":"26556","locality":"Westerholt","municipality":{"key":"03462018","name":"Westerholt","type":"Kreisangehörige_Gemeinde"},"district":{"key":"03462","name":"Wittmund","type":"Landkreis"},"federalState":{"key":"03","name":"Niedersachsen"}},{"name":"Fasanenweg","postalCode":"26556","locality":"Westerholt","municipality":{"key":"03462018","name":"Westerholt","type":"Kreisangehörige_Gemeinde"},"district":{"key":"03462","name":"Wittmund","type":"Landkreis"},"federalState":{"key":"03","name":"Niedersachsen"}},{"name":"Forstweg","postalCode":"26556","locality":"Westerholt","municipality":{"key":"03462018","name":"Westerholt","type":"Kreisangehörige_Gemeinde"},"district":{"key":"03462","name":"Wittmund","type":"Landkreis"},"federalState":{"key":"03","name":"Niedersachsen"}},{"name":"Gartenstr.","postalCode":"26556","locality":"Westerholt","municipality":{"key":"03462018","name":"Westerholt","type":"Kreisangehörige_Gemeinde"},"district":{"key":"03462","name":"Wittmund","type":"Landkreis"},"federalState":{"key":"03","name":"Niedersachsen"}},{"name":"Gastallee","postalCode":"26556","locality":"Westerholt","municipality":{"key":"03462018","name":"Westerholt","type":"Kreisangehörige_Gemeinde"},"district":{"key":"03462","name":"Wittmund","type":"Landkreis"},"federalState":{"key":"03","name":"Niedersachsen"}},{"name":"Gastkamp","postalCode":"26556","locality":"Westerholt","municipality":{"key":"03462018","name":"Westerholt","type":"Kreisangehörige_Gemeinde"},"district":{"key":"03462","name":"Wittmund","type":"Landkreis"},"federalState":{"key":"03","name":"Niedersachsen"}},{"name":"Gastriege","postalCode":"26556","locality":"Westerholt","municipality":{"key":"03462018","name":"Westerholt","type":"Kreisangehörige_Gemeinde"},"district":{"key":"03462","name":"Wittmund","type":"Landkreis"},"federalState":{"key":"03","name":"Niedersachsen"}},{"name":"Gastring","postalCode":"26556","locality":"Westerholt","municipality":{"key":"03462018","name":"Westerholt","type":"Kreisangehörige_Gemeinde"},"district":{"key":"03462","name":"Wittmund","type":"Landkreis"},"federalState":{"key":"03","name":"Niedersachsen"}},{"name":"Gewerbegebiet West","postalCode":"26556","locality":"Westerholt","municipality":{"key":"03462018","name":"Westerholt","type":"Kreisangehörige_Gemeinde"},"district":{"key":"03462","name":"Wittmund","type":"Landkreis"},"federalState":{"key":"03","name":"Niedersachsen"}},{"name":"Grenzweg","postalCode":"26556","locality":"Westerholt","municipality":{"key":"03462018","name":"Westerholt","type":"Kreisangehörige_Gemeinde"},"district":{"key":"03462","name":"Wittmund","type":"Landkreis"},"federalState":{"key":"03","name":"Niedersachsen"}},{"name":"Hammerweg","postalCode":"26556","locality":"Westerholt","municipality":{"key":"03462018","name":"Westerholt","type":"Kreisangehörige_Gemeinde"},"district":{"key":"03462","name":"Wittmund","type":"Landkreis"},"federalState":{"key":"03","name":"Niedersachsen"}},{"name":"Hasenpad","postalCode":"26556","locality":"Westerholt","municipality":{"key":"03462018","name":"Westerholt","type":"Kreisangehörige_Gemeinde"},"district":{"key":"03462","name":"Wittmund","type":"Landkreis"},"federalState":{"key":"03","name":"Niedersachsen"}},{"name":"Heidkamp","postalCode":"26556","locality":"Westerholt","municipality":{"key":"03462018","name":"Westerholt","type":"Kreisangehörige_Gemeinde"},"district":{"key":"03462","name":"Wittmund","type":"Landkreis"},"federalState":{"key":"03","name":"Niedersachsen"}},{"name":"Heidweg","postalCode":"26556","locality":"Westerholt","municipality":{"key":"03462018","name":"Westerholt","type":"Kreisangehörige_Gemeinde"},"district":{"key":"03462","name":"Wittmund","type":"Landkreis"},"federalState":{"key":"03","name":"Niedersachsen"}},{"name":"Holtfehner Weg","postalCode":"26556","locality":"Westerholt","municipality":{"key":"03462018","name":"Westerholt","type":"Kreisangehörige_Gemeinde"},"district":{"key":"03462","name":"Wittmund","type":"Landkreis"},"federalState":{"key":"03","name":"Niedersachsen"}},{"name":"Holtkamp","postalCode":"26556","locality":"Westerholt","municipality":{"key":"03462018","name":"Westerholt","type":"Kreisangehörige_Gemeinde"},"district":{"key":"03462","name":"Wittmund","type":"Landkreis"},"federalState":{"key":"03","name":"Niedersachsen"}},{"name":"Im Düneneck","postalCode":"26556","locality":"Westerholt","municipality":{"key":"03462018","name":"Westerholt","type":"Kreisangehörige_Gemeinde"},"district":{"key":"03462","name":"Wittmund","type":"Landkreis"},"federalState":{"key":"03","name":"Niedersachsen"}},{"name":"Im Gewerbegebiet","postalCode":"26556","locality":"Westerholt","municipality":{"key":"03462018","name":"Westerholt","type":"Kreisangehörige_Gemeinde"},"district":{"key":"03462","name":"Wittmund","type":"Landkreis"},"federalState":{"key":"03","name":"Niedersachsen"}},{"name":"Jackmoorskamp","postalCode":"26556","locality":"Westerholt","municipality":{"key":"03462018","name":"Westerholt","type":"Kreisangehörige_Gemeinde"},"district":{"key":"03462","name":"Wittmund","type":"Landkreis"},"federalState":{"key":"03","name":"Niedersachsen"}},{"name":"Jackmoorsring","postalCode":"26556","locality":"Westerholt","municipality":{"key":"03462018","name":"Westerholt","type":"Kreisangehörige_Gemeinde"},"district":{"key":"03462","name":"Wittmund","type":"Landkreis"},"federalState":{"key":"03","name":"Niedersachsen"}},{"name":"Jackmoorsweg","postalCode":"26556","locality":"Westerholt","municipality":{"key":"03462018","name":"Westerholt","type":"Kreisangehörige_Gemeinde"},"district":{"key":"03462","name":"Wittmund","type":"Landkreis"},"federalState":{"key":"03","name":"Niedersachsen"}},{"name":"Kastanienweg","postalCode":"26556","locality":"Westerholt","municipality":{"key":"03462018","name":"Westerholt","type":"Kreisangehörige_Gemeinde"},"district":{"key":"03462","name":"Wittmund","type":"Landkreis"},"federalState":{"key":"03","name":"Niedersachsen"}},{"name":"Kirchgasse","postalCode":"26556","locality":"Westerholt","municipality":{"key":"03462018","name":"Westerholt","type":"Kreisangehörige_Gemeinde"},"district":{"key":"03462","name":"Wittmund","type":"Landkreis"},"federalState":{"key":"03","name":"Niedersachsen"}},{"name":"Kirchweg","postalCode":"26556","locality":"Westerholt","municipality":{"key":"03462018","name":"Westerholt","type":"Kreisangehörige_Gemeinde"},"district":{"key":"03462","name":"Wittmund","type":"Landkreis"},"federalState":{"key":"03","name":"Niedersachsen"}},{"name":"Königsweg","postalCode":"26556","locality":"Westerholt","municipality":{"key":"03462018","name":"Westerholt","type":"Kreisangehörige_Gemeinde"},"district":{"key":"03462","name":"Wittmund","type":"Landkreis"},"federalState":{"key":"03","name":"Niedersachsen"}},{"name":"Kummerweg","postalCode":"26556","locality":"Westerholt","municipality":{"key":"03462018","name":"Westerholt","type":"Kreisangehörige_Gemeinde"},"district":{"key":"03462","name":"Wittmund","type":"Landkreis"},"federalState":{"key":"03","name":"Niedersachsen"}},{"name":"Leegmoorsweg","postalCode":"26556","locality":"Westerholt","municipality":{"key":"03462018","name":"Westerholt","type":"Kreisangehörige_Gemeinde"},"district":{"key":"03462","name":"Wittmund","type":"Landkreis"},"federalState":{"key":"03","name":"Niedersachsen"}},{"name":"Lerchenweg","postalCode":"26556","locality":"Westerholt","municipality":{"key":"03462018","name":"Westerholt","type":"Kreisangehörige_Gemeinde"},"district":{"key":"03462","name":"Wittmund","type":"Landkreis"},"federalState":{"key":"03","name":"Niedersachsen"}},{"name":"Lindenstr.","postalCode":"26556","locality":"Westerholt","municipality":{"key":"03462018","name":"Westerholt","type":"Kreisangehörige_Gemeinde"},"district":{"key":"03462","name":"Wittmund","type":"Landkreis"},"federalState":{"key":"03","name":"Niedersachsen"}},{"name":"Londerkampenweg","postalCode":"26556","locality":"Westerholt","municipality":{"key":"03462018","name":"Westerholt","type":"Kreisangehörige_Gemeinde"},"district":{"key":"03462","name":"Wittmund","type":"Landkreis"},"federalState":{"key":"03","name":"Niedersachsen"}},{"name":"Mittelgast","postalCode":"26556","locality":"Westerholt","municipality":{"key":"03462018","name":"Westerholt","type":"Kreisangehörige_Gemeinde"},"district":{"key":"03462","name":"Wittmund","type":"Landkreis"},"federalState":{"key":"03","name":"Niedersachsen"}},{"name":"Mittelweg","postalCode":"26556","locality":"Westerholt","municipality":{"key":"03462018","name":"Westerholt","type":"Kreisangehörige_Gemeinde"},"district":{"key":"03462","name":"Wittmund","type":"Landkreis"},"federalState":{"key":"03","name":"Niedersachsen"}},{"name":"Nordener Str.","postalCode":"26556","locality":"Westerholt","municipality":{"key":"03462018","name":"Westerholt","type":"Kreisangehörige_Gemeinde"},"district":{"key":"03462","name":"Wittmund","type":"Landkreis"},"federalState":{"key":"03","name":"Niedersachsen"}},{"name":"Nordergast","postalCode":"26556","locality":"Westerholt","municipality":{"key":"03462018","name":"Westerholt","type":"Kreisangehörige_Gemeinde"},"district":{"key":"03462","name":"Wittmund","type":"Landkreis"},"federalState":{"key":"03","name":"Niedersachsen"}},{"name":"Ollackerpad","postalCode":"26556","locality":"Westerholt","municipality":{"key":"03462018","name":"Westerholt","type":"Kreisangehörige_Gemeinde"},"district":{"key":"03462","name":"Wittmund","type":"Landkreis"},"federalState":{"key":"03","name":"Niedersachsen"}},{"name":"Ostergast","postalCode":"26556","locality":"Westerholt","municipality":{"key":"03462018","name":"Westerholt","type":"Kreisangehörige_Gemeinde"},"district":{"key":"03462","name":"Wittmund","type":"Landkreis"},"federalState":{"key":"03","name":"Niedersachsen"}},{"name":"Parkstr.","postalCode":"26556","locality":"Westerholt","municipality":{"key":"03462018","name":"Westerholt","type":"Kreisangehörige_Gemeinde"},"district":{"key":"03462","name":"Wittmund","type":"Landkreis"},"federalState":{"key":"03","name":"Niedersachsen"}},{"name":"Rathauspad","postalCode":"26556","locality":"Westerholt","municipality":{"key":"03462018","name":"Westerholt","type":"Kreisangehörige_Gemeinde"},"district":{"key":"03462","name":"Wittmund","type":"Landkreis"},"federalState":{"key":"03","name":"Niedersachsen"}},{"name":"Schulweg","postalCode":"26556","locality":"Westerholt","municipality":{"key":"03462018","name":"Westerholt","type":"Kreisangehörige_Gemeinde"},"district":{"key":"03462","name":"Wittmund","type":"Landkreis"},"federalState":{"key":"03","name":"Niedersachsen"}},{"name":"Siedlungsweg","postalCode":"26556","locality":"Westerholt","municipality":{"key":"03462018","name":"Westerholt","type":"Kreisangehörige_Gemeinde"},"district":{"key":"03462","name":"Wittmund","type":"Landkreis"},"federalState":{"key":"03","name":"Niedersachsen"}},{"name":"Südergast","postalCode":"26556","locality":"Westerholt","municipality":{"key":"03462018","name":"Westerholt","type":"Kreisangehörige_Gemeinde"},"district":{"key":"03462","name":"Wittmund","type":"Landkreis"},"federalState":{"key":"03","name":"Niedersachsen"}},{"name":"Tannenstr.","postalCode":"26556","locality":"Westerholt","municipality":{"key":"03462018","name":"Westerholt","type":"Kreisangehörige_Gemeinde"},"district":{"key":"03462","name":"Wittmund","type":"Landkreis"},"federalState":{"key":"03","name":"Niedersachsen"}},{"name":"Terheider Weg","postalCode":"26556","locality":"Westerholt","municipality":{"key":"03462018","name":"Westerholt","type":"Kreisangehörige_Gemeinde"},"district":{"key":"03462","name":"Wittmund","type":"Landkreis"},"federalState":{"key":"03","name":"Niedersachsen"}},{"name":"Up de Gast","postalCode":"26556","locality":"Westerholt","municipality":{"key":"03462018","name":"Westerholt","type":"Kreisangehörige_Gemeinde"},"district":{"key":"03462","name":"Wittmund","type":"Landkreis"},"federalState":{"key":"03","name":"Niedersachsen"}},{"name":"Up't Sandhöcht","postalCode":"26556","locality":"Westerholt","municipality":{"key":"03462018","name":"Westerholt","type":"Kreisangehörige_Gemeinde"},"district":{"key":"03462","name":"Wittmund","type":"Landkreis"},"federalState":{"key":"03","name":"Niedersachsen"}},{"name":"Vogskampen","postalCode":"26556","locality":"Westerholt","municipality":{"key":"03462018","name":"Westerholt","type":"Kreisangehörige_Gemeinde"},"district":{"key":"03462","name":"Wittmund","type":"Landkreis"},"federalState":{"key":"03","name":"Niedersachsen"}},{"name":"Waldweg","postalCode":"26556","locality":"Westerholt","municipality":{"key":"03462018","name":"Westerholt","type":"Kreisangehörige_Gemeinde"},"district":{"key":"03462","name":"Wittmund","type":"Landkreis"},"federalState":{"key":"03","name":"Niedersachsen"}},{"name":"Westergast","postalCode":"26556","locality":"Westerholt","municipality":{"key":"03462018","name":"Westerholt","type":"Kreisangehörige_Gemeinde"},"district":{"key":"03462","name":"Wittmund","type":"Landkreis"},"federalState":{"key":"03","name":"Niedersachsen"}},{"name":"Wiesenweg","postalCode":"26556","locality":"Westerholt","municipality":{"key":"03462018","name":"Westerholt","type":"Kreisangehörige_Gemeinde"},"district":{"key":"03462","name":"Wittmund","type":"Landkreis"},"federalState":{"key":"03","name":"Niedersachsen"}},{"name":"Zum Sportzentrum","postalCode":"26556","locality":"Westerholt","municipality":{"key":"03462018","name":"Westerholt","type":"Kreisangehörige_Gemeinde"},"district":{"key":"03462","name":"Wittmund","type":"Landkreis"},"federalState":{"key":"03","name":"Niedersachsen"}},{"name":"Zum Tief","postalCode":"26556","locality":"Westerholt","municipality":{"key":"03462018","name":"Westerholt","type":"Kreisangehörige_Gemeinde"},"district":{"key":"03462","name":"Wittmund","type":"Landkreis"},"federalState":{"key":"03","name":"Niedersachsen"}},{"name":"Zum Verdis","postalCode":"26556","locality":"Westerholt","municipality":{"key":"03462018","name":"Westerholt","type":"Kreisangehörige_Gemeinde"},"district":{"key":"03462","name":"Wittmund","type":"Landkreis"},"federalState":{"key":"03","name":"Niedersachsen"}},{"name":"Ülkegatt","postalCode":"26409","locality":"Wittmund","municipality":{"key":"03462019","name":"Wittmund, Stadt","type":"Stadt"},"district":{"key":"03462","name":"Wittmund","type":"Landkreis"},"federalState":{"key":"03","name":"Niedersachsen"}},]