[{"name":"Allerstedter Str.","postalCode":"06571","locality":"Roßleben-Wiehe","municipality":{"key":"16065087","name":"Roßleben-Wiehe, Stadt","type":"Stadt"},"district":{"key":"16065","name":"Kyffhäuserkreis","type":"Landkreis"},"federalState":{"key":"16","name":"Thüringen"}},{"name":"Almenweg","postalCode":"06571","locality":"Roßleben-Wiehe","municipality":{"key":"16065087","name":"Roßleben-Wiehe, Stadt","type":"Stadt"},"district":{"key":"16065","name":"Kyffhäuserkreis","type":"Landkreis"},"federalState":{"key":"16","name":"Thüringen"}},{"name":"Alte Brunnenstr.","postalCode":"06571","locality":"Roßleben-Wiehe","municipality":{"key":"16065087","name":"Roßleben-Wiehe, Stadt","type":"Stadt"},"district":{"key":"16065","name":"Kyffhäuserkreis","type":"Landkreis"},"federalState":{"key":"16","name":"Thüringen"}},{"name":"Alte Gartenstarße","postalCode":"06571","locality":"Roßleben-Wiehe","municipality":{"key":"16065087","name":"Roßleben-Wiehe, Stadt","type":"Stadt"},"district":{"key":"16065","name":"Kyffhäuserkreis","type":"Landkreis"},"federalState":{"key":"16","name":"Thüringen"}},{"name":"Alte Gartenstr.","postalCode":"06571","locality":"Roßleben-Wiehe","municipality":{"key":"16065087","name":"Roßleben-Wiehe, Stadt","type":"Stadt"},"district":{"key":"16065","name":"Kyffhäuserkreis","type":"Landkreis"},"federalState":{"key":"16","name":"Thüringen"}},{"name":"Alte Kölledaer Str.","postalCode":"06571","locality":"Roßleben-Wiehe","municipality":{"key":"16065087","name":"Roßleben-Wiehe, Stadt","type":"Stadt"},"district":{"key":"16065","name":"Kyffhäuserkreis","type":"Landkreis"},"federalState":{"key":"16","name":"Thüringen"}},{"name":"Alte Schäferei","postalCode":"06571","locality":"Roßleben-Wiehe","municipality":{"key":"16065087","name":"Roßleben-Wiehe, Stadt","type":"Stadt"},"district":{"key":"16065","name":"Kyffhäuserkreis","type":"Landkreis"},"federalState":{"key":"16","name":"Thüringen"}},{"name":"Altstadt","postalCode":"06571","locality":"Roßleben-Wiehe","municipality":{"key":"16065087","name":"Roßleben-Wiehe, Stadt","type":"Stadt"},"district":{"key":"16065","name":"Kyffhäuserkreis","type":"Landkreis"},"federalState":{"key":"16","name":"Thüringen"}},{"name":"Am Anger","postalCode":"06571","locality":"Roßleben-Wiehe","municipality":{"key":"16065087","name":"Roßleben-Wiehe, Stadt","type":"Stadt"},"district":{"key":"16065","name":"Kyffhäuserkreis","type":"Landkreis"},"federalState":{"key":"16","name":"Thüringen"}},{"name":"Am Bahnhof","postalCode":"06571","locality":"Roßleben-Wiehe","municipality":{"key":"16065087","name":"Roßleben-Wiehe, Stadt","type":"Stadt"},"district":{"key":"16065","name":"Kyffhäuserkreis","type":"Landkreis"},"federalState":{"key":"16","name":"Thüringen"}},{"name":"Am Bürgergarten","postalCode":"06571","locality":"Roßleben-Wiehe","municipality":{"key":"16065087","name":"Roßleben-Wiehe, Stadt","type":"Stadt"},"district":{"key":"16065","name":"Kyffhäuserkreis","type":"Landkreis"},"federalState":{"key":"16","name":"Thüringen"}},{"name":"Am Fliegental","postalCode":"06571","locality":"Roßleben-Wiehe","municipality":{"key":"16065087","name":"Roßleben-Wiehe, Stadt","type":"Stadt"},"district":{"key":"16065","name":"Kyffhäuserkreis","type":"Landkreis"},"federalState":{"key":"16","name":"Thüringen"}},{"name":"Am Friedhof","postalCode":"06571","locality":"Roßleben-Wiehe","municipality":{"key":"16065087","name":"Roßleben-Wiehe, Stadt","type":"Stadt"},"district":{"key":"16065","name":"Kyffhäuserkreis","type":"Landkreis"},"federalState":{"key":"16","name":"Thüringen"}},{"name":"Am Kadensberg","postalCode":"06571","locality":"Roßleben-Wiehe","municipality":{"key":"16065087","name":"Roßleben-Wiehe, Stadt","type":"Stadt"},"district":{"key":"16065","name":"Kyffhäuserkreis","type":"Landkreis"},"federalState":{"key":"16","name":"Thüringen"}},{"name":"Am Kanal","postalCode":"06571","locality":"Roßleben-Wiehe","municipality":{"key":"16065087","name":"Roßleben-Wiehe, Stadt","type":"Stadt"},"district":{"key":"16065","name":"Kyffhäuserkreis","type":"Landkreis"},"federalState":{"key":"16","name":"Thüringen"}},{"name":"Am Keller","postalCode":"06571","locality":"Roßleben-Wiehe","municipality":{"key":"16065087","name":"Roßleben-Wiehe, Stadt","type":"Stadt"},"district":{"key":"16065","name":"Kyffhäuserkreis","type":"Landkreis"},"federalState":{"key":"16","name":"Thüringen"}},{"name":"Am Mühlhügel","postalCode":"06571","locality":"Roßleben-Wiehe","municipality":{"key":"16065087","name":"Roßleben-Wiehe, Stadt","type":"Stadt"},"district":{"key":"16065","name":"Kyffhäuserkreis","type":"Landkreis"},"federalState":{"key":"16","name":"Thüringen"}},{"name":"Am Pfarrgarten","postalCode":"06571","locality":"Roßleben-Wiehe","municipality":{"key":"16065087","name":"Roßleben-Wiehe, Stadt","type":"Stadt"},"district":{"key":"16065","name":"Kyffhäuserkreis","type":"Landkreis"},"federalState":{"key":"16","name":"Thüringen"}},{"name":"Am Rathaus","postalCode":"06571","locality":"Roßleben-Wiehe","municipality":{"key":"16065087","name":"Roßleben-Wiehe, Stadt","type":"Stadt"},"district":{"key":"16065","name":"Kyffhäuserkreis","type":"Landkreis"},"federalState":{"key":"16","name":"Thüringen"}},{"name":"Amselweg","postalCode":"06571","locality":"Roßleben-Wiehe","municipality":{"key":"16065087","name":"Roßleben-Wiehe, Stadt","type":"Stadt"},"district":{"key":"16065","name":"Kyffhäuserkreis","type":"Landkreis"},"federalState":{"key":"16","name":"Thüringen"}},{"name":"Am Sportplatz","postalCode":"06571","locality":"Roßleben-Wiehe","municipality":{"key":"16065087","name":"Roßleben-Wiehe, Stadt","type":"Stadt"},"district":{"key":"16065","name":"Kyffhäuserkreis","type":"Landkreis"},"federalState":{"key":"16","name":"Thüringen"}},{"name":"Am Weinberg","postalCode":"06571","locality":"Roßleben-Wiehe","municipality":{"key":"16065087","name":"Roßleben-Wiehe, Stadt","type":"Stadt"},"district":{"key":"16065","name":"Kyffhäuserkreis","type":"Landkreis"},"federalState":{"key":"16","name":"Thüringen"}},{"name":"An der Kalkhütte","postalCode":"06571","locality":"Roßleben-Wiehe","municipality":{"key":"16065087","name":"Roßleben-Wiehe, Stadt","type":"Stadt"},"district":{"key":"16065","name":"Kyffhäuserkreis","type":"Landkreis"},"federalState":{"key":"16","name":"Thüringen"}},{"name":"An der Kaufhalle","postalCode":"06571","locality":"Roßleben-Wiehe","municipality":{"key":"16065087","name":"Roßleben-Wiehe, Stadt","type":"Stadt"},"district":{"key":"16065","name":"Kyffhäuserkreis","type":"Landkreis"},"federalState":{"key":"16","name":"Thüringen"}},{"name":"An der Kirche","postalCode":"06571","locality":"Roßleben-Wiehe","municipality":{"key":"16065087","name":"Roßleben-Wiehe, Stadt","type":"Stadt"},"district":{"key":"16065","name":"Kyffhäuserkreis","type":"Landkreis"},"federalState":{"key":"16","name":"Thüringen"}},{"name":"An der Landwehr","postalCode":"06571","locality":"Roßleben-Wiehe","municipality":{"key":"16065087","name":"Roßleben-Wiehe, Stadt","type":"Stadt"},"district":{"key":"16065","name":"Kyffhäuserkreis","type":"Landkreis"},"federalState":{"key":"16","name":"Thüringen"}},{"name":"An der Mittelmühle","postalCode":"06571","locality":"Roßleben-Wiehe","municipality":{"key":"16065087","name":"Roßleben-Wiehe, Stadt","type":"Stadt"},"district":{"key":"16065","name":"Kyffhäuserkreis","type":"Landkreis"},"federalState":{"key":"16","name":"Thüringen"}},{"name":"An der Reihe","postalCode":"06571","locality":"Roßleben-Wiehe","municipality":{"key":"16065087","name":"Roßleben-Wiehe, Stadt","type":"Stadt"},"district":{"key":"16065","name":"Kyffhäuserkreis","type":"Landkreis"},"federalState":{"key":"16","name":"Thüringen"}},{"name":"An der Schule","postalCode":"06571","locality":"Roßleben-Wiehe","municipality":{"key":"16065087","name":"Roßleben-Wiehe, Stadt","type":"Stadt"},"district":{"key":"16065","name":"Kyffhäuserkreis","type":"Landkreis"},"federalState":{"key":"16","name":"Thüringen"}},{"name":"An der Stadtmauer","postalCode":"06571","locality":"Roßleben-Wiehe","municipality":{"key":"16065087","name":"Roßleben-Wiehe, Stadt","type":"Stadt"},"district":{"key":"16065","name":"Kyffhäuserkreis","type":"Landkreis"},"federalState":{"key":"16","name":"Thüringen"}},{"name":"An der Trift","postalCode":"06571","locality":"Roßleben-Wiehe","municipality":{"key":"16065087","name":"Roßleben-Wiehe, Stadt","type":"Stadt"},"district":{"key":"16065","name":"Kyffhäuserkreis","type":"Landkreis"},"federalState":{"key":"16","name":"Thüringen"}},{"name":"Anger","postalCode":"06571","locality":"Roßleben-Wiehe","municipality":{"key":"16065087","name":"Roßleben-Wiehe, Stadt","type":"Stadt"},"district":{"key":"16065","name":"Kyffhäuserkreis","type":"Landkreis"},"federalState":{"key":"16","name":"Thüringen"}},{"name":"Attichweg","postalCode":"06571","locality":"Roßleben-Wiehe","municipality":{"key":"16065087","name":"Roßleben-Wiehe, Stadt","type":"Stadt"},"district":{"key":"16065","name":"Kyffhäuserkreis","type":"Landkreis"},"federalState":{"key":"16","name":"Thüringen"}},{"name":"August-Bebel-Allee","postalCode":"06571","locality":"Roßleben-Wiehe","municipality":{"key":"16065087","name":"Roßleben-Wiehe, Stadt","type":"Stadt"},"district":{"key":"16065","name":"Kyffhäuserkreis","type":"Landkreis"},"federalState":{"key":"16","name":"Thüringen"}},{"name":"August-Bebel-Str.","postalCode":"06571","locality":"Roßleben-Wiehe","municipality":{"key":"16065087","name":"Roßleben-Wiehe, Stadt","type":"Stadt"},"district":{"key":"16065","name":"Kyffhäuserkreis","type":"Landkreis"},"federalState":{"key":"16","name":"Thüringen"}},{"name":"Bachgasse","postalCode":"06571","locality":"Roßleben-Wiehe","municipality":{"key":"16065087","name":"Roßleben-Wiehe, Stadt","type":"Stadt"},"district":{"key":"16065","name":"Kyffhäuserkreis","type":"Landkreis"},"federalState":{"key":"16","name":"Thüringen"}},{"name":"Bahnhofstr.","postalCode":"06571","locality":"Roßleben-Wiehe","municipality":{"key":"16065087","name":"Roßleben-Wiehe, Stadt","type":"Stadt"},"district":{"key":"16065","name":"Kyffhäuserkreis","type":"Landkreis"},"federalState":{"key":"16","name":"Thüringen"}},{"name":"Bergstr.","postalCode":"06571","locality":"Roßleben-Wiehe","municipality":{"key":"16065087","name":"Roßleben-Wiehe, Stadt","type":"Stadt"},"district":{"key":"16065","name":"Kyffhäuserkreis","type":"Landkreis"},"federalState":{"key":"16","name":"Thüringen"}},{"name":"Bertolt-Brecht-Str.","postalCode":"06571","locality":"Roßleben-Wiehe","municipality":{"key":"16065087","name":"Roßleben-Wiehe, Stadt","type":"Stadt"},"district":{"key":"16065","name":"Kyffhäuserkreis","type":"Landkreis"},"federalState":{"key":"16","name":"Thüringen"}},{"name":"Blumenstr.","postalCode":"06571","locality":"Roßleben-Wiehe","municipality":{"key":"16065087","name":"Roßleben-Wiehe, Stadt","type":"Stadt"},"district":{"key":"16065","name":"Kyffhäuserkreis","type":"Landkreis"},"federalState":{"key":"16","name":"Thüringen"}},{"name":"Blumenweg","postalCode":"06571","locality":"Roßleben-Wiehe","municipality":{"key":"16065087","name":"Roßleben-Wiehe, Stadt","type":"Stadt"},"district":{"key":"16065","name":"Kyffhäuserkreis","type":"Landkreis"},"federalState":{"key":"16","name":"Thüringen"}},{"name":"Bottendorfer Str.","postalCode":"06571","locality":"Roßleben-Wiehe","municipality":{"key":"16065087","name":"Roßleben-Wiehe, Stadt","type":"Stadt"},"district":{"key":"16065","name":"Kyffhäuserkreis","type":"Landkreis"},"federalState":{"key":"16","name":"Thüringen"}},{"name":"Brauhausgasse","postalCode":"06571","locality":"Roßleben-Wiehe","municipality":{"key":"16065087","name":"Roßleben-Wiehe, Stadt","type":"Stadt"},"district":{"key":"16065","name":"Kyffhäuserkreis","type":"Landkreis"},"federalState":{"key":"16","name":"Thüringen"}},{"name":"Brauhausstr.","postalCode":"06571","locality":"Roßleben-Wiehe","municipality":{"key":"16065087","name":"Roßleben-Wiehe, Stadt","type":"Stadt"},"district":{"key":"16065","name":"Kyffhäuserkreis","type":"Landkreis"},"federalState":{"key":"16","name":"Thüringen"}},{"name":"Brunnenstr.","postalCode":"06571","locality":"Roßleben-Wiehe","municipality":{"key":"16065087","name":"Roßleben-Wiehe, Stadt","type":"Stadt"},"district":{"key":"16065","name":"Kyffhäuserkreis","type":"Landkreis"},"federalState":{"key":"16","name":"Thüringen"}},{"name":"Burg","postalCode":"06571","locality":"Roßleben-Wiehe","municipality":{"key":"16065087","name":"Roßleben-Wiehe, Stadt","type":"Stadt"},"district":{"key":"16065","name":"Kyffhäuserkreis","type":"Landkreis"},"federalState":{"key":"16","name":"Thüringen"}},{"name":"Burggraben","postalCode":"06571","locality":"Roßleben-Wiehe","municipality":{"key":"16065087","name":"Roßleben-Wiehe, Stadt","type":"Stadt"},"district":{"key":"16065","name":"Kyffhäuserkreis","type":"Landkreis"},"federalState":{"key":"16","name":"Thüringen"}},{"name":"Burkhardtstr.","postalCode":"06571","locality":"Roßleben-Wiehe","municipality":{"key":"16065087","name":"Roßleben-Wiehe, Stadt","type":"Stadt"},"district":{"key":"16065","name":"Kyffhäuserkreis","type":"Landkreis"},"federalState":{"key":"16","name":"Thüringen"}},{"name":"Buttstädter Str.","postalCode":"06571","locality":"Roßleben-Wiehe","municipality":{"key":"16065087","name":"Roßleben-Wiehe, Stadt","type":"Stadt"},"district":{"key":"16065","name":"Kyffhäuserkreis","type":"Landkreis"},"federalState":{"key":"16","name":"Thüringen"}},{"name":"Dahlienring","postalCode":"06571","locality":"Roßleben-Wiehe","municipality":{"key":"16065087","name":"Roßleben-Wiehe, Stadt","type":"Stadt"},"district":{"key":"16065","name":"Kyffhäuserkreis","type":"Landkreis"},"federalState":{"key":"16","name":"Thüringen"}},{"name":"Donndorfer Str.","postalCode":"06571","locality":"Roßleben-Wiehe","municipality":{"key":"16065087","name":"Roßleben-Wiehe, Stadt","type":"Stadt"},"district":{"key":"16065","name":"Kyffhäuserkreis","type":"Landkreis"},"federalState":{"key":"16","name":"Thüringen"}},{"name":"Dörfling","postalCode":"06571","locality":"Roßleben-Wiehe","municipality":{"key":"16065087","name":"Roßleben-Wiehe, Stadt","type":"Stadt"},"district":{"key":"16065","name":"Kyffhäuserkreis","type":"Landkreis"},"federalState":{"key":"16","name":"Thüringen"}},{"name":"Dorfstr.","postalCode":"06571","locality":"Roßleben-Wiehe","municipality":{"key":"16065087","name":"Roßleben-Wiehe, Stadt","type":"Stadt"},"district":{"key":"16065","name":"Kyffhäuserkreis","type":"Landkreis"},"federalState":{"key":"16","name":"Thüringen"}},{"name":"Drei Linden","postalCode":"06571","locality":"Roßleben-Wiehe","municipality":{"key":"16065087","name":"Roßleben-Wiehe, Stadt","type":"Stadt"},"district":{"key":"16065","name":"Kyffhäuserkreis","type":"Landkreis"},"federalState":{"key":"16","name":"Thüringen"}},{"name":"Dr.-Külz-Str.","postalCode":"06571","locality":"Roßleben-Wiehe","municipality":{"key":"16065087","name":"Roßleben-Wiehe, Stadt","type":"Stadt"},"district":{"key":"16065","name":"Kyffhäuserkreis","type":"Landkreis"},"federalState":{"key":"16","name":"Thüringen"}},{"name":"Dr.-Madlung-Str.","postalCode":"06571","locality":"Roßleben-Wiehe","municipality":{"key":"16065087","name":"Roßleben-Wiehe, Stadt","type":"Stadt"},"district":{"key":"16065","name":"Kyffhäuserkreis","type":"Landkreis"},"federalState":{"key":"16","name":"Thüringen"}},{"name":"Drosselweg","postalCode":"06571","locality":"Roßleben-Wiehe","municipality":{"key":"16065087","name":"Roßleben-Wiehe, Stadt","type":"Stadt"},"district":{"key":"16065","name":"Kyffhäuserkreis","type":"Landkreis"},"federalState":{"key":"16","name":"Thüringen"}},{"name":"Ernst-Thälmann-Str.","postalCode":"06571","locality":"Roßleben-Wiehe","municipality":{"key":"16065087","name":"Roßleben-Wiehe, Stadt","type":"Stadt"},"district":{"key":"16065","name":"Kyffhäuserkreis","type":"Landkreis"},"federalState":{"key":"16","name":"Thüringen"}},{"name":"Eßmannsdorfer Str.","postalCode":"06571","locality":"Roßleben-Wiehe","municipality":{"key":"16065087","name":"Roßleben-Wiehe, Stadt","type":"Stadt"},"district":{"key":"16065","name":"Kyffhäuserkreis","type":"Landkreis"},"federalState":{"key":"16","name":"Thüringen"}},{"name":"Feldblick","postalCode":"06571","locality":"Roßleben-Wiehe","municipality":{"key":"16065087","name":"Roßleben-Wiehe, Stadt","type":"Stadt"},"district":{"key":"16065","name":"Kyffhäuserkreis","type":"Landkreis"},"federalState":{"key":"16","name":"Thüringen"}},{"name":"Feldscheunenplan","postalCode":"06571","locality":"Roßleben-Wiehe","municipality":{"key":"16065087","name":"Roßleben-Wiehe, Stadt","type":"Stadt"},"district":{"key":"16065","name":"Kyffhäuserkreis","type":"Landkreis"},"federalState":{"key":"16","name":"Thüringen"}},{"name":"Feldstr.","postalCode":"06571","locality":"Roßleben-Wiehe","municipality":{"key":"16065087","name":"Roßleben-Wiehe, Stadt","type":"Stadt"},"district":{"key":"16065","name":"Kyffhäuserkreis","type":"Landkreis"},"federalState":{"key":"16","name":"Thüringen"}},{"name":"Fischerstr.","postalCode":"06571","locality":"Roßleben-Wiehe","municipality":{"key":"16065087","name":"Roßleben-Wiehe, Stadt","type":"Stadt"},"district":{"key":"16065","name":"Kyffhäuserkreis","type":"Landkreis"},"federalState":{"key":"16","name":"Thüringen"}},{"name":"Florianweg","postalCode":"06571","locality":"Roßleben-Wiehe","municipality":{"key":"16065087","name":"Roßleben-Wiehe, Stadt","type":"Stadt"},"district":{"key":"16065","name":"Kyffhäuserkreis","type":"Landkreis"},"federalState":{"key":"16","name":"Thüringen"}},{"name":"Förtschstr.","postalCode":"06571","locality":"Roßleben-Wiehe","municipality":{"key":"16065087","name":"Roßleben-Wiehe, Stadt","type":"Stadt"},"district":{"key":"16065","name":"Kyffhäuserkreis","type":"Landkreis"},"federalState":{"key":"16","name":"Thüringen"}},{"name":"Friedenstr.","postalCode":"06571","locality":"Roßleben-Wiehe","municipality":{"key":"16065087","name":"Roßleben-Wiehe, Stadt","type":"Stadt"},"district":{"key":"16065","name":"Kyffhäuserkreis","type":"Landkreis"},"federalState":{"key":"16","name":"Thüringen"}},{"name":"Friedrich-Ludwig-Jahn-Str.","postalCode":"06571","locality":"Roßleben-Wiehe","municipality":{"key":"16065087","name":"Roßleben-Wiehe, Stadt","type":"Stadt"},"district":{"key":"16065","name":"Kyffhäuserkreis","type":"Landkreis"},"federalState":{"key":"16","name":"Thüringen"}},{"name":"Fritz-Hofmann-Str.","postalCode":"06571","locality":"Roßleben-Wiehe","municipality":{"key":"16065087","name":"Roßleben-Wiehe, Stadt","type":"Stadt"},"district":{"key":"16065","name":"Kyffhäuserkreis","type":"Landkreis"},"federalState":{"key":"16","name":"Thüringen"}},{"name":"Garnbacher Str.","postalCode":"06571","locality":"Roßleben-Wiehe","municipality":{"key":"16065087","name":"Roßleben-Wiehe, Stadt","type":"Stadt"},"district":{"key":"16065","name":"Kyffhäuserkreis","type":"Landkreis"},"federalState":{"key":"16","name":"Thüringen"}},{"name":"Gartenstr.","postalCode":"06571","locality":"Roßleben-Wiehe","municipality":{"key":"16065087","name":"Roßleben-Wiehe, Stadt","type":"Stadt"},"district":{"key":"16065","name":"Kyffhäuserkreis","type":"Landkreis"},"federalState":{"key":"16","name":"Thüringen"}},{"name":"Gartenweg","postalCode":"06571","locality":"Roßleben-Wiehe","municipality":{"key":"16065087","name":"Roßleben-Wiehe, Stadt","type":"Stadt"},"district":{"key":"16065","name":"Kyffhäuserkreis","type":"Landkreis"},"federalState":{"key":"16","name":"Thüringen"}},{"name":"Gasse","postalCode":"06571","locality":"Roßleben-Wiehe","municipality":{"key":"16065087","name":"Roßleben-Wiehe, Stadt","type":"Stadt"},"district":{"key":"16065","name":"Kyffhäuserkreis","type":"Landkreis"},"federalState":{"key":"16","name":"Thüringen"}},{"name":"Gewerbering","postalCode":"06571","locality":"Roßleben-Wiehe","municipality":{"key":"16065087","name":"Roßleben-Wiehe, Stadt","type":"Stadt"},"district":{"key":"16065","name":"Kyffhäuserkreis","type":"Landkreis"},"federalState":{"key":"16","name":"Thüringen"}},{"name":"Glück-Auf-Str.","postalCode":"06571","locality":"Roßleben-Wiehe","municipality":{"key":"16065087","name":"Roßleben-Wiehe, Stadt","type":"Stadt"},"district":{"key":"16065","name":"Kyffhäuserkreis","type":"Landkreis"},"federalState":{"key":"16","name":"Thüringen"}},{"name":"Goethestr.","postalCode":"06571","locality":"Roßleben-Wiehe","municipality":{"key":"16065087","name":"Roßleben-Wiehe, Stadt","type":"Stadt"},"district":{"key":"16065","name":"Kyffhäuserkreis","type":"Landkreis"},"federalState":{"key":"16","name":"Thüringen"}},{"name":"Große Weidengasse","postalCode":"06571","locality":"Roßleben-Wiehe","municipality":{"key":"16065087","name":"Roßleben-Wiehe, Stadt","type":"Stadt"},"district":{"key":"16065","name":"Kyffhäuserkreis","type":"Landkreis"},"federalState":{"key":"16","name":"Thüringen"}},{"name":"Hanfgarten","postalCode":"06571","locality":"Roßleben-Wiehe","municipality":{"key":"16065087","name":"Roßleben-Wiehe, Stadt","type":"Stadt"},"district":{"key":"16065","name":"Kyffhäuserkreis","type":"Landkreis"},"federalState":{"key":"16","name":"Thüringen"}},{"name":"Hasenwinkel","postalCode":"06571","locality":"Roßleben-Wiehe","municipality":{"key":"16065087","name":"Roßleben-Wiehe, Stadt","type":"Stadt"},"district":{"key":"16065","name":"Kyffhäuserkreis","type":"Landkreis"},"federalState":{"key":"16","name":"Thüringen"}},{"name":"Hauptstr.","postalCode":"06571","locality":"Roßleben-Wiehe","municipality":{"key":"16065087","name":"Roßleben-Wiehe, Stadt","type":"Stadt"},"district":{"key":"16065","name":"Kyffhäuserkreis","type":"Landkreis"},"federalState":{"key":"16","name":"Thüringen"}},{"name":"Heidenweg","postalCode":"06571","locality":"Roßleben-Wiehe","municipality":{"key":"16065087","name":"Roßleben-Wiehe, Stadt","type":"Stadt"},"district":{"key":"16065","name":"Kyffhäuserkreis","type":"Landkreis"},"federalState":{"key":"16","name":"Thüringen"}},{"name":"Heinrich-Heine-Str.","postalCode":"06571","locality":"Roßleben-Wiehe","municipality":{"key":"16065087","name":"Roßleben-Wiehe, Stadt","type":"Stadt"},"district":{"key":"16065","name":"Kyffhäuserkreis","type":"Landkreis"},"federalState":{"key":"16","name":"Thüringen"}},{"name":"Heygendorfer Str.","postalCode":"06571","locality":"Roßleben-Wiehe","municipality":{"key":"16065087","name":"Roßleben-Wiehe, Stadt","type":"Stadt"},"district":{"key":"16065","name":"Kyffhäuserkreis","type":"Landkreis"},"federalState":{"key":"16","name":"Thüringen"}},{"name":"Hinter der Zuckerfabrik","postalCode":"06571","locality":"Roßleben-Wiehe","municipality":{"key":"16065087","name":"Roßleben-Wiehe, Stadt","type":"Stadt"},"district":{"key":"16065","name":"Kyffhäuserkreis","type":"Landkreis"},"federalState":{"key":"16","name":"Thüringen"}},{"name":"Hohlweg","postalCode":"06571","locality":"Roßleben-Wiehe","municipality":{"key":"16065087","name":"Roßleben-Wiehe, Stadt","type":"Stadt"},"district":{"key":"16065","name":"Kyffhäuserkreis","type":"Landkreis"},"federalState":{"key":"16","name":"Thüringen"}},{"name":"Im Gewerbegebiet","postalCode":"06571","locality":"Roßleben-Wiehe","municipality":{"key":"16065087","name":"Roßleben-Wiehe, Stadt","type":"Stadt"},"district":{"key":"16065","name":"Kyffhäuserkreis","type":"Landkreis"},"federalState":{"key":"16","name":"Thüringen"}},{"name":"Im Leintal","postalCode":"06571","locality":"Roßleben-Wiehe","municipality":{"key":"16065087","name":"Roßleben-Wiehe, Stadt","type":"Stadt"},"district":{"key":"16065","name":"Kyffhäuserkreis","type":"Landkreis"},"federalState":{"key":"16","name":"Thüringen"}},{"name":"Jägerstr.","postalCode":"06571","locality":"Roßleben-Wiehe","municipality":{"key":"16065087","name":"Roßleben-Wiehe, Stadt","type":"Stadt"},"district":{"key":"16065","name":"Kyffhäuserkreis","type":"Landkreis"},"federalState":{"key":"16","name":"Thüringen"}},{"name":"Kaliwerk","postalCode":"06571","locality":"Roßleben-Wiehe","municipality":{"key":"16065087","name":"Roßleben-Wiehe, Stadt","type":"Stadt"},"district":{"key":"16065","name":"Kyffhäuserkreis","type":"Landkreis"},"federalState":{"key":"16","name":"Thüringen"}},{"name":"Kalkhüttenweg","postalCode":"06571","locality":"Roßleben-Wiehe","municipality":{"key":"16065087","name":"Roßleben-Wiehe, Stadt","type":"Stadt"},"district":{"key":"16065","name":"Kyffhäuserkreis","type":"Landkreis"},"federalState":{"key":"16","name":"Thüringen"}},{"name":"Kammradtstr.","postalCode":"06571","locality":"Roßleben-Wiehe","municipality":{"key":"16065087","name":"Roßleben-Wiehe, Stadt","type":"Stadt"},"district":{"key":"16065","name":"Kyffhäuserkreis","type":"Landkreis"},"federalState":{"key":"16","name":"Thüringen"}},{"name":"Karl-Liebknecht-Str.","postalCode":"06571","locality":"Roßleben-Wiehe","municipality":{"key":"16065087","name":"Roßleben-Wiehe, Stadt","type":"Stadt"},"district":{"key":"16065","name":"Kyffhäuserkreis","type":"Landkreis"},"federalState":{"key":"16","name":"Thüringen"}},{"name":"Karl-Marx-Str.","postalCode":"06571","locality":"Roßleben-Wiehe","municipality":{"key":"16065087","name":"Roßleben-Wiehe, Stadt","type":"Stadt"},"district":{"key":"16065","name":"Kyffhäuserkreis","type":"Landkreis"},"federalState":{"key":"16","name":"Thüringen"}},{"name":"Kesselstr.","postalCode":"06571","locality":"Roßleben-Wiehe","municipality":{"key":"16065087","name":"Roßleben-Wiehe, Stadt","type":"Stadt"},"district":{"key":"16065","name":"Kyffhäuserkreis","type":"Landkreis"},"federalState":{"key":"16","name":"Thüringen"}},{"name":"Kirchgasse","postalCode":"06571","locality":"Roßleben-Wiehe","municipality":{"key":"16065087","name":"Roßleben-Wiehe, Stadt","type":"Stadt"},"district":{"key":"16065","name":"Kyffhäuserkreis","type":"Landkreis"},"federalState":{"key":"16","name":"Thüringen"}},{"name":"Kirchplatz","postalCode":"06571","locality":"Roßleben-Wiehe","municipality":{"key":"16065087","name":"Roßleben-Wiehe, Stadt","type":"Stadt"},"district":{"key":"16065","name":"Kyffhäuserkreis","type":"Landkreis"},"federalState":{"key":"16","name":"Thüringen"}},{"name":"Kirchstr.","postalCode":"06571","locality":"Roßleben-Wiehe","municipality":{"key":"16065087","name":"Roßleben-Wiehe, Stadt","type":"Stadt"},"district":{"key":"16065","name":"Kyffhäuserkreis","type":"Landkreis"},"federalState":{"key":"16","name":"Thüringen"}},{"name":"Kleine Bergstr.","postalCode":"06571","locality":"Roßleben-Wiehe","municipality":{"key":"16065087","name":"Roßleben-Wiehe, Stadt","type":"Stadt"},"district":{"key":"16065","name":"Kyffhäuserkreis","type":"Landkreis"},"federalState":{"key":"16","name":"Thüringen"}},{"name":"Kleine Weidengasse","postalCode":"06571","locality":"Roßleben-Wiehe","municipality":{"key":"16065087","name":"Roßleben-Wiehe, Stadt","type":"Stadt"},"district":{"key":"16065","name":"Kyffhäuserkreis","type":"Landkreis"},"federalState":{"key":"16","name":"Thüringen"}},{"name":"Kleinrodaer Dorfstr.","postalCode":"06571","locality":"Roßleben-Wiehe","municipality":{"key":"16065087","name":"Roßleben-Wiehe, Stadt","type":"Stadt"},"district":{"key":"16065","name":"Kyffhäuserkreis","type":"Landkreis"},"federalState":{"key":"16","name":"Thüringen"}},{"name":"Kleinrodaer Str.","postalCode":"06571","locality":"Roßleben-Wiehe","municipality":{"key":"16065087","name":"Roßleben-Wiehe, Stadt","type":"Stadt"},"district":{"key":"16065","name":"Kyffhäuserkreis","type":"Landkreis"},"federalState":{"key":"16","name":"Thüringen"}},{"name":"Kloster","postalCode":"06571","locality":"Roßleben-Wiehe","municipality":{"key":"16065087","name":"Roßleben-Wiehe, Stadt","type":"Stadt"},"district":{"key":"16065","name":"Kyffhäuserkreis","type":"Landkreis"},"federalState":{"key":"16","name":"Thüringen"}},{"name":"Kölledaer Str.","postalCode":"06571","locality":"Roßleben-Wiehe","municipality":{"key":"16065087","name":"Roßleben-Wiehe, Stadt","type":"Stadt"},"district":{"key":"16065","name":"Kyffhäuserkreis","type":"Landkreis"},"federalState":{"key":"16","name":"Thüringen"}},{"name":"Kornblumenweg","postalCode":"06571","locality":"Roßleben-Wiehe","municipality":{"key":"16065087","name":"Roßleben-Wiehe, Stadt","type":"Stadt"},"district":{"key":"16065","name":"Kyffhäuserkreis","type":"Landkreis"},"federalState":{"key":"16","name":"Thüringen"}},{"name":"Kuhrain","postalCode":"06571","locality":"Roßleben-Wiehe","municipality":{"key":"16065087","name":"Roßleben-Wiehe, Stadt","type":"Stadt"},"district":{"key":"16065","name":"Kyffhäuserkreis","type":"Landkreis"},"federalState":{"key":"16","name":"Thüringen"}},{"name":"Kupfernelkenweg","postalCode":"06571","locality":"Roßleben-Wiehe","municipality":{"key":"16065087","name":"Roßleben-Wiehe, Stadt","type":"Stadt"},"district":{"key":"16065","name":"Kyffhäuserkreis","type":"Landkreis"},"federalState":{"key":"16","name":"Thüringen"}},{"name":"Kurze Str.","postalCode":"06571","locality":"Roßleben-Wiehe","municipality":{"key":"16065087","name":"Roßleben-Wiehe, Stadt","type":"Stadt"},"district":{"key":"16065","name":"Kyffhäuserkreis","type":"Landkreis"},"federalState":{"key":"16","name":"Thüringen"}},{"name":"Lange Str.","postalCode":"06571","locality":"Roßleben-Wiehe","municipality":{"key":"16065087","name":"Roßleben-Wiehe, Stadt","type":"Stadt"},"district":{"key":"16065","name":"Kyffhäuserkreis","type":"Landkreis"},"federalState":{"key":"16","name":"Thüringen"}},{"name":"Leopold-von-Ranke-Str.","postalCode":"06571","locality":"Roßleben-Wiehe","municipality":{"key":"16065087","name":"Roßleben-Wiehe, Stadt","type":"Stadt"},"district":{"key":"16065","name":"Kyffhäuserkreis","type":"Landkreis"},"federalState":{"key":"16","name":"Thüringen"}},{"name":"Lessingstr.","postalCode":"06571","locality":"Roßleben-Wiehe","municipality":{"key":"16065087","name":"Roßleben-Wiehe, Stadt","type":"Stadt"},"district":{"key":"16065","name":"Kyffhäuserkreis","type":"Landkreis"},"federalState":{"key":"16","name":"Thüringen"}},{"name":"Lilienweg","postalCode":"06571","locality":"Roßleben-Wiehe","municipality":{"key":"16065087","name":"Roßleben-Wiehe, Stadt","type":"Stadt"},"district":{"key":"16065","name":"Kyffhäuserkreis","type":"Landkreis"},"federalState":{"key":"16","name":"Thüringen"}},{"name":"Lindenplatz","postalCode":"06571","locality":"Roßleben-Wiehe","municipality":{"key":"16065087","name":"Roßleben-Wiehe, Stadt","type":"Stadt"},"district":{"key":"16065","name":"Kyffhäuserkreis","type":"Landkreis"},"federalState":{"key":"16","name":"Thüringen"}},{"name":"Markt","postalCode":"06571","locality":"Roßleben-Wiehe","municipality":{"key":"16065087","name":"Roßleben-Wiehe, Stadt","type":"Stadt"},"district":{"key":"16065","name":"Kyffhäuserkreis","type":"Landkreis"},"federalState":{"key":"16","name":"Thüringen"}},{"name":"Mittelstr.","postalCode":"06571","locality":"Roßleben-Wiehe","municipality":{"key":"16065087","name":"Roßleben-Wiehe, Stadt","type":"Stadt"},"district":{"key":"16065","name":"Kyffhäuserkreis","type":"Landkreis"},"federalState":{"key":"16","name":"Thüringen"}},{"name":"Mühlgasse","postalCode":"06571","locality":"Roßleben-Wiehe","municipality":{"key":"16065087","name":"Roßleben-Wiehe, Stadt","type":"Stadt"},"district":{"key":"16065","name":"Kyffhäuserkreis","type":"Landkreis"},"federalState":{"key":"16","name":"Thüringen"}},{"name":"Mühlstr.","postalCode":"06571","locality":"Roßleben-Wiehe","municipality":{"key":"16065087","name":"Roßleben-Wiehe, Stadt","type":"Stadt"},"district":{"key":"16065","name":"Kyffhäuserkreis","type":"Landkreis"},"federalState":{"key":"16","name":"Thüringen"}},{"name":"Nausitzer Dorfstr.","postalCode":"06571","locality":"Roßleben-Wiehe","municipality":{"key":"16065087","name":"Roßleben-Wiehe, Stadt","type":"Stadt"},"district":{"key":"16065","name":"Kyffhäuserkreis","type":"Landkreis"},"federalState":{"key":"16","name":"Thüringen"}},{"name":"Neue Reihe","postalCode":"06571","locality":"Roßleben-Wiehe","municipality":{"key":"16065087","name":"Roßleben-Wiehe, Stadt","type":"Stadt"},"district":{"key":"16065","name":"Kyffhäuserkreis","type":"Landkreis"},"federalState":{"key":"16","name":"Thüringen"}},{"name":"Neue Str.","postalCode":"06571","locality":"Roßleben-Wiehe","municipality":{"key":"16065087","name":"Roßleben-Wiehe, Stadt","type":"Stadt"},"district":{"key":"16065","name":"Kyffhäuserkreis","type":"Landkreis"},"federalState":{"key":"16","name":"Thüringen"}},{"name":"Nordstr.","postalCode":"06571","locality":"Roßleben-Wiehe","municipality":{"key":"16065087","name":"Roßleben-Wiehe, Stadt","type":"Stadt"},"district":{"key":"16065","name":"Kyffhäuserkreis","type":"Landkreis"},"federalState":{"key":"16","name":"Thüringen"}},{"name":"Oberer Anger","postalCode":"06571","locality":"Roßleben-Wiehe","municipality":{"key":"16065087","name":"Roßleben-Wiehe, Stadt","type":"Stadt"},"district":{"key":"16065","name":"Kyffhäuserkreis","type":"Landkreis"},"federalState":{"key":"16","name":"Thüringen"}},{"name":"Oertelstr.","postalCode":"06571","locality":"Roßleben-Wiehe","municipality":{"key":"16065087","name":"Roßleben-Wiehe, Stadt","type":"Stadt"},"district":{"key":"16065","name":"Kyffhäuserkreis","type":"Landkreis"},"federalState":{"key":"16","name":"Thüringen"}},{"name":"Oststr.","postalCode":"06571","locality":"Roßleben-Wiehe","municipality":{"key":"16065087","name":"Roßleben-Wiehe, Stadt","type":"Stadt"},"district":{"key":"16065","name":"Kyffhäuserkreis","type":"Landkreis"},"federalState":{"key":"16","name":"Thüringen"}},{"name":"Otto-Römer-Str.","postalCode":"06571","locality":"Roßleben-Wiehe","municipality":{"key":"16065087","name":"Roßleben-Wiehe, Stadt","type":"Stadt"},"district":{"key":"16065","name":"Kyffhäuserkreis","type":"Landkreis"},"federalState":{"key":"16","name":"Thüringen"}},{"name":"Pfarrgasse","postalCode":"06571","locality":"Roßleben-Wiehe","municipality":{"key":"16065087","name":"Roßleben-Wiehe, Stadt","type":"Stadt"},"district":{"key":"16065","name":"Kyffhäuserkreis","type":"Landkreis"},"federalState":{"key":"16","name":"Thüringen"}},{"name":"Plan","postalCode":"06571","locality":"Roßleben-Wiehe","municipality":{"key":"16065087","name":"Roßleben-Wiehe, Stadt","type":"Stadt"},"district":{"key":"16065","name":"Kyffhäuserkreis","type":"Landkreis"},"federalState":{"key":"16","name":"Thüringen"}},{"name":"Promenade","postalCode":"06571","locality":"Roßleben-Wiehe","municipality":{"key":"16065087","name":"Roßleben-Wiehe, Stadt","type":"Stadt"},"district":{"key":"16065","name":"Kyffhäuserkreis","type":"Landkreis"},"federalState":{"key":"16","name":"Thüringen"}},{"name":"Querfurter Str.","postalCode":"06571","locality":"Roßleben-Wiehe","municipality":{"key":"16065087","name":"Roßleben-Wiehe, Stadt","type":"Stadt"},"district":{"key":"16065","name":"Kyffhäuserkreis","type":"Landkreis"},"federalState":{"key":"16","name":"Thüringen"}},{"name":"Rankegraben","postalCode":"06571","locality":"Roßleben-Wiehe","municipality":{"key":"16065087","name":"Roßleben-Wiehe, Stadt","type":"Stadt"},"district":{"key":"16065","name":"Kyffhäuserkreis","type":"Landkreis"},"federalState":{"key":"16","name":"Thüringen"}},{"name":"Reinsdorfer Str.","postalCode":"06571","locality":"Roßleben-Wiehe","municipality":{"key":"16065087","name":"Roßleben-Wiehe, Stadt","type":"Stadt"},"district":{"key":"16065","name":"Kyffhäuserkreis","type":"Landkreis"},"federalState":{"key":"16","name":"Thüringen"}},{"name":"Reitbahn","postalCode":"06571","locality":"Roßleben-Wiehe","municipality":{"key":"16065087","name":"Roßleben-Wiehe, Stadt","type":"Stadt"},"district":{"key":"16065","name":"Kyffhäuserkreis","type":"Landkreis"},"federalState":{"key":"16","name":"Thüringen"}},{"name":"Richard-Hüttig-Platz","postalCode":"06571","locality":"Roßleben-Wiehe","municipality":{"key":"16065087","name":"Roßleben-Wiehe, Stadt","type":"Stadt"},"district":{"key":"16065","name":"Kyffhäuserkreis","type":"Landkreis"},"federalState":{"key":"16","name":"Thüringen"}},{"name":"Rosenstr.","postalCode":"06571","locality":"Roßleben-Wiehe","municipality":{"key":"16065087","name":"Roßleben-Wiehe, Stadt","type":"Stadt"},"district":{"key":"16065","name":"Kyffhäuserkreis","type":"Landkreis"},"federalState":{"key":"16","name":"Thüringen"}},{"name":"Rosenweg","postalCode":"06571","locality":"Roßleben-Wiehe","municipality":{"key":"16065087","name":"Roßleben-Wiehe, Stadt","type":"Stadt"},"district":{"key":"16065","name":"Kyffhäuserkreis","type":"Landkreis"},"federalState":{"key":"16","name":"Thüringen"}},{"name":"Rößbach","postalCode":"06571","locality":"Roßleben-Wiehe","municipality":{"key":"16065087","name":"Roßleben-Wiehe, Stadt","type":"Stadt"},"district":{"key":"16065","name":"Kyffhäuserkreis","type":"Landkreis"},"federalState":{"key":"16","name":"Thüringen"}},{"name":"Roßlebener Chaussee","postalCode":"06571","locality":"Roßleben-Wiehe","municipality":{"key":"16065087","name":"Roßleben-Wiehe, Stadt","type":"Stadt"},"district":{"key":"16065","name":"Kyffhäuserkreis","type":"Landkreis"},"federalState":{"key":"16","name":"Thüringen"}},{"name":"Roßlebener Str.","postalCode":"06571","locality":"Roßleben-Wiehe","municipality":{"key":"16065087","name":"Roßleben-Wiehe, Stadt","type":"Stadt"},"district":{"key":"16065","name":"Kyffhäuserkreis","type":"Landkreis"},"federalState":{"key":"16","name":"Thüringen"}},{"name":"Rudolf-Breitscheid-Str.","postalCode":"06571","locality":"Roßleben-Wiehe","municipality":{"key":"16065087","name":"Roßleben-Wiehe, Stadt","type":"Stadt"},"district":{"key":"16065","name":"Kyffhäuserkreis","type":"Landkreis"},"federalState":{"key":"16","name":"Thüringen"}},{"name":"Sängerweg","postalCode":"06571","locality":"Roßleben-Wiehe","municipality":{"key":"16065087","name":"Roßleben-Wiehe, Stadt","type":"Stadt"},"district":{"key":"16065","name":"Kyffhäuserkreis","type":"Landkreis"},"federalState":{"key":"16","name":"Thüringen"}},{"name":"Schachtstr.","postalCode":"06571","locality":"Roßleben-Wiehe","municipality":{"key":"16065087","name":"Roßleben-Wiehe, Stadt","type":"Stadt"},"district":{"key":"16065","name":"Kyffhäuserkreis","type":"Landkreis"},"federalState":{"key":"16","name":"Thüringen"}},{"name":"Schafberg","postalCode":"06571","locality":"Roßleben-Wiehe","municipality":{"key":"16065087","name":"Roßleben-Wiehe, Stadt","type":"Stadt"},"district":{"key":"16065","name":"Kyffhäuserkreis","type":"Landkreis"},"federalState":{"key":"16","name":"Thüringen"}},{"name":"Schenkenplatz","postalCode":"06571","locality":"Roßleben-Wiehe","municipality":{"key":"16065087","name":"Roßleben-Wiehe, Stadt","type":"Stadt"},"district":{"key":"16065","name":"Kyffhäuserkreis","type":"Landkreis"},"federalState":{"key":"16","name":"Thüringen"}},{"name":"Schenksteg","postalCode":"06571","locality":"Roßleben-Wiehe","municipality":{"key":"16065087","name":"Roßleben-Wiehe, Stadt","type":"Stadt"},"district":{"key":"16065","name":"Kyffhäuserkreis","type":"Landkreis"},"federalState":{"key":"16","name":"Thüringen"}},{"name":"Schieferhügel","postalCode":"06571","locality":"Roßleben-Wiehe","municipality":{"key":"16065087","name":"Roßleben-Wiehe, Stadt","type":"Stadt"},"district":{"key":"16065","name":"Kyffhäuserkreis","type":"Landkreis"},"federalState":{"key":"16","name":"Thüringen"}},{"name":"Schillerstr.","postalCode":"06571","locality":"Roßleben-Wiehe","municipality":{"key":"16065087","name":"Roßleben-Wiehe, Stadt","type":"Stadt"},"district":{"key":"16065","name":"Kyffhäuserkreis","type":"Landkreis"},"federalState":{"key":"16","name":"Thüringen"}},{"name":"Schloßpark","postalCode":"06571","locality":"Roßleben-Wiehe","municipality":{"key":"16065087","name":"Roßleben-Wiehe, Stadt","type":"Stadt"},"district":{"key":"16065","name":"Kyffhäuserkreis","type":"Landkreis"},"federalState":{"key":"16","name":"Thüringen"}},{"name":"Schloßstr.","postalCode":"06571","locality":"Roßleben-Wiehe","municipality":{"key":"16065087","name":"Roßleben-Wiehe, Stadt","type":"Stadt"},"district":{"key":"16065","name":"Kyffhäuserkreis","type":"Landkreis"},"federalState":{"key":"16","name":"Thüringen"}},{"name":"Schmiedegasse","postalCode":"06571","locality":"Roßleben-Wiehe","municipality":{"key":"16065087","name":"Roßleben-Wiehe, Stadt","type":"Stadt"},"district":{"key":"16065","name":"Kyffhäuserkreis","type":"Landkreis"},"federalState":{"key":"16","name":"Thüringen"}},{"name":"Schönewerdaer Str.","postalCode":"06571","locality":"Roßleben-Wiehe","municipality":{"key":"16065087","name":"Roßleben-Wiehe, Stadt","type":"Stadt"},"district":{"key":"16065","name":"Kyffhäuserkreis","type":"Landkreis"},"federalState":{"key":"16","name":"Thüringen"}},{"name":"Schulgasse","postalCode":"06571","locality":"Roßleben-Wiehe","municipality":{"key":"16065087","name":"Roßleben-Wiehe, Stadt","type":"Stadt"},"district":{"key":"16065","name":"Kyffhäuserkreis","type":"Landkreis"},"federalState":{"key":"16","name":"Thüringen"}},{"name":"Schulplatz","postalCode":"06571","locality":"Roßleben-Wiehe","municipality":{"key":"16065087","name":"Roßleben-Wiehe, Stadt","type":"Stadt"},"district":{"key":"16065","name":"Kyffhäuserkreis","type":"Landkreis"},"federalState":{"key":"16","name":"Thüringen"}},{"name":"Schulstr.","postalCode":"06571","locality":"Roßleben-Wiehe","municipality":{"key":"16065087","name":"Roßleben-Wiehe, Stadt","type":"Stadt"},"district":{"key":"16065","name":"Kyffhäuserkreis","type":"Landkreis"},"federalState":{"key":"16","name":"Thüringen"}},{"name":"Sempten","postalCode":"06571","locality":"Roßleben-Wiehe","municipality":{"key":"16065087","name":"Roßleben-Wiehe, Stadt","type":"Stadt"},"district":{"key":"16065","name":"Kyffhäuserkreis","type":"Landkreis"},"federalState":{"key":"16","name":"Thüringen"}},{"name":"Siedlung","postalCode":"06571","locality":"Roßleben-Wiehe","municipality":{"key":"16065087","name":"Roßleben-Wiehe, Stadt","type":"Stadt"},"district":{"key":"16065","name":"Kyffhäuserkreis","type":"Landkreis"},"federalState":{"key":"16","name":"Thüringen"}},{"name":"Sperlingsberg","postalCode":"06571","locality":"Roßleben-Wiehe","municipality":{"key":"16065087","name":"Roßleben-Wiehe, Stadt","type":"Stadt"},"district":{"key":"16065","name":"Kyffhäuserkreis","type":"Landkreis"},"federalState":{"key":"16","name":"Thüringen"}},{"name":"Stadtgraben","postalCode":"06571","locality":"Roßleben-Wiehe","municipality":{"key":"16065087","name":"Roßleben-Wiehe, Stadt","type":"Stadt"},"district":{"key":"16065","name":"Kyffhäuserkreis","type":"Landkreis"},"federalState":{"key":"16","name":"Thüringen"}},{"name":"Stadtpark","postalCode":"06571","locality":"Roßleben-Wiehe","municipality":{"key":"16065087","name":"Roßleben-Wiehe, Stadt","type":"Stadt"},"district":{"key":"16065","name":"Kyffhäuserkreis","type":"Landkreis"},"federalState":{"key":"16","name":"Thüringen"}},{"name":"Steigerstrasse","postalCode":"06571","locality":"Roßleben-Wiehe","municipality":{"key":"16065087","name":"Roßleben-Wiehe, Stadt","type":"Stadt"},"district":{"key":"16065","name":"Kyffhäuserkreis","type":"Landkreis"},"federalState":{"key":"16","name":"Thüringen"}},{"name":"Steinbruchweg","postalCode":"06571","locality":"Roßleben-Wiehe","municipality":{"key":"16065087","name":"Roßleben-Wiehe, Stadt","type":"Stadt"},"district":{"key":"16065","name":"Kyffhäuserkreis","type":"Landkreis"},"federalState":{"key":"16","name":"Thüringen"}},{"name":"Stiftsgut Hechendorf","postalCode":"06571","locality":"Roßleben-Wiehe","municipality":{"key":"16065087","name":"Roßleben-Wiehe, Stadt","type":"Stadt"},"district":{"key":"16065","name":"Kyffhäuserkreis","type":"Landkreis"},"federalState":{"key":"16","name":"Thüringen"}},{"name":"Teichfeldweg","postalCode":"06571","locality":"Roßleben-Wiehe","municipality":{"key":"16065087","name":"Roßleben-Wiehe, Stadt","type":"Stadt"},"district":{"key":"16065","name":"Kyffhäuserkreis","type":"Landkreis"},"federalState":{"key":"16","name":"Thüringen"}},{"name":"Thomas-Mann-Str.","postalCode":"06571","locality":"Roßleben-Wiehe","municipality":{"key":"16065087","name":"Roßleben-Wiehe, Stadt","type":"Stadt"},"district":{"key":"16065","name":"Kyffhäuserkreis","type":"Landkreis"},"federalState":{"key":"16","name":"Thüringen"}},{"name":"Thomas-Müntzer-Str.","postalCode":"06571","locality":"Roßleben-Wiehe","municipality":{"key":"16065087","name":"Roßleben-Wiehe, Stadt","type":"Stadt"},"district":{"key":"16065","name":"Kyffhäuserkreis","type":"Landkreis"},"federalState":{"key":"16","name":"Thüringen"}},{"name":"Tulpenweg","postalCode":"06571","locality":"Roßleben-Wiehe","municipality":{"key":"16065087","name":"Roßleben-Wiehe, Stadt","type":"Stadt"},"district":{"key":"16065","name":"Kyffhäuserkreis","type":"Landkreis"},"federalState":{"key":"16","name":"Thüringen"}},{"name":"Untere Dorfstr.","postalCode":"06571","locality":"Roßleben-Wiehe","municipality":{"key":"16065087","name":"Roßleben-Wiehe, Stadt","type":"Stadt"},"district":{"key":"16065","name":"Kyffhäuserkreis","type":"Landkreis"},"federalState":{"key":"16","name":"Thüringen"}},{"name":"Veilchenweg","postalCode":"06571","locality":"Roßleben-Wiehe","municipality":{"key":"16065087","name":"Roßleben-Wiehe, Stadt","type":"Stadt"},"district":{"key":"16065","name":"Kyffhäuserkreis","type":"Landkreis"},"federalState":{"key":"16","name":"Thüringen"}},{"name":"Von-Witzleben-Str.","postalCode":"06571","locality":"Roßleben-Wiehe","municipality":{"key":"16065087","name":"Roßleben-Wiehe, Stadt","type":"Stadt"},"district":{"key":"16065","name":"Kyffhäuserkreis","type":"Landkreis"},"federalState":{"key":"16","name":"Thüringen"}},{"name":"Wasserstr.","postalCode":"06571","locality":"Roßleben-Wiehe","municipality":{"key":"16065087","name":"Roßleben-Wiehe, Stadt","type":"Stadt"},"district":{"key":"16065","name":"Kyffhäuserkreis","type":"Landkreis"},"federalState":{"key":"16","name":"Thüringen"}},{"name":"Wendelsteiner Str.","postalCode":"06571","locality":"Roßleben-Wiehe","municipality":{"key":"16065087","name":"Roßleben-Wiehe, Stadt","type":"Stadt"},"district":{"key":"16065","name":"Kyffhäuserkreis","type":"Landkreis"},"federalState":{"key":"16","name":"Thüringen"}},{"name":"Wiehesche Str.","postalCode":"06571","locality":"Roßleben-Wiehe","municipality":{"key":"16065087","name":"Roßleben-Wiehe, Stadt","type":"Stadt"},"district":{"key":"16065","name":"Kyffhäuserkreis","type":"Landkreis"},"federalState":{"key":"16","name":"Thüringen"}},{"name":"Windmühlenberg","postalCode":"06571","locality":"Roßleben-Wiehe","municipality":{"key":"16065087","name":"Roßleben-Wiehe, Stadt","type":"Stadt"},"district":{"key":"16065","name":"Kyffhäuserkreis","type":"Landkreis"},"federalState":{"key":"16","name":"Thüringen"}},{"name":"Wörlstr.","postalCode":"06571","locality":"Roßleben-Wiehe","municipality":{"key":"16065087","name":"Roßleben-Wiehe, Stadt","type":"Stadt"},"district":{"key":"16065","name":"Kyffhäuserkreis","type":"Landkreis"},"federalState":{"key":"16","name":"Thüringen"}},{"name":"Ziegelrodaer Str.","postalCode":"06571","locality":"Roßleben-Wiehe","municipality":{"key":"16065087","name":"Roßleben-Wiehe, Stadt","type":"Stadt"},"district":{"key":"16065","name":"Kyffhäuserkreis","type":"Landkreis"},"federalState":{"key":"16","name":"Thüringen"}},{"name":"Zum Karpfenteich","postalCode":"06571","locality":"Roßleben-Wiehe","municipality":{"key":"16065087","name":"Roßleben-Wiehe, Stadt","type":"Stadt"},"district":{"key":"16065","name":"Kyffhäuserkreis","type":"Landkreis"},"federalState":{"key":"16","name":"Thüringen"}},{"name":"Zum schönen Werder","postalCode":"06571","locality":"Roßleben-Wiehe","municipality":{"key":"16065087","name":"Roßleben-Wiehe, Stadt","type":"Stadt"},"district":{"key":"16065","name":"Kyffhäuserkreis","type":"Landkreis"},"federalState":{"key":"16","name":"Thüringen"}},{"name":"Zur Schmiede","postalCode":"06571","locality":"Roßleben-Wiehe","municipality":{"key":"16065087","name":"Roßleben-Wiehe, Stadt","type":"Stadt"},"district":{"key":"16065","name":"Kyffhäuserkreis","type":"Landkreis"},"federalState":{"key":"16","name":"Thüringen"}},]