[{"name":"Adjutantenweg","postalCode":"59494","locality":"Soest","municipality":{"key":"05974040","name":"Soest, Stadt","type":"Stadt"},"district":{"key":"05974","name":"Soest","type":"Kreis"},"federalState":{"key":"05","name":"Nordrhein-Westfalen"}},{"name":"Ahnering","postalCode":"59494","locality":"Soest","municipality":{"key":"05974040","name":"Soest, Stadt","type":"Stadt"},"district":{"key":"05974","name":"Soest","type":"Kreis"},"federalState":{"key":"05","name":"Nordrhein-Westfalen"}},{"name":"Ahneweg","postalCode":"59494","locality":"Soest","municipality":{"key":"05974040","name":"Soest, Stadt","type":"Stadt"},"district":{"key":"05974","name":"Soest","type":"Kreis"},"federalState":{"key":"05","name":"Nordrhein-Westfalen"}},{"name":"Ahornstr.","postalCode":"59494","locality":"Soest","municipality":{"key":"05974040","name":"Soest, Stadt","type":"Stadt"},"district":{"key":"05974","name":"Soest","type":"Kreis"},"federalState":{"key":"05","name":"Nordrhein-Westfalen"}},{"name":"Akazienstr.","postalCode":"59494","locality":"Soest","municipality":{"key":"05974040","name":"Soest, Stadt","type":"Stadt"},"district":{"key":"05974","name":"Soest","type":"Kreis"},"federalState":{"key":"05","name":"Nordrhein-Westfalen"}},{"name":"Albert-Otto-Weg","postalCode":"59494","locality":"Soest","municipality":{"key":"05974040","name":"Soest, Stadt","type":"Stadt"},"district":{"key":"05974","name":"Soest","type":"Kreis"},"federalState":{"key":"05","name":"Nordrhein-Westfalen"}},{"name":"Albertus-Magnus-Str.","postalCode":"59494","locality":"Soest","municipality":{"key":"05974040","name":"Soest, Stadt","type":"Stadt"},"district":{"key":"05974","name":"Soest","type":"Kreis"},"federalState":{"key":"05","name":"Nordrhein-Westfalen"}},{"name":"Aldegreverwall","postalCode":"59494","locality":"Soest","municipality":{"key":"05974040","name":"Soest, Stadt","type":"Stadt"},"district":{"key":"05974","name":"Soest","type":"Kreis"},"federalState":{"key":"05","name":"Nordrhein-Westfalen"}},{"name":"Aldrianweg","postalCode":"59494","locality":"Soest","municipality":{"key":"05974040","name":"Soest, Stadt","type":"Stadt"},"district":{"key":"05974","name":"Soest","type":"Kreis"},"federalState":{"key":"05","name":"Nordrhein-Westfalen"}},{"name":"Alte Dorfstr.","postalCode":"59494","locality":"Soest","municipality":{"key":"05974040","name":"Soest, Stadt","type":"Stadt"},"district":{"key":"05974","name":"Soest","type":"Kreis"},"federalState":{"key":"05","name":"Nordrhein-Westfalen"}},{"name":"Alte Heerstr.","postalCode":"59494","locality":"Soest","municipality":{"key":"05974040","name":"Soest, Stadt","type":"Stadt"},"district":{"key":"05974","name":"Soest","type":"Kreis"},"federalState":{"key":"05","name":"Nordrhein-Westfalen"}},{"name":"Alter Elfser Weg","postalCode":"59494","locality":"Soest","municipality":{"key":"05974040","name":"Soest, Stadt","type":"Stadt"},"district":{"key":"05974","name":"Soest","type":"Kreis"},"federalState":{"key":"05","name":"Nordrhein-Westfalen"}},{"name":"Alter Glockenweg","postalCode":"59494","locality":"Soest","municipality":{"key":"05974040","name":"Soest, Stadt","type":"Stadt"},"district":{"key":"05974","name":"Soest","type":"Kreis"},"federalState":{"key":"05","name":"Nordrhein-Westfalen"}},{"name":"Alter Hellweg","postalCode":"59494","locality":"Soest","municipality":{"key":"05974040","name":"Soest, Stadt","type":"Stadt"},"district":{"key":"05974","name":"Soest","type":"Kreis"},"federalState":{"key":"05","name":"Nordrhein-Westfalen"}},{"name":"Alter Schwefer Weg","postalCode":"59494","locality":"Soest","municipality":{"key":"05974040","name":"Soest, Stadt","type":"Stadt"},"district":{"key":"05974","name":"Soest","type":"Kreis"},"federalState":{"key":"05","name":"Nordrhein-Westfalen"}},{"name":"Am alten Freibad","postalCode":"59494","locality":"Soest","municipality":{"key":"05974040","name":"Soest, Stadt","type":"Stadt"},"district":{"key":"05974","name":"Soest","type":"Kreis"},"federalState":{"key":"05","name":"Nordrhein-Westfalen"}},{"name":"Am Bahnhof","postalCode":"59494","locality":"Soest","municipality":{"key":"05974040","name":"Soest, Stadt","type":"Stadt"},"district":{"key":"05974","name":"Soest","type":"Kreis"},"federalState":{"key":"05","name":"Nordrhein-Westfalen"}},{"name":"Am Bohnenpfad","postalCode":"59494","locality":"Soest","municipality":{"key":"05974040","name":"Soest, Stadt","type":"Stadt"},"district":{"key":"05974","name":"Soest","type":"Kreis"},"federalState":{"key":"05","name":"Nordrhein-Westfalen"}},{"name":"Am Brink","postalCode":"59494","locality":"Soest","municipality":{"key":"05974040","name":"Soest, Stadt","type":"Stadt"},"district":{"key":"05974","name":"Soest","type":"Kreis"},"federalState":{"key":"05","name":"Nordrhein-Westfalen"}},{"name":"Am Butterkamp","postalCode":"59494","locality":"Soest","municipality":{"key":"05974040","name":"Soest, Stadt","type":"Stadt"},"district":{"key":"05974","name":"Soest","type":"Kreis"},"federalState":{"key":"05","name":"Nordrhein-Westfalen"}},{"name":"Am Denkmal","postalCode":"59494","locality":"Soest","municipality":{"key":"05974040","name":"Soest, Stadt","type":"Stadt"},"district":{"key":"05974","name":"Soest","type":"Kreis"},"federalState":{"key":"05","name":"Nordrhein-Westfalen"}},{"name":"Am Dorfteich","postalCode":"59494","locality":"Soest","municipality":{"key":"05974040","name":"Soest, Stadt","type":"Stadt"},"district":{"key":"05974","name":"Soest","type":"Kreis"},"federalState":{"key":"05","name":"Nordrhein-Westfalen"}},{"name":"Am Drusenbrink","postalCode":"59494","locality":"Soest","municipality":{"key":"05974040","name":"Soest, Stadt","type":"Stadt"},"district":{"key":"05974","name":"Soest","type":"Kreis"},"federalState":{"key":"05","name":"Nordrhein-Westfalen"}},{"name":"Am Eichkamp","postalCode":"59494","locality":"Soest","municipality":{"key":"05974040","name":"Soest, Stadt","type":"Stadt"},"district":{"key":"05974","name":"Soest","type":"Kreis"},"federalState":{"key":"05","name":"Nordrhein-Westfalen"}},{"name":"Am Erlenbruch","postalCode":"59494","locality":"Soest","municipality":{"key":"05974040","name":"Soest, Stadt","type":"Stadt"},"district":{"key":"05974","name":"Soest","type":"Kreis"},"federalState":{"key":"05","name":"Nordrhein-Westfalen"}},{"name":"Am Friedhof","postalCode":"59494","locality":"Soest","municipality":{"key":"05974040","name":"Soest, Stadt","type":"Stadt"},"district":{"key":"05974","name":"Soest","type":"Kreis"},"federalState":{"key":"05","name":"Nordrhein-Westfalen"}},{"name":"Am Glasgraben","postalCode":"59494","locality":"Soest","municipality":{"key":"05974040","name":"Soest, Stadt","type":"Stadt"},"district":{"key":"05974","name":"Soest","type":"Kreis"},"federalState":{"key":"05","name":"Nordrhein-Westfalen"}},{"name":"Am Goldberg","postalCode":"59494","locality":"Soest","municipality":{"key":"05974040","name":"Soest, Stadt","type":"Stadt"},"district":{"key":"05974","name":"Soest","type":"Kreis"},"federalState":{"key":"05","name":"Nordrhein-Westfalen"}},{"name":"Am Güterbahnhof","postalCode":"59494","locality":"Soest","municipality":{"key":"05974040","name":"Soest, Stadt","type":"Stadt"},"district":{"key":"05974","name":"Soest","type":"Kreis"},"federalState":{"key":"05","name":"Nordrhein-Westfalen"}},{"name":"Am Hagedornsknapp","postalCode":"59494","locality":"Soest","municipality":{"key":"05974040","name":"Soest, Stadt","type":"Stadt"},"district":{"key":"05974","name":"Soest","type":"Kreis"},"federalState":{"key":"05","name":"Nordrhein-Westfalen"}},{"name":"Am Hellweg","postalCode":"59494","locality":"Soest","municipality":{"key":"05974040","name":"Soest, Stadt","type":"Stadt"},"district":{"key":"05974","name":"Soest","type":"Kreis"},"federalState":{"key":"05","name":"Nordrhein-Westfalen"}},{"name":"Am Hengsbach","postalCode":"59494","locality":"Soest","municipality":{"key":"05974040","name":"Soest, Stadt","type":"Stadt"},"district":{"key":"05974","name":"Soest","type":"Kreis"},"federalState":{"key":"05","name":"Nordrhein-Westfalen"}},{"name":"Am Heuweg","postalCode":"59494","locality":"Soest","municipality":{"key":"05974040","name":"Soest, Stadt","type":"Stadt"},"district":{"key":"05974","name":"Soest","type":"Kreis"},"federalState":{"key":"05","name":"Nordrhein-Westfalen"}},{"name":"Am Hilgenhaus","postalCode":"59494","locality":"Soest","municipality":{"key":"05974040","name":"Soest, Stadt","type":"Stadt"},"district":{"key":"05974","name":"Soest","type":"Kreis"},"federalState":{"key":"05","name":"Nordrhein-Westfalen"}},{"name":"Am Hohnekirchhof","postalCode":"59494","locality":"Soest","municipality":{"key":"05974040","name":"Soest, Stadt","type":"Stadt"},"district":{"key":"05974","name":"Soest","type":"Kreis"},"federalState":{"key":"05","name":"Nordrhein-Westfalen"}},{"name":"Am Katzenloch","postalCode":"59494","locality":"Soest","municipality":{"key":"05974040","name":"Soest, Stadt","type":"Stadt"},"district":{"key":"05974","name":"Soest","type":"Kreis"},"federalState":{"key":"05","name":"Nordrhein-Westfalen"}},{"name":"Am Kreuzpfad","postalCode":"59494","locality":"Soest","municipality":{"key":"05974040","name":"Soest, Stadt","type":"Stadt"},"district":{"key":"05974","name":"Soest","type":"Kreis"},"federalState":{"key":"05","name":"Nordrhein-Westfalen"}},{"name":"Am Kuhfuß","postalCode":"59494","locality":"Soest","municipality":{"key":"05974040","name":"Soest, Stadt","type":"Stadt"},"district":{"key":"05974","name":"Soest","type":"Kreis"},"federalState":{"key":"05","name":"Nordrhein-Westfalen"}},{"name":"Am Kümken","postalCode":"59494","locality":"Soest","municipality":{"key":"05974040","name":"Soest, Stadt","type":"Stadt"},"district":{"key":"05974","name":"Soest","type":"Kreis"},"federalState":{"key":"05","name":"Nordrhein-Westfalen"}},{"name":"Am Kützelbach","postalCode":"59494","locality":"Soest","municipality":{"key":"05974040","name":"Soest, Stadt","type":"Stadt"},"district":{"key":"05974","name":"Soest","type":"Kreis"},"federalState":{"key":"05","name":"Nordrhein-Westfalen"}},{"name":"Am Langen Graben","postalCode":"59494","locality":"Soest","municipality":{"key":"05974040","name":"Soest, Stadt","type":"Stadt"},"district":{"key":"05974","name":"Soest","type":"Kreis"},"federalState":{"key":"05","name":"Nordrhein-Westfalen"}},{"name":"Am Lippenkamp","postalCode":"59494","locality":"Soest","municipality":{"key":"05974040","name":"Soest, Stadt","type":"Stadt"},"district":{"key":"05974","name":"Soest","type":"Kreis"},"federalState":{"key":"05","name":"Nordrhein-Westfalen"}},{"name":"Am Loerbach","postalCode":"59494","locality":"Soest","municipality":{"key":"05974040","name":"Soest, Stadt","type":"Stadt"},"district":{"key":"05974","name":"Soest","type":"Kreis"},"federalState":{"key":"05","name":"Nordrhein-Westfalen"}},{"name":"Am Mühlenweg","postalCode":"59494","locality":"Soest","municipality":{"key":"05974040","name":"Soest, Stadt","type":"Stadt"},"district":{"key":"05974","name":"Soest","type":"Kreis"},"federalState":{"key":"05","name":"Nordrhein-Westfalen"}},{"name":"Ampener Weg","postalCode":"59494","locality":"Soest","municipality":{"key":"05974040","name":"Soest, Stadt","type":"Stadt"},"district":{"key":"05974","name":"Soest","type":"Kreis"},"federalState":{"key":"05","name":"Nordrhein-Westfalen"}},{"name":"Am Röllingser Graben","postalCode":"59494","locality":"Soest","municipality":{"key":"05974040","name":"Soest, Stadt","type":"Stadt"},"district":{"key":"05974","name":"Soest","type":"Kreis"},"federalState":{"key":"05","name":"Nordrhein-Westfalen"}},{"name":"Am Rüenstert","postalCode":"59494","locality":"Soest","municipality":{"key":"05974040","name":"Soest, Stadt","type":"Stadt"},"district":{"key":"05974","name":"Soest","type":"Kreis"},"federalState":{"key":"05","name":"Nordrhein-Westfalen"}},{"name":"Am Schloßberg","postalCode":"59494","locality":"Soest","municipality":{"key":"05974040","name":"Soest, Stadt","type":"Stadt"},"district":{"key":"05974","name":"Soest","type":"Kreis"},"federalState":{"key":"05","name":"Nordrhein-Westfalen"}},{"name":"Am Schmerbrock","postalCode":"59494","locality":"Soest","municipality":{"key":"05974040","name":"Soest, Stadt","type":"Stadt"},"district":{"key":"05974","name":"Soest","type":"Kreis"},"federalState":{"key":"05","name":"Nordrhein-Westfalen"}},{"name":"Am Seel","postalCode":"59494","locality":"Soest","municipality":{"key":"05974040","name":"Soest, Stadt","type":"Stadt"},"district":{"key":"05974","name":"Soest","type":"Kreis"},"federalState":{"key":"05","name":"Nordrhein-Westfalen"}},{"name":"Bachsteingasse","postalCode":"59494","locality":"Soest","municipality":{"key":"05974040","name":"Soest, Stadt","type":"Stadt"},"district":{"key":"05974","name":"Soest","type":"Kreis"},"federalState":{"key":"05","name":"Nordrhein-Westfalen"}},{"name":"Bachstiege","postalCode":"59494","locality":"Soest","municipality":{"key":"05974040","name":"Soest, Stadt","type":"Stadt"},"district":{"key":"05974","name":"Soest","type":"Kreis"},"federalState":{"key":"05","name":"Nordrhein-Westfalen"}},{"name":"Bachstr.","postalCode":"59494","locality":"Soest","municipality":{"key":"05974040","name":"Soest, Stadt","type":"Stadt"},"district":{"key":"05974","name":"Soest","type":"Kreis"},"federalState":{"key":"05","name":"Nordrhein-Westfalen"}},{"name":"Bahnengasse","postalCode":"59494","locality":"Soest","municipality":{"key":"05974040","name":"Soest, Stadt","type":"Stadt"},"district":{"key":"05974","name":"Soest","type":"Kreis"},"federalState":{"key":"05","name":"Nordrhein-Westfalen"}},{"name":"Balhorngasse","postalCode":"59494","locality":"Soest","municipality":{"key":"05974040","name":"Soest, Stadt","type":"Stadt"},"district":{"key":"05974","name":"Soest","type":"Kreis"},"federalState":{"key":"05","name":"Nordrhein-Westfalen"}},{"name":"Bangorweg","postalCode":"59494","locality":"Soest","municipality":{"key":"05974040","name":"Soest, Stadt","type":"Stadt"},"district":{"key":"05974","name":"Soest","type":"Kreis"},"federalState":{"key":"05","name":"Nordrhein-Westfalen"}},{"name":"Barfüßerweg","postalCode":"59494","locality":"Soest","municipality":{"key":"05974040","name":"Soest, Stadt","type":"Stadt"},"district":{"key":"05974","name":"Soest","type":"Kreis"},"federalState":{"key":"05","name":"Nordrhein-Westfalen"}},{"name":"Bartholdweg","postalCode":"59494","locality":"Soest","municipality":{"key":"05974040","name":"Soest, Stadt","type":"Stadt"},"district":{"key":"05974","name":"Soest","type":"Kreis"},"federalState":{"key":"05","name":"Nordrhein-Westfalen"}},{"name":"Bartholomäusstr.","postalCode":"59494","locality":"Soest","municipality":{"key":"05974040","name":"Soest, Stadt","type":"Stadt"},"district":{"key":"05974","name":"Soest","type":"Kreis"},"federalState":{"key":"05","name":"Nordrhein-Westfalen"}},{"name":"Batenhorstweg","postalCode":"59494","locality":"Soest","municipality":{"key":"05974040","name":"Soest, Stadt","type":"Stadt"},"district":{"key":"05974","name":"Soest","type":"Kreis"},"federalState":{"key":"05","name":"Nordrhein-Westfalen"}},{"name":"Baumfeldweg","postalCode":"59494","locality":"Soest","municipality":{"key":"05974040","name":"Soest, Stadt","type":"Stadt"},"district":{"key":"05974","name":"Soest","type":"Kreis"},"federalState":{"key":"05","name":"Nordrhein-Westfalen"}},{"name":"Beamtenlaufbahn","postalCode":"59494","locality":"Soest","municipality":{"key":"05974040","name":"Soest, Stadt","type":"Stadt"},"district":{"key":"05974","name":"Soest","type":"Kreis"},"federalState":{"key":"05","name":"Nordrhein-Westfalen"}},{"name":"Behlmerweg","postalCode":"59494","locality":"Soest","municipality":{"key":"05974040","name":"Soest, Stadt","type":"Stadt"},"district":{"key":"05974","name":"Soest","type":"Kreis"},"federalState":{"key":"05","name":"Nordrhein-Westfalen"}},{"name":"Belgierweg","postalCode":"59494","locality":"Soest","municipality":{"key":"05974040","name":"Soest, Stadt","type":"Stadt"},"district":{"key":"05974","name":"Soest","type":"Kreis"},"federalState":{"key":"05","name":"Nordrhein-Westfalen"}},{"name":"Benninghausenweg","postalCode":"59494","locality":"Soest","municipality":{"key":"05974040","name":"Soest, Stadt","type":"Stadt"},"district":{"key":"05974","name":"Soest","type":"Kreis"},"federalState":{"key":"05","name":"Nordrhein-Westfalen"}},{"name":"Bergeder Weg","postalCode":"59494","locality":"Soest","municipality":{"key":"05974040","name":"Soest, Stadt","type":"Stadt"},"district":{"key":"05974","name":"Soest","type":"Kreis"},"federalState":{"key":"05","name":"Nordrhein-Westfalen"}},{"name":"Bergenring","postalCode":"59494","locality":"Soest","municipality":{"key":"05974040","name":"Soest, Stadt","type":"Stadt"},"district":{"key":"05974","name":"Soest","type":"Kreis"},"federalState":{"key":"05","name":"Nordrhein-Westfalen"}},{"name":"Bergenthal-Park","postalCode":"59494","locality":"Soest","municipality":{"key":"05974040","name":"Soest, Stadt","type":"Stadt"},"district":{"key":"05974","name":"Soest","type":"Kreis"},"federalState":{"key":"05","name":"Nordrhein-Westfalen"}},{"name":"Bergstr.r Weg","postalCode":"59494","locality":"Soest","municipality":{"key":"05974040","name":"Soest, Stadt","type":"Stadt"},"district":{"key":"05974","name":"Soest","type":"Kreis"},"federalState":{"key":"05","name":"Nordrhein-Westfalen"}},{"name":"Berswordtgasse","postalCode":"59494","locality":"Soest","municipality":{"key":"05974040","name":"Soest, Stadt","type":"Stadt"},"district":{"key":"05974","name":"Soest","type":"Kreis"},"federalState":{"key":"05","name":"Nordrhein-Westfalen"}},{"name":"Biberweg","postalCode":"59494","locality":"Soest","municipality":{"key":"05974040","name":"Soest, Stadt","type":"Stadt"},"district":{"key":"05974","name":"Soest","type":"Kreis"},"federalState":{"key":"05","name":"Nordrhein-Westfalen"}},{"name":"Birkenweg","postalCode":"59494","locality":"Soest","municipality":{"key":"05974040","name":"Soest, Stadt","type":"Stadt"},"district":{"key":"05974","name":"Soest","type":"Kreis"},"federalState":{"key":"05","name":"Nordrhein-Westfalen"}},{"name":"Bischofstr.","postalCode":"59494","locality":"Soest","municipality":{"key":"05974040","name":"Soest, Stadt","type":"Stadt"},"district":{"key":"05974","name":"Soest","type":"Kreis"},"federalState":{"key":"05","name":"Nordrhein-Westfalen"}},{"name":"Blanckenagelweg","postalCode":"59494","locality":"Soest","municipality":{"key":"05974040","name":"Soest, Stadt","type":"Stadt"},"district":{"key":"05974","name":"Soest","type":"Kreis"},"federalState":{"key":"05","name":"Nordrhein-Westfalen"}},{"name":"Blanckennagelweg","postalCode":"59494","locality":"Soest","municipality":{"key":"05974040","name":"Soest, Stadt","type":"Stadt"},"district":{"key":"05974","name":"Soest","type":"Kreis"},"federalState":{"key":"05","name":"Nordrhein-Westfalen"}},{"name":"Blaufärberweg","postalCode":"59494","locality":"Soest","municipality":{"key":"05974040","name":"Soest, Stadt","type":"Stadt"},"district":{"key":"05974","name":"Soest","type":"Kreis"},"federalState":{"key":"05","name":"Nordrhein-Westfalen"}},{"name":"Bleichergasse","postalCode":"59494","locality":"Soest","municipality":{"key":"05974040","name":"Soest, Stadt","type":"Stadt"},"district":{"key":"05974","name":"Soest","type":"Kreis"},"federalState":{"key":"05","name":"Nordrhein-Westfalen"}},{"name":"Bleigießerweg","postalCode":"59494","locality":"Soest","municipality":{"key":"05974040","name":"Soest, Stadt","type":"Stadt"},"district":{"key":"05974","name":"Soest","type":"Kreis"},"federalState":{"key":"05","name":"Nordrhein-Westfalen"}},{"name":"Bleskenweg","postalCode":"59494","locality":"Soest","municipality":{"key":"05974040","name":"Soest, Stadt","type":"Stadt"},"district":{"key":"05974","name":"Soest","type":"Kreis"},"federalState":{"key":"05","name":"Nordrhein-Westfalen"}},{"name":"Blumenstr.","postalCode":"59494","locality":"Soest","municipality":{"key":"05974040","name":"Soest, Stadt","type":"Stadt"},"district":{"key":"05974","name":"Soest","type":"Kreis"},"federalState":{"key":"05","name":"Nordrhein-Westfalen"}},{"name":"Böckelmannweg","postalCode":"59494","locality":"Soest","municipality":{"key":"05974040","name":"Soest, Stadt","type":"Stadt"},"district":{"key":"05974","name":"Soest","type":"Kreis"},"federalState":{"key":"05","name":"Nordrhein-Westfalen"}},{"name":"Bockum-Dollfs-Gasse","postalCode":"59494","locality":"Soest","municipality":{"key":"05974040","name":"Soest, Stadt","type":"Stadt"},"district":{"key":"05974","name":"Soest","type":"Kreis"},"federalState":{"key":"05","name":"Nordrhein-Westfalen"}},{"name":"Bohrweg","postalCode":"59494","locality":"Soest","municipality":{"key":"05974040","name":"Soest, Stadt","type":"Stadt"},"district":{"key":"05974","name":"Soest","type":"Kreis"},"federalState":{"key":"05","name":"Nordrhein-Westfalen"}},{"name":"Boleweg","postalCode":"59494","locality":"Soest","municipality":{"key":"05974040","name":"Soest, Stadt","type":"Stadt"},"district":{"key":"05974","name":"Soest","type":"Kreis"},"federalState":{"key":"05","name":"Nordrhein-Westfalen"}},{"name":"Bördenstr.","postalCode":"59494","locality":"Soest","municipality":{"key":"05974040","name":"Soest, Stadt","type":"Stadt"},"district":{"key":"05974","name":"Soest","type":"Kreis"},"federalState":{"key":"05","name":"Nordrhein-Westfalen"}},{"name":"Borggraben","postalCode":"59494","locality":"Soest","municipality":{"key":"05974040","name":"Soest, Stadt","type":"Stadt"},"district":{"key":"05974","name":"Soest","type":"Kreis"},"federalState":{"key":"05","name":"Nordrhein-Westfalen"}},{"name":"Braukweg","postalCode":"59494","locality":"Soest","municipality":{"key":"05974040","name":"Soest, Stadt","type":"Stadt"},"district":{"key":"05974","name":"Soest","type":"Kreis"},"federalState":{"key":"05","name":"Nordrhein-Westfalen"}},{"name":"Braunschweigweg","postalCode":"59494","locality":"Soest","municipality":{"key":"05974040","name":"Soest, Stadt","type":"Stadt"},"district":{"key":"05974","name":"Soest","type":"Kreis"},"federalState":{"key":"05","name":"Nordrhein-Westfalen"}},{"name":"Bremer Str.","postalCode":"59494","locality":"Soest","municipality":{"key":"05974040","name":"Soest, Stadt","type":"Stadt"},"district":{"key":"05974","name":"Soest","type":"Kreis"},"federalState":{"key":"05","name":"Nordrhein-Westfalen"}},{"name":"Bresinaweg","postalCode":"59494","locality":"Soest","municipality":{"key":"05974040","name":"Soest, Stadt","type":"Stadt"},"district":{"key":"05974","name":"Soest","type":"Kreis"},"federalState":{"key":"05","name":"Nordrhein-Westfalen"}},{"name":"Breslauer Weg","postalCode":"59494","locality":"Soest","municipality":{"key":"05974040","name":"Soest, Stadt","type":"Stadt"},"district":{"key":"05974","name":"Soest","type":"Kreis"},"federalState":{"key":"05","name":"Nordrhein-Westfalen"}},{"name":"Briloner Str.","postalCode":"59494","locality":"Soest","municipality":{"key":"05974040","name":"Soest, Stadt","type":"Stadt"},"district":{"key":"05974","name":"Soest","type":"Kreis"},"federalState":{"key":"05","name":"Nordrhein-Westfalen"}},{"name":"Brinkenkamp","postalCode":"59494","locality":"Soest","municipality":{"key":"05974040","name":"Soest, Stadt","type":"Stadt"},"district":{"key":"05974","name":"Soest","type":"Kreis"},"federalState":{"key":"05","name":"Nordrhein-Westfalen"}},{"name":"Britischer Weg","postalCode":"59494","locality":"Soest","municipality":{"key":"05974040","name":"Soest, Stadt","type":"Stadt"},"district":{"key":"05974","name":"Soest","type":"Kreis"},"federalState":{"key":"05","name":"Nordrhein-Westfalen"}},{"name":"Brockhausweg","postalCode":"59494","locality":"Soest","municipality":{"key":"05974040","name":"Soest, Stadt","type":"Stadt"},"district":{"key":"05974","name":"Soest","type":"Kreis"},"federalState":{"key":"05","name":"Nordrhein-Westfalen"}},{"name":"Bruchstr.","postalCode":"59494","locality":"Soest","municipality":{"key":"05974040","name":"Soest, Stadt","type":"Stadt"},"district":{"key":"05974","name":"Soest","type":"Kreis"},"federalState":{"key":"05","name":"Nordrhein-Westfalen"}},{"name":"Brückenstr.","postalCode":"59494","locality":"Soest","municipality":{"key":"05974040","name":"Soest, Stadt","type":"Stadt"},"district":{"key":"05974","name":"Soest","type":"Kreis"},"federalState":{"key":"05","name":"Nordrhein-Westfalen"}},{"name":"Brüdertor","postalCode":"59494","locality":"Soest","municipality":{"key":"05974040","name":"Soest, Stadt","type":"Stadt"},"district":{"key":"05974","name":"Soest","type":"Kreis"},"federalState":{"key":"05","name":"Nordrhein-Westfalen"}},{"name":"Brüder-Walburger-Wallstr.","postalCode":"59494","locality":"Soest","municipality":{"key":"05974040","name":"Soest, Stadt","type":"Stadt"},"district":{"key":"05974","name":"Soest","type":"Kreis"},"federalState":{"key":"05","name":"Nordrhein-Westfalen"}},{"name":"Brüggering","postalCode":"59494","locality":"Soest","municipality":{"key":"05974040","name":"Soest, Stadt","type":"Stadt"},"district":{"key":"05974","name":"Soest","type":"Kreis"},"federalState":{"key":"05","name":"Nordrhein-Westfalen"}},{"name":"Canadischer Weg","postalCode":"59494","locality":"Soest","municipality":{"key":"05974040","name":"Soest, Stadt","type":"Stadt"},"district":{"key":"05974","name":"Soest","type":"Kreis"},"federalState":{"key":"05","name":"Nordrhein-Westfalen"}},{"name":"Chorherrenweg","postalCode":"59494","locality":"Soest","municipality":{"key":"05974040","name":"Soest, Stadt","type":"Stadt"},"district":{"key":"05974","name":"Soest","type":"Kreis"},"federalState":{"key":"05","name":"Nordrhein-Westfalen"}},{"name":"Christian-Rohlfs-Weg","postalCode":"59494","locality":"Soest","municipality":{"key":"05974040","name":"Soest, Stadt","type":"Stadt"},"district":{"key":"05974","name":"Soest","type":"Kreis"},"federalState":{"key":"05","name":"Nordrhein-Westfalen"}},{"name":"Christophorusweg","postalCode":"59494","locality":"Soest","municipality":{"key":"05974040","name":"Soest, Stadt","type":"Stadt"},"district":{"key":"05974","name":"Soest","type":"Kreis"},"federalState":{"key":"05","name":"Nordrhein-Westfalen"}},{"name":"Clarenbachpark","postalCode":"59494","locality":"Soest","municipality":{"key":"05974040","name":"Soest, Stadt","type":"Stadt"},"district":{"key":"05974","name":"Soest","type":"Kreis"},"federalState":{"key":"05","name":"Nordrhein-Westfalen"}},{"name":"Clevische Str.","postalCode":"59494","locality":"Soest","municipality":{"key":"05974040","name":"Soest, Stadt","type":"Stadt"},"district":{"key":"05974","name":"Soest","type":"Kreis"},"federalState":{"key":"05","name":"Nordrhein-Westfalen"}},{"name":"Coesterweg","postalCode":"59494","locality":"Soest","municipality":{"key":"05974040","name":"Soest, Stadt","type":"Stadt"},"district":{"key":"05974","name":"Soest","type":"Kreis"},"federalState":{"key":"05","name":"Nordrhein-Westfalen"}},{"name":"Colonel-Adam-Weg","postalCode":"59494","locality":"Soest","municipality":{"key":"05974040","name":"Soest, Stadt","type":"Stadt"},"district":{"key":"05974","name":"Soest","type":"Kreis"},"federalState":{"key":"05","name":"Nordrhein-Westfalen"}},{"name":"Dagobertweg","postalCode":"59494","locality":"Soest","municipality":{"key":"05974040","name":"Soest, Stadt","type":"Stadt"},"district":{"key":"05974","name":"Soest","type":"Kreis"},"federalState":{"key":"05","name":"Nordrhein-Westfalen"}},{"name":"Dahlweg","postalCode":"59494","locality":"Soest","municipality":{"key":"05974040","name":"Soest, Stadt","type":"Stadt"},"district":{"key":"05974","name":"Soest","type":"Kreis"},"federalState":{"key":"05","name":"Nordrhein-Westfalen"}},{"name":"Damm","postalCode":"59494","locality":"Soest","municipality":{"key":"05974040","name":"Soest, Stadt","type":"Stadt"},"district":{"key":"05974","name":"Soest","type":"Kreis"},"federalState":{"key":"05","name":"Nordrhein-Westfalen"}},{"name":"Danziger Ring","postalCode":"59494","locality":"Soest","municipality":{"key":"05974040","name":"Soest, Stadt","type":"Stadt"},"district":{"key":"05974","name":"Soest","type":"Kreis"},"federalState":{"key":"05","name":"Nordrhein-Westfalen"}},{"name":"Dasselwall","postalCode":"59494","locality":"Soest","municipality":{"key":"05974040","name":"Soest, Stadt","type":"Stadt"},"district":{"key":"05974","name":"Soest","type":"Kreis"},"federalState":{"key":"05","name":"Nordrhein-Westfalen"}},{"name":"Deckmannstr.","postalCode":"59494","locality":"Soest","municipality":{"key":"05974040","name":"Soest, Stadt","type":"Stadt"},"district":{"key":"05974","name":"Soest","type":"Kreis"},"federalState":{"key":"05","name":"Nordrhein-Westfalen"}},{"name":"Deiringser Weg","postalCode":"59494","locality":"Soest","municipality":{"key":"05974040","name":"Soest, Stadt","type":"Stadt"},"district":{"key":"05974","name":"Soest","type":"Kreis"},"federalState":{"key":"05","name":"Nordrhein-Westfalen"}},{"name":"Deiweg","postalCode":"59494","locality":"Soest","municipality":{"key":"05974040","name":"Soest, Stadt","type":"Stadt"},"district":{"key":"05974","name":"Soest","type":"Kreis"},"federalState":{"key":"05","name":"Nordrhein-Westfalen"}},{"name":"Der Mühlenweg","postalCode":"59494","locality":"Soest","municipality":{"key":"05974040","name":"Soest, Stadt","type":"Stadt"},"district":{"key":"05974","name":"Soest","type":"Kreis"},"federalState":{"key":"05","name":"Nordrhein-Westfalen"}},{"name":"De-Rode-Weg","postalCode":"59494","locality":"Soest","municipality":{"key":"05974040","name":"Soest, Stadt","type":"Stadt"},"district":{"key":"05974","name":"Soest","type":"Kreis"},"federalState":{"key":"05","name":"Nordrhein-Westfalen"}},{"name":"Detmolder Str.","postalCode":"59494","locality":"Soest","municipality":{"key":"05974040","name":"Soest, Stadt","type":"Stadt"},"district":{"key":"05974","name":"Soest","type":"Kreis"},"federalState":{"key":"05","name":"Nordrhein-Westfalen"}},{"name":"Deventerweg","postalCode":"59494","locality":"Soest","municipality":{"key":"05974040","name":"Soest, Stadt","type":"Stadt"},"district":{"key":"05974","name":"Soest","type":"Kreis"},"federalState":{"key":"05","name":"Nordrhein-Westfalen"}},{"name":"Diemelweg","postalCode":"59494","locality":"Soest","municipality":{"key":"05974040","name":"Soest, Stadt","type":"Stadt"},"district":{"key":"05974","name":"Soest","type":"Kreis"},"federalState":{"key":"05","name":"Nordrhein-Westfalen"}},{"name":"Dietrich-Crede-Weg","postalCode":"59494","locality":"Soest","municipality":{"key":"05974040","name":"Soest, Stadt","type":"Stadt"},"district":{"key":"05974","name":"Soest","type":"Kreis"},"federalState":{"key":"05","name":"Nordrhein-Westfalen"}},{"name":"Dominikanerstr.","postalCode":"59494","locality":"Soest","municipality":{"key":"05974040","name":"Soest, Stadt","type":"Stadt"},"district":{"key":"05974","name":"Soest","type":"Kreis"},"federalState":{"key":"05","name":"Nordrhein-Westfalen"}},{"name":"Domplatz","postalCode":"59494","locality":"Soest","municipality":{"key":"05974040","name":"Soest, Stadt","type":"Stadt"},"district":{"key":"05974","name":"Soest","type":"Kreis"},"federalState":{"key":"05","name":"Nordrhein-Westfalen"}},{"name":"Doornkaatweg","postalCode":"59494","locality":"Soest","municipality":{"key":"05974040","name":"Soest, Stadt","type":"Stadt"},"district":{"key":"05974","name":"Soest","type":"Kreis"},"federalState":{"key":"05","name":"Nordrhein-Westfalen"}},{"name":"Dörmannweg","postalCode":"59494","locality":"Soest","municipality":{"key":"05974040","name":"Soest, Stadt","type":"Stadt"},"district":{"key":"05974","name":"Soest","type":"Kreis"},"federalState":{"key":"05","name":"Nordrhein-Westfalen"}},{"name":"Dortmundweg","postalCode":"59494","locality":"Soest","municipality":{"key":"05974040","name":"Soest, Stadt","type":"Stadt"},"district":{"key":"05974","name":"Soest","type":"Kreis"},"federalState":{"key":"05","name":"Nordrhein-Westfalen"}},{"name":"Dreckhoffsfeld","postalCode":"59494","locality":"Soest","municipality":{"key":"05974040","name":"Soest, Stadt","type":"Stadt"},"district":{"key":"05974","name":"Soest","type":"Kreis"},"federalState":{"key":"05","name":"Nordrhein-Westfalen"}},{"name":"Drostengasse","postalCode":"59494","locality":"Soest","municipality":{"key":"05974040","name":"Soest, Stadt","type":"Stadt"},"district":{"key":"05974","name":"Soest","type":"Kreis"},"federalState":{"key":"05","name":"Nordrhein-Westfalen"}},{"name":"Dudenweg","postalCode":"59494","locality":"Soest","municipality":{"key":"05974040","name":"Soest, Stadt","type":"Stadt"},"district":{"key":"05974","name":"Soest","type":"Kreis"},"federalState":{"key":"05","name":"Nordrhein-Westfalen"}},{"name":"Düsterpoth","postalCode":"59494","locality":"Soest","municipality":{"key":"05974040","name":"Soest, Stadt","type":"Stadt"},"district":{"key":"05974","name":"Soest","type":"Kreis"},"federalState":{"key":"05","name":"Nordrhein-Westfalen"}},{"name":"Düster Weg","postalCode":"59494","locality":"Soest","municipality":{"key":"05974040","name":"Soest, Stadt","type":"Stadt"},"district":{"key":"05974","name":"Soest","type":"Kreis"},"federalState":{"key":"05","name":"Nordrhein-Westfalen"}},{"name":"Eberhard-Viegener-Weg","postalCode":"59494","locality":"Soest","municipality":{"key":"05974040","name":"Soest, Stadt","type":"Stadt"},"district":{"key":"05974","name":"Soest","type":"Kreis"},"federalState":{"key":"05","name":"Nordrhein-Westfalen"}},{"name":"Ehrlichweg","postalCode":"59494","locality":"Soest","municipality":{"key":"05974040","name":"Soest, Stadt","type":"Stadt"},"district":{"key":"05974","name":"Soest","type":"Kreis"},"federalState":{"key":"05","name":"Nordrhein-Westfalen"}},{"name":"Eichendorffstr.","postalCode":"59494","locality":"Soest","municipality":{"key":"05974040","name":"Soest, Stadt","type":"Stadt"},"district":{"key":"05974","name":"Soest","type":"Kreis"},"federalState":{"key":"05","name":"Nordrhein-Westfalen"}},{"name":"Eichenweg","postalCode":"59494","locality":"Soest","municipality":{"key":"05974040","name":"Soest, Stadt","type":"Stadt"},"district":{"key":"05974","name":"Soest","type":"Kreis"},"federalState":{"key":"05","name":"Nordrhein-Westfalen"}},{"name":"Einsiedelweg","postalCode":"59494","locality":"Soest","municipality":{"key":"05974040","name":"Soest, Stadt","type":"Stadt"},"district":{"key":"05974","name":"Soest","type":"Kreis"},"federalState":{"key":"05","name":"Nordrhein-Westfalen"}},{"name":"Elbingweg","postalCode":"59494","locality":"Soest","municipality":{"key":"05974040","name":"Soest, Stadt","type":"Stadt"},"district":{"key":"05974","name":"Soest","type":"Kreis"},"federalState":{"key":"05","name":"Nordrhein-Westfalen"}},{"name":"Elendsgasse","postalCode":"59494","locality":"Soest","municipality":{"key":"05974040","name":"Soest, Stadt","type":"Stadt"},"district":{"key":"05974","name":"Soest","type":"Kreis"},"federalState":{"key":"05","name":"Nordrhein-Westfalen"}},{"name":"Elisabeth-Rathus-Weg","postalCode":"59494","locality":"Soest","municipality":{"key":"05974040","name":"Soest, Stadt","type":"Stadt"},"district":{"key":"05974","name":"Soest","type":"Kreis"},"federalState":{"key":"05","name":"Nordrhein-Westfalen"}},{"name":"Elsa-Brandström-Str.","postalCode":"59494","locality":"Soest","municipality":{"key":"05974040","name":"Soest, Stadt","type":"Stadt"},"district":{"key":"05974","name":"Soest","type":"Kreis"},"federalState":{"key":"05","name":"Nordrhein-Westfalen"}},{"name":"Emdenstr.","postalCode":"59494","locality":"Soest","municipality":{"key":"05974040","name":"Soest, Stadt","type":"Stadt"},"district":{"key":"05974","name":"Soest","type":"Kreis"},"federalState":{"key":"05","name":"Nordrhein-Westfalen"}},{"name":"Emminghausweg","postalCode":"59494","locality":"Soest","municipality":{"key":"05974040","name":"Soest, Stadt","type":"Stadt"},"district":{"key":"05974","name":"Soest","type":"Kreis"},"federalState":{"key":"05","name":"Nordrhein-Westfalen"}},{"name":"Endloser Weg","postalCode":"59494","locality":"Soest","municipality":{"key":"05974040","name":"Soest, Stadt","type":"Stadt"},"district":{"key":"05974","name":"Soest","type":"Kreis"},"federalState":{"key":"05","name":"Nordrhein-Westfalen"}},{"name":"Engellandsgraben","postalCode":"59494","locality":"Soest","municipality":{"key":"05974040","name":"Soest, Stadt","type":"Stadt"},"district":{"key":"05974","name":"Soest","type":"Kreis"},"federalState":{"key":"05","name":"Nordrhein-Westfalen"}},{"name":"Engernweg","postalCode":"59494","locality":"Soest","municipality":{"key":"05974040","name":"Soest, Stadt","type":"Stadt"},"district":{"key":"05974","name":"Soest","type":"Kreis"},"federalState":{"key":"05","name":"Nordrhein-Westfalen"}},{"name":"Enger Weg","postalCode":"59494","locality":"Soest","municipality":{"key":"05974040","name":"Soest, Stadt","type":"Stadt"},"district":{"key":"05974","name":"Soest","type":"Kreis"},"federalState":{"key":"05","name":"Nordrhein-Westfalen"}},{"name":"Epsingser Weg","postalCode":"59494","locality":"Soest","municipality":{"key":"05974040","name":"Soest, Stadt","type":"Stadt"},"district":{"key":"05974","name":"Soest","type":"Kreis"},"federalState":{"key":"05","name":"Nordrhein-Westfalen"}},{"name":"Ernst-Blumendeller-Weg","postalCode":"59494","locality":"Soest","municipality":{"key":"05974040","name":"Soest, Stadt","type":"Stadt"},"district":{"key":"05974","name":"Soest","type":"Kreis"},"federalState":{"key":"05","name":"Nordrhein-Westfalen"}},{"name":"Erzväterring","postalCode":"59494","locality":"Soest","municipality":{"key":"05974040","name":"Soest, Stadt","type":"Stadt"},"district":{"key":"05974","name":"Soest","type":"Kreis"},"federalState":{"key":"05","name":"Nordrhein-Westfalen"}},{"name":"Fasbinderweg","postalCode":"59494","locality":"Soest","municipality":{"key":"05974040","name":"Soest, Stadt","type":"Stadt"},"district":{"key":"05974","name":"Soest","type":"Kreis"},"federalState":{"key":"05","name":"Nordrhein-Westfalen"}},{"name":"Fechtenkamp","postalCode":"59494","locality":"Soest","municipality":{"key":"05974040","name":"Soest, Stadt","type":"Stadt"},"district":{"key":"05974","name":"Soest","type":"Kreis"},"federalState":{"key":"05","name":"Nordrhein-Westfalen"}},{"name":"Feidweg","postalCode":"59494","locality":"Soest","municipality":{"key":"05974040","name":"Soest, Stadt","type":"Stadt"},"district":{"key":"05974","name":"Soest","type":"Kreis"},"federalState":{"key":"05","name":"Nordrhein-Westfalen"}},{"name":"Feldmühlenweg","postalCode":"59494","locality":"Soest","municipality":{"key":"05974040","name":"Soest, Stadt","type":"Stadt"},"district":{"key":"05974","name":"Soest","type":"Kreis"},"federalState":{"key":"05","name":"Nordrhein-Westfalen"}},{"name":"Feldstr.","postalCode":"59494","locality":"Soest","municipality":{"key":"05974040","name":"Soest, Stadt","type":"Stadt"},"district":{"key":"05974","name":"Soest","type":"Kreis"},"federalState":{"key":"05","name":"Nordrhein-Westfalen"}},{"name":"Femeweg","postalCode":"59494","locality":"Soest","municipality":{"key":"05974040","name":"Soest, Stadt","type":"Stadt"},"district":{"key":"05974","name":"Soest","type":"Kreis"},"federalState":{"key":"05","name":"Nordrhein-Westfalen"}},{"name":"Filzenstr.","postalCode":"59494","locality":"Soest","municipality":{"key":"05974040","name":"Soest, Stadt","type":"Stadt"},"district":{"key":"05974","name":"Soest","type":"Kreis"},"federalState":{"key":"05","name":"Nordrhein-Westfalen"}},{"name":"Finkenweg","postalCode":"59494","locality":"Soest","municipality":{"key":"05974040","name":"Soest, Stadt","type":"Stadt"},"district":{"key":"05974","name":"Soest","type":"Kreis"},"federalState":{"key":"05","name":"Nordrhein-Westfalen"}},{"name":"Fixweg","postalCode":"59494","locality":"Soest","municipality":{"key":"05974040","name":"Soest, Stadt","type":"Stadt"},"district":{"key":"05974","name":"Soest","type":"Kreis"},"federalState":{"key":"05","name":"Nordrhein-Westfalen"}},{"name":"Florianweg","postalCode":"59494","locality":"Soest","municipality":{"key":"05974040","name":"Soest, Stadt","type":"Stadt"},"district":{"key":"05974","name":"Soest","type":"Kreis"},"federalState":{"key":"05","name":"Nordrhein-Westfalen"}},{"name":"Flurschützenweg","postalCode":"59494","locality":"Soest","municipality":{"key":"05974040","name":"Soest, Stadt","type":"Stadt"},"district":{"key":"05974","name":"Soest","type":"Kreis"},"federalState":{"key":"05","name":"Nordrhein-Westfalen"}},{"name":"Frankenweg","postalCode":"59494","locality":"Soest","municipality":{"key":"05974040","name":"Soest, Stadt","type":"Stadt"},"district":{"key":"05974","name":"Soest","type":"Kreis"},"federalState":{"key":"05","name":"Nordrhein-Westfalen"}},{"name":"Franz-Becker-Weg","postalCode":"59494","locality":"Soest","municipality":{"key":"05974040","name":"Soest, Stadt","type":"Stadt"},"district":{"key":"05974","name":"Soest","type":"Kreis"},"federalState":{"key":"05","name":"Nordrhein-Westfalen"}},{"name":"Franz-Haas-Weg","postalCode":"59494","locality":"Soest","municipality":{"key":"05974040","name":"Soest, Stadt","type":"Stadt"},"district":{"key":"05974","name":"Soest","type":"Kreis"},"federalState":{"key":"05","name":"Nordrhein-Westfalen"}},{"name":"Franz-Jostes-Weg","postalCode":"59494","locality":"Soest","municipality":{"key":"05974040","name":"Soest, Stadt","type":"Stadt"},"district":{"key":"05974","name":"Soest","type":"Kreis"},"federalState":{"key":"05","name":"Nordrhein-Westfalen"}},{"name":"Franz-Nölken-Weg","postalCode":"59494","locality":"Soest","municipality":{"key":"05974040","name":"Soest, Stadt","type":"Stadt"},"district":{"key":"05974","name":"Soest","type":"Kreis"},"federalState":{"key":"05","name":"Nordrhein-Westfalen"}},{"name":"Franz-Weger-Weg","postalCode":"59494","locality":"Soest","municipality":{"key":"05974040","name":"Soest, Stadt","type":"Stadt"},"district":{"key":"05974","name":"Soest","type":"Kreis"},"federalState":{"key":"05","name":"Nordrhein-Westfalen"}},{"name":"Freigerichtsweg","postalCode":"59494","locality":"Soest","municipality":{"key":"05974040","name":"Soest, Stadt","type":"Stadt"},"district":{"key":"05974","name":"Soest","type":"Kreis"},"federalState":{"key":"05","name":"Nordrhein-Westfalen"}},{"name":"Freiligrathwall","postalCode":"59494","locality":"Soest","municipality":{"key":"05974040","name":"Soest, Stadt","type":"Stadt"},"district":{"key":"05974","name":"Soest","type":"Kreis"},"federalState":{"key":"05","name":"Nordrhein-Westfalen"}},{"name":"Friedrich-Bertram-Weg","postalCode":"59494","locality":"Soest","municipality":{"key":"05974040","name":"Soest, Stadt","type":"Stadt"},"district":{"key":"05974","name":"Soest","type":"Kreis"},"federalState":{"key":"05","name":"Nordrhein-Westfalen"}},{"name":"Friedrich-Schauer-Weg","postalCode":"59494","locality":"Soest","municipality":{"key":"05974040","name":"Soest, Stadt","type":"Stadt"},"district":{"key":"05974","name":"Soest","type":"Kreis"},"federalState":{"key":"05","name":"Nordrhein-Westfalen"}},{"name":"Friedrichstr.","postalCode":"59494","locality":"Soest","municipality":{"key":"05974040","name":"Soest, Stadt","type":"Stadt"},"district":{"key":"05974","name":"Soest","type":"Kreis"},"federalState":{"key":"05","name":"Nordrhein-Westfalen"}},{"name":"Friedrich-Volckmar-Weg","postalCode":"59494","locality":"Soest","municipality":{"key":"05974040","name":"Soest, Stadt","type":"Stadt"},"district":{"key":"05974","name":"Soest","type":"Kreis"},"federalState":{"key":"05","name":"Nordrhein-Westfalen"}},{"name":"Friedrich-von-Klocke-Weg","postalCode":"59494","locality":"Soest","municipality":{"key":"05974040","name":"Soest, Stadt","type":"Stadt"},"district":{"key":"05974","name":"Soest","type":"Kreis"},"federalState":{"key":"05","name":"Nordrhein-Westfalen"}},{"name":"Friesenweg","postalCode":"59494","locality":"Soest","municipality":{"key":"05974040","name":"Soest, Stadt","type":"Stadt"},"district":{"key":"05974","name":"Soest","type":"Kreis"},"federalState":{"key":"05","name":"Nordrhein-Westfalen"}},{"name":"Frohnholzstr.","postalCode":"59494","locality":"Soest","municipality":{"key":"05974040","name":"Soest, Stadt","type":"Stadt"},"district":{"key":"05974","name":"Soest","type":"Kreis"},"federalState":{"key":"05","name":"Nordrhein-Westfalen"}},{"name":"Gabrechter Weg","postalCode":"59494","locality":"Soest","municipality":{"key":"05974040","name":"Soest, Stadt","type":"Stadt"},"district":{"key":"05974","name":"Soest","type":"Kreis"},"federalState":{"key":"05","name":"Nordrhein-Westfalen"}},{"name":"Gährenweg","postalCode":"59494","locality":"Soest","municipality":{"key":"05974040","name":"Soest, Stadt","type":"Stadt"},"district":{"key":"05974","name":"Soest","type":"Kreis"},"federalState":{"key":"05","name":"Nordrhein-Westfalen"}},{"name":"Gartenkamp","postalCode":"59494","locality":"Soest","municipality":{"key":"05974040","name":"Soest, Stadt","type":"Stadt"},"district":{"key":"05974","name":"Soest","type":"Kreis"},"federalState":{"key":"05","name":"Nordrhein-Westfalen"}},{"name":"Gartenstr.","postalCode":"59494","locality":"Soest","municipality":{"key":"05974040","name":"Soest, Stadt","type":"Stadt"},"district":{"key":"05974","name":"Soest","type":"Kreis"},"federalState":{"key":"05","name":"Nordrhein-Westfalen"}},{"name":"Gasse","postalCode":"59494","locality":"Soest","municipality":{"key":"05974040","name":"Soest, Stadt","type":"Stadt"},"district":{"key":"05974","name":"Soest","type":"Kreis"},"federalState":{"key":"05","name":"Nordrhein-Westfalen"}},{"name":"Geckweg","postalCode":"59494","locality":"Soest","municipality":{"key":"05974040","name":"Soest, Stadt","type":"Stadt"},"district":{"key":"05974","name":"Soest","type":"Kreis"},"federalState":{"key":"05","name":"Nordrhein-Westfalen"}},{"name":"Gelmer Weg","postalCode":"59494","locality":"Soest","municipality":{"key":"05974040","name":"Soest, Stadt","type":"Stadt"},"district":{"key":"05974","name":"Soest","type":"Kreis"},"federalState":{"key":"05","name":"Nordrhein-Westfalen"}},{"name":"Gelnhausenweg","postalCode":"59494","locality":"Soest","municipality":{"key":"05974040","name":"Soest, Stadt","type":"Stadt"},"district":{"key":"05974","name":"Soest","type":"Kreis"},"federalState":{"key":"05","name":"Nordrhein-Westfalen"}},{"name":"Georgsgasse","postalCode":"59494","locality":"Soest","municipality":{"key":"05974040","name":"Soest, Stadt","type":"Stadt"},"district":{"key":"05974","name":"Soest","type":"Kreis"},"federalState":{"key":"05","name":"Nordrhein-Westfalen"}},{"name":"Gerhard-Klotz-Str.","postalCode":"59494","locality":"Soest","municipality":{"key":"05974040","name":"Soest, Stadt","type":"Stadt"},"district":{"key":"05974","name":"Soest","type":"Kreis"},"federalState":{"key":"05","name":"Nordrhein-Westfalen"}},{"name":"Gernholtweg","postalCode":"59494","locality":"Soest","municipality":{"key":"05974040","name":"Soest, Stadt","type":"Stadt"},"district":{"key":"05974","name":"Soest","type":"Kreis"},"federalState":{"key":"05","name":"Nordrhein-Westfalen"}},{"name":"Gerstenwinkel","postalCode":"59494","locality":"Soest","municipality":{"key":"05974040","name":"Soest, Stadt","type":"Stadt"},"district":{"key":"05974","name":"Soest","type":"Kreis"},"federalState":{"key":"05","name":"Nordrhein-Westfalen"}},{"name":"Geschwister-Scholl-Str.","postalCode":"59494","locality":"Soest","municipality":{"key":"05974040","name":"Soest, Stadt","type":"Stadt"},"district":{"key":"05974","name":"Soest","type":"Kreis"},"federalState":{"key":"05","name":"Nordrhein-Westfalen"}},{"name":"Geseker Str.","postalCode":"59494","locality":"Soest","municipality":{"key":"05974040","name":"Soest, Stadt","type":"Stadt"},"district":{"key":"05974","name":"Soest","type":"Kreis"},"federalState":{"key":"05","name":"Nordrhein-Westfalen"}},{"name":"Giselherweg","postalCode":"59494","locality":"Soest","municipality":{"key":"05974040","name":"Soest, Stadt","type":"Stadt"},"district":{"key":"05974","name":"Soest","type":"Kreis"},"federalState":{"key":"05","name":"Nordrhein-Westfalen"}},{"name":"Glasergasse","postalCode":"59494","locality":"Soest","municipality":{"key":"05974040","name":"Soest, Stadt","type":"Stadt"},"district":{"key":"05974","name":"Soest","type":"Kreis"},"federalState":{"key":"05","name":"Nordrhein-Westfalen"}},{"name":"Goebel-Styes-Weg","postalCode":"59494","locality":"Soest","municipality":{"key":"05974040","name":"Soest, Stadt","type":"Stadt"},"district":{"key":"05974","name":"Soest","type":"Kreis"},"federalState":{"key":"05","name":"Nordrhein-Westfalen"}},{"name":"Goebelweg","postalCode":"59494","locality":"Soest","municipality":{"key":"05974040","name":"Soest, Stadt","type":"Stadt"},"district":{"key":"05974","name":"Soest","type":"Kreis"},"federalState":{"key":"05","name":"Nordrhein-Westfalen"}},{"name":"Goldschmiedeweg","postalCode":"59494","locality":"Soest","municipality":{"key":"05974040","name":"Soest, Stadt","type":"Stadt"},"district":{"key":"05974","name":"Soest","type":"Kreis"},"federalState":{"key":"05","name":"Nordrhein-Westfalen"}},{"name":"Goswin-Schönberg-Weg","postalCode":"59494","locality":"Soest","municipality":{"key":"05974040","name":"Soest, Stadt","type":"Stadt"},"district":{"key":"05974","name":"Soest","type":"Kreis"},"federalState":{"key":"05","name":"Nordrhein-Westfalen"}},{"name":"Gotlandweg","postalCode":"59494","locality":"Soest","municipality":{"key":"05974040","name":"Soest, Stadt","type":"Stadt"},"district":{"key":"05974","name":"Soest","type":"Kreis"},"federalState":{"key":"05","name":"Nordrhein-Westfalen"}},{"name":"Grabbeweg","postalCode":"59494","locality":"Soest","municipality":{"key":"05974040","name":"Soest, Stadt","type":"Stadt"},"district":{"key":"05974","name":"Soest","type":"Kreis"},"federalState":{"key":"05","name":"Nordrhein-Westfalen"}},{"name":"Graf-Götz-Weg","postalCode":"59494","locality":"Soest","municipality":{"key":"05974040","name":"Soest, Stadt","type":"Stadt"},"district":{"key":"05974","name":"Soest","type":"Kreis"},"federalState":{"key":"05","name":"Nordrhein-Westfalen"}},{"name":"Gräfte","postalCode":"59494","locality":"Soest","municipality":{"key":"05974040","name":"Soest, Stadt","type":"Stadt"},"district":{"key":"05974","name":"Soest","type":"Kreis"},"federalState":{"key":"05","name":"Nordrhein-Westfalen"}},{"name":"Grandweg-Ulricher-Wallstr.","postalCode":"59494","locality":"Soest","municipality":{"key":"05974040","name":"Soest, Stadt","type":"Stadt"},"district":{"key":"05974","name":"Soest","type":"Kreis"},"federalState":{"key":"05","name":"Nordrhein-Westfalen"}},{"name":"Grevensteiner Weg","postalCode":"59494","locality":"Soest","municipality":{"key":"05974040","name":"Soest, Stadt","type":"Stadt"},"district":{"key":"05974","name":"Soest","type":"Kreis"},"federalState":{"key":"05","name":"Nordrhein-Westfalen"}},{"name":"Grimmelshausenweg","postalCode":"59494","locality":"Soest","municipality":{"key":"05974040","name":"Soest, Stadt","type":"Stadt"},"district":{"key":"05974","name":"Soest","type":"Kreis"},"federalState":{"key":"05","name":"Nordrhein-Westfalen"}},{"name":"Groß-Strehlitzer-Weg","postalCode":"59494","locality":"Soest","municipality":{"key":"05974040","name":"Soest, Stadt","type":"Stadt"},"district":{"key":"05974","name":"Soest","type":"Kreis"},"federalState":{"key":"05","name":"Nordrhein-Westfalen"}},{"name":"Grund","postalCode":"59494","locality":"Soest","municipality":{"key":"05974040","name":"Soest, Stadt","type":"Stadt"},"district":{"key":"05974","name":"Soest","type":"Kreis"},"federalState":{"key":"05","name":"Nordrhein-Westfalen"}},{"name":"Grüne Hecke","postalCode":"59494","locality":"Soest","municipality":{"key":"05974040","name":"Soest, Stadt","type":"Stadt"},"district":{"key":"05974","name":"Soest","type":"Kreis"},"federalState":{"key":"05","name":"Nordrhein-Westfalen"}},{"name":"Grüner Weg","postalCode":"59494","locality":"Soest","municipality":{"key":"05974040","name":"Soest, Stadt","type":"Stadt"},"district":{"key":"05974","name":"Soest","type":"Kreis"},"federalState":{"key":"05","name":"Nordrhein-Westfalen"}},{"name":"Gunterweg","postalCode":"59494","locality":"Soest","municipality":{"key":"05974040","name":"Soest, Stadt","type":"Stadt"},"district":{"key":"05974","name":"Soest","type":"Kreis"},"federalState":{"key":"05","name":"Nordrhein-Westfalen"}},{"name":"Haarhofsgasse","postalCode":"59494","locality":"Soest","municipality":{"key":"05974040","name":"Soest, Stadt","type":"Stadt"},"district":{"key":"05974","name":"Soest","type":"Kreis"},"federalState":{"key":"05","name":"Nordrhein-Westfalen"}},{"name":"Haferwinkel","postalCode":"59494","locality":"Soest","municipality":{"key":"05974040","name":"Soest, Stadt","type":"Stadt"},"district":{"key":"05974","name":"Soest","type":"Kreis"},"federalState":{"key":"05","name":"Nordrhein-Westfalen"}},{"name":"Hagengasse","postalCode":"59494","locality":"Soest","municipality":{"key":"05974040","name":"Soest, Stadt","type":"Stadt"},"district":{"key":"05974","name":"Soest","type":"Kreis"},"federalState":{"key":"05","name":"Nordrhein-Westfalen"}},{"name":"Hamburger Str.","postalCode":"59494","locality":"Soest","municipality":{"key":"05974040","name":"Soest, Stadt","type":"Stadt"},"district":{"key":"05974","name":"Soest","type":"Kreis"},"federalState":{"key":"05","name":"Nordrhein-Westfalen"}},{"name":"Hammer Landstr.","postalCode":"59494","locality":"Soest","municipality":{"key":"05974040","name":"Soest, Stadt","type":"Stadt"},"district":{"key":"05974","name":"Soest","type":"Kreis"},"federalState":{"key":"05","name":"Nordrhein-Westfalen"}},{"name":"Hammer Weg","postalCode":"59494","locality":"Soest","municipality":{"key":"05974040","name":"Soest, Stadt","type":"Stadt"},"district":{"key":"05974","name":"Soest","type":"Kreis"},"federalState":{"key":"05","name":"Nordrhein-Westfalen"}},{"name":"Hansastr.","postalCode":"59494","locality":"Soest","municipality":{"key":"05974040","name":"Soest, Stadt","type":"Stadt"},"district":{"key":"05974","name":"Soest","type":"Kreis"},"federalState":{"key":"05","name":"Nordrhein-Westfalen"}},{"name":"Hansenweg","postalCode":"59494","locality":"Soest","municipality":{"key":"05974040","name":"Soest, Stadt","type":"Stadt"},"district":{"key":"05974","name":"Soest","type":"Kreis"},"federalState":{"key":"05","name":"Nordrhein-Westfalen"}},{"name":"Hans-Kaiser-Weg","postalCode":"59494","locality":"Soest","municipality":{"key":"05974040","name":"Soest, Stadt","type":"Stadt"},"district":{"key":"05974","name":"Soest","type":"Kreis"},"federalState":{"key":"05","name":"Nordrhein-Westfalen"}},{"name":"Harbortweg","postalCode":"59494","locality":"Soest","municipality":{"key":"05974040","name":"Soest, Stadt","type":"Stadt"},"district":{"key":"05974","name":"Soest","type":"Kreis"},"federalState":{"key":"05","name":"Nordrhein-Westfalen"}},{"name":"Hartweg","postalCode":"59494","locality":"Soest","municipality":{"key":"05974040","name":"Soest, Stadt","type":"Stadt"},"district":{"key":"05974","name":"Soest","type":"Kreis"},"federalState":{"key":"05","name":"Nordrhein-Westfalen"}},{"name":"Hattroper Weg","postalCode":"59494","locality":"Soest","municipality":{"key":"05974040","name":"Soest, Stadt","type":"Stadt"},"district":{"key":"05974","name":"Soest","type":"Kreis"},"federalState":{"key":"05","name":"Nordrhein-Westfalen"}},{"name":"Hauptlinder Weg","postalCode":"59494","locality":"Soest","municipality":{"key":"05974040","name":"Soest, Stadt","type":"Stadt"},"district":{"key":"05974","name":"Soest","type":"Kreis"},"federalState":{"key":"05","name":"Nordrhein-Westfalen"}},{"name":"Heidemühlweg","postalCode":"59494","locality":"Soest","municipality":{"key":"05974040","name":"Soest, Stadt","type":"Stadt"},"district":{"key":"05974","name":"Soest","type":"Kreis"},"federalState":{"key":"05","name":"Nordrhein-Westfalen"}},{"name":"Heideweg","postalCode":"59494","locality":"Soest","municipality":{"key":"05974040","name":"Soest, Stadt","type":"Stadt"},"district":{"key":"05974","name":"Soest","type":"Kreis"},"federalState":{"key":"05","name":"Nordrhein-Westfalen"}},{"name":"Heinemann-Musoge-Weg","postalCode":"59494","locality":"Soest","municipality":{"key":"05974040","name":"Soest, Stadt","type":"Stadt"},"district":{"key":"05974","name":"Soest","type":"Kreis"},"federalState":{"key":"05","name":"Nordrhein-Westfalen"}},{"name":"Heinkenweg","postalCode":"59494","locality":"Soest","municipality":{"key":"05974040","name":"Soest, Stadt","type":"Stadt"},"district":{"key":"05974","name":"Soest","type":"Kreis"},"federalState":{"key":"05","name":"Nordrhein-Westfalen"}},{"name":"Heinrich-Wilhelm-Str.","postalCode":"59494","locality":"Soest","municipality":{"key":"05974040","name":"Soest, Stadt","type":"Stadt"},"district":{"key":"05974","name":"Soest","type":"Kreis"},"federalState":{"key":"05","name":"Nordrhein-Westfalen"}},{"name":"Heinsbergplatz","postalCode":"59494","locality":"Soest","municipality":{"key":"05974040","name":"Soest, Stadt","type":"Stadt"},"district":{"key":"05974","name":"Soest","type":"Kreis"},"federalState":{"key":"05","name":"Nordrhein-Westfalen"}},{"name":"Helle","postalCode":"59494","locality":"Soest","municipality":{"key":"05974040","name":"Soest, Stadt","type":"Stadt"},"district":{"key":"05974","name":"Soest","type":"Kreis"},"federalState":{"key":"05","name":"Nordrhein-Westfalen"}},{"name":"Hellweg","postalCode":"59494","locality":"Soest","municipality":{"key":"05974040","name":"Soest, Stadt","type":"Stadt"},"district":{"key":"05974","name":"Soest","type":"Kreis"},"federalState":{"key":"05","name":"Nordrhein-Westfalen"}},{"name":"Hepper Weg","postalCode":"59494","locality":"Soest","municipality":{"key":"05974040","name":"Soest, Stadt","type":"Stadt"},"district":{"key":"05974","name":"Soest","type":"Kreis"},"federalState":{"key":"05","name":"Nordrhein-Westfalen"}},{"name":"Herbstweg","postalCode":"59494","locality":"Soest","municipality":{"key":"05974040","name":"Soest, Stadt","type":"Stadt"},"district":{"key":"05974","name":"Soest","type":"Kreis"},"federalState":{"key":"05","name":"Nordrhein-Westfalen"}},{"name":"Herenfridgäßchen","postalCode":"59494","locality":"Soest","municipality":{"key":"05974040","name":"Soest, Stadt","type":"Stadt"},"district":{"key":"05974","name":"Soest","type":"Kreis"},"federalState":{"key":"05","name":"Nordrhein-Westfalen"}},{"name":"Herenfridstr.","postalCode":"59494","locality":"Soest","municipality":{"key":"05974040","name":"Soest, Stadt","type":"Stadt"},"district":{"key":"05974","name":"Soest","type":"Kreis"},"federalState":{"key":"05","name":"Nordrhein-Westfalen"}},{"name":"Hermann-Kätelhön-Weg","postalCode":"59494","locality":"Soest","municipality":{"key":"05974040","name":"Soest, Stadt","type":"Stadt"},"district":{"key":"05974","name":"Soest","type":"Kreis"},"federalState":{"key":"05","name":"Nordrhein-Westfalen"}},{"name":"Hermann-Prüßmann-Weg","postalCode":"59494","locality":"Soest","municipality":{"key":"05974040","name":"Soest, Stadt","type":"Stadt"},"district":{"key":"05974","name":"Soest","type":"Kreis"},"federalState":{"key":"05","name":"Nordrhein-Westfalen"}},{"name":"Hermannstr.","postalCode":"59494","locality":"Soest","municipality":{"key":"05974040","name":"Soest, Stadt","type":"Stadt"},"district":{"key":"05974","name":"Soest","type":"Kreis"},"federalState":{"key":"05","name":"Nordrhein-Westfalen"}},{"name":"Herringser Weg","postalCode":"59494","locality":"Soest","municipality":{"key":"05974040","name":"Soest, Stadt","type":"Stadt"},"district":{"key":"05974","name":"Soest","type":"Kreis"},"federalState":{"key":"05","name":"Nordrhein-Westfalen"}},{"name":"Herzbergweg","postalCode":"59494","locality":"Soest","municipality":{"key":"05974040","name":"Soest, Stadt","type":"Stadt"},"district":{"key":"05974","name":"Soest","type":"Kreis"},"federalState":{"key":"05","name":"Nordrhein-Westfalen"}},{"name":"Herzog-Adolf-Weg","postalCode":"59494","locality":"Soest","municipality":{"key":"05974040","name":"Soest, Stadt","type":"Stadt"},"district":{"key":"05974","name":"Soest","type":"Kreis"},"federalState":{"key":"05","name":"Nordrhein-Westfalen"}},{"name":"Herzog-Johann-Str.","postalCode":"59494","locality":"Soest","municipality":{"key":"05974040","name":"Soest, Stadt","type":"Stadt"},"district":{"key":"05974","name":"Soest","type":"Kreis"},"federalState":{"key":"05","name":"Nordrhein-Westfalen"}},{"name":"Hessenweg","postalCode":"59494","locality":"Soest","municipality":{"key":"05974040","name":"Soest, Stadt","type":"Stadt"},"district":{"key":"05974","name":"Soest","type":"Kreis"},"federalState":{"key":"05","name":"Nordrhein-Westfalen"}},{"name":"Hesweg","postalCode":"59494","locality":"Soest","municipality":{"key":"05974040","name":"Soest, Stadt","type":"Stadt"},"district":{"key":"05974","name":"Soest","type":"Kreis"},"federalState":{"key":"05","name":"Nordrhein-Westfalen"}},{"name":"Hewingser Weg","postalCode":"59494","locality":"Soest","municipality":{"key":"05974040","name":"Soest, Stadt","type":"Stadt"},"district":{"key":"05974","name":"Soest","type":"Kreis"},"federalState":{"key":"05","name":"Nordrhein-Westfalen"}},{"name":"Hiddingser Weg","postalCode":"59494","locality":"Soest","municipality":{"key":"05974040","name":"Soest, Stadt","type":"Stadt"},"district":{"key":"05974","name":"Soest","type":"Kreis"},"federalState":{"key":"05","name":"Nordrhein-Westfalen"}},{"name":"Hildebrandweg","postalCode":"59494","locality":"Soest","municipality":{"key":"05974040","name":"Soest, Stadt","type":"Stadt"},"district":{"key":"05974","name":"Soest","type":"Kreis"},"federalState":{"key":"05","name":"Nordrhein-Westfalen"}},{"name":"Hinter dem Schwarzen Felde","postalCode":"59494","locality":"Soest","municipality":{"key":"05974040","name":"Soest, Stadt","type":"Stadt"},"district":{"key":"05974","name":"Soest","type":"Kreis"},"federalState":{"key":"05","name":"Nordrhein-Westfalen"}},{"name":"Hinter dem Walburger Friedhof","postalCode":"59494","locality":"Soest","municipality":{"key":"05974040","name":"Soest, Stadt","type":"Stadt"},"district":{"key":"05974","name":"Soest","type":"Kreis"},"federalState":{"key":"05","name":"Nordrhein-Westfalen"}},{"name":"Hinter der Alten Schule","postalCode":"59494","locality":"Soest","municipality":{"key":"05974040","name":"Soest, Stadt","type":"Stadt"},"district":{"key":"05974","name":"Soest","type":"Kreis"},"federalState":{"key":"05","name":"Nordrhein-Westfalen"}},{"name":"Hirschberger Weg","postalCode":"59494","locality":"Soest","municipality":{"key":"05974040","name":"Soest, Stadt","type":"Stadt"},"district":{"key":"05974","name":"Soest","type":"Kreis"},"federalState":{"key":"05","name":"Nordrhein-Westfalen"}},{"name":"Hofjungenweg","postalCode":"59494","locality":"Soest","municipality":{"key":"05974040","name":"Soest, Stadt","type":"Stadt"},"district":{"key":"05974","name":"Soest","type":"Kreis"},"federalState":{"key":"05","name":"Nordrhein-Westfalen"}},{"name":"Hogenbergweg","postalCode":"59494","locality":"Soest","municipality":{"key":"05974040","name":"Soest, Stadt","type":"Stadt"},"district":{"key":"05974","name":"Soest","type":"Kreis"},"federalState":{"key":"05","name":"Nordrhein-Westfalen"}},{"name":"Höggengäßchen","postalCode":"59494","locality":"Soest","municipality":{"key":"05974040","name":"Soest, Stadt","type":"Stadt"},"district":{"key":"05974","name":"Soest","type":"Kreis"},"federalState":{"key":"05","name":"Nordrhein-Westfalen"}},{"name":"Höggenstr.","postalCode":"59494","locality":"Soest","municipality":{"key":"05974040","name":"Soest, Stadt","type":"Stadt"},"district":{"key":"05974","name":"Soest","type":"Kreis"},"federalState":{"key":"05","name":"Nordrhein-Westfalen"}},{"name":"Hohe Gasse","postalCode":"59494","locality":"Soest","municipality":{"key":"05974040","name":"Soest, Stadt","type":"Stadt"},"district":{"key":"05974","name":"Soest","type":"Kreis"},"federalState":{"key":"05","name":"Nordrhein-Westfalen"}},{"name":"Höhenweg","postalCode":"59494","locality":"Soest","municipality":{"key":"05974040","name":"Soest, Stadt","type":"Stadt"},"district":{"key":"05974","name":"Soest","type":"Kreis"},"federalState":{"key":"05","name":"Nordrhein-Westfalen"}},{"name":"Hoher Weg","postalCode":"59494","locality":"Soest","municipality":{"key":"05974040","name":"Soest, Stadt","type":"Stadt"},"district":{"key":"05974","name":"Soest","type":"Kreis"},"federalState":{"key":"05","name":"Nordrhein-Westfalen"}},{"name":"Holthausenweg","postalCode":"59494","locality":"Soest","municipality":{"key":"05974040","name":"Soest, Stadt","type":"Stadt"},"district":{"key":"05974","name":"Soest","type":"Kreis"},"federalState":{"key":"05","name":"Nordrhein-Westfalen"}},{"name":"Holtkamp","postalCode":"59494","locality":"Soest","municipality":{"key":"05974040","name":"Soest, Stadt","type":"Stadt"},"district":{"key":"05974","name":"Soest","type":"Kreis"},"federalState":{"key":"05","name":"Nordrhein-Westfalen"}},{"name":"Ida-Wagner-Weg","postalCode":"59494","locality":"Soest","municipality":{"key":"05974040","name":"Soest, Stadt","type":"Stadt"},"district":{"key":"05974","name":"Soest","type":"Kreis"},"federalState":{"key":"05","name":"Nordrhein-Westfalen"}},{"name":"Ilse-Molzahn-Weg","postalCode":"59494","locality":"Soest","municipality":{"key":"05974040","name":"Soest, Stadt","type":"Stadt"},"district":{"key":"05974","name":"Soest","type":"Kreis"},"federalState":{"key":"05","name":"Nordrhein-Westfalen"}},{"name":"Im Blumenfelde","postalCode":"59494","locality":"Soest","municipality":{"key":"05974040","name":"Soest, Stadt","type":"Stadt"},"district":{"key":"05974","name":"Soest","type":"Kreis"},"federalState":{"key":"05","name":"Nordrhein-Westfalen"}},{"name":"Im Bruch","postalCode":"59494","locality":"Soest","municipality":{"key":"05974040","name":"Soest, Stadt","type":"Stadt"},"district":{"key":"05974","name":"Soest","type":"Kreis"},"federalState":{"key":"05","name":"Nordrhein-Westfalen"}},{"name":"Im Grund","postalCode":"59494","locality":"Soest","municipality":{"key":"05974040","name":"Soest, Stadt","type":"Stadt"},"district":{"key":"05974","name":"Soest","type":"Kreis"},"federalState":{"key":"05","name":"Nordrhein-Westfalen"}},{"name":"Im Grünen Winkel","postalCode":"59494","locality":"Soest","municipality":{"key":"05974040","name":"Soest, Stadt","type":"Stadt"},"district":{"key":"05974","name":"Soest","type":"Kreis"},"federalState":{"key":"05","name":"Nordrhein-Westfalen"}},{"name":"Im Klingelpoth","postalCode":"59494","locality":"Soest","municipality":{"key":"05974040","name":"Soest, Stadt","type":"Stadt"},"district":{"key":"05974","name":"Soest","type":"Kreis"},"federalState":{"key":"05","name":"Nordrhein-Westfalen"}},{"name":"Im Lütgen Klosterkamp","postalCode":"59494","locality":"Soest","municipality":{"key":"05974040","name":"Soest, Stadt","type":"Stadt"},"district":{"key":"05974","name":"Soest","type":"Kreis"},"federalState":{"key":"05","name":"Nordrhein-Westfalen"}},{"name":"Immermannwall","postalCode":"59494","locality":"Soest","municipality":{"key":"05974040","name":"Soest, Stadt","type":"Stadt"},"district":{"key":"05974","name":"Soest","type":"Kreis"},"federalState":{"key":"05","name":"Nordrhein-Westfalen"}},{"name":"Im Schäferkamp","postalCode":"59494","locality":"Soest","municipality":{"key":"05974040","name":"Soest, Stadt","type":"Stadt"},"district":{"key":"05974","name":"Soest","type":"Kreis"},"federalState":{"key":"05","name":"Nordrhein-Westfalen"}},{"name":"Im Scheuning","postalCode":"59494","locality":"Soest","municipality":{"key":"05974040","name":"Soest, Stadt","type":"Stadt"},"district":{"key":"05974","name":"Soest","type":"Kreis"},"federalState":{"key":"05","name":"Nordrhein-Westfalen"}},{"name":"Im Schloot","postalCode":"59494","locality":"Soest","municipality":{"key":"05974040","name":"Soest, Stadt","type":"Stadt"},"district":{"key":"05974","name":"Soest","type":"Kreis"},"federalState":{"key":"05","name":"Nordrhein-Westfalen"}},{"name":"Im Sodhoff","postalCode":"59494","locality":"Soest","municipality":{"key":"05974040","name":"Soest, Stadt","type":"Stadt"},"district":{"key":"05974","name":"Soest","type":"Kreis"},"federalState":{"key":"05","name":"Nordrhein-Westfalen"}},{"name":"Im Spring","postalCode":"59494","locality":"Soest","municipality":{"key":"05974040","name":"Soest, Stadt","type":"Stadt"},"district":{"key":"05974","name":"Soest","type":"Kreis"},"federalState":{"key":"05","name":"Nordrhein-Westfalen"}},{"name":"Im Stiftsfeld","postalCode":"59494","locality":"Soest","municipality":{"key":"05974040","name":"Soest, Stadt","type":"Stadt"},"district":{"key":"05974","name":"Soest","type":"Kreis"},"federalState":{"key":"05","name":"Nordrhein-Westfalen"}},{"name":"Im Tabrock","postalCode":"59494","locality":"Soest","municipality":{"key":"05974040","name":"Soest, Stadt","type":"Stadt"},"district":{"key":"05974","name":"Soest","type":"Kreis"},"federalState":{"key":"05","name":"Nordrhein-Westfalen"}},{"name":"In den Gärten","postalCode":"59494","locality":"Soest","municipality":{"key":"05974040","name":"Soest, Stadt","type":"Stadt"},"district":{"key":"05974","name":"Soest","type":"Kreis"},"federalState":{"key":"05","name":"Nordrhein-Westfalen"}},{"name":"In den Kalten Höfen","postalCode":"59494","locality":"Soest","municipality":{"key":"05974040","name":"Soest, Stadt","type":"Stadt"},"district":{"key":"05974","name":"Soest","type":"Kreis"},"federalState":{"key":"05","name":"Nordrhein-Westfalen"}},{"name":"In der Delle","postalCode":"59494","locality":"Soest","municipality":{"key":"05974040","name":"Soest, Stadt","type":"Stadt"},"district":{"key":"05974","name":"Soest","type":"Kreis"},"federalState":{"key":"05","name":"Nordrhein-Westfalen"}},{"name":"In der Kluse","postalCode":"59494","locality":"Soest","municipality":{"key":"05974040","name":"Soest, Stadt","type":"Stadt"},"district":{"key":"05974","name":"Soest","type":"Kreis"},"federalState":{"key":"05","name":"Nordrhein-Westfalen"}},{"name":"In der Twiete","postalCode":"59494","locality":"Soest","municipality":{"key":"05974040","name":"Soest, Stadt","type":"Stadt"},"district":{"key":"05974","name":"Soest","type":"Kreis"},"federalState":{"key":"05","name":"Nordrhein-Westfalen"}},{"name":"Ingrid-Kipper-Weg","postalCode":"59494","locality":"Soest","municipality":{"key":"05974040","name":"Soest, Stadt","type":"Stadt"},"district":{"key":"05974","name":"Soest","type":"Kreis"},"federalState":{"key":"05","name":"Nordrhein-Westfalen"}},{"name":"Inselstr.","postalCode":"59494","locality":"Soest","municipality":{"key":"05974040","name":"Soest, Stadt","type":"Stadt"},"district":{"key":"05974","name":"Soest","type":"Kreis"},"federalState":{"key":"05","name":"Nordrhein-Westfalen"}},{"name":"Irungweg","postalCode":"59494","locality":"Soest","municipality":{"key":"05974040","name":"Soest, Stadt","type":"Stadt"},"district":{"key":"05974","name":"Soest","type":"Kreis"},"federalState":{"key":"05","name":"Nordrhein-Westfalen"}},{"name":"Isenacker","postalCode":"59494","locality":"Soest","municipality":{"key":"05974040","name":"Soest, Stadt","type":"Stadt"},"district":{"key":"05974","name":"Soest","type":"Kreis"},"federalState":{"key":"05","name":"Nordrhein-Westfalen"}},{"name":"Jägerkenweg","postalCode":"59494","locality":"Soest","municipality":{"key":"05974040","name":"Soest, Stadt","type":"Stadt"},"district":{"key":"05974","name":"Soest","type":"Kreis"},"federalState":{"key":"05","name":"Nordrhein-Westfalen"}},{"name":"Jakobi-Nötten-Wallstr.","postalCode":"59494","locality":"Soest","municipality":{"key":"05974040","name":"Soest, Stadt","type":"Stadt"},"district":{"key":"05974","name":"Soest","type":"Kreis"},"federalState":{"key":"05","name":"Nordrhein-Westfalen"}},{"name":"Jakobistr.","postalCode":"59494","locality":"Soest","municipality":{"key":"05974040","name":"Soest, Stadt","type":"Stadt"},"district":{"key":"05974","name":"Soest","type":"Kreis"},"federalState":{"key":"05","name":"Nordrhein-Westfalen"}},{"name":"Jakobitor","postalCode":"59494","locality":"Soest","municipality":{"key":"05974040","name":"Soest, Stadt","type":"Stadt"},"district":{"key":"05974","name":"Soest","type":"Kreis"},"federalState":{"key":"05","name":"Nordrhein-Westfalen"}},{"name":"Johann-de-Brune-Weg","postalCode":"59494","locality":"Soest","municipality":{"key":"05974040","name":"Soest, Stadt","type":"Stadt"},"district":{"key":"05974","name":"Soest","type":"Kreis"},"federalState":{"key":"05","name":"Nordrhein-Westfalen"}},{"name":"Johannes-Gropper-Weg","postalCode":"59494","locality":"Soest","municipality":{"key":"05974040","name":"Soest, Stadt","type":"Stadt"},"district":{"key":"05974","name":"Soest","type":"Kreis"},"federalState":{"key":"05","name":"Nordrhein-Westfalen"}},{"name":"Johann-Kelberg-Weg","postalCode":"59494","locality":"Soest","municipality":{"key":"05974040","name":"Soest, Stadt","type":"Stadt"},"district":{"key":"05974","name":"Soest","type":"Kreis"},"federalState":{"key":"05","name":"Nordrhein-Westfalen"}},{"name":"Josef-Stern-Weg","postalCode":"59494","locality":"Soest","municipality":{"key":"05974040","name":"Soest, Stadt","type":"Stadt"},"district":{"key":"05974","name":"Soest","type":"Kreis"},"federalState":{"key":"05","name":"Nordrhein-Westfalen"}},{"name":"Julius-Rollmann-Weg","postalCode":"59494","locality":"Soest","municipality":{"key":"05974040","name":"Soest, Stadt","type":"Stadt"},"district":{"key":"05974","name":"Soest","type":"Kreis"},"federalState":{"key":"05","name":"Nordrhein-Westfalen"}},{"name":"Jungferngärten","postalCode":"59494","locality":"Soest","municipality":{"key":"05974040","name":"Soest, Stadt","type":"Stadt"},"district":{"key":"05974","name":"Soest","type":"Kreis"},"federalState":{"key":"05","name":"Nordrhein-Westfalen"}},{"name":"Kaiser-Friedrich-Platz","postalCode":"59494","locality":"Soest","municipality":{"key":"05974040","name":"Soest, Stadt","type":"Stadt"},"district":{"key":"05974","name":"Soest","type":"Kreis"},"federalState":{"key":"05","name":"Nordrhein-Westfalen"}},{"name":"Kaiserland","postalCode":"59494","locality":"Soest","municipality":{"key":"05974040","name":"Soest, Stadt","type":"Stadt"},"district":{"key":"05974","name":"Soest","type":"Kreis"},"federalState":{"key":"05","name":"Nordrhein-Westfalen"}},{"name":"Kaiser-Otto-Weg","postalCode":"59494","locality":"Soest","municipality":{"key":"05974040","name":"Soest, Stadt","type":"Stadt"},"district":{"key":"05974","name":"Soest","type":"Kreis"},"federalState":{"key":"05","name":"Nordrhein-Westfalen"}},{"name":"Kallenhardtweg","postalCode":"59494","locality":"Soest","municipality":{"key":"05974040","name":"Soest, Stadt","type":"Stadt"},"district":{"key":"05974","name":"Soest","type":"Kreis"},"federalState":{"key":"05","name":"Nordrhein-Westfalen"}},{"name":"Kampenweg","postalCode":"59494","locality":"Soest","municipality":{"key":"05974040","name":"Soest, Stadt","type":"Stadt"},"district":{"key":"05974","name":"Soest","type":"Kreis"},"federalState":{"key":"05","name":"Nordrhein-Westfalen"}},{"name":"Kampstr.","postalCode":"59494","locality":"Soest","municipality":{"key":"05974040","name":"Soest, Stadt","type":"Stadt"},"district":{"key":"05974","name":"Soest","type":"Kreis"},"federalState":{"key":"05","name":"Nordrhein-Westfalen"}},{"name":"Kanonikerweg","postalCode":"59494","locality":"Soest","municipality":{"key":"05974040","name":"Soest, Stadt","type":"Stadt"},"district":{"key":"05974","name":"Soest","type":"Kreis"},"federalState":{"key":"05","name":"Nordrhein-Westfalen"}},{"name":"Kapellengasse","postalCode":"59494","locality":"Soest","municipality":{"key":"05974040","name":"Soest, Stadt","type":"Stadt"},"district":{"key":"05974","name":"Soest","type":"Kreis"},"federalState":{"key":"05","name":"Nordrhein-Westfalen"}},{"name":"Karl-Rose-Weg","postalCode":"59494","locality":"Soest","municipality":{"key":"05974040","name":"Soest, Stadt","type":"Stadt"},"district":{"key":"05974","name":"Soest","type":"Kreis"},"federalState":{"key":"05","name":"Nordrhein-Westfalen"}},{"name":"Karolingerweg","postalCode":"59494","locality":"Soest","municipality":{"key":"05974040","name":"Soest, Stadt","type":"Stadt"},"district":{"key":"05974","name":"Soest","type":"Kreis"},"federalState":{"key":"05","name":"Nordrhein-Westfalen"}},{"name":"Kasernenweg","postalCode":"59494","locality":"Soest","municipality":{"key":"05974040","name":"Soest, Stadt","type":"Stadt"},"district":{"key":"05974","name":"Soest","type":"Kreis"},"federalState":{"key":"05","name":"Nordrhein-Westfalen"}},{"name":"Katroper Weg","postalCode":"59494","locality":"Soest","municipality":{"key":"05974040","name":"Soest, Stadt","type":"Stadt"},"district":{"key":"05974","name":"Soest","type":"Kreis"},"federalState":{"key":"05","name":"Nordrhein-Westfalen"}},{"name":"Kattenhol","postalCode":"59494","locality":"Soest","municipality":{"key":"05974040","name":"Soest, Stadt","type":"Stadt"},"district":{"key":"05974","name":"Soest","type":"Kreis"},"federalState":{"key":"05","name":"Nordrhein-Westfalen"}},{"name":"Katzengasse","postalCode":"59494","locality":"Soest","municipality":{"key":"05974040","name":"Soest, Stadt","type":"Stadt"},"district":{"key":"05974","name":"Soest","type":"Kreis"},"federalState":{"key":"05","name":"Nordrhein-Westfalen"}},{"name":"Kerngasse","postalCode":"59494","locality":"Soest","municipality":{"key":"05974040","name":"Soest, Stadt","type":"Stadt"},"district":{"key":"05974","name":"Soest","type":"Kreis"},"federalState":{"key":"05","name":"Nordrhein-Westfalen"}},{"name":"Kerstin-von-Herbag-Weg","postalCode":"59494","locality":"Soest","municipality":{"key":"05974040","name":"Soest, Stadt","type":"Stadt"},"district":{"key":"05974","name":"Soest","type":"Kreis"},"federalState":{"key":"05","name":"Nordrhein-Westfalen"}},{"name":"Kesselfuhr","postalCode":"59494","locality":"Soest","municipality":{"key":"05974040","name":"Soest, Stadt","type":"Stadt"},"district":{"key":"05974","name":"Soest","type":"Kreis"},"federalState":{"key":"05","name":"Nordrhein-Westfalen"}},{"name":"Kesselstr.","postalCode":"59494","locality":"Soest","municipality":{"key":"05974040","name":"Soest, Stadt","type":"Stadt"},"district":{"key":"05974","name":"Soest","type":"Kreis"},"federalState":{"key":"05","name":"Nordrhein-Westfalen"}},{"name":"Kirchstr.","postalCode":"59494","locality":"Soest","municipality":{"key":"05974040","name":"Soest, Stadt","type":"Stadt"},"district":{"key":"05974","name":"Soest","type":"Kreis"},"federalState":{"key":"05","name":"Nordrhein-Westfalen"}},{"name":"Kirchweg","postalCode":"59494","locality":"Soest","municipality":{"key":"05974040","name":"Soest, Stadt","type":"Stadt"},"district":{"key":"05974","name":"Soest","type":"Kreis"},"federalState":{"key":"05","name":"Nordrhein-Westfalen"}},{"name":"Kleine Gasse","postalCode":"59494","locality":"Soest","municipality":{"key":"05974040","name":"Soest, Stadt","type":"Stadt"},"district":{"key":"05974","name":"Soest","type":"Kreis"},"federalState":{"key":"05","name":"Nordrhein-Westfalen"}},{"name":"Kleine Helle","postalCode":"59494","locality":"Soest","municipality":{"key":"05974040","name":"Soest, Stadt","type":"Stadt"},"district":{"key":"05974","name":"Soest","type":"Kreis"},"federalState":{"key":"05","name":"Nordrhein-Westfalen"}},{"name":"Kleine Osthofe","postalCode":"59494","locality":"Soest","municipality":{"key":"05974040","name":"Soest, Stadt","type":"Stadt"},"district":{"key":"05974","name":"Soest","type":"Kreis"},"federalState":{"key":"05","name":"Nordrhein-Westfalen"}},{"name":"Kleingartenweg","postalCode":"59494","locality":"Soest","municipality":{"key":"05974040","name":"Soest, Stadt","type":"Stadt"},"district":{"key":"05974","name":"Soest","type":"Kreis"},"federalState":{"key":"05","name":"Nordrhein-Westfalen"}},{"name":"Kleppingweg","postalCode":"59494","locality":"Soest","municipality":{"key":"05974040","name":"Soest, Stadt","type":"Stadt"},"district":{"key":"05974","name":"Soest","type":"Kreis"},"federalState":{"key":"05","name":"Nordrhein-Westfalen"}},{"name":"Kletterpothsgasse","postalCode":"59494","locality":"Soest","municipality":{"key":"05974040","name":"Soest, Stadt","type":"Stadt"},"district":{"key":"05974","name":"Soest","type":"Kreis"},"federalState":{"key":"05","name":"Nordrhein-Westfalen"}},{"name":"Klosterstr.","postalCode":"59494","locality":"Soest","municipality":{"key":"05974040","name":"Soest, Stadt","type":"Stadt"},"district":{"key":"05974","name":"Soest","type":"Kreis"},"federalState":{"key":"05","name":"Nordrhein-Westfalen"}},{"name":"Klusenerweg","postalCode":"59494","locality":"Soest","municipality":{"key":"05974040","name":"Soest, Stadt","type":"Stadt"},"district":{"key":"05974","name":"Soest","type":"Kreis"},"federalState":{"key":"05","name":"Nordrhein-Westfalen"}},{"name":"Knippingweg","postalCode":"59494","locality":"Soest","municipality":{"key":"05974040","name":"Soest, Stadt","type":"Stadt"},"district":{"key":"05974","name":"Soest","type":"Kreis"},"federalState":{"key":"05","name":"Nordrhein-Westfalen"}},{"name":"Kohlbrink","postalCode":"59494","locality":"Soest","municipality":{"key":"05974040","name":"Soest, Stadt","type":"Stadt"},"district":{"key":"05974","name":"Soest","type":"Kreis"},"federalState":{"key":"05","name":"Nordrhein-Westfalen"}},{"name":"Kolkstr.","postalCode":"59494","locality":"Soest","municipality":{"key":"05974040","name":"Soest, Stadt","type":"Stadt"},"district":{"key":"05974","name":"Soest","type":"Kreis"},"federalState":{"key":"05","name":"Nordrhein-Westfalen"}},{"name":"Kölner Ring","postalCode":"59494","locality":"Soest","municipality":{"key":"05974040","name":"Soest, Stadt","type":"Stadt"},"district":{"key":"05974","name":"Soest","type":"Kreis"},"federalState":{"key":"05","name":"Nordrhein-Westfalen"}},{"name":"Kolpingweg","postalCode":"59494","locality":"Soest","municipality":{"key":"05974040","name":"Soest, Stadt","type":"Stadt"},"district":{"key":"05974","name":"Soest","type":"Kreis"},"federalState":{"key":"05","name":"Nordrhein-Westfalen"}},{"name":"Königriede","postalCode":"59494","locality":"Soest","municipality":{"key":"05974040","name":"Soest, Stadt","type":"Stadt"},"district":{"key":"05974","name":"Soest","type":"Kreis"},"federalState":{"key":"05","name":"Nordrhein-Westfalen"}},{"name":"Königsbergweg","postalCode":"59494","locality":"Soest","municipality":{"key":"05974040","name":"Soest, Stadt","type":"Stadt"},"district":{"key":"05974","name":"Soest","type":"Kreis"},"federalState":{"key":"05","name":"Nordrhein-Westfalen"}},{"name":"Konrad-Koler-Weg","postalCode":"59494","locality":"Soest","municipality":{"key":"05974040","name":"Soest, Stadt","type":"Stadt"},"district":{"key":"05974","name":"Soest","type":"Kreis"},"federalState":{"key":"05","name":"Nordrhein-Westfalen"}},{"name":"Konrad-Stecke-Weg","postalCode":"59494","locality":"Soest","municipality":{"key":"05974040","name":"Soest, Stadt","type":"Stadt"},"district":{"key":"05974","name":"Soest","type":"Kreis"},"federalState":{"key":"05","name":"Nordrhein-Westfalen"}},{"name":"Kopperweg","postalCode":"59494","locality":"Soest","municipality":{"key":"05974040","name":"Soest, Stadt","type":"Stadt"},"district":{"key":"05974","name":"Soest","type":"Kreis"},"federalState":{"key":"05","name":"Nordrhein-Westfalen"}},{"name":"Koppeweg","postalCode":"59494","locality":"Soest","municipality":{"key":"05974040","name":"Soest, Stadt","type":"Stadt"},"district":{"key":"05974","name":"Soest","type":"Kreis"},"federalState":{"key":"05","name":"Nordrhein-Westfalen"}},{"name":"Korbacher Str.","postalCode":"59494","locality":"Soest","municipality":{"key":"05974040","name":"Soest, Stadt","type":"Stadt"},"district":{"key":"05974","name":"Soest","type":"Kreis"},"federalState":{"key":"05","name":"Nordrhein-Westfalen"}},{"name":"Körbecker Weg","postalCode":"59494","locality":"Soest","municipality":{"key":"05974040","name":"Soest, Stadt","type":"Stadt"},"district":{"key":"05974","name":"Soest","type":"Kreis"},"federalState":{"key":"05","name":"Nordrhein-Westfalen"}},{"name":"Köttersweg","postalCode":"59494","locality":"Soest","municipality":{"key":"05974040","name":"Soest, Stadt","type":"Stadt"},"district":{"key":"05974","name":"Soest","type":"Kreis"},"federalState":{"key":"05","name":"Nordrhein-Westfalen"}},{"name":"Kreuzpfad","postalCode":"59494","locality":"Soest","municipality":{"key":"05974040","name":"Soest, Stadt","type":"Stadt"},"district":{"key":"05974","name":"Soest","type":"Kreis"},"federalState":{"key":"05","name":"Nordrhein-Westfalen"}},{"name":"Kriemhildweg","postalCode":"59494","locality":"Soest","municipality":{"key":"05974040","name":"Soest, Stadt","type":"Stadt"},"district":{"key":"05974","name":"Soest","type":"Kreis"},"federalState":{"key":"05","name":"Nordrhein-Westfalen"}},{"name":"Krummel","postalCode":"59494","locality":"Soest","municipality":{"key":"05974040","name":"Soest, Stadt","type":"Stadt"},"district":{"key":"05974","name":"Soest","type":"Kreis"},"federalState":{"key":"05","name":"Nordrhein-Westfalen"}},{"name":"Kubachsgasse","postalCode":"59494","locality":"Soest","municipality":{"key":"05974040","name":"Soest, Stadt","type":"Stadt"},"district":{"key":"05974","name":"Soest","type":"Kreis"},"federalState":{"key":"05","name":"Nordrhein-Westfalen"}},{"name":"Kuhhautweg","postalCode":"59494","locality":"Soest","municipality":{"key":"05974040","name":"Soest, Stadt","type":"Stadt"},"district":{"key":"05974","name":"Soest","type":"Kreis"},"federalState":{"key":"05","name":"Nordrhein-Westfalen"}},{"name":"Kungelgäßchen","postalCode":"59494","locality":"Soest","municipality":{"key":"05974040","name":"Soest, Stadt","type":"Stadt"},"district":{"key":"05974","name":"Soest","type":"Kreis"},"federalState":{"key":"05","name":"Nordrhein-Westfalen"}},{"name":"Kunibertweg","postalCode":"59494","locality":"Soest","municipality":{"key":"05974040","name":"Soest, Stadt","type":"Stadt"},"district":{"key":"05974","name":"Soest","type":"Kreis"},"federalState":{"key":"05","name":"Nordrhein-Westfalen"}},{"name":"Kurze Str.","postalCode":"59494","locality":"Soest","municipality":{"key":"05974040","name":"Soest, Stadt","type":"Stadt"},"district":{"key":"05974","name":"Soest","type":"Kreis"},"federalState":{"key":"05","name":"Nordrhein-Westfalen"}},{"name":"Ladestr.","postalCode":"59494","locality":"Soest","municipality":{"key":"05974040","name":"Soest, Stadt","type":"Stadt"},"district":{"key":"05974","name":"Soest","type":"Kreis"},"federalState":{"key":"05","name":"Nordrhein-Westfalen"}},{"name":"Landeshuter Weg","postalCode":"59494","locality":"Soest","municipality":{"key":"05974040","name":"Soest, Stadt","type":"Stadt"},"district":{"key":"05974","name":"Soest","type":"Kreis"},"federalState":{"key":"05","name":"Nordrhein-Westfalen"}},{"name":"Landsknechtweg","postalCode":"59494","locality":"Soest","municipality":{"key":"05974040","name":"Soest, Stadt","type":"Stadt"},"district":{"key":"05974","name":"Soest","type":"Kreis"},"federalState":{"key":"05","name":"Nordrhein-Westfalen"}},{"name":"Landwehr","postalCode":"59494","locality":"Soest","municipality":{"key":"05974040","name":"Soest, Stadt","type":"Stadt"},"district":{"key":"05974","name":"Soest","type":"Kreis"},"federalState":{"key":"05","name":"Nordrhein-Westfalen"}},{"name":"Lange Gasse","postalCode":"59494","locality":"Soest","municipality":{"key":"05974040","name":"Soest, Stadt","type":"Stadt"},"district":{"key":"05974","name":"Soest","type":"Kreis"},"federalState":{"key":"05","name":"Nordrhein-Westfalen"}},{"name":"Lange Wende","postalCode":"59494","locality":"Soest","municipality":{"key":"05974040","name":"Soest, Stadt","type":"Stadt"},"district":{"key":"05974","name":"Soest","type":"Kreis"},"federalState":{"key":"05","name":"Nordrhein-Westfalen"}},{"name":"Lanner","postalCode":"59494","locality":"Soest","municipality":{"key":"05974040","name":"Soest, Stadt","type":"Stadt"},"district":{"key":"05974","name":"Soest","type":"Kreis"},"federalState":{"key":"05","name":"Nordrhein-Westfalen"}},{"name":"Lavauengasse","postalCode":"59494","locality":"Soest","municipality":{"key":"05974040","name":"Soest, Stadt","type":"Stadt"},"district":{"key":"05974","name":"Soest","type":"Kreis"},"federalState":{"key":"05","name":"Nordrhein-Westfalen"}},{"name":"Leckgadumstr.","postalCode":"59494","locality":"Soest","municipality":{"key":"05974040","name":"Soest, Stadt","type":"Stadt"},"district":{"key":"05974","name":"Soest","type":"Kreis"},"federalState":{"key":"05","name":"Nordrhein-Westfalen"}},{"name":"Legionärspfad","postalCode":"59494","locality":"Soest","municipality":{"key":"05974040","name":"Soest, Stadt","type":"Stadt"},"district":{"key":"05974","name":"Soest","type":"Kreis"},"federalState":{"key":"05","name":"Nordrhein-Westfalen"}},{"name":"Lelyweg","postalCode":"59494","locality":"Soest","municipality":{"key":"05974040","name":"Soest, Stadt","type":"Stadt"},"district":{"key":"05974","name":"Soest","type":"Kreis"},"federalState":{"key":"05","name":"Nordrhein-Westfalen"}},{"name":"Lemgoweg","postalCode":"59494","locality":"Soest","municipality":{"key":"05974040","name":"Soest, Stadt","type":"Stadt"},"district":{"key":"05974","name":"Soest","type":"Kreis"},"federalState":{"key":"05","name":"Nordrhein-Westfalen"}},{"name":"Lendringser Weg","postalCode":"59494","locality":"Soest","municipality":{"key":"05974040","name":"Soest, Stadt","type":"Stadt"},"district":{"key":"05974","name":"Soest","type":"Kreis"},"federalState":{"key":"05","name":"Nordrhein-Westfalen"}},{"name":"Lentzestr.","postalCode":"59494","locality":"Soest","municipality":{"key":"05974040","name":"Soest, Stadt","type":"Stadt"},"district":{"key":"05974","name":"Soest","type":"Kreis"},"federalState":{"key":"05","name":"Nordrhein-Westfalen"}},{"name":"Lerchenweg","postalCode":"59494","locality":"Soest","municipality":{"key":"05974040","name":"Soest, Stadt","type":"Stadt"},"district":{"key":"05974","name":"Soest","type":"Kreis"},"federalState":{"key":"05","name":"Nordrhein-Westfalen"}},{"name":"Leveradweg","postalCode":"59494","locality":"Soest","municipality":{"key":"05974040","name":"Soest, Stadt","type":"Stadt"},"district":{"key":"05974","name":"Soest","type":"Kreis"},"federalState":{"key":"05","name":"Nordrhein-Westfalen"}},{"name":"Lindenstr.","postalCode":"59494","locality":"Soest","municipality":{"key":"05974040","name":"Soest, Stadt","type":"Stadt"},"district":{"key":"05974","name":"Soest","type":"Kreis"},"federalState":{"key":"05","name":"Nordrhein-Westfalen"}},{"name":"Lindweg","postalCode":"59494","locality":"Soest","municipality":{"key":"05974040","name":"Soest, Stadt","type":"Stadt"},"district":{"key":"05974","name":"Soest","type":"Kreis"},"federalState":{"key":"05","name":"Nordrhein-Westfalen"}},{"name":"Linnenecke","postalCode":"59494","locality":"Soest","municipality":{"key":"05974040","name":"Soest, Stadt","type":"Stadt"},"district":{"key":"05974","name":"Soest","type":"Kreis"},"federalState":{"key":"05","name":"Nordrhein-Westfalen"}},{"name":"Lippestr.","postalCode":"59494","locality":"Soest","municipality":{"key":"05974040","name":"Soest, Stadt","type":"Stadt"},"district":{"key":"05974","name":"Soest","type":"Kreis"},"federalState":{"key":"05","name":"Nordrhein-Westfalen"}},{"name":"Lippstädter Str.","postalCode":"59494","locality":"Soest","municipality":{"key":"05974040","name":"Soest, Stadt","type":"Stadt"},"district":{"key":"05974","name":"Soest","type":"Kreis"},"federalState":{"key":"05","name":"Nordrhein-Westfalen"}},{"name":"Lisette-Krusch-Pfad","postalCode":"59494","locality":"Soest","municipality":{"key":"05974040","name":"Soest, Stadt","type":"Stadt"},"district":{"key":"05974","name":"Soest","type":"Kreis"},"federalState":{"key":"05","name":"Nordrhein-Westfalen"}},{"name":"Lohner Weg","postalCode":"59494","locality":"Soest","municipality":{"key":"05974040","name":"Soest, Stadt","type":"Stadt"},"district":{"key":"05974","name":"Soest","type":"Kreis"},"federalState":{"key":"05","name":"Nordrhein-Westfalen"}},{"name":"Londonring","postalCode":"59494","locality":"Soest","municipality":{"key":"05974040","name":"Soest, Stadt","type":"Stadt"},"district":{"key":"05974","name":"Soest","type":"Kreis"},"federalState":{"key":"05","name":"Nordrhein-Westfalen"}},{"name":"Lübecker Ring","postalCode":"59494","locality":"Soest","municipality":{"key":"05974040","name":"Soest, Stadt","type":"Stadt"},"district":{"key":"05974","name":"Soest","type":"Kreis"},"federalState":{"key":"05","name":"Nordrhein-Westfalen"}},{"name":"Lühringser Weg","postalCode":"59494","locality":"Soest","municipality":{"key":"05974040","name":"Soest, Stadt","type":"Stadt"},"district":{"key":"05974","name":"Soest","type":"Kreis"},"federalState":{"key":"05","name":"Nordrhein-Westfalen"}},{"name":"Luisengrund","postalCode":"59494","locality":"Soest","municipality":{"key":"05974040","name":"Soest, Stadt","type":"Stadt"},"district":{"key":"05974","name":"Soest","type":"Kreis"},"federalState":{"key":"05","name":"Nordrhein-Westfalen"}},{"name":"Lülingsohr","postalCode":"59494","locality":"Soest","municipality":{"key":"05974040","name":"Soest, Stadt","type":"Stadt"},"district":{"key":"05974","name":"Soest","type":"Kreis"},"federalState":{"key":"05","name":"Nordrhein-Westfalen"}},{"name":"Lüneburgweg","postalCode":"59494","locality":"Soest","municipality":{"key":"05974040","name":"Soest, Stadt","type":"Stadt"},"district":{"key":"05974","name":"Soest","type":"Kreis"},"federalState":{"key":"05","name":"Nordrhein-Westfalen"}},{"name":"Lünenweg","postalCode":"59494","locality":"Soest","municipality":{"key":"05974040","name":"Soest, Stadt","type":"Stadt"},"district":{"key":"05974","name":"Soest","type":"Kreis"},"federalState":{"key":"05","name":"Nordrhein-Westfalen"}},{"name":"Lusebrink","postalCode":"59494","locality":"Soest","municipality":{"key":"05974040","name":"Soest, Stadt","type":"Stadt"},"district":{"key":"05974","name":"Soest","type":"Kreis"},"federalState":{"key":"05","name":"Nordrhein-Westfalen"}},{"name":"Lütgen Grandweg","postalCode":"59494","locality":"Soest","municipality":{"key":"05974040","name":"Soest, Stadt","type":"Stadt"},"district":{"key":"05974","name":"Soest","type":"Kreis"},"federalState":{"key":"05","name":"Nordrhein-Westfalen"}},{"name":"Maastrichter Weg","postalCode":"59494","locality":"Soest","municipality":{"key":"05974040","name":"Soest, Stadt","type":"Stadt"},"district":{"key":"05974","name":"Soest","type":"Kreis"},"federalState":{"key":"05","name":"Nordrhein-Westfalen"}},{"name":"Magdeburgweg","postalCode":"59494","locality":"Soest","municipality":{"key":"05974040","name":"Soest, Stadt","type":"Stadt"},"district":{"key":"05974","name":"Soest","type":"Kreis"},"federalState":{"key":"05","name":"Nordrhein-Westfalen"}},{"name":"Mariengartengasse","postalCode":"59494","locality":"Soest","municipality":{"key":"05974040","name":"Soest, Stadt","type":"Stadt"},"district":{"key":"05974","name":"Soest","type":"Kreis"},"federalState":{"key":"05","name":"Nordrhein-Westfalen"}},{"name":"Marketenderweg","postalCode":"59494","locality":"Soest","municipality":{"key":"05974040","name":"Soest, Stadt","type":"Stadt"},"district":{"key":"05974","name":"Soest","type":"Kreis"},"federalState":{"key":"05","name":"Nordrhein-Westfalen"}},{"name":"Märkische Str.","postalCode":"59494","locality":"Soest","municipality":{"key":"05974040","name":"Soest, Stadt","type":"Stadt"},"district":{"key":"05974","name":"Soest","type":"Kreis"},"federalState":{"key":"05","name":"Nordrhein-Westfalen"}},{"name":"Markt","postalCode":"59494","locality":"Soest","municipality":{"key":"05974040","name":"Soest, Stadt","type":"Stadt"},"district":{"key":"05974","name":"Soest","type":"Kreis"},"federalState":{"key":"05","name":"Nordrhein-Westfalen"}},{"name":"Marktstr.","postalCode":"59494","locality":"Soest","municipality":{"key":"05974040","name":"Soest, Stadt","type":"Stadt"},"district":{"key":"05974","name":"Soest","type":"Kreis"},"federalState":{"key":"05","name":"Nordrhein-Westfalen"}},{"name":"Marquardweg","postalCode":"59494","locality":"Soest","municipality":{"key":"05974040","name":"Soest, Stadt","type":"Stadt"},"district":{"key":"05974","name":"Soest","type":"Kreis"},"federalState":{"key":"05","name":"Nordrhein-Westfalen"}},{"name":"Marserweg","postalCode":"59494","locality":"Soest","municipality":{"key":"05974040","name":"Soest, Stadt","type":"Stadt"},"district":{"key":"05974","name":"Soest","type":"Kreis"},"federalState":{"key":"05","name":"Nordrhein-Westfalen"}},{"name":"Marsiliusweg","postalCode":"59494","locality":"Soest","municipality":{"key":"05974040","name":"Soest, Stadt","type":"Stadt"},"district":{"key":"05974","name":"Soest","type":"Kreis"},"federalState":{"key":"05","name":"Nordrhein-Westfalen"}},{"name":"Martin-Opitz-Str.","postalCode":"59494","locality":"Soest","municipality":{"key":"05974040","name":"Soest, Stadt","type":"Stadt"},"district":{"key":"05974","name":"Soest","type":"Kreis"},"federalState":{"key":"05","name":"Nordrhein-Westfalen"}},{"name":"Medebacher Str.","postalCode":"59494","locality":"Soest","municipality":{"key":"05974040","name":"Soest, Stadt","type":"Stadt"},"district":{"key":"05974","name":"Soest","type":"Kreis"},"federalState":{"key":"05","name":"Nordrhein-Westfalen"}},{"name":"Meerhofweg","postalCode":"59494","locality":"Soest","municipality":{"key":"05974040","name":"Soest, Stadt","type":"Stadt"},"district":{"key":"05974","name":"Soest","type":"Kreis"},"federalState":{"key":"05","name":"Nordrhein-Westfalen"}},{"name":"Meiningser Weg","postalCode":"59494","locality":"Soest","municipality":{"key":"05974040","name":"Soest, Stadt","type":"Stadt"},"district":{"key":"05974","name":"Soest","type":"Kreis"},"federalState":{"key":"05","name":"Nordrhein-Westfalen"}},{"name":"Meister-Conrad-Str.","postalCode":"59494","locality":"Soest","municipality":{"key":"05974040","name":"Soest, Stadt","type":"Stadt"},"district":{"key":"05974","name":"Soest","type":"Kreis"},"federalState":{"key":"05","name":"Nordrhein-Westfalen"}},{"name":"Meister-Eckhart-Weg","postalCode":"59494","locality":"Soest","municipality":{"key":"05974040","name":"Soest, Stadt","type":"Stadt"},"district":{"key":"05974","name":"Soest","type":"Kreis"},"federalState":{"key":"05","name":"Nordrhein-Westfalen"}},{"name":"Melanchthonweg","postalCode":"59494","locality":"Soest","municipality":{"key":"05974040","name":"Soest, Stadt","type":"Stadt"},"district":{"key":"05974","name":"Soest","type":"Kreis"},"federalState":{"key":"05","name":"Nordrhein-Westfalen"}},{"name":"Mengeweg","postalCode":"59494","locality":"Soest","municipality":{"key":"05974040","name":"Soest, Stadt","type":"Stadt"},"district":{"key":"05974","name":"Soest","type":"Kreis"},"federalState":{"key":"05","name":"Nordrhein-Westfalen"}},{"name":"Merckelbachweg","postalCode":"59494","locality":"Soest","municipality":{"key":"05974040","name":"Soest, Stadt","type":"Stadt"},"district":{"key":"05974","name":"Soest","type":"Kreis"},"federalState":{"key":"05","name":"Nordrhein-Westfalen"}},{"name":"Merianweg","postalCode":"59494","locality":"Soest","municipality":{"key":"05974040","name":"Soest, Stadt","type":"Stadt"},"district":{"key":"05974","name":"Soest","type":"Kreis"},"federalState":{"key":"05","name":"Nordrhein-Westfalen"}},{"name":"Merowingerweg","postalCode":"59494","locality":"Soest","municipality":{"key":"05974040","name":"Soest, Stadt","type":"Stadt"},"district":{"key":"05974","name":"Soest","type":"Kreis"},"federalState":{"key":"05","name":"Nordrhein-Westfalen"}},{"name":"Mester-Godert-Weg","postalCode":"59494","locality":"Soest","municipality":{"key":"05974040","name":"Soest, Stadt","type":"Stadt"},"district":{"key":"05974","name":"Soest","type":"Kreis"},"federalState":{"key":"05","name":"Nordrhein-Westfalen"}},{"name":"Metzer Weg","postalCode":"59494","locality":"Soest","municipality":{"key":"05974040","name":"Soest, Stadt","type":"Stadt"},"district":{"key":"05974","name":"Soest","type":"Kreis"},"federalState":{"key":"05","name":"Nordrhein-Westfalen"}},{"name":"Michelsweg","postalCode":"59494","locality":"Soest","municipality":{"key":"05974040","name":"Soest, Stadt","type":"Stadt"},"district":{"key":"05974","name":"Soest","type":"Kreis"},"federalState":{"key":"05","name":"Nordrhein-Westfalen"}},{"name":"Milchstr.","postalCode":"59494","locality":"Soest","municipality":{"key":"05974040","name":"Soest, Stadt","type":"Stadt"},"district":{"key":"05974","name":"Soest","type":"Kreis"},"federalState":{"key":"05","name":"Nordrhein-Westfalen"}},{"name":"Möhnestr.","postalCode":"59494","locality":"Soest","municipality":{"key":"05974040","name":"Soest, Stadt","type":"Stadt"},"district":{"key":"05974","name":"Soest","type":"Kreis"},"federalState":{"key":"05","name":"Nordrhein-Westfalen"}},{"name":"Mönneker Breite","postalCode":"59494","locality":"Soest","municipality":{"key":"05974040","name":"Soest, Stadt","type":"Stadt"},"district":{"key":"05974","name":"Soest","type":"Kreis"},"federalState":{"key":"05","name":"Nordrhein-Westfalen"}},{"name":"Mühlenpättken","postalCode":"59494","locality":"Soest","municipality":{"key":"05974040","name":"Soest, Stadt","type":"Stadt"},"district":{"key":"05974","name":"Soest","type":"Kreis"},"federalState":{"key":"05","name":"Nordrhein-Westfalen"}},{"name":"Müllingser Weg","postalCode":"59494","locality":"Soest","municipality":{"key":"05974040","name":"Soest, Stadt","type":"Stadt"},"district":{"key":"05974","name":"Soest","type":"Kreis"},"federalState":{"key":"05","name":"Nordrhein-Westfalen"}},{"name":"Münsterweg","postalCode":"59494","locality":"Soest","municipality":{"key":"05974040","name":"Soest, Stadt","type":"Stadt"},"district":{"key":"05974","name":"Soest","type":"Kreis"},"federalState":{"key":"05","name":"Nordrhein-Westfalen"}},{"name":"Nachtwächterweg","postalCode":"59494","locality":"Soest","municipality":{"key":"05974040","name":"Soest, Stadt","type":"Stadt"},"district":{"key":"05974","name":"Soest","type":"Kreis"},"federalState":{"key":"05","name":"Nordrhein-Westfalen"}},{"name":"Naugardenring","postalCode":"59494","locality":"Soest","municipality":{"key":"05974040","name":"Soest, Stadt","type":"Stadt"},"district":{"key":"05974","name":"Soest","type":"Kreis"},"federalState":{"key":"05","name":"Nordrhein-Westfalen"}},{"name":"Neheimer Weg","postalCode":"59494","locality":"Soest","municipality":{"key":"05974040","name":"Soest, Stadt","type":"Stadt"},"district":{"key":"05974","name":"Soest","type":"Kreis"},"federalState":{"key":"05","name":"Nordrhein-Westfalen"}},{"name":"Nelmannwall","postalCode":"59494","locality":"Soest","municipality":{"key":"05974040","name":"Soest, Stadt","type":"Stadt"},"district":{"key":"05974","name":"Soest","type":"Kreis"},"federalState":{"key":"05","name":"Nordrhein-Westfalen"}},{"name":"Nequamweg","postalCode":"59494","locality":"Soest","municipality":{"key":"05974040","name":"Soest, Stadt","type":"Stadt"},"district":{"key":"05974","name":"Soest","type":"Kreis"},"federalState":{"key":"05","name":"Nordrhein-Westfalen"}},{"name":"Neuer Schulweg","postalCode":"59494","locality":"Soest","municipality":{"key":"05974040","name":"Soest, Stadt","type":"Stadt"},"district":{"key":"05974","name":"Soest","type":"Kreis"},"federalState":{"key":"05","name":"Nordrhein-Westfalen"}},{"name":"Neuer Weg","postalCode":"59494","locality":"Soest","municipality":{"key":"05974040","name":"Soest, Stadt","type":"Stadt"},"district":{"key":"05974","name":"Soest","type":"Kreis"},"federalState":{"key":"05","name":"Nordrhein-Westfalen"}},{"name":"Neumarkter Weg","postalCode":"59494","locality":"Soest","municipality":{"key":"05974040","name":"Soest, Stadt","type":"Stadt"},"district":{"key":"05974","name":"Soest","type":"Kreis"},"federalState":{"key":"05","name":"Nordrhein-Westfalen"}},{"name":"Nibelungenweg","postalCode":"59494","locality":"Soest","municipality":{"key":"05974040","name":"Soest, Stadt","type":"Stadt"},"district":{"key":"05974","name":"Soest","type":"Kreis"},"federalState":{"key":"05","name":"Nordrhein-Westfalen"}},{"name":"Nicolaiweg","postalCode":"59494","locality":"Soest","municipality":{"key":"05974040","name":"Soest, Stadt","type":"Stadt"},"district":{"key":"05974","name":"Soest","type":"Kreis"},"federalState":{"key":"05","name":"Nordrhein-Westfalen"}},{"name":"Niederbergheimer Str.","postalCode":"59494","locality":"Soest","municipality":{"key":"05974040","name":"Soest, Stadt","type":"Stadt"},"district":{"key":"05974","name":"Soest","type":"Kreis"},"federalState":{"key":"05","name":"Nordrhein-Westfalen"}},{"name":"Niedergasse","postalCode":"59494","locality":"Soest","municipality":{"key":"05974040","name":"Soest, Stadt","type":"Stadt"},"district":{"key":"05974","name":"Soest","type":"Kreis"},"federalState":{"key":"05","name":"Nordrhein-Westfalen"}},{"name":"Nordstr.","postalCode":"59494","locality":"Soest","municipality":{"key":"05974040","name":"Soest, Stadt","type":"Stadt"},"district":{"key":"05974","name":"Soest","type":"Kreis"},"federalState":{"key":"05","name":"Nordrhein-Westfalen"}},{"name":"Nottebohmweg","postalCode":"59494","locality":"Soest","municipality":{"key":"05974040","name":"Soest, Stadt","type":"Stadt"},"district":{"key":"05974","name":"Soest","type":"Kreis"},"federalState":{"key":"05","name":"Nordrhein-Westfalen"}},{"name":"Nötten-Brüder-Wallstr.","postalCode":"59494","locality":"Soest","municipality":{"key":"05974040","name":"Soest, Stadt","type":"Stadt"},"district":{"key":"05974","name":"Soest","type":"Kreis"},"federalState":{"key":"05","name":"Nordrhein-Westfalen"}},{"name":"Nöttenstr.","postalCode":"59494","locality":"Soest","municipality":{"key":"05974040","name":"Soest, Stadt","type":"Stadt"},"district":{"key":"05974","name":"Soest","type":"Kreis"},"federalState":{"key":"05","name":"Nordrhein-Westfalen"}},{"name":"Nöttentor","postalCode":"59494","locality":"Soest","municipality":{"key":"05974040","name":"Soest, Stadt","type":"Stadt"},"district":{"key":"05974","name":"Soest","type":"Kreis"},"federalState":{"key":"05","name":"Nordrhein-Westfalen"}},{"name":"Oberkirchweg","postalCode":"59494","locality":"Soest","municipality":{"key":"05974040","name":"Soest, Stadt","type":"Stadt"},"district":{"key":"05974","name":"Soest","type":"Kreis"},"federalState":{"key":"05","name":"Nordrhein-Westfalen"}},{"name":"Oelmüllerweg","postalCode":"59494","locality":"Soest","municipality":{"key":"05974040","name":"Soest, Stadt","type":"Stadt"},"district":{"key":"05974","name":"Soest","type":"Kreis"},"federalState":{"key":"05","name":"Nordrhein-Westfalen"}},{"name":"Oestinghauser Landstr.","postalCode":"59494","locality":"Soest","municipality":{"key":"05974040","name":"Soest, Stadt","type":"Stadt"},"district":{"key":"05974","name":"Soest","type":"Kreis"},"federalState":{"key":"05","name":"Nordrhein-Westfalen"}},{"name":"Oestinghauser Str.","postalCode":"59494","locality":"Soest","municipality":{"key":"05974040","name":"Soest, Stadt","type":"Stadt"},"district":{"key":"05974","name":"Soest","type":"Kreis"},"federalState":{"key":"05","name":"Nordrhein-Westfalen"}},{"name":"Offerhausweg","postalCode":"59494","locality":"Soest","municipality":{"key":"05974040","name":"Soest, Stadt","type":"Stadt"},"district":{"key":"05974","name":"Soest","type":"Kreis"},"federalState":{"key":"05","name":"Nordrhein-Westfalen"}},{"name":"Olper Weg","postalCode":"59494","locality":"Soest","municipality":{"key":"05974040","name":"Soest, Stadt","type":"Stadt"},"district":{"key":"05974","name":"Soest","type":"Kreis"},"federalState":{"key":"05","name":"Nordrhein-Westfalen"}},{"name":"Opderbeckweg","postalCode":"59494","locality":"Soest","municipality":{"key":"05974040","name":"Soest, Stadt","type":"Stadt"},"district":{"key":"05974","name":"Soest","type":"Kreis"},"federalState":{"key":"05","name":"Nordrhein-Westfalen"}},{"name":"Opmünder Weg","postalCode":"59494","locality":"Soest","municipality":{"key":"05974040","name":"Soest, Stadt","type":"Stadt"},"district":{"key":"05974","name":"Soest","type":"Kreis"},"federalState":{"key":"05","name":"Nordrhein-Westfalen"}},{"name":"Osidweg","postalCode":"59494","locality":"Soest","municipality":{"key":"05974040","name":"Soest, Stadt","type":"Stadt"},"district":{"key":"05974","name":"Soest","type":"Kreis"},"federalState":{"key":"05","name":"Nordrhein-Westfalen"}},{"name":"Osnabrückweg","postalCode":"59494","locality":"Soest","municipality":{"key":"05974040","name":"Soest, Stadt","type":"Stadt"},"district":{"key":"05974","name":"Soest","type":"Kreis"},"federalState":{"key":"05","name":"Nordrhein-Westfalen"}},{"name":"Ostenhellweg","postalCode":"59494","locality":"Soest","municipality":{"key":"05974040","name":"Soest, Stadt","type":"Stadt"},"district":{"key":"05974","name":"Soest","type":"Kreis"},"federalState":{"key":"05","name":"Nordrhein-Westfalen"}},{"name":"Osthofenstr.","postalCode":"59494","locality":"Soest","municipality":{"key":"05974040","name":"Soest, Stadt","type":"Stadt"},"district":{"key":"05974","name":"Soest","type":"Kreis"},"federalState":{"key":"05","name":"Nordrhein-Westfalen"}},{"name":"Osthofen-Thomä-Wallstr.","postalCode":"59494","locality":"Soest","municipality":{"key":"05974040","name":"Soest, Stadt","type":"Stadt"},"district":{"key":"05974","name":"Soest","type":"Kreis"},"federalState":{"key":"05","name":"Nordrhein-Westfalen"}},{"name":"Osthofentor","postalCode":"59494","locality":"Soest","municipality":{"key":"05974040","name":"Soest, Stadt","type":"Stadt"},"district":{"key":"05974","name":"Soest","type":"Kreis"},"federalState":{"key":"05","name":"Nordrhein-Westfalen"}},{"name":"Ostönner Weg","postalCode":"59494","locality":"Soest","municipality":{"key":"05974040","name":"Soest, Stadt","type":"Stadt"},"district":{"key":"05974","name":"Soest","type":"Kreis"},"federalState":{"key":"05","name":"Nordrhein-Westfalen"}},{"name":"Ostweg","postalCode":"59494","locality":"Soest","municipality":{"key":"05974040","name":"Soest, Stadt","type":"Stadt"},"district":{"key":"05974","name":"Soest","type":"Kreis"},"federalState":{"key":"05","name":"Nordrhein-Westfalen"}},{"name":"Ottawa-Weg","postalCode":"59494","locality":"Soest","municipality":{"key":"05974040","name":"Soest, Stadt","type":"Stadt"},"district":{"key":"05974","name":"Soest","type":"Kreis"},"federalState":{"key":"05","name":"Nordrhein-Westfalen"}},{"name":"Otto-Boelitz-Weg","postalCode":"59494","locality":"Soest","municipality":{"key":"05974040","name":"Soest, Stadt","type":"Stadt"},"district":{"key":"05974","name":"Soest","type":"Kreis"},"federalState":{"key":"05","name":"Nordrhein-Westfalen"}},{"name":"Otto-Modersohn-Weg","postalCode":"59494","locality":"Soest","municipality":{"key":"05974040","name":"Soest, Stadt","type":"Stadt"},"district":{"key":"05974","name":"Soest","type":"Kreis"},"federalState":{"key":"05","name":"Nordrhein-Westfalen"}},{"name":"Overweg","postalCode":"59494","locality":"Soest","municipality":{"key":"05974040","name":"Soest, Stadt","type":"Stadt"},"district":{"key":"05974","name":"Soest","type":"Kreis"},"federalState":{"key":"05","name":"Nordrhein-Westfalen"}},{"name":"Paderborner Landstr.","postalCode":"59494","locality":"Soest","municipality":{"key":"05974040","name":"Soest, Stadt","type":"Stadt"},"district":{"key":"05974","name":"Soest","type":"Kreis"},"federalState":{"key":"05","name":"Nordrhein-Westfalen"}},{"name":"Pagenstr.","postalCode":"59494","locality":"Soest","municipality":{"key":"05974040","name":"Soest, Stadt","type":"Stadt"},"district":{"key":"05974","name":"Soest","type":"Kreis"},"federalState":{"key":"05","name":"Nordrhein-Westfalen"}},{"name":"Pankgrafenweg","postalCode":"59494","locality":"Soest","municipality":{"key":"05974040","name":"Soest, Stadt","type":"Stadt"},"district":{"key":"05974","name":"Soest","type":"Kreis"},"federalState":{"key":"05","name":"Nordrhein-Westfalen"}},{"name":"Papenweg","postalCode":"59494","locality":"Soest","municipality":{"key":"05974040","name":"Soest, Stadt","type":"Stadt"},"district":{"key":"05974","name":"Soest","type":"Kreis"},"federalState":{"key":"05","name":"Nordrhein-Westfalen"}},{"name":"Pappenheimweg","postalCode":"59494","locality":"Soest","municipality":{"key":"05974040","name":"Soest, Stadt","type":"Stadt"},"district":{"key":"05974","name":"Soest","type":"Kreis"},"federalState":{"key":"05","name":"Nordrhein-Westfalen"}},{"name":"Paradieser Holzweg","postalCode":"59494","locality":"Soest","municipality":{"key":"05974040","name":"Soest, Stadt","type":"Stadt"},"district":{"key":"05974","name":"Soest","type":"Kreis"},"federalState":{"key":"05","name":"Nordrhein-Westfalen"}},{"name":"Paradieser Weg","postalCode":"59494","locality":"Soest","municipality":{"key":"05974040","name":"Soest, Stadt","type":"Stadt"},"district":{"key":"05974","name":"Soest","type":"Kreis"},"federalState":{"key":"05","name":"Nordrhein-Westfalen"}},{"name":"Patrocliweg","postalCode":"59494","locality":"Soest","municipality":{"key":"05974040","name":"Soest, Stadt","type":"Stadt"},"district":{"key":"05974","name":"Soest","type":"Kreis"},"federalState":{"key":"05","name":"Nordrhein-Westfalen"}},{"name":"Paulengäßchen","postalCode":"59494","locality":"Soest","municipality":{"key":"05974040","name":"Soest, Stadt","type":"Stadt"},"district":{"key":"05974","name":"Soest","type":"Kreis"},"federalState":{"key":"05","name":"Nordrhein-Westfalen"}},{"name":"Paulistr.","postalCode":"59494","locality":"Soest","municipality":{"key":"05974040","name":"Soest, Stadt","type":"Stadt"},"district":{"key":"05974","name":"Soest","type":"Kreis"},"federalState":{"key":"05","name":"Nordrhein-Westfalen"}},{"name":"Paul-Werth-Weg","postalCode":"59494","locality":"Soest","municipality":{"key":"05974040","name":"Soest, Stadt","type":"Stadt"},"district":{"key":"05974","name":"Soest","type":"Kreis"},"federalState":{"key":"05","name":"Nordrhein-Westfalen"}},{"name":"Peter-Broelemann-Weg","postalCode":"59494","locality":"Soest","municipality":{"key":"05974040","name":"Soest, Stadt","type":"Stadt"},"district":{"key":"05974","name":"Soest","type":"Kreis"},"federalState":{"key":"05","name":"Nordrhein-Westfalen"}},{"name":"Petrikirchhof","postalCode":"59494","locality":"Soest","municipality":{"key":"05974040","name":"Soest, Stadt","type":"Stadt"},"district":{"key":"05974","name":"Soest","type":"Kreis"},"federalState":{"key":"05","name":"Nordrhein-Westfalen"}},{"name":"Petristr.","postalCode":"59494","locality":"Soest","municipality":{"key":"05974040","name":"Soest, Stadt","type":"Stadt"},"district":{"key":"05974","name":"Soest","type":"Kreis"},"federalState":{"key":"05","name":"Nordrhein-Westfalen"}},{"name":"Piccolominiweg","postalCode":"59494","locality":"Soest","municipality":{"key":"05974040","name":"Soest, Stadt","type":"Stadt"},"district":{"key":"05974","name":"Soest","type":"Kreis"},"federalState":{"key":"05","name":"Nordrhein-Westfalen"}},{"name":"Pollhofstr.","postalCode":"59494","locality":"Soest","municipality":{"key":"05974040","name":"Soest, Stadt","type":"Stadt"},"district":{"key":"05974","name":"Soest","type":"Kreis"},"federalState":{"key":"05","name":"Nordrhein-Westfalen"}},{"name":"Pommernweg","postalCode":"59494","locality":"Soest","municipality":{"key":"05974040","name":"Soest, Stadt","type":"Stadt"},"district":{"key":"05974","name":"Soest","type":"Kreis"},"federalState":{"key":"05","name":"Nordrhein-Westfalen"}},{"name":"Postgasse","postalCode":"59494","locality":"Soest","municipality":{"key":"05974040","name":"Soest, Stadt","type":"Stadt"},"district":{"key":"05974","name":"Soest","type":"Kreis"},"federalState":{"key":"05","name":"Nordrhein-Westfalen"}},{"name":"Potsdamer Platz","postalCode":"59494","locality":"Soest","municipality":{"key":"05974040","name":"Soest, Stadt","type":"Stadt"},"district":{"key":"05974","name":"Soest","type":"Kreis"},"federalState":{"key":"05","name":"Nordrhein-Westfalen"}},{"name":"Predigergasse","postalCode":"59494","locality":"Soest","municipality":{"key":"05974040","name":"Soest, Stadt","type":"Stadt"},"district":{"key":"05974","name":"Soest","type":"Kreis"},"federalState":{"key":"05","name":"Nordrhein-Westfalen"}},{"name":"Preußenweg","postalCode":"59494","locality":"Soest","municipality":{"key":"05974040","name":"Soest, Stadt","type":"Stadt"},"district":{"key":"05974","name":"Soest","type":"Kreis"},"federalState":{"key":"05","name":"Nordrhein-Westfalen"}},{"name":"Propsteigasse","postalCode":"59494","locality":"Soest","municipality":{"key":"05974040","name":"Soest, Stadt","type":"Stadt"},"district":{"key":"05974","name":"Soest","type":"Kreis"},"federalState":{"key":"05","name":"Nordrhein-Westfalen"}},{"name":"Propst-Nübel-Str.","postalCode":"59494","locality":"Soest","municipality":{"key":"05974040","name":"Soest, Stadt","type":"Stadt"},"district":{"key":"05974","name":"Soest","type":"Kreis"},"federalState":{"key":"05","name":"Nordrhein-Westfalen"}},{"name":"Puppenstr.","postalCode":"59494","locality":"Soest","municipality":{"key":"05974040","name":"Soest, Stadt","type":"Stadt"},"district":{"key":"05974","name":"Soest","type":"Kreis"},"federalState":{"key":"05","name":"Nordrhein-Westfalen"}},{"name":"Püttstr.","postalCode":"59494","locality":"Soest","municipality":{"key":"05974040","name":"Soest, Stadt","type":"Stadt"},"district":{"key":"05974","name":"Soest","type":"Kreis"},"federalState":{"key":"05","name":"Nordrhein-Westfalen"}},{"name":"Quadegasse","postalCode":"59494","locality":"Soest","municipality":{"key":"05974040","name":"Soest, Stadt","type":"Stadt"},"district":{"key":"05974","name":"Soest","type":"Kreis"},"federalState":{"key":"05","name":"Nordrhein-Westfalen"}},{"name":"Rathausstr.","postalCode":"59494","locality":"Soest","municipality":{"key":"05974040","name":"Soest, Stadt","type":"Stadt"},"district":{"key":"05974","name":"Soest","type":"Kreis"},"federalState":{"key":"05","name":"Nordrhein-Westfalen"}},{"name":"Rauhtopfweg","postalCode":"59494","locality":"Soest","municipality":{"key":"05974040","name":"Soest, Stadt","type":"Stadt"},"district":{"key":"05974","name":"Soest","type":"Kreis"},"federalState":{"key":"05","name":"Nordrhein-Westfalen"}},{"name":"Redigerweg","postalCode":"59494","locality":"Soest","municipality":{"key":"05974040","name":"Soest, Stadt","type":"Stadt"},"district":{"key":"05974","name":"Soest","type":"Kreis"},"federalState":{"key":"05","name":"Nordrhein-Westfalen"}},{"name":"Regenhertzweg","postalCode":"59494","locality":"Soest","municipality":{"key":"05974040","name":"Soest, Stadt","type":"Stadt"},"district":{"key":"05974","name":"Soest","type":"Kreis"},"federalState":{"key":"05","name":"Nordrhein-Westfalen"}},{"name":"Reichenbacher Weg","postalCode":"59494","locality":"Soest","municipality":{"key":"05974040","name":"Soest, Stadt","type":"Stadt"},"district":{"key":"05974","name":"Soest","type":"Kreis"},"federalState":{"key":"05","name":"Nordrhein-Westfalen"}},{"name":"Rennefeld","postalCode":"59494","locality":"Soest","municipality":{"key":"05974040","name":"Soest, Stadt","type":"Stadt"},"district":{"key":"05974","name":"Soest","type":"Kreis"},"federalState":{"key":"05","name":"Nordrhein-Westfalen"}},{"name":"Rennekamp","postalCode":"59494","locality":"Soest","municipality":{"key":"05974040","name":"Soest, Stadt","type":"Stadt"},"district":{"key":"05974","name":"Soest","type":"Kreis"},"federalState":{"key":"05","name":"Nordrhein-Westfalen"}},{"name":"Revalweg","postalCode":"59494","locality":"Soest","municipality":{"key":"05974040","name":"Soest, Stadt","type":"Stadt"},"district":{"key":"05974","name":"Soest","type":"Kreis"},"federalState":{"key":"05","name":"Nordrhein-Westfalen"}},{"name":"Ricarda-Huch-Weg","postalCode":"59494","locality":"Soest","municipality":{"key":"05974040","name":"Soest, Stadt","type":"Stadt"},"district":{"key":"05974","name":"Soest","type":"Kreis"},"federalState":{"key":"05","name":"Nordrhein-Westfalen"}},{"name":"Riga-Ring","postalCode":"59494","locality":"Soest","municipality":{"key":"05974040","name":"Soest, Stadt","type":"Stadt"},"district":{"key":"05974","name":"Soest","type":"Kreis"},"federalState":{"key":"05","name":"Nordrhein-Westfalen"}},{"name":"Rilkeweg","postalCode":"59494","locality":"Soest","municipality":{"key":"05974040","name":"Soest, Stadt","type":"Stadt"},"district":{"key":"05974","name":"Soest","type":"Kreis"},"federalState":{"key":"05","name":"Nordrhein-Westfalen"}},{"name":"Riskenweg","postalCode":"59494","locality":"Soest","municipality":{"key":"05974040","name":"Soest, Stadt","type":"Stadt"},"district":{"key":"05974","name":"Soest","type":"Kreis"},"federalState":{"key":"05","name":"Nordrhein-Westfalen"}},{"name":"Ritterstr.","postalCode":"59494","locality":"Soest","municipality":{"key":"05974040","name":"Soest, Stadt","type":"Stadt"},"district":{"key":"05974","name":"Soest","type":"Kreis"},"federalState":{"key":"05","name":"Nordrhein-Westfalen"}},{"name":"Robert-Hülsemann-Weg","postalCode":"59494","locality":"Soest","municipality":{"key":"05974040","name":"Soest, Stadt","type":"Stadt"},"district":{"key":"05974","name":"Soest","type":"Kreis"},"federalState":{"key":"05","name":"Nordrhein-Westfalen"}},{"name":"Rochollweg","postalCode":"59494","locality":"Soest","municipality":{"key":"05974040","name":"Soest, Stadt","type":"Stadt"},"district":{"key":"05974","name":"Soest","type":"Kreis"},"federalState":{"key":"05","name":"Nordrhein-Westfalen"}},{"name":"Rodingerweg","postalCode":"59494","locality":"Soest","municipality":{"key":"05974040","name":"Soest, Stadt","type":"Stadt"},"district":{"key":"05974","name":"Soest","type":"Kreis"},"federalState":{"key":"05","name":"Nordrhein-Westfalen"}},{"name":"Roggenwinkel","postalCode":"59494","locality":"Soest","municipality":{"key":"05974040","name":"Soest, Stadt","type":"Stadt"},"district":{"key":"05974","name":"Soest","type":"Kreis"},"federalState":{"key":"05","name":"Nordrhein-Westfalen"}},{"name":"Röllingser Weg","postalCode":"59494","locality":"Soest","municipality":{"key":"05974040","name":"Soest, Stadt","type":"Stadt"},"district":{"key":"05974","name":"Soest","type":"Kreis"},"federalState":{"key":"05","name":"Nordrhein-Westfalen"}},{"name":"Römerweg","postalCode":"59494","locality":"Soest","municipality":{"key":"05974040","name":"Soest, Stadt","type":"Stadt"},"district":{"key":"05974","name":"Soest","type":"Kreis"},"federalState":{"key":"05","name":"Nordrhein-Westfalen"}},{"name":"Romhofsgasse","postalCode":"59494","locality":"Soest","municipality":{"key":"05974040","name":"Soest, Stadt","type":"Stadt"},"district":{"key":"05974","name":"Soest","type":"Kreis"},"federalState":{"key":"05","name":"Nordrhein-Westfalen"}},{"name":"Rosenbaumweg","postalCode":"59494","locality":"Soest","municipality":{"key":"05974040","name":"Soest, Stadt","type":"Stadt"},"district":{"key":"05974","name":"Soest","type":"Kreis"},"federalState":{"key":"05","name":"Nordrhein-Westfalen"}},{"name":"Rosengarten","postalCode":"59494","locality":"Soest","municipality":{"key":"05974040","name":"Soest, Stadt","type":"Stadt"},"district":{"key":"05974","name":"Soest","type":"Kreis"},"federalState":{"key":"05","name":"Nordrhein-Westfalen"}},{"name":"Rosenplätze","postalCode":"59494","locality":"Soest","municipality":{"key":"05974040","name":"Soest, Stadt","type":"Stadt"},"district":{"key":"05974","name":"Soest","type":"Kreis"},"federalState":{"key":"05","name":"Nordrhein-Westfalen"}},{"name":"Rosenstr.","postalCode":"59494","locality":"Soest","municipality":{"key":"05974040","name":"Soest, Stadt","type":"Stadt"},"district":{"key":"05974","name":"Soest","type":"Kreis"},"federalState":{"key":"05","name":"Nordrhein-Westfalen"}},{"name":"Rössenerweg","postalCode":"59494","locality":"Soest","municipality":{"key":"05974040","name":"Soest, Stadt","type":"Stadt"},"district":{"key":"05974","name":"Soest","type":"Kreis"},"federalState":{"key":"05","name":"Nordrhein-Westfalen"}},{"name":"Roßkampffsgasse","postalCode":"59494","locality":"Soest","municipality":{"key":"05974040","name":"Soest, Stadt","type":"Stadt"},"district":{"key":"05974","name":"Soest","type":"Kreis"},"federalState":{"key":"05","name":"Nordrhein-Westfalen"}},{"name":"Rostockweg","postalCode":"59494","locality":"Soest","municipality":{"key":"05974040","name":"Soest, Stadt","type":"Stadt"},"district":{"key":"05974","name":"Soest","type":"Kreis"},"federalState":{"key":"05","name":"Nordrhein-Westfalen"}},{"name":"Rothertweg","postalCode":"59494","locality":"Soest","municipality":{"key":"05974040","name":"Soest, Stadt","type":"Stadt"},"district":{"key":"05974","name":"Soest","type":"Kreis"},"federalState":{"key":"05","name":"Nordrhein-Westfalen"}},{"name":"Rottlandweg","postalCode":"59494","locality":"Soest","municipality":{"key":"05974040","name":"Soest, Stadt","type":"Stadt"},"district":{"key":"05974","name":"Soest","type":"Kreis"},"federalState":{"key":"05","name":"Nordrhein-Westfalen"}},{"name":"Ruhrstr.","postalCode":"59494","locality":"Soest","municipality":{"key":"05974040","name":"Soest, Stadt","type":"Stadt"},"district":{"key":"05974","name":"Soest","type":"Kreis"},"federalState":{"key":"05","name":"Nordrhein-Westfalen"}},{"name":"Ruploher Weg","postalCode":"59494","locality":"Soest","municipality":{"key":"05974040","name":"Soest, Stadt","type":"Stadt"},"district":{"key":"05974","name":"Soest","type":"Kreis"},"federalState":{"key":"05","name":"Nordrhein-Westfalen"}},{"name":"Rüthener Str.","postalCode":"59494","locality":"Soest","municipality":{"key":"05974040","name":"Soest, Stadt","type":"Stadt"},"district":{"key":"05974","name":"Soest","type":"Kreis"},"federalState":{"key":"05","name":"Nordrhein-Westfalen"}},{"name":"Sabine-Rosenbaum-Weg","postalCode":"59494","locality":"Soest","municipality":{"key":"05974040","name":"Soest, Stadt","type":"Stadt"},"district":{"key":"05974","name":"Soest","type":"Kreis"},"federalState":{"key":"05","name":"Nordrhein-Westfalen"}},{"name":"Sachsenspiegelweg","postalCode":"59494","locality":"Soest","municipality":{"key":"05974040","name":"Soest, Stadt","type":"Stadt"},"district":{"key":"05974","name":"Soest","type":"Kreis"},"federalState":{"key":"05","name":"Nordrhein-Westfalen"}},{"name":"Sachsenweg","postalCode":"59494","locality":"Soest","municipality":{"key":"05974040","name":"Soest, Stadt","type":"Stadt"},"district":{"key":"05974","name":"Soest","type":"Kreis"},"federalState":{"key":"05","name":"Nordrhein-Westfalen"}},{"name":"Salinenweg","postalCode":"59494","locality":"Soest","municipality":{"key":"05974040","name":"Soest, Stadt","type":"Stadt"},"district":{"key":"05974","name":"Soest","type":"Kreis"},"federalState":{"key":"05","name":"Nordrhein-Westfalen"}},{"name":"Salzbrink","postalCode":"59494","locality":"Soest","municipality":{"key":"05974040","name":"Soest, Stadt","type":"Stadt"},"district":{"key":"05974","name":"Soest","type":"Kreis"},"federalState":{"key":"05","name":"Nordrhein-Westfalen"}},{"name":"Sälzerweg","postalCode":"59494","locality":"Soest","municipality":{"key":"05974040","name":"Soest, Stadt","type":"Stadt"},"district":{"key":"05974","name":"Soest","type":"Kreis"},"federalState":{"key":"05","name":"Nordrhein-Westfalen"}},{"name":"Salzmüllerweg","postalCode":"59494","locality":"Soest","municipality":{"key":"05974040","name":"Soest, Stadt","type":"Stadt"},"district":{"key":"05974","name":"Soest","type":"Kreis"},"federalState":{"key":"05","name":"Nordrhein-Westfalen"}},{"name":"Sandwelle","postalCode":"59494","locality":"Soest","municipality":{"key":"05974040","name":"Soest, Stadt","type":"Stadt"},"district":{"key":"05974","name":"Soest","type":"Kreis"},"federalState":{"key":"05","name":"Nordrhein-Westfalen"}},{"name":"Sankt-Lorenz-Weg","postalCode":"59494","locality":"Soest","municipality":{"key":"05974040","name":"Soest, Stadt","type":"Stadt"},"district":{"key":"05974","name":"Soest","type":"Kreis"},"federalState":{"key":"05","name":"Nordrhein-Westfalen"}},{"name":"Sassendorfer Weg","postalCode":"59494","locality":"Soest","municipality":{"key":"05974040","name":"Soest, Stadt","type":"Stadt"},"district":{"key":"05974","name":"Soest","type":"Kreis"},"federalState":{"key":"05","name":"Nordrhein-Westfalen"}},{"name":"Sauerweg","postalCode":"59494","locality":"Soest","municipality":{"key":"05974040","name":"Soest, Stadt","type":"Stadt"},"district":{"key":"05974","name":"Soest","type":"Kreis"},"federalState":{"key":"05","name":"Nordrhein-Westfalen"}},{"name":"Schaphusenweg","postalCode":"59494","locality":"Soest","municipality":{"key":"05974040","name":"Soest, Stadt","type":"Stadt"},"district":{"key":"05974","name":"Soest","type":"Kreis"},"federalState":{"key":"05","name":"Nordrhein-Westfalen"}},{"name":"Schlangenweg","postalCode":"59494","locality":"Soest","municipality":{"key":"05974040","name":"Soest, Stadt","type":"Stadt"},"district":{"key":"05974","name":"Soest","type":"Kreis"},"federalState":{"key":"05","name":"Nordrhein-Westfalen"}},{"name":"Schleddestr.","postalCode":"59494","locality":"Soest","municipality":{"key":"05974040","name":"Soest, Stadt","type":"Stadt"},"district":{"key":"05974","name":"Soest","type":"Kreis"},"federalState":{"key":"05","name":"Nordrhein-Westfalen"}},{"name":"Schleddeufer","postalCode":"59494","locality":"Soest","municipality":{"key":"05974040","name":"Soest, Stadt","type":"Stadt"},"district":{"key":"05974","name":"Soest","type":"Kreis"},"federalState":{"key":"05","name":"Nordrhein-Westfalen"}},{"name":"Schlesische Str.","postalCode":"59494","locality":"Soest","municipality":{"key":"05974040","name":"Soest, Stadt","type":"Stadt"},"district":{"key":"05974","name":"Soest","type":"Kreis"},"federalState":{"key":"05","name":"Nordrhein-Westfalen"}},{"name":"Schleswiger Ring","postalCode":"59494","locality":"Soest","municipality":{"key":"05974040","name":"Soest, Stadt","type":"Stadt"},"district":{"key":"05974","name":"Soest","type":"Kreis"},"federalState":{"key":"05","name":"Nordrhein-Westfalen"}},{"name":"Schloitweg","postalCode":"59494","locality":"Soest","municipality":{"key":"05974040","name":"Soest, Stadt","type":"Stadt"},"district":{"key":"05974","name":"Soest","type":"Kreis"},"federalState":{"key":"05","name":"Nordrhein-Westfalen"}},{"name":"Schmale Trift","postalCode":"59494","locality":"Soest","municipality":{"key":"05974040","name":"Soest, Stadt","type":"Stadt"},"district":{"key":"05974","name":"Soest","type":"Kreis"},"federalState":{"key":"05","name":"Nordrhein-Westfalen"}},{"name":"Schmückersweg","postalCode":"59494","locality":"Soest","municipality":{"key":"05974040","name":"Soest, Stadt","type":"Stadt"},"district":{"key":"05974","name":"Soest","type":"Kreis"},"federalState":{"key":"05","name":"Nordrhein-Westfalen"}},{"name":"Schonekindstr.","postalCode":"59494","locality":"Soest","municipality":{"key":"05974040","name":"Soest, Stadt","type":"Stadt"},"district":{"key":"05974","name":"Soest","type":"Kreis"},"federalState":{"key":"05","name":"Nordrhein-Westfalen"}},{"name":"Schoofweg","postalCode":"59494","locality":"Soest","municipality":{"key":"05974040","name":"Soest, Stadt","type":"Stadt"},"district":{"key":"05974","name":"Soest","type":"Kreis"},"federalState":{"key":"05","name":"Nordrhein-Westfalen"}},{"name":"Schottenteich","postalCode":"59494","locality":"Soest","municipality":{"key":"05974040","name":"Soest, Stadt","type":"Stadt"},"district":{"key":"05974","name":"Soest","type":"Kreis"},"federalState":{"key":"05","name":"Nordrhein-Westfalen"}},{"name":"Schriewers Kamp","postalCode":"59494","locality":"Soest","municipality":{"key":"05974040","name":"Soest, Stadt","type":"Stadt"},"district":{"key":"05974","name":"Soest","type":"Kreis"},"federalState":{"key":"05","name":"Nordrhein-Westfalen"}},{"name":"Schroederweg","postalCode":"59494","locality":"Soest","municipality":{"key":"05974040","name":"Soest, Stadt","type":"Stadt"},"district":{"key":"05974","name":"Soest","type":"Kreis"},"federalState":{"key":"05","name":"Nordrhein-Westfalen"}},{"name":"Schüerhoffweg","postalCode":"59494","locality":"Soest","municipality":{"key":"05974040","name":"Soest, Stadt","type":"Stadt"},"district":{"key":"05974","name":"Soest","type":"Kreis"},"federalState":{"key":"05","name":"Nordrhein-Westfalen"}},{"name":"Schulenburgweg","postalCode":"59494","locality":"Soest","municipality":{"key":"05974040","name":"Soest, Stadt","type":"Stadt"},"district":{"key":"05974","name":"Soest","type":"Kreis"},"federalState":{"key":"05","name":"Nordrhein-Westfalen"}},{"name":"Schulgartenweg","postalCode":"59494","locality":"Soest","municipality":{"key":"05974040","name":"Soest, Stadt","type":"Stadt"},"district":{"key":"05974","name":"Soest","type":"Kreis"},"federalState":{"key":"05","name":"Nordrhein-Westfalen"}},{"name":"Schulgasse","postalCode":"59494","locality":"Soest","municipality":{"key":"05974040","name":"Soest, Stadt","type":"Stadt"},"district":{"key":"05974","name":"Soest","type":"Kreis"},"federalState":{"key":"05","name":"Nordrhein-Westfalen"}},{"name":"Schültingerstr.","postalCode":"59494","locality":"Soest","municipality":{"key":"05974040","name":"Soest, Stadt","type":"Stadt"},"district":{"key":"05974","name":"Soest","type":"Kreis"},"federalState":{"key":"05","name":"Nordrhein-Westfalen"}},{"name":"Schüngelgasse","postalCode":"59494","locality":"Soest","municipality":{"key":"05974040","name":"Soest, Stadt","type":"Stadt"},"district":{"key":"05974","name":"Soest","type":"Kreis"},"federalState":{"key":"05","name":"Nordrhein-Westfalen"}},{"name":"Schüttweg","postalCode":"59494","locality":"Soest","municipality":{"key":"05974040","name":"Soest, Stadt","type":"Stadt"},"district":{"key":"05974","name":"Soest","type":"Kreis"},"federalState":{"key":"05","name":"Nordrhein-Westfalen"}},{"name":"Schützenhofstr.","postalCode":"59494","locality":"Soest","municipality":{"key":"05974040","name":"Soest, Stadt","type":"Stadt"},"district":{"key":"05974","name":"Soest","type":"Kreis"},"federalState":{"key":"05","name":"Nordrhein-Westfalen"}},{"name":"Schützenstr.","postalCode":"59494","locality":"Soest","municipality":{"key":"05974040","name":"Soest, Stadt","type":"Stadt"},"district":{"key":"05974","name":"Soest","type":"Kreis"},"federalState":{"key":"05","name":"Nordrhein-Westfalen"}},{"name":"Schwalbenstr.","postalCode":"59494","locality":"Soest","municipality":{"key":"05974040","name":"Soest, Stadt","type":"Stadt"},"district":{"key":"05974","name":"Soest","type":"Kreis"},"federalState":{"key":"05","name":"Nordrhein-Westfalen"}},{"name":"Schwarzeborngasse","postalCode":"59494","locality":"Soest","municipality":{"key":"05974040","name":"Soest, Stadt","type":"Stadt"},"district":{"key":"05974","name":"Soest","type":"Kreis"},"federalState":{"key":"05","name":"Nordrhein-Westfalen"}},{"name":"Schwarzer Weg","postalCode":"59494","locality":"Soest","municipality":{"key":"05974040","name":"Soest, Stadt","type":"Stadt"},"district":{"key":"05974","name":"Soest","type":"Kreis"},"federalState":{"key":"05","name":"Nordrhein-Westfalen"}},{"name":"Schwedenweg","postalCode":"59494","locality":"Soest","municipality":{"key":"05974040","name":"Soest, Stadt","type":"Stadt"},"district":{"key":"05974","name":"Soest","type":"Kreis"},"federalState":{"key":"05","name":"Nordrhein-Westfalen"}},{"name":"Schwefer Str.","postalCode":"59494","locality":"Soest","municipality":{"key":"05974040","name":"Soest, Stadt","type":"Stadt"},"district":{"key":"05974","name":"Soest","type":"Kreis"},"federalState":{"key":"05","name":"Nordrhein-Westfalen"}},{"name":"Schwemeckerweg","postalCode":"59494","locality":"Soest","municipality":{"key":"05974040","name":"Soest, Stadt","type":"Stadt"},"district":{"key":"05974","name":"Soest","type":"Kreis"},"federalState":{"key":"05","name":"Nordrhein-Westfalen"}},{"name":"Sebastianweg","postalCode":"59494","locality":"Soest","municipality":{"key":"05974040","name":"Soest, Stadt","type":"Stadt"},"district":{"key":"05974","name":"Soest","type":"Kreis"},"federalState":{"key":"05","name":"Nordrhein-Westfalen"}},{"name":"Seidenstückerweg","postalCode":"59494","locality":"Soest","municipality":{"key":"05974040","name":"Soest, Stadt","type":"Stadt"},"district":{"key":"05974","name":"Soest","type":"Kreis"},"federalState":{"key":"05","name":"Nordrhein-Westfalen"}},{"name":"Seifensiederweg","postalCode":"59494","locality":"Soest","municipality":{"key":"05974040","name":"Soest, Stadt","type":"Stadt"},"district":{"key":"05974","name":"Soest","type":"Kreis"},"federalState":{"key":"05","name":"Nordrhein-Westfalen"}},{"name":"Seminarweg","postalCode":"59494","locality":"Soest","municipality":{"key":"05974040","name":"Soest, Stadt","type":"Stadt"},"district":{"key":"05974","name":"Soest","type":"Kreis"},"federalState":{"key":"05","name":"Nordrhein-Westfalen"}},{"name":"Senator-Schwartz-Ring","postalCode":"59494","locality":"Soest","municipality":{"key":"05974040","name":"Soest, Stadt","type":"Stadt"},"district":{"key":"05974","name":"Soest","type":"Kreis"},"federalState":{"key":"05","name":"Nordrhein-Westfalen"}},{"name":"Severinstr.","postalCode":"59494","locality":"Soest","municipality":{"key":"05974040","name":"Soest, Stadt","type":"Stadt"},"district":{"key":"05974","name":"Soest","type":"Kreis"},"federalState":{"key":"05","name":"Nordrhein-Westfalen"}},{"name":"Siechenstr.","postalCode":"59494","locality":"Soest","municipality":{"key":"05974040","name":"Soest, Stadt","type":"Stadt"},"district":{"key":"05974","name":"Soest","type":"Kreis"},"federalState":{"key":"05","name":"Nordrhein-Westfalen"}},{"name":"Siegener Str.","postalCode":"59494","locality":"Soest","municipality":{"key":"05974040","name":"Soest, Stadt","type":"Stadt"},"district":{"key":"05974","name":"Soest","type":"Kreis"},"federalState":{"key":"05","name":"Nordrhein-Westfalen"}},{"name":"Siegmund-Schultze-Weg","postalCode":"59494","locality":"Soest","municipality":{"key":"05974040","name":"Soest, Stadt","type":"Stadt"},"district":{"key":"05974","name":"Soest","type":"Kreis"},"federalState":{"key":"05","name":"Nordrhein-Westfalen"}},{"name":"Sieveringer Kirchweg","postalCode":"59494","locality":"Soest","municipality":{"key":"05974040","name":"Soest, Stadt","type":"Stadt"},"district":{"key":"05974","name":"Soest","type":"Kreis"},"federalState":{"key":"05","name":"Nordrhein-Westfalen"}},{"name":"Talweg","postalCode":"59494","locality":"Soest","municipality":{"key":"05974040","name":"Soest, Stadt","type":"Stadt"},"district":{"key":"05974","name":"Soest","type":"Kreis"},"federalState":{"key":"05","name":"Nordrhein-Westfalen"}},{"name":"Tappeweg","postalCode":"59494","locality":"Soest","municipality":{"key":"05974040","name":"Soest, Stadt","type":"Stadt"},"district":{"key":"05974","name":"Soest","type":"Kreis"},"federalState":{"key":"05","name":"Nordrhein-Westfalen"}},{"name":"Teichsmühlengasse","postalCode":"59494","locality":"Soest","municipality":{"key":"05974040","name":"Soest, Stadt","type":"Stadt"},"district":{"key":"05974","name":"Soest","type":"Kreis"},"federalState":{"key":"05","name":"Nordrhein-Westfalen"}},{"name":"Teinenkamp","postalCode":"59494","locality":"Soest","municipality":{"key":"05974040","name":"Soest, Stadt","type":"Stadt"},"district":{"key":"05974","name":"Soest","type":"Kreis"},"federalState":{"key":"05","name":"Nordrhein-Westfalen"}},{"name":"Terlindenweg","postalCode":"59494","locality":"Soest","municipality":{"key":"05974040","name":"Soest, Stadt","type":"Stadt"},"district":{"key":"05974","name":"Soest","type":"Kreis"},"federalState":{"key":"05","name":"Nordrhein-Westfalen"}},{"name":"Theodor-Heuss-Park","postalCode":"59494","locality":"Soest","municipality":{"key":"05974040","name":"Soest, Stadt","type":"Stadt"},"district":{"key":"05974","name":"Soest","type":"Kreis"},"federalState":{"key":"05","name":"Nordrhein-Westfalen"}},{"name":"Thidrekweg","postalCode":"59494","locality":"Soest","municipality":{"key":"05974040","name":"Soest, Stadt","type":"Stadt"},"district":{"key":"05974","name":"Soest","type":"Kreis"},"federalState":{"key":"05","name":"Nordrhein-Westfalen"}},{"name":"Thomä-Grandweger-Wallstr.","postalCode":"59494","locality":"Soest","municipality":{"key":"05974040","name":"Soest, Stadt","type":"Stadt"},"district":{"key":"05974","name":"Soest","type":"Kreis"},"federalState":{"key":"05","name":"Nordrhein-Westfalen"}},{"name":"Thomas-Borchwede-Weg","postalCode":"59494","locality":"Soest","municipality":{"key":"05974040","name":"Soest, Stadt","type":"Stadt"},"district":{"key":"05974","name":"Soest","type":"Kreis"},"federalState":{"key":"05","name":"Nordrhein-Westfalen"}},{"name":"Thomäschäfergasse","postalCode":"59494","locality":"Soest","municipality":{"key":"05974040","name":"Soest, Stadt","type":"Stadt"},"district":{"key":"05974","name":"Soest","type":"Kreis"},"federalState":{"key":"05","name":"Nordrhein-Westfalen"}},{"name":"Thomästr.","postalCode":"59494","locality":"Soest","municipality":{"key":"05974040","name":"Soest, Stadt","type":"Stadt"},"district":{"key":"05974","name":"Soest","type":"Kreis"},"federalState":{"key":"05","name":"Nordrhein-Westfalen"}},{"name":"Thomas-Woesthoff-Weg","postalCode":"59494","locality":"Soest","municipality":{"key":"05974040","name":"Soest, Stadt","type":"Stadt"},"district":{"key":"05974","name":"Soest","type":"Kreis"},"federalState":{"key":"05","name":"Nordrhein-Westfalen"}},{"name":"Thomätor","postalCode":"59494","locality":"Soest","municipality":{"key":"05974040","name":"Soest, Stadt","type":"Stadt"},"district":{"key":"05974","name":"Soest","type":"Kreis"},"federalState":{"key":"05","name":"Nordrhein-Westfalen"}},{"name":"Thöningser Str.","postalCode":"59494","locality":"Soest","municipality":{"key":"05974040","name":"Soest, Stadt","type":"Stadt"},"district":{"key":"05974","name":"Soest","type":"Kreis"},"federalState":{"key":"05","name":"Nordrhein-Westfalen"}},{"name":"Thornweg","postalCode":"59494","locality":"Soest","municipality":{"key":"05974040","name":"Soest, Stadt","type":"Stadt"},"district":{"key":"05974","name":"Soest","type":"Kreis"},"federalState":{"key":"05","name":"Nordrhein-Westfalen"}},{"name":"Tienenweg","postalCode":"59494","locality":"Soest","municipality":{"key":"05974040","name":"Soest, Stadt","type":"Stadt"},"district":{"key":"05974","name":"Soest","type":"Kreis"},"federalState":{"key":"05","name":"Nordrhein-Westfalen"}},{"name":"Tillyweg","postalCode":"59494","locality":"Soest","municipality":{"key":"05974040","name":"Soest, Stadt","type":"Stadt"},"district":{"key":"05974","name":"Soest","type":"Kreis"},"federalState":{"key":"05","name":"Nordrhein-Westfalen"}},{"name":"Torschreiberweg","postalCode":"59494","locality":"Soest","municipality":{"key":"05974040","name":"Soest, Stadt","type":"Stadt"},"district":{"key":"05974","name":"Soest","type":"Kreis"},"federalState":{"key":"05","name":"Nordrhein-Westfalen"}},{"name":"Trellenweg","postalCode":"59494","locality":"Soest","municipality":{"key":"05974040","name":"Soest, Stadt","type":"Stadt"},"district":{"key":"05974","name":"Soest","type":"Kreis"},"federalState":{"key":"05","name":"Nordrhein-Westfalen"}},{"name":"Troyesweg","postalCode":"59494","locality":"Soest","municipality":{"key":"05974040","name":"Soest, Stadt","type":"Stadt"},"district":{"key":"05974","name":"Soest","type":"Kreis"},"federalState":{"key":"05","name":"Nordrhein-Westfalen"}},{"name":"Turmwächterweg","postalCode":"59494","locality":"Soest","municipality":{"key":"05974040","name":"Soest, Stadt","type":"Stadt"},"district":{"key":"05974","name":"Soest","type":"Kreis"},"federalState":{"key":"05","name":"Nordrhein-Westfalen"}},{"name":"Twiete","postalCode":"59494","locality":"Soest","municipality":{"key":"05974040","name":"Soest, Stadt","type":"Stadt"},"district":{"key":"05974","name":"Soest","type":"Kreis"},"federalState":{"key":"05","name":"Nordrhein-Westfalen"}},{"name":"Twifelerweg","postalCode":"59494","locality":"Soest","municipality":{"key":"05974040","name":"Soest, Stadt","type":"Stadt"},"district":{"key":"05974","name":"Soest","type":"Kreis"},"federalState":{"key":"05","name":"Nordrhein-Westfalen"}},{"name":"Ueliksgasse","postalCode":"59494","locality":"Soest","municipality":{"key":"05974040","name":"Soest, Stadt","type":"Stadt"},"district":{"key":"05974","name":"Soest","type":"Kreis"},"federalState":{"key":"05","name":"Nordrhein-Westfalen"}},{"name":"Ulmenstr.","postalCode":"59494","locality":"Soest","municipality":{"key":"05974040","name":"Soest, Stadt","type":"Stadt"},"district":{"key":"05974","name":"Soest","type":"Kreis"},"federalState":{"key":"05","name":"Nordrhein-Westfalen"}},{"name":"Ulrichertor","postalCode":"59494","locality":"Soest","municipality":{"key":"05974040","name":"Soest, Stadt","type":"Stadt"},"district":{"key":"05974","name":"Soest","type":"Kreis"},"federalState":{"key":"05","name":"Nordrhein-Westfalen"}},{"name":"Ulrich-Jakobi-Wallstr.","postalCode":"59494","locality":"Soest","municipality":{"key":"05974040","name":"Soest, Stadt","type":"Stadt"},"district":{"key":"05974","name":"Soest","type":"Kreis"},"federalState":{"key":"05","name":"Nordrhein-Westfalen"}},{"name":"Ulsleben-Gasse","postalCode":"59494","locality":"Soest","municipality":{"key":"05974040","name":"Soest, Stadt","type":"Stadt"},"district":{"key":"05974","name":"Soest","type":"Kreis"},"federalState":{"key":"05","name":"Nordrhein-Westfalen"}},{"name":"Vogelerweg","postalCode":"59494","locality":"Soest","municipality":{"key":"05974040","name":"Soest, Stadt","type":"Stadt"},"district":{"key":"05974","name":"Soest","type":"Kreis"},"federalState":{"key":"05","name":"Nordrhein-Westfalen"}},{"name":"Vogelkamp","postalCode":"59494","locality":"Soest","municipality":{"key":"05974040","name":"Soest, Stadt","type":"Stadt"},"district":{"key":"05974","name":"Soest","type":"Kreis"},"federalState":{"key":"05","name":"Nordrhein-Westfalen"}},{"name":"Vogelsänger Weg","postalCode":"59494","locality":"Soest","municipality":{"key":"05974040","name":"Soest, Stadt","type":"Stadt"},"district":{"key":"05974","name":"Soest","type":"Kreis"},"federalState":{"key":"05","name":"Nordrhein-Westfalen"}},{"name":"Vöhdeweg","postalCode":"59494","locality":"Soest","municipality":{"key":"05974040","name":"Soest, Stadt","type":"Stadt"},"district":{"key":"05974","name":"Soest","type":"Kreis"},"federalState":{"key":"05","name":"Nordrhein-Westfalen"}},{"name":"Volmarsteinweg","postalCode":"59494","locality":"Soest","municipality":{"key":"05974040","name":"Soest, Stadt","type":"Stadt"},"district":{"key":"05974","name":"Soest","type":"Kreis"},"federalState":{"key":"05","name":"Nordrhein-Westfalen"}},{"name":"Vom-Lo-Weg","postalCode":"59494","locality":"Soest","municipality":{"key":"05974040","name":"Soest, Stadt","type":"Stadt"},"district":{"key":"05974","name":"Soest","type":"Kreis"},"federalState":{"key":"05","name":"Nordrhein-Westfalen"}},{"name":"Von-Köppen-Weg","postalCode":"59494","locality":"Soest","municipality":{"key":"05974040","name":"Soest, Stadt","type":"Stadt"},"district":{"key":"05974","name":"Soest","type":"Kreis"},"federalState":{"key":"05","name":"Nordrhein-Westfalen"}},{"name":"Vor dem Schonekindtor","postalCode":"59494","locality":"Soest","municipality":{"key":"05974040","name":"Soest, Stadt","type":"Stadt"},"district":{"key":"05974","name":"Soest","type":"Kreis"},"federalState":{"key":"05","name":"Nordrhein-Westfalen"}},{"name":"Vor dem Schültingertor","postalCode":"59494","locality":"Soest","municipality":{"key":"05974040","name":"Soest, Stadt","type":"Stadt"},"district":{"key":"05974","name":"Soest","type":"Kreis"},"federalState":{"key":"05","name":"Nordrhein-Westfalen"}},{"name":"Vor dem Walburgertor","postalCode":"59494","locality":"Soest","municipality":{"key":"05974040","name":"Soest, Stadt","type":"Stadt"},"district":{"key":"05974","name":"Soest","type":"Kreis"},"federalState":{"key":"05","name":"Nordrhein-Westfalen"}},{"name":"Vrischemaiweg","postalCode":"59494","locality":"Soest","municipality":{"key":"05974040","name":"Soest, Stadt","type":"Stadt"},"district":{"key":"05974","name":"Soest","type":"Kreis"},"federalState":{"key":"05","name":"Nordrhein-Westfalen"}},{"name":"Wagenfeldweg","postalCode":"59494","locality":"Soest","municipality":{"key":"05974040","name":"Soest, Stadt","type":"Stadt"},"district":{"key":"05974","name":"Soest","type":"Kreis"},"federalState":{"key":"05","name":"Nordrhein-Westfalen"}},{"name":"Waisenhausstr.","postalCode":"59494","locality":"Soest","municipality":{"key":"05974040","name":"Soest, Stadt","type":"Stadt"},"district":{"key":"05974","name":"Soest","type":"Kreis"},"federalState":{"key":"05","name":"Nordrhein-Westfalen"}},{"name":"Walburger-Osthofen-Wallstr.","postalCode":"59494","locality":"Soest","municipality":{"key":"05974040","name":"Soest, Stadt","type":"Stadt"},"district":{"key":"05974","name":"Soest","type":"Kreis"},"federalState":{"key":"05","name":"Nordrhein-Westfalen"}},{"name":"Walburgerschäfergasse","postalCode":"59494","locality":"Soest","municipality":{"key":"05974040","name":"Soest, Stadt","type":"Stadt"},"district":{"key":"05974","name":"Soest","type":"Kreis"},"federalState":{"key":"05","name":"Nordrhein-Westfalen"}},{"name":"Walburgerstr.","postalCode":"59494","locality":"Soest","municipality":{"key":"05974040","name":"Soest, Stadt","type":"Stadt"},"district":{"key":"05974","name":"Soest","type":"Kreis"},"federalState":{"key":"05","name":"Nordrhein-Westfalen"}},{"name":"Waldecker Weg","postalCode":"59494","locality":"Soest","municipality":{"key":"05974040","name":"Soest, Stadt","type":"Stadt"},"district":{"key":"05974","name":"Soest","type":"Kreis"},"federalState":{"key":"05","name":"Nordrhein-Westfalen"}},{"name":"Waldenburger Weg","postalCode":"59494","locality":"Soest","municipality":{"key":"05974040","name":"Soest, Stadt","type":"Stadt"},"district":{"key":"05974","name":"Soest","type":"Kreis"},"federalState":{"key":"05","name":"Nordrhein-Westfalen"}},{"name":"Waldstr.","postalCode":"59494","locality":"Soest","municipality":{"key":"05974040","name":"Soest, Stadt","type":"Stadt"},"district":{"key":"05974","name":"Soest","type":"Kreis"},"federalState":{"key":"05","name":"Nordrhein-Westfalen"}},{"name":"Waldweg","postalCode":"59494","locality":"Soest","municipality":{"key":"05974040","name":"Soest, Stadt","type":"Stadt"},"district":{"key":"05974","name":"Soest","type":"Kreis"},"federalState":{"key":"05","name":"Nordrhein-Westfalen"}},{"name":"Walenweg","postalCode":"59494","locality":"Soest","municipality":{"key":"05974040","name":"Soest, Stadt","type":"Stadt"},"district":{"key":"05974","name":"Soest","type":"Kreis"},"federalState":{"key":"05","name":"Nordrhein-Westfalen"}},{"name":"Wall","postalCode":"59494","locality":"Soest","municipality":{"key":"05974040","name":"Soest, Stadt","type":"Stadt"},"district":{"key":"05974","name":"Soest","type":"Kreis"},"federalState":{"key":"05","name":"Nordrhein-Westfalen"}},{"name":"Wallensteinweg","postalCode":"59494","locality":"Soest","municipality":{"key":"05974040","name":"Soest, Stadt","type":"Stadt"},"district":{"key":"05974","name":"Soest","type":"Kreis"},"federalState":{"key":"05","name":"Nordrhein-Westfalen"}},{"name":"Walrabenweg","postalCode":"59494","locality":"Soest","municipality":{"key":"05974040","name":"Soest, Stadt","type":"Stadt"},"district":{"key":"05974","name":"Soest","type":"Kreis"},"federalState":{"key":"05","name":"Nordrhein-Westfalen"}},{"name":"Walternweg","postalCode":"59494","locality":"Soest","municipality":{"key":"05974040","name":"Soest, Stadt","type":"Stadt"},"district":{"key":"05974","name":"Soest","type":"Kreis"},"federalState":{"key":"05","name":"Nordrhein-Westfalen"}},{"name":"Warsteiner Weg","postalCode":"59494","locality":"Soest","municipality":{"key":"05974040","name":"Soest, Stadt","type":"Stadt"},"district":{"key":"05974","name":"Soest","type":"Kreis"},"federalState":{"key":"05","name":"Nordrhein-Westfalen"}},{"name":"Wehringser Weg","postalCode":"59494","locality":"Soest","municipality":{"key":"05974040","name":"Soest, Stadt","type":"Stadt"},"district":{"key":"05974","name":"Soest","type":"Kreis"},"federalState":{"key":"05","name":"Nordrhein-Westfalen"}},{"name":"Weizenwinkel","postalCode":"59494","locality":"Soest","municipality":{"key":"05974040","name":"Soest, Stadt","type":"Stadt"},"district":{"key":"05974","name":"Soest","type":"Kreis"},"federalState":{"key":"05","name":"Nordrhein-Westfalen"}},{"name":"Wenningweg","postalCode":"59494","locality":"Soest","municipality":{"key":"05974040","name":"Soest, Stadt","type":"Stadt"},"district":{"key":"05974","name":"Soest","type":"Kreis"},"federalState":{"key":"05","name":"Nordrhein-Westfalen"}},{"name":"Werkstr.","postalCode":"59494","locality":"Soest","municipality":{"key":"05974040","name":"Soest, Stadt","type":"Stadt"},"district":{"key":"05974","name":"Soest","type":"Kreis"},"federalState":{"key":"05","name":"Nordrhein-Westfalen"}},{"name":"Werler Landstr.","postalCode":"59494","locality":"Soest","municipality":{"key":"05974040","name":"Soest, Stadt","type":"Stadt"},"district":{"key":"05974","name":"Soest","type":"Kreis"},"federalState":{"key":"05","name":"Nordrhein-Westfalen"}},{"name":"Werneweg","postalCode":"59494","locality":"Soest","municipality":{"key":"05974040","name":"Soest, Stadt","type":"Stadt"},"district":{"key":"05974","name":"Soest","type":"Kreis"},"federalState":{"key":"05","name":"Nordrhein-Westfalen"}},{"name":"Weslarner Weg","postalCode":"59494","locality":"Soest","municipality":{"key":"05974040","name":"Soest, Stadt","type":"Stadt"},"district":{"key":"05974","name":"Soest","type":"Kreis"},"federalState":{"key":"05","name":"Nordrhein-Westfalen"}},{"name":"Westenhellweg","postalCode":"59494","locality":"Soest","municipality":{"key":"05974040","name":"Soest, Stadt","type":"Stadt"},"district":{"key":"05974","name":"Soest","type":"Kreis"},"federalState":{"key":"05","name":"Nordrhein-Westfalen"}},{"name":"Westfalenweg","postalCode":"59494","locality":"Soest","municipality":{"key":"05974040","name":"Soest, Stadt","type":"Stadt"},"district":{"key":"05974","name":"Soest","type":"Kreis"},"federalState":{"key":"05","name":"Nordrhein-Westfalen"}},{"name":"Westfälischer-Friede-Weg","postalCode":"59494","locality":"Soest","municipality":{"key":"05974040","name":"Soest, Stadt","type":"Stadt"},"district":{"key":"05974","name":"Soest","type":"Kreis"},"federalState":{"key":"05","name":"Nordrhein-Westfalen"}},{"name":"Widumgasse","postalCode":"59494","locality":"Soest","municipality":{"key":"05974040","name":"Soest, Stadt","type":"Stadt"},"district":{"key":"05974","name":"Soest","type":"Kreis"},"federalState":{"key":"05","name":"Nordrhein-Westfalen"}},{"name":"Wiesenstr.","postalCode":"59494","locality":"Soest","municipality":{"key":"05974040","name":"Soest, Stadt","type":"Stadt"},"district":{"key":"05974","name":"Soest","type":"Kreis"},"federalState":{"key":"05","name":"Nordrhein-Westfalen"}},{"name":"Wiesmannweg","postalCode":"59494","locality":"Soest","municipality":{"key":"05974040","name":"Soest, Stadt","type":"Stadt"},"district":{"key":"05974","name":"Soest","type":"Kreis"},"federalState":{"key":"05","name":"Nordrhein-Westfalen"}},{"name":"Wiethofstr.","postalCode":"59494","locality":"Soest","municipality":{"key":"05974040","name":"Soest, Stadt","type":"Stadt"},"district":{"key":"05974","name":"Soest","type":"Kreis"},"federalState":{"key":"05","name":"Nordrhein-Westfalen"}},{"name":"Wigbold-von-Holte-Str.","postalCode":"59494","locality":"Soest","municipality":{"key":"05974040","name":"Soest, Stadt","type":"Stadt"},"district":{"key":"05974","name":"Soest","type":"Kreis"},"federalState":{"key":"05","name":"Nordrhein-Westfalen"}},{"name":"Wiggenbrink","postalCode":"59494","locality":"Soest","municipality":{"key":"05974040","name":"Soest, Stadt","type":"Stadt"},"district":{"key":"05974","name":"Soest","type":"Kreis"},"federalState":{"key":"05","name":"Nordrhein-Westfalen"}},{"name":"Wildemannsgasse","postalCode":"59494","locality":"Soest","municipality":{"key":"05974040","name":"Soest, Stadt","type":"Stadt"},"district":{"key":"05974","name":"Soest","type":"Kreis"},"federalState":{"key":"05","name":"Nordrhein-Westfalen"}},{"name":"Wilhelm-Kruse-Weg","postalCode":"59494","locality":"Soest","municipality":{"key":"05974040","name":"Soest, Stadt","type":"Stadt"},"district":{"key":"05974","name":"Soest","type":"Kreis"},"federalState":{"key":"05","name":"Nordrhein-Westfalen"}},{"name":"Wilhelm-Morgner-Weg","postalCode":"59494","locality":"Soest","municipality":{"key":"05974040","name":"Soest, Stadt","type":"Stadt"},"district":{"key":"05974","name":"Soest","type":"Kreis"},"federalState":{"key":"05","name":"Nordrhein-Westfalen"}},{"name":"Wilhelmstr.","postalCode":"59494","locality":"Soest","municipality":{"key":"05974040","name":"Soest, Stadt","type":"Stadt"},"district":{"key":"05974","name":"Soest","type":"Kreis"},"federalState":{"key":"05","name":"Nordrhein-Westfalen"}},{"name":"Wilhelm-Trockel-Weg","postalCode":"59494","locality":"Soest","municipality":{"key":"05974040","name":"Soest, Stadt","type":"Stadt"},"district":{"key":"05974","name":"Soest","type":"Kreis"},"federalState":{"key":"05","name":"Nordrhein-Westfalen"}},{"name":"Wilhelm-von-Holland-Weg","postalCode":"59494","locality":"Soest","municipality":{"key":"05974040","name":"Soest, Stadt","type":"Stadt"},"district":{"key":"05974","name":"Soest","type":"Kreis"},"federalState":{"key":"05","name":"Nordrhein-Westfalen"}},{"name":"Wilhelm-Wulff-Weg","postalCode":"59494","locality":"Soest","municipality":{"key":"05974040","name":"Soest, Stadt","type":"Stadt"},"district":{"key":"05974","name":"Soest","type":"Kreis"},"federalState":{"key":"05","name":"Nordrhein-Westfalen"}},{"name":"Willinghepper Str.","postalCode":"59494","locality":"Soest","municipality":{"key":"05974040","name":"Soest, Stadt","type":"Stadt"},"district":{"key":"05974","name":"Soest","type":"Kreis"},"federalState":{"key":"05","name":"Nordrhein-Westfalen"}},{"name":"Willy-Horstmann-Weg","postalCode":"59494","locality":"Soest","municipality":{"key":"05974040","name":"Soest, Stadt","type":"Stadt"},"district":{"key":"05974","name":"Soest","type":"Kreis"},"federalState":{"key":"05","name":"Nordrhein-Westfalen"}},{"name":"Windmühle","postalCode":"59494","locality":"Soest","municipality":{"key":"05974040","name":"Soest, Stadt","type":"Stadt"},"district":{"key":"05974","name":"Soest","type":"Kreis"},"federalState":{"key":"05","name":"Nordrhein-Westfalen"}},{"name":"Windmühlenpfad","postalCode":"59494","locality":"Soest","municipality":{"key":"05974040","name":"Soest, Stadt","type":"Stadt"},"district":{"key":"05974","name":"Soest","type":"Kreis"},"federalState":{"key":"05","name":"Nordrhein-Westfalen"}},{"name":"Windmühlenweg","postalCode":"59494","locality":"Soest","municipality":{"key":"05974040","name":"Soest, Stadt","type":"Stadt"},"district":{"key":"05974","name":"Soest","type":"Kreis"},"federalState":{"key":"05","name":"Nordrhein-Westfalen"}},{"name":"Wippgasse","postalCode":"59494","locality":"Soest","municipality":{"key":"05974040","name":"Soest, Stadt","type":"Stadt"},"district":{"key":"05974","name":"Soest","type":"Kreis"},"federalState":{"key":"05","name":"Nordrhein-Westfalen"}},{"name":"Wippringser Heide","postalCode":"59494","locality":"Soest","municipality":{"key":"05974040","name":"Soest, Stadt","type":"Stadt"},"district":{"key":"05974","name":"Soest","type":"Kreis"},"federalState":{"key":"05","name":"Nordrhein-Westfalen"}},{"name":"Wisbyring","postalCode":"59494","locality":"Soest","municipality":{"key":"05974040","name":"Soest, Stadt","type":"Stadt"},"district":{"key":"05974","name":"Soest","type":"Kreis"},"federalState":{"key":"05","name":"Nordrhein-Westfalen"}},{"name":"Wohlmeine","postalCode":"59494","locality":"Soest","municipality":{"key":"05974040","name":"Soest, Stadt","type":"Stadt"},"district":{"key":"05974","name":"Soest","type":"Kreis"},"federalState":{"key":"05","name":"Nordrhein-Westfalen"}},{"name":"Wolter-von-Plettenberg-Weg","postalCode":"59494","locality":"Soest","municipality":{"key":"05974040","name":"Soest, Stadt","type":"Stadt"},"district":{"key":"05974","name":"Soest","type":"Kreis"},"federalState":{"key":"05","name":"Nordrhein-Westfalen"}},{"name":"Ziegeleiweg","postalCode":"59494","locality":"Soest","municipality":{"key":"05974040","name":"Soest, Stadt","type":"Stadt"},"district":{"key":"05974","name":"Soest","type":"Kreis"},"federalState":{"key":"05","name":"Nordrhein-Westfalen"}},{"name":"Zinngießerweg","postalCode":"59494","locality":"Soest","municipality":{"key":"05974040","name":"Soest, Stadt","type":"Stadt"},"district":{"key":"05974","name":"Soest","type":"Kreis"},"federalState":{"key":"05","name":"Nordrhein-Westfalen"}},{"name":"Zu den Eichen","postalCode":"59494","locality":"Soest","municipality":{"key":"05974040","name":"Soest, Stadt","type":"Stadt"},"district":{"key":"05974","name":"Soest","type":"Kreis"},"federalState":{"key":"05","name":"Nordrhein-Westfalen"}},{"name":"Zum Hanekay","postalCode":"59494","locality":"Soest","municipality":{"key":"05974040","name":"Soest, Stadt","type":"Stadt"},"district":{"key":"05974","name":"Soest","type":"Kreis"},"federalState":{"key":"05","name":"Nordrhein-Westfalen"}},{"name":"Zum Heckplatz","postalCode":"59494","locality":"Soest","municipality":{"key":"05974040","name":"Soest, Stadt","type":"Stadt"},"district":{"key":"05974","name":"Soest","type":"Kreis"},"federalState":{"key":"05","name":"Nordrhein-Westfalen"}},{"name":"Zum Luisenhof","postalCode":"59494","locality":"Soest","municipality":{"key":"05974040","name":"Soest, Stadt","type":"Stadt"},"district":{"key":"05974","name":"Soest","type":"Kreis"},"federalState":{"key":"05","name":"Nordrhein-Westfalen"}},{"name":"Zum Westbach","postalCode":"59494","locality":"Soest","municipality":{"key":"05974040","name":"Soest, Stadt","type":"Stadt"},"district":{"key":"05974","name":"Soest","type":"Kreis"},"federalState":{"key":"05","name":"Nordrhein-Westfalen"}},{"name":"Zum Wiesengraben","postalCode":"59494","locality":"Soest","municipality":{"key":"05974040","name":"Soest, Stadt","type":"Stadt"},"district":{"key":"05974","name":"Soest","type":"Kreis"},"federalState":{"key":"05","name":"Nordrhein-Westfalen"}},{"name":"Zur Französichen Kapelle","postalCode":"59494","locality":"Soest","municipality":{"key":"05974040","name":"Soest, Stadt","type":"Stadt"},"district":{"key":"05974","name":"Soest","type":"Kreis"},"federalState":{"key":"05","name":"Nordrhein-Westfalen"}},{"name":"Zur Steinkiste","postalCode":"59494","locality":"Soest","municipality":{"key":"05974040","name":"Soest, Stadt","type":"Stadt"},"district":{"key":"05974","name":"Soest","type":"Kreis"},"federalState":{"key":"05","name":"Nordrhein-Westfalen"}},]