[{"key":"10104834","name":"Adlerplatz","postalCode":"8862","locality":"Schübelbach","commune":{"key":"1346","name":"Schübelbach","shortName":"Schübelbach"},"district":{"key":"505","name":"Bezirk March"},"canton":{"key":"5","code":"SZ","name":"Schwyz"},"status":"Real"},{"key":"10017695","name":"Adlerwiese","postalCode":"8862","locality":"Schübelbach","commune":{"key":"1346","name":"Schübelbach","shortName":"Schübelbach"},"district":{"key":"505","name":"Bezirk March"},"canton":{"key":"5","code":"SZ","name":"Schwyz"},"status":"Real"},{"key":"10171388","name":"Am Färlibach","postalCode":"8862","locality":"Schübelbach","commune":{"key":"1346","name":"Schübelbach","shortName":"Schübelbach"},"district":{"key":"505","name":"Bezirk March"},"canton":{"key":"5","code":"SZ","name":"Schwyz"},"status":"Real"},{"key":"10235932","name":"Bahnhofstrasse","postalCode":"8862","locality":"Schübelbach","commune":{"key":"1346","name":"Schübelbach","shortName":"Schübelbach"},"district":{"key":"505","name":"Bezirk March"},"canton":{"key":"5","code":"SZ","name":"Schwyz"},"status":"Real"},{"key":"10252438","name":"Bahnweg","postalCode":"8862","locality":"Schübelbach","commune":{"key":"1346","name":"Schübelbach","shortName":"Schübelbach"},"district":{"key":"505","name":"Bezirk March"},"canton":{"key":"5","code":"SZ","name":"Schwyz"},"status":"Real"},{"key":"10235944","name":"Baumgartenweg","postalCode":"8862","locality":"Schübelbach","commune":{"key":"1346","name":"Schübelbach","shortName":"Schübelbach"},"district":{"key":"505","name":"Bezirk March"},"canton":{"key":"5","code":"SZ","name":"Schwyz"},"status":"Real"},{"key":"10066221","name":"Bergwiese","postalCode":"8862","locality":"Schübelbach","commune":{"key":"1346","name":"Schübelbach","shortName":"Schübelbach"},"district":{"key":"505","name":"Bezirk March"},"canton":{"key":"5","code":"SZ","name":"Schwyz"},"status":"Real"},{"key":"10104835","name":"Brestenburgstrasse","postalCode":"8862","locality":"Schübelbach","commune":{"key":"1346","name":"Schübelbach","shortName":"Schübelbach"},"district":{"key":"505","name":"Bezirk March"},"canton":{"key":"5","code":"SZ","name":"Schwyz"},"status":"Real"},{"key":"10110518","name":"Büenggli","postalCode":"8862","locality":"Schübelbach","commune":{"key":"1346","name":"Schübelbach","shortName":"Schübelbach"},"district":{"key":"505","name":"Bezirk March"},"canton":{"key":"5","code":"SZ","name":"Schwyz"},"status":"Real"},{"key":"10161951","name":"Bügelhof","postalCode":"8862","locality":"Schübelbach","commune":{"key":"1346","name":"Schübelbach","shortName":"Schübelbach"},"district":{"key":"505","name":"Bezirk March"},"canton":{"key":"5","code":"SZ","name":"Schwyz"},"status":"Real"},{"key":"10223268","name":"Dürrbodenstrasse","postalCode":"8862","locality":"Schübelbach","commune":{"key":"1346","name":"Schübelbach","shortName":"Schübelbach"},"district":{"key":"505","name":"Bezirk March"},"canton":{"key":"5","code":"SZ","name":"Schwyz"},"status":"Real"},{"key":"10180559","name":"Eisenburgstrasse","postalCode":"8862","locality":"Schübelbach","commune":{"key":"1346","name":"Schübelbach","shortName":"Schübelbach"},"district":{"key":"505","name":"Bezirk March"},"canton":{"key":"5","code":"SZ","name":"Schwyz"},"status":"Real"},{"key":"10017696","name":"Fadstrasse","postalCode":"8862","locality":"Schübelbach","commune":{"key":"1346","name":"Schübelbach","shortName":"Schübelbach"},"district":{"key":"505","name":"Bezirk March"},"canton":{"key":"5","code":"SZ","name":"Schwyz"},"status":"Real"},{"key":"10131247","name":"Fadweg","postalCode":"8862","locality":"Schübelbach","commune":{"key":"1346","name":"Schübelbach","shortName":"Schübelbach"},"district":{"key":"505","name":"Bezirk March"},"canton":{"key":"5","code":"SZ","name":"Schwyz"},"status":"Real"},{"key":"10066224","name":"Föhnloch","postalCode":"8862","locality":"Schübelbach","commune":{"key":"1346","name":"Schübelbach","shortName":"Schübelbach"},"district":{"key":"505","name":"Bezirk March"},"canton":{"key":"5","code":"SZ","name":"Schwyz"},"status":"Real"},{"key":"10017697","name":"Gramatt","postalCode":"8862","locality":"Schübelbach","commune":{"key":"1346","name":"Schübelbach","shortName":"Schübelbach"},"district":{"key":"505","name":"Bezirk March"},"canton":{"key":"5","code":"SZ","name":"Schwyz"},"status":"Real"},{"key":"10062667","name":"Gramattli","postalCode":"8862","locality":"Schübelbach","commune":{"key":"1346","name":"Schübelbach","shortName":"Schübelbach"},"district":{"key":"505","name":"Bezirk March"},"canton":{"key":"5","code":"SZ","name":"Schwyz"},"status":"Real"},{"key":"10159384","name":"Gramattstrasse","postalCode":"8862","locality":"Schübelbach","commune":{"key":"1346","name":"Schübelbach","shortName":"Schübelbach"},"district":{"key":"505","name":"Bezirk March"},"canton":{"key":"5","code":"SZ","name":"Schwyz"},"status":"Real"},{"key":"10188237","name":"Grünhaldenstrasse","postalCode":"8862","locality":"Schübelbach","commune":{"key":"1346","name":"Schübelbach","shortName":"Schübelbach"},"district":{"key":"505","name":"Bezirk March"},"canton":{"key":"5","code":"SZ","name":"Schwyz"},"status":"Real"},{"key":"10017698","name":"Gugeli","postalCode":"8862","locality":"Schübelbach","commune":{"key":"1346","name":"Schübelbach","shortName":"Schübelbach"},"district":{"key":"505","name":"Bezirk March"},"canton":{"key":"5","code":"SZ","name":"Schwyz"},"status":"Real"},{"key":"10017975","name":"Gutenbrunnen","postalCode":"8862","locality":"Schübelbach","commune":{"key":"1346","name":"Schübelbach","shortName":"Schübelbach"},"district":{"key":"505","name":"Bezirk March"},"canton":{"key":"5","code":"SZ","name":"Schwyz"},"status":"Real"},{"key":"10065491","name":"Hagrütistrasse","postalCode":"8862","locality":"Schübelbach","commune":{"key":"1346","name":"Schübelbach","shortName":"Schübelbach"},"district":{"key":"505","name":"Bezirk March"},"canton":{"key":"5","code":"SZ","name":"Schwyz"},"status":"Real"},{"key":"10160970","name":"Haltenweg","postalCode":"8862","locality":"Schübelbach","commune":{"key":"1346","name":"Schübelbach","shortName":"Schübelbach"},"district":{"key":"505","name":"Bezirk March"},"canton":{"key":"5","code":"SZ","name":"Schwyz"},"status":"Real"},{"key":"10185567","name":"Haslenboden","postalCode":"8862","locality":"Schübelbach","commune":{"key":"1346","name":"Schübelbach","shortName":"Schübelbach"},"district":{"key":"505","name":"Bezirk March"},"canton":{"key":"5","code":"SZ","name":"Schwyz"},"status":"Real"},{"key":"10017976","name":"Haslendörfli","postalCode":"8862","locality":"Schübelbach","commune":{"key":"1346","name":"Schübelbach","shortName":"Schübelbach"},"district":{"key":"505","name":"Bezirk March"},"canton":{"key":"5","code":"SZ","name":"Schwyz"},"status":"Real"},{"key":"10065492","name":"Haslenstrasse","postalCode":"8862","locality":"Schübelbach","commune":{"key":"1346","name":"Schübelbach","shortName":"Schübelbach"},"district":{"key":"505","name":"Bezirk March"},"canton":{"key":"5","code":"SZ","name":"Schwyz"},"status":"Real"},{"key":"10170188","name":"Heuweid","postalCode":"8862","locality":"Schübelbach","commune":{"key":"1346","name":"Schübelbach","shortName":"Schübelbach"},"district":{"key":"505","name":"Bezirk March"},"canton":{"key":"5","code":"SZ","name":"Schwyz"},"status":"Real"},{"key":"10168770","name":"Hildenhöfli","postalCode":"8862","locality":"Schübelbach","commune":{"key":"1346","name":"Schübelbach","shortName":"Schübelbach"},"district":{"key":"505","name":"Bezirk March"},"canton":{"key":"5","code":"SZ","name":"Schwyz"},"status":"Real"},{"key":"10017977","name":"Höfliweg","postalCode":"8862","locality":"Schübelbach","commune":{"key":"1346","name":"Schübelbach","shortName":"Schübelbach"},"district":{"key":"505","name":"Bezirk March"},"canton":{"key":"5","code":"SZ","name":"Schwyz"},"status":"Real"},{"key":"10178255","name":"Hofstrasse","postalCode":"8862","locality":"Schübelbach","commune":{"key":"1346","name":"Schübelbach","shortName":"Schübelbach"},"district":{"key":"505","name":"Bezirk March"},"canton":{"key":"5","code":"SZ","name":"Schwyz"},"status":"Real"},{"key":"10102793","name":"Hofweidstrasse","postalCode":"8862","locality":"Schübelbach","commune":{"key":"1346","name":"Schübelbach","shortName":"Schübelbach"},"district":{"key":"505","name":"Bezirk March"},"canton":{"key":"5","code":"SZ","name":"Schwyz"},"status":"Real"},{"key":"10074752","name":"Hofwiesstrasse","postalCode":"8862","locality":"Schübelbach","commune":{"key":"1346","name":"Schübelbach","shortName":"Schübelbach"},"district":{"key":"505","name":"Bezirk March"},"canton":{"key":"5","code":"SZ","name":"Schwyz"},"status":"Real"},{"key":"10017978","name":"Hügelstrasse","postalCode":"8862","locality":"Schübelbach","commune":{"key":"1346","name":"Schübelbach","shortName":"Schübelbach"},"district":{"key":"505","name":"Bezirk March"},"canton":{"key":"5","code":"SZ","name":"Schwyz"},"status":"Real"},{"key":"10055608","name":"Kantonsstrasse","postalCode":"8862","locality":"Schübelbach","commune":{"key":"1346","name":"Schübelbach","shortName":"Schübelbach"},"district":{"key":"505","name":"Bezirk March"},"canton":{"key":"5","code":"SZ","name":"Schwyz"},"status":"Real"},{"key":"10017979","name":"Kleinwiesstrasse","postalCode":"8862","locality":"Schübelbach","commune":{"key":"1346","name":"Schübelbach","shortName":"Schübelbach"},"district":{"key":"505","name":"Bezirk March"},"canton":{"key":"5","code":"SZ","name":"Schwyz"},"status":"Real"},{"key":"10120238","name":"Laternenweg","postalCode":"8862","locality":"Schübelbach","commune":{"key":"1346","name":"Schübelbach","shortName":"Schübelbach"},"district":{"key":"505","name":"Bezirk March"},"canton":{"key":"5","code":"SZ","name":"Schwyz"},"status":"Real"},{"key":"10161918","name":"Luchern","postalCode":"8862","locality":"Schübelbach","commune":{"key":"1346","name":"Schübelbach","shortName":"Schübelbach"},"district":{"key":"505","name":"Bezirk March"},"canton":{"key":"5","code":"SZ","name":"Schwyz"},"status":"Real"},{"key":"10062669","name":"Matthof","postalCode":"8862","locality":"Schübelbach","commune":{"key":"1346","name":"Schübelbach","shortName":"Schübelbach"},"district":{"key":"505","name":"Bezirk March"},"canton":{"key":"5","code":"SZ","name":"Schwyz"},"status":"Real"},{"key":"10223273","name":"Mühlemoosstrasse","postalCode":"8862","locality":"Schübelbach","commune":{"key":"1346","name":"Schübelbach","shortName":"Schübelbach"},"district":{"key":"505","name":"Bezirk March"},"canton":{"key":"5","code":"SZ","name":"Schwyz"},"status":"Real"},{"key":"10017980","name":"Mühlenenstrasse","postalCode":"8862","locality":"Schübelbach","commune":{"key":"1346","name":"Schübelbach","shortName":"Schübelbach"},"district":{"key":"505","name":"Bezirk March"},"canton":{"key":"5","code":"SZ","name":"Schwyz"},"status":"Real"},{"key":"10235906","name":"Neudörflistrasse","postalCode":"8862","locality":"Schübelbach","commune":{"key":"1346","name":"Schübelbach","shortName":"Schübelbach"},"district":{"key":"505","name":"Bezirk March"},"canton":{"key":"5","code":"SZ","name":"Schwyz"},"status":"Real"},{"key":"10178256","name":"Oberhöflistrasse","postalCode":"8862","locality":"Schübelbach","commune":{"key":"1346","name":"Schübelbach","shortName":"Schübelbach"},"district":{"key":"505","name":"Bezirk March"},"canton":{"key":"5","code":"SZ","name":"Schwyz"},"status":"Real"},{"key":"10153774","name":"Postplatz","postalCode":"8862","locality":"Schübelbach","commune":{"key":"1346","name":"Schübelbach","shortName":"Schübelbach"},"district":{"key":"505","name":"Bezirk March"},"canton":{"key":"5","code":"SZ","name":"Schwyz"},"status":"Real"},{"key":"10074753","name":"Rainhofweg","postalCode":"8862","locality":"Schübelbach","commune":{"key":"1346","name":"Schübelbach","shortName":"Schübelbach"},"district":{"key":"505","name":"Bezirk March"},"canton":{"key":"5","code":"SZ","name":"Schwyz"},"status":"Real"},{"key":"10017981","name":"Rainweg","postalCode":"8862","locality":"Schübelbach","commune":{"key":"1346","name":"Schübelbach","shortName":"Schübelbach"},"district":{"key":"505","name":"Bezirk March"},"canton":{"key":"5","code":"SZ","name":"Schwyz"},"status":"Real"},{"key":"10145979","name":"Riedstrasse","postalCode":"8862","locality":"Schübelbach","commune":{"key":"1346","name":"Schübelbach","shortName":"Schübelbach"},"district":{"key":"505","name":"Bezirk March"},"canton":{"key":"5","code":"SZ","name":"Schwyz"},"status":"Real"},{"key":"10017982","name":"Sommerweg","postalCode":"8862","locality":"Schübelbach","commune":{"key":"1346","name":"Schübelbach","shortName":"Schübelbach"},"district":{"key":"505","name":"Bezirk March"},"canton":{"key":"5","code":"SZ","name":"Schwyz"},"status":"Real"},{"key":"10065499","name":"Sonnengarten","postalCode":"8862","locality":"Schübelbach","commune":{"key":"1346","name":"Schübelbach","shortName":"Schübelbach"},"district":{"key":"505","name":"Bezirk March"},"canton":{"key":"5","code":"SZ","name":"Schwyz"},"status":"Real"},{"key":"10223154","name":"Teufistrasse","postalCode":"8862","locality":"Schübelbach","commune":{"key":"1346","name":"Schübelbach","shortName":"Schübelbach"},"district":{"key":"505","name":"Bezirk March"},"canton":{"key":"5","code":"SZ","name":"Schwyz"},"status":"Real"},{"key":"10223162","name":"Wegriedstrasse","postalCode":"8862","locality":"Schübelbach","commune":{"key":"1346","name":"Schübelbach","shortName":"Schübelbach"},"district":{"key":"505","name":"Bezirk March"},"canton":{"key":"5","code":"SZ","name":"Schwyz"},"status":"Real"},{"key":"10017983","name":"Weid","postalCode":"8862","locality":"Schübelbach","commune":{"key":"1346","name":"Schübelbach","shortName":"Schübelbach"},"district":{"key":"505","name":"Bezirk March"},"canton":{"key":"5","code":"SZ","name":"Schwyz"},"status":"Real"},{"key":"10065501","name":"Wiesstrasse","postalCode":"8862","locality":"Schübelbach","commune":{"key":"1346","name":"Schübelbach","shortName":"Schübelbach"},"district":{"key":"505","name":"Bezirk March"},"canton":{"key":"5","code":"SZ","name":"Schwyz"},"status":"Real"},{"key":"10074754","name":"Wisshaltenstrasse","postalCode":"8862","locality":"Schübelbach","commune":{"key":"1346","name":"Schübelbach","shortName":"Schübelbach"},"district":{"key":"505","name":"Bezirk March"},"canton":{"key":"5","code":"SZ","name":"Schwyz"},"status":"Real"},{"key":"10110519","name":"Ziegelhofstrasse","postalCode":"8862","locality":"Schübelbach","commune":{"key":"1346","name":"Schübelbach","shortName":"Schübelbach"},"district":{"key":"505","name":"Bezirk March"},"canton":{"key":"5","code":"SZ","name":"Schwyz"},"status":"Real"},{"key":"10017984","name":"Zieglerweg","postalCode":"8862","locality":"Schübelbach","commune":{"key":"1346","name":"Schübelbach","shortName":"Schübelbach"},"district":{"key":"505","name":"Bezirk March"},"canton":{"key":"5","code":"SZ","name":"Schwyz"},"status":"Real"},{"key":"10017985","name":"Zopfstrasse","postalCode":"8862","locality":"Schübelbach","commune":{"key":"1346","name":"Schübelbach","shortName":"Schübelbach"},"district":{"key":"505","name":"Bezirk March"},"canton":{"key":"5","code":"SZ","name":"Schwyz"},"status":"Real"},{"key":"10065502","name":"Zügerwies","postalCode":"8862","locality":"Schübelbach","commune":{"key":"1346","name":"Schübelbach","shortName":"Schübelbach"},"district":{"key":"505","name":"Bezirk March"},"canton":{"key":"5","code":"SZ","name":"Schwyz"},"status":"Real"},]