[{"name":"Alte Römerstr.","postalCode":"55471","locality":"Ravengiersburg","municipality":{"key":"07140119","name":"Ravengiersburg","type":"Kreisangehörige_Gemeinde"},"district":{"key":"07140","name":"Rhein-Hunsrück-Kreis","type":"Landkreis"},"federalState":{"key":"07","name":"Rheinland-Pfalz"}},{"name":"Am Gartenbach","postalCode":"55471","locality":"Ravengiersburg","municipality":{"key":"07140119","name":"Ravengiersburg","type":"Kreisangehörige_Gemeinde"},"district":{"key":"07140","name":"Rhein-Hunsrück-Kreis","type":"Landkreis"},"federalState":{"key":"07","name":"Rheinland-Pfalz"}},{"name":"Am Kalkofen","postalCode":"55471","locality":"Ravengiersburg","municipality":{"key":"07140119","name":"Ravengiersburg","type":"Kreisangehörige_Gemeinde"},"district":{"key":"07140","name":"Rhein-Hunsrück-Kreis","type":"Landkreis"},"federalState":{"key":"07","name":"Rheinland-Pfalz"}},{"name":"Brunnenweg","postalCode":"55471","locality":"Ravengiersburg","municipality":{"key":"07140119","name":"Ravengiersburg","type":"Kreisangehörige_Gemeinde"},"district":{"key":"07140","name":"Rhein-Hunsrück-Kreis","type":"Landkreis"},"federalState":{"key":"07","name":"Rheinland-Pfalz"}},{"name":"Graf-Berthold-Str.","postalCode":"55471","locality":"Ravengiersburg","municipality":{"key":"07140119","name":"Ravengiersburg","type":"Kreisangehörige_Gemeinde"},"district":{"key":"07140","name":"Rhein-Hunsrück-Kreis","type":"Landkreis"},"federalState":{"key":"07","name":"Rheinland-Pfalz"}},{"name":"Grillhütte","postalCode":"55471","locality":"Ravengiersburg","municipality":{"key":"07140119","name":"Ravengiersburg","type":"Kreisangehörige_Gemeinde"},"district":{"key":"07140","name":"Rhein-Hunsrück-Kreis","type":"Landkreis"},"federalState":{"key":"07","name":"Rheinland-Pfalz"}},{"name":"Hauptstr.","postalCode":"55471","locality":"Ravengiersburg","municipality":{"key":"07140119","name":"Ravengiersburg","type":"Kreisangehörige_Gemeinde"},"district":{"key":"07140","name":"Rhein-Hunsrück-Kreis","type":"Landkreis"},"federalState":{"key":"07","name":"Rheinland-Pfalz"}},{"name":"Im Eck","postalCode":"55471","locality":"Ravengiersburg","municipality":{"key":"07140119","name":"Ravengiersburg","type":"Kreisangehörige_Gemeinde"},"district":{"key":"07140","name":"Rhein-Hunsrück-Kreis","type":"Landkreis"},"federalState":{"key":"07","name":"Rheinland-Pfalz"}},{"name":"Kirchberger Pfad","postalCode":"55471","locality":"Ravengiersburg","municipality":{"key":"07140119","name":"Ravengiersburg","type":"Kreisangehörige_Gemeinde"},"district":{"key":"07140","name":"Rhein-Hunsrück-Kreis","type":"Landkreis"},"federalState":{"key":"07","name":"Rheinland-Pfalz"}},{"name":"Klosterwasem","postalCode":"55471","locality":"Ravengiersburg","municipality":{"key":"07140119","name":"Ravengiersburg","type":"Kreisangehörige_Gemeinde"},"district":{"key":"07140","name":"Rhein-Hunsrück-Kreis","type":"Landkreis"},"federalState":{"key":"07","name":"Rheinland-Pfalz"}},{"name":"Mühlengasse","postalCode":"55471","locality":"Ravengiersburg","municipality":{"key":"07140119","name":"Ravengiersburg","type":"Kreisangehörige_Gemeinde"},"district":{"key":"07140","name":"Rhein-Hunsrück-Kreis","type":"Landkreis"},"federalState":{"key":"07","name":"Rheinland-Pfalz"}},{"name":"Neuhof","postalCode":"55471","locality":"Ravengiersburg","municipality":{"key":"07140119","name":"Ravengiersburg","type":"Kreisangehörige_Gemeinde"},"district":{"key":"07140","name":"Rhein-Hunsrück-Kreis","type":"Landkreis"},"federalState":{"key":"07","name":"Rheinland-Pfalz"}},{"name":"Schulstr.","postalCode":"55471","locality":"Ravengiersburg","municipality":{"key":"07140119","name":"Ravengiersburg","type":"Kreisangehörige_Gemeinde"},"district":{"key":"07140","name":"Rhein-Hunsrück-Kreis","type":"Landkreis"},"federalState":{"key":"07","name":"Rheinland-Pfalz"}},{"name":"Taubesgarten","postalCode":"55471","locality":"Ravengiersburg","municipality":{"key":"07140119","name":"Ravengiersburg","type":"Kreisangehörige_Gemeinde"},"district":{"key":"07140","name":"Rhein-Hunsrück-Kreis","type":"Landkreis"},"federalState":{"key":"07","name":"Rheinland-Pfalz"}},{"name":"Unterstr.","postalCode":"55471","locality":"Ravengiersburg","municipality":{"key":"07140119","name":"Ravengiersburg","type":"Kreisangehörige_Gemeinde"},"district":{"key":"07140","name":"Rhein-Hunsrück-Kreis","type":"Landkreis"},"federalState":{"key":"07","name":"Rheinland-Pfalz"}},{"name":"Zum Layenberg","postalCode":"55471","locality":"Ravengiersburg","municipality":{"key":"07140119","name":"Ravengiersburg","type":"Kreisangehörige_Gemeinde"},"district":{"key":"07140","name":"Rhein-Hunsrück-Kreis","type":"Landkreis"},"federalState":{"key":"07","name":"Rheinland-Pfalz"}},{"name":"Zum Nonnengarten","postalCode":"55471","locality":"Ravengiersburg","municipality":{"key":"07140119","name":"Ravengiersburg","type":"Kreisangehörige_Gemeinde"},"district":{"key":"07140","name":"Rhein-Hunsrück-Kreis","type":"Landkreis"},"federalState":{"key":"07","name":"Rheinland-Pfalz"}},]