[{"name":"Ambergstr.","postalCode":"84333","locality":"Malgersdorf","municipality":{"key":"09277131","name":"Malgersdorf","type":"Kreisangehörige_Gemeinde"},"district":{"key":"09277","name":"Rottal-Inn","type":"Landkreis"},"federalState":{"key":"09","name":"Bayern"}},{"name":"Am Eisweiher","postalCode":"84333","locality":"Malgersdorf","municipality":{"key":"09277131","name":"Malgersdorf","type":"Kreisangehörige_Gemeinde"},"district":{"key":"09277","name":"Rottal-Inn","type":"Landkreis"},"federalState":{"key":"09","name":"Bayern"}},{"name":"Arnstorfer Str.","postalCode":"84333","locality":"Malgersdorf","municipality":{"key":"09277131","name":"Malgersdorf","type":"Kreisangehörige_Gemeinde"},"district":{"key":"09277","name":"Rottal-Inn","type":"Landkreis"},"federalState":{"key":"09","name":"Bayern"}},{"name":"Berngehrerstr.","postalCode":"84333","locality":"Malgersdorf","municipality":{"key":"09277131","name":"Malgersdorf","type":"Kreisangehörige_Gemeinde"},"district":{"key":"09277","name":"Rottal-Inn","type":"Landkreis"},"federalState":{"key":"09","name":"Bayern"}},{"name":"Blumreisig","postalCode":"84333","locality":"Malgersdorf","municipality":{"key":"09277131","name":"Malgersdorf","type":"Kreisangehörige_Gemeinde"},"district":{"key":"09277","name":"Rottal-Inn","type":"Landkreis"},"federalState":{"key":"09","name":"Bayern"}},{"name":"Bräuhausplatz","postalCode":"84333","locality":"Malgersdorf","municipality":{"key":"09277131","name":"Malgersdorf","type":"Kreisangehörige_Gemeinde"},"district":{"key":"09277","name":"Rottal-Inn","type":"Landkreis"},"federalState":{"key":"09","name":"Bayern"}},{"name":"Brunnerstr.","postalCode":"84333","locality":"Malgersdorf","municipality":{"key":"09277131","name":"Malgersdorf","type":"Kreisangehörige_Gemeinde"},"district":{"key":"09277","name":"Rottal-Inn","type":"Landkreis"},"federalState":{"key":"09","name":"Bayern"}},{"name":"Burgerstr.","postalCode":"84333","locality":"Malgersdorf","municipality":{"key":"09277131","name":"Malgersdorf","type":"Kreisangehörige_Gemeinde"},"district":{"key":"09277","name":"Rottal-Inn","type":"Landkreis"},"federalState":{"key":"09","name":"Bayern"}},{"name":"Eggenfeldener Str.","postalCode":"84333","locality":"Malgersdorf","municipality":{"key":"09277131","name":"Malgersdorf","type":"Kreisangehörige_Gemeinde"},"district":{"key":"09277","name":"Rottal-Inn","type":"Landkreis"},"federalState":{"key":"09","name":"Bayern"}},{"name":"Einbachsiedlung","postalCode":"84333","locality":"Malgersdorf","municipality":{"key":"09277131","name":"Malgersdorf","type":"Kreisangehörige_Gemeinde"},"district":{"key":"09277","name":"Rottal-Inn","type":"Landkreis"},"federalState":{"key":"09","name":"Bayern"}},{"name":"Embachsiedlung","postalCode":"84333","locality":"Malgersdorf","municipality":{"key":"09277131","name":"Malgersdorf","type":"Kreisangehörige_Gemeinde"},"district":{"key":"09277","name":"Rottal-Inn","type":"Landkreis"},"federalState":{"key":"09","name":"Bayern"}},{"name":"Embachstr.","postalCode":"84333","locality":"Malgersdorf","municipality":{"key":"09277131","name":"Malgersdorf","type":"Kreisangehörige_Gemeinde"},"district":{"key":"09277","name":"Rottal-Inn","type":"Landkreis"},"federalState":{"key":"09","name":"Bayern"}},{"name":"Galleck","postalCode":"84333","locality":"Malgersdorf","municipality":{"key":"09277131","name":"Malgersdorf","type":"Kreisangehörige_Gemeinde"},"district":{"key":"09277","name":"Rottal-Inn","type":"Landkreis"},"federalState":{"key":"09","name":"Bayern"}},{"name":"Gewerbering","postalCode":"84333","locality":"Malgersdorf","municipality":{"key":"09277131","name":"Malgersdorf","type":"Kreisangehörige_Gemeinde"},"district":{"key":"09277","name":"Rottal-Inn","type":"Landkreis"},"federalState":{"key":"09","name":"Bayern"}},{"name":"Graf-Arco Str.","postalCode":"84333","locality":"Malgersdorf","municipality":{"key":"09277131","name":"Malgersdorf","type":"Kreisangehörige_Gemeinde"},"district":{"key":"09277","name":"Rottal-Inn","type":"Landkreis"},"federalState":{"key":"09","name":"Bayern"}},{"name":"Haberskirchener Str.","postalCode":"84333","locality":"Malgersdorf","municipality":{"key":"09277131","name":"Malgersdorf","type":"Kreisangehörige_Gemeinde"},"district":{"key":"09277","name":"Rottal-Inn","type":"Landkreis"},"federalState":{"key":"09","name":"Bayern"}},{"name":"Hofstetten","postalCode":"84333","locality":"Malgersdorf","municipality":{"key":"09277131","name":"Malgersdorf","type":"Kreisangehörige_Gemeinde"},"district":{"key":"09277","name":"Rottal-Inn","type":"Landkreis"},"federalState":{"key":"09","name":"Bayern"}},{"name":"Kirchenweg","postalCode":"84333","locality":"Malgersdorf","municipality":{"key":"09277131","name":"Malgersdorf","type":"Kreisangehörige_Gemeinde"},"district":{"key":"09277","name":"Rottal-Inn","type":"Landkreis"},"federalState":{"key":"09","name":"Bayern"}},{"name":"Klingenbergstr.","postalCode":"84333","locality":"Malgersdorf","municipality":{"key":"09277131","name":"Malgersdorf","type":"Kreisangehörige_Gemeinde"},"district":{"key":"09277","name":"Rottal-Inn","type":"Landkreis"},"federalState":{"key":"09","name":"Bayern"}},{"name":"Lalling","postalCode":"84333","locality":"Malgersdorf","municipality":{"key":"09277131","name":"Malgersdorf","type":"Kreisangehörige_Gemeinde"},"district":{"key":"09277","name":"Rottal-Inn","type":"Landkreis"},"federalState":{"key":"09","name":"Bayern"}},{"name":"Landauer Str.","postalCode":"84333","locality":"Malgersdorf","municipality":{"key":"09277131","name":"Malgersdorf","type":"Kreisangehörige_Gemeinde"},"district":{"key":"09277","name":"Rottal-Inn","type":"Landkreis"},"federalState":{"key":"09","name":"Bayern"}},{"name":"Mittenweg","postalCode":"84333","locality":"Malgersdorf","municipality":{"key":"09277131","name":"Malgersdorf","type":"Kreisangehörige_Gemeinde"},"district":{"key":"09277","name":"Rottal-Inn","type":"Landkreis"},"federalState":{"key":"09","name":"Bayern"}},{"name":"Pacellistr.","postalCode":"84333","locality":"Malgersdorf","municipality":{"key":"09277131","name":"Malgersdorf","type":"Kreisangehörige_Gemeinde"},"district":{"key":"09277","name":"Rottal-Inn","type":"Landkreis"},"federalState":{"key":"09","name":"Bayern"}},{"name":"Stelzerstr.","postalCode":"84333","locality":"Malgersdorf","municipality":{"key":"09277131","name":"Malgersdorf","type":"Kreisangehörige_Gemeinde"},"district":{"key":"09277","name":"Rottal-Inn","type":"Landkreis"},"federalState":{"key":"09","name":"Bayern"}},{"name":"Striedlstr.","postalCode":"84333","locality":"Malgersdorf","municipality":{"key":"09277131","name":"Malgersdorf","type":"Kreisangehörige_Gemeinde"},"district":{"key":"09277","name":"Rottal-Inn","type":"Landkreis"},"federalState":{"key":"09","name":"Bayern"}},{"name":"Tattenbachstr.","postalCode":"84333","locality":"Malgersdorf","municipality":{"key":"09277131","name":"Malgersdorf","type":"Kreisangehörige_Gemeinde"},"district":{"key":"09277","name":"Rottal-Inn","type":"Landkreis"},"federalState":{"key":"09","name":"Bayern"}},{"name":"Traunerstr.","postalCode":"84333","locality":"Malgersdorf","municipality":{"key":"09277131","name":"Malgersdorf","type":"Kreisangehörige_Gemeinde"},"district":{"key":"09277","name":"Rottal-Inn","type":"Landkreis"},"federalState":{"key":"09","name":"Bayern"}},{"name":"Urlsbachstr.","postalCode":"84333","locality":"Malgersdorf","municipality":{"key":"09277131","name":"Malgersdorf","type":"Kreisangehörige_Gemeinde"},"district":{"key":"09277","name":"Rottal-Inn","type":"Landkreis"},"federalState":{"key":"09","name":"Bayern"}},{"name":"Uttendorferstr.","postalCode":"84333","locality":"Malgersdorf","municipality":{"key":"09277131","name":"Malgersdorf","type":"Kreisangehörige_Gemeinde"},"district":{"key":"09277","name":"Rottal-Inn","type":"Landkreis"},"federalState":{"key":"09","name":"Bayern"}},{"name":"Vislerstr.","postalCode":"84333","locality":"Malgersdorf","municipality":{"key":"09277131","name":"Malgersdorf","type":"Kreisangehörige_Gemeinde"},"district":{"key":"09277","name":"Rottal-Inn","type":"Landkreis"},"federalState":{"key":"09","name":"Bayern"}},]