[{"name":"Ahornweg","postalCode":"95707","locality":"Thiersheim","municipality":{"key":"09479158","name":"Thiersheim, M","type":"Markt"},"district":{"key":"09479","name":"Wunsiedel i.Fichtelgebirge","type":"Landkreis"},"federalState":{"key":"09","name":"Bayern"}},{"name":"Am Anger","postalCode":"95707","locality":"Thiersheim","municipality":{"key":"09479158","name":"Thiersheim, M","type":"Markt"},"district":{"key":"09479","name":"Wunsiedel i.Fichtelgebirge","type":"Landkreis"},"federalState":{"key":"09","name":"Bayern"}},{"name":"Am Bahnhof","postalCode":"95707","locality":"Thiersheim","municipality":{"key":"09479158","name":"Thiersheim, M","type":"Markt"},"district":{"key":"09479","name":"Wunsiedel i.Fichtelgebirge","type":"Landkreis"},"federalState":{"key":"09","name":"Bayern"}},{"name":"Am Grasigen Weg","postalCode":"95707","locality":"Thiersheim","municipality":{"key":"09479158","name":"Thiersheim, M","type":"Markt"},"district":{"key":"09479","name":"Wunsiedel i.Fichtelgebirge","type":"Landkreis"},"federalState":{"key":"09","name":"Bayern"}},{"name":"Am Hopfengarten","postalCode":"95707","locality":"Thiersheim","municipality":{"key":"09479158","name":"Thiersheim, M","type":"Markt"},"district":{"key":"09479","name":"Wunsiedel i.Fichtelgebirge","type":"Landkreis"},"federalState":{"key":"09","name":"Bayern"}},{"name":"Am Kellerhaus","postalCode":"95707","locality":"Thiersheim","municipality":{"key":"09479158","name":"Thiersheim, M","type":"Markt"},"district":{"key":"09479","name":"Wunsiedel i.Fichtelgebirge","type":"Landkreis"},"federalState":{"key":"09","name":"Bayern"}},{"name":"Am Steinbühl","postalCode":"95707","locality":"Thiersheim","municipality":{"key":"09479158","name":"Thiersheim, M","type":"Markt"},"district":{"key":"09479","name":"Wunsiedel i.Fichtelgebirge","type":"Landkreis"},"federalState":{"key":"09","name":"Bayern"}},{"name":"Am Thiersbach","postalCode":"95707","locality":"Thiersheim","municipality":{"key":"09479158","name":"Thiersheim, M","type":"Markt"},"district":{"key":"09479","name":"Wunsiedel i.Fichtelgebirge","type":"Landkreis"},"federalState":{"key":"09","name":"Bayern"}},{"name":"Arzberger Str.","postalCode":"95707","locality":"Thiersheim","municipality":{"key":"09479158","name":"Thiersheim, M","type":"Markt"},"district":{"key":"09479","name":"Wunsiedel i.Fichtelgebirge","type":"Landkreis"},"federalState":{"key":"09","name":"Bayern"}},{"name":"Badegasse","postalCode":"95707","locality":"Thiersheim","municipality":{"key":"09479158","name":"Thiersheim, M","type":"Markt"},"district":{"key":"09479","name":"Wunsiedel i.Fichtelgebirge","type":"Landkreis"},"federalState":{"key":"09","name":"Bayern"}},{"name":"Bauvereinstr.","postalCode":"95707","locality":"Thiersheim","municipality":{"key":"09479158","name":"Thiersheim, M","type":"Markt"},"district":{"key":"09479","name":"Wunsiedel i.Fichtelgebirge","type":"Landkreis"},"federalState":{"key":"09","name":"Bayern"}},{"name":"Blumenweg","postalCode":"95707","locality":"Thiersheim","municipality":{"key":"09479158","name":"Thiersheim, M","type":"Markt"},"district":{"key":"09479","name":"Wunsiedel i.Fichtelgebirge","type":"Landkreis"},"federalState":{"key":"09","name":"Bayern"}},{"name":"Burgstr.","postalCode":"95707","locality":"Thiersheim","municipality":{"key":"09479158","name":"Thiersheim, M","type":"Markt"},"district":{"key":"09479","name":"Wunsiedel i.Fichtelgebirge","type":"Landkreis"},"federalState":{"key":"09","name":"Bayern"}},{"name":"Dr.-M.-Lutherstr.","postalCode":"95707","locality":"Thiersheim","municipality":{"key":"09479158","name":"Thiersheim, M","type":"Markt"},"district":{"key":"09479","name":"Wunsiedel i.Fichtelgebirge","type":"Landkreis"},"federalState":{"key":"09","name":"Bayern"}},{"name":"Egerstr.","postalCode":"95707","locality":"Thiersheim","municipality":{"key":"09479158","name":"Thiersheim, M","type":"Markt"},"district":{"key":"09479","name":"Wunsiedel i.Fichtelgebirge","type":"Landkreis"},"federalState":{"key":"09","name":"Bayern"}},{"name":"Eichenweg","postalCode":"95707","locality":"Thiersheim","municipality":{"key":"09479158","name":"Thiersheim, M","type":"Markt"},"district":{"key":"09479","name":"Wunsiedel i.Fichtelgebirge","type":"Landkreis"},"federalState":{"key":"09","name":"Bayern"}},{"name":"Erbweg","postalCode":"95707","locality":"Thiersheim","municipality":{"key":"09479158","name":"Thiersheim, M","type":"Markt"},"district":{"key":"09479","name":"Wunsiedel i.Fichtelgebirge","type":"Landkreis"},"federalState":{"key":"09","name":"Bayern"}},{"name":"Fichtenweg","postalCode":"95707","locality":"Thiersheim","municipality":{"key":"09479158","name":"Thiersheim, M","type":"Markt"},"district":{"key":"09479","name":"Wunsiedel i.Fichtelgebirge","type":"Landkreis"},"federalState":{"key":"09","name":"Bayern"}},{"name":"Flurweg","postalCode":"95707","locality":"Thiersheim","municipality":{"key":"09479158","name":"Thiersheim, M","type":"Markt"},"district":{"key":"09479","name":"Wunsiedel i.Fichtelgebirge","type":"Landkreis"},"federalState":{"key":"09","name":"Bayern"}},{"name":"Friedhofsteig","postalCode":"95707","locality":"Thiersheim","municipality":{"key":"09479158","name":"Thiersheim, M","type":"Markt"},"district":{"key":"09479","name":"Wunsiedel i.Fichtelgebirge","type":"Landkreis"},"federalState":{"key":"09","name":"Bayern"}},{"name":"Gartenstr.","postalCode":"95707","locality":"Thiersheim","municipality":{"key":"09479158","name":"Thiersheim, M","type":"Markt"},"district":{"key":"09479","name":"Wunsiedel i.Fichtelgebirge","type":"Landkreis"},"federalState":{"key":"09","name":"Bayern"}},{"name":"Hauptstr.","postalCode":"95707","locality":"Thiersheim","municipality":{"key":"09479158","name":"Thiersheim, M","type":"Markt"},"district":{"key":"09479","name":"Wunsiedel i.Fichtelgebirge","type":"Landkreis"},"federalState":{"key":"09","name":"Bayern"}},{"name":"Heide","postalCode":"95707","locality":"Thiersheim","municipality":{"key":"09479158","name":"Thiersheim, M","type":"Markt"},"district":{"key":"09479","name":"Wunsiedel i.Fichtelgebirge","type":"Landkreis"},"federalState":{"key":"09","name":"Bayern"}},{"name":"Heideweg","postalCode":"95707","locality":"Thiersheim","municipality":{"key":"09479158","name":"Thiersheim, M","type":"Markt"},"district":{"key":"09479","name":"Wunsiedel i.Fichtelgebirge","type":"Landkreis"},"federalState":{"key":"09","name":"Bayern"}},{"name":"Heimstr.","postalCode":"95707","locality":"Thiersheim","municipality":{"key":"09479158","name":"Thiersheim, M","type":"Markt"},"district":{"key":"09479","name":"Wunsiedel i.Fichtelgebirge","type":"Landkreis"},"federalState":{"key":"09","name":"Bayern"}},{"name":"Jahnstr.","postalCode":"95707","locality":"Thiersheim","municipality":{"key":"09479158","name":"Thiersheim, M","type":"Markt"},"district":{"key":"09479","name":"Wunsiedel i.Fichtelgebirge","type":"Landkreis"},"federalState":{"key":"09","name":"Bayern"}},{"name":"Kirchsteig","postalCode":"95707","locality":"Thiersheim","municipality":{"key":"09479158","name":"Thiersheim, M","type":"Markt"},"district":{"key":"09479","name":"Wunsiedel i.Fichtelgebirge","type":"Landkreis"},"federalState":{"key":"09","name":"Bayern"}},{"name":"Kolpingstr.","postalCode":"95707","locality":"Thiersheim","municipality":{"key":"09479158","name":"Thiersheim, M","type":"Markt"},"district":{"key":"09479","name":"Wunsiedel i.Fichtelgebirge","type":"Landkreis"},"federalState":{"key":"09","name":"Bayern"}},{"name":"Kothigenbibersbach","postalCode":"95707","locality":"Thiersheim","municipality":{"key":"09479158","name":"Thiersheim, M","type":"Markt"},"district":{"key":"09479","name":"Wunsiedel i.Fichtelgebirge","type":"Landkreis"},"federalState":{"key":"09","name":"Bayern"}},{"name":"Leutenberg","postalCode":"95707","locality":"Thiersheim","municipality":{"key":"09479158","name":"Thiersheim, M","type":"Markt"},"district":{"key":"09479","name":"Wunsiedel i.Fichtelgebirge","type":"Landkreis"},"federalState":{"key":"09","name":"Bayern"}},{"name":"Marktplatz","postalCode":"95707","locality":"Thiersheim","municipality":{"key":"09479158","name":"Thiersheim, M","type":"Markt"},"district":{"key":"09479","name":"Wunsiedel i.Fichtelgebirge","type":"Landkreis"},"federalState":{"key":"09","name":"Bayern"}},{"name":"Oberer Stadtgraben","postalCode":"95707","locality":"Thiersheim","municipality":{"key":"09479158","name":"Thiersheim, M","type":"Markt"},"district":{"key":"09479","name":"Wunsiedel i.Fichtelgebirge","type":"Landkreis"},"federalState":{"key":"09","name":"Bayern"}},{"name":"Pfarrweg","postalCode":"95707","locality":"Thiersheim","municipality":{"key":"09479158","name":"Thiersheim, M","type":"Markt"},"district":{"key":"09479","name":"Wunsiedel i.Fichtelgebirge","type":"Landkreis"},"federalState":{"key":"09","name":"Bayern"}},{"name":"Rosenweg","postalCode":"95707","locality":"Thiersheim","municipality":{"key":"09479158","name":"Thiersheim, M","type":"Markt"},"district":{"key":"09479","name":"Wunsiedel i.Fichtelgebirge","type":"Landkreis"},"federalState":{"key":"09","name":"Bayern"}},{"name":"Sandstr.","postalCode":"95707","locality":"Thiersheim","municipality":{"key":"09479158","name":"Thiersheim, M","type":"Markt"},"district":{"key":"09479","name":"Wunsiedel i.Fichtelgebirge","type":"Landkreis"},"federalState":{"key":"09","name":"Bayern"}},{"name":"Schulstr.","postalCode":"95707","locality":"Thiersheim","municipality":{"key":"09479158","name":"Thiersheim, M","type":"Markt"},"district":{"key":"09479","name":"Wunsiedel i.Fichtelgebirge","type":"Landkreis"},"federalState":{"key":"09","name":"Bayern"}},{"name":"Stemmas","postalCode":"95707","locality":"Thiersheim","municipality":{"key":"09479158","name":"Thiersheim, M","type":"Markt"},"district":{"key":"09479","name":"Wunsiedel i.Fichtelgebirge","type":"Landkreis"},"federalState":{"key":"09","name":"Bayern"}},{"name":"Stemmaser Str.","postalCode":"95707","locality":"Thiersheim","municipality":{"key":"09479158","name":"Thiersheim, M","type":"Markt"},"district":{"key":"09479","name":"Wunsiedel i.Fichtelgebirge","type":"Landkreis"},"federalState":{"key":"09","name":"Bayern"}},{"name":"Thiersteiner Str.","postalCode":"95707","locality":"Thiersheim","municipality":{"key":"09479158","name":"Thiersheim, M","type":"Markt"},"district":{"key":"09479","name":"Wunsiedel i.Fichtelgebirge","type":"Landkreis"},"federalState":{"key":"09","name":"Bayern"}},{"name":"Unterer Stadtgraben","postalCode":"95707","locality":"Thiersheim","municipality":{"key":"09479158","name":"Thiersheim, M","type":"Markt"},"district":{"key":"09479","name":"Wunsiedel i.Fichtelgebirge","type":"Landkreis"},"federalState":{"key":"09","name":"Bayern"}},{"name":"Vorstadt","postalCode":"95707","locality":"Thiersheim","municipality":{"key":"09479158","name":"Thiersheim, M","type":"Markt"},"district":{"key":"09479","name":"Wunsiedel i.Fichtelgebirge","type":"Landkreis"},"federalState":{"key":"09","name":"Bayern"}},{"name":"Weidenstr.","postalCode":"95707","locality":"Thiersheim","municipality":{"key":"09479158","name":"Thiersheim, M","type":"Markt"},"district":{"key":"09479","name":"Wunsiedel i.Fichtelgebirge","type":"Landkreis"},"federalState":{"key":"09","name":"Bayern"}},{"name":"Wendeplatz","postalCode":"95707","locality":"Thiersheim","municipality":{"key":"09479158","name":"Thiersheim, M","type":"Markt"},"district":{"key":"09479","name":"Wunsiedel i.Fichtelgebirge","type":"Landkreis"},"federalState":{"key":"09","name":"Bayern"}},{"name":"Werkstr.","postalCode":"95707","locality":"Thiersheim","municipality":{"key":"09479158","name":"Thiersheim, M","type":"Markt"},"district":{"key":"09479","name":"Wunsiedel i.Fichtelgebirge","type":"Landkreis"},"federalState":{"key":"09","name":"Bayern"}},{"name":"Wiesenweg","postalCode":"95707","locality":"Thiersheim","municipality":{"key":"09479158","name":"Thiersheim, M","type":"Markt"},"district":{"key":"09479","name":"Wunsiedel i.Fichtelgebirge","type":"Landkreis"},"federalState":{"key":"09","name":"Bayern"}},{"name":"Wülfling","postalCode":"95707","locality":"Thiersheim","municipality":{"key":"09479158","name":"Thiersheim, M","type":"Markt"},"district":{"key":"09479","name":"Wunsiedel i.Fichtelgebirge","type":"Landkreis"},"federalState":{"key":"09","name":"Bayern"}},{"name":"Wunsiedler Str.","postalCode":"95707","locality":"Thiersheim","municipality":{"key":"09479158","name":"Thiersheim, M","type":"Markt"},"district":{"key":"09479","name":"Wunsiedel i.Fichtelgebirge","type":"Landkreis"},"federalState":{"key":"09","name":"Bayern"}},]