[{"name":"Am Feld","postalCode":"17237","locality":"Kratzeburg","municipality":{"key":"13071080","name":"Kratzeburg","type":"Kreisangehörige_Gemeinde"},"district":{"key":"13071","name":"Mecklenburgische Seenplatte","type":"Landkreis"},"federalState":{"key":"13","name":"Mecklenburg-Vorpommern"}},{"name":"Dalmsdorf","postalCode":"17237","locality":"Kratzeburg","municipality":{"key":"13071080","name":"Kratzeburg","type":"Kreisangehörige_Gemeinde"},"district":{"key":"13071","name":"Mecklenburgische Seenplatte","type":"Landkreis"},"federalState":{"key":"13","name":"Mecklenburg-Vorpommern"}},{"name":"Dorfstr.","postalCode":"17237","locality":"Kratzeburg","municipality":{"key":"13071080","name":"Kratzeburg","type":"Kreisangehörige_Gemeinde"},"district":{"key":"13071","name":"Mecklenburgische Seenplatte","type":"Landkreis"},"federalState":{"key":"13","name":"Mecklenburg-Vorpommern"}},{"name":"Dorfstr. Kratzeburg","postalCode":"17237","locality":"Kratzeburg","municipality":{"key":"13071080","name":"Kratzeburg","type":"Kreisangehörige_Gemeinde"},"district":{"key":"13071","name":"Mecklenburgische Seenplatte","type":"Landkreis"},"federalState":{"key":"13","name":"Mecklenburg-Vorpommern"}},{"name":"Granzin","postalCode":"17237","locality":"Kratzeburg","municipality":{"key":"13071080","name":"Kratzeburg","type":"Kreisangehörige_Gemeinde"},"district":{"key":"13071","name":"Mecklenburgische Seenplatte","type":"Landkreis"},"federalState":{"key":"13","name":"Mecklenburg-Vorpommern"}},{"name":"Grenzweg","postalCode":"17237","locality":"Kratzeburg","municipality":{"key":"13071080","name":"Kratzeburg","type":"Kreisangehörige_Gemeinde"},"district":{"key":"13071","name":"Mecklenburgische Seenplatte","type":"Landkreis"},"federalState":{"key":"13","name":"Mecklenburg-Vorpommern"}},{"name":"Gutspark Dambeck","postalCode":"17237","locality":"Kratzeburg","municipality":{"key":"13071080","name":"Kratzeburg","type":"Kreisangehörige_Gemeinde"},"district":{"key":"13071","name":"Mecklenburgische Seenplatte","type":"Landkreis"},"federalState":{"key":"13","name":"Mecklenburg-Vorpommern"}},{"name":"Krienke","postalCode":"17237","locality":"Kratzeburg","municipality":{"key":"13071080","name":"Kratzeburg","type":"Kreisangehörige_Gemeinde"},"district":{"key":"13071","name":"Mecklenburgische Seenplatte","type":"Landkreis"},"federalState":{"key":"13","name":"Mecklenburg-Vorpommern"}},{"name":"Pieverstorf","postalCode":"17237","locality":"Kratzeburg","municipality":{"key":"13071080","name":"Kratzeburg","type":"Kreisangehörige_Gemeinde"},"district":{"key":"13071","name":"Mecklenburgische Seenplatte","type":"Landkreis"},"federalState":{"key":"13","name":"Mecklenburg-Vorpommern"}},{"name":"Siebenbergeweg","postalCode":"17237","locality":"Kratzeburg","municipality":{"key":"13071080","name":"Kratzeburg","type":"Kreisangehörige_Gemeinde"},"district":{"key":"13071","name":"Mecklenburgische Seenplatte","type":"Landkreis"},"federalState":{"key":"13","name":"Mecklenburg-Vorpommern"}},{"name":"Spuren-Weg","postalCode":"17237","locality":"Kratzeburg","municipality":{"key":"13071080","name":"Kratzeburg","type":"Kreisangehörige_Gemeinde"},"district":{"key":"13071","name":"Mecklenburgische Seenplatte","type":"Landkreis"},"federalState":{"key":"13","name":"Mecklenburg-Vorpommern"}},{"name":"Ulmenallee","postalCode":"17237","locality":"Kratzeburg","municipality":{"key":"13071080","name":"Kratzeburg","type":"Kreisangehörige_Gemeinde"},"district":{"key":"13071","name":"Mecklenburgische Seenplatte","type":"Landkreis"},"federalState":{"key":"13","name":"Mecklenburg-Vorpommern"}},{"name":"Umspannwerk","postalCode":"17237","locality":"Kratzeburg","municipality":{"key":"13071080","name":"Kratzeburg","type":"Kreisangehörige_Gemeinde"},"district":{"key":"13071","name":"Mecklenburgische Seenplatte","type":"Landkreis"},"federalState":{"key":"13","name":"Mecklenburg-Vorpommern"}},]