[{"key":"10016101","name":"Acherli","postalCode":"6436","locality":"Muotathal","commune":{"key":"1367","name":"Muotathal","shortName":"Muotathal"},"district":{"key":"506","name":"Bezirk Schwyz"},"canton":{"key":"5","code":"SZ","name":"Schwyz"},"status":"Real"},{"key":"10178874","name":"Achslen","postalCode":"6436","locality":"Muotathal","commune":{"key":"1367","name":"Muotathal","shortName":"Muotathal"},"district":{"key":"506","name":"Bezirk Schwyz"},"canton":{"key":"5","code":"SZ","name":"Schwyz"},"status":"Real"},{"key":"10087276","name":"Adelmatt","postalCode":"6436","locality":"Muotathal","commune":{"key":"1367","name":"Muotathal","shortName":"Muotathal"},"district":{"key":"506","name":"Bezirk Schwyz"},"canton":{"key":"5","code":"SZ","name":"Schwyz"},"status":"Real"},{"key":"10178305","name":"Aendiberg","postalCode":"6436","locality":"Muotathal","commune":{"key":"1367","name":"Muotathal","shortName":"Muotathal"},"district":{"key":"506","name":"Bezirk Schwyz"},"canton":{"key":"5","code":"SZ","name":"Schwyz"},"status":"Real"},{"key":"10178875","name":"Ahöreli","postalCode":"6436","locality":"Muotathal","commune":{"key":"1367","name":"Muotathal","shortName":"Muotathal"},"district":{"key":"506","name":"Bezirk Schwyz"},"canton":{"key":"5","code":"SZ","name":"Schwyz"},"status":"Real"},{"key":"10170737","name":"Allmigli","postalCode":"6436","locality":"Muotathal","commune":{"key":"1367","name":"Muotathal","shortName":"Muotathal"},"district":{"key":"506","name":"Bezirk Schwyz"},"canton":{"key":"5","code":"SZ","name":"Schwyz"},"status":"Real"},{"key":"10173732","name":"Alpeli","postalCode":"6436","locality":"Muotathal","commune":{"key":"1367","name":"Muotathal","shortName":"Muotathal"},"district":{"key":"506","name":"Bezirk Schwyz"},"canton":{"key":"5","code":"SZ","name":"Schwyz"},"status":"Real"},{"key":"10235347","name":"Alp Matten","postalCode":"6436","locality":"Muotathal","commune":{"key":"1367","name":"Muotathal","shortName":"Muotathal"},"district":{"key":"506","name":"Bezirk Schwyz"},"canton":{"key":"5","code":"SZ","name":"Schwyz"},"status":"Real"},{"key":"10071173","name":"Alte Hundenen","postalCode":"6436","locality":"Muotathal","commune":{"key":"1367","name":"Muotathal","shortName":"Muotathal"},"district":{"key":"506","name":"Bezirk Schwyz"},"canton":{"key":"5","code":"SZ","name":"Schwyz"},"status":"Real"},{"key":"10016102","name":"Aport","postalCode":"6436","locality":"Muotathal","commune":{"key":"1367","name":"Muotathal","shortName":"Muotathal"},"district":{"key":"506","name":"Bezirk Schwyz"},"canton":{"key":"5","code":"SZ","name":"Schwyz"},"status":"Real"},{"key":"10254796","name":"Aportstrasse","postalCode":"6436","locality":"Muotathal","commune":{"key":"1367","name":"Muotathal","shortName":"Muotathal"},"district":{"key":"506","name":"Bezirk Schwyz"},"canton":{"key":"5","code":"SZ","name":"Schwyz"},"status":"Planned"},{"key":"10087291","name":"Bachgüetli","postalCode":"6436","locality":"Ried (Muotathal)","commune":{"key":"1367","name":"Muotathal","shortName":"Muotathal"},"district":{"key":"506","name":"Bezirk Schwyz"},"canton":{"key":"5","code":"SZ","name":"Schwyz"},"status":"Real"},{"key":"10120241","name":"Bächleren","postalCode":"6436","locality":"Muotathal","commune":{"key":"1367","name":"Muotathal","shortName":"Muotathal"},"district":{"key":"506","name":"Bezirk Schwyz"},"canton":{"key":"5","code":"SZ","name":"Schwyz"},"status":"Real"},{"key":"10110548","name":"Bächtenmatt","postalCode":"6436","locality":"Ried (Muotathal)","commune":{"key":"1367","name":"Muotathal","shortName":"Muotathal"},"district":{"key":"506","name":"Bezirk Schwyz"},"canton":{"key":"5","code":"SZ","name":"Schwyz"},"status":"Real"},{"key":"10016103","name":"Balm","postalCode":"6436","locality":"Muotathal","commune":{"key":"1367","name":"Muotathal","shortName":"Muotathal"},"district":{"key":"506","name":"Bezirk Schwyz"},"canton":{"key":"5","code":"SZ","name":"Schwyz"},"status":"Real"},{"key":"10192177","name":"Baumgarten","postalCode":"6436","locality":"Muotathal","commune":{"key":"1367","name":"Muotathal","shortName":"Muotathal"},"district":{"key":"506","name":"Bezirk Schwyz"},"canton":{"key":"5","code":"SZ","name":"Schwyz"},"status":"Real"},{"key":"10173725","name":"Bergen","postalCode":"6436","locality":"Muotathal","commune":{"key":"1367","name":"Muotathal","shortName":"Muotathal"},"district":{"key":"506","name":"Bezirk Schwyz"},"canton":{"key":"5","code":"SZ","name":"Schwyz"},"status":"Real"},{"key":"10019746","name":"Bettbach","postalCode":"6436","locality":"Ried (Muotathal)","commune":{"key":"1367","name":"Muotathal","shortName":"Muotathal"},"district":{"key":"506","name":"Bezirk Schwyz"},"canton":{"key":"5","code":"SZ","name":"Schwyz"},"status":"Real"},{"key":"10170816","name":"Biet","postalCode":"6436","locality":"Muotathal","commune":{"key":"1367","name":"Muotathal","shortName":"Muotathal"},"district":{"key":"506","name":"Bezirk Schwyz"},"canton":{"key":"5","code":"SZ","name":"Schwyz"},"status":"Real"},{"key":"10241748","name":"Blätsch","postalCode":"6436","locality":"Muotathal","commune":{"key":"1367","name":"Muotathal","shortName":"Muotathal"},"district":{"key":"506","name":"Bezirk Schwyz"},"canton":{"key":"5","code":"SZ","name":"Schwyz"},"status":"Real"},{"key":"10058040","name":"Boden","postalCode":"6436","locality":"Muotathal","commune":{"key":"1367","name":"Muotathal","shortName":"Muotathal"},"district":{"key":"506","name":"Bezirk Schwyz"},"canton":{"key":"5","code":"SZ","name":"Schwyz"},"status":"Real"},{"key":"10248104","name":"Boden","postalCode":"6436","locality":"Ried (Muotathal)","commune":{"key":"1367","name":"Muotathal","shortName":"Muotathal"},"district":{"key":"506","name":"Bezirk Schwyz"},"canton":{"key":"5","code":"SZ","name":"Schwyz"},"status":"Real"},{"key":"10259223","name":"Bödmer","postalCode":"6436","locality":"Muotathal","commune":{"key":"1367","name":"Muotathal","shortName":"Muotathal"},"district":{"key":"506","name":"Bezirk Schwyz"},"canton":{"key":"5","code":"SZ","name":"Schwyz"},"status":"Real"},{"key":"10158586","name":"Bödmeren","postalCode":"6436","locality":"Muotathal","commune":{"key":"1367","name":"Muotathal","shortName":"Muotathal"},"district":{"key":"506","name":"Bezirk Schwyz"},"canton":{"key":"5","code":"SZ","name":"Schwyz"},"status":"Real"},{"key":"10016104","name":"Brahn","postalCode":"6436","locality":"Muotathal","commune":{"key":"1367","name":"Muotathal","shortName":"Muotathal"},"district":{"key":"506","name":"Bezirk Schwyz"},"canton":{"key":"5","code":"SZ","name":"Schwyz"},"status":"Real"},{"key":"10016105","name":"Brämis","postalCode":"6436","locality":"Muotathal","commune":{"key":"1367","name":"Muotathal","shortName":"Muotathal"},"district":{"key":"506","name":"Bezirk Schwyz"},"canton":{"key":"5","code":"SZ","name":"Schwyz"},"status":"Real"},{"key":"10071175","name":"Brand","postalCode":"6436","locality":"Ried (Muotathal)","commune":{"key":"1367","name":"Muotathal","shortName":"Muotathal"},"district":{"key":"506","name":"Bezirk Schwyz"},"canton":{"key":"5","code":"SZ","name":"Schwyz"},"status":"Real"},{"key":"10163695","name":"Brust","postalCode":"6436","locality":"Muotathal","commune":{"key":"1367","name":"Muotathal","shortName":"Muotathal"},"district":{"key":"506","name":"Bezirk Schwyz"},"canton":{"key":"5","code":"SZ","name":"Schwyz"},"status":"Real"},{"key":"10115799","name":"Büchsenen","postalCode":"6436","locality":"Muotathal","commune":{"key":"1367","name":"Muotathal","shortName":"Muotathal"},"district":{"key":"506","name":"Bezirk Schwyz"},"canton":{"key":"5","code":"SZ","name":"Schwyz"},"status":"Real"},{"key":"10071176","name":"Buobenmatt","postalCode":"6436","locality":"Muotathal","commune":{"key":"1367","name":"Muotathal","shortName":"Muotathal"},"district":{"key":"506","name":"Bezirk Schwyz"},"canton":{"key":"5","code":"SZ","name":"Schwyz"},"status":"Real"},{"key":"10019747","name":"Büöl","postalCode":"6436","locality":"Ried (Muotathal)","commune":{"key":"1367","name":"Muotathal","shortName":"Muotathal"},"district":{"key":"506","name":"Bezirk Schwyz"},"canton":{"key":"5","code":"SZ","name":"Schwyz"},"status":"Real"},{"key":"10110544","name":"Bürglen","postalCode":"6436","locality":"Muotathal","commune":{"key":"1367","name":"Muotathal","shortName":"Muotathal"},"district":{"key":"506","name":"Bezirk Schwyz"},"canton":{"key":"5","code":"SZ","name":"Schwyz"},"status":"Real"},{"key":"10241749","name":"Butzen","postalCode":"6436","locality":"Muotathal","commune":{"key":"1367","name":"Muotathal","shortName":"Muotathal"},"district":{"key":"506","name":"Bezirk Schwyz"},"canton":{"key":"5","code":"SZ","name":"Schwyz"},"status":"Real"},{"key":"10259230","name":"Chinzertal","postalCode":"6436","locality":"Muotathal","commune":{"key":"1367","name":"Muotathal","shortName":"Muotathal"},"district":{"key":"506","name":"Bezirk Schwyz"},"canton":{"key":"5","code":"SZ","name":"Schwyz"},"status":"Real"},{"key":"10192131","name":"Chlimatt","postalCode":"6436","locality":"Ried (Muotathal)","commune":{"key":"1367","name":"Muotathal","shortName":"Muotathal"},"district":{"key":"506","name":"Bezirk Schwyz"},"canton":{"key":"5","code":"SZ","name":"Schwyz"},"status":"Real"},{"key":"10016106","name":"Dammstrasse","postalCode":"6436","locality":"Muotathal","commune":{"key":"1367","name":"Muotathal","shortName":"Muotathal"},"district":{"key":"506","name":"Bezirk Schwyz"},"canton":{"key":"5","code":"SZ","name":"Schwyz"},"status":"Real"},{"key":"10087277","name":"Denkmalstrasse","postalCode":"6436","locality":"Muotathal","commune":{"key":"1367","name":"Muotathal","shortName":"Muotathal"},"district":{"key":"506","name":"Bezirk Schwyz"},"canton":{"key":"5","code":"SZ","name":"Schwyz"},"status":"Real"},{"key":"10174086","name":"Ebnet","postalCode":"6436","locality":"Muotathal","commune":{"key":"1367","name":"Muotathal","shortName":"Muotathal"},"district":{"key":"506","name":"Bezirk Schwyz"},"canton":{"key":"5","code":"SZ","name":"Schwyz"},"status":"Real"},{"key":"10071178","name":"Egg","postalCode":"6436","locality":"Muotathal","commune":{"key":"1367","name":"Muotathal","shortName":"Muotathal"},"district":{"key":"506","name":"Bezirk Schwyz"},"canton":{"key":"5","code":"SZ","name":"Schwyz"},"status":"Real"},{"key":"10016107","name":"Enzenen","postalCode":"6436","locality":"Muotathal","commune":{"key":"1367","name":"Muotathal","shortName":"Muotathal"},"district":{"key":"506","name":"Bezirk Schwyz"},"canton":{"key":"5","code":"SZ","name":"Schwyz"},"status":"Real"},{"key":"10117449","name":"Erlen","postalCode":"6436","locality":"Muotathal","commune":{"key":"1367","name":"Muotathal","shortName":"Muotathal"},"district":{"key":"506","name":"Bezirk Schwyz"},"canton":{"key":"5","code":"SZ","name":"Schwyz"},"status":"Real"},{"key":"10178885","name":"Färlen","postalCode":"6436","locality":"Muotathal","commune":{"key":"1367","name":"Muotathal","shortName":"Muotathal"},"district":{"key":"506","name":"Bezirk Schwyz"},"canton":{"key":"5","code":"SZ","name":"Schwyz"},"status":"Real"},{"key":"10016108","name":"Figgleren","postalCode":"6436","locality":"Muotathal","commune":{"key":"1367","name":"Muotathal","shortName":"Muotathal"},"district":{"key":"506","name":"Bezirk Schwyz"},"canton":{"key":"5","code":"SZ","name":"Schwyz"},"status":"Real"},{"key":"10170461","name":"Fluhhof","postalCode":"6436","locality":"Ried (Muotathal)","commune":{"key":"1367","name":"Muotathal","shortName":"Muotathal"},"district":{"key":"506","name":"Bezirk Schwyz"},"canton":{"key":"5","code":"SZ","name":"Schwyz"},"status":"Real"},{"key":"10178314","name":"Föllmis","postalCode":"6436","locality":"Ried (Muotathal)","commune":{"key":"1367","name":"Muotathal","shortName":"Muotathal"},"district":{"key":"506","name":"Bezirk Schwyz"},"canton":{"key":"5","code":"SZ","name":"Schwyz"},"status":"Real"},{"key":"10174089","name":"Frutt","postalCode":"6436","locality":"Muotathal","commune":{"key":"1367","name":"Muotathal","shortName":"Muotathal"},"district":{"key":"506","name":"Bezirk Schwyz"},"canton":{"key":"5","code":"SZ","name":"Schwyz"},"status":"Real"},{"key":"10259226","name":"Frutt","postalCode":"6436","locality":"Muotathal","commune":{"key":"1367","name":"Muotathal","shortName":"Muotathal"},"district":{"key":"506","name":"Bezirk Schwyz"},"canton":{"key":"5","code":"SZ","name":"Schwyz"},"status":"Real"},{"key":"10178156","name":"Fruttli","postalCode":"6436","locality":"Muotathal","commune":{"key":"1367","name":"Muotathal","shortName":"Muotathal"},"district":{"key":"506","name":"Bezirk Schwyz"},"canton":{"key":"5","code":"SZ","name":"Schwyz"},"status":"Real"},{"key":"10071180","name":"Fugglen","postalCode":"6436","locality":"Muotathal","commune":{"key":"1367","name":"Muotathal","shortName":"Muotathal"},"district":{"key":"506","name":"Bezirk Schwyz"},"canton":{"key":"5","code":"SZ","name":"Schwyz"},"status":"Real"},{"key":"10178307","name":"Gängstrasse","postalCode":"6436","locality":"Muotathal","commune":{"key":"1367","name":"Muotathal","shortName":"Muotathal"},"district":{"key":"506","name":"Bezirk Schwyz"},"canton":{"key":"5","code":"SZ","name":"Schwyz"},"status":"Real"},{"key":"10087292","name":"Gietzenen","postalCode":"6436","locality":"Ried (Muotathal)","commune":{"key":"1367","name":"Muotathal","shortName":"Muotathal"},"district":{"key":"506","name":"Bezirk Schwyz"},"canton":{"key":"5","code":"SZ","name":"Schwyz"},"status":"Real"},{"key":"10016109","name":"Gigern","postalCode":"6436","locality":"Muotathal","commune":{"key":"1367","name":"Muotathal","shortName":"Muotathal"},"district":{"key":"506","name":"Bezirk Schwyz"},"canton":{"key":"5","code":"SZ","name":"Schwyz"},"status":"Real"},{"key":"10178878","name":"Goldplangg","postalCode":"6436","locality":"Muotathal","commune":{"key":"1367","name":"Muotathal","shortName":"Muotathal"},"district":{"key":"506","name":"Bezirk Schwyz"},"canton":{"key":"5","code":"SZ","name":"Schwyz"},"status":"Real"},{"key":"10192178","name":"Goldplanggstrasse","postalCode":"6436","locality":"Muotathal","commune":{"key":"1367","name":"Muotathal","shortName":"Muotathal"},"district":{"key":"506","name":"Bezirk Schwyz"},"canton":{"key":"5","code":"SZ","name":"Schwyz"},"status":"Real"},{"key":"10174090","name":"Grindsblacken","postalCode":"6436","locality":"Muotathal","commune":{"key":"1367","name":"Muotathal","shortName":"Muotathal"},"district":{"key":"506","name":"Bezirk Schwyz"},"canton":{"key":"5","code":"SZ","name":"Schwyz"},"status":"Real"},{"key":"10131252","name":"Grossmatt","postalCode":"6436","locality":"Muotathal","commune":{"key":"1367","name":"Muotathal","shortName":"Muotathal"},"district":{"key":"506","name":"Bezirk Schwyz"},"canton":{"key":"5","code":"SZ","name":"Schwyz"},"status":"Real"},{"key":"10206124","name":"Grüen Boden","postalCode":"6436","locality":"Muotathal","commune":{"key":"1367","name":"Muotathal","shortName":"Muotathal"},"district":{"key":"506","name":"Bezirk Schwyz"},"canton":{"key":"5","code":"SZ","name":"Schwyz"},"status":"Real"},{"key":"10259225","name":"Grund","postalCode":"6436","locality":"Muotathal","commune":{"key":"1367","name":"Muotathal","shortName":"Muotathal"},"district":{"key":"506","name":"Bezirk Schwyz"},"canton":{"key":"5","code":"SZ","name":"Schwyz"},"status":"Real"},{"key":"10112703","name":"Grünenwald","postalCode":"6436","locality":"Ried (Muotathal)","commune":{"key":"1367","name":"Muotathal","shortName":"Muotathal"},"district":{"key":"506","name":"Bezirk Schwyz"},"canton":{"key":"5","code":"SZ","name":"Schwyz"},"status":"Real"},{"key":"10178154","name":"Gschwend","postalCode":"6436","locality":"Muotathal","commune":{"key":"1367","name":"Muotathal","shortName":"Muotathal"},"district":{"key":"506","name":"Bezirk Schwyz"},"canton":{"key":"5","code":"SZ","name":"Schwyz"},"status":"Real"},{"key":"10058027","name":"Guggeli","postalCode":"6436","locality":"Muotathal","commune":{"key":"1367","name":"Muotathal","shortName":"Muotathal"},"district":{"key":"506","name":"Bezirk Schwyz"},"canton":{"key":"5","code":"SZ","name":"Schwyz"},"status":"Real"},{"key":"10019748","name":"Günteren","postalCode":"6436","locality":"Ried (Muotathal)","commune":{"key":"1367","name":"Muotathal","shortName":"Muotathal"},"district":{"key":"506","name":"Bezirk Schwyz"},"canton":{"key":"5","code":"SZ","name":"Schwyz"},"status":"Real"},{"key":"10190823","name":"Gwerd","postalCode":"6436","locality":"Ried (Muotathal)","commune":{"key":"1367","name":"Muotathal","shortName":"Muotathal"},"district":{"key":"506","name":"Bezirk Schwyz"},"canton":{"key":"5","code":"SZ","name":"Schwyz"},"status":"Real"},{"key":"10016110","name":"Haselbach","postalCode":"6436","locality":"Muotathal","commune":{"key":"1367","name":"Muotathal","shortName":"Muotathal"},"district":{"key":"506","name":"Bezirk Schwyz"},"canton":{"key":"5","code":"SZ","name":"Schwyz"},"status":"Real"},{"key":"10016111","name":"Hauptstrasse","postalCode":"6436","locality":"Muotathal","commune":{"key":"1367","name":"Muotathal","shortName":"Muotathal"},"district":{"key":"506","name":"Bezirk Schwyz"},"canton":{"key":"5","code":"SZ","name":"Schwyz"},"status":"Real"},{"key":"10016111","name":"Hauptstrasse","postalCode":"6436","locality":"Ried (Muotathal)","commune":{"key":"1367","name":"Muotathal","shortName":"Muotathal"},"district":{"key":"506","name":"Bezirk Schwyz"},"canton":{"key":"5","code":"SZ","name":"Schwyz"},"status":"Real"},{"key":"10087278","name":"Hausmatt","postalCode":"6436","locality":"Muotathal","commune":{"key":"1367","name":"Muotathal","shortName":"Muotathal"},"district":{"key":"506","name":"Bezirk Schwyz"},"canton":{"key":"5","code":"SZ","name":"Schwyz"},"status":"Real"},{"key":"10058028","name":"Hellberg","postalCode":"6436","locality":"Muotathal","commune":{"key":"1367","name":"Muotathal","shortName":"Muotathal"},"district":{"key":"506","name":"Bezirk Schwyz"},"canton":{"key":"5","code":"SZ","name":"Schwyz"},"status":"Real"},{"key":"10105879","name":"Hellweid","postalCode":"6436","locality":"Muotathal","commune":{"key":"1367","name":"Muotathal","shortName":"Muotathal"},"district":{"key":"506","name":"Bezirk Schwyz"},"canton":{"key":"5","code":"SZ","name":"Schwyz"},"status":"Real"},{"key":"10016112","name":"Hengsthorn","postalCode":"6436","locality":"Muotathal","commune":{"key":"1367","name":"Muotathal","shortName":"Muotathal"},"district":{"key":"506","name":"Bezirk Schwyz"},"canton":{"key":"5","code":"SZ","name":"Schwyz"},"status":"Real"},{"key":"10019749","name":"Hesigen","postalCode":"6436","locality":"Ried (Muotathal)","commune":{"key":"1367","name":"Muotathal","shortName":"Muotathal"},"district":{"key":"506","name":"Bezirk Schwyz"},"canton":{"key":"5","code":"SZ","name":"Schwyz"},"status":"Real"},{"key":"10172856","name":"Himmelbach","postalCode":"6436","locality":"Muotathal","commune":{"key":"1367","name":"Muotathal","shortName":"Muotathal"},"district":{"key":"506","name":"Bezirk Schwyz"},"canton":{"key":"5","code":"SZ","name":"Schwyz"},"status":"Real"},{"key":"10207764","name":"Hinter Heubrig","postalCode":"6436","locality":"Muotathal","commune":{"key":"1367","name":"Muotathal","shortName":"Muotathal"},"district":{"key":"506","name":"Bezirk Schwyz"},"canton":{"key":"5","code":"SZ","name":"Schwyz"},"status":"Real"},{"key":"10110545","name":"Hinterschachen","postalCode":"6436","locality":"Muotathal","commune":{"key":"1367","name":"Muotathal","shortName":"Muotathal"},"district":{"key":"506","name":"Bezirk Schwyz"},"canton":{"key":"5","code":"SZ","name":"Schwyz"},"status":"Real"},{"key":"10019750","name":"Höfli","postalCode":"6436","locality":"Ried (Muotathal)","commune":{"key":"1367","name":"Muotathal","shortName":"Muotathal"},"district":{"key":"506","name":"Bezirk Schwyz"},"canton":{"key":"5","code":"SZ","name":"Schwyz"},"status":"Real"},{"key":"10087279","name":"Hoftrog","postalCode":"6436","locality":"Muotathal","commune":{"key":"1367","name":"Muotathal","shortName":"Muotathal"},"district":{"key":"506","name":"Bezirk Schwyz"},"canton":{"key":"5","code":"SZ","name":"Schwyz"},"status":"Real"},{"key":"10071181","name":"Holzstrasse","postalCode":"6436","locality":"Muotathal","commune":{"key":"1367","name":"Muotathal","shortName":"Muotathal"},"district":{"key":"506","name":"Bezirk Schwyz"},"canton":{"key":"5","code":"SZ","name":"Schwyz"},"status":"Real"},{"key":"10016113","name":"Horgrasen","postalCode":"6436","locality":"Muotathal","commune":{"key":"1367","name":"Muotathal","shortName":"Muotathal"},"district":{"key":"506","name":"Bezirk Schwyz"},"canton":{"key":"5","code":"SZ","name":"Schwyz"},"status":"Real"},{"key":"10016114","name":"Hundenen","postalCode":"6436","locality":"Muotathal","commune":{"key":"1367","name":"Muotathal","shortName":"Muotathal"},"district":{"key":"506","name":"Bezirk Schwyz"},"canton":{"key":"5","code":"SZ","name":"Schwyz"},"status":"Real"},{"key":"10087280","name":"Hundenengässli","postalCode":"6436","locality":"Muotathal","commune":{"key":"1367","name":"Muotathal","shortName":"Muotathal"},"district":{"key":"506","name":"Bezirk Schwyz"},"canton":{"key":"5","code":"SZ","name":"Schwyz"},"status":"Real"},{"key":"10116590","name":"Hundschöpfi","postalCode":"6436","locality":"Muotathal","commune":{"key":"1367","name":"Muotathal","shortName":"Muotathal"},"district":{"key":"506","name":"Bezirk Schwyz"},"canton":{"key":"5","code":"SZ","name":"Schwyz"},"status":"Real"},{"key":"10180567","name":"Huob","postalCode":"6436","locality":"Muotathal","commune":{"key":"1367","name":"Muotathal","shortName":"Muotathal"},"district":{"key":"506","name":"Bezirk Schwyz"},"canton":{"key":"5","code":"SZ","name":"Schwyz"},"status":"Real"},{"key":"10192129","name":"Huobli","postalCode":"6436","locality":"Muotathal","commune":{"key":"1367","name":"Muotathal","shortName":"Muotathal"},"district":{"key":"506","name":"Bezirk Schwyz"},"canton":{"key":"5","code":"SZ","name":"Schwyz"},"status":"Real"},{"key":"10016115","name":"Hürithal","postalCode":"6436","locality":"Muotathal","commune":{"key":"1367","name":"Muotathal","shortName":"Muotathal"},"district":{"key":"506","name":"Bezirk Schwyz"},"canton":{"key":"5","code":"SZ","name":"Schwyz"},"status":"Real"},{"key":"10058041","name":"Husmattli","postalCode":"6436","locality":"Ried (Muotathal)","commune":{"key":"1367","name":"Muotathal","shortName":"Muotathal"},"district":{"key":"506","name":"Bezirk Schwyz"},"canton":{"key":"5","code":"SZ","name":"Schwyz"},"status":"Real"},{"key":"10071182","name":"Industriestrasse","postalCode":"6436","locality":"Ried (Muotathal)","commune":{"key":"1367","name":"Muotathal","shortName":"Muotathal"},"district":{"key":"506","name":"Bezirk Schwyz"},"canton":{"key":"5","code":"SZ","name":"Schwyz"},"status":"Real"},{"key":"10174084","name":"Jentenen","postalCode":"6436","locality":"Ried (Muotathal)","commune":{"key":"1367","name":"Muotathal","shortName":"Muotathal"},"district":{"key":"506","name":"Bezirk Schwyz"},"canton":{"key":"5","code":"SZ","name":"Schwyz"},"status":"Real"},{"key":"10087293","name":"Jessenen","postalCode":"6436","locality":"Ried (Muotathal)","commune":{"key":"1367","name":"Muotathal","shortName":"Muotathal"},"district":{"key":"506","name":"Bezirk Schwyz"},"canton":{"key":"5","code":"SZ","name":"Schwyz"},"status":"Real"},{"key":"10016116","name":"Juchli","postalCode":"6436","locality":"Muotathal","commune":{"key":"1367","name":"Muotathal","shortName":"Muotathal"},"district":{"key":"506","name":"Bezirk Schwyz"},"canton":{"key":"5","code":"SZ","name":"Schwyz"},"status":"Real"},{"key":"10019751","name":"Kapellmatt","postalCode":"6436","locality":"Ried (Muotathal)","commune":{"key":"1367","name":"Muotathal","shortName":"Muotathal"},"district":{"key":"506","name":"Bezirk Schwyz"},"canton":{"key":"5","code":"SZ","name":"Schwyz"},"status":"Real"},{"key":"10071183","name":"Kapf","postalCode":"6436","locality":"Muotathal","commune":{"key":"1367","name":"Muotathal","shortName":"Muotathal"},"district":{"key":"506","name":"Bezirk Schwyz"},"canton":{"key":"5","code":"SZ","name":"Schwyz"},"status":"Real"},{"key":"10058029","name":"Kapfli","postalCode":"6436","locality":"Muotathal","commune":{"key":"1367","name":"Muotathal","shortName":"Muotathal"},"district":{"key":"506","name":"Bezirk Schwyz"},"canton":{"key":"5","code":"SZ","name":"Schwyz"},"status":"Real"},{"key":"10166803","name":"Kaplanenhaus","postalCode":"6436","locality":"Ried (Muotathal)","commune":{"key":"1367","name":"Muotathal","shortName":"Muotathal"},"district":{"key":"506","name":"Bezirk Schwyz"},"canton":{"key":"5","code":"SZ","name":"Schwyz"},"status":"Real"},{"key":"10105880","name":"Kilisried","postalCode":"6436","locality":"Muotathal","commune":{"key":"1367","name":"Muotathal","shortName":"Muotathal"},"district":{"key":"506","name":"Bezirk Schwyz"},"canton":{"key":"5","code":"SZ","name":"Schwyz"},"status":"Real"},{"key":"10129766","name":"Kleinhaus","postalCode":"6436","locality":"Ried (Muotathal)","commune":{"key":"1367","name":"Muotathal","shortName":"Muotathal"},"district":{"key":"506","name":"Bezirk Schwyz"},"canton":{"key":"5","code":"SZ","name":"Schwyz"},"status":"Real"},{"key":"10058030","name":"Kleinwydmen","postalCode":"6436","locality":"Muotathal","commune":{"key":"1367","name":"Muotathal","shortName":"Muotathal"},"district":{"key":"506","name":"Bezirk Schwyz"},"canton":{"key":"5","code":"SZ","name":"Schwyz"},"status":"Real"},{"key":"10158595","name":"Klön","postalCode":"6436","locality":"Muotathal","commune":{"key":"1367","name":"Muotathal","shortName":"Muotathal"},"district":{"key":"506","name":"Bezirk Schwyz"},"canton":{"key":"5","code":"SZ","name":"Schwyz"},"status":"Real"},{"key":"10016117","name":"Klosterberg","postalCode":"6436","locality":"Muotathal","commune":{"key":"1367","name":"Muotathal","shortName":"Muotathal"},"district":{"key":"506","name":"Bezirk Schwyz"},"canton":{"key":"5","code":"SZ","name":"Schwyz"},"status":"Real"},{"key":"10087281","name":"Kloster St. Josef","postalCode":"6436","locality":"Muotathal","commune":{"key":"1367","name":"Muotathal","shortName":"Muotathal"},"district":{"key":"506","name":"Bezirk Schwyz"},"canton":{"key":"5","code":"SZ","name":"Schwyz"},"status":"Real"},{"key":"10016118","name":"Klosterstrasse","postalCode":"6436","locality":"Muotathal","commune":{"key":"1367","name":"Muotathal","shortName":"Muotathal"},"district":{"key":"506","name":"Bezirk Schwyz"},"canton":{"key":"5","code":"SZ","name":"Schwyz"},"status":"Real"},{"key":"10058031","name":"Klosterweid","postalCode":"6436","locality":"Muotathal","commune":{"key":"1367","name":"Muotathal","shortName":"Muotathal"},"district":{"key":"506","name":"Bezirk Schwyz"},"canton":{"key":"5","code":"SZ","name":"Schwyz"},"status":"Real"},{"key":"10178306","name":"Kreuz","postalCode":"6436","locality":"Muotathal","commune":{"key":"1367","name":"Muotathal","shortName":"Muotathal"},"district":{"key":"506","name":"Bezirk Schwyz"},"canton":{"key":"5","code":"SZ","name":"Schwyz"},"status":"Real"},{"key":"10016119","name":"Kreuzbühl","postalCode":"6436","locality":"Muotathal","commune":{"key":"1367","name":"Muotathal","shortName":"Muotathal"},"district":{"key":"506","name":"Bezirk Schwyz"},"canton":{"key":"5","code":"SZ","name":"Schwyz"},"status":"Real"},{"key":"10117335","name":"Krummen","postalCode":"6436","locality":"Muotathal","commune":{"key":"1367","name":"Muotathal","shortName":"Muotathal"},"district":{"key":"506","name":"Bezirk Schwyz"},"canton":{"key":"5","code":"SZ","name":"Schwyz"},"status":"Real"},{"key":"10178308","name":"Krümpis","postalCode":"6436","locality":"Muotathal","commune":{"key":"1367","name":"Muotathal","shortName":"Muotathal"},"district":{"key":"506","name":"Bezirk Schwyz"},"canton":{"key":"5","code":"SZ","name":"Schwyz"},"status":"Real"},{"key":"10087282","name":"Kuchli","postalCode":"6436","locality":"Muotathal","commune":{"key":"1367","name":"Muotathal","shortName":"Muotathal"},"district":{"key":"506","name":"Bezirk Schwyz"},"canton":{"key":"5","code":"SZ","name":"Schwyz"},"status":"Real"},{"key":"10116594","name":"Kutzenen","postalCode":"6436","locality":"Ried (Muotathal)","commune":{"key":"1367","name":"Muotathal","shortName":"Muotathal"},"district":{"key":"506","name":"Bezirk Schwyz"},"canton":{"key":"5","code":"SZ","name":"Schwyz"},"status":"Real"},{"key":"10173714","name":"Lipplisbüel","postalCode":"6436","locality":"Muotathal","commune":{"key":"1367","name":"Muotathal","shortName":"Muotathal"},"district":{"key":"506","name":"Bezirk Schwyz"},"canton":{"key":"5","code":"SZ","name":"Schwyz"},"status":"Real"},{"key":"10223276","name":"Lipplisbüelstrasse","postalCode":"6436","locality":"Muotathal","commune":{"key":"1367","name":"Muotathal","shortName":"Muotathal"},"district":{"key":"506","name":"Bezirk Schwyz"},"canton":{"key":"5","code":"SZ","name":"Schwyz"},"status":"Real"},{"key":"10197832","name":"Lipplisstrasse","postalCode":"6436","locality":"Muotathal","commune":{"key":"1367","name":"Muotathal","shortName":"Muotathal"},"district":{"key":"506","name":"Bezirk Schwyz"},"canton":{"key":"5","code":"SZ","name":"Schwyz"},"status":"Real"},{"key":"10071184","name":"Lustnau","postalCode":"6436","locality":"Muotathal","commune":{"key":"1367","name":"Muotathal","shortName":"Muotathal"},"district":{"key":"506","name":"Bezirk Schwyz"},"canton":{"key":"5","code":"SZ","name":"Schwyz"},"status":"Real"},{"key":"10182568","name":"Maienen","postalCode":"6436","locality":"Ried (Muotathal)","commune":{"key":"1367","name":"Muotathal","shortName":"Muotathal"},"district":{"key":"506","name":"Bezirk Schwyz"},"canton":{"key":"5","code":"SZ","name":"Schwyz"},"status":"Real"},{"key":"10016120","name":"Marktstrasse","postalCode":"6436","locality":"Muotathal","commune":{"key":"1367","name":"Muotathal","shortName":"Muotathal"},"district":{"key":"506","name":"Bezirk Schwyz"},"canton":{"key":"5","code":"SZ","name":"Schwyz"},"status":"Real"},{"key":"10114789","name":"Mehlbaum","postalCode":"6436","locality":"Muotathal","commune":{"key":"1367","name":"Muotathal","shortName":"Muotathal"},"district":{"key":"506","name":"Bezirk Schwyz"},"canton":{"key":"5","code":"SZ","name":"Schwyz"},"status":"Real"},{"key":"10177509","name":"Mittenwald","postalCode":"6436","locality":"Muotathal","commune":{"key":"1367","name":"Muotathal","shortName":"Muotathal"},"district":{"key":"506","name":"Bezirk Schwyz"},"canton":{"key":"5","code":"SZ","name":"Schwyz"},"status":"Real"},{"key":"10127427","name":"Mittlere Sittiweid","postalCode":"6436","locality":"Muotathal","commune":{"key":"1367","name":"Muotathal","shortName":"Muotathal"},"district":{"key":"506","name":"Bezirk Schwyz"},"canton":{"key":"5","code":"SZ","name":"Schwyz"},"status":"Real"},{"key":"10205029","name":"Mittst Weid","postalCode":"6436","locality":"Muotathal","commune":{"key":"1367","name":"Muotathal","shortName":"Muotathal"},"district":{"key":"506","name":"Bezirk Schwyz"},"canton":{"key":"5","code":"SZ","name":"Schwyz"},"status":"Real"},{"key":"10019752","name":"Mühlematt","postalCode":"6436","locality":"Ried (Muotathal)","commune":{"key":"1367","name":"Muotathal","shortName":"Muotathal"},"district":{"key":"506","name":"Bezirk Schwyz"},"canton":{"key":"5","code":"SZ","name":"Schwyz"},"status":"Real"},{"key":"10019753","name":"Mühlestuden","postalCode":"6436","locality":"Ried (Muotathal)","commune":{"key":"1367","name":"Muotathal","shortName":"Muotathal"},"district":{"key":"506","name":"Bezirk Schwyz"},"canton":{"key":"5","code":"SZ","name":"Schwyz"},"status":"Real"},{"key":"10087294","name":"Muotastrasse","postalCode":"6436","locality":"Ried (Muotathal)","commune":{"key":"1367","name":"Muotathal","shortName":"Muotathal"},"district":{"key":"506","name":"Bezirk Schwyz"},"canton":{"key":"5","code":"SZ","name":"Schwyz"},"status":"Real"},{"key":"10114790","name":"Neuhaus","postalCode":"6436","locality":"Ried (Muotathal)","commune":{"key":"1367","name":"Muotathal","shortName":"Muotathal"},"district":{"key":"506","name":"Bezirk Schwyz"},"canton":{"key":"5","code":"SZ","name":"Schwyz"},"status":"Real"},{"key":"10087283","name":"Neuhundenen","postalCode":"6436","locality":"Muotathal","commune":{"key":"1367","name":"Muotathal","shortName":"Muotathal"},"district":{"key":"506","name":"Bezirk Schwyz"},"canton":{"key":"5","code":"SZ","name":"Schwyz"},"status":"Real"},{"key":"10058032","name":"Neumatt","postalCode":"6436","locality":"Muotathal","commune":{"key":"1367","name":"Muotathal","shortName":"Muotathal"},"district":{"key":"506","name":"Bezirk Schwyz"},"canton":{"key":"5","code":"SZ","name":"Schwyz"},"status":"Real"},{"key":"10071186","name":"Ob der Kirche","postalCode":"6436","locality":"Muotathal","commune":{"key":"1367","name":"Muotathal","shortName":"Muotathal"},"district":{"key":"506","name":"Bezirk Schwyz"},"canton":{"key":"5","code":"SZ","name":"Schwyz"},"status":"Real"},{"key":"10016121","name":"Obere Flüelen","postalCode":"6436","locality":"Muotathal","commune":{"key":"1367","name":"Muotathal","shortName":"Muotathal"},"district":{"key":"506","name":"Bezirk Schwyz"},"canton":{"key":"5","code":"SZ","name":"Schwyz"},"status":"Real"},{"key":"10016122","name":"Obereggeli","postalCode":"6436","locality":"Muotathal","commune":{"key":"1367","name":"Muotathal","shortName":"Muotathal"},"district":{"key":"506","name":"Bezirk Schwyz"},"canton":{"key":"5","code":"SZ","name":"Schwyz"},"status":"Real"},{"key":"10174081","name":"Oberes Fedli","postalCode":"6436","locality":"Muotathal","commune":{"key":"1367","name":"Muotathal","shortName":"Muotathal"},"district":{"key":"506","name":"Bezirk Schwyz"},"canton":{"key":"5","code":"SZ","name":"Schwyz"},"status":"Real"},{"key":"10087289","name":"Obere Wissenwand","postalCode":"6436","locality":"Muotathal","commune":{"key":"1367","name":"Muotathal","shortName":"Muotathal"},"district":{"key":"506","name":"Bezirk Schwyz"},"canton":{"key":"5","code":"SZ","name":"Schwyz"},"status":"Real"},{"key":"10058033","name":"Obermatt","postalCode":"6436","locality":"Muotathal","commune":{"key":"1367","name":"Muotathal","shortName":"Muotathal"},"district":{"key":"506","name":"Bezirk Schwyz"},"canton":{"key":"5","code":"SZ","name":"Schwyz"},"status":"Real"},{"key":"10185575","name":"Obermattli","postalCode":"6436","locality":"Muotathal","commune":{"key":"1367","name":"Muotathal","shortName":"Muotathal"},"district":{"key":"506","name":"Bezirk Schwyz"},"canton":{"key":"5","code":"SZ","name":"Schwyz"},"status":"Real"},{"key":"10117451","name":"Oberried","postalCode":"6436","locality":"Ried (Muotathal)","commune":{"key":"1367","name":"Muotathal","shortName":"Muotathal"},"district":{"key":"506","name":"Bezirk Schwyz"},"canton":{"key":"5","code":"SZ","name":"Schwyz"},"status":"Real"},{"key":"10163696","name":"Ober Saum","postalCode":"6436","locality":"Muotathal","commune":{"key":"1367","name":"Muotathal","shortName":"Muotathal"},"district":{"key":"506","name":"Bezirk Schwyz"},"canton":{"key":"5","code":"SZ","name":"Schwyz"},"status":"Real"},{"key":"10058042","name":"Oberstein","postalCode":"6436","locality":"Ried (Muotathal)","commune":{"key":"1367","name":"Muotathal","shortName":"Muotathal"},"district":{"key":"506","name":"Bezirk Schwyz"},"canton":{"key":"5","code":"SZ","name":"Schwyz"},"status":"Real"},{"key":"10120481","name":"Ochsenplätzli","postalCode":"6436","locality":"Muotathal","commune":{"key":"1367","name":"Muotathal","shortName":"Muotathal"},"district":{"key":"506","name":"Bezirk Schwyz"},"canton":{"key":"5","code":"SZ","name":"Schwyz"},"status":"Real"},{"key":"10016123","name":"Otten","postalCode":"6436","locality":"Muotathal","commune":{"key":"1367","name":"Muotathal","shortName":"Muotathal"},"district":{"key":"506","name":"Bezirk Schwyz"},"canton":{"key":"5","code":"SZ","name":"Schwyz"},"status":"Real"},{"key":"10174091","name":"Planggstock","postalCode":"6436","locality":"Ried (Muotathal)","commune":{"key":"1367","name":"Muotathal","shortName":"Muotathal"},"district":{"key":"506","name":"Bezirk Schwyz"},"canton":{"key":"5","code":"SZ","name":"Schwyz"},"status":"Real"},{"key":"10071187","name":"Plattenbach","postalCode":"6436","locality":"Muotathal","commune":{"key":"1367","name":"Muotathal","shortName":"Muotathal"},"district":{"key":"506","name":"Bezirk Schwyz"},"canton":{"key":"5","code":"SZ","name":"Schwyz"},"status":"Real"},{"key":"10174088","name":"Plattenweidli","postalCode":"6436","locality":"Muotathal","commune":{"key":"1367","name":"Muotathal","shortName":"Muotathal"},"district":{"key":"506","name":"Bezirk Schwyz"},"canton":{"key":"5","code":"SZ","name":"Schwyz"},"status":"Real"},{"key":"10178309","name":"Poststrasse","postalCode":"6436","locality":"Muotathal","commune":{"key":"1367","name":"Muotathal","shortName":"Muotathal"},"district":{"key":"506","name":"Bezirk Schwyz"},"canton":{"key":"5","code":"SZ","name":"Schwyz"},"status":"Real"},{"key":"10170815","name":"Pragel","postalCode":"6436","locality":"Muotathal","commune":{"key":"1367","name":"Muotathal","shortName":"Muotathal"},"district":{"key":"506","name":"Bezirk Schwyz"},"canton":{"key":"5","code":"SZ","name":"Schwyz"},"status":"Real"},{"key":"10116591","name":"Pragelstrasse","postalCode":"6436","locality":"Muotathal","commune":{"key":"1367","name":"Muotathal","shortName":"Muotathal"},"district":{"key":"506","name":"Bezirk Schwyz"},"canton":{"key":"5","code":"SZ","name":"Schwyz"},"status":"Real"},{"key":"10019754","name":"Rambach","postalCode":"6436","locality":"Ried (Muotathal)","commune":{"key":"1367","name":"Muotathal","shortName":"Muotathal"},"district":{"key":"506","name":"Bezirk Schwyz"},"canton":{"key":"5","code":"SZ","name":"Schwyz"},"status":"Real"},{"key":"10087284","name":"Riedbachberg","postalCode":"6436","locality":"Muotathal","commune":{"key":"1367","name":"Muotathal","shortName":"Muotathal"},"district":{"key":"506","name":"Bezirk Schwyz"},"canton":{"key":"5","code":"SZ","name":"Schwyz"},"status":"Real"},{"key":"10112701","name":"Riedmattli","postalCode":"6436","locality":"Muotathal","commune":{"key":"1367","name":"Muotathal","shortName":"Muotathal"},"district":{"key":"506","name":"Bezirk Schwyz"},"canton":{"key":"5","code":"SZ","name":"Schwyz"},"status":"Real"},{"key":"10153535","name":"Riedtli","postalCode":"6436","locality":"Ried (Muotathal)","commune":{"key":"1367","name":"Muotathal","shortName":"Muotathal"},"district":{"key":"506","name":"Bezirk Schwyz"},"canton":{"key":"5","code":"SZ","name":"Schwyz"},"status":"Real"},{"key":"10174087","name":"Riggis","postalCode":"6436","locality":"Muotathal","commune":{"key":"1367","name":"Muotathal","shortName":"Muotathal"},"district":{"key":"506","name":"Bezirk Schwyz"},"canton":{"key":"5","code":"SZ","name":"Schwyz"},"status":"Real"},{"key":"10259227","name":"Rindermatt","postalCode":"6436","locality":"Muotathal","commune":{"key":"1367","name":"Muotathal","shortName":"Muotathal"},"district":{"key":"506","name":"Bezirk Schwyz"},"canton":{"key":"5","code":"SZ","name":"Schwyz"},"status":"Real"},{"key":"10241743","name":"Roggenloch","postalCode":"6436","locality":"Muotathal","commune":{"key":"1367","name":"Muotathal","shortName":"Muotathal"},"district":{"key":"506","name":"Bezirk Schwyz"},"canton":{"key":"5","code":"SZ","name":"Schwyz"},"status":"Real"},{"key":"10110546","name":"Rossmattli","postalCode":"6436","locality":"Muotathal","commune":{"key":"1367","name":"Muotathal","shortName":"Muotathal"},"district":{"key":"506","name":"Bezirk Schwyz"},"canton":{"key":"5","code":"SZ","name":"Schwyz"},"status":"Real"},{"key":"10241746","name":"Rotenbalm","postalCode":"6436","locality":"Muotathal","commune":{"key":"1367","name":"Muotathal","shortName":"Muotathal"},"district":{"key":"506","name":"Bezirk Schwyz"},"canton":{"key":"5","code":"SZ","name":"Schwyz"},"status":"Real"},{"key":"10174085","name":"Rotmatt","postalCode":"6436","locality":"Muotathal","commune":{"key":"1367","name":"Muotathal","shortName":"Muotathal"},"district":{"key":"506","name":"Bezirk Schwyz"},"canton":{"key":"5","code":"SZ","name":"Schwyz"},"status":"Real"},{"key":"10087295","name":"Rüteli","postalCode":"6436","locality":"Ried (Muotathal)","commune":{"key":"1367","name":"Muotathal","shortName":"Muotathal"},"district":{"key":"506","name":"Bezirk Schwyz"},"canton":{"key":"5","code":"SZ","name":"Schwyz"},"status":"Real"},{"key":"10058043","name":"Sand","postalCode":"6436","locality":"Ried (Muotathal)","commune":{"key":"1367","name":"Muotathal","shortName":"Muotathal"},"district":{"key":"506","name":"Bezirk Schwyz"},"canton":{"key":"5","code":"SZ","name":"Schwyz"},"status":"Real"},{"key":"10118700","name":"Schachenmattli","postalCode":"6436","locality":"Muotathal","commune":{"key":"1367","name":"Muotathal","shortName":"Muotathal"},"district":{"key":"506","name":"Bezirk Schwyz"},"canton":{"key":"5","code":"SZ","name":"Schwyz"},"status":"Real"},{"key":"10071188","name":"Schachli","postalCode":"6436","locality":"Muotathal","commune":{"key":"1367","name":"Muotathal","shortName":"Muotathal"},"district":{"key":"506","name":"Bezirk Schwyz"},"canton":{"key":"5","code":"SZ","name":"Schwyz"},"status":"Real"},{"key":"10192130","name":"Schinner","postalCode":"6436","locality":"Muotathal","commune":{"key":"1367","name":"Muotathal","shortName":"Muotathal"},"district":{"key":"506","name":"Bezirk Schwyz"},"canton":{"key":"5","code":"SZ","name":"Schwyz"},"status":"Real"},{"key":"10117450","name":"Schlosshaus","postalCode":"6436","locality":"Muotathal","commune":{"key":"1367","name":"Muotathal","shortName":"Muotathal"},"district":{"key":"506","name":"Bezirk Schwyz"},"canton":{"key":"5","code":"SZ","name":"Schwyz"},"status":"Real"},{"key":"10160516","name":"Schulhaus","postalCode":"6436","locality":"Ried (Muotathal)","commune":{"key":"1367","name":"Muotathal","shortName":"Muotathal"},"district":{"key":"506","name":"Bezirk Schwyz"},"canton":{"key":"5","code":"SZ","name":"Schwyz"},"status":"Real"},{"key":"10087285","name":"Schützenstrasse","postalCode":"6436","locality":"Muotathal","commune":{"key":"1367","name":"Muotathal","shortName":"Muotathal"},"district":{"key":"506","name":"Bezirk Schwyz"},"canton":{"key":"5","code":"SZ","name":"Schwyz"},"status":"Real"},{"key":"10016124","name":"Schwarzmattli","postalCode":"6436","locality":"Muotathal","commune":{"key":"1367","name":"Muotathal","shortName":"Muotathal"},"district":{"key":"506","name":"Bezirk Schwyz"},"canton":{"key":"5","code":"SZ","name":"Schwyz"},"status":"Real"},{"key":"10177502","name":"Schwellaui","postalCode":"6436","locality":"Muotathal","commune":{"key":"1367","name":"Muotathal","shortName":"Muotathal"},"district":{"key":"506","name":"Bezirk Schwyz"},"canton":{"key":"5","code":"SZ","name":"Schwyz"},"status":"Real"},{"key":"10210344","name":"Seenalp","postalCode":"6436","locality":"Muotathal","commune":{"key":"1367","name":"Muotathal","shortName":"Muotathal"},"district":{"key":"506","name":"Bezirk Schwyz"},"canton":{"key":"5","code":"SZ","name":"Schwyz"},"status":"Real"},{"key":"10019755","name":"Selgis","postalCode":"6436","locality":"Ried (Muotathal)","commune":{"key":"1367","name":"Muotathal","shortName":"Muotathal"},"district":{"key":"506","name":"Bezirk Schwyz"},"canton":{"key":"5","code":"SZ","name":"Schwyz"},"status":"Real"},{"key":"10173727","name":"Silbern","postalCode":"6436","locality":"Muotathal","commune":{"key":"1367","name":"Muotathal","shortName":"Muotathal"},"district":{"key":"506","name":"Bezirk Schwyz"},"canton":{"key":"5","code":"SZ","name":"Schwyz"},"status":"Real"},{"key":"10171495","name":"Stahli","postalCode":"6436","locality":"Muotathal","commune":{"key":"1367","name":"Muotathal","shortName":"Muotathal"},"district":{"key":"506","name":"Bezirk Schwyz"},"canton":{"key":"5","code":"SZ","name":"Schwyz"},"status":"Real"},{"key":"10016125","name":"Stalden","postalCode":"6436","locality":"Muotathal","commune":{"key":"1367","name":"Muotathal","shortName":"Muotathal"},"district":{"key":"506","name":"Bezirk Schwyz"},"canton":{"key":"5","code":"SZ","name":"Schwyz"},"status":"Real"},{"key":"10175355","name":"Starzlen","postalCode":"6436","locality":"Muotathal","commune":{"key":"1367","name":"Muotathal","shortName":"Muotathal"},"district":{"key":"506","name":"Bezirk Schwyz"},"canton":{"key":"5","code":"SZ","name":"Schwyz"},"status":"Real"},{"key":"10182569","name":"Stoosstrasse","postalCode":"6436","locality":"Ried (Muotathal)","commune":{"key":"1367","name":"Muotathal","shortName":"Muotathal"},"district":{"key":"506","name":"Bezirk Schwyz"},"canton":{"key":"5","code":"SZ","name":"Schwyz"},"status":"Real"},{"key":"10171507","name":"Stumpenmatt","postalCode":"6436","locality":"Muotathal","commune":{"key":"1367","name":"Muotathal","shortName":"Muotathal"},"district":{"key":"506","name":"Bezirk Schwyz"},"canton":{"key":"5","code":"SZ","name":"Schwyz"},"status":"Real"},{"key":"10016126","name":"Stützli","postalCode":"6436","locality":"Muotathal","commune":{"key":"1367","name":"Muotathal","shortName":"Muotathal"},"district":{"key":"506","name":"Bezirk Schwyz"},"canton":{"key":"5","code":"SZ","name":"Schwyz"},"status":"Real"},{"key":"10177507","name":"Sutern","postalCode":"6436","locality":"Muotathal","commune":{"key":"1367","name":"Muotathal","shortName":"Muotathal"},"district":{"key":"506","name":"Bezirk Schwyz"},"canton":{"key":"5","code":"SZ","name":"Schwyz"},"status":"Real"},{"key":"10058035","name":"Tätschli","postalCode":"6436","locality":"Muotathal","commune":{"key":"1367","name":"Muotathal","shortName":"Muotathal"},"district":{"key":"506","name":"Bezirk Schwyz"},"canton":{"key":"5","code":"SZ","name":"Schwyz"},"status":"Real"},{"key":"10178310","name":"Teufbach","postalCode":"6436","locality":"Muotathal","commune":{"key":"1367","name":"Muotathal","shortName":"Muotathal"},"district":{"key":"506","name":"Bezirk Schwyz"},"canton":{"key":"5","code":"SZ","name":"Schwyz"},"status":"Real"},{"key":"10016127","name":"Töbeli","postalCode":"6436","locality":"Muotathal","commune":{"key":"1367","name":"Muotathal","shortName":"Muotathal"},"district":{"key":"506","name":"Bezirk Schwyz"},"canton":{"key":"5","code":"SZ","name":"Schwyz"},"status":"Real"},{"key":"10163689","name":"Tor","postalCode":"6436","locality":"Muotathal","commune":{"key":"1367","name":"Muotathal","shortName":"Muotathal"},"district":{"key":"506","name":"Bezirk Schwyz"},"canton":{"key":"5","code":"SZ","name":"Schwyz"},"status":"Real"},{"key":"10241744","name":"Torstrasse","postalCode":"6436","locality":"Muotathal","commune":{"key":"1367","name":"Muotathal","shortName":"Muotathal"},"district":{"key":"506","name":"Bezirk Schwyz"},"canton":{"key":"5","code":"SZ","name":"Schwyz"},"status":"Real"},{"key":"10168027","name":"Träsmeren","postalCode":"6436","locality":"Muotathal","commune":{"key":"1367","name":"Muotathal","shortName":"Muotathal"},"district":{"key":"506","name":"Bezirk Schwyz"},"canton":{"key":"5","code":"SZ","name":"Schwyz"},"status":"Real"},{"key":"10019756","name":"Tristel","postalCode":"6436","locality":"Ried (Muotathal)","commune":{"key":"1367","name":"Muotathal","shortName":"Muotathal"},"district":{"key":"506","name":"Bezirk Schwyz"},"canton":{"key":"5","code":"SZ","name":"Schwyz"},"status":"Real"},{"key":"10071190","name":"Tschalun","postalCode":"6436","locality":"Muotathal","commune":{"key":"1367","name":"Muotathal","shortName":"Muotathal"},"district":{"key":"506","name":"Bezirk Schwyz"},"canton":{"key":"5","code":"SZ","name":"Schwyz"},"status":"Real"},{"key":"10058036","name":"Untere Flüelen","postalCode":"6436","locality":"Muotathal","commune":{"key":"1367","name":"Muotathal","shortName":"Muotathal"},"district":{"key":"506","name":"Bezirk Schwyz"},"canton":{"key":"5","code":"SZ","name":"Schwyz"},"status":"Real"},{"key":"10016128","name":"Untereggeli","postalCode":"6436","locality":"Muotathal","commune":{"key":"1367","name":"Muotathal","shortName":"Muotathal"},"district":{"key":"506","name":"Bezirk Schwyz"},"canton":{"key":"5","code":"SZ","name":"Schwyz"},"status":"Real"},{"key":"10125396","name":"Unterer Zingel","postalCode":"6436","locality":"Ried (Muotathal)","commune":{"key":"1367","name":"Muotathal","shortName":"Muotathal"},"district":{"key":"506","name":"Bezirk Schwyz"},"canton":{"key":"5","code":"SZ","name":"Schwyz"},"status":"Real"},{"key":"10174080","name":"Unteres Fedli","postalCode":"6436","locality":"Muotathal","commune":{"key":"1367","name":"Muotathal","shortName":"Muotathal"},"district":{"key":"506","name":"Bezirk Schwyz"},"canton":{"key":"5","code":"SZ","name":"Schwyz"},"status":"Real"},{"key":"10087286","name":"Unter Saum","postalCode":"6436","locality":"Muotathal","commune":{"key":"1367","name":"Muotathal","shortName":"Muotathal"},"district":{"key":"506","name":"Bezirk Schwyz"},"canton":{"key":"5","code":"SZ","name":"Schwyz"},"status":"Real"},{"key":"10087287","name":"Unterstutz","postalCode":"6436","locality":"Muotathal","commune":{"key":"1367","name":"Muotathal","shortName":"Muotathal"},"district":{"key":"506","name":"Bezirk Schwyz"},"canton":{"key":"5","code":"SZ","name":"Schwyz"},"status":"Real"},{"key":"10241747","name":"vor den Löchern","postalCode":"6436","locality":"Muotathal","commune":{"key":"1367","name":"Muotathal","shortName":"Muotathal"},"district":{"key":"506","name":"Bezirk Schwyz"},"canton":{"key":"5","code":"SZ","name":"Schwyz"},"status":"Real"},{"key":"10071191","name":"Vordere Brücke","postalCode":"6436","locality":"Ried (Muotathal)","commune":{"key":"1367","name":"Muotathal","shortName":"Muotathal"},"district":{"key":"506","name":"Bezirk Schwyz"},"canton":{"key":"5","code":"SZ","name":"Schwyz"},"status":"Real"},{"key":"10087296","name":"Waldheim","postalCode":"6436","locality":"Ried (Muotathal)","commune":{"key":"1367","name":"Muotathal","shortName":"Muotathal"},"district":{"key":"506","name":"Bezirk Schwyz"},"canton":{"key":"5","code":"SZ","name":"Schwyz"},"status":"Real"},{"key":"10241752","name":"Wallis","postalCode":"6436","locality":"Muotathal","commune":{"key":"1367","name":"Muotathal","shortName":"Muotathal"},"district":{"key":"506","name":"Bezirk Schwyz"},"canton":{"key":"5","code":"SZ","name":"Schwyz"},"status":"Real"},{"key":"10259233","name":"Wängi","postalCode":"6436","locality":"Muotathal","commune":{"key":"1367","name":"Muotathal","shortName":"Muotathal"},"district":{"key":"506","name":"Bezirk Schwyz"},"canton":{"key":"5","code":"SZ","name":"Schwyz"},"status":"Real"},{"key":"10177499","name":"Wannen","postalCode":"6436","locality":"Muotathal","commune":{"key":"1367","name":"Muotathal","shortName":"Muotathal"},"district":{"key":"506","name":"Bezirk Schwyz"},"canton":{"key":"5","code":"SZ","name":"Schwyz"},"status":"Real"},{"key":"10173733","name":"Wasserberg","postalCode":"6436","locality":"Muotathal","commune":{"key":"1367","name":"Muotathal","shortName":"Muotathal"},"district":{"key":"506","name":"Bezirk Schwyz"},"canton":{"key":"5","code":"SZ","name":"Schwyz"},"status":"Real"},{"key":"10071192","name":"Wehristrasse","postalCode":"6436","locality":"Muotathal","commune":{"key":"1367","name":"Muotathal","shortName":"Muotathal"},"district":{"key":"506","name":"Bezirk Schwyz"},"canton":{"key":"5","code":"SZ","name":"Schwyz"},"status":"Real"},{"key":"10016129","name":"Wehriwald","postalCode":"6436","locality":"Muotathal","commune":{"key":"1367","name":"Muotathal","shortName":"Muotathal"},"district":{"key":"506","name":"Bezirk Schwyz"},"canton":{"key":"5","code":"SZ","name":"Schwyz"},"status":"Real"},{"key":"10016130","name":"Weid","postalCode":"6436","locality":"Muotathal","commune":{"key":"1367","name":"Muotathal","shortName":"Muotathal"},"district":{"key":"506","name":"Bezirk Schwyz"},"canton":{"key":"5","code":"SZ","name":"Schwyz"},"status":"Real"},{"key":"10178311","name":"Weidhaus","postalCode":"6436","locality":"Muotathal","commune":{"key":"1367","name":"Muotathal","shortName":"Muotathal"},"district":{"key":"506","name":"Bezirk Schwyz"},"canton":{"key":"5","code":"SZ","name":"Schwyz"},"status":"Real"},{"key":"10110547","name":"Wichel","postalCode":"6436","locality":"Muotathal","commune":{"key":"1367","name":"Muotathal","shortName":"Muotathal"},"district":{"key":"506","name":"Bezirk Schwyz"},"canton":{"key":"5","code":"SZ","name":"Schwyz"},"status":"Real"},{"key":"10176015","name":"Widmen","postalCode":"6436","locality":"Muotathal","commune":{"key":"1367","name":"Muotathal","shortName":"Muotathal"},"district":{"key":"506","name":"Bezirk Schwyz"},"canton":{"key":"5","code":"SZ","name":"Schwyz"},"status":"Real"},{"key":"10114393","name":"Wiezenen","postalCode":"6436","locality":"Muotathal","commune":{"key":"1367","name":"Muotathal","shortName":"Muotathal"},"district":{"key":"506","name":"Bezirk Schwyz"},"canton":{"key":"5","code":"SZ","name":"Schwyz"},"status":"Real"},{"key":"10019757","name":"Wigetli","postalCode":"6436","locality":"Ried (Muotathal)","commune":{"key":"1367","name":"Muotathal","shortName":"Muotathal"},"district":{"key":"506","name":"Bezirk Schwyz"},"canton":{"key":"5","code":"SZ","name":"Schwyz"},"status":"Real"},{"key":"10105883","name":"Wil","postalCode":"6436","locality":"Muotathal","commune":{"key":"1367","name":"Muotathal","shortName":"Muotathal"},"district":{"key":"506","name":"Bezirk Schwyz"},"canton":{"key":"5","code":"SZ","name":"Schwyz"},"status":"Real"},{"key":"10087288","name":"Wilstrasse","postalCode":"6436","locality":"Muotathal","commune":{"key":"1367","name":"Muotathal","shortName":"Muotathal"},"district":{"key":"506","name":"Bezirk Schwyz"},"canton":{"key":"5","code":"SZ","name":"Schwyz"},"status":"Real"},{"key":"10259232","name":"Wiss Bödmer","postalCode":"6436","locality":"Muotathal","commune":{"key":"1367","name":"Muotathal","shortName":"Muotathal"},"district":{"key":"506","name":"Bezirk Schwyz"},"canton":{"key":"5","code":"SZ","name":"Schwyz"},"status":"Real"},{"key":"10071193","name":"Wyden","postalCode":"6436","locality":"Muotathal","commune":{"key":"1367","name":"Muotathal","shortName":"Muotathal"},"district":{"key":"506","name":"Bezirk Schwyz"},"canton":{"key":"5","code":"SZ","name":"Schwyz"},"status":"Real"},{"key":"10016131","name":"Wysswand","postalCode":"6436","locality":"Muotathal","commune":{"key":"1367","name":"Muotathal","shortName":"Muotathal"},"district":{"key":"506","name":"Bezirk Schwyz"},"canton":{"key":"5","code":"SZ","name":"Schwyz"},"status":"Real"},{"key":"10116592","name":"Zentralenstrasse","postalCode":"6436","locality":"Muotathal","commune":{"key":"1367","name":"Muotathal","shortName":"Muotathal"},"district":{"key":"506","name":"Bezirk Schwyz"},"canton":{"key":"5","code":"SZ","name":"Schwyz"},"status":"Real"},{"key":"10241753","name":"Zingel","postalCode":"6436","locality":"Muotathal","commune":{"key":"1367","name":"Muotathal","shortName":"Muotathal"},"district":{"key":"506","name":"Bezirk Schwyz"},"canton":{"key":"5","code":"SZ","name":"Schwyz"},"status":"Real"},{"key":"10016132","name":"Zinglen","postalCode":"6436","locality":"Muotathal","commune":{"key":"1367","name":"Muotathal","shortName":"Muotathal"},"district":{"key":"506","name":"Bezirk Schwyz"},"canton":{"key":"5","code":"SZ","name":"Schwyz"},"status":"Real"},{"key":"10016132","name":"Zinglen","postalCode":"6436","locality":"Ried (Muotathal)","commune":{"key":"1367","name":"Muotathal","shortName":"Muotathal"},"district":{"key":"506","name":"Bezirk Schwyz"},"canton":{"key":"5","code":"SZ","name":"Schwyz"},"status":"Real"},]