[{"name":"Am Altbach","postalCode":"54426","locality":"Heidenburg","municipality":{"key":"07231204","name":"Heidenburg","type":"Kreisangehörige_Gemeinde"},"district":{"key":"07231","name":"Bernkastel-Wittlich","type":"Landkreis"},"federalState":{"key":"07","name":"Rheinland-Pfalz"}},{"name":"Auf Ripp","postalCode":"54426","locality":"Heidenburg","municipality":{"key":"07231204","name":"Heidenburg","type":"Kreisangehörige_Gemeinde"},"district":{"key":"07231","name":"Bernkastel-Wittlich","type":"Landkreis"},"federalState":{"key":"07","name":"Rheinland-Pfalz"}},{"name":"Birkenweg","postalCode":"54426","locality":"Heidenburg","municipality":{"key":"07231204","name":"Heidenburg","type":"Kreisangehörige_Gemeinde"},"district":{"key":"07231","name":"Bernkastel-Wittlich","type":"Landkreis"},"federalState":{"key":"07","name":"Rheinland-Pfalz"}},{"name":"Borwiesenstr.","postalCode":"54426","locality":"Heidenburg","municipality":{"key":"07231204","name":"Heidenburg","type":"Kreisangehörige_Gemeinde"},"district":{"key":"07231","name":"Bernkastel-Wittlich","type":"Landkreis"},"federalState":{"key":"07","name":"Rheinland-Pfalz"}},{"name":"Brunnenstr.","postalCode":"54426","locality":"Heidenburg","municipality":{"key":"07231204","name":"Heidenburg","type":"Kreisangehörige_Gemeinde"},"district":{"key":"07231","name":"Bernkastel-Wittlich","type":"Landkreis"},"federalState":{"key":"07","name":"Rheinland-Pfalz"}},{"name":"Feilenswies","postalCode":"54426","locality":"Heidenburg","municipality":{"key":"07231204","name":"Heidenburg","type":"Kreisangehörige_Gemeinde"},"district":{"key":"07231","name":"Bernkastel-Wittlich","type":"Landkreis"},"federalState":{"key":"07","name":"Rheinland-Pfalz"}},{"name":"Feldstr.","postalCode":"54426","locality":"Heidenburg","municipality":{"key":"07231204","name":"Heidenburg","type":"Kreisangehörige_Gemeinde"},"district":{"key":"07231","name":"Bernkastel-Wittlich","type":"Landkreis"},"federalState":{"key":"07","name":"Rheinland-Pfalz"}},{"name":"Fellerfahrt","postalCode":"54426","locality":"Heidenburg","municipality":{"key":"07231204","name":"Heidenburg","type":"Kreisangehörige_Gemeinde"},"district":{"key":"07231","name":"Bernkastel-Wittlich","type":"Landkreis"},"federalState":{"key":"07","name":"Rheinland-Pfalz"}},{"name":"Gräfinstr.","postalCode":"54426","locality":"Heidenburg","municipality":{"key":"07231204","name":"Heidenburg","type":"Kreisangehörige_Gemeinde"},"district":{"key":"07231","name":"Bernkastel-Wittlich","type":"Landkreis"},"federalState":{"key":"07","name":"Rheinland-Pfalz"}},{"name":"Grenzstr.","postalCode":"54426","locality":"Heidenburg","municipality":{"key":"07231204","name":"Heidenburg","type":"Kreisangehörige_Gemeinde"},"district":{"key":"07231","name":"Bernkastel-Wittlich","type":"Landkreis"},"federalState":{"key":"07","name":"Rheinland-Pfalz"}},{"name":"Hinter den Gärten","postalCode":"54426","locality":"Heidenburg","municipality":{"key":"07231204","name":"Heidenburg","type":"Kreisangehörige_Gemeinde"},"district":{"key":"07231","name":"Bernkastel-Wittlich","type":"Landkreis"},"federalState":{"key":"07","name":"Rheinland-Pfalz"}},{"name":"Hohlweg","postalCode":"54426","locality":"Heidenburg","municipality":{"key":"07231204","name":"Heidenburg","type":"Kreisangehörige_Gemeinde"},"district":{"key":"07231","name":"Bernkastel-Wittlich","type":"Landkreis"},"federalState":{"key":"07","name":"Rheinland-Pfalz"}},{"name":"Im Eck","postalCode":"54426","locality":"Heidenburg","municipality":{"key":"07231204","name":"Heidenburg","type":"Kreisangehörige_Gemeinde"},"district":{"key":"07231","name":"Bernkastel-Wittlich","type":"Landkreis"},"federalState":{"key":"07","name":"Rheinland-Pfalz"}},{"name":"In den Gärten","postalCode":"54426","locality":"Heidenburg","municipality":{"key":"07231204","name":"Heidenburg","type":"Kreisangehörige_Gemeinde"},"district":{"key":"07231","name":"Bernkastel-Wittlich","type":"Landkreis"},"federalState":{"key":"07","name":"Rheinland-Pfalz"}},{"name":"Kapellenstr.","postalCode":"54426","locality":"Heidenburg","municipality":{"key":"07231204","name":"Heidenburg","type":"Kreisangehörige_Gemeinde"},"district":{"key":"07231","name":"Bernkastel-Wittlich","type":"Landkreis"},"federalState":{"key":"07","name":"Rheinland-Pfalz"}},{"name":"Kirchenpfad","postalCode":"54426","locality":"Heidenburg","municipality":{"key":"07231204","name":"Heidenburg","type":"Kreisangehörige_Gemeinde"},"district":{"key":"07231","name":"Bernkastel-Wittlich","type":"Landkreis"},"federalState":{"key":"07","name":"Rheinland-Pfalz"}},{"name":"Kirchstr.","postalCode":"54426","locality":"Heidenburg","municipality":{"key":"07231204","name":"Heidenburg","type":"Kreisangehörige_Gemeinde"},"district":{"key":"07231","name":"Bernkastel-Wittlich","type":"Landkreis"},"federalState":{"key":"07","name":"Rheinland-Pfalz"}},{"name":"Molterpfad","postalCode":"54426","locality":"Heidenburg","municipality":{"key":"07231204","name":"Heidenburg","type":"Kreisangehörige_Gemeinde"},"district":{"key":"07231","name":"Bernkastel-Wittlich","type":"Landkreis"},"federalState":{"key":"07","name":"Rheinland-Pfalz"}},{"name":"Obertswiese","postalCode":"54426","locality":"Heidenburg","municipality":{"key":"07231204","name":"Heidenburg","type":"Kreisangehörige_Gemeinde"},"district":{"key":"07231","name":"Bernkastel-Wittlich","type":"Landkreis"},"federalState":{"key":"07","name":"Rheinland-Pfalz"}},{"name":"Peter-Mergener-Weg","postalCode":"54426","locality":"Heidenburg","municipality":{"key":"07231204","name":"Heidenburg","type":"Kreisangehörige_Gemeinde"},"district":{"key":"07231","name":"Bernkastel-Wittlich","type":"Landkreis"},"federalState":{"key":"07","name":"Rheinland-Pfalz"}},{"name":"Petersberg","postalCode":"54426","locality":"Heidenburg","municipality":{"key":"07231204","name":"Heidenburg","type":"Kreisangehörige_Gemeinde"},"district":{"key":"07231","name":"Bernkastel-Wittlich","type":"Landkreis"},"federalState":{"key":"07","name":"Rheinland-Pfalz"}},{"name":"Pfarrer-Wolsfelt-Str.","postalCode":"54426","locality":"Heidenburg","municipality":{"key":"07231204","name":"Heidenburg","type":"Kreisangehörige_Gemeinde"},"district":{"key":"07231","name":"Bernkastel-Wittlich","type":"Landkreis"},"federalState":{"key":"07","name":"Rheinland-Pfalz"}},{"name":"Rechenfahrt","postalCode":"54426","locality":"Heidenburg","municipality":{"key":"07231204","name":"Heidenburg","type":"Kreisangehörige_Gemeinde"},"district":{"key":"07231","name":"Bernkastel-Wittlich","type":"Landkreis"},"federalState":{"key":"07","name":"Rheinland-Pfalz"}},{"name":"Schulstr.","postalCode":"54426","locality":"Heidenburg","municipality":{"key":"07231204","name":"Heidenburg","type":"Kreisangehörige_Gemeinde"},"district":{"key":"07231","name":"Bernkastel-Wittlich","type":"Landkreis"},"federalState":{"key":"07","name":"Rheinland-Pfalz"}},{"name":"Stallergarten","postalCode":"54426","locality":"Heidenburg","municipality":{"key":"07231204","name":"Heidenburg","type":"Kreisangehörige_Gemeinde"},"district":{"key":"07231","name":"Bernkastel-Wittlich","type":"Landkreis"},"federalState":{"key":"07","name":"Rheinland-Pfalz"}},{"name":"Unterm Hüllenbaum","postalCode":"54426","locality":"Heidenburg","municipality":{"key":"07231204","name":"Heidenburg","type":"Kreisangehörige_Gemeinde"},"district":{"key":"07231","name":"Bernkastel-Wittlich","type":"Landkreis"},"federalState":{"key":"07","name":"Rheinland-Pfalz"}},{"name":"Unterstwiese","postalCode":"54426","locality":"Heidenburg","municipality":{"key":"07231204","name":"Heidenburg","type":"Kreisangehörige_Gemeinde"},"district":{"key":"07231","name":"Bernkastel-Wittlich","type":"Landkreis"},"federalState":{"key":"07","name":"Rheinland-Pfalz"}},{"name":"Volkerbachstr.","postalCode":"54426","locality":"Heidenburg","municipality":{"key":"07231204","name":"Heidenburg","type":"Kreisangehörige_Gemeinde"},"district":{"key":"07231","name":"Bernkastel-Wittlich","type":"Landkreis"},"federalState":{"key":"07","name":"Rheinland-Pfalz"}},{"name":"Zum Drohner Käppchen","postalCode":"54426","locality":"Heidenburg","municipality":{"key":"07231204","name":"Heidenburg","type":"Kreisangehörige_Gemeinde"},"district":{"key":"07231","name":"Bernkastel-Wittlich","type":"Landkreis"},"federalState":{"key":"07","name":"Rheinland-Pfalz"}},]