[{"key":"10042763","name":"Bord du Canal","postalCode":"3966","locality":"Chalais","commune":{"key":"6232","name":"Chalais","shortName":"Chalais"},"district":{"key":"2311","name":"District de Sierre"},"canton":{"key":"23","code":"VS","name":"Valais / Wallis"},"status":"Real"},{"key":"10112258","name":"Chemin de Boney","postalCode":"3966","locality":"Chalais","commune":{"key":"6232","name":"Chalais","shortName":"Chalais"},"district":{"key":"2311","name":"District de Sierre"},"canton":{"key":"23","code":"VS","name":"Valais / Wallis"},"status":"Real"},{"key":"10042759","name":"Chemin de Chorechalaz","postalCode":"3966","locality":"Chalais","commune":{"key":"6232","name":"Chalais","shortName":"Chalais"},"district":{"key":"2311","name":"District de Sierre"},"canton":{"key":"23","code":"VS","name":"Valais / Wallis"},"status":"Real"},{"key":"10145670","name":"Chemin de la Combe","postalCode":"3966","locality":"Chalais","commune":{"key":"6232","name":"Chalais","shortName":"Chalais"},"district":{"key":"2311","name":"District de Sierre"},"canton":{"key":"23","code":"VS","name":"Valais / Wallis"},"status":"Real"},{"key":"10178172","name":"Chemin de la Donna","postalCode":"3966","locality":"Chalais","commune":{"key":"6232","name":"Chalais","shortName":"Chalais"},"district":{"key":"2311","name":"District de Sierre"},"canton":{"key":"23","code":"VS","name":"Valais / Wallis"},"status":"Real"},{"key":"10184809","name":"Chemin de la Pierre","postalCode":"3966","locality":"Chalais","commune":{"key":"6232","name":"Chalais","shortName":"Chalais"},"district":{"key":"2311","name":"District de Sierre"},"canton":{"key":"23","code":"VS","name":"Valais / Wallis"},"status":"Real"},{"key":"10257947","name":"Chemin de Planmont","postalCode":"3966","locality":"Chalais","commune":{"key":"6232","name":"Chalais","shortName":"Chalais"},"district":{"key":"2311","name":"District de Sierre"},"canton":{"key":"23","code":"VS","name":"Valais / Wallis"},"status":"Real"},{"key":"10112260","name":"Chemin des Coudrettes","postalCode":"3966","locality":"Chalais","commune":{"key":"6232","name":"Chalais","shortName":"Chalais"},"district":{"key":"2311","name":"District de Sierre"},"canton":{"key":"23","code":"VS","name":"Valais / Wallis"},"status":"Real"},{"key":"10112247","name":"Chemin des Plans","postalCode":"3966","locality":"Chalais","commune":{"key":"6232","name":"Chalais","shortName":"Chalais"},"district":{"key":"2311","name":"District de Sierre"},"canton":{"key":"23","code":"VS","name":"Valais / Wallis"},"status":"Real"},{"key":"10189060","name":"Chemin des Zamplans","postalCode":"3966","locality":"Chalais","commune":{"key":"6232","name":"Chalais","shortName":"Chalais"},"district":{"key":"2311","name":"District de Sierre"},"canton":{"key":"23","code":"VS","name":"Valais / Wallis"},"status":"Real"},{"key":"10112263","name":"Chemin du Bisse","postalCode":"3966","locality":"Chalais","commune":{"key":"6232","name":"Chalais","shortName":"Chalais"},"district":{"key":"2311","name":"District de Sierre"},"canton":{"key":"23","code":"VS","name":"Valais / Wallis"},"status":"Real"},{"key":"10256725","name":"Chemin du Bouillet","postalCode":"3966","locality":"Chalais","commune":{"key":"6232","name":"Chalais","shortName":"Chalais"},"district":{"key":"2311","name":"District de Sierre"},"canton":{"key":"23","code":"VS","name":"Valais / Wallis"},"status":"Real"},{"key":"10151765","name":"Chemin du Planet","postalCode":"3966","locality":"Chalais","commune":{"key":"6232","name":"Chalais","shortName":"Chalais"},"district":{"key":"2311","name":"District de Sierre"},"canton":{"key":"23","code":"VS","name":"Valais / Wallis"},"status":"Real"},{"key":"10112239","name":"Chemin du Simplon","postalCode":"3966","locality":"Chalais","commune":{"key":"6232","name":"Chalais","shortName":"Chalais"},"district":{"key":"2311","name":"District de Sierre"},"canton":{"key":"23","code":"VS","name":"Valais / Wallis"},"status":"Real"},{"key":"10257970","name":"Chemin du Taillis","postalCode":"3966","locality":"Chalais","commune":{"key":"6232","name":"Chalais","shortName":"Chalais"},"district":{"key":"2311","name":"District de Sierre"},"canton":{"key":"23","code":"VS","name":"Valais / Wallis"},"status":"Real"},{"key":"10106133","name":"Chemin sous l'Eglise","postalCode":"3966","locality":"Chalais","commune":{"key":"6232","name":"Chalais","shortName":"Chalais"},"district":{"key":"2311","name":"District de Sierre"},"canton":{"key":"23","code":"VS","name":"Valais / Wallis"},"status":"Real"},{"key":"10257976","name":"Impasse de Chalèdo","postalCode":"3966","locality":"Chalais","commune":{"key":"6232","name":"Chalais","shortName":"Chalais"},"district":{"key":"2311","name":"District de Sierre"},"canton":{"key":"23","code":"VS","name":"Valais / Wallis"},"status":"Real"},{"key":"10243138","name":"Impasse de Copatet","postalCode":"3966","locality":"Chalais","commune":{"key":"6232","name":"Chalais","shortName":"Chalais"},"district":{"key":"2311","name":"District de Sierre"},"canton":{"key":"23","code":"VS","name":"Valais / Wallis"},"status":"Real"},{"key":"10178176","name":"Impasse de la Colonie","postalCode":"3966","locality":"Chalais","commune":{"key":"6232","name":"Chalais","shortName":"Chalais"},"district":{"key":"2311","name":"District de Sierre"},"canton":{"key":"23","code":"VS","name":"Valais / Wallis"},"status":"Real"},{"key":"10243136","name":"Impasse de la Combe","postalCode":"3966","locality":"Chalais","commune":{"key":"6232","name":"Chalais","shortName":"Chalais"},"district":{"key":"2311","name":"District de Sierre"},"canton":{"key":"23","code":"VS","name":"Valais / Wallis"},"status":"Real"},{"key":"10126614","name":"Impasse de la Dérupe","postalCode":"3966","locality":"Chalais","commune":{"key":"6232","name":"Chalais","shortName":"Chalais"},"district":{"key":"2311","name":"District de Sierre"},"canton":{"key":"23","code":"VS","name":"Valais / Wallis"},"status":"Real"},{"key":"10178177","name":"Impasse de la Gouille","postalCode":"3966","locality":"Chalais","commune":{"key":"6232","name":"Chalais","shortName":"Chalais"},"district":{"key":"2311","name":"District de Sierre"},"canton":{"key":"23","code":"VS","name":"Valais / Wallis"},"status":"Real"},{"key":"10257948","name":"Impasse de la Salla","postalCode":"3966","locality":"Chalais","commune":{"key":"6232","name":"Chalais","shortName":"Chalais"},"district":{"key":"2311","name":"District de Sierre"},"canton":{"key":"23","code":"VS","name":"Valais / Wallis"},"status":"Real"},{"key":"10178178","name":"Impasse de l'Etable","postalCode":"3966","locality":"Chalais","commune":{"key":"6232","name":"Chalais","shortName":"Chalais"},"district":{"key":"2311","name":"District de Sierre"},"canton":{"key":"23","code":"VS","name":"Valais / Wallis"},"status":"Real"},{"key":"10147848","name":"Impasse de Loewatir","postalCode":"3966","locality":"Chalais","commune":{"key":"6232","name":"Chalais","shortName":"Chalais"},"district":{"key":"2311","name":"District de Sierre"},"canton":{"key":"23","code":"VS","name":"Valais / Wallis"},"status":"Real"},{"key":"10243134","name":"Impasse des Abeilles","postalCode":"3966","locality":"Chalais","commune":{"key":"6232","name":"Chalais","shortName":"Chalais"},"district":{"key":"2311","name":"District de Sierre"},"canton":{"key":"23","code":"VS","name":"Valais / Wallis"},"status":"Real"},{"key":"10112261","name":"Impasse des Barrières","postalCode":"3966","locality":"Chalais","commune":{"key":"6232","name":"Chalais","shortName":"Chalais"},"district":{"key":"2311","name":"District de Sierre"},"canton":{"key":"23","code":"VS","name":"Valais / Wallis"},"status":"Real"},{"key":"10108566","name":"Impasse des Marolli","postalCode":"3966","locality":"Chalais","commune":{"key":"6232","name":"Chalais","shortName":"Chalais"},"district":{"key":"2311","name":"District de Sierre"},"canton":{"key":"23","code":"VS","name":"Valais / Wallis"},"status":"Real"},{"key":"10243131","name":"Impasse des Muguets","postalCode":"3966","locality":"Chalais","commune":{"key":"6232","name":"Chalais","shortName":"Chalais"},"district":{"key":"2311","name":"District de Sierre"},"canton":{"key":"23","code":"VS","name":"Valais / Wallis"},"status":"Real"},{"key":"10257953","name":"Impasse des Petits Pieds","postalCode":"3966","locality":"Chalais","commune":{"key":"6232","name":"Chalais","shortName":"Chalais"},"district":{"key":"2311","name":"District de Sierre"},"canton":{"key":"23","code":"VS","name":"Valais / Wallis"},"status":"Real"},{"key":"10252347","name":"Impasse des Rârres","postalCode":"3966","locality":"Chalais","commune":{"key":"6232","name":"Chalais","shortName":"Chalais"},"district":{"key":"2311","name":"District de Sierre"},"canton":{"key":"23","code":"VS","name":"Valais / Wallis"},"status":"Real"},{"key":"10243133","name":"Impasse des Sources","postalCode":"3966","locality":"Chalais","commune":{"key":"6232","name":"Chalais","shortName":"Chalais"},"district":{"key":"2311","name":"District de Sierre"},"canton":{"key":"23","code":"VS","name":"Valais / Wallis"},"status":"Real"},{"key":"10257958","name":"Impasse de Tsabonire","postalCode":"3966","locality":"Chalais","commune":{"key":"6232","name":"Chalais","shortName":"Chalais"},"district":{"key":"2311","name":"District de Sierre"},"canton":{"key":"23","code":"VS","name":"Valais / Wallis"},"status":"Real"},{"key":"10243132","name":"Impasse du Creux","postalCode":"3966","locality":"Chalais","commune":{"key":"6232","name":"Chalais","shortName":"Chalais"},"district":{"key":"2311","name":"District de Sierre"},"canton":{"key":"23","code":"VS","name":"Valais / Wallis"},"status":"Real"},{"key":"10126613","name":"Impasse du Paradis","postalCode":"3966","locality":"Chalais","commune":{"key":"6232","name":"Chalais","shortName":"Chalais"},"district":{"key":"2311","name":"District de Sierre"},"canton":{"key":"23","code":"VS","name":"Valais / Wallis"},"status":"Real"},{"key":"10243139","name":"Impasse du Planet","postalCode":"3966","locality":"Chalais","commune":{"key":"6232","name":"Chalais","shortName":"Chalais"},"district":{"key":"2311","name":"District de Sierre"},"canton":{"key":"23","code":"VS","name":"Valais / Wallis"},"status":"Real"},{"key":"10112246","name":"Impasse du Rhonett","postalCode":"3966","locality":"Chalais","commune":{"key":"6232","name":"Chalais","shortName":"Chalais"},"district":{"key":"2311","name":"District de Sierre"},"canton":{"key":"23","code":"VS","name":"Valais / Wallis"},"status":"Real"},{"key":"10243135","name":"Impasse du Rocher","postalCode":"3966","locality":"Chalais","commune":{"key":"6232","name":"Chalais","shortName":"Chalais"},"district":{"key":"2311","name":"District de Sierre"},"canton":{"key":"23","code":"VS","name":"Valais / Wallis"},"status":"Real"},{"key":"10178185","name":"Impasse du Téléphérique","postalCode":"3966","locality":"Chalais","commune":{"key":"6232","name":"Chalais","shortName":"Chalais"},"district":{"key":"2311","name":"District de Sierre"},"canton":{"key":"23","code":"VS","name":"Valais / Wallis"},"status":"Real"},{"key":"10106131","name":"Place des Ecoles","postalCode":"3966","locality":"Chalais","commune":{"key":"6232","name":"Chalais","shortName":"Chalais"},"district":{"key":"2311","name":"District de Sierre"},"canton":{"key":"23","code":"VS","name":"Valais / Wallis"},"status":"Real"},{"key":"10112244","name":"Place du Cori","postalCode":"3966","locality":"Chalais","commune":{"key":"6232","name":"Chalais","shortName":"Chalais"},"district":{"key":"2311","name":"District de Sierre"},"canton":{"key":"23","code":"VS","name":"Valais / Wallis"},"status":"Real"},{"key":"10257964","name":"Route d'Antonett","postalCode":"3966","locality":"Chalais","commune":{"key":"6232","name":"Chalais","shortName":"Chalais"},"district":{"key":"2311","name":"District de Sierre"},"canton":{"key":"23","code":"VS","name":"Valais / Wallis"},"status":"Real"},{"key":"10151768","name":"Route de Briey de Chippis","postalCode":"3966","locality":"Chalais","commune":{"key":"6232","name":"Chalais","shortName":"Chalais"},"district":{"key":"2311","name":"District de Sierre"},"canton":{"key":"23","code":"VS","name":"Valais / Wallis"},"status":"Real"},{"key":"10042761","name":"Route de Chippis","postalCode":"3966","locality":"Chalais","commune":{"key":"6232","name":"Chalais","shortName":"Chalais"},"district":{"key":"2311","name":"District de Sierre"},"canton":{"key":"23","code":"VS","name":"Valais / Wallis"},"status":"Real"},{"key":"10257979","name":"Route de la Combache","postalCode":"3966","locality":"Chalais","commune":{"key":"6232","name":"Chalais","shortName":"Chalais"},"district":{"key":"2311","name":"District de Sierre"},"canton":{"key":"23","code":"VS","name":"Valais / Wallis"},"status":"Real"},{"key":"10112248","name":"Route de la Cure","postalCode":"3966","locality":"Chalais","commune":{"key":"6232","name":"Chalais","shortName":"Chalais"},"district":{"key":"2311","name":"District de Sierre"},"canton":{"key":"23","code":"VS","name":"Valais / Wallis"},"status":"Real"},{"key":"10153962","name":"Route de l'Eglise","postalCode":"3966","locality":"Chalais","commune":{"key":"6232","name":"Chalais","shortName":"Chalais"},"district":{"key":"2311","name":"District de Sierre"},"canton":{"key":"23","code":"VS","name":"Valais / Wallis"},"status":"Real"},{"key":"10257963","name":"Route des Combettes","postalCode":"3966","locality":"Chalais","commune":{"key":"6232","name":"Chalais","shortName":"Chalais"},"district":{"key":"2311","name":"District de Sierre"},"canton":{"key":"23","code":"VS","name":"Valais / Wallis"},"status":"Real"},{"key":"10252621","name":"Route des Crétillons","postalCode":"3966","locality":"Chalais","commune":{"key":"6232","name":"Chalais","shortName":"Chalais"},"district":{"key":"2311","name":"District de Sierre"},"canton":{"key":"23","code":"VS","name":"Valais / Wallis"},"status":"Real"},{"key":"10131624","name":"Route des Zittes","postalCode":"3966","locality":"Chalais","commune":{"key":"6232","name":"Chalais","shortName":"Chalais"},"district":{"key":"2311","name":"District de Sierre"},"canton":{"key":"23","code":"VS","name":"Valais / Wallis"},"status":"Real"},{"key":"10257952","name":"Route de Tsanfleurier","postalCode":"3966","locality":"Chalais","commune":{"key":"6232","name":"Chalais","shortName":"Chalais"},"district":{"key":"2311","name":"District de Sierre"},"canton":{"key":"23","code":"VS","name":"Valais / Wallis"},"status":"Real"},{"key":"10118427","name":"Route de Vercorin","postalCode":"3966","locality":"Chalais","commune":{"key":"6232","name":"Chalais","shortName":"Chalais"},"district":{"key":"2311","name":"District de Sierre"},"canton":{"key":"23","code":"VS","name":"Valais / Wallis"},"status":"Real"},{"key":"10257974","name":"Route du Perrec","postalCode":"3966","locality":"Chalais","commune":{"key":"6232","name":"Chalais","shortName":"Chalais"},"district":{"key":"2311","name":"District de Sierre"},"canton":{"key":"23","code":"VS","name":"Valais / Wallis"},"status":"Real"},{"key":"10256727","name":"Rue Centrale","postalCode":"3966","locality":"Chalais","commune":{"key":"6232","name":"Chalais","shortName":"Chalais"},"district":{"key":"2311","name":"District de Sierre"},"canton":{"key":"23","code":"VS","name":"Valais / Wallis"},"status":"Real"},{"key":"10112257","name":"Rue de la Bourgeoisie","postalCode":"3966","locality":"Chalais","commune":{"key":"6232","name":"Chalais","shortName":"Chalais"},"district":{"key":"2311","name":"District de Sierre"},"canton":{"key":"23","code":"VS","name":"Valais / Wallis"},"status":"Real"},{"key":"10112255","name":"Rue de la Forge","postalCode":"3966","locality":"Chalais","commune":{"key":"6232","name":"Chalais","shortName":"Chalais"},"district":{"key":"2311","name":"District de Sierre"},"canton":{"key":"23","code":"VS","name":"Valais / Wallis"},"status":"Real"},{"key":"10112253","name":"Rue de la Laiterie","postalCode":"3966","locality":"Chalais","commune":{"key":"6232","name":"Chalais","shortName":"Chalais"},"district":{"key":"2311","name":"District de Sierre"},"canton":{"key":"23","code":"VS","name":"Valais / Wallis"},"status":"Real"},{"key":"10042764","name":"Rue de la Tour","postalCode":"3966","locality":"Chalais","commune":{"key":"6232","name":"Chalais","shortName":"Chalais"},"district":{"key":"2311","name":"District de Sierre"},"canton":{"key":"23","code":"VS","name":"Valais / Wallis"},"status":"Real"},{"key":"10112251","name":"Rue de la Vieille Poste","postalCode":"3966","locality":"Chalais","commune":{"key":"6232","name":"Chalais","shortName":"Chalais"},"district":{"key":"2311","name":"District de Sierre"},"canton":{"key":"23","code":"VS","name":"Valais / Wallis"},"status":"Real"},{"key":"10112242","name":"Rue des Bouchià","postalCode":"3966","locality":"Chalais","commune":{"key":"6232","name":"Chalais","shortName":"Chalais"},"district":{"key":"2311","name":"District de Sierre"},"canton":{"key":"23","code":"VS","name":"Valais / Wallis"},"status":"Real"},{"key":"10207632","name":"Rue des Bouchià","postalCode":"3966","locality":"Chalais","commune":{"key":"6232","name":"Chalais","shortName":"Chalais"},"district":{"key":"2311","name":"District de Sierre"},"canton":{"key":"23","code":"VS","name":"Valais / Wallis"},"status":"Real"},{"key":"10112243","name":"Rue des Chevaliers","postalCode":"3966","locality":"Chalais","commune":{"key":"6232","name":"Chalais","shortName":"Chalais"},"district":{"key":"2311","name":"District de Sierre"},"canton":{"key":"23","code":"VS","name":"Valais / Wallis"},"status":"Real"},{"key":"10074941","name":"Rue des Crêtes","postalCode":"3966","locality":"Chalais","commune":{"key":"6232","name":"Chalais","shortName":"Chalais"},"district":{"key":"2311","name":"District de Sierre"},"canton":{"key":"23","code":"VS","name":"Valais / Wallis"},"status":"Real"},{"key":"10106132","name":"Rue des Harroz","postalCode":"3966","locality":"Chalais","commune":{"key":"6232","name":"Chalais","shortName":"Chalais"},"district":{"key":"2311","name":"District de Sierre"},"canton":{"key":"23","code":"VS","name":"Valais / Wallis"},"status":"Real"},{"key":"10074942","name":"Rue des Zittes","postalCode":"3966","locality":"Chalais","commune":{"key":"6232","name":"Chalais","shortName":"Chalais"},"district":{"key":"2311","name":"District de Sierre"},"canton":{"key":"23","code":"VS","name":"Valais / Wallis"},"status":"Real"},{"key":"10074940","name":"Rue du Fuidjou","postalCode":"3966","locality":"Chalais","commune":{"key":"6232","name":"Chalais","shortName":"Chalais"},"district":{"key":"2311","name":"District de Sierre"},"canton":{"key":"23","code":"VS","name":"Valais / Wallis"},"status":"Real"},{"key":"10112238","name":"Rue du Téléphérique","postalCode":"3966","locality":"Chalais","commune":{"key":"6232","name":"Chalais","shortName":"Chalais"},"district":{"key":"2311","name":"District de Sierre"},"canton":{"key":"23","code":"VS","name":"Valais / Wallis"},"status":"Real"},{"key":"10074937","name":"Ruelle de Bayer","postalCode":"3966","locality":"Chalais","commune":{"key":"6232","name":"Chalais","shortName":"Chalais"},"district":{"key":"2311","name":"District de Sierre"},"canton":{"key":"23","code":"VS","name":"Valais / Wallis"},"status":"Real"},{"key":"10112254","name":"Ruelle de Bochyr","postalCode":"3966","locality":"Chalais","commune":{"key":"6232","name":"Chalais","shortName":"Chalais"},"district":{"key":"2311","name":"District de Sierre"},"canton":{"key":"23","code":"VS","name":"Valais / Wallis"},"status":"Real"},{"key":"10112245","name":"Ruelle de Bozon","postalCode":"3966","locality":"Chalais","commune":{"key":"6232","name":"Chalais","shortName":"Chalais"},"district":{"key":"2311","name":"District de Sierre"},"canton":{"key":"23","code":"VS","name":"Valais / Wallis"},"status":"Real"},{"key":"10112250","name":"Ruelle de la Cible","postalCode":"3966","locality":"Chalais","commune":{"key":"6232","name":"Chalais","shortName":"Chalais"},"district":{"key":"2311","name":"District de Sierre"},"canton":{"key":"23","code":"VS","name":"Valais / Wallis"},"status":"Real"},{"key":"10112980","name":"Ruelle de l'Epicerie","postalCode":"3966","locality":"Chalais","commune":{"key":"6232","name":"Chalais","shortName":"Chalais"},"district":{"key":"2311","name":"District de Sierre"},"canton":{"key":"23","code":"VS","name":"Valais / Wallis"},"status":"Real"},{"key":"10112256","name":"Ruelle de Paris","postalCode":"3966","locality":"Chalais","commune":{"key":"6232","name":"Chalais","shortName":"Chalais"},"district":{"key":"2311","name":"District de Sierre"},"canton":{"key":"23","code":"VS","name":"Valais / Wallis"},"status":"Real"},{"key":"10112262","name":"Ruelle des Artisans","postalCode":"3966","locality":"Chalais","commune":{"key":"6232","name":"Chalais","shortName":"Chalais"},"district":{"key":"2311","name":"District de Sierre"},"canton":{"key":"23","code":"VS","name":"Valais / Wallis"},"status":"Real"},{"key":"10112978","name":"Ruelle des Arts","postalCode":"3966","locality":"Chalais","commune":{"key":"6232","name":"Chalais","shortName":"Chalais"},"district":{"key":"2311","name":"District de Sierre"},"canton":{"key":"23","code":"VS","name":"Valais / Wallis"},"status":"Real"},{"key":"10112249","name":"Ruelle des Granges","postalCode":"3966","locality":"Chalais","commune":{"key":"6232","name":"Chalais","shortName":"Chalais"},"district":{"key":"2311","name":"District de Sierre"},"canton":{"key":"23","code":"VS","name":"Valais / Wallis"},"status":"Real"},{"key":"10154776","name":"Ruelle du Parc à Moutons","postalCode":"3966","locality":"Chalais","commune":{"key":"6232","name":"Chalais","shortName":"Chalais"},"district":{"key":"2311","name":"District de Sierre"},"canton":{"key":"23","code":"VS","name":"Valais / Wallis"},"status":"Real"},{"key":"10169361","name":"Vieille Route","postalCode":"3966","locality":"Chalais","commune":{"key":"6232","name":"Chalais","shortName":"Chalais"},"district":{"key":"2311","name":"District de Sierre"},"canton":{"key":"23","code":"VS","name":"Valais / Wallis"},"status":"Real"},{"key":"10243137","name":"Vieux Chemin de Chippis","postalCode":"3966","locality":"Chalais","commune":{"key":"6232","name":"Chalais","shortName":"Chalais"},"district":{"key":"2311","name":"District de Sierre"},"canton":{"key":"23","code":"VS","name":"Valais / Wallis"},"status":"Real"},]